{"type":"FeatureCollection","features":[{"type": "Feature", "id": "13d0DLAB9-2OeYQiRutBBHNrV-U=", "properties": {"ref": "00848", "@spider": "24_hour_fitness", "addr:street": "6830 E. County Line Rd.", "addr:city": "Highlands Ranch", "addr:state": "CO", "addr:postcode": "80126", "name": "Centennial", "phone": "3037408898", "website": "https://www.24hourfitness.com/Website/clubList/club/00848", "brand": "24 Hour Fitness", "brand:wikidata": "Q4631849"}, "geometry": {"type": "Point", "coordinates": [-104.911452, 39.565972]}},
{"type": "Feature", "id": "mJvG2iod5-NAECCswfUYm4yaKdw=", "properties": {"ref": "00642", "@spider": "24_hour_fitness", "addr:street": "150 Sylvan Avenue", "addr:city": "Englewood Cliffs", "addr:state": "NJ", "addr:postcode": "07632", "name": "Englewood Cliffs", "phone": "2014080029", "website": "https://www.24hourfitness.com/Website/clubList/club/00642", "brand": "24 Hour Fitness", "brand:wikidata": "Q4631849"}, "geometry": {"type": "Point", "coordinates": [-73.956375, 40.87006]}},
{"type": "Feature", "id": "VoMjFffiWmNjR1fkUT8iIgYdUsk=", "properties": {"ref": "00301", "@spider": "24_hour_fitness", "addr:street": "11528 Gulf Freeway", "addr:city": "Houston", "addr:state": "TX", "addr:postcode": "77034", "name": "Gulf Freeway", "phone": "7139432220", "website": "https://www.24hourfitness.com/Website/clubList/club/00301", "brand": "24 Hour Fitness", "brand:wikidata": "Q4631849"}, "geometry": {"type": "Point", "coordinates": [-95.2318, 29.6298]}},
{"type": "Feature", "id": "4TIrDUvNKLbPyPWErABJxcfJAbI=", "properties": {"ref": "00494", "@spider": "24_hour_fitness", "addr:street": "2126 Hilltop Mall Rd", "addr:city": "Richmond", "addr:state": "CA", "addr:postcode": "94806", "name": "Richmond", "phone": "5107582224", "website": "https://www.24hourfitness.com/Website/clubList/club/00494", "brand": "24 Hour Fitness", "brand:wikidata": "Q4631849"}, "geometry": {"type": "Point", "coordinates": [-122.324921, 37.982026]}},
{"type": "Feature", "id": "CUfRT0qnUd4bj44Kb47_7d0PVtw=", "properties": {"ref": "00118", "@spider": "24_hour_fitness", "addr:street": "3699 Wilshire Blvd, Suite 110", "addr:city": "Los Angeles", "addr:state": "CA", "addr:postcode": "90010", "name": "Mid Wilshire", "phone": "2133882700", "website": "https://www.24hourfitness.com/Website/clubList/club/00118", "brand": "24 Hour Fitness", "brand:wikidata": "Q4631849"}, "geometry": {"type": "Point", "coordinates": [-118.306699, 34.0617]}},
{"type": "Feature", "id": "VUSBxWGJC-KyTzeKayHZtj3mnlc=", "properties": {"ref": "00105", "@spider": "24_hour_fitness", "addr:street": "5858 Warner Avenue", "addr:city": "Huntington Beach", "addr:state": "CA", "addr:postcode": "92649", "name": "Huntington Beach Warner Avenue", "phone": "7148403888", "website": "https://www.24hourfitness.com/Website/clubList/club/00105", "brand": "24 Hour Fitness", "brand:wikidata": "Q4631849"}, "geometry": {"type": "Point", "coordinates": [-118.026623, 33.7154]}},
{"type": "Feature", "id": "W_lItH5rN3XS2QcA6FCPVAcw_0g=", "properties": {"ref": "00970", "@spider": "24_hour_fitness", "addr:street": "20600 108th Avenue SE", "addr:city": "Kent", "addr:state": "WA", "addr:postcode": "98031", "name": "Panther Lake", "phone": "2532202342", "website": "https://www.24hourfitness.com/Website/clubList/club/00970", "brand": "24 Hour Fitness", "brand:wikidata": "Q4631849"}, "geometry": {"type": "Point", "coordinates": [-122.196971, 47.417164]}},
{"type": "Feature", "id": "eCMMpYJlPPzsI0lfx3RjMkz6Xvs=", "properties": {"ref": "00372", "@spider": "24_hour_fitness", "addr:street": "1000 East 41st Street", "addr:city": "Austin", "addr:state": "TX", "addr:postcode": "78751", "name": "Hancock Center", "phone": "5124582424", "website": "https://www.24hourfitness.com/Website/clubList/club/00372", "brand": "24 Hour Fitness", "brand:wikidata": "Q4631849"}, "geometry": {"type": "Point", "coordinates": [-97.718999, 30.298]}},
{"type": "Feature", "id": "UcEqizKalfjw6K9HKsklBR56g-I=", "properties": {"ref": "00891", "@spider": "24_hour_fitness", "addr:street": "1870 Harbor Blvd  Suite B4", "addr:city": "Costa Mesa", "addr:state": "CA", "addr:postcode": "92627", "name": "Costa Mesa Newport", "phone": "9496100651", "website": "https://www.24hourfitness.com/Website/clubList/club/00891", "brand": "24 Hour Fitness", "brand:wikidata": "Q4631849"}, "geometry": {"type": "Point", "coordinates": [-117.918939, 33.642727]}},
{"type": "Feature", "id": "6phu3v317Ujb5Zjj8m5TSaZqXsk=", "properties": {"ref": "00080", "@spider": "24_hour_fitness", "addr:street": "4655 Frazee Road", "addr:city": "Oceanside", "addr:state": "CA", "addr:postcode": "92056", "name": "Oceanside", "phone": "7607573712", "website": "https://www.24hourfitness.com/Website/clubList/club/00080", "brand": "24 Hour Fitness", "brand:wikidata": "Q4631849"}, "geometry": {"type": "Point", "coordinates": [-117.297503, 33.238121]}},
{"type": "Feature", "id": "e5ukKvMKwi9L7jmsHfkt6itT3CY=", "properties": {"ref": "00674", "@spider": "24_hour_fitness", "addr:street": "2300 Fort Worth Avenue", "addr:city": "Dallas", "addr:state": "TX", "addr:postcode": "75211-1811", "name": "Kessler Park", "phone": "2143772559", "website": "https://www.24hourfitness.com/Website/clubList/club/00674", "brand": "24 Hour Fitness", "brand:wikidata": "Q4631849"}, "geometry": {"type": "Point", "coordinates": [-96.890915, 32.736446]}},
{"type": "Feature", "id": "8dh19S-xi2sj1KsyGqUtbqzdd9c=", "properties": {"ref": "00699", "@spider": "24_hour_fitness", "addr:street": "5208 South State HWY 360", "addr:city": "Grand Prairie", "addr:state": "TX", "addr:postcode": "75052", "name": "Grand Prairie", "phone": "8175241000", "website": "https://www.24hourfitness.com/Website/clubList/club/00699", "brand": "24 Hour Fitness", "brand:wikidata": "Q4631849"}, "geometry": {"type": "Point", "coordinates": [-97.061278, 32.655403]}},
{"type": "Feature", "id": "qzPkNA49NIgq26TvykQEFs42HvA=", "properties": {"ref": "00670", "@spider": "24_hour_fitness", "addr:street": "1000 Lake Plaza Drive", "addr:city": "Spring", "addr:state": "TX", "addr:postcode": "77389", "name": "Spring Energy", "phone": "3463723746", "website": "https://www.24hourfitness.com/Website/clubList/club/00670", "brand": "24 Hour Fitness", "brand:wikidata": "Q4631849"}, "geometry": {"type": "Point", "coordinates": [-95.4396, 30.096]}},
{"type": "Feature", "id": "UDvyKKLZUn8wCGD3wc9OAC7Mn2M=", "properties": {"ref": "00575", "@spider": "24_hour_fitness", "addr:street": "6095 SE Tualatin Valley Hwy", "addr:city": "Hillsboro", "addr:state": "OR", "addr:postcode": "97123", "name": "Hillsboro", "phone": "5033561445", "website": "https://www.24hourfitness.com/Website/clubList/club/00575", "brand": "24 Hour Fitness", "brand:wikidata": "Q4631849"}, "geometry": {"type": "Point", "coordinates": [-122.923605, 45.499703]}},
{"type": "Feature", "id": "oga2xL8ryv-FD76BBhWw5A-3aDs=", "properties": {"ref": "00592", "@spider": "24_hour_fitness", "addr:street": "336 North Sunrise Ave.", "addr:city": "Roseville", "addr:state": "CA", "addr:postcode": "95661", "name": "Roseville", "phone": "9167722400", "website": "https://www.24hourfitness.com/Website/clubList/club/00592", "brand": "24 Hour Fitness", "brand:wikidata": "Q4631849"}, "geometry": {"type": "Point", "coordinates": [-121.260825, 38.752916]}},
{"type": "Feature", "id": "AkjKKOcmjanZ3BQOu-9naiAdTDU=", "properties": {"ref": "00640", "@spider": "24_hour_fitness", "addr:street": "887 Pelham Parkway", "addr:city": "Pelham Manor", "addr:state": "NY", "addr:postcode": "10803", "name": "Pelham Manor", "phone": "9142293042", "website": "https://www.24hourfitness.com/Website/clubList/club/00640", "brand": "24 Hour Fitness", "brand:wikidata": "Q4631849"}, "geometry": {"type": "Point", "coordinates": [-73.819929, 40.892904]}},
{"type": "Feature", "id": "8jKr3GlSwdsUCNj6YPiSeP71W3E=", "properties": {"ref": "00492", "@spider": "24_hour_fitness", "addr:street": "7320 170th Ave NE", "addr:city": "Redmond", "addr:state": "WA", "addr:postcode": "98052", "name": "Redmond", "phone": "4256411111", "website": "https://www.24hourfitness.com/Website/clubList/club/00492", "brand": "24 Hour Fitness", "brand:wikidata": "Q4631849"}, "geometry": {"type": "Point", "coordinates": [-122.115116, 47.668699]}},
{"type": "Feature", "id": "TJ83oMydBT3hOWwaYkkcEf506Lo=", "properties": {"ref": "00636", "@spider": "24_hour_fitness", "addr:street": "1101 Resource Avenue", "addr:city": "Orlando", "addr:state": "FL", "addr:postcode": "32835", "name": "Kirkman", "phone": "3214450296", "website": "https://www.24hourfitness.com/Website/clubList/club/00636", "brand": "24 Hour Fitness", "brand:wikidata": "Q4631849"}, "geometry": {"type": "Point", "coordinates": [-81.443628, 28.519319]}},
{"type": "Feature", "id": "7NPLVibVb7xTW3xTLSSiyIzaTUw=", "properties": {"ref": "00860", "@spider": "24_hour_fitness", "addr:street": "21560 Valley Blvd.", "addr:city": "City of Industry", "addr:state": "CA", "addr:postcode": "91789", "name": "City of Industry", "phone": "9099786046", "website": "https://www.24hourfitness.com/Website/clubList/club/00860", "brand": "24 Hour Fitness", "brand:wikidata": "Q4631849"}, "geometry": {"type": "Point", "coordinates": [-117.836939, 34.025867]}},
{"type": "Feature", "id": "GAECiE0u8ROFrElc_BXnk23g4fg=", "properties": {"ref": "00151", "@spider": "24_hour_fitness", "addr:street": "2556 Wigwam Pkwy", "addr:city": "Henderson", "addr:state": "NV", "addr:postcode": "89074", "name": "Wigwam", "phone": "7028962400", "website": "https://www.24hourfitness.com/Website/clubList/club/00151", "brand": "24 Hour Fitness", "brand:wikidata": "Q4631849"}, "geometry": {"type": "Point", "coordinates": [-115.098497, 36.034485]}},
{"type": "Feature", "id": "Z80FJVDhDABZAfadu5DEKMhjQfg=", "properties": {"ref": "00088", "@spider": "24_hour_fitness", "addr:street": "6380 West Sunset Blvd.", "addr:city": "Hollywood", "addr:state": "CA", "addr:postcode": "90028", "name": "Hollywood", "phone": "3106527440", "website": "https://www.24hourfitness.com/Website/clubList/club/00088", "brand": "24 Hour Fitness", "brand:wikidata": "Q4631849"}, "geometry": {"type": "Point", "coordinates": [-118.328411, 34.098]}},
{"type": "Feature", "id": "ZIRWSucs70klrXeDL90z27dhQKw=", "properties": {"ref": "00171", "@spider": "24_hour_fitness", "addr:street": "22331 El Paseo", "addr:city": "Rancho Santa Margarita", "addr:state": "CA", "addr:postcode": "92688", "name": "Rancho Santa Margarita", "phone": "9495898500", "website": "https://www.24hourfitness.com/Website/clubList/club/00171", "brand": "24 Hour Fitness", "brand:wikidata": "Q4631849"}, "geometry": {"type": "Point", "coordinates": [-117.592868, 33.63843]}},
{"type": "Feature", "id": "b90QO6Ox942wixv8WtL3PjkneLA=", "properties": {"ref": "00390", "@spider": "24_hour_fitness", "addr:street": "3300 North Central Expressway Suite A", "addr:city": "Plano", "addr:state": "TX", "addr:postcode": "75074", "name": "East Plano", "phone": "2142914959", "website": "https://www.24hourfitness.com/Website/clubList/club/00390", "brand": "24 Hour Fitness", "brand:wikidata": "Q4631849"}, "geometry": {"type": "Point", "coordinates": [-96.703717, 33.03809]}},
{"type": "Feature", "id": "MGbz90yHCvNXt7yhBwX88iGtTpk=", "properties": {"ref": "00875", "@spider": "24_hour_fitness", "addr:street": "2086 Newpark Mall Road", "addr:city": "Newark", "addr:state": "CA", "addr:postcode": "94560", "name": "Newark NewPark Mall", "phone": "5104949348", "website": "https://www.24hourfitness.com/Website/clubList/club/00875", "brand": "24 Hour Fitness", "brand:wikidata": "Q4631849"}, "geometry": {"type": "Point", "coordinates": [-121.9974, 37.525982]}},
{"type": "Feature", "id": "AEixagM_Qmb24Nkv0kFkgyTM964=", "properties": {"ref": "00183", "@spider": "24_hour_fitness", "addr:street": "2929 31st Street", "addr:city": "Santa Monica", "addr:state": "CA", "addr:postcode": "90405", "name": "Santa Monica", "phone": "3104504464", "website": "https://www.24hourfitness.com/Website/clubList/club/00183", "brand": "24 Hour Fitness", "brand:wikidata": "Q4631849"}, "geometry": {"type": "Point", "coordinates": [-118.451141, 34.018928]}},
{"type": "Feature", "id": "VjNf7y1bSOmpHEWNsqVlrpnxBi0=", "properties": {"ref": "00054", "@spider": "24_hour_fitness", "addr:street": "820 State Street", "addr:city": "Santa Barbara", "addr:state": "CA", "addr:postcode": "93101", "name": "Santa Barbara", "phone": "8058994008", "website": "https://www.24hourfitness.com/Website/clubList/club/00054", "brand": "24 Hour Fitness", "brand:wikidata": "Q4631849"}, "geometry": {"type": "Point", "coordinates": [-119.699567, 34.41987]}},
{"type": "Feature", "id": "m96mTpif2QrexckCRNN-ah79h_c=", "properties": {"ref": "00867", "@spider": "24_hour_fitness", "addr:street": "500 N. Atlantic Blvd. Suite A-102-1", "addr:city": "Monterey Park", "addr:state": "CA", "addr:postcode": "91754", "name": "Monterey Park", "phone": "6265372144", "website": "https://www.24hourfitness.com/Website/clubList/club/00867", "brand": "24 Hour Fitness", "brand:wikidata": "Q4631849"}, "geometry": {"type": "Point", "coordinates": [-118.134349, 34.067333]}},
{"type": "Feature", "id": "3RdHWMmYkTSobxuDsc_Mz7AtyFE=", "properties": {"ref": "00927", "@spider": "24_hour_fitness", "addr:street": "3409 Via Montebello", "addr:city": "Carlsbad", "addr:state": "CA", "addr:postcode": "92009", "name": "La Costa", "phone": "7607040369", "website": "https://www.24hourfitness.com/Website/clubList/club/00927", "brand": "24 Hour Fitness", "brand:wikidata": "Q4631849"}, "geometry": {"type": "Point", "coordinates": [-117.236407, 33.081552]}},
{"type": "Feature", "id": "IdKEWIVIotmYhuhlhVSlDc0BJVE=", "properties": {"ref": "00065", "@spider": "24_hour_fitness", "addr:street": "909 Garnet Avenue", "addr:city": "San Diego", "addr:state": "CA", "addr:postcode": "92109", "name": "Pacific Beach (San Diego)", "phone": "8582706024", "website": "https://www.24hourfitness.com/Website/clubList/club/00065", "brand": "24 Hour Fitness", "brand:wikidata": "Q4631849"}, "geometry": {"type": "Point", "coordinates": [-117.253435, 32.797036]}},
{"type": "Feature", "id": "Vn0yJxiMPXY3IqifvmughLoGjmg=", "properties": {"ref": "00871", "@spider": "24_hour_fitness", "addr:street": "18825 Bear Valley Road", "addr:city": "Apple Valley", "addr:state": "CA", "addr:postcode": "92308", "name": "Apple Valley", "phone": "7608104067", "website": "https://www.24hourfitness.com/Website/clubList/club/00871", "brand": "24 Hour Fitness", "brand:wikidata": "Q4631849"}, "geometry": {"type": "Point", "coordinates": [-117.253318, 34.470971]}},
{"type": "Feature", "id": "gKMAkvwqp7o97-hhTwruGpZ83-8=", "properties": {"ref": "00855", "@spider": "24_hour_fitness", "addr:street": "8430 On the Mall", "addr:city": "Buena Park", "addr:state": "CA", "addr:postcode": "90620", "name": "Buena Park", "phone": "7142361800", "website": "https://www.24hourfitness.com/Website/clubList/club/00855", "brand": "24 Hour Fitness", "brand:wikidata": "Q4631849"}, "geometry": {"type": "Point", "coordinates": [-117.989581, 33.8432]}},
{"type": "Feature", "id": "0WZttHe8jgaHn8cWW74J_SspMPE=", "properties": {"ref": "00937", "@spider": "24_hour_fitness", "addr:street": "10636 San Pablo Avenue", "addr:city": "El Cerrito", "addr:state": "CA", "addr:postcode": "94530-2620", "name": "El Cerrito", "phone": "5109006279", "website": "https://www.24hourfitness.com/Website/clubList/club/00937", "brand": "24 Hour Fitness", "brand:wikidata": "Q4631849"}, "geometry": {"type": "Point", "coordinates": [-122.308859, 37.91181]}},
{"type": "Feature", "id": "-9aph46bPkmCb4XmbkaELO4G60I=", "properties": {"ref": "00888", "@spider": "24_hour_fitness", "addr:street": "4425 La Jolla Village Dr", "addr:city": "San Diego", "addr:state": "CA", "addr:postcode": "92122", "name": "UTC", "phone": "8584573930", "website": "https://www.24hourfitness.com/Website/clubList/club/00888", "brand": "24 Hour Fitness", "brand:wikidata": "Q4631849"}, "geometry": {"type": "Point", "coordinates": [-117.21178, 32.873121]}},
{"type": "Feature", "id": "SeHrRSf318BtcxhchbFz1bdych4=", "properties": {"ref": "00562", "@spider": "24_hour_fitness", "addr:street": "1210 NW Johnson St.", "addr:city": "Portland", "addr:state": "OR", "addr:postcode": "97209", "name": "The Pearl", "phone": "5032221210", "website": "https://www.24hourfitness.com/Website/clubList/club/00562", "brand": "24 Hour Fitness", "brand:wikidata": "Q4631849"}, "geometry": {"type": "Point", "coordinates": [-122.683389, 45.528689]}},
{"type": "Feature", "id": "aENgcTC_O_eANMbMPLthoF2uSWg=", "properties": {"ref": "00346", "@spider": "24_hour_fitness", "addr:street": "1892 Southgate Road", "addr:city": "Colorado Springs", "addr:state": "CO", "addr:postcode": "80906", "name": "Broadmoor", "phone": "7196332442", "website": "https://www.24hourfitness.com/Website/clubList/club/00346", "brand": "24 Hour Fitness", "brand:wikidata": "Q4631849"}, "geometry": {"type": "Point", "coordinates": [-104.818544, 38.803369]}},
{"type": "Feature", "id": "S_DZLgoiQKR1XOd-Y1s51gDBMvc=", "properties": {"ref": "00577", "@spider": "24_hour_fitness", "addr:street": "6 Petaluma Blvd North", "addr:city": "Petaluma", "addr:state": "CA", "addr:postcode": "94952", "name": "Petaluma", "phone": "7077899050", "website": "https://www.24hourfitness.com/Website/clubList/club/00577", "brand": "24 Hour Fitness", "brand:wikidata": "Q4631849"}, "geometry": {"type": "Point", "coordinates": [-122.639352, 38.233423]}},
{"type": "Feature", "id": "dRNbCb_AYA2kDY-P7bMxqdMabK8=", "properties": {"ref": "00910", "@spider": "24_hour_fitness", "addr:street": "1357 E. Gladstone St.", "addr:city": "Glendora", "addr:state": "CA", "addr:postcode": "91741", "name": "Glendora", "phone": "6268042403", "website": "https://www.24hourfitness.com/Website/clubList/club/00910", "brand": "24 Hour Fitness", "brand:wikidata": "Q4631849"}, "geometry": {"type": "Point", "coordinates": [-117.83815, 34.1139]}},
{"type": "Feature", "id": "JAqts_V1PZ8E3IBsPuAC_xIyHpE=", "properties": {"ref": "00102", "@spider": "24_hour_fitness", "addr:street": "1660 Broadway", "addr:city": "Chula Vista", "addr:state": "CA", "addr:postcode": "91911", "name": "Chula Vista", "phone": "6194256600", "website": "https://www.24hourfitness.com/Website/clubList/club/00102", "brand": "24 Hour Fitness", "brand:wikidata": "Q4631849"}, "geometry": {"type": "Point", "coordinates": [-117.076014, 32.596252]}},
{"type": "Feature", "id": "JPpl2V8y1OdsHYcIr-QNiXxAAOU=", "properties": {"ref": "00668", "@spider": "24_hour_fitness", "addr:street": "2900 Iris Avenue", "addr:city": "Boulder", "addr:state": "CO", "addr:postcode": "80301", "name": "North Boulder Iris", "phone": "3032099274", "website": "https://www.24hourfitness.com/Website/clubList/club/00668", "brand": "24 Hour Fitness", "brand:wikidata": "Q4631849"}, "geometry": {"type": "Point", "coordinates": [-105.255142, 40.0365]}},
{"type": "Feature", "id": "L3wwIZ6hMgbwAaPcSp0wErWjzu4=", "properties": {"ref": "00593", "@spider": "24_hour_fitness", "addr:street": "7120 Kalanianaole Hwy", "addr:city": "Honolulu", "addr:state": "HI", "addr:postcode": "96825", "name": "Hawaii Kai", "phone": "8083962424", "website": "https://www.24hourfitness.com/Website/clubList/club/00593", "brand": "24 Hour Fitness", "brand:wikidata": "Q4631849"}, "geometry": {"type": "Point", "coordinates": [-157.706714, 21.277595]}},
{"type": "Feature", "id": "msEQKfVZtJEr5IytkPyL-EyDiUo=", "properties": {"ref": "00602", "@spider": "24_hour_fitness", "addr:street": "719 E. Calaveras Blvd.", "addr:city": "Milpitas", "addr:state": "CA", "addr:postcode": "95035", "name": "Milpitas", "phone": "4088561961", "website": "https://www.24hourfitness.com/Website/clubList/club/00602", "brand": "24 Hour Fitness", "brand:wikidata": "Q4631849"}, "geometry": {"type": "Point", "coordinates": [-121.894087, 37.4335]}},
{"type": "Feature", "id": "OimHSRp0ZNLIeuc-S9odMlp0lc4=", "properties": {"ref": "00598", "@spider": "24_hour_fitness", "addr:street": "1020 7th Street", "addr:city": "Sacramento", "addr:state": "CA", "addr:postcode": "95814", "name": "Downtown Sacramento", "phone": "9166581626", "website": "https://www.24hourfitness.com/Website/clubList/club/00598", "brand": "24 Hour Fitness", "brand:wikidata": "Q4631849"}, "geometry": {"type": "Point", "coordinates": [-121.497581, 38.581096]}},
{"type": "Feature", "id": "s8thblZt6rR0NBN9xE4lJssY2-A=", "properties": {"ref": "00960", "@spider": "24_hour_fitness", "addr:street": "13019 NE Fourth Plain Blvd", "addr:city": "Vancouver", "addr:state": "WA", "addr:postcode": "98682", "name": "Vancouver 131st Ave", "phone": "3602534033", "website": "https://www.24hourfitness.com/Website/clubList/club/00960", "brand": "24 Hour Fitness", "brand:wikidata": "Q4631849"}, "geometry": {"type": "Point", "coordinates": [-122.538763, 45.670742]}},
{"type": "Feature", "id": "E8SY05Is2aRBYHISrOz5qQ_T1XU=", "properties": {"ref": "00594", "@spider": "24_hour_fitness", "addr:street": "1211 E. Arques Ave.", "addr:city": "Sunnyvale", "addr:state": "CA", "addr:postcode": "94086", "name": "East Arques", "phone": "4087490300", "website": "https://www.24hourfitness.com/Website/clubList/club/00594", "brand": "24 Hour Fitness", "brand:wikidata": "Q4631849"}, "geometry": {"type": "Point", "coordinates": [-121.995193, 37.3805]}},
{"type": "Feature", "id": "t97bJ9PzMmU7s10QMdbJCz2sTTw=", "properties": {"ref": "00460", "@spider": "24_hour_fitness", "addr:street": "11445 Twenty Mile Rd", "addr:city": "Parker", "addr:state": "CO", "addr:postcode": "80134", "name": "South Parker", "phone": "3033029289", "website": "https://www.24hourfitness.com/Website/clubList/club/00460", "brand": "24 Hour Fitness", "brand:wikidata": "Q4631849"}, "geometry": {"type": "Point", "coordinates": [-104.7691795, 39.5083545]}},
{"type": "Feature", "id": "nwAll1hfijo080E8__Emap4Efao=", "properties": {"ref": "00844", "@spider": "24_hour_fitness", "addr:street": "130 E. Imperial Highway", "addr:city": "Fullerton", "addr:state": "CA", "addr:postcode": "92835", "name": "Fullerton", "phone": "7148690643", "website": "https://www.24hourfitness.com/Website/clubList/club/00844", "brand": "24 Hour Fitness", "brand:wikidata": "Q4631849"}, "geometry": {"type": "Point", "coordinates": [-117.931707, 33.917335]}},
{"type": "Feature", "id": "fH6SzvLazxQOBTQUSpbtsUF9XwA=", "properties": {"ref": "00892", "@spider": "24_hour_fitness", "addr:street": "7715 Balboa Ave", "addr:city": "San Diego", "addr:state": "CA", "addr:postcode": "92111", "name": "Balboa", "phone": "8582927079", "website": "https://www.24hourfitness.com/Website/clubList/club/00892", "brand": "24 Hour Fitness", "brand:wikidata": "Q4631849"}, "geometry": {"type": "Point", "coordinates": [-117.157621, 32.821708]}},
{"type": "Feature", "id": "Ypxtuxeaj5A9_3Q65NRmhM5YmUI=", "properties": {"ref": "00815", "@spider": "24_hour_fitness", "addr:street": "6345 Commerce Blvd", "addr:city": "Rohnert Park", "addr:state": "CA", "addr:postcode": "94928", "name": "Rohnert Park", "phone": "7075360048", "website": "https://www.24hourfitness.com/Website/clubList/club/00815", "brand": "24 Hour Fitness", "brand:wikidata": "Q4631849"}, "geometry": {"type": "Point", "coordinates": [-122.709536, 38.347768]}},
{"type": "Feature", "id": "MW_2WNUBuVB-btR_MVKYG9ohwmU=", "properties": {"ref": "00665", "@spider": "24_hour_fitness", "addr:street": "6000 Quebec St.", "addr:city": "Fort Worth", "addr:state": "TX", "addr:postcode": "76135", "name": "Lake Worth", "phone": "6822339434", "website": "https://www.24hourfitness.com/Website/clubList/club/00665", "brand": "24 Hour Fitness", "brand:wikidata": "Q4631849"}, "geometry": {"type": "Point", "coordinates": [-97.427269, 32.805525]}},
{"type": "Feature", "id": "vm5oDWTNclr4SmBeHQ8e0OqlzxU=", "properties": {"ref": "00614", "@spider": "24_hour_fitness", "addr:street": "1327 Centennial Ave", "addr:city": "Piscataway", "addr:state": "NJ", "addr:postcode": "08854", "name": "Piscataway", "phone": "7324006065", "website": "https://www.24hourfitness.com/Website/clubList/club/00614", "brand": "24 Hour Fitness", "brand:wikidata": "Q4631849"}, "geometry": {"type": "Point", "coordinates": [-74.439979, 40.551976]}},
{"type": "Feature", "id": "s_l-qpqP4rASp2HV6F9OOC7irtk=", "properties": {"ref": "00267", "@spider": "24_hour_fitness", "addr:street": "1970 NW 117 Pl", "addr:city": "Miami", "addr:state": "FL", "addr:postcode": "33182", "name": "Doral West", "phone": "3053970627", "website": "https://www.24hourfitness.com/Website/clubList/club/00267", "brand": "24 Hour Fitness", "brand:wikidata": "Q4631849"}, "geometry": {"type": "Point", "coordinates": [-80.3897939, 25.7892368]}},
{"type": "Feature", "id": "WIXPLf7Td9_PXQI6SQ8rGc5lWRY=", "properties": {"ref": "00157", "@spider": "24_hour_fitness", "addr:street": "23166 Los Alisos Blvd 140", "addr:city": "Mission Viejo", "addr:state": "CA", "addr:postcode": "92691", "name": "Mission Viejo", "phone": "9498556800", "website": "https://www.24hourfitness.com/Website/clubList/club/00157", "brand": "24 Hour Fitness", "brand:wikidata": "Q4631849"}, "geometry": {"type": "Point", "coordinates": [-117.67782, 33.6273]}},
{"type": "Feature", "id": "fOLXeU7Wd7POhXhKq5ps6KE3xMU=", "properties": {"ref": "00846", "@spider": "24_hour_fitness", "addr:street": "3350 Telegraph Road", "addr:city": "Ventura", "addr:state": "CA", "addr:postcode": "93003", "name": "Ventura", "phone": "8052566071", "website": "https://www.24hourfitness.com/Website/clubList/club/00846", "brand": "24 Hour Fitness", "brand:wikidata": "Q4631849"}, "geometry": {"type": "Point", "coordinates": [-119.250331, 34.272696]}},
{"type": "Feature", "id": "MQyViWEKUMSqLNma0Na6R_ZPOSw=", "properties": {"ref": "00560", "@spider": "24_hour_fitness", "addr:street": "7600 Greenhaven Drive 15", "addr:city": "Sacramento", "addr:state": "CA", "addr:postcode": "95831", "name": "Riverlake", "phone": "9163998181", "website": "https://www.24hourfitness.com/Website/clubList/club/00560", "brand": "24 Hour Fitness", "brand:wikidata": "Q4631849"}, "geometry": {"type": "Point", "coordinates": [-121.516399, 38.480801]}},
{"type": "Feature", "id": "qMojdA9NWvTe4aqjICXMfdA3lxA=", "properties": {"ref": "00963", "@spider": "24_hour_fitness", "addr:street": "91-5431 Kapolei Parkway", "addr:city": "Kapolei", "addr:state": "HI", "addr:postcode": "96707", "name": "Kapolei Parkway", "phone": "8082373101", "website": "https://www.24hourfitness.com/Website/clubList/club/00963", "brand": "24 Hour Fitness", "brand:wikidata": "Q4631849"}, "geometry": {"type": "Point", "coordinates": [-158.052212, 21.335768]}},
{"type": "Feature", "id": "pBsJ2gArv9pwqXx4XdGCiD2Qrdc=", "properties": {"ref": "00734", "@spider": "24_hour_fitness", "addr:street": "4000 Jericho Turnpike", "addr:city": "East Northport", "addr:state": "NY", "addr:postcode": "11731-6285", "name": "East Northport", "phone": "6318375011", "website": "https://www.24hourfitness.com/Website/clubList/club/00734", "brand": "24 Hour Fitness", "brand:wikidata": "Q4631849"}, "geometry": {"type": "Point", "coordinates": [-73.316223, 40.840094]}},
{"type": "Feature", "id": "ax4kzr6iBfHGyI9RBicNXKJYj3Y=", "properties": {"ref": "00669", "@spider": "24_hour_fitness", "addr:street": "851 N. Highway 287", "addr:city": "Lafayette", "addr:state": "CO", "addr:postcode": "80026", "name": "Lafayette", "phone": "3033028086", "website": "https://www.24hourfitness.com/Website/clubList/club/00669", "brand": "24 Hour Fitness", "brand:wikidata": "Q4631849"}, "geometry": {"type": "Point", "coordinates": [-105.102993, 40.005812]}},
{"type": "Feature", "id": "guEKipMOIw9JVdMY-pjcdb0UgkQ=", "properties": {"ref": "00902", "@spider": "24_hour_fitness", "addr:street": "4240 Redondo Beach Blvd", "addr:city": "Torrance", "addr:state": "CA", "addr:postcode": "90504", "name": "North Torrance", "phone": "3107501143", "website": "https://www.24hourfitness.com/Website/clubList/club/00902", "brand": "24 Hour Fitness", "brand:wikidata": "Q4631849"}, "geometry": {"type": "Point", "coordinates": [-118.349539, 33.875423]}},
{"type": "Feature", "id": "PMPxEWS5qpWZ9OsXD-4lAYO4e6w=", "properties": {"ref": "00659", "@spider": "24_hour_fitness", "addr:street": "2500 Dunstan Road", "addr:city": "Houston", "addr:state": "TX", "addr:postcode": "77005", "name": "Houston Rice Village", "phone": "7136623481", "website": "https://www.24hourfitness.com/Website/clubList/club/00659", "brand": "24 Hour Fitness", "brand:wikidata": "Q4631849"}, "geometry": {"type": "Point", "coordinates": [-95.416689, 29.719049]}},
{"type": "Feature", "id": "5XfMtsTisUKei6WqktL_kzXhmn4=", "properties": {"ref": "00539", "@spider": "24_hour_fitness", "addr:street": "1850 Ocean Avenue", "addr:city": "San Francisco", "addr:state": "CA", "addr:postcode": "94112", "name": "Ocean", "phone": "4153341400", "website": "https://www.24hourfitness.com/Website/clubList/club/00539", "brand": "24 Hour Fitness", "brand:wikidata": "Q4631849"}, "geometry": {"type": "Point", "coordinates": [-122.461804, 37.725103]}},
{"type": "Feature", "id": "CyOQi1p_69QY9AwTU1Soq0IdpR0=", "properties": {"ref": "00513", "@spider": "24_hour_fitness", "addr:street": "550 Showers Drive", "addr:city": "Mountain View", "addr:state": "CA", "addr:postcode": "94040", "name": "Mountain View", "phone": "6509412268", "website": "https://www.24hourfitness.com/Website/clubList/club/00513", "brand": "24 Hour Fitness", "brand:wikidata": "Q4631849"}, "geometry": {"type": "Point", "coordinates": [-122.108244, 37.400972]}},
{"type": "Feature", "id": "vDQyPRqViPwssmPWDLTH9x-qryI=", "properties": {"ref": "00521", "@spider": "24_hour_fitness", "addr:street": "100 California Street, Suite 200", "addr:city": "San Francisco", "addr:state": "CA", "addr:postcode": "94111", "name": "California Street", "phone": "4154345080", "website": "https://www.24hourfitness.com/Website/clubList/club/00521", "brand": "24 Hour Fitness", "brand:wikidata": "Q4631849"}, "geometry": {"type": "Point", "coordinates": [-122.397501, 37.793499]}},
{"type": "Feature", "id": "wt7NYknof-ZsalqfxktbhQCmvOs=", "properties": {"ref": "00062", "@spider": "24_hour_fitness", "addr:street": "2180 Lincoln Avenue, BLDG. 4", "addr:city": "Altadena", "addr:state": "CA", "addr:postcode": "91001", "name": "Altadena", "phone": "6262968700", "website": "https://www.24hourfitness.com/Website/clubList/club/00062", "brand": "24 Hour Fitness", "brand:wikidata": "Q4631849"}, "geometry": {"type": "Point", "coordinates": [-118.159699, 34.183311]}},
{"type": "Feature", "id": "tXDz1XPwBbybNERK5SVParfyTH0=", "properties": {"ref": "00179", "@spider": "24_hour_fitness", "addr:street": "525 East Colorado Blvd", "addr:city": "Pasadena", "addr:state": "CA", "addr:postcode": "91101", "name": "Pasadena Downtown", "phone": "6267957121", "website": "https://www.24hourfitness.com/Website/clubList/club/00179", "brand": "24 Hour Fitness", "brand:wikidata": "Q4631849"}, "geometry": {"type": "Point", "coordinates": [-118.139338, 34.1458]}},
{"type": "Feature", "id": "d1wsdAry4RKROw159QtBhx_CtZU=", "properties": {"ref": "00192", "@spider": "24_hour_fitness", "addr:street": "945 E. Dominguez St.", "addr:city": "Carson", "addr:state": "CA", "addr:postcode": "90746", "name": "Carson", "phone": "3103231424", "website": "https://www.24hourfitness.com/Website/clubList/club/00192", "brand": "24 Hour Fitness", "brand:wikidata": "Q4631849"}, "geometry": {"type": "Point", "coordinates": [-118.258809, 33.8404]}},
{"type": "Feature", "id": "VxafSlufdgjceCDgo4ucs0aaahM=", "properties": {"ref": "00198", "@spider": "24_hour_fitness", "addr:street": "275 Teller Street Suite 100", "addr:city": "Corona", "addr:state": "CA", "addr:postcode": "92879", "name": "Corona", "phone": "9517340121", "website": "https://www.24hourfitness.com/Website/clubList/club/00198", "brand": "24 Hour Fitness", "brand:wikidata": "Q4631849"}, "geometry": {"type": "Point", "coordinates": [-117.523007, 33.883623]}},
{"type": "Feature", "id": "icL7KPJQnn14atQtx2g81sNmjRE=", "properties": {"ref": "00423", "@spider": "24_hour_fitness", "addr:street": "10052 SE Washington Street", "addr:city": "Portland", "addr:state": "OR", "addr:postcode": "97216", "name": "Mall 205 (Portland)", "phone": "5032522447", "website": "https://www.24hourfitness.com/Website/clubList/club/00423", "brand": "24 Hour Fitness", "brand:wikidata": "Q4631849"}, "geometry": {"type": "Point", "coordinates": [-122.559729, 45.5183]}},
{"type": "Feature", "id": "2hbGoI5Si-n0i2Dpx9CSZyc9eAQ=", "properties": {"ref": "00504", "@spider": "24_hour_fitness", "addr:street": "1825 Hillsdale Ave", "addr:city": "San Jose", "addr:state": "CA", "addr:postcode": "95124", "name": "Hillsdale", "phone": "4087232639", "website": "https://www.24hourfitness.com/Website/clubList/club/00504", "brand": "24 Hour Fitness", "brand:wikidata": "Q4631849"}, "geometry": {"type": "Point", "coordinates": [-121.917888, 37.26317]}},
{"type": "Feature", "id": "Y5LxYtx5MZU5Em3IpovtJOeJ5qc=", "properties": {"ref": "00389", "@spider": "24_hour_fitness", "addr:street": "361 Southwind Lane", "addr:city": "Fairview", "addr:state": "TX", "addr:postcode": "75069", "name": "Fairview", "phone": "4696565039", "website": "https://www.24hourfitness.com/Website/clubList/club/00389", "brand": "24 Hour Fitness", "brand:wikidata": "Q4631849"}, "geometry": {"type": "Point", "coordinates": [-96.6467304, 33.1306173]}},
{"type": "Feature", "id": "A69B8_yS8JoVkeXRubQsVbnczvs=", "properties": {"ref": "00916", "@spider": "24_hour_fitness", "addr:street": "110 Towne Center Drive", "addr:city": "Compton", "addr:state": "CA", "addr:postcode": "90220", "name": "Compton", "phone": "3107359114", "website": "https://www.24hourfitness.com/Website/clubList/club/00916", "brand": "24 Hour Fitness", "brand:wikidata": "Q4631849"}, "geometry": {"type": "Point", "coordinates": [-118.22107, 33.87742]}},
{"type": "Feature", "id": "tpg4IoZO3fWCMRQaHgZ6Kyxzns0=", "properties": {"ref": "00936", "@spider": "24_hour_fitness", "addr:street": "1 World Trade Center 110", "addr:city": "Long Beach", "addr:state": "CA", "addr:postcode": "90831", "name": "Downtown Long Beach", "phone": "5622067150", "website": "https://www.24hourfitness.com/Website/clubList/club/00936", "brand": "24 Hour Fitness", "brand:wikidata": "Q4631849"}, "geometry": {"type": "Point", "coordinates": [-118.199382, 33.768571]}},
{"type": "Feature", "id": "9lliEYoFn4-2rjFlokCOYhxz0lY=", "properties": {"ref": "00641", "@spider": "24_hour_fitness", "addr:street": "150 Triangle Plaza", "addr:city": "Ramsey", "addr:state": "NJ", "addr:postcode": "07446", "name": "Ramsey", "phone": "2015740852", "website": "https://www.24hourfitness.com/Website/clubList/club/00641", "brand": "24 Hour Fitness", "brand:wikidata": "Q4631849"}, "geometry": {"type": "Point", "coordinates": [-74.122773, 41.061923]}},
{"type": "Feature", "id": "YmPmoamUlU27txFy2qo5rXARRXU=", "properties": {"ref": "00532", "@spider": "24_hour_fitness", "addr:street": "2050 Webster Street", "addr:city": "Oakland", "addr:state": "CA", "addr:postcode": "94612", "name": "Oakland", "phone": "5104331140", "website": "https://www.24hourfitness.com/Website/clubList/club/00532", "brand": "24 Hour Fitness", "brand:wikidata": "Q4631849"}, "geometry": {"type": "Point", "coordinates": [-122.265897, 37.809107]}},
{"type": "Feature", "id": "Y_8HTGS9XuucxM_y2j-7PfuuqO4=", "properties": {"ref": "00491", "@spider": "24_hour_fitness", "addr:street": "17942 SW McEwan Road", "addr:city": "Tigard", "addr:state": "OR", "addr:postcode": "97224", "name": "Tualatin", "phone": "5036700400", "website": "https://www.24hourfitness.com/Website/clubList/club/00491", "brand": "24 Hour Fitness", "brand:wikidata": "Q4631849"}, "geometry": {"type": "Point", "coordinates": [-122.747826, 45.39334]}},
{"type": "Feature", "id": "WFlh7ky_Cu_PyqoC6iYR6XYFtEY=", "properties": {"ref": "00501", "@spider": "24_hour_fitness", "addr:street": "304 Bayfair Mall", "addr:city": "San Leandro", "addr:state": "CA", "addr:postcode": "94578", "name": "San Leandro", "phone": "5102789744", "website": "https://www.24hourfitness.com/Website/clubList/club/00501", "brand": "24 Hour Fitness", "brand:wikidata": "Q4631849"}, "geometry": {"type": "Point", "coordinates": [-122.129069, 37.700226]}},
{"type": "Feature", "id": "D0ywjgeOlHqtODrJ5iJc90vWXdc=", "properties": {"ref": "00555", "@spider": "24_hour_fitness", "addr:street": "1000 Bishop St.", "addr:city": "Honolulu", "addr:state": "HI", "addr:postcode": "96813", "name": "Bishop", "phone": "8085455510", "website": "https://www.24hourfitness.com/Website/clubList/club/00555", "brand": "24 Hour Fitness", "brand:wikidata": "Q4631849"}, "geometry": {"type": "Point", "coordinates": [-157.861499, 21.3085]}},
{"type": "Feature", "id": "0_rKt3ZwXRBkBlRy89mNzLa85l0=", "properties": {"ref": "00930", "@spider": "24_hour_fitness", "addr:street": "2200 Eastridge Loop", "addr:city": "San Jose", "addr:state": "CA", "addr:postcode": "95122", "name": "Eastridge", "phone": "4085133124", "website": "https://www.24hourfitness.com/Website/clubList/club/00930", "brand": "24 Hour Fitness", "brand:wikidata": "Q4631849"}, "geometry": {"type": "Point", "coordinates": [-121.817241, 37.326782]}},
{"type": "Feature", "id": "mdWQL3vuYNNkwARsJL9G_2AUtFA=", "properties": {"ref": "00186", "@spider": "24_hour_fitness", "addr:street": "3030 N Bellflower Blvd", "addr:city": "Long Beach", "addr:state": "CA", "addr:postcode": "90808", "name": "Long Beach", "phone": "5624201444", "website": "https://www.24hourfitness.com/Website/clubList/club/00186", "brand": "24 Hour Fitness", "brand:wikidata": "Q4631849"}, "geometry": {"type": "Point", "coordinates": [-118.125199, 33.8114]}},
{"type": "Feature", "id": "m-k6xwbYf87j4pRdr7tgpNTkJNQ=", "properties": {"ref": "00543", "@spider": "24_hour_fitness", "addr:street": "39300 Paseo Padre Pkwy", "addr:city": "Fremont", "addr:state": "CA", "addr:postcode": "94538", "name": "Paseo Padre", "phone": "5107956666", "website": "https://www.24hourfitness.com/Website/clubList/club/00543", "brand": "24 Hour Fitness", "brand:wikidata": "Q4631849"}, "geometry": {"type": "Point", "coordinates": [-121.978865, 37.552386]}},
{"type": "Feature", "id": "Ze-UaJTbAqiWm1ArWG9Ow8Q9MHs=", "properties": {"ref": "00496", "@spider": "24_hour_fitness", "addr:street": "1000 Kamehameha Hwy", "addr:city": "Pearl City", "addr:state": "HI", "addr:postcode": "96782", "name": "Pearl City", "phone": "8084862424", "website": "https://www.24hourfitness.com/Website/clubList/club/00496", "brand": "24 Hour Fitness", "brand:wikidata": "Q4631849"}, "geometry": {"type": "Point", "coordinates": [-157.972326, 21.39471]}},
{"type": "Feature", "id": "0dpNmE6pqzsi3Xgq-0TEUt9COVQ=", "properties": {"ref": "00733", "@spider": "24_hour_fitness", "addr:street": "600 Lee Boulevard", "addr:city": "Yorktown Heights", "addr:state": "NY", "addr:postcode": "10598-1142", "name": "Yorktown Heights", "phone": "9143528080", "website": "https://www.24hourfitness.com/Website/clubList/club/00733", "brand": "24 Hour Fitness", "brand:wikidata": "Q4631849"}, "geometry": {"type": "Point", "coordinates": [-73.807026, 41.32633]}},
{"type": "Feature", "id": "cGbtwR0Emi7NDPcKlRjVknzlGno=", "properties": {"ref": "00094", "@spider": "24_hour_fitness", "addr:street": "9550 Miramar Road", "addr:city": "San Diego", "addr:state": "CA", "addr:postcode": "92126", "name": "Miramar Town Center", "phone": "8586933500", "website": "https://www.24hourfitness.com/Website/clubList/club/00094", "brand": "24 Hour Fitness", "brand:wikidata": "Q4631849"}, "geometry": {"type": "Point", "coordinates": [-117.122519, 32.893876]}},
{"type": "Feature", "id": "VDWlVSiBr5ew_EX0AzjnSeBB9bI=", "properties": {"ref": "00498", "@spider": "24_hour_fitness", "addr:street": "7905 Walerga Rd.", "addr:city": "Antelope", "addr:state": "CA", "addr:postcode": "95843", "name": "Antelope Marketplace", "phone": "9167232432", "website": "https://www.24hourfitness.com/Website/clubList/club/00498", "brand": "24 Hour Fitness", "brand:wikidata": "Q4631849"}, "geometry": {"type": "Point", "coordinates": [-121.364397, 38.712864]}},
{"type": "Feature", "id": "YsuHLNM6DDc35ht3bcw51PW0HxY=", "properties": {"ref": "00545", "@spider": "24_hour_fitness", "addr:street": "1645 Bryant Street", "addr:city": "San Francisco", "addr:state": "CA", "addr:postcode": "94103", "name": "Potrero", "phone": "4154374188", "website": "https://www.24hourfitness.com/Website/clubList/club/00545", "brand": "24 Hour Fitness", "brand:wikidata": "Q4631849"}, "geometry": {"type": "Point", "coordinates": [-122.410507, 37.766483]}},
{"type": "Feature", "id": "2KFoblHFreZUvxdJuxxKycwNIWI=", "properties": {"ref": "00862", "@spider": "24_hour_fitness", "addr:street": "27921 La Paz Road", "addr:city": "Laguna Niguel", "addr:state": "CA", "addr:postcode": "92677", "name": "Laguna Niguel", "phone": "9496141024", "website": "https://www.24hourfitness.com/Website/clubList/club/00862", "brand": "24 Hour Fitness", "brand:wikidata": "Q4631849"}, "geometry": {"type": "Point", "coordinates": [-117.709323, 33.557369]}},
{"type": "Feature", "id": "ou58EuBTeadhCIhwIQ3t65zgSE0=", "properties": {"ref": "00805", "@spider": "24_hour_fitness", "addr:street": "979 Broadway Avenue", "addr:city": "Millbrae", "addr:state": "CA", "addr:postcode": "94030", "name": "Millbrae", "phone": "6506511003", "website": "https://www.24hourfitness.com/Website/clubList/club/00805", "brand": "24 Hour Fitness", "brand:wikidata": "Q4631849"}, "geometry": {"type": "Point", "coordinates": [-122.397463, 37.605198]}},
{"type": "Feature", "id": "Cf2JP5Ua0mbOwhEA3i3tuuw1JYc=", "properties": {"ref": "00435", "@spider": "24_hour_fitness", "addr:street": "45 Montgomery St.", "addr:city": "San Francisco", "addr:state": "CA", "addr:postcode": "94104", "name": "Sutter-Montgomery", "phone": "4156232424", "website": "https://www.24hourfitness.com/Website/clubList/club/00435", "brand": "24 Hour Fitness", "brand:wikidata": "Q4631849"}, "geometry": {"type": "Point", "coordinates": [-122.402043, 37.789505]}},
{"type": "Feature", "id": "41tPy_izSfNWnh0EDjzUFHAl5sY=", "properties": {"ref": "00365", "@spider": "24_hour_fitness", "addr:street": "11100 Central Expressway", "addr:city": "Dallas", "addr:state": "TX", "addr:postcode": "75243", "name": "Central & Royal (Dallas)", "phone": "2143600024", "website": "https://www.24hourfitness.com/Website/clubList/club/00365", "brand": "24 Hour Fitness", "brand:wikidata": "Q4631849"}, "geometry": {"type": "Point", "coordinates": [-96.76867, 32.899393]}},
{"type": "Feature", "id": "whqlN1m4b9I80_e_lN2qyrBRG5s=", "properties": {"ref": "00352", "@spider": "24_hour_fitness", "addr:street": "7400 East Hampden Avenue", "addr:city": "Denver", "addr:state": "CO", "addr:postcode": "80231", "name": "Tiffany Plaza (Denver)", "phone": "3037130224", "website": "https://www.24hourfitness.com/Website/clubList/club/00352", "brand": "24 Hour Fitness", "brand:wikidata": "Q4631849"}, "geometry": {"type": "Point", "coordinates": [-104.901991, 39.65312]}},
{"type": "Feature", "id": "pLVgyTlmj5WqqBAFwWX_sRfoHME=", "properties": {"ref": "00847", "@spider": "24_hour_fitness", "addr:street": "1335 W. Renaissance Pkwy", "addr:city": "Rialto", "addr:state": "CA", "addr:postcode": "92376", "name": "Renaissance Marketplace", "phone": "9093205289", "website": "https://www.24hourfitness.com/Website/clubList/club/00847", "brand": "24 Hour Fitness", "brand:wikidata": "Q4631849"}, "geometry": {"type": "Point", "coordinates": [-117.397302, 34.135108]}},
{"type": "Feature", "id": "qVVZBkmf_acTCEWhgNQS7BY9CEM=", "properties": {"ref": "00512", "@spider": "24_hour_fitness", "addr:street": "4450 Norris Canyon Road", "addr:city": "San Ramon", "addr:state": "CA", "addr:postcode": "94583", "name": "San Ramon", "phone": "9252449855", "website": "https://www.24hourfitness.com/Website/clubList/club/00512", "brand": "24 Hour Fitness", "brand:wikidata": "Q4631849"}, "geometry": {"type": "Point", "coordinates": [-121.969929, 37.772501]}},
{"type": "Feature", "id": "FJ2e-NkiS3RzWRtxR7_ZAIo_7NM=", "properties": {"ref": "00552", "@spider": "24_hour_fitness", "addr:street": "8785 Center Parkway", "addr:city": "Sacramento", "addr:state": "CA", "addr:postcode": "95823", "name": "Laguna", "phone": "9166888733", "website": "https://www.24hourfitness.com/Website/clubList/club/00552", "brand": "24 Hour Fitness", "brand:wikidata": "Q4631849"}, "geometry": {"type": "Point", "coordinates": [-121.41823, 38.438004]}},
{"type": "Feature", "id": "QO6-etRIIHGh8UDrRer0gddNeps=", "properties": {"ref": "00413", "@spider": "24_hour_fitness", "addr:street": "1407 SW 4th Avenue", "addr:city": "Portland", "addr:state": "OR", "addr:postcode": "97201", "name": "Downtown Portland", "phone": "5032242233", "website": "https://www.24hourfitness.com/Website/clubList/club/00413", "brand": "24 Hour Fitness", "brand:wikidata": "Q4631849"}, "geometry": {"type": "Point", "coordinates": [-122.67912, 45.513851]}},
{"type": "Feature", "id": "LKH5w9tXs3JQdm5LQeIGCErIflo=", "properties": {"ref": "00656", "@spider": "24_hour_fitness", "addr:street": "229 East FM 544", "addr:city": "Murphy", "addr:state": "TX", "addr:postcode": "75094", "name": "Murphy", "phone": "9722446995", "website": "https://www.24hourfitness.com/Website/clubList/club/00656", "brand": "24 Hour Fitness", "brand:wikidata": "Q4631849"}, "geometry": {"type": "Point", "coordinates": [-96.604364, 33.011405]}},
{"type": "Feature", "id": "RBvQy7mkPrZuqWKKi5m-0qWKySU=", "properties": {"ref": "00679", "@spider": "24_hour_fitness", "addr:street": "10011 Broadway St.", "addr:city": "Pearland", "addr:state": "TX", "addr:postcode": "77584", "name": "Pearland", "phone": "7134362570", "website": "https://www.24hourfitness.com/Website/clubList/club/00679", "brand": "24 Hour Fitness", "brand:wikidata": "Q4631849"}, "geometry": {"type": "Point", "coordinates": [-95.374746, 29.5561]}},
{"type": "Feature", "id": "YwOgrxD3j4vbbPcxnDTXj9LbX5M=", "properties": {"ref": "00060", "@spider": "24_hour_fitness", "addr:street": "3633 Avocado Blvd", "addr:city": "La Mesa", "addr:state": "CA", "addr:postcode": "91941", "name": "Rancho San Diego", "phone": "6196605024", "website": "https://www.24hourfitness.com/Website/clubList/club/00060", "brand": "24 Hour Fitness", "brand:wikidata": "Q4631849"}, "geometry": {"type": "Point", "coordinates": [-116.963419, 32.746222]}},
{"type": "Feature", "id": "kFI2jpkMfCkPmky-WxOx3jeI3JA=", "properties": {"ref": "00873", "@spider": "24_hour_fitness", "addr:street": "230 E Via Rancho", "addr:city": "Escondido", "addr:state": "CA", "addr:postcode": "92025", "name": "Escondido North County Mall", "phone": "7607059857", "website": "https://www.24hourfitness.com/Website/clubList/club/00873", "brand": "24 Hour Fitness", "brand:wikidata": "Q4631849"}, "geometry": {"type": "Point", "coordinates": [-117.067438, 33.068799]}},
{"type": "Feature", "id": "8GHjnHjCfnWYX4lAeKJSUKa-NY8=", "properties": {"ref": "00191", "@spider": "24_hour_fitness", "addr:street": "10025 Carmel Mountain Road", "addr:city": "San Diego", "addr:state": "CA", "addr:postcode": "92129", "name": "Rancho Penasquitos", "phone": "8585384400", "website": "https://www.24hourfitness.com/Website/clubList/club/00191", "brand": "24 Hour Fitness", "brand:wikidata": "Q4631849"}, "geometry": {"type": "Point", "coordinates": [-117.111824, 32.960699]}},
{"type": "Feature", "id": "fpsdkYnloaQDaVgNBzv6d8uSe0M=", "properties": {"ref": "00540", "@spider": "24_hour_fitness", "addr:street": "1680 Kapiolani Blvd", "addr:city": "Honolulu", "addr:state": "HI", "addr:postcode": "96814", "name": "Honolulu", "phone": "8089517677", "website": "https://www.24hourfitness.com/Website/clubList/club/00540", "brand": "24 Hour Fitness", "brand:wikidata": "Q4631849"}, "geometry": {"type": "Point", "coordinates": [-157.837697, 21.290933]}},
{"type": "Feature", "id": "PgK0QqtYIdGl5ARtiAZ3UOhJIpg=", "properties": {"ref": "00657", "@spider": "24_hour_fitness", "addr:street": "2701 Halloran Street", "addr:city": "Fort Worth", "addr:state": "TX", "addr:postcode": "76107", "name": "Fort Worth Horne", "phone": "6822339397", "website": "https://www.24hourfitness.com/Website/clubList/club/00657", "brand": "24 Hour Fitness", "brand:wikidata": "Q4631849"}, "geometry": {"type": "Point", "coordinates": [-97.409705, 32.734009]}},
{"type": "Feature", "id": "qssEq-WJchYthDSKxRCaQ58FHgE=", "properties": {"ref": "00063", "@spider": "24_hour_fitness", "addr:street": "3600 West Orangewood Ave", "addr:city": "Orange", "addr:state": "CA", "addr:postcode": "92868", "name": "Orangewood", "phone": "7143850024", "website": "https://www.24hourfitness.com/Website/clubList/club/00063", "brand": "24 Hour Fitness", "brand:wikidata": "Q4631849"}, "geometry": {"type": "Point", "coordinates": [-117.878715, 33.795784]}},
{"type": "Feature", "id": "xIxkU2V-jUJnyud_YHipRHiNgho=", "properties": {"ref": "00159", "@spider": "24_hour_fitness", "addr:street": "965 E Birch Street", "addr:city": "Brea", "addr:state": "CA", "addr:postcode": "92821", "name": "Brea", "phone": "7142562500", "website": "https://www.24hourfitness.com/Website/clubList/club/00159", "brand": "24 Hour Fitness", "brand:wikidata": "Q4631849"}, "geometry": {"type": "Point", "coordinates": [-117.885835, 33.917811]}},
{"type": "Feature", "id": "yDvdZF9mNu-aDUJihIboENXt8bg=", "properties": {"ref": "00104", "@spider": "24_hour_fitness", "addr:street": "9906 Mission Gorge Road", "addr:city": "Santee", "addr:state": "CA", "addr:postcode": "92071", "name": "Santee", "phone": "6192583658", "website": "https://www.24hourfitness.com/Website/clubList/club/00104", "brand": "24 Hour Fitness", "brand:wikidata": "Q4631849"}, "geometry": {"type": "Point", "coordinates": [-116.981666, 32.838693]}},
{"type": "Feature", "id": "dJE2EV5KM53sqhLvgiOADCZ8AAw=", "properties": {"ref": "00268", "@spider": "24_hour_fitness", "addr:street": "2920 Aborn Square Road", "addr:city": "San Jose", "addr:state": "CA", "addr:postcode": "95121", "name": "Capitol Expressway", "phone": "4082234411", "website": "https://www.24hourfitness.com/Website/clubList/club/00268", "brand": "24 Hour Fitness", "brand:wikidata": "Q4631849"}, "geometry": {"type": "Point", "coordinates": [-121.810004, 37.313013]}},
{"type": "Feature", "id": "vFpy87RHZSP5apNnaWJVszoVxbs=", "properties": {"ref": "00629", "@spider": "24_hour_fitness", "addr:street": "11645 Red Road, Space H-1", "addr:city": "Miramar", "addr:state": "FL", "addr:postcode": "33025", "name": "Miramar", "phone": "9547441836", "website": "https://www.24hourfitness.com/Website/clubList/club/00629", "brand": "24 Hour Fitness", "brand:wikidata": "Q4631849"}, "geometry": {"type": "Point", "coordinates": [-80.2949, 25.96645]}},
{"type": "Feature", "id": "nCJifY8RqGvwxFs-hYsHbnYm9Kg=", "properties": {"ref": "00272", "@spider": "24_hour_fitness", "addr:street": "567 Floresta Boulevard", "addr:city": "San Leandro", "addr:state": "CA", "addr:postcode": "94578", "name": "Washington", "phone": "5103517579", "website": "https://www.24hourfitness.com/Website/clubList/club/00272", "brand": "24 Hour Fitness", "brand:wikidata": "Q4631849"}, "geometry": {"type": "Point", "coordinates": [-122.143921, 37.702414]}},
{"type": "Feature", "id": "FXGWOjnx33TUbluq3pcec5pkQ1o=", "properties": {"ref": "00931", "@spider": "24_hour_fitness", "addr:street": "17970 Studebaker Road", "addr:city": "Cerritos", "addr:state": "CA", "addr:postcode": "90703", "name": "Cerritos", "phone": "5622635154", "website": "https://www.24hourfitness.com/Website/clubList/club/00931", "brand": "24 Hour Fitness", "brand:wikidata": "Q4631849"}, "geometry": {"type": "Point", "coordinates": [-118.097339, 33.865698]}},
{"type": "Feature", "id": "MTaEvAqbrfR1ZOGBDTG3WepR1vY=", "properties": {"ref": "00923", "@spider": "24_hour_fitness", "addr:street": "17204 Slover Ave", "addr:city": "Fontana", "addr:state": "CA", "addr:postcode": "92337", "name": "Fontana", "phone": "9093578000", "website": "https://www.24hourfitness.com/Website/clubList/club/00923", "brand": "24 Hour Fitness", "brand:wikidata": "Q4631849"}, "geometry": {"type": "Point", "coordinates": [-117.430048, 34.063134]}},
{"type": "Feature", "id": "guYxyR8Rx4TWXwMvZqcuhKfMAME=", "properties": {"ref": "00885", "@spider": "24_hour_fitness", "addr:street": "2800 N. Main St", "addr:city": "Walnut Creek", "addr:state": "CA", "addr:postcode": "94597", "name": "Walnut Creek North Main", "phone": "9253574733", "website": "https://www.24hourfitness.com/Website/clubList/club/00885", "brand": "24 Hour Fitness", "brand:wikidata": "Q4631849"}, "geometry": {"type": "Point", "coordinates": [-122.063145, 37.924687]}},
{"type": "Feature", "id": "Q0SBDD24janANZpT0oXj9UHI5aQ=", "properties": {"ref": "00878", "@spider": "24_hour_fitness", "addr:street": "1220 West Avenue K", "addr:city": "Lancaster", "addr:state": "CA", "addr:postcode": "93534", "name": "Lancaster West", "phone": "6612063045", "website": "https://www.24hourfitness.com/Website/clubList/club/00878", "brand": "24 Hour Fitness", "brand:wikidata": "Q4631849"}, "geometry": {"type": "Point", "coordinates": [-118.152713, 34.6749]}},
{"type": "Feature", "id": "v06-J3wY7bzyJwDPk__5wGexoh4=", "properties": {"ref": "00695", "@spider": "24_hour_fitness", "addr:street": "3501 Garth Road", "addr:city": "Baytown", "addr:state": "TX", "addr:postcode": "77521", "name": "Baytown Garth Road", "phone": "2816916133", "website": "https://www.24hourfitness.com/Website/clubList/club/00695", "brand": "24 Hour Fitness", "brand:wikidata": "Q4631849"}, "geometry": {"type": "Point", "coordinates": [-94.977399, 29.760021]}},
{"type": "Feature", "id": "r3Y5IDbf_yI2uO7f44B61KTYXmU=", "properties": {"ref": "00729", "@spider": "24_hour_fitness", "addr:street": "5205 Fashion Drive", "addr:city": "Nanuet", "addr:state": "NY", "addr:postcode": "10954", "name": "Nanuet", "phone": "8455014316", "website": "https://www.24hourfitness.com/Website/clubList/club/00729", "brand": "24 Hour Fitness", "brand:wikidata": "Q4631849"}, "geometry": {"type": "Point", "coordinates": [-74.014139, 41.101591]}},
{"type": "Feature", "id": "FJ3XxAWWyqLT9PWl46IUsEYcpUA=", "properties": {"ref": "00332", "@spider": "24_hour_fitness", "addr:street": "11420 East Fwy", "addr:city": "Jacinto City", "addr:state": "TX", "addr:postcode": "77029", "name": "Jacinto", "phone": "7134518757", "website": "https://www.24hourfitness.com/Website/clubList/club/00332", "brand": "24 Hour Fitness", "brand:wikidata": "Q4631849"}, "geometry": {"type": "Point", "coordinates": [-95.230999, 29.7723]}},
{"type": "Feature", "id": "O5hT0UhU6w5bXqeig5Xq7Hse8_0=", "properties": {"ref": "00571", "@spider": "24_hour_fitness", "addr:street": "1314 Fulton Ave.", "addr:city": "Sacramento", "addr:state": "CA", "addr:postcode": "95825", "name": "Fulton & Hurley", "phone": "9169257055", "website": "https://www.24hourfitness.com/Website/clubList/club/00571", "brand": "24 Hour Fitness", "brand:wikidata": "Q4631849"}, "geometry": {"type": "Point", "coordinates": [-121.401499, 38.589117]}},
{"type": "Feature", "id": "NhEp4gb0cYbhAB6dLz8IXfvaWPc=", "properties": {"ref": "00490", "@spider": "24_hour_fitness", "addr:street": "5045 W. Slauson Ave.", "addr:city": "Los Angeles", "addr:state": "CA", "addr:postcode": "90056", "name": "La Cienega", "phone": "3232932481", "website": "https://www.24hourfitness.com/Website/clubList/club/00490", "brand": "24 Hour Fitness", "brand:wikidata": "Q4631849"}, "geometry": {"type": "Point", "coordinates": [-118.365777, 33.987647]}},
{"type": "Feature", "id": "j9yFpgqm8VKm8YPVNku7QYC92sY=", "properties": {"ref": "00213", "@spider": "24_hour_fitness", "addr:street": "1375 E. Campbell Rd.", "addr:city": "Richardson", "addr:state": "TX", "addr:postcode": "75081", "name": "Richardson", "phone": "9726444888", "website": "https://www.24hourfitness.com/Website/clubList/club/00213", "brand": "24 Hour Fitness", "brand:wikidata": "Q4631849"}, "geometry": {"type": "Point", "coordinates": [-96.700393, 32.975203]}},
{"type": "Feature", "id": "9J0YTo0SiTjAeW9ArVwxBd9WBhM=", "properties": {"ref": "00823", "@spider": "24_hour_fitness", "addr:street": "3615 El Camino Real", "addr:city": "Santa Clara", "addr:state": "CA", "addr:postcode": "95051", "name": "Santa Clara", "phone": "6692128994", "website": "https://www.24hourfitness.com/Website/clubList/club/00823", "brand": "24 Hour Fitness", "brand:wikidata": "Q4631849"}, "geometry": {"type": "Point", "coordinates": [-121.9972, 37.35427]}},
{"type": "Feature", "id": "yUI1-ufWJYG5-QHiLsE4rzDFvQ0=", "properties": {"ref": "00440", "@spider": "24_hour_fitness", "addr:street": "18006 120th Avenue", "addr:city": "Bothell", "addr:state": "WA", "addr:postcode": "98011", "name": "Bothell", "phone": "4254921911", "website": "https://www.24hourfitness.com/Website/clubList/club/00440", "brand": "24 Hour Fitness", "brand:wikidata": "Q4631849"}, "geometry": {"type": "Point", "coordinates": [-122.176313, 47.760347]}},
{"type": "Feature", "id": "4qJzOjqR79KiSLyLrpPEycVhTY8=", "properties": {"ref": "00334", "@spider": "24_hour_fitness", "addr:street": "6425 San Felipe Street", "addr:city": "Houston", "addr:state": "TX", "addr:postcode": "77057", "name": "Voss", "phone": "7137858334", "website": "https://www.24hourfitness.com/Website/clubList/club/00334", "brand": "24 Hour Fitness", "brand:wikidata": "Q4631849"}, "geometry": {"type": "Point", "coordinates": [-95.498008, 29.750121]}},
{"type": "Feature", "id": "6XcFyEmmsRkDMQ6UUywzPQCxKs0=", "properties": {"ref": "00351", "@spider": "24_hour_fitness", "addr:street": "4120 E. Alameda Avenue", "addr:city": "Denver", "addr:state": "CO", "addr:postcode": "80246", "name": "Alameda Ave (Denver)", "phone": "3033774424", "website": "https://www.24hourfitness.com/Website/clubList/club/00351", "brand": "24 Hour Fitness", "brand:wikidata": "Q4631849"}, "geometry": {"type": "Point", "coordinates": [-104.939428, 39.7114]}},
{"type": "Feature", "id": "uVWl6Np7hZ1aqO6ZAv8dkhIjsDs=", "properties": {"ref": "00290", "@spider": "24_hour_fitness", "addr:street": "8002 Kew Gardens Road", "addr:city": "Kew Gardens", "addr:state": "NY", "addr:postcode": "11415", "name": "Kew Gardens", "phone": "7187930910", "website": "https://www.24hourfitness.com/Website/clubList/club/00290", "brand": "24 Hour Fitness", "brand:wikidata": "Q4631849"}, "geometry": {"type": "Point", "coordinates": [-73.83476, 40.710779]}},
{"type": "Feature", "id": "DR60Rmwt0NNB8LgYVW89wzULnfI=", "properties": {"ref": "00929", "@spider": "24_hour_fitness", "addr:street": "6220 N. Topanga Canyon Blvd", "addr:city": "Woodland Hills", "addr:state": "CA", "addr:postcode": "91367", "name": "Woodland Hills", "phone": "8187371177", "website": "https://www.24hourfitness.com/Website/clubList/club/00929", "brand": "24 Hour Fitness", "brand:wikidata": "Q4631849"}, "geometry": {"type": "Point", "coordinates": [-118.605285, 34.182859]}},
{"type": "Feature", "id": "4vIJZgS3ww50z75epCSLcCQz7wc=", "properties": {"ref": "00081", "@spider": "24_hour_fitness", "addr:street": "1530 West Covina Pkwy", "addr:city": "West Covina", "addr:state": "CA", "addr:postcode": "91790", "name": "West Covina", "phone": "6268512600", "website": "https://www.24hourfitness.com/Website/clubList/club/00081", "brand": "24 Hour Fitness", "brand:wikidata": "Q4631849"}, "geometry": {"type": "Point", "coordinates": [-117.939809, 34.070017]}},
{"type": "Feature", "id": "dc8RlA5c8J4sB2qt7mfOKjwZOuw=", "properties": {"ref": "00955", "@spider": "24_hour_fitness", "addr:street": "4224 NE Halsey St.", "addr:city": "Portland", "addr:state": "OR", "addr:postcode": "97213", "name": "Hollywood OR", "phone": "5032814767", "website": "https://www.24hourfitness.com/Website/clubList/club/00955", "brand": "24 Hour Fitness", "brand:wikidata": "Q4631849"}, "geometry": {"type": "Point", "coordinates": [-122.620005, 45.5338]}},
{"type": "Feature", "id": "M_mCYa0zzAR2bXr3rwjWYGnmkZ8=", "properties": {"ref": "00386", "@spider": "24_hour_fitness", "addr:street": "12680 West 64th Avenue", "addr:city": "Arvada", "addr:state": "CO", "addr:postcode": "80004", "name": "Arvada West", "phone": "3032179721", "website": "https://www.24hourfitness.com/Website/clubList/club/00386", "brand": "24 Hour Fitness", "brand:wikidata": "Q4631849"}, "geometry": {"type": "Point", "coordinates": [-105.141812, 39.81263]}},
{"type": "Feature", "id": "Kf96ANxLeed3SirjeYKELZHr4gI=", "properties": {"ref": "00811", "@spider": "24_hour_fitness", "addr:street": "1610 Crane Court", "addr:city": "San Jose", "addr:state": "CA", "addr:postcode": "95112", "name": "San Jose", "phone": "4084903019", "website": "https://www.24hourfitness.com/Website/clubList/club/00811", "brand": "24 Hour Fitness", "brand:wikidata": "Q4631849"}, "geometry": {"type": "Point", "coordinates": [-121.911797, 37.373008]}},
{"type": "Feature", "id": "sV0tNoSx9Yx2-AQhb2_o-oI-i4A=", "properties": {"ref": "00313", "@spider": "24_hour_fitness", "addr:street": "1017 Bay Area Blvd", "addr:city": "Houston", "addr:state": "TX", "addr:postcode": "77058", "name": "Nasa", "phone": "2812800829", "website": "https://www.24hourfitness.com/Website/clubList/club/00313", "brand": "24 Hour Fitness", "brand:wikidata": "Q4631849"}, "geometry": {"type": "Point", "coordinates": [-95.119897, 29.555157]}},
{"type": "Feature", "id": "Jy0tGCVLMWLdRkgZy6HgoC4iZkQ=", "properties": {"ref": "00781", "@spider": "24_hour_fitness", "addr:street": "14331 Penasquitos Drive", "addr:city": "San Diego", "addr:state": "CA", "addr:postcode": "92129", "name": "Carmel Mountain Ranch", "phone": "8583242095", "website": "https://www.24hourfitness.com/Website/clubList/club/00781", "brand": "24 Hour Fitness", "brand:wikidata": "Q4631849"}, "geometry": {"type": "Point", "coordinates": [-117.089615, 32.977283]}},
{"type": "Feature", "id": "hEYH9eXwWQCYwUULpv2zOGrnwto=", "properties": {"ref": "00415", "@spider": "24_hour_fitness", "addr:street": "11100 SW Murray Scholls Place", "addr:city": "Beaverton", "addr:state": "OR", "addr:postcode": "97007", "name": "Murray Scholls", "phone": "5035795090", "website": "https://www.24hourfitness.com/Website/clubList/club/00415", "brand": "24 Hour Fitness", "brand:wikidata": "Q4631849"}, "geometry": {"type": "Point", "coordinates": [-122.828999, 45.4389]}},
{"type": "Feature", "id": "hM85SEnkMKJS27vY-D-j3ypvwz0=", "properties": {"ref": "00084", "@spider": "24_hour_fitness", "addr:street": "870 Amena Court", "addr:city": "Chula Vista", "addr:state": "CA", "addr:postcode": "91910", "name": "Bonita", "phone": "6196560018", "website": "https://www.24hourfitness.com/Website/clubList/club/00084", "brand": "24 Hour Fitness", "brand:wikidata": "Q4631849"}, "geometry": {"type": "Point", "coordinates": [-117.018899, 32.637177]}},
{"type": "Feature", "id": "Ri0VXVomoWjeFlUU2ucgqn8SZ-M=", "properties": {"ref": "00883", "@spider": "24_hour_fitness", "addr:street": "1903 W. Empire Avenue", "addr:city": "Burbank", "addr:state": "CA", "addr:postcode": "91504", "name": "Burbank Empire", "phone": "8185310257", "website": "https://www.24hourfitness.com/Website/clubList/club/00883", "brand": "24 Hour Fitness", "brand:wikidata": "Q4631849"}, "geometry": {"type": "Point", "coordinates": [-118.331466, 34.1918]}},
{"type": "Feature", "id": "Kuk_RX3BEpnl7KYVux9278XmTxE=", "properties": {"ref": "00058", "@spider": "24_hour_fitness", "addr:street": "1600 S. Azusa Avenue", "addr:city": "City of Industry", "addr:state": "CA", "addr:postcode": "91748", "name": "Puente Hills", "phone": "6268391700", "website": "https://www.24hourfitness.com/Website/clubList/club/00058", "brand": "24 Hour Fitness", "brand:wikidata": "Q4631849"}, "geometry": {"type": "Point", "coordinates": [-117.931599, 33.9935]}},
{"type": "Feature", "id": "oc7K6Xhdf1g6RQ1oNmRjwp2AGYQ=", "properties": {"ref": "00660", "@spider": "24_hour_fitness", "addr:street": "5270 West Grand Parkway South", "addr:city": "Richmond", "addr:state": "TX", "addr:postcode": "77406", "name": "Katy Bella Terra", "phone": "8325867129", "website": "https://www.24hourfitness.com/Website/clubList/club/00660", "brand": "24 Hour Fitness", "brand:wikidata": "Q4631849"}, "geometry": {"type": "Point", "coordinates": [-95.77572, 29.697341]}},
{"type": "Feature", "id": "uXi7kFEw4iKDevgapXrAMdhwliM=", "properties": {"ref": "00180", "@spider": "24_hour_fitness", "addr:street": "4200 Chino Hills Parkway, Suite 780", "addr:city": "Chino Hills", "addr:state": "CA", "addr:postcode": "91709", "name": "Chino Hills Marketplace", "phone": "9093930724", "website": "https://www.24hourfitness.com/Website/clubList/club/00180", "brand": "24 Hour Fitness", "brand:wikidata": "Q4631849"}, "geometry": {"type": "Point", "coordinates": [-117.711999, 33.9826]}},
{"type": "Feature", "id": "jLs6fKnZ6C-aGUHNsmUqrf90haQ=", "properties": {"ref": "00488", "@spider": "24_hour_fitness", "addr:street": "2480 Whipple Rd", "addr:city": "Hayward", "addr:state": "CA", "addr:postcode": "94544", "name": "Hayward Whipple", "phone": "5104040803", "website": "https://www.24hourfitness.com/Website/clubList/club/00488", "brand": "24 Hour Fitness", "brand:wikidata": "Q4631849"}, "geometry": {"type": "Point", "coordinates": [-122.063961, 37.60707]}},
{"type": "Feature", "id": "UV44dB5QOICxVHbr3kEi2uIf8Hg=", "properties": {"ref": "00667", "@spider": "24_hour_fitness", "addr:street": "2208 E. Harmony Road", "addr:city": "Fort Collins", "addr:state": "CO", "addr:postcode": "80528", "name": "Fort Collins", "phone": "9707973036", "website": "https://www.24hourfitness.com/Website/clubList/club/00667", "brand": "24 Hour Fitness", "brand:wikidata": "Q4631849"}, "geometry": {"type": "Point", "coordinates": [-105.037716, 40.5234]}},
{"type": "Feature", "id": "z22fMKRl9HWtLDu7Gp9ATQOPDMg=", "properties": {"ref": "00934", "@spider": "24_hour_fitness", "addr:street": "18730 Amar Road", "addr:city": "Walnut", "addr:state": "CA", "addr:postcode": "91789", "name": "Walnut", "phone": "6269231202", "website": "https://www.24hourfitness.com/Website/clubList/club/00934", "brand": "24 Hour Fitness", "brand:wikidata": "Q4631849"}, "geometry": {"type": "Point", "coordinates": [-117.894346, 34.027747]}},
{"type": "Feature", "id": "_WmZtePBkPOn20K8h9l-akOyXRc=", "properties": {"ref": "00437", "@spider": "24_hour_fitness", "addr:street": "512 South Chambers Road", "addr:city": "Aurora", "addr:state": "CO", "addr:postcode": "80017", "name": "North Aurora Chambers", "phone": "3034811289", "website": "https://www.24hourfitness.com/Website/clubList/club/00437", "brand": "24 Hour Fitness", "brand:wikidata": "Q4631849"}, "geometry": {"type": "Point", "coordinates": [-104.809876, 39.706937]}},
{"type": "Feature", "id": "xX7FPnS-3Sit5PJ1b56x6xvrCAE=", "properties": {"ref": "00881", "@spider": "24_hour_fitness", "addr:street": "4866 State Highway 121", "addr:city": "Lewisville", "addr:state": "TX", "addr:postcode": "75056-2915", "name": "Castle Hills", "phone": "4692373054", "website": "https://www.24hourfitness.com/Website/clubList/club/00881", "brand": "24 Hour Fitness", "brand:wikidata": "Q4631849"}, "geometry": {"type": "Point", "coordinates": [-96.883929, 33.067515]}},
{"type": "Feature", "id": "SjBntFb1BKBu1YcUWcwqkH4CtBY=", "properties": {"ref": "00475", "@spider": "24_hour_fitness", "addr:street": "1050 Broadway St", "addr:city": "Redwood City", "addr:state": "CA", "addr:postcode": "94063", "name": "Redwood City", "phone": "6504805118", "website": "https://www.24hourfitness.com/Website/clubList/club/00475", "brand": "24 Hour Fitness", "brand:wikidata": "Q4631849"}, "geometry": {"type": "Point", "coordinates": [-122.212877, 37.486866]}},
{"type": "Feature", "id": "-jC9Lpw6WE3IlQjuMfaDS0upoQQ=", "properties": {"ref": "00064", "@spider": "24_hour_fitness", "addr:street": "1430 N Lemon St.", "addr:city": "Anaheim", "addr:state": "CA", "addr:postcode": "92801", "name": "Anaheim Gateway", "phone": "7145259924", "website": "https://www.24hourfitness.com/Website/clubList/club/00064", "brand": "24 Hour Fitness", "brand:wikidata": "Q4631849"}, "geometry": {"type": "Point", "coordinates": [-117.919812, 33.854993]}},
{"type": "Feature", "id": "6xz5X-ETHagv5j8Woirvt0LVpOU=", "properties": {"ref": "00528", "@spider": "24_hour_fitness", "addr:street": "9574 Micron Avenue", "addr:city": "Sacramento", "addr:state": "CA", "addr:postcode": "95827", "name": "Rancho Cordova", "phone": "9163634382", "website": "https://www.24hourfitness.com/Website/clubList/club/00528", "brand": "24 Hour Fitness", "brand:wikidata": "Q4631849"}, "geometry": {"type": "Point", "coordinates": [-121.341877, 38.56292]}},
{"type": "Feature", "id": "wbXK_fd1dPI_G55M7Ji4DGxtAHs=", "properties": {"ref": "00921", "@spider": "24_hour_fitness", "addr:street": "42900 Jackson Street", "addr:city": "Indio", "addr:state": "CA", "addr:postcode": "92203", "name": "Indio Jackson Center", "phone": "7602628771", "website": "https://www.24hourfitness.com/Website/clubList/club/00921", "brand": "24 Hour Fitness", "brand:wikidata": "Q4631849"}, "geometry": {"type": "Point", "coordinates": [-116.216574, 33.739246]}},
{"type": "Feature", "id": "HWCIgkqdI8MMSq8yFvgK37tfa7c=", "properties": {"ref": "00925", "@spider": "24_hour_fitness", "addr:street": "12660 Day Street", "addr:city": "Moreno Valley", "addr:state": "CA", "addr:postcode": "92553", "name": "Moreno Valley", "phone": "9515718335", "website": "https://www.24hourfitness.com/Website/clubList/club/00925", "brand": "24 Hour Fitness", "brand:wikidata": "Q4631849"}, "geometry": {"type": "Point", "coordinates": [-117.278728, 33.936154]}},
{"type": "Feature", "id": "YdEe-p2OQ1fcEUjrG-mb7DF2fME=", "properties": {"ref": "00487", "@spider": "24_hour_fitness", "addr:street": "555 Oceana Blvd.", "addr:city": "Pacifica", "addr:state": "CA", "addr:postcode": "94044", "name": "Pacifica", "phone": "6507387824", "website": "https://www.24hourfitness.com/Website/clubList/club/00487", "brand": "24 Hour Fitness", "brand:wikidata": "Q4631849"}, "geometry": {"type": "Point", "coordinates": [-122.490899, 37.647409]}},
{"type": "Feature", "id": "CWWCH1hFZGJKNDS4YMWRlsh3I2g=", "properties": {"ref": "00893", "@spider": "24_hour_fitness", "addr:street": "12354 Limonite Avenue", "addr:city": "Eastvale", "addr:state": "CA", "addr:postcode": "91752-3671", "name": "Eastvale", "phone": "9513601696", "website": "https://www.24hourfitness.com/Website/clubList/club/00893", "brand": "24 Hour Fitness", "brand:wikidata": "Q4631849"}, "geometry": {"type": "Point", "coordinates": [-117.553129, 33.975168]}},
{"type": "Feature", "id": "vlpEbFVxYSk-zSPeSvMTSWmrUEk=", "properties": {"ref": "00457", "@spider": "24_hour_fitness", "addr:street": "5961 Lone Tree Way", "addr:city": "Brentwood", "addr:state": "CA", "addr:postcode": "94513", "name": "Brentwood", "phone": "9253262266", "website": "https://www.24hourfitness.com/Website/clubList/club/00457", "brand": "24 Hour Fitness", "brand:wikidata": "Q4631849"}, "geometry": {"type": "Point", "coordinates": [-121.742949, 37.958698]}},
{"type": "Feature", "id": "xSH44Y6mj0o8RJu0cVym5-RuDTE=", "properties": {"ref": "00506", "@spider": "24_hour_fitness", "addr:street": "150 East Fremont Avenue", "addr:city": "Sunnyvale", "addr:state": "CA", "addr:postcode": "94087", "name": "Sunnyvale Fremont Blvd", "phone": "4087378600", "website": "https://www.24hourfitness.com/Website/clubList/club/00506", "brand": "24 Hour Fitness", "brand:wikidata": "Q4631849"}, "geometry": {"type": "Point", "coordinates": [-122.029913, 37.3521]}},
{"type": "Feature", "id": "bN3A_Be1ldImIoJlxCKfddH8GPQ=", "properties": {"ref": "00329", "@spider": "24_hour_fitness", "addr:street": "6044 South Kipling Pkwy", "addr:city": "Littleton", "addr:state": "CO", "addr:postcode": "80127", "name": "Kipling", "phone": "3039042400", "website": "https://www.24hourfitness.com/Website/clubList/club/00329", "brand": "24 Hour Fitness", "brand:wikidata": "Q4631849"}, "geometry": {"type": "Point", "coordinates": [-105.109799, 39.607102]}},
{"type": "Feature", "id": "_nY4AQ-ImzFJ-PNu08phqRM9ZcU=", "properties": {"ref": "00810", "@spider": "24_hour_fitness", "addr:street": "2306 Almaden Rd Suite 140", "addr:city": "San Jose", "addr:state": "CA", "addr:postcode": "95125", "name": "Willow Glen", "phone": "4085133398", "website": "https://www.24hourfitness.com/Website/clubList/club/00810", "brand": "24 Hour Fitness", "brand:wikidata": "Q4631849"}, "geometry": {"type": "Point", "coordinates": [-121.880276, 37.292157]}},
{"type": "Feature", "id": "c4bBsmNXWyfrgGgCfs5i63EChls=", "properties": {"ref": "00196", "@spider": "24_hour_fitness", "addr:street": "8697 Irvine Center Drive", "addr:city": "Irvine", "addr:state": "CA", "addr:postcode": "92618", "name": "Irvine Center Drive", "phone": "9495850060", "website": "https://www.24hourfitness.com/Website/clubList/club/00196", "brand": "24 Hour Fitness", "brand:wikidata": "Q4631849"}, "geometry": {"type": "Point", "coordinates": [-117.743679, 33.642616]}},
{"type": "Feature", "id": "yG7kiSvVpn33_lQVGjDucOZ24Wo=", "properties": {"ref": "00411", "@spider": "24_hour_fitness", "addr:street": "800 SE Tech Center Drive", "addr:city": "Vancouver", "addr:state": "WA", "addr:postcode": "98683", "name": "Columbia Tech Center", "phone": "3605148381", "website": "https://www.24hourfitness.com/Website/clubList/club/00411", "brand": "24 Hour Fitness", "brand:wikidata": "Q4631849"}, "geometry": {"type": "Point", "coordinates": [-122.495485, 45.615637]}},
{"type": "Feature", "id": "cmztoSrzy0_poTryJ27nNCnDeGw=", "properties": {"ref": "00884", "@spider": "24_hour_fitness", "addr:street": "13752 Jamboree Rd", "addr:city": "Irvine", "addr:state": "CA", "addr:postcode": "92602", "name": "Irvine Marketplace", "phone": "7146651233", "website": "https://www.24hourfitness.com/Website/clubList/club/00884", "brand": "24 Hour Fitness", "brand:wikidata": "Q4631849"}, "geometry": {"type": "Point", "coordinates": [-117.79038, 33.72426]}},
{"type": "Feature", "id": "KbMDfytWGNiQjr3_VJMkRfumWCQ=", "properties": {"ref": "00497", "@spider": "24_hour_fitness", "addr:street": "6223 Santa Teresa Blvd", "addr:city": "San Jose", "addr:state": "CA", "addr:postcode": "95119", "name": "Santa Teresa (San Jose)", "phone": "4082254024", "website": "https://www.24hourfitness.com/Website/clubList/club/00497", "brand": "24 Hour Fitness", "brand:wikidata": "Q4631849"}, "geometry": {"type": "Point", "coordinates": [-121.802248, 37.2371]}},
{"type": "Feature", "id": "NGI8JDf1LNOsuUhN1mDLQ19Kiig=", "properties": {"ref": "00688", "@spider": "24_hour_fitness", "addr:street": "6500 Old Denton Rd.", "addr:city": "Fort Worth", "addr:state": "TX", "addr:postcode": "76131", "name": "Fort Worth Western Center", "phone": "8172328354", "website": "https://www.24hourfitness.com/Website/clubList/club/00688", "brand": "24 Hour Fitness", "brand:wikidata": "Q4631849"}, "geometry": {"type": "Point", "coordinates": [-97.317068, 32.859516]}},
{"type": "Feature", "id": "928wb_-KFpuIi6UoQG5bD2dFo7k=", "properties": {"ref": "00217", "@spider": "24_hour_fitness", "addr:street": "700 South Pine Island Rd.", "addr:city": "Plantation", "addr:state": "FL", "addr:postcode": "33324", "name": "Plantation", "phone": "9544729998", "website": "https://www.24hourfitness.com/Website/clubList/club/00217", "brand": "24 Hour Fitness", "brand:wikidata": "Q4631849"}, "geometry": {"type": "Point", "coordinates": [-80.260399, 26.1124]}},
{"type": "Feature", "id": "XrrhZ4dUDp9vnWWR3PvWP5b1bcw=", "properties": {"ref": "00493", "@spider": "24_hour_fitness", "addr:street": "4500 Auto Mall Parkway", "addr:city": "Fremont", "addr:state": "CA", "addr:postcode": "94538", "name": "Fremont Auto Mall", "phone": "5102266900", "website": "https://www.24hourfitness.com/Website/clubList/club/00493", "brand": "24 Hour Fitness", "brand:wikidata": "Q4631849"}, "geometry": {"type": "Point", "coordinates": [-121.958389, 37.51021]}},
{"type": "Feature", "id": "roOJefL4ADPf4j8MXY_R7aXACl0=", "properties": {"ref": "00615", "@spider": "24_hour_fitness", "addr:street": "75 US Highway 22", "addr:city": "Springfield", "addr:state": "NJ", "addr:postcode": "07081", "name": "Springfield", "phone": "9739128677", "website": "https://www.24hourfitness.com/Website/clubList/club/00615", "brand": "24 Hour Fitness", "brand:wikidata": "Q4631849"}, "geometry": {"type": "Point", "coordinates": [-74.314736, 40.687138]}},
{"type": "Feature", "id": "gvmzKJlYiDJAvYeIHgUFn4KDoEk=", "properties": {"ref": "00375", "@spider": "24_hour_fitness", "addr:street": "301 N. Nolen Drive", "addr:city": "Southlake", "addr:state": "TX", "addr:postcode": "76092", "name": "Southlake", "phone": "8174214024", "website": "https://www.24hourfitness.com/Website/clubList/club/00375", "brand": "24 Hour Fitness", "brand:wikidata": "Q4631849"}, "geometry": {"type": "Point", "coordinates": [-97.115687, 32.940582]}},
{"type": "Feature", "id": "iB9vlmxordJyGzgG8rGyXujhfto=", "properties": {"ref": "00418", "@spider": "24_hour_fitness", "addr:street": "18930 29th Avenue West", "addr:city": "Lynnwood", "addr:state": "WA", "addr:postcode": "98036", "name": "Lynnwood", "phone": "4256975007", "website": "https://www.24hourfitness.com/Website/clubList/club/00418", "brand": "24 Hour Fitness", "brand:wikidata": "Q4631849"}, "geometry": {"type": "Point", "coordinates": [-122.272934, 47.82677]}},
{"type": "Feature", "id": "R0JsMrvOCC4WHAMoahoi228z51Q=", "properties": {"ref": "00882", "@spider": "24_hour_fitness", "addr:street": "5070 Richmond Ave", "addr:city": "Houston", "addr:state": "TX", "addr:postcode": "77056", "name": "Galleria", "phone": "7139639644", "website": "https://www.24hourfitness.com/Website/clubList/club/00882", "brand": "24 Hour Fitness", "brand:wikidata": "Q4631849"}, "geometry": {"type": "Point", "coordinates": [-95.462603, 29.731959]}},
{"type": "Feature", "id": "2wx3-yl5fj6vXrYu_yM-ALM1jHc=", "properties": {"ref": "00933", "@spider": "24_hour_fitness", "addr:street": "897 East Harriman Place", "addr:city": "San Bernardino", "addr:state": "CA", "addr:postcode": "92408", "name": "San Bernardino", "phone": "9095213849", "website": "https://www.24hourfitness.com/Website/clubList/club/00933", "brand": "24 Hour Fitness", "brand:wikidata": "Q4631849"}, "geometry": {"type": "Point", "coordinates": [-117.26697, 34.065764]}},
{"type": "Feature", "id": "QrBVDrorWkR3jEl8F2RyIZ2lIfo=", "properties": {"ref": "00780", "@spider": "24_hour_fitness", "addr:street": "8876 Navajo Road", "addr:city": "San Diego", "addr:state": "CA", "addr:postcode": "92119", "name": "Navajo", "phone": "6199160336", "website": "https://www.24hourfitness.com/Website/clubList/club/00780", "brand": "24 Hour Fitness", "brand:wikidata": "Q4631849"}, "geometry": {"type": "Point", "coordinates": [-117.007665, 32.802949]}},
{"type": "Feature", "id": "OEertuYch4j00urgyNENIZ70SqU=", "properties": {"ref": "00877", "@spider": "24_hour_fitness", "addr:street": "8810 Apollo Way", "addr:city": "Downey", "addr:state": "CA", "addr:postcode": "90242", "name": "Downey", "phone": "5623826230", "website": "https://www.24hourfitness.com/Website/clubList/club/00877", "brand": "24 Hour Fitness", "brand:wikidata": "Q4631849"}, "geometry": {"type": "Point", "coordinates": [-118.141198, 33.920379]}},
{"type": "Feature", "id": "LKyf4HFCETG1Kqq3mzs8mnkUijc=", "properties": {"ref": "00073", "@spider": "24_hour_fitness", "addr:street": "26781 Rancho Parkway", "addr:city": "Lake Forest", "addr:state": "CA", "addr:postcode": "92630", "name": "Foothill Ranch", "phone": "9498304213", "website": "https://www.24hourfitness.com/Website/clubList/club/00073", "brand": "24 Hour Fitness", "brand:wikidata": "Q4631849"}, "geometry": {"type": "Point", "coordinates": [-117.659718, 33.668466]}},
{"type": "Feature", "id": "7lh3v0moC2OH7VUoPx68EWfrt6o=", "properties": {"ref": "00078", "@spider": "24_hour_fitness", "addr:street": "589 Anton Blvd", "addr:city": "Costa Mesa", "addr:state": "CA", "addr:postcode": "92626", "name": "South Coast Metro Center", "phone": "7147512724", "website": "https://www.24hourfitness.com/Website/clubList/club/00078", "brand": "24 Hour Fitness", "brand:wikidata": "Q4631849"}, "geometry": {"type": "Point", "coordinates": [-117.880876, 33.6901]}},
{"type": "Feature", "id": "XbC365BbbhtjGhGuryn-bpvFoks=", "properties": {"ref": "00145", "@spider": "24_hour_fitness", "addr:street": "8350 Van Nuys Blvd", "addr:city": "Panorama City", "addr:state": "CA", "addr:postcode": "91402", "name": "Panorama City", "phone": "8188301600", "website": "https://www.24hourfitness.com/Website/clubList/club/00145", "brand": "24 Hour Fitness", "brand:wikidata": "Q4631849"}, "geometry": {"type": "Point", "coordinates": [-118.448799, 34.222209]}},
{"type": "Feature", "id": "D1CTTCZprR6Mzjnktgxa7HIWy6w=", "properties": {"ref": "00197", "@spider": "24_hour_fitness", "addr:street": "11787 Foothill Blvd", "addr:city": "Rancho Cucamonga", "addr:state": "CA", "addr:postcode": "91730", "name": "Rancho Cucamonga", "phone": "9099441000", "website": "https://www.24hourfitness.com/Website/clubList/club/00197", "brand": "24 Hour Fitness", "brand:wikidata": "Q4631849"}, "geometry": {"type": "Point", "coordinates": [-117.546824, 34.106304]}},
{"type": "Feature", "id": "kciJbPS2ZsfeeEciM4z1l4cWr0s=", "properties": {"ref": "00195", "@spider": "24_hour_fitness", "addr:street": "300 South Festival Drive", "addr:city": "Anaheim", "addr:state": "CA", "addr:postcode": "92808", "name": "Anaheim Hills", "phone": "7146374262", "website": "https://www.24hourfitness.com/Website/clubList/club/00195", "brand": "24 Hour Fitness", "brand:wikidata": "Q4631849"}, "geometry": {"type": "Point", "coordinates": [-117.749772, 33.864476]}},
{"type": "Feature", "id": "bZsJFRGtGPNzqdP7iseGY7fPWaY=", "properties": {"ref": "00219", "@spider": "24_hour_fitness", "addr:street": "450 North Brand Blvd", "addr:city": "Glendale", "addr:state": "CA", "addr:postcode": "91203", "name": "Glendale", "phone": "8182474334", "website": "https://www.24hourfitness.com/Website/clubList/club/00219", "brand": "24 Hour Fitness", "brand:wikidata": "Q4631849"}, "geometry": {"type": "Point", "coordinates": [-118.254999, 34.152306]}},
{"type": "Feature", "id": "E4LCYaOKdUZPU0__NO7Z6HirqmM=", "properties": {"ref": "00572", "@spider": "24_hour_fitness", "addr:street": "7600 E. Academy Blvd.", "addr:city": "Denver", "addr:state": "CO", "addr:postcode": "80230", "name": "Lowry", "phone": "3033431049", "website": "https://www.24hourfitness.com/Website/clubList/club/00572", "brand": "24 Hour Fitness", "brand:wikidata": "Q4631849"}, "geometry": {"type": "Point", "coordinates": [-104.897199, 39.7189]}},
{"type": "Feature", "id": "ylRHamT8q8Di_L3D4UTMz-7Oejc=", "properties": {"ref": "00085", "@spider": "24_hour_fitness", "addr:street": "32451 Golden Lantern", "addr:city": "Laguna Niguel", "addr:state": "CA", "addr:postcode": "92677", "name": "Ocean Ranch", "phone": "9494432440", "website": "https://www.24hourfitness.com/Website/clubList/club/00085", "brand": "24 Hour Fitness", "brand:wikidata": "Q4631849"}, "geometry": {"type": "Point", "coordinates": [-117.696994, 33.491836]}},
{"type": "Feature", "id": "u43muY4KKHV7bBeAOCeZ4C0eAgI=", "properties": {"ref": "00397", "@spider": "24_hour_fitness", "addr:street": "21501 Hawthorne Blvd.", "addr:city": "Torrance", "addr:state": "CA", "addr:postcode": "90503", "name": "Torrance Del Amo", "phone": "4242064207", "website": "https://www.24hourfitness.com/Website/clubList/club/00397", "brand": "24 Hour Fitness", "brand:wikidata": "Q4631849"}, "geometry": {"type": "Point", "coordinates": [-118.352975, 33.833034]}},
{"type": "Feature", "id": "TH_yC4pXcF18J_bO73dQosD06WI=", "properties": {"ref": "00185", "@spider": "24_hour_fitness", "addr:street": "555 West 19th Street", "addr:city": "Costa Mesa", "addr:state": "CA", "addr:postcode": "92627", "name": "Costa Mesa", "phone": "9496503600", "website": "https://www.24hourfitness.com/Website/clubList/club/00185", "brand": "24 Hour Fitness", "brand:wikidata": "Q4631849"}, "geometry": {"type": "Point", "coordinates": [-117.921493, 33.6434]}},
{"type": "Feature", "id": "t2f_2am64MJ7lvYGJw7Gdv6njBw=", "properties": {"ref": "00819", "@spider": "24_hour_fitness", "addr:street": "12300 Price Club Plaza", "addr:city": "Fairfax", "addr:state": "VA", "addr:postcode": "22030", "name": "Fairfax", "phone": "7038283422", "website": "https://www.24hourfitness.com/Website/clubList/club/00819", "brand": "24 Hour Fitness", "brand:wikidata": "Q4631849"}, "geometry": {"type": "Point", "coordinates": [-77.371621, 38.847984]}},
{"type": "Feature", "id": "1J_Uhy-Tl62zeMDogSM4qHqRHlk=", "properties": {"ref": "00111", "@spider": "24_hour_fitness", "addr:street": "4951 Katella Avenue", "addr:city": "Los Alamitos", "addr:state": "CA", "addr:postcode": "90720", "name": "Cypress", "phone": "7148267172", "website": "https://www.24hourfitness.com/Website/clubList/club/00111", "brand": "24 Hour Fitness", "brand:wikidata": "Q4631849"}, "geometry": {"type": "Point", "coordinates": [-118.0453, 33.803]}},
{"type": "Feature", "id": "xkxhj7ZDO6i9dqKEEbc4G8TcKN4=", "properties": {"ref": "00158", "@spider": "24_hour_fitness", "addr:street": "27141 Aliso Creek Road", "addr:city": "Aliso Viejo", "addr:state": "CA", "addr:postcode": "92656", "name": "Aliso Viejo", "phone": "9498314900", "website": "https://www.24hourfitness.com/Website/clubList/club/00158", "brand": "24 Hour Fitness", "brand:wikidata": "Q4631849"}, "geometry": {"type": "Point", "coordinates": [-117.723187, 33.56809]}},
{"type": "Feature", "id": "mIYaM6GnugGOaRSg-A8qNljoL_I=", "properties": {"ref": "00633", "@spider": "24_hour_fitness", "addr:street": "236 Wheelhouse Ln", "addr:city": "Lake Mary", "addr:state": "FL", "addr:postcode": "32746", "name": "Lake Mary", "phone": "3212338669", "website": "https://www.24hourfitness.com/Website/clubList/club/00633", "brand": "24 Hour Fitness", "brand:wikidata": "Q4631849"}, "geometry": {"type": "Point", "coordinates": [-81.335868, 28.755104]}},
{"type": "Feature", "id": "oYZ93JnHv2wyKTwGvORSrjdSE-U=", "properties": {"ref": "00890", "@spider": "24_hour_fitness", "addr:street": "4821 Del Amo Blvd.", "addr:city": "Lakewood", "addr:state": "CA", "addr:postcode": "90712", "name": "Lakewood", "phone": "5626302668", "website": "https://www.24hourfitness.com/Website/clubList/club/00890", "brand": "24 Hour Fitness", "brand:wikidata": "Q4631849"}, "geometry": {"type": "Point", "coordinates": [-118.136692, 33.847166]}},
{"type": "Feature", "id": "KbcUT4ETL_yDJ4wSYvNREoexq4I=", "properties": {"ref": "00954", "@spider": "24_hour_fitness", "addr:street": "8720 SE Sunnybrook Blvd.", "addr:city": "Clackamas", "addr:state": "OR", "addr:postcode": "97015", "name": "Clackamas", "phone": "5036530300", "website": "https://www.24hourfitness.com/Website/clubList/club/00954", "brand": "24 Hour Fitness", "brand:wikidata": "Q4631849"}, "geometry": {"type": "Point", "coordinates": [-122.573903, 45.429904]}},
{"type": "Feature", "id": "Eh1VXgKX6s8FWdRuTFjID1h7T8w=", "properties": {"ref": "00922", "@spider": "24_hour_fitness", "addr:street": "2102 North Tustin Street", "addr:city": "Orange", "addr:state": "CA", "addr:postcode": "92865", "name": "Orange Village", "phone": "7149230284", "website": "https://www.24hourfitness.com/Website/clubList/club/00922", "brand": "24 Hour Fitness", "brand:wikidata": "Q4631849"}, "geometry": {"type": "Point", "coordinates": [-117.836027, 33.822961]}},
{"type": "Feature", "id": "sXU6i02gPqX4CJgyZLbkvqakvSI=", "properties": {"ref": "00347", "@spider": "24_hour_fitness", "addr:street": "18541 Kuykendahl Road", "addr:city": "Spring", "addr:state": "TX", "addr:postcode": "77379", "name": "Kuykendahl", "phone": "2812578659", "website": "https://www.24hourfitness.com/Website/clubList/club/00347", "brand": "24 Hour Fitness", "brand:wikidata": "Q4631849"}, "geometry": {"type": "Point", "coordinates": [-95.488281, 30.03998]}},
{"type": "Feature", "id": "nUN2FapU0T7TzUbjlWIH5PWVGB4=", "properties": {"ref": "00228", "@spider": "24_hour_fitness", "addr:street": "2090 Village Center Circle", "addr:city": "Las Vegas", "addr:state": "NV", "addr:postcode": "89134", "name": "Summerlin", "phone": "7023602408", "website": "https://www.24hourfitness.com/Website/clubList/club/00228", "brand": "24 Hour Fitness", "brand:wikidata": "Q4631849"}, "geometry": {"type": "Point", "coordinates": [-115.304033, 36.189937]}},
{"type": "Feature", "id": "YMuMeX7SBbO8iu1WJbWqcnc6hos=", "properties": {"ref": "00156", "@spider": "24_hour_fitness", "addr:street": "9561 Chapman Avenue", "addr:city": "Garden Grove", "addr:state": "CA", "addr:postcode": "92841", "name": "Garden Grove", "phone": "7145373000", "website": "https://www.24hourfitness.com/Website/clubList/club/00156", "brand": "24 Hour Fitness", "brand:wikidata": "Q4631849"}, "geometry": {"type": "Point", "coordinates": [-117.966323, 33.7886]}},
{"type": "Feature", "id": "6s2plQt0Q-7V507jid5HZlD3mV0=", "properties": {"ref": "00687", "@spider": "24_hour_fitness", "addr:street": "2280 Market Place Blvd", "addr:city": "Irving", "addr:state": "TX", "addr:postcode": "75063", "name": "Valley Ranch", "phone": "9725561316", "website": "https://www.24hourfitness.com/Website/clubList/club/00687", "brand": "24 Hour Fitness", "brand:wikidata": "Q4631849"}, "geometry": {"type": "Point", "coordinates": [-96.977031, 32.923279]}},
{"type": "Feature", "id": "I6RB_fp9GPEjshKbI4bTliCN1X0=", "properties": {"ref": "00845", "@spider": "24_hour_fitness", "addr:street": "110 Avenida La Pata", "addr:city": "San Clemente", "addr:state": "CA", "addr:postcode": "92673", "name": "San Clemente", "phone": "9492450265", "website": "https://www.24hourfitness.com/Website/clubList/club/00845", "brand": "24 Hour Fitness", "brand:wikidata": "Q4631849"}, "geometry": {"type": "Point", "coordinates": [-117.599606, 33.455813]}},
{"type": "Feature", "id": "Ks2Dzdw6RudEtLxB5THnXikjIJI=", "properties": {"ref": "00510", "@spider": "24_hour_fitness", "addr:street": "3550 Industrial Drive", "addr:city": "Santa Rosa", "addr:state": "CA", "addr:postcode": "95403", "name": "Santa Rosa", "phone": "7075429600", "website": "https://www.24hourfitness.com/Website/clubList/club/00510", "brand": "24 Hour Fitness", "brand:wikidata": "Q4631849"}, "geometry": {"type": "Point", "coordinates": [-122.736716, 38.476857]}},
{"type": "Feature", "id": "KV4G5BopqGYnLe7vs63RwBfcrvo=", "properties": {"ref": "00635", "@spider": "24_hour_fitness", "addr:street": "2360 E. Semoran Blvd", "addr:city": "Apopka", "addr:state": "FL", "addr:postcode": "32703", "name": "Apopka", "phone": "4073587233", "website": "https://www.24hourfitness.com/Website/clubList/club/00635", "brand": "24 Hour Fitness", "brand:wikidata": "Q4631849"}, "geometry": {"type": "Point", "coordinates": [-81.467655, 28.672813]}},
{"type": "Feature", "id": "ppfkfsYbgEKxfpcMfLNJ79KDANs=", "properties": {"ref": "00412", "@spider": "24_hour_fitness", "addr:street": "1827 Yale Avenue", "addr:city": "Seattle", "addr:state": "WA", "addr:postcode": "98101", "name": "Downtown Seattle", "phone": "2066240651", "website": "https://www.24hourfitness.com/Website/clubList/club/00412", "brand": "24 Hour Fitness", "brand:wikidata": "Q4631849"}, "geometry": {"type": "Point", "coordinates": [-122.330025, 47.617765]}},
{"type": "Feature", "id": "D04rVYXTzRETjq-I0_ClRi8so-g=", "properties": {"ref": "00672", "@spider": "24_hour_fitness", "addr:street": "1513 West 18th Street", "addr:city": "Houston", "addr:state": "TX", "addr:postcode": "77008", "name": "Houston Heights", "phone": "2816051128", "website": "https://www.24hourfitness.com/Website/clubList/club/00672", "brand": "24 Hour Fitness", "brand:wikidata": "Q4631849"}, "geometry": {"type": "Point", "coordinates": [-95.4304837, 29.8025095]}},
{"type": "Feature", "id": "Ekevqv-7b6voBbP4jpq7rTw7u70=", "properties": {"ref": "00928", "@spider": "24_hour_fitness", "addr:street": "400 Town Center Drive", "addr:city": "Oxnard", "addr:state": "CA", "addr:postcode": "93036", "name": "Oxnard Collection", "phone": "8052888509", "website": "https://www.24hourfitness.com/Website/clubList/club/00928", "brand": "24 Hour Fitness", "brand:wikidata": "Q4631849"}, "geometry": {"type": "Point", "coordinates": [-119.176745, 34.238933]}},
{"type": "Feature", "id": "wtwUv9pWxFyaueITzJN6jZ8T_hU=", "properties": {"ref": "00895", "@spider": "24_hour_fitness", "addr:street": "2650 Kitty Hawk Rd.", "addr:city": "Livermore", "addr:state": "CA", "addr:postcode": "94551", "name": "Livermore", "phone": "9254474496", "website": "https://www.24hourfitness.com/Website/clubList/club/00895", "brand": "24 Hour Fitness", "brand:wikidata": "Q4631849"}, "geometry": {"type": "Point", "coordinates": [-121.814365, 37.700583]}},
{"type": "Feature", "id": "g4pLJ6qKT6LDgSilRtMSK8ho-64=", "properties": {"ref": "00067", "@spider": "24_hour_fitness", "addr:street": "1640 Camino del Rio N", "addr:city": "San Diego", "addr:state": "CA", "addr:postcode": "92108", "name": "Mission Valley Center", "phone": "6192942424", "website": "https://www.24hourfitness.com/Website/clubList/club/00067", "brand": "24 Hour Fitness", "brand:wikidata": "Q4631849"}, "geometry": {"type": "Point", "coordinates": [-117.146346, 32.76786]}},
{"type": "Feature", "id": "Daf2ED1ZOnYjYTD_Rz7CJWsO2FU=", "properties": {"ref": "00618", "@spider": "24_hour_fitness", "addr:street": "3314 NE 7th Street", "addr:city": "Homestead", "addr:state": "FL", "addr:postcode": "33033-4502", "name": "Homestead", "phone": "3052307092", "website": "https://www.24hourfitness.com/Website/clubList/club/00618", "brand": "24 Hour Fitness", "brand:wikidata": "Q4631849"}, "geometry": {"type": "Point", "coordinates": [-80.423945, 25.476877]}},
{"type": "Feature", "id": "ToeDV_YNNrgNs_Xb0kKt_0Tkuv4=", "properties": {"ref": "00163", "@spider": "24_hour_fitness", "addr:street": "1500 Rosecrans Ave", "addr:city": "Manhattan Beach", "addr:state": "CA", "addr:postcode": "90266", "name": "Manhattan Beach", "phone": "3105369300", "website": "https://www.24hourfitness.com/Website/clubList/club/00163", "brand": "24 Hour Fitness", "brand:wikidata": "Q4631849"}, "geometry": {"type": "Point", "coordinates": [-118.388599, 33.9018]}},
{"type": "Feature", "id": "__FdVtyE0zXr0Mibz8SI6r6_tuw=", "properties": {"ref": "00097", "@spider": "24_hour_fitness", "addr:street": "1601 Pacific Coast Highway Suite 100", "addr:city": "Hermosa Beach", "addr:state": "CA", "addr:postcode": "90254", "name": "Hermosa Beach", "phone": "3103744524", "website": "https://www.24hourfitness.com/Website/clubList/club/00097", "brand": "24 Hour Fitness", "brand:wikidata": "Q4631849"}, "geometry": {"type": "Point", "coordinates": [-118.3924, 33.8631]}},
{"type": "Feature", "id": "yCqY8ecSebIJRNayVSyfsvNr0Fo=", "properties": {"ref": "00886", "@spider": "24_hour_fitness", "addr:street": "507 NE Northgate Way", "addr:city": "Seattle", "addr:state": "WA", "addr:postcode": "98125", "name": "Northgate Fifth Ave", "phone": "2063682431", "website": "https://www.24hourfitness.com/Website/clubList/club/00886", "brand": "24 Hour Fitness", "brand:wikidata": "Q4631849"}, "geometry": {"type": "Point", "coordinates": [-122.32276, 47.70859]}},
{"type": "Feature", "id": "SUYNNaofmKqso2TDiRelbLA0p1o=", "properties": {"ref": "00812", "@spider": "24_hour_fitness", "addr:street": "351 Rheem Blvd.", "addr:city": "Moraga", "addr:state": "CA", "addr:postcode": "94556", "name": "Moraga Rheem", "phone": "9253772400", "website": "https://www.24hourfitness.com/Website/clubList/club/00812", "brand": "24 Hour Fitness", "brand:wikidata": "Q4631849"}, "geometry": {"type": "Point", "coordinates": [-122.12771, 37.861169]}},
{"type": "Feature", "id": "rkJs85ez_89YhjOhXQCNu0Rsvrk=", "properties": {"ref": "00523", "@spider": "24_hour_fitness", "addr:street": "6633 Auburn Blvd", "addr:city": "Citrus Heights", "addr:state": "CA", "addr:postcode": "95621", "name": "Citrus Heights", "phone": "9167227588", "website": "https://www.24hourfitness.com/Website/clubList/club/00523", "brand": "24 Hour Fitness", "brand:wikidata": "Q4631849"}, "geometry": {"type": "Point", "coordinates": [-121.309799, 38.6863]}},
{"type": "Feature", "id": "F8YBKBwuMJZHdSRcUOy9q2vDCGA=", "properties": {"ref": "00211", "@spider": "24_hour_fitness", "addr:street": "3600 W Emporium Circle", "addr:city": "Mesquite", "addr:state": "TX", "addr:postcode": "75150", "name": "Mesquite", "phone": "9722858600", "website": "https://www.24hourfitness.com/Website/clubList/club/00211", "brand": "24 Hour Fitness", "brand:wikidata": "Q4631849"}, "geometry": {"type": "Point", "coordinates": [-96.624299, 32.8149]}},
{"type": "Feature", "id": "ahnmx-skbo4t2_a2VK530ixbCdk=", "properties": {"ref": "00053", "@spider": "24_hour_fitness", "addr:street": "200 Corporate Drive", "addr:city": "Ladera Ranch", "addr:state": "CA", "addr:postcode": "92694", "name": "Ladera Ranch", "phone": "9493655000", "website": "https://www.24hourfitness.com/Website/clubList/club/00053", "brand": "24 Hour Fitness", "brand:wikidata": "Q4631849"}, "geometry": {"type": "Point", "coordinates": [-117.629118, 33.559161]}},
{"type": "Feature", "id": "kmziaJXeN-v-EiJvkAGqDln8IS4=", "properties": {"ref": "00595", "@spider": "24_hour_fitness", "addr:street": "1650 Industrial Rd.", "addr:city": "San Carlos", "addr:state": "CA", "addr:postcode": "94070", "name": "San Carlos", "phone": "6505953000", "website": "https://www.24hourfitness.com/Website/clubList/club/00595", "brand": "24 Hour Fitness", "brand:wikidata": "Q4631849"}, "geometry": {"type": "Point", "coordinates": [-122.242464, 37.499058]}},
{"type": "Feature", "id": "dzDmL0GW3lQiIURVmAx2elkQE-A=", "properties": {"ref": "00638", "@spider": "24_hour_fitness", "addr:street": "4270 Aloma Avenue", "addr:city": "Winter Park", "addr:state": "FL", "addr:postcode": "32792", "name": "Winter Park", "phone": "4076180129", "website": "https://www.24hourfitness.com/Website/clubList/club/00638", "brand": "24 Hour Fitness", "brand:wikidata": "Q4631849"}, "geometry": {"type": "Point", "coordinates": [-81.281494, 28.61135]}},
{"type": "Feature", "id": "pvWalQGAVV2FuZFfvW6feN702aQ=", "properties": {"ref": "00214", "@spider": "24_hour_fitness", "addr:street": "1131 W. Arbrook Blvd.", "addr:city": "Arlington", "addr:state": "TX", "addr:postcode": "76015", "name": "Arlington", "phone": "8174652600", "website": "https://www.24hourfitness.com/Website/clubList/club/00214", "brand": "24 Hour Fitness", "brand:wikidata": "Q4631849"}, "geometry": {"type": "Point", "coordinates": [-97.127523, 32.682667]}},
{"type": "Feature", "id": "UCj6sWpyB7_B3aIn8QoXvCQDFHI=", "properties": {"ref": "00109", "@spider": "24_hour_fitness", "addr:street": "5885 Rancho Mission Rd", "addr:city": "San Diego", "addr:state": "CA", "addr:postcode": "92108", "name": "Stadium", "phone": "6192815543", "website": "https://www.24hourfitness.com/Website/clubList/club/00109", "brand": "24 Hour Fitness", "brand:wikidata": "Q4631849"}, "geometry": {"type": "Point", "coordinates": [-117.111125, 32.781702]}},
{"type": "Feature", "id": "IrDuBkGZNYCnXMFpz5McCjV9Qzg=", "properties": {"ref": "00889", "@spider": "24_hour_fitness", "addr:street": "5300 Lankershim Blvd Ste 100", "addr:city": "North Hollywood", "addr:state": "CA", "addr:postcode": "91601", "name": "North Hollywood", "phone": "8187381798", "website": "https://www.24hourfitness.com/Website/clubList/club/00889", "brand": "24 Hour Fitness", "brand:wikidata": "Q4631849"}, "geometry": {"type": "Point", "coordinates": [-118.375794, 34.167236]}},
{"type": "Feature", "id": "ChVsfdQabHz35malwURTBOUbdsE=", "properties": {"ref": "00439", "@spider": "24_hour_fitness", "addr:street": "5712 East Lake Sammamish Parkway", "addr:city": "Issaquah", "addr:state": "WA", "addr:postcode": "98029", "name": "Issaquah Black Nugget Rd", "phone": "4255070439", "website": "https://www.24hourfitness.com/Website/clubList/club/00439", "brand": "24 Hour Fitness", "brand:wikidata": "Q4631849"}, "geometry": {"type": "Point", "coordinates": [-122.043268, 47.55084]}},
{"type": "Feature", "id": "HFSRFyH_KJDpru8vwh2KFOOfDLA=", "properties": {"ref": "00130", "@spider": "24_hour_fitness", "addr:street": "2685 Pacific Coast Hwy", "addr:city": "Torrance", "addr:state": "CA", "addr:postcode": "90505", "name": "Torrance", "phone": "3105345100", "website": "https://www.24hourfitness.com/Website/clubList/club/00130", "brand": "24 Hour Fitness", "brand:wikidata": "Q4631849"}, "geometry": {"type": "Point", "coordinates": [-118.332911, 33.791911]}},
{"type": "Feature", "id": "GC8gIiT3qgdohJTPcg52lib51Jk=", "properties": {"ref": "00544", "@spider": "24_hour_fitness", "addr:street": "1531 Parkmoor Avenue", "addr:city": "San Jose", "addr:state": "CA", "addr:postcode": "95128", "name": "Parkmoor", "phone": "4082956666", "website": "https://www.24hourfitness.com/Website/clubList/club/00544", "brand": "24 Hour Fitness", "brand:wikidata": "Q4631849"}, "geometry": {"type": "Point", "coordinates": [-121.916037, 37.316765]}},
{"type": "Feature", "id": "v2O1u39VT8q9A5dBpByATyNQsBA=", "properties": {"ref": "00696", "@spider": "24_hour_fitness", "addr:street": "3201 Louisiana Street", "addr:city": "Houston", "addr:state": "TX", "addr:postcode": "77006", "name": "Elgin & Louisiana", "phone": "7134010182", "website": "https://www.24hourfitness.com/Website/clubList/club/00696", "brand": "24 Hour Fitness", "brand:wikidata": "Q4631849"}, "geometry": {"type": "Point", "coordinates": [-95.379656, 29.743194]}},
{"type": "Feature", "id": "UP5JQRB26IREQNUfc7WtCYPXqBY=", "properties": {"ref": "00904", "@spider": "24_hour_fitness", "addr:street": "6653 Fallbrook Ave.", "addr:city": "West Hills", "addr:state": "CA", "addr:postcode": "91307", "name": "West Hills", "phone": "8188872582", "website": "https://www.24hourfitness.com/Website/clubList/club/00904", "brand": "24 Hour Fitness", "brand:wikidata": "Q4631849"}, "geometry": {"type": "Point", "coordinates": [-118.623399, 34.191426]}},
{"type": "Feature", "id": "2IYTZY8i8GEPcf9-JLzz4m_hM_c=", "properties": {"ref": "00057", "@spider": "24_hour_fitness", "addr:street": "6348 College Grove Way, Suite 109", "addr:city": "San Diego", "addr:state": "CA", "addr:postcode": "92115", "name": "College Grove", "phone": "6192296112", "website": "https://www.24hourfitness.com/Website/clubList/club/00057", "brand": "24 Hour Fitness", "brand:wikidata": "Q4631849"}, "geometry": {"type": "Point", "coordinates": [-117.05749, 32.737769]}},
{"type": "Feature", "id": "6hB40SuMcS8ON5f72LEVPNHNQPs=", "properties": {"ref": "00170", "@spider": "24_hour_fitness", "addr:street": "715 East Huntington Drive", "addr:city": "Monrovia", "addr:state": "CA", "addr:postcode": "91016", "name": "Monrovia", "phone": "6263583333", "website": "https://www.24hourfitness.com/Website/clubList/club/00170", "brand": "24 Hour Fitness", "brand:wikidata": "Q4631849"}, "geometry": {"type": "Point", "coordinates": [-117.990423, 34.140464]}},
{"type": "Feature", "id": "_WpW_9rX5jRzfGDED2WHHnAJYX8=", "properties": {"ref": "00730", "@spider": "24_hour_fitness", "addr:street": "750 West Sunrise Highway", "addr:city": "Valley Stream", "addr:state": "NY", "addr:postcode": "11581", "name": "Valley Stream Green Acres", "phone": "5166126119", "website": "https://www.24hourfitness.com/Website/clubList/club/00730", "brand": "24 Hour Fitness", "brand:wikidata": "Q4631849"}, "geometry": {"type": "Point", "coordinates": [-73.726633, 40.665379]}},
{"type": "Feature", "id": "dfss1ymzzqNKM0epTVYOthnDmiA=", "properties": {"ref": "00324", "@spider": "24_hour_fitness", "addr:street": "3650 Austin Bluffs Pkwy Unit 197", "addr:city": "Colorado Springs", "addr:state": "CO", "addr:postcode": "80918", "name": "Colorado Springs", "phone": "7192620024", "website": "https://www.24hourfitness.com/Website/clubList/club/00324", "brand": "24 Hour Fitness", "brand:wikidata": "Q4631849"}, "geometry": {"type": "Point", "coordinates": [-104.760438, 38.890851]}},
{"type": "Feature", "id": "LtQ-3h2d9ERyeb4k2L-q7TUHJdw=", "properties": {"ref": "00304", "@spider": "24_hour_fitness", "addr:street": "15542 FM 529", "addr:city": "Houston", "addr:state": "TX", "addr:postcode": "77095", "name": "Copperfield", "phone": "2815503066", "website": "https://www.24hourfitness.com/Website/clubList/club/00304", "brand": "24 Hour Fitness", "brand:wikidata": "Q4631849"}, "geometry": {"type": "Point", "coordinates": [-95.642625, 29.8792]}},
{"type": "Feature", "id": "MKWm0amJYUqlXwJhSf4aXoRDGQs=", "properties": {"ref": "00731", "@spider": "24_hour_fitness", "addr:street": "668 Central Park Avenue", "addr:city": "Scarsdale", "addr:state": "NY", "addr:postcode": "10583", "name": "Scarsdale", "phone": "9145744245", "website": "https://www.24hourfitness.com/Website/clubList/club/00731", "brand": "24 Hour Fitness", "brand:wikidata": "Q4631849"}, "geometry": {"type": "Point", "coordinates": [-73.81567, 40.999376]}},
{"type": "Feature", "id": "qXGixPBxRGxiCt4FXSsJyAKsFsg=", "properties": {"ref": "00209", "@spider": "24_hour_fitness", "addr:street": "10707 Westheimer Rd.", "addr:city": "Houston", "addr:state": "TX", "addr:postcode": "77042", "name": "Westheimer (Houston)", "phone": "7139770057", "website": "https://www.24hourfitness.com/Website/clubList/club/00209", "brand": "24 Hour Fitness", "brand:wikidata": "Q4631849"}, "geometry": {"type": "Point", "coordinates": [-95.565221, 29.7368]}},
{"type": "Feature", "id": "Ny6eymnzOTlaEBxtmRN3k3A4g8U=", "properties": {"ref": "00926", "@spider": "24_hour_fitness", "addr:street": "27621 San Bernardino Ave", "addr:city": "Redlands", "addr:state": "CA", "addr:postcode": "92374", "name": "Redlands", "phone": "9097987777", "website": "https://www.24hourfitness.com/Website/clubList/club/00926", "brand": "24 Hour Fitness", "brand:wikidata": "Q4631849"}, "geometry": {"type": "Point", "coordinates": [-117.202382, 34.077353]}},
{"type": "Feature", "id": "_crHmqINTIam0a-au7zM8plbFGY=", "properties": {"ref": "00907", "@spider": "24_hour_fitness", "addr:street": "15310 Summit Avenue", "addr:city": "Fontana", "addr:state": "CA", "addr:postcode": "92336", "name": "Fontana North", "phone": "9094639520", "website": "https://www.24hourfitness.com/Website/clubList/club/00907", "brand": "24 Hour Fitness", "brand:wikidata": "Q4631849"}, "geometry": {"type": "Point", "coordinates": [-117.47108, 34.150323]}},
{"type": "Feature", "id": "0e41ceLQEH0xb2zu1PFY8SLWor4=", "properties": {"ref": "00906", "@spider": "24_hour_fitness", "addr:street": "125 North First Avenue", "addr:city": "Arcadia", "addr:state": "CA", "addr:postcode": "91006", "name": "Arcadia", "phone": "6264463000", "website": "https://www.24hourfitness.com/Website/clubList/club/00906", "brand": "24 Hour Fitness", "brand:wikidata": "Q4631849"}, "geometry": {"type": "Point", "coordinates": [-118.028399, 34.141462]}},
{"type": "Feature", "id": "_I51x7YAoJFjbk4GyAW9RhZwhRU=", "properties": {"ref": "00384", "@spider": "24_hour_fitness", "addr:street": "5745 New Abbey Lane", "addr:city": "Castle Rock", "addr:state": "CO", "addr:postcode": "80108", "name": "Castle Rock", "phone": "3032098636", "website": "https://www.24hourfitness.com/Website/clubList/club/00384", "brand": "24 Hour Fitness", "brand:wikidata": "Q4631849"}, "geometry": {"type": "Point", "coordinates": [-104.881126, 39.417855]}},
{"type": "Feature", "id": "khED6ptqkCTZYv3b0VXc0mdqqiQ=", "properties": {"ref": "00956", "@spider": "24_hour_fitness", "addr:street": "4600 West 38th Avenue", "addr:city": "Denver", "addr:state": "CO", "addr:postcode": "80212", "name": "Highlands Garden", "phone": "3034773883", "website": "https://www.24hourfitness.com/Website/clubList/club/00956", "brand": "24 Hour Fitness", "brand:wikidata": "Q4631849"}, "geometry": {"type": "Point", "coordinates": [-105.046299, 39.7694]}},
{"type": "Feature", "id": "NXnuJd-4bbU0_jW70u7A0qnXJtM=", "properties": {"ref": "00697", "@spider": "24_hour_fitness", "addr:street": "12553 Westheimer Road", "addr:city": "Houston", "addr:state": "TX", "addr:postcode": "77077", "name": "Dairy Ashford", "phone": "2814931874", "website": "https://www.24hourfitness.com/Website/clubList/club/00697", "brand": "24 Hour Fitness", "brand:wikidata": "Q4631849"}, "geometry": {"type": "Point", "coordinates": [-95.603452, 29.736146]}},
{"type": "Feature", "id": "ziXO5Xk4Lc9-GV2GBtjY3Vlw6sQ=", "properties": {"ref": "00880", "@spider": "24_hour_fitness", "addr:street": "198 W Main St", "addr:city": "El Cajon", "addr:state": "CA", "addr:postcode": "92020", "name": "El Cajon Main St", "phone": "6194420293", "website": "https://www.24hourfitness.com/Website/clubList/club/00880", "brand": "24 Hour Fitness", "brand:wikidata": "Q4631849"}, "geometry": {"type": "Point", "coordinates": [-116.963557, 32.79496]}},
{"type": "Feature", "id": "-smtdFaY1B7spsrsd734Ef8bmqU=", "properties": {"ref": "00448", "@spider": "24_hour_fitness", "addr:street": "17200 Brookhurst Street", "addr:city": "Fountain Valley", "addr:state": "CA", "addr:postcode": "92708", "name": "Fountain Valley", "phone": "7142744396", "website": "https://www.24hourfitness.com/Website/clubList/club/00448", "brand": "24 Hour Fitness", "brand:wikidata": "Q4631849"}, "geometry": {"type": "Point", "coordinates": [-117.954345, 33.71351]}},
{"type": "Feature", "id": "U3LI_53PcfL5RPsKK8F0Z0PyhWE=", "properties": {"ref": "00514", "@spider": "24_hour_fitness", "addr:street": "3839 East Castro Valley Blvd", "addr:city": "Castro Valley", "addr:state": "CA", "addr:postcode": "94552", "name": "Castro Valley", "phone": "5107336448", "website": "https://www.24hourfitness.com/Website/clubList/club/00514", "brand": "24 Hour Fitness", "brand:wikidata": "Q4631849"}, "geometry": {"type": "Point", "coordinates": [-122.05206, 37.69544]}},
{"type": "Feature", "id": "3QPUx80irNHjmlAxr-lwcmai2C4=", "properties": {"ref": "00206", "@spider": "24_hour_fitness", "addr:street": "7300 W. Greens Rd.", "addr:city": "Houston", "addr:state": "TX", "addr:postcode": "77064", "name": "Willowbrook (Houston)", "phone": "2818946151", "website": "https://www.24hourfitness.com/Website/clubList/club/00206", "brand": "24 Hour Fitness", "brand:wikidata": "Q4631849"}, "geometry": {"type": "Point", "coordinates": [-95.535398, 29.955]}},
{"type": "Feature", "id": "kJcXTnk9CpqGoJ2v6sUiSbzXWsE=", "properties": {"ref": "00089", "@spider": "24_hour_fitness", "addr:street": "2595 East Thousand Oaks Blvd", "addr:city": "Thousand Oaks", "addr:state": "CA", "addr:postcode": "91360", "name": "Thousand Oaks", "phone": "8057777300", "website": "https://www.24hourfitness.com/Website/clubList/club/00089", "brand": "24 Hour Fitness", "brand:wikidata": "Q4631849"}, "geometry": {"type": "Point", "coordinates": [-118.840547, 34.17254]}},
{"type": "Feature", "id": "Rj7drRU4YSzmERLSHlDy1HCOtvs=", "properties": {"ref": "00442", "@spider": "24_hour_fitness", "addr:street": "1541 NE 181st Avenue", "addr:city": "Portland", "addr:state": "OR", "addr:postcode": "97230", "name": "Gresham", "phone": "5034051477", "website": "https://www.24hourfitness.com/Website/clubList/club/00442", "brand": "24 Hour Fitness", "brand:wikidata": "Q4631849"}, "geometry": {"type": "Point", "coordinates": [-122.477322, 45.534062]}},
{"type": "Feature", "id": "Dc9oPxfgEsUdGAnU8obAPO3_8w8=", "properties": {"ref": "00898", "@spider": "24_hour_fitness", "addr:street": "27124 Calle Arroyo", "addr:city": "San Juan Capistrano", "addr:state": "CA", "addr:postcode": "92675", "name": "San Juan Capistrano", "phone": "9494899900", "website": "https://www.24hourfitness.com/Website/clubList/club/00898", "brand": "24 Hour Fitness", "brand:wikidata": "Q4631849"}, "geometry": {"type": "Point", "coordinates": [-117.656247, 33.499048]}},
{"type": "Feature", "id": "QadLPT04MzCdbhOn2LpHv7GjP2Q=", "properties": {"ref": "00202", "@spider": "24_hour_fitness", "addr:street": "10616 Research Blvd.", "addr:city": "Austin", "addr:state": "TX", "addr:postcode": "78759", "name": "Austin", "phone": "5127949151", "website": "https://www.24hourfitness.com/Website/clubList/club/00202", "brand": "24 Hour Fitness", "brand:wikidata": "Q4631849"}, "geometry": {"type": "Point", "coordinates": [-97.746479, 30.398485]}},
{"type": "Feature", "id": "nBSthtdgYxiAKlBTGxwrOttF-j4=", "properties": {"ref": "00425", "@spider": "24_hour_fitness", "addr:street": "4546 SE McLoughlin Blvd.", "addr:city": "Portland", "addr:state": "OR", "addr:postcode": "97202", "name": "Portland McLoughlin", "phone": "5032059588", "website": "https://www.24hourfitness.com/Website/clubList/club/00425", "brand": "24 Hour Fitness", "brand:wikidata": "Q4631849"}, "geometry": {"type": "Point", "coordinates": [-122.654024, 45.490178]}},
{"type": "Feature", "id": "l1MUVaGUimUqCoGknPzkblsFbCM=", "properties": {"ref": "00808", "@spider": "24_hour_fitness", "addr:street": "8461 Elk Grove Florin Road", "addr:city": "Elk Grove", "addr:state": "CA", "addr:postcode": "95624", "name": "Elk Grove Calvine", "phone": "9166812424", "website": "https://www.24hourfitness.com/Website/clubList/club/00808", "brand": "24 Hour Fitness", "brand:wikidata": "Q4631849"}, "geometry": {"type": "Point", "coordinates": [-121.371699, 38.450322]}},
{"type": "Feature", "id": "WehRdTLPjBZw0k8nr8784tPnS5c=", "properties": {"ref": "00872", "@spider": "24_hour_fitness", "addr:street": "4345 Imperial Avenue", "addr:city": "San Diego", "addr:state": "CA", "addr:postcode": "92113", "name": "Imperial Marketplace", "phone": "6196847649", "website": "https://www.24hourfitness.com/Website/clubList/club/00872", "brand": "24 Hour Fitness", "brand:wikidata": "Q4631849"}, "geometry": {"type": "Point", "coordinates": [-117.099685, 32.704116]}},
{"type": "Feature", "id": "E9KDi5VBCArgUFG0cxD_O-ZMNuI=", "properties": {"ref": "00616", "@spider": "24_hour_fitness", "addr:street": "260 East State Route 4", "addr:city": "Paramus", "addr:state": "NJ", "addr:postcode": "07652", "name": "Paramus", "phone": "2015181351", "website": "https://www.24hourfitness.com/Website/clubList/club/00616", "brand": "24 Hour Fitness", "brand:wikidata": "Q4631849"}, "geometry": {"type": "Point", "coordinates": [-74.0495523, 40.9139176]}},
{"type": "Feature", "id": "VjceJ5wPCMfDKOZXodLQJBKEDsI=", "properties": {"ref": "00836", "@spider": "24_hour_fitness", "addr:street": "4770 Willow Road", "addr:city": "Pleasanton", "addr:state": "CA", "addr:postcode": "94588", "name": "Pleasanton", "phone": "9254631515", "website": "https://www.24hourfitness.com/Website/clubList/club/00836", "brand": "24 Hour Fitness", "brand:wikidata": "Q4631849"}, "geometry": {"type": "Point", "coordinates": [-121.89822, 37.69773]}},
{"type": "Feature", "id": "CBWroP8UVlT8ACduLvP7a-rslLs=", "properties": {"ref": "00070", "@spider": "24_hour_fitness", "addr:street": "15301 Ventura Blvd", "addr:city": "Sherman Oaks", "addr:state": "CA", "addr:postcode": "91403", "name": "Sherman Oaks Galleria", "phone": "8187286777", "website": "https://www.24hourfitness.com/Website/clubList/club/00070", "brand": "24 Hour Fitness", "brand:wikidata": "Q4631849"}, "geometry": {"type": "Point", "coordinates": [-118.466309, 34.153804]}},
{"type": "Feature", "id": "foG6T6dtrixRPbVbD9On8xp2ygk=", "properties": {"ref": "00821", "@spider": "24_hour_fitness", "addr:street": "2323 McKee Road", "addr:city": "San Jose", "addr:state": "CA", "addr:postcode": "95116-1609", "name": "East Side San Jose", "phone": "4084576866", "website": "https://www.24hourfitness.com/Website/clubList/club/00821", "brand": "24 Hour Fitness", "brand:wikidata": "Q4631849"}, "geometry": {"type": "Point", "coordinates": [-121.849227, 37.365957]}},
{"type": "Feature", "id": "NFZf29MXrHO-hiu_1uagveXDa7w=", "properties": {"ref": "00456", "@spider": "24_hour_fitness", "addr:street": "2520 Somersville Road", "addr:city": "Antioch", "addr:state": "CA", "addr:postcode": "94509", "name": "Antioch Somersville", "phone": "9257531553", "website": "https://www.24hourfitness.com/Website/clubList/club/00456", "brand": "24 Hour Fitness", "brand:wikidata": "Q4631849"}, "geometry": {"type": "Point", "coordinates": [-121.841255, 38.000575]}},
{"type": "Feature", "id": "ScU6B1-pHemgn0kH8Q3AZcoM7jU=", "properties": {"ref": "00619", "@spider": "24_hour_fitness", "addr:street": "12187 E. Colonial Drive", "addr:city": "Orlando", "addr:state": "FL", "addr:postcode": "32826-4707", "name": "Orlando Park Square", "phone": "3213329704", "website": "https://www.24hourfitness.com/Website/clubList/club/00619", "brand": "24 Hour Fitness", "brand:wikidata": "Q4631849"}, "geometry": {"type": "Point", "coordinates": [-81.200289, 28.566091]}},
{"type": "Feature", "id": "lj59b9vkVxWC1gugOgkSwqZT4PU=", "properties": {"ref": "00897", "@spider": "24_hour_fitness", "addr:street": "12155 Central Ave", "addr:city": "Chino", "addr:state": "CA", "addr:postcode": "91710", "name": "Chino", "phone": "9095904454", "website": "https://www.24hourfitness.com/Website/clubList/club/00897", "brand": "24 Hour Fitness", "brand:wikidata": "Q4631849"}, "geometry": {"type": "Point", "coordinates": [-117.689385, 34.032874]}},
{"type": "Feature", "id": "UHj4jvkmpoXCNCFWCg-hCVpdjh8=", "properties": {"ref": "00866", "@spider": "24_hour_fitness", "addr:street": "19350 Nordhoff Street Unit D", "addr:city": "Northridge", "addr:state": "CA", "addr:postcode": "91324", "name": "Northridge", "phone": "7472242000", "website": "https://www.24hourfitness.com/Website/clubList/club/00866", "brand": "24 Hour Fitness", "brand:wikidata": "Q4631849"}, "geometry": {"type": "Point", "coordinates": [-118.554553, 34.23545]}},
{"type": "Feature", "id": "dDboLqeyZ7jlbiih09qfkAr3djU=", "properties": {"ref": "00427", "@spider": "24_hour_fitness", "addr:street": "465 W. Arlington Street", "addr:city": "Gladstone", "addr:state": "OR", "addr:postcode": "97027", "name": "Gladstone", "phone": "5033031867", "website": "https://www.24hourfitness.com/Website/clubList/club/00427", "brand": "24 Hour Fitness", "brand:wikidata": "Q4631849"}, "geometry": {"type": "Point", "coordinates": [-122.600176, 45.376097]}},
{"type": "Feature", "id": "rZqmrixCpKDvGDW63bvQsA1tDWc=", "properties": {"ref": "00887", "@spider": "24_hour_fitness", "addr:street": "762 Sunnyvale Saratoga Road", "addr:city": "Sunnyvale", "addr:state": "CA", "addr:postcode": "94087", "name": "Sunnyvale Saratoga", "phone": "4082206588", "website": "https://www.24hourfitness.com/Website/clubList/club/00887", "brand": "24 Hour Fitness", "brand:wikidata": "Q4631849"}, "geometry": {"type": "Point", "coordinates": [-122.032349, 37.366015]}},
{"type": "Feature", "id": "2dYkszRyqL2Osl3WI1XKpJB8oXc=", "properties": {"ref": "00536", "@spider": "24_hour_fitness", "addr:street": "24727 Amador Street", "addr:city": "Hayward", "addr:state": "CA", "addr:postcode": "94544", "name": "Hayward Amador", "phone": "5102643275", "website": "https://www.24hourfitness.com/Website/clubList/club/00536", "brand": "24 Hour Fitness", "brand:wikidata": "Q4631849"}, "geometry": {"type": "Point", "coordinates": [-122.090229, 37.653772]}},
{"type": "Feature", "id": "4m3rmN7Gkpj8GqMV9FnPIjC3U98=", "properties": {"ref": "00851", "@spider": "24_hour_fitness", "addr:street": "7887 Center Ave", "addr:city": "Huntington Beach", "addr:state": "CA", "addr:postcode": "92647", "name": "Huntington Beach Bella Terra", "phone": "7143738969", "website": "https://www.24hourfitness.com/Website/clubList/club/00851", "brand": "24 Hour Fitness", "brand:wikidata": "Q4631849"}, "geometry": {"type": "Point", "coordinates": [-117.992003, 33.733508]}},
{"type": "Feature", "id": "XHz_XK_SLVtPvCEWJ--KZeTrzR4=", "properties": {"ref": "00932", "@spider": "24_hour_fitness", "addr:street": "9051 Atlanta Avenue", "addr:city": "Huntington Beach", "addr:state": "CA", "addr:postcode": "92646", "name": "Huntington Beach Atlanta Ave", "phone": "7143743700", "website": "https://www.24hourfitness.com/Website/clubList/club/00932", "brand": "24 Hour Fitness", "brand:wikidata": "Q4631849"}, "geometry": {"type": "Point", "coordinates": [-117.9702, 33.657727]}},
{"type": "Feature", "id": "fF4DLjpuMwfswiDw2wnENrjl9pk=", "properties": {"ref": "00559", "@spider": "24_hour_fitness", "addr:street": "45-480 Kaneohe Bay Dr.", "addr:city": "Kaneohe", "addr:state": "HI", "addr:postcode": "96744", "name": "Windward City", "phone": "8082341003", "website": "https://www.24hourfitness.com/Website/clubList/club/00559", "brand": "24 Hour Fitness", "brand:wikidata": "Q4631849"}, "geometry": {"type": "Point", "coordinates": [-157.798321, 21.402939]}},
{"type": "Feature", "id": "FuH1oiBaInjDxX1rpY09vSqEK58=", "properties": {"ref": "00507", "@spider": "24_hour_fitness", "addr:street": "373 Gellert Blvd", "addr:city": "Daly City", "addr:state": "CA", "addr:postcode": "94015", "name": "Daly City", "phone": "6507563303", "website": "https://www.24hourfitness.com/Website/clubList/club/00507", "brand": "24 Hour Fitness", "brand:wikidata": "Q4631849"}, "geometry": {"type": "Point", "coordinates": [-122.468782, 37.665711]}},
{"type": "Feature", "id": "IVujLNstFMJ6mYK-U83k1FSa-1A=", "properties": {"ref": "00876", "@spider": "24_hour_fitness", "addr:street": "1400 West Edinger Avenue", "addr:city": "Santa Ana", "addr:state": "CA", "addr:postcode": "92704", "name": "Santa Ana Edinger", "phone": "6572735919", "website": "https://www.24hourfitness.com/Website/clubList/club/00876", "brand": "24 Hour Fitness", "brand:wikidata": "Q4631849"}, "geometry": {"type": "Point", "coordinates": [-117.887034, 33.727185]}},
{"type": "Feature", "id": "B_FUFueXbCqhPbNW-lTRrtOM98I=", "properties": {"ref": "00813", "@spider": "24_hour_fitness", "addr:street": "93 Bovet Rd", "addr:city": "San Mateo", "addr:state": "CA", "addr:postcode": "94402", "name": "San Mateo Bovet", "phone": "6506532046", "website": "https://www.24hourfitness.com/Website/clubList/club/00813", "brand": "24 Hour Fitness", "brand:wikidata": "Q4631849"}, "geometry": {"type": "Point", "coordinates": [-122.315189, 37.550549]}},
{"type": "Feature", "id": "2M3Cs6PyV9aFhBD4RPIm6y7bqQg=", "properties": {"ref": "00651", "@spider": "24_hour_fitness", "addr:street": "405 E Interstate 30 Suite 115", "addr:city": "Rockwall", "addr:state": "TX", "addr:postcode": "75087", "name": "Rockwall", "phone": "9729619197", "website": "https://www.24hourfitness.com/Website/clubList/club/00651", "brand": "24 Hour Fitness", "brand:wikidata": "Q4631849"}, "geometry": {"type": "Point", "coordinates": [-96.474986, 32.895137]}},
{"type": "Feature", "id": "4yasRZdGpMyjWBVT2GlkCtMEazc=", "properties": {"ref": "00663", "@spider": "24_hour_fitness", "addr:street": "15900 E. Briarwood Circle", "addr:city": "Aurora", "addr:state": "CO", "addr:postcode": "80016", "name": "Parker-Arapahoe", "phone": "3032098545", "website": "https://www.24hourfitness.com/Website/clubList/club/00663", "brand": "24 Hour Fitness", "brand:wikidata": "Q4631849"}, "geometry": {"type": "Point", "coordinates": [-104.80546, 39.594958]}},
{"type": "Feature", "id": "HAhCNT_mjxccFOilRs5cgLC-STM=", "properties": {"ref": "00919", "@spider": "24_hour_fitness", "addr:street": "1651 Victoria Avenue Suite 160", "addr:city": "Oxnard", "addr:state": "CA", "addr:postcode": "93035", "name": "Channel Islands", "phone": "8059886000", "website": "https://www.24hourfitness.com/Website/clubList/club/00919", "brand": "24 Hour Fitness", "brand:wikidata": "Q4631849"}, "geometry": {"type": "Point", "coordinates": [-119.221353, 34.184235]}},
{"type": "Feature", "id": "iF5MezPp22SuDm1jbcRhdoNuJHs=", "properties": {"ref": "00894", "@spider": "24_hour_fitness", "addr:street": "2501 El Camino Real", "addr:city": "Carlsbad", "addr:state": "CA", "addr:postcode": "92008", "name": "Carlsbad", "phone": "7604394404", "website": "https://www.24hourfitness.com/Website/clubList/club/00894", "brand": "24 Hour Fitness", "brand:wikidata": "Q4631849"}, "geometry": {"type": "Point", "coordinates": [-117.326794, 33.178745]}},
{"type": "Feature", "id": "BTdiTVFYQMAZXsANKxbJYNl9Who=", "properties": {"ref": "00896", "@spider": "24_hour_fitness", "addr:street": "4848 Valley View Ave", "addr:city": "Yorba Linda", "addr:state": "CA", "addr:postcode": "92886", "name": "Yorba Linda", "phone": "7149830091", "website": "https://www.24hourfitness.com/Website/clubList/club/00896", "brand": "24 Hour Fitness", "brand:wikidata": "Q4631849"}, "geometry": {"type": "Point", "coordinates": [-117.828646, 33.889605]}},
{"type": "Feature", "id": "Zu2A_Fx0BFxc1Kb6CxAKshO1QTQ=", "properties": {"ref": "00818", "@spider": "24_hour_fitness", "addr:street": "1000 East Broad Street", "addr:city": "Falls Church", "addr:state": "VA", "addr:postcode": "22042", "name": "Falls Church", "phone": "5715333608", "website": "https://www.24hourfitness.com/Website/clubList/club/00818", "brand": "24 Hour Fitness", "brand:wikidata": "Q4631849"}, "geometry": {"type": "Point", "coordinates": [-77.159147, 38.874784]}},
{"type": "Feature", "id": "TyjOoFVeXR9wimBqrJecG12Tk7c=", "properties": {"ref": "00123", "@spider": "24_hour_fitness", "addr:street": "10125 Whittwood Drive", "addr:city": "Whittier", "addr:state": "CA", "addr:postcode": "90603", "name": "Whittier", "phone": "5629433771", "website": "https://www.24hourfitness.com/Website/clubList/club/00123", "brand": "24 Hour Fitness", "brand:wikidata": "Q4631849"}, "geometry": {"type": "Point", "coordinates": [-117.9998, 33.943723]}},
{"type": "Feature", "id": "IfNLn3qvaHQ6vkNIZoXR4ZciOvg=", "properties": {"ref": "00069", "@spider": "24_hour_fitness", "addr:street": "13312 Imperial Highway", "addr:city": "Santa Fe Springs", "addr:state": "CA", "addr:postcode": "90670", "name": "Santa Fe Springs", "phone": "5624072424", "website": "https://www.24hourfitness.com/Website/clubList/club/00069", "brand": "24 Hour Fitness", "brand:wikidata": "Q4631849"}, "geometry": {"type": "Point", "coordinates": [-118.048526, 33.9169]}},
{"type": "Feature", "id": "BQ7Dm2bY0BJd0U-01lh830sjOPs=", "properties": {"ref": "00849", "@spider": "24_hour_fitness", "addr:street": "1265 NW Waterhouse Avenue", "addr:city": "Beaverton", "addr:state": "OR", "addr:postcode": "97006", "name": "Tanasbourne", "phone": "5032070452", "website": "https://www.24hourfitness.com/Website/clubList/club/00849", "brand": "24 Hour Fitness", "brand:wikidata": "Q4631849"}, "geometry": {"type": "Point", "coordinates": [-122.837736, 45.527222]}},
{"type": "Feature", "id": "WtIvxVmO4dsS461KDLTpxZwvaX4=", "properties": {"ref": "00874", "@spider": "24_hour_fitness", "addr:street": "10400 Sepulveda Blvd", "addr:city": "Mission Hills", "addr:state": "CA", "addr:postcode": "91345", "name": "Mission Hills", "phone": "8184935440", "website": "https://www.24hourfitness.com/Website/clubList/club/00874", "brand": "24 Hour Fitness", "brand:wikidata": "Q4631849"}, "geometry": {"type": "Point", "coordinates": [-118.46722, 34.259241]}},
{"type": "Feature", "id": "grkPKWE1qRQKhsMHcDsbWcq_xYE=", "properties": {"ref": "00802", "@spider": "24_hour_fitness", "addr:street": "3950 Alameda Ave.", "addr:city": "Oakland", "addr:state": "CA", "addr:postcode": "94601", "name": "Oakland High Street", "phone": "5104342495", "website": "https://www.24hourfitness.com/Website/clubList/club/00802", "brand": "24 Hour Fitness", "brand:wikidata": "Q4631849"}, "geometry": {"type": "Point", "coordinates": [-122.222752, 37.7682]}},
{"type": "Feature", "id": "TdJ-ZK13u5fYByoEPrUGsZ-3-0Q=", "properties": {"ref": "00899", "@spider": "24_hour_fitness", "addr:street": "2800 N. Main Street", "addr:city": "Santa Ana", "addr:state": "CA", "addr:postcode": "92705", "name": "Santa Ana", "phone": "6572053758", "website": "https://www.24hourfitness.com/Website/clubList/club/00899", "brand": "24 Hour Fitness", "brand:wikidata": "Q4631849"}, "geometry": {"type": "Point", "coordinates": [-117.867398, 33.775673]}},
{"type": "Feature", "id": "U0UWfLqMCj3PLWdsQxc5vGPvaUE=", "properties": {"ref": "00362", "@spider": "24_hour_fitness", "addr:street": "1800 Lake Woodlands Drive", "addr:city": "The Woodlands", "addr:state": "TX", "addr:postcode": "77380", "name": "Woodlands", "phone": "2812982428", "website": "https://www.24hourfitness.com/Website/clubList/club/00362", "brand": "24 Hour Fitness", "brand:wikidata": "Q4631849"}, "geometry": {"type": "Point", "coordinates": [-95.461399, 30.1659]}},
{"type": "Feature", "id": "Xj_gDdRB-vr7qsmlHMg_QxNAWcM=", "properties": {"ref": "00511", "@spider": "24_hour_fitness", "addr:street": "359 Sun Valley Mall", "addr:city": "Concord", "addr:state": "CA", "addr:postcode": "94520", "name": "Concord", "phone": "9256748412", "website": "https://www.24hourfitness.com/Website/clubList/club/00511", "brand": "24 Hour Fitness", "brand:wikidata": "Q4631849"}, "geometry": {"type": "Point", "coordinates": [-122.061953, 37.967271]}},
{"type": "Feature", "id": "tm-U2TcJSmlYIVhuC02RoHLuJSM=", "properties": {"ref": "00398", "@spider": "24_hour_fitness", "addr:street": "3490 Madison Street", "addr:city": "Riverside", "addr:state": "CA", "addr:postcode": "92504", "name": "Riverside Madison", "phone": "9513245334", "website": "https://www.24hourfitness.com/Website/clubList/club/00398", "brand": "24 Hour Fitness", "brand:wikidata": "Q4631849"}, "geometry": {"type": "Point", "coordinates": [-117.405818, 33.936865]}},
{"type": "Feature", "id": "h_h8XP0gZESDFz65cAbxR4kc9n0=", "properties": {"ref": "00127", "@spider": "24_hour_fitness", "addr:street": "3521 East Chapman Ave.", "addr:city": "Orange", "addr:state": "CA", "addr:postcode": "92869", "name": "Orange Chapman", "phone": "7146399300", "website": "https://www.24hourfitness.com/Website/clubList/club/00127", "brand": "24 Hour Fitness", "brand:wikidata": "Q4631849"}, "geometry": {"type": "Point", "coordinates": [-117.815753, 33.7877]}},
{"type": "Feature", "id": "8PEklRgJRRUr5y_bZjF73NYEYaI=", "properties": {"ref": "00548", "@spider": "24_hour_fitness", "addr:street": "95-221 Kipapa Dr.", "addr:city": "Mililani", "addr:state": "HI", "addr:postcode": "96789", "name": "Mililani", "phone": "8086277400", "website": "https://www.24hourfitness.com/Website/clubList/club/00548", "brand": "24 Hour Fitness", "brand:wikidata": "Q4631849"}, "geometry": {"type": "Point", "coordinates": [-158.014125, 21.461347]}},
{"type": "Feature", "id": "ihTWjzYt26hCwipW3Q6pEIxy0l4=", "properties": {"ref": "00634", "@spider": "24_hour_fitness", "addr:street": "19371 NW 27th Avenue", "addr:city": "Miami Gardens", "addr:state": "FL", "addr:postcode": "33056", "name": "Miami Gardens", "phone": "3059075960", "website": "https://www.24hourfitness.com/Website/clubList/club/00634", "brand": "24 Hour Fitness", "brand:wikidata": "Q4631849"}, "geometry": {"type": "Point", "coordinates": [-80.247316, 25.954577]}},
{"type": "Feature", "id": "hCpTmZvqR-1m77D0I-anIPMVCjY=", "properties": {"ref": "00691", "@spider": "24_hour_fitness", "addr:street": "1101 N. Walnut Creek Drive", "addr:city": "Mansfield", "addr:state": "TX", "addr:postcode": "76063", "name": "Mansfield", "phone": "8174539714", "website": "https://www.24hourfitness.com/Website/clubList/club/00691", "brand": "24 Hour Fitness", "brand:wikidata": "Q4631849"}, "geometry": {"type": "Point", "coordinates": [-97.131887, 32.584153]}},
{"type": "Feature", "id": "3UTMfjr9SLWmXuhtD1e0BefOLnA=", "properties": {"ref": "00809", "@spider": "24_hour_fitness", "addr:street": "1006 Riley Street", "addr:city": "Folsom", "addr:state": "CA", "addr:postcode": "95630", "name": "Folsom", "phone": "9169841924", "website": "https://www.24hourfitness.com/Website/clubList/club/00809", "brand": "24 Hour Fitness", "brand:wikidata": "Q4631849"}, "geometry": {"type": "Point", "coordinates": [-121.169965, 38.671361]}},
{"type": "Feature", "id": "FHtD7DkRdCwvPEWEE8PjRHjayJY=", "properties": {"ref": "00176", "@spider": "24_hour_fitness", "addr:street": "1352 Madera Road", "addr:city": "Simi Valley", "addr:state": "CA", "addr:postcode": "93065", "name": "Simi Valley", "phone": "8055203440", "website": "https://www.24hourfitness.com/Website/clubList/club/00176", "brand": "24 Hour Fitness", "brand:wikidata": "Q4631849"}, "geometry": {"type": "Point", "coordinates": [-118.796199, 34.263503]}},
{"type": "Feature", "id": "feED5Hq0Er5LrHJO6AipaKJCURQ=", "properties": {"ref": "00517", "@spider": "24_hour_fitness", "addr:street": "1261 Soquel Avenue", "addr:city": "Santa Cruz", "addr:state": "CA", "addr:postcode": "95062", "name": "Santa Cruz", "phone": "8314540333", "website": "https://www.24hourfitness.com/Website/clubList/club/00517", "brand": "24 Hour Fitness", "brand:wikidata": "Q4631849"}, "geometry": {"type": "Point", "coordinates": [-122.008394, 36.980766]}},
{"type": "Feature", "id": "DQu6ku8LLg9b1M_6fvxd7FwBxbs=", "properties": {"ref": "00140", "@spider": "24_hour_fitness", "addr:street": "8105 Sheridan Blvd", "addr:city": "Arvada", "addr:state": "CO", "addr:postcode": "80003", "name": "Arvada", "phone": "3034269700", "website": "https://www.24hourfitness.com/Website/clubList/club/00140", "brand": "24 Hour Fitness", "brand:wikidata": "Q4631849"}, "geometry": {"type": "Point", "coordinates": [-105.053299, 39.844089]}},
{"type": "Feature", "id": "xxguBjFpREbtA-jpgGTaFSNqr94=", "properties": {"ref": "00165", "@spider": "24_hour_fitness", "addr:street": "685 W. Foothill Blvd.", "addr:city": "Upland", "addr:state": "CA", "addr:postcode": "91786", "name": "Upland", "phone": "9099492422", "website": "https://www.24hourfitness.com/Website/clubList/club/00165", "brand": "24 Hour Fitness", "brand:wikidata": "Q4631849"}, "geometry": {"type": "Point", "coordinates": [-117.659066, 34.1072]}},
{"type": "Feature", "id": "XRZoFxisJnCSuuE2ZnJH1MqGLyc=", "properties": {"ref": "00169", "@spider": "24_hour_fitness", "addr:street": "18645 Via Princessa", "addr:city": "Santa Clarita", "addr:state": "CA", "addr:postcode": "91351", "name": "Santa Clarita", "phone": "6612527777", "website": "https://www.24hourfitness.com/Website/clubList/club/00169", "brand": "24 Hour Fitness", "brand:wikidata": "Q4631849"}, "geometry": {"type": "Point", "coordinates": [-118.452601, 34.397397]}},
{"type": "Feature", "id": "IfnWTKub08xQfHSqT5zRe82txIE=", "properties": {"ref": "00388", "@spider": "24_hour_fitness", "addr:street": "1601 N. Hardin Blvd", "addr:city": "McKinney", "addr:state": "TX", "addr:postcode": "75071-3278", "name": "McKinney", "phone": "4696783840", "website": "https://www.24hourfitness.com/Website/clubList/club/00388", "brand": "24 Hour Fitness", "brand:wikidata": "Q4631849"}, "geometry": {"type": "Point", "coordinates": [-96.662986, 33.183117]}},
{"type": "Feature", "id": "QfbfMXs0PjV8DTFZcvq5ojFal7Q=", "properties": {"ref": "00441", "@spider": "24_hour_fitness", "addr:street": "111 South 38th Street", "addr:city": "Tacoma", "addr:state": "WA", "addr:postcode": "98418", "name": "Tacoma", "phone": "2532403483", "website": "https://www.24hourfitness.com/Website/clubList/club/00441", "brand": "24 Hour Fitness", "brand:wikidata": "Q4631849"}, "geometry": {"type": "Point", "coordinates": [-122.432282, 47.223099]}},
{"type": "Feature", "id": "qlk9ZgGhSmjhDS-HcCSrTjEdhdw=", "properties": {"ref": "00920", "@spider": "24_hour_fitness", "addr:street": "2580 S. Archibald Avenue", "addr:city": "Ontario", "addr:state": "CA", "addr:postcode": "91761", "name": "Ontario", "phone": "9092183885", "website": "https://www.24hourfitness.com/Website/clubList/club/00920", "brand": "24 Hour Fitness", "brand:wikidata": "Q4631849"}, "geometry": {"type": "Point", "coordinates": [-117.593301, 34.026863]}},
{"type": "Feature", "id": "UqiM9OUaAh5lI3ZrQ_KhXC3vYTc=", "properties": {"ref": "00502", "@spider": "24_hour_fitness", "addr:street": "1200 Van Ness Avenue", "addr:city": "San Francisco", "addr:state": "CA", "addr:postcode": "94109", "name": "Van Ness", "phone": "4157762200", "website": "https://www.24hourfitness.com/Website/clubList/club/00502", "brand": "24 Hour Fitness", "brand:wikidata": "Q4631849"}, "geometry": {"type": "Point", "coordinates": [-122.421498, 37.786602]}},
{"type": "Feature", "id": "WXDUlsdnyZNQc6lrb6iDIylimiM=", "properties": {"ref": "00095", "@spider": "24_hour_fitness", "addr:street": "400 La Terraza Blvd", "addr:city": "Escondido", "addr:state": "CA", "addr:postcode": "92025", "name": "Escondido La Terraza", "phone": "7602331024", "website": "https://www.24hourfitness.com/Website/clubList/club/00095", "brand": "24 Hour Fitness", "brand:wikidata": "Q4631849"}, "geometry": {"type": "Point", "coordinates": [-117.09705, 33.113456]}},
{"type": "Feature", "id": "bsS3UIpqDWNOPlJe1WE9dPN9hK0=", "properties": {"ref": "00326", "@spider": "24_hour_fitness", "addr:street": "12039 W. Alameda Parkway", "addr:city": "Lakewood", "addr:state": "CO", "addr:postcode": "80228", "name": "Lakewood", "phone": "3039882444", "website": "https://www.24hourfitness.com/Website/clubList/club/00326", "brand": "24 Hour Fitness", "brand:wikidata": "Q4631849"}, "geometry": {"type": "Point", "coordinates": [-105.1345, 39.708399]}},
{"type": "Feature", "id": "OvQNjhBE8tUq-dFUD7fE-j55hOU=", "properties": {"ref": "00024", "@spider": "24_hour_fitness", "addr:street": "1265 Laurel Tree Lane Suite 100", "addr:city": "Carlsbad", "addr:state": "CA", "addr:postcode": "92011", "name": "Carlsbad Palomar Airport", "phone": "7606025001", "website": "https://www.24hourfitness.com/Website/clubList/club/00024", "brand": "24 Hour Fitness", "brand:wikidata": "Q4631849"}, "geometry": {"type": "Point", "coordinates": [-117.300314, 33.122148]}},
{"type": "Feature", "id": "45UZTPmx_D8_23AqllNkp03vB6c=", "properties": {"ref": "00174", "@spider": "24_hour_fitness", "addr:street": "975 Lomas Santa Fe. Dr.", "addr:city": "Solana Beach", "addr:state": "CA", "addr:postcode": "92075", "name": "Solana Beach", "phone": "8585239060", "website": "https://www.24hourfitness.com/Website/clubList/club/00174", "brand": "24 Hour Fitness", "brand:wikidata": "Q4631849"}, "geometry": {"type": "Point", "coordinates": [-117.252449, 32.995575]}},
{"type": "Feature", "id": "Uw0JeFKP8o-Xjmdd1-qWz6PckHM=", "properties": {"ref": "00055", "@spider": "24_hour_fitness", "addr:street": "2831 West 120th Street", "addr:city": "Hawthorne", "addr:state": "CA", "addr:postcode": "90250", "name": "Hawthorne", "phone": "3237562466", "website": "https://www.24hourfitness.com/Website/clubList/club/00055", "brand": "24 Hour Fitness", "brand:wikidata": "Q4631849"}, "geometry": {"type": "Point", "coordinates": [-118.325186, 33.9237]}}]}