{"type":"FeatureCollection","features":[{"type": "Feature", "id": "Twpndq1FecmQ6m2mWiCQ5j0Jr8I=", "properties": {"ref": "201", "@spider": "84lumber", "shop": "trade", "trade": "building_supplies", "addr:street_address": "1019 ROUTE 519", "addr:city": "EIGHTY FOUR", "addr:state": "PA", "addr:postcode": "15330-2813", "name": "EIGHTY FOUR", "phone": "7242228600", "website": "https://www.84lumber.com/store-locator/store-detail/?storeId=201", "opening_hours": "Mo-Fr 07:00-18:00; Sa 08:00-16:00", "brand": "84 Lumber", "brand:wikidata": "Q4644779", "nsi_id": "84lumber-4e950c"}, "geometry": {"type": "Point", "coordinates": [-80.13464, 40.1896744]}},
{"type": "Feature", "id": "5C59FB9oWd95eKirTMMjUYddrPc=", "properties": {"ref": "217", "@spider": "84lumber", "shop": "trade", "trade": "building_supplies", "addr:street_address": "8400 PRESTO SYGAN", "addr:city": "BRIDGEVILLE", "addr:state": "PA", "addr:postcode": "15107", "name": "BRIDGEVILLE", "phone": "4122211188", "website": "https://www.84lumber.com/store-locator/store-detail/?storeId=217", "opening_hours": "Mo-Fr 07:00-18:00; Sa 08:00-16:00", "brand": "84 Lumber", "brand:wikidata": "Q4644779", "nsi_id": "84lumber-4e950c"}, "geometry": {"type": "Point", "coordinates": [-80.13137, 40.3575325]}},
{"type": "Feature", "id": "z63jpvhIkqclO0jcbO2ucRQwmIg=", "properties": {"ref": "216", "@spider": "84lumber", "shop": "trade", "trade": "building_supplies", "addr:street_address": "4950 BUTTERMILK HOLLOW RD", "addr:city": "WEST MIFFLIN", "addr:state": "PA", "addr:postcode": "15122-1108", "name": "WEST MIFFLIN", "phone": "4124699684", "website": "https://www.84lumber.com/store-locator/store-detail/?storeId=216", "opening_hours": "Mo-Fr 07:00-18:00; Sa 08:00-12:00", "brand": "84 Lumber", "brand:wikidata": "Q4644779", "nsi_id": "84lumber-4e950c"}, "geometry": {"type": "Point", "coordinates": [-79.91159, 40.3564]}},
{"type": "Feature", "id": "v10tZDr88I4olKQvMkXNfReXaAA=", "properties": {"ref": "261", "@spider": "84lumber", "shop": "trade", "trade": "building_supplies", "addr:street_address": "118 MILLER LANE", "addr:city": "WAYNESBURG", "addr:state": "PA", "addr:postcode": "15370", "name": "WAYNESBURG", "phone": "7246278439", "website": "https://www.84lumber.com/store-locator/store-detail/?storeId=261", "opening_hours": "Mo-Fr 07:00-18:00; Sa 08:00-16:00", "brand": "84 Lumber", "brand:wikidata": "Q4644779", "nsi_id": "84lumber-4e950c"}, "geometry": {"type": "Point", "coordinates": [-80.14773, 39.9001656]}},
{"type": "Feature", "id": "ZMnUQeUSb5u5-cZosUUP0FmPz7A=", "properties": {"ref": "249", "@spider": "84lumber", "shop": "trade", "trade": "building_supplies", "addr:street_address": "1955 LINCOLN HWY", "addr:city": "NORTH VERSAILLES", "addr:state": "PA", "addr:postcode": "15137-2705", "name": "NORTH VERSAILLES", "phone": "4128292584", "website": "https://www.84lumber.com/store-locator/store-detail/?storeId=249", "opening_hours": "Mo-Fr 07:00-18:00; Sa 08:00-12:00", "brand": "84 Lumber", "brand:wikidata": "Q4644779", "nsi_id": "84lumber-4e950c"}, "geometry": {"type": "Point", "coordinates": [-79.77485, 40.365]}},
{"type": "Feature", "id": "bmjY_IzyX73QBbgYTQ8ktoHgp2Y=", "properties": {"ref": "226", "@spider": "84lumber", "shop": "trade", "trade": "building_supplies", "addr:street_address": "84 ROMEO LANE", "addr:city": "UNIONTOWN", "addr:state": "PA", "addr:postcode": "15401", "name": "UNIONTOWN", "phone": "7244372859", "website": "https://www.84lumber.com/store-locator/store-detail/?storeId=226", "opening_hours": "Mo-Fr 07:00-18:00; Sa 08:00-12:00", "brand": "84 Lumber", "brand:wikidata": "Q4644779", "nsi_id": "84lumber-4e950c"}, "geometry": {"type": "Point", "coordinates": [-79.72335, 39.9155045]}},
{"type": "Feature", "id": "7PpC6rKIMkOUsg_7aIOglE_fXuw=", "properties": {"ref": "244", "@spider": "84lumber", "shop": "trade", "trade": "building_supplies", "addr:street_address": "1725 OLD ROUTE 119", "addr:city": "MT. PLEASANT", "addr:state": "PA", "addr:postcode": "15666", "name": "MT. PLEASANT", "phone": "7245427484", "website": "https://www.84lumber.com/store-locator/store-detail/?storeId=244", "opening_hours": "Mo-Fr 07:00-18:00; Sa 08:00-16:00", "brand": "84 Lumber", "brand:wikidata": "Q4644779", "nsi_id": "84lumber-4e950c"}, "geometry": {"type": "Point", "coordinates": [-79.55648, 40.15628]}},
{"type": "Feature", "id": "bbdpoIPZ9Da_yVBXiVZ9QIJirGU=", "properties": {"ref": "332", "@spider": "84lumber", "shop": "trade", "trade": "building_supplies", "addr:street_address": "350 HALL STREET", "addr:city": "BRIDGEPORT", "addr:state": "OH", "addr:postcode": "43912", "name": "BRIDGEPORT", "phone": "7406332282", "website": "https://www.84lumber.com/store-locator/store-detail/?storeId=332", "opening_hours": "Mo-Fr 07:00-18:00; Sa 08:00-16:00; Su 09:00-16:00", "brand": "84 Lumber", "brand:wikidata": "Q4644779", "nsi_id": "84lumber-4e950c"}, "geometry": {"type": "Point", "coordinates": [-80.7420349, 40.07033]}},
{"type": "Feature", "id": "tLw-1yLo161Ut_5kWuWHdPe5xKQ=", "properties": {"ref": "312", "@spider": "84lumber", "shop": "trade", "trade": "building_supplies", "addr:street_address": "127 STEWART STREET", "addr:city": "EMPIRE", "addr:state": "OH", "addr:postcode": "43926", "name": "EMPIRE", "phone": "7405372455", "website": "https://www.84lumber.com/store-locator/store-detail/?storeId=312", "opening_hours": "Mo-Fr 07:00-18:00; Sa 08:00-16:00", "brand": "84 Lumber", "brand:wikidata": "Q4644779", "nsi_id": "84lumber-4e950c"}, "geometry": {"type": "Point", "coordinates": [-80.62406, 40.5073242]}},
{"type": "Feature", "id": "Wl7ZM5OnTtDiE-6PsiJBFbCzY0g=", "properties": {"ref": "233", "@spider": "84lumber", "shop": "trade", "trade": "building_supplies", "addr:street_address": "1612 ROSEYTOWN RD", "addr:city": "GREENSBURG", "addr:state": "PA", "addr:postcode": "15601-9812", "name": "GREENSBURG", "phone": "7248340984", "website": "https://www.84lumber.com/store-locator/store-detail/?storeId=233", "opening_hours": "Mo-Fr 07:00-18:00; Sa 08:00-12:00", "brand": "84 Lumber", "brand:wikidata": "Q4644779", "nsi_id": "84lumber-4e950c"}, "geometry": {"type": "Point", "coordinates": [-79.51278, 40.30975]}},
{"type": "Feature", "id": "Z82OkdnAnvAHitLuS26vmhPb2Ak=", "properties": {"ref": "232", "@spider": "84lumber", "shop": "trade", "trade": "building_supplies", "addr:street_address": "109 FEY LANE", "addr:city": "MARS", "addr:state": "PA", "addr:postcode": "16046-9648", "name": "MARS", "phone": "7246253184", "website": "https://www.84lumber.com/store-locator/store-detail/?storeId=232", "opening_hours": "Mo-Fr 07:00-18:00; Sa 08:00-12:00", "brand": "84 Lumber", "brand:wikidata": "Q4644779", "nsi_id": "84lumber-4e950c"}, "geometry": {"type": "Point", "coordinates": [-80.0022, 40.68372]}},
{"type": "Feature", "id": "fKbENZgojEUfRLqgBujRPIOdKhM=", "properties": {"ref": "203", "@spider": "84lumber", "shop": "trade", "trade": "building_supplies", "addr:street_address": "619 STATE STREET", "addr:city": "BEAVER", "addr:state": "PA", "addr:postcode": "15009", "name": "VANPORT", "phone": "7247747700", "website": "https://www.84lumber.com/store-locator/store-detail/?storeId=203", "opening_hours": "Mo-Fr 07:00-18:00; Sa 08:00-12:00", "brand": "84 Lumber", "brand:wikidata": "Q4644779", "nsi_id": "84lumber-4e950c"}, "geometry": {"type": "Point", "coordinates": [-80.33709, 40.68072]}},
{"type": "Feature", "id": "AsRt3xNvF3ZFH-oZzdhdpHrzW3E=", "properties": {"ref": "401", "@spider": "84lumber", "shop": "trade", "trade": "building_supplies", "addr:street_address": "RD 4 BOX 70A, ROUTE 2", "addr:city": "MOUNDSVILLE", "addr:state": "WV", "addr:postcode": "26041", "name": "MOUNDSVILLE", "phone": "3048450351", "website": "https://www.84lumber.com/store-locator/store-detail/?storeId=401", "opening_hours": "Mo-Fr 07:00-18:00; Sa 08:00-16:00; Su 09:00-16:00", "brand": "84 Lumber", "brand:wikidata": "Q4644779", "nsi_id": "84lumber-4e950c"}, "geometry": {"type": "Point", "coordinates": [-80.75098, 39.9102135]}},
{"type": "Feature", "id": "elc3FX_9HcewK0wIgTubLidZoGk=", "properties": {"ref": "253", "@spider": "84lumber", "shop": "trade", "trade": "building_supplies", "addr:street_address": "4000 FREEPORT RD", "addr:city": "NATRONA HEIGHTS", "addr:state": "PA", "addr:postcode": "15065-1913", "name": "NATRONA HEIGHTS", "phone": "7242260102", "website": "https://www.84lumber.com/store-locator/store-detail/?storeId=253", "opening_hours": "Mo-Fr 07:00-18:00; Sa 08:00-12:00", "brand": "84 Lumber", "brand:wikidata": "Q4644779", "nsi_id": "84lumber-4e950c"}, "geometry": {"type": "Point", "coordinates": [-79.70976, 40.64399]}},
{"type": "Feature", "id": "4b88vUGTlLX_nnklsEao0Bd5XAM=", "properties": {"ref": "431", "@spider": "84lumber", "shop": "trade", "trade": "building_supplies", "addr:street_address": "1501 DECKERS CREEK", "addr:city": "MORGANTOWN", "addr:state": "WV", "addr:postcode": "26505", "name": "SABRATON", "phone": "3042920840", "website": "https://www.84lumber.com/store-locator/store-detail/?storeId=431", "opening_hours": "Mo-Fr 07:00-18:00; Sa 08:00-12:00", "brand": "84 Lumber", "brand:wikidata": "Q4644779", "nsi_id": "84lumber-4e950c"}, "geometry": {"type": "Point", "coordinates": [-79.93176, 39.6273537]}},
{"type": "Feature", "id": "W6LMiFkwZwl1TRpkgfx_LPfpDOE=", "properties": {"ref": "297", "@spider": "84lumber", "shop": "trade", "trade": "building_supplies", "addr:street_address": "930 INDUSTRIAL BLVD", "addr:city": "LOYALHANNA", "addr:state": "PA", "addr:postcode": "15661", "name": "LATROBE", "phone": "7245323084", "website": "https://www.84lumber.com/store-locator/store-detail/?storeId=297", "opening_hours": "Mo-Fr 07:00-18:00; Sa 08:00-12:00", "brand": "84 Lumber", "brand:wikidata": "Q4644779", "nsi_id": "84lumber-4e950c"}, "geometry": {"type": "Point", "coordinates": [-79.3577, 40.3223038]}},
{"type": "Feature", "id": "YaxCgMMrQiEr6tdLcEatWGxUIEA=", "properties": {"ref": "248", "@spider": "84lumber", "shop": "trade", "trade": "building_supplies", "addr:street_address": "995 NEW CASTLE RD", "addr:city": "BUTLER", "addr:state": "PA", "addr:postcode": "16001-8583", "name": "BUTLER", "phone": "7248659284", "website": "https://www.84lumber.com/store-locator/store-detail/?storeId=248", "opening_hours": "Mo-Fr 07:00-18:00; Sa 08:00-16:00", "brand": "84 Lumber", "brand:wikidata": "Q4644779", "nsi_id": "84lumber-4e950c"}, "geometry": {"type": "Point", "coordinates": [-80.01622, 40.9022255]}},
{"type": "Feature", "id": "xv3iKP3vBI4PxxWmVM_GM_mp2Go=", "properties": {"ref": "260", "@spider": "84lumber", "shop": "trade", "trade": "building_supplies", "addr:street_address": "169 BUTLER RD", "addr:city": "KITTANNING", "addr:state": "PA", "addr:postcode": "16201-2253", "name": "KITTANNING", "phone": "7245456284", "website": "https://www.84lumber.com/store-locator/store-detail/?storeId=260", "opening_hours": "Mo-Fr 07:00-18:00; Sa 08:00-16:00", "brand": "84 Lumber", "brand:wikidata": "Q4644779", "nsi_id": "84lumber-4e950c"}, "geometry": {"type": "Point", "coordinates": [-79.52701, 40.8047333]}},
{"type": "Feature", "id": "WOgtLlyy2k2qy4cNSJf92N-HsJM=", "properties": {"ref": "283", "@spider": "84lumber", "shop": "trade", "trade": "building_supplies", "addr:street_address": "1664 W MAIN ST EXT", "addr:city": "GROVE CITY", "addr:state": "PA", "addr:postcode": "16127", "name": "GROVE CITY", "phone": "7247484731", "website": "https://www.84lumber.com/store-locator/store-detail/?storeId=283", "opening_hours": "Mo-Fr 07:00-18:00; Sa 08:00-16:00", "brand": "84 Lumber", "brand:wikidata": "Q4644779", "nsi_id": "84lumber-4e950c"}, "geometry": {"type": "Point", "coordinates": [-80.12132, 41.1731453]}},
{"type": "Feature", "id": "cM8dUbxETEfOs2To0hx2s8YPTlY=", "properties": {"ref": "928", "@spider": "84lumber", "shop": "trade", "trade": "building_supplies", "addr:street_address": "73 W FRANCES SANDERS DRIV", "addr:city": "OAKLAND", "addr:state": "MD", "addr:postcode": "21550", "name": "OAKLAND", "phone": "3013346184", "website": "https://www.84lumber.com/store-locator/store-detail/?storeId=928", "opening_hours": "Mo-Fr 07:00-18:00; Sa 08:00-12:00", "brand": "84 Lumber", "brand:wikidata": "Q4644779", "nsi_id": "84lumber-4e950c"}, "geometry": {"type": "Point", "coordinates": [-79.35469, 39.4080124]}},
{"type": "Feature", "id": "_qCtYq7l-Soa1BXE_AyUkItlMcQ=", "properties": {"ref": "302", "@spider": "84lumber", "shop": "trade", "trade": "building_supplies", "addr:street_address": "5843 WARREN SHARON ROAD", "addr:city": "BROOKFIELD", "addr:state": "OH", "addr:postcode": "44403", "name": "BROOKFIELD", "phone": "3304486884", "website": "https://www.84lumber.com/store-locator/store-detail/?storeId=302", "opening_hours": "Mo-Fr 07:00-18:00; Sa 08:00-12:00", "brand": "84 Lumber", "brand:wikidata": "Q4644779", "nsi_id": "84lumber-4e950c"}, "geometry": {"type": "Point", "coordinates": [-80.6077042, 41.2379341]}},
{"type": "Feature", "id": "8ucA9SwY_MOGLjyoj9xvqY-xuWQ=", "properties": {"ref": "326", "@spider": "84lumber", "shop": "trade", "trade": "building_supplies", "addr:street_address": "2251 SOUTHGATE PARKWAY", "addr:city": "CAMBRIDGE", "addr:state": "OH", "addr:postcode": "43725", "name": "CAMBRIDGE", "phone": "7404395574", "website": "https://www.84lumber.com/store-locator/store-detail/?storeId=326", "opening_hours": "Mo-Fr 07:00-18:00; Sa 07:00-16:00; Su 08:00-15:00", "brand": "84 Lumber", "brand:wikidata": "Q4644779", "nsi_id": "84lumber-4e950c"}, "geometry": {"type": "Point", "coordinates": [-81.5743256, 40.00121]}},
{"type": "Feature", "id": "NXVvqpLyMG6BeDsM9ZufBeLv9Rg=", "properties": {"ref": "929", "@spider": "84lumber", "shop": "trade", "trade": "building_supplies", "addr:street_address": "14700 NATIONAL HWY SW", "addr:city": "CUMBERLAND", "addr:state": "MD", "addr:postcode": "21502", "name": "LAVALE", "phone": "3016898402", "website": "https://www.84lumber.com/store-locator/store-detail/?storeId=929", "opening_hours": "Mo-Fr 07:00-18:00; Sa 08:00-16:00", "brand": "84 Lumber", "brand:wikidata": "Q4644779", "nsi_id": "84lumber-4e950c"}, "geometry": {"type": "Point", "coordinates": [-78.86051, 39.64016]}},
{"type": "Feature", "id": "FK-dakBQXVdjYTKgKiTNiiG0m8M=", "properties": {"ref": "250", "@spider": "84lumber", "shop": "trade", "trade": "building_supplies", "addr:street_address": "185 N POINT DRIVE", "addr:city": "CLARION", "addr:state": "PA", "addr:postcode": "16214", "name": "CLARION", "phone": "8142268434", "website": "https://www.84lumber.com/store-locator/store-detail/?storeId=250", "opening_hours": "Mo-Fr 07:00-18:00; Sa 08:00-16:00", "brand": "84 Lumber", "brand:wikidata": "Q4644779", "nsi_id": "84lumber-4e950c"}, "geometry": {"type": "Point", "coordinates": [-79.39285, 41.18302]}},
{"type": "Feature", "id": "KGsB2lpRoEzc8kHpbewTW1ZkZVA=", "properties": {"ref": "426", "@spider": "84lumber", "shop": "trade", "trade": "building_supplies", "addr:street_address": "RR 3 BOX 3276, ROUTE 220", "addr:city": "KEYSER", "addr:state": "WV", "addr:postcode": "26726", "name": "KEYSER", "phone": "3047883884", "website": "https://www.84lumber.com/store-locator/store-detail/?storeId=426", "opening_hours": "Mo-Fr 07:00-18:00; Sa 08:00-16:00; Su 09:00-16:00", "brand": "84 Lumber", "brand:wikidata": "Q4644779", "nsi_id": "84lumber-4e950c"}, "geometry": {"type": "Point", "coordinates": [-78.99901, 39.4176865]}},
{"type": "Feature", "id": "R1jgFnjp3kQnUO40oJCFWFFYeAw=", "properties": {"ref": "207", "@spider": "84lumber", "shop": "trade", "trade": "building_supplies", "addr:street_address": "134 TIMOTHY DRIVE", "addr:city": "LORETTO", "addr:state": "PA", "addr:postcode": "15940", "name": "CRESSON", "phone": "8148868131", "website": "https://www.84lumber.com/store-locator/store-detail/?storeId=207", "opening_hours": "Mo-Fr 07:00-18:00; Sa 08:00-16:00", "brand": "84 Lumber", "brand:wikidata": "Q4644779", "nsi_id": "84lumber-4e950c"}, "geometry": {"type": "Point", "coordinates": [-78.63092, 40.4654274]}},
{"type": "Feature", "id": "t0SywGISXfjFJfWlQb2bVzHaadA=", "properties": {"ref": "274", "@spider": "84lumber", "shop": "trade", "trade": "building_supplies", "addr:street_address": "2717 SR 257", "addr:city": "CRANBERRY", "addr:state": "PA", "addr:postcode": "16319", "name": "CRANBERRY", "phone": "8146778400", "website": "https://www.84lumber.com/store-locator/store-detail/?storeId=274", "opening_hours": "Mo-Fr 07:00-18:00; Sa 07:00-16:00; Su 09:00-16:00", "brand": "84 Lumber", "brand:wikidata": "Q4644779", "nsi_id": "84lumber-4e950c"}, "geometry": {"type": "Point", "coordinates": [-79.70754, 41.3613739]}},
{"type": "Feature", "id": "t2qwNxF0he4gQaNJxWRLjpKQl7M=", "properties": {"ref": "416", "@spider": "84lumber", "shop": "trade", "trade": "building_supplies", "addr:street_address": "RR4 BOX 292A (RT 219&250)", "addr:city": "ELKINS", "addr:state": "WV", "addr:postcode": "26241", "name": "ELKINS", "phone": "3046369295", "website": "https://www.84lumber.com/store-locator/store-detail/?storeId=416", "opening_hours": "Mo-Fr 07:00-18:00; Sa 08:00-16:00; Su 09:00-16:00", "brand": "84 Lumber", "brand:wikidata": "Q4644779", "nsi_id": "84lumber-4e950c"}, "geometry": {"type": "Point", "coordinates": [-79.84603, 38.88857]}},
{"type": "Feature", "id": "-alAWDAOeN5jjBmBRnO85ZVyk9Q=", "properties": {"ref": "284", "@spider": "84lumber", "shop": "trade", "trade": "building_supplies", "addr:street_address": "4400 6TH AVENUE", "addr:city": "ALTOONA", "addr:state": "PA", "addr:postcode": "16602", "name": "ALTOONA", "phone": "8149428400", "website": "https://www.84lumber.com/store-locator/store-detail/?storeId=284", "opening_hours": "Mo-Fr 07:00-18:00; Sa 08:00-16:00", "brand": "84 Lumber", "brand:wikidata": "Q4644779", "nsi_id": "84lumber-4e950c"}, "geometry": {"type": "Point", "coordinates": [-78.4176, 40.4824]}},
{"type": "Feature", "id": "5HCbBW05bvaiYV4ycQrmwyGJWV8=", "properties": {"ref": "434", "@spider": "84lumber", "shop": "trade", "trade": "building_supplies", "addr:street_address": "41 FISHER ROAD", "addr:city": "MOOREFIELD", "addr:state": "WV", "addr:postcode": "26836", "name": "MOOREFIELD", "phone": "3045386612", "website": "https://www.84lumber.com/store-locator/store-detail/?storeId=434", "opening_hours": "Mo-Fr 07:00-18:00; Sa 08:00-16:00; Su 09:00-16:00", "brand": "84 Lumber", "brand:wikidata": "Q4644779", "nsi_id": "84lumber-4e950c"}, "geometry": {"type": "Point", "coordinates": [-78.98077, 39.0469437]}},
{"type": "Feature", "id": "myWaGpeLNsrcjQuDIlvRgpF7A-M=", "properties": {"ref": "304", "@spider": "84lumber", "shop": "trade", "trade": "building_supplies", "addr:street_address": "250 HIGHLAND RD EAST", "addr:city": "MACEDONIA", "addr:state": "OH", "addr:postcode": "44056", "name": "MACEDONIA", "phone": "3309080481", "website": "https://www.84lumber.com/store-locator/store-detail/?storeId=304", "opening_hours": "Mo-Fr 07:00-18:00; Sa 08:00-12:00", "brand": "84 Lumber", "brand:wikidata": "Q4644779", "nsi_id": "84lumber-4e950c"}, "geometry": {"type": "Point", "coordinates": [-81.51612, 41.29909]}},
{"type": "Feature", "id": "qwL52ngKj1h8abcLym9V6X7kJtg=", "properties": {"ref": "427", "@spider": "84lumber", "shop": "trade", "trade": "building_supplies", "addr:street_address": "2509 STATE ST", "addr:city": "GASSAWAY", "addr:state": "WV", "addr:postcode": "26624", "name": "GASSAWAY", "phone": "3043648426", "website": "https://www.84lumber.com/store-locator/store-detail/?storeId=427", "opening_hours": "Mo-Fr 07:00-18:00; Sa 08:00-16:00", "brand": "84 Lumber", "brand:wikidata": "Q4644779", "nsi_id": "84lumber-4e950c"}, "geometry": {"type": "Point", "coordinates": [-80.7546, 38.6623573]}},
{"type": "Feature", "id": "WqrHUPVgZnn8zgNAwCRaw52MyOM=", "properties": {"ref": "289", "@spider": "84lumber", "shop": "trade", "trade": "building_supplies", "addr:street_address": "10191 FAIRGROUNDS RD", "addr:city": "HUNTINGDON", "addr:state": "PA", "addr:postcode": "16652", "name": "HUNTINGDON", "phone": "8146437284", "website": "https://www.84lumber.com/store-locator/store-detail/?storeId=289", "opening_hours": "Mo-Fr 07:00-18:00; Sa 08:00-16:00", "brand": "84 Lumber", "brand:wikidata": "Q4644779", "nsi_id": "84lumber-4e950c"}, "geometry": {"type": "Point", "coordinates": [-78.02455, 40.4820862]}},
{"type": "Feature", "id": "UMjhOcE6FVj5UZPyInHMYOoE_fA=", "properties": {"ref": "314", "@spider": "84lumber", "shop": "trade", "trade": "building_supplies", "addr:street_address": "8129 CRILE RD", "addr:city": "PAINESVILLE", "addr:state": "OH", "addr:postcode": "44077-9300", "name": "PAINESVILLE", "phone": "4403528919", "website": "https://www.84lumber.com/store-locator/store-detail/?storeId=314", "opening_hours": "Mo-Fr 07:00-17:00", "brand": "84 Lumber", "brand:wikidata": "Q4644779", "nsi_id": "84lumber-4e950c"}, "geometry": {"type": "Point", "coordinates": [-81.2406, 41.6497879]}},
{"type": "Feature", "id": "DtBS7BbCXqfDEOwKQorEXH2DrW4=", "properties": {"ref": "303", "@spider": "84lumber", "shop": "trade", "trade": "building_supplies", "addr:street_address": "34457 E ROYALTON RD", "addr:city": "COLUMBIA STATION", "addr:state": "OH", "addr:postcode": "44028-9705", "name": "NORTH EATON", "phone": "4407482104", "website": "https://www.84lumber.com/store-locator/store-detail/?storeId=303", "opening_hours": "Mo-Fr 07:00-18:00; Sa 08:00-12:00", "brand": "84 Lumber", "brand:wikidata": "Q4644779", "nsi_id": "84lumber-4e950c"}, "geometry": {"type": "Point", "coordinates": [-81.98543, 41.3135]}},
{"type": "Feature", "id": "A6LjU1Rbxssi8mSPHs3D3aWIDKE=", "properties": {"ref": "424", "@spider": "84lumber", "shop": "trade", "trade": "building_supplies", "addr:street_address": "326 CHARLESTOWN RD", "addr:city": "MARTINSBURG", "addr:state": "WV", "addr:postcode": "25405", "name": "MARTINSBURG", "phone": "3042638884", "website": "https://www.84lumber.com/store-locator/store-detail/?storeId=424", "opening_hours": "Mo-Fr 07:00-18:00; Sa 08:00-12:00", "brand": "84 Lumber", "brand:wikidata": "Q4644779", "nsi_id": "84lumber-4e950c"}, "geometry": {"type": "Point", "coordinates": [-77.9552155, 39.4315224]}},
{"type": "Feature", "id": "NuDWse_Ze3W7hGwQX9QBocP8Ggo=", "properties": {"ref": "1724", "@spider": "84lumber", "shop": "trade", "trade": "building_supplies", "addr:street_address": "9071 WINCHESTER ROAD", "addr:city": "FRONT ROYAL", "addr:state": "VA", "addr:postcode": "22630", "name": "FRONT ROYAL", "phone": "5406368420", "website": "https://www.84lumber.com/store-locator/store-detail/?storeId=1724", "opening_hours": "Mo-Fr 07:00-18:00; Sa 08:00-12:00", "brand": "84 Lumber", "brand:wikidata": "Q4644779", "nsi_id": "84lumber-4e950c"}, "geometry": {"type": "Point", "coordinates": [-78.18772, 38.9685135]}},
{"type": "Feature", "id": "ri2aFn06JFH9zx1DHZnSnwgAYfg=", "properties": {"ref": "435", "@spider": "84lumber", "shop": "trade", "trade": "building_supplies", "addr:street_address": "134 WESTCOTT DR", "addr:city": "RANSON", "addr:state": "WV", "addr:postcode": "25438", "name": "RANSON", "phone": "3047280884", "website": "https://www.84lumber.com/store-locator/store-detail/?storeId=435", "opening_hours": "Mo-Fr 07:00-18:00; Sa 08:00-12:00", "brand": "84 Lumber", "brand:wikidata": "Q4644779", "nsi_id": "84lumber-4e950c"}, "geometry": {"type": "Point", "coordinates": [-77.8603, 39.3144]}},
{"type": "Feature", "id": "PNQqVXJotl6SHm28Euu26MALZ8g=", "properties": {"ref": "301", "@spider": "84lumber", "shop": "trade", "trade": "building_supplies", "addr:street_address": "11745 BROAD ST SW", "addr:city": "PATASKALA", "addr:state": "OH", "addr:postcode": "43062-9257", "name": "PATASKALA", "phone": "7409275025", "website": "https://www.84lumber.com/store-locator/store-detail/?storeId=301", "opening_hours": "Mo-Fr 07:00-18:00; Sa 08:00-12:00", "brand": "84 Lumber", "brand:wikidata": "Q4644779", "nsi_id": "84lumber-4e950c"}, "geometry": {"type": "Point", "coordinates": [-82.68406, 40.0019531]}},
{"type": "Feature", "id": "9ZCFEsYdAVooq1lMmkkqno53_iI=", "properties": {"ref": "357", "@spider": "84lumber", "shop": "trade", "trade": "building_supplies", "addr:street_address": "2730 N COLUMBUS ST", "addr:city": "LANCASTER", "addr:state": "OH", "addr:postcode": "43130", "name": "LANCASTER", "phone": "7406538482", "website": "https://www.84lumber.com/store-locator/store-detail/?storeId=357", "opening_hours": "Mo-Fr 07:00-18:00; Sa 08:00-12:00", "brand": "84 Lumber", "brand:wikidata": "Q4644779", "nsi_id": "84lumber-4e950c"}, "geometry": {"type": "Point", "coordinates": [-82.64343, 39.7443428]}},
{"type": "Feature", "id": "M-ffQhqCUfYhwNj1c9dvRFAWMDU=", "properties": {"ref": "294", "@spider": "84lumber", "shop": "trade", "trade": "building_supplies", "addr:street_address": "6150 BUCHANAN TRAIL EAST", "addr:city": "WAYNESBORO", "addr:state": "PA", "addr:postcode": "17268", "name": "WAYNESBORO", "phone": "7177628421", "website": "https://www.84lumber.com/store-locator/store-detail/?storeId=294", "opening_hours": "Mo-Fr 07:00-18:00; Sa 08:00-12:00", "brand": "84 Lumber", "brand:wikidata": "Q4644779", "nsi_id": "84lumber-4e950c"}, "geometry": {"type": "Point", "coordinates": [-77.60497, 39.7635956]}},
{"type": "Feature", "id": "dnbgdtrccLQVTinZeITLDI07K5o=", "properties": {"ref": "411", "@spider": "84lumber", "shop": "trade", "trade": "building_supplies", "addr:street_address": "1290 LITTLE SANDY RD", "addr:city": "ELKVIEW", "addr:state": "WV", "addr:postcode": "25071", "name": "ELKVIEW", "phone": "3049657084", "website": "https://www.84lumber.com/store-locator/store-detail/?storeId=411", "opening_hours": "Mo-Fr 07:00-18:00; Sa 08:00-16:00; Su 09:00-16:00", "brand": "84 Lumber", "brand:wikidata": "Q4644779", "nsi_id": "84lumber-4e950c"}, "geometry": {"type": "Point", "coordinates": [-81.5016, 38.4564629]}},
{"type": "Feature", "id": "CGCoHqCZfgnbTyjOCF4UwD48g40=", "properties": {"ref": "933", "@spider": "84lumber", "shop": "trade", "trade": "building_supplies", "addr:street_address": "203 S MAPLE AV", "addr:city": "BRUNSWICK", "addr:state": "MD", "addr:postcode": "21716", "name": "BRUNSWICK", "phone": "3018348422", "website": "https://www.84lumber.com/store-locator/store-detail/?storeId=933", "opening_hours": "Mo-Fr 07:00-18:00; Sa 08:00-12:00", "brand": "84 Lumber", "brand:wikidata": "Q4644779", "nsi_id": "84lumber-4e950c"}, "geometry": {"type": "Point", "coordinates": [-77.6383, 39.31437]}},
{"type": "Feature", "id": "ETue6WjWQX-sVaK2K-r6gtOQLps=", "properties": {"ref": "356", "@spider": "84lumber", "shop": "trade", "trade": "building_supplies", "addr:street_address": "2200 ACY AVENUE", "addr:city": "JACKSON", "addr:state": "OH", "addr:postcode": "45640", "name": "JACKSON", "phone": "7402868410", "website": "https://www.84lumber.com/store-locator/store-detail/?storeId=356", "opening_hours": "Mo-Fr 07:00-18:00; Sa 08:00-16:00", "brand": "84 Lumber", "brand:wikidata": "Q4644779", "nsi_id": "84lumber-4e950c"}, "geometry": {"type": "Point", "coordinates": [-82.60679, 39.0386467]}},
{"type": "Feature", "id": "LiIzt26iQq2Mq6kzZXwUi8GTmcM=", "properties": {"ref": "402", "@spider": "84lumber", "shop": "trade", "trade": "building_supplies", "addr:street_address": "400 WINFIELD RD", "addr:city": "ST. ALBANS", "addr:state": "WV", "addr:postcode": "25177", "name": "ST. ALBANS", "phone": "3047223366", "website": "https://www.84lumber.com/store-locator/store-detail/?storeId=402", "opening_hours": "Mo-Fr 07:00-18:00; Sa 08:00-16:00; Su 09:00-16:00", "brand": "84 Lumber", "brand:wikidata": "Q4644779", "nsi_id": "84lumber-4e950c"}, "geometry": {"type": "Point", "coordinates": [-81.85559, 38.399]}},
{"type": "Feature", "id": "Aq6tlXgU97pcJHBQ1gB4dgVM0U4=", "properties": {"ref": "345", "@spider": "84lumber", "shop": "trade", "trade": "building_supplies", "addr:street_address": "2045 US 23 NORTH", "addr:city": "DELAWARE", "addr:state": "OH", "addr:postcode": "43015-8804", "name": "DELAWARE", "phone": "7403698484", "website": "https://www.84lumber.com/store-locator/store-detail/?storeId=345", "opening_hours": "Mo-Fr 07:00-18:00; Sa 08:00-12:00", "brand": "84 Lumber", "brand:wikidata": "Q4644779", "nsi_id": "84lumber-4e950c"}, "geometry": {"type": "Point", "coordinates": [-83.0721, 40.32775]}},
{"type": "Feature", "id": "Bvmz99AJrPLq_BgoNj8HQDzvyxc=", "properties": {"ref": "310", "@spider": "84lumber", "shop": "trade", "trade": "building_supplies", "addr:street_address": "569 ROME HILLIARD RD", "addr:city": "COLUMBUS", "addr:state": "OH", "addr:postcode": "43228-9541", "name": "COLUMBUS", "phone": "6148785393", "website": "https://www.84lumber.com/store-locator/store-detail/?storeId=310", "opening_hours": "Mo-Fr 07:00-17:00", "brand": "84 Lumber", "brand:wikidata": "Q4644779", "nsi_id": "84lumber-4e950c"}, "geometry": {"type": "Point", "coordinates": [-83.1467056, 39.9628944]}},
{"type": "Feature", "id": "KyJrnHIvC0YkdqNgOcYinX8j8C0=", "properties": {"ref": "412", "@spider": "84lumber", "shop": "trade", "trade": "building_supplies", "addr:street_address": "1250  ROUTE 60 EAST", "addr:city": "MILTON", "addr:state": "WV", "addr:postcode": "25541", "name": "MILTON", "phone": "3047439484", "website": "https://www.84lumber.com/store-locator/store-detail/?storeId=412", "opening_hours": "Mo-Fr 07:00-18:00; Sa 08:00-16:00", "brand": "84 Lumber", "brand:wikidata": "Q4644779", "nsi_id": "84lumber-4e950c"}, "geometry": {"type": "Point", "coordinates": [-82.11982, 38.4339142]}},
{"type": "Feature", "id": "b8izsExa_9XFCspPO9k0Gfpo0rQ=", "properties": {"ref": "205", "@spider": "84lumber", "shop": "trade", "trade": "building_supplies", "addr:street_address": "301 ROUTE 15 NORTH", "addr:city": "DILLSBURG", "addr:state": "PA", "addr:postcode": "17019-1204", "name": "DILLSBURG", "phone": "7174322484", "website": "https://www.84lumber.com/store-locator/store-detail/?storeId=205", "opening_hours": "Mo-Fr 07:00-18:00; Sa 08:00-12:00", "brand": "84 Lumber", "brand:wikidata": "Q4644779", "nsi_id": "84lumber-4e950c"}, "geometry": {"type": "Point", "coordinates": [-77.03856, 40.1151924]}},
{"type": "Feature", "id": "0nUXzIrXZbcOZkZn8M6AzO4M020=", "properties": {"ref": "1722", "@spider": "84lumber", "shop": "trade", "trade": "building_supplies", "addr:street_address": "14209 LOVERS LANE", "addr:city": "CULPEPPER", "addr:state": "VA", "addr:postcode": "22701", "name": "CULPEPPER", "phone": "5408258470", "website": "https://www.84lumber.com/store-locator/store-detail/?storeId=1722", "opening_hours": "Mo-Fr 07:00-18:00; Sa 08:00-12:00", "brand": "84 Lumber", "brand:wikidata": "Q4644779", "nsi_id": "84lumber-4e950c"}, "geometry": {"type": "Point", "coordinates": [-77.9874, 38.44446]}},
{"type": "Feature", "id": "nEF6lw6Ga_BL7vAlIp8o6vD3jmQ=", "properties": {"ref": "421", "@spider": "84lumber", "shop": "trade", "trade": "building_supplies", "addr:street_address": "184 MAPLEWOOD AVE", "addr:city": "LEWISBURG", "addr:state": "WV", "addr:postcode": "24901", "name": "FAIRLEA", "phone": "3046474624", "website": "https://www.84lumber.com/store-locator/store-detail/?storeId=421", "opening_hours": "Mo-Fr 07:00-18:00; Sa 08:00-12:00", "brand": "84 Lumber", "brand:wikidata": "Q4644779", "nsi_id": "84lumber-4e950c"}, "geometry": {"type": "Point", "coordinates": [-80.45545, 37.7861443]}},
{"type": "Feature", "id": "bb8TsthBvPjjB33VB409EuHcdE8=", "properties": {"ref": "920", "@spider": "84lumber", "shop": "trade", "trade": "building_supplies", "addr:street_address": "4484 QUAD COUNTRY COURT", "addr:city": "MOUNT AIRY", "addr:state": "MD", "addr:postcode": "21771-4640", "name": "MT. AIRY", "phone": "3018291984", "website": "https://www.84lumber.com/store-locator/store-detail/?storeId=920", "opening_hours": "Mo-Fr 07:00-18:00; Sa 08:00-12:00", "brand": "84 Lumber", "brand:wikidata": "Q4644779", "nsi_id": "84lumber-4e950c"}, "geometry": {"type": "Point", "coordinates": [-77.1696, 39.35623]}},
{"type": "Feature", "id": "ba_OW0oBHRDKNanvZU5LObh11Ak=", "properties": {"ref": "1716", "@spider": "84lumber", "shop": "trade", "trade": "building_supplies", "addr:street_address": "2440 LEAKE SQUARE", "addr:city": "CHARLOTTESVILLE", "addr:state": "VA", "addr:postcode": "22901-8224", "name": "CHARLOTTESVILLE", "phone": "4349737403", "website": "https://www.84lumber.com/store-locator/store-detail/?storeId=1716", "opening_hours": "Mo-Fr 07:00-18:00; Sa 08:00-12:00", "brand": "84 Lumber", "brand:wikidata": "Q4644779", "nsi_id": "84lumber-4e950c"}, "geometry": {"type": "Point", "coordinates": [-78.43306, 38.13349]}},
{"type": "Feature", "id": "Iv_9hfGQaVhcGpTFQi_frt4qvkw=", "properties": {"ref": "1726", "@spider": "84lumber", "shop": "trade", "trade": "building_supplies", "addr:street_address": "7960 NOTES DR", "addr:city": "MANASSAS", "addr:state": "VA", "addr:postcode": "20109", "name": "MANASSAS", "phone": "7033308420", "website": "https://www.84lumber.com/store-locator/store-detail/?storeId=1726", "opening_hours": "Mo-Fr 07:00-18:00; Sa 08:00-12:00", "brand": "84 Lumber", "brand:wikidata": "Q4644779", "nsi_id": "84lumber-4e950c"}, "geometry": {"type": "Point", "coordinates": [-77.5431, 38.7853737]}},
{"type": "Feature", "id": "j3dna0T6SoBGof9ajWqDQOVxrpY=", "properties": {"ref": "420", "@spider": "84lumber", "shop": "trade", "trade": "building_supplies", "addr:street_address": "5184 US 60 EAST", "addr:city": "HUNTINGTON", "addr:state": "WV", "addr:postcode": "25705", "name": "HUNTINGTON", "phone": "3047368484", "website": "https://www.84lumber.com/store-locator/store-detail/?storeId=420", "opening_hours": "Mo-Fr 07:00-18:00; Sa 08:00-16:00", "brand": "84 Lumber", "brand:wikidata": "Q4644779", "nsi_id": "84lumber-4e950c"}, "geometry": {"type": "Point", "coordinates": [-82.34294, 38.4153976]}},
{"type": "Feature", "id": "wPidmjAo66X_bxG0t22CT0QlFuU=", "properties": {"ref": "905", "@spider": "84lumber", "shop": "trade", "trade": "building_supplies", "addr:street_address": "336 MANCHESTER RD", "addr:city": "WESTMINSTER", "addr:state": "MD", "addr:postcode": "21157-3806", "name": "WESTMINSTER", "phone": "4108480484", "website": "https://www.84lumber.com/store-locator/store-detail/?storeId=905", "opening_hours": "Mo-Fr 07:00-18:00; Sa 08:00-12:00", "brand": "84 Lumber", "brand:wikidata": "Q4644779", "nsi_id": "84lumber-4e950c"}, "geometry": {"type": "Point", "coordinates": [-76.98432, 39.5815]}},
{"type": "Feature", "id": "Rj8-UI_vGptZykjBwiraqrYPo-0=", "properties": {"ref": "429", "@spider": "84lumber", "shop": "trade", "trade": "building_supplies", "addr:street_address": "265 AIRPORT ROAD", "addr:city": "BEAVER", "addr:state": "WV", "addr:postcode": "25813", "name": "BECKLEY", "phone": "3042528400", "website": "https://www.84lumber.com/store-locator/store-detail/?storeId=429", "opening_hours": "Mo-Fr 07:00-18:00; Sa 08:00-16:00; Su 09:00-16:00", "brand": "84 Lumber", "brand:wikidata": "Q4644779", "nsi_id": "84lumber-4e950c"}, "geometry": {"type": "Point", "coordinates": [-81.1326, 37.7512779]}},
{"type": "Feature", "id": "-ZNjAZXNyivUjK18zIFAXfsWpBI=", "properties": {"ref": "504", "@spider": "84lumber", "shop": "trade", "trade": "building_supplies", "addr:street_address": "325 43RD STREET", "addr:city": "ASHLAND", "addr:state": "KY", "addr:postcode": "41101", "name": "ASHLAND", "phone": "6063290084", "website": "https://www.84lumber.com/store-locator/store-detail/?storeId=504", "opening_hours": "Mo-Fr 07:00-18:00; Sa 08:00-16:00; Su 09:00-16:00", "brand": "84 Lumber", "brand:wikidata": "Q4644779", "nsi_id": "84lumber-4e950c"}, "geometry": {"type": "Point", "coordinates": [-82.61306, 38.44957]}},
{"type": "Feature", "id": "tzd36G6SjP8rRCVBwKE_MRkVwi0=", "properties": {"ref": "360", "@spider": "84lumber", "shop": "trade", "trade": "building_supplies", "addr:street_address": "56 PLAZA DRIVE", "addr:city": "PORTSMOUTH", "addr:state": "OH", "addr:postcode": "45662", "name": "PORTSMOUTH", "phone": "7403543384", "website": "https://www.84lumber.com/store-locator/store-detail/?storeId=360", "opening_hours": "Mo-Fr 07:00-18:00; Sa 08:00-12:00", "brand": "84 Lumber", "brand:wikidata": "Q4644779", "nsi_id": "84lumber-4e950c"}, "geometry": {"type": "Point", "coordinates": [-82.9837646, 38.7930069]}},
{"type": "Feature", "id": "pQ5gmFuPS7tCPXwKO9HeQDezdD8=", "properties": {"ref": "1714", "@spider": "84lumber", "shop": "trade", "trade": "building_supplies", "addr:street_address": "64 SIMPSON LN", "addr:city": "FREDERICKSBURG", "addr:state": "VA", "addr:postcode": "22406", "name": "FREDERICKSBURG", "phone": "5403711444", "website": "https://www.84lumber.com/store-locator/store-detail/?storeId=1714", "opening_hours": "Mo-Fr 07:00-18:00; Sa 08:00-12:00", "brand": "84 Lumber", "brand:wikidata": "Q4644779", "nsi_id": "84lumber-4e950c"}, "geometry": {"type": "Point", "coordinates": [-77.4958, 38.340023]}},
{"type": "Feature", "id": "XGKcbc8Dh2n4ZzmNqgU0oWyQGSo=", "properties": {"ref": "617", "@spider": "84lumber", "shop": "trade", "trade": "building_supplies", "addr:street_address": "4365 TAYLOR RD", "addr:city": "ORCHARD PARK", "addr:state": "NY", "addr:postcode": "14127-2270", "name": "ORCHARD PARK", "phone": "7166620084", "website": "https://www.84lumber.com/store-locator/store-detail/?storeId=617", "opening_hours": "Mo-Fr 07:00-18:00; Sa 08:00-12:00", "brand": "84 Lumber", "brand:wikidata": "Q4644779", "nsi_id": "84lumber-4e950c"}, "geometry": {"type": "Point", "coordinates": [-78.7612152, 42.7639046]}},
{"type": "Feature", "id": "Y2IiXrVw1oqioG60-Bz4WC_1zy4=", "properties": {"ref": "911", "@spider": "84lumber", "shop": "trade", "trade": "building_supplies", "addr:street_address": "53 W TIMONIUM RD", "addr:city": "TIMONIUM", "addr:state": "MD", "addr:postcode": "21093-3102", "name": "TIMONIUM", "phone": "4105610184", "website": "https://www.84lumber.com/store-locator/store-detail/?storeId=911", "opening_hours": "Mo-Fr 07:00-18:00; Sa 08:00-12:00", "brand": "84 Lumber", "brand:wikidata": "Q4644779", "nsi_id": "84lumber-4e950c"}, "geometry": {"type": "Point", "coordinates": [-76.6302, 39.43938]}},
{"type": "Feature", "id": "PRLG_-bfLaPL73VFNHbKZ8nuIas=", "properties": {"ref": "1710", "@spider": "84lumber", "shop": "trade", "trade": "building_supplies", "addr:street_address": "2699 LEE HWY SOUTH", "addr:city": "TROUTVILLE", "addr:state": "VA", "addr:postcode": "24175", "name": "TROUTVILLE", "phone": "5409921084", "website": "https://www.84lumber.com/store-locator/store-detail/?storeId=1710", "opening_hours": "Mo-Fr 07:00-18:00; Sa 08:00-12:00", "brand": "84 Lumber", "brand:wikidata": "Q4644779", "nsi_id": "84lumber-4e950c"}, "geometry": {"type": "Point", "coordinates": [-79.90449, 37.3861046]}},
{"type": "Feature", "id": "_iRwypF_kFNstq1MrzHfa09Il3w=", "properties": {"ref": "1715", "@spider": "84lumber", "shop": "trade", "trade": "building_supplies", "addr:street_address": "4401 S AMHERST HWY, US 29", "addr:city": "MADISON HEIGHTS", "addr:state": "VA", "addr:postcode": "24572-9804", "name": "LYNCHBURG", "phone": "4348468484", "website": "https://www.84lumber.com/store-locator/store-detail/?storeId=1715", "opening_hours": "Mo-Fr 07:00-18:00; Sa 08:00-12:00", "brand": "84 Lumber", "brand:wikidata": "Q4644779", "nsi_id": "84lumber-4e950c"}, "geometry": {"type": "Point", "coordinates": [-79.1214, 37.4556847]}},
{"type": "Feature", "id": "fBJ5qMskIxi8lWjuXHmzK6HU_VQ=", "properties": {"ref": "632", "@spider": "84lumber", "shop": "trade", "trade": "building_supplies", "addr:street_address": "6061 SENECA ST", "addr:city": "ELMA", "addr:state": "NY", "addr:postcode": "14059-9608", "name": "ELMA", "phone": "7166528462", "website": "https://www.84lumber.com/store-locator/store-detail/?storeId=632", "opening_hours": "Mo-Fr 07:00-18:00; Sa 08:00-12:00", "brand": "84 Lumber", "brand:wikidata": "Q4644779", "nsi_id": "84lumber-4e950c"}, "geometry": {"type": "Point", "coordinates": [-78.68375, 42.8230476]}},
{"type": "Feature", "id": "OOa6Cr5V65rVYnW0mEtFeXFB-Jg=", "properties": {"ref": "1720", "@spider": "84lumber", "shop": "trade", "trade": "building_supplies", "addr:street_address": "3345 VIRGINIA AVE", "addr:city": "NARROWS", "addr:state": "VA", "addr:postcode": "24124", "name": "PEARISBURG", "phone": "5409212284", "website": "https://www.84lumber.com/store-locator/store-detail/?storeId=1720", "opening_hours": "Mo-Fr 07:00-18:00; Sa 08:00-16:00; Su 09:00-16:00", "brand": "84 Lumber", "brand:wikidata": "Q4644779", "nsi_id": "84lumber-4e950c"}, "geometry": {"type": "Point", "coordinates": [-80.769, 37.35045]}},
{"type": "Feature", "id": "B202GQgg_S0dwIvAhz0SrgKyrHE=", "properties": {"ref": "295", "@spider": "84lumber", "shop": "trade", "trade": "building_supplies", "addr:street_address": "2484 E CUMBERLAND STREET", "addr:city": "LEBANON", "addr:state": "PA", "addr:postcode": "17042", "name": "LEBANON", "phone": "7172728454", "website": "https://www.84lumber.com/store-locator/store-detail/?storeId=295", "opening_hours": "Mo-Fr 07:00-18:00; Sa 08:00-12:00", "brand": "84 Lumber", "brand:wikidata": "Q4644779", "nsi_id": "84lumber-4e950c"}, "geometry": {"type": "Point", "coordinates": [-76.36342, 40.35841]}},
{"type": "Feature", "id": "5tgBoVy5afxN4NKaHkaPaJPd9Ac=", "properties": {"ref": "601", "@spider": "84lumber", "shop": "trade", "trade": "building_supplies", "addr:street_address": "3317 WALDEN AVE", "addr:city": "DEPEW", "addr:state": "NY", "addr:postcode": "14043-2347", "name": "DEPEW", "phone": "7166838450", "website": "https://www.84lumber.com/store-locator/store-detail/?storeId=601", "opening_hours": "Mo-Fr 07:00-18:00; Sa 08:00-12:00", "brand": "84 Lumber", "brand:wikidata": "Q4644779", "nsi_id": "84lumber-4e950c"}, "geometry": {"type": "Point", "coordinates": [-78.68966, 42.9129066]}},
{"type": "Feature", "id": "n2KyTKlElb8T3qmZYvmpNHbQUtU=", "properties": {"ref": "910", "@spider": "84lumber", "shop": "trade", "trade": "building_supplies", "addr:street_address": "4460 CRAIN HIGHWAY", "addr:city": "WHITE PLAINS", "addr:state": "MD", "addr:postcode": "20695-3006", "name": "WHITE PLAINS", "phone": "3018438480", "website": "https://www.84lumber.com/store-locator/store-detail/?storeId=910", "opening_hours": "Mo-Fr 07:00-18:00; Sa 08:00-12:00", "brand": "84 Lumber", "brand:wikidata": "Q4644779", "nsi_id": "84lumber-4e950c"}, "geometry": {"type": "Point", "coordinates": [-76.9424, 38.5898]}},
{"type": "Feature", "id": "yzm9HFNRmhl_1PPM3bwBnQEiZzE=", "properties": {"ref": "916", "@spider": "84lumber", "shop": "trade", "trade": "building_supplies", "addr:street_address": "7947 FT SMALLWOOD RD", "addr:city": "CURTIS BAY", "addr:state": "MD", "addr:postcode": "21226-1909", "name": "CURTIS BAY", "phone": "4102558400", "website": "https://www.84lumber.com/store-locator/store-detail/?storeId=916", "opening_hours": "Mo-Fr 07:00-18:00; Sa 08:00-12:00", "brand": "84 Lumber", "brand:wikidata": "Q4644779", "nsi_id": "84lumber-4e950c"}, "geometry": {"type": "Point", "coordinates": [-76.53485, 39.1711235]}},
{"type": "Feature", "id": "pMxp3eSXWu6yh3NFEZ7olpLCQrA=", "properties": {"ref": "608", "@spider": "84lumber", "shop": "trade", "trade": "building_supplies", "addr:street_address": "2286 MILITARY RD", "addr:city": "TONAWANDA", "addr:state": "NY", "addr:postcode": "14150-6002", "name": "TONAWANDA", "phone": "7166953784", "website": "https://www.84lumber.com/store-locator/store-detail/?storeId=608", "opening_hours": "Mo-Fr 07:00-18:00; Sa 08:00-12:00", "brand": "84 Lumber", "brand:wikidata": "Q4644779", "nsi_id": "84lumber-4e950c"}, "geometry": {"type": "Point", "coordinates": [-78.88218, 42.9997864]}},
{"type": "Feature", "id": "R3KUXtRrFchcvl27dH-5GK1wEAU=", "properties": {"ref": "913", "@spider": "84lumber", "shop": "trade", "trade": "building_supplies", "addr:street_address": "15409 MARLBORO PIKE", "addr:city": "UPPER MARLBORO", "addr:state": "MD", "addr:postcode": "20772-3133", "name": "UPPER MARLBORO", "phone": "3019520584", "website": "https://www.84lumber.com/store-locator/store-detail/?storeId=913", "opening_hours": "Mo-Fr 07:00-18:00; Sa 08:00-12:00", "brand": "84 Lumber", "brand:wikidata": "Q4644779", "nsi_id": "84lumber-4e950c"}, "geometry": {"type": "Point", "coordinates": [-76.73803, 38.8238373]}},
{"type": "Feature", "id": "2wWbPFfce9JunzJzxY0zWLsJiHQ=", "properties": {"ref": "922", "@spider": "84lumber", "shop": "trade", "trade": "building_supplies", "addr:street_address": "1704 HARFORD RD", "addr:city": "FALLSTON", "addr:state": "MD", "addr:postcode": "21047-2683", "name": "BEL AIR", "phone": "4108794384", "website": "https://www.84lumber.com/store-locator/store-detail/?storeId=922", "opening_hours": "Mo-Fr 07:00-18:00; Sa 08:00-12:00", "brand": "84 Lumber", "brand:wikidata": "Q4644779", "nsi_id": "84lumber-4e950c"}, "geometry": {"type": "Point", "coordinates": [-76.38376, 39.507]}},
{"type": "Feature", "id": "a8wrTzF_lAdNXuPZ22h_6zGnZWU=", "properties": {"ref": "902", "@spider": "84lumber", "shop": "trade", "trade": "building_supplies", "addr:street_address": "12400 PULASKI HWY", "addr:city": "JOPPA", "addr:state": "MD", "addr:postcode": "21085-0440", "name": "BRADSHAW - JOPPA", "phone": "4106798440", "website": "https://www.84lumber.com/store-locator/store-detail/?storeId=902", "opening_hours": "Mo-Fr 07:00-18:00; Sa 08:00-12:00", "brand": "84 Lumber", "brand:wikidata": "Q4644779", "nsi_id": "84lumber-4e950c"}, "geometry": {"type": "Point", "coordinates": [-76.377594, 39.4186058]}},
{"type": "Feature", "id": "Xj4vWdUPqBefq57vNy0o7RV29o8=", "properties": {"ref": "282", "@spider": "84lumber", "shop": "trade", "trade": "building_supplies", "addr:street_address": "6765 KEEFER LANE", "addr:city": "BLOOMSBURG", "addr:state": "PA", "addr:postcode": "17815", "name": "BLOOMSBURG", "phone": "5703878484", "website": "https://www.84lumber.com/store-locator/store-detail/?storeId=282", "opening_hours": "Mo-Fr 07:00-18:00; Sa 08:00-12:00", "brand": "84 Lumber", "brand:wikidata": "Q4644779", "nsi_id": "84lumber-4e950c"}, "geometry": {"type": "Point", "coordinates": [-76.3553, 41.0267029]}},
{"type": "Feature", "id": "BndC5_OSAzWgHYMEa33QSr4b6Lo=", "properties": {"ref": "305", "@spider": "84lumber", "shop": "trade", "trade": "building_supplies", "addr:street_address": "732 ILLINOIS AVE", "addr:city": "MAUMEE", "addr:state": "OH", "addr:postcode": "43537-1712", "name": "MAUMEE", "phone": "4198938400", "website": "https://www.84lumber.com/store-locator/store-detail/?storeId=305", "opening_hours": "Mo-Fr 07:00-18:00; Sa 08:00-12:00", "brand": "84 Lumber", "brand:wikidata": "Q4644779", "nsi_id": "84lumber-4e950c"}, "geometry": {"type": "Point", "coordinates": [-83.67504, 41.56935]}},
{"type": "Feature", "id": "2avwKRWgZXxaYfNU21GIqWvea-o=", "properties": {"ref": "909", "@spider": "84lumber", "shop": "trade", "trade": "building_supplies", "addr:street_address": "1690 BALT-ANNAPOLIS BLVD", "addr:city": "ARNOLD", "addr:state": "MD", "addr:postcode": "21012", "name": "ANNAPOLIS", "phone": "4107574684", "website": "https://www.84lumber.com/store-locator/store-detail/?storeId=909", "opening_hours": "Mo-Fr 07:00-18:00; Sa 08:00-16:00; Su 09:00-16:00", "brand": "84 Lumber", "brand:wikidata": "Q4644779", "nsi_id": "84lumber-4e950c"}, "geometry": {"type": "Point", "coordinates": [-76.49023, 39.0154762]}},
{"type": "Feature", "id": "tWnpjVKoTRyxWRtzn8uZLl48fus=", "properties": {"ref": "1707", "@spider": "84lumber", "shop": "trade", "trade": "building_supplies", "addr:street_address": "2245 ROANOKE STREET", "addr:city": "CHRISTIANSBURG", "addr:state": "VA", "addr:postcode": "24073", "name": "CHRISTIANSBURG", "phone": "5403821417", "website": "https://www.84lumber.com/store-locator/store-detail/?storeId=1707", "opening_hours": "Mo-Fr 07:00-18:00; Sa 08:00-12:00", "brand": "84 Lumber", "brand:wikidata": "Q4644779", "nsi_id": "84lumber-4e950c"}, "geometry": {"type": "Point", "coordinates": [-80.3662, 37.1346]}},
{"type": "Feature", "id": "DNZ7VSF_Tb1ItlsqhCOjIQXG5aU=", "properties": {"ref": "626", "@spider": "84lumber", "shop": "trade", "trade": "building_supplies", "addr:street_address": "11350 TRANSIT RD", "addr:city": "EAST AMHERST", "addr:state": "NY", "addr:postcode": "14051-1017", "name": "MILLERSPORT", "phone": "7166880484", "website": "https://www.84lumber.com/store-locator/store-detail/?storeId=626", "opening_hours": "Mo-Fr 07:00-18:00; Sa 08:00-12:00", "brand": "84 Lumber", "brand:wikidata": "Q4644779", "nsi_id": "84lumber-4e950c"}, "geometry": {"type": "Point", "coordinates": [-78.69703, 43.079216]}},
{"type": "Feature", "id": "mPOtaA56o1ASg-8o78wv9gaZ5ho=", "properties": {"ref": "925", "@spider": "84lumber", "shop": "trade", "trade": "building_supplies", "addr:street_address": "895 BEARDS HILL RD", "addr:city": "ABERDEEN", "addr:state": "MD", "addr:postcode": "21001-1778", "name": "ABERDEEN", "phone": "4102726006", "website": "https://www.84lumber.com/store-locator/store-detail/?storeId=925", "opening_hours": "Mo-Fr 07:00-18:00; Sa 08:00-12:00", "brand": "84 Lumber", "brand:wikidata": "Q4644779", "nsi_id": "84lumber-4e950c"}, "geometry": {"type": "Point", "coordinates": [-76.18261, 39.5262375]}},
{"type": "Feature", "id": "dg24LrtRy0cB_ks5e6JoPmtDx9I=", "properties": {"ref": "927", "@spider": "84lumber", "shop": "trade", "trade": "building_supplies", "addr:street_address": "37675 NEW MARKET TURNER RD", "addr:city": "MECHANICSVILLE", "addr:state": "MD", "addr:postcode": "20659", "name": "MECHANICSVILLE", "phone": "3018842600", "website": "https://www.84lumber.com/store-locator/store-detail/?storeId=927", "opening_hours": "Mo-Fr 07:00-18:00; Sa 08:00-16:00; Su 09:00-16:00", "brand": "84 Lumber", "brand:wikidata": "Q4644779", "nsi_id": "84lumber-4e950c"}, "geometry": {"type": "Point", "coordinates": [-76.77338, 38.4732323]}},
{"type": "Feature", "id": "kZGvntzXu5CP69-7GTP0VCb0fm4=", "properties": {"ref": "315", "@spider": "84lumber", "shop": "trade", "trade": "building_supplies", "addr:street_address": "6200 POE AVE", "addr:city": "DAYTON", "addr:state": "OH", "addr:postcode": "45414-2631", "name": "DAYTON", "phone": "9378981084", "website": "https://www.84lumber.com/store-locator/store-detail/?storeId=315", "opening_hours": "Mo-Fr 07:00-18:00; Sa 08:00-12:00", "brand": "84 Lumber", "brand:wikidata": "Q4644779", "nsi_id": "84lumber-4e950c"}, "geometry": {"type": "Point", "coordinates": [-84.18889, 39.83873]}},
{"type": "Feature", "id": "zeHl3X6bkH2CeEjAjvTZawBt338=", "properties": {"ref": "350", "@spider": "84lumber", "shop": "trade", "trade": "building_supplies", "addr:street_address": "845 ARTHUR DR", "addr:city": "TROY", "addr:state": "OH", "addr:postcode": "45373", "name": "TROY", "phone": "9373398430", "website": "https://www.84lumber.com/store-locator/store-detail/?storeId=350", "opening_hours": "Mo-Fr 07:00-18:00; Sa 08:00-12:00", "brand": "84 Lumber", "brand:wikidata": "Q4644779", "nsi_id": "84lumber-4e950c"}, "geometry": {"type": "Point", "coordinates": [-84.22574, 40.0300026]}},
{"type": "Feature", "id": "pkxU8JNx4hD_es89_G33NVecdBU=", "properties": {"ref": "623", "@spider": "84lumber", "shop": "trade", "trade": "building_supplies", "addr:street_address": "25 ELECTRIC PKY", "addr:city": "HORSEHEADS", "addr:state": "NY", "addr:postcode": "14845", "name": "HORSEHEADS", "phone": "6077962642", "website": "https://www.84lumber.com/store-locator/store-detail/?storeId=623", "opening_hours": "Mo-Fr 07:00-18:00; Sa 08:00-12:00", "brand": "84 Lumber", "brand:wikidata": "Q4644779", "nsi_id": "84lumber-4e950c"}, "geometry": {"type": "Point", "coordinates": [-76.84765, 42.1595039]}},
{"type": "Feature", "id": "6lkE2aSLuOtH_Z8FYdzBY8557EI=", "properties": {"ref": "1708", "@spider": "84lumber", "shop": "trade", "trade": "building_supplies", "addr:street_address": "4348 COUNT PULASKI DRIVE", "addr:city": "PULASKI", "addr:state": "VA", "addr:postcode": "24301", "name": "PULASKI", "phone": "5409808474", "website": "https://www.84lumber.com/store-locator/store-detail/?storeId=1708", "opening_hours": "Mo-Fr 07:00-18:00; Sa 08:00-16:00; Su 09:00-16:00", "brand": "84 Lumber", "brand:wikidata": "Q4644779", "nsi_id": "84lumber-4e950c"}, "geometry": {"type": "Point", "coordinates": [-80.7309952, 37.03079]}},
{"type": "Feature", "id": "FoDsA-audeGZtaSHOAo7OZXRmV4=", "properties": {"ref": "287", "@spider": "84lumber", "shop": "trade", "trade": "building_supplies", "addr:street_address": "820 BLAKESLEE BLVD DRIVE", "addr:city": "LEHIGHTON", "addr:state": "PA", "addr:postcode": "18235", "name": "LEHIGHTON ", "phone": "5703863749", "website": "https://www.84lumber.com/store-locator/store-detail/?storeId=287", "opening_hours": "Mo-Fr 07:00-18:00; Sa 08:00-12:00", "brand": "84 Lumber", "brand:wikidata": "Q4644779", "nsi_id": "84lumber-4e950c"}, "geometry": {"type": "Point", "coordinates": [-75.78151, 40.7960434]}},
{"type": "Feature", "id": "W6Ic9dU97RWoIpkz8L0EHPb-cWM=", "properties": {"ref": "238", "@spider": "84lumber", "shop": "trade", "trade": "building_supplies", "addr:street_address": "1484 BEN FRANKLIN HWY", "addr:city": "DOUGLASVILLE", "addr:state": "PA", "addr:postcode": "19518-1998", "name": "DOUGLASSVILLE", "phone": "6103268800", "website": "https://www.84lumber.com/store-locator/store-detail/?storeId=238", "opening_hours": "Mo-Fr 07:00-18:00; Sa 08:00-12:00", "brand": "84 Lumber", "brand:wikidata": "Q4644779", "nsi_id": "84lumber-4e950c"}, "geometry": {"type": "Point", "coordinates": [-75.71171, 40.25231]}},
{"type": "Feature", "id": "_x1kNjsCX62TQbt7k45jhsjtytw=", "properties": {"ref": "931", "@spider": "84lumber", "shop": "trade", "trade": "building_supplies", "addr:street_address": "125 OWENS ROAD", "addr:city": "QUEEN ANNE", "addr:state": "MD", "addr:postcode": "21657", "name": "WYE MILLS", "phone": "4103649084", "website": "https://www.84lumber.com/store-locator/store-detail/?storeId=931", "opening_hours": "Mo-Fr 07:00-18:00; Sa 08:00-12:00", "brand": "84 Lumber", "brand:wikidata": "Q4644779", "nsi_id": "84lumber-4e950c"}, "geometry": {"type": "Point", "coordinates": [-76.05395, 38.93886]}},
{"type": "Feature", "id": "jOs7AX7RdXPghu5i8YD6-LCMZtQ=", "properties": {"ref": "1001", "@spider": "84lumber", "shop": "trade", "trade": "building_supplies", "addr:street_address": "700 OGLETOWN RD", "addr:city": "NEWARK", "addr:state": "DE", "addr:postcode": "19711-5408", "name": "NEWARK", "phone": "3027373084", "website": "https://www.84lumber.com/store-locator/store-detail/?storeId=1001", "opening_hours": "Mo-Fr 07:00-18:00; Sa 08:00-15:00", "brand": "84 Lumber", "brand:wikidata": "Q4644779", "nsi_id": "84lumber-4e950c"}, "geometry": {"type": "Point", "coordinates": [-75.73298, 39.6855354]}},
{"type": "Feature", "id": "95T3dl5UWJIm9Q1y14tabs86rNY=", "properties": {"ref": "924", "@spider": "84lumber", "shop": "trade", "trade": "building_supplies", "addr:street_address": "21597 GREAT MILLS RD", "addr:city": "LEXINGTON PARK", "addr:state": "MD", "addr:postcode": "20653-1252", "name": "LEXINGTON PARK", "phone": "3018638472", "website": "https://www.84lumber.com/store-locator/store-detail/?storeId=924", "opening_hours": "Mo-Fr 07:00-18:00; Sa 08:00-16:00", "brand": "84 Lumber", "brand:wikidata": "Q4644779", "nsi_id": "84lumber-4e950c"}, "geometry": {"type": "Point", "coordinates": [-76.465744, 38.2606049]}},
{"type": "Feature", "id": "zuXrZQOg0MlyLSEPB4fKV8lj9K4=", "properties": {"ref": "603", "@spider": "84lumber", "shop": "trade", "trade": "building_supplies", "addr:street_address": "1505 SCOTTSVILLE RD", "addr:city": "ROCHESTER", "addr:state": "NY", "addr:postcode": "14623-1934", "name": "ROCHESTER", "phone": "5854365001", "website": "https://www.84lumber.com/store-locator/store-detail/?storeId=603", "opening_hours": "Mo-Fr 07:00-18:00; Sa 08:00-12:00", "brand": "84 Lumber", "brand:wikidata": "Q4644779", "nsi_id": "84lumber-4e950c"}, "geometry": {"type": "Point", "coordinates": [-77.67728, 43.10452]}},
{"type": "Feature", "id": "2GTN0dhO3Bgaf2ZDR-vyV_NmCqE=", "properties": {"ref": "1416", "@spider": "84lumber", "shop": "trade", "trade": "building_supplies", "addr:street_address": "4158 PIONEER DRIVE", "addr:city": "COMMERCE CHARTER TWP", "addr:state": "MI", "addr:postcode": "48390", "name": "DETROIT NORTH", "phone": "2487910863", "website": "https://www.84lumber.com/store-locator/store-detail/?storeId=1416", "opening_hours": "Mo-Fr 07:00-18:00", "brand": "84 Lumber", "brand:wikidata": "Q4644779", "nsi_id": "84lumber-4e950c"}, "geometry": {"type": "Point", "coordinates": [-83.4532242, 42.57537]}},
{"type": "Feature", "id": "9ERpWYOFzEtles6z53iA47mtU5I=", "properties": {"ref": "308", "@spider": "84lumber", "shop": "trade", "trade": "building_supplies", "addr:street_address": "12139 PRINCETON PIKE", "addr:city": "SPRINGDALE", "addr:state": "OH", "addr:postcode": "45246-1725", "name": "SPRINGDALE", "phone": "5136711084", "website": "https://www.84lumber.com/store-locator/store-detail/?storeId=308", "opening_hours": "Mo-Fr 07:00-18:00; Sa 08:00-12:00", "brand": "84 Lumber", "brand:wikidata": "Q4644779", "nsi_id": "84lumber-4e950c"}, "geometry": {"type": "Point", "coordinates": [-84.4656, 39.3016777]}},
{"type": "Feature", "id": "CINBpJ7LkESlFNX9kFhDqtFHsxM=", "properties": {"ref": "619", "@spider": "84lumber", "shop": "trade", "trade": "building_supplies", "addr:street_address": "8055 VICTOR PITTSFORD RD", "addr:city": "VICTOR", "addr:state": "NY", "addr:postcode": "14564-9719", "name": "VICTOR", "phone": "5854253130", "website": "https://www.84lumber.com/store-locator/store-detail/?storeId=619", "opening_hours": "Mo-Fr 07:00-18:00; Sa 08:00-12:00", "brand": "84 Lumber", "brand:wikidata": "Q4644779", "nsi_id": "84lumber-4e950c"}, "geometry": {"type": "Point", "coordinates": [-77.4462, 43.0343246]}},
{"type": "Feature", "id": "ofOpN_pw_kH2lwK96rWPaHNpB_E=", "properties": {"ref": "1705", "@spider": "84lumber", "shop": "trade", "trade": "building_supplies", "addr:street_address": "2510 BELLWOOD RD", "addr:city": "NORTH CHESTERFIELD", "addr:state": "VA", "addr:postcode": "23237", "name": "FALLING CREEK", "phone": "8042719484", "website": "https://www.84lumber.com/store-locator/store-detail/?storeId=1705", "opening_hours": "Mo-Fr 07:00-18:00; Sa 08:00-12:00", "brand": "84 Lumber", "brand:wikidata": "Q4644779", "nsi_id": "84lumber-4e950c"}, "geometry": {"type": "Point", "coordinates": [-77.43394, 37.41163]}},
{"type": "Feature", "id": "lJDkTQu6U5nTzXHXH4Ab1AvZP2w=", "properties": {"ref": "221", "@spider": "84lumber", "shop": "trade", "trade": "building_supplies", "addr:street_address": "2140 HIGHWAY 315", "addr:city": "PITTSTON", "addr:state": "PA", "addr:postcode": "18640", "name": "PITTSTON", "phone": "5706552925", "website": "https://www.84lumber.com/store-locator/store-detail/?storeId=221", "opening_hours": "Mo-Fr 07:00-18:00; Sa 08:00-12:00", "brand": "84 Lumber", "brand:wikidata": "Q4644779", "nsi_id": "84lumber-4e950c"}, "geometry": {"type": "Point", "coordinates": [-75.7709, 41.30288]}},
{"type": "Feature", "id": "y06Bv3HtLFIAOxAF0rHI9xs6fTQ=", "properties": {"ref": "204", "@spider": "84lumber", "shop": "trade", "trade": "building_supplies", "addr:street_address": "4732 CHAPMANS RD", "addr:city": "ALLENTOWN", "addr:state": "PA", "addr:postcode": "18101-9303", "name": "ALLENTOWN", "phone": "6103952048", "website": "https://www.84lumber.com/store-locator/store-detail/?storeId=204", "opening_hours": "Mo-Fr 07:00-18:00; Sa 08:00-12:00", "brand": "84 Lumber", "brand:wikidata": "Q4644779", "nsi_id": "84lumber-4e950c"}, "geometry": {"type": "Point", "coordinates": [-75.5723, 40.61017]}},
{"type": "Feature", "id": "AVPNAInJLzJCV_x4qjvOM0S3pnk=", "properties": {"ref": "621", "@spider": "84lumber", "shop": "trade", "trade": "building_supplies", "addr:street_address": "1170 N GREECE RD", "addr:city": "ROCHESTER", "addr:state": "NY", "addr:postcode": "14626-1032", "name": "GREECE", "phone": "5852252662", "website": "https://www.84lumber.com/store-locator/store-detail/?storeId=621", "opening_hours": "Mo-Fr 07:00-18:00; Sa 08:00-12:00", "brand": "84 Lumber", "brand:wikidata": "Q4644779", "nsi_id": "84lumber-4e950c"}, "geometry": {"type": "Point", "coordinates": [-77.7337952, 43.215744]}},
{"type": "Feature", "id": "DolTdq1Q0gH2kP7ZcyjFoZuxvF8=", "properties": {"ref": "634", "@spider": "84lumber", "shop": "trade", "trade": "building_supplies", "addr:street_address": "1080 ROUTES 5 & 20", "addr:city": "GENEVA", "addr:state": "NY", "addr:postcode": "14456", "name": "GENEVA", "phone": "3157818400", "website": "https://www.84lumber.com/store-locator/store-detail/?storeId=634", "opening_hours": "Mo-Fr 07:00-18:00; Sa 08:00-16:00", "brand": "84 Lumber", "brand:wikidata": "Q4644779", "nsi_id": "84lumber-4e950c"}, "geometry": {"type": "Point", "coordinates": [-77.0278, 42.8587227]}},
{"type": "Feature", "id": "09_c54yYnZbt4SwPE30qlAP2cZs=", "properties": {"ref": "918", "@spider": "84lumber", "shop": "trade", "trade": "building_supplies", "addr:street_address": "804 WOODS ROAD", "addr:city": "CAMBRIDGE", "addr:state": "MD", "addr:postcode": "21613", "name": "CAMBRIDGE", "phone": "4102288484", "website": "https://www.84lumber.com/store-locator/store-detail/?storeId=918", "opening_hours": "Mo-Fr 07:00-18:00; Sa 08:00-15:00; Su 09:00-15:00", "brand": "84 Lumber", "brand:wikidata": "Q4644779", "nsi_id": "84lumber-4e950c"}, "geometry": {"type": "Point", "coordinates": [-76.06071, 38.5569878]}},
{"type": "Feature", "id": "oesVZpVerZx4XyQD_FahHwQ4tWk=", "properties": {"ref": "642", "@spider": "84lumber", "shop": "trade", "trade": "building_supplies", "addr:street_address": "1818 HANSHAW ROAD", "addr:city": "ITHACA", "addr:state": "NY", "addr:postcode": "14850", "name": "ITHACA", "phone": "6072578484", "website": "https://www.84lumber.com/store-locator/store-detail/?storeId=642", "opening_hours": "Mo-Fr 07:00-18:00; Sa 08:00-12:00", "brand": "84 Lumber", "brand:wikidata": "Q4644779", "nsi_id": "84lumber-4e950c"}, "geometry": {"type": "Point", "coordinates": [-76.43105, 42.4797363]}},
{"type": "Feature", "id": "kzx85UFawjX_hBPZScXqQtgNGwY=", "properties": {"ref": "1002", "@spider": "84lumber", "shop": "trade", "trade": "building_supplies", "addr:street_address": "312 RIDGE RD", "addr:city": "CLAYMONT", "addr:state": "DE", "addr:postcode": "19703-3524", "name": "CLAYMONT", "phone": "3027921184", "website": "https://www.84lumber.com/store-locator/store-detail/?storeId=1002", "opening_hours": "Mo-Fr 07:00-18:00; Sa 08:00-12:00", "brand": "84 Lumber", "brand:wikidata": "Q4644779", "nsi_id": "84lumber-4e950c"}, "geometry": {"type": "Point", "coordinates": [-75.44298, 39.8129234]}},
{"type": "Feature", "id": "yydtCdOITWOjOEve3UR7Q8J8-e8=", "properties": {"ref": "1006", "@spider": "84lumber", "shop": "trade", "trade": "building_supplies", "addr:street_address": "529 S DUPONT HWY", "addr:city": "DOVER", "addr:state": "DE", "addr:postcode": "19901-4515", "name": "DOVER", "phone": "3026788084", "website": "https://www.84lumber.com/store-locator/store-detail/?storeId=1006", "opening_hours": "Mo-Fr 07:00-18:00; Sa 08:00-12:00", "brand": "84 Lumber", "brand:wikidata": "Q4644779", "nsi_id": "84lumber-4e950c"}, "geometry": {"type": "Point", "coordinates": [-75.51284, 39.1546326]}},
{"type": "Feature", "id": "-CsVogl_33PEQ4C9jTSH3exRlaw=", "properties": {"ref": "325", "@spider": "84lumber", "shop": "trade", "trade": "building_supplies", "addr:street_address": "10084 CILLEY RD", "addr:city": "CLEVES", "addr:state": "OH", "addr:postcode": "45002-9735", "name": "CLEVES", "phone": "5133532172", "website": "https://www.84lumber.com/store-locator/store-detail/?storeId=325", "opening_hours": "Mo-Fr 07:00-18:00; Sa 08:00-12:00", "brand": "84 Lumber", "brand:wikidata": "Q4644779", "nsi_id": "84lumber-4e950c"}, "geometry": {"type": "Point", "coordinates": [-84.7764, 39.1832924]}},
{"type": "Feature", "id": "y2sSe99bpspT9BL2t9Qwma4U_X4=", "properties": {"ref": "613", "@spider": "84lumber", "shop": "trade", "trade": "building_supplies", "addr:street_address": "64 SPUD LANE", "addr:city": "BINGHAMTON", "addr:state": "NY", "addr:postcode": "13904", "name": "KIRKWOOD", "phone": "6077751210", "website": "https://www.84lumber.com/store-locator/store-detail/?storeId=613", "opening_hours": "Mo-Fr 07:00-18:00; Sa 08:00-12:00", "brand": "84 Lumber", "brand:wikidata": "Q4644779", "nsi_id": "84lumber-4e950c"}, "geometry": {"type": "Point", "coordinates": [-75.84133, 42.0996475]}},
{"type": "Feature", "id": "4LPjvuMhgOsWAcpI1p_VXVovSvw=", "properties": {"ref": "241", "@spider": "84lumber", "shop": "trade", "trade": "building_supplies", "addr:street_address": "1962 PARADISE TRAIL ", "addr:city": "EAST STROUDSBURG", "addr:state": "PA", "addr:postcode": "18301", "name": "STROUDSBURG", "phone": "5704219984", "website": "https://www.84lumber.com/store-locator/store-detail/?storeId=241", "opening_hours": "Mo-Fr 07:00-18:00; Sa 08:00-12:00", "brand": "84 Lumber", "brand:wikidata": "Q4644779", "nsi_id": "84lumber-4e950c"}, "geometry": {"type": "Point", "coordinates": [-75.200386, 41.0280571]}},
{"type": "Feature", "id": "kMUH2qtU_Tutqtm3m0guuR4oJCo=", "properties": {"ref": "513", "@spider": "84lumber", "shop": "trade", "trade": "building_supplies", "addr:street_address": "1450 BY PASS RD", "addr:city": "WINCHESTER", "addr:state": "KY", "addr:postcode": "40391-2707", "name": "WINCHESTER", "phone": "8597448448", "website": "https://www.84lumber.com/store-locator/store-detail/?storeId=513", "opening_hours": "Mo-Fr 07:00-18:00; Sa 08:00-12:00", "brand": "84 Lumber", "brand:wikidata": "Q4644779", "nsi_id": "84lumber-4e950c"}, "geometry": {"type": "Point", "coordinates": [-84.2147141, 37.9972038]}},
{"type": "Feature", "id": "5718ynaSbX6eproJySwtpstOUM4=", "properties": {"ref": "1010", "@spider": "84lumber", "shop": "trade", "trade": "building_supplies", "addr:street_address": "36 MCCOY ST", "addr:city": "MILFORD", "addr:state": "DE", "addr:postcode": "19963", "name": "MILFORD", "phone": "3024222180", "website": "https://www.84lumber.com/store-locator/store-detail/?storeId=1010", "opening_hours": "Mo-Fr 07:00-18:00; Sa 08:00-15:00; Su 09:00-15:00", "brand": "84 Lumber", "brand:wikidata": "Q4644779", "nsi_id": "84lumber-4e950c"}, "geometry": {"type": "Point", "coordinates": [-75.42631, 38.89931]}},
{"type": "Feature", "id": "7qrA_B0otonrtMJMw9GafKfQz6M=", "properties": {"ref": "1116", "@spider": "84lumber", "shop": "trade", "trade": "building_supplies", "addr:street_address": "1701 HURFFVILLE RD", "addr:city": "SEWELL", "addr:state": "NJ", "addr:postcode": "08080-9804", "name": "DEPTFORD", "phone": "8562288484", "website": "https://www.84lumber.com/store-locator/store-detail/?storeId=1116", "opening_hours": "Mo-Fr 07:00-18:00; Sa 08:00-12:00", "brand": "84 Lumber", "brand:wikidata": "Q4644779", "nsi_id": "84lumber-4e950c"}, "geometry": {"type": "Point", "coordinates": [-75.09813, 39.79524]}},
{"type": "Feature", "id": "q4_ZxNYmb9-kEjvgoLHpJfdKxUU=", "properties": {"ref": "528", "@spider": "84lumber", "shop": "trade", "trade": "building_supplies", "addr:street_address": "100 FRAZIER COURT", "addr:city": "GEORGETOWN", "addr:state": "KY", "addr:postcode": "40324", "name": "GEORGETOWN", "phone": "5028637484", "website": "https://www.84lumber.com/store-locator/store-detail/?storeId=528", "opening_hours": "Mo-Fr 07:00-18:00; Sa 08:00-16:00", "brand": "84 Lumber", "brand:wikidata": "Q4644779", "nsi_id": "84lumber-4e950c"}, "geometry": {"type": "Point", "coordinates": [-84.5359, 38.2339]}},
{"type": "Feature", "id": "NdQzk8Wq5KuLhRGx2Ts0Ij60bac=", "properties": {"ref": "503", "@spider": "84lumber", "shop": "trade", "trade": "building_supplies", "addr:street_address": "2345 PALUMBO DR", "addr:city": "LEXINGTON", "addr:state": "KY", "addr:postcode": "40509-1010", "name": "LEXINGTON", "phone": "8592693384", "website": "https://www.84lumber.com/store-locator/store-detail/?storeId=503", "opening_hours": "Mo-Fr 07:00-18:00; Sa 08:00-12:00", "brand": "84 Lumber", "brand:wikidata": "Q4644779", "nsi_id": "84lumber-4e950c"}, "geometry": {"type": "Point", "coordinates": [-84.4523, 38.02216]}},
{"type": "Feature", "id": "BM_miRmue0rbKoX_Tz_kzuWFsgE=", "properties": {"ref": "267", "@spider": "84lumber", "shop": "trade", "trade": "building_supplies", "addr:street_address": "507 ROUTE 739", "addr:city": "HAWLEY", "addr:state": "PA", "addr:postcode": "18428", "name": "LORDS VALLEY", "phone": "5707759784", "website": "https://www.84lumber.com/store-locator/store-detail/?storeId=267", "opening_hours": "Mo-Fr 07:00-18:00; Sa 08:00-16:00", "brand": "84 Lumber", "brand:wikidata": "Q4644779", "nsi_id": "84lumber-4e950c"}, "geometry": {"type": "Point", "coordinates": [-75.0624161, 41.3670464]}},
{"type": "Feature", "id": "fFxakG540M4qyuA4PidVvyjIWMI=", "properties": {"ref": "231", "@spider": "84lumber", "shop": "trade", "trade": "building_supplies", "addr:street_address": "315 LINCOLN HWY, US 1", "addr:city": "FAIRLESS HILLS", "addr:state": "PA", "addr:postcode": "19030-1201", "name": "FAIRLESS HILLS", "phone": "2159438400", "website": "https://www.84lumber.com/store-locator/store-detail/?storeId=231", "opening_hours": "Mo-Fr 07:00-18:00; Sa 08:00-16:00", "brand": "84 Lumber", "brand:wikidata": "Q4644779", "nsi_id": "84lumber-4e950c"}, "geometry": {"type": "Point", "coordinates": [-74.84472, 40.1889763]}},
{"type": "Feature", "id": "mSLXhpsDJsXDrC46EOQcWydjWMk=", "properties": {"ref": "510", "@spider": "84lumber", "shop": "trade", "trade": "building_supplies", "addr:street_address": "380 ARTZ DRIVE", "addr:city": "RICHMOND", "addr:state": "KY", "addr:postcode": "40475", "name": "RICHMOND", "phone": "8596241147", "website": "https://www.84lumber.com/store-locator/store-detail/?storeId=510", "opening_hours": "Mo-Fr 07:00-18:00; Sa 08:00-12:00", "brand": "84 Lumber", "brand:wikidata": "Q4644779", "nsi_id": "84lumber-4e950c"}, "geometry": {"type": "Point", "coordinates": [-84.2879, 37.7325363]}},
{"type": "Feature", "id": "-DF5wejgnmFnjcT3c02Gd__mHsw=", "properties": {"ref": "1704", "@spider": "84lumber", "shop": "trade", "trade": "building_supplies", "addr:street_address": "13150 JEFFERSON AVE", "addr:city": "NEWPORT NEWS", "addr:state": "VA", "addr:postcode": "23608", "name": "NEWPORT NEWS", "phone": "7578745563", "website": "https://www.84lumber.com/store-locator/store-detail/?storeId=1704", "opening_hours": "Mo-Fr 07:00-18:00; Sa 08:00-12:00", "brand": "84 Lumber", "brand:wikidata": "Q4644779", "nsi_id": "84lumber-4e950c"}, "geometry": {"type": "Point", "coordinates": [-76.53772, 37.1636353]}},
{"type": "Feature", "id": "XfiM1QugA3Ny3xJHoekBLbq7jqI=", "properties": {"ref": "2323", "@spider": "84lumber", "shop": "trade", "trade": "building_supplies", "addr:street_address": "2717 PATTERSON ST", "addr:city": "GREENSBORO\r\n", "addr:state": "NC", "addr:postcode": "27407\r\n", "name": "GREENSBORO", "phone": "3363161276", "website": "https://www.84lumber.com/store-locator/store-detail/?storeId=2323", "opening_hours": "Mo-Fr 07:00-18:00", "brand": "84 Lumber", "brand:wikidata": "Q4644779", "nsi_id": "84lumber-4e950c"}, "geometry": {"type": "Point", "coordinates": [-79.83601, 36.05667]}},
{"type": "Feature", "id": "juMkTeKVbGvIh9ZO5TVI1IVlkQQ=", "properties": {"ref": "508", "@spider": "84lumber", "shop": "trade", "trade": "building_supplies", "addr:street_address": "100 MARKHAM DR", "addr:city": "VERSAILLES", "addr:state": "KY", "addr:postcode": "40383-0005", "name": "VERSAILLES", "phone": "8598738584", "website": "https://www.84lumber.com/store-locator/store-detail/?storeId=508", "opening_hours": "Mo-Fr 07:00-18:00; Sa 08:00-16:00; Su 09:00-16:00", "brand": "84 Lumber", "brand:wikidata": "Q4644779", "nsi_id": "84lumber-4e950c"}, "geometry": {"type": "Point", "coordinates": [-84.7262, 38.062]}},
{"type": "Feature", "id": "1BH3wqQc06AxNOZFAhPPgDsgqrs=", "properties": {"ref": "1008", "@spider": "84lumber", "shop": "trade", "trade": "building_supplies", "addr:street_address": "ROUTE 113 @ MORRIS ROAD", "addr:city": "SELBYVILLE", "addr:state": "DE", "addr:postcode": "19975", "name": "SELBYVILLE", "phone": "3024362684", "website": "https://www.84lumber.com/store-locator/store-detail/?storeId=1008", "opening_hours": "Mo-Fr 07:00-18:00; Sa 08:00-15:00", "brand": "84 Lumber", "brand:wikidata": "Q4644779", "nsi_id": "84lumber-4e950c"}, "geometry": {"type": "Point", "coordinates": [-75.2331543, 38.4516068]}},
{"type": "Feature", "id": "Z8Bmr7x9_wfdpzcDzaoPOneNbO4=", "properties": {"ref": "610", "@spider": "84lumber", "shop": "trade", "trade": "building_supplies", "addr:street_address": "6801 MANLIUS CENTER RD", "addr:city": "EAST SYRACUSE", "addr:state": "NY", "addr:postcode": "13057-9523", "name": "DEWITT", "phone": "3154377015", "website": "https://www.84lumber.com/store-locator/store-detail/?storeId=610", "opening_hours": "Mo-Fr 07:00-18:00; Sa 08:00-12:00", "brand": "84 Lumber", "brand:wikidata": "Q4644779", "nsi_id": "84lumber-4e950c"}, "geometry": {"type": "Point", "coordinates": [-76.05055, 43.0632]}},
{"type": "Feature", "id": "FqS8Go0l4EKk2PZdBaV89hHMQEs=", "properties": {"ref": "1009", "@spider": "84lumber", "shop": "trade", "trade": "building_supplies", "addr:street_address": "34848 ATLANTIC AV", "addr:city": "CLARKSVILLE", "addr:state": "DE", "addr:postcode": "19970", "name": "CLARKSVILLE", "phone": "3025372484", "website": "https://www.84lumber.com/store-locator/store-detail/?storeId=1009", "opening_hours": "Mo-Fr 07:00-18:00; Sa 08:00-15:00", "brand": "84 Lumber", "brand:wikidata": "Q4644779", "nsi_id": "84lumber-4e950c"}, "geometry": {"type": "Point", "coordinates": [-75.1339951, 38.5516052]}},
{"type": "Feature", "id": "9dp7PL8FIw9ZvJJmZTOz-QP7swY=", "properties": {"ref": "1113", "@spider": "84lumber", "shop": "trade", "trade": "building_supplies", "addr:street_address": "4 SHELL BAY AVENUE", "addr:city": "CAPE MAY COURT HOUSE", "addr:state": "NJ", "addr:postcode": "08210", "name": "CAPE MAY", "phone": "6094658400", "website": "https://www.84lumber.com/store-locator/store-detail/?storeId=1113", "opening_hours": "Mo-Fr 07:00-18:00; Sa 08:00-12:00", "brand": "84 Lumber", "brand:wikidata": "Q4644779", "nsi_id": "84lumber-4e950c"}, "geometry": {"type": "Point", "coordinates": [-74.83059, 39.06705]}},
{"type": "Feature", "id": "CZZj3a2r1xskSvxMNIglggquwnQ=", "properties": {"ref": "1721", "@spider": "84lumber", "shop": "trade", "trade": "building_supplies", "addr:street_address": "18308 N R NORTH STREET", "addr:city": "KELLER", "addr:state": "VA", "addr:postcode": "23401", "name": "KELLER", "phone": "7577879484", "website": "https://www.84lumber.com/store-locator/store-detail/?storeId=1721", "opening_hours": "Mo-Fr 07:00-18:00; Sa 08:00-17:00; Su 09:00-15:00", "brand": "84 Lumber", "brand:wikidata": "Q4644779", "nsi_id": "84lumber-4e950c"}, "geometry": {"type": "Point", "coordinates": [-75.7619553, 37.61961]}},
{"type": "Feature", "id": "jOXQGJ2Gt3w958XfdZyTOw5DGSE=", "properties": {"ref": "507", "@spider": "84lumber", "shop": "trade", "trade": "building_supplies", "addr:street_address": "452 MOREN RD", "addr:city": "LONDON", "addr:state": "KY", "addr:postcode": "40741", "name": "LONDON", "phone": "6068787484", "website": "https://www.84lumber.com/store-locator/store-detail/?storeId=507", "opening_hours": "Mo-Fr 07:00-18:00; Sa 08:00-16:00", "brand": "84 Lumber", "brand:wikidata": "Q4644779", "nsi_id": "84lumber-4e950c"}, "geometry": {"type": "Point", "coordinates": [-84.08634, 37.1414948]}},
{"type": "Feature", "id": "D0QUJm0phtPn0Urm8E4WnaWlAyA=", "properties": {"ref": "2320", "@spider": "84lumber", "shop": "trade", "trade": "building_supplies", "addr:street_address": "2543 WHILDEN DRIVE", "addr:city": "DURHAM", "addr:state": "NC", "addr:postcode": "27713", "name": "DURHAM", "phone": "9195965229", "website": "https://www.84lumber.com/store-locator/store-detail/?storeId=2320", "opening_hours": "Mo-Fr 07:00-18:00", "brand": "84 Lumber", "brand:wikidata": "Q4644779", "nsi_id": "84lumber-4e950c"}, "geometry": {"type": "Point", "coordinates": [-78.88518, 35.9462]}},
{"type": "Feature", "id": "h8Dr1zf-_zLf8ctFyo9bzqMY0OQ=", "properties": {"ref": "1104", "@spider": "84lumber", "shop": "trade", "trade": "building_supplies", "addr:street_address": "22 FORD RD", "addr:city": "ROCKAWAY", "addr:state": "NJ", "addr:postcode": "07866-2019", "name": "ROCKAWAY", "phone": "9736272584", "website": "https://www.84lumber.com/store-locator/store-detail/?storeId=1104", "opening_hours": "Mo-Fr 07:00-18:00; Sa 08:00-12:00", "brand": "84 Lumber", "brand:wikidata": "Q4644779", "nsi_id": "84lumber-4e950c"}, "geometry": {"type": "Point", "coordinates": [-74.49904, 40.91053]}},
{"type": "Feature", "id": "BEM25v4haCJ1ouseSQZBnMqXZXk=", "properties": {"ref": "1101", "@spider": "84lumber", "shop": "trade", "trade": "building_supplies", "addr:street_address": "6738 BLACK HORSE PIKE", "addr:city": "PLEASANTVILLE", "addr:state": "NJ", "addr:postcode": "08232", "name": "PLEASANTVILLE", "phone": "6096465784", "website": "https://www.84lumber.com/store-locator/store-detail/?storeId=1101", "opening_hours": "Mo-Fr 07:00-18:00; Sa 08:00-12:00", "brand": "84 Lumber", "brand:wikidata": "Q4644779", "nsi_id": "84lumber-4e950c"}, "geometry": {"type": "Point", "coordinates": [-74.55769, 39.39979]}},
{"type": "Feature", "id": "ebRPOrq7udxZWItVP_UaRWCHgYs=", "properties": {"ref": "1725", "@spider": "84lumber", "shop": "trade", "trade": "building_supplies", "addr:street_address": "4884 NANSEMOND PKY", "addr:city": "SUFFOLK", "addr:state": "VA", "addr:postcode": "23435", "name": "SUFFOLK", "phone": "7574658403", "website": "https://www.84lumber.com/store-locator/store-detail/?storeId=1725", "opening_hours": "Mo-Fr 07:00-18:00; Sa 08:00-12:00", "brand": "84 Lumber", "brand:wikidata": "Q4644779", "nsi_id": "84lumber-4e950c"}, "geometry": {"type": "Point", "coordinates": [-76.47815, 36.8200645]}},
{"type": "Feature", "id": "fgKrD4HJIjfKgnk_KfTrFIZ9ngc=", "properties": {"ref": "521", "@spider": "84lumber", "shop": "trade", "trade": "building_supplies", "addr:street_address": "470 WHIRL-A-WAY DR", "addr:city": "DANVILLE", "addr:state": "KY", "addr:postcode": "40422", "name": "DANVILLE", "phone": "8592368384", "website": "https://www.84lumber.com/store-locator/store-detail/?storeId=521", "opening_hours": "Mo-Fr 07:00-18:00; Sa 08:00-12:00", "brand": "84 Lumber", "brand:wikidata": "Q4644779", "nsi_id": "84lumber-4e950c"}, "geometry": {"type": "Point", "coordinates": [-84.79838, 37.6575165]}},
{"type": "Feature", "id": "Mi6HcVe0ixsx7qR64-OHfQkRdQg=", "properties": {"ref": "2303", "@spider": "84lumber", "shop": "trade", "trade": "building_supplies", "addr:street_address": "6301 OLD WAKE FOREST RD", "addr:city": "RALEIGH", "addr:state": "NC", "addr:postcode": "27616-1805", "name": "RALEIGH", "phone": "9198726984", "website": "https://www.84lumber.com/store-locator/store-detail/?storeId=2303", "opening_hours": "Mo-Fr 07:00-17:00", "brand": "84 Lumber", "brand:wikidata": "Q4644779", "nsi_id": "84lumber-4e950c"}, "geometry": {"type": "Point", "coordinates": [-78.59395, 35.86476]}},
{"type": "Feature", "id": "1OrBZgXpIcYFDQMI9QOUk6s6PmA=", "properties": {"ref": "515", "@spider": "84lumber", "shop": "trade", "trade": "building_supplies", "addr:street_address": "24 HAPPY HOLLOW RD. ", "addr:city": "MIDDLESBORO", "addr:state": "KY", "addr:postcode": "40965", "name": "MIDDLESBORO", "phone": "6062488884", "website": "https://www.84lumber.com/store-locator/store-detail/?storeId=515", "opening_hours": "Mo-Fr 07:00-18:00; Sa 08:00-16:00; Su 09:00-16:00", "brand": "84 Lumber", "brand:wikidata": "Q4644779", "nsi_id": "84lumber-4e950c"}, "geometry": {"type": "Point", "coordinates": [-83.7023239, 36.62487]}},
{"type": "Feature", "id": "Pq9XApZlhAhcAEuhpx_4pqtSQ4c=", "properties": {"ref": "1110", "@spider": "84lumber", "shop": "trade", "trade": "building_supplies", "addr:street_address": "1410 RIVER AVE", "addr:city": "LAKEWOOD", "addr:state": "NJ", "addr:postcode": "08701-5629", "name": "LAKEWOOD", "phone": "7323700084", "website": "https://www.84lumber.com/store-locator/store-detail/?storeId=1110", "opening_hours": "Mo-Fr 07:00-18:00; Sa 08:00-12:00", "brand": "84 Lumber", "brand:wikidata": "Q4644779", "nsi_id": "84lumber-4e950c"}, "geometry": {"type": "Point", "coordinates": [-74.2217941, 40.0482635]}},
{"type": "Feature", "id": "p9sRt21aNw72Lf3-SGAlM6k4dCQ=", "properties": {"ref": "707", "@spider": "84lumber", "shop": "trade", "trade": "building_supplies", "addr:street_address": "9084 CORPORATIONS DR", "addr:city": "INDIANAPOLIS", "addr:state": "IN", "addr:postcode": "46256", "name": "CASTLETON", "phone": "3178494584", "website": "https://www.84lumber.com/store-locator/store-detail/?storeId=707", "opening_hours": "Mo-Fr 07:00-18:00; Sa 08:00-12:00", "brand": "84 Lumber", "brand:wikidata": "Q4644779", "nsi_id": "84lumber-4e950c"}, "geometry": {"type": "Point", "coordinates": [-86.0357, 39.9194]}},
{"type": "Feature", "id": "lim6nDVpPwld9Ktsa4tbWgi0Q5k=", "properties": {"ref": "1112", "@spider": "84lumber", "shop": "trade", "trade": "building_supplies", "addr:street_address": "383 N MAIN STREET", "addr:city": "MANAHAWKIN", "addr:state": "NJ", "addr:postcode": "08050", "name": "MANAHAWKIN", "phone": "6095978400", "website": "https://www.84lumber.com/store-locator/store-detail/?storeId=1112", "opening_hours": "Mo-Fr 07:00-18:00; Sa 08:00-12:00", "brand": "84 Lumber", "brand:wikidata": "Q4644779", "nsi_id": "84lumber-4e950c"}, "geometry": {"type": "Point", "coordinates": [-74.25389, 39.7049675]}},
{"type": "Feature", "id": "tSeAxn5uQijGrmfKZ1mlW87KBoE=", "properties": {"ref": "616", "@spider": "84lumber", "shop": "trade", "trade": "building_supplies", "addr:street_address": "500 ROUTE 211 EAST", "addr:city": "MIDDLETOWN", "addr:state": "NY", "addr:postcode": "10940-1716", "name": "MIDDLETOWN", "phone": "8456926784", "website": "https://www.84lumber.com/store-locator/store-detail/?storeId=616", "opening_hours": "Mo-Fr 07:00-18:00; Sa 08:00-12:00", "brand": "84 Lumber", "brand:wikidata": "Q4644779", "nsi_id": "84lumber-4e950c"}, "geometry": {"type": "Point", "coordinates": [-74.37525, 41.4587059]}},
{"type": "Feature", "id": "BAE3vf2Tv8ew0yT0pWmLoB-FxP4=", "properties": {"ref": "1107", "@spider": "84lumber", "shop": "trade", "trade": "building_supplies", "addr:street_address": "18 RARITAN RD", "addr:city": "OAKLAND", "addr:state": "NJ", "addr:postcode": "07436-3398", "name": "OAKLAND", "phone": "2013371284", "website": "https://www.84lumber.com/store-locator/store-detail/?storeId=1107", "opening_hours": "Mo-Fr 07:00-18:00; Sa 08:00-12:00", "brand": "84 Lumber", "brand:wikidata": "Q4644779", "nsi_id": "84lumber-4e950c"}, "geometry": {"type": "Point", "coordinates": [-74.23346, 41.0258865]}},
{"type": "Feature", "id": "weelMjQc5zvTB4BNC1sSvDeVQL0=", "properties": {"ref": "2310", "@spider": "84lumber", "shop": "trade", "trade": "building_supplies", "addr:street_address": "2846 HWY 64-70 SE", "addr:city": "NEWTON", "addr:state": "NC", "addr:postcode": "28658", "name": "HICKORY", "phone": "8283224184", "website": "https://www.84lumber.com/store-locator/store-detail/?storeId=2310", "opening_hours": "Mo-Fr 07:00-18:00; Sa 08:00-12:00", "brand": "84 Lumber", "brand:wikidata": "Q4644779", "nsi_id": "84lumber-4e950c"}, "geometry": {"type": "Point", "coordinates": [-81.2784042, 35.6986237]}},
{"type": "Feature", "id": "ZfvPBigvab84tENBVhLvotSwxuw=", "properties": {"ref": "721", "@spider": "84lumber", "shop": "trade", "trade": "building_supplies", "addr:street_address": "183 BURKART BLVD", "addr:city": "SEYMOUR", "addr:state": "IN", "addr:postcode": "47274", "name": "SEYMOUR", "phone": "8125238400", "website": "https://www.84lumber.com/store-locator/store-detail/?storeId=721", "opening_hours": "Mo-Fr 07:00-18:00; Sa 08:00-12:00", "brand": "84 Lumber", "brand:wikidata": "Q4644779", "nsi_id": "84lumber-4e950c"}, "geometry": {"type": "Point", "coordinates": [-85.86625, 38.96205]}},
{"type": "Feature", "id": "5ND8LDlk5tTz3PDt-xIKd32Abrc=", "properties": {"ref": "709", "@spider": "84lumber", "shop": "trade", "trade": "building_supplies", "addr:street_address": "484 E WORTHSVILLE RD", "addr:city": "GREENWOOD", "addr:state": "IN", "addr:postcode": "46143-9509", "name": "GREENWOOD", "phone": "3178818689", "website": "https://www.84lumber.com/store-locator/store-detail/?storeId=709", "opening_hours": "Mo-Fr 07:00-18:00; Sa 08:00-12:00", "brand": "84 Lumber", "brand:wikidata": "Q4644779", "nsi_id": "84lumber-4e950c"}, "geometry": {"type": "Point", "coordinates": [-86.09864, 39.5867271]}},
{"type": "Feature", "id": "BiEZhhjHc9mEw-4V93ik6O-Mu7U=", "properties": {"ref": "606", "@spider": "84lumber", "shop": "trade", "trade": "building_supplies", "addr:street_address": "8501 ROUTE 69", "addr:city": "ORISKANY", "addr:state": "NY", "addr:postcode": "13424", "name": "ORISKANY", "phone": "3157365234", "website": "https://www.84lumber.com/store-locator/store-detail/?storeId=606", "opening_hours": "Mo-Fr 07:00-18:00; Sa 08:00-12:00", "brand": "84 Lumber", "brand:wikidata": "Q4644779", "nsi_id": "84lumber-4e950c"}, "geometry": {"type": "Point", "coordinates": [-75.32898, 43.1554451]}},
{"type": "Feature", "id": "uj-1gfNvcJ0lxY9OOHEL64tTBRc=", "properties": {"ref": "501", "@spider": "84lumber", "shop": "trade", "trade": "building_supplies", "addr:street_address": "4100 PROGRESS BLVD", "addr:city": "LOUISVILLE", "addr:state": "KY", "addr:postcode": "40218-3480", "name": "LOUISVILLE", "phone": "5024566384", "website": "https://www.84lumber.com/store-locator/store-detail/?storeId=501", "opening_hours": "Mo-Fr 07:00-18:00; Sa 08:00-12:00", "brand": "84 Lumber", "brand:wikidata": "Q4644779", "nsi_id": "84lumber-4e950c"}, "geometry": {"type": "Point", "coordinates": [-85.65358, 38.1893959]}},
{"type": "Feature", "id": "hxsdvwSHeN-6MGKcC8cnSUVDopM=", "properties": {"ref": "708", "@spider": "84lumber", "shop": "trade", "trade": "building_supplies", "addr:street_address": "2005 COOPER LANE", "addr:city": "JEFFERSONVILLE", "addr:state": "IN", "addr:postcode": "47130-9218", "name": "JEFFERSONVILLE", "phone": "8122830794", "website": "https://www.84lumber.com/store-locator/store-detail/?storeId=708", "opening_hours": "Mo-Fr 07:00-18:00; Sa 08:00-12:00", "brand": "84 Lumber", "brand:wikidata": "Q4644779", "nsi_id": "84lumber-4e950c"}, "geometry": {"type": "Point", "coordinates": [-85.74727, 38.34059]}},
{"type": "Feature", "id": "ktRpha8VxmYTNqHUAXwtA1uIfdw=", "properties": {"ref": "2316", "@spider": "84lumber", "shop": "trade", "trade": "building_supplies", "addr:street_address": "11628 MCCORD RD", "addr:city": "HUNTERSVILLE", "addr:state": "NC", "addr:postcode": "28078", "name": "HUNTERSVILLE", "phone": "7049488425", "website": "https://www.84lumber.com/store-locator/store-detail/?storeId=2316", "opening_hours": "Mo-Fr 07:00-18:00; Sa 08:00-12:00", "brand": "84 Lumber", "brand:wikidata": "Q4644779", "nsi_id": "84lumber-4e950c"}, "geometry": {"type": "Point", "coordinates": [-80.84093, 35.4349136]}},
{"type": "Feature", "id": "SHuLH-G3oJ2c-4oWOwQsiXEIXLE=", "properties": {"ref": "524", "@spider": "84lumber", "shop": "trade", "trade": "building_supplies", "addr:street_address": "4708 SUMMIT DR", "addr:city": "LOUISVILLE", "addr:state": "KY", "addr:postcode": "40229", "name": "PIONEER VILLAGE", "phone": "5029571084", "website": "https://www.84lumber.com/store-locator/store-detail/?storeId=524", "opening_hours": "Mo-Fr 07:00-18:00; Sa 08:00-12:00", "brand": "84 Lumber", "brand:wikidata": "Q4644779", "nsi_id": "84lumber-4e950c"}, "geometry": {"type": "Point", "coordinates": [-85.67152, 38.0667763]}},
{"type": "Feature", "id": "_CKWXuVKNyhHgs5FKU8VFG6Lwco=", "properties": {"ref": "1222", "@spider": "84lumber", "shop": "trade", "trade": "building_supplies", "addr:street_address": "1325 N HWY 92", "addr:city": "JEFFERSON CITY", "addr:state": "TN", "addr:postcode": "37760", "name": "JEFFERSON CITY", "phone": "8654758477", "website": "https://www.84lumber.com/store-locator/store-detail/?storeId=1222", "opening_hours": "Mo-Fr 07:00-18:00; Sa 08:00-12:00", "brand": "84 Lumber", "brand:wikidata": "Q4644779", "nsi_id": "84lumber-4e950c"}, "geometry": {"type": "Point", "coordinates": [-83.49339, 36.1117172]}},
{"type": "Feature", "id": "AjXbZc_EW45PtACaX8GrhGTsDnw=", "properties": {"ref": "720", "@spider": "84lumber", "shop": "trade", "trade": "building_supplies", "addr:street_address": "352 S COUNTRY RD 300 EAST", "addr:city": "DANVILLE", "addr:state": "IN", "addr:postcode": "46122", "name": "DANVILLE", "phone": "3177454484", "website": "https://www.84lumber.com/store-locator/store-detail/?storeId=720", "opening_hours": "Mo-Fr 07:00-18:00; Sa 08:00-12:00", "brand": "84 Lumber", "brand:wikidata": "Q4644779", "nsi_id": "84lumber-4e950c"}, "geometry": {"type": "Point", "coordinates": [-86.4673, 39.7567825]}},
{"type": "Feature", "id": "XY-WgjKorjo_L57bB1iTfI91Pn8=", "properties": {"ref": "509", "@spider": "84lumber", "shop": "trade", "trade": "building_supplies", "addr:street_address": "10005 DIXIE HWY", "addr:city": "LOUISVILLE", "addr:state": "KY", "addr:postcode": "40272-3945", "name": "VALLEY STATION", "phone": "5029358484", "website": "https://www.84lumber.com/store-locator/store-detail/?storeId=509", "opening_hours": "Mo-Fr 07:00-18:00; Sa 08:00-12:00", "brand": "84 Lumber", "brand:wikidata": "Q4644779", "nsi_id": "84lumber-4e950c"}, "geometry": {"type": "Point", "coordinates": [-85.8643, 38.1111832]}},
{"type": "Feature", "id": "FyPJI7hHd4gIyL6a2dNrjsx_Bas=", "properties": {"ref": "2315", "@spider": "84lumber", "shop": "trade", "trade": "building_supplies", "addr:street_address": "6000 ROZZELLES FERRY RD", "addr:city": "NORTH CHARLOTTE", "addr:state": "NC", "addr:postcode": "28214-1876", "name": "NORTH CHARLOTTE", "phone": "7043941824", "website": "https://www.84lumber.com/store-locator/store-detail/?storeId=2315", "opening_hours": "Mo-Fr 07:00-18:00; Sa 08:00-12:00", "brand": "84 Lumber", "brand:wikidata": "Q4644779", "nsi_id": "84lumber-4e950c"}, "geometry": {"type": "Point", "coordinates": [-80.90579, 35.2821579]}},
{"type": "Feature", "id": "vvwijSca_MGDb8SdNq-o_OHZ4dA=", "properties": {"ref": "2306", "@spider": "84lumber", "shop": "trade", "trade": "building_supplies", "addr:street_address": "75 MONTGOMERY ST", "addr:city": "ASHEVILLE", "addr:state": "NC", "addr:postcode": "28806", "name": "ASHEVILLE", "phone": "8286653815", "website": "https://www.84lumber.com/store-locator/store-detail/?storeId=2306", "opening_hours": "Mo-Fr 07:00-18:00; Sa 08:00-12:00", "brand": "84 Lumber", "brand:wikidata": "Q4644779", "nsi_id": "84lumber-4e950c"}, "geometry": {"type": "Point", "coordinates": [-82.63216, 35.5599861]}},
{"type": "Feature", "id": "JTJma7tuEiHHWUvnXIg2GY0OC3o=", "properties": {"ref": "1212", "@spider": "84lumber", "shop": "trade", "trade": "building_supplies", "addr:street_address": "1484 UNITED BLVD", "addr:city": "SEVIERVILLE", "addr:state": "TN", "addr:postcode": "37862", "name": "SEVIERVILLE", "phone": "8654538488", "website": "https://www.84lumber.com/store-locator/store-detail/?storeId=1212", "opening_hours": "Mo-Fr 07:00-18:00; Sa 08:00-12:00", "brand": "84 Lumber", "brand:wikidata": "Q4644779", "nsi_id": "84lumber-4e950c"}, "geometry": {"type": "Point", "coordinates": [-83.579, 35.9053955]}},
{"type": "Feature", "id": "bli0QTezp9ZBMpQ99GMJVZEwa5o=", "properties": {"ref": "514", "@spider": "84lumber", "shop": "trade", "trade": "building_supplies", "addr:street_address": "2501 S DIXIE BLVD", "addr:city": "RADCLIFF", "addr:state": "KY", "addr:postcode": "40160", "name": "RADCLIFF", "phone": "2703518448", "website": "https://www.84lumber.com/store-locator/store-detail/?storeId=514", "opening_hours": "Mo-Fr 07:00-18:00; Sa 08:00-12:00", "brand": "84 Lumber", "brand:wikidata": "Q4644779", "nsi_id": "84lumber-4e950c"}, "geometry": {"type": "Point", "coordinates": [-85.91975, 37.8051453]}},
{"type": "Feature", "id": "C9yVU9Medte8wrqYbnUVHx9HxvU=", "properties": {"ref": "1203", "@spider": "84lumber", "shop": "trade", "trade": "building_supplies", "addr:street_address": "5802 MIDDLEBROOK PIKE", "addr:city": "KNOXVILLE", "addr:state": "TN", "addr:postcode": "37921-5915", "name": "KNOXVILLE", "phone": "8655844668", "website": "https://www.84lumber.com/store-locator/store-detail/?storeId=1203", "opening_hours": "Mo-Fr 07:00-18:00; Sa 08:00-12:00", "brand": "84 Lumber", "brand:wikidata": "Q4644779", "nsi_id": "84lumber-4e950c"}, "geometry": {"type": "Point", "coordinates": [-84.0105, 35.9534035]}},
{"type": "Feature", "id": "iWshbme-utjrvuxQqv9OOsvis7Q=", "properties": {"ref": "2307", "@spider": "84lumber", "shop": "trade", "trade": "building_supplies", "addr:street_address": "620 BELT BLVD", "addr:city": "FAYETTEVILLE", "addr:state": "NC", "addr:postcode": "28301", "name": "FAYETTEVILLE", "phone": "9108679184", "website": "https://www.84lumber.com/store-locator/store-detail/?storeId=2307", "opening_hours": "Mo-Fr 07:00-18:00", "brand": "84 Lumber", "brand:wikidata": "Q4644779", "nsi_id": "84lumber-4e950c"}, "geometry": {"type": "Point", "coordinates": [-78.86741, 35.0303535]}},
{"type": "Feature", "id": "vGNxb2-hZlz6nHmBXJ-jz0A9K58=", "properties": {"ref": "604", "@spider": "84lumber", "shop": "trade", "trade": "building_supplies", "addr:street_address": "4785 WESTERN TPK", "addr:city": "ALTAMONT", "addr:state": "NY", "addr:postcode": "12009-9522", "name": "GUILDERLAND", "phone": "5183558488", "website": "https://www.84lumber.com/store-locator/store-detail/?storeId=604", "opening_hours": "Mo-Fr 07:00-18:00; Sa 08:00-12:00", "brand": "84 Lumber", "brand:wikidata": "Q4644779", "nsi_id": "84lumber-4e950c"}, "geometry": {"type": "Point", "coordinates": [-73.96226, 42.7263832]}},
{"type": "Feature", "id": "VysZ1qhQqoBm0q377FZPw-BIwkk=", "properties": {"ref": "624", "@spider": "84lumber", "shop": "trade", "trade": "building_supplies", "addr:street_address": "155 SILLS RD", "addr:city": "PATCHOGUE", "addr:state": "NY", "addr:postcode": "11772-4805", "name": "PATCHOGUE", "phone": "6316548433", "website": "https://www.84lumber.com/store-locator/store-detail/?storeId=624", "opening_hours": "Mo-Fr 07:00-18:00; Sa 08:00-12:00", "brand": "84 Lumber", "brand:wikidata": "Q4644779", "nsi_id": "84lumber-4e950c"}, "geometry": {"type": "Point", "coordinates": [-72.98144, 40.7728539]}},
{"type": "Feature", "id": "p1UvXBShbsC8wK1dvdFg3aXviJg=", "properties": {"ref": "631", "@spider": "84lumber", "shop": "trade", "trade": "building_supplies", "addr:street_address": "2403 ROUTE 9", "addr:city": "BALLSTON SPA", "addr:state": "NY", "addr:postcode": "12020-4407", "name": "MALTA", "phone": "5188995684", "website": "https://www.84lumber.com/store-locator/store-detail/?storeId=631", "opening_hours": "Mo-Fr 07:00-18:00; Sa 08:00-12:00", "brand": "84 Lumber", "brand:wikidata": "Q4644779", "nsi_id": "84lumber-4e950c"}, "geometry": {"type": "Point", "coordinates": [-73.79109, 42.9621544]}},
{"type": "Feature", "id": "Wq5AnmhdAUfEKKzVOpdjxpvOE3I=", "properties": {"ref": "2404", "@spider": "84lumber", "shop": "trade", "trade": "building_supplies", "addr:street_address": "675 S OLD PIEDMONT HWY", "addr:city": "GREENVILLE", "addr:state": "SC", "addr:postcode": "29611", "name": "GREENVILLE", "phone": "8642202884", "website": "https://www.84lumber.com/store-locator/store-detail/?storeId=2404", "opening_hours": "Mo-Fr 07:00-18:00; Sa 08:00-12:00", "brand": "84 Lumber", "brand:wikidata": "Q4644779", "nsi_id": "84lumber-4e950c"}, "geometry": {"type": "Point", "coordinates": [-82.42797, 34.7999535]}},
{"type": "Feature", "id": "bbLA8PsWMIQnp6CfqzZk9XnAKSk=", "properties": {"ref": "620", "@spider": "84lumber", "shop": "trade", "trade": "building_supplies", "addr:street_address": "1751 W MAIN STREET", "addr:city": "RIVERHEAD ", "addr:state": "NY", "addr:postcode": "11901", "name": "RIVERHEAD", "phone": "6313690084", "website": "https://www.84lumber.com/store-locator/store-detail/?storeId=620", "opening_hours": "Mo-Fr 07:00-18:00; Sa 08:00-12:00", "brand": "84 Lumber", "brand:wikidata": "Q4644779", "nsi_id": "84lumber-4e950c"}, "geometry": {"type": "Point", "coordinates": [-72.71395, 40.91641]}},
{"type": "Feature", "id": "mmo-THcTgpbvnIz_ALRdoKBt00U=", "properties": {"ref": "3801", "@spider": "84lumber", "shop": "trade", "trade": "building_supplies", "addr:street_address": "84 CROOKED ST", "addr:city": "PLAINVILLE", "addr:state": "CT", "addr:postcode": "06062-2051", "name": "PLAINVILLE", "phone": "8607930284", "website": "https://www.84lumber.com/store-locator/store-detail/?storeId=3801", "opening_hours": "Mo-Fr 07:00-18:00; Sa 08:00-12:00", "brand": "84 Lumber", "brand:wikidata": "Q4644779", "nsi_id": "84lumber-4e950c"}, "geometry": {"type": "Point", "coordinates": [-72.83761, 41.67224]}},
{"type": "Feature", "id": "0SYSdCKC06-jzPI5qnSAU2FTw0M=", "properties": {"ref": "4101", "@spider": "84lumber", "shop": "trade", "trade": "building_supplies", "addr:street_address": "38 MONTEREY DRIVE", "addr:city": "WEST SPRINGFIELD", "addr:state": "MA", "addr:postcode": "01089", "name": "WEST SPRINGFIELD", "phone": "4137338475", "website": "https://www.84lumber.com/store-locator/store-detail/?storeId=4101", "opening_hours": "Mo-Fr 07:00-18:00; Sa 08:00-12:00", "brand": "84 Lumber", "brand:wikidata": "Q4644779", "nsi_id": "84lumber-4e950c"}, "geometry": {"type": "Point", "coordinates": [-72.62428, 42.1273079]}},
{"type": "Feature", "id": "wdiutdQMU2maROmU5Ezk0Lytrro=", "properties": {"ref": "1219", "@spider": "84lumber", "shop": "trade", "trade": "building_supplies", "addr:street_address": "2307 RHEA COUNTY HWY", "addr:city": "DAYTON", "addr:state": "TN", "addr:postcode": "37321", "name": "GRAYSVILLE", "phone": "4237758466", "website": "https://www.84lumber.com/store-locator/store-detail/?storeId=1219", "opening_hours": "Mo-Fr 07:00-18:00; Sa 08:00-12:00", "brand": "84 Lumber", "brand:wikidata": "Q4644779", "nsi_id": "84lumber-4e950c"}, "geometry": {"type": "Point", "coordinates": [-85.05564, 35.4520721]}},
{"type": "Feature", "id": "73wETaWFUanln12EBS6JfjrUDr0=", "properties": {"ref": "2305", "@spider": "84lumber", "shop": "trade", "trade": "building_supplies", "addr:street_address": "1700 HALL DR", "addr:city": "WILMINGTON", "addr:state": "NC", "addr:postcode": "28405", "name": "WILMINGTON", "phone": "9103436984", "website": "https://www.84lumber.com/store-locator/store-detail/?storeId=2305", "opening_hours": "Mo-Fr 07:00-18:00; Sa 08:00-12:00", "brand": "84 Lumber", "brand:wikidata": "Q4644779", "nsi_id": "84lumber-4e950c"}, "geometry": {"type": "Point", "coordinates": [-77.91842, 34.27477]}},
{"type": "Feature", "id": "W9cFzPCiioYQNNdcZtNm0iEP_LU=", "properties": {"ref": "823", "@spider": "84lumber", "shop": "trade", "trade": "building_supplies", "addr:street_address": "3630 WASHINGTON ST", "addr:city": "GURNEE", "addr:state": "IL", "addr:postcode": "60031", "name": "GURNEE", "phone": "8473608420", "website": "https://www.84lumber.com/store-locator/store-detail/?storeId=823", "opening_hours": "Mo-Fr 07:00-17:00", "brand": "84 Lumber", "brand:wikidata": "Q4644779", "nsi_id": "84lumber-4e950c"}, "geometry": {"type": "Point", "coordinates": [-87.8901443, 42.3599854]}},
{"type": "Feature", "id": "7ScpfjqSxM0wEg3jw8Jrqr7PcRw=", "properties": {"ref": "2415", "@spider": "84lumber", "shop": "trade", "trade": "building_supplies", "addr:street_address": "931 EAST MAIN ST", "addr:city": "LEXINGTON", "addr:state": "SC", "addr:postcode": "29071", "name": "LEXINGTON", "phone": "8033594484", "website": "https://www.84lumber.com/store-locator/store-detail/?storeId=2415", "opening_hours": "Mo-Fr 07:00-18:00; Sa 08:00-12:00", "brand": "84 Lumber", "brand:wikidata": "Q4644779", "nsi_id": "84lumber-4e950c"}, "geometry": {"type": "Point", "coordinates": [-81.2224, 33.97513]}},
{"type": "Feature", "id": "34kDUPFto1IpjNlgXgZKhLug3zo=", "properties": {"ref": "520", "@spider": "84lumber", "shop": "trade", "trade": "building_supplies", "addr:street_address": "223 EMERSON BYPASS ROAD", "addr:city": "RUSSELLVILLE", "addr:state": "KY", "addr:postcode": "42276", "name": "RUSSELLVILLE", "phone": "2707259184", "website": "https://www.84lumber.com/store-locator/store-detail/?storeId=520", "opening_hours": "Mo-Fr 07:00-18:00; Sa 08:00-16:00", "brand": "84 Lumber", "brand:wikidata": "Q4644779", "nsi_id": "84lumber-4e950c"}, "geometry": {"type": "Point", "coordinates": [-86.91249, 36.8365974]}},
{"type": "Feature", "id": "UyG3NefCnpkANYcwGGv6ck-Tz9E=", "properties": {"ref": "806", "@spider": "84lumber", "shop": "trade", "trade": "building_supplies", "addr:street_address": "1704 N AURORA RD", "addr:city": "NAPERVILLE", "addr:state": "IL", "addr:postcode": "60563-3921", "name": "NAPERVILLE", "phone": "6303558420", "website": "https://www.84lumber.com/store-locator/store-detail/?storeId=806", "opening_hours": "Mo-Fr 07:00-17:00; Sa 08:00-12:00", "brand": "84 Lumber", "brand:wikidata": "Q4644779", "nsi_id": "84lumber-4e950c"}, "geometry": {"type": "Point", "coordinates": [-88.1952, 41.7788734]}},
{"type": "Feature", "id": "GhlWuH5ZY4udXFvAhhGIknqCW9E=", "properties": {"ref": "1202", "@spider": "84lumber", "shop": "trade", "trade": "building_supplies", "addr:street_address": "111 TENNESSEE WAY", "addr:city": "HENDERSONVILLE", "addr:state": "TN", "addr:postcode": "37075", "name": "HENDERSONVILLE", "phone": "6152648499", "website": "https://www.84lumber.com/store-locator/store-detail/?storeId=1202", "opening_hours": "Mo-Fr 07:00-18:00; Sa 08:00-12:00", "brand": "84 Lumber", "brand:wikidata": "Q4644779", "nsi_id": "84lumber-4e950c"}, "geometry": {"type": "Point", "coordinates": [-86.62736, 36.3069649]}},
{"type": "Feature", "id": "hjGYnnVVuaOBAhOb8-yACKVJ_EM=", "properties": {"ref": "1206", "@spider": "84lumber", "shop": "trade", "trade": "building_supplies", "addr:street_address": "2846 EBLEN DR", "addr:city": "CHATTANOOGA", "addr:state": "TN", "addr:postcode": "37421", "name": "CHATTANOOGA", "phone": "4234908486", "website": "https://www.84lumber.com/store-locator/store-detail/?storeId=1206", "opening_hours": "Mo-Fr 07:00-18:00; Sa 08:00-12:00", "brand": "84 Lumber", "brand:wikidata": "Q4644779", "nsi_id": "84lumber-4e950c"}, "geometry": {"type": "Point", "coordinates": [-85.15547, 35.0665359]}},
{"type": "Feature", "id": "UNocxq4lLGHmY_r5Dh4Al7LiL4Y=", "properties": {"ref": "2410", "@spider": "84lumber", "shop": "trade", "trade": "building_supplies", "addr:street_address": "811 LUMBER ST", "addr:city": "MYRTLE BEACH", "addr:state": "SC", "addr:postcode": "29577", "name": "MYRTLE BEACH", "phone": "8434452984", "website": "https://www.84lumber.com/store-locator/store-detail/?storeId=2410", "opening_hours": "Mo-Fr 07:00-18:00", "brand": "84 Lumber", "brand:wikidata": "Q4644779", "nsi_id": "84lumber-4e950c"}, "geometry": {"type": "Point", "coordinates": [-78.88782, 33.6967659]}},
{"type": "Feature", "id": "Tb9hUlSaSye7VeB-yQW404bGIHY=", "properties": {"ref": "1213", "@spider": "84lumber", "shop": "trade", "trade": "building_supplies", "addr:street_address": "1935 NW BROAD ST", "addr:city": "MURFREESBORO", "addr:state": "TN", "addr:postcode": "37129", "name": "MURFREESBORO", "phone": "6158493777", "website": "https://www.84lumber.com/store-locator/store-detail/?storeId=1213", "opening_hours": "Mo-Fr 07:00-18:00; Sa 08:00-12:00", "brand": "84 Lumber", "brand:wikidata": "Q4644779", "nsi_id": "84lumber-4e950c"}, "geometry": {"type": "Point", "coordinates": [-86.42428, 35.8747749]}},
{"type": "Feature", "id": "kaIEnsA1-Q-G0_ihwZ1gjtBBmWQ=", "properties": {"ref": "1217", "@spider": "84lumber", "shop": "trade", "trade": "building_supplies", "addr:street_address": "595 ALFRED THUN RD", "addr:city": "CLARKSVILLE", "addr:state": "TN", "addr:postcode": "37040", "name": "CLARKSVILLE", "phone": "9316482884", "website": "https://www.84lumber.com/store-locator/store-detail/?storeId=1217", "opening_hours": "Mo-Fr 07:00-18:00; Sa 08:00-12:00", "brand": "84 Lumber", "brand:wikidata": "Q4644779", "nsi_id": "84lumber-4e950c"}, "geometry": {"type": "Point", "coordinates": [-87.26868, 36.5905]}},
{"type": "Feature", "id": "_UotvwMDuipcmLMlwtuYvzEOIiA=", "properties": {"ref": "1609", "@spider": "84lumber", "shop": "trade", "trade": "building_supplies", "addr:street_address": "775 BANKHEAD HWY", "addr:city": "WINDER", "addr:state": "GA", "addr:postcode": "30680", "name": "WINDER", "phone": "7708680392", "website": "https://www.84lumber.com/store-locator/store-detail/?storeId=1609", "opening_hours": "Mo-Fr 07:00-18:00; Sa 08:00-12:00", "brand": "84 Lumber", "brand:wikidata": "Q4644779", "nsi_id": "84lumber-4e950c"}, "geometry": {"type": "Point", "coordinates": [-83.77658, 33.993557]}},
{"type": "Feature", "id": "rb4VTvAUc1bUz101d8wHFrwN4Jo=", "properties": {"ref": "1618", "@spider": "84lumber", "shop": "trade", "trade": "building_supplies", "addr:street_address": "1725 WYLDS RD", "addr:city": "AUGUSTA", "addr:state": "GA", "addr:postcode": "30909", "name": "AUGUSTA", "phone": "7067371084", "website": "https://www.84lumber.com/store-locator/store-detail/?storeId=1618", "opening_hours": "Mo-Fr 07:00-18:00", "brand": "84 Lumber", "brand:wikidata": "Q4644779", "nsi_id": "84lumber-4e950c"}, "geometry": {"type": "Point", "coordinates": [-82.07407, 33.45882]}},
{"type": "Feature", "id": "8YOzol7buTtlHdmhcuY2wJHarRY=", "properties": {"ref": "1616", "@spider": "84lumber", "shop": "trade", "trade": "building_supplies", "addr:street_address": "84 AMPACET DR", "addr:city": "CARTERSVILLE", "addr:state": "GA", "addr:postcode": "30120", "name": "CARTERSVILLE", "phone": "7703838784", "website": "https://www.84lumber.com/store-locator/store-detail/?storeId=1616", "opening_hours": "Mo-Fr 07:00-18:00; Sa 08:00-12:00", "brand": "84 Lumber", "brand:wikidata": "Q4644779", "nsi_id": "84lumber-4e950c"}, "geometry": {"type": "Point", "coordinates": [-84.837, 34.14773]}},
{"type": "Feature", "id": "tQ6O74dew8DH1ChE69XTbauGigg=", "properties": {"ref": "2412", "@spider": "84lumber", "shop": "trade", "trade": "building_supplies", "addr:street_address": "2520 W 5TH NORTH ST", "addr:city": "SUMMERVILLE", "addr:state": "SC", "addr:postcode": "29483", "name": "SUMMERVILLE", "phone": "8438328584", "website": "https://www.84lumber.com/store-locator/store-detail/?storeId=2412", "opening_hours": "Mo-Fr 07:00-18:00; Sa 08:00-12:00", "brand": "84 Lumber", "brand:wikidata": "Q4644779", "nsi_id": "84lumber-4e950c"}, "geometry": {"type": "Point", "coordinates": [-80.22167, 33.04598]}},
{"type": "Feature", "id": "vOhcs7_zJRYZmKN0LEVu9rbcUIo=", "properties": {"ref": "4102", "@spider": "84lumber", "shop": "trade", "trade": "building_supplies", "addr:street_address": "54 HIGH ST", "addr:city": "HOLBROOK", "addr:state": "MA", "addr:postcode": "02343", "name": "HOLBROOK", "phone": "7819613645", "website": "https://www.84lumber.com/store-locator/store-detail/?storeId=4102", "opening_hours": "Mo-Fr 07:00-18:00; Sa 08:00-12:00", "brand": "84 Lumber", "brand:wikidata": "Q4644779", "nsi_id": "84lumber-4e950c"}, "geometry": {"type": "Point", "coordinates": [-71.02512, 42.13049]}},
{"type": "Feature", "id": "AHxn1kN73O191lxSKDvnVgBjpj0=", "properties": {"ref": "2407", "@spider": "84lumber", "shop": "trade", "trade": "building_supplies", "addr:street_address": "704 JOHNNIE DODDS BLVD", "addr:city": "MT PLEASANT", "addr:state": "SC", "addr:postcode": "29464-3022", "name": "MT. PLEASANT", "phone": "8438848431", "website": "https://www.84lumber.com/store-locator/store-detail/?storeId=2407", "opening_hours": "Mo-Fr 07:00-18:00; Sa 08:00-16:00", "brand": "84 Lumber", "brand:wikidata": "Q4644779", "nsi_id": "84lumber-4e950c"}, "geometry": {"type": "Point", "coordinates": [-79.87508, 32.80946]}},
{"type": "Feature", "id": "5ZRWkI1No4HGiOpudzoZsoZESx4=", "properties": {"ref": "1624", "@spider": "84lumber", "shop": "trade", "trade": "building_supplies", "addr:street_address": "13390 VETERANS MEMORIAL HIGHWAY", "addr:city": "DOUGLASVILLE", "addr:state": "GA", "addr:postcode": "30134", "name": "DOUGLASVILLE", "phone": "6787158464", "website": "https://www.84lumber.com/store-locator/store-detail/?storeId=1624", "opening_hours": "Mo-Fr 07:00-18:00; Sa 08:00-12:00", "brand": "84 Lumber", "brand:wikidata": "Q4644779", "nsi_id": "84lumber-4e950c"}, "geometry": {"type": "Point", "coordinates": [-84.78431, 33.7405777]}},
{"type": "Feature", "id": "OGMFBz2eadNd2EFbpu4N0p8oGLc=", "properties": {"ref": "2612", "@spider": "84lumber", "shop": "trade", "trade": "building_supplies", "addr:street_address": "29005 OLD HIGHWAY 20", "addr:city": "MADISON ", "addr:state": "AL", "addr:postcode": "35756", "name": "HUNTSVILLE", "phone": "2567741625", "website": "https://www.84lumber.com/store-locator/store-detail/?storeId=2612", "opening_hours": "Mo-Fr 07:00-17:00; Sa 08:00-12:00", "brand": "84 Lumber", "brand:wikidata": "Q4644779", "nsi_id": "84lumber-4e950c"}, "geometry": {"type": "Point", "coordinates": [-86.80802, 34.6706238]}},
{"type": "Feature", "id": "sph14GZ2wZ6t-1K5AE4e1gyCLnc=", "properties": {"ref": "1622", "@spider": "84lumber", "shop": "trade", "trade": "building_supplies", "addr:street_address": "150 PINE RD", "addr:city": "NEWNAN", "addr:state": "GA", "addr:postcode": "30263", "name": "NEWNAN", "phone": "7703040626", "website": "https://www.84lumber.com/store-locator/store-detail/?storeId=1622", "opening_hours": "Mo-Fr 07:00-18:00; Sa 08:00-12:00", "brand": "84 Lumber", "brand:wikidata": "Q4644779", "nsi_id": "84lumber-4e950c"}, "geometry": {"type": "Point", "coordinates": [-84.86221, 33.3380966]}},
{"type": "Feature", "id": "dqI9noC_USy3Q2bLOiTwQbbz5mY=", "properties": {"ref": "2805", "@spider": "84lumber", "shop": "trade", "trade": "building_supplies", "addr:street_address": "555 JEFFCO BLVD", "addr:city": "ARNOLD", "addr:state": "MO", "addr:postcode": "63010-1407", "name": "ARNOLD", "phone": "6362968400", "website": "https://www.84lumber.com/store-locator/store-detail/?storeId=2805", "opening_hours": "Mo-Fr 07:00-17:00; Sa 08:00-12:00", "brand": "84 Lumber", "brand:wikidata": "Q4644779", "nsi_id": "84lumber-4e950c"}, "geometry": {"type": "Point", "coordinates": [-90.3627548, 38.45261]}},
{"type": "Feature", "id": "xE5wz3yVwnYnxWEwjAM-K0cz1Mk=", "properties": {"ref": "1619", "@spider": "84lumber", "shop": "trade", "trade": "building_supplies", "addr:street_address": "4020 OGEECHEE RD", "addr:city": "SAVANNAH", "addr:state": "GA", "addr:postcode": "31405", "name": "SAVANNAH", "phone": "9122369484", "website": "https://www.84lumber.com/store-locator/store-detail/?storeId=1619", "opening_hours": "Mo-Fr 07:00-18:00", "brand": "84 Lumber", "brand:wikidata": "Q4644779", "nsi_id": "84lumber-4e950c"}, "geometry": {"type": "Point", "coordinates": [-81.15921, 32.0506554]}},
{"type": "Feature", "id": "2LPjKk8OsIbNPs8ml1Kgg6oip34=", "properties": {"ref": "2801", "@spider": "84lumber", "shop": "trade", "trade": "building_supplies", "addr:street_address": "239 W OUTER RD", "addr:city": "VALLEY PARK", "addr:state": "MO", "addr:postcode": "63088-2016", "name": "PEERLESS PARK", "phone": "6362257900", "website": "https://www.84lumber.com/store-locator/store-detail/?storeId=2801", "opening_hours": "Mo-Fr 07:00-17:00; Sa 08:00-12:00", "brand": "84 Lumber", "brand:wikidata": "Q4644779", "nsi_id": "84lumber-4e950c"}, "geometry": {"type": "Point", "coordinates": [-90.50547, 38.53801]}},
{"type": "Feature", "id": "sAm2IwTXVhO00aZQvdY7qo_o9K8=", "properties": {"ref": "2601", "@spider": "84lumber", "shop": "trade", "trade": "building_supplies", "addr:street_address": "490 25TH ST SOUTH", "addr:city": "IRONDALE", "addr:state": "AL", "addr:postcode": "35210-1208", "name": "IRONDALE", "phone": "2059560311", "website": "https://www.84lumber.com/store-locator/store-detail/?storeId=2601", "opening_hours": "Mo-Fr 07:00-18:00; Sa 08:00-12:00", "brand": "84 Lumber", "brand:wikidata": "Q4644779", "nsi_id": "84lumber-4e950c"}, "geometry": {"type": "Point", "coordinates": [-86.69932, 33.5380669]}},
{"type": "Feature", "id": "dqr4PTyLGE3kjwhrFcel8w1dQbQ=", "properties": {"ref": "1620", "@spider": "84lumber", "shop": "trade", "trade": "building_supplies", "addr:street_address": "8484 FORTSON RD", "addr:city": "FORTSON", "addr:state": "GA", "addr:postcode": "31808", "name": "COLUMBUS", "phone": "7066538475", "website": "https://www.84lumber.com/store-locator/store-detail/?storeId=1620", "opening_hours": "Mo-Fr 07:00-18:00; Sa 08:00-12:00", "brand": "84 Lumber", "brand:wikidata": "Q4644779", "nsi_id": "84lumber-4e950c"}, "geometry": {"type": "Point", "coordinates": [-84.9491348, 32.5729027]}},
{"type": "Feature", "id": "-S5Njs2rf9TxN_tOKpKRKHbdAhg=", "properties": {"ref": "2611", "@spider": "84lumber", "shop": "trade", "trade": "building_supplies", "addr:street_address": "1805 4TH AVE SW", "addr:city": "BESSEMER", "addr:state": "AL", "addr:postcode": "35020", "name": "BESSEMER", "phone": "2054250084", "website": "https://www.84lumber.com/store-locator/store-detail/?storeId=2611", "opening_hours": "Mo-Fr 07:00-18:00", "brand": "84 Lumber", "brand:wikidata": "Q4644779", "nsi_id": "84lumber-4e950c"}, "geometry": {"type": "Point", "coordinates": [-86.99645, 33.3501358]}},
{"type": "Feature", "id": "D99enT7B5H80NU9oZaPMBd_Btvk=", "properties": {"ref": "1201", "@spider": "84lumber", "shop": "trade", "trade": "building_supplies", "addr:street_address": "170 COMMERCE RD", "addr:city": "PIPERTON", "addr:state": "TN", "addr:postcode": "38017", "name": "PIPERTON", "phone": "9018618433", "website": "https://www.84lumber.com/store-locator/store-detail/?storeId=1201", "opening_hours": "Mo-Fr 07:00-18:00", "brand": "84 Lumber", "brand:wikidata": "Q4644779", "nsi_id": "84lumber-4e950c"}, "geometry": {"type": "Point", "coordinates": [-89.63016, 35.04404]}},
{"type": "Feature", "id": "klgncVg4SyNTZVCj3AyCugSB5XU=", "properties": {"ref": "2607", "@spider": "84lumber", "shop": "trade", "trade": "building_supplies", "addr:street_address": "7107 MCFARLAND BLVD", "addr:city": "NORTHPORT", "addr:state": "AL", "addr:postcode": "35476", "name": "NORTHPORT", "phone": "2053390884", "website": "https://www.84lumber.com/store-locator/store-detail/?storeId=2607", "opening_hours": "Mo-Fr 07:00-18:00; Sa 08:00-12:00", "brand": "84 Lumber", "brand:wikidata": "Q4644779", "nsi_id": "84lumber-4e950c"}, "geometry": {"type": "Point", "coordinates": [-87.63466, 33.2335548]}},
{"type": "Feature", "id": "_dJgTmxpANosc3sXrlf2xgb9LGA=", "properties": {"ref": "1309", "@spider": "84lumber", "shop": "trade", "trade": "building_supplies", "addr:street_address": "8400 ROOSEVELT BLVD", "addr:city": "JACKSONVILLE", "addr:state": "FL", "addr:postcode": "32244", "name": "ORANGE PARK", "phone": "9042788460", "website": "https://www.84lumber.com/store-locator/store-detail/?storeId=1309", "opening_hours": "Mo-Fr 07:00-18:00; Sa 08:00-12:00", "brand": "84 Lumber", "brand:wikidata": "Q4644779", "nsi_id": "84lumber-4e950c"}, "geometry": {"type": "Point", "coordinates": [-81.70779, 30.1951733]}},
{"type": "Feature", "id": "rWG4hHFJRkdNQ-XRX7adXGzQhVk=", "properties": {"ref": "1338", "@spider": "84lumber", "shop": "trade", "trade": "building_supplies", "addr:street_address": "3670 DEER PARK BLVD", "addr:city": "ELKTON", "addr:state": "FL", "addr:postcode": "32033", "name": "ST. AUGUSTINE", "phone": "9048088480", "website": "https://www.84lumber.com/store-locator/store-detail/?storeId=1338", "opening_hours": "Mo-Fr 07:00-18:00", "brand": "84 Lumber", "brand:wikidata": "Q4644779", "nsi_id": "84lumber-4e950c"}, "geometry": {"type": "Point", "coordinates": [-81.38475, 29.8331566]}},
{"type": "Feature", "id": "kcESN0SXMbXt8oJS6mUV541uBZw=", "properties": {"ref": "1331", "@spider": "84lumber", "shop": "trade", "trade": "building_supplies", "addr:street_address": "5083 NW 13TH STREET", "addr:city": "GAINESVILLE", "addr:state": "FL", "addr:postcode": "32609", "name": "GAINESVILLE", "phone": "3523388401", "website": "https://www.84lumber.com/store-locator/store-detail/?storeId=1331", "opening_hours": "Mo-Fr 07:00-18:00; Sa 08:00-12:00", "brand": "84 Lumber", "brand:wikidata": "Q4644779", "nsi_id": "84lumber-4e950c"}, "geometry": {"type": "Point", "coordinates": [-82.33944, 29.70049]}},
{"type": "Feature", "id": "00HUM9tq1dyQwUK5cAm_8TJWVBs=", "properties": {"ref": "1804", "@spider": "84lumber", "shop": "trade", "trade": "building_supplies", "addr:street_address": "155 CANTON ONE DR", "addr:city": "CANTON", "addr:state": "MS", "addr:postcode": "39046", "name": "CANTON", "phone": "6014071484", "website": "https://www.84lumber.com/store-locator/store-detail/?storeId=1804", "opening_hours": "Mo-Fr 07:00-17:00", "brand": "84 Lumber", "brand:wikidata": "Q4644779", "nsi_id": "84lumber-4e950c"}, "geometry": {"type": "Point", "coordinates": [-90.0527649, 32.5840569]}},
{"type": "Feature", "id": "yHEk6AMSQJ_0jE6ZyFseLjnlVEw=", "properties": {"ref": "1802", "@spider": "84lumber", "shop": "trade", "trade": "building_supplies", "addr:street_address": "184 INTERSTATE DR", "addr:city": "RICHLAND", "addr:state": "MS", "addr:postcode": "39218", "name": "JACKSON", "phone": "6019320284", "website": "https://www.84lumber.com/store-locator/store-detail/?storeId=1802", "opening_hours": "Mo-Fr 07:00-17:00; Sa 08:00-12:00", "brand": "84 Lumber", "brand:wikidata": "Q4644779", "nsi_id": "84lumber-4e950c"}, "geometry": {"type": "Point", "coordinates": [-90.15744, 32.2532845]}},
{"type": "Feature", "id": "7Vp-UBCiN-URjwD75lni6E8bShM=", "properties": {"ref": "3908", "@spider": "84lumber", "shop": "trade", "trade": "building_supplies", "addr:street_address": "8940 MARSHALL DR", "addr:city": "LENEXA", "addr:state": "KS", "addr:postcode": "66215", "name": "LENEXA", "phone": "9138888488", "website": "https://www.84lumber.com/store-locator/store-detail/?storeId=3908", "opening_hours": "Mo-Fr 07:00-17:00; Sa 08:00-12:00", "brand": "84 Lumber", "brand:wikidata": "Q4644779", "nsi_id": "84lumber-4e950c"}, "geometry": {"type": "Point", "coordinates": [-94.724, 38.9662933]}},
{"type": "Feature", "id": "pDjj73wqrhMLICRVVWlgep2sPy8=", "properties": {"ref": "1302", "@spider": "84lumber", "shop": "trade", "trade": "building_supplies", "addr:street_address": "3050 MELLONVILLE AVE", "addr:city": "SANFORD", "addr:state": "FL", "addr:postcode": "32773", "name": "SANFORD", "phone": "4077087400", "website": "https://www.84lumber.com/store-locator/store-detail/?storeId=1302", "opening_hours": "Mo-Fr 07:00-18:00", "brand": "84 Lumber", "brand:wikidata": "Q4644779", "nsi_id": "84lumber-4e950c"}, "geometry": {"type": "Point", "coordinates": [-81.25624, 28.7734489]}},
{"type": "Feature", "id": "Gkfql-MK9sqB0tXH-ssSpNwjbVU=", "properties": {"ref": "1320", "@spider": "84lumber", "shop": "trade", "trade": "building_supplies", "addr:street_address": "3751 COUNTY RD 561", "addr:city": "TAVARES", "addr:state": "FL", "addr:postcode": "32778", "name": "TAVARES", "phone": "3527428400", "website": "https://www.84lumber.com/store-locator/store-detail/?storeId=1320", "opening_hours": "Mo-Fr 07:00-18:00; Sa 08:00-12:00", "brand": "84 Lumber", "brand:wikidata": "Q4644779", "nsi_id": "84lumber-4e950c"}, "geometry": {"type": "Point", "coordinates": [-81.73706, 28.7667427]}},
{"type": "Feature", "id": "Hn3vAQjIN_aXoMTYHQXEB4fz-_g=", "properties": {"ref": "1337", "@spider": "84lumber", "shop": "trade", "trade": "building_supplies", "addr:street_address": "1011 PINELOCH IND DR", "addr:city": "WINTER GARDEN", "addr:state": "FL", "addr:postcode": "34787", "name": "WINTER GARDEN", "phone": "4076561484", "website": "https://www.84lumber.com/store-locator/store-detail/?storeId=1337", "opening_hours": "Mo-Fr 07:00-18:00; Sa 08:00-12:00", "brand": "84 Lumber", "brand:wikidata": "Q4644779", "nsi_id": "84lumber-4e950c"}, "geometry": {"type": "Point", "coordinates": [-81.56706, 28.5720615]}},
{"type": "Feature", "id": "zdHPhNsItNTMDFcUbZSQHVjgmww=", "properties": {"ref": "1334", "@spider": "84lumber", "shop": "trade", "trade": "building_supplies", "addr:street_address": "2281 BROAD ST.", "addr:city": "BROOKSVILLE", "addr:state": "FL", "addr:postcode": "34604", "name": "BROOKSVILLE", "phone": "3527545033", "website": "https://www.84lumber.com/store-locator/store-detail/?storeId=1334", "opening_hours": "Mo-Fr 07:00-17:00; Sa 08:00-12:00", "brand": "84 Lumber", "brand:wikidata": "Q4644779", "nsi_id": "84lumber-4e950c"}, "geometry": {"type": "Point", "coordinates": [-82.44657, 28.467392]}},
{"type": "Feature", "id": "BxBJTtU0419_SgoDtuxrlPbZffg=", "properties": {"ref": "1325", "@spider": "84lumber", "shop": "trade", "trade": "building_supplies", "addr:street_address": "2575 ROBERTS RD", "addr:city": "MELBOURNE", "addr:state": "FL", "addr:postcode": "32940", "name": "PALM SHORES", "phone": "3212552384", "website": "https://www.84lumber.com/store-locator/store-detail/?storeId=1325", "opening_hours": "Mo-Fr 07:00-18:00; Sa 08:00-12:00", "brand": "84 Lumber", "brand:wikidata": "Q4644779", "nsi_id": "84lumber-4e950c"}, "geometry": {"type": "Point", "coordinates": [-80.66515, 28.2036514]}},
{"type": "Feature", "id": "c9i7c6BNu1Kd55Qcln48MlhoGrE=", "properties": {"ref": "1807", "@spider": "84lumber", "shop": "trade", "trade": "building_supplies", "addr:street_address": "3804 25TH AV", "addr:city": "GULFPORT", "addr:state": "MS", "addr:postcode": "39501", "name": "GULFPORT", "phone": "2288630840", "website": "https://www.84lumber.com/store-locator/store-detail/?storeId=1807", "opening_hours": "Mo-Fr 07:00-17:00; Sa 08:00-12:00", "brand": "84 Lumber", "brand:wikidata": "Q4644779", "nsi_id": "84lumber-4e950c"}, "geometry": {"type": "Point", "coordinates": [-89.0929, 30.3954811]}},
{"type": "Feature", "id": "-57rxXqQ6z71c3hEIVnscQ_ddE4=", "properties": {"ref": "1329", "@spider": "84lumber", "shop": "trade", "trade": "building_supplies", "addr:street_address": "2102 HENDERSON WAY", "addr:city": "PLANT CITY", "addr:state": "FL", "addr:postcode": "33563", "name": "PLANT CITY", "phone": "8137543584", "website": "https://www.84lumber.com/store-locator/store-detail/?storeId=1329", "opening_hours": "Mo-Fr 07:00-18:00; Sa 08:00-16:00", "brand": "84 Lumber", "brand:wikidata": "Q4644779", "nsi_id": "84lumber-4e950c"}, "geometry": {"type": "Point", "coordinates": [-82.1018, 28.0169]}},
{"type": "Feature", "id": "-SHpnMgi4UZ6vnsTxFoMMMpfPXw=", "properties": {"ref": "2717", "@spider": "84lumber", "shop": "trade", "trade": "building_supplies", "addr:street_address": "62580 HIGHWAY 11", "addr:city": "PEARL RIVER", "addr:state": "LA", "addr:postcode": "70452", "name": "PEARL RIVER", "phone": "9858638461", "website": "https://www.84lumber.com/store-locator/store-detail/?storeId=2717", "opening_hours": "Mo-Fr 07:00-17:00; Sa 08:00-12:00", "brand": "84 Lumber", "brand:wikidata": "Q4644779", "nsi_id": "84lumber-4e950c"}, "geometry": {"type": "Point", "coordinates": [-89.75223, 30.3488235]}},
{"type": "Feature", "id": "8uE4CllQKjuGsAoGE9gFB8MyjxU=", "properties": {"ref": "3704", "@spider": "84lumber", "shop": "trade", "trade": "building_supplies", "addr:street_address": "4401 S 33RD COURT", "addr:city": "LINCOLN", "addr:state": "NE", "addr:postcode": "68516", "name": "LINCOLN", "phone": "4024238410", "website": "https://www.84lumber.com/store-locator/store-detail/?storeId=3704", "opening_hours": "Mo-Fr 07:00-17:00; Sa 08:00-12:00", "brand": "84 Lumber", "brand:wikidata": "Q4644779", "nsi_id": "84lumber-4e950c"}, "geometry": {"type": "Point", "coordinates": [-96.67305, 40.7679443]}},
{"type": "Feature", "id": "TTUe_HPrs8LUp1wqzERh3e8cNAQ=", "properties": {"ref": "1347", "@spider": "84lumber", "shop": "trade", "trade": "building_supplies", "addr:street_address": "6301 US HIGHWAY 41 SOUTH", "addr:city": "RUSKIN", "addr:state": "FL", "addr:postcode": "33570", "name": "RUSKIN", "phone": "8136412257", "website": "https://www.84lumber.com/store-locator/store-detail/?storeId=1347", "opening_hours": "Mo-Fr 07:00-18:00; Sa 08:00-12:00", "brand": "84 Lumber", "brand:wikidata": "Q4644779", "nsi_id": "84lumber-4e950c"}, "geometry": {"type": "Point", "coordinates": [-82.50971, 27.6543636]}},
{"type": "Feature", "id": "mPXcpMt4c-In5z4kysIybBlj_wU=", "properties": {"ref": "1335", "@spider": "84lumber", "shop": "trade", "trade": "building_supplies", "addr:street_address": "2800 15TH ST EAST", "addr:city": "BRADENTON", "addr:state": "FL", "addr:postcode": "34208", "name": "SARASOTA", "phone": "9417509984", "website": "https://www.84lumber.com/store-locator/store-detail/?storeId=1335", "opening_hours": "Mo-Fr 07:00-18:00; Sa 08:00-12:00", "brand": "84 Lumber", "brand:wikidata": "Q4644779", "nsi_id": "84lumber-4e950c"}, "geometry": {"type": "Point", "coordinates": [-82.5467453, 27.4746361]}},
{"type": "Feature", "id": "VtW1JljBkAp71M8gEU92KionmH0=", "properties": {"ref": "2701", "@spider": "84lumber", "shop": "trade", "trade": "building_supplies", "addr:street_address": "10329 AIRLINE HIGHWAY", "addr:city": "ST ROSE", "addr:state": "LA", "addr:postcode": "70087", "name": "AIRLINE HIGHWAY", "phone": "5044698400", "website": "https://www.84lumber.com/store-locator/store-detail/?storeId=2701", "opening_hours": "Mo-Fr 07:00-17:00; Sa 08:00-12:00", "brand": "84 Lumber", "brand:wikidata": "Q4644779", "nsi_id": "84lumber-4e950c"}, "geometry": {"type": "Point", "coordinates": [-90.290596, 29.9764652]}},
{"type": "Feature", "id": "Kb_xcWjO9g3JdN1FtzqWwWWQDK0=", "properties": {"ref": "2712", "@spider": "84lumber", "shop": "trade", "trade": "building_supplies", "addr:street_address": "8675 S CHOCTAW DR", "addr:city": "BATON ROUGE", "addr:state": "LA", "addr:postcode": "70815", "name": "BATON ROUGE", "phone": "2259262084", "website": "https://www.84lumber.com/store-locator/store-detail/?storeId=2712", "opening_hours": "Mo-Fr 07:00-17:00", "brand": "84 Lumber", "brand:wikidata": "Q4644779", "nsi_id": "84lumber-4e950c"}, "geometry": {"type": "Point", "coordinates": [-91.09651, 30.4718056]}},
{"type": "Feature", "id": "CsuhrsLAE6HyR7T2qOwvUtLw-bs=", "properties": {"ref": "1336", "@spider": "84lumber", "shop": "trade", "trade": "building_supplies", "addr:street_address": "5 CHENEY WAY", "addr:city": "RIVIERA BEACH", "addr:state": "FL", "addr:postcode": "33404", "name": "WEST PALM BEACH", "phone": "5618412584", "website": "https://www.84lumber.com/store-locator/store-detail/?storeId=1336", "opening_hours": "Mo-Fr 07:00-18:00; Sa 08:00-12:00", "brand": "84 Lumber", "brand:wikidata": "Q4644779", "nsi_id": "84lumber-4e950c"}, "geometry": {"type": "Point", "coordinates": [-80.09037, 26.7670364]}},
{"type": "Feature", "id": "OrR-zHoPyZ1HSudqdZLHi2wRYLU=", "properties": {"ref": "8494", "@spider": "84lumber", "shop": "trade", "trade": "building_supplies", "addr:street_address": "5 CHENEY WAY", "addr:city": "RIVIERA BEACH", "addr:state": "FL", "addr:postcode": "33404", "name": "84 WORLD TRADE DIVISION", "phone": "5618459223", "website": "https://www.84lumber.com/store-locator/store-detail/?storeId=8494", "opening_hours": "Mo-Fr 07:00-18:00; Sa 07:00-12:00", "brand": "84 Lumber", "brand:wikidata": "Q4644779", "nsi_id": "84lumber-4e950c"}, "geometry": {"type": "Point", "coordinates": [-80.09037, 26.7670364]}},
{"type": "Feature", "id": "1ynxDxv9fjPjJQZksO7n3DoZpC0=", "properties": {"ref": "1321", "@spider": "84lumber", "shop": "trade", "trade": "building_supplies", "addr:street_address": "3530 METRO PARKWAY", "addr:city": "FORT MYERS", "addr:state": "FL", "addr:postcode": "33916", "name": "FT. MYERS", "phone": "2393328484", "website": "https://www.84lumber.com/store-locator/store-detail/?storeId=1321", "opening_hours": "Mo-Fr 07:00-18:00; Sa 08:00-12:00", "brand": "84 Lumber", "brand:wikidata": "Q4644779", "nsi_id": "84lumber-4e950c"}, "geometry": {"type": "Point", "coordinates": [-81.8519058, 26.6138783]}},
{"type": "Feature", "id": "ByKIoDUqLXqy2t74f7puxkHKbdA=", "properties": {"ref": "1319", "@spider": "84lumber", "shop": "trade", "trade": "building_supplies", "addr:street_address": "3700 S STATE RD 7", "addr:city": "DAVIE", "addr:state": "FL", "addr:postcode": "33314", "name": "FT. LAUDERDALE", "phone": "9545818440", "website": "https://www.84lumber.com/store-locator/store-detail/?storeId=1319", "opening_hours": "Mo-Fr 07:00-18:00; Sa 08:00-16:00", "brand": "84 Lumber", "brand:wikidata": "Q4644779", "nsi_id": "84lumber-4e950c"}, "geometry": {"type": "Point", "coordinates": [-80.20603, 26.0750637]}},
{"type": "Feature", "id": "RWLEhNizJvbtHgQKidA36Ik7BJw=", "properties": {"ref": "1929", "@spider": "84lumber", "shop": "trade", "trade": "building_supplies", "addr:street_address": "2906 W MILLER RD", "addr:city": "GARLAND", "addr:state": "TX", "addr:postcode": "75041", "name": "GARLAND", "phone": "9728648411", "website": "https://www.84lumber.com/store-locator/store-detail/?storeId=1929", "opening_hours": "Mo-Fr 07:00-17:00", "brand": "84 Lumber", "brand:wikidata": "Q4644779", "nsi_id": "84lumber-4e950c"}, "geometry": {"type": "Point", "coordinates": [-96.6732, 32.8943977]}},
{"type": "Feature", "id": "2NFHddPjicqXMD9KJoDt0MM2xcA=", "properties": {"ref": "1941", "@spider": "84lumber", "shop": "trade", "trade": "building_supplies", "addr:street_address": "3147 JIM CHRISTAL RD", "addr:city": "DENTON", "addr:state": "TX", "addr:postcode": "76207", "name": "DENTON", "phone": "9402438484", "website": "https://www.84lumber.com/store-locator/store-detail/?storeId=1941", "opening_hours": "Mo-Fr 07:00-18:00; Sa 08:00-12:00", "brand": "84 Lumber", "brand:wikidata": "Q4644779", "nsi_id": "84lumber-4e950c"}, "geometry": {"type": "Point", "coordinates": [-97.17252, 33.2175]}},
{"type": "Feature", "id": "3BUMRqQHOY9Q0lgeSRgtiVFQnr4=", "properties": {"ref": "1930", "@spider": "84lumber", "shop": "trade", "trade": "building_supplies", "addr:street_address": "1340 DUNCANVILLE RD", "addr:city": "DUNCANVILLE", "addr:state": "TX", "addr:postcode": "75116", "name": "DUNCANVILLE", "phone": "9722833938", "website": "https://www.84lumber.com/store-locator/store-detail/?storeId=1930", "opening_hours": "Mo-Fr 07:00-17:00; Sa 08:00-12:00", "brand": "84 Lumber", "brand:wikidata": "Q4644779", "nsi_id": "84lumber-4e950c"}, "geometry": {"type": "Point", "coordinates": [-96.90785, 32.6740532]}},
{"type": "Feature", "id": "mjb2IadmG6Yn2N2ieUKUhFPzYqs=", "properties": {"ref": "1933", "@spider": "84lumber", "shop": "trade", "trade": "building_supplies", "addr:street_address": "930 INTERSTATE 45 S", "addr:city": "CONROE", "addr:state": "TX", "addr:postcode": "77304", "name": "CONROE", "phone": "9364944084", "website": "https://www.84lumber.com/store-locator/store-detail/?storeId=1933", "opening_hours": "Mo-Fr 07:00-18:00; Sa 08:00-12:00", "brand": "84 Lumber", "brand:wikidata": "Q4644779", "nsi_id": "84lumber-4e950c"}, "geometry": {"type": "Point", "coordinates": [-95.46616, 30.29381]}},
{"type": "Feature", "id": "-xiIL7TP6JhvmiIW5Vua2987KgU=", "properties": {"ref": "1927", "@spider": "84lumber", "shop": "trade", "trade": "building_supplies", "addr:street_address": "11203 GALVESTON RD", "addr:city": "HOUSTON", "addr:state": "TX", "addr:postcode": "77034", "name": "SOUTH HOUSTON", "phone": "2814818415", "website": "https://www.84lumber.com/store-locator/store-detail/?storeId=1927", "opening_hours": "Mo-Fr 07:00-17:00; Sa 08:00-12:00", "brand": "84 Lumber", "brand:wikidata": "Q4644779", "nsi_id": "84lumber-4e950c"}, "geometry": {"type": "Point", "coordinates": [-95.1817, 29.6092]}},
{"type": "Feature", "id": "WkJLNwl3Ku5fUF-GV08q0-ZpAZc=", "properties": {"ref": "1949", "@spider": "84lumber", "shop": "trade", "trade": "building_supplies", "addr:street_address": "22770 NORTHWEST LAKE", "addr:city": "HOUSTON", "addr:state": "TX", "addr:postcode": "77095", "name": "HOUSTON WEST", "phone": "2812133062", "website": "https://www.84lumber.com/store-locator/store-detail/?storeId=1949", "opening_hours": "Mo-Fr 07:00-17:00", "brand": "84 Lumber", "brand:wikidata": "Q4644779", "nsi_id": "84lumber-4e950c"}, "geometry": {"type": "Point", "coordinates": [-95.65503, 29.938818]}},
{"type": "Feature", "id": "bcZKzH83rbcoatptxM4dmg5AW9Y=", "properties": {"ref": "1945", "@spider": "84lumber", "shop": "trade", "trade": "building_supplies", "addr:street_address": "108 MADISON OAKS AVE", "addr:city": "GEORGETOWN", "addr:state": "TX", "addr:postcode": "78626", "name": "GEORGETOWN", "phone": "5128684484", "website": "https://www.84lumber.com/store-locator/store-detail/?storeId=1945", "opening_hours": "Mo-Fr 07:00-17:00", "brand": "84 Lumber", "brand:wikidata": "Q4644779", "nsi_id": "84lumber-4e950c"}, "geometry": {"type": "Point", "coordinates": [-97.679985, 30.6168652]}},
{"type": "Feature", "id": "spaZfcuX47NHqVb4fiObBTifn8A=", "properties": {"ref": "1934", "@spider": "84lumber", "shop": "trade", "trade": "building_supplies", "addr:street_address": "5200 S WESTERN ST", "addr:city": "AMARILLO", "addr:state": "TX", "addr:postcode": "79109", "name": "AMARILLO", "phone": "8063528422", "website": "https://www.84lumber.com/store-locator/store-detail/?storeId=1934", "opening_hours": "Mo-Fr 07:00-17:00; Sa 08:00-12:00", "brand": "84 Lumber", "brand:wikidata": "Q4644779", "nsi_id": "84lumber-4e950c"}, "geometry": {"type": "Point", "coordinates": [-101.885437, 35.1526756]}},
{"type": "Feature", "id": "F06SrmIsdhjDjSLEeTYLK6z_m9k=", "properties": {"ref": "1938", "@spider": "84lumber", "shop": "trade", "trade": "building_supplies", "addr:street_address": "18100 F M HWY 2252", "addr:city": "SAN ANTONIO", "addr:state": "TX", "addr:postcode": "78266", "name": "SAN ANTONIO EAST", "phone": "2106511184", "website": "https://www.84lumber.com/store-locator/store-detail/?storeId=1938", "opening_hours": "Mo-Fr 07:00-18:00", "brand": "84 Lumber", "brand:wikidata": "Q4644779", "nsi_id": "84lumber-4e950c"}, "geometry": {"type": "Point", "coordinates": [-98.32512, 29.6069756]}},
{"type": "Feature", "id": "ox4Dw7j_NB3tXMaWlYpd56U1K2U=", "properties": {"ref": "1952", "@spider": "84lumber", "shop": "trade", "trade": "building_supplies", "addr:street_address": "327 RIVERSIDE DRIVE", "addr:city": "SAN ANTONIO", "addr:state": "TX", "addr:postcode": "78210", "name": "SAN ANTONIO", "phone": "2105340990", "website": "https://www.84lumber.com/store-locator/store-detail/?storeId=1952", "opening_hours": "Mo-Fr 07:00-17:00", "brand": "84 Lumber", "brand:wikidata": "Q4644779", "nsi_id": "84lumber-4e950c"}, "geometry": {"type": "Point", "coordinates": [-98.48029, 29.3774242]}},
{"type": "Feature", "id": "6mPhAIs2DEuc2E-IRnTChKXHEjU=", "properties": {"ref": "1935", "@spider": "84lumber", "shop": "trade", "trade": "building_supplies", "addr:street_address": "102 E 50TH ST", "addr:city": "LUBBOCK", "addr:state": "TX", "addr:postcode": "79404", "name": "LUBBOCK", "phone": "8067638400", "website": "https://www.84lumber.com/store-locator/store-detail/?storeId=1935", "opening_hours": "Mo-Fr 07:00-18:00; Sa 08:00-12:00", "brand": "84 Lumber", "brand:wikidata": "Q4644779", "nsi_id": "84lumber-4e950c"}, "geometry": {"type": "Point", "coordinates": [-101.834686, 33.5478554]}},
{"type": "Feature", "id": "JN7yWS4y9jcJ5razuz6HzWfYw7I=", "properties": {"ref": "3603", "@spider": "84lumber", "shop": "trade", "trade": "building_supplies", "addr:street_address": "3401 N WHITE SANDS BLV", "addr:city": "ALAMOGORDO", "addr:state": "NM", "addr:postcode": "88310", "name": "ALAMOGORDO", "phone": "5754343850", "website": "https://www.84lumber.com/store-locator/store-detail/?storeId=3603", "opening_hours": "Mo-Fr 07:00-17:00", "brand": "84 Lumber", "brand:wikidata": "Q4644779", "nsi_id": "84lumber-4e950c"}, "geometry": {"type": "Point", "coordinates": [-105.96521, 32.9368134]}},
{"type": "Feature", "id": "E3_pwEMzqCRyBasz2DSRHMc7MKU=", "properties": {"ref": "2004", "@spider": "84lumber", "shop": "trade", "trade": "building_supplies", "addr:street_address": "779 22 ROAD", "addr:city": "GRAND JUNCTION", "addr:state": "CO", "addr:postcode": "81505", "name": "GRAND JUNCTION", "phone": "9702458400", "website": "https://www.84lumber.com/store-locator/store-detail/?storeId=2004", "opening_hours": "Mo-Fr 07:00-17:00; Sa 08:00-12:00", "brand": "84 Lumber", "brand:wikidata": "Q4644779", "nsi_id": "84lumber-4e950c"}, "geometry": {"type": "Point", "coordinates": [-108.647263, 39.1143265]}},
{"type": "Feature", "id": "C7uEQoSLGvmoXuzGq8d4aC1EIfk=", "properties": {"ref": "1925", "@spider": "84lumber", "shop": "trade", "trade": "building_supplies", "addr:street_address": "122 MCCUTCHEON LANE", "addr:city": "EL PASO", "addr:state": "TX", "addr:postcode": "79932-1428", "name": "EL PASO", "phone": "9155848447", "website": "https://www.84lumber.com/store-locator/store-detail/?storeId=1925", "opening_hours": "Mo-Fr 07:00-17:00; Sa 08:00-12:00", "brand": "84 Lumber", "brand:wikidata": "Q4644779", "nsi_id": "84lumber-4e950c"}, "geometry": {"type": "Point", "coordinates": [-106.585, 31.8583736]}},
{"type": "Feature", "id": "-1Lx3ZFfnV2fc0LR8vvPQeRNbe8=", "properties": {"ref": "3005", "@spider": "84lumber", "shop": "trade", "trade": "building_supplies", "addr:street_address": "275 E WILLIS RD", "addr:city": "CHANDLER", "addr:state": "AZ", "addr:postcode": "85286", "name": "CHANDLER", "phone": "4808148484", "website": "https://www.84lumber.com/store-locator/store-detail/?storeId=3005", "opening_hours": "Mo-Fr 06:00-17:00; Sa 08:00-12:00", "brand": "84 Lumber", "brand:wikidata": "Q4644779", "nsi_id": "84lumber-4e950c"}, "geometry": {"type": "Point", "coordinates": [-111.835442, 33.28397]}},
{"type": "Feature", "id": "yDok8xBqaXxNNHuulVCRTD41j_E=", "properties": {"ref": "4203", "@spider": "84lumber", "shop": "trade", "trade": "building_supplies", "addr:street_address": "240 W TAYLOR AVE", "addr:city": "MERIDIAN", "addr:state": "ID", "addr:postcode": "83642", "name": "BOISE", "phone": "2083148397", "website": "https://www.84lumber.com/store-locator/store-detail/?storeId=4203", "opening_hours": "Mo-Fr 07:00-17:00", "brand": "84 Lumber", "brand:wikidata": "Q4644779", "nsi_id": "84lumber-4e950c"}, "geometry": {"type": "Point", "coordinates": [-116.397491, 43.6064072]}},
{"type": "Feature", "id": "uS4dKb67Sy5y_w5sPp7iXzaBNr0=", "properties": {"ref": "2905", "@spider": "84lumber", "shop": "trade", "trade": "building_supplies", "addr:street_address": "4330 S DECATUR", "addr:city": "LAS VEGAS", "addr:state": "NV", "addr:postcode": "89103", "name": "LAS VEGAS", "phone": "7022518498", "website": "https://www.84lumber.com/store-locator/store-detail/?storeId=2905", "opening_hours": "Mo-Fr 06:00-17:00; Sa 08:00-12:00", "brand": "84 Lumber", "brand:wikidata": "Q4644779", "nsi_id": "84lumber-4e950c"}, "geometry": {"type": "Point", "coordinates": [-115.207794, 36.11112]}},
{"type": "Feature", "id": "jLwbV_3iF2-9i-osiBr3AOprQhQ=", "properties": {"ref": "3004", "@spider": "84lumber", "shop": "trade", "trade": "building_supplies", "addr:street_address": "2725 E 24TH ST", "addr:city": "YUMA", "addr:state": "AZ", "addr:postcode": "85365", "name": "YUMA", "phone": "9287266336", "website": "https://www.84lumber.com/store-locator/store-detail/?storeId=3004", "opening_hours": "Mo-Fr 06:00-17:00; Sa 08:00-12:00", "brand": "84 Lumber", "brand:wikidata": "Q4644779", "nsi_id": "84lumber-4e950c"}, "geometry": {"type": "Point", "coordinates": [-114.585373, 32.68051]}},
{"type": "Feature", "id": "Y9oqRbhICCfWLBgZDKX60N8D13o=", "properties": {"ref": "2131", "@spider": "84lumber", "shop": "trade", "trade": "building_supplies", "addr:street_address": "350 E 1ST ST", "addr:city": "BEAUMONT", "addr:state": "CA", "addr:postcode": "92223-2906", "name": "BEAUMONT", "phone": "9518452178", "website": "https://www.84lumber.com/store-locator/store-detail/?storeId=2131", "opening_hours": "Mo-Fr 06:00-17:00; Sa 08:00-12:00", "brand": "84 Lumber", "brand:wikidata": "Q4644779", "nsi_id": "84lumber-4e950c"}, "geometry": {"type": "Point", "coordinates": [-116.978, 33.9217]}},
{"type": "Feature", "id": "_IrD403s-oE1BeWPL-ovtIuoTZA=", "properties": {"ref": "2137", "@spider": "84lumber", "shop": "trade", "trade": "building_supplies", "addr:street_address": "101 MING AVE", "addr:city": "BAKERSFIELD", "addr:state": "CA", "addr:postcode": "93307", "name": "BAKERSFIELD", "phone": "6618270584", "website": "https://www.84lumber.com/store-locator/store-detail/?storeId=2137", "opening_hours": "Mo-Fr 07:00-17:00; Sa 08:00-12:00", "brand": "84 Lumber", "brand:wikidata": "Q4644779", "nsi_id": "84lumber-4e950c"}, "geometry": {"type": "Point", "coordinates": [-119.003937, 35.3393745]}},
{"type": "Feature", "id": "4ql2QK09M9ax8C45-8tWnkml1ME=", "properties": {"ref": "2138", "@spider": "84lumber", "shop": "trade", "trade": "building_supplies", "addr:street_address": "800 GETTYSBURG AVE", "addr:city": "CLOVIS", "addr:state": "CA", "addr:postcode": "93612", "name": "CLOVIS", "phone": "5592918444", "website": "https://www.84lumber.com/store-locator/store-detail/?storeId=2138", "opening_hours": "Mo-Fr 07:00-17:00; Sa 08:00-12:00", "brand": "84 Lumber", "brand:wikidata": "Q4644779", "nsi_id": "84lumber-4e950c"}, "geometry": {"type": "Point", "coordinates": [-119.698624, 36.8012123]}}]}