{"type":"FeatureCollection","features":[{"type": "Feature", "id": "nPc4Ced3rJJRXTDjLbHs-3524MU=", "properties": {"ref": "368", "@spider": "a1", "name:bg": "\u04101", "shop": "telecommunication", "addr:full": "\u0413\u0430\u0431\u0440\u043e\u0432\u043e, \u0443\u043b. \u042f\u043d\u0442\u0440\u0430 1", "addr:country": "BG", "name": "\u04101 \u043c\u0430\u0433\u0430\u0437\u0438\u043d A1 \u043c-\u043d \u0413\u0430\u0431\u0440\u043e\u0432\u043e, \u0443\u043b. \u042f\u043d\u0442\u0440\u0430 1 ", "phone": "+359882207484", "opening_hours": "Mo-Fr 09:00-19:00", "brand": "A1", "brand:wikidata": "Q1941592", "nsi_id": "a1-5ceaa9"}, "geometry": {"type": "Point", "coordinates": [25.318916, 42.872585]}},
{"type": "Feature", "id": "P5Bn6GzyWCTmSu4SEDyzXOvl9Pg=", "properties": {"ref": "110", "@spider": "a1", "name:bg": "\u04101", "shop": "telecommunication", "addr:full": "\u0443\u043b. \u0421\u0432\u043e\u0431\u043e\u0434\u0430 3", "addr:country": "BG", "name": "\u04101 \u043c\u0430\u0433\u0430\u0437\u0438\u043d \u0410\u0439\u0442\u043e\u0441, \u0421\u0432\u043e\u0431\u043e\u0434\u0430 3", "phone": "+359882207420", "opening_hours": "Mo-Fr 09:00-18:30", "brand": "A1", "brand:wikidata": "Q1941592", "nsi_id": "a1-5ceaa9"}, "geometry": {"type": "Point", "coordinates": [27.254295, 42.703587]}},
{"type": "Feature", "id": "-srrdC8LXivN7FtifAxVNLZkFLM=", "properties": {"ref": "406", "@spider": "a1", "name:bg": "\u04101", "shop": "telecommunication", "addr:full": "\u0443\u043b. \u041a\u0430\u043f\u0438\u0442\u0430\u043d \u041f\u0435\u0442\u043a\u043e \u0412\u043e\u0439\u0432\u043e\u0434\u0430 2\u0412", "addr:country": "BG", "name": "\u04101 \u043c\u0430\u0433\u0430\u0437\u0438\u043d \u0410\u043a\u0441\u0430\u043a\u043e\u0432\u043e, \u041a. \u041f. \u0412\u043e\u0439\u0432\u043e\u0434\u0430 ", "opening_hours": "Mo-Fr 09:00-19:00", "brand": "A1", "brand:wikidata": "Q1941592", "nsi_id": "a1-5ceaa9"}, "geometry": {"type": "Point", "coordinates": [27.813358, 43.258331]}},
{"type": "Feature", "id": "HjJOECBSLJkSwch5tOpnNHzVuIQ=", "properties": {"ref": "336", "@spider": "a1", "name:bg": "\u04101", "shop": "telecommunication", "addr:full": "\u043f\u043b. \u041d\u0438\u043a\u043e\u043b\u0430\u0439 \u0425\u0430\u0439\u0442\u043e\u0432 3", "addr:country": "BG", "name": "\u04101 \u043c\u0430\u0433\u0430\u0437\u0438\u043d \u0410\u0441\u0435\u043d\u043e\u0432\u0433\u0440\u0430\u0434, \u041d. \u0425\u0430\u0439\u0442\u043e\u0432 12", "phone": "+359882207360", "opening_hours": "Mo-Fr 09:00-18:30", "brand": "A1", "brand:wikidata": "Q1941592", "nsi_id": "a1-5ceaa9"}, "geometry": {"type": "Point", "coordinates": [24.874646, 42.006405]}},
{"type": "Feature", "id": "uve5nCr9Mgpggutbs_oP8y2mDYc=", "properties": {"ref": "108", "@spider": "a1", "name:bg": "\u04101", "shop": "telecommunication", "addr:full": "\u0443\u043b. \u0414\u0438\u043c\u0438\u0442\u044a\u0440 \u0411\u043b\u0430\u0433\u043e\u0435\u0432 79", "addr:country": "BG", "name": "\u04101 \u043c\u0430\u0433\u0430\u0437\u0438\u043d \u0411. \u0421\u043b\u0430\u0442\u0438\u043d\u0430, \u0414. \u0411\u043b\u0430\u0433\u043e\u0435\u0432 79 ", "phone": "+359882207536", "opening_hours": "Mo-Fr 09:00-18:00", "brand": "A1", "brand:wikidata": "Q1941592", "nsi_id": "a1-5ceaa9"}, "geometry": {"type": "Point", "coordinates": [23.942806, 43.470448]}},
{"type": "Feature", "id": "CEC__zOGETpxIxjAlAxMZ-lzsJY=", "properties": {"ref": "98", "@spider": "a1", "name:bg": "\u04101", "shop": "telecommunication", "addr:full": "\u0443\u043b. \u0427\u0435\u0440\u043d\u043e \u043c\u043e\u0440\u0435 1", "addr:country": "BG", "name": "\u04101 \u043c\u0430\u0433\u0430\u0437\u0438\u043d \u0411\u0430\u043b\u0447\u0438\u043a, \u0427\u0435\u0440\u043d\u043e \u043c\u043e\u0440\u0435 1", "phone": "+359882207443", "opening_hours": "Mo-Fr 09:00-18:00", "brand": "A1", "brand:wikidata": "Q1941592", "nsi_id": "a1-5ceaa9"}, "geometry": {"type": "Point", "coordinates": [28.167948, 43.405352]}},
{"type": "Feature", "id": "tl3l1JuR9Q1lXiyiKGA2roqpzJw=", "properties": {"ref": "332", "@spider": "a1", "name:bg": "\u04101", "shop": "telecommunication", "addr:full": "\u043f\u043b. \u041d\u0438\u043a\u043e\u043b\u0430 \u0412\u0430\u043f\u0446\u0430\u0440\u043e\u0432 6", "addr:country": "BG", "name": "\u04101 \u043c\u0430\u0433\u0430\u0437\u0438\u043d \u0411\u0430\u043d\u0441\u043a\u043e, \u041d. \u0412\u0430\u043f\u0446\u0430\u0440\u043e\u0432 6", "phone": "+359882207520", "opening_hours": "Mo-Fr 09:00-18:30", "brand": "A1", "brand:wikidata": "Q1941592", "nsi_id": "a1-5ceaa9"}, "geometry": {"type": "Point", "coordinates": [23.488398, 41.837652]}},
{"type": "Feature", "id": "ppvOIE8guKJ_HXSESfnK2yeGNUU=", "properties": {"ref": "136", "@spider": "a1", "name:bg": "\u04101", "shop": "telecommunication", "addr:full": "\u0431\u0443\u043b. \u041e\u0441\u0432\u043e\u0431\u043e\u0436\u0434\u0435\u043d\u0438\u0435 80", "addr:country": "BG", "name": "\u04101 \u043c\u0430\u0433\u0430\u0437\u0438\u043d \u0411\u0435\u043b\u043e\u0432\u043e, \u041e\u0441\u0432\u043e\u0431\u043e\u0436\u0434\u0435\u043d\u0438\u0435 80 ", "phone": "+359882207361", "opening_hours": "Mo-Fr 09:00-18:00", "brand": "A1", "brand:wikidata": "Q1941592", "nsi_id": "a1-5ceaa9"}, "geometry": {"type": "Point", "coordinates": [24.015839, 42.215857]}},
{"type": "Feature", "id": "nVbJDyAZUZqorJMyh_HLWaGO2jc=", "properties": {"ref": "137", "@spider": "a1", "name:bg": "\u04101", "shop": "telecommunication", "addr:full": "\u0443\u043b.\u041d\u0438\u043a\u043e\u043b\u0430\u0435\u0432\u0441\u043a\u0430 8", "addr:country": "BG", "name": "\u04101 \u043c\u0430\u0433\u0430\u0437\u0438\u043d \u0411\u0435\u0440\u043a\u043e\u0432\u0438\u0446\u0430, \u041d\u0438\u043a\u043e\u043b\u0430\u0435\u0432\u0441\u043a\u0430 8", "phone": "+359882207534", "opening_hours": "Mo-Fr 09:00-19:00", "brand": "A1", "brand:wikidata": "Q1941592", "nsi_id": "a1-5ceaa9"}, "geometry": {"type": "Point", "coordinates": [23.127836, 43.23856]}},
{"type": "Feature", "id": "Tg5B9qjIGxeyQ2bfT0U1EPOEeAA=", "properties": {"ref": "358", "@spider": "a1", "name:bg": "\u04101", "shop": "telecommunication", "addr:full": "\u0431\u0443\u043b. \u0421\u0432. \u0414\u0438\u043c\u0438\u0442\u044a\u0440 \u0421\u043e\u043b\u0443\u043d\u0441\u043a\u0438 21 (\u041a\u0430\u0443\u0444\u043b\u0430\u043d\u0434)", "addr:country": "BG", "name": "\u04101 \u043c\u0430\u0433\u0430\u0437\u0438\u043d \u0411\u043b\u0430\u0433\u043e\u0435\u0432\u0433\u0440\u0430\u0434, \u0414. \u0421\u043e\u043b\u0443\u043d\u0441\u043a\u0438 \u041a\u0424", "phone": "+359882207549", "opening_hours": "Mo-Su 08:00-20:00", "brand": "A1", "brand:wikidata": "Q1941592", "nsi_id": "a1-5ceaa9"}, "geometry": {"type": "Point", "coordinates": [23.093964, 42.010812]}},
{"type": "Feature", "id": "wQ7C2T3SVsaPhFMrYil1mKOWyog=", "properties": {"ref": "62", "@spider": "a1", "name:bg": "\u04101", "shop": "telecommunication", "addr:full": "\u0443\u043b. \u0422\u043e\u0434\u043e\u0440 \u0410\u043b\u0435\u043a\u0441\u0430\u043d\u0434\u0440\u043e\u0432 3", "addr:country": "BG", "name": "\u04101 \u043c\u0430\u0433\u0430\u0437\u0438\u043d \u0411\u043b\u0430\u0433\u043e\u0435\u0432\u0433\u0440\u0430\u0434, T. \u0410\u043b\u0435\u043a\u0441\u0430\u043d\u0434\u0440\u043e\u0432, 3", "phone": "+359882207522", "opening_hours": "Mo-Fr 09:00-19:30", "brand": "A1", "brand:wikidata": "Q1941592", "nsi_id": "a1-5ceaa9"}, "geometry": {"type": "Point", "coordinates": [23.100365, 42.020207]}},
{"type": "Feature", "id": "zvqp7dSK7bADRRVYdCgJ2cRkyvA=", "properties": {"ref": "64", "@spider": "a1", "name:bg": "\u04101", "shop": "telecommunication", "addr:full": "\u043f\u043b. \u041e\u0441\u0432\u043e\u0431\u043e\u0436\u0434\u0435\u043d\u0438\u0435 5", "addr:country": "BG", "name": "\u04101 \u043c\u0430\u0433\u0430\u0437\u0438\u043d \u0411\u043e\u0442\u0435\u0432\u0433\u0440\u0430\u0434, \u041e\u0441\u0432\u043e\u0431\u043e\u0436\u0434.", "phone": "+359882207535", "opening_hours": "Mo-Fr 09:00-19:30", "brand": "A1", "brand:wikidata": "Q1941592", "nsi_id": "a1-5ceaa9"}, "geometry": {"type": "Point", "coordinates": [23.79291, 42.907403]}},
{"type": "Feature", "id": "_xdCClxI12zb3LlSJozpQrVIjgw=", "properties": {"ref": "337", "@spider": "a1", "name:bg": "\u04101", "shop": "telecommunication", "addr:full": "\u0443\u043b. \u0425\u0430\u0434\u0436\u0438 \u0414\u0438\u043c\u0438\u0442\u044a\u0440 11", "addr:country": "BG", "name": "\u04101 \u043c\u0430\u0433\u0430\u0437\u0438\u043d \u0411\u044f\u043b\u0430, \u0425\u0430\u0434\u0436\u0438 \u0414\u0438\u043c\u0438\u0442\u044a\u0440 11", "phone": "+359882207497", "opening_hours": "Mo-Fr 09:00-18:00", "brand": "A1", "brand:wikidata": "Q1941592", "nsi_id": "a1-5ceaa9"}, "geometry": {"type": "Point", "coordinates": [25.7359832, 43.4588257]}},
{"type": "Feature", "id": "smI0WXAXgtBmp3w_UG_vhtVfxf8=", "properties": {"ref": "229", "@spider": "a1", "name:bg": "\u04101", "shop": "telecommunication", "addr:full": "\u0443\u043b. \u0410\u043b\u0435\u043a\u0441\u0430\u043d\u0434\u0440\u043e\u0432\u0441\u043a\u0430 12", "addr:country": "BG", "name": "\u04101 \u043c\u0430\u0433\u0430\u0437\u0438\u043d \u0411\u0443\u0440\u0433\u0430\u0441, \u0410\u043b\u0435\u043a\u0441\u0430\u043d\u0434-\u043a\u0430 12", "phone": "+359882207471", "opening_hours": "Mo-Fr 09:00-19:30", "brand": "A1", "brand:wikidata": "Q1941592", "nsi_id": "a1-5ceaa9"}, "geometry": {"type": "Point", "coordinates": [27.472972, 42.492008]}},
{"type": "Feature", "id": "wUl1z0Elqsc29InuUSuGkCxQsj8=", "properties": {"ref": "54", "@spider": "a1", "name:bg": "\u04101", "shop": "telecommunication", "addr:full": "\u0436.\u043a. \u041c\u0435\u0434\u0435\u043d \u0420\u0443\u0434\u043d\u0438\u043a \u0437\u043e\u043d\u0430 \u0410 \u0431\u043b.436", "addr:country": "BG", "name": "\u04101 \u043c\u0430\u0433\u0430\u0437\u0438\u043d \u0411\u0443\u0440\u0433\u0430\u0441, \u041c. \u0420\u0443\u0434\u043d\u0438\u043a 436", "phone": "+359882207427", "opening_hours": "Mo-Fr 09:00-19:00", "brand": "A1", "brand:wikidata": "Q1941592", "nsi_id": "a1-5ceaa9"}, "geometry": {"type": "Point", "coordinates": [27.417954, 42.461279]}},
{"type": "Feature", "id": "3M9ghLBB8w4nb9xXldTA6r-lVks=", "properties": {"ref": "53", "@spider": "a1", "name:bg": "\u04101", "shop": "telecommunication", "addr:full": "\u0443\u043b. \u0421\u0430\u043d \u0421\u0442\u0435\u0444\u0430\u043d\u043e 129", "addr:country": "BG", "name": "\u04101 \u043c\u0430\u0433\u0430\u0437\u0438\u043d \u0411\u0443\u0440\u0433\u0430\u0441, \u0421\u0430\u043d \u0421\u0442\u0435\u0444\u0430\u043d\u043e 129", "phone": "+359882207426", "opening_hours": "Mo-Fr 09:00-19:00", "brand": "A1", "brand:wikidata": "Q1941592", "nsi_id": "a1-5ceaa9"}, "geometry": {"type": "Point", "coordinates": [27.473331, 42.503367]}},
{"type": "Feature", "id": "OD2giJLDwEbQM5FSLa9orsV4MT4=", "properties": {"ref": "330", "@spider": "a1", "name:bg": "\u04101", "shop": "telecommunication", "addr:full": "\u0443\u043b. \u0410\u043b\u0435\u043a\u0441\u0430\u043d\u0434\u0440\u043e\u0432\u0441\u043a\u0430 58, \u0442\u044a\u0440\u0433\u043e\u0432\u0441\u043a\u0438 \u0446\u0435\u043d\u0442\u044a\u0440 \u041f\u0438\u0440\u0433\u043e\u0441 \u0441\u0442\u0438\u043b", "addr:country": "BG", "name": "\u04101 \u043c\u0430\u0433\u0430\u0437\u0438\u043d \u0411\u0443\u0440\u0433\u0430\u0441, \u0422\u0426 \u041f\u0438\u0440\u0433\u043e\u0441 \u0441\u0442\u0438\u043b", "phone": "+359882207424", "opening_hours": "Mo-Fr 09:00-19:00", "brand": "A1", "brand:wikidata": "Q1941592", "nsi_id": "a1-5ceaa9"}, "geometry": {"type": "Point", "coordinates": [27.471146, 42.495833]}},
{"type": "Feature", "id": "BSFydYvHf7xZ75mAq519DrdWSDg=", "properties": {"ref": "52", "@spider": "a1", "name:bg": "\u04101", "shop": "telecommunication", "addr:full": "\u0436.\u043a. \u0421\u043b\u0430\u0432\u0435\u0439\u043a\u043e\u0432, \u0431\u0443\u043b.\u0422\u0440\u0430\u043a\u0438\u044f 125", "addr:country": "BG", "name": "\u04101 \u043c\u0430\u0433\u0430\u0437\u0438\u043d \u0411\u0443\u0440\u0433\u0430\u0441, \u0422\u0440\u0430\u043a\u0438\u044f 125", "phone": "+359882207421", "opening_hours": "Mo-Fr 09:00-19:30", "brand": "A1", "brand:wikidata": "Q1941592", "nsi_id": "a1-5ceaa9"}, "geometry": {"type": "Point", "coordinates": [27.451553, 42.519934]}},
{"type": "Feature", "id": "36qFZ-9lVUzSlmKrbJYwAeCEHd4=", "properties": {"ref": "325", "@spider": "a1", "name:bg": "\u04101", "shop": "telecommunication", "addr:full": "\u041c\u041e\u041b \u0413\u0430\u043b\u0435\u0440\u0438\u044f - \u0443\u043b. \u201e\u042f\u043d\u043a\u043e \u041a\u043e\u043c\u0438\u0442\u043e\u0432\u201d 6", "addr:country": "BG", "name": "\u04101 \u043c\u0430\u0433\u0430\u0437\u0438\u043d \u0411\u0443\u0440\u0433\u0430\u0441, \u041c\u041e\u041b \u0413\u0430\u043b\u0435\u0440\u0438\u044f", "phone": "+359882207419", "opening_hours": "Mo-Su 10:00-20:00", "brand": "A1", "brand:wikidata": "Q1941592", "nsi_id": "a1-5ceaa9"}, "geometry": {"type": "Point", "coordinates": [27.454378, 42.512782]}},
{"type": "Feature", "id": "pXh-O_5nbGWGZA-5WSVvJtNKseU=", "properties": {"ref": "219", "@spider": "a1", "name:bg": "\u04101", "shop": "telecommunication", "addr:full": "\u0443\u043b. \u0422\u0440\u0430\u043d\u0441\u043f\u043e\u0440\u0442\u043d\u0430, \u0422\u041a \u041a\u0430\u0440\u0444\u0443\u0440, \u041c\u041e\u041b \u0411\u0443\u0440\u0433\u0430\u0441 \u041f\u043b\u0430\u0437\u0430", "addr:country": "BG", "name": "\u04101 \u043c\u0430\u0433\u0430\u0437\u0438\u043d \u0411\u0443\u0440\u0433\u0430\u0441, \u041c\u041e\u041b \u0411\u0443\u0440\u0433\u0430\u0441 \u041f\u043b\u0430\u0437\u0430", "phone": "+359882207470", "opening_hours": "Mo-Fr 10:00-20:00; Sa-Su 10:00-19:00", "brand": "A1", "brand:wikidata": "Q1941592", "nsi_id": "a1-5ceaa9"}, "geometry": {"type": "Point", "coordinates": [27.457723, 42.530607]}},
{"type": "Feature", "id": "hZL2W5KukLwIkBT0oHWOnVTMu0o=", "properties": {"ref": "178", "@spider": "a1", "name:bg": "\u04101", "shop": "telecommunication", "addr:full": "\u0443\u043b. \u0425\u0430\u043d \u0410\u0441\u043f\u0430\u0440\u0443\u0445 36", "addr:country": "BG", "name": "\u04101 \u043c\u0430\u0433\u0430\u0437\u0438\u043d \u0426\u0430\u0440\u0435\u0432\u043e, \u0425\u0430\u043d \u0410\u0441\u043f\u0430\u0440\u0443\u0445 36", "phone": "+359882207440", "opening_hours": "Mo-Fr 09:00-18:00", "brand": "A1", "brand:wikidata": "Q1941592", "nsi_id": "a1-5ceaa9"}, "geometry": {"type": "Point", "coordinates": [27.849579, 42.170178]}},
{"type": "Feature", "id": "pjwrl8pveJR1_16i57-p1S0wp0I=", "properties": {"ref": "173", "@spider": "a1", "name:bg": "\u04101", "shop": "telecommunication", "addr:full": "\u0443\u043b. \u201c\u0412\u0430\u0441\u0438\u043b \u0414\u0435\u0447\u0435\u0432\u201d \u211621\u0410, \u0435\u0442.1", "addr:country": "BG", "name": "\u04101 \u043c\u0430\u0433\u0430\u0437\u0438\u043d \u0427\u0435\u043f\u0435\u043b\u0430\u0440\u0435, \u0412\u0430\u0441\u0438\u043b \u0414\u0435\u0447\u0435\u0432 ", "phone": "+359884860720", "opening_hours": "Mo-Fr 09:00-18:00", "brand": "A1", "brand:wikidata": "Q1941592", "nsi_id": "a1-5ceaa9"}, "geometry": {"type": "Point", "coordinates": [24.68621, 41.72626]}},
{"type": "Feature", "id": "N0DGKFc3PilpROjl8m8NCnzfrzM=", "properties": {"ref": "127", "@spider": "a1", "name:bg": "\u04101", "shop": "telecommunication", "addr:full": "\u0443\u043b. \"\u0412\u0430\u0441\u0438\u043b \u0410\u043f\u0440\u0438\u043b\u043e\u0432\" 3", "addr:country": "BG", "name": "\u04101 \u043c\u0430\u0433\u0430\u0437\u0438\u043d \u0427\u0435\u0440\u0432\u0435\u043d \u0411\u0440\u044f\u0433, \u0412. \u0410\u043f\u0440\u0438\u043b\u043e\u0432 3", "phone": "+359882207495", "opening_hours": "Mo-Fr 09:00-18:00", "brand": "A1", "brand:wikidata": "Q1941592", "nsi_id": "a1-5ceaa9"}, "geometry": {"type": "Point", "coordinates": [24.082084, 43.281374]}},
{"type": "Feature", "id": "kG4IJo9WoObx1H3eKXAjuXCaCSs=", "properties": {"ref": "356", "@spider": "a1", "name:bg": "\u04101", "shop": "telecommunication", "addr:full": "\u0427\u0438\u0440\u043f\u0430\u043d, \u0413. \u0414\u0438\u043c\u0438\u0442\u0440\u043e\u0432 24", "addr:country": "BG", "name": "\u04101 \u043c\u0430\u0433\u0430\u0437\u0438\u043d \u0427\u0438\u0440\u043f\u0430\u043d, \u0413. \u0414\u0438\u043c\u0438\u0442\u0440\u043e\u0432 24", "phone": "+359882207401", "opening_hours": "Mo-Fr 09:00-18:30", "brand": "A1", "brand:wikidata": "Q1941592", "nsi_id": "a1-5ceaa9"}, "geometry": {"type": "Point", "coordinates": [25.325423, 42.19842]}},
{"type": "Feature", "id": "ev6pEw-OgwmCG8FpbwcAVv_JHX0=", "properties": {"ref": "45", "@spider": "a1", "name:bg": "\u04101", "shop": "telecommunication", "addr:full": "\u0431\u0443\u043b. \u0411\u044a\u043b\u0433\u0430\u0440\u0438\u044f 7", "addr:country": "BG", "name": "\u04101 \u043c\u0430\u0433\u0430\u0437\u0438\u043d \u0414\u0438\u043c\u0438\u0442\u0440\u043e\u0432\u0433\u0440\u0430\u0434, \u0411\u044a\u043b\u0433\u0430\u0440\u0438\u044f 7", "phone": "+359882207388", "opening_hours": "Mo-Fr 09:00-18:00", "brand": "A1", "brand:wikidata": "Q1941592", "nsi_id": "a1-5ceaa9"}, "geometry": {"type": "Point", "coordinates": [25.592549, 42.059955]}},
{"type": "Feature", "id": "ccbbNLAuxY9zfApiZ87FZnndLJY=", "properties": {"ref": "362", "@spider": "a1", "name:bg": "\u04101", "shop": "telecommunication", "addr:full": "\u0443\u043b. \u0420\u043e\u043c\u0435\u043d \u0420\u043e\u043b\u0430\u043d 7, \u041a\u0430\u0443\u0444\u043b\u0430\u043d\u0434", "addr:country": "BG", "name": "\u04101 \u043c\u0430\u0433\u0430\u0437\u0438\u043d \u0414\u0438\u043c\u0438\u0442\u0440\u043e\u0432\u0433\u0440\u0430\u0434, \u0420. \u0420\u043e\u043b\u0430\u043d 7 \u041a\u0424", "phone": "+359882207416", "opening_hours": "Mo-Su 08:00-20:00", "brand": "A1", "brand:wikidata": "Q1941592", "nsi_id": "a1-5ceaa9"}, "geometry": {"type": "Point", "coordinates": [25.587451, 42.059076]}},
{"type": "Feature", "id": "4YPVRT7cqhfHyE8B9UNeDZH0D-w=", "properties": {"ref": "89", "@spider": "a1", "name:bg": "\u04101", "shop": "telecommunication", "addr:full": "\u0443\u043b. \u041d\u0435\u0437\u0430\u0432\u0438\u0441\u0438\u043c\u043e\u0441\u0442 2", "addr:country": "BG", "name": "\u04101 \u043c\u0430\u0433\u0430\u0437\u0438\u043d \u0414\u043e\u0431\u0440\u0438\u0447, \u041d\u0435\u0437\u0430\u0432\u0438\u0441\u0438\u043c\u043e\u0441\u0442 2  ", "phone": "+359882207455", "opening_hours": "Mo-Fr 09:00-19:00", "brand": "A1", "brand:wikidata": "Q1941592", "nsi_id": "a1-5ceaa9"}, "geometry": {"type": "Point", "coordinates": [27.828703, 43.569861]}},
{"type": "Feature", "id": "726i9Azay926gGv1v7RYInxmMxU=", "properties": {"ref": "258", "@spider": "a1", "name:bg": "\u04101", "shop": "telecommunication", "addr:full": "\u043f\u043b. \u0421\u0432\u043e\u0431\u043e\u0434\u0430 5", "addr:country": "BG", "name": "\u04101 \u043c\u0430\u0433\u0430\u0437\u0438\u043d \u0414\u043e\u0431\u0440\u0438\u0447, \u043f\u043b. \u0421\u0432\u043e\u0431\u043e\u0434\u0430 5", "phone": "+359882207456", "opening_hours": "Mo-Fr 09:00-19:00", "brand": "A1", "brand:wikidata": "Q1941592", "nsi_id": "a1-5ceaa9"}, "geometry": {"type": "Point", "coordinates": [27.83056, 43.569368]}},
{"type": "Feature", "id": "MccWMNob6RxXiS45tltxBIjeCmw=", "properties": {"ref": "383", "@spider": "a1", "name:bg": "\u04101", "shop": "telecommunication", "addr:full": "\u0443\u043b.\u0412\u0430\u0441\u0438\u043b \u041b\u0435\u0432\u0441\u043a\u0438 16", "addr:country": "BG", "name": "\u04101 \u043c\u0430\u0433\u0430\u0437\u0438\u043d \u0414\u0443\u043b\u043e\u0432\u043e, \u0412\u0430\u0441\u0438\u043b \u041b\u0435\u0432\u0441\u043a\u0438 16", "phone": "+359882207578", "opening_hours": "Mo-Fr 09:00-18:00", "brand": "A1", "brand:wikidata": "Q1941592", "nsi_id": "a1-5ceaa9"}, "geometry": {"type": "Point", "coordinates": [27.141059, 43.823461]}},
{"type": "Feature", "id": "b7vuRLCfOzDIh_IbybySeNNlxCM=", "properties": {"ref": "67", "@spider": "a1", "name:bg": "\u04101", "shop": "telecommunication", "addr:full": "\u0443\u043b. \u041b\u043e\u0437\u0430 1", "addr:country": "BG", "name": "\u04101 \u043c\u0430\u0433\u0430\u0437\u0438\u043d \u0414\u0443\u043f\u043d\u0438\u0446\u0430, \u041b\u043e\u0437\u0430 1", "phone": "+359882207524", "opening_hours": "Mo-Fr 09:00-18:30", "brand": "A1", "brand:wikidata": "Q1941592", "nsi_id": "a1-5ceaa9"}, "geometry": {"type": "Point", "coordinates": [23.1065645, 42.2624626]}},
{"type": "Feature", "id": "K-BFZ4ntd0ZiOJsptVKy2Ybi9P0=", "properties": {"ref": "391", "@spider": "a1", "name:bg": "\u04101", "shop": "telecommunication", "addr:full": "\u0443\u043b. \u0422\u044a\u0440\u0433\u043e\u0432\u0441\u043a\u0430 25", "addr:country": "BG", "name": "\u04101 \u043c\u0430\u0433\u0430\u0437\u0438\u043d \u0415\u043b\u0445\u043e\u0432\u043e, \u0422\u044a\u0440\u0433\u043e\u0432\u0441\u043a\u0430 25", "phone": "+359882207428", "opening_hours": "Mo-Fr 09:00-18:00", "brand": "A1", "brand:wikidata": "Q1941592", "nsi_id": "a1-5ceaa9"}, "geometry": {"type": "Point", "coordinates": [26.567263, 42.171986]}},
{"type": "Feature", "id": "g1K84XfbaEVO-LwR4b-iAbh14QI=", "properties": {"ref": "385", "@spider": "a1", "name:bg": "\u04101", "shop": "telecommunication", "addr:full": "\u0433\u0440.\u0415\u043b\u0438\u043d \u041f\u0435\u043b\u0438\u043d, \u0443\u043b. \u0421\u043e\u0444\u0438\u044f 9", "addr:country": "BG", "name": "\u04101 \u043c\u0430\u0433\u0430\u0437\u0438\u043d \u0415\u043b\u0438\u043d \u041f\u0435\u043b\u0438\u043d, \u0421\u043e\u0444\u0438\u044f 9", "phone": "+359882207660", "opening_hours": "Mo-Fr 09:00-19:00", "brand": "A1", "brand:wikidata": "Q1941592", "nsi_id": "a1-5ceaa9"}, "geometry": {"type": "Point", "coordinates": [23.598566, 42.671171]}},
{"type": "Feature", "id": "Krj6m7yHJDaB0uoslZnx_Aya0_I=", "properties": {"ref": "382", "@spider": "a1", "name:bg": "\u04101", "shop": "telecommunication", "addr:full": "\u0431\u0443\u043b. \u0420\u0443\u0441\u043a\u0438 92", "addr:country": "BG", "name": "\u04101 \u043c\u0430\u0433\u0430\u0437\u0438\u043d \u0415\u0442\u0440\u043e\u043f\u043e\u043b\u0435, \u0420\u0443\u0441\u043a\u0438 92", "phone": "+359882207567", "opening_hours": "Mo-Fr 09:00-18:00", "brand": "A1", "brand:wikidata": "Q1941592", "nsi_id": "a1-5ceaa9"}, "geometry": {"type": "Point", "coordinates": [23.997617, 42.834039]}},
{"type": "Feature", "id": "WlYiZHu5QRhsW2Fkd8v9_xQRKd4=", "properties": {"ref": "82", "@spider": "a1", "name:bg": "\u04101", "shop": "telecommunication", "addr:full": "\u0443\u043b. \"\u0415\u043b\u0435\u043d\u0430 \u0413\u0440\u044a\u043d\u0447\u0430\u0440\u043e\u0432\u0430\" \u21166", "addr:country": "BG", "name": "\u04101 \u043c\u0430\u0433\u0430\u0437\u0438\u043d \u0413. \u041e\u0440\u044f\u0445\u043e\u0432\u0438\u0446\u0430, \u0413\u0440\u044a\u043d\u0447\u0430\u0440\u043e\u0432\u0430", "phone": "+359882207483", "opening_hours": "Mo-Fr 09:00-19:00", "brand": "A1", "brand:wikidata": "Q1941592", "nsi_id": "a1-5ceaa9"}, "geometry": {"type": "Point", "coordinates": [25.691694, 43.122832]}},
{"type": "Feature", "id": "daN3kkVEQfLnorNS9VF44_bM8o0=", "properties": {"ref": "352", "@spider": "a1", "name:bg": "\u04101", "shop": "telecommunication", "addr:full": "\u0443\u043b. \u041c\u0430\u043d\u043e \u0422\u043e\u0434\u043e\u0440\u043e\u0432 7\u0410 (\u041a\u0430\u0443\u0444\u043b\u0430\u043d\u0434)", "addr:country": "BG", "name": "\u04101 \u043c\u0430\u0433\u0430\u0437\u0438\u043d \u0413. \u041e\u0440\u044f\u0445\u043e\u0432\u0438\u0446\u0430, \u041c\u0430\u043d\u043e \u0422\u043e\u0434\u043e\u0440\u043e\u0432 \u041a\u0424 ", "phone": "+359882207517", "opening_hours": "Mo-Su 08:00-20:00", "brand": "A1", "brand:wikidata": "Q1941592", "nsi_id": "a1-5ceaa9"}, "geometry": {"type": "Point", "coordinates": [25.68356, 43.12262]}},
{"type": "Feature", "id": "oev2Uxn6LIF5WrjVfzDLlCm9jBA=", "properties": {"ref": "381", "@spider": "a1", "name:bg": "\u04101", "shop": "telecommunication", "addr:full": "\u0443\u043b. \u0421\u043e\u043b\u0443\u043d 18", "addr:country": "BG", "name": "\u04101 \u043c\u0430\u0433\u0430\u0437\u0438\u043d \u0413\u043e\u0446\u0435 \u0414\u0435\u043b\u0447\u0435\u0432, \u0421\u043e\u043b\u0443\u043d 18", "phone": "+359882207523", "opening_hours": "Mo-Fr 09:00-18:00", "brand": "A1", "brand:wikidata": "Q1941592", "nsi_id": "a1-5ceaa9"}, "geometry": {"type": "Point", "coordinates": [23.7271269, 41.5715409]}},
{"type": "Feature", "id": "ifj3OU-7_uPO8X_xiRmPVQ0bbZo=", "properties": {"ref": "47", "@spider": "a1", "name:bg": "\u04101", "shop": "telecommunication", "addr:full": "\u0431\u0443\u043b. \u0411\u044a\u043b\u0433\u0430\u0440\u0438\u044f 1", "addr:country": "BG", "name": "\u04101 \u043c\u0430\u0433\u0430\u0437\u0438\u043d \u0425\u0430\u0440\u043c\u0430\u043d\u043b\u0438, \u0411\u044a\u043b\u0433\u0430\u0440\u0438\u044f 1", "phone": "+359882207398", "opening_hours": "Mo-Fr 09:00-19:30", "brand": "A1", "brand:wikidata": "Q1941592", "nsi_id": "a1-5ceaa9"}, "geometry": {"type": "Point", "coordinates": [25.903052, 41.930609]}},
{"type": "Feature", "id": "kAZeOMc-k6T1TKG7J5TD09rD7W4=", "properties": {"ref": "416", "@spider": "a1", "name:bg": "\u04101", "shop": "telecommunication", "addr:full": "\u0425\u0430\u0441\u043a\u043e\u0432\u043e, \u0443\u043b. \u041e\u0442\u0435\u0446 \u041f\u0430\u0438\u0441\u0438\u0439 23", "addr:country": "BG", "name": "\u04101 \u043c\u0430\u0433\u0430\u0437\u0438\u043d \u041e\u0442\u0435\u0446 \u041f\u0430\u0438\u0441\u0438\u0439 23", "opening_hours": "Mo-Fr 09:00-19:00", "brand": "A1", "brand:wikidata": "Q1941592", "nsi_id": "a1-5ceaa9"}, "geometry": {"type": "Point", "coordinates": [25.5525284, 41.9317845]}},
{"type": "Feature", "id": "G5ax916toZxEDXOx0F--62odub0=", "properties": {"ref": "273", "@spider": "a1", "name:bg": "\u04101", "shop": "telecommunication", "addr:full": "\u0431\u0443\u043b. \u0421\u044a\u0435\u0434\u0438\u043d\u0435\u043d\u0438\u0435 44 (\u041a\u0430\u0443\u0444\u043b\u0430\u043d\u0434)", "addr:country": "BG", "name": "\u04101 \u043c\u0430\u0433\u0430\u0437\u0438\u043d \u0425\u0430\u0441\u043a\u043e\u0432\u043e, \u0421\u044a\u0435\u0434\u0438\u043d\u0435\u043d\u0438\u0435 44 \u041a\u0424", "phone": "+359882207415", "opening_hours": "Mo-Su 08:00-20:00", "brand": "A1", "brand:wikidata": "Q1941592", "nsi_id": "a1-5ceaa9"}, "geometry": {"type": "Point", "coordinates": [25.566882, 41.93163]}},
{"type": "Feature", "id": "EiQEOSr28PZ2pW8THJ1lTx8OcgU=", "properties": {"ref": "58", "@spider": "a1", "name:bg": "\u04101", "shop": "telecommunication", "addr:full": "\u0443\u043b. \u0418\u0432\u0430\u043d \u0412\u0430\u0437\u043e\u0432 40", "addr:country": "BG", "name": "\u04101 \u043c\u0430\u0433\u0430\u0437\u0438\u043d \u0425\u0438\u0441\u0430\u0440\u044f, \u0418\u0432\u0430\u043d \u0412\u0430\u0437\u043e\u0432 40", "phone": "+359882207620", "opening_hours": "Mo-Fr 09:00-19:00", "brand": "A1", "brand:wikidata": "Q1941592", "nsi_id": "a1-5ceaa9"}, "geometry": {"type": "Point", "coordinates": [24.703214, 42.50341]}},
{"type": "Feature", "id": "esHwI0EKjikQS6WWqurisXDBL0Q=", "properties": {"ref": "397", "@spider": "a1", "name:bg": "\u04101", "shop": "telecommunication", "addr:full": "\u0443\u043b. \u0426\u0430\u0440 \u041e\u0441\u0432\u043e\u0431\u043e\u0434\u0438\u0442\u0435\u043b 137", "addr:country": "BG", "name": "\u04101 \u043c\u0430\u0433\u0430\u0437\u0438\u043d \u0418\u0445\u0442\u0438\u043c\u0430\u043d, \u0426\u0430\u0440 \u041e\u0441\u0432\u043e\u0431\u043e\u0434\u0438\u0442\u0435\u043b ", "phone": "+359882207571", "opening_hours": "Mo-Fr 09:00-18:00", "brand": "A1", "brand:wikidata": "Q1941592", "nsi_id": "a1-5ceaa9"}, "geometry": {"type": "Point", "coordinates": [23.816704, 42.437484]}},
{"type": "Feature", "id": "sFOG1XC7KZB1SCj_ELa-fcVZ-ck=", "properties": {"ref": "128", "@spider": "a1", "name:bg": "\u04101", "shop": "telecommunication", "addr:full": "\u0443\u043b. \u0412\u0430\u0441\u0438\u043b \u041b\u0435\u0432\u0441\u043a\u0438 63", "addr:country": "BG", "name": "\u04101 \u043c\u0430\u0433\u0430\u0437\u0438\u043d \u0418\u0441\u043f\u0435\u0440\u0438\u0445, \u0412. \u041b\u0435\u0432\u0441\u043a\u0438 63", "phone": "+359882207498", "opening_hours": "Mo-Fr 09:00-18:00", "brand": "A1", "brand:wikidata": "Q1941592", "nsi_id": "a1-5ceaa9"}, "geometry": {"type": "Point", "coordinates": [26.831699, 43.721048]}},
{"type": "Feature", "id": "k9XY3jrjtK9ECbBLnAV--EMyyEQ=", "properties": {"ref": "50", "@spider": "a1", "name:bg": "\u04101", "shop": "telecommunication", "addr:full": "\u0431\u0443\u043b. \u0411\u044a\u043b\u0433\u0430\u0440\u0438\u044f 52", "addr:country": "BG", "name": "\u04101 \u043c\u0430\u0433\u0430\u0437\u0438\u043d \u041a\u044a\u0440\u0434\u0436\u0430\u043b\u0438, \u0411\u044a\u043b\u0433\u0430\u0440\u0438\u044f 52", "phone": "+359882207390", "opening_hours": "Mo-Fr 09:00-19:00", "brand": "A1", "brand:wikidata": "Q1941592", "nsi_id": "a1-5ceaa9"}, "geometry": {"type": "Point", "coordinates": [25.368722, 41.644795]}},
{"type": "Feature", "id": "AQvWMZSxA8pyvgEZsa77wTnm6oU=", "properties": {"ref": "39", "@spider": "a1", "name:bg": "\u04101", "shop": "telecommunication", "addr:full": "\u0443\u043b. \u041f\u0435\u0442\u043a\u043e \u0421\u044a\u0431\u0435\u0432 4", "addr:country": "BG", "name": "\u04101 \u043c\u0430\u0433\u0430\u0437\u0438\u043d \u041a\u0430\u0440\u043b\u043e\u0432\u043e, \u041f\u0435\u0442\u043a\u043e \u0421\u044a\u0431\u0435\u0432 4", "phone": "+359882207365", "opening_hours": "Mo-Fr 09:00-19:00", "brand": "A1", "brand:wikidata": "Q1941592", "nsi_id": "a1-5ceaa9"}, "geometry": {"type": "Point", "coordinates": [24.804577, 42.643297]}},
{"type": "Feature", "id": "FV87vfJKh-eIr-H1dHnoXpOV4lc=", "properties": {"ref": "327", "@spider": "a1", "name:bg": "\u04101", "shop": "telecommunication", "addr:full": "\u0443\u043b.\u0411\u044a\u043b\u0433\u0430\u0440\u0438\u044f \u21166", "addr:country": "BG", "name": "\u04101 \u043c\u0430\u0433\u0430\u0437\u0438\u043d \u041a\u0430\u0440\u043d\u043e\u0431\u0430\u0442, \u0411\u044a\u043b\u0433\u0430\u0440\u0438\u044f 6", "phone": "+359882207429", "opening_hours": "Mo-Fr 09:00-18:30", "brand": "A1", "brand:wikidata": "Q1941592", "nsi_id": "a1-5ceaa9"}, "geometry": {"type": "Point", "coordinates": [26.984826, 42.650033]}},
{"type": "Feature", "id": "9wlxvWodQIXl5tCYjcmKBj2fub4=", "properties": {"ref": "129", "@spider": "a1", "name:bg": "\u04101", "shop": "telecommunication", "addr:full": "\u0443\u043b. \u0411\u044a\u043b\u0433\u0430\u0440\u0438\u044f 59", "addr:country": "BG", "name": "\u04101 \u043c\u0430\u0433\u0430\u0437\u0438\u043d \u041a\u0430\u0432\u0430\u0440\u043d\u0430, \u0411\u044a\u043b\u0433\u0430\u0440\u0438\u044f 59", "phone": "+359882207457", "opening_hours": "Sa 09:00-18:00", "brand": "A1", "brand:wikidata": "Q1941592", "nsi_id": "a1-5ceaa9"}, "geometry": {"type": "Point", "coordinates": [28.337776, 43.436046]}},
{"type": "Feature", "id": "lt0WsocvyZD85nocG4rSDlEqbIs=", "properties": {"ref": "344", "@spider": "a1", "name:bg": "\u04101", "shop": "telecommunication", "addr:full": "\u0443\u043b. \u0410\u043b\u0435\u043a\u0441\u0430\u043d\u0434\u044a\u0440 \u0411\u0430\u0442\u0435\u043d\u0431\u0435\u0440\u0433 1", "addr:country": "BG", "name": "\u04101 \u043c\u0430\u0433\u0430\u0437\u0438\u043d \u041a\u0430\u0437\u0430\u043d\u043b\u044a\u043a, \u0411\u0430\u0442\u0435\u043d\u0431\u0435\u0440\u0433 1", "phone": "+359882207389", "opening_hours": "Mo-Fr 09:00-19:00", "brand": "A1", "brand:wikidata": "Q1941592", "nsi_id": "a1-5ceaa9"}, "geometry": {"type": "Point", "coordinates": [25.410332, 42.617469]}},
{"type": "Feature", "id": "Rs2EamuUqb0sMdNBCIR8kbABKYY=", "properties": {"ref": "395", "@spider": "a1", "name:bg": "\u04101", "shop": "telecommunication", "addr:full": "\u0443\u043b. \u041c\u0430\u0440\u0438\u043d \u0411\u043e\u0435\u0432 67", "addr:country": "BG", "name": "\u04101 \u043c\u0430\u0433\u0430\u0437\u0438\u043d \u041a\u043d\u0435\u0436\u0430, \u041c\u0430\u0440\u0438\u043d \u0411\u043e\u0435\u0432 67", "phone": "+359882207330", "opening_hours": "Mo-Fr 09:00-18:00", "brand": "A1", "brand:wikidata": "Q1941592", "nsi_id": "a1-5ceaa9"}, "geometry": {"type": "Point", "coordinates": [24.079648, 43.495121]}},
{"type": "Feature", "id": "nQ6MDSYRHTZ1OsrSJ62TAwa_ToU=", "properties": {"ref": "408", "@spider": "a1", "name:bg": "\u04101", "shop": "telecommunication", "addr:full": "\u0443\u043b.\u0422\u044a\u0440\u0433\u043e\u0432\u0441\u043a\u0430 1", "addr:country": "BG", "name": "\u04101 \u043c\u0430\u0433\u0430\u0437\u0438\u043d \u041a\u043e\u0441\u0442\u0435\u043d\u0435\u0446, \u0422\u044a\u0440\u0433\u043e\u0432\u0441\u043a\u0430 1", "phone": "+359882207592", "opening_hours": "Mo-Fr 09:00-18:00", "brand": "A1", "brand:wikidata": "Q1941592", "nsi_id": "a1-5ceaa9"}, "geometry": {"type": "Point", "coordinates": [23.858338, 42.308324]}},
{"type": "Feature", "id": "P5MLtDKDhriKCJ8hdbOang_HOjs=", "properties": {"ref": "417", "@spider": "a1", "name:bg": "\u04101", "shop": "telecommunication", "addr:full": "\u0443\u043b. \u041b\u043e\u043c\u0441\u043a\u043e \u0448\u043e\u0441\u0435 26", "addr:country": "BG", "name": "\u04101 \u043c\u0430\u0433\u0430\u0437\u0438\u043d \u041a\u043e\u0441\u0442\u0438\u043d\u0431\u0440\u043e\u0434, \u041b\u043e\u043c\u0441\u043a\u043e \u0448\u043e\u0441\u0435 26", "phone": "+359882207594", "opening_hours": "Mo-Fr 09:00-18:00", "brand": "A1", "brand:wikidata": "Q1941592", "nsi_id": "a1-5ceaa9"}, "geometry": {"type": "Point", "coordinates": [23.2872923, 42.7405164]}},
{"type": "Feature", "id": "gofltoDlup5URj8Gh8pb1cbXL-s=", "properties": {"ref": "181", "@spider": "a1", "name:bg": "\u04101", "shop": "telecommunication", "addr:full": "\u0443\u043b.\u201d\u0418\u0437\u0432\u043e\u0440\u0441\u043a\u0430\u201d 18", "addr:country": "BG", "name": "\u04101 \u043c\u0430\u0433\u0430\u0437\u0438\u043d \u041a\u043e\u0442\u0435\u043b, \u0418\u0437\u0432\u043e\u0440\u0441\u043a\u0430 18 ", "phone": "+359882207442", "opening_hours": "Mo-Fr 09:00-18:00", "brand": "A1", "brand:wikidata": "Q1941592", "nsi_id": "a1-5ceaa9"}, "geometry": {"type": "Point", "coordinates": [26.443322, 42.889785]}},
{"type": "Feature", "id": "fVKAcyrfglJ4BbNx75ZT6MAruRs=", "properties": {"ref": "366", "@spider": "a1", "name:bg": "\u04101", "shop": "telecommunication", "addr:full": "\u041a\u043e\u0437\u043b\u043e\u0434\u0443\u0439, 3320, \u0443\u043b. \u0425\u0440\u0438\u0441\u0442\u043e \u0411\u043e\u0442\u0435\u0432 15", "addr:country": "BG", "name": "\u04101 \u043c\u0430\u0433\u0430\u0437\u0438\u043d \u041a\u043e\u0437\u043b\u043e\u0434\u0443\u0439, \u0425\u0440. \u0411\u043e\u0442\u0435\u0432 15 ", "phone": "+359882207540", "opening_hours": "Mo-Fr 09:00-18:00", "brand": "A1", "brand:wikidata": "Q1941592", "nsi_id": "a1-5ceaa9"}, "geometry": {"type": "Point", "coordinates": [23.727196, 43.77848]}},
{"type": "Feature", "id": "-nNSogvwitiT_lIuaY5fjw7Zsac=", "properties": {"ref": "185", "@spider": "a1", "name:bg": "\u04101", "shop": "telecommunication", "addr:full": "\u043f\u043b.\u0411\u044a\u043b\u0433\u0430\u0440\u0438\u044f 13", "addr:country": "BG", "name": "\u04101 \u043c\u0430\u0433\u0430\u0437\u0438\u043d \u041a\u0440\u0443\u043c\u043e\u0432\u0433\u0440\u0430\u0434, \u0411\u044a\u043b\u0433\u0430\u0440\u0438\u044f 13", "phone": "+359882207366", "opening_hours": "Mo-Fr 09:00-18:00", "brand": "A1", "brand:wikidata": "Q1941592", "nsi_id": "a1-5ceaa9"}, "geometry": {"type": "Point", "coordinates": [25.653159, 41.470993]}},
{"type": "Feature", "id": "PWjy6KS-yZ591iL1JouoylSNUb8=", "properties": {"ref": "405", "@spider": "a1", "name:bg": "\u04101", "shop": "telecommunication", "addr:full": "\u0443\u043b. \u0426\u0430\u0440 \u041e\u0441\u0432\u043e\u0431\u043e\u0434\u0438\u0442\u0435\u043b 4", "addr:country": "BG", "name": "\u04101 \u043c\u0430\u0433\u0430\u0437\u0438\u043d \u041a\u0443\u0431\u0440\u0430\u0442, \u0426\u0430\u0440 \u041e\u0441\u0432\u043e\u0431\u043e\u0434\u0438\u0442\u0435\u043b 4", "opening_hours": "Mo-Fr 09:00-18:00", "brand": "A1", "brand:wikidata": "Q1941592", "nsi_id": "a1-5ceaa9"}, "geometry": {"type": "Point", "coordinates": [26.499085, 43.797133]}},
{"type": "Feature", "id": "tUlBQqvnD-vw5RAAwhFE5E9GDGs=", "properties": {"ref": "68", "@spider": "a1", "name:bg": "\u04101", "shop": "telecommunication", "addr:full": "\u0443\u043b. \"\u0414\u0435\u043c\u043e\u043a\u0440\u0430\u0446\u0438\u044f\" 37", "addr:country": "BG", "name": "\u04101 \u043c\u0430\u0433\u0430\u0437\u0438\u043d \u041a\u044e\u0441\u0442\u0435\u043d\u0434\u0438\u043b, \u0414\u0435\u043c\u043e\u043a\u0440\u0430\u0446\u0438\u044f 37", "phone": "+359882207526", "opening_hours": "Mo-Fr 09:00-19:00", "brand": "A1", "brand:wikidata": "Q1941592", "nsi_id": "a1-5ceaa9"}, "geometry": {"type": "Point", "coordinates": [22.688807, 42.280246]}},
{"type": "Feature", "id": "Je39INqkslQPmVFbb1_qPvUku_4=", "properties": {"ref": "192", "@spider": "a1", "name:bg": "\u04101", "shop": "telecommunication", "addr:full": "\u0443\u043b. \u0410\u043b\u0435\u043a\u0441\u0430\u043d\u0434\u044a\u0440 \u0421\u0442\u0430\u043c\u0431\u043e\u043b\u0438\u0439\u0441\u043a\u0438 47", "addr:country": "BG", "name": "\u04101 \u043c\u0430\u0433\u0430\u0437\u0438\u043d \u041b\u0435\u0432\u0441\u043a\u0438, \u0421\u0442\u0430\u043c\u0431\u043e\u043b\u0438\u0439\u0441\u043a\u0438 47", "phone": "+359882207485", "opening_hours": "Mo-Fr 09:00-18:00", "brand": "A1", "brand:wikidata": "Q1941592", "nsi_id": "a1-5ceaa9"}, "geometry": {"type": "Point", "coordinates": [25.142463, 43.360413]}},
{"type": "Feature", "id": "mkq4uCDFKsufs2JJ0G-sGCvBkes=", "properties": {"ref": "413", "@spider": "a1", "name:bg": "\u04101", "shop": "telecommunication", "addr:full": "\u0443\u043b. \u0421\u043b\u0430\u0432\u044f\u043d\u0441\u043a\u0430 2", "addr:country": "BG", "name": "\u04101 \u043c\u0430\u0433\u0430\u0437\u0438\u043d \u041b\u043e\u043c, \u0421\u043b\u0430\u0432\u044f\u043d\u0441\u043a\u0430 2 - \u041c\u0430\u0433\u0430\u0437\u0438\u043d\u044a\u0442 \u0449\u0435 \u0431\u044a\u0434\u0435 \u0432 \u0440\u0435\u043d\u043e\u0432\u0430\u0446\u0438\u044f \u043e\u0442 18.10.2022 \u0433 \u0434\u043e 11.11.2022 \u0433.", "phone": "+359882207541", "opening_hours": "Mo-Fr 09:00-19:00", "brand": "A1", "brand:wikidata": "Q1941592", "nsi_id": "a1-5ceaa9"}, "geometry": {"type": "Point", "coordinates": [23.23829, 43.819871]}},
{"type": "Feature", "id": "UYBkmXCePWlSZ0tuvFOFsGQpAX8=", "properties": {"ref": "81", "@spider": "a1", "name:bg": "\u04101", "shop": "telecommunication", "addr:full": "\u0443\u043b. \u0422\u044a\u0440\u0433\u043e\u0432\u0441\u043a\u0430 52", "addr:country": "BG", "name": "\u04101 \u043c\u0430\u0433\u0430\u0437\u0438\u043d \u041b\u043e\u0432\u0435\u0447, \u0422\u044a\u0440\u0433\u043e\u0432\u0441\u043a\u0430 52", "phone": "+359882207486", "opening_hours": "Mo-Fr 09:00-19:00", "brand": "A1", "brand:wikidata": "Q1941592", "nsi_id": "a1-5ceaa9"}, "geometry": {"type": "Point", "coordinates": [24.718556, 43.140496]}},
{"type": "Feature", "id": "8YzOlAkBP758pbiPEOGIbJDWtKI=", "properties": {"ref": "389", "@spider": "a1", "name:bg": "\u04101", "shop": "telecommunication", "addr:full": "\u0443\u043b. \"\u0412\u044a\u0437\u0440\u0430\u0436\u0434\u0430\u043d\u0435\" 60", "addr:country": "BG", "name": "\u04101 \u043c\u0430\u0433\u0430\u0437\u0438\u043d \u041b\u0443\u043a\u043e\u0432\u0438\u0442, \u0412\u044a\u0437\u0440\u0430\u0436\u0434\u0430\u043d\u0435 60", "phone": "+359882207519", "opening_hours": "Mo-Fr 09:00-18:00", "brand": "A1", "brand:wikidata": "Q1941592", "nsi_id": "a1-5ceaa9"}, "geometry": {"type": "Point", "coordinates": [24.162816, 43.208247]}},
{"type": "Feature", "id": "u4zuAloXZGqRe1ZCDz0gTtyUHZY=", "properties": {"ref": "401", "@spider": "a1", "name:bg": "\u04101", "shop": "telecommunication", "addr:full": "\u0443\u043b. \u0418\u0432\u0430\u0439\u043b\u043e\u0432\u0433\u0440\u0430\u0434\u0441\u043a\u0430 2, \u043c-\u043d \u21164", "addr:country": "BG", "name": "\u04101 \u043c\u0430\u0433\u0430\u0437\u0438\u043d \u041b\u044e\u0431\u0438\u043c\u0435\u0446, \u0418\u0432\u0430\u0439\u043b\u043e\u0432\u0433\u0440\u0430\u0434\u0441\u043a\u0430 2", "phone": "+359882207350", "opening_hours": "Mo-Fr 09:00-18:00", "brand": "A1", "brand:wikidata": "Q1941592", "nsi_id": "a1-5ceaa9"}, "geometry": {"type": "Point", "coordinates": [26.080544, 41.844272]}},
{"type": "Feature", "id": "na112RmqhAwMeDZc3suUk2cKJeQ=", "properties": {"ref": "339", "@spider": "a1", "name:bg": "\u04101", "shop": "telecommunication", "addr:full": "\u0443\u043b. \u201e\u041b\u0435\u043d\u0438\u043d\u0441\u043a\u0438 \u043f\u0440\u043e\u0441\u043f\u0435\u043a\u0442\u201c 7", "addr:country": "BG", "name": "\u04101 \u043c\u0430\u0433\u0430\u0437\u0438\u043d \u041f\u0435\u0440\u043d\u0438\u043a, \u041b\u0435\u043d\u0438\u043d\u0441\u043a\u0438 \u043f\u0440-\u043a\u04427", "phone": "+359882207529", "opening_hours": "Mo-Fr 09:00-19:00", "brand": "A1", "brand:wikidata": "Q1941592", "nsi_id": "a1-5ceaa9"}, "geometry": {"type": "Point", "coordinates": [23.102855, 42.606874]}},
{"type": "Feature", "id": "ta3LJj8fiZE67MhC1Sf1Byf9970=", "properties": {"ref": "218", "@spider": "a1", "name:bg": "\u04101", "shop": "telecommunication", "addr:full": "\u0443\u043b. \u041f\u0435\u0440\u0443\u0448\u0438\u0446\u0430 8", "addr:country": "BG", "name": "\u04101 \u043c\u0430\u0433\u0430\u0437\u0438\u043d \u041c\u041e\u041b \u041f\u043b\u043e\u0432\u0434\u0438\u0432", "phone": "+359882207406", "opening_hours": "Mo-Su 10:00-21:00", "brand": "A1", "brand:wikidata": "Q1941592", "nsi_id": "a1-5ceaa9"}, "geometry": {"type": "Point", "coordinates": [24.719215, 42.141952]}},
{"type": "Feature", "id": "rNXOEVQZ8VaHCCc8296v3RWsKIw=", "properties": {"ref": "142", "@spider": "a1", "name:bg": "\u04101", "shop": "telecommunication", "addr:full": "\u0443\u043b. \u0425\u0440.\u0411\u043e\u0442\u0435\u0432 29", "addr:country": "BG", "name": "\u04101 \u043c\u0430\u0433\u0430\u0437\u0438\u043d \u041c\u0435\u0437\u0434\u0440\u0430, \u0425\u0440. \u0411\u043e\u0442\u0435\u0432 29", "phone": "+359882207542", "opening_hours": "Mo-Fr 09:00-18:00", "brand": "A1", "brand:wikidata": "Q1941592", "nsi_id": "a1-5ceaa9"}, "geometry": {"type": "Point", "coordinates": [23.713632, 43.142532]}},
{"type": "Feature", "id": "B6DVFB3UnVch_0QnoTNS38kgQJY=", "properties": {"ref": "143", "@spider": "a1", "name:bg": "\u04101", "shop": "telecommunication", "addr:full": "\u0443\u043b. \u0413\u044e\u043c\u044e\u0440\u0434\u0436\u0438\u043d\u0441\u043a\u0430 43", "addr:country": "BG", "name": "\u04101 \u043c\u0430\u0433\u0430\u0437\u0438\u043d \u041c\u043e\u043c\u0447\u0438\u043b\u0433\u0440\u0430\u0434, \u0413\u044e\u043c\u044e\u0440\u0434\u0436.", "phone": "+359882207391", "opening_hours": "Mo-Fr 09:00-18:00", "brand": "A1", "brand:wikidata": "Q1941592", "nsi_id": "a1-5ceaa9"}, "geometry": {"type": "Point", "coordinates": [25.407277, 41.528643]}},
{"type": "Feature", "id": "2-9pmKWAqscEkzwc8ojZPmRNP6Y=", "properties": {"ref": "353", "@spider": "a1", "name:bg": "\u04101", "shop": "telecommunication", "addr:full": "\u0431\u0443\u043b. 3-\u0442\u0438 \u041c\u0430\u0440\u0442 139\u0410 (\u041a\u0430\u0443\u0444\u043b\u0430\u043d\u0434)", "addr:country": "BG", "name": "\u04101 \u043c\u0430\u0433\u0430\u0437\u0438\u043d \u041c\u043e\u043d\u0442\u0430\u043d\u0430, 3-\u0442\u0438 \u043c\u0430\u0440\u0442 139\u0410 \u041a\u0424", "phone": "+359882207548", "opening_hours": "Mo-Su 08:00-20:00", "brand": "A1", "brand:wikidata": "Q1941592", "nsi_id": "a1-5ceaa9"}, "geometry": {"type": "Point", "coordinates": [23.227082, 43.421686]}},
{"type": "Feature", "id": "oE-gIHYtNvwo-uSOOxa5MRWHm8Y=", "properties": {"ref": "101", "@spider": "a1", "name:bg": "\u04101", "shop": "telecommunication", "addr:full": "\u0443\u043b.\"3-\u0442\u0438 \u043c\u0430\u0440\u0442\" 33", "addr:country": "BG", "name": "\u04101 \u043c\u0430\u0433\u0430\u0437\u0438\u043d \u041c\u043e\u043d\u0442\u0430\u043d\u0430, 3-\u0442\u0438 \u043c\u0430\u0440\u0442 33", "phone": "+359882207552", "opening_hours": "Mo-Fr 09:00-19:00", "brand": "A1", "brand:wikidata": "Q1941592", "nsi_id": "a1-5ceaa9"}, "geometry": {"type": "Point", "coordinates": [23.2238, 43.4053]}},
{"type": "Feature", "id": "2h3kH-CAj7kq069cyE27xAKhaQ8=", "properties": {"ref": "57", "@spider": "a1", "name:bg": "\u04101", "shop": "telecommunication", "addr:full": "\u0443\u043b. \u0425\u0430\u043d \u041a\u0440\u0443\u043c 27", "addr:country": "BG", "name": "\u04101 \u043c\u0430\u0433\u0430\u0437\u0438\u043d \u041d\u0435\u0441\u0435\u0431\u044a\u0440, \u0425\u0430\u043d \u041a\u0440\u0443\u043c 27", "phone": "+359882207431", "opening_hours": "Mo-Fr 09:00-18:00", "brand": "A1", "brand:wikidata": "Q1941592", "nsi_id": "a1-5ceaa9"}, "geometry": {"type": "Point", "coordinates": [27.717666, 42.663262]}},
{"type": "Feature", "id": "AU6u4jRpifHSdI9Ni-gFzDZMrFo=", "properties": {"ref": "112", "@spider": "a1", "name:bg": "\u04101", "shop": "telecommunication", "addr:full": "\u043f\u043b. \u201c\u0421\u0432\u043e\u0431\u043e\u0434\u0430\u201d 7", "addr:country": "BG", "name": "\u04101 \u043c\u0430\u0433\u0430\u0437\u0438\u043d \u041d\u043e\u0432\u0430 \u0417\u0430\u0433\u043e\u0440\u0430, \u0421\u0432\u043e\u0431\u043e\u0434\u0430 7", "phone": "+359882207392", "opening_hours": "Mo-Fr 09:00-19:00", "brand": "A1", "brand:wikidata": "Q1941592", "nsi_id": "a1-5ceaa9"}, "geometry": {"type": "Point", "coordinates": [26.0131, 42.4914]}},
{"type": "Feature", "id": "seNzsCv4mQcNzUrTSdsxQKGprBo=", "properties": {"ref": "396", "@spider": "a1", "name:bg": "\u04101", "shop": "telecommunication", "addr:full": "\u0443\u043b. \u0412\u0430\u0441\u0438\u043b \u041b\u0435\u0432\u0441\u043a\u0438 34", "addr:country": "BG", "name": "\u04101 \u043c\u0430\u0433\u0430\u0437\u0438\u043d \u041d\u043e\u0432\u0430 \u0417\u0430\u0433\u043e\u0440\u0430, \u0412. \u041b\u0435\u0432\u0441\u043a\u0438", "phone": "+359882207392", "opening_hours": "Mo-Fr 09:00-18:30", "brand": "A1", "brand:wikidata": "Q1941592", "nsi_id": "a1-5ceaa9"}, "geometry": {"type": "Point", "coordinates": [26.011797, 42.49547]}},
{"type": "Feature", "id": "TVVOzmMlzL9DumN-UpdY9jeHUxo=", "properties": {"ref": "399", "@spider": "a1", "name:bg": "\u04101", "shop": "telecommunication", "addr:full": "\u0443\u043b. \u0422\u044a\u0440\u0433\u043e\u0432\u0441\u043a\u0430 1", "addr:country": "BG", "name": "\u04101 \u043c\u0430\u0433\u0430\u0437\u0438\u043d \u041d\u043e\u0432\u0438 \u0418\u0441\u043a\u044a\u0440, \u0422\u044a\u0440\u0433\u043e\u0432\u0441\u043a\u0430 1", "phone": "+359882207593", "opening_hours": "Mo-Fr 09:00-18:00", "brand": "A1", "brand:wikidata": "Q1941592", "nsi_id": "a1-5ceaa9"}, "geometry": {"type": "Point", "coordinates": [23.354255, 42.821062]}},
{"type": "Feature", "id": "IQV6sO1WR3g3vjZqqfAATxPtQ-4=", "properties": {"ref": "384", "@spider": "a1", "name:bg": "\u04101", "shop": "telecommunication", "addr:full": "\u0443\u043b. \u0426\u0430\u0440 \u041e\u0441\u0432\u043e\u0431\u043e\u0434\u0438\u0442\u0435\u043b 16", "addr:country": "BG", "name": "\u04101 \u043c\u0430\u0433\u0430\u0437\u0438\u043d \u041d\u043e\u0432\u0438 \u041f\u0430\u0437\u0430\u0440, \u0426\u0430\u0440 \u041e\u0441\u0432. 16 ", "phone": "+359882207572", "opening_hours": "Mo-Fr 09:00-18:00", "brand": "A1", "brand:wikidata": "Q1941592", "nsi_id": "a1-5ceaa9"}, "geometry": {"type": "Point", "coordinates": [27.191841, 43.343833]}},
{"type": "Feature", "id": "I9VmdwHVFQH5VpAXDkq28AkS-64=", "properties": {"ref": "372", "@spider": "a1", "name:bg": "\u04101", "shop": "telecommunication", "addr:full": "\u0443\u043b. \u0426\u0430\u0440 \u041e\u0441\u0432\u043e\u0431\u043e\u0434\u0438\u0442\u0435\u043b 2", "addr:country": "BG", "name": "\u04101 \u043c\u0430\u0433\u0430\u0437\u0438\u043d \u041e\u043c\u0443\u0440\u0442\u0430\u0433, \u0443\u043b. \u0426\u0430\u0440 \u041e\u0441\u0432. 2", "phone": "+359882207573", "opening_hours": "Mo-Fr 09:00-18:00", "brand": "A1", "brand:wikidata": "Q1941592", "nsi_id": "a1-5ceaa9"}, "geometry": {"type": "Point", "coordinates": [26.418484, 43.107747]}},
{"type": "Feature", "id": "d0M7Xeo9EhpsXrtgtfiLcKpvG5Q=", "properties": {"ref": "205", "@spider": "a1", "name:bg": "\u04101", "shop": "telecommunication", "addr:full": "\u043f\u043b. 20-\u0442\u0438 \u0430\u043f\u0440\u0438\u043b", "addr:country": "BG", "name": "\u04101 \u043c\u0430\u0433\u0430\u0437\u0438\u043d \u041f\u0430\u043d\u0430\u0433\u044e\u0440\u0438\u0449\u0435, 20-\u0442\u0438 \u0430\u043f\u0440\u0438\u043b ", "phone": "+359882207369", "opening_hours": "Mo-Fr 09:00-19:00", "brand": "A1", "brand:wikidata": "Q1941592", "nsi_id": "a1-5ceaa9"}, "geometry": {"type": "Point", "coordinates": [24.187023, 42.506803]}},
{"type": "Feature", "id": "LKsVATdawQ8c8UJ4WxA4tJS8Iw8=", "properties": {"ref": "40", "@spider": "a1", "name:bg": "\u04101", "shop": "telecommunication", "addr:full": "\u0443\u043b. \u041e\u0440\u0444\u0435\u0439 12\u0410", "addr:country": "BG", "name": "\u04101 \u043c\u0430\u0433\u0430\u0437\u0438\u043d \u041f\u044a\u0440\u0432\u043e\u043c\u0430\u0439, \u041e\u0440\u0444\u0435\u0439 12\u0410", "phone": "+359882207381", "opening_hours": "Mo-Fr 09:00-19:00", "brand": "A1", "brand:wikidata": "Q1941592", "nsi_id": "a1-5ceaa9"}, "geometry": {"type": "Point", "coordinates": [25.225508, 42.097919]}},
{"type": "Feature", "id": "wkpmPF30MvVlNgEyPQE3jwaxOcQ=", "properties": {"ref": "106", "@spider": "a1", "name:bg": "\u04101", "shop": "telecommunication", "addr:full": "\u0443\u043b.\"\u0421\u0432\u043e\u0431\u043e\u0434\u0430\" 1", "addr:country": "BG", "name": "\u04101 \u043c\u0430\u0433\u0430\u0437\u0438\u043d \u041f\u0430\u0432\u043b\u0438\u043a\u0435\u043d\u0438, \u0421\u0432\u043e\u0431\u043e\u0434\u0430 1", "phone": "+359882207487", "opening_hours": "Mo-Fr 09:00-19:00", "brand": "A1", "brand:wikidata": "Q1941592", "nsi_id": "a1-5ceaa9"}, "geometry": {"type": "Point", "coordinates": [25.306592, 43.238733]}},
{"type": "Feature", "id": "gVrce2UxA6XlqM7oatIcuHWJ330=", "properties": {"ref": "27", "@spider": "a1", "name:bg": "\u04101", "shop": "telecommunication", "addr:full": "\u0443\u043b.\"\u0422\u044a\u0440\u0433\u043e\u0432\u0441\u043a\u0430\" 2", "addr:country": "BG", "name": "\u04101 \u043c\u0430\u0433\u0430\u0437\u0438\u043d \u041f\u0430\u0437\u0430\u0440\u0434\u0436\u0438\u043a, \u0422\u044a\u0440\u0433\u043e\u0432\u0441\u043a\u0430 2", "phone": "+359882207368", "opening_hours": "Mo-Fr 09:00-19:00", "brand": "A1", "brand:wikidata": "Q1941592", "nsi_id": "a1-5ceaa9"}, "geometry": {"type": "Point", "coordinates": [24.332702, 42.193315]}},
{"type": "Feature", "id": "1zn48ERxV3Z9XFLT9iHlLQNYoP8=", "properties": {"ref": "388", "@spider": "a1", "name:bg": "\u04101", "shop": "telecommunication", "addr:full": "\u0443\u043b.\"\u0422\u044a\u0440\u0433\u043e\u0432\u0441\u043a\u0430\" 20", "addr:country": "BG", "name": "\u04101 \u043c\u0430\u0433\u0430\u0437\u0438\u043d \u041f\u0430\u0437\u0430\u0440\u0434\u0436\u0438\u043a, \u0422\u044a\u0440\u0433\u043e\u0432\u0441\u043a\u0430 20", "phone": "+359882207566", "opening_hours": "Mo-Fr 09:00-19:30", "brand": "A1", "brand:wikidata": "Q1941592", "nsi_id": "a1-5ceaa9"}, "geometry": {"type": "Point", "coordinates": [24.333655, 42.192497]}},
{"type": "Feature", "id": "NYlSE4k4suww2CrGDy5wmguaXAo=", "properties": {"ref": "26", "@spider": "a1", "name:bg": "\u04101", "shop": "telecommunication", "addr:full": "\u0431\u0443\u043b.\"\u0411\u044a\u043b\u0433\u0430\u0440\u0438\u044f\" 3", "addr:country": "BG", "name": "\u04101 \u043c\u0430\u0433\u0430\u0437\u0438\u043d \u041f\u0430\u0437\u0430\u0440\u0434\u0436\u0438\u043a, \u0411\u044a\u043b\u0433\u0430\u0440\u0438\u044f 3", "phone": "+359882207367", "opening_hours": "Mo-Fr 09:00-19:30", "brand": "A1", "brand:wikidata": "Q1941592", "nsi_id": "a1-5ceaa9"}, "geometry": {"type": "Point", "coordinates": [24.332002, 42.188512]}},
{"type": "Feature", "id": "sTNe0cMDKTxxnqrzohnQSxEkl6I=", "properties": {"ref": "69", "@spider": "a1", "name:bg": "\u04101", "shop": "telecommunication", "addr:full": "\u0443\u043b. \u0422\u044a\u0440\u0433\u043e\u0432\u0441\u043a\u0430 13", "addr:country": "BG", "name": "\u04101 \u043c\u0430\u0433\u0430\u0437\u0438\u043d \u041f\u0435\u0440\u043d\u0438\u043a, \u0422\u044a\u0440\u0433\u043e\u0432\u0441\u043a\u0430 13", "phone": "+359882207528", "opening_hours": "Mo-Fr 09:00-19:00", "brand": "A1", "brand:wikidata": "Q1941592", "nsi_id": "a1-5ceaa9"}, "geometry": {"type": "Point", "coordinates": [23.030499, 42.60381]}},
{"type": "Feature", "id": "BVAkXjzRPkbsO9cu0740Q2msV7A=", "properties": {"ref": "42", "@spider": "a1", "name:bg": "\u04101", "shop": "telecommunication", "addr:full": "\u043f\u043b. \u0411\u044a\u043b\u0433\u0430\u0440\u0438\u044f, \u0422\u044a\u0440\u0433\u043e\u0432\u0441\u043a\u0438 \u0446\u0435\u043d\u0442\u044a\u0440", "addr:country": "BG", "name": "\u04101 \u043c\u0430\u0433\u0430\u0437\u0438\u043d \u041f\u0435\u0449\u0435\u0440\u0430, \u0411\u044a\u043b\u0433\u0430\u0440\u0438\u044f \u0422\u0426", "phone": "+359882207370", "opening_hours": "Mo-Fr 09:00-18:00", "brand": "A1", "brand:wikidata": "Q1941592", "nsi_id": "a1-5ceaa9"}, "geometry": {"type": "Point", "coordinates": [24.301044, 42.031857]}},
{"type": "Feature", "id": "iAkm0CadNti3QZ3OIL4RGewP1pI=", "properties": {"ref": "41", "@spider": "a1", "name:bg": "\u04101", "shop": "telecommunication", "addr:full": "\u0443\u043b. \"\u0426\u0430\u0440 \u0411\u043e\u0440\u0438\u0441 III\" 11", "addr:country": "BG", "name": "\u04101 \u043c\u0430\u0433\u0430\u0437\u0438\u043d \u041f\u0435\u0442\u0440\u0438\u0447, \u0411\u043e\u0440\u0438\u0441 III 11", "phone": "+359882207530", "opening_hours": "Mo-Fr 09:00-18:30", "brand": "A1", "brand:wikidata": "Q1941592", "nsi_id": "a1-5ceaa9"}, "geometry": {"type": "Point", "coordinates": [23.208355, 41.393477]}},
{"type": "Feature", "id": "QUtSuHr9XQX3dl7xaAsppWY91S0=", "properties": {"ref": "148", "@spider": "a1", "name:bg": "\u04101", "shop": "telecommunication", "addr:full": "\u0431\u0443\u043b. \u0426\u0430\u0440 \u043e\u0441\u0432\u043e\u0431\u043e\u0434\u0438\u0442\u0435\u043b 44", "addr:country": "BG", "name": "\u04101 \u043c\u0430\u0433\u0430\u0437\u0438\u043d \u041f\u0438\u0440\u0434\u043e\u043f, \u0426\u0430\u0440 \u041e\u0441\u0432\u043e\u0431\u043e\u0434.44", "phone": "+359882207544", "opening_hours": "Mo-Fr 09:00-18:00", "brand": "A1", "brand:wikidata": "Q1941592", "nsi_id": "a1-5ceaa9"}, "geometry": {"type": "Point", "coordinates": [24.18297, 42.700074]}},
{"type": "Feature", "id": "efTHhOgBucazJoZJZUOT-fB_gyc=", "properties": {"ref": "76", "@spider": "a1", "name:bg": "\u04101", "shop": "telecommunication", "addr:full": "\u0443\u043b. \u0414\u0430\u043d\u0430\u0438\u043b \u041f\u043e\u043f\u043e\u0432 15", "addr:country": "BG", "name": "\u04101 \u043c\u0430\u0433\u0430\u0437\u0438\u043d \u041f\u043b\u0435\u0432\u0435\u043d, \u0414\u0430\u043d\u0430\u0438\u043b \u041f\u043e\u043f\u043e\u0432 15", "phone": "+359882207489", "opening_hours": "Mo-Fr 09:00-19:00", "brand": "A1", "brand:wikidata": "Q1941592", "nsi_id": "a1-5ceaa9"}, "geometry": {"type": "Point", "coordinates": [24.61674, 43.414456]}},
{"type": "Feature", "id": "uJK0S97lTtDNhmSYxpbBfkdMNaY=", "properties": {"ref": "346", "@spider": "a1", "name:bg": "\u04101", "shop": "telecommunication", "addr:full": "\u043f\u043b. \u0418\u0432\u0430\u043d \u041c\u0438\u043d\u0434\u0438\u043b\u043a\u043e\u0432 1", "addr:country": "BG", "name": "\u04101 \u043c\u0430\u0433\u0430\u0437\u0438\u043d \u041f\u043b\u0435\u0432\u0435\u043d, \u041f\u0430\u043d\u043e\u0440\u0430\u043c\u0430 \u041c\u041e\u041b", "phone": "+359882207488", "opening_hours": "Mo-Sa 10:00-20:00; Su 10:00-21:00", "brand": "A1", "brand:wikidata": "Q1941592", "nsi_id": "a1-5ceaa9"}, "geometry": {"type": "Point", "coordinates": [24.614028, 43.41952]}},
{"type": "Feature", "id": "_zO8WX051-gQQcrwB3qa51Ti2FY=", "properties": {"ref": "133", "@spider": "a1", "name:bg": "\u04101", "shop": "telecommunication", "addr:full": "\u0436.\u043a. \u0421\u0442\u043e\u0440\u0433\u043e\u0437\u0438\u044f, \u0422\u044a\u0440\u0433\u043e\u0432\u0441\u043a\u0438 \u043a\u043e\u043c\u043f\u043b\u0435\u043a\u0441 \u0422\u0435\u043e\u0434\u043e\u0440\u043e\u0441", "addr:country": "BG", "name": "\u04101 \u043c\u0430\u0433\u0430\u0437\u0438\u043d \u041f\u043b\u0435\u0432\u0435\u043d, \u0421\u0442\u043e\u0440\u0433\u043e\u0437\u0438\u044f", "phone": "+359882207490", "opening_hours": "Mo-Fr 09:00-19:00", "brand": "A1", "brand:wikidata": "Q1941592", "nsi_id": "a1-5ceaa9"}, "geometry": {"type": "Point", "coordinates": [24.598086, 43.423325]}},
{"type": "Feature", "id": "FPvsb6tL_kGUUZQvt6PrKeTyUSw=", "properties": {"ref": "33", "@spider": "a1", "name:bg": "\u04101", "shop": "telecommunication", "addr:full": "\u0431\u0443\u043b.\"\u0411\u044a\u043b\u0433\u0430\u0440\u0438\u044f\" 29", "addr:country": "BG", "name": "\u04101 \u043c\u0430\u0433\u0430\u0437\u0438\u043d \u041f\u043b\u043e\u0432\u0434\u0438\u0432, \u0411\u044a\u043b\u0433\u0430\u0440\u0438\u044f 29", "phone": "+359882207371", "opening_hours": "Mo-Fr 09:00-19:00", "brand": "A1", "brand:wikidata": "Q1941592", "nsi_id": "a1-5ceaa9"}, "geometry": {"type": "Point", "coordinates": [24.744033, 42.158786]}},
{"type": "Feature", "id": "V-7oq6U0AJpIvAgT3p7b6H_Wyi0=", "properties": {"ref": "29", "@spider": "a1", "name:bg": "\u04101", "shop": "telecommunication", "addr:full": "\u0443\u043b. \u0410\u043b. \u0411\u0430\u0442\u0435\u043d\u0431\u0435\u0440\u0433 27", "addr:country": "BG", "name": "\u04101 \u043c\u0430\u0433\u0430\u0437\u0438\u043d \u041f\u043b\u043e\u0432\u0434\u0438\u0432, \u0411\u0430\u0442\u0435\u043d\u0431\u0435\u0440\u0433 27 ", "phone": "+359882207375", "opening_hours": "Mo-Fr 09:00-19:00", "brand": "A1", "brand:wikidata": "Q1941592", "nsi_id": "a1-5ceaa9"}, "geometry": {"type": "Point", "coordinates": [24.746965, 42.1457084]}},
{"type": "Feature", "id": "iDL1qGWjfe3O2aeaf1r5yD3XkbI=", "properties": {"ref": "250", "@spider": "a1", "name:bg": "\u04101", "shop": "telecommunication", "addr:full": "\u0443\u043b. \u0411\u0440\u0435\u0437\u043e\u0432\u0441\u043a\u043e \u0448\u043e\u0441\u0435 127, \u041a\u0430\u0443\u0444\u043b\u0430\u043d\u0434", "addr:country": "BG", "name": "\u04101 \u043c\u0430\u0433\u0430\u0437\u0438\u043d \u041f\u043b\u043e\u0432\u0434\u0438\u0432, \u0411\u0440\u0435\u0437. \u0448\u043e\u0441\u0435 127 \u041a\u0424", "phone": "+359882207417", "opening_hours": "Mo-Su 08:00-21:00", "brand": "A1", "brand:wikidata": "Q1941592", "nsi_id": "a1-5ceaa9"}, "geometry": {"type": "Point", "coordinates": [24.749139, 42.166635]}},
{"type": "Feature", "id": "RzSSeSi3iuVHXY3TbtJVpevanY0=", "properties": {"ref": "319", "@spider": "a1", "name:bg": "\u04101", "shop": "telecommunication", "addr:full": "\u0433\u0440. \u041f\u043b\u043e\u0432\u0434\u0438\u0432, \u041f\u041a 4000, \u0443\u043b. \u0418\u0432\u0430\u043d \u0412\u0430\u0437\u043e\u0432 \u2116 61", "addr:country": "BG", "name": "\u04101 \u043c\u0430\u0433\u0430\u0437\u0438\u043d \u041f\u043b\u043e\u0432\u0434\u0438\u0432, \u0418\u0432\u0430\u043d \u0412\u0430\u0437\u043e\u0432 61", "phone": "+359882207379", "opening_hours": "Mo-Fr 09:00-19:00", "brand": "A1", "brand:wikidata": "Q1941592", "nsi_id": "a1-5ceaa9"}, "geometry": {"type": "Point", "coordinates": [24.74267, 42.135741]}},
{"type": "Feature", "id": "_t0fMcqvh2_s5NOq35mdbLkJiyM=", "properties": {"ref": "95", "@spider": "a1", "name:bg": "\u04101", "shop": "telecommunication", "addr:full": "\u0443\u043b. \u041c\u0430\u043a\u0435\u0434\u043e\u043d\u0438\u044f 97-\u0411 , \u041a\u0430\u0443\u0444\u043b\u0430\u043d\u0434", "addr:country": "BG", "name": "\u04101 \u043c\u0430\u0433\u0430\u0437\u0438\u043d \u041f\u043b\u043e\u0432\u0434\u0438\u0432, \u041c\u0430\u043a\u0435\u0434\u043e\u043d\u0438\u044f 97\u0411 \u041a\u0424", "phone": "+359882207410", "opening_hours": "Mo-Su 08:00-21:00", "brand": "A1", "brand:wikidata": "Q1941592", "nsi_id": "a1-5ceaa9"}, "geometry": {"type": "Point", "coordinates": [24.74121, 42.121979]}},
{"type": "Feature", "id": "B9Bm_uihbqp2lIqyfLU_C0JEH4I=", "properties": {"ref": "134", "@spider": "a1", "name:bg": "\u04101", "shop": "telecommunication", "addr:full": "\u0431\u0443\u043b. \u041c\u0430\u043a\u0435\u0434\u043e\u043d\u0438\u044f 23", "addr:country": "BG", "name": "\u04101 \u043c\u0430\u0433\u0430\u0437\u0438\u043d \u041f\u043b\u043e\u0432\u0434\u0438\u0432, \u041c\u0430\u043a\u0435\u0434\u043e\u043d\u0438\u044f 23", "phone": "+359882207377", "opening_hours": "Mo-Fr 09:00-19:00", "brand": "A1", "brand:wikidata": "Q1941592", "nsi_id": "a1-5ceaa9"}, "geometry": {"type": "Point", "coordinates": [24.7432928, 42.131525]}},
{"type": "Feature", "id": "fu76WamxZSvVBbh2llAWs1HVHb8=", "properties": {"ref": "167", "@spider": "a1", "name:bg": "\u04101", "shop": "telecommunication", "addr:full": "\u0431\u0443\u043b. \u0420\u0443\u0441\u043a\u0438 54, \u041c\u041e\u041b \u041c\u0430\u0440\u043a\u043e\u0432\u043e \u0422\u0435\u043f\u0435", "addr:country": "BG", "name": "\u04101 \u043c\u0430\u0433\u0430\u0437\u0438\u043d \u041f\u043b\u043e\u0432\u0434\u0438\u0432, \u041c\u041e\u041b \u041c\u0430\u0440\u043a. \u0422\u0435\u043f\u0435 ", "phone": "+359882207680", "opening_hours": "Mo-Fr 10:00-20:00; Sa 10:00-21:00; Su 10:00-20:00", "brand": "A1", "brand:wikidata": "Q1941592", "nsi_id": "a1-5ceaa9"}, "geometry": {"type": "Point", "coordinates": [24.741036, 42.141158]}},
{"type": "Feature", "id": "qfJ07WjSrPIQ4xti8cwkxLKj4i0=", "properties": {"ref": "30", "@spider": "a1", "name:bg": "\u04101", "shop": "telecommunication", "addr:full": "\u0431\u0443\u043b. \u041c\u0430\u0440\u0438\u044f \u041b\u0443\u0438\u0437\u0430 14", "addr:country": "BG", "name": "\u04101 \u043c\u0430\u0433\u0430\u0437\u0438\u043d \u041f\u043b\u043e\u0432\u0434\u0438\u0432, \u041c\u0430\u0440\u0438\u044f \u041b\u0443\u0438\u0437\u0430 14", "phone": "+359882207376", "opening_hours": "Mo-Fr 09:00-19:00", "brand": "A1", "brand:wikidata": "Q1941592", "nsi_id": "a1-5ceaa9"}, "geometry": {"type": "Point", "coordinates": [24.756305, 42.14496]}},
{"type": "Feature", "id": "KqlB1SwuJa_FSF93Ezv3o7tR0DQ=", "properties": {"ref": "411", "@spider": "a1", "name:bg": "\u04101", "shop": "telecommunication", "addr:full": "\u0443\u043b. \u0414-\u0440 \u0413\u0435\u043e\u0440\u0433\u0438 \u0421\u0442\u0440\u0430\u043d\u0441\u043a\u0438 3", "addr:country": "BG", "name": "\u04101 \u043c\u0430\u0433\u0430\u0437\u0438\u043d \u041f\u043b\u043e\u0432\u0434\u0438\u0432, \u041c\u041e\u041b \u041f\u043b\u0430\u0437\u0430", "opening_hours": "Mo-Su 10:00-21:00", "brand": "A1", "brand:wikidata": "Q1941592", "nsi_id": "a1-5ceaa9"}, "geometry": {"type": "Point", "coordinates": [24.782178, 42.145129]}},
{"type": "Feature", "id": "IwWDxQfZObqe5Un8pa-kBSJJEAM=", "properties": {"ref": "166", "@spider": "a1", "name:bg": "\u04101", "shop": "telecommunication", "addr:full": "\u0443\u043b. \u041d\u0438\u043a\u043e\u043b\u0430 \u041a\u0430\u0440\u0435\u0432 49 \u0410", "addr:country": "BG", "name": "\u04101 \u043c\u0430\u0433\u0430\u0437\u0438\u043d \u041f\u043b\u043e\u0432\u0434\u0438\u0432, \u041d. \u041a\u0430\u0440\u0435\u0432 49\u0410 ", "phone": "+359882207413", "opening_hours": "Mo-Fr 09:00-19:00", "brand": "A1", "brand:wikidata": "Q1941592", "nsi_id": "a1-5ceaa9"}, "geometry": {"type": "Point", "coordinates": [24.741634, 42.124276]}},
{"type": "Feature", "id": "Xdg510b1boFzYu2bw5dYkKf0Pt8=", "properties": {"ref": "28", "@spider": "a1", "name:bg": "\u04101", "shop": "telecommunication", "addr:full": "\u0423\u043b. \u041e\u043f\u044a\u043b\u0447\u0435\u043d\u0441\u043a\u0430 2", "addr:country": "BG", "name": "\u04101 \u043c\u0430\u0433\u0430\u0437\u0438\u043d \u041f\u043b\u043e\u0432\u0434\u0438\u0432, \u041e\u043f\u044a\u043b\u0447\u0435\u043d\u0441\u043a\u0430 2", "phone": "+359882207374", "opening_hours": "Mo-Fr 09:00-19:00", "brand": "A1", "brand:wikidata": "Q1941592", "nsi_id": "a1-5ceaa9"}, "geometry": {"type": "Point", "coordinates": [24.746819, 42.150317]}},
{"type": "Feature", "id": "qQTUGUrfsA0lJYhY7n1Vvauchlc=", "properties": {"ref": "357", "@spider": "a1", "name:bg": "\u04101", "shop": "telecommunication", "addr:full": "\u0436.\u043a. \u0422\u0440\u0430\u043a\u0438\u044f, \u0431\u0443\u043b. \u041e\u0441\u0432\u043e\u0431\u043e\u0436\u0434\u0435\u043d\u0438\u0435 47, \u041a\u0430\u0443\u0444\u043b\u0430\u043d\u0434", "addr:country": "BG", "name": "\u04101 \u043c\u0430\u0433\u0430\u0437\u0438\u043d \u041f\u043b\u043e\u0432\u0434\u0438\u0432, \u041e\u0441\u0432\u043e\u0431\u043e\u0436\u0434\u0435\u043d\u0438\u0435 47 \u041a\u0424", "phone": "+359882207411", "opening_hours": "Mo-Su 08:00-21:00", "brand": "A1", "brand:wikidata": "Q1941592", "nsi_id": "a1-5ceaa9"}, "geometry": {"type": "Point", "coordinates": [24.789885, 42.133389]}},
{"type": "Feature", "id": "4GAMorm8qc0X0ZBq9fNoDhR8Vvs=", "properties": {"ref": "31", "@spider": "a1", "name:bg": "\u04101", "shop": "telecommunication", "addr:full": "\u0436.\u043a. \u0422\u0440\u0430\u043a\u0438\u044f, \u0417\u043e\u043d\u0430 \u04106, \u0443\u043b. \u0421\u044a\u0435\u0434\u0438\u043d\u0435\u043d\u0438\u0435 45", "addr:country": "BG", "name": "\u04101 \u043c\u0430\u0433\u0430\u0437\u0438\u043d \u041f\u043b\u043e\u0432\u0434\u0438\u0432, \u0422\u0440\u0430\u043a\u0438\u044f", "phone": "+359882207373", "opening_hours": "Mo-Fr 09:00-19:00", "brand": "A1", "brand:wikidata": "Q1941592", "nsi_id": "a1-5ceaa9"}, "geometry": {"type": "Point", "coordinates": [24.79433, 42.13155]}},
{"type": "Feature", "id": "A9a2DqMb5iU6D1X_4ct_CTmah28=", "properties": {"ref": "32", "@spider": "a1", "name:bg": "\u04101", "shop": "telecommunication", "addr:full": "\u0431\u0443\u043b. \u0412\u0430\u0441\u0438\u043b \u0410\u043f\u0440\u0438\u043b\u043e\u0432 84", "addr:country": "BG", "name": "\u04101 \u043c\u0430\u0433\u0430\u0437\u0438\u043d \u041f\u043b\u043e\u0432\u0434\u0438\u0432, \u0412. \u0410\u043f\u0440\u0438\u043b\u043e\u0432 84", "phone": "+359882207372", "opening_hours": "Mo-Fr 09:00-19:00", "brand": "A1", "brand:wikidata": "Q1941592", "nsi_id": "a1-5ceaa9"}, "geometry": {"type": "Point", "coordinates": [24.731743, 42.145483]}},
{"type": "Feature", "id": "h0Ibx5p56Hj1ByvQ01tcZ2gP3sw=", "properties": {"ref": "224", "@spider": "a1", "name:bg": "\u04101", "shop": "telecommunication", "addr:full": "\u0422\u044a\u0440\u0433\u043e\u0432\u0441\u043a\u0430 3", "addr:country": "BG", "name": "\u04101 \u043c\u0430\u0433\u0430\u0437\u0438\u043d \u041f\u043e\u043c\u043e\u0440\u0438\u0435, \u0422\u044a\u0440\u0433\u043e\u0432\u0441\u043a\u0430 3", "phone": "+359882207433", "opening_hours": "Mo-Fr 09:00-18:00", "brand": "A1", "brand:wikidata": "Q1941592", "nsi_id": "a1-5ceaa9"}, "geometry": {"type": "Point", "coordinates": [27.639295, 42.557947]}},
{"type": "Feature", "id": "9hpzRJhGITXu_uYHZmd85hOBtrw=", "properties": {"ref": "107", "@spider": "a1", "name:bg": "\u04101", "shop": "telecommunication", "addr:full": "\u0431\u0443\u043b.\u0411\u044a\u043b\u0433\u0430\u0440\u0438\u044f 68", "addr:country": "BG", "name": "\u04101 \u043c\u0430\u0433\u0430\u0437\u0438\u043d \u041f\u043e\u043f\u043e\u0432\u043e, \u0411\u044a\u043b\u0433\u0430\u0440\u0438\u044f 68 ", "phone": "+359882207500", "opening_hours": "Mo-Fr 09:00-18:00", "brand": "A1", "brand:wikidata": "Q1941592", "nsi_id": "a1-5ceaa9"}, "geometry": {"type": "Point", "coordinates": [26.225395, 43.348842]}},
{"type": "Feature", "id": "wULa6oRNKvAF1MhudoyY7uJOGsc=", "properties": {"ref": "130", "@spider": "a1", "name:bg": "\u04101", "shop": "telecommunication", "addr:full": "\u0443\u043b.\u0413\u0435\u043e\u0440\u0433\u0438 \u0414\u0438\u043c\u0438\u0442\u0440\u043e\u0432 19", "addr:country": "BG", "name": "\u04101 \u043c\u0430\u0433\u0430\u0437\u0438\u043d \u041f\u0440\u043e\u0432\u0430\u0434\u0438\u044f, \u0413.\u0414\u0438\u043c\u0438\u0442\u0440\u043e\u0432 19 ", "phone": "+359882207459", "opening_hours": "Mo-Fr 09:00-18:00", "brand": "A1", "brand:wikidata": "Q1941592", "nsi_id": "a1-5ceaa9"}, "geometry": {"type": "Point", "coordinates": [27.441556, 43.183692]}},
{"type": "Feature", "id": "o7XaRXsRjHT433U9MCOv9N5z9eQ=", "properties": {"ref": "186", "@spider": "a1", "name:bg": "\u04101", "shop": "telecommunication", "addr:full": "\u0443\u043b. \u0413\u0435\u043e\u0440\u0433\u0438 \u0414\u0438\u043c\u0438\u0442\u0440\u043e\u0432 5, \u0435\u0442. 1", "addr:country": "BG", "name": "\u04101 \u043c\u0430\u0433\u0430\u0437\u0438\u043d \u0420\u0430\u0434\u043d\u0435\u0432\u043e, \u0443\u043b. \u0413\u0435\u043e\u0440\u0433\u0438 \u0414\u0438\u043c\u0438\u0442\u0440\u043e\u0432 5", "phone": "+359882207393", "opening_hours": "Mo-Fr 09:00-18:00", "brand": "A1", "brand:wikidata": "Q1941592", "nsi_id": "a1-5ceaa9"}, "geometry": {"type": "Point", "coordinates": [25.93374, 42.289928]}},
{"type": "Feature", "id": "GSD9exZuZ_Uk7aoglu6jGOgkhu8=", "properties": {"ref": "168", "@spider": "a1", "name:bg": "\u04101", "shop": "telecommunication", "addr:full": "\u043f\u043b. \u0421\u0432\u043e\u0431\u043e\u0434\u0430 20", "addr:country": "BG", "name": "\u04101 \u043c\u0430\u0433\u0430\u0437\u0438\u043d \u0420\u0430\u0434\u043e\u043c\u0438\u0440, \u0421\u0432\u043e\u0431\u043e\u0434\u0430 20", "phone": "+359882207527", "opening_hours": "Mo-Fr 09:00-18:00", "brand": "A1", "brand:wikidata": "Q1941592", "nsi_id": "a1-5ceaa9"}, "geometry": {"type": "Point", "coordinates": [22.964167, 42.546846]}},
{"type": "Feature", "id": "un3Ar3WoZyMJccD8j6pvSblWjW4=", "properties": {"ref": "160", "@spider": "a1", "name:bg": "\u04101", "shop": "telecommunication", "addr:full": "\u043a\u0432. \u0421\u0435\u043a\u0438\u0440\u043e\u0432\u043e, \u0443\u043b. \u041f\u0435\u0442\u044a\u0440 \u0411\u043e\u0433\u0434\u0430\u043d 75", "addr:country": "BG", "name": "\u04101 \u043c\u0430\u0433\u0430\u0437\u0438\u043d \u0420\u0430\u043a\u043e\u0432\u0441\u043a\u0438, \u041f\u0435\u0442\u044a\u0440 \u0411\u043e\u0433\u0434\u0430\u043d 75", "phone": "+359882207382", "opening_hours": "Mo-Fr 09:00-19:00", "brand": "A1", "brand:wikidata": "Q1941592", "nsi_id": "a1-5ceaa9"}, "geometry": {"type": "Point", "coordinates": [24.942529, 42.271506]}},
{"type": "Feature", "id": "g8WBat1TLCJJ2UqjUy-sd0oWAGw=", "properties": {"ref": "85", "@spider": "a1", "name:bg": "\u04101", "shop": "telecommunication", "addr:full": "\u0431\u0443\u043b. \u0411\u044a\u043b\u0433\u0430\u0440\u0438\u044f 11", "addr:country": "BG", "name": "\u04101 \u043c\u0430\u0433\u0430\u0437\u0438\u043d \u0420\u0430\u0437\u0433\u0440\u0430\u0434, \u0411\u044a\u043b\u0433\u0430\u0440\u0438\u044f 11", "phone": "+359882207501", "opening_hours": "Mo-Fr 09:00-19:00", "brand": "A1", "brand:wikidata": "Q1941592", "nsi_id": "a1-5ceaa9"}, "geometry": {"type": "Point", "coordinates": [26.525988, 43.524959]}},
{"type": "Feature", "id": "_Hg-VLN9nCZXRrnw1UHYgFCgMds=", "properties": {"ref": "70", "@spider": "a1", "name:bg": "\u04101", "shop": "telecommunication", "addr:full": "\u0443\u043b. \"\u0415\u043a\u0437\u0430\u0440\u0445 \u0419\u043e\u0441\u0438\u0444\" 11", "addr:country": "BG", "name": "\u04101 \u043c\u0430\u0433\u0430\u0437\u0438\u043d \u0420\u0430\u0437\u043b\u043e\u0433, \u0415\u043a\u0437\u0430\u0440\u0445 \u0419\u043e\u0441\u0438\u0444 3", "phone": "+359882207531", "opening_hours": "Mo-Fr 09:00-18:30", "brand": "A1", "brand:wikidata": "Q1941592", "nsi_id": "a1-5ceaa9"}, "geometry": {"type": "Point", "coordinates": [23.465515, 41.885288]}},
{"type": "Feature", "id": "bcvOARIi7UsF4ygfimHynTrCfvc=", "properties": {"ref": "341", "@spider": "a1", "name:bg": "\u04101", "shop": "telecommunication", "addr:full": "\u0420\u0443\u0441\u0435, \u0436.\u043a. \u0414\u0440\u0443\u0436\u0431\u0430-1, \u0431\u0443\u043b. \u0425\u0440\u0438\u0441\u0442\u043e \u0411\u043e\u0442\u0435\u0432 38 (\u041a\u0430\u0443\u0444\u043b\u0430\u043d\u0434)", "addr:country": "BG", "name": "\u04101 \u043c\u0430\u0433\u0430\u0437\u0438\u043d \u0420\u0443\u0441\u0435, \u0425\u0440\u0438\u0441\u0442\u043e \u0411\u043e\u0442\u0435\u0432 38 \u041a\u0424", "phone": "+359882207516", "opening_hours": "Mo-Su 08:00-21:00", "brand": "A1", "brand:wikidata": "Q1941592", "nsi_id": "a1-5ceaa9"}, "geometry": {"type": "Point", "coordinates": [25.968423, 43.832224]}},
{"type": "Feature", "id": "kt7rH-8xsr3Ip82shO8G5Hiv6Cc=", "properties": {"ref": "349", "@spider": "a1", "name:bg": "\u04101", "shop": "telecommunication", "addr:full": "\u0420\u0443\u0441\u0435, \u0431\u0443\u043b. \u041b\u0438\u043f\u043d\u0438\u043a 8 (\u041a\u0430\u0443\u0444\u043b\u0430\u043d\u0434)", "addr:country": "BG", "name": "\u04101 \u043c\u0430\u0433\u0430\u0437\u0438\u043d \u0420\u0443\u0441\u0435, \u041b\u0438\u043f\u043d\u0438\u043a 8 \u041a\u0424", "phone": "+359882207554", "opening_hours": "Mo-Su 08:00-21:00", "brand": "A1", "brand:wikidata": "Q1941592", "nsi_id": "a1-5ceaa9"}, "geometry": {"type": "Point", "coordinates": [25.965951, 43.845785]}},
{"type": "Feature", "id": "F6JRYJkragIzPVQCRL27xYMN7UA=", "properties": {"ref": "115", "@spider": "a1", "name:bg": "\u04101", "shop": "telecommunication", "addr:full": "\u0431\u0443\u043b. \u041b\u0438\u043f\u043d\u0438\u043a 121", "addr:country": "BG", "name": "\u04101 \u043c\u0430\u0433\u0430\u0437\u0438\u043d \u0420\u0443\u0441\u0435, \u041c\u041e\u041b \u0420\u0443\u0441\u0435", "phone": "+359882207511", "opening_hours": "Mo-Su 10:00-20:00", "brand": "A1", "brand:wikidata": "Q1941592", "nsi_id": "a1-5ceaa9"}, "geometry": {"type": "Point", "coordinates": [25.990518, 43.853476]}},
{"type": "Feature", "id": "pf4UJs97HmPdNCxWFBgJVhxauEM=", "properties": {"ref": "84", "@spider": "a1", "name:bg": "\u04101", "shop": "telecommunication", "addr:full": "\u0443\u043b. \u041f\u0435\u0442\u043a\u043e \u0414. \u041f\u0435\u0442\u043a\u043e\u0432 13", "addr:country": "BG", "name": "\u04101 \u043c\u0430\u0433\u0430\u0437\u0438\u043d \u0420\u0443\u0441\u0435, \u041f. \u0414. \u041f\u0435\u0442\u043a\u043e\u0432 13", "phone": "+359882207503", "opening_hours": "Mo-Fr 09:00-19:00", "brand": "A1", "brand:wikidata": "Q1941592", "nsi_id": "a1-5ceaa9"}, "geometry": {"type": "Point", "coordinates": [25.956287, 43.849985]}},
{"type": "Feature", "id": "tyzFE58sPJ6SZVLE2dQwII7WfFg=", "properties": {"ref": "71", "@spider": "a1", "name:bg": "\u04101", "shop": "telecommunication", "addr:full": "\u0443\u043b. \u0418\u0441\u043a\u044a\u0440 4", "addr:country": "BG", "name": "\u04101 \u043c\u0430\u0433\u0430\u0437\u0438\u043d \u0421\u0430\u043c\u043e\u043a\u043e\u0432, \u0418\u0441\u043a\u044a\u0440 4", "phone": "+359882207532", "opening_hours": "Mo-Fr 09:00-19:00", "brand": "A1", "brand:wikidata": "Q1941592", "nsi_id": "a1-5ceaa9"}, "geometry": {"type": "Point", "coordinates": [23.556557, 42.331686]}},
{"type": "Feature", "id": "TX3zwXYeFtex7FrFHbS8gG689cQ=", "properties": {"ref": "72", "@spider": "a1", "name:bg": "\u04101", "shop": "telecommunication", "addr:full": "\u043f\u043b. \u0411\u044a\u043b\u0433\u0430\u0440\u0438\u044f 2", "addr:country": "BG", "name": "\u04101 \u043c\u0430\u0433\u0430\u0437\u0438\u043d \u0421\u0430\u043d\u0434\u0430\u043d\u0441\u043a\u0438, \u0411\u044a\u043b\u0433\u0430\u0440\u0438\u044f 2 ", "phone": "+359882207533", "opening_hours": "Mo-Fr 09:00-18:00", "brand": "A1", "brand:wikidata": "Q1941592", "nsi_id": "a1-5ceaa9"}, "geometry": {"type": "Point", "coordinates": [23.277896, 41.56132]}},
{"type": "Feature", "id": "O0ooex0n9J3y13mWJXvubYQSZIo=", "properties": {"ref": "78", "@spider": "a1", "name:bg": "\u04101", "shop": "telecommunication", "addr:full": "\u0443\u043b. \"\u0425\u0440\u0438\u0441\u0442\u043e \u0421\u043f\u0438\u0440\u0438\u0434\u043e\u043d\u043e\u0432\" 6", "addr:country": "BG", "name": "\u04101 \u043c\u0430\u0433\u0430\u0437\u0438\u043d \u0421\u0435\u0432\u043b\u0438\u0435\u0432\u043e, \u0425. \u0421\u043f\u0438\u0440\u0438\u0434\u043e\u043d\u043e\u0432 6", "phone": "+359882207492", "opening_hours": "Mo-Fr 09:00-19:00", "brand": "A1", "brand:wikidata": "Q1941592", "nsi_id": "a1-5ceaa9"}, "geometry": {"type": "Point", "coordinates": [25.103531, 43.026548]}},
{"type": "Feature", "id": "5d-VfCwKxpBcWj_edpQaxUc_TNQ=", "properties": {"ref": "335", "@spider": "a1", "name:bg": "\u04101", "shop": "telecommunication", "addr:full": "\u0431\u0443\u043b. \u0421\u0438\u043c\u0435\u043e\u043d \u0412\u0435\u043b\u0438\u043a\u0438 46\u0412", "addr:country": "BG", "name": "\u04101 \u043c\u0430\u0433\u0430\u0437\u0438\u043d \u0428\u0443\u043c\u0435\u043d, \u0421. \u0412\u0435\u043b\u0438\u043a\u0438  46\u0412 ", "phone": "+359882207461", "opening_hours": "Mo-Fr 09:00-19:00", "brand": "A1", "brand:wikidata": "Q1941592", "nsi_id": "a1-5ceaa9"}, "geometry": {"type": "Point", "coordinates": [26.927342, 43.273736]}},
{"type": "Feature", "id": "U-9Hrx3FVTNE7pueTgmdLuLMih4=", "properties": {"ref": "252", "@spider": "a1", "name:bg": "\u04101", "shop": "telecommunication", "addr:full": "\u0431\u0443\u043b. \u0421\u043b\u0430\u0432\u044f\u043d\u0441\u043a\u0438 26", "addr:country": "BG", "name": "\u04101 \u043c\u0430\u0433\u0430\u0437\u0438\u043d \u0428\u0443\u043c\u0435\u043d, \u0421\u043b\u0430\u0432\u044f\u043d\u0441\u043a\u0438 26 ", "phone": "+359882207472", "opening_hours": "Mo-Fr 09:00-19:00", "brand": "A1", "brand:wikidata": "Q1941592", "nsi_id": "a1-5ceaa9"}, "geometry": {"type": "Point", "coordinates": [26.931421, 43.271315]}},
{"type": "Feature", "id": "ooOGYqVskZH_1eNK1LXnzFNSFUA=", "properties": {"ref": "87", "@spider": "a1", "name:bg": "\u04101", "shop": "telecommunication", "addr:full": "\u0443\u043b. \u0421\u0438\u043c\u0435\u043e\u043d \u0412\u0435\u043b\u0438\u043a\u0438 29", "addr:country": "BG", "name": "\u04101 \u043c\u0430\u0433\u0430\u0437\u0438\u043d \u0421\u0438\u043b\u0438\u0441\u0442\u0440\u0430, \u0421. \u0412\u0435\u043b\u0438\u043a\u0438 29", "phone": "+359882207505", "opening_hours": "Mo-Fr 09:00-19:00", "brand": "A1", "brand:wikidata": "Q1941592", "nsi_id": "a1-5ceaa9"}, "geometry": {"type": "Point", "coordinates": [27.260501, 44.118314]}},
{"type": "Feature", "id": "gtvpKbZzbfUSAwWckXE_q0Ssjb0=", "properties": {"ref": "216", "@spider": "a1", "name:bg": "\u04101", "shop": "telecommunication", "addr:full": "\u0421\u0438\u043c\u0438\u0442\u043b\u0438, \u0443\u043b. \u0425\u0440\u0438\u0441\u0442\u043e \u0411\u043e\u0442\u0435\u0432 36", "addr:country": "BG", "name": "\u04101 \u043c\u0430\u0433\u0430\u0437\u0438\u043d \u0421\u0438\u043c\u0438\u0442\u043b\u0438, \u0443\u043b. \u0425\u0440\u0438\u0441\u0442\u043e \u0411\u043e\u0442\u0435\u0432 36 ", "phone": "+359882207300", "opening_hours": "Mo-Fr 09:00-18:00", "brand": "A1", "brand:wikidata": "Q1941592", "nsi_id": "a1-5ceaa9"}, "geometry": {"type": "Point", "coordinates": [23.109551, 41.891778]}},
{"type": "Feature", "id": "lzcIrXeGZfrG7qfVaS6u-kSiWwA=", "properties": {"ref": "189", "@spider": "a1", "name:bg": "\u04101", "shop": "telecommunication", "addr:full": "\u0421\u043b\u044a\u043d\u0447\u0435\u0432 \u0431\u0440\u044f\u0433- \u0411\u0438\u0437\u043d\u0435\u0441 \u0426\u0435\u043d\u0442\u044a\u0440 \u041a\u043e\u043d\u0434\u043e\u0440", "addr:country": "BG", "name": "\u04101 \u043c\u0430\u0433\u0430\u0437\u0438\u043d \u0421\u043b\u044a\u043d\u0447\u0435\u0432 \u0431\u0440\u044f\u0433, KK \u0421\u043b. \u0431\u0440\u044f\u0433 1 ", "phone": "+359882207432", "opening_hours": "Mo-Fr 08:00-17:00", "brand": "A1", "brand:wikidata": "Q1941592", "nsi_id": "a1-5ceaa9"}, "geometry": {"type": "Point", "coordinates": [27.708806, 42.693281]}},
{"type": "Feature", "id": "4e79664lXZltZyrZcImt57Xt-Uc=", "properties": {"ref": "424", "@spider": "a1", "name:bg": "\u04101", "shop": "telecommunication", "addr:full": "\u0433\u0440. \u0421\u043b\u0438\u0432\u0435\u043d ,\u043a\u0432. \u0411\u044a\u043b\u0433\u0430\u0440\u043a\u0430, \u0431\u0443\u043b. \"\u0413\u0435\u043e\u0440\u0433\u0438 \u0414\u0430\u043d\u0447\u0435\u0432\" 30, \u041a\u0430\u0443\u0444\u043b\u0430\u043d\u0434", "addr:country": "BG", "name": "\u04101 \u043c\u0430\u0433\u0430\u0437\u0438\u043d \u0421\u043b\u0438\u0432\u0435\u043d, \u0413\u0435\u043e\u0440\u0433\u0438 \u0414\u0430\u043d\u0447\u0435\u0432 30 \u041a\u0424", "phone": "+359882207436", "opening_hours": "Mo-Sa 09:00-21:00; Su 09:00-20:00", "brand": "A1", "brand:wikidata": "Q1941592", "nsi_id": "a1-5ceaa9"}, "geometry": {"type": "Point", "coordinates": [26.34185, 42.68286]}},
{"type": "Feature", "id": "bIK7C-U1h4YN7FdUqA73X_kj4Vc=", "properties": {"ref": "422", "@spider": "a1", "name:bg": "\u04101", "shop": "telecommunication", "addr:full": "\u0431\u0443\u043b.\u0426\u0430\u0440 \u041e\u0441\u0432\u043e\u0431\u043e\u0434\u0438\u0442\u0435\u043b \u211611", "addr:country": "BG", "name": "\u04101 \u043c\u0430\u0433\u0430\u0437\u0438\u043d \u0421\u043b\u0438\u0432\u0435\u043d, \u041e\u0441\u0432\u043e\u0431\u043e\u0434\u0438\u0442\u0435\u043b 11", "opening_hours": "Mo-Fr 09:00-19:00", "brand": "A1", "brand:wikidata": "Q1941592", "nsi_id": "a1-5ceaa9"}, "geometry": {"type": "Point", "coordinates": [26.3292, 42.6858]}},
{"type": "Feature", "id": "14Pk1lOMUfy9tL-wyt0WqWVOHU0=", "properties": {"ref": "355", "@spider": "a1", "name:bg": "\u04101", "shop": "telecommunication", "addr:full": "\u0431\u0443\u043b. \u0411\u044a\u043b\u0433\u0430\u0440\u0438\u044f 97", "addr:country": "BG", "name": "\u04101 \u043c\u0430\u0433\u0430\u0437\u0438\u043d \u0421\u043c\u043e\u043b\u044f\u043d, \u0411\u044a\u043b\u0433\u0430\u0440\u0438\u044f 97", "phone": "+359882207383", "opening_hours": "Mo-Fr 09:00-18:30", "brand": "A1", "brand:wikidata": "Q1941592", "nsi_id": "a1-5ceaa9"}, "geometry": {"type": "Point", "coordinates": [24.688449, 41.580491]}},
{"type": "Feature", "id": "KZh-u1yL0xKahvGQ4nQ3p13bHio=", "properties": {"ref": "171", "@spider": "a1", "name:bg": "\u04101", "shop": "telecommunication", "addr:full": "\u0431\u0443\u043b.\"\u0412\u0438\u0442\u043e\u0448\u0430\" 82", "addr:country": "BG", "name": "\u04101 \u043c\u0430\u0433\u0430\u0437\u0438\u043d \u0421\u043e\u0444\u0438\u044f - \u0412\u0438\u0442\u043e\u0448\u0430 82", "phone": "+359882207303", "opening_hours": "Mo-Fr 09:00-19:30", "brand": "A1", "brand:wikidata": "Q1941592", "nsi_id": "a1-5ceaa9"}, "geometry": {"type": "Point", "coordinates": [23.318268, 42.687467]}},
{"type": "Feature", "id": "Ry31mwNB4xpGmm_x4cjFuaA2Ds8=", "properties": {"ref": "373", "@spider": "a1", "name:bg": "\u04101", "shop": "telecommunication", "addr:full": "\u0421\u043e\u0444\u0438\u044f, \u0443\u043b. \u0422\u043e\u0434\u043e\u0440\u0438\u043d\u0438 \u043a\u0443\u043a\u043b\u0438 20", "addr:country": "BG", "name": "\u04101 \u043c\u0430\u0433\u0430\u0437\u0438\u043d \u0421\u043e\u0444\u0438\u044f \u0422\u043e\u0434\u043e\u0440\u0438\u043d\u0438 \u043a\u0443\u043a\u043b\u0438 20", "phone": "+359882100451", "opening_hours": "Mo-Fr 09:00-19:00", "brand": "A1", "brand:wikidata": "Q1941592", "nsi_id": "a1-5ceaa9"}, "geometry": {"type": "Point", "coordinates": [23.357594, 42.702111]}},
{"type": "Feature", "id": "v8NoUmhRZ_3evceYKMVdhuW20LA=", "properties": {"ref": "48", "@spider": "a1", "name:bg": "\u04101", "shop": "telecommunication", "addr:full": "\u0443\u043b. \"\u0410\u043a\u0430\u0434\u0435\u043c\u0438\u043a \u0411\u043e\u0440\u0438\u0441 \u0421\u0442\u0435\u0444\u0430\u043d\u043e\u0432\" \u21162, \u0435\u0442.2", "addr:country": "BG", "name": "\u04101 \u043c\u0430\u0433\u0430\u0437\u0438\u043d \u0421\u043e\u0444\u0438\u044f, \u0410\u043a\u0430\u0434. \u0411. \u0421\u0442\u0435\u0444\u0430\u043d\u043e\u0432 2 ", "phone": "+359882207325", "opening_hours": "Mo-Fr 09:00-19:30", "brand": "A1", "brand:wikidata": "Q1941592", "nsi_id": "a1-5ceaa9"}, "geometry": {"type": "Point", "coordinates": [23.342492, 42.653444]}},
{"type": "Feature", "id": "vq8rgdj7hOvFe9LpKxy-aE26ac8=", "properties": {"ref": "285", "@spider": "a1", "name:bg": "\u04101", "shop": "telecommunication", "addr:full": "\u0421\u0442\u0443\u0434\u0435\u043d\u0442\u0441\u043a\u0438 \u0433\u0440\u0430\u0434, \u0443\u043b. \u0410\u043a\u0430\u0434. \u0411\u043e\u0440\u0438\u0441 \u0421\u0442\u0435\u0444\u0430\u043d\u043e\u0432 35, \u0435\u0442. 2 (\u043d\u0435 \u043f\u0440\u0435\u0434\u043b\u0430\u0433\u0430 \u043f\u044a\u043b\u043d\u043e\u0442\u043e \u043f\u043e\u0440\u0442\u0444\u043e\u043b\u0438\u043e \u043e\u0442 \u0443\u0441\u043b\u0443\u0433\u0438)", "addr:country": "BG", "name": "\u04101 \u043c\u0430\u0433\u0430\u0437\u0438\u043d \u0421\u043e\u0444\u0438\u044f, \u0411. \u0421\u0442\u0435\u0444\u0430\u043d\u043e\u0432 35 ", "phone": "+359882207640", "opening_hours": "Mo-Fr 09:00-19:00", "brand": "A1", "brand:wikidata": "Q1941592", "nsi_id": "a1-5ceaa9"}, "geometry": {"type": "Point", "coordinates": [23.342297, 42.645424]}},
{"type": "Feature", "id": "ucSxjlzm-mbWQ09OoRVuFJfokao=", "properties": {"ref": "223", "@spider": "a1", "name:bg": "\u04101", "shop": "telecommunication", "addr:full": "\u0411\u0443\u043b. \u0414\u043e\u043d\u0434\u0443\u043a\u043e\u0432 32", "addr:country": "BG", "name": "\u04101 \u043c\u0430\u0433\u0430\u0437\u0438\u043d \u0421\u043e\u0444\u0438\u044f, \u0414\u043e\u043d\u0434\u0443\u043a\u043e\u0432 32", "phone": "+359882207327", "opening_hours": "Mo-Fr 09:00-19:00", "brand": "A1", "brand:wikidata": "Q1941592", "nsi_id": "a1-5ceaa9"}, "geometry": {"type": "Point", "coordinates": [23.330908, 42.69809]}},
{"type": "Feature", "id": "16PDxoVbfjuUh7j_bjUOZNZ_kH0=", "properties": {"ref": "251", "@spider": "a1", "name:bg": "\u04101", "shop": "telecommunication", "addr:full": "\u0436.\u043a. \u041a\u0440\u0430\u0441\u043d\u043e \u0441\u0435\u043b\u043e, \u0431\u0443\u043b. \u0413\u043e\u0446\u0435 \u0414\u0435\u043b\u0447\u0435\u0432 2", "addr:country": "BG", "name": "\u04101 \u043c\u0430\u0433\u0430\u0437\u0438\u043d \u0421\u043e\u0444\u0438\u044f, \u0413\u043e\u0446\u0435 \u0414\u0435\u043b\u0447\u0435\u0432 2", "phone": "+359882207344", "opening_hours": "Mo-Fr 09:00-19:00", "brand": "A1", "brand:wikidata": "Q1941592", "nsi_id": "a1-5ceaa9"}, "geometry": {"type": "Point", "coordinates": [23.28559399, 42.67822359]}},
{"type": "Feature", "id": "jYa7eqE2xJ0ZDbHoo72S9lMKvns=", "properties": {"ref": "409", "@spider": "a1", "name:bg": "\u04101", "shop": "telecommunication", "addr:full": "\u0436\u043a \u041a\u0440\u0430\u0441\u043d\u043e \u0441\u0435\u043b\u043e, \u0431\u0443\u043b. \u0413\u043e\u0446\u0435 \u0414\u0435\u043b\u0447\u0435\u0432 4", "addr:country": "BG", "name": "\u04101 \u043c\u0430\u0433\u0430\u0437\u0438\u043d \u0421\u043e\u0444\u0438\u044f, \u0413\u043e\u0446\u0435 \u0414\u0435\u043b\u0447\u0435\u0432 4", "phone": "+359882207344", "opening_hours": "Mo-Fr 09:00-19:00", "brand": "A1", "brand:wikidata": "Q1941592", "nsi_id": "a1-5ceaa9"}, "geometry": {"type": "Point", "coordinates": [23.285521, 42.678061]}},
{"type": "Feature", "id": "BbLZMo_LvnVSURdfl2RoPF8Vo40=", "properties": {"ref": "414", "@spider": "a1", "name:bg": "\u04101", "shop": "telecommunication", "addr:full": "\u0443\u043b. \u0413\u0440\u0430\u0444 \u0418\u0433\u043d\u0430\u0442\u0438\u0435\u0432 \u211643", "addr:country": "BG", "name": "\u04101 \u043c\u0430\u0433\u0430\u0437\u0438\u043d \u0421\u043e\u0444\u0438\u044f, \u0413\u0440\u0430\u0444 \u0418\u0433\u043d\u0430\u0442\u0438\u0435\u0432 43", "phone": "+359882207579", "opening_hours": "Mo-Fr 09:00-19:00", "brand": "A1", "brand:wikidata": "Q1941592", "nsi_id": "a1-5ceaa9"}, "geometry": {"type": "Point", "coordinates": [23.329426, 42.687866]}},
{"type": "Feature", "id": "hLDzdrFRb9_C7a1c8YMx7S8OSqU=", "properties": {"ref": "6", "@spider": "a1", "name:bg": "\u04101", "shop": "telecommunication", "addr:full": "\u0436.\u043a. \u041b\u044e\u043b\u0438\u043d 10, \u0431\u043b.154", "addr:country": "BG", "name": "\u04101 \u043c\u0430\u0433\u0430\u0437\u0438\u043d \u0421\u043e\u0444\u0438\u044f, \u041b\u044e\u043b\u0438\u043d 10, 154", "phone": "+359882207311", "opening_hours": "Mo-Fr 09:00-19:00", "brand": "A1", "brand:wikidata": "Q1941592", "nsi_id": "a1-5ceaa9"}, "geometry": {"type": "Point", "coordinates": [23.268718, 42.712741]}},
{"type": "Feature", "id": "vluYgT-sYgQAVKpmxXsxySpjam4=", "properties": {"ref": "394", "@spider": "a1", "name:bg": "\u04101", "shop": "telecommunication", "addr:full": "\u0431\u0430\u0437\u0430\u0440 \u0418\u0441\u043a\u0440\u0430 2000", "addr:country": "BG", "name": "\u04101 \u043c\u0430\u0433\u0430\u0437\u0438\u043d \u0421\u043e\u0444\u0438\u044f, \u041b\u044e\u043b\u0438\u043d 4, \u041a. \u041f\u0430\u0437\u0430\u0440 ", "phone": "+359882207310", "opening_hours": "Mo-Fr 09:00-19:00", "brand": "A1", "brand:wikidata": "Q1941592", "nsi_id": "a1-5ceaa9"}, "geometry": {"type": "Point", "coordinates": [23.251391, 42.716558]}},
{"type": "Feature", "id": "yK0oxW6QTEcyeHJeIOMbotQVdi8=", "properties": {"ref": "20", "@spider": "a1", "name:bg": "\u04101", "shop": "telecommunication", "addr:full": "\u0431\u0443\u043b. \u041c\u0430\u0434\u0440\u0438\u0434 18", "addr:country": "BG", "name": "\u04101 \u043c\u0430\u0433\u0430\u0437\u0438\u043d \u0421\u043e\u0444\u0438\u044f, \u041c\u0430\u0434\u0440\u0438\u0434 18", "phone": "+359882207313", "opening_hours": "Mo-Fr 09:00-19:00", "brand": "A1", "brand:wikidata": "Q1941592", "nsi_id": "a1-5ceaa9"}, "geometry": {"type": "Point", "coordinates": [23.348853, 42.696107]}},
{"type": "Feature", "id": "Z9q0LLl6uYs-SmLSZzmmCrR-EHk=", "properties": {"ref": "360", "@spider": "a1", "name:bg": "\u04101", "shop": "telecommunication", "addr:full": "\u0431\u0443\u043b.\u041c\u0430\u0440\u0438\u044f \u041b\u0443\u0438\u0437\u0430 19", "addr:country": "BG", "name": "\u04101 \u043c\u0430\u0433\u0430\u0437\u0438\u043d \u0421\u043e\u0444\u0438\u044f, \u041c\u0430\u0440\u0438\u044f \u041b\u0443\u0438\u0437\u0430 19", "phone": "+359882207387", "opening_hours": "Mo-Fr 09:00-19:00", "brand": "A1", "brand:wikidata": "Q1941592", "nsi_id": "a1-5ceaa9"}, "geometry": {"type": "Point", "coordinates": [23.321774, 42.698901]}},
{"type": "Feature", "id": "m3_zNrNHZivX09Pp-ko-OA_HZLY=", "properties": {"ref": "16", "@spider": "a1", "name:bg": "\u04101", "shop": "telecommunication", "addr:full": "\u0431\u0443\u043b. \u041c\u0430\u0440\u0438\u044f \u041b\u0443\u0438\u0437\u0430 66", "addr:country": "BG", "name": "\u04101 \u043c\u0430\u0433\u0430\u0437\u0438\u043d \u0421\u043e\u0444\u0438\u044f, \u041c\u0430\u0440\u0438\u044f \u041b\u0443\u0438\u0437\u0430 66", "phone": "+359882207312", "opening_hours": "Mo-Fr 09:00-19:00", "brand": "A1", "brand:wikidata": "Q1941592", "nsi_id": "a1-5ceaa9"}, "geometry": {"type": "Point", "coordinates": [23.324101, 42.706104]}},
{"type": "Feature", "id": "DiBhXdW5DXeIGZ8YORSOwTjCh-w=", "properties": {"ref": "262", "@spider": "a1", "name:bg": "\u04101", "shop": "telecommunication", "addr:full": "\u0436.\u043a. \u041c\u043b\u0430\u0434\u043e\u0441\u0442 4, \u0411\u0438\u0437\u043d\u0435\u0441 \u043f\u0430\u0440\u043a \u2013 \u0421\u0433\u0440\u0430\u0434\u0430 8", "addr:country": "BG", "name": "\u04101 \u043c\u0430\u0433\u0430\u0437\u0438\u043d \u0421\u043e\u0444\u0438\u044f, \u041c\u043b\u0430\u0434\u043e\u0441\u0442 4 \u0411\u041f/8", "phone": "+359882207309", "opening_hours": "Mo-Fr 09:00-19:00", "brand": "A1", "brand:wikidata": "Q1941592", "nsi_id": "a1-5ceaa9"}, "geometry": {"type": "Point", "coordinates": [23.374065, 42.626504]}},
{"type": "Feature", "id": "3gIaDmvklTNgpFIZq14xefwiUMc=", "properties": {"ref": "303", "@spider": "a1", "name:bg": "\u04101", "shop": "telecommunication", "addr:full": "\u0436.\u043a. \u041c\u043b\u0430\u0434\u043e\u0441\u0442 1, \u0431\u0443\u043b. \u0410\u043d\u0434\u0440\u0435\u0439 \u0421\u0430\u0445\u0430\u0440\u043e\u0432, \u0422\u0426 \u0410\u043b\u043a\u043e<br/>(\u043d\u0435 \u043f\u0440\u0435\u0434\u043b\u0430\u0433\u0430 \u043f\u044a\u043b\u043d\u043e\u0442\u043e \u043f\u043e\u0440\u0442\u0444\u043e\u043b\u0438\u043e \u043e\u0442 \u0443\u0441\u043b\u0443\u0433\u0438)", "addr:country": "BG", "name": "\u04101 \u043c\u0430\u0433\u0430\u0437\u0438\u043d \u0421\u043e\u0444\u0438\u044f, \u041c\u043b\u0430\u0434\u043e\u0441\u0442, \u0421\u0430\u0445\u0430\u0440\u043e\u0432", "phone": "+359882207631", "opening_hours": "Mo-Fr 09:00-19:00", "brand": "A1", "brand:wikidata": "Q1941592", "nsi_id": "a1-5ceaa9"}, "geometry": {"type": "Point", "coordinates": [23.373494, 42.652505]}},
{"type": "Feature", "id": "Yyr3UmWx0_Jm-lodbJWwr_HO7Uw=", "properties": {"ref": "279", "@spider": "a1", "name:bg": "\u04101", "shop": "telecommunication", "addr:full": "\u0431\u0443\u043b. \u0411\u044a\u043b\u0433\u0430\u0440\u0438\u044f 69", "addr:country": "BG", "name": "\u04101 \u043c\u0430\u0433\u0430\u0437\u0438\u043d \u0421\u043e\u0444\u0438\u044f, \u041c\u041e\u041b \u0411\u044a\u043b\u0433\u0430\u0440\u0438\u044f", "phone": "+359882207340", "opening_hours": "Mo-Su 10:00-21:00", "brand": "A1", "brand:wikidata": "Q1941592", "nsi_id": "a1-5ceaa9"}, "geometry": {"type": "Point", "coordinates": [23.288653, 42.664088]}},
{"type": "Feature", "id": "r-90zRenLtGjq_mTTXZK43Hpd6s=", "properties": {"ref": "329", "@spider": "a1", "name:bg": "\u04101", "shop": "telecommunication", "addr:full": "The Mall, \u0431\u0443\u043b. \u0426\u0430\u0440\u0438\u0433\u0440\u0430\u0434\u0441\u043a\u043e \u0428\u043e\u0441\u0435 115", "addr:country": "BG", "name": "\u04101 \u043c\u0430\u0433\u0430\u0437\u0438\u043d \u0421\u043e\u0444\u0438\u044f, \u041c\u041e\u041b \u0426\u0430\u0440\u0438\u0433\u0440. \u0428\u043e\u0441\u0435", "phone": "+359882207343", "opening_hours": "Mo-Su 10:00-22:00", "brand": "A1", "brand:wikidata": "Q1941592", "nsi_id": "a1-5ceaa9"}, "geometry": {"type": "Point", "coordinates": [23.382314, 42.660612]}},
{"type": "Feature", "id": "1LUpTMHwEdEkr0VG_WPfc-Hhcbo=", "properties": {"ref": "25", "@spider": "a1", "name:bg": "\u04101", "shop": "telecommunication", "addr:full": "\u0431\u0443\u043b. \u0410\u0440\u0441\u0435\u043d\u0430\u043b\u0441\u043a\u0438 2, \u041c\u041e\u041b \u041f\u0430\u0440\u043a \u0426\u0435\u043d\u0442\u044a\u0440, \u043f\u0430\u0440\u0442\u0435\u0440", "addr:country": "BG", "name": "\u04101 \u043c\u0430\u0433\u0430\u0437\u0438\u043d \u0421\u043e\u0444\u0438\u044f, \u041c\u041e\u041b \u041f\u0430\u0440\u043a \u0426\u0435\u043d\u0442\u044a\u0440", "phone": "+359882207323", "opening_hours": "Mo-Su 10:00-21:00", "brand": "A1", "brand:wikidata": "Q1941592", "nsi_id": "a1-5ceaa9"}, "geometry": {"type": "Point", "coordinates": [23.3200305, 42.67846]}},
{"type": "Feature", "id": "yHEQh_CPQ14Xu4LU_73OeHyykd8=", "properties": {"ref": "331", "@spider": "a1", "name:bg": "\u04101", "shop": "telecommunication", "addr:full": "\u0443\u043b. \u041e\u043a\u043e\u043b\u043e\u0432\u0440\u044a\u0441\u0442\u0435\u043d \u043f\u044a\u0442 N214", "addr:country": "BG", "name": "\u04101 \u043c\u0430\u0433\u0430\u0437\u0438\u043d \u0421\u043e\u0444\u0438\u044f, \u041c\u041e\u041b \u0420\u0438\u043d\u0433 \u041c\u041e\u041b", "phone": "+359882207305", "opening_hours": "Mo-Su 10:00-22:00", "brand": "A1", "brand:wikidata": "Q1941592", "nsi_id": "a1-5ceaa9"}, "geometry": {"type": "Point", "coordinates": [23.352217, 42.624529]}},
{"type": "Feature", "id": "Ckf5vO26IskLCmPQCk3aLtqPobQ=", "properties": {"ref": "230", "@spider": "a1", "name:bg": "\u04101", "shop": "telecommunication", "addr:full": "\u0431\u0443\u043b. \u0421\u0438\u0442\u043d\u044f\u043a\u043e\u0432\u043e 48", "addr:country": "BG", "name": "\u04101 \u043c\u0430\u0433\u0430\u0437\u0438\u043d \u0421\u043e\u0444\u0438\u044f, \u041c\u041e\u041b \u0421\u0435\u0440\u0434\u0438\u043a\u0430", "phone": "+359882207332", "opening_hours": "Mo-Su 10:00-22:00", "brand": "A1", "brand:wikidata": "Q1941592", "nsi_id": "a1-5ceaa9"}, "geometry": {"type": "Point", "coordinates": [23.353944, 42.691541]}},
{"type": "Feature", "id": "WXmbWqsU8zJ0RU9wQ4_ge1JZa38=", "properties": {"ref": "164", "@spider": "a1", "name:bg": "\u04101", "shop": "telecommunication", "addr:full": "\u0443\u043b.\u041a\u043e\u0441\u0442\u0430 \u041b\u0443\u043b\u0447\u0435\u0432 52", "addr:country": "BG", "name": "\u04101 \u043c\u0430\u0433\u0430\u0437\u0438\u043d \u0421\u043e\u0444\u0438\u044f, \u041c\u041e\u041b \u0421\u043a\u0430\u0439 \u0421\u0438\u0442\u0438", "phone": "+359882207324", "opening_hours": "Mo-Su 10:00-21:00", "brand": "A1", "brand:wikidata": "Q1941592", "nsi_id": "a1-5ceaa9"}, "geometry": {"type": "Point", "coordinates": [23.367547, 42.679737]}},
{"type": "Feature", "id": "H6WwKemuUCmpaw8UZzv1ANuMaWE=", "properties": {"ref": "159", "@spider": "a1", "name:bg": "\u04101", "shop": "telecommunication", "addr:full": "\u0431\u0443\u043b.\"\u0410\u043b. \u0421\u0442\u0430\u043c\u0431\u043e\u043b\u0438\u0439\u0441\u043a\u0438\"  \u2116101", "addr:country": "BG", "name": "\u04101 \u043c\u0430\u0433\u0430\u0437\u0438\u043d \u0421\u043e\u0444\u0438\u044f, \u041c\u041e\u041b \u0421\u043e\u0444\u0438\u044f", "phone": "+359882207315", "opening_hours": "Mo-Su 10:00-21:00", "brand": "A1", "brand:wikidata": "Q1941592", "nsi_id": "a1-5ceaa9"}, "geometry": {"type": "Point", "coordinates": [23.308497, 42.698209]}},
{"type": "Feature", "id": "DffTj52_MBpvBTnMq2oX9a1qZJ8=", "properties": {"ref": "418", "@spider": "a1", "name:bg": "\u04101", "shop": "telecommunication", "addr:full": "\u0436\u043a.\u041e\u0432\u0447\u0430 \u043a\u0443\u043f\u0435\u043b, \u0431\u0443\u043b.\u041c\u043e\u043d\u0442\u0435\u0432\u0438\u0434\u0435\u043e 23", "addr:country": "BG", "name": "\u04101 \u043c\u0430\u0433\u0430\u0437\u0438\u043d \u0421\u043e\u0444\u0438\u044f, \u041c\u043e\u043d\u0442\u0435\u0432\u0438\u0434\u0435\u043e 23", "phone": "+359882207547", "opening_hours": "Mo-Fr 09:00-19:00", "brand": "A1", "brand:wikidata": "Q1941592", "nsi_id": "a1-5ceaa9"}, "geometry": {"type": "Point", "coordinates": [23.254216, 42.679345]}},
{"type": "Feature", "id": "O7VqHEJDa2HKHmW1WHgdEGkk0oY=", "properties": {"ref": "7", "@spider": "a1", "name:bg": "\u04101", "shop": "telecommunication", "addr:full": "\u0436.\u043a. \u041d\u0430\u0434\u0435\u0436\u0434\u0430, \u0431\u0443\u043b. \u201d\u041b\u043e\u043c\u0441\u043a\u043e \u0448\u043e\u0441\u0435\u201d \u0431\u043b. 171;", "addr:country": "BG", "name": "\u04101 \u043c\u0430\u0433\u0430\u0437\u0438\u043d \u0421\u043e\u0444\u0438\u044f, \u041d\u0430\u0434\u0435\u0436\u0434\u0430, \u0431\u043b. 171", "phone": "+359882207318", "opening_hours": "Mo-Fr 09:00-19:00", "brand": "A1", "brand:wikidata": "Q1941592", "nsi_id": "a1-5ceaa9"}, "geometry": {"type": "Point", "coordinates": [23.291466, 42.735606]}},
{"type": "Feature", "id": "p5r42Li3RuTjLmxbdJyaydAiLrY=", "properties": {"ref": "198", "@spider": "a1", "name:bg": "\u04101", "shop": "telecommunication", "addr:full": "\u0421\u043e\u0444\u0438\u044f, \u0436\u043a. \u041e\u0431\u0435\u043b\u044f, \u0443\u043b. \u0414\u043c\u0438\u0442\u0440\u0438\u0439 \u041b\u0438\u0445\u0430\u0447\u043e\u0432 58\u0410", "addr:country": "BG", "name": "\u04101 \u043c\u0430\u0433\u0430\u0437\u0438\u043d \u0421\u043e\u0444\u0438\u044f, \u041e\u0431\u0435\u043b\u044f \u041b\u0438\u0445\u0430\u0447\u043e\u0432", "phone": "+35988220735", "opening_hours": "Mo-Fr 09:00-19:00", "brand": "A1", "brand:wikidata": "Q1941592", "nsi_id": "a1-5ceaa9"}, "geometry": {"type": "Point", "coordinates": [23.276889, 42.742518]}},
{"type": "Feature", "id": "GEIpVZsvO2T4WKGuQFN-Rm2nZZg=", "properties": {"ref": "169", "@spider": "a1", "name:bg": "\u04101", "shop": "telecommunication", "addr:full": "\u0436\u043a.\u041e\u0432\u0447\u0430 \u043a\u0443\u043f\u0435\u043b, \u0431\u0443\u043b.\u041c\u043e\u043d\u0442\u0435\u0432\u0438\u0434\u0435\u043e 63", "addr:country": "BG", "name": "\u04101 \u043c\u0430\u0433\u0430\u0437\u0438\u043d \u0421\u043e\u0444\u0438\u044f, \u041e\u0432\u0447\u0430 \u043a\u0443\u043f\u0435\u043b", "phone": "+35988220740", "opening_hours": "Mo-Fr 09:00-19:00", "brand": "A1", "brand:wikidata": "Q1941592", "nsi_id": "a1-5ceaa9"}, "geometry": {"type": "Point", "coordinates": [23.254658, 42.688569]}},
{"type": "Feature", "id": "p5oWhFhtUcyu1GmdOdAgiCjiERU=", "properties": {"ref": "359", "@spider": "a1", "name:bg": "\u04101", "shop": "telecommunication", "addr:full": "\u0436.\u043a. \u041b\u044e\u043b\u0438\u043d-6, \u0431\u0443\u043b. \u0414-\u0440 \u041f\u0435\u0442\u044a\u0440 \u0414\u0435\u0440\u0442\u043b\u0438\u0435\u0432 56 (\u041a\u0430\u0443\u0444\u043b\u0430\u043d\u0434)", "addr:country": "BG", "name": "\u04101 \u043c\u0430\u0433\u0430\u0437\u0438\u043d \u0421\u043e\u0444\u0438\u044f, \u041f\u0435\u0442\u044a\u0440 \u0414\u0435\u0440\u0442\u043b\u0438\u0435\u0432 56 \u041a\u0424", "phone": "+359882207385", "opening_hours": "Mo-Su 08:00-21:00", "brand": "A1", "brand:wikidata": "Q1941592", "nsi_id": "a1-5ceaa9"}, "geometry": {"type": "Point", "coordinates": [23.258436, 42.709415]}},
{"type": "Feature", "id": "k90JdSU66y0IPZueGD96kx9PR98=", "properties": {"ref": "347", "@spider": "a1", "name:bg": "\u04101", "shop": "telecommunication", "addr:full": "\u0421\u043e\u0444\u0438\u044f, \u0443\u043b. \u0420\u0435\u0437\u0431\u0430\u0440\u0441\u043a\u0430 7 (\u041a\u0430\u0443\u0444\u043b\u0430\u043d\u0434)", "addr:country": "BG", "name": "\u04101 \u043c\u0430\u0433\u0430\u0437\u0438\u043d \u0421\u043e\u0444\u0438\u044f, \u0420\u0435\u0437\u0431\u0430\u0440\u0441\u043a\u0430 7 \u041a\u0424", "phone": "+359882207345", "opening_hours": "Mo-Su 08:00-21:00", "brand": "A1", "brand:wikidata": "Q1941592", "nsi_id": "a1-5ceaa9"}, "geometry": {"type": "Point", "coordinates": [23.354164, 42.712931]}},
{"type": "Feature", "id": "lOtx54hEfnEihg1DIwO10krVlgI=", "properties": {"ref": "342", "@spider": "a1", "name:bg": "\u04101", "shop": "telecommunication", "addr:full": "\u0421\u043e\u0444\u0438\u044f, \u0436.\u043a. \u0411\u0430\u043d\u0438\u0448\u043e\u0440\u0430, \u0443\u043b. \u0421\u043a\u043e\u043f\u0438\u0435 1 (\u041a\u0430\u0443\u0444\u043b\u0430\u043d\u0434)", "addr:country": "BG", "name": "\u04101 \u043c\u0430\u0433\u0430\u0437\u0438\u043d \u0421\u043e\u0444\u0438\u044f, \u0443\u043b. \u0421\u043a\u043e\u043f\u0438\u0435 1 \u041a\u0424", "phone": "+359882207645", "opening_hours": "Mo-Su 08:00-21:00", "brand": "A1", "brand:wikidata": "Q1941592", "nsi_id": "a1-5ceaa9"}, "geometry": {"type": "Point", "coordinates": [23.302489, 42.711357]}},
{"type": "Feature", "id": "7k378WZXxUQCpGoghdU4o5xsnLE=", "properties": {"ref": "263", "@spider": "a1", "name:bg": "\u04101", "shop": "telecommunication", "addr:full": "\u0436.\u043a. \u0418\u0437\u0433\u0440\u0435\u0432, \u201e\u041b\u044a\u0447\u0435\u0437\u0430\u0440 \u0421\u0442\u0430\u043d\u0447\u0435\u0432\u201d, \u043f\u043e\u043c\u0435\u0449\u0435\u043d\u0438\u0435 004", "addr:country": "BG", "name": "\u04101 \u043c\u0430\u0433\u0430\u0437\u0438\u043d \u0421\u043e\u0444\u0438\u044f, \u0421\u043e\u0444\u0430\u0440\u043c\u0430", "phone": "+359882207337", "opening_hours": "Mo-Fr 10:00-19:00", "brand": "A1", "brand:wikidata": "Q1941592", "nsi_id": "a1-5ceaa9"}, "geometry": {"type": "Point", "coordinates": [23.356745, 42.665936]}},
{"type": "Feature", "id": "r3S0ktt4smd6Icz4bcuAqC2yKE0=", "properties": {"ref": "420", "@spider": "a1", "name:bg": "\u04101", "shop": "telecommunication", "addr:full": "\u0431\u0443\u043b. \u0426\u0430\u0440\u0438\u0433\u0440\u0430\u0434\u0441\u043a\u043e \u0448\u043e\u0441\u0435 14", "addr:country": "BG", "name": "\u04101 \u043c\u0430\u0433\u0430\u0437\u0438\u043d \u04101 \u043c-\u043d \u0421\u043e\u0444\u0438\u044f, \u041f\u043b\u0438\u0441\u043a\u0430", "phone": "+359882207321", "opening_hours": "Mo-Fr 09:00-19:00", "brand": "A1", "brand:wikidata": "Q1941592", "nsi_id": "a1-5ceaa9"}, "geometry": {"type": "Point", "coordinates": [23.3603378, 42.6739368]}},
{"type": "Feature", "id": "sr2SzKG5msbY62-__qNjYYdEcmk=", "properties": {"ref": "18", "@spider": "a1", "name:bg": "\u04101", "shop": "telecommunication", "addr:full": "\u0436.\u043a. \u0414\u0440\u0443\u0436\u0431\u0430 2, \u0431\u0443\u043b. \u0426\u0432. \u041b\u0430\u0437\u0430\u0440\u043e\u0432, \u0441/\u0443 \u0431\u043b. 209", "addr:country": "BG", "name": "\u04101 \u043c\u0430\u0433\u0430\u0437\u0438\u043d \u0421\u043e\u0444\u0438\u044f, \u0426\u0432. \u041b\u0430\u0437\u0430\u0440\u043e\u0432", "phone": "+359882207336", "opening_hours": "Mo-Fr 09:00-19:00", "brand": "A1", "brand:wikidata": "Q1941592", "nsi_id": "a1-5ceaa9"}, "geometry": {"type": "Point", "coordinates": [23.400474, 42.654617]}},
{"type": "Feature", "id": "Pcn_N66NHhkmS_203vjN2cJEtlw=", "properties": {"ref": "328", "@spider": "a1", "name:bg": "\u04101", "shop": "telecommunication", "addr:full": "\u0443\u043b. \u0422\u043e\u0434\u043e\u0440 \u041a\u0430\u0431\u043b\u0435\u0448\u043a\u043e\u0432 3, \u043c\u0430\u0433\u0430\u0437\u0438\u043d \u041a\u0430\u0443\u0444\u043b\u0430\u043d\u0434", "addr:country": "BG", "name": "\u04101 \u043c\u0430\u0433\u0430\u0437\u0438\u043d \u0421\u043e\u0444\u0438\u044f, \u0411\u044a\u043a\u0441\u0442\u043e\u043d-\u041a\u0424 ", "phone": "+359882207338", "opening_hours": "Mo-Su 08:00-21:00", "brand": "A1", "brand:wikidata": "Q1941592", "nsi_id": "a1-5ceaa9"}, "geometry": {"type": "Point", "coordinates": [23.273312, 42.670649]}},
{"type": "Feature", "id": "RX03LYjS5rjLssHMxOOoqteLV1M=", "properties": {"ref": "9", "@spider": "a1", "name:bg": "\u04101", "shop": "telecommunication", "addr:full": "\u0436.\u043a. \u0414\u0440\u0443\u0436\u0431\u0430 1, \u0443\u043b. \u0418\u0432\u0430\u043d \u0410\u0440\u0430\u0431\u0430\u0434\u0436\u0438\u044f\u0442\u0430, \u043a\u0432. 71\u0430", "addr:country": "BG", "name": "\u04101 \u043c\u0430\u0433\u0430\u0437\u0438\u043d \u0421\u043e\u0444\u0438\u044f, \u0414\u0440\u0443\u0436\u0431\u0430 1, \u043a\u0432. 71\u0430 - \u041c\u0430\u0433\u0430\u0437\u0438\u043d\u044a\u0442 \u0449\u0435 \u0431\u044a\u0434\u0435 \u0432 \u0440\u0435\u043c\u043e\u043d\u0442 \u043e\u0442 29.10.2022 \u0433. \u0434\u043e 22.11.2022 \u0433.  ", "phone": "+359882207306", "opening_hours": "Mo-Fr 09:00-19:00", "brand": "A1", "brand:wikidata": "Q1941592", "nsi_id": "a1-5ceaa9"}, "geometry": {"type": "Point", "coordinates": [23.395728, 42.66786]}},
{"type": "Feature", "id": "2LqqjbtX9XBTQDpnk83Xw0fOG5c=", "properties": {"ref": "12", "@spider": "a1", "name:bg": "\u04101", "shop": "telecommunication", "addr:full": "\u0443\u043b. \u0413. \u0421. \u0420\u0430\u043a\u043e\u0432\u0441\u043a\u0438 153", "addr:country": "BG", "name": "\u04101 \u043c\u0430\u0433\u0430\u0437\u0438\u043d \u0421\u043e\u0444\u0438\u044f, \u0413. \u0420\u0430\u043a\u043e\u0432\u0441\u043a\u0438 153", "phone": "+359882207322", "opening_hours": "Mo-Fr 09:00-19:00", "brand": "A1", "brand:wikidata": "Q1941592", "nsi_id": "a1-5ceaa9"}, "geometry": {"type": "Point", "coordinates": [23.324816, 42.691214]}},
{"type": "Feature", "id": "x2Biw-a5aYRWehOag3_Debn7d7Y=", "properties": {"ref": "191", "@spider": "a1", "name:bg": "\u04101", "shop": "telecommunication", "addr:full": "\u041c\u0435\u0436\u0434\u0443 \u0431\u0443\u043b.\u0412\u044a\u0437\u043a\u0440\u0435\u0441\u0435\u043d\u0438\u0435 \u0438 \u0431\u0443\u043b.\u0412\u0430\u0440\u0434\u0430\u0440", "addr:country": "BG", "name": "\u04101 \u043c\u0430\u0433\u0430\u0437\u0438\u043d \u0421\u043e\u0444\u0438\u044f, \u041a\u0440\u0430\u0441\u043d\u0430 \u043f\u043e\u043b\u044f\u043d\u0430 ", "phone": "+359882207331", "opening_hours": "Mo-Fr 09:00-19:00", "brand": "A1", "brand:wikidata": "Q1941592", "nsi_id": "a1-5ceaa9"}, "geometry": {"type": "Point", "coordinates": [23.287017, 42.695998]}},
{"type": "Feature", "id": "q2XazAEcjUrd6eToqArs1PRYHoI=", "properties": {"ref": "13", "@spider": "a1", "name:bg": "\u04101", "shop": "telecommunication", "addr:full": "\u0443\u043b. \u041b\u0430\u0439\u043e\u0448 \u041a\u043e\u0448\u0443\u0442 33", "addr:country": "BG", "name": "\u04101 \u043c\u0430\u0433\u0430\u0437\u0438\u043d \u0421\u043e\u0444\u0438\u044f, \u041b\u0430\u0439\u043e\u0448 \u041a\u043e\u0448\u0443\u0442 33", "phone": "+359882207308", "opening_hours": "Mo-Fr 09:00-19:00", "brand": "A1", "brand:wikidata": "Q1941592", "nsi_id": "a1-5ceaa9"}, "geometry": {"type": "Point", "coordinates": [23.311959, 42.691358]}},
{"type": "Feature", "id": "KzCf_RD8dMVKZ4HRlcYvBT_obQU=", "properties": {"ref": "228", "@spider": "a1", "name:bg": "\u04101", "shop": "telecommunication", "addr:full": "\u0436\u043a.  \u041c\u043b\u0430\u0434\u043e\u0441\u0442 3 \u0431\u043b. 301", "addr:country": "BG", "name": "\u04101 \u043c\u0430\u0433\u0430\u0437\u0438\u043d \u0421\u043e\u0444\u0438\u044f, \u041c\u043b\u0430\u0434\u043e\u0441\u0442 3, 301", "phone": "+359882207316", "opening_hours": "Mo-Fr 09:00-19:00", "brand": "A1", "brand:wikidata": "Q1941592", "nsi_id": "a1-5ceaa9"}, "geometry": {"type": "Point", "coordinates": [23.379322, 42.644536]}},
{"type": "Feature", "id": "3dELX1vmTJqvi-iQg9RZfr5Z2GI=", "properties": {"ref": "320", "@spider": "a1", "name:bg": "\u04101", "shop": "telecommunication", "addr:full": "\u0431\u0443\u043b. \u0427\u0435\u0440\u043d\u0438 \u0432\u0440\u044a\u0445 \u2116100", "addr:country": "BG", "name": "\u04101 \u043c\u0430\u0433\u0430\u0437\u0438\u043d \u0421\u043e\u0444\u0438\u044f, \u041c\u041e\u041b \u041f\u0430\u0440\u0430\u0434\u0430\u0439\u0437", "phone": "+359882207341", "opening_hours": "Mo-Su 10:00-21:00", "brand": "A1", "brand:wikidata": "Q1941592", "nsi_id": "a1-5ceaa9"}, "geometry": {"type": "Point", "coordinates": [23.315975, 42.657754]}},
{"type": "Feature", "id": "ZODJawpWoovH3oYRNogysuAJ0hk=", "properties": {"ref": "19", "@spider": "a1", "name:bg": "\u04101", "shop": "telecommunication", "addr:full": "\u0431\u0443\u043b. \u0412\u0438\u0442\u043e\u0448\u0430 40", "addr:country": "BG", "name": "\u04101 \u043c\u0430\u0433\u0430\u0437\u0438\u043d \u0421\u043e\u0444\u0438\u044f, \u0412\u0438\u0442\u043e\u0448\u0430 40", "phone": "+359882207304", "opening_hours": "Mo-Fr 09:00-19:00", "brand": "A1", "brand:wikidata": "Q1941592", "nsi_id": "a1-5ceaa9"}, "geometry": {"type": "Point", "coordinates": [23.319458, 42.691159]}},
{"type": "Feature", "id": "-P_eq4AW5V3xtHxOwIjVXdo2QGY=", "properties": {"ref": "170", "@spider": "a1", "name:bg": "\u04101", "shop": "telecommunication", "addr:full": "\u0431\u0443\u043b.\"\u0412\u0438\u0442\u043e\u0448\u0430\" 82", "addr:country": "BG", "name": "\u04101 \u043c\u0430\u0433\u0430\u0437\u0438\u043d \u0421\u043e\u0444\u0438\u044f, \u0412\u0438\u0442\u043e\u0448\u0430 82", "phone": "+359882207303", "opening_hours": "Mo-Fr 09:00-19:00", "brand": "A1", "brand:wikidata": "Q1941592", "nsi_id": "a1-5ceaa9"}, "geometry": {"type": "Point", "coordinates": [23.318323, 42.687759]}},
{"type": "Feature", "id": "hOBMuafNsU8o9EgTh5MgSnn4FaA=", "properties": {"ref": "390", "@spider": "a1", "name:bg": "\u04101", "shop": "telecommunication", "addr:full": "\u0431\u0443\u043b. \"\u0418\u0432\u0430\u043d \u0412\u0430\u0437\u043e\u0432\" 38", "addr:country": "BG", "name": "\u04101 \u043c\u0430\u0433\u0430\u0437\u0438\u043d \u0421\u043e\u043f\u043e\u0442, \u0418\u0432\u0430\u043d \u0412\u0430\u0437\u043e\u0432 38", "phone": "+359882207418", "opening_hours": "Mo-Fr 09:00-18:00", "brand": "A1", "brand:wikidata": "Q1941592", "nsi_id": "a1-5ceaa9"}, "geometry": {"type": "Point", "coordinates": [24.756339, 42.653564]}},
{"type": "Feature", "id": "lewj9LKY3ddEiAg0qreVR7Axr7I=", "properties": {"ref": "387", "@spider": "a1", "name:bg": "\u04101", "shop": "telecommunication", "addr:full": "\u0443\u043b. \u0420\u0435\u043f\u0443\u0431\u043b\u0438\u043a\u0430\u043d\u0441\u043a\u0430, \u0441\u0440\u0435\u0449\u0443 \u041e\u0431\u0449\u0438\u043d\u0430\u0442\u0430", "addr:country": "BG", "name": "\u04101 \u043c\u0430\u0433\u0430\u0437\u0438\u043d \u0421\u043e\u0437\u043e\u043f\u043e\u043b, \u0420\u0435\u043f\u0443\u0431\u043b\u0438\u043a\u0430\u043d\u0441\u043a\u0430", "phone": "+359882207438", "opening_hours": "Mo-Fr 09:00-18:00", "brand": "A1", "brand:wikidata": "Q1941592", "nsi_id": "a1-5ceaa9"}, "geometry": {"type": "Point", "coordinates": [27.694592, 42.418652]}},
{"type": "Feature", "id": "d14GbsOsOv5s_G9cH2K_h5cFRyI=", "properties": {"ref": "338", "@spider": "a1", "name:bg": "\u04101", "shop": "telecommunication", "addr:full": "\u0426\u0430\u0440 \u0421\u0438\u043c\u0435\u043e\u043d \u0412\u0435\u043b\u0438\u043a\u0438 117", "addr:country": "BG", "name": "\u04101 \u043c\u0430\u0433\u0430\u0437\u0438\u043d \u0421\u0442. \u0417\u0430\u0433\u043e\u0440\u0430, \u0421. \u0412\u0435\u043b\u0438\u043a\u0438 117 ", "phone": "+359882207397", "opening_hours": "Mo-Fr 09:00-19:00", "brand": "A1", "brand:wikidata": "Q1941592", "nsi_id": "a1-5ceaa9"}, "geometry": {"type": "Point", "coordinates": [25.631063, 42.425507]}},
{"type": "Feature", "id": "O_glVh2o7LGirajyr8PjyKzwP9Y=", "properties": {"ref": "43", "@spider": "a1", "name:bg": "\u04101", "shop": "telecommunication", "addr:full": "\u0431\u0443\u043b. \u0421\u0438\u043c\u0435\u043e\u043d \u0412\u0435\u043b\u0438\u043a\u0438 55", "addr:country": "BG", "name": "\u04101 \u043c\u0430\u0433\u0430\u0437\u0438\u043d \u0421\u0442. \u0417\u0430\u0433\u043e\u0440\u0430, \u0421. \u0412\u0435\u043b\u0438\u043a\u0438 55", "phone": "+359882207396", "opening_hours": "Mo-Fr 09:00-19:00", "brand": "A1", "brand:wikidata": "Q1941592", "nsi_id": "a1-5ceaa9"}, "geometry": {"type": "Point", "coordinates": [25.616368, 42.422652]}},
{"type": "Feature", "id": "vhV9x8suPyhxp2nFtSCrp5JA0UM=", "properties": {"ref": "123", "@spider": "a1", "name:bg": "\u04101", "shop": "telecommunication", "addr:full": "\u0431\u0443\u043b. \u0426\u0430\u0440 \u0421\u0438\u043c\u0435\u043e\u043d \u0412\u0435\u043b\u0438\u043a\u0438 105", "addr:country": "BG", "name": "\u04101 \u043c\u0430\u0433\u0430\u0437\u0438\u043d \u0421\u0442. \u0417\u0430\u0433\u043e\u0440\u0430, \u0421. \u0412\u0435\u043b\u0438\u043a\u0438 105 ", "phone": "+359882207395", "opening_hours": "Mo-Fr 09:00-19:00", "brand": "A1", "brand:wikidata": "Q1941592", "nsi_id": "a1-5ceaa9"}, "geometry": {"type": "Point", "coordinates": [25.625026, 42.424207]}},
{"type": "Feature", "id": "FnUl8r6eNy0jp56Ser9MBBaK68o=", "properties": {"ref": "153", "@spider": "a1", "name:bg": "\u04101", "shop": "telecommunication", "addr:full": "\u0431\u0443\u043b. \u0422\u044a\u0440\u0433\u043e\u0432\u0441\u043a\u0438, \u0426\u0435\u043d\u0442\u0440\u0430\u043b\u043d\u0430 \u0442\u044a\u0440\u0433\u043e\u0432\u0441\u043a\u0430 \u0437\u043e\u043d\u0430", "addr:country": "BG", "name": "\u04101 \u043c\u0430\u0433\u0430\u0437\u0438\u043d \u0421\u0442\u0430\u043c\u0431\u043e\u043b\u0438\u0439\u0441\u043a\u0438, \u0422\u044a\u0440\u0433\u043e\u0432\u0441\u043a\u0438", "phone": "+359882207384", "opening_hours": "Mo-Fr 09:00-18:30", "brand": "A1", "brand:wikidata": "Q1941592", "nsi_id": "a1-5ceaa9"}, "geometry": {"type": "Point", "coordinates": [24.53534, 42.132756]}},
{"type": "Feature", "id": "9UGdaSW7ICKXOi9k7gqOZcsyz-s=", "properties": {"ref": "15", "@spider": "a1", "name:bg": "\u04101", "shop": "telecommunication", "addr:full": "\u0443\u043b. \u041a\u043d\u044f\u0437 \u0411\u043e\u0440\u0438\u0441 108", "addr:country": "BG", "name": "\u04101 \u043c\u0430\u0433\u0430\u0437\u0438\u043d \u0421\u0442. \u0417\u0430\u0433\u043e\u0440\u0430, \u041a\u043d\u044f\u0437 \u0411\u043e\u0440\u0438\u0441 108", "phone": "+359882207333", "opening_hours": "Mo-Fr 09:00-19:30", "brand": "A1", "brand:wikidata": "Q1941592", "nsi_id": "a1-5ceaa9"}, "geometry": {"type": "Point", "coordinates": [25.630453, 42.42606]}},
{"type": "Feature", "id": "FFcptUGl3q_6yByL-9nmYwJ9ezQ=", "properties": {"ref": "49", "@spider": "a1", "name:bg": "\u04101", "shop": "telecommunication", "addr:full": "\u0431\u0443\u043b. \u0411\u044a\u043b\u0433\u0430\u0440\u0438\u044f 86", "addr:country": "BG", "name": "\u04101 \u043c\u0430\u0433\u0430\u0437\u0438\u043d \u0421\u0432\u0438\u043b\u0435\u043d\u0433\u0440\u0430\u0434, \u0411\u044a\u043b\u0433\u0430\u0440\u0438\u044f 86", "phone": "+35988220741", "opening_hours": "Mo-Fr 09:00-19:00", "brand": "A1", "brand:wikidata": "Q1941592", "nsi_id": "a1-5ceaa9"}, "geometry": {"type": "Point", "coordinates": [26.201018, 41.765864]}},
{"type": "Feature", "id": "coD1KS6T3IfpdPNmVqk2jvO67O4=", "properties": {"ref": "79", "@spider": "a1", "name:bg": "\u04101", "shop": "telecommunication", "addr:full": "\u0443\u043b. \u0426\u0430\u0440 \u041e\u0441\u0432\u043e\u0431\u043e\u0434\u0438\u0442\u0435\u043b 88", "addr:country": "BG", "name": "\u04101 \u043c\u0430\u0433\u0430\u0437\u0438\u043d \u0421\u0432\u0438\u0449\u043e\u0432, \u041e\u0441\u0432\u043e\u0431\u043e\u0434\u0438\u0442\u0435\u043b 88", "phone": "+359882207491", "opening_hours": "Mo-Fr 09:00-18:00", "brand": "A1", "brand:wikidata": "Q1941592", "nsi_id": "a1-5ceaa9"}, "geometry": {"type": "Point", "coordinates": [25.34817, 43.616569]}},
{"type": "Feature", "id": "hsnl3Oy4R8T1g1jrxAFg0L5x3yY=", "properties": {"ref": "151", "@spider": "a1", "name:bg": "\u04101", "shop": "telecommunication", "addr:full": "\u0443\u043b.\u0426\u0430\u0440 \u0421\u0438\u043c\u0435\u043e\u043d 33", "addr:country": "BG", "name": "\u04101 \u043c\u0430\u0433\u0430\u0437\u0438\u043d \u0421\u0432\u043e\u0433\u0435, \u0426\u0430\u0440 \u0421\u0438\u043c\u0435\u043e\u043d 33", "phone": "+359882207545", "opening_hours": "Mo-Fr 09:00-18:00", "brand": "A1", "brand:wikidata": "Q1941592", "nsi_id": "a1-5ceaa9"}, "geometry": {"type": "Point", "coordinates": [23.34726, 42.959959]}},
{"type": "Feature", "id": "be-upKN_DWe--BpNx56NHkWsYKI=", "properties": {"ref": "86", "@spider": "a1", "name:bg": "\u04101", "shop": "telecommunication", "addr:full": "\u0443\u043b.\"\u0412\u0430\u0441\u0438\u043b \u041b\u0435\u0432\u0441\u043a\u0438\"  28", "addr:country": "BG", "name": "\u04101 \u043c\u0430\u0433\u0430\u0437\u0438\u043d \u0422\u044a\u0440\u0433\u043e\u0432\u0438\u0449\u0435, \u0412. \u041b\u0435\u0432\u0441\u043a\u0438 28", "phone": "+359882207507", "opening_hours": "Mo-Fr 09:00-18:00", "brand": "A1", "brand:wikidata": "Q1941592", "nsi_id": "a1-5ceaa9"}, "geometry": {"type": "Point", "coordinates": [26.572639, 43.247587]}},
{"type": "Feature", "id": "hu0hV3JA7yp7J81_LP9Nwg5FC20=", "properties": {"ref": "154", "@spider": "a1", "name:bg": "\u04101", "shop": "telecommunication", "addr:full": "\u0443\u043b. \u0425\u0430\u043d \u0410\u0441\u043f\u0430\u0440\u0443\u0445 43", "addr:country": "BG", "name": "\u04101 \u043c\u0430\u0433\u0430\u0437\u0438\u043d \u0422\u0435\u0440\u0432\u0435\u043b, \u0425\u0430\u043d \u0410\u0441\u043f\u0430\u0440\u0443\u0445 43 ", "phone": "+359882207460", "opening_hours": "Mo-Fr 09:00-19:00", "brand": "A1", "brand:wikidata": "Q1941592", "nsi_id": "a1-5ceaa9"}, "geometry": {"type": "Point", "coordinates": [27.409663, 43.746682]}},
{"type": "Feature", "id": "7kXXqh6aUXiVqE2kbPqSmH0LnW0=", "properties": {"ref": "126", "@spider": "a1", "name:bg": "\u04101", "shop": "telecommunication", "addr:full": "\u0443\u043b. \u0418\u0432\u0430\u043d \u0412\u0430\u0437\u043e\u0432 2", "addr:country": "BG", "name": "\u04101 \u043c\u0430\u0433\u0430\u0437\u0438\u043d \u0422\u0435\u0442\u0435\u0432\u0435\u043d, \u0418\u0432\u0430\u043d \u0412\u0430\u0437\u043e\u0432 2", "phone": "+359882207493", "opening_hours": "Mo-Fr 09:00-18:00", "brand": "A1", "brand:wikidata": "Q1941592", "nsi_id": "a1-5ceaa9"}, "geometry": {"type": "Point", "coordinates": [24.261501, 42.918256]}},
{"type": "Feature", "id": "VnhHsClzXM64eMTU_Tt7ECye5uM=", "properties": {"ref": "345", "@spider": "a1", "name:bg": "\u04101", "shop": "telecommunication", "addr:full": "\u0443\u043b. \u0412\u0430\u0441\u0438\u043b \u041b\u0435\u0432\u0441\u043a\u0438, \u2116 68", "addr:country": "BG", "name": "\u04101 \u043c\u0430\u0433\u0430\u0437\u0438\u043d \u0422\u0440\u043e\u044f\u043d, \u0412. \u041b\u0435\u0432\u0441\u043a\u0438 68", "phone": "+359882207494", "opening_hours": "Mo-Fr 09:00-18:00", "brand": "A1", "brand:wikidata": "Q1941592", "nsi_id": "a1-5ceaa9"}, "geometry": {"type": "Point", "coordinates": [24.712582, 42.886666]}},
{"type": "Feature", "id": "sh2BnJDboDwREt38JwJj8tXoKp8=", "properties": {"ref": "404", "@spider": "a1", "name:bg": "\u04101", "shop": "telecommunication", "addr:full": "\u0443\u043b. \u0410\u043d\u0433\u0435\u043b \u041a\u044a\u043d\u0447\u0435\u0432 28", "addr:country": "BG", "name": "\u04101 \u043c\u0430\u0433\u0430\u0437\u0438\u043d \u0422\u0440\u044f\u0432\u043d\u0430, \u0410\u043d\u0433\u0435\u043b \u041a\u044a\u043d\u0447\u0435\u0432 28", "opening_hours": "Mo-Fr 09:00-18:00", "brand": "A1", "brand:wikidata": "Q1941592", "nsi_id": "a1-5ceaa9"}, "geometry": {"type": "Point", "coordinates": [25.491279, 42.866115]}},
{"type": "Feature", "id": "_kMJBgXZDsVG4KxYo4ZOPEGosmk=", "properties": {"ref": "155", "@spider": "a1", "name:bg": "\u04101", "shop": "telecommunication", "addr:full": "\u0443\u043b. \u0413\u0435\u043e \u041c\u0438\u043b\u0435\u0432 1", "addr:country": "BG", "name": "\u04101 \u043c\u0430\u0433\u0430\u0437\u0438\u043d \u0422\u0443\u0442\u0440\u0430\u043a\u0430\u043d, \u0413\u0435\u043e \u041c\u0438\u043b\u0435\u0432 1", "phone": "+359882207506", "opening_hours": "Mo-Fr 09:00-18:00", "brand": "A1", "brand:wikidata": "Q1941592", "nsi_id": "a1-5ceaa9"}, "geometry": {"type": "Point", "coordinates": [26.616826, 44.046068]}},
{"type": "Feature", "id": "JY-Srlpi5Uw0rlYviihICaAHn3Y=", "properties": {"ref": "73", "@spider": "a1", "name:bg": "\u04101", "shop": "telecommunication", "addr:full": "\u0443\u043b. \u041d\u0438\u043a\u043e\u043b\u0430 \u0413\u0430\u0431\u0440\u043e\u0432\u0441\u043a\u0438 32", "addr:country": "BG", "name": "\u04101 \u043c\u0430\u0433\u0430\u0437\u0438\u043d \u0412. \u0422\u044a\u0440\u043d\u043e\u0432\u043e, \u0413\u0430\u0431\u0440\u043e\u0432\u0441\u043a\u0438 32", "phone": "+359882207480", "opening_hours": "Mo-Fr 09:00-19:00", "brand": "A1", "brand:wikidata": "Q1941592", "nsi_id": "a1-5ceaa9"}, "geometry": {"type": "Point", "coordinates": [25.621359, 43.075504]}},
{"type": "Feature", "id": "4528olHLQHicaOI0v4xdtECwo7Q=", "properties": {"ref": "74", "@spider": "a1", "name:bg": "\u04101", "shop": "telecommunication", "addr:full": "\u0443\u043b. \u0412\u0430\u0441\u0438\u043b \u041b\u0435\u0432\u0441\u043a\u0438 6", "addr:country": "BG", "name": "\u04101 \u043c\u0430\u0433\u0430\u0437\u0438\u043d \u0412. \u0422\u044a\u0440\u043d\u043e\u0432\u043e, \u0412. \u041b\u0435\u0432\u0441\u043a\u0438 6", "phone": "+359882207481", "opening_hours": "Mo-Fr 09:00-19:00", "brand": "A1", "brand:wikidata": "Q1941592", "nsi_id": "a1-5ceaa9"}, "geometry": {"type": "Point", "coordinates": [25.629949, 43.080443]}},
{"type": "Feature", "id": "X1W1C2iyztuGY1S_W8Ux8aVvKUY=", "properties": {"ref": "162", "@spider": "a1", "name:bg": "\u04101", "shop": "telecommunication", "addr:full": "\u0443\u043b. \u041e\u0431\u043e\u0440\u0438\u0449\u0435 18", "addr:country": "BG", "name": "\u04101 \u043c\u0430\u0433\u0430\u0437\u0438\u043d \u0412\u0435\u043b\u0438\u043a\u043e \u0422\u044a\u0440\u043d\u043e\u0432\u043e, \u041c\u041e\u041b \u0412\u0435\u043b\u0438\u043a\u043e \u0422\u044a\u0440\u043d\u043e\u0432\u043e", "phone": "+359882207482", "opening_hours": "Mo-Sa 10:00-20:00; Su 10:00-21:00", "brand": "A1", "brand:wikidata": "Q1941592", "nsi_id": "a1-5ceaa9"}, "geometry": {"type": "Point", "coordinates": [25.599829, 43.07917]}},
{"type": "Feature", "id": "lVecJuWWUwrx7n3JKWZwf9Nfb8o=", "properties": {"ref": "367", "@spider": "a1", "name:bg": "\u04101", "shop": "telecommunication", "addr:full": "\u0431\u0443\u043b. \u041e\u0441\u043c\u0438 \u041f\u0440\u0438\u043c\u043e\u0440\u0441\u043a\u0438 \u043f\u043e\u043b\u043a 57A", "addr:country": "BG", "name": "\u04101 \u043c\u0430\u0433\u0430\u0437\u0438\u043d \u0412\u0430\u0440\u043d\u0430, 8 \u041f\u0440\u0438\u043c. \u043f\u043e\u043b\u043a 57\u0410 ", "phone": "+359882207605", "opening_hours": "Mo-Fr 09:00-19:00", "brand": "A1", "brand:wikidata": "Q1941592", "nsi_id": "a1-5ceaa9"}, "geometry": {"type": "Point", "coordinates": [27.919454, 43.209157]}},
{"type": "Feature", "id": "327Rpwbuea9rdRx14LwBQt1Jd8Q=", "properties": {"ref": "369", "@spider": "a1", "name:bg": "\u04101", "shop": "telecommunication", "addr:full": "\u0431\u0443\u043b. \u0427\u0430\u0442\u0430\u043b\u0434\u0436\u0430 35", "addr:country": "BG", "name": "\u04101 \u043c\u0430\u0433\u0430\u0437\u0438\u043d \u0412\u0430\u0440\u043d\u0430, \u0431\u0443\u043b. \u0427\u0430\u0442\u0430\u043b\u0434\u0436\u0430 35", "phone": "+35988220756", "opening_hours": "Mo-Fr 09:00-19:00", "brand": "A1", "brand:wikidata": "Q1941592", "nsi_id": "a1-5ceaa9"}, "geometry": {"type": "Point", "coordinates": [27.923698, 43.212737]}},
{"type": "Feature", "id": "SE9DLoj00nXKSSysdq2db_5jDD4=", "properties": {"ref": "370", "@spider": "a1", "name:bg": "\u04101", "shop": "telecommunication", "addr:full": "\u0412\u0430\u0440\u043d\u0430, \u0443\u043b. \u0414\u0440\u0438\u043d 53", "addr:country": "BG", "name": "\u04101 \u043c\u0430\u0433\u0430\u0437\u0438\u043d \u0412\u0430\u0440\u043d\u0430, \u0443\u043b. \u0414\u0440\u0438\u043d 53", "phone": "+359882207561", "opening_hours": "Mo-Fr 09:00-19:00", "brand": "A1", "brand:wikidata": "Q1941592", "nsi_id": "a1-5ceaa9"}, "geometry": {"type": "Point", "coordinates": [27.903885, 43.208882]}},
{"type": "Feature", "id": "z85WKhf4Ir_Gzl9Xe_0ksx35udc=", "properties": {"ref": "423", "@spider": "a1", "name:bg": "\u04101", "shop": "telecommunication", "addr:full": "\u0443\u043b. \u041a\u043d\u044f\u0437 \u0411\u043e\u0440\u0438\u0441 I 53", "addr:country": "BG", "name": "\u04101 \u043c\u0430\u0433\u0430\u0437\u0438\u043d \u0412\u0430\u0440\u043d\u0430, \u041a\u043d\u044f\u0437 \u0411\u043e\u0440\u0438\u0441 I 53", "phone": "+359882207444", "opening_hours": "Mo-Fr 09:00-19:00", "brand": "A1", "brand:wikidata": "Q1941592", "nsi_id": "a1-5ceaa9"}, "geometry": {"type": "Point", "coordinates": [27.91936, 43.20555]}},
{"type": "Feature", "id": "Ng_pXH3G7RWIXywiIx0dcAPZy5c=", "properties": {"ref": "410", "@spider": "a1", "name:bg": "\u04101", "shop": "telecommunication", "addr:full": "\u0431\u0443\u043b. \u0421\u043b\u0438\u0432\u043d\u0438\u0446\u0430 \u2116185", "addr:country": "BG", "name": "\u04101 \u043c\u0430\u0433\u0430\u0437\u0438\u043d \u0412\u0430\u0440\u043d\u0430, \u041c\u043e\u043b \u0414\u0435\u043b\u0442\u0430 \u041f\u043b\u0430\u043d\u0435\u0442", "phone": "+359882207352", "opening_hours": "Mo-Fr 10:00-21:00; Sa-Su 10:00-20:00", "brand": "A1", "brand:wikidata": "Q1941592", "nsi_id": "a1-5ceaa9"}, "geometry": {"type": "Point", "coordinates": [27.874879, 43.22798]}},
{"type": "Feature", "id": "KTMUe2oHMWpahwsT7fr4bIrUWuU=", "properties": {"ref": "249", "@spider": "a1", "name:bg": "\u04101", "shop": "telecommunication", "addr:full": "\u0443\u043b. \u0410\u043a\u0430\u0434. \u0410\u043d\u0434\u0440\u0435\u0439 \u0421\u0430\u0445\u0430\u0440\u043e\u0432 2 \u0422\u041a \u0413\u0440\u0430\u043d\u0434 \u041c\u041e\u041b", "addr:country": "BG", "name": "\u04101 \u043c\u0430\u0433\u0430\u0437\u0438\u043d \u0412\u0430\u0440\u043d\u0430, \u041c\u041e\u041b \u0413\u0440\u0430\u043d\u0434 \u041c\u041e\u041b", "phone": "+359882207464", "opening_hours": "Mo-Su 10:00-21:00", "brand": "A1", "brand:wikidata": "Q1941592", "nsi_id": "a1-5ceaa9"}, "geometry": {"type": "Point", "coordinates": [27.898022, 43.218322]}},
{"type": "Feature", "id": "5mpsK21uxO14GobLA4AV4okKq-M=", "properties": {"ref": "131", "@spider": "a1", "name:bg": "\u04101", "shop": "telecommunication", "addr:full": "\u0443\u043b. \u041d\u0430\u0440\u043e\u0434\u043d\u0438 \u0431\u0443\u0434\u0438\u0442\u0435\u043b\u0438 1", "addr:country": "BG", "name": "\u04101 \u043c\u0430\u0433\u0430\u0437\u0438\u043d \u0412\u0430\u0440\u043d\u0430, \u041d\u0430\u0440. \u0431\u0443\u0434\u0438\u0442\u0435\u043b\u0438 1", "phone": "+359882207446", "opening_hours": "Mo-Fr 09:00-19:00", "brand": "A1", "brand:wikidata": "Q1941592", "nsi_id": "a1-5ceaa9"}, "geometry": {"type": "Point", "coordinates": [27.896737, 43.180474]}},
{"type": "Feature", "id": "c6zRnFD_g5qHZya415eWQAUTtPs=", "properties": {"ref": "393", "@spider": "a1", "name:bg": "\u04101", "shop": "telecommunication", "addr:full": "\u0431\u0443\u043b. \u0420\u0435\u043f\u0443\u0431\u043b\u0438\u043a\u0430 60 (\u041a\u0430\u0443\u0444\u043b\u0430\u043d\u0434)", "addr:country": "BG", "name": "\u04101 \u043c\u0430\u0433\u0430\u0437\u0438\u043d \u0412\u0430\u0440\u043d\u0430, \u0420\u0435\u043f\u0443\u0431\u043b\u0438\u043a\u0430 60 \u041a\u0424", "phone": "+359882207320", "opening_hours": "Mo-Su 08:00-20:00", "brand": "A1", "brand:wikidata": "Q1941592", "nsi_id": "a1-5ceaa9"}, "geometry": {"type": "Point", "coordinates": [27.88147, 43.235282]}},
{"type": "Feature", "id": "nqZfaUPMw5_AhmRvbce8IidNsWU=", "properties": {"ref": "195", "@spider": "a1", "name:bg": "\u04101", "shop": "telecommunication", "addr:full": "\u0443\u043b. \u0421\u043e\u0444\u0440\u043e\u043d\u0438\u0439 \u0412\u0440\u0430\u0447\u0430\u043d\u0441\u043a\u0438 30", "addr:country": "BG", "name": "\u04101 \u043c\u0430\u0433\u0430\u0437\u0438\u043d \u0412\u0430\u0440\u043d\u0430, \u0421. \u0412\u0440\u0430\u0447\u0430\u043d\u0441\u043a\u0438 30", "phone": "+359882207463", "opening_hours": "Mo-Fr 09:00-19:00", "brand": "A1", "brand:wikidata": "Q1941592", "nsi_id": "a1-5ceaa9"}, "geometry": {"type": "Point", "coordinates": [27.913435, 43.198887]}},
{"type": "Feature", "id": "_TBntlLBx-CNv2BC9zA2mg6o-Do=", "properties": {"ref": "90", "@spider": "a1", "name:bg": "\u04101", "shop": "telecommunication", "addr:full": "\u0436\u043a. \u0412\u043b. \u0412\u0430\u0440\u043d\u0435\u043d\u0447\u0438\u043a \u0431\u0443\u043b.\"\u041a\u043e\u043d\u0441\u0442\u0430\u043d\u0442\u0438\u043d \u0438 \u0424\u0440\u0443\u0436\u0438\u043d\"420 \u043a-\u0441 \u041f\u0438\u043a\u0430\u0434\u0438\u043b\u0438", "addr:country": "BG", "name": "\u04101 \u043c\u0430\u0433\u0430\u0437\u0438\u043d \u0412\u0430\u0440\u043d\u0430, \u0412\u0430\u0440\u043d\u0435\u043d\u0447\u0438\u043a \u041f\u0438\u043a\u0430\u0434-\u0438", "phone": "+359882207454", "opening_hours": "Mo-Fr 09:00-19:00; Sa 10:00-17:00", "brand": "A1", "brand:wikidata": "Q1941592", "nsi_id": "a1-5ceaa9"}, "geometry": {"type": "Point", "coordinates": [27.848527, 43.243243]}},
{"type": "Feature", "id": "hBOpygTInGcjg2i0Xiun-Ks_PLY=", "properties": {"ref": "94", "@spider": "a1", "name:bg": "\u04101", "shop": "telecommunication", "addr:full": "\u0443\u043b. \u201e\u0426\u0430\u0440 \u0411\u043e\u0440\u0438\u0441 III\u201c 28", "addr:country": "BG", "name": "\u04101 \u043c\u0430\u0433\u0430\u0437\u0438\u043d \u0412\u0430\u0440\u043d\u0430, \u0412\u0438\u043d\u0438\u0446\u0430", "phone": "+359882207449", "opening_hours": "Mo-Fr 09:00-19:00", "brand": "A1", "brand:wikidata": "Q1941592", "nsi_id": "a1-5ceaa9"}, "geometry": {"type": "Point", "coordinates": [27.980638, 43.244792]}},
{"type": "Feature", "id": "4EAyQOjEhc2WgnTiOiHbnXDOJu0=", "properties": {"ref": "93", "@spider": "a1", "name:bg": "\u04101", "shop": "telecommunication", "addr:full": "\u0431\u0443\u043b. \u0412\u043b\u0430\u0434\u0438\u0441\u043b\u0430\u0432 \u0412\u0430\u0440\u043d\u0435\u043d\u0447\u0438\u043a 48", "addr:country": "BG", "name": "\u04101 \u043c\u0430\u0433\u0430\u0437\u0438\u043d \u0412\u0430\u0440\u043d\u0430, \u0412\u043b. \u0412\u0430\u0440\u043d\u0435\u043d\u0447\u0438\u043a 48", "phone": "+359882207450", "opening_hours": "Mo-Fr 09:00-19:00", "brand": "A1", "brand:wikidata": "Q1941592", "nsi_id": "a1-5ceaa9"}, "geometry": {"type": "Point", "coordinates": [27.909189, 43.209474]}},
{"type": "Feature", "id": "JpaLjWP1V2Fwl4gbDNt9V6-q2C8=", "properties": {"ref": "132", "@spider": "a1", "name:bg": "\u04101", "shop": "telecommunication", "addr:full": "\u0443\u043b. \u042f\u043d \u041f\u0430\u043b\u0430\u0445 10", "addr:country": "BG", "name": "\u04101 \u043c\u0430\u0433\u0430\u0437\u0438\u043d \u0412\u0430\u0440\u043d\u0430, \u042f\u043d \u041f\u0430\u043b\u0430\u0445 10", "phone": "+359882207445", "opening_hours": "Mo-Fr 09:00-19:00", "brand": "A1", "brand:wikidata": "Q1941592", "nsi_id": "a1-5ceaa9"}, "geometry": {"type": "Point", "coordinates": [27.914667, 43.219737]}},
{"type": "Feature", "id": "XzgrhykXXC2J1Ge_i17BlAl9wIo=", "properties": {"ref": "35", "@spider": "a1", "name:bg": "\u04101", "shop": "telecommunication", "addr:full": "\u0431\u0443\u043b. \u0421\u044a\u0435\u0434\u0438\u043d\u0435\u043d\u0438\u0435 85", "addr:country": "BG", "name": "\u04101 \u043c\u0430\u0433\u0430\u0437\u0438\u043d \u0412\u0435\u043b\u0438\u043d\u0433\u0440\u0430\u0434, \u0421\u044a\u0435\u0434\u0438\u043d\u0435\u043d\u0438\u0435 85", "phone": "+359882207362", "opening_hours": "Mo-Fr 09:00-19:00", "brand": "A1", "brand:wikidata": "Q1941592", "nsi_id": "a1-5ceaa9"}, "geometry": {"type": "Point", "coordinates": [23.991077, 42.025036]}},
{"type": "Feature", "id": "OfvHFVGC21MK-5e5O294LEZ2hsA=", "properties": {"ref": "102", "@spider": "a1", "name:bg": "\u04101", "shop": "telecommunication", "addr:full": "\u0443\u043b. \u0416\u0435\u043b\u0435\u0437\u043d\u0438\u0447\u0430\u0440\u0441\u043a\u0430 2", "addr:country": "BG", "name": "\u04101 \u043c\u0430\u0433\u0430\u0437\u0438\u043d \u0412\u0438\u0434\u0438\u043d, \u0416\u0435\u043b\u0435\u0437\u043d\u0438\u0447\u0430\u0440\u0441\u043a\u0430 2", "phone": "+359882207537", "opening_hours": "Mo-Fr 09:00-19:00", "brand": "A1", "brand:wikidata": "Q1941592", "nsi_id": "a1-5ceaa9"}, "geometry": {"type": "Point", "coordinates": [22.875676, 43.985259]}},
{"type": "Feature", "id": "isYs_QirEyQtjh3hHjUHPZ_bAGc=", "properties": {"ref": "361", "@spider": "a1", "name:bg": "\u04101", "shop": "telecommunication", "addr:full": "\u0412\u0438\u0434\u0438\u043d, \u041f\u0430\u043d\u043e\u043d\u0438\u044f 41 (\u041a\u0430\u0443\u0444\u043b\u0430\u043d\u0434)", "addr:country": "BG", "name": "\u04101 \u043c\u0430\u0433\u0430\u0437\u0438\u043d \u0412\u0438\u0434\u0438\u043d, \u041f\u0430\u043d\u043e\u043d\u0438\u044f 41 \u041a\u0424", "phone": "+359882207339", "opening_hours": "Mo-Su 08:00-20:00", "brand": "A1", "brand:wikidata": "Q1941592", "nsi_id": "a1-5ceaa9"}, "geometry": {"type": "Point", "coordinates": [22.870034, 44.000338]}},
{"type": "Feature", "id": "eGt7lqNfW7-hT00BjbjcrgUmxd4=", "properties": {"ref": "99", "@spider": "a1", "name:bg": "\u04101", "shop": "telecommunication", "addr:full": "\u0443\u043b. \u041d. \u0412\u043e\u0439\u0432\u043e\u0434\u043e\u0432 10", "addr:country": "BG", "name": "\u04101 \u043c\u0430\u0433\u0430\u0437\u0438\u043d \u0412\u0440\u0430\u0446\u0430, \u041d. \u0412\u043e\u0439\u0432\u043e\u0434\u043e\u0432 10", "phone": "+359882207538", "opening_hours": "Mo-Fr 09:00-19:00", "brand": "A1", "brand:wikidata": "Q1941592", "nsi_id": "a1-5ceaa9"}, "geometry": {"type": "Point", "coordinates": [23.551711, 43.204621]}},
{"type": "Feature", "id": "1un0GLmfH_igLutrt--NoFuaAJU=", "properties": {"ref": "376", "@spider": "a1", "name:bg": "\u04101", "shop": "telecommunication", "addr:full": "\u0443\u043b. \u041e\u0431\u043e\u0440\u0438\u0449\u0435 7 (\u041a\u0430\u0443\u0444\u043b\u0430\u043d\u0434)", "addr:country": "BG", "name": "\u04101 \u043c\u0430\u0433\u0430\u0437\u0438\u043d \u0412\u0440\u0430\u0446\u0430, \u041e\u0431\u043e\u0440\u0438\u0449\u0435 7 \u041a\u0424", "phone": "+359882207570", "opening_hours": "Mo-Su 08:00-20:00", "brand": "A1", "brand:wikidata": "Q1941592", "nsi_id": "a1-5ceaa9"}, "geometry": {"type": "Point", "coordinates": [23.545188, 43.208162]}},
{"type": "Feature", "id": "ZU2_QJMPPI7O4L-euOgbHm6FEv0=", "properties": {"ref": "318", "@spider": "a1", "name:bg": "\u04101", "shop": "telecommunication", "addr:full": "\u0443\u043b. \u0422\u044a\u0440\u0433\u043e\u0432\u0441\u043a\u0430 2", "addr:country": "BG", "name": "\u04101 \u043c\u0430\u0433\u0430\u0437\u0438\u043d \u042f\u043c\u0431\u043e\u043b, \u0422\u044a\u0440\u0433\u043e\u0432\u0441\u043a\u0430 2", "phone": "+359882207441", "opening_hours": "Mo-Fr 09:00-19:00", "brand": "A1", "brand:wikidata": "Q1941592", "nsi_id": "a1-5ceaa9"}, "geometry": {"type": "Point", "coordinates": [26.506411, 42.48313]}},
{"type": "Feature", "id": "LRfRRRZnk830utMXuIsJFIA5iAk=", "properties": {"ref": "140", "@spider": "a1", "name:bg": "\u04101", "shop": "telecommunication", "addr:full": "\u0431\u0443\u043b.\u0411\u044a\u043b\u0433\u0430\u0440\u0438\u044f 19", "addr:country": "BG", "name": "\u04101 \u043c\u0430\u0433\u0430\u0437\u0438\u043d \u0417\u043b\u0430\u0442\u043e\u0433\u0440\u0430\u0434, \u0411\u044a\u043b\u0433\u0430\u0440\u0438\u044f 19", "phone": "+359882207364", "opening_hours": "Mo-Fr 09:00-18:00", "brand": "A1", "brand:wikidata": "Q1941592", "nsi_id": "a1-5ceaa9"}, "geometry": {"type": "Point", "coordinates": [25.0924344, 41.3842547]}},
{"type": "Feature", "id": "sLxGkXoF_5qb7lnWbIU4eKXiBT0=", "properties": {"ref": "421", "@spider": "a1", "name:bg": "\u04101", "shop": "telecommunication", "addr:full": "\u0433\u0440. \u0412\u0430\u0440\u043d\u0430, \u0436\u043a. \u0422\u0440\u043e\u0448\u0435\u0432\u043e, \u0431\u0443\u043b. \u0425\u0440\u0438\u0441\u0442\u043e \u0421\u043c\u0438\u0440\u043d\u0435\u043d\u0441\u043a\u0438 2, \u041f.\u041a. 9009", "addr:country": "BG", "name": "\u04101 \u043c\u0430\u0433\u0430\u0437\u0438\u043d \u0412\u0430\u0440\u043d\u0430, \u0422\u0440\u043e\u0448\u0435\u0432\u043e \u041a\u0424", "phone": "+35988220746", "opening_hours": "Mo-Su 08:00-21:00", "brand": "A1", "brand:wikidata": "Q1941592", "nsi_id": "a1-5ceaa9"}, "geometry": {"type": "Point", "coordinates": [27.8909, 43.22124]}}]}