{"type":"FeatureCollection","features":[{"type": "Feature", "id": "lfL4tHq6Fcm3nqDFIZYOqMhFHdU=", "properties": {"ref": "Buenos Aires - 24 de Noviembre 2120", "@spider": "accenture", "addr:full": "24 de Noviembre 2120, Parque Patricios. CABA", "addr:city": "Buenos Aires, Ciudad Aut\u00f3noma de Buenos Aires", "addr:postcode": "C1242AAT", "addr:country": "AR", "name": "Buenos Aires - 24 de Noviembre 2120", "phone": "+541140090000", "website": "https://www.accenture.com/ar-es/about/company/argentina", "brand": "Accenture", "brand:wikidata": "Q29123313"}, "geometry": {"type": "Point", "coordinates": [-58.4091402, -34.6358356]}},
{"type": "Feature", "id": "URNlPS8ZlwZjrsBB6trByEGDD7s=", "properties": {"ref": "Buenos Aires - Av. Independencia 4250", "@spider": "accenture", "addr:full": "Av. Independencia 4250", "addr:city": "Mar del Plata, Buenos Aires", "addr:postcode": "7600", "addr:country": "AR", "name": "Buenos Aires - Av. Independencia 4250", "phone": "+542236263600", "website": "https://www.accenture.com/ar-es/about/company/argentina", "brand": "Accenture", "brand:wikidata": "Q29123313"}, "geometry": {"type": "Point", "coordinates": [-57.5691906756233, -38.0169603957779]}},
{"type": "Feature", "id": "p8_gChj6CyvVtEXVLW44lUG0_k0=", "properties": {"ref": "Buenos Aires - Bouchard 4191", "@spider": "accenture", "addr:full": "Bouchard 4191, Munro. Bs As.", "addr:city": "Buenos Aires", "addr:state": "Buenos Aires", "addr:postcode": "1605", "addr:country": "AR", "name": "Buenos Aires - Bouchard 4191", "phone": "+541140090000", "website": "https://www.accenture.com/ar-es/about/company/argentina", "brand": "Accenture", "brand:wikidata": "Q29123313"}, "geometry": {"type": "Point", "coordinates": [-58.5250339, -34.5119106]}},
{"type": "Feature", "id": "LtpgB-GMeA5jUz608cjHJwK4Wts=", "properties": {"ref": "La Plata", "@spider": "accenture", "addr:full": "Diagonal 80 942, La Plata. Bs As.", "addr:city": "La Plata, Buenos Aires", "addr:postcode": "B1900CCN", "addr:country": "AR", "name": "La Plata", "phone": "+542214262000", "website": "https://www.accenture.com/ar-es/about/company/argentina", "brand": "Accenture", "brand:wikidata": "Q29123313"}, "geometry": {"type": "Point", "coordinates": [-57.9485536, -34.9114421]}},
{"type": "Feature", "id": "s5bRhBedev0g7AWPVVrzFyu0nng=", "properties": {"ref": "Rosario", "@spider": "accenture", "addr:full": "Santa Fe 1173, Rosario. Santa Fe.", "addr:city": "Rosario, Santa Fe", "addr:postcode": "S2000ATO", "addr:country": "AR", "name": "Rosario", "phone": "+543414478300", "website": "https://www.accenture.com/ar-es/about/company/argentina", "brand": "Accenture", "brand:wikidata": "Q29123313"}, "geometry": {"type": "Point", "coordinates": [-60.6389877354337, -32.9450982570292]}},
{"type": "Feature", "id": "OYNUb_ae3naeUgMkzpjj0BTyGQ0=", "properties": {"ref": "Valpara\u00edso - Avenida Argentina 540", "@spider": "accenture", "addr:full": "Avenida Argentina 540, piso 6", "addr:city": "Valpara\u00edso", "addr:state": "Valpara\u00edso", "addr:postcode": "2390302", "addr:country": "CL", "name": "Valpara\u00edso - Avenida Argentina 540", "phone": "+56225773700", "website": "https://www.accenture.com/cl-es", "brand": "Accenture", "brand:wikidata": "Q29123313"}, "geometry": {"type": "Point", "coordinates": [-71.603829, -33.048613]}},
{"type": "Feature", "id": "NjqBT3tciJUV3g1523KGfXABSEw=", "properties": {"ref": "Barangaroo", "@spider": "accenture", "addr:full": "Level 6, International House, 3 Sussex Street", "addr:city": "Barangaroo", "addr:state": "NSW", "addr:postcode": "2000", "addr:country": "AU", "name": "Barangaroo", "phone": "+61290055000", "website": "https://www.accenture.com/au-en", "brand": "Accenture", "brand:wikidata": "Q29123313"}, "geometry": {"type": "Point", "coordinates": [151.202871993866, -33.8647992456299]}},
{"type": "Feature", "id": "jdb-ys4P4VIEI-G5ef6AYAJo4F0=", "properties": {"ref": "Brisbane", "@spider": "accenture", "addr:full": "Level 30, 10 Eagle Street", "addr:city": "Brisbane", "addr:state": "QLD", "addr:postcode": "4000", "addr:country": "AU", "name": "Brisbane", "phone": "+61731174000", "website": "https://www.accenture.com/au-en", "brand": "Accenture", "brand:wikidata": "Q29123313"}, "geometry": {"type": "Point", "coordinates": [153.029921377071, -27.4691856954532]}},
{"type": "Feature", "id": "-6yxSmJe5oE6dFqT14PIYgO3c5Q=", "properties": {"ref": "Canberra", "@spider": "accenture", "addr:full": "65 Canberra Avenue, Griffith", "addr:city": "Canberra", "addr:state": "ACT", "addr:postcode": "2603", "addr:country": "AU", "name": "Canberra", "phone": "+61262173000", "website": "https://www.accenture.com/au-en", "brand": "Accenture", "brand:wikidata": "Q29123313"}, "geometry": {"type": "Point", "coordinates": [149.1363787, -35.3193906]}},
{"type": "Feature", "id": "Sa3p0nLKWhSY87XSqMk0gpq97cw=", "properties": {"ref": "Melbourne", "@spider": "accenture", "addr:full": "Level 5/161 Collins Street", "addr:city": "Melbourne", "addr:state": "VIC", "addr:postcode": "3000", "addr:country": "AU", "name": "Melbourne", "phone": "+61398387000", "website": "https://www.accenture.com/au-en", "brand": "Accenture", "brand:wikidata": "Q29123313"}, "geometry": {"type": "Point", "coordinates": [144.968775474996, -37.8154117388272]}},
{"type": "Feature", "id": "1x6XbBXYRftZ4pVwIIpZsmY2pE0=", "properties": {"ref": "Perth", "@spider": "accenture", "addr:full": "Level 34, Exchange Tower, 2 The Esplanade", "addr:city": "Perth", "addr:state": "WA", "addr:postcode": "6000", "addr:country": "AU", "name": "Perth", "phone": "+61862165800", "website": "https://www.accenture.com/au-en/services/natural-resources/perth-innovation-hub", "brand": "Accenture", "brand:wikidata": "Q29123313"}, "geometry": {"type": "Point", "coordinates": [115.85876, -31.95644]}},
{"type": "Feature", "id": "uDPhWlCpSwJG231bA7s9ud64J14=", "properties": {"ref": "Vienna", "@spider": "accenture", "addr:full": "B\u00f6rsegeb\u00e4ude, Schottenring 16", "addr:city": "Vienna", "addr:postcode": "1010", "addr:country": "AT", "name": "Vienna", "phone": "+431205020", "website": "https://www.accenture.com/at-de/about/company/about-austria", "brand": "Accenture", "brand:wikidata": "Q29123313"}, "geometry": {"type": "Point", "coordinates": [16.3663526594725, 48.2153649492785]}},
{"type": "Feature", "id": "jY-sD5UtRyydgvANr8ZuSqYPtpw=", "properties": {"ref": "Brussels", "@spider": "accenture", "addr:full": "Picardstraat 11 Rue Picard, bus/bo\u00eete 100", "addr:city": "Brussels", "addr:postcode": "1000", "addr:country": "BE", "name": "Brussels", "phone": "+3222267211", "website": "https://www.accenture.com/be-en", "brand": "Accenture", "brand:wikidata": "Q29123313"}, "geometry": {"type": "Point", "coordinates": [4.34464, 50.86411]}},
{"type": "Feature", "id": "6ZOjvtwpYQ-oMMAw_NhNu8o9xnw=", "properties": {"ref": "Barueri", "@spider": "accenture", "addr:full": "Av. Andromeda, 2.000 - Bloco 11, T\u00e9rreo", "addr:city": "Barueri, S\u00e3o Paulo", "addr:postcode": "06473-900", "addr:country": "BR", "name": "Barueri", "phone": "+551151883000", "website": "https://www.accenture.com/br-pt", "brand": "Accenture", "brand:wikidata": "Q29123313"}, "geometry": {"type": "Point", "coordinates": [-46.8694363521322, -23.4852706673797]}},
{"type": "Feature", "id": "rfV9OsJTfh67U6hUIWbfQt3n5GE=", "properties": {"ref": "Curitiba", "@spider": "accenture", "addr:full": "Avenida Mal. Deodoro 558", "addr:city": "Curitiba, Paran\u00e1", "addr:postcode": "80010-010", "addr:country": "BR", "name": "Curitiba", "phone": "+554130142803", "website": "https://www.accenture.com/br-pt", "brand": "Accenture", "brand:wikidata": "Q29123313"}, "geometry": {"type": "Point", "coordinates": [-49.2669393091927, -25.4305304705433]}},
{"type": "Feature", "id": "RHnGVyMIWBfsemrWH_08sd6FD54=", "properties": {"ref": "Recife Innovation Center", "@spider": "accenture", "addr:full": "Alfredo Lisboa Street, 12, 1st Floor. Recife Antigo District", "addr:city": "Recife, Pernambuco", "addr:postcode": "50030-150", "addr:country": "BR", "name": "Recife Innovation Center", "phone": "+558134121000", "website": "https://www.accenture.com/br-pt", "brand": "Accenture", "brand:wikidata": "Q29123313"}, "geometry": {"type": "Point", "coordinates": [-34.8719732903982, -8.06479452820616]}},
{"type": "Feature", "id": "lgiVIBav-0oQpH4Pb9pWv8ECvcM=", "properties": {"ref": "Rio de Janeiro", "@spider": "accenture", "addr:full": "Rio Metropolitan Building, Avenida Rep\u00fablica Do Chile, 500, 18\u00ba andar - Centro", "addr:city": "Rio de Janeiro", "addr:state": "Rio de Janeiro", "addr:postcode": "20031-170", "addr:country": "BR", "name": "Rio de Janeiro", "phone": "+552145019000", "website": "https://www.accenture.com/br-pt", "brand": "Accenture", "brand:wikidata": "Q29123313"}, "geometry": {"type": "Point", "coordinates": [-43.1826298356119, -22.9095421911693]}},
{"type": "Feature", "id": "3XXWpeQX1hC3GPrsPkXPtABCXDc=", "properties": {"ref": "S\u00e3o Paulo", "@spider": "accenture", "addr:full": "Rua Alexandre Dumas 2051, Ch\u00e1cara Santo Ant\u00f4nio", "addr:city": "S\u00e3o Paulo", "addr:state": "S\u00e3o Paulo", "addr:postcode": "04717-004", "addr:country": "BR", "name": "S\u00e3o Paulo", "phone": "+551151883000", "website": "https://www.accenture.com/br-pt", "brand": "Accenture", "brand:wikidata": "Q29123313"}, "geometry": {"type": "Point", "coordinates": [-46.7100874958279, -23.628961554591]}},
{"type": "Feature", "id": "6JMxUfsrtxruylcd67htt3fGG8M=", "properties": {"ref": "Vit\u00f3ria", "@spider": "accenture", "addr:full": "Edif\u00edcio Work Center, Rua Jos\u00e9 Alexandre Buaiz, 300, 20 andar", "addr:city": "Vit\u00f3ria, Esp\u00edrito Santo", "addr:postcode": "29050-545", "addr:country": "BR", "name": "Vit\u00f3ria", "phone": "+552731346367", "website": "https://www.accenture.com/br-pt", "brand": "Accenture", "brand:wikidata": "Q29123313"}, "geometry": {"type": "Point", "coordinates": [-40.2922008, -20.3119114]}},
{"type": "Feature", "id": "Uh7MmexUq2tcjLse-_4kBJpAvyU=", "properties": {"ref": "Calgary", "@spider": "accenture", "addr:full": "225 6th Avenue SW, Brookfield Place Suite 1020", "addr:city": "Calgary", "addr:state": "AB", "addr:postcode": "T2P 1N2", "addr:country": "CA", "name": "Calgary", "phone": "+14034761510", "website": "https://www.accenture.com/ca-en", "brand": "Accenture", "brand:wikidata": "Q29123313"}, "geometry": {"type": "Point", "coordinates": [-114.06604, 51.04741]}},
{"type": "Feature", "id": "6YGD-rMOSRDAWhznBsU9jsgffNk=", "properties": {"ref": "Canada Innovation Hub", "@spider": "accenture", "addr:full": "40 King St. West, Suite #3000", "addr:city": "Toronto", "addr:state": "ON", "addr:postcode": "M5H 3Y2", "addr:country": "CA", "name": "Canada Innovation Hub", "phone": "+14166415000", "website": "https://www.accenture.com/ca-en/service-accenture-innovation-center-canada", "brand": "Accenture", "brand:wikidata": "Q29123313"}, "geometry": {"type": "Point", "coordinates": [-79.379562244792, 43.6495643180351]}},
{"type": "Feature", "id": "-cOzlkGUfSM_T5evLQzCaUtL9DE=", "properties": {"ref": "Fredericton", "@spider": "accenture", "addr:full": "495 Prospect Street, Unit D", "addr:city": "Fredericton", "addr:state": "NB", "addr:postcode": "E3B 9M4", "addr:country": "CA", "name": "Fredericton", "phone": "+18778899009", "website": "https://www.accenture.com/ca-en", "brand": "Accenture", "brand:wikidata": "Q29123313"}, "geometry": {"type": "Point", "coordinates": [-66.6892763, 45.9514761]}},
{"type": "Feature", "id": "L9RCpm1Jh5zVj_iGRIFPHdhMGVo=", "properties": {"ref": "Mississauga", "@spider": "accenture", "addr:full": "33 City Centre Drive, 4th Floor, Suite 400-A Wing", "addr:city": "Mississauga", "addr:state": "ON", "addr:postcode": "L5B 2N5", "addr:country": "CA", "name": "Mississauga", "phone": "+19058046600", "website": "https://www.accenture.com/ca-en", "brand": "Accenture", "brand:wikidata": "Q29123313"}, "geometry": {"type": "Point", "coordinates": [-79.639069, 43.594923]}},
{"type": "Feature", "id": "9FCIKltluBvP5Pm2iutjnlAUo2Y=", "properties": {"ref": "Montreal - 1800 McGill College Avenue", "@spider": "accenture", "addr:full": "1800 McGill College Avenue, Suite 800", "addr:city": "Montreal", "addr:state": "QC", "addr:postcode": "H3A 3J6", "addr:country": "CA", "name": "Montreal - 1800 McGill College Avenue", "phone": "+15148481648", "website": "https://www.accenture.com/ca-en", "brand": "Accenture", "brand:wikidata": "Q29123313"}, "geometry": {"type": "Point", "coordinates": [-73.5729181656761, 45.5023112425076]}},
{"type": "Feature", "id": "TDNiuEWZTso80EGOStGsdJshtzY=", "properties": {"ref": "Montreal - 5605 de Gaspe", "@spider": "accenture", "addr:full": "5605 de Gaspe, Suite 902", "addr:city": "Montreal", "addr:state": "QC", "addr:postcode": "H2T 2A4", "addr:country": "CA", "name": "Montreal - 5605 de Gaspe", "phone": "+15148481648", "website": "https://www.accenture.com/ca-en", "brand": "Accenture", "brand:wikidata": "Q29123313"}, "geometry": {"type": "Point", "coordinates": [-73.5980124, 45.528171]}},
{"type": "Feature", "id": "e2JR6Zxyd9NiigEmIoneh8cefyI=", "properties": {"ref": "Oakville", "@spider": "accenture", "addr:full": "635 Fourth Line, Unit 16", "addr:city": "Oakville", "addr:state": "ON", "addr:postcode": "L6L 5B3", "addr:country": "CA", "name": "Oakville", "phone": "+19053390059", "website": "https://www.accenture.com/ca-en", "brand": "Accenture", "brand:wikidata": "Q29123313"}, "geometry": {"type": "Point", "coordinates": [-79.700971889642, 43.4333094219292]}},
{"type": "Feature", "id": "-JZ3Yx0M82h4GXt5DkTalCGexqw=", "properties": {"ref": "Ontario", "@spider": "accenture", "addr:full": "250 Tremblay Road, Suite 510", "addr:city": "Ottawa", "addr:state": "ON", "addr:postcode": "K1G 3J8", "addr:country": "CA", "name": "Ontario", "phone": "+16137505000", "website": "https://www.accenture.com/ca-en", "brand": "Accenture", "brand:wikidata": "Q29123313"}, "geometry": {"type": "Point", "coordinates": [-75.6498965828381, 45.4181444183318]}},
{"type": "Feature", "id": "IqCHWaCG0dF3hQfDE9cUIzCRtJc=", "properties": {"ref": "Ottawa", "@spider": "accenture", "addr:full": "45 O\u2019Connor Street, Suite 1100", "addr:city": "Ottawa", "addr:state": "ON", "addr:postcode": "K1P 1A4", "addr:country": "CA", "name": "Ottawa", "phone": "+16137505000", "website": "https://www.accenture.com/ca-en", "brand": "Accenture", "brand:wikidata": "Q29123313"}, "geometry": {"type": "Point", "coordinates": [-75.6982274052734, 45.4213611542292]}},
{"type": "Feature", "id": "q7aaYjSp8eoTN_ytJsWxDLMWubo=", "properties": {"ref": "Ottawa - 150 Elgin Street", "@spider": "accenture", "addr:full": "150 Elgin Street, Suite 1200", "addr:city": "Ottawa", "addr:state": "ON", "addr:postcode": "K2P 1L4", "addr:country": "CA", "name": "Ottawa - 150 Elgin Street", "phone": "+16137505000", "website": "https://www.accenture.com/ca-en", "brand": "Accenture", "brand:wikidata": "Q29123313"}, "geometry": {"type": "Point", "coordinates": [-75.693478, 45.420419]}},
{"type": "Feature", "id": "P28eiTQL-W4ln6AtadUjDJh6u9k=", "properties": {"ref": "St. Catharines", "@spider": "accenture", "addr:full": "80 King Street, Suite 210 & 300", "addr:city": "St. Catharines", "addr:state": "ON", "addr:postcode": "L2R 7G1", "addr:country": "CA", "name": "St. Catharines", "phone": "+18888706491", "website": "https://www.accenture.com/ca-en", "brand": "Accenture", "brand:wikidata": "Q29123313"}, "geometry": {"type": "Point", "coordinates": [-79.2460841, 43.1580826]}},
{"type": "Feature", "id": "vYwFhVDIMAJHiqvtAZHCywkMAME=", "properties": {"ref": "Toronto - 40 King Street West", "@spider": "accenture", "addr:full": "40 King Street West, Scotia Plaza Tower, Suite #3000", "addr:city": "Toronto", "addr:state": "ON", "addr:postcode": "M5H 3Y2", "addr:country": "CA", "name": "Toronto - 40 King Street West", "phone": "+14166415000", "website": "https://www.accenture.com/ca-en", "brand": "Accenture", "brand:wikidata": "Q29123313"}, "geometry": {"type": "Point", "coordinates": [-79.3795916138203, 43.6496241333635]}},
{"type": "Feature", "id": "atSvuwdo4djz_95s7m9G4goHipQ=", "properties": {"ref": "Toronto - Richmond Adelaide Centre", "@spider": "accenture", "addr:full": "Richmond Adelaide Centre, Suite 1501, 120 Adelaide Street West", "addr:city": "Toronto", "addr:state": "ON", "addr:postcode": "M5H 1T1", "addr:country": "CA", "name": "Toronto - Richmond Adelaide Centre", "phone": "+14166415100", "website": "https://www.accenture.com/ca-en", "brand": "Accenture", "brand:wikidata": "Q29123313"}, "geometry": {"type": "Point", "coordinates": [-79.3832232, 43.6499721]}},
{"type": "Feature", "id": "A8BoO8nTCDLEGrCvK1G_vi_fCBk=", "properties": {"ref": "Vancouver", "@spider": "accenture", "addr:full": "510 West Georgia Street, Suite 2075", "addr:city": "Vancouver", "addr:state": "BC", "addr:postcode": "V6B 0M3", "addr:country": "CA", "name": "Vancouver", "phone": "+16046465000", "website": "https://www.accenture.com/ca-en", "brand": "Accenture", "brand:wikidata": "Q29123313"}, "geometry": {"type": "Point", "coordinates": [-123.116856602577, 49.28121587345]}},
{"type": "Feature", "id": "RdA4gUpMuSSmhXljSqmPf9T27YM=", "properties": {"ref": "Victoria", "@spider": "accenture", "addr:full": "301- 3450 Uptown Blvd, Room 308", "addr:city": "Victoria", "addr:state": "BC", "addr:postcode": "V8Z 0B9", "addr:country": "CA", "name": "Victoria", "phone": "+15414296951", "website": "https://www.accenture.com/ca-en", "brand": "Accenture", "brand:wikidata": "Q29123313"}, "geometry": {"type": "Point", "coordinates": [-123.375340276452, 48.4537496422286]}},
{"type": "Feature", "id": "riy77WNjPLz7inG8_sg40euqjvE=", "properties": {"ref": "Santiago - Edificio Santiago Down Town", "@spider": "accenture", "addr:full": "Avenida Libertador Bernardo O'Higgins 1449, Edificio Santiago Down Town \u2014 Torre 4, Piso 6.", "addr:city": "Santiago", "addr:country": "CL", "name": "Santiago - Edificio Santiago Down Town", "phone": "+56225773700", "website": "https://www.accenture.com/cl-es", "brand": "Accenture", "brand:wikidata": "Q29123313"}, "geometry": {"type": "Point", "coordinates": [-70.6563744024468, -33.4445000952896]}},
{"type": "Feature", "id": "nDuQ6gVV-PDxz_VjEPbVMY9CO1c=", "properties": {"ref": "Santiago - Torre Apoquindo", "@spider": "accenture", "addr:full": "Apoquindo 5550, Piso 14, Torre Apoquindo, Las Condes, Santiago Las Condes", "addr:city": "Santiago", "addr:country": "CL", "name": "Santiago - Torre Apoquindo", "phone": "+56223377100", "website": "https://www.accenture.com/cl-es", "brand": "Accenture", "brand:wikidata": "Q29123313"}, "geometry": {"type": "Point", "coordinates": [-70.5796849, -33.4124148]}},
{"type": "Feature", "id": "8eJ9Nt9ai6hQ9s_IcGgdJQTK1Vw=", "properties": {"ref": "Beijing - World Financial Center", "@spider": "accenture", "addr:full": "21F West Tower, World Financial Center, No.1 East 3rd Ring Middle Road, Chaoyang District", "addr:city": "Beijing", "addr:state": "Beijing", "addr:postcode": "100020", "addr:country": "CN", "name": "Beijing - World Financial Center", "phone": "+861085958700", "website": "https://www.accenture.com/cn-en", "brand": "Accenture", "brand:wikidata": "Q29123313"}, "geometry": {"type": "Point", "coordinates": [116.458820991676, 39.9191026121443]}},
{"type": "Feature", "id": "Br6An_Lat_XWygZJxM_uHlgLwa8=", "properties": {"ref": "Chengdu - Wuhou District", "@spider": "accenture", "addr:full": "9-10F Building E5, No.1366 Middle Section of Tianfu Avenue, High-tech Zone", "addr:city": "Chengdu, Sichuan", "addr:postcode": "610041", "addr:country": "CN", "name": "Chengdu - Wuhou District", "phone": "+862865555000", "website": "https://www.accenture.com/cn-en", "brand": "Accenture", "brand:wikidata": "Q29123313"}, "geometry": {"type": "Point", "coordinates": [104.06772050797, 30.6082850639975]}},
{"type": "Feature", "id": "6U74x7WZNYigNasmMOgaS9ItCn8=", "properties": {"ref": "China Digital Hub - Shanghai", "@spider": "accenture", "addr:full": "5&6F, Building C4, No.1687 ChangYang Road", "addr:city": "Shanghai", "addr:state": "Shanghai", "addr:postcode": "200082", "addr:country": "CN", "name": "China Digital Hub - Shanghai", "phone": "+862123227358", "website": "https://www.accenture.com/cn-en/services/digital/greater-china-digital-hub", "brand": "Accenture", "brand:wikidata": "Q29123313"}, "geometry": {"type": "Point", "coordinates": [121.532291, 31.272388]}},
{"type": "Feature", "id": "8ByBwn6bcYq_lO31YyAl1w1A3Bk=", "properties": {"ref": "China/Hong Kong SAR \u2013 Suites 4103-10 Quarry Bay", "@spider": "accenture", "addr:full": "Suites 2/F, 3/F&41/F 4103-10 One Island East, Taikoo Place, 18 Westlands Road", "addr:city": "Quarry Bay, Hong Kong, Hong Kong", "addr:country": "CN", "name": "China/Hong Kong SAR \u2013 Suites 4103-10 Quarry Bay", "phone": "+85222492100", "website": "https://www.accenture.com/hk-en", "brand": "Accenture", "brand:wikidata": "Q29123313"}, "geometry": {"type": "Point", "coordinates": [114.213417670918, 22.28612603637]}},
{"type": "Feature", "id": "-Ncx2r-6rdCdifVQ7_bySXNqxAA=", "properties": {"ref": "Dalian - Building 27-29 Huangpu Road", "@spider": "accenture", "addr:full": "Building 27-29, No.953 Huangpu Road", "addr:city": "Dalian, Liaoning", "addr:postcode": "116085", "addr:country": "CN", "name": "Dalian - Building 27-29 Huangpu Road", "phone": "+8641162148888", "website": "https://www.accenture.com/cn-en", "brand": "Accenture", "brand:wikidata": "Q29123313"}, "geometry": {"type": "Point", "coordinates": [121.5278917, 38.8582785]}},
{"type": "Feature", "id": "-HD7PHhmLoB1b9nvkRr8l_gqrKY=", "properties": {"ref": "Dalian - Software Park Tower 24", "@spider": "accenture", "addr:full": "44 Software Park East Road, Building 24, Software Park Tower 24", "addr:city": "Dalian, Liaoning", "addr:postcode": "116024", "addr:country": "CN", "name": "Dalian - Software Park Tower 24", "phone": "+8641182147800", "website": "https://www.accenture.com/cn-en", "brand": "Accenture", "brand:wikidata": "Q29123313"}, "geometry": {"type": "Point", "coordinates": [121.540068, 38.887405]}},
{"type": "Feature", "id": "6lSyB80IsisFGwQXMDf8H7yp3Gw=", "properties": {"ref": "Guangzhou", "@spider": "accenture", "addr:full": "8F&13F Xinyuan Building, No.898 Tianhebei Road", "addr:city": "Guangzhou, Guangdong", "addr:postcode": "510898", "addr:country": "CN", "name": "Guangzhou", "phone": "+862038183333", "website": "https://www.accenture.com/cn-en", "brand": "Accenture", "brand:wikidata": "Q29123313"}, "geometry": {"type": "Point", "coordinates": [113.307725416475, 23.1477668233027]}},
{"type": "Feature", "id": "1CnQffLsH9YnSE6HoQOmoTWs1rA=", "properties": {"ref": "Hangzhou", "@spider": "accenture", "addr:full": "Room 1301-1304, Building B, No.459, Qianmo Road, Xixing Street", "addr:city": "Hangzhou, Zhejiang", "addr:postcode": "310051", "addr:country": "CN", "name": "Hangzhou", "phone": "+8657128834534", "website": "https://www.accenture.com/cn-en", "brand": "Accenture", "brand:wikidata": "Q29123313"}, "geometry": {"type": "Point", "coordinates": [120.2230677, 30.2058485]}},
{"type": "Feature", "id": "gHj-iu02KpzobkyvhDpm87rEmn0=", "properties": {"ref": "Nanjing", "@spider": "accenture", "addr:full": "206, B26, Nanjing national leader innovation park, No#66, Ling Jiao Shi", "addr:city": "Nanjing, Jiangsu", "addr:postcode": "210004", "addr:country": "CN", "name": "Nanjing", "phone": "+862584101798", "website": "https://www.accenture.com/cn-en", "brand": "Accenture", "brand:wikidata": "Q29123313"}, "geometry": {"type": "Point", "coordinates": [118.796877, 32.060255]}},
{"type": "Feature", "id": "Qdhmbqaa5SzZIJUJJrGqddZrvv0=", "properties": {"ref": "Shanghai - Shanghai Central Plaza", "@spider": "accenture", "addr:full": "Shanghai Central Plaza Floor 30, No. 381 Huaihai Zhong Road Road", "addr:city": "Shanghai", "addr:postcode": "200020", "addr:country": "CN", "name": "Shanghai - Shanghai Central Plaza", "phone": "+862123053333", "website": "https://www.accenture.com/cn-en", "brand": "Accenture", "brand:wikidata": "Q29123313"}, "geometry": {"type": "Point", "coordinates": [121.473022, 31.221938]}},
{"type": "Feature", "id": "HVwRNnyfKvGqLiwUxOqYiwuxorA=", "properties": {"ref": "Shanghai - Tsidi Building", "@spider": "accenture", "addr:full": "12-14/F, Tsidi Building, No. 55, Lane 777, West Guangzhong Road", "addr:city": "Shanghai", "addr:state": "Shanghai", "addr:postcode": "200072", "addr:country": "CN", "name": "Shanghai - Tsidi Building", "phone": "+862161425555", "website": "https://www.accenture.com/cn-en", "brand": "Accenture", "brand:wikidata": "Q29123313"}, "geometry": {"type": "Point", "coordinates": [121.438858, 31.278734]}},
{"type": "Feature", "id": "WDo8-c6-eWG8hS5FZtOynCOVHak=", "properties": {"ref": "Shanghai - Zhao Feng Plaza 1027", "@spider": "accenture", "addr:full": "30F&31F, Zhao Feng Plaza, No. 1027 Changning Road", "addr:city": "Shanghai", "addr:state": "Shanghai", "addr:postcode": "200050", "addr:country": "CN", "name": "Shanghai - Zhao Feng Plaza 1027", "phone": "+862123053560", "website": "https://www.accenture.com/cn-en", "brand": "Accenture", "brand:wikidata": "Q29123313"}, "geometry": {"type": "Point", "coordinates": [121.41782, 31.217752]}},
{"type": "Feature", "id": "aVJaoFsHLGuSGe7S9zb7RS8AgT0=", "properties": {"ref": "Shenzhen - Bao'an District", "@spider": "accenture", "addr:full": "Rooms 6#-0102 and 6#-0201-0206,  Building #6, Tangtou  Road, Shiyan Street", "addr:city": "Shenzhen, Guangdong", "addr:postcode": "518101", "addr:country": "CN", "name": "Shenzhen - Bao'an District", "phone": "+8675527809982", "website": "https://www.accenture.com/cn-en", "brand": "Accenture", "brand:wikidata": "Q29123313"}, "geometry": {"type": "Point", "coordinates": [113.915933, 22.658886]}},
{"type": "Feature", "id": "9gEcn0kUeSPHoY7QJxuH2VeQI_s=", "properties": {"ref": "Shenzhen - Nanshan District", "@spider": "accenture", "addr:full": "Unit 3102-3103 Building 10B, Shenzhen Bay Eco-Technology Park, No. 10, 9th High-tech Southern Avenue", "addr:city": "Shenzhen, Guangdong", "addr:postcode": "518057", "addr:country": "CN", "name": "Shenzhen - Nanshan District", "phone": "+8675582705268", "website": "https://www.accenture.com/cn-en", "brand": "Accenture", "brand:wikidata": "Q29123313"}, "geometry": {"type": "Point", "coordinates": [114.24363514842, 22.7153727813397]}},
{"type": "Feature", "id": "Ilc9O75Tj5eiK342CgobRGczDus=", "properties": {"ref": "Taipei", "@spider": "accenture", "addr:full": "16F, Far Eastern Plaza, No. 207 Section 2, Dun Hua South Road, Taipei 106", "addr:city": "Taipei", "addr:postcode": "10601", "addr:country": "CN", "name": "Taipei", "phone": "+886287220151", "website": "https://www.accenture.com/cn-en", "brand": "Accenture", "brand:wikidata": "Q29123313"}, "geometry": {"type": "Point", "coordinates": [121.549556860195, 25.0261907519127]}},
{"type": "Feature", "id": "1M5JSfeXBXIXHfr7bn2ELm0OqFc=", "properties": {"ref": "Bogot\u00e1 - Edificio Ecotek Calle 99", "@spider": "accenture", "addr:full": "Edificio Ecotek Calle 99 #10-57", "addr:city": "Bogot\u00e1, Cundinamarca", "addr:postcode": "110221", "addr:country": "CO", "name": "Bogot\u00e1 - Edificio Ecotek Calle 99", "phone": "+5713266400", "website": "https://www.accenture.com/co-es", "brand": "Accenture", "brand:wikidata": "Q29123313"}, "geometry": {"type": "Point", "coordinates": [-74.0435275, 4.6814882]}},
{"type": "Feature", "id": "qK4lya9akUbHR7ZRJgs2DBhFdIo=", "properties": {"ref": "Medell\u00edn", "@spider": "accenture", "addr:full": "Calle 67 N\u00b0 52 -20 Barrio Sevilla de Medell\u00edn, Torre C piso 2 y / Torre B piso 5.", "addr:city": "Medell\u00edn, Antioquia", "addr:country": "CO", "name": "Medell\u00edn", "phone": "+5713266400", "website": "https://www.accenture.com/co-es", "brand": "Accenture", "brand:wikidata": "Q29123313"}, "geometry": {"type": "Point", "coordinates": [-75.5668907, 6.264641]}},
{"type": "Feature", "id": "0_Qfa0Jdd3p_Jguo_m8mhLjcopA=", "properties": {"ref": "Heredia", "@spider": "accenture", "addr:full": "Plaza Bratsi, Heredia, 50M North Of Paseo De Las, Flores Mall On Central, Street", "addr:city": "Heredia", "addr:state": "Heredia", "addr:postcode": "40101", "addr:country": "CR", "name": "Heredia", "phone": "+50625625000", "website": "https://www.accenture.com/cr-en", "brand": "Accenture", "brand:wikidata": "Q29123313"}, "geometry": {"type": "Point", "coordinates": [-84.1118089533729, 9.98743718689441]}},
{"type": "Feature", "id": "AJrs4DAaIQe_v1OeHg4zSZF2iGU=", "properties": {"ref": "Accenture Chodov Office", "@spider": "accenture", "addr:full": "V Parku 2316/12, Chodov", "addr:city": "Praha", "addr:postcode": "14800", "addr:country": "CZ", "name": "Accenture Chodov Office", "phone": "+420225075000", "website": "https://www.accenture.com/cz-en", "brand": "Accenture", "brand:wikidata": "Q29123313"}, "geometry": {"type": "Point", "coordinates": [14.495234, 50.0278587]}},
{"type": "Feature", "id": "jfceJW8Xgvt1_0ZSiJ4KWBCXEBQ=", "properties": {"ref": "Prague Cyber Fusion Center", "@spider": "accenture", "addr:full": "Plyn\u00e1rn\u00ed 1617/10, Hole\u0161ovice", "addr:city": "Praha", "addr:postcode": "17000", "addr:country": "CZ", "name": "Prague Cyber Fusion Center", "phone": "+420225045000", "website": "https://www.accenture.com/cz-en", "brand": "Accenture", "brand:wikidata": "Q29123313"}, "geometry": {"type": "Point", "coordinates": [14.4431778, 50.1080627]}},
{"type": "Feature", "id": "zJ5OCeGZvbmdkCoFMvLNhpml-XE=", "properties": {"ref": "Praha - Visionary Office", "@spider": "accenture", "addr:full": "Visionary Offices, Plyn\u00e1rn\u00ed 1617/10", "addr:city": "Praha", "addr:postcode": "17000", "addr:country": "CZ", "name": "Praha - Visionary Office", "phone": "+420225045000", "website": "https://www.accenture.com/cz-en", "brand": "Accenture", "brand:wikidata": "Q29123313"}, "geometry": {"type": "Point", "coordinates": [14.442557, 50.107728]}},
{"type": "Feature", "id": "-pQa9scAgNC-7Q9C9Hj7vl84lYw=", "properties": {"ref": "Aarhus", "@spider": "accenture", "addr:full": "Bredskifte Alle 5, 1st floor, Aarhus V", "addr:city": "Aarhus", "addr:postcode": "8210", "addr:country": "DK", "name": "Aarhus", "phone": "+4572288000", "website": "https://www.accenture.com/dk-en/about/company/denmark", "brand": "Accenture", "brand:wikidata": "Q29123313"}, "geometry": {"type": "Point", "coordinates": [10.13425, 56.179065]}},
{"type": "Feature", "id": "oliAlX4JRgaqABonSZgOU4J3aCE=", "properties": {"ref": "Copenhagen", "@spider": "accenture", "addr:full": "Bohrsgade 35, Copenhagen V", "addr:city": "Copenhagen", "addr:postcode": "1799", "addr:country": "DK", "name": "Copenhagen", "phone": "+4572288000", "website": "https://www.accenture.com/dk-en/about/company/denmark", "brand": "Accenture", "brand:wikidata": "Q29123313"}, "geometry": {"type": "Point", "coordinates": [12.53497, 55.66652]}},
{"type": "Feature", "id": "XtJKp5_7BAd5o52ienY9RaPuelw=", "properties": {"ref": "Accenture Innovation Hub Helsinki", "@spider": "accenture", "addr:full": "Aleksanterinkatu 46 A, Floor 4", "addr:city": "Helsinki", "addr:postcode": "00100", "addr:country": "FI", "name": "Accenture Innovation Hub Helsinki", "phone": "+358205725000", "website": "https://www.accenture.com/fi-en/about/company/finland", "brand": "Accenture", "brand:wikidata": "Q29123313"}, "geometry": {"type": "Point", "coordinates": [24.9451157578126, 60.168786368536]}},
{"type": "Feature", "id": "rb6mBV_I-Z2H8itYZA_GGcBtjTg=", "properties": {"ref": "Helsinki", "@spider": "accenture", "addr:full": "Porkkalankatu 5", "addr:city": "Helsinki", "addr:postcode": "00180", "addr:country": "FI", "name": "Helsinki", "phone": "+358205725000", "website": "https://www.accenture.com/fi-en/about/company/finland", "brand": "Accenture", "brand:wikidata": "Q29123313"}, "geometry": {"type": "Point", "coordinates": [24.9094333, 60.1644571]}},
{"type": "Feature", "id": "PxvSwzbgY59FqxwuS-MXjz02ee0=", "properties": {"ref": "Tampere", "@spider": "accenture", "addr:full": "Hermiankatu 3", "addr:city": "Tampere", "addr:postcode": "33720", "addr:country": "FI", "name": "Tampere", "phone": "+358205725000", "website": "https://www.accenture.com/fi-en/about/company/finland", "brand": "Accenture", "brand:wikidata": "Q29123313"}, "geometry": {"type": "Point", "coordinates": [23.858262, 61.4475107]}},
{"type": "Feature", "id": "ydmHHPxComLfMamVDSmJkFsBCvA=", "properties": {"ref": "Hub Innovation Paris", "@spider": "accenture", "addr:full": "118 Avenue De France", "addr:city": "Paris", "addr:postcode": "75013", "addr:country": "FR", "name": "Hub Innovation Paris", "phone": "+33153235555", "website": "https://www.accenture.com/fr-fr/about/company/france", "brand": "Accenture", "brand:wikidata": "Q29123313"}, "geometry": {"type": "Point", "coordinates": [2.37669571858419, 48.8310183390498]}},
{"type": "Feature", "id": "JLDq1UxPY1YgbDsX6XW3TE0oUwg=", "properties": {"ref": "Lille", "@spider": "accenture", "addr:full": "10, rue Denis Papin, Villeneuve d'Ascq", "addr:city": "Lille", "addr:postcode": "59650", "addr:country": "FR", "name": "Lille", "phone": "+33153235500", "website": "https://www.accenture.com/fr-fr/about/company/france", "brand": "Accenture", "brand:wikidata": "Q29123313"}, "geometry": {"type": "Point", "coordinates": [3.12935338386628, 50.6477568168897]}},
{"type": "Feature", "id": "rf4GokdwzqvaSaas1GdxsQlljlg=", "properties": {"ref": "Lyon - Silex\u00b2", "@spider": "accenture", "addr:full": "Silex\u00b2, 9 rue Cuirassiers", "addr:city": "Lyon", "addr:postcode": "69003", "addr:country": "FR", "name": "Lyon - Silex\u00b2", "phone": "+33153235555", "website": "https://www.accenture.com/fr-fr/about/company/france", "brand": "Accenture", "brand:wikidata": "Q29123313"}, "geometry": {"type": "Point", "coordinates": [4.85560230629663, 45.759047142968]}},
{"type": "Feature", "id": "TDh1ZnxmsnQUKNuXlGmXnoLSDdA=", "properties": {"ref": "Nantes", "@spider": "accenture", "addr:full": "Le Liberty, 68, Boulevard Marcel Paul, Saint Herblain", "addr:city": "Nantes, Loire-Atlantique", "addr:postcode": "44800", "addr:country": "FR", "name": "Nantes", "phone": "+33240207900", "website": "https://www.accenture.com/fr-fr/about/company/france", "brand": "Accenture", "brand:wikidata": "Q29123313"}, "geometry": {"type": "Point", "coordinates": [-1.6193950659377, 47.2442678796208]}},
{"type": "Feature", "id": "1Rew_QrhDZOnoIjOZMU6oNliHY8=", "properties": {"ref": "Paris", "@spider": "accenture", "addr:full": "Pacific Bldg, 11-13 Cours Valmy a La defense", "addr:city": "Paris, Hauts de Seine", "addr:postcode": "92800", "addr:country": "FR", "name": "Paris", "phone": "+33153235555", "website": "https://www.accenture.com/fr-fr/about/company/france", "brand": "Accenture", "brand:wikidata": "Q29123313"}, "geometry": {"type": "Point", "coordinates": [2.23232523067111, 48.8919113897789]}},
{"type": "Feature", "id": "aCun1LBEGbgzKM3_lWragZjDUUw=", "properties": {"ref": "Sophia Antipolis", "@spider": "accenture", "addr:full": "400 Avenue De Roumanille - Bt 1A, CS 80099, Sophia Antipolis", "addr:city": "Biot", "addr:postcode": "06410", "addr:country": "FR", "name": "Sophia Antipolis", "phone": "+33492946700", "website": "https://www.accenture.com/fr-fr/about/company/france", "brand": "Accenture", "brand:wikidata": "Q29123313"}, "geometry": {"type": "Point", "coordinates": [7.0746854815626, 43.6221221217945]}},
{"type": "Feature", "id": "LLom-h6IEvtIMniWcxNA_RWksqs=", "properties": {"ref": "Toulouse", "@spider": "accenture", "addr:full": "Cap Constellation, 3bis Boulevard Henri Ziegler", "addr:city": "Blagnac", "addr:postcode": "31700", "addr:country": "FR", "name": "Toulouse", "phone": "+33153235555", "website": "https://www.accenture.com/fr-fr/about/company/france", "brand": "Accenture", "brand:wikidata": "Q29123313"}, "geometry": {"type": "Point", "coordinates": [1.36643528836066, 43.6564114055851]}},
{"type": "Feature", "id": "XbTW0AuWEx1ZD3eUwQZjYYXwHmk=", "properties": {"ref": "Berlin", "@spider": "accenture", "addr:full": "Friedrichstra\u00dfe 78", "addr:city": "Berlin", "addr:postcode": "10117", "addr:country": "DE", "name": "Berlin", "phone": "+49308904740", "website": "https://www.accenture.com/de-de/about/company/about-germany", "brand": "Accenture", "brand:wikidata": "Q29123313"}, "geometry": {"type": "Point", "coordinates": [13.389696070052, 52.5144099082692]}},
{"type": "Feature", "id": "61cyU-9DqkPrqRvUbaD0TukPFxY=", "properties": {"ref": "Bonn", "@spider": "accenture", "addr:full": "Joseph-Schumpeter-Allee 33", "addr:city": "Bonn, North Rhine-Westphalia", "addr:postcode": "53227", "addr:country": "DE", "name": "Bonn", "phone": "+4922818411725", "website": "https://www.accenture.com/de-de/about/company/about-germany", "brand": "Accenture", "brand:wikidata": "Q29123313"}, "geometry": {"type": "Point", "coordinates": [7.14952329508913, 50.7190178392732]}},
{"type": "Feature", "id": "_gmhVUN5R8eTuLC9c_TGnj_FtNI=", "properties": {"ref": "Dortmund", "@spider": "accenture", "addr:full": "Sebrathweg 20", "addr:city": "Dortmund, North Rhine-Westphalia", "addr:postcode": "44149", "addr:country": "DE", "name": "Dortmund", "phone": "+492317001280", "website": "https://www.accenture.com/de-de/about/company/about-germany", "brand": "Accenture", "brand:wikidata": "Q29123313"}, "geometry": {"type": "Point", "coordinates": [7.3948913, 51.4924615]}},
{"type": "Feature", "id": "Dgqq9_FHBxrraoOsc2OsjUjUKNw=", "properties": {"ref": "D\u00fcsseldorf", "@spider": "accenture", "addr:full": "Kaistra\u00dfe 20, D\u00fcsseldorf", "addr:city": "D\u00fcsseldorf, North Rhine-Westphalia", "addr:postcode": "40221", "addr:country": "DE", "name": "D\u00fcsseldorf", "phone": "+49211912030", "website": "https://www.accenture.com/de-de/about/company/about-germany", "brand": "Accenture", "brand:wikidata": "Q29123313"}, "geometry": {"type": "Point", "coordinates": [6.75605359206406, 51.2158462600949]}},
{"type": "Feature", "id": "AKWsbIh8GbjALg_uznZnbLfbWT4=", "properties": {"ref": "Essen - Industry X Innovation Center", "@spider": "accenture", "addr:full": "UNESCO World Heritage Zollverein,, Area C [Kokerei], Schalthaus 2, Kokereiallee 20", "addr:city": "Essen, North Rhine-Westphalia", "addr:postcode": "45141", "addr:country": "DE", "name": "Essen - Industry X Innovation Center", "phone": "+4920151789700", "website": "https://www.accenture.com/de-de/about/company/about-germany", "brand": "Accenture", "brand:wikidata": "Q29123313"}, "geometry": {"type": "Point", "coordinates": [7.03713762698363, 51.4894717422162]}},
{"type": "Feature", "id": "d-3lLJgAiPykG7A3-aroSARzbeQ=", "properties": {"ref": "Frankfurt - Accenture Interactive", "@spider": "accenture", "addr:full": "Mayfarthstra\u00dfe 19", "addr:city": "Frankfurt, Hesse", "addr:postcode": "60314", "addr:country": "DE", "name": "Frankfurt - Accenture Interactive", "phone": "+494961739499", "website": "https://www.accenture.com/de-de/about/company/about-germany", "brand": "Accenture", "brand:wikidata": "Q29123313"}, "geometry": {"type": "Point", "coordinates": [8.71095176074792, 50.1102775426024]}},
{"type": "Feature", "id": "2Bv8RfoGJD3rqVJblYzXmOn-6Pk=", "properties": {"ref": "Garching - IIoT Innovation Center", "@spider": "accenture", "addr:full": "Schlei\u00dfheimer Str. 93B", "addr:city": "Garching bei M\u00fcnchen, Bavaria", "addr:postcode": "85748", "addr:country": "DE", "name": "Garching - IIoT Innovation Center", "phone": "+498000713524", "website": "https://www.accenture.com/de-de/about/company/about-germany", "brand": "Accenture", "brand:wikidata": "Q29123313"}, "geometry": {"type": "Point", "coordinates": [11.6234416663601, 48.2487589694447]}},
{"type": "Feature", "id": "CR0Vl84T1Zp6BembKWuPQEh9HNw=", "properties": {"ref": "Hamburg", "@spider": "accenture", "addr:full": "Esplanade 40", "addr:city": "Hamburg", "addr:postcode": "20354", "addr:country": "DE", "name": "Hamburg", "phone": "+4940303343000", "website": "https://www.accenture.com/de-de/about/company/about-germany", "brand": "Accenture", "brand:wikidata": "Q29123313"}, "geometry": {"type": "Point", "coordinates": [9.99222381349182, 53.5582080514656]}},
{"type": "Feature", "id": "kEwxbWqLAO2ED535WLYquGOlCoU=", "properties": {"ref": "Jena - Accenture Technology Solutions", "@spider": "accenture", "addr:full": "Carl-Pulfrich-Stra\u00dfe 5b", "addr:city": "Jena, Thuringia", "addr:postcode": "07745", "addr:country": "DE", "name": "Jena - Accenture Technology Solutions", "phone": "+4936417690114", "website": "https://www.accenture.com/de-de/about/company/about-germany", "brand": "Accenture", "brand:wikidata": "Q29123313"}, "geometry": {"type": "Point", "coordinates": [11.571829, 50.920537]}},
{"type": "Feature", "id": "WWhEUvqNGpFijThUYsakgap0r08=", "properties": {"ref": "Kaiserslautern", "@spider": "accenture", "addr:full": "Br\u00fcsseler Stra\u00dfe 3", "addr:city": "Kaiserslautern, Rhineland-Palatinate", "addr:postcode": "67657", "addr:country": "DE", "name": "Kaiserslautern", "phone": "+4963171069000", "website": "https://www.accenture.com/de-de/about/company/about-germany", "brand": "Accenture", "brand:wikidata": "Q29123313"}, "geometry": {"type": "Point", "coordinates": [7.80499128109693, 49.4552046645468]}},
{"type": "Feature", "id": "CN0Z57_xSBJ6MSOiY2OlotcyuPw=", "properties": {"ref": "Kronberg", "@spider": "accenture", "addr:full": "Campus Kronberg1", "addr:city": "Kronberg, Hesse", "addr:postcode": "61476", "addr:country": "DE", "name": "Kronberg", "phone": "+4961739499", "website": "https://www.accenture.com/de-de/about/company/about-germany", "brand": "Accenture", "brand:wikidata": "Q29123313"}, "geometry": {"type": "Point", "coordinates": [8.527469, 50.175335]}},
{"type": "Feature", "id": "BnjcsTi1fy9Zx0r8bMewd8orYjA=", "properties": {"ref": "Munich - Balanstrasse 73", "@spider": "accenture", "addr:full": "Balanstrasse 73 / bldg. 17", "addr:city": "Munich", "addr:postcode": "81541", "addr:country": "DE", "name": "Munich - Balanstrasse 73", "phone": "+4989930810", "website": "https://www.accenture.com/de-de/about/company/about-germany", "brand": "Accenture", "brand:wikidata": "Q29123313"}, "geometry": {"type": "Point", "coordinates": [11.6018733359026, 48.1175359736591]}},
{"type": "Feature", "id": "E5NIiBMlziYbJvucp-PtaDe1qKI=", "properties": {"ref": "Stuttgart - Forststra\u00dfe 7", "@spider": "accenture", "addr:full": "Forststra\u00dfe 7, 1st Floor", "addr:city": "Stuttgart, Baden-W\u00fcrttemberg", "addr:postcode": "70174", "addr:country": "DE", "name": "Stuttgart - Forststra\u00dfe 7", "phone": "+497114906039000", "website": "https://www.accenture.com/de-de/about/company/about-germany", "brand": "Accenture", "brand:wikidata": "Q29123313"}, "geometry": {"type": "Point", "coordinates": [9.16723955209115, 48.7800338316846]}},
{"type": "Feature", "id": "dT_4zmvPMH1BGbM3L_htlnXv0Iw=", "properties": {"ref": "Athens", "@spider": "accenture", "addr:full": "1, Arcadias Str., Kifissia", "addr:city": "Athens", "addr:postcode": "14564", "addr:country": "GR", "name": "Athens", "phone": "+302106781400", "website": "https://www.accenture.com/gr-en/about/company/greece", "brand": "Accenture", "brand:wikidata": "Q29123313"}, "geometry": {"type": "Point", "coordinates": [23.8020384219144, 38.0996664449376]}},
{"type": "Feature", "id": "FDUYVczNmdi-hXq1ojboEb8KahE=", "properties": {"ref": "Thessaloniki", "@spider": "accenture", "addr:full": "17is Noemvriou 87, Pilea", "addr:city": "Thessaloniki", "addr:postcode": "55535", "addr:country": "GR", "name": "Thessaloniki", "phone": "+302106781400", "website": "https://www.accenture.com/gr-en/about/company/greece", "brand": "Accenture", "brand:wikidata": "Q29123313"}, "geometry": {"type": "Point", "coordinates": [22.9992266224289, 40.6083790126344]}},
{"type": "Feature", "id": "RHK6tinZuzbFdkBJFQG3g2_Re4M=", "properties": {"ref": "Budapest Advanced Technology Delivery Center", "@spider": "accenture", "addr:full": "1 Bence Street V\u00e1ci Greens Business Center, B Building", "addr:city": "Budapest", "addr:postcode": "1138", "addr:country": "HU", "name": "Budapest Advanced Technology Delivery Center", "phone": "+3613273700", "website": "https://www.accenture.com/hu-en/about/company/hungary", "brand": "Accenture", "brand:wikidata": "Q29123313"}, "geometry": {"type": "Point", "coordinates": [19.0734349, 47.5444269]}},
{"type": "Feature", "id": "MHKNAqqu9tU4qRSjdCVk9nZHckU=", "properties": {"ref": "Budapest Industry X.0", "@spider": "accenture", "addr:full": "Hauszmann Alajos Utca 2", "addr:city": "Budapest", "addr:postcode": "1116", "addr:country": "HU", "name": "Budapest Industry X.0", "phone": "+3618222000", "website": "https://www.accenture.com/hu-en/about/company/hungary", "brand": "Accenture", "brand:wikidata": "Q29123313"}, "geometry": {"type": "Point", "coordinates": [19.045067828207, 47.4672163414723]}},
{"type": "Feature", "id": "ju37SnDH6CfDbd-Lt_pPj-w9ugc=", "properties": {"ref": "Bengaluru - Audugodi", "@spider": "accenture", "addr:full": "Prestige Technopolis, 1/8, Dr.MH Maregowda Road, Audugodi", "addr:city": "Bengaluru, Karnataka", "addr:postcode": "560029", "addr:country": "IN", "name": "Bengaluru - Audugodi", "phone": "+918061180002", "website": "https://www.accenture.com/in-en/about/company/india", "brand": "Accenture", "brand:wikidata": "Q29123313"}, "geometry": {"type": "Point", "coordinates": [77.6073392417336, 12.936693951061]}},
{"type": "Feature", "id": "MVUDiws6ZML_SGKBIrwz-vmZPa4=", "properties": {"ref": "Bengaluru - Doddanekundi Village", "@spider": "accenture", "addr:full": "Bagmane Developers Pvt Ltd SEZ-II, Marathalli Ring Road, KR Puram Hobli, Doddanekundi Village", "addr:city": "Bengaluru, Karnataka", "addr:postcode": "560048", "addr:country": "IN", "name": "Bengaluru - Doddanekundi Village", "phone": "+918042330100", "website": "https://www.accenture.com/in-en/about/company/india", "brand": "Accenture", "brand:wikidata": "Q29123313"}, "geometry": {"type": "Point", "coordinates": [77.6952447445162, 12.9855507216485]}},
{"type": "Feature", "id": "qqVQvZPzVv91-hBJnk9Pg72G8a0=", "properties": {"ref": "Bengaluru - Mylasandra Patanegere Village", "@spider": "accenture", "addr:full": "Global Village (Sez), Tower I, II & III, IV, Near RV Engineering College, Mylasandra Patanegere Village", "addr:city": "Bengaluru, Karnataka", "addr:postcode": "560059", "addr:country": "IN", "name": "Bengaluru - Mylasandra Patanegere Village", "phone": "+918049346010", "website": "https://www.accenture.com/in-en/about/company/india", "brand": "Accenture", "brand:wikidata": "Q29123313"}, "geometry": {"type": "Point", "coordinates": [77.5015279, 12.920466]}},
{"type": "Feature", "id": "cCrjdbV4Rk8WoyE4PSR3boYsa9U=", "properties": {"ref": "Bengaluru - Pritech Park SEZ", "@spider": "accenture", "addr:full": "Pritech Park SEZ, Block 7, Outer Ring Road, Bellandur Village, Varthur Hobli", "addr:city": "Bengaluru, Karnataka", "addr:postcode": "560103", "addr:country": "IN", "name": "Bengaluru - Pritech Park SEZ", "phone": "+918043150000", "website": "https://www.accenture.com/in-en/about/company/india", "brand": "Accenture", "brand:wikidata": "Q29123313"}, "geometry": {"type": "Point", "coordinates": [77.6814166674938, 12.9237476072791]}},
{"type": "Feature", "id": "dPwc0j-NzqWu_jdnk9l3FTIxdHI=", "properties": {"ref": "Bengaluru - RMZ Ecospace", "@spider": "accenture", "addr:full": "RMZ Ecospace \u2013 Campus 2A & 2B, Marathahalli - Sarjapur Outer Ring Road, Varthur Hobli, Bellandur Village", "addr:city": "Bengaluru, Karnataka", "addr:postcode": "560103", "addr:country": "IN", "name": "Bengaluru - RMZ Ecospace", "phone": "+918041866600", "website": "https://www.accenture.com/in-en/about/company/india", "brand": "Accenture", "brand:wikidata": "Q29123313"}, "geometry": {"type": "Point", "coordinates": [77.6994807006117, 12.9495983941877]}},
{"type": "Feature", "id": "wXKOoGZ62F4oHANOJMM1UkKxImE=", "properties": {"ref": "Bengaluru - SEZ Kundallahalli", "@spider": "accenture", "addr:full": "Block Ta, Tb, Tc, Td, Te Divyashree Techno Park, 36/2, K R Puram Hobli, Whitefield, SEZ Kundallahalli", "addr:city": "Bengaluru, Karnataka", "addr:postcode": "560066", "addr:country": "IN", "name": "Bengaluru - SEZ Kundallahalli", "phone": "+918040770100", "website": "https://www.accenture.com/in-en/about/company/india", "brand": "Accenture", "brand:wikidata": "Q29123313"}, "geometry": {"type": "Point", "coordinates": [77.7248370693427, 12.9690979551109]}},
{"type": "Feature", "id": "PHfea0gey5oZQkggARqvFatO_bQ=", "properties": {"ref": "Bengaluru Innovation Hub", "@spider": "accenture", "addr:full": "Building 14, Pritech Park, Pritech Road, Bellandur", "addr:city": "Bengaluru, Karnataka", "addr:postcode": "560103", "addr:country": "IN", "name": "Bengaluru Innovation Hub", "phone": "+918046265000", "website": "https://www.accenture.com/in-en/about/company/accenture-innovation-hub-bengaluru", "brand": "Accenture", "brand:wikidata": "Q29123313"}, "geometry": {"type": "Point", "coordinates": [77.680861, 12.920519]}},
{"type": "Feature", "id": "Jl8yDBE8LLTuPQJgOitds0reJmA=", "properties": {"ref": "Chennai - Sholinganallur", "@spider": "accenture", "addr:full": "No:51, T E K Meadows, Old Mahabalipuram Road, Sholinganallur", "addr:city": "Chennai, Tamil Nadu", "addr:postcode": "600119", "addr:country": "IN", "name": "Chennai - Sholinganallur", "phone": "+914442670000", "website": "https://www.accenture.com/in-en/about/company/india", "brand": "Accenture", "brand:wikidata": "Q29123313"}, "geometry": {"type": "Point", "coordinates": [80.2267461826253, 12.9066739437856]}},
{"type": "Feature", "id": "mW0Y6XoS14UqdXHt5Kvs-PQuAv8=", "properties": {"ref": "Chennai - Shriram The Gateway SEZ", "@spider": "accenture", "addr:full": "Shriram, The Gateway SEZ, Block B1, B6, A6, B5, B4 & A1, No.16, GST Road, New Perungalathur, Tambaram Taluk,", "addr:city": "Chennai, Tamil Nadu", "addr:postcode": "600063", "addr:country": "IN", "name": "Chennai - Shriram The Gateway SEZ", "phone": "+914443462000", "website": "https://www.accenture.com/in-en/about/company/india", "brand": "Accenture", "brand:wikidata": "Q29123313"}, "geometry": {"type": "Point", "coordinates": [80.0928752883606, 12.8994852579597]}},
{"type": "Feature", "id": "o7FzthuYexu2sRgLyGGyM5wb35g=", "properties": {"ref": "Gurugram - DLF Cyber City", "@spider": "accenture", "addr:full": "1st Floor, Tower B & C, Building No. 8, Dlf Cyber City Phase II", "addr:city": "Gurugram, Haryana", "addr:postcode": "122002", "addr:country": "IN", "name": "Gurugram - DLF Cyber City", "phone": "+911244520600", "website": "https://www.accenture.com/in-en/about/company/india", "brand": "Accenture", "brand:wikidata": "Q29123313"}, "geometry": {"type": "Point", "coordinates": [77.0889305168396, 28.4942563556679]}},
{"type": "Feature", "id": "LmviZIRfPs9S3jJTuqzFpd_Aj24=", "properties": {"ref": "Gurugram - Dundahera", "@spider": "accenture", "addr:full": "2nd Floor, Building No. 2, Tower-A, 8th & 11th Floor Building No.1, Tower-B Unitech Infospace, Sector-21, Dundahera", "addr:city": "Gurugram, Haryana", "addr:postcode": "122001", "addr:country": "IN", "name": "Gurugram - Dundahera", "phone": "+911244903000", "website": "https://www.accenture.com/in-en/about/company/india", "brand": "Accenture", "brand:wikidata": "Q29123313"}, "geometry": {"type": "Point", "coordinates": [77.0491401083845, 28.4822556050921]}},
{"type": "Feature", "id": "_ptQaejnZJiPrawbDzFkOearZ24=", "properties": {"ref": "Gurugram - Udyog Vihar", "@spider": "accenture", "addr:full": "3rd - 5th Floor, Tower B, Sp Infocity, Plot No. 243, Phase - 1, Udyog Vihar", "addr:city": "Gurugram, Haryana", "addr:postcode": "122016", "addr:country": "IN", "name": "Gurugram - Udyog Vihar", "phone": "+911244904000", "website": "https://www.accenture.com/in-en/about/company/india", "brand": "Accenture", "brand:wikidata": "Q29123313"}, "geometry": {"type": "Point", "coordinates": [77.0752592404383, 28.5080253483158]}},
{"type": "Feature", "id": "_BZf-XKa7edcZBGApeqVaLoQ73Y=", "properties": {"ref": "Hyderabad - Divyashree Orion Tower", "@spider": "accenture", "addr:full": "Divyashree Orion Tower A, B, B SY.No.66/1, Naga Hills Road, Serilingampally, Raidurg Village", "addr:city": "Hyderabad, Telangana", "addr:postcode": "500032", "addr:country": "IN", "name": "Hyderabad - Divyashree Orion Tower", "phone": "+914067647000", "website": "https://www.accenture.com/in-en/about/company/india", "brand": "Accenture", "brand:wikidata": "Q29123313"}, "geometry": {"type": "Point", "coordinates": [78.3750898, 17.4216129]}},
{"type": "Feature", "id": "PP1uuwct-FeHGIhAYJb11_u1Zmo=", "properties": {"ref": "Hyderabad - HITEC City", "@spider": "accenture", "addr:full": "Building No 1A Nd 1B Raheja Mind Space Madhapur, HUDA Techno Enclave, HITEC City", "addr:city": "Hyderabad, Telangana", "addr:postcode": "500086", "addr:country": "IN", "name": "Hyderabad - HITEC City", "phone": "+914066926000", "website": "https://www.accenture.com/in-en/about/company/india", "brand": "Accenture", "brand:wikidata": "Q29123313"}, "geometry": {"type": "Point", "coordinates": [78.37743, 17.440674]}},
{"type": "Feature", "id": "1HmRdv9mjq1GnwUHq8rIzz1tggU=", "properties": {"ref": "Hyderabad - The WaveRock Building", "@spider": "accenture", "addr:full": "Survey No.115, WaveRock Building, Nanankram Guda", "addr:city": "Hyderabad, Telangana", "addr:postcode": "500032", "addr:country": "IN", "name": "Hyderabad - The WaveRock Building", "phone": "+914067130000", "website": "https://www.accenture.com/in-en/about/company/india", "brand": "Accenture", "brand:wikidata": "Q29123313"}, "geometry": {"type": "Point", "coordinates": [78.3480283, 17.4190404]}},
{"type": "Feature", "id": "MLvuBilT6SGTY6Kw0WwNZh8Clkg=", "properties": {"ref": "Jaipur", "@spider": "accenture", "addr:full": "Jaipur Center, Tonk Road & B2 Bypass Junction, Sector-B4, Near Airport", "addr:city": "Jaipur, Rajasthan", "addr:postcode": "302018", "addr:country": "IN", "name": "Jaipur", "phone": "+911416666400", "website": "https://www.accenture.com/in-en/about/company/india", "brand": "Accenture", "brand:wikidata": "Q29123313"}, "geometry": {"type": "Point", "coordinates": [75.7943664792915, 26.8394989809856]}},
{"type": "Feature", "id": "DJFzm_U0fOQl2Z2tzjD-McIPECw=", "properties": {"ref": "Kolkata", "@spider": "accenture", "addr:full": "Unitech Hi-Tech Structures Limited (It/Ites Sez), Block No. Dh, Plot no. DH1, DH2, DH3 ,Next to Gate No:3, Action Area 1 New Town, Rajarhat", "addr:city": "Kolkata, West Bengal", "addr:postcode": "700156", "addr:country": "IN", "name": "Kolkata", "phone": "+913344078000", "website": "https://www.accenture.com/in-en/about/company/india", "brand": "Accenture", "brand:wikidata": "Q29123313"}, "geometry": {"type": "Point", "coordinates": [88.4832572, 22.5747825]}},
{"type": "Feature", "id": "yf0-wXeBMS-uq2ztYuK8bBeN8Mc=", "properties": {"ref": "Mumbai - Godrej & Boyce Complex", "@spider": "accenture", "addr:full": "Plant 3, Godrej & Boyce Complex, Lal Bahadur Shastri Road, Pirojshanagar, Vikhroli West", "addr:city": "Mumbai, Maharashtra", "addr:postcode": "400079", "addr:country": "IN", "name": "Mumbai - Godrej & Boyce Complex", "phone": "+912240443934", "website": "https://www.accenture.com/in-en/about/company/india", "brand": "Accenture", "brand:wikidata": "Q29123313"}, "geometry": {"type": "Point", "coordinates": [72.921781, 19.10351]}},
{"type": "Feature", "id": "sbeo3u_OZo6MdNXnzf4Ep_Jnrio=", "properties": {"ref": "Mumbai - Godrej IT Park", "@spider": "accenture", "addr:full": "1st to 5th floor, Block \u2018C\u2019, Godrej IT Park, 02 Godrej Business District, Pirojshanagar, LBS Marg, Vikhroli - (West)", "addr:city": "Mumbai, Maharashtra", "addr:postcode": "400079", "addr:country": "IN", "name": "Mumbai - Godrej IT Park", "phone": "+912249129000", "website": "https://www.accenture.com/in-en/about/company/india", "brand": "Accenture", "brand:wikidata": "Q29123313"}, "geometry": {"type": "Point", "coordinates": [72.9225683, 19.1020464]}},
{"type": "Feature", "id": "ADrF5H3ndw_HPlkGGoLKyilfrgA=", "properties": {"ref": "Mumbai - Infinity Park", "@spider": "accenture", "addr:full": "Unit No.801, 8th Floor, Building No.4, Infinity Park, Ahead of Dindoshi, Malad East", "addr:city": "Mumbai, Maharashtra", "addr:postcode": "400097", "addr:country": "IN", "name": "Mumbai - Infinity Park", "phone": "+912242021000", "website": "https://www.accenture.com/in-en/about/company/india", "brand": "Accenture", "brand:wikidata": "Q29123313"}, "geometry": {"type": "Point", "coordinates": [72.882943, 19.17667]}},
{"type": "Feature", "id": "Zq_QEWkiduWNmZeeE_DA7mSQZPQ=", "properties": {"ref": "Mumbai - Mindspace, Serene Properties IT/ITES SEZ", "@spider": "accenture", "addr:full": "1st, 2nd, 3rd, & 4th Office Level, Building No. 02, Mindspace, Serene Properties IT/ITES SEZ, Thane-Belapur Road, Airoli", "addr:city": "Mumbai, Maharashtra", "addr:postcode": "400708", "addr:country": "IN", "name": "Mumbai - Mindspace, Serene Properties IT/ITES SEZ", "phone": "+912261860000", "website": "https://www.accenture.com/in-en/about/company/india", "brand": "Accenture", "brand:wikidata": "Q29123313"}, "geometry": {"type": "Point", "coordinates": [73.0005787, 19.1620222]}},
{"type": "Feature", "id": "y_obfrFor_b-SMml7wj1Ui03S9c=", "properties": {"ref": "Mumbai - Peninsula Corporate Park", "@spider": "accenture", "addr:full": "5th Floor, Piramal Tower, Peninsula Corporate Park, Ganpatrao Kadam Marg,, Off. Senapati Bapat Marg Lower Parel (West)", "addr:city": "Mumbai, Maharashtra", "addr:postcode": "400013", "addr:country": "IN", "name": "Mumbai - Peninsula Corporate Park", "phone": "+912261942300", "website": "https://www.accenture.com/in-en/about/company/india", "brand": "Accenture", "brand:wikidata": "Q29123313"}, "geometry": {"type": "Point", "coordinates": [72.8254247906884, 18.9996499959952]}},
{"type": "Feature", "id": "ZD15plFp9zLJY5pc8IadAAQFJQY=", "properties": {"ref": "Navi Mumbai - Airoli Knowledge Park", "@spider": "accenture", "addr:full": "Building No. 06, Gigaplex Estate Pvt. Ltd-Sez, Gigaplex It/ Ites Park, Plot No IT-5, Airoli Knowledge Park-TTC Industrial Area Villages Airoli & Dighe", "addr:city": "Navi Mumbai, Maharashtra", "addr:postcode": "400708", "addr:country": "IN", "name": "Navi Mumbai - Airoli Knowledge Park", "phone": "+912262250000", "website": "https://www.accenture.com/in-en/about/company/india", "brand": "Accenture", "brand:wikidata": "Q29123313"}, "geometry": {"type": "Point", "coordinates": [73.006582, 19.179267]}},
{"type": "Feature", "id": "OQfXz4lekgj4dFbj8nqmbq5T0e4=", "properties": {"ref": "New Delhi", "@spider": "accenture", "addr:full": "Worldmark 3, 5th floor, Asset Area no. 7, Hospitality District, Delhi Aerocity, Near Indira Gandhi International Airport", "addr:city": "New Delhi, Delhi", "addr:postcode": "110037", "addr:country": "IN", "name": "New Delhi", "phone": "+911140341300", "website": "https://www.accenture.com/in-en/about/company/india", "brand": "Accenture", "brand:wikidata": "Q29123313"}, "geometry": {"type": "Point", "coordinates": [77.1216259, 28.551339]}},
{"type": "Feature", "id": "Qqqe7HmREn78BhNrjsoqbi-ZI_c=", "properties": {"ref": "Noida - Sector 135", "@spider": "accenture", "addr:full": "Building No. 3, Fourth Floor, Infospace Plot No. 20 & 21 Seaview Developer, Sector -135", "addr:city": "Noida, Uttar Pradesh", "addr:postcode": "201301", "addr:country": "IN", "name": "Noida - Sector 135", "phone": "+911206620000", "website": "https://www.accenture.com/in-en/about/company/india", "brand": "Accenture", "brand:wikidata": "Q29123313"}, "geometry": {"type": "Point", "coordinates": [77.4047158, 28.4993971]}},
{"type": "Feature", "id": "EmrCB07J5u-lg7aHSoOC9wazHSU=", "properties": {"ref": "Noida - Sector 62", "@spider": "accenture", "addr:full": "Plot No. B-9/A, 2nd Floor, Tower B & C, Green Boulevard, Sector 62", "addr:city": "Noida, Uttar Pradesh", "addr:postcode": "201301", "addr:country": "IN", "name": "Noida - Sector 62", "phone": "+911204764000", "website": "https://www.accenture.com/in-en/about/company/india", "brand": "Accenture", "brand:wikidata": "Q29123313"}, "geometry": {"type": "Point", "coordinates": [77.3672832887894, 28.6233955316141]}},
{"type": "Feature", "id": "-PK5VExeKwZVLrcgd6p5IXQSrGQ=", "properties": {"ref": "Pune - Magarpatta City SEZ", "@spider": "accenture", "addr:full": "Building B-1, Magarpatta City (SEZ), Magarpatta City, Hadapsar-Mundhwa Road", "addr:city": "Pune, Maharashtra", "addr:postcode": "411013", "addr:country": "IN", "name": "Pune - Magarpatta City SEZ", "phone": "+912041451000", "website": "https://www.accenture.com/in-en/about/company/india", "brand": "Accenture", "brand:wikidata": "Q29123313"}, "geometry": {"type": "Point", "coordinates": [73.9232351693115, 18.5172095897317]}},
{"type": "Feature", "id": "maxzg_dxBHbJULYYu8dnsqj4u8U=", "properties": {"ref": "Pune - Qubix Business Parks", "@spider": "accenture", "addr:full": "IT-1, IT-4 & IT-7 Building, Qubix Business Parks, SNo154/6 Rajiv Gandhi Infotech Park, Phase 1, Hinjewadi", "addr:city": "Pune, Maharashtra", "addr:postcode": "411057", "addr:country": "IN", "name": "Pune - Qubix Business Parks", "phone": "+911244904000", "website": "https://www.accenture.com/in-en/about/company/india", "brand": "Accenture", "brand:wikidata": "Q29123313"}, "geometry": {"type": "Point", "coordinates": [73.736885, 18.580927]}},
{"type": "Feature", "id": "STuXYIgs3Ur8RqVsXVrNk9lJLHo=", "properties": {"ref": "Pune - SP Infocity", "@spider": "accenture", "addr:full": "SEZ, Building No. 4, Block 'B' And 'C, Taluka Haveli, Pune Saswad Road, SP Infocity, Phursungi", "addr:city": "Pune, Maharashtra", "addr:postcode": "412308", "addr:country": "IN", "name": "Pune - SP Infocity", "phone": "+911244904000", "website": "https://www.accenture.com/in-en/about/company/india", "brand": "Accenture", "brand:wikidata": "Q29123313"}, "geometry": {"type": "Point", "coordinates": [73.9528726969384, 18.4915140753936]}},
{"type": "Feature", "id": "VvGkon-_2ajtd6HFCttAUnI7Pgs=", "properties": {"ref": "Jakarta", "@spider": "accenture", "addr:full": "Wisma 46 Kota BNI-18th Floor, Jl. Jendral Sudirman Kav. 1, RT.10/RW.11, Karet Tengsin", "addr:city": "Jakarta, DKI Jakarta", "addr:postcode": "10220", "addr:country": "ID", "name": "Jakarta", "phone": "+62215746575", "website": "https://www.accenture.com/id-en", "brand": "Accenture", "brand:wikidata": "Q29123313"}, "geometry": {"type": "Point", "coordinates": [106.82045351368, -6.20360408762648]}},
{"type": "Feature", "id": "Qj0jb8il0C9h_tFwpUNzyjEzhx4=", "properties": {"ref": "Semarang", "@spider": "accenture", "addr:full": "Menara Suara Merdeka 9th Floor - Jl. Pandanaran No.30, Pekunden, Kec. Semarang Tengah", "addr:city": "Semarang, Jawa tengah", "addr:postcode": "50134", "addr:country": "ID", "name": "Semarang", "phone": "+622486003212", "website": "https://www.accenture.com/id-en", "brand": "Accenture", "brand:wikidata": "Q29123313"}, "geometry": {"type": "Point", "coordinates": [110.42068, -6.98809]}},
{"type": "Feature", "id": "iy9eeeFP1KJPGBw9s4D8zC_YDeQ=", "properties": {"ref": "Dublin - 1 Grand Canal Square", "@spider": "accenture", "addr:full": "1 Grand Canal Square", "addr:city": "Dublin", "addr:state": "Dublin", "addr:postcode": "D02 P820", "addr:country": "IE", "name": "Dublin - 1 Grand Canal Square", "phone": "+35316462000", "website": "https://www.accenture.com/ie-en", "brand": "Accenture", "brand:wikidata": "Q29123313"}, "geometry": {"type": "Point", "coordinates": [-6.23946155885456, 53.3436477235265]}},
{"type": "Feature", "id": "jsPnCLkVYc3y9-xhAJXr1nnbk4w=", "properties": {"ref": "Dublin - 3 Grand Canal Plaza", "@spider": "accenture", "addr:full": "3 Grand Canal Plaza", "addr:city": "Dublin", "addr:state": "Dublin", "addr:postcode": "D04 EE70", "addr:country": "IE", "name": "Dublin - 3 Grand Canal Plaza", "phone": "+35314076000", "website": "https://www.accenture.com/ie-en", "brand": "Accenture", "brand:wikidata": "Q29123313"}, "geometry": {"type": "Point", "coordinates": [-6.23876846379721, 53.3395131650561]}},
{"type": "Feature", "id": "njFBDugurEEf2AnbHOjVPzcD9CQ=", "properties": {"ref": "The Dock - Dublin", "@spider": "accenture", "addr:full": "7 Hanover Quay", "addr:city": "Dublin", "addr:state": "Dublin", "addr:postcode": "D02 YN32", "addr:country": "IE", "name": "The Dock - Dublin", "phone": "+35315066950", "website": "https://www.accenture.com/ie-en/company-dublin-innovation-centre-the-dock", "brand": "Accenture", "brand:wikidata": "Q29123313"}, "geometry": {"type": "Point", "coordinates": [-6.2337335, 53.3439691]}},
{"type": "Feature", "id": "xfu85jEC3Qe9Mp1Cz7rdFWIKj5w=", "properties": {"ref": "Kfar Saba", "@spider": "accenture", "addr:full": "Atirei Yeda, Building 15", "addr:city": "Kfar Saba", "addr:postcode": "4464312", "addr:country": "IL", "name": "Kfar Saba", "phone": "+97297498338", "website": "https://www.accenture.com/il-en", "brand": "Accenture", "brand:wikidata": "Q29123313"}, "geometry": {"type": "Point", "coordinates": [34.9321499, 32.1627419]}},
{"type": "Feature", "id": "AbXhwA3B3_ol5JkzmQiXU6v_AE8=", "properties": {"ref": "Tel Aviv Cyber Fusion Center", "@spider": "accenture", "addr:full": "2 Ha-Menofim Street", "addr:city": "Tel Aviv", "addr:postcode": "4672553", "addr:country": "IL", "name": "Tel Aviv Cyber Fusion Center", "phone": "+97299619600", "website": "https://www.accenture.com/il-en/service-cyber-security-center", "brand": "Accenture", "brand:wikidata": "Q29123313"}, "geometry": {"type": "Point", "coordinates": [34.8064033, 32.1604408]}},
{"type": "Feature", "id": "vpVeUVOlvzb4Rx-ahKqTnuolJOo=", "properties": {"ref": "Accenture Cloud Innovation Center Roma", "@spider": "accenture", "addr:full": "Talent Garden Ostiense - Via Ostiense, 92", "addr:city": "Rome", "addr:postcode": "00154", "addr:country": "IT", "name": "Accenture Cloud Innovation Center Roma", "phone": "+390659561111", "website": "https://www.accenture.com/it-it/services/cloud/innovation-center-roma", "brand": "Accenture", "brand:wikidata": "Q29123313"}, "geometry": {"type": "Point", "coordinates": [12.4791249360169, 41.8677760759857]}},
{"type": "Feature", "id": "_c2FCohvlM0jM_FMLgbk9QrRWwg=", "properties": {"ref": "Accenture Industry X Innovation Center Torino", "@spider": "accenture", "addr:full": "Corso Castelfidardo, 22", "addr:city": "Torino", "addr:state": "Torino", "addr:postcode": "10138", "addr:country": "IT", "name": "Accenture Industry X Innovation Center Torino", "phone": "+390115077111", "website": "https://www.accenture.com/it-it/about/company/italy", "brand": "Accenture", "brand:wikidata": "Q29123313"}, "geometry": {"type": "Point", "coordinates": [7.6609864, 45.0663532]}},
{"type": "Feature", "id": "uFKYIBv0S6nVvSxZqnWV1gLKuLY=", "properties": {"ref": "Accenture People Hub Milanofiori", "@spider": "accenture", "addr:full": "Via del Mulino, 11/a", "addr:city": "Assago, Milano", "addr:postcode": "20057", "addr:country": "IT", "name": "Accenture People Hub Milanofiori", "phone": "+390277751111", "website": "https://www.accenture.com/it-it/about/company/italy", "brand": "Accenture", "brand:wikidata": "Q29123313"}, "geometry": {"type": "Point", "coordinates": [9.15168268443102, 45.4101637062769]}},
{"type": "Feature", "id": "zeJpnq-hx4wRtMZebZaTujT7iuU=", "properties": {"ref": "Customer Innovation Network Milan", "@spider": "accenture", "addr:full": "Piazza Gae Aulenti, 8", "addr:city": "Milano", "addr:state": "Milano", "addr:postcode": "20124", "addr:country": "IT", "name": "Customer Innovation Network Milan", "phone": "+390277750200", "website": "https://www.accenture.com/it-it/about/company/italy", "brand": "Accenture", "brand:wikidata": "Q29123313"}, "geometry": {"type": "Point", "coordinates": [9.18990138869981, 45.483067510306]}},
{"type": "Feature", "id": "obE1ngVTZuQH5HxTrNuW4BsPANg=", "properties": {"ref": "Milan Industry X Innovation Center for Engineering", "@spider": "accenture", "addr:full": "Centro Leoni - Torre B Via Giovanni Spadolini, 7 (5th floor)", "addr:city": "Milan", "addr:state": "Milan", "addr:postcode": "20141", "addr:country": "IT", "name": "Milan Industry X Innovation Center for Engineering", "phone": "+390277751111", "website": "https://www.accenture.com/it-it/about/company/italy", "brand": "Accenture", "brand:wikidata": "Q29123313"}, "geometry": {"type": "Point", "coordinates": [9.19019692841087, 45.4436763532355]}},
{"type": "Feature", "id": "fRpUFVSKwCKi8YEjWzPAGCylgzg=", "properties": {"ref": "Milano - Corporate Center Bonnet", "@spider": "accenture", "addr:full": "Via Privata Nino Bonnet 10", "addr:city": "Milano", "addr:state": "Milano", "addr:postcode": "20154", "addr:country": "IT", "name": "Milano - Corporate Center Bonnet", "phone": "+390277751111", "website": "https://www.accenture.com/it-it/about/company/italy", "brand": "Accenture", "brand:wikidata": "Q29123313"}, "geometry": {"type": "Point", "coordinates": [9.1853711, 45.482602]}},
{"type": "Feature", "id": "iaZpczmGjV1pPgOOBxOMg0UhawE=", "properties": {"ref": "Modena Innovation Center", "@spider": "accenture", "addr:full": "Via Raimondo dalla Costa, 620", "addr:city": "Modena", "addr:state": "Modena", "addr:postcode": "41122", "addr:country": "IT", "name": "Modena Innovation Center", "website": "https://www.accenture.com/us-en/service-industry-xo-innovation-network-modena-italy", "brand": "Accenture", "brand:wikidata": "Q29123313"}, "geometry": {"type": "Point", "coordinates": [10.972041102043, 44.6602789099873]}},
{"type": "Feature", "id": "Kc7SXlPAQoq5Bu3vdZPjb7ETJ88=", "properties": {"ref": "Napoli", "@spider": "accenture", "addr:full": "Torre Saverio Isola C1, Centro Direzionale, Via Giovanni Porzio", "addr:city": "Napoli", "addr:state": "Napoli", "addr:postcode": "80143", "addr:country": "IT", "name": "Napoli", "phone": "+390810701111", "website": "https://www.accenture.com/it-it/about/company/italy", "brand": "Accenture", "brand:wikidata": "Q29123313"}, "geometry": {"type": "Point", "coordinates": [14.282754, 40.856494]}},
{"type": "Feature", "id": "Pb6D-6kcieKA__LVfYQA0U8wSyw=", "properties": {"ref": "Rome - Piazzale Dell'Industria 40", "@spider": "accenture", "addr:full": "Piazzale Dell'Industria 40", "addr:city": "Rome, Roma", "addr:postcode": "00144", "addr:country": "IT", "name": "Rome - Piazzale Dell'Industria 40", "phone": "+390659561111", "website": "https://www.accenture.com/it-it/about/company/italy", "brand": "Accenture", "brand:wikidata": "Q29123313"}, "geometry": {"type": "Point", "coordinates": [12.4740910006415, 41.8367064013157]}},
{"type": "Feature", "id": "UBnRgFjoyYrW4IwyZ9tadGTa1wo=", "properties": {"ref": "Rome - Via Sciangai 53", "@spider": "accenture", "addr:full": "Via Sciangai 53", "addr:city": "Roma", "addr:state": "Roma", "addr:postcode": "00144", "addr:country": "IT", "name": "Rome - Via Sciangai 53", "phone": "+390659561111", "brand": "Accenture", "brand:wikidata": "Q29123313"}, "geometry": {"type": "Point", "coordinates": [12.4261790769785, 41.8095407930191]}},
{"type": "Feature", "id": "8CUrhRqZQOOJnCwgK5JF51d6hmU=", "properties": {"ref": "Torino", "@spider": "accenture", "addr:full": "Via Nizza 262 Int. 57", "addr:city": "Torino", "addr:state": "Torino", "addr:postcode": "10126", "addr:country": "IT", "name": "Torino", "phone": "+390115077111", "website": "https://www.accenture.com/it-it/about/company/italy", "brand": "Accenture", "brand:wikidata": "Q29123313"}, "geometry": {"type": "Point", "coordinates": [7.66536202943041, 45.0314515822676]}},
{"type": "Feature", "id": "toJbUra-OXVZ0NBl47p1gU4bSTk=", "properties": {"ref": "Accenture Tokyo Office AIC", "@spider": "accenture", "addr:full": "1-11-44 Akasaka, Akasaka Intercity", "addr:city": "Minato-ku, Tokyo", "addr:postcode": "107-8672", "addr:country": "JP", "name": "Accenture Tokyo Office AIC", "phone": "+81335883000", "website": "https://www.accenture.com/jp-ja", "brand": "Accenture", "brand:wikidata": "Q29123313"}, "geometry": {"type": "Point", "coordinates": [139.742615553425, 35.6698570088017]}},
{"type": "Feature", "id": "EJCUbmraPWYYVvCn53mMkOVP9qA=", "properties": {"ref": "Accenture Tokyo Office AIR", "@spider": "accenture", "addr:full": "1-8-1 Akasaka, Akasaka Intercity AIR", "addr:city": "Minato-ku, Tokyo", "addr:postcode": "107-8672", "addr:country": "JP", "name": "Accenture Tokyo Office AIR", "phone": "+81335883000", "website": "https://www.accenture.com/jp-ja", "brand": "Accenture", "brand:wikidata": "Q29123313"}, "geometry": {"type": "Point", "coordinates": [139.74237616627, 35.6700459279546]}},
{"type": "Feature", "id": "WLw1Sdqhkck4ZVL5xKIFdAFwVk8=", "properties": {"ref": "Innovation Center Fukushima", "@spider": "accenture", "addr:full": "1-77 Higashisakae-machi, Aizuwakamatsu-shi ICT Office Building", "addr:city": "Aizuwakamatsu-shi, Fukushima", "addr:postcode": "965-0872", "addr:country": "JP", "name": "Innovation Center Fukushima", "phone": "+81242275713", "website": "https://www.accenture.com/jp-ja/accenture-innovation-center-fukushima-en", "brand": "Accenture", "brand:wikidata": "Q29123313"}, "geometry": {"type": "Point", "coordinates": [139.928864866495, 37.4921678040605]}},
{"type": "Feature", "id": "ey3vpRezX6DmkUe-LcWkefGTff8=", "properties": {"ref": "Innovation Center Hokkaido", "@spider": "accenture", "addr:full": "1-8-10 Nango-do-ri, Shiroishi-ku, Shiroishi Garden Place", "addr:city": "Sapporo-shi, Hokkaido", "addr:postcode": "003-0022", "addr:country": "JP", "name": "Innovation Center Hokkaido", "phone": "+81118760042", "website": "https://www.accenture.com/jp-ja", "brand": "Accenture", "brand:wikidata": "Q29123313"}, "geometry": {"type": "Point", "coordinates": [141.396928058284, 43.0455669333522]}},
{"type": "Feature", "id": "vfLIjyrpRtPIDyT5rm70dJwfBlo=", "properties": {"ref": "Intelligent Operation Center Fukuoka", "@spider": "accenture", "addr:full": "2-4-27 Momochihama, Sawara-ku, Fukuoka AI Building", "addr:city": "Fukuoka-shi, Fukuoka", "addr:postcode": "814-0001", "addr:country": "JP", "name": "Intelligent Operation Center Fukuoka", "phone": "+81928361111", "website": "https://www.accenture.com/jp-ja/accenture-intelligent-operations-center-fukuoka", "brand": "Accenture", "brand:wikidata": "Q29123313"}, "geometry": {"type": "Point", "coordinates": [130.354064084656, 33.5938852791873]}},
{"type": "Feature", "id": "oEUiq48ZQH0WRlfakoQOsj9Mplo=", "properties": {"ref": "Kumamoto", "@spider": "accenture", "addr:full": "12-24 Hanabata-cho, Chuo-ku, Kumamoto Fukoku Seimei Building", "addr:city": "Kumamoto-shi, Kumamoto", "addr:postcode": "860-0806", "addr:country": "JP", "name": "Kumamoto", "phone": "+81963560411", "website": "https://www.accenture.com/jp-ja", "brand": "Accenture", "brand:wikidata": "Q29123313"}, "geometry": {"type": "Point", "coordinates": [130.705632982803, 32.8004076552425]}},
{"type": "Feature", "id": "xk8o3QHlcLiVyjrFmJrngnGKcRE=", "properties": {"ref": "Osaka", "@spider": "accenture", "addr:full": "2-2-2 Nakanoshima, Osaka Nakanoshima Building", "addr:city": "Kita-ku, Osaka", "addr:postcode": "530-0005", "addr:country": "JP", "name": "Osaka", "phone": "+81662061750", "website": "https://www.accenture.com/jp-ja/about/company/kansai", "brand": "Accenture", "brand:wikidata": "Q29123313"}, "geometry": {"type": "Point", "coordinates": [135.498385, 34.6937192]}},
{"type": "Feature", "id": "PfgmebuP_rxTi2tnqzcendr1RCw=", "properties": {"ref": "Tokyo Innovation Hub", "@spider": "accenture", "addr:full": "1-4-1 Mita, Sumitomo Fudosan Azabu Juban Building", "addr:city": "Minato-Ku, Tokyo", "addr:postcode": "108-0073", "addr:country": "JP", "name": "Tokyo Innovation Hub", "phone": "+81335883000", "website": "https://www.accenture.com/jp-ja/accenture-innovation-hub-tokyo-en", "brand": "Accenture", "brand:wikidata": "Q29123313"}, "geometry": {"type": "Point", "coordinates": [139.74168113036, 35.6542696686464]}},
{"type": "Feature", "id": "QM-M-x3NhLGcEymsvd_U1ZNL7Zs=", "properties": {"ref": "Tokyo Solution Center", "@spider": "accenture", "addr:full": "1-8-12 Harumi, Harumi Island Triton Square Office Tower Z", "addr:city": "Chuo-ku, Tokyo", "addr:postcode": "104-6204", "addr:country": "JP", "name": "Tokyo Solution Center", "phone": "+81335883000", "website": "https://www.accenture.com/jp-ja", "brand": "Accenture", "brand:wikidata": "Q29123313"}, "geometry": {"type": "Point", "coordinates": [139.78284094283, 35.6570112621352]}},
{"type": "Feature", "id": "vPx03Ox7Ehy9GwEPjQ20UkhuALM=", "properties": {"ref": "Tokyo Solution Center - Harumi Triton Square Office", "@spider": "accenture", "addr:full": "1-8-8 Harumi, Harumi Island Triton Square Office Tower W", "addr:city": "Chuo-ku, Tokyo", "addr:postcode": "104-0053", "addr:country": "JP", "name": "Tokyo Solution Center - Harumi Triton Square Office", "phone": "+81362191130", "website": "https://www.accenture.com/jp-ja", "brand": "Accenture", "brand:wikidata": "Q29123313"}, "geometry": {"type": "Point", "coordinates": [139.782919628297, 35.6570723547005]}},
{"type": "Feature", "id": "FdLiZqGZsQq8dK4TEXvLEqYiVhI=", "properties": {"ref": "Tokyo Solution Center - Inui Building Kachidoki", "@spider": "accenture", "addr:full": "1-13-1 Kachidoki, Inui Building Kachidoki", "addr:city": "Chuo-ku, Tokyo", "addr:postcode": "104-0054", "addr:country": "JP", "name": "Tokyo Solution Center - Inui Building Kachidoki", "phone": "+81335883000", "website": "https://www.accenture.com/jp-ja", "brand": "Accenture", "brand:wikidata": "Q29123313"}, "geometry": {"type": "Point", "coordinates": [139.775218351538, 35.6607394152487]}},
{"type": "Feature", "id": "UrhA6MV_agjvGZV-q1eevwqw9Mg=", "properties": {"ref": "Yokohama", "@spider": "accenture", "addr:full": "3-6-3 Minato Mirai, Nishi-ku, MM Park Building", "addr:city": "Yokohama-shi, Kanagawa", "addr:postcode": "220-8691", "addr:country": "JP", "name": "Yokohama", "phone": "+81453308000", "website": "https://www.accenture.com/jp-ja", "brand": "Accenture", "brand:wikidata": "Q29123313"}, "geometry": {"type": "Point", "coordinates": [139.6324835, 35.4585126]}},
{"type": "Feature", "id": "OMTNPppafFiI2_Wqe69KxWrOg7I=", "properties": {"ref": "Riga - Zemgala gatve 74", "@spider": "accenture", "addr:full": "Gustava Zemgala gatve 74", "addr:city": "Riga", "addr:postcode": "LV-1039", "addr:country": "LV", "name": "Riga - Zemgala gatve 74", "phone": "+37167757863", "website": "https://www.accenture.com/lv-en/about/company/about-latvia", "brand": "Accenture", "brand:wikidata": "Q29123313"}, "geometry": {"type": "Point", "coordinates": [24.1655683703203, 56.9759526409443]}},
{"type": "Feature", "id": "2daQxo7rScw-CufSZ8wdecaii-A=", "properties": {"ref": "Riga Liquid Studio", "@spider": "accenture", "addr:full": "Br\u012bv\u012bbas gatve 214, Vidzemes priek\u0161pils\u0113ta", "addr:city": "Riga", "addr:postcode": "LV-1039", "addr:country": "LV", "name": "Riga Liquid Studio", "phone": "+37167019700", "website": "https://www.accenture.com/lv-en/about/company/about-latvia", "brand": "Accenture", "brand:wikidata": "Q29123313"}, "geometry": {"type": "Point", "coordinates": [24.160196, 56.9709788]}},
{"type": "Feature", "id": "3lLunm35m2Ub-Dhb_z4yc0nWH-I=", "properties": {"ref": "Kuala Lumpur - Bangsar South City - Level 15 & 16", "@spider": "accenture", "addr:full": "Vertical Corporate Tower B, Avenue 10, The Vertical Bangsar South City, 8 Jalan Kerinchi", "addr:city": "Kuala Lumpur", "addr:state": "Kuala Lumpur", "addr:postcode": "59200", "addr:country": "MY", "name": "Kuala Lumpur - Bangsar South City - Level 15 & 16", "phone": "+60327782300", "website": "https://www.accenture.com/my-en", "brand": "Accenture", "brand:wikidata": "Q29123313"}, "geometry": {"type": "Point", "coordinates": [101.666334931975, 3.11177959896526]}},
{"type": "Feature", "id": "9_vGjG4AoOH5RQzKTl_uDGxUCsU=", "properties": {"ref": "Kuala Lumpur - Bangsar South City - Level 20 & 21", "@spider": "accenture", "addr:full": "Level 20 & 21, Vertical Corporate Tower B Avenue 10,, The Vertical Bangsar South City, No. 8 Jalan Kerinchi", "addr:city": "Kuala Lumpur", "addr:state": "Kuala Lumpur", "addr:postcode": "59200", "addr:country": "MY", "name": "Kuala Lumpur - Bangsar South City - Level 20 & 21", "phone": "+60327782301", "website": "https://www.accenture.com/my-en", "brand": "Accenture", "brand:wikidata": "Q29123313"}, "geometry": {"type": "Point", "coordinates": [101.666329247885, 3.11182982151461]}},
{"type": "Feature", "id": "TN1z8C7gtep5nLFjJL6W82e1dSo=", "properties": {"ref": "Kuala Lumpur - Bangsar South City - UOA Corporate Tower", "@spider": "accenture", "addr:full": "Level 11, UOA Corporate Tower Avenue 10, The Vertical Bangsar South City, No. 8 Jalan Kerinchi", "addr:city": "Kuala Lumpur", "addr:state": "Kuala Lumpur", "addr:postcode": "59200", "addr:country": "MY", "name": "Kuala Lumpur - Bangsar South City - UOA Corporate Tower", "phone": "+60327782300", "website": "https://www.accenture.com/my-en", "brand": "Accenture", "brand:wikidata": "Q29123313"}, "geometry": {"type": "Point", "coordinates": [101.666285083704, 3.11132803808336]}},
{"type": "Feature", "id": "MFQjVZDpdNrH8cb3C5Jjl9zZ9Sw=", "properties": {"ref": "Kuala Lumpur - Tun Razak Exchange", "@spider": "accenture", "addr:full": "Level 29 & 30, Menara Exchange 106, Lingkaran TRX, Tun Razak Exchange", "addr:city": "Kuala Lumpur", "addr:state": "Kuala Lumpur", "addr:postcode": "55188", "addr:country": "MY", "name": "Kuala Lumpur - Tun Razak Exchange", "phone": "+60327008000", "website": "https://www.accenture.com/my-en", "brand": "Accenture", "brand:wikidata": "Q29123313"}, "geometry": {"type": "Point", "coordinates": [101.7183631, 3.1422539]}},
{"type": "Feature", "id": "mCNToHgY6y1Bqr-FOAA8FZlNmoY=", "properties": {"ref": "Petaling Jaya", "@spider": "accenture", "addr:full": "Suite 2.09(A), Block E, Level 1, Kelana Parkview Tower, No. 1 Jalan SS 6/2, Kelana Jaya", "addr:city": "Petaling Jaya, Selangor", "addr:postcode": "47301", "addr:country": "MY", "name": "Petaling Jaya", "phone": "+60378064618", "website": "https://www.accenture.com/my-en", "brand": "Accenture", "brand:wikidata": "Q29123313"}, "geometry": {"type": "Point", "coordinates": [101.598521802008, 3.10108276627771]}},
{"type": "Feature", "id": "0BbCOABf3zJ45sD5XULmZ3npDUM=", "properties": {"ref": "Sarawak Kuching", "@spider": "accenture", "addr:full": "Suite 107, 1st Floor Crown Towers, 88 Jalan Pending", "addr:city": "Kuching, Sarawak", "addr:postcode": "93450", "addr:country": "MY", "name": "Sarawak Kuching", "phone": "+6082553007", "website": "https://www.accenture.com/my-en", "brand": "Accenture", "brand:wikidata": "Q29123313"}, "geometry": {"type": "Point", "coordinates": [110.36921481737, 1.55073489374394]}},
{"type": "Feature", "id": "wvjo-MKme3LVkwokwjKSByA-Gws=", "properties": {"ref": "Selangor - Century Square", "@spider": "accenture", "addr:full": "Ground Floor, North Wing, Block 2320 Century Square", "addr:city": "Cyberjaya, Selangor", "addr:postcode": "63000", "addr:country": "MY", "name": "Selangor - Century Square", "phone": "+60126362669", "website": "https://www.accenture.com/my-en", "brand": "Accenture", "brand:wikidata": "Q29123313"}, "geometry": {"type": "Point", "coordinates": [101.6619158, 2.9249989]}},
{"type": "Feature", "id": "B2VgGkDZ49KOhqTqTm8QNvzjulg=", "properties": {"ref": "Selangor - No 1 Jalan Kemajuan, Seksyen 13", "@spider": "accenture", "addr:full": "Level 10, Plaza 33, No 1 Jalan Kemajuan, Seksyen 13, Selangor Darul Ehsan", "addr:city": "Petaling Jaya, Selangor", "addr:postcode": "46200", "addr:country": "MY", "name": "Selangor - No 1 Jalan Kemajuan, Seksyen 13", "phone": "+60379323211", "website": "https://www.accenture.com/my-en", "brand": "Accenture", "brand:wikidata": "Q29123313"}, "geometry": {"type": "Point", "coordinates": [101.638228203705, 3.10987101738856]}},
{"type": "Feature", "id": "nFO3TlXIqGB4IY7fBJTVS9UwRhM=", "properties": {"ref": "Selangor - Sunway Geo Tower", "@spider": "accenture", "addr:full": "Level 4 &17, Geo Tower, Menara Sunway, Jalan Lagoon Timur, Bandar Sunway, Selangor Darul Ehsan,", "addr:city": "Selangor, Subang Jaya", "addr:postcode": "47500", "addr:country": "MY", "name": "Selangor - Sunway Geo Tower", "phone": "+60376806430", "website": "https://www.accenture.com/my-en", "brand": "Accenture", "brand:wikidata": "Q29123313"}, "geometry": {"type": "Point", "coordinates": [101.610429357095, 3.06498069337103]}},
{"type": "Feature", "id": "V5QK7rMjfGYCnek2TD-SZGDG_JA=", "properties": {"ref": "Selangor - The Pinnacle Persiaran Lagoon Selatan", "@spider": "accenture", "addr:full": "Level 9, The Pinnacle Sunway, Jalan Lagoon Timur, Bandar Sunway, Selangor Darul Ehsan", "addr:city": "Selangor, Subang Jaya", "addr:postcode": "47500", "addr:country": "MY", "name": "Selangor - The Pinnacle Persiaran Lagoon Selatan", "phone": "+60376809400", "website": "https://www.accenture.com/my-en", "brand": "Accenture", "brand:wikidata": "Q29123313"}, "geometry": {"type": "Point", "coordinates": [101.6101006, 3.0702498]}},
{"type": "Feature", "id": "_VbiT4h3UG-JqRG0hHj6w84zy0Y=", "properties": {"ref": "Luxembourg - Galileo Center", "@spider": "accenture", "addr:full": "7 Rue Lou Hemmer", "addr:city": "Niederanven", "addr:postcode": "1748", "addr:country": "LU", "name": "Luxembourg - Galileo Center", "phone": "+352264231", "website": "https://www.accenture.com/lu-en", "brand": "Accenture", "brand:wikidata": "Q29123313"}, "geometry": {"type": "Point", "coordinates": [6.20760119229828, 49.633060028017]}},
{"type": "Feature", "id": "bw6e6SxFkVzYBDlAKYRxROw1IdU=", "properties": {"ref": "1 Cybercity - Ebene", "@spider": "accenture", "addr:full": "1 Cybercity 1-3 floor", "addr:city": "Ebene", "addr:postcode": "72201", "addr:country": "MU", "name": "1 Cybercity - Ebene", "phone": "+2304044500", "website": "https://www.accenture.com/mu-en", "brand": "Accenture", "brand:wikidata": "Q29123313"}, "geometry": {"type": "Point", "coordinates": [57.4929217380837, -20.2480734469175]}},
{"type": "Feature", "id": "CwYPEG_RtXR_1LRXWpkX5wERlUs=", "properties": {"ref": "Ebene Cybercity", "@spider": "accenture", "addr:full": "9th Floor, Nexteracom Tower II", "addr:city": "Ebene Cybercity", "addr:postcode": "72201", "addr:country": "MU", "name": "Ebene Cybercity", "phone": "+2304025300", "website": "https://www.accenture.com/mu-en", "brand": "Accenture", "brand:wikidata": "Q29123313"}, "geometry": {"type": "Point", "coordinates": [57.4919182245369, -20.2447553632348]}},
{"type": "Feature", "id": "JkIFUNzieaiJVYIrt4B7vquMA9I=", "properties": {"ref": "Rue du Savoir - Ebene Cybercity", "@spider": "accenture", "addr:full": "Nex Tower, Rue du Savoir, Ground, 1st, 2nd, 6th floor, Ebene Cybercity", "addr:city": "Ebene", "addr:postcode": "72201", "addr:country": "MU", "name": "Rue du Savoir - Ebene Cybercity", "phone": "+2304021701", "website": "https://www.accenture.com/mu-en", "brand": "Accenture", "brand:wikidata": "Q29123313"}, "geometry": {"type": "Point", "coordinates": [57.4892587403599, -20.2421866659828]}},
{"type": "Feature", "id": "Ho30o3KDVmtPSt4qCMmGdGIXFGQ=", "properties": {"ref": "Shri Atal Bihari Vajpayee Tower - Ebene Cyber City", "@spider": "accenture", "addr:full": "Ebene Cyber City Shri Atal Bihari Vajpayee Tower 8th floor, Cyber Tower 1, Ebene Cybercity", "addr:city": "Quatre Bornes", "addr:postcode": "72201", "addr:country": "MU", "name": "Shri Atal Bihari Vajpayee Tower - Ebene Cyber City", "phone": "+2304045760", "website": "https://www.accenture.com/mu-en", "brand": "Accenture", "brand:wikidata": "Q29123313"}, "geometry": {"type": "Point", "coordinates": [57.4917014705349, -20.2452813047961]}},
{"type": "Feature", "id": "5b212V7rrFVZ37KF7pqCD32EOnc=", "properties": {"ref": "Mexico City", "@spider": "accenture", "addr:full": "Torre Arcos Bosques II, Paseo de los Tamarindos No. 90 Torre 2 Piso 26, Col. Bosques de las Lomas Deleg. Cuajimalpa de Morelos", "addr:city": "Mexico City, Ciudad de M\u00e9xico", "addr:postcode": "05120", "addr:country": "MX", "name": "Mexico City", "phone": "+525552847300", "website": "https://www.accenture.com/mx-es", "brand": "Accenture", "brand:wikidata": "Q29123313"}, "geometry": {"type": "Point", "coordinates": [-99.2520110932541, 19.3871149397589]}},
{"type": "Feature", "id": "qpSPITT2yS2U6hEWprqEhbzyTQs=", "properties": {"ref": "Monterrey", "@spider": "accenture", "addr:full": "Oficinas en el Parque, Blvd. Antonio L. Rodr\u00edguez #1884, Torre 1, Piso 7, Col. Santa Maria,", "addr:city": "Monterrey, Nuevo Le\u00f3n", "addr:postcode": "64650", "addr:country": "MX", "name": "Monterrey", "phone": "+528180480600", "website": "https://www.accenture.com/mx-es", "brand": "Accenture", "brand:wikidata": "Q29123313"}, "geometry": {"type": "Point", "coordinates": [-100.37766458712, 25.669990228417]}},
{"type": "Feature", "id": "K5tp8ngV2XoUBNgMrS7WlcByCGs=", "properties": {"ref": "Quer\u00e9taro", "@spider": "accenture", "addr:full": "Avenida Antea 1088, Piso 3", "addr:city": "Santiago de Quer\u00e9taro, Quer\u00e9taro", "addr:postcode": "76100", "addr:country": "MX", "name": "Quer\u00e9taro", "phone": "+524429800786", "website": "https://www.accenture.com/mx-es", "brand": "Accenture", "brand:wikidata": "Q29123313"}, "geometry": {"type": "Point", "coordinates": [-100.438721148479, 20.6754980742689]}},
{"type": "Feature", "id": "9dmlnxYZpwCFKM7K0mZhyzkzJvQ=", "properties": {"ref": "Casablanca", "@spider": "accenture", "addr:full": "Casanearshore (Sidi Maarouf), Shore 10, Park 1100 \u2013 Bd.Al Qods, Sidi Maarouf", "addr:city": "Casablanca", "addr:postcode": "20100", "addr:country": "MA", "name": "Casablanca", "phone": "+212522461950", "website": "https://www.accenture.com/ma-en", "brand": "Accenture", "brand:wikidata": "Q29123313"}, "geometry": {"type": "Point", "coordinates": [-7.6362214, 33.530821]}},
{"type": "Feature", "id": "i-ZzB7EmNay7M6_fmcD6wdK87uQ=", "properties": {"ref": "Amsterdam", "@spider": "accenture", "addr:full": "Gustav Mahlerplein 90", "addr:city": "Amsterdam", "addr:postcode": "1082 MA", "addr:country": "NL", "name": "Amsterdam", "phone": "+31204938383", "website": "https://www.accenture.com/nl-en", "brand": "Accenture", "brand:wikidata": "Q29123313"}, "geometry": {"type": "Point", "coordinates": [4.87296546181756, 52.3371328435199]}},
{"type": "Feature", "id": "uJ-7uEeGpDGufxqJsWagVSkdMC0=", "properties": {"ref": "Amsterdam - Fred. Roeskestraat", "@spider": "accenture", "addr:full": "Fred. Roeskestraat 115-117-123", "addr:city": "Amsterdam", "addr:postcode": "1076 EE", "addr:country": "NL", "name": "Amsterdam - Fred. Roeskestraat", "phone": "+31614445138", "website": "https://www.accenture.com/nl-en", "brand": "Accenture", "brand:wikidata": "Q29123313"}, "geometry": {"type": "Point", "coordinates": [4.85859702144949, 52.3406952276468]}},
{"type": "Feature", "id": "nohTp8dKY9X3nHlbxyZimHcWRTM=", "properties": {"ref": "Heerlen", "@spider": "accenture", "addr:full": "Smedestraat 2", "addr:city": "Heerlen", "addr:postcode": "6411 CR", "addr:country": "NL", "name": "Heerlen", "phone": "+31620270781", "website": "https://www.accenture.com/nl-en", "brand": "Accenture", "brand:wikidata": "Q29123313"}, "geometry": {"type": "Point", "coordinates": [5.97333106847736, 50.8827509259323]}},
{"type": "Feature", "id": "X4BQ44rZBybXJAYwUTBmsMisjKg=", "properties": {"ref": "Utrecht", "@spider": "accenture", "addr:full": "Orteliuslaan 1000", "addr:city": "Utrecht", "addr:postcode": "3528 BD", "addr:country": "NL", "name": "Utrecht", "phone": "+31620325285", "website": "https://www.accenture.com/nl-en", "brand": "Accenture", "brand:wikidata": "Q29123313"}, "geometry": {"type": "Point", "coordinates": [5.0840762, 52.0674085]}},
{"type": "Feature", "id": "5VYmdiDzIc5tSHmmPb_kNMVt8CE=", "properties": {"ref": "Auckland", "@spider": "accenture", "addr:full": "Level 12, 125 Queen Street", "addr:city": "Auckland", "addr:postcode": "1010", "addr:country": "NZ", "name": "Auckland", "phone": "+6493511600", "website": "https://www.accenture.com/nz-en", "brand": "Accenture", "brand:wikidata": "Q29123313"}, "geometry": {"type": "Point", "coordinates": [174.7658292, -36.8464291]}},
{"type": "Feature", "id": "H-S73PTszXhwxEAOQLKMwlp5DRU=", "properties": {"ref": "Wellington - Harbour Tower", "@spider": "accenture", "addr:full": "Level 16 Harbour Tower 2 Hunter Street", "addr:city": "Wellington", "addr:postcode": "6011", "addr:country": "NZ", "name": "Wellington - Harbour Tower", "phone": "+6444666000", "website": "https://www.accenture.com/nz-en", "brand": "Accenture", "brand:wikidata": "Q29123313"}, "geometry": {"type": "Point", "coordinates": [174.777437015711, -41.2855938215371]}},
{"type": "Feature", "id": "ZpN8o2idvPk_YStOlofJ22y9PRo=", "properties": {"ref": "Bergen", "@spider": "accenture", "addr:full": "Solheimsgaten 11", "addr:city": "Bergen", "addr:postcode": "5020", "addr:country": "NO", "name": "Bergen", "phone": "+4767126700", "website": "https://www.accenture.com/no-en/about/company/norway", "brand": "Accenture", "brand:wikidata": "Q29123313"}, "geometry": {"type": "Point", "coordinates": [5.334677, 60.37706]}},
{"type": "Feature", "id": "4nBbjBKNaGqV-7HVQoqownc9bQk=", "properties": {"ref": "Fornebu Oslo", "@spider": "accenture", "addr:full": "Rolfsbuktveien 2, 1364", "addr:city": "Fornebu", "addr:postcode": "1326", "addr:country": "NO", "name": "Fornebu Oslo", "phone": "+4767126700", "website": "https://www.accenture.com/no-en/about/company/norway", "brand": "Accenture", "brand:wikidata": "Q29123313"}, "geometry": {"type": "Point", "coordinates": [10.6262936, 59.8954184]}},
{"type": "Feature", "id": "TfE5xwpcC8q2XGklGTi_-WIl-G8=", "properties": {"ref": "Sandnes", "@spider": "accenture", "addr:full": "FOMO Building, Grenseveien 21", "addr:city": "Sandnes", "addr:postcode": "4313", "addr:country": "NO", "name": "Sandnes", "phone": "+4767126700", "website": "https://www.accenture.com/no-en/about/company/norway", "brand": "Accenture", "brand:wikidata": "Q29123313"}, "geometry": {"type": "Point", "coordinates": [5.71828122453691, 58.8886715175121]}},
{"type": "Feature", "id": "mkKeEjXC81BdzsQJ0zQd2NEuHsI=", "properties": {"ref": "Cebu City - Capitol Site", "@spider": "accenture", "addr:full": "Capitol Site, Robinsons Cybergate, 5/F Don Gil Garcia Street", "addr:city": "Cebu City, Cebu", "addr:postcode": "6000", "addr:country": "PH", "name": "Cebu City - Capitol Site", "phone": "+63322681000", "website": "https://www.accenture.com/ph-en/about/company/philippines", "brand": "Accenture", "brand:wikidata": "Q29123313"}, "geometry": {"type": "Point", "coordinates": [123.8921517, 10.3099693]}},
{"type": "Feature", "id": "a8SS4xnC-nOIAUNQTcmnz817ZIg=", "properties": {"ref": "Cebu City - Cebu Business Park", "@spider": "accenture", "addr:full": "Cebu Business Park, Pioneer House Cebu, Cardinal Rosales Ave", "addr:city": "Cebu City, Central Visayas", "addr:postcode": "6000", "addr:country": "PH", "name": "Cebu City - Cebu Business Park", "phone": "+63322681000", "website": "https://www.accenture.com/ph-en/about/company/philippines", "brand": "Accenture", "brand:wikidata": "Q29123313"}, "geometry": {"type": "Point", "coordinates": [123.9056228, 10.3151492]}},
{"type": "Feature", "id": "1Tih9vwBFTY-JHSjirG61ljqTrg=", "properties": {"ref": "Cebu City - Cebu IT Park", "@spider": "accenture", "addr:full": "14/F E-Bloc 2 Bldg. Geonzon St. Cebu It Park Apas", "addr:city": "Cebu City, Cebu", "addr:postcode": "6000", "addr:country": "PH", "name": "Cebu City - Cebu IT Park", "phone": "+63322681000", "website": "https://www.accenture.com/ph-en/about/company/philippines", "brand": "Accenture", "brand:wikidata": "Q29123313"}, "geometry": {"type": "Point", "coordinates": [123.905436666068, 10.3308108669774]}},
{"type": "Feature", "id": "fLbj8PbrrT_GY-_CxZHyp_A8rpo=", "properties": {"ref": "Cebu City - Filinvest Towers", "@spider": "accenture", "addr:full": "Filinvest Towers, 4th Floor Cebu I.T. Park, W Geonzon St", "addr:city": "Cebu City, Cebu", "addr:postcode": "6000", "addr:country": "PH", "name": "Cebu City - Filinvest Towers", "phone": "+63322681000", "website": "https://www.accenture.com/ph-en/about/company/philippines", "brand": "Accenture", "brand:wikidata": "Q29123313"}, "geometry": {"type": "Point", "coordinates": [123.905380674828, 10.3298941325997]}},
{"type": "Feature", "id": "Fom0cXehUZMNe4Cm55LGhia3BoQ=", "properties": {"ref": "Ilocos Norte", "@spider": "accenture", "addr:full": "No. 1 San Francisco", "addr:city": "San Nicolas, Ilocos Norte", "addr:postcode": "2901", "addr:country": "PH", "name": "Ilocos Norte", "phone": "+63287029100", "website": "https://www.accenture.com/ph-en/about/company/philippines", "brand": "Accenture", "brand:wikidata": "Q29123313"}, "geometry": {"type": "Point", "coordinates": [120.5904165, 18.1799188]}},
{"type": "Feature", "id": "M6GatmWMPwmDdX-D_Da8uaLRTRI=", "properties": {"ref": "Manila", "@spider": "accenture", "addr:full": "Robinsons Cybergate Towers 1, 2 And 3, EDSA cor. Pioneer Street, Mandaluyong City", "addr:city": "Manila, Metro Manila", "addr:postcode": "1554", "addr:country": "PH", "name": "Manila", "phone": "+63285805888", "website": "https://www.accenture.com/ph-en/about/company/philippines", "brand": "Accenture", "brand:wikidata": "Q29123313"}, "geometry": {"type": "Point", "coordinates": [121.048487, 14.5708715]}},
{"type": "Feature", "id": "Q3-LUoXFkiZDvENPX8I7_OV0jD8=", "properties": {"ref": "Manila Liquid Studio", "@spider": "accenture", "addr:full": "19/F Uptown Tower 3, 11th Avenue, Bonifacio Global City", "addr:city": "Manila, Metro Manila", "addr:postcode": "1634", "addr:country": "PH", "name": "Manila Liquid Studio", "phone": "+63285805888", "website": "https://www.accenture.com/ph-en/about/company/philippines", "brand": "Accenture", "brand:wikidata": "Q29123313"}, "geometry": {"type": "Point", "coordinates": [121.055976322754, 14.5568453869108]}},
{"type": "Feature", "id": "43fpVvbb31VRkds0KbDURU1Pz7M=", "properties": {"ref": "Muntinlupa", "@spider": "accenture", "addr:full": "8th Floor Axis Tower One, Northgate Cyberzone, Filinvest City Alabang", "addr:city": "Muntinlupa", "addr:postcode": "1781", "addr:country": "PH", "name": "Muntinlupa", "phone": "+639175805888", "website": "https://www.accenture.com/ph-en/about/company/philippines", "brand": "Accenture", "brand:wikidata": "Q29123313"}, "geometry": {"type": "Point", "coordinates": [121.0398316, 14.4231439]}},
{"type": "Feature", "id": "bLKRVh88dfaeLJoZX5VW4QWSp-k=", "properties": {"ref": "Quezon City - General Roxas Avenue and General Aguinaldo Avenue", "@spider": "accenture", "addr:full": "Gateway 2 FLR 6 to 9, General Roxas Avenue and General Aguinaldo Avenue", "addr:city": "Quezon City, Metro Manila", "addr:postcode": "1109", "addr:country": "PH", "name": "Quezon City - General Roxas Avenue and General Aguinaldo Avenue", "phone": "+63285805888", "website": "https://www.accenture.com/ph-en/about/company/philippines", "brand": "Accenture", "brand:wikidata": "Q29123313"}, "geometry": {"type": "Point", "coordinates": [121.0528666, 14.622555]}},
{"type": "Feature", "id": "GrmgPXZHBCLLq_7nW8QRJiWT62w=", "properties": {"ref": "Lima", "@spider": "accenture", "addr:full": "Av. Rivera Navarrete 475, piso 17 San Isidro", "addr:city": "Lima", "addr:postcode": "15046", "addr:country": "PE", "name": "Lima", "phone": "+5112067500", "website": "https://www.accenture.com/pe-es", "brand": "Accenture", "brand:wikidata": "Q29123313"}, "geometry": {"type": "Point", "coordinates": [-77.0264769, -12.0922488]}},
{"type": "Feature", "id": "gZBPxC3CoAgD2BQMocX52tNspEs=", "properties": {"ref": "Katowice", "@spider": "accenture", "addr:full": "Silesia Bussines Park, Chorzowska  148, Building C", "addr:city": "Katowice", "addr:postcode": "40-101", "addr:country": "PL", "name": "Katowice", "phone": "+48222049801", "website": "https://www.accenture.com/pl-pl", "brand": "Accenture", "brand:wikidata": "Q29123313"}, "geometry": {"type": "Point", "coordinates": [18.997601, 50.26983]}},
{"type": "Feature", "id": "PpGOQ5rzFSuZGHYodjvHxBB3hug=", "properties": {"ref": "Krakow - High5ive Building 4", "@spider": "accenture", "addr:full": "High5ive Building 4,, 21 Pawia Street", "addr:city": "Krakow", "addr:postcode": "31-154", "addr:country": "PL", "name": "Krakow - High5ive Building 4", "phone": "+48222048000", "website": "https://www.accenture.com/pl-pl", "brand": "Accenture", "brand:wikidata": "Q29123313"}, "geometry": {"type": "Point", "coordinates": [19.9454714116568, 50.0700404352672]}},
{"type": "Feature", "id": "0Gu_2SoNMH35NZC2XCDNNfwSSbA=", "properties": {"ref": "Lodz", "@spider": "accenture", "addr:full": "University Business Park W\u00f3lcza\u0144ska 178", "addr:city": "Lodz", "addr:postcode": "90-530", "addr:country": "PL", "name": "Lodz", "phone": "+48222049600", "website": "https://www.accenture.com/pl-pl", "brand": "Accenture", "brand:wikidata": "Q29123313"}, "geometry": {"type": "Point", "coordinates": [19.456054074612, 51.7539561364943]}},
{"type": "Feature", "id": "SaxlYW80jBKv4NLFQFtxUifplGU=", "properties": {"ref": "Warsaw - Browary Warszawskie", "@spider": "accenture", "addr:full": "Browary Warszawskie, Grzybowska 60 St", "addr:city": "Warszawa", "addr:postcode": "00-844", "addr:country": "PL", "name": "Warsaw - Browary Warszawskie", "phone": "+48501632683", "website": "https://www.accenture.com/pl-pl", "brand": "Accenture", "brand:wikidata": "Q29123313"}, "geometry": {"type": "Point", "coordinates": [20.9881267349703, 52.2345856440099]}},
{"type": "Feature", "id": "YDBGVxAAmkoFCrcINRE9mafQZ_U=", "properties": {"ref": "Warsaw - Warsaw Towers", "@spider": "accenture", "addr:full": "Warsaw Towers Sienna 39", "addr:city": "Warsaw", "addr:postcode": "00-121", "addr:country": "PL", "name": "Warsaw - Warsaw Towers", "phone": "+48224640000", "website": "https://www.accenture.com/pl-pl", "brand": "Accenture", "brand:wikidata": "Q29123313"}, "geometry": {"type": "Point", "coordinates": [21.0020593871545, 52.2317111860185]}},
{"type": "Feature", "id": "AAlWUndE0rBh44pttpYWqdYZsHA=", "properties": {"ref": "Warszawa - Przyokopowa 26", "@spider": "accenture", "addr:full": "Przyokopowa 26", "addr:city": "Warszawa", "addr:postcode": "01-208", "addr:country": "PL", "name": "Warszawa - Przyokopowa 26", "phone": "+48223497000", "website": "https://www.accenture.com/pl-pl", "brand": "Accenture", "brand:wikidata": "Q29123313"}, "geometry": {"type": "Point", "coordinates": [20.9817123644181, 52.2307376511476]}},
{"type": "Feature", "id": "7rkYDPwEJo_jIwofrh2p3FAiQlg=", "properties": {"ref": "Wroc\u0142aw", "@spider": "accenture", "addr:full": "West House 1B, Strzegomska 142A", "addr:city": "Wroc\u0142aw", "addr:postcode": "54-429", "addr:country": "PL", "name": "Wroc\u0142aw", "phone": "+48717367600", "website": "https://www.accenture.com/pl-pl", "brand": "Accenture", "brand:wikidata": "Q29123313"}, "geometry": {"type": "Point", "coordinates": [16.9750775036683, 51.1131370692221]}},
{"type": "Feature", "id": "U9IX3xXwRnOotC-uzv_-msj0diU=", "properties": {"ref": "Braga", "@spider": "accenture", "addr:full": "Av. Dom Jo\u00e3o II 404 Piso 3, Edif\u00edcio A", "addr:city": "Braga", "addr:postcode": "4715-275", "addr:country": "PT", "name": "Braga", "phone": "+351213803500", "website": "https://www.accenture.com/pt-pt", "brand": "Accenture", "brand:wikidata": "Q29123313"}, "geometry": {"type": "Point", "coordinates": [-8.3947326, 41.5542621]}},
{"type": "Feature", "id": "aOVsz1SdjlHDV4CMOsyZIamCgAo=", "properties": {"ref": "Porto", "@spider": "accenture", "addr:full": "Avenida Da Boavista, N\u00ba 1837 Edif\u00edcio Torre Burgo, 13\u00ba Andar Sala 3", "addr:city": "Porto", "addr:postcode": "4100-133", "addr:country": "PT", "name": "Porto", "phone": "+351229471430", "website": "https://www.accenture.com/pt-pt", "brand": "Accenture", "brand:wikidata": "Q29123313"}, "geometry": {"type": "Point", "coordinates": [-8.64519853081811, 41.1601110523475]}},
{"type": "Feature", "id": "pF-_W6PyKKwQVATGtvWbtJ79eQk=", "properties": {"ref": "Brasov", "@spider": "accenture", "addr:full": "5 Turnului Street, Coresi Business Park, Building H1, 3rd  floor", "addr:city": "Brasov", "addr:postcode": "500152", "addr:country": "RO", "name": "Brasov", "phone": "+40372286003", "website": "https://www.accenture.com/ro-en", "brand": "Accenture", "brand:wikidata": "Q29123313"}, "geometry": {"type": "Point", "coordinates": [25.6141941018933, 45.6654210251402]}},
{"type": "Feature", "id": "nOBSExQLjqswNxEaIJQgpW-OmGY=", "properties": {"ref": "Bucure\u0219ti", "@spider": "accenture", "addr:full": "24 Preciziei, H1 Building, Ground Floor", "addr:city": "Bucure\u0219ti", "addr:postcode": "062204", "addr:country": "RO", "name": "Bucure\u0219ti", "phone": "+40372286000", "website": "https://www.accenture.com/ro-en", "brand": "Accenture", "brand:wikidata": "Q29123313"}, "geometry": {"type": "Point", "coordinates": [25.9877675, 44.4327973]}},
{"type": "Feature", "id": "ei63gMKRpL7dSzIU5xJW7rFWd5g=", "properties": {"ref": "Cluj-Napoca", "@spider": "accenture", "addr:full": "Calea Turzii Nr., 178.K Et. 4", "addr:city": "Cluj-Napoca", "addr:postcode": "400495", "addr:country": "RO", "name": "Cluj-Napoca", "phone": "+40372664900", "website": "https://www.accenture.com/ro-en", "brand": "Accenture", "brand:wikidata": "Q29123313"}, "geometry": {"type": "Point", "coordinates": [23.5930645288305, 46.7459606551659]}},
{"type": "Feature", "id": "E8o4ZVeM3BQsLj0mI-zsTGu5aHk=", "properties": {"ref": "Iasi", "@spider": "accenture", "addr:full": "7B-7C Palas Street, UBC3 Building, 16th floor", "addr:city": "Iasi", "addr:postcode": "700032", "addr:country": "RO", "name": "Iasi", "phone": "+40728226332", "website": "https://www.accenture.com/ro-en", "brand": "Accenture", "brand:wikidata": "Q29123313"}, "geometry": {"type": "Point", "coordinates": [27.589571, 47.156077]}},
{"type": "Feature", "id": "gusXMxzeZvu8tyTI_uabQ7sFpic=", "properties": {"ref": "Targu-Mures", "@spider": "accenture", "addr:full": "19A Aurel Filimon Street, 4th floor, Multinvest Business Center", "addr:city": "Targu-Mures", "addr:postcode": "540035", "addr:country": "RO", "name": "Targu-Mures", "phone": "+40372626800", "website": "https://www.accenture.com/ro-en", "brand": "Accenture", "brand:wikidata": "Q29123313"}, "geometry": {"type": "Point", "coordinates": [24.5582004576721, 46.5455021318259]}},
{"type": "Feature", "id": "bazvCs53oao7Jq_qjZNP_0rWh0Q=", "properties": {"ref": "Timisoara", "@spider": "accenture", "addr:full": "10 Coriolan Brediceanu street, Building D, 1st floor", "addr:city": "Timisoara", "addr:postcode": "300011", "addr:country": "RO", "name": "Timisoara", "phone": "+40372836500", "website": "https://www.accenture.com/ro-en", "brand": "Accenture", "brand:wikidata": "Q29123313"}, "geometry": {"type": "Point", "coordinates": [21.2210243877315, 45.7571259003352]}},
{"type": "Feature", "id": "Td_Gj0munCEbB78nuI3QKIDqKl0=", "properties": {"ref": "Al Khobar", "@spider": "accenture", "addr:full": "Al Khobar Gate Tower, 4th Floor, King Abdulaziz Road Bandriah District Khobar, Andriah District", "addr:city": "Al Khobar", "addr:postcode": "31952", "addr:country": "SA", "name": "Al Khobar", "phone": "+966112838000", "website": "https://www.accenture.com/sa-en", "brand": "Accenture", "brand:wikidata": "Q29123313"}, "geometry": {"type": "Point", "coordinates": [50.2114483644181, 26.3080023604202]}},
{"type": "Feature", "id": "Zw_1rn_5JRqGsuaAatTOWKOgeEc=", "properties": {"ref": "Riyadh", "@spider": "accenture", "addr:full": "Ground Floor, Business Gate Complex, Gate No.3, Building 9, Unit 2413, Airport Road, Qurtubah-2412", "addr:city": "Riyadh", "addr:postcode": "11616", "addr:country": "SA", "name": "Riyadh", "phone": "+966118260300", "website": "https://www.accenture.com/sa-en", "brand": "Accenture", "brand:wikidata": "Q29123313"}, "geometry": {"type": "Point", "coordinates": [46.7181442, 24.8062593]}},
{"type": "Feature", "id": "UFhJHOyZIxhhZ1ghbeJpZx4Vh4E=", "properties": {"ref": "Singapore - North Bridge Road", "@spider": "accenture", "addr:full": "#35-00 Raffles City Tower, 250 North Bridge Road", "addr:city": "Singapore", "addr:postcode": "179101", "addr:country": "SG", "name": "Singapore - North Bridge Road", "phone": "+6564108000", "website": "https://www.accenture.com/sg-en", "brand": "Accenture", "brand:wikidata": "Q29123313"}, "geometry": {"type": "Point", "coordinates": [103.852923987304, 1.29376394606947]}},
{"type": "Feature", "id": "R3B-fhsWoBsq__c1WapuNp0hryw=", "properties": {"ref": "Singapore Innovation Hub", "@spider": "accenture", "addr:full": "Raffles City Tower, Level 35, 250 North Bridge Road", "addr:city": "Singapore", "addr:postcode": "179101", "addr:country": "SG", "name": "Singapore Innovation Hub", "phone": "+6564108000", "website": "https://www.accenture.com/sg-en/about/company/singapore", "brand": "Accenture", "brand:wikidata": "Q29123313"}, "geometry": {"type": "Point", "coordinates": [103.85641, 1.29518]}},
{"type": "Feature", "id": "rRItaz_jGaL1EXBTvzKNeQqkD-w=", "properties": {"ref": "Cape Town", "@spider": "accenture", "addr:full": "8th Floor, Convention Towers, C/o Heerengracht and Coen Steytler, Foreshore", "addr:city": "Cape Town", "addr:postcode": "8001", "addr:country": "ZA", "name": "Cape Town", "phone": "+27214081300", "website": "https://www.accenture.com/za-en/about/company/south-africa", "brand": "Accenture", "brand:wikidata": "Q29123313"}, "geometry": {"type": "Point", "coordinates": [18.428396, -33.916432]}},
{"type": "Feature", "id": "MSfDP-SJhmjDhUxiRIBwyCqgzI4=", "properties": {"ref": "Johannesburg", "@spider": "accenture", "addr:full": "Building No 3, Waterfall Corporate Campus, 74 Waterfall Drive", "addr:city": "Waterval City", "addr:postcode": "1685", "addr:country": "ZA", "name": "Johannesburg", "phone": "+27112083000", "website": "https://www.accenture.com/za-en/about/company/south-africa", "brand": "Accenture", "brand:wikidata": "Q29123313"}, "geometry": {"type": "Point", "coordinates": [28.0911, -26.02278]}},
{"type": "Feature", "id": "Ij4bd4yidLejsuiHhWtZO5WA7nU=", "properties": {"ref": "Alicante", "@spider": "accenture", "addr:full": "Puerto de Alicante, Muelle 14 \u2013 Terminal de Cruceros", "addr:city": "Alicante", "addr:postcode": "03001", "addr:country": "ES", "name": "Alicante", "phone": "+34915469110", "website": "https://www.accenture.com/es-es/about/company/about-spain", "brand": "Accenture", "brand:wikidata": "Q29123313"}, "geometry": {"type": "Point", "coordinates": [-0.4853349, 38.3317471]}},
{"type": "Feature", "id": "ym58cm7tsnX6t_AXEYOlssbtePU=", "properties": {"ref": "Barcelona - Edificio La Rotonda", "@spider": "accenture", "addr:full": "Edificio La Rotonda, Passeig Sant Gervasi 51, 5\u00aa planta", "addr:city": "Barcelona", "addr:state": "Barcelona", "addr:postcode": "08022", "addr:country": "ES", "name": "Barcelona - Edificio La Rotonda", "phone": "+34932271000", "website": "https://www.accenture.com/es-es/about/company/about-spain", "brand": "Accenture", "brand:wikidata": "Q29123313"}, "geometry": {"type": "Point", "coordinates": [2.13740675021564, 41.4106334529157]}},
{"type": "Feature", "id": "EasPRndanc23ODB40ZCPgimJS2M=", "properties": {"ref": "Barcelona Innovation Center", "@spider": "accenture", "addr:full": "Edificio La Rotonda, Passeig Sant Gervasi 51, 3\u00aa planta", "addr:city": "Barcelona", "addr:state": "Barcelona", "addr:postcode": "08022", "addr:country": "ES", "name": "Barcelona Innovation Center", "phone": "+34932271000", "website": "https://www.accenture.com/es-es/about/company/about-spain", "brand": "Accenture", "brand:wikidata": "Q29123313"}, "geometry": {"type": "Point", "coordinates": [2.1374177877142, 41.4106510015485]}},
{"type": "Feature", "id": "YwoQSzeslU_vD0LD_Rkm-Cxv138=", "properties": {"ref": "Bilbao - Plaza Euskadi", "@spider": "accenture", "addr:full": "Plaza Euskadi, 5", "addr:city": "Bilbao, Vizcaya", "addr:postcode": "48011", "addr:country": "ES", "name": "Bilbao - Plaza Euskadi", "phone": "+34944228000", "website": "https://www.accenture.com/es-es/about/company/about-spain", "brand": "Accenture", "brand:wikidata": "Q29123313"}, "geometry": {"type": "Point", "coordinates": [-2.93798797278714, 43.2677016607054]}},
{"type": "Feature", "id": "XuXoj4y5EaPcTIGGg743h78ZCgs=", "properties": {"ref": "Bilbao Industry X.0 Center", "@spider": "accenture", "addr:full": "Parque Tecnol\u00f3gico de Bizkaia, Astondo Bidea, Edificio 602", "addr:city": "Derio, Biscay", "addr:postcode": "48160", "addr:country": "ES", "name": "Bilbao Industry X.0 Center", "phone": "+34944228000", "website": "https://www.accenture.com/es-es/services/industry-x-0/bilbao-center", "brand": "Accenture", "brand:wikidata": "Q29123313"}, "geometry": {"type": "Point", "coordinates": [-2.86782213146978, 43.2967110821216]}},
{"type": "Feature", "id": "fwgS0VNKML11Gs5fDbP0BQKt4oQ=", "properties": {"ref": "Castellana 85", "@spider": "accenture", "addr:full": "Castellana 85, P\u00ba de la Castellana 85", "addr:city": "Madrid", "addr:state": "Madrid", "addr:postcode": "28046", "addr:country": "ES", "name": "Castellana 85", "phone": "+34915966000", "website": "https://www.accenture.com/es-es/about/company/about-spain", "brand": "Accenture", "brand:wikidata": "Q29123313"}, "geometry": {"type": "Point", "coordinates": [-3.69191310661974, 40.4484375981977]}},
{"type": "Feature", "id": "-hV0MLl7W5IMZyIc1VxnUH4Q7MM=", "properties": {"ref": "Coru\u00f1a", "@spider": "accenture", "addr:full": "Cant\u00f3n Grande 9, 1\u00aa-4\u00aa planta", "addr:city": "La Coru\u00f1a", "addr:state": "La Coru\u00f1a", "addr:postcode": "15003", "addr:country": "ES", "name": "Coru\u00f1a", "phone": "+34981201040", "website": "https://www.accenture.com/es-es/about/company/about-spain", "brand": "Accenture", "brand:wikidata": "Q29123313"}, "geometry": {"type": "Point", "coordinates": [-8.4034149, 43.3680059]}},
{"type": "Feature", "id": "oK80hQ-jhpO5SbJMi35S8ChJ6kk=", "properties": {"ref": "Le\u00f3n", "@spider": "accenture", "addr:full": "Avenida de los Reyes Leoneses, 14, Panta 5, Puerta O", "addr:city": "Le\u00f3n", "addr:state": "Le\u00f3n", "addr:postcode": "24008", "addr:country": "ES", "name": "Le\u00f3n", "phone": "+34987498501", "website": "https://www.accenture.com/es-es/about/company/about-spain", "brand": "Accenture", "brand:wikidata": "Q29123313"}, "geometry": {"type": "Point", "coordinates": [-5.58011020570397, 42.6048829892584]}},
{"type": "Feature", "id": "TkDPl23qWtdhlFOQDlkiyXfm1U0=", "properties": {"ref": "Madrid Liquid Studio", "@spider": "accenture", "addr:full": "Parque Empresarial La Finca, Paseo del Club Deportivo, 1, edificio 2", "addr:city": "Pozuelo de Alarc\u00f3n, Madrid", "addr:postcode": "28223", "addr:country": "ES", "name": "Madrid Liquid Studio", "phone": "+34915966000", "website": "https://www.accenture.com/es-es/about/company/about-spain", "brand": "Accenture", "brand:wikidata": "Q29123313"}, "geometry": {"type": "Point", "coordinates": [-3.80131855521555, 40.4197558666699]}},
{"type": "Feature", "id": "_5ppsgeRLxrdMVdSi74mdzkSn78=", "properties": {"ref": "Malaga", "@spider": "accenture", "addr:full": "Parque Tecnol\u00f3gico de Andaluc\u00eda - Edificio I+D6, Severo Ochoa 21, Edificio I+D 6", "addr:city": "Campanillas, Malaga", "addr:postcode": "29590", "addr:country": "ES", "name": "Malaga", "phone": "+34952045750", "website": "https://www.accenture.com/es-es/about/company/about-spain", "brand": "Accenture", "brand:wikidata": "Q29123313"}, "geometry": {"type": "Point", "coordinates": [-4.55789850641215, 36.7342445771544]}},
{"type": "Feature", "id": "CmipVTptf0eEGXeQ61GTOuoJ6W0=", "properties": {"ref": "Sant Cugat del Valles", "@spider": "accenture", "addr:full": "Parque Empresarial Sant Joan, Pla\u00e7a de Xavier Cugat 2", "addr:city": "Sant Cugat del Valles, Barcelona", "addr:postcode": "08174", "addr:country": "ES", "name": "Sant Cugat del Valles", "phone": "+34932271000", "website": "https://www.accenture.com/es-es/about/company/about-spain", "brand": "Accenture", "brand:wikidata": "Q29123313"}, "geometry": {"type": "Point", "coordinates": [2.07483672902135, 41.4711194071833]}},
{"type": "Feature", "id": "bilMzuxxae4yuCy4xwW23lJ2GPg=", "properties": {"ref": "Seville", "@spider": "accenture", "addr:full": "Parque Cient\u00edfico y Tecnol\u00f3gico Cartuja - Edificio Bluenet, Calle Isaac Newton, 3", "addr:city": "Seville, Andalusia", "addr:postcode": "41092", "addr:country": "ES", "name": "Seville", "phone": "+34954468150", "website": "https://www.accenture.com/es-es/about/company/about-spain", "brand": "Accenture", "brand:wikidata": "Q29123313"}, "geometry": {"type": "Point", "coordinates": [-6.00510519390658, 37.4085871782696]}},
{"type": "Feature", "id": "Zgb1JIg_OuCNxV4PyLGP7NxncGM=", "properties": {"ref": "Vigo", "@spider": "accenture", "addr:full": "Centro Loxistico Porto de Vigo, S.L. C/ Jacinto Benavente 22- 2\u00aaPl", "addr:city": "Vigo, Pontevedra", "addr:postcode": "36202", "addr:country": "ES", "name": "Vigo", "phone": "+34963107184", "website": "https://www.accenture.com/es-es/about/company/about-spain", "brand": "Accenture", "brand:wikidata": "Q29123313"}, "geometry": {"type": "Point", "coordinates": [-8.7354592, 42.2296381]}},
{"type": "Feature", "id": "QnmCxbIimEewHGnhPEyFax3Mabo=", "properties": {"ref": "Zaragoza", "@spider": "accenture", "addr:full": "World Trade Center. Torre Este, Calle de Maria Zambrano 31, planta 8", "addr:city": "Zaragoza", "addr:state": "Zaragoza", "addr:postcode": "50015", "addr:country": "ES", "name": "Zaragoza", "phone": "+34976748400", "website": "https://www.accenture.com/es-es/about/company/about-spain", "brand": "Accenture", "brand:wikidata": "Q29123313"}, "geometry": {"type": "Point", "coordinates": [-0.888047402391754, 41.6683226557315]}},
{"type": "Feature", "id": "WNhzpRgoBu4mSkpv0BykKpi5QTc=", "properties": {"ref": "G\u00f6teborg - Stora Nygatan", "@spider": "accenture", "addr:full": "Stora Nygatan 33", "addr:city": "G\u00f6teborg", "addr:postcode": "411 08", "addr:country": "SE", "name": "G\u00f6teborg - Stora Nygatan", "phone": "+46313394000", "website": "https://www.accenture.com/se-en/about/company/sweden", "brand": "Accenture", "brand:wikidata": "Q29123313"}, "geometry": {"type": "Point", "coordinates": [11.9709701, 57.7041714]}},
{"type": "Feature", "id": "-J7D9HWyFapZuArgmhtac7_m5TY=", "properties": {"ref": "Malm\u00f6 - Stortorget", "@spider": "accenture", "addr:full": "Stortorget 9", "addr:city": "Malm\u00f6", "addr:postcode": "211 22", "addr:country": "SE", "name": "Malm\u00f6 - Stortorget", "phone": "+4640246800", "website": "https://www.accenture.com/se-en/about/company/sweden", "brand": "Accenture", "brand:wikidata": "Q29123313"}, "geometry": {"type": "Point", "coordinates": [12.9989289551759, 55.6065965355526]}},
{"type": "Feature", "id": "ltj_Eb7FrjPenRDlO_Exh37aPho=", "properties": {"ref": "Stockholm - R\u00e5dmansgatan 42", "@spider": "accenture", "addr:full": "R\u00e5dmansgatan 42", "addr:city": "Stockholm", "addr:postcode": "113 60", "addr:country": "SE", "name": "Stockholm - R\u00e5dmansgatan 42", "phone": "+4684513000", "website": "https://www.accenture.com/se-en/about/company/sweden", "brand": "Accenture", "brand:wikidata": "Q29123313"}, "geometry": {"type": "Point", "coordinates": [18.0615178534139, 59.3413562358538]}},
{"type": "Feature", "id": "UWppLzHHlOBm4nJiK4kRpkqQtV4=", "properties": {"ref": "Stockholm Liquid Studio", "@spider": "accenture", "addr:full": "Alstr\u00f6mergatan 12", "addr:city": "Stockholm", "addr:postcode": "112 47", "addr:country": "SE", "name": "Stockholm Liquid Studio", "phone": "+4684513000", "website": "https://www.accenture.com/se-en/about/company/sweden", "brand": "Accenture", "brand:wikidata": "Q29123313"}, "geometry": {"type": "Point", "coordinates": [18.0310494723699, 59.3358907450507]}},
{"type": "Feature", "id": "C6EhaKB2SDoZ5BHfLSrRsFOzq0w=", "properties": {"ref": "Basel", "@spider": "accenture", "addr:full": "Accenture AG, Grosspeteranlage 29", "addr:city": "Basel", "addr:postcode": "4052", "addr:country": "CH", "name": "Basel", "phone": "+41442199889", "website": "https://www.accenture.com/ch-en/about/company/about-switzerland", "brand": "Accenture", "brand:wikidata": "Q29123313"}, "geometry": {"type": "Point", "coordinates": [7.60257, 47.54499]}},
{"type": "Feature", "id": "SufbnOJu7YEbAOIdJb56Kex_60s=", "properties": {"ref": "Geneva", "@spider": "accenture", "addr:full": "Route Fran\u00e7ois Peyrot 12", "addr:city": "Grand Saconnex", "addr:postcode": "1218", "addr:country": "CH", "name": "Geneva", "phone": "+41225816510", "website": "https://www.accenture.com/ch-en/about/company/about-switzerland", "brand": "Accenture", "brand:wikidata": "Q29123313"}, "geometry": {"type": "Point", "coordinates": [6.11184817790991, 46.2303156366316]}},
{"type": "Feature", "id": "kAnXR9zf3Oed7RdoRdaAZ0XGCgs=", "properties": {"ref": "Lugano", "@spider": "accenture", "addr:full": "Galleria 1 (2nd floor) - Via Cantonale", "addr:city": "Manno", "addr:state": "TI", "addr:postcode": "6928", "addr:country": "CH", "name": "Lugano", "phone": "+41912913130", "website": "https://www.accenture.com/ch-en/about/company/about-switzerland", "brand": "Accenture", "brand:wikidata": "Q29123313"}, "geometry": {"type": "Point", "coordinates": [8.91878880603768, 46.0271828521318]}},
{"type": "Feature", "id": "AS145hu_kCn_r_WQ8FoEHB5BRBQ=", "properties": {"ref": "Zurich", "@spider": "accenture", "addr:full": "Fraum\u00fcnsterstrasse 16", "addr:city": "Zurich", "addr:postcode": "8001", "addr:country": "CH", "name": "Zurich", "phone": "+41442199889", "website": "https://www.accenture.com/ch-en/about/company/about-switzerland", "brand": "Accenture", "brand:wikidata": "Q29123313"}, "geometry": {"type": "Point", "coordinates": [8.54111048377194, 47.3687910708672]}},
{"type": "Feature", "id": "fRV4Rfs2v_mJUBuiiDXExpk3ob4=", "properties": {"ref": "Zurich Innovation Hub", "@spider": "accenture", "addr:full": "St. Annagasse 9", "addr:city": "Z\u00fcrich", "addr:postcode": "8001", "addr:country": "CH", "name": "Zurich Innovation Hub", "phone": "+41442199889", "website": "https://www.accenture.com/ch-en/about/company/about-switzerland", "brand": "Accenture", "brand:wikidata": "Q29123313"}, "geometry": {"type": "Point", "coordinates": [8.53678301561064, 47.3725337390249]}},
{"type": "Feature", "id": "jWeQfe1GrgXAioRbXQ_PUc73K00=", "properties": {"ref": "26 Sathorn Prime Building - Bangkok", "@spider": "accenture", "addr:full": "26 Sathorn Prime Building, 12A Floor, Naradhiwas Ratchanakarin Rd", "addr:city": "Sathorn", "addr:postcode": "10120", "addr:country": "TH", "name": "26 Sathorn Prime Building - Bangkok", "phone": "+6620804730", "website": "https://www.accenture.com/th-en", "brand": "Accenture", "brand:wikidata": "Q29123313"}, "geometry": {"type": "Point", "coordinates": [100.532273031283, 13.7168154971444]}},
{"type": "Feature", "id": "Me3VExQzUdr4QzxS-QdrIByDPuc=", "properties": {"ref": "The ParQ Building - Bangkok", "@spider": "accenture", "addr:full": "88 The ParQ Building, 9th Floor (West Wing), Ratchadaphisek Rd", "addr:city": "Khlong Toei", "addr:postcode": "10110", "addr:country": "TH", "name": "The ParQ Building - Bangkok", "phone": "+6626361616", "website": "https://www.accenture.com/th-en", "brand": "Accenture", "brand:wikidata": "Q29123313"}, "geometry": {"type": "Point", "coordinates": [100.558439381899, 13.7210653546419]}},
{"type": "Feature", "id": "X7cXi1QPe2QUBE60sN7k0TimgRc=", "properties": {"ref": "Istanbul Industry X.0 Center", "@spider": "accenture", "addr:full": "Teknopark \u0130stanbul, Sanayi Mah., Teknopark Bulvar\u0131 D Blok No:1/5A \u0130\u00e7 Kap\u0131 No: 201 TR Pendik", "addr:city": "Istanbul", "addr:postcode": "34906", "addr:country": "TR", "name": "Istanbul Industry X.0 Center", "phone": "+902166252002", "website": "https://www.accenture.com/tr-en", "brand": "Accenture", "brand:wikidata": "Q29123313"}, "geometry": {"type": "Point", "coordinates": [29.3141583, 40.9203209]}},
{"type": "Feature", "id": "KRdfIc5bh1FjwChv8-B21u8T7AY=", "properties": {"ref": "Abu Dhabi", "@spider": "accenture", "addr:full": "9th Floor-Al Sila Tower, Abu Dhabi Global Market Square, Al Maryah Island", "addr:city": "Abu Dhabi", "addr:state": "Abu Dhabi", "addr:country": "AE", "name": "Abu Dhabi", "phone": "+97124047700", "website": "https://www.accenture.com/ae-en", "brand": "Accenture", "brand:wikidata": "Q29123313"}, "geometry": {"type": "Point", "coordinates": [54.3883993, 24.5004938]}},
{"type": "Feature", "id": "RiTcmBtyfRIdORZ0arZ5fK-sxjw=", "properties": {"ref": "Dubai", "@spider": "accenture", "addr:full": "16th Floor, Arenco Tower, Offices 1602, 1604, 1606, 1607 & 1608, Sheikh Zayed Road", "addr:city": "Dubai", "addr:country": "AE", "name": "Dubai", "phone": "+97143762700", "website": "https://www.accenture.com/ae-en", "brand": "Accenture", "brand:wikidata": "Q29123313"}, "geometry": {"type": "Point", "coordinates": [55.159002, 25.0914316]}},
{"type": "Feature", "id": "whYkwLhzndk7M98pjx7lNA_jXP0=", "properties": {"ref": "Edinburgh", "@spider": "accenture", "addr:full": "7th Floor, Atria One, 144 Morrison Street", "addr:city": "Edinburgh", "addr:postcode": "EH3 8EX", "addr:country": "GB", "name": "Edinburgh", "phone": "+442078444000", "website": "https://www.accenture.com/gb-en", "brand": "Accenture", "brand:wikidata": "Q29123313"}, "geometry": {"type": "Point", "coordinates": [-3.208473, 55.9462162]}},
{"type": "Feature", "id": "uvbuFg6_HRYPNbZ0ypoIG90nWx0=", "properties": {"ref": "London - Fenchurch Street", "@spider": "accenture", "addr:full": "30 Fenchurch St", "addr:city": "London", "addr:postcode": "EC3M 3BD", "addr:country": "GB", "name": "London - Fenchurch Street", "phone": "+442078444000", "website": "https://www.accenture.com/gb-en", "brand": "Accenture", "brand:wikidata": "Q29123313"}, "geometry": {"type": "Point", "coordinates": [-0.0822640846557761, 51.5112289367469]}},
{"type": "Feature", "id": "EbQurgrt0PAZUBJFZbJSc-8Yuic=", "properties": {"ref": "Manchester - Oxford House", "@spider": "accenture", "addr:full": "Oxford House Second Floor, Manchester Technology Centre, Oxford Road", "addr:city": "Manchester", "addr:postcode": "M1 7ED", "addr:country": "GB", "name": "Manchester - Oxford House", "phone": "+441614355000", "website": "https://www.accenture.com/gb-en", "brand": "Accenture", "brand:wikidata": "Q29123313"}, "geometry": {"type": "Point", "coordinates": [-2.23766195809355, 53.4720248374266]}},
{"type": "Feature", "id": "zR5nIrEJ6U4T4NFWITHcyNOi7DE=", "properties": {"ref": "Newcastle upon Tyne - 15A Cobalt Business Park", "@spider": "accenture", "addr:full": "15A Cobalt Business Park, 1 Quick Silver Way", "addr:city": "Newcastle upon Tyne", "addr:postcode": "NE27 0QQ", "addr:country": "GB", "name": "Newcastle upon Tyne - 15A Cobalt Business Park", "phone": "+441912022500", "website": "https://www.accenture.com/gb-en", "brand": "Accenture", "brand:wikidata": "Q29123313"}, "geometry": {"type": "Point", "coordinates": [-1.5117105, 55.0236351]}},
{"type": "Feature", "id": "eOFEyHJQyu-QsiSZuhMpuDYrZQ0=", "properties": {"ref": "Newcastle upon Tyne - 2 Quick silver way Cobalt Business Park", "@spider": "accenture", "addr:full": "Quadrant West, 2 Quick silver way Cobalt Business Park", "addr:city": "Newcastle upon Tyne", "addr:postcode": "NE27 0QQ", "addr:country": "GB", "name": "Newcastle upon Tyne - 2 Quick silver way Cobalt Business Park", "phone": "+442078444000", "website": "https://www.accenture.com/gb-en", "brand": "Accenture", "brand:wikidata": "Q29123313"}, "geometry": {"type": "Point", "coordinates": [-1.51163056603764, 55.023618578995]}},
{"type": "Feature", "id": "6Nos4k-fKqQ1VY0BLltDrpkKABU=", "properties": {"ref": "Newcastle upon Tyne - 9C Cobalt  Business Park", "@spider": "accenture", "addr:full": "9C Cobalt  Business Park, 5 Quick Silver Way", "addr:city": "Newcastle upon Tyne", "addr:postcode": "NE27 0QQ", "addr:country": "GB", "name": "Newcastle upon Tyne - 9C Cobalt  Business Park", "phone": "+442078444000", "website": "https://www.accenture.com/gb-en", "brand": "Accenture", "brand:wikidata": "Q29123313"}, "geometry": {"type": "Point", "coordinates": [-1.51420162698366, 55.0237362252503]}},
{"type": "Feature", "id": "bqWP2iDpa9kswq3vHDnkUXXacSs=", "properties": {"ref": "Accenture Atlanta Advance Technology Center", "@spider": "accenture", "addr:full": "3565 Piedmont Rd. NE Building 3, Suite 550", "addr:city": "Atlanta", "addr:state": "GA", "addr:postcode": "30305", "addr:country": "US", "name": "Accenture Atlanta Advance Technology Center", "phone": "+16786573000", "website": "https://www.accenture.com/us-en/about/company/united-states", "brand": "Accenture", "brand:wikidata": "Q29123313"}, "geometry": {"type": "Point", "coordinates": [-84.3785913828207, 33.8522479494906]}},
{"type": "Feature", "id": "uIxnHNvHrsz8fun1FbTtts9__H4=", "properties": {"ref": "Accenture Seattle Forge Nytec", "@spider": "accenture", "addr:full": "416 6th Street South", "addr:city": "Kirkland", "addr:state": "WA", "addr:postcode": "98033", "addr:country": "US", "name": "Accenture Seattle Forge Nytec", "phone": "+14259472676", "website": "https://www.accenture.com/us-en/about/company/united-states", "brand": "Accenture", "brand:wikidata": "Q29123313"}, "geometry": {"type": "Point", "coordinates": [-122.1958161, 47.6728261]}},
{"type": "Feature", "id": "0ytMPTdFOHoSQ_38Vi_HubXm3xI=", "properties": {"ref": "Accenture Tower", "@spider": "accenture", "addr:full": "500 W Madison", "addr:city": "Chicago", "addr:state": "IL", "addr:postcode": "60661-4544", "addr:country": "US", "name": "Accenture Tower", "phone": "+13126935009", "website": "https://www.accenture.com/us-en/about/company/accenture-innovation-hub-chicago", "brand": "Accenture", "brand:wikidata": "Q29123313"}, "geometry": {"type": "Point", "coordinates": [-87.6401331340483, 41.8825772617013]}},
{"type": "Feature", "id": "U9UONlMVz435snrI437xKi4aVDk=", "properties": {"ref": "Albany", "@spider": "accenture", "addr:full": "54 State St., Suite 308", "addr:city": "Albany", "addr:state": "NY", "addr:postcode": "12207", "addr:country": "US", "name": "Albany", "phone": "+15184624762", "website": "https://www.accenture.com/us-en/about/company/united-states", "brand": "Accenture", "brand:wikidata": "Q29123313"}, "geometry": {"type": "Point", "coordinates": [-73.752063, 42.648759]}},
{"type": "Feature", "id": "IwqqTs40Z1AdpAxkyPBkiytQakQ=", "properties": {"ref": "Ann Arbor - The Forge", "@spider": "accenture", "addr:full": "301 E Liberty St, Suite 700", "addr:city": "Ann Arbor", "addr:state": "MI", "addr:postcode": "48104", "addr:country": "US", "name": "Ann Arbor - The Forge", "phone": "+18883745527", "website": "https://www.accenture.com/us-en/about/company/accenture-innovation-hub-detroit", "brand": "Accenture", "brand:wikidata": "Q29123313"}, "geometry": {"type": "Point", "coordinates": [-83.7457275, 42.2798352]}},
{"type": "Feature", "id": "8p07SRAQKQqq6_bcqvHlZX--im8=", "properties": {"ref": "Annapolis", "@spider": "accenture", "addr:full": "Three Park Place, Floor 2", "addr:city": "Annapolis", "addr:state": "MD", "addr:postcode": "21401", "addr:country": "US", "name": "Annapolis", "phone": "+14108558525", "website": "https://www.accenture.com/us-en/about/company/united-states", "brand": "Accenture", "brand:wikidata": "Q29123313"}, "geometry": {"type": "Point", "coordinates": [-76.5038541, 38.9774088]}},
{"type": "Feature", "id": "1nIACgTVxr3_Dz8J6CLiDA8r6pA=", "properties": {"ref": "Annapolis Junction", "@spider": "accenture", "addr:full": "430 National Business Parkway", "addr:city": "Annapolis Junction", "addr:state": "MD", "addr:postcode": "20701", "addr:country": "US", "name": "Annapolis Junction", "phone": "+15714142051", "website": "https://www.accenture.com/us-en/about/company/united-states", "brand": "Accenture", "brand:wikidata": "Q29123313"}, "geometry": {"type": "Point", "coordinates": [-76.7683755, 39.1353788]}},
{"type": "Feature", "id": "X5JADxSSD-LJw8H7fVXOrxdtt8w=", "properties": {"ref": "Arlington - 1100 Wilson Boulevard", "@spider": "accenture", "addr:full": "1100 Wilson Boulevard, Suite 950", "addr:city": "Arlington", "addr:state": "VA", "addr:postcode": "22209", "addr:country": "US", "name": "Arlington - 1100 Wilson Boulevard", "phone": "+17032530050", "website": "https://www.accenture.com/us-en/about/company/united-states", "brand": "Accenture", "brand:wikidata": "Q29123313"}, "geometry": {"type": "Point", "coordinates": [-77.0703873, 38.8944868]}},
{"type": "Feature", "id": "lMw3Z794rzn0v-kkSIEbvHlAGZs=", "properties": {"ref": "Arlington - 800 North Glebe Road", "@spider": "accenture", "addr:full": "800 North Glebe Road, Suite 700", "addr:city": "Arlington", "addr:state": "VA", "addr:postcode": "22203", "addr:country": "US", "name": "Arlington - 800 North Glebe Road", "phone": "+17039472000", "website": "https://www.accenture.com/us-en/about/company/united-states", "brand": "Accenture", "brand:wikidata": "Q29123313"}, "geometry": {"type": "Point", "coordinates": [-77.115097, 38.8802375]}},
{"type": "Feature", "id": "hX0fPvDE5FRyMYA_8fK8tE7E384=", "properties": {"ref": "Arlington - DC Cyber Fusion Center", "@spider": "accenture", "addr:full": "1201 Wilson Blvd", "addr:city": "Arlington", "addr:state": "VA", "addr:postcode": "22209", "addr:country": "US", "name": "Arlington - DC Cyber Fusion Center", "phone": "+17035273223", "website": "https://www.accenture.com/us-en/about/company/accenture-innovation-hub-dc", "brand": "Accenture", "brand:wikidata": "Q29123313"}, "geometry": {"type": "Point", "coordinates": [-77.0711081312828, 38.8956679362029]}},
{"type": "Feature", "id": "CiaMpjj8U9X9NcxPkIMY1Y25y7k=", "properties": {"ref": "Atlanta Innovation Hub", "@spider": "accenture", "addr:full": "75 Fifth Street NW, Suite 1100", "addr:city": "Atlanta", "addr:state": "GA", "addr:postcode": "30308", "addr:country": "US", "name": "Atlanta Innovation Hub", "phone": "+16786578000", "website": "https://www.accenture.com/us-en/about/company/accenture-innovation-hub-atlanta", "brand": "Accenture", "brand:wikidata": "Q29123313"}, "geometry": {"type": "Point", "coordinates": [-84.389125, 33.777468]}},
{"type": "Feature", "id": "iwpJcEOiAXvg1EpgPG0Fq86uktY=", "properties": {"ref": "Austin", "@spider": "accenture", "addr:full": "323 Congress Avenue", "addr:city": "Austin", "addr:state": "TX", "addr:postcode": "78701", "addr:country": "US", "name": "Austin", "phone": "+15124208800", "website": "https://www.accenture.com/us-en/about/company/united-states", "brand": "Accenture", "brand:wikidata": "Q29123313"}, "geometry": {"type": "Point", "coordinates": [-97.743225, 30.265803]}},
{"type": "Feature", "id": "URJLEuvWmmHK_QUyEg8BrFTnsCY=", "properties": {"ref": "Austin South Congress Avenue", "@spider": "accenture", "addr:full": "3601 S. Congress Avenue Suite B100", "addr:city": "Austin", "addr:state": "TX", "addr:postcode": "78704", "addr:country": "US", "name": "Austin South Congress Avenue", "phone": "+15124208800", "website": "https://www.accenture.com/us-en/about/company/united-states", "brand": "Accenture", "brand:wikidata": "Q29123313"}, "geometry": {"type": "Point", "coordinates": [-97.7588832823581, 30.2271786897135]}},
{"type": "Feature", "id": "NwgEv1C1XLtXH4okgMYzSXyssbU=", "properties": {"ref": "Beavercreek", "@spider": "accenture", "addr:full": "College Park III, Suite 200, 3725 Pentagon Boulevard", "addr:city": "Beavercreek", "addr:state": "OH", "addr:postcode": "45431", "addr:country": "US", "name": "Beavercreek", "phone": "+16149153083", "website": "https://www.accenture.com/us-en/about/company/united-states", "brand": "Accenture", "brand:wikidata": "Q29123313"}, "geometry": {"type": "Point", "coordinates": [-84.0691008, 39.7710583]}},
{"type": "Feature", "id": "b7ThUM3CJVG56mMd4ioFsBxPVQo=", "properties": {"ref": "Beaverton", "@spider": "accenture", "addr:full": "4145 SW Watson Ave. #490", "addr:city": "Beaverton", "addr:state": "OR", "addr:postcode": "97005", "addr:country": "US", "name": "Beaverton", "phone": "+12064875720", "website": "https://www.accenture.com/us-en/about/company/united-states", "brand": "Accenture", "brand:wikidata": "Q29123313"}, "geometry": {"type": "Point", "coordinates": [-122.806591004839, 45.4897984563528]}},
{"type": "Feature", "id": "4CsgUvemMIC8NGJlEgC62UDuFq4=", "properties": {"ref": "Bentonville", "@spider": "accenture", "addr:full": "805 South Walton Suite, #660", "addr:city": "Bentonville", "addr:state": "AR", "addr:postcode": "72712", "addr:country": "US", "name": "Bentonville", "phone": "+14694453558", "website": "https://www.accenture.com/us-en/about/company/united-states", "brand": "Accenture", "brand:wikidata": "Q29123313"}, "geometry": {"type": "Point", "coordinates": [-94.2188616915075, 36.3639904593155]}},
{"type": "Feature", "id": "36uE2ZAaLFTEYT6fhjl0_uHDjkI=", "properties": {"ref": "Berwyn", "@spider": "accenture", "addr:full": "1160 W. Swedesford Road, Southpoint One", "addr:city": "Berwyn", "addr:state": "PA", "addr:postcode": "19312", "addr:country": "US", "name": "Berwyn", "phone": "+16104071700", "website": "https://www.accenture.com/us-en/about/company/united-states", "brand": "Accenture", "brand:wikidata": "Q29123313"}, "geometry": {"type": "Point", "coordinates": [-75.46492, 40.06071]}},
{"type": "Feature", "id": "QbfI2SbFMAzpc33PkM793ghbLW0=", "properties": {"ref": "Boise", "@spider": "accenture", "addr:full": "913 W. River Street, Suite 200", "addr:city": "Boise", "addr:state": "ID", "addr:postcode": "83702", "addr:country": "US", "name": "Boise", "phone": "+12083198450", "website": "https://www.accenture.com/us-en/about/company/united-states", "brand": "Accenture", "brand:wikidata": "Q29123313"}, "geometry": {"type": "Point", "coordinates": [-116.2103051, 43.6108855]}},
{"type": "Feature", "id": "9wr1OJyuU-cXSL1jHZUTbs_Rr0Q=", "properties": {"ref": "Boston", "@spider": "accenture", "addr:full": "888 Boylston Street, 12", "addr:city": "Boston", "addr:state": "MA", "addr:postcode": "02199", "addr:country": "US", "name": "Boston", "phone": "+16174884000", "website": "https://www.accenture.com/us-en/about/company/united-states", "brand": "Accenture", "brand:wikidata": "Q29123313"}, "geometry": {"type": "Point", "coordinates": [-71.08305, 42.348138]}},
{"type": "Feature", "id": "E_apraPCaRujkDYUPynQzcr-_2c=", "properties": {"ref": "Boston Innovation Hub", "@spider": "accenture", "addr:full": "888 Boylston Street, 13th Floor", "addr:city": "Boston", "addr:state": "MA", "addr:postcode": "02199", "addr:country": "US", "name": "Boston Innovation Hub", "phone": "+16174884000", "website": "https://www.accenture.com/us-en/service-accenture-innovation-center-boston", "brand": "Accenture", "brand:wikidata": "Q29123313"}, "geometry": {"type": "Point", "coordinates": [-71.0830201, 42.3480004]}},
{"type": "Feature", "id": "fwtP3wGk_JFf4sVb5JO5V_fN_0g=", "properties": {"ref": "Cambridge - 222 3rd Street", "@spider": "accenture", "addr:full": "222 3rd Street, Suite 4000", "addr:city": "Cambridge", "addr:state": "MA", "addr:postcode": "02142", "addr:country": "US", "name": "Cambridge - 222 3rd Street", "phone": "+16177588285", "website": "https://www.accenture.com/us-en/about/company/united-states", "brand": "Accenture", "brand:wikidata": "Q29123313"}, "geometry": {"type": "Point", "coordinates": [-71.0802123, 42.3670944]}},
{"type": "Feature", "id": "O4Pb7_HMfXY5ImuT_9U4d1IxgK8=", "properties": {"ref": "Cambridge - Rogers Street", "@spider": "accenture", "addr:full": "150 Rogers Street", "addr:city": "Cambridge", "addr:state": "MA", "addr:postcode": "02142", "addr:country": "US", "name": "Cambridge - Rogers Street", "website": "https://www.accenture.com/us-en/about/company/united-states", "brand": "Accenture", "brand:wikidata": "Q29123313"}, "geometry": {"type": "Point", "coordinates": [-71.0857971, 42.3668014]}},
{"type": "Feature", "id": "wURjlCBl68rwETgPRBzwMUez2po=", "properties": {"ref": "Charlotte - 201 South College Street", "@spider": "accenture", "addr:full": "201 South College Street, Suite 1900", "addr:city": "Charlotte", "addr:state": "NC", "addr:postcode": "28244", "addr:country": "US", "name": "Charlotte - 201 South College Street", "phone": "+17043326411", "website": "https://www.accenture.com/us-en/about/company/united-states", "brand": "Accenture", "brand:wikidata": "Q29123313"}, "geometry": {"type": "Point", "coordinates": [-80.843298, 35.224885]}},
{"type": "Feature", "id": "oDdtFDmmtb6oIBFwVPJmqFV0h28=", "properties": {"ref": "Cincinnati", "@spider": "accenture", "addr:full": "Atrium One, 201 East Fourth Street, Suite 1600", "addr:city": "Cincinnati", "addr:state": "OH", "addr:postcode": "45202", "addr:country": "US", "name": "Cincinnati", "phone": "+15134551000", "website": "https://www.accenture.com/us-en/about/company/united-states", "brand": "Accenture", "brand:wikidata": "Q29123313"}, "geometry": {"type": "Point", "coordinates": [-84.5089191496092, 39.1002825839624]}},
{"type": "Feature", "id": "d6CqP7NTXDNIcC9LPwon6VkvhTI=", "properties": {"ref": "Cleveland", "@spider": "accenture", "addr:full": "1400 West 10th Street, Suite 400", "addr:city": "Cleveland", "addr:state": "OH", "addr:postcode": "44113", "addr:country": "US", "name": "Cleveland", "phone": "+12165355000", "website": "https://www.accenture.com/us-en/about/company/united-states", "brand": "Accenture", "brand:wikidata": "Q29123313"}, "geometry": {"type": "Point", "coordinates": [-81.7011405391261, 41.4975972792764]}},
{"type": "Feature", "id": "fhiABPGw2J1-rrxKG0CW8SvM9NU=", "properties": {"ref": "Columbus", "@spider": "accenture", "addr:full": "711 N. High Street, Suite 800", "addr:city": "Columbus", "addr:state": "OH", "addr:postcode": "43215", "addr:country": "US", "name": "Columbus", "phone": "+16146292000", "website": "https://www.accenture.com/us-en/about/company/united-states", "brand": "Accenture", "brand:wikidata": "Q29123313"}, "geometry": {"type": "Point", "coordinates": [-83.0037611349997, 39.9767785425932]}},
{"type": "Feature", "id": "JXPWp1gSVn3pdnFdJ5kF0uAG_z8=", "properties": {"ref": "Columbus Innovation Hub", "@spider": "accenture", "addr:full": "400 West Nationwide Boulevard, 1st floor, Suite 100", "addr:city": "Columbus", "addr:state": "OH", "addr:postcode": "43215", "addr:country": "US", "name": "Columbus Innovation Hub", "phone": "+16146292000", "website": "https://www.accenture.com/us-en/about/company/accenture-innovation-hub-columbus", "brand": "Accenture", "brand:wikidata": "Q29123313"}, "geometry": {"type": "Point", "coordinates": [-83.0124433, 39.9680157]}},
{"type": "Feature", "id": "PIcXAtwsx-XjDJENCHVI43TRFjs=", "properties": {"ref": "Dallas", "@spider": "accenture", "addr:full": "5205 North O'Connor Boulevard, Suite 1400", "addr:city": "Irving", "addr:state": "TX", "addr:postcode": "75039", "addr:country": "US", "name": "Dallas", "phone": "+14696650000", "website": "https://www.accenture.com/us-en/about/company/united-states", "brand": "Accenture", "brand:wikidata": "Q29123313"}, "geometry": {"type": "Point", "coordinates": [-96.939359400577, 32.8703848014954]}},
{"type": "Feature", "id": "RIO6_OyCgUMeSILKT-vfh-6u5Dk=", "properties": {"ref": "Denver - 1999 Broadway", "@spider": "accenture", "addr:full": "1999 Broadway Suite 1200", "addr:city": "Denver", "addr:state": "CO", "addr:postcode": "80202", "addr:country": "US", "name": "Denver - 1999 Broadway", "phone": "+17203596500", "website": "https://www.accenture.com/us-en/about/company/united-states", "brand": "Accenture", "brand:wikidata": "Q29123313"}, "geometry": {"type": "Point", "coordinates": [-104.987709097969, 39.7478683072131]}},
{"type": "Feature", "id": "mpU36rjVbaT_5qelkEEOhvBa0eM=", "properties": {"ref": "Des Moines - 1420 Locust Street", "@spider": "accenture", "addr:full": "1420 Locust Street, Suite 200", "addr:city": "Des Moines", "addr:state": "IA", "addr:postcode": "50309", "addr:country": "US", "name": "Des Moines - 1420 Locust Street", "phone": "+15154103935", "website": "https://www.accenture.com/us-en/about/company/united-states", "brand": "Accenture", "brand:wikidata": "Q29123313"}, "geometry": {"type": "Point", "coordinates": [-93.6354872864275, 41.5842626301085]}},
{"type": "Feature", "id": "_jlUIwJttzCm4l0t5vkGqk7zywo=", "properties": {"ref": "Des Moines - 909 Locust Street", "@spider": "accenture", "addr:full": "909 Locust Street, Suite 402", "addr:city": "Des Moines", "addr:state": "IA", "addr:postcode": "50309", "addr:country": "US", "name": "Des Moines - 909 Locust Street", "phone": "+19133191229", "website": "https://www.accenture.com/us-en/about/company/united-states", "brand": "Accenture", "brand:wikidata": "Q29123313"}, "geometry": {"type": "Point", "coordinates": [-93.6293376819807, 41.5862100246072]}},
{"type": "Feature", "id": "iG_hbU5zB4FmVVNkq8GZhKNlL6U=", "properties": {"ref": "Detroit - Digital Delivery Center", "@spider": "accenture", "addr:full": "1001 Woodward Avenue, Suite 400", "addr:city": "Detroit", "addr:state": "MI", "addr:postcode": "48226", "addr:country": "US", "name": "Detroit - Digital Delivery Center", "phone": "+13138872000", "website": "https://www.accenture.com/us-en/about/company/accenture-innovation-hub-detroit", "brand": "Accenture", "brand:wikidata": "Q29123313"}, "geometry": {"type": "Point", "coordinates": [-83.0478037965376, 42.3321033690473]}},
{"type": "Feature", "id": "iryBuyna2v5Y771VEAYvXXgLjsQ=", "properties": {"ref": "Detroit Industry X.0 Innovation Center", "@spider": "accenture", "addr:full": "13600 Otterson Court", "addr:city": "Livonia", "addr:state": "MI", "addr:postcode": "48150", "addr:country": "US", "name": "Detroit Industry X.0 Innovation Center", "phone": "+13138872000", "website": "https://www.accenture.com/us-en/about/company/accenture-innovation-hub-detroit", "brand": "Accenture", "brand:wikidata": "Q29123313"}, "geometry": {"type": "Point", "coordinates": [-83.3905402, 42.3801967]}},
{"type": "Feature", "id": "GT0Px_GC9Du3MWWt6adOlbY0dJc=", "properties": {"ref": "Florham Park", "@spider": "accenture", "addr:full": "500 Campus Drive", "addr:city": "Florham Park", "addr:state": "NJ", "addr:postcode": "07932", "addr:country": "US", "name": "Florham Park", "phone": "+19733011000", "website": "https://www.accenture.com/us-en/about/company/united-states", "brand": "Accenture", "brand:wikidata": "Q29123313"}, "geometry": {"type": "Point", "coordinates": [-74.4236068, 40.7853889]}},
{"type": "Feature", "id": "gRXdoC9isJUyfzXTfj7CjSEWPH0=", "properties": {"ref": "Hartford", "@spider": "accenture", "addr:full": "755 Main Street, Suite 1600", "addr:city": "Hartford", "addr:state": "CT", "addr:postcode": "06103", "addr:country": "US", "name": "Hartford", "phone": "+18607572070", "website": "https://www.accenture.com/us-en/about/company/united-states", "brand": "Accenture", "brand:wikidata": "Q29123313"}, "geometry": {"type": "Point", "coordinates": [-72.6738627462323, 41.7655191829673]}},
{"type": "Feature", "id": "nPbfsdE25XIGPT1YblNdRUx-K2M=", "properties": {"ref": "Houston Innovation Hub", "@spider": "accenture", "addr:full": "1301 Fannin St, Suite 1900", "addr:city": "Houston", "addr:state": "TX", "addr:postcode": "77002", "addr:country": "US", "name": "Houston Innovation Hub", "phone": "+17134839090", "website": "https://www.accenture.com/us-en/about/company/houston-innovation-hub", "brand": "Accenture", "brand:wikidata": "Q29123313"}, "geometry": {"type": "Point", "coordinates": [-95.3656075237436, 29.7536393346966]}},
{"type": "Feature", "id": "B5ygg9GYP5hn-NlIaQ0PZrAsdjY=", "properties": {"ref": "Indianapolis", "@spider": "accenture", "addr:full": "55 Monument Circle, Circle Tower, Suite 1200B", "addr:city": "Indianapolis", "addr:state": "IN", "addr:postcode": "46204", "addr:country": "US", "name": "Indianapolis", "phone": "+13172673400", "website": "https://www.accenture.com/us-en/about/company/united-states", "brand": "Accenture", "brand:wikidata": "Q29123313"}, "geometry": {"type": "Point", "coordinates": [-86.1569337, 39.7681535]}},
{"type": "Feature", "id": "sWCplvC2ULSzDJglIu1jq35tw1M=", "properties": {"ref": "Irvine - 300 Spectrum Center Drive", "@spider": "accenture", "addr:full": "300 Spectrum Center Drive, 14th floor", "addr:city": "Irvine", "addr:state": "CA", "addr:postcode": "92618", "addr:country": "US", "name": "Irvine - 300 Spectrum Center Drive", "phone": "+13107262700", "website": "https://www.accenture.com/us-en/about/company/united-states", "brand": "Accenture", "brand:wikidata": "Q29123313"}, "geometry": {"type": "Point", "coordinates": [-117.748076009041, 33.6545690419921]}},
{"type": "Feature", "id": "pHz1o00QwGu_cDVhFtUbirBEwnk=", "properties": {"ref": "Jefferson", "@spider": "accenture", "addr:full": "Odd Fellows Building, 204 East State Street", "addr:city": "Jefferson", "addr:state": "IA", "addr:postcode": "50129", "addr:country": "US", "name": "Jefferson", "phone": "+18883745527", "website": "https://www.accenture.com/us-en/about/company/united-states", "brand": "Accenture", "brand:wikidata": "Q29123313"}, "geometry": {"type": "Point", "coordinates": [-94.373041, 42.0165737]}},
{"type": "Feature", "id": "T0yXRCOzBNWB9pNo_p3TtHZlvgI=", "properties": {"ref": "Knoxville Intelligent Operations Center", "@spider": "accenture", "addr:full": "1965 Marriott Dr, Louisville", "addr:city": "Knoxville", "addr:state": "TN", "addr:postcode": "37777", "addr:country": "US", "name": "Knoxville Intelligent Operations Center", "phone": "+18659804000", "website": "https://www.accenture.com/us-en/about/company/united-states", "brand": "Accenture", "brand:wikidata": "Q29123313"}, "geometry": {"type": "Point", "coordinates": [-83.9943397, 35.8478271]}},
{"type": "Feature", "id": "UOJOIfCv3aHhRSRWjQVm197-Tx8=", "properties": {"ref": "Los Angeles", "@spider": "accenture", "addr:full": "1003 E. 4th Place, 8th Floor", "addr:city": "Los Angeles", "addr:state": "CA", "addr:postcode": "90013", "addr:country": "US", "name": "Los Angeles", "phone": "+13107262400", "website": "https://www.accenture.com/us-en/about/company/united-states", "brand": "Accenture", "brand:wikidata": "Q29123313"}, "geometry": {"type": "Point", "coordinates": [-118.2334162, 34.0421237]}},
{"type": "Feature", "id": "LFvXHTrDzpAzVDbmHcyq0EaWp5A=", "properties": {"ref": "Mechanicsburg", "@spider": "accenture", "addr:full": "The Executive Offices at Rossmoyne Office #30, 5000 Ritter Road, Suite 202", "addr:city": "Mechanicsburg", "addr:state": "PA", "addr:postcode": "17055", "addr:country": "US", "name": "Mechanicsburg", "phone": "+15715513381", "website": "https://www.accenture.com/us-en/about/company/united-states", "brand": "Accenture", "brand:wikidata": "Q29123313"}, "geometry": {"type": "Point", "coordinates": [-76.9601377202378, 40.2060482548383]}},
{"type": "Feature", "id": "rCRHpmz0EMVxyDKA-3G_YVCOyX0=", "properties": {"ref": "Miami", "@spider": "accenture", "addr:full": "5201 Blue Lagoon Drive, Suite 250", "addr:city": "Miami", "addr:state": "FL", "addr:postcode": "33126", "addr:country": "US", "name": "Miami", "phone": "+17864257000", "website": "https://www.accenture.com/us-en/about/company/united-states", "brand": "Accenture", "brand:wikidata": "Q29123313"}, "geometry": {"type": "Point", "coordinates": [-80.2813805006117, 25.7833823683178]}},
{"type": "Feature", "id": "w0Dfg1NTRIpqqYSNU9_Tg4QFhS0=", "properties": {"ref": "Milwaukee", "@spider": "accenture", "addr:full": "111 East Kilbourn, Suite 1200", "addr:city": "Milwaukee", "addr:state": "WI", "addr:postcode": "53202", "addr:country": "US", "name": "Milwaukee", "phone": "+14142121000", "website": "https://www.accenture.com/us-en/about/company/united-states", "brand": "Accenture", "brand:wikidata": "Q29123313"}, "geometry": {"type": "Point", "coordinates": [-87.91156600191, 43.0417061758964]}},
{"type": "Feature", "id": "lLWQSVJGK-ZZjZccttS_KX5CGkg=", "properties": {"ref": "Minneapolis", "@spider": "accenture", "addr:full": "333 South Seventh Street, Suite 1700", "addr:city": "Minneapolis", "addr:state": "MN", "addr:postcode": "55402", "addr:country": "US", "name": "Minneapolis", "phone": "+16122770000", "website": "https://www.accenture.com/us-en/about/company/united-states", "brand": "Accenture", "brand:wikidata": "Q29123313"}, "geometry": {"type": "Point", "coordinates": [-93.2675507340904, 44.974366321595]}},
{"type": "Feature", "id": "DlFuPo2x7BBpAaL4613pQPc9ztM=", "properties": {"ref": "Nashville Advanced Technology Center", "@spider": "accenture", "addr:full": "4101 Charlotte Ave  A170", "addr:city": "Nashville", "addr:state": "TN", "addr:postcode": "37209", "addr:country": "US", "name": "Nashville Advanced Technology Center", "phone": "+16298007008", "website": "https://www.accenture.com/us-en/about/company/united-states", "brand": "Accenture", "brand:wikidata": "Q29123313"}, "geometry": {"type": "Point", "coordinates": [-86.835691609613, 36.1514048491275]}},
{"type": "Feature", "id": "l3jpYP91nUV0ypyQdMTIJSXjDfM=", "properties": {"ref": "New York - One Manhattan West", "@spider": "accenture", "addr:full": "395 9th Avenue", "addr:city": "New York", "addr:state": "NY", "addr:postcode": "10001", "addr:country": "US", "name": "New York - One Manhattan West", "phone": "+19174524400", "website": "https://www.accenture.com/us-en/about/company/united-states", "brand": "Accenture", "brand:wikidata": "Q29123313"}, "geometry": {"type": "Point", "coordinates": [-73.9973749, 40.7525834]}},
{"type": "Feature", "id": "SDpTZWAdP0uCVCjUj72ErxSVERE=", "properties": {"ref": "New York Innovation Hub", "@spider": "accenture", "addr:full": "155 Ave of Americas, 10th Floor", "addr:city": "New York", "addr:state": "NY", "addr:postcode": "10013", "addr:country": "US", "name": "New York Innovation Hub", "phone": "+16463807700", "website": "https://www.accenture.com/us-en/about/company/united-states", "brand": "Accenture", "brand:wikidata": "Q29123313"}, "geometry": {"type": "Point", "coordinates": [-74.0048673024641, 40.7253875491886]}},
{"type": "Feature", "id": "pu6djOU9F6I5YzzSqB7Yju6ZqcE=", "properties": {"ref": "Orlando", "@spider": "accenture", "addr:full": "9400 Southpark Center Loop, Suite 400", "addr:city": "Orlando", "addr:state": "FL", "addr:postcode": "32819", "addr:country": "US", "name": "Orlando", "phone": "+17278039257", "website": "https://www.accenture.com/us-en/about/company/united-states", "brand": "Accenture", "brand:wikidata": "Q29123313"}, "geometry": {"type": "Point", "coordinates": [-81.426009735582, 28.4306718441265]}},
{"type": "Feature", "id": "cauOAh45JLPTaE8DC3n8xKIMubw=", "properties": {"ref": "Overland Park", "@spider": "accenture", "addr:full": "7300 West 110th Street, Suite 850", "addr:city": "Overland Park", "addr:state": "KS", "addr:postcode": "66210", "addr:country": "US", "name": "Overland Park", "phone": "+19133191000", "website": "https://www.accenture.com/us-en/about/company/united-states", "brand": "Accenture", "brand:wikidata": "Q29123313"}, "geometry": {"type": "Point", "coordinates": [-94.6705058889376, 38.9310507456353]}},
{"type": "Feature", "id": "oJbnoFVpFVSeHzrBcx954bAHYbU=", "properties": {"ref": "Peoria - 401 SW Water St", "@spider": "accenture", "addr:full": "401 SW Water St, Ste 601", "addr:city": "Peoria", "addr:state": "IL", "addr:postcode": "61602", "addr:country": "US", "name": "Peoria - 401 SW Water St", "phone": "+13096743600", "website": "https://www.accenture.com/us-en/about/company/united-states", "brand": "Accenture", "brand:wikidata": "Q29123313"}, "geometry": {"type": "Point", "coordinates": [-89.592123362583, 40.6876254720015]}},
{"type": "Feature", "id": "uXiDy-y-89cs29Req-kn9S2acgE=", "properties": {"ref": "Philadelphia", "@spider": "accenture", "addr:full": "2005 Market Street, 15th Floor", "addr:city": "Philadelphia", "addr:state": "PA", "addr:postcode": "19103", "addr:country": "US", "name": "Philadelphia", "phone": "+12672161000", "website": "https://www.accenture.com/us-en/about/company/united-states", "brand": "Accenture", "brand:wikidata": "Q29123313"}, "geometry": {"type": "Point", "coordinates": [-75.1747225325821, 39.9541179843394]}},
{"type": "Feature", "id": "e_GnK_lpElC-Qoc7W5UaQzLp6UU=", "properties": {"ref": "Phoenix", "@spider": "accenture", "addr:full": "101 North 1st Avenue, Suite 800", "addr:city": "Phoenix", "addr:state": "AZ", "addr:postcode": "85003", "addr:country": "US", "name": "Phoenix", "phone": "+16023374000", "website": "https://www.accenture.com/us-en/about/company/united-states", "brand": "Accenture", "brand:wikidata": "Q29123313"}, "geometry": {"type": "Point", "coordinates": [-112.074739227587, 33.4499051665213]}},
{"type": "Feature", "id": "f3QLbLqrBEYzyybu44RErtb-mDs=", "properties": {"ref": "Pittsburgh", "@spider": "accenture", "addr:full": "210 6th Avenue, 8th Floor, K&L Gates Center", "addr:city": "Pittsburgh", "addr:state": "PA", "addr:postcode": "15222", "addr:country": "US", "name": "Pittsburgh", "phone": "+14129376000", "website": "https://www.accenture.com/us-en/about/company/united-states", "brand": "Accenture", "brand:wikidata": "Q29123313"}, "geometry": {"type": "Point", "coordinates": [-80.0000147588781, 40.4421411837083]}},
{"type": "Feature", "id": "ZXWj5m8ZzHn6ZKG9Gv67-k3_Yrc=", "properties": {"ref": "Portland", "@spider": "accenture", "addr:full": "4075 N Williams Ave, Suite 240", "addr:city": "Portland", "addr:state": "OR", "addr:postcode": "97227", "addr:country": "US", "name": "Portland", "phone": "+12068392786", "website": "https://www.accenture.com/us-en/about/company/united-states", "brand": "Accenture", "brand:wikidata": "Q29123313"}, "geometry": {"type": "Point", "coordinates": [-122.666928963551, 45.5531809186485]}},
{"type": "Feature", "id": "B0_47YonRT9Bt9TKHk6GOIdA0HM=", "properties": {"ref": "Raleigh", "@spider": "accenture", "addr:full": "3301 Benson Drive, Suite 503", "addr:city": "Raleigh", "addr:state": "NC", "addr:postcode": "27609", "addr:country": "US", "name": "Raleigh", "phone": "+19198361200", "website": "https://www.accenture.com/us-en/about/company/united-states", "brand": "Accenture", "brand:wikidata": "Q29123313"}, "geometry": {"type": "Point", "coordinates": [-78.6226507692194, 35.8294493115436]}},
{"type": "Feature", "id": "cYwLEk0mH8_NeXhJOSfiLNaptuw=", "properties": {"ref": "Rancho Cordova", "@spider": "accenture", "addr:full": "ACS Sacramento Delivery Center, 3343 Capital Center Drive, Floor 1", "addr:city": "Rancho Cordova", "addr:state": "CA", "addr:postcode": "95670", "addr:country": "US", "name": "Rancho Cordova", "phone": "+19167383601", "website": "https://www.accenture.com/us-en/about/company/united-states", "brand": "Accenture", "brand:wikidata": "Q29123313"}, "geometry": {"type": "Point", "coordinates": [-121.291106, 38.58276]}},
{"type": "Feature", "id": "TnCevb9arjky1uWP8OQEaJiMEg4=", "properties": {"ref": "Redmond - 8383 158th Ave NE", "@spider": "accenture", "addr:full": "Opportunity Building, 8383 158th Ave NE", "addr:city": "Redmond", "addr:state": "WA", "addr:postcode": "98052", "addr:country": "US", "name": "Redmond - 8383 158th Ave NE", "phone": "+18778899009", "website": "https://www.accenture.com/us-en/about/company/united-states", "brand": "Accenture", "brand:wikidata": "Q29123313"}, "geometry": {"type": "Point", "coordinates": [-122.13118054785, 47.6767942582565]}},
{"type": "Feature", "id": "M0ETtGzh2UnpLX63TAzISO7KBBE=", "properties": {"ref": "Reston", "@spider": "accenture", "addr:full": "12018 Sunrise Valley Drive", "addr:city": "Reston", "addr:state": "VA", "addr:postcode": "20191", "addr:country": "US", "name": "Reston", "phone": "+17034573024", "website": "https://www.accenture.com/us-en/about/company/united-states", "brand": "Accenture", "brand:wikidata": "Q29123313"}, "geometry": {"type": "Point", "coordinates": [-77.3618051, 38.9484056]}},
{"type": "Feature", "id": "1MrTfz_c6HvbRbLcMwMertZ_wMw=", "properties": {"ref": "Sacramento", "@spider": "accenture", "addr:full": "1610 R Street, Suite #240", "addr:city": "Sacramento", "addr:state": "CA", "addr:postcode": "95811", "addr:country": "US", "name": "Sacramento", "phone": "+19165572200", "website": "https://www.accenture.com/us-en/about/company/united-states", "brand": "Accenture", "brand:wikidata": "Q29123313"}, "geometry": {"type": "Point", "coordinates": [-121.4885517, 38.5688384]}},
{"type": "Feature", "id": "4NwAUsbvXQMsDnopBI0r0_jQyXQ=", "properties": {"ref": "San Antonio - 6415 Babcock Road", "@spider": "accenture", "addr:full": "6415 Babcock Road, Suite 100", "addr:city": "San Antonio", "addr:state": "TX", "addr:postcode": "78249", "addr:country": "US", "name": "San Antonio - 6415 Babcock Road", "phone": "+12106992400", "website": "https://www.accenture.com/us-en/about/company/united-states", "brand": "Accenture", "brand:wikidata": "Q29123313"}, "geometry": {"type": "Point", "coordinates": [-98.6132207607479, 29.545647664975]}},
{"type": "Feature", "id": "H4cS-gy9I2ZriE3KdrsFYyVAySA=", "properties": {"ref": "San Antonio - Fairground Parkway", "@spider": "accenture", "addr:full": "7050 Fairgrounds Parkway", "addr:city": "San Antonio", "addr:state": "TX", "addr:postcode": "78238", "addr:country": "US", "name": "San Antonio - Fairground Parkway", "phone": "+12109188000", "website": "https://www.accenture.com/us-en/about/company/united-states", "brand": "Accenture", "brand:wikidata": "Q29123313"}, "geometry": {"type": "Point", "coordinates": [-98.6187496, 29.4572895]}},
{"type": "Feature", "id": "wwFI94YZCLkHXXJLWEOlnv2T8I4=", "properties": {"ref": "San Diego - La Jolla Village Drive", "@spider": "accenture", "addr:full": "4370 La Jolla Village Drive, 5th Floor", "addr:city": "San Diego", "addr:state": "CA", "addr:postcode": "92122", "addr:country": "US", "name": "San Diego - La Jolla Village Drive", "phone": "+13107262700", "website": "https://www.accenture.com/us-en/about/company/united-states", "brand": "Accenture", "brand:wikidata": "Q29123313"}, "geometry": {"type": "Point", "coordinates": [-117.21115393793, 32.8740436064822]}},
{"type": "Feature", "id": "3efnYLTB4NyXuEPhvu_OIQD0oKU=", "properties": {"ref": "San Diego - Murray Canyon Road", "@spider": "accenture", "addr:full": "1615 Murray Canyon Road, Suite 400", "addr:city": "San Diego", "addr:state": "CA", "addr:postcode": "92108", "addr:country": "US", "name": "San Diego - Murray Canyon Road", "phone": "+16195742400", "website": "https://www.accenture.com/us-en/about/company/united-states", "brand": "Accenture", "brand:wikidata": "Q29123313"}, "geometry": {"type": "Point", "coordinates": [-117.157585658896, 32.775284220808]}},
{"type": "Feature", "id": "5m2EWJKtyLNq843naSeqhBVy3eE=", "properties": {"ref": "San Francisco", "@spider": "accenture", "addr:full": "415 Mission Street, Floor 31-34", "addr:city": "San Francisco", "addr:state": "CA", "addr:postcode": "94105", "addr:country": "US", "name": "San Francisco", "phone": "+14155375000", "website": "https://www.accenture.com/us-en/about/company/united-states", "brand": "Accenture", "brand:wikidata": "Q29123313"}, "geometry": {"type": "Point", "coordinates": [-122.394809, 37.793904]}},
{"type": "Feature", "id": "g0IiSqO49Q69NGSTD4Y0jNced8E=", "properties": {"ref": "San Francisco Innovation Hub", "@spider": "accenture", "addr:full": "415 Mission Street, Floor 35", "addr:city": "San Francisco", "addr:state": "CA", "addr:postcode": "94105", "addr:country": "US", "name": "San Francisco Innovation Hub", "phone": "+14155375700", "website": "https://www.accenture.com/us-en/services/technology-consulting/accenture-innovation-center-san-francisco", "brand": "Accenture", "brand:wikidata": "Q29123313"}, "geometry": {"type": "Point", "coordinates": [-122.3969054, 37.7898162]}},
{"type": "Feature", "id": "4pio9ff8RfnWZJk86_kkdCfQi8Q=", "properties": {"ref": "San Jose", "@spider": "accenture", "addr:full": "50 West San Fernando Street, Suite 1100", "addr:city": "San Jose", "addr:state": "CA", "addr:postcode": "95113", "addr:country": "US", "name": "San Jose", "phone": "+14088172100", "website": "https://www.accenture.com/us-en/about/company/united-states", "brand": "Accenture", "brand:wikidata": "Q29123313"}, "geometry": {"type": "Point", "coordinates": [-121.889276802464, 37.3339791071431]}},
{"type": "Feature", "id": "CwplWtnnM6lPP5CxLfymerX5GyE=", "properties": {"ref": "Seattle Innovation Hub", "@spider": "accenture", "addr:full": "1191 2nd Avenue, Suite 100", "addr:city": "Seattle", "addr:state": "WA", "addr:postcode": "98101", "addr:country": "US", "name": "Seattle Innovation Hub", "phone": "+12068392000", "website": "https://www.accenture.com/us-en/about/company/accenture-innovation-hub-seattle", "brand": "Accenture", "brand:wikidata": "Q29123313"}, "geometry": {"type": "Point", "coordinates": [-122.3364695, 47.6063377]}},
{"type": "Feature", "id": "5J5uEA9Mi_hSZjZQugqusrLCQH0=", "properties": {"ref": "Somerville", "@spider": "accenture", "addr:full": "21 Whipple St", "addr:city": "Somerville", "addr:state": "MA", "addr:postcode": "02144", "addr:country": "US", "name": "Somerville", "phone": "+16176237600", "website": "https://www.accenture.com/us-en/about/company/united-states", "brand": "Accenture", "brand:wikidata": "Q29123313"}, "geometry": {"type": "Point", "coordinates": [-71.117627, 42.395313]}},
{"type": "Feature", "id": "cjoyrTda3aLVzB1pfWCA9iMK1OQ=", "properties": {"ref": "St. Louis", "@spider": "accenture", "addr:full": "4220 Duncan Avenue, Suite 502", "addr:city": "St. Louis", "addr:state": "MO", "addr:postcode": "63110", "addr:country": "US", "name": "St. Louis", "phone": "+13143453000", "website": "https://www.accenture.com/us-en/about/company/united-states", "brand": "Accenture", "brand:wikidata": "Q29123313"}, "geometry": {"type": "Point", "coordinates": [-90.2502095, 38.6348015]}},
{"type": "Feature", "id": "2DYriU3nM1gvk8A5ExqqURqwxKQ=", "properties": {"ref": "St. Petersburg", "@spider": "accenture", "addr:full": "140 Fountain Parkway, Suite 400", "addr:city": "St. Petersburg", "addr:state": "FL", "addr:postcode": "33716", "addr:country": "US", "name": "St. Petersburg", "phone": "+17278977000", "website": "https://www.accenture.com/us-en/about/company/united-states", "brand": "Accenture", "brand:wikidata": "Q29123313"}, "geometry": {"type": "Point", "coordinates": [-82.656024618977, 27.8920004453792]}},
{"type": "Feature", "id": "6Vhm75OKo0BdmJIZaS0L0hTZA0g=", "properties": {"ref": "Tallahassee", "@spider": "accenture", "addr:full": "3800 Esplanade Way, #100", "addr:city": "Tallahassee", "addr:state": "FL", "addr:postcode": "32311", "addr:country": "US", "name": "Tallahassee", "phone": "+18505130620", "website": "https://www.accenture.com/us-en/about/company/united-states", "brand": "Accenture", "brand:wikidata": "Q29123313"}, "geometry": {"type": "Point", "coordinates": [-84.2321602942492, 30.3955393413416]}},
{"type": "Feature", "id": "xNP01DwDzKbe6CzLgzdyBFCOZJE=", "properties": {"ref": "Troy - MXM", "@spider": "accenture", "addr:full": "1050 Wilshire Dr, Suite 150", "addr:city": "Troy", "addr:state": "MI", "addr:postcode": "48084", "addr:country": "US", "name": "Troy - MXM", "phone": "+12488162893", "website": "https://www.accenture.com/us-en/about/company/accenture-innovation-hub-detroit", "brand": "Accenture", "brand:wikidata": "Q29123313"}, "geometry": {"type": "Point", "coordinates": [-83.1701759, 42.5646465]}},
{"type": "Feature", "id": "6T-VZs8PM2I4lsiqJ5fbPPJmKzo=", "properties": {"ref": "Troy - Mackevision", "@spider": "accenture", "addr:full": "1965 Research Dr", "addr:city": "Troy", "addr:state": "MI", "addr:postcode": "48083", "addr:country": "US", "name": "Troy - Mackevision", "phone": "+12486566566", "website": "https://www.accenture.com/us-en/about/company/accenture-innovation-hub-detroit", "brand": "Accenture", "brand:wikidata": "Q29123313"}, "geometry": {"type": "Point", "coordinates": [-83.1195007, 42.5527363]}},
{"type": "Feature", "id": "hkAX1vzV2oP31Sb1DLWMJJJko7s=", "properties": {"ref": "Washington, D.C. - Connecticut Avenue", "@spider": "accenture", "addr:full": "800 Connecticut Avenue, Suite 600", "addr:city": "Washington", "addr:state": "DC", "addr:postcode": "20006", "addr:country": "US", "name": "Washington, D.C. - Connecticut Avenue", "phone": "+12025331100", "website": "https://www.accenture.com/us-en/about/company/united-states", "brand": "Accenture", "brand:wikidata": "Q29123313"}, "geometry": {"type": "Point", "coordinates": [-77.038488, 38.90053]}},
{"type": "Feature", "id": "PuuFBGL9JDBBd2sMSaysWjdXv64=", "properties": {"ref": "Washington, D.C. - Federal Digital Studio", "@spider": "accenture", "addr:full": "1201 New York Avenue Northwest", "addr:city": "Washington", "addr:state": "DC", "addr:postcode": "20005", "addr:country": "US", "name": "Washington, D.C. - Federal Digital Studio", "phone": "+12025331100", "website": "https://www.accenture.com/us-en/service-accenture-federal-digital-studio", "brand": "Accenture", "brand:wikidata": "Q29123313"}, "geometry": {"type": "Point", "coordinates": [-77.0285713, 38.9007958]}}]}