{"type":"FeatureCollection","features":[{"type": "Feature", "id": "007zEzPr1g8JievOW65a79h3OQ4=", "properties": {"ref": "160-w-putnam-ave", "@spider": "acme_markets", "shop": "supermarket", "addr:full": "160 W Putnam Ave", "addr:city": "Greenwich", "addr:state": "CT", "addr:postcode": "06830", "addr:country": "US", "name": "Greenwich", "phone": "(203) 622-2944", "website": "https://local.acmemarkets.com/ct/greenwich/160-w-putnam-ave.html", "brand": "Acme Markets", "brand:wikidata": "Q341975", "nsi_id": "acme-dde59d"}, "geometry": {"type": "Point", "coordinates": [-73.63104384358596, 41.026607867317196]}},
{"type": "Feature", "id": "C32db-9oxAzqClXQw0EY723JAdI=", "properties": {"ref": "4236-harbor-beach-blvd", "@spider": "acme_markets", "shop": "supermarket", "addr:full": "4236 Harbor Beach Blvd", "addr:city": "Brigantine", "addr:state": "NJ", "addr:postcode": "08203", "addr:country": "US", "name": "Brigantine", "phone": "(609) 264-0041", "website": "https://local.acmemarkets.com/nj/brigantine/4236-harbor-beach-blvd.html", "brand": "Acme Markets", "brand:wikidata": "Q341975", "nsi_id": "acme-dde59d"}, "geometry": {"type": "Point", "coordinates": [-74.39427228304339, 39.39380050040161]}},
{"type": "Feature", "id": "cWHdKRIOeTFn0O3x_npXIb5pdl4=", "properties": {"ref": "260-dunns-mills-rd", "@spider": "acme_markets", "shop": "supermarket", "addr:full": "260 Dunns Mills Rd", "addr:city": "Bordentown", "addr:state": "NJ", "addr:postcode": "08505", "addr:country": "US", "name": "Bordentown", "phone": "(609) 298-2014", "website": "https://local.acmemarkets.com/nj/bordentown/260-dunns-mills-rd.html", "brand": "Acme Markets", "brand:wikidata": "Q341975", "nsi_id": "acme-dde59d"}, "geometry": {"type": "Point", "coordinates": [-74.72576790555725, 40.133545221382604]}},
{"type": "Feature", "id": "34xKAyueOqHOsABDWBSP1srSX8o=", "properties": {"ref": "550-myrtle-ave", "@spider": "acme_markets", "shop": "supermarket", "addr:full": "550 Myrtle Ave", "addr:city": "Boonton", "addr:state": "NJ", "addr:postcode": "07005", "addr:country": "US", "name": "Boonton", "phone": "(973) 402-4333", "website": "https://local.acmemarkets.com/nj/boonton/550-myrtle-ave.html", "brand": "Acme Markets", "brand:wikidata": "Q341975", "nsi_id": "acme-dde59d"}, "geometry": {"type": "Point", "coordinates": [-74.39690396931154, 40.90854576867332]}},
{"type": "Feature", "id": "c9Txoku3AXNYQTi1ALhW7jp_LK8=", "properties": {"ref": "152-route-94", "@spider": "acme_markets", "shop": "supermarket", "addr:full": "152 Route 94", "addr:city": "Blairstown", "addr:state": "NJ", "addr:postcode": "07825", "addr:country": "US", "name": "Blairstown", "phone": "(908) 362-1790", "website": "https://local.acmemarkets.com/nj/blairstown/152-route-94.html", "brand": "Acme Markets", "brand:wikidata": "Q341975", "nsi_id": "acme-dde59d"}, "geometry": {"type": "Point", "coordinates": [-74.9969887, 40.9837031]}},
{"type": "Feature", "id": "IVvUTNmBxdI17dL0i4u1WBD7ftk=", "properties": {"ref": "912-w-bay-ave", "@spider": "acme_markets", "shop": "supermarket", "addr:full": "912 W Bay Ave", "addr:city": "Barnegat", "addr:state": "NJ", "addr:postcode": "08005", "addr:country": "US", "name": "Barneget", "phone": "(609) 607-5909", "website": "https://local.acmemarkets.com/nj/barnegat/912-w-bay-ave.html", "brand": "Acme Markets", "brand:wikidata": "Q341975", "nsi_id": "acme-dde59d"}, "geometry": {"type": "Point", "coordinates": [-74.2461686, 39.7592224]}},
{"type": "Feature", "id": "HzcuGAlTKLAWOcFLmitRzwOY8J0=", "properties": {"ref": "100-e-black-horse-pike", "@spider": "acme_markets", "shop": "supermarket", "addr:full": "100 E Black Horse Pike", "addr:city": "Audubon", "addr:state": "NJ", "addr:postcode": "08106", "addr:country": "US", "name": "Audubon", "phone": "(856) 547-3938", "website": "https://local.acmemarkets.com/nj/audubon/100-e-black-horse-pike.html", "brand": "Acme Markets", "brand:wikidata": "Q341975", "nsi_id": "acme-dde59d"}, "geometry": {"type": "Point", "coordinates": [-75.0891602, 39.8928333]}},
{"type": "Feature", "id": "QOCU96p0do5NiQR8R2vbAVW2im0=", "properties": {"ref": "45-de-mercurio-dr", "@spider": "acme_markets", "shop": "supermarket", "addr:full": "45 De Mercurio Dr", "addr:city": "Allendale", "addr:state": "NJ", "addr:postcode": "07401", "addr:country": "US", "name": "Allendale", "phone": "(201) 934-3350", "website": "https://local.acmemarkets.com/nj/allendale/45-de-mercurio-dr.html", "brand": "Acme Markets", "brand:wikidata": "Q341975", "nsi_id": "acme-dde59d"}, "geometry": {"type": "Point", "coordinates": [-74.1282105, 41.0289554]}},
{"type": "Feature", "id": "W_MHqysTPvewSCnAnQpJJIF4xEI=", "properties": {"ref": "751-s-salisbury-blvd", "@spider": "acme_markets", "shop": "supermarket", "addr:full": "751 S Salisbury Blvd", "addr:city": "Salisbury", "addr:state": "MD", "addr:postcode": "21801", "addr:country": "US", "name": "Salisbury", "phone": "(410) 742-1343", "website": "https://local.acmemarkets.com/md/salisbury/751-s-salisbury-blvd.html", "brand": "Acme Markets", "brand:wikidata": "Q341975", "nsi_id": "acme-dde59d"}, "geometry": {"type": "Point", "coordinates": [-75.5994201, 38.3549387]}},
{"type": "Feature", "id": "qMYRdY2UMTRcKClplCuogyEfw20=", "properties": {"ref": "9507-coastal-hwy", "@spider": "acme_markets", "shop": "supermarket", "addr:full": "9507 Coastal Hwy", "addr:city": "Ocean City", "addr:state": "MD", "addr:postcode": "21842", "addr:country": "US", "name": "Ocean City", "phone": "(410) 723-7004", "website": "https://local.acmemarkets.com/md/ocean-city/9507-coastal-hwy.html", "brand": "Acme Markets", "brand:wikidata": "Q341975", "nsi_id": "acme-dde59d"}, "geometry": {"type": "Point", "coordinates": [-75.0605815209015, 38.41064010000001]}},
{"type": "Feature", "id": "m3glAGfjbjoVHIXONDowtZE-1fU=", "properties": {"ref": "101-big-elk-mall", "@spider": "acme_markets", "shop": "supermarket", "addr:full": "101 Big Elk Mall", "addr:city": "Elkton", "addr:state": "MD", "addr:postcode": "21921", "addr:country": "US", "name": "Elkton", "phone": "(410) 398-4925", "website": "https://local.acmemarkets.com/md/elkton/101-big-elk-mall.html", "brand": "Acme Markets", "brand:wikidata": "Q341975", "nsi_id": "acme-dde59d"}, "geometry": {"type": "Point", "coordinates": [-75.82616517652241, 39.60166694258115]}},
{"type": "Feature", "id": "E14oNR0Don4PEE1n31f508lvR5g=", "properties": {"ref": "210-w-marlboro-ave", "@spider": "acme_markets", "shop": "supermarket", "addr:full": "210 W Marlboro Ave", "addr:city": "Easton", "addr:state": "MD", "addr:postcode": "21601", "addr:country": "US", "name": "Easton", "phone": "(410) 822-7073", "website": "https://local.acmemarkets.com/md/easton/210-w-marlboro-ave.html", "brand": "Acme Markets", "brand:wikidata": "Q341975", "nsi_id": "acme-dde59d"}, "geometry": {"type": "Point", "coordinates": [-76.08284801250187, 38.77970471021947]}},
{"type": "Feature", "id": "-GJbaezm4IWLOJijO7cJ5TZoR9k=", "properties": {"ref": "711-washington-ave", "@spider": "acme_markets", "shop": "supermarket", "addr:full": "711 Washington Ave Unit #14", "addr:city": "Chestertown", "addr:state": "MD", "addr:postcode": "21620", "addr:country": "US", "name": "Chestertown", "phone": "(410) 778-5641", "website": "https://local.acmemarkets.com/md/chestertown/711-washington-ave.html", "brand": "Acme Markets", "brand:wikidata": "Q341975", "nsi_id": "acme-dde59d"}, "geometry": {"type": "Point", "coordinates": [-76.0688863398117, 39.225476705881036]}},
{"type": "Feature", "id": "5hDHyTDciRyHJkVqxaMBU3MlRVs=", "properties": {"ref": "611-railroad-ave", "@spider": "acme_markets", "shop": "supermarket", "addr:full": "611 Railroad Ave", "addr:city": "Centreville", "addr:state": "MD", "addr:postcode": "21617", "addr:country": "US", "name": "Centreville", "phone": "(443) 262-9150", "website": "https://local.acmemarkets.com/md/centreville/611-railroad-ave.html", "brand": "Acme Markets", "brand:wikidata": "Q341975", "nsi_id": "acme-dde59d"}, "geometry": {"type": "Point", "coordinates": [-76.0561111, 39.0399446]}},
{"type": "Feature", "id": "6xE1xPy1mMwtOb3J__npHZV135M=", "properties": {"ref": "4720-limestone-rd", "@spider": "acme_markets", "shop": "supermarket", "addr:full": "4720 Limestone Rd", "addr:city": "Wilmington", "addr:state": "DE", "addr:postcode": "19808", "addr:country": "US", "name": "Pike Creek", "phone": "(302) 998-4465", "website": "https://local.acmemarkets.com/de/wilmington/4720-limestone-rd.html", "brand": "Acme Markets", "brand:wikidata": "Q341975", "nsi_id": "acme-dde59d"}, "geometry": {"type": "Point", "coordinates": [-75.6934498, 39.7396969]}},
{"type": "Feature", "id": "alpXtOceEOqUXTkNm7IGcqwaWa0=", "properties": {"ref": "4365-robert-kirkwood-hwy", "@spider": "acme_markets", "shop": "supermarket", "addr:full": "4365 Robert Kirkwood Hwy", "addr:city": "Wilmington", "addr:state": "DE", "addr:postcode": "19808", "addr:country": "US", "name": "Kirkwood Highway", "phone": "(302) 636-1140", "website": "https://local.acmemarkets.com/de/wilmington/4365-robert-kirkwood-hwy.html", "brand": "Acme Markets", "brand:wikidata": "Q341975", "nsi_id": "acme-dde59d"}, "geometry": {"type": "Point", "coordinates": [-75.65293103456497, 39.728740417583346]}},
{"type": "Feature", "id": "qkmQcKTZyrbDzp1Tu5TrLQTx0dA=", "properties": {"ref": "200-blair-mill-rd", "@spider": "acme_markets", "shop": "supermarket", "addr:full": "200 Blair Mill Rd", "addr:city": "Horsham", "addr:state": "PA", "addr:postcode": "19044", "addr:country": "US", "name": "Horsham", "phone": "(215) 956-1600", "website": "https://local.acmemarkets.com/pa/horsham/200-blair-mill-rd.html", "brand": "Acme Markets", "brand:wikidata": "Q341975", "nsi_id": "acme-dde59d"}, "geometry": {"type": "Point", "coordinates": [-75.11813610555726, 40.18389955912754]}},
{"type": "Feature", "id": "S1uPL6x9U_RMfXq--soeO3H8XXk=", "properties": {"ref": "907-paoli-pike", "@spider": "acme_markets", "shop": "supermarket", "addr:full": "907 Paoli Pike", "addr:city": "West Chester", "addr:state": "PA", "addr:postcode": "19380", "addr:country": "US", "name": "West Goshen", "phone": "(610) 431-4726", "website": "https://local.acmemarkets.com/pa/west-chester/907-paoli-pike.html", "brand": "Acme Markets", "brand:wikidata": "Q341975", "nsi_id": "acme-dde59d"}, "geometry": {"type": "Point", "coordinates": [-75.58729739519549, 39.969815192454845]}},
{"type": "Feature", "id": "FPKEf53Ywfver7gA-fzFVt546ls=", "properties": {"ref": "700-w-lancaster-ave", "@spider": "acme_markets", "shop": "supermarket", "addr:full": "700 W Lancaster Ave", "addr:city": "Wayne", "addr:state": "PA", "addr:postcode": "19087", "addr:country": "US", "name": "Devon", "phone": "(610) 341-6073", "website": "https://local.acmemarkets.com/pa/wayne/700-w-lancaster-ave.html", "brand": "Acme Markets", "brand:wikidata": "Q341975", "nsi_id": "acme-dde59d"}, "geometry": {"type": "Point", "coordinates": [-75.40771106137696, 40.04542372124514]}},
{"type": "Feature", "id": "29Va1iqNRzg6g2Y9KA9_-uGKSkc=", "properties": {"ref": "815-lansdowne-ave", "@spider": "acme_markets", "shop": "supermarket", "addr:full": "815 Lansdowne Ave", "addr:city": "Upper Darby", "addr:state": "PA", "addr:postcode": "19082", "addr:country": "US", "name": "Upper Darby", "phone": "(610) 789-0898", "website": "https://local.acmemarkets.com/pa/upper-darby/815-lansdowne-ave.html", "brand": "Acme Markets", "brand:wikidata": "Q341975", "nsi_id": "acme-dde59d"}, "geometry": {"type": "Point", "coordinates": [-75.28727758213957, 39.96105049825003]}},
{"type": "Feature", "id": "yx54sCgyiJa0H0F3IhFv7dM-twc=", "properties": {"ref": "800-2nd-st-pike", "@spider": "acme_markets", "shop": "supermarket", "addr:full": "800 2nd St Pike", "addr:city": "Richboro", "addr:state": "PA", "addr:postcode": "18954", "addr:country": "US", "name": "Richboro", "phone": "(215) 354-4424", "website": "https://local.acmemarkets.com/pa/richboro/800-2nd-st-pike.html", "brand": "Acme Markets", "brand:wikidata": "Q341975", "nsi_id": "acme-dde59d"}, "geometry": {"type": "Point", "coordinates": [-75.01240408280334, 40.20762522669718]}},
{"type": "Feature", "id": "1iSGgdJuITNYd8Nxd3JKRgneMFs=", "properties": {"ref": "785-starr-st", "@spider": "acme_markets", "shop": "supermarket", "addr:full": "785 Starr St", "addr:city": "Phoenixville", "addr:state": "PA", "addr:postcode": "19460", "addr:country": "US", "name": "Phoenixville", "phone": "(610) 933-6299", "website": "https://local.acmemarkets.com/pa/phoenixville/785-starr-st.html", "brand": "Acme Markets", "brand:wikidata": "Q341975", "nsi_id": "acme-dde59d"}, "geometry": {"type": "Point", "coordinates": [-75.50702484841004, 40.12386848849432]}},
{"type": "Feature", "id": "sxQd4Xyvm05Vigxtczc29OlGvM0=", "properties": {"ref": "920-red-lion-rd", "@spider": "acme_markets", "shop": "supermarket", "addr:full": "920 Red Lion Rd", "addr:city": "Philadelphia", "addr:state": "PA", "addr:postcode": "19115", "addr:country": "US", "name": "Red Lion", "phone": "(215) 676-5601", "website": "https://local.acmemarkets.com/pa/philadelphia/920-red-lion-rd.html", "brand": "Acme Markets", "brand:wikidata": "Q341975", "nsi_id": "acme-dde59d"}, "geometry": {"type": "Point", "coordinates": [-75.02647091957398, 40.10056482029306]}},
{"type": "Feature", "id": "trguQJlGq4ZhrMKDlGYL82dBP0Q=", "properties": {"ref": "8200-roosevelt-blvd", "@spider": "acme_markets", "shop": "supermarket", "addr:full": "8200 Roosevelt Blvd", "addr:city": "Philadelphia", "addr:state": "PA", "addr:postcode": "19152", "addr:country": "US", "name": "Pennypack Circle", "phone": "(215) 338-8077", "website": "https://local.acmemarkets.com/pa/philadelphia/8200-roosevelt-blvd.html", "brand": "Acme Markets", "brand:wikidata": "Q341975", "nsi_id": "acme-dde59d"}, "geometry": {"type": "Point", "coordinates": [-75.04533706905022, 40.0602797225588]}},
{"type": "Feature", "id": "-NR3VUePCBhiRLcZq68zvKnnW4g=", "properties": {"ref": "7700-crittenden-st", "@spider": "acme_markets", "shop": "supermarket", "addr:full": "7700 Crittenden St", "addr:city": "Philadelphia", "addr:state": "PA", "addr:postcode": "19118", "addr:country": "US", "name": "Crittenden", "phone": "(215) 248-6490", "website": "https://local.acmemarkets.com/pa/philadelphia/7700-crittenden-st.html", "brand": "Acme Markets", "brand:wikidata": "Q341975", "nsi_id": "acme-dde59d"}, "geometry": {"type": "Point", "coordinates": [-75.19387282936094, 40.07181319396292]}},
{"type": "Feature", "id": "fgIC-odPV8FvlaKDY05VjFCfmPM=", "properties": {"ref": "7010-germantown-ave", "@spider": "acme_markets", "shop": "supermarket", "addr:full": "7010 Germantown Ave", "addr:city": "Philadelphia", "addr:state": "PA", "addr:postcode": "19119", "addr:country": "US", "name": "Mt Airy", "phone": "(215) 247-1160", "website": "https://local.acmemarkets.com/pa/philadelphia/7010-germantown-ave.html", "brand": "Acme Markets", "brand:wikidata": "Q341975", "nsi_id": "acme-dde59d"}, "geometry": {"type": "Point", "coordinates": [-75.1895744, 40.0566437]}},
{"type": "Feature", "id": "q7LDCkBy7uYMepDBX-kSZmnPDPA=", "properties": {"ref": "701-cathedral-rd-suit-34", "@spider": "acme_markets", "shop": "supermarket", "addr:full": "701 Cathedral Rd Suit 34", "addr:city": "Philadelphia", "addr:state": "PA", "addr:postcode": "19128", "addr:country": "US", "name": "Andorra", "phone": "(215) 483-7766", "website": "https://local.acmemarkets.com/pa/philadelphia/701-cathedral-rd-suit-34.html", "brand": "Acme Markets", "brand:wikidata": "Q341975", "nsi_id": "acme-dde59d"}, "geometry": {"type": "Point", "coordinates": [-75.2365465, 40.0638351]}},
{"type": "Feature", "id": "nUptkfro_zNholVrZ6EbiYwy19Y=", "properties": {"ref": "6640-oxford-ave", "@spider": "acme_markets", "shop": "supermarket", "addr:full": "6640 Oxford Ave", "addr:city": "Philadelphia", "addr:state": "PA", "addr:postcode": "19111", "addr:country": "US", "name": "Oxford Avenue", "phone": "(215) 725-9310", "website": "https://local.acmemarkets.com/pa/philadelphia/6640-oxford-ave.html", "brand": "Acme Markets", "brand:wikidata": "Q341975", "nsi_id": "acme-dde59d"}, "geometry": {"type": "Point", "coordinates": [-75.08697983658186, 40.0502917678843]}},
{"type": "Feature", "id": "vr5nlzDpdVZ461qQ1RXhLvMfvEA=", "properties": {"ref": "6601-roosevelt-blvd", "@spider": "acme_markets", "shop": "supermarket", "addr:full": "6601 Roosevelt Blvd", "addr:city": "Philadelphia", "addr:state": "PA", "addr:postcode": "19149", "addr:country": "US", "name": "Harbison", "phone": "(215) 338-4700", "website": "https://local.acmemarkets.com/pa/philadelphia/6601-roosevelt-blvd.html", "brand": "Acme Markets", "brand:wikidata": "Q341975", "nsi_id": "acme-dde59d"}, "geometry": {"type": "Point", "coordinates": [-75.06252320143176, 40.03578039987626]}},
{"type": "Feature", "id": "EL-4X1pp0KtksMoC03rt-KYq7_o=", "properties": {"ref": "5927-59-ridge-ave", "@spider": "acme_markets", "shop": "supermarket", "addr:full": "5927-59 Ridge Ave", "addr:city": "Philadelphia", "addr:state": "PA", "addr:postcode": "19128", "addr:country": "US", "name": "Roxborough", "phone": "(215) 487-7180", "website": "https://local.acmemarkets.com/pa/philadelphia/5927-59-ridge-ave.html", "brand": "Acme Markets", "brand:wikidata": "Q341975", "nsi_id": "acme-dde59d"}, "geometry": {"type": "Point", "coordinates": [-75.21126241957398, 40.031634180380706]}},
{"type": "Feature", "id": "QVsxLldae-NiRb7tZR3JM9YNTQY=", "properties": {"ref": "4001-walnut-st", "@spider": "acme_markets", "shop": "supermarket", "addr:full": "4001 Walnut St", "addr:city": "Philadelphia", "addr:state": "PA", "addr:postcode": "19104", "addr:country": "US", "name": "Walnut Street", "phone": "(445) 888-3634", "website": "https://local.acmemarkets.com/pa/philadelphia/4001-walnut-st.html", "brand": "Acme Markets", "brand:wikidata": "Q341975", "nsi_id": "acme-dde59d"}, "geometry": {"type": "Point", "coordinates": [-75.20293287195909, 39.954469413927406]}},
{"type": "Feature", "id": "vCorkF1ECfNFAlU90YP2SNxraYo=", "properties": {"ref": "3200-09-red-lion-rd", "@spider": "acme_markets", "shop": "supermarket", "addr:full": "3200-09 Red Lion Rd", "addr:city": "Philadelphia", "addr:state": "PA", "addr:postcode": "19114", "addr:country": "US", "name": "Academy", "phone": "(215) 637-4620", "website": "https://local.acmemarkets.com/pa/philadelphia/3200-09-red-lion-rd.html", "brand": "Acme Markets", "brand:wikidata": "Q341975", "nsi_id": "acme-dde59d"}, "geometry": {"type": "Point", "coordinates": [-74.99336265158996, 40.07931290794012]}},
{"type": "Feature", "id": "macWCpYOL_P738M92QSJVOBeUVs=", "properties": {"ref": "309-s-5th-st", "@spider": "acme_markets", "shop": "supermarket", "addr:full": "309 S 5th St", "addr:city": "Philadelphia", "addr:state": "PA", "addr:postcode": "19106", "addr:country": "US", "name": "Pine Street", "phone": "(215) 413-9725", "website": "https://local.acmemarkets.com/pa/philadelphia/309-s-5th-st.html", "brand": "Acme Markets", "brand:wikidata": "Q341975", "nsi_id": "acme-dde59d"}, "geometry": {"type": "Point", "coordinates": [-75.14996723101831, 39.944311276055515]}},
{"type": "Feature", "id": "L55GnEEyjLf_3qBYb3Q5ownL6mM=", "properties": {"ref": "29-snyder-ave", "@spider": "acme_markets", "shop": "supermarket", "addr:full": "29 Snyder Ave", "addr:city": "Philadelphia", "addr:state": "PA", "addr:postcode": "19148", "addr:country": "US", "name": "Snyder Ave", "phone": "(215) 271-5603", "website": "https://local.acmemarkets.com/pa/philadelphia/29-snyder-ave.html", "brand": "Acme Markets", "brand:wikidata": "Q341975", "nsi_id": "acme-dde59d"}, "geometry": {"type": "Point", "coordinates": [-75.14490733862306, 39.92329437817475]}},
{"type": "Feature", "id": "Y3SArLMre7c_z6m1JwWEKG2b7eM=", "properties": {"ref": "2101-41-cottman-ave", "@spider": "acme_markets", "shop": "supermarket", "addr:full": "2101-41 Cottman Ave", "addr:city": "Philadelphia", "addr:state": "PA", "addr:postcode": "19149", "addr:country": "US", "name": "Cottman", "phone": "(215) 728-1010", "website": "https://local.acmemarkets.com/pa/philadelphia/2101-41-cottman-ave.html", "brand": "Acme Markets", "brand:wikidata": "Q341975", "nsi_id": "acme-dde59d"}, "geometry": {"type": "Point", "coordinates": [-75.0616622, 40.0505382]}},
{"type": "Feature", "id": "sYTHKtlVb6RrAUq3f4HF7mfdJuk=", "properties": {"ref": "1901-johnston-st", "@spider": "acme_markets", "shop": "supermarket", "addr:full": "1901 Johnston St", "addr:city": "Philadelphia", "addr:state": "PA", "addr:postcode": "19145", "addr:country": "US", "name": "19th & Oregon", "phone": "(215) 336-4441", "website": "https://local.acmemarkets.com/pa/philadelphia/1901-johnston-st.html", "brand": "Acme Markets", "brand:wikidata": "Q341975", "nsi_id": "acme-dde59d"}, "geometry": {"type": "Point", "coordinates": [-75.1803405659029, 39.91692663915721]}},
{"type": "Feature", "id": "ykVYcerUihDxdo6KpHN7WwnRS3o=", "properties": {"ref": "180-w-girard-ave", "@spider": "acme_markets", "shop": "supermarket", "addr:full": "180 W Girard Ave", "addr:city": "Philadelphia", "addr:state": "PA", "addr:postcode": "19123", "addr:country": "US", "name": "Girard", "phone": "(215) 574-2922", "website": "https://local.acmemarkets.com/pa/philadelphia/180-w-girard-ave.html", "brand": "Acme Markets", "brand:wikidata": "Q341975", "nsi_id": "acme-dde59d"}, "geometry": {"type": "Point", "coordinates": [-75.1389405, 39.9689336]}},
{"type": "Feature", "id": "W14pFVcpFhIukjupm74SgLljW1o=", "properties": {"ref": "1400-e-passyunk-ave", "@spider": "acme_markets", "shop": "supermarket", "addr:full": "1400 E Passyunk Ave", "addr:city": "Philadelphia", "addr:state": "PA", "addr:postcode": "19147", "addr:country": "US", "name": "10th & Reed", "phone": "(215) 467-2221", "website": "https://local.acmemarkets.com/pa/philadelphia/1400-e-passyunk-ave.html", "brand": "Acme Markets", "brand:wikidata": "Q341975", "nsi_id": "acme-dde59d"}, "geometry": {"type": "Point", "coordinates": [-75.16229734585977, 39.932301044272045]}},
{"type": "Feature", "id": "41gPV44KrRENYLp-gA5D56NBX4U=", "properties": {"ref": "1001-south-st", "@spider": "acme_markets", "shop": "supermarket", "addr:full": "1001 South St", "addr:city": "Philadelphia", "addr:state": "PA", "addr:postcode": "19147", "addr:country": "US", "name": "South Street", "phone": "(215) 238-1108", "website": "https://local.acmemarkets.com/pa/philadelphia/1001-south-st.html", "brand": "Acme Markets", "brand:wikidata": "Q341975", "nsi_id": "acme-dde59d"}, "geometry": {"type": "Point", "coordinates": [-75.15889864788515, 39.94301382314362]}},
{"type": "Feature", "id": "lA1gwOpjCV7hf5LPgegb6KkmADE=", "properties": {"ref": "39-leopard-rd", "@spider": "acme_markets", "shop": "supermarket", "addr:full": "39 Leopard Rd", "addr:city": "Paoli", "addr:state": "PA", "addr:postcode": "19301", "addr:country": "US", "name": "Paoli", "phone": "(610) 240-0101", "website": "https://local.acmemarkets.com/pa/paoli/39-leopard-rd.html", "brand": "Acme Markets", "brand:wikidata": "Q341975", "nsi_id": "acme-dde59d"}, "geometry": {"type": "Point", "coordinates": [-75.47707608465575, 40.03955401052213]}},
{"type": "Feature", "id": "G04ufQkuEVnuq7-j8AGJ5sxtT68=", "properties": {"ref": "2761-w-ridge-pike", "@spider": "acme_markets", "shop": "supermarket", "addr:full": "2761 W Ridge Pike", "addr:city": "Norristown", "addr:state": "PA", "addr:postcode": "19403", "addr:country": "US", "name": "Trooper", "phone": "(610) 630-0890", "website": "https://local.acmemarkets.com/pa/norristown/2761-w-ridge-pike.html", "brand": "Acme Markets", "brand:wikidata": "Q341975", "nsi_id": "acme-dde59d"}, "geometry": {"type": "Point", "coordinates": [-75.39368935211486, 40.147273324565276]}},
{"type": "Feature", "id": "_PEWOFZcO7d7GwAX1R1n4F9fuvo=", "properties": {"ref": "48-west-rd", "@spider": "acme_markets", "shop": "supermarket", "addr:full": "48 West Rd", "addr:city": "Newtown", "addr:state": "PA", "addr:postcode": "18940", "addr:country": "US", "name": "Newtown", "phone": "(215) 504-9585", "website": "https://local.acmemarkets.com/pa/newtown/48-west-rd.html", "brand": "Acme Markets", "brand:wikidata": "Q341975", "nsi_id": "acme-dde59d"}, "geometry": {"type": "Point", "coordinates": [-74.94518062513121, 40.234662047755016]}},
{"type": "Feature", "id": "QU2w_WgYfOs9421KFzXFspgAfcg=", "properties": {"ref": "3590-w-chester-pike", "@spider": "acme_markets", "shop": "supermarket", "addr:full": "3590 W Chester Pike", "addr:city": "Newtown Square", "addr:state": "PA", "addr:postcode": "19073", "addr:country": "US", "name": "Newtown Square", "phone": "(610) 353-8018", "website": "https://local.acmemarkets.com/pa/newtown-square/3590-w-chester-pike.html", "brand": "Acme Markets", "brand:wikidata": "Q341975", "nsi_id": "acme-dde59d"}, "geometry": {"type": "Point", "coordinates": [-75.3980436, 39.9855035]}},
{"type": "Feature", "id": "8E4ftB-1CAQQ7v5Uf5UqbrhPTds=", "properties": {"ref": "829-montgomery-ave", "@spider": "acme_markets", "shop": "supermarket", "addr:full": "829 Montgomery Ave", "addr:city": "Narberth", "addr:state": "PA", "addr:postcode": "19072", "addr:country": "US", "name": "Narberth", "phone": "(610) 668-1738", "website": "https://local.acmemarkets.com/pa/narberth/829-montgomery-ave.html", "brand": "Acme Markets", "brand:wikidata": "Q341975", "nsi_id": "acme-dde59d"}, "geometry": {"type": "Point", "coordinates": [-75.2580748325409, 40.01091580948591]}},
{"type": "Feature", "id": "gulcHNCDoBD59JxvMHCxTI2JgTA=", "properties": {"ref": "527-e-baltimore-pike", "@spider": "acme_markets", "shop": "supermarket", "addr:full": "527 E Baltimore Pike", "addr:city": "Media", "addr:state": "PA", "addr:postcode": "19063", "addr:country": "US", "name": "Media", "phone": "(610) 565-5072", "website": "https://local.acmemarkets.com/pa/media/527-e-baltimore-pike.html", "brand": "Acme Markets", "brand:wikidata": "Q341975", "nsi_id": "acme-dde59d"}, "geometry": {"type": "Point", "coordinates": [-75.3786379, 39.9159369]}},
{"type": "Feature", "id": "z_Yd824qs2239XP5t2EKg0oum8M=", "properties": {"ref": "1095-w-baltimore-pike", "@spider": "acme_markets", "shop": "supermarket", "addr:full": "1095 W Baltimore Pike", "addr:city": "Media", "addr:state": "PA", "addr:postcode": "19063", "addr:country": "US", "name": "Granite Run", "phone": "(610) 891-0407", "website": "https://local.acmemarkets.com/pa/media/1095-w-baltimore-pike.html", "brand": "Acme Markets", "brand:wikidata": "Q341975", "nsi_id": "acme-dde59d"}, "geometry": {"type": "Point", "coordinates": [-75.4295713, 39.9176724]}},
{"type": "Feature", "id": "yLPgbtGeoWmxGRhya_ZjwDYHJ0o=", "properties": {"ref": "6800-new-falls-rd", "@spider": "acme_markets", "shop": "supermarket", "addr:full": "6800 New Falls Rd", "addr:city": "Levittown", "addr:state": "PA", "addr:postcode": "19057", "addr:country": "US", "name": "Levittown", "phone": "(215) 946-1840", "website": "https://local.acmemarkets.com/pa/levittown/6800-new-falls-rd.html", "brand": "Acme Markets", "brand:wikidata": "Q341975", "nsi_id": "acme-dde59d"}, "geometry": {"type": "Point", "coordinates": [-74.8571254, 40.1517746]}},
{"type": "Feature", "id": "m3-YVyM7laD1RQYsQYEKDdCOHmU=", "properties": {"ref": "323-old-york-rd", "@spider": "acme_markets", "shop": "supermarket", "addr:full": "323 Old York Rd", "addr:city": "Jenkintown", "addr:state": "PA", "addr:postcode": "19046", "addr:country": "US", "name": "Jenkintown", "phone": "(215) 886-2911", "website": "https://local.acmemarkets.com/pa/jenkintown/323-old-york-rd.html", "brand": "Acme Markets", "brand:wikidata": "Q341975", "nsi_id": "acme-dde59d"}, "geometry": {"type": "Point", "coordinates": [-75.1250716, 40.0917449]}},
{"type": "Feature", "id": "noFHN7AceZmVosmb3bP85zKv1vw=", "properties": {"ref": "503-s-macdade-blvd", "@spider": "acme_markets", "shop": "supermarket", "addr:full": "503 S MacDade Blvd", "addr:city": "Holmes", "addr:state": "PA", "addr:postcode": "19043", "addr:country": "US", "name": "Glenolden", "phone": "(610) 586-0557", "website": "https://local.acmemarkets.com/pa/holmes/503-s-macdade-blvd.html", "brand": "Acme Markets", "brand:wikidata": "Q341975", "nsi_id": "acme-dde59d"}, "geometry": {"type": "Point", "coordinates": [-75.3015989, 39.8991212]}},
{"type": "Feature", "id": "oBkvgq-tnFvuGulQ3YpE7IzuKVE=", "properties": {"ref": "1305-w-chester-pike", "@spider": "acme_markets", "shop": "supermarket", "addr:full": "1305 W Chester Pike", "addr:city": "Havertown", "addr:state": "PA", "addr:postcode": "19083", "addr:country": "US", "name": "Havertown", "phone": "(610) 446-1191", "website": "https://local.acmemarkets.com/pa/havertown/1305-w-chester-pike.html", "brand": "Acme Markets", "brand:wikidata": "Q341975", "nsi_id": "acme-dde59d"}, "geometry": {"type": "Point", "coordinates": [-75.32050561534422, 39.97407867835323]}},
{"type": "Feature", "id": "LGeg9V1UHhZp2Kle6x-hqjWyKe8=", "properties": {"ref": "101-byers-dr", "@spider": "acme_markets", "shop": "supermarket", "addr:full": "101 Byers Dr", "addr:city": "Glen Mills", "addr:state": "PA", "addr:postcode": "19342", "addr:country": "US", "name": "Concordville", "phone": "(610) 459-2759", "website": "https://local.acmemarkets.com/pa/glen-mills/101-byers-dr.html", "brand": "Acme Markets", "brand:wikidata": "Q341975", "nsi_id": "acme-dde59d"}, "geometry": {"type": "Point", "coordinates": [-75.52783763862305, 39.88417209235094]}},
{"type": "Feature", "id": "aSERfZkKjmAZbooRhhUU7PnOLp8=", "properties": {"ref": "124-morton-ave", "@spider": "acme_markets", "shop": "supermarket", "addr:full": "124 Morton Ave", "addr:city": "Folsom", "addr:state": "PA", "addr:postcode": "19033", "addr:country": "US", "name": "Ridley", "phone": "(610) 237-3800", "website": "https://local.acmemarkets.com/pa/folsom/124-morton-ave.html", "brand": "Acme Markets", "brand:wikidata": "Q341975", "nsi_id": "acme-dde59d"}, "geometry": {"type": "Point", "coordinates": [-75.32819598913193, 39.884880333191724]}},
{"type": "Feature", "id": "ZJxce1qau949TiPCBTNB3ByQfgs=", "properties": {"ref": "1640-bethlehem-pike", "@spider": "acme_markets", "shop": "supermarket", "addr:full": "1640 Bethlehem Pike", "addr:city": "Flourtown", "addr:state": "PA", "addr:postcode": "19031", "addr:country": "US", "name": "Flourtown", "phone": "(215) 836-2560", "website": "https://local.acmemarkets.com/pa/flourtown/1640-bethlehem-pike.html", "brand": "Acme Markets", "brand:wikidata": "Q341975", "nsi_id": "acme-dde59d"}, "geometry": {"type": "Point", "coordinates": [-75.21141954285277, 40.10702641207996]}},
{"type": "Feature", "id": "ykY9ibTSOmaVCRPxcsR2wZGsAuE=", "properties": {"ref": "105-e-street-rd", "@spider": "acme_markets", "shop": "supermarket", "addr:full": "105 E Street Rd", "addr:city": "Feasterville Trevose", "addr:state": "PA", "addr:postcode": "19053", "addr:country": "US", "name": "Feasterville", "phone": "(215) 942-4891", "website": "https://local.acmemarkets.com/pa/feasterville-trevose/105-e-street-rd.html", "brand": "Acme Markets", "brand:wikidata": "Q341975", "nsi_id": "acme-dde59d"}, "geometry": {"type": "Point", "coordinates": [-74.9994779, 40.1473165]}},
{"type": "Feature", "id": "jqnIQ12E7pL7p2nBwsTr034Smms=", "properties": {"ref": "1825-limekiln-pike", "@spider": "acme_markets", "shop": "supermarket", "addr:full": "1825 Limekiln Pike", "addr:city": "Dresher", "addr:state": "PA", "addr:postcode": "19025", "addr:country": "US", "name": "Dresher", "phone": "(215) 643-3992", "website": "https://local.acmemarkets.com/pa/dresher/1825-limekiln-pike.html", "brand": "Acme Markets", "brand:wikidata": "Q341975", "nsi_id": "acme-dde59d"}, "geometry": {"type": "Point", "coordinates": [-75.1658643, 40.1305313]}},
{"type": "Feature", "id": "Pkyie_9iwx9y0V2xEy0LEbKs5po=", "properties": {"ref": "480-n-main-st", "@spider": "acme_markets", "shop": "supermarket", "addr:full": "480 N Main St", "addr:city": "Doylestown", "addr:state": "PA", "addr:postcode": "18901", "addr:country": "US", "name": "Doylestown", "phone": "(215) 340-1341", "website": "https://local.acmemarkets.com/pa/doylestown/480-n-main-st.html", "brand": "Acme Markets", "brand:wikidata": "Q341975", "nsi_id": "acme-dde59d"}, "geometry": {"type": "Point", "coordinates": [-75.13243499462988, 40.32248398498436]}},
{"type": "Feature", "id": "9fdP4ZuN6gX-Ir0VxuqbwCgFQ7Y=", "properties": {"ref": "3951-lincoln-hwy", "@spider": "acme_markets", "shop": "supermarket", "addr:full": "3951 Lincoln Hwy", "addr:city": "Downingtown", "addr:state": "PA", "addr:postcode": "19335", "addr:country": "US", "name": "Thorndale", "phone": "(610) 873-8315", "website": "https://local.acmemarkets.com/pa/downingtown/3951-lincoln-hwy.html", "brand": "Acme Markets", "brand:wikidata": "Q341975", "nsi_id": "acme-dde59d"}, "geometry": {"type": "Point", "coordinates": [-75.7406397, 39.9979156]}},
{"type": "Feature", "id": "BaSaw8rPjYpv_0k8sSbmlGnnUBw=", "properties": {"ref": "5300-baltimore-pike", "@spider": "acme_markets", "shop": "supermarket", "addr:full": "5300 Baltimore Pike", "addr:city": "Clifton Heights", "addr:state": "PA", "addr:postcode": "19018", "addr:country": "US", "name": "Clifton Heights", "phone": "(610) 284-6800", "website": "https://local.acmemarkets.com/pa/clifton-heights/5300-baltimore-pike.html", "brand": "Acme Markets", "brand:wikidata": "Q341975", "nsi_id": "acme-dde59d"}, "geometry": {"type": "Point", "coordinates": [-75.30694484710693, 39.92447801136082]}},
{"type": "Feature", "id": "AyoT8avt-hzgeoAPS8Ah55G5sGg=", "properties": {"ref": "400-simpson-dr", "@spider": "acme_markets", "shop": "supermarket", "addr:full": "400 Simpson Dr", "addr:city": "Chester Springs", "addr:state": "PA", "addr:postcode": "19425", "addr:country": "US", "name": "Eagle", "phone": "(610) 458-7004", "website": "https://local.acmemarkets.com/pa/chester-springs/400-simpson-dr.html", "brand": "Acme Markets", "brand:wikidata": "Q341975", "nsi_id": "acme-dde59d"}, "geometry": {"type": "Point", "coordinates": [-75.6894717, 40.0762896]}},
{"type": "Feature", "id": "mBDc2OjMr-BZiv0NgvPxVCa17vY=", "properties": {"ref": "601-w-lancaster-ave", "@spider": "acme_markets", "shop": "supermarket", "addr:full": "601 W Lancaster Ave", "addr:city": "Bryn Mawr", "addr:state": "PA", "addr:postcode": "19010", "addr:country": "US", "name": "Bryn Mawr", "phone": "(610) 525-1950", "website": "https://local.acmemarkets.com/pa/bryn-mawr/601-w-lancaster-ave.html", "brand": "Acme Markets", "brand:wikidata": "Q341975", "nsi_id": "acme-dde59d"}, "geometry": {"type": "Point", "coordinates": [-75.31157, 40.018549]}},
{"type": "Feature", "id": "jcmoB-TDLjdDDrj34dKNw8KAixM=", "properties": {"ref": "1991-n-sproul-rd", "@spider": "acme_markets", "shop": "supermarket", "addr:full": "1991 N Sproul Rd", "addr:city": "Broomall", "addr:state": "PA", "addr:postcode": "19008", "addr:country": "US", "name": "Lawrence Park", "phone": "(610) 325-2880", "website": "https://local.acmemarkets.com/pa/broomall/1991-n-sproul-rd.html", "brand": "Acme Markets", "brand:wikidata": "Q341975", "nsi_id": "acme-dde59d"}, "geometry": {"type": "Point", "coordinates": [-75.3540710441911, 39.95972468852341]}},
{"type": "Feature", "id": "RoLo6VO6ZKiC7sOlUicl556c8fM=", "properties": {"ref": "643-conchester-pike", "@spider": "acme_markets", "shop": "supermarket", "addr:full": "643 Conchester Pike", "addr:city": "Boothwyn", "addr:state": "PA", "addr:postcode": "19061", "addr:country": "US", "name": "Boothwyn", "phone": "(610) 859-0001", "website": "https://local.acmemarkets.com/pa/boothwyn/643-conchester-pike.html", "brand": "Acme Markets", "brand:wikidata": "Q341975", "nsi_id": "acme-dde59d"}, "geometry": {"type": "Point", "coordinates": [-75.4512983, 39.8516234]}},
{"type": "Feature", "id": "LetqTBb70xlrgaUe2XkBwm67BI0=", "properties": {"ref": "2301-bristol-rd", "@spider": "acme_markets", "shop": "supermarket", "addr:full": "2301 Bristol Rd", "addr:city": "Bensalem", "addr:state": "PA", "addr:postcode": "19020", "addr:country": "US", "name": "Bensalem", "phone": "(215) 757-9995", "website": "https://local.acmemarkets.com/pa/bensalem/2301-bristol-rd.html", "brand": "Acme Markets", "brand:wikidata": "Q341975", "nsi_id": "acme-dde59d"}, "geometry": {"type": "Point", "coordinates": [-74.92259888304164, 40.13174666233436]}},
{"type": "Feature", "id": "_q-CzrwaPbZEJcrjruoaGXlIQeo=", "properties": {"ref": "1336-bristol-pike-suite-100", "@spider": "acme_markets", "shop": "supermarket", "addr:full": "1336 Bristol Pike Suite 100", "addr:city": "Bensalem", "addr:state": "PA", "addr:postcode": "19020", "addr:country": "US", "name": "Woodhaven", "phone": "(215) 638-8190", "website": "https://local.acmemarkets.com/pa/bensalem/1336-bristol-pike-suite-100.html", "brand": "Acme Markets", "brand:wikidata": "Q341975", "nsi_id": "acme-dde59d"}, "geometry": {"type": "Point", "coordinates": [-74.9666815, 40.0728537]}},
{"type": "Feature", "id": "WfrLFfVey-GqU31ArtK92H8BLDY=", "properties": {"ref": "121-e-city-ave", "@spider": "acme_markets", "shop": "supermarket", "addr:full": "121 E City Ave", "addr:city": "Bala Cynwyd", "addr:state": "PA", "addr:postcode": "19004", "addr:country": "US", "name": "Bala Cynwyd", "phone": "(610) 667-7021", "website": "https://local.acmemarkets.com/pa/bala-cynwyd/121-e-city-ave.html", "brand": "Acme Markets", "brand:wikidata": "Q341975", "nsi_id": "acme-dde59d"}, "geometry": {"type": "Point", "coordinates": [-75.223673, 40.0037118]}},
{"type": "Feature", "id": "B03He4DIsorw8oSTNj9Qz_0LLLw=", "properties": {"ref": "851-gap-newport-pike", "@spider": "acme_markets", "shop": "supermarket", "addr:full": "851 Gap Newport Pike", "addr:city": "Avondale", "addr:state": "PA", "addr:postcode": "19311", "addr:country": "US", "name": "London Grove", "phone": "(610) 268-3898", "website": "https://local.acmemarkets.com/pa/avondale/851-gap-newport-pike.html", "brand": "Acme Markets", "brand:wikidata": "Q341975", "nsi_id": "acme-dde59d"}, "geometry": {"type": "Point", "coordinates": [-75.7986136, 39.83532958329924]}},
{"type": "Feature", "id": "LX0t8An5G8OrPzUTkzsPncXUFfY=", "properties": {"ref": "100-triangle-center", "@spider": "acme_markets", "shop": "supermarket", "addr:full": "100 Triangle Center", "addr:city": "Yorktown Heights", "addr:state": "NY", "addr:postcode": "10598", "addr:country": "US", "name": "Yorktown Heights", "phone": "(914) 455-3810", "website": "https://local.acmemarkets.com/ny/yorktown-heights/100-triangle-center.html", "brand": "Acme Markets", "brand:wikidata": "Q341975", "nsi_id": "acme-dde59d"}, "geometry": {"type": "Point", "coordinates": [-73.77917620422973, 41.27755909272709]}},
{"type": "Feature", "id": "kXiufPqGkQW1LnmhbhDGBNeCxgo=", "properties": {"ref": "660-mclean-ave", "@spider": "acme_markets", "shop": "supermarket", "addr:full": "660 McLean Ave", "addr:city": "Yonkers", "addr:state": "NY", "addr:postcode": "10704", "addr:country": "US", "name": "McLean", "phone": "(914) 376-8755", "website": "https://local.acmemarkets.com/ny/yonkers/660-mclean-ave.html", "brand": "Acme Markets", "brand:wikidata": "Q341975", "nsi_id": "acme-dde59d"}, "geometry": {"type": "Point", "coordinates": [-73.87650852257593, 40.90932087531453]}},
{"type": "Feature", "id": "VbD6Y-yZeqbuomNT7LWHE33jhb0=", "properties": {"ref": "103-knollwood-rd", "@spider": "acme_markets", "shop": "supermarket", "addr:full": "103 Knollwood Rd", "addr:city": "White Plains", "addr:state": "NY", "addr:postcode": "10607", "addr:country": "US", "name": "Greenburgh", "phone": "(914) 682-1711", "website": "https://local.acmemarkets.com/ny/white-plains/103-knollwood-rd.html", "brand": "Acme Markets", "brand:wikidata": "Q341975", "nsi_id": "acme-dde59d"}, "geometry": {"type": "Point", "coordinates": [-73.80675831534424, 41.03858962152235]}},
{"type": "Feature", "id": "dOSM8sP7o3iYPlR2EMQIuipetPE=", "properties": {"ref": "610-columbus-ave", "@spider": "acme_markets", "shop": "supermarket", "addr:full": "610 Columbus Ave", "addr:city": "Thornwood", "addr:state": "NY", "addr:postcode": "10594", "addr:country": "US", "name": "Thornwood", "phone": "(914) 747-0455", "website": "https://local.acmemarkets.com/ny/thornwood/610-columbus-ave.html", "brand": "Acme Markets", "brand:wikidata": "Q341975", "nsi_id": "acme-dde59d"}, "geometry": {"type": "Point", "coordinates": [-73.77069395211488, 41.11335785036374]}},
{"type": "Feature", "id": "3B11P3_vRUm_THE6H1-tV7KUK2I=", "properties": {"ref": "1366-e-main-st", "@spider": "acme_markets", "shop": "supermarket", "addr:full": "1366 E Main St", "addr:city": "Shrub Oak", "addr:state": "NY", "addr:postcode": "10588", "addr:country": "US", "name": "Shrub Oak", "phone": "(914) 528-3620", "website": "https://local.acmemarkets.com/ny/shrub-oak/1366-e-main-st.html", "brand": "Acme Markets", "brand:wikidata": "Q341975", "nsi_id": "acme-dde59d"}, "geometry": {"type": "Point", "coordinates": [-73.83672282860971, 41.32765881175091]}},
{"type": "Feature", "id": "H35vu3DNRuHsvDfWR_8qe0B0rTg=", "properties": {"ref": "261-s-ridge-st", "@spider": "acme_markets", "shop": "supermarket", "addr:full": "261 S Ridge St", "addr:city": "Rye Brook", "addr:state": "NY", "addr:postcode": "10573", "addr:country": "US", "name": "Rye Brook", "phone": "(914) 937-2233", "website": "https://local.acmemarkets.com/ny/rye-brook/261-s-ridge-st.html", "brand": "Acme Markets", "brand:wikidata": "Q341975", "nsi_id": "acme-dde59d"}, "geometry": {"type": "Point", "coordinates": [-73.67888001163942, 41.00020938365884]}},
{"type": "Feature", "id": "TeYwSgbOeBjXoaR-L7aj1n7y47E=", "properties": {"ref": "13-north-ave", "@spider": "acme_markets", "shop": "supermarket", "addr:full": "13 North Ave", "addr:city": "Pleasant Valley", "addr:state": "NY", "addr:postcode": "12569", "addr:country": "US", "name": "Pleasant Valley", "phone": "(845) 635-4420", "website": "https://local.acmemarkets.com/ny/pleasant-valley/13-north-ave.html", "brand": "Acme Markets", "brand:wikidata": "Q341975", "nsi_id": "acme-dde59d"}, "geometry": {"type": "Point", "coordinates": [-73.82607279206543, 41.7449637148701]}},
{"type": "Feature", "id": "ZrSuqjB8O6NY9611E_2fQWyZq_U=", "properties": {"ref": "3101-route-22", "@spider": "acme_markets", "shop": "supermarket", "addr:full": "3101 Route 22", "addr:city": "Patterson", "addr:state": "NY", "addr:postcode": "12563", "addr:country": "US", "name": "Patterson", "phone": "(845) 878-2044", "website": "https://local.acmemarkets.com/ny/patterson/3101-route-22.html", "brand": "Acme Markets", "brand:wikidata": "Q341975", "nsi_id": "acme-dde59d"}, "geometry": {"type": "Point", "coordinates": [-73.5928317, 41.516964]}},
{"type": "Feature", "id": "AdOgnaUAl2l2Rsiz3vbMJZUW_P0=", "properties": {"ref": "23-quaker-ridge-rd", "@spider": "acme_markets", "shop": "supermarket", "addr:full": "23 Quaker Ridge Rd", "addr:city": "New Rochelle", "addr:state": "NY", "addr:postcode": "10804", "addr:country": "US", "name": "New Rochelle", "phone": "(914) 636-2133", "website": "https://local.acmemarkets.com/ny/new-rochelle/23-quaker-ridge-rd.html", "brand": "Acme Markets", "brand:wikidata": "Q341975", "nsi_id": "acme-dde59d"}, "geometry": {"type": "Point", "coordinates": [-73.79404753446579, 40.94717354834286]}},
{"type": "Feature", "id": "LxyuxygmzJ7cpUkgNL3Q5wNkq_o=", "properties": {"ref": "3071-e-main-st", "@spider": "acme_markets", "shop": "supermarket", "addr:full": "3071 E Main St", "addr:city": "Mohegan Lake", "addr:state": "NY", "addr:postcode": "10547", "addr:country": "US", "name": "Mohegan Lake", "phone": "(914) 526-6688", "website": "https://local.acmemarkets.com/ny/mohegan-lake/3071-e-main-st.html", "brand": "Acme Markets", "brand:wikidata": "Q341975", "nsi_id": "acme-dde59d"}, "geometry": {"type": "Point", "coordinates": [-73.87149527496031, 41.3085480857427]}},
{"type": "Feature", "id": "uFxm9F4nhD3X-vC-jlSsJPatc8s=", "properties": {"ref": "272-us-route-6", "@spider": "acme_markets", "shop": "supermarket", "addr:full": "272 US Route 6", "addr:city": "Mahopac", "addr:state": "NY", "addr:postcode": "10541", "addr:country": "US", "name": "Mahopac", "phone": "(845) 621-5110", "website": "https://local.acmemarkets.com/ny/mahopac/272-us-route-6.html", "brand": "Acme Markets", "brand:wikidata": "Q341975", "nsi_id": "acme-dde59d"}, "geometry": {"type": "Point", "coordinates": [-73.7540478, 41.347435]}},
{"type": "Feature", "id": "twGYwNVftrSZS8SFi0m3dlsk2CY=", "properties": {"ref": "829-route-82", "@spider": "acme_markets", "shop": "supermarket", "addr:full": "829 Route 82", "addr:city": "Hopewell Junction", "addr:state": "NY", "addr:postcode": "12533", "addr:country": "US", "name": "Hopewell Junction", "phone": "(845) 227-0581", "website": "https://local.acmemarkets.com/ny/hopewell-junction/829-route-82.html", "brand": "Acme Markets", "brand:wikidata": "Q341975", "nsi_id": "acme-dde59d"}, "geometry": {"type": "Point", "coordinates": [-73.81225438448388, 41.58073809534288]}},
{"type": "Feature", "id": "e7sOq15qOD5iGTSC86AgoYE-u1Q=", "properties": {"ref": "100-route-22", "@spider": "acme_markets", "shop": "supermarket", "addr:full": "100 Route 22", "addr:city": "Goldens Bridge", "addr:state": "NY", "addr:postcode": "10526", "addr:country": "US", "name": "Golden Bridge", "phone": "(914) 232-7610", "website": "https://local.acmemarkets.com/ny/goldens-bridge/100-route-22.html", "brand": "Acme Markets", "brand:wikidata": "Q341975", "nsi_id": "acme-dde59d"}, "geometry": {"type": "Point", "coordinates": [-73.67593495207984, 41.29328123442652]}},
{"type": "Feature", "id": "oVmy170pxFdMeCcvh8t3dqX302g=", "properties": {"ref": "12-cedar-st", "@spider": "acme_markets", "shop": "supermarket", "addr:full": "12 Cedar St", "addr:city": "Bronxville", "addr:state": "NY", "addr:postcode": "10708", "addr:country": "US", "name": "Bronxvill", "phone": "(914) 793-1001", "website": "https://local.acmemarkets.com/ny/bronxville/12-cedar-st.html", "brand": "Acme Markets", "brand:wikidata": "Q341975", "nsi_id": "acme-dde59d"}, "geometry": {"type": "Point", "coordinates": [-73.83397650859833, 40.938922579263036]}},
{"type": "Feature", "id": "txiGOuok1CntdqU3dybSsWBl7xM=", "properties": {"ref": "1886-pleasantville-rd", "@spider": "acme_markets", "shop": "supermarket", "addr:full": "1886 Pleasantville Rd", "addr:city": "Briarcliff Manor", "addr:state": "NY", "addr:postcode": "10510", "addr:country": "US", "name": "Briarcliff Manor", "phone": "(914) 945-7225", "website": "https://local.acmemarkets.com/ny/briarcliff-manor/1886-pleasantville-rd.html", "brand": "Acme Markets", "brand:wikidata": "Q341975", "nsi_id": "acme-dde59d"}, "geometry": {"type": "Point", "coordinates": [-73.84721697486876, 41.16392470087876]}},
{"type": "Feature", "id": "WDjlVGvzHx9fRypIq4obtN-hb0Q=", "properties": {"ref": "1511-ny-route-22", "@spider": "acme_markets", "shop": "supermarket", "addr:full": "1511 NY Route 22", "addr:city": "Brewster", "addr:state": "NY", "addr:postcode": "10509", "addr:country": "US", "name": "Brewster", "phone": "(845) 940-0575", "website": "https://local.acmemarkets.com/ny/brewster/1511-ny-route-22.html", "brand": "Acme Markets", "brand:wikidata": "Q341975", "nsi_id": "acme-dde59d"}, "geometry": {"type": "Point", "coordinates": [-73.57834964990616, 41.41978504119756]}},
{"type": "Feature", "id": "YSyQalgXb5llPVk39jjwtGBCACw=", "properties": {"ref": "857-route-45", "@spider": "acme_markets", "shop": "supermarket", "addr:full": "857 Route 45", "addr:city": "Woodstown", "addr:state": "NJ", "addr:postcode": "08098", "addr:country": "US", "name": "Woodstown", "phone": "(856) 769-8000", "website": "https://local.acmemarkets.com/nj/woodstown/857-route-45.html", "brand": "Acme Markets", "brand:wikidata": "Q341975", "nsi_id": "acme-dde59d"}, "geometry": {"type": "Point", "coordinates": [-75.34119532273508, 39.64497182672322]}},
{"type": "Feature", "id": "SS0V975oDVxQFpIMYfg4DHxxAeU=", "properties": {"ref": "631-mantua-pike", "@spider": "acme_markets", "shop": "supermarket", "addr:full": "631 Mantua Pike", "addr:city": "Woodbury", "addr:state": "NJ", "addr:postcode": "08096", "addr:country": "US", "name": "Woodbury", "phone": "(856) 848-0224", "website": "https://local.acmemarkets.com/nj/woodbury/631-mantua-pike.html", "brand": "Acme Markets", "brand:wikidata": "Q341975", "nsi_id": "acme-dde59d"}, "geometry": {"type": "Point", "coordinates": [-75.16141278227845, 39.82710199770499]}},
{"type": "Feature", "id": "ZUSY8FbJi_5DlPSmhqc8rxn-BDY=", "properties": {"ref": "23-levitt-pkwy", "@spider": "acme_markets", "shop": "supermarket", "addr:full": "23 Levitt Pkwy", "addr:city": "Willingboro", "addr:state": "NJ", "addr:postcode": "08046", "addr:country": "US", "name": "Willingboro", "phone": "(609) 871-0670", "website": "https://local.acmemarkets.com/nj/willingboro/23-levitt-pkwy.html", "brand": "Acme Markets", "brand:wikidata": "Q341975", "nsi_id": "acme-dde59d"}, "geometry": {"type": "Point", "coordinates": [-74.8911671, 40.051595]}},
{"type": "Feature", "id": "XlfsNlGxLyPjsS43k___Tfx8zFs=", "properties": {"ref": "5300-park-blvd", "@spider": "acme_markets", "shop": "supermarket", "addr:full": "5300 Park Blvd", "addr:city": "Wildwood", "addr:state": "NJ", "addr:postcode": "08260", "addr:country": "US", "name": "Wildwood", "phone": "(609) 522-7165", "website": "https://local.acmemarkets.com/nj/wildwood/5300-park-blvd.html", "brand": "Acme Markets", "brand:wikidata": "Q341975", "nsi_id": "acme-dde59d"}, "geometry": {"type": "Point", "coordinates": [-74.8298893, 38.9847024]}},
{"type": "Feature", "id": "FXSWXOZTn16RY3x7NlTaaLSdgFI=", "properties": {"ref": "400-w-cuthbert-blvd", "@spider": "acme_markets", "shop": "supermarket", "addr:full": "400 W Cuthbert Blvd", "addr:city": "Westmont", "addr:state": "NJ", "addr:postcode": "08108", "addr:country": "US", "name": "Westmont", "phone": "(856) 858-2226", "website": "https://local.acmemarkets.com/nj/westmont/400-w-cuthbert-blvd.html", "brand": "Acme Markets", "brand:wikidata": "Q341975", "nsi_id": "acme-dde59d"}, "geometry": {"type": "Point", "coordinates": [-75.058785, 39.907448]}},
{"type": "Feature", "id": "N7yq_p85CXYhFX2C1hxo-JyBNvM=", "properties": {"ref": "19-21-ave-at-port-imperial", "@spider": "acme_markets", "shop": "supermarket", "addr:full": "19-21 Ave At Port Imperial", "addr:city": "West New York", "addr:state": "NJ", "addr:postcode": "07093", "addr:country": "US", "name": "West New York", "phone": "(201) 553-1030", "website": "https://local.acmemarkets.com/nj/west-new-york/19-21-ave-at-port-imperial.html", "brand": "Acme Markets", "brand:wikidata": "Q341975", "nsi_id": "acme-dde59d"}, "geometry": {"type": "Point", "coordinates": [-74.006992, 40.782138]}},
{"type": "Feature", "id": "ZohlbBHte0O6PDHeo5e6Xc07YeA=", "properties": {"ref": "177-washington-valley-rd", "@spider": "acme_markets", "shop": "supermarket", "addr:full": "177 Washington Valley Rd", "addr:city": "Warren", "addr:state": "NJ", "addr:postcode": "07059", "addr:country": "US", "name": "Warren", "phone": "(732) 764-3800", "website": "https://local.acmemarkets.com/nj/warren/177-washington-valley-rd.html", "brand": "Acme Markets", "brand:wikidata": "Q341975", "nsi_id": "acme-dde59d"}, "geometry": {"type": "Point", "coordinates": [-74.4975805, 40.6148634]}},
{"type": "Feature", "id": "KEWhVJ9WX2YlnZYd-6r-z9m0UyE=", "properties": {"ref": "2007-route-35", "@spider": "acme_markets", "shop": "supermarket", "addr:full": "2007 Route 35", "addr:city": "Wall Township", "addr:state": "NJ", "addr:postcode": "07719", "addr:country": "US", "name": "Wall Twp.", "phone": "(732) 282-1630", "website": "https://local.acmemarkets.com/nj/wall-township/2007-route-35.html", "brand": "Acme Markets", "brand:wikidata": "Q341975", "nsi_id": "acme-dde59d"}, "geometry": {"type": "Point", "coordinates": [-74.0571712, 40.1526235]}},
{"type": "Feature", "id": "7vZ4MEJ4kycEwucaNw-pBVPgO1A=", "properties": {"ref": "700-haddonfield-berlin-rd", "@spider": "acme_markets", "shop": "supermarket", "addr:full": "700 Haddonfield-Berlin Rd", "addr:city": "Voorhees", "addr:state": "NJ", "addr:postcode": "08043", "addr:country": "US", "name": "Voorhees", "phone": "(856) 782-1122", "website": "https://local.acmemarkets.com/nj/voorhees/700-haddonfield-berlin-rd.html", "brand": "Acme Markets", "brand:wikidata": "Q341975", "nsi_id": "acme-dde59d"}, "geometry": {"type": "Point", "coordinates": [-74.97982533292094, 39.84957631772827]}},
{"type": "Feature", "id": "PB8TaWeixHXx6-AOOv3e-QgSxd8=", "properties": {"ref": "301-s-main-st", "@spider": "acme_markets", "shop": "supermarket", "addr:full": "301 S Main St", "addr:city": "Vineland", "addr:state": "NJ", "addr:postcode": "08360", "addr:country": "US", "name": "Vineland", "phone": "(856) 507-1101", "website": "https://local.acmemarkets.com/nj/vineland/301-s-main-st.html", "brand": "Acme Markets", "brand:wikidata": "Q341975", "nsi_id": "acme-dde59d"}, "geometry": {"type": "Point", "coordinates": [-74.99856956375427, 39.47971603478426]}},
{"type": "Feature", "id": "SBddbYIP4zQIrFzdTwvtgJu50Ts=", "properties": {"ref": "530-rt-515-unit-1", "@spider": "acme_markets", "shop": "supermarket", "addr:full": "530 Rt 515 Unit 1", "addr:city": "Vernon", "addr:state": "NJ", "addr:postcode": "07462", "addr:country": "US", "name": "Vernon", "phone": "(973) 764-5350", "website": "https://local.acmemarkets.com/nj/vernon/530-rt-515-unit-1.html", "brand": "Acme Markets", "brand:wikidata": "Q341975", "nsi_id": "acme-dde59d"}, "geometry": {"type": "Point", "coordinates": [-74.4834879, 41.1944643]}},
{"type": "Feature", "id": "84_VztCkBNGzEvSATtpe1-5AFyM=", "properties": {"ref": "5100-wellington-ave", "@spider": "acme_markets", "shop": "supermarket", "addr:full": "5100 Wellington Ave", "addr:city": "Ventnor City", "addr:state": "NJ", "addr:postcode": "08406", "addr:country": "US", "name": "Ventnor City", "phone": "(609) 823-0020", "website": "https://local.acmemarkets.com/nj/ventnor-city/5100-wellington-ave.html", "brand": "Acme Markets", "brand:wikidata": "Q341975", "nsi_id": "acme-dde59d"}, "geometry": {"type": "Point", "coordinates": [-74.47812308280334, 39.35161979332968]}},
{"type": "Feature", "id": "vKnoSxtrRHfSFnzYZ5Mqg7lCSEg=", "properties": {"ref": "425-us-hwy-9", "@spider": "acme_markets", "shop": "supermarket", "addr:full": "425 US Hwy 9", "addr:city": "Tuckerton", "addr:state": "NJ", "addr:postcode": "08087", "addr:country": "US", "name": "Tuckerton", "phone": "(609) 296-9303", "website": "https://local.acmemarkets.com/nj/tuckerton/425-us-hwy-9.html", "brand": "Acme Markets", "brand:wikidata": "Q341975", "nsi_id": "acme-dde59d"}, "geometry": {"type": "Point", "coordinates": [-74.35478978280335, 39.60293929550228]}},
{"type": "Feature", "id": "vxJw3cgtx8J_29-io2-DuGKn5yQ=", "properties": {"ref": "953-route-33", "@spider": "acme_markets", "shop": "supermarket", "addr:full": "953 Route 33", "addr:city": "Trenton", "addr:state": "NJ", "addr:postcode": "08690", "addr:country": "US", "name": "Hamilton Sq", "phone": "(609) 890-2551", "website": "https://local.acmemarkets.com/nj/trenton/953-route-33.html", "brand": "Acme Markets", "brand:wikidata": "Q341975", "nsi_id": "acme-dde59d"}, "geometry": {"type": "Point", "coordinates": [-74.67092738316751, 40.22849821655074]}},
{"type": "Feature", "id": "Muu7IOa-JmIeWKbE2sYI-U6gKHY=", "properties": {"ref": "4400-s-broad-st", "@spider": "acme_markets", "shop": "supermarket", "addr:full": "4400 S Broad St", "addr:city": "Trenton", "addr:state": "NJ", "addr:postcode": "08620", "addr:country": "US", "name": "Yardville", "phone": "(609) 888-9898", "website": "https://local.acmemarkets.com/nj/trenton/4400-s-broad-st.html", "brand": "Acme Markets", "brand:wikidata": "Q341975", "nsi_id": "acme-dde59d"}, "geometry": {"type": "Point", "coordinates": [-74.67306097116395, 40.181853436902735]}},
{"type": "Feature", "id": "scXg-azecSrExua2dZMFBU3P6ko=", "properties": {"ref": "1619-center-square-rd", "@spider": "acme_markets", "shop": "supermarket", "addr:full": "1619 Center Square Rd", "addr:city": "Swedesboro", "addr:state": "NJ", "addr:postcode": "08085", "addr:country": "US", "name": "Logan", "phone": "(856) 467-8936", "website": "https://local.acmemarkets.com/nj/swedesboro/1619-center-square-rd.html", "brand": "Acme Markets", "brand:wikidata": "Q341975", "nsi_id": "acme-dde59d"}, "geometry": {"type": "Point", "coordinates": [-75.3540621, 39.7557054]}},
{"type": "Feature", "id": "hhkCooHpmFgjWe1R89hM7idH9dM=", "properties": {"ref": "455-route-23-n", "@spider": "acme_markets", "shop": "supermarket", "addr:full": "455 Route 23 N", "addr:city": "Sussex", "addr:state": "NJ", "addr:postcode": "07461", "addr:country": "US", "name": "Sussex", "phone": "(973) 702-4020", "website": "https://local.acmemarkets.com/nj/sussex/455-route-23-n.html", "brand": "Acme Markets", "brand:wikidata": "Q341975", "nsi_id": "acme-dde59d"}, "geometry": {"type": "Point", "coordinates": [-74.59993972698365, 41.20364111404843]}},
{"type": "Feature", "id": "9M-eWTiy_hL1dXyWEcrtQvT0n4A=", "properties": {"ref": "212-new-rd", "@spider": "acme_markets", "shop": "supermarket", "addr:full": "212 New Rd", "addr:city": "Somers Point", "addr:state": "NJ", "addr:postcode": "08244", "addr:country": "US", "name": "Somers Point", "phone": "(609) 653-6853", "website": "https://local.acmemarkets.com/nj/somers-point/212-new-rd.html", "brand": "Acme Markets", "brand:wikidata": "Q341975", "nsi_id": "acme-dde59d"}, "geometry": {"type": "Point", "coordinates": [-74.5953549, 39.3278722]}},
{"type": "Feature", "id": "O_OShh979RjcmajfFTpYeb64sYo=", "properties": {"ref": "515-berlin-cross-keys-rd", "@spider": "acme_markets", "shop": "supermarket", "addr:full": "515 Berlin-Cross Keys Rd", "addr:city": "Sicklerville", "addr:state": "NJ", "addr:postcode": "08081", "addr:country": "US", "name": "Gloucester Twp", "phone": "(856) 728-3674", "website": "https://local.acmemarkets.com/nj/sicklerville/515-berlin-cross-keys-rd.html", "brand": "Acme Markets", "brand:wikidata": "Q341975", "nsi_id": "acme-dde59d"}, "geometry": {"type": "Point", "coordinates": [-74.99802862698364, 39.744652577518984]}},
{"type": "Feature", "id": "YBK9CHt9nuBNrhJgzl4KgYMkRkU=", "properties": {"ref": "415-egg-harbor-rd", "@spider": "acme_markets", "shop": "supermarket", "addr:full": "415 Egg Harbor Rd", "addr:city": "Sewell", "addr:state": "NJ", "addr:postcode": "08080", "addr:country": "US", "name": "Washington Twp", "phone": "(856) 256-8852", "website": "https://local.acmemarkets.com/nj/sewell/415-egg-harbor-rd.html", "brand": "Acme Markets", "brand:wikidata": "Q341975", "nsi_id": "acme-dde59d"}, "geometry": {"type": "Point", "coordinates": [-75.07559849391785, 39.74750570741862]}},
{"type": "Feature", "id": "9FGMb1jxoDg5AsH1U-FggmxTafY=", "properties": {"ref": "5-ortley-plaza", "@spider": "acme_markets", "shop": "supermarket", "addr:full": "5 Ortley Plaza", "addr:city": "Seaside Heights", "addr:state": "NJ", "addr:postcode": "08751", "addr:country": "US", "name": "Seaside Heights", "phone": "(732) 830-0880", "website": "https://local.acmemarkets.com/nj/seaside-heights/5-ortley-plaza.html", "brand": "Acme Markets", "brand:wikidata": "Q341975", "nsi_id": "acme-dde59d"}, "geometry": {"type": "Point", "coordinates": [-74.0761548, 39.9507254]}},
{"type": "Feature", "id": "JkCNCOJLtdUYvrh0tSRe_U_zScc=", "properties": {"ref": "6212-landis-ave", "@spider": "acme_markets", "shop": "supermarket", "addr:full": "6212 Landis Ave", "addr:city": "Sea Isle City", "addr:state": "NJ", "addr:postcode": "08243", "addr:country": "US", "name": "Sea Isle", "phone": "(609) 263-1510", "website": "https://local.acmemarkets.com/nj/sea-isle-city/6212-landis-ave.html", "brand": "Acme Markets", "brand:wikidata": "Q341975", "nsi_id": "acme-dde59d"}, "geometry": {"type": "Point", "coordinates": [-74.70360999140166, 39.141991335120814]}},
{"type": "Feature", "id": "Wbp3zdMIrj6o421SL9rOK5oOnzQ=", "properties": {"ref": "75-mayhill-st", "@spider": "acme_markets", "shop": "supermarket", "addr:full": "75 Mayhill St", "addr:city": "Saddle Brook", "addr:state": "NJ", "addr:postcode": "07663", "addr:country": "US", "name": "Saddle Brook", "phone": "(201) 712-1130", "website": "https://local.acmemarkets.com/nj/saddle-brook/75-mayhill-st.html", "brand": "Acme Markets", "brand:wikidata": "Q341975", "nsi_id": "acme-dde59d"}, "geometry": {"type": "Point", "coordinates": [-74.09238477116395, 40.899200795781844]}},
{"type": "Feature", "id": "OFkZZxKLY9obySSGEcr9HHdJLfc=", "properties": {"ref": "501-e-evesham-rd", "@spider": "acme_markets", "shop": "supermarket", "addr:full": "501 E Evesham Rd", "addr:city": "Runnemede", "addr:state": "NJ", "addr:postcode": "08078", "addr:country": "US", "name": "Runnemede", "phone": "(856) 939-5403", "website": "https://local.acmemarkets.com/nj/runnemede/501-e-evesham-rd.html", "brand": "Acme Markets", "brand:wikidata": "Q341975", "nsi_id": "acme-dde59d"}, "geometry": {"type": "Point", "coordinates": [-75.0592723, 39.8491583]}},
{"type": "Feature", "id": "ReIjdLi0qMDGXShx2qVfVJ4GyJs=", "properties": {"ref": "690-millbrook-ave", "@spider": "acme_markets", "shop": "supermarket", "addr:full": "690 Millbrook Ave", "addr:city": "Randolph", "addr:state": "NJ", "addr:postcode": "07869", "addr:country": "US", "name": "Mt Freedom", "phone": "(973) 895-2699", "website": "https://local.acmemarkets.com/nj/randolph/690-millbrook-ave.html", "brand": "Acme Markets", "brand:wikidata": "Q341975", "nsi_id": "acme-dde59d"}, "geometry": {"type": "Point", "coordinates": [-74.57202128650816, 40.82708790644077]}},
{"type": "Feature", "id": "oDuVO1rjEjlyOgY0Ktgu5VOuqmM=", "properties": {"ref": "251-n-broadway", "@spider": "acme_markets", "shop": "supermarket", "addr:full": "251 N Broadway", "addr:city": "Pennsville", "addr:state": "NJ", "addr:postcode": "08070", "addr:country": "US", "name": "Pennsville", "phone": "(856) 678-4213", "website": "https://local.acmemarkets.com/nj/pennsville/251-n-broadway.html", "brand": "Acme Markets", "brand:wikidata": "Q341975", "nsi_id": "acme-dde59d"}, "geometry": {"type": "Point", "coordinates": [-75.50800862940372, 39.668963933231154]}},
{"type": "Feature", "id": "teXGBcHUSwqehfLi7hX13JMZqmk=", "properties": {"ref": "3500-route-9", "@spider": "acme_markets", "shop": "supermarket", "addr:full": "3500 Route 9", "addr:city": "Old Bridge", "addr:state": "NJ", "addr:postcode": "08857", "addr:country": "US", "name": "Old Bridge", "phone": "(732) 607-9275", "website": "https://local.acmemarkets.com/nj/old-bridge/3500-route-9.html", "brand": "Acme Markets", "brand:wikidata": "Q341975", "nsi_id": "acme-dde59d"}, "geometry": {"type": "Point", "coordinates": [-74.3095876, 40.3827557]}},
{"type": "Feature", "id": "xb5qK5uV8eyQ_SLngSKe9KLLk9M=", "properties": {"ref": "2087-shore-rd", "@spider": "acme_markets", "shop": "supermarket", "addr:full": "2087 Shore Rd", "addr:city": "Ocean View", "addr:state": "NJ", "addr:postcode": "08230", "addr:country": "US", "name": "Seaville", "phone": "(609) 624-9004", "website": "https://local.acmemarkets.com/nj/ocean-view/2087-shore-rd.html", "brand": "Acme Markets", "brand:wikidata": "Q341975", "nsi_id": "acme-dde59d"}, "geometry": {"type": "Point", "coordinates": [-74.70139056061015, 39.20775629761579]}},
{"type": "Feature", "id": "3jKGv_3R9lczIZkxiaHK3bvce-U=", "properties": {"ref": "800-west-ave", "@spider": "acme_markets", "shop": "supermarket", "addr:full": "800 West Ave", "addr:city": "Ocean City", "addr:state": "NJ", "addr:postcode": "08226", "addr:country": "US", "name": "West Ave", "phone": "(609) 814-9780", "website": "https://local.acmemarkets.com/nj/ocean-city/800-west-ave.html", "brand": "Acme Markets", "brand:wikidata": "Q341975", "nsi_id": "acme-dde59d"}, "geometry": {"type": "Point", "coordinates": [-74.57699154669626, 39.28061580665242]}},
{"type": "Feature", "id": "KU5-1oM2AiO1BYj6y3WlhH9o41Q=", "properties": {"ref": "3428-simpson-ave", "@spider": "acme_markets", "shop": "supermarket", "addr:full": "3428 Simpson Ave", "addr:city": "Ocean City", "addr:state": "NJ", "addr:postcode": "08226", "addr:country": "US", "name": "Ocean City", "phone": "(609) 525-2160", "website": "https://local.acmemarkets.com/nj/ocean-city/3428-simpson-ave.html", "brand": "Acme Markets", "brand:wikidata": "Q341975", "nsi_id": "acme-dde59d"}, "geometry": {"type": "Point", "coordinates": [-74.61484720370483, 39.252157274254174]}},
{"type": "Feature", "id": "2vIbx3CxQwXt9qDPf8PhvIqy_Xg=", "properties": {"ref": "5774-berkshire-valley-rd", "@spider": "acme_markets", "shop": "supermarket", "addr:full": "5774 Berkshire Valley Rd", "addr:city": "Oak Ridge", "addr:state": "NJ", "addr:postcode": "07438", "addr:country": "US", "name": "Oak Ridge", "phone": "(973) 697-3005", "website": "https://local.acmemarkets.com/nj/oak-ridge/5774-berkshire-valley-rd.html", "brand": "Acme Markets", "brand:wikidata": "Q341975", "nsi_id": "acme-dde59d"}, "geometry": {"type": "Point", "coordinates": [-74.50252623872069, 41.036779110261286]}},
{"type": "Feature", "id": "MPLU81HEV4pPHikC1fNykahNyO0=", "properties": {"ref": "2400-delaware-ave", "@spider": "acme_markets", "shop": "supermarket", "addr:full": "2400 Delaware Ave", "addr:city": "North Wildwood", "addr:state": "NJ", "addr:postcode": "08260", "addr:country": "US", "name": "North Wildwood", "phone": "(609) 846-9010", "website": "https://local.acmemarkets.com/nj/north-wildwood/2400-delaware-ave.html", "brand": "Acme Markets", "brand:wikidata": "Q341975", "nsi_id": "acme-dde59d"}, "geometry": {"type": "Point", "coordinates": [-74.81304391904908, 38.997981690559534]}},
{"type": "Feature", "id": "kB-tf57aBRRZOjwSntENP-WM_Ks=", "properties": {"ref": "3845-bayshore-rd", "@spider": "acme_markets", "shop": "supermarket", "addr:full": "3845 Bayshore Rd", "addr:city": "North Cape May", "addr:state": "NJ", "addr:postcode": "08204", "addr:country": "US", "name": "North Cape May", "phone": "(609) 884-1203", "website": "https://local.acmemarkets.com/nj/north-cape-may/3845-bayshore-rd.html", "brand": "Acme Markets", "brand:wikidata": "Q341975", "nsi_id": "acme-dde59d"}, "geometry": {"type": "Point", "coordinates": [-74.94015276432037, 38.97464709465239]}},
{"type": "Feature", "id": "X6wOxEBiXwzg6BW-u1Io3cy9zDU=", "properties": {"ref": "1260-springfield-ave", "@spider": "acme_markets", "shop": "supermarket", "addr:full": "1260 Springfield Ave", "addr:city": "New Providence", "addr:state": "NJ", "addr:postcode": "07974", "addr:country": "US", "name": "New Providence", "phone": "(908) 286-1725", "website": "https://local.acmemarkets.com/nj/new-providence/1260-springfield-ave.html", "brand": "Acme Markets", "brand:wikidata": "Q341975", "nsi_id": "acme-dde59d"}, "geometry": {"type": "Point", "coordinates": [-74.4040758, 40.7048657]}},
{"type": "Feature", "id": "r2uCB7hXO46ulmtmoEstJMQ2KCk=", "properties": {"ref": "531-high-st", "@spider": "acme_markets", "shop": "supermarket", "addr:full": "531 High St", "addr:city": "Mount Holly", "addr:state": "NJ", "addr:postcode": "08060", "addr:country": "US", "name": "Mount Holly", "phone": "(609) 702-1776", "website": "https://local.acmemarkets.com/nj/mount-holly/531-high-st.html", "brand": "Acme Markets", "brand:wikidata": "Q341975", "nsi_id": "acme-dde59d"}, "geometry": {"type": "Point", "coordinates": [-74.79476363989306, 40.00727027755607]}},
{"type": "Feature", "id": "uDSvXr6Py4ikXOv4MeE5_PHfGEo=", "properties": {"ref": "510-valley-rd", "@spider": "acme_markets", "shop": "supermarket", "addr:full": "510 Valley Rd", "addr:city": "Montclair", "addr:state": "NJ", "addr:postcode": "07043", "addr:country": "US", "name": "Montclair", "phone": "(973) 746-0058", "website": "https://local.acmemarkets.com/nj/montclair/510-valley-rd.html", "brand": "Acme Markets", "brand:wikidata": "Q341975", "nsi_id": "acme-dde59d"}, "geometry": {"type": "Point", "coordinates": [-74.2077637, 40.8372059]}},
{"type": "Feature", "id": "YrjSPXSKVE6jwkTay8jK0FjO1S8=", "properties": {"ref": "300-ryders-ln", "@spider": "acme_markets", "shop": "supermarket", "addr:full": "300 Ryders Ln", "addr:city": "Milltown", "addr:state": "NJ", "addr:postcode": "08850", "addr:country": "US", "name": "Milltown", "phone": "(732) 254-7900", "website": "https://local.acmemarkets.com/nj/milltown/300-ryders-ln.html", "brand": "Acme Markets", "brand:wikidata": "Q341975", "nsi_id": "acme-dde59d"}, "geometry": {"type": "Point", "coordinates": [-74.42440958650819, 40.444981869404934]}},
{"type": "Feature", "id": "RBFleQOoGKle0RngiLQvqqMJzak=", "properties": {"ref": "136-lake-st", "@spider": "acme_markets", "shop": "supermarket", "addr:full": "136 Lake St", "addr:city": "Midland Park", "addr:state": "NJ", "addr:postcode": "07432", "addr:country": "US", "name": "Midland Park", "phone": "(201) 493-7050", "website": "https://local.acmemarkets.com/nj/midland-park/136-lake-st.html", "brand": "Acme Markets", "brand:wikidata": "Q341975", "nsi_id": "acme-dde59d"}, "geometry": {"type": "Point", "coordinates": [-74.1403892, 40.9829086]}},
{"type": "Feature", "id": "bXALd7ie4csyrCCbtW2fQeLis0I=", "properties": {"ref": "175-route-70", "@spider": "acme_markets", "shop": "supermarket", "addr:full": "175 Route 70", "addr:city": "Medford", "addr:state": "NJ", "addr:postcode": "08055", "addr:country": "US", "name": "Medford", "phone": "(609) 953-0006", "website": "https://local.acmemarkets.com/nj/medford/175-route-70.html", "brand": "Acme Markets", "brand:wikidata": "Q341975", "nsi_id": "acme-dde59d"}, "geometry": {"type": "Point", "coordinates": [-74.83499917486877, 39.903517016376526]}},
{"type": "Feature", "id": "WrNs_LBpJa16nbF_AbufIgcX42k=", "properties": {"ref": "4454-black-horse-pike", "@spider": "acme_markets", "shop": "supermarket", "addr:full": "4454 Black Horse Pike", "addr:city": "Mays Landing", "addr:state": "NJ", "addr:postcode": "08330", "addr:country": "US", "name": "Mays Landing", "phone": "(609) 625-4710", "website": "https://local.acmemarkets.com/nj/mays-landing/4454-black-horse-pike.html", "brand": "Acme Markets", "brand:wikidata": "Q341975", "nsi_id": "acme-dde59d"}, "geometry": {"type": "Point", "coordinates": [-74.64813800188494, 39.451322315128365]}},
{"type": "Feature", "id": "OE0WjSk9BpUYvwXgckofnqEuCuA=", "properties": {"ref": "41-w-main-st", "@spider": "acme_markets", "shop": "supermarket", "addr:full": "41 W Main St", "addr:city": "Maple Shade", "addr:state": "NJ", "addr:postcode": "08052", "addr:country": "US", "name": "Maple Shade", "phone": "(856) 779-9891", "website": "https://local.acmemarkets.com/nj/maple-shade/41-w-main-st.html", "brand": "Acme Markets", "brand:wikidata": "Q341975", "nsi_id": "acme-dde59d"}, "geometry": {"type": "Point", "coordinates": [-75.0037873539673, 39.95545767060727]}},
{"type": "Feature", "id": "WBjdsqFXMuvKd98Al4DnfKsECzU=", "properties": {"ref": "300-s-lenola-rd", "@spider": "acme_markets", "shop": "supermarket", "addr:full": "300 S Lenola Rd", "addr:city": "Maple Shade", "addr:state": "NJ", "addr:postcode": "08052", "addr:country": "US", "name": "Lenola Road", "phone": "(856) 778-2028", "website": "https://local.acmemarkets.com/nj/maple-shade/300-s-lenola-rd.html", "brand": "Acme Markets", "brand:wikidata": "Q341975", "nsi_id": "acme-dde59d"}, "geometry": {"type": "Point", "coordinates": [-74.9709009558197, 39.94731894681201]}},
{"type": "Feature", "id": "P2BbWGWafi44Lfd0zXEYce3wP40=", "properties": {"ref": "609-e-bay-ave", "@spider": "acme_markets", "shop": "supermarket", "addr:full": "609 E Bay Ave", "addr:city": "Manahawkin", "addr:state": "NJ", "addr:postcode": "08050", "addr:country": "US", "name": "Manakawkin", "phone": "(609) 597-4009", "website": "https://local.acmemarkets.com/nj/manahawkin/609-e-bay-ave.html", "brand": "Acme Markets", "brand:wikidata": "Q341975", "nsi_id": "acme-dde59d"}, "geometry": {"type": "Point", "coordinates": [-74.239648, 39.6847033]}},
{"type": "Feature", "id": "JgdV6iuJ-eK70GbfSD48Os8nyGs=", "properties": {"ref": "125-franklin-turnpike", "@spider": "acme_markets", "shop": "supermarket", "addr:full": "125 Franklin Turnpike", "addr:city": "Mahwah", "addr:state": "NJ", "addr:postcode": "07430", "addr:country": "US", "name": "Mahwah", "phone": "(201) 529-9775", "website": "https://local.acmemarkets.com/nj/mahwah/125-franklin-turnpike.html", "brand": "Acme Markets", "brand:wikidata": "Q341975", "nsi_id": "acme-dde59d"}, "geometry": {"type": "Point", "coordinates": [-74.1446481, 41.0990633]}},
{"type": "Feature", "id": "urixNKZd_tPCOCNRA9t20D-__h8=", "properties": {"ref": "9600-long-beach-blvd", "@spider": "acme_markets", "shop": "supermarket", "addr:full": "9600 Long Beach Blvd", "addr:city": "Long Beach Township", "addr:state": "NJ", "addr:postcode": "08008", "addr:country": "US", "name": "Long Beach Township", "phone": "(609) 492-0510", "website": "https://local.acmemarkets.com/nj/long-beach-township/9600-long-beach-blvd.html", "brand": "Acme Markets", "brand:wikidata": "Q341975", "nsi_id": "acme-dde59d"}, "geometry": {"type": "Point", "coordinates": [-74.2114814785736, 39.60384140505023]}},
{"type": "Feature", "id": "i0b3hzVmU5gAuzRyn8QRQ09_GFo=", "properties": {"ref": "507-prospect-ave", "@spider": "acme_markets", "shop": "supermarket", "addr:full": "507 Prospect Ave", "addr:city": "Little Silver", "addr:state": "NJ", "addr:postcode": "07739", "addr:country": "US", "name": "Little Silver", "phone": "(732) 345-9910", "website": "https://local.acmemarkets.com/nj/little-silver/507-prospect-ave.html", "brand": "Acme Markets", "brand:wikidata": "Q341975", "nsi_id": "acme-dde59d"}, "geometry": {"type": "Point", "coordinates": [-74.04042020484701, 40.33912895977547]}},
{"type": "Feature", "id": "UvzmFMAPQna5bH0BcGI0TKBfPvs=", "properties": {"ref": "616-newman-springs-rd", "@spider": "acme_markets", "shop": "supermarket", "addr:full": "616 Newman Springs Rd", "addr:city": "Lincroft", "addr:state": "NJ", "addr:postcode": "07738", "addr:country": "US", "name": "LIncroft", "phone": "(732) 936-0668", "website": "https://local.acmemarkets.com/nj/lincroft/616-newman-springs-rd.html", "brand": "Acme Markets", "brand:wikidata": "Q341975", "nsi_id": "acme-dde59d"}, "geometry": {"type": "Point", "coordinates": [-74.119161, 40.3320768]}},
{"type": "Feature", "id": "FRfoSddgMrPvVRuY-ZdbRkbhsAI=", "properties": {"ref": "801-kenilworth-blvd", "@spider": "acme_markets", "shop": "supermarket", "addr:full": "801 Kenilworth Blvd", "addr:city": "Kenilworth", "addr:state": "NJ", "addr:postcode": "07033", "addr:country": "US", "name": "Kenilworth", "phone": "(908) 259-0725", "website": "https://local.acmemarkets.com/nj/kenilworth/801-kenilworth-blvd.html", "brand": "Acme Markets", "brand:wikidata": "Q341975", "nsi_id": "acme-dde59d"}, "geometry": {"type": "Point", "coordinates": [-74.2815197, 40.6780423]}},
{"type": "Feature", "id": "J-SvagqtbKuf33h7vYtD2B7a5qU=", "properties": {"ref": "321-route-440", "@spider": "acme_markets", "shop": "supermarket", "addr:full": "321 Route 440", "addr:city": "Jersey City", "addr:state": "NJ", "addr:postcode": "07305", "addr:country": "US", "name": "Jersey City", "phone": "(201) 946-2525", "website": "https://local.acmemarkets.com/nj/jersey-city/321-route-440.html", "brand": "Acme Markets", "brand:wikidata": "Q341975", "nsi_id": "acme-dde59d"}, "geometry": {"type": "Point", "coordinates": [-74.1018231, 40.7105326]}},
{"type": "Feature", "id": "7xt4l1YmM7rL9Eh6zggsLQg0MSM=", "properties": {"ref": "125-18th-st", "@spider": "acme_markets", "shop": "supermarket", "addr:full": "125 18th St", "addr:city": "Jersey City", "addr:state": "NJ", "addr:postcode": "07310", "addr:country": "US", "name": "Jersey City", "phone": "(201) 418-0580", "website": "https://local.acmemarkets.com/nj/jersey-city/125-18th-st.html", "brand": "Acme Markets", "brand:wikidata": "Q341975", "nsi_id": "acme-dde59d"}, "geometry": {"type": "Point", "coordinates": [-74.0375526, 40.7329254]}},
{"type": "Feature", "id": "dOYhMRRlSbKwV8UxhNNUQjBmk-Y=", "properties": {"ref": "614-clinton-st", "@spider": "acme_markets", "shop": "supermarket", "addr:full": "614 Clinton St", "addr:city": "Hoboken", "addr:state": "NJ", "addr:postcode": "07030", "addr:country": "US", "name": "Hoboken", "phone": "(201) 795-5005", "website": "https://local.acmemarkets.com/nj/hoboken/614-clinton-st.html", "brand": "Acme Markets", "brand:wikidata": "Q341975", "nsi_id": "acme-dde59d"}, "geometry": {"type": "Point", "coordinates": [-74.03388661904907, 40.7453399971387]}},
{"type": "Feature", "id": "aoPQiev4r9uksjN3Zp5J4s9gO7w=", "properties": {"ref": "40-ellis-st", "@spider": "acme_markets", "shop": "supermarket", "addr:full": "40 Ellis St", "addr:city": "Haddonfield", "addr:state": "NJ", "addr:postcode": "08033", "addr:country": "US", "name": "Haddonfield", "phone": "(856) 429-0177", "website": "https://local.acmemarkets.com/nj/haddonfield/40-ellis-st.html", "brand": "Acme Markets", "brand:wikidata": "Q341975", "nsi_id": "acme-dde59d"}, "geometry": {"type": "Point", "coordinates": [-75.03081949071202, 39.89658163157163]}},
{"type": "Feature", "id": "C7pyV5SlTXVtqGFYGMuqvSoN23g=", "properties": {"ref": "3241-us-hwy-9", "@spider": "acme_markets", "shop": "supermarket", "addr:full": "3241 US Hwy 9", "addr:city": "Freehold", "addr:state": "NJ", "addr:postcode": "07728", "addr:country": "US", "name": "Freehold", "phone": "(732) 863-6501", "website": "https://local.acmemarkets.com/nj/freehold/3241-us-hwy-9.html", "brand": "Acme Markets", "brand:wikidata": "Q341975", "nsi_id": "acme-dde59d"}, "geometry": {"type": "Point", "coordinates": [-74.26367466508054, 40.21939443912065]}},
{"type": "Feature", "id": "YfZZd6WkzzH1xsTrikjYKpgpD0c=", "properties": {"ref": "2160-lemoine-ave", "@spider": "acme_markets", "shop": "supermarket", "addr:full": "2160 Lemoine Ave", "addr:city": "Fort Lee", "addr:state": "NJ", "addr:postcode": "07024", "addr:country": "US", "name": "Fort Lee", "phone": "(201) 944-1145", "website": "https://local.acmemarkets.com/nj/fort-lee/2160-lemoine-ave.html", "brand": "Acme Markets", "brand:wikidata": "Q341975", "nsi_id": "acme-dde59d"}, "geometry": {"type": "Point", "coordinates": [-73.96509738298846, 40.85618775693618]}},
{"type": "Feature", "id": "zhKLKkCbNFYfRr7dpAjQwKg_5J8=", "properties": {"ref": "576-river-rd", "@spider": "acme_markets", "shop": "supermarket", "addr:full": "576 River Rd", "addr:city": "Fair Haven", "addr:state": "NJ", "addr:postcode": "07704", "addr:country": "US", "name": "Fairhaven", "phone": "(732) 530-7481", "website": "https://local.acmemarkets.com/nj/fair-haven/576-river-rd.html", "brand": "Acme Markets", "brand:wikidata": "Q341975", "nsi_id": "acme-dde59d"}, "geometry": {"type": "Point", "coordinates": [-74.0423237, 40.3608189]}},
{"type": "Feature", "id": "BtgpmRuhMJC0TOaIyf_CgmttMAU=", "properties": {"ref": "481-river-rd", "@spider": "acme_markets", "shop": "supermarket", "addr:full": "481 River Rd", "addr:city": "Edgewater", "addr:state": "NJ", "addr:postcode": "07020", "addr:country": "US", "name": "Edgewater", "phone": "(201) 840-8006", "website": "https://local.acmemarkets.com/nj/edgewater/481-river-rd.html", "brand": "Acme Markets", "brand:wikidata": "Q341975", "nsi_id": "acme-dde59d"}, "geometry": {"type": "Point", "coordinates": [-73.9841128, 40.8115068]}},
{"type": "Feature", "id": "5MCiKqINnQKp46N_D81jMec3e4Q=", "properties": {"ref": "123-e-main-st", "@spider": "acme_markets", "shop": "supermarket", "addr:full": "123 E Main St", "addr:city": "Denville", "addr:state": "NJ", "addr:postcode": "07834", "addr:country": "US", "name": "Denville", "phone": "(973) 586-2215", "website": "https://local.acmemarkets.com/nj/denville/123-e-main-st.html", "brand": "Acme Markets", "brand:wikidata": "Q341975", "nsi_id": "acme-dde59d"}, "geometry": {"type": "Point", "coordinates": [-74.48031069206543, 40.88890306763952]}},
{"type": "Feature", "id": "__pgRwgvMmrYiGCIaEU1YVaUrE4=", "properties": {"ref": "20-s-delsea-dr", "@spider": "acme_markets", "shop": "supermarket", "addr:full": "20 S Delsea Dr", "addr:city": "Clayton", "addr:state": "NJ", "addr:postcode": "08312", "addr:country": "US", "name": "Clayton", "phone": "(856) 881-9884", "website": "https://local.acmemarkets.com/nj/clayton/20-s-delsea-dr.html", "brand": "Acme Markets", "brand:wikidata": "Q341975", "nsi_id": "acme-dde59d"}, "geometry": {"type": "Point", "coordinates": [-75.09196461904907, 39.654303855906015]}},
{"type": "Feature", "id": "37XJHH6edBWvPExyGO7JTuiLrm8=", "properties": {"ref": "1060-raritan-rd", "@spider": "acme_markets", "shop": "supermarket", "addr:full": "1060 Raritan Rd", "addr:city": "Clark", "addr:state": "NJ", "addr:postcode": "07066", "addr:country": "US", "name": "Clark", "phone": "(732) 340-0056", "website": "https://local.acmemarkets.com/nj/clark/1060-raritan-rd.html", "brand": "Acme Markets", "brand:wikidata": "Q341975", "nsi_id": "acme-dde59d"}, "geometry": {"type": "Point", "coordinates": [-74.3160204, 40.6283967]}},
{"type": "Feature", "id": "NQ_OGJ3a9rL_oRIY8UhpQPZyUV0=", "properties": {"ref": "315-ocean-st", "@spider": "acme_markets", "shop": "supermarket", "addr:full": "315 Ocean St", "addr:city": "Cape May", "addr:state": "NJ", "addr:postcode": "08204", "addr:country": "US", "name": "Cape May", "phone": "(609) 884-7217", "website": "https://local.acmemarkets.com/nj/cape-may/315-ocean-st.html", "brand": "Acme Markets", "brand:wikidata": "Q341975", "nsi_id": "acme-dde59d"}, "geometry": {"type": "Point", "coordinates": [-74.9214, 38.93499522273714]}},
{"type": "Feature", "id": "0zogp1RZCaQUoVWrko1h5E2P1bM=", "properties": {"ref": "15-avalon-blvd", "@spider": "acme_markets", "shop": "supermarket", "addr:full": "15 Avalon Blvd", "addr:city": "Cape May Court House", "addr:state": "NJ", "addr:postcode": "08210", "addr:country": "US", "name": "Avalon", "phone": "(609) 463-1995", "website": "https://local.acmemarkets.com/nj/cape-may-court-house/15-avalon-blvd.html", "brand": "Acme Markets", "brand:wikidata": "Q341975", "nsi_id": "acme-dde59d"}, "geometry": {"type": "Point", "coordinates": [-74.77842961719665, 39.12738024680825]}},
{"type": "Feature", "id": "i_KWkU3FRSejV8bv3w7gcDyWnRM=", "properties": {"ref": "11-court-house-south-dennis-rd", "@spider": "acme_markets", "shop": "supermarket", "addr:full": "11 Court House South Dennis Rd", "addr:city": "Cape May Court House", "addr:state": "NJ", "addr:postcode": "08210", "addr:country": "US", "name": "Cape May Court House", "phone": "(609) 463-9106", "website": "https://local.acmemarkets.com/nj/cape-may-court-house/11-court-house-south-dennis-rd.html", "brand": "Acme Markets", "brand:wikidata": "Q341975", "nsi_id": "acme-dde59d"}, "geometry": {"type": "Point", "coordinates": [-74.8219937, 39.0892394]}},
{"type": "Feature", "id": "wZdA1dJd7Pbo-qmCpeXDjTVX49U=", "properties": {"ref": "18-broadway-st", "@spider": "acme_markets", "shop": "supermarket", "addr:full": "18 Broadway St", "addr:city": "Browns Mills", "addr:state": "NJ", "addr:postcode": "08015", "addr:country": "US", "name": "Browns Mills", "phone": "(609) 735-1605", "website": "https://local.acmemarkets.com/nj/browns-mills/18-broadway-st.html", "brand": "Acme Markets", "brand:wikidata": "Q341975", "nsi_id": "acme-dde59d"}, "geometry": {"type": "Point", "coordinates": [-74.58163560144246, 39.97575212150564]}},
{"type": "Feature", "id": "b8HpcPXya5Er4TJQ7gnbvCq4Lks=", "properties": {"ref": "2098-naamans-rd", "@spider": "acme_markets", "shop": "supermarket", "addr:full": "2098 Naamans Rd", "addr:city": "Wilmington", "addr:state": "DE", "addr:postcode": "19810", "addr:country": "US", "name": "Naamans Road", "phone": "(302) 475-4618", "website": "https://local.acmemarkets.com/de/wilmington/2098-naamans-rd.html", "brand": "Acme Markets", "brand:wikidata": "Q341975", "nsi_id": "acme-dde59d"}, "geometry": {"type": "Point", "coordinates": [-75.5001989460327, 39.82370362105936]}},
{"type": "Feature", "id": "TrnHcRpF_fd36-jPAyimNcsWxZ0=", "properties": {"ref": "1901-concord-pike", "@spider": "acme_markets", "shop": "supermarket", "addr:full": "1901 Concord Pike", "addr:city": "Wilmington", "addr:state": "DE", "addr:postcode": "19803", "addr:country": "US", "name": "Fairfax", "phone": "(302) 654-1803", "website": "https://local.acmemarkets.com/de/wilmington/1901-concord-pike.html", "brand": "Acme Markets", "brand:wikidata": "Q341975", "nsi_id": "acme-dde59d"}, "geometry": {"type": "Point", "coordinates": [-75.5454589, 39.7876056]}},
{"type": "Feature", "id": "fPpvReqKHoMmGQwkNh5gbxBv45M=", "properties": {"ref": "1812-marsh-rd", "@spider": "acme_markets", "shop": "supermarket", "addr:full": "1812 Marsh Rd", "addr:city": "Wilmington", "addr:state": "DE", "addr:postcode": "19810", "addr:country": "US", "name": "Marsh Road", "phone": "(302) 529-8520", "website": "https://local.acmemarkets.com/de/wilmington/1812-marsh-rd.html", "brand": "Acme Markets", "brand:wikidata": "Q341975", "nsi_id": "acme-dde59d"}, "geometry": {"type": "Point", "coordinates": [-75.505223, 39.8043131]}},
{"type": "Feature", "id": "KH6epWlr_3GsbTnXSeu3ndU-8e8=", "properties": {"ref": "1401-n-dupont-st", "@spider": "acme_markets", "shop": "supermarket", "addr:full": "1401 N Dupont St", "addr:city": "Wilmington", "addr:state": "DE", "addr:postcode": "19806", "addr:country": "US", "name": "Trolley Square", "phone": "(302) 658-0575", "website": "https://local.acmemarkets.com/de/wilmington/1401-n-dupont-st.html", "brand": "Acme Markets", "brand:wikidata": "Q341975", "nsi_id": "acme-dde59d"}, "geometry": {"type": "Point", "coordinates": [-75.5638090650818, 39.7571510124878]}},
{"type": "Feature", "id": "eH_1k6Vps2szoXJ6O_GR-kz-R-U=", "properties": {"ref": "1308-centerville-rd", "@spider": "acme_markets", "shop": "supermarket", "addr:full": "1308 Centerville Rd", "addr:city": "Wilmington", "addr:state": "DE", "addr:postcode": "19808", "addr:country": "US", "name": "Prices Corner", "phone": "(302) 994-3660", "website": "https://local.acmemarkets.com/de/wilmington/1308-centerville-rd.html", "brand": "Acme Markets", "brand:wikidata": "Q341975", "nsi_id": "acme-dde59d"}, "geometry": {"type": "Point", "coordinates": [-75.62344284371648, 39.734085309521774]}},
{"type": "Feature", "id": "297CTwCWwjjcbCwj7YhADcmcqsA=", "properties": {"ref": "236-e-glenwood-ave", "@spider": "acme_markets", "shop": "supermarket", "addr:full": "236 E Glenwood Ave", "addr:city": "Smyrna", "addr:state": "DE", "addr:postcode": "19977", "addr:country": "US", "name": "Smyrna", "phone": "(302) 653-9600", "website": "https://local.acmemarkets.com/de/smyrna/236-e-glenwood-ave.html", "brand": "Acme Markets", "brand:wikidata": "Q341975", "nsi_id": "acme-dde59d"}, "geometry": {"type": "Point", "coordinates": [-75.6105781, 39.3061143]}},
{"type": "Feature", "id": "jbip1Z6-xTdIbmH8wGCI1eC2BtY=", "properties": {"ref": "18578-coastal-hwy-unit-13", "@spider": "acme_markets", "shop": "supermarket", "addr:full": "18578 Coastal Hwy Unit 13", "addr:city": "Rehoboth Beach", "addr:state": "DE", "addr:postcode": "19971", "addr:country": "US", "name": "Rehoboth Beach", "phone": "(302) 644-1255", "website": "https://local.acmemarkets.com/de/rehoboth-beach/18578-coastal-hwy-unit-13.html", "brand": "Acme Markets", "brand:wikidata": "Q341975", "nsi_id": "acme-dde59d"}, "geometry": {"type": "Point", "coordinates": [-75.1435994, 38.7366355]}},
{"type": "Feature", "id": "PMJJixo3DCZ7SlWbEq5kDLNqmMw=", "properties": {"ref": "100-suburban-dr", "@spider": "acme_markets", "shop": "supermarket", "addr:full": "100 Suburban Dr", "addr:city": "Newark", "addr:state": "DE", "addr:postcode": "19711", "addr:country": "US", "name": "Newark", "phone": "(302) 453-2330", "website": "https://local.acmemarkets.com/de/newark/100-suburban-dr.html", "brand": "Acme Markets", "brand:wikidata": "Q341975", "nsi_id": "acme-dde59d"}, "geometry": {"type": "Point", "coordinates": [-75.77571415852617, 39.66800680010823]}},
{"type": "Feature", "id": "kRf1L_mvGCyqnPIoO0NYadOC0ms=", "properties": {"ref": "100-college-square", "@spider": "acme_markets", "shop": "supermarket", "addr:full": "100 College Square", "addr:city": "Newark", "addr:state": "DE", "addr:postcode": "19711", "addr:country": "US", "name": "College Square", "phone": "(302) 286-0425", "website": "https://local.acmemarkets.com/de/newark/100-college-square.html", "brand": "Acme Markets", "brand:wikidata": "Q341975", "nsi_id": "acme-dde59d"}, "geometry": {"type": "Point", "coordinates": [-75.7353661, 39.6825636]}},
{"type": "Feature", "id": "n0ma4fq9vS33nAoEaZHEfE8GFjs=", "properties": {"ref": "1-university-plaza", "@spider": "acme_markets", "shop": "supermarket", "addr:full": "1 University Plaza", "addr:city": "Newark", "addr:state": "DE", "addr:postcode": "19702", "addr:country": "US", "name": "Ogletown", "phone": "(302) 738-9509", "website": "https://local.acmemarkets.com/de/newark/1-university-plaza.html", "brand": "Acme Markets", "brand:wikidata": "Q341975", "nsi_id": "acme-dde59d"}, "geometry": {"type": "Point", "coordinates": [-75.67192912101746, 39.66692063486427]}},
{"type": "Feature", "id": "AeQTTNSs8TjLQDKkl2PhCWSC3do=", "properties": {"ref": "460-e-main-st", "@spider": "acme_markets", "shop": "supermarket", "addr:full": "460 E Main St", "addr:city": "Middletown", "addr:state": "DE", "addr:postcode": "19709", "addr:country": "US", "name": "Middletown", "phone": "(302) 449-1870", "website": "https://local.acmemarkets.com/de/middletown/460-e-main-st.html", "brand": "Acme Markets", "brand:wikidata": "Q341975", "nsi_id": "acme-dde59d"}, "geometry": {"type": "Point", "coordinates": [-75.6976779, 39.44841]}},
{"type": "Feature", "id": "axXFfHppz6rsLc4W8YiuogQjF5Q=", "properties": {"ref": "128-lantana-dr", "@spider": "acme_markets", "shop": "supermarket", "addr:full": "128 Lantana Dr", "addr:city": "Hockessin", "addr:state": "DE", "addr:postcode": "19707", "addr:country": "US", "name": "Hockessin", "phone": "(302) 234-9000", "website": "https://local.acmemarkets.com/de/hockessin/128-lantana-dr.html", "brand": "Acme Markets", "brand:wikidata": "Q341975", "nsi_id": "acme-dde59d"}, "geometry": {"type": "Point", "coordinates": [-75.70851599259035, 39.77371294066995]}},
{"type": "Feature", "id": "HvesA-7S2fcPEzYX8Fdjmpu_k3c=", "properties": {"ref": "146-fox-hunt-dr", "@spider": "acme_markets", "shop": "supermarket", "addr:full": "146 Fox Hunt Dr", "addr:city": "Bear", "addr:state": "DE", "addr:postcode": "19701", "addr:country": "US", "name": "Bear", "phone": "(302) 836-9380", "website": "https://local.acmemarkets.com/de/bear/146-fox-hunt-dr.html", "brand": "Acme Markets", "brand:wikidata": "Q341975", "nsi_id": "acme-dde59d"}, "geometry": {"type": "Point", "coordinates": [-75.71213528888549, 39.60662935233514]}},
{"type": "Feature", "id": "hmRrYMdmMrhkEPTVEmtoW67cw-o=", "properties": {"ref": "1201-high-ridge-rd", "@spider": "acme_markets", "shop": "supermarket", "addr:full": "1201 High Ridge Rd", "addr:city": "Stamford", "addr:state": "CT", "addr:postcode": "06905", "addr:country": "US", "name": "Stamford", "phone": "(203) 321-0429", "website": "https://local.acmemarkets.com/ct/stamford/1201-high-ridge-rd.html", "brand": "Acme Markets", "brand:wikidata": "Q341975", "nsi_id": "acme-dde59d"}, "geometry": {"type": "Point", "coordinates": [-73.54630076441805, 41.10987795548769]}},
{"type": "Feature", "id": "pAXHCXTh4WUhIz3tMTL2yOjQLgU=", "properties": {"ref": "1261-e-putnam-ave", "@spider": "acme_markets", "shop": "supermarket", "addr:full": "1261 E Putnam Ave", "addr:city": "Riverside", "addr:state": "CT", "addr:postcode": "06878", "addr:country": "US", "name": "Riverside", "phone": "(203) 637-0188", "website": "https://local.acmemarkets.com/ct/riverside/1261-e-putnam-ave.html", "brand": "Acme Markets", "brand:wikidata": "Q341975", "nsi_id": "acme-dde59d"}, "geometry": {"type": "Point", "coordinates": [-73.57722312211985, 41.04273536530364]}},
{"type": "Feature", "id": "BjyKUiUaX3GRCaOcaAKAM4EwRdk=", "properties": {"ref": "288-elm-st", "@spider": "acme_markets", "shop": "supermarket", "addr:full": "288 Elm St", "addr:city": "New Canaan", "addr:state": "CT", "addr:postcode": "06840", "addr:country": "US", "name": "New Canaan", "phone": "(203) 966-0017", "website": "https://local.acmemarkets.com/ct/new-canaan/288-elm-st.html", "brand": "Acme Markets", "brand:wikidata": "Q341975", "nsi_id": "acme-dde59d"}, "geometry": {"type": "Point", "coordinates": [-73.500272, 41.1447593]}}]}