{"type":"FeatureCollection","features":[{"type": "Feature", "id": "8ayayqDMrhJlmEgv9QsfqjNsOkQ=", "properties": {"ref": "722", "@spider": "adeg", "shop": "supermarket", "addr:street_address": "Markt 4", "addr:city": "St. Wolfgang", "addr:postcode": "5360", "addr:country": "AT", "name": "ADEG KIENBERGER", "phone": "+436642042760", "website": "https://www.adeg.at/services/maerkte-oeffnungszeiten/adeg-kienberger-2", "opening_hours": "Mo-Fr 07:00-18:00; Sa 07:00-17:00", "brand": "ADEG \u00d6sterreich", "brand:wikidata": "Q290211", "nsi_id": "adeg-1eef1d"}, "geometry": {"type": "Point", "coordinates": [13.44725, 47.73891]}},
{"type": "Feature", "id": "2tjsnoZnoIPXa2EFlAPzQbi_9uA=", "properties": {"ref": "872", "@spider": "adeg", "shop": "supermarket", "addr:street_address": "Bahnstrasse 1", "addr:city": "Strobl", "addr:postcode": "5350", "addr:country": "AT", "name": "ADEG KIENBERGER", "phone": "+43613720010", "website": "https://www.adeg.at/services/maerkte-oeffnungszeiten/adeg-kienberger", "opening_hours": "Mo-Fr 07:30-18:00; Sa 07:30-17:00", "brand": "ADEG \u00d6sterreich", "brand:wikidata": "Q290211", "nsi_id": "adeg-1eef1d"}, "geometry": {"type": "Point", "coordinates": [13.48131, 47.71694]}},
{"type": "Feature", "id": "BXzlXenfFjUjLqNbeBh3GJTHczM=", "properties": {"ref": "873", "@spider": "adeg", "shop": "supermarket", "addr:street_address": "Russbach 62", "addr:city": "St. Wolfgang", "addr:postcode": "5360", "addr:country": "AT", "name": "ADEG KIENBERGER", "phone": "+4361375118", "website": "https://www.adeg.at/services/maerkte-oeffnungszeiten/adeg-kienberger-1", "opening_hours": "Mo-Tu 07:30-12:00,15:00-18:00; We 07:30-12:00; Th-Fr 07:30-12:00,15:00-18:00; Sa 07:30-12:00", "brand": "ADEG \u00d6sterreich", "brand:wikidata": "Q290211", "nsi_id": "adeg-1eef1d"}, "geometry": {"type": "Point", "coordinates": [13.517261, 47.732848]}},
{"type": "Feature", "id": "D108f2V7RwnBJ7MFb5kTSkEwKlw=", "properties": {"ref": "751", "@spider": "adeg", "shop": "supermarket", "addr:street_address": "Enzersbergstrasse 1", "addr:city": "Hof B. Salzburg", "addr:postcode": "5322", "addr:country": "AT", "name": "ADEG BUCHM\u00dcLLER", "phone": "+4362292767", "website": "https://www.adeg.at/services/maerkte-oeffnungszeiten/adeg-buchmueller-1", "opening_hours": "Mo-Fr 07:30-19:30; Sa 07:30-18:00", "brand": "ADEG \u00d6sterreich", "brand:wikidata": "Q290211", "nsi_id": "adeg-1eef1d"}, "geometry": {"type": "Point", "coordinates": [13.20137, 47.82015]}},
{"type": "Feature", "id": "8QBRHmcgnd07jtQlXzrBKgQoOk4=", "properties": {"ref": "631", "@spider": "adeg", "shop": "supermarket", "addr:street_address": "Salzburgerstrasse 107", "addr:city": "Bad Ischl", "addr:postcode": "4820", "addr:country": "AT", "name": "ADEG DANBAUER", "phone": "+43613225115", "website": "https://www.adeg.at/services/maerkte-oeffnungszeiten/wolfgang-danbauer-eu", "opening_hours": "Mo-Fr 07:00-18:30; Sa 07:00-17:00", "brand": "ADEG \u00d6sterreich", "brand:wikidata": "Q290211", "nsi_id": "adeg-1eef1d"}, "geometry": {"type": "Point", "coordinates": [13.58911, 47.717446]}},
{"type": "Feature", "id": "2PrtS-u-ofQgQyDUreWR_p8lPlA=", "properties": {"ref": "615", "@spider": "adeg", "shop": "supermarket", "addr:street_address": "Vordertalstrasse 3", "addr:city": "Gosau", "addr:postcode": "4824", "addr:country": "AT", "name": "ADEG DANBAUER", "phone": "+43613620747", "website": "https://www.adeg.at/services/maerkte-oeffnungszeiten/adeg-danbauer", "opening_hours": "Mo-Fr 07:00-18:30; Sa 07:00-18:00; Su 08:00-12:00", "brand": "ADEG \u00d6sterreich", "brand:wikidata": "Q290211", "nsi_id": "adeg-1eef1d"}, "geometry": {"type": "Point", "coordinates": [13.534023, 47.5846407]}},
{"type": "Feature", "id": "1dkB7FoXl3g94joV31eFa3t73D8=", "properties": {"ref": "678", "@spider": "adeg", "shop": "supermarket", "addr:street_address": "Annaberg 237", "addr:city": "Annaberg", "addr:postcode": "5524", "addr:country": "AT", "name": "ADEG QUEHENBERGER", "phone": "+4364638167", "website": "https://www.adeg.at/services/maerkte-oeffnungszeiten/adeg-quehenberger", "opening_hours": "Mo-Fr 07:30-18:30; Sa 07:30-17:00", "brand": "ADEG \u00d6sterreich", "brand:wikidata": "Q290211", "nsi_id": "adeg-1eef1d"}, "geometry": {"type": "Point", "coordinates": [13.431213, 47.518881]}},
{"type": "Feature", "id": "XlYx1M41zywV5Ru7VUbX0DVqFlw=", "properties": {"ref": "749", "@spider": "adeg", "shop": "supermarket", "addr:street_address": "Steinbach 8", "addr:city": "Steinbach/Attersee", "addr:postcode": "4853", "addr:country": "AT", "name": "ADEG BADER", "phone": "+437663324", "website": "https://www.adeg.at/services/maerkte-oeffnungszeiten/adeg-bader", "opening_hours": "Mo-Tu 08:00-12:30,15:00-18:00; We 08:00-12:00; Th-Fr 08:00-12:30,15:00-18:00; Sa 08:00-12:30", "brand": "ADEG \u00d6sterreich", "brand:wikidata": "Q290211", "nsi_id": "adeg-1eef1d"}, "geometry": {"type": "Point", "coordinates": [13.54921, 47.830863]}},
{"type": "Feature", "id": "_mUqUoXmfV7G4his1V0kZZWX_AM=", "properties": {"ref": "712", "@spider": "adeg", "shop": "supermarket", "addr:street_address": "Salzburgerstrasse 11", "addr:city": "Neumarkt", "addr:postcode": "5202", "addr:country": "AT", "name": "ADEG DANBAUER", "phone": "+43621620426", "website": "https://www.adeg.at/services/maerkte-oeffnungszeiten/adeg-danbauer-2", "opening_hours": "Mo-Fr 07:30-18:30; Sa 07:30-18:00", "brand": "ADEG \u00d6sterreich", "brand:wikidata": "Q290211", "nsi_id": "adeg-1eef1d"}, "geometry": {"type": "Point", "coordinates": [13.22346, 47.94048]}},
{"type": "Feature", "id": "459suQ3M9sS_xa811Ia5bGQJXMc=", "properties": {"ref": "705", "@spider": "adeg", "shop": "supermarket", "addr:street_address": "Salzburgerstrasse 8", "addr:city": "Anthering", "addr:postcode": "5102", "addr:country": "AT", "name": "ADEG PRACHTH\u00c4USER", "phone": "+43622322060", "website": "https://www.adeg.at/services/maerkte-oeffnungszeiten/adeg-prachthaeuser", "opening_hours": "Mo-Fr 07:00-18:30; Sa 07:00-17:00", "brand": "ADEG \u00d6sterreich", "brand:wikidata": "Q290211", "nsi_id": "adeg-1eef1d"}, "geometry": {"type": "Point", "coordinates": [13.013341, 47.878423]}},
{"type": "Feature", "id": "Uv4babwiNwzKf6EkkkJNEwLllAY=", "properties": {"ref": "750", "@spider": "adeg", "shop": "supermarket", "addr:street_address": "Salzburger Strasse 290", "addr:city": "Grossgmain", "addr:postcode": "5084", "addr:country": "AT", "name": "ADEG BUCHM\u00dcLLER", "phone": "+4362477214", "website": "https://www.adeg.at/services/maerkte-oeffnungszeiten/adeg-buchmueller", "opening_hours": "Mo-Fr 07:30-19:00; Sa 07:30-18:00", "brand": "ADEG \u00d6sterreich", "brand:wikidata": "Q290211", "nsi_id": "adeg-1eef1d"}, "geometry": {"type": "Point", "coordinates": [12.9138386, 47.7268978]}},
{"type": "Feature", "id": "Xpn6AuuwKBkW-RAAmzdwSjtz_gI=", "properties": {"ref": "676", "@spider": "adeg", "shop": "supermarket", "addr:street_address": "Alte Saline 9", "addr:city": "Ebensee", "addr:postcode": "4802", "addr:country": "AT", "name": "ADEG MARKT DAVID NANASI E.U.", "phone": "+43613320597", "website": "https://www.adeg.at/services/maerkte-oeffnungszeiten/adeg-nanasi", "opening_hours": "Mo-Fr 07:00-18:30; Sa 07:00-17:00", "brand": "ADEG \u00d6sterreich", "brand:wikidata": "Q290211", "nsi_id": "adeg-1eef1d"}, "geometry": {"type": "Point", "coordinates": [13.775276, 47.810282]}},
{"type": "Feature", "id": "9BxJEJ-b1zwYyKl1NZlkPNju0wI=", "properties": {"ref": "908", "@spider": "adeg", "shop": "supermarket", "addr:street_address": "Liechtensteinklammstrasse 4", "addr:city": "St. Johann", "addr:postcode": "5600", "addr:country": "AT", "name": "ADEG PACHER", "phone": "+436128445", "website": "https://www.adeg.at/services/maerkte-oeffnungszeiten/adeg-pacher-1", "brand": "ADEG \u00d6sterreich", "brand:wikidata": "Q290211", "nsi_id": "adeg-1eef1d"}, "geometry": {"type": "Point", "coordinates": [13.19991, 47.34458]}},
{"type": "Feature", "id": "C-6KwMsmSFND_xfQv7yxto6HZlw=", "properties": {"ref": "884", "@spider": "adeg", "shop": "supermarket", "addr:street_address": "Dorf 27", "addr:city": "Dienten Am Hochk\u00f6nig", "addr:postcode": "5652", "addr:country": "AT", "name": "ADEG OBERLECHNER", "phone": "+436649216528", "website": "https://www.adeg.at/services/maerkte-oeffnungszeiten/adeg-oberlechner", "opening_hours": "Mo-Sa 08:00-13:00,15:00-18:00", "brand": "ADEG \u00d6sterreich", "brand:wikidata": "Q290211", "nsi_id": "adeg-1eef1d"}, "geometry": {"type": "Point", "coordinates": [13.00142, 47.38118]}},
{"type": "Feature", "id": "l73pjai8VRl0jKtDXJf2_HJIxFM=", "properties": {"ref": "879", "@spider": "adeg", "shop": "supermarket", "addr:street_address": "Unken 72", "addr:city": "Unken", "addr:postcode": "5091", "addr:country": "AT", "name": "KULCSAR MICHAEL E.U.", "phone": "+4365897320", "website": "https://www.adeg.at/services/maerkte-oeffnungszeiten/kulcsar-michael-eu", "opening_hours": "Mo-Fr 07:30-18:30; Sa 07:30-17:00", "brand": "ADEG \u00d6sterreich", "brand:wikidata": "Q290211", "nsi_id": "adeg-1eef1d"}, "geometry": {"type": "Point", "coordinates": [12.730341, 47.648786]}},
{"type": "Feature", "id": "rQSQKJC6_BSlpGtUqh5owhaUIFU=", "properties": {"ref": "748", "@spider": "adeg", "shop": "supermarket", "addr:street_address": "Dorf 1", "addr:city": "Gruenau", "addr:postcode": "4645", "addr:country": "AT", "name": "ADEG H\u00dcTHMAYR", "phone": "+4376168214", "website": "https://www.adeg.at/services/maerkte-oeffnungszeiten/adeg-huethmayr", "opening_hours": "Mo-Th 07:00-12:00,15:00-18:00; Fr 07:00-12:00,14:30-18:00; Sa 07:00-12:00", "brand": "ADEG \u00d6sterreich", "brand:wikidata": "Q290211", "nsi_id": "adeg-1eef1d"}, "geometry": {"type": "Point", "coordinates": [13.9566064, 47.8559794]}},
{"type": "Feature", "id": "cQlRVO74MNw6y1Zv37PXadB47Lk=", "properties": {"ref": "375", "@spider": "adeg", "shop": "supermarket", "addr:street_address": "Hauptstrasse 27A", "addr:city": "Scharnstein", "addr:postcode": "4644", "addr:country": "AT", "name": "ADEG STEINMAURER", "phone": "+43761520452", "website": "https://www.adeg.at/services/maerkte-oeffnungszeiten/adeg-steinmaurer-1", "opening_hours": "Mo-Th 07:30-18:30; Fr 07:30-19:00; Sa 07:30-17:00", "brand": "ADEG \u00d6sterreich", "brand:wikidata": "Q290211", "nsi_id": "adeg-1eef1d"}, "geometry": {"type": "Point", "coordinates": [13.9571796, 47.9020309]}},
{"type": "Feature", "id": "imHbW9ss26pL_8fuAU1lsjdUQec=", "properties": {"ref": "384", "@spider": "adeg", "shop": "supermarket", "addr:street_address": "Marktplatz 8", "addr:city": "Grossarl", "addr:postcode": "5611", "addr:country": "AT", "name": "ADEG PICHLER", "phone": "+436414228", "website": "https://www.adeg.at/services/maerkte-oeffnungszeiten/adeg-pichler", "opening_hours": "Mo-Fr 07:30-18:30; Sa 07:30-17:00", "brand": "ADEG \u00d6sterreich", "brand:wikidata": "Q290211", "nsi_id": "adeg-1eef1d"}, "geometry": {"type": "Point", "coordinates": [13.201514, 47.237463]}},
{"type": "Feature", "id": "XbcJVPTQos3VHErhhklZ98gx4U8=", "properties": {"ref": "379", "@spider": "adeg", "shop": "supermarket", "addr:street_address": "Parkstrasse 1", "addr:city": "Ostermiething", "addr:postcode": "5121", "addr:country": "AT", "name": "ADEG EBNER", "phone": "+4362786253", "website": "https://www.adeg.at/services/maerkte-oeffnungszeiten/adeg-ebner", "opening_hours": "Mo-Fr 07:00-19:00; Sa 07:00-17:00", "brand": "ADEG \u00d6sterreich", "brand:wikidata": "Q290211", "nsi_id": "adeg-1eef1d"}, "geometry": {"type": "Point", "coordinates": [12.83276, 48.04234]}},
{"type": "Feature", "id": "ExH9IvFzwWoOoJf2AWrGGUVlqDE=", "properties": {"ref": "373", "@spider": "adeg", "shop": "supermarket", "addr:street_address": "Steinbach 11", "addr:city": "Steinbach/Ziehb.", "addr:postcode": "4562", "addr:country": "AT", "name": "ADEG STEINMAURER", "phone": "+4375827332", "website": "https://www.adeg.at/services/maerkte-oeffnungszeiten/adeg-steinmaurer", "opening_hours": "Mo-Fr 07:00-12:00,14:30-18:00; Sa 07:00-17:00", "brand": "ADEG \u00d6sterreich", "brand:wikidata": "Q290211", "nsi_id": "adeg-1eef1d"}, "geometry": {"type": "Point", "coordinates": [14.0320772, 47.8913565]}},
{"type": "Feature", "id": "m-2Q8Qb9FIvkU0SJFswFUYJKMr0=", "properties": {"ref": "747", "@spider": "adeg", "shop": "supermarket", "addr:street_address": "Marktstrasse 7", "addr:city": "Pettenbach", "addr:postcode": "4643", "addr:country": "AT", "name": "ADEG PENNERSTORFER", "phone": "+4375867254", "website": "https://www.adeg.at/services/maerkte-oeffnungszeiten/adeg-pennerstorfer", "opening_hours": "Mo-Tu 07:00-12:00,14:30-18:00; We 07:00-12:00; Th-Fr 07:00-12:00,14:30-18:00; Sa 07:30-12:00", "brand": "ADEG \u00d6sterreich", "brand:wikidata": "Q290211", "nsi_id": "adeg-1eef1d"}, "geometry": {"type": "Point", "coordinates": [14.01698, 47.95992]}},
{"type": "Feature", "id": "r1-yezAB4cGOBY2vEOApr5RKo1M=", "properties": {"ref": "894", "@spider": "adeg", "shop": "supermarket", "addr:street_address": "Lambacherstrasse 10", "addr:city": "Haag Am Hausruck", "addr:postcode": "4680", "addr:country": "AT", "name": "ADEG ANITA MITTER", "phone": "+4377322323", "website": "https://www.adeg.at/services/maerkte-oeffnungszeiten/adeg-anita-mitter", "opening_hours": "Mo-Fr 07:30-12:30,14:30-18:00; Sa 07:30-12:00", "brand": "ADEG \u00d6sterreich", "brand:wikidata": "Q290211", "nsi_id": "adeg-1eef1d"}, "geometry": {"type": "Point", "coordinates": [13.64187, 48.18411]}},
{"type": "Feature", "id": "DXUrNDeha8Jl4PA3RO9nZ9467DM=", "properties": {"ref": "880", "@spider": "adeg", "shop": "supermarket", "addr:street_address": "H\u00fcttschlag 126", "addr:city": "H\u00fcttschlag", "addr:postcode": "5612", "addr:country": "AT", "name": "ADEG VIEHHAUSER", "phone": "+436417347", "website": "https://www.adeg.at/services/maerkte-oeffnungszeiten/adeg-viehhauser", "opening_hours": "Mo-Tu 07:00-12:00,15:00-18:00; We 07:00-12:00; Th-Fr 07:00-12:00,15:00-18:00; Sa 07:00-12:00", "brand": "ADEG \u00d6sterreich", "brand:wikidata": "Q290211", "nsi_id": "adeg-1eef1d"}, "geometry": {"type": "Point", "coordinates": [13.23271, 47.17546]}},
{"type": "Feature", "id": "Ek3LayIMPPl_hdE1QoJ8NkuNkSc=", "properties": {"ref": "875", "@spider": "adeg", "shop": "supermarket", "addr:street_address": "Hinterstoder Nr.5", "addr:city": "Hinterstoder", "addr:postcode": "4573", "addr:country": "AT", "name": "ADEG PACHLEITNER", "phone": "+43756420168", "website": "https://www.adeg.at/services/maerkte-oeffnungszeiten/adeg-pachleitner", "opening_hours": "Mo-Fr 07:30-12:30,14:30-18:00; Sa 07:30-17:00", "brand": "ADEG \u00d6sterreich", "brand:wikidata": "Q290211", "nsi_id": "adeg-1eef1d"}, "geometry": {"type": "Point", "coordinates": [14.15815, 47.70035]}},
{"type": "Feature", "id": "nWieb_ccsHjGLc0tNv_71DtR-6k=", "properties": {"ref": "372", "@spider": "adeg", "shop": "supermarket", "addr:street_address": "Stiftsstr.7", "addr:city": "Schlierbach", "addr:postcode": "4553", "addr:country": "AT", "name": "ADEG H\u00d6FER", "phone": "+43758283049", "website": "https://www.adeg.at/services/maerkte-oeffnungszeiten/adeg-hoefer", "opening_hours": "Mo-Fr 07:30-18:00; Sa 07:30-12:00", "brand": "ADEG \u00d6sterreich", "brand:wikidata": "Q290211", "nsi_id": "adeg-1eef1d"}, "geometry": {"type": "Point", "coordinates": [14.12689, 47.93838]}},
{"type": "Feature", "id": "BJ4PP-7D5csq1n3-4XNHUNamg1s=", "properties": {"ref": "385", "@spider": "adeg", "shop": "supermarket", "addr:street_address": "Sigmund-Thun-Str. 22", "addr:city": "Kaprun", "addr:postcode": "5710", "addr:country": "AT", "name": "ADEG NEUMAIR", "phone": "+4365478666", "website": "https://www.adeg.at/services/maerkte-oeffnungszeiten/adeg-neumair", "opening_hours": "Mo-Fr 07:00-19:00; Sa 07:00-18:00", "brand": "ADEG \u00d6sterreich", "brand:wikidata": "Q290211", "nsi_id": "adeg-1eef1d"}, "geometry": {"type": "Point", "coordinates": [12.757701, 47.273074]}},
{"type": "Feature", "id": "2sgONHmbuPGgQEWgdfQM5MlApOw=", "properties": {"ref": "447", "@spider": "adeg", "shop": "supermarket", "addr:street_address": "Markt 101", "addr:city": "Mauterndorf", "addr:postcode": "5570", "addr:country": "AT", "name": "ADEG PLESCHBERGER", "phone": "+4364727858", "website": "https://www.adeg.at/services/maerkte-oeffnungszeiten/adeg-pleschberger", "opening_hours": "Mo-Fr 07:30-18:15; Sa 07:30-18:00; Su 08:00-12:00", "brand": "ADEG \u00d6sterreich", "brand:wikidata": "Q290211", "nsi_id": "adeg-1eef1d"}, "geometry": {"type": "Point", "coordinates": [13.6836981, 47.1329076]}},
{"type": "Feature", "id": "GCSUvDV3vNReQAPC6b5NN-h75EY=", "properties": {"ref": "448", "@spider": "adeg", "shop": "supermarket", "addr:street_address": "Pfarrstrasse 276", "addr:city": "Mariapfarr", "addr:postcode": "5571", "addr:country": "AT", "name": "ADEG PLESCHBERGER", "phone": "+4364737441", "website": "https://www.adeg.at/services/maerkte-oeffnungszeiten/adeg-pleschberger-1", "opening_hours": "Mo-Fr 07:30-18:00; Sa 07:30-17:00", "brand": "ADEG \u00d6sterreich", "brand:wikidata": "Q290211", "nsi_id": "adeg-1eef1d"}, "geometry": {"type": "Point", "coordinates": [13.7465733, 47.150065]}},
{"type": "Feature", "id": "lP1oAWt7ZapMU2yHkD69b3WqSQw=", "properties": {"ref": "577", "@spider": "adeg", "shop": "supermarket", "addr:street_address": "Hauptstrasse 53", "addr:city": "Nussbach", "addr:postcode": "4542", "addr:country": "AT", "name": "ADEG WEIGERSTORFER", "phone": "+4375878204", "website": "https://www.adeg.at/services/maerkte-oeffnungszeiten/adeg-weigerstorfer", "opening_hours": "Mo-Fr 07:00-12:30,14:00-18:00; Sa 07:00-12:30; Su 08:00-10:30", "brand": "ADEG \u00d6sterreich", "brand:wikidata": "Q290211", "nsi_id": "adeg-1eef1d"}, "geometry": {"type": "Point", "coordinates": [14.16436, 47.97278]}},
{"type": "Feature", "id": "JpJcllMgQhwi7O0vkPyiecam4ZM=", "properties": {"ref": "914", "@spider": "adeg", "shop": "supermarket", "addr:street_address": "Bahnhofstrasse 2", "addr:city": "Niedernsill", "addr:postcode": "5722", "addr:country": "AT", "name": "ADEG KN\u00d6DELBARON", "phone": "+43", "website": "https://www.adeg.at/services/maerkte-oeffnungszeiten/adeg-knoedelbaron", "brand": "ADEG \u00d6sterreich", "brand:wikidata": "Q290211", "nsi_id": "adeg-1eef1d"}, "geometry": {"type": "Point", "coordinates": [12.64747, 47.28295]}},
{"type": "Feature", "id": "7aEv2VR9X4KmITUOZn5Fa-uUfIw=", "properties": {"ref": "897", "@spider": "adeg", "shop": "supermarket", "addr:street_address": "Linzerstrasse 21", "addr:city": "Spital/Pyhrn", "addr:postcode": "4582", "addr:country": "AT", "name": "ADEG EDTBAUER", "phone": "+4375638017", "website": "https://www.adeg.at/services/maerkte-oeffnungszeiten/adeg-edtbauer", "opening_hours": "Mo 07:30-18:30; Tu 07:30-17:00; We-Fr 07:30-18:30; Sa 07:30-17:00", "brand": "ADEG \u00d6sterreich", "brand:wikidata": "Q290211", "nsi_id": "adeg-1eef1d"}, "geometry": {"type": "Point", "coordinates": [14.34406, 47.66695]}},
{"type": "Feature", "id": "zQc3HOmjHcpL2mpKXbdiYdkkwCw=", "properties": {"ref": "896", "@spider": "adeg", "shop": "supermarket", "addr:street_address": "Krakaudorf 46", "addr:city": "Krakaudorf", "addr:postcode": "8854", "addr:country": "AT", "name": "ADEG KAUFHAUS PETZL GMBH", "phone": "+4335358204", "website": "https://www.adeg.at/services/maerkte-oeffnungszeiten/adeg-kaufhaus-petzl-gmbh", "opening_hours": "Mo-We 07:30-12:00,15:00-18:00; Th 07:30-12:00; Fr 07:30-12:00,15:00-18:00; Sa 07:30-12:00", "brand": "ADEG \u00d6sterreich", "brand:wikidata": "Q290211", "nsi_id": "adeg-1eef1d"}, "geometry": {"type": "Point", "coordinates": [14.02089, 47.18633]}},
{"type": "Feature", "id": "3lnCMdFd4x37TElgUauguEV2cfk=", "properties": {"ref": "860", "@spider": "adeg", "shop": "supermarket", "addr:street_address": "Nr.46", "addr:city": "Rennweg", "addr:postcode": "9863", "addr:country": "AT", "name": "ADEG SCHIEFER", "phone": "+434734214", "website": "https://www.adeg.at/services/maerkte-oeffnungszeiten/adeg-schiefer", "opening_hours": "Mo-Sa 06:45-12:15,15:00-18:00", "brand": "ADEG \u00d6sterreich", "brand:wikidata": "Q290211", "nsi_id": "adeg-1eef1d"}, "geometry": {"type": "Point", "coordinates": [13.6120665, 47.0184063]}},
{"type": "Feature", "id": "XOQ_-gi83hEP0p93i9dnsBHA0Kg=", "properties": {"ref": "859", "@spider": "adeg", "shop": "supermarket", "addr:street_address": "Nr.29", "addr:city": "Rennweg", "addr:postcode": "9863", "addr:country": "AT", "name": "ADEG PLESCHBERGER", "phone": "+434734340", "website": "https://www.adeg.at/services/maerkte-oeffnungszeiten/adeg-pleschberger-3", "opening_hours": "Mo-Fr 07:45-12:00,15:00-18:00; Sa 07:45-12:00", "brand": "ADEG \u00d6sterreich", "brand:wikidata": "Q290211", "nsi_id": "adeg-1eef1d"}, "geometry": {"type": "Point", "coordinates": [13.6126516, 47.0165312]}},
{"type": "Feature", "id": "sf9TueW7lNoU3k4Vxr-CYEDw6zM=", "properties": {"ref": "442", "@spider": "adeg", "shop": "supermarket", "addr:street_address": "Prinzstrasse 11", "addr:city": "Ternberg", "addr:postcode": "4452", "addr:country": "AT", "name": "ADEG WIEDEMANN", "phone": "+4372568882", "website": "https://www.adeg.at/services/maerkte-oeffnungszeiten/adeg-wiedemann", "opening_hours": "Mo-Fr 07:30-18:00; Sa 07:30-13:00", "brand": "ADEG \u00d6sterreich", "brand:wikidata": "Q290211", "nsi_id": "adeg-1eef1d"}, "geometry": {"type": "Point", "coordinates": [14.3590803, 47.9445867]}},
{"type": "Feature", "id": "9l-kBmy2JAtimewKIbDygd8XJ1A=", "properties": {"ref": "851", "@spider": "adeg", "shop": "supermarket", "addr:street_address": "Schoeder 126", "addr:city": "Schoeder", "addr:postcode": "8844", "addr:country": "AT", "name": "ADEG GEROLD", "phone": "+4335368339", "website": "https://www.adeg.at/services/maerkte-oeffnungszeiten/adeg-gerold", "opening_hours": "Mo-Tu 07:00-12:00,15:00-18:00; We 07:00-12:00; Th-Fr 07:00-12:00,15:00-18:00; Sa 07:00-12:00", "brand": "ADEG \u00d6sterreich", "brand:wikidata": "Q290211", "nsi_id": "adeg-1eef1d"}, "geometry": {"type": "Point", "coordinates": [14.10109, 47.17298]}},
{"type": "Feature", "id": "FrP7a0lWlOcJyYv5vieUa3ZlmC0=", "properties": {"ref": "775", "@spider": "adeg", "shop": "supermarket", "addr:street_address": "Hauptstrasse 12", "addr:city": "Kirchberg", "addr:postcode": "6365", "addr:country": "AT", "name": "ADEG PREM", "phone": "+4353573385", "website": "https://www.adeg.at/services/maerkte-oeffnungszeiten/adeg-prem", "opening_hours": "Mo-Fr 07:00-18:00; Sa 07:00-17:00", "brand": "ADEG \u00d6sterreich", "brand:wikidata": "Q290211", "nsi_id": "adeg-1eef1d"}, "geometry": {"type": "Point", "coordinates": [12.31506, 47.44823]}},
{"type": "Feature", "id": "YG1apLVKMbaxw9fxp0SvYDzrDrk=", "properties": {"ref": "551", "@spider": "adeg", "shop": "supermarket", "addr:street_address": "Nr.46", "addr:city": "Heiligenblut", "addr:postcode": "9844", "addr:country": "AT", "name": "ADEG PICHLER", "phone": "+4348242214", "website": "https://www.adeg.at/services/maerkte-oeffnungszeiten/adeg-pichler-1", "opening_hours": "Mo-Fr 08:00-12:30,14:30-18:00; Sa 08:00-12:30", "brand": "ADEG \u00d6sterreich", "brand:wikidata": "Q290211", "nsi_id": "adeg-1eef1d"}, "geometry": {"type": "Point", "coordinates": [12.8427698, 47.0398588]}},
{"type": "Feature", "id": "ZMCcs7ZsJVe8RqjI5QeQLXEdQaI=", "properties": {"ref": "752", "@spider": "adeg", "shop": "supermarket", "addr:street_address": "Hollersbach 27", "addr:city": "Hollersbach", "addr:postcode": "5731", "addr:country": "AT", "name": "ADEG LINDNER", "phone": "+4365628120", "website": "https://www.adeg.at/services/maerkte-oeffnungszeiten/adeg-lindner", "opening_hours": "Mo-Fr 07:30-12:00,15:00-18:00; Sa 07:30-12:00", "brand": "ADEG \u00d6sterreich", "brand:wikidata": "Q290211", "nsi_id": "adeg-1eef1d"}, "geometry": {"type": "Point", "coordinates": [12.41917, 47.275125]}},
{"type": "Feature", "id": "7DoP8-NHS7EV_Tu289Cl94QrH7g=", "properties": {"ref": "693", "@spider": "adeg", "shop": "supermarket", "addr:street_address": "Obere Bachgasse 155", "addr:city": "Admont", "addr:postcode": "8911", "addr:country": "AT", "name": "ADEG ZIMMERMANN", "phone": "+4336132126", "website": "https://www.adeg.at/services/maerkte-oeffnungszeiten/adeg-zimmermann-1", "opening_hours": "Mo-Fr 07:30-18:00; Sa 07:00-13:00", "brand": "ADEG \u00d6sterreich", "brand:wikidata": "Q290211", "nsi_id": "adeg-1eef1d"}, "geometry": {"type": "Point", "coordinates": [14.45939, 47.5724]}},
{"type": "Feature", "id": "MqLjPWtya45UO4AlECGt3eCXyXs=", "properties": {"ref": "902", "@spider": "adeg", "shop": "supermarket", "addr:street_address": "St.Peter Am Kammersberg 169", "addr:city": "St.Peter/Kbg.", "addr:postcode": "8843", "addr:country": "AT", "name": "ADEG H\u00d6RBINGER", "phone": "+4335368301", "website": "https://www.adeg.at/services/maerkte-oeffnungszeiten/adeg-hoerbinger-handels-gmbh", "opening_hours": "Mo-Fr 07:30-18:00; Sa 07:30-17:00", "brand": "ADEG \u00d6sterreich", "brand:wikidata": "Q290211", "nsi_id": "adeg-1eef1d"}, "geometry": {"type": "Point", "coordinates": [14.18872, 47.18588]}},
{"type": "Feature", "id": "TeS7Xyc5S3G7Gr4gDsOISqkl4U0=", "properties": {"ref": "893", "@spider": "adeg", "shop": "supermarket", "addr:street_address": "Kleindorf 61", "addr:city": "Flattach", "addr:postcode": "9831", "addr:country": "AT", "name": "ADEG RANGERSDORF", "phone": "+434785206", "website": "https://www.adeg.at/services/maerkte-oeffnungszeiten/adeg-rangersdorf-1", "opening_hours": "Mo-Fr 07:30-18:30; Sa 07:30-17:00; Su 08:00-12:00,15:00-17:30", "brand": "ADEG \u00d6sterreich", "brand:wikidata": "Q290211", "nsi_id": "adeg-1eef1d"}, "geometry": {"type": "Point", "coordinates": [13.11057, 46.93588]}},
{"type": "Feature", "id": "xafMzYlGzZUG09JErnlnT6SxZdU=", "properties": {"ref": "571", "@spider": "adeg", "shop": "supermarket", "addr:street_address": "Klosterstrasse 2", "addr:city": "Garsten", "addr:postcode": "4451", "addr:country": "AT", "name": "ADEG WEINBERGER", "phone": "+43725241646", "website": "https://www.adeg.at/services/maerkte-oeffnungszeiten/adeg-weinberger", "opening_hours": "Mo-Fr 07:30-18:00; Sa 07:30-15:00", "brand": "ADEG \u00d6sterreich", "brand:wikidata": "Q290211", "nsi_id": "adeg-1eef1d"}, "geometry": {"type": "Point", "coordinates": [14.40471, 48.02174]}},
{"type": "Feature", "id": "itdY0S2ZK-d7p6eg4ZeovT1C9zQ=", "properties": {"ref": "637", "@spider": "adeg", "shop": "supermarket", "addr:street_address": "D\u00f6llach 191", "addr:city": "Grosskirchheim", "addr:postcode": "9843", "addr:country": "AT", "name": "ADEG PICHLER", "phone": "+434825233", "website": "https://www.adeg.at/services/maerkte-oeffnungszeiten/adeg-pichler-2", "opening_hours": "Mo-Fr 07:00-18:00; Sa 07:00-17:00", "brand": "ADEG \u00d6sterreich", "brand:wikidata": "Q290211", "nsi_id": "adeg-1eef1d"}, "geometry": {"type": "Point", "coordinates": [12.89019, 46.97729]}},
{"type": "Feature", "id": "hPQyEEdgK5F-q2Ysg0qOYPBgmkA=", "properties": {"ref": "864", "@spider": "adeg", "shop": "supermarket", "addr:street_address": "Vorstadt 81", "addr:city": "Oberw\u00f6lz", "addr:postcode": "8832", "addr:country": "AT", "name": "ADEG H\u00d6RBINGER", "phone": "+43358120035", "website": "https://www.adeg.at/services/maerkte-oeffnungszeiten/adeg-hoerbinger", "opening_hours": "Mo-Fr 07:30-18:00; Sa 07:30-17:00", "brand": "ADEG \u00d6sterreich", "brand:wikidata": "Q290211", "nsi_id": "adeg-1eef1d"}, "geometry": {"type": "Point", "coordinates": [14.277208, 47.203452]}},
{"type": "Feature", "id": "HM4rHctHr2opNddZvSyvxNZfkKc=", "properties": {"ref": "901", "@spider": "adeg", "shop": "supermarket", "addr:street_address": "Hauptplatz 5", "addr:city": "Gm\u00fcnd", "addr:postcode": "9853", "addr:country": "AT", "name": "ADEG HUBER GERALD", "phone": "+43473237166", "website": "https://www.adeg.at/services/maerkte-oeffnungszeiten/adeg-huber", "opening_hours": "Mo-Fr 07:15-18:30; Sa 07:15-17:00", "brand": "ADEG \u00d6sterreich", "brand:wikidata": "Q290211", "nsi_id": "adeg-1eef1d"}, "geometry": {"type": "Point", "coordinates": [13.53579, 46.90695]}},
{"type": "Feature", "id": "3HglhvAaDk_IVwl3T9o7DhusFm0=", "properties": {"ref": "443", "@spider": "adeg", "shop": "supermarket", "addr:street_address": "Eisenstrasse 21", "addr:city": "Grossraming", "addr:postcode": "4463", "addr:country": "AT", "name": "ADEG GARSTENAUER", "phone": "+4372548217", "website": "https://www.adeg.at/services/maerkte-oeffnungszeiten/adeg-garstenauer", "opening_hours": "Mo-Tu 07:00-12:30,14:30-18:00; We 07:00-12:30; Th-Fr 07:00-12:30,14:30-18:00; Sa 07:00-12:30", "brand": "ADEG \u00d6sterreich", "brand:wikidata": "Q290211", "nsi_id": "adeg-1eef1d"}, "geometry": {"type": "Point", "coordinates": [14.54692, 47.88407]}},
{"type": "Feature", "id": "cqVN0MAicXmj1E_G4QG0SQHM-oA=", "properties": {"ref": "675", "@spider": "adeg", "shop": "supermarket", "addr:street_address": "M\u00f6lltalstrasse 18", "addr:city": "M\u00f6llbr\u00fccke", "addr:postcode": "9813", "addr:country": "AT", "name": "ADEG STRAUSS", "phone": "+43476920849", "website": "https://www.adeg.at/services/maerkte-oeffnungszeiten/adeg-strauss", "opening_hours": "Mo-Fr 06:30-18:30; Sa 06:30-17:00", "brand": "ADEG \u00d6sterreich", "brand:wikidata": "Q290211", "nsi_id": "adeg-1eef1d"}, "geometry": {"type": "Point", "coordinates": [13.37315, 46.83703]}},
{"type": "Feature", "id": "D20zO9yRbT_2IDu9bXAlX8Ral28=", "properties": {"ref": "911", "@spider": "adeg", "shop": "supermarket", "addr:street_address": "Lendorf Nr. 259", "addr:city": "Lendorf", "addr:postcode": "9811", "addr:country": "AT", "name": "ADEG FUCHS", "phone": "+43476920399", "website": "https://www.adeg.at/services/maerkte-oeffnungszeiten/adeg-fuchs", "opening_hours": "Mo-Fr 06:15-18:30; Sa 07:30-17:00", "brand": "ADEG \u00d6sterreich", "brand:wikidata": "Q290211", "nsi_id": "adeg-1eef1d"}, "geometry": {"type": "Point", "coordinates": [13.42034, 46.83119]}},
{"type": "Feature", "id": "SpDBZDHh5ulV7RyqysIIr-wdZB4=", "properties": {"ref": "892", "@spider": "adeg", "shop": "supermarket", "addr:street_address": "Marktplatz 11", "addr:city": "Sachsenburg", "addr:postcode": "9751", "addr:country": "AT", "name": "ADEG PRAX", "phone": "+4347692579", "website": "https://www.adeg.at/services/maerkte-oeffnungszeiten/adeg-prax", "opening_hours": "Mo-Fr 06:30-18:00; Sa 06:30-12:30", "brand": "ADEG \u00d6sterreich", "brand:wikidata": "Q290211", "nsi_id": "adeg-1eef1d"}, "geometry": {"type": "Point", "coordinates": [13.35062, 46.82771]}},
{"type": "Feature", "id": "M6Poerl5FYuqXeEIcq-ZsmdVTIU=", "properties": {"ref": "743", "@spider": "adeg", "shop": "supermarket", "addr:street_address": "Kleinzell 12", "addr:city": "Kleinzell Im M\u00fchlkreis", "addr:postcode": "4115", "addr:country": "AT", "name": "ADEG ARTEGRA", "phone": "+43728220141", "website": "https://www.adeg.at/services/maerkte-oeffnungszeiten/adeg-artegra-1", "opening_hours": "Mo-Tu 07:30-12:00,14:00-18:00; We 07:30-12:00; Th-Fr 07:30-12:00,14:00-18:00; Sa 07:30-12:00", "brand": "ADEG \u00d6sterreich", "brand:wikidata": "Q290211", "nsi_id": "adeg-1eef1d"}, "geometry": {"type": "Point", "coordinates": [13.99173, 48.45253]}},
{"type": "Feature", "id": "h-sbU4YjRe1G0_rzZAPwr_IKeNI=", "properties": {"ref": "435", "@spider": "adeg", "shop": "supermarket", "addr:street_address": "Pfarrkirchen 17", "addr:city": "Pfarrkirchen", "addr:postcode": "4141", "addr:country": "AT", "name": "ADEG ARTEGRA", "phone": "+43728560252", "website": "https://www.adeg.at/services/maerkte-oeffnungszeiten/adeg-artegra", "opening_hours": "Mo-We 07:30-12:00,14:30-18:00; Th 07:30-12:00; Fr 07:30-12:00,14:30-18:00; Sa 07:30-12:00", "brand": "ADEG \u00d6sterreich", "brand:wikidata": "Q290211", "nsi_id": "adeg-1eef1d"}, "geometry": {"type": "Point", "coordinates": [13.8271, 48.50577]}},
{"type": "Feature", "id": "Iy-XD1OYSXX9SVGmM3FPb8acSPw=", "properties": {"ref": "889", "@spider": "adeg", "shop": "supermarket", "addr:street_address": "Hauptstrasse 7", "addr:city": "M\u00f6derbrugg", "addr:postcode": "8763", "addr:country": "AT", "name": "ADEG PIBER", "phone": "+4335712383", "website": "https://www.adeg.at/services/maerkte-oeffnungszeiten/gernot-piber-eu", "opening_hours": "Mo-Fr 07:00-19:00; Sa 07:00-18:00", "brand": "ADEG \u00d6sterreich", "brand:wikidata": "Q290211", "nsi_id": "adeg-1eef1d"}, "geometry": {"type": "Point", "coordinates": [14.48041, 47.28089]}},
{"type": "Feature", "id": "OVsJQv1jBrxrna3hFDb3X8h5JJ4=", "properties": {"ref": "707", "@spider": "adeg", "shop": "supermarket", "addr:street_address": "Rangersdorf 130", "addr:city": "Rangersdorf", "addr:postcode": "9833", "addr:country": "AT", "name": "ADEG RANGERSDORF", "phone": "+434823245", "website": "https://www.adeg.at/services/maerkte-oeffnungszeiten/adeg-rangersdorf", "opening_hours": "Mo-Fr 06:45-18:30; Sa 06:45-17:00", "brand": "ADEG \u00d6sterreich", "brand:wikidata": "Q290211", "nsi_id": "adeg-1eef1d"}, "geometry": {"type": "Point", "coordinates": [12.95673, 46.86116]}},
{"type": "Feature", "id": "pKxIWy358hbn82_q2sc_N_JSawY=", "properties": {"ref": "437", "@spider": "adeg", "shop": "supermarket", "addr:street_address": "Kirchenplatz 1", "addr:city": "Neustift", "addr:postcode": "4143", "addr:country": "AT", "name": "ADEG W\u00d6SS", "phone": "+4372848108", "website": "https://www.adeg.at/services/maerkte-oeffnungszeiten/adeg-woess", "opening_hours": "Mo-Fr 06:00-12:00,14:30-18:00; Sa 06:00-12:00", "brand": "ADEG \u00d6sterreich", "brand:wikidata": "Q290211", "nsi_id": "adeg-1eef1d"}, "geometry": {"type": "Point", "coordinates": [13.75665, 48.52882]}},
{"type": "Feature", "id": "cD96Guzid8I9FbmBW5JOUUPkUPk=", "properties": {"ref": "661", "@spider": "adeg", "shop": "supermarket", "addr:street_address": "Kraftwerkstrasse 1", "addr:city": "Ernsthofen", "addr:postcode": "4432", "addr:country": "AT", "name": "ADEG FISCHER", "phone": "+43743580933", "website": "https://www.adeg.at/services/maerkte-oeffnungszeiten/adeg-fischer", "opening_hours": "Mo-Fr 06:30-18:00; Sa 07:00-13:00", "brand": "ADEG \u00d6sterreich", "brand:wikidata": "Q290211", "nsi_id": "adeg-1eef1d"}, "geometry": {"type": "Point", "coordinates": [14.48396, 48.13049]}},
{"type": "Feature", "id": "85lhSsggo9JVvHmk1NX22pPFpH4=", "properties": {"ref": "895", "@spider": "adeg", "shop": "supermarket", "addr:street_address": "Marktplatz 19", "addr:city": "Altenmarkt Bei St.Gallen", "addr:postcode": "8934", "addr:country": "AT", "name": "ADEG K\u00c4MMERER GESMBH", "phone": "+433632381", "website": "https://www.adeg.at/services/maerkte-oeffnungszeiten/adeg-kaemmerer-gesmbh", "opening_hours": "Mo 06:00-11:30,14:00-17:30; Tu 06:30-11:30; We 06:30-11:30,14:00-17:30; Th 06:30-11:30; Fr 06:30-11:30,14:00-17:30; Sa 07:00-12:00", "brand": "ADEG \u00d6sterreich", "brand:wikidata": "Q290211", "nsi_id": "adeg-1eef1d"}, "geometry": {"type": "Point", "coordinates": [14.64963, 47.72261]}},
{"type": "Feature", "id": "8dqziLGhzMl_RfiiDrTCmYM2g3M=", "properties": {"ref": "441", "@spider": "adeg", "shop": "supermarket", "addr:street_address": "Neustift 6", "addr:city": "Maria Neustift", "addr:postcode": "4443", "addr:country": "AT", "name": "ADEG STUBAUER", "phone": "+437250216", "website": "https://www.adeg.at/services/maerkte-oeffnungszeiten/adeg-stubauer", "opening_hours": "Mo-Fr 07:30-12:30,14:30-18:00; Sa 07:30-12:00", "brand": "ADEG \u00d6sterreich", "brand:wikidata": "Q290211", "nsi_id": "adeg-1eef1d"}, "geometry": {"type": "Point", "coordinates": [14.60707, 47.9377]}},
{"type": "Feature", "id": "Ut6ghvdq_tcRmh3Q4odK5goZdSs=", "properties": {"ref": "713", "@spider": "adeg", "shop": "supermarket", "addr:street_address": "Hauptstrasse 77", "addr:city": "Seeboden", "addr:postcode": "9871", "addr:country": "AT", "name": "ADEG HALLER", "phone": "+43476281242", "website": "https://www.adeg.at/services/maerkte-oeffnungszeiten/adeg-haller", "opening_hours": "Mo-Fr 07:00-18:30; Sa 07:00-18:00", "brand": "ADEG \u00d6sterreich", "brand:wikidata": "Q290211", "nsi_id": "adeg-1eef1d"}, "geometry": {"type": "Point", "coordinates": [13.51729, 46.81835]}},
{"type": "Feature", "id": "W90fGiH_DhgbJ-2fy2M5OTXAnF8=", "properties": {"ref": "890", "@spider": "adeg", "shop": "supermarket", "addr:street_address": "Hauptstrasse 10", "addr:city": "Teufenbach", "addr:postcode": "8833", "addr:country": "AT", "name": "ADEG GLANZER", "phone": "+4335822402", "website": "https://www.adeg.at/services/maerkte-oeffnungszeiten/adeg-glanzer", "opening_hours": "Mo-Fr 07:30-12:00,15:00-18:00; Sa 07:30-12:00", "brand": "ADEG \u00d6sterreich", "brand:wikidata": "Q290211", "nsi_id": "adeg-1eef1d"}, "geometry": {"type": "Point", "coordinates": [14.35913, 47.12858]}},
{"type": "Feature", "id": "NOj1AdQC47D70atoJxONGA5i3UA=", "properties": {"ref": "601", "@spider": "adeg", "shop": "supermarket", "addr:street_address": "Katschtalstrasse 8", "addr:city": "Teufenbach-Katsch", "addr:postcode": "8842", "addr:country": "AT", "name": "H\u00d6RBINGER HARALD E.U.", "phone": "+433588204", "website": "https://www.adeg.at/services/maerkte-oeffnungszeiten/adeg-hoerbinger-1", "opening_hours": "Mo-Tu 07:30-12:00,15:00-18:00; We 07:30-12:00; Th-Fr 07:30-12:00,15:00-18:00; Sa 07:30-12:00", "brand": "ADEG \u00d6sterreich", "brand:wikidata": "Q290211", "nsi_id": "adeg-1eef1d"}, "geometry": {"type": "Point", "coordinates": [14.35913, 47.12858]}},
{"type": "Feature", "id": "m_NyBJNZN3oOw20rgtx7x6MS_ZU=", "properties": {"ref": "710", "@spider": "adeg", "shop": "supermarket", "addr:street_address": "Kaerntnerstrasse 1", "addr:city": "Unzmarkt", "addr:postcode": "8800", "addr:country": "AT", "name": "ADEG TILGER", "phone": "+436603227592", "website": "https://www.adeg.at/services/maerkte-oeffnungszeiten/adeg-tilger", "opening_hours": "Mo-Fr 07:00-12:30,15:00-18:00; Sa 07:00-12:00", "brand": "ADEG \u00d6sterreich", "brand:wikidata": "Q290211", "nsi_id": "adeg-1eef1d"}, "geometry": {"type": "Point", "coordinates": [14.44487, 47.19869]}},
{"type": "Feature", "id": "4gxzCxkWH6w1olw0ymW8F6XfK00=", "properties": {"ref": "550", "@spider": "adeg", "shop": "supermarket", "addr:street_address": "Burgenlandstrasse 5", "addr:city": "Spittal/Drau", "addr:postcode": "9800", "addr:country": "AT", "name": "ADEG EBNER", "phone": "+43476233520", "website": "https://www.adeg.at/services/maerkte-oeffnungszeiten/adeg-ebner-2", "opening_hours": "Mo-Fr 07:00-18:30; Sa 07:00-17:00", "brand": "ADEG \u00d6sterreich", "brand:wikidata": "Q290211", "nsi_id": "adeg-1eef1d"}, "geometry": {"type": "Point", "coordinates": [13.487944, 46.80224]}},
{"type": "Feature", "id": "B91ShdK6XhSMq-4fjFY0KldlIZ0=", "properties": {"ref": "780", "@spider": "adeg", "shop": "supermarket", "addr:street_address": "Hauptstrasse 19", "addr:city": "St. Lambrecht", "addr:postcode": "8813", "addr:country": "AT", "name": "ADEG GRASSER", "phone": "+4335852272", "website": "https://www.adeg.at/services/maerkte-oeffnungszeiten/adeg-grasser", "opening_hours": "Mo-Fr 07:30-18:00; Sa 07:30-12:00", "brand": "ADEG \u00d6sterreich", "brand:wikidata": "Q290211", "nsi_id": "adeg-1eef1d"}, "geometry": {"type": "Point", "coordinates": [14.29886, 47.06854]}},
{"type": "Feature", "id": "rmSQdm-bxrHezdPbKPazD1zvV2Y=", "properties": {"ref": "564", "@spider": "adeg", "shop": "supermarket", "addr:street_address": "Virgental Strasse 60", "addr:city": "Virgen", "addr:postcode": "9972", "addr:country": "AT", "name": "ADEG HANSER", "phone": "+4348745603", "website": "https://www.adeg.at/services/maerkte-oeffnungszeiten/adeg-hanser", "opening_hours": "Mo-Fr 07:15-18:30; Sa 07:15-17:00", "brand": "ADEG \u00d6sterreich", "brand:wikidata": "Q290211", "nsi_id": "adeg-1eef1d"}, "geometry": {"type": "Point", "coordinates": [12.46061, 47.00309]}},
{"type": "Feature", "id": "yX_9pjKxSIvvujXpsbcDbN7XAv0=", "properties": {"ref": "420", "@spider": "adeg", "shop": "supermarket", "addr:street_address": "Marktplatz 20", "addr:city": "St. Peter/Au", "addr:postcode": "3352", "addr:country": "AT", "name": "ADEG KAUBECK", "phone": "+43747744911", "website": "https://www.adeg.at/services/maerkte-oeffnungszeiten/adeg-kaubeck", "opening_hours": "Mo-We 07:00-18:00; Th 07:00-12:00; Fr 07:00-18:00; Sa 07:00-12:00; Su 08:00-11:00", "brand": "ADEG \u00d6sterreich", "brand:wikidata": "Q290211", "nsi_id": "adeg-1eef1d"}, "geometry": {"type": "Point", "coordinates": [14.62123, 48.04515]}},
{"type": "Feature", "id": "dzwQe3Qj1yyX5Ti1syoZP9YXsz4=", "properties": {"ref": "730", "@spider": "adeg", "shop": "supermarket", "addr:street_address": "Lind Im Drautal Nr. 61", "addr:city": "Lind Im Drautal", "addr:postcode": "9753", "addr:country": "AT", "name": "ADEG TSCHERNE", "phone": "+4369919753000", "website": "https://www.adeg.at/services/maerkte-oeffnungszeiten/adeg-tscherne", "opening_hours": "Mo-Fr 08:00-13:00,15:00-18:00; Sa 08:00-12:00", "brand": "ADEG \u00d6sterreich", "brand:wikidata": "Q290211", "nsi_id": "adeg-1eef1d"}, "geometry": {"type": "Point", "coordinates": [13.35639, 46.76803]}},
{"type": "Feature", "id": "J2TnYyu_BS97LjGXDhpI3mAPAUc=", "properties": {"ref": "858", "@spider": "adeg", "shop": "supermarket", "addr:street_address": "Molzbichl 59", "addr:city": "Rothenthurn", "addr:postcode": "9701", "addr:country": "AT", "name": "ADEG EBNER", "phone": "+4347678166", "website": "https://www.adeg.at/services/maerkte-oeffnungszeiten/adeg-ebner-1", "opening_hours": "Mo-Fr 06:30-12:30,15:00-18:00; Sa 06:30-12:00", "brand": "ADEG \u00d6sterreich", "brand:wikidata": "Q290211", "nsi_id": "adeg-1eef1d"}, "geometry": {"type": "Point", "coordinates": [13.55474, 46.773429]}},
{"type": "Feature", "id": "Gp9yskdebhc2AjrK4na_0Wktqyw=", "properties": {"ref": "891", "@spider": "adeg", "shop": "supermarket", "addr:street_address": "Hermann Gmeiner Str. 3", "addr:city": "Debant", "addr:postcode": "9990", "addr:country": "AT", "name": "ADEG HUBER GERALD", "phone": "+43485262738", "website": "https://www.adeg.at/services/maerkte-oeffnungszeiten/adeg-huber-gerald", "opening_hours": "Mo-Fr 07:30-18:30; Sa 07:30-12:30", "brand": "ADEG \u00d6sterreich", "brand:wikidata": "Q290211", "nsi_id": "adeg-1eef1d"}, "geometry": {"type": "Point", "coordinates": [12.81471, 46.83122]}},
{"type": "Feature", "id": "mi0AnD0kIFCSOM45Uo9CHevs-nw=", "properties": {"ref": "867", "@spider": "adeg", "shop": "supermarket", "addr:street_address": "Gams 100", "addr:city": "Landl", "addr:postcode": "8922", "addr:country": "AT", "name": "ADEG GAMS", "phone": "+433637354", "website": "https://www.adeg.at/services/maerkte-oeffnungszeiten/adeg-gams", "opening_hours": "Mo-Fr 07:30-12:00,15:00-18:00; Sa 07:00-11:00", "brand": "ADEG \u00d6sterreich", "brand:wikidata": "Q290211", "nsi_id": "adeg-1eef1d"}, "geometry": {"type": "Point", "coordinates": [14.74384, 47.60692]}},
{"type": "Feature", "id": "JTkqgFE1uyE3Rh5DeD-CGYPXuu0=", "properties": {"ref": "739", "@spider": "adeg", "shop": "supermarket", "addr:street_address": "Tristacher Strasse 17", "addr:city": "Lienz/Tristach", "addr:postcode": "9900", "addr:country": "AT", "name": "ADEG MAIR MARTIN E.U.", "phone": "+43485269879", "website": "https://www.adeg.at/services/maerkte-oeffnungszeiten/adeg-mair-martin-eu", "opening_hours": "Mo-Fr 07:00-19:00; Sa 07:00-18:00", "brand": "ADEG \u00d6sterreich", "brand:wikidata": "Q290211", "nsi_id": "adeg-1eef1d"}, "geometry": {"type": "Point", "coordinates": [12.77261, 46.82699]}},
{"type": "Feature", "id": "wjrkfX8-p_n9kRA5dpYpgipLPsM=", "properties": {"ref": "777", "@spider": "adeg", "shop": "supermarket", "addr:street_address": "Schulstrasse 320", "addr:city": "Greifenburg", "addr:postcode": "9761", "addr:country": "AT", "name": "ADEG ANTO", "phone": "+4347128397", "website": "https://www.adeg.at/services/maerkte-oeffnungszeiten/adeg-anto", "opening_hours": "Mo-Fr 06:30-18:30; Sa 07:00-17:00", "brand": "ADEG \u00d6sterreich", "brand:wikidata": "Q290211", "nsi_id": "adeg-1eef1d"}, "geometry": {"type": "Point", "coordinates": [13.17808, 46.74976]}},
{"type": "Feature", "id": "HtVruh_yPlwymWlenWX3s7Z30wk=", "properties": {"ref": "563", "@spider": "adeg", "shop": "supermarket", "addr:street_address": "Nr.11", "addr:city": "Hopfgarten/Defereggen", "addr:postcode": "9961", "addr:country": "AT", "name": "ADEG HINTNERS", "phone": "+4348725342", "website": "https://www.adeg.at/services/maerkte-oeffnungszeiten/adeg-hintners", "opening_hours": "Mo-We 07:30-12:00,15:00-18:30; Th 07:30-12:00; Fr 07:30-12:00,15:00-18:30; Sa 07:30-12:00", "brand": "ADEG \u00d6sterreich", "brand:wikidata": "Q290211", "nsi_id": "adeg-1eef1d"}, "geometry": {"type": "Point", "coordinates": [12.5200374, 46.9215757]}},
{"type": "Feature", "id": "kJDeVdkHAwYaMgMv3LSkWwUy71U=", "properties": {"ref": "632", "@spider": "adeg", "shop": "supermarket", "addr:street_address": "Berg Im Drautal Nr. 177", "addr:city": "Berg Im Drautal", "addr:postcode": "9771", "addr:country": "AT", "name": "ADEG PIRKER", "phone": "+434712682", "website": "https://www.adeg.at/services/maerkte-oeffnungszeiten/adeg-pirker", "opening_hours": "Mo-Fr 06:30-18:30; Sa 06:30-17:00", "brand": "ADEG \u00d6sterreich", "brand:wikidata": "Q290211", "nsi_id": "adeg-1eef1d"}, "geometry": {"type": "Point", "coordinates": [13.137436, 46.748238]}},
{"type": "Feature", "id": "KTwT5rmhk7VF9M31mX57ExBezjE=", "properties": {"ref": "622", "@spider": "adeg", "shop": "supermarket", "addr:street_address": "Ferndorf Nr. 17", "addr:city": "Ferndorf", "addr:postcode": "9702", "addr:country": "AT", "name": "ADEG ANGERER", "phone": "+4342452825", "website": "https://www.adeg.at/services/maerkte-oeffnungszeiten/adeg-angerer", "opening_hours": "Mo-Fr 07:30-18:00; Sa 07:30-12:30", "brand": "ADEG \u00d6sterreich", "brand:wikidata": "Q290211", "nsi_id": "adeg-1eef1d"}, "geometry": {"type": "Point", "coordinates": [13.626269, 46.736352]}},
{"type": "Feature", "id": "HdayhDB5yc1TPsGYGkZo1m2wcdc=", "properties": {"ref": "549", "@spider": "adeg", "shop": "supermarket", "addr:street_address": "Bichlweg 72", "addr:city": "Zlan", "addr:postcode": "9713", "addr:country": "AT", "name": "ADEG MESSNER", "phone": "+434761222", "website": "https://www.adeg.at/services/maerkte-oeffnungszeiten/adeg-messner", "opening_hours": "Mo-Fr 07:00-12:30,15:00-18:00; Sa 07:00-12:30", "brand": "ADEG \u00d6sterreich", "brand:wikidata": "Q290211", "nsi_id": "adeg-1eef1d"}, "geometry": {"type": "Point", "coordinates": [13.58665, 46.72446]}},
{"type": "Feature", "id": "4kltUj6ioj30U1L4ZkWtXW_M2V8=", "properties": {"ref": "903", "@spider": "adeg", "shop": "supermarket", "addr:street_address": "Oberer Platz 5", "addr:city": "Weitensfeld", "addr:postcode": "9344", "addr:country": "AT", "name": "ADEG GRATZER", "phone": "+4342657471", "website": "https://www.adeg.at/services/maerkte-oeffnungszeiten/adeg-gratzer", "opening_hours": "Mo-Fr 07:00-18:30; Sa 07:00-17:00", "brand": "ADEG \u00d6sterreich", "brand:wikidata": "Q290211", "nsi_id": "adeg-1eef1d"}, "geometry": {"type": "Point", "coordinates": [14.191886, 46.849336]}},
{"type": "Feature", "id": "U2XdAsL-Od5zgCvY0wIP1TOSa6w=", "properties": {"ref": "714", "@spider": "adeg", "shop": "supermarket", "addr:street_address": "Arriach 43", "addr:city": "Arriach", "addr:postcode": "9543", "addr:country": "AT", "name": "ADEG OBLAK", "phone": "+4342478509", "website": "https://www.adeg.at/services/maerkte-oeffnungszeiten/adeg-oblak", "opening_hours": "Mo 07:00-12:30,15:00-18:00; Tu 07:00-12:30; We-Fr 07:00-12:30,15:00-18:00; Sa 07:00-12:30", "brand": "ADEG \u00d6sterreich", "brand:wikidata": "Q290211", "nsi_id": "adeg-1eef1d"}, "geometry": {"type": "Point", "coordinates": [13.84911, 46.73075]}},
{"type": "Feature", "id": "SawHt0xC71dDkiZB996hMdEQAFw=", "properties": {"ref": "548", "@spider": "adeg", "shop": "supermarket", "addr:street_address": "Drautalstrasse 4", "addr:city": "Feistritz/Dr./Feffern.", "addr:postcode": "9710", "addr:country": "AT", "name": "ADEG WINKLER", "phone": "+4342456140", "website": "https://www.adeg.at/services/maerkte-oeffnungszeiten/adeg-winkler", "opening_hours": "Mo-Fr 06:30-18:30; Sa 06:30-17:00", "brand": "ADEG \u00d6sterreich", "brand:wikidata": "Q290211", "nsi_id": "adeg-1eef1d"}, "geometry": {"type": "Point", "coordinates": [13.6798628, 46.6908303]}},
{"type": "Feature", "id": "qbr_egF8NWvIHatkrkyNFbx3XK8=", "properties": {"ref": "886", "@spider": "adeg", "shop": "supermarket", "addr:street_address": "Industriestrasse 4", "addr:city": "Friesach", "addr:postcode": "9360", "addr:country": "AT", "name": "ADEG KOHLWEG", "phone": "+436764512070", "website": "https://www.adeg.at/services/maerkte-oeffnungszeiten/adeg-kohlweg", "opening_hours": "Mo-Fr 07:15-18:30; Sa 07:15-17:00", "brand": "ADEG \u00d6sterreich", "brand:wikidata": "Q290211", "nsi_id": "adeg-1eef1d"}, "geometry": {"type": "Point", "coordinates": [14.41388, 46.9523]}},
{"type": "Feature", "id": "ffqSRXPxcQd5Hm2eIOoVLxffqcQ=", "properties": {"ref": "523", "@spider": "adeg", "shop": "supermarket", "addr:street_address": "Dr.Schnerichstr. 7", "addr:city": "Gurk", "addr:postcode": "9342", "addr:country": "AT", "name": "ADEG SCHNITZER", "phone": "+4342668219", "website": "https://www.adeg.at/services/maerkte-oeffnungszeiten/adeg-schnitzer", "opening_hours": "Mo-Fr 07:00-18:30; Sa 07:00-17:00", "brand": "ADEG \u00d6sterreich", "brand:wikidata": "Q290211", "nsi_id": "adeg-1eef1d"}, "geometry": {"type": "Point", "coordinates": [14.29085, 46.87441]}},
{"type": "Feature", "id": "buidJzqOiFGxvkpMdE0n-lSumPk=", "properties": {"ref": "626", "@spider": "adeg", "shop": "supermarket", "addr:street_address": "10.-Oktober-Strasse 3A", "addr:city": "Strassburg", "addr:postcode": "9341", "addr:country": "AT", "name": "ADEG BACHLER", "phone": "+4342663110", "website": "https://www.adeg.at/services/maerkte-oeffnungszeiten/adeg-bachler", "opening_hours": "Mo-Fr 07:30-18:30; Sa 07:30-17:00", "brand": "ADEG \u00d6sterreich", "brand:wikidata": "Q290211", "nsi_id": "adeg-1eef1d"}, "geometry": {"type": "Point", "coordinates": [14.3355325, 46.8955536]}},
{"type": "Feature", "id": "l5SeoYuPJyZ1pzyyngl5yCaYMS8=", "properties": {"ref": "421", "@spider": "adeg", "shop": "supermarket", "addr:street_address": "Bahnhofstrasse 11", "addr:city": "Hausmening", "addr:postcode": "3363", "addr:country": "AT", "name": "ADEG BRUCKNER", "phone": "+43747553399", "website": "https://www.adeg.at/services/maerkte-oeffnungszeiten/adeg-bruckner", "opening_hours": "Mo-Th 07:00-12:30,15:00-18:00; Fr 07:00-18:00; Sa 07:00-12:00", "brand": "ADEG \u00d6sterreich", "brand:wikidata": "Q290211", "nsi_id": "adeg-1eef1d"}, "geometry": {"type": "Point", "coordinates": [14.81715, 48.07469]}},
{"type": "Feature", "id": "_XctdIg-hr6_F7GpSAq25J2vKyE=", "properties": {"ref": "617", "@spider": "adeg", "shop": "supermarket", "addr:street_address": "Kirchbach Nr. 19", "addr:city": "Kirchbach", "addr:postcode": "9632", "addr:country": "AT", "name": "ADEG EINETTER", "phone": "+43428425166", "website": "https://www.adeg.at/services/maerkte-oeffnungszeiten/adeg-einetter", "opening_hours": "Mo-Fr 07:30-12:30,14:30-18:00; Sa 07:30-12:30", "brand": "ADEG \u00d6sterreich", "brand:wikidata": "Q290211", "nsi_id": "adeg-1eef1d"}, "geometry": {"type": "Point", "coordinates": [13.18603, 46.64118]}},
{"type": "Feature", "id": "Unah_GToYt55kUSqHco3pLFoOEQ=", "properties": {"ref": "857", "@spider": "adeg", "shop": "supermarket", "addr:street_address": "St.Lorenzen 33", "addr:city": "St.Lorenzen", "addr:postcode": "9654", "addr:country": "AT", "name": "ADEG GUGGENBERGER", "phone": "+43471622171", "website": "https://www.adeg.at/services/maerkte-oeffnungszeiten/adeg-guggenberger", "opening_hours": "Mo-Fr 07:30-12:00,15:00-17:30; Sa 07:30-12:00", "brand": "ADEG \u00d6sterreich", "brand:wikidata": "Q290211", "nsi_id": "adeg-1eef1d"}, "geometry": {"type": "Point", "coordinates": [12.78471, 46.70195]}},
{"type": "Feature", "id": "4isi-nErp91def8Tyd0Tray1kPE=", "properties": {"ref": "653", "@spider": "adeg", "shop": "supermarket", "addr:street_address": "Dorfstrasse 12", "addr:city": "Stumm", "addr:postcode": "6275", "addr:country": "AT", "name": "ADEG HOLZMANN", "phone": "+43528320721", "website": "https://www.adeg.at/services/maerkte-oeffnungszeiten/adeg-holzmann", "opening_hours": "Mo-Fr 07:30-19:00; Sa 07:30-18:00", "brand": "ADEG \u00d6sterreich", "brand:wikidata": "Q290211", "nsi_id": "adeg-1eef1d"}, "geometry": {"type": "Point", "coordinates": [11.88405, 47.29359]}},
{"type": "Feature", "id": "_l37OTxXGTZTG5mgAOu2yRn6teM=", "properties": {"ref": "694", "@spider": "adeg", "shop": "supermarket", "addr:street_address": "Eggerstr. 11", "addr:city": "Hermagor", "addr:postcode": "9620", "addr:country": "AT", "name": "ADEG FILIPPITSCH", "phone": "+43428242228", "website": "https://www.adeg.at/services/maerkte-oeffnungszeiten/adeg-filippitsch-1", "opening_hours": "Mo-Fr 06:30-18:30; Sa 07:00-17:00", "brand": "ADEG \u00d6sterreich", "brand:wikidata": "Q290211", "nsi_id": "adeg-1eef1d"}, "geometry": {"type": "Point", "coordinates": [13.37425, 46.625428]}},
{"type": "Feature", "id": "x7daSB9A1HowM57eOzsWOKAWrvc=", "properties": {"ref": "900", "@spider": "adeg", "shop": "supermarket", "addr:street_address": "Hauptstrasse 125", "addr:city": "Zeltweg", "addr:postcode": "8740", "addr:country": "AT", "name": "ADEG ERNSTREITER-HUBMANN E.U.", "phone": "+43357722330", "website": "https://www.adeg.at/services/maerkte-oeffnungszeiten/adeg-ernstreiter-hubmann-eu", "opening_hours": "Mo-Fr 06:45-19:00; Sa 06:45-13:00", "brand": "ADEG \u00d6sterreich", "brand:wikidata": "Q290211", "nsi_id": "adeg-1eef1d"}, "geometry": {"type": "Point", "coordinates": [14.74486, 47.1907]}},
{"type": "Feature", "id": "LmIoMq3f0qvs5f0gaznZJVfFEzI=", "properties": {"ref": "607", "@spider": "adeg", "shop": "supermarket", "addr:street_address": "Hochalmstrasse 19", "addr:city": "Seckau", "addr:postcode": "8732", "addr:country": "AT", "name": "ADEG PRESSLER", "phone": "+4335145310", "website": "https://www.adeg.at/services/maerkte-oeffnungszeiten/adeg-pressler", "opening_hours": "Mo-Fr 07:00-19:00; Sa 07:00-18:00", "brand": "ADEG \u00d6sterreich", "brand:wikidata": "Q290211", "nsi_id": "adeg-1eef1d"}, "geometry": {"type": "Point", "coordinates": [14.80923, 47.27003]}},
{"type": "Feature", "id": "6yhHY9qqa9VEHMerr7b_bNkwyy8=", "properties": {"ref": "881", "@spider": "adeg", "shop": "supermarket", "addr:street_address": "Tr\u00f6polach 52", "addr:city": "Jenig", "addr:postcode": "9631", "addr:country": "AT", "name": "ADEG FILIPPITSCH", "phone": "+434285254", "website": "https://www.adeg.at/services/maerkte-oeffnungszeiten/adeg-filippitsch", "opening_hours": "Mo-Tu 07:30-18:00; We 07:30-13:00; Th-Fr 07:30-18:00; Sa 07:30-12:00", "brand": "ADEG \u00d6sterreich", "brand:wikidata": "Q290211", "nsi_id": "adeg-1eef1d"}, "geometry": {"type": "Point", "coordinates": [13.281413, 46.614811]}},
{"type": "Feature", "id": "n5nFk4ggdcVw-_KtidgtcXZr2uI=", "properties": {"ref": "888", "@spider": "adeg", "shop": "supermarket", "addr:street_address": "Abfaltersbach 193", "addr:city": "Abfaltersbach", "addr:postcode": "9913", "addr:country": "AT", "name": "ADEG KOFLER", "phone": "+4348465305", "website": "https://www.adeg.at/services/maerkte-oeffnungszeiten/adeg-kofler", "opening_hours": "Mo-Fr 07:00-18:30; Sa 07:00-17:00", "brand": "ADEG \u00d6sterreich", "brand:wikidata": "Q290211", "nsi_id": "adeg-1eef1d"}, "geometry": {"type": "Point", "coordinates": [12.527747, 46.756913]}},
{"type": "Feature", "id": "eRdf1fUt10T2FYgWEmDF_zTSmFs=", "properties": {"ref": "861", "@spider": "adeg", "shop": "supermarket", "addr:street_address": "Nr. 143", "addr:city": "Ausservillgraten", "addr:postcode": "9931", "addr:country": "AT", "name": "ADEG PERFLER", "phone": "+4348435202", "website": "https://www.adeg.at/services/maerkte-oeffnungszeiten/adeg-perfler", "opening_hours": "Mo-Fr 07:45-12:00,15:00-18:00; Sa 07:45-12:00", "brand": "ADEG \u00d6sterreich", "brand:wikidata": "Q290211", "nsi_id": "adeg-1eef1d"}, "geometry": {"type": "Point", "coordinates": [12.4301066, 46.7869747]}},
{"type": "Feature", "id": "xhoZQosOOkBv8Bu6mHMIQFGxmx0=", "properties": {"ref": "783", "@spider": "adeg", "shop": "supermarket", "addr:street_address": "Ardagger Markt 43", "addr:city": "Ardagger Markt", "addr:postcode": "3321", "addr:country": "AT", "name": "ADEG SEBA", "phone": "+4374797268", "website": "https://www.adeg.at/services/maerkte-oeffnungszeiten/adeg-seba", "opening_hours": "Mo-Tu 07:30-12:00,14:00-18:00; We 07:30-12:00; Th-Fr 07:30-12:00,14:00-18:00; Sa 07:30-12:00", "brand": "ADEG \u00d6sterreich", "brand:wikidata": "Q290211", "nsi_id": "adeg-1eef1d"}, "geometry": {"type": "Point", "coordinates": [14.82806, 48.17756]}},
{"type": "Feature", "id": "BT4tzOZO4ISEOzxmAnWBx34zklE=", "properties": {"ref": "862", "@spider": "adeg", "shop": "supermarket", "addr:street_address": "Dorf 66", "addr:city": "Obertilliach", "addr:postcode": "9942", "addr:country": "AT", "name": "ADEG EBNER", "phone": "+4348475238", "website": "https://www.adeg.at/services/maerkte-oeffnungszeiten/adeg-ebner-3", "opening_hours": "Mo-Fr 07:30-12:00,15:00-18:00; Sa 07:30-12:00", "brand": "ADEG \u00d6sterreich", "brand:wikidata": "Q290211", "nsi_id": "adeg-1eef1d"}, "geometry": {"type": "Point", "coordinates": [12.61313, 46.7091]}},
{"type": "Feature", "id": "RxZfMEdylGo0mEMZjRkalNTfRGU=", "properties": {"ref": "773", "@spider": "adeg", "shop": "supermarket", "addr:street_address": "Ramsau 160", "addr:city": "Ramsau", "addr:postcode": "6284", "addr:country": "AT", "name": "ADEG SCHIPFLINGER RAMSAU E.U.", "phone": "+43528221900", "website": "https://www.adeg.at/services/maerkte-oeffnungszeiten/adeg-schipflinger-ramsau-eu", "opening_hours": "Mo-Fr 07:30-19:30; Sa 07:30-18:00", "brand": "ADEG \u00d6sterreich", "brand:wikidata": "Q290211", "nsi_id": "adeg-1eef1d"}, "geometry": {"type": "Point", "coordinates": [11.87316, 47.20943]}},
{"type": "Feature", "id": "GI1BGFK3xXi3skD5OZllH0m_FhE=", "properties": {"ref": "856", "@spider": "adeg", "shop": "supermarket", "addr:street_address": "Noetsch 64", "addr:city": "Noetsch", "addr:postcode": "9611", "addr:country": "AT", "name": "ADEG KOVSCA", "phone": "+434256214311", "website": "https://www.adeg.at/services/maerkte-oeffnungszeiten/adeg-kovsca", "opening_hours": "Mo-Fr 07:30-18:30; Sa 07:00-17:00", "brand": "ADEG \u00d6sterreich", "brand:wikidata": "Q290211", "nsi_id": "adeg-1eef1d"}, "geometry": {"type": "Point", "coordinates": [13.623206, 46.590024]}},
{"type": "Feature", "id": "rNWWsSmKH1S9BeMHqioQ4J7RL2I=", "properties": {"ref": "905", "@spider": "adeg", "shop": "supermarket", "addr:street_address": "Kartitsch Nr. 84 A", "addr:city": "Kartitsch", "addr:postcode": "9941", "addr:country": "AT", "name": "ADEG EBNER", "phone": "+4366475094990", "website": "https://www.adeg.at/services/maerkte-oeffnungszeiten/adeg-ebner-4", "opening_hours": "Mo-Fr 07:30-12:00,15:00-18:00; Sa 07:30-12:00", "brand": "ADEG \u00d6sterreich", "brand:wikidata": "Q290211", "nsi_id": "adeg-1eef1d"}, "geometry": {"type": "Point", "coordinates": [12.49909, 46.72522]}},
{"type": "Feature", "id": "quikyoCFUadb4GMo4ceHwIt7-yQ=", "properties": {"ref": "907", "@spider": "adeg", "shop": "supermarket", "addr:street_address": "Hauptstrasse 39", "addr:city": "Timmersdorf", "addr:postcode": "8772", "addr:country": "AT", "name": "ADEG SATTLER", "phone": "+43383382444", "website": "https://www.adeg.at/services/maerkte-oeffnungszeiten/adeg-sattler-1", "opening_hours": "Mo-Fr 06:30-12:00,15:00-18:00; Sa 06:30-12:00", "brand": "ADEG \u00d6sterreich", "brand:wikidata": "Q290211", "nsi_id": "adeg-1eef1d"}, "geometry": {"type": "Point", "coordinates": [14.96834, 47.37711]}},
{"type": "Feature", "id": "I_Q00zpV4L8gtOFiXNVqrb4VzkE=", "properties": {"ref": "885", "@spider": "adeg", "shop": "supermarket", "addr:street_address": "Dorfstrasse 28", "addr:city": "Lobmingtal", "addr:postcode": "8734", "addr:country": "AT", "name": "ADEG H\u00d6RBINGER", "phone": "+4335162217", "website": "https://www.adeg.at/services/maerkte-oeffnungszeiten/adeg-hoerbinger-3", "opening_hours": "Mo-Tu 07:00-12:00,15:00-18:00; We 07:00-12:00; Th-Fr 07:00-12:00,15:00-18:00; Sa 07:00-12:00", "brand": "ADEG \u00d6sterreich", "brand:wikidata": "Q290211", "nsi_id": "adeg-1eef1d"}, "geometry": {"type": "Point", "coordinates": [14.84699, 47.15034]}},
{"type": "Feature", "id": "58h6tLuEnHEPW2UB3t6kQuBXY1w=", "properties": {"ref": "869", "@spider": "adeg", "shop": "supermarket", "addr:street_address": "Jakobstrasse 10", "addr:city": "Neustadtl", "addr:postcode": "3323", "addr:country": "AT", "name": "ADEG ZEILINGER", "phone": "+4374712227", "website": "https://www.adeg.at/services/maerkte-oeffnungszeiten/adeg-zeilinger", "opening_hours": "Mo-Fr 07:00-18:30; Sa 07:00-13:00", "brand": "ADEG \u00d6sterreich", "brand:wikidata": "Q290211", "nsi_id": "adeg-1eef1d"}, "geometry": {"type": "Point", "coordinates": [14.90431, 48.19319]}},
{"type": "Feature", "id": "9at5nB0RF5UmQmhImAhBl_b1AUM=", "properties": {"ref": "535", "@spider": "adeg", "shop": "supermarket", "addr:street_address": "Reichenfels Nr. 4", "addr:city": "Reichenfels", "addr:postcode": "9463", "addr:country": "AT", "name": "ADEG WOLFSBERG", "phone": "+4343592270", "website": "https://www.adeg.at/services/maerkte-oeffnungszeiten/adeg-wolfsberg-18", "brand": "ADEG \u00d6sterreich", "brand:wikidata": "Q290211", "nsi_id": "adeg-1eef1d"}, "geometry": {"type": "Point", "coordinates": [14.740534, 47.007361]}},
{"type": "Feature", "id": "B5N_dLRhjT5LGa8J4lGk3jZFiN0=", "properties": {"ref": "728", "@spider": "adeg", "shop": "supermarket", "addr:street_address": "Seeblickstrasse 95", "addr:city": "Drobollach", "addr:postcode": "9580", "addr:country": "AT", "name": "ADEG SCHEIBER", "phone": "+43425451600", "website": "https://www.adeg.at/services/maerkte-oeffnungszeiten/adeg-scheiber", "opening_hours": "Mo-Fr 08:00-19:00; Sa 08:00-18:00", "brand": "ADEG \u00d6sterreich", "brand:wikidata": "Q290211", "nsi_id": "adeg-1eef1d"}, "geometry": {"type": "Point", "coordinates": [13.92078, 46.58891]}},
{"type": "Feature", "id": "V01QBUNipAiEy0MszBp-PXeY5F0=", "properties": {"ref": "422", "@spider": "adeg", "shop": "supermarket", "addr:street_address": "Hauptstrasse 34", "addr:city": "Blindenmarkt", "addr:postcode": "3372", "addr:country": "AT", "name": "ADEG BERGER", "phone": "+4374732351", "website": "https://www.adeg.at/services/maerkte-oeffnungszeiten/adeg-berger", "opening_hours": "Mo-Fr 07:00-12:00,15:00-18:00; Sa 07:00-12:00", "brand": "ADEG \u00d6sterreich", "brand:wikidata": "Q290211", "nsi_id": "adeg-1eef1d"}, "geometry": {"type": "Point", "coordinates": [14.98804, 48.12858]}},
{"type": "Feature", "id": "I46XSED8_GpclxSdZiFtHdD3L3Y=", "properties": {"ref": "774", "@spider": "adeg", "shop": "supermarket", "addr:street_address": "Almstrasse 5", "addr:city": "Unterweissenbach", "addr:postcode": "4273", "addr:country": "AT", "name": "ADEG HIMMELBAUER", "phone": "+43795669433", "website": "https://www.adeg.at/services/maerkte-oeffnungszeiten/adeg-himmelbauer", "opening_hours": "Mo-Fr 07:00-18:00; Sa 07:00-17:00", "brand": "ADEG \u00d6sterreich", "brand:wikidata": "Q290211", "nsi_id": "adeg-1eef1d"}, "geometry": {"type": "Point", "coordinates": [14.78, 48.43304]}},
{"type": "Feature", "id": "RhbpXHhhUpcnYqrFlF9qu82Ke7Q=", "properties": {"ref": "655", "@spider": "adeg", "shop": "supermarket", "addr:street_address": "Unterer Platz 2", "addr:city": "Eberstein", "addr:postcode": "9372", "addr:country": "AT", "name": "ADEG EBERSTEIN", "phone": "+43426430125", "website": "https://www.adeg.at/services/maerkte-oeffnungszeiten/adeg-ign", "opening_hours": "Mo 07:00-12:30,14:30-18:00; Tu 07:00-12:30; We-Fr 07:00-12:30,14:30-18:00; Sa 07:00-12:00", "brand": "ADEG \u00d6sterreich", "brand:wikidata": "Q290211", "nsi_id": "adeg-1eef1d"}, "geometry": {"type": "Point", "coordinates": [14.558782, 46.807816]}},
{"type": "Feature", "id": "njrzf3f7UKDWX7cy-MyiQYKdKKo=", "properties": {"ref": "649", "@spider": "adeg", "shop": "supermarket", "addr:street_address": "Oberer Markt 3", "addr:city": "N\u00f6chling", "addr:postcode": "3691", "addr:country": "AT", "name": "ADEG FURTLEHNER", "phone": "+4374147278", "website": "https://www.adeg.at/services/maerkte-oeffnungszeiten/adeg-furtlehner", "opening_hours": "Mo-Fr 07:00-12:00,15:30-18:00; Sa 07:00-12:00", "brand": "ADEG \u00d6sterreich", "brand:wikidata": "Q290211", "nsi_id": "adeg-1eef1d"}, "geometry": {"type": "Point", "coordinates": [14.983, 48.22367]}},
{"type": "Feature", "id": "VnP5C6DM4xlMBJk-qEmw7EIYjwY=", "properties": {"ref": "686", "@spider": "adeg", "shop": "supermarket", "addr:street_address": "Steigtalstrasse 26", "addr:city": "Leoben", "addr:postcode": "8700", "addr:country": "AT", "name": "ADEG KURZMANN", "phone": "+43384226717", "website": "https://www.adeg.at/services/maerkte-oeffnungszeiten/adeg-kurzmann-2", "opening_hours": "Mo-Fr 07:30-18:15; Sa 07:30-12:30", "brand": "ADEG \u00d6sterreich", "brand:wikidata": "Q290211", "nsi_id": "adeg-1eef1d"}, "geometry": {"type": "Point", "coordinates": [15.0991, 47.36008]}},
{"type": "Feature", "id": "bvs0okPH7EYyoEKJdxJHNvcE8ZY=", "properties": {"ref": "779", "@spider": "adeg", "shop": "supermarket", "addr:street_address": "Trabeweg 1", "addr:city": "Ebenthal", "addr:postcode": "9065", "addr:country": "AT", "name": "ADEG ALEXANDER MAIER E.U.", "phone": "+4346372167", "website": "https://www.adeg.at/services/maerkte-oeffnungszeiten/adeg-alexander-maier-eu", "opening_hours": "Mo-Fr 07:00-18:30; Sa 08:00-17:00", "brand": "ADEG \u00d6sterreich", "brand:wikidata": "Q290211", "nsi_id": "adeg-1eef1d"}, "geometry": {"type": "Point", "coordinates": [14.40902, 46.6279]}},
{"type": "Feature", "id": "wOJ4bJgRcY0mcJhXcHsxGa2xRO8=", "properties": {"ref": "593", "@spider": "adeg", "shop": "supermarket", "addr:street_address": "Marktplatz 3", "addr:city": "Poggersdorf", "addr:postcode": "9130", "addr:country": "AT", "name": "ADEG WOLFSBERG", "phone": "+43422481020", "website": "https://www.adeg.at/services/maerkte-oeffnungszeiten/adeg-wolfsberg-22", "brand": "ADEG \u00d6sterreich", "brand:wikidata": "Q290211", "nsi_id": "adeg-1eef1d"}, "geometry": {"type": "Point", "coordinates": [14.45116, 46.64171]}},
{"type": "Feature", "id": "D-YohEokjc8n9tofRW6IFe0ffVw=", "properties": {"ref": "527", "@spider": "adeg", "shop": "supermarket", "addr:street_address": "Weissenbachstrasse 50", "addr:city": "St. Margarethen", "addr:postcode": "9412", "addr:country": "AT", "name": "ADEG WOLFSBERG", "phone": "+43435261216", "website": "https://www.adeg.at/services/maerkte-oeffnungszeiten/adeg-wolfsberg-11", "brand": "ADEG \u00d6sterreich", "brand:wikidata": "Q290211", "nsi_id": "adeg-1eef1d"}, "geometry": {"type": "Point", "coordinates": [14.80424, 46.85503]}},
{"type": "Feature", "id": "SLIIK-vvKSQzuTZmNi4mkL246q0=", "properties": {"ref": "698", "@spider": "adeg", "shop": "supermarket", "addr:street_address": "Miegerer Strasse 150", "addr:city": "Ebenthal", "addr:postcode": "9065", "addr:country": "AT", "name": "ADEG TSCHARRE", "phone": "+4346373175", "website": "https://www.adeg.at/services/maerkte-oeffnungszeiten/adeg-tscharre", "opening_hours": "Mo-Fr 07:15-18:30; Sa 07:15-17:00", "brand": "ADEG \u00d6sterreich", "brand:wikidata": "Q290211", "nsi_id": "adeg-1eef1d"}, "geometry": {"type": "Point", "coordinates": [14.398373, 46.608047]}},
{"type": "Feature", "id": "6q6nM4xyVMr2PToCa6uUvbvl0tQ=", "properties": {"ref": "533", "@spider": "adeg", "shop": "supermarket", "addr:street_address": "Preitenegg Nr. 9", "addr:city": "Preitenegg", "addr:postcode": "9451", "addr:country": "AT", "name": "ADEG WOLFSBERG", "phone": "+4343543103", "website": "https://www.adeg.at/services/maerkte-oeffnungszeiten/adeg-wolfsberg-17", "brand": "ADEG \u00d6sterreich", "brand:wikidata": "Q290211", "nsi_id": "adeg-1eef1d"}, "geometry": {"type": "Point", "coordinates": [14.92563, 46.9385]}},
{"type": "Feature", "id": "Pfo-fGzNIgXtBCEugG6si0DyG2U=", "properties": {"ref": "757", "@spider": "adeg", "shop": "supermarket", "addr:street_address": "Donaustrasse 41", "addr:city": "Marbach", "addr:postcode": "3671", "addr:country": "AT", "name": "ADEG LECHNER", "phone": "+4374136700", "website": "https://www.adeg.at/services/maerkte-oeffnungszeiten/adeg-lechner-2", "opening_hours": "Mo-Fr 05:00-18:00; Sa 07:00-17:00; Su 07:00-13:00", "brand": "ADEG \u00d6sterreich", "brand:wikidata": "Q290211", "nsi_id": "adeg-1eef1d"}, "geometry": {"type": "Point", "coordinates": [15.15381, 48.21428]}},
{"type": "Feature", "id": "ZPma707fIll5NEKX-sIxvBXerPU=", "properties": {"ref": "898", "@spider": "adeg", "shop": "supermarket", "addr:street_address": "Hauptstrasse 27A", "addr:city": "Krummnussbaum", "addr:postcode": "3375", "addr:country": "AT", "name": "ADEG DANIELA KERN E.U.", "phone": "+43275720138", "website": "https://www.adeg.at/services/maerkte-oeffnungszeiten/adeg-daniela-kern-eu", "opening_hours": "Mo-Fr 07:00-13:00,15:00-18:00; Sa 07:00-12:00", "brand": "ADEG \u00d6sterreich", "brand:wikidata": "Q290211", "nsi_id": "adeg-1eef1d"}, "geometry": {"type": "Point", "coordinates": [15.16242, 48.20813]}},
{"type": "Feature", "id": "OhxI8QayuP6-nTHxDGABlDwEd2w=", "properties": {"ref": "854", "@spider": "adeg", "shop": "supermarket", "addr:street_address": "Weissenbachstrasse 1", "addr:city": "Wolfsberg", "addr:postcode": "9400", "addr:country": "AT", "name": "ADEG WOLFSBERG", "phone": "+43435235345", "website": "https://www.adeg.at/services/maerkte-oeffnungszeiten/adeg-wolfsberg-7", "brand": "ADEG \u00d6sterreich", "brand:wikidata": "Q290211", "nsi_id": "adeg-1eef1d"}, "geometry": {"type": "Point", "coordinates": [14.83033, 46.84313]}},
{"type": "Feature", "id": "JUY0FaXmeocogKsFXAtuNS1XL0I=", "properties": {"ref": "528", "@spider": "adeg", "shop": "supermarket", "addr:street_address": "St. Gertraud Nr. 87", "addr:city": "St. Gertraud", "addr:postcode": "9413", "addr:country": "AT", "name": "ADEG WOLFSBERG", "phone": "+43435271607", "website": "https://www.adeg.at/services/maerkte-oeffnungszeiten/adeg-wolfsberg-12", "brand": "ADEG \u00d6sterreich", "brand:wikidata": "Q290211", "nsi_id": "adeg-1eef1d"}, "geometry": {"type": "Point", "coordinates": [14.87637, 46.86838]}},
{"type": "Feature", "id": "GkDxwe0GO4M5haASfBCx9FDH0yI=", "properties": {"ref": "614", "@spider": "adeg", "shop": "supermarket", "addr:street_address": "Johann Offner Strasse 4", "addr:city": "Wolfsberg", "addr:postcode": "9400", "addr:country": "AT", "name": "ADEG WOLFSBERG", "phone": "+43435236373", "website": "https://www.adeg.at/services/maerkte-oeffnungszeiten/adeg-wolfsberg-23", "brand": "ADEG \u00d6sterreich", "brand:wikidata": "Q290211", "nsi_id": "adeg-1eef1d"}, "geometry": {"type": "Point", "coordinates": [14.84549, 46.83873]}},
{"type": "Feature", "id": "3YBYaVuW3ZyFmv1iU4Zy7lqbukA=", "properties": {"ref": "871", "@spider": "adeg", "shop": "supermarket", "addr:street_address": "Dorfplatz 27", "addr:city": "Tainach", "addr:postcode": "9121", "addr:country": "AT", "name": "ADEG WOLFSBERG", "phone": "+4342392631", "website": "https://www.adeg.at/services/maerkte-oeffnungszeiten/adeg-wolfsberg-8", "brand": "ADEG \u00d6sterreich", "brand:wikidata": "Q290211", "nsi_id": "adeg-1eef1d"}, "geometry": {"type": "Point", "coordinates": [14.53967, 46.635442]}},
{"type": "Feature", "id": "K0Is6WSNUyZ65F6F65aRAMbOgSM=", "properties": {"ref": "756", "@spider": "adeg", "shop": "supermarket", "addr:street_address": "Diesendorf 15", "addr:city": "St.Leonhard Am Forst", "addr:postcode": "3243", "addr:country": "AT", "name": "ADEG GRUMB\u00d6CK", "phone": "+4327562129", "website": "https://www.adeg.at/services/maerkte-oeffnungszeiten/adeg-grumboeck", "opening_hours": "Mo-Tu 06:30-13:00,15:00-19:00; We 06:30-13:00; Th-Fr 06:30-13:00,15:00-19:00; Sa 06:30-13:00", "brand": "ADEG \u00d6sterreich", "brand:wikidata": "Q290211", "nsi_id": "adeg-1eef1d"}, "geometry": {"type": "Point", "coordinates": [15.24935, 48.09277]}},
{"type": "Feature", "id": "4Vd4mrACIVcGcBEa7Lw1W8Ib4T8=", "properties": {"ref": "526", "@spider": "adeg", "shop": "supermarket", "addr:street_address": "Klagenfurter-Str. 35", "addr:city": "Wolfsberg", "addr:postcode": "9400", "addr:country": "AT", "name": "ADEG WOLFSBERG", "phone": "+4343523105", "website": "https://www.adeg.at/services/maerkte-oeffnungszeiten/adeg-wolfsberg-10", "brand": "ADEG \u00d6sterreich", "brand:wikidata": "Q290211", "nsi_id": "adeg-1eef1d"}, "geometry": {"type": "Point", "coordinates": [14.83943, 46.82526]}},
{"type": "Feature", "id": "anvNVq1OEY3K9wFZP9KsLhYYOfg=", "properties": {"ref": "525", "@spider": "adeg", "shop": "supermarket", "addr:street_address": "St.Johannerstr. 2", "addr:city": "Wolfsberg", "addr:postcode": "9400", "addr:country": "AT", "name": "ADEG WOLFSBERG", "phone": "+4343523200", "website": "https://www.adeg.at/services/maerkte-oeffnungszeiten/adeg-wolfsberg-9", "brand": "ADEG \u00d6sterreich", "brand:wikidata": "Q290211", "nsi_id": "adeg-1eef1d"}, "geometry": {"type": "Point", "coordinates": [14.84786, 46.8305]}},
{"type": "Feature", "id": "K6uhqK6UOOdNdNFpwSfJmQZz8ok=", "properties": {"ref": "531", "@spider": "adeg", "shop": "supermarket", "addr:street_address": "St.Marein Nr.124", "addr:city": "St.Stefan", "addr:postcode": "9431", "addr:country": "AT", "name": "ADEG WOLFSBERG", "phone": "+43435249172", "website": "https://www.adeg.at/services/maerkte-oeffnungszeiten/adeg-wolfsberg-15", "brand": "ADEG \u00d6sterreich", "brand:wikidata": "Q290211", "nsi_id": "adeg-1eef1d"}, "geometry": {"type": "Point", "coordinates": [14.81882, 46.80803]}},
{"type": "Feature", "id": "_msS800RsFY2Q7OUi0QD6-cLpUs=", "properties": {"ref": "532", "@spider": "adeg", "shop": "supermarket", "addr:street_address": "Hauptstrasse 25", "addr:city": "St. Stefan", "addr:postcode": "9431", "addr:country": "AT", "name": "ADEG WOLFSBERG", "phone": "+43435230025", "website": "https://www.adeg.at/services/maerkte-oeffnungszeiten/adeg-wolfsberg-16", "brand": "ADEG \u00d6sterreich", "brand:wikidata": "Q290211", "nsi_id": "adeg-1eef1d"}, "geometry": {"type": "Point", "coordinates": [14.8491, 46.80744]}},
{"type": "Feature", "id": "HJoT8T0I4iwJeM5f6_VyaBxk1FA=", "properties": {"ref": "852", "@spider": "adeg", "shop": "supermarket", "addr:street_address": "Griffnerstrasse 16", "addr:city": "Voelkermarkt", "addr:postcode": "9100", "addr:country": "AT", "name": "ADEG WOLFSBERG", "phone": "+4342322553", "website": "https://www.adeg.at/services/maerkte-oeffnungszeiten/adeg-wolfsberg", "brand": "ADEG \u00d6sterreich", "brand:wikidata": "Q290211", "nsi_id": "adeg-1eef1d"}, "geometry": {"type": "Point", "coordinates": [14.63742, 46.66261]}},
{"type": "Feature", "id": "0hj0a1S5wAkQv_qMhfM0pCq9_mE=", "properties": {"ref": "643", "@spider": "adeg", "shop": "supermarket", "addr:street_address": "Rudner Strasse 8", "addr:city": "Griffen", "addr:postcode": "9112", "addr:country": "AT", "name": "ADEG WOLFSBERG", "phone": "+4342332444", "website": "https://www.adeg.at/services/maerkte-oeffnungszeiten/adeg-wolfsberg-24", "brand": "ADEG \u00d6sterreich", "brand:wikidata": "Q290211", "nsi_id": "adeg-1eef1d"}, "geometry": {"type": "Point", "coordinates": [14.73188, 46.70379]}},
{"type": "Feature", "id": "akhcuYAo9-2uNIXri1hq7O95U7c=", "properties": {"ref": "666", "@spider": "adeg", "shop": "supermarket", "addr:street_address": "Altendorf 18", "addr:city": "Texing", "addr:postcode": "3242", "addr:country": "AT", "name": "ADEG SCHUSTER", "phone": "+4327557255", "website": "https://www.adeg.at/services/maerkte-oeffnungszeiten/adeg-schuster", "opening_hours": "Mo-Fr 07:00-18:00; Sa 07:00-17:00", "brand": "ADEG \u00d6sterreich", "brand:wikidata": "Q290211", "nsi_id": "adeg-1eef1d"}, "geometry": {"type": "Point", "coordinates": [15.319833, 48.046118]}},
{"type": "Feature", "id": "gl5nF8jv0rB4RU32nhv6sawtyqE=", "properties": {"ref": "847", "@spider": "adeg", "shop": "supermarket", "addr:street_address": "Kirchdorf 19", "addr:city": "Pernegg", "addr:postcode": "8132", "addr:country": "AT", "name": "ADEG FREIDORFER", "phone": "+4338678012", "website": "https://www.adeg.at/services/maerkte-oeffnungszeiten/adeg-freidorfer", "opening_hours": "Mo-Fr 07:00-12:00,15:00-18:00; Sa 07:30-11:00", "brand": "ADEG \u00d6sterreich", "brand:wikidata": "Q290211", "nsi_id": "adeg-1eef1d"}, "geometry": {"type": "Point", "coordinates": [15.3336, 47.36083]}},
{"type": "Feature", "id": "q3JXcQ8hvyGTVcmXHRN6JtDWZN4=", "properties": {"ref": "427", "@spider": "adeg", "shop": "supermarket", "addr:street_address": "Markt 15", "addr:city": "Martinsberg N.Oe.", "addr:postcode": "3664", "addr:country": "AT", "name": "ADEG HOBL", "phone": "+4328746204", "website": "https://www.adeg.at/services/maerkte-oeffnungszeiten/adeg-hobl", "opening_hours": "Mo-We 07:00-12:00,14:00-18:00; Th 07:00-12:00; Fr 07:00-12:00,14:00-18:00; Sa 07:00-12:00", "brand": "ADEG \u00d6sterreich", "brand:wikidata": "Q290211", "nsi_id": "adeg-1eef1d"}, "geometry": {"type": "Point", "coordinates": [15.1502, 48.37526]}},
{"type": "Feature", "id": "0k31kFPG3LUxnQ9T3JWEWGfHSas=", "properties": {"ref": "629", "@spider": "adeg", "shop": "supermarket", "addr:street_address": "Eitweg 32", "addr:city": "Eitweg", "addr:postcode": "9421", "addr:country": "AT", "name": "ADEG WOLFSBERG", "phone": "+4343552146", "website": "https://www.adeg.at/services/maerkte-oeffnungszeiten/adeg-wolfsberg-25", "brand": "ADEG \u00d6sterreich", "brand:wikidata": "Q290211", "nsi_id": "adeg-1eef1d"}, "geometry": {"type": "Point", "coordinates": [14.87849, 46.77341]}},
{"type": "Feature", "id": "C_7rfVbG6gUpxdutXNDQ2deLjFw=", "properties": {"ref": "763", "@spider": "adeg", "shop": "supermarket", "addr:street_address": "St.Primus Nr.10", "addr:city": "St.Veit I.Jauntal", "addr:postcode": "9123", "addr:country": "AT", "name": "ADEG WOLFSBERG", "phone": "+4342392863", "website": "https://www.adeg.at/services/maerkte-oeffnungszeiten/adeg-wolfsberg-3", "brand": "ADEG \u00d6sterreich", "brand:wikidata": "Q290211", "nsi_id": "adeg-1eef1d"}, "geometry": {"type": "Point", "coordinates": [14.564691, 46.576897]}},
{"type": "Feature", "id": "DGd8Wuorj_b6VSWvvgzDBpyDizk=", "properties": {"ref": "529", "@spider": "adeg", "shop": "supermarket", "addr:street_address": "Maria Rojach Nr. 20", "addr:city": "Maria Rojach", "addr:postcode": "9422", "addr:country": "AT", "name": "ADEG WOLFSBERG", "phone": "+4343553200", "website": "https://www.adeg.at/services/maerkte-oeffnungszeiten/adeg-wolfsberg-13", "brand": "ADEG \u00d6sterreich", "brand:wikidata": "Q290211", "nsi_id": "adeg-1eef1d"}, "geometry": {"type": "Point", "coordinates": [14.88159, 46.73558]}},
{"type": "Feature", "id": "zZQlptQy9uw8MDsBneIx2CX6rrw=", "properties": {"ref": "853", "@spider": "adeg", "shop": "supermarket", "addr:street_address": "Obermitterdorf 45", "addr:city": "Ruden", "addr:postcode": "9113", "addr:country": "AT", "name": "ADEG WOLFSBERG", "phone": "+43423424564", "website": "https://www.adeg.at/services/maerkte-oeffnungszeiten/adeg-wolfsberg-1", "brand": "ADEG \u00d6sterreich", "brand:wikidata": "Q290211", "nsi_id": "adeg-1eef1d"}, "geometry": {"type": "Point", "coordinates": [14.77086, 46.65863]}},
{"type": "Feature", "id": "nFQt3xWx-jlMErOapW3TIcJOEWM=", "properties": {"ref": "519", "@spider": "adeg", "shop": "supermarket", "addr:street_address": "Tannenweg 1", "addr:city": "Mittlern", "addr:postcode": "9125", "addr:country": "AT", "name": "ADEG WOLFSBERG", "phone": "+4342326119", "website": "https://www.adeg.at/services/maerkte-oeffnungszeiten/adeg-wolfsberg-4", "brand": "ADEG \u00d6sterreich", "brand:wikidata": "Q290211", "nsi_id": "adeg-1eef1d"}, "geometry": {"type": "Point", "coordinates": [14.71191, 46.60547]}},
{"type": "Feature", "id": "rtU4y-TP51_f1JdoMOLeym9yce0=", "properties": {"ref": "520", "@spider": "adeg", "shop": "supermarket", "addr:street_address": "Sittersdorf 100 B", "addr:city": "Miklauzhof", "addr:postcode": "9133", "addr:country": "AT", "name": "ADEG WOLFSBERG", "phone": "+43423723288", "website": "https://www.adeg.at/services/maerkte-oeffnungszeiten/adeg-wolfsberg-5", "brand": "ADEG \u00d6sterreich", "brand:wikidata": "Q290211", "nsi_id": "adeg-1eef1d"}, "geometry": {"type": "Point", "coordinates": [14.60233, 46.54603]}},
{"type": "Feature", "id": "5YnC4s_7G2S5EdrStdsc1aWbH-Y=", "properties": {"ref": "536", "@spider": "adeg", "shop": "supermarket", "addr:street_address": "Hauptstrasse 41", "addr:city": "St.Paul", "addr:postcode": "9470", "addr:country": "AT", "name": "ADEG WOLFSBERG", "phone": "+4343572207", "website": "https://www.adeg.at/services/maerkte-oeffnungszeiten/adeg-wolfsberg-19", "brand": "ADEG \u00d6sterreich", "brand:wikidata": "Q290211", "nsi_id": "adeg-1eef1d"}, "geometry": {"type": "Point", "coordinates": [14.8683121, 46.7032294]}},
{"type": "Feature", "id": "aSJEHoUhGH0NAG0mxyEReygBk3M=", "properties": {"ref": "866", "@spider": "adeg", "shop": "supermarket", "addr:street_address": "Bahngasse 11", "addr:city": "St. Jakob/Breitenau", "addr:postcode": "8614", "addr:country": "AT", "name": "ADEG STOFLETH", "phone": "+4338665104", "website": "https://www.adeg.at/services/maerkte-oeffnungszeiten/adeg-stofleth", "opening_hours": "Mo-We 08:00-18:00; Th 08:00-12:00; Fr 08:00-18:00; Sa 07:30-12:00", "brand": "ADEG \u00d6sterreich", "brand:wikidata": "Q290211", "nsi_id": "adeg-1eef1d"}, "geometry": {"type": "Point", "coordinates": [15.43104, 47.390491]}},
{"type": "Feature", "id": "Xzs3qjsf9tDQW-hyjV5jMCnbTRM=", "properties": {"ref": "530", "@spider": "adeg", "shop": "supermarket", "addr:street_address": "Hauptstrasse 10", "addr:city": "St.Georgen", "addr:postcode": "9423", "addr:country": "AT", "name": "ADEG WOLFSBERG", "phone": "+4343572137", "website": "https://www.adeg.at/services/maerkte-oeffnungszeiten/adeg-wolfsberg-14", "brand": "ADEG \u00d6sterreich", "brand:wikidata": "Q290211", "nsi_id": "adeg-1eef1d"}, "geometry": {"type": "Point", "coordinates": [14.91542, 46.71695]}},
{"type": "Feature", "id": "xUYAEksa8qMDE-o0d_2lxov4-yE=", "properties": {"ref": "578", "@spider": "adeg", "shop": "supermarket", "addr:street_address": "St. Michael 129", "addr:city": "St. Michael/Bleiburg", "addr:postcode": "9143", "addr:country": "AT", "name": "ADEG WOLFSBERG", "phone": "+43423522118", "website": "https://www.adeg.at/services/maerkte-oeffnungszeiten/adeg-wolfsberg-21", "brand": "ADEG \u00d6sterreich", "brand:wikidata": "Q290211", "nsi_id": "adeg-1eef1d"}, "geometry": {"type": "Point", "coordinates": [14.749109, 46.578776]}},
{"type": "Feature", "id": "JAbFgIPUHuUEavYqjlEYSHlsjf4=", "properties": {"ref": "618", "@spider": "adeg", "shop": "supermarket", "addr:street_address": "Dorfstrasse 20", "addr:city": "Trandorf", "addr:postcode": "3622", "addr:country": "AT", "name": "ADEG FIDLER", "phone": "+436642628546", "website": "https://www.adeg.at/services/maerkte-oeffnungszeiten/adeg-fidler-1", "opening_hours": "Mo-We 07:30-12:00,16:00-18:00; Th 07:30-12:00; Fr 07:30-12:00,16:00-18:00; Sa 07:30-12:00", "brand": "ADEG \u00d6sterreich", "brand:wikidata": "Q290211", "nsi_id": "adeg-1eef1d"}, "geometry": {"type": "Point", "coordinates": [15.31095, 48.35796]}},
{"type": "Feature", "id": "tnIP6f91QiO2OX5blHOw91KuCb4=", "properties": {"ref": "608", "@spider": "adeg", "shop": "supermarket", "addr:street_address": "Packerstrasse 160", "addr:city": "S\u00f6ding", "addr:postcode": "8561", "addr:country": "AT", "name": "ADEG KURZMANN", "phone": "+4331376144", "website": "https://www.adeg.at/services/maerkte-oeffnungszeiten/adeg-kurzmann-1", "opening_hours": "Mo-Fr 07:30-19:00; Sa 07:30-17:30", "brand": "ADEG \u00d6sterreich", "brand:wikidata": "Q290211", "nsi_id": "adeg-1eef1d"}, "geometry": {"type": "Point", "coordinates": [15.268187, 47.003657]}},
{"type": "Feature", "id": "S1FHOvqqSr7VU6lD7ei95aormrw=", "properties": {"ref": "696", "@spider": "adeg", "shop": "supermarket", "addr:street_address": "Raiffeisenplatz 3", "addr:city": "Bischofstetten", "addr:postcode": "3232", "addr:country": "AT", "name": "ADEG ATAN", "phone": "+436606816012", "website": "https://www.adeg.at/services/maerkte-oeffnungszeiten/adeg-atan", "opening_hours": "Mo-Fr 06:00-18:00; Sa 07:00-13:00", "brand": "ADEG \u00d6sterreich", "brand:wikidata": "Q290211", "nsi_id": "adeg-1eef1d"}, "geometry": {"type": "Point", "coordinates": [15.46938, 48.12347]}},
{"type": "Feature", "id": "0xOTH7PXlLarzRUGr_IsKoWbA2I=", "properties": {"ref": "521", "@spider": "adeg", "shop": "supermarket", "addr:street_address": "Neuhaus 6", "addr:city": "Neuhaus", "addr:postcode": "9155", "addr:country": "AT", "name": "ADEG WOLFSBERG", "phone": "+4343562033", "website": "https://www.adeg.at/services/maerkte-oeffnungszeiten/adeg-wolfsberg-6", "brand": "ADEG \u00d6sterreich", "brand:wikidata": "Q290211", "nsi_id": "adeg-1eef1d"}, "geometry": {"type": "Point", "coordinates": [14.88701, 46.64238]}},
{"type": "Feature", "id": "REJ8PCprBDfPprkxkI_j1r2e32Q=", "properties": {"ref": "538", "@spider": "adeg", "shop": "supermarket", "addr:street_address": "Ettendorf Nr. 3", "addr:city": "Ettendorf", "addr:postcode": "9472", "addr:country": "AT", "name": "ADEG WOLFSBERG", "phone": "+4343568103", "website": "https://www.adeg.at/services/maerkte-oeffnungszeiten/adeg-wolfsberg-20", "brand": "ADEG \u00d6sterreich", "brand:wikidata": "Q290211", "nsi_id": "adeg-1eef1d"}, "geometry": {"type": "Point", "coordinates": [14.94852, 46.67161]}},
{"type": "Feature", "id": "mr_69n-LyFcI7dKkIOkeaaOdzKo=", "properties": {"ref": "426", "@spider": "adeg", "shop": "supermarket", "addr:street_address": "Markt 4", "addr:city": "Muehldorf", "addr:postcode": "3622", "addr:country": "AT", "name": "ADEG FIDLER", "phone": "+4327138242", "website": "https://www.adeg.at/services/maerkte-oeffnungszeiten/adeg-fidler", "opening_hours": "Mo-Fr 06:30-18:00; Sa 06:30-12:00", "brand": "ADEG \u00d6sterreich", "brand:wikidata": "Q290211", "nsi_id": "adeg-1eef1d"}, "geometry": {"type": "Point", "coordinates": [15.34821, 48.37293]}},
{"type": "Feature", "id": "Rqp7IYsWdjCSeEDSzc5XwBIC2q0=", "properties": {"ref": "855", "@spider": "adeg", "shop": "supermarket", "addr:street_address": "Lavamuend Nr. 18/19", "addr:city": "Lavamuend", "addr:postcode": "9473", "addr:country": "AT", "name": "ADEG WOLFSBERG", "phone": "+43435621113", "website": "https://www.adeg.at/services/maerkte-oeffnungszeiten/adeg-wolfsberg-2", "brand": "ADEG \u00d6sterreich", "brand:wikidata": "Q290211", "nsi_id": "adeg-1eef1d"}, "geometry": {"type": "Point", "coordinates": [14.94144, 46.6418]}},
{"type": "Feature", "id": "RwPBLrIMjjcMgyyFN93eyUgVwTk=", "properties": {"ref": "602", "@spider": "adeg", "shop": "supermarket", "addr:street_address": "Markt 17", "addr:city": "Passail", "addr:postcode": "8162", "addr:country": "AT", "name": "ADEG REISINGER", "phone": "+43317923301", "website": "https://www.adeg.at/services/maerkte-oeffnungszeiten/adeg-reisinger", "opening_hours": "Mo-Fr 07:00-18:30; Sa 07:00-17:00", "brand": "ADEG \u00d6sterreich", "brand:wikidata": "Q290211", "nsi_id": "adeg-1eef1d"}, "geometry": {"type": "Point", "coordinates": [15.51436, 47.28223]}},
{"type": "Feature", "id": "sfpZL-Bi_Y0StJnBBUeXdPLHUrI=", "properties": {"ref": "737", "@spider": "adeg", "shop": "supermarket", "addr:street_address": "Mariazellerstrasse 4", "addr:city": "Weinburg", "addr:postcode": "3205", "addr:country": "AT", "name": "ADEG WEINBURG", "phone": "+436642174846", "website": "https://www.adeg.at/services/maerkte-oeffnungszeiten/adeg-weinburg", "opening_hours": "Mo-We 06:30-12:30,15:00-18:00; Th 06:30-12:30; Fr 06:30-12:30,15:00-18:00; Sa 07:00-13:00", "brand": "ADEG \u00d6sterreich", "brand:wikidata": "Q290211", "nsi_id": "adeg-1eef1d"}, "geometry": {"type": "Point", "coordinates": [15.53532, 48.1158]}},
{"type": "Feature", "id": "shtE9YeEzAbla1s13IV50vnfG7c=", "properties": {"ref": "765", "@spider": "adeg", "shop": "supermarket", "addr:street_address": "Grazer Strasse 1", "addr:city": "Stainz", "addr:postcode": "8510", "addr:country": "AT", "name": "ADEG HUBMANN", "phone": "+4334632106", "website": "https://www.adeg.at/services/maerkte-oeffnungszeiten/adeg-hubmann-2", "opening_hours": "Mo-Fr 08:00-18:30; Sa 08:00-17:00", "brand": "ADEG \u00d6sterreich", "brand:wikidata": "Q290211", "nsi_id": "adeg-1eef1d"}, "geometry": {"type": "Point", "coordinates": [15.26408, 46.89416]}},
{"type": "Feature", "id": "_pKWh5bJhLM-2HRC81YfPd1iq_s=", "properties": {"ref": "899", "@spider": "adeg", "shop": "supermarket", "addr:street_address": " Breitenauerstrasse 5", "addr:city": "Gasen", "addr:postcode": "8616", "addr:country": "AT", "name": "ADEG UNTERBERGER-WURM", "phone": "+43", "website": "https://www.adeg.at/services/maerkte-oeffnungszeiten/adeg-unterberger-wurm-handels-og", "opening_hours": "Mo-We 07:00-12:00,15:00-18:00; Th 07:00-12:00; Fr 07:00-12:00,15:00-18:00; Sa 07:00-12:00", "brand": "ADEG \u00d6sterreich", "brand:wikidata": "Q290211", "nsi_id": "adeg-1eef1d"}, "geometry": {"type": "Point", "coordinates": [15.57108, 47.38355]}},
{"type": "Feature", "id": "zhG-fNPG2Ca8osVbLRBIyVrJ2jU=", "properties": {"ref": "413", "@spider": "adeg", "shop": "supermarket", "addr:street_address": "Markt 9", "addr:city": "Hohenberg", "addr:postcode": "3192", "addr:country": "AT", "name": "ADEG KASSES", "phone": "+43276771159", "website": "https://www.adeg.at/services/maerkte-oeffnungszeiten/adeg-kasses", "opening_hours": "Mo-Tu 07:00-12:30,15:00-18:00; We 07:00-12:30; Th-Fr 07:00-12:30,15:00-18:00; Sa 07:00-12:30", "brand": "ADEG \u00d6sterreich", "brand:wikidata": "Q290211", "nsi_id": "adeg-1eef1d"}, "geometry": {"type": "Point", "coordinates": [15.61943, 47.9094]}},
{"type": "Feature", "id": "8c0q70YYWD25LkBkZv0KIDJJ_pY=", "properties": {"ref": "605", "@spider": "adeg", "shop": "supermarket", "addr:street_address": "Gerersd. Hauptstrasse 23", "addr:city": "Gerersdorf", "addr:postcode": "3385", "addr:country": "AT", "name": "ADEG MAROSI", "phone": "+4327492618", "website": "https://www.adeg.at/services/maerkte-oeffnungszeiten/adeg-marosi", "opening_hours": "Mo 06:30-12:00,15:30-18:00; Tu 06:30-12:00; We-Fr 06:30-12:00,15:30-18:00; Sa 06:30-12:00", "brand": "ADEG \u00d6sterreich", "brand:wikidata": "Q290211", "nsi_id": "adeg-1eef1d"}, "geometry": {"type": "Point", "coordinates": [15.5549, 48.19896]}},
{"type": "Feature", "id": "fNPlV0OIMiANQMXmpf4pmEIISNY=", "properties": {"ref": "630", "@spider": "adeg", "shop": "supermarket", "addr:street_address": "Fischbach 30A", "addr:city": "Fischbach", "addr:postcode": "8654", "addr:country": "AT", "name": "ADEG FISCHBACH", "phone": "+4366488992573", "website": "https://www.adeg.at/services/maerkte-oeffnungszeiten/adeg-fischbach", "opening_hours": "Mo-We 07:30-12:30,15:00-18:00; Th-Fr 07:30-18:00; Sa 07:30-12:30", "brand": "ADEG \u00d6sterreich", "brand:wikidata": "Q290211", "nsi_id": "adeg-1eef1d"}, "geometry": {"type": "Point", "coordinates": [15.64696, 47.443349]}},
{"type": "Feature", "id": "OpZNp5aoR7Nvl09jrBYJvKRYZfE=", "properties": {"ref": "846", "@spider": "adeg", "shop": "supermarket", "addr:street_address": "Am Platz 1", "addr:city": "Kumberg", "addr:postcode": "8062", "addr:country": "AT", "name": "ADEG LODER", "phone": "+4331322302", "website": "https://www.adeg.at/services/maerkte-oeffnungszeiten/adeg-loder", "opening_hours": "Mo-Fr 07:30-18:30; Sa 07:30-17:00", "brand": "ADEG \u00d6sterreich", "brand:wikidata": "Q290211", "nsi_id": "adeg-1eef1d"}, "geometry": {"type": "Point", "coordinates": [15.533627, 47.159866]}},
{"type": "Feature", "id": "Ia60yZLSxe5q86i92WVIXspNsao=", "properties": {"ref": "663", "@spider": "adeg", "shop": "supermarket", "addr:street_address": "Weizerstrasse 7", "addr:city": "Weinitzen", "addr:postcode": "8044", "addr:country": "AT", "name": "ADEG MEINHART", "phone": "+4331322437", "website": "https://www.adeg.at/services/maerkte-oeffnungszeiten/adeg-meinhart", "opening_hours": "Mo-Fr 07:00-18:30; Sa 07:00-13:00", "brand": "ADEG \u00d6sterreich", "brand:wikidata": "Q290211", "nsi_id": "adeg-1eef1d"}, "geometry": {"type": "Point", "coordinates": [15.523969, 47.138874]}},
{"type": "Feature", "id": "tDjPXd1SQ9rZxsWue4UU9grD3Xo=", "properties": {"ref": "640", "@spider": "adeg", "shop": "supermarket", "addr:street_address": "St. P\u00f6ltnerstrasse 7", "addr:city": "Karlstetten", "addr:postcode": "3121", "addr:country": "AT", "name": "MAROSI ERNA FIL.", "phone": "+4327418005", "website": "https://www.adeg.at/services/maerkte-oeffnungszeiten/adeg-marosi-1", "opening_hours": "Mo-Fr 06:30-18:30; Sa 06:30-13:00", "brand": "ADEG \u00d6sterreich", "brand:wikidata": "Q290211", "nsi_id": "adeg-1eef1d"}, "geometry": {"type": "Point", "coordinates": [15.571785, 48.257002]}},
{"type": "Feature", "id": "b_nkxozAhQ6vfhrUf-fbCz6yXH4=", "properties": {"ref": "508", "@spider": "adeg", "shop": "supermarket", "addr:street_address": "Kirchenviertel 84", "addr:city": "Ratten", "addr:postcode": "8673", "addr:country": "AT", "name": "ADEG DAMPFHOFER", "phone": "+4331732306", "website": "https://www.adeg.at/services/maerkte-oeffnungszeiten/adeg-dampfhofer", "opening_hours": "Mo-Fr 07:30-12:30,15:00-18:30; Sa 07:30-12:00", "brand": "ADEG \u00d6sterreich", "brand:wikidata": "Q290211", "nsi_id": "adeg-1eef1d"}, "geometry": {"type": "Point", "coordinates": [15.720217, 47.482881]}},
{"type": "Feature", "id": "_FpC_g453wuBvFhVpoSt54Kj73U=", "properties": {"ref": "760", "@spider": "adeg", "shop": "supermarket", "addr:street_address": "Hauptstrasse 62", "addr:city": "Eggersdorf", "addr:postcode": "8063", "addr:country": "AT", "name": "ADEG LODER", "phone": "+4331173680", "website": "https://www.adeg.at/services/maerkte-oeffnungszeiten/adeg-loder-1", "opening_hours": "Mo-Fr 07:30-18:30; Sa 07:30-17:00", "brand": "ADEG \u00d6sterreich", "brand:wikidata": "Q290211", "nsi_id": "adeg-1eef1d"}, "geometry": {"type": "Point", "coordinates": [15.598039, 47.123155]}},
{"type": "Feature", "id": "MN3hVzGSi6oqqfhEyfuhPC-zJes=", "properties": {"ref": "498", "@spider": "adeg", "shop": "supermarket", "addr:street_address": "Strallegg 116", "addr:city": "Strallegg", "addr:postcode": "8192", "addr:country": "AT", "name": "ADEG RIEGLER", "phone": "+4331742224", "website": "https://www.adeg.at/services/maerkte-oeffnungszeiten/adeg-riegler", "opening_hours": "Mo-Fr 07:15-12:30,14:30-18:00; Sa 07:15-12:30,14:30-17:00", "brand": "ADEG \u00d6sterreich", "brand:wikidata": "Q290211", "nsi_id": "adeg-1eef1d"}, "geometry": {"type": "Point", "coordinates": [15.7239189, 47.4111034]}},
{"type": "Feature", "id": "vMSrawrfcqgDmer6LlDObiKyMLA=", "properties": {"ref": "412", "@spider": "adeg", "shop": "supermarket", "addr:street_address": "Hauptstrasse 3", "addr:city": "Pyhra", "addr:postcode": "3143", "addr:country": "AT", "name": "ADEG NEUWIRTH", "phone": "+4327452581", "website": "https://www.adeg.at/services/maerkte-oeffnungszeiten/adeg-neuwirth", "opening_hours": "Mo-Fr 07:00-19:00; Sa 07:00-18:00", "brand": "ADEG \u00d6sterreich", "brand:wikidata": "Q290211", "nsi_id": "adeg-1eef1d"}, "geometry": {"type": "Point", "coordinates": [15.684476, 48.160111]}},
{"type": "Feature", "id": "y5UQWVYr2vNvFy2RUBRvM-DKlCI=", "properties": {"ref": "874", "@spider": "adeg", "shop": "supermarket", "addr:street_address": "Obere Hauptstrasse 41", "addr:city": "St.Ruprecht A.D. Raab", "addr:postcode": "8181", "addr:country": "AT", "name": "ADEG ROSENBERGER", "phone": "+4331782920", "website": "https://www.adeg.at/services/maerkte-oeffnungszeiten/adeg-rosenberger", "opening_hours": "Mo-Fr 07:00-12:30,14:30-18:30; Sa 07:00-13:00", "brand": "ADEG \u00d6sterreich", "brand:wikidata": "Q290211", "nsi_id": "adeg-1eef1d"}, "geometry": {"type": "Point", "coordinates": [15.661854, 47.155192]}},
{"type": "Feature", "id": "oFgVWn6CG7dnw1-XXrAlFGJ4YPM=", "properties": {"ref": "863", "@spider": "adeg", "shop": "supermarket", "addr:street_address": "Hauptstrasse 44", "addr:city": "Hainfeld", "addr:postcode": "3170", "addr:country": "AT", "name": "ADEG REITHOFER", "phone": "+4327642440", "website": "https://www.adeg.at/services/maerkte-oeffnungszeiten/adeg-reithofer", "opening_hours": "Mo-Th 07:00-19:00; Fr 07:00-19:30; Sa 07:00-17:00", "brand": "ADEG \u00d6sterreich", "brand:wikidata": "Q290211", "nsi_id": "adeg-1eef1d"}, "geometry": {"type": "Point", "coordinates": [15.7685459, 48.0369014]}},
{"type": "Feature", "id": "fSrELA3908qdm_MXbEsw4V4Bo1Y=", "properties": {"ref": "570", "@spider": "adeg", "shop": "supermarket", "addr:street_address": "Lambert Karnerstr. 517", "addr:city": "Furth-G\u00f6ttweig", "addr:postcode": "3511", "addr:country": "AT", "name": "ADEG NEUWIRTH", "phone": "+43273281173", "website": "https://www.adeg.at/services/maerkte-oeffnungszeiten/adeg-neuwirth-1", "opening_hours": "Mo-Fr 07:15-19:00; Sa 07:15-18:00", "brand": "ADEG \u00d6sterreich", "brand:wikidata": "Q290211", "nsi_id": "adeg-1eef1d"}, "geometry": {"type": "Point", "coordinates": [15.6102726, 48.3799384]}},
{"type": "Feature", "id": "cZGZtRz_qLByPiklo8-R0KvYsFs=", "properties": {"ref": "741", "@spider": "adeg", "shop": "supermarket", "addr:street_address": "Markt 40", "addr:city": "Michelbach", "addr:postcode": "3074", "addr:country": "AT", "name": "ADEG HEIDEMARIE SCHAGERL", "phone": "+43274420183", "website": "https://www.adeg.at/services/maerkte-oeffnungszeiten/adeg-heidemarie-schagerl", "opening_hours": "Mo-Tu 06:00-12:00,16:00-18:00; We 06:00-12:00; Th 06:00-12:00,16:00-18:00; Fr 06:00-18:00; Sa 06:00-12:00", "brand": "ADEG \u00d6sterreich", "brand:wikidata": "Q290211", "nsi_id": "adeg-1eef1d"}, "geometry": {"type": "Point", "coordinates": [15.76059, 48.1002]}},
{"type": "Feature", "id": "IqoC7pXvQtEI8M4tjhw4b5nEHto=", "properties": {"ref": "495", "@spider": "adeg", "shop": "supermarket", "addr:street_address": "Marktplatz 1", "addr:city": "Heiligenkreuz Am Waasen", "addr:postcode": "8081", "addr:country": "AT", "name": "ADEG KURZMANN", "phone": "+4331343555", "website": "https://www.adeg.at/services/maerkte-oeffnungszeiten/adeg-kurzmann", "opening_hours": "Mo-Fr 07:00-18:45; Sa 07:00-17:00", "brand": "ADEG \u00d6sterreich", "brand:wikidata": "Q290211", "nsi_id": "adeg-1eef1d"}, "geometry": {"type": "Point", "coordinates": [15.58707, 46.95482]}},
{"type": "Feature", "id": "tb08MUvEW8tsHU6dcGRTmEVQVCk=", "properties": {"ref": "406", "@spider": "adeg", "shop": "supermarket", "addr:street_address": "Hauptstrasse 67", "addr:city": "Schottwien", "addr:postcode": "2641", "addr:country": "AT", "name": "ADEG OBERFEICHTNER", "phone": "+43266320031", "website": "https://www.adeg.at/services/maerkte-oeffnungszeiten/adeg-oberfeichtner", "opening_hours": "Mo-We 06:00-13:30; Th-Fr 06:00-13:30,16:00-18:00; Sa 06:00-12:00", "brand": "ADEG \u00d6sterreich", "brand:wikidata": "Q290211", "nsi_id": "adeg-1eef1d"}, "geometry": {"type": "Point", "coordinates": [15.869746, 47.651716]}},
{"type": "Feature", "id": "fQYQqcvCsG86JOdVtkKEjXvkojs=", "properties": {"ref": "848", "@spider": "adeg", "shop": "supermarket", "addr:street_address": "Hauptplatz 8", "addr:city": "Gleisdorf", "addr:postcode": "8200", "addr:country": "AT", "name": "ADEG M\u00d6RATH", "phone": "+4331122167", "website": "https://www.adeg.at/services/maerkte-oeffnungszeiten/adeg-moerath", "opening_hours": "Mo-Fr 07:45-18:00; Sa 07:30-12:15", "brand": "ADEG \u00d6sterreich", "brand:wikidata": "Q290211", "nsi_id": "adeg-1eef1d"}, "geometry": {"type": "Point", "coordinates": [15.71069, 47.10608]}},
{"type": "Feature", "id": "bmZ6ZPAKWzTEcLrfTxhmzje3r3s=", "properties": {"ref": "576", "@spider": "adeg", "shop": "supermarket", "addr:street_address": "Obersaifen 251", "addr:city": "P\u00f6llau", "addr:postcode": "8225", "addr:country": "AT", "name": "ADEG GRABNER", "phone": "+4333354804", "website": "https://www.adeg.at/services/maerkte-oeffnungszeiten/adeg-grabner-3", "opening_hours": "Mo-Fr 06:30-18:30; Sa 07:00-17:30", "brand": "ADEG \u00d6sterreich", "brand:wikidata": "Q290211", "nsi_id": "adeg-1eef1d"}, "geometry": {"type": "Point", "coordinates": [15.826297, 47.311803]}},
{"type": "Feature", "id": "MqiNDcQXghpKSTaIX-QdyO3v4tQ=", "properties": {"ref": "849", "@spider": "adeg", "shop": "supermarket", "addr:street_address": "Stubenberg Am See 211", "addr:city": "Stubenberg Am See", "addr:postcode": "8223", "addr:country": "AT", "name": "ADEG KOGLER", "phone": "+4331768050", "website": "https://www.adeg.at/services/maerkte-oeffnungszeiten/adeg-kogler-1", "opening_hours": "Mo-Fr 07:00-19:00; Sa 07:00-17:00", "brand": "ADEG \u00d6sterreich", "brand:wikidata": "Q290211", "nsi_id": "adeg-1eef1d"}, "geometry": {"type": "Point", "coordinates": [15.79715, 47.23843]}},
{"type": "Feature", "id": "r_7a5W0Jdadb9CyvNi5pzkvq3oQ=", "properties": {"ref": "654", "@spider": "adeg", "shop": "supermarket", "addr:street_address": "Ziegelofengasse 259", "addr:city": "P\u00f6llau", "addr:postcode": "8225", "addr:country": "AT", "name": "ADEG GRABNER", "phone": "+43333502063", "website": "https://www.adeg.at/services/maerkte-oeffnungszeiten/adeg-grabner-4", "opening_hours": "Mo-Fr 07:00-18:00; Sa 07:00-13:00", "brand": "ADEG \u00d6sterreich", "brand:wikidata": "Q290211", "nsi_id": "adeg-1eef1d"}, "geometry": {"type": "Point", "coordinates": [15.832065, 47.301404]}},
{"type": "Feature", "id": "oQWcnIodz9V8FmCNlEjGF85Q5ik=", "properties": {"ref": "568", "@spider": "adeg", "shop": "supermarket", "addr:street_address": "Vorau 425", "addr:city": "Vorau", "addr:postcode": "8250", "addr:country": "AT", "name": "ADEG KOGLER", "phone": "+4333374100", "website": "https://www.adeg.at/services/maerkte-oeffnungszeiten/adeg-kogler-3", "opening_hours": "Mo-Fr 07:00-18:30; Sa 07:00-17:00", "brand": "ADEG \u00d6sterreich", "brand:wikidata": "Q290211", "nsi_id": "adeg-1eef1d"}, "geometry": {"type": "Point", "coordinates": [15.8860494, 47.4060861]}},
{"type": "Feature", "id": "MLP5GP5pfUDyWRLBJrTHIr82yqY=", "properties": {"ref": "651", "@spider": "adeg", "shop": "supermarket", "addr:street_address": "Fernpassstrasse 12", "addr:city": "Nassereith", "addr:postcode": "6465", "addr:country": "AT", "name": "ADEG LARCHER", "phone": "+43526520060", "website": "https://www.adeg.at/services/maerkte-oeffnungszeiten/adeg-larcher", "opening_hours": "Mo-Fr 07:30-12:30,14:30-18:00; Sa 07:30-12:30", "brand": "ADEG \u00d6sterreich", "brand:wikidata": "Q290211", "nsi_id": "adeg-1eef1d"}, "geometry": {"type": "Point", "coordinates": [10.831828, 47.317837]}},
{"type": "Feature", "id": "Odmmz6SGL6FbGyunAoNcEC3REKk=", "properties": {"ref": "758", "@spider": "adeg", "shop": "supermarket", "addr:street_address": "Heidenreichsteinerst.3A", "addr:city": "Kautzen", "addr:postcode": "3851", "addr:country": "AT", "name": "ADEG KAINZ", "phone": "+4328642253", "website": "https://www.adeg.at/services/maerkte-oeffnungszeiten/adeg-kainz", "opening_hours": "Mo 06:30-12:00; Tu-Fr 06:30-12:00,14:00-18:00; Sa 06:30-12:00", "brand": "ADEG \u00d6sterreich", "brand:wikidata": "Q290211", "nsi_id": "adeg-1eef1d"}, "geometry": {"type": "Point", "coordinates": [15.238512, 48.930017]}},
{"type": "Feature", "id": "Idb6V4aM9qZKKisdV0s_XIjXSsc=", "properties": {"ref": "672", "@spider": "adeg", "shop": "supermarket", "addr:street_address": "Kirchplatz 8", "addr:city": "Roppen", "addr:postcode": "6426", "addr:country": "AT", "name": "ADEG SEELOS", "phone": "+43541751014", "website": "https://www.adeg.at/services/maerkte-oeffnungszeiten/adeg-seelos", "opening_hours": "Mo-Tu 07:30-12:30,14:30-18:00; We 07:30-12:30; Th-Fr 07:30-12:30,14:30-18:00; Sa 07:30-12:30", "brand": "ADEG \u00d6sterreich", "brand:wikidata": "Q290211", "nsi_id": "adeg-1eef1d"}, "geometry": {"type": "Point", "coordinates": [10.82081, 47.21766]}},
{"type": "Feature", "id": "V5JD9xkopI04J8safMMv_R6kk6M=", "properties": {"ref": "755", "@spider": "adeg", "shop": "supermarket", "addr:street_address": "Hauptstrasse 59", "addr:city": "Innermanzing", "addr:postcode": "3052", "addr:country": "AT", "name": "ADEG PILLER", "phone": "+4327742204", "website": "https://www.adeg.at/services/maerkte-oeffnungszeiten/adeg-piller", "opening_hours": "Mo-Fr 06:00-18:00; Sa 06:00-13:00", "brand": "ADEG \u00d6sterreich", "brand:wikidata": "Q290211", "nsi_id": "adeg-1eef1d"}, "geometry": {"type": "Point", "coordinates": [15.914263, 48.133575]}},
{"type": "Feature", "id": "cyWiOOR8xzjOJCFzxOzpDSrJUYQ=", "properties": {"ref": "778", "@spider": "adeg", "shop": "supermarket", "addr:street_address": "Gersdorf 171", "addr:city": "Gersdorf A. D. Feistritz", "addr:postcode": "8212", "addr:country": "AT", "name": "ADEG KOGLER", "phone": "+43", "website": "https://www.adeg.at/services/maerkte-oeffnungszeiten/adeg-kogler-6", "opening_hours": "Mo-Fr 06:00-18:30; Sa 07:30-16:00", "brand": "ADEG \u00d6sterreich", "brand:wikidata": "Q290211", "nsi_id": "adeg-1eef1d"}, "geometry": {"type": "Point", "coordinates": [15.84818, 47.15906]}},
{"type": "Feature", "id": "XI5hriV_9V5JgybQhJVm4ffjgQ0=", "properties": {"ref": "753", "@spider": "adeg", "shop": "supermarket", "addr:street_address": "Ehrenberger Str.2", "addr:city": "Reutte", "addr:postcode": "6600", "addr:country": "AT", "name": "ADEG PFAUNDLER", "phone": "+43567262201", "website": "https://www.adeg.at/services/maerkte-oeffnungszeiten/adeg-pfaundler", "opening_hours": "Mo-Fr 08:00-18:30; Sa 08:00-12:30", "brand": "ADEG \u00d6sterreich", "brand:wikidata": "Q290211", "nsi_id": "adeg-1eef1d"}, "geometry": {"type": "Point", "coordinates": [10.72115, 47.48411]}},
{"type": "Feature", "id": "FoLZCKCArvywxfl_hr78fTkDGKE=", "properties": {"ref": "767", "@spider": "adeg", "shop": "supermarket", "addr:street_address": "Hauptstrasse 21", "addr:city": "Karlstein", "addr:postcode": "3822", "addr:country": "AT", "name": "ADEG STUMVOLL", "phone": "+432844229", "website": "https://www.adeg.at/services/maerkte-oeffnungszeiten/adeg-stumvoll", "opening_hours": "Mo 06:30-13:00,14:00-18:00; Tu 06:30-13:00; We-Fr 06:30-13:00,14:00-18:00; Sa 06:30-12:00", "brand": "ADEG \u00d6sterreich", "brand:wikidata": "Q290211", "nsi_id": "adeg-1eef1d"}, "geometry": {"type": "Point", "coordinates": [15.40306, 48.88371]}},
{"type": "Feature", "id": "k6U1Elv4_OxPu7NRnBF5xNjzV7A=", "properties": {"ref": "425", "@spider": "adeg", "shop": "supermarket", "addr:street_address": "Bgm.Haferl-G. 2", "addr:city": "Atzenbrugg", "addr:postcode": "3452", "addr:country": "AT", "name": "ADEG HAFERL", "phone": "+4322755364", "website": "https://www.adeg.at/services/maerkte-oeffnungszeiten/adeg-haferl", "opening_hours": "Mo-Fr 06:45-18:30; Sa 06:45-12:30", "brand": "ADEG \u00d6sterreich", "brand:wikidata": "Q290211", "nsi_id": "adeg-1eef1d"}, "geometry": {"type": "Point", "coordinates": [15.90338, 48.29291]}},
{"type": "Feature", "id": "cH3Kie7hTf94FR0IidA97LR2PwQ=", "properties": {"ref": "503", "@spider": "adeg", "shop": "supermarket", "addr:street_address": "Masenbergstrasse 182", "addr:city": "Grafendorf", "addr:postcode": "8232", "addr:country": "AT", "name": "ADEG KOGLER", "phone": "+43333820200", "website": "https://www.adeg.at/services/maerkte-oeffnungszeiten/adeg-kogler-2", "opening_hours": "Mo-Fr 06:30-18:30; Sa 07:00-17:00", "brand": "ADEG \u00d6sterreich", "brand:wikidata": "Q290211", "nsi_id": "adeg-1eef1d"}, "geometry": {"type": "Point", "coordinates": [15.989588, 47.3331456]}},
{"type": "Feature", "id": "bobPJLrqOij5jCgaJ5N5BsBTh7k=", "properties": {"ref": "613", "@spider": "adeg", "shop": "supermarket", "addr:street_address": "Dechantskirchen 28", "addr:city": "Dechantskirchen", "addr:postcode": "8241", "addr:country": "AT", "name": "ADEG KOGLER", "phone": "+43333922757", "website": "https://www.adeg.at/services/maerkte-oeffnungszeiten/adeg-kogler-4", "opening_hours": "Mo-Fr 06:30-12:00,15:00-18:30; Sa 06:30-12:30", "brand": "ADEG \u00d6sterreich", "brand:wikidata": "Q290211", "nsi_id": "adeg-1eef1d"}, "geometry": {"type": "Point", "coordinates": [16.019671, 47.415459]}},
{"type": "Feature", "id": "2QheIoInSfVBwzpWdti_tU-_eek=", "properties": {"ref": "405", "@spider": "adeg", "shop": "supermarket", "addr:street_address": "Hauptstrasse 6", "addr:city": "Weissenbach", "addr:postcode": "2564", "addr:country": "AT", "name": "ADEG GRABNER", "phone": "+43267487235", "website": "https://www.adeg.at/services/maerkte-oeffnungszeiten/adeg-grabner-1", "opening_hours": "Mo-Fr 07:00-18:00; Sa 07:30-12:00", "brand": "ADEG \u00d6sterreich", "brand:wikidata": "Q290211", "nsi_id": "adeg-1eef1d"}, "geometry": {"type": "Point", "coordinates": [16.038954, 47.9820847]}},
{"type": "Feature", "id": "fBBqYl_Fckmr-HpAzfPJqFfdzbI=", "properties": {"ref": "868", "@spider": "adeg", "shop": "supermarket", "addr:street_address": "Hauptplatz 18", "addr:city": "Friedberg", "addr:postcode": "8240", "addr:country": "AT", "name": "ADEG THALHAMMER", "phone": "+43333923020", "website": "https://www.adeg.at/services/maerkte-oeffnungszeiten/adeg-thalhammer", "opening_hours": "Mo-Fr 07:00-12:30,15:00-18:30; Sa 07:00-12:30", "brand": "ADEG \u00d6sterreich", "brand:wikidata": "Q290211", "nsi_id": "adeg-1eef1d"}, "geometry": {"type": "Point", "coordinates": [16.05752, 47.44132]}},
{"type": "Feature", "id": "gM_pgmyn-xNY2Dqq9dI8XxHEyjs=", "properties": {"ref": "504", "@spider": "adeg", "shop": "supermarket", "addr:street_address": "St. Magdalena 21", "addr:city": "St.Magdalena", "addr:postcode": "8274", "addr:country": "AT", "name": "ADEG GRABNER", "phone": "+4333328100", "website": "https://www.adeg.at/services/maerkte-oeffnungszeiten/adeg-grabner-2", "opening_hours": "Mo-Fr 07:00-12:00,15:00-18:30; Sa 07:00-13:00", "brand": "ADEG \u00d6sterreich", "brand:wikidata": "Q290211", "nsi_id": "adeg-1eef1d"}, "geometry": {"type": "Point", "coordinates": [16.025243, 47.219153]}},
{"type": "Feature", "id": "cTm40TYHL2ZFfqbcM786CoHgwJE=", "properties": {"ref": "600", "@spider": "adeg", "shop": "supermarket", "addr:street_address": "Bahnhofstr. 31", "addr:city": "Absdorf", "addr:postcode": "3462", "addr:country": "AT", "name": "ADEG NEUWIRTH", "phone": "+43227871055", "website": "https://www.adeg.at/services/maerkte-oeffnungszeiten/adeg-neuwirth-2", "opening_hours": "Mo-Fr 07:00-18:30; Sa 07:30-17:00", "brand": "ADEG \u00d6sterreich", "brand:wikidata": "Q290211", "nsi_id": "adeg-1eef1d"}, "geometry": {"type": "Point", "coordinates": [15.985956, 48.401319]}},
{"type": "Feature", "id": "u2DFVuD9jv7xzsVS7nnFvQocWZo=", "properties": {"ref": "487", "@spider": "adeg", "shop": "supermarket", "addr:street_address": "Wiener Strasse 34", "addr:city": "Pinkafeld", "addr:postcode": "7423", "addr:country": "AT", "name": "ADEG MEISTERFROST", "phone": "+43335745945", "website": "https://www.adeg.at/services/maerkte-oeffnungszeiten/adeg-meisterfrost", "opening_hours": "Mo-Fr 07:00-19:00; Sa 07:00-17:00", "brand": "ADEG \u00d6sterreich", "brand:wikidata": "Q290211", "nsi_id": "adeg-1eef1d"}, "geometry": {"type": "Point", "coordinates": [16.12375, 47.37683]}},
{"type": "Feature", "id": "OgMfrVRKQ3Bzgavno2WGZnWyvns=", "properties": {"ref": "486", "@spider": "adeg", "shop": "supermarket", "addr:street_address": "Obere Hauptstrasse 35", "addr:city": "Riedlingsdorf", "addr:postcode": "7422", "addr:country": "AT", "name": "ADEG LANG", "phone": "+43335746208", "website": "https://www.adeg.at/services/maerkte-oeffnungszeiten/adeg-lang", "opening_hours": "Mo-Tu 06:00-12:00,15:00-18:00; We 06:00-12:00; Th-Fr 06:00-12:00,15:00-18:00; Sa 06:00-13:00", "brand": "ADEG \u00d6sterreich", "brand:wikidata": "Q290211", "nsi_id": "adeg-1eef1d"}, "geometry": {"type": "Point", "coordinates": [16.13308, 47.34798]}},
{"type": "Feature", "id": "I4cn1SYm6ZJ30HFA4vDdidRQROk=", "properties": {"ref": "404", "@spider": "adeg", "shop": "supermarket", "addr:street_address": "Hauptstrasse 3", "addr:city": "Enzesfeld/Lindabrunn", "addr:postcode": "2551", "addr:country": "AT", "name": "ADEG GRABNER", "phone": "+43225681560", "website": "https://www.adeg.at/services/maerkte-oeffnungszeiten/adeg-grabner", "opening_hours": "Mo-Fr 07:30-18:00; Sa 07:30-12:00", "brand": "ADEG \u00d6sterreich", "brand:wikidata": "Q290211", "nsi_id": "adeg-1eef1d"}, "geometry": {"type": "Point", "coordinates": [16.18517, 47.92155]}},
{"type": "Feature", "id": "kuOb5_TreHO2OwBS8FQFKY87s50=", "properties": {"ref": "403", "@spider": "adeg", "shop": "supermarket", "addr:street_address": "Hauptplatz 4-5", "addr:city": "Kottingbrunn", "addr:postcode": "2542", "addr:country": "AT", "name": "ADEG HAAS", "phone": "+43225276108", "website": "https://www.adeg.at/services/maerkte-oeffnungszeiten/adeg-haas", "opening_hours": "Mo-Fr 06:30-19:00; Sa 06:30-17:00", "brand": "ADEG \u00d6sterreich", "brand:wikidata": "Q290211", "nsi_id": "adeg-1eef1d"}, "geometry": {"type": "Point", "coordinates": [16.22778, 47.95104]}},
{"type": "Feature", "id": "GlaCleKLB9at9oN7c_irp6wNaA8=", "properties": {"ref": "595", "@spider": "adeg", "shop": "supermarket", "addr:street_address": "Kirchenplatz 2/2", "addr:city": "Hollenthon", "addr:postcode": "2812", "addr:country": "AT", "name": "ADEG LECHNER", "phone": "+4326457234", "website": "https://www.adeg.at/services/maerkte-oeffnungszeiten/adeg-lechner-3", "opening_hours": "Mo-Tu 06:00-12:00,16:00-18:00; We 06:00-12:00,15:00-18:00; Th 06:00-12:00; Fr 06:00-12:00,15:00-18:00; Sa 07:00-12:00", "brand": "ADEG \u00d6sterreich", "brand:wikidata": "Q290211", "nsi_id": "adeg-1eef1d"}, "geometry": {"type": "Point", "coordinates": [16.259459, 47.589712]}},
{"type": "Feature", "id": "zVdtNmoSLchIojliCK7tSU38vNU=", "properties": {"ref": "407", "@spider": "adeg", "shop": "supermarket", "addr:street_address": "Wiesmatherstrasse 2", "addr:city": "Hochwolkersdorf", "addr:postcode": "2802", "addr:country": "AT", "name": "ADEG LECHNER", "phone": "+43264520163", "website": "https://www.adeg.at/services/maerkte-oeffnungszeiten/adeg-lechner", "opening_hours": "Mo-Th 06:30-12:30,15:00-18:30; Fr 06:30-18:30; Sa 06:30-12:30", "brand": "ADEG \u00d6sterreich", "brand:wikidata": "Q290211", "nsi_id": "adeg-1eef1d"}, "geometry": {"type": "Point", "coordinates": [16.2842576, 47.657803]}},
{"type": "Feature", "id": "YtzHE1COsro4h-LMHNssVHqiXr0=", "properties": {"ref": "408", "@spider": "adeg", "shop": "supermarket", "addr:street_address": "Schulstrasse 5", "addr:city": "Wiesmath", "addr:postcode": "2811", "addr:country": "AT", "name": "ADEG LECHNER", "phone": "+4326452575", "website": "https://www.adeg.at/services/maerkte-oeffnungszeiten/adeg-lechner-1", "opening_hours": "Mo-We 06:00-12:30,15:00-18:00; Th 06:00-12:30; Fr 06:00-18:00; Sa 06:00-12:00", "brand": "ADEG \u00d6sterreich", "brand:wikidata": "Q290211", "nsi_id": "adeg-1eef1d"}, "geometry": {"type": "Point", "coordinates": [16.28893, 47.61684]}},
{"type": "Feature", "id": "iyZ9oYiXut2eYEkow-wW69OWITA=", "properties": {"ref": "670", "@spider": "adeg", "shop": "supermarket", "addr:street_address": "Feuerwehrstrasse 1", "addr:city": "Blumau-Neurisshof", "addr:postcode": "2602", "addr:country": "AT", "name": "ADEG BLUMAUER NAHVERSORGUNG", "phone": "+43262848284", "website": "https://www.adeg.at/services/maerkte-oeffnungszeiten/adeg-blumauer-nahversorgung", "opening_hours": "Mo-Fr 06:30-12:30,15:00-18:30; Sa 07:00-12:30", "brand": "ADEG \u00d6sterreich", "brand:wikidata": "Q290211", "nsi_id": "adeg-1eef1d"}, "geometry": {"type": "Point", "coordinates": [16.29968, 47.92645]}},
{"type": "Feature", "id": "ihWYV76hc-3GzN-RTSNGA0cuRsA=", "properties": {"ref": "664", "@spider": "adeg", "shop": "supermarket", "addr:street_address": "Mattersburgerstrasse 27", "addr:city": "Bad Sauerbrunn", "addr:postcode": "7202", "addr:country": "AT", "name": "ADEG MEISTERFROST", "phone": "+43262537263", "website": "https://www.adeg.at/services/maerkte-oeffnungszeiten/adeg-meisterfrost-1", "opening_hours": "Mo-Fr 07:00-19:00; Sa 07:00-17:00", "brand": "ADEG \u00d6sterreich", "brand:wikidata": "Q290211", "nsi_id": "adeg-1eef1d"}, "geometry": {"type": "Point", "coordinates": [16.32843, 47.77666]}},
{"type": "Feature", "id": "oO8dYLgT-FS5hH9XKVK5iL_K2X0=", "properties": {"ref": "424", "@spider": "adeg", "shop": "supermarket", "addr:street_address": "Tullnerstrasse 30A", "addr:city": "St.Andrae-Woerdern", "addr:postcode": "3423", "addr:country": "AT", "name": "ADEG BINDER", "phone": "+43224233820", "website": "https://www.adeg.at/services/maerkte-oeffnungszeiten/adeg-binder-1", "opening_hours": "Mo-Fr 07:30-18:30; Sa 07:30-17:00", "brand": "ADEG \u00d6sterreich", "brand:wikidata": "Q290211", "nsi_id": "adeg-1eef1d"}, "geometry": {"type": "Point", "coordinates": [16.201209, 48.323053]}},
{"type": "Feature", "id": "OPZ6lNIFQ4wQ-nuL3q_4IvYG13M=", "properties": {"ref": "479", "@spider": "adeg", "shop": "supermarket", "addr:street_address": "Hauptplatz 3", "addr:city": "Wiesen", "addr:postcode": "7203", "addr:country": "AT", "name": "ADEG KNOPF", "phone": "+43262681627", "website": "https://www.adeg.at/services/maerkte-oeffnungszeiten/adeg-knopf", "opening_hours": "Mo-Fr 06:30-12:00,15:00-18:30; Sa 06:30-12:00", "brand": "ADEG \u00d6sterreich", "brand:wikidata": "Q290211", "nsi_id": "adeg-1eef1d"}, "geometry": {"type": "Point", "coordinates": [16.33748, 47.737574]}},
{"type": "Feature", "id": "9xfKP-Gwltplw_xbrr8XcTRYKBY=", "properties": {"ref": "423", "@spider": "adeg", "shop": "supermarket", "addr:street_address": "Hauptstrasse 23", "addr:city": "St.Andrae - Woerdern", "addr:postcode": "3423", "addr:country": "AT", "name": "ADEG BINDER", "phone": "+432242322870", "website": "https://www.adeg.at/services/maerkte-oeffnungszeiten/adeg-binder", "opening_hours": "Mo-Th 07:00-12:30,14:30-18:30; Fr 07:00-18:30; Sa 07:00-12:30", "brand": "ADEG \u00d6sterreich", "brand:wikidata": "Q290211", "nsi_id": "adeg-1eef1d"}, "geometry": {"type": "Point", "coordinates": [16.21053, 48.32695]}},
{"type": "Feature", "id": "IXSrJsvRqDUicZcrtjeKC4szaiU=", "properties": {"ref": "642", "@spider": "adeg", "shop": "supermarket", "addr:street_address": "Schlossgasse 2", "addr:city": "Trumau", "addr:postcode": "2521", "addr:country": "AT", "name": "ADEG SZABO", "phone": "+43225320112", "website": "https://www.adeg.at/services/maerkte-oeffnungszeiten/adeg-szabo", "opening_hours": "Mo-Fr 07:00-19:00; Sa 07:00-17:00", "brand": "ADEG \u00d6sterreich", "brand:wikidata": "Q290211", "nsi_id": "adeg-1eef1d"}, "geometry": {"type": "Point", "coordinates": [16.34069, 47.99454]}},
{"type": "Feature", "id": "crwfAX86wxDJcl_PXsg5Pz0n51A=", "properties": {"ref": "910", "@spider": "adeg", "shop": "supermarket", "addr:street_address": "Bach Nr. 89", "addr:city": "Bach", "addr:postcode": "6653", "addr:country": "AT", "name": "ADEG WOLF", "phone": "+4356346383", "website": "https://www.adeg.at/services/maerkte-oeffnungszeiten/adeg-wolf", "opening_hours": "Mo-Fr 08:00-12:00,14:30-18:00; Sa 08:00-12:00", "brand": "ADEG \u00d6sterreich", "brand:wikidata": "Q290211", "nsi_id": "adeg-1eef1d"}, "geometry": {"type": "Point", "coordinates": [10.40253, 47.26901]}},
{"type": "Feature", "id": "zylsQJzkr9U7khYMTRAicaXqIbs=", "properties": {"ref": "850", "@spider": "adeg", "shop": "supermarket", "addr:street_address": "Steinriegel 5", "addr:city": "St. Martin A.D. Raab", "addr:postcode": "8383", "addr:country": "AT", "name": "ADEG STEINMETZ", "phone": "+43332946677", "website": "https://www.adeg.at/services/maerkte-oeffnungszeiten/adeg-steinmetz", "opening_hours": "Mo-Fr 07:30-18:00; Sa 07:30-12:30", "brand": "ADEG \u00d6sterreich", "brand:wikidata": "Q290211", "nsi_id": "adeg-1eef1d"}, "geometry": {"type": "Point", "coordinates": [16.12181, 46.91852]}},
{"type": "Feature", "id": "lWonH2Bg8A0Epi9UdaVcI9hdvoQ=", "properties": {"ref": "656", "@spider": "adeg", "shop": "supermarket", "addr:street_address": "G\u00fcnserstrasse 4", "addr:city": "Pilgersdorf", "addr:postcode": "7441", "addr:country": "AT", "name": "ADEG HAUSER", "phone": "+4326167729", "website": "https://www.adeg.at/services/maerkte-oeffnungszeiten/adeg-hauser", "opening_hours": "Mo 06:00-12:00; Tu 06:00-12:00,15:00-18:00; We 06:00-12:00; Th-Fr 06:00-12:00,15:00-18:00; Sa 06:00-12:00", "brand": "ADEG \u00d6sterreich", "brand:wikidata": "Q290211", "nsi_id": "adeg-1eef1d"}, "geometry": {"type": "Point", "coordinates": [16.3503, 47.43986]}},
{"type": "Feature", "id": "BLeBiT1NidAQPcF72OcZKrT8-FM=", "properties": {"ref": "681", "@spider": "adeg", "shop": "supermarket", "addr:street_address": "Herzog-Albrecht-Strasse 3", "addr:city": "Laxenburg", "addr:postcode": "2361", "addr:country": "AT", "name": "ADEG VELJKOVIC", "phone": "+43223672207", "website": "https://www.adeg.at/services/maerkte-oeffnungszeiten/adeg-veljkovic", "opening_hours": "Mo-Fr 07:00-18:00; Sa 07:30-17:00", "brand": "ADEG \u00d6sterreich", "brand:wikidata": "Q290211", "nsi_id": "adeg-1eef1d"}, "geometry": {"type": "Point", "coordinates": [16.355723, 48.068837]}},
{"type": "Feature", "id": "hT-oRQGEKjS7Yw_mPjuKcWeuP5k=", "properties": {"ref": "906", "@spider": "adeg", "shop": "supermarket", "addr:street_address": "Holzgau 65A", "addr:city": "Holzgau", "addr:postcode": "6654", "addr:country": "AT", "name": "ADEG ANDREAS KNITEL", "phone": "+4356335278", "website": "https://www.adeg.at/services/maerkte-oeffnungszeiten/adeg-andreas-knitel", "opening_hours": "Mo-Fr 07:30-12:30,14:30-18:30; Sa 07:30-12:30,16:00-18:00; Su 16:00-18:00", "brand": "ADEG \u00d6sterreich", "brand:wikidata": "Q290211", "nsi_id": "adeg-1eef1d"}, "geometry": {"type": "Point", "coordinates": [10.34556, 47.260764]}},
{"type": "Feature", "id": "gfZvipKjyci9gY01RZfB3qSSfJs=", "properties": {"ref": "659", "@spider": "adeg", "shop": "supermarket", "addr:street_address": "Hauptstrasse 118", "addr:city": "Kritzendorf", "addr:postcode": "3420", "addr:country": "AT", "name": "ADEG SCHLICHTINGER", "phone": "+43224324496", "website": "https://www.adeg.at/services/maerkte-oeffnungszeiten/adeg-schlichtinger-1", "opening_hours": "Mo-Fr 07:30-18:30; Sa 07:00-17:00", "brand": "ADEG \u00d6sterreich", "brand:wikidata": "Q290211", "nsi_id": "adeg-1eef1d"}, "geometry": {"type": "Point", "coordinates": [16.29687, 48.3372]}},
{"type": "Feature", "id": "madZHqKap5viTfb66q4_pvJPpjM=", "properties": {"ref": "484", "@spider": "adeg", "shop": "supermarket", "addr:street_address": "Hauptstrasse 4", "addr:city": "Markt St.Martin", "addr:postcode": "7341", "addr:country": "AT", "name": "ADEG KUZMICH", "phone": "+4326183575", "website": "https://www.adeg.at/services/maerkte-oeffnungszeiten/adeg-kuzmich", "opening_hours": "Mo-We 07:00-12:00,15:30-18:00; Th 07:00-12:00; Fr 07:00-12:00,15:30-18:00; Sa 07:00-12:00", "brand": "ADEG \u00d6sterreich", "brand:wikidata": "Q290211", "nsi_id": "adeg-1eef1d"}, "geometry": {"type": "Point", "coordinates": [16.42823, 47.56382]}},
{"type": "Feature", "id": "5TzQYxoQGdkcEytVM6nkolstEO8=", "properties": {"ref": "887", "@spider": "adeg", "shop": "supermarket", "addr:street_address": "Hauptplatz 1", "addr:city": "Lackenbach", "addr:postcode": "7322", "addr:country": "AT", "name": "ADEG SCHADEN", "phone": "+436602775709", "website": "https://www.adeg.at/services/maerkte-oeffnungszeiten/adeg-schaden", "opening_hours": "Mo 06:00-12:00; Tu-We 06:00-12:00,15:00-18:00; Th 06:00-12:00; Fr 06:00-12:00,15:00-18:00; Sa 06:30-12:30", "brand": "ADEG \u00d6sterreich", "brand:wikidata": "Q290211", "nsi_id": "adeg-1eef1d"}, "geometry": {"type": "Point", "coordinates": [16.46544, 47.58884]}},
{"type": "Feature", "id": "06l39UU7fpyds1smcKREXs0BCTI=", "properties": {"ref": "692", "@spider": "adeg", "shop": "supermarket", "addr:street_address": "Steeg 29", "addr:city": "Steeg", "addr:postcode": "6655", "addr:country": "AT", "name": "ADEG BLAAS", "phone": "+4356335620", "website": "https://www.adeg.at/services/maerkte-oeffnungszeiten/adeg-blaas", "opening_hours": "Mo-Tu 07:00-12:30,14:30-18:30; We 07:00-12:30,15:30-18:30; Th-Fr 07:00-12:30,14:30-18:30; Sa 07:30-12:30", "brand": "ADEG \u00d6sterreich", "brand:wikidata": "Q290211", "nsi_id": "adeg-1eef1d"}, "geometry": {"type": "Point", "coordinates": [10.29341, 47.24207]}},
{"type": "Feature", "id": "Qp_kh5WrbYFU5epm7WdbpSlQ7xk=", "properties": {"ref": "485", "@spider": "adeg", "shop": "supermarket", "addr:street_address": "Hauptstrasse 66", "addr:city": "Stoob", "addr:postcode": "7344", "addr:country": "AT", "name": "ADEG SCHR\u00d6DL", "phone": "+43261242418", "website": "https://www.adeg.at/services/maerkte-oeffnungszeiten/adeg-schroedl", "opening_hours": "Mo 06:00-12:30,15:30-18:00; Tu 06:00-12:30; We-Fr 06:00-12:30,15:30-18:00; Sa 06:00-12:30", "brand": "ADEG \u00d6sterreich", "brand:wikidata": "Q290211", "nsi_id": "adeg-1eef1d"}, "geometry": {"type": "Point", "coordinates": [16.47606, 47.52944]}},
{"type": "Feature", "id": "5EXp6bT2gQA4zEHFSIqFw7HQ0hM=", "properties": {"ref": "770", "@spider": "adeg", "shop": "supermarket", "addr:street_address": "Hauptstrasse 30-32", "addr:city": "Mitterndorf A.D. Fischa", "addr:postcode": "2441", "addr:country": "AT", "name": "ADEG VELJKOVIC", "phone": "+43223421800", "website": "https://www.adeg.at/services/maerkte-oeffnungszeiten/adeg-veljkovic-1", "opening_hours": "Mo-Fr 07:00-18:30; Sa 07:30-13:00", "brand": "ADEG \u00d6sterreich", "brand:wikidata": "Q290211", "nsi_id": "adeg-1eef1d"}, "geometry": {"type": "Point", "coordinates": [16.47194, 47.99787]}},
{"type": "Feature", "id": "EK01ylbzyHQooaAM5pbR-bdzMXk=", "properties": {"ref": "909", "@spider": "adeg", "shop": "supermarket", "addr:street_address": "Hauptstrasse 36", "addr:city": "Ritzing", "addr:postcode": "7323", "addr:country": "AT", "name": "ADEG MUELLNER", "phone": "261967271", "website": "https://www.adeg.at/services/maerkte-oeffnungszeiten/adeg-muellner", "opening_hours": "Mo 06:00-12:30,15:00-18:00; Tu 06:00-12:30; We 06:00-12:30,15:00-18:00; Th 06:00-12:30; Fr 06:00-12:30,15:00-18:00; Sa 06:00-12:30", "brand": "ADEG \u00d6sterreich", "brand:wikidata": "Q290211", "nsi_id": "adeg-1eef1d"}, "geometry": {"type": "Point", "coordinates": [16.49676, 47.61008]}},
{"type": "Feature", "id": "JfIk_kMGJ3Xrlnd7NT1Z8WBncF4=", "properties": {"ref": "628", "@spider": "adeg", "shop": "supermarket", "addr:street_address": "Th\u00fcrnlhofstrasse 30", "addr:city": "Wien", "addr:postcode": "1110", "addr:country": "AT", "name": "ADEG KOWALIK", "phone": "+4317671390", "website": "https://www.adeg.at/services/maerkte-oeffnungszeiten/kose-alpha-gmbh", "opening_hours": "Mo-Fr 07:15-19:00; Sa 07:15-18:00", "brand": "ADEG \u00d6sterreich", "brand:wikidata": "Q290211", "nsi_id": "adeg-1eef1d"}, "geometry": {"type": "Point", "coordinates": [16.45386, 48.1585]}},
{"type": "Feature", "id": "rYd0NHSIDUNP-wup-Z6uNkuYlp4=", "properties": {"ref": "488", "@spider": "adeg", "shop": "supermarket", "addr:street_address": "Esterhazyplatz 1", "addr:city": "Rattersdorf-Liebing", "addr:postcode": "7443", "addr:country": "AT", "name": "ADEG SCHLAPSCHY", "phone": "+4326112317", "website": "https://www.adeg.at/services/maerkte-oeffnungszeiten/adeg-schlapschy", "opening_hours": "Mo-Tu 06:00-12:00,15:00-18:00; We 06:00-12:00; Th-Fr 06:00-12:00,15:00-18:00; Sa 07:00-12:00", "brand": "ADEG \u00d6sterreich", "brand:wikidata": "Q290211", "nsi_id": "adeg-1eef1d"}, "geometry": {"type": "Point", "coordinates": [16.498828, 47.410851]}},
{"type": "Feature", "id": "X_rfeOes7VQrBaObsQ6p7R_VcXE=", "properties": {"ref": "876", "@spider": "adeg", "shop": "supermarket", "addr:street_address": "Wasenbruckerstrasse 21", "addr:city": "Reisenberg", "addr:postcode": "2440", "addr:country": "AT", "name": "ADEG WALTER SCHMUTTERER GMBH", "phone": "+43223480139", "website": "https://www.adeg.at/services/maerkte-oeffnungszeiten/adeg-schmutterer-jun", "opening_hours": "Mo-Fr 06:30-18:30; Sa 07:00-13:00", "brand": "ADEG \u00d6sterreich", "brand:wikidata": "Q290211", "nsi_id": "adeg-1eef1d"}, "geometry": {"type": "Point", "coordinates": [16.528525, 47.997164]}},
{"type": "Feature", "id": "iy0gfUcgxV6MpEHR_taP6rIK2AQ=", "properties": {"ref": "489", "@spider": "adeg", "shop": "supermarket", "addr:street_address": "Untere Hauptstrasse 45", "addr:city": "Deutsch Sch\u00fctzen", "addr:postcode": "7474", "addr:country": "AT", "name": "ADEG WACHTER", "phone": "+4333652204", "website": "https://www.adeg.at/services/maerkte-oeffnungszeiten/adeg-wachter", "opening_hours": "Mo-Tu 07:00-12:30,15:00-18:00; We 07:00-08:30,15:00-18:00; Th-Fr 07:00-12:30,15:00-18:00; Sa 07:00-13:00", "brand": "ADEG \u00d6sterreich", "brand:wikidata": "Q290211", "nsi_id": "adeg-1eef1d"}, "geometry": {"type": "Point", "coordinates": [16.449389, 47.162308]}},
{"type": "Feature", "id": "KsyA7sWjfEbonuWEiV4Ku0XLOLk=", "properties": {"ref": "912", "@spider": "adeg", "shop": "supermarket", "addr:street_address": "Hausfeldstrasse 167", "addr:city": "Wien", "addr:postcode": "1220", "addr:country": "AT", "name": "ADEG KOSTADINOVIC", "phone": "+4312800337", "website": "https://www.adeg.at/services/maerkte-oeffnungszeiten/adeg-kostadinovic", "opening_hours": "Mo-Th 07:00-19:00; Fr 07:00-19:30; Sa 07:00-18:00", "brand": "ADEG \u00d6sterreich", "brand:wikidata": "Q290211", "nsi_id": "adeg-1eef1d"}, "geometry": {"type": "Point", "coordinates": [16.4907, 48.23928]}},
{"type": "Feature", "id": "5-aWmwfZvUplRoPu1J_KCCV0b2I=", "properties": {"ref": "878", "@spider": "adeg", "shop": "supermarket", "addr:street_address": "Stronsdorf 16", "addr:city": "Stronsdorf", "addr:postcode": "2153", "addr:country": "AT", "name": "ADEG FUTSCHIK", "phone": "+43252620122", "website": "https://www.adeg.at/services/maerkte-oeffnungszeiten/adeg-futschik", "opening_hours": "Mo-Tu 06:00-12:30,16:00-18:00; We 06:00-12:30; Th-Fr 06:00-12:30,16:00-18:00; Sa 06:00-12:00", "brand": "ADEG \u00d6sterreich", "brand:wikidata": "Q290211", "nsi_id": "adeg-1eef1d"}, "geometry": {"type": "Point", "coordinates": [16.30004, 48.65083]}},
{"type": "Feature", "id": "A55SfKbXHlo81Fk6PUyWXqA_bC8=", "properties": {"ref": "393", "@spider": "adeg", "shop": "supermarket", "addr:street_address": "Hauptstrasse 38", "addr:city": "Grossrussbach", "addr:postcode": "2114", "addr:country": "AT", "name": "ADEG ZIMMERMANN", "phone": "+4322636645", "website": "https://www.adeg.at/services/maerkte-oeffnungszeiten/adeg-zimmermann", "opening_hours": "Mo-Fr 07:00-12:00,14:00-18:00; Sa 07:00-12:00", "brand": "ADEG \u00d6sterreich", "brand:wikidata": "Q290211", "nsi_id": "adeg-1eef1d"}, "geometry": {"type": "Point", "coordinates": [16.41369, 48.47294]}},
{"type": "Feature", "id": "UmcSsgj8QFgl_NAj-hxEzT8cU4M=", "properties": {"ref": "717", "@spider": "adeg", "shop": "supermarket", "addr:street_address": "Hauptplatz 5", "addr:city": "Margarethen Am Moos", "addr:postcode": "2433", "addr:country": "AT", "name": "ADEG KOWALIK", "phone": "+43223029966", "website": "https://www.adeg.at/services/maerkte-oeffnungszeiten/adeg-kowalik-2", "opening_hours": "Mo-Fr 06:15-18:30; Sa 07:15-14:00", "brand": "ADEG \u00d6sterreich", "brand:wikidata": "Q290211", "nsi_id": "adeg-1eef1d"}, "geometry": {"type": "Point", "coordinates": [16.60327, 48.0469]}},
{"type": "Feature", "id": "6D-ivobnW_2b4JTXhJdSJdydQDA=", "properties": {"ref": "673", "@spider": "adeg", "shop": "supermarket", "addr:street_address": "Schlossgasse 5", "addr:city": "Enzersdorf", "addr:postcode": "2431", "addr:country": "AT", "name": "ADEG KOWALIK", "phone": "+43223029387", "website": "https://www.adeg.at/services/maerkte-oeffnungszeiten/adeg-kowalik", "opening_hours": "Mo-Fr 06:15-18:30; Sa 06:15-14:00", "brand": "ADEG \u00d6sterreich", "brand:wikidata": "Q290211", "nsi_id": "adeg-1eef1d"}, "geometry": {"type": "Point", "coordinates": [16.605421, 48.083236]}},
{"type": "Feature", "id": "wVpWI3t03g_tm5ockHmRKXK14ZQ=", "properties": {"ref": "620", "@spider": "adeg", "shop": "supermarket", "addr:street_address": "Kirchenplatz 2", "addr:city": "Kleinneusiedl", "addr:postcode": "2431", "addr:country": "AT", "name": "ADEG HOLUB", "phone": "+43223080994", "website": "https://www.adeg.at/services/maerkte-oeffnungszeiten/adeg-holub", "opening_hours": "Mo-We 05:30-12:30,15:30-18:00; Th 05:30-12:30; Fr 05:30-12:30,15:30-18:00; Sa 06:30-12:00", "brand": "ADEG \u00d6sterreich", "brand:wikidata": "Q290211", "nsi_id": "adeg-1eef1d"}, "geometry": {"type": "Point", "coordinates": [16.60521, 48.09167]}},
{"type": "Feature", "id": "96JA_gkmA3syI5-IsfLYofwnmnw=", "properties": {"ref": "587", "@spider": "adeg", "shop": "supermarket", "addr:street_address": "Unterstinkenbrunn Nr. 4", "addr:city": "Unterstinkenbrunn", "addr:postcode": "2154", "addr:country": "AT", "name": "ADEG GASS", "phone": "+4325267245", "website": "https://www.adeg.at/services/maerkte-oeffnungszeiten/adeg-gass", "opening_hours": "Mo-We 06:30-12:00,16:00-18:00; Th 06:30-12:00; Fr 06:30-12:00,16:00-18:00; Sa 06:30-12:00", "brand": "ADEG \u00d6sterreich", "brand:wikidata": "Q290211", "nsi_id": "adeg-1eef1d"}, "geometry": {"type": "Point", "coordinates": [16.34298, 48.66737]}},
{"type": "Feature", "id": "PoUh_3jqFhVU_FxEb42jYAABvQc=", "properties": {"ref": "844", "@spider": "adeg", "shop": "supermarket", "addr:street_address": "Hauptstrasse 57", "addr:city": "Kroatisch Minihof", "addr:postcode": "7302", "addr:country": "AT", "name": "ADEG FAZEKAS", "phone": "+4326148250", "website": "https://www.adeg.at/services/maerkte-oeffnungszeiten/adeg-fazekas", "opening_hours": "Mo-Th 07:30-12:00; Fr 07:30-12:00,16:00-18:00; Sa 07:30-12:00", "brand": "ADEG \u00d6sterreich", "brand:wikidata": "Q290211", "nsi_id": "adeg-1eef1d"}, "geometry": {"type": "Point", "coordinates": [16.64397, 47.52451]}},
{"type": "Feature", "id": "Ov1GWsh0hC6AdWvz615RJasZJbc=", "properties": {"ref": "877", "@spider": "adeg", "shop": "supermarket", "addr:street_address": "Hauptstrasse 68", "addr:city": "Trautmannsdorf", "addr:postcode": "2454", "addr:country": "AT", "name": "ADEG WALTER SCHMUTTERER GMBH", "phone": "+4321692262", "website": "https://www.adeg.at/services/maerkte-oeffnungszeiten/adeg-walter-schmutterer-gmbh-1", "opening_hours": "Mo-Fr 06:30-12:00,15:30-18:00; Sa 07:00-12:00", "brand": "ADEG \u00d6sterreich", "brand:wikidata": "Q290211", "nsi_id": "adeg-1eef1d"}, "geometry": {"type": "Point", "coordinates": [16.6367, 48.02216]}},
{"type": "Feature", "id": "fYcfSsMO43CDewJkIIc0PVc7UB0=", "properties": {"ref": "569", "@spider": "adeg", "shop": "supermarket", "addr:street_address": "Oggauerstrasse 3", "addr:city": "Rust", "addr:postcode": "7071", "addr:country": "AT", "name": "ADEG STADLMANN", "phone": "+4326856639", "website": "https://www.adeg.at/services/maerkte-oeffnungszeiten/adeg-stadlmann", "opening_hours": "Mo-Fr 07:00-18:00; Sa 07:00-17:00", "brand": "ADEG \u00d6sterreich", "brand:wikidata": "Q290211", "nsi_id": "adeg-1eef1d"}, "geometry": {"type": "Point", "coordinates": [16.6722129, 47.8009763]}},
{"type": "Feature", "id": "ADFUBRIJjYnIrc-ApK7YPL62Btw=", "properties": {"ref": "648", "@spider": "adeg", "shop": "supermarket", "addr:street_address": "Markt 4", "addr:city": "Sommerein", "addr:postcode": "2453", "addr:country": "AT", "name": "ADEG WALTER SCHMUTTERER GMBH", "phone": "+43216863472", "website": "https://www.adeg.at/services/maerkte-oeffnungszeiten/adeg-walter-schmutterer-gmbh-2", "opening_hours": "Mo-Fr 06:00-18:00; Sa 07:00-12:00", "brand": "ADEG \u00d6sterreich", "brand:wikidata": "Q290211", "nsi_id": "adeg-1eef1d"}, "geometry": {"type": "Point", "coordinates": [16.65795, 47.99131]}},
{"type": "Feature", "id": "V2PnDsyd35auXYZfc2GxI0CJoI4=", "properties": {"ref": "394", "@spider": "adeg", "shop": "supermarket", "addr:street_address": "Hauptstrasse 33", "addr:city": "Ladendorf", "addr:postcode": "2126", "addr:country": "AT", "name": "ADEG BAUER", "phone": "+436769088095", "website": "https://www.adeg.at/services/maerkte-oeffnungszeiten/adeg-bauer", "opening_hours": "Mo-Fr 06:30-18:30; Sa 06:30-12:00", "brand": "ADEG \u00d6sterreich", "brand:wikidata": "Q290211", "nsi_id": "adeg-1eef1d"}, "geometry": {"type": "Point", "coordinates": [16.49262, 48.53273]}},
{"type": "Feature", "id": "pDk7sOa-VjrURCpQWqDxxc9aVvA=", "properties": {"ref": "734", "@spider": "adeg", "shop": "supermarket", "addr:street_address": "Hauptstrasse 45", "addr:city": "Bockfliess", "addr:postcode": "2213", "addr:country": "AT", "name": "ADEG RAIMUND LAHOFER E.U.", "phone": "+4322882515", "website": "https://www.adeg.at/services/maerkte-oeffnungszeiten/adeg-raimund-lahofer-eu", "opening_hours": "Mo-Fr 06:15-18:30; Sa 06:45-17:00", "brand": "ADEG \u00d6sterreich", "brand:wikidata": "Q290211", "nsi_id": "adeg-1eef1d"}, "geometry": {"type": "Point", "coordinates": [16.6005, 48.36036]}},
{"type": "Feature", "id": "DY63oIHHGNWpse3Zz7W0CAmj_2c=", "properties": {"ref": "466", "@spider": "adeg", "shop": "supermarket", "addr:street_address": "Haus Nr. 9", "addr:city": "Schoppernau", "addr:postcode": "6886", "addr:country": "AT", "name": "ADEG STROLZ", "phone": "+4355152117", "website": "https://www.adeg.at/services/maerkte-oeffnungszeiten/adeg-strolz", "opening_hours": "Mo-Fr 07:00-12:00,14:00-18:30; Sa 07:00-12:00,14:00-17:00", "brand": "ADEG \u00d6sterreich", "brand:wikidata": "Q290211", "nsi_id": "adeg-1eef1d"}, "geometry": {"type": "Point", "coordinates": [10.016716, 47.313731]}},
{"type": "Feature", "id": "O-W52cimVyrOnCEOLzvLFCE2X-U=", "properties": {"ref": "465", "@spider": "adeg", "shop": "supermarket", "addr:street_address": "Lisse 335", "addr:city": "Au", "addr:postcode": "6883", "addr:country": "AT", "name": "ADEG BERLINGER", "phone": "+4355152303", "website": "https://www.adeg.at/services/maerkte-oeffnungszeiten/adeg-berlinger-1", "opening_hours": "Mo-Fr 07:00-12:00,14:00-18:30; Sa 07:00-12:30", "brand": "ADEG \u00d6sterreich", "brand:wikidata": "Q290211", "nsi_id": "adeg-1eef1d"}, "geometry": {"type": "Point", "coordinates": [9.97667, 47.32222]}},
{"type": "Feature", "id": "grGQ0CSd1yMWZBzKW2B5CCgLY9s=", "properties": {"ref": "865", "@spider": "adeg", "shop": "supermarket", "addr:street_address": "Hauptstrasse 32", "addr:city": "Gross-Schweinbart", "addr:postcode": "2221", "addr:country": "AT", "name": "ADEG BAUER", "phone": "+436769088092", "website": "https://www.adeg.at/services/maerkte-oeffnungszeiten/adeg-bauer-3", "opening_hours": "Mo-Fr 06:00-12:30,16:00-18:00; Sa 06:00-12:00", "brand": "ADEG \u00d6sterreich", "brand:wikidata": "Q290211", "nsi_id": "adeg-1eef1d"}, "geometry": {"type": "Point", "coordinates": [16.63276, 48.41699]}},
{"type": "Feature", "id": "_bpiLSfpkkCei7PgTzlN9fVxJV8=", "properties": {"ref": "735", "@spider": "adeg", "shop": "supermarket", "addr:street_address": "Dorf 4", "addr:city": "Sulzberg", "addr:postcode": "6934", "addr:country": "AT", "name": "ADEG KOSMANN-W\u00d6RNDLE OG", "phone": "+4355164116", "website": "https://www.adeg.at/services/maerkte-oeffnungszeiten/adeg-kosmann-woerndle-og", "opening_hours": "Mo-Fr 07:30-12:00,14:00-18:00; Sa 07:30-13:00", "brand": "ADEG \u00d6sterreich", "brand:wikidata": "Q290211", "nsi_id": "adeg-1eef1d"}, "geometry": {"type": "Point", "coordinates": [9.91244, 47.52099]}},
{"type": "Feature", "id": "rdhPdyDWcKrsp5s9Qb41UMjBDmA=", "properties": {"ref": "573", "@spider": "adeg", "shop": "supermarket", "addr:street_address": "Hof 29", "addr:city": "Lingenau", "addr:postcode": "6951", "addr:country": "AT", "name": "ADEG NATTER", "phone": "+4355132344", "website": "https://www.adeg.at/services/maerkte-oeffnungszeiten/adeg-natter-1", "opening_hours": "Mo-Fr 07:30-12:30,14:30-18:30; Sa 07:30-12:30", "brand": "ADEG \u00d6sterreich", "brand:wikidata": "Q290211", "nsi_id": "adeg-1eef1d"}, "geometry": {"type": "Point", "coordinates": [9.9202, 47.45006]}},
{"type": "Feature", "id": "kgrO5QO-mIrTIvkvg00ITGce6QE=", "properties": {"ref": "566", "@spider": "adeg", "shop": "supermarket", "addr:street_address": "Bach 202", "addr:city": "Langenegg", "addr:postcode": "6941", "addr:country": "AT", "name": "ADEG NATTER", "phone": "+43551330244", "website": "https://www.adeg.at/services/maerkte-oeffnungszeiten/adeg-natter", "opening_hours": "Mo-Fr 07:00-12:30,14:30-18:30; Sa 07:00-12:30", "brand": "ADEG \u00d6sterreich", "brand:wikidata": "Q290211", "nsi_id": "adeg-1eef1d"}, "geometry": {"type": "Point", "coordinates": [9.89258, 47.46766]}},
{"type": "Feature", "id": "67vKQIddgMaNraFnH0dwS9ataq4=", "properties": {"ref": "843", "@spider": "adeg", "shop": "supermarket", "addr:street_address": "Schmiedgasse 11", "addr:city": "Apetlon", "addr:postcode": "7143", "addr:country": "AT", "name": "ADEG REINPRECHT", "phone": "+4321752361", "website": "https://www.adeg.at/services/maerkte-oeffnungszeiten/adeg-reinprecht", "opening_hours": "Mo-We 06:00-12:00,15:00-18:00; Th 06:00-12:00; Fr 06:00-12:00,15:00-18:00; Sa 06:00-12:00", "brand": "ADEG \u00d6sterreich", "brand:wikidata": "Q290211", "nsi_id": "adeg-1eef1d"}, "geometry": {"type": "Point", "coordinates": [16.83861, 47.74369]}},
{"type": "Feature", "id": "fuVjBtOmDvsz6JJKOR_n1zKwIZw=", "properties": {"ref": "463", "@spider": "adeg", "shop": "supermarket", "addr:street_address": "Ellenbogen 607", "addr:city": "Bezau", "addr:postcode": "6870", "addr:country": "AT", "name": "ADEG BERLINGER", "phone": "+4355144141", "website": "https://www.adeg.at/services/maerkte-oeffnungszeiten/adeg-berlinger", "opening_hours": "Mo-Fr 07:30-19:00; Sa 07:00-17:00", "brand": "ADEG \u00d6sterreich", "brand:wikidata": "Q290211", "nsi_id": "adeg-1eef1d"}, "geometry": {"type": "Point", "coordinates": [9.890772, 47.378004]}},
{"type": "Feature", "id": "NBBBDSdduXccxufhrPJOXKdOwec=", "properties": {"ref": "399", "@spider": "adeg", "shop": "supermarket", "addr:street_address": "Nr. 31", "addr:city": "Obersulz", "addr:postcode": "2224", "addr:country": "AT", "name": "ADEG LOIBL", "phone": "+432534216", "website": "https://www.adeg.at/services/maerkte-oeffnungszeiten/adeg-loibl", "opening_hours": "Mo-Tu 06:30-12:00,16:00-18:00; We 06:30-12:00; Th-Fr 06:30-12:00,16:00-18:00; Sa 06:30-12:00", "brand": "ADEG \u00d6sterreich", "brand:wikidata": "Q290211", "nsi_id": "adeg-1eef1d"}, "geometry": {"type": "Point", "coordinates": [16.674232, 48.503876]}},
{"type": "Feature", "id": "7K4rt47BlSljt6dgRBvsjaEn2kU=", "properties": {"ref": "452", "@spider": "adeg", "shop": "supermarket", "addr:street_address": "Kirchberg 89", "addr:city": "Fontanella", "addr:postcode": "6733", "addr:country": "AT", "name": "ADEG SONNTAG", "phone": "+43555420111", "website": "https://www.adeg.at/services/maerkte-oeffnungszeiten/adeg-sonntag-1", "opening_hours": "Mo 07:30-12:00,15:00-18:00; Tu-Th 07:30-12:00; Fr 07:30-12:00,15:00-18:00; Sa 07:30-12:00", "brand": "ADEG \u00d6sterreich", "brand:wikidata": "Q290211", "nsi_id": "adeg-1eef1d"}, "geometry": {"type": "Point", "coordinates": [9.90909, 47.24686]}},
{"type": "Feature", "id": "t6AzIUCv9OfpRcSgvgpD2sIWcVQ=", "properties": {"ref": "704", "@spider": "adeg", "shop": "supermarket", "addr:street_address": "Hauptstrasse 24", "addr:city": "Prottes", "addr:postcode": "2242", "addr:country": "AT", "name": "ADEG PANZER", "phone": "+4322822191", "website": "https://www.adeg.at/services/maerkte-oeffnungszeiten/adeg-panzer", "opening_hours": "Mo-We 07:00-12:30,15:00-18:00; Th 07:00-12:30; Fr 07:00-18:00; Sa 07:00-12:30", "brand": "ADEG \u00d6sterreich", "brand:wikidata": "Q290211", "nsi_id": "adeg-1eef1d"}, "geometry": {"type": "Point", "coordinates": [16.74029, 48.38446]}},
{"type": "Feature", "id": "AaeThW04yNDby0sYoztyQ9rrx0w=", "properties": {"ref": "451", "@spider": "adeg", "shop": "supermarket", "addr:street_address": "Boden 57", "addr:city": "Sonntag", "addr:postcode": "6731", "addr:country": "AT", "name": "ADEG SONNTAG", "phone": "+4355545244", "website": "https://www.adeg.at/services/maerkte-oeffnungszeiten/adeg-sonntag", "opening_hours": "Mo-Tu 07:30-12:00,15:00-18:00; We 07:30-12:00; Th-Fr 07:30-12:00,15:00-18:00; Sa 07:30-12:00", "brand": "ADEG \u00d6sterreich", "brand:wikidata": "Q290211", "nsi_id": "adeg-1eef1d"}, "geometry": {"type": "Point", "coordinates": [9.90107, 47.23906]}},
{"type": "Feature", "id": "v2ULrELTJq1v_Cg9BuJ8FNdsreY=", "properties": {"ref": "882", "@spider": "adeg", "shop": "supermarket", "addr:street_address": "Marktplatz 18", "addr:city": "Wilfersdorf", "addr:postcode": "2193", "addr:country": "AT", "name": "ADEG BAUER", "phone": "+436763391641", "website": "https://www.adeg.at/services/maerkte-oeffnungszeiten/adeg-bauer-2", "opening_hours": "Mo-Fr 06:00-12:00,15:00-18:00; Sa 06:00-12:00", "brand": "ADEG \u00d6sterreich", "brand:wikidata": "Q290211", "nsi_id": "adeg-1eef1d"}, "geometry": {"type": "Point", "coordinates": [16.64475, 48.58599]}},
{"type": "Feature", "id": "09zjsH66IbOYil2dbzOSjgeCpgk=", "properties": {"ref": "913", "@spider": "adeg", "shop": "supermarket", "addr:street_address": "Marul 17", "addr:city": "Raggal", "addr:postcode": "6741", "addr:country": "AT", "name": "ADEG ECKL", "phone": "+4355533541", "website": "https://www.adeg.at/services/maerkte-oeffnungszeiten/adeg-eckl", "brand": "ADEG \u00d6sterreich", "brand:wikidata": "Q290211", "nsi_id": "adeg-1eef1d"}, "geometry": {"type": "Point", "coordinates": [9.8619, 47.20065]}},
{"type": "Feature", "id": "lpSTWPEtxpIbQqSaAfGq1a7UMUk=", "properties": {"ref": "581", "@spider": "adeg", "shop": "supermarket", "addr:street_address": "Bahngasse 16", "addr:city": "St. Andr\u00e4/Zicksee", "addr:postcode": "7161", "addr:country": "AT", "name": "ADEG HERZOG", "phone": "+4321762328", "website": "https://www.adeg.at/services/maerkte-oeffnungszeiten/adeg-herzog", "opening_hours": "Mo-We 06:00-12:00,15:30-18:00; Th 06:00-12:00; Fr 06:00-12:00,15:30-18:00; Sa 06:00-12:00", "brand": "ADEG \u00d6sterreich", "brand:wikidata": "Q290211", "nsi_id": "adeg-1eef1d"}, "geometry": {"type": "Point", "coordinates": [16.93167, 47.78408]}},
{"type": "Feature", "id": "OnWRwz25IiLrdPYr185xxflHxRk=", "properties": {"ref": "468", "@spider": "adeg", "shop": "supermarket", "addr:street_address": "Lindauerstrasse 75", "addr:city": "Hoerbranz", "addr:postcode": "6912", "addr:country": "AT", "name": "ADEG ZUBCIC", "phone": "+43557382211", "website": "https://www.adeg.at/services/maerkte-oeffnungszeiten/adeg-zubcic", "opening_hours": "Mo-Fr 07:30-18:15; Sa 07:30-13:00", "brand": "ADEG \u00d6sterreich", "brand:wikidata": "Q290211", "nsi_id": "adeg-1eef1d"}, "geometry": {"type": "Point", "coordinates": [9.7487071, 47.5542915]}},
{"type": "Feature", "id": "MGIWcXAls0zxX1ZU1ZCZ9iKb2os=", "properties": {"ref": "469", "@spider": "adeg", "shop": "supermarket", "addr:street_address": "Kellhofstrasse 8", "addr:city": "Wolfurt", "addr:postcode": "6922", "addr:country": "AT", "name": "ADEG SCHWANENMARKT", "phone": "+43557471376", "website": "https://www.adeg.at/services/maerkte-oeffnungszeiten/adeg-schwanenmarkt", "opening_hours": "Mo-Fr 07:30-18:30; Sa 07:30-12:30", "brand": "ADEG \u00d6sterreich", "brand:wikidata": "Q290211", "nsi_id": "adeg-1eef1d"}, "geometry": {"type": "Point", "coordinates": [9.75162, 47.47338]}},
{"type": "Feature", "id": "vYOP5PkV2amiAZNIdDh8yUwKC5k=", "properties": {"ref": "467", "@spider": "adeg", "shop": "supermarket", "addr:street_address": "Schendlingerstrasse 32A", "addr:city": "Bregenz", "addr:postcode": "6900", "addr:country": "AT", "name": "ADEG THALER", "phone": "+43557472737", "website": "https://www.adeg.at/services/maerkte-oeffnungszeiten/adeg-thaler", "opening_hours": "Mo-Fr 07:00-18:30; Sa 07:00-16:00", "brand": "ADEG \u00d6sterreich", "brand:wikidata": "Q290211", "nsi_id": "adeg-1eef1d"}, "geometry": {"type": "Point", "coordinates": [9.7203514, 47.494129]}},
{"type": "Feature", "id": "TNfMuXDKWPdYF4xVg7oaMyLeJ4U=", "properties": {"ref": "579", "@spider": "adeg", "shop": "supermarket", "addr:street_address": "Walgaustrasse 31", "addr:city": "Th\u00fcringen", "addr:postcode": "6712", "addr:country": "AT", "name": "ADEG BURTSCHER", "phone": "+4355505041", "website": "https://www.adeg.at/services/maerkte-oeffnungszeiten/adeg-burtscher", "opening_hours": "Mo-Fr 07:30-18:30; Sa 07:30-16:00", "brand": "ADEG \u00d6sterreich", "brand:wikidata": "Q290211", "nsi_id": "adeg-1eef1d"}, "geometry": {"type": "Point", "coordinates": [9.76708, 47.19781]}},
{"type": "Feature", "id": "-421yB-oWnO3be0tSVdUHoFoQgg=", "properties": {"ref": "883", "@spider": "adeg", "shop": "supermarket", "addr:street_address": "Hauskirchner Strasse 6", "addr:city": "Neusiedl An Der Zaya", "addr:postcode": "2183", "addr:country": "AT", "name": "ADEG LASZLOFFY", "phone": "+43253320500", "website": "https://www.adeg.at/services/maerkte-oeffnungszeiten/adeg-laszloffy", "opening_hours": "Mo 06:30-12:00,15:30-18:00; Tu 06:30-12:00; We-Fr 06:30-12:00,15:30-18:00; Sa 06:30-12:00", "brand": "ADEG \u00d6sterreich", "brand:wikidata": "Q290211", "nsi_id": "adeg-1eef1d"}, "geometry": {"type": "Point", "coordinates": [16.789954, 48.611875]}},
{"type": "Feature", "id": "Y44YL3JPnUCbLWgLSiGREu0wnVI=", "properties": {"ref": "478", "@spider": "adeg", "shop": "supermarket", "addr:street_address": "Hauptgasse 31", "addr:city": "Andau", "addr:postcode": "7163", "addr:country": "AT", "name": "ADEG GELBMANN", "phone": "+4321762308", "website": "https://www.adeg.at/services/maerkte-oeffnungszeiten/adeg-gelbmann", "opening_hours": "Mo-Th 06:30-12:30,14:30-18:00; Fr 06:30-18:00; Sa 06:30-12:00", "brand": "ADEG \u00d6sterreich", "brand:wikidata": "Q290211", "nsi_id": "adeg-1eef1d"}, "geometry": {"type": "Point", "coordinates": [17.03451, 47.7743]}},
{"type": "Feature", "id": "arLz4BfbB7wV3qp1Vf8xY8RYnig=", "properties": {"ref": "397", "@spider": "adeg", "shop": "supermarket", "addr:street_address": "Hauptstrasse 63", "addr:city": "Dobermannsdorf", "addr:postcode": "2181", "addr:country": "AT", "name": "ADEG MORAWEK", "phone": "+43253389450", "website": "https://www.adeg.at/services/maerkte-oeffnungszeiten/adeg-morawek", "opening_hours": "Mo-Fr 06:30-12:00,15:00-18:00; Sa 06:30-12:00", "brand": "ADEG \u00d6sterreich", "brand:wikidata": "Q290211", "nsi_id": "adeg-1eef1d"}, "geometry": {"type": "Point", "coordinates": [16.822667, 48.599068]}},
{"type": "Feature", "id": "R9Pmkwy1VdiO0uZtrPhmZZOIWOI=", "properties": {"ref": "457", "@spider": "adeg", "shop": "supermarket", "addr:street_address": "Dorfstrasse 60", "addr:city": "Duens", "addr:postcode": "6822", "addr:country": "AT", "name": "ADEG D\u00dcNS", "phone": "+4355242315", "website": "https://www.adeg.at/services/maerkte-oeffnungszeiten/adeg-duens", "opening_hours": "Mo 07:30-12:00,16:00-19:00; Tu 07:30-12:00; We 07:30-12:00,16:00-19:00; Th 07:30-12:00; Fr 07:30-12:00,16:00-18:00; Sa 07:30-12:00", "brand": "ADEG \u00d6sterreich", "brand:wikidata": "Q290211", "nsi_id": "adeg-1eef1d"}, "geometry": {"type": "Point", "coordinates": [9.718838, 47.221112]}},
{"type": "Feature", "id": "uqFdGxJ7Wq4ZyzB-Mpl4o9Wuv6s=", "properties": {"ref": "400", "@spider": "adeg", "shop": "supermarket", "addr:street_address": "Hauptstrasse 39", "addr:city": "Niederabsdorf", "addr:postcode": "2272", "addr:country": "AT", "name": "ADEG REIN", "phone": "+4325367241", "website": "https://www.adeg.at/services/maerkte-oeffnungszeiten/adeg-rein", "opening_hours": "Mo-Fr 07:00-12:00,15:00-18:00; Sa 07:00-14:00", "brand": "ADEG \u00d6sterreich", "brand:wikidata": "Q290211", "nsi_id": "adeg-1eef1d"}, "geometry": {"type": "Point", "coordinates": [16.85628, 48.56642]}},
{"type": "Feature", "id": "I9J3I0S5-HX3XYnhxMOisG6uCE4=", "properties": {"ref": "841", "@spider": "adeg", "shop": "supermarket", "addr:street_address": "Nibelungenstrasse 19", "addr:city": "Hohenems", "addr:postcode": "6845", "addr:country": "AT", "name": "ADEG GUAGLIANO", "phone": "+43557643150", "website": "https://www.adeg.at/services/maerkte-oeffnungszeiten/adeg-guagliano", "opening_hours": "Mo-Fr 07:30-18:30; Sa 07:30-16:30", "brand": "ADEG \u00d6sterreich", "brand:wikidata": "Q290211", "nsi_id": "adeg-1eef1d"}, "geometry": {"type": "Point", "coordinates": [9.6763, 47.36597]}},
{"type": "Feature", "id": "l8MCIrmVfFQGH7SEqi5Zx_Eswb4=", "properties": {"ref": "461", "@spider": "adeg", "shop": "supermarket", "addr:street_address": "Laternserstrasse 84", "addr:city": "Laterns", "addr:postcode": "6830", "addr:country": "AT", "name": "ADEG NESENSOHN", "phone": "+43552627113", "website": "https://www.adeg.at/services/maerkte-oeffnungszeiten/adeg-nesensohn", "opening_hours": "Mo-Th 07:00-12:00; Fr 07:00-12:00,14:45-18:00; Sa 07:00-11:00", "brand": "ADEG \u00d6sterreich", "brand:wikidata": "Q290211", "nsi_id": "adeg-1eef1d"}, "geometry": {"type": "Point", "coordinates": [9.69992, 47.26702]}},
{"type": "Feature", "id": "nIOMaQZZU2UYB-YU9w2WF3d57nk=", "properties": {"ref": "842", "@spider": "adeg", "shop": "supermarket", "addr:street_address": "Landstrasse 50", "addr:city": "Hoechst", "addr:postcode": "6973", "addr:country": "AT", "name": "ADEG KV-H\u00d6CHST", "phone": "+43557875201", "website": "https://www.adeg.at/services/maerkte-oeffnungszeiten/adeg-kv-hoechst", "opening_hours": "Mo-Fr 07:30-19:00; Sa 07:30-17:00", "brand": "ADEG \u00d6sterreich", "brand:wikidata": "Q290211", "nsi_id": "adeg-1eef1d"}, "geometry": {"type": "Point", "coordinates": [9.630754, 47.462224]}},
{"type": "Feature", "id": "oD092ata8AVDrFXurXGr2ZZ9Z3s=", "properties": {"ref": "401", "@spider": "adeg", "shop": "supermarket", "addr:street_address": "Rein 33", "addr:city": "Reintal", "addr:postcode": "2276", "addr:country": "AT", "name": "ADEG SPREITZER", "phone": "+4325575004", "website": "https://www.adeg.at/services/maerkte-oeffnungszeiten/adeg-spreitzer", "opening_hours": "Mo 07:00-12:00,15:00-18:00; Tu 07:00-12:00; We 07:00-12:00,15:00-18:00; Th 07:00-12:00; Fr 07:00-18:00; Sa 07:00-12:00", "brand": "ADEG \u00d6sterreich", "brand:wikidata": "Q290211", "nsi_id": "adeg-1eef1d"}, "geometry": {"type": "Point", "coordinates": [16.823959, 48.700422]}},
{"type": "Feature", "id": "6amGYWrSzrA6Z-0cUY_p6phAGu8=", "properties": {"ref": "624", "@spider": "adeg", "shop": "supermarket", "addr:street_address": "Treietstrasse 17", "addr:city": "Klaus", "addr:postcode": "6833", "addr:country": "AT", "name": "ADEG NEUMANN", "phone": "+43552356051", "website": "https://www.adeg.at/services/maerkte-oeffnungszeiten/adeg-neumann", "opening_hours": "Mo-Fr 07:30-18:30; Sa 07:30-17:00", "brand": "ADEG \u00d6sterreich", "brand:wikidata": "Q290211", "nsi_id": "adeg-1eef1d"}, "geometry": {"type": "Point", "coordinates": [9.6458184, 47.3047626]}},
{"type": "Feature", "id": "-PH6ZFzuoTFOiSUWU0gzt7gp3yM=", "properties": {"ref": "459", "@spider": "adeg", "shop": "supermarket", "addr:street_address": "Vorderlandstrasse 4", "addr:city": "Rankweil", "addr:postcode": "6830", "addr:country": "AT", "name": "ADEG KOGLER", "phone": "+43552241361", "website": "https://www.adeg.at/services/maerkte-oeffnungszeiten/adeg-kogler", "opening_hours": "Mo-Fr 07:30-18:30; Sa 07:30-16:00", "brand": "ADEG \u00d6sterreich", "brand:wikidata": "Q290211", "nsi_id": "adeg-1eef1d"}, "geometry": {"type": "Point", "coordinates": [9.63924, 47.27751]}},
{"type": "Feature", "id": "tstxEwRh3SJnqtch5q54jJ_QovY=", "properties": {"ref": "700", "@spider": "adeg", "shop": "supermarket", "addr:street_address": "Neue Landstrasse 23", "addr:city": "Maeder", "addr:postcode": "6841", "addr:country": "AT", "name": "ADEG RAINER", "phone": "+43552355483", "website": "https://www.adeg.at/services/maerkte-oeffnungszeiten/adeg-rainer", "opening_hours": "Mo-Fr 07:15-18:30; Sa 07:15-16:00", "brand": "ADEG \u00d6sterreich", "brand:wikidata": "Q290211", "nsi_id": "adeg-1eef1d"}, "geometry": {"type": "Point", "coordinates": [9.6192, 47.35007]}},
{"type": "Feature", "id": "w53RepFCPD0FlVisg3cruYr0gSc=", "properties": {"ref": "474", "@spider": "adeg", "shop": "supermarket", "addr:street_address": "Rheinstrasse 1", "addr:city": "Gaissau", "addr:postcode": "6974", "addr:country": "AT", "name": "ADEG WEISS", "phone": "+43557871590", "website": "https://www.adeg.at/services/maerkte-oeffnungszeiten/adeg-weiss", "opening_hours": "Mo-Fr 08:00-18:30; Sa 07:30-12:30", "brand": "ADEG \u00d6sterreich", "brand:wikidata": "Q290211", "nsi_id": "adeg-1eef1d"}, "geometry": {"type": "Point", "coordinates": [9.595243, 47.464542]}},
{"type": "Feature", "id": "1HYzsUuBv6mMvXYz-AlrgC6Jq5Y=", "properties": {"ref": "639", "@spider": "adeg", "shop": "supermarket", "addr:street_address": "Hauptstrasse 345", "addr:city": "Bernhardsthal", "addr:postcode": "2275", "addr:country": "AT", "name": "ADEG HOFMEISTER", "phone": "+43255720061", "website": "https://www.adeg.at/services/maerkte-oeffnungszeiten/adeg-hofmeister", "opening_hours": "Mo-Tu 06:30-12:00,16:00-18:00; We 06:30-12:00; Th-Fr 06:30-12:00,16:00-18:00; Sa 06:30-12:00", "brand": "ADEG \u00d6sterreich", "brand:wikidata": "Q290211", "nsi_id": "adeg-1eef1d"}, "geometry": {"type": "Point", "coordinates": [16.874176, 48.688621]}},
{"type": "Feature", "id": "OKbUtPF9pzIo35kdikgbXdrmi58=", "properties": {"ref": "455", "@spider": "adeg", "shop": "supermarket", "addr:street_address": "Reichsstrasse 9", "addr:city": "Altenstadt", "addr:postcode": "6800", "addr:country": "AT", "name": "ADEG HUBMANN", "phone": "+43552273650", "website": "https://www.adeg.at/services/maerkte-oeffnungszeiten/adeg-hubmann", "opening_hours": "Mo-Fr 07:30-18:30; Sa 07:30-12:30", "brand": "ADEG \u00d6sterreich", "brand:wikidata": "Q290211", "nsi_id": "adeg-1eef1d"}, "geometry": {"type": "Point", "coordinates": [9.61759, 47.25971]}},
{"type": "Feature", "id": "8kGXK9R9G8KozPxaH5NiYUF_QJs=", "properties": {"ref": "733", "@spider": "adeg", "shop": "supermarket", "addr:street_address": "Runastrasse 8", "addr:city": "Feldkirch Gisingen", "addr:postcode": "6805", "addr:country": "AT", "name": "ADEG BOJAN ACANSKI-HAGEN E.U.", "phone": "+43552270528", "website": "https://www.adeg.at/services/maerkte-oeffnungszeiten/adeg-bojan-acanski-hagen-eu", "opening_hours": "Mo-Fr 07:30-19:00; Sa 07:30-17:00", "brand": "ADEG \u00d6sterreich", "brand:wikidata": "Q290211", "nsi_id": "adeg-1eef1d"}, "geometry": {"type": "Point", "coordinates": [9.59901, 47.26007]}},
{"type": "Feature", "id": "afGYqGpCMS2pH5jDSuSkptBj1dc=", "properties": {"ref": "456", "@spider": "adeg", "shop": "supermarket", "addr:street_address": "Noflerstrasse 34", "addr:city": "Feldkirch-Gisingen", "addr:postcode": "6805", "addr:country": "AT", "name": "ADEG MOOSBRUGGER", "phone": "+43552274951", "website": "https://www.adeg.at/services/maerkte-oeffnungszeiten/adeg-moosbrugger", "opening_hours": "Mo-Fr 07:30-19:00; Sa 07:30-17:00", "brand": "ADEG \u00d6sterreich", "brand:wikidata": "Q290211", "nsi_id": "adeg-1eef1d"}, "geometry": {"type": "Point", "coordinates": [9.58705, 47.25674]}},
{"type": "Feature", "id": "JskEtgHSakEpIdrqg-2OO7fGWwo=", "properties": {"ref": "674", "@spider": "adeg", "shop": "supermarket", "addr:street_address": "Liechtensteinerstr.101", "addr:city": "Tisis", "addr:postcode": "6800", "addr:country": "AT", "name": "ADEG KOGLER", "phone": "+43552237284", "website": "https://www.adeg.at/services/maerkte-oeffnungszeiten/adeg-kogler-5", "opening_hours": "Mo-Fr 07:30-18:30; Sa 07:30-16:00", "brand": "ADEG \u00d6sterreich", "brand:wikidata": "Q290211", "nsi_id": "adeg-1eef1d"}, "geometry": {"type": "Point", "coordinates": [9.58077, 47.22451]}}]}