{"type":"FeatureCollection","features":[{"type": "Feature", "id": "GO8jPRps-PMfK8fv4Nd3lV16mrg=", "properties": {"ref": "Ahern Albuquerque", "@spider": "ahern", "shop": "plant_hire", "addr:street_address": "3120 Pan American Fwy Ne", "addr:city": "Albuquerque", "addr:state": "NM", "addr:postcode": "87107", "addr:country": "US", "name": "Ahern Albuquerque", "phone": "505-247-4300", "brand": "Ahern Rentals", "brand:wikidata": "Q114487657", "nsi_id": "ahernrentals-a0a976"}, "geometry": {"type": "Point", "coordinates": [-106.64447, 35.0511]}},
{"type": "Feature", "id": "cJWSrZf7uJrbnHQeEJPrYuD1jhI=", "properties": {"ref": "Ahern Alexander", "@spider": "ahern", "shop": "plant_hire", "addr:street_address": "2902 E Alexander Rd", "addr:city": "North Las Vegas", "addr:state": "NV", "addr:postcode": "89030", "addr:country": "US", "name": "Ahern Alexander", "phone": "702-651-0055", "brand": "Ahern Rentals", "brand:wikidata": "Q114487657", "nsi_id": "ahernrentals-a0a976"}, "geometry": {"type": "Point", "coordinates": [-115.10969, 36.23282]}},
{"type": "Feature", "id": "nLgvYhQGO5vap5P2H5p7OaUoxjU=", "properties": {"ref": "Ahern San Antonio", "@spider": "ahern", "shop": "plant_hire", "addr:street_address": "4100 Factory Hill St", "addr:city": "San Antonio", "addr:state": "TX", "addr:postcode": "78219", "addr:country": "US", "name": "Ahern San Antonio", "phone": "210-757-0320", "brand": "Ahern Rentals", "brand:wikidata": "Q114487657", "nsi_id": "ahernrentals-a0a976"}, "geometry": {"type": "Point", "coordinates": [-98.41275, 29.44891]}},
{"type": "Feature", "id": "Lk59YWfgmXYm6svwUfYdsy2MexY=", "properties": {"ref": "Ahern Arlington", "@spider": "ahern", "shop": "plant_hire", "addr:street_address": "16632 Smokey Point Blvd", "addr:city": "Arlington", "addr:state": "WA", "addr:postcode": "98223", "addr:country": "US", "name": "Ahern Arlington", "phone": "360-386-1640", "brand": "Ahern Rentals", "brand:wikidata": "Q114487657", "nsi_id": "ahernrentals-a0a976"}, "geometry": {"type": "Point", "coordinates": [-122.186547, 48.147715]}},
{"type": "Feature", "id": "DmupdSmQ8bo6hTM_WtDU49uXEvU=", "properties": {"ref": "Ahern Atlanta", "@spider": "ahern", "shop": "plant_hire", "addr:street_address": "4174 Jiles Rd Nw", "addr:city": "Kennesaw", "addr:state": "GA", "addr:postcode": "30144", "addr:country": "US", "name": "Ahern Atlanta", "phone": "404-968-8340", "brand": "Ahern Rentals", "brand:wikidata": "Q114487657", "nsi_id": "ahernrentals-a0a976"}, "geometry": {"type": "Point", "coordinates": [-84.60628, 34.04682]}},
{"type": "Feature", "id": "iQ8Ry8EZrz1hKdZ6vs8O6OL7kYk=", "properties": {"ref": "Ahern Atlanta South", "@spider": "ahern", "shop": "plant_hire", "addr:street_address": "6080 Frontage Rd", "addr:city": "Forest Park", "addr:state": "GA", "addr:postcode": "30297", "addr:country": "US", "name": "Ahern Atlanta South", "phone": "404-968-8370", "brand": "Ahern Rentals", "brand:wikidata": "Q114487657", "nsi_id": "ahernrentals-a0a976"}, "geometry": {"type": "Point", "coordinates": [-84.382015, 33.589181]}},
{"type": "Feature", "id": "o99nu8Sn4Kz9cE_0vF6Phyrj0HU=", "properties": {"ref": "Ahern Austin", "@spider": "ahern", "shop": "plant_hire", "addr:street_address": "3621 Silver Dollar Cir", "addr:city": "Austin", "addr:state": "TX", "addr:postcode": "78744", "addr:country": "US", "name": "Ahern Austin", "phone": "512-539-0710", "brand": "Ahern Rentals", "brand:wikidata": "Q114487657", "nsi_id": "ahernrentals-a0a976"}, "geometry": {"type": "Point", "coordinates": [-97.7126, 30.20524]}},
{"type": "Feature", "id": "v0DAwaIQXkBKoRVFHbcRao-9xO8=", "properties": {"ref": "Ahern Bakersfield", "@spider": "ahern", "shop": "plant_hire", "addr:street_address": "2113 Taft Hwy", "addr:city": "Bakersfield", "addr:state": "CA", "addr:postcode": "93313", "addr:country": "US", "name": "Ahern Bakersfield", "phone": "661-833-2000", "brand": "Ahern Rentals", "brand:wikidata": "Q114487657", "nsi_id": "ahernrentals-a0a976"}, "geometry": {"type": "Point", "coordinates": [-119.02596, 35.26612]}},
{"type": "Feature", "id": "AOxvA0eGy_Rbi2vGWot4Lt7l9Ls=", "properties": {"ref": "Ahern Baltimore", "@spider": "ahern", "shop": "plant_hire", "addr:street_address": "2031 Inverness Ave", "addr:city": "Baltimore", "addr:state": "MD", "addr:postcode": "21230", "addr:country": "US", "name": "Ahern Baltimore", "phone": "443-320-0830", "brand": "Ahern Rentals", "brand:wikidata": "Q114487657", "nsi_id": "ahernrentals-a0a976"}, "geometry": {"type": "Point", "coordinates": [-76.656787, 39.259708]}},
{"type": "Feature", "id": "IdRFyuastRYpBvUQqIr97yN0n6A=", "properties": {"ref": "Ahern Benicia", "@spider": "ahern", "shop": "plant_hire", "addr:street_address": "3673 Mallard Dr", "addr:city": "Benicia", "addr:state": "CA", "addr:postcode": "94510", "addr:country": "US", "name": "Ahern Benicia", "phone": "707-748-1990", "brand": "Ahern Rentals", "brand:wikidata": "Q114487657", "nsi_id": "ahernrentals-a0a976"}, "geometry": {"type": "Point", "coordinates": [-122.12666, 38.06794]}},
{"type": "Feature", "id": "gWLB9k_TrM3ob3e23Pb5N3zPGbM=", "properties": {"ref": "Ahern Bonanza High Reach", "@spider": "ahern", "shop": "plant_hire", "addr:street_address": "1885 W Bonanza Rd", "addr:city": "Las Vegas", "addr:state": "NV", "addr:postcode": "89106", "addr:country": "US", "name": "Ahern Bonanza High Reach", "phone": "702-362-1800", "brand": "Ahern Rentals", "brand:wikidata": "Q114487657", "nsi_id": "ahernrentals-a0a976"}, "geometry": {"type": "Point", "coordinates": [-115.16588, 36.17662]}},
{"type": "Feature", "id": "PfRdZB6oOkJHRbK-e7zv8V1g79M=", "properties": {"ref": "Ahern Bonanza General Rental", "@spider": "ahern", "shop": "plant_hire", "addr:street_address": "1785 W Bonanza Rd", "addr:city": "Las Vegas", "addr:state": "NV", "addr:postcode": "89106", "addr:country": "US", "name": "Ahern Bonanza General Rental", "phone": "702-648-6212", "brand": "Ahern Rentals", "brand:wikidata": "Q114487657", "nsi_id": "ahernrentals-a0a976"}, "geometry": {"type": "Point", "coordinates": [-115.16447, 36.17685]}},
{"type": "Feature", "id": "w3tj-fMSQo7nZ_h9J5A8OtcKBIs=", "properties": {"ref": "Ahern Boston", "@spider": "ahern", "shop": "plant_hire", "addr:street_address": "155 Maple St", "addr:city": "Stoughton", "addr:state": "MA", "addr:postcode": "02072", "addr:country": "US", "name": "Ahern Boston", "phone": "781-318-3780", "brand": "Ahern Rentals", "brand:wikidata": "Q114487657", "nsi_id": "ahernrentals-a0a976"}, "geometry": {"type": "Point", "coordinates": [-71.071764, 42.144334]}},
{"type": "Feature", "id": "zmHZXo23s2rqSdrPYr7UABUfnOM=", "properties": {"ref": "Ahern Casper", "@spider": "ahern", "shop": "plant_hire", "addr:street_address": "109 Progress Cir", "addr:city": "Mills", "addr:state": "WY", "addr:postcode": "82644", "addr:country": "US", "name": "Ahern Casper", "phone": "307-462-0650", "brand": "Ahern Rentals", "brand:wikidata": "Q114487657", "nsi_id": "ahernrentals-a0a976"}, "geometry": {"type": "Point", "coordinates": [-106.362592, 42.849626]}},
{"type": "Feature", "id": "2CbCJhr5NhtSONNG7JRgEZRLJm4=", "properties": {"ref": "Ahern Ventura", "@spider": "ahern", "shop": "plant_hire", "addr:street_address": "11351 County Dr Ste A", "addr:city": "Ventura", "addr:state": "CA", "addr:postcode": "93004", "addr:country": "US", "name": "Ahern Ventura", "phone": "805-988-9840", "brand": "Ahern Rentals", "brand:wikidata": "Q114487657", "nsi_id": "ahernrentals-a0a976"}, "geometry": {"type": "Point", "coordinates": [-119.142586, 34.283516]}},
{"type": "Feature", "id": "l1SM42zCItFDUdGrUJfDOUbk-EA=", "properties": {"ref": "Ahern Cedar City", "@spider": "ahern", "shop": "plant_hire", "addr:street_address": "428 N 800 W", "addr:city": "Cedar City", "addr:state": "UT", "addr:postcode": "84721", "addr:country": "US", "name": "Ahern Cedar City", "phone": "435-586-4888", "brand": "Ahern Rentals", "brand:wikidata": "Q114487657", "nsi_id": "ahernrentals-a0a976"}, "geometry": {"type": "Point", "coordinates": [-113.0737, 37.68491]}},
{"type": "Feature", "id": "ykCdvpdBVecDQKFAg4FUUHGYhVA=", "properties": {"ref": "Ahern Charlotte", "@spider": "ahern", "shop": "plant_hire", "addr:street_address": "2501 Westinghouse Blvd", "addr:city": "Charlotte", "addr:state": "NC", "addr:postcode": "28273", "addr:country": "US", "name": "Ahern Charlotte", "phone": "704-625-2180", "brand": "Ahern Rentals", "brand:wikidata": "Q114487657", "nsi_id": "ahernrentals-a0a976"}, "geometry": {"type": "Point", "coordinates": [-80.946697, 35.130172]}},
{"type": "Feature", "id": "kAVUIR5ZmdBOSbf-KeDfx9SpqJI=", "properties": {"ref": "Ahern Charleston", "@spider": "ahern", "shop": "plant_hire", "addr:street_address": "8008 Dorchester Rd", "addr:city": "North Charleston", "addr:state": "SC", "addr:postcode": "29418", "addr:country": "US", "name": "Ahern Charleston", "phone": "843-647-7860", "brand": "Ahern Rentals", "brand:wikidata": "Q114487657", "nsi_id": "ahernrentals-a0a976"}, "geometry": {"type": "Point", "coordinates": [-80.094704, 32.908186]}},
{"type": "Feature", "id": "lpaXf90-xAONrl_cw4mjezqQb_k=", "properties": {"ref": "Ahern Columbia", "@spider": "ahern", "shop": "plant_hire", "addr:street_address": "631 Buckner Rd", "addr:city": "Columbia", "addr:state": "SC", "addr:postcode": "29203", "addr:country": "US", "name": "Ahern Columbia", "phone": "803-783-0170", "brand": "Ahern Rentals", "brand:wikidata": "Q114487657", "nsi_id": "ahernrentals-a0a976"}, "geometry": {"type": "Point", "coordinates": [-81.02371, 34.0714]}},
{"type": "Feature", "id": "-eSzHKDKbPY6mh3P_IMlED8Bhzg=", "properties": {"ref": "Ahern Corpus Christi", "@spider": "ahern", "shop": "plant_hire", "addr:street_address": "7925 Bearden Dr", "addr:city": "Corpus Christi", "addr:state": "TX", "addr:postcode": "78409", "addr:country": "US", "name": "Ahern Corpus Christi", "phone": "361-288-8190", "brand": "Ahern Rentals", "brand:wikidata": "Q114487657", "nsi_id": "ahernrentals-a0a976"}, "geometry": {"type": "Point", "coordinates": [-97.51731, 27.81498]}},
{"type": "Feature", "id": "3j_N3cfAbNRnYpGE82gvPmaHBMw=", "properties": {"ref": "Ahern Colorado Springs", "@spider": "ahern", "shop": "plant_hire", "addr:street_address": "955 Valley St", "addr:city": "Colorado Springs", "addr:state": "CO", "addr:postcode": "80915", "addr:country": "US", "name": "Ahern Colorado Springs", "phone": "719-235-5670", "brand": "Ahern Rentals", "brand:wikidata": "Q114487657", "nsi_id": "ahernrentals-a0a976"}, "geometry": {"type": "Point", "coordinates": [-104.7133, 38.84576]}},
{"type": "Feature", "id": "vUpJ2h25KtXjDhorOKmHzvB35ys=", "properties": {"ref": "Ahern Denver", "@spider": "ahern", "shop": "plant_hire", "addr:street_address": "5478 Washington St", "addr:city": "Denver", "addr:state": "CO", "addr:postcode": "80216", "addr:country": "US", "name": "Ahern Denver", "phone": "303-297-1580", "brand": "Ahern Rentals", "brand:wikidata": "Q114487657", "nsi_id": "ahernrentals-a0a976"}, "geometry": {"type": "Point", "coordinates": [-104.977082, 39.797232]}},
{"type": "Feature", "id": "WDs-RRamkYq579TwZm_DP7EAodM=", "properties": {"ref": "Ahern Eastern Star Nursery", "@spider": "ahern", "shop": "plant_hire", "addr:street_address": "8725 S Eastern Ave", "addr:city": "Las Vegas", "addr:state": "NV", "addr:postcode": "89123", "addr:country": "US", "name": "Ahern Eastern Star Nursery", "phone": "702-386-2100", "brand": "Ahern Rentals", "brand:wikidata": "Q114487657", "nsi_id": "ahernrentals-a0a976"}, "geometry": {"type": "Point", "coordinates": [-115.119147, 36.031053]}},
{"type": "Feature", "id": "W5GUgTQjkyZbrs8Sj2Vsyai5GVs=", "properties": {"ref": "Ahern El Paso", "@spider": "ahern", "shop": "plant_hire", "addr:street_address": "1301 Gail Borden Pl", "addr:city": "El Paso", "addr:state": "TX", "addr:postcode": "79935", "addr:country": "US", "name": "Ahern El Paso", "phone": "915-875-1800", "brand": "Ahern Rentals", "brand:wikidata": "Q114487657", "nsi_id": "ahernrentals-a0a976"}, "geometry": {"type": "Point", "coordinates": [-106.324962, 31.746377]}},
{"type": "Feature", "id": "TORmfA7h7_gfgd6TGVMfvwpFRls=", "properties": {"ref": "Ahern Eugene", "@spider": "ahern", "shop": "plant_hire", "addr:street_address": "90053 Prairie Rd", "addr:city": "Eugene", "addr:state": "OR", "addr:postcode": "97402", "addr:country": "US", "name": "Ahern Eugene", "phone": "541-689-2300", "brand": "Ahern Rentals", "brand:wikidata": "Q114487657", "nsi_id": "ahernrentals-a0a976"}, "geometry": {"type": "Point", "coordinates": [-123.116056, 44.057023]}},
{"type": "Feature", "id": "M8AHC90ZExg_KBdw4bcg1jjw3EY=", "properties": {"ref": "Ahern Fife", "@spider": "ahern", "shop": "plant_hire", "addr:street_address": "1108 54th Ave E", "addr:city": "Fife", "addr:state": "WA", "addr:postcode": "98424", "addr:country": "US", "name": "Ahern Fife", "phone": "253-948-1120", "brand": "Ahern Rentals", "brand:wikidata": "Q114487657", "nsi_id": "ahernrentals-a0a976"}, "geometry": {"type": "Point", "coordinates": [-122.35904, 47.24752]}},
{"type": "Feature", "id": "cwx4Nf7MjVPMjlECS3gabTLzILU=", "properties": {"ref": "Ahern Fresno", "@spider": "ahern", "shop": "plant_hire", "addr:street_address": "3591 E Date Ave", "addr:city": "Fresno", "addr:state": "CA", "addr:postcode": "93725", "addr:country": "US", "name": "Ahern Fresno", "phone": "559-495-4000", "brand": "Ahern Rentals", "brand:wikidata": "Q114487657", "nsi_id": "ahernrentals-a0a976"}, "geometry": {"type": "Point", "coordinates": [-119.76474, 36.70167]}},
{"type": "Feature", "id": "9NdUlZtKDa9eJZaFvHvu7Fh0KBc=", "properties": {"ref": "Ahern Greenville", "@spider": "ahern", "shop": "plant_hire", "addr:street_address": "2420 S Highway 14", "addr:city": "Greer", "addr:state": "SC", "addr:postcode": "29650", "addr:country": "US", "name": "Ahern Greenville", "phone": "864-551-2800", "brand": "Ahern Rentals", "brand:wikidata": "Q114487657", "nsi_id": "ahernrentals-a0a976"}, "geometry": {"type": "Point", "coordinates": [-82.22516, 34.87434]}},
{"type": "Feature", "id": "_GNvza9Bknax9foy7r7Y6c2etdM=", "properties": {"ref": "Ahern Hartford----------Closed", "@spider": "ahern", "shop": "plant_hire", "addr:street_address": "9 Belden Rd", "addr:city": "Bloomfield", "addr:state": "CT", "addr:postcode": "06002", "addr:country": "US", "name": "Ahern Hartford----------Closed", "phone": "860-481-8500", "brand": "Ahern Rentals", "brand:wikidata": "Q114487657", "nsi_id": "ahernrentals-a0a976"}, "geometry": {"type": "Point", "coordinates": [-72.69552, 41.860454]}},
{"type": "Feature", "id": "lTwcESZES915Im8YjpBln5D8KMc=", "properties": {"ref": "Ahern Houston-South", "@spider": "ahern", "shop": "plant_hire", "addr:street_address": "2550 S Sam Houston Pkwy W", "addr:city": "Houston", "addr:state": "TX", "addr:postcode": "77047", "addr:country": "US", "name": "Ahern Houston-South", "phone": "713-413-2700", "brand": "Ahern Rentals", "brand:wikidata": "Q114487657", "nsi_id": "ahernrentals-a0a976"}, "geometry": {"type": "Point", "coordinates": [-95.42106, 29.5988]}},
{"type": "Feature", "id": "EWUZtYoyyXBH8uCmWQ3k3lIi8N4=", "properties": {"ref": "Ahern Irving", "@spider": "ahern", "shop": "plant_hire", "addr:street_address": "1450 S Loop 12", "addr:city": "Irving", "addr:state": "TX", "addr:postcode": "75060", "addr:country": "US", "name": "Ahern Irving", "phone": "972-579-7700", "brand": "Ahern Rentals", "brand:wikidata": "Q114487657", "nsi_id": "ahernrentals-a0a976"}, "geometry": {"type": "Point", "coordinates": [-96.9201, 32.79731]}},
{"type": "Feature", "id": "mIHGRfV6ChTtcau5FszC3IJmmLQ=", "properties": {"ref": "Ahern Kansas City", "@spider": "ahern", "shop": "plant_hire", "addr:street_address": "350 N James St", "addr:city": "Kansas City", "addr:state": "KS", "addr:postcode": "66118", "addr:country": "US", "name": "Ahern Kansas City", "phone": "913-281-7555", "brand": "Ahern Rentals", "brand:wikidata": "Q114487657", "nsi_id": "ahernrentals-a0a976"}, "geometry": {"type": "Point", "coordinates": [-94.61533, 39.10949]}},
{"type": "Feature", "id": "7YjuB36aHGETVI8PIr6HrF7EKas=", "properties": {"ref": "Ahern La Mirada", "@spider": "ahern", "shop": "plant_hire", "addr:street_address": "16930 Valley View Ave", "addr:city": "La Mirada", "addr:state": "CA", "addr:postcode": "90638", "addr:country": "US", "name": "Ahern La Mirada", "phone": "562-697-3700", "brand": "Ahern Rentals", "brand:wikidata": "Q114487657", "nsi_id": "ahernrentals-a0a976"}, "geometry": {"type": "Point", "coordinates": [-118.028477, 33.878013]}},
{"type": "Feature", "id": "P7GHtZo_aT9MrSW4uVO0aI858JM=", "properties": {"ref": "Ahern Lake Charles", "@spider": "ahern", "shop": "plant_hire", "addr:street_address": "3898 Highway 90", "addr:city": "Westlake", "addr:state": "LA", "addr:postcode": "70669", "addr:country": "US", "name": "Ahern Lake Charles", "phone": "337-476-2800", "brand": "Ahern Rentals", "brand:wikidata": "Q114487657", "nsi_id": "ahernrentals-a0a976"}, "geometry": {"type": "Point", "coordinates": [-93.307696, 30.236862]}},
{"type": "Feature", "id": "_YZ5cGP-ujeOyENfJA9RpKBiGms=", "properties": {"ref": "Ahern Lake Dallas", "@spider": "ahern", "shop": "plant_hire", "addr:street_address": "400 N Stemmons Fwy", "addr:city": "Lake Dallas", "addr:state": "TX", "addr:postcode": "75065", "addr:country": "US", "name": "Ahern Lake Dallas", "phone": "972-499-0730", "brand": "Ahern Rentals", "brand:wikidata": "Q114487657", "nsi_id": "ahernrentals-a0a976"}, "geometry": {"type": "Point", "coordinates": [-97.035738, 33.127413]}},
{"type": "Feature", "id": "D8o1T3kh7B3EG5ONWgRvI5ZQ2xs=", "properties": {"ref": "Ahern Lubbock", "@spider": "ahern", "shop": "plant_hire", "addr:street_address": "3102 Avenue B", "addr:city": "Lubbock", "addr:state": "TX", "addr:postcode": "79404", "addr:country": "US", "name": "Ahern Lubbock", "phone": "806-589-1252", "brand": "Ahern Rentals", "brand:wikidata": "Q114487657", "nsi_id": "ahernrentals-a0a976"}, "geometry": {"type": "Point", "coordinates": [-101.83916, 33.56569]}},
{"type": "Feature", "id": "1zsbTTFRCYrmSd3YI_x6Dq2C4Qk=", "properties": {"ref": "Ahern Mckinney", "@spider": "ahern", "shop": "plant_hire", "addr:street_address": "6301 W University Dr", "addr:city": "Mckinney", "addr:state": "TX", "addr:postcode": "75071", "addr:country": "US", "name": "Ahern Mckinney", "phone": "214-504-1099", "brand": "Ahern Rentals", "brand:wikidata": "Q114487657", "nsi_id": "ahernrentals-a0a976"}, "geometry": {"type": "Point", "coordinates": [-96.70016, 33.21738]}},
{"type": "Feature", "id": "PDLdJvlOlRPAHasR8RkoH2Fvdq0=", "properties": {"ref": "Ahern Minden", "@spider": "ahern", "shop": "plant_hire", "addr:street_address": "1247 Us Highway 395 N", "addr:city": "Gardnerville", "addr:state": "NV", "addr:postcode": "89410", "addr:country": "US", "name": "Ahern Minden", "phone": "775-782-6100", "brand": "Ahern Rentals", "brand:wikidata": "Q114487657", "nsi_id": "ahernrentals-a0a976"}, "geometry": {"type": "Point", "coordinates": [-119.7262, 38.92436]}},
{"type": "Feature", "id": "PKqwYbcr6rFRgZKLreLbbIPhk0I=", "properties": {"ref": "Ahern Hardware Gardnerville", "@spider": "ahern", "shop": "plant_hire", "addr:street_address": "1247 Us Highway 395 N", "addr:city": "Gardnerville", "addr:state": "NV", "addr:postcode": "89410", "addr:country": "US", "name": "Ahern Hardware Gardnerville", "phone": "775-265-0680", "brand": "Ahern Rentals", "brand:wikidata": "Q114487657", "nsi_id": "ahernrentals-a0a976"}, "geometry": {"type": "Point", "coordinates": [-119.7262, 38.92436]}},
{"type": "Feature", "id": "hWy5shaQqBcsKkON94XqqZhZJow=", "properties": {"ref": "Ahern Modesto", "@spider": "ahern", "shop": "plant_hire", "addr:street_address": "1419 S 7th St", "addr:city": "Modesto", "addr:state": "CA", "addr:postcode": "95351", "addr:country": "US", "name": "Ahern Modesto", "phone": "209-571-5000", "brand": "Ahern Rentals", "brand:wikidata": "Q114487657", "nsi_id": "ahernrentals-a0a976"}, "geometry": {"type": "Point", "coordinates": [-120.97998, 37.61015]}},
{"type": "Feature", "id": "qrO2EFFwNHArw6YGvyBcdDMm7R4=", "properties": {"ref": "Ahern Nashville", "@spider": "ahern", "shop": "plant_hire", "addr:street_address": "181 Industrial Blvd", "addr:city": "La Vergne", "addr:state": "TN", "addr:postcode": "37086", "addr:country": "US", "name": "Ahern Nashville", "phone": "615-641-6440", "brand": "Ahern Rentals", "brand:wikidata": "Q114487657", "nsi_id": "ahernrentals-a0a976"}, "geometry": {"type": "Point", "coordinates": [-86.590785, 35.992136]}},
{"type": "Feature", "id": "qfVd3jJyC8N6ztRrfzNgU1y_a1s=", "properties": {"ref": "Ahern Carlsbad New Mexico", "@spider": "ahern", "shop": "plant_hire", "addr:street_address": "5022 National Parks Hwy", "addr:city": "Carlsbad", "addr:state": "NM", "addr:postcode": "88220", "addr:country": "US", "name": "Ahern Carlsbad New Mexico", "phone": "575-885-0077", "brand": "Ahern Rentals", "brand:wikidata": "Q114487657", "nsi_id": "ahernrentals-a0a976"}, "geometry": {"type": "Point", "coordinates": [-104.243473, 32.348204]}},
{"type": "Feature", "id": "g2U6RC8xx-puEYJGUSMzqIvWKX0=", "properties": {"ref": "Ahern Mccarran Nv", "@spider": "ahern", "shop": "plant_hire", "addr:street_address": "1777 Peru Dr", "addr:city": "Sparks", "addr:state": "NV", "addr:postcode": "89437", "addr:country": "US", "name": "Ahern Mccarran Nv", "phone": "775-473-1850", "brand": "Ahern Rentals", "brand:wikidata": "Q114487657", "nsi_id": "ahernrentals-a0a976"}, "geometry": {"type": "Point", "coordinates": [-119.492361, 39.536683]}},
{"type": "Feature", "id": "CwvekSEN92WtA8x_igkKg0GX2jY=", "properties": {"ref": "Ahern Odessa", "@spider": "ahern", "shop": "plant_hire", "addr:street_address": "3249 S County Rd W", "addr:city": "Odessa", "addr:state": "TX", "addr:postcode": "79766", "addr:country": "US", "name": "Ahern Odessa", "phone": "432-614-5810", "brand": "Ahern Rentals", "brand:wikidata": "Q114487657", "nsi_id": "ahernrentals-a0a976"}, "geometry": {"type": "Point", "coordinates": [-102.320827, 31.853036]}},
{"type": "Feature", "id": "1-uhshjXUaeAmgFsX1Zhw9QZ-H0=", "properties": {"ref": "Ahern Oklahoma City", "@spider": "ahern", "shop": "plant_hire", "addr:street_address": "4701 S Rockwell St", "addr:city": "Oklahoma City", "addr:state": "OK", "addr:postcode": "73179", "addr:country": "US", "name": "Ahern Oklahoma City", "phone": "405-745-6999", "brand": "Ahern Rentals", "brand:wikidata": "Q114487657", "nsi_id": "ahernrentals-a0a976"}, "geometry": {"type": "Point", "coordinates": [-97.63712, 35.41675]}},
{"type": "Feature", "id": "wMqiDKcIWprrS_t2FB_tuXr8iQM=", "properties": {"ref": "Ahern Omaha", "@spider": "ahern", "shop": "plant_hire", "addr:street_address": "15225 Industrial Rd", "addr:city": "Omaha", "addr:state": "NE", "addr:postcode": "68144", "addr:country": "US", "name": "Ahern Omaha", "phone": "402-571-8000", "brand": "Ahern Rentals", "brand:wikidata": "Q114487657", "nsi_id": "ahernrentals-a0a976"}, "geometry": {"type": "Point", "coordinates": [-96.152001, 41.231816]}},
{"type": "Feature", "id": "FSJLKFqsrXs9RkGJnWEsobz3DBs=", "properties": {"ref": "Ahern Oquendo", "@spider": "ahern", "shop": "plant_hire", "addr:street_address": "5915 Dean Martin Dr", "addr:city": "Las Vegas", "addr:state": "NV", "addr:postcode": "89118", "addr:country": "US", "name": "Ahern Oquendo", "phone": "702-736-4922", "brand": "Ahern Rentals", "brand:wikidata": "Q114487657", "nsi_id": "ahernrentals-a0a976"}, "geometry": {"type": "Point", "coordinates": [-115.18207, 36.08212]}},
{"type": "Feature", "id": "ppG37pcS1713JD_7J2nDl__ZdZ8=", "properties": {"ref": "Ahern Orlando", "@spider": "ahern", "shop": "plant_hire", "addr:street_address": "11403 Rocket Blvd", "addr:city": "Orlando", "addr:state": "FL", "addr:postcode": "32824", "addr:country": "US", "name": "Ahern Orlando", "phone": "407-459-7000", "brand": "Ahern Rentals", "brand:wikidata": "Q114487657", "nsi_id": "ahernrentals-a0a976"}, "geometry": {"type": "Point", "coordinates": [-81.39035, 28.403021]}},
{"type": "Feature", "id": "4wcwuIpkO2AQTsKjYQW0iG3jU5g=", "properties": {"ref": "Ahern Pacoima", "@spider": "ahern", "shop": "plant_hire", "addr:street_address": "10232 Glenoaks Blvd", "addr:city": "Pacoima", "addr:state": "CA", "addr:postcode": "91331", "addr:country": "US", "name": "Ahern Pacoima", "phone": "818-834-7669", "brand": "Ahern Rentals", "brand:wikidata": "Q114487657", "nsi_id": "ahernrentals-a0a976"}, "geometry": {"type": "Point", "coordinates": [-118.394078, 34.256636]}},
{"type": "Feature", "id": "gvpJQAUtMqVZCA8pgLe-MO-piRA=", "properties": {"ref": "Ahern Pahrump", "@spider": "ahern", "shop": "plant_hire", "addr:street_address": "4377 E Dandelion St", "addr:city": "Pahrump", "addr:state": "NV", "addr:postcode": "89048", "addr:country": "US", "name": "Ahern Pahrump", "phone": "775-990-4260", "brand": "Ahern Rentals", "brand:wikidata": "Q114487657", "nsi_id": "ahernrentals-a0a976"}, "geometry": {"type": "Point", "coordinates": [-115.935, 36.175]}},
{"type": "Feature", "id": "V9vKFDoulocAbD4-DigEgGMERQM=", "properties": {"ref": "Ahern Philadelphia", "@spider": "ahern", "shop": "plant_hire", "addr:street_address": "3000 Industrial Hwy", "addr:city": "Eddystone", "addr:state": "PA", "addr:postcode": "19022", "addr:country": "US", "name": "Ahern Philadelphia", "phone": "610-497-2290", "brand": "Ahern Rentals", "brand:wikidata": "Q114487657", "nsi_id": "ahernrentals-a0a976"}, "geometry": {"type": "Point", "coordinates": [-75.338243, 39.858305]}},
{"type": "Feature", "id": "AfPVGnS9AUzHfMlLREpF7FnBgCs=", "properties": {"ref": "Ahern Phoenix", "@spider": "ahern", "shop": "plant_hire", "addr:street_address": "9650 W Roosevelt St", "addr:city": "Tolleson", "addr:state": "AZ", "addr:postcode": "85353", "addr:country": "US", "name": "Ahern Phoenix", "phone": "602-253-5438", "brand": "Ahern Rentals", "brand:wikidata": "Q114487657", "nsi_id": "ahernrentals-a0a976"}, "geometry": {"type": "Point", "coordinates": [-112.10746, 33.43488]}},
{"type": "Feature", "id": "Q5-tqQGUZnLXj0xnbnruVbG7WQo=", "properties": {"ref": "Ahern Portland", "@spider": "ahern", "shop": "plant_hire", "addr:street_address": "3836 Ne Columbia Blvd Bldg B", "addr:city": "Portland", "addr:state": "OR", "addr:postcode": "97211", "addr:country": "US", "name": "Ahern Portland", "phone": "503-281-3456", "brand": "Ahern Rentals", "brand:wikidata": "Q114487657", "nsi_id": "ahernrentals-a0a976"}, "geometry": {"type": "Point", "coordinates": [-122.62387, 45.57206]}},
{"type": "Feature", "id": "2SVXrE8C5yPUU1DB5_fX3CIJHts=", "properties": {"ref": "Ahern Raleigh", "@spider": "ahern", "shop": "plant_hire", "addr:street_address": "2506 Yonkers Rd", "addr:city": "Raleigh", "addr:state": "NC", "addr:postcode": "27604", "addr:country": "US", "name": "Ahern Raleigh", "phone": "919-809-6350", "brand": "Ahern Rentals", "brand:wikidata": "Q114487657", "nsi_id": "ahernrentals-a0a976"}, "geometry": {"type": "Point", "coordinates": [-78.60206, 35.80885]}},
{"type": "Feature", "id": "7Ox-3e2xDXKtw9XyWm28UKhqAjU=", "properties": {"ref": "Ahern Reno", "@spider": "ahern", "shop": "plant_hire", "addr:street_address": "3750 N Virginia St", "addr:city": "Reno", "addr:state": "NV", "addr:postcode": "89506", "addr:country": "US", "name": "Ahern Reno", "phone": "775-322-8228", "brand": "Ahern Rentals", "brand:wikidata": "Q114487657", "nsi_id": "ahernrentals-a0a976"}, "geometry": {"type": "Point", "coordinates": [-119.82382, 39.56543]}},
{"type": "Feature", "id": "JIOF9cfNOtbVX334JORkCuNs_4U=", "properties": {"ref": "Ahern Richfield", "@spider": "ahern", "shop": "plant_hire", "addr:street_address": "25 E 900 N", "addr:city": "Richfield", "addr:state": "UT", "addr:postcode": "84701", "addr:country": "US", "name": "Ahern Richfield", "phone": "435-896-7368", "brand": "Ahern Rentals", "brand:wikidata": "Q114487657", "nsi_id": "ahernrentals-a0a976"}, "geometry": {"type": "Point", "coordinates": [-112.08419, 38.78121]}},
{"type": "Feature", "id": "-V3cG1aUPfyDkNhaEhjFci5NlhI=", "properties": {"ref": "Ahern Romoland", "@spider": "ahern", "shop": "plant_hire", "addr:street_address": "28261 Us Highway 74", "addr:city": "Romoland", "addr:state": "CA", "addr:postcode": "92585", "addr:country": "US", "name": "Ahern Romoland", "phone": "951-928-9200", "brand": "Ahern Rentals", "brand:wikidata": "Q114487657", "nsi_id": "ahernrentals-a0a976"}, "geometry": {"type": "Point", "coordinates": [-117.16678, 33.74229]}},
{"type": "Feature", "id": "ZzfRg7EOyp-Ry5VqlNym7BOI-cs=", "properties": {"ref": "Ahern Sacramento", "@spider": "ahern", "shop": "plant_hire", "addr:street_address": "1655 El Camino Ave", "addr:city": "Sacramento", "addr:state": "CA", "addr:postcode": "95815", "addr:country": "US", "name": "Ahern Sacramento", "phone": "916-388-2390", "brand": "Ahern Rentals", "brand:wikidata": "Q114487657", "nsi_id": "ahernrentals-a0a976"}, "geometry": {"type": "Point", "coordinates": [-121.42904, 38.61116]}},
{"type": "Feature", "id": "Lh_DbFBLzHWkMw2crzaHw25lcJk=", "properties": {"ref": "Ahern Salt Lake City", "@spider": "ahern", "shop": "plant_hire", "addr:street_address": "1890 S 500 W", "addr:city": "Salt Lake City", "addr:state": "UT", "addr:postcode": "84115", "addr:country": "US", "name": "Ahern Salt Lake City", "phone": "801-973-9969", "brand": "Ahern Rentals", "brand:wikidata": "Q114487657", "nsi_id": "ahernrentals-a0a976"}, "geometry": {"type": "Point", "coordinates": [-111.90629, 40.72927]}},
{"type": "Feature", "id": "5bmH20DdZv10QuMsmBInTPLaNYA=", "properties": {"ref": "Ahern Santa Maria", "@spider": "ahern", "shop": "plant_hire", "addr:street_address": "1105 S Blosser Rd", "addr:city": "Santa Maria", "addr:state": "CA", "addr:postcode": "93458", "addr:country": "US", "name": "Ahern Santa Maria", "phone": "805-925-1869", "brand": "Ahern Rentals", "brand:wikidata": "Q114487657", "nsi_id": "ahernrentals-a0a976"}, "geometry": {"type": "Point", "coordinates": [-120.454277, 34.941039]}},
{"type": "Feature", "id": "RyhWQM80H-GK9zx9_f8sEkrNLD8=", "properties": {"ref": "Ahern South San Francisco", "@spider": "ahern", "shop": "plant_hire", "addr:street_address": "251 Shaw Rd", "addr:city": "South San Francisco", "addr:state": "CA", "addr:postcode": "94080", "addr:country": "US", "name": "Ahern South San Francisco", "phone": "650-453-6620", "brand": "Ahern Rentals", "brand:wikidata": "Q114487657", "nsi_id": "ahernrentals-a0a976"}, "geometry": {"type": "Point", "coordinates": [-122.406972, 37.641375]}},
{"type": "Feature", "id": "NzjngvGyHGnpmaJLYyms92A8uqo=", "properties": {"ref": "Ahern San Leandro", "@spider": "ahern", "shop": "plant_hire", "addr:street_address": "2091 W Avenue 140th", "addr:city": "San Leandro", "addr:state": "CA", "addr:postcode": "94577", "addr:country": "US", "name": "Ahern San Leandro", "phone": "510-924-9000", "brand": "Ahern Rentals", "brand:wikidata": "Q114487657", "nsi_id": "ahernrentals-a0a976"}, "geometry": {"type": "Point", "coordinates": [-122.171133, 37.697923]}},
{"type": "Feature", "id": "jxz5AnbUQ41BOSMFIbKgMMBYyd4=", "properties": {"ref": "Ahern St George", "@spider": "ahern", "shop": "plant_hire", "addr:street_address": "1280 Redledge Rd", "addr:city": "Washington", "addr:state": "UT", "addr:postcode": "84780", "addr:country": "US", "name": "Ahern St George", "phone": "435-628-4100", "brand": "Ahern Rentals", "brand:wikidata": "Q114487657", "nsi_id": "ahernrentals-a0a976"}, "geometry": {"type": "Point", "coordinates": [-113.53028, 37.12751]}},
{"type": "Feature", "id": "OCPyV3K5L4r8Xk4EfxYjK-OIYsk=", "properties": {"ref": "Ahern Sunset", "@spider": "ahern", "shop": "plant_hire", "addr:street_address": "777 W Sunset Rd", "addr:city": "Henderson", "addr:state": "NV", "addr:postcode": "89011", "addr:country": "US", "name": "Ahern Sunset", "phone": "702-454-7368", "brand": "Ahern Rentals", "brand:wikidata": "Q114487657", "nsi_id": "ahernrentals-a0a976"}, "geometry": {"type": "Point", "coordinates": [-115.02633, 36.06351]}},
{"type": "Feature", "id": "cEG0nigvN0XCTDnUYUJBHLeiNF8=", "properties": {"ref": "Ahern Tampa", "@spider": "ahern", "shop": "plant_hire", "addr:street_address": "4310 E Columbus Dr", "addr:city": "Tampa", "addr:state": "FL", "addr:postcode": "33605", "addr:country": "US", "name": "Ahern Tampa", "phone": "813-327-4230", "brand": "Ahern Rentals", "brand:wikidata": "Q114487657", "nsi_id": "ahernrentals-a0a976"}, "geometry": {"type": "Point", "coordinates": [-82.40938, 27.96682]}},
{"type": "Feature", "id": "uWnKnNNjobMoxnbG9wCnMQBR3wY=", "properties": {"ref": "Ahern True Value", "@spider": "ahern", "shop": "plant_hire", "addr:street_address": "3535 N Rancho Dr", "addr:city": "Las Vegas", "addr:state": "NV", "addr:postcode": "89130", "addr:country": "US", "name": "Ahern True Value", "phone": "702-396-3310", "brand": "Ahern Rentals", "brand:wikidata": "Q114487657", "nsi_id": "ahernrentals-a0a976"}, "geometry": {"type": "Point", "coordinates": [-115.21843, 36.22347]}},
{"type": "Feature", "id": "GLTFRgIGHVY8UD7z_nGWFrhIhP4=", "properties": {"ref": "Ahern Tucson", "@spider": "ahern", "shop": "plant_hire", "addr:street_address": "4995 N Casa Grande Hwy", "addr:city": "Tucson", "addr:state": "AZ", "addr:postcode": "85743", "addr:country": "US", "name": "Ahern Tucson", "phone": "520-408-0999", "brand": "Ahern Rentals", "brand:wikidata": "Q114487657", "nsi_id": "ahernrentals-a0a976"}, "geometry": {"type": "Point", "coordinates": [-111.03427, 32.29775]}},
{"type": "Feature", "id": "wPETsJYyenIOx0MxGhxDtOFaK-0=", "properties": {"ref": "Ahern Waco", "@spider": "ahern", "shop": "plant_hire", "addr:street_address": "1507 Interstate 35 N", "addr:city": "Waco", "addr:state": "TX", "addr:postcode": "76705", "addr:country": "US", "name": "Ahern Waco", "phone": "254-230-9966", "brand": "Ahern Rentals", "brand:wikidata": "Q114487657", "nsi_id": "ahernrentals-a0a976"}, "geometry": {"type": "Point", "coordinates": [-97.10739, 31.59871]}},
{"type": "Feature", "id": "qz9OA216HF88CNtbrgb7D4V4VLU=", "properties": {"ref": "Ahern Washington, Dc", "@spider": "ahern", "shop": "plant_hire", "addr:street_address": "7910 Penn Randall Pl", "addr:city": "Upper Marlboro", "addr:state": "MD", "addr:postcode": "20772", "addr:country": "US", "name": "Ahern Washington, Dc", "phone": "240-691-0200", "brand": "Ahern Rentals", "brand:wikidata": "Q114487657", "nsi_id": "ahernrentals-a0a976"}, "geometry": {"type": "Point", "coordinates": [-76.86789, 38.83251]}},
{"type": "Feature", "id": "fZDiJkqxPvGT9j43p33uBHB5Kc0=", "properties": {"ref": "Ahern Winston Salem", "@spider": "ahern", "shop": "plant_hire", "addr:street_address": "3800 N Patterson Ave", "addr:city": "Winston Salem", "addr:state": "NC", "addr:postcode": "27105", "addr:country": "US", "name": "Ahern Winston Salem", "phone": "336-661-7770", "brand": "Ahern Rentals", "brand:wikidata": "Q114487657", "nsi_id": "ahernrentals-a0a976"}, "geometry": {"type": "Point", "coordinates": [-80.24472, 36.14967]}},
{"type": "Feature", "id": "Er-VYCFIQVS2Ov1DEVQJsf-bw-c=", "properties": {"ref": "Ahern Yuma", "@spider": "ahern", "shop": "plant_hire", "addr:street_address": "3320 E Gila Ridge Rd Ste 1", "addr:city": "Yuma", "addr:state": "AZ", "addr:postcode": "85365", "addr:country": "US", "name": "Ahern Yuma", "phone": "928-271-5800", "brand": "Ahern Rentals", "brand:wikidata": "Q114487657", "nsi_id": "ahernrentals-a0a976"}, "geometry": {"type": "Point", "coordinates": [-114.57717, 32.68632]}},
{"type": "Feature", "id": "Q69KSonqiqDtBslegvfnIpM5x38=", "properties": {"ref": "Ahern Birmingham", "@spider": "ahern", "shop": "plant_hire", "addr:street_address": "601 Galloway Cir", "addr:city": "Alabaster", "addr:state": "AL", "addr:postcode": "35007", "addr:country": "US", "name": "Ahern Birmingham", "phone": "205-216-6100", "brand": "Ahern Rentals", "brand:wikidata": "Q114487657", "nsi_id": "ahernrentals-a0a976"}, "geometry": {"type": "Point", "coordinates": [-86.759002, 33.185807]}},
{"type": "Feature", "id": "13JQf-DXf4JhEpdWvmXVG6XGK5A=", "properties": {"ref": "Ahern Pompano Beach", "@spider": "ahern", "shop": "plant_hire", "addr:street_address": "205 Nw 12th Ave", "addr:city": "Pompano Beach", "addr:state": "FL", "addr:postcode": "33069", "addr:country": "US", "name": "Ahern Pompano Beach", "phone": "239-920-4570", "brand": "Ahern Rentals", "brand:wikidata": "Q114487657", "nsi_id": "ahernrentals-a0a976"}, "geometry": {"type": "Point", "coordinates": [-80.13806, 26.232964]}},
{"type": "Feature", "id": "PgImhh8UDGrBudQwMYO4QxRp1QE=", "properties": {"ref": "Ahern Savannah", "@spider": "ahern", "shop": "plant_hire", "addr:street_address": "1363 Dean Forest Rd", "addr:city": "Savannah", "addr:state": "GA", "addr:postcode": "31405", "addr:country": "US", "name": "Ahern Savannah", "phone": "912-666-2280", "brand": "Ahern Rentals", "brand:wikidata": "Q114487657", "nsi_id": "ahernrentals-a0a976"}, "geometry": {"type": "Point", "coordinates": [-81.21034, 32.05858]}},
{"type": "Feature", "id": "EgleUmoA7famnRmjszMtKtL_4yA=", "properties": {"ref": "Ahern South Fort Worth", "@spider": "ahern", "shop": "plant_hire", "addr:street_address": "2301 Se Loop 820", "addr:city": "Fort Worth", "addr:state": "TX", "addr:postcode": "76119", "addr:country": "US", "name": "Ahern South Fort Worth", "phone": "817-768-1900", "brand": "Ahern Rentals", "brand:wikidata": "Q114487657", "nsi_id": "ahernrentals-a0a976"}, "geometry": {"type": "Point", "coordinates": [-97.29676, 32.66768]}},
{"type": "Feature", "id": "dbk7UAMlXrb2XQeyLUA5G--EtzI=", "properties": {"ref": "Ahern Miramar", "@spider": "ahern", "shop": "plant_hire", "addr:street_address": "5725 Eastgate Dr", "addr:city": "San Diego", "addr:state": "CA", "addr:postcode": "92121", "addr:country": "US", "name": "Ahern Miramar", "phone": "619-938-8242", "brand": "Ahern Rentals", "brand:wikidata": "Q114487657", "nsi_id": "ahernrentals-a0a976"}, "geometry": {"type": "Point", "coordinates": [-117.19616, 32.88517]}},
{"type": "Feature", "id": "KsiIPn1Peu3RVRP3xswqFmzErqU=", "properties": {"ref": "Ahern Boise", "@spider": "ahern", "shop": "plant_hire", "addr:street_address": "7126 W Victory Rd", "addr:city": "Boise", "addr:state": "ID", "addr:postcode": "83709", "addr:country": "US", "name": "Ahern Boise", "phone": "208-350-6300", "brand": "Ahern Rentals", "brand:wikidata": "Q114487657", "nsi_id": "ahernrentals-a0a976"}, "geometry": {"type": "Point", "coordinates": [-116.270438, 43.576353]}},
{"type": "Feature", "id": "RROW9_skf6LxXGrruydRgOX7dqs=", "properties": {"ref": "Ahern Mobile", "@spider": "ahern", "shop": "plant_hire", "addr:street_address": "3465 Hurricane Bay Dr", "addr:city": "Theodore", "addr:state": "AL", "addr:postcode": "36582", "addr:country": "US", "name": "Ahern Mobile", "phone": "251-283-7100", "brand": "Ahern Rentals", "brand:wikidata": "Q114487657", "nsi_id": "ahernrentals-a0a976"}, "geometry": {"type": "Point", "coordinates": [-88.12072, 30.55523]}},
{"type": "Feature", "id": "JN0A2z3ADMZrBPoXgFSmL1I8YGo=", "properties": {"ref": "Ahern New Orleans", "@spider": "ahern", "shop": "plant_hire", "addr:street_address": "431 Manhattan Blvd", "addr:city": "Harvey", "addr:state": "LA", "addr:postcode": "70058", "addr:country": "US", "name": "Ahern New Orleans", "phone": "504-576-0500", "brand": "Ahern Rentals", "brand:wikidata": "Q114487657", "nsi_id": "ahernrentals-a0a976"}, "geometry": {"type": "Point", "coordinates": [-90.070659, 29.911379]}},
{"type": "Feature", "id": "LBE7QS57aMcVHtS2F-ihmYrvR0w=", "properties": {"ref": "Ahern Baton Rouge", "@spider": "ahern", "shop": "plant_hire", "addr:street_address": "35190 Mark Mccowan Drive", "addr:city": "Geismar", "addr:state": "LA", "addr:postcode": "70734", "addr:country": "US", "name": "Ahern Baton Rouge", "phone": "225-484-1200", "brand": "Ahern Rentals", "brand:wikidata": "Q114487657", "nsi_id": "ahernrentals-a0a976"}, "geometry": {"type": "Point", "coordinates": [-91.006508, 30.219346]}},
{"type": "Feature", "id": "4-rsqOx07RevFujMcf3FQmlWWGM=", "properties": {"ref": "Ahern Beaumont", "@spider": "ahern", "shop": "plant_hire", "addr:street_address": "4925 W Cardinal Dr", "addr:city": "Beaumont", "addr:state": "TX", "addr:postcode": "77705", "addr:country": "US", "name": "Ahern Beaumont", "phone": "409-248-1000", "brand": "Ahern Rentals", "brand:wikidata": "Q114487657", "nsi_id": "ahernrentals-a0a976"}, "geometry": {"type": "Point", "coordinates": [-94.016001, 29.92406]}},
{"type": "Feature", "id": "HSXL5l1qMxGlYJqvhRNmX24INiA=", "properties": {"ref": "Ahern Houston North", "@spider": "ahern", "shop": "plant_hire", "addr:street_address": "2112 S Houston Ave", "addr:city": "Humble", "addr:state": "TX", "addr:postcode": "77396", "addr:country": "US", "name": "Ahern Houston North", "phone": "346-616-9400", "brand": "Ahern Rentals", "brand:wikidata": "Q114487657", "nsi_id": "ahernrentals-a0a976"}, "geometry": {"type": "Point", "coordinates": [-95.26334, 29.97348]}},
{"type": "Feature", "id": "_xzfOiJ60OwmD_K1YWl0Pj5dklA=", "properties": {"ref": "Ahern Pensacola", "@spider": "ahern", "shop": "plant_hire", "addr:street_address": "100 Myrick St", "addr:city": "Pensacola", "addr:state": "FL", "addr:postcode": "32505", "addr:country": "US", "name": "Ahern Pensacola", "phone": "850-903-8100", "brand": "Ahern Rentals", "brand:wikidata": "Q114487657", "nsi_id": "ahernrentals-a0a976"}, "geometry": {"type": "Point", "coordinates": [-87.25391, 30.44068]}},
{"type": "Feature", "id": "_jjyPhFivC8O_L2irC0W7rzss2k=", "properties": {"ref": "Ahern Provo", "@spider": "ahern", "shop": "plant_hire", "addr:street_address": "2151 W 500 N", "addr:city": "Springville", "addr:state": "UT", "addr:postcode": "84663", "addr:country": "US", "name": "Ahern Provo", "phone": "801-349-1133", "brand": "Ahern Rentals", "brand:wikidata": "Q114487657", "nsi_id": "ahernrentals-a0a976"}, "geometry": {"type": "Point", "coordinates": [-111.64988, 40.17423]}},
{"type": "Feature", "id": "3lgGl8VUX9ZPqcGRJrJ2EdGb8fI=", "properties": {"ref": "Ahern Tulsa", "@spider": "ahern", "shop": "plant_hire", "addr:street_address": "7215 E 46th St", "addr:city": "Tulsa", "addr:state": "OK", "addr:postcode": "74145", "addr:country": "US", "name": "Ahern Tulsa", "phone": "918-727-2300", "brand": "Ahern Rentals", "brand:wikidata": "Q114487657", "nsi_id": "ahernrentals-a0a976"}, "geometry": {"type": "Point", "coordinates": [-95.86496, 36.1336]}},
{"type": "Feature", "id": "UQziTi-Bdvso409yMNfU9GXHwMc=", "properties": {"ref": "Ahern Jacksonville", "@spider": "ahern", "shop": "plant_hire", "addr:street_address": "6931 Business Park Blvd N", "addr:city": "Jacksonville", "addr:state": "FL", "addr:postcode": "32256", "addr:country": "US", "name": "Ahern Jacksonville", "phone": "904-914-5400", "brand": "Ahern Rentals", "brand:wikidata": "Q114487657", "nsi_id": "ahernrentals-a0a976"}, "geometry": {"type": "Point", "coordinates": [-81.52888, 30.16676]}},
{"type": "Feature", "id": "_IuYKIOwb3CqdQDnaa9aE5geVII=", "properties": {"ref": "Ahern Auburn", "@spider": "ahern", "shop": "plant_hire", "addr:street_address": "2490 S College St", "addr:city": "Auburn", "addr:state": "AL", "addr:postcode": "36832", "addr:country": "US", "name": "Ahern Auburn", "phone": "334-591-6700", "brand": "Ahern Rentals", "brand:wikidata": "Q114487657", "nsi_id": "ahernrentals-a0a976"}, "geometry": {"type": "Point", "coordinates": [-85.508625, 32.557033]}},
{"type": "Feature", "id": "KhOrLEGqMl2fmUXBZG42dDQWyQY=", "properties": {"ref": "Ahern Memphis", "@spider": "ahern", "shop": "plant_hire", "addr:street_address": "1451 Corporate Ave", "addr:city": "Memphis", "addr:state": "TN", "addr:postcode": "38132", "addr:country": "US", "name": "Ahern Memphis", "phone": "901-666-5300", "brand": "Ahern Rentals", "brand:wikidata": "Q114487657", "nsi_id": "ahernrentals-a0a976"}, "geometry": {"type": "Point", "coordinates": [-90.014477, 35.071786]}},
{"type": "Feature", "id": "Dh3AWhqZuN18Lw2la_m8Z82vidI=", "properties": {"ref": "Ahern Huntsville", "@spider": "ahern", "shop": "plant_hire", "addr:street_address": "213 Dan Tibbs Rd Nw", "addr:city": "Huntsville", "addr:state": "AL", "addr:postcode": "35806", "addr:country": "US", "name": "Ahern Huntsville", "phone": "256-692-5400", "brand": "Ahern Rentals", "brand:wikidata": "Q114487657", "nsi_id": "ahernrentals-a0a976"}, "geometry": {"type": "Point", "coordinates": [-86.661746, 34.779296]}},
{"type": "Feature", "id": "ZO7PUM0SleohkPpMIhkmKDCZ2aY=", "properties": {"ref": "Ahern Little Rock", "@spider": "ahern", "shop": "plant_hire", "addr:street_address": "9110 Interstate 30", "addr:city": "Little Rock", "addr:state": "AR", "addr:postcode": "72209", "addr:country": "US", "name": "Ahern Little Rock", "phone": "501-246-8820", "brand": "Ahern Rentals", "brand:wikidata": "Q114487657", "nsi_id": "ahernrentals-a0a976"}, "geometry": {"type": "Point", "coordinates": [-92.358591, 34.679848]}},
{"type": "Feature", "id": "62IVPR-SOhfUeF-ti_rcg86cX4g=", "properties": {"ref": "Ahern Shreveport", "@spider": "ahern", "shop": "plant_hire", "addr:street_address": "3460 Industrial Dr", "addr:city": "Bossier City", "addr:state": "LA", "addr:postcode": "71112", "addr:country": "US", "name": "Ahern Shreveport", "phone": "318-666-4500", "brand": "Ahern Rentals", "brand:wikidata": "Q114487657", "nsi_id": "ahernrentals-a0a976"}, "geometry": {"type": "Point", "coordinates": [-93.68533, 32.52394]}},
{"type": "Feature", "id": "kZmRFc7vQXdPJQX3FlyGquth9bY=", "properties": {"ref": "Ahern Jackson", "@spider": "ahern", "shop": "plant_hire", "addr:street_address": "305 Walker Cir", "addr:city": "Richland", "addr:state": "MS", "addr:postcode": "39218", "addr:country": "US", "name": "Ahern Jackson", "phone": "601-767-1200", "brand": "Ahern Rentals", "brand:wikidata": "Q114487657", "nsi_id": "ahernrentals-a0a976"}, "geometry": {"type": "Point", "coordinates": [-90.17161, 32.2446]}},
{"type": "Feature", "id": "Yv1kczcM0FDR5E6e59zPbcZ-z7U=", "properties": {"ref": "Ahern Virginia Beach", "@spider": "ahern", "shop": "plant_hire", "addr:street_address": "1344 Taylor Farm Rd", "addr:city": "Virginia Beach", "addr:state": "VA", "addr:postcode": "23453", "addr:country": "US", "name": "Ahern Virginia Beach", "phone": "757-974-0200", "brand": "Ahern Rentals", "brand:wikidata": "Q114487657", "nsi_id": "ahernrentals-a0a976"}, "geometry": {"type": "Point", "coordinates": [-76.06384, 36.7954]}},
{"type": "Feature", "id": "6hy1ZAxRAfflOc1UwyksJ721yFc=", "properties": {"ref": "Ahern Idaho Falls", "@spider": "ahern", "shop": "plant_hire", "addr:street_address": "5162 S Yellowstone Hwy", "addr:city": "Idaho Falls", "addr:state": "ID", "addr:postcode": "83402", "addr:country": "US", "name": "Ahern Idaho Falls", "phone": "208-757-5200", "brand": "Ahern Rentals", "brand:wikidata": "Q114487657", "nsi_id": "ahernrentals-a0a976"}, "geometry": {"type": "Point", "coordinates": [-112.06911, 43.45174]}},
{"type": "Feature", "id": "rKXrCbvy9pl0Z83pli3gW-pXR5Q=", "properties": {"ref": "Ahern Ashland", "@spider": "ahern", "shop": "plant_hire", "addr:street_address": "11440 Air Park Rd", "addr:city": "Ashland", "addr:state": "VA", "addr:postcode": "23005", "addr:country": "US", "name": "Ahern Ashland", "phone": "804-988-5100", "brand": "Ahern Rentals", "brand:wikidata": "Q114487657", "nsi_id": "ahernrentals-a0a976"}, "geometry": {"type": "Point", "coordinates": [-77.447084, 37.716527]}},
{"type": "Feature", "id": "i2yCt4_Vzk90UZ9lPNNwNnEf9VY=", "properties": {"ref": "Ahern Riverside", "@spider": "ahern", "shop": "plant_hire", "addr:street_address": "7820 Lincoln Ave", "addr:city": "Riverside", "addr:state": "CA", "addr:postcode": "92504", "addr:country": "US", "name": "Ahern Riverside", "phone": "909-877-0126", "brand": "Ahern Rentals", "brand:wikidata": "Q114487657", "nsi_id": "ahernrentals-a0a976"}, "geometry": {"type": "Point", "coordinates": [-117.4036, 33.92473]}},
{"type": "Feature", "id": "4bPcC9D8Tfwc3f0bsavcfUoldJs=", "properties": {"ref": "Ahern Downtown Chicago", "@spider": "ahern", "shop": "plant_hire", "addr:street_address": "4027 S Wells St", "addr:city": "Chicago", "addr:state": "IL", "addr:postcode": "60609", "addr:country": "US", "name": "Ahern Downtown Chicago", "phone": "702-362-0623", "brand": "Ahern Rentals", "brand:wikidata": "Q114487657", "nsi_id": "ahernrentals-a0a976"}, "geometry": {"type": "Point", "coordinates": [-87.63218, 41.81963]}},
{"type": "Feature", "id": "8jtC5ueh7u__BeWYGvDtWaL-eWs=", "properties": {"ref": "Ahern Elk Grove Village", "@spider": "ahern", "shop": "plant_hire", "addr:street_address": "100 Kelly St", "addr:city": "Elk Grove Village", "addr:state": "IL", "addr:postcode": "60007", "addr:country": "US", "name": "Ahern Elk Grove Village", "phone": "847-957-1801", "brand": "Ahern Rentals", "brand:wikidata": "Q114487657", "nsi_id": "ahernrentals-a0a976"}, "geometry": {"type": "Point", "coordinates": [-87.98337, 42.03003]}},
{"type": "Feature", "id": "WkpIdSw_WiWxSH81vZKedZB3Rt4=", "properties": {"ref": "Ahern Clearwater", "@spider": "ahern", "shop": "plant_hire", "addr:street_address": "12290 Us Highway 19 N", "addr:city": "Clearwater", "addr:state": "FL", "addr:postcode": "33764", "addr:country": "US", "name": "Ahern Clearwater", "phone": "727-472-1300", "brand": "Ahern Rentals", "brand:wikidata": "Q114487657", "nsi_id": "ahernrentals-a0a976"}, "geometry": {"type": "Point", "coordinates": [-82.71541, 27.88332]}},
{"type": "Feature", "id": "wyU6uiuFvDuFaqntGnrKoqtAQzA=", "properties": {"ref": "Ahern Boise High Reach", "@spider": "ahern", "shop": "plant_hire", "addr:street_address": "6851 W Targee St", "addr:city": "Boise", "addr:state": "ID", "addr:postcode": "83709", "addr:country": "US", "name": "Ahern Boise High Reach", "phone": "208-869-3630", "brand": "Ahern Rentals", "brand:wikidata": "Q114487657", "nsi_id": "ahernrentals-a0a976"}, "geometry": {"type": "Point", "coordinates": [-116.266658, 43.58223]}},
{"type": "Feature", "id": "j96vHjWj6qPGCl6tsJ2IVCR1Ts0=", "properties": {"ref": "Ahern West Palm Beach", "@spider": "ahern", "shop": "plant_hire", "addr:street_address": "1700 N Florida Mango Rd", "addr:city": "West Palm Beach", "addr:state": "FL", "addr:postcode": "33409", "addr:country": "US", "name": "Ahern West Palm Beach", "phone": "561-567-9400", "brand": "Ahern Rentals", "brand:wikidata": "Q114487657", "nsi_id": "ahernrentals-a0a976"}, "geometry": {"type": "Point", "coordinates": [-80.078155, 26.699149]}},
{"type": "Feature", "id": "38XWTkADm1Ksu_G-V5JBrzvOkbc=", "properties": {"ref": "Ahern St Louis", "@spider": "ahern", "shop": "plant_hire", "addr:street_address": "2303 Papin St", "addr:city": "Saint Louis", "addr:state": "MO", "addr:postcode": "63103", "addr:country": "US", "name": "Ahern St Louis", "phone": "314-464-7016", "brand": "Ahern Rentals", "brand:wikidata": "Q114487657", "nsi_id": "ahernrentals-a0a976"}, "geometry": {"type": "Point", "coordinates": [-90.21713, 38.6232]}},
{"type": "Feature", "id": "mS0pqMrkKDXSOV-_FK_coiBbY94=", "properties": {"ref": "Ahern Bradenton", "@spider": "ahern", "shop": "plant_hire", "addr:street_address": "4514 19th Street Ct E", "addr:city": "Bradenton", "addr:state": "FL", "addr:postcode": "34203", "addr:country": "US", "name": "Ahern Bradenton", "phone": "941-267-2100", "brand": "Ahern Rentals", "brand:wikidata": "Q114487657", "nsi_id": "ahernrentals-a0a976"}, "geometry": {"type": "Point", "coordinates": [-82.540312, 27.460325]}},
{"type": "Feature", "id": "XBhUfjfxLN9AxsFfD3UahX3YO6E=", "properties": {"ref": "Ahern Fort Myers", "@spider": "ahern", "shop": "plant_hire", "addr:street_address": "5626 Enterprise Pkwy", "addr:city": "Fort Myers", "addr:state": "FL", "addr:postcode": "33905", "addr:country": "US", "name": "Ahern Fort Myers", "phone": "239-933-2500", "brand": "Ahern Rentals", "brand:wikidata": "Q114487657", "nsi_id": "ahernrentals-a0a976"}, "geometry": {"type": "Point", "coordinates": [-81.800954, 26.664953]}},
{"type": "Feature", "id": "si6v75VY6KNOGshQx-QGrXVzOH4=", "properties": {"ref": "Ahern Mesa", "@spider": "ahern", "shop": "plant_hire", "addr:street_address": "503 W 3rd Ave", "addr:city": "Mesa", "addr:state": "AZ", "addr:postcode": "85210", "addr:country": "US", "name": "Ahern Mesa", "phone": "480-933-8214", "brand": "Ahern Rentals", "brand:wikidata": "Q114487657", "nsi_id": "ahernrentals-a0a976"}, "geometry": {"type": "Point", "coordinates": [-111.842046, 33.408886]}}]}