{"type":"FeatureCollection","features":[{"type": "Feature", "id": "Oy6QG3ieZNdrHFb8h5LmxbvOXWg=", "properties": {"ref": "PER-1", "@spider": "aldi_sud_ch", "shop": "supermarket", "addr:full": "Wambisterstrasse 5, Gebenstorf, 5412", "addr:street_address": "Wambisterstrasse 5", "addr:city": "Gebenstorf", "addr:postcode": "5412", "addr:country": "CH", "name": "PER-1", "phone": "056 223 15 45", "opening_hours": "Mo-Th 07:30-20:00; Sa 07:30-20:00", "brand": "ALDI", "brand:wikidata": "Q41171672", "nsi_id": "aldi-0d26d7"}, "geometry": {"type": "Point", "coordinates": [8.2441, 47.4892]}},
{"type": "Feature", "id": "BGzGhf67x5oEIBuAdVzC0Kk5ydI=", "properties": {"ref": "DOM-15", "@spider": "aldi_sud_ch", "shop": "supermarket", "addr:full": "Route Cantonale 24, Conthey, 1964", "addr:street_address": "Route Cantonale 24", "addr:city": "Conthey", "addr:postcode": "1964", "addr:country": "CH", "name": "DOM-15", "phone": "027 346 73 85", "opening_hours": "Mo-Th 07:30-18:30; Fr 07:30-20:00; Sa 07:30-17:00", "brand": "ALDI", "brand:wikidata": "Q41171672", "nsi_id": "aldi-0d26d7"}, "geometry": {"type": "Point", "coordinates": [7.30008, 46.22407]}},
{"type": "Feature", "id": "qvcL1y4wytkpLZufNi76_FyJGB8=", "properties": {"ref": "SWB-9", "@spider": "aldi_sud_ch", "shop": "supermarket", "addr:full": "Sonnenstrasse 9, Romanshorn, 8590", "addr:street_address": "Sonnenstrasse 9", "addr:city": "Romanshorn", "addr:postcode": "8590", "addr:country": "CH", "name": "SWB-9", "phone": "071 460 28 79", "opening_hours": "Mo-Sa 07:30-20:00", "brand": "ALDI", "brand:wikidata": "Q41171672", "nsi_id": "aldi-0d26d7"}, "geometry": {"type": "Point", "coordinates": [9.36575, 47.57045]}},
{"type": "Feature", "id": "gGLosVipATJ2dY8vx_R0hYNJUWo=", "properties": {"ref": "PER-51", "@spider": "aldi_sud_ch", "shop": "supermarket", "addr:full": "L\u00e4gernstrasse 5, Wohlen, 5610", "addr:street_address": "L\u00e4gernstrasse 5", "addr:city": "Wohlen", "addr:postcode": "5610", "addr:country": "CH", "name": "PER-51", "phone": "056 611 93 15", "opening_hours": "Mo-Sa 07:30-20:00", "brand": "ALDI", "brand:wikidata": "Q41171672", "nsi_id": "aldi-0d26d7"}, "geometry": {"type": "Point", "coordinates": [8.2727, 47.3586]}},
{"type": "Feature", "id": "YcpyZpD85JuE0Dcg9gt-K_YRlyg=", "properties": {"ref": "DOM-48", "@spider": "aldi_sud_ch", "shop": "supermarket", "addr:full": "Rue Peillonnex 2, Ch\u00eane-Bourg, 1225", "addr:street_address": "Rue Peillonnex 2", "addr:city": "Ch\u00eane-Bourg", "addr:postcode": "1225", "addr:country": "CH", "name": "DOM-48", "phone": "022 860 12 32", "opening_hours": "Mo-We 08:00-19:00; Th 08:00-20:00; Fr 08:00-19:00; Sa 08:00-18:00", "brand": "ALDI", "brand:wikidata": "Q41171672", "nsi_id": "aldi-0d26d7"}, "geometry": {"type": "Point", "coordinates": [6.196306, 46.194287]}},
{"type": "Feature", "id": "cRv0FmZDn5aNUvjsCQ0q6Hdvw0Q=", "properties": {"ref": "PER-78", "@spider": "aldi_sud_ch", "shop": "supermarket", "addr:full": "Neue Aarburgerstrasse 22, Rothrist, 4852", "addr:street_address": "Neue Aarburgerstrasse 22", "addr:city": "Rothrist", "addr:postcode": "4852", "addr:country": "CH", "name": "PER-78", "phone": "062 724 09 42", "opening_hours": "Mo-Sa 08:00-20:00", "brand": "ALDI", "brand:wikidata": "Q41171672", "nsi_id": "aldi-0d26d7"}, "geometry": {"type": "Point", "coordinates": [7.886645, 47.306388]}},
{"type": "Feature", "id": "Moc0dok1Nog4SWUxKrP6DyJSwbY=", "properties": {"ref": "DOM-28", "@spider": "aldi_sud_ch", "shop": "supermarket", "addr:full": "Rue des Terreaux 25, Lausanne, 1003", "addr:street_address": "Rue des Terreaux 25", "addr:city": "Lausanne", "addr:postcode": "1003", "addr:country": "CH", "name": "DOM-28", "phone": "021 312 53 71", "opening_hours": "Mo-Fr 08:00-19:00; Sa 08:00-18:00", "brand": "ALDI", "brand:wikidata": "Q41171672", "nsi_id": "aldi-0d26d7"}, "geometry": {"type": "Point", "coordinates": [6.6272991, 46.522668]}},
{"type": "Feature", "id": "7AcHsR7aZ9FBlMeit1PJu3Q5NjE=", "properties": {"ref": "SWB-36", "@spider": "aldi_sud_ch", "shop": "supermarket", "addr:full": "Binzm\u00fchlestrasse 102, Z\u00fcrich, 8050", "addr:street_address": "Binzm\u00fchlestrasse 102", "addr:city": "Z\u00fcrich", "addr:postcode": "8050", "addr:country": "CH", "name": "SWB-36", "phone": "044 312 69 37", "opening_hours": "Mo-Sa 07:30-20:00", "brand": "ALDI", "brand:wikidata": "Q41171672", "nsi_id": "aldi-0d26d7"}, "geometry": {"type": "Point", "coordinates": [8.539022, 47.413747]}},
{"type": "Feature", "id": "qi4ww0hTg4pUDdiIE8EOG7hIROw=", "properties": {"ref": "PER-2", "@spider": "aldi_sud_ch", "shop": "supermarket", "addr:full": "Umfahrungsstrasse 1, Sursee, 6210", "addr:street_address": "Umfahrungsstrasse 1", "addr:city": "Sursee", "addr:postcode": "6210", "addr:country": "CH", "name": "PER-2", "phone": "041 921 17 20", "opening_hours": "Mo-We 07:30-19:00; Th 07:30-21:00; Fr 07:30-19:00; Sa 07:30-17:00", "brand": "ALDI", "brand:wikidata": "Q41171672", "nsi_id": "aldi-0d26d7"}, "geometry": {"type": "Point", "coordinates": [8.0951, 47.1706]}},
{"type": "Feature", "id": "ikf_dpLGLYj9pFq7pbKm2CuBfkI=", "properties": {"ref": "DOM-59", "@spider": "aldi_sud_ch", "shop": "supermarket", "addr:full": "Z.I. La Palaz B8, Payerne, 1530", "addr:street_address": "Z.I. La Palaz B8", "addr:city": "Payerne", "addr:postcode": "1530", "addr:country": "CH", "name": "DOM-59", "phone": "026 662 15 18", "opening_hours": "Mo-Th 07:30-19:00; Fr 07:30-21:00; Sa 07:30-17:00", "brand": "ALDI", "brand:wikidata": "Q41171672", "nsi_id": "aldi-0d26d7"}, "geometry": {"type": "Point", "coordinates": [6.933, 46.8233]}},
{"type": "Feature", "id": "2XK74q5RLGpskd48qBQAoXQVm34=", "properties": {"ref": "SWB-17", "@spider": "aldi_sud_ch", "shop": "supermarket", "addr:full": "Z\u00fcrcherstrasse 381, Frauenfeld, 8500", "addr:street_address": "Z\u00fcrcherstrasse 381", "addr:city": "Frauenfeld", "addr:postcode": "8500", "addr:country": "CH", "name": "SWB-17", "phone": "052 721 91 43", "opening_hours": "Mo-Sa 07:30-20:00", "brand": "ALDI", "brand:wikidata": "Q41171672", "nsi_id": "aldi-0d26d7"}, "geometry": {"type": "Point", "coordinates": [8.92114, 47.57082]}},
{"type": "Feature", "id": "_vL8QUkMaQv6hrD4EDAHKmFb4rw=", "properties": {"ref": "SWB-41", "@spider": "aldi_sud_ch", "shop": "supermarket", "addr:full": "Wiesentalstrasse 2, Uznach, 8730", "addr:street_address": "Wiesentalstrasse 2", "addr:city": "Uznach", "addr:postcode": "8730", "addr:country": "CH", "name": "SWB-41", "phone": "055 290 25 67", "opening_hours": "Mo-Th 07:30-19:00; Fr 07:30-20:00; Sa 07:30-17:00", "brand": "ALDI", "brand:wikidata": "Q41171672", "nsi_id": "aldi-0d26d7"}, "geometry": {"type": "Point", "coordinates": [8.96571, 47.22899]}},
{"type": "Feature", "id": "zv4wSpkGupNu742vZLFwrBFGovU=", "properties": {"ref": "SWB-25", "@spider": "aldi_sud_ch", "shop": "supermarket", "addr:full": "Hohlstrasse 473, Z\u00fcrich, 8048", "addr:street_address": "Hohlstrasse 473", "addr:city": "Z\u00fcrich", "addr:postcode": "8048", "addr:country": "CH", "name": "SWB-25", "phone": "044 419 04 18", "opening_hours": "Mo-Sa 07:30-21:00", "brand": "ALDI", "brand:wikidata": "Q41171672", "nsi_id": "aldi-0d26d7"}, "geometry": {"type": "Point", "coordinates": [8.496714, 47.388249]}},
{"type": "Feature", "id": "LzJEe_si66SqKsNWplftZoRZjCI=", "properties": {"ref": "DOM-74", "@spider": "aldi_sud_ch", "shop": "supermarket", "addr:full": "Route de Moncor 12, Villars-sur-Gl\u00e2ne, 1752", "addr:street_address": "Route de Moncor 12", "addr:city": "Villars-sur-Gl\u00e2ne", "addr:postcode": "1752", "addr:country": "CH", "name": "DOM-74", "phone": "026 401 19 71", "opening_hours": "Mo-Th 08:00-19:00; Fr 08:00-21:00; Sa 08:00-16:00", "brand": "ALDI", "brand:wikidata": "Q41171672", "nsi_id": "aldi-0d26d7"}, "geometry": {"type": "Point", "coordinates": [7.12107889, 46.7983124]}},
{"type": "Feature", "id": "sSSAE1yx8LCg7hahe8rUFB4QNCU=", "properties": {"ref": "PER-23", "@spider": "aldi_sud_ch", "shop": "supermarket", "addr:full": "Via Cantonale 4, Mezzovico, 6805", "addr:street_address": "Via Cantonale 4", "addr:city": "Mezzovico", "addr:postcode": "6805", "addr:country": "CH", "name": "PER-23", "phone": "091 946 25 26", "opening_hours": "Mo-We 07:30-19:00; Th 07:30-21:00; Fr 07:30-19:00; Sa 07:30-18:30", "brand": "ALDI", "brand:wikidata": "Q41171672", "nsi_id": "aldi-0d26d7"}, "geometry": {"type": "Point", "coordinates": [8.9211, 46.0898]}},
{"type": "Feature", "id": "4klnx-ad56LzvwCnzjwNN_vXkU4=", "properties": {"ref": "SWB-34", "@spider": "aldi_sud_ch", "shop": "supermarket", "addr:full": "Bahnhofstrasse 4A, Davos, 7270", "addr:street_address": "Bahnhofstrasse 4A", "addr:city": "Davos", "addr:postcode": "7270", "addr:country": "CH", "name": "SWB-34", "phone": "081 413 79 16", "opening_hours": "Mo-Sa 07:30-20:00", "brand": "ALDI", "brand:wikidata": "Q41171672", "nsi_id": "aldi-0d26d7"}, "geometry": {"type": "Point", "coordinates": [9.81957, 46.79222]}},
{"type": "Feature", "id": "EUBFRIa7bJIuxMWBuXXUHNrN9To=", "properties": {"ref": "DOM-39", "@spider": "aldi_sud_ch", "shop": "supermarket", "addr:full": "Chemin des Taborneires 6, Orbe, 1350", "addr:street_address": "Chemin des Taborneires 6", "addr:city": "Orbe", "addr:postcode": "1350", "addr:country": "CH", "name": "DOM-39", "phone": "024 441 69 65", "opening_hours": "Mo-Th 08:00-18:30; Fr 08:00-20:00; Sa 08:00-17:00", "brand": "ALDI", "brand:wikidata": "Q41171672", "nsi_id": "aldi-0d26d7"}, "geometry": {"type": "Point", "coordinates": [6.54579, 46.71965]}},
{"type": "Feature", "id": "Hn89VCFYHSPXoF7yUVY4w9k-MgQ=", "properties": {"ref": "SWB-49", "@spider": "aldi_sud_ch", "shop": "supermarket", "addr:full": "Wilerstrasse 82, Gossau, 9200", "addr:street_address": "Wilerstrasse 82", "addr:city": "Gossau", "addr:postcode": "9200", "addr:country": "CH", "name": "SWB-49", "phone": "071 383 95 58", "opening_hours": "Mo-Th 07:30-19:00; Fr 07:30-20:00; Sa 07:30-17:00", "brand": "ALDI", "brand:wikidata": "Q41171672", "nsi_id": "aldi-0d26d7"}, "geometry": {"type": "Point", "coordinates": [9.2361, 47.41787]}},
{"type": "Feature", "id": "YHq5qLm_E3SMSiiIlkk4gnTx-4c=", "properties": {"ref": "SWB-93", "@spider": "aldi_sud_ch", "shop": "supermarket", "addr:full": "Grossacker 2, Niederuzwil, 9244", "addr:street_address": "Grossacker 2", "addr:city": "Niederuzwil", "addr:postcode": "9244", "addr:country": "CH", "name": "SWB-93", "phone": "071 952 72 73", "opening_hours": "Mo-Th 07:30-19:00; Fr 07:30-20:00; Sa 07:30-17:00", "brand": "ALDI", "brand:wikidata": "Q41171672", "nsi_id": "aldi-0d26d7"}, "geometry": {"type": "Point", "coordinates": [9.14764, 47.44455]}},
{"type": "Feature", "id": "bsYg1VLm8CH7voe6I8QO02IQQfY=", "properties": {"ref": "PER-66", "@spider": "aldi_sud_ch", "shop": "supermarket", "addr:full": "Landstrasse 99, Wettingen, 5430", "addr:street_address": "Landstrasse 99", "addr:city": "Wettingen", "addr:postcode": "5430", "addr:country": "CH", "name": "PER-66", "phone": "056 430 29 35", "opening_hours": "Mo-Fr 08:00-20:00; Sa 08:00-18:00", "brand": "ALDI", "brand:wikidata": "Q41171672", "nsi_id": "aldi-0d26d7"}, "geometry": {"type": "Point", "coordinates": [8.3275, 47.4659]}},
{"type": "Feature", "id": "WOCQOi1SB1TmwR6lPf_6Q2_J5fE=", "properties": {"ref": "SWB-38", "@spider": "aldi_sud_ch", "shop": "supermarket", "addr:full": "Industriestrasse 31, Dietlikon, 8305", "addr:street_address": "Industriestrasse 31", "addr:city": "Dietlikon", "addr:postcode": "8305", "addr:country": "CH", "name": "SWB-38", "phone": "044 888 45 57", "opening_hours": "Mo-Sa 07:30-20:00", "brand": "ALDI", "brand:wikidata": "Q41171672", "nsi_id": "aldi-0d26d7"}, "geometry": {"type": "Point", "coordinates": [8.6191977, 47.4121821]}},
{"type": "Feature", "id": "qeQxwIJ_MMbx26nkxV__7UURN4w=", "properties": {"ref": "SWB-77", "@spider": "aldi_sud_ch", "shop": "supermarket", "addr:full": "Balgacherstrasse 205, Heerbrugg, 9435", "addr:street_address": "Balgacherstrasse 205", "addr:city": "Heerbrugg", "addr:postcode": "9435", "addr:country": "CH", "name": "SWB-77", "phone": "071 723 12 53", "opening_hours": "Mo-Th 07:30-19:00; Fr 07:30-20:00; Sa 07:30-17:00", "brand": "ALDI", "brand:wikidata": "Q41171672", "nsi_id": "aldi-0d26d7"}, "geometry": {"type": "Point", "coordinates": [9.62373, 47.40891]}},
{"type": "Feature", "id": "18bJWHTVqHudQKLF5xTz_LWX02g=", "properties": {"ref": "PER-70", "@spider": "aldi_sud_ch", "shop": "supermarket", "addr:full": "Lindenhagstrasse 1, Egerkingen, 4622", "addr:street_address": "Lindenhagstrasse 1", "addr:city": "Egerkingen", "addr:postcode": "4622", "addr:country": "CH", "name": "PER-70", "phone": "062 398 18 59", "opening_hours": "Mo-We 07:30-18:30; Th 07:30-20:00; Fr 07:30-18:30; Sa 07:30-18:00", "brand": "ALDI", "brand:wikidata": "Q41171672", "nsi_id": "aldi-0d26d7"}, "geometry": {"type": "Point", "coordinates": [7.8037, 47.3241]}},
{"type": "Feature", "id": "OfODIKDuDEVZ5FTO_a60fR0qORk=", "properties": {"ref": "SWB-7", "@spider": "aldi_sud_ch", "shop": "supermarket", "addr:full": "Speckstrasse 1, Pf\u00e4ffikon, 8330", "addr:street_address": "Speckstrasse 1", "addr:city": "Pf\u00e4ffikon", "addr:postcode": "8330", "addr:country": "CH", "name": "SWB-7", "phone": "044 950 91 15", "opening_hours": "Mo-Sa 07:30-20:00", "brand": "ALDI", "brand:wikidata": "Q41171672", "nsi_id": "aldi-0d26d7"}, "geometry": {"type": "Point", "coordinates": [8.77097, 47.371]}},
{"type": "Feature", "id": "Crpzfd9ao4Neyeyk-C27dG6lNx0=", "properties": {"ref": "DOM-43", "@spider": "aldi_sud_ch", "shop": "supermarket", "addr:full": "Rue du Grand-Bay 21, Les Avanchets, 1220", "addr:street_address": "Rue du Grand-Bay 21", "addr:city": "Les Avanchets", "addr:postcode": "1220", "addr:country": "CH", "name": "DOM-43", "phone": "022 970 10 69", "opening_hours": "Mo-We 08:00-19:00; Th 08:00-20:00; Fr 08:00-19:00; Sa 08:00-18:00", "brand": "ALDI", "brand:wikidata": "Q41171672", "nsi_id": "aldi-0d26d7"}, "geometry": {"type": "Point", "coordinates": [6.1091731, 46.2201404]}},
{"type": "Feature", "id": "-jFK_lxFjb3wWR66y1u1DvN7kF8=", "properties": {"ref": "SWB-75", "@spider": "aldi_sud_ch", "shop": "supermarket", "addr:full": "R\u00fctistrasse 1, Arbon, 9320", "addr:street_address": "R\u00fctistrasse 1", "addr:city": "Arbon", "addr:postcode": "9320", "addr:country": "CH", "name": "SWB-75", "phone": "071 440 41 89", "opening_hours": "Mo-Sa 07:30-20:00", "brand": "ALDI", "brand:wikidata": "Q41171672", "nsi_id": "aldi-0d26d7"}, "geometry": {"type": "Point", "coordinates": [9.41801, 47.51985]}},
{"type": "Feature", "id": "6SoVuQVEIObg3jx-yMGaj4GPwUA=", "properties": {"ref": "DOM-72", "@spider": "aldi_sud_ch", "shop": "supermarket", "addr:full": "Les Malliez 1, Noville, 1845", "addr:street_address": "Les Malliez 1", "addr:city": "Noville", "addr:postcode": "1845", "addr:country": "CH", "name": "DOM-72", "phone": "021 965 64 34", "opening_hours": "Mo-Th 07:30-19:30; Fr 07:30-21:00; Sa 07:30-18:00", "brand": "ALDI", "brand:wikidata": "Q41171672", "nsi_id": "aldi-0d26d7"}, "geometry": {"type": "Point", "coordinates": [6.920137, 46.384986]}},
{"type": "Feature", "id": "uzr7tS4cguTzaDFQnsxt5O1Dg_E=", "properties": {"ref": "DOM-85", "@spider": "aldi_sud_ch", "shop": "supermarket", "addr:full": "Spitalgasse 34, Bern, 3011", "addr:street_address": "Spitalgasse 34", "addr:city": "Bern", "addr:postcode": "3011", "addr:country": "CH", "name": "DOM-85", "phone": "031 372 96 37", "opening_hours": "Mo-We 08:00-20:00; Th 08:00-21:00; Fr 08:00-20:00; Sa 07:30-17:00", "brand": "ALDI", "brand:wikidata": "Q41171672", "nsi_id": "aldi-0d26d7"}, "geometry": {"type": "Point", "coordinates": [7.4418893, 46.9480372]}},
{"type": "Feature", "id": "KcP4VKNitz6CJgDaOORjyzvbaJc=", "properties": {"ref": "DOM-4", "@spider": "aldi_sud_ch", "shop": "supermarket", "addr:full": "Bernstrasse 46, Worb, 3076", "addr:street_address": "Bernstrasse 46", "addr:city": "Worb", "addr:postcode": "3076", "addr:country": "CH", "name": "DOM-4", "phone": "031 372 96 33", "opening_hours": "Mo-Fr 08:00-20:00; Sa 08:00-17:00", "brand": "ALDI", "brand:wikidata": "Q41171672", "nsi_id": "aldi-0d26d7"}, "geometry": {"type": "Point", "coordinates": [7.5637797, 46.9264288]}},
{"type": "Feature", "id": "9aUcy_zXbJAQpcHsR7VVvfH5X6E=", "properties": {"ref": "DOM-27", "@spider": "aldi_sud_ch", "shop": "supermarket", "addr:full": "Avenue de Fully 41, Martigny, 1920", "addr:street_address": "Avenue de Fully 41", "addr:city": "Martigny", "addr:postcode": "1920", "addr:country": "CH", "name": "DOM-27", "phone": "027 723 55 25", "opening_hours": "Mo-Th 07:30-18:30; Fr 07:30-20:00; Sa 07:30-17:00", "brand": "ALDI", "brand:wikidata": "Q41171672", "nsi_id": "aldi-0d26d7"}, "geometry": {"type": "Point", "coordinates": [7.07669, 46.10921]}},
{"type": "Feature", "id": "HQyu3Wfz1QL9HFUqr-FQbFis3lg=", "properties": {"ref": "DOM-45", "@spider": "aldi_sud_ch", "shop": "supermarket", "addr:full": "Grabenstrasse 8, Thun, 3600", "addr:street_address": "Grabenstrasse 8", "addr:city": "Thun", "addr:postcode": "3600", "addr:country": "CH", "name": "DOM-45", "phone": "033 221 82 16", "opening_hours": "Mo-Fr 07:30-20:00; Sa 07:30-17:00", "brand": "ALDI", "brand:wikidata": "Q41171672", "nsi_id": "aldi-0d26d7"}, "geometry": {"type": "Point", "coordinates": [7.6266876, 46.7610358]}},
{"type": "Feature", "id": "zRtkBQwrZxxpcJBdzZEIMauvi08=", "properties": {"ref": "DOM-25", "@spider": "aldi_sud_ch", "shop": "supermarket", "addr:full": "Murtenstrasse 39, D\u00fcdingen, 3186", "addr:street_address": "Murtenstrasse 39", "addr:city": "D\u00fcdingen", "addr:postcode": "3186", "addr:country": "CH", "name": "DOM-25", "phone": "026 493 05 25", "opening_hours": "Mo-Th 07:30-19:00; Fr 07:30-21:00; Sa 07:30-16:00", "brand": "ALDI", "brand:wikidata": "Q41171672", "nsi_id": "aldi-0d26d7"}, "geometry": {"type": "Point", "coordinates": [7.19821, 46.85609]}},
{"type": "Feature", "id": "JSAsSW1UTzZxBhhuA_1cD9w-hVc=", "properties": {"ref": "SWB-39", "@spider": "aldi_sud_ch", "shop": "supermarket", "addr:full": "Grabenstrasse 5, Bachenb\u00fclach, 8184", "addr:street_address": "Grabenstrasse 5", "addr:city": "Bachenb\u00fclach", "addr:postcode": "8184", "addr:country": "CH", "name": "SWB-39", "phone": "044 862 91 26", "opening_hours": "Mo-Sa 07:30-20:00", "brand": "ALDI", "brand:wikidata": "Q41171672", "nsi_id": "aldi-0d26d7"}, "geometry": {"type": "Point", "coordinates": [8.540376, 47.505616]}},
{"type": "Feature", "id": "TRmbtbFEwQRDPMA1Egyqv10bol4=", "properties": {"ref": "DOM-42", "@spider": "aldi_sud_ch", "shop": "supermarket", "addr:full": "Pleine-Eau 5, Tavannes, 2710", "addr:street_address": "Pleine-Eau 5", "addr:city": "Tavannes", "addr:postcode": "2710", "addr:country": "CH", "name": "DOM-42", "phone": "032 483 16 50", "opening_hours": "Mo-Fr 08:00-20:00; Sa 08:00-17:00", "brand": "ALDI", "brand:wikidata": "Q41171672", "nsi_id": "aldi-0d26d7"}, "geometry": {"type": "Point", "coordinates": [7.19297, 47.21579]}},
{"type": "Feature", "id": "rzKXW5v5QBjHupmJiYLlKfbzz8I=", "properties": {"ref": "PER-22", "@spider": "aldi_sud_ch", "shop": "supermarket", "addr:full": "Alte Steinhauserstrasse 10, Cham, 6330", "addr:street_address": "Alte Steinhauserstrasse 10", "addr:city": "Cham", "addr:postcode": "6330", "addr:country": "CH", "name": "PER-22", "phone": "041 740 58 89", "opening_hours": "Mo-Th 07:30-19:00; Fr 07:30-21:00; Sa 07:30-17:00", "brand": "ALDI", "brand:wikidata": "Q41171672", "nsi_id": "aldi-0d26d7"}, "geometry": {"type": "Point", "coordinates": [8.4747, 47.1875]}},
{"type": "Feature", "id": "WlVFgNsJVB5XY9786slSw2tv5Kg=", "properties": {"ref": "PER-45", "@spider": "aldi_sud_ch", "shop": "supermarket", "addr:full": "Sch\u00f6nb\u00fchl/Langensandstr. 23, Luzern, 6005", "addr:street_address": "Sch\u00f6nb\u00fchl/Langensandstr. 23", "addr:city": "Luzern", "addr:postcode": "6005", "addr:country": "CH", "name": "PER-45", "phone": "041 361 02 87", "opening_hours": "Mo-Th 08:30-19:00; Fr 08:30-21:00; Sa 08:00-17:00", "brand": "ALDI", "brand:wikidata": "Q41171672", "nsi_id": "aldi-0d26d7"}, "geometry": {"type": "Point", "coordinates": [8.3282, 47.0372]}},
{"type": "Feature", "id": "BdnYZIJyaKcIPvCy7tGh_xD2nE0=", "properties": {"ref": "DOM-19", "@spider": "aldi_sud_ch", "shop": "supermarket", "addr:full": "B\u00fcrenstrasse 9, Lyss, 3250", "addr:street_address": "B\u00fcrenstrasse 9", "addr:city": "Lyss", "addr:postcode": "3250", "addr:country": "CH", "name": "DOM-19", "phone": "032 386 76 17", "opening_hours": "Mo-Fr 07:30-20:00; Sa 07:30-17:00", "brand": "ALDI", "brand:wikidata": "Q41171672", "nsi_id": "aldi-0d26d7"}, "geometry": {"type": "Point", "coordinates": [7.30761, 47.07635]}},
{"type": "Feature", "id": "Eqonq-2nsCe1eC5uWNRUYo1LXy0=", "properties": {"ref": "PER-53", "@spider": "aldi_sud_ch", "shop": "supermarket", "addr:full": "Viale Alessandro Volta 22, Chiasso, 6830", "addr:street_address": "Viale Alessandro Volta 22", "addr:city": "Chiasso", "addr:postcode": "6830", "addr:country": "CH", "name": "PER-53", "phone": "091 690 18 17", "opening_hours": "Mo-We 07:30-19:00; Th 07:30-21:00; Fr 07:30-19:00; Sa 07:30-18:30", "brand": "ALDI", "brand:wikidata": "Q41171672", "nsi_id": "aldi-0d26d7"}, "geometry": {"type": "Point", "coordinates": [9.0345, 45.8363]}},
{"type": "Feature", "id": "m_wwUOHERGY0WhdaxxXRLR_eZGU=", "properties": {"ref": "SWB-5", "@spider": "aldi_sud_ch", "shop": "supermarket", "addr:full": "Schrofenstrasse 18, Amriswil, 8580", "addr:street_address": "Schrofenstrasse 18", "addr:city": "Amriswil", "addr:postcode": "8580", "addr:country": "CH", "name": "SWB-5", "phone": "071 412 73 19", "opening_hours": "Mo-Sa 07:30-20:00", "brand": "ALDI", "brand:wikidata": "Q41171672", "nsi_id": "aldi-0d26d7"}, "geometry": {"type": "Point", "coordinates": [9.27456, 47.54872]}},
{"type": "Feature", "id": "FXgkI0Z14t02LbDF2yoboAA1DbI=", "properties": {"ref": "DOM-73", "@spider": "aldi_sud_ch", "shop": "supermarket", "addr:full": "Rue St. Martin 3-5, Lausanne, 1000", "addr:street_address": "Rue St. Martin 3-5", "addr:city": "Lausanne", "addr:postcode": "1000", "addr:country": "CH", "name": "DOM-73", "phone": "021 320 06 48", "opening_hours": "Mo-Fr 07:30-19:00; Sa 07:30-18:00", "brand": "ALDI", "brand:wikidata": "Q41171672", "nsi_id": "aldi-0d26d7"}, "geometry": {"type": "Point", "coordinates": [6.6365419, 46.521483]}},
{"type": "Feature", "id": "fgzGGBDy0xUzJeEuoxmfKShNuvs=", "properties": {"ref": "DOM-69", "@spider": "aldi_sud_ch", "shop": "supermarket", "addr:full": "Rue Draizes 7, Neuch\u00e2tel, 2000", "addr:street_address": "Rue Draizes 7", "addr:city": "Neuch\u00e2tel", "addr:postcode": "2000", "addr:country": "CH", "name": "DOM-69", "phone": "032 740 11 93", "opening_hours": "Mo-We 08:00-19:00; Th 08:00-20:00; Fr 08:00-19:00; Sa 08:00-18:00", "brand": "ALDI", "brand:wikidata": "Q41171672", "nsi_id": "aldi-0d26d7"}, "geometry": {"type": "Point", "coordinates": [6.90336, 46.98924]}},
{"type": "Feature", "id": "q2rskBOEwEhmI7NWk6IEWi_BeqU=", "properties": {"ref": "DOM-67", "@spider": "aldi_sud_ch", "shop": "supermarket", "addr:full": "Route de Lausanne 1, Ch\u00e2tillens, 1610", "addr:street_address": "Route de Lausanne 1", "addr:city": "Ch\u00e2tillens", "addr:postcode": "1610", "addr:country": "CH", "name": "DOM-67", "phone": "021 907 25 62", "opening_hours": "Mo-Fr 08:00-19:00; Sa 08:00-18:00", "brand": "ALDI", "brand:wikidata": "Q41171672", "nsi_id": "aldi-0d26d7"}, "geometry": {"type": "Point", "coordinates": [6.81495, 46.56913]}},
{"type": "Feature", "id": "1Kq9RpSTvi3ZgqLIDUFWR7ebYhw=", "properties": {"ref": "PER-46", "@spider": "aldi_sud_ch", "shop": "supermarket", "addr:full": "Pilatusstrasse 18, Dierikon, 6036", "addr:street_address": "Pilatusstrasse 18", "addr:city": "Dierikon", "addr:postcode": "6036", "addr:country": "CH", "name": "PER-46", "phone": "041 451 00 52", "opening_hours": "Mo-Th 07:30-19:00; Fr 07:30-21:00; Sa 07:30-17:00", "brand": "ALDI", "brand:wikidata": "Q41171672", "nsi_id": "aldi-0d26d7"}, "geometry": {"type": "Point", "coordinates": [8.3628, 47.0947]}},
{"type": "Feature", "id": "V3FMwKmUgDKq9Nr12MamLFJ5Oww=", "properties": {"ref": "DOM-71", "@spider": "aldi_sud_ch", "shop": "supermarket", "addr:full": "Seftigenstrasse 310, Wabern, 3084", "addr:street_address": "Seftigenstrasse 310", "addr:city": "Wabern", "addr:postcode": "3084", "addr:country": "CH", "name": "DOM-71", "phone": "031 961 28 53", "opening_hours": "Mo-Fr 08:00-20:00; Sa 08:00-17:00", "brand": "ALDI", "brand:wikidata": "Q41171672", "nsi_id": "aldi-0d26d7"}, "geometry": {"type": "Point", "coordinates": [7.4557, 46.92643]}},
{"type": "Feature", "id": "cKhAB5tA1TVGOVE4Z0cw5JU9tqU=", "properties": {"ref": "DOM-32", "@spider": "aldi_sud_ch", "shop": "supermarket", "addr:full": "Ziegelgutstrasse 16, Oberburg, 3414", "addr:street_address": "Ziegelgutstrasse 16", "addr:city": "Oberburg", "addr:postcode": "3414", "addr:country": "CH", "name": "DOM-32", "phone": "034 423 73 15", "opening_hours": "Mo-Fr 08:00-20:00; Sa 08:00-17:00", "brand": "ALDI", "brand:wikidata": "Q41171672", "nsi_id": "aldi-0d26d7"}, "geometry": {"type": "Point", "coordinates": [7.6339, 47.02802]}},
{"type": "Feature", "id": "TnV7He2d7dowK7B83atR9z61BN0=", "properties": {"ref": "SWB-14", "@spider": "aldi_sud_ch", "shop": "supermarket", "addr:full": "Motorenstrasse 99, Wetzikon, 8620", "addr:street_address": "Motorenstrasse 99", "addr:city": "Wetzikon", "addr:postcode": "8620", "addr:country": "CH", "name": "SWB-14", "phone": "044 930 77 04", "opening_hours": "Mo-Sa 07:30-20:00", "brand": "ALDI", "brand:wikidata": "Q41171672", "nsi_id": "aldi-0d26d7"}, "geometry": {"type": "Point", "coordinates": [8.796405, 47.3322299]}},
{"type": "Feature", "id": "nbiw410vVQhymEARNwRgH7AIujA=", "properties": {"ref": "SWB-15", "@spider": "aldi_sud_ch", "shop": "supermarket", "addr:full": "Rheinfelsstrasse 4, Chur, 7000", "addr:street_address": "Rheinfelsstrasse 4", "addr:city": "Chur", "addr:postcode": "7000", "addr:country": "CH", "name": "SWB-15", "phone": "081 250 62 42", "opening_hours": "Mo-Fr 07:30-20:00; Sa 07:30-18:00", "brand": "ALDI", "brand:wikidata": "Q41171672", "nsi_id": "aldi-0d26d7"}, "geometry": {"type": "Point", "coordinates": [9.5126393, 46.8509934]}},
{"type": "Feature", "id": "6zpq7GJD-V-Lr9Y7d2GfiByQb3s=", "properties": {"ref": "SWB-87", "@spider": "aldi_sud_ch", "shop": "supermarket", "addr:full": "Schaffhauserstrasse 134, Glattbrugg, 8152", "addr:street_address": "Schaffhauserstrasse 134", "addr:city": "Glattbrugg", "addr:postcode": "8152", "addr:country": "CH", "name": "SWB-87", "phone": "044 66 62 004", "opening_hours": "Mo-Sa 07:30-20:00", "brand": "ALDI", "brand:wikidata": "Q41171672", "nsi_id": "aldi-0d26d7"}, "geometry": {"type": "Point", "coordinates": [8.572427, 47.43881]}},
{"type": "Feature", "id": "PU5XqOd059GrCW6CI3ANn22BpZM=", "properties": {"ref": "PER-3", "@spider": "aldi_sud_ch", "shop": "supermarket", "addr:full": "Via Monte Ceneri 6, Quartino, 6572", "addr:street_address": "Via Monte Ceneri 6", "addr:city": "Quartino", "addr:postcode": "6572", "addr:country": "CH", "name": "PER-3", "phone": "091 780 47 75", "opening_hours": "Mo-We 07:30-19:00; Th 07:30-21:00; Fr 07:30-19:00; Sa 07:30-18:30", "brand": "ALDI", "brand:wikidata": "Q41171672", "nsi_id": "aldi-0d26d7"}, "geometry": {"type": "Point", "coordinates": [8.9138743, 46.1529431]}},
{"type": "Feature", "id": "9PI92dt38AVdhDT7SzZ8TrkYSPY=", "properties": {"ref": "PER-43", "@spider": "aldi_sud_ch", "shop": "supermarket", "addr:full": "Mettenwilstrasse 10, Sempach-Station, 6203", "addr:street_address": "Mettenwilstrasse 10", "addr:city": "Sempach-Station", "addr:postcode": "6203", "addr:country": "CH", "name": "PER-43", "phone": "041 240 79 86", "opening_hours": "Mo-Th 07:30-19:00; Fr 07:30-20:00; Sa 07:30-17:00", "brand": "ALDI", "brand:wikidata": "Q41171672", "nsi_id": "aldi-0d26d7"}, "geometry": {"type": "Point", "coordinates": [8.20115, 47.11722]}},
{"type": "Feature", "id": "OnipOejYXuLx0oz2HSV-HXpn-hE=", "properties": {"ref": "PER-55", "@spider": "aldi_sud_ch", "shop": "supermarket", "addr:full": "Binningerstrasse 86, Allschwil, 4123", "addr:street_address": "Binningerstrasse 86", "addr:city": "Allschwil", "addr:postcode": "4123", "addr:country": "CH", "name": "PER-55", "phone": "061 482 23 78", "opening_hours": "Mo-Sa 07:30-20:00", "brand": "ALDI", "brand:wikidata": "Q41171672", "nsi_id": "aldi-0d26d7"}, "geometry": {"type": "Point", "coordinates": [7.54754, 47.54764]}},
{"type": "Feature", "id": "vwceKToIad-o1RVNC9RySCYbJCE=", "properties": {"ref": "SWB-59", "@spider": "aldi_sud_ch", "shop": "supermarket", "addr:full": "Italienische Strasse 2A, Thusis, 7430", "addr:street_address": "Italienische Strasse 2A", "addr:city": "Thusis", "addr:postcode": "7430", "addr:country": "CH", "name": "SWB-59", "phone": "081 651 45 43", "opening_hours": "Mo-Fr 07:30-20:00; Sa 08:00-17:00", "brand": "ALDI", "brand:wikidata": "Q41171672", "nsi_id": "aldi-0d26d7"}, "geometry": {"type": "Point", "coordinates": [9.43765, 46.70814]}},
{"type": "Feature", "id": "JA1i4Jpq_h3wZiyCKXkEcMGR7Ec=", "properties": {"ref": "DOM-11", "@spider": "aldi_sud_ch", "shop": "supermarket", "addr:full": "Chemin de Champ-Francey 150, Bulle, 1630", "addr:street_address": "Chemin de Champ-Francey 150", "addr:city": "Bulle", "addr:postcode": "1630", "addr:country": "CH", "name": "DOM-11", "phone": "026 919 35 38", "opening_hours": "Mo-Th 08:00-19:00; Fr 08:00-21:00; Sa 08:00-16:00", "brand": "ALDI", "brand:wikidata": "Q41171672", "nsi_id": "aldi-0d26d7"}, "geometry": {"type": "Point", "coordinates": [7.06055, 46.631628]}},
{"type": "Feature", "id": "t3zeC486216HR0Xeu0zcp_q019I=", "properties": {"ref": "SWB-42", "@spider": "aldi_sud_ch", "shop": "supermarket", "addr:full": "T\u00e4gerwilerstrasse 2 + 4, Kreuzlingen, 8280", "addr:street_address": "T\u00e4gerwilerstrasse 2 + 4", "addr:city": "Kreuzlingen", "addr:postcode": "8280", "addr:country": "CH", "name": "SWB-42", "phone": "071 223 25 35", "opening_hours": "Mo-Sa 07:30-20:00", "brand": "ALDI", "brand:wikidata": "Q41171672", "nsi_id": "aldi-0d26d7"}, "geometry": {"type": "Point", "coordinates": [9.1639, 47.65496]}},
{"type": "Feature", "id": "0Dh7U0nQS61W0fmSz-G_WsKjSMc=", "properties": {"ref": "PER-52", "@spider": "aldi_sud_ch", "shop": "supermarket", "addr:full": "Oberdorfstrasse 9, Baar, 6340", "addr:street_address": "Oberdorfstrasse 9", "addr:city": "Baar", "addr:postcode": "6340", "addr:country": "CH", "name": "PER-52", "phone": "041 501 46 74", "opening_hours": "Mo-Th 07:30-19:00; Fr 07:30-20:00; Sa 07:30-17:00", "brand": "ALDI", "brand:wikidata": "Q41171672", "nsi_id": "aldi-0d26d7"}, "geometry": {"type": "Point", "coordinates": [8.5301, 47.1965]}},
{"type": "Feature", "id": "JMcIW2OZMQDJKXFHOwtUoJz_hSo=", "properties": {"ref": "DOM-66", "@spider": "aldi_sud_ch", "shop": "supermarket", "addr:full": "Bahnhofplatz 2A, Biel, 2502", "addr:street_address": "Bahnhofplatz 2A", "addr:city": "Biel", "addr:postcode": "2502", "addr:country": "CH", "name": "DOM-66", "phone": "032 323 88 34", "opening_hours": "Mo-Fr 08:00-20:00; Sa 08:00-18:00; Su 09:00-18:00", "brand": "ALDI", "brand:wikidata": "Q41171672", "nsi_id": "aldi-0d26d7"}, "geometry": {"type": "Point", "coordinates": [7.24239, 47.13341]}},
{"type": "Feature", "id": "cDC5cc0UZeMUNeGOFvpJKlxTJos=", "properties": {"ref": "DOM-23", "@spider": "aldi_sud_ch", "shop": "supermarket", "addr:full": "Bernstrasse 7, Gals, 3238", "addr:street_address": "Bernstrasse 7", "addr:city": "Gals", "addr:postcode": "3238", "addr:country": "CH", "name": "DOM-23", "phone": "032 338 74 78", "opening_hours": "Mo-Fr 08:00-20:00; Sa 08:00-17:00", "brand": "ALDI", "brand:wikidata": "Q41171672", "nsi_id": "aldi-0d26d7"}, "geometry": {"type": "Point", "coordinates": [7.04333, 47.02154]}},
{"type": "Feature", "id": "_id--xqjMftMBm6VMTsBjwEgUEE=", "properties": {"ref": "DOM-76", "@spider": "aldi_sud_ch", "shop": "supermarket", "addr:full": "Route des Loisirs 1, Givisiez, 1762", "addr:street_address": "Route des Loisirs 1", "addr:city": "Givisiez", "addr:postcode": "1762", "addr:country": "CH", "name": "DOM-76", "phone": "026 466 54 44", "opening_hours": "Mo-Th 08:00-19:00; Fr 08:00-21:00; Sa 08:00-16:00", "brand": "ALDI", "brand:wikidata": "Q41171672", "nsi_id": "aldi-0d26d7"}, "geometry": {"type": "Point", "coordinates": [7.1287483, 46.8080826]}},
{"type": "Feature", "id": "pDLxWt0XuUiYla0RoaipvHAwml0=", "properties": {"ref": "PER-31", "@spider": "aldi_sud_ch", "shop": "supermarket", "addr:full": "Seetalstrasse 11, Emmenbr\u00fccke, 6020", "addr:street_address": "Seetalstrasse 11", "addr:city": "Emmenbr\u00fccke", "addr:postcode": "6020", "addr:country": "CH", "name": "PER-31", "phone": "041 260 88 04", "opening_hours": "Mo-Th 07:30-19:00; Fr 07:30-21:00; Sa 07:30-17:00", "brand": "ALDI", "brand:wikidata": "Q41171672", "nsi_id": "aldi-0d26d7"}, "geometry": {"type": "Point", "coordinates": [8.2841804, 47.0708099]}},
{"type": "Feature", "id": "5D7q9niNxqCVpnuh4PWFmD3kax4=", "properties": {"ref": "SWB-20", "@spider": "aldi_sud_ch", "shop": "supermarket", "addr:full": "Ruchwiesenstrasse 5, Dielsdorf, 8157", "addr:street_address": "Ruchwiesenstrasse 5", "addr:city": "Dielsdorf", "addr:postcode": "8157", "addr:country": "CH", "name": "SWB-20", "phone": "043 422 20 84", "opening_hours": "Mo-Sa 07:30-20:00", "brand": "ALDI", "brand:wikidata": "Q41171672", "nsi_id": "aldi-0d26d7"}, "geometry": {"type": "Point", "coordinates": [8.4663127, 47.4819841]}},
{"type": "Feature", "id": "R1DgEfa6WP-dCoLPgUyR86v8wOo=", "properties": {"ref": "PER-33", "@spider": "aldi_sud_ch", "shop": "supermarket", "addr:full": "Solothurnerstrasse 201, Olten, 4600", "addr:street_address": "Solothurnerstrasse 201", "addr:city": "Olten", "addr:postcode": "4600", "addr:country": "CH", "name": "PER-33", "phone": "062 213 16 75", "opening_hours": "Mo-We 07:30-18:30; Th 07:30-20:00; Fr 07:30-18:30; Sa 07:30-18:00", "brand": "ALDI", "brand:wikidata": "Q41171672", "nsi_id": "aldi-0d26d7"}, "geometry": {"type": "Point", "coordinates": [7.891, 47.3485]}},
{"type": "Feature", "id": "J6UdOJzY2rXLJ76Tm_eK9e5uWcA=", "properties": {"ref": "SWB-22", "@spider": "aldi_sud_ch", "shop": "supermarket", "addr:full": "Wittenwilerstrasse 45, Aadorf, 8355", "addr:street_address": "Wittenwilerstrasse 45", "addr:city": "Aadorf", "addr:postcode": "8355", "addr:country": "CH", "name": "SWB-22", "phone": "052 366 29 85", "opening_hours": "Mo-Sa 07:30-20:00", "brand": "ALDI", "brand:wikidata": "Q41171672", "nsi_id": "aldi-0d26d7"}, "geometry": {"type": "Point", "coordinates": [8.90743, 47.49923]}},
{"type": "Feature", "id": "7CYDpYj_4RCstcvybIoHBJODxC4=", "properties": {"ref": "PER-71", "@spider": "aldi_sud_ch", "shop": "supermarket", "addr:full": "Wagistrasse 20, Schlieren, 8952", "addr:street_address": "Wagistrasse 20", "addr:city": "Schlieren", "addr:postcode": "8952", "addr:country": "CH", "name": "PER-71", "phone": "044 731 19 83", "opening_hours": "Mo-Fr 09:00-20:00; Sa 09:00-18:00", "brand": "ALDI", "brand:wikidata": "Q41171672", "nsi_id": "aldi-0d26d7"}, "geometry": {"type": "Point", "coordinates": [8.4563, 47.39911]}},
{"type": "Feature", "id": "D6PThcWcu9RUa-jzkH_J5xyfMTg=", "properties": {"ref": "DOM-34", "@spider": "aldi_sud_ch", "shop": "supermarket", "addr:full": "Rue Th\u00e8odore St\u00e9phani 5, Crans-Montana, 3963", "addr:street_address": "Rue Th\u00e8odore St\u00e9phani 5", "addr:city": "Crans-Montana", "addr:postcode": "3963", "addr:country": "CH", "name": "DOM-34", "phone": "027 480 14 59", "opening_hours": "Mo-Sa 08:00-19:00", "brand": "ALDI", "brand:wikidata": "Q41171672", "nsi_id": "aldi-0d26d7"}, "geometry": {"type": "Point", "coordinates": [7.481006, 46.312233]}},
{"type": "Feature", "id": "-gotfFREwj6OcTo-UriS5cBze5E=", "properties": {"ref": "PER-39", "@spider": "aldi_sud_ch", "shop": "supermarket", "addr:full": "Brauihof 22, Langenthal, 4900", "addr:street_address": "Brauihof 22", "addr:city": "Langenthal", "addr:postcode": "4900", "addr:country": "CH", "name": "PER-39", "phone": "062 923 86 65", "opening_hours": "Mo-Fr 08:00-20:00; Sa 07:30-17:00", "brand": "ALDI", "brand:wikidata": "Q41171672", "nsi_id": "aldi-0d26d7"}, "geometry": {"type": "Point", "coordinates": [7.78715257, 47.21309015]}},
{"type": "Feature", "id": "LHuhMu_X4lNH03y_9mnda-fwaZg=", "properties": {"ref": "PER-35", "@spider": "aldi_sud_ch", "shop": "supermarket", "addr:full": "Soodring 36, Adliswil, 8134", "addr:street_address": "Soodring 36", "addr:city": "Adliswil", "addr:postcode": "8134", "addr:country": "CH", "name": "PER-35", "phone": "044 865 84 72", "opening_hours": "Mo-Sa 08:00-20:00", "brand": "ALDI", "brand:wikidata": "Q41171672", "nsi_id": "aldi-0d26d7"}, "geometry": {"type": "Point", "coordinates": [8.520561, 47.316118]}},
{"type": "Feature", "id": "BVlxyQh1jkVqZOKvyaJ03RBDgcg=", "properties": {"ref": "PER-64", "@spider": "aldi_sud_ch", "shop": "supermarket", "addr:full": "Seestrasse 302-304, W\u00e4denswil, 8820", "addr:street_address": "Seestrasse 302-304", "addr:city": "W\u00e4denswil", "addr:postcode": "8820", "addr:country": "CH", "name": "PER-64", "phone": "044 781 18 57", "opening_hours": "Mo-Sa 07:30-20:00", "brand": "ALDI", "brand:wikidata": "Q41171672", "nsi_id": "aldi-0d26d7"}, "geometry": {"type": "Point", "coordinates": [8.6464308, 47.2464956]}},
{"type": "Feature", "id": "-zn7K5VYOYHNxyZ4NMbl1fBNLoI=", "properties": {"ref": "SWB-63", "@spider": "aldi_sud_ch", "shop": "supermarket", "addr:full": "Breitestrasse 5, Rickenbach, 9532", "addr:street_address": "Breitestrasse 5", "addr:city": "Rickenbach", "addr:postcode": "9532", "addr:country": "CH", "name": "SWB-63", "phone": "071 929 53 34", "opening_hours": "Mo-Sa 07:30-20:00", "brand": "ALDI", "brand:wikidata": "Q41171672", "nsi_id": "aldi-0d26d7"}, "geometry": {"type": "Point", "coordinates": [9.0522346, 47.4460778]}},
{"type": "Feature", "id": "rwgqNd5ZlNCa095urwg4_JdHU8Q=", "properties": {"ref": "SWB-62", "@spider": "aldi_sud_ch", "shop": "supermarket", "addr:full": "Witikonerstrasse 279, Z\u00fcrich, 8053", "addr:street_address": "Witikonerstrasse 279", "addr:city": "Z\u00fcrich", "addr:postcode": "8053", "addr:country": "CH", "name": "SWB-62", "phone": "044 309 81 45", "opening_hours": "Mo-Sa 07:30-20:00", "brand": "ALDI", "brand:wikidata": "Q41171672", "nsi_id": "aldi-0d26d7"}, "geometry": {"type": "Point", "coordinates": [8.5853955, 47.3587395]}},
{"type": "Feature", "id": "HyGlrwaL_GyPJT7X8GWnjtrsoB4=", "properties": {"ref": "PER-40", "@spider": "aldi_sud_ch", "shop": "supermarket", "addr:full": "Feldstrasse 5, Oberentfelden, 5036", "addr:street_address": "Feldstrasse 5", "addr:city": "Oberentfelden", "addr:postcode": "5036", "addr:country": "CH", "name": "PER-40", "phone": "062 724 92 37", "opening_hours": "Mo-Sa 07:30-20:00", "brand": "ALDI", "brand:wikidata": "Q41171672", "nsi_id": "aldi-0d26d7"}, "geometry": {"type": "Point", "coordinates": [8.056, 47.3575]}},
{"type": "Feature", "id": "--CkUxUH9mFTmORAhiMIx_uPr2M=", "properties": {"ref": "SWB-56", "@spider": "aldi_sud_ch", "shop": "supermarket", "addr:full": "Z\u00fcrichstrasse 1, Uster, 8610", "addr:street_address": "Z\u00fcrichstrasse 1", "addr:city": "Uster", "addr:postcode": "8610", "addr:country": "CH", "name": "SWB-56", "phone": "043 422 20 81", "opening_hours": "Mo-Sa 07:30-20:00", "brand": "ALDI", "brand:wikidata": "Q41171672", "nsi_id": "aldi-0d26d7"}, "geometry": {"type": "Point", "coordinates": [8.716876, 47.348064]}},
{"type": "Feature", "id": "MMtX6_KbR1_xYppTS0BSiMjRYow=", "properties": {"ref": "SWB-82", "@spider": "aldi_sud_ch", "shop": "supermarket", "addr:full": "Guggenb\u00fchlstrasse 6, Winterthur, 8404", "addr:street_address": "Guggenb\u00fchlstrasse 6", "addr:city": "Winterthur", "addr:postcode": "8404", "addr:country": "CH", "name": "SWB-82", "phone": "052 224 07 61", "opening_hours": "Mo-Sa 07:30-20:00", "brand": "ALDI", "brand:wikidata": "Q41171672", "nsi_id": "aldi-0d26d7"}, "geometry": {"type": "Point", "coordinates": [8.759569, 47.51095]}},
{"type": "Feature", "id": "210l545aj7ka4Bb3onJNf54GiQk=", "properties": {"ref": "DOM-22", "@spider": "aldi_sud_ch", "shop": "supermarket", "addr:full": "Boulevard de P\u00e9rolles 7b, Fribourg, 1700", "addr:street_address": "Boulevard de P\u00e9rolles 7b", "addr:city": "Fribourg", "addr:postcode": "1700", "addr:country": "CH", "name": "DOM-22", "phone": "026 341 79 39", "opening_hours": "Mo-Fr 08:30-19:00; Sa 08:00-16:00", "brand": "ALDI", "brand:wikidata": "Q41171672", "nsi_id": "aldi-0d26d7"}, "geometry": {"type": "Point", "coordinates": [7.15189, 46.80114]}},
{"type": "Feature", "id": "ClU1ifInsSSIfdcZKb8IKTAj_9Q=", "properties": {"ref": "PER-75", "@spider": "aldi_sud_ch", "shop": "supermarket", "addr:full": "Hertensteinstrasse 50, Luzern, 6004", "addr:street_address": "Hertensteinstrasse 50", "addr:city": "Luzern", "addr:postcode": "6004", "addr:country": "CH", "name": "PER-75", "phone": "041 240 79 82", "opening_hours": "Mo-We 08:00-19:00; Th 08:00-20:00; Fr 08:00-19:00; Sa 08:00-17:00", "brand": "ALDI", "brand:wikidata": "Q41171672", "nsi_id": "aldi-0d26d7"}, "geometry": {"type": "Point", "coordinates": [8.307616, 47.054169]}},
{"type": "Feature", "id": "6v2KvsFt0zrlTT1yq0yDxx3SP18=", "properties": {"ref": "PER-48", "@spider": "aldi_sud_ch", "shop": "supermarket", "addr:full": "Luzernerstrasse 28, Ermensee, 6294", "addr:street_address": "Luzernerstrasse 28", "addr:city": "Ermensee", "addr:postcode": "6294", "addr:country": "CH", "name": "PER-48", "phone": "041 917 26 67", "opening_hours": "Mo-Th 08:00-19:00; Fr 08:00-20:00; Sa 08:00-17:00", "brand": "ALDI", "brand:wikidata": "Q41171672", "nsi_id": "aldi-0d26d7"}, "geometry": {"type": "Point", "coordinates": [8.2497, 47.2244]}},
{"type": "Feature", "id": "2kVH3Cwu_BjGYWVhG7uvvvVMCP8=", "properties": {"ref": "DOM-77", "@spider": "aldi_sud_ch", "shop": "supermarket", "addr:full": "Route de l'Industrie 7, Romont, 1680", "addr:street_address": "Route de l'Industrie 7", "addr:city": "Romont", "addr:postcode": "1680", "addr:country": "CH", "name": "DOM-77", "phone": "026 652 51 04", "opening_hours": "Mo-Th 07:30-19:00; Fr 07:30-21:00; Sa 07:30-16:00", "brand": "ALDI", "brand:wikidata": "Q41171672", "nsi_id": "aldi-0d26d7"}, "geometry": {"type": "Point", "coordinates": [6.9082448, 46.6880074]}},
{"type": "Feature", "id": "karw25TI8-wW0c3M1vFvrs4IiqQ=", "properties": {"ref": "SWB-84", "@spider": "aldi_sud_ch", "shop": "supermarket", "addr:full": "Schaffhauserstrasse 152, Winterthur, 8400", "addr:street_address": "Schaffhauserstrasse 152", "addr:city": "Winterthur", "addr:postcode": "8400", "addr:country": "CH", "name": "SWB-84", "phone": "052 224 07 65", "opening_hours": "Mo-Fr 08:30-20:00; Sa 08:00-19:00", "brand": "ALDI", "brand:wikidata": "Q41171672", "nsi_id": "aldi-0d26d7"}, "geometry": {"type": "Point", "coordinates": [8.72, 47.518658]}},
{"type": "Feature", "id": "ozz2UfKEr6rvm9OLzhf_PdD2J8I=", "properties": {"ref": "SWB-23", "@spider": "aldi_sud_ch", "shop": "supermarket", "addr:full": "Gennersbrunnerstrasse 63, Schaffhausen, 8207", "addr:street_address": "Gennersbrunnerstrasse 63", "addr:city": "Schaffhausen", "addr:postcode": "8207", "addr:country": "CH", "name": "SWB-23", "phone": "052 640 28 86", "opening_hours": "Mo-Fr 07:30-20:00; Sa 07:30-18:00", "brand": "ALDI", "brand:wikidata": "Q41171672", "nsi_id": "aldi-0d26d7"}, "geometry": {"type": "Point", "coordinates": [8.66367, 47.71654]}},
{"type": "Feature", "id": "_gvID7TtVSa_d1gZYgkp6rxg_XM=", "properties": {"ref": "PER-18", "@spider": "aldi_sud_ch", "shop": "supermarket", "addr:full": "Sentipark/Bruchstr.2,Haus D, Luzern, 6003", "addr:street_address": "Sentipark/Bruchstr.2", "addr:city": "Luzern", "addr:postcode": "6003", "addr:country": "CH", "name": "PER-18", "phone": "041 240 79 94", "opening_hours": "Mo-We 07:30-19:00; Th 07:30-21:00; Fr 07:30-19:00; Sa 07:30-17:00", "brand": "ALDI", "brand:wikidata": "Q41171672", "nsi_id": "aldi-0d26d7"}, "geometry": {"type": "Point", "coordinates": [8.2983, 47.0514]}},
{"type": "Feature", "id": "StdjAhEUvwdil_bIKL6DLtbvKsA=", "properties": {"ref": "SWB-53", "@spider": "aldi_sud_ch", "shop": "supermarket", "addr:full": "\u00dcberlandstrasse 441, Z\u00fcrich, 8051", "addr:street_address": "\u00dcberlandstrasse 441", "addr:city": "Z\u00fcrich", "addr:postcode": "8051", "addr:country": "CH", "name": "SWB-53", "phone": "044 321 93 57", "opening_hours": "Mo-Sa 07:30-20:00", "brand": "ALDI", "brand:wikidata": "Q41171672", "nsi_id": "aldi-0d26d7"}, "geometry": {"type": "Point", "coordinates": [8.591865, 47.40598]}},
{"type": "Feature", "id": "zbKDeO6eb1GL09rzpH8mEgtoc3I=", "properties": {"ref": "SWB-19", "@spider": "aldi_sud_ch", "shop": "supermarket", "addr:full": "H\u00e4ldelistrasse 11, St\u00e4fa, 8712", "addr:street_address": "H\u00e4ldelistrasse 11", "addr:city": "St\u00e4fa", "addr:postcode": "8712", "addr:country": "CH", "name": "SWB-19", "phone": "044 796 45 27", "opening_hours": "Mo-Sa 07:30-20:00", "brand": "ALDI", "brand:wikidata": "Q41171672", "nsi_id": "aldi-0d26d7"}, "geometry": {"type": "Point", "coordinates": [8.71889, 47.24205]}},
{"type": "Feature", "id": "Wogry1d0FENeUOXSyAS5iB-SmKM=", "properties": {"ref": "PER-50", "@spider": "aldi_sud_ch", "shop": "supermarket", "addr:full": "Via Cantonale 95, Riazzino-Lavertezzo, 6595", "addr:street_address": "Via Cantonale 95", "addr:city": "Riazzino-Lavertezzo", "addr:postcode": "6595", "addr:country": "CH", "name": "PER-50", "phone": "091 840 93 64", "opening_hours": "Mo-We 07:30-19:00; Th 07:30-21:00; Fr 07:30-19:00; Sa 07:30-18:30", "brand": "ALDI", "brand:wikidata": "Q41171672", "nsi_id": "aldi-0d26d7"}, "geometry": {"type": "Point", "coordinates": [8.890186, 46.175794]}},
{"type": "Feature", "id": "IhG8B3iZMDGFw24zqgorayxMbak=", "properties": {"ref": "SWB-89", "@spider": "aldi_sud_ch", "shop": "supermarket", "addr:full": "W\u00e4sseristrasse 18, Hinwil, 8340", "addr:street_address": "W\u00e4sseristrasse 18", "addr:city": "Hinwil", "addr:postcode": "8340", "addr:country": "CH", "name": "SWB-89", "phone": "044 977 26 67", "opening_hours": "Mo-Sa 07:30-20:00", "brand": "ALDI", "brand:wikidata": "Q41171672", "nsi_id": "aldi-0d26d7"}, "geometry": {"type": "Point", "coordinates": [8.823222, 47.30506]}},
{"type": "Feature", "id": "H4FoSDw8MDNsio2xalRdTF22KAU=", "properties": {"ref": "SWB-12", "@spider": "aldi_sud_ch", "shop": "supermarket", "addr:full": "Rietwisstrasse 11, Wattwil, 9630", "addr:street_address": "Rietwisstrasse 11", "addr:city": "Wattwil", "addr:postcode": "9630", "addr:country": "CH", "name": "SWB-12", "phone": "071 988 85 86", "opening_hours": "Mo-Th 07:30-19:00; Fr 07:30-20:00; Sa 07:30-17:00", "brand": "ALDI", "brand:wikidata": "Q41171672", "nsi_id": "aldi-0d26d7"}, "geometry": {"type": "Point", "coordinates": [9.09219, 47.29653]}},
{"type": "Feature", "id": "dtuAEq5zinzTQlWj-GEg3tCeVp4=", "properties": {"ref": "SWB-4", "@spider": "aldi_sud_ch", "shop": "supermarket", "addr:full": "Im Schossacher 24, D\u00fcbendorf, 8600", "addr:street_address": "Im Schossacher 24", "addr:city": "D\u00fcbendorf", "addr:postcode": "8600", "addr:country": "CH", "name": "SWB-4", "phone": "044 820 72 65", "opening_hours": "Mo-Sa 07:30-20:00", "brand": "ALDI", "brand:wikidata": "Q41171672", "nsi_id": "aldi-0d26d7"}, "geometry": {"type": "Point", "coordinates": [8.64206, 47.39301]}},
{"type": "Feature", "id": "qOMf1LTj13MvNBs7a01t_S9-6n8=", "properties": {"ref": "PER-42", "@spider": "aldi_sud_ch", "shop": "supermarket", "addr:full": "Dammstrasse 24, Otelfingen, 8112", "addr:street_address": "Dammstrasse 24", "addr:city": "Otelfingen", "addr:postcode": "8112", "addr:country": "CH", "name": "PER-42", "phone": "044 884 71 29", "opening_hours": "Mo-Sa 07:30-20:00", "brand": "ALDI", "brand:wikidata": "Q41171672", "nsi_id": "aldi-0d26d7"}, "geometry": {"type": "Point", "coordinates": [8.4013, 47.4596]}},
{"type": "Feature", "id": "-XIgOJ5mlgNj9xlNHWyXMvHL4nE=", "properties": {"ref": "DOM-5", "@spider": "aldi_sud_ch", "shop": "supermarket", "addr:full": "Leuzigenstrasse 4, Grenchen, 2540", "addr:street_address": "Leuzigenstrasse 4", "addr:city": "Grenchen", "addr:postcode": "2540", "addr:country": "CH", "name": "DOM-5", "phone": "032 653 35 85", "opening_hours": "Mo-Th 08:00-18:30; Fr 08:00-20:00; Sa 08:00-18:00", "brand": "ALDI", "brand:wikidata": "Q41171672", "nsi_id": "aldi-0d26d7"}, "geometry": {"type": "Point", "coordinates": [7.40712461, 47.19304157]}},
{"type": "Feature", "id": "OfqvGO1tdIRGyVIqRMG55ce0TFE=", "properties": {"ref": "SWB-44", "@spider": "aldi_sud_ch", "shop": "supermarket", "addr:full": "Spitalstrasse 60, R\u00fcti, 8630", "addr:street_address": "Spitalstrasse 60", "addr:city": "R\u00fcti", "addr:postcode": "8630", "addr:country": "CH", "name": "SWB-44", "phone": "055 260 14 44", "opening_hours": "Mo-Sa 07:30-20:00", "brand": "ALDI", "brand:wikidata": "Q41171672", "nsi_id": "aldi-0d26d7"}, "geometry": {"type": "Point", "coordinates": [8.83927, 47.26061]}},
{"type": "Feature", "id": "7BEM6C0kUnEMtCXnszXxsNnaPCU=", "properties": {"ref": "DOM-81", "@spider": "aldi_sud_ch", "shop": "supermarket", "addr:full": "Avenue du G\u00e9n\u00e9ral-Guisan 32, Vevey, 1800", "addr:street_address": "Avenue du G\u00e9n\u00e9ral-Guisan 32", "addr:city": "Vevey", "addr:postcode": "1800", "addr:country": "CH", "name": "DOM-81", "phone": "021 320 12 82", "opening_hours": "Mo-Th 08:00-18:30; Fr 08:00-20:00; Sa 08:00-17:00", "brand": "ALDI", "brand:wikidata": "Q41171672", "nsi_id": "aldi-0d26d7"}, "geometry": {"type": "Point", "coordinates": [6.839149, 46.465115]}},
{"type": "Feature", "id": "ngNPKUKvM0YJMzoj-Aj-guM2nqo=", "properties": {"ref": "SWB-16", "@spider": "aldi_sud_ch", "shop": "supermarket", "addr:full": "S\u00e4umergutstrasse 3, Sch\u00e4nis, 8718", "addr:street_address": "S\u00e4umergutstrasse 3", "addr:city": "Sch\u00e4nis", "addr:postcode": "8718", "addr:country": "CH", "name": "SWB-16", "phone": "055 619 58 18", "opening_hours": "Mo-Th 07:30-19:00; Fr 07:30-20:00; Sa 07:30-17:00", "brand": "ALDI", "brand:wikidata": "Q41171672", "nsi_id": "aldi-0d26d7"}, "geometry": {"type": "Point", "coordinates": [9.04232, 47.15822]}},
{"type": "Feature", "id": "L8J8yagBmIVNPKBsbqqESbQzVBk=", "properties": {"ref": "SWB-6", "@spider": "aldi_sud_ch", "shop": "supermarket", "addr:full": "Baumackerstrasse 35, Z\u00fcrich, 8050", "addr:street_address": "Baumackerstrasse 35", "addr:city": "Z\u00fcrich", "addr:postcode": "8050", "addr:country": "CH", "name": "SWB-6", "phone": "044 310 38 44", "opening_hours": "Mo-Sa 07:30-20:00", "brand": "ALDI", "brand:wikidata": "Q41171672", "nsi_id": "aldi-0d26d7"}, "geometry": {"type": "Point", "coordinates": [8.543716, 47.40899]}},
{"type": "Feature", "id": "P-TtHIKQafGl9kxTN17O_XMHj6s=", "properties": {"ref": "DOM-16", "@spider": "aldi_sud_ch", "shop": "supermarket", "addr:full": "Rue des Casernes 55a, Sion, 1950", "addr:street_address": "Rue des Casernes 55a", "addr:city": "Sion", "addr:postcode": "1950", "addr:country": "CH", "name": "DOM-16", "phone": "027 203 83 12", "opening_hours": "Mo-Th 07:30-18:30; Fr 07:30-20:00; Sa 07:30-17:00", "brand": "ALDI", "brand:wikidata": "Q41171672", "nsi_id": "aldi-0d26d7"}, "geometry": {"type": "Point", "coordinates": [7.38026, 46.22746]}},
{"type": "Feature", "id": "zPyaFADYGLVMkuCUfZPZr09dOk8=", "properties": {"ref": "SWB-50", "@spider": "aldi_sud_ch", "shop": "supermarket", "addr:full": "St. Gallerstrasse 43, Rorschach, 9400", "addr:street_address": "St. Gallerstrasse 43", "addr:city": "Rorschach", "addr:postcode": "9400", "addr:country": "CH", "name": "SWB-50", "phone": "071 929 53 31", "opening_hours": "Mo-Th 07:30-19:00; Fr 07:30-20:00; Sa 07:30-17:00", "brand": "ALDI", "brand:wikidata": "Q41171672", "nsi_id": "aldi-0d26d7"}, "geometry": {"type": "Point", "coordinates": [9.482097, 47.478111]}},
{"type": "Feature", "id": "mFHiEx07UJkU7MnD4NDl62uF-cQ=", "properties": {"ref": "PER-59", "@spider": "aldi_sud_ch", "shop": "supermarket", "addr:full": "Grenzweg 3, Villmergen, 5612", "addr:street_address": "Grenzweg 3", "addr:city": "Villmergen", "addr:postcode": "5612", "addr:country": "CH", "name": "PER-59", "phone": "056 610 82 18", "opening_hours": "Mo-Sa 07:30-20:00", "brand": "ALDI", "brand:wikidata": "Q41171672", "nsi_id": "aldi-0d26d7"}, "geometry": {"type": "Point", "coordinates": [8.2587, 47.3497]}},
{"type": "Feature", "id": "4keQrc0k9gL_0pgyTXFdhhXlMTg=", "properties": {"ref": "DOM-31", "@spider": "aldi_sud_ch", "shop": "supermarket", "addr:full": "Frutigenstrasse 46c, Thun, 3600", "addr:street_address": "Frutigenstrasse 46c", "addr:city": "Thun", "addr:postcode": "3600", "addr:country": "CH", "name": "DOM-31", "phone": "033 221 91 85", "opening_hours": "Mo-Fr 07:30-20:00; Sa 07:30-17:00", "brand": "ALDI", "brand:wikidata": "Q41171672", "nsi_id": "aldi-0d26d7"}, "geometry": {"type": "Point", "coordinates": [7.6260513, 46.7469995]}},
{"type": "Feature", "id": "HRIA1VModBpQaOhVnUy0UrZAOQ4=", "properties": {"ref": "DOM-75", "@spider": "aldi_sud_ch", "shop": "supermarket", "addr:full": "Rue de la Chenalette 177, Etoy, 1163", "addr:street_address": "Rue de la Chenalette 177", "addr:city": "Etoy", "addr:postcode": "1163", "addr:country": "CH", "name": "DOM-75", "phone": "021 831 00 59", "opening_hours": "Mo-We 08:00-19:00; Th 08:00-20:00; Fr 08:00-19:00; Sa 08:00-18:00", "brand": "ALDI", "brand:wikidata": "Q41171672", "nsi_id": "aldi-0d26d7"}, "geometry": {"type": "Point", "coordinates": [6.426719, 46.4731733]}},
{"type": "Feature", "id": "7f-Ml1O-zUOTqdPgblnoG-R4dm0=", "properties": {"ref": "SWB-95", "@spider": "aldi_sud_ch", "shop": "supermarket", "addr:full": "Via Gr\u00fcneck 2, Ilanz, 7130", "addr:street_address": "Via Gr\u00fcneck 2", "addr:city": "Ilanz", "addr:postcode": "7130", "addr:country": "CH", "name": "SWB-95", "phone": "081 936 05 59", "opening_hours": "Mo-Fr 07:30-20:00; Sa 07:30-17:00", "brand": "ALDI", "brand:wikidata": "Q41171672", "nsi_id": "aldi-0d26d7"}, "geometry": {"type": "Point", "coordinates": [9.19152, 46.77531]}},
{"type": "Feature", "id": "HN_gOvPwQZlillTILkF7MiLXiNk=", "properties": {"ref": "DOM-3", "@spider": "aldi_sud_ch", "shop": "supermarket", "addr:full": "Kantonsstrasse 66a, Visp, 3930", "addr:street_address": "Kantonsstrasse 66a", "addr:city": "Visp", "addr:postcode": "3930", "addr:country": "CH", "name": "DOM-3", "phone": "027 946 66 48", "opening_hours": "Mo-Th 07:30-18:30; Fr 07:30-20:00; Sa 07:30-17:00", "brand": "ALDI", "brand:wikidata": "Q41171672", "nsi_id": "aldi-0d26d7"}, "geometry": {"type": "Point", "coordinates": [7.9165043, 46.2960498]}},
{"type": "Feature", "id": "RtxWipeEYlMZJunPLHNdWZZEkgU=", "properties": {"ref": "SWB-85", "@spider": "aldi_sud_ch", "shop": "supermarket", "addr:full": "Bahnweg S\u00fcd 1, Sevelen, 9475", "addr:street_address": "Bahnweg S\u00fcd 1", "addr:city": "Sevelen", "addr:postcode": "9475", "addr:country": "CH", "name": "SWB-85", "phone": "081 785 36 51", "opening_hours": "Mo-Th 07:30-19:00; Fr 07:30-20:00; Sa 07:30-17:00", "brand": "ALDI", "brand:wikidata": "Q41171672", "nsi_id": "aldi-0d26d7"}, "geometry": {"type": "Point", "coordinates": [9.49662, 47.12499]}},
{"type": "Feature", "id": "7ZikFDWbt7w_IFATQYcHutw4BEo=", "properties": {"ref": "SWB-79", "@spider": "aldi_sud_ch", "shop": "supermarket", "addr:full": "Feldstrasse 32, Regensdorf, 8105", "addr:street_address": "Feldstrasse 32", "addr:city": "Regensdorf", "addr:postcode": "8105", "addr:country": "CH", "name": "SWB-79", "phone": "044 840 94 22", "opening_hours": "Mo-Sa 07:30-20:00", "brand": "ALDI", "brand:wikidata": "Q41171672", "nsi_id": "aldi-0d26d7"}, "geometry": {"type": "Point", "coordinates": [8.4735, 47.43775]}},
{"type": "Feature", "id": "KfFRwU7MkBkpiC-6hSY8_GVlLlc=", "properties": {"ref": "SWB-3", "@spider": "aldi_sud_ch", "shop": "supermarket", "addr:full": "Knotternstrasse 4, Altenrhein, 9423", "addr:street_address": "Knotternstrasse 4", "addr:city": "Altenrhein", "addr:postcode": "9423", "addr:country": "CH", "name": "SWB-3", "phone": "071 855 49 89", "opening_hours": "Mo-Th 07:30-19:00; Fr 07:30-20:00; Sa 07:30-17:00", "brand": "ALDI", "brand:wikidata": "Q41171672", "nsi_id": "aldi-0d26d7"}, "geometry": {"type": "Point", "coordinates": [9.54824, 47.48488]}},
{"type": "Feature", "id": "tJpQNSmC-Og29NOlasQRBicfsHU=", "properties": {"ref": "PER-57", "@spider": "aldi_sud_ch", "shop": "supermarket", "addr:full": "Via della Posta 12, Locarno, 6600", "addr:street_address": "Via della Posta 12", "addr:city": "Locarno", "addr:postcode": "6600", "addr:country": "CH", "name": "PER-57", "phone": "091 752 37 71", "opening_hours": "Mo-We 07:30-19:00; Th 07:30-21:00; Fr 07:30-19:00; Sa 07:30-18:30", "brand": "ALDI", "brand:wikidata": "Q41171672", "nsi_id": "aldi-0d26d7"}, "geometry": {"type": "Point", "coordinates": [8.7974, 46.1678]}},
{"type": "Feature", "id": "7ao0PGVF-efoBFmsSg3vZ6jLeUM=", "properties": {"ref": "SWB-51", "@spider": "aldi_sud_ch", "shop": "supermarket", "addr:full": "Industriestrasse 4, Embrach, 8424", "addr:street_address": "Industriestrasse 4", "addr:city": "Embrach", "addr:postcode": "8424", "addr:country": "CH", "name": "SWB-51", "phone": "044 865 82 89", "opening_hours": "Mo-Sa 07:30-20:00", "brand": "ALDI", "brand:wikidata": "Q41171672", "nsi_id": "aldi-0d26d7"}, "geometry": {"type": "Point", "coordinates": [8.59612, 47.51731]}},
{"type": "Feature", "id": "4QvXGud7VHJ1GX_mWjJpLCBtDxE=", "properties": {"ref": "SWB-57", "@spider": "aldi_sud_ch", "shop": "supermarket", "addr:full": "Wilerstrasse 50, Bazenheid, 9602", "addr:street_address": "Wilerstrasse 50", "addr:city": "Bazenheid", "addr:postcode": "9602", "addr:country": "CH", "name": "SWB-57", "phone": "071 931 65 87", "opening_hours": "Mo-Fr 07:30-19:00; Sa 07:30-17:00", "brand": "ALDI", "brand:wikidata": "Q41171672", "nsi_id": "aldi-0d26d7"}, "geometry": {"type": "Point", "coordinates": [9.06633, 47.4154]}},
{"type": "Feature", "id": "N43FA20btyJBci-XHQcuOIlQltg=", "properties": {"ref": "SWB-11", "@spider": "aldi_sud_ch", "shop": "supermarket", "addr:full": "Stachelhofstrasse 4, Siebnen, 8854", "addr:street_address": "Stachelhofstrasse 4", "addr:city": "Siebnen", "addr:postcode": "8854", "addr:country": "CH", "name": "SWB-11", "phone": "055 440 77 46", "opening_hours": "Mo-Sa 07:30-20:00", "brand": "ALDI", "brand:wikidata": "Q41171672", "nsi_id": "aldi-0d26d7"}, "geometry": {"type": "Point", "coordinates": [8.91235, 47.17547]}},
{"type": "Feature", "id": "tKKb8cLHi6Heowc_1L7Cdw8wDmk=", "properties": {"ref": "PER-4", "@spider": "aldi_sud_ch", "shop": "supermarket", "addr:full": "Oberwilerstrasse 40, Therwil, 4106", "addr:street_address": "Oberwilerstrasse 40", "addr:city": "Therwil", "addr:postcode": "4106", "addr:country": "CH", "name": "PER-4", "phone": "061 721 15 16", "opening_hours": "Mo-Sa 08:00-20:00", "brand": "ALDI", "brand:wikidata": "Q41171672", "nsi_id": "aldi-0d26d7"}, "geometry": {"type": "Point", "coordinates": [7.55397, 47.50366]}},
{"type": "Feature", "id": "EAmEGnqYd61Ad7_WH0PUROOq3MA=", "properties": {"ref": "PER-5", "@spider": "aldi_sud_ch", "shop": "supermarket", "addr:full": "Viale Serfontana 16, Morbio Inferiore, 6834", "addr:street_address": "Viale Serfontana 16", "addr:city": "Morbio Inferiore", "addr:postcode": "6834", "addr:country": "CH", "name": "PER-5", "phone": "091 690 14 77", "opening_hours": "Mo-We 07:30-19:00; Th 07:30-21:00; Fr 07:30-19:00; Sa 07:30-18:30", "brand": "ALDI", "brand:wikidata": "Q41171672", "nsi_id": "aldi-0d26d7"}, "geometry": {"type": "Point", "coordinates": [9.0154, 45.8468]}},
{"type": "Feature", "id": "v98hgY3mC-GjSAHHNhMzJ-y7YR8=", "properties": {"ref": "SWB-73", "@spider": "aldi_sud_ch", "shop": "supermarket", "addr:full": "Wespenstrasse 16, Frauenfeld, 8500", "addr:street_address": "Wespenstrasse 16", "addr:city": "Frauenfeld", "addr:postcode": "8500", "addr:country": "CH", "name": "SWB-73", "phone": "052 721 91 49", "opening_hours": "Mo-Sa 07:30-20:00", "brand": "ALDI", "brand:wikidata": "Q41171672", "nsi_id": "aldi-0d26d7"}, "geometry": {"type": "Point", "coordinates": [8.88061, 47.56379]}},
{"type": "Feature", "id": "M_ofm3RAw4s4TtNfXiqFQ-MBFb8=", "properties": {"ref": "PER-24", "@spider": "aldi_sud_ch", "shop": "supermarket", "addr:full": "Lenzburgerstrasse 2, Niederlenz, 5702", "addr:street_address": "Lenzburgerstrasse 2", "addr:city": "Niederlenz", "addr:postcode": "5702", "addr:country": "CH", "name": "PER-24", "phone": "062 892 36 15", "opening_hours": "Mo-Sa 07:30-20:00", "brand": "ALDI", "brand:wikidata": "Q41171672", "nsi_id": "aldi-0d26d7"}, "geometry": {"type": "Point", "coordinates": [8.1782, 47.398]}},
{"type": "Feature", "id": "gB6RNNePwoONonlYYX_GBXMPieU=", "properties": {"ref": "SWB-48", "@spider": "aldi_sud_ch", "shop": "supermarket", "addr:full": "Zwirnereistrasse 7/9, Wallisellen, 8304", "addr:street_address": "Zwirnereistrasse 7/9", "addr:city": "Wallisellen", "addr:postcode": "8304", "addr:country": "CH", "name": "SWB-48", "phone": "043 233 31 17", "opening_hours": "Mo-Sa 07:30-20:00", "brand": "ALDI", "brand:wikidata": "Q41171672", "nsi_id": "aldi-0d26d7"}, "geometry": {"type": "Point", "coordinates": [8.6027724, 47.4043433]}},
{"type": "Feature", "id": "CktceC626NtUYr2s1vjsvDBSJtQ=", "properties": {"ref": "DOM-46", "@spider": "aldi_sud_ch", "shop": "supermarket", "addr:full": "Dornacherstrasse 26-28, Solothurn, 4500", "addr:street_address": "Dornacherstrasse 26-28", "addr:city": "Solothurn", "addr:postcode": "4500", "addr:country": "CH", "name": "DOM-46", "phone": "032 623 55 78", "opening_hours": "Mo-We 08:00-18:30; Th 08:00-20:00; Fr 08:00-18:30; Sa 08:00-18:00", "brand": "ALDI", "brand:wikidata": "Q41171672", "nsi_id": "aldi-0d26d7"}, "geometry": {"type": "Point", "coordinates": [7.54138, 47.20431]}},
{"type": "Feature", "id": "XzZzHOF-gndjHL7aXwLd6B6bttE=", "properties": {"ref": "PER-29", "@spider": "aldi_sud_ch", "shop": "supermarket", "addr:full": "Spitalweidstrasse 1, Oftringen, 4665", "addr:street_address": "Spitalweidstrasse 1", "addr:city": "Oftringen", "addr:postcode": "4665", "addr:country": "CH", "name": "PER-29", "phone": "062 798 12 35", "opening_hours": "Mo-Sa 08:00-20:00", "brand": "ALDI", "brand:wikidata": "Q41171672", "nsi_id": "aldi-0d26d7"}, "geometry": {"type": "Point", "coordinates": [7.925436, 47.310788]}},
{"type": "Feature", "id": "aOTrZUJ2cGw_pz6FbnHlGqvuy0g=", "properties": {"ref": "PER-81", "@spider": "aldi_sud_ch", "shop": "supermarket", "addr:full": "Bahnhofstrasse 31, Baden, 5400", "addr:street_address": "Bahnhofstrasse 31", "addr:city": "Baden", "addr:postcode": "5400", "addr:country": "CH", "name": "PER-81", "phone": "062 724 09 46", "opening_hours": "Mo-Sa 06:30-20:00", "brand": "ALDI", "brand:wikidata": "Q41171672", "nsi_id": "aldi-0d26d7"}, "geometry": {"type": "Point", "coordinates": [8.30835, 47.4777]}},
{"type": "Feature", "id": "vHfsgrsaFI4UVKqdUaUD1Sj4-4k=", "properties": {"ref": "PER-72", "@spider": "aldi_sud_ch", "shop": "supermarket", "addr:full": "Bernstrasse 378, Dietikon, 8953", "addr:street_address": "Bernstrasse 378", "addr:city": "Dietikon", "addr:postcode": "8953", "addr:country": "CH", "name": "PER-72", "phone": "044 741 29 49", "opening_hours": "Mo-Sa 07:30-20:00", "brand": "ALDI", "brand:wikidata": "Q41171672", "nsi_id": "aldi-0d26d7"}, "geometry": {"type": "Point", "coordinates": [8.39576, 47.38489]}},
{"type": "Feature", "id": "tzdRkALA9Hosjxvk-pJ9iBijU2E=", "properties": {"ref": "PER-68", "@spider": "aldi_sud_ch", "shop": "supermarket", "addr:full": "Dornacherstrasse 258, Basel, 4053", "addr:street_address": "Dornacherstrasse 258", "addr:city": "Basel", "addr:postcode": "4053", "addr:country": "CH", "name": "PER-68", "phone": "061 331 82 31", "opening_hours": "Mo-Fr 08:00-20:00; Sa 07:30-18:00", "brand": "ALDI", "brand:wikidata": "Q41171672", "nsi_id": "aldi-0d26d7"}, "geometry": {"type": "Point", "coordinates": [7.59742, 47.54052]}},
{"type": "Feature", "id": "nL7HhWloDFfd0_8N1R1iwNosQA0=", "properties": {"ref": "SWB-60", "@spider": "aldi_sud_ch", "shop": "supermarket", "addr:full": "Dorfplatz 14, Zumikon, 8126", "addr:street_address": "Dorfplatz 14", "addr:city": "Zumikon", "addr:postcode": "8126", "addr:country": "CH", "name": "SWB-60", "phone": "044 419 01 72", "opening_hours": "Mo-Sa 07:30-20:00", "brand": "ALDI", "brand:wikidata": "Q41171672", "nsi_id": "aldi-0d26d7"}, "geometry": {"type": "Point", "coordinates": [8.62347889, 47.33240891]}},
{"type": "Feature", "id": "388QBUq5WbGpFp4oDO-8Q-tFSeQ=", "properties": {"ref": "SWB-43", "@spider": "aldi_sud_ch", "shop": "supermarket", "addr:full": "Schulstrasse 82, Landquart, 7302", "addr:street_address": "Schulstrasse 82", "addr:city": "Landquart", "addr:postcode": "7302", "addr:country": "CH", "name": "SWB-43", "phone": "081 330 83 47", "opening_hours": "Mo-Sa 07:30-20:00", "brand": "ALDI", "brand:wikidata": "Q41171672", "nsi_id": "aldi-0d26d7"}, "geometry": {"type": "Point", "coordinates": [9.56444, 46.95604]}},
{"type": "Feature", "id": "FRCdIIBr3D4rK3kf0xPVSGCxq98=", "properties": {"ref": "DOM-58", "@spider": "aldi_sud_ch", "shop": "supermarket", "addr:full": "Industrie Neuhof 80, Kirchberg, 3422", "addr:street_address": "Industrie Neuhof 80", "addr:city": "Kirchberg", "addr:postcode": "3422", "addr:country": "CH", "name": "DOM-58", "phone": "034 445 54 90", "opening_hours": "Mo-Fr 08:00-20:00; Sa 08:00-17:00", "brand": "ALDI", "brand:wikidata": "Q41171672", "nsi_id": "aldi-0d26d7"}, "geometry": {"type": "Point", "coordinates": [7.56941, 47.10032]}},
{"type": "Feature", "id": "TyithAbSYc3GE5gLs9Vi_evde-Y=", "properties": {"ref": "SWB-76", "@spider": "aldi_sud_ch", "shop": "supermarket", "addr:full": "Herbergstrasse 26, Zuzwil, 9524", "addr:street_address": "Herbergstrasse 26", "addr:city": "Zuzwil", "addr:postcode": "9524", "addr:country": "CH", "name": "SWB-76", "phone": "071 279 29 85", "opening_hours": "Mo-Th 07:30-19:00; Fr 07:30-20:00; Sa 07:30-17:00", "brand": "ALDI", "brand:wikidata": "Q41171672", "nsi_id": "aldi-0d26d7"}, "geometry": {"type": "Point", "coordinates": [9.110365, 47.470261]}},
{"type": "Feature", "id": "zABYV1SC6JFvI-BkQNzLuzEBAAg=", "properties": {"ref": "DOM-17", "@spider": "aldi_sud_ch", "shop": "supermarket", "addr:full": "Bahnhofstrasse 8, Gerlafingen, 4563", "addr:street_address": "Bahnhofstrasse 8", "addr:city": "Gerlafingen", "addr:postcode": "4563", "addr:country": "CH", "name": "DOM-17", "phone": "080 090 01 80", "opening_hours": "Mo-Th 08:00-18:30; Fr 08:00-20:00; Sa 08:00-18:00", "brand": "ALDI", "brand:wikidata": "Q41171672", "nsi_id": "aldi-0d26d7"}, "geometry": {"type": "Point", "coordinates": [7.56756028, 47.17102385]}},
{"type": "Feature", "id": "r7jRCuMchpbQ_4aPjO8utS-AQtM=", "properties": {"ref": "DOM-9", "@spider": "aldi_sud_ch", "shop": "supermarket", "addr:full": "Milchstrasse 2-8, Ostermundigen, 3072", "addr:street_address": "Milchstrasse 2-8", "addr:city": "Ostermundigen", "addr:postcode": "3072", "addr:country": "CH", "name": "DOM-9", "phone": "031 934 55 65", "opening_hours": "Mo-Fr 08:00-20:00; Sa 08:00-17:00", "brand": "ALDI", "brand:wikidata": "Q41171672", "nsi_id": "aldi-0d26d7"}, "geometry": {"type": "Point", "coordinates": [7.48187, 46.96358]}},
{"type": "Feature", "id": "BEdiAmlCKCXxUwUV6S6CwCrrMEw=", "properties": {"ref": "PER-32", "@spider": "aldi_sud_ch", "shop": "supermarket", "addr:full": "Ringcenter/Ringstrasse 27, Kriens, 6010", "addr:street_address": "Ringcenter/Ringstrasse 27", "addr:city": "Kriens", "addr:postcode": "6010", "addr:country": "CH", "name": "PER-32", "phone": "041 342 18 19", "opening_hours": "Mo-Th 07:30-19:00; Fr 07:30-21:00; Sa 07:30-17:00", "brand": "ALDI", "brand:wikidata": "Q41171672", "nsi_id": "aldi-0d26d7"}, "geometry": {"type": "Point", "coordinates": [8.2945, 47.0244]}},
{"type": "Feature", "id": "z_rLf1J-aayFZOX9rBwr0f1um68=", "properties": {"ref": "PER-62", "@spider": "aldi_sud_ch", "shop": "supermarket", "addr:full": "K\u00e4giswilerstrasse 39, Sarnen, 6060", "addr:street_address": "K\u00e4giswilerstrasse 39", "addr:city": "Sarnen", "addr:postcode": "6060", "addr:country": "CH", "name": "PER-62", "phone": "041 662 45 87", "opening_hours": "Mo-Fr 07:30-20:00; Sa 07:30-18:00", "brand": "ALDI", "brand:wikidata": "Q41171672", "nsi_id": "aldi-0d26d7"}, "geometry": {"type": "Point", "coordinates": [8.257, 46.906]}},
{"type": "Feature", "id": "aG53jC-sQyfxDdTWNgreelxVcQM=", "properties": {"ref": "DOM-26", "@spider": "aldi_sud_ch", "shop": "supermarket", "addr:full": "Rte de Saint-Loup 2, Versoix, 1290", "addr:street_address": "Rte de Saint-Loup 2", "addr:city": "Versoix", "addr:postcode": "1290", "addr:country": "CH", "name": "DOM-26", "phone": "022 860 15 82", "opening_hours": "Mo-We 08:00-19:00; Th 08:00-20:00; Fr 08:00-19:00; Sa 08:00-18:00", "brand": "ALDI", "brand:wikidata": "Q41171672", "nsi_id": "aldi-0d26d7"}, "geometry": {"type": "Point", "coordinates": [6.16518, 46.279383]}},
{"type": "Feature", "id": "jivuwMybIG537_soCRmtvFqmziU=", "properties": {"ref": "SWB-64", "@spider": "aldi_sud_ch", "shop": "supermarket", "addr:full": "St. Leonhardstrasse 39, St. Gallen, 9000", "addr:street_address": "St. Leonhardstrasse 39", "addr:city": "St. Gallen", "addr:postcode": "9000", "addr:country": "CH", "name": "SWB-64", "phone": "071 279 29 82", "opening_hours": "Mo-Sa 07:30-20:00", "brand": "ALDI", "brand:wikidata": "Q41171672", "nsi_id": "aldi-0d26d7"}, "geometry": {"type": "Point", "coordinates": [9.3699317, 47.4220461]}},
{"type": "Feature", "id": "OsK5p8WFxZ9JR57hrJ5ZtbgMQL4=", "properties": {"ref": "SWB-80", "@spider": "aldi_sud_ch", "shop": "supermarket", "addr:full": "Schweizerhofstrasse 14, Glarus, 8750", "addr:street_address": "Schweizerhofstrasse 14", "addr:city": "Glarus", "addr:postcode": "8750", "addr:country": "CH", "name": "SWB-80", "phone": "055 619 60 30", "opening_hours": "Mo-Sa 07:30-20:00", "brand": "ALDI", "brand:wikidata": "Q41171672", "nsi_id": "aldi-0d26d7"}, "geometry": {"type": "Point", "coordinates": [9.070478, 47.041402]}},
{"type": "Feature", "id": "V0u6H7KIUhiEiDMLUUSlyQl6wG4=", "properties": {"ref": "DOM-50", "@spider": "aldi_sud_ch", "shop": "supermarket", "addr:full": "Avenue de Longemalle 1, Renens, 1020", "addr:street_address": "Avenue de Longemalle 1", "addr:city": "Renens", "addr:postcode": "1020", "addr:country": "CH", "name": "DOM-50", "phone": "021 633 71 18", "opening_hours": "Mo-Fr 07:30-19:00; Sa 07:30-17:00", "brand": "ALDI", "brand:wikidata": "Q41171672", "nsi_id": "aldi-0d26d7"}, "geometry": {"type": "Point", "coordinates": [6.59105, 46.528]}},
{"type": "Feature", "id": "uFD0eH9bjzBOfQPqfrghfWh15dw=", "properties": {"ref": "SWB-18", "@spider": "aldi_sud_ch", "shop": "supermarket", "addr:full": "Badenerstrasse 565, Z\u00fcrich, 8048", "addr:street_address": "Badenerstrasse 565", "addr:city": "Z\u00fcrich", "addr:postcode": "8048", "addr:country": "CH", "name": "SWB-18", "phone": "044 400 25 14", "opening_hours": "Mo-Sa 07:30-21:00", "brand": "ALDI", "brand:wikidata": "Q41171672", "nsi_id": "aldi-0d26d7"}, "geometry": {"type": "Point", "coordinates": [8.4976223, 47.3838103]}},
{"type": "Feature", "id": "I0WAmW80ivuTO312tvKTt1ugBkE=", "properties": {"ref": "PER-74", "@spider": "aldi_sud_ch", "shop": "supermarket", "addr:full": "Goldschl\u00e4giplatz 3, Schlieren, 8952", "addr:street_address": "Goldschl\u00e4giplatz 3", "addr:city": "Schlieren", "addr:postcode": "8952", "addr:country": "CH", "name": "PER-74", "phone": "044 730 44 24", "opening_hours": "Mo-Sa 07:30-20:00", "brand": "ALDI", "brand:wikidata": "Q41171672", "nsi_id": "aldi-0d26d7"}, "geometry": {"type": "Point", "coordinates": [8.4410733, 47.4002505]}},
{"type": "Feature", "id": "35SC2hDjb7FqH8q_vPwuPGHD8dg=", "properties": {"ref": "PER-47", "@spider": "aldi_sud_ch", "shop": "supermarket", "addr:full": "Pfadackerstrasse 6, Spreitenbach, 8957", "addr:street_address": "Pfadackerstrasse 6", "addr:city": "Spreitenbach", "addr:postcode": "8957", "addr:country": "CH", "name": "PER-47", "phone": "056 410 18 14", "opening_hours": "Mo-Fr 09:00-20:00; Sa 08:00-20:00", "brand": "ALDI", "brand:wikidata": "Q41171672", "nsi_id": "aldi-0d26d7"}, "geometry": {"type": "Point", "coordinates": [8.37, 47.4234]}},
{"type": "Feature", "id": "1W9vtRFYZ4_Hs3XmNGsSagzlKq8=", "properties": {"ref": "PER-97", "@spider": "aldi_sud_ch", "shop": "supermarket", "addr:full": "Birmenstorferstrasse 1, Fislisbach, 5442", "addr:street_address": "Birmenstorferstrasse 1", "addr:city": "Fislisbach", "addr:postcode": "5442", "addr:country": "CH", "name": "PER-97", "phone": "056 470 45 86", "opening_hours": "Mo-Sa 08:00-20:00", "brand": "ALDI", "brand:wikidata": "Q41171672", "nsi_id": "aldi-0d26d7"}, "geometry": {"type": "Point", "coordinates": [8.2913, 47.4389]}},
{"type": "Feature", "id": "_dfefAD2cL2Pr5YZqOlfBvTdjus=", "properties": {"ref": "DOM-2", "@spider": "aldi_sud_ch", "shop": "supermarket", "addr:full": "Bernstrasse 164, Zollikofen, 3052", "addr:street_address": "Bernstrasse 164", "addr:city": "Zollikofen", "addr:postcode": "3052", "addr:country": "CH", "name": "DOM-2", "phone": "031 914 18 89", "opening_hours": "Mo-Fr 08:00-20:00; Sa 08:00-17:00", "brand": "ALDI", "brand:wikidata": "Q41171672", "nsi_id": "aldi-0d26d7"}, "geometry": {"type": "Point", "coordinates": [7.4601146, 46.9975498]}},
{"type": "Feature", "id": "9K_Z0_5Gzi74ggun5DKl2dr6I5U=", "properties": {"ref": "SWB-24", "@spider": "aldi_sud_ch", "shop": "supermarket", "addr:full": "Industriepark 10, Uster, 8610", "addr:street_address": "Industriepark 10", "addr:city": "Uster", "addr:postcode": "8610", "addr:country": "CH", "name": "SWB-24", "phone": "044 941 77 67", "opening_hours": "Mo-Sa 07:30-20:00", "brand": "ALDI", "brand:wikidata": "Q41171672", "nsi_id": "aldi-0d26d7"}, "geometry": {"type": "Point", "coordinates": [8.70798, 47.35794]}},
{"type": "Feature", "id": "ESSGIclLiaJZ63JEC0drbl0JoUM=", "properties": {"ref": "PER-20", "@spider": "aldi_sud_ch", "shop": "supermarket", "addr:full": "Hauptstrasse 8, Lausen, 4415", "addr:street_address": "Hauptstrasse 8", "addr:city": "Lausen", "addr:postcode": "4415", "addr:country": "CH", "name": "PER-20", "phone": "061 921 94 75", "opening_hours": "Mo-Sa 07:30-20:00", "brand": "ALDI", "brand:wikidata": "Q41171672", "nsi_id": "aldi-0d26d7"}, "geometry": {"type": "Point", "coordinates": [7.75824, 47.472]}},
{"type": "Feature", "id": "TpxZLxXKA5NkqbW2n4KviYtcxLE=", "properties": {"ref": "DOM-6", "@spider": "aldi_sud_ch", "shop": "supermarket", "addr:full": "Talgut-Zentrum 19, Ittigen, 3063", "addr:street_address": "Talgut-Zentrum 19", "addr:city": "Ittigen", "addr:postcode": "3063", "addr:country": "CH", "name": "DOM-6", "phone": "031 922 49 25", "opening_hours": "Mo-Th 08:00-19:00; Fr 08:00-20:00; Sa 08:00-17:00", "brand": "ALDI", "brand:wikidata": "Q41171672", "nsi_id": "aldi-0d26d7"}, "geometry": {"type": "Point", "coordinates": [7.48171, 46.97431]}},
{"type": "Feature", "id": "p-K9-NSKEv2H5j18V-LNbVFoq9E=", "properties": {"ref": "SWB-88", "@spider": "aldi_sud_ch", "shop": "supermarket", "addr:full": "Bahnhofstrasse 6, Kloten, 8302", "addr:street_address": "Bahnhofstrasse 6", "addr:city": "Kloten", "addr:postcode": "8302", "addr:country": "CH", "name": "SWB-88", "phone": "044 310 37 07", "opening_hours": "Mo-Sa 07:30-20:00", "brand": "ALDI", "brand:wikidata": "Q41171672", "nsi_id": "aldi-0d26d7"}, "geometry": {"type": "Point", "coordinates": [8.582613, 47.448978]}},
{"type": "Feature", "id": "pKkOOhhTBbZ16tXQHIJWa5P08Jk=", "properties": {"ref": "PER-49", "@spider": "aldi_sud_ch", "shop": "supermarket", "addr:full": "Hegenheimermattweg 183, Allschwil, 4123", "addr:street_address": "Hegenheimermattweg 183", "addr:city": "Allschwil", "addr:postcode": "4123", "addr:country": "CH", "name": "PER-49", "phone": "061 482 37 58", "opening_hours": "Mo-Sa 07:30-20:00", "brand": "ALDI", "brand:wikidata": "Q41171672", "nsi_id": "aldi-0d26d7"}, "geometry": {"type": "Point", "coordinates": [7.5562, 47.56274]}},
{"type": "Feature", "id": "MZ9QQWJHDDkZuTLEoA2mTOWt8uU=", "properties": {"ref": "PER-83", "@spider": "aldi_sud_ch", "shop": "supermarket", "addr:full": "Dietlimoosplatz 1, Adliswil, 8134", "addr:street_address": "Dietlimoosplatz 1", "addr:city": "Adliswil", "addr:postcode": "8134", "addr:country": "CH", "name": "PER-83", "opening_hours": "Mo-Sa 07:30-20:00", "brand": "ALDI", "brand:wikidata": "Q41171672", "nsi_id": "aldi-0d26d7"}, "geometry": {"type": "Point", "coordinates": [8.53185, 47.32269]}},
{"type": "Feature", "id": "Dgyyi8YcKKvhy9JVkMLsDQVb3kA=", "properties": {"ref": "DOM-41", "@spider": "aldi_sud_ch", "shop": "supermarket", "addr:full": "Rue de Lausanne 47, Morges, 1110", "addr:street_address": "Rue de Lausanne 47", "addr:city": "Morges", "addr:postcode": "1110", "addr:country": "CH", "name": "DOM-41", "phone": "021 803 46 49", "opening_hours": "Mo-Th 08:00-18:45; Fr 08:00-20:00; Sa 08:00-18:00", "brand": "ALDI", "brand:wikidata": "Q41171672", "nsi_id": "aldi-0d26d7"}, "geometry": {"type": "Point", "coordinates": [6.50563, 46.51604]}},
{"type": "Feature", "id": "r2RlKvd9LJUEpW2VuacaNEBIP0A=", "properties": {"ref": "SWB-33", "@spider": "aldi_sud_ch", "shop": "supermarket", "addr:full": "Archh\u00f6fe/Archplatz 2, Winterthur, 8400", "addr:street_address": "Archh\u00f6fe/Archplatz 2", "addr:city": "Winterthur", "addr:postcode": "8400", "addr:country": "CH", "name": "SWB-33", "phone": "052 203 18 23", "opening_hours": "Mo-Sa 08:00-20:00", "brand": "ALDI", "brand:wikidata": "Q41171672", "nsi_id": "aldi-0d26d7"}, "geometry": {"type": "Point", "coordinates": [8.72391, 47.49854]}},
{"type": "Feature", "id": "G6CXXTf6HG8NMip77wyqRAQCx-c=", "properties": {"ref": "DOM-20", "@spider": "aldi_sud_ch", "shop": "supermarket", "addr:full": "Kornhausplatz 7, Bern, 3011", "addr:street_address": "Kornhausplatz 7", "addr:city": "Bern", "addr:postcode": "3011", "addr:country": "CH", "name": "DOM-20", "phone": "031 722 40 10", "opening_hours": "Mo-We 08:00-20:00; Th 08:00-21:00; Fr 08:00-20:00; Sa 07:30-17:00", "brand": "ALDI", "brand:wikidata": "Q41171672", "nsi_id": "aldi-0d26d7"}, "geometry": {"type": "Point", "coordinates": [7.44783165, 46.94844267]}},
{"type": "Feature", "id": "r4cRMaVrKrD3x2GG8simYr7botY=", "properties": {"ref": "PER-27", "@spider": "aldi_sud_ch", "shop": "supermarket", "addr:full": "G\u00e4tzlistrasse 9, Ingenbohl, 6440", "addr:street_address": "G\u00e4tzlistrasse 9", "addr:city": "Ingenbohl", "addr:postcode": "6440", "addr:country": "CH", "name": "PER-27", "phone": "041 820 14 34", "opening_hours": "Mo-Th 07:30-20:00; Fr 07:30-21:00; Sa 07:30-20:00", "brand": "ALDI", "brand:wikidata": "Q41171672", "nsi_id": "aldi-0d26d7"}, "geometry": {"type": "Point", "coordinates": [8.620655, 47.002885]}},
{"type": "Feature", "id": "DuURydNUDoAkJClmerrjrcnMKXs=", "properties": {"ref": "DOM-62", "@spider": "aldi_sud_ch", "shop": "supermarket", "addr:full": "Murtenstrasse 143, Bern, 3008", "addr:street_address": "Murtenstrasse 143", "addr:city": "Bern", "addr:postcode": "3008", "addr:country": "CH", "name": "DOM-62", "phone": "031 398 54 94", "opening_hours": "Mo-Fr 08:00-20:00; Sa 08:00-17:00", "brand": "ALDI", "brand:wikidata": "Q41171672", "nsi_id": "aldi-0d26d7"}, "geometry": {"type": "Point", "coordinates": [7.40926, 46.94915]}},
{"type": "Feature", "id": "Uh1NLxlEr6FZOBaTnjW9QRxW8fI=", "properties": {"ref": "PER-14", "@spider": "aldi_sud_ch", "shop": "supermarket", "addr:full": "Fl\u00fcelerstrasse  34, Altdorf, 6460", "addr:street_address": "Fl\u00fcelerstrasse  34", "addr:city": "Altdorf", "addr:postcode": "6460", "addr:country": "CH", "name": "PER-14", "phone": "041 872 19 65", "opening_hours": "Mo-Th 07:30-18:30; Fr 07:30-20:00; Sa 07:30-17:00", "brand": "ALDI", "brand:wikidata": "Q41171672", "nsi_id": "aldi-0d26d7"}, "geometry": {"type": "Point", "coordinates": [8.6341, 46.8877]}},
{"type": "Feature", "id": "p525KbYgCRsshf3DEGEd1AU4p3w=", "properties": {"ref": "DOM-52", "@spider": "aldi_sud_ch", "shop": "supermarket", "addr:full": "Avenue du Chablais 3B, Lausanne, 1007", "addr:street_address": "Avenue du Chablais 3B", "addr:city": "Lausanne", "addr:postcode": "1007", "addr:country": "CH", "name": "DOM-52", "phone": "021 626 12 57", "opening_hours": "Mo-Fr 08:00-19:00; Sa 08:00-18:00", "brand": "ALDI", "brand:wikidata": "Q41171672", "nsi_id": "aldi-0d26d7"}, "geometry": {"type": "Point", "coordinates": [6.60347, 46.52683]}},
{"type": "Feature", "id": "G_PDBv5hIp3PZTBDlk6ldidodS4=", "properties": {"ref": "SWB-8", "@spider": "aldi_sud_ch", "shop": "supermarket", "addr:full": "Zollstrasse 58, Z\u00fcrich, 8005", "addr:street_address": "Zollstrasse 58", "addr:city": "Z\u00fcrich", "addr:postcode": "8005", "addr:country": "CH", "name": "SWB-8", "phone": "044 309 81 84", "opening_hours": "Mo-Sa 07:30-21:00", "brand": "ALDI", "brand:wikidata": "Q41171672", "nsi_id": "aldi-0d26d7"}, "geometry": {"type": "Point", "coordinates": [8.533307, 47.380851]}},
{"type": "Feature", "id": "uoI5hi_Mmwi43RoF5iz2Wwq77ws=", "properties": {"ref": "PER-73", "@spider": "aldi_sud_ch", "shop": "supermarket", "addr:full": "Z\u00fcrcherstrasse 55, Dietikon, 8953", "addr:street_address": "Z\u00fcrcherstrasse 55", "addr:city": "Dietikon", "addr:postcode": "8953", "addr:country": "CH", "name": "PER-73", "phone": "044 742 19 78", "opening_hours": "Mo-Sa 07:30-20:00", "brand": "ALDI", "brand:wikidata": "Q41171672", "nsi_id": "aldi-0d26d7"}, "geometry": {"type": "Point", "coordinates": [8.4061, 47.403]}},
{"type": "Feature", "id": "OY5EjKpNzns-FQN5gJirInXv3b8=", "properties": {"ref": "SWB-45", "@spider": "aldi_sud_ch", "shop": "supermarket", "addr:full": "Lerchentalstrasse 14, St. Gallen, 9016", "addr:street_address": "Lerchentalstrasse 14", "addr:city": "St. Gallen", "addr:postcode": "9016", "addr:country": "CH", "name": "SWB-45", "phone": "071 280 16 45", "opening_hours": "Mo-We 07:30-19:00; Th 07:30-20:00; Fr 07:30-19:00; Sa 07:30-17:00", "brand": "ALDI", "brand:wikidata": "Q41171672", "nsi_id": "aldi-0d26d7"}, "geometry": {"type": "Point", "coordinates": [9.41484, 47.44236]}},
{"type": "Feature", "id": "ykv-gEQnX76AiEXZKYlCjOWMFxo=", "properties": {"ref": "SWB-69", "@spider": "aldi_sud_ch", "shop": "supermarket", "addr:full": "Lengwilerstrasse 2, Kreuzlingen, 8280", "addr:street_address": "Lengwilerstrasse 2", "addr:city": "Kreuzlingen", "addr:postcode": "8280", "addr:country": "CH", "name": "SWB-69", "phone": "071 688 94 53", "opening_hours": "Mo-Sa 07:30-20:00", "brand": "ALDI", "brand:wikidata": "Q41171672", "nsi_id": "aldi-0d26d7"}, "geometry": {"type": "Point", "coordinates": [9.20457, 47.63928]}},
{"type": "Feature", "id": "Qd9DzmL9HU9Sab2_0eoWjeVAKzk=", "properties": {"ref": "SWB-32", "@spider": "aldi_sud_ch", "shop": "supermarket", "addr:full": "Sch\u00e4renmoosstrasse 77, Z\u00fcrich, 8052", "addr:street_address": "Sch\u00e4renmoosstrasse 77", "addr:city": "Z\u00fcrich", "addr:postcode": "8052", "addr:country": "CH", "name": "SWB-32", "phone": "044 300 67 25", "opening_hours": "Mo-Sa 07:30-20:00", "brand": "ALDI", "brand:wikidata": "Q41171672", "nsi_id": "aldi-0d26d7"}, "geometry": {"type": "Point", "coordinates": [8.55643, 47.4194]}},
{"type": "Feature", "id": "8QAjjI9vI-ZJvR1958hB0Vo4keI=", "properties": {"ref": "PER-21", "@spider": "aldi_sud_ch", "shop": "supermarket", "addr:full": "Ettiswilerstrasse 29, Willisau, 6130", "addr:street_address": "Ettiswilerstrasse 29", "addr:city": "Willisau", "addr:postcode": "6130", "addr:country": "CH", "name": "PER-21", "phone": "041 911 08 37", "opening_hours": "Mo-Th 07:30-19:00; Fr 07:30-21:00; Sa 07:30-17:00", "brand": "ALDI", "brand:wikidata": "Q41171672", "nsi_id": "aldi-0d26d7"}, "geometry": {"type": "Point", "coordinates": [7.9964, 47.1259]}},
{"type": "Feature", "id": "bZD2wANc_kOohV9WoPTHnUvItKQ=", "properties": {"ref": "DOM-40", "@spider": "aldi_sud_ch", "shop": "supermarket", "addr:full": "Rue Antoine-Carteret 22, Gen\u00e8ve, 1202", "addr:street_address": "Rue Antoine-Carteret 22", "addr:city": "Gen\u00e8ve", "addr:postcode": "1202", "addr:country": "CH", "name": "DOM-40", "phone": "022 748 24 94", "opening_hours": "Mo-We 08:00-19:00; Th 08:00-21:00; Fr 08:00-19:30; Sa 08:00-18:00", "brand": "ALDI", "brand:wikidata": "Q41171672", "nsi_id": "aldi-0d26d7"}, "geometry": {"type": "Point", "coordinates": [6.1338181, 46.2125144]}},
{"type": "Feature", "id": "dKcYPwvoNcPSf6awywLimbNTOg0=", "properties": {"ref": "PER-28", "@spider": "aldi_sud_ch", "shop": "supermarket", "addr:full": "Fabrikweg 16, Buchs, 5033", "addr:street_address": "Fabrikweg 16", "addr:city": "Buchs", "addr:postcode": "5033", "addr:country": "CH", "name": "PER-28", "phone": "062 823 95 46", "opening_hours": "Mo-Sa 08:00-20:00", "brand": "ALDI", "brand:wikidata": "Q41171672", "nsi_id": "aldi-0d26d7"}, "geometry": {"type": "Point", "coordinates": [8.0813, 47.3871]}},
{"type": "Feature", "id": "gAQ6ZavON0npYkkDyUsv2o5muxk=", "properties": {"ref": "PER-67", "@spider": "aldi_sud_ch", "shop": "supermarket", "addr:full": "Zugerstrasse 1, Richterswil, 8805", "addr:street_address": "Zugerstrasse 1", "addr:city": "Richterswil", "addr:postcode": "8805", "addr:country": "CH", "name": "PER-67", "phone": "044 687 51 14", "opening_hours": "Mo-Sa 08:00-20:00", "brand": "ALDI", "brand:wikidata": "Q41171672", "nsi_id": "aldi-0d26d7"}, "geometry": {"type": "Point", "coordinates": [8.7067835, 47.2051073]}},
{"type": "Feature", "id": "WBpt2CtjacaHqW0BtK7wACvHFjs=", "properties": {"ref": "SWB-28", "@spider": "aldi_sud_ch", "shop": "supermarket", "addr:full": "Hofwisenstrasse 42, R\u00fcmlang, 8153", "addr:street_address": "Hofwisenstrasse 42", "addr:city": "R\u00fcmlang", "addr:postcode": "8153", "addr:country": "CH", "name": "SWB-28", "phone": "044 880 77 57", "opening_hours": "Mo-Sa 07:30-20:00", "brand": "ALDI", "brand:wikidata": "Q41171672", "nsi_id": "aldi-0d26d7"}, "geometry": {"type": "Point", "coordinates": [8.53827, 47.45059]}},
{"type": "Feature", "id": "UmsntxuxQ9rgo3BW284NRFq4YUs=", "properties": {"ref": "PER-16", "@spider": "aldi_sud_ch", "shop": "supermarket", "addr:full": "Sch\u00fcrmatt 5, Sch\u00f6tz, 6247", "addr:street_address": "Sch\u00fcrmatt 5", "addr:city": "Sch\u00f6tz", "addr:postcode": "6247", "addr:country": "CH", "name": "PER-16", "phone": "041 980 68 31", "opening_hours": "Mo-Th 07:30-19:00; Fr 07:30-20:00; Sa 07:30-17:00", "brand": "ALDI", "brand:wikidata": "Q41171672", "nsi_id": "aldi-0d26d7"}, "geometry": {"type": "Point", "coordinates": [7.9832, 47.1823]}},
{"type": "Feature", "id": "0N26gG0N3k0nH0UvRnZmp-jVlnk=", "properties": {"ref": "PER-98", "@spider": "aldi_sud_ch", "shop": "supermarket", "addr:full": "Parkstrasse 2, Frenkendorf, 4402", "addr:street_address": "Parkstrasse 2", "addr:city": "Frenkendorf", "addr:postcode": "4402", "addr:country": "CH", "name": "PER-98", "phone": "061 901 96 65", "opening_hours": "Mo-Sa 07:30-20:00", "brand": "ALDI", "brand:wikidata": "Q41171672", "nsi_id": "aldi-0d26d7"}, "geometry": {"type": "Point", "coordinates": [7.72171, 47.50076]}},
{"type": "Feature", "id": "STCkQf5oRgHXlqMMRJIxUYRDHIo=", "properties": {"ref": "PER-65", "@spider": "aldi_sud_ch", "shop": "supermarket", "addr:full": "Via Della Posta 23, Bioggio, 6934", "addr:street_address": "Via Della Posta 23", "addr:city": "Bioggio", "addr:postcode": "6934", "addr:country": "CH", "name": "PER-65", "phone": "091 785 14 02", "opening_hours": "Mo-We 07:30-19:00; Th 07:30-21:00; Fr 07:30-19:00; Sa 07:30-18:30", "brand": "ALDI", "brand:wikidata": "Q41171672", "nsi_id": "aldi-0d26d7"}, "geometry": {"type": "Point", "coordinates": [8.91261, 46.01676]}},
{"type": "Feature", "id": "xMmL1bFhkLsZT6Wl1bisLjnxL2Q=", "properties": {"ref": "DOM-12", "@spider": "aldi_sud_ch", "shop": "supermarket", "addr:full": "Rte de l'Intyamon 111, La Tour-de-Tr\u00eame, 1635", "addr:street_address": "Rte de l'Intyamon 111", "addr:city": "La Tour-de-Tr\u00eame", "addr:postcode": "1635", "addr:country": "CH", "name": "DOM-12", "phone": "026 913 84 04", "opening_hours": "Mo-Th 08:00-19:00; Fr 08:00-21:00; Sa 08:00-16:00", "brand": "ALDI", "brand:wikidata": "Q41171672", "nsi_id": "aldi-0d26d7"}, "geometry": {"type": "Point", "coordinates": [7.0744346, 46.6017835]}},
{"type": "Feature", "id": "KMpxvJMo_cNHCa_PHpg_uV7PS2Y=", "properties": {"ref": "PER-26", "@spider": "aldi_sud_ch", "shop": "supermarket", "addr:full": "Mattenfeldstrasse 1, Reinach, 5734", "addr:street_address": "Mattenfeldstrasse 1", "addr:city": "Reinach", "addr:postcode": "5734", "addr:country": "CH", "name": "PER-26", "phone": "062 772 45 78", "opening_hours": "Mo-Sa 07:30-20:00", "brand": "ALDI", "brand:wikidata": "Q41171672", "nsi_id": "aldi-0d26d7"}, "geometry": {"type": "Point", "coordinates": [8.1757, 47.2626]}},
{"type": "Feature", "id": "CR-EeMNpraaTMcH0r566WbMaYW8=", "properties": {"ref": "PER-60", "@spider": "aldi_sud_ch", "shop": "supermarket", "addr:full": "Via Ceresio 40, Lugano-Pregassona, 6963", "addr:street_address": "Via Ceresio 40", "addr:city": "Lugano-Pregassona", "addr:postcode": "6963", "addr:country": "CH", "name": "PER-60", "phone": "091 935 10 25", "opening_hours": "Mo-We 07:30-19:00; Th 07:30-21:00; Fr 07:30-19:00; Sa 07:30-18:30", "brand": "ALDI", "brand:wikidata": "Q41171672", "nsi_id": "aldi-0d26d7"}, "geometry": {"type": "Point", "coordinates": [8.966388, 46.021393]}},
{"type": "Feature", "id": "kdyGExc6fOFURnld_Pqrh04XeQI=", "properties": {"ref": "PER-7", "@spider": "aldi_sud_ch", "shop": "supermarket", "addr:full": "Via Monte Ceneri 24, Giubiasco, 6512", "addr:street_address": "Via Monte Ceneri 24", "addr:city": "Giubiasco", "addr:postcode": "6512", "addr:country": "CH", "name": "PER-7", "phone": "091 857 81 31", "opening_hours": "Mo-We 07:30-19:00; Th 07:30-21:00; Fr 07:30-19:00; Sa 07:30-18:30", "brand": "ALDI", "brand:wikidata": "Q41171672", "nsi_id": "aldi-0d26d7"}, "geometry": {"type": "Point", "coordinates": [9.0003, 46.1676]}},
{"type": "Feature", "id": "e4Wyl0mVb-hJ20kMaaTcGuM2sPo=", "properties": {"ref": "DOM-57", "@spider": "aldi_sud_ch", "shop": "supermarket", "addr:full": "Lindenallee 106, Interlaken, 3800", "addr:street_address": "Lindenallee 106", "addr:city": "Interlaken", "addr:postcode": "3800", "addr:country": "CH", "name": "DOM-57", "phone": "033 823 69 80", "opening_hours": "Mo-Fr 08:00-20:00; Sa 08:00-17:00", "brand": "ALDI", "brand:wikidata": "Q41171672", "nsi_id": "aldi-0d26d7"}, "geometry": {"type": "Point", "coordinates": [7.87808, 46.68873]}},
{"type": "Feature", "id": "3coXE412vCWnovxKBUwNiIGKzmM=", "properties": {"ref": "SWB-90", "@spider": "aldi_sud_ch", "shop": "supermarket", "addr:full": "Stadelhoferstrasse 10, Z\u00fcrich, 8001", "addr:street_address": "Stadelhoferstrasse 10", "addr:city": "Z\u00fcrich", "addr:postcode": "8001", "addr:country": "CH", "name": "SWB-90", "phone": "044 310 37 02", "opening_hours": "Mo-Sa 06:00-22:00; Su 07:00-22:00", "brand": "ALDI", "brand:wikidata": "Q41171672", "nsi_id": "aldi-0d26d7"}, "geometry": {"type": "Point", "coordinates": [8.548001, 47.366789]}},
{"type": "Feature", "id": "yHywMHM-W2KrC76NFQ4NreC00g4=", "properties": {"ref": "SWB-35", "@spider": "aldi_sud_ch", "shop": "supermarket", "addr:full": "Oberrieterstrasse 85, Altst\u00e4tten, 9450", "addr:street_address": "Oberrieterstrasse 85", "addr:city": "Altst\u00e4tten", "addr:postcode": "9450", "addr:country": "CH", "name": "SWB-35", "phone": "071 755 83 68", "opening_hours": "Mo-Th 07:30-19:00; Fr 07:30-20:00; Sa 07:30-17:00", "brand": "ALDI", "brand:wikidata": "Q41171672", "nsi_id": "aldi-0d26d7"}, "geometry": {"type": "Point", "coordinates": [9.55562, 47.36391]}},
{"type": "Feature", "id": "WGzupdFfF0Kn21XBrDEAx7kH1zU=", "properties": {"ref": "PER-8", "@spider": "aldi_sud_ch", "shop": "supermarket", "addr:full": "Via Bellinzona 46, Biasca, 6710", "addr:street_address": "Via Bellinzona 46", "addr:city": "Biasca", "addr:postcode": "6710", "addr:country": "CH", "name": "PER-8", "phone": "091 880 01 17", "opening_hours": "Mo-We 07:30-19:00; Th 07:30-21:00; Fr 07:30-19:00; Sa 07:30-18:30", "brand": "ALDI", "brand:wikidata": "Q41171672", "nsi_id": "aldi-0d26d7"}, "geometry": {"type": "Point", "coordinates": [8.9743, 46.3497]}},
{"type": "Feature", "id": "9YxK3bUmiXF5woNtmv-kW-G9Za4=", "properties": {"ref": "PER-11", "@spider": "aldi_sud_ch", "shop": "supermarket", "addr:full": "Industriestrasse 5, Affoltern a. A., 8910", "addr:street_address": "Industriestrasse 5", "addr:city": "Affoltern a. A.", "addr:postcode": "8910", "addr:country": "CH", "name": "PER-11", "phone": "044 760 12 26", "opening_hours": "Mo-Sa 08:00-20:00", "brand": "ALDI", "brand:wikidata": "Q41171672", "nsi_id": "aldi-0d26d7"}, "geometry": {"type": "Point", "coordinates": [8.4463, 47.2727]}},
{"type": "Feature", "id": "owiVBbybczRyQQVpHqXdLjc7eNY=", "properties": {"ref": "SWB-47", "@spider": "aldi_sud_ch", "shop": "supermarket", "addr:full": "T\u00f6sstalstrasse 11, Turbenthal, 8488", "addr:street_address": "T\u00f6sstalstrasse 11", "addr:city": "Turbenthal", "addr:postcode": "8488", "addr:country": "CH", "name": "SWB-47", "phone": "052 394 25 36", "opening_hours": "Mo-Sa 07:30-20:00", "brand": "ALDI", "brand:wikidata": "Q41171672", "nsi_id": "aldi-0d26d7"}, "geometry": {"type": "Point", "coordinates": [8.834, 47.44135]}},
{"type": "Feature", "id": "otPdACbfCV1NORsJGMK4AKsJt_4=", "properties": {"ref": "SWB-72", "@spider": "aldi_sud_ch", "shop": "supermarket", "addr:full": "Schlosstalstrasse 96, Winterthur, 8408", "addr:street_address": "Schlosstalstrasse 96", "addr:city": "Winterthur", "addr:postcode": "8408", "addr:country": "CH", "name": "SWB-72", "phone": "052 204 08 75", "opening_hours": "Mo-Sa 07:30-20:00", "brand": "ALDI", "brand:wikidata": "Q41171672", "nsi_id": "aldi-0d26d7"}, "geometry": {"type": "Point", "coordinates": [8.69709, 47.49871]}},
{"type": "Feature", "id": "gP8RNQet5w2n9z7TJObRhEM6WWA=", "properties": {"ref": "SWB-74", "@spider": "aldi_sud_ch", "shop": "supermarket", "addr:full": "Sihlstrasse 3, Z\u00fcrich, 8001", "addr:street_address": "Sihlstrasse 3", "addr:city": "Z\u00fcrich", "addr:postcode": "8001", "addr:country": "CH", "name": "SWB-74", "phone": "044 309 81 47", "opening_hours": "Mo-Sa 08:00-21:00", "brand": "ALDI", "brand:wikidata": "Q41171672", "nsi_id": "aldi-0d26d7"}, "geometry": {"type": "Point", "coordinates": [8.537653, 47.373727]}},
{"type": "Feature", "id": "YVPw1EZL__ptxPWxBufLF8eRqlI=", "properties": {"ref": "DOM-14", "@spider": "aldi_sud_ch", "shop": "supermarket", "addr:full": "Eigerstrasse 82, Bern, 3007", "addr:street_address": "Eigerstrasse 82", "addr:city": "Bern", "addr:postcode": "3007", "addr:country": "CH", "name": "DOM-14", "phone": "031 372 96 27", "opening_hours": "Mo-Fr 08:00-20:00; Sa 08:00-17:00", "brand": "ALDI", "brand:wikidata": "Q41171672", "nsi_id": "aldi-0d26d7"}, "geometry": {"type": "Point", "coordinates": [7.44069, 46.93972]}},
{"type": "Feature", "id": "VxCfdg8rcFLAil96Afxp8Q--8ww=", "properties": {"ref": "DOM-38", "@spider": "aldi_sud_ch", "shop": "supermarket", "addr:full": "Bellacherstrasse 4, Langendorf, 4513", "addr:street_address": "Bellacherstrasse 4", "addr:city": "Langendorf", "addr:postcode": "4513", "addr:country": "CH", "name": "DOM-38", "phone": "032 618 44 29", "opening_hours": "Mo-Th 08:00-18:30; Fr 08:00-20:00; Sa 08:00-18:00", "brand": "ALDI", "brand:wikidata": "Q41171672", "nsi_id": "aldi-0d26d7"}, "geometry": {"type": "Point", "coordinates": [7.51173, 47.21615]}},
{"type": "Feature", "id": "dOsKlAyhjUliIz-yl2j86RzpHSs=", "properties": {"ref": "DOM-37", "@spider": "aldi_sud_ch", "shop": "supermarket", "addr:full": "Viehweidstrasse 3, Belp, 3123", "addr:street_address": "Viehweidstrasse 3", "addr:city": "Belp", "addr:postcode": "3123", "addr:country": "CH", "name": "DOM-37", "phone": "031 812 21 19", "opening_hours": "Mo-Fr 08:00-20:00; Sa 08:00-17:00", "brand": "ALDI", "brand:wikidata": "Q41171672", "nsi_id": "aldi-0d26d7"}, "geometry": {"type": "Point", "coordinates": [7.50925, 46.89152]}},
{"type": "Feature", "id": "jMjNTf-mjLhYr4OQJYOlu6C_Tv0=", "properties": {"ref": "DOM-21", "@spider": "aldi_sud_ch", "shop": "supermarket", "addr:full": "L\u00e4nggasse 47, Courgevaux, 1796", "addr:street_address": "L\u00e4nggasse 47", "addr:city": "Courgevaux", "addr:postcode": "1796", "addr:country": "CH", "name": "DOM-21", "phone": "026 670 12 95", "opening_hours": "Mo-Th 07:30-19:00; Fr 07:30-21:00; Sa 07:30-16:00", "brand": "ALDI", "brand:wikidata": "Q41171672", "nsi_id": "aldi-0d26d7"}, "geometry": {"type": "Point", "coordinates": [7.10888, 46.91753]}},
{"type": "Feature", "id": "2vMWrc_chxTS5OSJyVpSzo60Qrw=", "properties": {"ref": "PER-44", "@spider": "aldi_sud_ch", "shop": "supermarket", "addr:full": "M\u00fchlefeldstrasse 15, Oensingen, 4702", "addr:street_address": "M\u00fchlefeldstrasse 15", "addr:city": "Oensingen", "addr:postcode": "4702", "addr:country": "CH", "name": "PER-44", "phone": "062 396 48 39", "opening_hours": "Mo-We 08:00-18:30; Th 08:00-20:00; Fr 08:00-18:30; Sa 07:30-18:00", "brand": "ALDI", "brand:wikidata": "Q41171672", "nsi_id": "aldi-0d26d7"}, "geometry": {"type": "Point", "coordinates": [7.718, 47.2888]}},
{"type": "Feature", "id": "eeyZdj-sN4WvOavR3GQI5Y05oi0=", "properties": {"ref": "PER-12", "@spider": "aldi_sud_ch", "shop": "supermarket", "addr:full": "Im Grund 18, Gretzenbach, 5014", "addr:street_address": "Im Grund 18", "addr:city": "Gretzenbach", "addr:postcode": "5014", "addr:country": "CH", "name": "PER-12", "phone": "062 849 66 41", "opening_hours": "Mo-We 07:30-18:30; Th 07:30-20:00; Fr 07:30-18:30; Sa 07:30-18:00", "brand": "ALDI", "brand:wikidata": "Q41171672", "nsi_id": "aldi-0d26d7"}, "geometry": {"type": "Point", "coordinates": [8.002, 47.3714]}},
{"type": "Feature", "id": "9vIK7D2EHsw1vL2-E8CMdAUVyKA=", "properties": {"ref": "DOM-24", "@spider": "aldi_sud_ch", "shop": "supermarket", "addr:full": "Bahnhofplatz 1, M\u00fcnsingen, 3110", "addr:street_address": "Bahnhofplatz 1", "addr:city": "M\u00fcnsingen", "addr:postcode": "3110", "addr:country": "CH", "name": "DOM-24", "phone": "031 722 11 04", "opening_hours": "Mo-Fr 08:00-20:00; Sa 08:00-17:00", "brand": "ALDI", "brand:wikidata": "Q41171672", "nsi_id": "aldi-0d26d7"}, "geometry": {"type": "Point", "coordinates": [7.5599822, 46.8741461]}},
{"type": "Feature", "id": "w-MzIujkGIuE29zgD-RBeUGshAY=", "properties": {"ref": "DOM-51", "@spider": "aldi_sud_ch", "shop": "supermarket", "addr:full": "Rte du Reculan 7, Ecublens, 1024", "addr:street_address": "Rte du Reculan 7", "addr:city": "Ecublens", "addr:postcode": "1024", "addr:country": "CH", "name": "DOM-51", "phone": "021 701 93 29", "opening_hours": "Mo-Fr 08:00-19:00; Sa 08:00-18:00", "brand": "ALDI", "brand:wikidata": "Q41171672", "nsi_id": "aldi-0d26d7"}, "geometry": {"type": "Point", "coordinates": [6.55334, 46.54112]}},
{"type": "Feature", "id": "5jxQuILaVqAfrjow9tLwX9C8cJU=", "properties": {"ref": "DOM-8", "@spider": "aldi_sud_ch", "shop": "supermarket", "addr:full": "Glismattenstrasse 20, Brig-Glis, 3902", "addr:street_address": "Glismattenstrasse 20", "addr:city": "Brig-Glis", "addr:postcode": "3902", "addr:country": "CH", "name": "DOM-8", "phone": "027 924 60 83", "opening_hours": "Mo-Th 07:30-18:30; Fr 07:30-20:00; Sa 07:30-17:00", "brand": "ALDI", "brand:wikidata": "Q41171672", "nsi_id": "aldi-0d26d7"}, "geometry": {"type": "Point", "coordinates": [7.9875465, 46.3158171]}},
{"type": "Feature", "id": "56apTRU0G2Kpkq2QPlPe6JcpXkY=", "properties": {"ref": "PER-19", "@spider": "aldi_sud_ch", "shop": "supermarket", "addr:full": "Firststrasse 19, Feusisberg, 8835", "addr:street_address": "Firststrasse 19", "addr:city": "Feusisberg", "addr:postcode": "8835", "addr:country": "CH", "name": "PER-19", "phone": "044 687 15 18", "opening_hours": "Mo-Sa 07:30-20:00", "brand": "ALDI", "brand:wikidata": "Q41171672", "nsi_id": "aldi-0d26d7"}, "geometry": {"type": "Point", "coordinates": [8.7397, 47.1899]}},
{"type": "Feature", "id": "0nMoFPdzzn1-Qgjby11FucNaxo0=", "properties": {"ref": "SWB-81", "@spider": "aldi_sud_ch", "shop": "supermarket", "addr:full": "F\u00fcrstenlandstrasse 149, St. Gallen, 9014", "addr:street_address": "F\u00fcrstenlandstrasse 149", "addr:city": "St. Gallen", "addr:postcode": "9014", "addr:country": "CH", "name": "SWB-81", "phone": "071 279 31 58", "opening_hours": "Mo-We 07:30-19:00; Th 07:30-20:00; Fr 07:30-19:00; Sa 07:30-17:00", "brand": "ALDI", "brand:wikidata": "Q41171672", "nsi_id": "aldi-0d26d7"}, "geometry": {"type": "Point", "coordinates": [9.33796, 47.41084]}},
{"type": "Feature", "id": "da8PbNyNQ5m3kUl1QZ1pSTNEZo4=", "properties": {"ref": "PER-69", "@spider": "aldi_sud_ch", "shop": "supermarket", "addr:full": "Via Val Gersa 4, Massagno, 6900", "addr:street_address": "Via Val Gersa 4", "addr:city": "Massagno", "addr:postcode": "6900", "addr:country": "CH", "name": "PER-69", "phone": "091 785 14 01", "opening_hours": "Mo-We 07:30-19:00; Th 07:30-21:00; Fr 07:30-19:00; Sa 07:30-18:30", "brand": "ALDI", "brand:wikidata": "Q41171672", "nsi_id": "aldi-0d26d7"}, "geometry": {"type": "Point", "coordinates": [8.94089, 46.01515]}},
{"type": "Feature", "id": "-g0KuPh-kWVKWm-N3hdD0RzSbQ0=", "properties": {"ref": "SWB-37", "@spider": "aldi_sud_ch", "shop": "supermarket", "addr:full": "Seestrasse 61, M\u00e4nnedorf, 8708", "addr:street_address": "Seestrasse 61", "addr:city": "M\u00e4nnedorf", "addr:postcode": "8708", "addr:country": "CH", "name": "SWB-37", "phone": "044 790 18 59", "opening_hours": "Mo-Sa 07:30-20:00", "brand": "ALDI", "brand:wikidata": "Q41171672", "nsi_id": "aldi-0d26d7"}, "geometry": {"type": "Point", "coordinates": [8.68298, 47.25713]}},
{"type": "Feature", "id": "pvcIVWukYK-BD4i1lm2BcMdfiMo=", "properties": {"ref": "DOM-13", "@spider": "aldi_sud_ch", "shop": "supermarket", "addr:full": "Thunstrasse 29c, Zweisimmen, 3770", "addr:street_address": "Thunstrasse 29c", "addr:city": "Zweisimmen", "addr:postcode": "3770", "addr:country": "CH", "name": "DOM-13", "phone": "033 722 25 72", "opening_hours": "Mo-Th 08:00-19:00; Fr 08:00-20:00; Sa 08:00-17:00", "brand": "ALDI", "brand:wikidata": "Q41171672", "nsi_id": "aldi-0d26d7"}, "geometry": {"type": "Point", "coordinates": [7.37513, 46.56196]}},
{"type": "Feature", "id": "uwt668YhQlDsTUaWd54L7lFy8Kg=", "properties": {"ref": "DOM-47", "@spider": "aldi_sud_ch", "shop": "supermarket", "addr:full": "Route de Chancy 71, Petit-Lancy, 1213", "addr:street_address": "Route de Chancy 71", "addr:city": "Petit-Lancy", "addr:postcode": "1213", "addr:country": "CH", "name": "DOM-47", "phone": "022 870 12 87", "opening_hours": "Mo-We 08:00-19:00; Th-Fr 08:00-19:30; Sa 08:00-18:00", "brand": "ALDI", "brand:wikidata": "Q41171672", "nsi_id": "aldi-0d26d7"}, "geometry": {"type": "Point", "coordinates": [6.11135, 46.1871]}},
{"type": "Feature", "id": "be8wF2ajIdIPaoatAsIAUS4RJiA=", "properties": {"ref": "SWB-27", "@spider": "aldi_sud_ch", "shop": "supermarket", "addr:full": "Wilerstrasse 98, Sirnach, 8370", "addr:street_address": "Wilerstrasse 98", "addr:city": "Sirnach", "addr:postcode": "8370", "addr:country": "CH", "name": "SWB-27", "phone": "071 960 19 23", "opening_hours": "Mo-Sa 07:30-20:00", "brand": "ALDI", "brand:wikidata": "Q41171672", "nsi_id": "aldi-0d26d7"}, "geometry": {"type": "Point", "coordinates": [9.0207785, 47.4626279]}},
{"type": "Feature", "id": "1KovaE7njAciOss6SSj7nvvoPR8=", "properties": {"ref": "DOM-63", "@spider": "aldi_sud_ch", "shop": "supermarket", "addr:full": "Zentralstrasse 63, Biel, 2502", "addr:street_address": "Zentralstrasse 63", "addr:city": "Biel", "addr:postcode": "2502", "addr:country": "CH", "name": "DOM-63", "phone": "080 090 01 80", "opening_hours": "Mo-Fr 08:00-20:00; Sa 08:00-17:00", "brand": "ALDI", "brand:wikidata": "Q41171672", "nsi_id": "aldi-0d26d7"}, "geometry": {"type": "Point", "coordinates": [7.2480379, 47.1358245]}},
{"type": "Feature", "id": "_c9r0gscuEUZrM7woltq9hiuIVQ=", "properties": {"ref": "PER-37", "@spider": "aldi_sud_ch", "shop": "supermarket", "addr:full": "Bertiswilstrasse 42, Rothenburg, 6023", "addr:street_address": "Bertiswilstrasse 42", "addr:city": "Rothenburg", "addr:postcode": "6023", "addr:country": "CH", "name": "PER-37", "phone": "041 281 15 87", "opening_hours": "Mo-Th 07:30-19:00; Fr 07:30-21:00; Sa 07:30-17:00", "brand": "ALDI", "brand:wikidata": "Q41171672", "nsi_id": "aldi-0d26d7"}, "geometry": {"type": "Point", "coordinates": [8.268, 47.1007]}},
{"type": "Feature", "id": "e-i9KlBRQJXfYYOxDlhoZYHn9no=", "properties": {"ref": "SWB-21", "@spider": "aldi_sud_ch", "shop": "supermarket", "addr:full": "Industriestrasse 9, Winterthur, 8404", "addr:street_address": "Industriestrasse 9", "addr:city": "Winterthur", "addr:postcode": "8404", "addr:country": "CH", "name": "SWB-21", "phone": "052 238 29 65", "opening_hours": "Mo-Sa 07:30-20:00", "brand": "ALDI", "brand:wikidata": "Q41171672", "nsi_id": "aldi-0d26d7"}, "geometry": {"type": "Point", "coordinates": [8.75251, 47.49655]}},
{"type": "Feature", "id": "g-Yh1rEE1Uf9PxwyhR-L391tKEw=", "properties": {"ref": "PER-63", "@spider": "aldi_sud_ch", "shop": "supermarket", "addr:full": "Industriestrasse 1, Aarau, 5000", "addr:street_address": "Industriestrasse 1", "addr:city": "Aarau", "addr:postcode": "5000", "addr:country": "CH", "name": "PER-63", "phone": "062 823 93 38", "opening_hours": "Mo-We 09:00-19:00; Th 09:00-20:00; Fr 09:00-19:00; Sa 09:00-18:00", "brand": "ALDI", "brand:wikidata": "Q41171672", "nsi_id": "aldi-0d26d7"}, "geometry": {"type": "Point", "coordinates": [8.0582, 47.3926]}},
{"type": "Feature", "id": "6TNTw2XTdDgv6H11UMAGBI3sXk0=", "properties": {"ref": "DOM-78", "@spider": "aldi_sud_ch", "shop": "supermarket", "addr:full": "Avenue de la Gare 26, Monthey, 1870", "addr:street_address": "Avenue de la Gare 26", "addr:city": "Monthey", "addr:postcode": "1870", "addr:country": "CH", "name": "DOM-78", "phone": "024 472 61 83", "opening_hours": "Mo-Th 08:00-18:30; Fr 08:00-20:00; Sa 08:00-17:00", "brand": "ALDI", "brand:wikidata": "Q41171672", "nsi_id": "aldi-0d26d7"}, "geometry": {"type": "Point", "coordinates": [6.950891, 46.253728]}},
{"type": "Feature", "id": "l1dKlWcNV5CgbkALBugiRBX0-FE=", "properties": {"ref": "SWB-65", "@spider": "aldi_sud_ch", "shop": "supermarket", "addr:full": "Oberdorf 54, N\u00e4fels, 8752", "addr:street_address": "Oberdorf 54", "addr:city": "N\u00e4fels", "addr:postcode": "8752", "addr:country": "CH", "name": "SWB-65", "phone": "055 622 26 83", "opening_hours": "Mo-Sa 07:30-20:00", "brand": "ALDI", "brand:wikidata": "Q41171672", "nsi_id": "aldi-0d26d7"}, "geometry": {"type": "Point", "coordinates": [9.058341, 47.092285]}},
{"type": "Feature", "id": "BYal9_DfSLN041gGjnCwyEaana8=", "properties": {"ref": "DOM-35", "@spider": "aldi_sud_ch", "shop": "supermarket", "addr:full": "Rue du Stand 1, Del\u00e9mont, 2800", "addr:street_address": "Rue du Stand 1", "addr:city": "Del\u00e9mont", "addr:postcode": "2800", "addr:country": "CH", "name": "DOM-35", "phone": "032 423 53 68", "opening_hours": "Mo-We 07:30-18:30; Th 07:30-20:00; Fr 07:30-18:30; Sa 07:30-17:00", "brand": "ALDI", "brand:wikidata": "Q41171672", "nsi_id": "aldi-0d26d7"}, "geometry": {"type": "Point", "coordinates": [7.34237, 47.36246]}},
{"type": "Feature", "id": "gfk0nTPb_9zqBm3qV4-B0NVUBd4=", "properties": {"ref": "DOM-33", "@spider": "aldi_sud_ch", "shop": "supermarket", "addr:full": "Faubourg Saint-Germain 2, Porrentruy, 2900", "addr:street_address": "Faubourg Saint-Germain 2", "addr:city": "Porrentruy", "addr:postcode": "2900", "addr:country": "CH", "name": "DOM-33", "phone": "032 466 13 55", "opening_hours": "Mo-We 08:00-18:30; Th 08:00-20:00; Fr 08:00-18:30; Sa 08:00-17:00", "brand": "ALDI", "brand:wikidata": "Q41171672", "nsi_id": "aldi-0d26d7"}, "geometry": {"type": "Point", "coordinates": [7.07791225, 47.41613586]}},
{"type": "Feature", "id": "WRpgTeHAn7c33TC3SX9X5At7vUQ=", "properties": {"ref": "DOM-61", "@spider": "aldi_sud_ch", "shop": "supermarket", "addr:full": "Simmentalstrasse 50, Spiez, 3700", "addr:street_address": "Simmentalstrasse 50", "addr:city": "Spiez", "addr:postcode": "3700", "addr:country": "CH", "name": "DOM-61", "phone": "033 655 09 30", "opening_hours": "Mo-Fr 08:00-20:00; Sa 08:00-17:00", "brand": "ALDI", "brand:wikidata": "Q41171672", "nsi_id": "aldi-0d26d7"}, "geometry": {"type": "Point", "coordinates": [7.66798, 46.68518]}},
{"type": "Feature", "id": "9LmeCTgeYQIY8_75JJxYyDZ4tZQ=", "properties": {"ref": "DOM-70", "@spider": "aldi_sud_ch", "shop": "supermarket", "addr:full": "Rue du Verger 16, Le Locle, 2400", "addr:street_address": "Rue du Verger 16", "addr:city": "Le Locle", "addr:postcode": "2400", "addr:country": "CH", "name": "DOM-70", "phone": "032 931 50 24", "opening_hours": "Mo-We 08:00-19:00; Th 08:00-20:00; Fr 08:00-19:00; Sa 08:00-18:00", "brand": "ALDI", "brand:wikidata": "Q41171672", "nsi_id": "aldi-0d26d7"}, "geometry": {"type": "Point", "coordinates": [6.765973, 47.067083]}},
{"type": "Feature", "id": "rTqppDdErh9noQHYI42yA43kNIw=", "properties": {"ref": "PER-34", "@spider": "aldi_sud_ch", "shop": "supermarket", "addr:full": "Hauptstrasse 132, Frick, 5070", "addr:street_address": "Hauptstrasse 132", "addr:city": "Frick", "addr:postcode": "5070", "addr:country": "CH", "name": "PER-34", "phone": "062 875 81 17", "opening_hours": "Mo-Sa 08:00-20:00", "brand": "ALDI", "brand:wikidata": "Q41171672", "nsi_id": "aldi-0d26d7"}, "geometry": {"type": "Point", "coordinates": [8.0313, 47.5019]}},
{"type": "Feature", "id": "s03UEjA8sOrQpm3y0p_79rK3H8w=", "properties": {"ref": "SWB-2", "@spider": "aldi_sud_ch", "shop": "supermarket", "addr:full": "Weststrasse 22, Weinfelden, 8570", "addr:street_address": "Weststrasse 22", "addr:city": "Weinfelden", "addr:postcode": "8570", "addr:country": "CH", "name": "SWB-2", "phone": "071 620 29 16", "opening_hours": "Mo-Sa 07:30-20:00", "brand": "ALDI", "brand:wikidata": "Q41171672", "nsi_id": "aldi-0d26d7"}, "geometry": {"type": "Point", "coordinates": [9.095735, 47.568471]}},
{"type": "Feature", "id": "bpQQ4uxKWm8_ZWFdzceTSmO57V0=", "properties": {"ref": "DOM-53", "@spider": "aldi_sud_ch", "shop": "supermarket", "addr:full": "En Chamard 44, Montagny-pr\u00e8s-Yverdon, 1442", "addr:street_address": "En Chamard 44", "addr:city": "Montagny-pr\u00e8s-Yverdon", "addr:postcode": "1442", "addr:country": "CH", "name": "DOM-53", "phone": "024 445 67 20", "opening_hours": "Mo-Fr 08:00-19:00; Sa 08:00-18:00", "brand": "ALDI", "brand:wikidata": "Q41171672", "nsi_id": "aldi-0d26d7"}, "geometry": {"type": "Point", "coordinates": [6.62165, 46.79019]}},
{"type": "Feature", "id": "z70Lt4Cp_ogKr9_KsTFzHKCA0hk=", "properties": {"ref": "DOM-84", "@spider": "aldi_sud_ch", "shop": "supermarket", "addr:full": "Stapfenstrasse 4, K\u00f6niz, 3098", "addr:street_address": "Stapfenstrasse 4", "addr:city": "K\u00f6niz", "addr:postcode": "3098", "addr:country": "CH", "name": "DOM-84", "phone": "031 372 96 36", "opening_hours": "Mo-Fr 08:00-20:00; Sa 08:00-17:00", "brand": "ALDI", "brand:wikidata": "Q41171672", "nsi_id": "aldi-0d26d7"}, "geometry": {"type": "Point", "coordinates": [7.414845, 46.9226841]}},
{"type": "Feature", "id": "2AGxqJinBQjhFyGy-bWRTRuYrFU=", "properties": {"ref": "PER-61", "@spider": "aldi_sud_ch", "shop": "supermarket", "addr:full": "Via San Martino 16, Mendrisio, 6850", "addr:street_address": "Via San Martino 16", "addr:city": "Mendrisio", "addr:postcode": "6850", "addr:country": "CH", "name": "PER-61", "opening_hours": "Mo-We 07:30-19:00; Th 07:30-21:00; Fr 07:30-19:00; Sa 07:30-18:30", "brand": "ALDI", "brand:wikidata": "Q41171672", "nsi_id": "aldi-0d26d7"}, "geometry": {"type": "Point", "coordinates": [8.98446, 45.87551]}},
{"type": "Feature", "id": "m-3ow4gg6zPeoJiwD8aRozq8Nyo=", "properties": {"ref": "PER-36", "@spider": "aldi_sud_ch", "shop": "supermarket", "addr:full": "Arlesheimerstrasse 11, Aesch, 4147", "addr:street_address": "Arlesheimerstrasse 11", "addr:city": "Aesch", "addr:postcode": "4147", "addr:country": "CH", "name": "PER-36", "phone": "061 751 87 50", "opening_hours": "Mo-Sa 07:30-20:00", "brand": "ALDI", "brand:wikidata": "Q41171672", "nsi_id": "aldi-0d26d7"}, "geometry": {"type": "Point", "coordinates": [7.59668, 47.4789]}},
{"type": "Feature", "id": "3cjNB2R5M-a9kIwj1oR6ShLuEoA=", "properties": {"ref": "PER-9", "@spider": "aldi_sud_ch", "shop": "supermarket", "addr:full": "Via San Bernardino 18, Castione, 6532", "addr:street_address": "Via San Bernardino 18", "addr:city": "Castione", "addr:postcode": "6532", "addr:country": "CH", "name": "PER-9", "phone": "091 829 43 27", "opening_hours": "Mo-We 07:30-19:00; Th 07:30-21:00; Fr 07:30-19:00; Sa 07:30-18:30", "brand": "ALDI", "brand:wikidata": "Q41171672", "nsi_id": "aldi-0d26d7"}, "geometry": {"type": "Point", "coordinates": [9.0502, 46.2237]}},
{"type": "Feature", "id": "7NxpFvdOpyt8RQGcd-ZoZCqBs9M=", "properties": {"ref": "DOM-30", "@spider": "aldi_sud_ch", "shop": "supermarket", "addr:full": "Route d'Oron 39, Lausanne, 1000", "addr:street_address": "Route d'Oron 39", "addr:city": "Lausanne", "addr:postcode": "1000", "addr:country": "CH", "name": "DOM-30", "phone": "021 657 18 45", "opening_hours": "Mo-Fr 08:00-19:00; Sa 08:00-18:00", "brand": "ALDI", "brand:wikidata": "Q41171672", "nsi_id": "aldi-0d26d7"}, "geometry": {"type": "Point", "coordinates": [6.65647, 46.53563]}},
{"type": "Feature", "id": "Wf9JidWwKkFIC57ePnhvbJr1uSw=", "properties": {"ref": "PER-58", "@spider": "aldi_sud_ch", "shop": "supermarket", "addr:full": "Via Prati dei Vizi 10, Losone, 6616", "addr:street_address": "Via Prati dei Vizi 10", "addr:city": "Losone", "addr:postcode": "6616", "addr:country": "CH", "name": "PER-58", "phone": "091 785 14 04", "opening_hours": "Mo-We 08:00-19:00; Th 08:00-21:00; Fr 08:00-19:00; Sa 08:00-18:30", "brand": "ALDI", "brand:wikidata": "Q41171672", "nsi_id": "aldi-0d26d7"}, "geometry": {"type": "Point", "coordinates": [8.770031, 46.163844]}},
{"type": "Feature", "id": "mt7pFoQMrHHI84K3jGTN9tO9_C4=", "properties": {"ref": "SWB-29", "@spider": "aldi_sud_ch", "shop": "supermarket", "addr:full": "Churerstrasse 12, Buchs (SG), 9470", "addr:street_address": "Churerstrasse 12", "addr:city": "Buchs (SG)", "addr:postcode": "9470", "addr:country": "CH", "name": "SWB-29", "phone": "081 755 38 56", "opening_hours": "Mo-Tu 07:30-19:00; We 07:30-20:00; Th 07:30-19:00; Fr 07:30-20:00; Sa 07:30-17:00", "brand": "ALDI", "brand:wikidata": "Q41171672", "nsi_id": "aldi-0d26d7"}, "geometry": {"type": "Point", "coordinates": [9.47355, 47.16376]}},
{"type": "Feature", "id": "vQEBDtKBhK-VstCll5rGx8Oyiac=", "properties": {"ref": "PER-96", "@spider": "aldi_sud_ch", "shop": "supermarket", "addr:full": "Liebmattstrasse 7, Duggingen, 4202", "addr:street_address": "Liebmattstrasse 7", "addr:city": "Duggingen", "addr:postcode": "4202", "addr:country": "CH", "name": "PER-96", "phone": "061 753 14 86", "opening_hours": "Mo-Sa 07:30-20:00", "brand": "ALDI", "brand:wikidata": "Q41171672", "nsi_id": "aldi-0d26d7"}, "geometry": {"type": "Point", "coordinates": [7.60465, 47.45621]}},
{"type": "Feature", "id": "t3mZVHKF6v9KLhsk-qxkIhRikKk=", "properties": {"ref": "DOM-44", "@spider": "aldi_sud_ch", "shop": "supermarket", "addr:full": "Ch. de Riantbosson 19, Meyrin, 1217", "addr:street_address": "Ch. de Riantbosson 19", "addr:city": "Meyrin", "addr:postcode": "1217", "addr:country": "CH", "name": "DOM-44", "phone": "022 719 08 70", "opening_hours": "Mo-We 08:00-19:00; Th-Fr 08:00-19:30; Sa 08:00-18:00", "brand": "ALDI", "brand:wikidata": "Q41171672", "nsi_id": "aldi-0d26d7"}, "geometry": {"type": "Point", "coordinates": [6.085838, 46.22731]}},
{"type": "Feature", "id": "LJ4svWbjcUpR79FZEiohBYIzk6w=", "properties": {"ref": "SWB-66", "@spider": "aldi_sud_ch", "shop": "supermarket", "addr:full": "General-Wille-Strasse 144, Meilen, 8706", "addr:street_address": "General-Wille-Strasse 144", "addr:city": "Meilen", "addr:postcode": "8706", "addr:country": "CH", "name": "SWB-66", "phone": "044 419 01 78", "opening_hours": "Mo-Sa 07:30-20:00", "brand": "ALDI", "brand:wikidata": "Q41171672", "nsi_id": "aldi-0d26d7"}, "geometry": {"type": "Point", "coordinates": [8.6175122, 47.2773528]}},
{"type": "Feature", "id": "zhTgobRnjoRi7G6VCF-KUySjhkE=", "properties": {"ref": "PER-6", "@spider": "aldi_sud_ch", "shop": "supermarket", "addr:full": "Zugerstrasse 66, K\u00fcssnacht am Rigi, 6403", "addr:street_address": "Zugerstrasse 66", "addr:city": "K\u00fcssnacht am Rigi", "addr:postcode": "6403", "addr:country": "CH", "name": "PER-6", "phone": "041 850 92 11", "opening_hours": "Mo-We 07:30-20:00; Th-Fr 07:30-21:00; Sa 07:30-20:00", "brand": "ALDI", "brand:wikidata": "Q41171672", "nsi_id": "aldi-0d26d7"}, "geometry": {"type": "Point", "coordinates": [8.4502, 47.1073]}},
{"type": "Feature", "id": "nheAuz4PYVzbBQbryfDHLBSfYcU=", "properties": {"ref": "PER-56", "@spider": "aldi_sud_ch", "shop": "supermarket", "addr:full": "T\u00fcrkheimerstrasse 4-6, Basel, 4055", "addr:street_address": "T\u00fcrkheimerstrasse 4-6", "addr:city": "Basel", "addr:postcode": "4055", "addr:country": "CH", "name": "PER-56", "phone": "061 301 84 65", "opening_hours": "Mo-Fr 08:00-20:00; Sa 08:00-18:00", "brand": "ALDI", "brand:wikidata": "Q41171672", "nsi_id": "aldi-0d26d7"}, "geometry": {"type": "Point", "coordinates": [7.57461, 47.55751]}},
{"type": "Feature", "id": "_Q4kyQJnLVQVOgucBcxDcv2jMnE=", "properties": {"ref": "PER-10", "@spider": "aldi_sud_ch", "shop": "supermarket", "addr:full": "Webergasse 34, Basel, 4058", "addr:street_address": "Webergasse 34", "addr:city": "Basel", "addr:postcode": "4058", "addr:country": "CH", "name": "PER-10", "phone": "061 683 88 35", "opening_hours": "Mo-Fr 08:00-20:00; Sa 08:00-18:00", "brand": "ALDI", "brand:wikidata": "Q41171672", "nsi_id": "aldi-0d26d7"}, "geometry": {"type": "Point", "coordinates": [7.5926, 47.56208]}},
{"type": "Feature", "id": "EnnGSmKBG4a_ydJh_0AQ1vpY21Q=", "properties": {"ref": "SWB-13", "@spider": "aldi_sud_ch", "shop": "supermarket", "addr:full": "Cilanderstrasse 10, Herisau, 9100", "addr:street_address": "Cilanderstrasse 10", "addr:city": "Herisau", "addr:postcode": "9100", "addr:country": "CH", "name": "SWB-13", "phone": "071 352 76 18", "opening_hours": "Mo-Sa 07:30-20:00", "brand": "ALDI", "brand:wikidata": "Q41171672", "nsi_id": "aldi-0d26d7"}, "geometry": {"type": "Point", "coordinates": [9.274068, 47.387338]}},
{"type": "Feature", "id": "GSPPO8-kqEllbHBFidP7PEhbbZs=", "properties": {"ref": "DOM-54", "@spider": "aldi_sud_ch", "shop": "supermarket", "addr:full": "Route de Gland 36, Vich, 1267", "addr:street_address": "Route de Gland 36", "addr:city": "Vich", "addr:postcode": "1267", "addr:country": "CH", "name": "DOM-54", "phone": "022 995 02 90", "opening_hours": "Mo-Th 07:30-19:30; Fr 07:30-20:00; Sa 07:30-18:00", "brand": "ALDI", "brand:wikidata": "Q41171672", "nsi_id": "aldi-0d26d7"}, "geometry": {"type": "Point", "coordinates": [6.25053, 46.42879]}},
{"type": "Feature", "id": "jYfHZGp1vSZ9nwMFH6Qw2-AXUE0=", "properties": {"ref": "SWB-86", "@spider": "aldi_sud_ch", "shop": "supermarket", "addr:full": "Cho d'Punt 43, Samedan, 7503", "addr:street_address": "Cho d'Punt 43", "addr:city": "Samedan", "addr:postcode": "7503", "addr:country": "CH", "name": "SWB-86", "phone": "081 852 46 49", "opening_hours": "Mo-Sa 07:30-20:00", "brand": "ALDI", "brand:wikidata": "Q41171672", "nsi_id": "aldi-0d26d7"}, "geometry": {"type": "Point", "coordinates": [9.87473, 46.52887]}},
{"type": "Feature", "id": "frxrJ01bozZyeFvaAUeaQld84kQ=", "properties": {"ref": "SWB-46", "@spider": "aldi_sud_ch", "shop": "supermarket", "addr:full": "Kasernenstrasse 53, Chur, 7000", "addr:street_address": "Kasernenstrasse 53", "addr:city": "Chur", "addr:postcode": "7000", "addr:country": "CH", "name": "SWB-46", "phone": "081 252 90 34", "opening_hours": "Mo-Fr 07:30-20:00; Sa 07:30-18:00", "brand": "ALDI", "brand:wikidata": "Q41171672", "nsi_id": "aldi-0d26d7"}, "geometry": {"type": "Point", "coordinates": [9.51797, 46.84685]}},
{"type": "Feature", "id": "gx45tX_CkecT-5JTEYGDGUnDRkA=", "properties": {"ref": "SWB-55", "@spider": "aldi_sud_ch", "shop": "supermarket", "addr:full": "Sittertalstrasse 16, Bischofszell, 8589", "addr:street_address": "Sittertalstrasse 16", "addr:city": "Bischofszell", "addr:postcode": "8589", "addr:country": "CH", "name": "SWB-55", "phone": "071 420 95 68", "opening_hours": "Mo-Sa 07:30-20:00", "brand": "ALDI", "brand:wikidata": "Q41171672", "nsi_id": "aldi-0d26d7"}, "geometry": {"type": "Point", "coordinates": [9.24251, 47.49996]}},
{"type": "Feature", "id": "yEWBBUXl3R6cMUd9Eill9mPybmc=", "properties": {"ref": "DOM-83", "@spider": "aldi_sud_ch", "shop": "supermarket", "addr:full": "Rue St-Honor\u00e9 18, Neuch\u00e2tel, 2000", "addr:street_address": "Rue St-Honor\u00e9 18", "addr:city": "Neuch\u00e2tel", "addr:postcode": "2000", "addr:country": "CH", "name": "DOM-83", "phone": "032 323 91 06", "opening_hours": "Mo-We 08:00-19:00; Th 08:00-20:00; Fr 08:00-19:00; Sa 08:00-18:00", "brand": "ALDI", "brand:wikidata": "Q41171672", "nsi_id": "aldi-0d26d7"}, "geometry": {"type": "Point", "coordinates": [6.93040582, 46.99056905]}},
{"type": "Feature", "id": "iyMdZodry6UUqqwr2Ck9QwueHM0=", "properties": {"ref": "SWB-52", "@spider": "aldi_sud_ch", "shop": "supermarket", "addr:full": "Albisstrasse 81, Z\u00fcrich, 8038", "addr:street_address": "Albisstrasse 81", "addr:city": "Z\u00fcrich", "addr:postcode": "8038", "addr:country": "CH", "name": "SWB-52", "phone": "044 309 81 42", "opening_hours": "Mo-Sa 07:30-21:00", "brand": "ALDI", "brand:wikidata": "Q41171672", "nsi_id": "aldi-0d26d7"}, "geometry": {"type": "Point", "coordinates": [8.5306007, 47.3409666]}},
{"type": "Feature", "id": "Lw_YxugqPZ_VNQEWSW0aSeyY3sc=", "properties": {"ref": "DOM-18", "@spider": "aldi_sud_ch", "shop": "supermarket", "addr:full": "Blvd de lArc en Ciel 45, Bussigny, 1030", "addr:street_address": "Blvd de lArc en Ciel 45", "addr:city": "Bussigny", "addr:postcode": "1030", "addr:country": "CH", "name": "DOM-18", "phone": "021 702 43 85", "opening_hours": "Mo-Th 08:00-19:00; Fr 08:00-20:00; Sa 08:00-18:00", "brand": "ALDI", "brand:wikidata": "Q41171672", "nsi_id": "aldi-0d26d7"}, "geometry": {"type": "Point", "coordinates": [6.56363, 46.54649]}},
{"type": "Feature", "id": "VfBlluSQQdRScK-DL9dWKCbXEDc=", "properties": {"ref": "PER-30", "@spider": "aldi_sud_ch", "shop": "supermarket", "addr:full": "SchappeCenter/Hobacherweg 2, Kriens, 6010", "addr:street_address": "SchappeCenter/Hobacherweg 2", "addr:city": "Kriens", "addr:postcode": "6010", "addr:country": "CH", "name": "PER-30", "phone": "041 322 40 75", "opening_hours": "Mo-Th 08:00-19:00; Fr 08:00-20:00; Sa 07:30-17:00", "brand": "ALDI", "brand:wikidata": "Q41171672", "nsi_id": "aldi-0d26d7"}, "geometry": {"type": "Point", "coordinates": [8.2728, 47.0343]}},
{"type": "Feature", "id": "2oSm4uIC-j71aTCagNWmoiysZ4U=", "properties": {"ref": "DOM-60", "@spider": "aldi_sud_ch", "shop": "supermarket", "addr:full": "Route de Matran 5, Avry-sur-Matran, 1754", "addr:street_address": "Route de Matran 5", "addr:city": "Avry-sur-Matran", "addr:postcode": "1754", "addr:country": "CH", "name": "DOM-60", "phone": "026 470 26 67", "opening_hours": "Mo-Th 08:00-19:00; Fr 08:00-21:00; Sa 08:00-16:00", "brand": "ALDI", "brand:wikidata": "Q41171672", "nsi_id": "aldi-0d26d7"}, "geometry": {"type": "Point", "coordinates": [7.07767, 46.78656]}},
{"type": "Feature", "id": "bLvyx8Gkujs63mAyAk9qMqzs1QI=", "properties": {"ref": "DOM-64", "@spider": "aldi_sud_ch", "shop": "supermarket", "addr:full": "Route des Ecoles 48, Marly, 1723", "addr:street_address": "Route des Ecoles 48", "addr:city": "Marly", "addr:postcode": "1723", "addr:country": "CH", "name": "DOM-64", "phone": "026 437 12 30", "opening_hours": "Mo-Th 07:30-19:00; Fr 07:30-21:00; Sa 07:30-16:00", "brand": "ALDI", "brand:wikidata": "Q41171672", "nsi_id": "aldi-0d26d7"}, "geometry": {"type": "Point", "coordinates": [7.14669, 46.78327]}},
{"type": "Feature", "id": "j8IgU35Gnmz7Xz1nGHxptkhSB_A=", "properties": {"ref": "SWB-1", "@spider": "aldi_sud_ch", "shop": "supermarket", "addr:full": "Lochrietstrasse 18, Flums, 8890", "addr:street_address": "Lochrietstrasse 18", "addr:city": "Flums", "addr:postcode": "8890", "addr:country": "CH", "name": "SWB-1", "phone": "081 733 16 36", "opening_hours": "Mo-Sa 07:30-20:00", "brand": "ALDI", "brand:wikidata": "Q41171672", "nsi_id": "aldi-0d26d7"}, "geometry": {"type": "Point", "coordinates": [9.353066, 47.097601]}},
{"type": "Feature", "id": "jQSvtBCPPQGTBHf09OOmd29-D2g=", "properties": {"ref": "PER-76", "@spider": "aldi_sud_ch", "shop": "supermarket", "addr:full": "Entlebucherstrasse 54, Wolhusen Markt, 6110", "addr:street_address": "Entlebucherstrasse 54", "addr:city": "Wolhusen Markt", "addr:postcode": "6110", "addr:country": "CH", "name": "PER-76", "opening_hours": "Mo-Th 07:30-19:00; Fr 07:30-21:00; Sa 07:30-17:00", "brand": "ALDI", "brand:wikidata": "Q41171672", "nsi_id": "aldi-0d26d7"}, "geometry": {"type": "Point", "coordinates": [8.06659, 47.0505]}},
{"type": "Feature", "id": "I6RgdLKk2fEbdUNQJLvIqxQuruI=", "properties": {"ref": "DOM-7", "@spider": "aldi_sud_ch", "shop": "supermarket", "addr:full": "Z.A. Entre deux Fossaux 8, Collombey, 1868", "addr:street_address": "Z.A. Entre deux Fossaux 8", "addr:city": "Collombey", "addr:postcode": "1868", "addr:country": "CH", "name": "DOM-7", "phone": "024 472 17 36", "opening_hours": "Mo-Th 07:30-18:30; Fr 07:30-21:00; Sa 07:30-17:00", "brand": "ALDI", "brand:wikidata": "Q41171672", "nsi_id": "aldi-0d26d7"}, "geometry": {"type": "Point", "coordinates": [6.9564016, 46.26632895]}},
{"type": "Feature", "id": "jq2RYZ4L_4uFie400sQR0ZchmWo=", "properties": {"ref": "SWB-61", "@spider": "aldi_sud_ch", "shop": "supermarket", "addr:full": "Isenrietstrasse 20, M\u00f6nchaltorf, 8617", "addr:street_address": "Isenrietstrasse 20", "addr:city": "M\u00f6nchaltorf", "addr:postcode": "8617", "addr:country": "CH", "name": "SWB-61", "phone": "044 994 92 45", "opening_hours": "Mo-Sa 07:30-20:00", "brand": "ALDI", "brand:wikidata": "Q41171672", "nsi_id": "aldi-0d26d7"}, "geometry": {"type": "Point", "coordinates": [8.71871, 47.30345]}},
{"type": "Feature", "id": "O0kmvKXdw-VAR02FEaGlw4Ee7rE=", "properties": {"ref": "SWB-54", "@spider": "aldi_sud_ch", "shop": "supermarket", "addr:full": "Z\u00fcrcherstrasse 462, St. Gallen, 9015", "addr:street_address": "Z\u00fcrcherstrasse 462", "addr:city": "St. Gallen", "addr:postcode": "9015", "addr:country": "CH", "name": "SWB-54", "phone": "071 310 29 18", "opening_hours": "Mo-We 09:00-19:00; Th 09:00-21:00; Fr 09:00-19:00; Sa 09:00-17:00", "brand": "ALDI", "brand:wikidata": "Q41171672", "nsi_id": "aldi-0d26d7"}, "geometry": {"type": "Point", "coordinates": [9.305735, 47.408303]}},
{"type": "Feature", "id": "PEdNlqKlFR2IGmXv7agYOLMU8Ds=", "properties": {"ref": "PER-13", "@spider": "aldi_sud_ch", "shop": "supermarket", "addr:full": "Via Chiodenda 7, Agno, 6982", "addr:street_address": "Via Chiodenda 7", "addr:city": "Agno", "addr:postcode": "6982", "addr:country": "CH", "name": "PER-13", "phone": "091 605 75 69", "opening_hours": "Mo-We 08:00-19:00; Th 08:00-21:00; Fr 08:00-19:00; Sa 08:00-18:30", "brand": "ALDI", "brand:wikidata": "Q41171672", "nsi_id": "aldi-0d26d7"}, "geometry": {"type": "Point", "coordinates": [8.9043956, 45.9961734]}},
{"type": "Feature", "id": "tP-42Bi5weEV8p52-u84HYb4HD4=", "properties": {"ref": "DOM-65", "@spider": "aldi_sud_ch", "shop": "supermarket", "addr:full": "B\u00fcrenstrasse 91, Biberist, 4562", "addr:street_address": "B\u00fcrenstrasse 91", "addr:city": "Biberist", "addr:postcode": "4562", "addr:country": "CH", "name": "DOM-65", "phone": "032 623 03 75", "opening_hours": "Mo-Th 08:00-18:30; Fr 08:00-20:00; Sa 08:00-18:00", "brand": "ALDI", "brand:wikidata": "Q41171672", "nsi_id": "aldi-0d26d7"}, "geometry": {"type": "Point", "coordinates": [7.52893808, 47.19723213]}},
{"type": "Feature", "id": "qeJA2DIqYz-Zh6rrJweJ2kESJ6Y=", "properties": {"ref": "SWB-71", "@spider": "aldi_sud_ch", "shop": "supermarket", "addr:full": "Usterstrasse 51, Volketswil, 8604", "addr:street_address": "Usterstrasse 51", "addr:city": "Volketswil", "addr:postcode": "8604", "addr:country": "CH", "name": "SWB-71", "phone": "044 997 37 85", "opening_hours": "Mo-Sa 07:30-20:00", "brand": "ALDI", "brand:wikidata": "Q41171672", "nsi_id": "aldi-0d26d7"}, "geometry": {"type": "Point", "coordinates": [8.68351, 47.38095]}},
{"type": "Feature", "id": "UiMnQzsBHWBFmAX6AnR-3FHCWSs=", "properties": {"ref": "DOM-82", "@spider": "aldi_sud_ch", "shop": "supermarket", "addr:full": "Avenue de la Gare 22, Fribourg, 1700", "addr:street_address": "Avenue de la Gare 22", "addr:city": "Fribourg", "addr:postcode": "1700", "addr:country": "CH", "name": "DOM-82", "phone": "026 347 33 98", "opening_hours": "Mo-Th 08:30-19:00; Fr 08:30-20:00; Sa 08:00-16:00", "brand": "ALDI", "brand:wikidata": "Q41171672", "nsi_id": "aldi-0d26d7"}, "geometry": {"type": "Point", "coordinates": [7.1537786, 46.8038783]}},
{"type": "Feature", "id": "L-yDPJZaLqCAAiubDWt-MovIWQ0=", "properties": {"ref": "DOM-80", "@spider": "aldi_sud_ch", "shop": "supermarket", "addr:full": "Promenade de l'Europe 11, Gen\u00e8ve, 1203", "addr:street_address": "Promenade de l'Europe 11", "addr:city": "Gen\u00e8ve", "addr:postcode": "1203", "addr:country": "CH", "name": "DOM-80", "phone": "022 748 24 91", "opening_hours": "Mo-We 08:00-19:00; Th-Fr 08:00-19:30; Sa 08:00-18:00", "brand": "ALDI", "brand:wikidata": "Q41171672", "nsi_id": "aldi-0d26d7"}, "geometry": {"type": "Point", "coordinates": [6.1236, 46.2086]}},
{"type": "Feature", "id": "LvJ8RXi6OrV0H_F4LdiInjKy2mw=", "properties": {"ref": "PER-15", "@spider": "aldi_sud_ch", "shop": "supermarket", "addr:full": "Gw\u00e4rbstrasse 4, Honau, 6038", "addr:street_address": "Gw\u00e4rbstrasse 4", "addr:city": "Honau", "addr:postcode": "6038", "addr:country": "CH", "name": "PER-15", "phone": "041 451 07 78", "opening_hours": "Mo-Th 07:30-19:00; Fr 07:30-21:00; Sa 07:30-17:00", "brand": "ALDI", "brand:wikidata": "Q41171672", "nsi_id": "aldi-0d26d7"}, "geometry": {"type": "Point", "coordinates": [8.4031, 47.1315]}}]}