{"type":"FeatureCollection","features":[{"type": "Feature", "id": "6GwdL_rbshYJdMuGlLW-TGzN8kY=", "properties": {"ref": "https://www.aldi.it/it/trova-il-punto-vendita/aldi-venezia/aldi-mestre.html", "@spider": "aldi_sud_it", "shop": "supermarket", "addr:street_address": "Via Don Luigi Peron, 14", "addr:city": "Mestre", "addr:postcode": "30174", "addr:country": "IT", "name": "ALDI Mestre", "phone": "800 370 370", "website": "https://www.aldi.it/it/trova-il-punto-vendita/aldi-venezia/aldi-mestre.html", "opening_hours": "Mo-Sa 08:30-20:30; Su 09:00-20:00", "image": "https://s7g10.scene7.com/is/image/aldi/Gallery29?$E134COL-XL$", "brand": "ALDI", "brand:wikidata": "Q41171672", "nsi_id": "aldi-0d26d7"}, "geometry": {"type": "Point", "coordinates": [12.2284448, 45.5172548]}},
{"type": "Feature", "id": "Xt93rp0ZiHe8iaUSmbBgk2a337E=", "properties": {"ref": "https://www.aldi.it/it/trova-il-punto-vendita/aldi-venezia/aldi-jesolo.html", "@spider": "aldi_sud_it", "shop": "supermarket", "addr:street_address": "Via Goffredo Mameli, 105", "addr:city": "Jesolo", "addr:postcode": "30016", "addr:country": "IT", "name": "ALDI Jesolo", "phone": "800 370 370", "website": "https://www.aldi.it/it/trova-il-punto-vendita/aldi-venezia/aldi-jesolo.html", "opening_hours": "Mo-Sa 08:30-20:30; Su 08:30-20:00", "image": "https://s7g10.scene7.com/is/image/aldi/Gallery29?$E134COL-XL$", "brand": "ALDI", "brand:wikidata": "Q41171672", "nsi_id": "aldi-0d26d7"}, "geometry": {"type": "Point", "coordinates": [12.6358904, 45.516323]}},
{"type": "Feature", "id": "cIMdmFWg70LR5MMQeDWlqAK6Y5c=", "properties": {"ref": "https://www.aldi.it/it/trova-il-punto-vendita/aldi-venezia/aldi-venezia.html", "@spider": "aldi_sud_it", "shop": "supermarket", "addr:street_address": "Via Tina Anselmi, 10", "addr:city": "Venezia", "addr:postcode": "30173", "addr:country": "IT", "name": "ALDI Venezia", "phone": "800 370 370", "website": "https://www.aldi.it/it/trova-il-punto-vendita/aldi-venezia/aldi-venezia.html", "opening_hours": "Mo-Sa 08:30-20:30; Su 09:00-20:00", "image": "https://s7g10.scene7.com/is/image/aldi/Gallery29?$E134COL-XL$", "brand": "ALDI", "brand:wikidata": "Q41171672", "nsi_id": "aldi-0d26d7"}, "geometry": {"type": "Point", "coordinates": [12.2604227, 45.4885596]}},
{"type": "Feature", "id": "v9Nsdc11YjMuWmo9MiQqmjG1av8=", "properties": {"ref": "https://www.aldi.it/it/trova-il-punto-vendita/aldi-venezia/aldi-marcon.html", "@spider": "aldi_sud_it", "shop": "supermarket", "addr:street_address": "Via Enrico Mattei, 9/E", "addr:city": "Marcon", "addr:postcode": "30020", "addr:country": "IT", "name": "ALDI Marcon", "phone": "800 370 370", "website": "https://www.aldi.it/it/trova-il-punto-vendita/aldi-venezia/aldi-marcon.html", "opening_hours": "Mo-Sa 08:30-20:30; Su 09:00-20:00", "image": "https://s7g10.scene7.com/is/image/aldi/Gallery29?$E134COL-XL$", "brand": "ALDI", "brand:wikidata": "Q41171672", "nsi_id": "aldi-0d26d7"}, "geometry": {"type": "Point", "coordinates": [12.3074722, 45.5479202]}},
{"type": "Feature", "id": "NxnD2E6MwPYsVFvGnapF717ZmEk=", "properties": {"ref": "https://www.aldi.it/it/trova-il-punto-vendita/aldi-vicenza/aldi-vicenza-via-brigata-granatieri-di-sardegna.html", "@spider": "aldi_sud_it", "shop": "supermarket", "addr:street_address": "Via Brigata Granatieri di Sardegna", "addr:city": "Vicenza", "addr:postcode": "36100", "addr:country": "IT", "name": "ALDI Vicenza Via Brigata Granatieri di Sardegna", "phone": "800 370 370", "website": "https://www.aldi.it/it/trova-il-punto-vendita/aldi-vicenza/aldi-vicenza-via-brigata-granatieri-di-sardegna.html", "opening_hours": "Mo-Sa 08:00-20:30; Su 09:00-20:00", "image": "https://s7g10.scene7.com/is/image/aldi/Gallery29?$E134COL-XL$", "brand": "ALDI", "brand:wikidata": "Q41171672", "nsi_id": "aldi-0d26d7"}, "geometry": {"type": "Point", "coordinates": [11.51854, 45.55447]}},
{"type": "Feature", "id": "GxxP9TziadNucsWXd4vaHW51uSI=", "properties": {"ref": "https://www.aldi.it/it/trova-il-punto-vendita/aldi-vicenza/aldi-thiene.html", "@spider": "aldi_sud_it", "shop": "supermarket", "addr:street_address": "Viale Vittorio Veneto, 7", "addr:city": "Thiene", "addr:postcode": "36016", "addr:country": "IT", "name": "ALDI Thiene", "phone": "800 370 370", "website": "https://www.aldi.it/it/trova-il-punto-vendita/aldi-vicenza/aldi-thiene.html", "opening_hours": "Mo-Sa 08:30-20:30; Su 09:00-20:00", "image": "https://s7g10.scene7.com/is/image/aldi/Gallery29?$E134COL-XL$", "brand": "ALDI", "brand:wikidata": "Q41171672", "nsi_id": "aldi-0d26d7"}, "geometry": {"type": "Point", "coordinates": [11.4749093, 45.7017549]}},
{"type": "Feature", "id": "UXU1yKA0JHkQxuLLzdEYIeXF2AY=", "properties": {"ref": "https://www.aldi.it/it/trova-il-punto-vendita/aldi-vicenza/aldi-cassola.html", "@spider": "aldi_sud_it", "shop": "supermarket", "addr:street_address": "Via Valsugana, 14A", "addr:city": "Cassola", "addr:postcode": "36022", "addr:country": "IT", "name": "ALDI Cassola", "phone": "800 370 370", "website": "https://www.aldi.it/it/trova-il-punto-vendita/aldi-vicenza/aldi-cassola.html", "opening_hours": "Mo-Sa 08:00-20:30; Su 08:30-20:00", "image": "https://s7g10.scene7.com/is/image/aldi/Gallery29?$E134COL-XL$", "brand": "ALDI", "brand:wikidata": "Q41171672", "nsi_id": "aldi-0d26d7"}, "geometry": {"type": "Point", "coordinates": [11.7556333, 45.7438011]}},
{"type": "Feature", "id": "OCJk7spEIMqu5a5ZZadSO1_Tzms=", "properties": {"ref": "https://www.aldi.it/it/trova-il-punto-vendita/aldi-vicenza/aldi-vicenza-viale-giuseppe-mazzini.html", "@spider": "aldi_sud_it", "shop": "supermarket", "addr:street_address": "Viale Giuseppe Mazzini, 29", "addr:city": "Vicenza", "addr:postcode": "36100", "addr:country": "IT", "name": "ALDI Vicenza", "phone": "800 370 370", "website": "https://www.aldi.it/it/trova-il-punto-vendita/aldi-vicenza/aldi-vicenza-viale-giuseppe-mazzini.html", "opening_hours": "Mo-Sa 08:30-20:30", "image": "https://s7g10.scene7.com/is/image/aldi/Gallery29?$E134COL-XL$", "brand": "ALDI", "brand:wikidata": "Q41171672", "nsi_id": "aldi-0d26d7"}, "geometry": {"type": "Point", "coordinates": [11.5343649, 45.5472236]}},
{"type": "Feature", "id": "ojN6Y9KRn9uCIzeAuv9mftJdKjI=", "properties": {"ref": "https://www.aldi.it/it/trova-il-punto-vendita/aldi-vicenza/aldi-schio.html", "@spider": "aldi_sud_it", "shop": "supermarket", "addr:street_address": "Via Vicenza, 39", "addr:city": "Schio", "addr:postcode": "36015", "addr:country": "IT", "name": "ALDI Schio", "phone": "800 370 370", "website": "https://www.aldi.it/it/trova-il-punto-vendita/aldi-vicenza/aldi-schio.html", "opening_hours": "Mo-Sa 08:30-20:30; Su 09:00-20:00", "image": "https://s7g10.scene7.com/is/image/aldi/Gallery29?$E134COL-XL$", "brand": "ALDI", "brand:wikidata": "Q41171672", "nsi_id": "aldi-0d26d7"}, "geometry": {"type": "Point", "coordinates": [11.3663714, 45.7072499]}},
{"type": "Feature", "id": "3oU4ry0Ex_Lrs8lZZpTw55E4Wks=", "properties": {"ref": "https://www.aldi.it/it/trova-il-punto-vendita/aldi-treviso/aldi-vittorio-veneto.html", "@spider": "aldi_sud_it", "shop": "supermarket", "addr:street_address": "Via della Str. Alta, 2C", "addr:city": "Vittorio Veneto", "addr:postcode": "31029", "addr:country": "IT", "name": "ALDI Vittorio Veneto", "phone": "800 370 370", "website": "https://www.aldi.it/it/trova-il-punto-vendita/aldi-treviso/aldi-vittorio-veneto.html", "opening_hours": "Mo-Sa 08:30-20:30; Su 09:00-20:00", "image": "https://s7g10.scene7.com/is/image/aldi/Gallery29?$E134COL-XL$", "brand": "ALDI", "brand:wikidata": "Q41171672", "nsi_id": "aldi-0d26d7"}, "geometry": {"type": "Point", "coordinates": [12.3184118, 45.9820404]}},
{"type": "Feature", "id": "mQ1BVLDdtYz-RpPXCEfTWPQOZeg=", "properties": {"ref": "https://www.aldi.it/it/trova-il-punto-vendita/aldi-treviso/aldi-conegliano-veneto.html", "@spider": "aldi_sud_it", "shop": "supermarket", "addr:street_address": "Via S. Giuseppe, 27/A", "addr:city": "Conegliano Veneto", "addr:postcode": "31015", "addr:country": "IT", "name": "ALDI - Conegliano Veneto", "phone": "800 370 370", "website": "https://www.aldi.it/it/trova-il-punto-vendita/aldi-treviso/aldi-conegliano-veneto.html", "opening_hours": "Mo-Sa 08:30-20:30; Su 09:00-20:00", "image": "https://s7g10.scene7.com/is/image/aldi/Gallery29?$E134COL-XL$", "brand": "ALDI", "brand:wikidata": "Q41171672", "nsi_id": "aldi-0d26d7"}, "geometry": {"type": "Point", "coordinates": [12.3132702, 45.877092]}},
{"type": "Feature", "id": "15ggILpNaf9MTM2qSu1EjSvsU3c=", "properties": {"ref": "https://www.aldi.it/it/trova-il-punto-vendita/aldi-treviso/aldi-villorba.html", "@spider": "aldi_sud_it", "shop": "supermarket", "addr:street_address": "Viale della Repubblica, 17", "addr:city": "Villorba", "addr:postcode": "31020", "addr:country": "IT", "name": "ALDI Villorba", "phone": "800 370 370", "website": "https://www.aldi.it/it/trova-il-punto-vendita/aldi-treviso/aldi-villorba.html", "opening_hours": "Mo-Sa 08:00-21:00; Su 09:00-20:30", "image": "https://s7g10.scene7.com/is/image/aldi/Gallery29?$E134COL-XL$", "brand": "ALDI", "brand:wikidata": "Q41171672", "nsi_id": "aldi-0d26d7"}, "geometry": {"type": "Point", "coordinates": [12.2523215, 45.6929876]}},
{"type": "Feature", "id": "_rXhliemSNj1r1dKJJ4QPAykp78=", "properties": {"ref": "https://www.aldi.it/it/trova-il-punto-vendita/aldi-treviso/aldi-paese.html", "@spider": "aldi_sud_it", "shop": "supermarket", "addr:street_address": "Via Pietro Nenni, 2", "addr:city": "Paese", "addr:postcode": "31038", "addr:country": "IT", "name": "ALDI Paese", "phone": "800 370 370", "website": "https://www.aldi.it/it/trova-il-punto-vendita/aldi-treviso/aldi-paese.html", "opening_hours": "Mo-Sa 08:30-20:30; Su 09:00-20:00", "image": "https://s7g10.scene7.com/is/image/aldi/Gallery29?$E134COL-XL$", "brand": "ALDI", "brand:wikidata": "Q41171672", "nsi_id": "aldi-0d26d7"}, "geometry": {"type": "Point", "coordinates": [12.1739692, 45.6706237]}},
{"type": "Feature", "id": "eLofEJClxUEq-rouRdO6ZYfuQ4k=", "properties": {"ref": "https://www.aldi.it/it/trova-il-punto-vendita/aldi-treviso/aldi-treviso.html", "@spider": "aldi_sud_it", "shop": "supermarket", "addr:street_address": "Viale IV Novembre, 91", "addr:city": "Treviso", "addr:postcode": "31100", "addr:country": "IT", "name": "ALDI Treviso", "phone": "800 370 370", "website": "https://www.aldi.it/it/trova-il-punto-vendita/aldi-treviso/aldi-treviso.html", "opening_hours": "Mo-Sa 08:30-20:30; Su 09:00-20:00", "image": "https://s7g10.scene7.com/is/image/aldi/Gallery29?$E134COL-XL$", "brand": "ALDI", "brand:wikidata": "Q41171672", "nsi_id": "aldi-0d26d7"}, "geometry": {"type": "Point", "coordinates": [12.2702106, 45.6622472]}},
{"type": "Feature", "id": "9WtGnv-ILqgeV57FwIu7gv8Bx3A=", "properties": {"ref": "https://www.aldi.it/it/trova-il-punto-vendita/aldi-treviso/aldi-roncade.html", "@spider": "aldi_sud_it", "shop": "supermarket", "addr:street_address": "Via Fusana, 2", "addr:city": "Roncade", "addr:postcode": "31056", "addr:country": "IT", "name": "ALDI Roncade", "phone": "800 370 370", "website": "https://www.aldi.it/it/trova-il-punto-vendita/aldi-treviso/aldi-roncade.html", "opening_hours": "Mo-Su 08:30-20:30", "image": "https://s7g10.scene7.com/is/image/aldi/Gallery29?$E134COL-XL$", "brand": "ALDI", "brand:wikidata": "Q41171672", "nsi_id": "aldi-0d26d7"}, "geometry": {"type": "Point", "coordinates": [12.3736013, 45.6373957]}},
{"type": "Feature", "id": "Ia_UG_2-PATGMZ73HisRJ2xbwfs=", "properties": {"ref": "https://www.aldi.it/it/trova-il-punto-vendita/aldi-rovigo/aldi-lendinara.html", "@spider": "aldi_sud_it", "shop": "supermarket", "addr:street_address": "Via Santa Maria Nuova, 93", "addr:city": "Lendinara", "addr:postcode": "45026", "addr:country": "IT", "name": "ALDI Lendinara", "phone": "800 370 370", "website": "https://www.aldi.it/it/trova-il-punto-vendita/aldi-rovigo/aldi-lendinara.html", "opening_hours": "Mo-Sa 08:30-21:00; Su 09:00-20:30", "image": "https://s7g10.scene7.com/is/image/aldi/Gallery29?$E134COL-XL$", "brand": "ALDI", "brand:wikidata": "Q41171672", "nsi_id": "aldi-0d26d7"}, "geometry": {"type": "Point", "coordinates": [11.6097883, 45.0842684]}},
{"type": "Feature", "id": "42R_u78ec9sFWn9K2N7uWDDh_V0=", "properties": {"ref": "https://www.aldi.it/it/trova-il-punto-vendita/aldi-pavia/aldi-vigevano.html", "@spider": "aldi_sud_it", "shop": "supermarket", "addr:street_address": "Corso Novara, 148", "addr:city": "Vigevano", "addr:postcode": "27029", "addr:country": "IT", "name": "ALDI Vigevano", "phone": "800 370 370", "website": "https://www.aldi.it/it/trova-il-punto-vendita/aldi-pavia/aldi-vigevano.html", "opening_hours": "Mo-Sa 08:00-20:30; Su 09:00-20:00", "image": "https://s7g10.scene7.com/is/image/aldi/Gallery29?$E134COL-XL$", "brand": "ALDI", "brand:wikidata": "Q41171672", "nsi_id": "aldi-0d26d7"}, "geometry": {"type": "Point", "coordinates": [8.8392263, 45.3284433]}},
{"type": "Feature", "id": "XxTfr1RM88H-0kSj3uZcu8Df03Y=", "properties": {"ref": "https://www.aldi.it/it/trova-il-punto-vendita/aldi-alessandria/aldi-tortona.html", "@spider": "aldi_sud_it", "shop": "supermarket", "addr:street_address": "Strada Statale per Alessandria, 9", "addr:city": "Tortona", "addr:postcode": "15057", "addr:country": "IT", "name": "ALDI Tortona", "phone": "800 370 370", "website": "https://www.aldi.it/it/trova-il-punto-vendita/aldi-alessandria/aldi-tortona.html", "opening_hours": "Mo-Sa 08:30-21:00; Su 09:00-20:00", "image": "https://s7g10.scene7.com/is/image/aldi/Gallery29?$E134COL-XL$", "brand": "ALDI", "brand:wikidata": "Q41171672", "nsi_id": "aldi-0d26d7"}, "geometry": {"type": "Point", "coordinates": [8.8483342, 44.8951993]}},
{"type": "Feature", "id": "94_DRfa74k-eHaNFR6GD1axJl5Q=", "properties": {"ref": "https://www.aldi.it/it/trova-il-punto-vendita/aldi-asti/aldi-asti.html", "@spider": "aldi_sud_it", "shop": "supermarket", "addr:street_address": "Via Pierina Campanella, 3", "addr:city": "Asti", "addr:postcode": "14100", "addr:country": "IT", "name": "ALDI Asti", "phone": "800 370 370", "website": "https://www.aldi.it/it/trova-il-punto-vendita/aldi-asti/aldi-asti.html", "opening_hours": "Mo-Sa 08:30-21:00; Su 09:00-20:00", "image": "https://s7g10.scene7.com/is/image/aldi/Gallery29?$E134COL-XL$", "brand": "ALDI", "brand:wikidata": "Q41171672", "nsi_id": "aldi-0d26d7"}, "geometry": {"type": "Point", "coordinates": [8.2319654, 44.9074325]}},
{"type": "Feature", "id": "NvRB6eFBPn-nAwoAVjZH01EPhfY=", "properties": {"ref": "https://www.aldi.it/it/trova-il-punto-vendita/aldi-biella/aldi-biella.html", "@spider": "aldi_sud_it", "shop": "supermarket", "addr:street_address": "Via Carso, 40/E", "addr:city": "Biella", "addr:postcode": "13900", "addr:country": "IT", "name": "ALDI Biella", "phone": "800 370 370", "website": "https://www.aldi.it/it/trova-il-punto-vendita/aldi-biella/aldi-biella.html", "opening_hours": "Mo-Sa 08:30-20:30; Su 09:00-20:00", "image": "https://s7g10.scene7.com/is/image/aldi/Gallery29?$E134COL-XL$", "brand": "ALDI", "brand:wikidata": "Q41171672", "nsi_id": "aldi-0d26d7"}, "geometry": {"type": "Point", "coordinates": [8.0622638, 45.5581016]}},
{"type": "Feature", "id": "dWbc5i2hiK_50zDOpfIpkEtNs-Q=", "properties": {"ref": "https://www.aldi.it/it/trova-il-punto-vendita/aldi-cuneo/aldi-mondovi.html", "@spider": "aldi_sud_it", "shop": "supermarket", "addr:street_address": "Via delle Langhe ang, Via Torino", "addr:city": "Mondov\u00ec", "addr:postcode": "12084", "addr:country": "IT", "name": "ALDI Mondov\u00ec", "phone": "800 370 370", "website": "https://www.aldi.it/it/trova-il-punto-vendita/aldi-cuneo/aldi-mondovi.html", "opening_hours": "Mo-Sa 08:30-20:30; Su 09:00-20:00", "image": "https://s7g10.scene7.com/is/image/aldi/Gallery29?$E134COL-XL$", "brand": "ALDI", "brand:wikidata": "Q41171672", "nsi_id": "aldi-0d26d7"}, "geometry": {"type": "Point", "coordinates": [7.8190526, 44.39719]}},
{"type": "Feature", "id": "MMMKXfGR_GdDU47B3xS0iSfDG3k=", "properties": {"ref": "https://www.aldi.it/it/trova-il-punto-vendita/aldi-cuneo/aldi-fossano.html", "@spider": "aldi_sud_it", "shop": "supermarket", "addr:street_address": "Via Bartolomeo Chiarini, 1", "addr:city": "Fossano", "addr:postcode": "12045", "addr:country": "IT", "name": "ALDI Fossano", "phone": "800 370 370", "website": "https://www.aldi.it/it/trova-il-punto-vendita/aldi-cuneo/aldi-fossano.html", "opening_hours": "Mo-Sa 08:30-20:30; Su 09:00-20:00", "image": "https://s7g10.scene7.com/is/image/aldi/Gallery29?$E134COL-XL$", "brand": "ALDI", "brand:wikidata": "Q41171672", "nsi_id": "aldi-0d26d7"}, "geometry": {"type": "Point", "coordinates": [7.7101653, 44.5520678]}},
{"type": "Feature", "id": "Jdeo9Im3uSYyUwOW1T9mubrH6Pc=", "properties": {"ref": "https://www.aldi.it/it/trova-il-punto-vendita/aldi-novara/aldi-trecate.html", "@spider": "aldi_sud_it", "shop": "supermarket", "addr:street_address": "Via dei Campi, 8", "addr:city": "Trecate", "addr:postcode": "28069", "addr:country": "IT", "name": "ALDI Trecate", "phone": "800 370 370", "website": "https://www.aldi.it/it/trova-il-punto-vendita/aldi-novara/aldi-trecate.html", "opening_hours": "Mo-Sa 08:30-21:00; Su 09:00-20:00", "image": "https://s7g10.scene7.com/is/image/aldi/Gallery29?$E134COL-XL$", "brand": "ALDI", "brand:wikidata": "Q41171672", "nsi_id": "aldi-0d26d7"}, "geometry": {"type": "Point", "coordinates": [8.7125933, 45.4331691]}},
{"type": "Feature", "id": "6mqMQ6ch_oKPhaQCSQPJmoRFNkc=", "properties": {"ref": "https://www.aldi.it/it/trova-il-punto-vendita/aldi-novara/aldi-borgomanero.html", "@spider": "aldi_sud_it", "shop": "supermarket", "addr:street_address": "Viale Kennedy, 51", "addr:city": "Borgomanero", "addr:postcode": "28021", "addr:country": "IT", "name": "ALDI Borgomanero", "phone": "800 370 370", "website": "https://www.aldi.it/it/trova-il-punto-vendita/aldi-novara/aldi-borgomanero.html", "opening_hours": "Mo-Sa 08:00-20:30; Su 09:00-20:00", "image": "https://s7g10.scene7.com/is/image/aldi/Gallery29?$E134COL-XL$", "brand": "ALDI", "brand:wikidata": "Q41171672", "nsi_id": "aldi-0d26d7"}, "geometry": {"type": "Point", "coordinates": [8.4514755, 45.7082004]}},
{"type": "Feature", "id": "1suhgX789As8WYZwmt01T2xtHiA=", "properties": {"ref": "https://www.aldi.it/it/trova-il-punto-vendita/aldi-novara/aldi-novara-viale-curtatone.html", "@spider": "aldi_sud_it", "shop": "supermarket", "addr:street_address": "Viale Curtatone, 12", "addr:city": "Novara", "addr:postcode": "28100", "addr:country": "IT", "name": "ALDI Novara", "phone": "800 370 370", "website": "https://www.aldi.it/it/trova-il-punto-vendita/aldi-novara/aldi-novara-viale-curtatone.html", "opening_hours": "Mo-Sa 08:00-21:00; Su 09:00-20:00", "image": "https://s7g10.scene7.com/is/image/aldi/Gallery29?$E134COL-XL$", "brand": "ALDI", "brand:wikidata": "Q41171672", "nsi_id": "aldi-0d26d7"}, "geometry": {"type": "Point", "coordinates": [8.6279747, 45.4391]}},
{"type": "Feature", "id": "lMd-4WnBLJPMJcZBq7B9fnLG9NA=", "properties": {"ref": "https://www.aldi.it/it/trova-il-punto-vendita/aldi-novara/aldi-novara-corso-vittoria.html", "@spider": "aldi_sud_it", "shop": "supermarket", "addr:street_address": "Corso della Vittoria", "addr:city": "Novara", "addr:postcode": "28100", "addr:country": "IT", "name": "ALDI Novara", "phone": "800 370 370", "website": "https://www.aldi.it/it/trova-il-punto-vendita/aldi-novara/aldi-novara-corso-vittoria.html", "opening_hours": "Mo-Sa 08:00-21:00; Su 09:00-20:00", "image": "https://s7g10.scene7.com/is/image/aldi/Gallery29?$E134COL-XL$", "brand": "ALDI", "brand:wikidata": "Q41171672", "nsi_id": "aldi-0d26d7"}, "geometry": {"type": "Point", "coordinates": [8.6245628, 45.4651665]}},
{"type": "Feature", "id": "-zBCDZm_B_zMl67oRXorelqOzC4=", "properties": {"ref": "https://www.aldi.it/it/trova-il-punto-vendita/aldi-torino/aldi-piossasco.html", "@spider": "aldi_sud_it", "shop": "supermarket", "addr:street_address": "Via Pinerolo 199-201", "addr:city": "Piossasco", "addr:postcode": "10045", "addr:country": "IT", "name": "ALDI Piossasco", "phone": "800 370 370", "website": "https://www.aldi.it/it/trova-il-punto-vendita/aldi-torino/aldi-piossasco.html", "opening_hours": "Mo-Sa 08:30-20:30; Su 09:00-20:00", "image": "https://s7g10.scene7.com/is/image/aldi/Gallery29?$E134COL-XL$", "brand": "ALDI", "brand:wikidata": "Q41171672", "nsi_id": "aldi-0d26d7"}, "geometry": {"type": "Point", "coordinates": [7.4536393, 44.9814366]}},
{"type": "Feature", "id": "1v33peCoAR7Az-zxU7HYbMEBi3M=", "properties": {"ref": "https://www.aldi.it/it/trova-il-punto-vendita/aldi-torino/aldi-nichelino.html", "@spider": "aldi_sud_it", "shop": "supermarket", "addr:street_address": "Via dei Cacciatori, 86", "addr:city": "Nichelino", "addr:postcode": "10042", "addr:country": "IT", "name": "ALDI Nichelino", "phone": "800 370 370", "website": "https://www.aldi.it/it/trova-il-punto-vendita/aldi-torino/aldi-nichelino.html", "opening_hours": "Mo-Sa 08:30-20:30; Su 09:00-20:00", "image": "https://s7g10.scene7.com/is/image/aldi/Gallery29?$E134COL-XL$", "brand": "ALDI", "brand:wikidata": "Q41171672", "nsi_id": "aldi-0d26d7"}, "geometry": {"type": "Point", "coordinates": [7.6239818, 45.0067672]}},
{"type": "Feature", "id": "dWJtQ6GJWu40BXzau3iwiFukym0=", "properties": {"ref": "https://www.aldi.it/it/trova-il-punto-vendita/aldi-torino/aldi-moncalieri.html", "@spider": "aldi_sud_it", "shop": "supermarket", "addr:street_address": "Corso Roma, 13", "addr:city": "Moncalieri", "addr:postcode": "10024", "addr:country": "IT", "name": "ALDI Moncalieri", "phone": "800 370 370", "website": "https://www.aldi.it/it/trova-il-punto-vendita/aldi-torino/aldi-moncalieri.html", "opening_hours": "Mo-Sa 08:30-20:30; Su 09:00-20:00", "image": "https://s7g10.scene7.com/is/image/aldi/Gallery29?$E134COL-XL$", "brand": "ALDI", "brand:wikidata": "Q41171672", "nsi_id": "aldi-0d26d7"}, "geometry": {"type": "Point", "coordinates": [7.669818, 45.0051778]}},
{"type": "Feature", "id": "B0PGuWPE9r0BVZOvIg_o0jwR8Uc=", "properties": {"ref": "https://www.aldi.it/it/trova-il-punto-vendita/aldi-torino/aldi-collegno.html", "@spider": "aldi_sud_it", "shop": "supermarket", "addr:street_address": "Corso Pastrengo ang, Viale Certosa", "addr:city": "Collegno", "addr:postcode": "10093", "addr:country": "IT", "name": "ALDI Collegno", "phone": "800 370 370", "website": "https://www.aldi.it/it/trova-il-punto-vendita/aldi-torino/aldi-collegno.html", "opening_hours": "Mo-Sa 08:30-21:30; Su 09:00-21:00", "image": "https://s7g10.scene7.com/is/image/aldi/Gallery29?$E134COL-XL$", "brand": "ALDI", "brand:wikidata": "Q41171672", "nsi_id": "aldi-0d26d7"}, "geometry": {"type": "Point", "coordinates": [7.5799259, 45.079483]}},
{"type": "Feature", "id": "hlgfi7DmWon54KcOuPfNiA8DSOs=", "properties": {"ref": "https://www.aldi.it/it/trova-il-punto-vendita/aldi-torino/aldi-carmagnola.html", "@spider": "aldi_sud_it", "shop": "supermarket", "addr:street_address": "Via Bergamina ,5", "addr:city": "Carmagnola", "addr:postcode": "10022", "addr:country": "IT", "name": "ALDI Carmagnola", "phone": "800 370 370", "website": "https://www.aldi.it/it/trova-il-punto-vendita/aldi-torino/aldi-carmagnola.html", "opening_hours": "Mo-Sa 08:30-21:00; Su 09:00-20:00", "image": "https://s7g10.scene7.com/is/image/aldi/Gallery29?$E134COL-XL$", "brand": "ALDI", "brand:wikidata": "Q41171672", "nsi_id": "aldi-0d26d7"}, "geometry": {"type": "Point", "coordinates": [7.7204095, 44.8581523]}},
{"type": "Feature", "id": "qbD5ejDl9KyDVHVFCkR2RjhLS4U=", "properties": {"ref": "https://www.aldi.it/it/trova-il-punto-vendita/aldi-torino/aldi-borgaro-torinese.html", "@spider": "aldi_sud_it", "shop": "supermarket", "addr:street_address": "Via Lanzo, 213", "addr:city": "Borgaro Torinese", "addr:postcode": "10071", "addr:country": "IT", "name": "ALDI Borgaro Torinese", "phone": "800 370 370", "website": "https://www.aldi.it/it/trova-il-punto-vendita/aldi-torino/aldi-borgaro-torinese.html", "opening_hours": "Mo-Sa 08:30-21:00; Su 09:00-20:00", "image": "https://s7g10.scene7.com/is/image/aldi/Gallery29?$E134COL-XL$", "brand": "ALDI", "brand:wikidata": "Q41171672", "nsi_id": "aldi-0d26d7"}, "geometry": {"type": "Point", "coordinates": [7.6519444, 45.1585217]}},
{"type": "Feature", "id": "pGNd6Hp2mqxuXzVL2gPTpD7ePQA=", "properties": {"ref": "https://www.aldi.it/it/trova-il-punto-vendita/aldi-torino/aldi-torino-via-millio.html", "@spider": "aldi_sud_it", "shop": "supermarket", "addr:street_address": "Via Francesco Millio, 10/E", "addr:city": "Torino", "addr:postcode": "10141", "addr:country": "IT", "name": "ALDI Torino", "phone": "800 370 370", "website": "https://www.aldi.it/it/trova-il-punto-vendita/aldi-torino/aldi-torino-via-millio.html", "opening_hours": "Mo-Sa 08:00-21:00; Su 09:00-20:50", "image": "https://s7g10.scene7.com/is/image/aldi/Gallery29?$E134COL-XL$", "brand": "ALDI", "brand:wikidata": "Q41171672", "nsi_id": "aldi-0d26d7"}, "geometry": {"type": "Point", "coordinates": [7.6507889, 45.0574213]}},
{"type": "Feature", "id": "I_NPtdUitXGFsUVSh3cTvsGeaXg=", "properties": {"ref": "https://www.aldi.it/it/trova-il-punto-vendita/aldi-verbania/aldi-gravellona-toce.html", "@spider": "aldi_sud_it", "shop": "supermarket", "addr:street_address": "Corso Guglielmo Marconi, 28/A", "addr:city": "Gravellona Toce", "addr:postcode": "28883", "addr:country": "IT", "name": "ALDI Gravellona Toce", "phone": "800 370 370", "website": "https://www.aldi.it/it/trova-il-punto-vendita/aldi-verbania/aldi-gravellona-toce.html", "opening_hours": "Mo-Sa 08:00-21:00; Su 08:30-20:30", "image": "https://s7g10.scene7.com/is/image/aldi/Gallery29?$E134COL-XL$", "brand": "ALDI", "brand:wikidata": "Q41171672", "nsi_id": "aldi-0d26d7"}, "geometry": {"type": "Point", "coordinates": [8.4320458, 45.9294617]}},
{"type": "Feature", "id": "Hi329VqvRjjHDXrO7PvH_oZCETg=", "properties": {"ref": "https://www.aldi.it/it/trova-il-punto-vendita/aldi-vercelli/aldi-vercelli.html", "@spider": "aldi_sud_it", "shop": "supermarket", "addr:street_address": "Via Adige, 4", "addr:city": "Vercelli", "addr:postcode": "13100", "addr:country": "IT", "name": "ALDI Vercelli", "phone": "800 370 370", "website": "https://www.aldi.it/it/trova-il-punto-vendita/aldi-vercelli/aldi-vercelli.html", "opening_hours": "Mo-Sa 08:30-21:00; Su 09:00-20:00", "image": "https://s7g10.scene7.com/is/image/aldi/Gallery29?$E134COL-XL$", "brand": "ALDI", "brand:wikidata": "Q41171672", "nsi_id": "aldi-0d26d7"}, "geometry": {"type": "Point", "coordinates": [8.3924557, 45.325029]}},
{"type": "Feature", "id": "YqCN5_MLko8YMrZCrsfz5fvHSFQ=", "properties": {"ref": "https://www.aldi.it/it/trova-il-punto-vendita/aldi-bergamo/aldi-treviglio.html", "@spider": "aldi_sud_it", "shop": "supermarket", "addr:street_address": "Via Ernesto Baslini, 6", "addr:city": "Treviglio", "addr:postcode": "24047", "addr:country": "IT", "name": "ALDI Treviglio", "phone": "800 370 370", "website": "https://www.aldi.it/it/trova-il-punto-vendita/aldi-bergamo/aldi-treviglio.html", "opening_hours": "Mo-Sa 08:30-20:30; Su 09:00-20:00", "image": "https://s7g10.scene7.com/is/image/aldi/Gallery29?$E134COL-XL$", "brand": "ALDI", "brand:wikidata": "Q41171672", "nsi_id": "aldi-0d26d7"}, "geometry": {"type": "Point", "coordinates": [9.5834865, 45.5168878]}},
{"type": "Feature", "id": "dL9RtQzbr36Yf0pFrQqeRvoEDFo=", "properties": {"ref": "https://www.aldi.it/it/trova-il-punto-vendita/aldi-bergamo/aldi-stezzano.html", "@spider": "aldi_sud_it", "shop": "supermarket", "addr:street_address": "Viale Industria, 291", "addr:city": "Stezzano", "addr:postcode": "24040", "addr:country": "IT", "name": "ALDI Stezzano", "phone": "800 370 370", "website": "https://www.aldi.it/it/trova-il-punto-vendita/aldi-bergamo/aldi-stezzano.html", "opening_hours": "Mo-Sa 08:00-21:00; Su 08:30-21:00", "image": "https://s7g10.scene7.com/is/image/aldi/Gallery29?$E134COL-XL$", "brand": "ALDI", "brand:wikidata": "Q41171672", "nsi_id": "aldi-0d26d7"}, "geometry": {"type": "Point", "coordinates": [9.6531747, 45.6423645]}},
{"type": "Feature", "id": "8zvDz2HVXd-iDItrWNOkPHjDFJw=", "properties": {"ref": "https://www.aldi.it/it/trova-il-punto-vendita/aldi-bergamo/aldi-pedrengo.html", "@spider": "aldi_sud_it", "shop": "supermarket", "addr:street_address": "Via Pino Longhi, 2", "addr:city": "Pedrengo", "addr:postcode": "24066", "addr:country": "IT", "name": "ALDI Pedrengo", "phone": "800 370 370", "website": "https://www.aldi.it/it/trova-il-punto-vendita/aldi-bergamo/aldi-pedrengo.html", "opening_hours": "Mo-Sa 08:30-20:30; Su 09:00-20:00", "image": "https://s7g10.scene7.com/is/image/aldi/Gallery29?$E134COL-XL$", "brand": "ALDI", "brand:wikidata": "Q41171672", "nsi_id": "aldi-0d26d7"}, "geometry": {"type": "Point", "coordinates": [9.7369602, 45.6891496]}},
{"type": "Feature", "id": "zbyKs9olbCTjt635ZAeS4LS_wJ4=", "properties": {"ref": "https://www.aldi.it/it/trova-il-punto-vendita/aldi-bergamo/aldi-nembro.html", "@spider": "aldi_sud_it", "shop": "supermarket", "addr:street_address": "Via Acqua dei Buoi", "addr:city": "Nembro", "addr:postcode": "24027", "addr:country": "IT", "name": "ALDI Nembro", "phone": "800 370 370", "website": "https://www.aldi.it/it/trova-il-punto-vendita/aldi-bergamo/aldi-nembro.html", "opening_hours": "Mo-Sa 08:30-21:00; Su 09:00-20:00", "image": "https://s7g10.scene7.com/is/image/aldi/Gallery29?$E134COL-XL$", "brand": "ALDI", "brand:wikidata": "Q41171672", "nsi_id": "aldi-0d26d7"}, "geometry": {"type": "Point", "coordinates": [9.7466243, 45.7371964]}},
{"type": "Feature", "id": "Gi_86TY8m9XyAr5xB3WJQ9CpEng=", "properties": {"ref": "https://www.aldi.it/it/trova-il-punto-vendita/aldi-bergamo/aldi-dalmine.html", "@spider": "aldi_sud_it", "shop": "supermarket", "addr:street_address": "Via Agostino Richelmi, 7B", "addr:city": "Dalmine", "addr:postcode": "24047", "addr:country": "IT", "name": "ALDI Dalmine", "phone": "800 370 370", "website": "https://www.aldi.it/it/trova-il-punto-vendita/aldi-bergamo/aldi-dalmine.html", "opening_hours": "Mo-Sa 08:30-20:30; Su 09:00-20:00", "image": "https://s7g10.scene7.com/is/image/aldi/Gallery29?$E134COL-XL$", "brand": "ALDI", "brand:wikidata": "Q41171672", "nsi_id": "aldi-0d26d7"}, "geometry": {"type": "Point", "coordinates": [9.6177572, 45.6507457]}},
{"type": "Feature", "id": "7Xiv1s11lGYSzEa67fy1GDT1f40=", "properties": {"ref": "https://www.aldi.it/it/trova-il-punto-vendita/aldi-bergamo/aldi-curno.html", "@spider": "aldi_sud_it", "shop": "supermarket", "addr:street_address": "Via Enrico Fermi, 37", "addr:city": "Curno", "addr:postcode": "24035", "addr:country": "IT", "name": "ALDI Curno", "phone": "800 370 370", "website": "https://www.aldi.it/it/trova-il-punto-vendita/aldi-bergamo/aldi-curno.html", "opening_hours": "Mo-Sa 08:00-21:00; Su 09:00-20:00", "image": "https://s7g10.scene7.com/is/image/aldi/Gallery29?$E134COL-XL$", "brand": "ALDI", "brand:wikidata": "Q41171672", "nsi_id": "aldi-0d26d7"}, "geometry": {"type": "Point", "coordinates": [9.6207757, 45.6913132]}},
{"type": "Feature", "id": "TJiZ-GlpKyC4QCuqLOzzPBRa2ak=", "properties": {"ref": "https://www.aldi.it/it/trova-il-punto-vendita/aldi-bergamo/aldi-bergamo-via-corridoni.html", "@spider": "aldi_sud_it", "shop": "supermarket", "addr:street_address": "Via F. Corridoni, 29", "addr:city": "Bergamo", "addr:postcode": "24124", "addr:country": "IT", "name": "ALDI Bergamo", "phone": "800 370 370", "website": "https://www.aldi.it/it/trova-il-punto-vendita/aldi-bergamo/aldi-bergamo-via-corridoni.html", "opening_hours": "Mo-Sa 08:30-21:00; Su 09:00-20:00", "image": "https://s7g10.scene7.com/is/image/aldi/Gallery29?$E134COL-XL$", "brand": "ALDI", "brand:wikidata": "Q41171672", "nsi_id": "aldi-0d26d7"}, "geometry": {"type": "Point", "coordinates": [9.6882909, 45.7067604]}},
{"type": "Feature", "id": "t6eG2fY3tqS3_vyY8CAGbtUfZHM=", "properties": {"ref": "https://www.aldi.it/it/trova-il-punto-vendita/aldi-bergamo/aldi-bergamo-via-xxiv-maggio.html", "@spider": "aldi_sud_it", "shop": "supermarket", "addr:street_address": "Via XXIV Maggio, 52", "addr:city": "Bergamo", "addr:postcode": "24128", "addr:country": "IT", "name": "ALDI Bergamo", "phone": "800 370 370", "website": "https://www.aldi.it/it/trova-il-punto-vendita/aldi-bergamo/aldi-bergamo-via-xxiv-maggio.html", "opening_hours": "Mo-Sa 08:00-21:00; Su 09:00-20:00", "image": "https://s7g10.scene7.com/is/image/aldi/Gallery29?$E134COL-XL$", "brand": "ALDI", "brand:wikidata": "Q41171672", "nsi_id": "aldi-0d26d7"}, "geometry": {"type": "Point", "coordinates": [9.6472669, 45.6940568]}},
{"type": "Feature", "id": "rLkkOb_y3ZvQz1ZuCUKsQ8o5KqE=", "properties": {"ref": "https://www.aldi.it/it/trova-il-punto-vendita/aldi-brescia/aldi-villanuova-sul-clisi.html", "@spider": "aldi_sud_it", "shop": "supermarket", "addr:street_address": "Via Bostone, 36", "addr:city": "Villanuova Sul Clisi", "addr:postcode": "25089", "addr:country": "IT", "name": "ALDI Villanuova Sul Clisi", "phone": "800 370 370", "website": "https://www.aldi.it/it/trova-il-punto-vendita/aldi-brescia/aldi-villanuova-sul-clisi.html", "opening_hours": "Mo-Sa 08:00-21:00; Su 08:30-20:00", "image": "https://s7g10.scene7.com/is/image/aldi/Gallery29?$E134COL-XL$", "brand": "ALDI", "brand:wikidata": "Q41171672", "nsi_id": "aldi-0d26d7"}, "geometry": {"type": "Point", "coordinates": [10.440287, 45.5954132]}},
{"type": "Feature", "id": "0bHfmDLRUjSYXmaO9EzLw3m1mAQ=", "properties": {"ref": "https://www.aldi.it/it/trova-il-punto-vendita/aldi-brescia/aldi-salo.html", "@spider": "aldi_sud_it", "shop": "supermarket", "addr:street_address": "Via Europa, 13", "addr:city": "Sal\u00f2", "addr:postcode": "25087", "addr:country": "IT", "name": "ALDI Sal\u00f2", "phone": "800 370 370", "website": "https://www.aldi.it/it/trova-il-punto-vendita/aldi-brescia/aldi-salo.html", "opening_hours": "Mo-Sa 08:00-21:00; Su 08:30-20:30", "image": "https://s7g10.scene7.com/is/image/aldi/Gallery29?$E134COL-XL$", "brand": "ALDI", "brand:wikidata": "Q41171672", "nsi_id": "aldi-0d26d7"}, "geometry": {"type": "Point", "coordinates": [10.5143684, 45.5872644]}},
{"type": "Feature", "id": "prj1NPtKm8kCIC2vZLBAEgkDk0s=", "properties": {"ref": "https://www.aldi.it/it/trova-il-punto-vendita/aldi-brescia/aldi-pontevico.html", "@spider": "aldi_sud_it", "shop": "supermarket", "addr:street_address": "Via Viscardi, 2/4", "addr:city": "Pontevico", "addr:postcode": "25026", "addr:country": "IT", "name": "ALDI Pontevico", "phone": "800 370 370", "website": "https://www.aldi.it/it/trova-il-punto-vendita/aldi-brescia/aldi-pontevico.html", "opening_hours": "Mo-Sa 08:30-20:30; Su 09:00-20:00", "image": "https://s7g10.scene7.com/is/image/aldi/Gallery29?$E134COL-XL$", "brand": "ALDI", "brand:wikidata": "Q41171672", "nsi_id": "aldi-0d26d7"}, "geometry": {"type": "Point", "coordinates": [10.0925893, 45.2757759]}},
{"type": "Feature", "id": "O5ZfRQKQfb-i2EpwwDyWWdG4vy8=", "properties": {"ref": "https://www.aldi.it/it/trova-il-punto-vendita/aldi-brescia/aldi-moniga-del-garda.html", "@spider": "aldi_sud_it", "shop": "supermarket", "addr:street_address": "Via Pergola, 91", "addr:city": "Moniga del Garda", "addr:postcode": "25080", "addr:country": "IT", "name": "ALDI Moniga del Garda", "phone": "800 370 370", "website": "https://www.aldi.it/it/trova-il-punto-vendita/aldi-brescia/aldi-moniga-del-garda.html", "opening_hours": "Mo-Sa 08:00-21:30; Su 08:30-21:00", "image": "https://s7g10.scene7.com/is/image/aldi/Gallery29?$E134COL-XL$", "brand": "ALDI", "brand:wikidata": "Q41171672", "nsi_id": "aldi-0d26d7"}, "geometry": {"type": "Point", "coordinates": [10.5296771, 45.53686]}},
{"type": "Feature", "id": "mv8pKT7IBieklQP2WSxEImlQeNQ=", "properties": {"ref": "https://www.aldi.it/it/trova-il-punto-vendita/aldi-brescia/aldi-breno.html", "@spider": "aldi_sud_it", "shop": "supermarket", "addr:street_address": "Via Leonardo da Vinci, 31 B", "addr:city": "Breno", "addr:postcode": "25043", "addr:country": "IT", "name": "ALDI Breno", "phone": "800 370 370", "website": "https://www.aldi.it/it/trova-il-punto-vendita/aldi-brescia/aldi-breno.html", "opening_hours": "Mo-Sa 08:00-20:00; Su 09:00-19:30", "image": "https://s7g10.scene7.com/is/image/aldi/Gallery29?$E134COL-XL$", "brand": "ALDI", "brand:wikidata": "Q41171672", "nsi_id": "aldi-0d26d7"}, "geometry": {"type": "Point", "coordinates": [10.3123974, 45.9648971]}},
{"type": "Feature", "id": "cf1x8xzmKyAGXXVz1VbTy0-L5zg=", "properties": {"ref": "https://www.aldi.it/it/trova-il-punto-vendita/aldi-brescia/aldi-bagnolo-mella.html", "@spider": "aldi_sud_it", "shop": "supermarket", "addr:street_address": "Via Lombardia, 1", "addr:city": "Bagnolo Mella", "addr:postcode": "25021", "addr:country": "IT", "name": "ALDI Bagnolo Mella", "phone": "800 370 370", "website": "https://www.aldi.it/it/trova-il-punto-vendita/aldi-brescia/aldi-bagnolo-mella.html", "opening_hours": "Mo-Sa 08:00-21:00; Su 15:00-21:00", "image": "https://s7g10.scene7.com/is/image/aldi/Gallery29?$E134COL-XL$", "brand": "ALDI", "brand:wikidata": "Q41171672", "nsi_id": "aldi-0d26d7"}, "geometry": {"type": "Point", "coordinates": [10.1856033, 45.4278415]}},
{"type": "Feature", "id": "WNF-15uJDVzpChquZM7FyZlAbEQ=", "properties": {"ref": "https://www.aldi.it/it/trova-il-punto-vendita/aldi-brescia/aldi-brescia-via-nicolini.html", "@spider": "aldi_sud_it", "shop": "supermarket", "addr:street_address": "Via Giuseppe Nicolini, 5", "addr:city": "Brescia", "addr:postcode": "25126", "addr:country": "IT", "name": "ALDI Brescia", "phone": "800 370 370", "website": "https://www.aldi.it/it/trova-il-punto-vendita/aldi-brescia/aldi-brescia-via-nicolini.html", "opening_hours": "Mo-Sa 08:30-21:00; Su 08:30-20:00", "image": "https://s7g10.scene7.com/is/image/aldi/Gallery29?$E134COL-XL$", "brand": "ALDI", "brand:wikidata": "Q41171672", "nsi_id": "aldi-0d26d7"}, "geometry": {"type": "Point", "coordinates": [10.1946663, 45.5456733]}},
{"type": "Feature", "id": "uJ44tVqiVEVSvtcle3KcFQOH5NQ=", "properties": {"ref": "https://www.aldi.it/it/trova-il-punto-vendita/aldi-brescia/aldi-brescia-via-triumplina.html", "@spider": "aldi_sud_it", "shop": "supermarket", "addr:street_address": "Via Triumplina, 75", "addr:city": "Brescia", "addr:postcode": "25123", "addr:country": "IT", "name": "ALDI Brescia", "phone": "800 370 370", "website": "https://www.aldi.it/it/trova-il-punto-vendita/aldi-brescia/aldi-brescia-via-triumplina.html", "opening_hours": "Mo-Sa 08:30-21:00; Su 09:00-20:00", "image": "https://s7g10.scene7.com/is/image/aldi/Gallery29?$E134COL-XL$", "brand": "ALDI", "brand:wikidata": "Q41171672", "nsi_id": "aldi-0d26d7"}, "geometry": {"type": "Point", "coordinates": [10.228196, 45.5700922]}},
{"type": "Feature", "id": "_5u61bZG0ne2R2Av96GgUAIJqjw=", "properties": {"ref": "https://www.aldi.it/it/trova-il-punto-vendita/aldi-brescia/aldi-brescia-via-giorgione.html", "@spider": "aldi_sud_it", "shop": "supermarket", "addr:street_address": "Via Giorgione, 7", "addr:city": "Brescia", "addr:postcode": "25124", "addr:country": "IT", "name": "ALDI Brescia", "phone": "800 370 370", "website": "https://www.aldi.it/it/trova-il-punto-vendita/aldi-brescia/aldi-brescia-via-giorgione.html", "opening_hours": "Mo-Sa 08:00-20:00; Su 09:00-20:00", "image": "https://s7g10.scene7.com/is/image/aldi/Gallery29?$E134COL-XL$", "brand": "ALDI", "brand:wikidata": "Q41171672", "nsi_id": "aldi-0d26d7"}, "geometry": {"type": "Point", "coordinates": [10.2489015, 45.5140283]}},
{"type": "Feature", "id": "ymm-T2BZDG48GaJwYYSH3f6lBMM=", "properties": {"ref": "https://www.aldi.it/it/trova-il-punto-vendita/aldi-como/aldi-fino-mornasco.html", "@spider": "aldi_sud_it", "shop": "supermarket", "addr:street_address": "Via Garibaldi, 226", "addr:city": "Fino Mornasco", "addr:postcode": "22073", "addr:country": "IT", "name": "ALDI Fino Mornasco", "phone": "800 370 370", "website": "https://www.aldi.it/it/trova-il-punto-vendita/aldi-como/aldi-fino-mornasco.html", "opening_hours": "Mo-Sa 08:30-20:30; Su 09:00-20:00", "image": "https://s7g10.scene7.com/is/image/aldi/Gallery29?$E134COL-XL$", "brand": "ALDI", "brand:wikidata": "Q41171672", "nsi_id": "aldi-0d26d7"}, "geometry": {"type": "Point", "coordinates": [9.0499619, 45.7571591]}},
{"type": "Feature", "id": "ILLWSBxBWJBngkt76Gur-E1GS7g=", "properties": {"ref": "https://www.aldi.it/it/trova-il-punto-vendita/aldi-como/aldi-cantu.html", "@spider": "aldi_sud_it", "shop": "supermarket", "addr:street_address": "Via Milano, 88", "addr:city": "Cant\u00f9", "addr:postcode": "22063", "addr:country": "IT", "name": "ALDI Cant\u00f9", "phone": "800 370 370", "website": "https://www.aldi.it/it/trova-il-punto-vendita/aldi-como/aldi-cantu.html", "opening_hours": "Mo-Sa 08:30-20:30; Su 09:00-20:00", "image": "https://s7g10.scene7.com/is/image/aldi/Gallery29?$E134COL-XL$", "brand": "ALDI", "brand:wikidata": "Q41171672", "nsi_id": "aldi-0d26d7"}, "geometry": {"type": "Point", "coordinates": [9.1395983, 45.7261521]}},
{"type": "Feature", "id": "18BoqFEMZ5ajzGJCnq9R9mrVoPM=", "properties": {"ref": "https://www.aldi.it/it/trova-il-punto-vendita/aldi-como/aldi-como.html", "@spider": "aldi_sud_it", "shop": "supermarket", "addr:street_address": "Via Pasquale Paoli, 47", "addr:city": "Como", "addr:postcode": "22100", "addr:country": "IT", "name": "ALDI Como", "phone": "800 370 370", "website": "https://www.aldi.it/it/trova-il-punto-vendita/aldi-como/aldi-como.html", "opening_hours": "Mo-Sa 08:30-20:30; Su 09:00-20:00", "image": "https://s7g10.scene7.com/is/image/aldi/Gallery29?$E134COL-XL$", "brand": "ALDI", "brand:wikidata": "Q41171672", "nsi_id": "aldi-0d26d7"}, "geometry": {"type": "Point", "coordinates": [9.0722893, 45.7856722]}},
{"type": "Feature", "id": "P62yCPok4hqgDHOqCqe1aCVctgI=", "properties": {"ref": "https://www.aldi.it/it/trova-il-punto-vendita/aldi-cremona/aldi-casalmaggiore.html", "@spider": "aldi_sud_it", "shop": "supermarket", "addr:street_address": "Via Giulio Galluzzi, 24", "addr:city": "Casalmaggiore", "addr:postcode": "26041", "addr:country": "IT", "name": "ALDI Casalmaggiore", "phone": "800 370 370", "website": "https://www.aldi.it/it/trova-il-punto-vendita/aldi-cremona/aldi-casalmaggiore.html", "opening_hours": "Mo-Sa 08:30-20:30; Su 09:00-20:00", "image": "https://s7g10.scene7.com/is/image/aldi/Gallery29?$E134COL-XL$", "brand": "ALDI", "brand:wikidata": "Q41171672", "nsi_id": "aldi-0d26d7"}, "geometry": {"type": "Point", "coordinates": [10.4280948, 44.9815479]}},
{"type": "Feature", "id": "c3ZaWIDYgtkAlUeypeaQPwkyN-4=", "properties": {"ref": "https://www.aldi.it/it/trova-il-punto-vendita/aldi-cremona/aldi-cremona.html", "@spider": "aldi_sud_it", "shop": "supermarket", "addr:street_address": "Via Cascina Corte, 2", "addr:city": "Cremona", "addr:postcode": "26100", "addr:country": "IT", "name": "ALDI Cremona", "phone": "800 370 370", "website": "https://www.aldi.it/it/trova-il-punto-vendita/aldi-cremona/aldi-cremona.html", "opening_hours": "Mo-Sa 08:30-21:00; Su 09:00-20:00", "image": "https://s7g10.scene7.com/is/image/aldi/Gallery29?$E134COL-XL$", "brand": "ALDI", "brand:wikidata": "Q41171672", "nsi_id": "aldi-0d26d7"}, "geometry": {"type": "Point", "coordinates": [10.0500873, 45.1353612]}},
{"type": "Feature", "id": "Qe76iDaoIdjosCZtdnVhjL6qLyc=", "properties": {"ref": "https://www.aldi.it/it/trova-il-punto-vendita/aldi-lodi/aldi-casalpusterlengo.html", "@spider": "aldi_sud_it", "shop": "supermarket", "addr:street_address": "Via Salvador Allende, 1", "addr:city": "Casalpusterlengo", "addr:postcode": "26841", "addr:country": "IT", "name": "ALDI Casalpusterlengo", "phone": "800 370 370", "website": "https://www.aldi.it/it/trova-il-punto-vendita/aldi-lodi/aldi-casalpusterlengo.html", "opening_hours": "Mo-Sa 08:30-20:30; Su 09:00-20:00", "image": "https://s7g10.scene7.com/is/image/aldi/Gallery29?$E134COL-XL$", "brand": "ALDI", "brand:wikidata": "Q41171672", "nsi_id": "aldi-0d26d7"}, "geometry": {"type": "Point", "coordinates": [9.6570104, 45.1734468]}},
{"type": "Feature", "id": "UH86lNo-Ywvh3Xa-O5SdsbTEii4=", "properties": {"ref": "https://www.aldi.it/it/trova-il-punto-vendita/aldi-monza-brianza/aldi-verano-brianza.html", "@spider": "aldi_sud_it", "shop": "supermarket", "addr:street_address": "Via Comasina", "addr:city": "Verano Brianza", "addr:postcode": "20843", "addr:country": "IT", "name": "ALDI Verano Brianza", "phone": "800 370 370", "website": "https://www.aldi.it/it/trova-il-punto-vendita/aldi-monza-brianza/aldi-verano-brianza.html", "opening_hours": "Mo-Sa 08:30-21:00; Su 09:00-20:00", "image": "https://s7g10.scene7.com/is/image/aldi/Gallery29?$E134COL-XL$", "brand": "ALDI", "brand:wikidata": "Q41171672", "nsi_id": "aldi-0d26d7"}, "geometry": {"type": "Point", "coordinates": [9.2236637, 45.6850341]}},
{"type": "Feature", "id": "bPDQQRJmMu5UGHlj6UacCOy4vxk=", "properties": {"ref": "https://www.aldi.it/it/trova-il-punto-vendita/aldi-lecco/aldi-lecco.html", "@spider": "aldi_sud_it", "shop": "supermarket", "addr:street_address": "Corso Carlo Alberto, 120", "addr:city": "Lecco", "addr:postcode": "23900", "addr:country": "IT", "name": "ALDI Lecco", "phone": "800 370 370", "website": "https://www.aldi.it/it/trova-il-punto-vendita/aldi-lecco/aldi-lecco.html", "opening_hours": "Mo-Sa 08:30-20:30; Su 09:00-20:00", "image": "https://s7g10.scene7.com/is/image/aldi/Gallery29?$E134COL-XL$", "brand": "ALDI", "brand:wikidata": "Q41171672", "nsi_id": "aldi-0d26d7"}, "geometry": {"type": "Point", "coordinates": [9.406571, 45.8407105]}},
{"type": "Feature", "id": "GyGmqndQLjSa2lUVMuAD4WQoopc=", "properties": {"ref": "https://www.aldi.it/it/trova-il-punto-vendita/aldi-monza-brianza/aldi-concorezzo.html", "@spider": "aldi_sud_it", "shop": "supermarket", "addr:street_address": "Via Monza, 2", "addr:city": "Concorezzo", "addr:postcode": "20863", "addr:country": "IT", "name": "ALDI Concorezzo", "phone": "800 370 370", "website": "https://www.aldi.it/it/trova-il-punto-vendita/aldi-monza-brianza/aldi-concorezzo.html", "opening_hours": "Mo-Sa 08:00-21:00; Su 08:00-20:00", "image": "https://s7g10.scene7.com/is/image/aldi/Gallery29?$E134COL-XL$", "brand": "ALDI", "brand:wikidata": "Q41171672", "nsi_id": "aldi-0d26d7"}, "geometry": {"type": "Point", "coordinates": [9.32792, 45.5901162]}},
{"type": "Feature", "id": "Y0qlaZIyWOScsRYRcbLhrWHlyws=", "properties": {"ref": "https://www.aldi.it/it/trova-il-punto-vendita/aldi-monza-brianza/aldi-caponago.html", "@spider": "aldi_sud_it", "shop": "supermarket", "addr:street_address": "Viale Monza", "addr:city": "Caponago", "addr:postcode": "20867", "addr:country": "IT", "name": "ALDI Caponago", "phone": "800 370 370", "website": "https://www.aldi.it/it/trova-il-punto-vendita/aldi-monza-brianza/aldi-caponago.html", "opening_hours": "Mo-Sa 08:30-21:00; Su 09:00-20:00", "image": "https://s7g10.scene7.com/is/image/aldi/Gallery29?$E134COL-XL$", "brand": "ALDI", "brand:wikidata": "Q41171672", "nsi_id": "aldi-0d26d7"}, "geometry": {"type": "Point", "coordinates": [9.5680838, 45.5680838]}},
{"type": "Feature", "id": "By66LR1cHVDjE-Aa7dsUxqvCezY=", "properties": {"ref": "https://www.aldi.it/it/trova-il-punto-vendita/aldi-monza-brianza/aldi-busnago.html", "@spider": "aldi_sud_it", "shop": "supermarket", "addr:street_address": "Via Italia, 209", "addr:city": "Busnago", "addr:postcode": "20874", "addr:country": "IT", "name": "ALDI Busnago", "phone": "800 370 370", "website": "https://www.aldi.it/it/trova-il-punto-vendita/aldi-monza-brianza/aldi-busnago.html", "opening_hours": "Mo-Sa 08:30-21:00; Su 09:00-20:00", "image": "https://s7g10.scene7.com/is/image/aldi/Gallery29?$E134COL-XL$", "brand": "ALDI", "brand:wikidata": "Q41171672", "nsi_id": "aldi-0d26d7"}, "geometry": {"type": "Point", "coordinates": [9.4761254, 45.619462]}},
{"type": "Feature", "id": "fHXcxnbT91BWK3MMMjWJCuqg2Ik=", "properties": {"ref": "https://www.aldi.it/it/trova-il-punto-vendita/aldi-monza-brianza/aldi-arcore.html", "@spider": "aldi_sud_it", "shop": "supermarket", "addr:street_address": "Via F. Gilera, 192", "addr:city": "Arcore", "addr:postcode": "20862", "addr:country": "IT", "name": "ALDI Arcore", "phone": "800 370 370", "website": "https://www.aldi.it/it/trova-il-punto-vendita/aldi-monza-brianza/aldi-arcore.html", "opening_hours": "Mo-Sa 08:00-21:00; Su 08:00-20:00", "image": "https://s7g10.scene7.com/is/image/aldi/Gallery29?$E134COL-XL$", "brand": "ALDI", "brand:wikidata": "Q41171672", "nsi_id": "aldi-0d26d7"}, "geometry": {"type": "Point", "coordinates": [9.3368921, 45.6363773]}},
{"type": "Feature", "id": "9G_ecLvZvWxFUY82tu4b2w3utHM=", "properties": {"ref": "https://www.aldi.it/it/trova-il-punto-vendita/aldi-monza-brianza/aldi-monza.html", "@spider": "aldi_sud_it", "shop": "supermarket", "addr:street_address": "Viale Lombardia, 96a", "addr:city": "Monza", "addr:postcode": "20900", "addr:country": "IT", "name": "ALDI Monza", "phone": "800 370 370", "website": "https://www.aldi.it/it/trova-il-punto-vendita/aldi-monza-brianza/aldi-monza.html", "opening_hours": "Mo-Sa 08:00-21:00; Su 08:30-20:30", "image": "https://s7g10.scene7.com/is/image/aldi/Gallery29?$E134COL-XL$", "brand": "ALDI", "brand:wikidata": "Q41171672", "nsi_id": "aldi-0d26d7"}, "geometry": {"type": "Point", "coordinates": [9.2466206, 45.5804394]}},
{"type": "Feature", "id": "qgPfLIS2YFudy2HnRfd-EUjds_w=", "properties": {"ref": "https://www.aldi.it/it/trova-il-punto-vendita/aldi-milano/aldi-pogliano-milanese.html", "@spider": "aldi_sud_it", "shop": "supermarket", "addr:street_address": "Via Torquato Tasso, 1", "addr:city": "Pogliano Milanese", "addr:postcode": "20010", "addr:country": "IT", "name": "ALDI Pogliano Milanese", "phone": "800 370 370", "website": "https://www.aldi.it/it/trova-il-punto-vendita/aldi-milano/aldi-pogliano-milanese.html", "opening_hours": "Mo-Sa 08:00-20:30; Su 09:00-20:00", "image": "https://s7g10.scene7.com/is/image/aldi/Gallery29?$E134COL-XL$", "brand": "ALDI", "brand:wikidata": "Q41171672", "nsi_id": "aldi-0d26d7"}, "geometry": {"type": "Point", "coordinates": [9.0093535, 45.5428777]}},
{"type": "Feature", "id": "mGbh2R_PvmuujYlVH_vMAtxrzr0=", "properties": {"ref": "https://www.aldi.it/it/trova-il-punto-vendita/aldi-milano/aldi-segrate.html", "@spider": "aldi_sud_it", "shop": "supermarket", "addr:street_address": "Via Cassanese", "addr:city": "Segrate", "addr:postcode": "20090", "addr:country": "IT", "name": "ALDI Segrate", "phone": "800 370 370", "website": "https://www.aldi.it/it/trova-il-punto-vendita/aldi-milano/aldi-segrate.html", "opening_hours": "Mo-Sa 08:30-21:00; Su 09:00-20:30", "image": "https://s7g10.scene7.com/is/image/aldi/Gallery29?$E134COL-XL$", "brand": "ALDI", "brand:wikidata": "Q41171672", "nsi_id": "aldi-0d26d7"}, "geometry": {"type": "Point", "coordinates": [9.4905029, 45.4905029]}},
{"type": "Feature", "id": "jauB5feZMHdB93pla769DvBuGX8=", "properties": {"ref": "https://www.aldi.it/it/trova-il-punto-vendita/aldi-milano/aldi-san-giuliano-milanese.html", "@spider": "aldi_sud_it", "shop": "supermarket", "addr:street_address": "Via della Pace, 26", "addr:city": "San Giuliano Milanese", "addr:postcode": "20098", "addr:country": "IT", "name": "ALDI San Giuliano Milanese", "phone": "800 370 370", "website": "https://www.aldi.it/it/trova-il-punto-vendita/aldi-milano/aldi-san-giuliano-milanese.html", "opening_hours": "Mo-Sa 09:00-20:00; Su 09:00-21:00", "image": "https://s7g10.scene7.com/is/image/aldi/Gallery29?$E134COL-XL$", "brand": "ALDI", "brand:wikidata": "Q41171672", "nsi_id": "aldi-0d26d7"}, "geometry": {"type": "Point", "coordinates": [9.3040098, 45.380074]}},
{"type": "Feature", "id": "udHFabFToG_Pa0Tl5KYvObB1Am4=", "properties": {"ref": "https://www.aldi.it/it/trova-il-punto-vendita/aldi-milano/aldi-pioltello.html", "@spider": "aldi_sud_it", "shop": "supermarket", "addr:street_address": "Via Piemonte, 25", "addr:city": "Pioltello", "addr:postcode": "20096", "addr:country": "IT", "name": "ALDI Pioltello", "phone": "800 370 370", "website": "https://www.aldi.it/it/trova-il-punto-vendita/aldi-milano/aldi-pioltello.html", "opening_hours": "Mo-Sa 08:00-21:00; Su 09:00-20:00", "image": "https://s7g10.scene7.com/is/image/aldi/Gallery29?$E134COL-XL$", "brand": "ALDI", "brand:wikidata": "Q41171672", "nsi_id": "aldi-0d26d7"}, "geometry": {"type": "Point", "coordinates": [9.3308635, 45.4888836]}},
{"type": "Feature", "id": "uOPya3-qiwSEDdgHVjxbASzQdB8=", "properties": {"ref": "https://www.aldi.it/it/trova-il-punto-vendita/aldi-milano/aldi-magenta.html", "@spider": "aldi_sud_it", "shop": "supermarket", "addr:street_address": "Str. Padana Est, 28", "addr:city": "Magenta", "addr:postcode": "20013", "addr:country": "IT", "name": "ALDI Magenta", "phone": "800 370 370", "website": "https://www.aldi.it/it/trova-il-punto-vendita/aldi-milano/aldi-magenta.html", "opening_hours": "Mo-Sa 08:30-20:30; Su 09:00-20:00", "image": "https://s7g10.scene7.com/is/image/aldi/Gallery29?$E134COL-XL$", "brand": "ALDI", "brand:wikidata": "Q41171672", "nsi_id": "aldi-0d26d7"}, "geometry": {"type": "Point", "coordinates": [8.9028889, 45.4703175]}},
{"type": "Feature", "id": "X6u2cT23yX7slpGncTWmqIyN-YY=", "properties": {"ref": "https://www.aldi.it/it/trova-il-punto-vendita/aldi-milano/aldi-milano-via-valtellina.html", "@spider": "aldi_sud_it", "shop": "supermarket", "addr:street_address": "Via Valtellina, 29", "addr:city": "Milano", "addr:postcode": "20159", "addr:country": "IT", "name": "ALDI Milano", "phone": "800 370 370", "website": "https://www.aldi.it/it/trova-il-punto-vendita/aldi-milano/aldi-milano-via-valtellina.html", "opening_hours": "Mo-Sa 08:00-21:00; Su 09:00-20:00", "image": "https://s7g10.scene7.com/is/image/aldi/Gallery29?$E134COL-XL$", "brand": "ALDI", "brand:wikidata": "Q41171672", "nsi_id": "aldi-0d26d7"}, "geometry": {"type": "Point", "coordinates": [9.180596, 45.4950093]}},
{"type": "Feature", "id": "t39mjNvAT2Hd2IxW0ZBbCn7bSYw=", "properties": {"ref": "https://www.aldi.it/it/trova-il-punto-vendita/aldi-milano/aldi-milano-via-galvani.html", "@spider": "aldi_sud_it", "shop": "supermarket", "addr:street_address": "Via Luigi Galvani, 12", "addr:city": "Milano", "addr:postcode": "20124", "addr:country": "IT", "name": "ALDI Milano", "phone": "800 370 370", "website": "https://www.aldi.it/it/trova-il-punto-vendita/aldi-milano/aldi-milano-via-galvani.html", "opening_hours": "Mo-Sa 08:00-21:00; Su 09:00-21:00", "image": "https://s7g10.scene7.com/is/image/aldi/Gallery29?$E134COL-XL$", "brand": "ALDI", "brand:wikidata": "Q41171672", "nsi_id": "aldi-0d26d7"}, "geometry": {"type": "Point", "coordinates": [9.198192, 45.4860598]}},
{"type": "Feature", "id": "9FLzB5WdnV9SpOpzbgj7oaSwqp4=", "properties": {"ref": "https://www.aldi.it/it/trova-il-punto-vendita/aldi-milano/aldi-milano-viale-molise.html", "@spider": "aldi_sud_it", "shop": "supermarket", "addr:street_address": "Viale Molise, 56", "addr:city": "Milano", "addr:postcode": "20137", "addr:country": "IT", "name": "ALDI Milano", "phone": "800 370 370", "website": "https://www.aldi.it/it/trova-il-punto-vendita/aldi-milano/aldi-milano-viale-molise.html", "opening_hours": "Mo-Sa 08:00-21:00; Su 08:30-20:30", "image": "https://s7g10.scene7.com/is/image/aldi/Gallery29?$E134COL-XL$", "brand": "ALDI", "brand:wikidata": "Q41171672", "nsi_id": "aldi-0d26d7"}, "geometry": {"type": "Point", "coordinates": [9.1519339, 45.4517829]}},
{"type": "Feature", "id": "gyQafxE4AGiIUdONS3DPPVm8SPo=", "properties": {"ref": "https://www.aldi.it/it/trova-il-punto-vendita/aldi-milano/aldi-milano-viale-troya.html", "@spider": "aldi_sud_it", "shop": "supermarket", "addr:street_address": "Viale Carlo Troya, 6/A", "addr:city": "Milano", "addr:postcode": "20144", "addr:country": "IT", "name": "ALDI Milano", "phone": "800 370 370", "website": "https://www.aldi.it/it/trova-il-punto-vendita/aldi-milano/aldi-milano-viale-troya.html", "opening_hours": "Mo-Sa 08:00-21:00; Su 09:00-21:00", "image": "https://s7g10.scene7.com/is/image/aldi/Gallery29?$E134COL-XL$", "brand": "ALDI", "brand:wikidata": "Q41171672", "nsi_id": "aldi-0d26d7"}, "geometry": {"type": "Point", "coordinates": [9.1519339, 45.4517829]}},
{"type": "Feature", "id": "gyPWVq34msAZEOFwNf1PITf4HWg=", "properties": {"ref": "https://www.aldi.it/it/trova-il-punto-vendita/aldi-varese/aldi-somma-lombardo.html", "@spider": "aldi_sud_it", "shop": "supermarket", "addr:street_address": "Via Milano, 148", "addr:city": "Somma Lombardo", "addr:postcode": "21019", "addr:country": "IT", "name": "ALDI Somma Lombardo", "phone": "800 370 370", "website": "https://www.aldi.it/it/trova-il-punto-vendita/aldi-varese/aldi-somma-lombardo.html", "opening_hours": "Mo-Sa 08:00-21:00; Su 08:30-20:00", "image": "https://s7g10.scene7.com/is/image/aldi/Gallery29?$E134COL-XL$", "brand": "ALDI", "brand:wikidata": "Q41171672", "nsi_id": "aldi-0d26d7"}, "geometry": {"type": "Point", "coordinates": [8.7214403, 45.6789593]}},
{"type": "Feature", "id": "KTF75WtrWmjhyLoue1ZdUgPhDw4=", "properties": {"ref": "https://www.aldi.it/it/trova-il-punto-vendita/aldi-varese/aldi-saronno.html", "@spider": "aldi_sud_it", "shop": "supermarket", "addr:street_address": "Via Varese, 21", "addr:city": "Saronno", "addr:postcode": "21047", "addr:country": "IT", "name": "ALDI Saronno", "phone": "800 370 370", "website": "https://www.aldi.it/it/trova-il-punto-vendita/aldi-varese/aldi-saronno.html", "opening_hours": "Mo-Sa 08:30-21:00; Su 09:00-20:00", "image": "https://s7g10.scene7.com/is/image/aldi/Gallery29?$E134COL-XL$", "brand": "ALDI", "brand:wikidata": "Q41171672", "nsi_id": "aldi-0d26d7"}, "geometry": {"type": "Point", "coordinates": [9.0270552, 45.6215275]}},
{"type": "Feature", "id": "cGWEWB9bpy82C094804vcYjSU1w=", "properties": {"ref": "https://www.aldi.it/it/trova-il-punto-vendita/aldi-varese/aldi-castellanza.html", "@spider": "aldi_sud_it", "shop": "supermarket", "addr:street_address": "Viale Don G. Minzoni, 1", "addr:city": "Castellanza", "addr:postcode": "21053", "addr:country": "IT", "name": "ALDI Castellanza", "phone": "800 370 370", "website": "https://www.aldi.it/it/trova-il-punto-vendita/aldi-varese/aldi-castellanza.html", "opening_hours": "Mo-Sa 08:30-20:30; Su 09:00-20:00", "image": "https://s7g10.scene7.com/is/image/aldi/Gallery29?$E134COL-XL$", "brand": "ALDI", "brand:wikidata": "Q41171672", "nsi_id": "aldi-0d26d7"}, "geometry": {"type": "Point", "coordinates": [8.883767, 45.6143519]}},
{"type": "Feature", "id": "vgYGWDTgZvzZffZbQGrJjQTEfwY=", "properties": {"ref": "https://www.aldi.it/it/trova-il-punto-vendita/aldi-trento/aldi-rovereto-via-del-brennero.html", "@spider": "aldi_sud_it", "shop": "supermarket", "addr:street_address": "Via del Brennero, 35", "addr:city": "Rovereto", "addr:postcode": "38068", "addr:country": "IT", "name": "ALDI Rovereto Via del Brennero", "phone": "800 370 370", "website": "https://www.aldi.it/it/trova-il-punto-vendita/aldi-trento/aldi-rovereto-via-del-brennero.html", "opening_hours": "Mo-Fr 08:30-21:00; Sa 08:30-20:30; Su 08:30-20:00", "image": "https://s7g10.scene7.com/is/image/aldi/Gallery29?$E134COL-XL$", "brand": "ALDI", "brand:wikidata": "Q41171672", "nsi_id": "aldi-0d26d7"}, "geometry": {"type": "Point", "coordinates": [11.034272, 45.9054696]}},
{"type": "Feature", "id": "hmDMRI4QKMMumSlzAeHP76Ttw6M=", "properties": {"ref": "https://www.aldi.it/it/trova-il-punto-vendita/aldi-trento/aldi-cles.html", "@spider": "aldi_sud_it", "shop": "supermarket", "addr:street_address": "Via Trento, 91/2", "addr:city": "Cles", "addr:postcode": "38023", "addr:country": "IT", "name": "ALDI Cles", "phone": "800 370 370", "website": "https://www.aldi.it/it/trova-il-punto-vendita/aldi-trento/aldi-cles.html", "opening_hours": "Mo-Sa 08:00-20:00; Su 09:00-19:00", "image": "https://s7g10.scene7.com/is/image/aldi/Gallery29?$E134COL-XL$", "brand": "ALDI", "brand:wikidata": "Q41171672", "nsi_id": "aldi-0d26d7"}, "geometry": {"type": "Point", "coordinates": [11.0356057, 46.3571631]}},
{"type": "Feature", "id": "2XEgRwXh4uDag3PV7LRg1yiLoyw=", "properties": {"ref": "https://www.aldi.it/it/trova-il-punto-vendita/aldi-trento/aldi-borgo-valsugana.html", "@spider": "aldi_sud_it", "shop": "supermarket", "addr:street_address": "Corso Vicenza, 68", "addr:city": "Borgo Valsugana", "addr:postcode": "38051", "addr:country": "IT", "name": "ALDI Borgo Valsugana", "phone": "800 370 370", "website": "https://www.aldi.it/it/trova-il-punto-vendita/aldi-trento/aldi-borgo-valsugana.html", "opening_hours": "Mo-Sa 08:30-20:30; Su 09:00-20:00", "image": "https://s7g10.scene7.com/is/image/aldi/Gallery29?$E134COL-XL$", "brand": "ALDI", "brand:wikidata": "Q41171672", "nsi_id": "aldi-0d26d7"}, "geometry": {"type": "Point", "coordinates": [11.4703732, 46.0543761]}},
{"type": "Feature", "id": "GpD36aqMMfjMQfommHJ7_BwRFKw=", "properties": {"ref": "https://www.aldi.it/it/trova-il-punto-vendita/aldi-trento/aldi-rovereto-via-del-garda.html", "@spider": "aldi_sud_it", "shop": "supermarket", "addr:street_address": "Via del Garda, 42", "addr:city": "Rovereto", "addr:postcode": "38068", "addr:country": "IT", "name": "ALDI Rovereto", "phone": "800 370 370", "website": "https://www.aldi.it/it/trova-il-punto-vendita/aldi-trento/aldi-rovereto-via-del-garda.html", "opening_hours": "Mo-Fr 08:30-21:00; Sa 08:30-20:30; Su 08:30-20:00", "image": "https://s7g10.scene7.com/is/image/aldi/Gallery29?$E134COL-XL$", "brand": "ALDI", "brand:wikidata": "Q41171672", "nsi_id": "aldi-0d26d7"}, "geometry": {"type": "Point", "coordinates": [11.0123944, 45.8686075]}},
{"type": "Feature", "id": "wSKKD-uZLiBK7w43eIvSaGAx1Ww=", "properties": {"ref": "https://www.aldi.it/it/trova-il-punto-vendita/aldi-trento/aldi-arco.html", "@spider": "aldi_sud_it", "shop": "supermarket", "addr:street_address": "Via S. Caterina, 100", "addr:city": "Arco", "addr:postcode": "38066", "addr:country": "IT", "name": "ALDI Arco", "phone": "800 370 370", "website": "https://www.aldi.it/it/trova-il-punto-vendita/aldi-trento/aldi-arco.html", "opening_hours": "Mo-Sa 08:30-21:00; Su 09:00-20:00", "image": "https://s7g10.scene7.com/is/image/aldi/Gallery29?$E134COL-XL$", "brand": "ALDI", "brand:wikidata": "Q41171672", "nsi_id": "aldi-0d26d7"}, "geometry": {"type": "Point", "coordinates": [10.8650689, 45.9078514]}},
{"type": "Feature", "id": "qX7OmaX6GaIOed9xIxq1_JHLvCo=", "properties": {"ref": "https://www.aldi.it/it/trova-il-punto-vendita/aldi-trento/aldi-trento-corso-3-novembre.html", "@spider": "aldi_sud_it", "shop": "supermarket", "addr:street_address": "Corso 3 Novembre 1918, 59", "addr:city": "Trento", "addr:postcode": "38122", "addr:country": "IT", "name": "ALDI Trento", "phone": "800 370 370", "website": "https://www.aldi.it/it/trova-il-punto-vendita/aldi-trento/aldi-trento-corso-3-novembre.html", "opening_hours": "Mo-Sa 08:30-21:00; Su 09:00-20:00", "image": "https://s7g10.scene7.com/is/image/aldi/Gallery29?$E134COL-XL$", "brand": "ALDI", "brand:wikidata": "Q41171672", "nsi_id": "aldi-0d26d7"}, "geometry": {"type": "Point", "coordinates": [11.1258038, 46.0605933]}},
{"type": "Feature", "id": "6JX6W79zKTXjuRdLMu-2_j3VcSU=", "properties": {"ref": "https://www.aldi.it/it/trova-il-punto-vendita/aldi-trento/aldi-trento-via-del-brennero.html", "@spider": "aldi_sud_it", "shop": "supermarket", "addr:street_address": "Via del Brennero, 111", "addr:city": "Trento", "addr:postcode": "38121", "addr:country": "IT", "name": "ALDI Trento", "phone": "800 370 370", "website": "https://www.aldi.it/it/trova-il-punto-vendita/aldi-trento/aldi-trento-via-del-brennero.html", "opening_hours": "Mo-Sa 08:30-21:00; Su 09:00-20:00", "image": "https://s7g10.scene7.com/is/image/aldi/Gallery29?$E134COL-XL$", "brand": "ALDI", "brand:wikidata": "Q41171672", "nsi_id": "aldi-0d26d7"}, "geometry": {"type": "Point", "coordinates": [11.1152627, 46.0858858]}},
{"type": "Feature", "id": "o6zAvtP7VZIEYtCooTbbNwx3JE8=", "properties": {"ref": "https://www.aldi.it/it/trova-il-punto-vendita/aldi-bolzano/aldi-merano.html", "@spider": "aldi_sud_it", "shop": "supermarket", "addr:street_address": "Via degli Alpini, 25", "addr:city": "Merano", "addr:postcode": "39012", "addr:country": "IT", "name": "ALDI Merano", "phone": "800 370 370", "website": "https://www.aldi.it/it/trova-il-punto-vendita/aldi-bolzano/aldi-merano.html", "opening_hours": "Mo-Sa 08:30-20:30; Su 09:00-19:00", "image": "https://s7g10.scene7.com/is/image/aldi/Gallery29?$E134COL-XL$", "brand": "ALDI", "brand:wikidata": "Q41171672", "nsi_id": "aldi-0d26d7"}, "geometry": {"type": "Point", "coordinates": [11.1518755, 46.6724946]}},
{"type": "Feature", "id": "Wzp9TgWkkDC4UXKmc-u1xCXWr9U=", "properties": {"ref": "https://www.aldi.it/it/trova-il-punto-vendita/aldi-bolzano/aldi-brunico.html", "@spider": "aldi_sud_it", "shop": "supermarket", "addr:street_address": "Via S. Lorenzo, 23", "addr:city": "Brunico", "addr:postcode": "39031", "addr:country": "IT", "name": "ALDI Brunico", "phone": "800 370 370", "website": "https://www.aldi.it/it/trova-il-punto-vendita/aldi-bolzano/aldi-brunico.html", "opening_hours": "Mo-Fr 07:30-20:30; Sa-Su 08:30-19:00", "image": "https://s7g10.scene7.com/is/image/aldi/Gallery29?$E134COL-XL$", "brand": "ALDI", "brand:wikidata": "Q41171672", "nsi_id": "aldi-0d26d7"}, "geometry": {"type": "Point", "coordinates": [11.930005, 46.7921864]}},
{"type": "Feature", "id": "hnnQJgRaJ6AV2hfmNplet55Nk40=", "properties": {"ref": "https://www.aldi.it/it/trova-il-punto-vendita/aldi-bolzano/aldi-bolzano-via-carlo-giulini.html", "@spider": "aldi_sud_it", "shop": "supermarket", "addr:street_address": "Via Carlo Maria Giulini, 2", "addr:city": "Bolzano", "addr:postcode": "39100", "addr:country": "IT", "name": "ALDI Bolzano", "phone": "800 370 370", "website": "https://www.aldi.it/it/trova-il-punto-vendita/aldi-bolzano/aldi-bolzano-via-carlo-giulini.html", "opening_hours": "Mo-Sa 08:00-21:00; Su 08:30-19:00", "image": "https://s7g10.scene7.com/is/image/aldi/Gallery29?$E134COL-XL$", "brand": "ALDI", "brand:wikidata": "Q41171672", "nsi_id": "aldi-0d26d7"}, "geometry": {"type": "Point", "coordinates": [11.312013, 46.4942]}},
{"type": "Feature", "id": "khSYmiYIcF3ErZTEUyeb31YejsA=", "properties": {"ref": "https://www.aldi.it/it/trova-il-punto-vendita/aldi-bolzano/aldi-bolzano-corso-della-liberta.html", "@spider": "aldi_sud_it", "shop": "supermarket", "addr:street_address": "Corso della Libert\u00e0, 25", "addr:city": "Bolzano", "addr:postcode": "39100", "addr:country": "IT", "name": "ALDI Bolzano", "phone": "800 370 370", "website": "https://www.aldi.it/it/trova-il-punto-vendita/aldi-bolzano/aldi-bolzano-corso-della-liberta.html", "opening_hours": "Mo-Sa 08:00-21:00; Su 08:30-19:00", "image": "https://s7g10.scene7.com/is/image/aldi/Gallery29?$E134COL-XL$", "brand": "ALDI", "brand:wikidata": "Q41171672", "nsi_id": "aldi-0d26d7"}, "geometry": {"type": "Point", "coordinates": [11.3414702, 46.5010747]}},
{"type": "Feature", "id": "R6PL-CGj20YvieA4nVSEqrKdv5M=", "properties": {"ref": "https://www.aldi.it/it/trova-il-punto-vendita/aldi-bologna/aldi-zola-predosa.html", "@spider": "aldi_sud_it", "shop": "supermarket", "addr:street_address": "Via Roma, 30/A", "addr:city": "Zola Predosa", "addr:postcode": "40069", "addr:country": "IT", "name": "ALDI Zola Predosa", "phone": "800 370 370", "website": "https://www.aldi.it/it/trova-il-punto-vendita/aldi-bologna/aldi-zola-predosa.html", "opening_hours": "Mo-Sa 08:00-21:00; Su 08:30-20:30", "image": "https://s7g10.scene7.com/is/image/aldi/Gallery29?$E134COL-XL$", "brand": "ALDI", "brand:wikidata": "Q41171672", "nsi_id": "aldi-0d26d7"}, "geometry": {"type": "Point", "coordinates": [11.228262, 44.49148]}},
{"type": "Feature", "id": "QiAaMMW0hIbZv8Vh3-LpeEOFKWk=", "properties": {"ref": "https://www.aldi.it/it/trova-il-punto-vendita/aldi-bologna/aldi-san-lazzaro-di-savena.html", "@spider": "aldi_sud_it", "shop": "supermarket", "addr:street_address": "Via Emilia 265", "addr:city": "San Lazzaro di Savena", "addr:postcode": "40068", "addr:country": "IT", "name": "ALDI San Lazzaro di Savena", "phone": "800 370 370", "website": "https://www.aldi.it/it/trova-il-punto-vendita/aldi-bologna/aldi-san-lazzaro-di-savena.html", "opening_hours": "Mo-Sa 08:30-20:30; Su 09:00-20:00", "image": "https://s7g10.scene7.com/is/image/aldi/Gallery29?$E134COL-XL$", "brand": "ALDI", "brand:wikidata": "Q41171672", "nsi_id": "aldi-0d26d7"}, "geometry": {"type": "Point", "coordinates": [11.424413, 44.465603]}},
{"type": "Feature", "id": "x6xSNOopXdug-8xWN-2K8XZFA7o=", "properties": {"ref": "https://www.aldi.it/it/trova-il-punto-vendita/aldi-bologna/aldi-imola.html", "@spider": "aldi_sud_it", "shop": "supermarket", "addr:street_address": "Via Selice Provinciale, 13/A, 40026 Imola BO", "addr:city": "Imola", "addr:postcode": "40026", "addr:country": "IT", "name": "ALDI Imola", "phone": "800 370 370", "website": "https://www.aldi.it/it/trova-il-punto-vendita/aldi-bologna/aldi-imola.html", "opening_hours": "Mo-Sa 08:30-20:30; Su 09:00-20:00", "image": "https://s7g10.scene7.com/is/image/aldi/Gallery29?$E134COL-XL$", "brand": "ALDI", "brand:wikidata": "Q41171672", "nsi_id": "aldi-0d26d7"}, "geometry": {"type": "Point", "coordinates": [11.7237422, 44.3653457]}},
{"type": "Feature", "id": "Pps4m3WO10ZlZs6bd36EkpqhR1A=", "properties": {"ref": "https://www.aldi.it/it/trova-il-punto-vendita/aldi-bologna/aldi-bologna-via-montebello.html", "@spider": "aldi_sud_it", "shop": "supermarket", "addr:street_address": "Via della Montebello, 2", "addr:city": "Bologna", "addr:postcode": "40121", "addr:country": "IT", "name": "ALDI Bologna", "phone": "800 370 370", "website": "https://www.aldi.it/it/trova-il-punto-vendita/aldi-bologna/aldi-bologna-via-montebello.html", "opening_hours": "Mo-Sa 08:00-21:00; Su 09:00-21:00", "image": "https://s7g10.scene7.com/is/image/aldi/Gallery29?$E134COL-XL$", "brand": "ALDI", "brand:wikidata": "Q41171672", "nsi_id": "aldi-0d26d7"}, "geometry": {"type": "Point", "coordinates": [11.339686, 44.5013359]}},
{"type": "Feature", "id": "8JWe26y93BVEC_FA_YrUBO-qFm8=", "properties": {"ref": "https://www.aldi.it/it/trova-il-punto-vendita/aldi-bologna/aldi-bologna-via-della-liberazione.html", "@spider": "aldi_sud_it", "shop": "supermarket", "addr:street_address": "Via della Liberazione, 15", "addr:city": "Bologna", "addr:postcode": "40128", "addr:country": "IT", "name": "ALDI Bologna", "phone": "800 370 370", "website": "https://www.aldi.it/it/trova-il-punto-vendita/aldi-bologna/aldi-bologna-via-della-liberazione.html", "opening_hours": "Mo-Sa 08:00-21:30; Su 08:30-21:00", "image": "https://s7g10.scene7.com/is/image/aldi/Gallery29?$E134COL-XL$", "brand": "ALDI", "brand:wikidata": "Q41171672", "nsi_id": "aldi-0d26d7"}, "geometry": {"type": "Point", "coordinates": [11.3524728, 44.5117755]}},
{"type": "Feature", "id": "UGjUQJ_sxpxi-wn-0inygxood1k=", "properties": {"ref": "https://www.aldi.it/it/trova-il-punto-vendita/aldi-bologna/aldi-bologna-via-fava.html", "@spider": "aldi_sud_it", "shop": "supermarket", "addr:street_address": "Via Renato Fava, 10", "addr:city": "Bologna", "addr:postcode": "40132", "addr:country": "IT", "name": "ALDI Bologna", "phone": "800 370 370", "website": "https://www.aldi.it/it/trova-il-punto-vendita/aldi-bologna/aldi-bologna-via-fava.html", "opening_hours": "Mo-Sa 08:30-20:30; Su 09:00-20:00", "image": "https://s7g10.scene7.com/is/image/aldi/Gallery29?$E134COL-XL$", "brand": "ALDI", "brand:wikidata": "Q41171672", "nsi_id": "aldi-0d26d7"}, "geometry": {"type": "Point", "coordinates": [11.2917466, 44.5164841]}},
{"type": "Feature", "id": "A3-wfjJh4SDuxGP_Xfh5WJTjEM0=", "properties": {"ref": "https://www.aldi.it/it/trova-il-punto-vendita/aldi-bologna/aldi-bologna-via-larga.html", "@spider": "aldi_sud_it", "shop": "supermarket", "addr:street_address": "Via Larga, 99", "addr:city": "Bologna", "addr:postcode": "40127", "addr:country": "IT", "name": "ALDI Bologna", "phone": "800 370 370", "website": "https://www.aldi.it/it/trova-il-punto-vendita/aldi-bologna/aldi-bologna-via-larga.html", "opening_hours": "Mo-Sa 08:30-21:00; Su 09:00-20:00", "image": "https://s7g10.scene7.com/is/image/aldi/Gallery29?$E134COL-XL$", "brand": "ALDI", "brand:wikidata": "Q41171672", "nsi_id": "aldi-0d26d7"}, "geometry": {"type": "Point", "coordinates": [11.3918253, 44.4973399]}},
{"type": "Feature", "id": "QdXLP099qgEIqaJ9RY2JWtTtWi4=", "properties": {"ref": "https://www.aldi.it/it/trova-il-punto-vendita/aldi-forli-cesena/aldi-forli-via-bertini.html", "@spider": "aldi_sud_it", "shop": "supermarket", "addr:street_address": "Via Bertini, 99", "addr:city": "Forl\u00ec", "addr:postcode": "47122", "addr:country": "IT", "name": "ALDI Forl\u00ec", "phone": "800 370 370", "website": "https://www.aldi.it/it/trova-il-punto-vendita/aldi-forli-cesena/aldi-forli-via-bertini.html", "opening_hours": "Mo-Sa 08:30-21:00; Su 08:30-20:30", "image": "https://s7g10.scene7.com/is/image/aldi/Gallery29?$E134COL-XL$", "brand": "ALDI", "brand:wikidata": "Q41171672", "nsi_id": "aldi-0d26d7"}, "geometry": {"type": "Point", "coordinates": [12.0625657, 44.2270591]}},
{"type": "Feature", "id": "9F75rXfU_rNsX9Pzmf8ix8lf13A=", "properties": {"ref": "https://www.aldi.it/it/trova-il-punto-vendita/aldi-forli-cesena/aldi-forli-viale-bologna.html", "@spider": "aldi_sud_it", "shop": "supermarket", "addr:street_address": "Viale Bologna, 81", "addr:city": "Forl\u00ec", "addr:postcode": "47121", "addr:country": "IT", "name": "ALDI Forl\u00ec", "phone": "800 370 370", "website": "https://www.aldi.it/it/trova-il-punto-vendita/aldi-forli-cesena/aldi-forli-viale-bologna.html", "opening_hours": "Mo-Sa 08:30-21:00; Su 08:30-20:30", "image": "https://s7g10.scene7.com/is/image/aldi/Gallery29?$E134COL-XL$", "brand": "ALDI", "brand:wikidata": "Q41171672", "nsi_id": "aldi-0d26d7"}, "geometry": {"type": "Point", "coordinates": [12.0181287, 44.2294349]}},
{"type": "Feature", "id": "rXB_lJYHg5E2GpzLJ59xJnK7PTM=", "properties": {"ref": "https://www.aldi.it/it/trova-il-punto-vendita/aldi-ferrara/aldi-ferrara-via-eridano.html", "@spider": "aldi_sud_it", "shop": "supermarket", "addr:street_address": "Via Eridano, 2/O", "addr:city": "Ferrara", "addr:postcode": "44122", "addr:country": "IT", "name": "ALDI Ferrara Via Eridano", "phone": "800 370 370", "website": "https://www.aldi.it/it/trova-il-punto-vendita/aldi-ferrara/aldi-ferrara-via-eridano.html", "opening_hours": "Mo 08:30-20:00; Tu-Sa 08:30-20:30; Su 09:00-20:00", "image": "https://s7g10.scene7.com/is/image/aldi/Gallery29?$E134COL-XL$", "brand": "ALDI", "brand:wikidata": "Q41171672", "nsi_id": "aldi-0d26d7"}, "geometry": {"type": "Point", "coordinates": [11.5896568, 44.8500213]}},
{"type": "Feature", "id": "wpllTIA9-g5sL4HzttndsVLAxR4=", "properties": {"ref": "https://www.aldi.it/it/trova-il-punto-vendita/aldi-ferrara/aldi-ferrara-via-padova.html", "@spider": "aldi_sud_it", "shop": "supermarket", "addr:street_address": "Via Padova, 207", "addr:city": "Ferrara", "addr:postcode": "44123", "addr:country": "IT", "name": "ALDI Ferrara Via Padova", "phone": "800 370 370", "website": "https://www.aldi.it/it/trova-il-punto-vendita/aldi-ferrara/aldi-ferrara-via-padova.html", "opening_hours": "Mo 08:30-21:00; Tu-Sa 08:30-20:30; Su 09:00-20:00", "image": "https://s7g10.scene7.com/is/image/aldi/Gallery29?$E134COL-XL$", "brand": "ALDI", "brand:wikidata": "Q41171672", "nsi_id": "aldi-0d26d7"}, "geometry": {"type": "Point", "coordinates": [11.6008648, 44.8755798]}},
{"type": "Feature", "id": "mhVbbjGI-LP4isXa_VQf_cK1Ds8=", "properties": {"ref": "https://www.aldi.it/it/trova-il-punto-vendita/aldi-ferrara/aldi-ferrara-via-ravenna.html", "@spider": "aldi_sud_it", "shop": "supermarket", "addr:street_address": "Via Ravenna, 111", "addr:city": "Ferrara", "addr:postcode": "44124", "addr:country": "IT", "name": "ALDI Ferrara Via Ravenna", "phone": "800 370 370", "website": "https://www.aldi.it/it/trova-il-punto-vendita/aldi-ferrara/aldi-ferrara-via-ravenna.html", "opening_hours": "Mo-Sa 08:30-20:30; Su 09:00-20:00", "image": "https://s7g10.scene7.com/is/image/aldi/Gallery29?$E134COL-XL$", "brand": "ALDI", "brand:wikidata": "Q41171672", "nsi_id": "aldi-0d26d7"}, "geometry": {"type": "Point", "coordinates": [11.6268591, 44.8209989]}},
{"type": "Feature", "id": "a8WgakCYFbq8edrySmVh1CwU-do=", "properties": {"ref": "https://www.aldi.it/it/trova-il-punto-vendita/aldi-modena/aldi-carpi.html", "@spider": "aldi_sud_it", "shop": "supermarket", "addr:street_address": "Via Cristoforo Colombo, 1", "addr:city": "Carpi", "addr:postcode": "41012", "addr:country": "IT", "name": "ALDI Carpi", "phone": "800 370 370", "website": "https://www.aldi.it/it/trova-il-punto-vendita/aldi-modena/aldi-carpi.html", "opening_hours": "Mo-Sa 08:30-21:00; Su 09:00-20:00", "image": "https://s7g10.scene7.com/is/image/aldi/Gallery29?$E134COL-XL$", "brand": "ALDI", "brand:wikidata": "Q41171672", "nsi_id": "aldi-0d26d7"}, "geometry": {"type": "Point", "coordinates": [10.8777982, 44.7774071]}},
{"type": "Feature", "id": "z2NYMsk9_wr_6wcuttPsz3Ft6VM=", "properties": {"ref": "https://www.aldi.it/it/trova-il-punto-vendita/aldi-modena/aldi-castelfranco-emilia.html", "@spider": "aldi_sud_it", "shop": "supermarket", "addr:street_address": "Via Carracci, 1", "addr:city": "Castelfranco Emilia", "addr:postcode": "41013", "addr:country": "IT", "name": "ALDI Castelfranco Emilia", "phone": "800 370 370", "website": "https://www.aldi.it/it/trova-il-punto-vendita/aldi-modena/aldi-castelfranco-emilia.html", "opening_hours": "Mo-Sa 08:30-21:00; Su 09:00-20:00", "image": "https://s7g10.scene7.com/is/image/aldi/Gallery29?$E134COL-XL$", "brand": "ALDI", "brand:wikidata": "Q41171672", "nsi_id": "aldi-0d26d7"}, "geometry": {"type": "Point", "coordinates": [11.0253166, 44.602581]}},
{"type": "Feature", "id": "DZGDQyMVIwzSNdPe6RrTinqYNNY=", "properties": {"ref": "https://www.aldi.it/it/trova-il-punto-vendita/aldi-modena/aldi-mirandola.html", "@spider": "aldi_sud_it", "shop": "supermarket", "addr:street_address": "Via dell'Orto, 2", "addr:city": "Mirandola", "addr:postcode": "41037", "addr:country": "IT", "name": "ALDI Mirandola", "phone": "800 370 370", "website": "https://www.aldi.it/it/trova-il-punto-vendita/aldi-modena/aldi-mirandola.html", "opening_hours": "Mo-Sa 08:30-21:00; Su 09:00-20:00", "image": "https://s7g10.scene7.com/is/image/aldi/Gallery29?$E134COL-XL$", "brand": "ALDI", "brand:wikidata": "Q41171672", "nsi_id": "aldi-0d26d7"}, "geometry": {"type": "Point", "coordinates": [11.0589212, 44.8940429]}},
{"type": "Feature", "id": "jM0DKJCJbT9CWjFZGIwB7X1CYxQ=", "properties": {"ref": "https://www.aldi.it/it/trova-il-punto-vendita/aldi-parma/aldi-fidenza.html", "@spider": "aldi_sud_it", "shop": "supermarket", "addr:street_address": "Via XXIV Maggio, 47", "addr:city": "Fidenza", "addr:postcode": "43036", "addr:country": "IT", "name": "ALDI Fidenza", "phone": "800 370 370", "website": "https://www.aldi.it/it/trova-il-punto-vendita/aldi-parma/aldi-fidenza.html", "opening_hours": "Mo-Sa 08:30-21:00; Su 09:00-20:30", "image": "https://s7g10.scene7.com/is/image/aldi/Gallery29?$E134COL-XL$", "brand": "ALDI", "brand:wikidata": "Q41171672", "nsi_id": "aldi-0d26d7"}, "geometry": {"type": "Point", "coordinates": [10.0807212, 44.8604916]}},
{"type": "Feature", "id": "5nDKmP1S2WacP-no-0ipLym391s=", "properties": {"ref": "https://www.aldi.it/it/trova-il-punto-vendita/aldi-parma/aldi-parma.html", "@spider": "aldi_sud_it", "shop": "supermarket", "addr:street_address": "Largo Lucrezia Agujari, 5/A", "addr:city": "Parma", "addr:postcode": "43122", "addr:country": "IT", "name": "ALDI Parma", "phone": "800 370 370", "website": "https://www.aldi.it/it/trova-il-punto-vendita/aldi-parma/aldi-parma.html", "opening_hours": "Mo-Sa 08:30-21:00; Su 09:00-20:00", "image": "https://s7g10.scene7.com/is/image/aldi/Gallery29?$E134COL-XL$", "brand": "ALDI", "brand:wikidata": "Q41171672", "nsi_id": "aldi-0d26d7"}, "geometry": {"type": "Point", "coordinates": [10.3390362, 44.8284726]}},
{"type": "Feature", "id": "8Wq20QLgvTzFgHkesVspnaQoZZA=", "properties": {"ref": "https://www.aldi.it/it/trova-il-punto-vendita/aldi-ravenna/aldi-faenza.html", "@spider": "aldi_sud_it", "shop": "supermarket", "addr:street_address": "Via Emilia Ponente, 15", "addr:city": "Faenza", "addr:postcode": "48018", "addr:country": "IT", "name": "ALDI Faenza", "phone": "800 370 370", "website": "https://www.aldi.it/it/trova-il-punto-vendita/aldi-ravenna/aldi-faenza.html", "opening_hours": "Mo-Sa 08:30-21:00; Su 09:00-20:00", "image": "https://s7g10.scene7.com/is/image/aldi/Gallery29?$E134COL-XL$", "brand": "ALDI", "brand:wikidata": "Q41171672", "nsi_id": "aldi-0d26d7"}, "geometry": {"type": "Point", "coordinates": [11.8603504, 44.2943985]}},
{"type": "Feature", "id": "yJdD5NLVqMzsXSxVUDS8bO0NceM=", "properties": {"ref": "https://www.aldi.it/it/trova-il-punto-vendita/aldi-reggio-emilia/aldi-bibbiano.html", "@spider": "aldi_sud_it", "shop": "supermarket", "addr:street_address": "Via Barboiara, 4", "addr:city": "Bibbiano", "addr:postcode": "42021", "addr:country": "IT", "name": "ALDI Bibbiano", "phone": "800 370 370", "website": "https://www.aldi.it/it/trova-il-punto-vendita/aldi-reggio-emilia/aldi-bibbiano.html", "opening_hours": "Mo-Sa 08:30-20:30; Su 09:00-20:00", "image": "https://s7g10.scene7.com/is/image/aldi/Gallery29?$E134COL-XL$", "brand": "ALDI", "brand:wikidata": "Q41171672", "nsi_id": "aldi-0d26d7"}, "geometry": {"type": "Point", "coordinates": [10.4980773, 44.6953277]}},
{"type": "Feature", "id": "YLu1e7UhwYAB39i86YpVD8hSPoE=", "properties": {"ref": "https://www.aldi.it/it/trova-il-punto-vendita/aldi-rimini/aldi-rimini.html", "@spider": "aldi_sud_it", "shop": "supermarket", "addr:street_address": "Via Flaminia, 403F", "addr:city": "Rimini", "addr:postcode": "47922", "addr:country": "IT", "name": "ALDI Rimini", "phone": "800 370 370", "website": "https://www.aldi.it/it/trova-il-punto-vendita/aldi-rimini/aldi-rimini.html", "opening_hours": "Mo-Sa 08:00-21:00; Su 09:00-20:00", "image": "https://s7g10.scene7.com/is/image/aldi/Gallery29?$E134COL-XL$", "brand": "ALDI", "brand:wikidata": "Q41171672", "nsi_id": "aldi-0d26d7"}, "geometry": {"type": "Point", "coordinates": [12.6113356, 44.0282208]}},
{"type": "Feature", "id": "eO_DxclkuROHgOiT3sIGbQZWNNw=", "properties": {"ref": "https://www.aldi.it/it/trova-il-punto-vendita/aldi-verona/aldi-villafranca-di-verona.html", "@spider": "aldi_sud_it", "shop": "supermarket", "addr:street_address": "Via Tofane, 8", "addr:city": "Villafranca di Verona", "addr:postcode": "37069", "addr:country": "IT", "name": "ALDI Villafranca di Verona", "phone": "800 370 370", "website": "https://www.aldi.it/it/trova-il-punto-vendita/aldi-verona/aldi-villafranca-di-verona.html", "opening_hours": "Mo-Sa 08:00-21:00; Su 08:30-20:00", "image": "https://s7g10.scene7.com/is/image/aldi/Gallery29?$E134COL-XL$", "brand": "ALDI", "brand:wikidata": "Q41171672", "nsi_id": "aldi-0d26d7"}, "geometry": {"type": "Point", "coordinates": [10.8582954, 45.3628196]}},
{"type": "Feature", "id": "_hh9stNUtH5_lb5offLZZEiXiM4=", "properties": {"ref": "https://www.aldi.it/it/trova-il-punto-vendita/aldi-verona/aldi-san-bonifacio.html", "@spider": "aldi_sud_it", "shop": "supermarket", "addr:street_address": "Via Fossa Bassa, 34", "addr:city": "San Bonifacio", "addr:postcode": "37047", "addr:country": "IT", "name": "ALDI San Bonifacio", "phone": "800 370 370", "website": "https://www.aldi.it/it/trova-il-punto-vendita/aldi-verona/aldi-san-bonifacio.html", "opening_hours": "Mo-Sa 08:30-20:30; Su 09:00-20:00", "image": "https://s7g10.scene7.com/is/image/aldi/Gallery29?$E134COL-XL$", "brand": "ALDI", "brand:wikidata": "Q41171672", "nsi_id": "aldi-0d26d7"}, "geometry": {"type": "Point", "coordinates": [11.2797718, 45.3888015]}},
{"type": "Feature", "id": "O0WCAasg9H4WaLN-FyPAmxIR_hg=", "properties": {"ref": "https://www.aldi.it/it/trova-il-punto-vendita/aldi-verona/aldi-peschiera-del-garda.html", "@spider": "aldi_sud_it", "shop": "supermarket", "addr:street_address": "Via Tangenziale, 11", "addr:city": "Peschiera del Garda", "addr:postcode": "37019", "addr:country": "IT", "name": "ALDI Peschiera del Garda", "phone": "800 370 370", "website": "https://www.aldi.it/it/trova-il-punto-vendita/aldi-verona/aldi-peschiera-del-garda.html", "opening_hours": "Mo-Su 08:00-21:00", "image": "https://s7g10.scene7.com/is/image/aldi/Gallery29?$E134COL-XL$", "brand": "ALDI", "brand:wikidata": "Q41171672", "nsi_id": "aldi-0d26d7"}, "geometry": {"type": "Point", "coordinates": [10.7058165, 45.4325945]}},
{"type": "Feature", "id": "M453NAKmvgmkm3S_K5mPjfeUBVM=", "properties": {"ref": "https://www.aldi.it/it/trova-il-punto-vendita/aldi-verona/aldi-verona-via-goffredo-mameli.html", "@spider": "aldi_sud_it", "shop": "supermarket", "addr:street_address": "Via Goffredo Mameli, 75", "addr:city": "Verona", "addr:postcode": "37124", "addr:country": "IT", "name": "ALDI Verona", "phone": "800 370 370", "website": "https://www.aldi.it/it/trova-il-punto-vendita/aldi-verona/aldi-verona-via-goffredo-mameli.html", "opening_hours": "Mo-Sa 08:30-21:00; Su 09:00-20:00", "image": "https://s7g10.scene7.com/is/image/aldi/Gallery29?$E134COL-XL$", "brand": "ALDI", "brand:wikidata": "Q41171672", "nsi_id": "aldi-0d26d7"}, "geometry": {"type": "Point", "coordinates": [10.9736725, 45.4583539]}},
{"type": "Feature", "id": "dNL9IJP2Zv2SRPjlj6P7QvIO-yk=", "properties": {"ref": "https://www.aldi.it/it/trova-il-punto-vendita/aldi-verona/aldi-verona-viale-del-lavoro.html", "@spider": "aldi_sud_it", "shop": "supermarket", "addr:street_address": "Viale del Lavoro, 23", "addr:city": "Verona", "addr:postcode": "37135", "addr:country": "IT", "name": "ALDI Verona", "phone": "800 370 370", "website": "https://www.aldi.it/it/trova-il-punto-vendita/aldi-verona/aldi-verona-viale-del-lavoro.html", "opening_hours": "Mo-Sa 08:30-21:00; Su 09:00-20:00", "image": "https://s7g10.scene7.com/is/image/aldi/Gallery29?$E134COL-XL$", "brand": "ALDI", "brand:wikidata": "Q41171672", "nsi_id": "aldi-0d26d7"}, "geometry": {"type": "Point", "coordinates": [10.9772011, 45.4121396]}},
{"type": "Feature", "id": "xbptawAm63vS166Xx7wmFCKgkeM=", "properties": {"ref": "https://www.aldi.it/it/trova-il-punto-vendita/aldi-verona/aldi-verona-corso-venezia.html", "@spider": "aldi_sud_it", "shop": "supermarket", "addr:street_address": "Corso Venezia, 107", "addr:city": "Verona", "addr:postcode": "37131", "addr:country": "IT", "name": "ALDI Verona", "phone": "800 370 370", "website": "https://www.aldi.it/it/trova-il-punto-vendita/aldi-verona/aldi-verona-corso-venezia.html", "opening_hours": "Mo-Sa 08:30-21:00; Su 09:00-20:00", "image": "https://s7g10.scene7.com/is/image/aldi/Gallery29?$E134COL-XL$", "brand": "ALDI", "brand:wikidata": "Q41171672", "nsi_id": "aldi-0d26d7"}, "geometry": {"type": "Point", "coordinates": [11.0219757, 45.4391722]}},
{"type": "Feature", "id": "q4KEmtOpT6UpPjVzifGUmjRiIBU=", "properties": {"ref": "https://www.aldi.it/it/trova-il-punto-vendita/aldi-venezia/aldi-portogruaro.html", "@spider": "aldi_sud_it", "shop": "supermarket", "addr:street_address": "Viale Pordenone, 46", "addr:city": "Portogruaro", "addr:postcode": "30026", "addr:country": "IT", "name": "ALDI Portogruaro", "phone": "800 370 370", "website": "https://www.aldi.it/it/trova-il-punto-vendita/aldi-venezia/aldi-portogruaro.html", "opening_hours": "Mo-Sa 08:30-21:00; Su 09:00-20:00", "image": "https://s7g10.scene7.com/is/image/aldi/Gallery29?$E134COL-XL$", "brand": "ALDI", "brand:wikidata": "Q41171672", "nsi_id": "aldi-0d26d7"}, "geometry": {"type": "Point", "coordinates": [12.8315041, 45.7848473]}},
{"type": "Feature", "id": "H9GgoUR9s_I95nouyN6aIq4rcOo=", "properties": {"ref": "https://www.aldi.it/it/trova-il-punto-vendita/aldi-venezia/aldi-chioggia.html", "@spider": "aldi_sud_it", "shop": "supermarket", "addr:street_address": "Lungomare Adriatico, 41/A", "addr:city": "Chioggia", "addr:postcode": "30015", "addr:country": "IT", "name": "ALDI Chioggia", "phone": "800 370 370", "website": "https://www.aldi.it/it/trova-il-punto-vendita/aldi-venezia/aldi-chioggia.html", "opening_hours": "Mo-Su 07:30-21:30", "image": "https://s7g10.scene7.com/is/image/aldi/Gallery29?$E134COL-XL$", "brand": "ALDI", "brand:wikidata": "Q41171672", "nsi_id": "aldi-0d26d7"}, "geometry": {"type": "Point", "coordinates": [12.2944496, 45.2122765]}},
{"type": "Feature", "id": "mKfExZI_849OfilAGRIWvOpv8rk=", "properties": {"ref": "https://www.aldi.it/it/trova-il-punto-vendita/aldi-venezia/aldi-san-dona-di-piave.html", "@spider": "aldi_sud_it", "shop": "supermarket", "addr:street_address": "Via Carlo Vizzotto, 89", "addr:city": "San Don\u00e0 di Piave", "addr:postcode": "30027", "addr:country": "IT", "name": "ALDI San Don\u00e0 di Piave", "phone": "800 370 370", "website": "https://www.aldi.it/it/trova-il-punto-vendita/aldi-venezia/aldi-san-dona-di-piave.html", "opening_hours": "Mo-Sa 08:00-21:00; Su 08:30-20:30", "image": "https://s7g10.scene7.com/is/image/aldi/Gallery29?$E134COL-XL$", "brand": "ALDI", "brand:wikidata": "Q41171672", "nsi_id": "aldi-0d26d7"}, "geometry": {"type": "Point", "coordinates": [12.5784884, 45.6311974]}},
{"type": "Feature", "id": "YSRSnaVtxmUnuK-jdy-dhNkfeWo=", "properties": {"ref": "https://www.aldi.it/it/trova-il-punto-vendita/aldi-venezia/aldi-gambarare.html", "@spider": "aldi_sud_it", "shop": "supermarket", "addr:street_address": "Strada Statale 309 Romea, 64", "addr:city": "Gambarare", "addr:postcode": "30034", "addr:country": "IT", "name": "ALDI Gambarare", "phone": "800 370 370", "website": "https://www.aldi.it/it/trova-il-punto-vendita/aldi-venezia/aldi-gambarare.html", "opening_hours": "Mo-Fr 08:00-20:30; Sa 08:00-21:00; Su 08:00-20:30", "image": "https://s7g10.scene7.com/is/image/aldi/Gallery29?$E134COL-XL$", "brand": "ALDI", "brand:wikidata": "Q41171672", "nsi_id": "aldi-0d26d7"}, "geometry": {"type": "Point", "coordinates": [12.1719036, 45.4225769]}},
{"type": "Feature", "id": "J05ip5O_LLelOM8qxBl7SNYlbjY=", "properties": {"ref": "https://www.aldi.it/it/trova-il-punto-vendita/aldi-rovigo/aldi-adria.html", "@spider": "aldi_sud_it", "shop": "supermarket", "addr:street_address": "Monsignor F. Pozzato, 45", "addr:city": "Adria", "addr:postcode": "45011", "addr:country": "IT", "name": "ALDI Adria", "phone": "800 370 370", "website": "https://www.aldi.it/it/trova-il-punto-vendita/aldi-rovigo/aldi-adria.html", "opening_hours": "Mo-Sa 08:30-20:30; Su 09:00-20:00", "image": "https://s7g10.scene7.com/is/image/aldi/Gallery29?$E134COL-XL$", "brand": "ALDI", "brand:wikidata": "Q41171672", "nsi_id": "aldi-0d26d7"}, "geometry": {"type": "Point", "coordinates": [12.0658782, 45.0559388]}},
{"type": "Feature", "id": "sItNdRkIysCX2ftZkFS5Ya9_Yro=", "properties": {"ref": "https://www.aldi.it/it/trova-il-punto-vendita/aldi-venezia/aldi-noale.html", "@spider": "aldi_sud_it", "shop": "supermarket", "addr:street_address": "Via Galileo Galilei 15", "addr:city": "Noale", "addr:postcode": "30033", "addr:country": "IT", "name": "ALDI Noale", "phone": "800 370 370", "website": "https://www.aldi.it/it/trova-il-punto-vendita/aldi-venezia/aldi-noale.html", "opening_hours": "Mo-Sa 08:30-20:30; Su 09:00-20:00", "image": "https://s7g10.scene7.com/is/image/aldi/Gallery29?$E134COL-XL$", "brand": "ALDI", "brand:wikidata": "Q41171672", "nsi_id": "aldi-0d26d7"}, "geometry": {"type": "Point", "coordinates": [12.0707996, 45.543433]}},
{"type": "Feature", "id": "dauRweZIo8TPNNedMHxRzgLsn2g=", "properties": {"ref": "https://www.aldi.it/it/trova-il-punto-vendita/aldi-rovigo/aldi-rovigo.html", "@spider": "aldi_sud_it", "shop": "supermarket", "addr:street_address": "Viale Giovanni Amendola, 2/B", "addr:city": "Rovigo", "addr:postcode": "45100", "addr:country": "IT", "name": "ALDI Rovigo", "phone": "800 370 370", "website": "https://www.aldi.it/it/trova-il-punto-vendita/aldi-rovigo/aldi-rovigo.html", "opening_hours": "Mo-Sa 08:30-21:00; Su 09:00-20:00", "image": "https://s7g10.scene7.com/is/image/aldi/Gallery29?$E134COL-XL$", "brand": "ALDI", "brand:wikidata": "Q41171672", "nsi_id": "aldi-0d26d7"}, "geometry": {"type": "Point", "coordinates": [11.782086, 45.0738843]}},
{"type": "Feature", "id": "3t3z7hLLtYG3buqkEil2uWULNik=", "properties": {"ref": "https://www.aldi.it/it/trova-il-punto-vendita/aldi-padova/aldi-cittadella.html", "@spider": "aldi_sud_it", "shop": "supermarket", "addr:street_address": "Via Galileo Galilei, 12", "addr:city": "Cittadella", "addr:postcode": "35013", "addr:country": "IT", "name": "ALDI Cittadella", "phone": "800 370 370", "website": "https://www.aldi.it/it/trova-il-punto-vendita/aldi-padova/aldi-cittadella.html", "opening_hours": "Su 09:00-20:00", "image": "https://s7g10.scene7.com/is/image/aldi/Gallery29?$E134COL-XL$", "brand": "ALDI", "brand:wikidata": "Q41171672", "nsi_id": "aldi-0d26d7"}, "geometry": {"type": "Point", "coordinates": [11.7738706, 45.6510962]}},
{"type": "Feature", "id": "RL3X-ypBtZN-dbbSkzPXn63KZIs=", "properties": {"ref": "https://www.aldi.it/it/trova-il-punto-vendita/aldi-padova/aldi-rubano.html", "@spider": "aldi_sud_it", "shop": "supermarket", "addr:street_address": "Via Pitagora, 2", "addr:city": "Rubano", "addr:postcode": "35030", "addr:country": "IT", "name": "ALDI Rubano", "phone": "800 370 370", "website": "https://www.aldi.it/it/trova-il-punto-vendita/aldi-padova/aldi-rubano.html", "opening_hours": "Mo-Sa 08:30-20:30; Su 09:00-20:00", "image": "https://s7g10.scene7.com/is/image/aldi/Gallery29?$E134COL-XL$", "brand": "ALDI", "brand:wikidata": "Q41171672", "nsi_id": "aldi-0d26d7"}, "geometry": {"type": "Point", "coordinates": [11.8000369, 45.4253528]}},
{"type": "Feature", "id": "hoQXuDb76NCbCEwBaMoc1HRSMEI=", "properties": {"ref": "https://www.aldi.it/it/trova-il-punto-vendita/aldi-padova/aldi-camposampiero.html", "@spider": "aldi_sud_it", "shop": "supermarket", "addr:street_address": "Via Borgo Padova, 80", "addr:city": "Camposampiero", "addr:postcode": "35012", "addr:country": "IT", "name": "ALDI Camposampiero", "phone": "800 370 370", "website": "https://www.aldi.it/it/trova-il-punto-vendita/aldi-padova/aldi-camposampiero.html", "opening_hours": "Mo-Sa 08:30-20:30; Su 09:00-20:00", "image": "https://s7g10.scene7.com/is/image/aldi/Gallery29?$E134COL-XL$", "brand": "ALDI", "brand:wikidata": "Q41171672", "nsi_id": "aldi-0d26d7"}, "geometry": {"type": "Point", "coordinates": [11.9278191, 45.5549059]}},
{"type": "Feature", "id": "Tm1wdBAThryXxKih4EgC4dptvGM=", "properties": {"ref": "https://www.aldi.it/it/trova-il-punto-vendita/aldi-padova/aldi-padova.html", "@spider": "aldi_sud_it", "shop": "supermarket", "addr:street_address": "Via Giovanni Battista Viotti, 24", "addr:city": "Padova", "addr:postcode": "35132", "addr:country": "IT", "name": "ALDI Padova", "phone": "800 370 370", "website": "https://www.aldi.it/it/trova-il-punto-vendita/aldi-padova/aldi-padova.html", "opening_hours": "Mo-Sa 08:00-21:00; Su 09:00-20:00", "image": "https://s7g10.scene7.com/is/image/aldi/Gallery29?$E134COL-XL$", "brand": "ALDI", "brand:wikidata": "Q41171672", "nsi_id": "aldi-0d26d7"}, "geometry": {"type": "Point", "coordinates": [11.8997364, 45.4246215]}},
{"type": "Feature", "id": "_vRl6D5Cb5bBqeLUl_gziBvAMP8=", "properties": {"ref": "https://www.aldi.it/it/trova-il-punto-vendita/aldi-padova/aldi-monselice.html", "@spider": "aldi_sud_it", "shop": "supermarket", "addr:street_address": "Via Cristoforo Colombo, 25", "addr:city": "Monselice", "addr:postcode": "35043", "addr:country": "IT", "name": "ALDI Monselice", "phone": "800 370 370", "website": "https://www.aldi.it/it/trova-il-punto-vendita/aldi-padova/aldi-monselice.html", "opening_hours": "Mo-Sa 08:30-20:30; Su 09:00-20:00", "image": "https://s7g10.scene7.com/is/image/aldi/Gallery29?$E134COL-XL$", "brand": "ALDI", "brand:wikidata": "Q41171672", "nsi_id": "aldi-0d26d7"}, "geometry": {"type": "Point", "coordinates": [11.7557822, 45.2317602]}},
{"type": "Feature", "id": "ANjU3aqpFZL1BkZLsrxMTyb3a3c=", "properties": {"ref": "https://www.aldi.it/it/trova-il-punto-vendita/aldi-trieste/aldi-trieste-fabio-severo.html", "@spider": "aldi_sud_it", "shop": "supermarket", "addr:street_address": "Via Fabio Severo, 54", "addr:city": "Trieste", "addr:postcode": "34126", "addr:country": "IT", "name": "ALDI Trieste Via Fabio Severo", "phone": "800 370 370", "website": "https://www.aldi.it/it/trova-il-punto-vendita/aldi-trieste/aldi-trieste-fabio-severo.html", "opening_hours": "Mo-Sa 08:00-21:00; Su 08:30-20:30", "image": "https://s7g10.scene7.com/is/image/aldi/Gallery29?$E134COL-XL$", "brand": "ALDI", "brand:wikidata": "Q41171672", "nsi_id": "aldi-0d26d7"}, "geometry": {"type": "Point", "coordinates": [13.785657, 45.6565557]}},
{"type": "Feature", "id": "NuH7joTetDhdZuAvKDLZQEygPWA=", "properties": {"ref": "https://www.aldi.it/it/trova-il-punto-vendita/aldi-trieste/aldi-trieste-coroneo.html", "@spider": "aldi_sud_it", "shop": "supermarket", "addr:street_address": "Via del Coroneo, 1", "addr:city": "Trieste", "addr:postcode": "34133", "addr:country": "IT", "name": "ALDI Trieste Via del Coroneo", "phone": "800 370 370", "website": "https://www.aldi.it/it/trova-il-punto-vendita/aldi-trieste/aldi-trieste-coroneo.html", "opening_hours": "Mo-Sa 07:30-21:00; Su 08:30-20:30", "image": "https://s7g10.scene7.com/is/image/aldi/Gallery29?$E134COL-XL$", "brand": "ALDI", "brand:wikidata": "Q41171672", "nsi_id": "aldi-0d26d7"}, "geometry": {"type": "Point", "coordinates": [13.7769631, 45.6529601]}},
{"type": "Feature", "id": "lHMkB6nDqu6jfBL6VSUOf16pfWw=", "properties": {"ref": "https://www.aldi.it/it/trova-il-punto-vendita/aldi-pordenone/aldi-san-vito-al-tagliamento.html", "@spider": "aldi_sud_it", "shop": "supermarket", "addr:street_address": "Via Divisione Garibaldi, 7", "addr:city": "Vito al Tagliamento", "addr:postcode": "33078", "addr:country": "IT", "name": "ALDI San Vito al Tagliamento", "phone": "800 370 370", "website": "https://www.aldi.it/it/trova-il-punto-vendita/aldi-pordenone/aldi-san-vito-al-tagliamento.html", "opening_hours": "Mo-Sa 08:30-21:00; Su 09:00-20:00", "image": "https://s7g10.scene7.com/is/image/aldi/Gallery29?$E134COL-XL$", "brand": "ALDI", "brand:wikidata": "Q41171672", "nsi_id": "aldi-0d26d7"}, "geometry": {"type": "Point", "coordinates": [12.8647546, 45.9118957]}},
{"type": "Feature", "id": "G5jLtTrGLT-OJC_M-k0Bm_bHBPg=", "properties": {"ref": "https://www.aldi.it/it/trova-il-punto-vendita/aldi-pordenone/aldi-pordenone.html", "@spider": "aldi_sud_it", "shop": "supermarket", "addr:street_address": "Via Prasecco, 56/d", "addr:city": "Pordenone", "addr:postcode": "33170", "addr:country": "IT", "name": "ALDI Pordenone", "phone": "800 370 370", "website": "https://www.aldi.it/it/trova-il-punto-vendita/aldi-pordenone/aldi-pordenone.html", "opening_hours": "Mo-Sa 08:30-21:00; Su 09:00-20:00", "image": "https://s7g10.scene7.com/is/image/aldi/Gallery29?$E134COL-XL$", "brand": "ALDI", "brand:wikidata": "Q41171672", "nsi_id": "aldi-0d26d7"}, "geometry": {"type": "Point", "coordinates": [12.6876913, 45.9534287]}},
{"type": "Feature", "id": "2gvtmXJ3FfXDy6z2uObfNSlOB5Q=", "properties": {"ref": "https://www.aldi.it/it/trova-il-punto-vendita/aldi-pordenone/aldi-prata-di-pordenone.html", "@spider": "aldi_sud_it", "shop": "supermarket", "addr:street_address": "Via Opitergina, 29", "addr:city": "Prata di Pordenone PN", "addr:postcode": "33080", "addr:country": "IT", "name": "ALDI Prata di Pordenone", "phone": "800 370 370", "website": "https://www.aldi.it/it/trova-il-punto-vendita/aldi-pordenone/aldi-prata-di-pordenone.html", "opening_hours": "Mo-Sa 08:30-20:30; Su 09:00-20:00", "image": "https://s7g10.scene7.com/is/image/aldi/Gallery29?$E134COL-XL$", "brand": "ALDI", "brand:wikidata": "Q41171672", "nsi_id": "aldi-0d26d7"}, "geometry": {"type": "Point", "coordinates": [12.5928704, 45.8935664]}},
{"type": "Feature", "id": "eE1G3jDZu0z7t3v0e9cadqdO27w=", "properties": {"ref": "https://www.aldi.it/it/trova-il-punto-vendita/aldi-pordenone/aldi-spilimbergo.html", "@spider": "aldi_sud_it", "shop": "supermarket", "addr:street_address": "Via Ponte Roitero, 1", "addr:city": "Spilimbergo PN", "addr:postcode": "33097", "addr:country": "IT", "name": "ALDI Spilimbergo", "phone": "800 370 370", "website": "https://www.aldi.it/it/trova-il-punto-vendita/aldi-pordenone/aldi-spilimbergo.html", "opening_hours": "Mo-Sa 08:30-20:30; Su 09:00-20:00", "image": "https://s7g10.scene7.com/is/image/aldi/Gallery29?$E134COL-XL$", "brand": "ALDI", "brand:wikidata": "Q41171672", "nsi_id": "aldi-0d26d7"}, "geometry": {"type": "Point", "coordinates": [12.9036998, 46.1034881]}},
{"type": "Feature", "id": "dwOdvAQAqaD91SsooUfE2Ng-tVk=", "properties": {"ref": "https://www.aldi.it/it/trova-il-punto-vendita/aldi-gorizia/aldi-ronchi-dei-legionari.html", "@spider": "aldi_sud_it", "shop": "supermarket", "addr:street_address": "Via Pietro Micca, 6/c", "addr:city": "Ronchi dei Legionari GO", "addr:postcode": "34077", "addr:country": "IT", "name": "ALDI Ronchi dei Legionari", "phone": "800 370 370", "website": "https://www.aldi.it/it/trova-il-punto-vendita/aldi-gorizia/aldi-ronchi-dei-legionari.html", "opening_hours": "Mo-Sa 08:30-21:00; Su 08:30-20:30", "image": "https://s7g10.scene7.com/is/image/aldi/Gallery29?$E134COL-XL$", "brand": "ALDI", "brand:wikidata": "Q41171672", "nsi_id": "aldi-0d26d7"}, "geometry": {"type": "Point", "coordinates": [13.4901385, 45.8407668]}},
{"type": "Feature", "id": "lzEFnJWM3FvpTOnFgFontmnRM1Y=", "properties": {"ref": "https://www.aldi.it/it/trova-il-punto-vendita/aldi-udine/aldi-bagnaria-arsa.html", "@spider": "aldi_sud_it", "shop": "supermarket", "addr:street_address": "Via Bachelet, 1", "addr:city": "Bagnaria Arsa", "addr:postcode": "33050", "addr:country": "IT", "name": "ALDI Bagnaria Arsa", "phone": "800 370 370", "website": "https://www.aldi.it/it/trova-il-punto-vendita/aldi-udine/aldi-bagnaria-arsa.html", "opening_hours": "Mo-Sa 08:00-20:00; Su 08:30-20:00", "image": "https://s7g10.scene7.com/is/image/aldi/Gallery29?$E134COL-XL$", "brand": "ALDI", "brand:wikidata": "Q41171672", "nsi_id": "aldi-0d26d7"}, "geometry": {"type": "Point", "coordinates": [13.3107008, 45.8904155]}},
{"type": "Feature", "id": "uKevuADDOohr-oiVQoptSRbFZHw=", "properties": {"ref": "https://www.aldi.it/it/trova-il-punto-vendita/aldi-udine/aldi-reana-del-rojale.html", "@spider": "aldi_sud_it", "shop": "supermarket", "addr:street_address": "Via Nazionale, 21", "addr:city": "Reana del Rojale", "addr:postcode": "33010", "addr:country": "IT", "name": "ALDI Reana del Rojale", "phone": "800 370 370", "website": "https://www.aldi.it/it/trova-il-punto-vendita/aldi-udine/aldi-reana-del-rojale.html", "opening_hours": "Mo-Sa 08:30-21:00; Su 09:00-20:00", "image": "https://s7g10.scene7.com/is/image/aldi/Gallery29?$E134COL-XL$", "brand": "ALDI", "brand:wikidata": "Q41171672", "nsi_id": "aldi-0d26d7"}, "geometry": {"type": "Point", "coordinates": [13.2181647, 46.1394165]}},
{"type": "Feature", "id": "mVOD5RlejmQedH5ktMenZHnXBU0=", "properties": {"ref": "https://www.aldi.it/it/trova-il-punto-vendita/aldi-udine/aldi-manzano.html", "@spider": "aldi_sud_it", "shop": "supermarket", "addr:street_address": "Via del Cristo, 1", "addr:city": "Manzano", "addr:postcode": "33044", "addr:country": "IT", "name": "ALDI - Manzano", "phone": "800 370 370", "website": "https://www.aldi.it/it/trova-il-punto-vendita/aldi-udine/aldi-manzano.html", "opening_hours": "Mo-Sa 08:30-21:00; Su 08:30-20:30", "image": "https://s7g10.scene7.com/is/image/aldi/Gallery29?$E134COL-XL$", "brand": "ALDI", "brand:wikidata": "Q41171672", "nsi_id": "aldi-0d26d7"}, "geometry": {"type": "Point", "coordinates": [13.3706779, 45.9855841]}},
{"type": "Feature", "id": "OszPycoCZtcmtmm-9_LbT2eWqzg=", "properties": {"ref": "https://www.aldi.it/it/trova-il-punto-vendita/aldi-udine/aldi-udine-sud.html", "@spider": "aldi_sud_it", "shop": "supermarket", "addr:street_address": "Viale XXIII Marzo 1848", "addr:city": "Udine", "addr:postcode": "33100", "addr:country": "IT", "name": "ALDI Udine Sud", "phone": "800 370 370", "website": "https://www.aldi.it/it/trova-il-punto-vendita/aldi-udine/aldi-udine-sud.html", "opening_hours": "Mo-Sa 08:30-21:00; Su 09:00-20:00", "image": "https://s7g10.scene7.com/is/image/aldi/Gallery29?$E134COL-XL$", "brand": "ALDI", "brand:wikidata": "Q41171672", "nsi_id": "aldi-0d26d7"}, "geometry": {"type": "Point", "coordinates": [13.248886, 46.0591578]}},
{"type": "Feature", "id": "V6rBfixxgVmiGlTKq-2uLcJ6K8Q=", "properties": {"ref": "https://www.aldi.it/it/trova-il-punto-vendita/aldi-udine/aldi-udine-centro.html", "@spider": "aldi_sud_it", "shop": "supermarket", "addr:street_address": "Via Tricesimo, 95", "addr:city": "Udine", "addr:postcode": "33100", "addr:country": "IT", "name": "ALDI Udine Centro", "phone": "800 370 370", "website": "https://www.aldi.it/it/trova-il-punto-vendita/aldi-udine/aldi-udine-centro.html", "opening_hours": "Mo-Sa 08:30-21:00; Su 09:00-20:00", "image": "https://s7g10.scene7.com/is/image/aldi/Gallery29?$E134COL-XL$", "brand": "ALDI", "brand:wikidata": "Q41171672", "nsi_id": "aldi-0d26d7"}, "geometry": {"type": "Point", "coordinates": [13.2334575, 46.0881469]}}]}