{"type":"FeatureCollection","features":[{"type": "Feature", "id": "UuSsHZb4TBGnRYVV4nzr3IySWpI=", "properties": {"ref": "SportsCenter", "map": "https://j.map.baidu.com/f0/yNl", "@spider": "aldi_sud_cn", "shop": "supermarket", "addr:full": "1st Floor, No.428 Jiangning Road, Jing'an District, Shanghai", "addr:country": "CN", "name": "Jing'an Sports Center Store", "opening_hours": "Mo-Su 08:00-22:00", "brand": "ALDI", "brand:wikidata": "Q41171672", "nsi_id": "aldi-0d26d7"}},
{"type": "Feature", "id": "yWztEEwvzRrcQD5eWWPPrITUftc=", "properties": {"ref": "WanHangDu", "map": "https://j.map.baidu.com/c4/62JJ", "@spider": "aldi_sud_cn", "shop": "supermarket", "addr:full": "1st floor, No.838, Wanhangdu Rd, Jing'an District, Shanghai", "addr:country": "CN", "name": "Jing'an Wanhangdu Store", "opening_hours": "Mo-Su 07:30-22:00", "brand": "ALDI", "brand:wikidata": "Q41171672", "nsi_id": "aldi-0d26d7"}},
{"type": "Feature", "id": "z3s4p8lBdwVvikv2MEl_MPuzNpE=", "properties": {"ref": "GaoPing", "map": "https://j.map.baidu.com/21/YcAc", "@spider": "aldi_sud_cn", "shop": "supermarket", "addr:full": "1st floor, No.153, Gaoping Road, Jingan District, Shanghai", "addr:country": "CN", "name": "Jing'an Gaoping Store", "opening_hours": "Mo-Su 08:00-22:00", "brand": "ALDI", "brand:wikidata": "Q41171672", "nsi_id": "aldi-0d26d7"}},
{"type": "Feature", "id": "FROe95vF36yBpEzdl5ls3TxTOFA=", "properties": {"ref": "SuHeWanMixcWorld", "map": "https://j.map.baidu.com/f5/qQiu", "@spider": "aldi_sud_cn", "shop": "supermarket", "addr:full": "LG206, SuHeWan Mixc World, 100 North Fujian Road, Jing 'an District, Shanghai", "addr:country": "CN", "name": "ALDI SuHeWan Mixc World Store", "opening_hours": "Mo-Su 08:00-22:00", "brand": "ALDI", "brand:wikidata": "Q41171672", "nsi_id": "aldi-0d26d7"}},
{"type": "Feature", "id": "4hywZgkfCmzj7E-gsUIEPuidmVM=", "properties": {"ref": "Nexxus", "map": "https://j.map.baidu.com/fe/FEW", "@spider": "aldi_sud_cn", "shop": "supermarket", "addr:full": "Unit 104A,1st Floor, No.758, South Xizang Road, Huangpu District, Shanghai", "addr:country": "CN", "name": "Nexxus Store", "opening_hours": "Mo-Su 08:00-22:00", "brand": "ALDI", "brand:wikidata": "Q41171672", "nsi_id": "aldi-0d26d7"}},
{"type": "Feature", "id": "fygWb6AwwABncEiC8k2rqBXj1Vg=", "properties": {"ref": "HuGangInternational", "map": "https://j.map.baidu.com/ca/7zo", "@spider": "aldi_sud_cn", "shop": "supermarket", "addr:full": "1st Floor, No.2364 Xietu Road, Xuhui District, Shanghai", "addr:country": "CN", "name": "Xuhui Hu Gang International Store", "opening_hours": "Mo-Su 07:30-22:00", "brand": "ALDI", "brand:wikidata": "Q41171672", "nsi_id": "aldi-0d26d7"}},
{"type": "Feature", "id": "A_dHu4wgA4x898sAFhRs5tSl_cE=", "properties": {"ref": "AIPlaza", "map": "https://j.map.baidu.com/5d/lawc", "@spider": "aldi_sud_cn", "shop": "supermarket", "addr:full": "B1025, B1 floor, No.683,Yunjin RD, Xuhui District, Shanghai", "addr:country": "CN", "name": "ALDI AI plaza Store", "opening_hours": "Mo-Su 08:00-22:00", "brand": "ALDI", "brand:wikidata": "Q41171672", "nsi_id": "aldi-0d26d7"}},
{"type": "Feature", "id": "USSfhTWK-OJQGPvbrWWVGn0LL6Y=", "properties": {"ref": "DaMuQiao", "map": "https://j.map.baidu.com/d7/MbCc", "@spider": "aldi_sud_cn", "shop": "supermarket", "addr:full": "B2008-9, B2 floor, No.18, Damuqiao Street, Xuhui District, Shanghai", "addr:country": "CN", "name": "ALDI Damuqiao Store", "opening_hours": "Mo-Su 08:00-22:00", "brand": "ALDI", "brand:wikidata": "Q41171672", "nsi_id": "aldi-0d26d7"}},
{"type": "Feature", "id": "NzIl2hRgnZCvDoDmm2udAsFtALg=", "properties": {"ref": "LuoXiuMIX", "map": "https://j.map.baidu.com/25/Ctmf", "@spider": "aldi_sud_cn", "shop": "supermarket", "addr:full": "B01,B1 floor, No.897, luoxiu Road, Xuhui District, Shanghai", "addr:country": "CN", "name": "ALDI Luoxiu Store", "opening_hours": "Mo-Su 08:00-22:00", "brand": "ALDI", "brand:wikidata": "Q41171672", "nsi_id": "aldi-0d26d7"}},
{"type": "Feature", "id": "EvnAw-tmK59RdhkOi3LGBDb3aAo=", "properties": {"ref": "TianShanMIX", "map": "https://j.map.baidu.com/85/ERvc", "@spider": "aldi_sud_cn", "shop": "supermarket", "addr:full": "B49, B1 floor, No.1111, Tianshan Road, Changning District, Shanghai", "addr:country": "CN", "name": "ALDI Tianshan MIX Store", "opening_hours": "Mo-Su 08:00-22:00", "brand": "ALDI", "brand:wikidata": "Q41171672", "nsi_id": "aldi-0d26d7"}},
{"type": "Feature", "id": "MXwWeGfvyHYeFPunr6L6Bx6wdlw=", "properties": {"ref": "GoldenStreet", "map": "https://j.map.baidu.com/7c/pWBc", "@spider": "aldi_sud_cn", "shop": "supermarket", "addr:full": "1&3, 1st floor, No.776, Golden Street, Changning District, Shanghai", "addr:country": "CN", "name": "Golden Street Store", "opening_hours": "Mo-Su 08:00-22:00", "brand": "ALDI", "brand:wikidata": "Q41171672", "nsi_id": "aldi-0d26d7"}},
{"type": "Feature", "id": "2GYpfZzz2Gseu2vSLv_lgVPAt7g=", "properties": {"ref": "GuMeiLife", "map": "https://j.map.baidu.com/e7/rel", "@spider": "aldi_sud_cn", "shop": "supermarket", "addr:full": "1st Floor, Gumei Life Shopping Plaza, No.1300 Longming Road, Minhang District, Shanghai", "addr:country": "CN", "name": "Gumei Life Shopping Plaza Store", "opening_hours": "Mo-Su 08:00-22:00", "brand": "ALDI", "brand:wikidata": "Q41171672", "nsi_id": "aldi-0d26d7"}},
{"type": "Feature", "id": "vNzbu2KgCaf8YGfBXXTcft9d5pk=", "properties": {"ref": "HongSong", "map": "https://j.map.baidu.com/9b/DNuJ", "@spider": "aldi_sud_cn", "shop": "supermarket", "addr:full": "No.227, Hongsong Rd, Minhang District, Shanghai", "addr:country": "CN", "name": "Minhang Hongsong Store", "opening_hours": "Mo-Su 08:00-22:00", "brand": "ALDI", "brand:wikidata": "Q41171672", "nsi_id": "aldi-0d26d7"}},
{"type": "Feature", "id": "AEP19zAVT2x6Tek-NcV3undpU6E=", "properties": {"ref": "LianHua", "map": "https://j.map.baidu.com/32/L84J", "@spider": "aldi_sud_cn", "shop": "supermarket", "addr:full": "1 Floor, No. 7399, Lianhua Road Metro Station Store, Minhang District, Shanghai", "addr:country": "CN", "name": "Minhang Lianhua Store", "opening_hours": "Mo-Su 08:00-22:00", "brand": "ALDI", "brand:wikidata": "Q41171672", "nsi_id": "aldi-0d26d7"}},
{"type": "Feature", "id": "Y5aBeZrkGTGs_tz1HF6zElvPZwo=", "properties": {"ref": "JingTingTianDi", "map": "https://j.map.baidu.com/21/t4iu", "@spider": "aldi_sud_cn", "shop": "supermarket", "addr:full": "1-14 ,1floor,1078,hongquanRd,Minhang District, Shanghai", "addr:country": "CN", "name": "ALDI Jingting Tiandi Store", "opening_hours": "Mo-Su 08:00-22:00", "brand": "ALDI", "brand:wikidata": "Q41171672", "nsi_id": "aldi-0d26d7"}},
{"type": "Feature", "id": "pYiyQKdk2shLAxn8Nx2hh95Ggpc=", "properties": {"ref": "RuiHong", "map": "https://j.map.baidu.com/08/OSO", "@spider": "aldi_sud_cn", "shop": "supermarket", "addr:full": "1st Floor, No. 233, Hongguan Road, Hongkou District, Shanghai", "addr:country": "CN", "name": "Hongkou Ruihong Store", "opening_hours": "Mo-Su 08:00-22:00", "brand": "ALDI", "brand:wikidata": "Q41171672", "nsi_id": "aldi-0d26d7"}},
{"type": "Feature", "id": "YfYz5Azj2uA6bGmYC9C4mkldsP8=", "properties": {"ref": "KongJiang", "map": "https://j.map.baidu.com/8b/16JJ", "@spider": "aldi_sud_cn", "shop": "supermarket", "addr:full": "1st floor, No.2068, Kongjiang Rd, Yangpu District, Shanghai", "addr:country": "CN", "name": "Yangpu Kongjiang Store", "opening_hours": "Mo-Su 08:00-22:00", "brand": "ALDI", "brand:wikidata": "Q41171672", "nsi_id": "aldi-0d26d7"}},
{"type": "Feature", "id": "oaXK11gfnFn6hctXK9Mp2roFkeo=", "properties": {"ref": "YanJi", "map": "https://j.map.baidu.com/bb/k2cc", "@spider": "aldi_sud_cn", "shop": "supermarket", "addr:full": "1st floor, No.235, Middle Yanji Road, Yangpu District, Shanghai", "addr:country": "CN", "name": "Yangpu Yanji Store", "opening_hours": "Mo-Su 08:00-22:00", "brand": "ALDI", "brand:wikidata": "Q41171672", "nsi_id": "aldi-0d26d7"}},
{"type": "Feature", "id": "a1eY1er6IhfAmxFHoyWuHR6B2J0=", "properties": {"ref": "ChangShouCIFI", "map": "https://j.map.baidu.com/b3/ZGsc", "@spider": "aldi_sud_cn", "shop": "supermarket", "addr:full": "B107-109, B1 Floor, No.333 Changshou Road, Putuo District, Shanghai", "addr:country": "CN", "name": "ALDI Changshou CIFI Store", "opening_hours": "Mo-Su 07:30-22:00", "brand": "ALDI", "brand:wikidata": "Q41171672", "nsi_id": "aldi-0d26d7"}},
{"type": "Feature", "id": "qb9eCqVH5X2Swu3M0qDIV_SxrBw=", "properties": {"ref": "GEMCity", "map": "https://j.map.baidu.com/7f/5-sc", "@spider": "aldi_sud_cn", "shop": "supermarket", "addr:full": "1st floor, No.22, Lane 286, Shiquan East Road, Putuo District, Shanghai", "addr:country": "CN", "name": "ALDI GEM City Mini Store", "opening_hours": "Mo-Su 08:00-22:00", "brand": "ALDI", "brand:wikidata": "Q41171672", "nsi_id": "aldi-0d26d7"}},
{"type": "Feature", "id": "Zmq3OpZyFOy7ooTVqp8xjZf2rE8=", "properties": {"ref": "ZhongHuanBaiLian", "map": "https://j.map.baidu.com/87/Ng0c", "@spider": "aldi_sud_cn", "shop": "supermarket", "addr:full": "A section, 1st floor, No.1288, Zhenguang Road, Putuo District, Shanghai", "addr:country": "CN", "name": "ALDI Zhonghuan Bailian Store", "opening_hours": "Mo-Su 08:00-22:00", "brand": "ALDI", "brand:wikidata": "Q41171672", "nsi_id": "aldi-0d26d7"}},
{"type": "Feature", "id": "FnRNO7EA9WWPLwvlCgOkuNyg-YA=", "properties": {"ref": "MTRCityPlaza", "map": "https://j.map.baidu.com/52/_fef", "@spider": "aldi_sud_cn", "shop": "supermarket", "addr:full": "S-B2-01\uff0cB2\uff0cNo.788 ZhenbeiRoad\uff0cPutuo District\uff0cShanghai", "addr:country": "CN", "name": "ALDI MTR City Plaza Store", "opening_hours": "Mo-Su 08:00-22:00", "brand": "ALDI", "brand:wikidata": "Q41171672", "nsi_id": "aldi-0d26d7"}},
{"type": "Feature", "id": "IksBkFaZ76trJ_HybEufkQyjoPQ=", "properties": {"ref": "FortunePlaza", "map": "https://j.map.baidu.com/43/s3b", "@spider": "aldi_sud_cn", "shop": "supermarket", "addr:full": "1st Floor, No.1367 Dongfang Road, Pudong New District, Shanghai", "addr:country": "CN", "name": "Pudong Fortune Plaza Store", "opening_hours": "Mo-Su 07:30-22:00", "brand": "ALDI", "brand:wikidata": "Q41171672", "nsi_id": "aldi-0d26d7"}},
{"type": "Feature", "id": "SvRJ79dr-SUhvKvPLWz9wh5D0zE=", "properties": {"ref": "ShiMao", "map": "https://j.map.baidu.com/52/pcP", "@spider": "aldi_sud_cn", "shop": "supermarket", "addr:full": "B1025, B1 floor, No.683,Yunjin RD, Xuhui District, Shanghai", "addr:country": "CN", "name": "Pudong Shimao Store", "opening_hours": "Mo-Su 08:00-22:00", "brand": "ALDI", "brand:wikidata": "Q41171672", "nsi_id": "aldi-0d26d7"}},
{"type": "Feature", "id": "NUrH-lWIfYU2nyIIYh_-yBK4w6U=", "properties": {"ref": "ChangDao", "map": "https://j.map.baidu.com/9f/T_lJ", "@spider": "aldi_sud_cn", "shop": "supermarket", "addr:full": "1st floor, No.1146, Changdao Rd, Pudong New District, Shanghai", "addr:country": "CN", "name": "Pudong Changdao Store", "opening_hours": "Mo-Su 07:30-22:00", "brand": "ALDI", "brand:wikidata": "Q41171672", "nsi_id": "aldi-0d26d7"}},
{"type": "Feature", "id": "hISoVELYzcdQcnSKNUrFesla40s=", "properties": {"ref": "JinXiuYouJia", "map": "https://j.map.baidu.com/3f/kGVJ", "@spider": "aldi_sud_cn", "shop": "supermarket", "addr:full": "1st floor, No. 1399 Chengshan Road, Pudong New District,Shanghai", "addr:country": "CN", "name": "Pudong Jinxiu Youjia Store", "opening_hours": "Mo-Su 08:00-22:00", "brand": "ALDI", "brand:wikidata": "Q41171672", "nsi_id": "aldi-0d26d7"}},
{"type": "Feature", "id": "511vKZcFNpyUc-6496hXd-3J4wg=", "properties": {"ref": "JinYang", "map": "https://j.map.baidu.com/f7/5iWJ", "@spider": "aldi_sud_cn", "shop": "supermarket", "addr:full": "1st floor, No.608, Jinyang Road, Pudong New District, Shanghai", "addr:country": "CN", "name": "Pudong Jinyang Store", "opening_hours": "Mo-Su 08:00-22:00", "brand": "ALDI", "brand:wikidata": "Q41171672", "nsi_id": "aldi-0d26d7"}},
{"type": "Feature", "id": "VEtmU-vVuRPZuEAyqA-l-dn8hfQ=", "properties": {"ref": "FuHuiPlaza", "map": "https://j.map.baidu.com/d4/vHjf", "@spider": "aldi_sud_cn", "shop": "supermarket", "addr:full": "217-219, 2 floor, No.2, Lane 80, Yinghua Road, Pudong District, Shanghai", "addr:country": "CN", "name": "ALDI Fuhui Plaza Store", "opening_hours": "Mo-Su 08:00-22:00", "brand": "ALDI", "brand:wikidata": "Q41171672", "nsi_id": "aldi-0d26d7"}},
{"type": "Feature", "id": "rk8CJjZslelLyW6KO3fBcUsOIvo=", "properties": {"ref": "RedSunPlaza", "map": "https://j.map.baidu.com/a9/su7J", "@spider": "aldi_sud_cn", "shop": "supermarket", "addr:full": "1 Floor, No.533, Tonghe Road, Red Sun Commercial Plaza, Baoshan District, Shanghai", "addr:country": "CN", "name": "Baoshan Red Sun Plaza Store", "opening_hours": "Mo-Su 08:00-22:00", "brand": "ALDI", "brand:wikidata": "Q41171672", "nsi_id": "aldi-0d26d7"}},
{"type": "Feature", "id": "WLuT4lLVQAHOkkOe1ynUZVOVkDc=", "properties": {"ref": "DaHuaTigerCity", "map": "https://j.map.baidu.com/b6/1kac", "@spider": "aldi_sud_cn", "shop": "supermarket", "addr:full": "1st floor, No. 928 Zhenhua Road, Baoshan District, Shanghai", "addr:country": "CN", "name": "Baoshan Dahua Tiger City Store", "opening_hours": "Mo-Su 08:00-22:00", "brand": "ALDI", "brand:wikidata": "Q41171672", "nsi_id": "aldi-0d26d7"}},
{"type": "Feature", "id": "SW-zj-DjNkivQT8Ec259SjGKcLE=", "properties": {"ref": "LaiFang", "map": "https://j.map.baidu.com/4c/qlU", "@spider": "aldi_sud_cn", "shop": "supermarket", "addr:full": "1st Floor, No.417, Laifang Road, Songjiang District, Shanghai", "addr:country": "CN", "name": "Songjiang Laifang Store", "opening_hours": "Mo-Su 08:00-22:00", "brand": "ALDI", "brand:wikidata": "Q41171672", "nsi_id": "aldi-0d26d7"}}]}