{"type":"FeatureCollection","features":[{"type": "Feature", "id": "s4SDB4AKtx6-zvlVHcf6VWTtirk=", "properties": {"ref": "BIA-77", "@spider": "aldi_sud_hu", "shop": "supermarket", "addr:full": "F\u0171z\u00e9r utca 1., Kiskunhalas, 6400", "addr:street_address": "F\u0171z\u00e9r utca 1.", "addr:city": "Kiskunhalas", "addr:postcode": "6400", "addr:country": "HU", "name": "BIA-77", "phone": "+36-80-088-264", "opening_hours": "Mo-Sa 07:00-20:00; Su 07:00-19:00", "brand": "ALDI", "brand:wikidata": "Q41171672", "nsi_id": "aldi-0d26d7"}, "geometry": {"type": "Point", "coordinates": [19.49578, 46.41824]}},
{"type": "Feature", "id": "lppvABTZJb00guU3SDi7pbXsZrQ=", "properties": {"ref": "BIA-244", "@spider": "aldi_sud_hu", "shop": "supermarket", "addr:full": "Nagyv\u00e1thy J\u00e1nos u. 2., Miskolc, 3503", "addr:street_address": "Nagyv\u00e1thy J\u00e1nos u. 2.", "addr:city": "Miskolc", "addr:postcode": "3503", "addr:country": "HU", "name": "BIA-244", "phone": "+36-80-088-264", "opening_hours": "Mo-Sa 06:30-21:00; Su 07:00-19:00", "brand": "ALDI", "brand:wikidata": "Q41171672", "nsi_id": "aldi-0d26d7"}, "geometry": {"type": "Point", "coordinates": [20.76444, 48.10343]}},
{"type": "Feature", "id": "hPlOpDCnCdPN61qZWxTbXxrtkk4=", "properties": {"ref": "BIA-98", "@spider": "aldi_sud_hu", "shop": "supermarket", "addr:full": "Pazonyi \u00fat 40., Ny\u00edregyh\u00e1za, 4400", "addr:street_address": "Pazonyi \u00fat 40.", "addr:city": "Ny\u00edregyh\u00e1za", "addr:postcode": "4400", "addr:country": "HU", "name": "BIA-98", "phone": "+36-80-088-264", "opening_hours": "Mo-Sa 07:00-21:00; Su 07:00-19:00", "brand": "ALDI", "brand:wikidata": "Q41171672", "nsi_id": "aldi-0d26d7"}, "geometry": {"type": "Point", "coordinates": [21.74113, 47.97067]}},
{"type": "Feature", "id": "j-zKOL2oYHL06etI4J2duHWuk1Y=", "properties": {"ref": "BIA-178", "@spider": "aldi_sud_hu", "shop": "supermarket", "addr:full": "V\u00e1ci Mih\u00e1ly u. 2754/26 hrsz, Enying, 8130", "addr:street_address": "V\u00e1ci Mih\u00e1ly u. 2754/26 hrsz", "addr:city": "Enying", "addr:postcode": "8130", "addr:country": "HU", "name": "BIA-178", "phone": "+36-80-088-264", "opening_hours": "Mo-Sa 07:00-20:00; Su 07:00-19:00", "brand": "ALDI", "brand:wikidata": "Q41171672", "nsi_id": "aldi-0d26d7"}, "geometry": {"type": "Point", "coordinates": [18.229039, 46.945965]}},
{"type": "Feature", "id": "RASJflBi10G9iKaOvr3AtwhVQw8=", "properties": {"ref": "BIA-82", "@spider": "aldi_sud_hu", "shop": "supermarket", "addr:full": "Kabai \u00fatf\u00e9l 0348/5, Hajd\u00faszoboszl\u00f3, 4200", "addr:street_address": "Kabai \u00fatf\u00e9l 0348/5", "addr:city": "Hajd\u00faszoboszl\u00f3", "addr:postcode": "4200", "addr:country": "HU", "name": "BIA-82", "phone": "+36-80-088-264", "opening_hours": "Mo-Sa 07:00-20:00; Su 07:00-19:00", "brand": "ALDI", "brand:wikidata": "Q41171672", "nsi_id": "aldi-0d26d7"}, "geometry": {"type": "Point", "coordinates": [21.37807, 47.43665]}},
{"type": "Feature", "id": "WpxJ3rklQ6p8j1NYKAvceIZWq1I=", "properties": {"ref": "BIA-7", "@spider": "aldi_sud_hu", "shop": "supermarket", "addr:full": "Kir\u00e1lyhidai \u00fat 63., Mosonmagyar\u00f3v\u00e1r, 9200", "addr:street_address": "Kir\u00e1lyhidai \u00fat 63.", "addr:city": "Mosonmagyar\u00f3v\u00e1r", "addr:postcode": "9200", "addr:country": "HU", "name": "BIA-7", "phone": "+36-80-088-264", "opening_hours": "Mo-Sa 06:30-20:00; Su 07:00-19:00", "brand": "ALDI", "brand:wikidata": "Q41171672", "nsi_id": "aldi-0d26d7"}, "geometry": {"type": "Point", "coordinates": [17.25577, 47.87927]}},
{"type": "Feature", "id": "69H1acJlc6eVDsx8ZR3A7QESitY=", "properties": {"ref": "BIA-64", "@spider": "aldi_sud_hu", "shop": "supermarket", "addr:full": "V\u00e1mh\u00e1z k\u00f6r\u00fat 1-3., Budapest, 1093", "addr:street_address": "V\u00e1mh\u00e1z k\u00f6r\u00fat 1-3.", "addr:city": "Budapest", "addr:postcode": "1093", "addr:country": "HU", "name": "BIA-64", "phone": "+36-80-088-264", "opening_hours": "Mo-Sa 06:30-21:00; Su 07:00-19:00", "brand": "ALDI", "brand:wikidata": "Q41171672", "nsi_id": "aldi-0d26d7"}, "geometry": {"type": "Point", "coordinates": [19.0582, 47.48729]}},
{"type": "Feature", "id": "n4waxJrDTgYLnsbFc2XSofL-PXg=", "properties": {"ref": "BIA-115", "@spider": "aldi_sud_hu", "shop": "supermarket", "addr:full": "Ady Endre u. 3., Monor, 2200", "addr:street_address": "Ady Endre u. 3.", "addr:city": "Monor", "addr:postcode": "2200", "addr:country": "HU", "name": "BIA-115", "phone": "+36-80-088-264", "opening_hours": "Mo-Sa 07:00-21:00; Su 07:00-19:00", "brand": "ALDI", "brand:wikidata": "Q41171672", "nsi_id": "aldi-0d26d7"}, "geometry": {"type": "Point", "coordinates": [19.4443, 47.3521]}},
{"type": "Feature", "id": "sY7UpAf7B5je5gzjpf6oGAbcz7I=", "properties": {"ref": "BIA-143", "@spider": "aldi_sud_hu", "shop": "supermarket", "addr:full": "J\u00e1szi Oszk\u00e1r u. 4., \u00d3zd, 3600", "addr:street_address": "J\u00e1szi Oszk\u00e1r u. 4.", "addr:city": "\u00d3zd", "addr:postcode": "3600", "addr:country": "HU", "name": "BIA-143", "phone": "+36-80-088-264", "opening_hours": "Mo-Sa 07:00-20:00; Su 07:00-19:00", "brand": "ALDI", "brand:wikidata": "Q41171672", "nsi_id": "aldi-0d26d7"}, "geometry": {"type": "Point", "coordinates": [20.289407, 48.220712]}},
{"type": "Feature", "id": "ozbTG8-yx_LuLm2Br2I5_z7ozm0=", "properties": {"ref": "BIA-10", "@spider": "aldi_sud_hu", "shop": "supermarket", "addr:full": "Szt. Fl\u00f3ri\u00e1n Krt. 11., Sz\u00e9kesfeh\u00e9rv\u00e1r, 8000", "addr:street_address": "Szt. Fl\u00f3ri\u00e1n Krt. 11.", "addr:city": "Sz\u00e9kesfeh\u00e9rv\u00e1r", "addr:postcode": "8000", "addr:country": "HU", "name": "BIA-10", "phone": "+36-80-088-264", "opening_hours": "Mo-Sa 07:00-20:00; Su 07:00-19:00", "brand": "ALDI", "brand:wikidata": "Q41171672", "nsi_id": "aldi-0d26d7"}, "geometry": {"type": "Point", "coordinates": [18.41739, 47.21313]}},
{"type": "Feature", "id": "3PqOLIiFSS9Oi7VyZ63XKlUC0F0=", "properties": {"ref": "BIA-128", "@spider": "aldi_sud_hu", "shop": "supermarket", "addr:full": "P\u00e9terfia utca 18., Debrecen, 4026", "addr:street_address": "P\u00e9terfia utca 18.", "addr:city": "Debrecen", "addr:postcode": "4026", "addr:country": "HU", "name": "BIA-128", "phone": "+36-80-088-264", "opening_hours": "Mo-Sa 07:00-21:00; Su 07:00-19:00", "brand": "ALDI", "brand:wikidata": "Q41171672", "nsi_id": "aldi-0d26d7"}, "geometry": {"type": "Point", "coordinates": [21.625606, 47.534849]}},
{"type": "Feature", "id": "eDK-vMeBP_OT7vloJtMTysEgab8=", "properties": {"ref": "BIA-242", "@spider": "aldi_sud_hu", "shop": "supermarket", "addr:full": "K\u00f6nyves K\u00e1lm\u00e1n krt. 12-14., Budapest, 1097", "addr:street_address": "K\u00f6nyves K\u00e1lm\u00e1n krt. 12-14.", "addr:city": "Budapest", "addr:postcode": "1097", "addr:country": "HU", "name": "BIA-242", "phone": "+36-80-088-264", "opening_hours": "Mo-Sa 07:00-21:00; Su 07:00-19:00", "brand": "ALDI", "brand:wikidata": "Q41171672", "nsi_id": "aldi-0d26d7"}, "geometry": {"type": "Point", "coordinates": [19.08392, 47.47213]}},
{"type": "Feature", "id": "cwjpIGvtPwhqEZNQMTQzs9E0cNs=", "properties": {"ref": "BIA-184", "@spider": "aldi_sud_hu", "shop": "supermarket", "addr:full": "B\u00e9csi \u00fat 35-36., T\u00e1t, 2534", "addr:street_address": "B\u00e9csi \u00fat 35-36.", "addr:city": "T\u00e1t", "addr:postcode": "2534", "addr:country": "HU", "name": "BIA-184", "phone": "+36-80-088-264", "opening_hours": "Mo-Sa 06:30-20:00; Su 07:00-19:00", "brand": "ALDI", "brand:wikidata": "Q41171672", "nsi_id": "aldi-0d26d7"}, "geometry": {"type": "Point", "coordinates": [18.660641, 47.738474]}},
{"type": "Feature", "id": "Ct0Ev9wldiMSnZFdVtLyDlK99ps=", "properties": {"ref": "BIA-121", "@spider": "aldi_sud_hu", "shop": "supermarket", "addr:full": "R\u00e1k\u00f3czi \u00fat 13/A., Kecskem\u00e9t, 6000", "addr:street_address": "R\u00e1k\u00f3czi \u00fat 13/A.", "addr:city": "Kecskem\u00e9t", "addr:postcode": "6000", "addr:country": "HU", "name": "BIA-121", "phone": "+36-80-088-264", "opening_hours": "Mo-Sa 07:00-21:00; Su 07:00-19:00", "brand": "ALDI", "brand:wikidata": "Q41171672", "nsi_id": "aldi-0d26d7"}, "geometry": {"type": "Point", "coordinates": [19.697543, 46.909651]}},
{"type": "Feature", "id": "tVe3RFhBOgAmNet2lm3Vekks_TQ=", "properties": {"ref": "BIA-99", "@spider": "aldi_sud_hu", "shop": "supermarket", "addr:full": "Fels\u0151-Szandai r\u00e9t 9., Szolnok, 5000", "addr:street_address": "Fels\u0151-Szandai r\u00e9t 9.", "addr:city": "Szolnok", "addr:postcode": "5000", "addr:country": "HU", "name": "BIA-99", "phone": "+36-80-088-264", "opening_hours": "Mo-Sa 07:00-20:00; Su 07:00-19:00", "brand": "ALDI", "brand:wikidata": "Q41171672", "nsi_id": "aldi-0d26d7"}, "geometry": {"type": "Point", "coordinates": [20.19815, 47.1567]}},
{"type": "Feature", "id": "ThffCi86sFxmLLQmA5ursXe80BE=", "properties": {"ref": "BIA-21", "@spider": "aldi_sud_hu", "shop": "supermarket", "addr:full": "Gy\u0151ri \u00fat 45., Sopron, 9400", "addr:street_address": "Gy\u0151ri \u00fat 45.", "addr:city": "Sopron", "addr:postcode": "9400", "addr:country": "HU", "name": "BIA-21", "phone": "+36-80-088-264", "opening_hours": "Mo-Sa 07:00-21:00; Su 07:00-19:00", "brand": "ALDI", "brand:wikidata": "Q41171672", "nsi_id": "aldi-0d26d7"}, "geometry": {"type": "Point", "coordinates": [16.61698, 47.67081]}},
{"type": "Feature", "id": "w67vgMH_gceh6m9qp2r1r_mzfG0=", "properties": {"ref": "BIA-14", "@spider": "aldi_sud_hu", "shop": "supermarket", "addr:full": "Malomsz\u00e9ki utca 11., Gy\u0151r, 9012", "addr:street_address": "Malomsz\u00e9ki utca 11.", "addr:city": "Gy\u0151r", "addr:postcode": "9012", "addr:country": "HU", "name": "BIA-14", "phone": "+36-80-088-264", "opening_hours": "Mo-Sa 07:00-21:00; Su 07:00-19:00", "brand": "ALDI", "brand:wikidata": "Q41171672", "nsi_id": "aldi-0d26d7"}, "geometry": {"type": "Point", "coordinates": [17.63202, 47.65287]}},
{"type": "Feature", "id": "UtotvDSbGH8HM1qjpO4uTJkAMK4=", "properties": {"ref": "BIA-125", "@spider": "aldi_sud_hu", "shop": "supermarket", "addr:full": "Szugl\u00f3 utca 60-62., Budapest, 1145", "addr:street_address": "Szugl\u00f3 utca 60-62.", "addr:city": "Budapest", "addr:postcode": "1145", "addr:country": "HU", "name": "BIA-125", "phone": "+36-80-088-264", "opening_hours": "Mo-Sa 07:00-21:00; Su 07:00-19:00", "brand": "ALDI", "brand:wikidata": "Q41171672", "nsi_id": "aldi-0d26d7"}, "geometry": {"type": "Point", "coordinates": [19.113024, 47.515404]}},
{"type": "Feature", "id": "s2AAbzSa0QZct1KvGLKJp-mo7WE=", "properties": {"ref": "BIA-95", "@spider": "aldi_sud_hu", "shop": "supermarket", "addr:full": "V\u00e1rosmajor utca 53., Kisv\u00e1rda, 4600", "addr:street_address": "V\u00e1rosmajor utca 53.", "addr:city": "Kisv\u00e1rda", "addr:postcode": "4600", "addr:country": "HU", "name": "BIA-95", "phone": "+36-80-088-264", "opening_hours": "Mo-Sa 07:00-20:00; Su 07:00-19:00", "brand": "ALDI", "brand:wikidata": "Q41171672", "nsi_id": "aldi-0d26d7"}, "geometry": {"type": "Point", "coordinates": [22.06409, 48.23527]}},
{"type": "Feature", "id": "ehPj3TmdLjTiLWF3sKrEWaLVbXk=", "properties": {"ref": "BIA-9", "@spider": "aldi_sud_hu", "shop": "supermarket", "addr:full": "Attila utca 74., Si\u00f3fok, 8600", "addr:street_address": "Attila utca 74.", "addr:city": "Si\u00f3fok", "addr:postcode": "8600", "addr:country": "HU", "name": "BIA-9", "phone": "+36-80-088-264", "opening_hours": "Mo-Sa 06:30-20:00; Su 07:00-19:00", "brand": "ALDI", "brand:wikidata": "Q41171672", "nsi_id": "aldi-0d26d7"}, "geometry": {"type": "Point", "coordinates": [18.05812, 46.89161]}},
{"type": "Feature", "id": "3XARYV-2PfqqO9AOQ8VzMh7whhw=", "properties": {"ref": "BIA-44", "@spider": "aldi_sud_hu", "shop": "supermarket", "addr:full": "Eszperant\u00f3 \u00fat 4., Duna\u00fajv\u00e1ros, 2400", "addr:street_address": "Eszperant\u00f3 \u00fat 4.", "addr:city": "Duna\u00fajv\u00e1ros", "addr:postcode": "2400", "addr:country": "HU", "name": "BIA-44", "phone": "+36-80-088-264", "opening_hours": "Mo-Sa 07:00-20:00; Su 07:00-19:00", "brand": "ALDI", "brand:wikidata": "Q41171672", "nsi_id": "aldi-0d26d7"}, "geometry": {"type": "Point", "coordinates": [18.9492, 46.9564]}},
{"type": "Feature", "id": "oKjG5l6M2zkJDWwJu4h9Z0vpI6k=", "properties": {"ref": "BIA-34", "@spider": "aldi_sud_hu", "shop": "supermarket", "addr:full": "Vas\u00fat utca 4., Paks, 7030", "addr:street_address": "Vas\u00fat utca 4.", "addr:city": "Paks", "addr:postcode": "7030", "addr:country": "HU", "name": "BIA-34", "phone": "+36-80-088-264", "opening_hours": "Mo-Sa 07:00-20:00; Su 07:00-19:00", "brand": "ALDI", "brand:wikidata": "Q41171672", "nsi_id": "aldi-0d26d7"}, "geometry": {"type": "Point", "coordinates": [18.851692, 46.610089]}},
{"type": "Feature", "id": "7HjaqGqb3co9rYRP0rX1HU9aQx4=", "properties": {"ref": "BIA-48", "@spider": "aldi_sud_hu", "shop": "supermarket", "addr:full": "R\u00e1k\u00f3czi \u00fat 38., Budapest, 1039", "addr:street_address": "R\u00e1k\u00f3czi \u00fat 38.", "addr:city": "Budapest", "addr:postcode": "1039", "addr:country": "HU", "name": "BIA-48", "phone": "+36-80-088-264", "opening_hours": "Mo-Sa 07:00-22:00; Su 07:00-19:00", "brand": "ALDI", "brand:wikidata": "Q41171672", "nsi_id": "aldi-0d26d7"}, "geometry": {"type": "Point", "coordinates": [19.04991, 47.57994]}},
{"type": "Feature", "id": "sp8vehHhL9e4_l_FodIh0DXBF0E=", "properties": {"ref": "BIA-56", "@spider": "aldi_sud_hu", "shop": "supermarket", "addr:full": "T\u0171zolt\u00f3 utca 10-16., Budapest, 1094", "addr:street_address": "T\u0171zolt\u00f3 utca 10-16.", "addr:city": "Budapest", "addr:postcode": "1094", "addr:country": "HU", "name": "BIA-56", "phone": "+36-80-088-264", "opening_hours": "Mo-Sa 06:30-22:00; Su 07:00-19:00", "brand": "ALDI", "brand:wikidata": "Q41171672", "nsi_id": "aldi-0d26d7"}, "geometry": {"type": "Point", "coordinates": [19.07166, 47.48416]}},
{"type": "Feature", "id": "8PpeWM2VqWBwyvdQUUAmruFVrRg=", "properties": {"ref": "BIA-75", "@spider": "aldi_sud_hu", "shop": "supermarket", "addr:full": "Domb \u00fat 1., Dabas, 2370", "addr:street_address": "Domb \u00fat 1.", "addr:city": "Dabas", "addr:postcode": "2370", "addr:country": "HU", "name": "BIA-75", "phone": "+36-80-088-264", "opening_hours": "Mo-Sa 07:00-20:00; Su 07:00-19:00", "brand": "ALDI", "brand:wikidata": "Q41171672", "nsi_id": "aldi-0d26d7"}, "geometry": {"type": "Point", "coordinates": [19.32109, 47.1955]}},
{"type": "Feature", "id": "35k8AhQ8BYEE5JZXsTODI5QlpoY=", "properties": {"ref": "BIA-186", "@spider": "aldi_sud_hu", "shop": "supermarket", "addr:full": "Noszlopy G\u00e1sp\u00e1r utca 18., Marcali, 8700", "addr:street_address": "Noszlopy G\u00e1sp\u00e1r utca 18.", "addr:city": "Marcali", "addr:postcode": "8700", "addr:country": "HU", "name": "BIA-186", "phone": "+36-80-088-264", "opening_hours": "Mo-Sa 07:00-20:00; Su 07:00-19:00", "brand": "ALDI", "brand:wikidata": "Q41171672", "nsi_id": "aldi-0d26d7"}, "geometry": {"type": "Point", "coordinates": [17.406145, 46.592708]}},
{"type": "Feature", "id": "N1BLeUDIGKgt7SyjFKCORvqpHXI=", "properties": {"ref": "BIA-109", "@spider": "aldi_sud_hu", "shop": "supermarket", "addr:full": "Holland fasor 1., Sz\u00e9kesfeh\u00e9rv\u00e1r, 8000", "addr:street_address": "Holland fasor 1.", "addr:city": "Sz\u00e9kesfeh\u00e9rv\u00e1r", "addr:postcode": "8000", "addr:country": "HU", "name": "BIA-109", "phone": "+36-80-088-264", "opening_hours": "Mo-Sa 07:00-20:00; Su 07:00-19:00", "brand": "ALDI", "brand:wikidata": "Q41171672", "nsi_id": "aldi-0d26d7"}, "geometry": {"type": "Point", "coordinates": [18.43108, 47.15105]}},
{"type": "Feature", "id": "JBEZjKG3H63H-eecNz66qAUxH7M=", "properties": {"ref": "BIA-97", "@spider": "aldi_sud_hu", "shop": "supermarket", "addr:full": "T\u00f6rzs utca 2., Ny\u00edregyh\u00e1za, 4400", "addr:street_address": "T\u00f6rzs utca 2.", "addr:city": "Ny\u00edregyh\u00e1za", "addr:postcode": "4400", "addr:country": "HU", "name": "BIA-97", "phone": "+36-80-088-264", "opening_hours": "Mo-Sa 06:30-21:00; Su 07:00-19:00", "brand": "ALDI", "brand:wikidata": "Q41171672", "nsi_id": "aldi-0d26d7"}, "geometry": {"type": "Point", "coordinates": [21.74331, 47.95301]}},
{"type": "Feature", "id": "avflOlj1BfFyu9Hrx_CkDqGJokE=", "properties": {"ref": "BIA-66", "@spider": "aldi_sud_hu", "shop": "supermarket", "addr:full": "Szalay utca 7-17., Budapest, 1191", "addr:street_address": "Szalay utca 7-17.", "addr:city": "Budapest", "addr:postcode": "1191", "addr:country": "HU", "name": "BIA-66", "phone": "+36-80-088-264", "opening_hours": "Mo-Sa 07:00-21:00; Su 07:00-19:00", "brand": "ALDI", "brand:wikidata": "Q41171672", "nsi_id": "aldi-0d26d7"}, "geometry": {"type": "Point", "coordinates": [19.13137, 47.46263]}},
{"type": "Feature", "id": "VgLwr55b35zERVsYNPwQaVeOLZM=", "properties": {"ref": "BIA-50", "@spider": "aldi_sud_hu", "shop": "supermarket", "addr:full": "Nagyt\u00e9t\u00e9nyi \u00fat 145-147., Budapest, 1225", "addr:street_address": "Nagyt\u00e9t\u00e9nyi \u00fat 145-147.", "addr:city": "Budapest", "addr:postcode": "1225", "addr:country": "HU", "name": "BIA-50", "phone": "+36-80-088-264", "opening_hours": "Mo-Sa 07:00-21:00; Su 07:00-19:00", "brand": "ALDI", "brand:wikidata": "Q41171672", "nsi_id": "aldi-0d26d7"}, "geometry": {"type": "Point", "coordinates": [19.00505, 47.39944]}},
{"type": "Feature", "id": "fGruZ7-xtpm45-L17hlOtBdRxtI=", "properties": {"ref": "BIA-31", "@spider": "aldi_sud_hu", "shop": "supermarket", "addr:full": "Dornyai B\u00e9la utca 5., Veszpr\u00e9m, 8200", "addr:street_address": "Dornyai B\u00e9la utca 5.", "addr:city": "Veszpr\u00e9m", "addr:postcode": "8200", "addr:country": "HU", "name": "BIA-31", "phone": "+36-80-088-264", "opening_hours": "Mo-Sa 07:00-20:00; Su 07:00-19:00", "brand": "ALDI", "brand:wikidata": "Q41171672", "nsi_id": "aldi-0d26d7"}, "geometry": {"type": "Point", "coordinates": [17.92457, 47.08199]}},
{"type": "Feature", "id": "oWGo_Y97IIDdOB87x6mI8PXFelE=", "properties": {"ref": "BIA-154", "@spider": "aldi_sud_hu", "shop": "supermarket", "addr:full": "Akai \u00fat 10., M\u00f3r, 8060", "addr:street_address": "Akai \u00fat 10.", "addr:city": "M\u00f3r", "addr:postcode": "8060", "addr:country": "HU", "name": "BIA-154", "phone": "+36-80-088-264", "opening_hours": "Mo-Sa 07:00-20:00; Su 07:00-19:00", "brand": "ALDI", "brand:wikidata": "Q41171672", "nsi_id": "aldi-0d26d7"}, "geometry": {"type": "Point", "coordinates": [18.18822, 47.376726]}},
{"type": "Feature", "id": "YaR1-6BUkDNmS3CI-oVo-k4zloY=", "properties": {"ref": "BIA-122", "@spider": "aldi_sud_hu", "shop": "supermarket", "addr:full": "Kossuth Lajos sgt. 119., Szeged, 6724", "addr:street_address": "Kossuth Lajos sgt. 119.", "addr:city": "Szeged", "addr:postcode": "6724", "addr:country": "HU", "name": "BIA-122", "phone": "+36-80-088-264", "opening_hours": "Mo-Sa 06:30-21:00; Su 07:00-19:00", "brand": "ALDI", "brand:wikidata": "Q41171672", "nsi_id": "aldi-0d26d7"}, "geometry": {"type": "Point", "coordinates": [20.128715, 46.266531]}},
{"type": "Feature", "id": "6MEZQt_4MfeNjxdrbOTKeMGjPL4=", "properties": {"ref": "BIA-5", "@spider": "aldi_sud_hu", "shop": "supermarket", "addr:full": "Szabads\u00e1g \u00fat 21., G\u00e1rdony, 2484", "addr:street_address": "Szabads\u00e1g \u00fat 21.", "addr:city": "G\u00e1rdony", "addr:postcode": "2484", "addr:country": "HU", "name": "BIA-5", "phone": "+36-80-088-264", "opening_hours": "Mo-Sa 07:00-21:00; Su 07:00-19:00", "brand": "ALDI", "brand:wikidata": "Q41171672", "nsi_id": "aldi-0d26d7"}, "geometry": {"type": "Point", "coordinates": [18.61846, 47.20206]}},
{"type": "Feature", "id": "B2hO3GK_XFlIqYWkF21eXvMGj6U=", "properties": {"ref": "BIA-81", "@spider": "aldi_sud_hu", "shop": "supermarket", "addr:full": "Csongr\u00e1di \u00fat 65., Szentes, 6600", "addr:street_address": "Csongr\u00e1di \u00fat 65.", "addr:city": "Szentes", "addr:postcode": "6600", "addr:country": "HU", "name": "BIA-81", "phone": "+36-80-088-264", "opening_hours": "Mo-Sa 07:00-20:00; Su 07:00-19:00", "brand": "ALDI", "brand:wikidata": "Q41171672", "nsi_id": "aldi-0d26d7"}, "geometry": {"type": "Point", "coordinates": [20.24092, 46.66176]}},
{"type": "Feature", "id": "gwXkzAvQLOFeMNUbIqukAfUrHIc=", "properties": {"ref": "BIA-24", "@spider": "aldi_sud_hu", "shop": "supermarket", "addr:full": "B\u00e1tyai \u00fat 5/A, Kalocsa, 6300", "addr:street_address": "B\u00e1tyai \u00fat 5/A", "addr:city": "Kalocsa", "addr:postcode": "6300", "addr:country": "HU", "name": "BIA-24", "phone": "+36-80-088-264", "opening_hours": "Mo-Sa 07:00-20:00; Su 07:00-19:00", "brand": "ALDI", "brand:wikidata": "Q41171672", "nsi_id": "aldi-0d26d7"}, "geometry": {"type": "Point", "coordinates": [18.97852, 46.52121]}},
{"type": "Feature", "id": "t41EKn4qp66vxdrFjVTvs_X5-ug=", "properties": {"ref": "BIA-40", "@spider": "aldi_sud_hu", "shop": "supermarket", "addr:full": "Jancs\u00e1r k\u00f6z 1-3., Sz\u00e9kesfeh\u00e9rv\u00e1r, 8000", "addr:street_address": "Jancs\u00e1r k\u00f6z 1-3.", "addr:city": "Sz\u00e9kesfeh\u00e9rv\u00e1r", "addr:postcode": "8000", "addr:country": "HU", "name": "BIA-40", "phone": "+36-80-088-264", "opening_hours": "Mo-Sa 06:30-21:00; Su 07:00-19:00", "brand": "ALDI", "brand:wikidata": "Q41171672", "nsi_id": "aldi-0d26d7"}, "geometry": {"type": "Point", "coordinates": [18.40887, 47.18185]}},
{"type": "Feature", "id": "KmlJX7TCailD4G-6aRot-DHtR8w=", "properties": {"ref": "BIA-3", "@spider": "aldi_sud_hu", "shop": "supermarket", "addr:full": "Kand\u00f3 K\u00e1lm\u00e1n utca 2., Buda\u00f6rs, 2040", "addr:street_address": "Kand\u00f3 K\u00e1lm\u00e1n utca 2.", "addr:city": "Buda\u00f6rs", "addr:postcode": "2040", "addr:country": "HU", "name": "BIA-3", "phone": "+36-80-088-264", "opening_hours": "Mo-Sa 06:30-21:00; Su 07:00-19:00", "brand": "ALDI", "brand:wikidata": "Q41171672", "nsi_id": "aldi-0d26d7"}, "geometry": {"type": "Point", "coordinates": [18.89514, 47.46361]}},
{"type": "Feature", "id": "1scjLSHjQo30yyeego1-Yki50Cs=", "properties": {"ref": "BIA-15", "@spider": "aldi_sud_hu", "shop": "supermarket", "addr:full": "De\u00e1k Ferenc utca 10/B, Bonyh\u00e1d, 7150", "addr:street_address": "De\u00e1k Ferenc utca 10/B", "addr:city": "Bonyh\u00e1d", "addr:postcode": "7150", "addr:country": "HU", "name": "BIA-15", "phone": "+36-80-088-264", "opening_hours": "Mo-Sa 07:00-20:00; Su 07:00-19:00", "brand": "ALDI", "brand:wikidata": "Q41171672", "nsi_id": "aldi-0d26d7"}, "geometry": {"type": "Point", "coordinates": [18.53912, 46.29634]}},
{"type": "Feature", "id": "903iBCg3U8je-KjtynhWTMuk9F0=", "properties": {"ref": "BIA-70", "@spider": "aldi_sud_hu", "shop": "supermarket", "addr:full": "G\u00f6d\u00f6ll\u0151i \u00fat 2., V\u00e1c, 2600", "addr:street_address": "G\u00f6d\u00f6ll\u0151i \u00fat 2.", "addr:city": "V\u00e1c", "addr:postcode": "2600", "addr:country": "HU", "name": "BIA-70", "phone": "+36-80-088-264", "opening_hours": "Mo-Sa 07:00-20:00; Su 07:00-19:00", "brand": "ALDI", "brand:wikidata": "Q41171672", "nsi_id": "aldi-0d26d7"}, "geometry": {"type": "Point", "coordinates": [19.14247, 47.76375]}},
{"type": "Feature", "id": "3-CL7USdCKMg6dnNrrkCa-UNmtU=", "properties": {"ref": "BIA-93", "@spider": "aldi_sud_hu", "shop": "supermarket", "addr:full": "K\u00fcls\u0151-Szoboszl\u00f3i utca 2/B, Hajd\u00fab\u00f6sz\u00f6rm\u00e9ny, 4220", "addr:street_address": "K\u00fcls\u0151-Szoboszl\u00f3i utca 2/B", "addr:city": "Hajd\u00fab\u00f6sz\u00f6rm\u00e9ny", "addr:postcode": "4220", "addr:country": "HU", "name": "BIA-93", "phone": "+36-80-088-264", "opening_hours": "Mo-Sa 07:00-20:00; Su 07:00-19:00", "brand": "ALDI", "brand:wikidata": "Q41171672", "nsi_id": "aldi-0d26d7"}, "geometry": {"type": "Point", "coordinates": [21.50138, 47.66246]}},
{"type": "Feature", "id": "yoRi2_2GAgy4Xs0JurpvH_r0tcs=", "properties": {"ref": "BIA-112", "@spider": "aldi_sud_hu", "shop": "supermarket", "addr:full": "Pet\u0151fi S\u00e1ndor utca 80., Balatonf\u00fcred, 8230", "addr:street_address": "Pet\u0151fi S\u00e1ndor utca 80.", "addr:city": "Balatonf\u00fcred", "addr:postcode": "8230", "addr:country": "HU", "name": "BIA-112", "phone": "+36-80-088-264", "opening_hours": "Mo-Sa 06:30-20:00; Su 07:00-19:00", "brand": "ALDI", "brand:wikidata": "Q41171672", "nsi_id": "aldi-0d26d7"}, "geometry": {"type": "Point", "coordinates": [17.897, 46.9622]}},
{"type": "Feature", "id": "4flsSbU7oqcXopYuDi7ociTgv8Y=", "properties": {"ref": "BIA-155", "@spider": "aldi_sud_hu", "shop": "supermarket", "addr:full": "H\u00e1ros utca 11/B., Budapest, 1222", "addr:street_address": "H\u00e1ros utca 11/B.", "addr:city": "Budapest", "addr:postcode": "1222", "addr:country": "HU", "name": "BIA-155", "phone": "+36-80-088-264", "opening_hours": "Mo-Sa 07:00-21:00; Su 07:00-19:00", "brand": "ALDI", "brand:wikidata": "Q41171672", "nsi_id": "aldi-0d26d7"}, "geometry": {"type": "Point", "coordinates": [19.025273, 47.411126]}},
{"type": "Feature", "id": "ubhaptfsfxi-iYZCBYh_Ksev9rQ=", "properties": {"ref": "BIA-41", "@spider": "aldi_sud_hu", "shop": "supermarket", "addr:full": "Tersty\u00e1nszky \u00d6d\u00f6n u. 128., Solym\u00e1r, 2083", "addr:street_address": "Tersty\u00e1nszky \u00d6d\u00f6n u. 128.", "addr:city": "Solym\u00e1r", "addr:postcode": "2083", "addr:country": "HU", "name": "BIA-41", "phone": "+36-80-088-264", "opening_hours": "Mo-Sa 07:00-21:00; Su 07:00-19:00", "brand": "ALDI", "brand:wikidata": "Q41171672", "nsi_id": "aldi-0d26d7"}, "geometry": {"type": "Point", "coordinates": [18.92428, 47.5985]}},
{"type": "Feature", "id": "Xx0dQAzFCPxudvVZWCJhjeNX8SQ=", "properties": {"ref": "BIA-181", "@spider": "aldi_sud_hu", "shop": "supermarket", "addr:full": "Budapest \u00fat 20-28., Veszpr\u00e9m, 8200", "addr:street_address": "Budapest \u00fat 20-28.", "addr:city": "Veszpr\u00e9m", "addr:postcode": "8200", "addr:country": "HU", "name": "BIA-181", "phone": "+36-80-088-264", "opening_hours": "Mo-Sa 07:00-20:00; Su 07:00-19:00", "brand": "ALDI", "brand:wikidata": "Q41171672", "nsi_id": "aldi-0d26d7"}, "geometry": {"type": "Point", "coordinates": [17.918609, 47.095709]}},
{"type": "Feature", "id": "ymm3fisAyyR-PGV_ufF9PmPQ6wk=", "properties": {"ref": "BIA-1", "@spider": "aldi_sud_hu", "shop": "supermarket", "addr:full": "F\u0151 \u00fat 31., Ajka, 8400", "addr:street_address": "F\u0151 \u00fat 31.", "addr:city": "Ajka", "addr:postcode": "8400", "addr:country": "HU", "name": "BIA-1", "phone": "+36-80-088-264", "opening_hours": "Mo-Sa 07:00-20:00; Su 07:00-19:00", "brand": "ALDI", "brand:wikidata": "Q41171672", "nsi_id": "aldi-0d26d7"}, "geometry": {"type": "Point", "coordinates": [17.54627, 47.11788]}},
{"type": "Feature", "id": "rTwd4nwUUlu9dI8prCC9oT-vj9g=", "properties": {"ref": "BIA-243", "@spider": "aldi_sud_hu", "shop": "supermarket", "addr:full": "M\u00e1ty\u00e1s kir\u00e1ly \u00fat 138., Eger, 3300", "addr:street_address": "M\u00e1ty\u00e1s kir\u00e1ly \u00fat 138.", "addr:city": "Eger", "addr:postcode": "3300", "addr:country": "HU", "name": "BIA-243", "phone": "+36-80-088-264", "opening_hours": "Mo-Sa 07:00-21:00; Su 07:00-19:00", "brand": "ALDI", "brand:wikidata": "Q41171672", "nsi_id": "aldi-0d26d7"}, "geometry": {"type": "Point", "coordinates": [20.382522, 47.871838]}},
{"type": "Feature", "id": "3t3C4b6Y7ZnuthpGWonxKenzpPs=", "properties": {"ref": "BIA-179", "@spider": "aldi_sud_hu", "shop": "supermarket", "addr:full": "M\u00e9sz\u00e1ros utca 56/A, Budapest, 1016", "addr:street_address": "M\u00e9sz\u00e1ros utca 56/A", "addr:city": "Budapest", "addr:postcode": "1016", "addr:country": "HU", "name": "BIA-179", "phone": "+36-80-088-264", "opening_hours": "Mo-Sa 06:30-21:00; Su 07:00-19:00", "brand": "ALDI", "brand:wikidata": "Q41171672", "nsi_id": "aldi-0d26d7"}, "geometry": {"type": "Point", "coordinates": [19.031097, 47.491114]}},
{"type": "Feature", "id": "1YC0w35szCeZdXYy6-eaBO9SK3E=", "properties": {"ref": "BIA-94", "@spider": "aldi_sud_hu", "shop": "supermarket", "addr:full": "Nagyk\u00e1tai utca 22/C, J\u00e1szber\u00e9ny, 5100", "addr:street_address": "Nagyk\u00e1tai utca 22/C", "addr:city": "J\u00e1szber\u00e9ny", "addr:postcode": "5100", "addr:country": "HU", "name": "BIA-94", "phone": "+36-80-088-264", "opening_hours": "Mo-Sa 07:00-20:00; Su 07:00-19:00", "brand": "ALDI", "brand:wikidata": "Q41171672", "nsi_id": "aldi-0d26d7"}, "geometry": {"type": "Point", "coordinates": [19.88738, 47.48873]}},
{"type": "Feature", "id": "eiJlek0d53eJ239XHRQVCWR-f9s=", "properties": {"ref": "BIA-51", "@spider": "aldi_sud_hu", "shop": "supermarket", "addr:full": "B\u00f6k\u00e9nyf\u00f6ldi \u00fat 102., Budapest, 1165", "addr:street_address": "B\u00f6k\u00e9nyf\u00f6ldi \u00fat 102.", "addr:city": "Budapest", "addr:postcode": "1165", "addr:country": "HU", "name": "BIA-51", "phone": "+36-80-088-264", "opening_hours": "Mo-Sa 06:30-21:00; Su 07:00-19:00", "brand": "ALDI", "brand:wikidata": "Q41171672", "nsi_id": "aldi-0d26d7"}, "geometry": {"type": "Point", "coordinates": [19.21618, 47.5036]}},
{"type": "Feature", "id": "U8GEH7BXhzNkfZjiNyGltsv6Lnc=", "properties": {"ref": "BIA-6", "@spider": "aldi_sud_hu", "shop": "supermarket", "addr:full": "Korbuly utca 1., Hal\u00e1sztelek, 2314", "addr:street_address": "Korbuly utca 1.", "addr:city": "Hal\u00e1sztelek", "addr:postcode": "2314", "addr:country": "HU", "name": "BIA-6", "phone": "+36-80-088-264", "opening_hours": "Mo-Sa 07:00-21:00; Su 07:00-19:00", "brand": "ALDI", "brand:wikidata": "Q41171672", "nsi_id": "aldi-0d26d7"}, "geometry": {"type": "Point", "coordinates": [19.00308, 47.37573]}},
{"type": "Feature", "id": "6n9JMHkfK20hXqTIlKX22pinOso=", "properties": {"ref": "BIA-79", "@spider": "aldi_sud_hu", "shop": "supermarket", "addr:full": "Omszk park 4., Budakal\u00e1sz, 2011", "addr:street_address": "Omszk park 4.", "addr:city": "Budakal\u00e1sz", "addr:postcode": "2011", "addr:country": "HU", "name": "BIA-79", "phone": "+36-80-088-264", "opening_hours": "Mo-Sa 07:00-21:00; Su 07:00-19:00", "brand": "ALDI", "brand:wikidata": "Q41171672", "nsi_id": "aldi-0d26d7"}, "geometry": {"type": "Point", "coordinates": [19.06158, 47.61426]}},
{"type": "Feature", "id": "qRSr3HGc1Hu9iixtvtJa03EifG0=", "properties": {"ref": "BIA-78", "@spider": "aldi_sud_hu", "shop": "supermarket", "addr:full": "Hadak \u00fatja 9., Kazincbarcika, 3700", "addr:street_address": "Hadak \u00fatja 9.", "addr:city": "Kazincbarcika", "addr:postcode": "3700", "addr:country": "HU", "name": "BIA-78", "phone": "+36-80-088-264", "opening_hours": "Mo-Sa 07:00-20:00; Su 07:00-19:00", "brand": "ALDI", "brand:wikidata": "Q41171672", "nsi_id": "aldi-0d26d7"}, "geometry": {"type": "Point", "coordinates": [20.62205, 48.25904]}},
{"type": "Feature", "id": "keOPZARZ514fbXZ5lKqH8qRR9X8=", "properties": {"ref": "BIA-65", "@spider": "aldi_sud_hu", "shop": "supermarket", "addr:full": "Kossuth Lajos u. 13., Budapest, 1053", "addr:street_address": "Kossuth Lajos u. 13.", "addr:city": "Budapest", "addr:postcode": "1053", "addr:country": "HU", "name": "BIA-65", "phone": "+36-80-088-264", "opening_hours": "Mo-Sa 06:30-21:00; Su 07:00-19:00", "brand": "ALDI", "brand:wikidata": "Q41171672", "nsi_id": "aldi-0d26d7"}, "geometry": {"type": "Point", "coordinates": [19.0587, 47.4938]}},
{"type": "Feature", "id": "EmzkbtraETKsQPlqXnlSW7Ki7Ps=", "properties": {"ref": "BIA-23", "@spider": "aldi_sud_hu", "shop": "supermarket", "addr:full": "R\u00e1k\u00f3czi \u00fat 309., Balatonlelle, 8638", "addr:street_address": "R\u00e1k\u00f3czi \u00fat 309.", "addr:city": "Balatonlelle", "addr:postcode": "8638", "addr:country": "HU", "name": "BIA-23", "phone": "+36-80-088-264", "opening_hours": "Mo-Sa 07:00-20:00; Su 07:00-19:00", "brand": "ALDI", "brand:wikidata": "Q41171672", "nsi_id": "aldi-0d26d7"}, "geometry": {"type": "Point", "coordinates": [17.68052, 46.78284]}},
{"type": "Feature", "id": "hHg2CUHW2Hgvwgmz8KAO2fJ5HHA=", "properties": {"ref": "BIA-30", "@spider": "aldi_sud_hu", "shop": "supermarket", "addr:full": "Zsolnay Vilmos utca 48., P\u00e9cs, 7630", "addr:street_address": "Zsolnay Vilmos utca 48.", "addr:city": "P\u00e9cs", "addr:postcode": "7630", "addr:country": "HU", "name": "BIA-30", "phone": "+36-80-088-264", "opening_hours": "Mo-Sa 07:00-20:00; Su 07:00-19:00", "brand": "ALDI", "brand:wikidata": "Q41171672", "nsi_id": "aldi-0d26d7"}, "geometry": {"type": "Point", "coordinates": [18.25561, 46.07971]}},
{"type": "Feature", "id": "_pM6Nnaz7Gro3v--hb-HUQB1pa0=", "properties": {"ref": "BIA-156", "@spider": "aldi_sud_hu", "shop": "supermarket", "addr:full": "Malomk\u0151 utca 3., Buda\u00f6rs, 2040", "addr:street_address": "Malomk\u0151 utca 3.", "addr:city": "Buda\u00f6rs", "addr:postcode": "2040", "addr:country": "HU", "name": "BIA-156", "phone": "+36-80-088-264", "opening_hours": "Mo-Sa 07:00-21:00; Su 07:00-19:00", "brand": "ALDI", "brand:wikidata": "Q41171672", "nsi_id": "aldi-0d26d7"}, "geometry": {"type": "Point", "coordinates": [18.971061, 47.453309]}},
{"type": "Feature", "id": "bwgzkRJ17eiEbpPJsI90vE_a4QY=", "properties": {"ref": "BIA-159", "@spider": "aldi_sud_hu", "shop": "supermarket", "addr:full": "II. R\u00e1k\u00f3czi Ferenc u. 257., Budapest, 1214", "addr:street_address": "II. R\u00e1k\u00f3czi Ferenc u. 257.", "addr:city": "Budapest", "addr:postcode": "1214", "addr:country": "HU", "name": "BIA-159", "phone": "+36-80-088-264", "opening_hours": "Mo-Sa 06:30-21:00; Su 07:00-19:00", "brand": "ALDI", "brand:wikidata": "Q41171672", "nsi_id": "aldi-0d26d7"}, "geometry": {"type": "Point", "coordinates": [19.051666, 47.404345]}},
{"type": "Feature", "id": "gnqba91S-KKB-KHT_Bfm4c0cY9o=", "properties": {"ref": "BIA-47", "@spider": "aldi_sud_hu", "shop": "supermarket", "addr:full": "R\u00e9tk\u00f6z u. 10/b., Budapest, 1118", "addr:street_address": "R\u00e9tk\u00f6z u. 10/b.", "addr:city": "Budapest", "addr:postcode": "1118", "addr:country": "HU", "name": "BIA-47", "phone": "+36-80-088-264", "opening_hours": "Mo-Sa 06:30-22:00; Su 07:00-19:00", "brand": "ALDI", "brand:wikidata": "Q41171672", "nsi_id": "aldi-0d26d7"}, "geometry": {"type": "Point", "coordinates": [19.005862, 47.46582]}},
{"type": "Feature", "id": "SBzyOlOymj8IKbbGxjcWC57tnF0=", "properties": {"ref": "BIA-27", "@spider": "aldi_sud_hu", "shop": "supermarket", "addr:full": "Demeter utca 2., Szombathely, 9700", "addr:street_address": "Demeter utca 2.", "addr:city": "Szombathely", "addr:postcode": "9700", "addr:country": "HU", "name": "BIA-27", "phone": "+36-80-088-264", "opening_hours": "Mo-Sa 06:30-21:00; Su 07:00-19:00", "brand": "ALDI", "brand:wikidata": "Q41171672", "nsi_id": "aldi-0d26d7"}, "geometry": {"type": "Point", "coordinates": [16.61883, 47.25485]}},
{"type": "Feature", "id": "XoRe-YTFbcLnlRPCYcp-pcfN83I=", "properties": {"ref": "BIA-142", "@spider": "aldi_sud_hu", "shop": "supermarket", "addr:full": "Mozdony u. 2., Cegl\u00e9d, 2700", "addr:street_address": "Mozdony u. 2.", "addr:city": "Cegl\u00e9d", "addr:postcode": "2700", "addr:country": "HU", "name": "BIA-142", "phone": "+36-80-088-264", "opening_hours": "Mo-Sa 07:00-21:00; Su 07:00-19:00", "brand": "ALDI", "brand:wikidata": "Q41171672", "nsi_id": "aldi-0d26d7"}, "geometry": {"type": "Point", "coordinates": [19.80189, 47.18244]}},
{"type": "Feature", "id": "OFhN9DZ_ANJNpm6tf93PBCwfjPk=", "properties": {"ref": "BIA-96", "@spider": "aldi_sud_hu", "shop": "supermarket", "addr:full": "K\u00e1ll\u00f3i \u00fat 16/C, Ny\u00edregyh\u00e1za, 4400", "addr:street_address": "K\u00e1ll\u00f3i \u00fat 16/C", "addr:city": "Ny\u00edregyh\u00e1za", "addr:postcode": "4400", "addr:country": "HU", "name": "BIA-96", "phone": "+36-80-088-264", "opening_hours": "Mo-Sa 06:30-21:00; Su 07:00-19:00", "brand": "ALDI", "brand:wikidata": "Q41171672", "nsi_id": "aldi-0d26d7"}, "geometry": {"type": "Point", "coordinates": [21.73689, 47.94452]}},
{"type": "Feature", "id": "La2ON_MjDfnBYxd74mGP8rce3Os=", "properties": {"ref": "BIA-118", "@spider": "aldi_sud_hu", "shop": "supermarket", "addr:full": "Petneh\u00e1zy utca 12., Budapest, 1139", "addr:street_address": "Petneh\u00e1zy utca 12.", "addr:city": "Budapest", "addr:postcode": "1139", "addr:country": "HU", "name": "BIA-118", "phone": "+36-80-088-264", "opening_hours": "Mo-Sa 07:00-21:00; Su 07:00-19:00", "brand": "ALDI", "brand:wikidata": "Q41171672", "nsi_id": "aldi-0d26d7"}, "geometry": {"type": "Point", "coordinates": [19.071727, 47.534734]}},
{"type": "Feature", "id": "hl_PxWWWGGa7ZZq4c2T1SKPXIG4=", "properties": {"ref": "BIA-194", "@spider": "aldi_sud_hu", "shop": "supermarket", "addr:full": "Orczy \u00fat 46-48., Budapest, 1089", "addr:street_address": "Orczy \u00fat 46-48.", "addr:city": "Budapest", "addr:postcode": "1089", "addr:country": "HU", "name": "BIA-194", "phone": "+36-80-088-264", "opening_hours": "Mo-Sa 06:30-21:00; Su 07:00-19:00", "brand": "ALDI", "brand:wikidata": "Q41171672", "nsi_id": "aldi-0d26d7"}, "geometry": {"type": "Point", "coordinates": [19.092926, 47.486835]}},
{"type": "Feature", "id": "vy4jkBQDAjuBwDKgbZgKbMp0EMg=", "properties": {"ref": "BIA-141", "@spider": "aldi_sud_hu", "shop": "supermarket", "addr:full": "Kazinczy u. 156., S\u00e1toralja\u00fajhely, 3980", "addr:street_address": "Kazinczy u. 156.", "addr:city": "S\u00e1toralja\u00fajhely", "addr:postcode": "3980", "addr:country": "HU", "name": "BIA-141", "phone": "+36-80-088-264", "opening_hours": "Mo-Sa 07:00-20:00; Su 07:00-19:00", "brand": "ALDI", "brand:wikidata": "Q41171672", "nsi_id": "aldi-0d26d7"}, "geometry": {"type": "Point", "coordinates": [21.648114, 48.413531]}},
{"type": "Feature", "id": "VRiF3RygYSdD573XfS6iUeNoR5Y=", "properties": {"ref": "BIA-67", "@spider": "aldi_sud_hu", "shop": "supermarket", "addr:full": "V\u00e1ci \u00fat 14., Budapest, 1132", "addr:street_address": "V\u00e1ci \u00fat 14.", "addr:city": "Budapest", "addr:postcode": "1132", "addr:country": "HU", "name": "BIA-67", "phone": "+36-80-088-264", "opening_hours": "Mo-Sa 06:30-21:00; Su 07:00-19:00", "brand": "ALDI", "brand:wikidata": "Q41171672", "nsi_id": "aldi-0d26d7"}, "geometry": {"type": "Point", "coordinates": [19.05725, 47.51314]}},
{"type": "Feature", "id": "YXdYLDpN2UgexnjuiGzD0fmybiw=", "properties": {"ref": "BIA-4", "@spider": "aldi_sud_hu", "shop": "supermarket", "addr:full": "Dobog\u00f3k\u0151i utca 86., Esztergom, 2500", "addr:street_address": "Dobog\u00f3k\u0151i utca 86.", "addr:city": "Esztergom", "addr:postcode": "2500", "addr:country": "HU", "name": "BIA-4", "phone": "+36-80-088-264", "opening_hours": "Mo-Sa 07:00-20:00; Su 07:00-19:00", "brand": "ALDI", "brand:wikidata": "Q41171672", "nsi_id": "aldi-0d26d7"}, "geometry": {"type": "Point", "coordinates": [18.75543, 47.7744]}},
{"type": "Feature", "id": "XaMIbHRse4JLnNnk1t-zLPbsIbU=", "properties": {"ref": "BIA-68", "@spider": "aldi_sud_hu", "shop": "supermarket", "addr:full": "Rokolya utca 1-13., Budapest, 1131", "addr:street_address": "Rokolya utca 1-13.", "addr:city": "Budapest", "addr:postcode": "1131", "addr:country": "HU", "name": "BIA-68", "phone": "+36-80-088-264", "opening_hours": "Mo-Sa 06:30-21:00; Su 07:00-19:00", "brand": "ALDI", "brand:wikidata": "Q41171672", "nsi_id": "aldi-0d26d7"}, "geometry": {"type": "Point", "coordinates": [19.08898, 47.54234]}},
{"type": "Feature", "id": "BLIR0FPK8ozPXubDk9WwJAd0O_s=", "properties": {"ref": "BIA-49", "@spider": "aldi_sud_hu", "shop": "supermarket", "addr:full": "Huszti \u00fat 33., Budapest, 1033", "addr:street_address": "Huszti \u00fat 33.", "addr:city": "Budapest", "addr:postcode": "1033", "addr:country": "HU", "name": "BIA-49", "phone": "+36-80-088-264", "opening_hours": "Mo-Sa 07:00-22:00; Su 07:00-19:00", "brand": "ALDI", "brand:wikidata": "Q41171672", "nsi_id": "aldi-0d26d7"}, "geometry": {"type": "Point", "coordinates": [19.04082, 47.55488]}},
{"type": "Feature", "id": "q4-uyk5j9d3VpzyIpOK9Sh0QUoI=", "properties": {"ref": "BIA-55", "@spider": "aldi_sud_hu", "shop": "supermarket", "addr:full": "Kerepesi \u00fat 71., Budapest, 1106", "addr:street_address": "Kerepesi \u00fat 71.", "addr:city": "Budapest", "addr:postcode": "1106", "addr:country": "HU", "name": "BIA-55", "phone": "+36-80-088-264", "opening_hours": "Mo-Sa 07:00-21:00; Su 07:00-19:00", "brand": "ALDI", "brand:wikidata": "Q41171672", "nsi_id": "aldi-0d26d7"}, "geometry": {"type": "Point", "coordinates": [19.15092, 47.50336]}},
{"type": "Feature", "id": "c4UwIhO992JfKhINjfdUPJTQDf0=", "properties": {"ref": "BIA-42", "@spider": "aldi_sud_hu", "shop": "supermarket", "addr:full": "T\u00fcz\u00e9r utca 5/A, P\u00e9cs, 7633", "addr:street_address": "T\u00fcz\u00e9r utca 5/A", "addr:city": "P\u00e9cs", "addr:postcode": "7633", "addr:country": "HU", "name": "BIA-42", "phone": "+36-80-088-264", "opening_hours": "Mo-Sa 07:00-21:00; Su 07:00-19:00", "brand": "ALDI", "brand:wikidata": "Q41171672", "nsi_id": "aldi-0d26d7"}, "geometry": {"type": "Point", "coordinates": [18.20856, 46.06948]}},
{"type": "Feature", "id": "b9RGeqrOjjC_OeQzdYxYEDdVtVQ=", "properties": {"ref": "BIA-116", "@spider": "aldi_sud_hu", "shop": "supermarket", "addr:full": "\u00d6tvenhatosok tere 5/B., Debrecen, 4032", "addr:street_address": "\u00d6tvenhatosok tere 5/B.", "addr:city": "Debrecen", "addr:postcode": "4032", "addr:country": "HU", "name": "BIA-116", "phone": "+36-80-088-264", "opening_hours": "Mo-Sa 07:00-21:00; Su 07:00-19:00", "brand": "ALDI", "brand:wikidata": "Q41171672", "nsi_id": "aldi-0d26d7"}, "geometry": {"type": "Point", "coordinates": [21.6118, 47.547]}},
{"type": "Feature", "id": "wsmLBqcoljzYDtahl-_XdYrmSIM=", "properties": {"ref": "BIA-36", "@spider": "aldi_sud_hu", "shop": "supermarket", "addr:full": "Feh\u00e9rv\u00e1ri \u00fat 5/A, Gy\u0151r, 9028", "addr:street_address": "Feh\u00e9rv\u00e1ri \u00fat 5/A", "addr:city": "Gy\u0151r", "addr:postcode": "9028", "addr:country": "HU", "name": "BIA-36", "phone": "+36-80-088-264", "opening_hours": "Mo-Sa 07:00-21:00; Su 07:00-19:00", "brand": "ALDI", "brand:wikidata": "Q41171672", "nsi_id": "aldi-0d26d7"}, "geometry": {"type": "Point", "coordinates": [17.6561, 47.68209]}},
{"type": "Feature", "id": "jFRF6nPZ3CxLhnkH2CGmHyYLpbo=", "properties": {"ref": "BIA-57", "@spider": "aldi_sud_hu", "shop": "supermarket", "addr:full": "Cziffra Gy\u00f6rgy utca 7., Budapest, 1186", "addr:street_address": "Cziffra Gy\u00f6rgy utca 7.", "addr:city": "Budapest", "addr:postcode": "1186", "addr:country": "HU", "name": "BIA-57", "phone": "+36-80-088-264", "opening_hours": "Mo-Sa 06:30-21:00; Su 07:00-19:00", "brand": "ALDI", "brand:wikidata": "Q41171672", "nsi_id": "aldi-0d26d7"}, "geometry": {"type": "Point", "coordinates": [19.17373, 47.43225]}},
{"type": "Feature", "id": "ibJtTMValhjXwCX2U4uQaTsWsn0=", "properties": {"ref": "BIA-245", "@spider": "aldi_sud_hu", "shop": "supermarket", "addr:full": "Dugonics t\u00e9r 8-9., Szeged, 6720", "addr:street_address": "Dugonics t\u00e9r 8-9.", "addr:city": "Szeged", "addr:postcode": "6720", "addr:country": "HU", "name": "BIA-245", "phone": "+36-80-088-264", "opening_hours": "Mo-Sa 06:30-22:00; Su 07:00-19:00", "brand": "ALDI", "brand:wikidata": "Q41171672", "nsi_id": "aldi-0d26d7"}, "geometry": {"type": "Point", "coordinates": [20.14372, 46.2507]}},
{"type": "Feature", "id": "NpyFVnFNRo-U3OZx8ylUpWFnzpI=", "properties": {"ref": "BIA-52", "@spider": "aldi_sud_hu", "shop": "supermarket", "addr:full": "Pann\u00f3nia utca 59-63., Budapest, 1133", "addr:street_address": "Pann\u00f3nia utca 59-63.", "addr:city": "Budapest", "addr:postcode": "1133", "addr:country": "HU", "name": "BIA-52", "phone": "+36-80-088-264", "opening_hours": "Mo-Sa 07:00-22:00; Su 07:00-19:00", "brand": "ALDI", "brand:wikidata": "Q41171672", "nsi_id": "aldi-0d26d7"}, "geometry": {"type": "Point", "coordinates": [19.05677, 47.52007]}},
{"type": "Feature", "id": "nntlNOd8PjHHpeFnZJQvWZcJDy8=", "properties": {"ref": "BIA-18", "@spider": "aldi_sud_hu", "shop": "supermarket", "addr:full": "\u00c1rnyas utca 25., P\u00e9cs, 7632", "addr:street_address": "\u00c1rnyas utca 25.", "addr:city": "P\u00e9cs", "addr:postcode": "7632", "addr:country": "HU", "name": "BIA-18", "phone": "+36-80-088-264", "opening_hours": "Mo-Sa 07:00-20:00; Su 07:00-19:00", "brand": "ALDI", "brand:wikidata": "Q41171672", "nsi_id": "aldi-0d26d7"}, "geometry": {"type": "Point", "coordinates": [18.23082, 46.05132]}},
{"type": "Feature", "id": "ss1e3xA4-o9Iog8Km7TuIZRerRI=", "properties": {"ref": "BIA-32", "@spider": "aldi_sud_hu", "shop": "supermarket", "addr:full": "Kand\u00f3 K\u00e1lm\u00e1n t\u00e9r 10., Duna\u00fajv\u00e1ros, 2400", "addr:street_address": "Kand\u00f3 K\u00e1lm\u00e1n t\u00e9r 10.", "addr:city": "Duna\u00fajv\u00e1ros", "addr:postcode": "2400", "addr:country": "HU", "name": "BIA-32", "phone": "+36-80-088-264", "opening_hours": "Mo-Sa 07:00-20:00; Su 07:00-19:00", "brand": "ALDI", "brand:wikidata": "Q41171672", "nsi_id": "aldi-0d26d7"}, "geometry": {"type": "Point", "coordinates": [18.90893, 46.96039]}},
{"type": "Feature", "id": "_z8JvWj5c7NsPvgq51vg04h7IAU=", "properties": {"ref": "BIA-28", "@spider": "aldi_sud_hu", "shop": "supermarket", "addr:full": "T\u00fcnd\u00e9rlak \u00fat 2., Keszthely, 8360", "addr:street_address": "T\u00fcnd\u00e9rlak \u00fat 2.", "addr:city": "Keszthely", "addr:postcode": "8360", "addr:country": "HU", "name": "BIA-28", "phone": "+36-80-088-264", "opening_hours": "Mo-Sa 07:00-20:00; Su 07:00-19:00", "brand": "ALDI", "brand:wikidata": "Q41171672", "nsi_id": "aldi-0d26d7"}, "geometry": {"type": "Point", "coordinates": [17.27757, 46.77494]}},
{"type": "Feature", "id": "2Pqt0UFRx3Kn7kPjT7_JESMx54E=", "properties": {"ref": "BIA-224", "@spider": "aldi_sud_hu", "shop": "supermarket", "addr:full": "Ifj\u00fas\u00e1g \u00fatja 16., Szigetszentmikl\u00f3s, 2310", "addr:street_address": "Ifj\u00fas\u00e1g \u00fatja 16.", "addr:city": "Szigetszentmikl\u00f3s", "addr:postcode": "2310", "addr:country": "HU", "name": "BIA-224", "phone": "+36-80-088-264", "opening_hours": "Mo-Sa 06:30-21:00; Su 07:00-19:00", "brand": "ALDI", "brand:wikidata": "Q41171672", "nsi_id": "aldi-0d26d7"}, "geometry": {"type": "Point", "coordinates": [19.04049, 47.34256]}},
{"type": "Feature", "id": "QnWaVHI9Y1komwU_Bsa7NSEt5AU=", "properties": {"ref": "BIA-54", "@spider": "aldi_sud_hu", "shop": "supermarket", "addr:full": "Haraszti \u00fat 32/b, Budapest, 1239", "addr:street_address": "Haraszti \u00fat 32/b", "addr:city": "Budapest", "addr:postcode": "1239", "addr:country": "HU", "name": "BIA-54", "phone": "+36-80-088-264", "opening_hours": "Mo-Sa 06:30-21:00; Su 07:00-19:00", "brand": "ALDI", "brand:wikidata": "Q41171672", "nsi_id": "aldi-0d26d7"}, "geometry": {"type": "Point", "coordinates": [19.10965, 47.38623]}},
{"type": "Feature", "id": "wVq5-aCunXDQ2Jw8gvzE7boF7TE=", "properties": {"ref": "BIA-29", "@spider": "aldi_sud_hu", "shop": "supermarket", "addr:full": "Celli \u00fat 71., P\u00e1pa, 8500", "addr:street_address": "Celli \u00fat 71.", "addr:city": "P\u00e1pa", "addr:postcode": "8500", "addr:country": "HU", "name": "BIA-29", "phone": "+36-80-088-264", "opening_hours": "Mo-Sa 07:00-20:00; Su 07:00-19:00", "brand": "ALDI", "brand:wikidata": "Q41171672", "nsi_id": "aldi-0d26d7"}, "geometry": {"type": "Point", "coordinates": [17.44612, 47.32255]}},
{"type": "Feature", "id": "qI0-IBsuiwIgyVCt-JmdLJFUfW4=", "properties": {"ref": "BIA-157", "@spider": "aldi_sud_hu", "shop": "supermarket", "addr:full": "Szauter Ferenc utca 3. C., Gy\u0151r, 9024", "addr:street_address": "Szauter Ferenc utca 3. C.", "addr:city": "Gy\u0151r", "addr:postcode": "9024", "addr:country": "HU", "name": "BIA-157", "phone": "+36-80-088-264", "opening_hours": "Mo-Sa 07:00-20:00; Su 07:00-19:00", "brand": "ALDI", "brand:wikidata": "Q41171672", "nsi_id": "aldi-0d26d7"}, "geometry": {"type": "Point", "coordinates": [17.647158, 47.666276]}},
{"type": "Feature", "id": "hMLPjH1qrsZwCqOAYjtIUh3dQRs=", "properties": {"ref": "BIA-25", "@spider": "aldi_sud_hu", "shop": "supermarket", "addr:full": "Csepeli \u00fat 26., Szigetszentmikl\u00f3s, 2310", "addr:street_address": "Csepeli \u00fat 26.", "addr:city": "Szigetszentmikl\u00f3s", "addr:postcode": "2310", "addr:country": "HU", "name": "BIA-25", "phone": "+36-80-088-264", "opening_hours": "Mo-Sa 07:00-20:00; Su 07:00-19:00", "brand": "ALDI", "brand:wikidata": "Q41171672", "nsi_id": "aldi-0d26d7"}, "geometry": {"type": "Point", "coordinates": [19.04733, 47.36997]}},
{"type": "Feature", "id": "1t2lPP6XCXUvXspKvEChSuLSdkM=", "properties": {"ref": "BIA-39", "@spider": "aldi_sud_hu", "shop": "supermarket", "addr:full": "F\u00fcrd\u0151 utca 31., Balatonf\u00fcred, 8230", "addr:street_address": "F\u00fcrd\u0151 utca 31.", "addr:city": "Balatonf\u00fcred", "addr:postcode": "8230", "addr:country": "HU", "name": "BIA-39", "phone": "+36-80-088-264", "opening_hours": "Mo-Sa 07:00-20:00; Su 07:00-19:00", "brand": "ALDI", "brand:wikidata": "Q41171672", "nsi_id": "aldi-0d26d7"}, "geometry": {"type": "Point", "coordinates": [17.87524, 46.95003]}},
{"type": "Feature", "id": "pKCRQoygT9Vtr-CToULNoVr3Xqw=", "properties": {"ref": "BIA-76", "@spider": "aldi_sud_hu", "shop": "supermarket", "addr:full": "Izs\u00e1ki \u00fat 69., Kecskem\u00e9t, 6000", "addr:street_address": "Izs\u00e1ki \u00fat 69.", "addr:city": "Kecskem\u00e9t", "addr:postcode": "6000", "addr:country": "HU", "name": "BIA-76", "phone": "+36-80-088-264", "opening_hours": "Mo-Sa 06:30-21:00; Su 07:00-19:00", "brand": "ALDI", "brand:wikidata": "Q41171672", "nsi_id": "aldi-0d26d7"}, "geometry": {"type": "Point", "coordinates": [19.64079, 46.88941]}},
{"type": "Feature", "id": "JAlPAWo9C_kZfD_Lt-_JPFOe6-M=", "properties": {"ref": "BIA-84", "@spider": "aldi_sud_hu", "shop": "supermarket", "addr:full": "M\u00f3rav\u00e1rosi k\u00f6r\u00fat 3., Szeged, 6725", "addr:street_address": "M\u00f3rav\u00e1rosi k\u00f6r\u00fat 3.", "addr:city": "Szeged", "addr:postcode": "6725", "addr:country": "HU", "name": "BIA-84", "phone": "+36-80-088-264", "opening_hours": "Mo-Sa 06:30-21:00; Su 07:00-19:00", "brand": "ALDI", "brand:wikidata": "Q41171672", "nsi_id": "aldi-0d26d7"}, "geometry": {"type": "Point", "coordinates": [20.12387, 46.24374]}},
{"type": "Feature", "id": "ZuPAc4cczWwQVvrgt-ppq2X06Dg=", "properties": {"ref": "BIA-129", "@spider": "aldi_sud_hu", "shop": "supermarket", "addr:full": "Soroks\u00e1ri \u00fat 138-142., Budapest, 1095", "addr:street_address": "Soroks\u00e1ri \u00fat 138-142.", "addr:city": "Budapest", "addr:postcode": "1095", "addr:country": "HU", "name": "BIA-129", "phone": "+36-80-088-264", "opening_hours": "Mo-Sa 06:30-21:00; Su 07:00-19:00", "brand": "ALDI", "brand:wikidata": "Q41171672", "nsi_id": "aldi-0d26d7"}, "geometry": {"type": "Point", "coordinates": [19.087497, 47.454293]}},
{"type": "Feature", "id": "YNuq1xH6wgxMwZiFnP2qfbfJcmU=", "properties": {"ref": "BIA-20", "@spider": "aldi_sud_hu", "shop": "supermarket", "addr:full": "Szent Borb\u00e1la \u00fat 35., Tatab\u00e1nya, 2800", "addr:street_address": "Szent Borb\u00e1la \u00fat 35.", "addr:city": "Tatab\u00e1nya", "addr:postcode": "2800", "addr:country": "HU", "name": "BIA-20", "phone": "+36-80-088-264", "opening_hours": "Mo-Sa 07:00-20:00; Su 07:00-19:00", "brand": "ALDI", "brand:wikidata": "Q41171672", "nsi_id": "aldi-0d26d7"}, "geometry": {"type": "Point", "coordinates": [18.40967, 47.56131]}},
{"type": "Feature", "id": "kNphX4m9VxSuhyXkGVJu_z5pQr0=", "properties": {"ref": "BIA-182", "@spider": "aldi_sud_hu", "shop": "supermarket", "addr:full": "Nyugati Ipari \u00fat 1., P\u00e9cs, 7634", "addr:street_address": "Nyugati Ipari \u00fat 1.", "addr:city": "P\u00e9cs", "addr:postcode": "7634", "addr:country": "HU", "name": "BIA-182", "phone": "+36-80-088-264", "opening_hours": "Mo-Sa 06:30-20:00; Su 07:00-19:00", "brand": "ALDI", "brand:wikidata": "Q41171672", "nsi_id": "aldi-0d26d7"}, "geometry": {"type": "Point", "coordinates": [18.1738, 46.0647]}},
{"type": "Feature", "id": "Loeo8bvkFTY3rosu7o4J3GleCWU=", "properties": {"ref": "BIA-22", "@spider": "aldi_sud_hu", "shop": "supermarket", "addr:full": "Sul\u00e1k utca 2., \u00c9rd, 2030", "addr:street_address": "Sul\u00e1k utca 2.", "addr:city": "\u00c9rd", "addr:postcode": "2030", "addr:country": "HU", "name": "BIA-22", "phone": "+36-80-088-264", "opening_hours": "Mo-Sa 06:30-21:00; Su 07:00-19:00", "brand": "ALDI", "brand:wikidata": "Q41171672", "nsi_id": "aldi-0d26d7"}, "geometry": {"type": "Point", "coordinates": [18.93978, 47.37833]}},
{"type": "Feature", "id": "kMntnIITS0kTpn98iV0FQqu3a0g=", "properties": {"ref": "BIA-117", "@spider": "aldi_sud_hu", "shop": "supermarket", "addr:full": "Szabads\u00e1g \u00fatja 1/e, Kerepes, 2144", "addr:street_address": "Szabads\u00e1g \u00fatja 1/e", "addr:city": "Kerepes", "addr:postcode": "2144", "addr:country": "HU", "name": "BIA-117", "phone": "+36-80-088-264", "opening_hours": "Mo-Sa 07:00-20:00; Su 07:00-19:00", "brand": "ALDI", "brand:wikidata": "Q41171672", "nsi_id": "aldi-0d26d7"}, "geometry": {"type": "Point", "coordinates": [19.26895, 47.55249]}},
{"type": "Feature", "id": "qZA2YFWXyqmBbcdp2w2kC6aYZwk=", "properties": {"ref": "BIA-107", "@spider": "aldi_sud_hu", "shop": "supermarket", "addr:full": "Szent Imre t\u00e9r 6-8., Budapest, 1211", "addr:street_address": "Szent Imre t\u00e9r 6-8.", "addr:city": "Budapest", "addr:postcode": "1211", "addr:country": "HU", "name": "BIA-107", "phone": "+36-80-088-264", "opening_hours": "Mo-Sa 06:00-21:00; Su 07:00-19:00", "brand": "ALDI", "brand:wikidata": "Q41171672", "nsi_id": "aldi-0d26d7"}, "geometry": {"type": "Point", "coordinates": [19.0673, 47.4314]}},
{"type": "Feature", "id": "PDGvQbtYbq4khBzEzOs0LCx9mb8=", "properties": {"ref": "BIA-61", "@spider": "aldi_sud_hu", "shop": "supermarket", "addr:full": "K\u00f6ves \u00fat 9., Budapest, 1204", "addr:street_address": "K\u00f6ves \u00fat 9.", "addr:city": "Budapest", "addr:postcode": "1204", "addr:country": "HU", "name": "BIA-61", "phone": "+36-80-088-264", "opening_hours": "Mo-Sa 07:00-20:00; Su 07:00-19:00", "brand": "ALDI", "brand:wikidata": "Q41171672", "nsi_id": "aldi-0d26d7"}, "geometry": {"type": "Point", "coordinates": [19.14273, 47.41664]}},
{"type": "Feature", "id": "bCKpJYpJYXNZsQ7IRJtraQ0troM=", "properties": {"ref": "BIA-144", "@spider": "aldi_sud_hu", "shop": "supermarket", "addr:full": "K-Sped krt. 368/129., \u00dcll\u0151, 2225", "addr:street_address": "K-Sped krt. 368/129.", "addr:city": "\u00dcll\u0151", "addr:postcode": "2225", "addr:country": "HU", "name": "BIA-144", "phone": "+36-80-088-264", "opening_hours": "Mo-Sa 07:00-20:00; Su 07:00-19:00", "brand": "ALDI", "brand:wikidata": "Q41171672", "nsi_id": "aldi-0d26d7"}, "geometry": {"type": "Point", "coordinates": [19.364475, 47.374455]}},
{"type": "Feature", "id": "tasRfiyWTffK3ep9goLgem4e1Ck=", "properties": {"ref": "BIA-17", "@spider": "aldi_sud_hu", "shop": "supermarket", "addr:full": "P\u00e9csi \u00fat 53., Moh\u00e1cs, 7700", "addr:street_address": "P\u00e9csi \u00fat 53.", "addr:city": "Moh\u00e1cs", "addr:postcode": "7700", "addr:country": "HU", "name": "BIA-17", "phone": "+36-80-088-264", "opening_hours": "Mo-Sa 07:00-20:00; Su 07:00-19:00", "brand": "ALDI", "brand:wikidata": "Q41171672", "nsi_id": "aldi-0d26d7"}, "geometry": {"type": "Point", "coordinates": [18.66972, 45.99671]}},
{"type": "Feature", "id": "PwOazjnTVU3wKGen9zhoUxiaT2Y=", "properties": {"ref": "BIA-113", "@spider": "aldi_sud_hu", "shop": "supermarket", "addr:full": "M\u00e1jus 1. utca 10., Sz\u00e1nt\u00f3d, 8622", "addr:street_address": "M\u00e1jus 1. utca 10.", "addr:city": "Sz\u00e1nt\u00f3d", "addr:postcode": "8622", "addr:country": "HU", "name": "BIA-113", "phone": "+36-80-088-264", "opening_hours": "Mo-Sa 07:00-20:00; Su 07:00-19:00", "brand": "ALDI", "brand:wikidata": "Q41171672", "nsi_id": "aldi-0d26d7"}, "geometry": {"type": "Point", "coordinates": [17.90468, 46.86209]}},
{"type": "Feature", "id": "b1uGPZuPBVm8eN2EO0Xk5sVZqts=", "properties": {"ref": "BIA-60", "@spider": "aldi_sud_hu", "shop": "supermarket", "addr:full": "Hofherr Albert utca 40/a., Budapest, 1194", "addr:street_address": "Hofherr Albert utca 40/a.", "addr:city": "Budapest", "addr:postcode": "1194", "addr:country": "HU", "name": "BIA-60", "phone": "+36-80-088-264", "opening_hours": "Mo-Sa 06:30-21:00; Su 07:00-19:00", "brand": "ALDI", "brand:wikidata": "Q41171672", "nsi_id": "aldi-0d26d7"}, "geometry": {"type": "Point", "coordinates": [19.1471, 47.43726]}},
{"type": "Feature", "id": "KHdqjS5JnIwT99wDHUNivXkPvnk=", "properties": {"ref": "BIA-53", "@spider": "aldi_sud_hu", "shop": "supermarket", "addr:full": "R\u00e9gi F\u00f3ti \u00fat 64., Budapest, 1152", "addr:street_address": "R\u00e9gi F\u00f3ti \u00fat 64.", "addr:city": "Budapest", "addr:postcode": "1152", "addr:country": "HU", "name": "BIA-53", "phone": "+36-80-088-264", "opening_hours": "Mo-Sa 06:30-21:00; Su 07:00-19:00", "brand": "ALDI", "brand:wikidata": "Q41171672", "nsi_id": "aldi-0d26d7"}, "geometry": {"type": "Point", "coordinates": [19.12286, 47.56197]}},
{"type": "Feature", "id": "OD_N6GJyGOq7V2dFg099LWFK4wE=", "properties": {"ref": "BIA-89", "@spider": "aldi_sud_hu", "shop": "supermarket", "addr:full": "Bicere utca 15/A, Gyula, 5700", "addr:street_address": "Bicere utca 15/A", "addr:city": "Gyula", "addr:postcode": "5700", "addr:country": "HU", "name": "BIA-89", "phone": "+36-80-088-264", "opening_hours": "Mo-Sa 07:00-20:00; Su 07:00-19:00", "brand": "ALDI", "brand:wikidata": "Q41171672", "nsi_id": "aldi-0d26d7"}, "geometry": {"type": "Point", "coordinates": [21.237211, 46.653621]}},
{"type": "Feature", "id": "RETvBG8T2xEWF4TLvNS_hMzPKuI=", "properties": {"ref": "BIA-183", "@spider": "aldi_sud_hu", "shop": "supermarket", "addr:full": "Csap\u00e1s \u00fat 7-9., Keszthely, 8360", "addr:street_address": "Csap\u00e1s \u00fat 7-9.", "addr:city": "Keszthely", "addr:postcode": "8360", "addr:country": "HU", "name": "BIA-183", "phone": "+36-80-088-264", "opening_hours": "Mo-Sa 07:00-20:00; Su 07:00-19:00", "brand": "ALDI", "brand:wikidata": "Q41171672", "nsi_id": "aldi-0d26d7"}, "geometry": {"type": "Point", "coordinates": [17.246089, 46.777421]}},
{"type": "Feature", "id": "lwW-dL873ezJY68kRvaskXiOSFQ=", "properties": {"ref": "BIA-111", "@spider": "aldi_sud_hu", "shop": "supermarket", "addr:full": "\u00c1gfalvi \u00fat 4/A., Sopron, 9400", "addr:street_address": "\u00c1gfalvi \u00fat 4/A.", "addr:city": "Sopron", "addr:postcode": "9400", "addr:country": "HU", "name": "BIA-111", "phone": "+36-80-088-264", "opening_hours": "Mo-Sa 06:30-21:00; Su 07:00-19:00", "brand": "ALDI", "brand:wikidata": "Q41171672", "nsi_id": "aldi-0d26d7"}, "geometry": {"type": "Point", "coordinates": [16.56352, 47.68661]}},
{"type": "Feature", "id": "Hjb2p8sgAKm-4Fgr50ECdvjlqtg=", "properties": {"ref": "BIA-110", "@spider": "aldi_sud_hu", "shop": "supermarket", "addr:full": "Pasar\u00e9ti \u00fat 98., Budapest, 1026", "addr:street_address": "Pasar\u00e9ti \u00fat 98.", "addr:city": "Budapest", "addr:postcode": "1026", "addr:country": "HU", "name": "BIA-110", "phone": "+36-80-088-264", "opening_hours": "Mo-Sa 06:00-22:00; Su 07:00-19:00", "brand": "ALDI", "brand:wikidata": "Q41171672", "nsi_id": "aldi-0d26d7"}, "geometry": {"type": "Point", "coordinates": [18.99382, 47.523664]}},
{"type": "Feature", "id": "ilxOTNaFfXavwc4zIblE_twXaxE=", "properties": {"ref": "BIA-26", "@spider": "aldi_sud_hu", "shop": "supermarket", "addr:full": "D\u00f3zsa Gy\u00f6rgy \u00fat 87., Baja, 6500", "addr:street_address": "D\u00f3zsa Gy\u00f6rgy \u00fat 87.", "addr:city": "Baja", "addr:postcode": "6500", "addr:country": "HU", "name": "BIA-26", "phone": "+36-80-088-264", "opening_hours": "Mo-Sa 07:00-20:00; Su 07:00-19:00", "brand": "ALDI", "brand:wikidata": "Q41171672", "nsi_id": "aldi-0d26d7"}, "geometry": {"type": "Point", "coordinates": [18.95183, 46.19447]}},
{"type": "Feature", "id": "zmJAZkj8hfoW6VCdYDBSLp_lbso=", "properties": {"ref": "BIA-227", "@spider": "aldi_sud_hu", "shop": "supermarket", "addr:full": "Nagys\u00e1ndor J\u00f3zsef u. 31., Gy\u0151r, 9027", "addr:street_address": "Nagys\u00e1ndor J\u00f3zsef u. 31.", "addr:city": "Gy\u0151r", "addr:postcode": "9027", "addr:country": "HU", "name": "BIA-227", "phone": "+36-80-088-264", "opening_hours": "Mo-Sa 07:00-20:00; Su 07:00-19:00", "brand": "ALDI", "brand:wikidata": "Q41171672", "nsi_id": "aldi-0d26d7"}, "geometry": {"type": "Point", "coordinates": [17.66215, 47.69544]}},
{"type": "Feature", "id": "Sjjhg0py808Ip2yj077ItFVnTHY=", "properties": {"ref": "BIA-73", "@spider": "aldi_sud_hu", "shop": "supermarket", "addr:full": "Wass Albert utca 2., Vecs\u00e9s, 2220", "addr:street_address": "Wass Albert utca 2.", "addr:city": "Vecs\u00e9s", "addr:postcode": "2220", "addr:country": "HU", "name": "BIA-73", "phone": "+36-80-088-264", "opening_hours": "Mo-Sa 07:00-21:00; Su 07:00-19:00", "brand": "ALDI", "brand:wikidata": "Q41171672", "nsi_id": "aldi-0d26d7"}, "geometry": {"type": "Point", "coordinates": [19.24816, 47.39831]}},
{"type": "Feature", "id": "T2cG_5ivrMorF5AhB4aZQYvj8XE=", "properties": {"ref": "BIA-177", "@spider": "aldi_sud_hu", "shop": "supermarket", "addr:full": "Pet\u0151fi utca 56., Kaposv\u00e1r, 7400", "addr:street_address": "Pet\u0151fi utca 56.", "addr:city": "Kaposv\u00e1r", "addr:postcode": "7400", "addr:country": "HU", "name": "BIA-177", "phone": "+36-80-088-264", "opening_hours": "Mo-Sa 07:00-21:00; Su 07:00-19:00", "brand": "ALDI", "brand:wikidata": "Q41171672", "nsi_id": "aldi-0d26d7"}, "geometry": {"type": "Point", "coordinates": [17.785211, 46.364698]}},
{"type": "Feature", "id": "DVJpuU9ATJnR6spO_XFQKWdGX8A=", "properties": {"ref": "BIA-16", "@spider": "aldi_sud_hu", "shop": "supermarket", "addr:full": "F\u00fczes sor 2-4., Dunaf\u00f6ldv\u00e1r, 7020", "addr:street_address": "F\u00fczes sor 2-4.", "addr:city": "Dunaf\u00f6ldv\u00e1r", "addr:postcode": "7020", "addr:country": "HU", "name": "BIA-16", "phone": "+36-80-088-264", "opening_hours": "Mo-Sa 07:00-20:00; Su 07:00-19:00", "brand": "ALDI", "brand:wikidata": "Q41171672", "nsi_id": "aldi-0d26d7"}, "geometry": {"type": "Point", "coordinates": [18.91043, 46.80986]}},
{"type": "Feature", "id": "ty_nchsKcHsHR433tqLUxEvYt2U=", "properties": {"ref": "BIA-228", "@spider": "aldi_sud_hu", "shop": "supermarket", "addr:full": "Szent M\u00e1rton u. 57-61., Szombathely, 9700", "addr:street_address": "Szent M\u00e1rton u. 57-61.", "addr:city": "Szombathely", "addr:postcode": "9700", "addr:country": "HU", "name": "BIA-228", "phone": "+36-80-088-264", "opening_hours": "Mo-Sa 07:00-21:00; Su 07:00-19:00", "brand": "ALDI", "brand:wikidata": "Q41171672", "nsi_id": "aldi-0d26d7"}, "geometry": {"type": "Point", "coordinates": [16.63042, 47.23363]}},
{"type": "Feature", "id": "_yQv_jXziK3BuEXkZgl9jbK5oDo=", "properties": {"ref": "BIA-127", "@spider": "aldi_sud_hu", "shop": "supermarket", "addr:full": "Sz\u00e9chenyi Istv\u00e1n k\u00f6r\u00fat 139., Szolnok, 5000", "addr:street_address": "Sz\u00e9chenyi Istv\u00e1n k\u00f6r\u00fat 139.", "addr:city": "Szolnok", "addr:postcode": "5000", "addr:country": "HU", "name": "BIA-127", "phone": "+36-80-088-264", "opening_hours": "Mo-Sa 07:00-20:00; Su 07:00-19:00", "brand": "ALDI", "brand:wikidata": "Q41171672", "nsi_id": "aldi-0d26d7"}, "geometry": {"type": "Point", "coordinates": [20.179314, 47.193925]}},
{"type": "Feature", "id": "53PmMQOKvnte9tJgD6X71sE2rGA=", "properties": {"ref": "BIA-101", "@spider": "aldi_sud_hu", "shop": "supermarket", "addr:full": "II. R\u00e1k\u00f3czi F. \u00fat 154-170., Budapest, 1211", "addr:street_address": "II. R\u00e1k\u00f3czi F. \u00fat 154-170.", "addr:city": "Budapest", "addr:postcode": "1211", "addr:country": "HU", "name": "BIA-101", "phone": "+36-80-088-264", "opening_hours": "Mo-Sa 07:00-21:00; Su 07:00-19:00", "brand": "ALDI", "brand:wikidata": "Q41171672", "nsi_id": "aldi-0d26d7"}, "geometry": {"type": "Point", "coordinates": [19.067829, 47.423848]}},
{"type": "Feature", "id": "tCBD-C5lGkld79YCK4EH-XUl5DY=", "properties": {"ref": "BIA-86", "@spider": "aldi_sud_hu", "shop": "supermarket", "addr:full": "Bib\u00f3 Istv\u00e1n utca 3., Hatvan, 3000", "addr:street_address": "Bib\u00f3 Istv\u00e1n utca 3.", "addr:city": "Hatvan", "addr:postcode": "3000", "addr:country": "HU", "name": "BIA-86", "phone": "+36-80-088-264", "opening_hours": "Mo-Sa 07:00-20:00; Su 07:00-19:00", "brand": "ALDI", "brand:wikidata": "Q41171672", "nsi_id": "aldi-0d26d7"}, "geometry": {"type": "Point", "coordinates": [19.66564, 47.67689]}},
{"type": "Feature", "id": "Vi3uEp7RAEJ6HH2BnhFnO84GAxY=", "properties": {"ref": "BIA-241", "@spider": "aldi_sud_hu", "shop": "supermarket", "addr:full": "Makkosh\u00e1zi k\u00f6r\u00fat 29., Szeged, 6723", "addr:street_address": "Makkosh\u00e1zi k\u00f6r\u00fat 29.", "addr:city": "Szeged", "addr:postcode": "6723", "addr:country": "HU", "name": "BIA-241", "phone": "+36-80-088-264", "opening_hours": "Mo-Sa 06:30-21:00; Su 07:00-19:00", "brand": "ALDI", "brand:wikidata": "Q41171672", "nsi_id": "aldi-0d26d7"}, "geometry": {"type": "Point", "coordinates": [20.14845, 46.27256]}},
{"type": "Feature", "id": "iKqhasxM3W7pXU5HWjhiDmXa1iA=", "properties": {"ref": "BIA-69", "@spider": "aldi_sud_hu", "shop": "supermarket", "addr:full": "\u00dcll\u0151i \u00fat 280., Budapest, 1195", "addr:street_address": "\u00dcll\u0151i \u00fat 280.", "addr:city": "Budapest", "addr:postcode": "1195", "addr:country": "HU", "name": "BIA-69", "phone": "+36-80-088-264", "opening_hours": "Mo-Sa 07:00-21:00; Su 07:00-19:00", "brand": "ALDI", "brand:wikidata": "Q41171672", "nsi_id": "aldi-0d26d7"}, "geometry": {"type": "Point", "coordinates": [19.15581, 47.45283]}},
{"type": "Feature", "id": "wK28Q5XK-CrhTxobEWUJp3TAUCY=", "properties": {"ref": "BIA-123", "@spider": "aldi_sud_hu", "shop": "supermarket", "addr:full": "Szt. Istv\u00e1n krt. 30., Kecskem\u00e9t, 6000", "addr:street_address": "Szt. Istv\u00e1n krt. 30.", "addr:city": "Kecskem\u00e9t", "addr:postcode": "6000", "addr:country": "HU", "name": "BIA-123", "phone": "+36-80-088-264", "opening_hours": "Mo-Sa 07:00-21:00; Su 07:00-19:00", "brand": "ALDI", "brand:wikidata": "Q41171672", "nsi_id": "aldi-0d26d7"}, "geometry": {"type": "Point", "coordinates": [19.719867, 46.911441]}},
{"type": "Feature", "id": "OXcP0mav3BVv5hVXCcmO_9LFe2A=", "properties": {"ref": "BIA-45", "@spider": "aldi_sud_hu", "shop": "supermarket", "addr:full": "Sopron \u00fat 60., Budapest, 1116", "addr:street_address": "Sopron \u00fat 60.", "addr:city": "Budapest", "addr:postcode": "1116", "addr:country": "HU", "name": "BIA-45", "phone": "+36-80-088-264", "opening_hours": "Mo-Sa 06:30-21:00; Su 07:00-19:00", "brand": "ALDI", "brand:wikidata": "Q41171672", "nsi_id": "aldi-0d26d7"}, "geometry": {"type": "Point", "coordinates": [19.04388, 47.46154]}},
{"type": "Feature", "id": "MZwQNsIRNNzxTkzj4ojm7EaS9rk=", "properties": {"ref": "BIA-80", "@spider": "aldi_sud_hu", "shop": "supermarket", "addr:full": "Kishat\u00e1r utca 9/A, Debrecen, 4031", "addr:street_address": "Kishat\u00e1r utca 9/A", "addr:city": "Debrecen", "addr:postcode": "4031", "addr:country": "HU", "name": "BIA-80", "phone": "+36-80-088-264", "opening_hours": "Mo-Sa 06:30-21:00; Su 07:00-19:00", "brand": "ALDI", "brand:wikidata": "Q41171672", "nsi_id": "aldi-0d26d7"}, "geometry": {"type": "Point", "coordinates": [21.5811, 47.54259]}},
{"type": "Feature", "id": "K6xXREQGtiXTEO4cjCn7AVxWkpU=", "properties": {"ref": "BIA-120", "@spider": "aldi_sud_hu", "shop": "supermarket", "addr:full": "\u00d3ce\u00e1n\u00e1rok utca 3-5., Budapest, 1048", "addr:street_address": "\u00d3ce\u00e1n\u00e1rok utca 3-5.", "addr:city": "Budapest", "addr:postcode": "1048", "addr:country": "HU", "name": "BIA-120", "phone": "+36-80-088-264", "opening_hours": "Mo-Sa 07:00-21:00; Su 07:00-19:00", "brand": "ALDI", "brand:wikidata": "Q41171672", "nsi_id": "aldi-0d26d7"}, "geometry": {"type": "Point", "coordinates": [19.11456, 47.57878]}},
{"type": "Feature", "id": "FvzPcRIsDLK4ZWbuZ1Wln_nQNew=", "properties": {"ref": "BIA-190", "@spider": "aldi_sud_hu", "shop": "supermarket", "addr:full": "\u00dcll\u0151i \u00fat 14., Budapest, 1085", "addr:street_address": "\u00dcll\u0151i \u00fat 14.", "addr:city": "Budapest", "addr:postcode": "1085", "addr:country": "HU", "name": "BIA-190", "phone": "+36-80-088-264", "opening_hours": "Mo-Sa 06:30-21:00; Su 07:00-19:00", "brand": "ALDI", "brand:wikidata": "Q41171672", "nsi_id": "aldi-0d26d7"}, "geometry": {"type": "Point", "coordinates": [19.064121, 47.488655]}},
{"type": "Feature", "id": "z9-WfaEmmC9Pawk_Wz8yALGlVWc=", "properties": {"ref": "BIA-229", "@spider": "aldi_sud_hu", "shop": "supermarket", "addr:full": "V\u00f6r\u00f6smarty utca 10., Balatonfenyves, 8646", "addr:street_address": "V\u00f6r\u00f6smarty utca 10.", "addr:city": "Balatonfenyves", "addr:postcode": "8646", "addr:country": "HU", "name": "BIA-229", "phone": "+36-80-088-264", "opening_hours": "Mo-Sa 07:00-20:00; Su 07:00-19:00", "brand": "ALDI", "brand:wikidata": "Q41171672", "nsi_id": "aldi-0d26d7"}, "geometry": {"type": "Point", "coordinates": [17.48021, 46.71251]}},
{"type": "Feature", "id": "JpOtruITTATqvqRxlEQjelfgJOs=", "properties": {"ref": "BIA-90", "@spider": "aldi_sud_hu", "shop": "supermarket", "addr:full": "Pesti \u00fat 93., Cegl\u00e9d, 2700", "addr:street_address": "Pesti \u00fat 93.", "addr:city": "Cegl\u00e9d", "addr:postcode": "2700", "addr:country": "HU", "name": "BIA-90", "phone": "+36-80-088-264", "opening_hours": "Mo-Sa 07:00-20:00; Su 07:00-19:00", "brand": "ALDI", "brand:wikidata": "Q41171672", "nsi_id": "aldi-0d26d7"}, "geometry": {"type": "Point", "coordinates": [19.77475, 47.17774]}},
{"type": "Feature", "id": "oGj5loNOV1UJ38sJ-7B_kW5Ihqw=", "properties": {"ref": "BIA-140", "@spider": "aldi_sud_hu", "shop": "supermarket", "addr:full": "Sz\u00e9kelyh\u00edd utca 23., Budapest, 1204", "addr:street_address": "Sz\u00e9kelyh\u00edd utca 23.", "addr:city": "Budapest", "addr:postcode": "1204", "addr:country": "HU", "name": "BIA-140", "phone": "+36-80-088-264", "opening_hours": "Mo-Sa 07:00-21:00; Su 07:00-19:00", "brand": "ALDI", "brand:wikidata": "Q41171672", "nsi_id": "aldi-0d26d7"}, "geometry": {"type": "Point", "coordinates": [19.118742, 47.432144]}},
{"type": "Feature", "id": "STkcxC9DXTwIWLNGRJQwIK1XvJA=", "properties": {"ref": "BIA-35", "@spider": "aldi_sud_hu", "shop": "supermarket", "addr:full": "Jedlik \u00c1nyos utca 1., Dunaharaszti, 2330", "addr:street_address": "Jedlik \u00c1nyos utca 1.", "addr:city": "Dunaharaszti", "addr:postcode": "2330", "addr:country": "HU", "name": "BIA-35", "phone": "+36-80-088-264", "opening_hours": "Mo-Sa 06:30-21:00; Su 07:00-19:00", "brand": "ALDI", "brand:wikidata": "Q41171672", "nsi_id": "aldi-0d26d7"}, "geometry": {"type": "Point", "coordinates": [19.11853, 47.34808]}},
{"type": "Feature", "id": "Gch-ByLtEu9l17Cx6SnsjGYZpeo=", "properties": {"ref": "BIA-63", "@spider": "aldi_sud_hu", "shop": "supermarket", "addr:full": "B\u00e1thory u. 8., Budapest, 1054", "addr:street_address": "B\u00e1thory u. 8.", "addr:city": "Budapest", "addr:postcode": "1054", "addr:country": "HU", "name": "BIA-63", "phone": "+36-80-088-264", "opening_hours": "Mo-Sa 06:30-21:00; Su 07:00-19:00", "brand": "ALDI", "brand:wikidata": "Q41171672", "nsi_id": "aldi-0d26d7"}, "geometry": {"type": "Point", "coordinates": [19.0502, 47.5061]}},
{"type": "Feature", "id": "vGYemyfmMacgGAuybXalA9svfR0=", "properties": {"ref": "BIA-11", "@spider": "aldi_sud_hu", "shop": "supermarket", "addr:full": "Csipkegy\u00e1ri \u00fat 11., Gy\u0151r, 9025", "addr:street_address": "Csipkegy\u00e1ri \u00fat 11.", "addr:city": "Gy\u0151r", "addr:postcode": "9025", "addr:country": "HU", "name": "BIA-11", "phone": "+36-80-088-264", "opening_hours": "Mo-Sa 07:00-21:00; Su 07:00-19:00", "brand": "ALDI", "brand:wikidata": "Q41171672", "nsi_id": "aldi-0d26d7"}, "geometry": {"type": "Point", "coordinates": [17.61512, 47.67685]}},
{"type": "Feature", "id": "UDoFnnl0BMAYuGv0iRmBf858qj8=", "properties": {"ref": "BIA-46", "@spider": "aldi_sud_hu", "shop": "supermarket", "addr:full": "Hunyadi J. \u00fat 19., Budapest, 1116", "addr:street_address": "Hunyadi J. \u00fat 19.", "addr:city": "Budapest", "addr:postcode": "1116", "addr:country": "HU", "name": "BIA-46", "phone": "+36-80-088-264", "opening_hours": "Mo-Sa 07:00-21:00; Su 07:00-19:00", "brand": "ALDI", "brand:wikidata": "Q41171672", "nsi_id": "aldi-0d26d7"}, "geometry": {"type": "Point", "coordinates": [19.04038, 47.43812]}},
{"type": "Feature", "id": "GBnVgWe0l1W1cknuZrLc5GZHyjI=", "properties": {"ref": "BIA-37", "@spider": "aldi_sud_hu", "shop": "supermarket", "addr:full": "Balatoni \u00fat 13., Zalaegerszeg, 8900", "addr:street_address": "Balatoni \u00fat 13.", "addr:city": "Zalaegerszeg", "addr:postcode": "8900", "addr:country": "HU", "name": "BIA-37", "phone": "+36-80-088-264", "opening_hours": "Mo-Sa 07:00-20:00; Su 07:00-19:00", "brand": "ALDI", "brand:wikidata": "Q41171672", "nsi_id": "aldi-0d26d7"}, "geometry": {"type": "Point", "coordinates": [16.86908, 46.8427]}},
{"type": "Feature", "id": "VeegQb84qOPW25MgdCHbhAQI9Hs=", "properties": {"ref": "BIA-2", "@spider": "aldi_sud_hu", "shop": "supermarket", "addr:full": "Sz\u0151l\u0151skert utca 2., Budakeszi, 2092", "addr:street_address": "Sz\u0151l\u0151skert utca 2.", "addr:city": "Budakeszi", "addr:postcode": "2092", "addr:country": "HU", "name": "BIA-2", "phone": "+36-80-088-264", "opening_hours": "Mo-Sa 07:00-21:00; Su 07:00-19:00", "brand": "ALDI", "brand:wikidata": "Q41171672", "nsi_id": "aldi-0d26d7"}, "geometry": {"type": "Point", "coordinates": [18.91858, 47.50095]}},
{"type": "Feature", "id": "Q-KfvBMQxrJPHNRB5cZdzaXxIr8=", "properties": {"ref": "BIA-124", "@spider": "aldi_sud_hu", "shop": "supermarket", "addr:full": "Erd\u0151ker\u00fcl\u0151 u. 47., Budapest, 1157", "addr:street_address": "Erd\u0151ker\u00fcl\u0151 u. 47.", "addr:city": "Budapest", "addr:postcode": "1157", "addr:country": "HU", "name": "BIA-124", "phone": "+36-80-088-264", "opening_hours": "Mo-Sa 07:00-21:00; Su 07:00-19:00", "brand": "ALDI", "brand:wikidata": "Q41171672", "nsi_id": "aldi-0d26d7"}, "geometry": {"type": "Point", "coordinates": [19.15138, 47.541179]}},
{"type": "Feature", "id": "rSG9JXbbGregItK2Qx3yFOADYtw=", "properties": {"ref": "BIA-126", "@spider": "aldi_sud_hu", "shop": "supermarket", "addr:full": "Kossuth Lajos \u00fat 49-51., Nagyk\u0151r\u00f6s, 2750", "addr:street_address": "Kossuth Lajos \u00fat 49-51.", "addr:city": "Nagyk\u0151r\u00f6s", "addr:postcode": "2750", "addr:country": "HU", "name": "BIA-126", "phone": "+36-80-088-264", "opening_hours": "Mo-Sa 07:00-20:00; Su 07:00-19:00", "brand": "ALDI", "brand:wikidata": "Q41171672", "nsi_id": "aldi-0d26d7"}, "geometry": {"type": "Point", "coordinates": [19.768256, 47.034724]}},
{"type": "Feature", "id": "6jWrwbR8j5SnTzljCXob6a5BEHU=", "properties": {"ref": "BIA-13", "@spider": "aldi_sud_hu", "shop": "supermarket", "addr:full": "\u00c9szak-keleti \u00fatgy\u0171r\u0171 6., Veszpr\u00e9m, 8200", "addr:street_address": "\u00c9szak-keleti \u00fatgy\u0171r\u0171 6.", "addr:city": "Veszpr\u00e9m", "addr:postcode": "8200", "addr:country": "HU", "name": "BIA-13", "phone": "+36-80-088-264", "opening_hours": "Mo-Sa 07:00-20:00; Su 07:00-19:00", "brand": "ALDI", "brand:wikidata": "Q41171672", "nsi_id": "aldi-0d26d7"}, "geometry": {"type": "Point", "coordinates": [17.92763, 47.10864]}},
{"type": "Feature", "id": "jNQ3EOCVw4smHYy6i89hUZzJauY=", "properties": {"ref": "BIA-158", "@spider": "aldi_sud_hu", "shop": "supermarket", "addr:full": "Kondorosi \u00fat 7., Budapest, 1116", "addr:street_address": "Kondorosi \u00fat 7.", "addr:city": "Budapest", "addr:postcode": "1116", "addr:country": "HU", "name": "BIA-158", "phone": "+36-80-088-264", "opening_hours": "Mo-Sa 06:30-21:00; Su 07:00-19:00", "brand": "ALDI", "brand:wikidata": "Q41171672", "nsi_id": "aldi-0d26d7"}, "geometry": {"type": "Point", "coordinates": [19.037851, 47.451093]}},
{"type": "Feature", "id": "D2_brAWLbucZA-Zoz8myT-2jNiA=", "properties": {"ref": "BIA-91", "@spider": "aldi_sud_hu", "shop": "supermarket", "addr:full": "Boss\u00e1nyi Krisztina utca 4., G\u00f6d\u00f6ll\u0151, 2100", "addr:street_address": "Boss\u00e1nyi Krisztina utca 4.", "addr:city": "G\u00f6d\u00f6ll\u0151", "addr:postcode": "2100", "addr:country": "HU", "name": "BIA-91", "phone": "+36-80-088-264", "opening_hours": "Mo-Sa 07:00-21:00; Su 07:00-19:00", "brand": "ALDI", "brand:wikidata": "Q41171672", "nsi_id": "aldi-0d26d7"}, "geometry": {"type": "Point", "coordinates": [19.34038, 47.60843]}},
{"type": "Feature", "id": "VARNrn3NVP-rNCgDHvILVYAd520=", "properties": {"ref": "BIA-114", "@spider": "aldi_sud_hu", "shop": "supermarket", "addr:full": "Pesti \u00fat 2., Budapest, 1173", "addr:street_address": "Pesti \u00fat 2.", "addr:city": "Budapest", "addr:postcode": "1173", "addr:country": "HU", "name": "BIA-114", "phone": "+36-80-088-264", "opening_hours": "Mo-Sa 06:30-21:00; Su 07:00-19:00", "brand": "ALDI", "brand:wikidata": "Q41171672", "nsi_id": "aldi-0d26d7"}, "geometry": {"type": "Point", "coordinates": [19.22585, 47.48529]}},
{"type": "Feature", "id": "Wzd88sgzDRX0C1LsgH0ZgIdxUb8=", "properties": {"ref": "BIA-12", "@spider": "aldi_sud_hu", "shop": "supermarket", "addr:full": "Szent Gell\u00e9rt utca 49., Szombathely, 9700", "addr:street_address": "Szent Gell\u00e9rt utca 49.", "addr:city": "Szombathely", "addr:postcode": "9700", "addr:country": "HU", "name": "BIA-12", "phone": "+36-80-088-264", "opening_hours": "Mo-Sa 07:00-21:00; Su 07:00-19:00", "brand": "ALDI", "brand:wikidata": "Q41171672", "nsi_id": "aldi-0d26d7"}, "geometry": {"type": "Point", "coordinates": [16.61897, 47.21473]}},
{"type": "Feature", "id": "r9LuRKU5wBpoHfWRvRzmKJjH2nc=", "properties": {"ref": "BIA-59", "@spider": "aldi_sud_hu", "shop": "supermarket", "addr:full": "Pesti \u00fat 237/p, Budapest, 1171", "addr:street_address": "Pesti \u00fat 237/p", "addr:city": "Budapest", "addr:postcode": "1171", "addr:country": "HU", "name": "BIA-59", "phone": "+36-80-088-264", "opening_hours": "Mo-Sa 07:00-21:00; Su 07:00-19:00", "brand": "ALDI", "brand:wikidata": "Q41171672", "nsi_id": "aldi-0d26d7"}, "geometry": {"type": "Point", "coordinates": [19.28366, 47.47135]}},
{"type": "Feature", "id": "3TlGXWRNJ28TKRACp29hZO7_Y7M=", "properties": {"ref": "BIA-87", "@spider": "aldi_sud_hu", "shop": "supermarket", "addr:full": "Kis\u00fajsz\u00e1ll\u00e1si \u00fat 90., Karcag, 5300", "addr:street_address": "Kis\u00fajsz\u00e1ll\u00e1si \u00fat 90.", "addr:city": "Karcag", "addr:postcode": "5300", "addr:country": "HU", "name": "BIA-87", "phone": "+36-80-088-264", "opening_hours": "Mo-Sa 07:00-20:00; Su 07:00-19:00", "brand": "ALDI", "brand:wikidata": "Q41171672", "nsi_id": "aldi-0d26d7"}, "geometry": {"type": "Point", "coordinates": [20.89904, 47.29985]}},
{"type": "Feature", "id": "CgbO4Rm6_uq3f_4kdk5WRyqZ7f0=", "properties": {"ref": "BIA-72", "@spider": "aldi_sud_hu", "shop": "supermarket", "addr:full": "Kiss Ern\u0151 utca 13/A, Miskolc, 3531", "addr:street_address": "Kiss Ern\u0151 utca 13/A", "addr:city": "Miskolc", "addr:postcode": "3531", "addr:country": "HU", "name": "BIA-72", "phone": "+36-80-088-264", "opening_hours": "Mo-Sa 06:30-21:00; Su 07:00-19:00", "brand": "ALDI", "brand:wikidata": "Q41171672", "nsi_id": "aldi-0d26d7"}, "geometry": {"type": "Point", "coordinates": [20.74727, 48.10008]}},
{"type": "Feature", "id": "L-_jrqjlEnhiccn4H3BlaN8Y_x8=", "properties": {"ref": "BIA-62", "@spider": "aldi_sud_hu", "shop": "supermarket", "addr:full": "R\u00e1k\u00f3czi \u00fat 65., Budapest, 1081", "addr:street_address": "R\u00e1k\u00f3czi \u00fat 65.", "addr:city": "Budapest", "addr:postcode": "1081", "addr:country": "HU", "name": "BIA-62", "phone": "+36-80-088-264", "opening_hours": "Mo-Sa 06:30-21:00; Su 07:00-19:00", "brand": "ALDI", "brand:wikidata": "Q41171672", "nsi_id": "aldi-0d26d7"}, "geometry": {"type": "Point", "coordinates": [19.07669, 47.49882]}},
{"type": "Feature", "id": "_-uXKmj30KKCgMy31lpOXYtG4iA=", "properties": {"ref": "BIA-153", "@spider": "aldi_sud_hu", "shop": "supermarket", "addr:full": "Szabolcs utca 2., Balatonalm\u00e1di, 8220", "addr:street_address": "Szabolcs utca 2.", "addr:city": "Balatonalm\u00e1di", "addr:postcode": "8220", "addr:country": "HU", "name": "BIA-153", "phone": "+36-80-088-264", "opening_hours": "Mo-Sa 07:00-20:00; Su 07:00-19:00", "brand": "ALDI", "brand:wikidata": "Q41171672", "nsi_id": "aldi-0d26d7"}, "geometry": {"type": "Point", "coordinates": [18.018802, 47.040027]}},
{"type": "Feature", "id": "fD7ii5HlYBizPNo324QqV6_npRo=", "properties": {"ref": "BIA-152", "@spider": "aldi_sud_hu", "shop": "supermarket", "addr:full": "D\u00f3zsa Gy\u00f6rgy utca 146., Nagykanizsa, 8800", "addr:street_address": "D\u00f3zsa Gy\u00f6rgy utca 146.", "addr:city": "Nagykanizsa", "addr:postcode": "8800", "addr:country": "HU", "name": "BIA-152", "phone": "+36-80-088-264", "opening_hours": "Mo-Sa 07:00-20:00; Su 07:00-19:00", "brand": "ALDI", "brand:wikidata": "Q41171672", "nsi_id": "aldi-0d26d7"}, "geometry": {"type": "Point", "coordinates": [17.00772, 46.46271]}},
{"type": "Feature", "id": "1ukIL2DmhHDa5BDzgKLNFoUxV7w=", "properties": {"ref": "BIA-58", "@spider": "aldi_sud_hu", "shop": "supermarket", "addr:full": "K\u00e9sm\u00e1rk utca 10., Budapest, 1158", "addr:street_address": "K\u00e9sm\u00e1rk utca 10.", "addr:city": "Budapest", "addr:postcode": "1158", "addr:country": "HU", "name": "BIA-58", "phone": "+36-80-088-264", "opening_hours": "Mo-Sa 07:00-21:00; Su 07:00-19:00", "brand": "ALDI", "brand:wikidata": "Q41171672", "nsi_id": "aldi-0d26d7"}, "geometry": {"type": "Point", "coordinates": [19.14225, 47.5343]}},
{"type": "Feature", "id": "5nqtJABiMS5H9_7SoMJHYJ7ot1s=", "properties": {"ref": "BIA-85", "@spider": "aldi_sud_hu", "shop": "supermarket", "addr:full": "Pallag utca 68., Dunakeszi, 2120", "addr:street_address": "Pallag utca 68.", "addr:city": "Dunakeszi", "addr:postcode": "2120", "addr:country": "HU", "name": "BIA-85", "phone": "+36-80-088-264", "opening_hours": "Mo-Sa 07:00-21:00; Su 07:00-19:00", "brand": "ALDI", "brand:wikidata": "Q41171672", "nsi_id": "aldi-0d26d7"}, "geometry": {"type": "Point", "coordinates": [19.12185, 47.62201]}},
{"type": "Feature", "id": "7R88uaWpt7hedGifvm7jVlqoZto=", "properties": {"ref": "BIA-170", "@spider": "aldi_sud_hu", "shop": "supermarket", "addr:full": "Gy\u00e1r utca 2., Sopron, 9400", "addr:street_address": "Gy\u00e1r utca 2.", "addr:city": "Sopron", "addr:postcode": "9400", "addr:country": "HU", "name": "BIA-170", "phone": "+36-80-088-264", "opening_hours": "Mo-Sa 06:30-21:00; Su 07:00-19:00", "brand": "ALDI", "brand:wikidata": "Q41171672", "nsi_id": "aldi-0d26d7"}, "geometry": {"type": "Point", "coordinates": [16.58137, 47.68981]}},
{"type": "Feature", "id": "G_n7I0zkNth4_eIQ18aJ_-PasLc=", "properties": {"ref": "BIA-74", "@spider": "aldi_sud_hu", "shop": "supermarket", "addr:full": "Gyulai \u00fat 51/2., B\u00e9k\u00e9scsaba, 5600", "addr:street_address": "Gyulai \u00fat 51/2.", "addr:city": "B\u00e9k\u00e9scsaba", "addr:postcode": "5600", "addr:country": "HU", "name": "BIA-74", "phone": "+36-80-088-264", "opening_hours": "Mo-Sa 06:30-21:00; Su 07:00-19:00", "brand": "ALDI", "brand:wikidata": "Q41171672", "nsi_id": "aldi-0d26d7"}, "geometry": {"type": "Point", "coordinates": [21.11625, 46.68069]}},
{"type": "Feature", "id": "9KOFl_rqFe_siNouE_P8GnALnrI=", "properties": {"ref": "BIA-43", "@spider": "aldi_sud_hu", "shop": "supermarket", "addr:full": "\u00c1rp\u00e1d u. 31., Kaposv\u00e1r, 7400", "addr:street_address": "\u00c1rp\u00e1d u. 31.", "addr:city": "Kaposv\u00e1r", "addr:postcode": "7400", "addr:country": "HU", "name": "BIA-43", "phone": "+36-80-088-264", "opening_hours": "Mo-Sa 07:00-20:00; Su 07:00-19:00", "brand": "ALDI", "brand:wikidata": "Q41171672", "nsi_id": "aldi-0d26d7"}, "geometry": {"type": "Point", "coordinates": [17.81041, 46.36461]}},
{"type": "Feature", "id": "t0QbHlI4JCfjDWzNUf_IwkjsqH0=", "properties": {"ref": "BIA-185", "@spider": "aldi_sud_hu", "shop": "supermarket", "addr:full": "Kist\u00f3 utca 2., Veszpr\u00e9m, 8200", "addr:street_address": "Kist\u00f3 utca 2.", "addr:city": "Veszpr\u00e9m", "addr:postcode": "8200", "addr:country": "HU", "name": "BIA-185", "phone": "+36-80-088-264", "opening_hours": "Mo-Sa 07:00-20:00; Su 07:00-19:00", "brand": "ALDI", "brand:wikidata": "Q41171672", "nsi_id": "aldi-0d26d7"}, "geometry": {"type": "Point", "coordinates": [17.895203, 47.107051]}},
{"type": "Feature", "id": "7h2EOQe_UyEwVLa7vcPOvjtPg2o=", "properties": {"ref": "BIA-193", "@spider": "aldi_sud_hu", "shop": "supermarket", "addr:full": "M\u00f3ricz Zsigmond utca 25., Ny\u00edregyh\u00e1za, 4400", "addr:street_address": "M\u00f3ricz Zsigmond utca 25.", "addr:city": "Ny\u00edregyh\u00e1za", "addr:postcode": "4400", "addr:country": "HU", "name": "BIA-193", "phone": "+36-80-088-264", "opening_hours": "Mo-Sa 06:30-21:00; Su 07:00-19:00", "brand": "ALDI", "brand:wikidata": "Q41171672", "nsi_id": "aldi-0d26d7"}, "geometry": {"type": "Point", "coordinates": [21.715342, 47.941699]}},
{"type": "Feature", "id": "PHc1rpsblMly5r61B2YJzGjfcjs=", "properties": {"ref": "BIA-171", "@spider": "aldi_sud_hu", "shop": "supermarket", "addr:full": "De\u00e1k Ferenc utca 14., S\u00e1rv\u00e1r, 9600", "addr:street_address": "De\u00e1k Ferenc utca 14.", "addr:city": "S\u00e1rv\u00e1r", "addr:postcode": "9600", "addr:country": "HU", "name": "BIA-171", "phone": "+36-80-088-264", "opening_hours": "Mo-Sa 07:00-20:00; Su 07:00-19:00", "brand": "ALDI", "brand:wikidata": "Q41171672", "nsi_id": "aldi-0d26d7"}, "geometry": {"type": "Point", "coordinates": [16.938129, 47.257246]}},
{"type": "Feature", "id": "N9vcRNO6jiSsIcqfrGyLO0ASRsc=", "properties": {"ref": "BIA-88", "@spider": "aldi_sud_hu", "shop": "supermarket", "addr:full": "Kaszap utca 31., H\u00f3dmez\u0151v\u00e1s\u00e1rhely, 6800", "addr:street_address": "Kaszap utca 31.", "addr:city": "H\u00f3dmez\u0151v\u00e1s\u00e1rhely", "addr:postcode": "6800", "addr:country": "HU", "name": "BIA-88", "phone": "+36-80-088-264", "opening_hours": "Mo-Sa 07:00-20:00; Su 07:00-19:00", "brand": "ALDI", "brand:wikidata": "Q41171672", "nsi_id": "aldi-0d26d7"}, "geometry": {"type": "Point", "coordinates": [20.32395, 46.41058]}},
{"type": "Feature", "id": "8iSOq6ABjFtNOGgPdW-FA5FjFFI=", "properties": {"ref": "BIA-38", "@spider": "aldi_sud_hu", "shop": "supermarket", "addr:full": "Kal\u00e1szi \u00fat 2/a., Szentendre, 2000", "addr:street_address": "Kal\u00e1szi \u00fat 2/a.", "addr:city": "Szentendre", "addr:postcode": "2000", "addr:country": "HU", "name": "BIA-38", "phone": "+36-80-088-264", "opening_hours": "Mo-Sa 06:30-22:00; Su 07:00-19:00", "brand": "ALDI", "brand:wikidata": "Q41171672", "nsi_id": "aldi-0d26d7"}, "geometry": {"type": "Point", "coordinates": [19.06595, 47.63928]}},
{"type": "Feature", "id": "CZXYd4XxCqxXPZ3q4ht44-qNsFM=", "properties": {"ref": "BIA-108", "@spider": "aldi_sud_hu", "shop": "supermarket", "addr:full": "Veszpr\u00e9mi \u00fat 3., Tapolca, 8300", "addr:street_address": "Veszpr\u00e9mi \u00fat 3.", "addr:city": "Tapolca", "addr:postcode": "8300", "addr:country": "HU", "name": "BIA-108", "phone": "+36-80-088-264", "opening_hours": "Mo-Sa 07:00-20:00; Su 07:00-19:00", "brand": "ALDI", "brand:wikidata": "Q41171672", "nsi_id": "aldi-0d26d7"}, "geometry": {"type": "Point", "coordinates": [17.4534, 46.8803]}},
{"type": "Feature", "id": "40g4T2dHUKX1TYXy_aS_RZJskXQ=", "properties": {"ref": "BIA-83", "@spider": "aldi_sud_hu", "shop": "supermarket", "addr:full": "Forr\u00e1s utca 5., Miskolc, 3516", "addr:street_address": "Forr\u00e1s utca 5.", "addr:city": "Miskolc", "addr:postcode": "3516", "addr:country": "HU", "name": "BIA-83", "phone": "+36-80-088-264", "opening_hours": "Mo-Sa 06:30-21:00; Su 07:00-19:00", "brand": "ALDI", "brand:wikidata": "Q41171672", "nsi_id": "aldi-0d26d7"}, "geometry": {"type": "Point", "coordinates": [20.80006, 48.05444]}},
{"type": "Feature", "id": "RIaVwRE0LrNujPPE6xynq2QbCTo=", "properties": {"ref": "BIA-33", "@spider": "aldi_sud_hu", "shop": "supermarket", "addr:full": "S\u00fcssen utca 1., T\u00f6r\u00f6kb\u00e1lint, 2045", "addr:street_address": "S\u00fcssen utca 1.", "addr:city": "T\u00f6r\u00f6kb\u00e1lint", "addr:postcode": "2045", "addr:country": "HU", "name": "BIA-33", "phone": "+36-80-088-264", "opening_hours": "Mo-Sa 07:00-20:00; Su 07:00-19:00", "brand": "ALDI", "brand:wikidata": "Q41171672", "nsi_id": "aldi-0d26d7"}, "geometry": {"type": "Point", "coordinates": [18.88518, 47.44477]}},
{"type": "Feature", "id": "k_QWSUjkKwPWqw6ZQoVN-kXEoR4=", "properties": {"ref": "BIA-8", "@spider": "aldi_sud_hu", "shop": "supermarket", "addr:full": "F\u0151 \u00fat 2., Piliscsaba, 2081", "addr:street_address": "F\u0151 \u00fat 2.", "addr:city": "Piliscsaba", "addr:postcode": "2081", "addr:country": "HU", "name": "BIA-8", "phone": "+36-80-088-264", "opening_hours": "Mo-Sa 06:30-21:00; Su 07:00-19:00", "brand": "ALDI", "brand:wikidata": "Q41171672", "nsi_id": "aldi-0d26d7"}, "geometry": {"type": "Point", "coordinates": [18.85223, 47.62772]}},
{"type": "Feature", "id": "8-WoAzy9lSeqAy43mXmIuYkvozg=", "properties": {"ref": "BIA-71", "@spider": "aldi_sud_hu", "shop": "supermarket", "addr:full": "Feh\u00e9rk\u0151 utca 5., F\u00f3t, 2151", "addr:street_address": "Feh\u00e9rk\u0151 utca 5.", "addr:city": "F\u00f3t", "addr:postcode": "2151", "addr:country": "HU", "name": "BIA-71", "phone": "+36-80-088-264", "opening_hours": "Mo-Sa 07:00-21:00; Su 07:00-19:00", "brand": "ALDI", "brand:wikidata": "Q41171672", "nsi_id": "aldi-0d26d7"}, "geometry": {"type": "Point", "coordinates": [19.15825, 47.58033]}},
{"type": "Feature", "id": "bQfaQTM-Tf7ybfe3G_XD_zkI5IY=", "properties": {"ref": "BIA-119", "@spider": "aldi_sud_hu", "shop": "supermarket", "addr:full": "Vincell\u00e9r utca 5., Debrecen, 4032", "addr:street_address": "Vincell\u00e9r utca 5.", "addr:city": "Debrecen", "addr:postcode": "4032", "addr:country": "HU", "name": "BIA-119", "phone": "+36-80-088-264", "opening_hours": "Mo-Sa 07:00-21:00; Su 07:00-19:00", "brand": "ALDI", "brand:wikidata": "Q41171672", "nsi_id": "aldi-0d26d7"}, "geometry": {"type": "Point", "coordinates": [21.600589, 47.514601]}},
{"type": "Feature", "id": "iR_hGyq8buPYBZzdN13CU99Q9_A=", "properties": {"ref": "BIA-92", "@spider": "aldi_sud_hu", "shop": "supermarket", "addr:full": "Ozm\u00e1n utca 1., Debrecen, 4030", "addr:street_address": "Ozm\u00e1n utca 1.", "addr:city": "Debrecen", "addr:postcode": "4030", "addr:country": "HU", "name": "BIA-92", "phone": "+36-80-088-264", "opening_hours": "Mo-Sa 06:30-21:00; Su 07:00-19:00", "brand": "ALDI", "brand:wikidata": "Q41171672", "nsi_id": "aldi-0d26d7"}, "geometry": {"type": "Point", "coordinates": [21.63222, 47.49576]}},
{"type": "Feature", "id": "R4S7M24BOzAFA33v-9pk1CTGY40=", "properties": {"ref": "BIA-19", "@spider": "aldi_sud_hu", "shop": "supermarket", "addr:full": "Hark\u00e1nyi \u00fat 59., Sikl\u00f3s, 7801", "addr:street_address": "Hark\u00e1nyi \u00fat 59.", "addr:city": "Sikl\u00f3s", "addr:postcode": "7801", "addr:country": "HU", "name": "BIA-19", "phone": "+36-80-088-264", "opening_hours": "Mo-Sa 07:00-20:00; Su 07:00-19:00", "brand": "ALDI", "brand:wikidata": "Q41171672", "nsi_id": "aldi-0d26d7"}, "geometry": {"type": "Point", "coordinates": [18.27546, 45.857455]}}]}