{"type":"FeatureCollection","features":[{"type": "Feature", "id": "r-tJ7rr1H1_jXhbdCY0i6HaNfPA=", "properties": {"ref": "https://www.aldi.pt/tools/lojas-e-horarios-de-funcionamento/portalegre/portalegre/avenida-manuel-jesus-silva-mendes-4.html", "@spider": "aldi_nord_pt", "shop": "supermarket", "addr:street_address": "Avenida Manuel Jesus Silva Mendes 4", "addr:city": "Portalegre", "addr:postcode": "7300-499", "addr:country": "PT", "name": "ALDI Portalegre - Avenida Manuel Jesus Silva Mendes", "website": "https://www.aldi.pt/tools/lojas-e-horarios-de-funcionamento/portalegre/portalegre/avenida-manuel-jesus-silva-mendes-4.html", "brand": "ALDI", "brand:wikidata": "Q41171373", "nsi_id": "aldi-b5be76"}},
{"type": "Feature", "id": "KUt0rw5UAlSChN2tvHedIPFovQQ=", "properties": {"ref": "PT001069", "@spider": "aldi_nord_pt", "shop": "supermarket", "addr:street_address": "Rua Verdeiro do Carmo, Lavra 230", "addr:city": "Matosinhos", "addr:postcode": "4455-212", "addr:country": "PT", "name": "ALDI Matosinhos - Rua Verdeiro do Carmo, Lavra", "website": "https://www.aldi.pt/tools/lojas-e-horarios-de-funcionamento/porto/matosinhos/rua-verdeiro-do-carmo-lavra-230.html", "brand": "ALDI", "brand:wikidata": "Q41171373", "nsi_id": "aldi-b5be76"}},
{"type": "Feature", "id": "l-vBudRpZqqKY_uq6iEfgzZZbWw=", "properties": {"ref": "PT001070", "@spider": "aldi_nord_pt", "shop": "supermarket", "addr:street_address": "Rua Joaquim Silva Torres 324", "addr:city": "Maia", "addr:postcode": "4470-312", "addr:country": "PT", "name": "ALDI Maia - Rua Joaquim Silva Torres", "website": "https://www.aldi.pt/tools/lojas-e-horarios-de-funcionamento/porto/maia/rua-joaquim-silva-torres-324.html", "brand": "ALDI", "brand:wikidata": "Q41171373", "nsi_id": "aldi-b5be76"}},
{"type": "Feature", "id": "amVImwVP5t-dQHWVp2BxSrTYMMk=", "properties": {"ref": "https://www.aldi.pt/tools/lojas-e-horarios-de-funcionamento/porto/vila-do-conde/rua-5-de-outubro-1327.html", "@spider": "aldi_nord_pt", "shop": "supermarket", "addr:street_address": "Rua 5 de Outubro 1327", "addr:city": "Vila do Conde", "addr:postcode": "4480-666", "addr:country": "PT", "name": "ALDI Vila do Conde - Rua 5 de Outubro", "website": "https://www.aldi.pt/tools/lojas-e-horarios-de-funcionamento/porto/vila-do-conde/rua-5-de-outubro-1327.html", "brand": "ALDI", "brand:wikidata": "Q41171373", "nsi_id": "aldi-b5be76"}},
{"type": "Feature", "id": "EWV2iQT2hXqAp4xdz0BvW8A5Pog=", "properties": {"ref": "https://www.aldi.pt/tools/lojas-e-horarios-de-funcionamento/porto/valongo/rua-fonseca-dias-80-e-84.html", "@spider": "aldi_nord_pt", "shop": "supermarket", "addr:street_address": "Rua Fonseca Dias 80 e 84", "addr:city": "Valongo", "addr:postcode": "4440-652", "addr:country": "PT", "name": "ALDI Valongo - Rua Fonseca Dias", "website": "https://www.aldi.pt/tools/lojas-e-horarios-de-funcionamento/porto/valongo/rua-fonseca-dias-80-e-84.html", "brand": "ALDI", "brand:wikidata": "Q41171373", "nsi_id": "aldi-b5be76"}},
{"type": "Feature", "id": "MPmkmn5T5Rhysgl_QbaSF1DuYaQ=", "properties": {"ref": "https://www.aldi.pt/tools/lojas-e-horarios-de-funcionamento/portalegre/elvas/avenida-antonio-sardinha-20-a.html", "@spider": "aldi_nord_pt", "shop": "supermarket", "addr:street_address": "Avenida Ant\u00f3nio Sardinha 20 A", "addr:city": "Elvas", "addr:postcode": "7350-091", "addr:country": "PT", "name": "ALDI Elvas - Avenida Ant\u00f3nio Sardinha", "website": "https://www.aldi.pt/tools/lojas-e-horarios-de-funcionamento/portalegre/elvas/avenida-antonio-sardinha-20-a.html", "brand": "ALDI", "brand:wikidata": "Q41171373", "nsi_id": "aldi-b5be76"}},
{"type": "Feature", "id": "n4GVTrl9qikYIxpEJgMe1SYzh18=", "properties": {"ref": "https://www.aldi.pt/tools/lojas-e-horarios-de-funcionamento/porto/alfena/rua-do-viveiro-42.html", "@spider": "aldi_nord_pt", "shop": "supermarket", "addr:street_address": "Rua do Viveiro 42", "addr:city": "Alfena", "addr:postcode": "4445-238", "addr:country": "PT", "name": "ALDI Alfena - Rua do Viveiro", "website": "https://www.aldi.pt/tools/lojas-e-horarios-de-funcionamento/porto/alfena/rua-do-viveiro-42.html", "brand": "ALDI", "brand:wikidata": "Q41171373", "nsi_id": "aldi-b5be76"}},
{"type": "Feature", "id": "shKTDm0Gh-de_w60YLPeFcWJts8=", "properties": {"ref": "https://www.aldi.pt/tools/lojas-e-horarios-de-funcionamento/porto/leca-do-balio/lugar-de-avessas-rua-recarei.html", "@spider": "aldi_nord_pt", "shop": "supermarket", "addr:street_address": "Lugar de Avessas, Rua Recarei", "addr:city": "Le\u00e7a do Balio", "addr:postcode": "4465-728", "addr:country": "PT", "name": "ALDI Le\u00e7a do Balio - Lugar de Avessas, Rua Recarei", "website": "https://www.aldi.pt/tools/lojas-e-horarios-de-funcionamento/porto/leca-do-balio/lugar-de-avessas-rua-recarei.html", "brand": "ALDI", "brand:wikidata": "Q41171373", "nsi_id": "aldi-b5be76"}},
{"type": "Feature", "id": "OqWvz7-0GdClMlEG4JrLiZiPKmk=", "properties": {"ref": "https://www.aldi.pt/tools/lojas-e-horarios-de-funcionamento/porto/canelas/rua-delfim-lima-2161.html", "@spider": "aldi_nord_pt", "shop": "supermarket", "addr:street_address": "Rua Delfim Lima 2161", "addr:city": "Canelas", "addr:postcode": "4410-226", "addr:country": "PT", "name": "ALDI Canelas - Rua Delfim Lima", "website": "https://www.aldi.pt/tools/lojas-e-horarios-de-funcionamento/porto/canelas/rua-delfim-lima-2161.html", "brand": "ALDI", "brand:wikidata": "Q41171373", "nsi_id": "aldi-b5be76"}},
{"type": "Feature", "id": "p2Pgij8b4Dv3a9Grkkrw8_zc-RE=", "properties": {"ref": "https://www.aldi.pt/tools/lojas-e-horarios-de-funcionamento/porto/pedroucos-maia/rua-general-humberto-delgado-480.html", "@spider": "aldi_nord_pt", "shop": "supermarket", "addr:street_address": "Rua General Humberto Delgado 480", "addr:city": "Pedrou\u00e7os - Maia", "addr:postcode": "4425-653", "addr:country": "PT", "name": "ALDI Pedrou\u00e7os - Maia - Rua General Humberto Delgado", "website": "https://www.aldi.pt/tools/lojas-e-horarios-de-funcionamento/porto/pedroucos-maia/rua-general-humberto-delgado-480.html", "brand": "ALDI", "brand:wikidata": "Q41171373", "nsi_id": "aldi-b5be76"}},
{"type": "Feature", "id": "DFKZTQz1XF2ioqB4rDlcKCql654=", "properties": {"ref": "https://www.aldi.pt/tools/lojas-e-horarios-de-funcionamento/porto/rio-tinto-gondomar/travessa-serafim-pereira-coutinho-56.html", "@spider": "aldi_nord_pt", "shop": "supermarket", "addr:street_address": "Travessa Serafim Pereira Coutinho 56", "addr:city": "Rio Tinto - Gondomar", "addr:postcode": "4435-599", "addr:country": "PT", "name": "ALDI Rio Tinto - Gondomar - Travessa Serafim Pereira Coutinho", "website": "https://www.aldi.pt/tools/lojas-e-horarios-de-funcionamento/porto/rio-tinto-gondomar/travessa-serafim-pereira-coutinho-56.html", "brand": "ALDI", "brand:wikidata": "Q41171373", "nsi_id": "aldi-b5be76"}},
{"type": "Feature", "id": "FTyyRNj75z64IWv3DuV76R-OUqU=", "properties": {"ref": "PT001065", "@spider": "aldi_nord_pt", "shop": "supermarket", "addr:street_address": "Rua Jos\u00e9 Gomes Soares, Vilar do Para\u00edso 249", "addr:city": "Vila Nova de Gaia", "addr:postcode": "4405-905", "addr:country": "PT", "name": "ALDI Vila Nova de Gaia - Rua Jos\u00e9 Gomes Soares, Vilar do Para\u00edso", "website": "https://www.aldi.pt/tools/lojas-e-horarios-de-funcionamento/porto/vila-nova-de-gaia/rua-jose-gomes-soares-vilar-do-paraiso-249.html", "brand": "ALDI", "brand:wikidata": "Q41171373", "nsi_id": "aldi-b5be76"}},
{"type": "Feature", "id": "Ka68quVdNHC3MFtgMnua_qE8Ub8=", "properties": {"ref": "PT001068", "@spider": "aldi_nord_pt", "shop": "supermarket", "addr:street_address": "Av. Eng. Ludgero Marques 542", "addr:city": "Vila Nova de Gaia", "addr:postcode": "4400-026", "addr:country": "PT", "name": "ALDI Vila Nova de Gaia - Av. Eng. Ludgero Marques", "website": "https://www.aldi.pt/tools/lojas-e-horarios-de-funcionamento/porto/vila-nova-de-gaia/av-eng-ludgero-marques-542.html", "brand": "ALDI", "brand:wikidata": "Q41171373", "nsi_id": "aldi-b5be76"}},
{"type": "Feature", "id": "uXSTagct04ZV7W2owvR_6Crj7Zk=", "properties": {"ref": "https://www.aldi.pt/tools/lojas-e-horarios-de-funcionamento/porto/vila-nova-de-gaia/rua-raimundo-de-carvalho-mafamude-727-741-761.html", "@spider": "aldi_nord_pt", "shop": "supermarket", "addr:street_address": "Rua Raimundo de Carvalho, Mafamude 727, 741, 761", "addr:city": "Vila Nova de Gaia", "addr:postcode": "4400-004", "addr:country": "PT", "name": "ALDI Vila Nova de Gaia - Rua Raimundo de Carvalho, Mafamude", "website": "https://www.aldi.pt/tools/lojas-e-horarios-de-funcionamento/porto/vila-nova-de-gaia/rua-raimundo-de-carvalho-mafamude-727-741-761.html", "brand": "ALDI", "brand:wikidata": "Q41171373", "nsi_id": "aldi-b5be76"}},
{"type": "Feature", "id": "uVwBtq3NDsIOUUmhaFk6sWo1uJM=", "properties": {"ref": "https://www.aldi.pt/tools/lojas-e-horarios-de-funcionamento/santarem/almeirim/rua-condessa-da-junqueira.html", "@spider": "aldi_nord_pt", "shop": "supermarket", "addr:street_address": "Rua Condessa da Junqueira", "addr:city": "Almeirim", "addr:postcode": "2080-069", "addr:country": "PT", "name": "ALDI Almeirim - Rua Condessa da Junqueira", "website": "https://www.aldi.pt/tools/lojas-e-horarios-de-funcionamento/santarem/almeirim/rua-condessa-da-junqueira.html", "brand": "ALDI", "brand:wikidata": "Q41171373", "nsi_id": "aldi-b5be76"}},
{"type": "Feature", "id": "gamKk6PRw98uwXM89iwsh5sNvJc=", "properties": {"ref": "PT001062", "@spider": "aldi_nord_pt", "shop": "supermarket", "addr:street_address": "Loteamento de S\u00e3o Domingos 1", "addr:city": "Santar\u00e9m", "addr:postcode": "2005-177", "addr:country": "PT", "name": "ALDI Santar\u00e9m - Loteamento de S\u00e3o Domingos", "website": "https://www.aldi.pt/tools/lojas-e-horarios-de-funcionamento/santarem/santarem/loteamento-de-sao-domingos-1.html", "brand": "ALDI", "brand:wikidata": "Q41171373", "nsi_id": "aldi-b5be76"}},
{"type": "Feature", "id": "ZupYZ3TQBi8Nn6MalyAQeyYZZLs=", "properties": {"ref": "PT001052", "@spider": "aldi_nord_pt", "shop": "supermarket", "addr:street_address": "Rua Ilha Terceira 3", "addr:city": "Cac\u00e9m", "addr:postcode": "2735-479", "addr:country": "PT", "name": "ALDI Cac\u00e9m - Rua Ilha Terceira", "website": "https://www.aldi.pt/tools/lojas-e-horarios-de-funcionamento/lisboa/cacem/rua-ilha-terceira-3.html", "brand": "ALDI", "brand:wikidata": "Q41171373", "nsi_id": "aldi-b5be76"}},
{"type": "Feature", "id": "HbkuXe_bqwkP4lt0nDvY3nXnReY=", "properties": {"ref": "PT001044", "@spider": "aldi_nord_pt", "shop": "supermarket", "addr:street_address": "Rua Carlos Anjos, Amoreira 982", "addr:city": "Alcabideche", "addr:postcode": "2645-175", "addr:country": "PT", "name": "ALDI Alcabideche - Rua Carlos Anjos, Amoreira", "website": "https://www.aldi.pt/tools/lojas-e-horarios-de-funcionamento/lisboa/alcabideche/rua-carlos-anjos-amoreira-982.html", "brand": "ALDI", "brand:wikidata": "Q41171373", "nsi_id": "aldi-b5be76"}},
{"type": "Feature", "id": "Wu9uu3IjHOME8auW6iZMIvIiAsI=", "properties": {"ref": "https://www.aldi.pt/tools/lojas-e-horarios-de-funcionamento/lisboa/alcabideche/estrada-de-manique.html", "@spider": "aldi_nord_pt", "shop": "supermarket", "addr:street_address": "Estrada de Manique", "addr:city": "Alcabideche", "addr:postcode": "2645-019", "addr:country": "PT", "name": "ALDI Alcabideche - Estrada de Manique", "website": "https://www.aldi.pt/tools/lojas-e-horarios-de-funcionamento/lisboa/alcabideche/estrada-de-manique.html", "brand": "ALDI", "brand:wikidata": "Q41171373", "nsi_id": "aldi-b5be76"}},
{"type": "Feature", "id": "8tkXdqMbUV1MVhfMWGAvxXssS1Q=", "properties": {"ref": "PT001055", "@spider": "aldi_nord_pt", "shop": "supermarket", "addr:street_address": "Rua Herm\u00ednio da Palma In\u00e1cio 29.02", "addr:city": "Lisboa", "addr:postcode": "1750-224", "addr:country": "PT", "name": "ALDI Lisboa - Rua Herm\u00ednio da Palma In\u00e1cio", "website": "https://www.aldi.pt/tools/lojas-e-horarios-de-funcionamento/lisboa/lisboa/rua-herminio-da-palma-inacio-29-02.html", "brand": "ALDI", "brand:wikidata": "Q41171373", "nsi_id": "aldi-b5be76"}},
{"type": "Feature", "id": "1UnqrDo9Q2MbQehLv_tmPaww1tw=", "properties": {"ref": "PT001054", "@spider": "aldi_nord_pt", "shop": "supermarket", "addr:street_address": "Rua Frederico George 20", "addr:city": "Lisboa", "addr:postcode": "1600-414", "addr:country": "PT", "name": "ALDI Lisboa - Rua Frederico George", "website": "https://www.aldi.pt/tools/lojas-e-horarios-de-funcionamento/lisboa/lisboa/rua-frederico-george-20.html", "brand": "ALDI", "brand:wikidata": "Q41171373", "nsi_id": "aldi-b5be76"}},
{"type": "Feature", "id": "tJmSrpWgoSx4orhYoxkI1EG6glk=", "properties": {"ref": "PT001009", "@spider": "aldi_nord_pt", "shop": "supermarket", "addr:street_address": "Estrada Real, Azambuja", "addr:city": "Azambuja", "addr:postcode": "2050-281", "addr:country": "PT", "name": "ALDI Azambuja - Estrada Real, Azambuja", "website": "https://www.aldi.pt/tools/lojas-e-horarios-de-funcionamento/lisboa/azambuja/estrada-real-azambuja.html", "brand": "ALDI", "brand:wikidata": "Q41171373", "nsi_id": "aldi-b5be76"}},
{"type": "Feature", "id": "dDAOwrr1HhZ6L9cInwLeCMCUmoI=", "properties": {"ref": "PT001072", "@spider": "aldi_nord_pt", "shop": "supermarket", "addr:street_address": "Av. 25 de Abril 101", "addr:city": "S\u00e3o Domingos de Rana", "addr:postcode": "2785-575", "addr:country": "PT", "name": "ALDI S\u00e3o Domingos de Rana - Av. 25 de Abril", "website": "https://www.aldi.pt/tools/lojas-e-horarios-de-funcionamento/lisboa/sao-domingos-de-rana/av-25-de-abril-101.html", "brand": "ALDI", "brand:wikidata": "Q41171373", "nsi_id": "aldi-b5be76"}},
{"type": "Feature", "id": "bAos9hIl4Po3uJKv6PZiKOQTwJ4=", "properties": {"ref": "https://www.aldi.pt/tools/lojas-e-horarios-de-funcionamento/lisboa/sao-domingos-de-rana/estrada-nacional-249.html", "@spider": "aldi_nord_pt", "shop": "supermarket", "addr:street_address": "Estrada Nacional 249", "addr:city": "S\u00e3o Domingos de Rana", "addr:postcode": "2785-784", "addr:country": "PT", "name": "ALDI S\u00e3o Domingos de Rana - Estrada Nacional 249", "website": "https://www.aldi.pt/tools/lojas-e-horarios-de-funcionamento/lisboa/sao-domingos-de-rana/estrada-nacional-249.html", "brand": "ALDI", "brand:wikidata": "Q41171373", "nsi_id": "aldi-b5be76"}},
{"type": "Feature", "id": "BbyjWdA_GQd2ZdB6N4qlAgFFzoA=", "properties": {"ref": "https://www.aldi.pt/tools/lojas-e-horarios-de-funcionamento/aveiro/santa-maria-da-feira/rua-dr-crispim-borges-de-castro-38.html", "@spider": "aldi_nord_pt", "shop": "supermarket", "addr:street_address": "Rua Dr. Crispim Borges de Castro 38", "addr:city": "Santa Maria da Feira", "addr:postcode": "4520-283", "addr:country": "PT", "name": "ALDI Santa Maria da Feira - Rua Dr. Crispim Borges de Castro", "website": "https://www.aldi.pt/tools/lojas-e-horarios-de-funcionamento/aveiro/santa-maria-da-feira/rua-dr-crispim-borges-de-castro-38.html", "brand": "ALDI", "brand:wikidata": "Q41171373", "nsi_id": "aldi-b5be76"}},
{"type": "Feature", "id": "t0O5MO7Fq6FPED9TPi6LvBKtKro=", "properties": {"ref": "https://www.aldi.pt/tools/lojas-e-horarios-de-funcionamento/aveiro/lourosa/avenida-principal-en1.html", "@spider": "aldi_nord_pt", "shop": "supermarket", "addr:street_address": "Avenida Principal (EN1)", "addr:city": "Lourosa", "addr:postcode": "4535-014", "addr:country": "PT", "name": "ALDI Lourosa - Avenida Principal (EN1)", "website": "https://www.aldi.pt/tools/lojas-e-horarios-de-funcionamento/aveiro/lourosa/avenida-principal-en1.html", "brand": "ALDI", "brand:wikidata": "Q41171373", "nsi_id": "aldi-b5be76"}},
{"type": "Feature", "id": "fLJGLTcemVSB3NlUfUpja0v8h8Q=", "properties": {"ref": "PT001004", "@spider": "aldi_nord_pt", "shop": "supermarket", "addr:street_address": "Avenida do Sul", "addr:city": "Odemira", "addr:postcode": "7630-068", "addr:country": "PT", "name": "ALDI Odemira - Avenida do Sul", "website": "https://www.aldi.pt/tools/lojas-e-horarios-de-funcionamento/beja/odemira/avenida-do-sul.html", "brand": "ALDI", "brand:wikidata": "Q41171373", "nsi_id": "aldi-b5be76"}},
{"type": "Feature", "id": "J5tum3CelUb_v30edafxAoQm5ac=", "properties": {"ref": "https://www.aldi.pt/tools/lojas-e-horarios-de-funcionamento/beja/ourique/cerca-de-sao-lourenco-estrada-de-garvao.html", "@spider": "aldi_nord_pt", "shop": "supermarket", "addr:street_address": "Cerca de S\u00e3o Louren\u00e7o, Estrada de Garv\u00e3o", "addr:city": "Ourique", "addr:postcode": "7670-253", "addr:country": "PT", "name": "ALDI Ourique - Cerca de S\u00e3o Louren\u00e7o, Estrada de Garv\u00e3o", "website": "https://www.aldi.pt/tools/lojas-e-horarios-de-funcionamento/beja/ourique/cerca-de-sao-lourenco-estrada-de-garvao.html", "brand": "ALDI", "brand:wikidata": "Q41171373", "nsi_id": "aldi-b5be76"}},
{"type": "Feature", "id": "7rWduGTZSonBQ3SpAdcb47YlLyg=", "properties": {"ref": "https://www.aldi.pt/tools/lojas-e-horarios-de-funcionamento/braga/esposende/rua-da-anta-2.html", "@spider": "aldi_nord_pt", "shop": "supermarket", "addr:street_address": "Rua da Anta 2", "addr:city": "Esposende", "addr:postcode": "4740-574", "addr:country": "PT", "name": "ALDI Esposende - Rua da Anta", "website": "https://www.aldi.pt/tools/lojas-e-horarios-de-funcionamento/braga/esposende/rua-da-anta-2.html", "brand": "ALDI", "brand:wikidata": "Q41171373", "nsi_id": "aldi-b5be76"}},
{"type": "Feature", "id": "ev-dgShKWVOc3pmC4XIwDrSyWNM=", "properties": {"ref": "https://www.aldi.pt/tools/lojas-e-horarios-de-funcionamento/braga/nespereira-guimaraes/rua-padre-antonio-pereira-da-silva-94.html", "@spider": "aldi_nord_pt", "shop": "supermarket", "addr:street_address": "Rua Padre Ant\u00f3nio Pereira da Silva 94", "addr:city": "Nespereira Guimar\u00e3es", "addr:postcode": "4835-472", "addr:country": "PT", "name": "ALDI Nespereira Guimar\u00e3es - Rua Padre Ant\u00f3nio Pereira da Silva", "website": "https://www.aldi.pt/tools/lojas-e-horarios-de-funcionamento/braga/nespereira-guimaraes/rua-padre-antonio-pereira-da-silva-94.html", "brand": "ALDI", "brand:wikidata": "Q41171373", "nsi_id": "aldi-b5be76"}},
{"type": "Feature", "id": "d_nA9lkjqfQOElWsDCCQ464YJiM=", "properties": {"ref": "https://www.aldi.pt/tools/lojas-e-horarios-de-funcionamento/braga/creixomil/rua-de-sao-miguel-1097.html", "@spider": "aldi_nord_pt", "shop": "supermarket", "addr:street_address": "Rua de S\u00e3o Miguel 1097", "addr:city": "Creixomil", "addr:postcode": "4835-106", "addr:country": "PT", "name": "ALDI Creixomil - Rua de S\u00e3o Miguel", "website": "https://www.aldi.pt/tools/lojas-e-horarios-de-funcionamento/braga/creixomil/rua-de-sao-miguel-1097.html", "brand": "ALDI", "brand:wikidata": "Q41171373", "nsi_id": "aldi-b5be76"}},
{"type": "Feature", "id": "yZDKEZi6L0W_XBTUZCX2TQ9sWcM=", "properties": {"ref": "https://www.aldi.pt/tools/lojas-e-horarios-de-funcionamento/braga/braga-lamacaes/avenida-d-joao-ii-270.html", "@spider": "aldi_nord_pt", "shop": "supermarket", "addr:street_address": "Avenida D. Jo\u00e3o II, 270", "addr:city": "Braga, Lama\u00e7\u00e3es", "addr:postcode": "4715-275", "addr:country": "PT", "name": "ALDI Braga, Lama\u00e7\u00e3es - Avenida D. Jo\u00e3o II,", "website": "https://www.aldi.pt/tools/lojas-e-horarios-de-funcionamento/braga/braga-lamacaes/avenida-d-joao-ii-270.html", "brand": "ALDI", "brand:wikidata": "Q41171373", "nsi_id": "aldi-b5be76"}},
{"type": "Feature", "id": "vzpzwZBHlUwCicQ5M73xMj_p5wk=", "properties": {"ref": "https://www.aldi.pt/tools/lojas-e-horarios-de-funcionamento/faro/alcantarilha/loteamento-industrial-do-rogelo-e-n-125.html", "@spider": "aldi_nord_pt", "shop": "supermarket", "addr:street_address": "Loteamento Industrial do Rogelo, E.N. 125", "addr:city": "Alcantarilha", "addr:postcode": "8365-011", "addr:country": "PT", "name": "ALDI Alcantarilha - Loteamento Industrial do Rogelo, E.N. 125", "website": "https://www.aldi.pt/tools/lojas-e-horarios-de-funcionamento/faro/alcantarilha/loteamento-industrial-do-rogelo-e-n-125.html", "brand": "ALDI", "brand:wikidata": "Q41171373", "nsi_id": "aldi-b5be76"}},
{"type": "Feature", "id": "jnJcjYf53n-6EYFJI11VOs1Eg-w=", "properties": {"ref": "https://www.aldi.pt/tools/lojas-e-horarios-de-funcionamento/faro/altura/estrada-naciona-n-125.html", "@spider": "aldi_nord_pt", "shop": "supermarket", "addr:street_address": "Estrada Naciona n.\u00ba 125", "addr:city": "Altura", "addr:postcode": "8950-411", "addr:country": "PT", "name": "ALDI Altura - Estrada Naciona n.\u00ba 125", "website": "https://www.aldi.pt/tools/lojas-e-horarios-de-funcionamento/faro/altura/estrada-naciona-n-125.html", "brand": "ALDI", "brand:wikidata": "Q41171373", "nsi_id": "aldi-b5be76"}},
{"type": "Feature", "id": "1pss2T_pOK98b7XP_Uo8GxmCjNc=", "properties": {"ref": "PT001013", "@spider": "aldi_nord_pt", "shop": "supermarket", "addr:street_address": "Rua do Cerro das M\u00f3s", "addr:city": "Lagos", "addr:postcode": "8600-709", "addr:country": "PT", "name": "ALDI Lagos - Rua do Cerro das M\u00f3s", "website": "https://www.aldi.pt/tools/lojas-e-horarios-de-funcionamento/faro/lagos/rua-do-cerro-das-mos.html", "brand": "ALDI", "brand:wikidata": "Q41171373", "nsi_id": "aldi-b5be76"}},
{"type": "Feature", "id": "HS-tfi7upVxqwW1Lxe62BGUBZK0=", "properties": {"ref": "https://www.aldi.pt/tools/lojas-e-horarios-de-funcionamento/castelo-branco/covilha/alameda-pero-da-covilha.html", "@spider": "aldi_nord_pt", "shop": "supermarket", "addr:street_address": "Alameda P\u00earo da Covilh\u00e3", "addr:city": "Covilh\u00e3", "addr:postcode": "6200-507", "addr:country": "PT", "name": "ALDI Covilh\u00e3 - Alameda P\u00earo da Covilh\u00e3", "website": "https://www.aldi.pt/tools/lojas-e-horarios-de-funcionamento/castelo-branco/covilha/alameda-pero-da-covilha.html", "brand": "ALDI", "brand:wikidata": "Q41171373", "nsi_id": "aldi-b5be76"}},
{"type": "Feature", "id": "TcDQ64vaYFaQLuWwnvs7dLUdoZQ=", "properties": {"ref": "https://www.aldi.pt/tools/lojas-e-horarios-de-funcionamento/coimbra/figueira-da-foz/rua-mario-azenha-20.html", "@spider": "aldi_nord_pt", "shop": "supermarket", "addr:street_address": "Rua M\u00e1rio Azenha 20", "addr:city": "Figueira da Foz", "addr:postcode": "3080-012", "addr:country": "PT", "name": "ALDI Figueira da Foz - Rua M\u00e1rio Azenha", "website": "https://www.aldi.pt/tools/lojas-e-horarios-de-funcionamento/coimbra/figueira-da-foz/rua-mario-azenha-20.html", "brand": "ALDI", "brand:wikidata": "Q41171373", "nsi_id": "aldi-b5be76"}},
{"type": "Feature", "id": "IFALx8qk4R_num88fOffvfkFy_U=", "properties": {"ref": "PT001067", "@spider": "aldi_nord_pt", "shop": "supermarket", "addr:street_address": "Avenida Guarda Inglesa 41", "addr:city": "Coimbra", "addr:postcode": "3040-193", "addr:country": "PT", "name": "ALDI Coimbra - Avenida Guarda Inglesa", "website": "https://www.aldi.pt/tools/lojas-e-horarios-de-funcionamento/coimbra/coimbra/avenida-guarda-inglesa-41.html", "brand": "ALDI", "brand:wikidata": "Q41171373", "nsi_id": "aldi-b5be76"}},
{"type": "Feature", "id": "h-573qL7j8qKQo141p-bm0tcE3E=", "properties": {"ref": "PT001061", "@spider": "aldi_nord_pt", "shop": "supermarket", "addr:street_address": "Rua Comandante Sacadura Cabral 55", "addr:city": "Coimbra", "addr:postcode": "3030-333", "addr:country": "PT", "name": "ALDI Coimbra - Rua Comandante Sacadura Cabral", "website": "https://www.aldi.pt/tools/lojas-e-horarios-de-funcionamento/coimbra/coimbra/rua-comandante-sacadura-cabral-55.html", "brand": "ALDI", "brand:wikidata": "Q41171373", "nsi_id": "aldi-b5be76"}},
{"type": "Feature", "id": "yx4L7PvLhERICf_NmHC31MHJpDc=", "properties": {"ref": "https://www.aldi.pt/tools/lojas-e-horarios-de-funcionamento/braga/viana-do-castelo/rua-do-monserrate-en-13.html", "@spider": "aldi_nord_pt", "shop": "supermarket", "addr:street_address": "Rua do Monserrate, EN 13", "addr:city": "Viana do Castelo", "addr:postcode": "4904-860", "addr:country": "PT", "name": "ALDI Viana do Castelo - Rua do Monserrate, EN 13", "website": "https://www.aldi.pt/tools/lojas-e-horarios-de-funcionamento/braga/viana-do-castelo/rua-do-monserrate-en-13.html", "brand": "ALDI", "brand:wikidata": "Q41171373", "nsi_id": "aldi-b5be76"}},
{"type": "Feature", "id": "RMtNbRfQRV20NUUNWSz3XsOXCeA=", "properties": {"ref": "PT001074", "@spider": "aldi_nord_pt", "shop": "supermarket", "addr:street_address": "Estrada da Figueira da Foz, Madeiras, G\u00e2ndara", "addr:city": "Leiria - G\u00e2ndara dos Olivais", "addr:postcode": "2415-497", "addr:country": "PT", "name": "ALDI Leiria - G\u00e2ndara dos Olivais - Estrada da Figueira da Foz, Madeiras, G\u00e2ndara", "website": "https://www.aldi.pt/tools/lojas-e-horarios-de-funcionamento/leiria/leiria-gandara-dos-olivais/estrada-da-figueira-da-foz-madeiras-gandara.html", "brand": "ALDI", "brand:wikidata": "Q41171373", "nsi_id": "aldi-b5be76"}},
{"type": "Feature", "id": "A3PABYfADrryp9PMt36tirJiWSQ=", "properties": {"ref": "PT001003", "@spider": "aldi_nord_pt", "shop": "supermarket", "addr:street_address": "Rua Dr. Manuel Bentes", "addr:city": "Portim\u00e3o", "addr:postcode": "8500-313", "addr:country": "PT", "name": "ALDI Portim\u00e3o - Rua Dr. Manuel Bentes", "website": "https://www.aldi.pt/tools/lojas-e-horarios-de-funcionamento/faro/portimao/rua-dr-manuel-bentes.html", "brand": "ALDI", "brand:wikidata": "Q41171373", "nsi_id": "aldi-b5be76"}},
{"type": "Feature", "id": "ZEv5t4xKj2lzgnI6L-705lYGhRs=", "properties": {"ref": "https://www.aldi.pt/tools/lojas-e-horarios-de-funcionamento/faro/silves/rua-do-cemiterio.html", "@spider": "aldi_nord_pt", "shop": "supermarket", "addr:street_address": "Rua do Cemit\u00e9rio", "addr:city": "Silves", "addr:postcode": "8300-180", "addr:country": "PT", "name": "ALDI Silves - Rua do Cemit\u00e9rio", "website": "https://www.aldi.pt/tools/lojas-e-horarios-de-funcionamento/faro/silves/rua-do-cemiterio.html", "brand": "ALDI", "brand:wikidata": "Q41171373", "nsi_id": "aldi-b5be76"}},
{"type": "Feature", "id": "82qzCUjMmyNba13B8Yd15QJf_xI=", "properties": {"ref": "PT001002", "@spider": "aldi_nord_pt", "shop": "supermarket", "addr:street_address": "S\u00edtio de S\u00e3o Pedro, Santiago", "addr:city": "Tavira", "addr:postcode": "8800-255", "addr:country": "PT", "name": "ALDI Tavira - S\u00edtio de S\u00e3o Pedro, Santiago", "website": "https://www.aldi.pt/tools/lojas-e-horarios-de-funcionamento/faro/tavira/sitio-de-sao-pedro-santiago.html", "brand": "ALDI", "brand:wikidata": "Q41171373", "nsi_id": "aldi-b5be76"}},
{"type": "Feature", "id": "_0VxEuWV4Zp35Ky95lHhdvVndYI=", "properties": {"ref": "PT001021", "@spider": "aldi_nord_pt", "shop": "supermarket", "addr:street_address": "Av. D. Jo\u00e3o VI", "addr:city": "Olh\u00e3o", "addr:postcode": "8700-224", "addr:country": "PT", "name": "ALDI Olh\u00e3o - Av. D. Jo\u00e3o VI", "website": "https://www.aldi.pt/tools/lojas-e-horarios-de-funcionamento/faro/olhao/av-d-joao-vi.html", "brand": "ALDI", "brand:wikidata": "Q41171373", "nsi_id": "aldi-b5be76"}},
{"type": "Feature", "id": "yDrYtg8fFzxMN7-B7EN299CU8VY=", "properties": {"ref": "PT001006", "@spider": "aldi_nord_pt", "shop": "supermarket", "addr:street_address": "Quinta de Vale Verde, E.N. 125", "addr:city": "Guia - Albufeira", "addr:postcode": "8200-424", "addr:country": "PT", "name": "ALDI Guia - Albufeira - Quinta de Vale Verde, E.N. 125", "website": "https://www.aldi.pt/tools/lojas-e-horarios-de-funcionamento/faro/guia-albufeira/quinta-de-vale-verde-e-n-125.html", "brand": "ALDI", "brand:wikidata": "Q41171373", "nsi_id": "aldi-b5be76"}},
{"type": "Feature", "id": "0geB-5XMrFBwbXxLQJ1GJ4YYySw=", "properties": {"ref": "https://www.aldi.pt/tools/lojas-e-horarios-de-funcionamento/faro/guia-albufeira/estrada-de-vale-rabelho-vale-parra-1721.html", "@spider": "aldi_nord_pt", "shop": "supermarket", "addr:street_address": "Estrada de Vale Rabelho, Vale Parra 1721", "addr:city": "Guia - Albufeira", "addr:postcode": "8200-428", "addr:country": "PT", "name": "ALDI Guia - Albufeira - Estrada de Vale Rabelho, Vale Parra", "website": "https://www.aldi.pt/tools/lojas-e-horarios-de-funcionamento/faro/guia-albufeira/estrada-de-vale-rabelho-vale-parra-1721.html", "brand": "ALDI", "brand:wikidata": "Q41171373", "nsi_id": "aldi-b5be76"}},
{"type": "Feature", "id": "qdCN8nFjGdOU_4bWHuCCYqpZEpA=", "properties": {"ref": "PT001041", "@spider": "aldi_nord_pt", "shop": "supermarket", "addr:street_address": "Rua dos Cali\u00e7os", "addr:city": "Albufeira", "addr:postcode": "8200-125", "addr:country": "PT", "name": "ALDI Albufeira - Rua dos Cali\u00e7os", "website": "https://www.aldi.pt/tools/lojas-e-horarios-de-funcionamento/faro/albufeira/rua-dos-calicos.html", "brand": "ALDI", "brand:wikidata": "Q41171373", "nsi_id": "aldi-b5be76"}},
{"type": "Feature", "id": "s6eRSp6sSt-a6AK6bdsN5WFgZ-w=", "properties": {"ref": "https://www.aldi.pt/tools/lojas-e-horarios-de-funcionamento/faro/albufeira/rua-manuel-teixeira-gomes.html", "@spider": "aldi_nord_pt", "shop": "supermarket", "addr:street_address": "Rua Manuel Teixeira Gomes", "addr:city": "Albufeira", "addr:postcode": "8200-269", "addr:country": "PT", "name": "ALDI Albufeira - Rua Manuel Teixeira Gomes", "website": "https://www.aldi.pt/tools/lojas-e-horarios-de-funcionamento/faro/albufeira/rua-manuel-teixeira-gomes.html", "brand": "ALDI", "brand:wikidata": "Q41171373", "nsi_id": "aldi-b5be76"}},
{"type": "Feature", "id": "mHvkjFjsvgz2axafgUdEYgIwUMY=", "properties": {"ref": "PT001014", "@spider": "aldi_nord_pt", "shop": "supermarket", "addr:street_address": "Rua Prof. Ant\u00f3nio Pinheiro e Rosa", "addr:city": "Faro", "addr:postcode": "8005-334", "addr:country": "PT", "name": "ALDI Faro - Rua Prof. Ant\u00f3nio Pinheiro e Rosa", "website": "https://www.aldi.pt/tools/lojas-e-horarios-de-funcionamento/faro/faro/rua-prof-antonio-pinheiro-e-rosa.html", "brand": "ALDI", "brand:wikidata": "Q41171373", "nsi_id": "aldi-b5be76"}},
{"type": "Feature", "id": "XM9SE6zuJJ1ozi1OTpgtKttrbKk=", "properties": {"ref": "PT001057", "@spider": "aldi_nord_pt", "shop": "supermarket", "addr:street_address": "Rua Francisco Assis, Gambelas 1", "addr:city": "Faro", "addr:postcode": "8005-549", "addr:country": "PT", "name": "ALDI Faro - Rua Francisco Assis, Gambelas", "website": "https://www.aldi.pt/tools/lojas-e-horarios-de-funcionamento/faro/faro/rua-francisco-assis-gambelas-1.html", "brand": "ALDI", "brand:wikidata": "Q41171373", "nsi_id": "aldi-b5be76"}},
{"type": "Feature", "id": "OvZO3tuOjJbw9c9ffz3BUIhqtTM=", "properties": {"ref": "https://www.aldi.pt/tools/lojas-e-horarios-de-funcionamento/faro/vila-real-de-santo-antonio/av-municipio-de-playa.html", "@spider": "aldi_nord_pt", "shop": "supermarket", "addr:street_address": "Av. Municipio de Playa", "addr:city": "Vila Real de Santo Ant\u00f3nio", "addr:postcode": "8900-487", "addr:country": "PT", "name": "ALDI Vila Real de Santo Ant\u00f3nio - Av. Municipio de Playa", "website": "https://www.aldi.pt/tools/lojas-e-horarios-de-funcionamento/faro/vila-real-de-santo-antonio/av-municipio-de-playa.html", "brand": "ALDI", "brand:wikidata": "Q41171373", "nsi_id": "aldi-b5be76"}},
{"type": "Feature", "id": "WDTWXHMrcGnZwC1lM6pO0nUrQZc=", "properties": {"ref": "PT001051", "@spider": "aldi_nord_pt", "shop": "supermarket", "addr:street_address": "Fonte de Boliqueime, Av. Prof. An\u00edbal Cavaco Silva", "addr:city": "Boliqueime", "addr:postcode": "8100-069", "addr:country": "PT", "name": "ALDI Boliqueime - Fonte de Boliqueime, Av. Prof. An\u00edbal Cavaco Silva", "website": "https://www.aldi.pt/tools/lojas-e-horarios-de-funcionamento/faro/boliqueime/fonte-de-boliqueime-av-prof-anibal-cavaco-silva.html", "brand": "ALDI", "brand:wikidata": "Q41171373", "nsi_id": "aldi-b5be76"}},
{"type": "Feature", "id": "010oUfBbb50BGBO36HEDMEUfqTU=", "properties": {"ref": "PT001039", "@spider": "aldi_nord_pt", "shop": "supermarket", "addr:street_address": "S\u00edtio das Lagoinhas - EN 124 - 1 Gramital", "addr:city": "Lagoa", "addr:postcode": "8400-395", "addr:country": "PT", "name": "ALDI Lagoa - S\u00edtio das Lagoinhas - EN 124 - 1 Gramital", "website": "https://www.aldi.pt/tools/lojas-e-horarios-de-funcionamento/faro/lagoa/sitio-das-lagoinhas-en-124-1-gramital.html", "brand": "ALDI", "brand:wikidata": "Q41171373", "nsi_id": "aldi-b5be76"}},
{"type": "Feature", "id": "3ihe7uBPTtEPWV9T19Jn9bTBDlo=", "properties": {"ref": "PT001007", "@spider": "aldi_nord_pt", "shop": "supermarket", "addr:street_address": "Avenida 5 de Outubro, Vale de \u00c9guas", "addr:city": "Almancil", "addr:postcode": "8135-120", "addr:country": "PT", "name": "ALDI Almancil - Avenida 5 de Outubro, Vale de \u00c9guas", "website": "https://www.aldi.pt/tools/lojas-e-horarios-de-funcionamento/faro/almancil/avenida-5-de-outubro-vale-de-eguas.html", "brand": "ALDI", "brand:wikidata": "Q41171373", "nsi_id": "aldi-b5be76"}},
{"type": "Feature", "id": "dvwJvJOSioiaUr-08IRPT3MrWG4=", "properties": {"ref": "https://www.aldi.pt/tools/lojas-e-horarios-de-funcionamento/guarda/guarda/rua-do-facheiro-5.html", "@spider": "aldi_nord_pt", "shop": "supermarket", "addr:street_address": "Rua do Facheiro 5", "addr:city": "Guarda", "addr:postcode": "6300-833", "addr:country": "PT", "name": "ALDI Guarda - Rua do Facheiro", "website": "https://www.aldi.pt/tools/lojas-e-horarios-de-funcionamento/guarda/guarda/rua-do-facheiro-5.html", "brand": "ALDI", "brand:wikidata": "Q41171373", "nsi_id": "aldi-b5be76"}},
{"type": "Feature", "id": "wWog-KeanzjTK7BFv609lGAoeIw=", "properties": {"ref": "PT001018", "@spider": "aldi_nord_pt", "shop": "supermarket", "addr:street_address": "Rua das Vagens, Casais de Mem Martins S/N", "addr:city": "Mem Martins", "addr:postcode": "2725-466", "addr:country": "PT", "name": "ALDI Mem Martins - Rua das Vagens, Casais de Mem Martins", "website": "https://www.aldi.pt/tools/lojas-e-horarios-de-funcionamento/lisboa/mem-martins/rua-das-vagens-casais-de-mem-martins-s-n.html", "brand": "ALDI", "brand:wikidata": "Q41171373", "nsi_id": "aldi-b5be76"}},
{"type": "Feature", "id": "rnVldc-ZXFih8RH-XzfgY4tTw-4=", "properties": {"ref": "PT001024", "@spider": "aldi_nord_pt", "shop": "supermarket", "addr:street_address": "Estrada da Circunvala\u00e7\u00e3o, Bairro do Estacal Novo 80 - 80B", "addr:city": "Santa Iria de Az\u00f3ia", "addr:postcode": "2690-212", "addr:country": "PT", "name": "ALDI Santa Iria de Az\u00f3ia - Estrada da Circunvala\u00e7\u00e3o, Bairro do Estacal Novo", "website": "https://www.aldi.pt/tools/lojas-e-horarios-de-funcionamento/lisboa/santa-iria-de-azoia/estrada-da-circunvalacao-bairro-do-estacal-novo-80-80b.html", "brand": "ALDI", "brand:wikidata": "Q41171373", "nsi_id": "aldi-b5be76"}},
{"type": "Feature", "id": "2VZMiFx6CJl1U8W9jH5kKmr2TOU=", "properties": {"ref": "PT001048", "@spider": "aldi_nord_pt", "shop": "supermarket", "addr:street_address": "Rua Casal do Alfaiate 3", "addr:city": "Venda do Pinheiro", "addr:postcode": "2665-565", "addr:country": "PT", "name": "ALDI Venda do Pinheiro - Rua Casal do Alfaiate", "website": "https://www.aldi.pt/tools/lojas-e-horarios-de-funcionamento/lisboa/venda-do-pinheiro/rua-casal-do-alfaiate-3.html", "brand": "ALDI", "brand:wikidata": "Q41171373", "nsi_id": "aldi-b5be76"}},
{"type": "Feature", "id": "8MOUqAvzyYG5lO8eA0tGuCmL20g=", "properties": {"ref": "https://www.aldi.pt/tools/lojas-e-horarios-de-funcionamento/lisboa/mafra/en-116-salgados-8.html", "@spider": "aldi_nord_pt", "shop": "supermarket", "addr:street_address": "EN 116, Salgados 8", "addr:city": "Mafra", "addr:postcode": "2640-577", "addr:country": "PT", "name": "ALDI Mafra - EN 116, Salgados", "website": "https://www.aldi.pt/tools/lojas-e-horarios-de-funcionamento/lisboa/mafra/en-116-salgados-8.html", "brand": "ALDI", "brand:wikidata": "Q41171373", "nsi_id": "aldi-b5be76"}},
{"type": "Feature", "id": "JpLWfurh4CrRGuJtwuN20pjP2wM=", "properties": {"ref": "https://www.aldi.pt/tools/lojas-e-horarios-de-funcionamento/lisboa/bobadela/estrada-nacional-10-km-140-200-e.html", "@spider": "aldi_nord_pt", "shop": "supermarket", "addr:street_address": "Estrada Nacional 10, Km 140+200 E", "addr:city": "Bobadela", "addr:postcode": "2695-066", "addr:country": "PT", "name": "ALDI Bobadela - Estrada Nacional 10, Km 140+200 E", "website": "https://www.aldi.pt/tools/lojas-e-horarios-de-funcionamento/lisboa/bobadela/estrada-nacional-10-km-140-200-e.html", "brand": "ALDI", "brand:wikidata": "Q41171373", "nsi_id": "aldi-b5be76"}},
{"type": "Feature", "id": "sXQaJrgxkDEQzNhj_pAu2nACM5I=", "properties": {"ref": "https://www.aldi.pt/tools/lojas-e-horarios-de-funcionamento/lisboa/lisboa/rua-tomas-da-anunciacao-11.html", "@spider": "aldi_nord_pt", "shop": "supermarket", "addr:street_address": "Rua Tom\u00e1s da Anuncia\u00e7\u00e3o 11", "addr:city": "Lisboa", "addr:postcode": "1350-321", "addr:country": "PT", "name": "ALDI Lisboa - Rua Tom\u00e1s da Anuncia\u00e7\u00e3o", "website": "https://www.aldi.pt/tools/lojas-e-horarios-de-funcionamento/lisboa/lisboa/rua-tomas-da-anunciacao-11.html", "brand": "ALDI", "brand:wikidata": "Q41171373", "nsi_id": "aldi-b5be76"}},
{"type": "Feature", "id": "NBJ9HGy8dL--m69HMZ6iOX_01cI=", "properties": {"ref": "https://www.aldi.pt/tools/lojas-e-horarios-de-funcionamento/lisboa/lisboa/rua-filipe-folque-10.html", "@spider": "aldi_nord_pt", "shop": "supermarket", "addr:street_address": "Rua Filipe Folque 10", "addr:city": "Lisboa", "addr:postcode": "1050-999", "addr:country": "PT", "name": "ALDI Lisboa - Rua Filipe Folque", "website": "https://www.aldi.pt/tools/lojas-e-horarios-de-funcionamento/lisboa/lisboa/rua-filipe-folque-10.html", "brand": "ALDI", "brand:wikidata": "Q41171373", "nsi_id": "aldi-b5be76"}},
{"type": "Feature", "id": "r3MbMzB-RSAVoYds2fpitYsgrhM=", "properties": {"ref": "https://www.aldi.pt/tools/lojas-e-horarios-de-funcionamento/lisboa/famoes/avenida-das-acacias-23.html", "@spider": "aldi_nord_pt", "shop": "supermarket", "addr:street_address": "Avenida das Ac\u00e1cias 23", "addr:city": "Fam\u00f5es", "addr:postcode": "1685-654", "addr:country": "PT", "name": "ALDI Fam\u00f5es - Avenida das Ac\u00e1cias", "website": "https://www.aldi.pt/tools/lojas-e-horarios-de-funcionamento/lisboa/famoes/avenida-das-acacias-23.html", "brand": "ALDI", "brand:wikidata": "Q41171373", "nsi_id": "aldi-b5be76"}},
{"type": "Feature", "id": "kyLVAOnL1e5nR46rgNX9tLdO2n4=", "properties": {"ref": "PT001050", "@spider": "aldi_nord_pt", "shop": "supermarket", "addr:street_address": "Avenida de Lisboa 39", "addr:city": "Casal de Cambra", "addr:postcode": "2605-081", "addr:country": "PT", "name": "ALDI Casal de Cambra - Avenida de Lisboa", "website": "https://www.aldi.pt/tools/lojas-e-horarios-de-funcionamento/lisboa/casal-de-cambra/avenida-de-lisboa-39.html", "brand": "ALDI", "brand:wikidata": "Q41171373", "nsi_id": "aldi-b5be76"}},
{"type": "Feature", "id": "wQn-aYDBykqy96BJQSNFpuMjHwI=", "properties": {"ref": "https://www.aldi.pt/tools/lojas-e-horarios-de-funcionamento/lisboa/vialonga/rua-1-de-maio-48.html", "@spider": "aldi_nord_pt", "shop": "supermarket", "addr:street_address": "Rua 1\u00ba de Maio 48", "addr:city": "Vialonga", "addr:postcode": "2625-586", "addr:country": "PT", "name": "ALDI Vialonga - Rua 1\u00ba de Maio", "website": "https://www.aldi.pt/tools/lojas-e-horarios-de-funcionamento/lisboa/vialonga/rua-1-de-maio-48.html", "brand": "ALDI", "brand:wikidata": "Q41171373", "nsi_id": "aldi-b5be76"}},
{"type": "Feature", "id": "loTF0LNo6ftajBJ1G5Wt-W-iCyQ=", "properties": {"ref": "PT001028", "@spider": "aldi_nord_pt", "shop": "supermarket", "addr:street_address": "Rua Bartolomeu Dias, Monte Abra\u00e3o", "addr:city": "Queluz", "addr:postcode": "2745-254", "addr:country": "PT", "name": "ALDI Queluz - Rua Bartolomeu Dias, Monte Abra\u00e3o", "website": "https://www.aldi.pt/tools/lojas-e-horarios-de-funcionamento/lisboa/queluz/rua-bartolomeu-dias-monte-abraao.html", "brand": "ALDI", "brand:wikidata": "Q41171373", "nsi_id": "aldi-b5be76"}},
{"type": "Feature", "id": "6psn-dVJolCOHIJsq7w1zRicVRI=", "properties": {"ref": "PT001008", "@spider": "aldi_nord_pt", "shop": "supermarket", "addr:street_address": "Avenida Timor Lorosae", "addr:city": "Caldas da Rainha", "addr:postcode": "2500-934", "addr:country": "PT", "name": "ALDI Caldas da Rainha - Avenida Timor Lorosae", "website": "https://www.aldi.pt/tools/lojas-e-horarios-de-funcionamento/leiria/caldas-da-rainha/avenida-timor-lorosae.html", "brand": "ALDI", "brand:wikidata": "Q41171373", "nsi_id": "aldi-b5be76"}},
{"type": "Feature", "id": "M7TdkauyGsO0T39djv5M8yW963M=", "properties": {"ref": "https://www.aldi.pt/tools/lojas-e-horarios-de-funcionamento/leiria/alcobaca/av-associacao-alcobacense-de-farmingville-6-fracao-c.html", "@spider": "aldi_nord_pt", "shop": "supermarket", "addr:street_address": "Av. Associa\u00e7\u00e3o Alcobacense de Farmingville 6, Fra\u00e7\u00e3o C", "addr:city": "Alcoba\u00e7a", "addr:postcode": "2460-920", "addr:country": "PT", "name": "ALDI Alcoba\u00e7a - Av. Associa\u00e7\u00e3o Alcobacense de Farmingville", "website": "https://www.aldi.pt/tools/lojas-e-horarios-de-funcionamento/leiria/alcobaca/av-associacao-alcobacense-de-farmingville-6-fracao-c.html", "brand": "ALDI", "brand:wikidata": "Q41171373", "nsi_id": "aldi-b5be76"}},
{"type": "Feature", "id": "Ras8qVIuk5-XidOUjISEgYHD2Lw=", "properties": {"ref": "https://www.aldi.pt/tools/lojas-e-horarios-de-funcionamento/leiria/nazare/avenida-de-badajoz-lote-1.html", "@spider": "aldi_nord_pt", "shop": "supermarket", "addr:street_address": "Avenida de Badajoz Lote 1", "addr:city": "Nazar\u00e9", "addr:postcode": "2450-284", "addr:country": "PT", "name": "ALDI Nazar\u00e9 - Avenida de Badajoz", "website": "https://www.aldi.pt/tools/lojas-e-horarios-de-funcionamento/leiria/nazare/avenida-de-badajoz-lote-1.html", "brand": "ALDI", "brand:wikidata": "Q41171373", "nsi_id": "aldi-b5be76"}},
{"type": "Feature", "id": "sRCtCcM1V11bvl2mKBIfoW6zObQ=", "properties": {"ref": "https://www.aldi.pt/tools/lojas-e-horarios-de-funcionamento/leiria/peniche/rua-d-azeredo-perdigao.html", "@spider": "aldi_nord_pt", "shop": "supermarket", "addr:street_address": "Rua d'Azeredo Perdig\u00e3o", "addr:city": "Peniche", "addr:postcode": "2520-267", "addr:country": "PT", "name": "ALDI Peniche - Rua d'Azeredo Perdig\u00e3o", "website": "https://www.aldi.pt/tools/lojas-e-horarios-de-funcionamento/leiria/peniche/rua-d-azeredo-perdigao.html", "brand": "ALDI", "brand:wikidata": "Q41171373", "nsi_id": "aldi-b5be76"}},
{"type": "Feature", "id": "EWMm1OLcOkILn5skbnnQRaZZa58=", "properties": {"ref": "PT001045", "@spider": "aldi_nord_pt", "shop": "supermarket", "addr:street_address": "Avenida V\u00edtor Gallo 123", "addr:city": "Marinha Grande", "addr:postcode": "2430-172", "addr:country": "PT", "name": "ALDI Marinha Grande - Avenida V\u00edtor Gallo", "website": "https://www.aldi.pt/tools/lojas-e-horarios-de-funcionamento/leiria/marinha-grande/avenida-vitor-gallo-123.html", "brand": "ALDI", "brand:wikidata": "Q41171373", "nsi_id": "aldi-b5be76"}},
{"type": "Feature", "id": "M2yP_MExsT3rWifd_kXIFgRrZMA=", "properties": {"ref": "PT001053", "@spider": "aldi_nord_pt", "shop": "supermarket", "addr:street_address": "Rua D. Jos\u00e9 Alves Correia da Silva", "addr:city": "Leiria", "addr:postcode": "2410-119", "addr:country": "PT", "name": "ALDI Leiria - Rua D. Jos\u00e9 Alves Correia da Silva", "website": "https://www.aldi.pt/tools/lojas-e-horarios-de-funcionamento/leiria/leiria/rua-d-jose-alves-correia-da-silva.html", "brand": "ALDI", "brand:wikidata": "Q41171373", "nsi_id": "aldi-b5be76"}},
{"type": "Feature", "id": "RnhhCQamcxzoAnjVLBTShMMSNkk=", "properties": {"ref": "https://www.aldi.pt/tools/lojas-e-horarios-de-funcionamento/viseu/viseu/avenida-prof-reinaldo-cardoso-450.html", "@spider": "aldi_nord_pt", "shop": "supermarket", "addr:street_address": "Avenida Prof. Reinaldo Cardoso 450", "addr:city": "Viseu", "addr:postcode": "3500-188", "addr:country": "PT", "name": "ALDI Viseu - Avenida Prof. Reinaldo Cardoso", "website": "https://www.aldi.pt/tools/lojas-e-horarios-de-funcionamento/viseu/viseu/avenida-prof-reinaldo-cardoso-450.html", "brand": "ALDI", "brand:wikidata": "Q41171373", "nsi_id": "aldi-b5be76"}},
{"type": "Feature", "id": "rIna3f4_ZxVwxlgmb_DBYetBkIk=", "properties": {"ref": "https://www.aldi.pt/tools/lojas-e-horarios-de-funcionamento/setubal/quinta-do-conde/av-10-de-junho-lote-50.html", "@spider": "aldi_nord_pt", "shop": "supermarket", "addr:street_address": "Av. 10 de Junho, Lote 50", "addr:city": "Quinta do Conde", "addr:postcode": "2975-053", "addr:country": "PT", "name": "ALDI Quinta do Conde - Av. 10 de Junho, Lote 50", "website": "https://www.aldi.pt/tools/lojas-e-horarios-de-funcionamento/setubal/quinta-do-conde/av-10-de-junho-lote-50.html", "brand": "ALDI", "brand:wikidata": "Q41171373", "nsi_id": "aldi-b5be76"}},
{"type": "Feature", "id": "OJXrkTkUG_C2n2aoFT9LiqQZqxo=", "properties": {"ref": "https://www.aldi.pt/tools/lojas-e-horarios-de-funcionamento/setubal/quinta-do-anjo/vila-amelia-lugar-quinta-da-torre.html", "@spider": "aldi_nord_pt", "shop": "supermarket", "addr:street_address": "Vila Am\u00e9lia, Lugar Quinta da Torre", "addr:city": "Quinta do Anjo", "addr:postcode": "2950-037", "addr:country": "PT", "name": "ALDI Quinta do Anjo - Vila Am\u00e9lia, Lugar Quinta da Torre", "website": "https://www.aldi.pt/tools/lojas-e-horarios-de-funcionamento/setubal/quinta-do-anjo/vila-amelia-lugar-quinta-da-torre.html", "brand": "ALDI", "brand:wikidata": "Q41171373", "nsi_id": "aldi-b5be76"}},
{"type": "Feature", "id": "sujJ4d6QgRZ0eHNdqlKdc4X1xug=", "properties": {"ref": "PT001005", "@spider": "aldi_nord_pt", "shop": "supermarket", "addr:street_address": "Estrada do Fidalgo", "addr:city": "Santiago do Cac\u00e9m", "addr:postcode": "7540-236", "addr:country": "PT", "name": "ALDI Santiago do Cac\u00e9m - Estrada do Fidalgo", "website": "https://www.aldi.pt/tools/lojas-e-horarios-de-funcionamento/setubal/santiago-do-cacem/estrada-do-fidalgo.html", "brand": "ALDI", "brand:wikidata": "Q41171373", "nsi_id": "aldi-b5be76"}},
{"type": "Feature", "id": "l5GKRLPV5LHV-yNtxSzcA5T_Abw=", "properties": {"ref": "PT001049", "@spider": "aldi_nord_pt", "shop": "supermarket", "addr:street_address": "Av. do Mar / Av. D. Afonso Henriques, Aroeira 149", "addr:city": "Charneca da Caparica", "addr:postcode": "2820-026", "addr:country": "PT", "name": "ALDI Charneca da Caparica - Av. do Mar / Av. D. Afonso Henriques, Aroeira", "website": "https://www.aldi.pt/tools/lojas-e-horarios-de-funcionamento/setubal/charneca-da-caparica/av-do-mar-av-d-afonso-henriques-aroeira-149.html", "brand": "ALDI", "brand:wikidata": "Q41171373", "nsi_id": "aldi-b5be76"}},
{"type": "Feature", "id": "r4wyFNtvy5tG9dgnw59nUMyBhGo=", "properties": {"ref": "PT001011", "@spider": "aldi_nord_pt", "shop": "supermarket", "addr:street_address": "Rua Jos\u00e9 Afonso, Bairro da Cascalheira", "addr:city": "Pinhal Novo", "addr:postcode": "2955-103", "addr:country": "PT", "name": "ALDI Pinhal Novo - Rua Jos\u00e9 Afonso, Bairro da Cascalheira", "website": "https://www.aldi.pt/tools/lojas-e-horarios-de-funcionamento/setubal/pinhal-novo/rua-jose-afonso-bairro-da-cascalheira.html", "brand": "ALDI", "brand:wikidata": "Q41171373", "nsi_id": "aldi-b5be76"}},
{"type": "Feature", "id": "1GoeV03Nl02z6BalyWnjsI9g4hM=", "properties": {"ref": "https://www.aldi.pt/tools/lojas-e-horarios-de-funcionamento/setubal/baixa-da-banheira/rua-augusto-gil.html", "@spider": "aldi_nord_pt", "shop": "supermarket", "addr:street_address": "Rua Augusto Gil", "addr:city": "Baixa da Banheira", "addr:postcode": "2835-067", "addr:country": "PT", "name": "ALDI Baixa da Banheira - Rua Augusto Gil", "website": "https://www.aldi.pt/tools/lojas-e-horarios-de-funcionamento/setubal/baixa-da-banheira/rua-augusto-gil.html", "brand": "ALDI", "brand:wikidata": "Q41171373", "nsi_id": "aldi-b5be76"}},
{"type": "Feature", "id": "LZ3wPq-40aCNDecRGIKg_wgPseM=", "properties": {"ref": "https://www.aldi.pt/tools/lojas-e-horarios-de-funcionamento/viana-do-castelo/vila-praia-de-ancora/rua-antonio-pedro-63.html", "@spider": "aldi_nord_pt", "shop": "supermarket", "addr:street_address": "Rua Ant\u00f3nio Pedro 63", "addr:city": "Vila Praia de \u00c2ncora", "addr:postcode": "4910-392", "addr:country": "PT", "name": "ALDI Vila Praia de \u00c2ncora - Rua Ant\u00f3nio Pedro", "website": "https://www.aldi.pt/tools/lojas-e-horarios-de-funcionamento/viana-do-castelo/vila-praia-de-ancora/rua-antonio-pedro-63.html", "brand": "ALDI", "brand:wikidata": "Q41171373", "nsi_id": "aldi-b5be76"}},
{"type": "Feature", "id": "whrkAxXFIXJFwtFXEU-MMsrB8ww=", "properties": {"ref": "PT001073", "@spider": "aldi_nord_pt", "shop": "supermarket", "addr:street_address": "E.N. N\u00ba 2 - Av. Aureliano Barrigas 100", "addr:city": "Vila Real", "addr:postcode": "5000-513", "addr:country": "PT", "name": "ALDI Vila Real - E.N. N\u00ba 2 - Av. Aureliano Barrigas", "website": "https://www.aldi.pt/tools/lojas-e-horarios-de-funcionamento/vila-real/vila-real/e-n-n-2-av-aureliano-barrigas-100.html", "brand": "ALDI", "brand:wikidata": "Q41171373", "nsi_id": "aldi-b5be76"}},
{"type": "Feature", "id": "ZkRonEVAEhbyO505sYmc5mU-Zv0=", "properties": {"ref": "PT001015", "@spider": "aldi_nord_pt", "shop": "supermarket", "addr:street_address": "Rua do Povo Unido", "addr:city": "Moita", "addr:postcode": "2860-707", "addr:country": "PT", "name": "ALDI Moita - Rua do Povo Unido", "website": "https://www.aldi.pt/tools/lojas-e-horarios-de-funcionamento/setubal/moita/rua-do-povo-unido.html", "brand": "ALDI", "brand:wikidata": "Q41171373", "nsi_id": "aldi-b5be76"}},
{"type": "Feature", "id": "pHR5Xd9W-wk73ScrHOfb0p7e-Pc=", "properties": {"ref": "PT001031", "@spider": "aldi_nord_pt", "shop": "supermarket", "addr:street_address": "Rua 1 de Dezembro 1640, Casal do Marco 475", "addr:city": "Aldeia de Paio Pires", "addr:postcode": "2840-126", "addr:country": "PT", "name": "ALDI Aldeia de Paio Pires - Rua 1 de Dezembro 1640, Casal do Marco", "website": "https://www.aldi.pt/tools/lojas-e-horarios-de-funcionamento/setubal/aldeia-de-paio-pires/rua-1-de-dezembro-1640-casal-do-marco-475.html", "brand": "ALDI", "brand:wikidata": "Q41171373", "nsi_id": "aldi-b5be76"}},
{"type": "Feature", "id": "QT3xXLgwKvCPxIWFQCPZj5Pur7c=", "properties": {"ref": "PT001040", "@spider": "aldi_nord_pt", "shop": "supermarket", "addr:street_address": "Rua Bento Gon\u00e7alves, Santa Marta de Corroios", "addr:city": "Corroios", "addr:postcode": "2855-574", "addr:country": "PT", "name": "ALDI Corroios - Rua Bento Gon\u00e7alves, Santa Marta de Corroios", "website": "https://www.aldi.pt/tools/lojas-e-horarios-de-funcionamento/setubal/corroios/rua-bento-goncalves-santa-marta-de-corroios.html", "brand": "ALDI", "brand:wikidata": "Q41171373", "nsi_id": "aldi-b5be76"}},
{"type": "Feature", "id": "8_oQEdpurFypkIqEFDQtqQFyVpQ=", "properties": {"ref": "https://www.aldi.pt/tools/lojas-e-horarios-de-funcionamento/setubal/almada/alameda-guerra-junqueiro-laranjeiro.html", "@spider": "aldi_nord_pt", "shop": "supermarket", "addr:street_address": "Alameda Guerra Junqueiro, Laranjeiro", "addr:city": "Almada", "addr:postcode": "2814-583", "addr:country": "PT", "name": "ALDI Almada - Alameda Guerra Junqueiro, Laranjeiro", "website": "https://www.aldi.pt/tools/lojas-e-horarios-de-funcionamento/setubal/almada/alameda-guerra-junqueiro-laranjeiro.html", "brand": "ALDI", "brand:wikidata": "Q41171373", "nsi_id": "aldi-b5be76"}},
{"type": "Feature", "id": "zB6SGVYvO-SHSE58DC-zQaRztFo=", "properties": {"ref": "https://www.aldi.pt/tools/lojas-e-horarios-de-funcionamento/setubal/alcochete/avenida-sociedade-imparcial-15-de-janeiro-de-1898-112.html", "@spider": "aldi_nord_pt", "shop": "supermarket", "addr:street_address": "Avenida Sociedade Imparcial 15 de janeiro de 1898 112", "addr:city": "Alcochete", "addr:postcode": "2890-512", "addr:country": "PT", "name": "ALDI Alcochete - Avenida Sociedade Imparcial 15 de janeiro de 1898", "website": "https://www.aldi.pt/tools/lojas-e-horarios-de-funcionamento/setubal/alcochete/avenida-sociedade-imparcial-15-de-janeiro-de-1898-112.html", "brand": "ALDI", "brand:wikidata": "Q41171373", "nsi_id": "aldi-b5be76"}},
{"type": "Feature", "id": "21hdv6oB4ppO3G7b37fuvfqoOhA=", "properties": {"ref": "PT001023", "@spider": "aldi_nord_pt", "shop": "supermarket", "addr:street_address": "Rua Janu\u00e1rio dos Santos Gon\u00e7alves", "addr:city": "Set\u00fabal", "addr:postcode": "2910-706", "addr:country": "PT", "name": "ALDI Set\u00fabal - Rua Janu\u00e1rio dos Santos Gon\u00e7alves", "website": "https://www.aldi.pt/tools/lojas-e-horarios-de-funcionamento/setubal/setubal/rua-januario-dos-santos-goncalves.html", "brand": "ALDI", "brand:wikidata": "Q41171373", "nsi_id": "aldi-b5be76"}},
{"type": "Feature", "id": "uztyT9oDO-pCFVrA4suV08GlVZE=", "properties": {"ref": "PT001059", "@spider": "aldi_nord_pt", "shop": "supermarket", "addr:street_address": "Avenida do Bocage 1", "addr:city": "Barreiro", "addr:postcode": "2830-095", "addr:country": "PT", "name": "ALDI Barreiro - Avenida do Bocage", "website": "https://www.aldi.pt/tools/lojas-e-horarios-de-funcionamento/setubal/barreiro/avenida-do-bocage-1.html", "brand": "ALDI", "brand:wikidata": "Q41171373", "nsi_id": "aldi-b5be76"}},
{"type": "Feature", "id": "3kKobuh2b7nXdJmRN-saijW8Jkw=", "properties": {"ref": "PT001042", "@spider": "aldi_nord_pt", "shop": "supermarket", "addr:street_address": "Rua Jorge de Castilho, Santana", "addr:city": "Sesimbra", "addr:postcode": "2970-857", "addr:country": "PT", "name": "ALDI Sesimbra - Rua Jorge de Castilho, Santana", "website": "https://www.aldi.pt/tools/lojas-e-horarios-de-funcionamento/setubal/sesimbra/rua-jorge-de-castilho-santana.html", "brand": "ALDI", "brand:wikidata": "Q41171373", "nsi_id": "aldi-b5be76"}},
{"type": "Feature", "id": "ej97YDjKAXxAntjzzKhzBijyDWs=", "properties": {"ref": "PT001036", "@spider": "aldi_nord_pt", "shop": "supermarket", "addr:street_address": "Estrada da Algazarra, Quinta do Gato Bravo", "addr:city": "Feij\u00f3 - Almada", "addr:postcode": "2810-012", "addr:country": "PT", "name": "ALDI Feij\u00f3 - Almada - Estrada da Algazarra, Quinta do Gato Bravo", "website": "https://www.aldi.pt/tools/lojas-e-horarios-de-funcionamento/setubal/feijo-almada/estrada-da-algazarra-quinta-do-gato-bravo.html", "brand": "ALDI", "brand:wikidata": "Q41171373", "nsi_id": "aldi-b5be76"}},
{"type": "Feature", "id": "Mnvz_sjD6G8TPHerLjeTqmZWzGw=", "properties": {"ref": "PT001060", "@spider": "aldi_nord_pt", "shop": "supermarket", "addr:street_address": "Volta da Pedra, E.N. 379, Km 35 400", "addr:city": "Palmela", "addr:postcode": "2950-313", "addr:country": "PT", "name": "ALDI Palmela - Volta da Pedra, E.N. 379, Km 35 400", "website": "https://www.aldi.pt/tools/lojas-e-horarios-de-funcionamento/setubal/palmela/volta-da-pedra-e-n-379-km-35-400.html", "brand": "ALDI", "brand:wikidata": "Q41171373", "nsi_id": "aldi-b5be76"}},
{"type": "Feature", "id": "-wMFE4p1J0qMpMcJsaQuAxfVFLU=", "properties": {"ref": "PT001058", "@spider": "aldi_nord_pt", "shop": "supermarket", "addr:street_address": "Rua Almeida Garrett 30", "addr:city": "Amora - Seixal", "addr:postcode": "2845-358", "addr:country": "PT", "name": "ALDI Amora - Seixal - Rua Almeida Garrett", "website": "https://www.aldi.pt/tools/lojas-e-horarios-de-funcionamento/setubal/amora-seixal/rua-almeida-garrett-30.html", "brand": "ALDI", "brand:wikidata": "Q41171373", "nsi_id": "aldi-b5be76"}},
{"type": "Feature", "id": "bNU_m6z_pAu3Pa0UQQqphA9-Orc=", "properties": {"ref": "PT001017", "@spider": "aldi_nord_pt", "shop": "supermarket", "addr:street_address": "Avenida 8 de Julho, Beira Rio, 1", "addr:city": "Torres Novas", "addr:postcode": "2350-724", "addr:country": "PT", "name": "ALDI Torres Novas - Avenida 8 de Julho, Beira Rio,", "website": "https://www.aldi.pt/tools/lojas-e-horarios-de-funcionamento/santarem/torres-novas/avenida-8-de-julho-beira-rio-1.html", "brand": "ALDI", "brand:wikidata": "Q41171373", "nsi_id": "aldi-b5be76"}},
{"type": "Feature", "id": "eCD5W-ajMZaIP5AFDOeF21fnv-M=", "properties": {"ref": "PT001012", "@spider": "aldi_nord_pt", "shop": "supermarket", "addr:street_address": "Rua Padre Cruz", "addr:city": "Porto Alto", "addr:postcode": "2135-079", "addr:country": "PT", "name": "ALDI Porto Alto - Rua Padre Cruz", "website": "https://www.aldi.pt/tools/lojas-e-horarios-de-funcionamento/santarem/porto-alto/rua-padre-cruz.html", "brand": "ALDI", "brand:wikidata": "Q41171373", "nsi_id": "aldi-b5be76"}},
{"type": "Feature", "id": "qKOdEHQR7G-igTx1w-QW5aPSKYo=", "properties": {"ref": "https://www.aldi.pt/tools/lojas-e-horarios-de-funcionamento/santarem/entroncamento/rua-bartolomeu-de-gusmao-3.html", "@spider": "aldi_nord_pt", "shop": "supermarket", "addr:street_address": "Rua Bartolomeu de Gusm\u00e3o 3", "addr:city": "Entroncamento", "addr:postcode": "2330-027", "addr:country": "PT", "name": "ALDI Entroncamento - Rua Bartolomeu de Gusm\u00e3o", "website": "https://www.aldi.pt/tools/lojas-e-horarios-de-funcionamento/santarem/entroncamento/rua-bartolomeu-de-gusmao-3.html", "brand": "ALDI", "brand:wikidata": "Q41171373", "nsi_id": "aldi-b5be76"}},
{"type": "Feature", "id": "pw3mbqMGhYii3NhUewWDsEtSueQ=", "properties": {"ref": "https://www.aldi.pt/tools/lojas-e-horarios-de-funcionamento/santarem/ourem/rua-dos-alamos-55.html", "@spider": "aldi_nord_pt", "shop": "supermarket", "addr:street_address": "Rua dos \u00c1lamos 55", "addr:city": "Our\u00e9m", "addr:postcode": "2490-543", "addr:country": "PT", "name": "ALDI Our\u00e9m - Rua dos \u00c1lamos", "website": "https://www.aldi.pt/tools/lojas-e-horarios-de-funcionamento/santarem/ourem/rua-dos-alamos-55.html", "brand": "ALDI", "brand:wikidata": "Q41171373", "nsi_id": "aldi-b5be76"}},
{"type": "Feature", "id": "asXRTLdzdC7HjssBQRsf8qd3BEE=", "properties": {"ref": "https://www.aldi.pt/tools/lojas-e-horarios-de-funcionamento/porto/valbom-gondomar/rua-engenheiro-mario-giesta-30.html", "@spider": "aldi_nord_pt", "shop": "supermarket", "addr:street_address": "Rua Engenheiro M\u00e1rio Giesta 30", "addr:city": "Valbom - Gondomar", "addr:postcode": "4420-435", "addr:country": "PT", "name": "ALDI Valbom - Gondomar - Rua Engenheiro M\u00e1rio Giesta", "website": "https://www.aldi.pt/tools/lojas-e-horarios-de-funcionamento/porto/valbom-gondomar/rua-engenheiro-mario-giesta-30.html", "brand": "ALDI", "brand:wikidata": "Q41171373", "nsi_id": "aldi-b5be76"}},
{"type": "Feature", "id": "Ucda6ggDuu4bxjFfQafTuokspDo=", "properties": {"ref": "PT001063", "@spider": "aldi_nord_pt", "shop": "supermarket", "addr:street_address": "Avenida Beato Nuno 108", "addr:city": "F\u00e1tima", "addr:postcode": "2495-456", "addr:country": "PT", "name": "ALDI F\u00e1tima - Avenida Beato Nuno", "website": "https://www.aldi.pt/tools/lojas-e-horarios-de-funcionamento/santarem/fatima/avenida-beato-nuno-108.html", "brand": "ALDI", "brand:wikidata": "Q41171373", "nsi_id": "aldi-b5be76"}},
{"type": "Feature", "id": "U60StU1j_f_e0C8vC8JVhiZEj4M=", "properties": {"ref": "https://www.aldi.pt/tools/lojas-e-horarios-de-funcionamento/porto/leca-da-palmeira/rua-dom-marcos-da-cruz-50.html", "@spider": "aldi_nord_pt", "shop": "supermarket", "addr:street_address": "Rua Dom Marcos da Cruz 50", "addr:city": "Le\u00e7a da Palmeira", "addr:postcode": "4450-626", "addr:country": "PT", "name": "ALDI Le\u00e7a da Palmeira - Rua Dom Marcos da Cruz", "website": "https://www.aldi.pt/tools/lojas-e-horarios-de-funcionamento/porto/leca-da-palmeira/rua-dom-marcos-da-cruz-50.html", "brand": "ALDI", "brand:wikidata": "Q41171373", "nsi_id": "aldi-b5be76"}},
{"type": "Feature", "id": "zQPZF1hqQ6FgOck5OULZEZ1B47Y=", "properties": {"ref": "PT001056", "@spider": "aldi_nord_pt", "shop": "supermarket", "addr:street_address": "Avenida das Descobertas 13", "addr:city": "Infantado Loures", "addr:postcode": "2670-383", "addr:country": "PT", "name": "ALDI Infantado Loures - Avenida das Descobertas", "website": "https://www.aldi.pt/tools/lojas-e-horarios-de-funcionamento/lisboa/infantado-loures/avenida-das-descobertas-13.html", "brand": "ALDI", "brand:wikidata": "Q41171373", "nsi_id": "aldi-b5be76"}},
{"type": "Feature", "id": "rQchdTDASoxuyuhC8un4BdToj_4=", "properties": {"ref": "PT001037", "@spider": "aldi_nord_pt", "shop": "supermarket", "addr:street_address": "Avenida Barranco de Cegos 12", "addr:city": "Vila Franca de Xira", "addr:postcode": "2600-214", "addr:country": "PT", "name": "ALDI Vila Franca de Xira - Avenida Barranco de Cegos", "website": "https://www.aldi.pt/tools/lojas-e-horarios-de-funcionamento/lisboa/vila-franca-de-xira/avenida-barranco-de-cegos-12.html", "brand": "ALDI", "brand:wikidata": "Q41171373", "nsi_id": "aldi-b5be76"}},
{"type": "Feature", "id": "GDMAFA8DFe5TNmk_a34bnFgERik=", "properties": {"ref": "PT001029", "@spider": "aldi_nord_pt", "shop": "supermarket", "addr:street_address": "Estrada Nacional 116 78", "addr:city": "Ericeira", "addr:postcode": "2655-454", "addr:country": "PT", "name": "ALDI Ericeira - Estrada Nacional 116", "website": "https://www.aldi.pt/tools/lojas-e-horarios-de-funcionamento/lisboa/ericeira/estrada-nacional-116-78.html", "brand": "ALDI", "brand:wikidata": "Q41171373", "nsi_id": "aldi-b5be76"}},
{"type": "Feature", "id": "6YjyLi2ZSsmhY-6dGAzfqebXvoo=", "properties": {"ref": "PT001066", "@spider": "aldi_nord_pt", "shop": "supermarket", "addr:street_address": "Estrada de Mafra 79", "addr:city": "Sintra", "addr:postcode": "2710-142", "addr:country": "PT", "name": "ALDI Sintra - Estrada de Mafra", "website": "https://www.aldi.pt/tools/lojas-e-horarios-de-funcionamento/lisboa/sintra/estrada-de-mafra-79.html", "brand": "ALDI", "brand:wikidata": "Q41171373", "nsi_id": "aldi-b5be76"}},
{"type": "Feature", "id": "hADBAynW1gsSgcSXm8vBp3j2BH4=", "properties": {"ref": "PT001020", "@spider": "aldi_nord_pt", "shop": "supermarket", "addr:street_address": "Casal de Alpilh\u00e3o, Avenida Poente", "addr:city": "Torres Vedras", "addr:postcode": "2560-261", "addr:country": "PT", "name": "ALDI Torres Vedras - Casal de Alpilh\u00e3o, Avenida Poente", "website": "https://www.aldi.pt/tools/lojas-e-horarios-de-funcionamento/lisboa/torres-vedras/casal-de-alpilhao-avenida-poente.html", "brand": "ALDI", "brand:wikidata": "Q41171373", "nsi_id": "aldi-b5be76"}},
{"type": "Feature", "id": "XK1hRRXrU6gBmYnbqK-A4cvo_Rg=", "properties": {"ref": "PT001047", "@spider": "aldi_nord_pt", "shop": "supermarket", "addr:street_address": "Casal de Arrebanquia de Cima, Azinhaga das Fainhas, EN 10", "addr:city": "Alverca do Ribatejo", "addr:postcode": "2615-277", "addr:country": "PT", "name": "ALDI Alverca do Ribatejo - Casal de Arrebanquia de Cima, Azinhaga das Fainhas, EN 10", "website": "https://www.aldi.pt/tools/lojas-e-horarios-de-funcionamento/lisboa/alverca-do-ribatejo/casal-de-arrebanquia-de-cima-azinhaga-das-fainhas-en-10.html", "brand": "ALDI", "brand:wikidata": "Q41171373", "nsi_id": "aldi-b5be76"}},
{"type": "Feature", "id": "J2NqfolIbTvIBWdKnD0A11gl7yo=", "properties": {"ref": "PT001034", "@spider": "aldi_nord_pt", "shop": "supermarket", "addr:street_address": "Rua Almirante Gago Coutinho 102", "addr:city": "Loures - Flamenga", "addr:postcode": "2660-038", "addr:country": "PT", "name": "ALDI Loures - Flamenga - Rua Almirante Gago Coutinho", "website": "https://www.aldi.pt/tools/lojas-e-horarios-de-funcionamento/lisboa/loures-flamenga/rua-almirante-gago-coutinho-102.html", "brand": "ALDI", "brand:wikidata": "Q41171373", "nsi_id": "aldi-b5be76"}},
{"type": "Feature", "id": "NsZ6UwwQDkM_OUXAz8LyGkDLgfs=", "properties": {"ref": "PT001064", "@spider": "aldi_nord_pt", "shop": "supermarket", "addr:street_address": "Avenida \u00c1lvaro Cunhal 1, 1E", "addr:city": "Amadora", "addr:postcode": "2650-024", "addr:country": "PT", "name": "ALDI Amadora - Avenida \u00c1lvaro Cunhal", "website": "https://www.aldi.pt/tools/lojas-e-horarios-de-funcionamento/lisboa/amadora/avenida-alvaro-cunhal-1-1e.html", "brand": "ALDI", "brand:wikidata": "Q41171373", "nsi_id": "aldi-b5be76"}},
{"type": "Feature", "id": "kSOIRcpNnhEeHzGypTLQjIETfFA=", "properties": {"ref": "PT001025", "@spider": "aldi_nord_pt", "shop": "supermarket", "addr:street_address": "Avenida da Quinta Grande Lote 9, Alfragide", "addr:city": "Amadora-Alfragide", "addr:postcode": "2610-153", "addr:country": "PT", "name": "ALDI Amadora-Alfragide - Avenida da Quinta Grande", "website": "https://www.aldi.pt/tools/lojas-e-horarios-de-funcionamento/lisboa/amadora-alfragide/avenida-da-quinta-grande-lote-9-alfragide.html", "brand": "ALDI", "brand:wikidata": "Q41171373", "nsi_id": "aldi-b5be76"}},
{"type": "Feature", "id": "72IhwUoC4ToSmQub8VpnbGZE1-c=", "properties": {"ref": "PT001035", "@spider": "aldi_nord_pt", "shop": "supermarket", "addr:street_address": "Avenida Infante Dom Henrique", "addr:city": "Agualva-Cac\u00e9m", "addr:postcode": "2735-115", "addr:country": "PT", "name": "ALDI Agualva-Cac\u00e9m - Avenida Infante Dom Henrique", "website": "https://www.aldi.pt/tools/lojas-e-horarios-de-funcionamento/lisboa/agualva-cacem/avenida-infante-dom-henrique.html", "brand": "ALDI", "brand:wikidata": "Q41171373", "nsi_id": "aldi-b5be76"}},
{"type": "Feature", "id": "UnJTjAssHlMfbHiUHEKyETuOyEM=", "properties": {"ref": "PT001026", "@spider": "aldi_nord_pt", "shop": "supermarket", "addr:street_address": "Rua Quinta do Alconchel, Carregado", "addr:city": "Alenquer", "addr:postcode": "2580-491", "addr:country": "PT", "name": "ALDI Alenquer - Rua Quinta do Alconchel, Carregado", "website": "https://www.aldi.pt/tools/lojas-e-horarios-de-funcionamento/lisboa/alenquer/rua-quinta-do-alconchel-carregado.html", "brand": "ALDI", "brand:wikidata": "Q41171373", "nsi_id": "aldi-b5be76"}},
{"type": "Feature", "id": "28f6Hir3brtu4tPpoTRWiQn5r6M=", "properties": {"ref": "PT001043", "@spider": "aldi_nord_pt", "shop": "supermarket", "addr:street_address": "Av. D. Vicente Afonso Valente, Quinta da Piedade 26 A-B-C", "addr:city": "P\u00f3voa de Santa Iria", "addr:postcode": "2625-214", "addr:country": "PT", "name": "ALDI P\u00f3voa de Santa Iria - Av. D. Vicente Afonso Valente, Quinta da Piedade", "website": "https://www.aldi.pt/tools/lojas-e-horarios-de-funcionamento/lisboa/povoa-de-santa-iria/av-d-vicente-afonso-valente-quinta-da-piedade-26-a-b-c.html", "brand": "ALDI", "brand:wikidata": "Q41171373", "nsi_id": "aldi-b5be76"}},
{"type": "Feature", "id": "vDOJLzoxZfsXg4rbxwxy6l9gHkI=", "properties": {"ref": "PT001038", "@spider": "aldi_nord_pt", "shop": "supermarket", "addr:street_address": "Alameda da Fonte Velha, Quinta da Beloura 45", "addr:city": "S\u00e3o Pedro de Penaferrim - Sintra", "addr:postcode": "2710-694", "addr:country": "PT", "name": "ALDI S\u00e3o Pedro de Penaferrim - Sintra - Alameda da Fonte Velha, Quinta da Beloura", "website": "https://www.aldi.pt/tools/lojas-e-horarios-de-funcionamento/lisboa/sao-pedro-de-penaferrim-sintra/alameda-da-fonte-velha-quinta-da-beloura-45.html", "brand": "ALDI", "brand:wikidata": "Q41171373", "nsi_id": "aldi-b5be76"}},
{"type": "Feature", "id": "51XvcPi09k2t1SHN6L0sLGbOmww=", "properties": {"ref": "PT001071", "@spider": "aldi_nord_pt", "shop": "supermarket", "addr:street_address": "Av. Jos\u00e9 R\u00e9gio 11", "addr:city": "Massam\u00e1 Sintra", "addr:postcode": "2745-807", "addr:country": "PT", "name": "ALDI Massam\u00e1 Sintra - Av. Jos\u00e9 R\u00e9gio", "website": "https://www.aldi.pt/tools/lojas-e-horarios-de-funcionamento/lisboa/massama-sintra/av-jose-regio-11.html", "brand": "ALDI", "brand:wikidata": "Q41171373", "nsi_id": "aldi-b5be76"}},
{"type": "Feature", "id": "YezEXo67AaTbVqxqvqDAZVVx_NI=", "properties": {"ref": "https://www.aldi.pt/tools/lojas-e-horarios-de-funcionamento/porto/sao-cosme-gondomar/avenida-25-de-abril-222.html", "@spider": "aldi_nord_pt", "shop": "supermarket", "addr:street_address": "Avenida 25 de Abril 222", "addr:city": "S\u00e3o Cosme - Gondomar", "addr:postcode": "4420-356", "addr:country": "PT", "name": "ALDI S\u00e3o Cosme - Gondomar - Avenida 25 de Abril", "website": "https://www.aldi.pt/tools/lojas-e-horarios-de-funcionamento/porto/sao-cosme-gondomar/avenida-25-de-abril-222.html", "brand": "ALDI", "brand:wikidata": "Q41171373", "nsi_id": "aldi-b5be76"}}]}