{"type":"FeatureCollection","features":[{"type": "Feature", "id": "H6FOCqvBa6XYq-WdPo9h7rE3ZvA=", "properties": {"ref": "PL001011", "@spider": "aldi_nord_pl", "shop": "supermarket", "addr:street_address": "ul. Jeleniog\u00f3rska 6-8", "addr:city": "Kamienna G\u00f3ra", "addr:postcode": "58-400", "addr:country": "PL", "name": "ALDI Kamienna G\u00f3ra - ul. Jeleniog\u00f3rska", "website": "https://www.aldi.pl/informacje-dla-klienta/wyszukiwarka-sklepu/dolnoslaskie/kamienna-gora/ul-jeleniogorska-6-8.html", "brand": "ALDI", "brand:wikidata": "Q41171373", "nsi_id": "aldi-b5be76"}},
{"type": "Feature", "id": "qnMUw1x_r1C-805hcZw7PDIx19A=", "properties": {"ref": "PL001162", "@spider": "aldi_nord_pl", "shop": "supermarket", "addr:street_address": "ul. Legion\u00f3w Polskich 38B", "addr:city": "D\u0105browa G\u00f3rnicza", "addr:postcode": "41-300", "addr:country": "PL", "name": "ALDI D\u0105browa G\u00f3rnicza - ul. Legion\u00f3w Polskich", "website": "https://www.aldi.pl/informacje-dla-klienta/wyszukiwarka-sklepu/slaskie/dabrowa-gornicza/ul-legionow-polskich-38b.html", "brand": "ALDI", "brand:wikidata": "Q41171373", "nsi_id": "aldi-b5be76"}},
{"type": "Feature", "id": "lkam3mSESuOiXUIqvTYEfZgyuBs=", "properties": {"ref": "PL001071", "@spider": "aldi_nord_pl", "shop": "supermarket", "addr:street_address": "Ul. 1 Maja 49", "addr:city": "Knur\u00f3w", "addr:postcode": "44-190", "addr:country": "PL", "name": "ALDI Knur\u00f3w - Ul. 1 Maja", "website": "https://www.aldi.pl/informacje-dla-klienta/wyszukiwarka-sklepu/slaskie/knurow/ul-1-maja-49.html", "brand": "ALDI", "brand:wikidata": "Q41171373", "nsi_id": "aldi-b5be76"}},
{"type": "Feature", "id": "g1cw6O2pOPs70BCdeGeORS-XPMw=", "properties": {"ref": "PL001063", "@spider": "aldi_nord_pl", "shop": "supermarket", "addr:street_address": "ul. Nowomiejska 2", "addr:city": "Racib\u00f3rz", "addr:postcode": "47-403", "addr:country": "PL", "name": "ALDI Racib\u00f3rz - ul. Nowomiejska", "website": "https://www.aldi.pl/informacje-dla-klienta/wyszukiwarka-sklepu/slaskie/raciborz/ul-nowomiejska-2.html", "brand": "ALDI", "brand:wikidata": "Q41171373", "nsi_id": "aldi-b5be76"}},
{"type": "Feature", "id": "mxmPZzli57hsgWj2Y5IiswVa0cU=", "properties": {"ref": "PL001096", "@spider": "aldi_nord_pl", "shop": "supermarket", "addr:street_address": "ul. \u017bywiecka 80", "addr:city": "Bielsko-Bia\u0142a", "addr:postcode": "43-300", "addr:country": "PL", "name": "ALDI Bielsko-Bia\u0142a - ul. \u017bywiecka", "website": "https://www.aldi.pl/informacje-dla-klienta/wyszukiwarka-sklepu/slaskie/bielsko-biala/ul-zywiecka-80.html", "brand": "ALDI", "brand:wikidata": "Q41171373", "nsi_id": "aldi-b5be76"}},
{"type": "Feature", "id": "eeeSx6T7fG2Il3d_nkXkJSxy6sY=", "properties": {"ref": "PL001061", "@spider": "aldi_nord_pl", "shop": "supermarket", "addr:street_address": "ul. Trzech Diament\u00f3w 1", "addr:city": "Bielsko-Bia\u0142a", "addr:postcode": "43-382", "addr:country": "PL", "name": "ALDI Bielsko-Bia\u0142a - ul. Trzech Diament\u00f3w", "website": "https://www.aldi.pl/informacje-dla-klienta/wyszukiwarka-sklepu/slaskie/bielsko-biala/ul-trzech-diamentow-1.html", "brand": "ALDI", "brand:wikidata": "Q41171373", "nsi_id": "aldi-b5be76"}},
{"type": "Feature", "id": "-IkflUBQWlJK-tx8mhz3l0FiYRI=", "properties": {"ref": "PL001007", "@spider": "aldi_nord_pl", "shop": "supermarket", "addr:street_address": "ul. Cieszy\u0144ska 111", "addr:city": "Bielsko-Bia\u0142a", "addr:postcode": "43-300", "addr:country": "PL", "name": "ALDI Bielsko-Bia\u0142a - ul. Cieszy\u0144ska", "website": "https://www.aldi.pl/informacje-dla-klienta/wyszukiwarka-sklepu/slaskie/bielsko-biala/ul-cieszynska-111.html", "brand": "ALDI", "brand:wikidata": "Q41171373", "nsi_id": "aldi-b5be76"}},
{"type": "Feature", "id": "99mIHN89fTgncmhUH0Nqqe-6TbQ=", "properties": {"ref": "PL001057", "@spider": "aldi_nord_pl", "shop": "supermarket", "addr:street_address": "Al. Hugo Ko\u0142\u0142\u0105taja 110", "addr:city": "B\u0119dzin", "addr:postcode": "42-500", "addr:country": "PL", "name": "ALDI B\u0119dzin - Al. Hugo Ko\u0142\u0142\u0105taja", "website": "https://www.aldi.pl/informacje-dla-klienta/wyszukiwarka-sklepu/slaskie/bedzin/al-hugo-kollataja-110.html", "brand": "ALDI", "brand:wikidata": "Q41171373", "nsi_id": "aldi-b5be76"}},
{"type": "Feature", "id": "l7dJj2VNI7NIy8tJC2BSMGcQ9jI=", "properties": {"ref": "PL001047", "@spider": "aldi_nord_pl", "shop": "supermarket", "addr:street_address": "ul. Lisowicka 21", "addr:city": "Lubliniec", "addr:postcode": "42-700", "addr:country": "PL", "name": "ALDI Lubliniec - ul. Lisowicka", "website": "https://www.aldi.pl/informacje-dla-klienta/wyszukiwarka-sklepu/slaskie/lubliniec/ul-lisowicka-21.html", "brand": "ALDI", "brand:wikidata": "Q41171373", "nsi_id": "aldi-b5be76"}},
{"type": "Feature", "id": "cGh8oofEnJ3ivltVYXqvjlcq9Pc=", "properties": {"ref": "PL001134", "@spider": "aldi_nord_pl", "shop": "supermarket", "addr:street_address": "ul. Armii Krajowej 1 g", "addr:city": "Jaworzno", "addr:postcode": "43-603", "addr:country": "PL", "name": "ALDI Jaworzno - ul. Armii Krajowej 1", "website": "https://www.aldi.pl/informacje-dla-klienta/wyszukiwarka-sklepu/slaskie/jaworzno/ul-armii-krajowej-1-g.html", "brand": "ALDI", "brand:wikidata": "Q41171373", "nsi_id": "aldi-b5be76"}},
{"type": "Feature", "id": "hnwkFtmFbSs9tZpt35mWyChil9o=", "properties": {"ref": "PL001069", "@spider": "aldi_nord_pl", "shop": "supermarket", "addr:street_address": "ul. Kotucza 3", "addr:city": "Rybnik", "addr:postcode": "44-200", "addr:country": "PL", "name": "ALDI Rybnik - ul. Kotucza", "website": "https://www.aldi.pl/informacje-dla-klienta/wyszukiwarka-sklepu/slaskie/rybnik/ul-kotucza-3.html", "brand": "ALDI", "brand:wikidata": "Q41171373", "nsi_id": "aldi-b5be76"}},
{"type": "Feature", "id": "yM7HFihyeyaSgnqwtcVKRACOk8Q=", "properties": {"ref": "PL001032", "@spider": "aldi_nord_pl", "shop": "supermarket", "addr:street_address": "ul. Matejki 29", "addr:city": "Jaworzno", "addr:postcode": "43-603", "addr:country": "PL", "name": "ALDI Jaworzno - ul. Matejki", "website": "https://www.aldi.pl/informacje-dla-klienta/wyszukiwarka-sklepu/slaskie/jaworzno/ul-matejki-29.html", "brand": "ALDI", "brand:wikidata": "Q41171373", "nsi_id": "aldi-b5be76"}},
{"type": "Feature", "id": "r3_uAx7CsRI6CnbdO9D5XKRWrHc=", "properties": {"ref": "PL001137", "@spider": "aldi_nord_pl", "shop": "supermarket", "addr:street_address": "ul. Zebrzydowicka 67", "addr:city": "Rybnik", "addr:postcode": "44-210", "addr:country": "PL", "name": "ALDI Rybnik - ul. Zebrzydowicka", "website": "https://www.aldi.pl/informacje-dla-klienta/wyszukiwarka-sklepu/slaskie/rybnik/ul-zebrzydowicka-67.html", "brand": "ALDI", "brand:wikidata": "Q41171373", "nsi_id": "aldi-b5be76"}},
{"type": "Feature", "id": "d3MaGZMRKQzDCIXEYL3giIjvDKc=", "properties": {"ref": "PL001023", "@spider": "aldi_nord_pl", "shop": "supermarket", "addr:street_address": "ul. 1 Maja 106", "addr:city": "Rybnik", "addr:postcode": "44-206", "addr:country": "PL", "name": "ALDI Rybnik - ul. 1 Maja", "website": "https://www.aldi.pl/informacje-dla-klienta/wyszukiwarka-sklepu/slaskie/rybnik/ul-1-maja-106.html", "brand": "ALDI", "brand:wikidata": "Q41171373", "nsi_id": "aldi-b5be76"}},
{"type": "Feature", "id": "4b9y-OCWCCBtPNP45IvbKYOXMhk=", "properties": {"ref": "https://www.aldi.pl/informacje-dla-klienta/wyszukiwarka-sklepu/lodzkie/rzgow/ul-rzemieslnicza-35.html", "@spider": "aldi_nord_pl", "shop": "supermarket", "addr:street_address": "ul. Rzemie\u015blnicza 35", "addr:city": "Rzg\u00f3w", "addr:postcode": "95-030", "addr:country": "PL", "name": "ALDI Rzg\u00f3w - ul. Rzemie\u015blnicza", "website": "https://www.aldi.pl/informacje-dla-klienta/wyszukiwarka-sklepu/lodzkie/rzgow/ul-rzemieslnicza-35.html", "brand": "ALDI", "brand:wikidata": "Q41171373", "nsi_id": "aldi-b5be76"}},
{"type": "Feature", "id": "acVIUa9-1vAz3BJyELNZfCZbJM8=", "properties": {"ref": "PL001140", "@spider": "aldi_nord_pl", "shop": "supermarket", "addr:street_address": "ul. Grota Roweckiego 24", "addr:city": "Pabianice", "addr:postcode": "95-200", "addr:country": "PL", "name": "ALDI Pabianice - ul. Grota Roweckiego", "website": "https://www.aldi.pl/informacje-dla-klienta/wyszukiwarka-sklepu/lodzkie/pabianice/ul-grota-roweckiego-24.html", "brand": "ALDI", "brand:wikidata": "Q41171373", "nsi_id": "aldi-b5be76"}},
{"type": "Feature", "id": "AhQVa48oNgV0ZgzZs3jaXES7W6s=", "properties": {"ref": "PL001082", "@spider": "aldi_nord_pl", "shop": "supermarket", "addr:street_address": "1 Maja 31", "addr:city": "Katowice", "addr:postcode": "40-225", "addr:country": "PL", "name": "ALDI Katowice - 1 Maja", "website": "https://www.aldi.pl/informacje-dla-klienta/wyszukiwarka-sklepu/slaskie/katowice/1-maja-31.html", "brand": "ALDI", "brand:wikidata": "Q41171373", "nsi_id": "aldi-b5be76"}},
{"type": "Feature", "id": "w9AShsMqX5QE9lQjSMz2ANMZetQ=", "properties": {"ref": "PL001103", "@spider": "aldi_nord_pl", "shop": "supermarket", "addr:street_address": "ul. Piotra Skargi 6", "addr:city": "Katowice", "addr:postcode": "40-091", "addr:country": "PL", "name": "ALDI Katowice - ul. Piotra Skargi", "website": "https://www.aldi.pl/informacje-dla-klienta/wyszukiwarka-sklepu/slaskie/katowice/ul-piotra-skargi-6.html", "brand": "ALDI", "brand:wikidata": "Q41171373", "nsi_id": "aldi-b5be76"}},
{"type": "Feature", "id": "kQ9Kv6B5bLExoXy6scwcYWMN3So=", "properties": {"ref": "PL001153", "@spider": "aldi_nord_pl", "shop": "supermarket", "addr:street_address": "ul. Katowicka 30", "addr:city": "Katowice", "addr:postcode": "40-173", "addr:country": "PL", "name": "ALDI Katowice - ul. Katowicka", "website": "https://www.aldi.pl/informacje-dla-klienta/wyszukiwarka-sklepu/slaskie/katowice/ul-katowicka-30.html", "brand": "ALDI", "brand:wikidata": "Q41171373", "nsi_id": "aldi-b5be76"}},
{"type": "Feature", "id": "24AuW06LDrH4Lo2-6o-nbNq1AL0=", "properties": {"ref": "PL001045", "@spider": "aldi_nord_pl", "shop": "supermarket", "addr:street_address": "ul. U\u0142a\u0144ska 6", "addr:city": "Katowice", "addr:postcode": "40-887", "addr:country": "PL", "name": "ALDI Katowice - ul. U\u0142a\u0144ska", "website": "https://www.aldi.pl/informacje-dla-klienta/wyszukiwarka-sklepu/slaskie/katowice/ul-ulanska-6.html", "brand": "ALDI", "brand:wikidata": "Q41171373", "nsi_id": "aldi-b5be76"}},
{"type": "Feature", "id": "55ETl8AzBtUKtugXFmkXSjByv_k=", "properties": {"ref": "PL001141", "@spider": "aldi_nord_pl", "shop": "supermarket", "addr:street_address": "ul. Piotrowicka 77", "addr:city": "Katowice", "addr:postcode": "40-724", "addr:country": "PL", "name": "ALDI Katowice - ul. Piotrowicka", "website": "https://www.aldi.pl/informacje-dla-klienta/wyszukiwarka-sklepu/slaskie/katowice/ul-piotrowicka-77.html", "brand": "ALDI", "brand:wikidata": "Q41171373", "nsi_id": "aldi-b5be76"}},
{"type": "Feature", "id": "A9szCjrc8jqv6n0fgA-fyWR8fdI=", "properties": {"ref": "PL001062", "@spider": "aldi_nord_pl", "shop": "supermarket", "addr:street_address": "ul. Wo\u017aniczki 15a", "addr:city": "Katowice", "addr:postcode": "40-555", "addr:country": "PL", "name": "ALDI Katowice - ul. Wo\u017aniczki", "website": "https://www.aldi.pl/informacje-dla-klienta/wyszukiwarka-sklepu/slaskie/katowice/ul-wozniczki-15a.html", "brand": "ALDI", "brand:wikidata": "Q41171373", "nsi_id": "aldi-b5be76"}},
{"type": "Feature", "id": "uQpox9qBnZK_MSntTyaMROqKlEI=", "properties": {"ref": "PL001100", "@spider": "aldi_nord_pl", "shop": "supermarket", "addr:street_address": "ul. Bo\u017cogrobc\u00f3w 20", "addr:city": "Katowice", "addr:postcode": "40-115", "addr:country": "PL", "name": "ALDI Katowice - ul. Bo\u017cogrobc\u00f3w", "website": "https://www.aldi.pl/informacje-dla-klienta/wyszukiwarka-sklepu/slaskie/katowice/ul-bozogrobcow-20.html", "brand": "ALDI", "brand:wikidata": "Q41171373", "nsi_id": "aldi-b5be76"}},
{"type": "Feature", "id": "wO7rkb_OelSPCfWWJxJv8UikZyM=", "properties": {"ref": "PL001073", "@spider": "aldi_nord_pl", "shop": "supermarket", "addr:street_address": "ul. Broniewskiego 1", "addr:city": "Pszczyna", "addr:postcode": "43-200", "addr:country": "PL", "name": "ALDI Pszczyna - ul. Broniewskiego", "website": "https://www.aldi.pl/informacje-dla-klienta/wyszukiwarka-sklepu/slaskie/pszczyna/ul-broniewskiego-1.html", "brand": "ALDI", "brand:wikidata": "Q41171373", "nsi_id": "aldi-b5be76"}},
{"type": "Feature", "id": "5DsEp-wxfTpgezuWTz43e_5oZNY=", "properties": {"ref": "PL001180", "@spider": "aldi_nord_pl", "shop": "supermarket", "addr:street_address": "ul. Wielicka 8", "addr:city": "Gliwice", "addr:postcode": "44-103", "addr:country": "PL", "name": "ALDI Gliwice - ul. Wielicka", "website": "https://www.aldi.pl/informacje-dla-klienta/wyszukiwarka-sklepu/slaskie/gliwice/ul-wielicka-8.html", "brand": "ALDI", "brand:wikidata": "Q41171373", "nsi_id": "aldi-b5be76"}},
{"type": "Feature", "id": "xKP2ZKcJGTEvG_ClH3irDJOZIKQ=", "properties": {"ref": "PL001113", "@spider": "aldi_nord_pl", "shop": "supermarket", "addr:street_address": "ul. Toszecka 49", "addr:city": "Gliwice", "addr:postcode": "44-102", "addr:country": "PL", "name": "ALDI Gliwice - ul. Toszecka", "website": "https://www.aldi.pl/informacje-dla-klienta/wyszukiwarka-sklepu/slaskie/gliwice/ul-toszecka-49.html", "brand": "ALDI", "brand:wikidata": "Q41171373", "nsi_id": "aldi-b5be76"}},
{"type": "Feature", "id": "pdPBaaOJZArxklx5WgspV732GhE=", "properties": {"ref": "PL001118", "@spider": "aldi_nord_pl", "shop": "supermarket", "addr:street_address": "ul. Ks. Marcina Strzody 1", "addr:city": "Gliwice", "addr:postcode": "44-100", "addr:country": "PL", "name": "ALDI Gliwice - ul. Ks. Marcina Strzody", "website": "https://www.aldi.pl/informacje-dla-klienta/wyszukiwarka-sklepu/slaskie/gliwice/ul-ks-marcina-strzody-1.html", "brand": "ALDI", "brand:wikidata": "Q41171373", "nsi_id": "aldi-b5be76"}},
{"type": "Feature", "id": "slxBC-alief_4H0n7Hafj0pPCtI=", "properties": {"ref": "PL001050", "@spider": "aldi_nord_pl", "shop": "supermarket", "addr:street_address": "ul. Ptasia 20", "addr:city": "Sosnowiec", "addr:postcode": "41-200", "addr:country": "PL", "name": "ALDI Sosnowiec - ul. Ptasia", "website": "https://www.aldi.pl/informacje-dla-klienta/wyszukiwarka-sklepu/slaskie/sosnowiec/ul-ptasia-20.html", "brand": "ALDI", "brand:wikidata": "Q41171373", "nsi_id": "aldi-b5be76"}},
{"type": "Feature", "id": "kjN1GfUu1oZJQjEF2D8fbgirzUs=", "properties": {"ref": "PL001078", "@spider": "aldi_nord_pl", "shop": "supermarket", "addr:street_address": "ul. Wojska Polskiego 27a", "addr:city": "Sosnowiec", "addr:postcode": "41-208", "addr:country": "PL", "name": "ALDI Sosnowiec - ul. Wojska Polskiego", "website": "https://www.aldi.pl/informacje-dla-klienta/wyszukiwarka-sklepu/slaskie/sosnowiec/ul-wojska-polskiego-27a.html", "brand": "ALDI", "brand:wikidata": "Q41171373", "nsi_id": "aldi-b5be76"}},
{"type": "Feature", "id": "WTHKze_GjL8qgp-WNbw_KL5YRZk=", "properties": {"ref": "PL001066", "@spider": "aldi_nord_pl", "shop": "supermarket", "addr:street_address": "ul. Narutowicza 5", "addr:city": "Sosnowiec", "addr:postcode": "41-200", "addr:country": "PL", "name": "ALDI Sosnowiec - ul. Narutowicza", "website": "https://www.aldi.pl/informacje-dla-klienta/wyszukiwarka-sklepu/slaskie/sosnowiec/ul-narutowicza-5.html", "brand": "ALDI", "brand:wikidata": "Q41171373", "nsi_id": "aldi-b5be76"}},
{"type": "Feature", "id": "6EGw8V_PbgChh6KqaiQyekYcat4=", "properties": {"ref": "PL001105", "@spider": "aldi_nord_pl", "shop": "supermarket", "addr:street_address": "ul. Gda\u0144ska 25", "addr:city": "Zabrze", "addr:postcode": "41-800", "addr:country": "PL", "name": "ALDI Zabrze - ul. Gda\u0144ska", "website": "https://www.aldi.pl/informacje-dla-klienta/wyszukiwarka-sklepu/slaskie/zabrze/ul-gdanska-25.html", "brand": "ALDI", "brand:wikidata": "Q41171373", "nsi_id": "aldi-b5be76"}},
{"type": "Feature", "id": "9b4vw-TBkeLF7dX6XPpcUQ9SKdg=", "properties": {"ref": "PL001072", "@spider": "aldi_nord_pl", "shop": "supermarket", "addr:street_address": "Ul. Miarki 2", "addr:city": "Zabrze", "addr:postcode": "41-800", "addr:country": "PL", "name": "ALDI Zabrze - Ul. Miarki", "website": "https://www.aldi.pl/informacje-dla-klienta/wyszukiwarka-sklepu/slaskie/zabrze/ul-miarki-2.html", "brand": "ALDI", "brand:wikidata": "Q41171373", "nsi_id": "aldi-b5be76"}},
{"type": "Feature", "id": "RepyXm_cGKMqgQq1q5D2Qj9Zljk=", "properties": {"ref": "PL001070", "@spider": "aldi_nord_pl", "shop": "supermarket", "addr:street_address": "Ul. Wolno\u015bci 500", "addr:city": "Zabrze", "addr:postcode": "41-800", "addr:country": "PL", "name": "ALDI Zabrze - Ul. Wolno\u015bci", "website": "https://www.aldi.pl/informacje-dla-klienta/wyszukiwarka-sklepu/slaskie/zabrze/ul-wolnosci-500.html", "brand": "ALDI", "brand:wikidata": "Q41171373", "nsi_id": "aldi-b5be76"}},
{"type": "Feature", "id": "fO8exkdo5mjitS1I6exv9nf1IvQ=", "properties": {"ref": "PL001166", "@spider": "aldi_nord_pl", "shop": "supermarket", "addr:street_address": "ulica Sandomierska 16B", "addr:city": "Nisko", "addr:postcode": "37-400", "addr:country": "PL", "name": "ALDI Nisko - ulica Sandomierska", "website": "https://www.aldi.pl/informacje-dla-klienta/wyszukiwarka-sklepu/podkarpackie/nisko/ulica-sandomierska-16b.html", "brand": "ALDI", "brand:wikidata": "Q41171373", "nsi_id": "aldi-b5be76"}},
{"type": "Feature", "id": "kAs9ryVDvyqefx6C1fmQRzdP9tg=", "properties": {"ref": "PL001035", "@spider": "aldi_nord_pl", "shop": "supermarket", "addr:street_address": "ul. Ks. Koziolka 44", "addr:city": "Krapkowice", "addr:postcode": "47-303", "addr:country": "PL", "name": "ALDI Krapkowice - ul. Ks. Koziolka", "website": "https://www.aldi.pl/informacje-dla-klienta/wyszukiwarka-sklepu/opolskie/krapkowice/ul-ks-koziolka-44.html", "brand": "ALDI", "brand:wikidata": "Q41171373", "nsi_id": "aldi-b5be76"}},
{"type": "Feature", "id": "lyjN4GMGO9cIq5i46n3pZv4Nnkg=", "properties": {"ref": "PL001042", "@spider": "aldi_nord_pl", "shop": "supermarket", "addr:street_address": "ul. K.Ujejskiego 1", "addr:city": "Nysa", "addr:postcode": "48-300", "addr:country": "PL", "name": "ALDI Nysa - ul. K.Ujejskiego", "website": "https://www.aldi.pl/informacje-dla-klienta/wyszukiwarka-sklepu/opolskie/nysa/ul-k-ujejskiego-1.html", "brand": "ALDI", "brand:wikidata": "Q41171373", "nsi_id": "aldi-b5be76"}},
{"type": "Feature", "id": "BmCRIuWpGoC1NZBEl8deA51WWgo=", "properties": {"ref": "PL001108", "@spider": "aldi_nord_pl", "shop": "supermarket", "addr:street_address": "ul. Towarowa 1a", "addr:city": "Nysa", "addr:postcode": "48-303", "addr:country": "PL", "name": "ALDI Nysa - ul. Towarowa 1a", "website": "https://www.aldi.pl/informacje-dla-klienta/wyszukiwarka-sklepu/opolskie/nysa/ul-towarowa-1a.html", "brand": "ALDI", "brand:wikidata": "Q41171373", "nsi_id": "aldi-b5be76"}},
{"type": "Feature", "id": "jkwEwAGoaEHeFI2eRDmn0EAZzsU=", "properties": {"ref": "PL001077", "@spider": "aldi_nord_pl", "shop": "supermarket", "addr:street_address": "ul.Ozimska 70", "addr:city": "Opole", "addr:postcode": "45-310", "addr:country": "PL", "name": "ALDI Opole - ul.Ozimska", "website": "https://www.aldi.pl/informacje-dla-klienta/wyszukiwarka-sklepu/opolskie/opole/ul-ozimska-70.html", "brand": "ALDI", "brand:wikidata": "Q41171373", "nsi_id": "aldi-b5be76"}},
{"type": "Feature", "id": "46cMRJPj9gZJOW3EQHGUnfmCfH8=", "properties": {"ref": "PL001053", "@spider": "aldi_nord_pl", "shop": "supermarket", "addr:street_address": "ul. Gazowa 5", "addr:city": "K\u0119dzierzyn Ko\u017ale", "addr:postcode": "47-200", "addr:country": "PL", "name": "ALDI K\u0119dzierzyn Ko\u017ale - ul. Gazowa", "website": "https://www.aldi.pl/informacje-dla-klienta/wyszukiwarka-sklepu/opolskie/kedzierzyn-kozle/ul-gazowa-5.html", "brand": "ALDI", "brand:wikidata": "Q41171373", "nsi_id": "aldi-b5be76"}},
{"type": "Feature", "id": "W3j-u5dmXzpsEMGY6PA86M9hsC8=", "properties": {"ref": "https://www.aldi.pl/informacje-dla-klienta/wyszukiwarka-sklepu/malopolskie/nowy-sacz/ul-nawojowska-1.html", "@spider": "aldi_nord_pl", "shop": "supermarket", "addr:street_address": "ul. Nawojowska 1", "addr:city": "Nowy S\u0105cz", "addr:postcode": "33-300", "addr:country": "PL", "name": "ALDI Nowy S\u0105cz - ul. Nawojowska", "website": "https://www.aldi.pl/informacje-dla-klienta/wyszukiwarka-sklepu/malopolskie/nowy-sacz/ul-nawojowska-1.html", "brand": "ALDI", "brand:wikidata": "Q41171373", "nsi_id": "aldi-b5be76"}},
{"type": "Feature", "id": "-TDJTQTf5G1vY3QJ4ERb90KdRLc=", "properties": {"ref": "PL001026", "@spider": "aldi_nord_pl", "shop": "supermarket", "addr:street_address": "Al. 1000-lecia 12 a", "addr:city": "Olkusz", "addr:postcode": "32-300", "addr:country": "PL", "name": "ALDI Olkusz - Al. 1000-lecia", "website": "https://www.aldi.pl/informacje-dla-klienta/wyszukiwarka-sklepu/malopolskie/olkusz/al-1000-lecia-12-a.html", "brand": "ALDI", "brand:wikidata": "Q41171373", "nsi_id": "aldi-b5be76"}},
{"type": "Feature", "id": "L1_s-VQTSViiufO-H2B9mI8YffU=", "properties": {"ref": "PL001152", "@spider": "aldi_nord_pl", "shop": "supermarket", "addr:street_address": "ul. Radzikowskiego 5", "addr:city": "Krak\u00f3w", "addr:postcode": "31-305", "addr:country": "PL", "name": "ALDI Krak\u00f3w - ul. Radzikowskiego", "website": "https://www.aldi.pl/informacje-dla-klienta/wyszukiwarka-sklepu/malopolskie/krakow/ul-radzikowskiego-5.html", "brand": "ALDI", "brand:wikidata": "Q41171373", "nsi_id": "aldi-b5be76"}},
{"type": "Feature", "id": "JEuDsN2PEWB5i08mw5qf_og5iWI=", "properties": {"ref": "PL001043", "@spider": "aldi_nord_pl", "shop": "supermarket", "addr:street_address": "ul. D\u0105browskiej 25", "addr:city": "Krak\u00f3w", "addr:postcode": "31-851", "addr:country": "PL", "name": "ALDI Krak\u00f3w - ul. D\u0105browskiej", "website": "https://www.aldi.pl/informacje-dla-klienta/wyszukiwarka-sklepu/malopolskie/krakow/ul-dabrowskiej-25.html", "brand": "ALDI", "brand:wikidata": "Q41171373", "nsi_id": "aldi-b5be76"}},
{"type": "Feature", "id": "JplSKblSfTzI8ILIGf-g6UKiYgA=", "properties": {"ref": "PL001125", "@spider": "aldi_nord_pl", "shop": "supermarket", "addr:street_address": "os. Bohater\u00f3w Wrze\u015bnia 1K", "addr:city": "Krak\u00f3w", "addr:postcode": "31-620", "addr:country": "PL", "name": "ALDI Krak\u00f3w - os. Bohater\u00f3w Wrze\u015bnia", "website": "https://www.aldi.pl/informacje-dla-klienta/wyszukiwarka-sklepu/malopolskie/krakow/os-bohaterow-wrzesnia-1k.html", "brand": "ALDI", "brand:wikidata": "Q41171373", "nsi_id": "aldi-b5be76"}},
{"type": "Feature", "id": "N0u499YhmuHdhEw3S02l-iXMS88=", "properties": {"ref": "PL001120", "@spider": "aldi_nord_pl", "shop": "supermarket", "addr:street_address": "Os. Na Lotnisku 2", "addr:city": "Krak\u00f3w", "addr:postcode": "31-801", "addr:country": "PL", "name": "ALDI Krak\u00f3w - Os. Na Lotnisku", "website": "https://www.aldi.pl/informacje-dla-klienta/wyszukiwarka-sklepu/malopolskie/krakow/os-na-lotnisku-2.html", "brand": "ALDI", "brand:wikidata": "Q41171373", "nsi_id": "aldi-b5be76"}},
{"type": "Feature", "id": "6CqwReSWENeH27cm3sb2u1v3GwM=", "properties": {"ref": "PL001111", "@spider": "aldi_nord_pl", "shop": "supermarket", "addr:street_address": "ul. Sielska 4", "addr:city": "Krak\u00f3w", "addr:postcode": "34-121", "addr:country": "PL", "name": "ALDI Krak\u00f3w - ul. Sielska", "website": "https://www.aldi.pl/informacje-dla-klienta/wyszukiwarka-sklepu/malopolskie/krakow/ul-sielska-4.html", "brand": "ALDI", "brand:wikidata": "Q41171373", "nsi_id": "aldi-b5be76"}},
{"type": "Feature", "id": "f1AR6rWbCR2wvd81xhB1S-zY_s4=", "properties": {"ref": "PL001055", "@spider": "aldi_nord_pl", "shop": "supermarket", "addr:street_address": "ul. Krakowska 136a", "addr:city": "Andrych\u00f3w", "addr:postcode": "34-120", "addr:country": "PL", "name": "ALDI Andrych\u00f3w - ul. Krakowska", "website": "https://www.aldi.pl/informacje-dla-klienta/wyszukiwarka-sklepu/malopolskie/andrychow/ul-krakowska-136a.html", "brand": "ALDI", "brand:wikidata": "Q41171373", "nsi_id": "aldi-b5be76"}},
{"type": "Feature", "id": "OuU3L_WghCB91trw1Ht8iEpixj0=", "properties": {"ref": "PL001151", "@spider": "aldi_nord_pl", "shop": "supermarket", "addr:street_address": "al. Solidarno\u015bci 23", "addr:city": "Kielce", "addr:postcode": "25-323", "addr:country": "PL", "name": "ALDI Kielce - al. Solidarno\u015bci", "website": "https://www.aldi.pl/informacje-dla-klienta/wyszukiwarka-sklepu/swietokrzyskie/kielce/al-solidarnosci-23.html", "brand": "ALDI", "brand:wikidata": "Q41171373", "nsi_id": "aldi-b5be76"}},
{"type": "Feature", "id": "S5wtZkfm97ddYAHIvfV4nZ7fkzU=", "properties": {"ref": "PL001010", "@spider": "aldi_nord_pl", "shop": "supermarket", "addr:street_address": "ul. Popie\u0142uszki 10", "addr:city": "Skar\u017cysko-Kamienna", "addr:postcode": "26-110", "addr:country": "PL", "name": "ALDI Skar\u017cysko-Kamienna - ul. Popie\u0142uszki", "website": "https://www.aldi.pl/informacje-dla-klienta/wyszukiwarka-sklepu/swietokrzyskie/skarzysko-kamienna/ul-popieluszki-10.html", "brand": "ALDI", "brand:wikidata": "Q41171373", "nsi_id": "aldi-b5be76"}},
{"type": "Feature", "id": "PJ3fmDbbVYiLIWHC2KUoZHwc9PE=", "properties": {"ref": "PL001065", "@spider": "aldi_nord_pl", "shop": "supermarket", "addr:street_address": "ul. D\u0105browskiego 110", "addr:city": "Chorz\u00f3w", "addr:postcode": "41-500", "addr:country": "PL", "name": "ALDI Chorz\u00f3w - ul. D\u0105browskiego", "website": "https://www.aldi.pl/informacje-dla-klienta/wyszukiwarka-sklepu/slaskie/chorzow/ul-dabrowskiego-110.html", "brand": "ALDI", "brand:wikidata": "Q41171373", "nsi_id": "aldi-b5be76"}},
{"type": "Feature", "id": "RG7kRZf9Ck3xx2VNcZLZMtZ-nRk=", "properties": {"ref": "PL001117", "@spider": "aldi_nord_pl", "shop": "supermarket", "addr:street_address": "ul. Stefana Batorego 56", "addr:city": "Chorz\u00f3w", "addr:postcode": "41-506", "addr:country": "PL", "name": "ALDI Chorz\u00f3w - ul. Stefana Batorego", "website": "https://www.aldi.pl/informacje-dla-klienta/wyszukiwarka-sklepu/slaskie/chorzow/ul-stefana-batorego-56.html", "brand": "ALDI", "brand:wikidata": "Q41171373", "nsi_id": "aldi-b5be76"}},
{"type": "Feature", "id": "J7gcFvx_cEGDrVMIayDYRySofKY=", "properties": {"ref": "PL001014", "@spider": "aldi_nord_pl", "shop": "supermarket", "addr:street_address": "ul. Kapicy 7", "addr:city": "Siemianowice \u015al\u0105skie", "addr:postcode": "41-100", "addr:country": "PL", "name": "ALDI Siemianowice \u015al\u0105skie - ul. Kapicy", "website": "https://www.aldi.pl/informacje-dla-klienta/wyszukiwarka-sklepu/slaskie/siemianowice-slaskie/ul-kapicy-7.html", "brand": "ALDI", "brand:wikidata": "Q41171373", "nsi_id": "aldi-b5be76"}},
{"type": "Feature", "id": "n3P2-XxeaAzAN05gAFKO7M1zZEw=", "properties": {"ref": "PL001135", "@spider": "aldi_nord_pl", "shop": "supermarket", "addr:street_address": "ul. Tadeusza Ko\u015bciuszki 3", "addr:city": "Chorz\u00f3w", "addr:postcode": "41-500", "addr:country": "PL", "name": "ALDI Chorz\u00f3w - ul. Tadeusza Ko\u015bciuszki", "website": "https://www.aldi.pl/informacje-dla-klienta/wyszukiwarka-sklepu/slaskie/chorzow/ul-tadeusza-kosciuszki-3.html", "brand": "ALDI", "brand:wikidata": "Q41171373", "nsi_id": "aldi-b5be76"}},
{"type": "Feature", "id": "wuFK885lU8_kY15SEpN6WRbV5d0=", "properties": {"ref": "PL001012", "@spider": "aldi_nord_pl", "shop": "supermarket", "addr:street_address": "ul. Katowicka 55", "addr:city": "Mys\u0142owice", "addr:postcode": "41-400", "addr:country": "PL", "name": "ALDI Mys\u0142owice - ul. Katowicka", "website": "https://www.aldi.pl/informacje-dla-klienta/wyszukiwarka-sklepu/slaskie/myslowice/ul-katowicka-55.html", "brand": "ALDI", "brand:wikidata": "Q41171373", "nsi_id": "aldi-b5be76"}},
{"type": "Feature", "id": "8Syx75Qrl6dnLlR4M1HJpLoo2uQ=", "properties": {"ref": "PL001119", "@spider": "aldi_nord_pl", "shop": "supermarket", "addr:street_address": "ul. Arki Bo\u017cka 1A", "addr:city": "Jastrz\u0119bie-Zdr\u00f3j", "addr:postcode": "44-335", "addr:country": "PL", "name": "ALDI Jastrz\u0119bie-Zdr\u00f3j - ul. Arki Bo\u017cka", "website": "https://www.aldi.pl/informacje-dla-klienta/wyszukiwarka-sklepu/slaskie/jastrzebie-zdroj/ul-arki-bozka-1a.html", "brand": "ALDI", "brand:wikidata": "Q41171373", "nsi_id": "aldi-b5be76"}},
{"type": "Feature", "id": "1qCgHF3t6QOtHBbV2qLdpF3k1cI=", "properties": {"ref": "PL001087", "@spider": "aldi_nord_pl", "shop": "supermarket", "addr:street_address": "ul. Wodzis\u0142awska 2a", "addr:city": "Jastrz\u0119bie-Zdr\u00f3j", "addr:postcode": "44-330", "addr:country": "PL", "name": "ALDI Jastrz\u0119bie-Zdr\u00f3j - ul. Wodzis\u0142awska", "website": "https://www.aldi.pl/informacje-dla-klienta/wyszukiwarka-sklepu/slaskie/jastrzebie-zdroj/ul-wodzislawska-2a.html", "brand": "ALDI", "brand:wikidata": "Q41171373", "nsi_id": "aldi-b5be76"}},
{"type": "Feature", "id": "UTjQBzj7aJi4NHKlvV6WphIkYa0=", "properties": {"ref": "PL001109", "@spider": "aldi_nord_pl", "shop": "supermarket", "addr:street_address": "ul.Sobieskiego 3", "addr:city": "Tarnowskie G\u00f3ry", "addr:postcode": "42-600", "addr:country": "PL", "name": "ALDI Tarnowskie G\u00f3ry - ul.Sobieskiego 3", "website": "https://www.aldi.pl/informacje-dla-klienta/wyszukiwarka-sklepu/slaskie/tarnowskie-gory/ul-sobieskiego-3.html", "brand": "ALDI", "brand:wikidata": "Q41171373", "nsi_id": "aldi-b5be76"}},
{"type": "Feature", "id": "EbW6wEU-0SKmv4Md-8ZLW1eA0Ms=", "properties": {"ref": "PL001048", "@spider": "aldi_nord_pl", "shop": "supermarket", "addr:street_address": "ul. Ks. Roczkowskiego 1", "addr:city": "Piekary \u015al\u0105skie", "addr:postcode": "41-904", "addr:country": "PL", "name": "ALDI Piekary \u015al\u0105skie - ul. Ks. Roczkowskiego", "website": "https://www.aldi.pl/informacje-dla-klienta/wyszukiwarka-sklepu/slaskie/piekary-slaskie/ul-ks-roczkowskiego-1.html", "brand": "ALDI", "brand:wikidata": "Q41171373", "nsi_id": "aldi-b5be76"}},
{"type": "Feature", "id": "gmeqjGvaP81ORR0P2SZGfjsCaLI=", "properties": {"ref": "https://www.aldi.pl/informacje-dla-klienta/wyszukiwarka-sklepu/slaskie/piekary-slaskie/ul-bytomska-60.html", "@spider": "aldi_nord_pl", "shop": "supermarket", "addr:street_address": "ul. Bytomska 60", "addr:city": "Piekary \u015al\u0105skie", "addr:postcode": "41-940", "addr:country": "PL", "name": "ALDI Piekary \u015al\u0105skie - ul. Bytomska", "website": "https://www.aldi.pl/informacje-dla-klienta/wyszukiwarka-sklepu/slaskie/piekary-slaskie/ul-bytomska-60.html", "brand": "ALDI", "brand:wikidata": "Q41171373", "nsi_id": "aldi-b5be76"}},
{"type": "Feature", "id": "dfOn3YfEm5IiiSnewabtEG64Fp4=", "properties": {"ref": "PL001089", "@spider": "aldi_nord_pl", "shop": "supermarket", "addr:street_address": "ul. Korczaka 11", "addr:city": "Cz\u0119stochowa", "addr:postcode": "42-219", "addr:country": "PL", "name": "ALDI Cz\u0119stochowa - ul. Korczaka", "website": "https://www.aldi.pl/informacje-dla-klienta/wyszukiwarka-sklepu/slaskie/czestochowa/ul-korczaka-11.html", "brand": "ALDI", "brand:wikidata": "Q41171373", "nsi_id": "aldi-b5be76"}},
{"type": "Feature", "id": "_zYfFYedMEDOBoOPL0VoZ7gIJGg=", "properties": {"ref": "PL001088", "@spider": "aldi_nord_pl", "shop": "supermarket", "addr:street_address": "ul. Botaniczna 37", "addr:city": "Cz\u0119stochowa", "addr:postcode": "42-216", "addr:country": "PL", "name": "ALDI Cz\u0119stochowa - ul. Botaniczna", "website": "https://www.aldi.pl/informacje-dla-klienta/wyszukiwarka-sklepu/slaskie/czestochowa/ul-botaniczna-37.html", "brand": "ALDI", "brand:wikidata": "Q41171373", "nsi_id": "aldi-b5be76"}},
{"type": "Feature", "id": "Y2_hCbOON8bm3IKfmJoTsWJc_IQ=", "properties": {"ref": "PL001110", "@spider": "aldi_nord_pl", "shop": "supermarket", "addr:street_address": "ul. Szajnowicza-Iwanowa 39", "addr:city": "Cz\u0119stochowa", "addr:postcode": "42-218", "addr:country": "PL", "name": "ALDI Cz\u0119stochowa - ul. Szajnowicza-Iwanowa", "website": "https://www.aldi.pl/informacje-dla-klienta/wyszukiwarka-sklepu/slaskie/czestochowa/ul-szajnowicza-iwanowa-39.html", "brand": "ALDI", "brand:wikidata": "Q41171373", "nsi_id": "aldi-b5be76"}},
{"type": "Feature", "id": "rbwqKfx6Lr9NaWg2q2-ZRc8kKvI=", "properties": {"ref": "PL001002", "@spider": "aldi_nord_pl", "shop": "supermarket", "addr:street_address": "ul. Centralna 1", "addr:city": "\u017bory", "addr:postcode": "44-240", "addr:country": "PL", "name": "ALDI \u017bory - ul. Centralna", "website": "https://www.aldi.pl/informacje-dla-klienta/wyszukiwarka-sklepu/slaskie/zory/ul-centralna-1.html", "brand": "ALDI", "brand:wikidata": "Q41171373", "nsi_id": "aldi-b5be76"}},
{"type": "Feature", "id": "CHLyoJnb5UOUOGt_T-3qh62qrEU=", "properties": {"ref": "PL001142", "@spider": "aldi_nord_pl", "shop": "supermarket", "addr:street_address": "ul. Korfantego 23", "addr:city": "Cieszyn", "addr:postcode": "43-400", "addr:country": "PL", "name": "ALDI Cieszyn - ul. Korfantego", "website": "https://www.aldi.pl/informacje-dla-klienta/wyszukiwarka-sklepu/slaskie/cieszyn/ul-korfantego-23.html", "brand": "ALDI", "brand:wikidata": "Q41171373", "nsi_id": "aldi-b5be76"}},
{"type": "Feature", "id": "jGskDjcgxduvmQQW-fm6ZT1J7Y8=", "properties": {"ref": "PL001085", "@spider": "aldi_nord_pl", "shop": "supermarket", "addr:street_address": "ul. Strzelc\u00f3w Bytomskich 299", "addr:city": "Bytom", "addr:postcode": "41-935", "addr:country": "PL", "name": "ALDI Bytom - ul. Strzelc\u00f3w Bytomskich", "website": "https://www.aldi.pl/informacje-dla-klienta/wyszukiwarka-sklepu/slaskie/bytom/ul-strzelcow-bytomskich-299.html", "brand": "ALDI", "brand:wikidata": "Q41171373", "nsi_id": "aldi-b5be76"}},
{"type": "Feature", "id": "fi38my_FpQdtfaOf0dG5fFzZ7es=", "properties": {"ref": "PL001112", "@spider": "aldi_nord_pl", "shop": "supermarket", "addr:street_address": "ul. Wroc\u0142awska 10A", "addr:city": "Bytom", "addr:postcode": "41-902", "addr:country": "PL", "name": "ALDI Bytom - ul. Wroc\u0142awska", "website": "https://www.aldi.pl/informacje-dla-klienta/wyszukiwarka-sklepu/slaskie/bytom/ul-wroclawska-10a.html", "brand": "ALDI", "brand:wikidata": "Q41171373", "nsi_id": "aldi-b5be76"}},
{"type": "Feature", "id": "zb6_1n04wpqmNWUPI2T5ATcT0jc=", "properties": {"ref": "PL001083", "@spider": "aldi_nord_pl", "shop": "supermarket", "addr:street_address": "ul. Frenzla 97", "addr:city": "Bytom", "addr:postcode": "41-923", "addr:country": "PL", "name": "ALDI Bytom - ul. Frenzla", "website": "https://www.aldi.pl/informacje-dla-klienta/wyszukiwarka-sklepu/slaskie/bytom/ul-frenzla-97.html", "brand": "ALDI", "brand:wikidata": "Q41171373", "nsi_id": "aldi-b5be76"}},
{"type": "Feature", "id": "UpbnBJRzYwbjRsucd677r7HhZHM=", "properties": {"ref": "PL001098", "@spider": "aldi_nord_pl", "shop": "supermarket", "addr:street_address": "ul. Puszkina 4", "addr:city": "Bytom", "addr:postcode": "41-907", "addr:country": "PL", "name": "ALDI Bytom - ul. Puszkina", "website": "https://www.aldi.pl/informacje-dla-klienta/wyszukiwarka-sklepu/slaskie/bytom/ul-puszkina-4.html", "brand": "ALDI", "brand:wikidata": "Q41171373", "nsi_id": "aldi-b5be76"}},
{"type": "Feature", "id": "W1hQXwVNzO5SkPFXozb7wIdj5Ow=", "properties": {"ref": "PL001036", "@spider": "aldi_nord_pl", "shop": "supermarket", "addr:street_address": "ul. Armii Krajowej 8", "addr:city": "Czerwionka-Leszczyny", "addr:postcode": "44-230", "addr:country": "PL", "name": "ALDI Czerwionka-Leszczyny - ul. Armii Krajowej", "website": "https://www.aldi.pl/informacje-dla-klienta/wyszukiwarka-sklepu/slaskie/czerwionka-leszczyny/ul-armii-krajowej-8.html", "brand": "ALDI", "brand:wikidata": "Q41171373", "nsi_id": "aldi-b5be76"}},
{"type": "Feature", "id": "XWJ35ok3OlTfmV1UOc2VpVuxQpA=", "properties": {"ref": "PL001090", "@spider": "aldi_nord_pl", "shop": "supermarket", "addr:street_address": "ul. Ja\u015bkowicka 1", "addr:city": "Tychy", "addr:postcode": "43-100", "addr:country": "PL", "name": "ALDI Tychy - ul. Ja\u015bkowicka", "website": "https://www.aldi.pl/informacje-dla-klienta/wyszukiwarka-sklepu/slaskie/tychy/ul-jaskowicka-1.html", "brand": "ALDI", "brand:wikidata": "Q41171373", "nsi_id": "aldi-b5be76"}},
{"type": "Feature", "id": "dagwc5dud1K5M392-M50Its_nkA=", "properties": {"ref": "PL001084", "@spider": "aldi_nord_pl", "shop": "supermarket", "addr:street_address": "ul. Ofiar Terroru 27 a", "addr:city": "Rydu\u0142towy", "addr:postcode": "44-280", "addr:country": "PL", "name": "ALDI Rydu\u0142towy - ul. Ofiar Terroru", "website": "https://www.aldi.pl/informacje-dla-klienta/wyszukiwarka-sklepu/slaskie/rydultowy/ul-ofiar-terroru-27-a.html", "brand": "ALDI", "brand:wikidata": "Q41171373", "nsi_id": "aldi-b5be76"}},
{"type": "Feature", "id": "dc4xBnKKMo6mWcti2AEzfLUbuzE=", "properties": {"ref": "PL001013", "@spider": "aldi_nord_pl", "shop": "supermarket", "addr:street_address": "ul. Radli\u0144ska 37", "addr:city": "Wodzis\u0142aw \u015al\u0105ski", "addr:postcode": "44-286", "addr:country": "PL", "name": "ALDI Wodzis\u0142aw \u015al\u0105ski - ul. Radli\u0144ska", "website": "https://www.aldi.pl/informacje-dla-klienta/wyszukiwarka-sklepu/slaskie/wodzislaw-slaski/ul-radlinska-37.html", "brand": "ALDI", "brand:wikidata": "Q41171373", "nsi_id": "aldi-b5be76"}},
{"type": "Feature", "id": "89hYIK9zpDSKWdUQtH6dLxOHOCk=", "properties": {"ref": "PL001128", "@spider": "aldi_nord_pl", "shop": "supermarket", "addr:street_address": "ul. \u015bw. Antoniego 65/69", "addr:city": "Tomasz\u00f3w Mazowiecki", "addr:postcode": "97-200", "addr:country": "PL", "name": "ALDI Tomasz\u00f3w Mazowiecki - ul. \u015bw. Antoniego", "website": "https://www.aldi.pl/informacje-dla-klienta/wyszukiwarka-sklepu/lodzkie/tomaszow-mazowiecki/ul-sw-antoniego-65-69.html", "brand": "ALDI", "brand:wikidata": "Q41171373", "nsi_id": "aldi-b5be76"}},
{"type": "Feature", "id": "_FgDLhoo748jyQJQ0SVkvvk3Ex0=", "properties": {"ref": "https://www.aldi.pl/informacje-dla-klienta/wyszukiwarka-sklepu/lodzkie/belchatow/ul-pileckiego-6.html", "@spider": "aldi_nord_pl", "shop": "supermarket", "addr:street_address": "ul. Pileckiego 6", "addr:city": "Be\u0142chat\u00f3w", "addr:postcode": "97-400", "addr:country": "PL", "name": "ALDI Be\u0142chat\u00f3w - ul. Pileckiego", "website": "https://www.aldi.pl/informacje-dla-klienta/wyszukiwarka-sklepu/lodzkie/belchatow/ul-pileckiego-6.html", "brand": "ALDI", "brand:wikidata": "Q41171373", "nsi_id": "aldi-b5be76"}},
{"type": "Feature", "id": "Cz8wysxJmmPe8fcC3DmnVBVa7hg=", "properties": {"ref": "https://www.aldi.pl/informacje-dla-klienta/wyszukiwarka-sklepu/lodzkie/lowicz/ul-jana-pawla-ii-1-b.html", "@spider": "aldi_nord_pl", "shop": "supermarket", "addr:street_address": "ul. Jana Paw\u0142a II 1 B", "addr:city": "\u0141owicz", "addr:postcode": "99-400", "addr:country": "PL", "name": "ALDI \u0141owicz - ul. Jana Paw\u0142a II", "website": "https://www.aldi.pl/informacje-dla-klienta/wyszukiwarka-sklepu/lodzkie/lowicz/ul-jana-pawla-ii-1-b.html", "brand": "ALDI", "brand:wikidata": "Q41171373", "nsi_id": "aldi-b5be76"}},
{"type": "Feature", "id": "BYQ7jXUhCmglDREXahkXhazpI4Q=", "properties": {"ref": "https://www.aldi.pl/informacje-dla-klienta/wyszukiwarka-sklepu/lodzkie/sieradz/ul-jana-pawla-ii-59.html", "@spider": "aldi_nord_pl", "shop": "supermarket", "addr:street_address": "ul. Jana Paw\u0142a II 59", "addr:city": "Sieradz", "addr:postcode": "98-200", "addr:country": "PL", "name": "ALDI Sieradz - ul. Jana Paw\u0142a II", "website": "https://www.aldi.pl/informacje-dla-klienta/wyszukiwarka-sklepu/lodzkie/sieradz/ul-jana-pawla-ii-59.html", "brand": "ALDI", "brand:wikidata": "Q41171373", "nsi_id": "aldi-b5be76"}},
{"type": "Feature", "id": "JCqn47fdj71wu_baFr4PC5CMsPg=", "properties": {"ref": "PL001150", "@spider": "aldi_nord_pl", "shop": "supermarket", "addr:street_address": "ul. Zamenhofa 20A", "addr:city": "\u015arem", "addr:postcode": "63-100", "addr:country": "PL", "name": "ALDI \u015arem - ul. Zamenhofa", "website": "https://www.aldi.pl/informacje-dla-klienta/wyszukiwarka-sklepu/wielkopolskie/srem/ul-zamenhofa-20a.html", "brand": "ALDI", "brand:wikidata": "Q41171373", "nsi_id": "aldi-b5be76"}},
{"type": "Feature", "id": "IR9FxBbDe0NaRKoCpZ6JeE7w9vA=", "properties": {"ref": "https://www.aldi.pl/informacje-dla-klienta/wyszukiwarka-sklepu/wielkopolskie/wrzesnia/ulica-ignacego-daszynskiego-1-a.html", "@spider": "aldi_nord_pl", "shop": "supermarket", "addr:street_address": "ulica Ignacego Daszy\u0144skiego 1 A", "addr:city": "Wrze\u015bnia", "addr:postcode": "62-300", "addr:country": "PL", "name": "ALDI Wrze\u015bnia - ulica Ignacego Daszy\u0144skiego", "website": "https://www.aldi.pl/informacje-dla-klienta/wyszukiwarka-sklepu/wielkopolskie/wrzesnia/ulica-ignacego-daszynskiego-1-a.html", "brand": "ALDI", "brand:wikidata": "Q41171373", "nsi_id": "aldi-b5be76"}},
{"type": "Feature", "id": "hO-szQQmNz0LAoKE4OYg_nGJZoM=", "properties": {"ref": "PL001028", "@spider": "aldi_nord_pl", "shop": "supermarket", "addr:street_address": "ul. Kcy\u0144ska 20A", "addr:city": "W\u0105growiec", "addr:postcode": "62-100", "addr:country": "PL", "name": "ALDI W\u0105growiec - ul. Kcy\u0144ska", "website": "https://www.aldi.pl/informacje-dla-klienta/wyszukiwarka-sklepu/wielkopolskie/wagrowiec/ul-kcynska-20a.html", "brand": "ALDI", "brand:wikidata": "Q41171373", "nsi_id": "aldi-b5be76"}},
{"type": "Feature", "id": "emJU7E8gsnRODoClL1ZpFuKfOKw=", "properties": {"ref": "https://www.aldi.pl/informacje-dla-klienta/wyszukiwarka-sklepu/wielkopolskie/krotoszyn/ulica-kobylinska-1.html", "@spider": "aldi_nord_pl", "shop": "supermarket", "addr:street_address": "ulica Kobyli\u0144ska 1", "addr:city": "Krotoszyn", "addr:postcode": "63-700", "addr:country": "PL", "name": "ALDI Krotoszyn - ulica Kobyli\u0144ska", "website": "https://www.aldi.pl/informacje-dla-klienta/wyszukiwarka-sklepu/wielkopolskie/krotoszyn/ulica-kobylinska-1.html", "brand": "ALDI", "brand:wikidata": "Q41171373", "nsi_id": "aldi-b5be76"}},
{"type": "Feature", "id": "3y4RAuzfRlWQoYoLLPSrzEgHvFM=", "properties": {"ref": "001144", "@spider": "aldi_nord_pl", "shop": "supermarket", "addr:street_address": "ul. Grunwaldzka 1A", "addr:city": "Leszno", "addr:postcode": "64-100", "addr:country": "PL", "name": "ALDI Leszno - ul. Grunwaldzka", "website": "https://www.aldi.pl/informacje-dla-klienta/wyszukiwarka-sklepu/wielkopolskie/leszno/ul-grunwaldzka-1a.html", "brand": "ALDI", "brand:wikidata": "Q41171373", "nsi_id": "aldi-b5be76"}},
{"type": "Feature", "id": "GC6E5UfA_Q7Bji5yzhq8xHfxFUU=", "properties": {"ref": "PL001031", "@spider": "aldi_nord_pl", "shop": "supermarket", "addr:street_address": "ul. Wyspia\u0144skiego 29", "addr:city": "Pi\u0142a", "addr:postcode": "64-920", "addr:country": "PL", "name": "ALDI Pi\u0142a - ul. Wyspia\u0144skiego", "website": "https://www.aldi.pl/informacje-dla-klienta/wyszukiwarka-sklepu/wielkopolskie/pila/ul-wyspianskiego-29.html", "brand": "ALDI", "brand:wikidata": "Q41171373", "nsi_id": "aldi-b5be76"}},
{"type": "Feature", "id": "EYDffKBr1gSZOny6Krv2f3MaCKY=", "properties": {"ref": "PL001027", "@spider": "aldi_nord_pl", "shop": "supermarket", "addr:street_address": "ul. Wojska Polskiego 47", "addr:city": "Jarocin", "addr:postcode": "63-200", "addr:country": "PL", "name": "ALDI Jarocin - ul. Wojska Polskiego", "website": "https://www.aldi.pl/informacje-dla-klienta/wyszukiwarka-sklepu/wielkopolskie/jarocin/ul-wojska-polskiego-47.html", "brand": "ALDI", "brand:wikidata": "Q41171373", "nsi_id": "aldi-b5be76"}},
{"type": "Feature", "id": "lNhb8Z0CAM1KanTlYNDbIQG2DdI=", "properties": {"ref": "PL001074", "@spider": "aldi_nord_pl", "shop": "supermarket", "addr:street_address": "Al. Wojska Polskiego 176", "addr:city": "Kalisz", "addr:postcode": "62-800", "addr:country": "PL", "name": "ALDI Kalisz - Al. Wojska Polskiego", "website": "https://www.aldi.pl/informacje-dla-klienta/wyszukiwarka-sklepu/wielkopolskie/kalisz/al-wojska-polskiego-176.html", "brand": "ALDI", "brand:wikidata": "Q41171373", "nsi_id": "aldi-b5be76"}},
{"type": "Feature", "id": "OfHdKvDkgJF0neQYL30y0j22Azk=", "properties": {"ref": "https://www.aldi.pl/informacje-dla-klienta/wyszukiwarka-sklepu/wielkopolskie/kalisz/ul-podmiejska-24b.html", "@spider": "aldi_nord_pl", "shop": "supermarket", "addr:street_address": "ul. Podmiejska 24b", "addr:city": "Kalisz", "addr:postcode": "62-800", "addr:country": "PL", "name": "ALDI Kalisz - ul. Podmiejska", "website": "https://www.aldi.pl/informacje-dla-klienta/wyszukiwarka-sklepu/wielkopolskie/kalisz/ul-podmiejska-24b.html", "brand": "ALDI", "brand:wikidata": "Q41171373", "nsi_id": "aldi-b5be76"}},
{"type": "Feature", "id": "kmD1CZSAYX1jpkRQchsU15AjaUI=", "properties": {"ref": "PL001126", "@spider": "aldi_nord_pl", "shop": "supermarket", "addr:street_address": "ul. P\u00f3\u0142wiejska 2", "addr:city": "Pozna\u0144", "addr:postcode": "61-887", "addr:country": "PL", "name": "ALDI Pozna\u0144 - ul. P\u00f3\u0142wiejska", "website": "https://www.aldi.pl/informacje-dla-klienta/wyszukiwarka-sklepu/wielkopolskie/poznan/ul-polwiejska-2.html", "brand": "ALDI", "brand:wikidata": "Q41171373", "nsi_id": "aldi-b5be76"}},
{"type": "Feature", "id": "kKKV12u80E3jTV8No7PwZpnPvgk=", "properties": {"ref": "PL001127", "@spider": "aldi_nord_pl", "shop": "supermarket", "addr:street_address": "Wilczak 19", "addr:city": "Pozna\u0144", "addr:postcode": "61-623", "addr:country": "PL", "name": "ALDI Pozna\u0144 - Wilczak", "website": "https://www.aldi.pl/informacje-dla-klienta/wyszukiwarka-sklepu/wielkopolskie/poznan/wilczak-19.html", "brand": "ALDI", "brand:wikidata": "Q41171373", "nsi_id": "aldi-b5be76"}},
{"type": "Feature", "id": "pADF6NQut0D5WYz7FbvykqO4E1c=", "properties": {"ref": "https://www.aldi.pl/informacje-dla-klienta/wyszukiwarka-sklepu/wielkopolskie/poznan/28-czerwca-1956r-388.html", "@spider": "aldi_nord_pl", "shop": "supermarket", "addr:street_address": "28 Czerwca 1956r. 388", "addr:city": "Pozna\u0144", "addr:postcode": "61-567", "addr:country": "PL", "name": "ALDI Pozna\u0144 - 28 Czerwca 1956r.", "website": "https://www.aldi.pl/informacje-dla-klienta/wyszukiwarka-sklepu/wielkopolskie/poznan/28-czerwca-1956r-388.html", "brand": "ALDI", "brand:wikidata": "Q41171373", "nsi_id": "aldi-b5be76"}},
{"type": "Feature", "id": "HKexVzUNLSLDtOXPjTIP5nhNQk4=", "properties": {"ref": "PL001021", "@spider": "aldi_nord_pl", "shop": "supermarket", "addr:street_address": "ul. Bobrza\u0144ska 11", "addr:city": "Pozna\u0144", "addr:postcode": "61-350", "addr:country": "PL", "name": "ALDI Pozna\u0144 - ul. Bobrza\u0144ska", "website": "https://www.aldi.pl/informacje-dla-klienta/wyszukiwarka-sklepu/wielkopolskie/poznan/ul-bobrzanska-11.html", "brand": "ALDI", "brand:wikidata": "Q41171373", "nsi_id": "aldi-b5be76"}},
{"type": "Feature", "id": "M9qE3IYnu75_p8HAwor8GmEzO3s=", "properties": {"ref": "https://www.aldi.pl/informacje-dla-klienta/wyszukiwarka-sklepu/wielkopolskie/poznan/ul-glowna-12.html", "@spider": "aldi_nord_pl", "shop": "supermarket", "addr:street_address": "ul. G\u0142\u00f3wna 12", "addr:city": "Pozna\u0144", "addr:postcode": "61-005", "addr:country": "PL", "name": "ALDI Pozna\u0144 - ul. G\u0142\u00f3wna", "website": "https://www.aldi.pl/informacje-dla-klienta/wyszukiwarka-sklepu/wielkopolskie/poznan/ul-glowna-12.html", "brand": "ALDI", "brand:wikidata": "Q41171373", "nsi_id": "aldi-b5be76"}},
{"type": "Feature", "id": "-alaQirSRaC2Cs-R2_hwDbm-psg=", "properties": {"ref": "https://www.aldi.pl/informacje-dla-klienta/wyszukiwarka-sklepu/zachodniopomorskie/drawsko-pomorskie/plac-gdanski-3a.html", "@spider": "aldi_nord_pl", "shop": "supermarket", "addr:street_address": "plac Gda\u0144ski 3A", "addr:city": "Drawsko Pomorskie", "addr:postcode": "78-500", "addr:country": "PL", "name": "ALDI Drawsko Pomorskie - plac Gda\u0144ski", "website": "https://www.aldi.pl/informacje-dla-klienta/wyszukiwarka-sklepu/zachodniopomorskie/drawsko-pomorskie/plac-gdanski-3a.html", "brand": "ALDI", "brand:wikidata": "Q41171373", "nsi_id": "aldi-b5be76"}},
{"type": "Feature", "id": "d3Fg9qs8NmwNUdrBt-p3xtCHsHg=", "properties": {"ref": "https://www.aldi.pl/informacje-dla-klienta/wyszukiwarka-sklepu/zachodniopomorskie/szczecin/ulica-przyjaciol-zolnierza-128.html", "@spider": "aldi_nord_pl", "shop": "supermarket", "addr:street_address": "ulica Przyjaci\u00f3\u0142 \u017bo\u0142nierza 128", "addr:city": "Szczecin", "addr:postcode": "71-670", "addr:country": "PL", "name": "ALDI Szczecin - ulica Przyjaci\u00f3\u0142 \u017bo\u0142nierza", "website": "https://www.aldi.pl/informacje-dla-klienta/wyszukiwarka-sklepu/zachodniopomorskie/szczecin/ulica-przyjaciol-zolnierza-128.html", "brand": "ALDI", "brand:wikidata": "Q41171373", "nsi_id": "aldi-b5be76"}},
{"type": "Feature", "id": "0V1mXCKYgZv_caRi2Jb0020SaCw=", "properties": {"ref": "https://www.aldi.pl/informacje-dla-klienta/wyszukiwarka-sklepu/zachodniopomorskie/szczecin/ul-struga-31a.html", "@spider": "aldi_nord_pl", "shop": "supermarket", "addr:street_address": "ul. Struga 31A", "addr:city": "Szczecin", "addr:postcode": "70-784", "addr:country": "PL", "name": "ALDI Szczecin - ul. Struga", "website": "https://www.aldi.pl/informacje-dla-klienta/wyszukiwarka-sklepu/zachodniopomorskie/szczecin/ul-struga-31a.html", "brand": "ALDI", "brand:wikidata": "Q41171373", "nsi_id": "aldi-b5be76"}},
{"type": "Feature", "id": "jJmm_C-Q5Da7keA5wS1-hlxAfuc=", "properties": {"ref": "https://www.aldi.pl/informacje-dla-klienta/wyszukiwarka-sklepu/zachodniopomorskie/szczecin/ul-sobola-1.html", "@spider": "aldi_nord_pl", "shop": "supermarket", "addr:street_address": "ul. Sobola 1", "addr:city": "Szczecin", "addr:postcode": "71-837", "addr:country": "PL", "name": "ALDI Szczecin - ul. Sobola", "website": "https://www.aldi.pl/informacje-dla-klienta/wyszukiwarka-sklepu/zachodniopomorskie/szczecin/ul-sobola-1.html", "brand": "ALDI", "brand:wikidata": "Q41171373", "nsi_id": "aldi-b5be76"}},
{"type": "Feature", "id": "flmO43HMqfEUmVsPADlDCarNaLI=", "properties": {"ref": "https://www.aldi.pl/informacje-dla-klienta/wyszukiwarka-sklepu/zachodniopomorskie/kolobrzeg/grzybowska-2.html", "@spider": "aldi_nord_pl", "shop": "supermarket", "addr:street_address": "Grzybowska 2", "addr:city": "Ko\u0142obrzeg", "addr:postcode": "78-100", "addr:country": "PL", "name": "ALDI Ko\u0142obrzeg - Grzybowska", "website": "https://www.aldi.pl/informacje-dla-klienta/wyszukiwarka-sklepu/zachodniopomorskie/kolobrzeg/grzybowska-2.html", "brand": "ALDI", "brand:wikidata": "Q41171373", "nsi_id": "aldi-b5be76"}},
{"type": "Feature", "id": "BirvPtSPhU1-GvKX9GT39Kz4fww=", "properties": {"ref": "https://www.aldi.pl/informacje-dla-klienta/wyszukiwarka-sklepu/zachodniopomorskie/koszalin/ul-morska-49.html", "@spider": "aldi_nord_pl", "shop": "supermarket", "addr:street_address": "ul. Morska 49", "addr:city": "Koszalin", "addr:postcode": "75-237", "addr:country": "PL", "name": "ALDI Koszalin - ul. Morska", "website": "https://www.aldi.pl/informacje-dla-klienta/wyszukiwarka-sklepu/zachodniopomorskie/koszalin/ul-morska-49.html", "brand": "ALDI", "brand:wikidata": "Q41171373", "nsi_id": "aldi-b5be76"}},
{"type": "Feature", "id": "h4oLZBZc03pW28QL5PNuXqiHPoA=", "properties": {"ref": "https://www.aldi.pl/informacje-dla-klienta/wyszukiwarka-sklepu/zachodniopomorskie/swidwin/drawska-7a.html", "@spider": "aldi_nord_pl", "shop": "supermarket", "addr:street_address": "Drawska 7a", "addr:city": "\u015awidwin", "addr:postcode": "78-300", "addr:country": "PL", "name": "ALDI \u015awidwin - Drawska", "website": "https://www.aldi.pl/informacje-dla-klienta/wyszukiwarka-sklepu/zachodniopomorskie/swidwin/drawska-7a.html", "brand": "ALDI", "brand:wikidata": "Q41171373", "nsi_id": "aldi-b5be76"}},
{"type": "Feature", "id": "17pcZL5bJf-7TkDG48BYca0VJpE=", "properties": {"ref": "PL001019", "@spider": "aldi_nord_pl", "shop": "supermarket", "addr:street_address": "ul. Wolno\u015bci 37", "addr:city": "Choszczno", "addr:postcode": "73-200", "addr:country": "PL", "name": "ALDI Choszczno - ul. Wolno\u015bci", "website": "https://www.aldi.pl/informacje-dla-klienta/wyszukiwarka-sklepu/zachodniopomorskie/choszczno/ul-wolnosci-37.html", "brand": "ALDI", "brand:wikidata": "Q41171373", "nsi_id": "aldi-b5be76"}},
{"type": "Feature", "id": "zT-kIJB_QOuFyYrqA1XsWuybKFI=", "properties": {"ref": "PL001101", "@spider": "aldi_nord_pl", "shop": "supermarket", "addr:street_address": "ul. Kruszy\u0144ska 13a", "addr:city": "W\u0142oc\u0142awek", "addr:postcode": "87-800", "addr:country": "PL", "name": "ALDI W\u0142oc\u0142awek - ul. Kruszy\u0144ska", "website": "https://www.aldi.pl/informacje-dla-klienta/wyszukiwarka-sklepu/kujawsko-pomorskie/wloclawek/ul-kruszynska-13a.html", "brand": "ALDI", "brand:wikidata": "Q41171373", "nsi_id": "aldi-b5be76"}},
{"type": "Feature", "id": "UfAS94LNvSQ0byEIVjLSyyKCbSg=", "properties": {"ref": "PL001092", "@spider": "aldi_nord_pl", "shop": "supermarket", "addr:street_address": "ul. Wieniecka 17", "addr:city": "W\u0142oc\u0142awek", "addr:postcode": "87-100", "addr:country": "PL", "name": "ALDI W\u0142oc\u0142awek - ul. Wieniecka", "website": "https://www.aldi.pl/informacje-dla-klienta/wyszukiwarka-sklepu/kujawsko-pomorskie/wloclawek/ul-wieniecka-17.html", "brand": "ALDI", "brand:wikidata": "Q41171373", "nsi_id": "aldi-b5be76"}},
{"type": "Feature", "id": "THc-Hh8tFbeviM-TUzyHHDQIrME=", "properties": {"ref": "PL001025", "@spider": "aldi_nord_pl", "shop": "supermarket", "addr:street_address": "ul. Legion\u00f3w 222a", "addr:city": "Toru\u0144", "addr:postcode": "87-100", "addr:country": "PL", "name": "ALDI Toru\u0144 - ul. Legion\u00f3w", "website": "https://www.aldi.pl/informacje-dla-klienta/wyszukiwarka-sklepu/kujawsko-pomorskie/torun/ul-legionow-222a.html", "brand": "ALDI", "brand:wikidata": "Q41171373", "nsi_id": "aldi-b5be76"}},
{"type": "Feature", "id": "HvZUO2rrehz4Dhvr0jnxmHsV9T8=", "properties": {"ref": "PL001106", "@spider": "aldi_nord_pl", "shop": "supermarket", "addr:street_address": "ul. Asnyka 2", "addr:city": "Toru\u0144", "addr:postcode": "87-100", "addr:country": "PL", "name": "ALDI Toru\u0144 - ul. Asnyka", "website": "https://www.aldi.pl/informacje-dla-klienta/wyszukiwarka-sklepu/kujawsko-pomorskie/torun/ul-asnyka-2.html", "brand": "ALDI", "brand:wikidata": "Q41171373", "nsi_id": "aldi-b5be76"}},
{"type": "Feature", "id": "1iEZ5gvc4ILnQN2BZq_XjCY9924=", "properties": {"ref": "https://www.aldi.pl/informacje-dla-klienta/wyszukiwarka-sklepu/kujawsko-pomorskie/torun/ul-wapienna-1.html", "@spider": "aldi_nord_pl", "shop": "supermarket", "addr:street_address": "ul. Wapienna 1", "addr:city": "Toru\u0144", "addr:postcode": "87-162", "addr:country": "PL", "name": "ALDI Toru\u0144 - ul. Wapienna", "website": "https://www.aldi.pl/informacje-dla-klienta/wyszukiwarka-sklepu/kujawsko-pomorskie/torun/ul-wapienna-1.html", "brand": "ALDI", "brand:wikidata": "Q41171373", "nsi_id": "aldi-b5be76"}},
{"type": "Feature", "id": "LtJ6YPMcl2t6nHjO_N7YH7wDh1A=", "properties": {"ref": "PL001080", "@spider": "aldi_nord_pl", "shop": "supermarket", "addr:street_address": "ul. Jacewska 20", "addr:city": "Inowroc\u0142aw", "addr:postcode": "88-100", "addr:country": "PL", "name": "ALDI Inowroc\u0142aw - ul. Jacewska", "website": "https://www.aldi.pl/informacje-dla-klienta/wyszukiwarka-sklepu/kujawsko-pomorskie/inowroclaw/ul-jacewska-20.html", "brand": "ALDI", "brand:wikidata": "Q41171373", "nsi_id": "aldi-b5be76"}},
{"type": "Feature", "id": "L0bVyRdwGADaGBz-xppkRwNkP5Y=", "properties": {"ref": "https://www.aldi.pl/informacje-dla-klienta/wyszukiwarka-sklepu/mazowieckie/radzymin/ul-wolominska-5.html", "@spider": "aldi_nord_pl", "shop": "supermarket", "addr:street_address": "ul. Wo\u0142omi\u0144ska 5", "addr:city": "Radzymin", "addr:postcode": "05-250", "addr:country": "PL", "name": "ALDI Radzymin - ul. Wo\u0142omi\u0144ska", "website": "https://www.aldi.pl/informacje-dla-klienta/wyszukiwarka-sklepu/mazowieckie/radzymin/ul-wolominska-5.html", "brand": "ALDI", "brand:wikidata": "Q41171373", "nsi_id": "aldi-b5be76"}},
{"type": "Feature", "id": "z8mWr3q6GM807HIh7rgJR1ruJkc=", "properties": {"ref": "PL001122", "@spider": "aldi_nord_pl", "shop": "supermarket", "addr:street_address": "Nowa 4", "addr:city": "Stara Iwiczna", "addr:postcode": "05-500", "addr:country": "PL", "name": "ALDI Stara Iwiczna - Nowa", "website": "https://www.aldi.pl/informacje-dla-klienta/wyszukiwarka-sklepu/mazowieckie/stara-iwiczna/nowa-4.html", "brand": "ALDI", "brand:wikidata": "Q41171373", "nsi_id": "aldi-b5be76"}},
{"type": "Feature", "id": "g24l_TNt6FN8GdgK7kH7esM0Uko=", "properties": {"ref": "PL001114", "@spider": "aldi_nord_pl", "shop": "supermarket", "addr:street_address": "Al. Krakowska 263", "addr:city": "Warszawa", "addr:postcode": "02-133", "addr:country": "PL", "name": "ALDI Warszawa - Al. Krakowska", "website": "https://www.aldi.pl/informacje-dla-klienta/wyszukiwarka-sklepu/mazowieckie/warszawa/al-krakowska-263.html", "brand": "ALDI", "brand:wikidata": "Q41171373", "nsi_id": "aldi-b5be76"}},
{"type": "Feature", "id": "y65FimJGps8uwoRC_jc9tB_rxU8=", "properties": {"ref": "PL001131", "@spider": "aldi_nord_pl", "shop": "supermarket", "addr:street_address": "ul. Fieldorfa 11", "addr:city": "Warszawa", "addr:postcode": "03-984", "addr:country": "PL", "name": "ALDI Warszawa - ul. Fieldorfa", "website": "https://www.aldi.pl/informacje-dla-klienta/wyszukiwarka-sklepu/mazowieckie/warszawa/ul-fieldorfa-11.html", "brand": "ALDI", "brand:wikidata": "Q41171373", "nsi_id": "aldi-b5be76"}},
{"type": "Feature", "id": "OzS54cW9jKigbS3RnclXJAHE9JQ=", "properties": {"ref": "PL001099", "@spider": "aldi_nord_pl", "shop": "supermarket", "addr:street_address": "ul. Radzymi\u0144ska 245", "addr:city": "Warszawa", "addr:postcode": "03-643", "addr:country": "PL", "name": "ALDI Warszawa - ul. Radzymi\u0144ska", "website": "https://www.aldi.pl/informacje-dla-klienta/wyszukiwarka-sklepu/mazowieckie/warszawa/ul-radzyminska-245.html", "brand": "ALDI", "brand:wikidata": "Q41171373", "nsi_id": "aldi-b5be76"}},
{"type": "Feature", "id": "p9BU_Gs33a-XIj0OdQrmsdrc9I4=", "properties": {"ref": "PL001158", "@spider": "aldi_nord_pl", "shop": "supermarket", "addr:street_address": "ul. Orzeszkowej 1", "addr:city": "Grodzisk Mazowiecki", "addr:postcode": "05-825", "addr:country": "PL", "name": "ALDI Grodzisk Mazowiecki - ul. Orzeszkowej", "website": "https://www.aldi.pl/informacje-dla-klienta/wyszukiwarka-sklepu/mazowieckie/grodzisk-mazowiecki/ul-orzeszkowej-1.html", "brand": "ALDI", "brand:wikidata": "Q41171373", "nsi_id": "aldi-b5be76"}},
{"type": "Feature", "id": "-siRGerUvkIxdbHkM2vDPWM7vXs=", "properties": {"ref": "PL001022", "@spider": "aldi_nord_pl", "shop": "supermarket", "addr:street_address": "ul. Mireckiego 10", "addr:city": "Radom", "addr:postcode": "26-610", "addr:country": "PL", "name": "ALDI Radom - ul. Mireckiego", "website": "https://www.aldi.pl/informacje-dla-klienta/wyszukiwarka-sklepu/mazowieckie/radom/ul-mireckiego-10.html", "brand": "ALDI", "brand:wikidata": "Q41171373", "nsi_id": "aldi-b5be76"}},
{"type": "Feature", "id": "41BkGufjbrSdKiTzfMTUDG9s2hw=", "properties": {"ref": "PL001030", "@spider": "aldi_nord_pl", "shop": "supermarket", "addr:street_address": "ul. Z\u00f3\u0142kiewskiego 8a", "addr:city": "Radom", "addr:postcode": "26-600", "addr:country": "PL", "name": "ALDI Radom - ul. Z\u00f3\u0142kiewskiego", "website": "https://www.aldi.pl/informacje-dla-klienta/wyszukiwarka-sklepu/mazowieckie/radom/ul-zolkiewskiego-8a.html", "brand": "ALDI", "brand:wikidata": "Q41171373", "nsi_id": "aldi-b5be76"}},
{"type": "Feature", "id": "WrUL9MyY1meiF3OqE3wqCa_io_A=", "properties": {"ref": "PL001017", "@spider": "aldi_nord_pl", "shop": "supermarket", "addr:street_address": "ul. 1905 roku 2", "addr:city": "Radom", "addr:postcode": "26-610", "addr:country": "PL", "name": "ALDI Radom - ul. 1905 roku", "website": "https://www.aldi.pl/informacje-dla-klienta/wyszukiwarka-sklepu/mazowieckie/radom/ul-1905-roku-2.html", "brand": "ALDI", "brand:wikidata": "Q41171373", "nsi_id": "aldi-b5be76"}},
{"type": "Feature", "id": "rT7Ol2qxHqQjtcGmTSZfRLh-gWU=", "properties": {"ref": "PL001164", "@spider": "aldi_nord_pl", "shop": "supermarket", "addr:street_address": "ul. Reja 14", "addr:city": "Wo\u0142omin", "addr:postcode": "05-200", "addr:country": "PL", "name": "ALDI Wo\u0142omin - ul. Reja", "website": "https://www.aldi.pl/informacje-dla-klienta/wyszukiwarka-sklepu/mazowieckie/wolomin/ul-reja-14.html", "brand": "ALDI", "brand:wikidata": "Q41171373", "nsi_id": "aldi-b5be76"}},
{"type": "Feature", "id": "FERG-E5-0lrsmRgIp5OIl6NNNJw=", "properties": {"ref": "https://www.aldi.pl/informacje-dla-klienta/wyszukiwarka-sklepu/mazowieckie/milanowek/ul-krolewska-52.html", "@spider": "aldi_nord_pl", "shop": "supermarket", "addr:street_address": "ul. Kr\u00f3lewska 52", "addr:city": "Milan\u00f3wek", "addr:postcode": "05-822", "addr:country": "PL", "name": "ALDI Milan\u00f3wek - ul. Kr\u00f3lewska", "website": "https://www.aldi.pl/informacje-dla-klienta/wyszukiwarka-sklepu/mazowieckie/milanowek/ul-krolewska-52.html", "brand": "ALDI", "brand:wikidata": "Q41171373", "nsi_id": "aldi-b5be76"}},
{"type": "Feature", "id": "FI0-uo5ygjPDxCB0593WNpzYynU=", "properties": {"ref": "PL001075", "@spider": "aldi_nord_pl", "shop": "supermarket", "addr:street_address": "Aleja Konstytucji 3 Maja 18", "addr:city": "Zielona G\u00f3ra", "addr:postcode": "65-803", "addr:country": "PL", "name": "ALDI Zielona G\u00f3ra - Aleja Konstytucji 3 Maja", "website": "https://www.aldi.pl/informacje-dla-klienta/wyszukiwarka-sklepu/lubuskie/zielona-gora/aleja-konstytucji-3-maja-18.html", "brand": "ALDI", "brand:wikidata": "Q41171373", "nsi_id": "aldi-b5be76"}},
{"type": "Feature", "id": "gGqICe55Vuxo3rBOhLbwCjFIZ0A=", "properties": {"ref": "PL001060", "@spider": "aldi_nord_pl", "shop": "supermarket", "addr:street_address": "ul. Wyszy\u0144skiego 22", "addr:city": "Zielona G\u00f3ra", "addr:postcode": "65-001", "addr:country": "PL", "name": "ALDI Zielona G\u00f3ra - ul. Wyszy\u0144skiego", "website": "https://www.aldi.pl/informacje-dla-klienta/wyszukiwarka-sklepu/lubuskie/zielona-gora/ul-wyszynskiego-22.html", "brand": "ALDI", "brand:wikidata": "Q41171373", "nsi_id": "aldi-b5be76"}},
{"type": "Feature", "id": "4_qWPx1131xMWGBlet1rDaAvOwg=", "properties": {"ref": "https://www.aldi.pl/informacje-dla-klienta/wyszukiwarka-sklepu/lubuskie/gorzow-wielkopolski/ul-pilsudskiego-57.html", "@spider": "aldi_nord_pl", "shop": "supermarket", "addr:street_address": "ul. Pi\u0142sudskiego 57", "addr:city": "Gorz\u00f3w Wielkopolski", "addr:postcode": "66-400", "addr:country": "PL", "name": "ALDI Gorz\u00f3w Wielkopolski - ul. Pi\u0142sudskiego", "website": "https://www.aldi.pl/informacje-dla-klienta/wyszukiwarka-sklepu/lubuskie/gorzow-wielkopolski/ul-pilsudskiego-57.html", "brand": "ALDI", "brand:wikidata": "Q41171373", "nsi_id": "aldi-b5be76"}},
{"type": "Feature", "id": "YyrIuCkxdyFAKQ6I5gLqv8VgDqg=", "properties": {"ref": "PL001005", "@spider": "aldi_nord_pl", "shop": "supermarket", "addr:street_address": "ul. Jana Pawla II 48", "addr:city": "Sulech\u00f3w", "addr:postcode": "66-100", "addr:country": "PL", "name": "ALDI Sulech\u00f3w - ul. Jana Pawla II", "website": "https://www.aldi.pl/informacje-dla-klienta/wyszukiwarka-sklepu/lubuskie/sulechow/ul-jana-pawla-ii-48.html", "brand": "ALDI", "brand:wikidata": "Q41171373", "nsi_id": "aldi-b5be76"}},
{"type": "Feature", "id": "A2dGJLw4aDFzbXrlUXbpd-PlCZs=", "properties": {"ref": "PL001049", "@spider": "aldi_nord_pl", "shop": "supermarket", "addr:street_address": "ul. \u017babikowska 3", "addr:city": "\u017bary", "addr:postcode": "68-200", "addr:country": "PL", "name": "ALDI \u017bary - ul. \u017babikowska", "website": "https://www.aldi.pl/informacje-dla-klienta/wyszukiwarka-sklepu/lubuskie/zary/ul-zabikowska-3.html", "brand": "ALDI", "brand:wikidata": "Q41171373", "nsi_id": "aldi-b5be76"}},
{"type": "Feature", "id": "m4NScs9y1ho6JW-t11di3cdNa08=", "properties": {"ref": "PL001171", "@spider": "aldi_nord_pl", "shop": "supermarket", "addr:street_address": "ul. Mickiewicza 19E", "addr:city": "Skawina", "addr:postcode": "32-050", "addr:country": "PL", "name": "ALDI Skawina - ul. Mickiewicza", "website": "https://www.aldi.pl/informacje-dla-klienta/wyszukiwarka-sklepu/malopolskie/skawina/ul-mickiewicza-19e.html", "brand": "ALDI", "brand:wikidata": "Q41171373", "nsi_id": "aldi-b5be76"}},
{"type": "Feature", "id": "Qsmkc61h6BmXRZwZ7TooJBFIsg4=", "properties": {"ref": "PL001039", "@spider": "aldi_nord_pl", "shop": "supermarket", "addr:street_address": "ul. Jana III Sobieskiego 20", "addr:city": "K\u0119ty", "addr:postcode": "32-650", "addr:country": "PL", "name": "ALDI K\u0119ty - ul. Jana III Sobieskiego", "website": "https://www.aldi.pl/informacje-dla-klienta/wyszukiwarka-sklepu/malopolskie/kety/ul-jana-iii-sobieskiego-20.html", "brand": "ALDI", "brand:wikidata": "Q41171373", "nsi_id": "aldi-b5be76"}},
{"type": "Feature", "id": "68k0LKVB6fwifHcEFL_iwcAYDr4=", "properties": {"ref": "PL001046", "@spider": "aldi_nord_pl", "shop": "supermarket", "addr:street_address": "ul. Zaborska 26", "addr:city": "O\u015bwi\u0119cim", "addr:postcode": "32-600", "addr:country": "PL", "name": "ALDI O\u015bwi\u0119cim - ul. Zaborska", "website": "https://www.aldi.pl/informacje-dla-klienta/wyszukiwarka-sklepu/malopolskie/oswiecim/ul-zaborska-26.html", "brand": "ALDI", "brand:wikidata": "Q41171373", "nsi_id": "aldi-b5be76"}},
{"type": "Feature", "id": "s1WtMphCS8JPBzm9BaTC9h1TB2I=", "properties": {"ref": "PL001161", "@spider": "aldi_nord_pl", "shop": "supermarket", "addr:street_address": "ul. W\u0119gierska 12", "addr:city": "Gorlice", "addr:postcode": "38-300", "addr:country": "PL", "name": "ALDI Gorlice - ul. W\u0119gierska", "website": "https://www.aldi.pl/informacje-dla-klienta/wyszukiwarka-sklepu/malopolskie/gorlice/ul-wegierska-12.html", "brand": "ALDI", "brand:wikidata": "Q41171373", "nsi_id": "aldi-b5be76"}},
{"type": "Feature", "id": "MbnX5mYia7VBZ9NZTHu4i0RTFxo=", "properties": {"ref": "https://www.aldi.pl/informacje-dla-klienta/wyszukiwarka-sklepu/lubelskie/lublin/ul-sendlerowej-2.html", "@spider": "aldi_nord_pl", "shop": "supermarket", "addr:street_address": "ul. Sendlerowej 2", "addr:city": "Lublin", "addr:postcode": "20-817", "addr:country": "PL", "name": "ALDI Lublin - ul. Sendlerowej", "website": "https://www.aldi.pl/informacje-dla-klienta/wyszukiwarka-sklepu/lubelskie/lublin/ul-sendlerowej-2.html", "brand": "ALDI", "brand:wikidata": "Q41171373", "nsi_id": "aldi-b5be76"}},
{"type": "Feature", "id": "_zoBUmBHXhjuuZfH8mrMz__88fY=", "properties": {"ref": "https://www.aldi.pl/informacje-dla-klienta/wyszukiwarka-sklepu/lubelskie/lublin/al-spoldzielczosci-pracy-68.html", "@spider": "aldi_nord_pl", "shop": "supermarket", "addr:street_address": "al. Sp\u00f3\u0142dzielczo\u015bci Pracy 68", "addr:city": "Lublin", "addr:postcode": "20-147", "addr:country": "PL", "name": "ALDI Lublin - al. Sp\u00f3\u0142dzielczo\u015bci Pracy", "website": "https://www.aldi.pl/informacje-dla-klienta/wyszukiwarka-sklepu/lubelskie/lublin/al-spoldzielczosci-pracy-68.html", "brand": "ALDI", "brand:wikidata": "Q41171373", "nsi_id": "aldi-b5be76"}},
{"type": "Feature", "id": "KwI1XxgEvV_ZuVRVTr73-1KiTLc=", "properties": {"ref": "PL001038", "@spider": "aldi_nord_pl", "shop": "supermarket", "addr:street_address": "ul. Wroc\u0142awska 2", "addr:city": "Z\u0105bkowice \u015al\u0105skie", "addr:postcode": "57-200", "addr:country": "PL", "name": "ALDI Z\u0105bkowice \u015al\u0105skie - ul. Wroc\u0142awska", "website": "https://www.aldi.pl/informacje-dla-klienta/wyszukiwarka-sklepu/dolnoslaskie/zabkowice-slaskie/ul-wroclawska-2.html", "brand": "ALDI", "brand:wikidata": "Q41171373", "nsi_id": "aldi-b5be76"}},
{"type": "Feature", "id": "DNERMKwl5GP-meVZjEQoXzxeAII=", "properties": {"ref": "https://www.aldi.pl/informacje-dla-klienta/wyszukiwarka-sklepu/dolnoslaskie/zlotoryja/plac-sprzymierzencow-11.html", "@spider": "aldi_nord_pl", "shop": "supermarket", "addr:street_address": "plac Sprzymierze\u0144c\u00f3w 11", "addr:city": "Z\u0142otoryja", "addr:postcode": "59-500", "addr:country": "PL", "name": "ALDI Z\u0142otoryja - plac Sprzymierze\u0144c\u00f3w", "website": "https://www.aldi.pl/informacje-dla-klienta/wyszukiwarka-sklepu/dolnoslaskie/zlotoryja/plac-sprzymierzencow-11.html", "brand": "ALDI", "brand:wikidata": "Q41171373", "nsi_id": "aldi-b5be76"}},
{"type": "Feature", "id": "gQJEpPzRWOYY2diE79aDgEcjyp8=", "properties": {"ref": "PL001086", "@spider": "aldi_nord_pl", "shop": "supermarket", "addr:street_address": "ul. Ko\u015bciuszki 133 A", "addr:city": "Wroc\u0142aw", "addr:postcode": "50-440", "addr:country": "PL", "name": "ALDI Wroc\u0142aw - ul. Ko\u015bciuszki", "website": "https://www.aldi.pl/informacje-dla-klienta/wyszukiwarka-sklepu/dolnoslaskie/wroclaw/ul-kosciuszki-133-a.html", "brand": "ALDI", "brand:wikidata": "Q41171373", "nsi_id": "aldi-b5be76"}},
{"type": "Feature", "id": "ykNm7cHs8rKeI0--NHJ2z1L7xwA=", "properties": {"ref": "https://www.aldi.pl/informacje-dla-klienta/wyszukiwarka-sklepu/dolnoslaskie/wroclaw/awicenny-45.html", "@spider": "aldi_nord_pl", "shop": "supermarket", "addr:street_address": "Awicenny 45", "addr:city": "Wroc\u0142aw", "addr:postcode": "52-405", "addr:country": "PL", "name": "ALDI Wroc\u0142aw - Awicenny", "website": "https://www.aldi.pl/informacje-dla-klienta/wyszukiwarka-sklepu/dolnoslaskie/wroclaw/awicenny-45.html", "brand": "ALDI", "brand:wikidata": "Q41171373", "nsi_id": "aldi-b5be76"}},
{"type": "Feature", "id": "pZgMWW4zp1LMvWpVAfqkLBKlsP8=", "properties": {"ref": "https://www.aldi.pl/informacje-dla-klienta/wyszukiwarka-sklepu/dolnoslaskie/wroclaw/ul-zwycieska-7.html", "@spider": "aldi_nord_pl", "shop": "supermarket", "addr:street_address": "ul. Zwyci\u0119ska 7", "addr:city": "Wroc\u0142aw", "addr:postcode": "53-033", "addr:country": "PL", "name": "ALDI Wroc\u0142aw - ul. Zwyci\u0119ska", "website": "https://www.aldi.pl/informacje-dla-klienta/wyszukiwarka-sklepu/dolnoslaskie/wroclaw/ul-zwycieska-7.html", "brand": "ALDI", "brand:wikidata": "Q41171373", "nsi_id": "aldi-b5be76"}},
{"type": "Feature", "id": "Ku-_30r6OKJec6LnCmNJqr584Yw=", "properties": {"ref": "PL001056", "@spider": "aldi_nord_pl", "shop": "supermarket", "addr:street_address": "ul. Mi\u0144ska 36", "addr:city": "Wroc\u0142aw", "addr:postcode": "54-610", "addr:country": "PL", "name": "ALDI Wroc\u0142aw - ul. Mi\u0144ska", "website": "https://www.aldi.pl/informacje-dla-klienta/wyszukiwarka-sklepu/dolnoslaskie/wroclaw/ul-minska-36.html", "brand": "ALDI", "brand:wikidata": "Q41171373", "nsi_id": "aldi-b5be76"}},
{"type": "Feature", "id": "Rm_D_JRdmft9vGE23xizsk1rfDY=", "properties": {"ref": "PL001181", "@spider": "aldi_nord_pl", "shop": "supermarket", "addr:street_address": "ul. Rychtalska 8", "addr:city": "Wroc\u0142aw", "addr:postcode": "50-304", "addr:country": "PL", "name": "ALDI Wroc\u0142aw - ul. Rychtalska", "website": "https://www.aldi.pl/informacje-dla-klienta/wyszukiwarka-sklepu/dolnoslaskie/wroclaw/ul-rychtalska-8.html", "brand": "ALDI", "brand:wikidata": "Q41171373", "nsi_id": "aldi-b5be76"}},
{"type": "Feature", "id": "V6nuhNHMFFZr90ZWzHLPkACvUwY=", "properties": {"ref": "PL001124", "@spider": "aldi_nord_pl", "shop": "supermarket", "addr:street_address": "ul. Obornicka 72", "addr:city": "Wroc\u0142aw", "addr:postcode": "51-114", "addr:country": "PL", "name": "ALDI Wroc\u0142aw - ul. Obornicka 72", "website": "https://www.aldi.pl/informacje-dla-klienta/wyszukiwarka-sklepu/dolnoslaskie/wroclaw/ul-obornicka-72.html", "brand": "ALDI", "brand:wikidata": "Q41171373", "nsi_id": "aldi-b5be76"}},
{"type": "Feature", "id": "ruYp-gS3g8Cgu2DueqeITCh9wBQ=", "properties": {"ref": "PL001139", "@spider": "aldi_nord_pl", "shop": "supermarket", "addr:street_address": "ul. D\u0142ugosza 14", "addr:city": "Wroc\u0142aw", "addr:postcode": "51-162", "addr:country": "PL", "name": "ALDI Wroc\u0142aw - ul. D\u0142ugosza", "website": "https://www.aldi.pl/informacje-dla-klienta/wyszukiwarka-sklepu/dolnoslaskie/wroclaw/ul-dlugosza-14.html", "brand": "ALDI", "brand:wikidata": "Q41171373", "nsi_id": "aldi-b5be76"}},
{"type": "Feature", "id": "jMOzD55irgjKNmCTpWvOMO7aEeU=", "properties": {"ref": "PL001136", "@spider": "aldi_nord_pl", "shop": "supermarket", "addr:street_address": "ul. \u015aredzka 41", "addr:city": "Wroc\u0142aw", "addr:postcode": "54-001", "addr:country": "PL", "name": "ALDI Wroc\u0142aw - ul. \u015aredzka", "website": "https://www.aldi.pl/informacje-dla-klienta/wyszukiwarka-sklepu/dolnoslaskie/wroclaw/ul-sredzka-41.html", "brand": "ALDI", "brand:wikidata": "Q41171373", "nsi_id": "aldi-b5be76"}},
{"type": "Feature", "id": "4cGK-8kZU2FGP-N6Vq6F-rnXLlY=", "properties": {"ref": "PL001104", "@spider": "aldi_nord_pl", "shop": "supermarket", "addr:street_address": "ul. Szybowcowa 7", "addr:city": "Wroc\u0142aw", "addr:postcode": "54-130", "addr:country": "PL", "name": "ALDI Wroc\u0142aw - ul. Szybowcowa", "website": "https://www.aldi.pl/informacje-dla-klienta/wyszukiwarka-sklepu/dolnoslaskie/wroclaw/ul-szybowcowa-7.html", "brand": "ALDI", "brand:wikidata": "Q41171373", "nsi_id": "aldi-b5be76"}},
{"type": "Feature", "id": "gwDNczN63xBFbxyJzo7t1ZQXu_k=", "properties": {"ref": "https://www.aldi.pl/informacje-dla-klienta/wyszukiwarka-sklepu/dolnoslaskie/wroclaw/ul-grabiszynska-167.html", "@spider": "aldi_nord_pl", "shop": "supermarket", "addr:street_address": "ul. Grabiszy\u0144ska 167", "addr:city": "Wroc\u0142aw", "addr:postcode": "53-439", "addr:country": "PL", "name": "ALDI Wroc\u0142aw - ul. Grabiszy\u0144ska", "website": "https://www.aldi.pl/informacje-dla-klienta/wyszukiwarka-sklepu/dolnoslaskie/wroclaw/ul-grabiszynska-167.html", "brand": "ALDI", "brand:wikidata": "Q41171373", "nsi_id": "aldi-b5be76"}},
{"type": "Feature", "id": "bb94HYpONu30u-UZOQRZG8G7mI4=", "properties": {"ref": "PL001121", "@spider": "aldi_nord_pl", "shop": "supermarket", "addr:street_address": "Powsta\u0144c\u00f3w \u015al\u0105skich 82a", "addr:city": "Wroc\u0142aw", "addr:postcode": "53-333", "addr:country": "PL", "name": "ALDI Wroc\u0142aw - Powsta\u0144c\u00f3w \u015al\u0105skich", "website": "https://www.aldi.pl/informacje-dla-klienta/wyszukiwarka-sklepu/dolnoslaskie/wroclaw/powstancow-slaskich-82a.html", "brand": "ALDI", "brand:wikidata": "Q41171373", "nsi_id": "aldi-b5be76"}},
{"type": "Feature", "id": "1tAePjhjXsucDt4ZfZQNJS5vLyA=", "properties": {"ref": "PL001040", "@spider": "aldi_nord_pl", "shop": "supermarket", "addr:street_address": "ul. M. Sk\u0142odowskiej-Curie 10", "addr:city": "Lubin", "addr:postcode": "59-300", "addr:country": "PL", "name": "ALDI Lubin - ul. M. Sk\u0142odowskiej-Curie", "website": "https://www.aldi.pl/informacje-dla-klienta/wyszukiwarka-sklepu/dolnoslaskie/lubin/ul-m-sklodowskiej-curie-10.html", "brand": "ALDI", "brand:wikidata": "Q41171373", "nsi_id": "aldi-b5be76"}},
{"type": "Feature", "id": "cqPmGiwS6fRarASsX0P7Fo8rZPc=", "properties": {"ref": "PL001067", "@spider": "aldi_nord_pl", "shop": "supermarket", "addr:street_address": "ul. Bielawska 13", "addr:city": "Dzier\u017coni\u00f3w", "addr:postcode": "58-200", "addr:country": "PL", "name": "ALDI Dzier\u017coni\u00f3w - ul. Bielawska", "website": "https://www.aldi.pl/informacje-dla-klienta/wyszukiwarka-sklepu/dolnoslaskie/dzierzoniow/ul-bielawska-13.html", "brand": "ALDI", "brand:wikidata": "Q41171373", "nsi_id": "aldi-b5be76"}},
{"type": "Feature", "id": "qeBzkMHcPyGHpf9a282dFeRdmSM=", "properties": {"ref": "PL001024", "@spider": "aldi_nord_pl", "shop": "supermarket", "addr:street_address": "ul. 7 Dywizji 11", "addr:city": "Luba\u0144", "addr:postcode": "59-800", "addr:country": "PL", "name": "ALDI Luba\u0144 - ul. 7 Dywizji", "website": "https://www.aldi.pl/informacje-dla-klienta/wyszukiwarka-sklepu/dolnoslaskie/luban/ul-7-dywizji-11.html", "brand": "ALDI", "brand:wikidata": "Q41171373", "nsi_id": "aldi-b5be76"}},
{"type": "Feature", "id": "Qc4VY8AWXTYnZQhkbyysP0QtlWY=", "properties": {"ref": "PL001001", "@spider": "aldi_nord_pl", "shop": "supermarket", "addr:street_address": "ul. Przemys\u0142owa 1", "addr:city": "G\u0142og\u00f3w", "addr:postcode": "67-200", "addr:country": "PL", "name": "ALDI G\u0142og\u00f3w - ul. Przemys\u0142owa", "website": "https://www.aldi.pl/informacje-dla-klienta/wyszukiwarka-sklepu/dolnoslaskie/glogow/ul-przemyslowa-1.html", "brand": "ALDI", "brand:wikidata": "Q41171373", "nsi_id": "aldi-b5be76"}},
{"type": "Feature", "id": "R13dufZmGqK3o5E1QgT1q_Eynm0=", "properties": {"ref": "https://www.aldi.pl/informacje-dla-klienta/wyszukiwarka-sklepu/dolnoslaskie/jawor/ul-limanowskiego-27.html", "@spider": "aldi_nord_pl", "shop": "supermarket", "addr:street_address": "ul. Limanowskiego 27", "addr:city": "Jawor", "addr:postcode": "59-400", "addr:country": "PL", "name": "ALDI Jawor - ul. Limanowskiego", "website": "https://www.aldi.pl/informacje-dla-klienta/wyszukiwarka-sklepu/dolnoslaskie/jawor/ul-limanowskiego-27.html", "brand": "ALDI", "brand:wikidata": "Q41171373", "nsi_id": "aldi-b5be76"}},
{"type": "Feature", "id": "Q2MQM5TcewanE4wbRIBqQ-PqJ4Y=", "properties": {"ref": "https://www.aldi.pl/informacje-dla-klienta/wyszukiwarka-sklepu/dolnoslaskie/zgorzelec/ulica-lubanska-7.html", "@spider": "aldi_nord_pl", "shop": "supermarket", "addr:street_address": "ulica Luba\u0144ska 7", "addr:city": "Zgorzelec", "addr:postcode": "59-900", "addr:country": "PL", "name": "ALDI Zgorzelec - ulica Luba\u0144ska", "website": "https://www.aldi.pl/informacje-dla-klienta/wyszukiwarka-sklepu/dolnoslaskie/zgorzelec/ulica-lubanska-7.html", "brand": "ALDI", "brand:wikidata": "Q41171373", "nsi_id": "aldi-b5be76"}},
{"type": "Feature", "id": "9ioU03CqqdDYQQtgUsz-sz38SIU=", "properties": {"ref": "https://www.aldi.pl/informacje-dla-klienta/wyszukiwarka-sklepu/dolnoslaskie/swiebodzice/strzegomska-11.html", "@spider": "aldi_nord_pl", "shop": "supermarket", "addr:street_address": "Strzegomska 11", "addr:city": "\u015awiebodzice", "addr:postcode": "58-160", "addr:country": "PL", "name": "ALDI \u015awiebodzice - Strzegomska", "website": "https://www.aldi.pl/informacje-dla-klienta/wyszukiwarka-sklepu/dolnoslaskie/swiebodzice/strzegomska-11.html", "brand": "ALDI", "brand:wikidata": "Q41171373", "nsi_id": "aldi-b5be76"}},
{"type": "Feature", "id": "OSd4fnW1kayIqVNz1fzk5BQVgtk=", "properties": {"ref": "PL001051", "@spider": "aldi_nord_pl", "shop": "supermarket", "addr:street_address": "ul. Ofiar O\u015bwi\u0119cimskich 21", "addr:city": "\u015awidnica", "addr:postcode": "58-100", "addr:country": "PL", "name": "ALDI \u015awidnica - ul. Ofiar O\u015bwi\u0119cimskich", "website": "https://www.aldi.pl/informacje-dla-klienta/wyszukiwarka-sklepu/dolnoslaskie/swidnica/ul-ofiar-oswiecimskich-21.html", "brand": "ALDI", "brand:wikidata": "Q41171373", "nsi_id": "aldi-b5be76"}},
{"type": "Feature", "id": "PKZwNBTQma1-WFN9NdH4OphCwEU=", "properties": {"ref": "PL001095", "@spider": "aldi_nord_pl", "shop": "supermarket", "addr:street_address": "ul. Wysockiego 5", "addr:city": "Wa\u0142brzych", "addr:postcode": "58-300", "addr:country": "PL", "name": "ALDI Wa\u0142brzych - ul. Wysockiego", "website": "https://www.aldi.pl/informacje-dla-klienta/wyszukiwarka-sklepu/dolnoslaskie/walbrzych/ul-wysockiego-5.html", "brand": "ALDI", "brand:wikidata": "Q41171373", "nsi_id": "aldi-b5be76"}},
{"type": "Feature", "id": "PKAog5uchGZ7aga5ytPiCSTznVo=", "properties": {"ref": "PL001041", "@spider": "aldi_nord_pl", "shop": "supermarket", "addr:street_address": "ul. \u015acinawska 3", "addr:city": "Legnica", "addr:postcode": "59-220", "addr:country": "PL", "name": "ALDI Legnica - ul. \u015acinawska", "website": "https://www.aldi.pl/informacje-dla-klienta/wyszukiwarka-sklepu/dolnoslaskie/legnica/ul-scinawska-3.html", "brand": "ALDI", "brand:wikidata": "Q41171373", "nsi_id": "aldi-b5be76"}},
{"type": "Feature", "id": "eTqeWrouaLpk8B7ntYG3haicx10=", "properties": {"ref": "PL001094", "@spider": "aldi_nord_pl", "shop": "supermarket", "addr:street_address": "ul. Sk\u0142odowskiej-Curie 4", "addr:city": "Ole\u015bnica", "addr:postcode": "56-400", "addr:country": "PL", "name": "ALDI Ole\u015bnica - ul. Sk\u0142odowskiej-Curie", "website": "https://www.aldi.pl/informacje-dla-klienta/wyszukiwarka-sklepu/dolnoslaskie/olesnica/ul-sklodowskiej-curie-4.html", "brand": "ALDI", "brand:wikidata": "Q41171373", "nsi_id": "aldi-b5be76"}},
{"type": "Feature", "id": "hjST7_fh2wjEkKmS2B9IrNYPWvA=", "properties": {"ref": "PL001009", "@spider": "aldi_nord_pl", "shop": "supermarket", "addr:street_address": "ul. Sybirak\u00f3w 2", "addr:city": "O\u0142awa", "addr:postcode": "55-200", "addr:country": "PL", "name": "ALDI O\u0142awa - ul. Sybirak\u00f3w", "website": "https://www.aldi.pl/informacje-dla-klienta/wyszukiwarka-sklepu/dolnoslaskie/olawa/ul-sybirakow-2.html", "brand": "ALDI", "brand:wikidata": "Q41171373", "nsi_id": "aldi-b5be76"}},
{"type": "Feature", "id": "y--usvR6etGBpUmoke2g79P791s=", "properties": {"ref": "PL001008", "@spider": "aldi_nord_pl", "shop": "supermarket", "addr:street_address": "ul. Sobieskiego 37", "addr:city": "Jelenia G\u00f3ra", "addr:postcode": "58-500", "addr:country": "PL", "name": "ALDI Jelenia G\u00f3ra - ul. Sobieskiego", "website": "https://www.aldi.pl/informacje-dla-klienta/wyszukiwarka-sklepu/dolnoslaskie/jelenia-gora/ul-sobieskiego-37.html", "brand": "ALDI", "brand:wikidata": "Q41171373", "nsi_id": "aldi-b5be76"}},
{"type": "Feature", "id": "hG4s7w8DJUQEikIMcW2qXq8AiJM=", "properties": {"ref": "PL001029", "@spider": "aldi_nord_pl", "shop": "supermarket", "addr:street_address": "ul. Bohater\u00f3w Kragujewca 8", "addr:city": "Bydgoszcz", "addr:postcode": "85-863", "addr:country": "PL", "name": "ALDI Bydgoszcz - ul. Bohater\u00f3w Kragujewca", "website": "https://www.aldi.pl/informacje-dla-klienta/wyszukiwarka-sklepu/kujawsko-pomorskie/bydgoszcz/ul-bohaterow-kragujewca-8.html", "brand": "ALDI", "brand:wikidata": "Q41171373", "nsi_id": "aldi-b5be76"}},
{"type": "Feature", "id": "unVFK7i8NSG-70rIbHpIuxQNZ4A=", "properties": {"ref": "PL001093", "@spider": "aldi_nord_pl", "shop": "supermarket", "addr:street_address": "ul. Pelpli\u0144ska 39", "addr:city": "Bydgoszcz", "addr:postcode": "85-794", "addr:country": "PL", "name": "ALDI Bydgoszcz - ul. Pelpli\u0144ska", "website": "https://www.aldi.pl/informacje-dla-klienta/wyszukiwarka-sklepu/kujawsko-pomorskie/bydgoszcz/ul-pelplinska-39.html", "brand": "ALDI", "brand:wikidata": "Q41171373", "nsi_id": "aldi-b5be76"}},
{"type": "Feature", "id": "zgCaeLbELnK4j89_aLiUKZZcpfU=", "properties": {"ref": "PL001116", "@spider": "aldi_nord_pl", "shop": "supermarket", "addr:street_address": "ul. Marii Sk\u0142odowskiej-Curie 60 a", "addr:city": "Bydgoszcz", "addr:postcode": "85-733", "addr:country": "PL", "name": "ALDI Bydgoszcz - ul. Marii Sk\u0142odowskiej-Curie", "website": "https://www.aldi.pl/informacje-dla-klienta/wyszukiwarka-sklepu/kujawsko-pomorskie/bydgoszcz/ul-marii-sklodowskiej-curie-60-a.html", "brand": "ALDI", "brand:wikidata": "Q41171373", "nsi_id": "aldi-b5be76"}},
{"type": "Feature", "id": "zl0AP5oUDGEKImlcBlzImxRF590=", "properties": {"ref": "https://www.aldi.pl/informacje-dla-klienta/wyszukiwarka-sklepu/kujawsko-pomorskie/bydgoszcz/ul-andersena-23.html", "@spider": "aldi_nord_pl", "shop": "supermarket", "addr:street_address": "ul. Andersena 23", "addr:city": "Bydgoszcz", "addr:postcode": "85-792", "addr:country": "PL", "name": "ALDI Bydgoszcz - ul. Andersena", "website": "https://www.aldi.pl/informacje-dla-klienta/wyszukiwarka-sklepu/kujawsko-pomorskie/bydgoszcz/ul-andersena-23.html", "brand": "ALDI", "brand:wikidata": "Q41171373", "nsi_id": "aldi-b5be76"}},
{"type": "Feature", "id": "jMObthxNTRFp2Hgtu7KHN6WvI-M=", "properties": {"ref": "PL001143", "@spider": "aldi_nord_pl", "shop": "supermarket", "addr:street_address": "ul. Wojska Polskiego 1", "addr:city": "Bydgoszcz", "addr:postcode": "85-171", "addr:country": "PL", "name": "ALDI Bydgoszcz - ul. Wojska Polskiego", "website": "https://www.aldi.pl/informacje-dla-klienta/wyszukiwarka-sklepu/kujawsko-pomorskie/bydgoszcz/ul-wojska-polskiego-1.html", "brand": "ALDI", "brand:wikidata": "Q41171373", "nsi_id": "aldi-b5be76"}},
{"type": "Feature", "id": "jhPbaEplSkbzz2A-B6zkzqmhca0=", "properties": {"ref": "PL001138", "@spider": "aldi_nord_pl", "shop": "supermarket", "addr:street_address": "Gda\u0144ska 133", "addr:city": "Bydgoszcz", "addr:postcode": "85-022", "addr:country": "PL", "name": "ALDI Bydgoszcz - Gda\u0144ska", "website": "https://www.aldi.pl/informacje-dla-klienta/wyszukiwarka-sklepu/kujawsko-pomorskie/bydgoszcz/gdanska-133.html", "brand": "ALDI", "brand:wikidata": "Q41171373", "nsi_id": "aldi-b5be76"}},
{"type": "Feature", "id": "lZp0MftpPRgohquWaOdiGJj1tW4=", "properties": {"ref": "https://www.aldi.pl/informacje-dla-klienta/wyszukiwarka-sklepu/kujawsko-pomorskie/torun/ul-szosa-lubicka.html", "@spider": "aldi_nord_pl", "shop": "supermarket", "addr:street_address": "ul. Szosa Lubicka", "addr:city": "Toru\u0144", "addr:postcode": "87-100", "addr:country": "PL", "name": "ALDI Toru\u0144 - ul. Szosa Lubicka", "website": "https://www.aldi.pl/informacje-dla-klienta/wyszukiwarka-sklepu/kujawsko-pomorskie/torun/ul-szosa-lubicka.html", "brand": "ALDI", "brand:wikidata": "Q41171373", "nsi_id": "aldi-b5be76"}},
{"type": "Feature", "id": "GMHY0a9sbhvKTEMKgb0mZJrVjGA=", "properties": {"ref": "PL001159", "@spider": "aldi_nord_pl", "shop": "supermarket", "addr:street_address": "ulica Tadeusza Ko\u015bciuszki 55", "addr:city": "Toru\u0144", "addr:postcode": "87-100", "addr:country": "PL", "name": "ALDI Toru\u0144 - ulica Tadeusza Ko\u015bciuszki", "website": "https://www.aldi.pl/informacje-dla-klienta/wyszukiwarka-sklepu/kujawsko-pomorskie/torun/ulica-tadeusza-kosciuszki-55.html", "brand": "ALDI", "brand:wikidata": "Q41171373", "nsi_id": "aldi-b5be76"}},
{"type": "Feature", "id": "S5UHgxicnASLjt6yhnVxThpVPo0=", "properties": {"ref": "https://www.aldi.pl/informacje-dla-klienta/wyszukiwarka-sklepu/wielkopolskie/pleszew/ul-sienkiewicza-43a.html", "@spider": "aldi_nord_pl", "shop": "supermarket", "addr:street_address": "ul. Sienkiewicza 43A", "addr:city": "Pleszew", "addr:postcode": "63-300", "addr:country": "PL", "name": "ALDI Pleszew - ul. Sienkiewicza", "website": "https://www.aldi.pl/informacje-dla-klienta/wyszukiwarka-sklepu/wielkopolskie/pleszew/ul-sienkiewicza-43a.html", "brand": "ALDI", "brand:wikidata": "Q41171373", "nsi_id": "aldi-b5be76"}},
{"type": "Feature", "id": "EwfDOjKL-StqkMSh5FhLrHBiTVA=", "properties": {"ref": "PL001052", "@spider": "aldi_nord_pl", "shop": "supermarket", "addr:street_address": "ul. Gdy\u0144ska 30", "addr:city": "Kozieg\u0142owy k. Poznania", "addr:postcode": "62-028", "addr:country": "PL", "name": "ALDI Kozieg\u0142owy k. Poznania - ul. Gdy\u0144ska", "website": "https://www.aldi.pl/informacje-dla-klienta/wyszukiwarka-sklepu/wielkopolskie/kozieglowy-k-poznania/ul-gdynska-30.html", "brand": "ALDI", "brand:wikidata": "Q41171373", "nsi_id": "aldi-b5be76"}},
{"type": "Feature", "id": "JBhiRG51g8_skSaibZQAQXC2gic=", "properties": {"ref": "PL001148", "@spider": "aldi_nord_pl", "shop": "supermarket", "addr:street_address": "ul. Tysi\u0105clecia 38", "addr:city": "Swarz\u0119dz", "addr:postcode": "62-020", "addr:country": "PL", "name": "ALDI Swarz\u0119dz - ul. Tysi\u0105clecia", "website": "https://www.aldi.pl/informacje-dla-klienta/wyszukiwarka-sklepu/wielkopolskie/swarzedz/ul-tysiaclecia-38.html", "brand": "ALDI", "brand:wikidata": "Q41171373", "nsi_id": "aldi-b5be76"}},
{"type": "Feature", "id": "mQ9x8e15gCUBQa48uaJ-n_cp8go=", "properties": {"ref": "PL001156", "@spider": "aldi_nord_pl", "shop": "supermarket", "addr:street_address": "ul. Obornicka 136", "addr:city": "Suchy Las", "addr:postcode": "62-002", "addr:country": "PL", "name": "ALDI Suchy Las - ul. Obornicka", "website": "https://www.aldi.pl/informacje-dla-klienta/wyszukiwarka-sklepu/wielkopolskie/suchy-las/ul-obornicka-136.html", "brand": "ALDI", "brand:wikidata": "Q41171373", "nsi_id": "aldi-b5be76"}},
{"type": "Feature", "id": "0noPBjViiJnqgD1C8wTnotqeiD4=", "properties": {"ref": "PL001107", "@spider": "aldi_nord_pl", "shop": "supermarket", "addr:street_address": "ul. Obornicka 242", "addr:city": "Pozna\u0144", "addr:postcode": "60-650", "addr:country": "PL", "name": "ALDI Pozna\u0144 - ul. Obornicka", "website": "https://www.aldi.pl/informacje-dla-klienta/wyszukiwarka-sklepu/wielkopolskie/poznan/ul-obornicka-242.html", "brand": "ALDI", "brand:wikidata": "Q41171373", "nsi_id": "aldi-b5be76"}},
{"type": "Feature", "id": "BntMpRrdY2IyjEtPFmXNYWA3Zx4=", "properties": {"ref": "PL001044", "@spider": "aldi_nord_pl", "shop": "supermarket", "addr:street_address": "ul. Jugos\u0142owia\u0144ska 33", "addr:city": "Pozna\u0144", "addr:postcode": "60-301", "addr:country": "PL", "name": "ALDI Pozna\u0144 - ul. Jugos\u0142owia\u0144ska", "website": "https://www.aldi.pl/informacje-dla-klienta/wyszukiwarka-sklepu/wielkopolskie/poznan/ul-jugoslowianska-33.html", "brand": "ALDI", "brand:wikidata": "Q41171373", "nsi_id": "aldi-b5be76"}},
{"type": "Feature", "id": "xt33kRufh7K1x-aSnK6CzaQ1Su0=", "properties": {"ref": "https://www.aldi.pl/informacje-dla-klienta/wyszukiwarka-sklepu/podkarpackie/mielec/ul-drzewieckiego-42.html", "@spider": "aldi_nord_pl", "shop": "supermarket", "addr:street_address": "ul. Drzewieckiego 42", "addr:city": "Mielec", "addr:postcode": "39-300", "addr:country": "PL", "name": "ALDI Mielec - ul. Drzewieckiego", "website": "https://www.aldi.pl/informacje-dla-klienta/wyszukiwarka-sklepu/podkarpackie/mielec/ul-drzewieckiego-42.html", "brand": "ALDI", "brand:wikidata": "Q41171373", "nsi_id": "aldi-b5be76"}},
{"type": "Feature", "id": "t_abqSfVY2QFiI5pFMMlZ0ru6HU=", "properties": {"ref": "PL001185", "@spider": "aldi_nord_pl", "shop": "supermarket", "addr:street_address": "ul. Okulickiego 10", "addr:city": "Rzesz\u00f3w", "addr:postcode": "35-210", "addr:country": "PL", "name": "ALDI Rzesz\u00f3w - ul. Okulickiego", "website": "https://www.aldi.pl/informacje-dla-klienta/wyszukiwarka-sklepu/podkarpackie/rzeszow/ul-okulickiego-10.html", "brand": "ALDI", "brand:wikidata": "Q41171373", "nsi_id": "aldi-b5be76"}},
{"type": "Feature", "id": "hnSU3bl6-ebPWNUSHFQY8e5b-80=", "properties": {"ref": "https://www.aldi.pl/informacje-dla-klienta/wyszukiwarka-sklepu/podkarpackie/krosno/czajkowskiego-55.html", "@spider": "aldi_nord_pl", "shop": "supermarket", "addr:street_address": "Czajkowskiego 55", "addr:city": "Krosno", "addr:postcode": "38-400", "addr:country": "PL", "name": "ALDI Krosno - Czajkowskiego", "website": "https://www.aldi.pl/informacje-dla-klienta/wyszukiwarka-sklepu/podkarpackie/krosno/czajkowskiego-55.html", "brand": "ALDI", "brand:wikidata": "Q41171373", "nsi_id": "aldi-b5be76"}},
{"type": "Feature", "id": "thB7UWf6fOcDfBsQOcpn1zLdaE0=", "properties": {"ref": "PL001145", "@spider": "aldi_nord_pl", "shop": "supermarket", "addr:street_address": "ul. Ogrodowa 1", "addr:city": "Ustka", "addr:postcode": "76-270", "addr:country": "PL", "name": "ALDI Ustka - ul. Ogrodowa", "website": "https://www.aldi.pl/informacje-dla-klienta/wyszukiwarka-sklepu/pomorskie/ustka/ul-ogrodowa-1.html", "brand": "ALDI", "brand:wikidata": "Q41171373", "nsi_id": "aldi-b5be76"}},
{"type": "Feature", "id": "gTYd_uFxtvlBW3gyLUcs4Kk4laQ=", "properties": {"ref": "PL001147", "@spider": "aldi_nord_pl", "shop": "supermarket", "addr:street_address": "ul. Noskowskiego 1", "addr:city": "Gda\u0144sk", "addr:postcode": "80-170", "addr:country": "PL", "name": "ALDI Gda\u0144sk - ul. Noskowskiego", "website": "https://www.aldi.pl/informacje-dla-klienta/wyszukiwarka-sklepu/pomorskie/gdansk/ul-noskowskiego-1.html", "brand": "ALDI", "brand:wikidata": "Q41171373", "nsi_id": "aldi-b5be76"}},
{"type": "Feature", "id": "ThkDOB2hKu1gArGf30lMIsnjkCE=", "properties": {"ref": "PL001168", "@spider": "aldi_nord_pl", "shop": "supermarket", "addr:street_address": "ul. Limbowa 1", "addr:city": "Gda\u0144sk", "addr:postcode": "80-175", "addr:country": "PL", "name": "ALDI Gda\u0144sk - ul. Limbowa", "website": "https://www.aldi.pl/informacje-dla-klienta/wyszukiwarka-sklepu/pomorskie/gdansk/ul-limbowa-1.html", "brand": "ALDI", "brand:wikidata": "Q41171373", "nsi_id": "aldi-b5be76"}},
{"type": "Feature", "id": "ZillSw0czKYlYdIcjHJus-c48q8=", "properties": {"ref": "https://www.aldi.pl/informacje-dla-klienta/wyszukiwarka-sklepu/pomorskie/gdansk/piecewska-29.html", "@spider": "aldi_nord_pl", "shop": "supermarket", "addr:street_address": "Piecewska 29", "addr:city": "Gda\u0144sk", "addr:postcode": "80-288", "addr:country": "PL", "name": "ALDI Gda\u0144sk - Piecewska", "website": "https://www.aldi.pl/informacje-dla-klienta/wyszukiwarka-sklepu/pomorskie/gdansk/piecewska-29.html", "brand": "ALDI", "brand:wikidata": "Q41171373", "nsi_id": "aldi-b5be76"}},
{"type": "Feature", "id": "O3Ll50K_KKgFVb2WtGTr69Rqkwc=", "properties": {"ref": "https://www.aldi.pl/informacje-dla-klienta/wyszukiwarka-sklepu/pomorskie/gdansk/ul-raatza-2.html", "@spider": "aldi_nord_pl", "shop": "supermarket", "addr:street_address": "ul Raatza 2", "addr:city": "Gda\u0144sk", "addr:postcode": "80-299", "addr:country": "PL", "name": "ALDI Gda\u0144sk - ul Raatza", "website": "https://www.aldi.pl/informacje-dla-klienta/wyszukiwarka-sklepu/pomorskie/gdansk/ul-raatza-2.html", "brand": "ALDI", "brand:wikidata": "Q41171373", "nsi_id": "aldi-b5be76"}},
{"type": "Feature", "id": "K2oTWz8UEGKh38HvDbh9iA5Zu6I=", "properties": {"ref": "PL001146", "@spider": "aldi_nord_pl", "shop": "supermarket", "addr:street_address": "ul. Rajska 8", "addr:city": "Gda\u0144sk", "addr:postcode": "80-850", "addr:country": "PL", "name": "ALDI Gda\u0144sk - ul. Rajska", "website": "https://www.aldi.pl/informacje-dla-klienta/wyszukiwarka-sklepu/pomorskie/gdansk/ul-rajska-8.html", "brand": "ALDI", "brand:wikidata": "Q41171373", "nsi_id": "aldi-b5be76"}},
{"type": "Feature", "id": "IoRRA60uabxCHySaEfPq8h-Exlw=", "properties": {"ref": "https://www.aldi.pl/informacje-dla-klienta/wyszukiwarka-sklepu/pomorskie/kwidzyn/ul-konopnickiej-12a.html", "@spider": "aldi_nord_pl", "shop": "supermarket", "addr:street_address": "ul. Konopnickiej 12A", "addr:city": "Kwidzyn", "addr:postcode": "82-500", "addr:country": "PL", "name": "ALDI Kwidzyn - ul. Konopnickiej", "website": "https://www.aldi.pl/informacje-dla-klienta/wyszukiwarka-sklepu/pomorskie/kwidzyn/ul-konopnickiej-12a.html", "brand": "ALDI", "brand:wikidata": "Q41171373", "nsi_id": "aldi-b5be76"}},
{"type": "Feature", "id": "rGfnEqt4txTqrxK4s0XBCjpRp4E=", "properties": {"ref": "PL001167", "@spider": "aldi_nord_pl", "shop": "supermarket", "addr:street_address": "ul. Kamrowskiego 2", "addr:city": "Gdynia", "addr:postcode": "81-577", "addr:country": "PL", "name": "ALDI Gdynia - ul. Kamrowskiego", "website": "https://www.aldi.pl/informacje-dla-klienta/wyszukiwarka-sklepu/pomorskie/gdynia/ul-kamrowskiego-2.html", "brand": "ALDI", "brand:wikidata": "Q41171373", "nsi_id": "aldi-b5be76"}},
{"type": "Feature", "id": "osNAOIRlj_SCiCFlU6T_fq6ifYI=", "properties": {"ref": "https://www.aldi.pl/informacje-dla-klienta/wyszukiwarka-sklepu/pomorskie/slupsk/ul-pilsudskiego-76.html", "@spider": "aldi_nord_pl", "shop": "supermarket", "addr:street_address": "ul. Pi\u0142sudskiego 76", "addr:city": "S\u0142upsk", "addr:postcode": "76-200", "addr:country": "PL", "name": "ALDI S\u0142upsk - ul. Pi\u0142sudskiego", "website": "https://www.aldi.pl/informacje-dla-klienta/wyszukiwarka-sklepu/pomorskie/slupsk/ul-pilsudskiego-76.html", "brand": "ALDI", "brand:wikidata": "Q41171373", "nsi_id": "aldi-b5be76"}},
{"type": "Feature", "id": "DsO3uu9QvRHTZIhy6uOHbFzyFVA=", "properties": {"ref": "https://www.aldi.pl/informacje-dla-klienta/wyszukiwarka-sklepu/pomorskie/starogard-gdanski/jana-pawla-ii.html", "@spider": "aldi_nord_pl", "shop": "supermarket", "addr:street_address": "Jana Paw\u0142a II", "addr:city": "Starogard Gda\u0144ski", "addr:postcode": "83-200", "addr:country": "PL", "name": "ALDI Starogard Gda\u0144ski - Jana Paw\u0142a II", "website": "https://www.aldi.pl/informacje-dla-klienta/wyszukiwarka-sklepu/pomorskie/starogard-gdanski/jana-pawla-ii.html", "brand": "ALDI", "brand:wikidata": "Q41171373", "nsi_id": "aldi-b5be76"}},
{"type": "Feature", "id": "amMjg1UX0-pNGgj7gMIRRxkQ0-U=", "properties": {"ref": "https://www.aldi.pl/informacje-dla-klienta/wyszukiwarka-sklepu/pomorskie/kosakowo/ul-g-pomorskiego-1.html", "@spider": "aldi_nord_pl", "shop": "supermarket", "addr:street_address": "ul. G. Pomorskiego 1", "addr:city": "Kosakowo", "addr:postcode": "81-198", "addr:country": "PL", "name": "ALDI Kosakowo - ul. G. Pomorskiego", "website": "https://www.aldi.pl/informacje-dla-klienta/wyszukiwarka-sklepu/pomorskie/kosakowo/ul-g-pomorskiego-1.html", "brand": "ALDI", "brand:wikidata": "Q41171373", "nsi_id": "aldi-b5be76"}},
{"type": "Feature", "id": "6P6l-xzQFqK88zSMmtjJt5S7D-Q=", "properties": {"ref": "https://www.aldi.pl/informacje-dla-klienta/wyszukiwarka-sklepu/pomorskie/sopot/ulica-gen-wladyslawa-sikorskiego-8.html", "@spider": "aldi_nord_pl", "shop": "supermarket", "addr:street_address": "ulica gen. W\u0142adys\u0142awa Sikorskiego 8", "addr:city": "Sopot", "addr:postcode": "81-827", "addr:country": "PL", "name": "ALDI Sopot - ulica gen. W\u0142adys\u0142awa Sikorskiego", "website": "https://www.aldi.pl/informacje-dla-klienta/wyszukiwarka-sklepu/pomorskie/sopot/ulica-gen-wladyslawa-sikorskiego-8.html", "brand": "ALDI", "brand:wikidata": "Q41171373", "nsi_id": "aldi-b5be76"}},
{"type": "Feature", "id": "TxAuQ7cDY_ZJ7keqSJtqx1Z2MJ8=", "properties": {"ref": "https://www.aldi.pl/informacje-dla-klienta/wyszukiwarka-sklepu/pomorskie/reda/ul-obwodowa-21.html", "@spider": "aldi_nord_pl", "shop": "supermarket", "addr:street_address": "ul. Obwodowa 21", "addr:city": "Reda", "addr:postcode": "84-240", "addr:country": "PL", "name": "ALDI Reda - ul. Obwodowa", "website": "https://www.aldi.pl/informacje-dla-klienta/wyszukiwarka-sklepu/pomorskie/reda/ul-obwodowa-21.html", "brand": "ALDI", "brand:wikidata": "Q41171373", "nsi_id": "aldi-b5be76"}},
{"type": "Feature", "id": "cWkhuu91ynpqfZ6r5E5_KGtWFro=", "properties": {"ref": "https://www.aldi.pl/informacje-dla-klienta/wyszukiwarka-sklepu/warminsko-mazurskie/dzialdowo/ul-hallera-30.html", "@spider": "aldi_nord_pl", "shop": "supermarket", "addr:street_address": "ul. Hallera 30", "addr:city": "Dzia\u0142dowo", "addr:postcode": "13-200", "addr:country": "PL", "name": "ALDI Dzia\u0142dowo - ul. Hallera", "website": "https://www.aldi.pl/informacje-dla-klienta/wyszukiwarka-sklepu/warminsko-mazurskie/dzialdowo/ul-hallera-30.html", "brand": "ALDI", "brand:wikidata": "Q41171373", "nsi_id": "aldi-b5be76"}},
{"type": "Feature", "id": "HxPlhvJFLrrWZDgX10YlaVhGXhU=", "properties": {"ref": "https://www.aldi.pl/informacje-dla-klienta/wyszukiwarka-sklepu/warminsko-mazurskie/morag/ul-kruszewnia-1.html", "@spider": "aldi_nord_pl", "shop": "supermarket", "addr:street_address": "ul. Kruszewnia 1", "addr:city": "Mor\u0105g", "addr:postcode": "14-300", "addr:country": "PL", "name": "ALDI Mor\u0105g - ul. Kruszewnia", "website": "https://www.aldi.pl/informacje-dla-klienta/wyszukiwarka-sklepu/warminsko-mazurskie/morag/ul-kruszewnia-1.html", "brand": "ALDI", "brand:wikidata": "Q41171373", "nsi_id": "aldi-b5be76"}},
{"type": "Feature", "id": "Q0deHDwl1O8YDgotLVRN0WNXFPQ=", "properties": {"ref": "https://www.aldi.pl/informacje-dla-klienta/wyszukiwarka-sklepu/warminsko-mazurskie/ostroda/ul-jana-iii-sobieskiego-11a.html", "@spider": "aldi_nord_pl", "shop": "supermarket", "addr:street_address": "ul. Jana III Sobieskiego 11a", "addr:city": "Ostr\u00f3da", "addr:postcode": "14-100", "addr:country": "PL", "name": "ALDI Ostr\u00f3da - ul. Jana III Sobieskiego", "website": "https://www.aldi.pl/informacje-dla-klienta/wyszukiwarka-sklepu/warminsko-mazurskie/ostroda/ul-jana-iii-sobieskiego-11a.html", "brand": "ALDI", "brand:wikidata": "Q41171373", "nsi_id": "aldi-b5be76"}},
{"type": "Feature", "id": "EBJhZkn_9koI5RzIRXZxjwRXyIo=", "properties": {"ref": "https://www.aldi.pl/informacje-dla-klienta/wyszukiwarka-sklepu/warminsko-mazurskie/elblag/ul-fromborska-29.html", "@spider": "aldi_nord_pl", "shop": "supermarket", "addr:street_address": "ul. Fromborska 29", "addr:city": "Elbl\u0105g", "addr:postcode": "82-300", "addr:country": "PL", "name": "ALDI Elbl\u0105g - ul. Fromborska", "website": "https://www.aldi.pl/informacje-dla-klienta/wyszukiwarka-sklepu/warminsko-mazurskie/elblag/ul-fromborska-29.html", "brand": "ALDI", "brand:wikidata": "Q41171373", "nsi_id": "aldi-b5be76"}},
{"type": "Feature", "id": "sUJ0lBbwmfCLRx6m646I0nUyufw=", "properties": {"ref": "https://www.aldi.pl/informacje-dla-klienta/wyszukiwarka-sklepu/warminsko-mazurskie/elblag/ul-robotnicza-134.html", "@spider": "aldi_nord_pl", "shop": "supermarket", "addr:street_address": "ul. Robotnicza 134", "addr:city": "Elbl\u0105g", "addr:postcode": "82-300", "addr:country": "PL", "name": "ALDI Elbl\u0105g - ul. Robotnicza", "website": "https://www.aldi.pl/informacje-dla-klienta/wyszukiwarka-sklepu/warminsko-mazurskie/elblag/ul-robotnicza-134.html", "brand": "ALDI", "brand:wikidata": "Q41171373", "nsi_id": "aldi-b5be76"}},
{"type": "Feature", "id": "T-dr1_dW1iUswMSK6RpLi6IlipA=", "properties": {"ref": "https://www.aldi.pl/informacje-dla-klienta/wyszukiwarka-sklepu/podlaskie/lomza/ul-zawadzka-29.html", "@spider": "aldi_nord_pl", "shop": "supermarket", "addr:street_address": "ul. Zawadzka 29", "addr:city": "\u0141om\u017ca", "addr:postcode": "18-400", "addr:country": "PL", "name": "ALDI \u0141om\u017ca - ul. Zawadzka", "website": "https://www.aldi.pl/informacje-dla-klienta/wyszukiwarka-sklepu/podlaskie/lomza/ul-zawadzka-29.html", "brand": "ALDI", "brand:wikidata": "Q41171373", "nsi_id": "aldi-b5be76"}},
{"type": "Feature", "id": "lF3PVvf6L1tdJs3IL4IOatUOYDc=", "properties": {"ref": "https://www.aldi.pl/informacje-dla-klienta/wyszukiwarka-sklepu/podlaskie/grajewo/ul-9-ego-pulku-strzelcow-konnych-2.html", "@spider": "aldi_nord_pl", "shop": "supermarket", "addr:street_address": "ul. 9-ego Pu\u0142ku Strzelc\u00f3w Konnych 2", "addr:city": "Grajewo", "addr:postcode": "19-200", "addr:country": "PL", "name": "ALDI Grajewo - ul. 9-ego Pu\u0142ku Strzelc\u00f3w Konnych", "website": "https://www.aldi.pl/informacje-dla-klienta/wyszukiwarka-sklepu/podlaskie/grajewo/ul-9-ego-pulku-strzelcow-konnych-2.html", "brand": "ALDI", "brand:wikidata": "Q41171373", "nsi_id": "aldi-b5be76"}},
{"type": "Feature", "id": "n1J6oClSB2lI9n7TSFA1ACKXTas=", "properties": {"ref": "PL001037", "@spider": "aldi_nord_pl", "shop": "supermarket", "addr:street_address": "ul. Piastowska 3", "addr:city": "Ruda \u015al\u0105ska", "addr:postcode": "41-700", "addr:country": "PL", "name": "ALDI Ruda \u015al\u0105ska - ul. Piastowska", "website": "https://www.aldi.pl/informacje-dla-klienta/wyszukiwarka-sklepu/slaskie/ruda-slaska/ul-piastowska-3.html", "brand": "ALDI", "brand:wikidata": "Q41171373", "nsi_id": "aldi-b5be76"}},
{"type": "Feature", "id": "i4llYl2UwgsJbGza0HS_dPtMFMg=", "properties": {"ref": "https://www.aldi.pl/informacje-dla-klienta/wyszukiwarka-sklepu/slaskie/mikolow/wyzwolenia-7.html", "@spider": "aldi_nord_pl", "shop": "supermarket", "addr:street_address": "Wyzwolenia 7", "addr:city": "Miko\u0142\u00f3w", "addr:postcode": "43-190", "addr:country": "PL", "name": "ALDI Miko\u0142\u00f3w - Wyzwolenia", "website": "https://www.aldi.pl/informacje-dla-klienta/wyszukiwarka-sklepu/slaskie/mikolow/wyzwolenia-7.html", "brand": "ALDI", "brand:wikidata": "Q41171373", "nsi_id": "aldi-b5be76"}},
{"type": "Feature", "id": "xJdj9cJL5dHed-uoRZ62cUnij-Q=", "properties": {"ref": "PL001058", "@spider": "aldi_nord_pl", "shop": "supermarket", "addr:street_address": "ul. \u017beromskiego 4a", "addr:city": "\u017bywiec", "addr:postcode": "34-300", "addr:country": "PL", "name": "ALDI \u017bywiec - ul. \u017beromskiego", "website": "https://www.aldi.pl/informacje-dla-klienta/wyszukiwarka-sklepu/slaskie/zywiec/ul-zeromskiego-4a.html", "brand": "ALDI", "brand:wikidata": "Q41171373", "nsi_id": "aldi-b5be76"}},
{"type": "Feature", "id": "49m33rTLjDysI07V38f42PHmONQ=", "properties": {"ref": "PL001059", "@spider": "aldi_nord_pl", "shop": "supermarket", "addr:street_address": "ul. \u0141agiewnicka 70", "addr:city": "\u015awi\u0119toch\u0142owice", "addr:postcode": "41-608", "addr:country": "PL", "name": "ALDI \u015awi\u0119toch\u0142owice - ul. \u0141agiewnicka", "website": "https://www.aldi.pl/informacje-dla-klienta/wyszukiwarka-sklepu/slaskie/swietochlowice/ul-lagiewnicka-70.html", "brand": "ALDI", "brand:wikidata": "Q41171373", "nsi_id": "aldi-b5be76"}},
{"type": "Feature", "id": "gbQnn8Kl9KEXKncBoZ_O8XPdRCw=", "properties": {"ref": "PL001076", "@spider": "aldi_nord_pl", "shop": "supermarket", "addr:street_address": "ul. Przybylaka 2", "addr:city": "D\u0105browa G\u00f3rnicza", "addr:postcode": "41-300", "addr:country": "PL", "name": "ALDI D\u0105browa G\u00f3rnicza - ul. Przybylaka", "website": "https://www.aldi.pl/informacje-dla-klienta/wyszukiwarka-sklepu/slaskie/dabrowa-gornicza/ul-przybylaka-2.html", "brand": "ALDI", "brand:wikidata": "Q41171373", "nsi_id": "aldi-b5be76"}},
{"type": "Feature", "id": "JoMz6OFS67B9qhxsTEHlgWxSwbE=", "properties": {"ref": "PL001034", "@spider": "aldi_nord_pl", "shop": "supermarket", "addr:street_address": "ul. Grunwaldzka 9", "addr:city": "Kutno", "addr:postcode": "99-300", "addr:country": "PL", "name": "ALDI Kutno - ul. Grunwaldzka", "website": "https://www.aldi.pl/informacje-dla-klienta/wyszukiwarka-sklepu/lodzkie/kutno/ul-grunwaldzka-9.html", "brand": "ALDI", "brand:wikidata": "Q41171373", "nsi_id": "aldi-b5be76"}},
{"type": "Feature", "id": "p9Fb5GArSfTv1DDBOWhTMwAFLQM=", "properties": {"ref": "PL001133", "@spider": "aldi_nord_pl", "shop": "supermarket", "addr:street_address": "ul. prym. Stefana Wyszy\u0144skiego 14", "addr:city": "Radomsko", "addr:postcode": "97-500", "addr:country": "PL", "name": "ALDI Radomsko - ul. prym. Stefana Wyszy\u0144skiego", "website": "https://www.aldi.pl/informacje-dla-klienta/wyszukiwarka-sklepu/lodzkie/radomsko/ul-prym-stefana-wyszynskiego-14.html", "brand": "ALDI", "brand:wikidata": "Q41171373", "nsi_id": "aldi-b5be76"}},
{"type": "Feature", "id": "oXm7oDbI9jqIt4HIZpsEN5-r8V8=", "properties": {"ref": "PL001015", "@spider": "aldi_nord_pl", "shop": "supermarket", "addr:street_address": "ul. gen. W\u0142adys\u0142awa Sikorskiego 5", "addr:city": "Piotrk\u00f3w Trybunalski", "addr:postcode": "97-300", "addr:country": "PL", "name": "ALDI Piotrk\u00f3w Trybunalski - ul. gen. W\u0142adys\u0142awa Sikorskiego", "website": "https://www.aldi.pl/informacje-dla-klienta/wyszukiwarka-sklepu/lodzkie/piotrkow-trybunalski/ul-gen-wladyslawa-sikorskiego-5.html", "brand": "ALDI", "brand:wikidata": "Q41171373", "nsi_id": "aldi-b5be76"}},
{"type": "Feature", "id": "eew7qRORuJPHB1AVN1xtJiK8x78=", "properties": {"ref": "PL001016", "@spider": "aldi_nord_pl", "shop": "supermarket", "addr:street_address": "ul. Wolborska 6a", "addr:city": "Piotrk\u00f3w Trybunalski", "addr:postcode": "97-300", "addr:country": "PL", "name": "ALDI Piotrk\u00f3w Trybunalski - ul. Wolborska", "website": "https://www.aldi.pl/informacje-dla-klienta/wyszukiwarka-sklepu/lodzkie/piotrkow-trybunalski/ul-wolborska-6a.html", "brand": "ALDI", "brand:wikidata": "Q41171373", "nsi_id": "aldi-b5be76"}},
{"type": "Feature", "id": "xTgVfk3Bbi4M2BNI7kEBfnlyYbs=", "properties": {"ref": "PL001018", "@spider": "aldi_nord_pl", "shop": "supermarket", "addr:street_address": "ul. Wojska Polskiego 80", "addr:city": "Aleksandr\u00f3w \u0141\u00f3dzki", "addr:postcode": "95-070", "addr:country": "PL", "name": "ALDI Aleksandr\u00f3w \u0141\u00f3dzki - ul. Wojska Polskiego", "website": "https://www.aldi.pl/informacje-dla-klienta/wyszukiwarka-sklepu/lodzkie/aleksandrow-lodzki/ul-wojska-polskiego-80.html", "brand": "ALDI", "brand:wikidata": "Q41171373", "nsi_id": "aldi-b5be76"}},
{"type": "Feature", "id": "LxDPFNsgHjOOt_jtzl3JCDF-hzE=", "properties": {"ref": "PL001115", "@spider": "aldi_nord_pl", "shop": "supermarket", "addr:street_address": "ul. \u0141aska 34", "addr:city": "Zdu\u0144ska Wola", "addr:postcode": "98-220", "addr:country": "PL", "name": "ALDI Zdu\u0144ska Wola - ul. \u0141aska", "website": "https://www.aldi.pl/informacje-dla-klienta/wyszukiwarka-sklepu/lodzkie/zdunska-wola/ul-laska-34.html", "brand": "ALDI", "brand:wikidata": "Q41171373", "nsi_id": "aldi-b5be76"}},
{"type": "Feature", "id": "efCR6EWmPnRJwDicRaMu_0pKT8Y=", "properties": {"ref": "PL001129", "@spider": "aldi_nord_pl", "shop": "supermarket", "addr:street_address": "Ul. Rysownicza 52", "addr:city": "\u0141\u00f3d\u017a", "addr:postcode": "91-857", "addr:country": "PL", "name": "ALDI \u0141\u00f3d\u017a - Ul. Rysownicza", "website": "https://www.aldi.pl/informacje-dla-klienta/wyszukiwarka-sklepu/lodzkie/lodz/ul-rysownicza-52.html", "brand": "ALDI", "brand:wikidata": "Q41171373", "nsi_id": "aldi-b5be76"}},
{"type": "Feature", "id": "Ztw_yJJn5cs43rg5fI_ZxrxvC3o=", "properties": {"ref": "PL001091", "@spider": "aldi_nord_pl", "shop": "supermarket", "addr:street_address": "ul. Grabieniec 25", "addr:city": "\u0141\u00f3d\u017a", "addr:postcode": "91-140", "addr:country": "PL", "name": "ALDI \u0141\u00f3d\u017a - ul. Grabieniec", "website": "https://www.aldi.pl/informacje-dla-klienta/wyszukiwarka-sklepu/lodzkie/lodz/ul-grabieniec-25.html", "brand": "ALDI", "brand:wikidata": "Q41171373", "nsi_id": "aldi-b5be76"}},
{"type": "Feature", "id": "drlSC7j3sy3OZPwgvt4HHamsidY=", "properties": {"ref": "PL001079", "@spider": "aldi_nord_pl", "shop": "supermarket", "addr:street_address": "ul. Obywatelska 85", "addr:city": "\u0141\u00f3d\u017a", "addr:postcode": "93-562", "addr:country": "PL", "name": "ALDI \u0141\u00f3d\u017a - ul. Obywatelska", "website": "https://www.aldi.pl/informacje-dla-klienta/wyszukiwarka-sklepu/lodzkie/lodz/ul-obywatelska-85.html", "brand": "ALDI", "brand:wikidata": "Q41171373", "nsi_id": "aldi-b5be76"}},
{"type": "Feature", "id": "no2EPSQIvQ1abo93On2jyWaDptk=", "properties": {"ref": "PL001068", "@spider": "aldi_nord_pl", "shop": "supermarket", "addr:street_address": "ul. Armii Krajowej 47", "addr:city": "\u0141\u00f3d\u017a", "addr:postcode": "94-046", "addr:country": "PL", "name": "ALDI \u0141\u00f3d\u017a - ul. Armii Krajowej", "website": "https://www.aldi.pl/informacje-dla-klienta/wyszukiwarka-sklepu/lodzkie/lodz/ul-armii-krajowej-47.html", "brand": "ALDI", "brand:wikidata": "Q41171373", "nsi_id": "aldi-b5be76"}},
{"type": "Feature", "id": "C5-lHTBZlVc6zP5Xbd7MOX9tsYg=", "properties": {"ref": "PL001081", "@spider": "aldi_nord_pl", "shop": "supermarket", "addr:street_address": "ul. W\u0142\u00f3kniarzy 148", "addr:city": "\u0141\u00f3d\u017a", "addr:postcode": "91-089", "addr:country": "PL", "name": "ALDI \u0141\u00f3d\u017a - ul. W\u0142\u00f3kniarzy", "website": "https://www.aldi.pl/informacje-dla-klienta/wyszukiwarka-sklepu/lodzkie/lodz/ul-wlokniarzy-148.html", "brand": "ALDI", "brand:wikidata": "Q41171373", "nsi_id": "aldi-b5be76"}},
{"type": "Feature", "id": "exQ8QV4AI660md5ev_kPTVBl1XU=", "properties": {"ref": "PL001102", "@spider": "aldi_nord_pl", "shop": "supermarket", "addr:street_address": "ul. Rzgowska 44", "addr:city": "\u0141\u00f3d\u017a", "addr:postcode": "93-172", "addr:country": "PL", "name": "ALDI \u0141\u00f3d\u017a - ul. Rzgowska", "website": "https://www.aldi.pl/informacje-dla-klienta/wyszukiwarka-sklepu/lodzkie/lodz/ul-rzgowska-44.html", "brand": "ALDI", "brand:wikidata": "Q41171373", "nsi_id": "aldi-b5be76"}},
{"type": "Feature", "id": "Y_yAV_EHOCm6Nbct9uiMDpqUWhc=", "properties": {"ref": "PL001064", "@spider": "aldi_nord_pl", "shop": "supermarket", "addr:street_address": "ul. Puszkina 6", "addr:city": "\u0141\u00f3d\u017a", "addr:postcode": "92-516", "addr:country": "PL", "name": "ALDI \u0141\u00f3d\u017a - ul. Puszkina", "website": "https://www.aldi.pl/informacje-dla-klienta/wyszukiwarka-sklepu/lodzkie/lodz/ul-puszkina-6.html", "brand": "ALDI", "brand:wikidata": "Q41171373", "nsi_id": "aldi-b5be76"}}]}