{"type":"FeatureCollection","features":[{"type": "Feature", "id": "NNKXigDneXpHfx3VSoo_HSD16eA=", "properties": {"ref": "LU006084", "@spider": "aldi_nord_lu", "shop": "supermarket", "addr:street_address": "Place des Alli\u00e9s 10", "addr:city": "Differdange", "addr:postcode": "4508", "addr:country": "LU", "name": "ALDI Differdange - Place des Alli\u00e9s", "website": "https://www.aldi.lu/fr/informations/magasins-et-heures-d-ouverture/esch-sur-alzette/differdange/place-des-allies-10.html", "brand": "ALDI", "brand:wikidata": "Q41171373", "nsi_id": "aldi-b5be76"}},
{"type": "Feature", "id": "tge_5lj8kJxxXEDr0CE1ZSk3AZI=", "properties": {"ref": "LU006099", "@spider": "aldi_nord_lu", "shop": "supermarket", "addr:street_address": "route de Bastogne 6", "addr:city": "Pommerloch", "addr:postcode": "9638", "addr:country": "LU", "name": "ALDI Pommerloch - route de Bastogne 6", "website": "https://www.aldi.lu/fr/informations/magasins-et-heures-d-ouverture/wiltz/pommerloch/route-de-bastogne-6.html", "brand": "ALDI", "brand:wikidata": "Q41171373", "nsi_id": "aldi-b5be76"}},
{"type": "Feature", "id": "kROXyZKhfNy3rMmy7g03bXLZIGQ=", "properties": {"ref": "LU006092", "@spider": "aldi_nord_lu", "shop": "supermarket", "addr:street_address": "route de Luxembourg", "addr:city": "Sandweiler", "addr:postcode": "5230", "addr:country": "LU", "name": "ALDI Sandweiler - route de Luxembourg", "website": "https://www.aldi.lu/fr/informations/magasins-et-heures-d-ouverture/luxembourg/sandweiler/route-de-luxembourg.html", "brand": "ALDI", "brand:wikidata": "Q41171373", "nsi_id": "aldi-b5be76"}},
{"type": "Feature", "id": "_nu9BN3wwMICYYaX7RVZypHWMp4=", "properties": {"ref": "LU006096", "@spider": "aldi_nord_lu", "shop": "supermarket", "addr:street_address": "rue de Longwy 36", "addr:city": "Bertrange", "addr:postcode": "8080", "addr:country": "LU", "name": "ALDI Bertrange - rue de Longwy", "website": "https://www.aldi.lu/fr/informations/magasins-et-heures-d-ouverture/luxembourg/bertrange/rue-de-longwy-36.html", "brand": "ALDI", "brand:wikidata": "Q41171373", "nsi_id": "aldi-b5be76"}},
{"type": "Feature", "id": "iLw5kbATPw1YbJYIR9m6s3xfKco=", "properties": {"ref": "LU006085", "@spider": "aldi_nord_lu", "shop": "supermarket", "addr:street_address": "Rue Christophe Plantin 9", "addr:city": "Gasperich", "addr:postcode": "2339", "addr:country": "LU", "name": "ALDI Gasperich - Rue Christophe Plantin", "website": "https://www.aldi.lu/fr/informations/magasins-et-heures-d-ouverture/luxembourg/gasperich/rue-christophe-plantin-9.html", "brand": "ALDI", "brand:wikidata": "Q41171373", "nsi_id": "aldi-b5be76"}},
{"type": "Feature", "id": "YiGj2mjRbATq8AuH8QK7OXhoCBk=", "properties": {"ref": "LU006083", "@spider": "aldi_nord_lu", "shop": "supermarket", "addr:street_address": "Rue de Beggen 233-241", "addr:city": "Luxembourg", "addr:postcode": "1221", "addr:country": "LU", "name": "ALDI Luxembourg - Rue de Beggen", "website": "https://www.aldi.lu/fr/informations/magasins-et-heures-d-ouverture/luxembourg/luxembourg/rue-de-beggen-233-241.html", "brand": "ALDI", "brand:wikidata": "Q41171373", "nsi_id": "aldi-b5be76"}},
{"type": "Feature", "id": "jfnLqZi1nFR-vvaYAI-z8e-T158=", "properties": {"ref": "LU006089", "@spider": "aldi_nord_lu", "shop": "supermarket", "addr:street_address": "Z.I. Um Mierscherbierg 5", "addr:city": "Mersch", "addr:postcode": "7526", "addr:country": "LU", "name": "ALDI Mersch - Z.I. Um Mierscherbierg", "website": "https://www.aldi.lu/fr/informations/magasins-et-heures-d-ouverture/mersch/mersch/z-i-um-mierscherbierg-5.html", "brand": "ALDI", "brand:wikidata": "Q41171373", "nsi_id": "aldi-b5be76"}},
{"type": "Feature", "id": "V1MwbW50x5l0xX4pJQ8KwVFaLJA=", "properties": {"ref": "LU006094", "@spider": "aldi_nord_lu", "shop": "supermarket", "addr:street_address": "zone Industrielle", "addr:city": "Ingeldorf", "addr:postcode": "9099", "addr:country": "LU", "name": "ALDI Ingeldorf - zone Industrielle", "website": "https://www.aldi.lu/fr/informations/magasins-et-heures-d-ouverture/diekirch/ingeldorf/zone-industrielle.html", "brand": "ALDI", "brand:wikidata": "Q41171373", "nsi_id": "aldi-b5be76"}},
{"type": "Feature", "id": "aEbLyuVI3jac5hsYzB0Qje1yBH0=", "properties": {"ref": "LU006088", "@spider": "aldi_nord_lu", "shop": "supermarket", "addr:street_address": "Centre Commercial Mercado-rue Sandkaul", "addr:city": "Wasserbillig", "addr:postcode": "6677", "addr:country": "LU", "name": "ALDI Wasserbillig - Centre Commercial Mercado-rue Sandkaul", "website": "https://www.aldi.lu/fr/informations/magasins-et-heures-d-ouverture/grevenmacher/wasserbillig/centre-commercial-mercado-rue-sandkaul.html", "brand": "ALDI", "brand:wikidata": "Q41171373", "nsi_id": "aldi-b5be76"}},
{"type": "Feature", "id": "vXzONbC7JTMcDJ-GzvL9ZeySCqo=", "properties": {"ref": "LU006095", "@spider": "aldi_nord_lu", "shop": "supermarket", "addr:street_address": "zone Artisanale", "addr:city": "Junglinster", "addr:postcode": "6131", "addr:country": "LU", "name": "ALDI Junglinster - zone Artisanale", "website": "https://www.aldi.lu/fr/informations/magasins-et-heures-d-ouverture/grevenmacher/junglinster/zone-artisanale.html", "brand": "ALDI", "brand:wikidata": "Q41171373", "nsi_id": "aldi-b5be76"}},
{"type": "Feature", "id": "e38WshNQrz4ga_lDKgO0i-RnTcs=", "properties": {"ref": "LU006086", "@spider": "aldi_nord_lu", "shop": "supermarket", "addr:street_address": "Parc d'activit\u00e9 de Capellen 2-4", "addr:city": "Capellen", "addr:postcode": "8310", "addr:country": "LU", "name": "ALDI Capellen - Parc d'activit\u00e9 de Capellen", "website": "https://www.aldi.lu/fr/informations/magasins-et-heures-d-ouverture/capellen/capellen/parc-d-activite-de-capellen-2-4.html", "brand": "ALDI", "brand:wikidata": "Q41171373", "nsi_id": "aldi-b5be76"}},
{"type": "Feature", "id": "tjNfBkdjo2AjoXMThPu7TwiZnqk=", "properties": {"ref": "LU006091", "@spider": "aldi_nord_lu", "shop": "supermarket", "addr:street_address": "av du Luxembourg", "addr:city": "Bascharage", "addr:postcode": "4950", "addr:country": "LU", "name": "ALDI Bascharage - av du Luxembourg", "website": "https://www.aldi.lu/fr/informations/magasins-et-heures-d-ouverture/capellen/bascharage/av-du-luxembourg.html", "brand": "ALDI", "brand:wikidata": "Q41171373", "nsi_id": "aldi-b5be76"}},
{"type": "Feature", "id": "D4KUZbGuogCHar4kWD0k0MMVNDg=", "properties": {"ref": "LU006082", "@spider": "aldi_nord_lu", "shop": "supermarket", "addr:street_address": "Route de Luxembourg 121", "addr:city": "Echternach", "addr:postcode": "6562", "addr:country": "LU", "name": "ALDI Echternach - Route de Luxembourg", "website": "https://www.aldi.lu/fr/informations/magasins-et-heures-d-ouverture/echternach/echternach/route-de-luxembourg-121.html", "brand": "ALDI", "brand:wikidata": "Q41171373", "nsi_id": "aldi-b5be76"}},
{"type": "Feature", "id": "UNEAn7dPrRmwKzcVsrQ4xc62Tbk=", "properties": {"ref": "LU006097", "@spider": "aldi_nord_lu", "shop": "supermarket", "addr:street_address": "Marbuergerstrooss 9", "addr:city": "Marnach", "addr:postcode": "9764", "addr:country": "LU", "name": "ALDI Marnach - Marbuergerstrooss 9", "website": "https://www.aldi.lu/fr/informations/magasins-et-heures-d-ouverture/clervaux/marnach/marbuergerstrooss-9.html", "brand": "ALDI", "brand:wikidata": "Q41171373", "nsi_id": "aldi-b5be76"}},
{"type": "Feature", "id": "Uy7Yi0CaEYZN6vPMr_RxXlpZZU4=", "properties": {"ref": "LU006087", "@spider": "aldi_nord_lu", "shop": "supermarket", "addr:street_address": "Rue de Stavelot", "addr:city": "Huldange", "addr:postcode": "9964", "addr:country": "LU", "name": "ALDI Huldange - Rue de Stavelot", "website": "https://www.aldi.lu/fr/informations/magasins-et-heures-d-ouverture/clervaux/huldange/rue-de-stavelot.html", "brand": "ALDI", "brand:wikidata": "Q41171373", "nsi_id": "aldi-b5be76"}},
{"type": "Feature", "id": "8khbgWqrBJUtLWF7cFq3x6_gKZ0=", "properties": {"ref": "LU006090", "@spider": "aldi_nord_lu", "shop": "supermarket", "addr:street_address": "route du Luxembourg", "addr:city": "Dudelange", "addr:postcode": "3515", "addr:country": "LU", "name": "ALDI Dudelange - route du Luxembourg", "website": "https://www.aldi.lu/fr/informations/magasins-et-heures-d-ouverture/esch-sur-alzette/dudelange/route-du-luxembourg.html", "brand": "ALDI", "brand:wikidata": "Q41171373", "nsi_id": "aldi-b5be76"}},
{"type": "Feature", "id": "Nuwdd3qy6RuIRpa0lCx4cis0T7U=", "properties": {"ref": "LU006093", "@spider": "aldi_nord_lu", "shop": "supermarket", "addr:street_address": "Porte de France 7a", "addr:city": "Belval", "addr:postcode": "4360", "addr:country": "LU", "name": "ALDI Belval - Porte de France", "website": "https://www.aldi.lu/fr/informations/magasins-et-heures-d-ouverture/esch-sur-alzette/belval/porte-de-france-7a.html", "brand": "ALDI", "brand:wikidata": "Q41171373", "nsi_id": "aldi-b5be76"}},
{"type": "Feature", "id": "F-UvbFCF2yOdmE--c32Zxg8mufk=", "properties": {"ref": "LU006098", "@spider": "aldi_nord_lu", "shop": "supermarket", "addr:street_address": "Rue du Brill - Zone Commerciale", "addr:city": "Foetz", "addr:postcode": "3898", "addr:country": "LU", "name": "ALDI Foetz - Rue du Brill - Zone Commerciale", "website": "https://www.aldi.lu/fr/informations/magasins-et-heures-d-ouverture/esch-sur-alzette/foetz/rue-du-brill-zone-commerciale.html", "brand": "ALDI", "brand:wikidata": "Q41171373", "nsi_id": "aldi-b5be76"}}]}