{"type":"FeatureCollection","features":[{"type": "Feature", "id": "1OAEMmVUWeyByGR5ESbKnn7GXlk=", "properties": {"ref": "3187194", "@spider": "aldi_nord_dk", "shop": "supermarket", "addr:street_address": "Birker\u00f8d Kongevej 102", "addr:city": "Birker\u00f8d", "addr:state": "Hovedstaden", "addr:postcode": "3460", "addr:country": "DK", "name": "ALDI", "phone": "+45 70 70 74 17", "opening_hours": "Mo-Su 08:00-21:00", "brand": "ALDI", "brand:wikidata": "Q41171373", "nsi_id": "aldi-b5be76"}, "geometry": {"type": "Point", "coordinates": [12.4338655, 55.8447153]}},
{"type": "Feature", "id": "8LDAuX-JmRVofBKH15j0DJLTqlg=", "properties": {"ref": "3187195", "@spider": "aldi_nord_dk", "shop": "supermarket", "addr:street_address": "Baneskellet 1", "addr:city": "Vedb\u00e6k", "addr:postcode": "2950", "addr:country": "DK", "name": "ALDI", "phone": "+45 70 70 74 17", "opening_hours": "Mo-Su 08:00-20:00", "brand": "ALDI", "brand:wikidata": "Q41171373", "nsi_id": "aldi-b5be76"}, "geometry": {"type": "Point", "coordinates": [12.56286285, 55.85320139]}},
{"type": "Feature", "id": "VXP8raaRl1pRbjwmROsM_tNdrFY=", "properties": {"ref": "3187196", "@spider": "aldi_nord_dk", "shop": "supermarket", "addr:street_address": "Pogebanken 2", "addr:city": "Herf\u00f8lge", "addr:state": "Sj\u00e6lland", "addr:postcode": "4681", "addr:country": "DK", "name": "ALDI", "phone": "+45 70 70 74 17", "opening_hours": "Mo-Su 08:00-21:00", "brand": "ALDI", "brand:wikidata": "Q41171373", "nsi_id": "aldi-b5be76"}, "geometry": {"type": "Point", "coordinates": [12.13634266, 55.40308383]}},
{"type": "Feature", "id": "hyYN2_ztDG0PPEmV4mcMckGvdVk=", "properties": {"ref": "3187197", "@spider": "aldi_nord_dk", "shop": "supermarket", "addr:street_address": "Odensevej 46-48", "addr:city": "Ringe", "addr:state": "Syddanmark", "addr:postcode": "5750", "addr:country": "DK", "name": "ALDI", "phone": "+45 70 70 74 17", "opening_hours": "Mo-Su 08:00-20:00", "brand": "ALDI", "brand:wikidata": "Q41171373", "nsi_id": "aldi-b5be76"}, "geometry": {"type": "Point", "coordinates": [10.4759913, 55.2440781]}},
{"type": "Feature", "id": "ppxo7AucDdmkuMr8tIhLpNXXYyk=", "properties": {"ref": "3187198", "@spider": "aldi_nord_dk", "shop": "supermarket", "addr:street_address": "Hj\u00f8rringvej 56", "addr:city": "N\u00f8rresundby", "addr:state": "Nordjylland", "addr:postcode": "9400", "addr:country": "DK", "name": "ALDI", "phone": "+45 70 70 74 17", "opening_hours": "Mo-Su 08:00-21:00", "brand": "ALDI", "brand:wikidata": "Q41171373", "nsi_id": "aldi-b5be76"}, "geometry": {"type": "Point", "coordinates": [9.94500801, 57.06883994]}},
{"type": "Feature", "id": "0v2qwDHk8SejlNeQF4Hudz5XwBQ=", "properties": {"ref": "3187199", "@spider": "aldi_nord_dk", "shop": "supermarket", "addr:street_address": "Hovedgaden 1b", "addr:city": "Skibby", "addr:state": "Hovedstaden", "addr:postcode": "4050", "addr:country": "DK", "name": "ALDI", "phone": "+45 70 70 74 17", "opening_hours": "Mo-Su 08:00-21:00", "brand": "ALDI", "brand:wikidata": "Q41171373", "nsi_id": "aldi-b5be76"}, "geometry": {"type": "Point", "coordinates": [11.9586535, 55.7580321]}},
{"type": "Feature", "id": "TDDWg4sTDJOLYZEHPkGylIj__1o=", "properties": {"ref": "3187200", "@spider": "aldi_nord_dk", "shop": "supermarket", "addr:street_address": "Vestergade 52", "addr:city": "T\u00f8ll\u00f8se", "addr:state": "Sj\u00e6lland", "addr:postcode": "4340", "addr:country": "DK", "name": "ALDI", "phone": "+45 70 70 74 17", "opening_hours": "Mo-Su 08:00-20:00", "brand": "ALDI", "brand:wikidata": "Q41171373", "nsi_id": "aldi-b5be76"}, "geometry": {"type": "Point", "coordinates": [11.76445414, 55.61220648]}},
{"type": "Feature", "id": "ouI0_YaJjnSSFXfeKdaesm5QO3w=", "properties": {"ref": "3187201", "@spider": "aldi_nord_dk", "shop": "supermarket", "addr:street_address": "Herningvej 52", "addr:city": "Holstebro", "addr:state": "Midtjylland", "addr:postcode": "7500", "addr:country": "DK", "name": "ALDI", "phone": "+45 70 70 74 17", "opening_hours": "Mo-Su 08:00-20:00", "brand": "ALDI", "brand:wikidata": "Q41171373", "nsi_id": "aldi-b5be76"}, "geometry": {"type": "Point", "coordinates": [8.6250665, 56.3492649]}},
{"type": "Feature", "id": "RTo56cqAnV3kvrVjVtIA15T0qNs=", "properties": {"ref": "3187202", "@spider": "aldi_nord_dk", "shop": "supermarket", "addr:street_address": "T\u00f8ndervej 5", "addr:city": "Aabenraa", "addr:state": "Syddanmark", "addr:postcode": "6200", "addr:country": "DK", "name": "ALDI", "phone": "+45 70 70 74 17", "opening_hours": "Mo-Su 08:00-20:00", "brand": "ALDI", "brand:wikidata": "Q41171373", "nsi_id": "aldi-b5be76"}, "geometry": {"type": "Point", "coordinates": [9.4173992, 55.034495]}},
{"type": "Feature", "id": "DxpfCgepdi0M-nR_s2IzN6VsIJs=", "properties": {"ref": "3187203", "@spider": "aldi_nord_dk", "shop": "supermarket", "addr:street_address": "Rug\u00e5rdsvej 455", "addr:city": "Odense", "addr:state": "Syddanmark", "addr:postcode": "5210", "addr:country": "DK", "name": "ALDI", "phone": "+45 70 70 74 17", "opening_hours": "Mo-Su 08:00-20:00", "brand": "ALDI", "brand:wikidata": "Q41171373", "nsi_id": "aldi-b5be76"}, "geometry": {"type": "Point", "coordinates": [10.27415013, 55.42053897]}},
{"type": "Feature", "id": "zuzLWRQSw8ONGoqCrdnS5Y9mDe4=", "properties": {"ref": "3187204", "@spider": "aldi_nord_dk", "shop": "supermarket", "addr:street_address": "Apotekergade 2", "addr:city": "N\u00f8rre Alslev", "addr:state": "Sj\u00e6lland", "addr:postcode": "4840", "addr:country": "DK", "name": "ALDI", "phone": "+45 70 70 74 17", "opening_hours": "Mo-Su 08:00-20:00", "brand": "ALDI", "brand:wikidata": "Q41171373", "nsi_id": "aldi-b5be76"}, "geometry": {"type": "Point", "coordinates": [11.87754086, 54.89910006]}},
{"type": "Feature", "id": "wdfj2kuLup1VXEbuIdM1ANM6tUg=", "properties": {"ref": "3187205", "@spider": "aldi_nord_dk", "shop": "supermarket", "addr:street_address": "Chr. Xs Vej 12", "addr:city": "Skagen", "addr:state": "Nordjylland", "addr:postcode": "9990", "addr:country": "DK", "name": "ALDI", "phone": "+45 70 70 74 17", "opening_hours": "Mo-Su 08:00-20:00", "brand": "ALDI", "brand:wikidata": "Q41171373", "nsi_id": "aldi-b5be76"}, "geometry": {"type": "Point", "coordinates": [10.58893346, 57.72372952]}},
{"type": "Feature", "id": "850IZPgOiSErk3Pp5wmu3gMZWsA=", "properties": {"ref": "3187206", "@spider": "aldi_nord_dk", "shop": "supermarket", "addr:street_address": "Nordbyvej 4", "addr:city": "Viby", "addr:state": "Midtjylland", "addr:postcode": "8260", "addr:country": "DK", "name": "ALDI", "phone": "+45 70 70 74 17", "opening_hours": "Mo-Su 08:00-21:00", "brand": "ALDI", "brand:wikidata": "Q41171373", "nsi_id": "aldi-b5be76"}, "geometry": {"type": "Point", "coordinates": [10.1602917, 56.1274748]}},
{"type": "Feature", "id": "hHpjQJt7iSKFWXisOa8RyJP9Qsk=", "properties": {"ref": "3187207", "@spider": "aldi_nord_dk", "shop": "supermarket", "addr:street_address": "Paludan-M\u00fcllers Vej 26", "addr:city": "Aarhus", "addr:state": "Midtjylland", "addr:postcode": "8200", "addr:country": "DK", "name": "ALDI", "phone": "+45 70 70 74 17", "opening_hours": "Mo-Su 08:00-21:00", "brand": "ALDI", "brand:wikidata": "Q41171373", "nsi_id": "aldi-b5be76"}, "geometry": {"type": "Point", "coordinates": [10.1908807, 56.16848725]}},
{"type": "Feature", "id": "C7gDKicroNjrq2fzHvCGLmvBX8o=", "properties": {"ref": "3187208", "@spider": "aldi_nord_dk", "shop": "supermarket", "addr:street_address": "Gr\u00f8nl\u00f8kkevej 7", "addr:city": "Odense C", "addr:state": "Syddanmark", "addr:postcode": "5000", "addr:country": "DK", "name": "ALDI", "phone": "+45 70 70 74 17", "opening_hours": "Mo-Su 08:00-20:00", "brand": "ALDI", "brand:wikidata": "Q41171373", "nsi_id": "aldi-b5be76"}, "geometry": {"type": "Point", "coordinates": [10.36567991, 55.3938706]}},
{"type": "Feature", "id": "sZTTtV6KSkkGO_D4mpwUBdTaCv4=", "properties": {"ref": "3187209", "@spider": "aldi_nord_dk", "shop": "supermarket", "addr:street_address": "Borgmester N.E. Hansensvej 3", "addr:city": "Holb\u00e6k", "addr:state": "Sj\u00e6lland", "addr:postcode": "4300", "addr:country": "DK", "name": "ALDI", "phone": "+45 70 70 74 17", "opening_hours": "Mo-Su 08:00-21:00", "brand": "ALDI", "brand:wikidata": "Q41171373", "nsi_id": "aldi-b5be76"}, "geometry": {"type": "Point", "coordinates": [11.71756704, 55.71377968]}},
{"type": "Feature", "id": "pk1KyBYUKlGqrCHHSx_-N24uiNk=", "properties": {"ref": "3187210", "@spider": "aldi_nord_dk", "shop": "supermarket", "addr:street_address": "Over B\u00f8lgen 35", "addr:city": "Greve", "addr:state": "Sj\u00e6lland", "addr:postcode": "2670", "addr:country": "DK", "name": "ALDI", "phone": "+45 70 70 74 17", "opening_hours": "Mo-Su 08:00-20:00", "brand": "ALDI", "brand:wikidata": "Q41171373", "nsi_id": "aldi-b5be76"}, "geometry": {"type": "Point", "coordinates": [12.32835863, 55.59811395]}},
{"type": "Feature", "id": "JHVJHy-XhfeLCOqFR6mBw80FY9I=", "properties": {"ref": "3187211", "@spider": "aldi_nord_dk", "shop": "supermarket", "addr:street_address": "Strandby Kirkevej 88", "addr:city": "Esbjerg", "addr:state": "Syddanmark", "addr:postcode": "6705", "addr:country": "DK", "name": "ALDI", "phone": "+45 70 70 74 17", "opening_hours": "Mo-Su 08:00-21:00", "brand": "ALDI", "brand:wikidata": "Q41171373", "nsi_id": "aldi-b5be76"}, "geometry": {"type": "Point", "coordinates": [8.4784864, 55.479075]}},
{"type": "Feature", "id": "DoubXL0l73xVPYsiAyrlNnRi9Cw=", "properties": {"ref": "3187212", "@spider": "aldi_nord_dk", "shop": "supermarket", "addr:street_address": "Bakkenborgvej 2b", "addr:city": "Sk\u00e6lsk\u00f8r", "addr:postcode": "4230", "addr:country": "DK", "name": "ALDI", "phone": "+45 70 70 74 17", "opening_hours": "Mo-Su 08:00-21:00", "brand": "ALDI", "brand:wikidata": "Q41171373", "nsi_id": "aldi-b5be76"}, "geometry": {"type": "Point", "coordinates": [11.29618526, 55.25362834]}},
{"type": "Feature", "id": "kHTTeqk5p_8TOVWIt3L26NAgFSA=", "properties": {"ref": "3187213", "@spider": "aldi_nord_dk", "shop": "supermarket", "addr:street_address": "Baltorpvej 22", "addr:city": "Ballerup", "addr:state": "Hovedstaden", "addr:postcode": "2750", "addr:country": "DK", "name": "ALDI", "phone": "+45 70 70 74 17", "opening_hours": "Mo-Su 08:00-21:00", "brand": "ALDI", "brand:wikidata": "Q41171373", "nsi_id": "aldi-b5be76"}, "geometry": {"type": "Point", "coordinates": [12.3499507, 55.7294886]}},
{"type": "Feature", "id": "RdFpmJTzzGahEy8SZdyLLSKq6x4=", "properties": {"ref": "3187214", "@spider": "aldi_nord_dk", "shop": "supermarket", "addr:street_address": "Strandvejen 18", "addr:city": "Hundested", "addr:state": "Hovedstaden", "addr:postcode": "3390", "addr:country": "DK", "name": "ALDI", "phone": "+45 70 70 74 17", "opening_hours": "Mo-Su 08:00-20:00", "brand": "ALDI", "brand:wikidata": "Q41171373", "nsi_id": "aldi-b5be76"}, "geometry": {"type": "Point", "coordinates": [11.84870496, 55.96403082]}},
{"type": "Feature", "id": "5Qi3tRyd3LKtzm9F8vqHSkT1xM4=", "properties": {"ref": "3187215", "@spider": "aldi_nord_dk", "shop": "supermarket", "addr:street_address": "Sundvej 109", "addr:city": "Horsens", "addr:state": "Midtjylland", "addr:postcode": "8700", "addr:country": "DK", "name": "ALDI", "phone": "+45 70 70 74 17", "opening_hours": "Mo-Su 08:00-21:00", "brand": "ALDI", "brand:wikidata": "Q41171373", "nsi_id": "aldi-b5be76"}, "geometry": {"type": "Point", "coordinates": [9.8831616, 55.8679255]}},
{"type": "Feature", "id": "gX4o6ECwjsIhtX4XEG8_soZUeV8=", "properties": {"ref": "3187216", "@spider": "aldi_nord_dk", "shop": "supermarket", "addr:street_address": "Vestervangsvej 12", "addr:city": "Viborg", "addr:postcode": "8800", "addr:country": "DK", "name": "ALDI", "phone": "+45 70 70 74 17", "opening_hours": "Mo-Su 08:00-20:00", "brand": "ALDI", "brand:wikidata": "Q41171373", "nsi_id": "aldi-b5be76"}, "geometry": {"type": "Point", "coordinates": [9.3945405, 56.4594678]}},
{"type": "Feature", "id": "ciezHJJenGd3OChBbsTBWIXQAsw=", "properties": {"ref": "3187217", "@spider": "aldi_nord_dk", "shop": "supermarket", "addr:street_address": "Carit Etlars Vej 1", "addr:city": "\u00c5byh\u00f8j", "addr:state": "Midtjylland", "addr:postcode": "8230", "addr:country": "DK", "name": "ALDI", "phone": "+45 70 70 74 17", "opening_hours": "Mo-Su 08:00-21:00", "brand": "ALDI", "brand:wikidata": "Q41171373", "nsi_id": "aldi-b5be76"}, "geometry": {"type": "Point", "coordinates": [10.15922232, 56.15516445]}},
{"type": "Feature", "id": "srrQkk01K5zELWAu_1kPsJsEZMY=", "properties": {"ref": "3187218", "@spider": "aldi_nord_dk", "shop": "supermarket", "addr:street_address": "Egebjergvej 1", "addr:city": "Nyk\u00f8bing Sj\u00e6lland", "addr:state": "Sj\u00e6lland", "addr:postcode": "4500", "addr:country": "DK", "name": "ALDI", "phone": "+45 70 70 74 17", "opening_hours": "Mo-Su 08:00-20:00", "brand": "ALDI", "brand:wikidata": "Q41171373", "nsi_id": "aldi-b5be76"}, "geometry": {"type": "Point", "coordinates": [11.67162583, 55.91922845]}},
{"type": "Feature", "id": "L35ATnmGizMOIm0sABEmbVeypzw=", "properties": {"ref": "3187219", "@spider": "aldi_nord_dk", "shop": "supermarket", "addr:street_address": "R\u00e5dhuscentret 19", "addr:city": "Vojens", "addr:state": "Syddanmark", "addr:postcode": "6500", "addr:country": "DK", "name": "ALDI", "phone": "+45 70 70 74 17", "opening_hours": "Mo-Su 08:00-21:00", "brand": "ALDI", "brand:wikidata": "Q41171373", "nsi_id": "aldi-b5be76"}, "geometry": {"type": "Point", "coordinates": [9.29117114, 55.24510284]}},
{"type": "Feature", "id": "6Wx9kxNKlXSTUPGkVEwc9TAuWuc=", "properties": {"ref": "3187220", "@spider": "aldi_nord_dk", "shop": "supermarket", "addr:street_address": "\u00d8stergade 58", "addr:city": "R\u00f8dby", "addr:state": "Sj\u00e6lland", "addr:postcode": "4970", "addr:country": "DK", "name": "ALDI", "phone": "+45 70 70 74 17", "opening_hours": "Mo-Su 08:00-20:00", "brand": "ALDI", "brand:wikidata": "Q41171373", "nsi_id": "aldi-b5be76"}, "geometry": {"type": "Point", "coordinates": [11.3944144, 54.6951914]}},
{"type": "Feature", "id": "QbPbpHDBy-Tz4xB4-vdEhxSfTiE=", "properties": {"ref": "3187221", "@spider": "aldi_nord_dk", "shop": "supermarket", "addr:street_address": "\u00d8stergade 1", "addr:city": "Toftlund", "addr:state": "Syddanmark", "addr:postcode": "6520", "addr:country": "DK", "name": "ALDI", "phone": "+45 70 70 74 17", "opening_hours": "Mo-Su 08:00-20:00", "brand": "ALDI", "brand:wikidata": "Q41171373", "nsi_id": "aldi-b5be76"}, "geometry": {"type": "Point", "coordinates": [9.0643342, 55.19290299]}},
{"type": "Feature", "id": "8b7PY7Nb71-IU9pePuWiAGGrK1I=", "properties": {"ref": "3187222", "@spider": "aldi_nord_dk", "shop": "supermarket", "addr:street_address": "H\u00f8jvang Centret 2", "addr:city": "Skanderborg", "addr:state": "Midtjylland", "addr:postcode": "8660", "addr:country": "DK", "name": "ALDI", "phone": "+45 70 70 74 17", "opening_hours": "Mo-Su 08:00-20:00", "brand": "ALDI", "brand:wikidata": "Q41171373", "nsi_id": "aldi-b5be76"}, "geometry": {"type": "Point", "coordinates": [9.9485528, 56.0441452]}},
{"type": "Feature", "id": "7sVwUpOoqDIPLgt0XsNWtz7cABk=", "properties": {"ref": "3187223", "@spider": "aldi_nord_dk", "shop": "supermarket", "addr:street_address": "Jyllandsgade 6", "addr:city": "Vejle", "addr:state": "Syddanmark", "addr:postcode": "7100", "addr:country": "DK", "name": "ALDI", "phone": "+45 70 70 74 17", "opening_hours": "Mo-Su 08:00-21:00", "brand": "ALDI", "brand:wikidata": "Q41171373", "nsi_id": "aldi-b5be76"}, "geometry": {"type": "Point", "coordinates": [9.5388272, 55.7065864]}},
{"type": "Feature", "id": "9GMvTdontBsCkpKVjsl3Zw0c9PU=", "properties": {"ref": "3187225", "@spider": "aldi_nord_dk", "shop": "supermarket", "addr:street_address": "T\u00e5rnborgvej 22", "addr:city": "Kors\u00f8r", "addr:state": "Sj\u00e6lland", "addr:postcode": "4220", "addr:country": "DK", "name": "ALDI", "phone": "+45 70 70 74 17", "opening_hours": "Mo-Su 08:00-20:00", "brand": "ALDI", "brand:wikidata": "Q41171373", "nsi_id": "aldi-b5be76"}, "geometry": {"type": "Point", "coordinates": [11.1416838, 55.3342227]}},
{"type": "Feature", "id": "gD9XqBpotCNngGaTNyw_BYIJZ_o=", "properties": {"ref": "3187226", "@spider": "aldi_nord_dk", "shop": "supermarket", "addr:street_address": "Bredgade 132A", "addr:city": "Skjern", "addr:postcode": "6900", "addr:country": "DK", "name": "ALDI", "phone": "+45 70 70 74 17", "opening_hours": "Mo-Su 08:00-20:00", "brand": "ALDI", "brand:wikidata": "Q41171373", "nsi_id": "aldi-b5be76"}, "geometry": {"type": "Point", "coordinates": [8.4880633, 55.9532567]}},
{"type": "Feature", "id": "wOoOCVHsIaXOSc4XSAPL9aBrgnI=", "properties": {"ref": "3187227", "@spider": "aldi_nord_dk", "shop": "supermarket", "addr:street_address": "Hjallesevej 140", "addr:city": "Odense", "addr:state": "Syddanmark", "addr:postcode": "5230", "addr:country": "DK", "name": "ALDI", "phone": "+45 70 70 74 17", "opening_hours": "Mo-Su 08:00-21:00", "brand": "ALDI", "brand:wikidata": "Q41171373", "nsi_id": "aldi-b5be76"}, "geometry": {"type": "Point", "coordinates": [10.39689956, 55.37961705]}},
{"type": "Feature", "id": "SyS1TC1xsk3gTQK8qHKZ-jfajFE=", "properties": {"ref": "3187228", "@spider": "aldi_nord_dk", "shop": "supermarket", "addr:street_address": "Storegade 53", "addr:city": "Bramming", "addr:state": "Syddanmark", "addr:postcode": "6740", "addr:country": "DK", "name": "ALDI", "phone": "+45 70 70 74 17", "opening_hours": "Mo-Su 08:00-20:00", "brand": "ALDI", "brand:wikidata": "Q41171373", "nsi_id": "aldi-b5be76"}, "geometry": {"type": "Point", "coordinates": [8.696764, 55.4654265]}},
{"type": "Feature", "id": "h5Irxq3ZZdrjX7bujDTAfwz9duc=", "properties": {"ref": "3187229", "@spider": "aldi_nord_dk", "shop": "supermarket", "addr:street_address": "\u00d8stervangsvej 1B", "addr:city": "Esbjerg", "addr:state": "Syddanmark", "addr:postcode": "6715", "addr:country": "DK", "name": "ALDI", "phone": "+45 70 70 74 17", "opening_hours": "Mo-Su 08:00-20:00", "brand": "ALDI", "brand:wikidata": "Q41171373", "nsi_id": "aldi-b5be76"}, "geometry": {"type": "Point", "coordinates": [8.4530378, 55.5011189]}},
{"type": "Feature", "id": "3MbdD3P7nmu24-tddgzWmSxluV4=", "properties": {"ref": "3187230", "@spider": "aldi_nord_dk", "shop": "supermarket", "addr:street_address": "Taastrup Hovedgade 109-111", "addr:city": "Taastrup", "addr:state": "Hovedstaden", "addr:postcode": "2630", "addr:country": "DK", "name": "ALDI", "phone": "+45 70 70 74 17", "opening_hours": "Mo-Su 08:00-21:00", "brand": "ALDI", "brand:wikidata": "Q41171373", "nsi_id": "aldi-b5be76"}, "geometry": {"type": "Point", "coordinates": [12.29989375, 55.64776311]}},
{"type": "Feature", "id": "kJrHLLGaqaCyvTSRlXW-qz0w17M=", "properties": {"ref": "3187231", "@spider": "aldi_nord_dk", "shop": "supermarket", "addr:street_address": "Slotsherrens V\u00e6nge 3B", "addr:city": "R\u00f8dovre", "addr:state": "Hovedstaden", "addr:postcode": "2610", "addr:country": "DK", "name": "ALDI", "phone": "+45 70 70 74 17", "opening_hours": "Mo-Su 08:00-21:00", "brand": "ALDI", "brand:wikidata": "Q41171373", "nsi_id": "aldi-b5be76"}, "geometry": {"type": "Point", "coordinates": [12.46017597, 55.70090027]}},
{"type": "Feature", "id": "F42lLpYdEdBXRyCcXz6jsva21T4=", "properties": {"ref": "3187232", "@spider": "aldi_nord_dk", "shop": "supermarket", "addr:street_address": "Broparken 2", "addr:city": "Hadsund", "addr:state": "Nordjylland", "addr:postcode": "9560", "addr:country": "DK", "name": "ALDI", "phone": "+45 70 70 74 17", "opening_hours": "Mo-Su 08:00-21:00", "brand": "ALDI", "brand:wikidata": "Q41171373", "nsi_id": "aldi-b5be76"}, "geometry": {"type": "Point", "coordinates": [10.11636037, 56.71575234]}},
{"type": "Feature", "id": "85-x6wKT_-YpzNEaNuryIIs_0dQ=", "properties": {"ref": "3187233", "@spider": "aldi_nord_dk", "shop": "supermarket", "addr:street_address": "\u00d8lbycenter 3", "addr:city": "K\u00f8ge", "addr:state": "Sj\u00e6lland", "addr:postcode": "4600", "addr:country": "DK", "name": "ALDI", "phone": "+45 70 70 74 17", "opening_hours": "Mo-Su 08:00-20:00", "brand": "ALDI", "brand:wikidata": "Q41171373", "nsi_id": "aldi-b5be76"}, "geometry": {"type": "Point", "coordinates": [12.17564911, 55.47930686]}},
{"type": "Feature", "id": "Sc9GubHtUMiNhGX7S5e5TNPt4Ys=", "properties": {"ref": "3187234", "@spider": "aldi_nord_dk", "shop": "supermarket", "addr:street_address": "Dannebrogsgade 58", "addr:city": "Aalborg", "addr:postcode": "9000", "addr:country": "DK", "name": "ALDI", "phone": "+45 70 70 74 17", "opening_hours": "Mo-Su 08:00-22:00", "brand": "ALDI", "brand:wikidata": "Q41171373", "nsi_id": "aldi-b5be76"}, "geometry": {"type": "Point", "coordinates": [9.9056829, 57.0537685]}},
{"type": "Feature", "id": "xKek8pGv5QFKZJQ6nDFPDarEkiE=", "properties": {"ref": "3187235", "@spider": "aldi_nord_dk", "shop": "supermarket", "addr:street_address": "Bolbrovej 60-62", "addr:city": "Rungsted Kyst", "addr:state": "Hovedstaden", "addr:postcode": "2960", "addr:country": "DK", "name": "ALDI", "phone": "+45 70 70 74 17", "opening_hours": "Mo-Su 08:00-21:00", "brand": "ALDI", "brand:wikidata": "Q41171373", "nsi_id": "aldi-b5be76"}, "geometry": {"type": "Point", "coordinates": [12.526225, 55.8910778]}},
{"type": "Feature", "id": "RdJkB5gjda_F_rAkTLXxTUo6aqU=", "properties": {"ref": "3187236", "@spider": "aldi_nord_dk", "shop": "supermarket", "addr:street_address": "Nyg\u00e5rds Plads 1A", "addr:city": "Br\u00f8ndby", "addr:state": "Hovedstaden", "addr:postcode": "2605", "addr:country": "DK", "name": "ALDI", "phone": "+45 70 70 74 17", "opening_hours": "Mo-Su 08:00-21:00", "brand": "ALDI", "brand:wikidata": "Q41171373", "nsi_id": "aldi-b5be76"}, "geometry": {"type": "Point", "coordinates": [12.43864913, 55.66558944]}},
{"type": "Feature", "id": "rb41yrgHyaZG4xkkrgLD_Z1glcc=", "properties": {"ref": "3187237", "@spider": "aldi_nord_dk", "shop": "supermarket", "addr:street_address": "Skous Gade 7", "addr:city": "Lemvig", "addr:state": "Midtjylland", "addr:postcode": "7620", "addr:country": "DK", "name": "ALDI", "phone": "+45 70 70 74 17", "opening_hours": "Mo-Su 08:00-20:00", "brand": "ALDI", "brand:wikidata": "Q41171373", "nsi_id": "aldi-b5be76"}, "geometry": {"type": "Point", "coordinates": [8.3099301, 56.5515107]}},
{"type": "Feature", "id": "Gz7Pf-ykypDDfAoWtXzBsR-PrJ0=", "properties": {"ref": "3187238", "@spider": "aldi_nord_dk", "shop": "supermarket", "addr:street_address": "Vestergade 2", "addr:city": "Aabybro", "addr:state": "Nordjylland", "addr:postcode": "9440", "addr:country": "DK", "name": "ALDI", "phone": "+45 70 70 74 17", "opening_hours": "Mo-Su 08:00-21:00", "brand": "ALDI", "brand:wikidata": "Q41171373", "nsi_id": "aldi-b5be76"}, "geometry": {"type": "Point", "coordinates": [9.73039245, 57.16321032]}},
{"type": "Feature", "id": "2xzTl7WMKOQ4oyNs1KFcZWUGnQQ=", "properties": {"ref": "3187239", "@spider": "aldi_nord_dk", "shop": "supermarket", "addr:street_address": "Messinavej 2", "addr:city": "K\u00f8benhavn S", "addr:postcode": "2300", "addr:country": "DK", "name": "ALDI", "phone": "+45 70 70 74 17", "opening_hours": "Mo-Su 08:00-21:00", "brand": "ALDI", "brand:wikidata": "Q41171373", "nsi_id": "aldi-b5be76"}, "geometry": {"type": "Point", "coordinates": [12.62042488, 55.66110336]}},
{"type": "Feature", "id": "OglSfOX64qjAPYBHlcuoyUmXHnc=", "properties": {"ref": "3187240", "@spider": "aldi_nord_dk", "shop": "supermarket", "addr:street_address": "Egelundsvej 1", "addr:city": "Albertslund", "addr:state": "Hovedstaden", "addr:postcode": "2620", "addr:country": "DK", "name": "ALDI", "phone": "+45 70 70 74 17", "opening_hours": "Mo-Su 08:00-21:00", "brand": "ALDI", "brand:wikidata": "Q41171373", "nsi_id": "aldi-b5be76"}, "geometry": {"type": "Point", "coordinates": [12.3341515, 55.6612937]}},
{"type": "Feature", "id": "BY0tAhB0ll7nxxUBC-w6tO71gkw=", "properties": {"ref": "3187241", "@spider": "aldi_nord_dk", "shop": "supermarket", "addr:street_address": "Laust Kristensens Plads 1", "addr:city": "Herning", "addr:postcode": "7400", "addr:country": "DK", "name": "ALDI", "phone": "+45 70 70 74 17", "opening_hours": "Mo-Su 08:00-20:00", "brand": "ALDI", "brand:wikidata": "Q41171373", "nsi_id": "aldi-b5be76"}, "geometry": {"type": "Point", "coordinates": [8.979603303150583, 56.11112063414894]}},
{"type": "Feature", "id": "BuNDuSKj3230X_Bh_D4ntKiYvC8=", "properties": {"ref": "3187242", "@spider": "aldi_nord_dk", "shop": "supermarket", "addr:street_address": "\u00d8stergade 38", "addr:city": "Br\u00f8nderslev", "addr:state": "Nordjylland", "addr:postcode": "9700", "addr:country": "DK", "name": "ALDI", "phone": "+45 70 70 74 17", "opening_hours": "Mo-Su 08:00-20:00", "brand": "ALDI", "brand:wikidata": "Q41171373", "nsi_id": "aldi-b5be76"}, "geometry": {"type": "Point", "coordinates": [9.94775296, 57.26498137]}},
{"type": "Feature", "id": "99u61XetrDvxbGU5JUkCpIUSC1Y=", "properties": {"ref": "3187243", "@spider": "aldi_nord_dk", "shop": "supermarket", "addr:street_address": "Guldager Skolevej 5", "addr:city": "Esbjerg", "addr:state": "Syddanmark", "addr:postcode": "6710", "addr:country": "DK", "name": "ALDI", "phone": "+45 70 70 74 17", "opening_hours": "Mo-Su 08:00-20:00", "brand": "ALDI", "brand:wikidata": "Q41171373", "nsi_id": "aldi-b5be76"}, "geometry": {"type": "Point", "coordinates": [8.4122912, 55.53067786]}},
{"type": "Feature", "id": "DobsI47yg1Rl_AzZM-4p7Xo9mP0=", "properties": {"ref": "3187244", "@spider": "aldi_nord_dk", "shop": "supermarket", "addr:street_address": "Havnbjerg Center 17", "addr:city": "Nordborg", "addr:state": "Syddanmark", "addr:postcode": "6430", "addr:country": "DK", "name": "ALDI", "phone": "+45 70 70 74 17", "opening_hours": "Mo-Su 08:00-20:00", "brand": "ALDI", "brand:wikidata": "Q41171373", "nsi_id": "aldi-b5be76"}, "geometry": {"type": "Point", "coordinates": [9.7925448, 55.0404093]}},
{"type": "Feature", "id": "euNtI01Q35O5OugzMHWd37KnpZ4=", "properties": {"ref": "3187245", "@spider": "aldi_nord_dk", "shop": "supermarket", "addr:street_address": "Parallelvej 65", "addr:city": "Hvide Sande", "addr:state": "Midtjylland", "addr:postcode": "6960", "addr:country": "DK", "name": "ALDI", "phone": "+45 70 70 74 17", "opening_hours": "Mo-Su 08:00-20:00", "brand": "ALDI", "brand:wikidata": "Q41171373", "nsi_id": "aldi-b5be76"}, "geometry": {"type": "Point", "coordinates": [8.12617339, 56.01559384]}},
{"type": "Feature", "id": "QMi5IrjQnLSPPg73wlFI-yFXASU=", "properties": {"ref": "3187246", "@spider": "aldi_nord_dk", "shop": "supermarket", "addr:street_address": "Esterh\u00f8jvej 63", "addr:city": "Asn\u00e6s", "addr:state": "Sj\u00e6lland", "addr:postcode": "4550", "addr:country": "DK", "name": "ALDI", "phone": "+45 70 70 74 17", "opening_hours": "Mo-Su 08:00-20:00", "brand": "ALDI", "brand:wikidata": "Q41171373", "nsi_id": "aldi-b5be76"}, "geometry": {"type": "Point", "coordinates": [11.4951895, 55.8196786]}},
{"type": "Feature", "id": "uIfvIMH-hf5xg4m3HYAVEgkcNIw=", "properties": {"ref": "3187247", "@spider": "aldi_nord_dk", "shop": "supermarket", "addr:street_address": "Stationstorvet 3-9", "addr:city": "Albertslund", "addr:state": "Hovedstaden", "addr:postcode": "2620", "addr:country": "DK", "name": "ALDI", "phone": "+45 70 70 74 17", "opening_hours": "Mo-Su 08:00-21:00", "brand": "ALDI", "brand:wikidata": "Q41171373", "nsi_id": "aldi-b5be76"}, "geometry": {"type": "Point", "coordinates": [12.3537605, 55.6575432]}},
{"type": "Feature", "id": "oNkUKfTeFOltEDXNfh-QMLNHhcQ=", "properties": {"ref": "3187248", "@spider": "aldi_nord_dk", "shop": "supermarket", "addr:street_address": "Holstebrovej 76C", "addr:city": "Skive", "addr:state": "Midtjylland", "addr:postcode": "7800", "addr:country": "DK", "name": "ALDI", "phone": "+45 70 70 74 17", "opening_hours": "Mo-Su 08:00-20:00", "brand": "ALDI", "brand:wikidata": "Q41171373", "nsi_id": "aldi-b5be76"}, "geometry": {"type": "Point", "coordinates": [9.004175, 56.5702479]}},
{"type": "Feature", "id": "TK_ihCI2-Gk4SWGkvh2bAwPfllI=", "properties": {"ref": "3187249", "@spider": "aldi_nord_dk", "shop": "supermarket", "addr:street_address": "Viaduktvej 7-9", "addr:city": "N\u00f8rresundby", "addr:state": "Nordjylland", "addr:postcode": "9400", "addr:country": "DK", "name": "ALDI", "phone": "+45 70 70 74 17", "opening_hours": "Mo-Su 08:00-21:00", "brand": "ALDI", "brand:wikidata": "Q41171373", "nsi_id": "aldi-b5be76"}, "geometry": {"type": "Point", "coordinates": [9.905611, 57.070068]}},
{"type": "Feature", "id": "_91cf45Vd2V04ttVxI0_XR6A2xk=", "properties": {"ref": "3187250", "@spider": "aldi_nord_dk", "shop": "supermarket", "addr:street_address": "Ravns\u00f8vej 15B", "addr:city": "Risskov", "addr:state": "Midtjylland", "addr:postcode": "8240", "addr:country": "DK", "name": "ALDI", "phone": "+45 70 70 74 17", "opening_hours": "Mo-Su 08:00-21:00", "brand": "ALDI", "brand:wikidata": "Q41171373", "nsi_id": "aldi-b5be76"}, "geometry": {"type": "Point", "coordinates": [10.24710492, 56.20244662]}},
{"type": "Feature", "id": "7CtoK0cH-TbjajQgAoGbNmbp1DE=", "properties": {"ref": "3187251", "@spider": "aldi_nord_dk", "shop": "supermarket", "addr:street_address": "Sct J\u00f8rgensbjerg 46", "addr:city": "Kalundborg", "addr:state": "Sj\u00e6lland", "addr:postcode": "4400", "addr:country": "DK", "name": "ALDI", "phone": "+45 70 70 74 17", "opening_hours": "Mo-Su 08:00-20:00", "brand": "ALDI", "brand:wikidata": "Q41171373", "nsi_id": "aldi-b5be76"}, "geometry": {"type": "Point", "coordinates": [11.1023293, 55.68068144]}},
{"type": "Feature", "id": "7K4ELiaFD4p8as64eTzDaD92hyY=", "properties": {"ref": "3187252", "@spider": "aldi_nord_dk", "shop": "supermarket", "addr:street_address": "Skolev\u00e6nget 30", "addr:city": "Ringk\u00f8bing", "addr:state": "Midtjylland", "addr:postcode": "6950", "addr:country": "DK", "name": "ALDI", "phone": "+45 70 70 74 17", "opening_hours": "Mo-Su 08:00-20:00", "brand": "ALDI", "brand:wikidata": "Q41171373", "nsi_id": "aldi-b5be76"}, "geometry": {"type": "Point", "coordinates": [8.24321111, 56.09302473]}},
{"type": "Feature", "id": "mfS-3aYdbzyoKRGx4htwCJzVAXE=", "properties": {"ref": "3187253", "@spider": "aldi_nord_dk", "shop": "supermarket", "addr:street_address": "Gr\u00f8nneg\u00e5rden 7", "addr:city": "Rudk\u00f8bing", "addr:state": "Syddanmark", "addr:postcode": "5900", "addr:country": "DK", "name": "ALDI", "phone": "+45 70 70 74 17", "opening_hours": "Mo-Su 08:00-21:00", "brand": "ALDI", "brand:wikidata": "Q41171373", "nsi_id": "aldi-b5be76"}, "geometry": {"type": "Point", "coordinates": [10.7121475, 54.9366702]}},
{"type": "Feature", "id": "7nhY1XI7GnvaZg1Vd6NqWUfbNxM=", "properties": {"ref": "3187254", "@spider": "aldi_nord_dk", "shop": "supermarket", "addr:street_address": "Rejsbygade 8", "addr:city": "K\u00f8benhavn", "addr:state": "Hovedstaden", "addr:postcode": "1759", "addr:country": "DK", "name": "ALDI", "phone": "+45 70 70 74 17", "opening_hours": "Mo-Su 08:00-21:00", "brand": "ALDI", "brand:wikidata": "Q41171373", "nsi_id": "aldi-b5be76"}, "geometry": {"type": "Point", "coordinates": [12.54338685, 55.66882378]}},
{"type": "Feature", "id": "kTOtTHsy4yu7KmT12WItvR3gcno=", "properties": {"ref": "3187255", "@spider": "aldi_nord_dk", "shop": "supermarket", "addr:street_address": "Simons Bakke 70-74", "addr:city": "Thisted", "addr:state": "Nordjylland", "addr:postcode": "7700", "addr:country": "DK", "name": "ALDI", "phone": "+45 70 70 74 17", "opening_hours": "Mo-Su 08:00-21:00", "brand": "ALDI", "brand:wikidata": "Q41171373", "nsi_id": "aldi-b5be76"}, "geometry": {"type": "Point", "coordinates": [8.66297955, 56.94937989]}},
{"type": "Feature", "id": "94e0JcfTPWOE_p5yC9xLwcjsCJg=", "properties": {"ref": "3187256", "@spider": "aldi_nord_dk", "shop": "supermarket", "addr:street_address": "S\u00f8nderskovvej 4", "addr:city": "Lystrup", "addr:state": "Midtjylland", "addr:postcode": "8520", "addr:country": "DK", "name": "ALDI", "phone": "+45 70 70 74 17", "opening_hours": "Mo-Su 08:00-20:00", "brand": "ALDI", "brand:wikidata": "Q41171373", "nsi_id": "aldi-b5be76"}, "geometry": {"type": "Point", "coordinates": [10.23736958, 56.22997622]}},
{"type": "Feature", "id": "4bj4ugf22JYDHErs4owaIAuRwxE=", "properties": {"ref": "3187257", "@spider": "aldi_nord_dk", "shop": "supermarket", "addr:street_address": "Viborgvej 16A", "addr:city": "Silkeborg", "addr:state": "Midtjylland", "addr:postcode": "8600", "addr:country": "DK", "name": "ALDI", "phone": "+45 70 70 74 17", "opening_hours": "Mo-Su 08:00-20:00", "brand": "ALDI", "brand:wikidata": "Q41171373", "nsi_id": "aldi-b5be76"}, "geometry": {"type": "Point", "coordinates": [9.5435202, 56.1856309]}},
{"type": "Feature", "id": "Oa9Q1qNoFf4gJHtXdnHHd6LXxOs=", "properties": {"ref": "3187258", "@spider": "aldi_nord_dk", "shop": "supermarket", "addr:street_address": "Nordre Ringgade 24", "addr:city": "Slagelse", "addr:state": "Sj\u00e6lland", "addr:postcode": "4200", "addr:country": "DK", "name": "ALDI", "phone": "+45 70 70 74 17", "opening_hours": "Mo-Su 08:00-21:00", "brand": "ALDI", "brand:wikidata": "Q41171373", "nsi_id": "aldi-b5be76"}, "geometry": {"type": "Point", "coordinates": [11.35248687, 55.41347763]}},
{"type": "Feature", "id": "Bv4QKSIhz19BKNr2m4-HH7XpP2o=", "properties": {"ref": "3187259", "@spider": "aldi_nord_dk", "shop": "supermarket", "addr:street_address": "Rengegade 31", "addr:city": "Store Heddinge", "addr:state": "Sj\u00e6lland", "addr:postcode": "4660", "addr:country": "DK", "name": "ALDI", "phone": "+45 70 70 74 17", "opening_hours": "Mo-Su 08:00-20:00", "brand": "ALDI", "brand:wikidata": "Q41171373", "nsi_id": "aldi-b5be76"}, "geometry": {"type": "Point", "coordinates": [12.3906636, 55.3053824]}},
{"type": "Feature", "id": "o14ARko2CyT_qzGfPXHhV26SxUw=", "properties": {"ref": "3187260", "@spider": "aldi_nord_dk", "shop": "supermarket", "addr:street_address": "S\u00f8borg Hovedgade 47", "addr:city": "S\u00f8borg", "addr:state": "Hovedstaden", "addr:postcode": "2860", "addr:country": "DK", "name": "ALDI", "phone": "+45 70 70 74 17", "opening_hours": "Mo-Su 08:00-20:00", "brand": "ALDI", "brand:wikidata": "Q41171373", "nsi_id": "aldi-b5be76"}, "geometry": {"type": "Point", "coordinates": [12.51849283, 55.73184224]}},
{"type": "Feature", "id": "Jy2q0ofN02WZ59VIChBkjEH3qlA=", "properties": {"ref": "3187261", "@spider": "aldi_nord_dk", "shop": "supermarket", "addr:street_address": "Chr Bergsvej 2", "addr:city": "Brande", "addr:state": "Midtjylland", "addr:postcode": "7330", "addr:country": "DK", "name": "ALDI", "phone": "+45 70 70 74 17", "opening_hours": "Mo-Su 08:00-20:00", "brand": "ALDI", "brand:wikidata": "Q41171373", "nsi_id": "aldi-b5be76"}, "geometry": {"type": "Point", "coordinates": [9.1364814, 55.9381068]}},
{"type": "Feature", "id": "bi74qilGJVL--Yt6m6lDX6541mw=", "properties": {"ref": "3187262", "@spider": "aldi_nord_dk", "shop": "supermarket", "addr:street_address": "Hovedgaden 102", "addr:city": "Tinglev", "addr:state": "Syddanmark", "addr:postcode": "6360", "addr:country": "DK", "name": "ALDI", "phone": "+45 70 70 74 17", "opening_hours": "Mo-Su 08:00-20:00", "brand": "ALDI", "brand:wikidata": "Q41171373", "nsi_id": "aldi-b5be76"}, "geometry": {"type": "Point", "coordinates": [9.2422824, 54.9335757]}},
{"type": "Feature", "id": "Kq5ZdEqKbQU1BvhtcKOcOyfawmw=", "properties": {"ref": "3187263", "@spider": "aldi_nord_dk", "shop": "supermarket", "addr:street_address": "Centervej 39", "addr:city": "H\u00f8ng", "addr:state": "Sj\u00e6lland", "addr:postcode": "4270", "addr:country": "DK", "name": "ALDI", "phone": "+45 70 70 74 17", "opening_hours": "Mo-Su 08:00-20:00", "brand": "ALDI", "brand:wikidata": "Q41171373", "nsi_id": "aldi-b5be76"}, "geometry": {"type": "Point", "coordinates": [11.2884806, 55.5048851]}},
{"type": "Feature", "id": "IoMs7B12r25fYyx_9A-PvfUKarE=", "properties": {"ref": "3187264", "@spider": "aldi_nord_dk", "shop": "supermarket", "addr:street_address": "Bjarkesvej 1", "addr:city": "Liller\u00f8d", "addr:state": "Hovedstaden", "addr:postcode": "3450", "addr:country": "DK", "name": "ALDI", "phone": "+45 70 70 74 17", "opening_hours": "Mo-Su 08:00-21:00", "brand": "ALDI", "brand:wikidata": "Q41171373", "nsi_id": "aldi-b5be76"}, "geometry": {"type": "Point", "coordinates": [12.32944338, 55.86618923]}},
{"type": "Feature", "id": "j4HtupPyPOV1Wur8Wr4g45TZ3os=", "properties": {"ref": "3187265", "@spider": "aldi_nord_dk", "shop": "supermarket", "addr:street_address": "Midtergade 23", "addr:city": "Hals", "addr:state": "Nordjylland", "addr:postcode": "9370", "addr:country": "DK", "name": "ALDI", "phone": "+45 70 70 74 17", "opening_hours": "Mo-Su 08:00-21:00", "brand": "ALDI", "brand:wikidata": "Q41171373", "nsi_id": "aldi-b5be76"}, "geometry": {"type": "Point", "coordinates": [10.30708141, 56.99803318]}},
{"type": "Feature", "id": "CuPvj6XewrhoLUXtbxl_sSqAaoc=", "properties": {"ref": "3187266", "@spider": "aldi_nord_dk", "shop": "supermarket", "addr:street_address": "Kastrupvej 50", "addr:city": "K\u00f8benhavn S", "addr:state": "Hovedstaden", "addr:postcode": "2300", "addr:country": "DK", "name": "ALDI", "phone": "+45 70 70 74 17", "opening_hours": "Mo-Su 08:00-21:00", "brand": "ALDI", "brand:wikidata": "Q41171373", "nsi_id": "aldi-b5be76"}, "geometry": {"type": "Point", "coordinates": [12.6169627, 55.6557559]}},
{"type": "Feature", "id": "KvmH8bQ6x24uEL2GuH3R0NeoSVw=", "properties": {"ref": "3187267", "@spider": "aldi_nord_dk", "shop": "supermarket", "addr:street_address": "S\u00f8ndergade 10", "addr:city": "Gren\u00e5", "addr:state": "Midtjylland", "addr:postcode": "8500", "addr:country": "DK", "name": "ALDI", "phone": "+45 70 70 74 17", "opening_hours": "Mo-Su 08:00-21:00", "brand": "ALDI", "brand:wikidata": "Q41171373", "nsi_id": "aldi-b5be76"}, "geometry": {"type": "Point", "coordinates": [10.8747327, 56.41146021]}},
{"type": "Feature", "id": "3-Xpaf59A5jrRmpx9TqjyOOYomA=", "properties": {"ref": "3187269", "@spider": "aldi_nord_dk", "shop": "supermarket", "addr:street_address": "Frilandsvej 100", "addr:city": "Hj\u00f8rring", "addr:state": "Nordjylland", "addr:postcode": "9800", "addr:country": "DK", "name": "ALDI", "phone": "+45 70 70 74 17", "opening_hours": "Mo-Su 08:00-20:00", "brand": "ALDI", "brand:wikidata": "Q41171373", "nsi_id": "aldi-b5be76"}, "geometry": {"type": "Point", "coordinates": [10.008948, 57.4495963]}},
{"type": "Feature", "id": "AmcpO0Y6tlRUxYS83RUudeaNKOY=", "properties": {"ref": "3187270", "@spider": "aldi_nord_dk", "shop": "supermarket", "addr:street_address": "Parkvej 3", "addr:city": "Fjerritslev", "addr:state": "Nordjylland", "addr:postcode": "9690", "addr:country": "DK", "name": "ALDI", "phone": "+45 70 70 74 17", "opening_hours": "Mo-Su 08:00-20:00", "brand": "ALDI", "brand:wikidata": "Q41171373", "nsi_id": "aldi-b5be76"}, "geometry": {"type": "Point", "coordinates": [9.2680279, 57.0864218]}},
{"type": "Feature", "id": "zKwy3AuOicV0Q8qGRxyQKLUjpaE=", "properties": {"ref": "3187271", "@spider": "aldi_nord_dk", "shop": "supermarket", "addr:street_address": "R\u00e5dhuspladsen 1D", "addr:city": "Aarhus", "addr:state": "Midtjylland", "addr:postcode": "8000", "addr:country": "DK", "name": "ALDI", "phone": "+45 70 70 74 17", "opening_hours": "Mo-Su 08:00-22:00", "brand": "ALDI", "brand:wikidata": "Q41171373", "nsi_id": "aldi-b5be76"}, "geometry": {"type": "Point", "coordinates": [10.2032827, 56.15337597]}},
{"type": "Feature", "id": "GqbIV-jxmR3fXW7KVqKxI8tgEgU=", "properties": {"ref": "3187272", "@spider": "aldi_nord_dk", "shop": "supermarket", "addr:street_address": "Snorresvej 40", "addr:city": "Odense NV", "addr:state": "Syddanmark", "addr:postcode": "5210", "addr:country": "DK", "name": "ALDI", "phone": "+45 70 70 74 17", "opening_hours": "Mo-Su 08:00-20:00", "brand": "ALDI", "brand:wikidata": "Q41171373", "nsi_id": "aldi-b5be76"}, "geometry": {"type": "Point", "coordinates": [10.3406732, 55.4044882]}},
{"type": "Feature", "id": "vGFMo2FibZcbBLDss4vqLFt1Z3I=", "properties": {"ref": "3187273", "@spider": "aldi_nord_dk", "shop": "supermarket", "addr:street_address": "Hovedvejen 140", "addr:city": "Glostrup", "addr:state": "Hovedstaden", "addr:postcode": "2600", "addr:country": "DK", "name": "ALDI", "phone": "+45 70 70 74 17", "opening_hours": "Mo-Su 08:00-21:00", "brand": "ALDI", "brand:wikidata": "Q41171373", "nsi_id": "aldi-b5be76"}, "geometry": {"type": "Point", "coordinates": [12.3917625, 55.6658533]}},
{"type": "Feature", "id": "5F2PbOLKUr8DFEhOhmBIp4GjuK4=", "properties": {"ref": "3187274", "@spider": "aldi_nord_dk", "shop": "supermarket", "addr:street_address": "Nyk\u00f8bingvej 45", "addr:city": "Saksk\u00f8bing", "addr:state": "Sj\u00e6lland", "addr:postcode": "4990", "addr:country": "DK", "name": "ALDI", "phone": "+45 70 70 74 17", "opening_hours": "Mo-Su 08:00-21:00", "brand": "ALDI", "brand:wikidata": "Q41171373", "nsi_id": "aldi-b5be76"}, "geometry": {"type": "Point", "coordinates": [11.6442445, 54.8017162]}},
{"type": "Feature", "id": "2XOA1Ssnn--Sf7TUrFxBKfT1iiM=", "properties": {"ref": "3187275", "@spider": "aldi_nord_dk", "shop": "supermarket", "addr:street_address": "Baneg\u00e5rdsgade 14", "addr:city": "Odder", "addr:state": "Midtjylland", "addr:postcode": "8300", "addr:country": "DK", "name": "ALDI", "phone": "+45 70 70 74 17", "brand": "ALDI", "brand:wikidata": "Q41171373", "nsi_id": "aldi-b5be76"}, "geometry": {"type": "Point", "coordinates": [10.14901574, 55.97083169]}},
{"type": "Feature", "id": "H-XiUYZD1PpEtFRY9kNtHfH9QQw=", "properties": {"ref": "3187276", "@spider": "aldi_nord_dk", "shop": "supermarket", "addr:street_address": "Bymosevej 9B", "addr:city": "Helsinge", "addr:state": "Hovedstaden", "addr:postcode": "3200", "addr:country": "DK", "name": "ALDI", "phone": "+45 70 70 74 17", "opening_hours": "Mo-Su 08:00-21:00", "brand": "ALDI", "brand:wikidata": "Q41171373", "nsi_id": "aldi-b5be76"}, "geometry": {"type": "Point", "coordinates": [12.19848667, 56.01500852]}},
{"type": "Feature", "id": "f5PAOoOcSNdfGqlpFKQxou_Rhwg=", "properties": {"ref": "3187277", "@spider": "aldi_nord_dk", "shop": "supermarket", "addr:street_address": "Hjortsvangen 29", "addr:city": "Give", "addr:state": "Syddanmark", "addr:postcode": "7323", "addr:country": "DK", "name": "ALDI", "phone": "+45 70 70 74 17", "opening_hours": "Mo-Su 08:00-21:00", "brand": "ALDI", "brand:wikidata": "Q41171373", "nsi_id": "aldi-b5be76"}, "geometry": {"type": "Point", "coordinates": [9.24424097, 55.85446702]}},
{"type": "Feature", "id": "dop1cICKkZUqzQ4bQkasjVMNSkY=", "properties": {"ref": "3187278", "@spider": "aldi_nord_dk", "shop": "supermarket", "addr:street_address": "Vesterbro 63", "addr:city": "Pr\u00e6st\u00f8", "addr:state": "Sj\u00e6lland", "addr:postcode": "4720", "addr:country": "DK", "name": "ALDI", "phone": "+45 70 70 74 17", "opening_hours": "Mo-Su 08:00-20:00", "brand": "ALDI", "brand:wikidata": "Q41171373", "nsi_id": "aldi-b5be76"}, "geometry": {"type": "Point", "coordinates": [12.03471264, 55.12075724]}},
{"type": "Feature", "id": "ur7S3ezhQDxvcaRR1k4UYQ23wF8=", "properties": {"ref": "3187279", "@spider": "aldi_nord_dk", "shop": "supermarket", "addr:street_address": "Grundtvigs Plads 6", "addr:city": "S\u00f8nderborg", "addr:state": "Syddanmark", "addr:postcode": "6400", "addr:country": "DK", "name": "ALDI", "phone": "+45 70 70 74 17", "opening_hours": "Mo-Su 08:00-20:00", "brand": "ALDI", "brand:wikidata": "Q41171373", "nsi_id": "aldi-b5be76"}, "geometry": {"type": "Point", "coordinates": [9.80941041, 54.92129664]}},
{"type": "Feature", "id": "J58SSSsIFZ1Zk5VldiEUhsAEBRE=", "properties": {"ref": "3187280", "@spider": "aldi_nord_dk", "shop": "supermarket", "addr:street_address": "Limfjordsvej 2", "addr:city": "L\u00f8gst\u00f8r", "addr:state": "Nordjylland", "addr:postcode": "9670", "addr:country": "DK", "name": "ALDI", "phone": "+45 70 70 74 17", "opening_hours": "Mo-Su 08:00-21:00", "brand": "ALDI", "brand:wikidata": "Q41171373", "nsi_id": "aldi-b5be76"}, "geometry": {"type": "Point", "coordinates": [9.26613278, 56.9682152]}},
{"type": "Feature", "id": "_pFail2AW6fDJz3Tw0unwOC2k0U=", "properties": {"ref": "3187281", "@spider": "aldi_nord_dk", "shop": "supermarket", "addr:street_address": "Vestergade 115", "addr:city": "Svendborg", "addr:state": "Syddanmark", "addr:postcode": "5700", "addr:country": "DK", "name": "ALDI", "phone": "+45 70 70 74 17", "opening_hours": "Mo-Su 08:00-21:00", "brand": "ALDI", "brand:wikidata": "Q41171373", "nsi_id": "aldi-b5be76"}, "geometry": {"type": "Point", "coordinates": [10.5957455, 55.0625125]}},
{"type": "Feature", "id": "HIi3_tPcBW78AOCpotki9-6wf7E=", "properties": {"ref": "3187282", "@spider": "aldi_nord_dk", "shop": "supermarket", "addr:street_address": "Gammelmosevej 328", "addr:city": "Bagsv\u00e6rd", "addr:state": "Hovedstaden", "addr:postcode": "2880", "addr:country": "DK", "name": "ALDI", "phone": "+45 70 70 74 17", "opening_hours": "Mo-Su 08:00-21:00", "brand": "ALDI", "brand:wikidata": "Q41171373", "nsi_id": "aldi-b5be76"}, "geometry": {"type": "Point", "coordinates": [12.46570118, 55.75567847]}},
{"type": "Feature", "id": "E7xXl4BE1cESHzRXBBMKswmXnF0=", "properties": {"ref": "3187283", "@spider": "aldi_nord_dk", "shop": "supermarket", "addr:street_address": "Idag\u00e5rdsvej 7", "addr:city": "Slagelse", "addr:state": "Sj\u00e6lland", "addr:postcode": "4200", "addr:country": "DK", "name": "ALDI", "phone": "+45 70 70 74 17", "opening_hours": "Mo-Su 08:00-21:00", "brand": "ALDI", "brand:wikidata": "Q41171373", "nsi_id": "aldi-b5be76"}, "geometry": {"type": "Point", "coordinates": [11.342172, 55.3897119]}},
{"type": "Feature", "id": "rIwyCWJRFubDcsyz93LHbvui1yY=", "properties": {"ref": "3187284", "@spider": "aldi_nord_dk", "shop": "supermarket", "addr:street_address": "Mariagervej 78", "addr:city": "Randers", "addr:state": "Midtjylland", "addr:postcode": "8920", "addr:country": "DK", "name": "ALDI", "phone": "+45 70 70 74 17", "opening_hours": "Mo-Su 08:00-21:00", "brand": "ALDI", "brand:wikidata": "Q41171373", "nsi_id": "aldi-b5be76"}, "geometry": {"type": "Point", "coordinates": [10.0311166, 56.47214347]}},
{"type": "Feature", "id": "nfK-jFUCdDme1onTouj8jsuGkWI=", "properties": {"ref": "3187285", "@spider": "aldi_nord_dk", "shop": "supermarket", "addr:street_address": "N\u00f8rre Alle 12", "addr:city": "Assens", "addr:state": "Syddanmark", "addr:postcode": "5610", "addr:country": "DK", "name": "ALDI", "phone": "+45 70 70 74 17", "opening_hours": "Mo-Su 08:00-20:00", "brand": "ALDI", "brand:wikidata": "Q41171373", "nsi_id": "aldi-b5be76"}, "geometry": {"type": "Point", "coordinates": [9.90771783, 55.27387948]}},
{"type": "Feature", "id": "z9eVvc-2poFDi9JARRVOmwmjr0w=", "properties": {"ref": "3187286", "@spider": "aldi_nord_dk", "shop": "supermarket", "addr:street_address": "Lundtofteparken 45", "addr:city": "Kongens Lyngby", "addr:state": "Hovedstaden", "addr:postcode": "2800", "addr:country": "DK", "name": "ALDI", "phone": "+45 70 70 74 17", "opening_hours": "Mo-Su 08:00-21:00", "brand": "ALDI", "brand:wikidata": "Q41171373", "nsi_id": "aldi-b5be76"}, "geometry": {"type": "Point", "coordinates": [12.52720491, 55.7959003]}},
{"type": "Feature", "id": "CyoGE-YK9ElrfWeIHbBTYay0H1I=", "properties": {"ref": "3187287", "@spider": "aldi_nord_dk", "shop": "supermarket", "addr:street_address": "Odensevej 77", "addr:city": "Middelfart", "addr:state": "Syddanmark", "addr:postcode": "5500", "addr:country": "DK", "name": "ALDI", "phone": "+45 70 70 74 17", "opening_hours": "Mo-Su 08:00-20:00", "brand": "ALDI", "brand:wikidata": "Q41171373", "nsi_id": "aldi-b5be76"}, "geometry": {"type": "Point", "coordinates": [9.7486814, 55.50197]}},
{"type": "Feature", "id": "gg9eNeSLke7SSgU1aaD78If-eDA=", "properties": {"ref": "3187288", "@spider": "aldi_nord_dk", "shop": "supermarket", "addr:street_address": "Stovby Ringvej 5", "addr:city": "V\u00e6ggerl\u00f8se", "addr:state": "Sj\u00e6lland", "addr:postcode": "4873", "addr:country": "DK", "name": "ALDI", "phone": "+45 70 70 74 17", "opening_hours": "Mo-Su 08:00-20:00", "brand": "ALDI", "brand:wikidata": "Q41171373", "nsi_id": "aldi-b5be76"}, "geometry": {"type": "Point", "coordinates": [11.965665, 54.7042015]}},
{"type": "Feature", "id": "og4_k7J__s4pYbtAejfq7suqRS8=", "properties": {"ref": "3187289", "@spider": "aldi_nord_dk", "shop": "supermarket", "addr:street_address": "Bryggervangen 4", "addr:city": "Vordingborg", "addr:state": "Sj\u00e6lland", "addr:postcode": "4760", "addr:country": "DK", "name": "ALDI", "phone": "+45 70 70 74 17", "opening_hours": "Mo-Su 08:00-21:00", "brand": "ALDI", "brand:wikidata": "Q41171373", "nsi_id": "aldi-b5be76"}, "geometry": {"type": "Point", "coordinates": [11.91160747, 55.01156933]}},
{"type": "Feature", "id": "W0e4IvQK6qMAd3bk9GTA_etsboY=", "properties": {"ref": "3187290", "@spider": "aldi_nord_dk", "shop": "supermarket", "addr:street_address": "Frederikssundsvej 131-135", "addr:city": "Br\u00f8nsh\u00f8j", "addr:state": "Hovedstaden", "addr:postcode": "2700", "addr:country": "DK", "name": "ALDI", "phone": "+45 70 70 74 17", "opening_hours": "Mo-Su 08:00-21:00", "brand": "ALDI", "brand:wikidata": "Q41171373", "nsi_id": "aldi-b5be76"}, "geometry": {"type": "Point", "coordinates": [12.5066402, 55.70527707]}},
{"type": "Feature", "id": "EITlK-D_xU0kSJ3tAm6MnmZvftk=", "properties": {"ref": "3187291", "@spider": "aldi_nord_dk", "shop": "supermarket", "addr:street_address": "Fredensgade 3", "addr:city": "Hinnerup", "addr:state": "Midtjylland", "addr:postcode": "8382", "addr:country": "DK", "name": "ALDI", "phone": "+45 70 70 74 17", "opening_hours": "Mo-Su 08:00-20:00", "brand": "ALDI", "brand:wikidata": "Q41171373", "nsi_id": "aldi-b5be76"}, "geometry": {"type": "Point", "coordinates": [10.06407516, 56.26450886]}},
{"type": "Feature", "id": "hWUH_QZWvUccKkwxe4D4zk9-Mm8=", "properties": {"ref": "3187292", "@spider": "aldi_nord_dk", "shop": "supermarket", "addr:street_address": "Torvegade 5", "addr:city": "Bjerringbro", "addr:state": "Midtjylland", "addr:postcode": "8850", "addr:country": "DK", "name": "ALDI", "phone": "+45 70 70 74 17", "opening_hours": "Mo-Su 08:00-21:00", "brand": "ALDI", "brand:wikidata": "Q41171373", "nsi_id": "aldi-b5be76"}, "geometry": {"type": "Point", "coordinates": [9.65745788, 56.37572374]}},
{"type": "Feature", "id": "zeyYkKn7tjkN7yXlmfF1jHUGqXI=", "properties": {"ref": "3187293", "@spider": "aldi_nord_dk", "shop": "supermarket", "addr:street_address": "Nyk\u00f8bingvej 42", "addr:city": "Stubbek\u00f8bing", "addr:postcode": "4850", "addr:country": "DK", "name": "ALDI", "phone": "+45 70 70 74 17", "opening_hours": "Mo-Su 08:00-20:00", "brand": "ALDI", "brand:wikidata": "Q41171373", "nsi_id": "aldi-b5be76"}, "geometry": {"type": "Point", "coordinates": [12.0365479, 54.8865392]}},
{"type": "Feature", "id": "jmA5EJioLIW29rgoqWderPpOPiw=", "properties": {"ref": "3187294", "@spider": "aldi_nord_dk", "shop": "supermarket", "addr:street_address": "Hobrovej 56", "addr:city": "St\u00f8vring", "addr:state": "Nordjylland", "addr:postcode": "9530", "addr:country": "DK", "name": "ALDI", "phone": "+45 70 70 74 17", "opening_hours": "Mo-Su 08:00-21:00", "brand": "ALDI", "brand:wikidata": "Q41171373", "nsi_id": "aldi-b5be76"}, "geometry": {"type": "Point", "coordinates": [9.836382, 56.8929991]}},
{"type": "Feature", "id": "crJ2cN6dPif0YFvTa-BS8XF8lTY=", "properties": {"ref": "3187295", "@spider": "aldi_nord_dk", "shop": "supermarket", "addr:street_address": "Lysh\u00f8j Alle 6", "addr:city": "Kolding", "addr:state": "Syddanmark", "addr:postcode": "6000", "addr:country": "DK", "name": "ALDI", "phone": "+45 70 70 74 17", "opening_hours": "Mo-Su 08:00-20:00", "brand": "ALDI", "brand:wikidata": "Q41171373", "nsi_id": "aldi-b5be76"}, "geometry": {"type": "Point", "coordinates": [9.5274434, 55.5020627]}},
{"type": "Feature", "id": "PYUJ2ShuTkadC0CcgFR_hlnyTKU=", "properties": {"ref": "3187296", "@spider": "aldi_nord_dk", "shop": "supermarket", "addr:street_address": "\u00d8stre Ringvej 66", "addr:city": "N\u00e6stved", "addr:state": "Sj\u00e6lland", "addr:postcode": "4700", "addr:country": "DK", "name": "ALDI", "phone": "+45 70 70 74 17", "opening_hours": "Mo-Su 08:00-21:00", "brand": "ALDI", "brand:wikidata": "Q41171373", "nsi_id": "aldi-b5be76"}, "geometry": {"type": "Point", "coordinates": [11.7800014, 55.23908975]}},
{"type": "Feature", "id": "OJRCWhP5dw_xUVftPX0M5-ooTXU=", "properties": {"ref": "3187297", "@spider": "aldi_nord_dk", "shop": "supermarket", "addr:street_address": "Havnegade 8a", "addr:city": "Odense", "addr:state": "Syddanmark", "addr:postcode": "5000", "addr:country": "DK", "name": "ALDI", "phone": "+45 70 70 74 17", "opening_hours": "Mo-Su 07:00-21:00", "brand": "ALDI", "brand:wikidata": "Q41171373", "nsi_id": "aldi-b5be76"}, "geometry": {"type": "Point", "coordinates": [10.38370419, 55.40754089]}},
{"type": "Feature", "id": "dzWenes4Pr4YZ8-VTKq_Vrtn7mU=", "properties": {"ref": "3187298", "@spider": "aldi_nord_dk", "shop": "supermarket", "addr:street_address": "M\u00f8llebakken 1", "addr:city": "Nyk\u00f8bing Falster", "addr:state": "Sj\u00e6lland", "addr:postcode": "4800", "addr:country": "DK", "name": "ALDI", "phone": "+45 70 70 74 17", "opening_hours": "Mo-Su 08:00-21:00", "brand": "ALDI", "brand:wikidata": "Q41171373", "nsi_id": "aldi-b5be76"}, "geometry": {"type": "Point", "coordinates": [11.86621402, 54.7810478]}},
{"type": "Feature", "id": "af0N0lpCubTNYZARnfWRPigtWmQ=", "properties": {"ref": "3187299", "@spider": "aldi_nord_dk", "shop": "supermarket", "addr:street_address": "K\u00f8gevej 38", "addr:city": "Ringsted", "addr:postcode": "4100", "addr:country": "DK", "name": "ALDI", "phone": "+45 70 70 74 17", "opening_hours": "Mo-Su 08:00-21:00", "brand": "ALDI", "brand:wikidata": "Q41171373", "nsi_id": "aldi-b5be76"}, "geometry": {"type": "Point", "coordinates": [11.8021852, 55.4430076]}},
{"type": "Feature", "id": "FOvbMBQ3Of7_GcIveQ-ignc8Fww=", "properties": {"ref": "3187300", "@spider": "aldi_nord_dk", "shop": "supermarket", "addr:street_address": "Gr\u00f8nnegade 57", "addr:city": "Aarhus C", "addr:state": "Midtjylland", "addr:postcode": "8000", "addr:country": "DK", "name": "ALDI", "phone": "+45 70 70 74 17", "opening_hours": "Mo-Su 08:00-22:00", "brand": "ALDI", "brand:wikidata": "Q41171373", "nsi_id": "aldi-b5be76"}, "geometry": {"type": "Point", "coordinates": [10.2025431, 56.1583801]}},
{"type": "Feature", "id": "6GvrhKTyqZpgWqvUIn4rnk7uMs4=", "properties": {"ref": "3187301", "@spider": "aldi_nord_dk", "shop": "supermarket", "addr:street_address": "Haderslevvej 98-100", "addr:city": "Kolding", "addr:state": "Syddanmark", "addr:postcode": "6000", "addr:country": "DK", "name": "ALDI", "phone": "+45 70 70 74 17", "opening_hours": "Mo-Su 08:00-20:00", "brand": "ALDI", "brand:wikidata": "Q41171373", "nsi_id": "aldi-b5be76"}, "geometry": {"type": "Point", "coordinates": [9.46835719, 55.47814398]}},
{"type": "Feature", "id": "MIw1zToHhcbgokH4freHoPGse_w=", "properties": {"ref": "3187302", "@spider": "aldi_nord_dk", "shop": "supermarket", "addr:street_address": "Ved \u00c5sen 2", "addr:city": "N\u00e6stved", "addr:state": "Sj\u00e6lland", "addr:postcode": "4700", "addr:country": "DK", "name": "ALDI", "phone": "+45 70 70 74 17", "opening_hours": "Mo-Su 08:00-21:00", "brand": "ALDI", "brand:wikidata": "Q41171373", "nsi_id": "aldi-b5be76"}, "geometry": {"type": "Point", "coordinates": [11.7766486, 55.218471]}},
{"type": "Feature", "id": "JiPPVWUHfWIWq6o6_UamKEuz3jc=", "properties": {"ref": "3187303", "@spider": "aldi_nord_dk", "shop": "supermarket", "addr:street_address": "Hvidovrevej 344-348", "addr:city": "Hvidovre", "addr:state": "Hovedstaden", "addr:postcode": "2650", "addr:country": "DK", "name": "ALDI", "phone": "+45 70 70 74 17", "opening_hours": "Mo-Su 08:00-21:00", "brand": "ALDI", "brand:wikidata": "Q41171373", "nsi_id": "aldi-b5be76"}, "geometry": {"type": "Point", "coordinates": [12.47943235, 55.63681964]}},
{"type": "Feature", "id": "NO5LbcLF1xbiAB6J8Qzi0DYPiwU=", "properties": {"ref": "3187304", "@spider": "aldi_nord_dk", "shop": "supermarket", "addr:street_address": "Vestre Boulevard 3b", "addr:city": "Grindsted", "addr:state": "Syddanmark", "addr:postcode": "7200", "addr:country": "DK", "name": "ALDI", "phone": "+45 70 70 74 17", "opening_hours": "Mo-Su 08:00-20:00", "brand": "ALDI", "brand:wikidata": "Q41171373", "nsi_id": "aldi-b5be76"}, "geometry": {"type": "Point", "coordinates": [8.9214743, 55.7583214]}},
{"type": "Feature", "id": "g4MxkW7IaehmC1m1TVj2ATmYi7Q=", "properties": {"ref": "3187305", "@spider": "aldi_nord_dk", "shop": "supermarket", "addr:street_address": "Koldingvej 61-69", "addr:city": "Viborg", "addr:state": "Midtjylland", "addr:postcode": "8800", "addr:country": "DK", "name": "ALDI", "phone": "+45 70 70 74 17", "opening_hours": "Mo-Su 08:00-20:00", "brand": "ALDI", "brand:wikidata": "Q41171373", "nsi_id": "aldi-b5be76"}, "geometry": {"type": "Point", "coordinates": [9.39205212, 56.43275856]}},
{"type": "Feature", "id": "6k2j1erWC7J4dvOyCNVZOuF2LfM=", "properties": {"ref": "3187306", "@spider": "aldi_nord_dk", "shop": "supermarket", "addr:street_address": "R\u00e5dhusvej 85", "addr:city": "Faxe", "addr:state": "Sj\u00e6lland", "addr:postcode": "4640", "addr:country": "DK", "name": "ALDI", "phone": "+45 70 70 74 17", "opening_hours": "Mo-Su 08:00-21:00", "brand": "ALDI", "brand:wikidata": "Q41171373", "nsi_id": "aldi-b5be76"}, "geometry": {"type": "Point", "coordinates": [12.11081348, 55.24954294]}},
{"type": "Feature", "id": "GMdln0TlLwi4ufoF15taRK_tYHw=", "properties": {"ref": "3187307", "@spider": "aldi_nord_dk", "shop": "supermarket", "addr:street_address": "Rantzausgade 30", "addr:city": "K\u00f8benhavn N", "addr:postcode": "2200", "addr:country": "DK", "name": "ALDI", "phone": "+45 70 70 74 17", "opening_hours": "Mo-Su 08:00-21:00", "brand": "ALDI", "brand:wikidata": "Q41171373", "nsi_id": "aldi-b5be76"}, "geometry": {"type": "Point", "coordinates": [12.54990223, 55.68659855]}},
{"type": "Feature", "id": "Zt5GiR4I6jB1H8IHlVYyKLf07eY=", "properties": {"ref": "3187308", "@spider": "aldi_nord_dk", "shop": "supermarket", "addr:street_address": "Holberg Arkaden 4", "addr:city": "Sor\u00f8", "addr:state": "Sj\u00e6lland", "addr:postcode": "4180", "addr:country": "DK", "name": "ALDI", "phone": "+45 70 70 74 17", "opening_hours": "Mo-Su 08:00-21:00", "brand": "ALDI", "brand:wikidata": "Q41171373", "nsi_id": "aldi-b5be76"}, "geometry": {"type": "Point", "coordinates": [11.55752473, 55.43261854]}},
{"type": "Feature", "id": "1rOEILADtPlC7BWua-gyP2GR-vM=", "properties": {"ref": "3187309", "@spider": "aldi_nord_dk", "shop": "supermarket", "addr:street_address": "Kongevej 1", "addr:city": "T\u00f8nder", "addr:state": "Syddanmark", "addr:postcode": "6270", "addr:country": "DK", "name": "ALDI", "phone": "+45 70 70 74 17", "opening_hours": "Mo-Su 08:00-20:00", "brand": "ALDI", "brand:wikidata": "Q41171373", "nsi_id": "aldi-b5be76"}, "geometry": {"type": "Point", "coordinates": [8.8732858, 54.939206]}},
{"type": "Feature", "id": "3am_xvXDLK40Db5BKEG1nWEAJ1k=", "properties": {"ref": "3187310", "@spider": "aldi_nord_dk", "shop": "supermarket", "addr:street_address": "Holmevej 3", "addr:city": "Fars\u00f8", "addr:state": "Nordjylland", "addr:postcode": "9640", "addr:country": "DK", "name": "ALDI", "phone": "+45 70 70 74 17", "opening_hours": "Mo-Su 08:00-21:00", "brand": "ALDI", "brand:wikidata": "Q41171373", "nsi_id": "aldi-b5be76"}, "geometry": {"type": "Point", "coordinates": [9.3419161, 56.7793533]}},
{"type": "Feature", "id": "HTT7IO-huJWpkGhSnA4o9RaZacI=", "properties": {"ref": "3187311", "@spider": "aldi_nord_dk", "shop": "supermarket", "addr:street_address": "S\u00f8ndergade 31A", "addr:city": "Aars", "addr:state": "Nordjylland", "addr:postcode": "9600", "addr:country": "DK", "name": "ALDI", "phone": "+45 70 70 74 17", "opening_hours": "Mo-Su 08:00-20:00", "brand": "ALDI", "brand:wikidata": "Q41171373", "nsi_id": "aldi-b5be76"}, "geometry": {"type": "Point", "coordinates": [9.51879553, 56.80261696]}},
{"type": "Feature", "id": "rKIUxPvS878ukf1Tb6HxlGflEgU=", "properties": {"ref": "3187312", "@spider": "aldi_nord_dk", "shop": "supermarket", "addr:street_address": "Torvesvinget 3", "addr:city": "Vig", "addr:state": "Sj\u00e6lland", "addr:postcode": "4560", "addr:country": "DK", "name": "ALDI", "phone": "+45 70 70 74 17", "opening_hours": "Mo-Su 08:00-20:00", "brand": "ALDI", "brand:wikidata": "Q41171373", "nsi_id": "aldi-b5be76"}, "geometry": {"type": "Point", "coordinates": [11.5800661, 55.8540053]}},
{"type": "Feature", "id": "TZa7i9WHH44fpIPkBVVo_XrKDdU=", "properties": {"ref": "3187313", "@spider": "aldi_nord_dk", "shop": "supermarket", "addr:street_address": "Risingsvej 142", "addr:city": "Odense", "addr:state": "Syddanmark", "addr:postcode": "5240", "addr:country": "DK", "name": "ALDI", "phone": "+45 70 70 74 17", "opening_hours": "Mo-Su 08:00-21:00", "brand": "ALDI", "brand:wikidata": "Q41171373", "nsi_id": "aldi-b5be76"}, "geometry": {"type": "Point", "coordinates": [10.4420432, 55.4067792]}},
{"type": "Feature", "id": "_GiugXst0dXiaxtjXgmp9IHopFs=", "properties": {"ref": "3187314", "@spider": "aldi_nord_dk", "shop": "supermarket", "addr:street_address": "Egev\u00e6nget 3", "addr:city": "Helsing\u00f8r", "addr:state": "Hovedstaden", "addr:postcode": "3000", "addr:country": "DK", "name": "ALDI", "phone": "+45 70 70 74 17", "opening_hours": "Mo-Su 08:00-21:00", "brand": "ALDI", "brand:wikidata": "Q41171373", "nsi_id": "aldi-b5be76"}, "geometry": {"type": "Point", "coordinates": [12.58629773, 56.01940449]}},
{"type": "Feature", "id": "TprJvPLXU8BKkjOlBs55u8WyFsg=", "properties": {"ref": "3187315", "@spider": "aldi_nord_dk", "shop": "supermarket", "addr:street_address": "Niels Olsens Vej 2", "addr:city": "\u00d8lstykke", "addr:state": "Hovedstaden", "addr:postcode": "3650", "addr:country": "DK", "name": "ALDI", "phone": "+45 70 70 74 17", "opening_hours": "Mo-Su 08:00-20:00", "brand": "ALDI", "brand:wikidata": "Q41171373", "nsi_id": "aldi-b5be76"}, "geometry": {"type": "Point", "coordinates": [12.1735259, 55.7804801]}},
{"type": "Feature", "id": "4yp5ClzlNUeNTQxsHJPzcT9Ew2A=", "properties": {"ref": "3187317", "@spider": "aldi_nord_dk", "shop": "supermarket", "addr:street_address": "Roskildevej 46", "addr:city": "Frederiksberg", "addr:state": "Hovedstaden", "addr:postcode": "2000", "addr:country": "DK", "name": "ALDI", "phone": "+45 70 70 74 17", "opening_hours": "Mo-Su 08:00-21:00", "brand": "ALDI", "brand:wikidata": "Q41171373", "nsi_id": "aldi-b5be76"}, "geometry": {"type": "Point", "coordinates": [12.5124396, 55.6725462]}},
{"type": "Feature", "id": "aCtmxYu_Kf-kQCtXKPX2E0vuVW0=", "properties": {"ref": "3187318", "@spider": "aldi_nord_dk", "shop": "supermarket", "addr:street_address": "Banegaardsvej 4", "addr:city": "Hobro", "addr:state": "Nordjylland", "addr:postcode": "9500", "addr:country": "DK", "name": "ALDI", "phone": "+45 70 70 74 17", "opening_hours": "Mo-Su 08:00-21:00", "brand": "ALDI", "brand:wikidata": "Q41171373", "nsi_id": "aldi-b5be76"}, "geometry": {"type": "Point", "coordinates": [9.7924871, 56.6437866]}},
{"type": "Feature", "id": "gVHSqgneqGpA1KccP4bMCav1Fgo=", "properties": {"ref": "3187319", "@spider": "aldi_nord_dk", "shop": "supermarket", "addr:street_address": "Gamle Skagensvej 101", "addr:city": "Frederikshavn", "addr:state": "Nordjylland", "addr:postcode": "9900", "addr:country": "DK", "name": "ALDI", "phone": "+45 70 70 74 17", "opening_hours": "Mo-Su 08:00-20:00", "brand": "ALDI", "brand:wikidata": "Q41171373", "nsi_id": "aldi-b5be76"}, "geometry": {"type": "Point", "coordinates": [10.5260635, 57.4548302]}},
{"type": "Feature", "id": "YmdJzjahQwLQZ_NBH5u1m1ACTeg=", "properties": {"ref": "3187320", "@spider": "aldi_nord_dk", "shop": "supermarket", "addr:street_address": "Kastrupvej 326", "addr:city": "Kastrup", "addr:state": "Hovedstaden", "addr:postcode": "2770", "addr:country": "DK", "name": "ALDI", "phone": "+45 70 70 74 17", "opening_hours": "Mo-Su 08:00-21:00", "brand": "ALDI", "brand:wikidata": "Q41171373", "nsi_id": "aldi-b5be76"}, "geometry": {"type": "Point", "coordinates": [12.6366139, 55.6346098]}},
{"type": "Feature", "id": "oID7T6dSGa0p9qIb7iuh8mH-pD0=", "properties": {"ref": "3187321", "@spider": "aldi_nord_dk", "shop": "supermarket", "addr:street_address": "Runevej 4", "addr:city": "Aarhus", "addr:state": "Midtjylland", "addr:postcode": "8210", "addr:country": "DK", "name": "ALDI", "phone": "+45 70 70 74 17", "opening_hours": "Mo-Su 08:00-21:00", "brand": "ALDI", "brand:wikidata": "Q41171373", "nsi_id": "aldi-b5be76"}, "geometry": {"type": "Point", "coordinates": [10.13574363, 56.17682473]}},
{"type": "Feature", "id": "-wZZQfgx02caa9Bsn8Ind6EtMq8=", "properties": {"ref": "3187322", "@spider": "aldi_nord_dk", "shop": "supermarket", "addr:street_address": "Banevej 3", "addr:city": "Hornslet", "addr:state": "Midtjylland", "addr:postcode": "8543", "addr:country": "DK", "name": "ALDI", "phone": "+45 70 70 74 17", "opening_hours": "Mo-Su 08:00-20:00", "brand": "ALDI", "brand:wikidata": "Q41171373", "nsi_id": "aldi-b5be76"}, "geometry": {"type": "Point", "coordinates": [10.3127077, 56.3204641]}},
{"type": "Feature", "id": "hgELA24bom2Reafkqq6m4ou3gq8=", "properties": {"ref": "3187323", "@spider": "aldi_nord_dk", "shop": "supermarket", "addr:street_address": "Kongelundsvej 479", "addr:city": "Kastrup", "addr:state": "Hovedstaden", "addr:postcode": "2770", "addr:country": "DK", "name": "ALDI", "phone": "+45 70 70 74 17", "opening_hours": "Mo-Su 08:00-21:00", "brand": "ALDI", "brand:wikidata": "Q41171373", "nsi_id": "aldi-b5be76"}, "geometry": {"type": "Point", "coordinates": [12.5829033, 55.5986836]}},
{"type": "Feature", "id": "jD4En79dzCWGWADbsjylH3vQF3s=", "properties": {"ref": "3187324", "@spider": "aldi_nord_dk", "shop": "supermarket", "addr:street_address": "Gr\u00f8nlandsgade 4", "addr:city": "Haslev", "addr:state": "Sj\u00e6lland", "addr:postcode": "4690", "addr:country": "DK", "name": "ALDI", "phone": "+45 70 70 74 17", "opening_hours": "Mo-Su 08:00-20:00", "brand": "ALDI", "brand:wikidata": "Q41171373", "nsi_id": "aldi-b5be76"}, "geometry": {"type": "Point", "coordinates": [11.9403846, 55.3294889]}},
{"type": "Feature", "id": "hKtJM8QTU3ahx3tnEM3mzjazElU=", "properties": {"ref": "3187325", "@spider": "aldi_nord_dk", "shop": "supermarket", "addr:street_address": "Doggerbanke 1", "addr:city": "Hirtshals", "addr:state": "Nordjylland", "addr:postcode": "9850", "addr:country": "DK", "name": "ALDI", "phone": "+45 70 70 74 17", "opening_hours": "Mo-Su 08:00-21:00", "brand": "ALDI", "brand:wikidata": "Q41171373", "nsi_id": "aldi-b5be76"}, "geometry": {"type": "Point", "coordinates": [9.96498723, 57.59032157]}},
{"type": "Feature", "id": "sJmVmnF0spNLVjxJHnE83gmKk-0=", "properties": {"ref": "3187326", "@spider": "aldi_nord_dk", "shop": "supermarket", "addr:street_address": "Borups All\u00e9 113", "addr:city": "Frederiksberg", "addr:state": "Hovedstaden", "addr:postcode": "2000", "addr:country": "DK", "name": "ALDI", "phone": "+45 70 70 74 17", "opening_hours": "Mo-Su 08:00-21:00", "brand": "ALDI", "brand:wikidata": "Q41171373", "nsi_id": "aldi-b5be76"}, "geometry": {"type": "Point", "coordinates": [12.53347885, 55.69326097]}},
{"type": "Feature", "id": "RRvXV4xPaD8CEcvK2bCcSiQmLZ8=", "properties": {"ref": "3187327", "@spider": "aldi_nord_dk", "shop": "supermarket", "addr:street_address": "Nyborgvej 99", "addr:city": "Svendborg", "addr:state": "Syddanmark", "addr:postcode": "5700", "addr:country": "DK", "name": "ALDI", "phone": "+45 70 70 74 17", "opening_hours": "Mo-Su 08:00-21:00", "brand": "ALDI", "brand:wikidata": "Q41171373", "nsi_id": "aldi-b5be76"}, "geometry": {"type": "Point", "coordinates": [10.629822, 55.0690133]}},
{"type": "Feature", "id": "7T1yiRVYG6RR5ZAAKGCCJzv1_EE=", "properties": {"ref": "3187328", "@spider": "aldi_nord_dk", "shop": "supermarket", "addr:street_address": "Treldevej 86", "addr:city": "Fredericia", "addr:state": "Syddanmark", "addr:postcode": "7000", "addr:country": "DK", "name": "ALDI", "phone": "+45 70 70 74 17", "opening_hours": "Mo-Su 08:00-21:00", "brand": "ALDI", "brand:wikidata": "Q41171373", "nsi_id": "aldi-b5be76"}, "geometry": {"type": "Point", "coordinates": [9.7676154, 55.5818179]}},
{"type": "Feature", "id": "7Xh5_x0bEjqhnD6ILpnQIpAtDzk=", "properties": {"ref": "3187329", "@spider": "aldi_nord_dk", "shop": "supermarket", "addr:street_address": "Roskildevej 250", "addr:city": "R\u00f8dovre", "addr:state": "Hovedstaden", "addr:postcode": "2610", "addr:country": "DK", "name": "ALDI", "phone": "+45 70 70 74 17", "opening_hours": "Mo-Su 08:00-21:00", "brand": "ALDI", "brand:wikidata": "Q41171373", "nsi_id": "aldi-b5be76"}, "geometry": {"type": "Point", "coordinates": [12.47254438, 55.67286418]}},
{"type": "Feature", "id": "NyQ3re3jH4_Yvf7LGCWVQK_jucU=", "properties": {"ref": "3187330", "@spider": "aldi_nord_dk", "shop": "supermarket", "addr:street_address": "Vejlevej 32", "addr:city": "Fredericia", "addr:postcode": "7000", "addr:country": "DK", "name": "ALDI", "phone": "+45 70 70 74 17", "opening_hours": "Mo-Su 08:00-20:00", "brand": "ALDI", "brand:wikidata": "Q41171373", "nsi_id": "aldi-b5be76"}, "geometry": {"type": "Point", "coordinates": [9.7205913, 55.569746]}},
{"type": "Feature", "id": "Md8MeuQgTFuM6NEMLgj27c8GHzg=", "properties": {"ref": "3187331", "@spider": "aldi_nord_dk", "shop": "supermarket", "addr:street_address": "Vester Skolevej 2", "addr:city": "Holstebro", "addr:state": "Midtjylland", "addr:postcode": "7500", "addr:country": "DK", "name": "ALDI", "phone": "+45 70 70 74 17", "opening_hours": "Mo-Su 08:00-20:00", "brand": "ALDI", "brand:wikidata": "Q41171373", "nsi_id": "aldi-b5be76"}, "geometry": {"type": "Point", "coordinates": [8.68713521, 56.36485107]}},
{"type": "Feature", "id": "Xn7uQo5hG1HlV_sHMPE14ALhNAo=", "properties": {"ref": "3187332", "@spider": "aldi_nord_dk", "shop": "supermarket", "addr:street_address": "Bytorvet 57", "addr:city": "Hanstholm", "addr:state": "Nordjylland", "addr:postcode": "7730", "addr:country": "DK", "name": "ALDI", "phone": "+45 70 70 74 17", "opening_hours": "Mo-Su 08:00-20:00", "brand": "ALDI", "brand:wikidata": "Q41171373", "nsi_id": "aldi-b5be76"}, "geometry": {"type": "Point", "coordinates": [8.60516319, 57.11548889]}},
{"type": "Feature", "id": "5RYt4SKkeJZbNXYrLvJE6mMCquc=", "properties": {"ref": "3187333", "@spider": "aldi_nord_dk", "shop": "supermarket", "addr:street_address": "Stenmarksvej 1", "addr:city": "Blokhus", "addr:state": "Nordjylland", "addr:postcode": "9492", "addr:country": "DK", "name": "ALDI", "phone": "+45 70 70 74 17", "opening_hours": "Mo-Su 08:00-20:00", "brand": "ALDI", "brand:wikidata": "Q41171373", "nsi_id": "aldi-b5be76"}, "geometry": {"type": "Point", "coordinates": [9.6235167, 57.2473279]}},
{"type": "Feature", "id": "CupPwuD7JTfkC38DyQgmeRYIH9w=", "properties": {"ref": "3187334", "@spider": "aldi_nord_dk", "shop": "supermarket", "addr:street_address": "Tingvej 2-4", "addr:city": "K\u00f8benhavn", "addr:state": "Hovedstaden", "addr:postcode": "2300", "addr:country": "DK", "name": "ALDI", "phone": "+45 70 70 74 17", "opening_hours": "Mo-Su 08:00-22:00", "brand": "ALDI", "brand:wikidata": "Q41171373", "nsi_id": "aldi-b5be76"}, "geometry": {"type": "Point", "coordinates": [12.60481489, 55.66032738]}},
{"type": "Feature", "id": "WbBiKFAzmszyHGYagSOf2PMa7fw=", "properties": {"ref": "3187335", "@spider": "aldi_nord_dk", "shop": "supermarket", "addr:street_address": "Byagervej 21", "addr:city": "Fuglebjerg", "addr:state": "Sj\u00e6lland", "addr:postcode": "4250", "addr:country": "DK", "name": "ALDI", "phone": "+45 70 70 74 17", "opening_hours": "Mo-Su 08:00-20:00", "brand": "ALDI", "brand:wikidata": "Q41171373", "nsi_id": "aldi-b5be76"}, "geometry": {"type": "Point", "coordinates": [11.54864837, 55.30195519]}},
{"type": "Feature", "id": "BHZaHx0EzE6IZhfbLiti3rZ9Hvg=", "properties": {"ref": "3187336", "@spider": "aldi_nord_dk", "shop": "supermarket", "addr:street_address": "Nordre Ringvej 50", "addr:city": "Kerteminde", "addr:state": "Syddanmark", "addr:postcode": "5300", "addr:country": "DK", "name": "ALDI", "phone": "+45 70 70 74 17", "opening_hours": "Mo-Su 08:00-21:00", "brand": "ALDI", "brand:wikidata": "Q41171373", "nsi_id": "aldi-b5be76"}, "geometry": {"type": "Point", "coordinates": [10.6558526, 55.4579552]}},
{"type": "Feature", "id": "tGquEpf8heIl2XaCoab195Km97I=", "properties": {"ref": "3187337", "@spider": "aldi_nord_dk", "shop": "supermarket", "addr:street_address": "Eli Christensensvej 1", "addr:city": "Ikast", "addr:state": "Midtjylland", "addr:postcode": "7430", "addr:country": "DK", "name": "ALDI", "phone": "+45 70 70 74 17", "opening_hours": "Mo-Su 08:00-20:00", "brand": "ALDI", "brand:wikidata": "Q41171373", "nsi_id": "aldi-b5be76"}, "geometry": {"type": "Point", "coordinates": [9.1454932, 56.1390891]}},
{"type": "Feature", "id": "U0wdmvoSJYL3S-WTp5JQi1WaFH8=", "properties": {"ref": "3187338", "@spider": "aldi_nord_dk", "shop": "supermarket", "addr:street_address": "N\u00f8rregade 77", "addr:city": "Br\u00f8rup", "addr:state": "Syddanmark", "addr:postcode": "6650", "addr:country": "DK", "name": "ALDI", "phone": "+45 70 70 74 17", "opening_hours": "Mo-Su 08:00-20:00", "brand": "ALDI", "brand:wikidata": "Q41171373", "nsi_id": "aldi-b5be76"}, "geometry": {"type": "Point", "coordinates": [9.02078739, 55.49599971]}},
{"type": "Feature", "id": "y-Ov49UQ-nT-ODjGbESSaV_uuTo=", "properties": {"ref": "3187339", "@spider": "aldi_nord_dk", "shop": "supermarket", "addr:street_address": "\u00d8stre Alle 1", "addr:city": "Hurup Thy", "addr:state": "Nordjylland", "addr:postcode": "7760", "addr:country": "DK", "name": "ALDI", "phone": "+45 70 70 74 17", "opening_hours": "Mo-Su 08:00-20:00", "brand": "ALDI", "brand:wikidata": "Q41171373", "nsi_id": "aldi-b5be76"}, "geometry": {"type": "Point", "coordinates": [8.42286604, 56.74971696]}},
{"type": "Feature", "id": "tMr2o4yqdrZpz77TlorlvM_bAys=", "properties": {"ref": "3187340", "@spider": "aldi_nord_dk", "shop": "supermarket", "addr:street_address": "Hovedgaden 12", "addr:city": "Svinninge", "addr:state": "Sj\u00e6lland", "addr:postcode": "4520", "addr:country": "DK", "name": "ALDI", "phone": "+45 70 70 74 17", "opening_hours": "Mo-Su 08:00-20:00", "brand": "ALDI", "brand:wikidata": "Q41171373", "nsi_id": "aldi-b5be76"}, "geometry": {"type": "Point", "coordinates": [11.4691194, 55.7231998]}},
{"type": "Feature", "id": "HxPFMPwvtpaAC5OihYeOP8tfETk=", "properties": {"ref": "3187341", "@spider": "aldi_nord_dk", "shop": "supermarket", "addr:street_address": "Nygade 8-10", "addr:city": "Frederikssund", "addr:state": "Hovedstaden", "addr:postcode": "3600", "addr:country": "DK", "name": "ALDI", "phone": "+45 70 70 74 17", "opening_hours": "Mo-Su 08:00-20:00", "brand": "ALDI", "brand:wikidata": "Q41171373", "nsi_id": "aldi-b5be76"}, "geometry": {"type": "Point", "coordinates": [12.06402461, 55.83662102]}},
{"type": "Feature", "id": "FkRVdUFceJ9pQ_yCvHpJniYuzKw=", "properties": {"ref": "3187342", "@spider": "aldi_nord_dk", "shop": "supermarket", "addr:street_address": "Gothersgade 52", "addr:city": "K\u00f8benhavn", "addr:state": "Hovedstaden", "addr:postcode": "1123", "addr:country": "DK", "name": "ALDI", "phone": "+45 70 70 74 17", "opening_hours": "Mo-Su 08:00-21:00", "brand": "ALDI", "brand:wikidata": "Q41171373", "nsi_id": "aldi-b5be76"}, "geometry": {"type": "Point", "coordinates": [12.58203511, 55.68256214]}},
{"type": "Feature", "id": "GYuY3Cmr5me6M0Lu2dPF1HFsJGs=", "properties": {"ref": "3187343", "@spider": "aldi_nord_dk", "shop": "supermarket", "addr:street_address": "D\u00e6mningen 5", "addr:city": "Herning", "addr:state": "Midtjylland", "addr:postcode": "7400", "addr:country": "DK", "name": "ALDI", "phone": "+45 70 70 74 17", "opening_hours": "Mo-Su 08:00-21:00", "brand": "ALDI", "brand:wikidata": "Q41171373", "nsi_id": "aldi-b5be76"}, "geometry": {"type": "Point", "coordinates": [8.95832488, 56.13219944]}},
{"type": "Feature", "id": "rlJ0gKwkFVr-oj_6VwhLeLTVQ8Q=", "properties": {"ref": "3187344", "@spider": "aldi_nord_dk", "shop": "supermarket", "addr:street_address": "Hovedgaden 36", "addr:city": "J\u00e6gerspris", "addr:state": "Hovedstaden", "addr:postcode": "3630", "addr:country": "DK", "name": "ALDI", "phone": "+45 70 70 74 17", "opening_hours": "Mo-Su 08:00-20:00", "brand": "ALDI", "brand:wikidata": "Q41171373", "nsi_id": "aldi-b5be76"}, "geometry": {"type": "Point", "coordinates": [11.98433468, 55.85492217]}},
{"type": "Feature", "id": "ZKj-z9dRju6yoHkk0jM0FA3Ko8Y=", "properties": {"ref": "3187345", "@spider": "aldi_nord_dk", "shop": "supermarket", "addr:street_address": "Brovejen 30", "addr:city": "Maribo", "addr:state": "Sj\u00e6lland", "addr:postcode": "4930", "addr:country": "DK", "name": "ALDI", "phone": "+45 70 70 74 17", "opening_hours": "Mo-Su 08:00-20:00", "brand": "ALDI", "brand:wikidata": "Q41171373", "nsi_id": "aldi-b5be76"}, "geometry": {"type": "Point", "coordinates": [11.4887222, 54.7768033]}},
{"type": "Feature", "id": "QNqFwXvkFeu8bcNnzfKqT6LYgTk=", "properties": {"ref": "3187346", "@spider": "aldi_nord_dk", "shop": "supermarket", "addr:street_address": "\u00d8sterbrogade 147", "addr:city": "Nyk\u00f8bing F", "addr:state": "Sj\u00e6lland", "addr:postcode": "4800", "addr:country": "DK", "name": "ALDI", "phone": "+45 70 70 74 17", "opening_hours": "Mo-Su 08:00-21:00", "brand": "ALDI", "brand:wikidata": "Q41171373", "nsi_id": "aldi-b5be76"}, "geometry": {"type": "Point", "coordinates": [11.89167151, 54.76023631]}},
{"type": "Feature", "id": "4yapyAEVVPwU4BmHJBc47vJb8ME=", "properties": {"ref": "3187347", "@spider": "aldi_nord_dk", "shop": "supermarket", "addr:street_address": "Maltvej 2", "addr:city": "Ebeltoft", "addr:postcode": "8400", "addr:country": "DK", "name": "ALDI", "phone": "+45 70 70 74 17", "opening_hours": "Mo-Su 08:00-21:00", "brand": "ALDI", "brand:wikidata": "Q41171373", "nsi_id": "aldi-b5be76"}, "geometry": {"type": "Point", "coordinates": [10.6783476, 56.2010975]}},
{"type": "Feature", "id": "cTM8w06o60JOYm0MlmU2-kcs_Jc=", "properties": {"ref": "3187348", "@spider": "aldi_nord_dk", "shop": "supermarket", "addr:street_address": "Tarphagevej 11", "addr:city": "Esbjerg V", "addr:state": "Syddanmark", "addr:postcode": "6710", "addr:country": "DK", "name": "ALDI", "phone": "+45 70 70 74 17", "opening_hours": "Mo-Su 08:00-20:00", "brand": "ALDI", "brand:wikidata": "Q41171373", "nsi_id": "aldi-b5be76"}, "geometry": {"type": "Point", "coordinates": [8.4107517, 55.4941685]}},
{"type": "Feature", "id": "VhgiOQYIKixY2S6Jc_Og7fX7Vlw=", "properties": {"ref": "3187349", "@spider": "aldi_nord_dk", "shop": "supermarket", "addr:street_address": "Jernbanegade 1", "addr:city": "Gr\u00e5sten", "addr:postcode": "6300", "addr:country": "DK", "name": "ALDI", "phone": "+45 70 70 74 17", "opening_hours": "Mo-Su 08:00-20:00", "brand": "ALDI", "brand:wikidata": "Q41171373", "nsi_id": "aldi-b5be76"}, "geometry": {"type": "Point", "coordinates": [9.5936825, 54.92126886]}},
{"type": "Feature", "id": "x4EhiqAqeIfKdbhQI3oZW9O900k=", "properties": {"ref": "3187350", "@spider": "aldi_nord_dk", "shop": "supermarket", "addr:street_address": "Lemvigvej 11", "addr:city": "Harbo\u00f8re", "addr:state": "Midtjylland", "addr:postcode": "7673", "addr:country": "DK", "name": "ALDI", "phone": "+45 70 70 74 17", "opening_hours": "Mo-Su 08:00-21:00", "brand": "ALDI", "brand:wikidata": "Q41171373", "nsi_id": "aldi-b5be76"}, "geometry": {"type": "Point", "coordinates": [8.1768132, 56.6160404]}},
{"type": "Feature", "id": "j3q2GPP76HDsWI5hOg61YgKjSkw=", "properties": {"ref": "3187351", "@spider": "aldi_nord_dk", "shop": "supermarket", "addr:street_address": "Vasen 2", "addr:city": "Stege", "addr:state": "Sj\u00e6lland", "addr:postcode": "4780", "addr:country": "DK", "name": "ALDI", "phone": "+45 70 70 74 17", "opening_hours": "Mo-Su 08:00-20:00", "brand": "ALDI", "brand:wikidata": "Q41171373", "nsi_id": "aldi-b5be76"}, "geometry": {"type": "Point", "coordinates": [12.2813286, 54.9808171]}},
{"type": "Feature", "id": "Yt2Sup5tZtORt1ER24TMwpA0D-I=", "properties": {"ref": "3187352", "@spider": "aldi_nord_dk", "shop": "supermarket", "addr:street_address": "Hovedgaden 407", "addr:city": "Hedehusene", "addr:state": "H\u00f8je Taastrup", "addr:postcode": "2640", "addr:country": "DK", "name": "ALDI", "phone": "+45 70 70 74 17", "opening_hours": "Mo-Su 08:00-21:00", "brand": "ALDI", "brand:wikidata": "Q41171373", "nsi_id": "aldi-b5be76"}, "geometry": {"type": "Point", "coordinates": [12.2019585, 55.6494927]}},
{"type": "Feature", "id": "l_OL-xCHktvBP_2LXzToJrGSnK0=", "properties": {"ref": "3187353", "@spider": "aldi_nord_dk", "shop": "supermarket", "addr:street_address": "Strevelinsvej 3", "addr:city": "Fredericia", "addr:state": "Syddanmark", "addr:postcode": "7000", "addr:country": "DK", "name": "ALDI", "phone": "+45 70 70 74 17", "opening_hours": "Mo-Su 08:00-20:00", "brand": "ALDI", "brand:wikidata": "Q41171373", "nsi_id": "aldi-b5be76"}, "geometry": {"type": "Point", "coordinates": [9.7185563, 55.5361003]}},
{"type": "Feature", "id": "BY6XV1FcNo8LhVgERAllgHTb-sA=", "properties": {"ref": "3187354", "@spider": "aldi_nord_dk", "shop": "supermarket", "addr:street_address": "R\u00e6veholmsvej 57", "addr:city": "Karlslunde", "addr:state": "Sj\u00e6lland", "addr:postcode": "2690", "addr:country": "DK", "name": "ALDI", "phone": "+45 70 70 74 17", "opening_hours": "Mo-Su 08:00-20:00", "brand": "ALDI", "brand:wikidata": "Q41171373", "nsi_id": "aldi-b5be76"}, "geometry": {"type": "Point", "coordinates": [12.254438, 55.5578439]}},
{"type": "Feature", "id": "iMrR40QK9e8by3bn4Ifp7BngM64=", "properties": {"ref": "3187355", "@spider": "aldi_nord_dk", "shop": "supermarket", "addr:street_address": "Jersie Center 2", "addr:city": "Solr\u00f8d", "addr:postcode": "2680", "addr:country": "DK", "name": "ALDI", "phone": "+45 70 70 74 17", "opening_hours": "Mo-Su 08:00-21:00", "brand": "ALDI", "brand:wikidata": "Q41171373", "nsi_id": "aldi-b5be76"}, "geometry": {"type": "Point", "coordinates": [12.20739192, 55.52039534]}},
{"type": "Feature", "id": "4fY3ndfAKYgU5IjuZoHMVUxsd6c=", "properties": {"ref": "3187356", "@spider": "aldi_nord_dk", "shop": "supermarket", "addr:street_address": "Mosevej 20", "addr:city": "Ribe", "addr:state": "Syddanmark", "addr:postcode": "6760", "addr:country": "DK", "name": "ALDI", "phone": "+45 70 70 74 17", "opening_hours": "Mo-Su 08:00-20:00", "brand": "ALDI", "brand:wikidata": "Q41171373", "nsi_id": "aldi-b5be76"}, "geometry": {"type": "Point", "coordinates": [8.7832514, 55.3422839]}},
{"type": "Feature", "id": "1yCWl1nXk3fSS4YrbQfZlU6xBuY=", "properties": {"ref": "3187357", "@spider": "aldi_nord_dk", "shop": "supermarket", "addr:street_address": "Industriv\u00e6nget 8a", "addr:city": "Hiller\u00f8d", "addr:postcode": "3400", "addr:country": "DK", "name": "ALDI", "phone": "+45 70 70 74 17", "opening_hours": "Mo-Su 08:00-20:00", "brand": "ALDI", "brand:wikidata": "Q41171373", "nsi_id": "aldi-b5be76"}, "geometry": {"type": "Point", "coordinates": [12.2812831, 55.9323802]}},
{"type": "Feature", "id": "mPXA8VQyTT7WOPXdIfydOVNAOPg=", "properties": {"ref": "3187358", "@spider": "aldi_nord_dk", "shop": "supermarket", "addr:street_address": "Industrivej 2-4", "addr:city": "L\u00f8kken", "addr:state": "Nordjylland", "addr:postcode": "9480", "addr:country": "DK", "name": "ALDI", "phone": "+45 70 70 74 17", "opening_hours": "Mo-Su 08:00-20:00", "brand": "ALDI", "brand:wikidata": "Q41171373", "nsi_id": "aldi-b5be76"}, "geometry": {"type": "Point", "coordinates": [9.72783396, 57.37287854]}},
{"type": "Feature", "id": "w9Udb0PG9FgICS1nrFh_RGrdHns=", "properties": {"ref": "3187359", "@spider": "aldi_nord_dk", "shop": "supermarket", "addr:street_address": "G\u00e6rumvej 35", "addr:city": "Frederikshavn", "addr:state": "Nordjylland", "addr:postcode": "9900", "addr:country": "DK", "name": "ALDI", "phone": "+45 70 70 74 17", "opening_hours": "Mo-Su 08:00-20:00", "brand": "ALDI", "brand:wikidata": "Q41171373", "nsi_id": "aldi-b5be76"}, "geometry": {"type": "Point", "coordinates": [10.5141593, 57.4268678]}},
{"type": "Feature", "id": "kqbo61iavVnJ7mel9LR-eTkEP_M=", "properties": {"ref": "3187360", "@spider": "aldi_nord_dk", "shop": "supermarket", "addr:street_address": "Vall\u00f8vej 2", "addr:city": "Herning", "addr:state": "Midtjylland", "addr:postcode": "8400", "addr:country": "DK", "name": "ALDI", "phone": "+45 70 70 74 17", "opening_hours": "Mo-Su 08:00-20:00", "brand": "ALDI", "brand:wikidata": "Q41171373", "nsi_id": "aldi-b5be76"}, "geometry": {"type": "Point", "coordinates": [8.93252113, 56.15311619]}},
{"type": "Feature", "id": "UEJP4L3sT1PEulvYoxP6xy9x_kY=", "properties": {"ref": "3187361", "@spider": "aldi_nord_dk", "shop": "supermarket", "addr:street_address": "Sophus Falcks Vej 4", "addr:city": "S\u00e6by", "addr:state": "Nordjylland", "addr:postcode": "9300", "addr:country": "DK", "name": "ALDI", "phone": "+45 70 70 74 17", "opening_hours": "Mo-Su 08:00-20:00", "brand": "ALDI", "brand:wikidata": "Q41171373", "nsi_id": "aldi-b5be76"}, "geometry": {"type": "Point", "coordinates": [10.50451278, 57.3327924]}},
{"type": "Feature", "id": "ZDo1LoLwwBC8hKOrTGDPvdMROqM=", "properties": {"ref": "3187362", "@spider": "aldi_nord_dk", "shop": "supermarket", "addr:street_address": "L\u00f8jtoftevej 4", "addr:city": "Nakskov", "addr:state": "Sj\u00e6lland", "addr:postcode": "4900", "addr:country": "DK", "name": "ALDI", "phone": "+45 70 70 74 17", "opening_hours": "Mo-Su 08:00-21:00", "brand": "ALDI", "brand:wikidata": "Q41171373", "nsi_id": "aldi-b5be76"}, "geometry": {"type": "Point", "coordinates": [11.1492974, 54.8319906]}},
{"type": "Feature", "id": "_tZ5PHofOluJ_2vo-c_XcyLtGx8=", "properties": {"ref": "3187363", "@spider": "aldi_nord_dk", "shop": "supermarket", "addr:street_address": "Assensvej 2-4", "addr:city": "Faaborg", "addr:state": "Syddanmark", "addr:postcode": "5600", "addr:country": "DK", "name": "ALDI", "phone": "+45 70 70 74 17", "opening_hours": "Mo-Su 08:00-20:00", "brand": "ALDI", "brand:wikidata": "Q41171373", "nsi_id": "aldi-b5be76"}, "geometry": {"type": "Point", "coordinates": [10.2315256, 55.1018574]}},
{"type": "Feature", "id": "vboKthYMxwXj6jG51Yz-Yxdqnhw=", "properties": {"ref": "3187364", "@spider": "aldi_nord_dk", "shop": "supermarket", "addr:street_address": "Odinsgade 7", "addr:city": "Aalborg", "addr:state": "Nordjylland", "addr:postcode": "9000", "addr:country": "DK", "name": "ALDI", "phone": "+45 70 70 74 17", "opening_hours": "Mo-Su 08:00-20:00", "brand": "ALDI", "brand:wikidata": "Q41171373", "nsi_id": "aldi-b5be76"}, "geometry": {"type": "Point", "coordinates": [9.9504708, 57.0403419]}},
{"type": "Feature", "id": "pC_hGzJNySd08OP4TTYbCe9opwU=", "properties": {"ref": "3187365", "@spider": "aldi_nord_dk", "shop": "supermarket", "addr:street_address": "Erlev Bjerge 60", "addr:city": "Haderslev", "addr:state": "Syddanmark", "addr:postcode": "6100", "addr:country": "DK", "name": "ALDI", "phone": "+45 70 70 74 17", "opening_hours": "Mo-Su 08:00-21:00", "brand": "ALDI", "brand:wikidata": "Q41171373", "nsi_id": "aldi-b5be76"}, "geometry": {"type": "Point", "coordinates": [9.4854876, 55.2355131]}},
{"type": "Feature", "id": "bCeRxp0srBHqu7LDTR9nOyiBb34=", "properties": {"ref": "3187366", "@spider": "aldi_nord_dk", "shop": "supermarket", "addr:street_address": "Jagtvej 63-65", "addr:city": "K\u00f8benhavn", "addr:state": "Hovedstaden", "addr:postcode": "2200", "addr:country": "DK", "name": "ALDI", "phone": "+45 70 70 74 17", "opening_hours": "Mo-Su 08:00-21:00", "brand": "ALDI", "brand:wikidata": "Q41171373", "nsi_id": "aldi-b5be76"}, "geometry": {"type": "Point", "coordinates": [12.5478872, 55.6936935]}},
{"type": "Feature", "id": "vye-OQHTScoWvbXRMa1oRLo7B5U=", "properties": {"ref": "3187367", "@spider": "aldi_nord_dk", "shop": "supermarket", "addr:street_address": "\u00d8stergade 51", "addr:city": "R\u00f8dekro", "addr:state": "Syddanmark", "addr:postcode": "6230", "addr:country": "DK", "name": "ALDI", "phone": "+45 70 70 74 17", "opening_hours": "Mo-Su 08:00-20:00", "brand": "ALDI", "brand:wikidata": "Q41171373", "nsi_id": "aldi-b5be76"}, "geometry": {"type": "Point", "coordinates": [9.346993, 55.0714614]}},
{"type": "Feature", "id": "TkQQ6vCrbWDjCirXf8AkO_vLi7s=", "properties": {"ref": "3187368", "@spider": "aldi_nord_dk", "shop": "supermarket", "addr:street_address": "Rougs\u00f8vej 47B", "addr:city": "Alling\u00e5bro", "addr:state": "Midtjylland", "addr:postcode": "8961", "addr:country": "DK", "name": "ALDI", "phone": "+45 70 70 74 17", "opening_hours": "Mo-Su 08:00-21:00", "brand": "ALDI", "brand:wikidata": "Q41171373", "nsi_id": "aldi-b5be76"}, "geometry": {"type": "Point", "coordinates": [10.31895003, 56.46692198]}},
{"type": "Feature", "id": "UbC-_cw-JshgP1ipJt7Js8y7F0A=", "properties": {"ref": "3187369", "@spider": "aldi_nord_dk", "shop": "supermarket", "addr:street_address": "Lerb\u00e6k Torv 2", "addr:city": "K\u00f8ge", "addr:state": "Sj\u00e6lland", "addr:postcode": "4600", "addr:country": "DK", "name": "ALDI", "phone": "+45 70 70 74 17", "opening_hours": "Mo-Su 08:00-21:00", "brand": "ALDI", "brand:wikidata": "Q41171373", "nsi_id": "aldi-b5be76"}, "geometry": {"type": "Point", "coordinates": [12.1480996, 55.4376839]}},
{"type": "Feature", "id": "BUJ55WzkkOk--4ZBjLpB_ezw3cE=", "properties": {"ref": "3187370", "@spider": "aldi_nord_dk", "shop": "supermarket", "addr:street_address": "Laurids Skaus Gade 19", "addr:city": "Haderslev", "addr:state": "Syddanmark", "addr:postcode": "6100", "addr:country": "DK", "name": "ALDI", "phone": "+45 70 70 74 17", "opening_hours": "Mo-Su 08:00-21:00", "brand": "ALDI", "brand:wikidata": "Q41171373", "nsi_id": "aldi-b5be76"}, "geometry": {"type": "Point", "coordinates": [9.48456849, 55.25374391]}},
{"type": "Feature", "id": "1nJPQzVCb9UAeaZ84_vhTOp9TYE=", "properties": {"ref": "3187371", "@spider": "aldi_nord_dk", "shop": "supermarket", "addr:street_address": "Holstebrovej 21-25", "addr:city": "Struer", "addr:state": "Midtjylland", "addr:postcode": "7600", "addr:country": "DK", "name": "ALDI", "phone": "+45 70 70 74 17", "opening_hours": "Mo-Su 08:00-21:00", "brand": "ALDI", "brand:wikidata": "Q41171373", "nsi_id": "aldi-b5be76"}, "geometry": {"type": "Point", "coordinates": [8.5841208, 56.491436]}},
{"type": "Feature", "id": "HR8hQ37cpMG2hIEYC1ss2eLDv8c=", "properties": {"ref": "3187372", "@spider": "aldi_nord_dk", "shop": "supermarket", "addr:street_address": "Broen 2", "addr:city": "Nyk\u00f8bing Mors", "addr:state": "Nordjylland", "addr:postcode": "7900", "addr:country": "DK", "name": "ALDI", "phone": "+45 70 70 74 17", "opening_hours": "Mo-Su 08:00-20:00", "brand": "ALDI", "brand:wikidata": "Q41171373", "nsi_id": "aldi-b5be76"}, "geometry": {"type": "Point", "coordinates": [8.85497217, 56.79311238]}},
{"type": "Feature", "id": "YpMtLtNuJX-iOXI0yxJRXHllodA=", "properties": {"ref": "3187373", "@spider": "aldi_nord_dk", "shop": "supermarket", "addr:street_address": "\u00d8stbanegade 129", "addr:city": "K\u00f8benhavn", "addr:state": "Hovedstaden", "addr:postcode": "2100", "addr:country": "DK", "name": "ALDI", "phone": "+45 70 70 74 17", "opening_hours": "Mo-Su 07:00-22:00", "brand": "ALDI", "brand:wikidata": "Q41171373", "nsi_id": "aldi-b5be76"}, "geometry": {"type": "Point", "coordinates": [12.5894091, 55.7054604]}},
{"type": "Feature", "id": "Zr-sZq1azjgIJf0TW9JPUyqW--k=", "properties": {"ref": "3187374", "@spider": "aldi_nord_dk", "shop": "supermarket", "addr:street_address": "S\u00f8ndre Ringvej 24a", "addr:city": "Roskilde", "addr:state": "Sj\u00e6lland", "addr:postcode": "4000", "addr:country": "DK", "name": "ALDI", "phone": "+45 70 70 74 17", "opening_hours": "Mo-Su 08:00-21:00", "brand": "ALDI", "brand:wikidata": "Q41171373", "nsi_id": "aldi-b5be76"}, "geometry": {"type": "Point", "coordinates": [12.08169198, 55.6303636]}},
{"type": "Feature", "id": "T1NKU09MyFOY8CpaCyR7L3pt_bo=", "properties": {"ref": "3187375", "@spider": "aldi_nord_dk", "shop": "supermarket", "addr:street_address": "Askovvej 2", "addr:city": "Vejen", "addr:state": "Syddanmark", "addr:postcode": "6600", "addr:country": "DK", "name": "ALDI", "phone": "+45 70 70 74 17", "opening_hours": "Mo-Su 08:00-21:00", "brand": "ALDI", "brand:wikidata": "Q41171373", "nsi_id": "aldi-b5be76"}, "geometry": {"type": "Point", "coordinates": [9.1363009, 55.4731123]}},
{"type": "Feature", "id": "A3FXaUYK-eYouJ97ZiBC9hsbV4Q=", "properties": {"ref": "3187376", "@spider": "aldi_nord_dk", "shop": "supermarket", "addr:street_address": "Stenvej 1-3", "addr:city": "H\u00f8jbjerg", "addr:state": "Midtjylland", "addr:postcode": "8270", "addr:country": "DK", "name": "ALDI", "phone": "+45 70 70 74 17", "opening_hours": "Mo-Su 08:00-21:00", "brand": "ALDI", "brand:wikidata": "Q41171373", "nsi_id": "aldi-b5be76"}, "geometry": {"type": "Point", "coordinates": [10.20710508, 56.10724561]}},
{"type": "Feature", "id": "C6IWM4HrB-4iFD2L3dl0fjScI6k=", "properties": {"ref": "3187377", "@spider": "aldi_nord_dk", "shop": "supermarket", "addr:street_address": "Kamma Klitg\u00e5rds Gade 47", "addr:city": "Risskov", "addr:state": "Midtjylland", "addr:postcode": "8240", "addr:country": "DK", "name": "ALDI", "phone": "+45 70 70 74 17", "opening_hours": "Mo-Su 08:00-21:00", "brand": "ALDI", "brand:wikidata": "Q41171373", "nsi_id": "aldi-b5be76"}, "geometry": {"type": "Point", "coordinates": [10.20764099, 56.19578094]}},
{"type": "Feature", "id": "WN5TZQqrkC91qhguYHmSXaDqmuw=", "properties": {"ref": "3187378", "@spider": "aldi_nord_dk", "shop": "supermarket", "addr:street_address": "Vestergade 41", "addr:city": "Nyborg", "addr:state": "Syddanmark", "addr:postcode": "5800", "addr:country": "DK", "name": "ALDI", "phone": "+45 70 70 74 17", "opening_hours": "Mo-Su 08:00-21:00", "brand": "ALDI", "brand:wikidata": "Q41171373", "nsi_id": "aldi-b5be76"}, "geometry": {"type": "Point", "coordinates": [10.77824352, 55.31944955]}},
{"type": "Feature", "id": "3dH2sASDXr5PJccg7S0n-QmA_bo=", "properties": {"ref": "3187379", "@spider": "aldi_nord_dk", "shop": "supermarket", "addr:street_address": "Wendorfsvej 2", "addr:city": "Fredensborg", "addr:state": "Hovedstaden", "addr:postcode": "3480", "addr:country": "DK", "name": "ALDI", "phone": "+45 70 70 74 17", "opening_hours": "Mo-Su 08:00-21:00", "brand": "ALDI", "brand:wikidata": "Q41171373", "nsi_id": "aldi-b5be76"}, "geometry": {"type": "Point", "coordinates": [12.40204445, 55.97921278]}},
{"type": "Feature", "id": "jOyHO84wtgztpawLwAX7u2kephg=", "properties": {"ref": "3187380", "@spider": "aldi_nord_dk", "shop": "supermarket", "addr:street_address": "Kochsgade 121", "addr:city": "Odense C", "addr:state": "Syddanmark", "addr:postcode": "5000", "addr:country": "DK", "name": "ALDI", "phone": "+45 70 70 74 17", "opening_hours": "Mo-Su 08:00-21:00", "brand": "ALDI", "brand:wikidata": "Q41171373", "nsi_id": "aldi-b5be76"}, "geometry": {"type": "Point", "coordinates": [10.408807, 55.4101136]}},
{"type": "Feature", "id": "5qkHdkkb8tJ0z-BTXlE9F-Oc-_I=", "properties": {"ref": "3187381", "@spider": "aldi_nord_dk", "shop": "supermarket", "addr:street_address": "Lilli Gyldenkildes Torv 8", "addr:city": "Horsens", "addr:state": "Midtjylland", "addr:postcode": "8700", "addr:country": "DK", "name": "ALDI", "phone": "+45 70 70 74 17", "opening_hours": "Mo-Su 08:00-20:00", "brand": "ALDI", "brand:wikidata": "Q41171373", "nsi_id": "aldi-b5be76"}, "geometry": {"type": "Point", "coordinates": [9.84567852, 55.8590069]}},
{"type": "Feature", "id": "MvGZ18pGC6gG5fc4DN-OVthFEsc=", "properties": {"ref": "3187382", "@spider": "aldi_nord_dk", "shop": "supermarket", "addr:street_address": "Vejlebrovej 21", "addr:city": "Ish\u00f8j", "addr:state": "Hovedstaden", "addr:postcode": "2635", "addr:country": "DK", "name": "ALDI", "phone": "+45 70 70 74 17", "opening_hours": "Mo-Su 08:00-21:00", "brand": "ALDI", "brand:wikidata": "Q41171373", "nsi_id": "aldi-b5be76"}, "geometry": {"type": "Point", "coordinates": [12.3574186, 55.612239]}},
{"type": "Feature", "id": "qVasUh6ZEGQgauCbdSQj-2a7zJk=", "properties": {"ref": "3187383", "@spider": "aldi_nord_dk", "shop": "supermarket", "addr:street_address": "Toftek\u00e6r 6", "addr:city": "S\u00f8nders\u00f8", "addr:state": "Syddanmark", "addr:postcode": "5471", "addr:country": "DK", "name": "ALDI", "phone": "+45 70 70 74 17", "opening_hours": "Mo-Su 08:00-21:00", "brand": "ALDI", "brand:wikidata": "Q41171373", "nsi_id": "aldi-b5be76"}, "geometry": {"type": "Point", "coordinates": [10.25006097, 55.48156386]}},
{"type": "Feature", "id": "G7Axzf21ffoVoWi17ERisXZQOuA=", "properties": {"ref": "3187384", "@spider": "aldi_nord_dk", "shop": "supermarket", "addr:street_address": "Bisg\u00e5rdsvej 8", "addr:city": "Aalborg SV", "addr:state": "Nordjylland", "addr:postcode": "9200", "addr:country": "DK", "name": "ALDI", "phone": "+45 70 70 74 17", "opening_hours": "Mo-Su 08:00-21:00", "brand": "ALDI", "brand:wikidata": "Q41171373", "nsi_id": "aldi-b5be76"}, "geometry": {"type": "Point", "coordinates": [9.88671192, 57.00903485]}},
{"type": "Feature", "id": "5LVnNQ1RaAn8rGWDboUYY6TP_K0=", "properties": {"ref": "3582026", "@spider": "aldi_nord_dk", "shop": "supermarket", "addr:street_address": "Nordre H\u00f8jmarksvej 1", "addr:city": "Silkeborg", "addr:postcode": "8600", "addr:country": "DK", "name": "ALDI", "phone": "+45 70 70 74 17", "opening_hours": "Mo-Su 08:00-21:00", "brand": "ALDI", "brand:wikidata": "Q41171373", "nsi_id": "aldi-b5be76"}, "geometry": {"type": "Point", "coordinates": [9.5096583, 56.1871388]}}]}