{"type":"FeatureCollection","features":[{"type": "Feature", "id": "mGNyLPAXj9qIcqnD_PY9BptI-PQ=", "properties": {"ref": "alice-delice-boulogne-b-85793", "@spider": "alicedelice", "shop": "houseware", "addr:street_address": "LES PASSAGES DE L'HOTEL DE VILLE, CENTRE COMMERCIAL LES PASSAGES", "addr:city": "BOULOGNE-BILLANCOURT", "addr:postcode": "92100", "addr:country": "FR", "name": "ALICE DELICE BOULOGNE", "phone": "0146045986", "website": "https://www.alicedelice.com/alice-delice-boulogne-b-85793", "contact:facebook": "Alice-Delice-Boulogne-Billancourt-268829846889851", "brand": "Alice D\u00e9lice", "brand:wikidata": "Q105099543", "nsi_id": "alicedelice-1b912f"}, "geometry": {"type": "Point", "coordinates": [2.239309, 48.8369307]}},
{"type": "Feature", "id": "eb1j5NPPDmCIVvqa5UC7gUFT6T4=", "properties": {"ref": "alice-delice-nice-cap3000-b-85805", "@spider": "alicedelice", "shop": "houseware", "addr:street_address": "AVENUE EUGENE DONADEI, CENTRE COMMERCIAL NICE CAP 3000", "addr:city": "SAINT LAURENT DU VAR", "addr:postcode": "06700", "addr:country": "FR", "name": "ALICE DELICE NICE CAP3000", "phone": "0493319510", "website": "https://www.alicedelice.com/alice-delice-nice-cap3000-b-85805", "contact:facebook": "AliceDelice.nicecap3000", "brand": "Alice D\u00e9lice", "brand:wikidata": "Q105099543", "nsi_id": "alicedelice-1b912f"}, "geometry": {"type": "Point", "coordinates": [7.1952041, 43.6596876]}},
{"type": "Feature", "id": "DFGSzt1ptmZO0XWptoWL9APDhmI=", "properties": {"ref": "alice-delice-nice-b-85791", "@spider": "alicedelice", "shop": "houseware", "addr:street_address": "30 AVENUE JEAN MEDECIN, CENTRE COMMERCIAL NICETOILE", "addr:city": "NICE", "addr:postcode": "06000", "addr:country": "FR", "name": "ALICE DELICE NICE", "phone": "0493791040", "website": "https://www.alicedelice.com/alice-delice-nice-b-85791", "contact:facebook": "AliceDelice.nicetoile", "brand": "Alice D\u00e9lice", "brand:wikidata": "Q105099543", "nsi_id": "alicedelice-1b912f"}, "geometry": {"type": "Point", "coordinates": [7.267744, 43.701486]}},
{"type": "Feature", "id": "Y8nyetd1hZZYqy3fOGrp3m4OrHU=", "properties": {"ref": "alice-delice-montpellier-b-85800", "@spider": "alicedelice", "shop": "houseware", "addr:street_address": "1 RUE DES PERTUISANES, CENTRE COMMERCIAL POLYGONE", "addr:city": "MONTPELLIER", "addr:postcode": "34000", "addr:country": "FR", "name": "ALICE DELICE MONTPELLIER", "phone": "0467471289", "website": "https://www.alicedelice.com/alice-delice-montpellier-b-85800", "contact:facebook": "AliceDelice.montpellier", "brand": "Alice D\u00e9lice", "brand:wikidata": "Q105099543", "nsi_id": "alicedelice-1b912f"}, "geometry": {"type": "Point", "coordinates": [3.8854593, 43.6077795]}},
{"type": "Feature", "id": "YEAiEttzaYWOj6Yx20tngeNMLIU=", "properties": {"ref": "alice-delice-bordeaux-b-85796", "@spider": "alicedelice", "shop": "houseware", "addr:street_address": "20 RUE DES 3 CONILS", "addr:city": "BORDEAUX", "addr:postcode": "33000", "addr:country": "FR", "name": "ALICE DELICE BORDEAUX", "phone": "0557307181", "website": "https://www.alicedelice.com/alice-delice-bordeaux-b-85796", "contact:facebook": "AliceDelice.bordeaux", "brand": "Alice D\u00e9lice", "brand:wikidata": "Q105099543", "nsi_id": "alicedelice-1b912f"}, "geometry": {"type": "Point", "coordinates": [-0.57554, 44.8387071]}},
{"type": "Feature", "id": "BDFrJUrNTMZgOff8_AZaURHqWSE=", "properties": {"ref": "alice-delice-annecy-b-85788", "@spider": "alicedelice", "shop": "houseware", "addr:street_address": "65 BOULEVARD CARNOT, CENTRE COMMERCIAL COURIER", "addr:city": "ANNECY", "addr:postcode": "74000", "addr:country": "FR", "name": "ALICE DELICE ANNECY", "phone": "0450625552", "website": "https://www.alicedelice.com/alice-delice-annecy-b-85788", "contact:facebook": "AliceDelice.Annecy", "brand": "Alice D\u00e9lice", "brand:wikidata": "Q105099543", "nsi_id": "alicedelice-1b912f"}, "geometry": {"type": "Point", "coordinates": [6.1235798, 45.9040959]}},
{"type": "Feature", "id": "bY51-YD__mHVX5S1ASG3L-5HYZo=", "properties": {"ref": "alice-delice-val-thoiry-b-85798", "@spider": "alicedelice", "shop": "houseware", "addr:street_address": "1401 RUE DE LA GARE, CENTRE COMMERCIAL VAL THOIRY, ZONE DU PRE JACQUET", "addr:city": "THOIRY", "addr:postcode": "01710", "addr:country": "FR", "name": "ALICE DELICE VAL THOIRY", "phone": "0450286270", "website": "https://www.alicedelice.com/alice-delice-val-thoiry-b-85798", "contact:facebook": "AliceDelice.valthoiry", "brand": "Alice D\u00e9lice", "brand:wikidata": "Q105099543", "nsi_id": "alicedelice-1b912f"}, "geometry": {"type": "Point", "coordinates": [5.9934867, 46.2277307]}},
{"type": "Feature", "id": "UCHPcRuztH2jUxUtdXZs4XMFCd0=", "properties": {"ref": "alice-delice-rivetoile-b-85775", "@spider": "alicedelice", "shop": "houseware", "addr:street_address": "3 PLACE DAUPHINE, CENTRE COMMERCIAL RIVETOILE", "addr:city": "STRASBOURG", "addr:postcode": "67000", "addr:country": "FR", "name": "ALICE DELICE RIVETOILE", "phone": "0388409544", "website": "https://www.alicedelice.com/alice-delice-rivetoile-b-85775", "contact:facebook": "AliceDelice.rivetoile", "brand": "Alice D\u00e9lice", "brand:wikidata": "Q105099543", "nsi_id": "alicedelice-1b912f"}, "geometry": {"type": "Point", "coordinates": [7.7588233, 48.5734997]}},
{"type": "Feature", "id": "9OswtHRZzCY1T95vaHVHF1DKnq8=", "properties": {"ref": "alice-delice-aubette-b-85774", "@spider": "alicedelice", "shop": "houseware", "addr:street_address": "31 PLACE KLEBER, CENTRE COMMERCIAL GALERIE DE L'AUBETTE", "addr:city": "STRASBOURG", "addr:postcode": "67000", "addr:country": "FR", "name": "ALICE DELICE AUBETTE", "phone": "0388165834", "website": "https://www.alicedelice.com/alice-delice-aubette-b-85774", "contact:facebook": "AliceDelice.laubette", "brand": "Alice D\u00e9lice", "brand:wikidata": "Q105099543", "nsi_id": "alicedelice-1b912f"}, "geometry": {"type": "Point", "coordinates": [7.7465687, 48.5838031]}},
{"type": "Feature", "id": "Yjx3jf5MrzLbGU_Jk6fsIkDGmDs=", "properties": {"ref": "alice-delice-lyon-cv-b-85782", "@spider": "alicedelice", "shop": "houseware", "addr:street_address": "80 RUE DU PRESIDENT EDOUARD HERRIOT", "addr:city": "LYON", "addr:postcode": "69002", "addr:country": "FR", "name": "ALICE DELICE LYON CV", "phone": "0478928284", "website": "https://www.alicedelice.com/alice-delice-lyon-cv-b-85782", "contact:facebook": "AliceDeliceLyon", "brand": "Alice D\u00e9lice", "brand:wikidata": "Q105099543", "nsi_id": "alicedelice-1b912f"}, "geometry": {"type": "Point", "coordinates": [4.8337529, 45.7611827]}},
{"type": "Feature", "id": "xNbk_h9K_Bot_W2JrC7BO0_n0hY=", "properties": {"ref": "alice-delice-nantes-b-85789", "@spider": "alicedelice", "shop": "houseware", "addr:street_address": "20, PASSAGE POMMERAYE", "addr:city": "NANTES", "addr:postcode": "44000", "addr:country": "FR", "name": "ALICE DELICE NANTES", "phone": "0240740709", "website": "https://www.alicedelice.com/alice-delice-nantes-b-85789", "contact:facebook": "alicedelicenantes", "brand": "Alice D\u00e9lice", "brand:wikidata": "Q105099543", "nsi_id": "alicedelice-1b912f"}, "geometry": {"type": "Point", "coordinates": [-1.5603485, 47.2136756]}},
{"type": "Feature", "id": "VvEjq4jdOZfMyQXqioQn4OXAvhc=", "properties": {"ref": "alice-delice-nancy-b-85783", "@spider": "alicedelice", "shop": "houseware", "addr:street_address": "PLACE CHARLES III, RUE DES PONTS, CENTRE COMMERCIAL SAINT SEBASTIEN", "addr:city": "NANCY", "addr:postcode": "54000", "addr:country": "FR", "name": "ALICE DELICE NANCY", "phone": "0383303987", "website": "https://www.alicedelice.com/alice-delice-nancy-b-85783", "contact:facebook": "AliceDelice.nancy", "brand": "Alice D\u00e9lice", "brand:wikidata": "Q105099543", "nsi_id": "alicedelice-1b912f"}, "geometry": {"type": "Point", "coordinates": [6.18496, 48.68439]}},
{"type": "Feature", "id": "Egzs1kgWVCUrkMlSYIgFT3kuM_4=", "properties": {"ref": "alice-delice-dijon-b-85802", "@spider": "alicedelice", "shop": "houseware", "addr:street_address": "17 RUE DU BOURG", "addr:city": "DIJON", "addr:postcode": "21000", "addr:country": "FR", "name": "ALICE DELICE DIJON", "phone": "0380501001", "website": "https://www.alicedelice.com/alice-delice-dijon-b-85802", "contact:facebook": "AliceDelice.dijon", "brand": "Alice D\u00e9lice", "brand:wikidata": "Q105099543", "nsi_id": "alicedelice-1b912f"}, "geometry": {"type": "Point", "coordinates": [5.0397832, 47.3213654]}},
{"type": "Feature", "id": "C4hWKrh7QacbX4mIe2_nZL0kKiM=", "properties": {"ref": "alice-delice-lille-centre-b-85767", "@spider": "alicedelice", "shop": "houseware", "addr:street_address": "5 RUE ESQUERMOISE", "addr:city": "LILLE", "addr:postcode": "59000", "addr:country": "FR", "name": "ALICE DELICE LILLE CENTRE", "phone": "0320100183", "website": "https://www.alicedelice.com/alice-delice-lille-centre-b-85767", "contact:facebook": "AliceDelice.lille", "brand": "Alice D\u00e9lice", "brand:wikidata": "Q105099543", "nsi_id": "alicedelice-1b912f"}, "geometry": {"type": "Point", "coordinates": [3.0624577, 50.6372873]}},
{"type": "Feature", "id": "cLvcIXYz_8l-ou1y4G959WFtGAU=", "properties": {"ref": "alice-delice-valenciennes-b-85770", "@spider": "alicedelice", "shop": "houseware", "addr:street_address": "12 RUE DE LA HALLE, CENTRE COMMERCIAL COEUR DE VILLE, PLACE D'ARMES", "addr:city": "VALENCIENNES", "addr:postcode": "59300", "addr:country": "FR", "name": "ALICE DELICE VALENCIENNES", "phone": "0327336843", "website": "https://www.alicedelice.com/alice-delice-valenciennes-b-85770", "contact:facebook": "AliceDelice.valenciennes", "brand": "Alice D\u00e9lice", "brand:wikidata": "Q105099543", "nsi_id": "alicedelice-1b912f"}, "geometry": {"type": "Point", "coordinates": [3.5245718, 50.3570311]}},
{"type": "Feature", "id": "c5jGYyRTpKp7vyYM1Vg1KczyZcw=", "properties": {"ref": "alice-delice-reims-cv-b-1890999", "@spider": "alicedelice", "shop": "houseware", "addr:street_address": "13/15 PASSAGE TALLEYRAND", "addr:city": "REIMS", "addr:postcode": "51100", "addr:country": "FR", "name": "ALICE DELICE REIMS CV", "phone": "0326889550", "website": "https://www.alicedelice.com/alice-delice-reims-cv-b-1890999", "brand": "Alice D\u00e9lice", "brand:wikidata": "Q105099543", "nsi_id": "alicedelice-1b912f"}, "geometry": {"type": "Point", "coordinates": [4.0282631, 49.2547788]}},
{"type": "Feature", "id": "NTvIq_CibZxZrpVdB82g-GZXGAU=", "properties": {"ref": "alice-delice-amiens-b-85771", "@spider": "alicedelice", "shop": "houseware", "addr:street_address": "6-8 RUE ERNEST CAUVIN", "addr:city": "AMIENS", "addr:postcode": "80000", "addr:country": "FR", "name": "ALICE DELICE AMIENS", "phone": "0322926466", "website": "https://www.alicedelice.com/alice-delice-amiens-b-85771", "contact:facebook": "AliceDelice.amiens", "brand": "Alice D\u00e9lice", "brand:wikidata": "Q105099543", "nsi_id": "alicedelice-1b912f"}, "geometry": {"type": "Point", "coordinates": [2.295753, 49.894067]}},
{"type": "Feature", "id": "IxRsYZb9oA3D6BV9TrPs-ILisd0=", "properties": {"ref": "alice-delice-rouen-b-85778", "@spider": "alicedelice", "shop": "houseware", "addr:street_address": "BOULEVARD FERDINAND DE LESSEPS, CENTRE COMMERCIAL DOCKS 76, CELLULE 17", "addr:city": "ROUEN", "addr:postcode": "76000", "addr:country": "FR", "name": "ALICE DELICE ROUEN", "phone": "0235985390", "website": "https://www.alicedelice.com/alice-delice-rouen-b-85778", "contact:facebook": "AliceDelice.rouendocks76", "brand": "Alice D\u00e9lice", "brand:wikidata": "Q105099543", "nsi_id": "alicedelice-1b912f"}, "geometry": {"type": "Point", "coordinates": [1.0673646, 49.4449033]}},
{"type": "Feature", "id": "dbKsnW39ZmA4wacN3Vz6aiKfTfQ=", "properties": {"ref": "alice-delice-meaux-b-85801", "@spider": "alicedelice", "shop": "houseware", "addr:street_address": "3 AVENUE ROLAND MORENO, C CIAL LES SAISONS DE MEAUX", "addr:city": "CHAUCONIN NEUFMONTIERS", "addr:postcode": "77124", "addr:country": "FR", "name": "ALICE DELICE MEAUX", "phone": "0160097400", "website": "https://www.alicedelice.com/alice-delice-meaux-b-85801", "contact:facebook": "AliceDelice.lessaisonsdemeaux", "brand": "Alice D\u00e9lice", "brand:wikidata": "Q105099543", "nsi_id": "alicedelice-1b912f"}, "geometry": {"type": "Point", "coordinates": [2.8607554, 48.957678]}},
{"type": "Feature", "id": "JuHe8rbrws9jTQcsY05OcfoNQM0=", "properties": {"ref": "alice-delice-val-europe-b-85806", "@spider": "alicedelice", "shop": "houseware", "addr:street_address": "14 COURS DU DANUBE, CENTRE COMMERCIAL VAL D'EUROPE", "addr:city": "SERRIS", "addr:postcode": "77700", "addr:country": "FR", "name": "ALICE DELICE VAL EUROPE", "phone": "0160040004", "website": "https://www.alicedelice.com/alice-delice-val-europe-b-85806", "contact:facebook": "AliceDelice.valdeurope", "brand": "Alice D\u00e9lice", "brand:wikidata": "Q105099543", "nsi_id": "alicedelice-1b912f"}, "geometry": {"type": "Point", "coordinates": [2.776291, 48.8549085]}},
{"type": "Feature", "id": "4pk3yTjvyB4qoqVUZtLgI4b9ot0=", "properties": {"ref": "alice-delice-aeroville-b-85792", "@spider": "alicedelice", "shop": "houseware", "addr:street_address": "C CCIAL AEROVILLE -30 RUE DES BUISSONS", "addr:city": "ROISSY EN FRANCE", "addr:postcode": "95700", "addr:country": "FR", "name": "ALICE DELICE AEROVILLE", "phone": "0148600470", "website": "https://www.alicedelice.com/alice-delice-aeroville-b-85792", "contact:facebook": "AliceDelice.aeroville", "brand": "Alice D\u00e9lice", "brand:wikidata": "Q105099543", "nsi_id": "alicedelice-1b912f"}, "geometry": {"type": "Point", "coordinates": [2.5206038, 48.9928442]}},
{"type": "Feature", "id": "D1jTqAAzMJsM7VgS6sh59tfG9-o=", "properties": {"ref": "alice-delice-eragny-b-85784", "@spider": "alicedelice", "shop": "houseware", "addr:street_address": "1 RUE DU BAS NOYER, CENTRE COMMERCIAL ART DE VIVRE", "addr:city": "ERAGNY", "addr:postcode": "95610", "addr:country": "FR", "name": "ALICE DELICE ERAGNY", "phone": "0134021783", "website": "https://www.alicedelice.com/alice-delice-eragny-b-85784", "contact:facebook": "AliceDelice.eragny", "brand": "Alice D\u00e9lice", "brand:wikidata": "Q105099543", "nsi_id": "alicedelice-1b912f"}, "geometry": {"type": "Point", "coordinates": [2.1016002, 49.0317734]}},
{"type": "Feature", "id": "LGke_Rofd_sOZ3JZjMU-agHlShM=", "properties": {"ref": "alice-delice-thiais-b-85772", "@spider": "alicedelice", "shop": "houseware", "addr:street_address": "39 RUE DE LA RESISTANCE, CENTRE COMMERCIAL THIAIS VILLAGE, ZAC DU MOULIN A CAILLOUX", "addr:city": "THIAIS", "addr:postcode": "94320", "addr:country": "FR", "name": "ALICE DELICE THIAIS", "phone": "0148909401", "website": "https://www.alicedelice.com/alice-delice-thiais-b-85772", "contact:facebook": "AliceDelice.thiaisvillage", "brand": "Alice D\u00e9lice", "brand:wikidata": "Q105099543", "nsi_id": "alicedelice-1b912f"}, "geometry": {"type": "Point", "coordinates": [2.3876758, 48.7585782]}},
{"type": "Feature", "id": "2tDxaLsYS50T1kY3SWW6ZWzuV6k=", "properties": {"ref": "alice-delice-bercy-b-85773", "@spider": "alicedelice", "shop": "houseware", "addr:street_address": "COUR SAINT EMILION, CHAIS 7/9, CENTRE COMMERCIAL BERCY VILLAGE", "addr:city": "PARIS", "addr:postcode": "75012", "addr:country": "FR", "name": "ALICE DELICE BERCY", "phone": "0143429206", "website": "https://www.alicedelice.com/alice-delice-bercy-b-85773", "contact:facebook": "AliceDelice.bercyvillage", "brand": "Alice D\u00e9lice", "brand:wikidata": "Q105099543", "nsi_id": "alicedelice-1b912f"}, "geometry": {"type": "Point", "coordinates": [2.3857343, 48.8326202]}},
{"type": "Feature", "id": "nXupI9MiKQpyxv1mJt0yAOsQ55o=", "properties": {"ref": "alice-delice-paris-la-defense-b-85804", "@spider": "alicedelice", "shop": "houseware", "addr:street_address": "PARVIS DE LA DEFENSE, CENTRE COMMERCIAL LES 4 TEMPS, 1ER ETAGE EN ZONE FRAMBOISE", "addr:city": "NANTERRE", "addr:postcode": "92092", "addr:country": "FR", "name": "ALICE DELICE PARIS LA DEFENSE", "phone": "0147781309", "website": "https://www.alicedelice.com/alice-delice-paris-la-defense-b-85804", "contact:facebook": "AliceDelice.ladefense", "brand": "Alice D\u00e9lice", "brand:wikidata": "Q105099543", "nsi_id": "alicedelice-1b912f"}, "geometry": {"type": "Point", "coordinates": [2.2400833, 48.8911675]}}]}