{"type":"FeatureCollection","features":[{"type": "Feature", "id": "bm_gVcprLx4c3_MpDQensrI9_OQ=", "properties": {"ref": "Av. Las Am\u00e9ricas #608 Int 301", "@spider": "allied_universal", "addr:full": "Av. Las Am\u00e9ricas #608 Int 301, , Aguascalientes, 20230", "addr:street_address": "Av. Las Am\u00e9ricas #608 Int 301, ", "addr:city": "Aguascalientes", "addr:state": "Aguascalientes", "addr:postcode": "20230", "addr:country": "MX", "brand": "Allied Universal", "brand:wikidata": "Q4732537"}},
{"type": "Feature", "id": "IERbd2AfrB22PUKeFpJCNoV01Mo=", "properties": {"ref": "4300 B Street", "@spider": "allied_universal", "addr:full": "4300 B Street, Suite 305, Alaska, 99503", "addr:street_address": "4300 B Street, Suite 305", "addr:city": "Anchorage", "addr:state": "Alaska", "addr:postcode": "99503", "addr:country": "US", "phone": "907-561-5062", "website": "https://www.aus.com/anchorage-security-systems-services", "brand": "Allied Universal", "brand:wikidata": "Q4732537"}},
{"type": "Feature", "id": "A4DC9meB_BOZxUunVStxxw8wj8M=", "properties": {"ref": "2700 Highway 280 South", "@spider": "allied_universal", "addr:full": "2700 Highway 280 South, Suite 350 West, Alabama, 35223", "addr:street_address": "2700 Highway 280 South, Suite 350 West", "addr:city": "Mountain Brook", "addr:state": "Alabama", "addr:postcode": "35223", "addr:country": "US", "phone": "205-290-4333", "website": "https://www.aus.com/birmingham-security-systems-services", "brand": "Allied Universal", "brand:wikidata": "Q4732537"}},
{"type": "Feature", "id": "97IfuTUeJhvKnCcyGrZlSjHnuVw=", "properties": {"ref": "2100 Richard Arrington Jr. Blvd. N", "@spider": "allied_universal", "addr:full": "2100 Richard Arrington Jr. Blvd. N, , Alabama, 35203", "addr:street_address": "2100 Richard Arrington Jr. Blvd. N, ", "addr:city": "Birmingham", "addr:state": "Alabama", "addr:postcode": "35203", "addr:country": "US", "phone": "205-458-8303", "website": "https://www.aus.com/birmingham-security-systems-services", "brand": "Allied Universal", "brand:wikidata": "Q4732537"}},
{"type": "Feature", "id": "FJGCTfGu9LlhPmVgXAbWBjt_Cmc=", "properties": {"ref": "Tanger Outlet Center", "@spider": "allied_universal", "addr:full": "Tanger Outlet Center, , Alabama, 36535", "addr:street_address": "Tanger Outlet Center, ", "addr:city": "Foley", "addr:state": "Alabama", "addr:postcode": "36535", "addr:country": "US", "brand": "Allied Universal", "brand:wikidata": "Q4732537"}},
{"type": "Feature", "id": "HuczbnvGLOTGrr8A3003vl9I4pg=", "properties": {"ref": "4801 University Square", "@spider": "allied_universal", "addr:full": "4801 University Square, Suite 24, Alabama, 35758", "addr:street_address": "4801 University Square, Suite 24", "addr:city": "Huntsville", "addr:state": "Alabama", "addr:postcode": "35758", "addr:country": "US", "phone": "256-724-9200", "website": "https://www.aus.com/huntsville-security-system-services", "brand": "Allied Universal", "brand:wikidata": "Q4732537"}},
{"type": "Feature", "id": "F5KuS_5WqZAsb6TL2mYqXNNrZC8=", "properties": {"ref": "1900 Crestwood Boulevard", "@spider": "allied_universal", "addr:full": "1900 Crestwood Boulevard, Suite 211, Alabama, 35210", "addr:street_address": "1900 Crestwood Boulevard, Suite 211", "addr:city": "Irondale", "addr:state": "Alabama", "addr:postcode": "35210", "addr:country": "US", "website": "https://www.aus.com/birmingham-security-systems-services", "brand": "Allied Universal", "brand:wikidata": "Q4732537"}},
{"type": "Feature", "id": "2TuaJo2w6n-t34NvTJ-Yq8i_VCk=", "properties": {"ref": "63 N Mt. Pleasant Road", "@spider": "allied_universal", "addr:full": "63 N Mt. Pleasant Road, , Alabama, 36460", "addr:street_address": "63 N Mt. Pleasant Road, ", "addr:city": "Monroeville", "addr:state": "Alabama", "addr:postcode": "36460", "addr:country": "US", "phone": "251-575-2432", "brand": "Allied Universal", "brand:wikidata": "Q4732537"}},
{"type": "Feature", "id": "yJC9NllwkdP0EGfDafU4BYkqtbs=", "properties": {"ref": "452 Clay Street", "@spider": "allied_universal", "addr:full": "452 Clay Street, , Alabama, 36104", "addr:street_address": "452 Clay Street, ", "addr:city": "Montgomery", "addr:state": "Alabama", "addr:postcode": "36104", "addr:country": "US", "phone": "334-262-6362", "website": "https://www.aus.com/montgomery-security-system-services", "brand": "Allied Universal", "brand:wikidata": "Q4732537"}},
{"type": "Feature", "id": "iPHibB4fRkkZ90c6kHQ7kixVtMA=", "properties": {"ref": "1 Retail Drive", "@spider": "allied_universal", "addr:full": "1 Retail Drive, , Alabama, 36110", "addr:street_address": "1 Retail Drive, ", "addr:city": "Montgomery", "addr:state": "Alabama", "addr:postcode": "36110", "addr:country": "US", "phone": "334-394-6040", "brand": "Allied Universal", "brand:wikidata": "Q4732537"}},
{"type": "Feature", "id": "S3qmXf6CdKuloLuYyaB40plvNeI=", "properties": {"ref": "142 - 855-42 Avenue SE", "@spider": "allied_universal", "addr:full": "142 - 855-42 Avenue SE, , Alberta, T2G 1Y8", "addr:street_address": "142 - 855-42 Avenue SE, ", "addr:city": "Calgary", "addr:state": "Alberta", "addr:postcode": "T2G 1Y8", "addr:country": "CA", "phone": "888-717-4447", "website": "https://ausecurity.ca/calgary-security-systems-services", "brand": "Allied Universal", "brand:wikidata": "Q4732537"}},
{"type": "Feature", "id": "d23yuQ-W-kgH02jSE-dfpptGIhQ=", "properties": {"ref": "9618 - 42nd Avenue", "@spider": "allied_universal", "addr:full": "9618 - 42nd Avenue, Unit 200, Alberta, T6E 5Y4", "addr:street_address": "9618 - 42nd Avenue, Unit 200", "addr:city": "Edmonton", "addr:state": "Alberta", "addr:postcode": "T6E 5Y4", "addr:country": "CA", "phone": "888-717-4447", "website": "https://ausecurity.ca/edmonton-security-system-services", "brand": "Allied Universal", "brand:wikidata": "Q4732537"}},
{"type": "Feature", "id": "sVzhxDpjba7cyCFMcARGjZ0EkNM=", "properties": {"ref": "401 W Capitol Avenue", "@spider": "allied_universal", "addr:full": "401 W Capitol Avenue, , Arkansas, 72201", "addr:street_address": "401 W Capitol Avenue, ", "addr:city": "Little Rock", "addr:state": "Arkansas", "addr:postcode": "72201", "addr:country": "US", "phone": "501-374-3713", "website": "https://www.aus.com/little-rock-security-systems-services", "brand": "Allied Universal", "brand:wikidata": "Q4732537"}},
{"type": "Feature", "id": "aHQmGFGoeDLQDUSObRdjGt3Eso8=", "properties": {"ref": "7776 S. Pointe Parkway West", "@spider": "allied_universal", "addr:full": "7776 S. Pointe Parkway West, Suite 290, Arizona, 85044", "addr:street_address": "7776 S. Pointe Parkway West, Suite 290", "addr:city": "Pheonix", "addr:state": "Arizona", "addr:postcode": "85044", "addr:country": "US", "phone": "480-464-4688", "website": "https://www.aus.com/phoenix-security-services-systems", "brand": "Allied Universal", "brand:wikidata": "Q4732537"}},
{"type": "Feature", "id": "uLm9dbsGLvwRr4U2nINzs5To_U8=", "properties": {"ref": "3030 North Central Avenue", "@spider": "allied_universal", "addr:full": "3030 North Central Avenue, Suite 407, Arizona, 85012", "addr:street_address": "3030 North Central Avenue, Suite 407", "addr:city": "Phoenix", "addr:state": "Arizona", "addr:postcode": "85012", "addr:country": "US", "phone": "602-273-0900", "website": "https://www.aus.com/phoenix-security-services-systems", "brand": "Allied Universal", "brand:wikidata": "Q4732537"}},
{"type": "Feature", "id": "osoWZZDgu4lvriWa82ThZzGYdWc=", "properties": {"ref": "1971 E 5th St", "@spider": "allied_universal", "addr:full": "1971 E 5th St, Suite 101, Arizona, 85281", "addr:street_address": "1971 E 5th St, Suite 101", "addr:city": "Tempe", "addr:state": "Arizona", "addr:postcode": "85281", "addr:country": "US", "phone": "480-921-4131", "website": "https://www.aus.com/phoenix-security-services-systems", "brand": "Allied Universal", "brand:wikidata": "Q4732537"}},
{"type": "Feature", "id": "2YtQ5hqpPSWYt6SamxxlKGxNEdU=", "properties": {"ref": "5210 E. Williams Circle", "@spider": "allied_universal", "addr:full": "5210 E. Williams Circle, Suite 610, Arizona, 85711", "addr:street_address": "5210 E. Williams Circle, Suite 610", "addr:city": "Tucson", "addr:state": "Arizona", "addr:postcode": "85711", "addr:country": "US", "phone": "520-319-1911", "website": "https://www.aus.com/tucson-security-systems-services", "brand": "Allied Universal", "brand:wikidata": "Q4732537"}},
{"type": "Feature", "id": "ohOpvidgaTM4bLIe9Acfw9g3jrk=", "properties": {"ref": "Av. Hidalgo 226, Local 24", "@spider": "allied_universal", "addr:full": "Av. Hidalgo 226, Local 24, , BN, 21400", "addr:street_address": "Av. Hidalgo 226, Local 24, ", "addr:city": "Tecate", "addr:state": "BN", "addr:postcode": "21400", "addr:country": "MX", "brand": "Allied Universal", "brand:wikidata": "Q4732537"}},
{"type": "Feature", "id": "QgCO9yx3G1gDq0ayz9KHvDn71Zg=", "properties": {"ref": "Av Castro 7009 Local 2", "@spider": "allied_universal", "addr:full": "Av Castro 7009 Local 2, 1\u00b0 Piso, BN, 22115", "addr:street_address": "Av Castro 7009 Local 2, 1\u00b0 Piso", "addr:city": "Tijuana", "addr:state": "BN", "addr:postcode": "22115", "addr:country": "MX", "brand": "Allied Universal", "brand:wikidata": "Q4732537"}},
{"type": "Feature", "id": "NxQlLP4kqejqHaQU1SN4Dz7q2WM=", "properties": {"ref": "205-9900 King George Boulevard", "@spider": "allied_universal", "addr:full": "205-9900 King George Boulevard, , British Columbia, V3T 4Y3", "addr:street_address": "205-9900 King George Boulevard, ", "addr:city": "Surrey", "addr:state": "British Columbia", "addr:postcode": "V3T 4Y3", "addr:country": "CA", "phone": "888-717-4447", "website": "https://ausecurity.ca/vancouver-security-systems-services", "brand": "Allied Universal", "brand:wikidata": "Q4732537"}},
{"type": "Feature", "id": "vTOQ14KAIFzfuX-e18CISP74r5I=", "properties": {"ref": "4540 California Avenue", "@spider": "allied_universal", "addr:full": "4540 California Avenue, Suite 500, California, 93309", "addr:street_address": "4540 California Avenue, Suite 500", "addr:city": "Bakersfield", "addr:state": "California", "addr:postcode": "93309", "addr:country": "US", "phone": "661-438-5024", "website": "https://www.aus.com/bakersfield-security-systems-services", "brand": "Allied Universal", "brand:wikidata": "Q4732537"}},
{"type": "Feature", "id": "vJMuUdRajeVBEmLAlN4H8DPy1I8=", "properties": {"ref": "1855 Gateway Blvd", "@spider": "allied_universal", "addr:full": "1855 Gateway Blvd, Suite 140, California, 94520", "addr:street_address": "1855 Gateway Blvd, Suite 140", "addr:city": "Concord", "addr:state": "California", "addr:postcode": "94520", "addr:country": "US", "phone": "510-839-4041", "website": "https://www.aus.com/san-francisco-security-systems-services", "brand": "Allied Universal", "brand:wikidata": "Q4732537"}},
{"type": "Feature", "id": "MIe8jVemDzQ4zixInRHpFbeo8Gs=", "properties": {"ref": "39141 Civic Center Drive", "@spider": "allied_universal", "addr:full": "39141 Civic Center Drive, , California, 94538", "addr:street_address": "39141 Civic Center Drive, ", "addr:city": "Fremont", "addr:state": "California", "addr:postcode": "94538", "addr:country": "US", "phone": "669-900-0279", "website": "https://www.aus.com/san-jose-security-systems-services", "brand": "Allied Universal", "brand:wikidata": "Q4732537"}},
{"type": "Feature", "id": "zZGfWNWN04cuVBn2GGtI0LAUlwk=", "properties": {"ref": "2519 W. Shaw Avenue", "@spider": "allied_universal", "addr:full": "2519 W. Shaw Avenue, , California, 93711", "addr:street_address": "2519 W. Shaw Avenue, ", "addr:city": "Fresno", "addr:state": "California", "addr:postcode": "93711", "addr:country": "US", "website": "https://www.aus.com/fresno-security-systems-services", "brand": "Allied Universal", "brand:wikidata": "Q4732537"}},
{"type": "Feature", "id": "6CcxhqTyUZR9DRMFFstm0fwdM78=", "properties": {"ref": "600 W. Shaw Avenue, Suite 200", "@spider": "allied_universal", "addr:full": "600 W. Shaw Avenue, Suite 200, , California, 93704", "addr:street_address": "600 W. Shaw Avenue, Suite 200, ", "addr:city": "Fresno", "addr:state": "California", "addr:postcode": "93704", "addr:country": "US", "phone": "559-243-1217", "website": "https://www.aus.com/fresno-security-systems-services", "brand": "Allied Universal", "brand:wikidata": "Q4732537"}},
{"type": "Feature", "id": "Q-pdqSQ2QTmEExlmCMVpiyqpacU=", "properties": {"ref": "535 North Brand Boulevard", "@spider": "allied_universal", "addr:full": "535 North Brand Boulevard, , California, 91203", "addr:street_address": "535 North Brand Boulevard, ", "addr:city": "Glendale", "addr:state": "California", "addr:postcode": "91203", "addr:country": "US", "phone": "800-452-1622", "website": "https://www.aus.com/los-angeles-security-services-systems", "brand": "Allied Universal", "brand:wikidata": "Q4732537"}},
{"type": "Feature", "id": "3RkZrAFf6noHVIQNz6rHnYdW6YQ=", "properties": {"ref": "2301 Armstrong St", "@spider": "allied_universal", "addr:full": "2301 Armstrong St, , California, 94551", "addr:street_address": "2301 Armstrong St, ", "addr:city": "Livermore", "addr:state": "California", "addr:postcode": "94551", "addr:country": "US", "phone": "510-633-1300", "website": "https://www.aus.com/san-jose-security-systems-services", "brand": "Allied Universal", "brand:wikidata": "Q4732537"}},
{"type": "Feature", "id": "NVFhYjSHgg4QGEy0LeG6V9w2N0Q=", "properties": {"ref": "300 East Ocean Blvd.", "@spider": "allied_universal", "addr:full": "300 East Ocean Blvd., , California, 90802", "addr:street_address": "300 East Ocean Blvd., ", "addr:city": "Long Beach", "addr:state": "California", "addr:postcode": "90802", "addr:country": "US", "phone": "562-436-3636 x593", "website": "https://www.aus.com/los-angeles-security-services-systems", "brand": "Allied Universal", "brand:wikidata": "Q4732537"}},
{"type": "Feature", "id": "S7FAci2baNwSXyQA-NwLepz1Gvg=", "properties": {"ref": "700 S. Flower Street", "@spider": "allied_universal", "addr:full": "700 S. Flower Street, Suite 400, California, 90017", "addr:street_address": "700 S. Flower Street, Suite 400", "addr:city": "Los Angeles", "addr:state": "California", "addr:postcode": "90017", "addr:country": "US", "phone": "Recruiting: 323-333-7466<br>323-937-4016", "website": "https://www.aus.com/los-angeles-security-services-systems", "brand": "Allied Universal", "brand:wikidata": "Q4732537"}},
{"type": "Feature", "id": "wF1oi_6mQYm6zZCFEdKXe18Cxxc=", "properties": {"ref": "1400 N. Harbor Blvd.", "@spider": "allied_universal", "addr:full": "1400 N. Harbor Blvd., Suite 305-B, California, 92835", "addr:street_address": "1400 N. Harbor Blvd., Suite 305-B", "addr:city": "Fullerton", "addr:state": "California", "addr:postcode": "92835", "addr:country": "US", "phone": "714-230-7200", "website": "https://www.aus.com/los-angeles-security-services-systems", "brand": "Allied Universal", "brand:wikidata": "Q4732537"}},
{"type": "Feature", "id": "E_0nXTctdxXpKh-tvML8BsVDAvo=", "properties": {"ref": "801 15th Street", "@spider": "allied_universal", "addr:full": "801 15th Street, , California, 95354", "addr:street_address": "801 15th Street, ", "addr:city": "Modesto", "addr:state": "California", "addr:postcode": "95354", "addr:country": "US", "website": "https://www.aus.com/stockton-security-services-systems", "brand": "Allied Universal", "brand:wikidata": "Q4732537"}},
{"type": "Feature", "id": "w_1CVeX8kTzEnrJmFMK29pxtBnU=", "properties": {"ref": "1473 N. Davis Road", "@spider": "allied_universal", "addr:full": "1473 N. Davis Road, , California, 93906", "addr:street_address": "1473 N. Davis Road, ", "addr:city": "Salinas", "addr:state": "California", "addr:postcode": "93906", "addr:country": "US", "phone": "831-769-8981", "website": "https://www.aus.com/san-jose-security-systems-services", "brand": "Allied Universal", "brand:wikidata": "Q4732537"}},
{"type": "Feature", "id": "h0qR8O2aKoHlFpcUtKvpo5XiHx8=", "properties": {"ref": "550 Gateway Drive", "@spider": "allied_universal", "addr:full": "550 Gateway Drive, Suite 101, California, 94558", "addr:street_address": "550 Gateway Drive, Suite 101", "addr:city": "Napa", "addr:state": "California", "addr:postcode": "94558", "addr:country": "US", "phone": "707-258-8841", "website": "https://www.aus.com/napa-security-systems-services", "brand": "Allied Universal", "brand:wikidata": "Q4732537"}},
{"type": "Feature", "id": "m_BV2L3O2HAgn5Mvhsx9QTZ9jLk=", "properties": {"ref": "13035 Rosecrans Avenue", "@spider": "allied_universal", "addr:full": "13035 Rosecrans Avenue, , California, 90650", "addr:street_address": "13035 Rosecrans Avenue, ", "addr:city": "Norwalk", "addr:state": "California", "addr:postcode": "90650", "addr:country": "US", "phone": "212-509-1336", "website": "https://www.aus.com/los-angeles-security-services-systems", "brand": "Allied Universal", "brand:wikidata": "Q4732537"}},
{"type": "Feature", "id": "YXk_HVT93kkmeLvQUN3-ZufavWo=", "properties": {"ref": "7000 Joe Morgan Way", "@spider": "allied_universal", "addr:full": "7000 Joe Morgan Way, Suite 104, California, 94621", "addr:street_address": "7000 Joe Morgan Way, Suite 104", "addr:city": "Oakland", "addr:state": "California", "addr:postcode": "94621", "addr:country": "US", "phone": "510-563-2322", "website": "https://www.aus.com/oakland-security-systems-services", "brand": "Allied Universal", "brand:wikidata": "Q4732537"}},
{"type": "Feature", "id": "xDkZ37QfvPczlRKyKrs9ECL2-vk=", "properties": {"ref": "100 Hegenberger Road, Suite 130", "@spider": "allied_universal", "addr:full": "100 Hegenberger Road, Suite 130, , California, 94621", "addr:street_address": "100 Hegenberger Road, Suite 130, ", "addr:city": "Oakland", "addr:state": "California", "addr:postcode": "94621", "addr:country": "US", "phone": "510-562-7606", "website": "https://www.aus.com/oakland-security-systems-services", "brand": "Allied Universal", "brand:wikidata": "Q4732537"}},
{"type": "Feature", "id": "Dr9y0qld4XUN2uHX4fL6aJ2da9M=", "properties": {"ref": "4200 Jurupa Street", "@spider": "allied_universal", "addr:full": "4200 Jurupa Street, Suite 314, California, 91761", "addr:street_address": "4200 Jurupa Street, Suite 314", "addr:city": "Ontario", "addr:state": "California", "addr:postcode": "91761", "addr:country": "US", "phone": "951-256-4601", "website": "https://www.aus.com/los-angeles-security-services-systems", "brand": "Allied Universal", "brand:wikidata": "Q4732537"}},
{"type": "Feature", "id": "gDGw8jyLmPC0VyuELSN4VbxoZIM=", "properties": {"ref": "765 The City Drive S., Suite 150", "@spider": "allied_universal", "addr:full": "765 The City Drive S., Suite 150, , California, 92868", "addr:street_address": "765 The City Drive S., Suite 150, ", "addr:city": "Orange", "addr:state": "California", "addr:postcode": "92868", "addr:country": "US", "phone": "714-260-0805", "website": "https://www.aus.com/los-angeles-security-services-systems", "brand": "Allied Universal", "brand:wikidata": "Q4732537"}},
{"type": "Feature", "id": "HtWOfqF03JD7HZe3vM-6k4WfKxs=", "properties": {"ref": "300 E. Esplanade Drive, Suite 1510", "@spider": "allied_universal", "addr:full": "300 E. Esplanade Drive, Suite 1510, Suite 1510, California, 93036", "addr:street_address": "300 E. Esplanade Drive, Suite 1510, Suite 1510", "addr:city": "Oxnard", "addr:state": "California", "addr:postcode": "93036", "addr:country": "US", "phone": "805-983-1204", "website": "https://www.aus.com/oxnard-ventura-security-systems-services", "brand": "Allied Universal", "brand:wikidata": "Q4732537"}},
{"type": "Feature", "id": "pw4Yns1hrSYVfZj7I_n9EL8kTdc=", "properties": {"ref": "77-725 Enfield Lane", "@spider": "allied_universal", "addr:full": "77-725 Enfield Lane, Suites 150, 160, 170, California, 92211", "addr:street_address": "77-725 Enfield Lane, Suites 150, 160, 170", "addr:city": "Palm Desert", "addr:state": "California", "addr:postcode": "92211", "addr:country": "US", "phone": "760-200-2865", "website": "https://www.aus.com/palm-desert-security-systems-services", "brand": "Allied Universal", "brand:wikidata": "Q4732537"}},
{"type": "Feature", "id": "GRFbbH-TWxvRJkv-ip5Rahcr8yo=", "properties": {"ref": "40015 Sierra Highway, Suite B-250", "@spider": "allied_universal", "addr:full": "40015 Sierra Highway, Suite B-250, Suite B-250, California, 93550", "addr:street_address": "40015 Sierra Highway, Suite B-250, Suite B-250", "addr:city": "Palmdale", "addr:state": "California", "addr:postcode": "93550", "addr:country": "US", "phone": "661-349-7050", "website": "https://www.aus.com/palmdale-security-systems-services", "brand": "Allied Universal", "brand:wikidata": "Q4732537"}},
{"type": "Feature", "id": "P7VKjWseY4uvqo655UF46HNhsWo=", "properties": {"ref": "227H Tewksbury Avenue", "@spider": "allied_universal", "addr:full": "227H Tewksbury Avenue, , California, 94801", "addr:street_address": "227H Tewksbury Avenue, ", "addr:city": "Port Richmond", "addr:state": "California", "addr:postcode": "94801", "addr:country": "US", "phone": "707-258-8841", "website": "https://www.aus.com/san-francisco-security-systems-services", "brand": "Allied Universal", "brand:wikidata": "Q4732537"}},
{"type": "Feature", "id": "WqkS27kH2xFwmqIF7qbpeFwbKpk=", "properties": {"ref": "1700 Iowa Ave., Suite 100", "@spider": "allied_universal", "addr:full": "1700 Iowa Ave., Suite 100, , California, 92507", "addr:street_address": "1700 Iowa Ave., Suite 100, ", "addr:city": "Riverside", "addr:state": "California", "addr:postcode": "92507", "addr:country": "US", "phone": "951-343-5817", "website": "https://www.aus.com/riverside-security-systems-services", "brand": "Allied Universal", "brand:wikidata": "Q4732537"}},
{"type": "Feature", "id": "ZMKqdSyDByXMOfJmRHVJJ4Y5AyU=", "properties": {"ref": "8950 Cal Center Drive", "@spider": "allied_universal", "addr:full": "8950 Cal Center Drive, Suite 115, California, 95826", "addr:street_address": "8950 Cal Center Drive, Suite 115", "addr:city": "Sacramento", "addr:state": "California", "addr:postcode": "95826", "addr:country": "US", "phone": "916-448-0400", "website": "https://www.aus.com/sacramento-security-systems-services", "brand": "Allied Universal", "brand:wikidata": "Q4732537"}},
{"type": "Feature", "id": "QeJQaLMSiP1UNx7hIFkHyYUD7WY=", "properties": {"ref": "432 Redlands Boulevard", "@spider": "allied_universal", "addr:full": "432 Redlands Boulevard, , California, 92408", "addr:street_address": "432 Redlands Boulevard, ", "addr:city": "San Bernardino", "addr:state": "California", "addr:postcode": "92408", "addr:country": "US", "website": "https://www.aus.com/riverside-security-systems-services", "brand": "Allied Universal", "brand:wikidata": "Q4732537"}},
{"type": "Feature", "id": "1y-tX6t45N_gBHrojOVxbd-kzOU=", "properties": {"ref": "7350 Opportunity Road", "@spider": "allied_universal", "addr:full": "7350 Opportunity Road, , California, 92111", "addr:street_address": "7350 Opportunity Road, ", "addr:city": "San Diego", "addr:state": "California", "addr:postcode": "92111", "addr:country": "US", "phone": "858-609-1541", "website": "https://www.aus.com/san-diego-security-services-systems", "brand": "Allied Universal", "brand:wikidata": "Q4732537"}},
{"type": "Feature", "id": "vzfsmF0PcgfhSGwo3Y1FbVIdgaQ=", "properties": {"ref": "9320 Hazard Way", "@spider": "allied_universal", "addr:full": "9320 Hazard Way, Suite A1, California, 92123", "addr:street_address": "9320 Hazard Way, Suite A1", "addr:city": "San Diego", "addr:state": "California", "addr:postcode": "92123", "addr:country": "US", "phone": "866-885-3717", "website": "https://www.aus.com/san-diego-security-services-systems", "brand": "Allied Universal", "brand:wikidata": "Q4732537"}},
{"type": "Feature", "id": "cmIAhmYIMDrcXU8UpNjzbbKss2U=", "properties": {"ref": "675 Convention Way", "@spider": "allied_universal", "addr:full": "675 Convention Way, , California, 92101", "addr:street_address": "675 Convention Way, ", "addr:city": "San Diego", "addr:state": "California", "addr:postcode": "92101", "addr:country": "US", "phone": "619-544-1774", "website": "https://www.aus.com/san-diego-security-services-systems", "brand": "Allied Universal", "brand:wikidata": "Q4732537"}},
{"type": "Feature", "id": "KkM71ctImso215Xz8IO35cWHTWQ=", "properties": {"ref": "10680 Treena Street", "@spider": "allied_universal", "addr:full": "10680 Treena Street, Suite 450, California, 92131", "addr:street_address": "10680 Treena Street, Suite 450", "addr:city": "San Diego", "addr:state": "California", "addr:postcode": "92131", "addr:country": "US", "phone": "619-275-7000", "website": "https://www.aus.com/san-diego-security-services-systems", "brand": "Allied Universal", "brand:wikidata": "Q4732537"}},
{"type": "Feature", "id": "HZeQK2XgU4yyHx8-SRYAmWTk-hI=", "properties": {"ref": "8001-8007 Vickers St.", "@spider": "allied_universal", "addr:full": "8001-8007 Vickers St., , California, 92111", "addr:street_address": "8001-8007 Vickers St., ", "addr:city": "San Diego", "addr:state": "California", "addr:postcode": "92111", "addr:country": "US", "phone": "858-244-1850", "website": "https://www.aus.com/san-diego-security-services-systems", "brand": "Allied Universal", "brand:wikidata": "Q4732537"}},
{"type": "Feature", "id": "fTtL7xl6PT3-I5-JaXeZCid4tcA=", "properties": {"ref": "21300 Victory Boulevard", "@spider": "allied_universal", "addr:full": "21300 Victory Boulevard, Suite 600, California, 91367<br>Recruiting: 818.963.1567", "addr:street_address": "21300 Victory Boulevard, Suite 600", "addr:city": "Woodland Hills", "addr:state": "California", "addr:postcode": "91367<br>Recruiting: 818.963.1567", "addr:country": "US", "phone": "Phone: 818-227-1240", "website": "https://www.aus.com/los-angeles-security-services-systems", "brand": "Allied Universal", "brand:wikidata": "Q4732537"}},
{"type": "Feature", "id": "zJu1a5itH5H4FJqvok6FBNPaTdg=", "properties": {"ref": "400 Montgomery St.", "@spider": "allied_universal", "addr:full": "400 Montgomery St., 7th Floor, California, 94104", "addr:street_address": "400 Montgomery St., 7th Floor", "addr:city": "San Francisco", "addr:state": "California", "addr:postcode": "94104", "addr:country": "US", "phone": "415-926-6401", "website": "https://www.aus.com/san-francisco-security-systems-services", "brand": "Allied Universal", "brand:wikidata": "Q4732537"}},
{"type": "Feature", "id": "hn811nxHzb8ktS9l0RJPqbf8wOk=", "properties": {"ref": "1 Warriors Way", "@spider": "allied_universal", "addr:full": "1 Warriors Way, , California, 94158", "addr:street_address": "1 Warriors Way, ", "addr:city": "San Francisco", "addr:state": "California", "addr:postcode": "94158", "addr:country": "US", "phone": "415-706-3494", "website": "https://www.aus.com/san-francisco-security-systems-services", "brand": "Allied Universal", "brand:wikidata": "Q4732537"}},
{"type": "Feature", "id": "N678xIURuf0LPJ6ajB1t0aswNac=", "properties": {"ref": "156 S Spruce Street", "@spider": "allied_universal", "addr:full": "156 S Spruce Street, Suite #213, California, 94080", "addr:street_address": "156 S Spruce Street, Suite #213", "addr:city": "South San Francisco", "addr:state": "California", "addr:postcode": "94080", "addr:country": "US", "phone": "408-421-9629", "website": "https://www.aus.com/san-francisco-security-systems-services", "brand": "Allied Universal", "brand:wikidata": "Q4732537"}},
{"type": "Feature", "id": "XYbww21nxc1nhWWHWYDCWF9F7IU=", "properties": {"ref": "2025 Gateway Place", "@spider": "allied_universal", "addr:full": "2025 Gateway Place, Suite 160, California, 95110", "addr:street_address": "2025 Gateway Place, Suite 160", "addr:city": "San Jose", "addr:state": "California", "addr:postcode": "95110", "addr:country": "US", "phone": "408-954-8274", "website": "https://www.aus.com/san-jose-security-systems-services", "brand": "Allied Universal", "brand:wikidata": "Q4732537"}},
{"type": "Feature", "id": "jk_VFdpowY0OdoFkjB67fZ6T3ao=", "properties": {"ref": "533 Airport Blvd.", "@spider": "allied_universal", "addr:full": "533 Airport Blvd., Suite 303, California, 94010", "addr:street_address": "533 Airport Blvd., Suite 303", "addr:city": "Burlingame", "addr:state": "California", "addr:postcode": "94010", "addr:country": "US", "phone": "650-685-2400", "website": "https://www.aus.com/san-francisco-security-systems-services", "brand": "Allied Universal", "brand:wikidata": "Q4732537"}},
{"type": "Feature", "id": "KuiYcOZnSjwxwJQbes9jy8MuRes=", "properties": {"ref": "2173 N. Francisco Blvd", "@spider": "allied_universal", "addr:full": "2173 N. Francisco Blvd, , California, 94901", "addr:street_address": "2173 N. Francisco Blvd, ", "addr:city": "San Rafael", "addr:state": "California", "addr:postcode": "94901", "addr:country": "US", "website": "https://www.aus.com/san-francisco-security-systems-services", "brand": "Allied Universal", "brand:wikidata": "Q4732537"}},
{"type": "Feature", "id": "f7cqe7sr4ZvryN8qZ9sgMm3iCWY=", "properties": {"ref": "1815 E. Wilshire Avenue", "@spider": "allied_universal", "addr:full": "1815 E. Wilshire Avenue, #910, California, 92705", "addr:street_address": "1815 E. Wilshire Avenue, #910", "addr:city": "Santa Ana", "addr:state": "California", "addr:postcode": "92705", "addr:country": "US", "phone": "714-923-3700", "website": "https://www.aus.com/los-angeles-security-services-systems", "brand": "Allied Universal", "brand:wikidata": "Q4732537"}},
{"type": "Feature", "id": "k17zpiC4GJIdViX2UroCw0xC4ts=", "properties": {"ref": "1815 E. Wilshire Ave", "@spider": "allied_universal", "addr:full": "1815 E. Wilshire Ave, Suite #912, California, 92705", "addr:street_address": "1815 E. Wilshire Ave, Suite #912", "addr:city": "Santa Ana", "addr:state": "California", "addr:postcode": "92705", "addr:country": "US", "phone": "714-923-3700", "website": "https://www.aus.com/los-angeles-security-services-systems", "brand": "Allied Universal", "brand:wikidata": "Q4732537"}},
{"type": "Feature", "id": "s7Qi5WOKWl-vRHmLM0naYZvO-2c=", "properties": {"ref": "1551 N. Tustin Avenue", "@spider": "allied_universal", "addr:full": "1551 N. Tustin Avenue, Suite #650, California, 92705", "addr:street_address": "1551 N. Tustin Avenue, Suite #650", "addr:city": "Santa Ana,", "addr:state": "California", "addr:postcode": "92705", "addr:country": "US", "phone": "866-877-1965", "website": "https://www.aus.com/los-angeles-security-services-systems", "brand": "Allied Universal", "brand:wikidata": "Q4732537"}},
{"type": "Feature", "id": "vZp-LL6lmzAFLtZ3HBo0kCW1Nuw=", "properties": {"ref": "134 Lystra Court, Suite A", "@spider": "allied_universal", "addr:full": "134 Lystra Court, Suite A, , California, 95403", "addr:street_address": "134 Lystra Court, Suite A, ", "addr:city": "Santa Rosa", "addr:state": "California", "addr:postcode": "95403", "addr:country": "US", "phone": "707-575-6909", "website": "https://www.aus.com/santa-rosa-security-systems-services", "brand": "Allied Universal", "brand:wikidata": "Q4732537"}},
{"type": "Feature", "id": "1gmN3GhjqZWOvqIP6SyYmAjB2AI=", "properties": {"ref": "2425 Porter Street", "@spider": "allied_universal", "addr:full": "2425 Porter Street, Suite 16, California, 95073", "addr:street_address": "2425 Porter Street, Suite 16", "addr:city": "Soquel", "addr:state": "California", "addr:postcode": "95073", "addr:country": "US", "phone": "831-685-1110", "website": "https://www.aus.com/santa-cruz-security-systems-services", "brand": "Allied Universal", "brand:wikidata": "Q4732537"}},
{"type": "Feature", "id": "Zl7rYjeH6UE_VHXlGRVU8JF4fHo=", "properties": {"ref": "1515 W. 190th Street", "@spider": "allied_universal", "addr:full": "1515 W. 190th Street, Suite 400, California, 90248", "addr:street_address": "1515 W. 190th Street, Suite 400", "addr:city": "Gardena", "addr:state": "California", "addr:postcode": "90248", "addr:country": "US", "phone": "310-594-3833", "website": "https://www.aus.com/los-angeles-security-services-systems", "brand": "Allied Universal", "brand:wikidata": "Q4732537"}},
{"type": "Feature", "id": "GVW5pSDuwsoa8Xm7VUs6JfPZAag=", "properties": {"ref": "300 Pasadena Ave", "@spider": "allied_universal", "addr:full": "300 Pasadena Ave, , California, 91030", "addr:street_address": "300 Pasadena Ave, ", "addr:city": "South Pasadena", "addr:state": "California", "addr:postcode": "91030", "addr:country": "US", "phone": "626-310-8000", "website": "https://www.aus.com/los-angeles-security-services-systems", "brand": "Allied Universal", "brand:wikidata": "Q4732537"}},
{"type": "Feature", "id": "juMeVumSmTKyoyZPh4Aa_CVdCrQ=", "properties": {"ref": "1341 W. Robinhood Drive, Suite B-7", "@spider": "allied_universal", "addr:full": "1341 W. Robinhood Drive, Suite B-7, , California, 95207", "addr:street_address": "1341 W. Robinhood Drive, Suite B-7, ", "addr:city": "Stockton", "addr:state": "California", "addr:postcode": "95207", "addr:country": "US", "phone": "209-636-0290", "website": "https://www.aus.com/stockton-security-services-systems", "brand": "Allied Universal", "brand:wikidata": "Q4732537"}},
{"type": "Feature", "id": "IE8nFyyEscSFcjeVe0R66KGHWAE=", "properties": {"ref": "333 Soquel Way", "@spider": "allied_universal", "addr:full": "333 Soquel Way, , California, 94085", "addr:street_address": "333 Soquel Way, ", "addr:city": "Sunnyvale", "addr:state": "California", "addr:postcode": "94085", "addr:country": "US", "phone": "669-248-3058", "website": "https://www.aus.com/san-jose-security-systems-services", "brand": "Allied Universal", "brand:wikidata": "Q4732537"}},
{"type": "Feature", "id": "pTi5nTi0tPxBNtIWMgDlXxko-uw=", "properties": {"ref": "15643 Sherman Way", "@spider": "allied_universal", "addr:full": "15643 Sherman Way, Suite 130, California, 91406", "addr:street_address": "15643 Sherman Way, Suite 130", "addr:city": "Van Nuys", "addr:state": "California", "addr:postcode": "91406", "addr:country": "US", "phone": "818-650-5340", "website": "https://www.aus.com/los-angeles-security-services-systems", "brand": "Allied Universal", "brand:wikidata": "Q4732537"}},
{"type": "Feature", "id": "9-ioh4kKRhrpd0E9IjLO2x4HmYc=", "properties": {"ref": "1996 Eastman Ave, #114", "@spider": "allied_universal", "addr:full": "1996 Eastman Ave, #114, , California, 93003", "addr:street_address": "1996 Eastman Ave, #114, ", "addr:city": "Ventura", "addr:state": "California", "addr:postcode": "93003", "addr:country": "US", "phone": "805-654-9200", "website": "https://www.aus.com/oxnard-ventura-security-systems-services", "brand": "Allied Universal", "brand:wikidata": "Q4732537"}},
{"type": "Feature", "id": "nyKrAnG2ElFHKI4_WiQtWkfTkFc=", "properties": {"ref": "3000 S. Robertson Boulevard, #100", "@spider": "allied_universal", "addr:full": "3000 S. Robertson Boulevard, #100, , California, 90034", "addr:street_address": "3000 S. Robertson Boulevard, #100, ", "addr:city": "Los Angeles", "addr:state": "California", "addr:postcode": "90034", "addr:country": "US", "phone": "Recruiting: 310-596-0501<br>Phone: 310-287-3103", "website": "https://www.aus.com/los-angeles-security-services-systems", "brand": "Allied Universal", "brand:wikidata": "Q4732537"}},
{"type": "Feature", "id": "7iVhxpgHmU8spQZXSCRKfaNdrH8=", "properties": {"ref": "C\u00f3rdoba 42, Col. Roma", "@spider": "allied_universal", "addr:full": "C\u00f3rdoba 42, Col. Roma, Piso 6, CDMX, 06700", "addr:street_address": "C\u00f3rdoba 42, Col. Roma, Piso 6", "addr:city": "Ciudad de M\u00e9xico", "addr:state": "CDMX", "addr:postcode": "06700", "addr:country": "MX", "phone": "52-55-5337-0400", "brand": "Allied Universal", "brand:wikidata": "Q4732537"}},
{"type": "Feature", "id": "Lmrwmy3JCxr-d3UUz0Q2B2E_5L0=", "properties": {"ref": "Blvd Plan de Guadalupe #252-F Plaza", "@spider": "allied_universal", "addr:full": "Blvd Plan de Guadalupe #252-F Plaza, , Chihuahua, 25900", "addr:street_address": "Blvd Plan de Guadalupe #252-F Plaza, ", "addr:city": "Centro Ramos Arizpe", "addr:state": "Chihuahua", "addr:postcode": "25900", "addr:country": "MX", "phone": "52-55-4187-7797", "brand": "Allied Universal", "brand:wikidata": "Q4732537"}},
{"type": "Feature", "id": "tzyEzLRdtJqGC7S5wBvwXR0SYn4=", "properties": {"ref": "San Juan de Sabinas #1633", "@spider": "allied_universal", "addr:full": "San Juan de Sabinas #1633, , Chihuahua, 25280", "addr:street_address": "San Juan de Sabinas #1633, ", "addr:city": "Saltillo", "addr:state": "Chihuahua", "addr:postcode": "25280", "addr:country": "MX", "brand": "Allied Universal", "brand:wikidata": "Q4732537"}},
{"type": "Feature", "id": "0-TzPihULbuhlOQng9I7reIWEtI=", "properties": {"ref": "Avenida San Lorenzo y Hermanos Escobar, Local 20 en Plaza R\u00edo", "@spider": "allied_universal", "addr:full": "Avenida San Lorenzo y Hermanos Escobar, Local 20 en Plaza R\u00edo, , CI, 32410", "addr:street_address": "Avenida San Lorenzo y Hermanos Escobar, Local 20 en Plaza R\u00edo, ", "addr:city": "Ju\u00e1rez", "addr:state": "CI", "addr:postcode": "32410", "addr:country": "MX", "brand": "Allied Universal", "brand:wikidata": "Q4732537"}},
{"type": "Feature", "id": "3CmlexL8Z7mMM0s45OR3m6ysA9Y=", "properties": {"ref": "5575 Tech Center Drive", "@spider": "allied_universal", "addr:full": "5575 Tech Center Drive, Suite 119, Colorado, 80919", "addr:street_address": "5575 Tech Center Drive, Suite 119", "addr:city": "Colorado Springs", "addr:state": "Colorado", "addr:postcode": "80919", "addr:country": "US", "phone": "719-597-0750", "website": "https://www.aus.com/colorado-springs-security-systems-services", "brand": "Allied Universal", "brand:wikidata": "Q4732537"}},
{"type": "Feature", "id": "xCgqK8JI64gN1M-afajcffeOj6w=", "properties": {"ref": "1385 South Colorado Blvd.", "@spider": "allied_universal", "addr:full": "1385 South Colorado Blvd., Building A, Suite 204, Colorado, 80222", "addr:street_address": "1385 South Colorado Blvd., Building A, Suite 204", "addr:city": "Denver", "addr:state": "Colorado", "addr:postcode": "80222", "addr:country": "US", "phone": "303-477-0910", "website": "https://www.aus.com/denver-security-services-systems", "brand": "Allied Universal", "brand:wikidata": "Q4732537"}},
{"type": "Feature", "id": "wjuYoJYOyofdnWzLQa0NjCt6Y9c=", "properties": {"ref": "12100 East Iliff Avenue", "@spider": "allied_universal", "addr:full": "12100 East Iliff Avenue, Suite 350, Colorado, 80014", "addr:street_address": "12100 East Iliff Avenue, Suite 350", "addr:city": "Aurora", "addr:state": "Colorado", "addr:postcode": "80014", "addr:country": "US", "phone": "303-341-4433", "website": "https://www.aus.com/denver-security-services-systems", "brand": "Allied Universal", "brand:wikidata": "Q4732537"}},
{"type": "Feature", "id": "IxCumGBqByVhxCHwxVWub8OtRWw=", "properties": {"ref": "Boulevar del Sur 13 Ave. 22 - 24", "@spider": "allied_universal", "addr:full": "Boulevar del Sur 13 Ave. 22 - 24, , Colonia Altamira, San Pedro Sula", "addr:street_address": "Boulevar del Sur 13 Ave. 22 - 24, ", "addr:city": "Calle, S.O.", "addr:state": "Colonia Altamira", "addr:postcode": "San Pedro Sula", "addr:country": "HN", "brand": "Allied Universal", "brand:wikidata": "Q4732537"}},
{"type": "Feature", "id": "FHsPH-aRkq2OHonrS96B8iG7vdk=", "properties": {"ref": "Calle S\u00e9ptima Poniente-Sur 192", "@spider": "allied_universal", "addr:full": "Calle S\u00e9ptima Poniente-Sur 192, Edificio Mor Ast, Chiapas, 30540", "addr:street_address": "Calle S\u00e9ptima Poniente-Sur 192, Edificio Mor Ast", "addr:city": "Tuxtla Guti\u00e9rrez", "addr:state": "Chiapas", "addr:postcode": "30540", "addr:country": "MX", "brand": "Allied Universal", "brand:wikidata": "Q4732537"}},
{"type": "Feature", "id": "Z0eRtN2grpAwjqZFZ0xASnAZ2to=", "properties": {"ref": "111 Founders Plaza (323 Pitkin Street)", "@spider": "allied_universal", "addr:full": "111 Founders Plaza (323 Pitkin Street), 10th Floor, Connecticut, 06108", "addr:street_address": "111 Founders Plaza (323 Pitkin Street), 10th Floor", "addr:city": "Hartford", "addr:state": "Connecticut", "addr:postcode": "06108", "addr:country": "US", "phone": "860-291-8206", "website": "https://www.aus.com/hartford-security-services-systems", "brand": "Allied Universal", "brand:wikidata": "Q4732537"}},
{"type": "Feature", "id": "qSRTq6D24fidEdHidzmY3igthRE=", "properties": {"ref": "1000 Bridgeport Avenue", "@spider": "allied_universal", "addr:full": "1000 Bridgeport Avenue, Suite 207, Connecticut, 06484", "addr:street_address": "1000 Bridgeport Avenue, Suite 207", "addr:city": "Shelton", "addr:state": "Connecticut", "addr:postcode": "06484", "addr:country": "US", "phone": "203-374-8110", "website": "https://www.aus.com/shelton-security-systems-services", "brand": "Allied Universal", "brand:wikidata": "Q4732537"}},
{"type": "Feature", "id": "s_WsdsDz38zAHjVLqRemMU6sK4o=", "properties": {"ref": "500 Summer Street", "@spider": "allied_universal", "addr:full": "500 Summer Street, , Connecticut, 06901", "addr:street_address": "500 Summer Street, ", "addr:city": "Stamford", "addr:state": "Connecticut", "addr:postcode": "06901", "addr:country": "US", "phone": "203-348-6657", "website": "https://www.aus.com/stamford-security-systems-services", "brand": "Allied Universal", "brand:wikidata": "Q4732537"}},
{"type": "Feature", "id": "DfHVP92mojJwUOun8ImMduvYt3w=", "properties": {"ref": "68 Southfield Ave.", "@spider": "allied_universal", "addr:full": "68 Southfield Ave., Suite 260, Connecticut, 06902", "addr:street_address": "68 Southfield Ave., Suite 260", "addr:city": "Stamford", "addr:state": "Connecticut", "addr:postcode": "06902", "addr:country": "US", "website": "https://www.aus.com/stamford-security-systems-services", "brand": "Allied Universal", "brand:wikidata": "Q4732537"}},
{"type": "Feature", "id": "MfU_SP_cBOoFCp3qXY40OQR7VeE=", "properties": {"ref": "237 Addison Road", "@spider": "allied_universal", "addr:full": "237 Addison Road, , Connecticut, 06095", "addr:street_address": "237 Addison Road, ", "addr:city": "Windsor", "addr:state": "Connecticut", "addr:postcode": "06095", "addr:country": "US", "website": "https://www.aus.com/hartford-security-services-systems", "brand": "Allied Universal", "brand:wikidata": "Q4732537"}},
{"type": "Feature", "id": "vl9a9-NnBhY5CbN0lHpnIQ3v7GQ=", "properties": {"ref": "1400 I Street, NW", "@spider": "allied_universal", "addr:full": "1400 I Street, NW, Suite 600, District of Columbia, 20005", "addr:street_address": "1400 I Street, NW, Suite 600", "addr:city": "Washington", "addr:state": "District of Columbia", "addr:postcode": "20005", "addr:country": "US", "phone": "202-534-3470", "website": "https://www.aus.com/washington-dc-security-systems-services", "brand": "Allied Universal", "brand:wikidata": "Q4732537"}},
{"type": "Feature", "id": "cWilF70C-cA1V2CeP_pvACRARcY=", "properties": {"ref": "650 Naamans Road", "@spider": "allied_universal", "addr:full": "650 Naamans Road, Suite 200, Delaware, 19703", "addr:street_address": "650 Naamans Road, Suite 200", "addr:city": "Claymont", "addr:state": "Delaware", "addr:postcode": "19703", "addr:country": "US", "website": "https://www.aus.com/wilmington-commercial-security-systems-services", "brand": "Allied Universal", "brand:wikidata": "Q4732537"}},
{"type": "Feature", "id": "odujPzTbfKfpaJwVB5RS4OqaBKU=", "properties": {"ref": "1105 N. Market Street", "@spider": "allied_universal", "addr:full": "1105 N. Market Street, Suite 401, Delaware, 19801", "addr:street_address": "1105 N. Market Street, Suite 401", "addr:city": "Wilmington", "addr:state": "Delaware", "addr:postcode": "19801", "addr:country": "US", "phone": "302-498-0450", "website": "https://www.aus.com/wilmington-commercial-security-systems-services", "brand": "Allied Universal", "brand:wikidata": "Q4732537"}},
{"type": "Feature", "id": "ZVRp6Twg3dpDF7R8iIYI2w0ddy0=", "properties": {"ref": "Andador Carlos Hank Gonzalez #503-C", "@spider": "allied_universal", "addr:full": "Andador Carlos Hank Gonzalez #503-C, , EM, 52600", "addr:street_address": "Andador Carlos Hank Gonzalez #503-C, ", "addr:city": "Santiago Tianguistenco", "addr:state": "EM", "addr:postcode": "52600", "addr:country": "MX", "brand": "Allied Universal", "brand:wikidata": "Q4732537"}},
{"type": "Feature", "id": "Tuh_Pz0dcuaqfVWLQPEXxz4wONw=", "properties": {"ref": "Av. Hidalgo #39 Depto 201", "@spider": "allied_universal", "addr:full": "Av. Hidalgo #39 Depto 201, , EM, 54000", "addr:street_address": "Av. Hidalgo #39 Depto 201, ", "addr:city": "Tlalnepantla", "addr:state": "EM", "addr:postcode": "54000", "addr:country": "MX", "brand": "Allied Universal", "brand:wikidata": "Q4732537"}},
{"type": "Feature", "id": "F7QGsmzsm9fLroe4uBYlrhI0iLg=", "properties": {"ref": "Av. Isabel la Catolica #703", "@spider": "allied_universal", "addr:full": "Av. Isabel la Catolica #703, Despachos 5, 6,7 y 8, EM, 50090", "addr:street_address": "Av. Isabel la Catolica #703, Despachos 5, 6,7 y 8", "addr:city": "Toluca", "addr:state": "EM", "addr:postcode": "50090", "addr:country": "MX", "brand": "Allied Universal", "brand:wikidata": "Q4732537"}},
{"type": "Feature", "id": "vwFey2qJJjC8IqwQiH7jxMtTLDE=", "properties": {"ref": "3202 S. Highway 95A, Suite 3202", "@spider": "allied_universal", "addr:full": "3202 S. Highway 95A, Suite 3202, , Florida, 32534", "addr:street_address": "3202 S. Highway 95A, Suite 3202, ", "addr:city": "Cantonment", "addr:state": "Florida", "addr:postcode": "32534", "addr:country": "US", "phone": "850-204-2610", "website": "https://www.aus.com/pensacola-security-systems-services", "brand": "Allied Universal", "brand:wikidata": "Q4732537"}},
{"type": "Feature", "id": "fwuaLPV-6zUi26iY6Ths6FkeqYE=", "properties": {"ref": "405 Atlantis Road", "@spider": "allied_universal", "addr:full": "405 Atlantis Road, Suite D 114, Florida, 32920", "addr:street_address": "405 Atlantis Road, Suite D 114", "addr:city": "Cape Canaveral", "addr:state": "Florida", "addr:postcode": "32920", "addr:country": "US", "phone": "321-868-1876", "website": "https://www.aus.com/orlando-security-systems-services", "brand": "Allied Universal", "brand:wikidata": "Q4732537"}},
{"type": "Feature", "id": "x90Y8x6EEoT_MWSxerE3aTkvtHI=", "properties": {"ref": "99 George King Boulevard", "@spider": "allied_universal", "addr:full": "99 George King Boulevard, Suite 4, Florida, 32920", "addr:street_address": "99 George King Boulevard, Suite 4", "addr:city": "Cape Canaveral", "addr:state": "Florida", "addr:postcode": "32920", "addr:country": "US", "website": "https://www.aus.com/orlando-security-systems-services", "brand": "Allied Universal", "brand:wikidata": "Q4732537"}},
{"type": "Feature", "id": "ftKQUxLy5If6nAO3IPH8DncplEM=", "properties": {"ref": "6301 NW 5th Way", "@spider": "allied_universal", "addr:full": "6301 NW 5th Way, Suite 5500, Florida, 33309", "addr:street_address": "6301 NW 5th Way, Suite 5500", "addr:city": "Ft. Lauderdale", "addr:state": "Florida", "addr:postcode": "33309", "addr:country": "US", "phone": "954-739-8488", "website": "https://www.aus.com/fort-lauderdale-security-systems-services", "brand": "Allied Universal", "brand:wikidata": "Q4732537"}},
{"type": "Feature", "id": "fDZi8rcf5zUdm5K-cSX3SkI-x2M=", "properties": {"ref": "1950 Eisenhower Blvd", "@spider": "allied_universal", "addr:full": "1950 Eisenhower Blvd, , Florida, 33316", "addr:street_address": "1950 Eisenhower Blvd, ", "addr:city": "Ft. Lauderdale", "addr:state": "Florida", "addr:postcode": "33316", "addr:country": "US", "phone": "954-765-5989", "website": "https://www.aus.com/fort-lauderdale-security-systems-services", "brand": "Allied Universal", "brand:wikidata": "Q4732537"}},
{"type": "Feature", "id": "2DrLJA1o3hOYLqEyEUTKrypz_3w=", "properties": {"ref": "2100 Park Central Blvd. N.", "@spider": "allied_universal", "addr:full": "2100 Park Central Blvd. N., Suite 700, Florida, 33064", "addr:street_address": "2100 Park Central Blvd. N., Suite 700", "addr:city": "Pompano Beach", "addr:state": "Florida", "addr:postcode": "33064", "addr:country": "US", "phone": "954-861-4204", "website": "https://www.aus.com/fort-lauderdale-security-systems-services", "brand": "Allied Universal", "brand:wikidata": "Q4732537"}},
{"type": "Feature", "id": "0beatFIspGfin3upXrpSQe74qqw=", "properties": {"ref": "5268 Summerlin Commons Way", "@spider": "allied_universal", "addr:full": "5268 Summerlin Commons Way, Suite 501, Florida, 33912", "addr:street_address": "5268 Summerlin Commons Way, Suite 501", "addr:city": "Fort Myers", "addr:state": "Florida", "addr:postcode": "33912", "addr:country": "US", "phone": "239-208-9267", "website": "https://www.aus.com/fort-myers-security-systems-services", "brand": "Allied Universal", "brand:wikidata": "Q4732537"}},
{"type": "Feature", "id": "Nl-s-xEI1oRIIOxw4fTEWh0yyUc=", "properties": {"ref": "13461 Parker Commons Boulevard", "@spider": "allied_universal", "addr:full": "13461 Parker Commons Boulevard, Suite 200, Florida, 33912", "addr:street_address": "13461 Parker Commons Boulevard, Suite 200", "addr:city": "Fort Myers", "addr:state": "Florida", "addr:postcode": "33912", "addr:country": "US", "website": "https://www.aus.com/fort-myers-security-systems-services", "brand": "Allied Universal", "brand:wikidata": "Q4732537"}},
{"type": "Feature", "id": "ualcxZRk6kz0DCkH9aBi-efbbKE=", "properties": {"ref": "8936 Western Way", "@spider": "allied_universal", "addr:full": "8936 Western Way, Bldg. 6, Suite 11, Florida, 32256", "addr:street_address": "8936 Western Way, Bldg. 6, Suite 11", "addr:city": "Jacksonville", "addr:state": "Florida", "addr:postcode": "32256", "addr:country": "US", "phone": "904-647-4767", "website": "https://www.aus.com/jacksonville-security-systems-services", "brand": "Allied Universal", "brand:wikidata": "Q4732537"}},
{"type": "Feature", "id": "0tWvSi-Z_4kA9Wf_LIepcQu1dO8=", "properties": {"ref": "8375 Dix Ellis Trail", "@spider": "allied_universal", "addr:full": "8375 Dix Ellis Trail, Suite 200, Florida, 32256", "addr:street_address": "8375 Dix Ellis Trail, Suite 200", "addr:city": "Jacksonville", "addr:state": "Florida", "addr:postcode": "32256", "addr:country": "US", "phone": "904-399-1813", "website": "https://www.aus.com/jacksonville-security-systems-services", "brand": "Allied Universal", "brand:wikidata": "Q4732537"}},
{"type": "Feature", "id": "IiwnpbnnVf_3pzufqkBF5jJTsZs=", "properties": {"ref": "1832 N Crystal Lake Dr", "@spider": "allied_universal", "addr:full": "1832 N Crystal Lake Dr, , Florida, 33801", "addr:street_address": "1832 N Crystal Lake Dr, ", "addr:city": "Lakeland", "addr:state": "Florida", "addr:postcode": "33801", "addr:country": "US", "phone": "863-682-2023", "website": "https://www.aus.com/tampa-security-systems-services", "brand": "Allied Universal", "brand:wikidata": "Q4732537"}},
{"type": "Feature", "id": "70WB1HVsRDyCEewR-KQmU3CqpQg=", "properties": {"ref": "Miami - Dade Aviation Department", "@spider": "allied_universal", "addr:full": "Miami - Dade Aviation Department, Terminal Building P.O. Box 025504, Florida, 33102-5504", "addr:street_address": "Miami - Dade Aviation Department, Terminal Building P.O. Box 025504", "addr:city": "Miami", "addr:state": "Florida", "addr:postcode": "33102-5504", "addr:country": "US", "phone": "305-989-3609", "website": "https://www.aus.com/miami-security-systems-services", "brand": "Allied Universal", "brand:wikidata": "Q4732537"}},
{"type": "Feature", "id": "E2l1LeWwZan9atnXi581nmPF6Bg=", "properties": {"ref": "7200 Corporate Center", "@spider": "allied_universal", "addr:full": "7200 Corporate Center, Suite 600, Florida, 33126", "addr:street_address": "7200 Corporate Center, Suite 600", "addr:city": "Miami", "addr:state": "Florida", "addr:postcode": "33126", "addr:country": "US", "phone": "305-262-7123", "website": "https://www.aus.com/miami-security-systems-services", "brand": "Allied Universal", "brand:wikidata": "Q4732537"}},
{"type": "Feature", "id": "UyJ9rQUs5-WI0-Yeu2uuoMbkn10=", "properties": {"ref": "6300 Hazeltine National Dr", "@spider": "allied_universal", "addr:full": "6300 Hazeltine National Dr, Suite 120, Florida, 32822", "addr:street_address": "6300 Hazeltine National Dr, Suite 120", "addr:city": "Orlando", "addr:state": "Florida", "addr:postcode": "32822", "addr:country": "US", "phone": "689-500-4990", "website": "https://www.aus.com/orlando-security-systems-services", "brand": "Allied Universal", "brand:wikidata": "Q4732537"}},
{"type": "Feature", "id": "lgTf-tK2vjt2Paj35ncevxaurVg=", "properties": {"ref": "9463 Benford Road", "@spider": "allied_universal", "addr:full": "9463 Benford Road, Building 445, Suite 6C, Florida, 32827", "addr:street_address": "9463 Benford Road, Building 445, Suite 6C", "addr:city": "Orlando", "addr:state": "Florida", "addr:postcode": "32827", "addr:country": "US", "phone": "407-629-2244", "website": "https://www.aus.com/orlando-security-systems-services", "brand": "Allied Universal", "brand:wikidata": "Q4732537"}},
{"type": "Feature", "id": "Z2PhhZLhq2L9FkLf7U2Q5O9tkIA=", "properties": {"ref": "851 Trafalgar Court", "@spider": "allied_universal", "addr:full": "851 Trafalgar Court, Suite 150W, Florida, 32751", "addr:street_address": "851 Trafalgar Court, Suite 150W", "addr:city": "Maitland", "addr:state": "Florida", "addr:postcode": "32751", "addr:country": "US", "phone": "321-280-3100", "website": "https://www.aus.com/orlando-security-systems-services", "brand": "Allied Universal", "brand:wikidata": "Q4732537"}},
{"type": "Feature", "id": "mzpnkO8zPqc5yyak9XVIW4336TY=", "properties": {"ref": "1502 N 9th Avenue", "@spider": "allied_universal", "addr:full": "1502 N 9th Avenue, , Florida, 32503", "addr:street_address": "1502 N 9th Avenue, ", "addr:city": "Pensacola", "addr:state": "Florida", "addr:postcode": "32503", "addr:country": "US", "phone": "888-409-2224", "website": "https://www.aus.com/pensacola-security-systems-services", "brand": "Allied Universal", "brand:wikidata": "Q4732537"}},
{"type": "Feature", "id": "AyYHthScrM27GJFaJFZ1BMiAx2I=", "properties": {"ref": "525 NW Lake Whitney Place", "@spider": "allied_universal", "addr:full": "525 NW Lake Whitney Place, , Florida, 34986", "addr:street_address": "525 NW Lake Whitney Place, ", "addr:city": "Port Saint Lucie", "addr:state": "Florida", "addr:postcode": "34986", "addr:country": "US", "website": "https://www.aus.com/port-st-lucie-security-system-services", "brand": "Allied Universal", "brand:wikidata": "Q4732537"}},
{"type": "Feature", "id": "gQGXK-ve9MERajb6Ym7RA8a4xQk=", "properties": {"ref": "5971 CattleRidge Boulevard", "@spider": "allied_universal", "addr:full": "5971 CattleRidge Boulevard, , Florida, 34232", "addr:street_address": "5971 CattleRidge Boulevard, ", "addr:city": "Sarasota", "addr:state": "Florida", "addr:postcode": "34232", "addr:country": "US", "phone": "941-554-8210", "website": "https://www.aus.com/sarasota-security-systems-services", "brand": "Allied Universal", "brand:wikidata": "Q4732537"}},
{"type": "Feature", "id": "hVKgftc4QjsSYHv2XPzyy04_z24=", "properties": {"ref": "6011 Benjamin Rd", "@spider": "allied_universal", "addr:full": "6011 Benjamin Rd, Bldg. A \u2013 Suite 107, Florida, 33634", "addr:street_address": "6011 Benjamin Rd, Bldg. A \u2013 Suite 107", "addr:city": "Tampa", "addr:state": "Florida", "addr:postcode": "33634", "addr:country": "US", "phone": "813-888-6000", "website": "https://www.aus.com/tampa-security-systems-services", "brand": "Allied Universal", "brand:wikidata": "Q4732537"}},
{"type": "Feature", "id": "KnOthhuQ0WbbBwK3HPOLNaqNzOY=", "properties": {"ref": "4200 W Cypress St", "@spider": "allied_universal", "addr:full": "4200 W Cypress St, Suite 550, Florida, 33607", "addr:street_address": "4200 W Cypress St, Suite 550", "addr:city": "Tampa", "addr:state": "Florida", "addr:postcode": "33607", "addr:country": "US", "phone": "813-620-6621", "website": "https://www.aus.com/tampa-security-systems-services", "brand": "Allied Universal", "brand:wikidata": "Q4732537"}},
{"type": "Feature", "id": "53MK6W4lJS_6txJbNVh73_gCjLw=", "properties": {"ref": "2901 W. Busch Blvd", "@spider": "allied_universal", "addr:full": "2901 W. Busch Blvd, Suite 500, 501, 503, Florida, 33618", "addr:street_address": "2901 W. Busch Blvd, Suite 500, 501, 503", "addr:city": "Tampa", "addr:state": "Florida", "addr:postcode": "33618", "addr:country": "US", "phone": "813-933-4487", "website": "https://www.aus.com/tampa-security-systems-services", "brand": "Allied Universal", "brand:wikidata": "Q4732537"}},
{"type": "Feature", "id": "xmCJRR-xhE65IqqNrsp4zfBaOX0=", "properties": {"ref": "405 N. Reo Street", "@spider": "allied_universal", "addr:full": "405 N. Reo Street, , Florida, 33609", "addr:street_address": "405 N. Reo Street, ", "addr:city": "Tampa", "addr:state": "Florida", "addr:postcode": "33609", "addr:country": "US", "website": "https://www.aus.com/tampa-security-systems-services", "brand": "Allied Universal", "brand:wikidata": "Q4732537"}},
{"type": "Feature", "id": "PtCBW8lssK2Y-3LkK_TFmQYKRkg=", "properties": {"ref": "1645 West Palm Beach Lakes Blvd", "@spider": "allied_universal", "addr:full": "1645 West Palm Beach Lakes Blvd, Suite 600, Florida, 33401", "addr:street_address": "1645 West Palm Beach Lakes Blvd, Suite 600", "addr:city": "West Palm Beach", "addr:state": "Florida", "addr:postcode": "33401", "addr:country": "US", "phone": "561-478-9983", "website": "https://www.aus.com/west-palm-beach-commercial-security-systems-services", "brand": "Allied Universal", "brand:wikidata": "Q4732537"}},
{"type": "Feature", "id": "eVqDzeLH8E3H-Kx9jguePCsqJ24=", "properties": {"ref": "Jinotepe Carazo", "@spider": "allied_universal", "addr:full": "Jinotepe Carazo, , Frente Oficinas Tica Bus., ", "addr:street_address": "Jinotepe Carazo, ", "addr:city": "Policia Nacional 2c. 1/2 al Sur", "addr:state": "Frente Oficinas Tica Bus.", "addr:country": "NI", "brand": "Allied Universal", "brand:wikidata": "Q4732537"}},
{"type": "Feature", "id": "Xk-vLRFAHA8o9w5CW4ApJyaSjjA=", "properties": {"ref": "1330 Spring Street", "@spider": "allied_universal", "addr:full": "1330 Spring Street, Suite 500, Georgia, 30309", "addr:street_address": "1330 Spring Street, Suite 500", "addr:city": "Atlanta", "addr:state": "Georgia", "addr:postcode": "30309", "addr:country": "US", "phone": "404-898-1600", "website": "https://www.aus.com/atlanta-security-systems-services", "brand": "Allied Universal", "brand:wikidata": "Q4732537"}},
{"type": "Feature", "id": "RnUfSRwL00jTC6KjcExD7Ne9wtY=", "properties": {"ref": "3355 Lenox Rd NE", "@spider": "allied_universal", "addr:full": "3355 Lenox Rd NE, Suite 300, Georgia, 30326", "addr:street_address": "3355 Lenox Rd NE, Suite 300", "addr:city": "Atlanta", "addr:state": "Georgia", "addr:postcode": "30326", "addr:country": "US", "website": "https://www.aus.com/atlanta-security-systems-services", "brand": "Allied Universal", "brand:wikidata": "Q4732537"}},
{"type": "Feature", "id": "IaBSpnHavJjv9JPO-oEFLHkyEwM=", "properties": {"ref": "1899 Powers Ferry Road", "@spider": "allied_universal", "addr:full": "1899 Powers Ferry Road, , Georgia, 30339", "addr:street_address": "1899 Powers Ferry Road, ", "addr:city": "Atlanta", "addr:state": "Georgia", "addr:postcode": "30339", "addr:country": "US", "website": "https://www.aus.com/atlanta-security-systems-services", "brand": "Allied Universal", "brand:wikidata": "Q4732537"}},
{"type": "Feature", "id": "lfjkP92pd2O1I2BvebWR2-5gtwM=", "properties": {"ref": "7 Piedmont Center", "@spider": "allied_universal", "addr:full": "7 Piedmont Center, Suite 208<br>3525 Piedmont Rd NE, Georgia, 30305", "addr:street_address": "7 Piedmont Center, Suite 208<br>3525 Piedmont Rd NE", "addr:city": "Atlanta", "addr:state": "Georgia", "addr:postcode": "30305", "addr:country": "US", "phone": "425-296-3017", "website": "https://www.aus.com/atlanta-security-systems-services", "brand": "Allied Universal", "brand:wikidata": "Q4732537"}},
{"type": "Feature", "id": "3WdDWPilFdLZ0J47JoR3d9K6YcE=", "properties": {"ref": "924 Stevens Creek Road", "@spider": "allied_universal", "addr:full": "924 Stevens Creek Road, Suite E, Georgia, 30907", "addr:street_address": "924 Stevens Creek Road, Suite E", "addr:city": "Augusta", "addr:state": "Georgia", "addr:postcode": "30907", "addr:country": "US", "phone": "706-738-3113", "website": "https://www.aus.com/augusta-security-systems-services", "brand": "Allied Universal", "brand:wikidata": "Q4732537"}},
{"type": "Feature", "id": "Z5bnLsjc3dmFD1WTzKqJ8od-RMo=", "properties": {"ref": "4048 Flowers Road", "@spider": "allied_universal", "addr:full": "4048 Flowers Road, Suite 200, Georgia, 30360", "addr:street_address": "4048 Flowers Road, Suite 200", "addr:city": "Doraville", "addr:state": "Georgia", "addr:postcode": "30360", "addr:country": "US", "phone": "770-234-0875", "website": "https://www.aus.com/atlanta-security-systems-services", "brand": "Allied Universal", "brand:wikidata": "Q4732537"}},
{"type": "Feature", "id": "y5yUJNu-WfioiBvTVb9rcFHmFrU=", "properties": {"ref": "2450 Cloud Springs Road", "@spider": "allied_universal", "addr:full": "2450 Cloud Springs Road, , Georgia, 30741", "addr:street_address": "2450 Cloud Springs Road, ", "addr:city": "Fort Olgethorpe", "addr:state": "Georgia", "addr:postcode": "30741", "addr:country": "US", "brand": "Allied Universal", "brand:wikidata": "Q4732537"}},
{"type": "Feature", "id": "0gm9HUcBh9c3KXPP7VAzZnJrmXc=", "properties": {"ref": "311 Green Street", "@spider": "allied_universal", "addr:full": "311 Green Street, Suite 209, Georgia, 30501", "addr:street_address": "311 Green Street, Suite 209", "addr:city": "Gainesville", "addr:state": "Georgia", "addr:postcode": "30501", "addr:country": "US", "phone": "770-287-8714", "website": "https://www.aus.com/atlanta-security-systems-services", "brand": "Allied Universal", "brand:wikidata": "Q4732537"}},
{"type": "Feature", "id": "wfwZvQ2ZpPfkIRv59rnj7rXo3OQ=", "properties": {"ref": "301 West Broome Street", "@spider": "allied_universal", "addr:full": "301 West Broome Street, Suite 106, Georgia, 30240", "addr:street_address": "301 West Broome Street, Suite 106", "addr:city": "LaGrange", "addr:state": "Georgia", "addr:postcode": "30240", "addr:country": "US", "phone": "706-524-8268", "website": "https://www.aus.com/lagrange-security-systems-services", "brand": "Allied Universal", "brand:wikidata": "Q4732537"}},
{"type": "Feature", "id": "DNb-oIT-cp0Fncgn11N6TsbH8KQ=", "properties": {"ref": "5185 Peachtree Parkway", "@spider": "allied_universal", "addr:full": "5185 Peachtree Parkway, , Georgia, 30092", "addr:street_address": "5185 Peachtree Parkway, ", "addr:city": "Peachtree Corners", "addr:state": "Georgia", "addr:postcode": "30092", "addr:country": "US", "website": "https://www.aus.com/atlanta-security-systems-services", "brand": "Allied Universal", "brand:wikidata": "Q4732537"}},
{"type": "Feature", "id": "bqRIaH4Cqha6LadQ6WCh0u8qqng=", "properties": {"ref": "6555 Abercorn", "@spider": "allied_universal", "addr:full": "6555 Abercorn, Suite 121, Georgia, 31405", "addr:street_address": "6555 Abercorn, Suite 121", "addr:city": "Savannah", "addr:state": "Georgia", "addr:postcode": "31405", "addr:country": "US", "phone": "912-355-6808", "website": "https://www.aus.com/savannah-security-systems-services", "brand": "Allied Universal", "brand:wikidata": "Q4732537"}},
{"type": "Feature", "id": "JizN7EYQbd5BEnqviFcM1HnIcmA=", "properties": {"ref": "Mariano Escobedo Blvd #703", "@spider": "allied_universal", "addr:full": "Mariano Escobedo Blvd #703, , GJ, 37420", "addr:street_address": "Mariano Escobedo Blvd #703, ", "addr:city": "Le\u00f3n", "addr:state": "GJ", "addr:postcode": "37420", "addr:country": "MX", "brand": "Allied Universal", "brand:wikidata": "Q4732537"}},
{"type": "Feature", "id": "MXUb8sBi7zG4nPxzjHqlBY1_Wy0=", "properties": {"ref": "Prolongaci\u00f3n 5 de mayo #97", "@spider": "allied_universal", "addr:full": "Prolongaci\u00f3n 5 de mayo #97, , GJ, 36100", "addr:street_address": "Prolongaci\u00f3n 5 de mayo #97, ", "addr:city": "Silao", "addr:state": "GJ", "addr:postcode": "36100", "addr:country": "MX", "brand": "Allied Universal", "brand:wikidata": "Q4732537"}},
{"type": "Feature", "id": "hjkM83Yxhu57dfBbdUZ41h-PKqw=", "properties": {"ref": "688 Kinoole St", "@spider": "allied_universal", "addr:full": "688 Kinoole St, , Hawaii, 96720", "addr:street_address": "688 Kinoole St, ", "addr:city": "Hilo", "addr:state": "Hawaii", "addr:postcode": "96720", "addr:country": "US", "website": "https://www.aus.com/hilo-security-system-services", "brand": "Allied Universal", "brand:wikidata": "Q4732537"}},
{"type": "Feature", "id": "BlQ3SJZZy15oKwEKU2E-SJYh1OE=", "properties": {"ref": "1003 Bishop St.", "@spider": "allied_universal", "addr:full": "1003 Bishop St., Suite 138, Hawaii, 96813", "addr:street_address": "1003 Bishop St., Suite 138", "addr:city": "Honolulu", "addr:state": "Hawaii", "addr:postcode": "96813", "addr:country": "US", "phone": "808-670-3350", "website": "https://www.aus.com/honolulu-security-services-systems", "brand": "Allied Universal", "brand:wikidata": "Q4732537"}},
{"type": "Feature", "id": "Gsz7tLGFGDFlB1LJ4-95pc3ZHas=", "properties": {"ref": "75-5742 Kuakini HWY", "@spider": "allied_universal", "addr:full": "75-5742 Kuakini HWY, , Hawaii, 96740", "addr:street_address": "75-5742 Kuakini HWY, ", "addr:city": "Kailua-Kona", "addr:state": "Hawaii", "addr:postcode": "96740", "addr:country": "US", "brand": "Allied Universal", "brand:wikidata": "Q4732537"}},
{"type": "Feature", "id": "cwPrbnd14gi_mmHGDPQu0rFKnjU=", "properties": {"ref": "310 Hookahi Street", "@spider": "allied_universal", "addr:full": "310 Hookahi Street, , Hawaii, 96793", "addr:street_address": "310 Hookahi Street, ", "addr:city": "Wailuku", "addr:state": "Hawaii", "addr:postcode": "96793", "addr:country": "US", "website": "https://www.aus.com/wailuku-security-system-services", "brand": "Allied Universal", "brand:wikidata": "Q4732537"}},
{"type": "Feature", "id": "f42kZ2Xb-1vEt2FuXrM-6sySghg=", "properties": {"ref": "810 East 59th St.", "@spider": "allied_universal", "addr:full": "810 East 59th St., , Iowa, 52807", "addr:street_address": "810 East 59th St., ", "addr:city": "Davenport", "addr:state": "Iowa", "addr:postcode": "52807", "addr:country": "US", "phone": "309-277-0160", "brand": "Allied Universal", "brand:wikidata": "Q4732537"}},
{"type": "Feature", "id": "1qgdiJnwXdgoM5tikVzZk-Ayw7k=", "properties": {"ref": "409 S.W. 8th Street", "@spider": "allied_universal", "addr:full": "409 S.W. 8th Street, , Iowa, 50309", "addr:street_address": "409 S.W. 8th Street, ", "addr:city": "Des Moines", "addr:state": "Iowa", "addr:postcode": "50309", "addr:country": "US", "phone": "515-243-3155", "website": "https://www.aus.com/desmoines-security-systems-services", "brand": "Allied Universal", "brand:wikidata": "Q4732537"}},
{"type": "Feature", "id": "c6k7LJ23GNlc6bGZQBCUO6FnTsQ=", "properties": {"ref": "1655 West Fairview Ave.", "@spider": "allied_universal", "addr:full": "1655 West Fairview Ave., Suite 119, Idaho, 83702", "addr:street_address": "1655 West Fairview Ave., Suite 119", "addr:city": "Boise", "addr:state": "Idaho", "addr:postcode": "83702", "addr:country": "US", "phone": "208-658-6886", "website": "https://www.aus.com/boise-security-services-systems", "brand": "Allied Universal", "brand:wikidata": "Q4732537"}},
{"type": "Feature", "id": "Sru_zW5AXlupBX-JT4vpyZc30-o=", "properties": {"ref": "1016 Ekstam Drive", "@spider": "allied_universal", "addr:full": "1016 Ekstam Drive, , Illinois, 61704", "addr:street_address": "1016 Ekstam Drive, ", "addr:city": "Bloomington", "addr:state": "Illinois", "addr:postcode": "61704", "addr:country": "US", "website": "https://www.aus.com/bloomington-security-system-services", "brand": "Allied Universal", "brand:wikidata": "Q4732537"}},
{"type": "Feature", "id": "7dxrmw7hnangjL7HYDHE7AZJj38=", "properties": {"ref": "55 E. Jackson Street", "@spider": "allied_universal", "addr:full": "55 E. Jackson Street, Suite 2075, Illinois, 60604", "addr:street_address": "55 E. Jackson Street, Suite 2075", "addr:city": "Chicago", "addr:state": "Illinois", "addr:postcode": "60604", "addr:country": "US", "phone": "312-755-0200", "website": "https://www.aus.com/chicago-security-services-systems", "brand": "Allied Universal", "brand:wikidata": "Q4732537"}},
{"type": "Feature", "id": "WtZcFRRUT896VfaHQ-CCUYUJlpQ=", "properties": {"ref": "800 Thorndale Ave", "@spider": "allied_universal", "addr:full": "800 Thorndale Ave, , Illinois, 60106", "addr:street_address": "800 Thorndale Ave, ", "addr:city": "Bensenville", "addr:state": "Illinois", "addr:postcode": "60106", "addr:country": "US", "phone": "212-509-1336", "website": "https://www.aus.com/chicago-security-services-systems", "brand": "Allied Universal", "brand:wikidata": "Q4732537"}},
{"type": "Feature", "id": "5hqb3BnTBOqUI5hswt1Jx2w55VY=", "properties": {"ref": "10255 W. Higgins Road", "@spider": "allied_universal", "addr:full": "10255 W. Higgins Road, Suite 630, Illinois, 60018", "addr:street_address": "10255 W. Higgins Road, Suite 630", "addr:city": "Rosemont", "addr:state": "Illinois", "addr:postcode": "60018", "addr:country": "US", "phone": "630-366-4100", "website": "https://www.aus.com/chicago-security-services-systems", "brand": "Allied Universal", "brand:wikidata": "Q4732537"}},
{"type": "Feature", "id": "123t3N5hURoy3qqiEAx7ICe8b2c=", "properties": {"ref": "16335 S. Harlem Ave", "@spider": "allied_universal", "addr:full": "16335 S. Harlem Ave, Suite 250, Illinois, 60477", "addr:street_address": "16335 S. Harlem Ave, Suite 250", "addr:city": "Tinley Park", "addr:state": "Illinois", "addr:postcode": "60477", "addr:country": "US", "phone": "708-389-3830", "website": "https://www.aus.com/chicago-security-services-systems", "brand": "Allied Universal", "brand:wikidata": "Q4732537"}},
{"type": "Feature", "id": "yIaWJ7hAMKyxAC2CNQXOWzbTDqE=", "properties": {"ref": "435 West Fullerton Avenue", "@spider": "allied_universal", "addr:full": "435 West Fullerton Avenue, , Illinois, 60126", "addr:street_address": "435 West Fullerton Avenue, ", "addr:city": "Elmhurst", "addr:state": "Illinois", "addr:postcode": "60126", "addr:country": "US", "phone": "630-279-7171", "website": "https://www.aus.com/chicago-security-services-systems", "brand": "Allied Universal", "brand:wikidata": "Q4732537"}},
{"type": "Feature", "id": "fhsvFdf0S0S3a1etrXKhjj6PNGw=", "properties": {"ref": "387 Shuman Boulevard", "@spider": "allied_universal", "addr:full": "387 Shuman Boulevard, Suite 200E, Illinois, 60563", "addr:street_address": "387 Shuman Boulevard, Suite 200E", "addr:city": "Naperville", "addr:state": "Illinois", "addr:postcode": "60563", "addr:country": "US", "phone": "630-369-6761", "website": "https://www.aus.com/chicago-security-services-systems", "brand": "Allied Universal", "brand:wikidata": "Q4732537"}},
{"type": "Feature", "id": "sauXRHzZQBZOGlxdGgOohrrFUwY=", "properties": {"ref": "7700 Harker Drive", "@spider": "allied_universal", "addr:full": "7700 Harker Drive, , Illinois, 61614", "addr:street_address": "7700 Harker Drive, ", "addr:city": "Peoria", "addr:state": "Illinois", "addr:postcode": "61614", "addr:country": "US", "website": "https://www.aus.com/peoria-security-system-services", "brand": "Allied Universal", "brand:wikidata": "Q4732537"}},
{"type": "Feature", "id": "Ag94VxeU5ap9Rk3-tXuQuLJQ6PM=", "properties": {"ref": "129 Phelps Avenue", "@spider": "allied_universal", "addr:full": "129 Phelps Avenue, Suite 524, Illinois, 61108", "addr:street_address": "129 Phelps Avenue, Suite 524", "addr:city": "Rockford", "addr:state": "Illinois", "addr:postcode": "61108", "addr:country": "US", "phone": "815-397-0630", "website": "https://www.aus.com/chicago-security-services-systems", "brand": "Allied Universal", "brand:wikidata": "Q4732537"}},
{"type": "Feature", "id": "9ZLwquEtw8J8-uPvtOrQS56kbqs=", "properties": {"ref": "1046 N. Grand Avenue West", "@spider": "allied_universal", "addr:full": "1046 N. Grand Avenue West, , Illinois, 62702", "addr:street_address": "1046 N. Grand Avenue West, ", "addr:city": "Springfield", "addr:state": "Illinois", "addr:postcode": "62702", "addr:country": "US", "phone": "217-523-2480", "website": "https://www.aus.com/springfield-il-security-systems-services", "brand": "Allied Universal", "brand:wikidata": "Q4732537"}},
{"type": "Feature", "id": "tXI72hcz9nTtzPVMOmeHgW97lGE=", "properties": {"ref": "4505 N Illinois St", "@spider": "allied_universal", "addr:full": "4505 N Illinois St, Suite 6, Illinois, 62226", "addr:street_address": "4505 N Illinois St, Suite 6", "addr:city": "Swansea", "addr:state": "Illinois", "addr:postcode": "62226", "addr:country": "US", "phone": "314-241-4220", "website": "https://www.aus.com/saint-louis-security-systems-services", "brand": "Allied Universal", "brand:wikidata": "Q4732537"}},
{"type": "Feature", "id": "yaGfe2rNQ02P9SF_Wl3PorfQIms=", "properties": {"ref": "27764 Volo Village Road, Suite A", "@spider": "allied_universal", "addr:full": "27764 Volo Village Road, Suite A, , Illinois, 60073", "addr:street_address": "27764 Volo Village Road, Suite A, ", "addr:city": "Volo", "addr:state": "Illinois", "addr:postcode": "60073", "addr:country": "US", "website": "https://www.aus.com/chicago-security-services-systems", "brand": "Allied Universal", "brand:wikidata": "Q4732537"}},
{"type": "Feature", "id": "MKG0npG_risCskje0qQy8oDjiuY=", "properties": {"ref": "2303 W Michigan", "@spider": "allied_universal", "addr:full": "2303 W Michigan, , Indiana, 47712", "addr:street_address": "2303 W Michigan, ", "addr:city": "Evansville", "addr:state": "Indiana", "addr:postcode": "47712", "addr:country": "US", "website": "https://www.aus.com/evansville-security-system-services", "brand": "Allied Universal", "brand:wikidata": "Q4732537"}},
{"type": "Feature", "id": "qsonMlxzGnIUuTpmJeiHMFqSApo=", "properties": {"ref": "3741 45th Street", "@spider": "allied_universal", "addr:full": "3741 45th Street, Suite 2E, Indiana, 46322", "addr:street_address": "3741 45th Street, Suite 2E", "addr:city": "Highland", "addr:state": "Indiana", "addr:postcode": "46322", "addr:country": "US", "phone": "219-736-0033", "website": "https://www.aus.com/highland-hammond-security-systems-services", "brand": "Allied Universal", "brand:wikidata": "Q4732537"}},
{"type": "Feature", "id": "5WsLzcEQ9yyIr0OkyRwHoHzWi1E=", "properties": {"ref": "8777 Purdue Rd", "@spider": "allied_universal", "addr:full": "8777 Purdue Rd, Suite 300, Indiana, 46268", "addr:street_address": "8777 Purdue Rd, Suite 300", "addr:city": "Indianapolis", "addr:state": "Indiana", "addr:postcode": "46268", "addr:country": "US", "phone": "317-920-0402", "website": "https://www.aus.com/indianapolis-security-systems-services", "brand": "Allied Universal", "brand:wikidata": "Q4732537"}},
{"type": "Feature", "id": "z-sLaRi8ZtxeWcOG3Fh8EycDeA0=", "properties": {"ref": "Garibaldi # 2583", "@spider": "allied_universal", "addr:full": "Garibaldi # 2583, , Jalisco, 44600", "addr:street_address": "Garibaldi # 2583, ", "addr:city": "Guadalajara", "addr:state": "Jalisco", "addr:postcode": "44600", "addr:country": "MX", "phone": "52-55-4618-8290", "brand": "Allied Universal", "brand:wikidata": "Q4732537"}},
{"type": "Feature", "id": "A_pW9NkM45-2DvKMxglNRg1FD-4=", "properties": {"ref": "C. Independencia 605", "@spider": "allied_universal", "addr:full": "C. Independencia 605, , Jal., 47470", "addr:street_address": "C. Independencia 605, ", "addr:city": "San Felipe", "addr:state": "Jal.", "addr:postcode": "47470", "addr:country": "MX", "brand": "Allied Universal", "brand:wikidata": "Q4732537"}},
{"type": "Feature", "id": "gRIM7RP0947iiWsvmNnFJPqx8cc=", "properties": {"ref": "604 N. Main St", "@spider": "allied_universal", "addr:full": "604 N. Main St, Suite E, Kansas, 67203", "addr:street_address": "604 N. Main St, Suite E", "addr:city": "Wichita", "addr:state": "Kansas", "addr:postcode": "67203", "addr:country": "US", "phone": "316-440-6646", "website": "https://www.aus.com/wichita-security-systems-services", "brand": "Allied Universal", "brand:wikidata": "Q4732537"}},
{"type": "Feature", "id": "vJXY2E3KaQ-xUSgJlrK48cWlBRk=", "properties": {"ref": "437 Lewis Hargett Circle", "@spider": "allied_universal", "addr:full": "437 Lewis Hargett Circle, , Kentucky, 40503", "addr:street_address": "437 Lewis Hargett Circle, ", "addr:city": "Lexington", "addr:state": "Kentucky", "addr:postcode": "40503", "addr:country": "US", "website": "https://www.aus.com/lexington-security-systems-services", "brand": "Allied Universal", "brand:wikidata": "Q4732537"}},
{"type": "Feature", "id": "xRAp9HzIXkc-dTT_NjY4ySLlvms=", "properties": {"ref": "575 W Main Street", "@spider": "allied_universal", "addr:full": "575 W Main Street, Suite 575, Kentucky, 40507", "addr:street_address": "575 W Main Street, Suite 575", "addr:city": "Lexington", "addr:state": "Kentucky", "addr:postcode": "40507", "addr:country": "US", "website": "https://www.aus.com/lexington-security-systems-services", "brand": "Allied Universal", "brand:wikidata": "Q4732537"}},
{"type": "Feature", "id": "3PD3HvkaP-k9vOaYfRf9j3oySfg=", "properties": {"ref": "9000 Wessex Place", "@spider": "allied_universal", "addr:full": "9000 Wessex Place, Suite 301, Kentucky, 40222", "addr:street_address": "9000 Wessex Place, Suite 301", "addr:city": "Louisville", "addr:state": "Kentucky", "addr:postcode": "40222", "addr:country": "US", "phone": "502-635-2646", "brand": "Allied Universal", "brand:wikidata": "Q4732537"}},
{"type": "Feature", "id": "ZCD9EcBA6FgBWqLtCu-Tpk8iWhs=", "properties": {"ref": "4157 Shelbyville Road", "@spider": "allied_universal", "addr:full": "4157 Shelbyville Road, , Kentucky, 40207", "addr:street_address": "4157 Shelbyville Road, ", "addr:city": "Louisville", "addr:state": "Kentucky", "addr:postcode": "40207", "addr:country": "US", "phone": "502-890-7699", "brand": "Allied Universal", "brand:wikidata": "Q4732537"}},
{"type": "Feature", "id": "lDjvAkg-VZaZarHjyFvPLq7t9nY=", "properties": {"ref": "1920 Goldsmith Lane", "@spider": "allied_universal", "addr:full": "1920 Goldsmith Lane, , Kentucky, 40218", "addr:street_address": "1920 Goldsmith Lane, ", "addr:city": "Louisville", "addr:state": "Kentucky", "addr:postcode": "40218", "addr:country": "US", "website": "https://www.aus.com/louisville-security-systems-services", "brand": "Allied Universal", "brand:wikidata": "Q4732537"}},
{"type": "Feature", "id": "XLQXf4XpbHHq3vnGJiWLmFwaV_o=", "properties": {"ref": "6319 Kentucky Highway 146", "@spider": "allied_universal", "addr:full": "6319 Kentucky Highway 146, , Kentucky, 40014", "addr:street_address": "6319 Kentucky Highway 146, ", "addr:city": "Crestwood", "addr:state": "Kentucky", "addr:postcode": "40014", "addr:country": "US", "phone": "212-509-1336", "website": "https://www.aus.com/louisville-security-systems-services", "brand": "Allied Universal", "brand:wikidata": "Q4732537"}},
{"type": "Feature", "id": "Dpz7zvi28qsC5BHHwrVTO3lxIrY=", "properties": {"ref": "5000 Back Square Drive", "@spider": "allied_universal", "addr:full": "5000 Back Square Drive, Bldg B, Suite 1, Kentucky, 42301", "addr:street_address": "5000 Back Square Drive, Bldg B, Suite 1", "addr:city": "Owensboro", "addr:state": "Kentucky", "addr:postcode": "42301", "addr:country": "US", "phone": "270-685-0885", "brand": "Allied Universal", "brand:wikidata": "Q4732537"}},
{"type": "Feature", "id": "FdbZXS4I0r1zAlqbCNWbrNdi4fI=", "properties": {"ref": "3029 S. Sherwood Forest Blvd", "@spider": "allied_universal", "addr:full": "3029 S. Sherwood Forest Blvd, Suite 325, Louisiana, 70816", "addr:street_address": "3029 S. Sherwood Forest Blvd, Suite 325", "addr:city": "Baton Rouge", "addr:state": "Louisiana", "addr:postcode": "70816", "addr:country": "US", "phone": "225-292-9159", "website": "https://www.aus.com/baton-rouge-security-systems-services", "brand": "Allied Universal", "brand:wikidata": "Q4732537"}},
{"type": "Feature", "id": "rO9TjD_ibyAy9cjhAJflbG42AD0=", "properties": {"ref": "814 Bayou Pines W", "@spider": "allied_universal", "addr:full": "814 Bayou Pines W, , Louisiana, 70601", "addr:street_address": "814 Bayou Pines W, ", "addr:city": "Lake Charles", "addr:state": "Louisiana", "addr:postcode": "70601", "addr:country": "US", "phone": "337-479-0051", "website": "https://www.aus.com/lake-charles-security-systems-services", "brand": "Allied Universal", "brand:wikidata": "Q4732537"}},
{"type": "Feature", "id": "4E15wjgY30aXGQ2SOMgpRvsl3Xw=", "properties": {"ref": "21357 Marion Lane", "@spider": "allied_universal", "addr:full": "21357 Marion Lane, Suite 500, Louisiana, 70471", "addr:street_address": "21357 Marion Lane, Suite 500", "addr:city": "Mandeville", "addr:state": "Louisiana", "addr:postcode": "70471", "addr:country": "US", "phone": "888-409-2224", "website": "https://www.aus.com/new-orleans-security-systems-services", "brand": "Allied Universal", "brand:wikidata": "Q4732537"}},
{"type": "Feature", "id": "DHWI9wdReGQP0rAO3qIIfiQFYLw=", "properties": {"ref": "433 Metairie Road", "@spider": "allied_universal", "addr:full": "433 Metairie Road, Suite 408, Louisiana, 70005", "addr:street_address": "433 Metairie Road, Suite 408", "addr:city": "Metairie", "addr:state": "Louisiana", "addr:postcode": "70005", "addr:country": "US", "phone": "504-648-3726", "website": "https://www.aus.com/new-orleans-security-systems-services", "brand": "Allied Universal", "brand:wikidata": "Q4732537"}},
{"type": "Feature", "id": "rgg_SSJQVBOA58X8SXumdXkp9cw=", "properties": {"ref": "401 Edwards Street", "@spider": "allied_universal", "addr:full": "401 Edwards Street, Suite 1415, Louisiana, 71101", "addr:street_address": "401 Edwards Street, Suite 1415", "addr:city": "Shreveport", "addr:state": "Louisiana", "addr:postcode": "71101", "addr:country": "US", "phone": "318-841-0200", "website": "https://www.aus.com/shreveport-security-systems-services", "brand": "Allied Universal", "brand:wikidata": "Q4732537"}},
{"type": "Feature", "id": "JGSaynunA9lZ4HNp6egytR351kI=", "properties": {"ref": "700 Technology Park Drive", "@spider": "allied_universal", "addr:full": "700 Technology Park Drive, Suite 205, Massachusetts, 01821", "addr:street_address": "700 Technology Park Drive, Suite 205", "addr:city": "Billerica", "addr:state": "Massachusetts", "addr:postcode": "01821", "addr:country": "US", "phone": "978-452-4606", "website": "https://www.aus.com/boston-security-systems-services", "brand": "Allied Universal", "brand:wikidata": "Q4732537"}},
{"type": "Feature", "id": "1zHnae82BogWjmcekupKuFQP-6s=", "properties": {"ref": "1 Corporate Drive", "@spider": "allied_universal", "addr:full": "1 Corporate Drive, Suite 3, Massachusetts, 01810", "addr:street_address": "1 Corporate Drive, Suite 3", "addr:city": "Andover", "addr:state": "Massachusetts", "addr:postcode": "01810", "addr:country": "US", "phone": "800-354-2616", "website": "https://www.aus.com/boston-security-systems-services", "brand": "Allied Universal", "brand:wikidata": "Q4732537"}},
{"type": "Feature", "id": "I8U0Ihez3UIhnpl8-vtm6UiVX4U=", "properties": {"ref": "580 Harrison Ave", "@spider": "allied_universal", "addr:full": "580 Harrison Ave, Suite 3E, Massachusetts, 02118", "addr:street_address": "580 Harrison Ave, Suite 3E", "addr:city": "Boston", "addr:state": "Massachusetts", "addr:postcode": "02118", "addr:country": "US", "phone": "617-587-3500", "website": "https://www.aus.com/boston-security-systems-services", "brand": "Allied Universal", "brand:wikidata": "Q4732537"}},
{"type": "Feature", "id": "zeZZSPkyD9eG_kyN2qW-m5eBGmM=", "properties": {"ref": "227 Union St.", "@spider": "allied_universal", "addr:full": "227 Union St., Suite 405, 406, Massachusetts, 02740", "addr:street_address": "227 Union St., Suite 405, 406", "addr:city": "New Bedford", "addr:state": "Massachusetts", "addr:postcode": "02740", "addr:country": "US", "phone": "508-992-2821", "website": "https://www.aus.com/new-bedford-security-systems-services", "brand": "Allied Universal", "brand:wikidata": "Q4732537"}},
{"type": "Feature", "id": "Kl8vHOf_7rObub40nfy4wtKJHAM=", "properties": {"ref": "66/67 Millbrook Street", "@spider": "allied_universal", "addr:full": "66/67 Millbrook Street, Suite 213, Massachusetts, 01606", "addr:street_address": "66/67 Millbrook Street, Suite 213", "addr:city": "Worcester", "addr:state": "Massachusetts", "addr:postcode": "01606", "addr:country": "US", "phone": "508-797-3758", "website": "https://www.aus.com/worcester-security-systems-services", "brand": "Allied Universal", "brand:wikidata": "Q4732537"}},
{"type": "Feature", "id": "yzedkrBQs5FeV_LdJpEpu98iJWc=", "properties": {"ref": "231-530 Century Street", "@spider": "allied_universal", "addr:full": "231-530 Century Street, , Manitoba, R3H 0Y4", "addr:street_address": "231-530 Century Street, ", "addr:city": "Winnipeg", "addr:state": "Manitoba", "addr:postcode": "R3H 0Y4", "addr:country": "CA", "phone": "888-717-4447", "website": "https://ausecurity.ca/winnipeg-security-systems-services", "brand": "Allied Universal", "brand:wikidata": "Q4732537"}},
{"type": "Feature", "id": "P9Dt_rk3s8vreZzcZyUbM1_d1m8=", "properties": {"ref": "Av Siervo de La Nacion 138 Int. F", "@spider": "allied_universal", "addr:full": "Av Siervo de La Nacion 138 Int. F, , MC, 58170", "addr:street_address": "Av Siervo de La Nacion 138 Int. F, ", "addr:city": "Morelia", "addr:state": "MC", "addr:postcode": "58170", "addr:country": "MX", "brand": "Allied Universal", "brand:wikidata": "Q4732537"}},
{"type": "Feature", "id": "IDchRJ02xOWU0GN6kMztF_5drg8=", "properties": {"ref": "36 S Charles Street", "@spider": "allied_universal", "addr:full": "36 S Charles Street, Suite 2204, Maryland, 21201", "addr:street_address": "36 S Charles Street, Suite 2204", "addr:city": "Baltimore", "addr:state": "Maryland", "addr:postcode": "21201", "addr:country": "US", "phone": "410-931-5061", "website": "https://www.aus.com/baltimore-security-systems-services", "brand": "Allied Universal", "brand:wikidata": "Q4732537"}},
{"type": "Feature", "id": "ZymhwAVtauuQBnD9LSGF64o_RAQ=", "properties": {"ref": "606 Snow Hill Road", "@spider": "allied_universal", "addr:full": "606 Snow Hill Road, Unit D, Maryland, 21804", "addr:street_address": "606 Snow Hill Road, Unit D", "addr:city": "Salisbury", "addr:state": "Maryland", "addr:postcode": "21804", "addr:country": "US", "phone": "410-677-4700", "website": "https://www.aus.com/salisbury-security-systems-services", "brand": "Allied Universal", "brand:wikidata": "Q4732537"}},
{"type": "Feature", "id": "22AtlESiHdnoi4ECM8GA3D-stx0=", "properties": {"ref": "1111 Bonifant Street", "@spider": "allied_universal", "addr:full": "1111 Bonifant Street, , Maryland, 20910", "addr:street_address": "1111 Bonifant Street, ", "addr:city": "Silver Spring", "addr:state": "Maryland", "addr:postcode": "20910", "addr:country": "US", "phone": "301-588-7834", "website": "https://www.aus.com/baltimore-security-systems-services", "brand": "Allied Universal", "brand:wikidata": "Q4732537"}},
{"type": "Feature", "id": "85TgR2POSNT-613qQaRJ4XIMA00=", "properties": {"ref": "8401 Ramsey Avenue", "@spider": "allied_universal", "addr:full": "8401 Ramsey Avenue, , Maryland, 20910", "addr:street_address": "8401 Ramsey Avenue, ", "addr:city": "Silver Spring", "addr:state": "Maryland", "addr:postcode": "20910", "addr:country": "US", "phone": "301-588-7834", "website": "https://www.aus.com/baltimore-security-systems-services", "brand": "Allied Universal", "brand:wikidata": "Q4732537"}},
{"type": "Feature", "id": "eGjBdt4OPWqo8e3ZCexEokEYEdk=", "properties": {"ref": "15 Fowler Street", "@spider": "allied_universal", "addr:full": "15 Fowler Street, , Maine, 04330", "addr:street_address": "15 Fowler Street, ", "addr:city": "Augusta", "addr:state": "Maine", "addr:postcode": "04330", "addr:country": "US", "website": "https://www.aus.com/augusta-security-system-services", "brand": "Allied Universal", "brand:wikidata": "Q4732537"}},
{"type": "Feature", "id": "owbPPrWiA4NiXc8xonTKFnaC0r4=", "properties": {"ref": "500 Southborough Drive", "@spider": "allied_universal", "addr:full": "500 Southborough Drive, 3rd Floor, Maine, 04106", "addr:street_address": "500 Southborough Drive, 3rd Floor", "addr:city": "South Portland", "addr:state": "Maine", "addr:postcode": "04106", "addr:country": "US", "phone": "866-825-5433", "website": "https://www.aus.com/portland-security-systems-services", "brand": "Allied Universal", "brand:wikidata": "Q4732537"}},
{"type": "Feature", "id": "_FqH1ZYl6E0CaXau5aP6XtPjBeo=", "properties": {"ref": "4 Thomas Drive", "@spider": "allied_universal", "addr:full": "4 Thomas Drive, Suite 5, Maine, 04092", "addr:street_address": "4 Thomas Drive, Suite 5", "addr:city": "Westbrook", "addr:state": "Maine", "addr:postcode": "04092", "addr:country": "US", "phone": "888-826-8567", "website": "https://www.aus.com/portland-security-systems-services", "brand": "Allied Universal", "brand:wikidata": "Q4732537"}},
{"type": "Feature", "id": "k2p0wTaKXZ-ldMEE6iVyenKC-UQ=", "properties": {"ref": "2179 & 2181 S. M-139", "@spider": "allied_universal", "addr:full": "2179 & 2181 S. M-139, , Michigan, 49002", "addr:street_address": "2179 & 2181 S. M-139, ", "addr:city": "Benton Harbor", "addr:state": "Michigan", "addr:postcode": "49002", "addr:country": "US", "phone": "269-382-4800", "website": "https://www.aus.com/benton-harbor-security-systems-services", "brand": "Allied Universal", "brand:wikidata": "Q4732537"}},
{"type": "Feature", "id": "2y0wBZyxtN0w6c2CEUuDy22W35A=", "properties": {"ref": "6 Park Lane Boulevard", "@spider": "allied_universal", "addr:full": "6 Park Lane Boulevard, Suite 560, Michigan, 48126", "addr:street_address": "6 Park Lane Boulevard, Suite 560", "addr:city": "Dearborn", "addr:state": "Michigan", "addr:postcode": "48126", "addr:country": "US", "phone": "734-285-7772", "website": "https://www.aus.com/detroit-security-systems-services", "brand": "Allied Universal", "brand:wikidata": "Q4732537"}},
{"type": "Feature", "id": "vNMknlzbMZq7jD7XQaI4GOTVImg=", "properties": {"ref": "1000 Town Center", "@spider": "allied_universal", "addr:full": "1000 Town Center, Suite 2430 & 2480, Michigan, 48075", "addr:street_address": "1000 Town Center, Suite 2430 & 2480", "addr:city": "Southfield", "addr:state": "Michigan", "addr:postcode": "48075", "addr:country": "US", "phone": "248-423-4604", "website": "https://www.aus.com/detroit-security-systems-services", "brand": "Allied Universal", "brand:wikidata": "Q4732537"}},
{"type": "Feature", "id": "yR_tcW6ZsIufafnEeXSXCaUks6U=", "properties": {"ref": "575 East Big Beaver Road", "@spider": "allied_universal", "addr:full": "575 East Big Beaver Road, Suite 180, Michigan, 48083-1300", "addr:street_address": "575 East Big Beaver Road, Suite 180", "addr:city": "Troy", "addr:state": "Michigan", "addr:postcode": "48083-1300", "addr:country": "US", "phone": "248-434-6611", "website": "https://www.aus.com/detroit-security-systems-services", "brand": "Allied Universal", "brand:wikidata": "Q4732537"}},
{"type": "Feature", "id": "TnKjiVIdarc_vMrz1shyUVXuQwA=", "properties": {"ref": "1001 Woodward", "@spider": "allied_universal", "addr:full": "1001 Woodward, , Michigan, 48226", "addr:street_address": "1001 Woodward, ", "addr:city": "Detroit", "addr:state": "Michigan", "addr:postcode": "48226", "addr:country": "US", "website": "https://www.aus.com/detroit-security-systems-services", "brand": "Allied Universal", "brand:wikidata": "Q4732537"}},
{"type": "Feature", "id": "_zZuJjanlewD47_kwKe-zPPqN4c=", "properties": {"ref": "3949 Sparks Drive SE", "@spider": "allied_universal", "addr:full": "3949 Sparks Drive SE, Suite 111, Michigan, 49546", "addr:street_address": "3949 Sparks Drive SE, Suite 111", "addr:city": "Grand Rapids", "addr:state": "Michigan", "addr:postcode": "49546", "addr:country": "US", "phone": "616-245-6161", "brand": "Allied Universal", "brand:wikidata": "Q4732537"}},
{"type": "Feature", "id": "EDry8PPyf7RDHeplZHcUREeBbds=", "properties": {"ref": "474 North Burkhart Road", "@spider": "allied_universal", "addr:full": "474 North Burkhart Road, , Michigan, 29577", "addr:street_address": "474 North Burkhart Road, ", "addr:city": "Howell", "addr:state": "Michigan", "addr:postcode": "29577", "addr:country": "US", "brand": "Allied Universal", "brand:wikidata": "Q4732537"}},
{"type": "Feature", "id": "usMqEq4yBi5kq8Jj3-ZWPNhk6F8=", "properties": {"ref": "5975 Crossroads Commerce Parkway SW", "@spider": "allied_universal", "addr:full": "5975 Crossroads Commerce Parkway SW, , Michigan, 49519", "addr:street_address": "5975 Crossroads Commerce Parkway SW, ", "addr:city": "Wyoming", "addr:state": "Michigan", "addr:postcode": "49519", "addr:country": "US", "phone": "Phone: 1-616-257-1100 or 1-800-955-1317", "brand": "Allied Universal", "brand:wikidata": "Q4732537"}},
{"type": "Feature", "id": "tnV6RHVEyXzDBmnFyycXIpixPnA=", "properties": {"ref": "2001 Killebrew Drive", "@spider": "allied_universal", "addr:full": "2001 Killebrew Drive, Suite 335, Minnesota, 55425", "addr:street_address": "2001 Killebrew Drive, Suite 335", "addr:city": "Bloomington", "addr:state": "Minnesota", "addr:postcode": "55425", "addr:country": "US", "phone": "612-288-0585", "website": "https://www.aus.com/minneapolis-security-systems-services", "brand": "Allied Universal", "brand:wikidata": "Q4732537"}},
{"type": "Feature", "id": "E4hzo8QlX3zESsvJfbKRsGvqhUM=", "properties": {"ref": "34 N Main", "@spider": "allied_universal", "addr:full": "34 N Main, , Missouri, 63701", "addr:street_address": "34 N Main, ", "addr:city": "Cape Girardeau", "addr:state": "Missouri", "addr:postcode": "63701", "addr:country": "US", "phone": "573-335-2924", "website": "https://www.aus.com/cape-girardeau-security-services-systems", "brand": "Allied Universal", "brand:wikidata": "Q4732537"}},
{"type": "Feature", "id": "H8XysSnJld6of5s9xxVYVpL86FM=", "properties": {"ref": "West County Center", "@spider": "allied_universal", "addr:full": "West County Center, , Missouri, 63131", "addr:street_address": "West County Center, ", "addr:city": "Des Peres", "addr:state": "Missouri", "addr:postcode": "63131", "addr:country": "US", "brand": "Allied Universal", "brand:wikidata": "Q4732537"}},
{"type": "Feature", "id": "6myAQbWgEhlUbsTqc2DU52SPzOY=", "properties": {"ref": "920 Main Street", "@spider": "allied_universal", "addr:full": "920 Main Street, Suite 850, Missouri, 64105", "addr:street_address": "920 Main Street, Suite 850", "addr:city": "Kansas City", "addr:state": "Missouri", "addr:postcode": "64105", "addr:country": "US", "phone": "816-483-2330", "website": "https://www.aus.com/kansas-city-security-systems-services", "brand": "Allied Universal", "brand:wikidata": "Q4732537"}},
{"type": "Feature", "id": "r9qPY7Y6RUiaoZl8a13jSh5AQ9A=", "properties": {"ref": "2053 S. Waverly", "@spider": "allied_universal", "addr:full": "2053 S. Waverly, , Missouri, 65804", "addr:street_address": "2053 S. Waverly, ", "addr:city": "Springfield", "addr:state": "Missouri", "addr:postcode": "65804", "addr:country": "US", "phone": "417-881-0052", "website": "https://www.aus.com/springfield-security-systems-services", "brand": "Allied Universal", "brand:wikidata": "Q4732537"}},
{"type": "Feature", "id": "CwHcNoGkytnsPGFj4Loa6x7EE4Y=", "properties": {"ref": "Mid Rivers Mall", "@spider": "allied_universal", "addr:full": "Mid Rivers Mall, , Missouri, 63376", "addr:street_address": "Mid Rivers Mall, ", "addr:city": "St Peters", "addr:state": "Missouri", "addr:postcode": "63376", "addr:country": "US", "brand": "Allied Universal", "brand:wikidata": "Q4732537"}},
{"type": "Feature", "id": "RyT5VB-PL3BIaLKx5ywDmA5tDNE=", "properties": {"ref": "2258 Schuetz Rd", "@spider": "allied_universal", "addr:full": "2258 Schuetz Rd, Suite 200/202, Missouri, 63146", "addr:street_address": "2258 Schuetz Rd, Suite 200/202", "addr:city": "St. Louis", "addr:state": "Missouri", "addr:postcode": "63146", "addr:country": "US", "phone": "314-241-4220", "brand": "Allied Universal", "brand:wikidata": "Q4732537"}},
{"type": "Feature", "id": "dVoF5Q4jTMd93otAGoTtDGKBCDU=", "properties": {"ref": "South County Center", "@spider": "allied_universal", "addr:full": "South County Center, , Missouri, 63129", "addr:street_address": "South County Center, ", "addr:city": "St. Louis", "addr:state": "Missouri", "addr:postcode": "63129", "addr:country": "US", "brand": "Allied Universal", "brand:wikidata": "Q4732537"}},
{"type": "Feature", "id": "IaCj-V_N-pi7B_bP5VyU49p378Y=", "properties": {"ref": "Av. Cuauhn\u00e1huac Km 5.5  Edificio A  2do piso", "@spider": "allied_universal", "addr:full": "Av. Cuauhn\u00e1huac Km 5.5  Edificio A  2do piso, , MR, 62570", "addr:street_address": "Av. Cuauhn\u00e1huac Km 5.5  Edificio A  2do piso, ", "addr:city": "Jiutepec", "addr:state": "MR", "addr:postcode": "62570", "addr:country": "MX", "brand": "Allied Universal", "brand:wikidata": "Q4732537"}},
{"type": "Feature", "id": "UvlAc-oA_fOW8YA5eh-wRnsedz4=", "properties": {"ref": "169 Lameuse Street", "@spider": "allied_universal", "addr:full": "169 Lameuse Street, Suite B, Mississippi, 39530", "addr:street_address": "169 Lameuse Street, Suite B", "addr:city": "Biloxi", "addr:state": "Mississippi", "addr:postcode": "39530", "addr:country": "US", "website": "https://www.aus.com/biloxi-security-system-services", "brand": "Allied Universal", "brand:wikidata": "Q4732537"}},
{"type": "Feature", "id": "cxepWJSKCdwetoieRLI6mgzc1Jk=", "properties": {"ref": "1307 Airport Road", "@spider": "allied_universal", "addr:full": "1307 Airport Road, Suite 1C, Mississippi, 39232", "addr:street_address": "1307 Airport Road, Suite 1C", "addr:city": "Flowood", "addr:state": "Mississippi", "addr:postcode": "39232", "addr:country": "US", "phone": "601-362-9441", "website": "https://www.aus.com/jackson-ms-security-systems-services", "brand": "Allied Universal", "brand:wikidata": "Q4732537"}},
{"type": "Feature", "id": "zBtHsnEMaDHI9G0B9sE7x6CrTlU=", "properties": {"ref": "490 North 31st Street", "@spider": "allied_universal", "addr:full": "490 North 31st Street, Suite 201, Montana, 59101", "addr:street_address": "490 North 31st Street, Suite 201", "addr:city": "Billings", "addr:state": "Montana", "addr:postcode": "59101", "addr:country": "US", "phone": "406-248-3010", "website": "https://www.aus.com/billings-security-systems-services", "brand": "Allied Universal", "brand:wikidata": "Q4732537"}},
{"type": "Feature", "id": "XbV5ZJZRyTImzPdqmpH17_a79kA=", "properties": {"ref": "9 Walden Dr Ste H", "@spider": "allied_universal", "addr:full": "9 Walden Dr Ste H, , North Carolina, 28704-3316", "addr:street_address": "9 Walden Dr Ste H, ", "addr:city": "Arden", "addr:state": "North Carolina", "addr:postcode": "28704-3316", "addr:country": "US", "website": "https://www.aus.com/asheville-security-systems-services", "brand": "Allied Universal", "brand:wikidata": "Q4732537"}},
{"type": "Feature", "id": "0BKXQnUSmt6NSbFuzf4o8wGL3RI=", "properties": {"ref": "400 Clanton Road", "@spider": "allied_universal", "addr:full": "400 Clanton Road, Suite A, North Carolina, 28217", "addr:street_address": "400 Clanton Road, Suite A", "addr:city": "Charlotte", "addr:state": "North Carolina", "addr:postcode": "28217", "addr:country": "US", "phone": "704-522-0800", "website": "https://www.aus.com/charlotte-security-systems-services", "brand": "Allied Universal", "brand:wikidata": "Q4732537"}},
{"type": "Feature", "id": "XK8CQEkVhYEC0rk1_ZzCcL_BcT0=", "properties": {"ref": "10735 David Taylor Drive", "@spider": "allied_universal", "addr:full": "10735 David Taylor Drive, Suite 560, North Carolina, 28262", "addr:street_address": "10735 David Taylor Drive, Suite 560", "addr:city": "Charlotte", "addr:state": "North Carolina", "addr:postcode": "28262", "addr:country": "US", "phone": "704-334-4751", "website": "https://www.aus.com/charlotte-security-systems-services", "brand": "Allied Universal", "brand:wikidata": "Q4732537"}},
{"type": "Feature", "id": "7yvPI30ts-_EUiVIh6AARx1n4sk=", "properties": {"ref": "2211 W. Meadowview Rd.", "@spider": "allied_universal", "addr:full": "2211 W. Meadowview Rd., , North Carolina, 27407", "addr:street_address": "2211 W. Meadowview Rd., ", "addr:city": "Greensboro", "addr:state": "North Carolina", "addr:postcode": "27407", "addr:country": "US", "phone": "336-768-2455", "website": "https://www.aus.com/greensboro-security-systems-services", "brand": "Allied Universal", "brand:wikidata": "Q4732537"}},
{"type": "Feature", "id": "ybDx2UMkI2QZqoXdTzF2La9fxCE=", "properties": {"ref": "1100 Hardee Road", "@spider": "allied_universal", "addr:full": "1100 Hardee Road, Suite 101, 107, North Carolina, 28504", "addr:street_address": "1100 Hardee Road, Suite 101, 107", "addr:city": "Kinston", "addr:state": "North Carolina", "addr:postcode": "28504", "addr:country": "US", "phone": "252-522-2911", "website": "https://www.aus.com/kinston-security-systems-services", "brand": "Allied Universal", "brand:wikidata": "Q4732537"}},
{"type": "Feature", "id": "Xs2090xg6kBRPjBo8UtXi4dQUbE=", "properties": {"ref": "256 Hein Drive", "@spider": "allied_universal", "addr:full": "256 Hein Drive, , North Carolina, 27529", "addr:street_address": "256 Hein Drive, ", "addr:city": "Garner", "addr:state": "North Carolina", "addr:postcode": "27529", "addr:country": "US", "phone": "919-773-9400", "website": "https://www.aus.com/raleigh-security-systems-services", "brand": "Allied Universal", "brand:wikidata": "Q4732537"}},
{"type": "Feature", "id": "rZlDqaPqkSSo3bGAgLIfKqKoTk4=", "properties": {"ref": "4600 Marriott Drive", "@spider": "allied_universal", "addr:full": "4600 Marriott Drive, Suite 510, North Carolina, 27612", "addr:street_address": "4600 Marriott Drive, Suite 510", "addr:city": "Raleigh", "addr:state": "North Carolina", "addr:postcode": "27612", "addr:country": "US", "phone": "919-781-8822", "website": "https://www.aus.com/raleigh-security-systems-services", "brand": "Allied Universal", "brand:wikidata": "Q4732537"}},
{"type": "Feature", "id": "DEXZUyk1OuX85xlLb2ppibxw8Nw=", "properties": {"ref": "910 Paverstone Drive", "@spider": "allied_universal", "addr:full": "910 Paverstone Drive, , North Carolina, 27615", "addr:street_address": "910 Paverstone Drive, ", "addr:city": "Raleigh", "addr:state": "North Carolina", "addr:postcode": "27615", "addr:country": "US", "phone": "800-927-0456", "website": "https://www.aus.com/raleigh-security-systems-services", "brand": "Allied Universal", "brand:wikidata": "Q4732537"}},
{"type": "Feature", "id": "5D0w6Q4A8FBvnNHIctR3-pHYkuU=", "properties": {"ref": "1365 Westgate Center Drive", "@spider": "allied_universal", "addr:full": "1365 Westgate Center Drive, Suite E, North Carolina, 27103", "addr:street_address": "1365 Westgate Center Drive, Suite E", "addr:city": "Winston-Salem", "addr:state": "North Carolina", "addr:postcode": "27103", "addr:country": "US", "phone": "336-768-2455", "website": "https://www.aus.com/winston-salem-security-systems-services", "brand": "Allied Universal", "brand:wikidata": "Q4732537"}},
{"type": "Feature", "id": "_Vnhd07Fga5z_gPjy7LHQCDph2Q=", "properties": {"ref": "831 10th Street East", "@spider": "allied_universal", "addr:full": "831 10th Street East, , North Dakota, 58601", "addr:street_address": "831 10th Street East, ", "addr:city": "East Dickinson", "addr:state": "North Dakota", "addr:postcode": "58601", "addr:country": "US", "website": "https://www.aus.com/east-dickinson-security-systems-services", "brand": "Allied Universal", "brand:wikidata": "Q4732537"}},
{"type": "Feature", "id": "_ApkRX7iV5RNBpkGbS0gvwZE9OA=", "properties": {"ref": "3332 4th Avenue", "@spider": "allied_universal", "addr:full": "3332 4th Avenue, Suite 2-D1, North Dakota, 58103", "addr:street_address": "3332 4th Avenue, Suite 2-D1", "addr:city": "South Fargo", "addr:state": "North Dakota", "addr:postcode": "58103", "addr:country": "US", "phone": "612-288-0585", "website": "https://www.aus.com/fargo-security-systems-services", "brand": "Allied Universal", "brand:wikidata": "Q4732537"}},
{"type": "Feature", "id": "tdorJvaqP_mAlgew0cDv3Nmh0Mg=", "properties": {"ref": "11414 West Center Road", "@spider": "allied_universal", "addr:full": "11414 West Center Road, Suite 100, Nebraska, 68144", "addr:street_address": "11414 West Center Road, Suite 100", "addr:city": "Omaha", "addr:state": "Nebraska", "addr:postcode": "68144", "addr:country": "US", "phone": "402-926-3700", "website": "https://www.aus.com/omaha-security-systems-services", "brand": "Allied Universal", "brand:wikidata": "Q4732537"}},
{"type": "Feature", "id": "Yqce8uTVhvgnSsnT3GEI67UlLVg=", "properties": {"ref": "1299 Farnam Street", "@spider": "allied_universal", "addr:full": "1299 Farnam Street, Suite 1300, Nebraska, 68102", "addr:street_address": "1299 Farnam Street, Suite 1300", "addr:city": "Omaha", "addr:state": "Nebraska", "addr:postcode": "68102", "addr:country": "US", "phone": "402-233-7700", "website": "https://www.aus.com/omaha-security-systems-services", "brand": "Allied Universal", "brand:wikidata": "Q4732537"}},
{"type": "Feature", "id": "0guAExN15xqTeesaSeddVy_xdxE=", "properties": {"ref": "395 Main Street", "@spider": "allied_universal", "addr:full": "395 Main Street, Suite 6A, New Hampshire, 03079", "addr:street_address": "395 Main Street, Suite 6A", "addr:city": "Salem", "addr:state": "New Hampshire", "addr:postcode": "03079", "addr:country": "US", "phone": "603-893-3840", "website": "https://www.aus.com/salem-security-systems-services", "brand": "Allied Universal", "brand:wikidata": "Q4732537"}},
{"type": "Feature", "id": "ehYcKokSIepBflDWJSBGJDdHILc=", "properties": {"ref": "1661 Route 22 West", "@spider": "allied_universal", "addr:full": "1661 Route 22 West, Suite 101, New Jersey, 08807", "addr:street_address": "1661 Route 22 West, Suite 101", "addr:city": "Bridgewater Township", "addr:state": "New Jersey", "addr:postcode": "08807", "addr:country": "US", "phone": "908-333-2831", "website": "https://www.aus.com/new-brunswick-security-services-systems", "brand": "Allied Universal", "brand:wikidata": "Q4732537"}},
{"type": "Feature", "id": "9H7OSaUP1cggE1MxBIhKxS_od34=", "properties": {"ref": "One Tower Center Boulevard", "@spider": "allied_universal", "addr:full": "One Tower Center Boulevard, 16th Floor, New Jersey, 08816", "addr:street_address": "One Tower Center Boulevard, 16th Floor", "addr:city": "East Brunswick", "addr:state": "New Jersey", "addr:postcode": "08816", "addr:country": "US", "phone": "732-274-1414", "website": "https://www.aus.com/new-brunswick-security-services-systems", "brand": "Allied Universal", "brand:wikidata": "Q4732537"}},
{"type": "Feature", "id": "oN4kVWCfc6q7BMWtjU7Oh4L2IPI=", "properties": {"ref": "95 Megill Road", "@spider": "allied_universal", "addr:full": "95 Megill Road, , New Jersey, 07727", "addr:street_address": "95 Megill Road, ", "addr:city": "Farmingdale", "addr:state": "New Jersey", "addr:postcode": "07727", "addr:country": "US", "phone": "732-919-7900", "website": "https://www.aus.com/new-brunswick-security-services-systems", "brand": "Allied Universal", "brand:wikidata": "Q4732537"}},
{"type": "Feature", "id": "8HAC5TwfXBQQHDe-4I9CySIdIzs=", "properties": {"ref": "1719 Brunswick Ave.", "@spider": "allied_universal", "addr:full": "1719 Brunswick Ave., Unit 1 & 2, New Jersey, 08648", "addr:street_address": "1719 Brunswick Ave., Unit 1 & 2", "addr:city": "Lawrenceville Township", "addr:state": "New Jersey", "addr:postcode": "08648", "addr:country": "US", "phone": "609-396-9500", "website": "https://www.aus.com/new-brunswick-security-services-systems", "brand": "Allied Universal", "brand:wikidata": "Q4732537"}},
{"type": "Feature", "id": "VYCHs1IinhcoZ2-V79Rqo_SwBJE=", "properties": {"ref": "3 Brewster Road Terminal B", "@spider": "allied_universal", "addr:full": "3 Brewster Road Terminal B, Suite B-3, New Jersey, 07114", "addr:street_address": "3 Brewster Road Terminal B, Suite B-3", "addr:city": "Newark", "addr:state": "New Jersey", "addr:postcode": "07114", "addr:country": "US", "phone": "973-430-9075", "website": "https://www.aus.com/newark-security-services-systems", "brand": "Allied Universal", "brand:wikidata": "Q4732537"}},
{"type": "Feature", "id": "86KwOq6CMKcykfMDW2lk60XIxu4=", "properties": {"ref": "50 Park Place", "@spider": "allied_universal", "addr:full": "50 Park Place, , New Jersey, 07102", "addr:street_address": "50 Park Place, ", "addr:city": "Newark", "addr:state": "New Jersey", "addr:postcode": "07102", "addr:country": "US", "website": "https://www.aus.com/newark-security-services-systems", "brand": "Allied Universal", "brand:wikidata": "Q4732537"}},
{"type": "Feature", "id": "RMp-sQnlQ7-f_6uoRmuOPknV6m8=", "properties": {"ref": "650 Blackhorse Pike", "@spider": "allied_universal", "addr:full": "650 Blackhorse Pike, , New Jersey, 08232", "addr:street_address": "650 Blackhorse Pike, ", "addr:city": "Pleasantville", "addr:state": "New Jersey", "addr:postcode": "08232", "addr:country": "US", "phone": "609-383-8855", "website": "https://www.aus.com/pleasantville-security-systems-services", "brand": "Allied Universal", "brand:wikidata": "Q4732537"}},
{"type": "Feature", "id": "Z5n0917TesRBEfLI4KlTawksjdk=", "properties": {"ref": "600 Meadowlands Parkway", "@spider": "allied_universal", "addr:full": "600 Meadowlands Parkway, , New Jersey, 07094", "addr:street_address": "600 Meadowlands Parkway, ", "addr:city": "Secaucus", "addr:state": "New Jersey", "addr:postcode": "07094", "addr:country": "US", "website": "https://www.aus.com/newark-security-services-systems", "brand": "Allied Universal", "brand:wikidata": "Q4732537"}},
{"type": "Feature", "id": "PFppqKUtkl6XX_1sE0S4i2nRNgY=", "properties": {"ref": "2444 Morris Avenue", "@spider": "allied_universal", "addr:full": "2444 Morris Avenue, 3rd Floor, New Jersey, 07083", "addr:street_address": "2444 Morris Avenue, 3rd Floor", "addr:city": "Union", "addr:state": "New Jersey", "addr:postcode": "07083", "addr:country": "US", "phone": "201-896-8688", "website": "https://www.aus.com/newark-security-services-systems", "brand": "Allied Universal", "brand:wikidata": "Q4732537"}},
{"type": "Feature", "id": "UVZymEh7-79Qo9L_V4oghiSl65s=", "properties": {"ref": "300 W Somerdale Road", "@spider": "allied_universal", "addr:full": "300 W Somerdale Road, , New Jersey, 08043", "addr:street_address": "300 W Somerdale Road, ", "addr:city": "Voorhees", "addr:state": "New Jersey", "addr:postcode": "08043", "addr:country": "US", "phone": "856-795-0258", "website": "https://www.aus.com/voorhees-security-services-systems", "brand": "Allied Universal", "brand:wikidata": "Q4732537"}},
{"type": "Feature", "id": "P6rb4JxbRnFLfKLYFISD9pGTMKY=", "properties": {"ref": "Modesto Arreola Oriente Locales 1042, 1044, 1044-A, 1050, 1050-A", "@spider": "allied_universal", "addr:full": "Modesto Arreola Oriente Locales 1042, 1044, 1044-A, 1050, 1050-A, , Nuevo Leon, 64000", "addr:street_address": "Modesto Arreola Oriente Locales 1042, 1044, 1044-A, 1050, 1050-A, ", "addr:city": "Monterrey", "addr:state": "Nuevo Leon", "addr:postcode": "64000", "addr:country": "MX", "phone": "52-81-1380-4031", "brand": "Allied Universal", "brand:wikidata": "Q4732537"}},
{"type": "Feature", "id": "w4iTXGT39ssA1Hzi7H0Gw3sqAuA=", "properties": {"ref": "3721 Rutledge", "@spider": "allied_universal", "addr:full": "3721 Rutledge, Suite B-2, New Mexico, 87109", "addr:street_address": "3721 Rutledge, Suite B-2", "addr:city": "Albuquerque", "addr:state": "New Mexico", "addr:postcode": "87109", "addr:country": "US", "phone": "505-830-2700", "website": "https://www.aus.com/albuquerque-security-systems-services", "brand": "Allied Universal", "brand:wikidata": "Q4732537"}},
{"type": "Feature", "id": "59Lv1M9ZQW1ubpBzSW2NCFJpDSc=", "properties": {"ref": "650 Montana Avenue", "@spider": "allied_universal", "addr:full": "650 Montana Avenue, Suite H, New Mexico, 88001", "addr:street_address": "650 Montana Avenue, Suite H", "addr:city": "Las Cruces", "addr:state": "New Mexico", "addr:postcode": "88001", "addr:country": "US", "phone": "915-771-8530", "brand": "Allied Universal", "brand:wikidata": "Q4732537"}},
{"type": "Feature", "id": "8wpqHKHieX_RcSDvpcbH_vjEa7I=", "properties": {"ref": "3731 MacKintosh Street", "@spider": "allied_universal", "addr:full": "3731 MacKintosh Street, Unit 1, Nova Scotia, B3K 5A5", "addr:street_address": "3731 MacKintosh Street, Unit 1", "addr:city": "Halifax", "addr:state": "Nova Scotia", "addr:postcode": "B3K 5A5", "addr:country": "CA", "phone": "888-717-4447", "website": "https://ausecurity.ca/halifax-security-systems-services", "brand": "Allied Universal", "brand:wikidata": "Q4732537"}},
{"type": "Feature", "id": "Zw8Koi8vWu2G0EsI5er3LHfL3JI=", "properties": {"ref": "4000 S. Eastern Avenue", "@spider": "allied_universal", "addr:full": "4000 S. Eastern Avenue, Ste. 210, Nevada, 89119", "addr:street_address": "4000 S. Eastern Avenue, Ste. 210", "addr:city": "Las Vegas", "addr:state": "Nevada", "addr:postcode": "89119", "addr:country": "US", "phone": "702-736-2240", "website": "https://www.aus.com/las-vegas-security-services-systems", "brand": "Allied Universal", "brand:wikidata": "Q4732537"}},
{"type": "Feature", "id": "lHzsorwUgCCTjuUxGtBUzd08s70=", "properties": {"ref": "1201 Terminal Way", "@spider": "allied_universal", "addr:full": "1201 Terminal Way, #115, Nevada, 89502", "addr:street_address": "1201 Terminal Way, #115", "addr:city": "Reno", "addr:state": "Nevada", "addr:postcode": "89502", "addr:country": "US", "phone": "775-323-1722", "website": "https://www.aus.com/reno-security-systems-services", "brand": "Allied Universal", "brand:wikidata": "Q4732537"}},
{"type": "Feature", "id": "iYJ3gx_zKDM6VSLO9et7fFgnsdY=", "properties": {"ref": "4259 Albany Street", "@spider": "allied_universal", "addr:full": "4259 Albany Street, Suite 3, New York, 12205", "addr:street_address": "4259 Albany Street, Suite 3", "addr:city": "Albany", "addr:state": "New York", "addr:postcode": "12205", "addr:country": "US", "phone": "518-869-5053", "website": "https://www.aus.com/albany-security-systems-services", "brand": "Allied Universal", "brand:wikidata": "Q4732537"}},
{"type": "Feature", "id": "AchUPp6Dw7uqaF6akDciLkY9xp0=", "properties": {"ref": "4 Pine West Plaza", "@spider": "allied_universal", "addr:full": "4 Pine West Plaza, , New York, 12205", "addr:street_address": "4 Pine West Plaza, ", "addr:city": "Albany", "addr:state": "New York", "addr:postcode": "12205", "addr:country": "US", "website": "https://www.aus.com/albany-security-systems-services", "brand": "Allied Universal", "brand:wikidata": "Q4732537"}},
{"type": "Feature", "id": "_L04G7yAGl9e31dqJcBE7rMIYz4=", "properties": {"ref": "1 Pine West Plaza", "@spider": "allied_universal", "addr:full": "1 Pine West Plaza, Suite 112, New York, 12205", "addr:street_address": "1 Pine West Plaza, Suite 112", "addr:city": "Albany", "addr:state": "New York", "addr:postcode": "12205", "addr:country": "US", "phone": "518-724-0526", "website": "https://www.aus.com/albany-security-systems-services", "brand": "Allied Universal", "brand:wikidata": "Q4732537"}},
{"type": "Feature", "id": "qK5kp6TL-tQMyLfUuLai2VWxCvs=", "properties": {"ref": "368 Avenue U", "@spider": "allied_universal", "addr:full": "368 Avenue U, , New York, 11223", "addr:street_address": "368 Avenue U, ", "addr:city": "Brooklyn", "addr:state": "New York", "addr:postcode": "11223", "addr:country": "US", "website": "https://www.aus.com/new-york-city-security-systems-services", "brand": "Allied Universal", "brand:wikidata": "Q4732537"}},
{"type": "Feature", "id": "x2ukghqjceYRLBWFQO_70U5a2RM=", "properties": {"ref": "106-03 Liberty Ave", "@spider": "allied_universal", "addr:full": "106-03 Liberty Ave, , New York, 11417", "addr:street_address": "106-03 Liberty Ave, ", "addr:city": "Ozone Park", "addr:state": "New York", "addr:postcode": "11417", "addr:country": "US", "phone": "718-787-0070", "website": "https://www.aus.com/new-york-city-security-systems-services", "brand": "Allied Universal", "brand:wikidata": "Q4732537"}},
{"type": "Feature", "id": "2rDh0R-KE4piSYSA8xAuOmZNBGM=", "properties": {"ref": "625 Delaware Avenue", "@spider": "allied_universal", "addr:full": "625 Delaware Avenue, , New York, 14202", "addr:street_address": "625 Delaware Avenue, ", "addr:city": "Buffalo", "addr:state": "New York", "addr:postcode": "14202", "addr:country": "US", "phone": "716-855-1766", "website": "https://www.aus.com/buffalo-building-security-systems-services", "brand": "Allied Universal", "brand:wikidata": "Q4732537"}},
{"type": "Feature", "id": "GGEl_tbLt94nWNviVALOacodNoo=", "properties": {"ref": "235 Middle Road", "@spider": "allied_universal", "addr:full": "235 Middle Road, , New York, 14467", "addr:street_address": "235 Middle Road, ", "addr:city": "Henrietta", "addr:state": "New York", "addr:postcode": "14467", "addr:country": "US", "phone": "585-486-4616", "website": "https://www.aus.com/rochester-security-systems-services", "brand": "Allied Universal", "brand:wikidata": "Q4732537"}},
{"type": "Feature", "id": "C11K8Bk6d_LURDhgDg35jSW9Yck=", "properties": {"ref": "75 North Hangar Rd.", "@spider": "allied_universal", "addr:full": "75 North Hangar Rd., Suite 231, New York, 11430", "addr:street_address": "75 North Hangar Rd., Suite 231", "addr:city": "Jamaica", "addr:state": "New York", "addr:postcode": "11430", "addr:country": "US", "phone": "646-445-7830", "website": "https://www.aus.com/new-york-city-security-systems-services", "brand": "Allied Universal", "brand:wikidata": "Q4732537"}},
{"type": "Feature", "id": "sBAFZ0Q11VUEG93rMowHGyOncCw=", "properties": {"ref": "33-10 Queens Blvd", "@spider": "allied_universal", "addr:full": "33-10 Queens Blvd, Suite 300, New York, 11101", "addr:street_address": "33-10 Queens Blvd, Suite 300", "addr:city": "Long Island City", "addr:state": "New York", "addr:postcode": "11101", "addr:country": "US", "phone": "347-418-3800", "website": "https://www.aus.com/new-york-city-security-systems-services", "brand": "Allied Universal", "brand:wikidata": "Q4732537"}},
{"type": "Feature", "id": "kVWn4ScObRZDe1YuFgy0xrfX3pg=", "properties": {"ref": "229 West 36th Street", "@spider": "allied_universal", "addr:full": "229 West 36th Street, 11th Floor, New York, 10018", "addr:street_address": "229 West 36th Street, 11th Floor", "addr:city": "New York", "addr:state": "New York", "addr:postcode": "10018", "addr:country": "US", "phone": "212-481-5777", "website": "https://www.aus.com/new-york-city-security-systems-services", "brand": "Allied Universal", "brand:wikidata": "Q4732537"}},
{"type": "Feature", "id": "eMN4mrdkxn5KK-U7QmK8EpbPhIk=", "properties": {"ref": "9 Murray Street, 3rd Floor", "@spider": "allied_universal", "addr:full": "9 Murray Street, 3rd Floor, , New York, 10007", "addr:street_address": "9 Murray Street, 3rd Floor, ", "addr:city": "New York", "addr:state": "New York", "addr:postcode": "10007", "addr:country": "US", "phone": "212-509-1336", "website": "https://www.aus.com/new-york-city-security-systems-services", "brand": "Allied Universal", "brand:wikidata": "Q4732537"}},
{"type": "Feature", "id": "M5zJPcyAm2-jaSLMAfv6xnx-RpU=", "properties": {"ref": "123 William St.", "@spider": "allied_universal", "addr:full": "123 William St., 7th Floor, New York, 10038", "addr:street_address": "123 William St., 7th Floor", "addr:city": "New York", "addr:state": "New York", "addr:postcode": "10038", "addr:country": "US", "phone": "646-445-7890", "website": "https://www.aus.com/new-york-city-security-systems-services", "brand": "Allied Universal", "brand:wikidata": "Q4732537"}},
{"type": "Feature", "id": "VbLYrvWDXefektngt9Q2m-7ICmk=", "properties": {"ref": "37 Ramland Road", "@spider": "allied_universal", "addr:full": "37 Ramland Road, , New York, 10962", "addr:street_address": "37 Ramland Road, ", "addr:city": "Orangeburg", "addr:state": "New York", "addr:postcode": "10962", "addr:country": "US", "phone": "212-509-1336", "website": "https://www.aus.com/new-york-city-security-systems-services", "brand": "Allied Universal", "brand:wikidata": "Q4732537"}},
{"type": "Feature", "id": "qqXUfsPFa0m38zF5x-WkVCtIWMw=", "properties": {"ref": "180 South Clinton Ave.", "@spider": "allied_universal", "addr:full": "180 South Clinton Ave., , New York, 14604", "addr:street_address": "180 South Clinton Ave., ", "addr:city": "Rochester", "addr:state": "New York", "addr:postcode": "14604", "addr:country": "US", "phone": "585-272-8730", "website": "https://www.aus.com/rochester-security-systems-services", "brand": "Allied Universal", "brand:wikidata": "Q4732537"}},
{"type": "Feature", "id": "V8tSke37ImPgA6M2wGLnZiKMAfM=", "properties": {"ref": "50 Jackson Avenue", "@spider": "allied_universal", "addr:full": "50 Jackson Avenue, 2nd Floor, New York, 11791", "addr:street_address": "50 Jackson Avenue, 2nd Floor", "addr:city": "Syosset", "addr:state": "New York", "addr:postcode": "11791", "addr:country": "US", "phone": "516-682-4890", "website": "https://www.aus.com/syosset-security-services-systems", "brand": "Allied Universal", "brand:wikidata": "Q4732537"}},
{"type": "Feature", "id": "WlntgWxFkcFv3y0dWQbpeMEcYo0=", "properties": {"ref": "4713 Crossroads Park Drive", "@spider": "allied_universal", "addr:full": "4713 Crossroads Park Drive, Suite 301, New York, 13088", "addr:street_address": "4713 Crossroads Park Drive, Suite 301", "addr:city": "Liverpool", "addr:state": "New York", "addr:postcode": "13088", "addr:country": "US", "phone": "315-453-7933", "website": "https://www.aus.com/syracuse-security-services-systems", "brand": "Allied Universal", "brand:wikidata": "Q4732537"}},
{"type": "Feature", "id": "SOunXroymLnJ1gmrmRSYMnakmPU=", "properties": {"ref": "12 Water Street", "@spider": "allied_universal", "addr:full": "12 Water Street, Suite 301, New York, 10601", "addr:street_address": "12 Water Street, Suite 301", "addr:city": "White Plains", "addr:state": "New York", "addr:postcode": "10601", "addr:country": "US", "phone": "914-593-0366", "website": "https://www.aus.com/white-plains-security-systems-services", "brand": "Allied Universal", "brand:wikidata": "Q4732537"}},
{"type": "Feature", "id": "GCypkWSqkmrHaHsRrnUdNb08iv4=", "properties": {"ref": "5924 Mayfair Rd", "@spider": "allied_universal", "addr:full": "5924 Mayfair Rd, , Ohio, 44720", "addr:street_address": "5924 Mayfair Rd, ", "addr:city": "North Canton", "addr:state": "Ohio", "addr:postcode": "44720", "addr:country": "US", "phone": "330-899-3045", "website": "https://www.aus.com/akron-canton-security-system-services", "brand": "Allied Universal", "brand:wikidata": "Q4732537"}},
{"type": "Feature", "id": "ywj2Wi7vETPbJ3DtBJEd99MnyUI=", "properties": {"ref": "110 Boggs Lane", "@spider": "allied_universal", "addr:full": "110 Boggs Lane, Suite 140, Ohio, 45246", "addr:street_address": "110 Boggs Lane, Suite 140", "addr:city": "Cincinnati", "addr:state": "Ohio", "addr:postcode": "45246", "addr:country": "US", "phone": "513-771-3776", "website": "https://www.aus.com/cincinnati-commercial-security-systems-services", "brand": "Allied Universal", "brand:wikidata": "Q4732537"}},
{"type": "Feature", "id": "IEfC-OoYU8VlB5dKsooyiRM0Rys=", "properties": {"ref": "1440 Rockside Road", "@spider": "allied_universal", "addr:full": "1440 Rockside Road, Suite 109, Ohio, 44134", "addr:street_address": "1440 Rockside Road, Suite 109", "addr:city": "Cleveland", "addr:state": "Ohio", "addr:postcode": "44134", "addr:country": "US", "phone": "216-351-0100", "website": "https://www.aus.com/cleveland-security-systems-services", "brand": "Allied Universal", "brand:wikidata": "Q4732537"}},
{"type": "Feature", "id": "6OjUxfxmE87tOrBCjs6En56DxpE=", "properties": {"ref": "2740 Airport Drive", "@spider": "allied_universal", "addr:full": "2740 Airport Drive, Suite 210, Ohio, 43219", "addr:street_address": "2740 Airport Drive, Suite 210", "addr:city": "Columbus", "addr:state": "Ohio", "addr:postcode": "43219", "addr:country": "US", "phone": "614-438-4183", "website": "https://www.aus.com/columbus-security-systems-services", "brand": "Allied Universal", "brand:wikidata": "Q4732537"}},
{"type": "Feature", "id": "ysEQdFdD2BkNWezq9dd2QbcJ-tE=", "properties": {"ref": "1129 Miamisburg-Centerville Road", "@spider": "allied_universal", "addr:full": "1129 Miamisburg-Centerville Road, Suite 300, Ohio, 45449", "addr:street_address": "1129 Miamisburg-Centerville Road, Suite 300", "addr:city": "Dayton", "addr:state": "Ohio", "addr:postcode": "45449", "addr:country": "US", "phone": "937-454-9035", "website": "https://www.aus.com/dayton-area-security-systems-services", "brand": "Allied Universal", "brand:wikidata": "Q4732537"}},
{"type": "Feature", "id": "imrB0vSvy5PWdw5gOhkSU7em7uM=", "properties": {"ref": "630 Morrison Road", "@spider": "allied_universal", "addr:full": "630 Morrison Road, , Ohio, 43230", "addr:street_address": "630 Morrison Road, ", "addr:city": "Gahanna", "addr:state": "Ohio", "addr:postcode": "43230", "addr:country": "US", "website": "https://www.aus.com/columbus-security-systems-services", "brand": "Allied Universal", "brand:wikidata": "Q4732537"}},
{"type": "Feature", "id": "SndPKO2yvC1VarvTeE7aMQ6WbqE=", "properties": {"ref": "6200 Oak Tree Boulevard", "@spider": "allied_universal", "addr:full": "6200 Oak Tree Boulevard, Suite 100, Ohio, 44131", "addr:street_address": "6200 Oak Tree Boulevard, Suite 100", "addr:city": "Independence", "addr:state": "Ohio", "addr:postcode": "44131", "addr:country": "US", "website": "https://www.aus.com/cleveland-security-systems-services", "brand": "Allied Universal", "brand:wikidata": "Q4732537"}},
{"type": "Feature", "id": "7krbCz6t72AlAdRETJsL1xOlEEY=", "properties": {"ref": "3521 Briarfield Blvd.", "@spider": "allied_universal", "addr:full": "3521 Briarfield Blvd., , Ohio, 43537", "addr:street_address": "3521 Briarfield Blvd., ", "addr:city": "Maumee", "addr:state": "Ohio", "addr:postcode": "43537", "addr:country": "US", "phone": "419-874-9005", "website": "https://www.aus.com/toledo-area-security-systems-services", "brand": "Allied Universal", "brand:wikidata": "Q4732537"}},
{"type": "Feature", "id": "U1WoqVZFoRW38MOttlzWJOU6Qes=", "properties": {"ref": "4300 Charter Ave", "@spider": "allied_universal", "addr:full": "4300 Charter Ave, , Oklahoma, 73108", "addr:street_address": "4300 Charter Ave, ", "addr:city": "Oklahoma City", "addr:state": "Oklahoma", "addr:postcode": "73108", "addr:country": "US", "phone": "405-789-7400", "website": "https://www.aus.com/oklahoma-city-security-systems-services", "brand": "Allied Universal", "brand:wikidata": "Q4732537"}},
{"type": "Feature", "id": "XhGTqfTZNumLLPHPKxUIi3KmDBI=", "properties": {"ref": "5600 N May Ave", "@spider": "allied_universal", "addr:full": "5600 N May Ave, Suite 250, Oklahoma, 73112", "addr:street_address": "5600 N May Ave, Suite 250", "addr:city": "Oklahoma City", "addr:state": "Oklahoma", "addr:postcode": "73112", "addr:country": "US", "phone": "405-463-1701", "website": "https://www.aus.com/oklahoma-city-security-systems-services", "brand": "Allied Universal", "brand:wikidata": "Q4732537"}},
{"type": "Feature", "id": "JqTerhn8k_cGYOLTgwVNwzlZo2E=", "properties": {"ref": "2424 East 21st Street", "@spider": "allied_universal", "addr:full": "2424 East 21st Street, , Oklahoma, 74114", "addr:street_address": "2424 East 21st Street, ", "addr:city": "Tulsa", "addr:state": "Oklahoma", "addr:postcode": "74114", "addr:country": "US", "phone": "918-660-7002", "website": "https://www.aus.com/tulsa-security-systems-services", "brand": "Allied Universal", "brand:wikidata": "Q4732537"}},
{"type": "Feature", "id": "sDldUdRqH5-y2KGsEIegnK604NU=", "properties": {"ref": "5800 E. Skelly Drive", "@spider": "allied_universal", "addr:full": "5800 E. Skelly Drive, Suite 174, Oklahoma, 74135", "addr:street_address": "5800 E. Skelly Drive, Suite 174", "addr:city": "Tulsa", "addr:state": "Oklahoma", "addr:postcode": "74135", "addr:country": "US", "phone": "918-660-7002", "website": "https://www.aus.com/tulsa-security-systems-services", "brand": "Allied Universal", "brand:wikidata": "Q4732537"}},
{"type": "Feature", "id": "JnhpUZ_g1AV9_M0UffCqBY3lhCA=", "properties": {"ref": "6375 Dixie Rd", "@spider": "allied_universal", "addr:full": "6375 Dixie Rd, Unit 1 and 2, ON, L5T 2C7", "addr:street_address": "6375 Dixie Rd, Unit 1 and 2", "addr:city": "Mississauga", "addr:state": "ON", "addr:postcode": "L5T 2C7", "addr:country": "CA", "phone": "888-717-4447", "brand": "Allied Universal", "brand:wikidata": "Q4732537"}},
{"type": "Feature", "id": "FMqCEYW6ZgnCe7D7cQ47Z4iMU3U=", "properties": {"ref": "56 Aberfoyle Crescent", "@spider": "allied_universal", "addr:full": "56 Aberfoyle Crescent, Suite 610, ON, M8X 2W4", "addr:street_address": "56 Aberfoyle Crescent, Suite 610", "addr:city": "Toronto", "addr:state": "ON", "addr:postcode": "M8X 2W4", "addr:country": "CA", "phone": "888-717-4447", "website": "https://ausecurity.ca/toronto-security-systems-services", "brand": "Allied Universal", "brand:wikidata": "Q4732537"}},
{"type": "Feature", "id": "s6SA-yE-mK26WTekSzP4DWP0NqU=", "properties": {"ref": "703 Evans Avenue", "@spider": "allied_universal", "addr:full": "703 Evans Avenue, Suite 103, ON, M9C 5E9", "addr:street_address": "703 Evans Avenue, Suite 103", "addr:city": "Toronto", "addr:state": "ON", "addr:postcode": "M9C 5E9", "addr:country": "CA", "phone": "888-717-4447", "website": "https://ausecurity.ca/toronto-security-systems-services", "brand": "Allied Universal", "brand:wikidata": "Q4732537"}},
{"type": "Feature", "id": "EY2VFBrXRS1hMfGIzwiQV-cDgS0=", "properties": {"ref": "150 Ferrand Drive", "@spider": "allied_universal", "addr:full": "150 Ferrand Drive, Suite 1000, ON, M3C 3E5", "addr:street_address": "150 Ferrand Drive, Suite 1000", "addr:city": "Toronto", "addr:state": "ON", "addr:postcode": "M3C 3E5", "addr:country": "CA", "phone": "888-717-4447", "brand": "Allied Universal", "brand:wikidata": "Q4732537"}},
{"type": "Feature", "id": "SY9XZWUitV6H1b6tqxRv7O_mzWQ=", "properties": {"ref": "610 McMurray Road", "@spider": "allied_universal", "addr:full": "610 McMurray Road, Unit 5, ON, N2V 2E7", "addr:street_address": "610 McMurray Road, Unit 5", "addr:city": "Waterloo", "addr:state": "ON", "addr:postcode": "N2V 2E7", "addr:country": "CA", "phone": "888-717-4447", "website": "https://ausecurity.ca/waterloo-security-system-services", "brand": "Allied Universal", "brand:wikidata": "Q4732537"}},
{"type": "Feature", "id": "f0JEVYP1rpgfwwtM5poqq3RQMNs=", "properties": {"ref": "92 Caplan Avenue", "@spider": "allied_universal", "addr:full": "92 Caplan Avenue, Suite 402, Ontario, L4N 9J2", "addr:street_address": "92 Caplan Avenue, Suite 402", "addr:city": "Barrie", "addr:state": "Ontario", "addr:postcode": "L4N 9J2", "addr:country": "CA", "phone": "888-717-4447", "website": "https://ausecurity.ca/barrie-security-system-services", "brand": "Allied Universal", "brand:wikidata": "Q4732537"}},
{"type": "Feature", "id": "m4AXvzoxTp08UWRZlWU1Y36Baik=", "properties": {"ref": "20 Hughson Street", "@spider": "allied_universal", "addr:full": "20 Hughson Street, Suite 901, Ontario, L8N 2A1", "addr:street_address": "20 Hughson Street, Suite 901", "addr:city": "Hamilton", "addr:state": "Ontario", "addr:postcode": "L8N 2A1", "addr:country": "CA", "phone": "888-717-4447", "website": "https://ausecurity.ca/toronto-security-systems-services", "brand": "Allied Universal", "brand:wikidata": "Q4732537"}},
{"type": "Feature", "id": "UQHF8Lwa1XkcUsO0m70M-9npdK0=", "properties": {"ref": "623 Fortune Cresent", "@spider": "allied_universal", "addr:full": "623 Fortune Cresent, Suite 100, Ontario, K7P0L5", "addr:street_address": "623 Fortune Cresent, Suite 100", "addr:city": "Kingston", "addr:state": "Ontario", "addr:postcode": "K7P0L5", "addr:country": "CA", "phone": "888-717-4447", "website": "https://ausecurity.ca/kingston-security-system-services", "brand": "Allied Universal", "brand:wikidata": "Q4732537"}},
{"type": "Feature", "id": "Bf19-USZXlTxkNUVboVtX90bTSw=", "properties": {"ref": "700 Richmond Street, Unit # 201", "@spider": "allied_universal", "addr:full": "700 Richmond Street, Unit # 201, , Ontario, N6A 5C7", "addr:street_address": "700 Richmond Street, Unit # 201, ", "addr:city": "London", "addr:state": "Ontario", "addr:postcode": "N6A 5C7", "addr:country": "CA", "phone": "888-717-4447", "website": "https://ausecurity.ca/london-security-system-services", "brand": "Allied Universal", "brand:wikidata": "Q4732537"}},
{"type": "Feature", "id": "jmMrX4R9qtsEFhf7doz-riUG7zg=", "properties": {"ref": "214 King St. East", "@spider": "allied_universal", "addr:full": "214 King St. East, 2nd Floor, Ontario, L1H 1C7", "addr:street_address": "214 King St. East, 2nd Floor", "addr:city": "Oshawa", "addr:state": "Ontario", "addr:postcode": "L1H 1C7", "addr:country": "CA", "phone": "888-717-4447", "website": "https://ausecurity.ca/oshawa-security-system-services", "brand": "Allied Universal", "brand:wikidata": "Q4732537"}},
{"type": "Feature", "id": "C3aFibFV3ppQvNcG5RhnONxdl54=", "properties": {"ref": "720 Belfast Road", "@spider": "allied_universal", "addr:full": "720 Belfast Road, Suite 201, Ontario, K1G 0Z5", "addr:street_address": "720 Belfast Road, Suite 201", "addr:city": "Ottawa", "addr:state": "Ontario", "addr:postcode": "K1G 0Z5", "addr:country": "CA", "phone": "888-717-4447", "website": "https://ausecurity.ca/ottawa-security-system-services", "brand": "Allied Universal", "brand:wikidata": "Q4732537"}},
{"type": "Feature", "id": "6ZVYpdmbxJDSc-oCq8dxRcQ8aVE=", "properties": {"ref": "111 Elgin Street", "@spider": "allied_universal", "addr:full": "111 Elgin Street, Suite 205, Ontario, P6A 6L6", "addr:street_address": "111 Elgin Street, Suite 205", "addr:city": "Sault Ste. Marie", "addr:state": "Ontario", "addr:postcode": "P6A 6L6", "addr:country": "CA", "phone": "888-717-4447", "website": "https://ausecurity.ca/sault-ste-marie-security-system-services", "brand": "Allied Universal", "brand:wikidata": "Q4732537"}},
{"type": "Feature", "id": "H2B6jldgifd2WrqfkLMUIrHzJrc=", "properties": {"ref": "1040 Lorne Street", "@spider": "allied_universal", "addr:full": "1040 Lorne Street, Units 3 and 4, Ontario, P3A 4R9", "addr:street_address": "1040 Lorne Street, Units 3 and 4", "addr:city": "Sudbury", "addr:state": "Ontario", "addr:postcode": "P3A 4R9", "addr:country": "CA", "phone": "888-717-4447", "website": "https://ausecurity.ca/sudbury-security-system-services", "brand": "Allied Universal", "brand:wikidata": "Q4732537"}},
{"type": "Feature", "id": "uRG_LWQ_-3i_cQng-PAEwxlFoI4=", "properties": {"ref": "5 - 4A South Court Street", "@spider": "allied_universal", "addr:full": "5 - 4A South Court Street, , Ontario, P7B 2W4", "addr:street_address": "5 - 4A South Court Street, ", "addr:city": "Thunder Bay", "addr:state": "Ontario", "addr:postcode": "P7B 2W4", "addr:country": "CA", "phone": "888-717-4447", "website": "https://ausecurity.ca/thunder-bay-security-system-services", "brand": "Allied Universal", "brand:wikidata": "Q4732537"}},
{"type": "Feature", "id": "C4IkfKURpj4YqnKHXsz7O60mD8Q=", "properties": {"ref": "70 Mountjoy Street North", "@spider": "allied_universal", "addr:full": "70 Mountjoy Street North, Unit B, Ontario, P4N 4V7", "addr:street_address": "70 Mountjoy Street North, Unit B", "addr:city": "Timmins", "addr:state": "Ontario", "addr:postcode": "P4N 4V7", "addr:country": "CA", "phone": "888-717-4447", "website": "https://ausecurity.ca/timmins-security-system-services", "brand": "Allied Universal", "brand:wikidata": "Q4732537"}},
{"type": "Feature", "id": "tf-E-tzumdPAMrYflOYPYVNkPGE=", "properties": {"ref": "5535 Eglinton Avenue West", "@spider": "allied_universal", "addr:full": "5535 Eglinton Avenue West, , Ontario, M9C 5K5", "addr:street_address": "5535 Eglinton Avenue West, ", "addr:city": "Etobicoke", "addr:state": "Ontario", "addr:postcode": "M9C 5K5", "addr:country": "CA", "phone": "888-717-4447", "website": "https://ausecurity.ca/toronto-security-systems-services", "brand": "Allied Universal", "brand:wikidata": "Q4732537"}},
{"type": "Feature", "id": "lD9W3bA9SULkn7Wl6peCzFxYuGo=", "properties": {"ref": "3372 Mannheim Way", "@spider": "allied_universal", "addr:full": "3372 Mannheim Way, Unit A, Ontario, N8W 5J9", "addr:street_address": "3372 Mannheim Way, Unit A", "addr:city": "Windsor", "addr:state": "Ontario", "addr:postcode": "N8W 5J9", "addr:country": "CA", "phone": "888-717-4447", "website": "https://ausecurity.ca/windsor-security-system-services", "brand": "Allied Universal", "brand:wikidata": "Q4732537"}},
{"type": "Feature", "id": "XFtmMpwxLjyyLvd5wBnARRKk25k=", "properties": {"ref": "5100 SW Macadam Avenue", "@spider": "allied_universal", "addr:full": "5100 SW Macadam Avenue, , Oregon, 97239", "addr:street_address": "5100 SW Macadam Avenue, ", "addr:city": "Portland", "addr:state": "Oregon", "addr:postcode": "97239", "addr:country": "US", "phone": "503-229-7108", "website": "https://www.aus.com/portland-or-security-systems-services", "brand": "Allied Universal", "brand:wikidata": "Q4732537"}},
{"type": "Feature", "id": "JsCrEDwvHPmutS8Prw7-ZNIBmp0=", "properties": {"ref": "755 SW 7th Street", "@spider": "allied_universal", "addr:full": "755 SW 7th Street, , Oregon, 97564", "addr:street_address": "755 SW 7th Street, ", "addr:city": "Redmond", "addr:state": "Oregon", "addr:postcode": "97564", "addr:country": "US", "phone": "503-452-1050", "website": "https://www.aus.com/redmond-security-system-services", "brand": "Allied Universal", "brand:wikidata": "Q4732537"}},
{"type": "Feature", "id": "73jpYxFoG8wM-pGo0OoUUP8guWA=", "properties": {"ref": "Eight Tower Bridge", "@spider": "allied_universal", "addr:full": "Eight Tower Bridge, Suite 600, Pennsylvania, 19428", "addr:street_address": "Eight Tower Bridge, Suite 600", "addr:city": "Conshohocken", "addr:state": "Pennsylvania", "addr:postcode": "19428", "addr:country": "US", "phone": "484-351-1300", "website": "https://www.aus.com/philadelphia-security-systems-services", "brand": "Allied Universal", "brand:wikidata": "Q4732537"}},
{"type": "Feature", "id": "jAGqcrFchtGHuT7TatNbeONmbeE=", "properties": {"ref": "11 W 33rd Street", "@spider": "allied_universal", "addr:full": "11 W 33rd Street, , Pennsylvania, 16508", "addr:street_address": "11 W 33rd Street, ", "addr:city": "Erie", "addr:state": "Pennsylvania", "addr:postcode": "16508", "addr:country": "US", "phone": "814-459-0390", "website": "https://www.aus.com/erie-security-systems-services", "brand": "Allied Universal", "brand:wikidata": "Q4732537"}},
{"type": "Feature", "id": "R1AVbMYW_Ymb9TTytW6RdzeK_SE=", "properties": {"ref": "75 South Houcks Road", "@spider": "allied_universal", "addr:full": "75 South Houcks Road, Suite 300, Pennsylvania, 17109", "addr:street_address": "75 South Houcks Road, Suite 300", "addr:city": "Harrisburg", "addr:state": "Pennsylvania", "addr:postcode": "17109", "addr:country": "US", "phone": "610-625-1564", "website": "https://www.aus.com/harrisburg-security-systems-services", "brand": "Allied Universal", "brand:wikidata": "Q4732537"}},
{"type": "Feature", "id": "_wJFanUpVZyZwKHGomOqBrZxrls=", "properties": {"ref": "150 S. Warner Road", "@spider": "allied_universal", "addr:full": "150 S. Warner Road, Suite 170, Pennsylvania, 19406", "addr:street_address": "150 S. Warner Road, Suite 170", "addr:city": "King of Prussia", "addr:state": "Pennsylvania", "addr:postcode": "19406", "addr:country": "US", "phone": "484-654-3800", "website": "https://www.aus.com/philadelphia-security-systems-services", "brand": "Allied Universal", "brand:wikidata": "Q4732537"}},
{"type": "Feature", "id": "bVYIqy7jSEtM1x0HdnSxKkSAPyk=", "properties": {"ref": "2440 Emrick Boulevard", "@spider": "allied_universal", "addr:full": "2440 Emrick Boulevard, , Pennsylvania, 18020", "addr:street_address": "2440 Emrick Boulevard, ", "addr:city": "Bethlehem", "addr:state": "Pennsylvania", "addr:postcode": "18020", "addr:country": "US", "phone": "610-954-8590", "website": "https://www.aus.com/allentown-security-systems-services", "brand": "Allied Universal", "brand:wikidata": "Q4732537"}},
{"type": "Feature", "id": "41RFyv_pFAsHQfZzuIbcWQC6X9o=", "properties": {"ref": "1760 Market Street", "@spider": "allied_universal", "addr:full": "1760 Market Street, 14th Floor, Pennsylvania, 19103", "addr:street_address": "1760 Market Street, 14th Floor", "addr:city": "Philadelphia", "addr:state": "Pennsylvania", "addr:postcode": "19103", "addr:country": "US", "phone": "215-399-3960", "website": "https://www.aus.com/philadelphia-security-systems-services", "brand": "Allied Universal", "brand:wikidata": "Q4732537"}},
{"type": "Feature", "id": "emI8ye-7AmYfvW_rsucLMYd0n5g=", "properties": {"ref": "1617 JFK Blvd", "@spider": "allied_universal", "addr:full": "1617 JFK Blvd, Suite 710, Pennsylvania, 19103", "addr:street_address": "1617 JFK Blvd, Suite 710", "addr:city": "Philadelphia", "addr:state": "Pennsylvania", "addr:postcode": "19103", "addr:country": "US", "website": "https://www.aus.com/philadelphia-security-systems-services", "brand": "Allied Universal", "brand:wikidata": "Q4732537"}},
{"type": "Feature", "id": "s0pNsQsXV8YT1GFFNec5YKvvN2Q=", "properties": {"ref": "200 Fleet Street", "@spider": "allied_universal", "addr:full": "200 Fleet Street, Suite 200, Pennsylvania, 15220", "addr:street_address": "200 Fleet Street, Suite 200", "addr:city": "Pittsburgh", "addr:state": "Pennsylvania", "addr:postcode": "15220", "addr:country": "US", "phone": "412-937-9700", "website": "https://www.aus.com/pittsburgh-building-security-systems-services", "brand": "Allied Universal", "brand:wikidata": "Q4732537"}},
{"type": "Feature", "id": "PaVt71I6YsiuiIn6--BjC5Y1W_c=", "properties": {"ref": "780 Pine Valley Drive", "@spider": "allied_universal", "addr:full": "780 Pine Valley Drive, Suite L, Pennsylvania, 15239", "addr:street_address": "780 Pine Valley Drive, Suite L", "addr:city": "Pittsburgh", "addr:state": "Pennsylvania", "addr:postcode": "15239", "addr:country": "US", "phone": "724-216-6392", "website": "https://www.aus.com/pittsburgh-building-security-systems-services", "brand": "Allied Universal", "brand:wikidata": "Q4732537"}},
{"type": "Feature", "id": "QIxEq8pVWsXpGWOhrbJ9po1m-yI=", "properties": {"ref": "Buchanan Office Center", "@spider": "allied_universal", "addr:full": "Buchanan Office Center, Road 165 #40, Suite 101, PR, 00968", "addr:street_address": "Buchanan Office Center, Road 165 #40, Suite 101", "addr:city": "Guaynabo", "addr:state": "PR", "addr:postcode": "00968", "addr:country": "PR", "phone": "787-749-0097", "website": "https://www.aus.com/puerto-rico-security-systems-services", "brand": "Allied Universal", "brand:wikidata": "Q4732537"}},
{"type": "Feature", "id": "YiTMeNAOoTcAiqZ_jBiYm2R4P3A=", "properties": {"ref": "Los Jardines Shopping Center", "@spider": "allied_universal", "addr:full": "Los Jardines Shopping Center, Suite 5, PR, 00969", "addr:street_address": "Los Jardines Shopping Center, Suite 5", "addr:city": "Guaynabo", "addr:state": "PR", "addr:postcode": "00969", "addr:country": "PR", "phone": "787-625-3381", "website": "https://www.aus.com/puerto-rico-security-systems-services", "brand": "Allied Universal", "brand:wikidata": "Q4732537"}},
{"type": "Feature", "id": "W9hczQ_mlfg2evNdHSjAwlJL8Ww=", "properties": {"ref": "Calle 15 Sur #707 Despacho 306", "@spider": "allied_universal", "addr:full": "Calle 15 Sur #707 Despacho 306, , Puebla, 72000", "addr:street_address": "Calle 15 Sur #707 Despacho 306, ", "addr:city": "Puebla", "addr:state": "Puebla", "addr:postcode": "72000", "addr:country": "MX", "brand": "Allied Universal", "brand:wikidata": "Q4732537"}},
{"type": "Feature", "id": "HeOau1NggVui-lrPuYWGP0aoWrQ=", "properties": {"ref": "Zacar\u00edas O\u00f1ate #7", "@spider": "allied_universal", "addr:full": "Zacar\u00edas O\u00f1ate #7, , QE, 38000", "addr:street_address": "Zacar\u00edas O\u00f1ate #7, ", "addr:city": "Quer\u00e9taro", "addr:state": "QE", "addr:postcode": "38000", "addr:country": "MX", "phone": "52-55-6931-5685", "brand": "Allied Universal", "brand:wikidata": "Q4732537"}},
{"type": "Feature", "id": "33BBqs8ME8BQMC1Gh_clZ2sb1Ns=", "properties": {"ref": "2262 Chemin St-Francois", "@spider": "allied_universal", "addr:full": "2262 Chemin St-Francois, , Quebec, H9P 1K2", "addr:street_address": "2262 Chemin St-Francois, ", "addr:city": "Dorval", "addr:state": "Quebec", "addr:postcode": "H9P 1K2", "addr:country": "CA", "phone": "514-683-3737", "website": "https://ausecurity.ca/montreal-security-system-services", "brand": "Allied Universal", "brand:wikidata": "Q4732537"}},
{"type": "Feature", "id": "6p_P3OglJ_NUUhFq6Et53O3al9E=", "properties": {"ref": "7889 St-Laurent Boulevard, Suite 202", "@spider": "allied_universal", "addr:full": "7889 St-Laurent Boulevard, Suite 202, , Quebec, H2R 1X1", "addr:street_address": "7889 St-Laurent Boulevard, Suite 202, ", "addr:city": "Montreal", "addr:state": "Quebec", "addr:postcode": "H2R 1X1", "addr:country": "CA", "phone": "514-285-2079", "website": "https://ausecurity.ca/montreal-security-system-services", "brand": "Allied Universal", "brand:wikidata": "Q4732537"}},
{"type": "Feature", "id": "X173aenInFTAjlYeB0oNvmzzXa8=", "properties": {"ref": "945 Avenue Newton", "@spider": "allied_universal", "addr:full": "945 Avenue Newton, Bureau 239, Quebec, G1P 4M4", "addr:street_address": "945 Avenue Newton, Bureau 239", "addr:city": "Quebec City", "addr:state": "Quebec", "addr:postcode": "G1P 4M4", "addr:country": "CA", "phone": "418-681-8777", "website": "https://ausecurity.ca/quebec-city-security-system-services", "brand": "Allied Universal", "brand:wikidata": "Q4732537"}},
{"type": "Feature", "id": "fdx1IGi85PShj_qIroth7RIzuIs=", "properties": {"ref": "220 West Exchange Street", "@spider": "allied_universal", "addr:full": "220 West Exchange Street, Suite 100, Rhode Island, 02903", "addr:street_address": "220 West Exchange Street, Suite 100", "addr:city": "Providence", "addr:state": "Rhode Island", "addr:postcode": "02903", "addr:country": "US", "phone": "401-276-8311", "website": "https://www.aus.com/providence-commercial-security-systems-services", "brand": "Allied Universal", "brand:wikidata": "Q4732537"}},
{"type": "Feature", "id": "9328PXAG6SugyFnaqKaskpa_YYE=", "properties": {"ref": "Francisco I. Madero", "@spider": "allied_universal", "addr:full": "Francisco I. Madero, Moderna San Luis Potos\u00ed, San Luis Potos\u00ed, 78230", "addr:street_address": "Francisco I. Madero, Moderna San Luis Potos\u00ed", "addr:city": "San Luis Potos\u00ed", "addr:state": "San Luis Potos\u00ed", "addr:postcode": "78230", "addr:country": "US", "brand": "Allied Universal", "brand:wikidata": "Q4732537"}},
{"type": "Feature", "id": "4YZmtAIC6aAu-NxGt2XGoQcwNLo=", "properties": {"ref": "327 Pearman Dairy Road", "@spider": "allied_universal", "addr:full": "327 Pearman Dairy Road, , South Carolina, 29625", "addr:street_address": "327 Pearman Dairy Road, ", "addr:city": "Anderson", "addr:state": "South Carolina", "addr:postcode": "29625", "addr:country": "US", "phone": "864-341-5684", "brand": "Allied Universal", "brand:wikidata": "Q4732537"}},
{"type": "Feature", "id": "TS1591aXqJ-zId2Z1v-8GhVSF_c=", "properties": {"ref": "3300 West Montague Drive", "@spider": "allied_universal", "addr:full": "3300 West Montague Drive, Building A, Suite 101, South Carolina, 29418", "addr:street_address": "3300 West Montague Drive, Building A, Suite 101", "addr:city": "North Charleston", "addr:state": "South Carolina", "addr:postcode": "29418", "addr:country": "US", "phone": "843-745-9868", "website": "https://www.aus.com/north-charleston-security-systems-services", "brand": "Allied Universal", "brand:wikidata": "Q4732537"}},
{"type": "Feature", "id": "QGLIqO_1Bepj5P2OctUZQgCkCdw=", "properties": {"ref": "1941 Savage Road", "@spider": "allied_universal", "addr:full": "1941 Savage Road, Suite 500A, South Carolina, 29407", "addr:street_address": "1941 Savage Road, Suite 500A", "addr:city": "Charleston", "addr:state": "South Carolina", "addr:postcode": "29407", "addr:country": "US", "phone": "843-573-3400", "website": "https://www.aus.com/charleston-security-systems-services", "brand": "Allied Universal", "brand:wikidata": "Q4732537"}},
{"type": "Feature", "id": "eXcplBDeAVyHWTqOkwGiuA8-oIk=", "properties": {"ref": "305 Jacobs Hwy", "@spider": "allied_universal", "addr:full": "305 Jacobs Hwy, , South Carolina, 29325", "addr:street_address": "305 Jacobs Hwy, ", "addr:city": "Clinton", "addr:state": "South Carolina", "addr:postcode": "29325", "addr:country": "US", "phone": "864-313-6208", "brand": "Allied Universal", "brand:wikidata": "Q4732537"}},
{"type": "Feature", "id": "4pCpI5QoAkCT8gCbXZqnHkr1fUU=", "properties": {"ref": "140 Stoneridge Drive", "@spider": "allied_universal", "addr:full": "140 Stoneridge Drive, Suite 140, South Carolina, 29210", "addr:street_address": "140 Stoneridge Drive, Suite 140", "addr:city": "Columbia", "addr:state": "South Carolina", "addr:postcode": "29210", "addr:country": "US", "phone": "803-781-6260", "website": "https://www.aus.com/columbia-security-systems-services", "brand": "Allied Universal", "brand:wikidata": "Q4732537"}},
{"type": "Feature", "id": "kht4v2bT-XzuqnAJ0Ts-DYflVwM=", "properties": {"ref": "123 Centrum Drive", "@spider": "allied_universal", "addr:full": "123 Centrum Drive, Suite 1, South Carolina, 29063", "addr:street_address": "123 Centrum Drive, Suite 1", "addr:city": "Irmo", "addr:state": "South Carolina", "addr:postcode": "29063", "addr:country": "US", "phone": "803-781-0577", "website": "https://www.aus.com/columbia-security-systems-services", "brand": "Allied Universal", "brand:wikidata": "Q4732537"}},
{"type": "Feature", "id": "QvVBzVd1GdRHJRiI-Og7IhWW-uc=", "properties": {"ref": "1252 Overbrook Drive", "@spider": "allied_universal", "addr:full": "1252 Overbrook Drive, Suite #5, South Carolina, 29341", "addr:street_address": "1252 Overbrook Drive, Suite #5", "addr:city": "Gaffney", "addr:state": "South Carolina", "addr:postcode": "29341", "addr:country": "US", "phone": "864-902-8822", "website": "https://www.aus.com/greenville-security-systems-services", "brand": "Allied Universal", "brand:wikidata": "Q4732537"}},
{"type": "Feature", "id": "yJlBfsj7c2l7-A-273imG88eOdI=", "properties": {"ref": "1302 Rutherford Road", "@spider": "allied_universal", "addr:full": "1302 Rutherford Road, , South Carolina, 29609", "addr:street_address": "1302 Rutherford Road, ", "addr:city": "Greenville", "addr:state": "South Carolina", "addr:postcode": "29609", "addr:country": "US", "phone": "864-292-7450", "brand": "Allied Universal", "brand:wikidata": "Q4732537"}},
{"type": "Feature", "id": "ejk8z_xE0mShtcgAcbc_HFtSyow=", "properties": {"ref": "One Independence Pointe", "@spider": "allied_universal", "addr:full": "One Independence Pointe, Suite 115, South Carolina, 29615", "addr:street_address": "One Independence Pointe, Suite 115", "addr:city": "Greenville", "addr:state": "South Carolina", "addr:postcode": "29615", "addr:country": "US", "phone": "864-244-0442", "website": "https://www.aus.com/greenville-security-systems-services", "brand": "Allied Universal", "brand:wikidata": "Q4732537"}},
{"type": "Feature", "id": "2vgRU8_POpRfnpsM1CXLmFTRetI=", "properties": {"ref": "160 Congress Blvd", "@spider": "allied_universal", "addr:full": "160 Congress Blvd, Suite A, South Carolina, 29334", "addr:street_address": "160 Congress Blvd, Suite A", "addr:city": "Duncan", "addr:state": "South Carolina", "addr:postcode": "29334", "addr:country": "US", "phone": "864-486-9222", "website": "https://www.aus.com/greenville-security-systems-services", "brand": "Allied Universal", "brand:wikidata": "Q4732537"}},
{"type": "Feature", "id": "o7WRE0S6lj_nRIn8UXQkef0e_9U=", "properties": {"ref": "11943 Grandhaven Center", "@spider": "allied_universal", "addr:full": "11943 Grandhaven Center, , South Carolina, 29576", "addr:street_address": "11943 Grandhaven Center, ", "addr:city": "Murrells Inlet", "addr:state": "South Carolina", "addr:postcode": "29576", "addr:country": "US", "phone": "843-448-9907", "website": "https://www.aus.com/myrtle-beach-security-systems-services", "brand": "Allied Universal", "brand:wikidata": "Q4732537"}},
{"type": "Feature", "id": "4SagQ0s8AKQCMPAahq0yi_aWEtc=", "properties": {"ref": "2202B Robert M. Grissom Parkway", "@spider": "allied_universal", "addr:full": "2202B Robert M. Grissom Parkway, , South Carolina, 29577", "addr:street_address": "2202B Robert M. Grissom Parkway, ", "addr:city": "Myrtle Beach", "addr:state": "South Carolina", "addr:postcode": "29577", "addr:country": "US", "brand": "Allied Universal", "brand:wikidata": "Q4732537"}},
{"type": "Feature", "id": "8HgET6CxJM6oCW2he-W67mLQFjo=", "properties": {"ref": "1551 21st Avenue North", "@spider": "allied_universal", "addr:full": "1551 21st Avenue North, Suite 17, South Carolina, 29577", "addr:street_address": "1551 21st Avenue North, Suite 17", "addr:city": "Myrtle Beach", "addr:state": "South Carolina", "addr:postcode": "29577", "addr:country": "US", "phone": "843-448-9907", "website": "https://www.aus.com/myrtle-beach-security-systems-services", "brand": "Allied Universal", "brand:wikidata": "Q4732537"}},
{"type": "Feature", "id": "H2_2Y9ljkpherUQaGfvcBeEJuz0=", "properties": {"ref": "4000 Faber Place", "@spider": "allied_universal", "addr:full": "4000 Faber Place, Suite 340, South Carolina, 29579", "addr:street_address": "4000 Faber Place, Suite 340", "addr:city": "North Charleston", "addr:state": "South Carolina", "addr:postcode": "29579", "addr:country": "US", "phone": "843-745-9868", "website": "https://www.aus.com/north-charleston-security-systems-services", "brand": "Allied Universal", "brand:wikidata": "Q4732537"}},
{"type": "Feature", "id": "6P7YOWhvk2ojmaLnU8CI9vGZeAA=", "properties": {"ref": "104-A Colonial Plaza Dr.", "@spider": "allied_universal", "addr:full": "104-A Colonial Plaza Dr., , South Carolina, 29609", "addr:street_address": "104-A Colonial Plaza Dr., ", "addr:city": "Seneca", "addr:state": "South Carolina", "addr:postcode": "29609", "addr:country": "US", "phone": "864-395-7740", "brand": "Allied Universal", "brand:wikidata": "Q4732537"}},
{"type": "Feature", "id": "l6xoIZfwdq4PyNISKl3iPX3wTwI=", "properties": {"ref": "736 E Main Street", "@spider": "allied_universal", "addr:full": "736 E Main Street, , South Carolina, 29302", "addr:street_address": "736 E Main Street, ", "addr:city": "Spartanburg", "addr:state": "South Carolina", "addr:postcode": "29302", "addr:country": "US", "phone": "864-590-2060", "brand": "Allied Universal", "brand:wikidata": "Q4732537"}},
{"type": "Feature", "id": "gAtYvJANZtJfpraT-FFpQGlsBGw=", "properties": {"ref": "Francisco I. Madero #898", "@spider": "allied_universal", "addr:full": "Francisco I. Madero #898, , SL, 78230", "addr:street_address": "Francisco I. Madero #898, ", "addr:city": "San Luis Potosi", "addr:state": "SL", "addr:postcode": "78230", "addr:country": "US", "phone": "(52) 44 4243 1832", "brand": "Allied Universal", "brand:wikidata": "Q4732537"}},
{"type": "Feature", "id": "0f8v-7mUBkwJVzO6yGwIhnE12MI=", "properties": {"ref": "Francisco I. Madero #898 Col. Moderna C.P.", "@spider": "allied_universal", "addr:full": "Francisco I. Madero #898 Col. Moderna C.P., , SLP, 78230", "addr:street_address": "Francisco I. Madero #898 Col. Moderna C.P., ", "addr:city": "San Luis Potos\u00ed", "addr:state": "SLP", "addr:postcode": "78230", "addr:country": "MX", "brand": "Allied Universal", "brand:wikidata": "Q4732537"}},
{"type": "Feature", "id": "98g9xOLRCVPP0IaQ_GTV3vgGYMU=", "properties": {"ref": "Privada Peralta #14", "@spider": "allied_universal", "addr:full": "Privada Peralta #14, , Sonora, 83000", "addr:street_address": "Privada Peralta #14, ", "addr:city": "Hermosillo", "addr:state": "Sonora", "addr:postcode": "83000", "addr:country": "MX", "brand": "Allied Universal", "brand:wikidata": "Q4732537"}},
{"type": "Feature", "id": "3NUB_047Nns6xF8HftdaSTsnf_Y=", "properties": {"ref": "Embovedado Arroyo de los Nogales #944 Local C", "@spider": "allied_universal", "addr:full": "Embovedado Arroyo de los Nogales #944 Local C, , Sonora, 84060", "addr:street_address": "Embovedado Arroyo de los Nogales #944 Local C, ", "addr:city": "Nogales", "addr:state": "Sonora", "addr:postcode": "84060", "addr:country": "MX", "brand": "Allied Universal", "brand:wikidata": "Q4732537"}},
{"type": "Feature", "id": "YrR9jRmLro0VUv2GKuwZQ0r0a0M=", "properties": {"ref": "Calle cerro del Bernal  #220", "@spider": "allied_universal", "addr:full": "Calle cerro del Bernal  #220, , TA, 88680", "addr:street_address": "Calle cerro del Bernal  #220, ", "addr:city": "Reynosa", "addr:state": "TA", "addr:postcode": "88680", "addr:country": "MX", "brand": "Allied Universal", "brand:wikidata": "Q4732537"}},
{"type": "Feature", "id": "UwNA1_6D6mC3EJbWWE_Sz0vybRk=", "properties": {"ref": "Hamilton Place", "@spider": "allied_universal", "addr:full": "Hamilton Place, , Tennessee, 37421", "addr:street_address": "Hamilton Place, ", "addr:city": "Chattanooga (PG)", "addr:state": "Tennessee", "addr:postcode": "37421", "addr:country": "US", "brand": "Allied Universal", "brand:wikidata": "Q4732537"}},
{"type": "Feature", "id": "D7Bj3tM1JqbzKrGOEV-1z0e1kb0=", "properties": {"ref": "6224 Ringgold Road", "@spider": "allied_universal", "addr:full": "6224 Ringgold Road, , Tennessee, 37412", "addr:street_address": "6224 Ringgold Road, ", "addr:city": "East Ridge", "addr:state": "Tennessee", "addr:postcode": "37412", "addr:country": "US", "phone": "423-899-2753", "website": "https://www.aus.com/chattanooga-security-systems-services", "brand": "Allied Universal", "brand:wikidata": "Q4732537"}},
{"type": "Feature", "id": "7XKf2956cCZxlEIRSYQF3oeT6Ts=", "properties": {"ref": "155 Carriage House Drive", "@spider": "allied_universal", "addr:full": "155 Carriage House Drive, Unit A, Tennessee, 38305", "addr:street_address": "155 Carriage House Drive, Unit A", "addr:city": "Jackson", "addr:state": "Tennessee", "addr:postcode": "38305", "addr:country": "US", "phone": "731-668-3121", "website": "https://www.aus.com/jackson-security-systems-services", "brand": "Allied Universal", "brand:wikidata": "Q4732537"}},
{"type": "Feature", "id": "sOwRvPh3iOH0TAvpjKh-b0dWF28=", "properties": {"ref": "2700-2702 South Roan Street", "@spider": "allied_universal", "addr:full": "2700-2702 South Roan Street, Suite 420, Tennessee, 37601", "addr:street_address": "2700-2702 South Roan Street, Suite 420", "addr:city": "Johnson City", "addr:state": "Tennessee", "addr:postcode": "37601", "addr:country": "US", "phone": "423-900-8557", "website": "https://www.aus.com/johnson-city-security-systems-services", "brand": "Allied Universal", "brand:wikidata": "Q4732537"}},
{"type": "Feature", "id": "TDJHwkvFJBGI_6bcoN8SxwEBogw=", "properties": {"ref": "11424-C Kingston Pike", "@spider": "allied_universal", "addr:full": "11424-C Kingston Pike, , Tennessee, 37934", "addr:street_address": "11424-C Kingston Pike, ", "addr:city": "Knoxville", "addr:state": "Tennessee", "addr:postcode": "37934", "addr:country": "US", "phone": "865-966-7000", "website": "https://www.aus.com/knoxville-security-systems-services", "brand": "Allied Universal", "brand:wikidata": "Q4732537"}},
{"type": "Feature", "id": "ENnfKvNIUwF1kqPWomUz2fObRN0=", "properties": {"ref": "129 B-C Perimeter Park Road", "@spider": "allied_universal", "addr:full": "129 B-C Perimeter Park Road, Suite B & C, Tennessee, 37922", "addr:street_address": "129 B-C Perimeter Park Road, Suite B & C", "addr:city": "Knoxville", "addr:state": "Tennessee", "addr:postcode": "37922", "addr:country": "US", "website": "https://www.aus.com/knoxville-security-systems-services", "brand": "Allied Universal", "brand:wikidata": "Q4732537"}},
{"type": "Feature", "id": "wNBkyg1qZ1mtwnk-XSiEiBptIYY=", "properties": {"ref": "3000 Democrat Road", "@spider": "allied_universal", "addr:full": "3000 Democrat Road, Building C, Tennessee, 38118", "addr:street_address": "3000 Democrat Road, Building C", "addr:city": "Memphis", "addr:state": "Tennessee", "addr:postcode": "38118", "addr:country": "US", "phone": "212-509-1336", "website": "https://www.aus.com/memphis-security-systems-services", "brand": "Allied Universal", "brand:wikidata": "Q4732537"}},
{"type": "Feature", "id": "0i8zK7yf9HDt5evn85i4bCWG7LE=", "properties": {"ref": "6084 Apple Tree Dr", "@spider": "allied_universal", "addr:full": "6084 Apple Tree Dr, Suite 1, Tennessee, 38115", "addr:street_address": "6084 Apple Tree Dr, Suite 1", "addr:city": "Memphis", "addr:state": "Tennessee", "addr:postcode": "38115", "addr:country": "US", "phone": "901-332-5555", "website": "https://www.aus.com/memphis-security-systems-services", "brand": "Allied Universal", "brand:wikidata": "Q4732537"}},
{"type": "Feature", "id": "QdIWw09IFrjiHtinFhpwa7ecmWE=", "properties": {"ref": "565 Marriott Drive", "@spider": "allied_universal", "addr:full": "565 Marriott Drive, Suite 200, Tennessee, 37214", "addr:street_address": "565 Marriott Drive, Suite 200", "addr:city": "Nashville", "addr:state": "Tennessee", "addr:postcode": "37214", "addr:country": "US", "phone": "615-316-0004", "website": "https://www.aus.com/nashville-security-systems-services", "brand": "Allied Universal", "brand:wikidata": "Q4732537"}},
{"type": "Feature", "id": "cn6BKfiBGUvIaONJBRWcfa329ws=", "properties": {"ref": "411 Maple Avenue", "@spider": "allied_universal", "addr:full": "411 Maple Avenue, , Tennessee, 37210", "addr:street_address": "411 Maple Avenue, ", "addr:city": "Nashville", "addr:state": "Tennessee", "addr:postcode": "37210", "addr:country": "US", "website": "https://www.aus.com/nashville-security-systems-services", "brand": "Allied Universal", "brand:wikidata": "Q4732537"}},
{"type": "Feature", "id": "vVrB9NDF7VzcwDSxMfJAr8gnkV8=", "properties": {"ref": "426 Miller Road", "@spider": "allied_universal", "addr:full": "426 Miller Road, , Tennessee, 37377", "addr:street_address": "426 Miller Road, ", "addr:city": "Signal Mountain", "addr:state": "Tennessee", "addr:postcode": "37377", "addr:country": "US", "brand": "Allied Universal", "brand:wikidata": "Q4732537"}},
{"type": "Feature", "id": "kdCwsaloFEi4POCBI7qF3alR4Qc=", "properties": {"ref": "809 Amarillo Blvd. E", "@spider": "allied_universal", "addr:full": "809 Amarillo Blvd. E, Suite 200, Texas, 79107", "addr:street_address": "809 Amarillo Blvd. E, Suite 200", "addr:city": "Amarillo", "addr:state": "Texas", "addr:postcode": "79107", "addr:country": "US", "phone": "806-310-2000", "website": "https://www.aus.com/amarillo-security-systems-services", "brand": "Allied Universal", "brand:wikidata": "Q4732537"}},
{"type": "Feature", "id": "qcPcjP45Evomo6hWjMtPJ6-aSSI=", "properties": {"ref": "1812 Centre Creek Drive", "@spider": "allied_universal", "addr:full": "1812 Centre Creek Drive, Suite 340, Texas, 78754", "addr:street_address": "1812 Centre Creek Drive, Suite 340", "addr:city": "Austin", "addr:state": "Texas", "addr:postcode": "78754", "addr:country": "US", "phone": "512-960-2610", "website": "https://www.aus.com/austin-security-systems-services", "brand": "Allied Universal", "brand:wikidata": "Q4732537"}},
{"type": "Feature", "id": "vgdzzvmN4cXf_w1NfUgn170z-xY=", "properties": {"ref": "14050 Summit Drive", "@spider": "allied_universal", "addr:full": "14050 Summit Drive, Suite 105, Texas, 78728", "addr:street_address": "14050 Summit Drive, Suite 105", "addr:city": "Austin", "addr:state": "Texas", "addr:postcode": "78728", "addr:country": "US", "phone": "512-835-8800", "website": "https://www.aus.com/austin-security-systems-services", "brand": "Allied Universal", "brand:wikidata": "Q4732537"}},
{"type": "Feature", "id": "Jy4R6x3VUv3rkzLsW6RjVnI_Xnc=", "properties": {"ref": "4345 Phelan Blvd.", "@spider": "allied_universal", "addr:full": "4345 Phelan Blvd., Suite 102, Texas, 77707", "addr:street_address": "4345 Phelan Blvd., Suite 102", "addr:city": "Beaumont", "addr:state": "Texas", "addr:postcode": "77707", "addr:country": "US", "phone": "409-240-2020", "website": "https://www.aus.com/beaumont-security-systems-services", "brand": "Allied Universal", "brand:wikidata": "Q4732537"}},
{"type": "Feature", "id": "S2PqgAC6ZYiOupQi8_K5BovmNKw=", "properties": {"ref": "5656 S. Staples Street", "@spider": "allied_universal", "addr:full": "5656 S. Staples Street, Suite 270, Texas, 78411", "addr:street_address": "5656 S. Staples Street, Suite 270", "addr:city": "Corpus Christi", "addr:state": "Texas", "addr:postcode": "78411", "addr:country": "US", "phone": "361-994-5330", "website": "https://www.aus.com/corpus-christi-security-systems-services", "brand": "Allied Universal", "brand:wikidata": "Q4732537"}},
{"type": "Feature", "id": "kCLcdrrm9m2fAb5we-jq0wuKSB4=", "properties": {"ref": "3440 Sojourn Drive", "@spider": "allied_universal", "addr:full": "3440 Sojourn Drive, Suite 220, Texas, 75006", "addr:street_address": "3440 Sojourn Drive, Suite 220", "addr:city": "Carrollton", "addr:state": "Texas", "addr:postcode": "75006", "addr:country": "US", "phone": "972-248-4949", "website": "https://www.aus.com/dallas-security-services-systems", "brand": "Allied Universal", "brand:wikidata": "Q4732537"}},
{"type": "Feature", "id": "iBkX76lGZIpZ5iyRrR0iYUsn_to=", "properties": {"ref": "3030 Lyndon B Johnson Freeway", "@spider": "allied_universal", "addr:full": "3030 Lyndon B Johnson Freeway, Suite 800, Texas, 75234", "addr:street_address": "3030 Lyndon B Johnson Freeway, Suite 800", "addr:city": "Dallas", "addr:state": "Texas", "addr:postcode": "75234", "addr:country": "US", "phone": "972-721-9800", "website": "https://www.aus.com/dallas-security-services-systems", "brand": "Allied Universal", "brand:wikidata": "Q4732537"}},
{"type": "Feature", "id": "uDLBcK3bsUsMDR8x2ZHKofrSYF8=", "properties": {"ref": "11550 Fuqua Street", "@spider": "allied_universal", "addr:full": "11550 Fuqua Street, Suite 150, Texas, 77034", "addr:street_address": "11550 Fuqua Street, Suite 150", "addr:city": "Houston", "addr:state": "Texas", "addr:postcode": "77034", "addr:country": "US", "phone": "281-334-2300", "website": "https://www.aus.com/houston-security-services-systems", "brand": "Allied Universal", "brand:wikidata": "Q4732537"}},
{"type": "Feature", "id": "KmV1CG9-wCxl2nnsnLoBqq7e6ug=", "properties": {"ref": "7500 Viscount Boulevard", "@spider": "allied_universal", "addr:full": "7500 Viscount Boulevard, Suite C66, Texas, 79925", "addr:street_address": "7500 Viscount Boulevard, Suite C66", "addr:city": "El Paso", "addr:state": "Texas", "addr:postcode": "79925", "addr:country": "US", "phone": "915-771-8530", "website": "https://www.aus.com/el-paso-security-systems-services", "brand": "Allied Universal", "brand:wikidata": "Q4732537"}},
{"type": "Feature", "id": "1lFviy5ldJtUnpJZUGS_o9-Hb-w=", "properties": {"ref": "1300 Summit Drive", "@spider": "allied_universal", "addr:full": "1300 Summit Drive, Suite 401, Texas, 76102", "addr:street_address": "1300 Summit Drive, Suite 401", "addr:city": "Fort Worth", "addr:state": "Texas", "addr:postcode": "76102", "addr:country": "US", "phone": "682-291-3901", "website": "https://www.aus.com/dallas-security-services-systems", "brand": "Allied Universal", "brand:wikidata": "Q4732537"}},
{"type": "Feature", "id": "cW8DjtEwJPcx67Z4MRuo-tX7nvY=", "properties": {"ref": "1816 E. Harrison", "@spider": "allied_universal", "addr:full": "1816 E. Harrison, Suite D, Texas, 78550", "addr:street_address": "1816 E. Harrison, Suite D", "addr:city": "Harlingen", "addr:state": "Texas", "addr:postcode": "78550", "addr:country": "US", "phone": "956-734-2252", "website": "https://www.aus.com/harlingen-security-systems-services", "brand": "Allied Universal", "brand:wikidata": "Q4732537"}},
{"type": "Feature", "id": "CRoeRXFERDYZXpxsJfxCMc2CddQ=", "properties": {"ref": "283 Lockhaven Drive", "@spider": "allied_universal", "addr:full": "283 Lockhaven Drive, , Texas, 77073", "addr:street_address": "283 Lockhaven Drive, ", "addr:city": "Houston", "addr:state": "Texas", "addr:postcode": "77073", "addr:country": "US", "phone": "281-876-7004", "website": "https://www.aus.com/houston-security-services-systems", "brand": "Allied Universal", "brand:wikidata": "Q4732537"}},
{"type": "Feature", "id": "Z6p8xcLxQQXnZbSQPO_yTt3iSoY=", "properties": {"ref": "2424 Wilcrest", "@spider": "allied_universal", "addr:full": "2424 Wilcrest, Suite 200, Texas, 77042", "addr:street_address": "2424 Wilcrest, Suite 200", "addr:city": "Houston", "addr:state": "Texas", "addr:postcode": "77042", "addr:country": "US", "phone": "713-939-4200", "website": "https://www.aus.com/houston-security-services-systems", "brand": "Allied Universal", "brand:wikidata": "Q4732537"}},
{"type": "Feature", "id": "LC8AYQjPJoKcqK9HSL0NGBAkJdQ=", "properties": {"ref": "11811 North Freeway", "@spider": "allied_universal", "addr:full": "11811 North Freeway, Suite 810, Texas, 77060", "addr:street_address": "11811 North Freeway, Suite 810", "addr:city": "Houston", "addr:state": "Texas", "addr:postcode": "77060", "addr:country": "US", "phone": "832-786-3911", "website": "https://www.aus.com/houston-security-services-systems", "brand": "Allied Universal", "brand:wikidata": "Q4732537"}},
{"type": "Feature", "id": "QOzIhtAaclN9P39NEPcvaS-JT2E=", "properties": {"ref": "3011 Gateway Drive", "@spider": "allied_universal", "addr:full": "3011 Gateway Drive, , Texas, 75063", "addr:street_address": "3011 Gateway Drive, ", "addr:city": "Irving", "addr:state": "Texas", "addr:postcode": "75063", "addr:country": "US", "phone": "214-234-1600", "website": "https://www.aus.com/dallas-security-services-systems", "brand": "Allied Universal", "brand:wikidata": "Q4732537"}},
{"type": "Feature", "id": "okPavTcZJZNaIDrkuP1gPhdoPpM=", "properties": {"ref": "Aurora Office Building, 9901 McPherson", "@spider": "allied_universal", "addr:full": "Aurora Office Building, 9901 McPherson, Suite 103, Texas, 78045", "addr:street_address": "Aurora Office Building, 9901 McPherson, Suite 103", "addr:city": "Laredo", "addr:state": "Texas", "addr:postcode": "78045", "addr:country": "US", "phone": "956-718-5811", "website": "https://www.aus.com/laredo-security-systems-services", "brand": "Allied Universal", "brand:wikidata": "Q4732537"}},
{"type": "Feature", "id": "Q2PqB3caaNn32ZjZPRoAsYVzb_A=", "properties": {"ref": "3002 Gilmer Road", "@spider": "allied_universal", "addr:full": "3002 Gilmer Road, , Texas, 75604", "addr:street_address": "3002 Gilmer Road, ", "addr:city": "Longview", "addr:state": "Texas", "addr:postcode": "75604", "addr:country": "US", "website": "https://www.aus.com/longview-security-system-services", "brand": "Allied Universal", "brand:wikidata": "Q4732537"}},
{"type": "Feature", "id": "caFQCXeC8i2sEFsV1QqzeuGDTX4=", "properties": {"ref": "3417 73rd Street", "@spider": "allied_universal", "addr:full": "3417 73rd Street, Suite J, Texas, 79424", "addr:street_address": "3417 73rd Street, Suite J", "addr:city": "Lubbock", "addr:state": "Texas", "addr:postcode": "79424", "addr:country": "US", "phone": "806-368-8872", "website": "https://www.aus.com/lubbock-security-systems-services", "brand": "Allied Universal", "brand:wikidata": "Q4732537"}},
{"type": "Feature", "id": "db4op2MP4wmD5glwh1ATQJj9V4s=", "properties": {"ref": "1310 W. Wall Street", "@spider": "allied_universal", "addr:full": "1310 W. Wall Street, Suite C, Texas, 79710", "addr:street_address": "1310 W. Wall Street, Suite C", "addr:city": "Midland", "addr:state": "Texas", "addr:postcode": "79710", "addr:country": "US", "phone": "432-685-3235", "website": "https://www.aus.com/midland-security-systems-services", "brand": "Allied Universal", "brand:wikidata": "Q4732537"}},
{"type": "Feature", "id": "1JFr07PD9yqLQ1nkcoyyTPOTYDA=", "properties": {"ref": "8400 Belleview Drive", "@spider": "allied_universal", "addr:full": "8400 Belleview Drive, , Texas, 75024", "addr:street_address": "8400 Belleview Drive, ", "addr:city": "Plano", "addr:state": "Texas", "addr:postcode": "75024", "addr:country": "US", "website": "https://www.aus.com/dallas-security-services-systems", "brand": "Allied Universal", "brand:wikidata": "Q4732537"}},
{"type": "Feature", "id": "IR1zwVNXdByUg-PAsBGEZH0TpKw=", "properties": {"ref": "106 S. Commerce", "@spider": "allied_universal", "addr:full": "106 S. Commerce, , Texas, 77979", "addr:street_address": "106 S. Commerce, ", "addr:city": "Port Lavaca", "addr:state": "Texas", "addr:postcode": "77979", "addr:country": "US", "phone": "361-994-5330", "website": "https://www.aus.com/port-lavaca-security-system-services", "brand": "Allied Universal", "brand:wikidata": "Q4732537"}},
{"type": "Feature", "id": "gT9SZklrHzbr5n9ZmDQebm38V9Q=", "properties": {"ref": "701 Presidential Drive", "@spider": "allied_universal", "addr:full": "701 Presidential Drive, , Texas, 75081", "addr:street_address": "701 Presidential Drive, ", "addr:city": "Richardson", "addr:state": "Texas", "addr:postcode": "75081", "addr:country": "US", "phone": "972-331-6920", "website": "https://www.aus.com/dallas-security-services-systems", "brand": "Allied Universal", "brand:wikidata": "Q4732537"}},
{"type": "Feature", "id": "MDepa55_JUALCJcGHytbbKNrirs=", "properties": {"ref": "701 Presidential Dr", "@spider": "allied_universal", "addr:full": "701 Presidential Dr, , Texas, 75081", "addr:street_address": "701 Presidential Dr, ", "addr:city": "Richardson", "addr:state": "Texas", "addr:postcode": "75081", "addr:country": "US", "phone": "TX DPS# B18046D", "website": "https://www.aus.com/dallas-security-services-systems", "brand": "Allied Universal", "brand:wikidata": "Q4732537"}},
{"type": "Feature", "id": "zpFl_VStD83YWv0hEZUKfKyjLhc=", "properties": {"ref": "3355 Cherry Ridge", "@spider": "allied_universal", "addr:full": "3355 Cherry Ridge, Suite 200, Texas, 78230", "addr:street_address": "3355 Cherry Ridge, Suite 200", "addr:city": "San Antonio", "addr:state": "Texas", "addr:postcode": "78230", "addr:country": "US", "phone": "210-349-6321", "website": "https://www.aus.com/san-antonio-security-services-systems", "brand": "Allied Universal", "brand:wikidata": "Q4732537"}},
{"type": "Feature", "id": "wAl1lbrEXigrxppSWhq2GKjApM4=", "properties": {"ref": "18 E. Avenue A", "@spider": "allied_universal", "addr:full": "18 E. Avenue A, , Texas, 76501", "addr:street_address": "18 E. Avenue A, ", "addr:city": "Temple", "addr:state": "Texas", "addr:postcode": "76501", "addr:country": "US", "website": "https://www.aus.com/austin-security-systems-services", "brand": "Allied Universal", "brand:wikidata": "Q4732537"}},
{"type": "Feature", "id": "RndksofOIr1UjJyJXs3H8GFkbAQ=", "properties": {"ref": "1776 Woodstead Court", "@spider": "allied_universal", "addr:full": "1776 Woodstead Court, Suite 224, Texas, 77380", "addr:street_address": "1776 Woodstead Court, Suite 224", "addr:city": "The Woodlands", "addr:state": "Texas", "addr:postcode": "77380", "addr:country": "US", "phone": "281-292-0965", "website": "https://www.aus.com/houston-security-services-systems", "brand": "Allied Universal", "brand:wikidata": "Q4732537"}},
{"type": "Feature", "id": "srhaK1R1ACTw-T-0XQbGhcieOMw=", "properties": {"ref": "2nd floor, Chancery House", "@spider": "allied_universal", "addr:full": "2nd floor, Chancery House, St Nicholas Way, United Kingdom, SM1 1JB", "addr:street_address": "2nd floor, Chancery House, St Nicholas Way", "addr:city": "Sutton", "addr:state": "United Kingdom", "addr:postcode": "SM1 1JB", "addr:country": "GB", "phone": "(+44) 0207 734 6151", "website": "https://www.aus.com/london-security-systems-services", "brand": "Allied Universal", "brand:wikidata": "Q4732537"}},
{"type": "Feature", "id": "S6jDN8F4cvV-kJf4uo9VVqsee5c=", "properties": {"ref": "392 East 12300 South", "@spider": "allied_universal", "addr:full": "392 East 12300 South, Suite H & I, Utah, 84020", "addr:street_address": "392 East 12300 South, Suite H & I", "addr:city": "Salt Lake City", "addr:state": "Utah", "addr:postcode": "84020", "addr:country": "US", "phone": "801-364-0738", "website": "https://www.aus.com/salt-lake-city-security-services-systems", "brand": "Allied Universal", "brand:wikidata": "Q4732537"}},
{"type": "Feature", "id": "mSGHKrOB5k023CTr7yf8cQrrwM8=", "properties": {"ref": "1655 N Fort Myer Drive", "@spider": "allied_universal", "addr:full": "1655 N Fort Myer Drive, Suite 100, Virginia, 22209", "addr:street_address": "1655 N Fort Myer Drive, Suite 100", "addr:city": "Arlington", "addr:state": "Virginia", "addr:postcode": "22209", "addr:country": "US", "phone": "703-657-4095", "website": "https://www.aus.com/alexandria-building-security-systems-services", "brand": "Allied Universal", "brand:wikidata": "Q4732537"}},
{"type": "Feature", "id": "sAAGyIGmE78bXficR0-W5-4rEhc=", "properties": {"ref": "1362 American Way Court", "@spider": "allied_universal", "addr:full": "1362 American Way Court, , Virginia, 24523", "addr:street_address": "1362 American Way Court, ", "addr:city": "Bedford", "addr:state": "Virginia", "addr:postcode": "24523", "addr:country": "US", "phone": "540-586-3427", "website": "https://www.aus.com/lynchburg-security-system-services", "brand": "Allied Universal", "brand:wikidata": "Q4732537"}},
{"type": "Feature", "id": "X29NyiJebgEl9IDhH3to-KxT_to=", "properties": {"ref": "2010 Old Greenbrier Rd", "@spider": "allied_universal", "addr:full": "2010 Old Greenbrier Rd, Suite B, Virginia, 23320", "addr:street_address": "2010 Old Greenbrier Rd, Suite B", "addr:city": "Chesapeake", "addr:state": "Virginia", "addr:postcode": "23320", "addr:country": "US", "phone": "757-686-0226", "website": "https://www.aus.com/chesapeake-security-systems-services", "brand": "Allied Universal", "brand:wikidata": "Q4732537"}},
{"type": "Feature", "id": "TViNICTAw6uSlttSlctblkwupB0=", "properties": {"ref": "816 Greenbrier Circle", "@spider": "allied_universal", "addr:full": "816 Greenbrier Circle, , Virginia, 23320", "addr:street_address": "816 Greenbrier Circle, ", "addr:city": "Chesapeake", "addr:state": "Virginia", "addr:postcode": "23320", "addr:country": "US", "website": "https://www.aus.com/chesapeake-security-systems-services", "brand": "Allied Universal", "brand:wikidata": "Q4732537"}},
{"type": "Feature", "id": "gWxsNugTepOKRMRa4_77UEwWYEk=", "properties": {"ref": "45662 Terminal Drive", "@spider": "allied_universal", "addr:full": "45662 Terminal Drive, , Virginia, 20166", "addr:street_address": "45662 Terminal Drive, ", "addr:city": "Dulles", "addr:state": "Virginia", "addr:postcode": "20166", "addr:country": "US", "website": "https://www.aus.com/alexandria-building-security-systems-services", "brand": "Allied Universal", "brand:wikidata": "Q4732537"}},
{"type": "Feature", "id": "a_rU48_hHHfSE2Q8vhn_80CSnso=", "properties": {"ref": "320 South Main Street", "@spider": "allied_universal", "addr:full": "320 South Main Street, Suite 2C, Virginia, 22801", "addr:street_address": "320 South Main Street, Suite 2C", "addr:city": "Harrisonburg", "addr:state": "Virginia", "addr:postcode": "22801", "addr:country": "US", "phone": "703-368-6477", "website": "https://www.aus.com/harrisonburg-security-systems-services", "brand": "Allied Universal", "brand:wikidata": "Q4732537"}},
{"type": "Feature", "id": "PmwcAhcDalH2q-wetMmbQOS8lqc=", "properties": {"ref": "Allied Universal\u00ae Security Services", "@spider": "allied_universal", "addr:full": "Allied Universal\u00ae Security Services, , Virginia, 20191", "addr:street_address": "Allied Universal\u00ae Security Services, ", "addr:city": "Reston", "addr:state": "Virginia", "addr:postcode": "20191", "addr:country": "US", "phone": "703-998-5740", "website": "https://www.aus.com/alexandria-building-security-systems-services", "brand": "Allied Universal", "brand:wikidata": "Q4732537"}},
{"type": "Feature", "id": "ENOw-z1JHM4vtn8YVGji8RXaoWE=", "properties": {"ref": "303B Ashcake Road", "@spider": "allied_universal", "addr:full": "303B Ashcake Road, , Virginia, 23005", "addr:street_address": "303B Ashcake Road, ", "addr:city": "Ashland", "addr:state": "Virginia", "addr:postcode": "23005", "addr:country": "US", "phone": "804-222-4505", "website": "https://www.aus.com/richmond-commercial-security-systems-services", "brand": "Allied Universal", "brand:wikidata": "Q4732537"}},
{"type": "Feature", "id": "_nTvrMLTcolu7XFfIWaLMz8uTRo=", "properties": {"ref": "9030 Stony Point Parkway", "@spider": "allied_universal", "addr:full": "9030 Stony Point Parkway, Suite 470, Virginia, 23235", "addr:street_address": "9030 Stony Point Parkway, Suite 470", "addr:city": "Richmond", "addr:state": "Virginia", "addr:postcode": "23235", "addr:country": "US", "phone": "804-560-0162", "website": "https://www.aus.com/richmond-commercial-security-systems-services", "brand": "Allied Universal", "brand:wikidata": "Q4732537"}},
{"type": "Feature", "id": "XUvUzBfvc952-vXyAIaNISkSa0Y=", "properties": {"ref": "Blvd. del Mar 468 \u201cCorporativo Luis Fernando\u201d Oficina 27 Fracc.", "@spider": "allied_universal", "addr:full": "Blvd. del Mar 468 \u201cCorporativo Luis Fernando\u201d Oficina 27 Fracc., , Veracruz, 94299", "addr:street_address": "Blvd. del Mar 468 \u201cCorporativo Luis Fernando\u201d Oficina 27 Fracc., ", "addr:city": "Boca del R\u00edo", "addr:state": "Veracruz", "addr:postcode": "94299", "addr:country": "MX", "brand": "Allied Universal", "brand:wikidata": "Q4732537"}},
{"type": "Feature", "id": "abN3q8yJZ0T6kfJYzokDOpOBsUo=", "properties": {"ref": "118 Little Princess", "@spider": "allied_universal", "addr:full": "118 Little Princess, , VI, 00820", "addr:street_address": "118 Little Princess, ", "addr:city": "Christiansted", "addr:state": "VI", "addr:postcode": "00820", "addr:country": "U.S. Virgin Islands", "phone": "787-454-4627", "website": "https://www.aus.com/virgin-islands-security-system-services", "brand": "Allied Universal", "brand:wikidata": "Q4732537"}},
{"type": "Feature", "id": "nAqozT32DaiO8jBUvkkhyuK8jMM=", "properties": {"ref": "14645 NE Bel-Red Road, Bldg E", "@spider": "allied_universal", "addr:full": "14645 NE Bel-Red Road, Bldg E, Suite 201, Washington, 98007", "addr:street_address": "14645 NE Bel-Red Road, Bldg E, Suite 201", "addr:city": "Bellevue", "addr:state": "Washington", "addr:postcode": "98007", "addr:country": "US", "phone": "425-296-3017", "website": "https://www.aus.com/seattle-security-systems-services", "brand": "Allied Universal", "brand:wikidata": "Q4732537"}},
{"type": "Feature", "id": "qffddjlhg1Y0Xq-Y7aYUO9ANrhg=", "properties": {"ref": "4304 W 24th Avenue", "@spider": "allied_universal", "addr:full": "4304 W 24th Avenue, , Washington, 99338", "addr:street_address": "4304 W 24th Avenue, ", "addr:city": "Kennewick", "addr:state": "Washington", "addr:postcode": "99338", "addr:country": "US", "phone": "509-362-9466", "website": "https://www.aus.com/kennewick-security-system-services", "brand": "Allied Universal", "brand:wikidata": "Q4732537"}},
{"type": "Feature", "id": "OrmlTh1UWsCqhPtBAhTB1TSmUMU=", "properties": {"ref": "800 Occidental Avenue South", "@spider": "allied_universal", "addr:full": "800 Occidental Avenue South, Suite 100, Washington, 98134", "addr:street_address": "800 Occidental Avenue South, Suite 100", "addr:city": "Seattle", "addr:state": "Washington", "addr:postcode": "98134", "addr:country": "US", "phone": "206-381-7567", "website": "https://www.aus.com/seattle-security-systems-services", "brand": "Allied Universal", "brand:wikidata": "Q4732537"}},
{"type": "Feature", "id": "9NMUHr6gEs-r0nW14e3x0sqUb4Y=", "properties": {"ref": "801 S. Fidalgo Street", "@spider": "allied_universal", "addr:full": "801 S. Fidalgo Street, 2nd floor, Washington, 98108", "addr:street_address": "801 S. Fidalgo Street, 2nd floor", "addr:city": "Seattle", "addr:state": "Washington", "addr:postcode": "98108", "addr:country": "US", "phone": "206-448-4040", "website": "https://www.aus.com/seattle-security-systems-services", "brand": "Allied Universal", "brand:wikidata": "Q4732537"}},
{"type": "Feature", "id": "YTHdvSSYjx-lXbUTfkuypbz8Nxg=", "properties": {"ref": "14824 Westminster Way N.", "@spider": "allied_universal", "addr:full": "14824 Westminster Way N., , Washington, 98133", "addr:street_address": "14824 Westminster Way N., ", "addr:city": "Shoreline", "addr:state": "Washington", "addr:postcode": "98133", "addr:country": "US", "phone": "206-365-0760", "website": "https://www.aus.com/seattle-security-systems-services", "brand": "Allied Universal", "brand:wikidata": "Q4732537"}},
{"type": "Feature", "id": "JGMPLn2t6a-VsvLcDJthnSV3eUs=", "properties": {"ref": "1522 N. Washington Street", "@spider": "allied_universal", "addr:full": "1522 N. Washington Street, , Washington, 99201", "addr:street_address": "1522 N. Washington Street, ", "addr:city": "Spokane", "addr:state": "Washington", "addr:postcode": "99201", "addr:country": "US", "phone": "509-326-4040", "website": "https://www.aus.com/spokane-security-systems-services", "brand": "Allied Universal", "brand:wikidata": "Q4732537"}},
{"type": "Feature", "id": "LRsWcjK1dHAwf57TgKE2U_LgMt0=", "properties": {"ref": "2727 East D Street", "@spider": "allied_universal", "addr:full": "2727 East D Street, , Washington, 98421", "addr:street_address": "2727 East D Street, ", "addr:city": "Tacoma", "addr:state": "Washington", "addr:postcode": "98421", "addr:country": "US", "phone": "253-274-8320", "website": "https://www.aus.com/seattle-security-systems-services", "brand": "Allied Universal", "brand:wikidata": "Q4732537"}},
{"type": "Feature", "id": "YGwLPoD7V2L48XiIzYRA6ZuOmbo=", "properties": {"ref": "111 East Kilbourn Avenue", "@spider": "allied_universal", "addr:full": "111 East Kilbourn Avenue, , Wisconsin, 53202", "addr:street_address": "111 East Kilbourn Avenue, ", "addr:city": "Milwaukee", "addr:state": "Wisconsin", "addr:postcode": "53202", "addr:country": "US", "phone": "414-225-0371", "website": "https://www.aus.com/milwaukee-security-systems-services", "brand": "Allied Universal", "brand:wikidata": "Q4732537"}},
{"type": "Feature", "id": "2iqb-GT7yEo6moingSJOXWhIKfU=", "properties": {"ref": "1018 W. South Park Avenue", "@spider": "allied_universal", "addr:full": "1018 W. South Park Avenue, , Wisconsin, 54902", "addr:street_address": "1018 W. South Park Avenue, ", "addr:city": "Oshkosh", "addr:state": "Wisconsin", "addr:postcode": "54902", "addr:country": "US", "phone": "920-233-0042", "website": "https://www.aus.com/oshkosh-security-systems-services", "brand": "Allied Universal", "brand:wikidata": "Q4732537"}},
{"type": "Feature", "id": "JLofmycvFUDoO0cdHtg56jzbXkM=", "properties": {"ref": "1127 Prairie Drive", "@spider": "allied_universal", "addr:full": "1127 Prairie Drive, Suite 700, Wisconsin, 53406", "addr:street_address": "1127 Prairie Drive, Suite 700", "addr:city": "Racine", "addr:state": "Wisconsin", "addr:postcode": "53406", "addr:country": "US", "phone": "262-884-4876", "website": "https://www.aus.com/milwaukee-security-systems-services", "brand": "Allied Universal", "brand:wikidata": "Q4732537"}},
{"type": "Feature", "id": "o7hRIAPwlOKkkF2w50GTwCyWgJg=", "properties": {"ref": "110 Capitol Street", "@spider": "allied_universal", "addr:full": "110 Capitol Street, , West Virginia, 25301", "addr:street_address": "110 Capitol Street, ", "addr:city": "Charleston", "addr:state": "West Virginia", "addr:postcode": "25301", "addr:country": "US", "phone": "681-265-9350", "website": "https://www.aus.com/charleston-wv-security-systems-services", "brand": "Allied Universal", "brand:wikidata": "Q4732537"}},
{"type": "Feature", "id": "pNtnxMdmMHDJvJS8EZyAOYAX7po=", "properties": {"ref": "335 Aikens Center", "@spider": "allied_universal", "addr:full": "335 Aikens Center, , West Virginia, 25404", "addr:street_address": "335 Aikens Center, ", "addr:city": "Martinsburg", "addr:state": "West Virginia", "addr:postcode": "25404", "addr:country": "US", "website": "https://www.aus.com/martinsburg-security-system-services", "brand": "Allied Universal", "brand:wikidata": "Q4732537"}},
{"type": "Feature", "id": "-HKX6PcC10NiaKXX0nqDBp4ERto=", "properties": {"ref": "2333 MacCorkle Avenue", "@spider": "allied_universal", "addr:full": "2333 MacCorkle Avenue, , West Virginia, 25177", "addr:street_address": "2333 MacCorkle Avenue, ", "addr:city": "St. Albans", "addr:state": "West Virginia", "addr:postcode": "25177", "addr:country": "US", "website": "https://www.aus.com/charleston-security-system-services", "brand": "Allied Universal", "brand:wikidata": "Q4732537"}},
{"type": "Feature", "id": "PI5bDfurJdJp_YizgRlFZwxhIhc=", "properties": {"ref": "907 N. Poplar Avenue", "@spider": "allied_universal", "addr:full": "907 N. Poplar Avenue, , Wyoming, 82601", "addr:street_address": "907 N. Poplar Avenue, ", "addr:city": "Casper", "addr:state": "Wyoming", "addr:postcode": "82601", "addr:country": "US", "phone": "307-266-2774", "website": "https://www.aus.com/casper-security-system-services", "brand": "Allied Universal", "brand:wikidata": "Q4732537"}},
{"type": "Feature", "id": "CDU_Q3Z26UdQduFjW2JlaHS7ZXo=", "properties": {"ref": "Av. del Rogers Hall 164", "@spider": "allied_universal", "addr:full": "Av. del Rogers Hall 164, , Yucatan, 97127", "addr:street_address": "Av. del Rogers Hall 164, ", "addr:city": "M\u00e9rida", "addr:state": "Yucatan", "addr:postcode": "97127", "addr:country": "MX", "brand": "Allied Universal", "brand:wikidata": "Q4732537"}}]}