{"type":"FeatureCollection","features":[{"type": "Feature", "id": "8vWxv4Fc5goQxRRitRJ5Upt3guo=", "properties": {"ref": "{AF254C3E-2FFA-4521-B49F-4AC530864476}", "@spider": "alnatura_de", "organic": "only", "shop": "supermarket", "addr:street": "Heidelberger Stra\u00dfe 193", "addr:city": "Darmstadt", "addr:postcode": "64285", "addr:country": "Deutschland", "name": "Alnatura Super Natur Markt", "phone": "06151/9180728", "opening_hours": "Mo-Sa 08:00-20:00", "brand": "Alnatura", "brand:wikidata": "Q876811", "nsi_id": "alnatura-f97a5b"}, "geometry": {"type": "Point", "coordinates": [8.645755, 49.851147]}},
{"type": "Feature", "id": "ednxdb07kOo3gxfuqSkuqfqETI4=", "properties": {"ref": "{7F605099-5845-4F80-A2F9-53D9A92BBA51}", "@spider": "alnatura_de", "organic": "only", "shop": "supermarket", "addr:street": "Grafenstra\u00dfe 41", "addr:city": "Darmstadt", "addr:postcode": "64283", "addr:country": "Deutschland", "name": "Alnatura Super Natur Markt", "phone": "06151/294910", "opening_hours": "Mo-Sa 08:00-20:00", "brand": "Alnatura", "brand:wikidata": "Q876811", "nsi_id": "alnatura-f97a5b"}, "geometry": {"type": "Point", "coordinates": [8.64959, 49.870449]}},
{"type": "Feature", "id": "g1azdLfkFNYNxgee-3S7CI02kBU=", "properties": {"ref": "{08F2E749-0CAC-4E05-B116-1A91486DBA21}", "@spider": "alnatura_de", "organic": "only", "shop": "supermarket", "addr:street": "Rheinstra\u00dfe 39", "addr:city": "Darmstadt", "addr:postcode": "64283", "addr:country": "Deutschland", "name": "Alnatura Super Natur Markt", "phone": "06151/3969630", "opening_hours": "Mo-Sa 08:00-20:00", "brand": "Alnatura", "brand:wikidata": "Q876811", "nsi_id": "alnatura-f97a5b"}, "geometry": {"type": "Point", "coordinates": [8.644908, 49.872015]}},
{"type": "Feature", "id": "vc0n0w7UeLODEa4MLIYQS9W5yCs=", "properties": {"ref": "{87532EFC-8E2B-47A3-83BF-B598EECD9722}", "@spider": "alnatura_de", "organic": "only", "shop": "supermarket", "addr:street": "Karlsgraben 16-18", "addr:city": "Aachen", "addr:postcode": "52064", "addr:country": "Deutschland", "name": "Alnatura Super Natur Markt", "phone": "0241/91289864", "opening_hours": "Mo-Sa 07:00-20:00", "brand": "Alnatura", "brand:wikidata": "Q876811", "nsi_id": "alnatura-f97a5b"}, "geometry": {"type": "Point", "coordinates": [6.076277, 50.77353]}},
{"type": "Feature", "id": "a-OuM-5DNpTZ1yN0Oc1eWdL6SAM=", "properties": {"ref": "{65C441DC-0EC1-4BBD-9270-0BBE6501C580}", "@spider": "alnatura_de", "organic": "only", "shop": "supermarket", "addr:street": "Kapellenstr. 36-40", "addr:city": "Aachen", "addr:postcode": "52066", "addr:country": "Deutschland", "name": "Alnatura Super Natur Markt", "phone": "0241/99704794", "opening_hours": "Mo-Sa 08:00-20:00", "brand": "Alnatura", "brand:wikidata": "Q876811", "nsi_id": "alnatura-f97a5b"}, "geometry": {"type": "Point", "coordinates": [6.09308, 50.76036]}},
{"type": "Feature", "id": "LMhfBMJQvNjDR6LCUIWE5QpEL44=", "properties": {"ref": "{0287BD42-D8F0-49F3-A30D-EE3FFE6289AD}", "@spider": "alnatura_de", "organic": "only", "shop": "supermarket", "addr:street": "Jean-Weipert-Str. 3", "addr:city": "Offenbach", "addr:postcode": "63067", "addr:country": "Deutschland", "name": "Alnatura Super Natur Markt", "phone": "069/36609413", "opening_hours": "Mo-Sa 09:00-18:00", "brand": "Alnatura", "brand:wikidata": "Q876811", "nsi_id": "alnatura-f97a5b"}, "geometry": {"type": "Point", "coordinates": [8.756592, 50.112216]}},
{"type": "Feature", "id": "ztOzluTrg8hWdUwosU3YUWBqRyw=", "properties": {"ref": "{519A4AC8-7E05-4946-8CAA-8FBD990A97AC}", "@spider": "alnatura_de", "organic": "only", "shop": "supermarket", "addr:street": "Hedderichstra\u00dfe 47-49", "addr:city": "Frankfurt am Main", "addr:postcode": "60594", "addr:country": "Deutschland", "name": "Alnatura Super Natur Markt", "phone": "069/60504418", "opening_hours": "Mo-Sa 08:00-21:00", "brand": "Alnatura", "brand:wikidata": "Q876811", "nsi_id": "alnatura-f97a5b"}, "geometry": {"type": "Point", "coordinates": [8.686699, 50.100356]}},
{"type": "Feature", "id": "F1UnDEIN8-yTUTVtJBslZMy826c=", "properties": {"ref": "{1438BD1C-B138-4ECC-8C54-9B6644901D11}", "@spider": "alnatura_de", "organic": "only", "shop": "supermarket", "addr:street": "Hanauer Landstra\u00dfe 110", "addr:city": "Frankfurt", "addr:postcode": "60134", "addr:country": "Deutschland", "name": "Alnatura Super Natur Markt", "phone": "069/94340358", "opening_hours": "Mo-Fr 07:18-20:00", "brand": "Alnatura", "brand:wikidata": "Q876811", "nsi_id": "alnatura-f97a5b"}, "geometry": {"type": "Point", "coordinates": [8.70896, 50.11116]}},
{"type": "Feature", "id": "TWGnvhtn-4bevYqNuCvS44f6H5E=", "properties": {"ref": "{9018D37D-3BF7-4123-ADF3-A5B707E6EAB9}", "@spider": "alnatura_de", "organic": "only", "shop": "supermarket", "addr:street": "Schweizer Stra\u00dfe 80", "addr:city": "Frankfurt am Main", "addr:postcode": "60594", "addr:country": "Deutschland", "name": "Alnatura Super Natur Markt", "phone": "069/60627742", "opening_hours": "Mo-Sa 08:00-20:00", "brand": "Alnatura", "brand:wikidata": "Q876811", "nsi_id": "alnatura-f97a5b"}, "geometry": {"type": "Point", "coordinates": [8.681674, 50.100632]}},
{"type": "Feature", "id": "wm5DT0CiUVI59AGySpdOC30J7ik=", "properties": {"ref": "{F648EE40-D85B-46C0-9C95-AFEC7F40C521}", "@spider": "alnatura_de", "organic": "only", "shop": "supermarket", "addr:street": "Frankfurter Str. 77a", "addr:city": "Hochheim", "addr:postcode": "65239", "addr:country": "Deutschland", "name": "Alnatura Super Natur Markt", "phone": "06146-9069665", "opening_hours": "Mo-Sa 08:00-20:00", "brand": "Alnatura", "brand:wikidata": "Q876811", "nsi_id": "alnatura-f97a5b"}, "geometry": {"type": "Point", "coordinates": [8.36741, 50.01609]}},
{"type": "Feature", "id": "3Hjs4aOb2tKf11AQbRzOWuebzcs=", "properties": {"ref": "{6D11786D-30B9-486D-8C08-BE5D7BED34A2}", "@spider": "alnatura_de", "organic": "only", "shop": "supermarket", "addr:street": "Gro\u00dfe Langgasse 8", "addr:city": "Mainz", "addr:postcode": "55116", "addr:country": "Deutschland", "name": "Alnatura Super Natur Markt", "phone": "06131/218821", "opening_hours": "Mo-Sa 07:00-21:00", "brand": "Alnatura", "brand:wikidata": "Q876811", "nsi_id": "alnatura-f97a5b"}, "geometry": {"type": "Point", "coordinates": [8.268053, 49.999283]}},
{"type": "Feature", "id": "q0raXmTO8SPd27aIu4QIAEVG2zM=", "properties": {"ref": "{D5E46755-2B32-4629-B655-C45AA7D073CA}", "@spider": "alnatura_de", "organic": "only", "shop": "supermarket", "addr:street": "Burgstra\u00dfe 106", "addr:city": "Frankfurt am Main", "addr:postcode": "60389", "addr:country": "Deutschland", "name": "Alnatura Super Natur Markt", "phone": "069/29721778", "opening_hours": "Mo-Sa 08:00-20:00", "brand": "Alnatura", "brand:wikidata": "Q876811", "nsi_id": "alnatura-f97a5b"}, "geometry": {"type": "Point", "coordinates": [8.701579, 50.126433]}},
{"type": "Feature", "id": "cE5lp_UjcKDUz6t5hNZ6nyfZCEQ=", "properties": {"ref": "{CFCDBEC6-8E20-4791-A73A-F7B7FB71B866}", "@spider": "alnatura_de", "organic": "only", "shop": "supermarket", "addr:street": "Bockenheimer Landstra\u00dfe 13-15", "addr:city": "Frankfurt am Main", "addr:postcode": "60325", "addr:country": "Deutschland", "name": "Alnatura Super Natur Markt", "phone": "069/71677638", "opening_hours": "Mo-Sa 07:18-20:00", "brand": "Alnatura", "brand:wikidata": "Q876811", "nsi_id": "alnatura-f97a5b"}, "geometry": {"type": "Point", "coordinates": [8.66907, 50.11557]}},
{"type": "Feature", "id": "G_AEuAw0oBkWHNUNKExMv2xLcgo=", "properties": {"ref": "{25E4DE5E-99DA-4BD4-A1AF-370452852DCD}", "@spider": "alnatura_de", "organic": "only", "shop": "supermarket", "addr:street": "Eschersheimer Landstra\u00dfe 60", "addr:city": "Frankfurt am Main", "addr:postcode": "60322", "addr:country": "Deutschland", "name": "Alnatura Super Natur Markt", "phone": "069/36608963", "opening_hours": "Mo-Sa 08:00-21:00", "brand": "Alnatura", "brand:wikidata": "Q876811", "nsi_id": "alnatura-f97a5b"}, "geometry": {"type": "Point", "coordinates": [8.675984, 50.122142]}},
{"type": "Feature", "id": "ztff-ZQoNoD92zFk6_jlTHxk5i8=", "properties": {"ref": "{DE9C7BD2-5AC9-4625-9C67-613BC38EB824}", "@spider": "alnatura_de", "organic": "only", "shop": "supermarket", "addr:street": "Rheinallee 58 a", "addr:city": "Mainz", "addr:postcode": "55118", "addr:country": "Deutschland", "name": "Alnatura Super Natur Markt", "phone": "06131/6297171", "opening_hours": "Mo-Sa 07:00-21:00", "brand": "Alnatura", "brand:wikidata": "Q876811", "nsi_id": "alnatura-f97a5b"}, "geometry": {"type": "Point", "coordinates": [8.261072, 50.012269]}},
{"type": "Feature", "id": "Ehyi-ChJgepr95qbWCpj5ylLAPg=", "properties": {"ref": "{7971B939-EFED-44F5-9B81-95359866BD7F}", "@spider": "alnatura_de", "organic": "only", "shop": "supermarket", "addr:street": "Leipziger Stra\u00dfe 19", "addr:city": "Frankfurt am Main", "addr:postcode": "60486", "addr:country": "Deutschland", "name": "Alnatura Super Natur Markt", "phone": "069/79534730", "opening_hours": "Mo-Sa 08:00-21:00", "brand": "Alnatura", "brand:wikidata": "Q876811", "nsi_id": "alnatura-f97a5b"}, "geometry": {"type": "Point", "coordinates": [8.647472, 50.121106]}},
{"type": "Feature", "id": "8UU0fnBmDJhUY_5UtX3lVJ_Swcs=", "properties": {"ref": "{A68813E7-AF73-4204-8FD0-B75EF4CCA2E7}", "@spider": "alnatura_de", "organic": "only", "shop": "supermarket", "addr:street": "Carl-Jordan-Str. 17", "addr:city": "Kolbermoor", "addr:postcode": "83059", "addr:country": "Deutschland", "name": "Alnatura Super Natur Markt", "phone": "08031/4011707", "opening_hours": "Mo-Sa 08:00-20:00", "brand": "Alnatura", "brand:wikidata": "Q876811", "nsi_id": "alnatura-f97a5b"}, "geometry": {"type": "Point", "coordinates": [12.065621, 47.84321]}},
{"type": "Feature", "id": "zGhLsfUcnoa1p98JM-6CSZ3FA8k=", "properties": {"ref": "{F88593B8-2615-473E-A749-5825B2960CFF}", "@spider": "alnatura_de", "organic": "only", "shop": "supermarket", "addr:street": "B\u00f6lschestr. 63", "addr:city": "Berlin", "addr:postcode": "12587", "addr:country": "Deutschland", "name": "Alnatura Super Natur Markt", "phone": "030/60033397", "opening_hours": "Mo-Sa 08:00-20:00", "brand": "Alnatura", "brand:wikidata": "Q876811", "nsi_id": "alnatura-f97a5b"}, "geometry": {"type": "Point", "coordinates": [13.62552, 52.45522]}},
{"type": "Feature", "id": "ZO_JJ8Z46ATGVXnh1aHCR3gQBX4=", "properties": {"ref": "{D7B84A89-0984-4A1A-88E8-81E510FD4A9A}", "@spider": "alnatura_de", "organic": "only", "shop": "supermarket", "addr:street": "Karl-Hermann-Weg 4", "addr:city": "Unterhaching", "addr:postcode": "82008", "addr:country": "Deutschland", "name": "Alnatura Super Natur Markt", "phone": "089/23716961", "opening_hours": "Mo-Sa 08:00-20:00", "brand": "Alnatura", "brand:wikidata": "Q876811", "nsi_id": "alnatura-f97a5b"}, "geometry": {"type": "Point", "coordinates": [11.60558, 48.05541]}},
{"type": "Feature", "id": "HJ8MF4XJ6nW7s1V15RwF7FMlXP4=", "properties": {"ref": "{A4AFB905-44DF-4C04-92B5-575EEDD26775}", "@spider": "alnatura_de", "organic": "only", "shop": "supermarket", "addr:street": "Hafelhofweg 2", "addr:city": "M\u00fcnchen", "addr:postcode": "81825", "addr:country": "Deutschland", "name": "Alnatura Super Natur Markt", "phone": "089/66548691", "opening_hours": "Mo-Sa 07:00-20:00", "brand": "Alnatura", "brand:wikidata": "Q876811", "nsi_id": "alnatura-f97a5b"}, "geometry": {"type": "Point", "coordinates": [11.671615, 48.12312]}},
{"type": "Feature", "id": "GHcK58eRs2YZ9qd-T1RtyQIY_L4=", "properties": {"ref": "{B88DBE92-A35B-456B-ABB0-A28651A7005B}", "@spider": "alnatura_de", "organic": "only", "shop": "supermarket", "addr:street": "Greifswalder Str. 89", "addr:city": "Berlin", "addr:postcode": "10409", "addr:country": "Deutschland", "name": "Alnatura Super Natur Markt", "phone": "030/40048649", "opening_hours": "Mo-Sa 08:00-21:00", "brand": "Alnatura", "brand:wikidata": "Q876811", "nsi_id": "alnatura-f97a5b"}, "geometry": {"type": "Point", "coordinates": [13.44177, 52.54316]}},
{"type": "Feature", "id": "mMWeG_6TsgglTHtGPznmDfzjrwY=", "properties": {"ref": "{7054D923-F0D7-4558-9D49-CDB2A1ECF870}", "@spider": "alnatura_de", "organic": "only", "shop": "supermarket", "addr:street": "Theodor-Fontane-Str. 10", "addr:city": "Aschheim", "addr:postcode": "85609", "addr:country": "Deutschland", "name": "Alnatura Super Natur Markt", "phone": "089/90019313", "opening_hours": "Mo-Sa 08:00-20:00", "brand": "Alnatura", "brand:wikidata": "Q876811", "nsi_id": "alnatura-f97a5b"}, "geometry": {"type": "Point", "coordinates": [11.730633, 48.164423]}},
{"type": "Feature", "id": "GSKIvQc4tlmSRx0gw4HFp3xH7RM=", "properties": {"ref": "{FF067478-B0E7-44B9-894D-E5A12922A122}", "@spider": "alnatura_de", "organic": "only", "shop": "supermarket", "addr:street": "Sch\u00f6nhauser Allee 108", "addr:city": "Berlin", "addr:postcode": "10439", "addr:country": "Deutschland", "name": "Alnatura Super Natur Markt", "phone": "030/40045154", "opening_hours": "Mo-Sa 08:18-21:00", "brand": "Alnatura", "brand:wikidata": "Q876811", "nsi_id": "alnatura-f97a5b"}, "geometry": {"type": "Point", "coordinates": [13.413904, 52.551923]}},
{"type": "Feature", "id": "WA2Rzqu5iqarFWl6nkqnB6FdT1Y=", "properties": {"ref": "{7CDBDD8A-AE46-426C-B076-9D2419BD6DD9}", "@spider": "alnatura_de", "organic": "only", "shop": "supermarket", "addr:street": "Koppenstr. 8", "addr:city": "Berlin", "addr:postcode": "10243", "addr:country": "Deutschland", "name": "Alnatura Super Natur Markt", "phone": "030/35651830", "opening_hours": "Mo-Sa 07:00-21:00", "brand": "Alnatura", "brand:wikidata": "Q876811", "nsi_id": "alnatura-f97a5b"}, "geometry": {"type": "Point", "coordinates": [13.433987, 52.512673]}},
{"type": "Feature", "id": "_o8KiXCBhZEEtUQ6n7LJ1cnSsC0=", "properties": {"ref": "{BCB6B66E-5FBB-4AE9-8108-FE2ABD090ABE}", "@spider": "alnatura_de", "organic": "only", "shop": "supermarket", "addr:street": "Alte Jakobstra\u00dfe 79/80", "addr:city": "Berlin", "addr:postcode": "10179", "addr:country": "Deutschland", "name": "Alnatura Super Natur Markt", "phone": "030/24723593", "opening_hours": "Mo-Fr 07:18-20:00", "brand": "Alnatura", "brand:wikidata": "Q876811", "nsi_id": "alnatura-f97a5b"}, "geometry": {"type": "Point", "coordinates": [13.407899, 52.5101]}},
{"type": "Feature", "id": "Zl6gltX2_6JQeXWN0gfXe4LKJ4s=", "properties": {"ref": "{A0C5C020-D87E-4927-8EE7-FB636185B1D1}", "@spider": "alnatura_de", "organic": "only", "shop": "supermarket", "addr:street": "Wei\u00dfenburger Stra\u00dfe 20 ", "addr:city": "M\u00fcnchen", "addr:postcode": "81667", "addr:country": "Deutschland", "name": "Alnatura Super Natur Markt", "phone": "089/20329188", "opening_hours": "Mo-Sa 07:00-20:00", "brand": "Alnatura", "brand:wikidata": "Q876811", "nsi_id": "alnatura-f97a5b"}, "geometry": {"type": "Point", "coordinates": [11.597732, 48.128382]}},
{"type": "Feature", "id": "NW0oNUX-VBnqHXoWY13CEfq19Fw=", "properties": {"ref": "{82727344-3EEB-4B0F-B819-C51623E25404}", "@spider": "alnatura_de", "organic": "only", "shop": "supermarket", "addr:street": "Gautinger Stra\u00dfe 1c", "addr:city": "Starnberg", "addr:postcode": "82319", "addr:country": "Deutschland", "name": "Alnatura Super Natur Markt", "phone": "08151/9793802", "opening_hours": "Mo-Sa 08:00-20:00", "brand": "Alnatura", "brand:wikidata": "Q876811", "nsi_id": "alnatura-f97a5b"}, "geometry": {"type": "Point", "coordinates": [11.349369, 48.003169]}},
{"type": "Feature", "id": "QmhxN1WJRln73xF3zP5HQk_PmB4=", "properties": {"ref": "{8CFA51EC-0370-422A-A511-8D11983F1865}", "@spider": "alnatura_de", "organic": "only", "shop": "supermarket", "addr:street": "Chausseestr. 10", "addr:city": "Berlin", "addr:postcode": "10115", "addr:country": "Deutschland", "name": "Alnatura Super Natur Markt", "phone": "030/28042022", "opening_hours": "Mo-Sa 08:00-21:00", "brand": "Alnatura", "brand:wikidata": "Q876811", "nsi_id": "alnatura-f97a5b"}, "geometry": {"type": "Point", "coordinates": [13.386247, 52.528533]}},
{"type": "Feature", "id": "vaTRLs4C-GzG2LiPvjpuMybDkUg=", "properties": {"ref": "{23D235D5-7A3C-41F8-9751-C8A368925FB8}", "@spider": "alnatura_de", "organic": "only", "shop": "supermarket", "addr:street": "Boschetsrieder Stra\u00dfe 72", "addr:city": "M\u00fcnchen", "addr:postcode": "81379", "addr:country": "Deutschland", "name": "Alnatura Super Natur Markt", "phone": "089/78018489", "opening_hours": "Mo-Sa 08:00-20:00", "brand": "Alnatura", "brand:wikidata": "Q876811", "nsi_id": "alnatura-f97a5b"}, "geometry": {"type": "Point", "coordinates": [11.528448, 48.099863]}},
{"type": "Feature", "id": "6AMJ_i5gEtwN-Up3z2uxUfwQkDE=", "properties": {"ref": "{35F3071D-E6AA-4299-BACA-1F4B9A5C4B10}", "@spider": "alnatura_de", "organic": "only", "shop": "supermarket", "addr:street": "Friedrichstra\u00dfe 191", "addr:city": "Berlin", "addr:postcode": "10117", "addr:country": "Deutschland", "name": "Alnatura Super Natur Markt", "phone": "030/80492853", "opening_hours": "Mo-Sa 08:00-21:00", "brand": "Alnatura", "brand:wikidata": "Q876811", "nsi_id": "alnatura-f97a5b"}, "geometry": {"type": "Point", "coordinates": [13.389658, 52.510791]}},
{"type": "Feature", "id": "gV42ztevXEnWFvP5wcht7U09rZc=", "properties": {"ref": "{88C51D83-DEBF-47E2-815C-1D518A93FD62}", "@spider": "alnatura_de", "organic": "only", "shop": "supermarket", "addr:street": "Kistlerhofstr. 243a", "addr:city": "M\u00fcnchen", "addr:postcode": "81379", "addr:country": "Deutschland", "name": "Alnatura Super Natur Markt", "phone": "089/72480554", "opening_hours": "Mo-Sa 07:00-20:00", "brand": "Alnatura", "brand:wikidata": "Q876811", "nsi_id": "alnatura-f97a5b"}, "geometry": {"type": "Point", "coordinates": [11.50778, 48.09394]}},
{"type": "Feature", "id": "1RvMvGDjbIwIuJzVopM99Mi-4N4=", "properties": {"ref": "{27E5466A-15E5-4226-A210-A77A8F717D1E}", "@spider": "alnatura_de", "organic": "only", "shop": "supermarket", "addr:street": "Schleiermacherstra\u00dfe 25", "addr:city": "Berlin", "addr:postcode": "10961", "addr:country": "Deutschland", "name": "Alnatura Super Natur Markt", "phone": "030/61201349", "opening_hours": "Mo-Sa 08:00-21:00", "brand": "Alnatura", "brand:wikidata": "Q876811", "nsi_id": "alnatura-f97a5b"}, "geometry": {"type": "Point", "coordinates": [13.397613, 52.489483]}},
{"type": "Feature", "id": "8TIfjaez62UQT2cZ7AMXxgZ0Js4=", "properties": {"ref": "{61BBE7F6-1D48-4483-A988-9E453E67038A}", "@spider": "alnatura_de", "organic": "only", "shop": "supermarket", "addr:street": "Lindwurmstr. 117", "addr:city": "M\u00fcnchen", "addr:postcode": "80337", "addr:country": "Deutschland", "name": "Alnatura Super Natur Markt", "phone": "089/76701794", "opening_hours": "Mo-Sa 07:00-20:00", "brand": "Alnatura", "brand:wikidata": "Q876811", "nsi_id": "alnatura-f97a5b"}, "geometry": {"type": "Point", "coordinates": [11.554844, 48.127623]}},
{"type": "Feature", "id": "KNVy0zKdDIucH-TtviMEHNmmBvI=", "properties": {"ref": "{127E2E4F-A962-4A31-8743-035922DA7320}", "@spider": "alnatura_de", "organic": "only", "shop": "supermarket", "addr:street": "Ludolfinger Platz 8a", "addr:city": "Berlin", "addr:postcode": "13465", "addr:country": "Deutschland", "name": "Alnatura Super Natur Markt", "phone": "030/40104139", "opening_hours": "Mo-Sa 08:00-20:00", "brand": "Alnatura", "brand:wikidata": "Q876811", "nsi_id": "alnatura-f97a5b"}, "geometry": {"type": "Point", "coordinates": [13.286874, 52.632404]}},
{"type": "Feature", "id": "j6LzBqz-RP4-CDxpkjGLfE7ig5s=", "properties": {"ref": "{C2AE6309-1048-47CE-9673-2E5CC267B4D4}", "@spider": "alnatura_de", "organic": "only", "shop": "supermarket", "addr:street": "Ollenhauerstr. 106 A", "addr:city": "Berlin", "addr:postcode": "13403", "addr:country": "Deutschland", "name": "Alnatura Super Natur Markt", "phone": "030/41202014", "opening_hours": "Mo-Sa 08:00-20:00", "brand": "Alnatura", "brand:wikidata": "Q876811", "nsi_id": "alnatura-f97a5b"}, "geometry": {"type": "Point", "coordinates": [13.33019, 52.57029]}},
{"type": "Feature", "id": "1FInfuVM4wz0Nbgv95eI4H_rNqE=", "properties": {"ref": "{D1BBD523-E32E-4C59-8B6C-0FFCBF3EFEC3}", "@spider": "alnatura_de", "organic": "only", "shop": "supermarket", "addr:street": "Leopoldstra\u00dfe 64 ", "addr:city": "M\u00fcnchen", "addr:postcode": "80802", "addr:country": "Deutschland", "name": "Alnatura Super Natur Markt", "phone": "089/38859815", "opening_hours": "Mo-Sa 07:18-20:00", "brand": "Alnatura", "brand:wikidata": "Q876811", "nsi_id": "alnatura-f97a5b"}, "geometry": {"type": "Point", "coordinates": [11.58569, 48.1597]}},
{"type": "Feature", "id": "pIlsUOr8fPD3TMX5OU9zNQL6yHc=", "properties": {"ref": "{D8CC1C90-BDE0-4FAF-AB12-D8B3C29D8CA6}", "@spider": "alnatura_de", "organic": "only", "shop": "supermarket", "addr:street": "M\u00fcnchner Freiheit 7", "addr:city": "M\u00fcnchen", "addr:postcode": "80802", "addr:country": "Deutschland", "name": "Alnatura Super Natur Markt", "phone": "089/37910444", "opening_hours": "Mo-Sa 07:18-20:00", "brand": "Alnatura", "brand:wikidata": "Q876811", "nsi_id": "alnatura-f97a5b"}, "geometry": {"type": "Point", "coordinates": [11.586617, 48.162865]}},
{"type": "Feature", "id": "B-AB3vMb40Bj_iuoMfMBVDA3Z4A=", "properties": {"ref": "{43C9C2AA-E47F-4D45-BFEF-1ADCF849FF0D}", "@spider": "alnatura_de", "organic": "only", "shop": "supermarket", "addr:street": "Else-Lasker-Sch\u00fcler-Str. 18-22", "addr:city": "Berlin", "addr:postcode": "10783", "addr:country": "Deutschland", "name": "Alnatura Super Natur Markt", "phone": "030/25759621", "opening_hours": "Mo-Sa 08:00-21:00", "brand": "Alnatura", "brand:wikidata": "Q876811", "nsi_id": "alnatura-f97a5b"}, "geometry": {"type": "Point", "coordinates": [13.354486, 52.500101]}},
{"type": "Feature", "id": "URBQBESmT5TTYj_BjouwRqFagTg=", "properties": {"ref": "{3E8286EF-51CB-4859-AE09-0871E8AAF36E}", "@spider": "alnatura_de", "organic": "only", "shop": "supermarket", "addr:street": "Turmstra\u00dfe 72/73", "addr:city": "Berlin", "addr:postcode": "10551", "addr:country": "Deutschland", "name": "Alnatura Super Natur Markt", "phone": "030/39745339", "opening_hours": "Mo-Sa 08:00-21:00", "brand": "Alnatura", "brand:wikidata": "Q876811", "nsi_id": "alnatura-f97a5b"}, "geometry": {"type": "Point", "coordinates": [13.332767, 52.526782]}},
{"type": "Feature", "id": "kDTmvyjGUgudE4mEQXXy_dKtdZM=", "properties": {"ref": "{9A048611-932A-4B73-A314-FF047DD74834}", "@spider": "alnatura_de", "organic": "only", "shop": "supermarket", "addr:street": "Bautzner Stra\u00dfe 87", "addr:city": "Dresden", "addr:postcode": "01099", "addr:country": "Deutschland", "name": "Alnatura Super Natur Markt", "phone": "0351/81056590", "opening_hours": "Mo-Sa 08:00-21:00", "brand": "Alnatura", "brand:wikidata": "Q876811", "nsi_id": "alnatura-f97a5b"}, "geometry": {"type": "Point", "coordinates": [13.760046, 51.063809]}},
{"type": "Feature", "id": "Q7j-0f8seLq9EC8dlWKLEX9cwww=", "properties": {"ref": "{0F1AAF21-2A12-4856-A979-9DEAF3EF29E0}", "@spider": "alnatura_de", "organic": "only", "shop": "supermarket", "addr:street": "Bernstorffstra\u00dfe 13", "addr:city": "Berlin", "addr:postcode": "13507", "addr:country": "Deutschland", "name": "Alnatura Super Natur Markt", "phone": "030/41744491", "opening_hours": "Mo-Sa 08:00-20:00", "brand": "Alnatura", "brand:wikidata": "Q876811", "nsi_id": "alnatura-f97a5b"}, "geometry": {"type": "Point", "coordinates": [13.285722, 52.590907]}},
{"type": "Feature", "id": "a6Nj7ZbNQVxMdOuOoH854Rl9APk=", "properties": {"ref": "{1ED3E019-38A5-47C9-AC92-FDCF3BF58C64}", "@spider": "alnatura_de", "organic": "only", "shop": "supermarket", "addr:street": "Stra\u00dfburger Platz 1", "addr:city": "Dresden", "addr:postcode": "1307", "addr:country": "Deutschland", "name": "Alnatura Super Natur Markt", "phone": "0351/44695800", "opening_hours": "Mo-Sa 08:00-20:00", "brand": "Alnatura", "brand:wikidata": "Q876811", "nsi_id": "alnatura-f97a5b"}, "geometry": {"type": "Point", "coordinates": [13.755734, 51.045775]}},
{"type": "Feature", "id": "eSOyL0rBQisXgmNswCrEiU8JQ2Y=", "properties": {"ref": "{2CA5B73B-C204-4135-87EB-075C53CF5EB1}", "@spider": "alnatura_de", "organic": "only", "shop": "supermarket", "addr:street": "Nymphenburger Str. 158", "addr:city": "M\u00fcnchen", "addr:postcode": "80634", "addr:country": "Deutschland", "name": "Alnatura Super Natur Markt", "phone": "089/14330070", "opening_hours": "Mo-Sa 08:00-20:00", "brand": "Alnatura", "brand:wikidata": "Q876811", "nsi_id": "alnatura-f97a5b"}, "geometry": {"type": "Point", "coordinates": [11.53455, 48.15289]}},
{"type": "Feature", "id": "wNi-hRJgODpQO8Mq6I4RuP59bss=", "properties": {"ref": "{E8544216-4B3C-4413-8B78-B3A1453EEBCD}", "@spider": "alnatura_de", "organic": "only", "shop": "supermarket", "addr:street": "Friedenheimer Br\u00fccke 23", "addr:city": "M\u00fcnchen", "addr:postcode": "80639", "addr:country": "Deutschland", "name": "Alnatura Super Natur Markt", "phone": "089/20060740", "opening_hours": "Mo-Sa 07:18-20:00", "brand": "Alnatura", "brand:wikidata": "Q876811", "nsi_id": "alnatura-f97a5b"}, "geometry": {"type": "Point", "coordinates": [11.520126, 48.145542]}},
{"type": "Feature", "id": "512Jmxmnk9vTXOs-s9_c8ORMktw=", "properties": {"ref": "{DE3064A9-1265-4C5B-861E-C72BDB69CB7D}", "@spider": "alnatura_de", "organic": "only", "shop": "supermarket", "addr:street": "Wilmersdorferstr. 46", "addr:city": "Berlin", "addr:postcode": "10627", "addr:country": "Deutschland", "name": "Alnatura Super Natur Markt", "phone": "030/31997617", "opening_hours": "Mo-Sa 08:00-21:00", "brand": "Alnatura", "brand:wikidata": "Q876811", "nsi_id": "alnatura-f97a5b"}, "geometry": {"type": "Point", "coordinates": [13.306505, 52.507326]}},
{"type": "Feature", "id": "8AgLjC_NdY_3uGmoI5qyk5DS9_o=", "properties": {"ref": "{117E6F9A-A30C-4583-8B89-2296FEBE4257}", "@spider": "alnatura_de", "organic": "only", "shop": "supermarket", "addr:street": "Konstanzer Str. 2", "addr:city": "Berlin", "addr:postcode": "10707", "addr:country": "Deutschland", "name": "Alnatura Super Natur Markt", "phone": "030/88927030", "opening_hours": "Mo-Sa 08:00-21:00", "brand": "Alnatura", "brand:wikidata": "Q876811", "nsi_id": "alnatura-f97a5b"}, "geometry": {"type": "Point", "coordinates": [13.31205, 52.498679]}},
{"type": "Feature", "id": "RUjW5i_Yh1ds681P9PJ8Kyd2JRc=", "properties": {"ref": "{8D8E4223-4008-4DD1-B44D-9679B857ABEB}", "@spider": "alnatura_de", "organic": "only", "shop": "supermarket", "addr:street": "Giesebrechtstra\u00dfe 4", "addr:city": "Berlin", "addr:postcode": "10629", "addr:country": "Deutschland", "name": "Alnatura Super Natur Markt", "phone": "030/88917905", "opening_hours": "Mo-Sa 07:18-21:00", "brand": "Alnatura", "brand:wikidata": "Q876811", "nsi_id": "alnatura-f97a5b"}, "geometry": {"type": "Point", "coordinates": [13.30907, 52.50234]}},
{"type": "Feature", "id": "GDGb5g0SwJcoFs1giN7GZjSurn4=", "properties": {"ref": "{E128938D-4ABF-40E3-88C4-5A8593A5EB23}", "@spider": "alnatura_de", "organic": "only", "shop": "supermarket", "addr:street": "Ingolst\u00e4dter Stra\u00dfe 172", "addr:city": "M\u00fcnchen", "addr:postcode": "80939", "addr:country": "Deutschland", "name": "Alnatura Super Natur Markt", "phone": "089/31907239", "opening_hours": "Mo-Sa 08:00-20:00", "brand": "Alnatura", "brand:wikidata": "Q876811", "nsi_id": "alnatura-f97a5b"}, "geometry": {"type": "Point", "coordinates": [11.58646, 48.20503]}},
{"type": "Feature", "id": "bkXOTjwNw5oUpvKez67a4Hh2nFI=", "properties": {"ref": "{CABF0895-32E7-41F9-9FF0-726402D1A263}", "@spider": "alnatura_de", "organic": "only", "shop": "supermarket", "addr:street": "Landsberger Stra\u00dfe 480-482", "addr:city": "M\u00fcnchen", "addr:postcode": "81241", "addr:country": "Deutschland", "name": "Alnatura Super Natur Markt", "phone": "089/82005696", "opening_hours": "Mo-Sa 07:00-20:00", "brand": "Alnatura", "brand:wikidata": "Q876811", "nsi_id": "alnatura-f97a5b"}, "geometry": {"type": "Point", "coordinates": [11.464205, 48.146438]}},
{"type": "Feature", "id": "SuRZzaoPI-13gbgb_slqDIg_rWc=", "properties": {"ref": "{436253C7-3D56-40E1-8C3B-238C21E69174}", "@spider": "alnatura_de", "organic": "only", "shop": "supermarket", "addr:street": "Jungfernstieg 1-2", "addr:city": "Berlin", "addr:postcode": "12207", "addr:country": "Deutschland", "name": "Alnatura Super Natur Markt", "phone": "030/76683355", "opening_hours": "Mo-Sa 08:00-20:00", "brand": "Alnatura", "brand:wikidata": "Q876811", "nsi_id": "alnatura-f97a5b"}, "geometry": {"type": "Point", "coordinates": [13.32555, 52.42826]}},
{"type": "Feature", "id": "jBedZLo8TPmn3weVepjLWNvZaqQ=", "properties": {"ref": "{08C9E25D-4C64-4CFB-8979-E59BB701CF45}", "@spider": "alnatura_de", "organic": "only", "shop": "supermarket", "addr:street": "Hans-Sachs-Stra\u00dfe 4 b-c", "addr:city": "Berlin", "addr:postcode": "12205", "addr:country": "Deutschland", "name": "Alnatura Super Natur Markt", "opening_hours": "Mo-Sa 08:00-21:00", "brand": "Alnatura", "brand:wikidata": "Q876811", "nsi_id": "alnatura-f97a5b"}, "geometry": {"type": "Point", "coordinates": [13.293931, 52.442788]}},
{"type": "Feature", "id": "nkbk4HoBMSbiZ-OmZElgT1UsesE=", "properties": {"ref": "{5C96B336-0D0A-4E38-8045-D64EC72757D6}", "@spider": "alnatura_de", "organic": "only", "shop": "supermarket", "addr:street": "Heerstra\u00dfe 221", "addr:city": "Berlin", "addr:postcode": "13595", "addr:country": "Deutschland", "name": "Alnatura Super Natur Markt", "phone": "030/67815724", "opening_hours": "Mo-Sa 08:00-20:00", "brand": "Alnatura", "brand:wikidata": "Q876811", "nsi_id": "alnatura-f97a5b"}, "geometry": {"type": "Point", "coordinates": [13.19635, 52.512592]}},
{"type": "Feature", "id": "3h9eKQdiSvLwXNd2SKHELbS6Ffc=", "properties": {"ref": "{9091F74A-561E-4135-BA1C-D24B1AC24C8A}", "@spider": "alnatura_de", "organic": "only", "shop": "supermarket", "addr:street": "Waitzstra\u00dfe  75c", "addr:city": "Kiel", "addr:postcode": "24105", "addr:country": "Deutschland", "name": "Alnatura Super Natur Markt", "opening_hours": "Mo-Sa 07:00-20:00", "brand": "Alnatura", "brand:wikidata": "Q876811", "nsi_id": "alnatura-f97a5b"}, "geometry": {"type": "Point", "coordinates": [10.13025, 54.33528]}},
{"type": "Feature", "id": "B_8WzLj_PY97wkfSgDfqVodZ2FI=", "properties": {"ref": "{60187507-FC82-4D5A-8854-16A6F7BF004E}", "@spider": "alnatura_de", "organic": "only", "shop": "supermarket", "addr:street": "Bahnhofstra\u00dfe 135", "addr:city": "Dallgow-D\u00f6beritz", "addr:postcode": "14624", "addr:country": "Deutschland", "name": "Alnatura Super Natur Markt", "phone": "03322/4297653", "opening_hours": "Mo-Sa 07:18-20:00", "brand": "Alnatura", "brand:wikidata": "Q876811", "nsi_id": "alnatura-f97a5b"}, "geometry": {"type": "Point", "coordinates": [13.062562, 52.542709]}},
{"type": "Feature", "id": "OvITKeEI6nD1GcTmSzSjixwGRKM=", "properties": {"ref": "{080DCDB3-C973-4EBB-809B-8295D497B40E}", "@spider": "alnatura_de", "organic": "only", "shop": "supermarket", "addr:street": "Augsburger Stra\u00dfe 46", "addr:city": "Landsberg am Lech", "addr:postcode": "86899", "addr:country": "Deutschland", "name": "Alnatura Super Natur Markt", "phone": "08191/4019807", "opening_hours": "Mo-Sa 08:00-20:00", "brand": "Alnatura", "brand:wikidata": "Q876811", "nsi_id": "alnatura-f97a5b"}, "geometry": {"type": "Point", "coordinates": [10.86772, 48.06093]}},
{"type": "Feature", "id": "9V90Z_pt3r_qHTAHvxSGigXlCG8=", "properties": {"ref": "{B9D68440-FC32-4AE7-BBC7-987E00585BBE}", "@spider": "alnatura_de", "organic": "only", "shop": "supermarket", "addr:street": "Hebbelstr. 1D", "addr:city": "Potsdam", "addr:postcode": "14467", "addr:country": "Deutschland", "name": "Alnatura Super Natur Markt", "phone": "0331/23704473", "opening_hours": "Mo-Sa 08:00-20:00", "brand": "Alnatura", "brand:wikidata": "Q876811", "nsi_id": "alnatura-f97a5b"}, "geometry": {"type": "Point", "coordinates": [13.063268, 52.400967]}},
{"type": "Feature", "id": "HbvZShIF46qv3mIPhhcmr_h0xSw=", "properties": {"ref": "{E918D158-66D9-464D-B8BF-96895F11A650}", "@spider": "alnatura_de", "organic": "only", "shop": "supermarket", "addr:street": "M\u00fcnzgasse 4a", "addr:city": "Konstanz", "addr:postcode": "78462", "addr:country": "Deutschland", "name": "Alnatura Super Natur Markt", "phone": "07531/2843356", "opening_hours": "Mo-Sa 08:00-20:00", "brand": "Alnatura", "brand:wikidata": "Q876811", "nsi_id": "alnatura-f97a5b"}, "geometry": {"type": "Point", "coordinates": [9.176318, 47.66104]}},
{"type": "Feature", "id": "RcI0Kwx_BzWGc0dV8T5acv_LYUc=", "properties": {"ref": "{A9A11DE0-8B45-4AB9-AF49-3E999BD3B50B}", "@spider": "alnatura_de", "organic": "only", "shop": "supermarket", "addr:street": "Markgrafenstra\u00dfe 42", "addr:city": "Grenzach-Wyhlen", "addr:postcode": "79639", "addr:country": "Deutschland", "name": "Alnatura Super Natur Markt", "phone": "07624/9847472", "opening_hours": "Mo-Sa 08:00-20:00", "brand": "Alnatura", "brand:wikidata": "Q876811", "nsi_id": "alnatura-f97a5b"}, "geometry": {"type": "Point", "coordinates": [7.665888, 47.551304]}},
{"type": "Feature", "id": "D98asOqZjiKHcjqlENGXfY0UwVg=", "properties": {"ref": "{02E4755C-A381-44EE-B1A5-24649C5785F9}", "@spider": "alnatura_de", "organic": "only", "shop": "supermarket", "addr:street": "Alte Basler Str. 2", "addr:city": "Bad S\u00e4ckingen", "addr:postcode": "79713", "addr:country": "Deutschland", "name": "Alnatura Super Natur Markt", "phone": "07761/9339782", "opening_hours": "Mo-Sa 08:18-20:00", "brand": "Alnatura", "brand:wikidata": "Q876811", "nsi_id": "alnatura-f97a5b"}, "geometry": {"type": "Point", "coordinates": [7.947474, 47.554754]}},
{"type": "Feature", "id": "OM42oME2tVBRdzM6dw_87kqG0zc=", "properties": {"ref": "{B2105ED6-F3A1-4E53-80B0-B372323FD2EE}", "@spider": "alnatura_de", "organic": "only", "shop": "supermarket", "addr:street": "Eisenbahnstr. 42", "addr:city": "Ravensburg", "addr:postcode": "88212", "addr:country": "Deutschland", "name": "Alnatura Super Natur Markt", "phone": "0751/36298840", "opening_hours": "Mo-Sa 08:00-20:00", "brand": "Alnatura", "brand:wikidata": "Q876811", "nsi_id": "alnatura-f97a5b"}, "geometry": {"type": "Point", "coordinates": [9.608737, 47.783576]}},
{"type": "Feature", "id": "3_ngDgJjusQe2J4XGoFWEB_BuYc=", "properties": {"ref": "{0D0158F0-7836-4A7C-BE78-8E2BBBB4A968}", "@spider": "alnatura_de", "organic": "only", "shop": "supermarket", "addr:street": "Rathausplatz 3", "addr:city": "Weil am Rhein", "addr:postcode": "79576", "addr:country": "Deutschland", "name": "Alnatura Super Natur Markt", "phone": "07621/1611745", "opening_hours": "Mo-Sa 08:00-20:00", "brand": "Alnatura", "brand:wikidata": "Q876811", "nsi_id": "alnatura-f97a5b"}, "geometry": {"type": "Point", "coordinates": [7.611596, 47.592477]}},
{"type": "Feature", "id": "OfdHWg2_SMXujfMlyiLRA03YvJE=", "properties": {"ref": "{88119F37-D6CE-4A88-BC7E-E5C8C5BCA8E4}", "@spider": "alnatura_de", "organic": "only", "shop": "supermarket", "addr:street": "Donaustaufer Str. 128", "addr:city": "Regensburg", "addr:postcode": "93059", "addr:country": "Deutschland", "name": "Alnatura Super Natur Markt", "phone": "0941/46469963", "opening_hours": "Mo-Sa 07:18-20:00", "brand": "Alnatura", "brand:wikidata": "Q876811", "nsi_id": "alnatura-f97a5b"}, "geometry": {"type": "Point", "coordinates": [12.121454, 49.028134]}},
{"type": "Feature", "id": "fGByrKSQEjOHq_ThJ6hFlP4Bgfo=", "properties": {"ref": "{BC608155-4B3B-484B-9080-97C0BFDE6BFD}", "@spider": "alnatura_de", "organic": "only", "shop": "supermarket", "addr:street": "D.-Martin-Luther-Stra\u00dfe 2", "addr:city": "Regensburg", "addr:postcode": "93047", "addr:country": "Deutschland", "name": "Alnatura Super Natur Markt", "phone": "0941/59579607", "opening_hours": "Mo-Sa 07:00-20:00", "brand": "Alnatura", "brand:wikidata": "Q876811", "nsi_id": "alnatura-f97a5b"}, "geometry": {"type": "Point", "coordinates": [12.101403, 49.017052]}},
{"type": "Feature", "id": "Fglr4GoBTBNdePtOuwP4BLzXQLw=", "properties": {"ref": "{02A521A2-A8B9-49E7-ACDC-8CDE789B69CD}", "@spider": "alnatura_de", "organic": "only", "shop": "supermarket", "addr:street": "Joseph-Dahlem-Stra\u00dfe 3 (am D\u00f6rnberg)", "addr:city": "Regensburg", "addr:postcode": "93049", "addr:country": "Deutschland", "name": "Alnatura Super Natur Markt", "phone": "0941/63071874", "opening_hours": "Mo-Sa 07:18-20:00", "brand": "Alnatura", "brand:wikidata": "Q876811", "nsi_id": "alnatura-f97a5b"}, "geometry": {"type": "Point", "coordinates": [12.086929, 49.012582]}},
{"type": "Feature", "id": "KHoo5l-SShEtlSoLcLkb6q_irpE=", "properties": {"ref": "{43A12CC2-6540-4BC9-AF2C-54046D5EA20E}", "@spider": "alnatura_de", "organic": "only", "shop": "supermarket", "addr:street": "Im Rebacker 2 a", "addr:city": "Eimeldingen", "addr:postcode": "79591", "addr:country": "Deutschland", "name": "Alnatura Super Natur Markt", "phone": "07621/1696325", "opening_hours": "Mo-Sa 08:00-20:00", "brand": "Alnatura", "brand:wikidata": "Q876811", "nsi_id": "alnatura-f97a5b"}, "geometry": {"type": "Point", "coordinates": [7.59938, 47.626629]}},
{"type": "Feature", "id": "JvtcrZAslct2rFfeLvQo0BcVfgg=", "properties": {"ref": "{02A59FBA-C1AF-48F7-A7E6-213EC344314C}", "@spider": "alnatura_de", "organic": "only", "shop": "supermarket", "addr:street": "Inninger Str. 97c", "addr:city": "Augsburg", "addr:postcode": "86179", "addr:country": "Deutschland", "name": "Alnatura Super Natur Markt", "phone": "0821-80037903", "opening_hours": "Mo-Sa 08:00-20:00", "brand": "Alnatura", "brand:wikidata": "Q876811", "nsi_id": "alnatura-f97a5b"}, "geometry": {"type": "Point", "coordinates": [10.891071, 48.310087]}},
{"type": "Feature", "id": "vFvBywfgccKAvGmJs5dgxTk3S3I=", "properties": {"ref": "{CF33497C-3949-4328-B750-F90BC7DA089C}", "@spider": "alnatura_de", "organic": "only", "shop": "supermarket", "addr:street": "Alexander-Fleming-Str.1", "addr:city": "L\u00fcbeck", "addr:postcode": "23564", "addr:country": "Deutschland", "name": "Alnatura Super Natur Markt", "phone": "0451/69391340", "opening_hours": "Mo-Sa 08:00-20:00", "brand": "Alnatura", "brand:wikidata": "Q876811", "nsi_id": "alnatura-f97a5b"}, "geometry": {"type": "Point", "coordinates": [10.690371, 53.831609]}},
{"type": "Feature", "id": "Xl55T0OW6PoySX-AK3JRQ_esQJc=", "properties": {"ref": "{06BCBD77-D5F4-4D63-991F-09F84630F2CD}", "@spider": "alnatura_de", "organic": "only", "shop": "supermarket", "addr:street": "Johann-Georg-Fahr-Stra\u00dfe 2-4", "addr:city": "Gottmadingen", "addr:postcode": "78244", "addr:country": "Deutschland", "name": "Alnatura Super Natur Markt", "phone": "07731/9075600", "opening_hours": "Mo-Sa 08:00-20:00", "brand": "Alnatura", "brand:wikidata": "Q876811", "nsi_id": "alnatura-f97a5b"}, "geometry": {"type": "Point", "coordinates": [8.773278, 47.735847]}},
{"type": "Feature", "id": "1YIN2HVcEIyqBU5hhn0lXDdvTsk=", "properties": {"ref": "{9963846C-FE7A-4CCB-BE0A-64B6B7EF3735}", "@spider": "alnatura_de", "organic": "only", "shop": "supermarket", "addr:street": "Hegaustr. 24", "addr:city": "Singen (Hohentwiel)", "addr:postcode": "78224", "addr:country": "Deutschland", "name": "Alnatura Super Natur Markt", "phone": "07731/9769275", "opening_hours": "Mo-Sa 08:00-20:00", "brand": "Alnatura", "brand:wikidata": "Q876811", "nsi_id": "alnatura-f97a5b"}, "geometry": {"type": "Point", "coordinates": [8.83915, 47.759529]}},
{"type": "Feature", "id": "-GaXnmsgJvDY2_K6KfmY7Eqgz8I=", "properties": {"ref": "{F1F7BD70-2892-42D2-A627-CA4D0E3B4F47}", "@spider": "alnatura_de", "organic": "only", "shop": "supermarket", "addr:street": "Wankelstra\u00dfe 8", "addr:city": "Stadtbergen", "addr:postcode": "86391", "addr:country": "Deutschland", "name": "Alnatura Super Natur Markt", "phone": "0821/4397781", "opening_hours": "Mo-Sa 08:00-20:00", "brand": "Alnatura", "brand:wikidata": "Q876811", "nsi_id": "alnatura-f97a5b"}, "geometry": {"type": "Point", "coordinates": [10.842375, 48.377818]}},
{"type": "Feature", "id": "LdMobJAO-a2m3pe1T7oCyBuy2yw=", "properties": {"ref": "{3940465A-6621-4C4F-8AA0-58B373D1DCA4}", "@spider": "alnatura_de", "organic": "only", "shop": "supermarket", "addr:street": "Daimlerstr. 16", "addr:city": "Neus\u00e4\u00df", "addr:postcode": "86356", "addr:country": "Deutschland", "name": "Alnatura Super Natur Markt", "phone": "0821/46093380", "opening_hours": "Mo-Sa 08:00-20:00", "brand": "Alnatura", "brand:wikidata": "Q876811", "nsi_id": "alnatura-f97a5b"}, "geometry": {"type": "Point", "coordinates": [10.82517, 48.39383]}},
{"type": "Feature", "id": "MUlDIpMKQpvYTpmKdCPf5OTqBOY=", "properties": {"ref": "{4F6EA33E-85F3-4EF6-9AAD-A3FB89D83CD2}", "@spider": "alnatura_de", "organic": "only", "shop": "supermarket", "addr:street": "Schillerstra\u00dfe 2", "addr:city": "Ingolstadt", "addr:postcode": "85055", "addr:country": "Deutschland", "name": "Alnatura Super Natur Markt", "phone": "0841/37070854", "opening_hours": "Mo-Sa 08:00-20:00", "brand": "Alnatura", "brand:wikidata": "Q876811", "nsi_id": "alnatura-f97a5b"}, "geometry": {"type": "Point", "coordinates": [11.43896, 48.76693]}},
{"type": "Feature", "id": "rvp54yHwbrjGb3D8TE4UVm3c0-0=", "properties": {"ref": "{FC44A8CE-62AE-49E9-9777-31C2A62E47EF}", "@spider": "alnatura_de", "organic": "only", "shop": "supermarket", "addr:street": "Merzhauser Stra\u00dfe 179", "addr:city": "Freiburg im Breisgau", "addr:postcode": "79100", "addr:country": "Deutschland", "name": "Alnatura Super Natur Markt", "phone": "0761/1373633", "opening_hours": "Mo-Sa 08:00-20:00", "brand": "Alnatura", "brand:wikidata": "Q876811", "nsi_id": "alnatura-f97a5b"}, "geometry": {"type": "Point", "coordinates": [7.831866, 47.979787]}},
{"type": "Feature", "id": "J_-JAeuo1E7CltObMpfHs-0tgic=", "properties": {"ref": "{56E6FA28-43AE-4A09-9B94-8E6E770B6D6F}", "@spider": "alnatura_de", "organic": "only", "shop": "supermarket", "addr:street": "Schwarzwaldstr. 78 - 78d", "addr:city": "Freiburg im Breisgau", "addr:postcode": "79117", "addr:country": "Deutschland", "name": "Alnatura Super Natur Markt", "phone": "0761/70787933", "opening_hours": "Mo-Sa 08:00-21:00", "brand": "Alnatura", "brand:wikidata": "Q876811", "nsi_id": "alnatura-f97a5b"}, "geometry": {"type": "Point", "coordinates": [7.870846, 47.987989]}},
{"type": "Feature", "id": "KjxAYk8d3O1Uz13zEb8cR7Fb_BM=", "properties": {"ref": "{070E5B4C-1DBE-4EF3-AEBE-5B873A3C1AF9}", "@spider": "alnatura_de", "organic": "only", "shop": "supermarket", "addr:street": "Kaiser-Joseph-Stra\u00dfe 282", "addr:city": "Freiburg im Breisgau", "addr:postcode": "79098", "addr:country": "Deutschland", "name": "Alnatura Super Natur Markt", "phone": "0761/21171213", "opening_hours": "Mo-Sa 08:00-20:00", "brand": "Alnatura", "brand:wikidata": "Q876811", "nsi_id": "alnatura-f97a5b"}, "geometry": {"type": "Point", "coordinates": [7.848328, 47.990891]}},
{"type": "Feature", "id": "rMDXHZW9cxm04l6HxRxvTSrhFrs=", "properties": {"ref": "{1AA71C86-8B9A-49EF-B5D1-EEF685141285}", "@spider": "alnatura_de", "organic": "only", "shop": "supermarket", "addr:street": "Bismarckallee 10", "addr:city": "Freiburg im Breisgau", "addr:postcode": "79098", "addr:country": "Deutschland", "name": "Alnatura Super Natur Markt", "phone": "0761/21175848", "opening_hours": "Mo-Fr 06:18-20:00", "brand": "Alnatura", "brand:wikidata": "Q876811", "nsi_id": "alnatura-f97a5b"}, "geometry": {"type": "Point", "coordinates": [7.843259, 47.997681]}},
{"type": "Feature", "id": "LKFN9sTQaxzqHejnt0lAx2w64co=", "properties": {"ref": "{8C9E8093-BD00-401B-921A-95B8FB5623E5}", "@spider": "alnatura_de", "organic": "only", "shop": "supermarket", "addr:street": "Fahnenbergplatz 3", "addr:city": "Freiburg im Breisgau", "addr:postcode": "79098", "addr:country": "Deutschland", "name": "Alnatura Super Natur Markt", "phone": "0761/76656941", "opening_hours": "Mo-Sa 08:00-21:00", "brand": "Alnatura", "brand:wikidata": "Q876811", "nsi_id": "alnatura-f97a5b"}, "geometry": {"type": "Point", "coordinates": [7.848412, 47.997967]}},
{"type": "Feature", "id": "utf7Ewj6akw3E5GRsdaF1KMzztE=", "properties": {"ref": "{2F1D72E5-CDFD-419E-B620-E5286E725948}", "@spider": "alnatura_de", "organic": "only", "shop": "supermarket", "addr:street": "Am Tarpenufer 3 - 5", "addr:city": "Norderstedt", "addr:postcode": "22848", "addr:country": "Deutschland", "name": "Alnatura Super Natur Markt", "phone": "040/51310025", "opening_hours": "Mo-Sa 07:00-20:00", "brand": "Alnatura", "brand:wikidata": "Q876811", "nsi_id": "alnatura-f97a5b"}, "geometry": {"type": "Point", "coordinates": [9.99787, 53.68098]}},
{"type": "Feature", "id": "aK_6CXW8iplkmRCuw7oMJhTSaDw=", "properties": {"ref": "{291A49E0-E131-4465-AB81-9F3A4F2D87B1}", "@spider": "alnatura_de", "organic": "only", "shop": "supermarket", "addr:street": "Z\u00e4hringerstra\u00dfe 295", "addr:city": "Freiburg im Breisgau", "addr:postcode": "73108", "addr:country": "Deutschland", "name": "Alnatura Super Natur Markt", "phone": "0761/50363435", "opening_hours": "Mo-Sa 08:00-20:00", "brand": "Alnatura", "brand:wikidata": "Q876811", "nsi_id": "alnatura-f97a5b"}, "geometry": {"type": "Point", "coordinates": [7.857365, 48.019524]}},
{"type": "Feature", "id": "xSe0HRLlfbXN0JZxOyBXVOwZJY4=", "properties": {"ref": "{2CA2BA11-4128-400C-85A3-9D572504C636}", "@spider": "alnatura_de", "organic": "only", "shop": "supermarket", "addr:street": "Neue Stra\u00dfe 97-99", "addr:city": "Ulm", "addr:postcode": "89073", "addr:country": "Deutschland", "name": "Alnatura Super Natur Markt", "phone": "0731/1517312", "opening_hours": "Mo-Sa 08:00-20:00", "brand": "Alnatura", "brand:wikidata": "Q876811", "nsi_id": "alnatura-f97a5b"}, "geometry": {"type": "Point", "coordinates": [9.993353, 48.397547]}},
{"type": "Feature", "id": "GFfMDHbo7EwkzYrhB_vDLyoMfGY=", "properties": {"ref": "{1EBB10EB-DFE7-4786-8F32-D36356FBE3F3}", "@spider": "alnatura_de", "organic": "only", "shop": "supermarket", "addr:street": "Blaubeurer Str. 53", "addr:city": "Ulm", "addr:postcode": "89077", "addr:country": "Deutschland", "name": "Alnatura Super Natur Markt", "phone": "0731/14060816", "opening_hours": "Mo-Sa 08:00-21:00", "brand": "Alnatura", "brand:wikidata": "Q876811", "nsi_id": "alnatura-f97a5b"}, "geometry": {"type": "Point", "coordinates": [9.97662, 48.401918]}},
{"type": "Feature", "id": "mo5gpzmffHu8GDRn3tb8JgQskmw=", "properties": {"ref": "{45575487-FE81-49F6-8B84-1EE2ECD48B00}", "@spider": "alnatura_de", "organic": "only", "shop": "supermarket", "addr:street": "Wandsbeker Marktstra\u00dfe 2", "addr:city": "Hamburg", "addr:postcode": "22041", "addr:country": "Deutschland", "name": "Alnatura Super Natur Markt", "phone": "040-68282680 ", "opening_hours": "Mo-Sa 07:00-20:00", "brand": "Alnatura", "brand:wikidata": "Q876811", "nsi_id": "alnatura-f97a5b"}, "geometry": {"type": "Point", "coordinates": [10.060803, 53.570567]}},
{"type": "Feature", "id": "A_tnXwgNc5H-R7qu0QUKnjw06hA=", "properties": {"ref": "{55CCCDF7-B17F-4056-9E09-22A7D24D472B}", "@spider": "alnatura_de", "organic": "only", "shop": "supermarket", "addr:street": "Alte Elbgau Str. 1", "addr:city": "Hamburg", "addr:postcode": "22523", "addr:country": "Deutschland", "name": "Alnatura Super Natur Markt", "phone": "040-57001740", "opening_hours": "Mo-Sa 09:00-19:00", "brand": "Alnatura", "brand:wikidata": "Q876811", "nsi_id": "alnatura-f97a5b"}, "geometry": {"type": "Point", "coordinates": [9.904978, 53.607105]}},
{"type": "Feature", "id": "Mp7Hxt7ytsNZzh5bhpdsdSjlDWo=", "properties": {"ref": "{14FABA78-FE82-4563-82D0-9700CCF8C7E8}", "@spider": "alnatura_de", "organic": "only", "shop": "supermarket", "addr:street": "Hoheluftchaussee 18", "addr:city": "Hamburg", "addr:postcode": "20253", "addr:country": "Deutschland", "name": "Alnatura Super Natur Markt", "phone": "040-41405877 ", "opening_hours": "Mo-Sa 07:00-21:00", "brand": "Alnatura", "brand:wikidata": "Q876811", "nsi_id": "alnatura-f97a5b"}, "geometry": {"type": "Point", "coordinates": [9.974877, 53.579564]}},
{"type": "Feature", "id": "5NyutGY7ocAHQTI0i-jcgRKViCo=", "properties": {"ref": "{5F81C526-1F80-4D49-B166-D0E20F8A2F57}", "@spider": "alnatura_de", "organic": "only", "shop": "supermarket", "addr:street": "Willy-Brandt-Platz 7", "addr:city": "Leipzig", "addr:postcode": "4109", "addr:country": "Deutschland", "name": "Alnatura Super Natur Markt", "phone": "0341/30868416", "opening_hours": "Mo-Sa 08:00-21:00", "brand": "Alnatura", "brand:wikidata": "Q876811", "nsi_id": "alnatura-f97a5b"}, "geometry": {"type": "Point", "coordinates": [12.382224, 51.344048]}},
{"type": "Feature", "id": "9nr2F7qyFnq6mCgMzkN27fvTTrs=", "properties": {"ref": "{B909443E-2789-48E5-8F7A-D57ACC06D5E1}", "@spider": "alnatura_de", "organic": "only", "shop": "supermarket", "addr:street": "Schanzenstra\u00dfe 34-36", "addr:city": "Hamburg", "addr:postcode": "20357", "addr:country": "Deutschland", "name": "Alnatura Super Natur Markt", "phone": "040-36036572", "opening_hours": "Mo-Sa 08:00-21:00", "brand": "Alnatura", "brand:wikidata": "Q876811", "nsi_id": "alnatura-f97a5b"}, "geometry": {"type": "Point", "coordinates": [9.965487, 53.560935]}},
{"type": "Feature", "id": "6sqscRFCF81WHjGNp2c6Fqb9r64=", "properties": {"ref": "{9B87F58D-C7CB-4D48-8D88-BE22B585F923}", "@spider": "alnatura_de", "organic": "only", "shop": "supermarket", "addr:street": "\u00dcberseeboulevard 5", "addr:city": "Hamburg", "addr:postcode": "20457", "addr:country": "Deutschland", "name": "Alnatura Super Natur Markt", "phone": "040-30087268", "opening_hours": "Mo-Sa 07:00-20:00", "brand": "Alnatura", "brand:wikidata": "Q876811", "nsi_id": "alnatura-f97a5b"}, "geometry": {"type": "Point", "coordinates": [9.997673, 53.541819]}},
{"type": "Feature", "id": "YlK_cukjG0Sgil1z1WIzAqimb04=", "properties": {"ref": "{13F54454-0523-4DEB-BC1C-F3E7DDBB7C9C}", "@spider": "alnatura_de", "organic": "only", "shop": "supermarket", "addr:street": "Bahrenfelder Str. 242 - 244", "addr:city": "Hamburg", "addr:postcode": "22765", "addr:country": "Deutschland", "name": "Alnatura Super Natur Markt", "phone": "040-39806227", "opening_hours": "Mo-Sa 07:18-20:18", "brand": "Alnatura", "brand:wikidata": "Q876811", "nsi_id": "alnatura-f97a5b"}, "geometry": {"type": "Point", "coordinates": [9.928397, 53.55682]}},
{"type": "Feature", "id": "7TwRr-ExhF7FCgUyXCgW39wouMI=", "properties": {"ref": "{4574C4C1-F186-4005-A598-1F91EC63E9A0}", "@spider": "alnatura_de", "organic": "only", "shop": "supermarket", "addr:street": "Hahnenkamp 1", "addr:city": "Hamburg", "addr:postcode": "22765", "addr:country": "Deutschland", "name": "Alnatura Super Natur Markt", "phone": "040-23803896", "opening_hours": "Mo-Sa 07:00-20:18", "brand": "Alnatura", "brand:wikidata": "Q876811", "nsi_id": "alnatura-f97a5b"}, "geometry": {"type": "Point", "coordinates": [9.933436, 53.553293]}},
{"type": "Feature", "id": "nZpttf7UPvjxL19_MrbFFaTISWs=", "properties": {"ref": "{26A35280-9778-47A7-94AE-23A45A9E92E6}", "@spider": "alnatura_de", "organic": "only", "shop": "supermarket", "addr:street": "Am Rissener Bahnhof 23", "addr:city": "Hamburg", "addr:postcode": "22559", "addr:country": "Deutschland", "name": "Alnatura Super Natur Markt", "phone": "040-68877904 ", "opening_hours": "Mo-Sa 08:00-20:00", "brand": "Alnatura", "brand:wikidata": "Q876811", "nsi_id": "alnatura-f97a5b"}, "geometry": {"type": "Point", "coordinates": [9.755615, 53.582358]}},
{"type": "Feature", "id": "A_--nlVGNnPI8QDSlFW5AK49xmI=", "properties": {"ref": "{F2F370B6-2295-41A4-A4CB-5F715A5AD233}", "@spider": "alnatura_de", "organic": "only", "shop": "supermarket", "addr:street": "L\u00fcbecker Stra\u00dfe 70", "addr:city": "L\u00fcneburg", "addr:postcode": "21337", "addr:country": "Deutschland", "name": "Alnatura Super Natur Markt", "phone": "04131/4088085", "opening_hours": "Mo-Sa 08:00-20:00", "brand": "Alnatura", "brand:wikidata": "Q876811", "nsi_id": "alnatura-f97a5b"}, "geometry": {"type": "Point", "coordinates": [10.434054, 53.253524]}},
{"type": "Feature", "id": "LufkF9k-zWxEemUtfg7TTfFyYsU=", "properties": {"ref": "{1C84003C-1677-49F6-9ABB-597036D9C0FD}", "@spider": "alnatura_de", "organic": "only", "shop": "supermarket", "addr:street": "Obere W\u00e4ssere 3-7", "addr:city": "Reutlingen", "addr:postcode": "72764", "addr:country": "Deutschland", "name": "Alnatura Super Natur Markt", "phone": "07121/7997759", "opening_hours": "Mo-Sa 08:00-20:00", "brand": "Alnatura", "brand:wikidata": "Q876811", "nsi_id": "alnatura-f97a5b"}, "geometry": {"type": "Point", "coordinates": [9.217054, 48.489016]}},
{"type": "Feature", "id": "D1gd_oghtDe79xKuVd2M2-QPxhE=", "properties": {"ref": "{639CBE3A-DCD7-4888-86F5-0340E6A52C84}", "@spider": "alnatura_de", "organic": "only", "shop": "supermarket", "addr:street": "H\u00fcgelstra\u00dfe 3", "addr:city": "T\u00fcbingen", "addr:postcode": "72072", "addr:country": "Deutschland", "name": "Alnatura Super Natur Markt", "phone": "07071/3659247", "opening_hours": "Mo-Sa 08:00-21:00", "brand": "Alnatura", "brand:wikidata": "Q876811", "nsi_id": "alnatura-f97a5b"}, "geometry": {"type": "Point", "coordinates": [9.068092, 48.514408]}},
{"type": "Feature", "id": "RQtc6qz4P0jF6bL_9FQFoNFs5Dw=", "properties": {"ref": "{0B2D17CA-487F-4526-A4F4-1C396B5D91CF}", "@spider": "alnatura_de", "organic": "only", "shop": "supermarket", "addr:street": "Pfleghofstra\u00dfe 6/1", "addr:city": "T\u00fcbingen", "addr:postcode": "72070", "addr:country": "Deutschland", "name": "Alnatura Super Natur Markt", "phone": "07071/9208040", "opening_hours": "Mo-Sa 09:00-20:00", "brand": "Alnatura", "brand:wikidata": "Q876811", "nsi_id": "alnatura-f97a5b"}, "geometry": {"type": "Point", "coordinates": [9.05735, 48.52096]}},
{"type": "Feature", "id": "D1_e1YuLcFmpZ29ZHN2_-CUXmkI=", "properties": {"ref": "{2D9AAF9D-2A37-44EF-BDCC-BB76610DB8A6}", "@spider": "alnatura_de", "organic": "only", "shop": "supermarket", "addr:street": "Eichendorffstr. 51", "addr:city": "N\u00fcrtingen", "addr:postcode": "72622", "addr:country": "Deutschland", "name": "Alnatura Super Natur Markt", "phone": "07022/7088181", "opening_hours": "Mo-Sa 08:00-21:00", "brand": "Alnatura", "brand:wikidata": "Q876811", "nsi_id": "alnatura-f97a5b"}, "geometry": {"type": "Point", "coordinates": [9.34901, 48.606882]}},
{"type": "Feature", "id": "Op0_LdJ3fuN-W3iIqQvZzGBphgE=", "properties": {"ref": "{F255D2E8-6F57-4406-9BC2-4272732B24A8}", "@spider": "alnatura_de", "organic": "only", "shop": "supermarket", "addr:street": "Gustav-Ree-Anlage 2", "addr:city": "Offenburg", "addr:postcode": "77652", "addr:country": "Deutschland", "name": "Alnatura Super Natur Markt", "phone": "0781/97057752", "opening_hours": "Mo-Sa 08:00-20:00", "brand": "Alnatura", "brand:wikidata": "Q876811", "nsi_id": "alnatura-f97a5b"}, "geometry": {"type": "Point", "coordinates": [7.945473, 48.472005]}},
{"type": "Feature", "id": "owOp7oZLixl3a6t_bfDZNW334hA=", "properties": {"ref": "{D78CECB8-CFFB-4833-8C54-51C1FC295809}", "@spider": "alnatura_de", "organic": "only", "shop": "supermarket", "addr:street": "Jacob-Brodbeck-Stra\u00dfe 6", "addr:city": "Filderstadt", "addr:postcode": "70794", "addr:country": "Deutschland", "name": "Alnatura Super Natur Markt", "phone": "0711/72254855", "opening_hours": "Mo-Sa 08:00-20:00", "brand": "Alnatura", "brand:wikidata": "Q876811", "nsi_id": "alnatura-f97a5b"}, "geometry": {"type": "Point", "coordinates": [9.201024, 48.659689]}},
{"type": "Feature", "id": "8ChDDsDi55mzbOd-T8rTNJeGB8A=", "properties": {"ref": "{626FFC2A-C994-4DBF-856B-96868A0CE2D0}", "@spider": "alnatura_de", "organic": "only", "shop": "supermarket", "addr:street": "Berliner Stra\u00dfe 2", "addr:city": "Esslingen", "addr:postcode": "73728", "addr:country": "Deutschland", "name": "Alnatura Super Natur Markt", "phone": "0711/3108834", "opening_hours": "Mo-Sa 09:00-20:00", "brand": "Alnatura", "brand:wikidata": "Q876811", "nsi_id": "alnatura-f97a5b"}, "geometry": {"type": "Point", "coordinates": [9.301092, 48.740224]}},
{"type": "Feature", "id": "e4L28LtawSTe49zMA-rop-6rN6Y=", "properties": {"ref": "{F5F5A627-2E87-4880-AF35-C0340FCC05FD}", "@spider": "alnatura_de", "organic": "only", "shop": "supermarket", "addr:street": "Epplestra\u00dfe 12", "addr:city": "Stuttgart", "addr:postcode": "70597", "addr:country": "Deutschland", "name": "Alnatura Super Natur Markt", "phone": "0711/2208735", "opening_hours": "Mo-Sa 08:00-20:00", "brand": "Alnatura", "brand:wikidata": "Q876811", "nsi_id": "alnatura-f97a5b"}, "geometry": {"type": "Point", "coordinates": [9.170046, 48.748145]}},
{"type": "Feature", "id": "1dLem_w44I07WhtB35p6l7oDnm4=", "properties": {"ref": "{BBA838D8-DD95-4725-9F0B-94AE10EC0380}", "@spider": "alnatura_de", "organic": "only", "shop": "supermarket", "addr:street": "Am H\u00f6henpark 4", "addr:city": "Stuttgart", "addr:postcode": "70192", "addr:country": "Deutschland", "name": "Alnatura Super Natur Markt", "phone": "0711/25974742", "opening_hours": "Mo-Sa 08:00-20:00", "brand": "Alnatura", "brand:wikidata": "Q876811", "nsi_id": "alnatura-f97a5b"}, "geometry": {"type": "Point", "coordinates": [9.17102, 48.799747]}},
{"type": "Feature", "id": "NE_DPSRlQ411bKXM5Tkd64uUDAk=", "properties": {"ref": "{173B34C1-5D07-4834-80FA-B6165F525B75}", "@spider": "alnatura_de", "organic": "only", "shop": "supermarket", "addr:street": "Frankenstra\u00dfe 3", "addr:city": "Stuttgart", "addr:postcode": "70435", "addr:country": "Deutschland", "name": "Alnatura Super Natur Markt", "phone": "0711/81477480", "opening_hours": "Mo-Sa 08:00-20:00", "brand": "Alnatura", "brand:wikidata": "Q876811", "nsi_id": "alnatura-f97a5b"}, "geometry": {"type": "Point", "coordinates": [9.17291, 48.82542]}},
{"type": "Feature", "id": "VJYdYt45SvoFVOzqFkPTGZSZQaY=", "properties": {"ref": "{30F2CF5C-663C-44A1-B5CA-D34381FDEF28}", "@spider": "alnatura_de", "organic": "only", "shop": "supermarket", "addr:street": "Myliusstra\u00dfe 7", "addr:city": "Ludwigsburg", "addr:postcode": "71638", "addr:country": "Deutschland", "name": "Alnatura Super Natur Markt", "phone": "07141/6430386", "opening_hours": "Mo-Sa 08:00-20:00", "brand": "Alnatura", "brand:wikidata": "Q876811", "nsi_id": "alnatura-f97a5b"}, "geometry": {"type": "Point", "coordinates": [9.186894, 48.893519]}},
{"type": "Feature", "id": "5QzVDYAoEnKSNT5UsN67aEZG3ow=", "properties": {"ref": "{CB58CBE1-C777-49FD-91EA-8DB53E535840}", "@spider": "alnatura_de", "organic": "only", "shop": "supermarket", "addr:street": "Faulenstra\u00dfe 54-70", "addr:city": "Bremen", "addr:postcode": "28195", "addr:country": "Deutschland", "name": "Alnatura Super Natur Markt", "phone": "0421/1653954", "opening_hours": "Mo-Sa 07:00-20:00", "brand": "Alnatura", "brand:wikidata": "Q876811", "nsi_id": "alnatura-f97a5b"}, "geometry": {"type": "Point", "coordinates": [8.796802, 53.080899]}},
{"type": "Feature", "id": "E7Uc1WLq-A2howUL16DEao8EaGk=", "properties": {"ref": "{99CDA645-69A6-4E84-8621-A921ADD618EC}", "@spider": "alnatura_de", "organic": "only", "shop": "supermarket", "addr:street": "Vor dem Steintor 73-77", "addr:city": "Bremen", "addr:postcode": "28203", "addr:country": "Deutschland", "name": "Alnatura Super Natur Markt", "phone": "0421/79479166", "opening_hours": "Mo-Sa 07:18-21:00", "brand": "Alnatura", "brand:wikidata": "Q876811", "nsi_id": "alnatura-f97a5b"}, "geometry": {"type": "Point", "coordinates": [8.827826, 53.072411]}},
{"type": "Feature", "id": "qCXQCzn9tYikPqhcDXVY4KDEeVg=", "properties": {"ref": "{5E88A98D-0C58-4073-9DE1-865D20547EC7}", "@spider": "alnatura_de", "organic": "only", "shop": "supermarket", "addr:street": "Friedrich-Wilhelm-Str. 51", "addr:city": "Braunschweig", "addr:postcode": "38100", "addr:country": "Deutschland", "name": "Alnatura Super Natur Markt", "opening_hours": "Mo-Sa 08:00-21:00", "brand": "Alnatura", "brand:wikidata": "Q876811", "nsi_id": "alnatura-f97a5b"}, "geometry": {"type": "Point", "coordinates": [10.520094, 52.261674]}},
{"type": "Feature", "id": "3q-OR10XaSXoRfU1Ozjwng6w1Gw=", "properties": {"ref": "{006B78D3-668C-48EF-95BC-3DF8F0EC874C}", "@spider": "alnatura_de", "organic": "only", "shop": "supermarket", "addr:street": "Sch\u00f6llbronner Str. 21-25", "addr:city": "Ettlingen", "addr:postcode": "76275", "addr:country": "Deutschland", "name": "Alnatura Super Natur Markt", "phone": "07243/9468043", "opening_hours": "Mo-Sa 08:18-20:00", "brand": "Alnatura", "brand:wikidata": "Q876811", "nsi_id": "alnatura-f97a5b"}, "geometry": {"type": "Point", "coordinates": [8.411982, 48.938851]}},
{"type": "Feature", "id": "nM89viFE37QSwFEbv0Vhh6XfxCc=", "properties": {"ref": "{58E0B003-EC65-4ADC-857B-AF5CC82185BD}", "@spider": "alnatura_de", "organic": "only", "shop": "supermarket", "addr:street": "K\u00e4ppelestra\u00dfe 5", "addr:city": "Karlsruhe", "addr:postcode": "76131", "addr:country": "Deutschland", "name": "Alnatura Super Natur Markt", "phone": "0721/6632072", "opening_hours": "Mo-Sa 07:00-21:00", "brand": "Alnatura", "brand:wikidata": "Q876811", "nsi_id": "alnatura-f97a5b"}, "geometry": {"type": "Point", "coordinates": [8.439459, 49.008353]}},
{"type": "Feature", "id": "WrbEXIP6jNqh2kuUKiOpS-Ndm4o=", "properties": {"ref": "{9884626A-5191-49FD-89D0-3114266B5B0E}", "@spider": "alnatura_de", "organic": "only", "shop": "supermarket", "addr:street": "Ludwig-Ehrhard-Allee 14", "addr:city": "Karlsruhe", "addr:postcode": "76131", "addr:country": "Deutschland", "name": "Alnatura Super Natur Markt", "phone": "0721/96879957", "opening_hours": "Mo-Sa 07:00-20:00", "brand": "Alnatura", "brand:wikidata": "Q876811", "nsi_id": "alnatura-f97a5b"}, "geometry": {"type": "Point", "coordinates": [8.414292, 49.005324]}},
{"type": "Feature", "id": "fYEvsu-EZ5COHSauHLysP1zbnIQ=", "properties": {"ref": "{73E545DF-BDD6-4129-9964-DC0B6D472B47}", "@spider": "alnatura_de", "organic": "only", "shop": "supermarket", "addr:street": "Bahnhofstra\u00dfe 4 a", "addr:city": "Erfurt", "addr:postcode": "99084", "addr:country": "Deutschland", "name": "Alnatura Super Natur Markt", "phone": "0361/26226633", "opening_hours": "Mo-Sa 08:00-20:00", "brand": "Alnatura", "brand:wikidata": "Q876811", "nsi_id": "alnatura-f97a5b"}, "geometry": {"type": "Point", "coordinates": [11.035249, 50.975453]}},
{"type": "Feature", "id": "kSHysip906Xa1i15U1rmZbc4kQo=", "properties": {"ref": "{D759120B-9DC9-4C18-AE22-7998EBEE2EFF}", "@spider": "alnatura_de", "organic": "only", "shop": "supermarket", "addr:street": "Douglasstra\u00dfe 28-30", "addr:city": "Karlsruhe", "addr:postcode": "76133", "addr:country": "Deutschland", "name": "Alnatura Super Natur Markt", "phone": "0721/25571", "opening_hours": "Mo-Sa 08:00-20:00", "brand": "Alnatura", "brand:wikidata": "Q876811", "nsi_id": "alnatura-f97a5b"}, "geometry": {"type": "Point", "coordinates": [8.393331, 49.009073]}},
{"type": "Feature", "id": "_MBxMSFUs9V-HlIeHq6HhJqRErU=", "properties": {"ref": "{226B6CED-B596-4BC4-B978-BFCCC0382EE2}", "@spider": "alnatura_de", "organic": "only", "shop": "supermarket", "addr:street": "Sophienstra\u00dfe 139", "addr:city": "Karlsruhe", "addr:postcode": "76135", "addr:country": "Deutschland", "name": "Alnatura Super Natur Markt", "brand": "Alnatura", "brand:wikidata": "Q876811", "nsi_id": "alnatura-f97a5b"}, "geometry": {"type": "Point", "coordinates": [8.377293, 49.007839]}},
{"type": "Feature", "id": "9gI1EFI2eTVwN1NKcnKkbh5h0Kc=", "properties": {"ref": "{E924EDF5-4586-45ED-A61A-796EDFF8A377}", "@spider": "alnatura_de", "organic": "only", "shop": "supermarket", "addr:street": "Jakobistra\u00dfe 10", "addr:city": "Hannover", "addr:postcode": "30163", "addr:country": "Deutschland", "name": "Alnatura Super Natur Markt", "phone": "0511-26249615", "opening_hours": "Mo-Sa 08:00-21:00", "brand": "Alnatura", "brand:wikidata": "Q876811", "nsi_id": "alnatura-f97a5b"}, "geometry": {"type": "Point", "coordinates": [9.749078, 52.389021]}},
{"type": "Feature", "id": "Sai-2Ylf16A4Dzd8onKVhQuqy_Q=", "properties": {"ref": "{003B7C06-CD5B-4B51-A744-2536A1D03F85}", "@spider": "alnatura_de", "organic": "only", "shop": "supermarket", "addr:street": "An der Weide 27-31", "addr:city": "Hannover", "addr:postcode": "30171", "addr:country": "Deutschland", "name": "Alnatura Super Natur Markt", "phone": "0511-89833772", "opening_hours": "Mo-Sa 08:00-21:00", "brand": "Alnatura", "brand:wikidata": "Q876811", "nsi_id": "alnatura-f97a5b"}, "geometry": {"type": "Point", "coordinates": [9.764293, 52.361514]}},
{"type": "Feature", "id": "ngwsDhkV5F3P6gKa45QN7lhGHrs=", "properties": {"ref": "{3C014FE2-489A-457E-BBB7-D873424FBD97}", "@spider": "alnatura_de", "organic": "only", "shop": "supermarket", "addr:street": "Galgenbergblick 1", "addr:city": "Hildesheim", "addr:postcode": "31135", "addr:country": "Deutschland", "name": "Alnatura Super Natur Markt", "opening_hours": "Mo-Sa 07:18-21:00", "brand": "Alnatura", "brand:wikidata": "Q876811", "nsi_id": "alnatura-f97a5b"}, "geometry": {"type": "Point", "coordinates": [9.971357, 52.153797]}},
{"type": "Feature", "id": "Vn8Ln1iH5ecljLlxkIE0I1iugNk=", "properties": {"ref": "{CED0E25E-BF22-41FD-913F-04A664B45750}", "@spider": "alnatura_de", "organic": "only", "shop": "supermarket", "addr:street": "Rohrbacher Stra\u00dfe 73 ", "addr:city": "Heidelberg", "addr:postcode": "69115", "addr:country": "Deutschland", "name": "Alnatura Super Natur Markt", "phone": "06221-7278324", "opening_hours": "Mo-Sa 08:00-20:00", "brand": "Alnatura", "brand:wikidata": "Q876811", "nsi_id": "alnatura-f97a5b"}, "geometry": {"type": "Point", "coordinates": [8.69162, 49.40174]}},
{"type": "Feature", "id": "L4LaokDcd8T35K18A81oveZOzLA=", "properties": {"ref": "{5E451F4B-3BD4-44BE-8A97-6FF6D4936128}", "@spider": "alnatura_de", "organic": "only", "shop": "supermarket", "addr:street": "Langer Anger 7-9", "addr:city": "Heidelberg", "addr:postcode": "69115", "addr:country": "Deutschland", "name": "Alnatura Super Natur Markt", "phone": "06221-6526172", "opening_hours": "Mo-Sa 08:00-20:00", "brand": "Alnatura", "brand:wikidata": "Q876811", "nsi_id": "alnatura-f97a5b"}, "geometry": {"type": "Point", "coordinates": [8.67316, 49.398266]}},
{"type": "Feature", "id": "WdID9UWFibJiMwIyBPAYtYRn9uY=", "properties": {"ref": "{53A2D2AA-AE8D-46B3-BEF7-463F4CF60A95}", "@spider": "alnatura_de", "organic": "only", "shop": "supermarket", "addr:street": "Poststra\u00dfe 36/5", "addr:city": "Heidelberg", "addr:postcode": "69115", "addr:country": "Deutschland", "name": "Alnatura Super Natur Markt", "phone": "06221-9147835 ", "opening_hours": "Mo-Sa 08:00-20:00", "brand": "Alnatura", "brand:wikidata": "Q876811", "nsi_id": "alnatura-f97a5b"}, "geometry": {"type": "Point", "coordinates": [8.689257, 49.407813]}},
{"type": "Feature", "id": "xuxGPVToLkioiwIJENZn99b2hX8=", "properties": {"ref": "{E2AC725B-5117-4DF2-98AD-D0969DBBA544}", "@spider": "alnatura_de", "organic": "only", "shop": "supermarket", "addr:street": "N7, 12", "addr:city": "Mannheim", "addr:postcode": "68161", "addr:country": "Deutschland", "name": "Alnatura Super Natur Markt", "phone": "0621/152690", "opening_hours": "Mo-Sa 07:00-21:00", "brand": "Alnatura", "brand:wikidata": "Q876811", "nsi_id": "alnatura-f97a5b"}, "geometry": {"type": "Point", "coordinates": [8.47324, 49.48331]}},
{"type": "Feature", "id": "E01u9tDnK7mVG2xzuWhXOZkY4xg=", "properties": {"ref": "{B16FAF06-B0DB-4B73-8C3F-12195E37C8FB}", "@spider": "alnatura_de", "organic": "only", "shop": "supermarket", "addr:street": "K\u00f6nigstra\u00dfe 123", "addr:city": "Kaiserslautern", "addr:postcode": "67655", "addr:country": "Deutschland", "name": "Alnatura Super Natur Markt", "phone": "0631/3036887", "opening_hours": "Mo-Sa 08:00-20:00", "brand": "Alnatura", "brand:wikidata": "Q876811", "nsi_id": "alnatura-f97a5b"}, "geometry": {"type": "Point", "coordinates": [7.755041, 49.436563]}},
{"type": "Feature", "id": "2v_bSqvOnhzIaQl0Hg5GV6nlaHk=", "properties": {"ref": "{3A1004D0-E3FD-47E8-A607-760EC5D33890}", "@spider": "alnatura_de", "organic": "only", "shop": "supermarket", "addr:street": "Heidelberger Stra\u00dfe 18", "addr:city": "Viernheim", "addr:postcode": "68519", "addr:country": "Deutschland", "name": "Alnatura Super Natur Markt", "phone": "06204/6087180", "opening_hours": "Mo-Sa 08:00-20:00", "brand": "Alnatura", "brand:wikidata": "Q876811", "nsi_id": "alnatura-f97a5b"}, "geometry": {"type": "Point", "coordinates": [8.57426, 49.5286]}},
{"type": "Feature", "id": "Bp1PExGsw8YrbgswR_hNQoq3APE=", "properties": {"ref": "{C8142F4A-CA5D-4781-9F7F-06A8F0788B8D}", "@spider": "alnatura_de", "organic": "only", "shop": "supermarket", "addr:street": "Lange-Geismar-Stra\u00dfe 61-64", "addr:city": "G\u00f6ttingen", "addr:postcode": "37073", "addr:country": "Deutschland", "name": "Alnatura Super Natur Markt", "phone": "0551/3894071", "opening_hours": "Mo-Sa 08:00-20:00", "brand": "Alnatura", "brand:wikidata": "Q876811", "nsi_id": "alnatura-f97a5b"}, "geometry": {"type": "Point", "coordinates": [9.938051, 51.531863]}},
{"type": "Feature", "id": "OIgVTkvuSnyrQnT8nGYFWBLELN0=", "properties": {"ref": "{9114F6E2-5063-46C9-A9F2-3A7CD352E6B8}", "@spider": "alnatura_de", "organic": "only", "shop": "supermarket", "addr:street": "Fabrikstr. 16", "addr:city": "Bensheim", "addr:postcode": "64625", "addr:country": "Deutschland", "name": "Alnatura Super Natur Markt", "phone": "06251/9389917", "opening_hours": "Mo-Sa 08:00-21:00", "brand": "Alnatura", "brand:wikidata": "Q876811", "nsi_id": "alnatura-f97a5b"}, "geometry": {"type": "Point", "coordinates": [8.61651, 49.67509]}},
{"type": "Feature", "id": "6Hhsy33UA5klmsbcri8cVjW88YA=", "properties": {"ref": "{335F4575-462A-43E4-8AEE-30B5D54EB99C}", "@spider": "alnatura_de", "organic": "only", "shop": "supermarket", "addr:street": "Salinenweg 1", "addr:city": "G\u00f6ttingen", "addr:postcode": "37081", "addr:country": "Deutschland", "name": "Alnatura Super Natur Markt", "phone": "0551/99962820", "opening_hours": "Mo-Sa 08:00-20:00", "brand": "Alnatura", "brand:wikidata": "Q876811", "nsi_id": "alnatura-f97a5b"}, "geometry": {"type": "Point", "coordinates": [9.908788, 51.53456]}},
{"type": "Feature", "id": "OcnTQ9TYA7uRfJE9cXM06pGELFM=", "properties": {"ref": "{D6B0614E-C770-4311-B1E5-25F5986B7CAF}", "@spider": "alnatura_de", "organic": "only", "shop": "supermarket", "addr:street": "In der Pfarrtanne 12 b", "addr:city": "Alsbach-H\u00e4hnlein", "addr:postcode": "64665", "addr:country": "Deutschland", "name": "Alnatura Super Natur Markt", "phone": "06257/5062496", "opening_hours": "Mo-Sa 08:00-20:00", "brand": "Alnatura", "brand:wikidata": "Q876811", "nsi_id": "alnatura-f97a5b"}, "geometry": {"type": "Point", "coordinates": [8.606629, 49.743639]}},
{"type": "Feature", "id": "tJNe8tzRiPtUzkMacxPpk13vSdQ=", "properties": {"ref": "{6EA40C12-5C9B-4BED-8B96-2B90B17D6204}", "@spider": "alnatura_de", "organic": "only", "shop": "supermarket", "addr:street": "Karl-von-Drais-Str. 5", "addr:city": "Frankfurt", "addr:postcode": "60435", "addr:country": "Deutschland", "name": "Alnatura Super Natur Markt", "phone": "069/90545554", "opening_hours": "Mo-Sa 07:00-20:00", "brand": "Alnatura", "brand:wikidata": "Q876811", "nsi_id": "alnatura-f97a5b"}, "geometry": {"type": "Point", "coordinates": [8.68143, 50.14746]}},
{"type": "Feature", "id": "GRLtY3kX_AAl83g4o1eXvFavv34=", "properties": {"ref": "{E775FD27-0E1D-4350-B483-CACE9AC30A4B}", "@spider": "alnatura_de", "organic": "only", "shop": "supermarket", "addr:street": "Kapellenstra\u00dfe 50 c", "addr:city": "Kriftel", "addr:postcode": "65830", "addr:country": "Deutschland", "name": "Alnatura Super Natur Markt", "phone": "06192/2001441", "opening_hours": "Mo-Sa 08:00-20:00", "brand": "Alnatura", "brand:wikidata": "Q876811", "nsi_id": "alnatura-f97a5b"}, "geometry": {"type": "Point", "coordinates": [8.455898, 50.0818]}},
{"type": "Feature", "id": "g4LoDmhYgRDVsWZDQ5kZFKs4gak=", "properties": {"ref": "{BEFDEE2A-5BB6-47E2-83DD-E20CBFD56D63}", "@spider": "alnatura_de", "organic": "only", "shop": "supermarket", "addr:street": "Eschersheimer Landstr. 526-532", "addr:city": "Frankfurt am Main", "addr:postcode": "60433", "addr:country": "Deutschland", "name": "Alnatura Super Natur Markt", "phone": "069/20116610", "brand": "Alnatura", "brand:wikidata": "Q876811", "nsi_id": "alnatura-f97a5b"}, "geometry": {"type": "Point", "coordinates": [8.658549, 50.155557]}},
{"type": "Feature", "id": "BGCl8o0_woRgoEi1LNeSy4Ea1Sc=", "properties": {"ref": "{E193F4D3-A767-462F-B7CD-459D46C93F7E}", "@spider": "alnatura_de", "organic": "only", "shop": "supermarket", "addr:street": "Ginnheimer Str. 18", "addr:city": "Eschborn", "addr:postcode": "65760", "addr:country": "Deutschland", "name": "Alnatura Super Natur Markt", "phone": "06196/8827989", "opening_hours": "Mo-Sa 08:00-21:00", "brand": "Alnatura", "brand:wikidata": "Q876811", "nsi_id": "alnatura-f97a5b"}, "geometry": {"type": "Point", "coordinates": [8.581421, 50.142462]}},
{"type": "Feature", "id": "WOUC44FBXkocVAuRSp-MSjvLuUw=", "properties": {"ref": "{FE56B15B-1319-4715-B809-EC2BA04B74EB}", "@spider": "alnatura_de", "organic": "only", "shop": "supermarket", "addr:street": "Dotzheimer Str. 14-18 ", "addr:city": "Wiesbaden", "addr:postcode": "65185", "addr:country": "Deutschland", "name": "Alnatura Super Natur Markt", "phone": "0611/44501220", "opening_hours": "Mo-Sa 08:00-21:00", "brand": "Alnatura", "brand:wikidata": "Q876811", "nsi_id": "alnatura-f97a5b"}, "geometry": {"type": "Point", "coordinates": [8.23461, 50.07869]}},
{"type": "Feature", "id": "rx_LZ10GOFRSkwCydsGAF1TQ_4M=", "properties": {"ref": "{D5CA63E8-C84E-4BB9-A9BE-61269B165815}", "@spider": "alnatura_de", "organic": "only", "shop": "supermarket", "addr:street": "Frankfurter Stra\u00dfe 1", "addr:city": "K\u00f6nigstein", "addr:postcode": "61462", "addr:country": "Deutschland", "name": "Alnatura Super Natur Markt", "phone": "06174/203193", "opening_hours": "Mo-Sa 07:18-20:00", "brand": "Alnatura", "brand:wikidata": "Q876811", "nsi_id": "alnatura-f97a5b"}, "geometry": {"type": "Point", "coordinates": [8.468187, 50.182115]}},
{"type": "Feature", "id": "exafvHE1S_oULibpoiWXyX9Mh5Y=", "properties": {"ref": "{A75C675E-A621-4B66-862E-BEA7B1D6835D}", "@spider": "alnatura_de", "organic": "only", "shop": "supermarket", "addr:street": "D\u00fcsseldorfer Str. 81-85", "addr:city": "Meerbusch", "addr:postcode": "40667", "addr:country": "Deutschland", "name": "Alnatura Super Natur Markt", "phone": "02132/9989938", "opening_hours": "Mo-Sa 08:00-20:00", "brand": "Alnatura", "brand:wikidata": "Q876811", "nsi_id": "alnatura-f97a5b"}, "geometry": {"type": "Point", "coordinates": [6.697697, 51.244276]}},
{"type": "Feature", "id": "3DJle6zaz72utw2rsrfpUR3u6TE=", "properties": {"ref": "{D59ABBB2-10A8-402B-AF5E-9215FC76C450}", "@spider": "alnatura_de", "organic": "only", "shop": "supermarket", "addr:street": "Kerpener Stra\u00dfe 177", "addr:city": "Kerpen", "addr:postcode": "50170", "addr:country": "Deutschland", "name": "Alnatura Super Natur Markt", "phone": "02273/9494407", "opening_hours": "Mo-Sa 08:00-20:00", "brand": "Alnatura", "brand:wikidata": "Q876811", "nsi_id": "alnatura-f97a5b"}, "geometry": {"type": "Point", "coordinates": [6.68354, 50.897911]}},
{"type": "Feature", "id": "_tbNSNGfBq1ftL1SyYs-TGjZFCU=", "properties": {"ref": "{7EBE073B-BD69-48DF-A5AA-AA3D0FCE9C4F}", "@spider": "alnatura_de", "organic": "only", "shop": "supermarket", "addr:street": "Konrad-Adenauer-Platz 11", "addr:city": "D\u00fcsseldorf", "addr:postcode": "40210", "addr:country": "Deutschland", "name": "Alnatura Super Natur Markt", "phone": "0211/17958128", "opening_hours": "Mo-Sa 07:00-20:00", "brand": "Alnatura", "brand:wikidata": "Q876811", "nsi_id": "alnatura-f97a5b"}, "geometry": {"type": "Point", "coordinates": [6.791282, 51.2204]}},
{"type": "Feature", "id": "OlioBI1_bwcxrTTB71Z9_Aji224=", "properties": {"ref": "{A2CFA315-CB86-4178-A165-2DDADE819D00}", "@spider": "alnatura_de", "organic": "only", "shop": "supermarket", "addr:street": "G\u00f6rgenstr. 14-16", "addr:city": "Koblenz", "addr:postcode": "56068", "addr:country": "Deutschland", "name": "Alnatura Super Natur Markt", "phone": "0261/97382954", "opening_hours": "Mo-Sa 08:00-20:00", "brand": "Alnatura", "brand:wikidata": "Q876811", "nsi_id": "alnatura-f97a5b"}, "geometry": {"type": "Point", "coordinates": [7.595432, 50.358857]}},
{"type": "Feature", "id": "g9kzsbdWoIihryXZOeHdsnMyl6g=", "properties": {"ref": "{3957A720-98BE-48BB-9EBD-FACF8ACC6E76}", "@spider": "alnatura_de", "organic": "only", "shop": "supermarket", "addr:street": "Am Wildpark 2a", "addr:city": "D\u00fcsseldorf", "addr:postcode": "40629", "addr:country": "Deutschland", "name": "Alnatura Super Natur Markt", "phone": "0211/52032015", "opening_hours": "Mo-Sa 07:18-20:00", "brand": "Alnatura", "brand:wikidata": "Q876811", "nsi_id": "alnatura-f97a5b"}, "geometry": {"type": "Point", "coordinates": [6.850768, 51.244605]}},
{"type": "Feature", "id": "pvzop8FO0zvclfwI-2fP9qrwh_A=", "properties": {"ref": "{2F80D99E-F0C5-4A90-AE2C-2623DD76E0D8}", "@spider": "alnatura_de", "organic": "only", "shop": "supermarket", "addr:street": "Andernacher Stra\u00dfe 238", "addr:city": "Koblenz", "addr:postcode": "56070", "addr:country": "Deutschland", "name": "Alnatura Super Natur Markt", "phone": "0261/9822219", "opening_hours": "Mo-Sa 08:00-20:00", "brand": "Alnatura", "brand:wikidata": "Q876811", "nsi_id": "alnatura-f97a5b"}, "geometry": {"type": "Point", "coordinates": [7.578961, 50.38086]}},
{"type": "Feature", "id": "tKLTRPs4SSG5-DQEXabxleHkGRE=", "properties": {"ref": "{27CDD4A9-958A-40CD-825F-B00E5944EC63}", "@spider": "alnatura_de", "organic": "only", "shop": "supermarket", "addr:street": "Aachener Stra\u00dfe 1141", "addr:city": "K\u00f6ln", "addr:postcode": "50858", "addr:country": "Deutschland", "name": "Alnatura Super Natur Markt", "phone": "02234/6977648", "opening_hours": "Mo-Sa 07:18-20:00", "brand": "Alnatura", "brand:wikidata": "Q876811", "nsi_id": "alnatura-f97a5b"}, "geometry": {"type": "Point", "coordinates": [6.84494, 50.937733]}},
{"type": "Feature", "id": "IO6esZnmUfOd1s8XQgoq60Ee-Kc=", "properties": {"ref": "{3F9AFB21-A282-4C1A-B484-3C0A7F6493BC}", "@spider": "alnatura_de", "organic": "only", "shop": "supermarket", "addr:street": "Berrenrather Stra\u00dfe 240", "addr:city": "K\u00f6ln", "addr:postcode": "50939", "addr:country": "Deutschland", "name": "Alnatura Super Natur Markt", "phone": "0221/4206689", "opening_hours": "Mo-Sa 07:18-20:00", "brand": "Alnatura", "brand:wikidata": "Q876811", "nsi_id": "alnatura-f97a5b"}, "geometry": {"type": "Point", "coordinates": [6.925436, 50.91848]}},
{"type": "Feature", "id": "kmU6rIWtaS_k5LBQXSEW_SDNdMg=", "properties": {"ref": "{7F758CC7-6AFF-4B31-BB22-38B9DF74B189}", "@spider": "alnatura_de", "organic": "only", "shop": "supermarket", "addr:street": "Venloer Str. 301 - 303", "addr:city": "K\u00f6ln", "addr:postcode": "50823", "addr:country": "Deutschland", "name": "Alnatura Super Natur Markt", "phone": "0221/58921811", "opening_hours": "Mo-Sa 07:18-20:00", "brand": "Alnatura", "brand:wikidata": "Q876811", "nsi_id": "alnatura-f97a5b"}, "geometry": {"type": "Point", "coordinates": [6.920053, 50.948241]}},
{"type": "Feature", "id": "hXVo-8nNQvzK2Wks_kRle3YS40I=", "properties": {"ref": "{D91CCC6D-87D6-487F-B7E4-C2ED59C8373F}", "@spider": "alnatura_de", "organic": "only", "shop": "supermarket", "addr:street": "Bismarckstr. 27-29", "addr:city": "K\u00f6ln", "addr:postcode": "50672", "addr:country": "Deutschland", "name": "Alnatura Super Natur Markt", "phone": "0221/80009847", "opening_hours": "Mo-Sa 07:18-20:00", "brand": "Alnatura", "brand:wikidata": "Q876811", "nsi_id": "alnatura-f97a5b"}, "geometry": {"type": "Point", "coordinates": [6.935816, 50.941469]}},
{"type": "Feature", "id": "-OQ18GespAK458RywF-e3cgL23Q=", "properties": {"ref": "{5B1E3286-3860-43E4-9999-7C32AFAC24F7}", "@spider": "alnatura_de", "organic": "only", "shop": "supermarket", "addr:street": "Neumarkt 41-43", "addr:city": "K\u00f6ln", "addr:postcode": "50667", "addr:country": "Deutschland", "name": "Alnatura Super Natur Markt", "phone": "0221/64065075", "opening_hours": "Mo-Sa 07:00-20:00", "brand": "Alnatura", "brand:wikidata": "Q876811", "nsi_id": "alnatura-f97a5b"}, "geometry": {"type": "Point", "coordinates": [6.94632, 50.93552]}},
{"type": "Feature", "id": "v8pz7yPnEFqsVc_6BNDQhIvmXAk=", "properties": {"ref": "{31B9E47F-3D80-44C1-AE65-DEF5130D884F}", "@spider": "alnatura_de", "organic": "only", "shop": "supermarket", "addr:street": "Severinstr. 35-37", "addr:city": "K\u00f6ln", "addr:postcode": "50678", "addr:country": "Deutschland", "name": "Alnatura Super Natur Markt", "phone": "0221/42048583", "opening_hours": "Mo-Sa 08:00-20:00", "brand": "Alnatura", "brand:wikidata": "Q876811", "nsi_id": "alnatura-f97a5b"}, "geometry": {"type": "Point", "coordinates": [6.958576, 50.923248]}},
{"type": "Feature", "id": "bsAnye994uwvpV2K0GF_4guprTs=", "properties": {"ref": "{B592FDC5-3A1C-495F-80F1-08B6A2711DD7}", "@spider": "alnatura_de", "organic": "only", "shop": "supermarket", "addr:street": "Neusser Stra\u00dfe 264", "addr:city": "K\u00f6ln", "addr:postcode": "50733", "addr:country": "Deutschland", "name": "Alnatura Super Natur Markt", "phone": "0221/1208107", "opening_hours": "Mo-Sa 08:00-20:00", "brand": "Alnatura", "brand:wikidata": "Q876811", "nsi_id": "alnatura-f97a5b"}, "geometry": {"type": "Point", "coordinates": [6.95389, 50.963851]}},
{"type": "Feature", "id": "Edap3p7y0xSijjnRFlfMCmgHit0=", "properties": {"ref": "{CC1CCEB9-FE74-4691-8E07-EDDC1907B6DA}", "@spider": "alnatura_de", "organic": "only", "shop": "supermarket", "addr:street": "Goltsteinstra\u00dfe 91", "addr:city": "K\u00f6ln", "addr:postcode": "50968", "addr:country": "Deutschland", "name": "Alnatura Super Natur Markt", "phone": "0221/37798938", "opening_hours": "Mo-Sa 08:00-20:00", "brand": "Alnatura", "brand:wikidata": "Q876811", "nsi_id": "alnatura-f97a5b"}, "geometry": {"type": "Point", "coordinates": [6.970911, 50.906159]}},
{"type": "Feature", "id": "vhQvxBR-zbH2lUjjNumlbeZFbr8=", "properties": {"ref": "{EC4EFC80-AA18-4BE2-8637-F17E32255310}", "@spider": "alnatura_de", "organic": "only", "shop": "supermarket", "addr:street": "Bahnhofstra\u00dfe 32", "addr:city": "Witten", "addr:postcode": "58452", "addr:country": "Deutschland", "name": "Alnatura Super Natur Markt", "phone": "02302/2783732", "opening_hours": "Mo-Sa 08:00-20:00", "brand": "Alnatura", "brand:wikidata": "Q876811", "nsi_id": "alnatura-f97a5b"}, "geometry": {"type": "Point", "coordinates": [7.333465, 51.438305]}},
{"type": "Feature", "id": "38dlREm5kZy8qiT8mr8GSBIo8RA=", "properties": {"ref": "{FB6274F7-090C-4554-AFA9-086E42F07FB4}", "@spider": "alnatura_de", "organic": "only", "shop": "supermarket", "addr:street": "Quantiusstra\u00dfe 23", "addr:city": "Bonn", "addr:postcode": "53115", "addr:country": "Deutschland", "name": "Alnatura Super Natur Markt", "phone": "0228/55529553", "opening_hours": "Mo-Sa 08:00-20:00", "brand": "Alnatura", "brand:wikidata": "Q876811", "nsi_id": "alnatura-f97a5b"}, "geometry": {"type": "Point", "coordinates": [7.095506, 50.731875]}},
{"type": "Feature", "id": "CaTTJ9NL5V_Sd6n7kN94ohWk3iY=", "properties": {"ref": "{1B8D80D2-62BC-4FC2-B14C-9DF136E12810}", "@spider": "alnatura_de", "organic": "only", "shop": "supermarket", "addr:street": "Friedrich-Breuer-Stra\u00dfe 80 ", "addr:city": "Bonn", "addr:postcode": "53225", "addr:country": "Deutschland", "name": "Alnatura Super Natur Markt", "phone": "0228/96180422", "opening_hours": "Mo-Sa 07:18-20:00", "brand": "Alnatura", "brand:wikidata": "Q876811", "nsi_id": "alnatura-f97a5b"}, "geometry": {"type": "Point", "coordinates": [7.121866, 50.739579]}},
{"type": "Feature", "id": "HHF-vQWvHCvHiZh7ohmtP_360gU=", "properties": {"ref": "{13E107B5-6430-4852-AC6A-E70D041FF58F}", "@spider": "alnatura_de", "organic": "only", "shop": "supermarket", "addr:street": "K\u00fcrtener Str. 1-13", "addr:city": "Bergisch Gladbach", "addr:postcode": "51465", "addr:country": "Deutschland", "name": "Alnatura Super Natur Markt", "phone": "02202/2078883", "opening_hours": "Mo-Sa 08:00-20:00", "brand": "Alnatura", "brand:wikidata": "Q876811", "nsi_id": "alnatura-f97a5b"}, "geometry": {"type": "Point", "coordinates": [7.146889, 50.994047]}}]}