{"type":"FeatureCollection","features":[{"type": "Feature", "id": "Q2LV4nHgsPAdrSqt-_SreEWroCY=", "properties": {"ref": "1", "@spider": "alstom", "addr:full": "Alstom Algeria SPA Cooprative immobilire - El-Amel lots n 3 et 4 Said Hamdine Bir Mourad Rai, BP 47 - 16000 Algiers - Algeria", "addr:country": "DZ", "name": "Algiers", "phone": "+21321605745", "brand": "Alstom", "brand:wikidata": "Q309084"}, "geometry": {"type": "Point", "coordinates": [3.036991, 36.731552]}},
{"type": "Feature", "id": "2gvXTaj2Se4tRnjCh6kbmY5COTg=", "properties": {"ref": "16", "@spider": "alstom", "addr:full": "Av. L. N. Alem 896 , 7 floor - Buenos Aires C1001AAQ - Argentina", "addr:country": "AR", "name": "Alem", "phone": "+54 11 4891 9600", "brand": "Alstom", "brand:wikidata": "Q309084"}, "geometry": {"type": "Point", "coordinates": [-58.372219, -34.596642]}},
{"type": "Feature", "id": "9AyAZzwp_kA3Ek6c9htzapzLChU=", "properties": {"ref": "6", "@spider": "alstom", "addr:full": "Guanahani, 308 - C1274ACF Buenos Aires - Argentina", "addr:country": "AR", "name": "Guanahani", "phone": "+55 11 307-7227", "brand": "Alstom", "brand:wikidata": "Q309084"}, "geometry": {"type": "Point", "coordinates": [-58.380253, -34.634028]}},
{"type": "Feature", "id": "yt_mIqG3tc2IwBliXaUp9S5_lYY=", "properties": {"ref": "11", "@spider": "alstom", "addr:full": "Calle 57 y 136, Los Hornos - La Plata - Argentina", "addr:country": "AR", "name": "Los Hornos", "phone": "+54 221 509-9121 ", "brand": "Alstom", "brand:wikidata": "Q309084"}, "geometry": {"type": "Point", "coordinates": [-57.9375165, -34.9119371]}},
{"type": "Feature", "id": "ag5H0kDFsfKkGdQJExbgf2LbdcQ=", "properties": {"ref": "21", "@spider": "alstom", "addr:full": "600 Creswick Road - Ballarat, VIC 3350 - Australia", "addr:country": "AU", "name": "Ballarat", "phone": "Phone: +61353378787 ", "brand": "Alstom", "brand:wikidata": "Q309084"}, "geometry": {"type": "Point", "coordinates": [143.8513, -37.54694]}},
{"type": "Feature", "id": "67cCQWxrWZ-dHmVQyhmq3dFlUAI=", "properties": {"ref": "41", "@spider": "alstom", "addr:full": "<span><span><span lang=\"EN-AU\">Level 1, 159 Coronation Drive, Milton  Brisbane QLD Australia 4064</span></span></span>", "addr:country": "AU", "name": "Brisbane", "brand": "Alstom", "brand:wikidata": "Q309084"}, "geometry": {"type": "Point", "coordinates": [153.00859, -27.46992]}},
{"type": "Feature", "id": "Upae2RTlrho2_D4Vq2t9MBUyvxw=", "properties": {"ref": "36", "@spider": "alstom", "addr:full": "Level 14, 50 Queen Street - Melbourne VIC 3000 - Australia", "addr:country": "AU", "name": "Melbourne (AU)", "phone": "Phone: +61 3 9612 5400", "brand": "Alstom", "brand:wikidata": "Q309084"}, "geometry": {"type": "Point", "coordinates": [144.962176, -37.817589]}},
{"type": "Feature", "id": "ZOdVXkF2rzlXGDqWTCZS7N_6Guk=", "properties": {"ref": "31", "@spider": "alstom", "addr:full": "Level 7, 441 Murray Street, Perth, WA 6000", "addr:country": "AU", "name": "Perth", "brand": "Alstom", "brand:wikidata": "Q309084"}, "geometry": {"type": "Point", "coordinates": [115.85251, -31.9512]}},
{"type": "Feature", "id": "3uXqNYzUQeC47DXiFNEKH8GnrVQ=", "properties": {"ref": "26", "@spider": "alstom", "addr:full": "Level 4, 16 Giffnock Avenue, North Ryde - Syndey NSW 2113 - Australia", "addr:country": "AU", "name": "Sydney", "phone": "Phone: +61 2 8870 6000", "brand": "Alstom", "brand:wikidata": "Q309084"}, "geometry": {"type": "Point", "coordinates": [151.123498, -33.783851]}},
{"type": "Feature", "id": "jiof8JHhMGpnvSXMc2Lg-82HrcQ=", "properties": {"ref": "26081", "@spider": "alstom", "addr:full": "35-45 Frankston-Dandenong Road - 3175 Dandenong South - Australia", "addr:country": "AU", "name": "Dandenong", "phone": "+61 3 97942111", "brand": "Alstom", "brand:wikidata": "Q309084"}, "geometry": {"type": "Point", "coordinates": [145.21806, -38.00241]}},
{"type": "Feature", "id": "xoUOqQGxpMJsaux_uHCsrptQetg=", "properties": {"ref": "26086", "@spider": "alstom", "addr:full": "9 Michelin Street (off Olympic Circuit)- 4215 Southport QLD- Australia", "addr:country": "AU", "name": "Gold Coast", "phone": "+61 7 38109913", "brand": "Alstom", "brand:wikidata": "Q309084"}, "geometry": {"type": "Point", "coordinates": [153.39167, -27.9676]}},
{"type": "Feature", "id": "eEMJwS3I-fj2keaB_5dClJrTNFA=", "properties": {"ref": "26091", "@spider": "alstom", "addr:full": "Cnr Whistle Stop Place and Toongarra Road - 4305 Wulkuraka - Australia", "addr:country": "AU", "name": "Wulkuraka", "phone": "+61 7 38109913", "brand": "Alstom", "brand:wikidata": "Q309084"}, "geometry": {"type": "Point", "coordinates": [152.72112, -27.61107]}},
{"type": "Feature", "id": "KjVdK4MELwzQiNe2YWEpYSKGAxs=", "properties": {"ref": "26096", "@spider": "alstom", "addr:full": "Gate 161 Clisby Lane, (off Railway Road) - 5169 Seaford Meadows - Australia", "addr:country": "AU", "name": "Adelaide (Seaford)", "phone": "+61400 084 454", "brand": "Alstom", "brand:wikidata": "Q309084"}, "geometry": {"type": "Point", "coordinates": [138.49022, -35.17616]}},
{"type": "Feature", "id": "Y_AQKSI7p1Q-a-u3HokahseEuKk=", "properties": {"ref": "26101", "@spider": "alstom", "addr:full": "1A Corbett Street - 3350 Ballarat East - Australia", "addr:country": "AU", "name": "Ballarat East", "phone": "+61427740684", "brand": "Alstom", "brand:wikidata": "Q309084"}, "geometry": {"type": "Point", "coordinates": [143.86968, -37.56011]}},
{"type": "Feature", "id": "0rNwEWGk3emDk7VmUkxh2Bg5D9A=", "properties": {"ref": "26106", "@spider": "alstom", "addr:full": "Gate H, Dudley St - 3003 West Melbourne - Australia", "addr:country": "AU", "name": "West Melbourne", "phone": "+61396196585", "brand": "Alstom", "brand:wikidata": "Q309084"}, "geometry": {"type": "Point", "coordinates": [144.94714, -37.81116]}},
{"type": "Feature", "id": "aRNH22xBmmCv9fz65TQXNNdBbWI=", "properties": {"ref": "26111", "@spider": "alstom", "addr:full": "109 March Street - 4650 Maryborough QLD - Australia", "addr:country": "AU", "name": "Maryborough", "phone": "+61 07 4114 1303", "brand": "Alstom", "brand:wikidata": "Q309084"}, "geometry": {"type": "Point", "coordinates": [152.70566, -25.54125]}},
{"type": "Feature", "id": "pe5BJFD9gc2pL4SwtLCtnHypvZY=", "properties": {"ref": "26116", "@spider": "alstom", "addr:full": "10 Finchley Street, Milton - 4064 Brisbane - Australia", "addr:country": "AU", "name": "Milton", "phone": "+61 409 528 219", "brand": "Alstom", "brand:wikidata": "Q309084"}, "geometry": {"type": "Point", "coordinates": [153.00589, -27.46515]}},
{"type": "Feature", "id": "UfRpONl4IiuKe0KaLr1HDVkNSpU=", "properties": {"ref": "26121", "@spider": "alstom", "addr:full": "21 Leehey Street - 6721 Wedgefield - Australia", "addr:country": "AU", "name": "Wedgefield", "brand": "Alstom", "brand:wikidata": "Q309084"}, "geometry": {"type": "Point", "coordinates": [118.58552, -20.36841]}},
{"type": "Feature", "id": "TInhy9VTY54JTg7xDN0P5G6XnKo=", "properties": {"ref": "24916", "@spider": "alstom", "addr:full": "Hermann Gebauer Strae 5 - 1220 Vienna - Austria", "addr:country": "AT", "name": "Vienna (Hermann-Gebauer-Strasse)", "phone": "+43 1 25 110 0", "brand": "Alstom", "brand:wikidata": "Q309084"}, "geometry": {"type": "Point", "coordinates": [16.47297, 48.26507]}},
{"type": "Feature", "id": "b7cz-Pvso4YtDqYowyQPerku5pE=", "properties": {"ref": "51", "@spider": "alstom", "addr:full": "75 Rasul Rza Street, WinterPark Plaza 17th floor - AZ1014 Baku - Azerbaijan", "addr:country": "AZ", "name": "Baku", "phone": "+994125057091", "brand": "Alstom", "brand:wikidata": "Q309084"}, "geometry": {"type": "Point", "coordinates": [49.83776679791967, 40.37596053955333]}},
{"type": "Feature", "id": "3JfM9eCTXYF3yNjf0p_n3nD5fao=", "properties": {"ref": "56", "@spider": "alstom", "addr:full": "50-52 rue Cambier Dupret - 6001 Charleroi - Belgium", "addr:country": "BE", "name": "Charleroi", "phone": "+3271445411   ", "brand": "Alstom", "brand:wikidata": "Q309084"}, "geometry": {"type": "Point", "coordinates": [4.448818, 50.404219]}},
{"type": "Feature", "id": "rfP2mguQWz7U6BXg_qmq3EhRs_M=", "properties": {"ref": "25701", "@spider": "alstom", "addr:full": "5 Vaartdijkstraat -8200 Brugge - Belgium", "addr:country": "BE", "name": "Brugge", "phone": "+32 50 40 11 11 ", "brand": "Alstom", "brand:wikidata": "Q309084"}, "geometry": {"type": "Point", "coordinates": [3.2278097, 51.1909724]}},
{"type": "Feature", "id": "hPfpkz-b3np1jbv0mJSkrBe4L2w=", "properties": {"ref": "25706", "@spider": "alstom", "addr:full": "8 Place Marcel Broodthaers -1060 Brussels -Belgium", "addr:country": "BE", "name": "Brussels", "phone": "+32 2 647 49 64", "brand": "Alstom", "brand:wikidata": "Q309084"}, "geometry": {"type": "Point", "coordinates": [4.3377182, 50.834921]}},
{"type": "Feature", "id": "rDk0J0c2M-t6JdSZqndqdWOiDIM=", "properties": {"ref": "25711", "@spider": "alstom", "addr:full": "32 Avenue de Spirou -6220 Fleurus -Belgium", "addr:country": "BE", "name": "Fleurus", "phone": "+32483681163", "brand": "Alstom", "brand:wikidata": "Q309084"}, "geometry": {"type": "Point", "coordinates": [4.5387335, 50.4513305]}},
{"type": "Feature", "id": "M5U-f6S-6N-qoXEe6YbI7DzpBVU=", "properties": {"ref": "76", "@spider": "alstom", "addr:full": "Virgilio Wey Street, 150 - gua Branca - So Paulo / SP - 05036-050 - Brazil", "addr:country": "BR", "name": "gua Branca ", "phone": "+55 11 3617-8000", "brand": "Alstom", "brand:wikidata": "Q309084"}, "geometry": {"type": "Point", "coordinates": [-46.695826, -23.512957]}},
{"type": "Feature", "id": "x5A4LjDJCBmhL6H4UxZqCQsfZgM=", "properties": {"ref": "81", "@spider": "alstom", "addr:full": "Marechal Floriano Avenue , 19  23rd floor - Rio de Janeiro  RJ - 20080-003, Brazil", "addr:country": "BR", "name": "Rio de Janeiro ", "phone": "+55 21 35433000", "brand": "Alstom", "brand:wikidata": "Q309084"}, "geometry": {"type": "Point", "coordinates": [-43.218627, -22.647634]}},
{"type": "Feature", "id": "h2u7D6eaxS_IPOBaGkplL6mahS4=", "properties": {"ref": "71", "@spider": "alstom", "addr:full": "Av. Jos Renato Cursino de Moura, 390 - Jardim das Bandeiras - Taubat/SP - 12051-150 - Brazil", "addr:country": "BR", "name": "Taubat ", "phone": "+55 12 36258200", "brand": "Alstom", "brand:wikidata": "Q309084"}, "geometry": {"type": "Point", "coordinates": [-45.5564, -23.0205]}},
{"type": "Feature", "id": "YEDyH_r4_DTGqK6lTYIZKJjOJfc=", "properties": {"ref": "26221", "@spider": "alstom", "addr:full": "Av. do Oratrio, 1053 - Jardim Independncia - S. Paulo/SP - Brazil - 03221-000 ", "addr:country": "BR", "name": "Oratrio ", "brand": "Alstom", "brand:wikidata": "Q309084"}, "geometry": {"type": "Point", "coordinates": [-46.55709, -23.58665]}},
{"type": "Feature", "id": "aRb6gfMKbVOBqi_xeW6GmOS-p2o=", "properties": {"ref": "29956", "@spider": "alstom", "addr:full": "Av. do Oratrio, 2490 - Jardim Independncia - S. Paulo/SP - Brazil - 03221-000 ", "addr:country": "BR", "name": "So Lucas", "brand": "Alstom", "brand:wikidata": "Q309084"}, "geometry": {"type": "Point", "coordinates": [-46.5455360725039, -23.592861172107547]}},
{"type": "Feature", "id": "-n6GkeuGQhUyVhdog4zf1Nhrf_M=", "properties": {"ref": "91", "@spider": "alstom", "addr:full": "1050 Beaver Hall Hill, 18th floor - Montreal, Quebec H2Z 0A5 - Canada", "addr:country": "CA", "name": "Montreal", "brand": "Alstom", "brand:wikidata": "Q309084"}, "geometry": {"type": "Point", "coordinates": [-73.5649, 45.5019]}},
{"type": "Feature", "id": "GJp_O4VXpKffUoWfMBviathIFWg=", "properties": {"ref": "106", "@spider": "alstom", "addr:full": "7 Blair Drive, Brampton, OntarioL6T 2H4", "addr:country": "CA", "name": "Brampton", "brand": "Alstom", "brand:wikidata": "Q309084"}, "geometry": {"type": "Point", "coordinates": [-79.717934, 43.695171]}},
{"type": "Feature", "id": "f4TgFAxCBQg8QikxDnCeXGrCkPE=", "properties": {"ref": "96", "@spider": "alstom", "addr:full": "805 Belfast Road - Ottawa, Ontario K1G 0Z4 - Canada", "addr:country": "CA", "name": "Ottawa", "phone": "+1 343 688-0775", "brand": "Alstom", "brand:wikidata": "Q309084"}, "geometry": {"type": "Point", "coordinates": [-75.6401, 45.414]}},
{"type": "Feature", "id": "w8By_vMXOfPDO_w21tV4nZpRM6k=", "properties": {"ref": "86", "@spider": "alstom", "addr:full": "1500 rue de la Marine - Sorel-Tracy, Quebec J3R 0A8 - Canada", "addr:country": "CA", "name": "Sorel-Tracy", "phone": "+1 450 746-6300", "brand": "Alstom", "brand:wikidata": "Q309084"}, "geometry": {"type": "Point", "coordinates": [-73.12824, 46.0373]}},
{"type": "Feature", "id": "d1xFVRvFT4Jc1xUuwm6n-9YKtKo=", "properties": {"ref": "101", "@spider": "alstom", "addr:full": "199 Bay Street, Suite 2810 - Toronto, Ontario M5L 1E5 - Canada", "addr:country": "CA", "name": "Toronto", "phone": "+1 416 214-2050", "brand": "Alstom", "brand:wikidata": "Q309084"}, "geometry": {"type": "Point", "coordinates": [-79.3795, 43.6482]}},
{"type": "Feature", "id": "JrzoDkn66McdP4s0d0vdif7Ibls=", "properties": {"ref": "25536", "@spider": "alstom", "addr:full": "1101 Parent Street - St-Bruno, Quebec J3V 6E6 - Canada", "addr:country": "CA", "name": "St-Bruno - Regional Head Office", "phone": "+1 450 441-2020", "brand": "Alstom", "brand:wikidata": "Q309084"}, "geometry": {"type": "Point", "coordinates": [-73.3722367, 45.526438]}},
{"type": "Feature", "id": "V72TNDqbFpJqcKdg5jslOQLBQfw=", "properties": {"ref": "25541", "@spider": "alstom", "addr:full": "1320 Ren-Descartes Street, St-Bruno, Quebec J3V 0B7 - Canada", "addr:country": "CA", "name": "St-Bruno - Prototype Centre", "phone": "+1 450 441-2020", "brand": "Alstom", "brand:wikidata": "Q309084"}, "geometry": {"type": "Point", "coordinates": [-73.3810146, 45.518538]}},
{"type": "Feature", "id": "WWKmdJ_7LwHGbvj-VloG-p1zMsA=", "properties": {"ref": "25546", "@spider": "alstom", "addr:full": "130 Route 230, La Pocatire, Quebec G0R 4E0 - Canada ", "addr:country": "CA", "name": "La Pocatire", "phone": "+1 418 856-1232 ", "brand": "Alstom", "brand:wikidata": "Q309084"}, "geometry": {"type": "Point", "coordinates": [-70.0631574, 47.3567911]}},
{"type": "Feature", "id": "263_7Mo9jTQec5H-uw_wtcQb-5g=", "properties": {"ref": "25551", "@spider": "alstom", "addr:full": "1001 Montreal Street, Thunder Bay, Ontario P7C 4V6 - Canada", "addr:country": "CA", "name": "Thunder Bay", "phone": "+1 807 475-2810", "brand": "Alstom", "brand:wikidata": "Q309084"}, "geometry": {"type": "Point", "coordinates": [-89.302694, 48.3589701]}},
{"type": "Feature", "id": "dNRaMISiK1K6dWDM7H1F2p6ruAw=", "properties": {"ref": "25556", "@spider": "alstom", "addr:full": "5095 Taylor-Kidd Boulevard, Country Road 23 - Millhaven, Ontario K7M 6J9 - Canada", "addr:country": "CA", "name": "Kingston", "phone": "+1 613 384-3100", "brand": "Alstom", "brand:wikidata": "Q309084"}, "geometry": {"type": "Point", "coordinates": [-76.7256078, 44.2131423]}},
{"type": "Feature", "id": "VjnUhwmRjpNAcLQp4_gdmfUKF_o=", "properties": {"ref": "25561", "@spider": "alstom", "addr:full": "7 Blair Road, Brampton, OntarioL6T 2H4 - Canada", "addr:country": "CA", "name": "Toronto (Brampton)", "brand": "Alstom", "brand:wikidata": "Q309084"}, "geometry": {"type": "Point", "coordinates": [-79.7184057, 43.6940352]}},
{"type": "Feature", "id": "OKTlx02Vjf9GAqMnhArtfmLJDTQ=", "properties": {"ref": "136", "@spider": "alstom", "addr:full": "Mariano Snchez Fontecilla 310 - 9 piso - 7550296 Las Condes - Chile", "addr:country": "CL", "name": "Las Condes", "phone": "Phone: +56 22 2376000", "brand": "Alstom", "brand:wikidata": "Q309084"}, "geometry": {"type": "Point", "coordinates": [-70.5984, -33.42]}},
{"type": "Feature", "id": "AQH04PRsL0BkLAJj2l3AW1KlWHg=", "properties": {"ref": "131", "@spider": "alstom", "addr:full": "Calle Miraflores 101 - 2240000 Limache - Chile", "addr:country": "CL", "name": "Limache", "phone": "Phone: + 56 33 28 6400", "brand": "Alstom", "brand:wikidata": "Q309084"}, "geometry": {"type": "Point", "coordinates": [-71.45178, -33.04606]}},
{"type": "Feature", "id": "yOPRrwdbJNzkzxnfq0knt3Daol0=", "properties": {"ref": "126", "@spider": "alstom", "addr:full": "Av. Lo Ovalle 192 - San Miguel  - ZIP 8930605 - Chile", "addr:country": "CL", "name": "Lo Ovalle", "phone": "Phone: + 56 33 28 6400", "brand": "Alstom", "brand:wikidata": "Q309084"}, "geometry": {"type": "Point", "coordinates": [-71.45178, -33.04606]}},
{"type": "Feature", "id": "tsgOIzwVyLC-zKqI8nxlgPh-iRI=", "properties": {"ref": "111", "@spider": "alstom", "addr:full": "Avenida Dorsal 6252 - 8990924 Lo Prado - Chile", "addr:country": "CL", "name": "Lo Prado", "phone": "Phone: + 56 2 376080", "brand": "Alstom", "brand:wikidata": "Q309084"}, "geometry": {"type": "Point", "coordinates": [-70.72231, -33.45175]}},
{"type": "Feature", "id": "sW2ihL_EjwCOyexa_RQ2effDOvU=", "properties": {"ref": "116", "@spider": "alstom", "addr:full": "Calle La Balanza, 1018 - 8181287 Puento Alto - Chile", "addr:country": "CL", "name": "Puente Alto", "phone": "Phone: + 56 2 376150", "brand": "Alstom", "brand:wikidata": "Q309084"}, "geometry": {"type": "Point", "coordinates": [-70.56705, -33.59986]}},
{"type": "Feature", "id": "TD5Gk5msMlemXpi5mg77qteq5XM=", "properties": {"ref": "121", "@spider": "alstom", "addr:full": "Av. Centenario sin nmero, Maestranza san Eugenio EFE, Estacin central - Chile", "addr:country": "CL", "name": "Taller Siglo XXI - Proyecto Rancagua Express", "phone": "Phone: + 56 2 376100", "brand": "Alstom", "brand:wikidata": "Q309084"}, "geometry": {"type": "Point", "coordinates": [-70.72231, -33.45175]}},
{"type": "Feature", "id": "9uwNVof-cu2BecIUX7Af4DuJDQQ=", "properties": {"ref": "171", "@spider": "alstom", "addr:full": "R.3105, Renheng Zhidi Guangchang Xiezilou, No.1, Renmin Nanlu Erduan, Jinjiang District, Chengdu City, Sichuan 610000-P.R. China", "addr:country": "CN", "name": "Chengdu", "phone": "86 (28) 87531285", "brand": "Alstom", "brand:wikidata": "Q309084"}, "geometry": {"type": "Point", "coordinates": [104.073194, 30.657839]}},
{"type": "Feature", "id": "w2EaPiTIdVUJOtajDeyQhhGaWdY=", "properties": {"ref": "141", "@spider": "alstom", "addr:full": "Unit 1011-12, 10F, New Kowloon Plaza, 38 Tai Kok Tsui Road - Kowloon, Hong Kong", "addr:country": "CN", "name": "Hong Kong", "phone": "+852 27246300", "brand": "Alstom", "brand:wikidata": "Q309084"}, "geometry": {"type": "Point", "coordinates": [114.162554, 22.31965]}},
{"type": "Feature", "id": "hDmM2WoofWKgWEc_C1g3B4bETaI=", "properties": {"ref": "161", "@spider": "alstom", "addr:full": "Xin Ye Road - Hi-tech Industry Development Zone - Qingdao, Shandong 266114 - P.R. China", "addr:country": "CN", "name": "Qingdao", "phone": "86 532 6868 3100", "brand": "Alstom", "brand:wikidata": "Q309084"}, "geometry": {"type": "Point", "coordinates": [120.268754, 36.255692]}},
{"type": "Feature", "id": "vOcKW7idAl2XTBNepks0blrg7F4=", "properties": {"ref": "156", "@spider": "alstom", "addr:full": "4055 Yin Du Road, Min Hang District - Shanghai 201108 - P.R. China", "addr:country": "CN", "name": "Shanghai (SATEE)", "phone": "86 21 3323 2350", "brand": "Alstom", "brand:wikidata": "Q309084"}, "geometry": {"type": "Point", "coordinates": [121.4191, 31.08087]}},
{"type": "Feature", "id": "gozMAGsGkhZyTGkM3Gv7orDiIMM=", "properties": {"ref": "151", "@spider": "alstom", "addr:full": "10F, Cura International Center, No. 500 Hongqiao Rd., Xuhui District - Shanghai 200030 - P.R. China", "addr:country": "CN", "name": "Shanghai (AIC)", "phone": "+8621-61033888", "brand": "Alstom", "brand:wikidata": "Q309084"}, "geometry": {"type": "Point", "coordinates": [121.435759, 31.199557]}},
{"type": "Feature", "id": "1F-QO9i-sKQO13HQGpSoij5Og4M=", "properties": {"ref": "146", "@spider": "alstom", "addr:full": "168 Cao Tan 3rd Road - Cantan Ecological Industrial Park - Xi'An Econ.&amp;Tech. Development Zone - Shannxi Province, 710021 - P.R. China", "addr:country": "CN", "name": "Xi'An ", "phone": "+86 26 8640 3055", "brand": "Alstom", "brand:wikidata": "Q309084"}, "geometry": {"type": "Point", "coordinates": [108.897751, 108.905018]}},
{"type": "Feature", "id": "5VkvL1wlNsKo0m2Sk_74uudmfcI=", "properties": {"ref": "25406", "@spider": "alstom", "addr:full": "Room 3901, Tower C Yintai Center - No.2 Jianguomenwaidajie, Chaoyang Dist., Beijing 100022-P.R. China", "addr:country": "CN", "name": "Beijing ", "phone": "+86 10 8517 2268", "brand": "Alstom", "brand:wikidata": "Q309084"}, "geometry": {"type": "Point", "coordinates": [116.453555, 39.906049]}},
{"type": "Feature", "id": "rlOZISXuw3RjQbk7sCDHA0PF9J4=", "properties": {"ref": "25411", "@spider": "alstom", "addr:full": "No. 1006, HuSong Road, Songjiang District, Shanghai 201605-P.R. China", "addr:country": "CN", "name": "Shanghai (JV SHBRT)", "phone": "+86 21 6127 5819", "brand": "Alstom", "brand:wikidata": "Q309084"}, "geometry": {"type": "Point", "coordinates": [121.328759, 31.149853]}},
{"type": "Feature", "id": "Dan4UbCekHMhNzuKmc30FU7slPA=", "properties": {"ref": "25416", "@spider": "alstom", "addr:full": "No. 435 QingYin Road, Changchun, Jilin Province 130062-P.R. China", "addr:country": "CN", "name": "Changchun (JV CBRC)", "phone": "+86 431 8790 4600", "brand": "Alstom", "brand:wikidata": "Q309084"}, "geometry": {"type": "Point", "coordinates": [125.292892, 43.905314]}},
{"type": "Feature", "id": "vJe1xV3Jqa5iRrOqPs6vtBNzSrY=", "properties": {"ref": "25421", "@spider": "alstom", "addr:full": "No. 199, South Fenglin Road, Wujin National High and new Technology Industrial Development Zone,Changzhou, Jiangsu Province 213166-P.R. China", "addr:country": "CN", "name": "Changzhou (JV BNP)", "phone": "+86 519 8837 3095", "brand": "Alstom", "brand:wikidata": "Q309084"}, "geometry": {"type": "Point", "coordinates": [119.919569, 31.652596]}},
{"type": "Feature", "id": "e4AwgejMC2-WdLCm8COvg78j0JY=", "properties": {"ref": "25426", "@spider": "alstom", "addr:full": "No. 199, South Fenglin Road, Wujin National High and new Technology Industrial Development Zone,Changzhou, Jiangsu Province 213166-P.R. China", "addr:country": "CN", "name": "Changzhou (JV BNS)", "phone": "+86 519 8837 3095", "brand": "Alstom", "brand:wikidata": "Q309084"}, "geometry": {"type": "Point", "coordinates": [119.919569, 31.652596]}},
{"type": "Feature", "id": "6he_F16Y9QCHTTqNNNG2MdN4c7w=", "properties": {"ref": "25431", "@spider": "alstom", "addr:full": "No. 86 Jinhong Dong Rd., Chengyang District, Qingdao, Shandong, 266111-P.R. China", "addr:country": "CN", "name": "Qingdao (JV BST) ", "phone": "+86 532 8780 5000", "brand": "Alstom", "brand:wikidata": "Q309084"}, "geometry": {"type": "Point", "coordinates": [120.285358, 36.331998]}},
{"type": "Feature", "id": "3wrT1tcy-T2uSqMY2RIs45xfca8=", "properties": {"ref": "25436", "@spider": "alstom", "addr:full": "No. 367, Kehai Road, Hi-Tech Industrial Development Zone, Qingdao, Shangdong 266000 - P.R. China", "addr:country": "CN", "name": "Qingdao (Kehai Road) (BTRE)", "phone": "+86 532 8790 0998", "brand": "Alstom", "brand:wikidata": "Q309084"}, "geometry": {"type": "Point", "coordinates": [120.266883, 36.31803]}},
{"type": "Feature", "id": "D0q7UWT3kkxMYbJWlwcvf6pDuCo=", "properties": {"ref": "25441", "@spider": "alstom", "addr:full": "Rm. 2003-2004 Block A, China Shine Plaza No.9 Linhexi Road, Tianhe District, Guangzhou, 510630-P.R. China", "addr:country": "CN", "name": "Guangzhou", "phone": "+86 20 3801 0335", "brand": "Alstom", "brand:wikidata": "Q309084"}, "geometry": {"type": "Point", "coordinates": [113.318042, 23.145263]}},
{"type": "Feature", "id": "DB9DtFsdbJyp8Rk_wV7C5pTC8Q8=", "properties": {"ref": "25446", "@spider": "alstom", "addr:full": "Suite 1301, One Citygate, 20 Tat Tung Road, Tung Chung, Hong Kong", "addr:country": "CN", "name": "Hong Kong", "phone": "+852 2921 9710", "brand": "Alstom", "brand:wikidata": "Q309084"}, "geometry": {"type": "Point", "coordinates": [113.940175, 22.28997]}},
{"type": "Feature", "id": "Jf_n97cF5SL1DgPll48nxrFA-q8=", "properties": {"ref": "25451", "@spider": "alstom", "addr:full": "No. 69 Mengxi Road, Wuhu Economic and Technological Development Area, Anhui province, 241000-P.R. China", "addr:country": "CN", "name": "Wuhu (JV PBTS)", "phone": "+86 553 5809 188", "brand": "Alstom", "brand:wikidata": "Q309084"}, "geometry": {"type": "Point", "coordinates": [118.474116, 31.343155]}},
{"type": "Feature", "id": "3GdAj15uEQ86qKzvVpkS2g0k52g=", "properties": {"ref": "25456", "@spider": "alstom", "addr:full": "North 100m, country road #028, Yufeng District, Liuzhou City, Guangxi Province, 545000-P.R. China", "addr:country": "CN", "name": "Liuzhou", "brand": "Alstom", "brand:wikidata": "Q309084"}, "geometry": {"type": "Point", "coordinates": [109.590092, 24.456274]}},
{"type": "Feature", "id": "zbWbM5skZ4kae39tELQrbrHEwk0=", "properties": {"ref": "176", "@spider": "alstom", "addr:full": "Cra 7 No. 71-21 Piso.5 Torre A, Bogota 110221, Colombia", "addr:country": "CO", "name": "Bogota", "phone": "+57 1 358 2405", "brand": "Alstom", "brand:wikidata": "Q309084"}, "geometry": {"type": "Point", "coordinates": [-74.0493, 467.6322]}},
{"type": "Feature", "id": "tx1MJXQZ48DAbxooMTqQFKMyDKw=", "properties": {"ref": "181", "@spider": "alstom", "addr:full": "<p class=\"Text\"><span><span><span>Olivova 2096/4,</span></span></span><span><span><span>110 00 Praha 1,</span></span></span>Czech Republic", "addr:country": "CZ", "name": "Praha", "brand": "Alstom", "brand:wikidata": "Q309084"}, "geometry": {"type": "Point", "coordinates": [14.430621669846825, 50.082895911885444]}},
{"type": "Feature", "id": "oDwubtuGo1kCUED_KTBGIZwRYn8=", "properties": {"ref": "25716", "@spider": "alstom", "addr:full": "<span><span><span>Odtpn zvod esk Lpa,</span></span></span><span><span><span>Svatopluka echa 1205/12,</span></span></span><span><span><span>470 01 esk Lpa,</span></span></span>Czech Republic", "addr:country": "CZ", "name": "esk Lpa", "phone": "+420 487 802 119", "brand": "Alstom", "brand:wikidata": "Q309084"}, "geometry": {"type": "Point", "coordinates": [14.52672195767278, 50.67345358834271]}},
{"type": "Feature", "id": "SaUe2IMABuoXi8uRy9z4VHb8LvU=", "properties": {"ref": "186", "@spider": "alstom", "addr:full": "Amerika Plads 19 - 2100 Kbenhavn - Denmark", "addr:country": "DK", "name": "Kbenhavn", "phone": "+4523224492", "brand": "Alstom", "brand:wikidata": "Q309084"}, "geometry": {"type": "Point", "coordinates": [12.5929849, 55.699761]}},
{"type": "Feature", "id": "atweVrbwKKqiabGSNh9dXpx5obw=", "properties": {"ref": "25721", "@spider": "alstom", "addr:full": "Stamholmen 193 - 2650 Hvidovre -Denmark", "addr:country": "DK", "name": "Hvidovre", "phone": "+4586425300", "brand": "Alstom", "brand:wikidata": "Q309084"}, "geometry": {"type": "Point", "coordinates": [12.48628, 55.61417]}},
{"type": "Feature", "id": "Y3hpKJ04hMSPn_AsClj_o6c9QBo=", "properties": {"ref": "25726", "@spider": "alstom", "addr:full": "Eske Hedegrds vej 5 - 7000 Fredericia -Denmark", "addr:country": "DK", "name": "Fredericia", "brand": "Alstom", "brand:wikidata": "Q309084"}, "geometry": {"type": "Point", "coordinates": [9.62733, 55.54135]}},
{"type": "Feature", "id": "En4rV_nMI4H-LGktl5bnT544jA0=", "properties": {"ref": "556", "@spider": "alstom", "addr:full": "Av Reyes Catolicos, Casi Esq., Maximo Gomez, Antigua Cementera, 10501, Santo Domingo", "addr:country": "DO", "name": "Santo Domingo - OPRET", "phone": "+1809-3345019 - Ext. 218", "brand": "Alstom", "brand:wikidata": "Q309084"}, "geometry": {"type": "Point", "coordinates": [-69.928791, 18.504409]}},
{"type": "Feature", "id": "vw2dHpOgKjXQb-dPgTrEKcKdF-c=", "properties": {"ref": "191", "@spider": "alstom", "addr:full": "Av. Florencia Astudillo 2-39 y Alfonso Cordero - Cuenca 010204 - Azuay Ecuador", "addr:country": "EC", "name": "Cuenca (Florencia Astudillo 2-39)", "phone": "+593 7 4104010", "brand": "Alstom", "brand:wikidata": "Q309084"}, "geometry": {"type": "Point", "coordinates": [-79.004258, -29.05576]}},
{"type": "Feature", "id": "L55-dGvScsGDVzf_Ug_JdeWkiSE=", "properties": {"ref": "196", "@spider": "alstom", "addr:full": "12B04 Business Park, Cairo Festival City, Fifth Settlement, 11835 - New Cairo - Egypt", "addr:country": "EG", "name": "Cairo", "phone": "+2225985200", "brand": "Alstom", "brand:wikidata": "Q309084"}, "geometry": {"type": "Point", "coordinates": [31.51285, 30.051391]}},
{"type": "Feature", "id": "ErJWaPfQHCdA_QJdWP-sjrXvWIU=", "properties": {"ref": "25731", "@spider": "alstom", "addr:full": "Atomitie 5 E - '00370 Helsinki - Finland", "addr:country": "FI", "name": "Helsinki", "phone": "+358 9 561960", "brand": "Alstom", "brand:wikidata": "Q309084"}, "geometry": {"type": "Point", "coordinates": [24.87206, 60.22259]}},
{"type": "Feature", "id": "RM33tGoXMvCvnu2hQvGIlWhq8Ks=", "properties": {"ref": "251", "@spider": "alstom", "addr:full": "48, rue Albert Dhalenne - 93482 Saint-Ouen - France", "addr:country": "FR", "name": "Saint-Ouen", "phone": "Phone: +33 1 57 06 90 00", "brand": "Alstom", "brand:wikidata": "Q309084"}, "geometry": {"type": "Point", "coordinates": [2.332212, 48.9142761]}},
{"type": "Feature", "id": "YG4kbHU1P04EdsyAi4fffKc2nzY=", "properties": {"ref": "246", "@spider": "alstom", "addr:full": "Parc Club du Golf, Btiment 10-12 - 13100 Aix-en-Provence - France", "addr:country": "FR", "name": "Aix-en-Provence", "phone": "Phone: +33 4 13 91 10 65", "brand": "Alstom", "brand:wikidata": "Q309084"}, "geometry": {"type": "Point", "coordinates": [5.366607, 43.47946]}},
{"type": "Feature", "id": "vX5rwmB2k_j6iHRyEIsaMetuC0U=", "properties": {"ref": "216", "@spider": "alstom", "addr:full": "3 Rue des 3 Chnes - 90000 Belfort - France", "addr:country": "FR", "name": "Belfort", "brand": "Alstom", "brand:wikidata": "Q309084"}, "geometry": {"type": "Point", "coordinates": [6.843126, 47.64754]}},
{"type": "Feature", "id": "6Q6G3dI4iM2N6B51OMukkRqQldg=", "properties": {"ref": "226", "@spider": "alstom", "addr:full": "Avenue Commdant Lysiack  - 17440 Aytr - France", "addr:country": "FR", "name": "La Rochelle (Aytr)", "phone": "Phone: +33 5 46 51 30 00", "brand": "Alstom", "brand:wikidata": "Q309084"}, "geometry": {"type": "Point", "coordinates": [-1.125959, 46.137]}},
{"type": "Feature", "id": "WF6FNxrFCepcSTJY-jocqunxYlA=", "properties": {"ref": "236", "@spider": "alstom", "addr:full": "105 Alle Albert Einstein - 71200 Le Creusot - France", "addr:country": "FR", "name": "Le Creusot", "phone": "Phone: +33 3 85 73 60 00", "brand": "Alstom", "brand:wikidata": "Q309084"}, "geometry": {"type": "Point", "coordinates": [4.4278, 46.80535]}},
{"type": "Feature", "id": "9KqcZlp4IsMc471gdOPiZN9G1BI=", "properties": {"ref": "261", "@spider": "alstom", "addr:full": "2 route dpartementale 111-67120 Duppigheim - France", "addr:country": "FR", "name": "NTL", "phone": "Phone : +33 3 68 71 02 90", "brand": "Alstom", "brand:wikidata": "Q309084"}, "geometry": {"type": "Point", "coordinates": [7.589912, 48.544687]}},
{"type": "Feature", "id": "BjHH0VAfrm1HSlVI6Qsp0bZqfVE=", "properties": {"ref": "221", "@spider": "alstom", "addr:full": "2 Avenue Mal de Lattre de Tassigny - 25290 Ornans - France", "addr:country": "FR", "name": "Ornans", "phone": "Phone: +33 3 81 62 44 00", "brand": "Alstom", "brand:wikidata": "Q309084"}, "geometry": {"type": "Point", "coordinates": [6.140761, 47.10675]}},
{"type": "Feature", "id": "r9K17ZUJnVniN1jUlPj6mlsrDMw=", "properties": {"ref": "201", "@spider": "alstom", "addr:full": "9, rue Patis - 76140 Petit-Quevilly - France", "addr:country": "FR", "name": "Petit-Quevilly", "phone": "Phone: +33 02 35 58 20 79", "brand": "Alstom", "brand:wikidata": "Q309084"}, "geometry": {"type": "Point", "coordinates": [1.046861, 49.43006]}},
{"type": "Feature", "id": "YeuIG8mjprKTVZbkqLt4s89hnB0=", "properties": {"ref": "211", "@spider": "alstom", "addr:full": "50 Rue du Docteur Guinier - 65600 Smac - France", "addr:country": "FR", "name": "Tarbes (Smac)", "phone": "Phone: +33 5 62 53 41 21", "brand": "Alstom", "brand:wikidata": "Q309084"}, "geometry": {"type": "Point", "coordinates": [0.0953579, 43.2203]}},
{"type": "Feature", "id": "98mbz7-bKBStQ488LZ1wIRDxXos=", "properties": {"ref": "241", "@spider": "alstom", "addr:full": "Rue Jacquart - 59494 Petite-Fort - France", "addr:country": "FR", "name": "Valenciennes (Petite-Fort)", "phone": "Phone: +33 3 27 14 18 00", "brand": "Alstom", "brand:wikidata": "Q309084"}, "geometry": {"type": "Point", "coordinates": [3.475396, 50.38231]}},
{"type": "Feature", "id": "zML4Aj7xqy1YNHyx6D6qKhZ3yJ8=", "properties": {"ref": "231", "@spider": "alstom", "addr:full": "3 rue Henri Legay  - 69100 Villeurbanne - France", "addr:country": "FR", "name": "Villeurbanne", "phone": "Phone: +33 4 81 65 64 00", "brand": "Alstom", "brand:wikidata": "Q309084"}, "geometry": {"type": "Point", "coordinates": [4.912571, 45.75631]}},
{"type": "Feature", "id": "p-_suw0SW6pwLIuFGUdUDvzz8fc=", "properties": {"ref": "206", "@spider": "alstom", "addr:full": "ZI de Couperigne, Immeuble Les Chnes - 13127 Vitrolles - France", "addr:country": "FR", "name": "Vitrolles", "phone": "Phone: +33 4 42 46 01 37", "brand": "Alstom", "brand:wikidata": "Q309084"}, "geometry": {"type": "Point", "coordinates": [5.249703, 43.4586]}},
{"type": "Feature", "id": "GIWrO0Mi0QYjAm15JAM0WgY1SXE=", "properties": {"ref": "19911", "@spider": "alstom", "addr:full": "1 Place des Ateliers, 59154 Crespin", "addr:country": "FR", "name": "Crespin", "brand": "Alstom", "brand:wikidata": "Q309084"}, "geometry": {"type": "Point", "coordinates": [3.65995, 50.40717]}},
{"type": "Feature", "id": "9vWCw394J4vx13zIQGj8WhQhiQE=", "properties": {"ref": "25866", "@spider": "alstom", "addr:full": "1 Rue Louis Blriot 31700 Blagnac", "addr:country": "FR", "name": "Toulouse", "brand": "Alstom", "brand:wikidata": "Q309084"}, "geometry": {"type": "Point", "coordinates": [1.36769, 43.65479]}},
{"type": "Feature", "id": "14MQEeG4U8f7Y8hPKQMlGETM1wE=", "properties": {"ref": "25871", "@spider": "alstom", "addr:country": "FR", "name": "Alstom Flertex", "phone": "+33(0)1 46 13 93 23", "brand": "Alstom", "brand:wikidata": "Q309084"}, "geometry": {"type": "Point", "coordinates": [2.29506, 48.92829]}},
{"type": "Feature", "id": "PN22MI8X6CF9RU_qiTmOFM86Q7Y=", "properties": {"ref": "25876", "@spider": "alstom", "addr:full": "5 rue Henri Cavallier 89100 Sens", "addr:country": "FR", "name": "Ibre", "brand": "Alstom", "brand:wikidata": "Q309084"}, "geometry": {"type": "Point", "coordinates": [3.27056, 48.21444]}},
{"type": "Feature", "id": "6W-tZvZzmrtO5N8_I3kL9TS2GZM=", "properties": {"ref": "24871", "@spider": "alstom", "addr:full": "Eichhornstrae 3 - 10785 Berlin - Germany", "addr:country": "DE", "name": "Berlin", "phone": "+49 30 166361300", "brand": "Alstom", "brand:wikidata": "Q309084"}, "geometry": {"type": "Point", "coordinates": [13.37309, 52.50642]}},
{"type": "Feature", "id": "vEE5YXrJTCZWMxrm-9ymw54ScR0=", "properties": {"ref": "24866", "@spider": "alstom", "addr:full": "Fabrikstrae 41 - 02625 Bautzen - Germany", "addr:country": "DE", "name": "Bautzen", "phone": "+49 3591 362 0", "brand": "Alstom", "brand:wikidata": "Q309084"}, "geometry": {"type": "Point", "coordinates": [14.41448, 51.16808]}},
{"type": "Feature", "id": "-U1BGtJ2qX2zcuMf3zDcXtTwzR0=", "properties": {"ref": "271", "@spider": "alstom", "addr:full": "Joachimsthaler Strae 12 / Ecke Kurfrstendamm 10719 Berlin-Germany", "addr:country": "DE", "name": "Berlin (Signalling)", "phone": "+49 30 330 96 38 0", "brand": "Alstom", "brand:wikidata": "Q309084"}, "geometry": {"type": "Point", "coordinates": [13.330584, 52.502766]}},
{"type": "Feature", "id": "YjEf23fjpHLLiHnhyvDXFjgD7H0=", "properties": {"ref": "286", "@spider": "alstom", "addr:full": "Schwartzkopffstrae 5 - 38126 Braunschweig - Germany", "addr:country": "DE", "name": "Braunschweig (Schwartzkopffstrasse)", "phone": "+49 531 87605 0", "brand": "Alstom", "brand:wikidata": "Q309084"}, "geometry": {"type": "Point", "coordinates": [10.54515, 52.24427]}},
{"type": "Feature", "id": "izm5tySgGfAAKWvVs9kc-y29xUc=", "properties": {"ref": "24876", "@spider": "alstom", "addr:full": "Wolfenbtteler Strae 86 - 38102 Braunschweig - Germany", "addr:country": "DE", "name": "Braunschweig (Wolfenbuetteler Strasse)", "phone": "+49 531 224 0", "brand": "Alstom", "brand:wikidata": "Q309084"}, "geometry": {"type": "Point", "coordinates": [10.52744, 52.25662]}},
{"type": "Feature", "id": "kkjuKfj2utyGIph50ygOE-SPCf0=", "properties": {"ref": "24881", "@spider": "alstom", "addr:full": "Flughafen, Gebude 146.5080 - 60549 Frankfurt Flughafen - Germany", "addr:country": "DE", "name": "Frankfurt (Airport)", "phone": "+49 174 926 4560", "brand": "Alstom", "brand:wikidata": "Q309084"}, "geometry": {"type": "Point", "coordinates": [8.59325, 50.05116]}},
{"type": "Feature", "id": "9kVHWpBO7xScjhysrCKcVU-v4fM=", "properties": {"ref": "24886", "@spider": "alstom", "addr:full": "Christoph-Lders-Strae 24 - 02826 Grlitz - Germany", "addr:country": "DE", "name": "Grlitz", "phone": "+49 3581 3767 600 ", "brand": "Alstom", "brand:wikidata": "Q309084"}, "geometry": {"type": "Point", "coordinates": [14.97074, 51.15524]}},
{"type": "Feature", "id": "zZp070VNTt8Bez5oOfepJxC1nko=", "properties": {"ref": "24891", "@spider": "alstom", "addr:full": "Am Rathenaupark - 16761 Hennigsdorf - Germany", "addr:country": "DE", "name": "Hennigsdorf", "phone": "+4933028997000", "brand": "Alstom", "brand:wikidata": "Q309084"}, "geometry": {"type": "Point", "coordinates": [13.20712, 52.63036]}},
{"type": "Feature", "id": "2yuCxa4UcXGs6iBSqd4E2EMeygo=", "properties": {"ref": "24896", "@spider": "alstom", "addr:full": "Hollndische Strae 195 - 34127 Kassel - Germany", "addr:country": "DE", "name": "Kassel", "phone": "+49 561 801 02", "brand": "Alstom", "brand:wikidata": "Q309084"}, "geometry": {"type": "Point", "coordinates": [9.4834, 51.3385]}},
{"type": "Feature", "id": "h1AmpoX0NtubVO_4C3E8ZOd0NpY=", "properties": {"ref": "24901", "@spider": "alstom", "addr:full": "Neustadter Strae 62 - 68309 Mannheim - Germany", "addr:country": "DE", "name": "Mannheim", "phone": "+49 621 7001 0", "brand": "Alstom", "brand:wikidata": "Q309084"}, "geometry": {"type": "Point", "coordinates": [8.50742, 49.49847]}},
{"type": "Feature", "id": "H3Vih0-RCWANvr0bSUBbABgS_T4=", "properties": {"ref": "24906", "@spider": "alstom", "addr:full": "Postfach 24 13 05 - 85335 Mnchen Flughafen - Germany", "addr:country": "DE", "name": "Munich (Airport)", "brand": "Alstom", "brand:wikidata": "Q309084"}, "geometry": {"type": "Point", "coordinates": [11.776401, 48.351091]}},
{"type": "Feature", "id": "MLcd1K2YDGzJvwFpyAOSeiGesf0=", "properties": {"ref": "276", "@spider": "alstom", "addr:full": "Radlkoferstrae 2 - 81373 Mnchen - Germany", "addr:country": "DE", "name": "Munich", "phone": "+49 89 74 11 85 175", "brand": "Alstom", "brand:wikidata": "Q309084"}, "geometry": {"type": "Point", "coordinates": [11.542968, 48.126188]}},
{"type": "Feature", "id": "I0nopU-wMwAWlSJe2Q6d4Mef7iM=", "properties": {"ref": "291", "@spider": "alstom", "addr:full": "Linke-Hofmann-Busch-Strae 1 - 38239 Salzgitter - Germany", "addr:country": "DE", "name": "Salzgitter", "phone": "+49 (0) 5341 900 0", "brand": "Alstom", "brand:wikidata": "Q309084"}, "geometry": {"type": "Point", "coordinates": [10.41108, 52.13814]}},
{"type": "Feature", "id": "eQLAQrB2CLvXqs6T6LMNBY-UVeM=", "properties": {"ref": "24911", "@spider": "alstom", "addr:full": "Siegstrae 27 - 57250 Netphen - Germany", "addr:country": "DE", "name": "Siegen", "phone": "+49 271 702 0", "brand": "Alstom", "brand:wikidata": "Q309084"}, "geometry": {"type": "Point", "coordinates": [8.0472, 50.913]}},
{"type": "Feature", "id": "Of0jQVNty1QpJ22JWlIaAQrTDKo=", "properties": {"ref": "296", "@spider": "alstom", "addr:full": "Tangermnder Strae 23A - 39576 Stendal - Germany", "addr:country": "DE", "name": "Stendal", "phone": "+49 (0) 3931 25 400", "brand": "Alstom", "brand:wikidata": "Q309084"}, "geometry": {"type": "Point", "coordinates": [11.86719, 52.59857]}},
{"type": "Feature", "id": "fjTgyM40mQ2aPJCP3i3V2oV3HYo=", "properties": {"ref": "281", "@spider": "alstom", "addr:full": "Bernaustrae 29 - 74915 Waibstadt - Germany", "addr:country": "DE", "name": "Waibstadt", "phone": "+49 (0) 7263 605 37 15", "brand": "Alstom", "brand:wikidata": "Q309084"}, "geometry": {"type": "Point", "coordinates": [8.913353, 49.29964]}},
{"type": "Feature", "id": "ZfRXiDAYLjZ-DxbcxHmmRpGV7v4=", "properties": {"ref": "25736", "@spider": "alstom", "addr:full": "515 Messogeion Avenue, Agia Paraskevi 15343, Athens", "addr:country": "GR", "name": "Agia Paraskevi", "phone": "+302106079700", "brand": "Alstom", "brand:wikidata": "Q309084"}, "geometry": {"type": "Point", "coordinates": [23.8343036, 38.0131393]}},
{"type": "Feature", "id": "THs6cFwqC4oy83-EpnwLLvxZOt0=", "properties": {"ref": "25741", "@spider": "alstom", "addr:full": "125-127 Dimokratias Avenue, 13671 Athens, Greece", "addr:country": "GR", "name": "Menidi (Acharnai)", "phone": "+302106687302", "brand": "Alstom", "brand:wikidata": "Q309084"}, "geometry": {"type": "Point", "coordinates": [23.733784731140855, 38.069903857279556]}},
{"type": "Feature", "id": "2ABFSvFuPzuZ5V8CZXSISdM9YvM=", "properties": {"ref": "25746", "@spider": "alstom", "addr:full": "Nea Monastiriou 27, 56634 Eleftherio-Kordelio, Greece", "addr:country": "GR", "name": "Thessaloniki", "phone": "+302310387740", "brand": "Alstom", "brand:wikidata": "Q309084"}, "geometry": {"type": "Point", "coordinates": [2.28878e+16, 4.06689e+16]}},
{"type": "Feature", "id": "Nomun7nhrj4lmUijAoG2_FGvCR8=", "properties": {"ref": "25751", "@spider": "alstom", "addr:full": "Vitsi 1, 54627 Thessaloniki, Greece", "addr:country": "GR", "name": "Thessaloniki Depot", "phone": "+302311 258 160", "brand": "Alstom", "brand:wikidata": "Q309084"}, "geometry": {"type": "Point", "coordinates": [2.29227e+16, 4.06627e+16]}},
{"type": "Feature", "id": "aFVLVYeq9f31MkIxXqQ0_qKOVas=", "properties": {"ref": "25756", "@spider": "alstom", "addr:full": "Railway Station Lianokladi, 35100 Stavros-Lamia, Greece", "addr:country": "GR", "name": "Lianokladi", "phone": "+302231 30 6200", "brand": "Alstom", "brand:wikidata": "Q309084"}, "geometry": {"type": "Point", "coordinates": [2.23739e+16, 3889090000000000.0]}},
{"type": "Feature", "id": "gX57AvPnFB7YKOb449kJjXb90jc=", "properties": {"ref": "306", "@spider": "alstom", "addr:full": "<span lang=\"HU\"><span><span>Vci t 152-158</span></span></span>- H-1138 Budapest - Hungary", "addr:country": "HU", "name": "Budapest", "phone": "+36 70 650-6950", "brand": "Alstom", "brand:wikidata": "Q309084"}, "geometry": {"type": "Point", "coordinates": [19.07001, 47.5402]}},
{"type": "Feature", "id": "KH4xqz_E2aNnR6RRNzZGyuArBDc=", "properties": {"ref": "25761", "@spider": "alstom", "addr:full": "51 Szabadsg t,  3143 Mtranovk - Hungary", "addr:country": "HU", "name": "Mtranovk", "phone": "+36 20 665 93 50", "brand": "Alstom", "brand:wikidata": "Q309084"}, "geometry": {"type": "Point", "coordinates": [19.9735833, 48.0344916]}},
{"type": "Feature", "id": "wVrbvNaYcC5BRGXlCd0oYsqpIvY=", "properties": {"ref": "25766", "@spider": "alstom", "addr:full": "16 jszszi t - 5000 Szolnok - Hungary", "addr:country": "HU", "name": "Szolnok", "phone": "+36 70 704 57 70", "brand": "Alstom", "brand:wikidata": "Q309084"}, "geometry": {"type": "Point", "coordinates": [20.1664141, 47.1657619]}},
{"type": "Feature", "id": "kUuXV0BrXxwkEBInYns5bBvUiZ8=", "properties": {"ref": "311", "@spider": "alstom", "addr:full": "65/2, Block C, Level 03 (2nd Floor) - Bagmane Laurel Bagmane Tech Park C.V. Raman Nagar - Bengaluru560 093 - India", "addr:country": "IN", "name": "Bangalore", "phone": "+91 80 66176060", "brand": "Alstom", "brand:wikidata": "Q309084"}, "geometry": {"type": "Point", "coordinates": [77.62698, 13.0051851]}},
{"type": "Feature", "id": "ZfxCITZ2NaGZq9KNBhIRE_q1mYM=", "properties": {"ref": "316", "@spider": "alstom", "addr:full": "Kangeyampalayam Village - Sulur Taluk - Coimbatore641401 - India", "addr:country": "IN", "name": "Coimbatore", "phone": "(0422) 2681920", "brand": "Alstom", "brand:wikidata": "Q309084"}, "geometry": {"type": "Point", "coordinates": [77.143168, 11.032923]}},
{"type": "Feature", "id": "cWUhVnMqYpxthLFqvhtU40Euaw4=", "properties": {"ref": "18841", "@spider": "alstom", "addr:full": "ALSTOM TRANSPORT INDIA LTD C/O TEXMACO RAIL ENGINEERING LTD, ADDRESS - No 34, B.T. Road, PO Sukchar, Khardah, Kolkata 700115", "addr:country": "IN", "name": "Kolkata", "phone": "+91 9898576980", "brand": "Alstom", "brand:wikidata": "Q309084"}, "geometry": {"type": "Point", "coordinates": [88.375523, 22.712903]}},
{"type": "Feature", "id": "xAJnb_jW1nelD9QOkTE7d9JoHAk=", "properties": {"ref": "326", "@spider": "alstom", "addr:full": "601-B, 6th Floor, Tower -1, Konnectus - Bhavbhuti Marg, New Delhi 110001, India", "addr:country": "IN", "name": "New Delhi", "phone": "+91 1166196700", "brand": "Alstom", "brand:wikidata": "Q309084"}, "geometry": {"type": "Point", "coordinates": [77.223558, 28.641612]}},
{"type": "Feature", "id": "Pua8wPLdAr0xv4Ax6FkLFDH3euI=", "properties": {"ref": "321", "@spider": "alstom", "addr:full": "Sri City, Andhra Pradesh 517541 - India", "addr:country": "IN", "name": "Sri City", "phone": "+91 96402 34322", "brand": "Alstom", "brand:wikidata": "Q309084"}, "geometry": {"type": "Point", "coordinates": [79.989535, 13.531993]}},
{"type": "Feature", "id": "ujOzuE4kaM7eX76u2Xjj1NUFgM0=", "properties": {"ref": "26126", "@spider": "alstom", "addr:full": "2nd &amp; 3rd floor, Corporate Capital, Plot No 115/1, 115/29, Financial District, Nanakramguda, Hyderabad 500 032 - India", "addr:country": "IN", "name": "Hyderabad", "phone": "+91 (040) 6818 1300", "brand": "Alstom", "brand:wikidata": "Q309084"}, "geometry": {"type": "Point", "coordinates": [78.3370313, 17.422765690755682]}},
{"type": "Feature", "id": "8U_Fd24YFiWRJQcO74M4462fRRQ=", "properties": {"ref": "26131", "@spider": "alstom", "addr:full": "ERDA Road - Maneja 390013 - India", "addr:country": "IN", "name": "Maneja", "phone": "0265-6198800", "brand": "Alstom", "brand:wikidata": "Q309084"}, "geometry": {"type": "Point", "coordinates": [73.17792358281098, 22.242841144487006]}},
{"type": "Feature", "id": "q2jh2CwVzDAkeel_dmtH1nar8Cc=", "properties": {"ref": "26136", "@spider": "alstom", "addr:full": "Plot no.724, GIDC Industrial Estate, Phase-3 - Savli Dist. 391775 - India", "addr:country": "IN", "name": "Savli", "phone": "+91 2667665100 /  +91 7874002903", "brand": "Alstom", "brand:wikidata": "Q309084"}, "geometry": {"type": "Point", "coordinates": [73.22574342862974, 22.431722358943365]}},
{"type": "Feature", "id": "jL5hORRECSFcSIwTCmz0ybI75NQ=", "properties": {"ref": "26141", "@spider": "alstom", "addr:full": "Pankaj Estate, Behind Renault Sales &amp; Service Centre, Gurugobindsinhji Marg, Beside MGVCL Channi Sub Station, Vadodara - 390002 - India", "addr:country": "IN", "name": "Channi", "phone": "0265-7158200 ", "brand": "Alstom", "brand:wikidata": "Q309084"}, "geometry": {"type": "Point", "coordinates": [73.16876163068291, 22.35301294155446]}},
{"type": "Feature", "id": "HLDMWGPbbS_YN_AZPV2TXCh5VVI=", "properties": {"ref": "26146", "@spider": "alstom", "addr:full": "Tower B, 4th Floor, DLF Cyber Green, DLF Cyber City, Phase III, Gurugram, Haryana 122002", "addr:country": "IN", "name": "Gurugram", "phone": "+91-124-6124500 / 6124548", "brand": "Alstom", "brand:wikidata": "Q309084"}, "geometry": {"type": "Point", "coordinates": [77.09289428014294, 28.494726121061344]}},
{"type": "Feature", "id": "amwdrHntnoKAYPjiRsw7liIGgfs=", "properties": {"ref": "26151", "@spider": "alstom", "addr:full": "Madhepura Electric Locomotive Pvt. Ltd. Village  Laxmi Rampur Chakla, Block Madhepura  852113, Bihar, India ", "addr:country": "IN", "name": "Madhepura", "brand": "Alstom", "brand:wikidata": "Q309084"}, "geometry": {"type": "Point", "coordinates": [86.7537213712045, 25.8992500261284]}},
{"type": "Feature", "id": "J_tW0eillAKp8iMpS2G3Sxy1tHA=", "properties": {"ref": "331", "@spider": "alstom", "addr:full": "Office & Beyond #206-207 - Jl. Cimanuk No 6 - Bandung 40115 - Indonesia", "addr:country": "ID", "name": "Bandung", "phone": "Phone: +62 22 420 5225", "brand": "Alstom", "brand:wikidata": "Q309084"}, "geometry": {"type": "Point", "coordinates": [107.620657, -6.904967]}},
{"type": "Feature", "id": "tLO5ph1xFS4a1sBBiVUK419901A=", "properties": {"ref": "346", "@spider": "alstom", "addr:full": "Red Cow Depot, Naas Road - Dublin 22 - Ireland", "addr:country": "IE", "name": "Dublin Red Cow", "phone": "Phone: 353 (0)1461 4922", "brand": "Alstom", "brand:wikidata": "Q309084"}, "geometry": {"type": "Point", "coordinates": [-6.369892, 53.315828]}},
{"type": "Feature", "id": "Ij7dy5WyVBS3_dynf17qFmYfXXY=", "properties": {"ref": "351", "@spider": "alstom", "addr:full": "Sandyford Depot, Blackthorn Avenue, Sandyford Industrial Estate - Dublin 18 - Ireland", "addr:country": "IE", "name": "Dublin Sandyford", "phone": "Phone: 353 (0)1293 1957", "brand": "Alstom", "brand:wikidata": "Q309084"}, "geometry": {"type": "Point", "coordinates": [-6.202211, 53.276044]}},
{"type": "Feature", "id": "2nguNSGtQBoj632AH7h5RyPcsgk=", "properties": {"ref": "28471", "@spider": "alstom", "addr:full": "6 HaAmal St. - Beer-Sheva 8424734 - Isral", "addr:country": "IE", "name": "Be'er Sheva (Depot)", "brand": "Alstom", "brand:wikidata": "Q309084"}, "geometry": {"type": "Point", "coordinates": [34.791462, 31.252973]}},
{"type": "Feature", "id": "pvxwLlsBBpsKiHk56wplSgunI_A=", "properties": {"ref": "28476", "@spider": "alstom", "addr:full": "1 Tarshish St., Hof Shemen, P.O.B 25199 - Haifa 3125101 - Isral", "addr:country": "IE", "name": "Haifa (Depot)", "phone": "+972 4 770 5376", "brand": "Alstom", "brand:wikidata": "Q309084"}, "geometry": {"type": "Point", "coordinates": [35.014494, 32.805708]}},
{"type": "Feature", "id": "GewiUCcZxkbRTMQ1tvRuXddVWa8=", "properties": {"ref": "28481", "@spider": "alstom", "addr:full": "16 Hartum St., P.O.B 45269 - Jerusalem 9145101 - Isral", "addr:country": "IE", "name": "Jerusalem", "phone": "+972 2 6590 770", "brand": "Alstom", "brand:wikidata": "Q309084"}, "geometry": {"type": "Point", "coordinates": [35.210868, 31.804232]}},
{"type": "Feature", "id": "Zu2meBR447Y1eWmc4_zMoAqqsn0=", "properties": {"ref": "28486", "@spider": "alstom", "addr:full": "10 Anatot Road - Jerusalem - Isral", "addr:country": "IE", "name": "Jerusalem (Depot)", "phone": "+972 2 6590 850", "brand": "Alstom", "brand:wikidata": "Q309084"}, "geometry": {"type": "Point", "coordinates": [35.235375, 31.808715]}},
{"type": "Feature", "id": "22wjmJF_h8Ozb4lyK6YJbQnT2z0=", "properties": {"ref": "28491", "@spider": "alstom", "addr:full": "8 Shaul Hamelech Blvd., Amot Mishpat Bldg., 1st floor - Tel Aviv 6473307 - Isral", "addr:country": "IE", "name": "Tel Aviv (HQ)", "phone": "+972 72 338 74 30", "brand": "Alstom", "brand:wikidata": "Q309084"}, "geometry": {"type": "Point", "coordinates": [34.781768, 32.0853]}},
{"type": "Feature", "id": "9n0pTtqhzoV4QJ8sQbIG6f9aj3U=", "properties": {"ref": "376", "@spider": "alstom", "addr:full": "Via dei Gladioli, 5 - 70123 Modugno (BA) - Italy", "addr:country": "IT", "name": "Bari", "phone": "0039 080 9198271 ", "brand": "Alstom", "brand:wikidata": "Q309084"}, "geometry": {"type": "Point", "coordinates": [16.77139, 41.09832]}},
{"type": "Feature", "id": "CRxbB5ThnZY1SHKzoMD6s6ocsnU=", "properties": {"ref": "371", "@spider": "alstom", "addr:full": "Via di Corticella, 75 - 40128 Bologna - Italy", "addr:country": "IT", "name": "Bologna", "phone": "0039 051 0464900 ", "brand": "Alstom", "brand:wikidata": "Q309084"}, "geometry": {"type": "Point", "coordinates": [11.34799, 44.51817]}},
{"type": "Feature", "id": "tLtyrprXvBHMIjvH2wryM_g71F4=", "properties": {"ref": "391", "@spider": "alstom", "addr:full": "Via P. Fanfani, 21 - 50127 Firenze - Italy", "addr:country": "IT", "name": "Firenze", "phone": "0039 055 43 38 68", "brand": "Alstom", "brand:wikidata": "Q309084"}, "geometry": {"type": "Point", "coordinates": [11.230297, 43.807768]}},
{"type": "Feature", "id": "C-ek4-bVy5bzGDJVbwg7lyar46o=", "properties": {"ref": "361", "@spider": "alstom", "addr:full": "Via Roma, 14 - 23855 Pescate (LC) - Italy ", "addr:country": "IT", "name": "Lecco", "phone": "0039 0341 364672", "brand": "Alstom", "brand:wikidata": "Q309084"}, "geometry": {"type": "Point", "coordinates": [9.395358, 45.84067]}},
{"type": "Feature", "id": "vtQ7TwDI5nc24s4Wb45v2zv108Y=", "properties": {"ref": "366", "@spider": "alstom", "addr:full": "Via Boscofangone - 80035 Nola (NA) - Italy ", "addr:country": "IT", "name": "Nola", "phone": "0039 081 31190117", "brand": "Alstom", "brand:wikidata": "Q309084"}, "geometry": {"type": "Point", "coordinates": [14.4916286, 40.9571877]}},
{"type": "Feature", "id": "4z3WAOOy0kGao9llB_375tsCfjE=", "properties": {"ref": "396", "@spider": "alstom", "addr:full": "Via Nomentana 41 - 00161, Roma (RM), Italy", "addr:country": "IT", "name": "Roma", "phone": "0039 06 874291", "brand": "Alstom", "brand:wikidata": "Q309084"}, "geometry": {"type": "Point", "coordinates": [12.5029974574275, 41.910728391436265]}},
{"type": "Feature", "id": "kKS0sheJae9ZSquoeC9ceJrfiTs=", "properties": {"ref": "381", "@spider": "alstom", "addr:full": "Via O. Moreno, 23 - 12038 Savigliano - Italy", "addr:country": "IT", "name": "Savigliano", "phone": "0039 0172 716306", "brand": "Alstom", "brand:wikidata": "Q309084"}, "geometry": {"type": "Point", "coordinates": [7.663835, 44.64721]}},
{"type": "Feature", "id": "k1S96InrWB0yZa5C-vEJIguOf1I=", "properties": {"ref": "386", "@spider": "alstom", "addr:full": "Via Fosse Ardeatine, 120 - 20099 Sesto San Giovanni (MI) - Italy", "addr:country": "IT", "name": "Sesto San Giovanni ", "phone": "0039  019 28901", "brand": "Alstom", "brand:wikidata": "Q309084"}, "geometry": {"type": "Point", "coordinates": [9.23947, 45.52065]}},
{"type": "Feature", "id": "WbHasD94EtQrjobNshLFydYfxPc=", "properties": {"ref": "23856", "@spider": "alstom", "addr:full": "Via Tecnomasio, 2 - 17047 Vado Ligure (SV) - Italy", "addr:country": "IT", "name": "Vado Ligure", "phone": "0039 02 22196401", "brand": "Alstom", "brand:wikidata": "Q309084"}, "geometry": {"type": "Point", "coordinates": [8.43559, 44.27117]}},
{"type": "Feature", "id": "kJX268uofqa3rSHLaYIN-aU4obc=", "properties": {"ref": "23861", "@spider": "alstom", "addr:full": "Via Cerchiara, 125 - 00131 - Roma (RM), Italy", "addr:country": "IT", "name": "Roma", "phone": "0039 06 83531802", "brand": "Alstom", "brand:wikidata": "Q309084"}, "geometry": {"type": "Point", "coordinates": [12.49348, 41.8947]}},
{"type": "Feature", "id": "pXNOyrNP7GqYfALw9pad3m2drY8=", "properties": {"ref": "406", "@spider": "alstom", "addr:full": "12 Sortirovochnaya Str. - Almaty 50028 - Kazakhstan", "addr:country": "KZ", "name": "KEP JV", "phone": "+7 727 2783098", "brand": "Alstom", "brand:wikidata": "Q309084"}, "geometry": {"type": "Point", "coordinates": [76.95349, 43.3417473]}},
{"type": "Feature", "id": "TAu3D7azNuhSxGkXfBSrGVLnIEg=", "properties": {"ref": "411", "@spider": "alstom", "addr:full": "12 Samal, BC Astana Tower,10th fl. -<span><span><span><span lang=\"PL\">Astana</span></span></span></span> 10010 - Kazakhstan", "addr:country": "KZ", "name": "Astana", "phone": "+77172620740", "brand": "Alstom", "brand:wikidata": "Q309084"}, "geometry": {"type": "Point", "coordinates": [71.429178, 51.1534]}},
{"type": "Feature", "id": "kNwW32ooe_0Bwm5jkYfaPPkTVkU=", "properties": {"ref": "416", "@spider": "alstom", "addr:full": "10 184A Str., Industrial Park -<span><span><span><span lang=\"PL\">Astana</span></span></span></span> 10000 - Kazakhstan", "addr:country": "KZ", "name": "EKZ JV", "phone": "+7 7172 938502", "brand": "Alstom", "brand:wikidata": "Q309084"}, "geometry": {"type": "Point", "coordinates": [71.41432, 51.23529]}},
{"type": "Feature", "id": "uhA2BlJJmXAIvSZQXBhYnWwcfWY=", "properties": {"ref": "15716", "@spider": "alstom", "addr:full": "2/1 A355 Str., Industrial Park -<span><span><span><span lang=\"PL\">Astana</span></span></span></span> 10000 - Kazakhstan", "addr:country": "KZ", "name": "Astana Repair Centre ", "phone": "+77172620740", "brand": "Alstom", "brand:wikidata": "Q309084"}, "geometry": {"type": "Point", "coordinates": [71.543741, 51.174554]}},
{"type": "Feature", "id": "0_8SapSYqjFyg3YXOb3LKW1NXBA=", "properties": {"ref": "421", "@spider": "alstom", "addr:full": "19F, 358 Gangnam-daero, Gangnam-gu - Seoul06241 - Korea", "addr:country": "KR", "name": "Seoul", "phone": "+82 2 2161 6200 ", "brand": "Alstom", "brand:wikidata": "Q309084"}, "geometry": {"type": "Point", "coordinates": [127.029784, 37.495023]}},
{"type": "Feature", "id": "LE4BJpCZCeu5XnoENTSj9RSdq0k=", "properties": {"ref": "426", "@spider": "alstom", "addr:full": "Mukusalas iela 42A, Riga, LV 1004 - Latvia", "addr:country": "LV", "name": "Riga", "phone": "+371 26006013", "brand": "Alstom", "brand:wikidata": "Q309084"}, "geometry": {"type": "Point", "coordinates": [24.103996, 56.918184]}},
{"type": "Feature", "id": "5kbHMs214INLQ6NrVEgrh8xLuic=", "properties": {"ref": "26156", "@spider": "alstom", "addr:full": "25F, Axiata Tower, No.9, Jalan Stesen Sentral 5, Kuala Lumpur Sentral 50470 - Malaysia", "addr:country": "MY", "name": "Kuala Lumpur", "phone": "+60 12 372 6090", "brand": "Alstom", "brand:wikidata": "Q309084"}, "geometry": {"type": "Point", "coordinates": [101.68423, 3.13304]}},
{"type": "Feature", "id": "NzILcwZynwyJllnOtcLvq95SIKQ=", "properties": {"ref": "456", "@spider": "alstom", "addr:full": "Calle Carlos Fuero y Calle 26 S/N Col. Pacifico Chihuahua Chihuahua C.P. 31030 - Mxico", "addr:country": "MX", "name": "Chihuahua", "phone": "+52 33 36193783", "brand": "Alstom", "brand:wikidata": "Q309084"}, "geometry": {"type": "Point", "coordinates": [-106.06939, 28.622825]}},
{"type": "Feature", "id": "IpYsQlFWDJDCrgJCgxbBQ0l7TOM=", "properties": {"ref": "446", "@spider": "alstom", "addr:full": "Av. Vallarta #1370 Col. Americana - Guadalajara Jalisco 44160 - Mexico", "addr:country": "MX", "name": "Guadalajara", "phone": "+52 33 32688860", "brand": "Alstom", "brand:wikidata": "Q309084"}, "geometry": {"type": "Point", "coordinates": [-103.366695, 20.674867]}},
{"type": "Feature", "id": "D-30f9S7epxV1BoDwIdNUOACrAs=", "properties": {"ref": "451", "@spider": "alstom", "addr:full": "Av. Heroes Ferrocarrileros S/N Esq. Washington - Casa Redonda,Col. ferrocarrilera - GDL Mx C.P. 44440", "addr:country": "MX", "name": "Guadalajara - Lamparas Project", "brand": "Alstom", "brand:wikidata": "Q309084"}, "geometry": {"type": "Point", "coordinates": [-103.34786, 20.653387]}},
{"type": "Feature", "id": "5zSbEXl7x068PmytyScAL-ryrAg=", "properties": {"ref": "441", "@spider": "alstom", "addr:full": "Blvd Manuel vila Camacho No. 32 Torre 3, sptimo piso - Lomas de Chapultepec, C.P. 11000, Miguel Hidalgo D.F. - Mexico", "addr:country": "MX", "name": "Torre Esmeralda III", "phone": "+52 55 52491400", "brand": "Alstom", "brand:wikidata": "Q309084"}, "geometry": {"type": "Point", "coordinates": [-99.205171, 19.428775]}},
{"type": "Feature", "id": "hOAMio53trVEflu8wxODy6FDJwI=", "properties": {"ref": "431", "@spider": "alstom", "addr:full": "Av. Mario Coln s/n - Col. Valle Ceylan - 54150 Tlalnepantla - Mexico", "addr:country": "MX", "name": "Valle de Mxico", "phone": "+52 55 532138 00", "brand": "Alstom", "brand:wikidata": "Q309084"}, "geometry": {"type": "Point", "coordinates": [-99.184986, 19.534273]}},
{"type": "Feature", "id": "EgLAF9sP1nmYu2pBtQ4J06mAbTw=", "properties": {"ref": "436", "@spider": "alstom", "addr:full": "Prolongacion Miguel Alemn S/N, Col. Ferrocarrilera - Xalapa, Veracruz. C.P. 91130 - Mexico", "addr:country": "MX", "name": "Xalapa", "phone": "+52 22 81352600", "brand": "Alstom", "brand:wikidata": "Q309084"}, "geometry": {"type": "Point", "coordinates": [-96.917594, 19.544728]}},
{"type": "Feature", "id": "uf4mHxWfca0LiBCGmRYk5EttFsU=", "properties": {"ref": "26226", "@spider": "alstom", "addr:full": "Calz. Ticomn 199, Santa Isabel Tola, Gustavo A. Madero, 07369 Ciudad de Mxico, CDMX ", "addr:country": "MX", "name": "Ticoman", "brand": "Alstom", "brand:wikidata": "Q309084"}, "geometry": {"type": "Point", "coordinates": [-99.12240938995039, 19.496234587995048]}},
{"type": "Feature", "id": "HXbItWckHO4CuScVrPxE6jFG1fU=", "properties": {"ref": "26231", "@spider": "alstom", "addr:full": "Domicilio Conocido Sin Nmero, Corredor Industrial, Zona Industrial, Cd. Sahagn, Hgo. 43998, Mexico", "addr:country": "MX", "name": "Planta Ciudad Sahagn", "phone": "+52 79 1913 8700", "brand": "Alstom", "brand:wikidata": "Q309084"}, "geometry": {"type": "Point", "coordinates": [-98.58773, 19.770556]}},
{"type": "Feature", "id": "MwjBa_mdox8PRYE33TH9vK_6XDc=", "properties": {"ref": "461", "@spider": "alstom", "addr:full": "1er tage du btiment principal de l'ensemble immobilier sis - Bouskoura 27182 - Morocco", "addr:country": "MA", "name": "Casablanca", "phone": "+212522585800", "brand": "Alstom", "brand:wikidata": "Q309084"}, "geometry": {"type": "Point", "coordinates": [-7.642863, 33.540764]}},
{"type": "Feature", "id": "XQ1V98eju93bSpd6iZw7RlaBJSc=", "properties": {"ref": "466", "@spider": "alstom", "addr:full": "Zone Industrielle Sidi Brahim - Fs 30050 - Morocco", "addr:country": "MA", "name": "Cabliance", "phone": "+212535724200", "brand": "Alstom", "brand:wikidata": "Q309084"}, "geometry": {"type": "Point", "coordinates": [-5.032098, 33.989895]}},
{"type": "Feature", "id": "-cDTxRXluTUMVJ3PHOWtPFadv_o=", "properties": {"ref": "471", "@spider": "alstom", "addr:full": "No. 1104, 1st Floor (Left) Konebaung 12th Street, 6th Ward - South Okkalapa Township - Yangon 11091 - Myanmar", "addr:country": "MM", "name": "Yangon", "phone": "Phone: +95 (9) 73 152469", "brand": "Alstom", "brand:wikidata": "Q309084"}, "geometry": {"type": "Point", "coordinates": [95.955974, 21.916221]}},
{"type": "Feature", "id": "4-KYN9--BtQUxM3DokXA6XBTthg=", "properties": {"ref": "25786", "@spider": "alstom", "addr:full": "45 Vliegend Hertlaan, 3526 KT Utrecht,Netherlands", "addr:country": "NL", "name": "Utrecht", "phone": "+31 30 292 9611", "brand": "Alstom", "brand:wikidata": "Q309084"}, "geometry": {"type": "Point", "coordinates": [5.1086082, 52.065527]}},
{"type": "Feature", "id": "u0jeOcdidWcsXHnq3iac4Sp9SbM=", "properties": {"ref": "18266", "@spider": "alstom", "addr:full": "6 De Ruijterkade, 1013 AA Amsterdam,Netherlands", "addr:country": "NL", "name": "Duivendrecht", "phone": "+31 20 344 5720", "brand": "Alstom", "brand:wikidata": "Q309084"}, "geometry": {"type": "Point", "coordinates": [4.8953121, 52.3817836]}},
{"type": "Feature", "id": "Sbx7GoLwdaltAm620cSly7sq5qU=", "properties": {"ref": "25771", "@spider": "alstom", "addr:full": "Ringdijk 390C, 2983 GS Ridderkerk,Netherlands", "addr:country": "NL", "name": "Ridderkerk", "phone": "+31 180 452 999", "brand": "Alstom", "brand:wikidata": "Q309084"}, "geometry": {"type": "Point", "coordinates": [4.6156187, 51.8851637]}},
{"type": "Feature", "id": "NWp-YjBky2dVAC0qdDk59LCN5Sc=", "properties": {"ref": "25776", "@spider": "alstom", "addr:full": "17 Blindeweg, 3088 KB Rotterdam,Netherlands", "addr:country": "NL", "name": "Rotterdam", "phone": "+31 10 492 8900", "brand": "Alstom", "brand:wikidata": "Q309084"}, "geometry": {"type": "Point", "coordinates": [4.437008, 51.870217]}},
{"type": "Feature", "id": "jbgTeaqirvHHQwU49TXgT6-zVB0=", "properties": {"ref": "25781", "@spider": "alstom", "addr:full": "87 Albert Plesmanweg, 3088 GC Rotterdam,Netherlands", "addr:country": "NL", "name": "Rotterdam", "phone": "+31 10 492 8900", "brand": "Alstom", "brand:wikidata": "Q309084"}, "geometry": {"type": "Point", "coordinates": [4.446775, 51.8724637]}},
{"type": "Feature", "id": "b-I9po1xvmED5YaXxJwmU3IZ1Vw=", "properties": {"ref": "25791", "@spider": "alstom", "addr:full": "3 Industrieweg, 1115 AD Duivendrecht,Netherlands", "addr:country": "NL", "name": "Amsterdam", "phone": "+31 52 49 2118", "brand": "Alstom", "brand:wikidata": "Q309084"}, "geometry": {"type": "Point", "coordinates": [4.945249, 52.3365819]}},
{"type": "Feature", "id": "HhG5uhJbzhlWPwhZUVqICdzzPRY=", "properties": {"ref": "486", "@spider": "alstom", "addr:full": "Drammensveien 165 - N-0277 Oslo - Norway", "addr:country": "NO", "name": "Oslo", "phone": "+47 412 80 882", "brand": "Alstom", "brand:wikidata": "Q309084"}, "geometry": {"type": "Point", "coordinates": [10.67495, 59.9216652]}},
{"type": "Feature", "id": "JKlZOT1o0duf2vj-eWvGZYxfTWE=", "properties": {"ref": "25821", "@spider": "alstom", "addr:full": "Eilert Smiths vei 1 - 0975 Oslo - Norway", "addr:country": "NO", "name": "Grorud", "phone": "+47 412 80 882", "brand": "Alstom", "brand:wikidata": "Q309084"}, "geometry": {"type": "Point", "coordinates": [10.86877, 59.94161]}},
{"type": "Feature", "id": "eUiV5bczR3AWRUW5UnH1p45nF30=", "properties": {"ref": "506", "@spider": "alstom", "addr:full": "PH Capital Plaza, Piso 6 Oficina 602, Costa del Este, Panama", "addr:country": "PA", "name": "Costa del Leste", "phone": "+507 3773800", "brand": "Alstom", "brand:wikidata": "Q309084"}, "geometry": {"type": "Point", "coordinates": [-79.47618, 9.008342]}},
{"type": "Feature", "id": "UUwqf0fYIwADJS3TNPKzaZOt9YU=", "properties": {"ref": "501", "@spider": "alstom", "addr:full": "Maanitas, Tocumen Oficinas Consorcio Lnea 2 - Panama", "addr:country": "PA", "name": "Maanitas", "phone": "Phone: +507 3774400", "brand": "Alstom", "brand:wikidata": "Q309084"}, "geometry": {"type": "Point", "coordinates": [-79.40509, 9.082148]}},
{"type": "Feature", "id": "Iq8cPz4htJVomnhM2uPvbEH7q04=", "properties": {"ref": "491", "@spider": "alstom", "addr:full": "Curund, Avenida Ascanio Villalaz  Panama MPSA Offices ", "addr:country": "PA", "name": "TML", "phone": "+507 3773900", "brand": "Alstom", "brand:wikidata": "Q309084"}, "geometry": {"type": "Point", "coordinates": [-79.546693, 8.971997]}},
{"type": "Feature", "id": "zcO0illyFSY0Ge0CW_xf-gf3-6E=", "properties": {"ref": "496", "@spider": "alstom", "addr:full": "Curund, Avenida Ascanio Villalaz  Panama MPSA Offices ", "addr:country": "PA", "name": "TMP - L1C", "phone": "+507 3773900", "brand": "Alstom", "brand:wikidata": "Q309084"}, "geometry": {"type": "Point", "coordinates": [-79.546693, 8.971997]}},
{"type": "Feature", "id": "GR6LRGuhYY9rGBVSArWKB8pJGWc=", "properties": {"ref": "26236", "@spider": "alstom", "addr:full": "Tocumen Comercial Park  Oficinas de Ramal - Panama ", "addr:country": "PA", "name": "Base de Obra", "phone": "+507 3774400", "brand": "Alstom", "brand:wikidata": "Q309084"}, "geometry": {"type": "Point", "coordinates": [-79.4051, 908.2148]}},
{"type": "Feature", "id": "aZpe21oeHrUNRyK9U3j1wXoaJQs=", "properties": {"ref": "26241", "@spider": "alstom", "addr:full": "Nuevo Tocumen, Patio y Talleres de L2., Panama", "addr:country": "PA", "name": "TML L2", "phone": "+507 3773900", "brand": "Alstom", "brand:wikidata": "Q309084"}, "geometry": {"type": "Point", "coordinates": [-79.5467, 897.1997]}},
{"type": "Feature", "id": "kkYkciW_iF2xff7OC-VZgZGdw_s=", "properties": {"ref": "511", "@spider": "alstom", "addr:full": "Av. Juan de Aliaga 425 - Edificio Prisma Business Tower Int. 403, Piso 4 - Magdalena 15076 - Lima, Peru", "addr:country": "PE", "name": "Edificio Prisma Business Tower", "phone": "+51 1 500 6764", "brand": "Alstom", "brand:wikidata": "Q309084"}, "geometry": {"type": "Point", "coordinates": [-77.059699, -12.095299]}},
{"type": "Feature", "id": "Eym2LGHAkg_au_ZLOuAAfIqCv0o=", "properties": {"ref": "516", "@spider": "alstom", "addr:full": "Jirn Solidaridad cdra. 8 s/n Parque Industrial - Villa El Salvador, Lima 42 15816 - Per", "addr:country": "PE", "name": "Villa Salvador", "phone": "+51 1 943 807 902", "brand": "Alstom", "brand:wikidata": "Q309084"}, "geometry": {"type": "Point", "coordinates": [-76.934308, -12.20142]}},
{"type": "Feature", "id": "Dl2ohzL17bKGjpAmE0Cb0jWHDuI=", "properties": {"ref": "521", "@spider": "alstom", "addr:full": "5F South Park Plaza, Paseo de Magallanes Commercial Complex - Makati City, Manila 1232 - Philippines", "addr:country": "PH", "name": "Makati City", "phone": "+63 2 8860777", "brand": "Alstom", "brand:wikidata": "Q309084"}, "geometry": {"type": "Point", "coordinates": [121.018593, 14.536021]}},
{"type": "Feature", "id": "ZNzkwzSW0jLGibMGDhhkX7xpfxc=", "properties": {"ref": "26161", "@spider": "alstom", "addr:full": "8F, 14F, 15F, TGU Tower, Asiatown I.T. Park, Apas, Cebu City 6000 - Philippines", "addr:country": "PH", "name": "Cebu", "phone": "+63 917 129 9404", "brand": "Alstom", "brand:wikidata": "Q309084"}, "geometry": {"type": "Point", "coordinates": [123.90618234898, 10.3288046625873]}},
{"type": "Feature", "id": "9DIzK1tv8Pl0oq4rSkDhiuwagZg=", "properties": {"ref": "526", "@spider": "alstom", "addr:full": "Ul. Metalowcw 9 - 41-500 Chorzw - Poland<a class=\"link link--underline\" href=\"https://www.alstom.com/sites/alstom.com/files/2022/02/14/Atomic_Statement_2021_Katowice.pdf\" target=\"_blank\"><strong>2021 Atomic Statement for Katowice</strong></a>", "addr:country": "PL", "name": "Katowice RSC", "phone": "+48 32 349 10 00", "brand": "Alstom", "brand:wikidata": "Q309084"}, "geometry": {"type": "Point", "coordinates": [18.95559, 50.30373]}},
{"type": "Feature", "id": "mrZD3d_e5TWaFmEPs9vlT5XX2cw=", "properties": {"ref": "546", "@spider": "alstom", "addr:full": "2 Techniczna street - hall G, 05-500 Piaseczno - Poland", "addr:country": "PL", "name": "Piaseczno", "phone": "+48 66 848 96 95", "brand": "Alstom", "brand:wikidata": "Q309084"}, "geometry": {"type": "Point", "coordinates": [21.036766, 52.081083]}},
{"type": "Feature", "id": "tUF2w_wtZlOUgyoISi31Xj8KGLY=", "properties": {"ref": "536", "@spider": "alstom", "addr:full": "ul. Emilii Plater 53 - 00-113 Warszawa - Poland", "addr:country": "PL", "name": "Warszawa", "phone": "+48 22 540 66 00", "brand": "Alstom", "brand:wikidata": "Q309084"}, "geometry": {"type": "Point", "coordinates": [21.00203, 52.23359]}},
{"type": "Feature", "id": "4tm97WcHnG3BvZehcDgKgdSSu1I=", "properties": {"ref": "541", "@spider": "alstom", "addr:full": "Kozia Grka 9 - 04-317 Warszawa - Poland", "addr:country": "PL", "name": "Warszawa (Pendolino Depot)", "phone": "+48 73 441 40 76", "brand": "Alstom", "brand:wikidata": "Q309084"}, "geometry": {"type": "Point", "coordinates": [21.099568, 52.25616]}},
{"type": "Feature", "id": "g_tmbDOciSP9q_9Vudqa2inzNf4=", "properties": {"ref": "25826", "@spider": "alstom", "addr:full": "Chorzowska 118-120, 41-605 witochowice, Poland", "addr:country": "PL", "name": "Delta Electrical and Welding Workshop", "phone": "+48 695 030 810 ", "brand": "Alstom", "brand:wikidata": "Q309084"}, "geometry": {"type": "Point", "coordinates": [18.896878, 50.306726]}},
{"type": "Feature", "id": "fm16-j_uKkt6c54rZl6lvLIhKbs=", "properties": {"ref": "25831", "@spider": "alstom", "addr:full": "Modelarska 12 -40-142 Katowice - Poland", "addr:country": "PL", "name": "Katowice D&IS", "phone": "+48 32 730 50 00", "brand": "Alstom", "brand:wikidata": "Q309084"}, "geometry": {"type": "Point", "coordinates": [19.01743908992151, 50.280747582422876]}},
{"type": "Feature", "id": "C2C3Epw_3Z5CUAMcpMLkjQnPanc=", "properties": {"ref": "25836", "@spider": "alstom", "addr:full": "ul. Fabryczna 12 - 53-609 Wrocaw - Poland", "addr:country": "PL", "name": "Wrocaw RSC", "phone": "+48 71 256 20 00", "brand": "Alstom", "brand:wikidata": "Q309084"}, "geometry": {"type": "Point", "coordinates": [16.986769, 51.109066]}},
{"type": "Feature", "id": "mcpIthyNVFe-I7v7JWaFI4s-3WA=", "properties": {"ref": "25841", "@spider": "alstom", "addr:full": "ul. Kluczyki 17-21 - 87-100 Toru - Poland", "addr:country": "PL", "name": "Toru", "brand": "Alstom", "brand:wikidata": "Q309084"}, "geometry": {"type": "Point", "coordinates": [18.5791709, 52.98967745]}},
{"type": "Feature", "id": "Rlv0R-CcYOt9nycnyhfB6PEAhnI=", "properties": {"ref": "25846", "@spider": "alstom", "addr:full": "Al.Solidarnoci 171 - 00-877 Warszawa - Poland", "addr:country": "PL", "name": "Rail Engineering Warszawa", "phone": "+48 22 243 07 00", "brand": "Alstom", "brand:wikidata": "Q309084"}, "geometry": {"type": "Point", "coordinates": [21.012229, 52.229676]}},
{"type": "Feature", "id": "NJFrhZq7PsC3c_1U6ojFC488U5Q=", "properties": {"ref": "25851", "@spider": "alstom", "addr:full": "ul. Aleksandrowska 67/93 - 91-205 Lodz - Poland", "addr:country": "PL", "name": "d", "brand": "Alstom", "brand:wikidata": "Q309084"}, "geometry": {"type": "Point", "coordinates": [19.4569911, 517.687323]}},
{"type": "Feature", "id": "PpdvlEr5e9gg38IguGpEogITwMY=", "properties": {"ref": "25856", "@spider": "alstom", "addr:full": "ul. Chopickiego 53  04-275Warszawa  Poland", "addr:country": "PL", "name": "Warszawa (Traxx & Twindexx Depot)", "brand": "Alstom", "brand:wikidata": "Q309084"}, "geometry": {"type": "Point", "coordinates": [21.10963387, 52.25177445]}},
{"type": "Feature", "id": "q9EcuHAG_hWnCkvc-zA3DT8vwPg=", "properties": {"ref": "25861", "@spider": "alstom", "addr:full": "Rua Odette de Saint-Maurice, 3L, piso 0, escritorio A -1700-921 -Lisboa", "addr:country": "PT", "name": "Lisbon ", "phone": "+351 21 496 9100", "brand": "Alstom", "brand:wikidata": "Q309084"}, "geometry": {"type": "Point", "coordinates": [-9.1530322, 38.7585581]}},
{"type": "Feature", "id": "0yTOSowmEsXHpgwdzKtKbXwY3So=", "properties": {"ref": "551", "@spider": "alstom", "addr:full": "Office 709, 7th Floor II - The Gate Maysaloun Street, West Bay - PO Box 14023 - Doha, Qatar", "addr:country": "QA", "name": "Doha", "phone": "+97440206100", "brand": "Alstom", "brand:wikidata": "Q309084"}, "geometry": {"type": "Point", "coordinates": [51.526553, 25.322725]}},
{"type": "Feature", "id": "Z2HX1Q1N9SdtQ6B3FpmSbkkaPT0=", "properties": {"ref": "561", "@spider": "alstom", "addr:full": "Golden Blitz office building, 2nd floor, 32 Razoare Street, Sector 6 - 60119 Bucharest - Romania", "addr:country": "RO", "name": "Bucharest Razoare", "brand": "Alstom", "brand:wikidata": "Q309084"}, "geometry": {"type": "Point", "coordinates": [26.0602726, 44.4298359]}},
{"type": "Feature", "id": "EWxc72pm-sfrxraGLCRM_YV16LA=", "properties": {"ref": "19141", "@spider": "alstom", "addr:full": "15 B Preciziei Street, sector 6 -62204<span style=\"letter-spacing:-0.035rem\">Bucharest - Romania</span>", "addr:country": "RO", "name": "Bucharest Militari", "phone": "+40 372 036 636", "brand": "Alstom", "brand:wikidata": "Q309084"}, "geometry": {"type": "Point", "coordinates": [25.9738613, 44.4291141]}},
{"type": "Feature", "id": "Z8sllqvtKVDGtreyEqr_4LGXFAY=", "properties": {"ref": "19146", "@spider": "alstom", "addr:full": "116 Main Street -337169 Tatarasti - Hunedoara County - Romania", "addr:country": "RO", "name": "Tatarasti", "brand": "Alstom", "brand:wikidata": "Q309084"}, "geometry": {"type": "Point", "coordinates": [22.5096291, 45.9424585]}},
{"type": "Feature", "id": "SvsPnsU9vXhKtcX2Ft02uESwMOc=", "properties": {"ref": "19151", "@spider": "alstom", "addr:full": "78 Tudor Vladimirescu Street - 510167 Alba Iulia - Alba County - Romania", "addr:country": "RO", "name": "Alba Iulia", "brand": "Alstom", "brand:wikidata": "Q309084"}, "geometry": {"type": "Point", "coordinates": [23.58623, 46.0847204]}},
{"type": "Feature", "id": "xAlI1Vy74DdUChH9-GtfVK9lzgk=", "properties": {"ref": "19156", "@spider": "alstom", "addr:full": "3 Mihail Kogalniceanu Street, 6th floor - 500210 Brasov - Romania", "addr:country": "RO", "name": "Brasov", "brand": "Alstom", "brand:wikidata": "Q309084"}, "geometry": {"type": "Point", "coordinates": [25.6135301, 45.6537034]}},
{"type": "Feature", "id": "5OHds6V9LkhUA-DY_rjiJ8KO_aU=", "properties": {"ref": "19876", "@spider": "alstom", "addr:full": "The Office, 77 Blvd. 21 December 1989 - 400603 Cluj-Napoca - Romania", "addr:country": "RO", "name": "Cluj-Napoca - The Office", "phone": "+40 264 509 555", "brand": "Alstom", "brand:wikidata": "Q309084"}, "geometry": {"type": "Point", "coordinates": [23.6039787, 46.7767067]}},
{"type": "Feature", "id": "CqNS76N4szrWaZ9duES-6CY6dKM=", "properties": {"ref": "25881", "@spider": "alstom", "addr:full": "Power Business Center, 18-20 Calea Dorobantilor - 400117 Cluj-Napoca - Romania", "addr:country": "RO", "name": "Cluj Napoca PBC Office", "phone": "+40 264 502 900", "brand": "Alstom", "brand:wikidata": "Q309084"}, "geometry": {"type": "Point", "coordinates": [23.6018207, 46.7716705]}},
{"type": "Feature", "id": "abMkwioW362RirhZzKAXRsbsUFk=", "properties": {"ref": "25886", "@spider": "alstom", "addr:full": "Mashi Porivaevoy str. 34, block 1, floor 17 - 107078 Moscow - Russia", "addr:country": "RU", "name": "Moscow", "phone": "+7 495 795 78 79", "brand": "Alstom", "brand:wikidata": "Q309084"}, "geometry": {"type": "Point", "coordinates": [37.64808, 55.77216]}},
{"type": "Feature", "id": "i0cwdGsPSMseYJ-cBvBCdbDtV24=", "properties": {"ref": "26181", "@spider": "alstom", "addr:full": "King Abdulaziz International Airport, KAIA Terminal 1, Alnuzha District, Jeddah - Kingdom of Saudi Arabia", "addr:country": "SA", "name": "Jeddah", "brand": "Alstom", "brand:wikidata": "Q309084"}, "geometry": {"type": "Point", "coordinates": [39.17531425028697, 21.661977372243168]}},
{"type": "Feature", "id": "-Tf8_Bcg-F0p2fNStV9HpjFNOIU=", "properties": {"ref": "26186", "@spider": "alstom", "addr:full": "Talgo Madina Site, King Khalid 3rd Ring Road, Madina - 42512 - Saudi Arabia", "addr:country": "SA", "name": "Madina", "brand": "Alstom", "brand:wikidata": "Q309084"}, "geometry": {"type": "Point", "coordinates": [39.685636017591904, 24.3805752632578]}},
{"type": "Feature", "id": "C2LSv9R6TdUatsgMsOw3ElJnwSM=", "properties": {"ref": "26171", "@spider": "alstom", "addr:full": "1 Kallang Junction, #04-01, Singapore339263", "addr:country": "SG", "name": "Singapore (Project Office)", "phone": "+65 6681 5758", "brand": "Alstom", "brand:wikidata": "Q309084"}, "geometry": {"type": "Point", "coordinates": [103.86400966680586, 1.3131945234985796]}},
{"type": "Feature", "id": "v-nCsJJsjTyikRoz_1Jb73wp7gE=", "properties": {"ref": "586", "@spider": "alstom", "addr:full": "Marievale Rd - Nigel 1490 - South Africa", "addr:country": "ZA", "name": "Ubunye", "phone": "+27 (0)11 733 0000", "brand": "Alstom", "brand:wikidata": "Q309084"}, "geometry": {"type": "Point", "coordinates": [28.4859426, -26.3971349]}},
{"type": "Feature", "id": "5c81vhhXyXnSgCg0diBlekqh0yY=", "properties": {"ref": "581", "@spider": "alstom", "addr:full": "2, Shosholoza Avenue - Dunnottar - 1496 Nigel - South Africa", "addr:country": "ZA", "name": "Gibela", "phone": "+27 (0)10 600 0651", "brand": "Alstom", "brand:wikidata": "Q309084"}, "geometry": {"type": "Point", "coordinates": [28.456875, -26.352902]}},
{"type": "Feature", "id": "Fl0PTPEfz8wY42eORPG8jPn2IxE=", "properties": {"ref": "576", "@spider": "alstom", "addr:full": "Ballyoaks Office Park, Silky Oak House, 2nd Floor - 35 Ballycare Dr - Bryanston, Sandton 2191 - South Africa", "addr:country": "ZA", "name": "Johannesburg", "phone": "+27 (0)10 600 0880", "brand": "Alstom", "brand:wikidata": "Q309084"}, "geometry": {"type": "Point", "coordinates": [28.0296289, -26.0737135]}},
{"type": "Feature", "id": "hIGULZH0npBYvtCWQkN9nnvXYJc=", "properties": {"ref": "26191", "@spider": "alstom", "addr:full": "190, Barbara RD - Elandsfontein - 1429Gauteng - South Africa", "addr:country": "ZA", "name": "Isando", "phone": "+27 (0)11 054 2300 ", "brand": "Alstom", "brand:wikidata": "Q309084"}, "geometry": {"type": "Point", "coordinates": [28.19689912883639, -26.16222402180563]}},
{"type": "Feature", "id": "4ErBefPYp1bwY74XdefTJewflRE=", "properties": {"ref": "26196", "@spider": "alstom", "addr:full": "Alsatian Rd, Waterval City - Midrand - 2066 Gauteng - South Africa", "addr:country": "ZA", "name": "Gautrain depot", "phone": "+27 (0)11 253 0134", "brand": "Alstom", "brand:wikidata": "Q309084"}, "geometry": {"type": "Point", "coordinates": [28.1193878, -26.043785]}},
{"type": "Feature", "id": "tyOSC_1OJsF4sh5KTZ_KCds70EE=", "properties": {"ref": "621", "@spider": "alstom", "addr:full": "Av. Barcelona - Rambla Josep M Jujol - 8970 Sant Joan d'Espi (Barcelona) - Spain", "addr:country": "ES", "name": "Barcelona -  Trambaix site", "phone": "+34 93 480 8971", "brand": "Alstom", "brand:wikidata": "Q309084"}, "geometry": {"type": "Point", "coordinates": [2.057049, 41.362586]}},
{"type": "Feature", "id": "-nDsHom9GwGISF2FHlBcj7w01HY=", "properties": {"ref": "601", "@spider": "alstom", "addr:full": "Carretera B-140 de Santa Perptua a Mollet - Km 7,5 - 8130 Santa Perptua (Barcelona) - Spain", "addr:country": "ES", "name": "Barcelona - Santa Perptua", "phone": "+34 93 575 5000", "brand": "Alstom", "brand:wikidata": "Q309084"}, "geometry": {"type": "Point", "coordinates": [2.199148, 41.533798]}},
{"type": "Feature", "id": "118Kzm5sYLyk4KGqYf_fOTB7QQ0=", "properties": {"ref": "626", "@spider": "alstom", "addr:full": "Av. Eduard Maristany, s/n - 8930 St. Adri de Bess (Barcelona) - Spain", "addr:country": "ES", "name": "Barcelona - Trambesos site", "phone": "+34 93 462 6680", "brand": "Alstom", "brand:wikidata": "Q309084"}, "geometry": {"type": "Point", "coordinates": [2.225752, 41.418824]}},
{"type": "Feature", "id": "YbQHpY24Ni7DYW5J8eGzj7NeaFM=", "properties": {"ref": "616", "@spider": "alstom", "addr:full": "c/ Bell, 7 - 28906 Getafe (Madrid) - Spain", "addr:country": "ES", "name": "Getafe - Bell", "phone": "+34 91 696 4112", "brand": "Alstom", "brand:wikidata": "Q309084"}, "geometry": {"type": "Point", "coordinates": [-3.699015, 40.297355]}},
{"type": "Feature", "id": "04_f62yYqc_I7hW82eSZgNWmBKs=", "properties": {"ref": "641", "@spider": "alstom", "addr:full": "Carretera Madrid, 198 - 24227 Valdelafuente (Len) - Spain", "addr:country": "ES", "name": "Leon - Valdelafuente", "phone": "+34 987.26.99.01", "brand": "Alstom", "brand:wikidata": "Q309084"}, "geometry": {"type": "Point", "coordinates": [-5.501308, 42.566196]}},
{"type": "Feature", "id": "Bae9qQwV2iOHSCHg5l13tMK37y8=", "properties": {"ref": "591", "@spider": "alstom", "addr:full": "c/ Martinez Villergas, 49, Edificio V - 28027 Madrid - Spain", "addr:country": "ES", "name": "Madrid - Martinez Villergas", "phone": "+34 91 334 5800", "brand": "Alstom", "brand:wikidata": "Q309084"}, "geometry": {"type": "Point", "coordinates": [-3.657884, 40.444485]}},
{"type": "Feature", "id": "Gxz7RnPtpDqLMTBD1w6ETo7xw7Y=", "properties": {"ref": "636", "@spider": "alstom", "addr:full": "Calle Drets Humans, 37 Polgono Mas Alba Sitges - 8870 Sitges (Tarragona) - Spain", "addr:country": "ES", "name": "Sitges, Tarragona", "phone": "+34 93 811 4220      ", "brand": "Alstom", "brand:wikidata": "Q309084"}, "geometry": {"type": "Point", "coordinates": [1.809256, 41.248625]}},
{"type": "Feature", "id": "vOs3h2vIh21-tkeTiDWbhxXbs3o=", "properties": {"ref": "25921", "@spider": "alstom", "addr:full": "Edif. Louis Pasteur -- Avda. del Juncal, 22-24 4a planta - 28703 San Sebastian de los Reyes - Spain", "addr:country": "ES", "name": "San Sebastian de los Reyes ", "phone": "+34 916 57 91 00", "brand": "Alstom", "brand:wikidata": "Q309084"}, "geometry": {"type": "Point", "coordinates": [-3.61155, 40.539921]}},
{"type": "Feature", "id": "2EloHyEd2nsVFaJ4vZ2e6XSK9VQ=", "properties": {"ref": "25926", "@spider": "alstom", "addr:full": "Aeropuerto Madrid-Barajas T-4 Buzn 4145 - 28042 Madrid - Spain", "addr:country": "ES", "name": "Madrid - Barajas ", "phone": "+34 91 746 61 53", "brand": "Alstom", "brand:wikidata": "Q309084"}, "geometry": {"type": "Point", "coordinates": [-3.5740806206811313, 40.4948384]}},
{"type": "Feature", "id": "qecGlk6wHHiqMQQ5lin2LKX2VZ8=", "properties": {"ref": "25931", "@spider": "alstom", "addr:full": "Pol.Ind.Trapaga - 48510 Trapagaran - Spain", "addr:country": "ES", "name": "Trapaga", "phone": "+34 94 486 9100", "brand": "Alstom", "brand:wikidata": "Q309084"}, "geometry": {"type": "Point", "coordinates": [-3.01733, 43.29611]}},
{"type": "Feature", "id": "jI7peT8ANRHKh7ik6aXbODID1pw=", "properties": {"ref": "25936", "@spider": "alstom", "addr:full": "C. de las Artes Grficas, 1D - 28320 Pinto - Spain", "addr:country": "ES", "name": "Pinto ", "phone": "+34 915073441", "brand": "Alstom", "brand:wikidata": "Q309084"}, "geometry": {"type": "Point", "coordinates": [-3.56155, 40.452209]}},
{"type": "Feature", "id": "tVV77w2kKNPkCMWieSHnYnnOakw=", "properties": {"ref": "25941", "@spider": "alstom", "addr:full": "Timoteo Prez Rubio, 4 - 28053 Madrid - Spain", "addr:country": "ES", "name": "Madrid - Ateinsa ", "brand": "Alstom", "brand:wikidata": "Q309084"}, "geometry": {"type": "Point", "coordinates": [-3.6742583, 40.3859631]}},
{"type": "Feature", "id": "DNPCJvemJxLj-vXMvjuynEjeOz0=", "properties": {"ref": "25946", "@spider": "alstom", "addr:full": "Calle Westinghouse 2 - 28906 Getafe - Spain", "addr:country": "ES", "name": "Getafe - Westinhouse", "phone": "+34 91 691 5409", "brand": "Alstom", "brand:wikidata": "Q309084"}, "geometry": {"type": "Point", "coordinates": [-3.7040364, 40.2952967]}},
{"type": "Feature", "id": "jDiHL_zkH1iyiWHwR4ov7fN7_jA=", "properties": {"ref": "731", "@spider": "alstom", "addr:full": "Varuvgen 34 - 125 30 lvsj - Sweden", "addr:country": "SE", "name": "lvsj", "phone": "+46 8 723 65 80", "brand": "Alstom", "brand:wikidata": "Q309084"}, "geometry": {"type": "Point", "coordinates": [18.0007458, 59.27064]}},
{"type": "Feature", "id": "LKsj-z_9f4yBlVuCSK0BV83Chlo=", "properties": {"ref": "711", "@spider": "alstom", "addr:full": "Tgvgen 1A - 590 12 Boxholm - Sweden", "addr:country": "SE", "name": "Boxholm", "phone": "+46 8 723 65 80", "brand": "Alstom", "brand:wikidata": "Q309084"}, "geometry": {"type": "Point", "coordinates": [15.0474882, 58.19669]}},
{"type": "Feature", "id": "AjEhA5VNaLfRpvsHrQJhcVCrGG8=", "properties": {"ref": "721", "@spider": "alstom", "addr:full": "Lokmansgatan 10 - 252 62 Helsingborg - Sweden", "addr:country": "SE", "name": "Helsingborg", "phone": "+46 8 723 65 80", "brand": "Alstom", "brand:wikidata": "Q309084"}, "geometry": {"type": "Point", "coordinates": [12.7456923, 56.006485]}},
{"type": "Feature", "id": "yyZUsAbvLiX_Y9pJO3x60MuHMlA=", "properties": {"ref": "681", "@spider": "alstom", "addr:full": "Linjegatan 14 - 591 29 Motala - Sweden", "addr:country": "SE", "name": "Motala", "phone": "+46 8 723 65 80", "brand": "Alstom", "brand:wikidata": "Q309084"}, "geometry": {"type": "Point", "coordinates": [15.070227, 58.557638]}},
{"type": "Feature", "id": "z9SALBbmAE3YQYnBLWz6Vx0oSCA=", "properties": {"ref": "691", "@spider": "alstom", "addr:full": "Kruthusgatan 27 - 411 04 Gteborg - Sweden", "addr:country": "SE", "name": "Motorvagnshallen", "phone": "+46 8 723 65 80", "brand": "Alstom", "brand:wikidata": "Q309084"}, "geometry": {"type": "Point", "coordinates": [11.988678, 57.7135544]}},
{"type": "Feature", "id": "1uewvUaiDPSF6st8m-xgx-b2OUY=", "properties": {"ref": "701", "@spider": "alstom", "addr:full": "Von Utfallsgatan 9 - 415 05 Gteborg - Sweden", "addr:country": "SE", "name": "Svens", "phone": "+46 8 723 65 80", "brand": "Alstom", "brand:wikidata": "Q309084"}, "geometry": {"type": "Point", "coordinates": [12.027144, 57.726323]}},
{"type": "Feature", "id": "VH5vuZ79c1NvB8UK0wktD7Zf8G0=", "properties": {"ref": "716", "@spider": "alstom", "addr:full": "Svalngsvgen 2A - 151 38 Sdertlje - Sweden", "addr:country": "SE", "name": "Sdertlje", "phone": "+46 8 723 65 80", "brand": "Alstom", "brand:wikidata": "Q309084"}, "geometry": {"type": "Point", "coordinates": [17.6490784, 59.17458]}},
{"type": "Feature", "id": "WbOJ9rx_PyuCH_4-kSYnu0uWSsw=", "properties": {"ref": "17361", "@spider": "alstom", "addr:full": "Ekbacksvgen 20 - 168 69 Bromma - Sweden", "addr:country": "SE", "name": "Ulvsunda", "phone": "+46 8 723 65 80", "brand": "Alstom", "brand:wikidata": "Q309084"}, "geometry": {"type": "Point", "coordinates": [17.96589, 59.34446]}},
{"type": "Feature", "id": "gekjIDIH50luw1aCJGL8mRHI0Wo=", "properties": {"ref": "25961", "@spider": "alstom", "addr:full": "stra Ringvgen 2 - 722 14 Vsters - Sweden", "addr:country": "SE", "name": "Vsters - Arvid", "phone": "+46 10 852 00 00", "brand": "Alstom", "brand:wikidata": "Q309084"}, "geometry": {"type": "Point", "coordinates": [16.557328, 59.6123]}},
{"type": "Feature", "id": "uCUxZ-Ow69_Jt5CKdLOi3d-L13Y=", "properties": {"ref": "25966", "@spider": "alstom", "addr:full": "Banmatarvgen 1 - 721 36 Vsters - Sweden", "addr:country": "SE", "name": "Vsters- strm", "phone": "+46 10 852 00 00", "brand": "Alstom", "brand:wikidata": "Q309084"}, "geometry": {"type": "Point", "coordinates": [16.577198, 59.63583]}},
{"type": "Feature", "id": "q3yVT-okMeL_Kz3LBXrm1dkh8bY=", "properties": {"ref": "25971", "@spider": "alstom", "addr:full": "Terminalvgen 102 - 721 36 Vsters - Sweden", "addr:country": "SE", "name": "Vsters - Lokis/Teknikhuset", "phone": "+46 10 852 00 00 ", "brand": "Alstom", "brand:wikidata": "Q309084"}, "geometry": {"type": "Point", "coordinates": [16.591035, 59.651206]}},
{"type": "Feature", "id": "JNj64Pw-BPdlvUBEjOqRLWh7b50=", "properties": {"ref": "25976", "@spider": "alstom", "addr:full": "Terminalvgen 100 - 721 36 Vsters - Sweden", "addr:country": "SE", "name": "Vsters - depot", "phone": "+46 10 852 00 00", "brand": "Alstom", "brand:wikidata": "Q309084"}, "geometry": {"type": "Point", "coordinates": [16.588628, 59.649037]}},
{"type": "Feature", "id": "pgvlriflBkKY_DBuAk2VViSjE8k=", "properties": {"ref": "25981", "@spider": "alstom", "addr:full": "Marieviksgatan 29 - 100 74 Stockholm - Sweden", "addr:country": "SE", "name": "Liljeholmen, Stockholm", "phone": "+46 10 852 00 00 ", "brand": "Alstom", "brand:wikidata": "Q309084"}, "geometry": {"type": "Point", "coordinates": [18.01779, 59.31413]}},
{"type": "Feature", "id": "48M9PuQTfrIwLz8b0HS5hloxNl4=", "properties": {"ref": "25986", "@spider": "alstom", "addr:full": "Polhemsplatsen 5 - 411 11 Gteborg - Sweden", "addr:country": "SE", "name": "Gteborg", "phone": "+46 10 852 00 00", "brand": "Alstom", "brand:wikidata": "Q309084"}, "geometry": {"type": "Point", "coordinates": [11.97742, 57.70813]}},
{"type": "Feature", "id": "9b7LAifVViSuUdHxOVI9qYxmmEg=", "properties": {"ref": "25991", "@spider": "alstom", "addr:full": "Norra Stationsgatan 7 - 281 48 Hssleholm - Sweden", "addr:country": "SE", "name": "Hssleholm", "phone": "+46 70 334 56 50", "brand": "Alstom", "brand:wikidata": "Q309084"}, "geometry": {"type": "Point", "coordinates": [13.76616, 56.159142]}},
{"type": "Feature", "id": "ICn1-XUXmqV6xccLuQC3CxFFbtA=", "properties": {"ref": "25996", "@spider": "alstom", "addr:full": "Notviken, Kontorsgatan 37 - 973 42 Lule - Sweden", "addr:country": "SE", "name": "Lule", "phone": "+46 10 852 00 00", "brand": "Alstom", "brand:wikidata": "Q309084"}, "geometry": {"type": "Point", "coordinates": [22.081232, 65.614591]}},
{"type": "Feature", "id": "Tz353-Y26vVovOWcAdGbEMo919I=", "properties": {"ref": "26001", "@spider": "alstom", "addr:full": "Upplandsgatan 12 - 802 83 Gvle - Sweden", "addr:country": "SE", "name": "Gvle", "phone": "+46 10 852 00 00", "brand": "Alstom", "brand:wikidata": "Q309084"}, "geometry": {"type": "Point", "coordinates": [17.168844, 60.665699]}},
{"type": "Feature", "id": "hK547QS39ToP8OWzVM-Zlnzc_Lw=", "properties": {"ref": "26006", "@spider": "alstom", "addr:full": "Sprvgen 1 - 521 32 Falkping - Sweden", "addr:country": "SE", "name": "Falkping", "phone": "+46 10 852 00 00", "brand": "Alstom", "brand:wikidata": "Q309084"}, "geometry": {"type": "Point", "coordinates": [13.559308, 58.182594]}},
{"type": "Feature", "id": "FFSmnx0Z1N_Ob3c8GL4uoaR5vSQ=", "properties": {"ref": "26011", "@spider": "alstom", "addr:full": "Sockerbruksgatan 6 - 531 40 Lidkping - Sweden", "addr:country": "SE", "name": "Lidkping", "phone": "+46 10 852 00 00", "brand": "Alstom", "brand:wikidata": "Q309084"}, "geometry": {"type": "Point", "coordinates": [13.168625, 58.503905]}},
{"type": "Feature", "id": "QOUEW600RNKDvKUTwqFciBhIS6Q=", "properties": {"ref": "26016", "@spider": "alstom", "addr:full": "Torssgatan 17 - 392 39 Kalmar - Sweden", "addr:country": "SE", "name": "Kalmar", "phone": "+46 10 852 00 00", "brand": "Alstom", "brand:wikidata": "Q309084"}, "geometry": {"type": "Point", "coordinates": [16.325949, 56.669545]}},
{"type": "Feature", "id": "A7Y5t34Lku25gg8L4k6bD3sEQCs=", "properties": {"ref": "26021", "@spider": "alstom", "addr:full": "Lokstallarna 1 - 571 42 Nssj - Sweden", "addr:country": "SE", "name": "Nssj", "phone": "+46 38 072 238", "brand": "Alstom", "brand:wikidata": "Q309084"}, "geometry": {"type": "Point", "coordinates": [14.682525, 57.660609]}},
{"type": "Feature", "id": "IGbXF14svVX8ET5TsxOzMu-zRNs=", "properties": {"ref": "24926", "@spider": "alstom", "addr:full": "Brown-Boveri-Strasse 5 - 8050 Zurich - Switzerland", "addr:country": "CH", "name": "Zurich", "phone": "+41 44 318 33 33", "brand": "Alstom", "brand:wikidata": "Q309084"}, "geometry": {"type": "Point", "coordinates": [8.53617, 47.41464]}},
{"type": "Feature", "id": "-ouf3TtVGpvG_VVqiXtnFsjnD34=", "properties": {"ref": "736", "@spider": "alstom", "addr:full": "Victor-von-Bruns Strasse 19, CH-8212 Neuhausen am Rheinfall - Switzerland", "addr:country": "CH", "name": "Neuhausen am Rheinfall", "phone": "+41 52 533 92 10", "brand": "Alstom", "brand:wikidata": "Q309084"}, "geometry": {"type": "Point", "coordinates": [8.625628, 47.678702]}},
{"type": "Feature", "id": "bKHEvmRdnT4xfuFuYzyimhj5vso=", "properties": {"ref": "24921", "@spider": "alstom", "addr:full": "Route de Pr-Jacquet, Zone Industrielle A26 CP 32 - 1844 Villeneuve - Switzerland", "addr:country": "CH", "name": "Villeneuve", "phone": "+41 21 967 05 05", "brand": "Alstom", "brand:wikidata": "Q309084"}, "geometry": {"type": "Point", "coordinates": [6.93602, 46.38785]}},
{"type": "Feature", "id": "V-V0ZvD_gNPWW8p3E7YvBA0Rsmc=", "properties": {"ref": "746", "@spider": "alstom", "addr:full": "2F-4F, 6F-10F, 12F and 15F, 3354 / 16-19 Manorom Building, Rama 4 Road, Klongton, Klongtoey, Bangkok 10110 - Thailand ", "addr:country": "TH", "name": "Bangkok", "phone": "+66 84 700 2268", "brand": "Alstom", "brand:wikidata": "Q309084"}, "geometry": {"type": "Point", "coordinates": [100.56989906828495, 13.717779631049433]}},
{"type": "Feature", "id": "rXwGyQZqZAT8LzME_vwAix-qzrI=", "properties": {"ref": "28761", "@spider": "alstom", "addr:full": "<span lang=\"FR\"><span><span><span>Immeuble Zenith, Lac II rue de la Bourse, les berges du lac, 1053 Tunis</span></span></span></span>", "addr:country": "TN", "name": "Immeuble Zenith", "brand": "Alstom", "brand:wikidata": "Q309084"}, "geometry": {"type": "Point", "coordinates": [10.27435, 36.849369]}},
{"type": "Feature", "id": "FRPRRD6cI1jPZQB5uvH8sx1wc-k=", "properties": {"ref": "761", "@spider": "alstom", "addr:full": "Altunizade Mah. Mahir z Cad. No.9/1 - 34662 skdar - Istanbul - Turkey", "addr:country": "TR", "name": "Istanbul", "phone": "+902164001912", "brand": "Alstom", "brand:wikidata": "Q309084"}, "geometry": {"type": "Point", "coordinates": [29.039007, 41.021837]}},
{"type": "Feature", "id": "y-DfJ1yW5yuEMdAVr6poAVcW2g0=", "properties": {"ref": "25951", "@spider": "alstom", "addr:full": "<span><span><span><span>Heroiv Kharkova avenue199B</span></span></span></span>, 61037 Kharkiv, Ukraine", "addr:country": "UA", "name": "Legal entity in Kharkiv", "phone": "+380504504045", "brand": "Alstom", "brand:wikidata": "Q309084"}, "geometry": {"type": "Point", "coordinates": [36.30001496966853, 49.97401058130474]}},
{"type": "Feature", "id": "XWg6EhTJ9hxYFKiR2GjRa_lVxbs=", "properties": {"ref": "25956", "@spider": "alstom", "addr:full": "Bolsunovska 13-15 str., 8th floor, 01014 Kyiv,Ukraine", "addr:country": "UA", "name": "Representative office in Kyiv", "phone": "+380444904549", "brand": "Alstom", "brand:wikidata": "Q309084"}, "geometry": {"type": "Point", "coordinates": [30.553176084630678, 50.42175345998261]}},
{"type": "Feature", "id": "ky-t6RoxVur1E6MamWX9GUJqt1Q=", "properties": {"ref": "766", "@spider": "alstom", "addr:full": "Burlington Tower, Al Abraj Street, Business Bay- Po Box 37956 Dubai - UAE", "addr:country": "AE", "name": "Dubai (Business Bay)", "phone": "+97143996698", "brand": "Alstom", "brand:wikidata": "Q309084"}, "geometry": {"type": "Point", "coordinates": [55.272887, 25.183165]}},
{"type": "Feature", "id": "2X4rxNddCIEutLiu76HvKFgU5fM=", "properties": {"ref": "26201", "@spider": "alstom", "addr:full": "Dubai International Airport", "addr:country": "AE", "name": "Dubai Airport", "brand": "Alstom", "brand:wikidata": "Q309084"}, "geometry": {"type": "Point", "coordinates": [55.365617100537335, 25.253113692077836]}},
{"type": "Feature", "id": "I42ltzDMvc-x3pTOgvcLRj0M-2Q=", "properties": {"ref": "26206", "@spider": "alstom", "addr:full": "T1 APM Team, The Dome Towers, Cluster-N, Level-23, Office # 2305-2306 - JLT - Dubai", "addr:country": "AE", "name": "Dubai JLT", "brand": "Alstom", "brand:wikidata": "Q309084"}, "geometry": {"type": "Point", "coordinates": [55.13819891758318, 25.06273623195139]}},
{"type": "Feature", "id": "UjqK1JmbeQJAJPAXsfKFtLHXL7E=", "properties": {"ref": "846", "@spider": "alstom", "addr:full": "1 Westferry Circus, Canary Wharf - London, E14 4HA - United Kingdom", "addr:country": "AE", "name": "ATC Joint Venture (London Westferry)", "phone": "Phone: 44 (0)203 023 0800", "brand": "Alstom", "brand:wikidata": "Q309084"}, "geometry": {"type": "Point", "coordinates": [-0.026094, 51.506579]}},
{"type": "Feature", "id": "Ex9I-wKk-8HLzA-qjGXCCdtHf1A=", "properties": {"ref": "851", "@spider": "alstom", "addr:full": "12-13th Floors, Quayside, 252-260 Broad Street - Birmingham, B1 2HF - United Kingdom", "addr:country": "AE", "name": "Birmingham D&IS", "phone": "44 (0) 7716 087 306", "brand": "Alstom", "brand:wikidata": "Q309084"}, "geometry": {"type": "Point", "coordinates": [-1.911246, 52.477209]}},
{"type": "Feature", "id": "vrGHY0h0xe1Nmuc_vhB4u7xp4B8=", "properties": {"ref": "856", "@spider": "alstom", "addr:full": "Lovers Walk, Brighton BN1 6AH - United Kingdom", "addr:country": "AE", "name": "Brighton", "brand": "Alstom", "brand:wikidata": "Q309084"}, "geometry": {"type": "Point", "coordinates": [-0.14716, 50.838242]}},
{"type": "Feature", "id": "1NqzM1ebVNY9UtE0D8Jh8pnGLms=", "properties": {"ref": "861", "@spider": "alstom", "addr:full": "Unit 4A, Templegate Distribution Park, Mead Rise, Totterdown, Bristol, BS3 4RP - United Kingdom", "addr:country": "AE", "name": "Bristol D&IS", "phone": "Phone: 44 (0)2087 313 600", "brand": "Alstom", "brand:wikidata": "Q309084"}, "geometry": {"type": "Point", "coordinates": [-2.58162, 51.446159]}},
{"type": "Feature", "id": "FsK3mksbYgd8ovpt2fRczDp3jbs=", "properties": {"ref": "23326", "@spider": "alstom", "addr:full": "Barton under Needwood, Burton upon Trent, Staffordshire DE13 8ES - United Kingdom ", "addr:country": "AE", "name": "Central Rivers", "brand": "Alstom", "brand:wikidata": "Q309084"}, "geometry": {"type": "Point", "coordinates": [-1.70592, 52.75435]}},
{"type": "Feature", "id": "VuHMWYV2x752f31QPQBnyqQZKY4=", "properties": {"ref": "871", "@spider": "alstom", "addr:full": "Hoole Bridge, Hoole Lane - Chester, CH2 3DJ - United Kingdom", "addr:country": "AE", "name": "Chester Traincare Centre", "phone": "Phone: 44 (0)1244 605873", "brand": "Alstom", "brand:wikidata": "Q309084"}, "geometry": {"type": "Point", "coordinates": [-2.883729, 53.198818]}},
{"type": "Feature", "id": "zuttseTorgZ55bpcUMKSubchb6c=", "properties": {"ref": "23331", "@spider": "alstom", "addr:full": "West Street, Crewe, CW1 3JB - United Kingdom", "addr:country": "AE", "name": "Crewe ", "brand": "Alstom", "brand:wikidata": "Q309084"}, "geometry": {"type": "Point", "coordinates": [-2.45864, 53.10237]}},
{"type": "Feature", "id": "B7vIzQs42mTqa293h8Uq36S_uxQ=", "properties": {"ref": "23336", "@spider": "alstom", "addr:full": "Doncaster Road, Wakefield, WF4 1RS - United Kingdom", "addr:country": "AE", "name": "Crofton", "brand": "Alstom", "brand:wikidata": "Q309084"}, "geometry": {"type": "Point", "coordinates": [-1.43198, 53.66395]}},
{"type": "Feature", "id": "TDZb3gYXw3bLQH_DfY-N-Imo_Fk=", "properties": {"ref": "881", "@spider": "alstom", "addr:full": "Pentagon House, Sir Frank Whittle Road - Derby, DE21 4XA - United Kingdom", "addr:country": "AE", "name": "Derby D&IS", "phone": "Phone: 44 (0)1332 477969", "brand": "Alstom", "brand:wikidata": "Q309084"}, "geometry": {"type": "Point", "coordinates": [-1.465051, 52.927283]}},
{"type": "Feature", "id": "dQ-xs3OQ1CyalK9nOO5iuW1_-LQ=", "properties": {"ref": "23341", "@spider": "alstom", "addr:full": "Deadmans Lane, Derby DE24 8WE - United Kingdom", "addr:country": "AE", "name": "Derby Etches Park", "brand": "Alstom", "brand:wikidata": "Q309084"}, "geometry": {"type": "Point", "coordinates": [-1.45331, 52.90846]}},
{"type": "Feature", "id": "oTuCtKaD9e3fTKIMra4BAxM26Y8=", "properties": {"ref": "23346", "@spider": "alstom", "addr:full": "Litchurch Lane, Derby, DE24 8AD - United Kingdom", "addr:country": "AE", "name": "Derby Litchurch Lane", "brand": "Alstom", "brand:wikidata": "Q309084"}, "geometry": {"type": "Point", "coordinates": [-1.46191, 52.909199]}},
{"type": "Feature", "id": "AC840JPjzI_n9PYsu-3-Jf6UgGA=", "properties": {"ref": "886", "@spider": "alstom", "addr:full": "109 Polmadie Road - Glasgow G5 0BA - United Kingdom", "addr:country": "AE", "name": "Glasgow (Polmadie) Traincare Centre", "phone": "Phone: 44 (0)141 418 1052", "brand": "Alstom", "brand:wikidata": "Q309084"}, "geometry": {"type": "Point", "coordinates": [-4.241291, 55.836924]}},
{"type": "Feature", "id": "5SpD7sjy52un50dN1I9MX91JVZY=", "properties": {"ref": "901", "@spider": "alstom", "addr:full": "Golders Green Traincare Centre, Finchley Road - London, NW11 7NU - United Kingdom", "addr:country": "AE", "name": "Golders Green Traincare Centre", "phone": "Phone: 44 (0)20 7918 7909", "brand": "Alstom", "brand:wikidata": "Q309084"}, "geometry": {"type": "Point", "coordinates": [-0.194181, 51.572612]}},
{"type": "Feature", "id": "tilY49ghA1VuQM_FPdbZhae7aFo=", "properties": {"ref": "23361", "@spider": "alstom", "addr:full": "Belgrave House, Frobisher Way, Hatfield Business Park, Hertfordshire AL10 9QT - United Kingdom ", "addr:country": "AE", "name": "Hatfield", "phone": "Phone: 44 (0)207 438 9230", "brand": "Alstom", "brand:wikidata": "Q309084"}, "geometry": {"type": "Point", "coordinates": [-0.267534, 51.657507]}},
{"type": "Feature", "id": "e01ICrHER1xle-KGFxNg2MzFuCo=", "properties": {"ref": "23371", "@spider": "alstom", "addr:full": "Ley Street, Ilford, Essex IG1 4BP - United Kingdom", "addr:country": "AE", "name": "Ilford", "brand": "Alstom", "brand:wikidata": "Q309084"}, "geometry": {"type": "Point", "coordinates": [0.08001, 51.56287]}},
{"type": "Feature", "id": "A1spEeLJ4JAJ1kGC3YmN5H8esCA=", "properties": {"ref": "23376", "@spider": "alstom", "addr:full": "210 Pentonville Road, London N1 9JY - United Kingdom", "addr:country": "AE", "name": "Kings Cross D&IS", "brand": "Alstom", "brand:wikidata": "Q309084"}, "geometry": {"type": "Point", "coordinates": [-0.11431, 51.531399]}},
{"type": "Feature", "id": "JL92kth0d-wvJj5NO42Z-ts-CM4=", "properties": {"ref": "926", "@spider": "alstom", "addr:full": "The Place, 175 High Holborn - London, WC1V 7AA - United Kingdom", "addr:country": "AE", "name": "London High Holborn", "phone": "Phone: 44 (0) 7514 312 286", "brand": "Alstom", "brand:wikidata": "Q309084"}, "geometry": {"type": "Point", "coordinates": [-0.125203, 51.515864]}},
{"type": "Feature", "id": "BosxUcPt8AlyvOQG37RD08GdW58=", "properties": {"ref": "936", "@spider": "alstom", "addr:full": "Kirkmanshulme Lane, Longsight - Manchester, M12 4HR - United Kingdom", "addr:country": "AE", "name": "Manchester (Longsight) Traincare Centre", "phone": "Phone: 44 (0)161 216 2030", "brand": "Alstom", "brand:wikidata": "Q309084"}, "geometry": {"type": "Point", "coordinates": [-2.199701, 53.460839]}},
{"type": "Feature", "id": "DVmWELvLL9JkScES2hJdFl33uDI=", "properties": {"ref": "23381", "@spider": "alstom", "addr:full": "Unit 4B Castlewood Business Park, Farmwell Lane, Sutton-in-Ashfield, Nottinghamshire, NG17 1JF - United Kingdom", "addr:country": "AE", "name": "Mansfield BTRoS", "brand": "Alstom", "brand:wikidata": "Q309084"}, "geometry": {"type": "Point", "coordinates": [-1.29885, 53.107811]}},
{"type": "Feature", "id": "nIeTQHLC2mbnoxqwytqXv0S6oog=", "properties": {"ref": "946", "@spider": "alstom", "addr:full": "179 London Road, Morden - Surrey SM4 5PT - United Kingdom", "addr:country": "AE", "name": "Morden Traincare Centre", "phone": "Phone: 44 (0)207 918 8796", "brand": "Alstom", "brand:wikidata": "Q309084"}, "geometry": {"type": "Point", "coordinates": [-0.198194, 51.397261]}},
{"type": "Feature", "id": "yD8TKgiHcPINt6Z59rjmsrLPPfM=", "properties": {"ref": "23391", "@spider": "alstom", "addr:full": "Juno Way, London SE14 5RW - United Kingdom", "addr:country": "AE", "name": "New Cross Gate", "brand": "Alstom", "brand:wikidata": "Q309084"}, "geometry": {"type": "Point", "coordinates": [-0.04555, 51.483452]}},
{"type": "Feature", "id": "_0eoFhzTEdTiK_oMvBMG0XCSN4Y=", "properties": {"ref": "23396", "@spider": "alstom", "addr:full": "Old Oak Common Lane, London NW10 6DW - United Kingdom", "addr:country": "AE", "name": "Old Oak Common", "brand": "Alstom", "brand:wikidata": "Q309084"}, "geometry": {"type": "Point", "coordinates": [-0.25251, 51.52522]}},
{"type": "Feature", "id": "qK5jQvEEpvlhK8jDMediyfovwKo=", "properties": {"ref": "23401", "@spider": "alstom", "addr:full": "Estover Close, Estover, Plymouth PL6 7PU - United Kingdom", "addr:country": "AE", "name": "Plymouth D&IS", "brand": "Alstom", "brand:wikidata": "Q309084"}, "geometry": {"type": "Point", "coordinates": [-4.08968, 50.42115]}},
{"type": "Feature", "id": "BsVS-1HnFvdLKaT7oUpypwtrkFc=", "properties": {"ref": "1001", "@spider": "alstom", "addr:full": "Argenta Way, Wembley - London, NW10 0RW - United Kingdom", "addr:country": "AE", "name": "Wembley Traincare Centre", "phone": "Phone: 44 (0)208 963 6160", "brand": "Alstom", "brand:wikidata": "Q309084"}, "geometry": {"type": "Point", "coordinates": [-0.280098, 51.545264]}},
{"type": "Feature", "id": "PGoPQxkyPwwl6qVRFPJQRvUmO0w=", "properties": {"ref": "1016", "@spider": "alstom", "addr:full": "Lovels Way, Widnes, WA8 8WQ - United Kingdom", "addr:country": "AE", "name": "Widnes", "brand": "Alstom", "brand:wikidata": "Q309084"}, "geometry": {"type": "Point", "coordinates": [-2.783795, 53.354795]}},
{"type": "Feature", "id": "uc7M9AfC5sOIJPJrPLOEGcekcIc=", "properties": {"ref": "23426", "@spider": "alstom", "addr:full": "Station Approach, Harlesden NW10 4OY - United Kingdom", "addr:country": "AE", "name": "Willesden", "brand": "Alstom", "brand:wikidata": "Q309084"}, "geometry": {"type": "Point", "coordinates": [-0.257778, 51.536389]}},
{"type": "Feature", "id": "UDyE3sdln9jHqfEoAjahaSD45v8=", "properties": {"ref": "1006", "@spider": "alstom", "addr:full": "Jones Road, Oxley - Wolverhampton, WV10 6JQ - United Kingdom", "addr:country": "AE", "name": "Wolverhampton (Oxley) Traincare Centre", "phone": "Phone: 44 (0)1902 485612", "brand": "Alstom", "brand:wikidata": "Q309084"}, "geometry": {"type": "Point", "coordinates": [-2.134255, 52.60363]}},
{"type": "Feature", "id": "Nn7JUzJ_uUW7sEapKovPZ37sBiA=", "properties": {"ref": "1011", "@spider": "alstom", "addr:full": "<span><span>ETAS House, Ground Floor, Hospital Fields Road, York, YO10 4DZ</span></span>- United Kingdom", "addr:country": "AE", "name": "York", "brand": "Alstom", "brand:wikidata": "Q309084"}, "geometry": {"type": "Point", "coordinates": [-1.07547, 53.94506]}},
{"type": "Feature", "id": "IVxKq-WjohvSW0dt0gjg1pH_zys=", "properties": {"ref": "771", "@spider": "alstom", "addr:full": "1001 Frontenac Road - Naperville, IL 60563 - USA", "addr:country": "AE", "name": "Naperville", "phone": "Phone: +1 630 369 2201", "brand": "Alstom", "brand:wikidata": "Q309084"}, "geometry": {"type": "Point", "coordinates": [-88.2276, 41.7863]}},
{"type": "Feature", "id": "bczT5gk95FKEweqMhjJvINlwcGw=", "properties": {"ref": "776", "@spider": "alstom", "addr:full": "1 Transit Drive - Hornell, NY 14843 - USA", "addr:country": "AE", "name": "Hornell", "phone": "Phone:  +1-607-281-2200", "brand": "Alstom", "brand:wikidata": "Q309084"}, "geometry": {"type": "Point", "coordinates": [-77.6521, 42.31556]}},
{"type": "Feature", "id": "71MGRfk8NBZ6k9kn8FXxyGSEGRY=", "properties": {"ref": "781", "@spider": "alstom", "addr:full": "641 Lexington Avenue, 28th Floor - New York, NY 10022 - USA", "addr:country": "AE", "name": "New York", "phone": "Phone: +1 212 692 5353", "brand": "Alstom", "brand:wikidata": "Q309084"}, "geometry": {"type": "Point", "coordinates": [-73.969611, 40.758893]}},
{"type": "Feature", "id": "-5Ei8RlsNit9q4PwYefV77JDanQ=", "properties": {"ref": "786", "@spider": "alstom", "addr:full": "210 Pintado Street - Vallejo CA 94592 - USA", "addr:country": "AE", "name": "Mare Island", "phone": "Phone:  +1-707-645-2078", "brand": "Alstom", "brand:wikidata": "Q309084"}, "geometry": {"type": "Point", "coordinates": [-122.2788, 38.1055]}},
{"type": "Feature", "id": "eBLAXMU3H7ZseYjwnElj_YY_WyM=", "properties": {"ref": "791", "@spider": "alstom", "addr:full": "42 Lukens Drive - New Castle, DE 19720 - USA", "addr:country": "AE", "name": "New Castle", "brand": "Alstom", "brand:wikidata": "Q309084"}, "geometry": {"type": "Point", "coordinates": [-75.54881, 39.68753]}},
{"type": "Feature", "id": "GMJ7gx_T4Xuoj-XbR-RS3B5M8fM=", "properties": {"ref": "796", "@spider": "alstom", "addr:full": "<span lang=\"EN-US\"><span>4545 East River Road</span></span> - West Henrietta, NY 14586 - USA", "addr:country": "AE", "name": "Rochester", "phone": "Phone:  +1-585-783-2000", "brand": "Alstom", "brand:wikidata": "Q309084"}, "geometry": {"type": "Point", "coordinates": [-77.669198, 43.05684]}},
{"type": "Feature", "id": "5X37v8Gmg3p3AL00lDa5fLmvNak=", "properties": {"ref": "801", "@spider": "alstom", "addr:full": "4901 Belfort Road, Suite 150 - Jacksonville, FL 32256 - USA", "addr:country": "AE", "name": "Jacksonville", "phone": "Phone: +1 904-470-1130", "brand": "Alstom", "brand:wikidata": "Q309084"}, "geometry": {"type": "Point", "coordinates": [-81.583, 30.2469]}},
{"type": "Feature", "id": "kKSaEiQTXunYfxEHTJ-2QDLMyEg=", "properties": {"ref": "806", "@spider": "alstom", "addr:full": "700 S. Babcock St., - Melbourne, FL 32901 - USA", "addr:country": "AE", "name": "Melbourne (US)", "phone": "Phone: 13215494901", "brand": "Alstom", "brand:wikidata": "Q309084"}, "geometry": {"type": "Point", "coordinates": [-80.622298, 28.096653]}},
{"type": "Feature", "id": "hADuAaEAg1P9iI21pWoauln95YA=", "properties": {"ref": "816", "@spider": "alstom", "addr:full": "2712 S Dillingham Road - Grain Valley MO 64029 - USA", "addr:country": "AE", "name": "Grain Valley", "phone": "Phone: 18166504665", "brand": "Alstom", "brand:wikidata": "Q309084"}, "geometry": {"type": "Point", "coordinates": [-94.2164, 39.0643]}},
{"type": "Feature", "id": "aDHJ3b-z3y7h7AnQKpP8fQLfDbI=", "properties": {"ref": "821", "@spider": "alstom", "addr:full": "609A Enterprise Drive - Warrensburg, MO 64093 - USA", "addr:country": "AE", "name": "Warrensburg", "phone": "Phone: 16604223777", "brand": "Alstom", "brand:wikidata": "Q309084"}, "geometry": {"type": "Point", "coordinates": [-93.7057, 38.7709]}},
{"type": "Feature", "id": "3qqWh5feG2JSJ9QvOxYV0600frc=", "properties": {"ref": "826", "@spider": "alstom", "addr:full": "10801 Electron Drive, Suite #400 - Louisville, Kentucky 40299 - USA", "addr:country": "AE", "name": "Louisville", "phone": "Phone : +1 800 825 7090", "brand": "Alstom", "brand:wikidata": "Q309084"}, "geometry": {"type": "Point", "coordinates": [-85.557042, 38.202322]}},
{"type": "Feature", "id": "GE9nsGodzi0Opi0xHucxKixoPX8=", "properties": {"ref": "1021", "@spider": "alstom", "addr:full": "12 Shota Rustaveli str., BC Grand - Tashkent100070 - Uzbekistan", "addr:country": "UZ", "name": "Tashkent", "phone": "+998711482222", "brand": "Alstom", "brand:wikidata": "Q309084"}, "geometry": {"type": "Point", "coordinates": [69.265307, 41.294561]}},
{"type": "Feature", "id": "joYvEn6Su12_3K1phdbR6m-oGmQ=", "properties": {"ref": "26176", "@spider": "alstom", "addr:full": "Torre Beta, Piso 3 oficina 310, Los Ruices, Edo Miranda. Codigo Postal 1071 -Venezuela", "addr:country": "VE", "name": "Los Ruices", "brand": "Alstom", "brand:wikidata": "Q309084"}, "geometry": {"type": "Point", "coordinates": [-66.82860969006755, 10.489708533689251]}},
{"type": "Feature", "id": "EhgY8kD7gfLhQG3h2DhzL2kHTxc=", "properties": {"ref": "1036", "@spider": "alstom", "addr:full": "Suite 902, Capital Tower, 109 Tran Hung Dao Street - Hoan Kiem District - Hanoi 100000 - Vietnam", "addr:country": "VN", "name": "Hanoi", "phone": "+84 4 3747 5304", "brand": "Alstom", "brand:wikidata": "Q309084"}, "geometry": {"type": "Point", "coordinates": [105.841811, 21.023995]}}]}