{"type":"FeatureCollection","features":[{"type": "Feature", "id": "T_JXqTUFg3lhKGbtD4EKhrSmCBM=", "properties": {"ref": "bb20ae73-e11d-e611-80c5-005056aa8521", "@spider": "amf_bowling", "addr:full": "910 S. Holden Rd.", "addr:city": "Greensboro", "addr:state": "NC", "addr:postcode": "27407", "addr:country": "US", "name": "AMF All Star Lanes", "phone": "336-299-4432", "website": "https://www.amf.com/location/amf-all-star-lanes-nc", "brand": "AMF Bowling Center", "brand:wikidata": "Q4652616"}, "geometry": {"type": "Point", "coordinates": [-79.8438, 36.0604]}},
{"type": "Feature", "id": "6x4KW0heSX8Wb864S74Vo8uGixQ=", "properties": {"ref": "ff1eae73-e11d-e611-80c5-005056aa8521", "@spider": "amf_bowling", "addr:full": "4717 St. Barnabas Rd., Se", "addr:city": "Temple Hills", "addr:state": "MD", "addr:postcode": "20748", "addr:country": "US", "name": "AMF Marlow Heights Lanes", "phone": "301-423-2222", "website": "https://www.amf.com/location/amf-marlow-heights-lanes", "brand": "AMF Bowling Center", "brand:wikidata": "Q4652616"}, "geometry": {"type": "Point", "coordinates": [-76.9478, 38.8251]}},
{"type": "Feature", "id": "mN0ORoULR1v-rWLJ2QyvTLjKT10=", "properties": {"ref": "4120ae73-e11d-e611-80c5-005056aa8521", "@spider": "amf_bowling", "addr:full": "291 Burnett Rd.", "addr:city": "Chicopee", "addr:state": "MA", "addr:postcode": "01020", "addr:country": "US", "name": "Bowlero Chicopee", "phone": "413-592-9161", "website": "https://www.bowlero.com/location/bowlero-chicopee", "brand": "AMF Bowling Center", "brand:wikidata": "Q4652616"}, "geometry": {"type": "Point", "coordinates": [-72.5486, 42.1644]}},
{"type": "Feature", "id": "_op2N0TnceNMCvE7tljsmQYc64A=", "properties": {"ref": "671fae73-e11d-e611-80c5-005056aa8521", "@spider": "amf_bowling", "addr:full": "2660 W. Lawrence Ave.", "addr:city": "Springfield", "addr:state": "IL", "addr:postcode": "62704", "addr:country": "US", "name": "AMF Strike 'N Spare Lanes", "phone": "217-787-6111", "website": "https://www.amf.com/location/amf-strike-n-spare-lanes-il", "brand": "AMF Bowling Center", "brand:wikidata": "Q4652616"}, "geometry": {"type": "Point", "coordinates": [-89.7038, 39.7943]}},
{"type": "Feature", "id": "AajGEqcKLc1jqXatLwwykZER-_k=", "properties": {"ref": "511fae73-e11d-e611-80c5-005056aa8521", "@spider": "amf_bowling", "addr:full": "3825 West Ray Rd.", "addr:city": "Chandler", "addr:state": "AZ", "addr:postcode": "85226", "addr:country": "US", "name": "AMF McRay Plaza Lanes", "phone": "480-899-2171", "website": "https://www.amf.com/location/amf-mcray-plaza-lanes", "brand": "AMF Bowling Center", "brand:wikidata": "Q4652616"}, "geometry": {"type": "Point", "coordinates": [-111.908, 33.3194]}},
{"type": "Feature", "id": "h6Utb1PRbCgOkw8dR5gVze_MAJM=", "properties": {"ref": "4720ae73-e11d-e611-80c5-005056aa8521", "@spider": "amf_bowling", "addr:full": "525 Main St. ", "addr:city": "East Haven", "addr:state": "CT", "addr:postcode": "06512", "addr:country": "US", "name": "AMF Circle Lanes", "phone": "203-467-6351", "website": "https://www.amf.com/location/amf-circle-lanes-ct", "brand": "AMF Bowling Center", "brand:wikidata": "Q4652616"}, "geometry": {"type": "Point", "coordinates": [-72.8811, 41.2833]}},
{"type": "Feature", "id": "J43DvP1nNGlLDgfrFPGxCuflQeU=", "properties": {"ref": "051fae73-e11d-e611-80c5-005056aa8521", "@spider": "amf_bowling", "addr:full": "6540 W. Broad St.", "addr:city": "Richmond", "addr:state": "VA", "addr:postcode": "23230", "addr:country": "US", "name": "Bowlero Richmond", "phone": "804-282-0537", "website": "https://www.bowlero.com/location/bowlero-richmond", "brand": "AMF Bowling Center", "brand:wikidata": "Q4652616"}, "geometry": {"type": "Point", "coordinates": [-77.513, 37.5991]}},
{"type": "Feature", "id": "-qc3isMzJ33Tr1B9yrgcVn5TJ3E=", "properties": {"ref": "791fae73-e11d-e611-80c5-005056aa8521", "@spider": "amf_bowling", "addr:full": "201 Harding St.", "addr:city": "Medina", "addr:state": "OH", "addr:postcode": "44256", "addr:country": "US", "name": "AMF Medina Lanes", "phone": "330-725-4548", "website": "https://www.amf.com/location/amf-medina-lanes", "brand": "AMF Bowling Center", "brand:wikidata": "Q4652616"}, "geometry": {"type": "Point", "coordinates": [-81.8615, 41.1498]}},
{"type": "Feature", "id": "e5xQwKO549SrxlMCYZzQyLvp8pY=", "properties": {"ref": "871fae73-e11d-e611-80c5-005056aa8521", "@spider": "amf_bowling", "addr:full": "10201 College Blvd.", "addr:city": "Overland Park", "addr:state": "KS", "addr:postcode": "66210", "addr:country": "US", "name": "AMF College Lanes", "phone": "913-451-6400", "website": "https://www.amf.com/location/amf-college-lanes", "brand": "AMF Bowling Center", "brand:wikidata": "Q4652616"}, "geometry": {"type": "Point", "coordinates": [-94.702, 38.9265]}},
{"type": "Feature", "id": "bmYzjH0J1IZS9XXGiMqRQGBKyqw=", "properties": {"ref": "e520ae73-e11d-e611-80c5-005056aa8521", "@spider": "amf_bowling", "addr:full": "111 Eileen Way", "addr:city": "Syosset", "addr:state": "NY", "addr:postcode": "11791", "addr:country": "US", "name": "AMF Syosset Lanes", "phone": "516-921-7575", "website": "https://www.amf.com/location/amf-syosset-lanes", "brand": "AMF Bowling Center", "brand:wikidata": "Q4652616"}, "geometry": {"type": "Point", "coordinates": [-73.5026, 40.8154]}},
{"type": "Feature", "id": "O69SkQ2zIgeETonW7vtaWD8zLZA=", "properties": {"ref": "4f1fae73-e11d-e611-80c5-005056aa8521", "@spider": "amf_bowling", "addr:full": "2115 E. Southern Ave.", "addr:city": "Mesa", "addr:state": "AZ", "addr:postcode": "85204", "addr:country": "US", "name": "AMF Mesa Lanes", "phone": "480-926-0051", "website": "https://www.amf.com/location/amf-mesa-lanes", "brand": "AMF Bowling Center", "brand:wikidata": "Q4652616"}, "geometry": {"type": "Point", "coordinates": [-111.786, 33.3924]}},
{"type": "Feature", "id": "r6r_2vrMFp8RnX5CoVlyr7R_5yo=", "properties": {"ref": "2d20ae73-e11d-e611-80c5-005056aa8521", "@spider": "amf_bowling", "addr:full": "105 S. Berkeley Blvd.", "addr:city": "Goldsboro", "addr:state": "NC", "addr:postcode": "27534", "addr:country": "US", "name": "AMF Boulevard Lanes", "phone": "919-735-6358", "website": "https://www.amf.com/location/amf-boulevard-lanes-nc", "brand": "AMF Bowling Center", "brand:wikidata": "Q4652616"}, "geometry": {"type": "Point", "coordinates": [-77.9545, 35.3709]}},
{"type": "Feature", "id": "UDFkvhbKl_SBM917HWMsMUbjcTk=", "properties": {"ref": "3f20ae73-e11d-e611-80c5-005056aa8521", "@spider": "amf_bowling", "addr:full": "231 Riverside Ave.", "addr:city": "Somerset", "addr:state": "MA", "addr:postcode": "02725", "addr:country": "US", "name": "AMF Somerset Lanes", "phone": "508-672-3131", "website": "https://www.amf.com/location/amf-somerset-lanes", "brand": "AMF Bowling Center", "brand:wikidata": "Q4652616"}, "geometry": {"type": "Point", "coordinates": [-71.1638, 41.7218]}},
{"type": "Feature", "id": "P-eNW_I6AE48Jcav_G-XK5MSDsw=", "properties": {"ref": "3320ae73-e11d-e611-80c5-005056aa8521", "@spider": "amf_bowling", "addr:full": "6660 Indian River Rd.", "addr:city": "Virginia Beach ", "addr:state": "VA", "addr:postcode": "23464", "addr:country": "US", "name": "AMF Indian River Lanes", "phone": "757-420-5840", "website": "https://www.amf.com/location/amf-indian-river-lanes", "brand": "AMF Bowling Center", "brand:wikidata": "Q4652616"}, "geometry": {"type": "Point", "coordinates": [-76.2217, 36.8201]}},
{"type": "Feature", "id": "YUdWqqJlhYv1Sg6Q24Nqepp7g1k=", "properties": {"ref": "9520ae73-e11d-e611-80c5-005056aa8521", "@spider": "amf_bowling", "addr:full": "1100 Petaluma Blvd., South", "addr:city": "Petaluma", "addr:state": "CA", "addr:postcode": "94952", "addr:country": "US", "name": "AMF Boulevard Lanes", "phone": "707-762-4581", "website": "https://www.amf.com/location/amf-boulevard-lanes-ca", "brand": "AMF Bowling Center", "brand:wikidata": "Q4652616"}, "geometry": {"type": "Point", "coordinates": [-122.625, 38.2263]}},
{"type": "Feature", "id": "lGc9XK2u8VkPgQFfGiUcJ8eNvbM=", "properties": {"ref": "cd1fae73-e11d-e611-80c5-005056aa8521", "@spider": "amf_bowling", "addr:full": "8800 Grant St.", "addr:city": "Thornton", "addr:state": "CO", "addr:postcode": "80229", "addr:country": "US", "name": "AMF Sonesta Lanes", "phone": "303-430-8017", "website": "https://www.amf.com/location/amf-sonesta-lanes", "brand": "AMF Bowling Center", "brand:wikidata": "Q4652616"}, "geometry": {"type": "Point", "coordinates": [-104.984, 39.8563]}},
{"type": "Feature", "id": "rKAi2QMWSRivpcDPmG3LV0rPg_g=", "properties": {"ref": "0f1fae73-e11d-e611-80c5-005056aa8521", "@spider": "amf_bowling", "addr:full": "335 Rivanna Plaza Dr.", "addr:city": "Charlottesville", "addr:state": "VA", "addr:postcode": "22901", "addr:country": "US", "name": "Bowlero Charlottesville", "phone": "434-978-3999", "website": "https://www.bowlero.com/location/bowlero-charlottesville", "brand": "AMF Bowling Center", "brand:wikidata": "Q4652616"}, "geometry": {"type": "Point", "coordinates": [-78.4703, 38.0923]}},
{"type": "Feature", "id": "orf3NIOyCkEABf0xjYxGDiEbrY4=", "properties": {"ref": "8d1fae73-e11d-e611-80c5-005056aa8521", "@spider": "amf_bowling", "addr:full": "3501 S. Boulevard St. ", "addr:city": "Edmond", "addr:state": "OK", "addr:postcode": "73013", "addr:country": "US", "name": "AMF Boulevard Lanes", "phone": "405-348-3210", "website": "https://www.amf.com/location/amf-boulevard-lanes-ok", "brand": "AMF Bowling Center", "brand:wikidata": "Q4652616"}, "geometry": {"type": "Point", "coordinates": [-97.4799, 35.6212]}},
{"type": "Feature", "id": "wgnVsRY8gluha2FW1NomhAe-tp0=", "properties": {"ref": "c520ae73-e11d-e611-80c5-005056aa8521", "@spider": "amf_bowling", "addr:full": "301 Nottingham Dr.", "addr:city": "Cary", "addr:state": "NC", "addr:postcode": "27511", "addr:country": "US", "name": "AMF South Hills Lanes", "phone": "919-467-2411", "website": "https://www.amf.com/location/amf-south-hills-lanes", "brand": "AMF Bowling Center", "brand:wikidata": "Q4652616"}, "geometry": {"type": "Point", "coordinates": [-78.7429, 35.7672]}},
{"type": "Feature", "id": "ySxNdhRBFTa-3xV34rmRLmGxPbo=", "properties": {"ref": "211fae73-e11d-e611-80c5-005056aa8521", "@spider": "amf_bowling", "addr:full": "4140 W. Vine Street", "addr:city": "Kissimmee", "addr:state": "FL", "addr:postcode": "34741", "addr:country": "US", "name": "AMF Kissimmee Lanes", "phone": "407-846-8844", "website": "https://www.amf.com/location/amf-kissimmee-lanes", "brand": "AMF Bowling Center", "brand:wikidata": "Q4652616"}, "geometry": {"type": "Point", "coordinates": [-81.4475, 28.3022]}},
{"type": "Feature", "id": "zFUFcCIrRR3o0toOWrQDGki7gC8=", "properties": {"ref": "fd1eae73-e11d-e611-80c5-005056aa8521", "@spider": "amf_bowling", "addr:full": "8056 Jumpers Hole Rd.", "addr:city": "Pasadena", "addr:state": "MD", "addr:postcode": "21122", "addr:country": "US", "name": "AMF Southdale Lanes", "phone": "443-261-3030", "website": "https://www.amf.com/location/amf-southdale-lanes", "brand": "AMF Bowling Center", "brand:wikidata": "Q4652616"}, "geometry": {"type": "Point", "coordinates": [-76.5891, 39.1285]}},
{"type": "Feature", "id": "ymV6EpBMejxrZIjhbGL_21o6XWw=", "properties": {"ref": "be1eae73-e11d-e611-80c5-005056aa8521", "@spider": "amf_bowling", "addr:full": "4111 S. Florida Ave.", "addr:city": "Lakeland", "addr:state": "FL", "addr:postcode": "33813", "addr:country": "US", "name": "AMF Lakeland Lanes", "phone": "863-646-5791", "website": "https://www.amf.com/location/amf-lakeland-lanes", "brand": "AMF Bowling Center", "brand:wikidata": "Q4652616"}, "geometry": {"type": "Point", "coordinates": [-81.9575, 27.9913]}},
{"type": "Feature", "id": "G8i9B_Sx05pt-OJgHAFzEMW7N08=", "properties": {"ref": "bc1eae73-e11d-e611-80c5-005056aa8521", "@spider": "amf_bowling", "addr:full": "1190 W. Boynton Beach Blvd.", "addr:city": "Boynton Beach", "addr:state": "FL", "addr:postcode": "33426", "addr:country": "US", "name": "AMF Boynton Beach Lanes", "phone": "561-734-1500", "website": "https://www.amf.com/location/amf-boynton-beach-lanes", "brand": "AMF Bowling Center", "brand:wikidata": "Q4652616"}, "geometry": {"type": "Point", "coordinates": [-80.0883, 26.5267]}},
{"type": "Feature", "id": "iUgPuDkx9MBVrdKCLK_1YpgjJ5w=", "properties": {"ref": "9720ae73-e11d-e611-80c5-005056aa8521", "@spider": "amf_bowling", "addr:full": "300 Park St.", "addr:city": "Alameda", "addr:state": "CA", "addr:postcode": "94501", "addr:country": "US", "name": "Bowlero Alameda", "phone": "510-523-6767", "website": "https://www.bowlero.com/location/bowlero-alameda", "brand": "AMF Bowling Center", "brand:wikidata": "Q4652616"}, "geometry": {"type": "Point", "coordinates": [-122.25, 37.7546]}},
{"type": "Feature", "id": "SsVridIXQ7U88Txw9ENntkALH1E=", "properties": {"ref": "f71fae73-e11d-e611-80c5-005056aa8521", "@spider": "amf_bowling", "addr:full": "4913 Transit Rd.", "addr:city": "Depew", "addr:state": "NY", "addr:postcode": "14043", "addr:country": "US", "name": "AMF Lancaster Lanes", "phone": "716-668-1000", "website": "https://www.amf.com/location/amf-lancaster-lanes", "brand": "AMF Bowling Center", "brand:wikidata": "Q4652616"}, "geometry": {"type": "Point", "coordinates": [-78.695, 42.8786]}},
{"type": "Feature", "id": "GLMwxvMkyAFrQBsG9SFfEqJwjdk=", "properties": {"ref": "b21eae73-e11d-e611-80c5-005056aa8521", "@spider": "amf_bowling", "addr:full": "4208 Cortez Rd W", "addr:city": "Bradenton", "addr:state": "FL", "addr:postcode": "34210", "addr:country": "US", "name": "Bowlero Bradenton", "phone": "941-758-8838", "website": "https://www.bowlero.com/location/bowlero-bradenton", "brand": "AMF Bowling Center", "brand:wikidata": "Q4652616"}, "geometry": {"type": "Point", "coordinates": [-82.6029, 27.4633]}},
{"type": "Feature", "id": "J0pY641YNysdFcHksIUiyqihqgc=", "properties": {"ref": "0520ae73-e11d-e611-80c5-005056aa8521", "@spider": "amf_bowling", "addr:full": "7941 Southtown Ctr.", "addr:city": "Bloomington", "addr:state": "MN", "addr:postcode": "55431", "addr:country": "US", "name": "AMF Southtown Lanes", "phone": "952-888-9248", "website": "https://www.amf.com/location/amf-southtown-lanes", "brand": "AMF Bowling Center", "brand:wikidata": "Q4652616"}, "geometry": {"type": "Point", "coordinates": [-93.3032, 44.8594]}},
{"type": "Feature", "id": "SwxRUAdXyIkctTR4jf4hju3epAE=", "properties": {"ref": "8b20ae73-e11d-e611-80c5-005056aa8521", "@spider": "amf_bowling", "addr:full": "5850 Freeport Blvd.", "addr:city": "Sacramento", "addr:state": "CA", "addr:postcode": "95822", "addr:country": "US", "name": "AMF Land Park Lanes", "phone": "916-421-3671", "website": "https://www.amf.com/location/amf-land-park-lanes", "brand": "AMF Bowling Center", "brand:wikidata": "Q4652616"}, "geometry": {"type": "Point", "coordinates": [-121.5, 38.5193]}},
{"type": "Feature", "id": "NVVU7UnILiuf800OQPNM4oIKNy0=", "properties": {"ref": "5720ae73-e11d-e611-80c5-005056aa8521", "@spider": "amf_bowling", "addr:full": "2501 Bristol Pike", "addr:city": "Croydon", "addr:state": "PA", "addr:postcode": "19021", "addr:country": "US", "name": "AMF Bristol Pike Lanes", "phone": "215-788-0453", "website": "https://www.amf.com/location/amf-bristol-pike-lanes", "brand": "AMF Bowling Center", "brand:wikidata": "Q4652616"}, "geometry": {"type": "Point", "coordinates": [-74.8844, 40.0978]}},
{"type": "Feature", "id": "MaRif8p37-vzCaAsaXzf_FZ52xA=", "properties": {"ref": "7520ae73-e11d-e611-80c5-005056aa8521", "@spider": "amf_bowling", "addr:full": "3610 Wible Rd.", "addr:city": "Bakersfield", "addr:state": "CA", "addr:postcode": "93309", "addr:country": "US", "name": "Bowlero Bakersfield", "phone": "661-834-2695", "website": "https://www.bowlero.com/location/bowlero-bakersfield", "brand": "AMF Bowling Center", "brand:wikidata": "Q4652616"}, "geometry": {"type": "Point", "coordinates": [-119.038, 35.3218]}},
{"type": "Feature", "id": "RHqMP3aipheNwRLHnzMYr76Zobc=", "properties": {"ref": "6f1fae73-e11d-e611-80c5-005056aa8521", "@spider": "amf_bowling", "addr:full": "14950 Snow Rd.", "addr:city": "Brookpark", "addr:state": "OH", "addr:postcode": "44142", "addr:country": "US", "name": "AMF Brookgate Lanes", "phone": "216-676-4325", "website": "https://www.amf.com/location/amf-brookgate-lanes", "brand": "AMF Bowling Center", "brand:wikidata": "Q4652616"}, "geometry": {"type": "Point", "coordinates": [-81.8005, 41.4051]}},
{"type": "Feature", "id": "_pJl33gETO8v2-IxXGQcRobFiU8=", "properties": {"ref": "d91eae73-e11d-e611-80c5-005056aa8521", "@spider": "amf_bowling", "addr:full": "4991 Fairview Ave.", "addr:city": "Linthicum Heights", "addr:state": "MD", "addr:postcode": "21090", "addr:country": "US", "name": "AMF Southwest Lanes", "phone": "410-789-2400", "website": "https://www.amf.com/location/amf-southwest-lanes-md", "brand": "AMF Bowling Center", "brand:wikidata": "Q4652616"}, "geometry": {"type": "Point", "coordinates": [-76.6599, 39.2263]}},
{"type": "Feature", "id": "v0-kPT5ZojFcq7jZfatn7HnGYo4=", "properties": {"ref": "1d1fae73-e11d-e611-80c5-005056aa8521", "@spider": "amf_bowling", "addr:full": "2813 W. Main St.", "addr:city": "Leesburg", "addr:state": "FL", "addr:postcode": "34748", "addr:country": "US", "name": "AMF Leesburg Lanes", "phone": "352-787-3335", "website": "https://www.amf.com/location/amf-leesburg-lanes", "brand": "AMF Bowling Center", "brand:wikidata": "Q4652616"}, "geometry": {"type": "Point", "coordinates": [-81.9139, 28.811]}},
{"type": "Feature", "id": "Q7jIm1-taVSKntega8tch6v1CvE=", "properties": {"ref": "431fae73-e11d-e611-80c5-005056aa8521", "@spider": "amf_bowling", "addr:full": "125 North Schillinger Rd.", "addr:city": "Mobile", "addr:state": "AL", "addr:postcode": "36608", "addr:country": "US", "name": "AMF Camellia Lanes", "phone": "251-639-1221", "website": "https://www.amf.com/location/amf-camellia-lanes", "brand": "AMF Bowling Center", "brand:wikidata": "Q4652616"}, "geometry": {"type": "Point", "coordinates": [-88.2267, 30.6924]}},
{"type": "Feature", "id": "AXAUmr3ibuaA3tM0oofjTeVn7zQ=", "properties": {"ref": "1720ae73-e11d-e611-80c5-005056aa8521", "@spider": "amf_bowling", "addr:full": "3149 S. Cooper St.", "addr:city": "Arlington", "addr:state": "TX", "addr:postcode": "76015", "addr:country": "US", "name": "AMF Spare Time Lanes", "phone": "817-465-4997", "website": "https://www.amf.com/location/amf-spare-time-lanes", "brand": "AMF Bowling Center", "brand:wikidata": "Q4652616"}, "geometry": {"type": "Point", "coordinates": [-97.1248, 32.6932]}},
{"type": "Feature", "id": "68iDWTKDeasTqmn-yD-vMO2dHTc=", "properties": {"ref": "1f20ae73-e11d-e611-80c5-005056aa8521", "@spider": "amf_bowling", "addr:full": "1398 W. Main St,", "addr:city": "Lewisville", "addr:state": "TX", "addr:postcode": "75067", "addr:country": "US", "name": "AMF Lewisville Lanes", "phone": "972-436-6575", "website": "https://www.amf.com/location/amf-lewisville-lanes", "brand": "AMF Bowling Center", "brand:wikidata": "Q4652616"}, "geometry": {"type": "Point", "coordinates": [-97.0306, 33.041]}},
{"type": "Feature", "id": "zGGl_Js9D0uADORlLO5wIKjLceo=", "properties": {"ref": "031fae73-e11d-e611-80c5-005056aa8521", "@spider": "amf_bowling", "addr:full": "4601 Cooper Lane", "addr:city": "Hyattsville", "addr:state": "MD", "addr:postcode": "20784", "addr:country": "US", "name": "AMF Capital Plaza Lanes", "phone": "301-772-6565", "website": "https://www.amf.com/location/amf-capital-plaza-lanes", "brand": "AMF Bowling Center", "brand:wikidata": "Q4652616"}, "geometry": {"type": "Point", "coordinates": [-76.9035, 38.943]}},
{"type": "Feature", "id": "PJwI9KyWCVdh7680rDbh942YmMY=", "properties": {"ref": "7f1fae73-e11d-e611-80c5-005056aa8521", "@spider": "amf_bowling", "addr:full": "616 W Trenton Ave", "addr:city": "Findlay", "addr:state": "OH", "addr:postcode": "45840", "addr:country": "US", "name": "AMF Sportsman Lanes", "phone": "419-422-9757", "website": "https://www.amf.com/location/amf-sportsman-lanes", "brand": "AMF Bowling Center", "brand:wikidata": "Q4652616"}, "geometry": {"type": "Point", "coordinates": [-83.6607, 41.0591]}},
{"type": "Feature", "id": "MY8zkLSwL7p3gwz0FBXyWRby65k=", "properties": {"ref": "bd20ae73-e11d-e611-80c5-005056aa8521", "@spider": "amf_bowling", "addr:full": "11210 Brigman Rd.", "addr:city": "Matthews", "addr:state": "NC", "addr:postcode": "28105", "addr:country": "US", "name": "Bowlero Matthews", "phone": "704-841-7606", "website": "https://www.bowlero.com/location/bowlero-matthews", "brand": "AMF Bowling Center", "brand:wikidata": "Q4652616"}, "geometry": {"type": "Point", "coordinates": [-80.7006, 35.1162]}},
{"type": "Feature", "id": "TZOeqXLculYsVJ-R7VEgJ5q0qHk=", "properties": {"ref": "9d1fae73-e11d-e611-80c5-005056aa8521", "@spider": "amf_bowling", "addr:full": "4919 S. Main St.", "addr:city": "Stafford", "addr:state": "TX", "addr:postcode": "77477", "addr:country": "US", "name": "Bowlero Stafford", "phone": "281-491-2856", "website": "https://www.bowlero.com/location/bowlero-stafford", "brand": "AMF Bowling Center", "brand:wikidata": "Q4652616"}, "geometry": {"type": "Point", "coordinates": [-95.5884, 29.6275]}},
{"type": "Feature", "id": "-KYpuzMUx4Kzd9qn-NsqoIS3-dI=", "properties": {"ref": "d51fae73-e11d-e611-80c5-005056aa8521", "@spider": "amf_bowling", "addr:full": "2530 E. County Line Rd.", "addr:city": "Littleton", "addr:state": "CO", "addr:postcode": "80126", "addr:country": "US", "name": "Bowlero Littleton", "phone": "303-779-5599", "website": "https://www.bowlero.com/location/bowlero-littleton", "brand": "AMF Bowling Center", "brand:wikidata": "Q4652616"}, "geometry": {"type": "Point", "coordinates": [-104.96, 39.5648]}},
{"type": "Feature", "id": "WTqOHW_jA6ZfFGh_izzVbqwCCII=", "properties": {"ref": "b11fae73-e11d-e611-80c5-005056aa8521", "@spider": "amf_bowling", "addr:full": "1501 S. Lemon St. ", "addr:city": "Fullerton", "addr:state": "CA", "addr:postcode": "92832", "addr:country": "US", "name": "Bowlero Fullerton", "phone": "714-526-7725", "website": "https://www.bowlero.com/location/bowlero-fullerton", "brand": "AMF Bowling Center", "brand:wikidata": "Q4652616"}, "geometry": {"type": "Point", "coordinates": [-117.921, 33.8551]}},
{"type": "Feature", "id": "NuMxQZvZkIF6_2ak-nYnJPfTZHA=", "properties": {"ref": "9f1fae73-e11d-e611-80c5-005056aa8521", "@spider": "amf_bowling", "addr:full": "2404 Palmer Hwy.", "addr:city": "Texas City", "addr:state": "TX", "addr:postcode": "77590", "addr:country": "US", "name": "Bowlero Texas City", "phone": "409-945-6881", "website": "https://www.bowlero.com/location/bowlero-texas-city", "brand": "AMF Bowling Center", "brand:wikidata": "Q4652616"}, "geometry": {"type": "Point", "coordinates": [-94.9296, 29.3952]}},
{"type": "Feature", "id": "qSiMrsyVWEIEyla3iF7TPJff_Og=", "properties": {"ref": "0b1fae73-e11d-e611-80c5-005056aa8521", "@spider": "amf_bowling", "addr:full": "4643 Murray Place", "addr:city": "Lynchburg", "addr:state": "VA", "addr:postcode": "24502", "addr:country": "US", "name": "AMF Lynchburg Lanes", "phone": "434-528-2695", "website": "https://www.amf.com/location/amf-lynchburg-lanes", "brand": "AMF Bowling Center", "brand:wikidata": "Q4652616"}, "geometry": {"type": "Point", "coordinates": [-79.1746, 37.3696]}},
{"type": "Feature", "id": "x1-mClDA4njQSs5vzzOnvWDoFcc=", "properties": {"ref": "c720ae73-e11d-e611-80c5-005056aa8521", "@spider": "amf_bowling", "addr:full": "4501 South Blvd.", "addr:city": "Charlotte", "addr:state": "NC", "addr:postcode": "28209", "addr:country": "US", "name": "AMF Centennial Lanes", "phone": "704-527-0333", "website": "https://www.amf.com/location/amf-centennial-lanes", "brand": "AMF Bowling Center", "brand:wikidata": "Q4652616"}, "geometry": {"type": "Point", "coordinates": [-80.875, 35.1806]}},
{"type": "Feature", "id": "YRFDIQ4FqgJipFOS1ouJqPCnkoM=", "properties": {"ref": "ed1eae73-e11d-e611-80c5-005056aa8521", "@spider": "amf_bowling", "addr:full": "491 Kenilworth Rd.", "addr:city": "Asheville", "addr:state": "NC", "addr:postcode": "28805", "addr:country": "US", "name": "AMF Star Lanes", "phone": "(828)-254-6161", "website": "https://www.amf.com/location/amf-star-lanes-asheville", "brand": "AMF Bowling Center", "brand:wikidata": "Q4652616"}, "geometry": {"type": "Point", "coordinates": [-82.5305, 35.5876]}},
{"type": "Feature", "id": "U6l_KamrUIqJm2ulcg9G8Aevv-0=", "properties": {"ref": "3720ae73-e11d-e611-80c5-005056aa8521", "@spider": "amf_bowling", "addr:full": "2601 Lishelle Place", "addr:city": "Virginia Beach", "addr:state": "VA", "addr:postcode": "23452", "addr:country": "US", "name": "Bowlero Lynnhaven", "phone": "757-468-1000", "website": "https://www.bowlero.com/location/bowlero-lynnhaven", "brand": "AMF Bowling Center", "brand:wikidata": "Q4652616"}, "geometry": {"type": "Point", "coordinates": [-76.0651, 36.8112]}},
{"type": "Feature", "id": "qrCEzslgLYCfzZZeoe-VxCgujZY=", "properties": {"ref": "5f1fae73-e11d-e611-80c5-005056aa8521", "@spider": "amf_bowling", "addr:full": "40 Horseblock Rd", "addr:city": "Centereach", "addr:state": "NY", "addr:postcode": "11720", "addr:country": "US", "name": "AMF Centereach Lanes", "phone": "631-588-2118", "website": "https://www.amf.com/location/amf-centereach-lanes", "brand": "AMF Bowling Center", "brand:wikidata": "Q4652616"}, "geometry": {"type": "Point", "coordinates": [-73.0771, 40.8576]}},
{"type": "Feature", "id": "xdRW_aVwcbNCNSwgXFl0naLzQz4=", "properties": {"ref": "eb1eae73-e11d-e611-80c5-005056aa8521", "@spider": "amf_bowling", "addr:full": "740 S. Pleasantburg Dr.", "addr:city": "Greenville", "addr:state": "SC", "addr:postcode": "29607", "addr:country": "US", "name": "Bowlero Greenville", "phone": "864-242-5764", "website": "https://www.bowlero.com/location/bowlero-greenville", "brand": "AMF Bowling Center", "brand:wikidata": "Q4652616"}, "geometry": {"type": "Point", "coordinates": [-82.3708, 34.8209]}},
{"type": "Feature", "id": "8mUCtiMGUp_qj0uy1z5YEbKHEiQ=", "properties": {"ref": "b920ae73-e11d-e611-80c5-005056aa8521", "@spider": "amf_bowling", "addr:full": "811 Jonestown Rd.", "addr:city": "Winston-salem", "addr:state": "NC", "addr:postcode": "27103", "addr:country": "US", "name": "Bowlero Major League", "phone": "336-765-8009", "website": "https://www.bowlero.com/location/bowlero-major-league", "brand": "AMF Bowling Center", "brand:wikidata": "Q4652616"}, "geometry": {"type": "Point", "coordinates": [-80.3387, 36.0654]}},
{"type": "Feature", "id": "b1t98IqUMeHJY7HJiWdQWXgf9f4=", "properties": {"ref": "b71fae73-e11d-e611-80c5-005056aa8521", "@spider": "amf_bowling", "addr:full": "18811 Carmenita Rd.", "addr:city": "Cerritos", "addr:state": "CA", "addr:postcode": "90703", "addr:country": "US", "name": "Bowlero Cerritos", "phone": "562-924-9363", "website": "https://www.bowlero.com/location/bowlero-cerritos", "brand": "AMF Bowling Center", "brand:wikidata": "Q4652616"}, "geometry": {"type": "Point", "coordinates": [-118.047, 33.861]}},
{"type": "Feature", "id": "8A5p6JTQI2t-xBry2NWR_47x3JY=", "properties": {"ref": "811fae73-e11d-e611-80c5-005056aa8521", "@spider": "amf_bowling", "addr:full": "2434 Old Stringtown Rd.", "addr:city": "Grove City", "addr:state": "OH", "addr:postcode": "43123", "addr:country": "US", "name": "AMF Stardust Lanes", "phone": "614-875-4343", "website": "https://www.amf.com/location/amf-stardust-lanes", "brand": "AMF Bowling Center", "brand:wikidata": "Q4652616"}, "geometry": {"type": "Point", "coordinates": [-83.0674, 39.8802]}},
{"type": "Feature", "id": "VfEfAoOq5MMqxsmQVe5jJG3RGSs=", "properties": {"ref": "8d20ae73-e11d-e611-80c5-005056aa8521", "@spider": "amf_bowling", "addr:full": "4800 Madison Ave.", "addr:city": "Sacramento", "addr:state": "CA", "addr:postcode": "95841", "addr:country": "US", "name": "Bowlero North Sacramento", "phone": "916-332-7150", "website": "https://www.bowlero.com/location/bowlero-north-sacramento", "brand": "AMF Bowling Center", "brand:wikidata": "Q4652616"}, "geometry": {"type": "Point", "coordinates": [-121.352, 38.66]}},
{"type": "Feature", "id": "6nURfK1U0m8CXhi6Fi9xXkSU3hE=", "properties": {"ref": "4d1fae73-e11d-e611-80c5-005056aa8521", "@spider": "amf_bowling", "addr:full": "1900 N. Arizona Ave.", "addr:city": "Chandler", "addr:state": "AZ", "addr:postcode": "85225", "addr:country": "US", "name": "AMF Chandler Lanes", "phone": "480-963-0150", "website": "https://www.amf.com/location/amf-chandler-lanes", "brand": "AMF Bowling Center", "brand:wikidata": "Q4652616"}, "geometry": {"type": "Point", "coordinates": [-111.843, 33.3337]}},
{"type": "Feature", "id": "s0nzzdzbhj_An74N0AiGj-6AKIU=", "properties": {"ref": "a71fae73-e11d-e611-80c5-005056aa8521", "@spider": "amf_bowling", "addr:full": "1061-G NJ-34", "addr:city": "Aberdeen Township", "addr:state": "NJ", "addr:postcode": "07747", "addr:country": "US", "name": "AMF Strathmore Lanes", "phone": "732-566-7500", "website": "https://www.amf.com/location/amf-strathmore-lanes", "brand": "AMF Bowling Center", "brand:wikidata": "Q4652616"}, "geometry": {"type": "Point", "coordinates": [-74.2271, 40.4011]}},
{"type": "Feature", "id": "CpABFTUelfCZ4R7hxxKkpxO5J2Q=", "properties": {"ref": "c01eae73-e11d-e611-80c5-005056aa8521", "@spider": "amf_bowling", "addr:full": "2020 FL-7", "addr:city": "Margate", "addr:state": "FL", "addr:postcode": "33063", "addr:country": "US", "name": "AMF Margate Lanes", "phone": "954-972-4400", "website": "https://www.amf.com/location/amf-margate-lanes", "brand": "AMF Bowling Center", "brand:wikidata": "Q4652616"}, "geometry": {"type": "Point", "coordinates": [-80.2005, 26.2531]}},
{"type": "Feature", "id": "MTDyqj0mZQ_OilT_UElRMSRvlE0=", "properties": {"ref": "3920ae73-e11d-e611-80c5-005056aa8521", "@spider": "amf_bowling", "addr:full": "112 Medical Pkwy. East", "addr:city": "Chesapeake", "addr:state": "VA", "addr:postcode": "23320", "addr:country": "US", "name": "Bowlero Chesapeake", "phone": "757-436-4444", "website": "https://www.bowlero.com/location/bowlero-chesapeake", "brand": "AMF Bowling Center", "brand:wikidata": "Q4652616"}, "geometry": {"type": "Point", "coordinates": [-76.2423, 36.7463]}},
{"type": "Feature", "id": "RW_Ecqrm-i9Snys9Mh_sNhjMMlg=", "properties": {"ref": "0120ae73-e11d-e611-80c5-005056aa8521", "@spider": "amf_bowling", "addr:full": "1777 Brewerton Rd.", "addr:city": "Syracuse", "addr:state": "NY", "addr:postcode": "13211", "addr:country": "US", "name": "AMF Strike 'N Spare Lanes", "phone": "315-454-4428", "website": "https://www.amf.com/location/amf-strike-n-spare-lanes-ny", "brand": "AMF Bowling Center", "brand:wikidata": "Q4652616"}, "geometry": {"type": "Point", "coordinates": [-76.1488, 43.0929]}},
{"type": "Feature", "id": "AZf319xcGMB9VNEY0NANhmbmvuY=", "properties": {"ref": "fd1fae73-e11d-e611-80c5-005056aa8521", "@spider": "amf_bowling", "addr:full": "2400 Empire Blvd.", "addr:city": "Webster", "addr:state": "NY", "addr:postcode": "14580", "addr:country": "US", "name": "AMF Empire Lanes", "phone": "585-671-2556", "website": "https://www.amf.com/location/amf-empire-lanes", "brand": "AMF Bowling Center", "brand:wikidata": "Q4652616"}, "geometry": {"type": "Point", "coordinates": [-77.4917, 43.2024]}},
{"type": "Feature", "id": "0qqi1Pxxikl58Is3-GzAsPFOm1c=", "properties": {"ref": "e91fae73-e11d-e611-80c5-005056aa8521", "@spider": "amf_bowling", "addr:full": "3640 Williams Blvd", "addr:city": "Kenner", "addr:state": "LA", "addr:postcode": "70065", "addr:country": "US", "name": "AMF All Star Lanes", "phone": "(504)443-5353", "website": "https://www.amf.com/location/amf-all-star-lanes-la", "brand": "AMF Bowling Center", "brand:wikidata": "Q4652616"}, "geometry": {"type": "Point", "coordinates": [-90.2373, 30.0228]}},
{"type": "Feature", "id": "_03bhR47rQFktu6HB-3G8vRTGl0=", "properties": {"ref": "911fae73-e11d-e611-80c5-005056aa8521", "@spider": "amf_bowling", "addr:full": "4600 North West 23rd St.", "addr:city": "Oklahoma City", "addr:state": "OK", "addr:postcode": "73127", "addr:country": "US", "name": "AMF Windsor Lanes", "phone": "405-942-5545", "website": "https://www.amf.com/location/amf-windsor-lanes", "brand": "AMF Bowling Center", "brand:wikidata": "Q4652616"}, "geometry": {"type": "Point", "coordinates": [-97.6027, 35.4922]}},
{"type": "Feature", "id": "iXOypY9W6-WZZibGzuN8_FEDmyk=", "properties": {"ref": "f91fae73-e11d-e611-80c5-005056aa8521", "@spider": "amf_bowling", "addr:full": "1407 Fairport Rd.", "addr:city": "Fairport", "addr:state": "NY", "addr:postcode": "14450", "addr:country": "US", "name": "AMF Fairview Lanes", "phone": "585-377-5300", "website": "https://www.amf.com/location/amf-fairview-lanes", "brand": "AMF Bowling Center", "brand:wikidata": "Q4652616"}, "geometry": {"type": "Point", "coordinates": [-77.4576, 43.0996]}},
{"type": "Feature", "id": "ocroFyMuf4zkYcf--Mdizfk5Aug=", "properties": {"ref": "bb0086db-2a49-e611-80c5-005056aa8521", "@spider": "amf_bowling", "addr:full": "318 Bay Area Blvd", "addr:city": "Webster", "addr:state": "TX", "addr:postcode": "77598", "addr:country": "US", "name": "Bowlero Webster", "phone": "281-338-1272", "website": "https://www.bowlero.com/location/bowlero-webster", "brand": "AMF Bowling Center", "brand:wikidata": "Q4652616"}, "geometry": {"type": "Point", "coordinates": [-95.1328, 29.5474]}},
{"type": "Feature", "id": "FA6rsnqeZ1CwqTppmMz7u1DuThA=", "properties": {"ref": "e11eae73-e11d-e611-80c5-005056aa8521", "@spider": "amf_bowling", "addr:full": "6410 Security Blvd", "addr:city": "Baltimore", "addr:state": "MD", "addr:postcode": "21207", "addr:country": "US", "name": "AMF Woodlawn Lanes", "phone": "410-944-6000", "website": "https://www.amf.com/location/amf-woodlawn-lanes", "brand": "AMF Bowling Center", "brand:wikidata": "Q4652616"}, "geometry": {"type": "Point", "coordinates": [-76.7312, 39.3126]}},
{"type": "Feature", "id": "hyXNfBrFL-9XkhGNLzzZVmJnNCI=", "properties": {"ref": "2120ae73-e11d-e611-80c5-005056aa8521", "@spider": "amf_bowling", "addr:full": "2101 N. Central Expressway", "addr:city": "Richardson", "addr:state": "TX", "addr:postcode": "75080", "addr:country": "US", "name": "AMF Richardson Lanes", "phone": "972-231-2695", "website": "https://www.amf.com/location/amf-richardson-lanes", "brand": "AMF Bowling Center", "brand:wikidata": "Q4652616"}, "geometry": {"type": "Point", "coordinates": [-96.7163, 32.9785]}},
{"type": "Feature", "id": "hFyplrJaMfiZH6UmFBS6n3YEyBg=", "properties": {"ref": "0d20ae73-e11d-e611-80c5-005056aa8521", "@spider": "amf_bowling", "addr:full": "4303 Center St.,N.e.", "addr:city": "Salem", "addr:state": "OR", "addr:postcode": "97301", "addr:country": "US", "name": "AMF Firebird Lanes", "phone": "503-581-1697", "website": "https://www.amf.com/location/amf-firebird-lanes", "brand": "AMF Bowling Center", "brand:wikidata": "Q4652616"}, "geometry": {"type": "Point", "coordinates": [-122.977, 44.942]}},
{"type": "Feature", "id": "MOgPtLEP05XtZbu5B_WG1aUmSxU=", "properties": {"ref": "1b1fae73-e11d-e611-80c5-005056aa8521", "@spider": "amf_bowling", "addr:full": "280 Douglas Ave.", "addr:city": "Altamonte Springs", "addr:state": "FL", "addr:postcode": "32714", "addr:country": "US", "name": "Bowlero Altamonte", "phone": "407-862-2500", "website": "https://www.bowlero.com/location/bowlero-altamonte", "brand": "AMF Bowling Center", "brand:wikidata": "Q4652616"}, "geometry": {"type": "Point", "coordinates": [-81.3918, 28.6653]}},
{"type": "Feature", "id": "v3SgjW57COJQmg299PiTGkUXTac=", "properties": {"ref": "4f20ae73-e11d-e611-80c5-005056aa8521", "@spider": "amf_bowling", "addr:full": "108 Woodpark Blvd.", "addr:city": "Woodstock", "addr:state": "GA", "addr:postcode": "30188", "addr:country": "US", "name": "AMF Woodstock Lanes", "phone": "770-926-2200", "website": "https://www.amf.com/location/amf-woodstock-lanes", "brand": "AMF Bowling Center", "brand:wikidata": "Q4652616"}, "geometry": {"type": "Point", "coordinates": [-84.5228, 34.0884]}},
{"type": "Feature", "id": "XH_u8wm5I4rbfzVQ6kHeVczISY4=", "properties": {"ref": "411fae73-e11d-e611-80c5-005056aa8521", "@spider": "amf_bowling", "addr:full": "3117 Highway 31 South", "addr:city": "Decatur", "addr:state": "AL", "addr:postcode": "35601", "addr:country": "US", "name": "AMF River City Lanes", "phone": "256-353-3162", "website": "https://www.amf.com/location/amf-river-city-lanes", "brand": "AMF Bowling Center", "brand:wikidata": "Q4652616"}, "geometry": {"type": "Point", "coordinates": [-86.975, 34.5493]}},
{"type": "Feature", "id": "ud3OeTkCyStxOEGUT7xF3tT6PNs=", "properties": {"ref": "2d1fae73-e11d-e611-80c5-005056aa8521", "@spider": "amf_bowling", "addr:full": "7700 West 47th St.", "addr:city": "Lyons", "addr:state": "IL", "addr:postcode": "60534", "addr:country": "US", "name": "AMF Forest Lanes", "phone": "708-447-7547", "website": "https://www.amf.com/location/amf-forest-lanes", "brand": "AMF Bowling Center", "brand:wikidata": "Q4652616"}, "geometry": {"type": "Point", "coordinates": [-87.8128, 41.8063]}},
{"type": "Feature", "id": "hSGTO3cMMaLXRxkpVva5YKfJLlQ=", "properties": {"ref": "f11eae73-e11d-e611-80c5-005056aa8521", "@spider": "amf_bowling", "addr:full": "885 Flat Shoals Rd., S.E.", "addr:city": "Conyers", "addr:state": "GA", "addr:postcode": "30094", "addr:country": "US", "name": "AMF American Lanes", "phone": "770-922-2695", "website": "https://www.amf.com/location/amf-american-lanes", "brand": "AMF Bowling Center", "brand:wikidata": "Q4652616"}, "geometry": {"type": "Point", "coordinates": [-84.0167, 33.6414]}},
{"type": "Feature", "id": "PVh7INJZa9MpwUO4ZtjmyOYvG44=", "properties": {"ref": "3d20ae73-e11d-e611-80c5-005056aa8521", "@spider": "amf_bowling", "addr:full": "4200 George Washington Mem Hwy", "addr:city": "Yorktown", "addr:state": "VA", "addr:postcode": "23692", "addr:country": "US", "name": "AMF York Lanes", "phone": "757-890-0495", "website": "https://www.amf.com/location/amf-york-lanes", "brand": "AMF Bowling Center", "brand:wikidata": "Q4652616"}, "geometry": {"type": "Point", "coordinates": [-76.4645, 37.1609]}},
{"type": "Feature", "id": "78MmlL3pshCkYddjIC_WW0IzHoM=", "properties": {"ref": "7b1fae73-e11d-e611-80c5-005056aa8521", "@spider": "amf_bowling", "addr:full": "20 S. Miller Rd.", "addr:city": "Fairlawn", "addr:state": "OH", "addr:postcode": "44333", "addr:country": "US", "name": "AMF Riviera Lanes", "phone": "330-836-7985", "website": "https://www.amf.com/location/amf-riviera-lanes", "brand": "AMF Bowling Center", "brand:wikidata": "Q4652616"}, "geometry": {"type": "Point", "coordinates": [-81.6104, 41.1274]}},
{"type": "Feature", "id": "TVqLodSzW9-uPTcDQ611KnvmtdM=", "properties": {"ref": "091fae73-e11d-e611-80c5-005056aa8521", "@spider": "amf_bowling", "addr:full": "12100 Kilarney Dr.", "addr:city": "Fredericksburg", "addr:state": "VA", "addr:postcode": "22407", "addr:country": "US", "name": "AMF Fredericksburg Lanes", "phone": "540-786-2695", "website": "https://www.amf.com/location/amf-fredericksburg-lanes", "brand": "AMF Bowling Center", "brand:wikidata": "Q4652616"}, "geometry": {"type": "Point", "coordinates": [-77.5507, 38.2881]}},
{"type": "Feature", "id": "AwkdZsQHkiOuJ1UlC4imEYBA54M=", "properties": {"ref": "0d1fae73-e11d-e611-80c5-005056aa8521", "@spider": "amf_bowling", "addr:full": "4245 Markham St.", "addr:city": "Annandale", "addr:state": "VA", "addr:postcode": "22003", "addr:country": "US", "name": "Bowlero Annandale", "phone": "703-256-2211", "website": "https://www.bowlero.com/location/bowlero-annandale", "brand": "AMF Bowling Center", "brand:wikidata": "Q4652616"}, "geometry": {"type": "Point", "coordinates": [-77.1975, 38.8318]}},
{"type": "Feature", "id": "2kv27H-nZRAMS82olzDMNdZ-tRE=", "properties": {"ref": "9120ae73-e11d-e611-80c5-005056aa8521", "@spider": "amf_bowling", "addr:full": "2325 Sierra Meadows Dr.", "addr:city": "Rocklin", "addr:state": "CA", "addr:postcode": "95677", "addr:country": "US", "name": "AMF Rocklin Lanes", "phone": "916-624-8216", "website": "https://www.amf.com/location/amf-rocklin-lanes", "brand": "AMF Bowling Center", "brand:wikidata": "Q4652616"}, "geometry": {"type": "Point", "coordinates": [-121.222, 38.7971]}},
{"type": "Feature", "id": "76ze4luTn0vnzLUnnc1NwIndHAU=", "properties": {"ref": "151fae73-e11d-e611-80c5-005056aa8521", "@spider": "amf_bowling", "addr:full": "3225 S.e. Maricamp Rd.", "addr:city": "Ocala", "addr:state": "FL", "addr:postcode": "34471", "addr:country": "US", "name": "AMF Galaxy East Lanes", "phone": "352-694-1111", "website": "https://www.amf.com/location/amf-galaxy-east-lanes", "brand": "AMF Bowling Center", "brand:wikidata": "Q4652616"}, "geometry": {"type": "Point", "coordinates": [-82.0927, 29.1634]}},
{"type": "Feature", "id": "z4nqZ7bisAgi3VCsPx7YHmLlfGw=", "properties": {"ref": "651fae73-e11d-e611-80c5-005056aa8521", "@spider": "amf_bowling", "addr:full": "4901 Monroe Ave.", "addr:city": "Evansville", "addr:state": "IN", "addr:postcode": "47715", "addr:country": "US", "name": "AMF Arc Lanes", "phone": "812-476-3003", "website": "https://www.amf.com/location/amf-arc-lanes", "brand": "AMF Bowling Center", "brand:wikidata": "Q4652616"}, "geometry": {"type": "Point", "coordinates": [-87.4908, 37.958]}},
{"type": "Feature", "id": "F6V8njqXj-Zp9aB7zVXLGdY4aIg=", "properties": {"ref": "711fae73-e11d-e611-80c5-005056aa8521", "@spider": "amf_bowling", "addr:full": "28001 Groesbeck Hwy.", "addr:city": "Roseville", "addr:state": "MI", "addr:postcode": "48066", "addr:country": "US", "name": "AMF Rose Bowl Lanes", "phone": "586-771-4140", "website": "https://www.amf.com/location/amf-rose-bowl-lanes", "brand": "AMF Bowling Center", "brand:wikidata": "Q4652616"}, "geometry": {"type": "Point", "coordinates": [-82.9645, 42.5021]}},
{"type": "Feature", "id": "9V68aestRF3xPjpipyB9KYRcwFM=", "properties": {"ref": "171fae73-e11d-e611-80c5-005056aa8521", "@spider": "amf_bowling", "addr:full": "1818 S.w. 17th St.", "addr:city": "Ocala", "addr:state": "FL", "addr:postcode": "34471", "addr:country": "US", "name": "AMF Galaxy West Lanes", "phone": "352-732-0300", "website": "https://www.amf.com/location/amf-galaxy-west-lanes", "brand": "AMF Bowling Center", "brand:wikidata": "Q4652616"}, "geometry": {"type": "Point", "coordinates": [-82.1688, 29.1713]}},
{"type": "Feature", "id": "pPQUdLplRiPW0C08Ll_nrR-THMI=", "properties": {"ref": "6f20ae73-e11d-e611-80c5-005056aa8521", "@spider": "amf_bowling", "addr:full": "299 W. Orange Show Rd.", "addr:city": "San Bernardino", "addr:state": "CA", "addr:postcode": "92408", "addr:country": "US", "name": "AMF Arrowhead Lanes", "phone": "909-889-0355", "website": "https://www.amf.com/location/amf-arrowhead-lanes", "brand": "AMF Bowling Center", "brand:wikidata": "Q4652616"}, "geometry": {"type": "Point", "coordinates": [-117.29, 34.0784]}},
{"type": "Feature", "id": "olO8L1I9YEFS35LO8Lz9eo_a3lg=", "properties": {"ref": "ae1eae73-e11d-e611-80c5-005056aa8521", "@spider": "amf_bowling", "addr:full": "115 Tibet Ave.", "addr:city": "Savannah", "addr:state": "GA", "addr:postcode": "31406", "addr:country": "US", "name": "Bowlero Savannah", "phone": "912-925-0320", "website": "https://www.bowlero.com/location/bowlero-savannah", "brand": "AMF Bowling Center", "brand:wikidata": "Q4652616"}, "geometry": {"type": "Point", "coordinates": [-81.1335, 31.9889]}},
{"type": "Feature", "id": "AwEif--7RWM6Afs3Mt07nlqcpzI=", "properties": {"ref": "eb20ae73-e11d-e611-80c5-005056aa8521", "@spider": "amf_bowling", "addr:full": "987 Stewart Ave.", "addr:city": "Garden City", "addr:state": "NY", "addr:postcode": "11530", "addr:country": "US", "name": "AMF Garden City Lanes", "phone": "516-222-0808", "website": "https://www.amf.com/location/amf-garden-city-lanes", "brand": "AMF Bowling Center", "brand:wikidata": "Q4652616"}, "geometry": {"type": "Point", "coordinates": [-73.678336, 40.724815]}},
{"type": "Feature", "id": "rdgrT_2MSa2JqrqgRsU4okBpB3s=", "properties": {"ref": "3d1fae73-e11d-e611-80c5-005056aa8521", "@spider": "amf_bowling", "addr:full": "719 Opelika Rd.", "addr:city": "Auburn", "addr:state": "AL", "addr:postcode": "36830", "addr:country": "US", "name": "AMF Auburn Lanes", "phone": "334-887-6573", "website": "https://www.amf.com/location/amf-auburn-lanes-al", "brand": "AMF Bowling Center", "brand:wikidata": "Q4652616"}, "geometry": {"type": "Point", "coordinates": [-85.4655, 32.6168]}},
{"type": "Feature", "id": "yZPCYa0FT6jqbb0_8lUOjeWKfMY=", "properties": {"ref": "7d1fae73-e11d-e611-80c5-005056aa8521", "@spider": "amf_bowling", "addr:full": "4825 Sawmill Rd", "addr:city": "Columbus", "addr:state": "OH", "addr:postcode": "43235", "addr:country": "US", "name": "AMF Sawmill Lanes", "phone": "614-889-0880", "website": "https://www.amf.com/location/amf-sawmill-lanes", "brand": "AMF Bowling Center", "brand:wikidata": "Q4652616"}, "geometry": {"type": "Point", "coordinates": [-83.0942, 40.0668]}},
{"type": "Feature", "id": "4axBlDC56v01Fr4PfWsP6i1zYdk=", "properties": {"ref": "1d20ae73-e11d-e611-80c5-005056aa8521", "@spider": "amf_bowling", "addr:full": "1950 Marketplace Dr.", "addr:city": "Garland", "addr:state": "TX", "addr:postcode": "75041", "addr:country": "US", "name": "Bowlero Garland", "phone": "972-613-8100", "website": "https://www.bowlero.com/location/bowlero-garland", "brand": "AMF Bowling Center", "brand:wikidata": "Q4652616"}, "geometry": {"type": "Point", "coordinates": [-96.649, 32.9014]}},
{"type": "Feature", "id": "YjPAzbWb3yJrWmXA9_R2EoyL0hQ=", "properties": {"ref": "4520ae73-e11d-e611-80c5-005056aa8521", "@spider": "amf_bowling", "addr:full": "101 Southbridge St.", "addr:city": "Auburn", "addr:state": "MA", "addr:postcode": "01501", "addr:country": "US", "name": "Bowlero Auburn", "phone": "(508) 791-5700", "website": "https://www.bowlero.com/location/bowlero-auburn", "brand": "AMF Bowling Center", "brand:wikidata": "Q4652616"}, "geometry": {"type": "Point", "coordinates": [-71.8226, 42.2223]}},
{"type": "Feature", "id": "kGJPQtF5M79wzcHP_Y0xDJNHB4w=", "properties": {"ref": "0720ae73-e11d-e611-80c5-005056aa8521", "@spider": "amf_bowling", "addr:full": "61 Little Canada Rd. West", "addr:city": "Saint Paul", "addr:state": "MN", "addr:postcode": "55117", "addr:country": "US", "name": "AMF Saxon Lanes", "phone": "651-484-6501", "website": "https://www.amf.com/location/amf-saxon-lanes", "brand": "AMF Bowling Center", "brand:wikidata": "Q4652616"}, "geometry": {"type": "Point", "coordinates": [-93.104, 45.026]}},
{"type": "Feature", "id": "9ps4iGiCWWPA2EUTgozr65C7YoM=", "properties": {"ref": "d11fae73-e11d-e611-80c5-005056aa8521", "@spider": "amf_bowling", "addr:full": "16700 E. Mississippi Ave.", "addr:city": "Aurora", "addr:state": "CO", "addr:postcode": "80017", "addr:country": "US", "name": "AMF Aurora Lanes", "phone": "303-695-0680", "website": "https://www.amf.com/location/amf-aurora-lanes", "brand": "AMF Bowling Center", "brand:wikidata": "Q4652616"}, "geometry": {"type": "Point", "coordinates": [-104.793, 39.6955]}},
{"type": "Feature", "id": "x6T8PQMOGVu-4HQaX11uZrtwKCE=", "properties": {"ref": "dd20ae73-e11d-e611-80c5-005056aa8521", "@spider": "amf_bowling", "addr:full": "199 E. Jericho Turnpike", "addr:city": "Mineola", "addr:state": "NY", "addr:postcode": "11501", "addr:country": "US", "name": "Bowlero Mineola", "phone": "516-741-3444", "website": "https://www.bowlero.com/location/bowlero-mineola", "brand": "AMF Bowling Center", "brand:wikidata": "Q4652616"}, "geometry": {"type": "Point", "coordinates": [-73.6273, 40.7535]}},
{"type": "Feature", "id": "a-ALfFbbgZELcUqOIb73UqNXR0s=", "properties": {"ref": "b41eae73-e11d-e611-80c5-005056aa8521", "@spider": "amf_bowling", "addr:full": "7221 S. Tamiami Trail", "addr:city": "Sarasota", "addr:state": "FL", "addr:postcode": "34231", "addr:country": "US", "name": "AMF Gulf Gate Lanes", "phone": "941-921-4447", "website": "https://www.amf.com/location/amf-gulf-gate-lanes", "brand": "AMF Bowling Center", "brand:wikidata": "Q4652616"}, "geometry": {"type": "Point", "coordinates": [-82.5129, 27.2516]}},
{"type": "Feature", "id": "PuXC20uVrl5z0xRYhr5L7o0GbOA=", "properties": {"ref": "df20ae73-e11d-e611-80c5-005056aa8521", "@spider": "amf_bowling", "addr:full": "430 Sunrise Highway", "addr:city": "West Babylon", "addr:state": "NY", "addr:postcode": "11704", "addr:country": "US", "name": "AMF Babylon Lanes", "phone": "631-661-6600", "website": "https://www.amf.com/location/amf-babylon-lanes", "brand": "AMF Bowling Center", "brand:wikidata": "Q4652616"}, "geometry": {"type": "Point", "coordinates": [-73.3601, 40.7127]}},
{"type": "Feature", "id": "-_Ie3Kk-V5fT2vSh_YOJsxZOwYc=", "properties": {"ref": "8f1fae73-e11d-e611-80c5-005056aa8521", "@spider": "amf_bowling", "addr:full": "3121 S. Sheridan Rd.", "addr:city": "Tulsa", "addr:state": "OK", "addr:postcode": "74145", "addr:country": "US", "name": "AMF Sheridan Lanes", "phone": "918-627-2728", "website": "https://www.amf.com/location/amf-sheridan-lanes-ok", "brand": "AMF Bowling Center", "brand:wikidata": "Q4652616"}, "geometry": {"type": "Point", "coordinates": [-95.9036, 36.1181]}},
{"type": "Feature", "id": "Kp0urhPL0HLaUVi1OHwk4aYFvfE=", "properties": {"ref": "751fae73-e11d-e611-80c5-005056aa8521", "@spider": "amf_bowling", "addr:full": "5155 W. Tuscarawas St.", "addr:city": "Canton", "addr:state": "OH", "addr:postcode": "44708", "addr:country": "US", "name": "AMF Hall of Fame Lanes", "phone": "330-477-7226", "website": "https://www.amf.com/location/amf-hall-of-fame-lanes", "brand": "AMF Bowling Center", "brand:wikidata": "Q4652616"}, "geometry": {"type": "Point", "coordinates": [-81.4481, 40.7929]}},
{"type": "Feature", "id": "0wwjuwhXEiO8c2r4F-KfG3IwIeE=", "properties": {"ref": "071fae73-e11d-e611-80c5-005056aa8521", "@spider": "amf_bowling", "addr:full": "8037 Shrader Rd.", "addr:city": "Richmond", "addr:state": "VA", "addr:postcode": "23294", "addr:country": "US", "name": "Bowlero West End", "phone": "804-747-9620", "website": "https://www.bowlero.com/location/bowlero-west-end", "brand": "AMF Bowling Center", "brand:wikidata": "Q4652616"}, "geometry": {"type": "Point", "coordinates": [-77.5295, 37.6277]}},
{"type": "Feature", "id": "nTMJ4DF0fEpoMvHMSNBdgtbqzIU=", "properties": {"ref": "2f20ae73-e11d-e611-80c5-005056aa8521", "@spider": "amf_bowling", "addr:full": "7317 Bell Creek Rd", "addr:city": "Mechanicsville", "addr:state": "VA", "addr:postcode": "23111", "addr:country": "US", "name": "Bowlero Mechanicsville", "phone": "804-559-2600", "website": "https://www.bowlero.com/location/bowlero-mechanicsville", "brand": "AMF Bowling Center", "brand:wikidata": "Q4652616"}, "geometry": {"type": "Point", "coordinates": [-77.355282, 37.603847]}},
{"type": "Feature", "id": "PBa5QwjxbDM5oyW7x8IISWYJxwc=", "properties": {"ref": "cf1fae73-e11d-e611-80c5-005056aa8521", "@spider": "amf_bowling", "addr:full": "4900 S. Federal Blvd.", "addr:city": "Englewood", "addr:state": "CO", "addr:postcode": "80110", "addr:country": "US", "name": "AMF Belleview Lanes", "phone": "303-794-4265", "website": "https://www.amf.com/location/amf-belleview-lanes", "brand": "AMF Bowling Center", "brand:wikidata": "Q4652616"}, "geometry": {"type": "Point", "coordinates": [-105.024, 39.6272]}},
{"type": "Feature", "id": "TLSP_TyHsEo6FJoATF8ggBWBIU8=", "properties": {"ref": "191fae73-e11d-e611-80c5-005056aa8521", "@spider": "amf_bowling", "addr:full": "7401 S Orange Blossom Trail", "addr:city": "Orlando", "addr:state": "FL", "addr:postcode": "32809", "addr:country": "US", "name": "AMF Sky Lanes", "phone": "407-855-5731", "website": "https://www.amf.com/location/amf-sky-lanes", "brand": "AMF Bowling Center", "brand:wikidata": "Q4652616"}, "geometry": {"type": "Point", "coordinates": [-81.3974, 28.4586]}},
{"type": "Feature", "id": "ufYL6ffsfLrr57HeZc-ig0j8nWU=", "properties": {"ref": "7120ae73-e11d-e611-80c5-005056aa8521", "@spider": "amf_bowling", "addr:full": "2850 W. Florida Ave", "addr:city": "Hemet", "addr:state": "CA", "addr:postcode": "92545", "addr:country": "US", "name": "AMF Hemet Lanes", "phone": "951-929-9923", "website": "https://www.amf.com/location/amf-hemet-lanes", "brand": "AMF Bowling Center", "brand:wikidata": "Q4652616"}, "geometry": {"type": "Point", "coordinates": [-117.004, 33.7474]}},
{"type": "Feature", "id": "x2zkZaxx_bIVOGZVTy08Ck-fHU8=", "properties": {"ref": "af1fae73-e11d-e611-80c5-005056aa8521", "@spider": "amf_bowling", "addr:full": "1201 W. Beverly Road", "addr:city": "Montebello", "addr:state": "CA", "addr:postcode": "90640", "addr:country": "US", "name": "Bowlero Montebello", "phone": "323-728-9161", "website": "https://www.bowlero.com/location/bowlero-montebello", "brand": "AMF Bowling Center", "brand:wikidata": "Q4652616"}, "geometry": {"type": "Point", "coordinates": [-118.111, 34.0179]}},
{"type": "Feature", "id": "bOG16B6nHiEoKKgVtRlyr4FehTA=", "properties": {"ref": "451fae73-e11d-e611-80c5-005056aa8521", "@spider": "amf_bowling", "addr:full": "4120 Government Blvd.", "addr:city": "Mobile", "addr:state": "AL", "addr:postcode": "36693", "addr:country": "US", "name": "AMF Skyline Lanes", "phone": "251-661-1221", "website": "https://www.amf.com/location/amf-skyline-lanes", "brand": "AMF Bowling Center", "brand:wikidata": "Q4652616"}, "geometry": {"type": "Point", "coordinates": [-88.145, 30.6352]}},
{"type": "Feature", "id": "hPT_jOjbVIKFPDoJ-WYo2Pj1_fg=", "properties": {"ref": "131fae73-e11d-e611-80c5-005056aa8521", "@spider": "amf_bowling", "addr:full": "5918 Williamson Rd.", "addr:city": "Roanoke", "addr:state": "VA", "addr:postcode": "24012", "addr:country": "US", "name": "AMF Hilltop Lanes", "phone": "540-366-8879", "website": "https://www.amf.com/location/amf-hilltop-lanes", "brand": "AMF Bowling Center", "brand:wikidata": "Q4652616"}, "geometry": {"type": "Point", "coordinates": [-79.9551, 37.3307]}},
{"type": "Feature", "id": "N_CIss1W_DMd7PfNu5qhQppQeTo=", "properties": {"ref": "26fe8a6d-e31d-e611-80c5-005056aa8521", "@spider": "amf_bowling", "addr:full": "Mario Julia Industrial Park Calle C 799", "addr:city": "SAN JUAN", "addr:state": "PR", "addr:postcode": "00920", "addr:country": "US", "name": "AMF Bolera Paradise Lanes", "phone": "787-792-6594", "website": "https://www.amf.com/location/amf-bolera-paradise-lanes", "brand": "AMF Bowling Center", "brand:wikidata": "Q4652616"}, "geometry": {"type": "Point", "coordinates": [-66.115544, 18.46843]}},
{"type": "Feature", "id": "_pDlSSLQ35EMEkIc7-mZPIxMRZA=", "properties": {"ref": "4b1fae73-e11d-e611-80c5-005056aa8521", "@spider": "amf_bowling", "addr:full": "4407 S. Rural Rd.", "addr:city": "Tempe", "addr:state": "AZ", "addr:postcode": "85282", "addr:country": "US", "name": "AMF Tempe Village Lanes", "phone": "480-831-5322", "website": "https://www.amf.com/location/amf-tempe-village-lanes", "brand": "AMF Bowling Center", "brand:wikidata": "Q4652616"}, "geometry": {"type": "Point", "coordinates": [-111.925, 33.3847]}},
{"type": "Feature", "id": "oQd8SMbvDs3HbfpSI6Qq7hJZ3xY=", "properties": {"ref": "cb1fae73-e11d-e611-80c5-005056aa8521", "@spider": "amf_bowling", "addr:full": "6767 Leetsdale Dr.", "addr:city": "Denver", "addr:state": "CO", "addr:postcode": "80224", "addr:country": "US", "name": "Bowlero Cherry Creek", "phone": "303-388-5677", "website": "https://www.bowlero.com/location/bowlero-cherry-creek", "brand": "AMF Bowling Center", "brand:wikidata": "Q4652616"}, "geometry": {"type": "Point", "coordinates": [-104.91, 39.7014]}},
{"type": "Feature", "id": "zBLgwm9QOfhEuWrxhinm4L4bkyI=", "properties": {"ref": "e71eae73-e11d-e611-80c5-005056aa8521", "@spider": "amf_bowling", "addr:full": "1732 Bush River Rd", "addr:city": "Columbia", "addr:state": "SC", "addr:postcode": "29210", "addr:country": "US", "name": "AMF Columbia Lanes", "phone": "803-798-1310", "website": "https://www.amf.com/location/amf-columbia-lanes", "brand": "AMF Bowling Center", "brand:wikidata": "Q4652616"}, "geometry": {"type": "Point", "coordinates": [-81.1063, 34.0309]}},
{"type": "Feature", "id": "CO0jGoASGOZtnUdz9BJWsyGexjI=", "properties": {"ref": "891fae73-e11d-e611-80c5-005056aa8521", "@spider": "amf_bowling", "addr:full": "1508 N. Providence Rd.", "addr:city": "Columbia", "addr:state": "MO", "addr:postcode": "65203", "addr:country": "US", "name": "AMF Town & Country Lanes", "phone": "573-442-4729", "website": "https://www.amf.com/location/amf-town-country-lanes-mo", "brand": "AMF Bowling Center", "brand:wikidata": "Q4652616"}, "geometry": {"type": "Point", "coordinates": [-92.3328, 38.9674]}},
{"type": "Feature", "id": "Y7GcCJrKYD5dJmFXrv9xJwPHB5Q=", "properties": {"ref": "9f20ae73-e11d-e611-80c5-005056aa8521", "@spider": "amf_bowling", "addr:full": "1601 Washington Rd.", "addr:city": "Pittsburgh", "addr:state": "PA", "addr:postcode": "15228", "addr:country": "US", "name": "AMF Mt. Lebanon Lanes", "phone": "412-854-0600", "website": "https://www.amf.com/location/amf-mt-lebanon-lanes", "brand": "AMF Bowling Center", "brand:wikidata": "Q4652616"}, "geometry": {"type": "Point", "coordinates": [-80.0493, 40.3536]}},
{"type": "Feature", "id": "cUf8dnL_F-nVelg9VDnRHjasbg4=", "properties": {"ref": "df1eae73-e11d-e611-80c5-005056aa8521", "@spider": "amf_bowling", "addr:full": "701 Southwick Dr.", "addr:city": "Towson", "addr:state": "MD", "addr:postcode": "21286", "addr:country": "US", "name": "AMF Towson Lanes", "phone": "410-825-4100", "website": "https://www.amf.com/location/amf-towson-lanes", "brand": "AMF Bowling Center", "brand:wikidata": "Q4652616"}, "geometry": {"type": "Point", "coordinates": [-76.5821, 39.4069]}},
{"type": "Feature", "id": "siIyoq0vWkG09PQ731p3mivbdgo=", "properties": {"ref": "a120ae73-e11d-e611-80c5-005056aa8521", "@spider": "amf_bowling", "addr:full": "2440 Noblestown Rd.", "addr:city": "Pittsburgh", "addr:state": "PA", "addr:postcode": "15205", "addr:country": "US", "name": "AMF Noble Manor Lanes", "phone": "412-922-4622", "website": "https://www.amf.com/location/amf-noble-manor-lanes", "brand": "AMF Bowling Center", "brand:wikidata": "Q4652616"}, "geometry": {"type": "Point", "coordinates": [-80.0583, 40.4275]}},
{"type": "Feature", "id": "8Vwq64alJBWduzX73qImFvGp0yI=", "properties": {"ref": "6320ae73-e11d-e611-80c5-005056aa8521", "@spider": "amf_bowling", "addr:full": "9020 Pulaski Hwy.", "addr:city": "Baltimore", "addr:state": "MD", "addr:postcode": "21220", "addr:country": "US", "name": "AMF Country Club Lanes", "phone": "410-686-2556", "website": "https://www.amf.com/location/amf-country-club-lanes", "brand": "AMF Bowling Center", "brand:wikidata": "Q4652616"}, "geometry": {"type": "Point", "coordinates": [-76.4666, 39.345]}},
{"type": "Feature", "id": "wi8UB9I5jUUsvrUdOHVuUKZ0rvE=", "properties": {"ref": "cb20ae73-e11d-e611-80c5-005056aa8521", "@spider": "amf_bowling", "addr:full": "3424 W. Union Hills Dr.", "addr:city": "Phoenix", "addr:state": "AZ", "addr:postcode": "85027", "addr:country": "US", "name": "AMF Union Hills Lanes", "phone": "623-581-1595", "website": "https://www.amf.com/location/amf-union-hills-lanes", "brand": "AMF Bowling Center", "brand:wikidata": "Q4652616"}, "geometry": {"type": "Point", "coordinates": [-112.133, 33.6558]}},
{"type": "Feature", "id": "JAXjgtIkVayvorBOgmpZPe-Lg08=", "properties": {"ref": "3520ae73-e11d-e611-80c5-005056aa8521", "@spider": "amf_bowling", "addr:full": "2441 E. Little Creek Rd", "addr:city": "Norfolk", "addr:state": "VA", "addr:postcode": "23518", "addr:country": "US", "name": "AMF Norfolk Lanes", "phone": "757-583-1571", "website": "https://www.amf.com/location/amf-norfolk-lanes", "brand": "AMF Bowling Center", "brand:wikidata": "Q4652616"}, "geometry": {"type": "Point", "coordinates": [-76.2144, 36.9141]}},
{"type": "Feature", "id": "1gzwhxkBYB9zzcHmkTL-5mTREZo=", "properties": {"ref": "4920ae73-e11d-e611-80c5-005056aa8521", "@spider": "amf_bowling", "addr:full": "1450 Elmwood Ave.", "addr:city": "Cranston", "addr:state": "RI", "addr:postcode": "02910", "addr:country": "US", "name": "Bowlero Cranston", "phone": "401-467-8850", "website": "https://www.bowlero.com/location/bowlero-cranston", "brand": "AMF Bowling Center", "brand:wikidata": "Q4652616"}, "geometry": {"type": "Point", "coordinates": [-71.4229, 41.7704]}},
{"type": "Feature", "id": "4SMM-5KWBZV-0Ot3wRdXqgcyqfA=", "properties": {"ref": "b01eae73-e11d-e611-80c5-005056aa8521", "@spider": "amf_bowling", "addr:full": "13109 N. 56th St.", "addr:city": "Tampa", "addr:state": "FL", "addr:postcode": "33617", "addr:country": "US", "name": "AMF University Lanes", "phone": "813-985-4468", "website": "https://www.amf.com/location/amf-university-lanes-fl", "brand": "AMF Bowling Center", "brand:wikidata": "Q4652616"}, "geometry": {"type": "Point", "coordinates": [-82.3924, 28.0669]}},
{"type": "Feature", "id": "YPSsQvYK5HnmiYbNe7PImxmTZ6Q=", "properties": {"ref": "d31fae73-e11d-e611-80c5-005056aa8521", "@spider": "amf_bowling", "addr:full": "310 W. 104th Ave.", "addr:city": "Northglenn", "addr:state": "CO", "addr:postcode": "80234", "addr:country": "US", "name": "AMF Northglenn Lanes", "phone": "303-451-1029", "website": "https://www.amf.com/location/amf-northglenn-lanes", "brand": "AMF Bowling Center", "brand:wikidata": "Q4652616"}, "geometry": {"type": "Point", "coordinates": [-104.991, 39.884]}},
{"type": "Feature", "id": "qUQOCep780q1kxAGuk71ChOVvTk=", "properties": {"ref": "111fae73-e11d-e611-80c5-005056aa8521", "@spider": "amf_bowling", "addr:full": "4304 Dale Blvd.", "addr:city": "Woodbridge", "addr:state": "VA", "addr:postcode": "22193", "addr:country": "US", "name": "AMF Dale City Lanes", "phone": "703-670-2111", "website": "https://www.amf.com/location/amf-dale-city-lanes", "brand": "AMF Bowling Center", "brand:wikidata": "Q4652616"}, "geometry": {"type": "Point", "coordinates": [-77.3372, 38.6474]}},
{"type": "Feature", "id": "-mciZc-WpmleRbbG6DHm9-ZD6uA=", "properties": {"ref": "bf20ae73-e11d-e611-80c5-005056aa8521", "@spider": "amf_bowling", "addr:full": "5900 N. Tryon St.", "addr:city": "Charlotte", "addr:state": "NC", "addr:postcode": "28213", "addr:country": "US", "name": "AMF University Lanes", "phone": "704-596-4736", "website": "https://www.amf.com/location/amf-university-lanes-nc", "brand": "AMF Bowling Center", "brand:wikidata": "Q4652616"}, "geometry": {"type": "Point", "coordinates": [-80.768, 35.2659]}},
{"type": "Feature", "id": "y3KCkOcCydwrMCJesvYMUnB10gI=", "properties": {"ref": "8920ae73-e11d-e611-80c5-005056aa8521", "@spider": "amf_bowling", "addr:full": "2397 Esplanade", "addr:city": "Chico", "addr:state": "CA", "addr:postcode": "95926", "addr:country": "US", "name": "Bowlero Chico", "phone": "530-895-3257", "website": "https://www.bowlero.com/location/bowlero-chico", "brand": "AMF Bowling Center", "brand:wikidata": "Q4652616"}, "geometry": {"type": "Point", "coordinates": [-121.861, 39.7543]}},
{"type": "Feature", "id": "YiYDXYOkooEYjcA7M4Pn-t6EgEE=", "properties": {"ref": "1f1fae73-e11d-e611-80c5-005056aa8521", "@spider": "amf_bowling", "addr:full": "2716 Enterprise Rd.", "addr:city": "Orange City", "addr:state": "FL", "addr:postcode": "32763", "addr:country": "US", "name": "AMF Deltona Lanes", "phone": "386-775-8123", "website": "https://www.amf.com/location/amf-deltona-lanes", "brand": "AMF Bowling Center", "brand:wikidata": "Q4652616"}, "geometry": {"type": "Point", "coordinates": [-81.2917, 28.9079]}},
{"type": "Feature", "id": "ERFYQJ5L6HzijsDfRMVoK43Ys-U=", "properties": {"ref": "e91eae73-e11d-e611-80c5-005056aa8521", "@spider": "amf_bowling", "addr:full": "900 Axtell Dr.", "addr:city": "Cayce", "addr:state": "SC", "addr:postcode": "29033", "addr:country": "US", "name": "Bowlero Cayce", "phone": "803-796-6300", "website": "https://www.bowlero.com/location/bowlero-cayce", "brand": "AMF Bowling Center", "brand:wikidata": "Q4652616"}, "geometry": {"type": "Point", "coordinates": [-81.054, 33.9874]}},
{"type": "Feature", "id": "VksGsnkx2ukymZfsndDs7qNwi90=", "properties": {"ref": "cf20ae73-e11d-e611-80c5-005056aa8521", "@spider": "amf_bowling", "addr:full": "2959 E. Bell Rd.", "addr:city": "Phoenix", "addr:state": "AZ", "addr:postcode": "85032", "addr:country": "US", "name": "AMF Desert Hills Lanes", "phone": "602-971-1105", "website": "https://www.amf.com/location/amf-desert-hills-lanes", "brand": "AMF Bowling Center", "brand:wikidata": "Q4652616"}, "geometry": {"type": "Point", "coordinates": [-112.019, 33.64]}},
{"type": "Feature", "id": "j3-P9LcAZZvKl78iX4cK-2TCkhQ=", "properties": {"ref": "d11eae73-e11d-e611-80c5-005056aa8521", "@spider": "amf_bowling", "addr:full": "11920 Acton Lane", "addr:city": "Waldorf", "addr:state": "MD", "addr:postcode": "20601", "addr:country": "US", "name": "AMF Waldorf Lanes", "phone": "301-861-2301", "website": "https://www.amf.com/location/amf-waldorf-lanes", "brand": "AMF Bowling Center", "brand:wikidata": "Q4652616"}, "geometry": {"type": "Point", "coordinates": [-76.8972, 38.6419]}},
{"type": "Feature", "id": "Cw3N9MDaX3B7tjdm0hOTDyNn8Po=", "properties": {"ref": "ba1eae73-e11d-e611-80c5-005056aa8521", "@spider": "amf_bowling", "addr:full": "1940 N. University Dr.", "addr:city": "Pembroke Pines", "addr:state": "FL", "addr:postcode": "33024", "addr:country": "US", "name": "AMF Pembroke Pines Lanes", "phone": "954-432-5500", "website": "https://www.amf.com/location/amf-pembroke-pines-lanes", "brand": "AMF Bowling Center", "brand:wikidata": "Q4652616"}, "geometry": {"type": "Point", "coordinates": [-80.2498, 26.0259]}},
{"type": "Feature", "id": "cYELqoexlFXaamXu-a1HoLhYI3I=", "properties": {"ref": "2320ae73-e11d-e611-80c5-005056aa8521", "@spider": "amf_bowling", "addr:full": "121 Northgate Dr.", "addr:city": "Desoto", "addr:state": "TX", "addr:postcode": "75115", "addr:country": "US", "name": "AMF DeSoto Lanes", "phone": "972-780-8090", "website": "https://www.amf.com/location/amf-desoto-lanes", "brand": "AMF Bowling Center", "brand:wikidata": "Q4652616"}, "geometry": {"type": "Point", "coordinates": [-96.8592, 32.6306]}},
{"type": "Feature", "id": "1A4vAVE9NAeV3Sgqs9oR5FL6-HE=", "properties": {"ref": "e920ae73-e11d-e611-80c5-005056aa8521", "@spider": "amf_bowling", "addr:full": "1300 Wantagh Ave.", "addr:city": "Wantagh", "addr:state": "NY", "addr:postcode": "11793", "addr:country": "US", "name": "AMF Wantagh Lanes", "phone": "516-781-1460", "website": "https://www.amf.com/location/amf-wantagh-lanes", "brand": "AMF Bowling Center", "brand:wikidata": "Q4652616"}, "geometry": {"type": "Point", "coordinates": [-73.509, 40.6912]}},
{"type": "Feature", "id": "bBsq_dkPUHwttV6x5Vhujoyuk5M=", "properties": {"ref": "d320ae73-e11d-e611-80c5-005056aa8521", "@spider": "amf_bowling", "addr:full": "8475 W. Olive Ave.", "addr:city": "Peoria", "addr:state": "AZ", "addr:postcode": "85345", "addr:country": "US", "name": "AMF Peoria Lanes", "phone": "623-486-1496", "website": "https://www.amf.com/location/amf-peoria-lanes", "brand": "AMF Bowling Center", "brand:wikidata": "Q4652616"}, "geometry": {"type": "Point", "coordinates": [-112.241, 33.5654]}},
{"type": "Feature", "id": "NDzHICSEih-vHC2yRxl-ip6v43Y=", "properties": {"ref": "fb1fae73-e11d-e611-80c5-005056aa8521", "@spider": "amf_bowling", "addr:full": "4470 Dewey Ave.", "addr:city": "Rochester", "addr:state": "NY", "addr:postcode": "14612", "addr:country": "US", "name": "AMF Dewey Garden Lanes", "phone": "585-865-0470", "website": "https://www.amf.com/location/amf-dewey-garden-lanes", "brand": "AMF Bowling Center", "brand:wikidata": "Q4652616"}, "geometry": {"type": "Point", "coordinates": [-77.646, 43.254]}},
{"type": "Feature", "id": "YosdkwP1YTtBIyHVLoyal0PCOGI=", "properties": {"ref": "0b20ae73-e11d-e611-80c5-005056aa8521", "@spider": "amf_bowling", "addr:full": "7505 W. Oklahoma Ave.", "addr:city": "Milwaukee", "addr:state": "WI", "addr:postcode": "53219", "addr:country": "US", "name": "AMF West Lanes", "phone": "414-321-5050", "website": "https://www.amf.com/location/amf-west-lanes", "brand": "AMF Bowling Center", "brand:wikidata": "Q4652616"}, "geometry": {"type": "Point", "coordinates": [-88.0055, 42.9869]}},
{"type": "Feature", "id": "IVP8xrIH-719g1iuHknjCgdFMFY=", "properties": {"ref": "db1eae73-e11d-e611-80c5-005056aa8521", "@spider": "amf_bowling", "addr:full": "1723 Reisterstown Rd.", "addr:city": "Pikesville", "addr:state": "MD", "addr:postcode": "21208", "addr:country": "US", "name": "Bowlero Pikesville", "phone": "410-486-1444", "website": "https://www.bowlero.com/location/bowlero-pikesville", "brand": "AMF Bowling Center", "brand:wikidata": "Q4652616"}, "geometry": {"type": "Point", "coordinates": [-76.7301, 39.3847]}},
{"type": "Feature", "id": "Zn-Acvvxr8GXB8JzFo4zAklW8U4=", "properties": {"ref": "931fae73-e11d-e611-80c5-005056aa8521", "@spider": "amf_bowling", "addr:full": "267 N. Forest Blvd.", "addr:city": "Houston", "addr:state": "TX", "addr:postcode": "77090", "addr:country": "US", "name": "AMF Diamond Lanes", "phone": "281-440-9166", "website": "https://www.amf.com/location/amf-diamond-lanes", "brand": "AMF Bowling Center", "brand:wikidata": "Q4652616"}, "geometry": {"type": "Point", "coordinates": [-95.429, 30.005]}},
{"type": "Feature", "id": "Ak4OdQ4YPkUyuv53gUeUVtuf3Cg=", "properties": {"ref": "3b1fae73-e11d-e611-80c5-005056aa8521", "@spider": "amf_bowling", "addr:full": "2006 Country Club  Ave. ", "addr:city": "Huntsville", "addr:state": "AL", "addr:postcode": "35816", "addr:country": "US", "name": "AMF Pin Palace Lanes", "phone": "256-534-8438", "website": "https://www.amf.com/location/amf-pin-palace-lanes", "brand": "AMF Bowling Center", "brand:wikidata": "Q4652616"}, "geometry": {"type": "Point", "coordinates": [-86.6037, 34.7455]}},
{"type": "Feature", "id": "qSaLRs_Fmxo5wphusT1OkgHbKRo=", "properties": {"ref": "dd1eae73-e11d-e611-80c5-005056aa8521", "@spider": "amf_bowling", "addr:full": "1101 Merritt Blvd", "addr:city": "Baltimore", "addr:state": "MD", "addr:postcode": "21222", "addr:country": "US", "name": "AMF Dundalk Lanes", "phone": "410-282-2000", "website": "https://www.amf.com/location/amf-dundalk-lanes", "brand": "AMF Bowling Center", "brand:wikidata": "Q4652616"}, "geometry": {"type": "Point", "coordinates": [-76.5054, 39.2837]}},
{"type": "Feature", "id": "gcMNJDxZlISQIgvDOpDGJK_C2ng=", "properties": {"ref": "3b20ae73-e11d-e611-80c5-005056aa8521", "@spider": "amf_bowling", "addr:full": "3101 Lynnhurst Blvd", "addr:city": "Chesapeake", "addr:state": "VA", "addr:postcode": "23321", "addr:country": "US", "name": "AMF Western Branch Lanes", "phone": "757-686-2695", "website": "https://www.amf.com/location/amf-western-branch-lanes", "brand": "AMF Bowling Center", "brand:wikidata": "Q4652616"}, "geometry": {"type": "Point", "coordinates": [-76.4278, 36.8492]}},
{"type": "Feature", "id": "jgWOXkYIk_tyae0FXFWNHv-V8zE=", "properties": {"ref": "8f20ae73-e11d-e611-80c5-005056aa8521", "@spider": "amf_bowling", "addr:full": "1580 Pinole Valley Rd.", "addr:city": "Pinole", "addr:state": "CA", "addr:postcode": "94564", "addr:country": "US", "name": "AMF Pinole Valley Lanes", "phone": "510-724-9130", "website": "https://www.amf.com/location/amf-pinole-valley-lanes", "brand": "AMF Bowling Center", "brand:wikidata": "Q4652616"}, "geometry": {"type": "Point", "coordinates": [-122.288, 37.9973]}},
{"type": "Feature", "id": "EG89g_nlTJl7-yp-WBNh8ll2928=", "properties": {"ref": "c120ae73-e11d-e611-80c5-005056aa8521", "@spider": "amf_bowling", "addr:full": "4508 Durham-chapel Hill Blvd.", "addr:city": "Durham", "addr:state": "NC", "addr:postcode": "27707", "addr:country": "US", "name": "AMF Durham Lanes", "phone": "919-489-9154", "website": "https://www.amf.com/location/amf-durham-lanes", "brand": "AMF Bowling Center", "brand:wikidata": "Q4652616"}, "geometry": {"type": "Point", "coordinates": [-78.9743, 35.964]}},
{"type": "Feature", "id": "LtoHn_ysCvD5Q5PIFr5x9w5i7lY=", "properties": {"ref": "1920ae73-e11d-e611-80c5-005056aa8521", "@spider": "amf_bowling", "addr:full": "4565 W. Waco Dr.", "addr:city": "Waco", "addr:state": "TX", "addr:postcode": "76710", "addr:country": "US", "name": "Bowlero Waco", "phone": "254-772-6600", "website": "https://www.bowlero.com/location/bowlero-waco", "brand": "AMF Bowling Center", "brand:wikidata": "Q4652616"}, "geometry": {"type": "Point", "coordinates": [-97.1762, 31.5248]}},
{"type": "Feature", "id": "_4SfZLjNQaeiE7m6qHJe2eMz8bQ=", "properties": {"ref": "ff1fae73-e11d-e611-80c5-005056aa8521", "@spider": "amf_bowling", "addr:full": "1724 Genesee St.", "addr:city": "Utica", "addr:state": "NY", "addr:postcode": "13502", "addr:country": "US", "name": "AMF Pin-O-Rama Lanes", "phone": "315-735-7543", "website": "https://www.amf.com/location/amf-pin-o-rama-lanes", "brand": "AMF Bowling Center", "brand:wikidata": "Q4652616"}, "geometry": {"type": "Point", "coordinates": [-75.2579, 43.0889]}},
{"type": "Feature", "id": "ktlELIRBcig9NEqlxQZzMugN3CM=", "properties": {"ref": "3120ae73-e11d-e611-80c5-005056aa8521", "@spider": "amf_bowling", "addr:full": "700 Red Banks Rd.", "addr:city": "Greenville", "addr:state": "NC", "addr:postcode": "27858", "addr:country": "US", "name": "AMF East Carolina Lanes", "phone": "252-355-5510", "website": "https://www.amf.com/location/amf-east-carolina-lanes", "brand": "AMF Bowling Center", "brand:wikidata": "Q4652616"}, "geometry": {"type": "Point", "coordinates": [-77.3682, 35.5806]}},
{"type": "Feature", "id": "LbhUgegMM-6L7EyXYnTGm4crtaU=", "properties": {"ref": "d2b4c3f0-f06a-e611-80c5-005056aa8521", "@spider": "amf_bowling", "addr:full": "5544 Olde Towne Rd", "addr:city": "Williamsburg", "addr:state": "VA", "addr:postcode": "23188", "addr:country": "US", "name": "Bowlero Williamsburg", "phone": "757-565-3311", "website": "https://www.bowlero.com/location/bowlero-williamsburg", "brand": "AMF Bowling Center", "brand:wikidata": "Q4652616"}, "geometry": {"type": "Point", "coordinates": [-76.7362, 37.3147]}},
{"type": "Feature", "id": "8TXrRbZVIOTgwSOsmvLQrsnhkXw=", "properties": {"ref": "c320ae73-e11d-e611-80c5-005056aa8521", "@spider": "amf_bowling", "addr:full": "5501 Commercial Ave.", "addr:city": "Raleigh", "addr:state": "NC", "addr:postcode": "27612", "addr:country": "US", "name": "AMF Pleasant Valley Lanes", "phone": "919-783-0080", "website": "https://www.amf.com/location/amf-pleasant-valley-lanes", "brand": "AMF Bowling Center", "brand:wikidata": "Q4652616"}, "geometry": {"type": "Point", "coordinates": [-78.709229, 35.857161]}},
{"type": "Feature", "id": "HUSPZ0uirbRUr4xLnyxo1Om_lGI=", "properties": {"ref": "db20ae73-e11d-e611-80c5-005056aa8521", "@spider": "amf_bowling", "addr:full": "1840 Front St.", "addr:city": "East Meadow", "addr:state": "NY", "addr:postcode": "11554", "addr:country": "US", "name": "AMF East Meadow Lanes", "phone": "516-794-1111", "website": "https://www.amf.com/location/amf-east-meadow-lanes", "brand": "AMF Bowling Center", "brand:wikidata": "Q4652616"}, "geometry": {"type": "Point", "coordinates": [-73.5643, 40.7183]}},
{"type": "Feature", "id": "mU6wIGfK6W-reUJFa0tWl8XMTjs=", "properties": {"ref": "971fae73-e11d-e611-80c5-005056aa8521", "@spider": "amf_bowling", "addr:full": "19102 TX-249", "addr:city": "Houston", "addr:state": "TX", "addr:postcode": "77070", "addr:country": "US", "name": "Bowlero Willowbrook", "phone": "281-955-5900", "website": "https://www.bowlero.com/location/bowlero-willowbrook", "brand": "AMF Bowling Center", "brand:wikidata": "Q4652616"}, "geometry": {"type": "Point", "coordinates": [-95.5609, 29.9724]}},
{"type": "Feature", "id": "vKB-8FrjbWtYQC20l4ZzCtVHDFw=", "properties": {"ref": "951fae73-e11d-e611-80c5-005056aa8521", "@spider": "amf_bowling", "addr:full": "2118 Goliad Rd", "addr:city": "San Antonio", "addr:state": "TX", "addr:postcode": "78223", "addr:country": "US", "name": "Bowlero Highland Hills", "phone": "210-333-6150", "website": "https://www.bowlero.com/location/bowlero-highland-hills", "brand": "AMF Bowling Center", "brand:wikidata": "Q4652616"}, "geometry": {"type": "Point", "coordinates": [-98.439, 29.3646]}},
{"type": "Feature", "id": "JHIC2thQfD--3SVww_OwRHFO1yY=", "properties": {"ref": "731fae73-e11d-e611-80c5-005056aa8521", "@spider": "amf_bowling", "addr:full": "3500 Lake Eastbrook Blvd. SE", "addr:city": "Grand Rapids", "addr:state": "MI", "addr:postcode": "49546", "addr:country": "US", "name": "AMF Eastbrook Lanes", "phone": "616-949-7650", "website": "https://www.amf.com/location/amf-eastbrook-lanes", "brand": "AMF Bowling Center", "brand:wikidata": "Q4652616"}, "geometry": {"type": "Point", "coordinates": [-85.5811, 42.9179]}},
{"type": "Feature", "id": "FUNENQPmaAxHi41aziSYEd_vjBc=", "properties": {"ref": "9b1fae73-e11d-e611-80c5-005056aa8521", "@spider": "amf_bowling", "addr:full": "14441 Northwest Freeway", "addr:city": "Houston", "addr:state": "TX", "addr:postcode": "77040", "addr:country": "US", "name": "AMF Windfern Lanes", "phone": "713-466-8012", "website": "https://www.amf.com/location/amf-windfern-lanes", "brand": "AMF Bowling Center", "brand:wikidata": "Q4652616"}, "geometry": {"type": "Point", "coordinates": [-95.5353, 29.8633]}},
{"type": "Feature", "id": "fcJLTF5uYquMiBKbwjwSymZ3vHM=", "properties": {"ref": "5920ae73-e11d-e611-80c5-005056aa8521", "@spider": "amf_bowling", "addr:full": "3215 Kirkwood Hwy.", "addr:city": "Wilmington", "addr:state": "DE", "addr:postcode": "19808", "addr:country": "US", "name": "Bowlero Wilmington", "phone": "302-998-8806", "website": "https://www.bowlero.com/location/bowlero-wilmington", "brand": "AMF Bowling Center", "brand:wikidata": "Q4652616"}, "geometry": {"type": "Point", "coordinates": [-75.6264, 39.7378]}},
{"type": "Feature", "id": "-cctran6B2UGXkUOFsOB5WTwX1I=", "properties": {"ref": "1320ae73-e11d-e611-80c5-005056aa8521", "@spider": "amf_bowling", "addr:full": "400 DISNEY WAY", "addr:city": "Anaheim", "addr:state": "CA", "addr:postcode": "92802", "addr:country": "US", "name": "Bowlero Anaheim", "phone": "714-783-2810", "website": "https://www.bowlero.com/location/bowlero-anaheim", "brand": "AMF Bowling Center", "brand:wikidata": "Q4652616"}, "geometry": {"type": "Point", "coordinates": [-117.912, 33.8039]}},
{"type": "Feature", "id": "sp7KjAE1TihRsDhTIwgUjSII7Ts=", "properties": {"ref": "c41eae73-e11d-e611-80c5-005056aa8521", "@spider": "amf_bowling", "addr:full": "2175 Savoy Dr.", "addr:city": "Atlanta", "addr:state": "GA", "addr:postcode": "30341", "addr:country": "US", "name": "Bowlero Chamblee", "phone": "770-451-8605", "website": "https://www.bowlero.com/location/bowlero-chamblee", "brand": "AMF Bowling Center", "brand:wikidata": "Q4652616"}, "geometry": {"type": "Point", "coordinates": [-84.2992, 33.919]}},
{"type": "Feature", "id": "CDjGhCLrEIRxzKBnk70G-LPBEpY=", "properties": {"ref": "ef1fae73-e11d-e611-80c5-005056aa8521", "@spider": "amf_bowling", "addr:full": "Chelsea Piers - Pier 60", "addr:city": "New York", "addr:state": "NY", "addr:postcode": "10011", "addr:country": "US", "name": "Bowlero Chelsea Piers", "phone": "212-835-2695", "website": "https://www.bowlero.com/location/bowlero-chelsea-piers", "brand": "AMF Bowling Center", "brand:wikidata": "Q4652616"}, "geometry": {"type": "Point", "coordinates": [-74.010038, 40.748732]}},
{"type": "Feature", "id": "NH6WxNCzr8J5pSTAc6xxOTHnW4o=", "properties": {"ref": "9d20ae73-e11d-e611-80c5-005056aa8521", "@spider": "amf_bowling", "addr:full": "10123 N. Wolfe Rd #20", "addr:city": "Cupertino", "addr:state": "CA", "addr:postcode": "95014", "addr:country": "US", "name": "Bowlmor Cupertino", "phone": "408-252-2695", "website": "https://www.bowlmor.com/location/bowlmor-cupertino", "brand": "AMF Bowling Center", "brand:wikidata": "Q4652616"}, "geometry": {"type": "Point", "coordinates": [-122.015, 37.3269]}},
{"type": "Feature", "id": "PUrAwx6Hon6tVvZBcbIC5C-qfKc=", "properties": {"ref": "aa1eae73-e11d-e611-80c5-005056aa8521", "@spider": "amf_bowling", "addr:full": "3805 Belt Line Rd", "addr:city": "Addison", "addr:state": "TX", "addr:postcode": "75001", "addr:country": "US", "name": "Bowlero Dallas", "phone": "972-620-7700", "website": "https://www.bowlero.com/location/bowlero-dallas", "brand": "AMF Bowling Center", "brand:wikidata": "Q4652616"}, "geometry": {"type": "Point", "coordinates": [-96.850447, 32.955099]}},
{"type": "Feature", "id": "B6tcZFTWpIDa4_0oGZiqzwZEfVE=", "properties": {"ref": "a91fae73-e11d-e611-80c5-005056aa8521", "@spider": "amf_bowling", "addr:full": "380 US Highway 22", "addr:city": "Green Brook", "addr:state": "NJ", "addr:postcode": "08812", "addr:country": "US", "name": "Bowlero Green Brook", "phone": "732-356-0011", "website": "https://www.bowlero.com/location/bowlero-green-brook", "brand": "AMF Bowling Center", "brand:wikidata": "Q4652616"}, "geometry": {"type": "Point", "coordinates": [-74.511307, 40.58574]}},
{"type": "Feature", "id": "r4lJA0exfFzr-lTtuLTn61FEZ60=", "properties": {"ref": "a61eae73-e11d-e611-80c5-005056aa8521", "@spider": "amf_bowling", "addr:full": "925 Bunker Hill Rd", "addr:city": "Houston", "addr:state": "TX", "addr:postcode": "77024", "addr:country": "US", "name": "Bowlero Houston", "phone": "713-461-1207", "website": "https://www.bowlero.com/location/bowlero-houston", "brand": "AMF Bowling Center", "brand:wikidata": "Q4652616"}, "geometry": {"type": "Point", "coordinates": [-95.53205, 29.780359]}},
{"type": "Feature", "id": "K_zC9Csl3O0bM9I4nfYZoEVk12E=", "properties": {"ref": "e320ae73-e11d-e611-80c5-005056aa8521", "@spider": "amf_bowling", "addr:full": "895 Walt Whitman Rd.", "addr:city": "Melville", "addr:state": "NY", "addr:postcode": "11747", "addr:country": "US", "name": "Bowlero Melville", "phone": "631-271-1180", "website": "https://www.bowlero.com/location/bowlero-melville", "brand": "AMF Bowling Center", "brand:wikidata": "Q4652616"}, "geometry": {"type": "Point", "coordinates": [-73.4147, 40.799]}},
{"type": "Feature", "id": "cBwGlBuIj7Q_u5CQY2_MOBVCIEM=", "properties": {"ref": "9c1eae73-e11d-e611-80c5-005056aa8521", "@spider": "amf_bowling", "addr:full": "701 Connecticut Ave.", "addr:city": "Norwalk", "addr:state": "CT", "addr:postcode": "06854", "addr:country": "US", "name": "Bowlero Norwalk", "phone": "203-838-7501", "website": "https://www.bowlero.com/location/bowlero-norwalk", "brand": "AMF Bowling Center", "brand:wikidata": "Q4652616"}, "geometry": {"type": "Point", "coordinates": [-73.4496, 41.0937]}},
{"type": "Feature", "id": "RBIpe2cX-HVihpOf26LdA-_fFzw=", "properties": {"ref": "1520ae73-e11d-e611-80c5-005056aa8521", "@spider": "amf_bowling", "addr:full": "2405 Park Ave.", "addr:city": "Tustin", "addr:state": "CA", "addr:postcode": "92782", "addr:country": "US", "name": "Bowlero Orange County", "phone": "714-258-2695", "website": "https://www.bowlero.com/location/bowlero-orange-county", "brand": "AMF Bowling Center", "brand:wikidata": "Q4652616"}, "geometry": {"type": "Point", "coordinates": [-117.828, 33.6987]}},
{"type": "Feature", "id": "LtKhw_mQgncCWh_CfAyZykFXjP0=", "properties": {"ref": "ab20ae73-e11d-e611-80c5-005056aa8521", "@spider": "amf_bowling", "addr:full": "3545 E. Foothill Blvd.", "addr:city": "Pasadena", "addr:state": "CA", "addr:postcode": "91107", "addr:country": "US", "name": "Bowlero Pasadena", "phone": "626-351-8858", "website": "https://www.bowlero.com/location/bowlero-pasadena", "brand": "AMF Bowling Center", "brand:wikidata": "Q4652616"}, "geometry": {"type": "Point", "coordinates": [-118.077888, 34.1515]}},
{"type": "Feature", "id": "owmQUVSMwDZus-m_uhCzuy1Gy00=", "properties": {"ref": "cf1eae73-e11d-e611-80c5-005056aa8521", "@spider": "amf_bowling", "addr:full": "15720 Shady Grove Rd.", "addr:city": "Gaithersburg", "addr:state": "MD", "addr:postcode": "20877", "addr:country": "US", "name": "Bowlero Rockville", "phone": "301-948-1390", "website": "https://www.bowlero.com/location/bowlero-rockville", "brand": "AMF Bowling Center", "brand:wikidata": "Q4652616"}, "geometry": {"type": "Point", "coordinates": [-77.1878, 39.1142]}},
{"type": "Feature", "id": "xmdKSCpkBNxGiRSmam1w0UB6TFo=", "properties": {"ref": "d120ae73-e11d-e611-80c5-005056aa8521", "@spider": "amf_bowling", "addr:full": "7300 E. Thomas Rd.", "addr:city": "Scottsdale", "addr:state": "AZ", "addr:postcode": "85251", "addr:country": "US", "name": "Bowlero Old Town", "phone": "480-946-5308", "website": "https://www.bowlero.com/location/bowlero-old-town", "brand": "AMF Bowling Center", "brand:wikidata": "Q4652616"}, "geometry": {"type": "Point", "coordinates": [-111.925, 33.4809]}},
{"type": "Feature", "id": "ClRu17uX-Hn6xBtMWNX3FYB8PoU=", "properties": {"ref": "ed1fae73-e11d-e611-80c5-005056aa8521", "@spider": "amf_bowling", "addr:full": "222 W. 44th St", "addr:city": "New York", "addr:state": "NY", "addr:postcode": "10036", "addr:country": "US", "name": "Bowlero Times Square", "phone": "212-680-0012", "website": "https://www.bowlero.com/location/bowlero-times-square", "brand": "AMF Bowling Center", "brand:wikidata": "Q4652616"}, "geometry": {"type": "Point", "coordinates": [-73.987218, 40.757732]}},
{"type": "Feature", "id": "by0-dEMIL8ORcMb6l7o3YJuSmGc=", "properties": {"ref": "a01eae73-e11d-e611-80c5-005056aa8521", "@spider": "amf_bowling", "addr:full": "47 Tarrytown Rd.", "addr:city": "White Plains", "addr:state": "NY", "addr:postcode": "10607", "addr:country": "US", "name": "Bowlero White Plains", "phone": "914-948-2677", "website": "https://www.bowlero.com/location/bowlero-white-plains", "brand": "AMF Bowling Center", "brand:wikidata": "Q4652616"}, "geometry": {"type": "Point", "coordinates": [-73.7838, 41.038]}},
{"type": "Feature", "id": "VEzDmnTBvblXy6QzkKHvRRq3YhU=", "properties": {"ref": "6b1fae73-e11d-e611-80c5-005056aa8521", "@spider": "amf_bowling", "addr:full": "176 Four Seasons Shop Ctr.", "addr:city": "Chesterfield", "addr:state": "MO", "addr:postcode": "63017", "addr:country": "US", "name": "Bowlero Chesterfield", "phone": "314-469-6550", "website": "https://www.bowlero.com/location/bowlero-chesterfield", "brand": "AMF Bowling Center", "brand:wikidata": "Q4652616"}, "geometry": {"type": "Point", "coordinates": [-90.505, 38.6795]}},
{"type": "Feature", "id": "7zSd2R_8AbApWQufkpSF7-kevGc=", "properties": {"ref": "dd1fae73-e11d-e611-80c5-005056aa8521", "@spider": "amf_bowling", "addr:full": "999 N. Circle Dr.", "addr:city": "Colorado Springs", "addr:state": "CO", "addr:postcode": "80909", "addr:country": "US", "name": "AMF Colorado Springs", "phone": "719-596-5257", "website": "https://www.amf.com/location/amf-colorado-springs-lanes", "brand": "AMF Bowling Center", "brand:wikidata": "Q4652616"}, "geometry": {"type": "Point", "coordinates": [-104.776, 38.8471]}},
{"type": "Feature", "id": "q82C-tG4JqdSjzMIxUOo7AfjwZs=", "properties": {"ref": "c11fae73-e11d-e611-80c5-005056aa8521", "@spider": "amf_bowling", "addr:full": "1800 Hamner Ave.", "addr:city": "Norco", "addr:state": "CA", "addr:postcode": "92860", "addr:country": "US", "name": "Bowlero Norco", "phone": "951-734-8410", "website": "https://www.bowlero.com/location/bowlero-norco", "brand": "AMF Bowling Center", "brand:wikidata": "Q4652616"}, "geometry": {"type": "Point", "coordinates": [-117.563, 33.9083]}},
{"type": "Feature", "id": "Y4ROTkssraiLVi_FH-5lZ2crIWo=", "properties": {"ref": "7b20ae73-e11d-e611-80c5-005056aa8521", "@spider": "amf_bowling", "addr:full": "7930 Haven Ave.", "addr:city": "Rancho Cucamonga", "addr:state": "CA", "addr:postcode": "91730", "addr:country": "US", "name": "Bowlero Rancho Cucamonga", "phone": "909-945-9392", "website": "https://www.bowlero.com/location/bowlero-rancho-cucamonga", "brand": "AMF Bowling Center", "brand:wikidata": "Q4652616"}, "geometry": {"type": "Point", "coordinates": [-117.576904, 34.1101]}},
{"type": "Feature", "id": "q197MfIG3a5NkRgVyvmPYeq4ews=", "properties": {"ref": "311fae73-e11d-e611-80c5-005056aa8521", "@spider": "amf_bowling", "addr:full": "21080 N. Rand Rd.", "addr:city": "Lake Zurich", "addr:state": "IL", "addr:postcode": "60047", "addr:country": "US", "name": "Bowlero Deer Park", "phone": "847-438-5585", "website": "https://www.bowlero.com/location/bowlero-deer-park", "brand": "AMF Bowling Center", "brand:wikidata": "Q4652616"}, "geometry": {"type": "Point", "coordinates": [-88.1117, 42.2036]}},
{"type": "Feature", "id": "iNL9vYY6dBRPjA3taeu9U_1NzkE=", "properties": {"ref": "2520ae73-e11d-e611-80c5-005056aa8521", "@spider": "amf_bowling", "addr:full": "2200 San Jacinto Blvd.", "addr:city": "Denton", "addr:state": "TX", "addr:postcode": "76205", "addr:country": "US", "name": "Bowlero Denton", "phone": "940-383-3515", "website": "https://www.bowlero.com/location/bowlero-denton", "brand": "AMF Bowling Center", "brand:wikidata": "Q4652616"}, "geometry": {"type": "Point", "coordinates": [-97.1077, 33.1936]}},
{"type": "Feature", "id": "Z_MynEpFMkn8EdMhgi14beLKz94=", "properties": {"ref": "5f20ae73-e11d-e611-80c5-005056aa8521", "@spider": "amf_bowling", "addr:full": "1328 Delsea Dr.", "addr:city": "Deptford", "addr:state": "NJ", "addr:postcode": "08096", "addr:country": "US", "name": "Bowlero Deptford", "phone": "856-845-4241", "website": "https://www.bowlero.com/location/bowlero-deptford", "brand": "AMF Bowling Center", "brand:wikidata": "Q4652616"}, "geometry": {"type": "Point", "coordinates": [-75.1257, 39.8346]}},
{"type": "Feature", "id": "foVWYYA_aHtu-o10EEKYYfJnWMQ=", "properties": {"ref": "d920ae73-e11d-e611-80c5-005056aa8521", "@spider": "amf_bowling", "addr:full": "7241 W. Indian School Rd", "addr:city": "Phoenix", "addr:state": "AZ", "addr:postcode": "85033", "addr:country": "US", "name": "Bowlero Desert Sky", "phone": "623-846-2090", "website": "https://www.bowlero.com/location/bowlero-desert-sky", "brand": "AMF Bowling Center", "brand:wikidata": "Q4652616"}, "geometry": {"type": "Point", "coordinates": [-112.216, 33.4932]}},
{"type": "Feature", "id": "S26kXCDgI3AOo3OI-gna0zBQMvo=", "properties": {"ref": "ab1fae73-e11d-e611-80c5-005056aa8521", "@spider": "amf_bowling", "addr:full": "1 Carolier Lane", "addr:city": "N. Brunswick", "addr:state": "NJ", "addr:postcode": "08902", "addr:country": "US", "name": "Bowlero North Brunswick", "phone": "732-846-2424", "website": "https://www.bowlero.com/location/bowlero-north-brunswick", "brand": "AMF Bowling Center", "brand:wikidata": "Q4652616"}, "geometry": {"type": "Point", "coordinates": [-74.451995, 40.462555]}},
{"type": "Feature", "id": "bZqoGGoT3RiRWK6CHH4XBx5A_R0=", "properties": {"ref": "6520ae73-e11d-e611-80c5-005056aa8521", "@spider": "amf_bowling", "addr:full": "1600 S. Governors Ave.", "addr:city": "Dover", "addr:state": "DE", "addr:postcode": "19904", "addr:country": "US", "name": "AMF Doverama Lanes", "phone": "302-734-7501", "website": "https://www.amf.com/location/amf-doverama-lanes", "brand": "AMF Bowling Center", "brand:wikidata": "Q4652616"}, "geometry": {"type": "Point", "coordinates": [-75.5295, 39.1321]}},
{"type": "Feature", "id": "DGpuEoTRROafoTD_TubAJ9my_f4=", "properties": {"ref": "8120ae73-e11d-e611-80c5-005056aa8521", "@spider": "amf_bowling", "addr:full": "17238 Foothill Blvd.", "addr:city": "Fontana", "addr:state": "CA", "addr:postcode": "92335", "addr:country": "US", "name": "Bowlero Fontana", "phone": "909-822-9900", "website": "https://www.bowlero.com/location/bowlero-fontana", "brand": "AMF Bowling Center", "brand:wikidata": "Q4652616"}, "geometry": {"type": "Point", "coordinates": [-117.429, 34.1082]}},
{"type": "Feature", "id": "DQv5dwHe6290GnhMg3S2CMbNY5k=", "properties": {"ref": "ef20ae73-e11d-e611-80c5-005056aa8521", "@spider": "amf_bowling", "addr:full": "631 Lakehurst Rd.", "addr:city": "Waukegan", "addr:state": "IL", "addr:postcode": "60085", "addr:country": "US", "name": "Bowlero Waukegan", "phone": "847-473-2600", "website": "https://www.bowlero.com/location/bowlero-waukegan", "brand": "AMF Bowling Center", "brand:wikidata": "Q4652616"}, "geometry": {"type": "Point", "coordinates": [-87.8986, 42.3393]}},
{"type": "Feature", "id": "7eYANGXhItfcZyEDXQCAkBEC5eI=", "properties": {"ref": "f91eae73-e11d-e611-80c5-005056aa8521", "@spider": "amf_bowling", "addr:full": "385 Frederick Street", "addr:city": "Kitchener, Ont", "addr:state": "ON", "addr:postcode": "N2H 2P2", "addr:country": "US", "name": "AMF Frederick", "phone": "519-576-1160", "website": "https://www.amf.com/location/amf-frederick", "brand": "AMF Bowling Center", "brand:wikidata": "Q4652616"}, "geometry": {"type": "Point", "coordinates": [-80.47554, 43.45729]}},
{"type": "Feature", "id": "Pn6oic6mBJ9yQ_1ovCeyPSMtEY4=", "properties": {"ref": "371fae73-e11d-e611-80c5-005056aa8521", "@spider": "amf_bowling", "addr:full": "558 E. North Ave.", "addr:city": "Glendale Heights", "addr:state": "IL", "addr:postcode": "60139", "addr:country": "US", "name": "Bowlero Glendale Heights", "phone": "630-858-1300", "website": "https://www.bowlero.com/location/bowlero-glendale-heights", "brand": "AMF Bowling Center", "brand:wikidata": "Q4652616"}, "geometry": {"type": "Point", "coordinates": [-88.0637, 41.9047]}},
{"type": "Feature", "id": "3icnovFkkdl3awWfEvZUluh26u0=", "properties": {"ref": "d720ae73-e11d-e611-80c5-005056aa8521", "@spider": "amf_bowling", "addr:full": "17210 N. 59th Ave.", "addr:city": "Glendale", "addr:state": "AZ", "addr:postcode": "85308", "addr:country": "US", "name": "Bowlero Glendale", "phone": "602-978-1777", "website": "https://www.bowlero.com/location/bowlero-glendale", "brand": "AMF Bowling Center", "brand:wikidata": "Q4652616"}, "geometry": {"type": "Point", "coordinates": [-112.188153, 33.641234]}},
{"type": "Feature", "id": "_nuo7qzqPOddofJ0DFHFNN2-J0w=", "properties": {"ref": "c21eae73-e11d-e611-80c5-005056aa8521", "@spider": "amf_bowling", "addr:full": "1099 N. Wickham Rd.", "addr:city": "Melbourne", "addr:state": "FL", "addr:postcode": "32935", "addr:country": "US", "name": "Bowlero Melbourne", "phone": "321-242-2695", "website": "https://www.bowlero.com/location/bowlero-melbourne", "brand": "AMF Bowling Center", "brand:wikidata": "Q4652616"}, "geometry": {"type": "Point", "coordinates": [-80.6701, 28.1246]}},
{"type": "Feature", "id": "9zdJac8KWs0J1yw4Cud0dq-j15Q=", "properties": {"ref": "f520ae73-e11d-e611-80c5-005056aa8521", "@spider": "amf_bowling", "addr:full": "316 Center Drive", "addr:city": "Vernon Hills", "addr:state": "IL", "addr:postcode": "60061", "addr:country": "US", "name": "Bowlero Vernon Hills", "phone": "847-367-1600", "website": "https://www.bowlero.com/location/bowlero-vernon-hills", "brand": "AMF Bowling Center", "brand:wikidata": "Q4652616"}, "geometry": {"type": "Point", "coordinates": [-87.9548, 42.2451]}},
{"type": "Feature", "id": "mCcmVzgaeEkYVTvh_k0lgC95pvE=", "properties": {"ref": "ad1fae73-e11d-e611-80c5-005056aa8521", "@spider": "amf_bowling", "addr:full": "1400 NJ-36", "addr:city": "Hazlet", "addr:state": "NJ", "addr:postcode": "07730", "addr:country": "US", "name": "Bowlero Hazlet", "phone": "732-264-0800", "website": "https://www.bowlero.com/location/bowlero-hazlet", "brand": "AMF Bowling Center", "brand:wikidata": "Q4652616"}, "geometry": {"type": "Point", "coordinates": [-74.1894, 40.4279]}},
{"type": "Feature", "id": "h6nLi1qF2OBqnqGwr9BmLmP3Jfg=", "properties": {"ref": "571fae73-e11d-e611-80c5-005056aa8521", "@spider": "amf_bowling", "addr:full": "6225 W. Chandler Blvd.", "addr:city": "Chandler", "addr:state": "AZ", "addr:postcode": "85226", "addr:country": "US", "name": "Bowlero Kyrene", "phone": "480-961-3388", "website": "https://www.bowlero.com/location/bowlero-kyrene", "brand": "AMF Bowling Center", "brand:wikidata": "Q4652616"}, "geometry": {"type": "Point", "coordinates": [-111.948, 33.304]}},
{"type": "Feature", "id": "EuEO50ByLs6nSAu8H6A0QJsQDPg=", "properties": {"ref": "6d1fae73-e11d-e611-80c5-005056aa8521", "@spider": "amf_bowling", "addr:full": "1254 Dougherty Ferry Rd.", "addr:city": "Valley Park", "addr:state": "MO", "addr:postcode": "63088", "addr:country": "US", "name": "Bowlero Lakeside", "phone": "636-225-2400", "website": "https://www.bowlero.com/location/bowlero-lakeside", "brand": "AMF Bowling Center", "brand:wikidata": "Q4652616"}, "geometry": {"type": "Point", "coordinates": [-90.4766, 38.5659]}},
{"type": "Feature", "id": "vEfoP5oLTGKAuMw0d3k2gBMHGIg=", "properties": {"ref": "f31eae73-e11d-e611-80c5-005056aa8521", "@spider": "amf_bowling", "addr:full": "3835 Lawrenceville Hwy.", "addr:city": "Lawrenceville", "addr:state": "GA", "addr:postcode": "30044", "addr:country": "US", "name": "Bowlero Lilburn", "phone": "770-925-2000", "website": "https://www.bowlero.com/location/bowlero-lilburn", "brand": "AMF Bowling Center", "brand:wikidata": "Q4652616"}, "geometry": {"type": "Point", "coordinates": [-84.1081, 33.9086]}},
{"type": "Feature", "id": "s5Fo7BvYkTGHlZzn2zxJD2cxe4A=", "properties": {"ref": "4b20ae73-e11d-e611-80c5-005056aa8521", "@spider": "amf_bowling", "addr:full": "647 Pawtucket Blvd.", "addr:city": "Lowell", "addr:state": "MA", "addr:postcode": "01854", "addr:country": "US", "name": "Bowlero Lowell", "phone": "978-454-0476", "website": "https://www.bowlero.com/location/bowlero-lowell", "brand": "AMF Bowling Center", "brand:wikidata": "Q4652616"}, "geometry": {"type": "Point", "coordinates": [-71.3572, 42.6413]}},
{"type": "Feature", "id": "UKPYzf1IzIZua4k_KLzCXM1ghTg=", "properties": {"ref": "531fae73-e11d-e611-80c5-005056aa8521", "@spider": "amf_bowling", "addr:full": "1754 W. Southern Ave.", "addr:city": "Mesa", "addr:state": "AZ", "addr:postcode": "85202", "addr:country": "US", "name": "Bowlero Mesa", "phone": "480-834-0588", "website": "https://www.bowlero.com/location/bowlero-mesa", "brand": "AMF Bowling Center", "brand:wikidata": "Q4652616"}, "geometry": {"type": "Point", "coordinates": [-111.869645, 33.394255]}},
{"type": "Feature", "id": "WTijznYUy89p2PV7MzdoRwd8Zoc=", "properties": {"ref": "471fae73-e11d-e611-80c5-005056aa8521", "@spider": "amf_bowling", "addr:full": "1661 Eastern Blvd.", "addr:city": "Montgomery", "addr:state": "AL", "addr:postcode": "36117", "addr:country": "US", "name": "Bowlero Montgomery", "phone": "334-819-7171", "website": "https://www.bowlero.com/location/bowlero-montgomery", "brand": "AMF Bowling Center", "brand:wikidata": "Q4652616"}, "geometry": {"type": "Point", "coordinates": [-86.215796, 32.354572]}},
{"type": "Feature", "id": "BHdiJ3zeBIk5zwHSKxavySc5PuA=", "properties": {"ref": "7d20ae73-e11d-e611-80c5-005056aa8521", "@spider": "amf_bowling", "addr:full": "24666 Sunnymead Blvd.", "addr:city": "Moreno Valley", "addr:state": "CA", "addr:postcode": "92553", "addr:country": "US", "name": "Bowlero Moreno Valley", "phone": "951-924-6008", "website": "https://www.bowlero.com/location/bowlero-moreno-valley", "brand": "AMF Bowling Center", "brand:wikidata": "Q4652616"}, "geometry": {"type": "Point", "coordinates": [-117.231, 33.9401]}},
{"type": "Feature", "id": "2gu9fjUrF0q_Ypws8ol1KS1QErY=", "properties": {"ref": "351fae73-e11d-e611-80c5-005056aa8521", "@spider": "amf_bowling", "addr:full": "824 E. Rand Rd.", "addr:city": "Mount Prospect", "addr:state": "IL", "addr:postcode": "60056", "addr:country": "US", "name": "Bowlero Mount Prospect", "phone": "847-392-0550", "website": "https://www.bowlero.com/location/bowlero-mount-prospect", "brand": "AMF Bowling Center", "brand:wikidata": "Q4652616"}, "geometry": {"type": "Point", "coordinates": [-87.9249, 42.0707]}},
{"type": "Feature", "id": "CQdrpraLNqwFiAlREPknjSfSOPs=", "properties": {"ref": "f51eae73-e11d-e611-80c5-005056aa8521", "@spider": "amf_bowling", "addr:full": "3067 Washington Rd.", "addr:city": "Augusta", "addr:state": "GA", "addr:postcode": "30907", "addr:country": "US", "name": "Bowlero Augusta", "phone": "706-860-1667", "website": "https://www.bowlero.com/location/bowlero-augusta", "brand": "AMF Bowling Center", "brand:wikidata": "Q4652616"}, "geometry": {"type": "Point", "coordinates": [-82.0524, 33.5158]}},
{"type": "Feature", "id": "gB565by7UWxrqcp9LzQl_bY0K2Q=", "properties": {"ref": "2f1fae73-e11d-e611-80c5-005056aa8521", "@spider": "amf_bowling", "addr:full": "7333 North Milwaukee Ave.", "addr:city": "Niles", "addr:state": "IL", "addr:postcode": "60714", "addr:country": "US", "name": "Bowlero Niles", "phone": "847-647-9433", "website": "https://www.bowlero.com/location/bowlero-niles", "brand": "AMF Bowling Center", "brand:wikidata": "Q4652616"}, "geometry": {"type": "Point", "coordinates": [-87.8032, 42.0149]}},
{"type": "Feature", "id": "Bfv5V0big3GJfZqVwAzlYALgrJM=", "properties": {"ref": "e31eae73-e11d-e611-80c5-005056aa8521", "@spider": "amf_bowling", "addr:full": "8419 Baltimore Nat'l. Pike", "addr:city": "Ellicott City", "addr:state": "MD", "addr:postcode": "21043", "addr:country": "US", "name": "Bowlero Normandy", "phone": "410-465-0355", "website": "https://www.bowlero.com/location/bowlero-normandy", "brand": "AMF Bowling Center", "brand:wikidata": "Q4652616"}, "geometry": {"type": "Point", "coordinates": [-76.8036, 39.2857]}},
{"type": "Feature", "id": "FlT-jn4eMxyAZbaDeSkK9rtsMf8=", "properties": {"ref": "831fae73-e11d-e611-80c5-005056aa8521", "@spider": "amf_bowling", "addr:full": "38931 Center Ridge Rd.", "addr:city": "N. Ridgeville", "addr:state": "OH", "addr:postcode": "44039", "addr:country": "US", "name": "AMF North Ridgeville Lanes", "phone": "440-327-1190", "website": "https://www.amf.com/location/amf-north-ridgeville-lanes", "brand": "AMF Bowling Center", "brand:wikidata": "Q4652616"}, "geometry": {"type": "Point", "coordinates": [-82.0162, 41.3908]}},
{"type": "Feature", "id": "nYAl0sJPA3CZgfxMEUBU9Ah9mU8=", "properties": {"ref": "6720ae73-e11d-e611-80c5-005056aa8521", "@spider": "amf_bowling", "addr:full": "4359 Ebenezer Rd.", "addr:city": "Baltimore", "addr:state": "MD", "addr:postcode": "21236", "addr:country": "US", "name": "AMF Perry Hall Lanes", "phone": "410-256-6300", "website": "https://www.amf.com/location/amf-perry-hall-lanes", "brand": "AMF Bowling Center", "brand:wikidata": "Q4652616"}, "geometry": {"type": "Point", "coordinates": [-76.4763, 39.3968]}},
{"type": "Feature", "id": "iy2BtgF1GGjLi2iMFe701wd80P0=", "properties": {"ref": "f320ae73-e11d-e611-80c5-005056aa8521", "@spider": "amf_bowling", "addr:full": "3111 River Rd.", "addr:city": "River Grove", "addr:state": "IL", "addr:postcode": "60171", "addr:country": "US", "name": "Bowlero River Grove", "phone": "708-456-4100", "website": "https://www.bowlero.com/location/bowlero-river-grove", "brand": "AMF Bowling Center", "brand:wikidata": "Q4652616"}, "geometry": {"type": "Point", "coordinates": [-87.8492, 41.9359]}},
{"type": "Feature", "id": "8UCpnycOYtqpJaCIu8PpccgjaGE=", "properties": {"ref": "491fae73-e11d-e611-80c5-005056aa8521", "@spider": "amf_bowling", "addr:full": "2908 Riverview Rd.", "addr:city": "Birmingham", "addr:state": "AL", "addr:postcode": "35242", "addr:country": "US", "name": "Bowlero Riverview", "phone": "205-991-3900", "website": "https://www.bowlero.com/location/bowlero-riverview", "brand": "AMF Bowling Center", "brand:wikidata": "Q4652616"}, "geometry": {"type": "Point", "coordinates": [-86.7133, 33.4276]}},
{"type": "Feature", "id": "mO9AmjBvCJvpNw-Y5wPOQaqcqpk=", "properties": {"ref": "331fae73-e11d-e611-80c5-005056aa8521", "@spider": "amf_bowling", "addr:full": "1100 W. Lake St.", "addr:city": "Roselle", "addr:state": "IL", "addr:postcode": "60172", "addr:country": "US", "name": "Bowlero Roselle", "phone": "630-351-2100", "website": "https://www.bowlero.com/location/bowlero-roselle", "brand": "AMF Bowling Center", "brand:wikidata": "Q4652616"}, "geometry": {"type": "Point", "coordinates": [-88.1098, 41.9682]}},
{"type": "Feature", "id": "WVEV5OICbNnaEt3dlbfkEoctpKw=", "properties": {"ref": "5320ae73-e11d-e611-80c5-005056aa8521", "@spider": "amf_bowling", "addr:full": "785 Old Roswell Road", "addr:city": "Roswell", "addr:state": "GA", "addr:postcode": "30076", "addr:country": "US", "name": "Bowlero Roswell", "phone": "770-998-9437", "website": "https://www.bowlero.com/location/bowlero-roswell", "brand": "AMF Bowling Center", "brand:wikidata": "Q4652616"}, "geometry": {"type": "Point", "coordinates": [-84.3387, 34.0342]}},
{"type": "Feature", "id": "WQygU5f_xawzVEoKohxddyCRZHo=", "properties": {"ref": "8320ae73-e11d-e611-80c5-005056aa8521", "@spider": "amf_bowling", "addr:full": "43233 Sierra Highway", "addr:city": "Lancaster", "addr:state": "CA", "addr:postcode": "93534", "addr:country": "US", "name": "Bowlero Lancaster", "phone": "661-948-2651", "website": "https://www.bowlero.com/location/bowlero-lancaster", "brand": "AMF Bowling Center", "brand:wikidata": "Q4652616"}, "geometry": {"type": "Point", "coordinates": [-118.133, 34.6689]}},
{"type": "Feature", "id": "ES2PFUWlJkOqFKKMke-B7CZwV58=", "properties": {"ref": "a51fae73-e11d-e611-80c5-005056aa8521", "@spider": "amf_bowling", "addr:full": "4330 Thousand Oaks Blvd.", "addr:city": "San Antonio", "addr:state": "TX", "addr:postcode": "78217", "addr:country": "US", "name": "Bowlero Thousand Oaks", "phone": "210-654-0031", "website": "https://www.bowlero.com/location/bowlero-thousand-oaks", "brand": "AMF Bowling Center", "brand:wikidata": "Q4652616"}, "geometry": {"type": "Point", "coordinates": [-98.4097, 29.5505]}},
{"type": "Feature", "id": "DKh02LU5aG_AOI-fTfxqi9ohqY4=", "properties": {"ref": "551fae73-e11d-e611-80c5-005056aa8521", "@spider": "amf_bowling", "addr:full": "1425 N Central Ave", "addr:city": "Avondale", "addr:state": "AZ", "addr:postcode": "85323", "addr:country": "US", "name": "Bowlero Avondale", "phone": "623-932-3388", "website": "https://www.bowlero.com/location/bowlero-avondale", "brand": "AMF Bowling Center", "brand:wikidata": "Q4652616"}, "geometry": {"type": "Point", "coordinates": [-112.349, 33.4486]}},
{"type": "Feature", "id": "3d1yud-Ba42yNrIObfzNMB5mamw=", "properties": {"ref": "6120ae73-e11d-e611-80c5-005056aa8521", "@spider": "amf_bowling", "addr:full": "100 American Blvd.", "addr:city": "Blackwood", "addr:state": "NJ", "addr:postcode": "08012", "addr:country": "US", "name": "Bowlero Turnersville", "phone": "856-629-2422", "website": "https://www.bowlero.com/location/bowlero-turnersville", "brand": "AMF Bowling Center", "brand:wikidata": "Q4652616"}, "geometry": {"type": "Point", "coordinates": [-75.0337, 39.724]}},
{"type": "Feature", "id": "SqrtejcOxloBayf8HRb3w7m7oMc=", "properties": {"ref": "7920ae73-e11d-e611-80c5-005056aa8521", "@spider": "amf_bowling", "addr:full": "451 W. Foothill Blvd.", "addr:city": "Upland", "addr:state": "CA", "addr:postcode": "91786", "addr:country": "US", "name": "Bowlero Upland", "phone": "909-946-7006", "website": "https://www.bowlero.com/location/bowlero-upland", "brand": "AMF Bowling Center", "brand:wikidata": "Q4652616"}, "geometry": {"type": "Point", "coordinates": [-117.656, 34.1081]}},
{"type": "Feature", "id": "MdrTaUsT6BxH9_YV5RSFYH3Uwq0=", "properties": {"ref": "591fae73-e11d-e611-80c5-005056aa8521", "@spider": "amf_bowling", "addr:full": "9027 E. Via Linda", "addr:city": "Scottsdale", "addr:state": "AZ", "addr:postcode": "85258", "addr:country": "US", "name": "Bowlero Via Linda", "phone": "480-860-1363", "website": "https://www.bowlero.com/location/bowlero-via-linda", "brand": "AMF Bowling Center", "brand:wikidata": "Q4652616"}, "geometry": {"type": "Point", "coordinates": [-111.886, 33.5685]}},
{"type": "Feature", "id": "Y6MaWMyy61EYouOub0GRtXimch8=", "properties": {"ref": "7f20ae73-e11d-e611-80c5-005056aa8521", "@spider": "amf_bowling", "addr:full": "38241 30th St. East", "addr:city": "Palmdale", "addr:state": "CA", "addr:postcode": "93550", "addr:country": "US", "name": "Bowlero Palmdale", "phone": "661-274-2878", "website": "https://www.bowlero.com/location/bowlero-palmdale", "brand": "AMF Bowling Center", "brand:wikidata": "Q4652616"}, "geometry": {"type": "Point", "coordinates": [-118.078, 34.5777]}},
{"type": "Feature", "id": "OFg82ZlCWkTB3158gUjeZrSjkNw=", "properties": {"ref": "2720ae73-e11d-e611-80c5-005056aa8521", "@spider": "amf_bowling", "addr:full": "7301 Rufe Snow Dr.", "addr:city": "Watauga", "addr:state": "TX", "addr:postcode": "76148", "addr:country": "US", "name": "Bowlero Watauga", "phone": "817-485-2695", "website": "https://www.bowlero.com/location/bowlero-watauga", "brand": "AMF Bowling Center", "brand:wikidata": "Q4652616"}, "geometry": {"type": "Point", "coordinates": [-97.2389, 32.8776]}},
{"type": "Feature", "id": "zEoalYBLmIxvU-MakOu2Pfdhf08=", "properties": {"ref": "231fae73-e11d-e611-80c5-005056aa8521", "@spider": "amf_bowling", "addr:full": "2160 Semoran", "addr:city": "Apopka", "addr:state": "FL", "addr:postcode": "32703", "addr:country": "US", "name": "Bowlero Apopka", "phone": "407-880-9090", "website": "https://www.bowlero.com/location/bowlero-apopka", "brand": "AMF Bowling Center", "brand:wikidata": "Q4652616"}, "geometry": {"type": "Point", "coordinates": [-81.4715, 28.6717]}},
{"type": "Feature", "id": "SjvXaiL9M8YtCWthkOzRhAULF-Q=", "properties": {"ref": "e51eae73-e11d-e611-80c5-005056aa8521", "@spider": "amf_bowling", "addr:full": "7100 Carved Stone Rd.", "addr:city": "Columbia", "addr:state": "MD", "addr:postcode": "21045", "addr:country": "US", "name": "Bowlero Columbia", "phone": "410-381-7750", "website": "https://www.bowlero.com/location/bowlero-columbia", "brand": "AMF Bowling Center", "brand:wikidata": "Q4652616"}, "geometry": {"type": "Point", "coordinates": [-76.8375, 39.2014]}},
{"type": "Feature", "id": "CIXP0Pu9qZ2-m8McYpYlJsT5SSo=", "properties": {"ref": "a320ae73-e11d-e611-80c5-005056aa8521", "@spider": "amf_bowling", "addr:full": "4742 PA-51", "addr:city": "Belle Vernon", "addr:state": "PA", "addr:postcode": "15012", "addr:country": "US", "name": "AMF Belle Vernon Lanes", "phone": "724-379-4433", "website": "https://www.amf.com/location/amf-belle-vernon-lanes", "brand": "AMF Bowling Center", "brand:wikidata": "Q4652616"}, "geometry": {"type": "Point", "coordinates": [-79.8215, 40.1899]}},
{"type": "Feature", "id": "eyDbE9WCDl5Nj2JPDVSmkZB1CVQ=", "properties": {"ref": "5520ae73-e11d-e611-80c5-005056aa8521", "@spider": "amf_bowling", "addr:full": "2750 Austell Rd. SW", "addr:city": "Marietta", "addr:state": "GA", "addr:postcode": "30008", "addr:country": "US", "name": "Bowlero Austell", "phone": "770-435-2120", "website": "https://www.bowlero.com/location/bowlero-austell", "brand": "AMF Bowling Center", "brand:wikidata": "Q4652616"}, "geometry": {"type": "Point", "coordinates": [-84.5871, 33.8858]}},
{"type": "Feature", "id": "JQT12v0M5OjQjnvRyf2cbGI2vSQ=", "properties": {"ref": "d91fae73-e11d-e611-80c5-005056aa8521", "@spider": "amf_bowling", "addr:full": "9150 Harlan St.", "addr:city": "Westminster", "addr:state": "CO", "addr:postcode": "80031", "addr:country": "US", "name": "Bowlero Westminster", "phone": "303-426-6352", "website": "https://www.bowlero.com/location/bowlero-westminster", "brand": "AMF Bowling Center", "brand:wikidata": "Q4652616"}, "geometry": {"type": "Point", "coordinates": [-105.061, 39.8622]}},
{"type": "Feature", "id": "Ra1xSkq7dXWwTZEuF-Z0B8BjbVQ=", "properties": {"ref": "e51fae73-e11d-e611-80c5-005056aa8521", "@spider": "amf_bowling", "addr:full": "679 Washington Ave.", "addr:city": "Belleville", "addr:state": "NJ", "addr:postcode": "07109", "addr:country": "US", "name": "Bowlero Belleville", "phone": "973-751-2111", "website": "https://www.bowlero.com/location/bowlero-belleville", "brand": "AMF Bowling Center", "brand:wikidata": "Q4652616"}, "geometry": {"type": "Point", "coordinates": [-74.1623, 40.7932]}},
{"type": "Feature", "id": "AHedfEeNz8rxlt2UskzyTZRRIAE=", "properties": {"ref": "fb1eae73-e11d-e611-80c5-005056aa8521", "@spider": "amf_bowling", "addr:full": "50 Bramtree Ct.", "addr:city": "Brampton, Ont", "addr:state": "ON", "addr:postcode": "L6S 5Z7", "addr:country": "US", "name": "Bowlero Brampton", "phone": "905-790-0052", "website": "https://www.bowlero.com/location/bowlero-brampton", "brand": "AMF Bowling Center", "brand:wikidata": "Q4652616"}, "geometry": {"type": "Point", "coordinates": [-79.713503, 43.744621]}},
{"type": "Feature", "id": "W6O6xIopK7-tGuf5DMOLZFX5fFI=", "properties": {"ref": "f120ae73-e11d-e611-80c5-005056aa8521", "@spider": "amf_bowling", "addr:full": "1555 W. 75th St.", "addr:city": "Woodridge", "addr:state": "IL", "addr:postcode": "60517", "addr:country": "US", "name": "Bowlero Woodridge", "phone": "630-985-1115", "website": "https://www.bowlero.com/location/bowlero-woodridge", "brand": "AMF Bowling Center", "brand:wikidata": "Q4652616"}, "geometry": {"type": "Point", "coordinates": [-88.087136, 41.680223]}},
{"type": "Feature", "id": "9yyiChDyaI-OnYiEKrZfuwbND5I=", "properties": {"ref": "bb1fae73-e11d-e611-80c5-005056aa8521", "@spider": "amf_bowling", "addr:full": "40440 California Oaks Rd.", "addr:city": "Murrieta", "addr:state": "CA", "addr:postcode": "92562", "addr:country": "US", "name": "Bowlero Murrieta", "phone": "951-698-2202", "website": "https://www.bowlero.com/location/bowlero-murrieta", "brand": "AMF Bowling Center", "brand:wikidata": "Q4652616"}, "geometry": {"type": "Point", "coordinates": [-117.2, 33.5762]}},
{"type": "Feature", "id": "nkGpKlG4es3W-FB0x8PXKKoCT8E=", "properties": {"ref": "c51fae73-e11d-e611-80c5-005056aa8521", "@spider": "amf_bowling", "addr:full": "11351 Ulysses St. NE", "addr:city": "Blaine", "addr:state": "MN", "addr:postcode": "55434", "addr:country": "US", "name": "Bowlero Blaine", "phone": "763-561-2230", "website": "https://www.bowlero.com/location/bowlero-blaine", "brand": "AMF Bowling Center", "brand:wikidata": "Q4652616"}, "geometry": {"type": "Point", "coordinates": [-93.2361, 45.1768]}},
{"type": "Feature", "id": "hU7upYaYOho67kc05M9iAkNnI0w=", "properties": {"ref": "5b20ae73-e11d-e611-80c5-005056aa8521", "@spider": "amf_bowling", "addr:full": "575 Conchester Hwy.", "addr:city": "Boothwyn", "addr:state": "PA", "addr:postcode": "19061", "addr:country": "US", "name": "Bowlero Boothwyn", "phone": "610-485-5220", "website": "https://www.bowlero.com/location/bowlero-boothwyn", "brand": "AMF Bowling Center", "brand:wikidata": "Q4652616"}, "geometry": {"type": "Point", "coordinates": [-75.4469, 39.8501]}},
{"type": "Feature", "id": "8T0i2U2_bUjhtNgKcCWFshJZd84=", "properties": {"ref": "251fae73-e11d-e611-80c5-005056aa8521", "@spider": "amf_bowling", "addr:full": "350 McHenry Road", "addr:city": "Buffalo Grove", "addr:state": "IL", "addr:postcode": "60089", "addr:country": "US", "name": "Bowlero Buffalo Grove", "phone": "847-821-9000", "website": "https://www.bowlero.com/location/bowlero-buffalo-grove", "brand": "AMF Bowling Center", "brand:wikidata": "Q4652616"}, "geometry": {"type": "Point", "coordinates": [-87.9613, 42.1593]}},
{"type": "Feature", "id": "SYtUjvAwkk_t4ty5U6lclRNpNBU=", "properties": {"ref": "d31eae73-e11d-e611-80c5-005056aa8521", "@spider": "amf_bowling", "addr:full": "13814 Lee Hwy.", "addr:city": "Centreville", "addr:state": "VA", "addr:postcode": "20120", "addr:country": "US", "name": "Bowlero Centreville", "phone": "703-830-3700", "website": "https://www.bowlero.com/location/bowlero-centreville", "brand": "AMF Bowling Center", "brand:wikidata": "Q4652616"}, "geometry": {"type": "Point", "coordinates": [-77.4247, 38.8396]}},
{"type": "Feature", "id": "GSjyD2ThAlk1-YozhrbIwjSlvDI=", "properties": {"ref": "cd20ae73-e11d-e611-80c5-005056aa8521", "@spider": "amf_bowling", "addr:full": "1919 W. Bethany Home Rd.", "addr:city": "Phoenix", "addr:state": "AZ", "addr:postcode": "85015", "addr:country": "US", "name": "Bowlero Christown", "phone": "602-249-1715", "website": "https://www.bowlero.com/location/bowlero-christown", "brand": "AMF Bowling Center", "brand:wikidata": "Q4652616"}, "geometry": {"type": "Point", "coordinates": [-112.101, 33.5235]}},
{"type": "Feature", "id": "mRu9A-Ud7nQjJqA9NTTb4oPdhzY=", "properties": {"ref": "6d20ae73-e11d-e611-80c5-005056aa8521", "@spider": "amf_bowling", "addr:full": "845 Lazo Ct.", "addr:city": "Chula Vista", "addr:state": "CA", "addr:postcode": "91910", "addr:country": "US", "name": "Bowlero Chula Vista", "phone": "619-421-4801", "website": "https://www.bowlero.com/location/bowlero-chula-vista", "brand": "AMF Bowling Center", "brand:wikidata": "Q4652616"}, "geometry": {"type": "Point", "coordinates": [-117.027, 32.6364]}},
{"type": "Feature", "id": "-pl4uwVtfQQHGvjPE14C8fBNNGA=", "properties": {"ref": "9320ae73-e11d-e611-80c5-005056aa8521", "@spider": "amf_bowling", "addr:full": "140 Shaw Ave.", "addr:city": "Clovis", "addr:state": "CA", "addr:postcode": "93612", "addr:country": "US", "name": "Bowlero Clovis", "phone": "559-298-6555", "website": "https://www.bowlero.com/location/bowlero-clovis", "brand": "AMF Bowling Center", "brand:wikidata": "Q4652616"}, "geometry": {"type": "Point", "coordinates": [-119.707, 36.8073]}},
{"type": "Feature", "id": "Qd7nYexc9RW929ci6lp6Qtr9oaw=", "properties": {"ref": "cd1eae73-e11d-e611-80c5-005056aa8521", "@spider": "amf_bowling", "addr:full": "9021 Baltimore Ave.", "addr:city": "College Park", "addr:state": "MD", "addr:postcode": "20740", "addr:country": "US", "name": "Bowlero College Park", "phone": "301-474-8282", "website": "https://www.bowlero.com/location/bowlero-college-park", "brand": "AMF Bowling Center", "brand:wikidata": "Q4652616"}, "geometry": {"type": "Point", "coordinates": [-76.9305, 39.0004]}},
{"type": "Feature", "id": "sbYRvIkNjRfGgVZ8xDmb9djTH4I=", "properties": {"ref": "3f1fae73-e11d-e611-80c5-005056aa8521", "@spider": "amf_bowling", "addr:full": "1636 Bradley Park Dr.", "addr:city": "Columbus", "addr:state": "GA", "addr:postcode": "31904", "addr:country": "US", "name": "Bowlero Columbus", "phone": "706-324-4431", "website": "https://www.bowlero.com/location/bowlero-columbus", "brand": "AMF Bowling Center", "brand:wikidata": "Q4652616"}, "geometry": {"type": "Point", "coordinates": [-84.9671, 32.5315]}},
{"type": "Feature", "id": "n_Ko4gA3Gj8zhsvPh3hMi6dIZns=", "properties": {"ref": "e720ae73-e11d-e611-80c5-005056aa8521", "@spider": "amf_bowling", "addr:full": "2183 Jericho Tpke.", "addr:city": "Commack", "addr:state": "NY", "addr:postcode": "11725", "addr:country": "US", "name": "Bowlero Commack", "phone": "631-499-7722", "website": "https://www.bowlero.com/location/bowlero-commack", "brand": "AMF Bowling Center", "brand:wikidata": "Q4652616"}, "geometry": {"type": "Point", "coordinates": [-73.2863, 40.8432]}},
{"type": "Feature", "id": "ri5TOCQUfzs_MrzI0s10Gbhcsfk=", "properties": {"ref": "a21eae73-e11d-e611-80c5-005056aa8521", "@spider": "amf_bowling", "addr:full": "6116 Ayers St.", "addr:city": "Corpus Christi", "addr:state": "TX", "addr:postcode": "78415", "addr:country": "US", "name": "Bowlero Corpus Christi", "phone": "361-857-2695", "website": "https://www.bowlero.com/location/bowlero-corpus-christi", "brand": "AMF Bowling Center", "brand:wikidata": "Q4652616"}, "geometry": {"type": "Point", "coordinates": [-97.437772, 27.716324]}},
{"type": "Feature", "id": "6_o3CmUdt_6VZ8vV60tGc4PtGDo=", "properties": {"ref": "b81eae73-e11d-e611-80c5-005056aa8521", "@spider": "amf_bowling", "addr:full": "8200 W. State Road 84", "addr:city": "Davie", "addr:state": "FL", "addr:postcode": "33324", "addr:country": "US", "name": "Bowlero Davie", "phone": "954-473-8822", "website": "https://www.bowlero.com/location/bowlero-davie", "brand": "AMF Bowling Center", "brand:wikidata": "Q4652616"}, "geometry": {"type": "Point", "coordinates": [-80.2573, 26.0995]}},
{"type": "Feature", "id": "K_Wy2VC0sFt8QsgkrbSI5MceXDs=", "properties": {"ref": "c91fae73-e11d-e611-80c5-005056aa8521", "@spider": "amf_bowling", "addr:full": "12200 Singletree Lane", "addr:city": "Eden Prairie", "addr:state": "MN", "addr:postcode": "55344", "addr:country": "US", "name": "Bowlero Eden Prairie", "phone": "952-941-0445", "website": "https://www.bowlero.com/location/bowlero-eden-prairie", "brand": "AMF Bowling Center", "brand:wikidata": "Q4652616"}, "geometry": {"type": "Point", "coordinates": [-93.4315, 44.8582]}},
{"type": "Feature", "id": "75D7oMUucxl3fi3TCPSJBU7_Ry0=", "properties": {"ref": "1b20ae73-e11d-e611-80c5-005056aa8521", "@spider": "amf_bowling", "addr:full": "1901 West Airport Freeway", "addr:city": "Euless", "addr:state": "TX", "addr:postcode": "76040", "addr:country": "US", "name": "Bowlero Euless", "phone": "817-540-0303", "website": "https://www.bowlero.com/location/bowlero-euless", "brand": "AMF Bowling Center", "brand:wikidata": "Q4652616"}, "geometry": {"type": "Point", "coordinates": [-97.1133, 32.8367]}},
{"type": "Feature", "id": "H5rissJ6Qfu_FoI5HrJ0yiYIqsA=", "properties": {"ref": "e71fae73-e11d-e611-80c5-005056aa8521", "@spider": "amf_bowling", "addr:full": "22-22 Maple Ave.", "addr:city": "Fairlawn", "addr:state": "NJ", "addr:postcode": "07410", "addr:country": "US", "name": "Bowlero Fair Lawn", "phone": "201-797-5400", "website": "https://www.bowlero.com/location/bowlero-fair-lawn", "brand": "AMF Bowling Center", "brand:wikidata": "Q4652616"}, "geometry": {"type": "Point", "coordinates": [-74.1391, 40.9477]}},
{"type": "Feature", "id": "ODq7MBDM9JRn7aBHIg4aGOp6DAc=", "properties": {"ref": "f11fae73-e11d-e611-80c5-005056aa8521", "@spider": "amf_bowling", "addr:full": "100 E. Street Rd.", "addr:city": "Feasterville", "addr:state": "PA", "addr:postcode": "19053", "addr:country": "US", "name": "Bowlero Feasterville", "phone": "215-322-7755", "website": "https://www.bowlero.com/location/bowlero-feasterville", "brand": "AMF Bowling Center", "brand:wikidata": "Q4652616"}, "geometry": {"type": "Point", "coordinates": [-74.9993, 40.1503]}},
{"type": "Feature", "id": "OGIIZeS1N1Dv8CkEyegCd0oQ0FI=", "properties": {"ref": "8520ae73-e11d-e611-80c5-005056aa8521", "@spider": "amf_bowling", "addr:full": "6450 N. Blackstone Ave.", "addr:city": "Fresno", "addr:state": "CA", "addr:postcode": "93710", "addr:country": "US", "name": "Bowlero Fresno", "phone": "559-431-3711", "website": "https://www.bowlero.com/location/bowlero-fresno", "brand": "AMF Bowling Center", "brand:wikidata": "Q4652616"}, "geometry": {"type": "Point", "coordinates": [-119.788, 36.8312]}},
{"type": "Feature", "id": "-FcbKHyZCSgVu-elG8wOkSC1QOQ=", "properties": {"ref": "d520ae73-e11d-e611-80c5-005056aa8521", "@spider": "amf_bowling", "addr:full": "1160 S. Gilbert Rd.", "addr:city": "Gilbert", "addr:state": "AZ", "addr:postcode": "85296", "addr:country": "US", "name": "Bowlero Gilbert", "phone": "480-813-2695", "website": "https://www.bowlero.com/location/bowlero-gilbert", "brand": "AMF Bowling Center", "brand:wikidata": "Q4652616"}, "geometry": {"type": "Point", "coordinates": [-111.792, 33.3287]}},
{"type": "Feature", "id": "YR8CrsNpbHgK1V7NMt1GLQ0V80o=", "properties": {"ref": "9e66062b-099b-e611-80c6-005056aa8521", "@spider": "amf_bowling", "addr:full": "350 Maplewood Drive", "addr:city": "Jupiter", "addr:state": "FL", "addr:postcode": "33458", "addr:country": "US", "name": "Bowlero Jupiter", "phone": "(561) 743-9200", "website": "https://www.bowlero.com/location/bowlero-jupiter", "brand": "AMF Bowling Center", "brand:wikidata": "Q4652616"}, "geometry": {"type": "Point", "coordinates": [-80.125749, 26.931561]}},
{"type": "Feature", "id": "rhLb-A8VsEdPkZqHF7oIPAE01yE=", "properties": {"ref": "cb1eae73-e11d-e611-80c5-005056aa8521", "@spider": "amf_bowling", "addr:full": "775 Cobb Place Blvd. NW", "addr:city": "Kennesaw", "addr:state": "GA", "addr:postcode": "30144", "addr:country": "US", "name": "Bowlero Kennesaw", "phone": "770-427-7679", "website": "https://www.bowlero.com/location/bowlero-kennesaw", "brand": "AMF Bowling Center", "brand:wikidata": "Q4652616"}, "geometry": {"type": "Point", "coordinates": [-84.5688, 34.0066]}},
{"type": "Feature", "id": "JuFj5YytPj96_5VupACQjLiLDbc=", "properties": {"ref": "c71fae73-e11d-e611-80c5-005056aa8521", "@spider": "amf_bowling", "addr:full": "11129 162nd Street West", "addr:city": "Lakeville", "addr:state": "MN", "addr:postcode": "55044", "addr:country": "US", "name": "Bowlero Lakeville", "phone": "952-435-2695", "website": "https://www.bowlero.com/location/bowlero-lakeville", "brand": "AMF Bowling Center", "brand:wikidata": "Q4652616"}, "geometry": {"type": "Point", "coordinates": [-93.2905, 44.7142]}},
{"type": "Feature", "id": "hhBnkpkml2jjftAEhhRnTPM6f5A=", "properties": {"ref": "26bb32f1-d634-e711-80cd-005056bd9ae6", "@spider": "amf_bowling", "addr:full": "1602 Village Market Boulevard Southeast", "addr:city": "Leesburg", "addr:state": "VA", "addr:postcode": "20175", "addr:country": "US", "name": "Bowlero Leesburg", "phone": "703-443-8001", "website": "https://www.bowlero.com/location/bowlero-leesburg", "brand": "AMF Bowling Center", "brand:wikidata": "Q4652616"}, "geometry": {"type": "Point", "coordinates": [-77.526062, 39.090649]}},
{"type": "Feature", "id": "wAMBMRFl1yLb8DSpL2bFme3QuKY=", "properties": {"ref": "b320ae73-e11d-e611-80c5-005056aa8521", "@spider": "amf_bowling", "addr:full": "9255 Kimmer Dr.", "addr:city": "Lone Tree", "addr:state": "CO", "addr:postcode": "80124", "addr:country": "US", "name": "Bowlero Lone Tree", "phone": "303-792-2695", "website": "https://www.bowlero.com/location/bowlero-lone-tree", "brand": "AMF Bowling Center", "brand:wikidata": "Q4652616"}, "geometry": {"type": "Point", "coordinates": [-104.881, 39.5531]}},
{"type": "Feature", "id": "jI8nI-jlm8iAWDnQ9BTAzBErTkw=", "properties": {"ref": "af20ae73-e11d-e611-80c5-005056aa8521", "@spider": "amf_bowling", "addr:full": "8731 Lincoln Blvd.", "addr:city": "Westchester", "addr:state": "CA", "addr:postcode": "90045", "addr:country": "US", "name": "Bowlero Los Angeles", "phone": "310-670-0688", "website": "https://www.bowlero.com/location/bowlero-los-angeles", "brand": "AMF Bowling Center", "brand:wikidata": "Q4652616"}, "geometry": {"type": "Point", "coordinates": [-118.417681, 33.958093]}},
{"type": "Feature", "id": "daBs51GlyZCLMGXiZniz8DhiF8s=", "properties": {"ref": "1120ae73-e11d-e611-80c5-005056aa8521", "@spider": "amf_bowling", "addr:full": "1222 - 164th St., S.W.", "addr:city": "Lynnwood", "addr:state": "WA", "addr:postcode": "98087", "addr:country": "US", "name": "Bowlero Lynnwood", "phone": "425-743-4422", "website": "https://www.bowlero.com/location/bowlero-lynnwood", "brand": "AMF Bowling Center", "brand:wikidata": "Q4652616"}, "geometry": {"type": "Point", "coordinates": [-122.25, 47.8483]}},
{"type": "Feature", "id": "6JDb2sQsLCSFAfUzjzvJDeaxOWY=", "properties": {"ref": "a920ae73-e11d-e611-80c5-005056aa8521", "@spider": "amf_bowling", "addr:full": "12125 Venice Blvd.", "addr:city": "Los Angeles", "addr:state": "CA", "addr:postcode": "90066", "addr:country": "US", "name": "Bowlero Mar Vista", "phone": "310-391-5288", "website": "https://www.bowlero.com/location/bowlero-mar-vista", "brand": "AMF Bowling Center", "brand:wikidata": "Q4652616"}, "geometry": {"type": "Point", "coordinates": [-118.431, 34.0054]}},
{"type": "Feature", "id": "mxcxMzIqsmfu6fijPN38vFcpW1A=", "properties": {"ref": "c71eae73-e11d-e611-80c5-005056aa8521", "@spider": "amf_bowling", "addr:full": "2749 Delk Rd.", "addr:city": "Marietta", "addr:state": "GA", "addr:postcode": "30067", "addr:country": "US", "name": "Bowlero Marietta", "phone": "770-988-8813", "website": "https://www.bowlero.com/location/bowlero-marietta", "brand": "AMF Bowling Center", "brand:wikidata": "Q4652616"}, "geometry": {"type": "Point", "coordinates": [-84.4739, 33.924]}},
{"type": "Feature", "id": "bnC2Gx91KaI1xeVYVW0krUmx6WU=", "properties": {"ref": "ac1eae73-e11d-e611-80c5-005056aa8521", "@spider": "amf_bowling", "addr:full": "11401 Nw 12th St", "addr:city": "Miami", "addr:state": "FL", "addr:postcode": "33172", "addr:country": "US", "name": "Bowlero Miami", "phone": "305-594-0200", "website": "https://www.bowlero.com/location/bowlero-miami", "brand": "AMF Bowling Center", "brand:wikidata": "Q4652616"}, "geometry": {"type": "Point", "coordinates": [-80.379984, 25.787749]}},
{"type": "Feature", "id": "WPJvflaW_M47qyFsVNbE619MK9Y=", "properties": {"ref": "a31fae73-e11d-e611-80c5-005056aa8521", "@spider": "amf_bowling", "addr:full": "5320 E. Loop 250 N", "addr:city": "Midland", "addr:state": "TX", "addr:postcode": "79705", "addr:country": "US", "name": "Bowlero Midland", "phone": "432-689-9725", "website": "https://www.bowlero.com/location/bowlero-midland", "brand": "AMF Bowling Center", "brand:wikidata": "Q4652616"}, "geometry": {"type": "Point", "coordinates": [-102.159, 32.017]}},
{"type": "Feature", "id": "SLz-Nl2qWY3SQaGWQsPV6YuYGRg=", "properties": {"ref": "9e1eae73-e11d-e611-80c5-005056aa8521", "@spider": "amf_bowling", "addr:full": "1717 Boston Post Rd.", "addr:city": "Milford", "addr:state": "CT", "addr:postcode": "06460", "addr:country": "US", "name": "Bowlero Milford", "phone": "203-878-4658", "website": "https://www.bowlero.com/location/bowlero-milford", "brand": "AMF Bowling Center", "brand:wikidata": "Q4652616"}, "geometry": {"type": "Point", "coordinates": [-73.0235, 41.248]}},
{"type": "Feature", "id": "FIkoB26QS622SEsPBr8bVHcOReU=", "properties": {"ref": "9920ae73-e11d-e611-80c5-005056aa8521", "@spider": "amf_bowling", "addr:full": "1287 S. Park Victoria Dr.", "addr:city": "Milpitas", "addr:state": "CA", "addr:postcode": "95035", "addr:country": "US", "name": "Bowlero Milpitas", "phone": "408-262-6950", "website": "https://www.bowlero.com/location/bowlero-milpitas", "brand": "AMF Bowling Center", "brand:wikidata": "Q4652616"}, "geometry": {"type": "Point", "coordinates": [-121.877, 37.4188]}},
{"type": "Feature", "id": "MP8x7nU0kJ7OdRGWXyCDXDv3gX8=", "properties": {"ref": "271fae73-e11d-e611-80c5-005056aa8521", "@spider": "amf_bowling", "addr:full": "1515 Aurora Ave.", "addr:city": "Naperville", "addr:state": "IL", "addr:postcode": "60540", "addr:country": "US", "name": "Bowlero Naperville", "phone": "630-355-7622", "website": "https://www.bowlero.com/location/bowlero-naperville", "brand": "AMF Bowling Center", "brand:wikidata": "Q4652616"}, "geometry": {"type": "Point", "coordinates": [-88.1835, 41.7664]}},
{"type": "Feature", "id": "weOvrVV_xoGZsXUTD_E3upN92EY=", "properties": {"ref": "c91eae73-e11d-e611-80c5-005056aa8521", "@spider": "amf_bowling", "addr:full": "6345 Spalding Dr.", "addr:city": "Norcross", "addr:state": "GA", "addr:postcode": "30092", "addr:country": "US", "name": "Bowlero Norcross", "phone": "770-840-8200", "website": "https://www.bowlero.com/location/bowlero-norcross", "brand": "AMF Bowling Center", "brand:wikidata": "Q4652616"}, "geometry": {"type": "Point", "coordinates": [-84.2566, 33.9697]}},
{"type": "Feature", "id": "4wKqIGOAYcDeptl_qvNFMA2Ec1c=", "properties": {"ref": "f245bfd1-2118-e811-80cf-005056bd9ae6", "@spider": "amf_bowling", "addr:full": "7000 E. Mayo Blvd. Building #19", "addr:city": "Phoenix", "addr:state": "AZ", "addr:postcode": "85054", "addr:country": "US", "name": "Bowlero North Scottsdale", "phone": "480-909-3600", "website": "https://www.bowlero.com/location/bowlero-north-scottsdale", "brand": "AMF Bowling Center", "brand:wikidata": "Q4652616"}, "geometry": {"type": "Point", "coordinates": [-111.930519, 33.658164]}},
{"type": "Feature", "id": "8C40t99VeE5N1Kn4aGhkYK1_MB8=", "properties": {"ref": "eb1fae73-e11d-e611-80c5-005056aa8521", "@spider": "amf_bowling", "addr:full": "69-10 34th Avenue", "addr:city": "Woodside", "addr:state": "NY", "addr:postcode": "11377", "addr:country": "US", "name": "Bowlero Queens", "phone": "718-651-0440", "website": "https://www.bowlero.com/location/bowlero-queens", "brand": "AMF Bowling Center", "brand:wikidata": "Q4652616"}, "geometry": {"type": "Point", "coordinates": [-73.8966, 40.7521]}},
{"type": "Feature", "id": "2UPkYp-4COiI8AYzIOeB1YERjPg=", "properties": {"ref": "2b1fae73-e11d-e611-80c5-005056aa8521", "@spider": "amf_bowling", "addr:full": "1611 S. Randall Rd.", "addr:city": "Algonquin", "addr:state": "IL", "addr:postcode": "60102", "addr:country": "US", "name": "Bowlero Randall Road", "phone": "847-658-2257", "website": "https://www.bowlero.com/location/bowlero-randall-road", "brand": "AMF Bowling Center", "brand:wikidata": "Q4652616"}, "geometry": {"type": "Point", "coordinates": [-88.3323, 42.1519]}},
{"type": "Feature", "id": "1e0-tImLtRov_Qm5SgLd7REo9F4=", "properties": {"ref": "b31fae73-e11d-e611-80c5-005056aa8521", "@spider": "amf_bowling", "addr:full": "10781 Indiana Ave.", "addr:city": "Riverside", "addr:state": "CA", "addr:postcode": "92503", "addr:country": "US", "name": "Bowlero Riverside", "phone": "951-353-2695", "website": "https://www.bowlero.com/location/bowlero-riverside", "brand": "AMF Bowling Center", "brand:wikidata": "Q4652616"}, "geometry": {"type": "Point", "coordinates": [-117.466, 33.9009]}},
{"type": "Feature", "id": "Too9AvLRzbzh1etaY-PFdDKtgBE=", "properties": {"ref": "291fae73-e11d-e611-80c5-005056aa8521", "@spider": "amf_bowling", "addr:full": "735 N. Center Blvd.", "addr:city": "Romeoville", "addr:state": "IL", "addr:postcode": "60446", "addr:country": "US", "name": "Bowlero Romeoville", "phone": "630-378-2695", "website": "https://www.bowlero.com/location/bowlero-romeoville", "brand": "AMF Bowling Center", "brand:wikidata": "Q4652616"}, "geometry": {"type": "Point", "coordinates": [-88.1213, 41.6549]}},
{"type": "Feature", "id": "0OCtSNpMoJR5EEJRJ7SYVOmbbDA=", "properties": {"ref": "a41eae73-e11d-e611-80c5-005056aa8521", "@spider": "amf_bowling", "addr:full": "13307 San Pedro Ave", "addr:city": "San Antonio", "addr:state": "TX", "addr:postcode": "78216", "addr:country": "US", "name": "Bowlero San Antonio", "phone": "210-496-3811", "website": "https://www.bowlero.com/location/bowlero-san-antonio", "brand": "AMF Bowling Center", "brand:wikidata": "Q4652616"}, "geometry": {"type": "Point", "coordinates": [-98.4846, 29.5625]}},
{"type": "Feature", "id": "uSUab4ADCTpTmG61awjfTCbtdFE=", "properties": {"ref": "9b20ae73-e11d-e611-80c5-005056aa8521", "@spider": "amf_bowling", "addr:full": "5420 Thornwood Dr.", "addr:city": "San Jose", "addr:state": "CA", "addr:postcode": "95123", "addr:country": "US", "name": "Bowlero San Jose", "phone": "408-578-8500", "website": "https://www.bowlero.com/location/bowlero-san-jose", "brand": "AMF Bowling Center", "brand:wikidata": "Q4652616"}, "geometry": {"type": "Point", "coordinates": [-121.861, 37.2545]}},
{"type": "Feature", "id": "LxtimmcfE_KmNAP1c_yAj2M0BoM=", "properties": {"ref": "6920ae73-e11d-e611-80c5-005056aa8521", "@spider": "amf_bowling", "addr:full": "945 W. San Marcos Blvd", "addr:city": "San Marcos", "addr:state": "CA", "addr:postcode": "92078", "addr:country": "US", "name": "Bowlero San Marcos", "phone": "760-744-7000", "website": "https://www.bowlero.com/location/bowlero-san-marcos", "brand": "AMF Bowling Center", "brand:wikidata": "Q4652616"}, "geometry": {"type": "Point", "coordinates": [-117.186, 33.134]}},
{"type": "Feature", "id": "bmiHxNDhH-EQhzHBRzF2TGPi348=", "properties": {"ref": "611fae73-e11d-e611-80c5-005056aa8521", "@spider": "amf_bowling", "addr:full": "5660 Sunrise Hwy.", "addr:city": "Sayville", "addr:state": "NY", "addr:postcode": "11782", "addr:country": "US", "name": "Bowlero Sayville", "phone": "631-567-8900", "website": "https://www.bowlero.com/location/bowlero-sayville", "brand": "AMF Bowling Center", "brand:wikidata": "Q4652616"}, "geometry": {"type": "Point", "coordinates": [-73.072071, 40.766]}},
{"type": "Feature", "id": "HnP63jtTk5axJ5YHe3c6pG2GOwU=", "properties": {"ref": "4320ae73-e11d-e611-80c5-005056aa8521", "@spider": "amf_bowling", "addr:full": "405 Boston Turnpike, Route 9", "addr:city": "Shrewsbury", "addr:state": "MA", "addr:postcode": "01545", "addr:country": "US", "name": "Bowlero Shrewsbury", "phone": "508-754-7050", "website": "https://www.bowlero.com/location/bowlero-shrewsbury", "brand": "AMF Bowling Center", "brand:wikidata": "Q4652616"}, "geometry": {"type": "Point", "coordinates": [-71.7287, 42.2768]}},
{"type": "Feature", "id": "3aNl6dz3V6E21NFgDOlkR_Mv44w=", "properties": {"ref": "691fae73-e11d-e611-80c5-005056aa8521", "@spider": "amf_bowling", "addr:full": "8070 Veteran's Memorial Pkwy.", "addr:city": "St. Peters", "addr:state": "MO", "addr:postcode": "63376", "addr:country": "US", "name": "Bowlero St. Peters", "phone": "636-474-2695", "website": "https://www.bowlero.com/location/bowlero-st-peters", "brand": "AMF Bowling Center", "brand:wikidata": "Q4652616"}, "geometry": {"type": "Point", "coordinates": [-90.6699, 38.8017]}},
{"type": "Feature", "id": "_-0B91cgeYEHxwK1ekK_P-XgCfo=", "properties": {"ref": "d71eae73-e11d-e611-80c5-005056aa8521", "@spider": "amf_bowling", "addr:full": "2165 York Rd.", "addr:city": "Timonium", "addr:state": "MD", "addr:postcode": "21093", "addr:country": "US", "name": "Bowlero Timonium", "phone": "(410) 252-3000", "website": "https://www.bowlero.com/location/bowlero-timonium", "brand": "AMF Bowling Center", "brand:wikidata": "Q4652616"}, "geometry": {"type": "Point", "coordinates": [-76.627, 39.445]}},
{"type": "Feature", "id": "wYydxgW_DjBYRWMcuZdMFXNQ1rk=", "properties": {"ref": "ad20ae73-e11d-e611-80c5-005056aa8521", "@spider": "amf_bowling", "addr:full": "21915 S. Western Ave. ", "addr:city": "Torrance", "addr:state": "CA", "addr:postcode": "90501", "addr:country": "US", "name": "Bowlero Torrance", "phone": "310-328-3700", "website": "https://www.bowlero.com/location/bowlero-torrance", "brand": "AMF Bowling Center", "brand:wikidata": "Q4652616"}, "geometry": {"type": "Point", "coordinates": [-118.317, 33.8292]}},
{"type": "Feature", "id": "TfBeCWLEX1ztY9nQd0nSGwedu6E=", "properties": {"ref": "5b1fae73-e11d-e611-80c5-005056aa8521", "@spider": "amf_bowling", "addr:full": "114 S. Camino Seco", "addr:city": "Tucson", "addr:state": "AZ", "addr:postcode": "85710", "addr:country": "US", "name": "Bowlero Tucson", "phone": "520-298-2311", "website": "https://www.bowlero.com/location/bowlero-tucson", "brand": "AMF Bowling Center", "brand:wikidata": "Q4652616"}, "geometry": {"type": "Point", "coordinates": [-110.807, 32.2196]}},
{"type": "Feature", "id": "HndU7I1x7kZLY1pAVNGiBFPAnqU=", "properties": {"ref": "7320ae73-e11d-e611-80c5-005056aa8521", "@spider": "amf_bowling", "addr:full": "1740 W. Caldwell Ave.", "addr:city": "Visalia", "addr:state": "CA", "addr:postcode": "93277", "addr:country": "US", "name": "Bowlero Visalia", "phone": "559-625-2100", "website": "https://www.bowlero.com/location/bowlero-visalia", "brand": "AMF Bowling Center", "brand:wikidata": "Q4652616"}, "geometry": {"type": "Point", "coordinates": [-119.31, 36.2999]}},
{"type": "Feature", "id": "TUmO9O043fhc5QasRxT4NS8tSyA=", "properties": {"ref": "e11fae73-e11d-e611-80c5-005056aa8521", "@spider": "amf_bowling", "addr:full": "299 Paterson Ave.", "addr:city": "Wallington", "addr:state": "NJ", "addr:postcode": "07057", "addr:country": "US", "name": "Bowlero Wallington", "phone": "973-773-9100", "website": "https://www.bowlero.com/location/bowlero-wallington", "brand": "AMF Bowling Center", "brand:wikidata": "Q4652616"}, "geometry": {"type": "Point", "coordinates": [-74.1101, 40.8466]}},
{"type": "Feature", "id": "_npP4Ih_fEcdwAvDlDlw52-m4y0=", "properties": {"ref": "0920ae73-e11d-e611-80c5-005056aa8521", "@spider": "amf_bowling", "addr:full": "11737 West Burleigh St. ", "addr:city": "Wauwatosa", "addr:state": "WI", "addr:postcode": "53222", "addr:country": "US", "name": "Bowlero Wauwatosa", "phone": "414-258-9000", "website": "https://www.bowlero.com/location/bowlero-wauwatosa", "brand": "AMF Bowling Center", "brand:wikidata": "Q4652616"}, "geometry": {"type": "Point", "coordinates": [-88.06, 43.074]}},
{"type": "Feature", "id": "ARPppr8i_VBDOoJJEBtmn35xkkE=", "properties": {"ref": "b120ae73-e11d-e611-80c5-005056aa8521", "@spider": "amf_bowling", "addr:full": "23130 Ventura Blvd.", "addr:city": "Woodland Hills", "addr:state": "CA", "addr:postcode": "91364", "addr:country": "US", "name": "Bowlero Woodland Hills", "phone": "818-225-7181", "website": "https://www.bowlero.com/location/bowlero-woodland-hills", "brand": "AMF Bowling Center", "brand:wikidata": "Q4652616"}, "geometry": {"type": "Point", "coordinates": [-118.629, 34.1631]}},
{"type": "Feature", "id": "7GV154RKiaGT78FoF5yzfN_8e1I=", "properties": {"ref": "a81eae73-e11d-e611-80c5-005056aa8521", "@spider": "amf_bowling", "addr:full": "27000 I-45 North", "addr:city": "Conroe", "addr:state": "TX", "addr:postcode": "77385", "addr:country": "US", "name": "Bowlero The Woodlands", "phone": "281-367-1277", "website": "https://www.bowlero.com/location/bowlero-the-woodlands", "brand": "AMF Bowling Center", "brand:wikidata": "Q4652616"}, "geometry": {"type": "Point", "coordinates": [-95.4483, 30.1581]}},
{"type": "Feature", "id": "fUXmfp6cpwb-O3nvTXEnlBb1n48=", "properties": {"ref": "d51eae73-e11d-e611-80c5-005056aa8521", "@spider": "amf_bowling", "addr:full": "5353 Westbard Ave", "addr:city": "Bethesda", "addr:state": "MD", "addr:postcode": "20816", "addr:country": "US", "name": "Bowlero Bethesda", "phone": "301-652-0955", "website": "https://www.bowlero.com/location/bowlero-bethesda", "brand": "AMF Bowling Center", "brand:wikidata": "Q4652616"}, "geometry": {"type": "Point", "coordinates": [-77.106, 38.9633]}},
{"type": "Feature", "id": "xGJvH_hyb5O1MgLaCQ3qZBDxThQ=", "properties": {"ref": "df1fae73-e11d-e611-80c5-005056aa8521", "@spider": "amf_bowling", "addr:full": "945 S. Kipling Parkway", "addr:city": "Lakewood", "addr:state": "CO", "addr:postcode": "80226", "addr:country": "US", "name": "Bowlero Lakewood", "phone": "303-980-0300", "website": "https://www.bowlero.com/location/bowlero-lakewood", "brand": "AMF Bowling Center", "brand:wikidata": "Q4652616"}, "geometry": {"type": "Point", "coordinates": [-105.112, 39.6987]}},
{"type": "Feature", "id": "x_7lpwQJbjnvqesCzXS_5Q61-8U=", "properties": {"ref": "d71fae73-e11d-e611-80c5-005056aa8521", "@spider": "amf_bowling", "addr:full": "2200 S Peoria St", "addr:city": "Aurora", "addr:state": "CO", "addr:postcode": "80014", "addr:country": "US", "name": "Bowlero Heather Ridge", "phone": "303-750-7045", "website": "https://www.bowlero.com/location/bowlero-heather-ridge", "brand": "AMF Bowling Center", "brand:wikidata": "Q4652616"}, "geometry": {"type": "Point", "coordinates": [-104.846, 39.6767]}},
{"type": "Feature", "id": "ygygW5KnM_2v9Tu_ab_pDTpjfzk=", "properties": {"ref": "bf1fae73-e11d-e611-80c5-005056aa8521", "@spider": "amf_bowling", "addr:full": "675 S. Glendora Ave.", "addr:city": "West Covina", "addr:state": "CA", "addr:postcode": "91790", "addr:country": "US", "name": "Bowlero West Covina", "phone": "626-960-3636", "website": "https://www.bowlero.com/location/bowlero-west-covina", "brand": "AMF Bowling Center", "brand:wikidata": "Q4652616"}, "geometry": {"type": "Point", "coordinates": [-117.93, 34.0643]}},
{"type": "Feature", "id": "rg-FL3GmNDrvFEQ21nCi6kG0wzw=", "properties": {"ref": "db1fae73-e11d-e611-80c5-005056aa8521", "@spider": "amf_bowling", "addr:full": "9751 W. 49th Ave.", "addr:city": "Wheat Ridge", "addr:state": "CO", "addr:postcode": "80033", "addr:country": "US", "name": "Bowlero Wheat Ridge", "phone": "303-425-1601", "website": "https://www.bowlero.com/location/bowlero-wheat-ridge", "brand": "AMF Bowling Center", "brand:wikidata": "Q4652616"}, "geometry": {"type": "Point", "coordinates": [-105.107, 39.7867]}},
{"type": "Feature", "id": "4xXsCCxu6y0VsYAvOMxQucGFNtg=", "properties": {"ref": "f4ce7ba5-8775-e811-80d3-005056bd9ae6", "@spider": "amf_bowling", "addr:full": "1251 E Yosemite Ave.", "addr:city": "Manteca", "addr:state": "CA", "addr:postcode": "95336", "addr:country": "US", "name": "Bowlero Manteca", "phone": "(209) 824-2889", "website": "https://www.bowlero.com/location/bowlero-manteca", "brand": "AMF Bowling Center", "brand:wikidata": "Q4652616"}, "geometry": {"type": "Point", "coordinates": [-121.197345, 37.798736]}},
{"type": "Feature", "id": "RHH5c-ozsS1TkBYyqCGxQLHjjrk=", "properties": {"ref": "17b5c22f-6ea1-e811-80cc-005056bd11fd", "@spider": "amf_bowling", "addr:full": "100 Andover Park West", "addr:city": "Tukwila", "addr:state": "WA", "addr:postcode": "98188", "addr:country": "US", "name": "Bowlero South Seattle", "phone": "206-340-2263", "website": "https://www.bowlero.com/location/bowlero-south-seattle", "brand": "AMF Bowling Center", "brand:wikidata": "Q4652616"}, "geometry": {"type": "Point", "coordinates": [-122.25432, 47.46146]}},
{"type": "Feature", "id": "jHvwdVe8qvfPcEMgTxvxAS0rDIg=", "properties": {"ref": "70d92b2c-6da1-e811-80cc-005056bd11fd", "@spider": "amf_bowling", "addr:full": "400 South Baldwin Ave", "addr:city": "Arcadia", "addr:state": "CA", "addr:postcode": "91007", "addr:country": "US", "name": "Bowlero Arcadia", "phone": "626-264-9750", "website": "https://www.bowlero.com/location/bowlero-arcadia", "brand": "AMF Bowling Center", "brand:wikidata": "Q4652616"}, "geometry": {"type": "Point", "coordinates": [-118.05132, 34.13502]}},
{"type": "Feature", "id": "RvzlgOuNx7jkUPMk47uykEvHtE8=", "properties": {"ref": "a9210438-cca0-e811-80cc-005056bd11fd", "@spider": "amf_bowling", "addr:full": "351 Town Place ", "addr:city": "Fairview", "addr:state": "TX", "addr:postcode": "75069", "addr:country": "US", "name": "Bowlero Fairview", "phone": "972-457-9500", "website": "https://www.bowlero.com/location/bowlero-fairview", "brand": "AMF Bowling Center", "brand:wikidata": "Q4652616"}, "geometry": {"type": "Point", "coordinates": [-96.602569, 33.139318]}},
{"type": "Feature", "id": "k8Vg1IIMQY3ia47JeND8qvNnDBU=", "properties": {"ref": "7e0b73af-4cbc-e811-80cd-ded5b9f1d40a", "@spider": "amf_bowling", "addr:full": "210 E Trade Street D-164", "addr:city": "Charlotte", "addr:state": "NC", "addr:postcode": "28202", "addr:country": "US", "name": "Bowlero Charlotte", "phone": "(704) 716-9300", "website": "https://www.bowlero.com/location/bowlero-charlotte", "brand": "AMF Bowling Center", "brand:wikidata": "Q4652616"}, "geometry": {"type": "Point", "coordinates": [-80.841856, 35.226021]}},
{"type": "Feature", "id": "ZRPHmNmjkoxwKD-yLhCLeMwlv1E=", "properties": {"ref": "f51fae73-e11d-e611-80c5-005056aa8521", "@spider": "amf_bowling", "addr:full": "3754 Genesee St.", "addr:city": "Cheektowaga", "addr:state": "NY", "addr:postcode": "14225", "addr:country": "US", "name": "AMF Airport Lanes", "phone": "716-632-0655", "website": "https://www.amf.com/location/amf-airport-lanes", "brand": "AMF Bowling Center", "brand:wikidata": "Q4652616"}, "geometry": {"type": "Point", "coordinates": [-78.7469, 42.9289]}},
{"type": "Feature", "id": "ylViUsko5QMRoWJpxMrLHeWNxv0=", "properties": {"ref": "c31fae73-e11d-e611-80c5-005056aa8521", "@spider": "amf_bowling", "addr:full": "7545 Brooklyn Blvd.", "addr:city": "Brooklyn Park", "addr:state": "MN", "addr:postcode": "55443", "addr:country": "US", "name": "Bowlero Brooklyn Park", "phone": "763-503-2695", "website": "https://www.bowlero.com/location/bowlero-brooklyn-park", "brand": "AMF Bowling Center", "brand:wikidata": "Q4652616"}, "geometry": {"type": "Point", "coordinates": [-93.3527, 45.0911]}},
{"type": "Feature", "id": "oJcKIyjBYt-7jQ2oCwltIjclS4U=", "properties": {"ref": "974788fb-4abc-e811-80cd-ded5b9f1d40a", "@spider": "amf_bowling", "addr:full": "980 N Colony Rd", "addr:city": "Wallingford", "addr:state": "CT", "addr:postcode": "06492", "addr:country": "US", "name": "Wallingford Bowl", "phone": "203-295-0670", "website": "https://www.bowlero.com/location/wallingford-bowl", "brand": "AMF Bowling Center", "brand:wikidata": "Q4652616"}, "geometry": {"type": "Point", "coordinates": [-72.809742, 41.484154]}},
{"type": "Feature", "id": "FJM3gpeQKWHsV-tsu86Y_TuIpeg=", "properties": {"ref": "e35d59a4-5d10-e911-80db-005056bd9ae6", "@spider": "amf_bowling", "addr:full": "8501 N University Dr", "addr:city": "Tamarac", "addr:state": "FL", "addr:postcode": "33321", "addr:country": "US", "name": "Sawgrass Lanes", "phone": "954-722-2700", "website": "https://www.bowlero.com/location/sawgrass-lanes", "brand": "AMF Bowling Center", "brand:wikidata": "Q4652616"}, "geometry": {"type": "Point", "coordinates": [-80.253921, 26.228258]}},
{"type": "Feature", "id": "MvEdTpxA0rB2TTyzIabCp3Kad0Y=", "properties": {"ref": "7fce501d-6aa1-e811-80cc-005056bd11fd", "@spider": "amf_bowling", "addr:full": "2001 McFarland Blvd E", "addr:city": "Tuscaloosa", "addr:state": "AL", "addr:postcode": "35404", "addr:country": "US", "name": "Bowlero Tuscaloosa", "phone": "205-518-7781", "website": "https://www.bowlero.com/location/bowlero-tuscaloosa", "brand": "AMF Bowling Center", "brand:wikidata": "Q4652616"}, "geometry": {"type": "Point", "coordinates": [-87.52397, 33.19196]}},
{"type": "Feature", "id": "bxaEsKYzYp_iWNmFvQZ03_E1ZQc=", "properties": {"ref": "24eb9bbb-6460-e911-80dc-005056bd9ae6", "@spider": "amf_bowling", "addr:full": "748 Silver Ln", "addr:city": "East Hartford", "addr:state": "CT", "addr:postcode": "06118", "addr:country": "US", "name": "Hall of Fame Silver Lanes", "phone": "(860) 569-2990", "website": "https://www.bowlero.com/location/hall-of-fame-silver-lanes", "brand": "AMF Bowling Center", "brand:wikidata": "Q4652616"}, "geometry": {"type": "Point", "coordinates": [-72.611616, 41.766329]}},
{"type": "Feature", "id": "O0BxOOMoQ27g-WsmGf9qW2WaVBU=", "properties": {"ref": "0ae6d286-c771-e911-80d4-005056bd11fd", "@spider": "amf_bowling", "addr:full": "1130 Broadway", "addr:city": "Seattle", "addr:state": "WA", "addr:postcode": "98122", "addr:country": "US", "name": "Garage Billiards & Bowl", "phone": "206-322-2296", "website": "https://www.bowlero.com/location/garage", "brand": "AMF Bowling Center", "brand:wikidata": "Q4652616"}, "geometry": {"type": "Point", "coordinates": [-122.320286, 47.612375]}},
{"type": "Feature", "id": "gg6P6-_3gUDnkx5FUS0OxdUAY8o=", "properties": {"ref": "6366f4cc-5c7d-e911-80e0-005056bd9ae6", "@spider": "amf_bowling", "addr:full": "1950 S Industrial Hwy", "addr:city": "Ann Arbor", "addr:state": "MI", "addr:postcode": "48104", "addr:country": "US", "name": "Revel & Roll", "phone": "734-665-4474", "website": "https://www.bowlero.com/location/revel-and-roll", "brand": "AMF Bowling Center", "brand:wikidata": "Q4652616"}, "geometry": {"type": "Point", "coordinates": [-83.73844, 42.25908]}},
{"type": "Feature", "id": "iojqAQ0MoCKA6W5ADATCsSdphtY=", "properties": {"ref": "27a5969a-a1df-e911-80d9-005056bd11fd", "@spider": "amf_bowling", "addr:full": "1841 Way Pointe Place", "addr:city": "Dania Beach", "addr:state": "FL", "addr:postcode": "33004", "addr:country": "US", "name": "Bowlero Dania Beach", "phone": "954-374-1935", "website": "https://www.bowlero.com/location/bowlero-dania-beach", "brand": "AMF Bowling Center", "brand:wikidata": "Q4652616"}, "geometry": {"type": "Point", "coordinates": [-80.159925, 26.05499]}},
{"type": "Feature", "id": "VyA_lGuBMP1DiS7UtLaYWpfHwBU=", "properties": {"ref": "23599aa5-d3e6-e911-80e4-005056bd9ae6", "@spider": "amf_bowling", "addr:full": "261 19th Street Suite 1150", "addr:city": "Atlanta", "addr:state": "GA", "addr:postcode": "30363", "addr:country": "US", "name": "Bowlero Atlantic Station", "phone": "(470) 520-7550", "website": "https://www.bowlero.com/location/bowlero-atlantic-station", "brand": "AMF Bowling Center", "brand:wikidata": "Q4652616"}, "geometry": {"type": "Point", "coordinates": [-84.39623, 33.7938]}},
{"type": "Feature", "id": "BvhfWf1rYpZs4DJYIdw-D3BZvYM=", "properties": {"ref": "e32756e8-5548-ea11-80e7-005056bd9ae6", "@spider": "amf_bowling", "addr:full": "320 South 23rd St S.", "addr:city": "Arlington", "addr:state": "VA", "addr:postcode": "22202", "addr:country": "US", "name": "Bowlero Arlington", "phone": "(703)-418-6187", "website": "https://www.bowlero.com/location/bowlero-arlington", "brand": "AMF Bowling Center", "brand:wikidata": "Q4652616"}, "geometry": {"type": "Point", "coordinates": [-77.05137, 38.85275]}},
{"type": "Feature", "id": "m7HO56Q9ba1NuktbKJiN_Coq-a4=", "properties": {"ref": "da4f2533-a21f-eb11-80ce-005056820081", "@spider": "amf_bowling", "addr:full": "21046 Commercial Trail", "addr:city": "Boca Raton", "addr:state": "FL", "addr:postcode": "33486", "addr:country": "US", "name": "Bowlero Boca Raton", "phone": "561-237-0322", "website": "https://www.bowlero.com/location/bowlero-boca-raton", "brand": "AMF Bowling Center", "brand:wikidata": "Q4652616"}, "geometry": {"type": "Point", "coordinates": [-80.125306, 26.364342]}},
{"type": "Feature", "id": "bCZ6LL97S-w2AEMFH-nQTU4khVI=", "properties": {"ref": "65a8d20d-32ad-eb11-80fb-005056bd9ae6", "@spider": "amf_bowling", "addr:full": "5925 Calle Real", "addr:city": "Goleta", "addr:state": "CA", "addr:postcode": "93117", "addr:country": "US", "name": "Zodo's Bowling & Beyond", "phone": "805-967-0128", "website": "https://www.bowlero.com/location/zodos-bowling-beyond", "brand": "AMF Bowling Center", "brand:wikidata": "Q4652616"}, "geometry": {"type": "Point", "coordinates": [-119.828717, 34.440599]}},
{"type": "Feature", "id": "hDVT95YB-oIKQYC45veuPozvgmc=", "properties": {"ref": "4d317d73-d4bf-eb11-80ef-005056bd11fd", "@spider": "amf_bowling", "addr:full": "5000 Balfour Rd", "addr:city": "Brentwood", "addr:state": "CA", "addr:postcode": "94513", "addr:country": "US", "name": "Bowlero Brentwood", "phone": "925-516-1221", "website": "https://www.bowlero.com/location/bowlero-brentwood", "brand": "AMF Bowling Center", "brand:wikidata": "Q4652616"}, "geometry": {"type": "Point", "coordinates": [-121.68746, 37.92495]}},
{"type": "Feature", "id": "Rdr_uVfx1fnI5ZuBFn67e1teU9s=", "properties": {"ref": "a1f1539b-9fe9-eb11-80fe-005056bd9ae6", "@spider": "amf_bowling", "addr:full": "3190 Shillington Rd", "addr:city": "Sinking Spring", "addr:state": "PA", "addr:postcode": "19608", "addr:country": "US", "name": "Berks Lanes", "phone": "(610) 678-8044", "website": "https://www.bowlero.com/location/berks-lanes", "brand": "AMF Bowling Center", "brand:wikidata": "Q4652616"}, "geometry": {"type": "Point", "coordinates": [-76.011414, 40.321791]}},
{"type": "Feature", "id": "UuSSP_5198zB6xLO8yQrsfI0ncU=", "properties": {"ref": "eabebd1b-aecf-eb11-80fd-005056bd9ae6", "@spider": "amf_bowling", "addr:full": "10641 Balls Ford Rd", "addr:city": "Manassas", "addr:state": "VA", "addr:postcode": "20109", "addr:country": "US", "name": "Bowl America Bull Run", "phone": "703-368-6256", "website": "https://www.bowlero.com/location/bowl-america-bull-run", "brand": "AMF Bowling Center", "brand:wikidata": "Q4652616"}, "geometry": {"type": "Point", "coordinates": [-77.515315, 38.798465]}},
{"type": "Feature", "id": "CME0ko3q8RNiBGiO0-3yTu4TecY=", "properties": {"ref": "d1ce1926-adcf-eb11-80fd-005056bd9ae6", "@spider": "amf_bowling", "addr:full": "5615 Guinea Rd", "addr:city": "Burke", "addr:state": "VA", "addr:postcode": "22015", "addr:country": "US", "name": "Bowl America Burke", "phone": "703-425-9303", "website": "https://www.bowlero.com/location/bowl-america-burke", "brand": "AMF Bowling Center", "brand:wikidata": "Q4652616"}, "geometry": {"type": "Point", "coordinates": [-77.293881, 38.798752]}},
{"type": "Feature", "id": "8ogX-KeUWqZ-weZcyTHqVVCE6xg=", "properties": {"ref": "06ed2f44-aacf-eb11-80fd-005056bd9ae6", "@spider": "amf_bowling", "addr:full": "4525 Stonecroft Boulevard", "addr:city": "Chantilly", "addr:state": "VA", "addr:postcode": "20151", "addr:country": "US", "name": "Bowl America Chantilly", "phone": "703-830-2695", "website": "https://www.bowlero.com/location/bowl-america-chantilly", "brand": "AMF Bowling Center", "brand:wikidata": "Q4652616"}, "geometry": {"type": "Point", "coordinates": [-77.462485, 38.891148]}},
{"type": "Feature", "id": "N4dDj-gNC6N26dwgqZs8mREM9Pg=", "properties": {"ref": "0d2a9a6d-accf-eb11-80fd-005056bd9ae6", "@spider": "amf_bowling", "addr:full": "46940 Woodson Dr", "addr:city": "Sterling", "addr:state": "VA", "addr:postcode": "20164", "addr:country": "US", "name": "Bowl America Dranesville", "phone": "703-430-1350", "website": "https://www.bowlero.com/location/bowl-america-dranesville", "brand": "AMF Bowling Center", "brand:wikidata": "Q4652616"}, "geometry": {"type": "Point", "coordinates": [-77.375175, 39.010842]}},
{"type": "Feature", "id": "IK8nwNfOJT_vAgUvu0mgrvD6GK4=", "properties": {"ref": "287d7425-b1cf-eb11-80d9-005056820081", "@spider": "amf_bowling", "addr:full": "5018 Williamsburg Road", "addr:city": "Richmond", "addr:state": "VA", "addr:postcode": "23231", "addr:country": "US", "name": "Bowl America Eastern Richmond", "website": "https://www.bowlero.com/location/bowl-america-eastern-richmond", "brand": "AMF Bowling Center", "brand:wikidata": "Q4652616"}, "geometry": {"type": "Point", "coordinates": [-77.34532, 37.518193]}},
{"type": "Feature", "id": "S8dGGFEeAhj4B_rMIg1qsu_U1Xg=", "properties": {"ref": "09729cb0-a9cf-eb11-80fd-005056bd9ae6", "@spider": "amf_bowling", "addr:full": "140 S Maple Ave.", "addr:city": "Falls Church", "addr:state": "VA", "addr:postcode": "22046", "addr:country": "US", "name": "Bowl America Falls Church", "phone": "703-534-1370", "website": "https://www.bowlero.com/location/bowl-america-falls-church", "brand": "AMF Bowling Center", "brand:wikidata": "Q4652616"}, "geometry": {"type": "Point", "coordinates": [-77.174434, 38.882237]}},
{"type": "Feature", "id": "uk0MPR5-aStCpI44pdZkiK6h2Aw=", "properties": {"ref": "dbc36bfc-a9cf-eb11-80fd-005056bd9ae6", "@spider": "amf_bowling", "addr:full": "9699 Lee Hwy", "addr:city": "Fairfax", "addr:state": "VA", "addr:postcode": "22031", "addr:country": "US", "name": "Bowl America Fairfax", "phone": "703-273-7700", "website": "https://www.bowlero.com/location/bowl-america-fairfax", "brand": "AMF Bowling Center", "brand:wikidata": "Q4652616"}, "geometry": {"type": "Point", "coordinates": [-77.278924, 38.863243]}},
{"type": "Feature", "id": "LUG_Afvj9yrfyxCnMjdU4Z_Ag6g=", "properties": {"ref": "d60cfece-adcf-eb11-80fd-005056bd9ae6", "@spider": "amf_bowling", "addr:full": "1101 Clopper Rd", "addr:city": "Gaithersburg", "addr:state": "MD", "addr:postcode": "20878", "addr:country": "US", "name": "Bowl America Gaithersburg", "phone": "301-330-5200", "website": "https://www.bowlero.com/location/bowl-america-gaithersburg", "brand": "AMF Bowling Center", "brand:wikidata": "Q4652616"}, "geometry": {"type": "Point", "coordinates": [-77.229569, 39.147832]}},
{"type": "Feature", "id": "suBeJqr9Du-7Wc4q0YdHe-wzWIA=", "properties": {"ref": "82dc00e2-aecf-eb11-80fd-005056bd9ae6", "@spider": "amf_bowling", "addr:full": "10333 San jose Blvd", "addr:city": "Jacksonville", "addr:state": "FL", "addr:postcode": "32257", "addr:country": "US", "name": "Bowl America Mandarin", "phone": "904-268-1511", "website": "https://www.bowlero.com/location/bowl-america-mandarin", "brand": "AMF Bowling Center", "brand:wikidata": "Q4652616"}, "geometry": {"type": "Point", "coordinates": [-81.62526, 30.19113]}},
{"type": "Feature", "id": "S9tp74Jm1XkxQtx8vy_OFeyTG8Y=", "properties": {"ref": "0caae76e-b1cf-eb11-80d9-005056820081", "@spider": "amf_bowling", "addr:full": "7929 Midlothian Tpk", "addr:city": "Richmond", "addr:state": "VA", "addr:postcode": "23235", "addr:country": "US", "name": "Bowl America Midlothian", "website": "https://www.bowlero.com/location/bowl-america-midlothian", "brand": "AMF Bowling Center", "brand:wikidata": "Q4652616"}, "geometry": {"type": "Point", "coordinates": [-77.543641, 37.49663]}},
{"type": "Feature", "id": "OpleRNCPM4hiBTWmz9djPTC1ozs=", "properties": {"ref": "7c7aded2-accf-eb11-80fd-005056bd9ae6", "@spider": "amf_bowling", "addr:full": "4400 Pouncey Tract Rd.", "addr:city": "Glen Allen", "addr:state": "VA", "addr:postcode": "23058", "addr:country": "US", "name": "Bowl America Short Pump", "phone": "804-360-8222", "website": "https://www.bowlero.com/location/bowl-america-short-pump", "brand": "AMF Bowling Center", "brand:wikidata": "Q4652616"}, "geometry": {"type": "Point", "coordinates": [-77.63618, 37.705761]}},
{"type": "Feature", "id": "d_AG3VVQWkU4yNstRNd-bMW46dg=", "properties": {"ref": "e61cae5b-a9cf-eb11-80fd-005056bd9ae6", "@spider": "amf_bowling", "addr:full": "6450 Edsal Rd", "addr:city": "Alexandria", "addr:state": "VA", "addr:postcode": "22312", "addr:country": "US", "name": "Bowl America Shirley", "phone": "703-354-3300", "website": "https://www.bowlero.com/location/bowl-america-shirley", "brand": "AMF Bowling Center", "brand:wikidata": "Q4652616"}, "geometry": {"type": "Point", "coordinates": [-77.160545, 38.803166]}},
{"type": "Feature", "id": "L9LI7trx33Lry1HWXsP5ctgMafA=", "properties": {"ref": "3505d024-afcf-eb11-80fd-005056bd9ae6", "@spider": "amf_bowling", "addr:full": "11141 Beach Blvd", "addr:city": "Jacksonville", "addr:state": "FL", "addr:postcode": "32216", "addr:country": "US", "name": "Bowl America Southside", "phone": "904-642-0460", "website": "https://www.bowlero.com/location/bowl-america-southside", "brand": "AMF Bowling Center", "brand:wikidata": "Q4652616"}, "geometry": {"type": "Point", "coordinates": [-81.53072, 30.28771]}},
{"type": "Feature", "id": "ECGFh19cgxF794xeERVTJnLfVbE=", "properties": {"ref": "19a07492-aacf-eb11-80fd-005056bd9ae6", "@spider": "amf_bowling", "addr:full": "13409 Occoquan Road", "addr:city": "Woodbridge", "addr:state": "VA", "addr:postcode": "22191", "addr:country": "US", "name": "Bowl America Woodbridge", "phone": "703-494-9191", "website": "https://www.bowlero.com/location/bowl-america-woodbridge", "brand": "AMF Bowling Center", "brand:wikidata": "Q4652616"}, "geometry": {"type": "Point", "coordinates": [-77.250853, 38.661867]}},
{"type": "Feature", "id": "Qm4_HeIFtB2gczFpKHTB4OeS5SM=", "properties": {"ref": "d6f10865-adcf-eb11-80fd-005056bd9ae6", "@spider": "amf_bowling", "addr:full": "11532 Hull Street Road", "addr:city": "Midlothian", "addr:state": "VA", "addr:postcode": "23112", "addr:country": "US", "name": "Bowl America Southwest", "phone": "804-744-1500", "website": "https://www.bowlero.com/location/bowl-america-southwest", "brand": "AMF Bowling Center", "brand:wikidata": "Q4652616"}, "geometry": {"type": "Point", "coordinates": [-77.606053, 37.436634]}},
{"type": "Feature", "id": "1LLPOQ2y_TgkXNJwKlrCUrEcMQE=", "properties": {"ref": "07e54de8-9fe9-eb11-80fe-005056bd9ae6", "@spider": "amf_bowling", "addr:full": "653 W Ridge Pike", "addr:city": "Limerick", "addr:state": "PA", "addr:postcode": "19468", "addr:country": "US", "name": "Limerick Bowl", "phone": "610-495-7143", "website": "https://www.bowlero.com/location/limerick-bowl", "brand": "AMF Bowling Center", "brand:wikidata": "Q4652616"}, "geometry": {"type": "Point", "coordinates": [-75.542853, 40.239375]}},
{"type": "Feature", "id": "cyPefmYBCPlrTHkLwEB9bUIX6bM=", "properties": {"ref": "31d34e34-a0e9-eb11-80fe-005056bd9ae6", "@spider": "amf_bowling", "addr:full": "801 Hiesters Ln", "addr:city": "Reading", "addr:state": "PA", "addr:postcode": "19605", "addr:country": "US", "name": "Hiester Lanes", "phone": "(610) 929-3673", "website": "https://www.bowlero.com/location/hiester-lanes", "brand": "AMF Bowling Center", "brand:wikidata": "Q4652616"}, "geometry": {"type": "Point", "coordinates": [-75.921069, 40.366691]}},
{"type": "Feature", "id": "94U3iVOZ484lGjTCr9XtB0S6oDw=", "properties": {"ref": "2d4c9be3-c215-ec11-b813-00505682f25e", "@spider": "amf_bowling", "addr:full": "1700 Montford Dr", "addr:city": "Charlotte", "addr:state": "NC", "addr:postcode": "28209", "addr:country": "US", "name": "10 Park Lanes", "phone": "704-523-7633", "website": "https://www.bowlero.com/location/10-park-lanes", "brand": "AMF Bowling Center", "brand:wikidata": "Q4652616"}, "geometry": {"type": "Point", "coordinates": [-80.847587, 35.17054]}},
{"type": "Feature", "id": "LBBi1iZ6EpDXOlFLgCKZ_V_Fgig=", "properties": {"ref": "6b83601e-e501-ec11-80dd-00505682298e", "@spider": "amf_bowling", "addr:full": "601 Collection BLVD, Suite 1175", "addr:city": "Oxnard", "addr:state": "CA", "addr:postcode": "93036", "addr:country": "US", "name": "Bowlero Oxnard", "phone": "805-288-8953", "website": "https://www.bowlero.com/location/bowlero-oxnard", "brand": "AMF Bowling Center", "brand:wikidata": "Q4652616"}, "geometry": {"type": "Point", "coordinates": [-119.177085, 34.241201]}},
{"type": "Feature", "id": "6Dk7UPSVjMUoZJfFjElcPRUM2tI=", "properties": {"ref": "04bc497f-e501-ec11-80dd-00505682298e", "@spider": "amf_bowling", "addr:full": "2001 International Drive Suite 1695G", "addr:city": "Mclean", "addr:state": "VA", "addr:postcode": "22102", "addr:country": "US", "name": "Bowlero Tysons", "phone": "571-533-3939", "website": "https://www.bowlero.com/location/bowlero-tysons", "brand": "AMF Bowling Center", "brand:wikidata": "Q4652616"}, "geometry": {"type": "Point", "coordinates": [-77.22336, 38.91852]}},
{"type": "Feature", "id": "6Wyy3Upz5IlVdZtTn_vpQ_yCXX0=", "properties": {"ref": "8a3330f6-0238-ec11-b813-005056822c8b", "@spider": "amf_bowling", "addr:full": "155 Browns Valley Pkwy", "addr:city": "Vacaville", "addr:state": "CA", "addr:postcode": "95688", "addr:country": "US", "name": "Bowlero Vacaville", "phone": "707-455-7827", "website": "https://www.bowlero.com/location/bowlero-vacaville", "brand": "AMF Bowling Center", "brand:wikidata": "Q4652616"}, "geometry": {"type": "Point", "coordinates": [-121.966919, 38.366439]}},
{"type": "Feature", "id": "zPFiq5aCzSLWpBh_Lb_nA4Igcuo=", "properties": {"ref": "e8ffbf49-0338-ec11-b813-005056822c8b", "@spider": "amf_bowling", "addr:full": "3447 Commercial Way", "addr:city": "Spring Hill", "addr:state": "FL", "addr:postcode": "34606", "addr:country": "US", "name": "Spring Hill Lanes", "phone": "352-683-7272", "website": "https://www.bowlero.com/location/spring-hill-lanes", "brand": "AMF Bowling Center", "brand:wikidata": "Q4652616"}, "geometry": {"type": "Point", "coordinates": [-82.608422, 28.482796]}},
{"type": "Feature", "id": "zT3g1ckDpmW5EtOp8fpsh8eDoqU=", "properties": {"ref": "2b400c79-0238-ec11-b813-005056822c8b", "@spider": "amf_bowling", "addr:full": "1600 NW Courtyard Cir.", "addr:city": "Port St. Lucie", "addr:state": "FL", "addr:postcode": "34986", "addr:country": "US", "name": "SuperPlay", "phone": "772-800-7328", "website": "https://www.bowlero.com/location/superplay", "brand": "AMF Bowling Center", "brand:wikidata": "Q4652616"}, "geometry": {"type": "Point", "coordinates": [-80.409, 27.315248]}},
{"type": "Feature", "id": "VvBriYQt6T5QeENKmXnBzf_-dSk=", "properties": {"ref": "91565a83-e4bf-ec11-b821-00505682f25e", "@spider": "amf_bowling", "addr:full": "7715 W Gulf to Lake Hwy", "addr:city": "Crystal River", "addr:state": "FL", "addr:postcode": "34429", "addr:country": "US", "name": "Manatee Lanes", "phone": "352-220-6452", "website": "https://www.bowlero.com/location/manatee-lanes", "brand": "AMF Bowling Center", "brand:wikidata": "Q4652616"}, "geometry": {"type": "Point", "coordinates": [-82.563036, 28.897525]}},
{"type": "Feature", "id": "QQrmBu4cizAAVBBs09Cqw_kmAvs=", "properties": {"ref": "40d9dd28-7ac5-ec11-b828-00505682f134", "@spider": "amf_bowling", "addr:full": "10685 Westminster Blvd", "addr:city": "Westminster", "addr:state": "CO", "addr:postcode": "80020", "addr:country": "US", "name": "Bowlero Promenade", "phone": "303-466-7515", "website": "https://www.bowlero.com/location/bowlero-promenade", "brand": "AMF Bowling Center", "brand:wikidata": "Q4652616"}, "geometry": {"type": "Point", "coordinates": [-105.072799, 39.890894]}},
{"type": "Feature", "id": "gkNfjZu8zg4tdyjpOKXNxpspyT8=", "properties": {"ref": "0e1823ff-50e3-ec11-b82a-00505682f134", "@spider": "amf_bowling", "addr:full": "3232 N Rock Road", "addr:city": "Wichita", "addr:state": "KS", "addr:postcode": "67226", "addr:country": "US", "name": "Northrock Lanes", "phone": "316-636-5444", "website": "https://www.bowlero.com/location/northrock-lanes", "brand": "AMF Bowling Center", "brand:wikidata": "Q4652616"}, "geometry": {"type": "Point", "coordinates": [-97.242428, 37.740514]}},
{"type": "Feature", "id": "UxeFqm9H2mwtKu6ks4Md5VmuBV4=", "properties": {"ref": "15c7e706-52e3-ec11-b82a-00505682f134", "@spider": "amf_bowling", "addr:full": "11413 E 13th St N", "addr:city": "Wichita", "addr:state": "KS", "addr:postcode": "67206", "addr:country": "US", "name": "The Alley Indoor Entertainment", "phone": "316-618-1000", "website": "https://www.bowlero.com/location/the-alley-indoor-entertainment", "brand": "AMF Bowling Center", "brand:wikidata": "Q4652616"}, "geometry": {"type": "Point", "coordinates": [-97.204457, 37.705862]}},
{"type": "Feature", "id": "MfBd-XukdqM4Ab-NESbWOFBeR_I=", "properties": {"ref": "c6830c7e-51e3-ec11-b82a-00505682f134", "@spider": "amf_bowling", "addr:full": "749 N Ridge Rd", "addr:city": "Wichita", "addr:state": "KS", "addr:postcode": "67212", "addr:country": "US", "name": "West Acres Bowling Center", "phone": "316-722-5211", "website": "https://www.bowlero.com/location/west-acres-bowling-center", "brand": "AMF Bowling Center", "brand:wikidata": "Q4652616"}, "geometry": {"type": "Point", "coordinates": [-97.427485, 37.695955]}},
{"type": "Feature", "id": "Gv5AADNpiLz7G0k3cI5UMdbcFQ4=", "properties": {"ref": "125032f8-b809-ed11-b82d-00505682f134", "@spider": "amf_bowling", "addr:full": "1010 Austin Ave", "addr:city": "Georgetown", "addr:state": "TX", "addr:postcode": "78626", "addr:country": "US", "name": "Mel's Lone Star", "phone": "512-930-2200", "website": "https://www.bowlero.com/location/mels-lone-star", "brand": "AMF Bowling Center", "brand:wikidata": "Q4652616"}, "geometry": {"type": "Point", "coordinates": [-97.675917, 30.652554]}},
{"type": "Feature", "id": "ljYyHQX7HYlechrLz8PUUedxqaM=", "properties": {"ref": "e51bcf5e-6a28-ed11-b827-005056822c8b", "@spider": "amf_bowling", "addr:full": "890 Avenida Central", "addr:city": "Lady Lake", "addr:state": "FL", "addr:postcode": "32159", "addr:country": "US", "name": "Fiesta Bowl", "phone": "352-753-2747", "website": "https://www.bowlero.com/location/fiesta-bowl", "brand": "AMF Bowling Center", "brand:wikidata": "Q4652616"}, "geometry": {"type": "Point", "coordinates": [-81.942026, 28.935485]}},
{"type": "Feature", "id": "9POhKcuLYe9AkNKgBq88bBAtA4s=", "properties": {"ref": "b2cdc3f2-6a28-ed11-b827-005056822c8b", "@spider": "amf_bowling", "addr:full": "997 Alvarez", "addr:city": "The Villages", "addr:state": "FL", "addr:postcode": "32159", "addr:country": "US", "name": "Spanish Springs Lanes", "phone": "352-750-9440", "website": "https://www.bowlero.com/location/spanish-springs-lanes", "brand": "AMF Bowling Center", "brand:wikidata": "Q4652616"}, "geometry": {"type": "Point", "coordinates": [-81.949585, 28.939801]}},
{"type": "Feature", "id": "ovev7zdH76KeOVXgf0oZPVUa-XA=", "properties": {"ref": "cc79867f-4f38-ed11-b82e-005056826b26", "@spider": "amf_bowling", "addr:full": "5681 Lonetree Blvd", "addr:city": "Rocklin", "addr:state": "CA", "addr:postcode": "95765", "addr:country": "US", "name": "Strikes Unlimited", "phone": "916-626-3600", "website": "https://www.bowlero.com/location/strikes-unlimited", "brand": "AMF Bowling Center", "brand:wikidata": "Q4652616"}, "geometry": {"type": "Point", "coordinates": [-121.289004, 38.812533]}},
{"type": "Feature", "id": "HKfQuyNr7KSNwbEgRPxvyZeVzMU=", "properties": {"ref": "7f397770-972f-ed11-b82f-00505682f134", "@spider": "amf_bowling", "addr:full": "1900 Madison Ave", "addr:city": "Council Bluffs", "addr:state": "IA", "addr:postcode": "51503", "addr:country": "US", "name": "Thunderbowl", "phone": "(712) 328-2374", "website": "https://www.bowlero.com/location/thunderbowl", "brand": "AMF Bowling Center", "brand:wikidata": "Q4652616"}, "geometry": {"type": "Point", "coordinates": [-95.827552, 41.242513]}},
{"type": "Feature", "id": "AEwAKlFivD3qtWhCZtslW1uog5U=", "properties": {"ref": "6b014157-703e-ed11-b828-005056822c8b", "@spider": "amf_bowling", "addr:full": "1330 Midway Rd", "addr:city": "Menasha", "addr:state": "WI", "addr:postcode": "54952", "addr:country": "US", "name": "Sabre Lanes", "phone": "920-739-9161", "website": "https://www.bowlero.com/location/sabre-lanes", "brand": "AMF Bowling Center", "brand:wikidata": "Q4652616"}, "geometry": {"type": "Point", "coordinates": [-88.419929, 44.23117]}},
{"type": "Feature", "id": "K4s8LfAXSGJm1C_-p9RrLbdq-Ds=", "properties": {"ref": "0ebe465a-501a-ed11-b825-005056822c8b", "@spider": "amf_bowling", "addr:full": "222 E. Northland Ave", "addr:city": "Appleton", "addr:state": "WI", "addr:postcode": "54911", "addr:country": "US", "name": "Super Bowl Family Entertainment Center", "phone": "920-739-9503", "website": "https://www.bowlero.com/location/super-bowl-family-entertainment-center", "brand": "AMF Bowling Center", "brand:wikidata": "Q4652616"}, "geometry": {"type": "Point", "coordinates": [-88.403075, 44.287937]}},
{"type": "Feature", "id": "TKOzSnCJ0MOnGYg_GrD8liNl-Eg=", "properties": {"ref": "46b8838e-4f1a-ed11-b825-005056822c8b", "@spider": "amf_bowling", "addr:full": "4040 S 27th St", "addr:city": "Milwaukee", "addr:state": "WI", "addr:postcode": "53221", "addr:country": "US", "name": "JB's on 41", "phone": "414-281-8200", "website": "https://www.bowlero.com/location/jbs-41", "brand": "AMF Bowling Center", "brand:wikidata": "Q4652616"}, "geometry": {"type": "Point", "coordinates": [-87.94728, 42.97102]}},
{"type": "Feature", "id": "AWowcavstsFuG3Pcrs30_i-O9yc=", "properties": {"ref": "2a6df9b3-ae5a-ed11-b82a-005056822c8b", "@spider": "amf_bowling", "addr:full": "20902 Cumberland Dr", "addr:city": "Omaha", "addr:state": "NE", "addr:postcode": "68022", "addr:country": "US", "name": "The Mark", "phone": "402-289-4614", "website": "https://www.bowlero.com/location/the-mark", "brand": "AMF Bowling Center", "brand:wikidata": "Q4652616"}, "geometry": {"type": "Point", "coordinates": [-96.242052, 41.267931]}}]}