{"type":"FeatureCollection","features":[{"type": "Feature", "id": "T30-ARI6ziRn9ZQ4prHBuemlZN8=", "properties": {"ref": "310-daniel-webster-highway", "@spider": "anntaylor", "clothes": "women", "shop": "clothes", "addr:full": "310 Daniel Webster Highway", "addr:city": "Nashua,", "addr:state": "New Hampshire", "addr:postcode": "03060", "name": "Ann Taylor", "phone": "(603) 891-0050", "website": "https://stores.anntaylor.com/nh/nashua/310-daniel-webster-highway.html", "brand": "Ann Taylor", "brand:wikidata": "Q4766699", "nsi_id": "anntaylor-0615dc"}, "geometry": {"type": "Point", "coordinates": [-71.4369001, 42.7011072]}},
{"type": "Feature", "id": "f_to9GZnFuTMMVFo3UB6ZXc8C4Y=", "properties": {"ref": "120-regency-parkway", "@spider": "anntaylor", "clothes": "women", "shop": "clothes", "addr:full": "120 Regency Parkway", "addr:city": "Omaha,", "addr:state": "Nebraska", "addr:postcode": "68114", "name": "Ann Taylor", "phone": "(402) 390-9002", "website": "https://stores.anntaylor.com/ne/omaha/120-regency-parkway.html", "brand": "Ann Taylor", "brand:wikidata": "Q4766699", "nsi_id": "anntaylor-0615dc"}, "geometry": {"type": "Point", "coordinates": [-96.0710635, 41.2594735]}},
{"type": "Feature", "id": "SVdkL9vPq_4wrgcyMcrhvNFxwpI=", "properties": {"ref": "6191-s-state-street", "@spider": "anntaylor", "clothes": "women", "shop": "clothes", "addr:full": "6191 S State Street", "addr:city": "Murray,", "addr:state": "Utah", "addr:postcode": "84107", "name": "Ann Taylor", "phone": "(801) 268-1550", "website": "https://stores.anntaylor.com/ut/murray/6191-s-state-street.html", "brand": "Ann Taylor", "brand:wikidata": "Q4766699", "nsi_id": "anntaylor-0615dc"}, "geometry": {"type": "Point", "coordinates": [-111.8874474, 40.6364736]}},
{"type": "Feature", "id": "XO1Wfy6wHsMRjhcNS1Sr6JrpJM4=", "properties": {"ref": "2660-ne-village-lane", "@spider": "anntaylor", "clothes": "women", "shop": "clothes", "addr:full": "2660 NE Village Lane", "addr:city": "Seattle,", "addr:state": "Washington", "addr:postcode": "98105", "name": "Ann Taylor", "phone": "(206) 527-6101", "website": "https://stores.anntaylor.com/wa/seattle/2660-ne-village-lane.html", "brand": "Ann Taylor", "brand:wikidata": "Q4766699", "nsi_id": "anntaylor-0615dc"}, "geometry": {"type": "Point", "coordinates": [-122.2985237, 47.6624563]}},
{"type": "Feature", "id": "IL169wrVyf_zmc6-xmPJAzL5oKA=", "properties": {"ref": "8701-keystone-crossing", "@spider": "anntaylor", "clothes": "women", "shop": "clothes", "addr:full": "8701 Keystone Crossing", "addr:city": "Indianapolis,", "addr:state": "Indiana", "addr:postcode": "46240", "name": "Ann Taylor", "phone": "(317) 574-9445", "website": "https://stores.anntaylor.com/in/indianapolis/8701-keystone-crossing.html", "brand": "Ann Taylor", "brand:wikidata": "Q4766699", "nsi_id": "anntaylor-0615dc"}, "geometry": {"type": "Point", "coordinates": [-86.1093251, 39.9144913]}},
{"type": "Feature", "id": "rN8EftOrdbU1mhY2d1V8jrLyL-4=", "properties": {"ref": "3301-veterans-memorial-blvd", "@spider": "anntaylor", "clothes": "women", "shop": "clothes", "addr:full": "3301 Veterans Memorial Blvd", "addr:city": "Metairie,", "addr:state": "Louisiana", "addr:postcode": "70002", "name": "Ann Taylor", "phone": "(504) 835-1127", "website": "https://stores.anntaylor.com/la/metairie/3301-veterans-memorial-blvd.html", "brand": "Ann Taylor", "brand:wikidata": "Q4766699", "nsi_id": "anntaylor-0615dc"}, "geometry": {"type": "Point", "coordinates": [-90.158611, 30.008712]}},
{"type": "Feature", "id": "hDqkkxok6L6fhqbDfhWMK3WE4r4=", "properties": {"ref": "9546-sw-washington-square-rd", "@spider": "anntaylor", "clothes": "women", "shop": "clothes", "addr:full": "9546 SW Washington Square Rd", "addr:city": "Tigard,", "addr:state": "Oregon", "addr:postcode": "97223", "name": "Ann Taylor", "phone": "(503) 639-4233", "website": "https://stores.anntaylor.com/or/tigard/9546-sw-washington-square-rd.html", "brand": "Ann Taylor", "brand:wikidata": "Q4766699", "nsi_id": "anntaylor-0615dc"}, "geometry": {"type": "Point", "coordinates": [-122.78146674083082, 45.44984183791986]}},
{"type": "Feature", "id": "pePYPgbjmFq58B8hsz5r9AM6K8E=", "properties": {"ref": "8401-park-meadows-center-dr", "@spider": "anntaylor", "clothes": "women", "shop": "clothes", "addr:full": "8401 Park Meadows Center Dr", "addr:city": "Lone Tree,", "addr:state": "Colorado", "addr:postcode": "80124", "name": "Ann Taylor", "phone": "(303) 706-1334", "website": "https://stores.anntaylor.com/co/lone-tree/8401-park-meadows-center-dr.html", "brand": "Ann Taylor", "brand:wikidata": "Q4766699", "nsi_id": "anntaylor-0615dc"}, "geometry": {"type": "Point", "coordinates": [-104.876439, 39.562342]}},
{"type": "Feature", "id": "hSac_dz-rm6Ilo6PXeDFZxFrG3k=", "properties": {"ref": "2126-abbot-martin-road", "@spider": "anntaylor", "clothes": "women", "shop": "clothes", "addr:full": "2126 Abbot Martin Road", "addr:city": "Nashville,", "addr:state": "Tennessee", "addr:postcode": "37215", "name": "Ann Taylor", "phone": "(615) 383-6229", "website": "https://stores.anntaylor.com/tn/nashville/2126-abbot-martin-road.html", "brand": "Ann Taylor", "brand:wikidata": "Q4766699", "nsi_id": "anntaylor-0615dc"}, "geometry": {"type": "Point", "coordinates": [-86.815544, 36.106886]}},
{"type": "Feature", "id": "T6nNvdQuF-FHu5ar12WQ5ULezag=", "properties": {"ref": "2500-n-mayfair-road", "@spider": "anntaylor", "clothes": "women", "shop": "clothes", "addr:full": "2500 N Mayfair Road", "addr:city": "Wauwatosa,", "addr:state": "Wisconsin", "addr:postcode": "53226", "name": "Ann Taylor", "phone": "(414) 774-9222", "website": "https://stores.anntaylor.com/wi/wauwatosa/2500-n-mayfair-road.html", "brand": "Ann Taylor", "brand:wikidata": "Q4766699", "nsi_id": "anntaylor-0615dc"}, "geometry": {"type": "Point", "coordinates": [-88.044421, 43.064733]}},
{"type": "Feature", "id": "qUafNhX2XS4jTgSF1i6ruK66qME=", "properties": {"ref": "11800-west-broad-street", "@spider": "anntaylor", "clothes": "women", "shop": "clothes", "addr:full": "11800 West Broad Street", "addr:city": "Henrico,", "addr:state": "Virginia", "addr:postcode": "23233", "name": "Ann Taylor", "phone": "(804) 364-5870", "website": "https://stores.anntaylor.com/va/henrico/11800-west-broad-street.html", "brand": "Ann Taylor", "brand:wikidata": "Q4766699", "nsi_id": "anntaylor-0615dc"}, "geometry": {"type": "Point", "coordinates": [-77.618741, 37.656009]}},
{"type": "Feature", "id": "wdoOTPUanfORhy4Oex3Mw9aznuk=", "properties": {"ref": "21100-dulles-town-circle", "@spider": "anntaylor", "clothes": "women", "shop": "clothes", "addr:full": "21100 Dulles Town Circle", "addr:city": "Sterling,", "addr:state": "Virginia", "addr:postcode": "20166", "name": "Ann Taylor", "phone": "(703) 444-3300", "website": "https://stores.anntaylor.com/va/sterling/21100-dulles-town-circle.html", "brand": "Ann Taylor", "brand:wikidata": "Q4766699", "nsi_id": "anntaylor-0615dc"}, "geometry": {"type": "Point", "coordinates": [-77.4235935, 39.0316703]}},
{"type": "Feature", "id": "x2Hj7ULVmjyZ_33fDdpkNIdIgkI=", "properties": {"ref": "one-garden-state-plaza", "@spider": "anntaylor", "clothes": "women", "shop": "clothes", "addr:full": "One Garden State Plaza", "addr:city": "Paramus,", "addr:state": "New Jersey", "addr:postcode": "07652", "name": "Ann Taylor", "phone": "(201) 368-3620", "website": "https://stores.anntaylor.com/nj/paramus/one-garden-state-plaza.html", "brand": "Ann Taylor", "brand:wikidata": "Q4766699", "nsi_id": "anntaylor-0615dc"}, "geometry": {"type": "Point", "coordinates": [-74.076331, 40.91817289999999]}},
{"type": "Feature", "id": "CNKcv3Lfwy64rewPSINzRRhPWrc=", "properties": {"ref": "1426-main-street", "@spider": "anntaylor", "clothes": "women", "shop": "clothes", "addr:full": "1426 Main Street", "addr:city": "Southlake,", "addr:state": "Texas", "addr:postcode": "76092", "name": "Ann Taylor", "phone": "(817) 416-5308", "website": "https://stores.anntaylor.com/tx/southlake/1426-main-street.html", "brand": "Ann Taylor", "brand:wikidata": "Q4766699", "nsi_id": "anntaylor-0615dc"}, "geometry": {"type": "Point", "coordinates": [-97.1300834926424, 32.94275511031022]}},
{"type": "Feature", "id": "f4LFNRA0p7LdtGdVfKWZ44ZslLQ=", "properties": {"ref": "1800-galleria-blvd", "@spider": "anntaylor", "clothes": "women", "shop": "clothes", "addr:full": "1800 Galleria Blvd", "addr:city": "Franklin,", "addr:state": "Tennessee", "addr:postcode": "37067", "name": "Ann Taylor", "phone": "(615) 771-3612", "website": "https://stores.anntaylor.com/tn/franklin/1800-galleria-blvd.html", "brand": "Ann Taylor", "brand:wikidata": "Q4766699", "nsi_id": "anntaylor-0615dc"}, "geometry": {"type": "Point", "coordinates": [-86.813143, 35.957925]}},
{"type": "Feature", "id": "1YZrnQ5TsNFhOOdJvleEguhdjhw=", "properties": {"ref": "125-westchester-ave", "@spider": "anntaylor", "clothes": "women", "shop": "clothes", "addr:full": "125 Westchester Ave", "addr:city": "White Plains,", "addr:state": "New York", "addr:postcode": "10601", "name": "Ann Taylor", "phone": "(914) 644-8380", "website": "https://stores.anntaylor.com/ny/white-plains/125-westchester-ave.html", "brand": "Ann Taylor", "brand:wikidata": "Q4766699", "nsi_id": "anntaylor-0615dc"}, "geometry": {"type": "Point", "coordinates": [-73.7599334, 41.0318145]}},
{"type": "Feature", "id": "f0kl_BGij6bc3j1QIM1Lq8eYjAs=", "properties": {"ref": "559-state-route-35", "@spider": "anntaylor", "clothes": "women", "shop": "clothes", "addr:full": "559 State Route 35", "addr:city": "Shrewsbury,", "addr:state": "New Jersey", "addr:postcode": "07702", "name": "Ann Taylor", "phone": "(732) 224-8803", "website": "https://stores.anntaylor.com/nj/shrewsbury/559-state-route-35.html", "brand": "Ann Taylor", "brand:wikidata": "Q4766699", "nsi_id": "anntaylor-0615dc"}, "geometry": {"type": "Point", "coordinates": [-74.061202, 40.333102]}},
{"type": "Feature", "id": "_GxFgzhxM7Tx6XGxlfaTufqjWOI=", "properties": {"ref": "1472-willowbrook-mall", "@spider": "anntaylor", "clothes": "women", "shop": "clothes", "addr:full": "1472 Willowbrook Mall", "addr:city": "Wayne,", "addr:state": "New Jersey", "addr:postcode": "07470", "name": "Ann Taylor", "phone": "(973) 812-9355", "website": "https://stores.anntaylor.com/nj/wayne/1472-willowbrook-mall.html", "brand": "Ann Taylor", "brand:wikidata": "Q4766699", "nsi_id": "anntaylor-0615dc"}, "geometry": {"type": "Point", "coordinates": [-74.2590303, 40.8886059]}},
{"type": "Feature", "id": "YFnhIh_1rmBzVxAbKGL7ix5YqiI=", "properties": {"ref": "500-route-73-south", "@spider": "anntaylor", "clothes": "women", "shop": "clothes", "addr:full": "500 Route 73 South", "addr:city": "Marlton,", "addr:state": "New Jersey", "addr:postcode": "08053", "name": "Ann Taylor", "phone": "(856) 797-3401", "website": "https://stores.anntaylor.com/nj/marlton/500-route-73-south.html", "brand": "Ann Taylor", "brand:wikidata": "Q4766699", "nsi_id": "anntaylor-0615dc"}, "geometry": {"type": "Point", "coordinates": [-74.919713, 39.8799465]}},
{"type": "Feature", "id": "OG4ZW4tn1HxlwQMpNrIQq4UsrLs=", "properties": {"ref": "208-route-206-south", "@spider": "anntaylor", "clothes": "women", "shop": "clothes", "addr:full": "208 Route 206 South", "addr:city": "Chester,", "addr:state": "New Jersey", "addr:postcode": "07930", "name": "Ann Taylor", "phone": "(908) 879-8552", "website": "https://stores.anntaylor.com/nj/chester/208-route-206-south.html", "brand": "Ann Taylor", "brand:wikidata": "Q4766699", "nsi_id": "anntaylor-0615dc"}, "geometry": {"type": "Point", "coordinates": [-74.69888806343079, 40.77859569189334]}},
{"type": "Feature", "id": "u1OwJYUD10Nq3uYG9GdKF2E0Li8=", "properties": {"ref": "1200-morris-turnpike", "@spider": "anntaylor", "clothes": "women", "shop": "clothes", "addr:full": "1200 Morris Turnpike", "addr:city": "Short Hills,", "addr:state": "New Jersey", "addr:postcode": "07078", "name": "Ann Taylor", "phone": "(973) 467-4290", "website": "https://stores.anntaylor.com/nj/short-hills/1200-morris-turnpike.html", "brand": "Ann Taylor", "brand:wikidata": "Q4766699", "nsi_id": "anntaylor-0615dc"}, "geometry": {"type": "Point", "coordinates": [-74.363192, 40.740218]}},
{"type": "Feature", "id": "OqYy59MYhZnwkkXVFSPyiFjpukU=", "properties": {"ref": "150-quaker-bridge-mall", "@spider": "anntaylor", "clothes": "women", "shop": "clothes", "addr:full": "150 Quaker Bridge Mall", "addr:city": "Lawrenceville,", "addr:state": "New Jersey", "addr:postcode": "08648", "name": "Ann Taylor", "phone": "(609) 799-5481", "website": "https://stores.anntaylor.com/nj/lawrenceville/150-quaker-bridge-mall.html", "brand": "Ann Taylor", "brand:wikidata": "Q4766699", "nsi_id": "anntaylor-0615dc"}, "geometry": {"type": "Point", "coordinates": [-74.6812869, 40.2915075]}},
{"type": "Feature", "id": "UyrzmdOzy_nf1bwLYbnWc6aSJyQ=", "properties": {"ref": "4999-old-orchard-road", "@spider": "anntaylor", "clothes": "women", "shop": "clothes", "addr:full": "4999 Old Orchard Road", "addr:city": "Skokie,", "addr:state": "Illinois", "addr:postcode": "60077", "name": "Ann Taylor", "phone": "(847) 679-7370", "website": "https://stores.anntaylor.com/il/skokie/4999-old-orchard-road.html", "brand": "Ann Taylor", "brand:wikidata": "Q4766699", "nsi_id": "anntaylor-0615dc"}, "geometry": {"type": "Point", "coordinates": [-87.7487924, 42.058179]}},
{"type": "Feature", "id": "tbiWpQnTsUHFv8isDMlQKxY69V8=", "properties": {"ref": "216-westfarms-mall", "@spider": "anntaylor", "clothes": "women", "shop": "clothes", "addr:full": "216 Westfarms Mall", "addr:city": "Farmington,", "addr:state": "Connecticut", "addr:postcode": "06032", "name": "Ann Taylor", "phone": "(860) 521-8195", "website": "https://stores.anntaylor.com/ct/farmington/216-westfarms-mall.html", "brand": "Ann Taylor", "brand:wikidata": "Q4766699", "nsi_id": "anntaylor-0615dc"}, "geometry": {"type": "Point", "coordinates": [-72.763086, 41.723517]}},
{"type": "Feature", "id": "VgNri7ghdgmbrkIyXpdsPnyz1o0=", "properties": {"ref": "143-riverside-square", "@spider": "anntaylor", "clothes": "women", "shop": "clothes", "addr:full": "143 Riverside Square", "addr:city": "Hackensack,", "addr:state": "New Jersey", "addr:postcode": "07601", "name": "Ann Taylor", "phone": "(201) 489-2590", "website": "https://stores.anntaylor.com/nj/hackensack/143-riverside-square.html", "brand": "Ann Taylor", "brand:wikidata": "Q4766699", "nsi_id": "anntaylor-0615dc"}, "geometry": {"type": "Point", "coordinates": [-74.029878, 40.905575]}},
{"type": "Feature", "id": "2iAO_ckFfTRAHLD6QlPFsmkl4W8=", "properties": {"ref": "1155-saint-louis-galleria", "@spider": "anntaylor", "clothes": "women", "shop": "clothes", "addr:full": "1155 Saint Louis Galleria", "addr:city": "St. Louis,", "addr:state": "Missouri", "addr:postcode": "63117", "name": "Ann Taylor", "phone": "(314) 725-2127", "website": "https://stores.anntaylor.com/mo/st--louis/1155-saint-louis-galleria.html", "brand": "Ann Taylor", "brand:wikidata": "Q4766699", "nsi_id": "anntaylor-0615dc"}, "geometry": {"type": "Point", "coordinates": [-90.34823050495812, 38.63568383652353]}},
{"type": "Feature", "id": "0E9k7E2cZBZzbUsUfZTn_fmAstU=", "properties": {"ref": "59-elm-street", "@spider": "anntaylor", "clothes": "women", "shop": "clothes", "addr:full": "59 Elm Street", "addr:city": "New Canaan,", "addr:state": "Connecticut", "addr:postcode": "06840", "name": "Ann Taylor", "phone": "(203) 966-0354", "website": "https://stores.anntaylor.com/ct/new-canaan/59-elm-street.html", "brand": "Ann Taylor", "brand:wikidata": "Q4766699", "nsi_id": "anntaylor-0615dc"}, "geometry": {"type": "Point", "coordinates": [-73.493517, 41.147054]}},
{"type": "Feature", "id": "V80DLc8wkfhqdJ1RFO_XDOvdRMg=", "properties": {"ref": "1180-north-point-circle", "@spider": "anntaylor", "clothes": "women", "shop": "clothes", "addr:full": "1180 North Point Circle", "addr:city": "Alpharetta,", "addr:state": "Georgia", "addr:postcode": "30022", "name": "Ann Taylor", "phone": "(770) 664-4915", "website": "https://stores.anntaylor.com/ga/alpharetta/1180-north-point-circle.html", "brand": "Ann Taylor", "brand:wikidata": "Q4766699", "nsi_id": "anntaylor-0615dc"}, "geometry": {"type": "Point", "coordinates": [-84.2942424, 34.0485292]}},
{"type": "Feature", "id": "oY3pP13x8A1_l2PmZYFNTjjDMro=", "properties": {"ref": "7-backus-avenue", "@spider": "anntaylor", "clothes": "women", "shop": "clothes", "addr:full": "7 Backus Avenue", "addr:city": "Danbury,", "addr:state": "Connecticut", "addr:postcode": "06810", "name": "Ann Taylor", "phone": "(203) 791-0761", "website": "https://stores.anntaylor.com/ct/danbury/7-backus-avenue.html", "brand": "Ann Taylor", "brand:wikidata": "Q4766699", "nsi_id": "anntaylor-0615dc"}, "geometry": {"type": "Point", "coordinates": [-73.479847, 41.380314]}},
{"type": "Feature", "id": "S6E7lXf91-Cz1STqIAWiV5YCRMI=", "properties": {"ref": "140-university-town-center-drive", "@spider": "anntaylor", "clothes": "women", "shop": "clothes", "addr:full": "140 University Town Center Drive", "addr:city": "Sarasota,", "addr:state": "Florida", "addr:postcode": "34243", "name": "Ann Taylor", "phone": "(941) 225-8930", "website": "https://stores.anntaylor.com/fl/sarasota/140-university-town-center-drive.html", "brand": "Ann Taylor", "brand:wikidata": "Q4766699", "nsi_id": "anntaylor-0615dc"}, "geometry": {"type": "Point", "coordinates": [-82.4528045, 27.3840522]}},
{"type": "Feature", "id": "HSShf7UHspeYgwI1vt4PYAzRFJo=", "properties": {"ref": "4200-conroy-road", "@spider": "anntaylor", "clothes": "women", "shop": "clothes", "addr:full": "4200 Conroy Road", "addr:city": "Orlando,", "addr:state": "Florida", "addr:postcode": "32839", "name": "Ann Taylor", "phone": "(407) 226-1548", "website": "https://stores.anntaylor.com/fl/orlando/4200-conroy-road.html", "brand": "Ann Taylor", "brand:wikidata": "Q4766699", "nsi_id": "anntaylor-0615dc"}, "geometry": {"type": "Point", "coordinates": [-81.431937, 28.485532]}},
{"type": "Feature", "id": "3vzYvXRQHRdzKgs9GEeRauZcl7I=", "properties": {"ref": "5475-tamiami-trail-n", "@spider": "anntaylor", "clothes": "women", "shop": "clothes", "addr:full": "5475 Tamiami Trail N", "addr:city": "Naples,", "addr:state": "Florida", "addr:postcode": "34108", "name": "Ann Taylor", "phone": "(239) 598-4454", "website": "https://stores.anntaylor.com/fl/naples/5475-tamiami-trail-n.html", "brand": "Ann Taylor", "brand:wikidata": "Q4766699", "nsi_id": "anntaylor-0615dc"}, "geometry": {"type": "Point", "coordinates": [-81.80252229999999, 26.2128927]}},
{"type": "Feature", "id": "1aIEoZNmiXP8dUqrQZ1IsbrFnWI=", "properties": {"ref": "302-sw-145th-terrace", "@spider": "anntaylor", "clothes": "women", "shop": "clothes", "addr:full": "302 SW 145th Terrace", "addr:city": "Pembroke Pines,", "addr:state": "Florida", "addr:postcode": "33027", "name": "Ann Taylor", "phone": "(954) 704-8002", "website": "https://stores.anntaylor.com/fl/pembroke-pines/302-sw-145th-terrace.html", "brand": "Ann Taylor", "brand:wikidata": "Q4766699", "nsi_id": "anntaylor-0615dc"}, "geometry": {"type": "Point", "coordinates": [-80.33708702331353, 26.005809543567]}},
{"type": "Feature", "id": "cj7stoX3SFPGC0OsUbWJFc6VTrc=", "properties": {"ref": "4775-town-center-parkway", "@spider": "anntaylor", "clothes": "women", "shop": "clothes", "addr:full": "4775 Town Center Parkway", "addr:city": "Jacksonville,", "addr:state": "Florida", "addr:postcode": "32246", "name": "Ann Taylor", "phone": "(904) 997-9088", "website": "https://stores.anntaylor.com/fl/jacksonville/4775-town-center-parkway.html", "brand": "Ann Taylor", "brand:wikidata": "Q4766699", "nsi_id": "anntaylor-0615dc"}, "geometry": {"type": "Point", "coordinates": [-81.525111, 30.257608]}},
{"type": "Feature", "id": "myFPpYeitZ3beR_Sbsr579b6mqE=", "properties": {"ref": "210-andover-st", "@spider": "anntaylor", "clothes": "women", "shop": "clothes", "addr:full": "210 Andover St", "addr:city": "Peabody,", "addr:state": "Massachusetts", "addr:postcode": "01960", "name": "Ann Taylor", "phone": "(978) 532-0064", "website": "https://stores.anntaylor.com/ma/peabody/210-andover-st.html", "brand": "Ann Taylor", "brand:wikidata": "Q4766699", "nsi_id": "anntaylor-0615dc"}, "geometry": {"type": "Point", "coordinates": [-70.944656, 42.541487]}},
{"type": "Feature", "id": "uC9pBp_F89rEb7eJDbBy6bGav3E=", "properties": {"ref": "358-avenue-san-lorenzo", "@spider": "anntaylor", "clothes": "women", "shop": "clothes", "addr:full": "358 Avenue San Lorenzo", "addr:city": "Coral Gables,", "addr:state": "Florida", "addr:postcode": "33146", "name": "Ann Taylor", "phone": "(305) 567-8959", "website": "https://stores.anntaylor.com/fl/coral-gables/358-avenue-san-lorenzo.html", "brand": "Ann Taylor", "brand:wikidata": "Q4766699", "nsi_id": "anntaylor-0615dc"}, "geometry": {"type": "Point", "coordinates": [-80.259914, 25.7314109]}},
{"type": "Feature", "id": "IY7WET75MYWLXTDt57_G5kZYzAw=", "properties": {"ref": "1245-worcester-street", "@spider": "anntaylor", "clothes": "women", "shop": "clothes", "addr:full": "1245 Worcester Street", "addr:city": "Natick,", "addr:state": "Massachusetts", "addr:postcode": "01760", "name": "Ann Taylor", "phone": "(508) 650-1119", "website": "https://stores.anntaylor.com/ma/natick/1245-worcester-street.html", "brand": "Ann Taylor", "brand:wikidata": "Q4766699", "nsi_id": "anntaylor-0615dc"}, "geometry": {"type": "Point", "coordinates": [-71.383918, 42.3019689]}},
{"type": "Feature", "id": "yorbUBaY8lIyLtbnnEPkH6UbWYQ=", "properties": {"ref": "516-legacy-place", "@spider": "anntaylor", "clothes": "women", "shop": "clothes", "addr:full": "516 Legacy Place", "addr:city": "Dedham,", "addr:state": "Massachusetts", "addr:postcode": "02026", "name": "Ann Taylor", "phone": "(781) 326-2418", "website": "https://stores.anntaylor.com/ma/dedham/516-legacy-place.html", "brand": "Ann Taylor", "brand:wikidata": "Q4766699", "nsi_id": "anntaylor-0615dc"}, "geometry": {"type": "Point", "coordinates": [-71.1783279, 42.230744]}},
{"type": "Feature", "id": "L9hDTsHHg_c06yZdESB7JXIEMyE=", "properties": {"ref": "694-bliss-road", "@spider": "anntaylor", "clothes": "women", "shop": "clothes", "addr:full": "694 Bliss Road", "addr:city": "Longmeadow,", "addr:state": "Massachusetts", "addr:postcode": "01106", "name": "Ann Taylor", "phone": "(413) 567-4680", "website": "https://stores.anntaylor.com/ma/longmeadow/694-bliss-road.html", "brand": "Ann Taylor", "brand:wikidata": "Q4766699", "nsi_id": "anntaylor-0615dc"}, "geometry": {"type": "Point", "coordinates": [-72.554752, 42.057012]}},
{"type": "Feature", "id": "TGjUYm27IpuCvRGobjfUJ7gJhrE=", "properties": {"ref": "130-w-county-center", "@spider": "anntaylor", "clothes": "women", "shop": "clothes", "addr:full": "130 W County Center", "addr:city": "Des Peres,", "addr:state": "Missouri", "addr:postcode": "63131", "name": "Ann Taylor", "phone": "(314) 984-0953", "website": "https://stores.anntaylor.com/mo/des-peres/130-w-county-center.html", "brand": "Ann Taylor", "brand:wikidata": "Q4766699", "nsi_id": "anntaylor-0615dc"}, "geometry": {"type": "Point", "coordinates": [-90.447052, 38.6012951]}},
{"type": "Feature", "id": "YzBWbnDCViLL33gijRZzlLbXgQo=", "properties": {"ref": "98-derby-street", "@spider": "anntaylor", "clothes": "women", "shop": "clothes", "addr:full": "98 Derby Street", "addr:city": "Hingham,", "addr:state": "Massachusetts", "addr:postcode": "02043", "name": "Ann Taylor", "phone": "(781) 749-8361", "website": "https://stores.anntaylor.com/ma/hingham/98-derby-street.html", "brand": "Ann Taylor", "brand:wikidata": "Q4766699", "nsi_id": "anntaylor-0615dc"}, "geometry": {"type": "Point", "coordinates": [-70.9111346, 42.177223]}},
{"type": "Feature", "id": "7EINjp8ZxwOGINZucwlnac7HYAs=", "properties": {"ref": "55-south-main-street", "@spider": "anntaylor", "clothes": "women", "shop": "clothes", "addr:full": "55 South Main Street", "addr:city": "Naperville,", "addr:state": "Illinois", "addr:postcode": "60540", "name": "Ann Taylor", "phone": "(630) 357-7023", "website": "https://stores.anntaylor.com/il/naperville/55-south-main-street.html", "brand": "Ann Taylor", "brand:wikidata": "Q4766699", "nsi_id": "anntaylor-0615dc"}, "geometry": {"type": "Point", "coordinates": [-88.1498935, 41.7741868]}},
{"type": "Feature", "id": "BdC_hMFmhOfTjb0ABfIQrAp05RA=", "properties": {"ref": "208-oakbrook-center", "@spider": "anntaylor", "clothes": "women", "shop": "clothes", "addr:full": "208 Oakbrook Center", "addr:city": "Oak Brook,", "addr:state": "Illinois", "addr:postcode": "60523", "name": "Ann Taylor", "phone": "(630) 573-4825", "website": "https://stores.anntaylor.com/il/oak-brook/208-oakbrook-center.html", "brand": "Ann Taylor", "brand:wikidata": "Q4766699", "nsi_id": "anntaylor-0615dc"}, "geometry": {"type": "Point", "coordinates": [-87.9525864, 41.8513024]}},
{"type": "Feature", "id": "c8ssGSil0IAo3SySOpnLIgTa6po=", "properties": {"ref": "199-boylston-street", "@spider": "anntaylor", "clothes": "women", "shop": "clothes", "addr:full": "199 Boylston Street", "addr:city": "Chestnut Hill,", "addr:state": "Massachusetts", "addr:postcode": "02467", "name": "Ann Taylor", "phone": "(617) 244-4848", "website": "https://stores.anntaylor.com/ma/chestnut-hill/199-boylston-street.html", "brand": "Ann Taylor", "brand:wikidata": "Q4766699", "nsi_id": "anntaylor-0615dc"}, "geometry": {"type": "Point", "coordinates": [-71.1759602, 42.3211088]}},
{"type": "Feature", "id": "ThY1LzxuhONSrrcFz4wFPCVL9-Y=", "properties": {"ref": "600-michigan-avenue", "@spider": "anntaylor", "clothes": "women", "shop": "clothes", "addr:full": "600 Michigan Avenue", "addr:city": "Chicago,", "addr:state": "Illinois", "addr:postcode": "60611", "name": "Ann Taylor", "phone": "(312) 587-8301", "website": "https://stores.anntaylor.com/il/chicago/600-michigan-avenue.html", "brand": "Ann Taylor", "brand:wikidata": "Q4766699", "nsi_id": "anntaylor-0615dc"}, "geometry": {"type": "Point", "coordinates": [-87.624512, 41.892853]}},
{"type": "Feature", "id": "5AIhy07DtTtZzZE88XxXgmp3nmw=", "properties": {"ref": "2801-west-big-beaver-road", "@spider": "anntaylor", "clothes": "women", "shop": "clothes", "addr:full": "2801 West Big Beaver Road", "addr:city": "Troy,", "addr:state": "Michigan", "addr:postcode": "48084", "name": "Ann Taylor", "phone": "(248) 643-4457", "website": "https://stores.anntaylor.com/mi/troy/2801-west-big-beaver-road.html", "brand": "Ann Taylor", "brand:wikidata": "Q4766699", "nsi_id": "anntaylor-0615dc"}, "geometry": {"type": "Point", "coordinates": [-83.1842022, 42.5598479]}},
{"type": "Feature", "id": "SEbv63Zqwa0jItVAhAa6cDJ6iK8=", "properties": {"ref": "75-middlesex-turnpike", "@spider": "anntaylor", "clothes": "women", "shop": "clothes", "addr:full": "75 Middlesex Turnpike", "addr:city": "Burlington,", "addr:state": "Massachusetts", "addr:postcode": "01803", "name": "Ann Taylor", "phone": "(781) 272-3044", "website": "https://stores.anntaylor.com/ma/burlington/75-middlesex-turnpike.html", "brand": "Ann Taylor", "brand:wikidata": "Q4766699", "nsi_id": "anntaylor-0615dc"}, "geometry": {"type": "Point", "coordinates": [-71.2130929, 42.4819789]}},
{"type": "Feature", "id": "MaG_Jh2zbWoobyEfxPcxfYQ17Sg=", "properties": {"ref": "7101-democracy-blvd", "@spider": "anntaylor", "clothes": "women", "shop": "clothes", "addr:full": "7101 Democracy Blvd", "addr:city": "Bethesda,", "addr:state": "Maryland", "addr:postcode": "20817", "name": "Ann Taylor", "phone": "(301) 365-0771", "website": "https://stores.anntaylor.com/md/bethesda/7101-democracy-blvd.html", "brand": "Ann Taylor", "brand:wikidata": "Q4766699", "nsi_id": "anntaylor-0615dc"}, "geometry": {"type": "Point", "coordinates": [-77.146147, 39.02434]}},
{"type": "Feature", "id": "JUvYoqCt6EmhXqFaI_MbRV1St20=", "properties": {"ref": "10300-little-patuxent-pkwy", "@spider": "anntaylor", "clothes": "women", "shop": "clothes", "addr:full": "10300 Little Patuxent Pkwy", "addr:city": "Columbia,", "addr:state": "Maryland", "addr:postcode": "21044", "name": "Ann Taylor", "phone": "(410) 997-0565", "website": "https://stores.anntaylor.com/md/columbia/10300-little-patuxent-pkwy.html", "brand": "Ann Taylor", "brand:wikidata": "Q4766699", "nsi_id": "anntaylor-0615dc"}, "geometry": {"type": "Point", "coordinates": [-76.859648, 39.215905]}},
{"type": "Feature", "id": "djJmre0cJelL7an0jnJyIjQnnsA=", "properties": {"ref": "2002-annapolis-mall", "@spider": "anntaylor", "clothes": "women", "shop": "clothes", "addr:full": "2002 Annapolis Mall", "addr:city": "Annapolis,", "addr:state": "Maryland", "addr:postcode": "21401", "name": "Ann Taylor", "phone": "(410) 573-2053", "website": "https://stores.anntaylor.com/md/annapolis/2002-annapolis-mall.html", "brand": "Ann Taylor", "brand:wikidata": "Q4766699", "nsi_id": "anntaylor-0615dc"}, "geometry": {"type": "Point", "coordinates": [-76.5438917, 38.9901645]}},
{"type": "Feature", "id": "JPWzBfQrZvTcf13wv97bSQnGFtM=", "properties": {"ref": "20530-north-rand-road", "@spider": "anntaylor", "clothes": "women", "shop": "clothes", "addr:full": "20530 North Rand Road", "addr:city": "Deer Park,", "addr:state": "Illinois", "addr:postcode": "60010", "name": "Ann Taylor", "phone": "(847) 550-8709", "website": "https://stores.anntaylor.com/il/deer-park/20530-north-rand-road.html", "brand": "Ann Taylor", "brand:wikidata": "Q4766699", "nsi_id": "anntaylor-0615dc"}, "geometry": {"type": "Point", "coordinates": [-88.0562777, 42.1610486]}},
{"type": "Feature", "id": "ukQOTAmKnQWjCx9IH1AJA1CWqlc=", "properties": {"ref": "10-rosedale-center", "@spider": "anntaylor", "clothes": "women", "shop": "clothes", "addr:full": "10 Rosedale Center", "addr:city": "Roseville,", "addr:state": "Minnesota", "addr:postcode": "55113", "name": "Ann Taylor", "phone": "(651) 638-3015", "website": "https://stores.anntaylor.com/mn/roseville/10-rosedale-center.html", "brand": "Ann Taylor", "brand:wikidata": "Q4766699", "nsi_id": "anntaylor-0615dc"}, "geometry": {"type": "Point", "coordinates": [-93.170281, 45.012891]}},
{"type": "Feature", "id": "o70R2pF_ECLf2CloPjfoEkh10tk=", "properties": {"ref": "6851-main-street", "@spider": "anntaylor", "clothes": "women", "shop": "clothes", "addr:full": "6851 Main Street", "addr:city": "Wilmington,", "addr:state": "North Carolina", "addr:postcode": "28405", "name": "Ann Taylor", "phone": "(910) 256-8064", "website": "https://stores.anntaylor.com/nc/wilmington/6851-main-street.html", "brand": "Ann Taylor", "brand:wikidata": "Q4766699", "nsi_id": "anntaylor-0615dc"}, "geometry": {"type": "Point", "coordinates": [-77.8297924, 34.2426358]}},
{"type": "Feature", "id": "RxEXdP3hZTInJ6zklYkir8wNlqs=", "properties": {"ref": "3012-towne-centre-boulevard", "@spider": "anntaylor", "clothes": "women", "shop": "clothes", "addr:full": "3012 Towne Centre Boulevard", "addr:city": "Lansing,", "addr:state": "Michigan", "addr:postcode": "48912", "name": "Ann Taylor", "phone": "(517) 484-1432", "website": "https://stores.anntaylor.com/mi/lansing/3012-towne-centre-boulevard.html", "brand": "Ann Taylor", "brand:wikidata": "Q4766699", "nsi_id": "anntaylor-0615dc"}, "geometry": {"type": "Point", "coordinates": [-84.516991, 42.763909]}},
{"type": "Feature", "id": "iPqzUzTNYmdvT7-IJtnWfBtqa9Y=", "properties": {"ref": "3401-nicholasville-rd", "@spider": "anntaylor", "clothes": "women", "shop": "clothes", "addr:full": "3401 Nicholasville Rd", "addr:city": "Lexington,", "addr:state": "Kentucky", "addr:postcode": "40503", "name": "Ann Taylor", "phone": "(859) 273-0270", "website": "https://stores.anntaylor.com/ky/lexington/3401-nicholasville-rd.html", "brand": "Ann Taylor", "brand:wikidata": "Q4766699", "nsi_id": "anntaylor-0615dc"}, "geometry": {"type": "Point", "coordinates": [-84.527586, 37.989532]}},
{"type": "Feature", "id": "OkU1X7LnKAWMrKLk4RAfupwKR18=", "properties": {"ref": "3195-28th-street-se", "@spider": "anntaylor", "clothes": "women", "shop": "clothes", "addr:full": "3195 28th Street SE", "addr:city": "Kentwood,", "addr:state": "Michigan", "addr:postcode": "49512", "name": "Ann Taylor", "phone": "(616) 942-9099", "website": "https://stores.anntaylor.com/mi/kentwood/3195-28th-street-se.html", "brand": "Ann Taylor", "brand:wikidata": "Q4766699", "nsi_id": "anntaylor-0615dc"}, "geometry": {"type": "Point", "coordinates": [-85.5882825, 42.9169235]}},
{"type": "Feature", "id": "NJKCmz1jquO30168s3rv7j2lcLM=", "properties": {"ref": "822-briarwood-circle", "@spider": "anntaylor", "clothes": "women", "shop": "clothes", "addr:full": "822 Briarwood Circle", "addr:city": "Ann Arbor,", "addr:state": "Michigan", "addr:postcode": "48108", "name": "Ann Taylor", "phone": "(734) 741-0270", "website": "https://stores.anntaylor.com/mi/ann-arbor/822-briarwood-circle.html", "brand": "Ann Taylor", "brand:wikidata": "Q4766699", "nsi_id": "anntaylor-0615dc"}, "geometry": {"type": "Point", "coordinates": [-83.746052, 42.240458]}},
{"type": "Feature", "id": "0lQy1MLgeeABhxUKKVAB2mhbKzs=", "properties": {"ref": "60-e-broadway", "@spider": "anntaylor", "clothes": "women", "shop": "clothes", "addr:full": "60 E Broadway", "addr:city": "Bloomington,", "addr:state": "Minnesota", "addr:postcode": "55425", "name": "Ann Taylor", "phone": "(952) 854-9220", "website": "https://stores.anntaylor.com/mn/bloomington/60-e-broadway.html", "brand": "Ann Taylor", "brand:wikidata": "Q4766699", "nsi_id": "anntaylor-0615dc"}, "geometry": {"type": "Point", "coordinates": [-93.241608, 44.853495]}},
{"type": "Feature", "id": "iLjsp6W0hNbRtI0_taqAispNl1Y=", "properties": {"ref": "6910-fayetteville-road", "@spider": "anntaylor", "clothes": "women", "shop": "clothes", "addr:full": "6910 Fayetteville Road", "addr:city": "Durham,", "addr:state": "North Carolina", "addr:postcode": "27713", "name": "Ann Taylor", "phone": "(919) 484-9799", "website": "https://stores.anntaylor.com/nc/durham/6910-fayetteville-road.html", "brand": "Ann Taylor", "brand:wikidata": "Q4766699", "nsi_id": "anntaylor-0615dc"}, "geometry": {"type": "Point", "coordinates": [-78.941517, 35.9049829]}},
{"type": "Feature", "id": "NiqejC2o25bteWP7aCswZlIMSPQ=", "properties": {"ref": "4325-glenwood-avenue", "@spider": "anntaylor", "clothes": "women", "shop": "clothes", "addr:full": "4325 Glenwood Avenue", "addr:city": "Raleigh,", "addr:state": "North Carolina", "addr:postcode": "27612", "name": "Ann Taylor", "phone": "(919) 571-9888", "website": "https://stores.anntaylor.com/nc/raleigh/4325-glenwood-avenue.html", "brand": "Ann Taylor", "brand:wikidata": "Q4766699", "nsi_id": "anntaylor-0615dc"}, "geometry": {"type": "Point", "coordinates": [-78.6790427, 35.8396523]}},
{"type": "Feature", "id": "ppLSxzZhC4qsewE0nQxco1KuvSg=", "properties": {"ref": "4400-sharon-road", "@spider": "anntaylor", "clothes": "women", "shop": "clothes", "addr:full": "4400 Sharon Road", "addr:city": "Charlotte,", "addr:state": "North Carolina", "addr:postcode": "28211", "name": "Ann Taylor", "phone": "(704) 364-7500", "website": "https://stores.anntaylor.com/nc/charlotte/4400-sharon-road.html", "brand": "Ann Taylor", "brand:wikidata": "Q4766699", "nsi_id": "anntaylor-0615dc"}, "geometry": {"type": "Point", "coordinates": [-80.830722, 35.152248]}},
{"type": "Feature", "id": "YGExInsUM5xCxlyc_bmT5Z6LdOc=", "properties": {"ref": "696-white-plains-road", "@spider": "anntaylor", "clothes": "women", "shop": "clothes", "addr:full": "696 White Plains Road", "addr:city": "Scarsdale,", "addr:state": "New York", "addr:postcode": "10583", "name": "Ann Taylor", "phone": "(914) 723-0500", "website": "https://stores.anntaylor.com/ny/scarsdale/696-white-plains-road.html", "brand": "Ann Taylor", "brand:wikidata": "Q4766699", "nsi_id": "anntaylor-0615dc"}, "geometry": {"type": "Point", "coordinates": [-73.805716, 40.969935]}},
{"type": "Feature", "id": "XzxXDQBtewa8KKN3haHMc8TfxMM=", "properties": {"ref": "630-old-country-road", "@spider": "anntaylor", "clothes": "women", "shop": "clothes", "addr:full": "630 Old Country Road", "addr:city": "Garden City,", "addr:state": "New York", "addr:postcode": "11530", "name": "Ann Taylor", "phone": "(516) 741-3700", "website": "https://stores.anntaylor.com/ny/garden-city/630-old-country-road.html", "brand": "Ann Taylor", "brand:wikidata": "Q4766699", "nsi_id": "anntaylor-0615dc"}, "geometry": {"type": "Point", "coordinates": [-73.6126623, 40.737947]}},
{"type": "Feature", "id": "8mvvQ092LT4LVQ9zPxoRijVQ-7s=", "properties": {"ref": "1000-ross-park-mall-drive", "@spider": "anntaylor", "clothes": "women", "shop": "clothes", "addr:full": "1000 Ross Park Mall Drive", "addr:city": "Pittsburgh,", "addr:state": "Pennsylvania", "addr:postcode": "15237", "name": "Ann Taylor", "phone": "(412) 364-0170", "website": "https://stores.anntaylor.com/pa/pittsburgh/1000-ross-park-mall-drive.html", "brand": "Ann Taylor", "brand:wikidata": "Q4766699", "nsi_id": "anntaylor-0615dc"}, "geometry": {"type": "Point", "coordinates": [-80.0080717, 40.5422649]}},
{"type": "Feature", "id": "P5RDpXAm3sxVaJup8m317_zuiqs=", "properties": {"ref": "9503-destiny-usa-drive", "@spider": "anntaylor", "clothes": "women", "shop": "clothes", "addr:full": "9503 Destiny Usa Drive", "addr:city": "Syracuse,", "addr:state": "New York", "addr:postcode": "13290", "name": "Ann Taylor", "phone": "(315) 466-4001", "website": "https://stores.anntaylor.com/ny/syracuse/9503-destiny-usa-drive.html", "brand": "Ann Taylor", "brand:wikidata": "Q4766699", "nsi_id": "anntaylor-0615dc"}, "geometry": {"type": "Point", "coordinates": [-76.17276826551299, 43.07063563433675]}},
{"type": "Feature", "id": "p0JLYnyB3eg5vcGPGW_TYf4_LOo=", "properties": {"ref": "251-eastview-mall", "@spider": "anntaylor", "clothes": "women", "shop": "clothes", "addr:full": "251 Eastview Mall", "addr:city": "Victor,", "addr:state": "New York", "addr:postcode": "14564", "name": "Ann Taylor", "phone": "(585) 425-9650", "website": "https://stores.anntaylor.com/ny/victor/251-eastview-mall.html", "brand": "Ann Taylor", "brand:wikidata": "Q4766699", "nsi_id": "anntaylor-0615dc"}, "geometry": {"type": "Point", "coordinates": [-77.44275433317151, 43.02907634016753]}},
{"type": "Feature", "id": "-mH67JhDe7S0Q41EOolKAaTnlu0=", "properties": {"ref": "7875-montgomery-road", "@spider": "anntaylor", "clothes": "women", "shop": "clothes", "addr:full": "7875 Montgomery Road", "addr:city": "Cincinnati,", "addr:state": "Ohio", "addr:postcode": "45236", "name": "Ann Taylor", "phone": "(513) 791-0702", "website": "https://stores.anntaylor.com/oh/cincinnati/7875-montgomery-road.html", "brand": "Ann Taylor", "brand:wikidata": "Q4766699", "nsi_id": "anntaylor-0615dc"}, "geometry": {"type": "Point", "coordinates": [-84.3776376, 39.2018488]}},
{"type": "Feature", "id": "v0GEzqZXaSV_A48OIC8S_3lPTww=", "properties": {"ref": "230-montgomery-mall", "@spider": "anntaylor", "clothes": "women", "shop": "clothes", "addr:full": "230 Montgomery Mall", "addr:city": "North Wales,", "addr:state": "Pennsylvania", "addr:postcode": "19454", "name": "Ann Taylor", "phone": "(215) 361-1049", "website": "https://stores.anntaylor.com/pa/north-wales/230-montgomery-mall.html", "brand": "Ann Taylor", "brand:wikidata": "Q4766699", "nsi_id": "anntaylor-0615dc"}, "geometry": {"type": "Point", "coordinates": [-75.245196, 40.23539]}},
{"type": "Feature", "id": "Y3VwKD7JRY9oRqFhbMiVmW6ZXJo=", "properties": {"ref": "1500-washington-road", "@spider": "anntaylor", "clothes": "women", "shop": "clothes", "addr:full": "1500 Washington Road", "addr:city": "Mount Lebanon,", "addr:state": "Pennsylvania", "addr:postcode": "15228", "name": "Ann Taylor", "phone": "(412) 561-8753", "website": "https://stores.anntaylor.com/pa/mount-lebanon/1500-washington-road.html", "brand": "Ann Taylor", "brand:wikidata": "Q4766699", "nsi_id": "anntaylor-0615dc"}, "geometry": {"type": "Point", "coordinates": [-80.051357, 40.3569955]}},
{"type": "Feature", "id": "A8AdLv97-5MJAGVD8HJDgBsCGMo=", "properties": {"ref": "26300-cedar-road", "@spider": "anntaylor", "clothes": "women", "shop": "clothes", "addr:full": "26300 Cedar Road", "addr:city": "Beachwood,", "addr:state": "Ohio", "addr:postcode": "44122", "name": "Ann Taylor", "phone": "(216) 464-8298", "website": "https://stores.anntaylor.com/oh/beachwood/26300-cedar-road.html", "brand": "Ann Taylor", "brand:wikidata": "Q4766699", "nsi_id": "anntaylor-0615dc"}, "geometry": {"type": "Point", "coordinates": [-81.4941414, 41.4980931]}},
{"type": "Feature", "id": "y05iB-woxdm_-hiBsp8zBwDLurQ=", "properties": {"ref": "23-parking-plaza", "@spider": "anntaylor", "clothes": "women", "shop": "clothes", "addr:full": "23 Parking Plaza", "addr:city": "Ardmore,", "addr:state": "Pennsylvania", "addr:postcode": "19003", "name": "Ann Taylor", "phone": "(610) 642-4293", "website": "https://stores.anntaylor.com/pa/ardmore/23-parking-plaza.html", "brand": "Ann Taylor", "brand:wikidata": "Q4766699", "nsi_id": "anntaylor-0615dc"}, "geometry": {"type": "Point", "coordinates": [-75.28903731779099, 40.009135673502826]}},
{"type": "Feature", "id": "w17Hvl61QPTUHePaUAyPB0fwQ04=", "properties": {"ref": "145-main-street", "@spider": "anntaylor", "clothes": "women", "shop": "clothes", "addr:full": "145 Main Street", "addr:city": "Westlake,", "addr:state": "Ohio", "addr:postcode": "44145", "name": "Ann Taylor", "phone": "(440) 871-3125", "website": "https://stores.anntaylor.com/oh/westlake/145-main-street.html", "brand": "Ann Taylor", "brand:wikidata": "Q4766699", "nsi_id": "anntaylor-0615dc"}, "geometry": {"type": "Point", "coordinates": [-81.951565, 41.458357]}},
{"type": "Feature", "id": "lmK3zGBzIOylB8_zOVbHjvsrsiA=", "properties": {"ref": "11750-fair-oaks", "@spider": "anntaylor", "clothes": "women", "shop": "clothes", "addr:full": "11750 Fair Oaks", "addr:city": "Fairfax,", "addr:state": "Virginia", "addr:postcode": "22033", "name": "Ann Taylor", "phone": "(703) 383-9040", "website": "https://stores.anntaylor.com/va/fairfax/11750-fair-oaks.html", "brand": "Ann Taylor", "brand:wikidata": "Q4766699", "nsi_id": "anntaylor-0615dc"}, "geometry": {"type": "Point", "coordinates": [-77.3592103, 38.8623883]}},
{"type": "Feature", "id": "FAu90dKH8hvgfn-kRcem-sJDafU=", "properties": {"ref": "33-west-towne-mall", "@spider": "anntaylor", "clothes": "women", "shop": "clothes", "addr:full": "33 West Towne Mall", "addr:city": "Madison,", "addr:state": "Wisconsin", "addr:postcode": "53719", "name": "Ann Taylor", "phone": "(608) 833-4564", "website": "https://stores.anntaylor.com/wi/madison/33-west-towne-mall.html", "brand": "Ann Taylor", "brand:wikidata": "Q4766699", "nsi_id": "anntaylor-0615dc"}, "geometry": {"type": "Point", "coordinates": [-89.5061583, 43.0580325]}},
{"type": "Feature", "id": "cXJI1VgFa_juk3DcyeaQKLiu9K0=", "properties": {"ref": "160-n-gulph-road", "@spider": "anntaylor", "clothes": "women", "shop": "clothes", "addr:full": "160 N Gulph Road", "addr:city": "King Of Prussia,", "addr:state": "Pennsylvania", "addr:postcode": "19406", "name": "Ann Taylor", "phone": "(610) 354-0770", "website": "https://stores.anntaylor.com/pa/king-of-prussia/160-n-gulph-road.html", "brand": "Ann Taylor", "brand:wikidata": "Q4766699", "nsi_id": "anntaylor-0615dc"}, "geometry": {"type": "Point", "coordinates": [-75.390988, 40.087981]}},
{"type": "Feature", "id": "2-PUVeQ1WP_rziLFo428i50eOwo=", "properties": {"ref": "1612-south-university-drive", "@spider": "anntaylor", "clothes": "women", "shop": "clothes", "addr:full": "1612 South University Drive", "addr:city": "Fort Worth,", "addr:state": "Texas", "addr:postcode": "76107", "name": "Ann Taylor", "phone": "(817) 870-1993", "website": "https://stores.anntaylor.com/tx/fort-worth/1612-south-university-drive.html", "brand": "Ann Taylor", "brand:wikidata": "Q4766699", "nsi_id": "anntaylor-0615dc"}, "geometry": {"type": "Point", "coordinates": [-97.36357435584068, 32.72738458866491]}},
{"type": "Feature", "id": "cNpvIWs8d8mD-8G3rUabEdiFUEE=", "properties": {"ref": "2100-hamilton-place-blvd", "@spider": "anntaylor", "clothes": "women", "shop": "clothes", "addr:full": "2100 Hamilton Place Blvd", "addr:city": "Chattanooga,", "addr:state": "Tennessee", "addr:postcode": "37421", "name": "Ann Taylor", "phone": "(423) 894-7694", "website": "https://stores.anntaylor.com/tn/chattanooga/2100-hamilton-place-blvd.html", "brand": "Ann Taylor", "brand:wikidata": "Q4766699", "nsi_id": "anntaylor-0615dc"}, "geometry": {"type": "Point", "coordinates": [-85.1591823, 35.0353123]}},
{"type": "Feature", "id": "poqnCeNlwrugL-HUJoxvz8cd-2o=", "properties": {"ref": "8687-n-central-expressway", "@spider": "anntaylor", "clothes": "women", "shop": "clothes", "addr:full": "8687 N Central Expressway", "addr:city": "Dallas,", "addr:state": "Texas", "addr:postcode": "75225", "name": "Ann Taylor", "phone": "(214) 691-5544", "website": "https://stores.anntaylor.com/tx/dallas/8687-n-central-expressway.html", "brand": "Ann Taylor", "brand:wikidata": "Q4766699", "nsi_id": "anntaylor-0615dc"}, "geometry": {"type": "Point", "coordinates": [-96.774344, 32.868667]}},
{"type": "Feature", "id": "kGGTAzcIRBHgutkf-r96fbzRVvE=", "properties": {"ref": "9722-great-hills-trail", "@spider": "anntaylor", "clothes": "women", "shop": "clothes", "addr:full": "9722 Great Hills Trail", "addr:city": "Austin,", "addr:state": "Texas", "addr:postcode": "78759", "name": "Ann Taylor", "phone": "(512) 345-8307", "website": "https://stores.anntaylor.com/tx/austin/9722-great-hills-trail.html", "brand": "Ann Taylor", "brand:wikidata": "Q4766699", "nsi_id": "anntaylor-0615dc"}, "geometry": {"type": "Point", "coordinates": [-97.752472, 30.395019]}},
{"type": "Feature", "id": "esPmm-jLDw_eVDI5NkMGPVL4uE8=", "properties": {"ref": "1900-preston-road", "@spider": "anntaylor", "clothes": "women", "shop": "clothes", "addr:full": "1900 Preston Road", "addr:city": "Plano,", "addr:state": "Texas", "addr:postcode": "75093", "name": "Ann Taylor", "phone": "(972) 964-7100", "website": "https://stores.anntaylor.com/tx/plano/1900-preston-road.html", "brand": "Ann Taylor", "brand:wikidata": "Q4766699", "nsi_id": "anntaylor-0615dc"}, "geometry": {"type": "Point", "coordinates": [-96.79384902119637, 33.02569106486631]}},
{"type": "Feature", "id": "qWVUIWUjeVcTY030g1F3jx5vFHc=", "properties": {"ref": "225-summit-blvd", "@spider": "anntaylor", "clothes": "women", "shop": "clothes", "addr:full": "225 Summit Blvd", "addr:city": "Birmingham,", "addr:state": "Alabama", "addr:postcode": "35243", "name": "Ann Taylor", "phone": "(205) 969-2259", "website": "https://stores.anntaylor.com/al/birmingham/225-summit-blvd.html", "brand": "Ann Taylor", "brand:wikidata": "Q4766699", "nsi_id": "anntaylor-0615dc"}, "geometry": {"type": "Point", "coordinates": [-86.72743, 33.448637]}},
{"type": "Feature", "id": "VnBDzmiWlO5bi2bJ2b2RzR5lBDs=", "properties": {"ref": "7007-friars-road", "@spider": "anntaylor", "clothes": "women", "shop": "clothes", "addr:full": "7007 Friars Road", "addr:city": "San Diego,", "addr:state": "California", "addr:postcode": "92108", "name": "Ann Taylor", "phone": "(619) 683-2090", "website": "https://stores.anntaylor.com/ca/san-diego/7007-friars-road.html", "brand": "Ann Taylor", "brand:wikidata": "Q4766699", "nsi_id": "anntaylor-0615dc"}, "geometry": {"type": "Point", "coordinates": [-117.167134, 32.768222]}},
{"type": "Feature", "id": "COWlz3Rtm_grVbH0acoeGn4-gdY=", "properties": {"ref": "276-hillsdale-shopping-center", "@spider": "anntaylor", "clothes": "women", "shop": "clothes", "addr:full": "276 Hillsdale Shopping Center", "addr:city": "San Mateo,", "addr:state": "California", "addr:postcode": "94403", "name": "Ann Taylor", "phone": "(650) 571-1030", "website": "https://stores.anntaylor.com/ca/san-mateo/276-hillsdale-shopping-center.html", "brand": "Ann Taylor", "brand:wikidata": "Q4766699", "nsi_id": "anntaylor-0615dc"}, "geometry": {"type": "Point", "coordinates": [-122.3006366, 37.5372732]}},
{"type": "Feature", "id": "GgoaI8u536jmA2FeF9JTkIgoaSc=", "properties": {"ref": "3111-west-chandler-blvd", "@spider": "anntaylor", "clothes": "women", "shop": "clothes", "addr:full": "3111 West Chandler Blvd", "addr:city": "Chandler,", "addr:state": "Arizona", "addr:postcode": "85226", "name": "Ann Taylor", "phone": "(480) 726-6944", "website": "https://stores.anntaylor.com/az/chandler/3111-west-chandler-blvd.html", "brand": "Ann Taylor", "brand:wikidata": "Q4766699", "nsi_id": "anntaylor-0615dc"}, "geometry": {"type": "Point", "coordinates": [-111.8985504, 33.3017304]}},
{"type": "Feature", "id": "jnaHppEAtRKccPyfcqFnANGD83g=", "properties": {"ref": "2905-east-skyline-drive", "@spider": "anntaylor", "clothes": "women", "shop": "clothes", "addr:full": "2905 East Skyline Drive", "addr:city": "Tucson,", "addr:state": "Arizona", "addr:postcode": "85718", "name": "Ann Taylor", "phone": "(520) 615-9396", "website": "https://stores.anntaylor.com/az/tucson/2905-east-skyline-drive.html", "brand": "Ann Taylor", "brand:wikidata": "Q4766699", "nsi_id": "anntaylor-0615dc"}, "geometry": {"type": "Point", "coordinates": [-110.93053875474646, 32.32511866834274]}},
{"type": "Feature", "id": "hfBk0fpUx3NtpAEawBhDKpFF4RM=", "properties": {"ref": "2855-stevens-creek-boulevard", "@spider": "anntaylor", "clothes": "women", "shop": "clothes", "addr:full": "2855 Stevens Creek Boulevard", "addr:city": "Santa Clara,", "addr:state": "California", "addr:postcode": "95050", "name": "Ann Taylor", "phone": "(408) 247-0245", "website": "https://stores.anntaylor.com/ca/santa-clara/2855-stevens-creek-boulevard.html", "brand": "Ann Taylor", "brand:wikidata": "Q4766699", "nsi_id": "anntaylor-0615dc"}, "geometry": {"type": "Point", "coordinates": [-121.9459037, 37.3252819]}},
{"type": "Feature", "id": "xs7eIWbT7JePi29X19qHVvuHY6M=", "properties": {"ref": "495-505-south-lake-ave", "@spider": "anntaylor", "clothes": "women", "shop": "clothes", "addr:full": "495-505 South Lake Ave", "addr:city": "Pasadena,", "addr:state": "California", "addr:postcode": "91101", "name": "Ann Taylor", "phone": "(626) 792-4820", "website": "https://stores.anntaylor.com/ca/pasadena/495-505-south-lake-ave.html", "brand": "Ann Taylor", "brand:wikidata": "Q4766699", "nsi_id": "anntaylor-0615dc"}, "geometry": {"type": "Point", "coordinates": [-118.132649, 34.137127]}},
{"type": "Feature", "id": "peMQvpgAysqrj-1L24Mcy_34O48=", "properties": {"ref": "1689-arden-way", "@spider": "anntaylor", "clothes": "women", "shop": "clothes", "addr:full": "1689 Arden Way", "addr:city": "Sacramento,", "addr:state": "California", "addr:postcode": "95815", "name": "Ann Taylor", "phone": "(916) 927-3162", "website": "https://stores.anntaylor.com/ca/sacramento/1689-arden-way.html", "brand": "Ann Taylor", "brand:wikidata": "Q4766699", "nsi_id": "anntaylor-0615dc"}, "geometry": {"type": "Point", "coordinates": [-121.4272218, 38.6017999]}},
{"type": "Feature", "id": "lSyKxXmvokZ_mjCF2s_EgxK_ShQ=", "properties": {"ref": "2511-stoneridge-mall-road", "@spider": "anntaylor", "clothes": "women", "shop": "clothes", "addr:full": "2511 Stoneridge Mall Road", "addr:city": "Pleasanton,", "addr:state": "California", "addr:postcode": "94588", "name": "Ann Taylor", "phone": "(925) 463-3240", "website": "https://stores.anntaylor.com/ca/pleasanton/2511-stoneridge-mall-road.html", "brand": "Ann Taylor", "brand:wikidata": "Q4766699", "nsi_id": "anntaylor-0615dc"}, "geometry": {"type": "Point", "coordinates": [-121.9287185, 37.6951179]}},
{"type": "Feature", "id": "pA-reEFhkZBXudLMdFME57ucrWk=", "properties": {"ref": "3200-sepulveda-blvd", "@spider": "anntaylor", "clothes": "women", "shop": "clothes", "addr:full": "3200 Sepulveda Blvd", "addr:city": "Manhattan Beach,", "addr:state": "California", "addr:postcode": "90266", "name": "Ann Taylor", "phone": "(310) 545-2506", "website": "https://stores.anntaylor.com/ca/manhattan-beach/3200-sepulveda-blvd.html", "brand": "Ann Taylor", "brand:wikidata": "Q4766699", "nsi_id": "anntaylor-0615dc"}, "geometry": {"type": "Point", "coordinates": [-118.393509, 33.898553]}},
{"type": "Feature", "id": "WfT3g0WoxZOw6sjhbIIp_AZ4UMo=", "properties": {"ref": "73515-el-paseo", "@spider": "anntaylor", "clothes": "women", "shop": "clothes", "addr:full": "73515 El Paseo", "addr:city": "Palm Desert,", "addr:state": "California", "addr:postcode": "92260", "name": "Ann Taylor", "phone": "(760) 779-5070", "website": "https://stores.anntaylor.com/ca/palm-desert/73515-el-paseo.html", "brand": "Ann Taylor", "brand:wikidata": "Q4766699", "nsi_id": "anntaylor-0615dc"}, "geometry": {"type": "Point", "coordinates": [-116.3822464, 33.7193332]}},
{"type": "Feature", "id": "8fTrZpasAN4htb-4xyss-iO5gXk=", "properties": {"ref": "2117-brea-mall", "@spider": "anntaylor", "clothes": "women", "shop": "clothes", "addr:full": "2117 Brea Mall", "addr:city": "Brea,", "addr:state": "California", "addr:postcode": "92821", "name": "Ann Taylor", "phone": "(714) 529-9002", "website": "https://stores.anntaylor.com/ca/brea/2117-brea-mall.html", "brand": "Ann Taylor", "brand:wikidata": "Q4766699", "nsi_id": "anntaylor-0615dc"}, "geometry": {"type": "Point", "coordinates": [-117.887217, 33.916038]}},
{"type": "Feature", "id": "jdXQ3Y5zKr5lYmV19W78sM7eP2k=", "properties": {"ref": "3333-bristol-street", "@spider": "anntaylor", "clothes": "women", "shop": "clothes", "addr:full": "3333 Bristol Street", "addr:city": "Costa Mesa,", "addr:state": "California", "addr:postcode": "92626", "name": "Ann Taylor", "phone": "(714) 754-1915", "website": "https://stores.anntaylor.com/ca/costa-mesa/3333-bristol-street.html", "brand": "Ann Taylor", "brand:wikidata": "Q4766699", "nsi_id": "anntaylor-0615dc"}, "geometry": {"type": "Point", "coordinates": [-117.8874957, 33.6909576]}},
{"type": "Feature", "id": "mk0Hr0_1IcyJX83mp6YAwdQLCJI=", "properties": {"ref": "660-stanford-shopping-center", "@spider": "anntaylor", "clothes": "women", "shop": "clothes", "addr:full": "660 Stanford Shopping Center", "addr:city": "Palo Alto,", "addr:state": "California", "addr:postcode": "94304", "name": "Ann Taylor", "phone": "(650) 853-0433", "website": "https://stores.anntaylor.com/ca/palo-alto/660-stanford-shopping-center.html", "brand": "Ann Taylor", "brand:wikidata": "Q4766699", "nsi_id": "anntaylor-0615dc"}, "geometry": {"type": "Point", "coordinates": [-122.1710475, 37.4438302]}}]}