{"type":"FeatureCollection","features":[{"type": "Feature", "id": "aeEChXBQy8S0c0dChNZ8NVslC0c=", "properties": {"ref": "348", "@spider": "anthonys_restaurants", "addr:full": "421 South 227th Street", "addr:city": "Des Moines", "addr:state": "WA", "addr:postcode": "98198", "name": "Anthony\u2019s HomePort Des Moines", "phone": "+12068241947", "website": "https://www.anthonys.com/restaurant/anthonys-homeport-des-moines/", "brand": "Anthony's"}, "geometry": {"type": "Point", "coordinates": [-122.328603, 47.397368]}},
{"type": "Feature", "id": "zU7PjeTRD573fO4FSwbC-UTjwAs=", "properties": {"ref": "341", "@spider": "anthonys_restaurants", "addr:full": "1675 Marine Drive NE", "addr:city": "Olympia", "addr:state": "WA", "addr:postcode": "98501", "name": "Anthony\u2019s Hearthfire Grill \u2013 Olympia", "phone": "+13607053473", "website": "https://www.anthonys.com/restaurant/anthonys-hearthfire-grill-northpoint-olympia/", "brand": "Anthony's"}, "geometry": {"type": "Point", "coordinates": [-122.904955, 47.058562]}},
{"type": "Feature", "id": "68VYFtg9MZU6U7WpEF243KfjCzg=", "properties": {"ref": "344", "@spider": "anthonys_restaurants", "addr:full": "7 Bellwether Way", "addr:city": "Bellingham", "addr:state": "WA", "addr:postcode": "98225", "name": "Anthony\u2019s Hearthfire Grill \u2013 Bellingham", "phone": "+13605273473", "website": "https://www.anthonys.com/restaurant/anthonys-hearthfire-grill-squalicum-harbor/", "brand": "Anthony's"}, "geometry": {"type": "Point", "coordinates": [-122.497184, 48.754784]}},
{"type": "Feature", "id": "PdncxDqWJZMyRoOai4MK6GKdqIs=", "properties": {"ref": "407", "@spider": "anthonys_restaurants", "addr:full": "3000 - 184th St. SW, Suite 852", "addr:city": "Lynnwood", "addr:state": "WA", "addr:postcode": "98037", "name": "Anthony\u2019s Fish Bar ~ Alderwood Mall", "phone": "+14257714665", "website": "https://www.anthonys.com/restaurant/anthonys-fish-bar-alderwood-mall/", "brand": "Anthony's"}, "geometry": {"type": "Point", "coordinates": [-122.274665, 47.828814]}},
{"type": "Feature", "id": "-tup_RHL1pfJ24Dt4tvgSZ2ysa8=", "properties": {"ref": "403", "@spider": "anthonys_restaurants", "addr:full": "2201 Alaskan Way", "addr:city": "Seattle", "addr:state": "WA", "addr:postcode": "98121", "name": "Anthony\u2019s Fish Bar", "phone": "+12064486688", "website": "https://www.anthonys.com/restaurant/anthonys-fish-bar/", "brand": "Anthony's"}, "geometry": {"type": "Point", "coordinates": [-122.348189, 47.610817]}},
{"type": "Feature", "id": "25xleImE8LbGX6ZOihFHG1zoKxo=", "properties": {"ref": "388", "@spider": "anthonys_restaurants", "addr:full": "1207 Q Avenue", "addr:city": "Anacortes", "addr:state": "WA", "addr:postcode": "98221", "name": "Anthony\u2019s Cabana", "phone": "+13605880333", "website": "https://www.anthonys.com/restaurant/anthonys-cabana/", "brand": "Anthony's"}, "geometry": {"type": "Point", "coordinates": [-122.61025, 48.512594]}},
{"type": "Feature", "id": "Cjm2VHEQft0x8eZedpP76W1EwlE=", "properties": {"ref": "2562", "@spider": "anthonys_restaurants", "addr:full": "959 W. Front Street", "addr:city": "Boise", "addr:state": "ID", "addr:postcode": "83702", "name": "Anthony\u2019s Blend ~ Boise", "phone": "+12082022468", "website": "https://www.anthonys.com/restaurant/anthonys-boise-coffee-bar/", "brand": "Anthony's"}, "geometry": {"type": "Point", "coordinates": [-116.20677325959325, 43.614901617916615]}},
{"type": "Feature", "id": "Yuh0nIR3LQEvJfpP1FjfB71YWDQ=", "properties": {"ref": "385", "@spider": "anthonys_restaurants", "addr:full": "2201 Alaskan Way", "addr:city": "Seattle", "addr:state": "WA", "addr:postcode": "98121", "name": "Anthony\u2019s Bell Street Diner", "phone": "+12064486688", "website": "https://www.anthonys.com/restaurant/anthonys-bell-street-diner/", "brand": "Anthony's"}, "geometry": {"type": "Point", "coordinates": [-122.348189, 47.610817]}},
{"type": "Feature", "id": "ZlgqD51HcbIymoOZ0PDj3qa_VZ8=", "properties": {"ref": "382", "@spider": "anthonys_restaurants", "addr:full": "456 Admiral Way", "addr:city": "Edmonds", "addr:state": "WA", "addr:postcode": "98020", "name": "Anthony\u2019s Beach Cafe", "phone": "+14257714400", "website": "https://www.anthonys.com/restaurant/anthonys-beach-cafe/", "brand": "Anthony's"}, "geometry": {"type": "Point", "coordinates": [-122.391032, 47.807976]}},
{"type": "Feature", "id": "BN9ZinktvWL38oP25CHoNY96L6Y=", "properties": {"ref": "338", "@spider": "anthonys_restaurants", "addr:full": "475 Southwest Powerhouse Drive", "addr:city": "Bend", "addr:state": "OR", "addr:postcode": "97702", "name": "Anthony\u2019s at The Old Mill District", "phone": "+15413898998", "website": "https://www.anthonys.com/restaurant/anthonys-at-the-old-mill-district/", "brand": "Anthony's"}, "geometry": {"type": "Point", "coordinates": [-121.315946, 44.045466]}},
{"type": "Feature", "id": "L-a0mBitRW_k3htdpqHEaqPhsIk=", "properties": {"ref": "335", "@spider": "anthonys_restaurants", "addr:full": "25 Bellwether Way", "addr:city": "Bellingham", "addr:state": "WA", "addr:postcode": "98225", "name": "Anthony\u2019s at Squalicum Harbor", "phone": "+13606475588", "website": "https://www.anthonys.com/restaurant/anthonys-at-squalicum-harbor/", "brand": "Anthony's"}, "geometry": {"type": "Point", "coordinates": [-122.494507, 48.756155]}},
{"type": "Feature", "id": "4Ggvte-NaOqnriTcHnFxtEhHNBM=", "properties": {"ref": "332", "@spider": "anthonys_restaurants", "addr:full": "510 North Lincoln", "addr:city": "Spokane", "addr:state": "WA", "addr:postcode": "99201", "name": "Anthony\u2019s at Spokane Falls", "phone": "+15093289009", "website": "https://www.anthonys.com/restaurant/anthonys-at-spokane-falls/", "brand": "Anthony's"}, "geometry": {"type": "Point", "coordinates": [-117.424571, 47.662849]}},
{"type": "Feature", "id": "VSzaYoRujpT0C9ktAaGVqwadohI=", "properties": {"ref": "329", "@spider": "anthonys_restaurants", "addr:full": "20 Washington Avenue", "addr:city": "Bremerton", "addr:state": "WA", "addr:postcode": "98337", "name": "Anthony\u2019s at Sinclair Inlet", "phone": "+13603775004", "website": "https://www.anthonys.com/restaurant/anthonys-at-sinclair-inlet/", "brand": "Anthony's"}, "geometry": {"type": "Point", "coordinates": [-122.624445, 47.563056]}},
{"type": "Feature", "id": "Qf-ER8ow-yD2qE7yNhaOutb9JeQ=", "properties": {"ref": "379", "@spider": "anthonys_restaurants", "addr:full": "5910 North Waterfront Drive", "addr:city": "Tacoma", "addr:state": "WA", "addr:postcode": "98407", "name": "Anthony\u2019s at Point Defiance", "phone": "+12537529700", "website": "https://www.anthonys.com/restaurant/anthonys-at-point-defiance/", "brand": "Anthony's"}, "geometry": {"type": "Point", "coordinates": [-122.516195, 47.306991]}},
{"type": "Feature", "id": "EqD6grcMM8vnZx3hcd_Q4JSNADE=", "properties": {"ref": "325", "@spider": "anthonys_restaurants", "addr:full": "8827 N. Harborview Drive", "addr:city": "Gig Harbor", "addr:state": "WA", "addr:postcode": "98332", "name": "Anthony\u2019s at Gig Harbor", "phone": "+12538536353", "website": "https://www.anthonys.com/restaurant/anthonys-at-gig-harbor/", "brand": "Anthony's"}, "geometry": {"type": "Point", "coordinates": [-122.589856, 47.339039]}},
{"type": "Feature", "id": "HH_XWvSoFTNPdSX-bO_QpOwN_Pc=", "properties": {"ref": "160", "@spider": "anthonys_restaurants", "addr:full": "550 Columbia Point Drive", "addr:city": "Richland", "addr:state": "WA", "addr:postcode": "99352", "name": "Anthony\u2019s at Columbia Point", "phone": "+15099463474", "website": "https://www.anthonys.com/restaurant/anthonys-at-columbia-point/", "brand": "Anthony's"}, "geometry": {"type": "Point", "coordinates": [-119.250701, 46.263221]}},
{"type": "Feature", "id": "UOe_msANJ8Ss3IXCHb5DpdGjCnQ=", "properties": {"ref": "413", "@spider": "anthonys_restaurants", "addr:full": "1722 W Marine View Dr", "addr:city": "Everett", "addr:state": "WA", "addr:postcode": "98201", "name": "Woody\u2019s ~ Everett", "phone": "+14252596001", "website": "https://www.anthonys.com/restaurant/woodys/", "brand": "Anthony's"}, "geometry": {"type": "Point", "coordinates": [-122.221966, 47.995271]}},
{"type": "Feature", "id": "3MxGbh-lWdLSxRJLL2XJd953PJc=", "properties": {"ref": "410", "@spider": "anthonys_restaurants", "addr:full": "1900 W. Nickerson St", "addr:city": "Seattle", "addr:state": "WA", "addr:postcode": "98119", "name": "Little Chinook\u2019s, Fishermen\u2019s Terminal \u2013 Ballard", "phone": "+12062834665", "website": "https://www.anthonys.com/restaurant/little-chinooks/", "brand": "Anthony's"}, "geometry": {"type": "Point", "coordinates": [-122.381131, 47.655645]}},
{"type": "Feature", "id": "nnp9tFW3Ldd3S6LOo6fIa0ERsbk=", "properties": {"ref": "376", "@spider": "anthonys_restaurants", "addr:full": "2761 North Ruston Way", "addr:city": "Tacoma", "addr:state": "WA", "addr:postcode": "98402", "name": "Harbor Lights", "phone": "+12537528600", "website": "https://www.anthonys.com/restaurant/harbor-lights/", "brand": "Anthony's"}, "geometry": {"type": "Point", "coordinates": [-122.474351, 47.279215]}},
{"type": "Feature", "id": "LxYKphoyTdYSd3lw0RsD5--0E3c=", "properties": {"ref": "3452", "@spider": "anthonys_restaurants", "addr:full": "11830 19th Ave SE", "addr:city": "Everett", "addr:state": "WA", "addr:postcode": "98208", "name": "Emory\u2019s on Silver Lake", "website": "https://www.anthonys.com/restaurant/emorys-on-silver-lake/", "brand": "Anthony's"}, "geometry": {"type": "Point", "coordinates": [-122.2094727, 47.8898318]}},
{"type": "Feature", "id": "zJskVrrN0MjiZsTPK8yl5Gmviuk=", "properties": {"ref": "397", "@spider": "anthonys_restaurants", "addr:full": "421 South 227th Street", "addr:city": "Des Moines", "addr:state": "WA", "addr:postcode": "98198", "name": "Des Moines Oyster Bar & Grill", "phone": "+12068241947", "website": "https://www.anthonys.com/restaurant/des-moines-oyster-bar-grill/", "brand": "Anthony's"}, "geometry": {"type": "Point", "coordinates": [-122.328603, 47.397368]}},
{"type": "Feature", "id": "x8X6HtYky1GjNmgFziM3JP0JCds=", "properties": {"ref": "3022", "@spider": "anthonys_restaurants", "addr:full": "1900 W. Nickerson St", "addr:city": "Seattle", "addr:state": "WA", "addr:postcode": "98119", "name": "Dawg Boat \u2013 Chinooks", "website": "https://www.anthonys.com/restaurant/dawg-boat-chinooks/", "brand": "Anthony's"}, "geometry": {"type": "Point", "coordinates": [-122.381131, 47.655645]}},
{"type": "Feature", "id": "XNHZNHwkrQBcJvPSuGBH-GusxyY=", "properties": {"ref": "394", "@spider": "anthonys_restaurants", "addr:full": "1900 W. Nickerson St", "addr:city": "Seattle", "addr:state": "WA", "addr:postcode": "98119", "name": "Chinook\u2019s at Salmon Bay,  Fishermen\u2019s Terminal \u2013 Ballard", "phone": "+12062834665", "website": "https://www.anthonys.com/restaurant/chinooks-at-salmon-bay/", "brand": "Anthony's"}, "geometry": {"type": "Point", "coordinates": [-122.381131, 47.655645]}},
{"type": "Feature", "id": "fNkDARltnzQWByq8SH976V4Y6ys=", "properties": {"ref": "373", "@spider": "anthonys_restaurants", "addr:full": "450 Columbia Point Drive", "addr:city": "Richland", "addr:state": "WA", "addr:postcode": "99352", "name": "Budd\u2019s Broiler", "phone": "+15099468178", "website": "https://www.anthonys.com/restaurant/budds-broiler/", "brand": "Anthony's"}, "geometry": {"type": "Point", "coordinates": [-119.253331, 46.264376]}},
{"type": "Feature", "id": "hW7MYCe-4eh2bb7SspL59b6hNmA=", "properties": {"ref": "3391", "@spider": "anthonys_restaurants", "addr:full": "9001 S 19th St", "addr:city": "Tacoma", "addr:state": "WA", "addr:postcode": "98466", "name": "Boathouse 19", "phone": "+12535651919", "website": "https://www.anthonys.com/restaurant/boathouse-19/", "brand": "Anthony's"}, "geometry": {"type": "Point", "coordinates": [-122.5585751, 47.2438445]}},
{"type": "Feature", "id": "S-j9ju5BEkKx3e45g3Mn7-xxhos=", "properties": {"ref": "370", "@spider": "anthonys_restaurants", "addr:full": "1722 West Marine View Drive", "addr:city": "Everett", "addr:state": "WA", "addr:postcode": "98201", "name": "Anthony\u2019s Woodfire Grill", "phone": "+14252584000", "website": "https://www.anthonys.com/restaurant/anthonys-woodfire-grill/", "brand": "Anthony's"}, "geometry": {"type": "Point", "coordinates": [-122.221966, 47.995271]}},
{"type": "Feature", "id": "y1phYwTZKU_TrMm9QeLabD7wHlE=", "properties": {"ref": "391", "@spider": "anthonys_restaurants", "addr:full": "3000 - 184th St. SW, Suite 870", "addr:city": "Lynnwood", "addr:state": "WA", "addr:postcode": "98037", "name": "Anthony\u2019s Seafood Grill \u2013 Alderwood Mall", "phone": "+14257714665", "website": "https://www.anthonys.com/restaurant/anthonys-seafood-grill-alderwood-mall/", "brand": "Anthony's"}, "geometry": {"type": "Point", "coordinates": [-122.274283, 47.827838]}},
{"type": "Feature", "id": "jlz-gUvN1KEKZeOEYmgJlm-qxG0=", "properties": {"ref": "366", "@spider": "anthonys_restaurants", "addr:full": "2201 Alaskan Way", "addr:city": "Seattle", "addr:state": "WA", "addr:postcode": "98121", "name": "Anthony\u2019s Pier 66", "phone": "+12064486688", "website": "https://www.anthonys.com/restaurant/anthonys-pier-66/", "brand": "Anthony's"}, "geometry": {"type": "Point", "coordinates": [-122.348189, 47.610817]}},
{"type": "Feature", "id": "J-CLrlVZ-3dzfEzW4DP4KyVKQGA=", "properties": {"ref": "362", "@spider": "anthonys_restaurants", "addr:full": "704 Columbia Street NW", "addr:city": "Olympia", "addr:state": "WA", "addr:postcode": "98501", "name": "Anthony\u2019s HomePort Olympia", "phone": "+13603579700", "website": "https://www.anthonys.com/restaurant/anthonys-homeport-olympia/", "brand": "Anthony's"}, "geometry": {"type": "Point", "coordinates": [-122.903905, 47.050228]}},
{"type": "Feature", "id": "AhXqrKbc9Jx_LKt35--k5UzejnE=", "properties": {"ref": "359", "@spider": "anthonys_restaurants", "addr:full": "135 Lake Street South", "addr:city": "Kirkland", "addr:state": "WA", "addr:postcode": "98033", "name": "Anthony\u2019s HomePort Kirkland", "phone": "+14258220225", "website": "https://www.anthonys.com/restaurant/anthonys-homeport-kirkland/", "brand": "Anthony's"}, "geometry": {"type": "Point", "coordinates": [-122.206611, 47.674169]}},
{"type": "Feature", "id": "N9KYY4p00XMJSkcly4UH8pek9i4=", "properties": {"ref": "356", "@spider": "anthonys_restaurants", "addr:full": "1726 West Marine View Drive", "addr:city": "Everett", "addr:state": "WA", "addr:postcode": "98201", "name": "Anthony\u2019s HomePort Everett", "phone": "+14252523333", "website": "https://www.anthonys.com/restaurant/anthonys-homeport-everett/", "brand": "Anthony's"}, "geometry": {"type": "Point", "coordinates": [-122.223027, 47.995283]}},
{"type": "Feature", "id": "2mZrr6nlm0u5kuhxoeQHycSrNNk=", "properties": {"ref": "351", "@spider": "anthonys_restaurants", "addr:full": "456 Admiral Way", "addr:city": "Edmonds", "addr:state": "WA", "addr:postcode": "98020", "name": "Anthony\u2019s HomePort Edmonds", "phone": "+14257714400", "website": "https://www.anthonys.com/restaurant/anthonys-homeport-edmonds/", "brand": "Anthony's"}, "geometry": {"type": "Point", "coordinates": [-122.391032, 47.807976]}},
{"type": "Feature", "id": "rDD74XKO_G8nGMOSVloag2vftnA=", "properties": {"ref": "152", "@spider": "anthonys_restaurants", "addr:full": "1926 W. Riverstone Drive", "addr:city": "Coeur d'Alene", "addr:state": "ID", "addr:postcode": "83815", "name": "Anthony\u2019s at Coeur d\u2019Alene", "phone": "+12086644665", "website": "https://www.anthonys.com/restaurant/anthonys-at-coeur-dalene/", "brand": "Anthony's"}, "geometry": {"type": "Point", "coordinates": [-116.811062, 47.696255]}},
{"type": "Feature", "id": "qkiz3-pzezhoYLJKUBAeAFSafJk=", "properties": {"ref": "137", "@spider": "anthonys_restaurants", "addr:full": "1207 Q Avenue", "addr:city": "Anacortes", "addr:state": "WA", "addr:postcode": "98221", "name": "Anthony\u2019s at Cap Sante Marina", "phone": "+13605880333", "website": "https://www.anthonys.com/restaurant/anthonys-at-cap-sante-marina/", "brand": "Anthony's"}, "geometry": {"type": "Point", "coordinates": [-122.61025, 48.512594]}},
{"type": "Feature", "id": "gQzR_3o_WZwxfYT2cR7InZk3TfM=", "properties": {"ref": "1464", "@spider": "anthonys_restaurants", "addr:full": "959 W. Front Street", "addr:city": "Boise", "addr:state": "ID", "addr:postcode": "83702", "name": "Anthony\u2019s at\u00a0Boise", "phone": "+12082022468", "website": "https://www.anthonys.com/restaurant/anthonys-at-boise/", "brand": "Anthony's"}, "geometry": {"type": "Point", "coordinates": [-116.20677325959325, 43.614901617916615]}}]}