{"type":"FeatureCollection","features":[{"type": "Feature", "id": "xcVq87amZUbSMWBeH1LY8ehk9tw=", "properties": {"ref": "2001", "@spider": "anthonys", "addr:full": "2733 Papermill Road, Wyomissing, PA 19610", "addr:housenumber": "2733", "addr:street": "Papermill Road", "addr:street_address": "2733 Papermill Road", "addr:city": "Wyomissing", "addr:state": "PA", "addr:postcode": "19610", "addr:country": "US", "name": "Wyomissing", "phone": "(610) 816-5722", "website": "https://acfp.com/locations/wyomissing", "brand": "Anthony's Coal Fired Pizza"}, "geometry": {"type": "Point", "coordinates": [-75.983261, 40.355949]}},
{"type": "Feature", "id": "zZLNJ2KEEhh_7zMsU4aaXOiCu8E=", "properties": {"ref": "1346", "@spider": "anthonys", "addr:full": "220 Hillside Road, Cranston, RI 02920", "addr:housenumber": "220", "addr:street": "Hillside Road", "addr:street_address": "220 Hillside Road", "addr:city": "Cranston", "addr:state": "RI", "addr:postcode": "02920", "addr:country": "US", "name": "Cranston", "phone": "(401) 943-1601", "website": "https://acfp.com/locations/cranston", "brand": "Anthony's Coal Fired Pizza"}, "geometry": {"type": "Point", "coordinates": [-71.4600927, 41.7578251]}},
{"type": "Feature", "id": "H_HaWt5qURHw_loKDAY2ENnZosE=", "properties": {"ref": "1342", "@spider": "anthonys", "addr:full": "50 East Wynnewood Road, Wynnewood, PA 19096", "addr:housenumber": "50", "addr:street": "East Wynnewood Road", "addr:street_address": "50 East Wynnewood Road", "addr:city": "Wynnewood", "addr:state": "PA", "addr:postcode": "19096", "addr:country": "US", "name": "Wynnewood", "phone": "(610) 645-5453", "website": "https://acfp.com/locations/wynnewood", "brand": "Anthony's Coal Fired Pizza"}, "geometry": {"type": "Point", "coordinates": [-75.27215037, 40.0013164]}},
{"type": "Feature", "id": "J2VwL4yL8_1ObHa27CnoKTK-epY=", "properties": {"ref": "1339", "@spider": "anthonys", "addr:full": "321 East Lancaster Avenue, Wayne, PA 19087", "addr:housenumber": "321", "addr:street": "East Lancaster Avenue", "addr:street_address": "321 East Lancaster Avenue", "addr:city": "Wayne", "addr:state": "PA", "addr:postcode": "19087", "addr:country": "US", "name": "Wayne, PA", "phone": "(484) 580-8022", "website": "https://acfp.com/locations/wayne-pa", "brand": "Anthony's Coal Fired Pizza"}, "geometry": {"type": "Point", "coordinates": [-75.3815268, 40.0444762]}},
{"type": "Feature", "id": "iV74oO3eEUmQ5B8nL4kt9MmSXXQ=", "properties": {"ref": "1336", "@spider": "anthonys", "addr:full": "750 North Krocks Road, Allentown, PA 18106", "addr:housenumber": "750", "addr:street": "North Krocks Road", "addr:street_address": "750 North Krocks Road", "addr:city": "Allentown", "addr:state": "PA", "addr:postcode": "18106", "addr:country": "US", "name": "Trexlertown", "phone": "(610) 366-9701", "website": "https://acfp.com/locations/trexlertown", "brand": "Anthony's Coal Fired Pizza"}, "geometry": {"type": "Point", "coordinates": [-75.5668847, 40.5645291]}},
{"type": "Feature", "id": "owjRFsRGN1dXjquMi4OH-dtc5vY=", "properties": {"ref": "1327", "@spider": "anthonys", "addr:full": "1810 Settlers Ridge Center Dr, Robinson Township, PA 15205", "addr:housenumber": "1810", "addr:street": "Settlers Ridge Center Dr", "addr:street_address": "1810 Settlers Ridge Center Dr", "addr:city": "Robinson Township", "addr:state": "PA", "addr:postcode": "15205", "addr:country": "US", "name": "Settlers Ridge", "phone": "(412) 787-3434", "website": "https://acfp.com/locations/settlers-ridge", "brand": "Anthony's Coal Fired Pizza"}, "geometry": {"type": "Point", "coordinates": [-80.1486112, 40.4380398]}},
{"type": "Feature", "id": "asTX5Y5liNsGrFvHJs-Kdklp8L8=", "properties": {"ref": "1324", "@spider": "anthonys", "addr:full": "2740 Stroschein Road, Monroeville, PA 15146", "addr:housenumber": "2740", "addr:street": "Stroschein Road", "addr:street_address": "2740 Stroschein Road", "addr:city": "Monroeville", "addr:state": "PA", "addr:postcode": "15146", "addr:country": "US", "name": "Monroeville", "phone": "(412) 373-0700", "website": "https://acfp.com/locations/monroeville", "brand": "Anthony's Coal Fired Pizza"}, "geometry": {"type": "Point", "coordinates": [-79.76985, 40.4377]}},
{"type": "Feature", "id": "4NxoY4NeQUCtPBiY8ulihVboLYY=", "properties": {"ref": "1321", "@spider": "anthonys", "addr:full": "102 McDowell Lane, McMurray, PA 15317", "addr:housenumber": "102", "addr:street": "McDowell Lane", "addr:street_address": "102 McDowell Lane", "addr:city": "McMurray", "addr:state": "PA", "addr:postcode": "15317", "addr:country": "US", "name": "McMurray", "phone": "(724) 941-4900", "website": "https://acfp.com/locations/mcmurray", "brand": "Anthony's Coal Fired Pizza"}, "geometry": {"type": "Point", "coordinates": [-80.131572, 40.2700212]}},
{"type": "Feature", "id": "WNhMlh5j-JLKmQSGp8-kSDzkejQ=", "properties": {"ref": "1318", "@spider": "anthonys", "addr:full": "100 Welsh Road, Horsham, PA 19044", "addr:housenumber": "100", "addr:street": "Welsh Road", "addr:street_address": "100 Welsh Road", "addr:city": "Horsham", "addr:state": "PA", "addr:postcode": "19044", "addr:country": "US", "name": "Horsham", "phone": "(215) 657-1113", "website": "https://acfp.com/locations/horsham", "brand": "Anthony's Coal Fired Pizza"}, "geometry": {"type": "Point", "coordinates": [-75.1459091, 40.158453]}},
{"type": "Feature", "id": "YgStKoVbByu9XanTqnAcMvT-_LY=", "properties": {"ref": "1313", "@spider": "anthonys", "addr:full": "123 East Swedesford Road, Exton, PA 19341", "addr:housenumber": "123", "addr:street": "East Swedesford Road", "addr:street_address": "123 East Swedesford Road", "addr:city": "Exton", "addr:state": "PA", "addr:postcode": "19341", "addr:country": "US", "name": "Exton", "phone": "(610) 594-1900", "website": "https://acfp.com/locations/exton", "brand": "Anthony's Coal Fired Pizza"}, "geometry": {"type": "Point", "coordinates": [-75.6306124, 40.036175]}},
{"type": "Feature", "id": "Qizj2mfQJttYEwVd6NyNaawkS48=", "properties": {"ref": "1310", "@spider": "anthonys", "addr:full": "2045 Mackenzie Way, Cranberry Township, PA 16066", "addr:housenumber": "2045", "addr:street": "Mackenzie Way", "addr:street_address": "2045 Mackenzie Way", "addr:city": "Cranberry Township", "addr:state": "PA", "addr:postcode": "16066", "addr:country": "US", "name": "Cranberry Township", "phone": "(724) 742-1212", "website": "https://acfp.com/locations/cranberry-township", "brand": "Anthony's Coal Fired Pizza"}, "geometry": {"type": "Point", "coordinates": [-80.0890137, 40.6870636]}},
{"type": "Feature", "id": "weFeyTgGFnIapJhJTZedGZJH8y0=", "properties": {"ref": "1307", "@spider": "anthonys", "addr:full": "960 Dekalb Pike, Blue Bell, PA 19422", "addr:housenumber": "960", "addr:street": "Dekalb Pike", "addr:street_address": "960 Dekalb Pike", "addr:city": "Blue Bell", "addr:state": "PA", "addr:postcode": "19422", "addr:country": "US", "name": "Blue Bell", "phone": "(610) 275-2625", "website": "https://acfp.com/locations/blue-bell", "brand": "Anthony's Coal Fired Pizza"}, "geometry": {"type": "Point", "coordinates": [-75.282731, 40.174604]}},
{"type": "Feature", "id": "DkVH7giOPgB9Q6MG-6cM3mFip0w=", "properties": {"ref": "1304", "@spider": "anthonys", "addr:full": "8063 Jericho Turnpike, Woodbury, NY 11797", "addr:housenumber": "8063", "addr:street": "Jericho Turnpike", "addr:street_address": "8063 Jericho Turnpike", "addr:city": "Woodbury", "addr:state": "NY", "addr:postcode": "11797", "addr:country": "US", "name": "Woodbury", "phone": "(516) 367-2625", "website": "https://acfp.com/locations/woodbury", "brand": "Anthony's Coal Fired Pizza"}, "geometry": {"type": "Point", "coordinates": [-73.4737676, 40.8157889]}},
{"type": "Feature", "id": "jh2L4aahzKpABJMMDwiS82RNZ7Y=", "properties": {"ref": "1301", "@spider": "anthonys", "addr:full": "3430 Sunrise Highway, Wantagh, NY 11793", "addr:housenumber": "3430", "addr:street": "Sunrise Highway", "addr:street_address": "3430 Sunrise Highway", "addr:city": "Wantagh", "addr:state": "NY", "addr:postcode": "11793", "addr:country": "US", "name": "Wantagh", "phone": "(516) 679-2625", "website": "https://acfp.com/locations/wantagh", "brand": "Anthony's Coal Fired Pizza"}, "geometry": {"type": "Point", "coordinates": [-73.50473338, 40.67245695]}},
{"type": "Feature", "id": "JBLLDlj_d7yAuhmghb6x_vxUFXM=", "properties": {"ref": "1298", "@spider": "anthonys", "addr:full": "6401 Jericho Turnpike, Commack, NY 11725", "addr:housenumber": "6401", "addr:street": "Jericho Turnpike", "addr:street_address": "6401 Jericho Turnpike", "addr:city": "Commack", "addr:state": "NY", "addr:postcode": "11725", "addr:country": "US", "name": "Commack", "phone": "(631) 858-2625", "website": "https://acfp.com/locations/commack", "brand": "Anthony's Coal Fired Pizza"}, "geometry": {"type": "Point", "coordinates": [-73.2968761, 40.8438214]}},
{"type": "Feature", "id": "udnPo-DyjMRv9lFFlm2GxsH8Hf0=", "properties": {"ref": "1295", "@spider": "anthonys", "addr:full": "137 Old Country Road, Carle Place, NY 11514", "addr:housenumber": "137", "addr:street": "Old Country Road", "addr:street_address": "137 Old Country Road", "addr:city": "Carle Place", "addr:state": "NY", "addr:postcode": "11514", "addr:country": "US", "name": "Carle Place", "phone": "(516) 877-7750", "website": "https://acfp.com/locations/carle-place", "brand": "Anthony's Coal Fired Pizza"}, "geometry": {"type": "Point", "coordinates": [-73.6199758, 40.7435448]}},
{"type": "Feature", "id": "b3nBZxO-mKWZDnCBUUxsgkw8yw8=", "properties": {"ref": "1292", "@spider": "anthonys", "addr:full": "4180 Veterans Memorial Highway Bohemia, NY 11716", "addr:country": "US", "name": "Bohemia", "phone": "(631) 647-2625", "website": "https://acfp.com/locations/bohemia", "brand": "Anthony's Coal Fired Pizza"}, "geometry": {"type": "Point", "coordinates": [-73.09808339, 40.7819985]}},
{"type": "Feature", "id": "ijBmTl0zmJP_zRWKRTjVvwcEQFc=", "properties": {"ref": "1289", "@spider": "anthonys", "addr:full": "1600 Route 23 North Wayne, NJ 07470", "addr:country": "US", "name": "Wayne, NJ", "phone": "(973) 872-2625", "website": "https://acfp.com/locations/wayne-nj", "brand": "Anthony's Coal Fired Pizza"}, "geometry": {"type": "Point", "coordinates": [-74.2711746, 40.9390691]}},
{"type": "Feature", "id": "rgJ13OKfchlb48-SxpEN6pOw6UY=", "properties": {"ref": "1286", "@spider": "anthonys", "addr:full": "984 State Route 17, Ramsey, NJ 07446", "addr:housenumber": "984", "addr:street": "State Route 17", "addr:street_address": "984 State Route 17", "addr:city": "Ramsey", "addr:state": "NJ", "addr:postcode": "07446", "addr:country": "US", "name": "Ramsey", "phone": "(201) 818-2625", "website": "https://acfp.com/locations/ramsey", "brand": "Anthony's Coal Fired Pizza"}, "geometry": {"type": "Point", "coordinates": [-74.1332958, 41.0661277]}},
{"type": "Feature", "id": "kcyI6dGSzayvSy0Kt8zWIqXaz1E=", "properties": {"ref": "1283", "@spider": "anthonys", "addr:full": "7000 Midlantic Drive, Mount Laurel, NJ 08054", "addr:housenumber": "7000", "addr:street": "Midlantic Drive", "addr:street_address": "7000 Midlantic Drive", "addr:city": "Mount Laurel", "addr:state": "NJ", "addr:postcode": "08054", "addr:country": "US", "name": "Mount Laurel", "phone": "(856) 234-2725", "website": "https://acfp.com/locations/mount-laurel", "brand": "Anthony's Coal Fired Pizza"}, "geometry": {"type": "Point", "coordinates": [-74.9220155, 39.9653645]}},
{"type": "Feature", "id": "QjN2qUsNrKdszBa5cqkzFI2IoPs=", "properties": {"ref": "1280", "@spider": "anthonys", "addr:full": "98 US Highway 9, Englishtown, NJ 07726", "addr:housenumber": "98", "addr:street": "US Highway 9", "addr:street_address": "98 US Highway 9", "addr:city": "Englishtown", "addr:state": "NJ", "addr:postcode": "07726", "addr:country": "US", "name": "Marlboro", "phone": "(732) 780-2625", "website": "https://acfp.com/locations/marlboro", "brand": "Anthony's Coal Fired Pizza"}, "geometry": {"type": "Point", "coordinates": [-74.3074329, 40.3513787]}},
{"type": "Feature", "id": "OQjG8J30EZ4PjzV6MCa0MG6xK7k=", "properties": {"ref": "1277", "@spider": "anthonys", "addr:full": "8119 Town Center Way, Livingston, NJ 07039", "addr:housenumber": "8119", "addr:street": "Town Center Way", "addr:street_address": "8119 Town Center Way", "addr:city": "Livingston", "addr:state": "NJ", "addr:postcode": "07039", "addr:country": "US", "name": "Livingston", "phone": "(973) 992-2625", "website": "https://acfp.com/locations/livingston", "brand": "Anthony's Coal Fired Pizza"}, "geometry": {"type": "Point", "coordinates": [-74.3145646, 40.7965033]}},
{"type": "Feature", "id": "LYBjdf5CdLCa5Tv0KD1vwgaAjuE=", "properties": {"ref": "1273", "@spider": "anthonys", "addr:full": "2101 Promenade Boulevard, Fair Lawn, NJ 07410", "addr:housenumber": "2101", "addr:street": "Promenade Boulevard", "addr:street_address": "2101 Promenade Boulevard", "addr:city": "Fair Lawn", "addr:state": "NJ", "addr:postcode": "07410", "addr:country": "US", "name": "Fair Lawn", "phone": "(201) 796-2625", "website": "https://acfp.com/locations/fair-lawn", "brand": "Anthony's Coal Fired Pizza"}, "geometry": {"type": "Point", "coordinates": [-74.1281506, 40.9441213]}},
{"type": "Feature", "id": "ny-d2JGiw0UEG0oiKoB8-z3e5Ls=", "properties": {"ref": "1270", "@spider": "anthonys", "addr:full": "80 Parsonage Road, Edison, NJ 08837", "addr:housenumber": "80", "addr:street": "Parsonage Road", "addr:street_address": "80 Parsonage Road", "addr:city": "Edison", "addr:state": "NJ", "addr:postcode": "08837", "addr:country": "US", "name": "Edison", "phone": "(732) 744-1500", "website": "https://acfp.com/locations/edison", "brand": "Anthony's Coal Fired Pizza"}, "geometry": {"type": "Point", "coordinates": [-74.33540192, 40.55091885]}},
{"type": "Feature", "id": "lggOzLwBnCMMgba7joEf5V6v-Cg=", "properties": {"ref": "1267", "@spider": "anthonys", "addr:full": "852 State Route 3, Clifton, NJ 07012", "addr:housenumber": "852", "addr:street": "State Route 3", "addr:street_address": "852 State Route 3", "addr:city": "Clifton", "addr:state": "NJ", "addr:postcode": "07012", "addr:country": "US", "name": "Clifton", "phone": "(973) 471-2625", "website": "https://acfp.com/locations/clifton", "brand": "Anthony's Coal Fired Pizza"}, "geometry": {"type": "Point", "coordinates": [-74.1568123, 40.8388044]}},
{"type": "Feature", "id": "iN2AY1ICAlG8lUCJwgLYhyd8dw4=", "properties": {"ref": "1264", "@spider": "anthonys", "addr:full": "119 University Avenue, Westwood, MA 02090", "addr:housenumber": "119", "addr:street": "University Avenue", "addr:street_address": "119 University Avenue", "addr:city": "Westwood", "addr:state": "MA", "addr:postcode": "02090", "addr:country": "US", "name": "Westwood", "phone": "(781) 329-3339", "website": "https://acfp.com/locations/westwood", "brand": "Anthony's Coal Fired Pizza"}, "geometry": {"type": "Point", "coordinates": [-71.15191783, 42.20787635]}},
{"type": "Feature", "id": "UZz_Vs-zW36VA4fjLYdooErfWz8=", "properties": {"ref": "1261", "@spider": "anthonys", "addr:full": "48 Walkers Brook Drive, Reading, MA 01867", "addr:housenumber": "48", "addr:street": "Walkers Brook Drive", "addr:street_address": "48 Walkers Brook Drive", "addr:city": "Reading", "addr:state": "MA", "addr:postcode": "01867", "addr:country": "US", "name": "Reading", "phone": "(781) 944-8454", "website": "https://acfp.com/locations/reading", "brand": "Anthony's Coal Fired Pizza"}, "geometry": {"type": "Point", "coordinates": [-71.0945384, 42.5197131]}},
{"type": "Feature", "id": "36FExnQ8QAG0LzqnKMWa90B64zk=", "properties": {"ref": "1258", "@spider": "anthonys", "addr:full": "219 North Main Street Suite A-104, Natick, MA 01760", "addr:housenumber": "219", "addr:street": "North Main Street Suite A-104", "addr:street_address": "219 North Main Street Suite A-104", "addr:city": "Natick", "addr:state": "MA", "addr:postcode": "01760", "addr:country": "US", "name": "Natick", "phone": "(774) 290-5106", "website": "https://acfp.com/locations/natick", "brand": "Anthony's Coal Fired Pizza"}, "geometry": {"type": "Point", "coordinates": [-71.3618021, 42.3021545]}},
{"type": "Feature", "id": "D76GRpQUi0kQsF8BtApQvKLwr6g=", "properties": {"ref": "1255", "@spider": "anthonys", "addr:full": "201 Constitution Avenue, Littleton, MA 01460", "addr:housenumber": "201", "addr:street": "Constitution Avenue", "addr:street_address": "201 Constitution Avenue", "addr:city": "Littleton", "addr:state": "MA", "addr:postcode": "01460", "addr:country": "US", "name": "Littleton", "phone": "(978) 486-4124", "website": "https://acfp.com/locations/littleton", "brand": "Anthony's Coal Fired Pizza"}, "geometry": {"type": "Point", "coordinates": [-71.478003, 42.5516429]}},
{"type": "Feature", "id": "ZwNe65aHfWMOQfInvBukc8XgVOA=", "properties": {"ref": "1251", "@spider": "anthonys", "addr:full": "7776 Norfolk Avenue, Bethesda, MD 20814", "addr:housenumber": "7776", "addr:street": "Norfolk Avenue", "addr:street_address": "7776 Norfolk Avenue", "addr:city": "Bethesda", "addr:state": "MD", "addr:postcode": "20814", "addr:country": "US", "name": "Bethesda", "phone": "(240) 781-6943", "website": "https://acfp.com/locations/bethesda", "brand": "Anthony's Coal Fired Pizza"}, "geometry": {"type": "Point", "coordinates": [-77.09644906, 38.98831224]}},
{"type": "Feature", "id": "IeaHxVhZA3uvdvEQ7DVsX8tXgCw=", "properties": {"ref": "1221", "@spider": "anthonys", "addr:full": "4527 Weston Road, Weston, FL 33331", "addr:housenumber": "4527", "addr:street": "Weston Road", "addr:street_address": "4527 Weston Road", "addr:city": "Weston", "addr:state": "FL", "addr:postcode": "33331", "addr:country": "US", "name": "Weston", "phone": "(954) 358-2625", "website": "https://acfp.com/locations/weston", "brand": "Anthony's Coal Fired Pizza"}, "geometry": {"type": "Point", "coordinates": [-80.3660567, 26.0635268]}},
{"type": "Feature", "id": "KqdHiHek0HZoETzJ-tMEi0ljRFs=", "properties": {"ref": "1218", "@spider": "anthonys", "addr:full": "1900 Okeechobee Boulevard, West Palm Beach, FL 33409", "addr:housenumber": "1900", "addr:street": "Okeechobee Boulevard", "addr:street_address": "1900 Okeechobee Boulevard", "addr:city": "West Palm Beach", "addr:state": "FL", "addr:postcode": "33409", "addr:country": "US", "name": "West Palm Beach", "phone": "(561) 473-2567", "website": "https://acfp.com/locations/west-palm-beach", "brand": "Anthony's Coal Fired Pizza"}, "geometry": {"type": "Point", "coordinates": [-80.0827013, 26.7047878]}},
{"type": "Feature", "id": "bwynS4ssJ_UGt0S2QIxlTGckvhA=", "properties": {"ref": "1215", "@spider": "anthonys", "addr:full": "1000 S. State Road 7, Wellington, FL 33414", "addr:housenumber": "1000", "addr:street": "S. State Road 7", "addr:street_address": "1000 S. State Road 7", "addr:city": "Wellington", "addr:state": "FL", "addr:postcode": "33414", "addr:country": "US", "name": "Wellington", "phone": "(561) 615-1255", "website": "https://acfp.com/locations/wellington", "brand": "Anthony's Coal Fired Pizza"}, "geometry": {"type": "Point", "coordinates": [-80.2043839, 26.6638668]}},
{"type": "Feature", "id": "iSIpdjDSnzyRTomiWpcrtOOhYGk=", "properties": {"ref": "1212", "@spider": "anthonys", "addr:full": "2343 Southeast Federal Highway, Stuart, FL 34994", "addr:housenumber": "2343", "addr:street": "Southeast Federal Highway", "addr:street_address": "2343 Southeast Federal Highway", "addr:city": "Stuart", "addr:state": "FL", "addr:postcode": "34994", "addr:country": "US", "name": "Stuart", "phone": "(772) 287-7741", "website": "https://acfp.com/locations/stuart", "brand": "Anthony's Coal Fired Pizza"}, "geometry": {"type": "Point", "coordinates": [-80.2360673, 27.1775398]}},
{"type": "Feature", "id": "mvRJmw0jLl47_f7BeXgLhfkc3Nc=", "properties": {"ref": "1209", "@spider": "anthonys", "addr:full": "1901 South Dale Mabry Highway, Tampa, FL 33629", "addr:housenumber": "1901", "addr:street": "South Dale Mabry Highway", "addr:street_address": "1901 South Dale Mabry Highway", "addr:city": "Tampa", "addr:state": "FL", "addr:postcode": "33629", "addr:country": "US", "name": "South Tampa", "phone": "(813) 258-2625", "website": "https://acfp.com/locations/south-tampa", "brand": "Anthony's Coal Fired Pizza"}, "geometry": {"type": "Point", "coordinates": [-82.50597304, 27.92702272]}},
{"type": "Feature", "id": "bHFJlK7Ix7sJ4xjWhipjWgEkD6M=", "properties": {"ref": "1206", "@spider": "anthonys", "addr:full": "1203 South Federal Highway, Pompano Beach, FL 33062, \u00a0, *This location is near Walmart.", "addr:housenumber": "1203", "addr:street": "South Federal Highway", "addr:street_address": "1203 South Federal Highway", "addr:city": "Pompano Beach", "addr:state": "FL", "addr:postcode": "33062", "addr:country": "US", "name": "Pompano Beach", "phone": "(954) 942-5550", "website": "https://acfp.com/locations/pompano-beach", "brand": "Anthony's Coal Fired Pizza"}, "geometry": {"type": "Point", "coordinates": [-80.10166344, 26.24666494]}},
{"type": "Feature", "id": "42R3Lsui3ck5uAWIlmXsfhg407s=", "properties": {"ref": "1203", "@spider": "anthonys", "addr:full": "512 North Pine Island Road, Plantation, FL 33324", "addr:housenumber": "512", "addr:street": "North Pine Island Road", "addr:street_address": "512 North Pine Island Road", "addr:city": "Plantation", "addr:state": "FL", "addr:postcode": "33324", "addr:country": "US", "name": "Plantation", "phone": "(954) 474-3311", "website": "https://acfp.com/locations/plantation", "brand": "Anthony's Coal Fired Pizza"}, "geometry": {"type": "Point", "coordinates": [-80.2624379, 26.1269188]}},
{"type": "Feature", "id": "Ln2zU9Poxa6YJEdzDPa1FHp3pWg=", "properties": {"ref": "1200", "@spider": "anthonys", "addr:full": "10205 S Dixie Highway, Pinecrest, FL 33156", "addr:housenumber": "10205", "addr:street": "S Dixie Highway", "addr:street_address": "10205 S Dixie Highway", "addr:city": "Pinecrest", "addr:state": "FL", "addr:postcode": "33156", "addr:country": "US", "name": "Pinecrest", "phone": "(305) 740-5800", "website": "https://acfp.com/locations/pinecrest", "brand": "Anthony's Coal Fired Pizza"}, "geometry": {"type": "Point", "coordinates": [-80.3208445, 25.6750222]}},
{"type": "Feature", "id": "DC02whbQ67Tgstd2u7ocSzdDR74=", "properties": {"ref": "1114", "@spider": "anthonys", "addr:full": "11037 Pines Boulevard, Pembroke Pines, FL 33026", "addr:housenumber": "11037", "addr:street": "Pines Boulevard", "addr:street_address": "11037 Pines Boulevard", "addr:city": "Pembroke Pines", "addr:state": "FL", "addr:postcode": "33026", "addr:country": "US", "name": "Pembroke Pines", "phone": "(954) 443-6610", "website": "https://acfp.com/locations/pembroke-pines", "brand": "Anthony's Coal Fired Pizza"}, "geometry": {"type": "Point", "coordinates": [-80.29299376, 26.00801637]}},
{"type": "Feature", "id": "U-GOs5E4NI5yZk2WBqk1_XjITe4=", "properties": {"ref": "1103", "@spider": "anthonys", "addr:full": "2680 PGA Boulevard, Palm Beach Gardens, FL 33410", "addr:housenumber": "2680", "addr:street": "PGA Boulevard", "addr:street_address": "2680 PGA Boulevard", "addr:city": "Palm Beach Gardens", "addr:state": "FL", "addr:postcode": "33410", "addr:country": "US", "name": "Palm Beach Gardens", "phone": "(561) 804-7777", "website": "https://acfp.com/locations/palm-beach-gardens", "brand": "Anthony's Coal Fired Pizza"}, "geometry": {"type": "Point", "coordinates": [-80.0757095, 26.8443936]}},
{"type": "Feature", "id": "f11bBDLrixeZO97Ib0Q8ktUxXic=", "properties": {"ref": "1100", "@spider": "anthonys", "addr:full": "8031 Turkey Lake Road, Orlando, FL 32819", "addr:housenumber": "8031", "addr:street": "Turkey Lake Road", "addr:street_address": "8031 Turkey Lake Road", "addr:city": "Orlando", "addr:state": "FL", "addr:postcode": "32819", "addr:country": "US", "name": "Orlando (Sandlake)", "phone": "(407) 363-9466", "website": "https://acfp.com/locations/orlando", "brand": "Anthony's Coal Fired Pizza"}, "geometry": {"type": "Point", "coordinates": [-81.4792608, 28.4480442]}},
{"type": "Feature", "id": "lBl_nmtu6LDeGgRbyPawMS6k9UI=", "properties": {"ref": "1007", "@spider": "anthonys", "addr:full": "1835 NE 123rd Street, North Miami, FL 33181", "addr:housenumber": "1835", "addr:street": "NE 123rd Street", "addr:street_address": "1835 NE 123rd Street", "addr:city": "North Miami", "addr:state": "FL", "addr:postcode": "33181", "addr:country": "US", "name": "North Miami", "phone": "(305) 899-8887", "website": "https://acfp.com/locations/north-miami", "brand": "Anthony's Coal Fired Pizza"}, "geometry": {"type": "Point", "coordinates": [-80.16136893, 25.88946349]}},
{"type": "Feature", "id": "UyHSGx_dI228hjrxscSGqj8YHxs=", "properties": {"ref": "990", "@spider": "anthonys", "addr:full": "13020 North Dale Mabry Highway, Tampa, FL 33618", "addr:housenumber": "13020", "addr:street": "North Dale Mabry Highway", "addr:street_address": "13020 North Dale Mabry Highway", "addr:city": "Tampa", "addr:state": "FL", "addr:postcode": "33618", "addr:country": "US", "name": "N. Tampa (Carrollwood)", "phone": "(813) 265-2625", "website": "https://acfp.com/locations/north-tampa-carrollwood", "brand": "Anthony's Coal Fired Pizza"}, "geometry": {"type": "Point", "coordinates": [-82.5081129, 28.064478]}},
{"type": "Feature", "id": "Lpw3U-0PyNuclnIIf5Cy-7A4Azc=", "properties": {"ref": "987", "@spider": "anthonys", "addr:full": "3111 SW 160th Avenue, Miramar, FL 33027", "addr:housenumber": "3111", "addr:street": "SW 160th Avenue", "addr:street_address": "3111 SW 160th Avenue", "addr:city": "Miramar", "addr:state": "FL", "addr:postcode": "33027", "addr:country": "US", "name": "Miramar", "phone": "(954) 392-3811", "website": "https://acfp.com/locations/miramar", "brand": "Anthony's Coal Fired Pizza"}, "geometry": {"type": "Point", "coordinates": [-80.35933311, 25.9699659]}},
{"type": "Feature", "id": "i6alXnKPtkSPxeJHAubAJ9q7luA=", "properties": {"ref": "984", "@spider": "anthonys", "addr:full": "15492 Northwest 77th Court, Miami Lakes, FL 33016", "addr:housenumber": "15492", "addr:street": "Northwest 77th Court", "addr:street_address": "15492 Northwest 77th Court", "addr:city": "Miami Lakes", "addr:state": "FL", "addr:postcode": "33016", "addr:country": "US", "name": "Miami Lakes", "phone": "(305) 558-3950", "website": "https://acfp.com/locations/miami-lakes", "brand": "Anthony's Coal Fired Pizza"}, "geometry": {"type": "Point", "coordinates": [-80.32573958, 25.91638536]}},
{"type": "Feature", "id": "BQI0z6fTvMsCFK6WYZYod_LIbkU=", "properties": {"ref": "981", "@spider": "anthonys", "addr:full": "12502 SW 88th Street, Kendall, FL 33186", "addr:housenumber": "12502", "addr:street": "SW 88th Street", "addr:street_address": "12502 SW 88th Street", "addr:city": "Kendall", "addr:state": "FL", "addr:postcode": "33186", "addr:country": "US", "name": "Kendall", "phone": "(305) 273-8020", "website": "https://acfp.com/locations/kendall", "brand": "Anthony's Coal Fired Pizza"}, "geometry": {"type": "Point", "coordinates": [-80.4005186, 25.6856358]}},
{"type": "Feature", "id": "H1Gt13gJiR7YEvXCOvHK6G4rZSs=", "properties": {"ref": "976", "@spider": "anthonys", "addr:full": "2203 South Federal Highway, Fort Lauderdale, FL 33316, \u00a0, *Please note we have two Fort Lauderdale locations. This location is near Fort Lauderdale Airport.", "addr:housenumber": "2203", "addr:street": "South Federal Highway", "addr:street_address": "2203 South Federal Highway", "addr:city": "Fort Lauderdale", "addr:state": "FL", "addr:postcode": "33316", "addr:country": "US", "name": "Fort Lauderdale South \u2013 Near Airport", "phone": "(954) 462-5555", "website": "https://acfp.com/locations/fort-lauderdale-south", "brand": "Anthony's Coal Fired Pizza"}, "geometry": {"type": "Point", "coordinates": [-80.13688, 26.09445]}},
{"type": "Feature", "id": "5qDDMGdG4gm8_tbehg9aCrqgrXA=", "properties": {"ref": "972", "@spider": "anthonys", "addr:full": "1580 North Federal Highway, Fort Lauderdale, FL 33304, \u00a0, *Please note we have two Fort Lauderdale locations. This location is near Trader Joe\u2019s and Nordstrom Rack.", "addr:housenumber": "1580", "addr:street": "North Federal Highway", "addr:street_address": "1580 North Federal Highway", "addr:city": "Fort Lauderdale", "addr:state": "FL", "addr:postcode": "33304", "addr:country": "US", "name": "Fort Lauderdale North \u2013 Near Trader Joe\u2019s", "phone": "(954) 563-2625", "website": "https://acfp.com/locations/fort-lauderdale-north", "brand": "Anthony's Coal Fired Pizza"}, "geometry": {"type": "Point", "coordinates": [-80.11998, 26.14701]}},
{"type": "Feature", "id": "Asok3sDdUiTygb59M1JV8FDXszE=", "properties": {"ref": "967", "@spider": "anthonys", "addr:full": "2801 Northwest 87th Avenue, Doral, FL 33172", "addr:housenumber": "2801", "addr:street": "Northwest 87th Avenue", "addr:street_address": "2801 Northwest 87th Avenue", "addr:city": "Doral", "addr:state": "FL", "addr:postcode": "33172", "addr:country": "US", "name": "Doral", "phone": "(305) 718-8499", "website": "https://acfp.com/locations/doral", "brand": "Anthony's Coal Fired Pizza"}, "geometry": {"type": "Point", "coordinates": [-80.33644, 25.80048]}},
{"type": "Feature", "id": "DG56l9AhG5LUJmlOwv9XWCncWPo=", "properties": {"ref": "964", "@spider": "anthonys", "addr:full": "115 Northeast 6th Avenue, Delray Beach, FL 33483", "addr:housenumber": "115", "addr:street": "Northeast 6th Avenue", "addr:street_address": "115 Northeast 6th Avenue", "addr:city": "Delray Beach", "addr:state": "FL", "addr:postcode": "33483", "addr:country": "US", "name": "Delray Beach", "phone": "(561) 278-7911", "website": "https://acfp.com/locations/delray-beach", "brand": "Anthony's Coal Fired Pizza"}, "geometry": {"type": "Point", "coordinates": [-80.06679, 26.4638]}},
{"type": "Feature", "id": "pVgftBISgDQao1sDj-QZEHzRZ_I=", "properties": {"ref": "959", "@spider": "anthonys", "addr:full": "2626 Ponce De Leon Blvd, Coral Gables, FL 33134", "addr:housenumber": "2626", "addr:street": "Ponce De Leon Blvd", "addr:street_address": "2626 Ponce De Leon Blvd", "addr:city": "Coral Gables", "addr:state": "FL", "addr:postcode": "33134", "addr:country": "US", "name": "Coral Gables", "phone": "(786) 456-9200", "website": "https://acfp.com/locations/coral-gables", "brand": "Anthony's Coal Fired Pizza"}, "geometry": {"type": "Point", "coordinates": [-80.261028, 25.7472697]}},
{"type": "Feature", "id": "_qpDo8sKi7IB4S8CIabMKc9CH_0=", "properties": {"ref": "916", "@spider": "anthonys", "addr:full": "2532 N McMullen Booth Road, Clearwater, FL 33761", "addr:housenumber": "2532", "addr:street": "N McMullen Booth Road", "addr:street_address": "2532 N McMullen Booth Road", "addr:city": "Clearwater", "addr:state": "FL", "addr:postcode": "33761", "addr:country": "US", "name": "Clearwater", "phone": "(727) 797-0929", "website": "https://acfp.com/locations/clearwater", "brand": "Anthony's Coal Fired Pizza"}, "geometry": {"type": "Point", "coordinates": [-82.70907, 28.01376]}},
{"type": "Feature", "id": "ChXz9L1pc5idSJU4PDYImlWL8rk=", "properties": {"ref": "913", "@spider": "anthonys", "addr:full": "1912 West Brandon Boulevard, Brandon, FL 33510", "addr:housenumber": "1912", "addr:street": "West Brandon Boulevard", "addr:street_address": "1912 West Brandon Boulevard", "addr:city": "Brandon", "addr:state": "FL", "addr:postcode": "33510", "addr:country": "US", "name": "Brandon", "phone": "(813) 409-3830", "website": "https://acfp.com/locations/brandon", "brand": "Anthony's Coal Fired Pizza"}, "geometry": {"type": "Point", "coordinates": [-82.3161, 27.93875]}},
{"type": "Feature", "id": "Sk2hE59d_kPRDFqhLIQ3dzEUb9c=", "properties": {"ref": "906", "@spider": "anthonys", "addr:full": "21065 Powerline Road, Boca Raton, FL 33433", "addr:housenumber": "21065", "addr:street": "Powerline Road", "addr:street_address": "21065 Powerline Road", "addr:city": "Boca Raton", "addr:state": "FL", "addr:postcode": "33433", "addr:country": "US", "name": "Boca Raton West", "phone": "(561) 218-6600", "website": "https://acfp.com/locations/boca-raton-west", "brand": "Anthony's Coal Fired Pizza"}, "geometry": {"type": "Point", "coordinates": [-80.153481, 26.32782]}},
{"type": "Feature", "id": "zZrQUKA9JQ7AOeUb-YMiWOoJEvY=", "properties": {"ref": "902", "@spider": "anthonys", "addr:full": "851 S. Federal Highway, Boca Raton, FL 33432", "addr:housenumber": "851", "addr:street": "S. Federal Highway", "addr:street_address": "851 S. Federal Highway", "addr:city": "Boca Raton", "addr:state": "FL", "addr:postcode": "33432", "addr:country": "US", "name": "Boca Raton East", "phone": "(561) 338-3028", "website": "https://acfp.com/locations/boca-raton-east", "brand": "Anthony's Coal Fired Pizza"}, "geometry": {"type": "Point", "coordinates": [-80.086533, 26.342501]}},
{"type": "Feature", "id": "d7kQUMMMlXU6oF2vfhX2q_Vy8DY=", "properties": {"ref": "898", "@spider": "anthonys", "addr:full": "17901 Biscayne Boulevard, Aventura, FL 33160", "addr:housenumber": "17901", "addr:street": "Biscayne Boulevard", "addr:street_address": "17901 Biscayne Boulevard", "addr:city": "Aventura", "addr:state": "FL", "addr:postcode": "33160", "addr:country": "US", "name": "Aventura", "phone": "(305) 830-2625", "website": "https://acfp.com/locations/aventura", "brand": "Anthony's Coal Fired Pizza"}, "geometry": {"type": "Point", "coordinates": [-80.14796, 25.94105]}},
{"type": "Feature", "id": "Z-s_rZRcdai44k68KvZ3bcrTX0U=", "properties": {"ref": "895", "@spider": "anthonys", "addr:full": "420 East Altamonte Drive, Altamonte Springs, FL 32701", "addr:housenumber": "420", "addr:street": "East Altamonte Drive", "addr:street_address": "420 East Altamonte Drive", "addr:city": "Altamonte Springs", "addr:state": "FL", "addr:postcode": "32701", "addr:country": "US", "name": "Altamonte Springs", "phone": "(407) 260 2625", "website": "https://acfp.com/locations/altamonte-springs", "brand": "Anthony's Coal Fired Pizza"}, "geometry": {"type": "Point", "coordinates": [-81.3722033, 28.6639334]}},
{"type": "Feature", "id": "5UbbN0_qkGcF3yJBobgez984FqQ=", "properties": {"ref": "787", "@spider": "anthonys", "addr:full": "5611 Concord Pike, Wilmington, DE 19803", "addr:housenumber": "5611", "addr:street": "Concord Pike", "addr:street_address": "5611 Concord Pike", "addr:city": "Wilmington", "addr:state": "DE", "addr:postcode": "19803", "addr:country": "US", "name": "Wilmington", "phone": "(302) 477-1488", "website": "https://acfp.com/locations/wilmington", "brand": "Anthony's Coal Fired Pizza"}, "geometry": {"type": "Point", "coordinates": [-75.543574, 39.8337019]}},
{"type": "Feature", "id": "LkJMR4YDwQ5yENYoIvOpCb4hGmk=", "properties": {"ref": "464", "@spider": "anthonys", "addr:full": "4805 Limestone Road, Pike Creek, DE 19808", "addr:housenumber": "4805", "addr:street": "Limestone Road", "addr:street_address": "4805 Limestone Road", "addr:city": "Pike Creek", "addr:state": "DE", "addr:postcode": "19808", "addr:country": "US", "name": "Pike Creek", "phone": "(302) 635-7013", "website": "https://acfp.com/locations/pike-creek", "brand": "Anthony's Coal Fired Pizza"}, "geometry": {"type": "Point", "coordinates": [-75.6945801, 39.7428995]}},
{"type": "Feature", "id": "TtZkl3AN3hQERJPpl14bITVx568=", "properties": {"ref": "348", "@spider": "anthonys", "addr:full": "9521 Westview Drive, Coral Springs, FL 33076", "addr:housenumber": "9521", "addr:street": "Westview Drive", "addr:street_address": "9521 Westview Drive", "addr:city": "Coral Springs", "addr:state": "FL", "addr:postcode": "33076", "addr:country": "US", "name": "Coral Springs", "phone": "(954) 340-2625", "website": "https://acfp.com/locations/coral-springs", "brand": "Anthony's Coal Fired Pizza"}, "geometry": {"type": "Point", "coordinates": [-80.2535582, 26.2994855]}}]}