{"type":"FeatureCollection","features":[{"type": "Feature", "id": "mk3N5tYS-Tbo7OdkozySbmnwbMI=", "properties": {"ref": "apex-city-quay-hotel-spa", "@spider": "apex_hotels", "addr:street_address": "1 West Victoria Dock Road", "addr:city": "Dundee", "addr:state": "Dundee City", "addr:postcode": "DD1 3JP", "addr:country": "GB", "name": "Apex City Quay Hotel &amp; Spa", "phone": "01382 202 404", "website": "https://www.apexhotels.co.uk/destinations/dundee/apex-city-quay-hotel-spa/", "image": "https://d8a6qj9sir70y.cloudfront.net/media/c4fldapy/acqd-exterior-dsc5639.jpg", "brand": "Apex Hotels", "brand:wikidata": "Q4779426"}, "geometry": {"type": "Point", "coordinates": [-2.963121, 56.460744]}},
{"type": "Feature", "id": "X7IahCdu1rJ8PEQ5TAiSCi5lRCg=", "properties": {"ref": "apex-city-of-glasgow-hotel", "@spider": "apex_hotels", "addr:street_address": "110 Bath Street", "addr:city": "Glasgow", "addr:state": "Glasgow City", "addr:postcode": "G2 2EN", "addr:country": "GB", "name": "Apex City of Glasgow Hotel", "phone": "0141 375 3333", "website": "https://www.apexhotels.co.uk/destinations/glasgow/apex-city-of-glasgow-hotel/", "image": "https://d8a6qj9sir70y.cloudfront.net/media/xodc5qbp/acg-exterior-day-dsc06224.jpg", "brand": "Apex Hotels", "brand:wikidata": "Q4779426"}, "geometry": {"type": "Point", "coordinates": [-4.258477, 55.864201]}},
{"type": "Feature", "id": "eovbYanhuw2dCNWRieCpgSxyCoY=", "properties": {"ref": "apex-city-of-edinburgh-hotel", "@spider": "apex_hotels", "addr:street_address": "61 Grassmarket", "addr:city": "Edinburgh", "addr:state": "Edinburgh, City of", "addr:postcode": "EH1 2HJ", "addr:country": "GB", "name": "Apex City of Edinburgh Hotel", "phone": "0131 243 3456", "website": "https://www.apexhotels.co.uk/destinations/edinburgh/apex-city-of-edinburgh-hotel/", "image": "https://d8a6qj9sir70y.cloudfront.net/media/hlpdmrp1/ace-exterior-night-p1080688.jpg", "brand": "Apex Hotels", "brand:wikidata": "Q4779426"}, "geometry": {"type": "Point", "coordinates": [-3.195373, 55.947376]}},
{"type": "Feature", "id": "ujqgPTQ_OFv_WAClxU6ZJ0HLOSA=", "properties": {"ref": "apex-grassmarket-hotel", "@spider": "apex_hotels", "addr:street_address": "31-35 Grassmarket", "addr:city": "Edinburgh", "addr:state": "Edinburgh, City of", "addr:postcode": "EH1 2HS", "addr:country": "GB", "name": "Apex Grassmarket Hotel", "phone": "0131 300 3456", "website": "https://www.apexhotels.co.uk/destinations/edinburgh/apex-grassmarket-hotel/", "image": "https://d8a6qj9sir70y.cloudfront.net/media/lbhf4y4g/age-exterior-entrance-p1080639.jpg", "brand": "Apex Hotels", "brand:wikidata": "Q4779426"}, "geometry": {"type": "Point", "coordinates": [-3.196516, 55.94694]}},
{"type": "Feature", "id": "yRmE3ehO6e0OKRZ4r_DbX_cXOT4=", "properties": {"ref": "apex-waterloo-place-hotel", "@spider": "apex_hotels", "addr:street_address": "23-27 Waterloo Place", "addr:city": "Edinburgh", "addr:state": "Edinburgh, City of", "addr:postcode": "EH1 3BG", "addr:country": "GB", "name": "Apex Waterloo Place Hotel", "phone": "0131 523 1819", "website": "https://www.apexhotels.co.uk/destinations/edinburgh/apex-waterloo-place-hotel/", "image": "https://d8a6qj9sir70y.cloudfront.net/media/jyqccdgd/awpe-exterior-day-angle-view-mg_6268.jpg", "brand": "Apex Hotels", "brand:wikidata": "Q4779426"}, "geometry": {"type": "Point", "coordinates": [-3.186951, 55.953915]}},
{"type": "Feature", "id": "3lvQ4CCgp_SBWuMfEq0DqYmNx0I=", "properties": {"ref": "apex-city-of-bath-hotel", "@spider": "apex_hotels", "addr:street_address": "James Street West", "addr:city": "Bath", "addr:state": "Bath and North East Somerset", "addr:postcode": "BA1 2DA", "addr:country": "GB", "name": "Apex City of Bath Hotel", "phone": "01225 418 500", "website": "https://www.apexhotels.co.uk/destinations/bath/apex-city-of-bath-hotel/", "image": "https://d8a6qj9sir70y.cloudfront.net/media/y00dorma/acb-exterior-corner-day-dsc03326.jpg", "brand": "Apex Hotels", "brand:wikidata": "Q4779426"}, "geometry": {"type": "Point", "coordinates": [-2.365191, 51.381694]}},
{"type": "Feature", "id": "4Xq8b4knfZp_UGG-zHy7Ggj08Go=", "properties": {"ref": "apex-city-of-london-hotel", "@spider": "apex_hotels", "addr:street_address": "1 Seething Lane", "addr:city": "London", "addr:state": "England", "addr:postcode": "EC3N 4AX", "addr:country": "GB", "name": "Apex City of London Hotel", "phone": "020 7702 2020", "website": "https://www.apexhotels.co.uk/destinations/london/apex-city-of-london-hotel/", "image": "https://d8a6qj9sir70y.cloudfront.net/media/ytjfcnb4/acl-exterior-doors-sign-dsc01221.jpg", "brand": "Apex Hotels", "brand:wikidata": "Q4779426"}, "geometry": {"type": "Point", "coordinates": [-0.079375, 51.510558]}},
{"type": "Feature", "id": "v64ehoXjJVxMYFZzfUXt5f5Kyyo=", "properties": {"ref": "apex-london-wall-hotel", "@spider": "apex_hotels", "addr:street_address": "7-9 Copthall Avenue", "addr:city": "London", "addr:state": "England", "addr:postcode": "EC2R 7NJ", "addr:country": "GB", "name": "Apex London Wall Hotel", "phone": "020 7562 3030", "website": "https://www.apexhotels.co.uk/destinations/london/apex-london-wall-hotel/", "image": "https://d8a6qj9sir70y.cloudfront.net/media/as4osnsh/alw-exterior-entrance-dsc01826-crop.jpg", "brand": "Apex Hotels", "brand:wikidata": "Q4779426"}, "geometry": {"type": "Point", "coordinates": [-0.088072, 51.51595]}},
{"type": "Feature", "id": "xD-kqDMOLE_wuvd3_jk46vpmXug=", "properties": {"ref": "apex-temple-court-hotel", "@spider": "apex_hotels", "addr:street_address": "1-2 Serjeants\u2019 Inn", "addr:city": "London", "addr:state": "England", "addr:postcode": "EC4Y 1AG", "addr:country": "GB", "name": "Apex Temple Court Hotel", "phone": "020 3004 4141", "website": "https://www.apexhotels.co.uk/destinations/london/apex-temple-court-hotel/", "image": "https://d8a6qj9sir70y.cloudfront.net/media/t4jh23nl/atcl-exterior-night-arch-dsc07851.jpg", "brand": "Apex Hotels", "brand:wikidata": "Q4779426"}, "geometry": {"type": "Point", "coordinates": [-0.10862, 51.513691]}}]}