{"type":"FeatureCollection","features":[{"type": "Feature", "id": "BE_WHLTPKJf8EmI52RqgxR_jpQs=", "properties": {"ref": "Aramark Los Angeles | Aramark Cleanroom Services", "@spider": "aramark", "addr:full": "1405 East 58th Place", "addr:city": "Los Angeles", "addr:state": "CA", "addr:postcode": "90001", "phone": "323-587-7661", "website": "https://www.aramarkuniform.com/our-locations/aramark-cleanroom-services-los-angeles?", "brand": "Aramark", "brand:wikidata": "Q625708"}, "geometry": {"type": "Point", "coordinates": [-118.25, 33.988]}},
{"type": "Feature", "id": "pPwh61TOcgvUHR9hr5CI8bsvNfI=", "properties": {"ref": "Aramark Spokane | Aramark Uniform Services", "@spider": "aramark", "addr:full": "11511 E Indiana Rd ", "addr:city": "Spokane", "addr:state": "WA", "addr:postcode": "99206", "phone": "(425) 353-0800 ", "website": "https://www.aramarkuniform.com/our-locations/aramark-uniform-services-spokane?", "brand": "Aramark", "brand:wikidata": "Q625708"}, "geometry": {"type": "Point", "coordinates": [-117.33, 47.682]}},
{"type": "Feature", "id": "Ruc19lx28GLS-M9mM8SfqeRhYk4=", "properties": {"ref": "Aramark Burr Ridge | Aramark Cleanroom Services", "@spider": "aramark", "addr:full": "7650 Grant Street", "addr:city": "Burr Ridge", "addr:state": "IL", "addr:postcode": "60527", "phone": "630-455-9024", "website": "https://www.aramarkuniform.com/our-locations/aramark-cleanroom-services-burr-ridge?", "brand": "Aramark", "brand:wikidata": "Q625708"}, "geometry": {"type": "Point", "coordinates": [-87.929, 41.748]}},
{"type": "Feature", "id": "9M2tAm3tT8gy2cN41hhKmQ713ns=", "properties": {"ref": "Aramark Corvallis | Aramark Cleanroom Services", "@spider": "aramark", "addr:full": "1801 SW Airport Ave", "addr:city": "Corvallis", "addr:state": "OR", "addr:postcode": "97333", "phone": "(541) 753-6225", "website": "https://www.aramarkuniform.com/our-locations/aramark-cleanroom-services-corvallis?", "brand": "Aramark", "brand:wikidata": "Q625708"}, "geometry": {"type": "Point", "coordinates": [-123.28, 44.507]}},
{"type": "Feature", "id": "JACuuTSWHy_dCq07YNYXuYpfvK4=", "properties": {"ref": "Aramark Toronto | Aramark Cleanroom Services", "@spider": "aramark", "addr:full": "2390 Winston Park Boulevard - Unit 1 & 2", "addr:city": "Oakville ", "addr:state": "ON", "addr:postcode": "L6H0G7", "phone": "905-829-8770 ", "website": "https://www.aramarkuniform.com/our-locations/aramark-cleanroom-services-toronto?", "brand": "Aramark", "brand:wikidata": "Q625708"}, "geometry": {"type": "Point", "coordinates": [-79.681416, 43.514362]}},
{"type": "Feature", "id": "HO-ZV66TcCzOH4yhE3UAF0YVvgE=", "properties": {"ref": "Aramark Bayamon | Aramark Cleanroom Services", "@spider": "aramark", "addr:full": "135 CALLE A STE 1", "addr:city": "Bayamon", "addr:state": "PR", "addr:postcode": "00959", "phone": "787-995-2511", "website": "https://www.aramarkuniform.com/our-locations/aramark-cleanroom-services-bayamon?", "brand": "Aramark", "brand:wikidata": "Q625708"}, "geometry": {"type": "Point", "coordinates": [-66.173, 18.384]}},
{"type": "Feature", "id": "o7QugaBIrYVOgJVmiCDzTgCx2gc=", "properties": {"ref": "Aramark Bakersfield | Aramark Uniform Services", "@spider": "aramark", "addr:full": "2949 Petrol Road", "addr:city": "Bakersfield", "addr:state": "CA", "addr:postcode": "93308", "phone": "(661) 368-0869", "website": "https://www.aramarkuniform.com/our-locations/aramark-uniform-services-bakersfield?", "brand": "Aramark", "brand:wikidata": "Q625708"}, "geometry": {"type": "Point", "coordinates": [-119.08, 35.448]}},
{"type": "Feature", "id": "EmKGKPlYut8fbRmOgw3dxjkImQo=", "properties": {"ref": "Aramark Everett | Aramark Uniform Services", "@spider": "aramark", "addr:full": "7200 Hardeson Rd", "addr:city": "Everett", "addr:state": "WA", "addr:postcode": "98203", "phone": "(425) 320-4701", "website": "https://www.aramarkuniform.com/our-locations/aramark-uniform-services-everett?", "brand": "Aramark", "brand:wikidata": "Q625708"}, "geometry": {"type": "Point", "coordinates": [-122.25, 47.931]}},
{"type": "Feature", "id": "GOn_HA-EXFfSjaxwPFYvuCUo-nE=", "properties": {"ref": "Aramark Wichita | Aramark Uniform Services", "@spider": "aramark", "addr:full": "521 West Walker", "addr:city": "Wichita", "addr:state": "KS", "addr:postcode": "67213", "phone": "(316) 854-9602", "website": "https://www.aramarkuniform.com/our-locations/aramark-uniform-services-wichita?", "brand": "Aramark", "brand:wikidata": "Q625708"}, "geometry": {"type": "Point", "coordinates": [-97.347, 37.669]}},
{"type": "Feature", "id": "Wdh9_uerDEbHYT9Fb4UrwKx31vM=", "properties": {"ref": "Aramark Tacoma | Aramark Uniform Services", "@spider": "aramark", "addr:full": "6445 S Adams", "addr:city": "Tacoma", "addr:state": "WA", "addr:postcode": "98409", "phone": "(253) 442-2552", "website": "https://www.aramarkuniform.com/our-locations/aramark-uniform-services-tacoma?", "brand": "Aramark", "brand:wikidata": "Q625708"}, "geometry": {"type": "Point", "coordinates": [-122.49, 47.198]}},
{"type": "Feature", "id": "LIgWuJBwi337HgUNUv6Ocjqfxbw=", "properties": {"ref": "Aramark Las Vegas | Aramark Uniform Services", "@spider": "aramark", "addr:full": "8298 Arville St.", "addr:city": "Las Vegas", "addr:state": "NV", "addr:postcode": "89139", "phone": "(702) 577-2397", "website": "https://www.aramarkuniform.com/our-locations/aramark-uniform-services-las-vegas?", "brand": "Aramark", "brand:wikidata": "Q625708"}, "geometry": {"type": "Point", "coordinates": [-115.2, 36.041]}},
{"type": "Feature", "id": "WD-G8jkrKUKdiJcIBhap_bXBqko=", "properties": {"ref": "Aramark Rockford | Aramark Uniform Services", "@spider": "aramark", "addr:full": "215 18th Avenue", "addr:city": "Rockford", "addr:state": "IL", "addr:postcode": "61104", "phone": "(815) 516-1287", "website": "https://www.aramarkuniform.com/our-locations/aramark-uniform-services-rockford?", "brand": "Aramark", "brand:wikidata": "Q625708"}, "geometry": {"type": "Point", "coordinates": [-89.096, 42.247]}},
{"type": "Feature", "id": "rXCbM7xopLeWihoY_ulOQ7AabPw=", "properties": {"ref": "Aramark Chicago | Aramark Uniform Services", "@spider": "aramark", "addr:full": "4200 South Halsted Street", "addr:city": "Chicago", "addr:state": "IL", "addr:postcode": "60609", "phone": "(773) 696-2067", "website": "https://www.aramarkuniform.com/our-locations/aramark-uniform-services-chicago?", "brand": "Aramark", "brand:wikidata": "Q625708"}, "geometry": {"type": "Point", "coordinates": [-87.647, 41.817]}},
{"type": "Feature", "id": "fLa2nqSWhRX4jKvatV3u1_ZybUs=", "properties": {"ref": "Aramark Chicago North | Aramark Uniform Services", "@spider": "aramark", "addr:full": "3795 North Wilke Road", "addr:city": "Arlington Heights", "addr:state": "IL", "addr:postcode": "60004", "phone": "(847) 666-5434", "website": "https://www.aramarkuniform.com/our-locations/aramark-uniform-services-chicago-north?", "brand": "Aramark", "brand:wikidata": "Q625708"}, "geometry": {"type": "Point", "coordinates": [-88.004, 42.145]}},
{"type": "Feature", "id": "Ui2QjnBxPfvDmMbZN8PWid8nsLw=", "properties": {"ref": "Aramark Decatur | Aramark Uniform Services", "@spider": "aramark", "addr:full": "201 4th Street, Southeast", "addr:city": "Decatur", "addr:state": "AL", "addr:postcode": "35601", "phone": "(256) 280-3001", "website": "https://www.aramarkuniform.com/our-locations/aramark-uniform-services-decatur?", "brand": "Aramark", "brand:wikidata": "Q625708"}, "geometry": {"type": "Point", "coordinates": [-86.984, 34.597]}},
{"type": "Feature", "id": "6uqLn73kAQIi1TP27ttG7vrLz4k=", "properties": {"ref": "Aramark Savannah | Aramark Uniform Services", "@spider": "aramark", "addr:full": "2610 Causton Bluff", "addr:city": "Savannah", "addr:state": "GA", "addr:postcode": "31404", "phone": "(912) 335-3895", "website": "https://www.aramarkuniform.com/our-locations/aramark-uniform-services-savannah?", "brand": "Aramark", "brand:wikidata": "Q625708"}, "geometry": {"type": "Point", "coordinates": [-81.047, 32.065]}},
{"type": "Feature", "id": "vfmcn19-ZrEzvthYHLyTTFkxoVU=", "properties": {"ref": "Aramark Denver | Aramark Uniform Services", "@spider": "aramark", "addr:full": "4700 Havana Street Unit A", "addr:city": "Denver", "addr:state": "CO", "addr:postcode": "80239", "phone": "(303) 953-4590", "website": "https://www.aramarkuniform.com/our-locations/aramark-uniform-services-denver?", "brand": "Aramark", "brand:wikidata": "Q625708"}, "geometry": {"type": "Point", "coordinates": [-104.86, 39.783]}},
{"type": "Feature", "id": "HuwDZILkyo5pk5Jh8YxK5Dw6lJE=", "properties": {"ref": "Aramark Indianapolis | Aramark Uniform Services", "@spider": "aramark", "addr:full": "2050 West Oliver Avenue", "addr:city": "Indianapolis", "addr:state": "IN", "addr:postcode": "46221", "phone": "(317) 608-0919", "website": "https://www.aramarkuniform.com/our-locations/aramark-uniform-services-indianapolis?", "brand": "Aramark", "brand:wikidata": "Q625708"}, "geometry": {"type": "Point", "coordinates": [-86.196, 39.758]}},
{"type": "Feature", "id": "v4I-rFwBcz1x1JHuyVsYLJSqZEo=", "properties": {"ref": "Aramark West Monroe | Aramark Uniform Services", "@spider": "aramark", "addr:full": "101 South Pavilion Circle", "addr:city": "West Monroe", "addr:state": "LA", "addr:postcode": "71292", "phone": "(318) 450-3097", "website": "https://www.aramarkuniform.com/our-locations/aramark-uniform-services-west-monroe?", "brand": "Aramark", "brand:wikidata": "Q625708"}, "geometry": {"type": "Point", "coordinates": [-92.175, 32.502]}},
{"type": "Feature", "id": "nYaPvqo3UwND69Y5a0DDdn81X-I=", "properties": {"ref": "Aramark Sioux Falls | Aramark Uniform Services", "@spider": "aramark", "addr:full": "523 North Kiwanis Ave, Suite B", "addr:city": "Sioux Falls", "addr:state": "SD", "addr:postcode": "57104", "phone": "(605) 231-4262", "website": "https://www.aramarkuniform.com/our-locations/aramark-uniform-services-sioux-falls?", "brand": "Aramark", "brand:wikidata": "Q625708"}, "geometry": {"type": "Point", "coordinates": [-96.761, 43.554]}},
{"type": "Feature", "id": "Sn9fdOdTLRaKSJibLhywphmvYik=", "properties": {"ref": "Aramark Sidell | Aramark Uniform Services", "@spider": "aramark", "addr:full": "152 Kingspoint Blvd, Suite 152", "addr:city": "Slidell", "addr:state": "LA", "addr:postcode": "70461", "phone": "(985) 718-4186", "website": "https://www.aramarkuniform.com/our-locations/aramark-uniform-services-slidell?", "brand": "Aramark", "brand:wikidata": "Q625708"}, "geometry": {"type": "Point", "coordinates": [-89.752, 30.259]}},
{"type": "Feature", "id": "znfo5vEGk1xalQ7rDMUahd1d6RA=", "properties": {"ref": "Aramark Meridian | Aramark Uniform Services", "@spider": "aramark", "addr:full": "1800 5th Street", "addr:city": "Meridian", "addr:state": "MS", "addr:postcode": "39301", "phone": "(601) 453-1995", "website": "https://www.aramarkuniform.com/our-locations/aramark-uniform-services-meridian?", "brand": "Aramark", "brand:wikidata": "Q625708"}, "geometry": {"type": "Point", "coordinates": [-88.697, 32.366]}},
{"type": "Feature", "id": "NezHxx3aluAZytiN_x9_0aBl5n4=", "properties": {"ref": "Aramark Thomasville | Aramark Uniform Services", "@spider": "aramark", "addr:full": "202 Cassidy Road", "addr:city": "Thomasville", "addr:state": "GA", "addr:postcode": "31792", "phone": "(229) 516-4124", "website": "https://www.aramarkuniform.com/our-locations/aramark-uniform-services-thomasville?", "brand": "Aramark", "brand:wikidata": "Q625708"}, "geometry": {"type": "Point", "coordinates": [-83.992, 30.85]}},
{"type": "Feature", "id": "94PDWeh_j2kGO3FI-qUZAGozb8k=", "properties": {"ref": "Aramark Sparks | Aramark Uniform Services", "@spider": "aramark", "addr:full": "655 Spice Island Drive #107", "addr:city": "Sparks", "addr:state": "NV", "addr:postcode": "89431", "phone": "(775) 200-0459", "website": "https://www.aramarkuniform.com/our-locations/aramark-uniform-services-sparks?", "brand": "Aramark", "brand:wikidata": "Q625708"}, "geometry": {"type": "Point", "coordinates": [-119.74, 39.517]}},
{"type": "Feature", "id": "M5p0fP9e2sTmgRChK20V4ZCIwQY=", "properties": {"ref": "Aramark Sioux City | Aramark Uniform Services", "@spider": "aramark", "addr:full": "2700 Hawkeye Drive", "addr:city": "Sioux City", "addr:state": "IA", "addr:postcode": "51105", "phone": "(712) 522-3752", "website": "https://www.aramarkuniform.com/our-locations/aramark-uniform-services-sioux-city?", "brand": "Aramark", "brand:wikidata": "Q625708"}, "geometry": {"type": "Point", "coordinates": [-96.38, 42.519]}},
{"type": "Feature", "id": "gC6zbORqawWUOasA1D57DAnIPp8=", "properties": {"ref": "Aramark Des Moines | Aramark Uniform Services", "@spider": "aramark", "addr:full": "2500 Delaware Avenue", "addr:city": "Des Moines", "addr:state": "IA", "addr:postcode": "50317", "phone": "(888) 412-5651", "website": "https://www.aramarkuniform.com/our-locations/aramark-uniform-services-des-moines?", "brand": "Aramark", "brand:wikidata": "Q625708"}, "geometry": {"type": "Point", "coordinates": [-93.582, 41.618]}},
{"type": "Feature", "id": "GjvGqf4kUEh7CTfP2tM0KJ-98us=", "properties": {"ref": "Aramark Waterloo | Aramark Uniform Services", "@spider": "aramark", "addr:full": "600 Linden Avenue", "addr:city": "Waterloo", "addr:state": "IA", "addr:postcode": "50703", "phone": "(866) 951-9882", "website": "https://www.aramarkuniform.com/our-locations/aramark-uniform-services-waterloo?", "brand": "Aramark", "brand:wikidata": "Q625708"}, "geometry": {"type": "Point", "coordinates": [-92.317, 42.497]}},
{"type": "Feature", "id": "qsDjY6JvaHk2nviSXjISm00LDSQ=", "properties": {"ref": "Aramark Evansville | Aramark Uniform Services", "@spider": "aramark", "addr:full": "1112 Florence Street", "addr:city": "Evansville", "addr:state": "IN", "addr:postcode": "47706", "phone": "(812) 618-0424", "website": "https://www.aramarkuniform.com/our-locations/aramark-uniform-services-evansville?", "brand": "Aramark", "brand:wikidata": "Q625708"}, "geometry": {"type": "Point", "coordinates": [-87.58, 37.994]}},
{"type": "Feature", "id": "nxAcdrGYNn2oqamoTv-YFzF3SDc=", "properties": {"ref": "Aramark LaCrosse | Aramark Uniform Services", "@spider": "aramark", "addr:full": "1920 Oak Street", "addr:city": "LaCrosse", "addr:state": "WI", "addr:postcode": "54603", "phone": "(608) 406-2303", "website": "https://www.aramarkuniform.com/our-locations/aramark-uniform-services-lacrosse?", "brand": "Aramark", "brand:wikidata": "Q625708"}, "geometry": {"type": "Point", "coordinates": [-91.228, 43.851]}},
{"type": "Feature", "id": "imVSSdtNUTpcT_jGjxeHv2X-p-E=", "properties": {"ref": "Aramark South Bend | Aramark Uniform Services", "@spider": "aramark", "addr:full": "3701 Progress Drive", "addr:city": "South Bend", "addr:state": "IN", "addr:postcode": "46628", "phone": "(574) 217-0446", "website": "https://www.aramarkuniform.com/our-locations/aramark-uniform-services-south-bend?", "brand": "Aramark", "brand:wikidata": "Q625708"}, "geometry": {"type": "Point", "coordinates": [-86.302, 41.701]}},
{"type": "Feature", "id": "KRPqNkskmao3A5LZ5l8qw6f-b4Q=", "properties": {"ref": "Aramark Minneapolis | Aramark Uniform Services", "@spider": "aramark", "addr:full": "5330 Industrial Boulevard, NE", "addr:city": "Fridley", "addr:state": "MN", "addr:postcode": "55421", "phone": "(612) 246-4458", "website": "https://www.aramarkuniform.com/our-locations/aramark-uniform-services-minneapolis?", "brand": "Aramark", "brand:wikidata": "Q625708"}, "geometry": {"type": "Point", "coordinates": [-93.276, 45.066]}},
{"type": "Feature", "id": "aIAin40M5Kij2R7dq0zvslqqSVQ=", "properties": {"ref": "Aramark Lincoln | Aramark Uniform Services", "@spider": "aramark", "addr:full": "3300 N. 41st Street", "addr:city": "Lincoln", "addr:state": "NE", "addr:postcode": "68504", "phone": "(402) 875-6161", "website": "https://www.aramarkuniform.com/our-locations/aramark-uniform-services-lincoln?", "brand": "Aramark", "brand:wikidata": "Q625708"}, "geometry": {"type": "Point", "coordinates": [-96.661, 40.845]}},
{"type": "Feature", "id": "2L-V0mZ00DdfKBJio64n7l0SptE=", "properties": {"ref": "Aramark Caspian | Aramark Uniform Services", "@spider": "aramark", "addr:full": "201 Caspian Avenue", "addr:city": "Caspian", "addr:state": "MI", "addr:postcode": "49915", "phone": "(906) 214-4626", "website": "https://www.aramarkuniform.com/our-locations/aramark-uniform-services-caspian?", "brand": "Aramark", "brand:wikidata": "Q625708"}, "geometry": {"type": "Point", "coordinates": [-88.63, 46.065]}},
{"type": "Feature", "id": "0iJYpSPKMy0A_xZEpEyl6QaBI7Y=", "properties": {"ref": "Aramark Milwaukee | Aramark Uniform Services", "@spider": "aramark", "addr:full": "5350 Pennsylvania Avenue", "addr:city": "Cudahy", "addr:state": "WI", "addr:postcode": "53110", "phone": "(414) 455-0083", "website": "https://www.aramarkuniform.com/our-locations/aramark-uniform-services-milwaukee?", "brand": "Aramark", "brand:wikidata": "Q625708"}, "geometry": {"type": "Point", "coordinates": [-87.88, 42.948]}},
{"type": "Feature", "id": "cxb4RcSb8eMmtqEqKQpkXrOed3E=", "properties": {"ref": "Aramark Appleton | Aramark Uniform Services", "@spider": "aramark", "addr:full": "1710 West Washington Street", "addr:city": "Appleton", "addr:state": "WI", "addr:postcode": "54914", "phone": "(920) 574-9063", "website": "https://www.aramarkuniform.com/our-locations/aramark-uniform-services-appleton?", "brand": "Aramark", "brand:wikidata": "Q625708"}, "geometry": {"type": "Point", "coordinates": [-88.432, 44.263]}},
{"type": "Feature", "id": "p8VRkhKAU1jeQhEDvTBl8h9VIRQ=", "properties": {"ref": "Aramark East Moline | Aramark Uniform Services", "@spider": "aramark", "addr:full": "390 Avenue of the Cities", "addr:city": "East Moline", "addr:state": "IL", "addr:postcode": "61244", "phone": "(309) 716-3083", "website": "https://www.aramarkuniform.com/our-locations/aramark-uniform-services-east-moline?", "brand": "Aramark", "brand:wikidata": "Q625708"}, "geometry": {"type": "Point", "coordinates": [-90.453, 41.488]}},
{"type": "Feature", "id": "7BWXfxndI8mjrZB6_srmUBw9AUI=", "properties": {"ref": "Aramark Sprinfield, IL | Aramark Uniform Services", "@spider": "aramark", "addr:full": "4800 Industrial Drive", "addr:city": "Springfield", "addr:state": "IL", "addr:postcode": "62708", "phone": "(217) 280-4121", "website": "https://www.aramarkuniform.com/our-locations/aramark-uniform-services-springfield-il?", "brand": "Aramark", "brand:wikidata": "Q625708"}, "geometry": {"type": "Point", "coordinates": [-89.632, 39.73]}},
{"type": "Feature", "id": "YdwyfEeMxldqFxPYkuV2Zt9B4zA=", "properties": {"ref": "Aramark Chicago South | Aramark Uniform Services", "@spider": "aramark", "addr:full": "9005 West 192nd Street", "addr:city": "Mokena", "addr:state": "IL", "addr:postcode": "60448", "phone": "(708) 390-0013", "website": "https://www.aramarkuniform.com/our-locations/aramark-uniform-services-chicago-south?", "brand": "Aramark", "brand:wikidata": "Q625708"}, "geometry": {"type": "Point", "coordinates": [-87.836, 41.54]}},
{"type": "Feature", "id": "8IosKUNVJYR3kpeizaqvw9fGcrU=", "properties": {"ref": "Aramark Chattanooga | Aramark Uniform Services", "@spider": "aramark", "addr:full": "4625 Resource Drive", "addr:city": "Chattanooga", "addr:state": "TN", "addr:postcode": "37416", "phone": "(423) 933-2231", "website": "https://www.aramarkuniform.com/our-locations/aramark-uniform-services-chattanooga?", "brand": "Aramark", "brand:wikidata": "Q625708"}, "geometry": {"type": "Point", "coordinates": [-85.186, 35.078]}},
{"type": "Feature", "id": "6YPZgzqIc8xMV5l7g1rucaU-VV8=", "properties": {"ref": "Aramark Birmingham | Aramark Uniform Services", "@spider": "aramark", "addr:full": "2312 25th Street, North", "addr:city": "Birmingham", "addr:state": "AL", "addr:postcode": "35234", "phone": "(205) 413-8175", "website": "https://www.aramarkuniform.com/our-locations/aramark-uniform-services-birmingham?", "brand": "Aramark", "brand:wikidata": "Q625708"}, "geometry": {"type": "Point", "coordinates": [-86.816, 33.543]}},
{"type": "Feature", "id": "qeXbcrhQpFRUIxqA2LYtcUqFrUw=", "properties": {"ref": "Aramark Pine Bluff | Aramark Uniform Services", "@spider": "aramark", "addr:full": "5508 Jefferson Parkway", "addr:city": "Pine Bluff", "addr:state": "AR", "addr:postcode": "71602", "phone": "(870) 663-4482", "website": "https://www.aramarkuniform.com/our-locations/aramark-uniform-services-pine-bluff?", "brand": "Aramark", "brand:wikidata": "Q625708"}, "geometry": {"type": "Point", "coordinates": [-92.077, 34.261]}},
{"type": "Feature", "id": "JkQgmLV3h4CdT6VKTaftzNRt8ls=", "properties": {"ref": "Aramark Orange County | Aramark Uniform Services", "@spider": "aramark", "addr:full": "3101 West Adams", "addr:city": "Santa Ana", "addr:state": "CA", "addr:postcode": "92704", "phone": "(714) 881-4379", "website": "https://www.aramarkuniform.com/our-locations/aramark-uniform-services-orange-county?", "brand": "Aramark", "brand:wikidata": "Q625708"}, "geometry": {"type": "Point", "coordinates": [-117.91, 33.711]}},
{"type": "Feature", "id": "X6nKJBnRDqtiOy9_viqEQ_DGH_8=", "properties": {"ref": "Aramark Riverside | Aramark Uniform Services", "@spider": "aramark", "addr:full": "1135 Hall Avenue", "addr:city": "Riverside", "addr:state": "CA", "addr:postcode": "92509", "phone": "(951) 824-6004", "website": "https://www.aramarkuniform.com/our-locations/aramark-uniform-services-riverside?", "brand": "Aramark", "brand:wikidata": "Q625708"}, "geometry": {"type": "Point", "coordinates": [-117.38, 34.03]}},
{"type": "Feature", "id": "FQG1Ct8yHrwTVYG6a69nCTzhMfo=", "properties": {"ref": "Aramark Paramount | Aramark Uniform Services", "@spider": "aramark", "addr:full": "15525 South Garfield Avenue", "addr:city": "Paramount", "addr:state": "CA", "addr:postcode": "90723", "phone": "(424) 529-6013", "website": "https://www.aramarkuniform.com/our-locations/aramark-uniform-services-paramount?", "brand": "Aramark", "brand:wikidata": "Q625708"}, "geometry": {"type": "Point", "coordinates": [-118.17, 33.892]}},
{"type": "Feature", "id": "Xmf0d2Lg9srikmX-TXWPjuka_AM=", "properties": {"ref": "Aramark Roanoke | Aramark Uniform Services", "@spider": "aramark", "addr:full": "905 Pollard Street South", "addr:city": "Vinton", "addr:state": "VA", "addr:postcode": "24179", "phone": "(540) 427-7005", "website": "https://www.aramarkuniform.com/our-locations/aramark-uniform-services-roanoke?", "brand": "Aramark", "brand:wikidata": "Q625708"}, "geometry": {"type": "Point", "coordinates": [-79.901, 37.273]}},
{"type": "Feature", "id": "nxWsIlhR-8P4TjNZXzyhlGCISF0=", "properties": {"ref": "Aramark Memphis | Aramark Uniform Services", "@spider": "aramark", "addr:full": "2860 Rudder Road", "addr:city": "Memphis", "addr:state": "TN", "addr:postcode": "38118", "phone": "(901) 881-5397", "website": "https://www.aramarkuniform.com/our-locations/aramark-uniform-services-memphis?", "brand": "Aramark", "brand:wikidata": "Q625708"}, "geometry": {"type": "Point", "coordinates": [-89.968, 35.04]}},
{"type": "Feature", "id": "pycUpNiZXShXaTb6Kz_2Stx4oEk=", "properties": {"ref": "Aramark Knoxville | Aramark Uniform Services", "@spider": "aramark", "addr:full": "4641 Webb Lane", "addr:city": "Knoxville", "addr:state": "TN", "addr:postcode": "37921", "phone": "(865) 312-7413", "website": "https://www.aramarkuniform.com/our-locations/aramark-uniform-services-knoxville?", "brand": "Aramark", "brand:wikidata": "Q625708"}, "geometry": {"type": "Point", "coordinates": [-83.99, 35.969]}},
{"type": "Feature", "id": "0iabYBeQXc80sofu3wI8-QT39zQ=", "properties": {"ref": "Aramark Newark | Aramark Uniform Services", "@spider": "aramark", "addr:full": "740 Frelinghuysen Ave", "addr:city": "Newark", "addr:state": "NY", "addr:postcode": "07114", "phone": "(973) 943-4913", "website": "https://www.aramarkuniform.com/our-locations/aramark-uniform-services-newark?", "brand": "Aramark", "brand:wikidata": "Q625708"}, "geometry": {"type": "Point", "coordinates": [-74.199, 40.696]}},
{"type": "Feature", "id": "xb-q5TzVafwaL28ACFdHMSm1BwY=", "properties": {"ref": "Aramark Detroit | Aramark Uniform Services", "@spider": "aramark", "addr:full": "30700 Wixom Road", "addr:city": "Wixom", "addr:state": "MI", "addr:postcode": "48150", "phone": "(248) 438-5253", "website": "https://www.aramarkuniform.com/our-locations/aramark-uniform-services-detroit?", "brand": "Aramark", "brand:wikidata": "Q625708"}, "geometry": {"type": "Point", "coordinates": [-83.538, 42.521]}},
{"type": "Feature", "id": "m5eMsdQHGCLdGjEwlQJsoOkrLJc=", "properties": {"ref": "Aramark Baltimore | Aramark Uniform Services", "@spider": "aramark", "addr:full": "2928 Washington Boulevard", "addr:city": "Baltimore", "addr:state": "MD", "addr:postcode": "21230", "phone": "(443) 992-4665", "website": "https://www.aramarkuniform.com/our-locations/aramark-uniform-services-baltimore?", "brand": "Aramark", "brand:wikidata": "Q625708"}, "geometry": {"type": "Point", "coordinates": [-76.658, 39.262]}},
{"type": "Feature", "id": "gJyjZFC0cspO0Z0TRUox4sUEw5M=", "properties": {"ref": "Aramark Atlanta | Aramark Uniform Services", "@spider": "aramark", "addr:full": "401 Glen Iris Drive, NE", "addr:city": "Atlanta", "addr:state": "GA", "addr:postcode": "30308", "phone": "(404) 287-2115", "website": "https://www.aramarkuniform.com/our-locations/aramark-uniform-services-atlanta?", "brand": "Aramark", "brand:wikidata": "Q625708"}, "geometry": {"type": "Point", "coordinates": [-84.368, 33.766]}},
{"type": "Feature", "id": "fxFUxwvMQJawraeReQWFVowW0JA=", "properties": {"ref": "Aramark Jacksonville | Aramark Uniform Services", "@spider": "aramark", "addr:full": "5698 Commonwealth Avenue", "addr:city": "Jacksonville", "addr:state": "FL", "addr:postcode": "32205", "phone": "(904) 525-8467", "website": "https://www.aramarkuniform.com/our-locations/aramark-uniform-services-jacksonville?", "brand": "Aramark", "brand:wikidata": "Q625708"}, "geometry": {"type": "Point", "coordinates": [-81.648, 30.358]}},
{"type": "Feature", "id": "FFIlGFNs2_MypT4dwLZNPz9WnVk=", "properties": {"ref": "Aramark Tampa | Aramark Uniform Services", "@spider": "aramark", "addr:full": "2817 North 35th Street", "addr:city": "Tampa", "addr:state": "FL", "addr:postcode": "33605", "phone": "(813) 639-8193", "website": "https://www.aramarkuniform.com/our-locations/aramark-uniform-services-tampa?", "brand": "Aramark", "brand:wikidata": "Q625708"}, "geometry": {"type": "Point", "coordinates": [-82.421, 27.97]}},
{"type": "Feature", "id": "k_4kIn-B6qcHixRRuWO9FhIzRU4=", "properties": {"ref": "Aramark Orlando | Aramark Uniform Services", "@spider": "aramark", "addr:full": "2741 South Division Avenue", "addr:city": "Orlando", "addr:state": "FL", "addr:postcode": "32805", "phone": "800-272-6275", "website": "https://www.aramarkuniform.com/our-locations/aramark-uniform-services-orlando?", "brand": "Aramark", "brand:wikidata": "Q625708"}, "geometry": {"type": "Point", "coordinates": [-81.384, 28.514]}},
{"type": "Feature", "id": "DKrAg3MdjSkpbdXLpMBWeTTIOBk=", "properties": {"ref": "Aramark Pompano Beach | Aramark Uniform Services", "@spider": "aramark", "addr:full": "2351 Blount Road", "addr:city": " Pompano Beach", "addr:state": "FL", "addr:postcode": "33069", "phone": "(954) 590-5160", "website": "https://www.aramarkuniform.com/our-locations/aramark-uniform-services-pompano-beach?", "brand": "Aramark", "brand:wikidata": "Q625708"}, "geometry": {"type": "Point", "coordinates": [-80.255, 25.899]}},
{"type": "Feature", "id": "0KjbxzNbmWuBgkUVXF_QsgzhZPo=", "properties": {"ref": "Aramark Bowling Green | Aramark Uniform Services", "@spider": "aramark", "addr:full": "1947 Russelville Road", "addr:city": "Bowling Green", "addr:state": "KY", "addr:postcode": "42101", "phone": "(270) 495-0432", "website": "https://www.aramarkuniform.com/our-locations/aramark-uniform-services-bowling-green?", "brand": "Aramark", "brand:wikidata": "Q625708"}, "geometry": {"type": "Point", "coordinates": [-86.47, 36.977]}},
{"type": "Feature", "id": "hFoOebQXZZIZ8o-RHS4eqeYto-E=", "properties": {"ref": "Aramark San Antonio | Aramark Uniform Services", "@spider": "aramark", "addr:full": "10501 Fischer Road", "addr:city": "Von Ormy", "addr:state": "TX", "addr:postcode": "78073", "phone": "(210) 764-5167", "website": "https://www.aramarkuniform.com/our-locations/aramark-uniform-services-san-antonio?", "brand": "Aramark", "brand:wikidata": "Q625708"}, "geometry": {"type": "Point", "coordinates": [-98.62, 29.295]}},
{"type": "Feature", "id": "Jwlwv7_20JhB2W_jWU7qdZDZn8c=", "properties": {"ref": "Aramark Houston | Aramark Uniform Services", "@spider": "aramark", "addr:full": "10110 Cash Road", "addr:city": "Stafford", "addr:state": "TX", "addr:postcode": "77477", "phone": "(832) 539-2163", "website": "https://www.aramarkuniform.com/our-locations/aramark-uniform-services-houston?", "brand": "Aramark", "brand:wikidata": "Q625708"}, "geometry": {"type": "Point", "coordinates": [-95.555, 29.629]}},
{"type": "Feature", "id": "-Rj3a3zzNxdNjo0G6ed9j58PkI4=", "properties": {"ref": "Aramark Tyler | Aramark Uniform Services", "@spider": "aramark", "addr:full": "2821 Robertson Road", "addr:city": "Tyler", "addr:state": "TX", "addr:postcode": "75701", "phone": "(903) 705-7444", "website": "https://www.aramarkuniform.com/our-locations/aramark-uniform-services-tyler?", "brand": "Aramark", "brand:wikidata": "Q625708"}, "geometry": {"type": "Point", "coordinates": [-95.33, 32.333]}},
{"type": "Feature", "id": "nldQnZUTyzAiTVDkfEYEbhz5h0Q=", "properties": {"ref": "Aramark Dallas | Aramark Uniform Services", "@spider": "aramark", "addr:full": "1900 Empire Central", "addr:city": "Dallas", "addr:state": "TX", "addr:postcode": "75235", "phone": "(214) 666-6938", "website": "https://www.aramarkuniform.com/our-locations/aramark-uniform-services-dallas?", "brand": "Aramark", "brand:wikidata": "Q625708"}, "geometry": {"type": "Point", "coordinates": [-96.856, 32.826]}},
{"type": "Feature", "id": "Qzt5bC7AODRezl5xdCb-9Z00as0=", "properties": {"ref": "Aramark Bluefield | Aramark Uniform Services", "@spider": "aramark", "addr:full": "712 South College Drive", "addr:city": "Bluefield", "addr:state": "VA", "addr:postcode": "24605", "phone": "(276) 866 4008", "website": "https://www.aramarkuniform.com/our-locations/aramark-uniform-services-bluefield?", "brand": "Aramark", "brand:wikidata": "Q625708"}, "geometry": {"type": "Point", "coordinates": [-81.263, 37.242]}},
{"type": "Feature", "id": "4WRsPSNv95vDFCjqf9SEuHLhW_Q=", "properties": {"ref": "Aramark Toledo | Aramark Uniform Services", "@spider": "aramark", "addr:full": "5120 Advantage Drive", "addr:city": "Toledo", "addr:state": "OH", "addr:postcode": "43612", "phone": "(419) 464-9466", "website": "https://www.aramarkuniform.com/our-locations/aramark-uniform-services-toledo?", "brand": "Aramark", "brand:wikidata": "Q625708"}, "geometry": {"type": "Point", "coordinates": [-83.515, 41.712]}},
{"type": "Feature", "id": "CAI8bNp4RAxtG_4bIk25IylKJMM=", "properties": {"ref": "Aramark Cincinnati | Aramark Uniform Services", "@spider": "aramark", "addr:full": "4936 Montgomery Road", "addr:city": "Cincinnati", "addr:state": "OH", "addr:postcode": "45212", "phone": "(513) 878-1791", "website": "https://www.aramarkuniform.com/our-locations/aramark-uniform-services-cincinatti?", "brand": "Aramark", "brand:wikidata": "Q625708"}, "geometry": {"type": "Point", "coordinates": [-84.453, 39.166]}},
{"type": "Feature", "id": "PPB0pFhEZqoS5z5MnbzGiL8JwhM=", "properties": {"ref": "Aramark Lexington | Aramark Uniform Services", "@spider": "aramark", "addr:full": "1225 Versailles Street", "addr:city": "Lexington", "addr:state": "KY", "addr:postcode": "40508", "phone": "(859) 554-3350", "website": "https://www.aramarkuniform.com/our-locations/aramark-uniform-services-lexington?", "brand": "Aramark", "brand:wikidata": "Q625708"}, "geometry": {"type": "Point", "coordinates": [-84.519, 38.051]}},
{"type": "Feature", "id": "eukn0xP0a4TzYaU9LeMSLz6OcF0=", "properties": {"ref": "Aramark Cleveland | Aramark Uniform Services", "@spider": "aramark", "addr:full": "3600 East 93rd Street", "addr:city": "Cleveland", "addr:state": "OH", "addr:postcode": "44105", "phone": "(216) 485-2194", "website": "https://www.aramarkuniform.com/our-locations/aramark-uniform-services-cleveland?", "brand": "Aramark", "brand:wikidata": "Q625708"}, "geometry": {"type": "Point", "coordinates": [-81.622, 41.46]}},
{"type": "Feature", "id": "FnBnFk2YvfeaCkwYH52AHHyBrGM=", "properties": {"ref": "Aramark Long Island | Aramark Uniform Services", "@spider": "aramark", "addr:full": "50 Mercedes Way", "addr:city": "Edgewood", "addr:state": "NY", "addr:postcode": "11717", "phone": "(631) 865-1859", "website": "https://www.aramarkuniform.com/our-locations/aramark-uniform-services-long-island?", "brand": "Aramark", "brand:wikidata": "Q625708"}, "geometry": {"type": "Point", "coordinates": [-73.287, 40.782]}},
{"type": "Feature", "id": "V7QKayr8Qwr8QHgkeCKYv-7k3ZE=", "properties": {"ref": "Aramark Union | Aramark Uniform Services", "@spider": "aramark", "addr:full": "1060 Gelb Avenue", "addr:city": "Union", "addr:state": "NJ", "addr:postcode": "07083", "phone": "(908) 364-5001", "website": "https://www.aramarkuniform.com/our-locations/aramark-uniform-services-union?", "brand": "Aramark", "brand:wikidata": "Q625708"}, "geometry": {"type": "Point", "coordinates": [-74.291, 40.691]}},
{"type": "Feature", "id": "G7DtkHk7SrQgiwP0v-332VkRumA=", "properties": {"ref": "Aramark Cherry Hill | Aramark Uniform Services", "@spider": "aramark", "addr:full": "1178 Marlkress Road", "addr:city": "Cherry Hill", "addr:state": "NJ", "addr:postcode": "08003", "phone": "(856) 874-8034", "website": "https://www.aramarkuniform.com/our-locations/aramark-uniform-services-cherry-hill?", "brand": "Aramark", "brand:wikidata": "Q625708"}, "geometry": {"type": "Point", "coordinates": [-74.978, 39.903]}},
{"type": "Feature", "id": "L7USuJ3gXKBw76RVOPIALPP38I4=", "properties": {"ref": "Aramark Reading | Aramark Uniform Services", "@spider": "aramark", "addr:full": "424 Blair Avenue", "addr:city": "Reading", "addr:state": "PA", "addr:postcode": "19601", "phone": "(484) 334-8750", "website": "https://www.aramarkuniform.com/our-locations/aramark-uniform-services-reading?", "brand": "Aramark", "brand:wikidata": "Q625708"}, "geometry": {"type": "Point", "coordinates": [-75.945, 40.351]}},
{"type": "Feature", "id": "2jKxSD0OK0OI36mQNLXFDx84634=", "properties": {"ref": "Aramark Los Angeles | Aramark Uniform Services", "@spider": "aramark", "addr:full": "4422 Dunham St", "addr:city": "Los Angeles", "addr:state": "CA", "addr:postcode": "90023", "phone": "(323) 825-3000", "website": "https://www.aramarkuniform.com/our-locations/aramark-uniform-services-los-angeles?", "brand": "Aramark", "brand:wikidata": "Q625708"}, "geometry": {"type": "Point", "coordinates": [-118.18, 34.013]}},
{"type": "Feature", "id": "6dsKTSkRlcYC_IvzEiAtZZ6U1-s=", "properties": {"ref": "Aramark Phoenix | Aramark Uniform Services", "@spider": "aramark", "addr:full": "3836 West Buckeye Road", "addr:city": "Phoenix", "addr:state": "AZ", "addr:postcode": "85009", "phone": "(602) 490-8911", "website": "https://www.aramarkuniform.com/our-locations/aramark-uniform-services-phoenix?", "brand": "Aramark", "brand:wikidata": "Q625708"}, "geometry": {"type": "Point", "coordinates": [-112.14, 33.439]}},
{"type": "Feature", "id": "eogoM_S-pbAxkPs4TDJtAIOKDJ4=", "properties": {"ref": "Aramark Salt Lake City | Aramark Uniform Services", "@spider": "aramark", "addr:full": "3679 South 700 West", "addr:city": "Salt Lake City", "addr:state": "UT", "addr:postcode": "84119", "phone": "(801) 207-7684", "website": "https://www.aramarkuniform.com/our-locations/aramark-uniform-services-salt-lake-city?", "brand": "Aramark", "brand:wikidata": "Q625708"}, "geometry": {"type": "Point", "coordinates": [-111.91, 40.691]}},
{"type": "Feature", "id": "LIGKVT5DIdBC-_IAP7bsrGerI10=", "properties": {"ref": "Aramark Portland | Aramark Uniform Services", "@spider": "aramark", "addr:full": "16305 NE Airport Way", "addr:city": "Portland", "addr:state": "OR", "addr:postcode": "97230", "phone": "(503) 946-6226", "website": "https://www.aramarkuniform.com/our-locations/aramark-uniform-services-portland?", "brand": "Aramark", "brand:wikidata": "Q625708"}, "geometry": {"type": "Point", "coordinates": [-122.49, 45.557]}},
{"type": "Feature", "id": "wdufNNPSbAI9BMKvGgN-PH5tn4I=", "properties": {"ref": "Aramark San Diego | Aramark Uniform Services", "@spider": "aramark", "addr:full": "5665 Eastgate Drive", "addr:city": "San Diego", "addr:state": "CA", "addr:postcode": "92121", "phone": "(858) 366-4471", "website": "https://www.aramarkuniform.com/our-locations/aramark-uniform-services-san-diego?", "brand": "Aramark", "brand:wikidata": "Q625708"}, "geometry": {"type": "Point", "coordinates": [-117.2, 32.883]}},
{"type": "Feature", "id": "w6SumfSLSynlm5WOtO9Cy375cDY=", "properties": {"ref": "Aramark Hayward | Aramark Uniform Services", "@spider": "aramark", "addr:full": "31148 San Antonio Street", "addr:city": "Hayward", "addr:state": "CA", "addr:postcode": "94544", "phone": "(510) 400-7364", "website": "https://www.aramarkuniform.com/our-locations/aramark-uniform-services-hayward?", "brand": "Aramark", "brand:wikidata": "Q625708"}, "geometry": {"type": "Point", "coordinates": [-122.05, 37.609]}},
{"type": "Feature", "id": "liozYn_Dj86VdjTFoXwSHSicosk=", "properties": {"ref": "Aramark Concord | Aramark Uniform Services", "@spider": "aramark", "addr:full": "5000 Forni Drive", "addr:city": "Concord", "addr:state": "CA", "addr:postcode": "94520", "phone": "(925) 521-8730", "website": "https://www.aramarkuniform.com/our-locations/aramark-uniform-services-concord?", "brand": "Aramark", "brand:wikidata": "Q625708"}, "geometry": {"type": "Point", "coordinates": [-122.03, 38.014]}},
{"type": "Feature", "id": "M4rAuGBphDqRFwIJh4DhaBZejqY=", "properties": {"ref": "Aramark Seattle | Aramark Uniform Services", "@spider": "aramark", "addr:full": "7810 South 228th Street", "addr:city": "Kent", "addr:state": "WA", "addr:postcode": "98032", "phone": "(253) 236-0595", "website": "https://www.aramarkuniform.com/our-locations/aramark-uniform-services-seattle?", "brand": "Aramark", "brand:wikidata": "Q625708"}, "geometry": {"type": "Point", "coordinates": [-122.23, 47.399]}},
{"type": "Feature", "id": "pJDtfaadXwjZhyumJ6pAjkGR7QA=", "properties": {"ref": "Aramark Novato | Aramark Uniform Services", "@spider": "aramark", "addr:full": "396 Bel Marin Keys Boulevard", "addr:city": "Novato", "addr:state": "CA", "addr:postcode": "94948", "phone": "(415) 483-4174", "website": "https://www.aramarkuniform.com/our-locations/aramark-uniform-services-novato?", "brand": "Aramark", "brand:wikidata": "Q625708"}, "geometry": {"type": "Point", "coordinates": [-122.54, 38.076]}},
{"type": "Feature", "id": "v48M6OHe2TMcaB5Nqzlm7x_Djj4=", "properties": {"ref": "Aramark Sacramento | Aramark Uniform Services", "@spider": "aramark", "addr:full": "1419 National Drive", "addr:city": "Sacramento", "addr:state": "CA", "addr:postcode": "95834", "phone": "(916) 550-9006", "website": "https://www.aramarkuniform.com/our-locations/aramark-uniform-services-sacramento?", "brand": "Aramark", "brand:wikidata": "Q625708"}, "geometry": {"type": "Point", "coordinates": [-121.49, 38.644]}},
{"type": "Feature", "id": "HZNwo9jfihKVwruQob9MEY9glCk=", "properties": {"ref": "Aramark Modesto | Aramark Uniform Services", "@spider": "aramark", "addr:full": "1617 Jim Way", "addr:city": "Modesto", "addr:state": "CA", "addr:postcode": "95358", "phone": "(209) 566-2678", "website": "https://www.aramarkuniform.com/our-locations/aramark-uniform-services-modesto?", "brand": "Aramark", "brand:wikidata": "Q625708"}, "geometry": {"type": "Point", "coordinates": [-120.99, 37.607]}},
{"type": "Feature", "id": "rQg4y67OWcvnOsBY4A61JeTx4jI=", "properties": {"ref": "Aramark Fresno | Aramark Uniform Services", "@spider": "aramark", "addr:full": "3333 North Sabre Avenue", "addr:city": "Fresno", "addr:state": "CA", "addr:postcode": "93727", "phone": "(559) 512-7174", "website": "https://www.aramarkuniform.com/our-locations/aramark-uniform-services-fresno?", "brand": "Aramark", "brand:wikidata": "Q625708"}, "geometry": {"type": "Point", "coordinates": [-119.7, 36.781]}},
{"type": "Feature", "id": "GbaaZdKstprxXczG9GsXdxLmqXk=", "properties": {"ref": "Aramark Sylmar | Aramark Uniform Services", "@spider": "aramark", "addr:full": "15372 Cobalt Street", "addr:city": "Sylmar", "addr:state": "CA", "addr:postcode": "91342", "phone": "(747) 999-4005", "website": "https://www.aramarkuniform.com/our-locations/aramark-uniform-services-sylmar?", "brand": "Aramark", "brand:wikidata": "Q625708"}, "geometry": {"type": "Point", "coordinates": [-118.47, 34.31]}},
{"type": "Feature", "id": "MmJZxHVyW6S0PAIP3HkOHC5bcjE=", "properties": {"ref": "Aramark McKinney | Aramark Cleanroom Services ", "@spider": "aramark", "addr:full": "407 Interchange St.", "addr:city": "McKinney", "addr:state": "TX", "addr:postcode": "75071", "phone": "972-984-1230", "website": "https://www.aramarkuniform.com/our-locations/aramark-cleanroom-services-mckinney?", "brand": "Aramark", "brand:wikidata": "Q625708"}, "geometry": {"type": "Point", "coordinates": [-96.610884, 33.221149]}},
{"type": "Feature", "id": "_mHyEcjGbh-i2j3veKYVhmD4U4c=", "properties": {"ref": "Aramark Scranton | Aramark Cleanroom Services", "@spider": "aramark", "addr:full": "1037 Hemlock Street", "addr:city": "Scranton", "addr:state": "PA", "addr:postcode": "18505", "phone": "570-347-0131", "website": "https://www.aramarkuniform.com/our-locations/aramark-cleanroom-services-scranton?", "brand": "Aramark", "brand:wikidata": "Q625708"}, "geometry": {"type": "Point", "coordinates": [-75.656, 41.399]}},
{"type": "Feature", "id": "J-VmAkhpsNx9JGqP9174HlT71wM=", "properties": {"ref": "Aramark Oklahoma City | Aramark Uniform Services", "@spider": "aramark", "addr:full": "1450 North East Third Street", "addr:city": "Oklahoma City", "addr:state": "OK", "addr:postcode": "73117", "phone": "(405) 445-4018", "website": "https://www.aramarkuniform.com/our-locations/aramark-uniform-services-oklahoma-city?", "brand": "Aramark", "brand:wikidata": "Q625708"}, "geometry": {"type": "Point", "coordinates": [-97.487, 35.47]}},
{"type": "Feature", "id": "CNqSsj_zBHn51K6pcVm6MsLIsxU=", "properties": {"ref": "Aramark Kansas City | Aramark Uniform Services", "@spider": "aramark", "addr:full": "123 American Avenue", "addr:city": "Lansing", "addr:state": "KS", "addr:postcode": "66043", "phone": "(913) 828-5558", "website": "https://www.aramarkuniform.com/our-locations/aramark-uniform-services-kansas-city?", "brand": "Aramark", "brand:wikidata": "Q625708"}, "geometry": {"type": "Point", "coordinates": [-94.896, 39.255]}},
{"type": "Feature", "id": "ts4gohgl-H2TpOIoMTVVP2UKcis=", "properties": {"ref": "Aramark Springfield, MO | Aramark Uniform Services", "@spider": "aramark", "addr:full": "2950 West Catalpa", "addr:city": "Springfield", "addr:state": "MO", "addr:postcode": "65802", "phone": "(417) 429-4395", "website": "https://www.aramarkuniform.com/our-locations/aramark-uniform-services-springfield-mo?", "brand": "Aramark", "brand:wikidata": "Q625708"}, "geometry": {"type": "Point", "coordinates": [-93.338, 37.193]}},
{"type": "Feature", "id": "0PZ4ddQ5iXSemEtx7B1u947lf7M=", "properties": {"ref": "Aramark Highland | Aramark Uniform Services", "@spider": "aramark", "addr:full": "6 Ultra Way Drive", "addr:city": "Highland", "addr:state": "IL", "addr:postcode": "62249", "phone": "(618) 882-4055", "website": "https://www.aramarkuniform.com/our-locations/aramark-uniform-services-highland?", "brand": "Aramark", "brand:wikidata": "Q625708"}, "geometry": {"type": "Point", "coordinates": [-89.671, 38.739]}},
{"type": "Feature", "id": "W7xpGcckV3y8NcE5ixb_8j8qqEA=", "properties": {"ref": "Aramark Terre Haute | Aramark Uniform Services", "@spider": "aramark", "addr:full": "3752 North Fruitridge", "addr:city": "Terre Haute", "addr:state": "IN", "addr:postcode": "47804", "phone": "(812) 233-3026", "website": "https://www.aramarkuniform.com/our-locations/aramark-uniform-services-terre-haute?", "brand": "Aramark", "brand:wikidata": "Q625708"}, "geometry": {"type": "Point", "coordinates": [-87.36, 39.512]}},
{"type": "Feature", "id": "XEY66zOZrnm9bV9xLlpnALH6hNg=", "properties": {"ref": "Aramark Fulton | Aramark Uniform Services", "@spider": "aramark", "addr:full": "2 West Industrial", "addr:city": "Fulton", "addr:state": "MO", "addr:postcode": "65251", "phone": "(573) 826-4058", "website": "https://www.aramarkuniform.com/our-locations/aramark-uniform-services-fulton?", "brand": "Aramark", "brand:wikidata": "Q625708"}, "geometry": {"type": "Point", "coordinates": [-91.947, 38.871]}},
{"type": "Feature", "id": "IoMwpXU7BgCMrMx3spzGXwUzFxI=", "properties": {"ref": "Aramark Sikeston | Aramark Uniform Services", "@spider": "aramark", "addr:full": "400 Northwest Street", "addr:city": "Sikeston", "addr:state": "MO", "addr:postcode": "63801", "phone": "(573) 475-4217", "website": "https://www.aramarkuniform.com/our-locations/aramark-uniform-services-sikeston?", "brand": "Aramark", "brand:wikidata": "Q625708"}, "geometry": {"type": "Point", "coordinates": [-89.599, 36.879]}},
{"type": "Feature", "id": "uZR5cuN_d41w0OanQS0ekK2o-1s=", "properties": {"ref": "Aramark Dayton | Aramark Uniform Services", "@spider": "aramark", "addr:full": "1200 Webster Street", "addr:city": "Dayton", "addr:state": "OH", "addr:postcode": "45404", "phone": "(937) 660-4708", "website": "https://www.aramarkuniform.com/our-locations/aramark-uniform-services-dayton?", "brand": "Aramark", "brand:wikidata": "Q625708"}, "geometry": {"type": "Point", "coordinates": [-84.183, 39.779]}},
{"type": "Feature", "id": "MX9DfPEKoTAvj8U1XOlD3rNsN8o=", "properties": {"ref": "Aramark Fort Worth | Aramark Uniform Services", "@spider": "aramark", "addr:full": "205 East Morningside Drive", "addr:city": "Fort Worth", "addr:state": "TX", "addr:postcode": "76104", "phone": "(800) 272 6275", "website": "https://www.aramarkuniform.com/our-locations/aramark-uniform-services-fort-worth?", "brand": "Aramark", "brand:wikidata": "Q625708"}, "geometry": {"type": "Point", "coordinates": [-97.325, 32.714]}},
{"type": "Feature", "id": "pnhJ-w9wc-Tphc4jS30wiuijBv8=", "properties": {"ref": "Aramark Toronto | Aramark Uniform Service ", "@spider": "aramark", "addr:full": "2390 Winston Park Boulevard - Unit  2", "addr:city": "Oakville", "addr:state": "ON", "addr:postcode": "L6H0G7", "phone": "(905) 829-8770 ", "website": "https://www.aramarkuniform.com/our-locations/aramark-toronto-aramark-uniform-service?", "brand": "Aramark", "brand:wikidata": "Q625708"}, "geometry": {"type": "Point", "coordinates": [-79.681416, 43.514362]}},
{"type": "Feature", "id": "hfoPSjdZMAOP5lIF8Po3W9YxdHI=", "properties": {"ref": "Aramark Rochester | Aramark Uniform Services", "@spider": "aramark", "addr:full": "200 Trade Ct", "addr:city": "Rochester", "addr:state": "NY", "addr:postcode": "14624", "phone": "(585) 301-4052", "website": "https://www.aramarkuniform.com/our-locations/aramark-uniform-services-rochester?", "brand": "Aramark", "brand:wikidata": "Q625708"}, "geometry": {"type": "Point", "coordinates": [-77.712, 43.104]}},
{"type": "Feature", "id": "xw3ZFaOu-uuASxIBhc4jwKdaZ50=", "properties": {"ref": "Aramark Greensboro | Aramark Uniform Services", "@spider": "aramark", "addr:full": "200 East J.J. Drive", "addr:city": "Greensboro", "addr:state": "NC", "addr:postcode": "27406", "phone": "(336) 790-3541", "website": "https://www.aramarkuniform.com/our-locations/aramark-uniform-services-greensboro?", "brand": "Aramark", "brand:wikidata": "Q625708"}, "geometry": {"type": "Point", "coordinates": [-79.787, 36.033]}},
{"type": "Feature", "id": "2Qw67_xR4ZBVrZjzU4O95hbO3Qo=", "properties": {"ref": "Aramark Lawrence | Aramark Uniform Services", "@spider": "aramark", "addr:full": "110 Glenn Street", "addr:city": "Lawrence", "addr:state": "MA", "addr:postcode": "01843", "phone": "978-965-4423", "website": "https://www.aramarkuniform.com/our-locations/aramark-uniform-services-lawrence?", "brand": "Aramark", "brand:wikidata": "Q625708"}, "geometry": {"type": "Point", "coordinates": [-71.182, 42.683]}},
{"type": "Feature", "id": "5dtzyLdS2w_OlyFDT1_p9-rW03s=", "properties": {"ref": "Aramark East Providence | Aramark Uniform Services", "@spider": "aramark", "addr:full": "11 Almeida Avenue", "addr:city": "East Providence", "addr:state": "RI", "addr:postcode": "02914", "phone": "(401) 429-6802", "website": "https://www.aramarkuniform.com/our-locations/aramark-uniform-services-providence?", "brand": "Aramark", "brand:wikidata": "Q625708"}, "geometry": {"type": "Point", "coordinates": [-71.347, 41.813]}},
{"type": "Feature", "id": "mQy2GA0LO0C79rq_JJCK907WBDE=", "properties": {"ref": "Aramark Charlotte | Aramark Uniform Services", "@spider": "aramark", "addr:full": "2321 Wilkinson Boulevard", "addr:city": "Charlotte", "addr:state": "NC", "addr:postcode": "28208", "phone": "(704) 837-4349", "website": "https://www.aramarkuniform.com/our-locations/aramark-uniform-services-charlotte?", "brand": "Aramark", "brand:wikidata": "Q625708"}, "geometry": {"type": "Point", "coordinates": [-80.879, 35.224]}},
{"type": "Feature", "id": "vJlA5bVKO1bdiflHLdSUGOMnT2Q=", "properties": {"ref": "Aramark Madison | Aramark Uniform Services", "@spider": "aramark", "addr:full": "1212 North Stoughton Road", "addr:city": "Madison", "addr:state": "WI", "addr:postcode": "53714", "phone": "(608) 807-4764", "website": "https://www.aramarkuniform.com/our-locations/aramark-uniform-services-madison?", "brand": "Aramark", "brand:wikidata": "Q625708"}, "geometry": {"type": "Point", "coordinates": [-89.322, 43.113]}},
{"type": "Feature", "id": "T47hQZw5g6ONFXT7C7Fg3X1irAA=", "properties": {"ref": "Aramark Columbus | Aramark Uniform Services", "@spider": "aramark", "addr:full": "1900 Progress Avenue", "addr:city": "Columbus", "addr:state": "OH", "addr:postcode": "43207", "phone": "(614) 360-1609", "website": "https://www.aramarkuniform.com/our-locations/aramark-uniform-services-columbus?", "brand": "Aramark", "brand:wikidata": "Q625708"}, "geometry": {"type": "Point", "coordinates": [-82.947, 39.928]}},
{"type": "Feature", "id": "eYviOTecqxT3eaYDXqVpLDs0GEM=", "properties": {"ref": "Aramark Nashville | Aramark Uniform Services", "@spider": "aramark", "addr:full": "6121 Cockrill Bend Circle", "addr:city": "Nashville", "addr:state": "TN", "addr:postcode": "37209", "phone": "615-200-6878", "website": "https://www.aramarkuniform.com/our-locations/aramark-uniform-services-nashville?", "brand": "Aramark", "brand:wikidata": "Q625708"}, "geometry": {"type": "Point", "coordinates": [-86.893, 36.178]}},
{"type": "Feature", "id": "4yGy4v7zqXtQIwnLWJ4jpEhrS1s=", "properties": {"ref": "Aramark Oakland | Aramark Uniform Services", "@spider": "aramark", "addr:full": "330 Chestnut St", "addr:city": "Oakland", "addr:state": "CA", "addr:postcode": "94607", "phone": "(510) 380-8534", "website": "https://www.aramarkuniform.com/our-locations/aramark-uniform-services-oakland?", "brand": "Aramark", "brand:wikidata": "Q625708"}, "geometry": {"type": "Point", "coordinates": [-122.29, 37.801]}},
{"type": "Feature", "id": "WM-A0J3GJ0AsRhpzODM-GAip3Ro=", "properties": {"ref": "Aramark San Jose | Aramark Uniform Services", "@spider": "aramark", "addr:full": "855 McKendrie Street", "addr:city": "San Jose", "addr:state": "CA", "addr:postcode": "95126", "phone": "(408) 565-8155", "website": "https://www.aramarkuniform.com/our-locations/aramark-uniform-services-san-jose?", "brand": "Aramark", "brand:wikidata": "Q625708"}, "geometry": {"type": "Point", "coordinates": [-121.92, 37.344]}},
{"type": "Feature", "id": "15drb9fnRLp55_sN-aPRXAg5UEM=", "properties": {"ref": "Aramark Durham | Aramark Cleanroom Services", "@spider": "aramark", "addr:full": "3 Yadkin St", "addr:city": "Durham", "addr:state": "NC", "addr:postcode": "27703", "phone": "919-957-9800", "website": "https://www.aramarkuniform.com/our-locations/aramark-cleanroom-services-durham?", "brand": "Aramark", "brand:wikidata": "Q625708"}, "geometry": {"type": "Point", "coordinates": [-78.876, 35.966]}},
{"type": "Feature", "id": "qlnq-Rsgo-mUeWYqL7KkFUM0V3c=", "properties": {"ref": "Aramark Springfield, OR | Aramark Uniform Services", "@spider": "aramark", "addr:full": "1210 40th St. ", "addr:city": "Springfield", "addr:state": "OR", "addr:postcode": "97478", "phone": "(541) 988-3000 ", "website": "https://www.aramarkuniform.com/our-locations/aramark-uniform-services-springfield-or?", "brand": "Aramark", "brand:wikidata": "Q625708"}, "geometry": {"type": "Point", "coordinates": [-122.97, 44.056]}},
{"type": "Feature", "id": "khmjzbmInyNTYEk9kRBFwHWnbKM=", "properties": {"ref": "Aramark St. Louis | Aramark Uniform Services ", "@spider": "aramark", "addr:full": "10822 Midwest Industrial Drive", "addr:city": "St. Louis", "addr:state": "MO", "addr:postcode": "63132", "phone": "(314) 222-0210", "website": "https://www.aramarkuniform.com/our-locations/aramark-uniform-services-st-louis?", "brand": "Aramark", "brand:wikidata": "Q625708"}, "geometry": {"type": "Point", "coordinates": [-90.391, 38.688]}},
{"type": "Feature", "id": "OzWol4hp-2-MYzVASzj6ClH8clc=", "properties": {"ref": "Bakersfield, CA | Aramark Uniform Services", "@spider": "aramark", "addr:full": "335 Washington St", "addr:city": "Bakersfield", "addr:state": "CA", "addr:postcode": "93307", "phone": "800-750-4628", "website": "https://www.aramarkuniform.com/our-locations/aramark-uniform-services-bakersfield2?", "brand": "Aramark", "brand:wikidata": "Q625708"}, "geometry": {"type": "Point", "coordinates": [-118.976422, 35.360026]}},
{"type": "Feature", "id": "sPwAiL2GCD-gVJu8bqR_mkZ47Vs=", "properties": {"ref": "Bismarck, ND | Aramark Uniform Services", "@spider": "aramark", "addr:full": "1238 Frontier Dr", "addr:city": "Bismarck", "addr:state": "ND", "addr:postcode": "58504", "phone": "800-750-4628", "website": "https://www.aramarkuniform.com/our-locations/aramark-uniform-services-bismarck?", "brand": "Aramark", "brand:wikidata": "Q625708"}, "geometry": {"type": "Point", "coordinates": [-100.772268, 46.788401]}},
{"type": "Feature", "id": "rZ1QxpdLT15cP9DXo4YB2OktH-o=", "properties": {"ref": "Canton, NC | Aramark Uniform Services", "@spider": "aramark", "addr:full": "398 Great Oak Dr.", "addr:city": "Canton", "addr:state": "NC", "addr:postcode": "28716", "phone": "800-750-4628", "website": "https://www.aramarkuniform.com/our-locations/aramark-uniform-services-canton?", "brand": "Aramark", "brand:wikidata": "Q625708"}, "geometry": {"type": "Point", "coordinates": [-82.836102, 35.567303]}},
{"type": "Feature", "id": "j9TaeJes5v0W3040luwMi51oRk4=", "properties": {"ref": "Albuquerque, NM | Aramark Uniform Services", "@spider": "aramark", "addr:full": "517 1st St NW", "addr:city": "Albuquerque", "addr:state": "NM", "addr:postcode": "87102", "phone": "800-750-4628", "website": "https://www.aramarkuniform.com/our-locations/aramark-uniform-services-albuquerque?", "brand": "Aramark", "brand:wikidata": "Q625708"}, "geometry": {"type": "Point", "coordinates": [-106.647121, 35.08892]}},
{"type": "Feature", "id": "6GrkCOKklOEomU7LnAf4AD_Epmw=", "properties": {"ref": "Durant, MS | Aramark Uniform Services", "@spider": "aramark", "addr:full": "105 Landrum St", "addr:city": "Durant", "addr:state": "MS", "addr:postcode": "39063", "phone": "800-750-4628", "website": "https://www.aramarkuniform.com/our-locations/aramark-uniform-services-durant?", "brand": "Aramark", "brand:wikidata": "Q625708"}, "geometry": {"type": "Point", "coordinates": [-89.849036, 33.082412]}},
{"type": "Feature", "id": "u-_7MdFYZJWTxntRNnnj3lqhY-I=", "properties": {"ref": "Aramark Cleanroom Services in Bloomfield, CT", "@spider": "aramark", "addr:full": "100 Phoenix Crossing", "addr:city": "Bloomfield", "addr:state": "CT", "addr:postcode": "06002", "phone": "860-242-5142", "website": "https://www.aramarkuniform.com/our-locations/aramark-bloomfield-aramark-cleanroom-services?", "brand": "Aramark", "brand:wikidata": "Q625708"}, "geometry": {"type": "Point", "coordinates": [-72.713893, 41.865079]}},
{"type": "Feature", "id": "EJQ62BzYdApAL94fvldVgflqQnA=", "properties": {"ref": "Fargo, ND | Aramark Uniform Serivces", "@spider": "aramark", "addr:full": "206 NP Ave", "addr:city": "Fargo", "addr:state": "ND", "addr:postcode": "58102", "phone": "800-750-4628", "website": "https://www.aramarkuniform.com/our-locations/aramark-uniform-services-fargo?", "brand": "Aramark", "brand:wikidata": "Q625708"}, "geometry": {"type": "Point", "coordinates": [-96.781903, 46.875901]}},
{"type": "Feature", "id": "15R-_gCR2s_oVKDbmFOwsdblwVY=", "properties": {"ref": "Hibbing, MN | Aramark Uniform Services", "@spider": "aramark", "addr:full": "519 E 19th St", "addr:city": "Hibbing", "addr:state": "MN", "addr:postcode": "55746", "phone": "(800) 272 6275", "website": "https://www.aramarkuniform.com/our-locations/aramark-uniform-services-hibbing?", "brand": "Aramark", "brand:wikidata": "Q625708"}, "geometry": {"type": "Point", "coordinates": [-92.936249, 47.429149]}},
{"type": "Feature", "id": "hxFJzIOAiOM7gJ2kjPYcJd6alvA=", "properties": {"ref": "Aramark Throop | Aramark Cleanroom Services", "@spider": "aramark", "addr:full": "15 Bert Collins Drive", "addr:city": "Throop", "addr:state": "PA", "addr:postcode": "18512", "phone": "630-929-6170", "website": "https://www.aramarkuniform.com/our-locations/aramark-cleanroom-services-throop?", "brand": "Aramark", "brand:wikidata": "Q625708"}, "geometry": {"type": "Point", "coordinates": [-75.61043, 41.43934]}},
{"type": "Feature", "id": "SBGiZsNW5ngGGqJDJwgorBk5Quk=", "properties": {"ref": "Amarillo, TX | Aramark Uniform Services", "@spider": "aramark", "addr:full": "317 S. Van Buren", "addr:city": "Amarillo", "addr:state": "TX", "addr:postcode": "79101", "phone": "800-750-4628", "website": "https://www.aramarkuniform.com/our-locations/aramark-uniform-services-amarillo?", "brand": "Aramark", "brand:wikidata": "Q625708"}, "geometry": {"type": "Point", "coordinates": [-101.840336, 35.210428]}},
{"type": "Feature", "id": "FPirAlY9aS8VRVOtIdxqoKnrZSo=", "properties": {"ref": "Hartford, CT | Aramark Uniform Services", "@spider": "aramark", "addr:full": "130 Hammer Mill Road", "addr:city": "Rocky Hill", "addr:state": "CT", "addr:postcode": "06067", "phone": "(860) 249 0040", "website": "https://www.aramarkuniform.com/our-locations/aramark-uniform-services-hartford?", "brand": "Aramark", "brand:wikidata": "Q625708"}, "geometry": {"type": "Point", "coordinates": [-72.635, 41.648]}},
{"type": "Feature", "id": "FWk2ziZYe5N1HGeDbV6ItRSH_eg=", "properties": {"ref": "Little Rock, AR | Aramark Uniform Services", "@spider": "aramark", "addr:full": "1901 S Woodrow", "addr:city": "Little Rock", "addr:state": "AR", "addr:postcode": "72204", "phone": "800-750-4628", "website": "https://www.aramarkuniform.com/our-locations/aramark-uniform-services-little-rock?", "brand": "Aramark", "brand:wikidata": "Q625708"}, "geometry": {"type": "Point", "coordinates": [-92.268489, 34.73044]}},
{"type": "Feature", "id": "-zXb6WoyeUpu_oo-Rx4-XoCkZmY=", "properties": {"ref": "Memphis, TN | Aramark Uniform Services", "@spider": "aramark", "addr:full": "800 Vance Ave", "addr:city": "Memphis", "addr:state": "TN", "addr:postcode": "38126", "phone": "800-750-4628", "website": "https://www.aramarkuniform.com/our-locations/aramark-uniform-services-memphis2?", "brand": "Aramark", "brand:wikidata": "Q625708"}, "geometry": {"type": "Point", "coordinates": [-90.0348, 35.133836]}},
{"type": "Feature", "id": "-qgLDhCKLAa_9LGDip1rmMy3Ujs=", "properties": {"ref": "Twin Falls, ID | Aramark Uniform Services", "@spider": "aramark", "addr:full": "403 Main Ave W", "addr:city": "Twin Falls", "addr:state": "ID", "addr:postcode": "83301", "phone": "800-750-4628", "website": "https://www.aramarkuniform.com/our-locations/aramark-uniform-services-twin-falls?", "brand": "Aramark", "brand:wikidata": "Q625708"}, "geometry": {"type": "Point", "coordinates": [-114.474359, 42.558963]}},
{"type": "Feature", "id": "sPFp_BKdHHawlXdfdzQhjjTmKgc=", "properties": {"ref": "Vernon, CA | Aramark Uniform Services", "@spider": "aramark", "addr:full": "5950 Alcoa Ave", "addr:city": "Vernon", "addr:state": "CA", "addr:postcode": "90058", "phone": "800-750-4628", "website": "https://www.aramarkuniform.com/our-locations/aramark-uniform-services-vernon?", "brand": "Aramark", "brand:wikidata": "Q625708"}, "geometry": {"type": "Point", "coordinates": [-118.208408, 33.987825]}},
{"type": "Feature", "id": "ttDUV0Vf57vEy2SmKQG2m2W81S4=", "properties": {"ref": "Minneapolis, MN | Aramark Uniform Services", "@spider": "aramark", "addr:full": "700 Industrial Blvd NE", "addr:city": "Minneapolis", "addr:state": "MN", "addr:postcode": "55413", "phone": "800-750-4628", "website": "https://www.aramarkuniform.com/our-locations/aramark-uniform-services-minneapolis2?", "brand": "Aramark", "brand:wikidata": "Q625708"}, "geometry": {"type": "Point", "coordinates": [-93.21165, 44.997326]}},
{"type": "Feature", "id": "zIywqy9L-It90mjoEyfTtbj_pws=", "properties": {"ref": "Monroe, LA | Aramark Uniform Services", "@spider": "aramark", "addr:full": "811 Louisville Ave", "addr:city": "Monroe", "addr:state": "LA", "addr:postcode": "71201", "phone": "800-750-4628", "website": "https://www.aramarkuniform.com/our-locations/aramark-uniform-services-monroe?", "brand": "Aramark", "brand:wikidata": "Q625708"}, "geometry": {"type": "Point", "coordinates": [-92.115315, 32.511983]}},
{"type": "Feature", "id": "U5m7wKQliYzbv2SNXg3sYcRXmiI=", "properties": {"ref": "Odessa, TX | Aramark Uniform Services", "@spider": "aramark", "addr:full": "1201 S Jackson", "addr:city": "Odessa", "addr:state": "TX", "addr:postcode": "79761", "phone": "800-750-4628", "website": "https://www.aramarkuniform.com/our-locations/aramark-uniform-services-odessa?", "brand": "Aramark", "brand:wikidata": "Q625708"}, "geometry": {"type": "Point", "coordinates": [-102.357541, 31.835468]}},
{"type": "Feature", "id": "M6cbMgd9up4V0SLkEZig8ei3sNQ=", "properties": {"ref": "Omaha, NE | Aramark Uniform Services", "@spider": "aramark", "addr:full": "7515 D St", "addr:city": "Omaha", "addr:state": "NE", "addr:postcode": "68124", "phone": "800-750-4628", "website": "https://www.aramarkuniform.com/our-locations/aramark-uniform-services-omaha?", "brand": "Aramark", "brand:wikidata": "Q625708"}, "geometry": {"type": "Point", "coordinates": [-96.029216, 41.223349]}},
{"type": "Feature", "id": "7FsNwCUSAN8ABRdjp2kqfEWnT2U=", "properties": {"ref": "Sacramento, CA | Aramark Uniform Services", "@spider": "aramark", "addr:full": "7620 Wilbur Way", "addr:city": "Sacramento", "addr:state": "CA", "addr:postcode": "95282", "phone": "800-750-4628", "website": "https://www.aramarkuniform.com/our-locations/aramark-uniform-services-sacramento2?", "brand": "Aramark", "brand:wikidata": "Q625708"}, "geometry": {"type": "Point", "coordinates": [-121.397529, 38.479009]}},
{"type": "Feature", "id": "BgFXFIkJKzlOAGSohJXIMxNJchs=", "properties": {"ref": "Springfield, MO | Aramark Uniform Services", "@spider": "aramark", "addr:full": "3901 E Evergreen", "addr:city": "Springfield", "addr:state": "MT", "addr:postcode": "65803", "phone": "800-750-4628", "website": "https://www.aramarkuniform.com/our-locations/aramark-uniform-services-springfield2?", "brand": "Aramark", "brand:wikidata": "Q625708"}, "geometry": {"type": "Point", "coordinates": [-93.213501, 37.248802]}},
{"type": "Feature", "id": "J0upVCQDry9sJ_urqC7QOZuf-44=", "properties": {"ref": "Phoenix, AZ | Aramark Uniform Services", "@spider": "aramark", "addr:full": "6025 W Van Buren", "addr:city": "Phoenix", "addr:state": "AZ", "addr:postcode": "85043", "phone": "800-750-4628", "website": "https://www.aramarkuniform.com/our-locations/aramark-uniform-services-phoenix2?", "brand": "Aramark", "brand:wikidata": "Q625708"}, "geometry": {"type": "Point", "coordinates": [-112.189229, 33.451513]}},
{"type": "Feature", "id": "BIwWY2rs5U5DDeq_9hQAeG0p5RI=", "properties": {"ref": "Roswell, NM | Aramark Uniform Services", "@spider": "aramark", "addr:full": "515 N Virginia Ave", "addr:city": "Roswell", "addr:state": "NM", "addr:postcode": "88202", "phone": "800-750-4628", "website": "https://www.aramarkuniform.com/our-locations/aramark-uniform-services-roswell?", "brand": "Aramark", "brand:wikidata": "Q625708"}, "geometry": {"type": "Point", "coordinates": [-104.521103, 33.398442]}},
{"type": "Feature", "id": "jR8neGRo8FIEoqJ1HVX7FufUE_o=", "properties": {"ref": "St. Cloud, MN | Aramark Uniform Services", "@spider": "aramark", "addr:full": "6500 Saukview Dr.", "addr:city": "St. Cloud", "addr:state": "MN", "addr:postcode": "56303", "phone": "800-750-4628", "website": "https://www.aramarkuniform.com/our-locations/aramark-uniform-services-st-cloud?", "brand": "Aramark", "brand:wikidata": "Q625708"}, "geometry": {"type": "Point", "coordinates": [-76.107915, 43.071381]}},
{"type": "Feature", "id": "TtK9SwUnsDGulCo6xIR96NcDyEw=", "properties": {"ref": "Syracuse, NY | Aramark Uniform Services", "@spider": "aramark", "addr:full": "3909 New Court Ave", "addr:city": "Syracuse", "addr:state": "NY", "addr:postcode": "13206", "phone": "800-750-4628", "website": "https://www.aramarkuniform.com/our-locations/aramark-uniform-services-syracuse2?", "brand": "Aramark", "brand:wikidata": "Q625708"}, "geometry": {"type": "Point", "coordinates": [-76.112344, 43.08053]}},
{"type": "Feature", "id": "_v2EVDlICs_4OJP_4QMaJD9wWJo=", "properties": {"ref": "Lubbock, TX | Aramark Uniform Services", "@spider": "aramark", "addr:full": "3508 Magnolia Ave.", "addr:city": "Lubbock", "addr:state": "TX", "addr:postcode": "79404", "phone": "800-750-4628", "website": "https://www.aramarkuniform.com/our-locations/aramark-uniform-services-lubbock?", "brand": "Aramark", "brand:wikidata": "Q625708"}, "geometry": {"type": "Point", "coordinates": [-101.821623, 33.561932]}},
{"type": "Feature", "id": "CN3Pe61XCeVcR50T7uVR0v5BQNk=", "properties": {"ref": "Mankato, MN | Aramark Uniform Services", "@spider": "aramark", "addr:full": "1290 S Victory Dr", "addr:city": "Mankato", "addr:state": "MN", "addr:postcode": "56001", "phone": "800-750-4628", "website": "https://www.aramarkuniform.com/our-locations/aramark-uniform-services-mankato?", "brand": "Aramark", "brand:wikidata": "Q625708"}, "geometry": {"type": "Point", "coordinates": [-93.958685, 44.138797]}},
{"type": "Feature", "id": "dsrwQC7eLyNo1XdiF0AY7OXzL18=", "properties": {"ref": "Topeka, KS | Aramark Uniform Services", "@spider": "aramark", "addr:full": "400 E 1st St", "addr:city": "Topeka", "addr:state": "KS", "addr:postcode": "66607", "phone": "800-750-4628", "website": "https://www.aramarkuniform.com/our-locations/aramark-uniform-services-topeka?", "brand": "Aramark", "brand:wikidata": "Q625708"}, "geometry": {"type": "Point", "coordinates": [-95.665225, 39.057516]}},
{"type": "Feature", "id": "qAtwq9cowKlfTBe7kWVTIbQ2PvQ=", "properties": {"ref": "Watkinsville, GA | Aramark Uniform Services", "@spider": "aramark", "addr:full": "1081 Experiment Station Rd", "addr:city": "Watkinsville", "addr:state": "GA", "addr:postcode": "30677", "phone": "800-750-4628", "website": "https://www.aramarkuniform.com/our-locations/aramark-uniform-services-watkinsville?", "brand": "Aramark", "brand:wikidata": "Q625708"}, "geometry": {"type": "Point", "coordinates": [-83.41349, 33.866311]}},
{"type": "Feature", "id": "ZoATsXwO7tYTIq-sBSw7UOgpnXo=", "properties": {"ref": "Aramark Salem, VA | Aramark Uniform Services", "@spider": "aramark", "addr:full": "855 Cleveland Avenue", "addr:city": "Salem", "addr:state": "VA", "addr:postcode": "24153", "phone": "800-272-6275", "website": "https://www.aramarkuniform.com/our-locations/salem-va-aramark-uniform-services?", "brand": "Aramark", "brand:wikidata": "Q625708"}, "geometry": {"type": "Point", "coordinates": [-80.04570187, 37.30145012]}},
{"type": "Feature", "id": "r_cSkOrz7T0ZE0gltRGyj-X69Vg=", "properties": {"ref": "Burbank, CA | Aramark Uniform Services", "@spider": "aramark", "addr:full": "115 North First Street", "addr:city": "Burbank", "addr:state": "CA", "addr:postcode": "91502", "phone": "818-973-3700", "website": "https://www.aramarkuniform.com/our-locations/burbank-ca-aramark-uniform-services?", "brand": "Aramark", "brand:wikidata": "Q625708"}, "geometry": {"type": "Point", "coordinates": [-118.31132, 34.18009]}},
{"type": "Feature", "id": "XYI9Y0X0w3mX00wzfsXWQz9F9lk=", "properties": {"ref": "Fresno, CA | Aramark Uniform Services", "@spider": "aramark", "addr:full": "1050 W Whitesbridge Ave.", "addr:city": "Fresno", "addr:state": "CA", "addr:postcode": "93706", "phone": "800-750-4628", "website": "https://www.aramarkuniform.com/our-locations/aramark-uniform-services-fresno2?", "brand": "Aramark", "brand:wikidata": "Q625708"}, "geometry": {"type": "Point", "coordinates": [-119.825554, 36.735792]}},
{"type": "Feature", "id": "lr1Sf90eS7VmPXkdAdTScuXAjbo=", "properties": {"ref": "Worcester, MA | Aramark Uniform Services", "@spider": "aramark", "addr:full": "280 Greenwood St", "addr:city": "Worcester", "addr:state": "MA", "addr:postcode": "01607", "phone": "800-750-4628", "website": "https://www.aramarkuniform.com/our-locations/aramark-uniform-services-worcester?", "brand": "Aramark", "brand:wikidata": "Q625708"}, "geometry": {"type": "Point", "coordinates": [-71.796717, 42.218566]}},
{"type": "Feature", "id": "a96YrabRiy2Gb8gwEdV1Sk5dods=", "properties": {"ref": "Minnetonka, MN | Aramark Uniform Services", "@spider": "aramark", "addr:full": "10801 Wayzata Blvd.", "addr:city": "Minnetonka", "addr:state": "MN", "addr:postcode": "55305", "phone": "800-750-4628", "website": "https://www.aramarkuniform.com/our-locations/minnetonka-mn-aramark-uniform-services?", "brand": "Aramark", "brand:wikidata": "Q625708"}, "geometry": {"type": "Point", "coordinates": [-93.41642, 44.97093]}},
{"type": "Feature", "id": "dKknD-CB7FYbZZmLarfvgB0Jgmk=", "properties": {"ref": "Aramark Jacksonville, TN | Aramark Uniform Services", "@spider": "aramark", "addr:full": "79 Conalco Drive", "addr:city": "Jacksonville", "addr:state": "TN", "addr:postcode": "38301", "phone": "800-272-6275", "website": "https://www.aramarkuniform.com/our-locations/aramark-jacksonville-tn-aramark-uniform-services?", "brand": "Aramark", "brand:wikidata": "Q625708"}, "geometry": {"type": "Point", "coordinates": [-88.79553, 35.64562]}},
{"type": "Feature", "id": "h6fjeomvqk8iX74Vtx7KLqCVntM=", "properties": {"ref": "Aramark Pittsburgh | Aramark Uniform Services", "@spider": "aramark", "addr:full": "6640 Frankstown Ave.", "addr:city": "Pittsburgh", "addr:state": "PA", "addr:postcode": "15206", "phone": "800-ARAMARK", "website": "https://www.aramarkuniform.com/our-locations/aramark-pittsburgh-aramark-uniform-services?", "brand": "Aramark", "brand:wikidata": "Q625708"}, "geometry": {"type": "Point", "coordinates": [-79.90945, 40.4589]}},
{"type": "Feature", "id": "Xh_pM3Kt2yw4VPlj1zrl1wMfLlI=", "properties": {"ref": "Portland, OR | Aramark Uniform Services", "@spider": "aramark", "addr:full": "1848 Northwest 23rd Avenue", "addr:city": "Portland", "addr:state": "OR", "addr:postcode": "97210", "phone": "800-ARAMARK", "website": "https://www.aramarkuniform.com/our-locations/portland-or-aramark-uniform-services?", "brand": "Aramark", "brand:wikidata": "Q625708"}, "geometry": {"type": "Point", "coordinates": [-122.69866, 45.53596]}},
{"type": "Feature", "id": "FWf99t-aHOyL2fyW9r80CM63XqM=", "properties": {"ref": "Metropolis, IL | Aramark Uniform Services", "@spider": "aramark", "addr:full": "5317 Industrial Park Dr.", "addr:city": "Metropolis", "addr:state": "IL", "addr:postcode": "62960", "phone": "800-ARAMARK", "website": "https://www.aramarkuniform.com/our-locations/metropolis-il-aramark-uniform-services?", "brand": "Aramark", "brand:wikidata": "Q625708"}, "geometry": {"type": "Point", "coordinates": [-88.68846, 37.17554]}},
{"type": "Feature", "id": "HGPK33vUGo-lQI52gbZbwqjAAok=", "properties": {"ref": "Grand Forks, ND | Aramark Uniform Services", "@spider": "aramark", "addr:full": "5030 Gateway Drive", "addr:city": "Grand Forks", "addr:state": "ND", "addr:postcode": "58203", "phone": "800-ARAMARK", "website": "https://www.aramarkuniform.com/our-locations/grand-forks-nd-aramark-uniform-services?", "brand": "Aramark", "brand:wikidata": "Q625708"}, "geometry": {"type": "Point", "coordinates": [-97.10255, 47.93506]}},
{"type": "Feature", "id": "voSLpqhDTM8jOar45pD3V43XRDU=", "properties": {"ref": "Alexandria, MN | Aramark Uniform Services", "@spider": "aramark", "addr:full": "465 Jackson Park SW", "addr:city": "Alexandria", "addr:state": "MN", "addr:postcode": "56308", "phone": "800-ARAMARK", "website": "https://www.aramarkuniform.com/our-locations/alexandria-mn-aramark-uniform-services?", "brand": "Aramark", "brand:wikidata": "Q625708"}, "geometry": {"type": "Point", "coordinates": [-95.38099, 45.83743]}},
{"type": "Feature", "id": "MLEs57WYsYCVsqIgx0HXxPQbdD4=", "properties": {"ref": "Decatur, IL | Aramark Uniform Services", "@spider": "aramark", "addr:full": "3718 E. Mound Road", "addr:city": "Decatur", "addr:state": "IL", "addr:postcode": "62526", "phone": "800-ARAMARK", "website": "https://www.aramarkuniform.com/our-locations/decatur-il-aramark-uniform-services?", "brand": "Aramark", "brand:wikidata": "Q625708"}, "geometry": {"type": "Point", "coordinates": [-88.90133, 39.89409]}},
{"type": "Feature", "id": "wd_FUdk2_RlwoRE-kcB9ovvFZw0=", "properties": {"ref": "Aberdeen, SD | Aramark Uniform Services", "@spider": "aramark", "addr:full": "403 County Road 19", "addr:city": "Aberdeen", "addr:state": "SD", "addr:postcode": "57401", "phone": "800-ARAMARK", "website": "https://www.aramarkuniform.com/our-locations/aberdeen-sd-aramark-uniform-services?", "brand": "Aramark", "brand:wikidata": "Q625708"}, "geometry": {"type": "Point", "coordinates": [-98.47558, 45.44565]}},
{"type": "Feature", "id": "qH7A8Ux8hFfvkLgqfob8F5fkli0=", "properties": {"ref": "Baxter, MN | Aramark Uniform Services", "@spider": "aramark", "addr:full": "15812 Inglewood Drive North", "addr:city": "Baxter", "addr:state": "MN", "addr:postcode": "56425", "phone": "800-ARAMARK", "website": "https://www.aramarkuniform.com/our-locations/baxter-mn-aramark-uniform-services?", "brand": "Aramark", "brand:wikidata": "Q625708"}, "geometry": {"type": "Point", "coordinates": [-94.26465, 46.3823]}},
{"type": "Feature", "id": "FKdb6YuJ8gRUGDBMQITz1mM9-D4=", "properties": {"ref": "Minot, ND | Aramark Uniform Services", "@spider": "aramark", "addr:full": "1720 Valley St.", "addr:city": "Minot", "addr:state": "ND", "addr:postcode": "58701", "phone": "800-ARAMARK", "website": "https://www.aramarkuniform.com/our-locations/minot-nd-aramark-uniform-services?", "brand": "Aramark", "brand:wikidata": "Q625708"}, "geometry": {"type": "Point", "coordinates": [-101.27099, 48.22649]}},
{"type": "Feature", "id": "fRz0kf01gL2bQ-M8PRhlzZMMd74=", "properties": {"ref": "Rochester, MN | Aramark Uniform Services", "@spider": "aramark", "addr:full": "3120 Prow Lane NW", "addr:city": "Rochester", "addr:state": "MN", "addr:postcode": "55901", "phone": "800-ARAMARK", "website": "https://www.aramarkuniform.com/our-locations/rochester-mn-aramark-uniform-services?", "brand": "Aramark", "brand:wikidata": "Q625708"}, "geometry": {"type": "Point", "coordinates": [-92.51966, 44.05708]}},
{"type": "Feature", "id": "UXNY1miQDG2CvOS6neJadbgalGI=", "properties": {"ref": "San Bernardino, CA | Aramark Uniform Services", "@spider": "aramark", "addr:full": "960 Oak Street", "addr:city": "San Bernardino", "addr:state": "CA", "addr:postcode": "92410", "phone": "800-ARAMARK", "website": "https://www.aramarkuniform.com/our-locations/san-bernardino-ca-aramark-uniform-services?", "brand": "Aramark", "brand:wikidata": "Q625708"}, "geometry": {"type": "Point", "coordinates": [-117.30415, 34.09551]}},
{"type": "Feature", "id": "ZFvugtwXOF_uM2dbBmNQkWrXcvs=", "properties": {"ref": "Paso Robles, CA | Aramark Uniform Services", "@spider": "aramark", "addr:full": "3502 Dry Creek Road", "addr:city": "Paso Robles", "addr:state": "CA", "addr:postcode": "93446", "phone": "800-ARAMARK", "website": "https://www.aramarkuniform.com/our-locations/paso-robles-ca-aramark-uniform-services?", "brand": "Aramark", "brand:wikidata": "Q625708"}, "geometry": {"type": "Point", "coordinates": [-120.63157, 35.66227]}},
{"type": "Feature", "id": "P5dgyMiiiSbjxZaQQW6-lOEldOg=", "properties": {"ref": "Pacomia, CA | Aramark Uniform Services", "@spider": "aramark", "addr:full": "10029 Bradley Ave.", "addr:city": "Pacomia", "addr:state": "CA", "addr:postcode": "91331", "phone": "800-ARAMARK", "website": "https://www.aramarkuniform.com/our-locations/pacomia-ca-aramark-uniform-services?", "brand": "Aramark", "brand:wikidata": "Q625708"}, "geometry": {"type": "Point", "coordinates": [-118.40135, 34.25378]}},
{"type": "Feature", "id": "Glrp2Dy0M8G4Lm-RqpyZotSTuZw=", "properties": {"ref": "Merced, CA | Aramark Uniform Services", "@spider": "aramark", "addr:full": "145 Hawk Drive", "addr:city": "Merced", "addr:state": "CA", "addr:postcode": "95340", "phone": "800-ARAMARK", "website": "https://www.aramarkuniform.com/our-locations/merced-ca-aramark-uniform-services?", "brand": "Aramark", "brand:wikidata": "Q625708"}, "geometry": {"type": "Point", "coordinates": [-120.519, 37.28495]}},
{"type": "Feature", "id": "7BeArNdPiM25Lj7pyAwQzPr0lDI=", "properties": {"ref": "Sioux Falls, SD | Aramark Uniform Services", "@spider": "aramark", "addr:full": "540 East Amidon St.", "addr:city": "Sioux Falls", "addr:state": "SD", "addr:postcode": "57104", "phone": "(605) 215 5676", "website": "https://www.aramarkuniform.com/our-locations/sioux-falls-sd-aramark-uniform-services?", "brand": "Aramark", "brand:wikidata": "Q625708"}, "geometry": {"type": "Point", "coordinates": [-96.72016, 43.57705]}}]}