{"type":"FeatureCollection","features":[{"type": "Feature", "id": "6QXH2L688NDUVZLn4WycNoqOUcg=", "properties": {"ref": "arngz", "@spider": "arnold_clark", "addr:street_address": "Meltham Lane,", "addr:city": "Chesterfield", "addr:postcode": "S41 7LG", "name": "Chesterfield Motorstore", "phone": "+44-1246-956450", "website": "https://www.arnoldclark.com/find-a-dealer/chesterfield-motorstore/ref/arngz", "opening_hours": "Mo-Fr 09:00-19:00; Sa 09:00-18:00; Su 11:00-17:00", "image": "https://ac-branches.s3.amazonaws.com/branches/chesterfield-motorstore_496bd7424235843721cb4afee31d769dc4685f69.jpg", "brand": "Arnold Clark", "brand:wikidata": "Q29344371"}, "geometry": {"type": "Point", "coordinates": [-1.421894, 53.248339]}},
{"type": "Feature", "id": "xHVN4HYjhPbWmyPnQu7C0eVXdl8=", "properties": {"ref": "arndg", "@spider": "arnold_clark", "addr:street_address": "Wakefield Road, Kingstown Industrial Estate", "addr:city": "Carlisle", "addr:postcode": "CA3 0HE", "name": "Carlisle Motorstore", "phone": "+44-1228-279130", "website": "https://www.arnoldclark.com/find-a-dealer/carlisle-motorstore/ref/arndg", "opening_hours": "Mo-Fr 09:00-19:00; Sa 09:00-18:00; Su 11:00-18:00", "image": "https://ac-branches.s3.amazonaws.com/branches/carlisle-motorstore_1ef2c8915e198a6c89aaeb09e1b577fef84178dc.jpg", "brand": "Arnold Clark", "brand:wikidata": "Q29344371"}, "geometry": {"type": "Point", "coordinates": [-2.9467391967773438, 54.922110927763796]}},
{"type": "Feature", "id": "vIA_hOMBWMXu90jalhStYkElKtw=", "properties": {"ref": "arngx", "@spider": "arnold_clark", "addr:street_address": "James Brindley Way, (off Derby Road)", "addr:city": "Burton upon Trent", "addr:postcode": "DE13 0LB", "name": "Burton upon Trent Motorstore", "phone": "+44-1283-387740", "website": "https://www.arnoldclark.com/find-a-dealer/burton-upon-trent-motorstore/ref/arngx", "opening_hours": "Mo-Fr 09:00-19:00; Sa 09:00-18:00; Su 11:00-17:00", "image": "https://ac-branches.s3.amazonaws.com/branches/burton-upon-trent-motorstore_b3b39e0082e1eed80be20a503865d7f7586f99b5.jpg", "brand": "Arnold Clark", "brand:wikidata": "Q29344371"}, "geometry": {"type": "Point", "coordinates": [-1.61784, 52.827453]}},
{"type": "Feature", "id": "QzHtAnNqOw-cvp0jvPaR2ffmn0I=", "properties": {"ref": "arneq", "@spider": "arnold_clark", "addr:street_address": "70 West Main Street, Uphall", "addr:city": "Edinburgh", "addr:state": "Central", "addr:postcode": "EH52 5DW", "name": "Broxburn SEAT / Fiat / Abarth", "phone": "+44-1506-379140", "website": "https://www.arnoldclark.com/find-a-dealer/broxburn-seat-fiat-abarth/ref/arneq", "opening_hours": "Mo-Fr 09:00-19:00; Sa 09:00-18:00; Su 11:00-17:00", "image": "https://ac-branches.s3.amazonaws.com/branches/broxburn-seat-fiat-abarth_be43653d6bcf899b9c1927771bdb4e0c2893af55.jpg", "brand": "Arnold Clark", "brand:wikidata": "Q29344371"}, "geometry": {"type": "Point", "coordinates": [-3.507624, 55.929631]}},
{"type": "Feature", "id": "gGj0TZlVQ_UwTELZcYHjNuEt2bk=", "properties": {"ref": "arnhn", "@spider": "arnold_clark", "addr:street_address": "Trinity Retail Park, Bradford St", "addr:city": "Bolton", "addr:postcode": "BL2 1HY", "name": "Bolton Motorstore", "phone": "+44-1204-323947", "website": "https://www.arnoldclark.com/find-a-dealer/bolton-motorstore/ref/arnhn", "opening_hours": "Mo-Fr 09:00-19:00; Sa 09:00-18:00; Su 11:00-17:00", "image": "https://ac-branches.s3.amazonaws.com/branches/bolton-motorstore_986c0a6ad5494346d67955a0aa21f056e18de29f.jpg", "brand": "Arnold Clark", "brand:wikidata": "Q29344371"}, "geometry": {"type": "Point", "coordinates": [-2.419149, 53.5745002]}},
{"type": "Feature", "id": "xpUp0p5_sjyDi6tBtPjhso6m7gk=", "properties": {"ref": "arngd", "@spider": "arnold_clark", "addr:street_address": "Whitehills Business Park, Lytham St Annes Way", "addr:city": "Blackpool", "addr:postcode": "FY4 5PQ", "name": "Blackpool Vauxhall", "phone": "+44-1253-608300", "website": "https://www.arnoldclark.com/find-a-dealer/blackpool-vauxhall/ref/arngd", "opening_hours": "Mo-Fr 09:00-19:00; Sa 09:00-18:00; Su 11:00-18:00", "image": "https://ac-branches.s3.amazonaws.com/branches/blackpool-vauxhall_5c86ce88f6bdbb2129ceeaee4536f6556f625642.jpg", "brand": "Arnold Clark", "brand:wikidata": "Q29344371"}, "geometry": {"type": "Point", "coordinates": [-2.9830455780029297, 53.788407089302744]}},
{"type": "Feature", "id": "zfCHC39gkWWmzrBqoX8pzQV3iBg=", "properties": {"ref": "arnfv", "@spider": "arnold_clark", "addr:street_address": "Amy Johnson Way, Squires Gate Lane", "addr:city": "Blackpool", "addr:postcode": "FY4 2RP", "name": "Blackpool Renault / Dacia", "phone": "+44-1253-376904", "website": "https://www.arnoldclark.com/find-a-dealer/blackpool-renault-dacia/ref/arnfv", "opening_hours": "Mo-Fr 09:00-19:00; Sa 09:00-18:00; Su 11:00-17:00", "image": "https://ac-branches.s3.amazonaws.com/branches/blackpool-renault-dacia_6dd82b42e6f5c1852d7902d11220f882521960c2.jpg", "brand": "Arnold Clark", "brand:wikidata": "Q29344371"}, "geometry": {"type": "Point", "coordinates": [-3.032506, 53.777694]}},
{"type": "Feature", "id": "5Ph643qq0QxoSwk7RLZT1hunqpk=", "properties": {"ref": "arncz", "@spider": "arnold_clark", "addr:street_address": "64 Kirkintilloch Rd,", "addr:city": "Bishopbriggs", "addr:state": "Glasgow", "addr:postcode": "G64 2AH", "name": "Bishopbriggs Renault / Dacia", "phone": "+44-141-761-4504", "website": "https://www.arnoldclark.com/find-a-dealer/bishopbriggs-renault-dacia/ref/arncz", "opening_hours": "Mo-Fr 08:30-19:00; Sa 08:30-18:00; Su 11:00-18:00", "image": "https://ac-branches.s3.amazonaws.com/branches/bishopbriggs-renault-dacia_3dda863bcd1dce88c7ed3eddda5f80e392293c8c.jpg", "brand": "Arnold Clark", "brand:wikidata": "Q29344371"}, "geometry": {"type": "Point", "coordinates": [-4.230719, 55.900699]}},
{"type": "Feature", "id": "Vcl-fooVl-UurJrLS6m00s1bmGk=", "properties": {"ref": "arnfxc", "@spider": "arnold_clark", "addr:street_address": "Portobello Way, Chester le Street", "addr:city": "Birtley", "addr:postcode": "DH3 2SN", "name": "Birtley Vanstore", "phone": "+44-191-823-7810", "website": "https://www.arnoldclark.com/find-a-dealer/birtley-vanstore/ref/arnfxc", "opening_hours": "Mo-Th 09:00-19:00; Fr 09:00-19:30; Sa 09:00-18:30; Su 11:00-18:00", "image": "https://ac-branches.s3.amazonaws.com/branches/birtley-vanstore_fb156de108e995c66e518aa147a8eb78d83db2fd.jpg", "brand": "Arnold Clark", "brand:wikidata": "Q29344371"}, "geometry": {"type": "Point", "coordinates": [-1.562308, 54.901407]}},
{"type": "Feature", "id": "vK4mvVxgEJsfPCooyE2rVNt23Ok=", "properties": {"ref": "arnfx", "@spider": "arnold_clark", "addr:street_address": "Portobello Road, Chester le Street", "addr:city": "Birtley", "addr:postcode": "DH3 2SN", "name": "Birtley Motorstore", "phone": "+44-191-823-7810", "website": "https://www.arnoldclark.com/find-a-dealer/birtley-motorstore/ref/arnfx", "opening_hours": "Mo-Fr 09:00-19:00; Sa 09:00-18:00; Su 11:00-18:00", "image": "https://ac-branches.s3.amazonaws.com/branches/birtley-motorstore_4b555fd544c08fc6141e12dba729d2f951f70a9c.jpg", "brand": "Arnold Clark", "brand:wikidata": "Q29344371"}, "geometry": {"type": "Point", "coordinates": [-1.562001, 54.901142]}},
{"type": "Feature", "id": "ieYAB730gbEGj6AQ9F_p9AmG_d4=", "properties": {"ref": "arngv", "@spider": "arnold_clark", "addr:street_address": "Bellway Industrial Estate, Whitley Road", "addr:city": "Newcastle", "addr:postcode": "NE12 9SW", "name": "Benton Newcastle SEAT", "phone": "+44-191-253-6099", "website": "https://www.arnoldclark.com/find-a-dealer/benton-newcastle-seat/ref/arngv", "opening_hours": "Mo-Th 09:00-19:00; Fr 09:00-18:00; Sa 09:00-17:00; Su 11:00-17:00", "image": "https://ac-branches.s3.amazonaws.com/branches/benton-newcastle-seat_4ec0325648d465edcf01580079692cad126774e6.jpg", "brand": "Arnold Clark", "brand:wikidata": "Q29344371"}, "geometry": {"type": "Point", "coordinates": [-1.551289, 55.01474]}},
{"type": "Feature", "id": "y27-LtlbTmh8yxnID6C99OO4B4Q=", "properties": {"ref": "arnfd", "@spider": "arnold_clark", "addr:street_address": "Rannoch Drive,", "addr:city": "Bearsden", "addr:state": "Glasgow", "addr:postcode": "G61 2JP", "name": "Bearsden Renault / Dacia", "phone": "+44-141-648-7384", "website": "https://www.arnoldclark.com/find-a-dealer/bearsden-renault-dacia/ref/arnfd", "opening_hours": "Mo-Fr 08:30-19:00; Sa 09:00-18:00; Su 11:00-18:00", "image": "https://ac-branches.s3.amazonaws.com/branches/bearsden-renault-dacia_afa19fc60114bf5df1459c9001669746ec1b8b17.jpg", "brand": "Arnold Clark", "brand:wikidata": "Q29344371"}, "geometry": {"type": "Point", "coordinates": [-4.314081, 55.907402]}},
{"type": "Feature", "id": "99dCFtMpyc3McGfQ7TKUSVaOtKY=", "properties": {"ref": "arndr", "@spider": "arnold_clark", "addr:street_address": "196 Prestwick Rd,", "addr:city": "Ayr", "addr:state": "South", "addr:postcode": "KA8 8NP", "name": "Ayr Vauxhall", "phone": "+44-1292-272507", "website": "https://www.arnoldclark.com/find-a-dealer/ayr-vauxhall/ref/arndr", "opening_hours": "Mo-Fr 09:00-19:00; Sa 08:30-18:00; Su 11:00-18:00", "image": "https://ac-branches.s3.amazonaws.com/branches/ayr-vauxhall_2a38c0245c559e52fa798f7b43f70a30e83430a9.jpg", "brand": "Arnold Clark", "brand:wikidata": "Q29344371"}, "geometry": {"type": "Point", "coordinates": [-4.61964, 55.480767]}},
{"type": "Feature", "id": "EyKPjtP4OIIZnu1bvFoRCMhp80g=", "properties": {"ref": "arned", "@spider": "arnold_clark", "addr:street_address": "6 Wheatpark Place, Heathfield Rd", "addr:city": "Ayr", "addr:state": "South", "addr:postcode": "KA8 9RT", "name": "Ayr Used Car Centre", "phone": "+44-1292-436044", "website": "https://www.arnoldclark.com/find-a-dealer/ayr-used-car-centre/ref/arned", "opening_hours": "Mo-Fr 09:00-19:00; Sa 09:00-18:00; Su 11:00-18:00", "image": "https://ac-branches.s3.amazonaws.com/branches/ayr-used-car-centre_677a469911534c031c889c9f0aa95a6124ae1c79.jpg", "brand": "Arnold Clark", "brand:wikidata": "Q29344371"}, "geometry": {"type": "Point", "coordinates": [-4.58765, 55.47675]}},
{"type": "Feature", "id": "cgI7Isi6OqjYJH9eTfF46KDR1_0=", "properties": {"ref": "arnee", "@spider": "arnold_clark", "addr:street_address": "4 Wheatpark Place, Heathfield Rd", "addr:city": "Ayr", "addr:state": "South", "addr:postcode": "KA8 9RT", "name": "Ayr Peugeot", "phone": "+44-1292-436084", "website": "https://www.arnoldclark.com/find-a-dealer/ayr-peugeot/ref/arnee", "opening_hours": "Mo-Fr 09:00-19:00; Sa 09:00-18:00; Su 11:00-18:00", "image": "https://ac-branches.s3.amazonaws.com/branches/ayr-peugeot_a4bc95cf594b2502e0de8dba220ef29fd1425a39.jpg", "brand": "Arnold Clark", "brand:wikidata": "Q29344371"}, "geometry": {"type": "Point", "coordinates": [-4.589153, 55.477353]}},
{"type": "Feature", "id": "NCvvBizCFBMsL519NC96CY4fUb0=", "properties": {"ref": "abycthu", "@spider": "arnold_clark", "addr:street_address": "Within MOTO Services, M25 between Junction 30 and 31", "addr:city": "Grays", "addr:postcode": "RM16 3BG", "name": "Arnold Clark Thurrock Click &amp; Collect", "phone": "+44-137-580-9740", "website": "https://www.arnoldclark.com/find-a-dealer/arnold-clark-thurrock-click-collect/ref/abycthu", "opening_hours": "Mo-Fr 09:00-19:00; Sa 09:00-17:00; Su 11:00-17:00", "image": "https://ac-branches.s3.amazonaws.com/branches/arnold-clark-thurrock-click-collect_159226737156d59fd7b4ff6e6ca0ef0d3c07bdc6.jpg", "brand": "Arnold Clark", "brand:wikidata": "Q29344371"}, "geometry": {"type": "Point", "coordinates": [0.27225, 51.49228]}},
{"type": "Feature", "id": "iwor9pXPS3KZ24FWpef-QcN-jYc=", "properties": {"ref": "arnhec", "@spider": "arnold_clark", "addr:street_address": "Great North Way, York Business Park, Nether Poppleton", "addr:city": "York", "addr:postcode": "YO26 6RB", "name": "York Vanstore", "phone": "+44-1904-943000", "website": "https://www.arnoldclark.com/find-a-dealer/york-vanstore/ref/arnhec", "opening_hours": "Mo-Fr 09:00-19:00; Sa 09:00-17:00; Su 11:00-17:00", "image": "https://ac-branches.s3.amazonaws.com/branches/york-vanstore_b48fd482d596a3f103a1762970f06e53486b357a.jpg", "brand": "Arnold Clark", "brand:wikidata": "Q29344371"}, "geometry": {"type": "Point", "coordinates": [-1.1297405000000253, 53.9777565]}},
{"type": "Feature", "id": "IHSlR_CE98aoMeD4cplY3uRiefI=", "properties": {"ref": "arnhe", "@spider": "arnold_clark", "addr:street_address": "Great North Way, York Business Park, Nether Poppleton", "addr:city": "York", "addr:postcode": "YO26 6RB", "name": "York Motorstore", "phone": "+44-1904-943000", "website": "https://www.arnoldclark.com/find-a-dealer/york-motorstore/ref/arnhe", "opening_hours": "Mo-Fr 09:00-19:00; Sa 09:00-18:00; Su 11:00-17:00", "image": "https://ac-branches.s3.amazonaws.com/branches/york-motorstore_56758ab5933784ded18f38f0ad16fbc76f5a448b.jpg", "brand": "Arnold Clark", "brand:wikidata": "Q29344371"}, "geometry": {"type": "Point", "coordinates": [-1.133841, 53.97808]}},
{"type": "Feature", "id": "0CRyysElpgY2QVQmhuvXJXa-Zhs=", "properties": {"ref": "arndi", "@spider": "arnold_clark", "addr:street_address": "Blackwood Road, Lillyhall Industrial Estate", "addr:city": "Workington", "addr:postcode": "CA14 4JW", "name": "Workington Motorstore", "phone": "+44-1900-512260", "website": "https://www.arnoldclark.com/find-a-dealer/workington-motorstore/ref/arndi", "opening_hours": "Mo-Fr 09:00-19:00; Sa 09:00-18:00; Su 11:00-18:00", "image": "https://ac-branches.s3.amazonaws.com/branches/workington-motorstore_50f5c8ca25f28e1921d3bc3aeb67f42005aa79f7.jpg", "brand": "Arnold Clark", "brand:wikidata": "Q29344371"}, "geometry": {"type": "Point", "coordinates": [-3.5203027725219727, 54.61259117073719]}},
{"type": "Feature", "id": "BJj58PyJ3R85_DDjrQHBeK6-AmY=", "properties": {"ref": "arnhps", "@spider": "arnold_clark", "addr:street_address": "Bearing Drive, Willenhall", "addr:city": "Wolverhampton", "addr:state": "West Midlands", "addr:postcode": "WV11 3SZ", "name": "Wolverhampton Service Centre", "phone": "+44-1902-308088", "website": "https://www.arnoldclark.com/find-a-dealer/wolverhampton-service-centre/ref/arnhps", "image": "https://ac-branches.s3.amazonaws.com/branches/wolverhampton-service-centre_748faba71572167c4529da540c5110e6d2ab8238.jpg", "brand": "Arnold Clark", "brand:wikidata": "Q29344371"}, "geometry": {"type": "Point", "coordinates": [-2.072848199999953, 52.5931718]}},
{"type": "Feature", "id": "nHY-7QQe3HT59hJBK37Dqc5cEN4=", "properties": {"ref": "arnhp", "@spider": "arnold_clark", "addr:street_address": "Unit 6 Pantheon Park, Wednesfield Way", "addr:city": "Wolverhampton", "addr:postcode": "WV11 3DS", "name": "Wolverhampton Motorstore", "phone": "+44-1902-937977", "website": "https://www.arnoldclark.com/find-a-dealer/wolverhampton-motorstore/ref/arnhp", "opening_hours": "Mo-Fr 09:00-19:00; Sa 09:00-18:00; Su 11:00-17:00", "image": "https://ac-branches.s3.amazonaws.com/branches/wolverhampton-motorstore_205135552e98b939d224c1e4bec2e76e5eaf78bf.jpg", "brand": "Arnold Clark", "brand:wikidata": "Q29344371"}, "geometry": {"type": "Point", "coordinates": [-2.083885, 52.595254]}},
{"type": "Feature", "id": "-4EgLHYRgXUXWiGVWJMJ3acAKxA=", "properties": {"ref": "arnga", "@spider": "arnold_clark", "addr:street_address": "Bogside, Newmains", "addr:city": "Wishaw", "addr:postcode": "ML2 9PS", "name": "Wishaw Volkswagen", "phone": "+44-1698-758824", "website": "https://www.arnoldclark.com/find-a-dealer/wishaw-volkswagen/ref/arnga", "opening_hours": "Mo-Fr 09:00-19:00; Sa 09:00-18:00; Su 11:00-18:00", "image": "https://ac-branches.s3.amazonaws.com/branches/wishaw-volkswagen_1b67cf30af4d6fc045092eed62ec72cac98a7dbe.jpg", "brand": "Arnold Clark", "brand:wikidata": "Q29344371"}, "geometry": {"type": "Point", "coordinates": [-3.8640975952148438, 55.763971722423065]}},
{"type": "Feature", "id": "VwxC1qXUX4N-xbNUKZ1akUnH8Lg=", "properties": {"ref": "audi01", "@spider": "arnold_clark", "addr:street_address": "Bogside, Newmains", "addr:city": "Wishaw", "addr:postcode": "ML2 9PS", "name": "Wishaw Audi Service Centre", "phone": "+44-1698-358221", "website": "https://www.arnoldclark.com/find-a-dealer/wishaw-audi-service-centre/ref/audi01", "image": "https://ac-branches.s3.amazonaws.com/branches/wishaw-audi-service-centre_b74ee776919b8365823cb4af23c0e555968ffb66.jpg", "brand": "Arnold Clark", "brand:wikidata": "Q29344371"}, "geometry": {"type": "Point", "coordinates": [-3.864912986755371, 55.7642131648377]}},
{"type": "Feature", "id": "e0C9GSCmD04jv94LeAaNzsCwDpw=", "properties": {"ref": "arnaj", "@spider": "arnold_clark", "addr:street_address": "Weaver Valley Rd, Wharton Retail Park", "addr:city": "Winsford", "addr:postcode": "CW7 3DB", "name": "Winsford Vauxhall", "phone": "+44-1606-663710", "website": "https://www.arnoldclark.com/find-a-dealer/winsford-vauxhall/ref/arnaj", "opening_hours": "Mo-Fr 08:00-19:00; Sa 09:00-18:00; Su 10:00-18:00", "image": "https://ac-branches.s3.amazonaws.com/branches/winsford-vauxhall_c15cb3117edab6a1b1b8e90745f654d634aa256e.jpg", "brand": "Arnold Clark", "brand:wikidata": "Q29344371"}, "geometry": {"type": "Point", "coordinates": [-2.514227, 53.199645]}},
{"type": "Feature", "id": "7SuyTm6Pz27r_RNoyMV-IkQb24c=", "properties": {"ref": "arnca", "@spider": "arnold_clark", "addr:street_address": "Scot Lane, Beech Hill", "addr:city": "Wigan", "addr:state": "England", "addr:postcode": "WN5 0PS", "name": "Wigan Renault / Dacia", "phone": "+44-1942-559020", "website": "https://www.arnoldclark.com/find-a-dealer/wigan-renault-dacia/ref/arnca", "opening_hours": "Mo-Fr 09:00-19:00; Sa 09:00-18:00; Su 11:00-18:00", "image": "https://ac-branches.s3.amazonaws.com/branches/wigan-renault-dacia_abd698d4ccca7be3ebce2813a6d47eee972767c1.jpg", "brand": "Arnold Clark", "brand:wikidata": "Q29344371"}, "geometry": {"type": "Point", "coordinates": [-2.664505, 53.551673]}},
{"type": "Feature", "id": "eNI9xEz1lCieaO6S5fjNEXv2RhI=", "properties": {"ref": "arngy", "@spider": "arnold_clark", "addr:street_address": "Wigan Wallgate,", "addr:city": "Wigan", "addr:postcode": "WN3 4AL", "name": "Wigan Motorstore", "phone": "+44-1942-949010", "website": "https://www.arnoldclark.com/find-a-dealer/wigan-motorstore/ref/arngy", "opening_hours": "Mo-Fr 09:00-19:00; Sa 09:00-18:00; Su 11:00-17:00", "image": "https://ac-branches.s3.amazonaws.com/branches/wigan-motorstore_5b34ae7088986716faa5487ffac62fb777a0a732.jpg", "brand": "Arnold Clark", "brand:wikidata": "Q29344371"}, "geometry": {"type": "Point", "coordinates": [-2.640084, 53.542733]}},
{"type": "Feature", "id": "RposyhsOew0arJBIWWoaa3Md4OE=", "properties": {"ref": "arngo", "@spider": "arnold_clark", "addr:street_address": "Main Street, West Calder", "addr:city": "West Lothian", "addr:postcode": "EH55 8AD", "name": "West Calder Vauxhall", "phone": "+44-1506-379000", "website": "https://www.arnoldclark.com/find-a-dealer/west-calder-vauxhall/ref/arngo", "opening_hours": "Mo-Th 09:00-19:00; Fr 09:00-18:00; Sa 09:00-17:00; Su 12:00-17:00", "image": "https://ac-branches.s3.amazonaws.com/branches/west-calder-vauxhall_ceb632a92084fcbea2c6f21a88c8479c7b059d0d.jpg", "brand": "Arnold Clark", "brand:wikidata": "Q29344371"}, "geometry": {"type": "Point", "coordinates": [-3.569373, 55.851589]}},
{"type": "Feature", "id": "lVZXog1wbXTPfN5j6EGQ1oVTjwE=", "properties": {"ref": "arnat", "@spider": "arnold_clark", "addr:street_address": "Motor Village, Millenium Park", "addr:city": "West Bromwich", "addr:state": "England", "addr:postcode": "B70 0NR", "name": "West Bromwich Motorstore", "phone": "+44-121-817-3570", "website": "https://www.arnoldclark.com/find-a-dealer/west-bromwich-motorstore/ref/arnat", "opening_hours": "Mo-Fr 09:00-19:00; Sa 09:00-18:00; Su 11:00-17:00", "image": "https://ac-branches.s3.amazonaws.com/branches/west-bromwich-motorstore_3c3bc7a9b87a4e1510ddf50dc820b899c744007b.jpg", "brand": "Arnold Clark", "brand:wikidata": "Q29344371"}, "geometry": {"type": "Point", "coordinates": [-2.012895, 52.529171]}},
{"type": "Feature", "id": "6ixQNHJU-WjcjuMzMntLpApnO5I=", "properties": {"ref": "arnci", "@spider": "arnold_clark", "addr:street_address": "Europa Boulevard, Gemini Retail Park", "addr:city": "Warrington", "addr:state": "England", "addr:postcode": "WA5 7TY", "name": "Warrington Motorstore / Renault / Dacia (Westbrook)", "phone": "+44-1925-980405", "website": "https://www.arnoldclark.com/find-a-dealer/warrington-motorstore-renault-dacia-westbrook/ref/arnci", "opening_hours": "Mo-Fr 09:00-19:00; Sa 09:00-18:00; Su 11:00-18:00", "image": "https://ac-branches.s3.amazonaws.com/branches/warrington-motorstore-renault-dacia-westbrook_a341d83223f2ceea468df903bc9584ae43aee3b6.jpg", "brand": "Arnold Clark", "brand:wikidata": "Q29344371"}, "geometry": {"type": "Point", "coordinates": [-2.628307342529297, 53.41669405985895]}},
{"type": "Feature", "id": "EM9J9nZbHqKDUlQVECYnD4fpuR0=", "properties": {"ref": "arnhhc", "@spider": "arnold_clark", "addr:street_address": "Calder Park Services,", "addr:city": "Wakefield", "addr:postcode": "WF2 7BL", "name": "Wakefield Vanstore", "phone": "+44-1924-975790", "website": "https://www.arnoldclark.com/find-a-dealer/wakefield-vanstore/ref/arnhhc", "opening_hours": "Mo-Fr 09:00-19:00; Sa 09:00-18:00; Su 11:00-17:00", "image": "https://ac-branches.s3.amazonaws.com/branches/wakefield-vanstore_3306925b3461310ee6d46cda647e8b5da931ed7d.jpg", "brand": "Arnold Clark", "brand:wikidata": "Q29344371"}, "geometry": {"type": "Point", "coordinates": [-1.523448, 53.65321]}},
{"type": "Feature", "id": "SzIuoZqOjwEBGlDekA6Bur55EBk=", "properties": {"ref": "arnhh", "@spider": "arnold_clark", "addr:street_address": "Calder Park Services,", "addr:city": "Wakefield", "addr:postcode": "WF2 7BL", "name": "Wakefield Motorstore", "phone": "+44-1924-975790", "website": "https://www.arnoldclark.com/find-a-dealer/wakefield-motorstore/ref/arnhh", "opening_hours": "Mo-Fr 09:00-19:00; Sa 09:00-18:00; Su 11:00-17:00", "image": "https://ac-branches.s3.amazonaws.com/branches/wakefield-motorstore_1f159f972fd2ee80eb66eded10cbd054dd37995b.jpg", "brand": "Arnold Clark", "brand:wikidata": "Q29344371"}, "geometry": {"type": "Point", "coordinates": [-1.523513, 53.653197]}},
{"type": "Feature", "id": "AOXv3dWs4SdQDChiPb_zhWSvIXI=", "properties": {"ref": "arnft", "@spider": "arnold_clark", "addr:street_address": "Unit 1 Hamilton Road Industrial Estate,", "addr:city": "Strathaven", "addr:postcode": "ML10 6UB", "name": "Strathaven Used Car Centre", "phone": "+44-1357-510694", "website": "https://www.arnoldclark.com/find-a-dealer/strathaven-used-car-centre/ref/arnft", "opening_hours": "Mo-Th 09:00-19:00; Fr 09:00-18:00; Sa 09:00-17:00; Su 12:00-17:00", "image": "https://ac-branches.s3.amazonaws.com/branches/strathaven-ford_060fec65eddfacc5972ecca7f36fb291cf21601f.jpg", "brand": "Arnold Clark", "brand:wikidata": "Q29344371"}, "geometry": {"type": "Point", "coordinates": [-4.058482646942139, 55.6863914122751]}},
{"type": "Feature", "id": "ec7sx4qKscCn7hSzp61TDNkUkM0=", "properties": {"ref": "arnbv", "@spider": "arnold_clark", "addr:street_address": "Brettell Lane, Amblecote", "addr:city": "Stourbridge", "addr:state": "England", "addr:postcode": "DY8 4BP", "name": "Stourbridge Fiat / Motorstore / Abarth", "phone": "+44-1384-987054", "website": "https://www.arnoldclark.com/find-a-dealer/stourbridge-fiat-motorstore-abarth/ref/arnbv", "opening_hours": "Mo-Fr 09:00-19:00; Sa 09:00-18:00; Su 11:00-17:00", "image": "https://ac-branches.s3.amazonaws.com/branches/stourbridge-fiat-motorstore-abarth_f9ae271ad3a87112627217568d09c015e0c9bda8.jpg", "brand": "Arnold Clark", "brand:wikidata": "Q29344371"}, "geometry": {"type": "Point", "coordinates": [-2.149906, 52.471513]}},
{"type": "Feature", "id": "1UhpalqA1C5kL6wcS_bYQUaH4GE=", "properties": {"ref": "arnaf", "@spider": "arnold_clark", "addr:street_address": "Brymbo Rd, Lymedale Park", "addr:city": "Stoke-on-Trent", "addr:state": "England", "addr:postcode": "ST5 9HX", "name": "Stoke-on-Trent Motorstore", "phone": "+44-1782-476140", "website": "https://www.arnoldclark.com/find-a-dealer/stoke-on-trent-motorstore/ref/arnaf", "opening_hours": "Mo-Fr 09:00-19:00; Sa 09:00-18:00; Su 11:00-17:00", "image": "https://ac-branches.s3.amazonaws.com/branches/stoke-on-trent-motorstore_b5974ea8b169ca8ae546043c30a4c1441fa3bfce.jpg", "brand": "Arnold Clark", "brand:wikidata": "Q29344371"}, "geometry": {"type": "Point", "coordinates": [-2.241102, 53.028933]}},
{"type": "Feature", "id": "Hlo696HsFbS5uQ4f8CVvUwXXVKk=", "properties": {"ref": "arnfb", "@spider": "arnold_clark", "addr:street_address": "Clough Street,", "addr:city": "Stoke on Trent", "addr:postcode": "ST1 4AS", "name": "Stoke Vauxhall", "phone": "+44-1782-651040", "website": "https://www.arnoldclark.com/find-a-dealer/stoke-vauxhall/ref/arnfb", "opening_hours": "Mo-Th 08:00-19:00; Fr 08:00-20:00; Sa 09:00-18:00; Su 10:00-18:00", "image": "https://ac-branches.s3.amazonaws.com/branches/stoke-vauxhall_92be073f4fe6e55dbe6afdec02f9ed9f7313cd56.jpg", "brand": "Arnold Clark", "brand:wikidata": "Q29344371"}, "geometry": {"type": "Point", "coordinates": [-2.1857643127441406, 53.02479956603739]}},
{"type": "Feature", "id": "kTHnoMQqZHlcbG1hTPCy2kkxmck=", "properties": {"ref": "arncp", "@spider": "arnold_clark", "addr:street_address": "Kerse Road,", "addr:city": "Stirling", "addr:state": "Central", "addr:postcode": "FK7 7LA", "name": "Stirling Volvo / MG / Used Car Centre", "phone": "+44-1786-649134", "website": "https://www.arnoldclark.com/find-a-dealer/stirling-volvo-mg-used-car-centre/ref/arncp", "opening_hours": "Mo-Fr 09:00-19:00; Sa 09:00-18:00; Su 11:00-18:00", "image": "https://ac-branches.s3.amazonaws.com/branches/stirling-volvo-mg-used-car-centre_026f69b72bd42cd63ae43a9d9838846e6fe11590.jpg", "brand": "Arnold Clark", "brand:wikidata": "Q29344371"}, "geometry": {"type": "Point", "coordinates": [-3.9135, 56.11111]}},
{"type": "Feature", "id": "cpcB5l5ZUDDGSxOQ_jCq9oD3Jy8=", "properties": {"ref": "arnhc", "@spider": "arnold_clark", "addr:street_address": "6 Craigleith Road, Broadley&#39;s Business Park", "addr:city": "Stirling", "addr:postcode": "FK7 7LQ", "name": "Stirling Volkswagen", "phone": "+44-1786-235465", "website": "https://www.arnoldclark.com/find-a-dealer/stirling-volkswagen/ref/arnhc", "opening_hours": "Mo-Fr 09:00-19:00; Sa 09:00-18:00; Su 11:00-18:00", "image": "https://ac-branches.s3.amazonaws.com/branches/stirling-volkswagen_dbbb87f149b1067f4c0a104029286c12ff777765.jpg", "brand": "Arnold Clark", "brand:wikidata": "Q29344371"}, "geometry": {"type": "Point", "coordinates": [-3.917953, 56.110096]}},
{"type": "Feature", "id": "LQd9okDFBjjH618hpep1rYImKWU=", "properties": {"ref": "arnag", "@spider": "arnold_clark", "addr:street_address": "117-125 Glasgow Road, Whins of Milton", "addr:city": "Stirling", "addr:postcode": "FK7 0PF", "name": "Stirling Vauxhall", "phone": "+44-1786-657240", "website": "https://www.arnoldclark.com/find-a-dealer/stirling-vauxhall/ref/arnag", "opening_hours": "Mo-Fr 09:00-19:00; Sa 09:00-18:00; Su 11:00-18:00", "image": "https://ac-branches.s3.amazonaws.com/branches/stirling-vauxhall_05093c0782903648fa25fe3f223a7685e56d33b1.jpg", "brand": "Arnold Clark", "brand:wikidata": "Q29344371"}, "geometry": {"type": "Point", "coordinates": [-3.9344358444213867, 56.095239140008985]}},
{"type": "Feature", "id": "9B-rfBepYGau1ZG9WSBLn79HukM=", "properties": {"ref": "arnej", "@spider": "arnold_clark", "addr:street_address": "Kerse Rd,", "addr:city": "Stirling", "addr:state": "Central", "addr:postcode": "FK7 7RU", "name": "Stirling Renault / Dacia / Hyundai", "phone": "+44-1786-476001", "website": "https://www.arnoldclark.com/find-a-dealer/stirling-renault-dacia-hyundai/ref/arnej", "opening_hours": "Mo-Th 09:00-19:00; Fr 08:30-19:00; Sa 09:00-18:00; Su 11:00-18:00", "image": "https://ac-branches.s3.amazonaws.com/branches/stirling-renault-dacia-hyundai_ec404eabc766ae63a0cd686f039afc3cf9bd625a.jpg", "brand": "Arnold Clark", "brand:wikidata": "Q29344371"}, "geometry": {"type": "Point", "coordinates": [-3.911071, 56.109194]}},
{"type": "Feature", "id": "8xrZg2cOFjQgtchJjH12OJswqJs=", "properties": {"ref": "arncc", "@spider": "arnold_clark", "addr:street_address": "Kerse Rd,", "addr:city": "Stirling", "addr:state": "Central", "addr:postcode": "FK7 7RY", "name": "Stirling Mazda", "phone": "+44-1786-649484", "website": "https://www.arnoldclark.com/find-a-dealer/stirling-mazda/ref/arncc", "opening_hours": "Mo-Fr 09:00-19:00; Sa 09:00-18:00; Su 11:00-18:00", "image": "https://ac-branches.s3.amazonaws.com/branches/stirling-mazda_f6bd175edf4b3fc21cd2bc26e6f05d2f5f0536fc.jpg", "brand": "Arnold Clark", "brand:wikidata": "Q29344371"}, "geometry": {"type": "Point", "coordinates": [-3.927468, 56.112273]}},
{"type": "Feature", "id": "ggPSgGdWcP9PpGIsZbjdnn4BuCE=", "properties": {"ref": "arneb", "@spider": "arnold_clark", "addr:street_address": "4 Craigleith Road, Broadleys Industrial Estate", "addr:city": "Stirling", "addr:postcode": "FK7 7LQ", "name": "Stirling Citro\u00ebn / DS / Peugeot", "phone": "+44-1786-236-932", "website": "https://www.arnoldclark.com/find-a-dealer/stirling-citroen-ds-peugeot/ref/arneb", "opening_hours": "Mo-Fr 09:00-19:00; Sa 09:00-18:00; Su 11:00-18:00", "image": "https://ac-branches.s3.amazonaws.com/branches/stirling-citroen-ds_372c97745f88e0a0b61411903df8213078dd1e88.jpg", "brand": "Arnold Clark", "brand:wikidata": "Q29344371"}, "geometry": {"type": "Point", "coordinates": [-3.917527, 56.110733]}},
{"type": "Feature", "id": "rbKwNsBoZN6kaHTKKVEHc3dPgLQ=", "properties": {"ref": "arnbic", "@spider": "arnold_clark", "addr:street_address": "Spitfire Close, Prime Point Business Park", "addr:city": "Stafford", "addr:postcode": "ST16 1GX", "name": "Stafford Vanstore", "phone": "+44-1785-904820", "website": "https://www.arnoldclark.com/find-a-dealer/stafford-vanstore/ref/arnbic", "opening_hours": "Mo-Th 08:30-19:00; Fr 08:30-20:00; Sa 08:30-18:00; Su 11:00-17:00", "image": "https://ac-branches.s3.amazonaws.com/branches/stafford-vanstore_9caf40632d6be3aab5faf512acac72741fbd4f3b.jpg", "brand": "Arnold Clark", "brand:wikidata": "Q29344371"}, "geometry": {"type": "Point", "coordinates": [-2.135818, 52.83225]}},
{"type": "Feature", "id": "WhClydG-ge6sDhZYZk6flYBIGJE=", "properties": {"ref": "arnbi", "@spider": "arnold_clark", "addr:street_address": "Spitfire Close, Prime Point Business Park", "addr:city": "Stafford", "addr:postcode": "ST16 1GX", "name": "Stafford Motorstore", "phone": "+44-1785-904820", "website": "https://www.arnoldclark.com/find-a-dealer/stafford-motorstore/ref/arnbi", "opening_hours": "Mo-Th 09:00-19:00; Fr 09:30-19:00; Sa 09:00-18:00; Su 11:00-17:00", "image": "https://ac-branches.s3.amazonaws.com/branches/stafford-motorstore_3155c69d4bdd7da682b663da753505c620f65f82.jpg", "brand": "Arnold Clark", "brand:wikidata": "Q29344371"}, "geometry": {"type": "Point", "coordinates": [-2.135767936706543, 52.83222487049539]}},
{"type": "Feature", "id": "FJiEfFE10LJaeKbpRKnhfDuCZEc=", "properties": {"ref": "arnhz", "@spider": "arnold_clark", "addr:street_address": "Spitfire Close, Prime Point Business Park,", "addr:city": "Stafford", "addr:postcode": "ST16 1GX", "name": "Stafford Innovation Centre", "phone": "+44-1785-559-663", "website": "https://www.arnoldclark.com/find-a-dealer/stafford-innovation-centre/ref/arnhz", "opening_hours": "Mo-Sa 09:00-18:00; Su 11:00-18:00", "image": "https://ac-branches.s3.amazonaws.com/branches/stafford-innovation-centre_56003454096d8a6c3d08c5046e940092bdd12cb0.jpg", "brand": "Arnold Clark", "brand:wikidata": "Q29344371"}, "geometry": {"type": "Point", "coordinates": [-2.135767936706543, 52.83222487049539]}},
{"type": "Feature", "id": "vFL3zxV2yUvVVjHNUYhSHGITxo0=", "properties": {"ref": "arncm", "@spider": "arnold_clark", "addr:street_address": "Delphwood Drive (off Sherdley Road),", "addr:city": "St. Helens", "addr:state": "England", "addr:postcode": "WA9 5JE", "name": "St Helens Renault / Dacia", "phone": "+44-1744-415050", "website": "https://www.arnoldclark.com/find-a-dealer/st-helens-renault-dacia/ref/arncm", "opening_hours": "Mo-Fr 09:00-19:00; Sa 09:00-18:00; Su 11:00-18:00", "image": "https://ac-branches.s3.amazonaws.com/branches/st-helens-renault-dacia_45b439396e569da707a2197293023c3aac46a0d6.jpg", "brand": "Arnold Clark", "brand:wikidata": "Q29344371"}, "geometry": {"type": "Point", "coordinates": [-2.728573, 53.443155]}},
{"type": "Feature", "id": "lqfzRoNbLj6vKlbTNJlACHPSzg0=", "properties": {"ref": "arnycs", "@spider": "arnold_clark", "addr:street_address": "Kings Cross Road,", "addr:city": "Dundee", "addr:postcode": "DD2 3PT", "name": "smart of Dundee", "phone": "+44-1382-918251", "website": "https://www.arnoldclark.com/find-a-dealer/smart-of-dundee/ref/arnycs", "opening_hours": "Mo-Th 08:30-19:00; Fr 08:30-18:00; Sa 09:00-17:00; Su 11:00-17:00", "image": "https://ac-branches.s3.amazonaws.com/branches/smart-of-dundee_b2d315ccd79c67346282fb8bc6738f792eec9412.jpg", "brand": "Arnold Clark", "brand:wikidata": "Q29344371"}, "geometry": {"type": "Point", "coordinates": [-3.0009734630584717, 56.48132487961946]}},
{"type": "Feature", "id": "kqfRQP6_lxw-aPU54XTUIJYwyS4=", "properties": {"ref": "arnhw", "@spider": "arnold_clark", "addr:street_address": "7 Battlefield Road,", "addr:city": "Shrewsbury", "addr:state": "Shropshire", "addr:postcode": "SY1 4AE", "name": "Shrewsbury Motorstore", "phone": "+44-1743-648058", "website": "https://www.arnoldclark.com/find-a-dealer/shrewsbury-motorstore/ref/arnhw", "opening_hours": "Mo-Fr 09:00-19:00; Sa 09:00-18:00; Su 11:00-17:00", "image": "https://ac-branches.s3.amazonaws.com/branches/shrewsbury-motorstore_62b3622c8847cb3aeaafa50d5bbbdf25d8a8a22d.jpg", "brand": "Arnold Clark", "brand:wikidata": "Q29344371"}, "geometry": {"type": "Point", "coordinates": [-2.7214, 52.7408]}},
{"type": "Feature", "id": "SnYNHwiI-KJlNb_NnS2Gi8IF6dc=", "properties": {"ref": "arnaoc", "@spider": "arnold_clark", "addr:street_address": "New York Road, Shiremoor", "addr:city": "Newcastle", "addr:postcode": "NE27 0NA", "name": "Shiremoor Ford Transit Centre", "phone": "+44-191-933-2505", "website": "https://www.arnoldclark.com/find-a-dealer/shiremoor-ford-transit-centre/ref/arnaoc", "opening_hours": "Mo-Fr 08:30-18:00; Sa 09:00-12:00; Su 00:00-24:00", "image": "https://ac-branches.s3.amazonaws.com/branches/shiremoor-ford-transit-centre_00b592f415d5a775bd42d0dca9328ff1281629c5.jpg", "brand": "Arnold Clark", "brand:wikidata": "Q29344371"}, "geometry": {"type": "Point", "coordinates": [-1.5030670166015625, 55.02698898224333]}},
{"type": "Feature", "id": "5_5oAgctEtckXcX8kGRF8FihoRQ=", "properties": {"ref": "arnao", "@spider": "arnold_clark", "addr:street_address": "New York Road,", "addr:city": "Shiremoor", "addr:postcode": "NE27 0NA", "name": "Shiremoor Ford", "phone": "+44-191-933-2500", "website": "https://www.arnoldclark.com/find-a-dealer/shiremoor-ford/ref/arnao", "opening_hours": "Mo-Fr 08:00-19:00; Sa 09:00-17:00; Su 11:00-18:00", "image": "https://ac-branches.s3.amazonaws.com/branches/shiremoor-ford_3949dc64d4997d1faa6b6737cfc4854ffd953dda.jpg", "brand": "Arnold Clark", "brand:wikidata": "Q29344371"}, "geometry": {"type": "Point", "coordinates": [-1.5049123764038086, 55.027124274690195]}},
{"type": "Feature", "id": "KUZb9InqrStNowvbCJeDar9j9IU=", "properties": {"ref": "arnbc", "@spider": "arnold_clark", "addr:street_address": "1 Brunel Avenue,", "addr:city": "Salford", "addr:postcode": "M5 4BE", "name": "Salford Vauxhall / Fiat / Abarth / MG", "phone": "+44-161-676-3710", "website": "https://www.arnoldclark.com/find-a-dealer/salford-vauxhall-fiat-abarth-mg/ref/arnbc", "opening_hours": "Mo-Fr 09:00-19:00; Sa 09:00-18:00; Su 11:00-18:00", "image": "https://ac-branches.s3.amazonaws.com/branches/salford-vauxhall-fiat-abarth-mg_a93a6f3ca0af695c9bc3b47663757baaef42dec0.jpg", "brand": "Arnold Clark", "brand:wikidata": "Q29344371"}, "geometry": {"type": "Point", "coordinates": [-2.276015281677246, 53.481712576305675]}},
{"type": "Feature", "id": "aAeNw6HBfvtkLFU87jHuXqrmO8A=", "properties": {"ref": "arnfw", "@spider": "arnold_clark", "addr:street_address": "Riversway Motor Park, Admiral Way", "addr:city": "Preston", "addr:postcode": "PR2 2TY", "name": "Preston Renault / Dacia", "phone": "+44-1772-808234", "website": "https://www.arnoldclark.com/find-a-dealer/preston-renault-dacia/ref/arnfw", "opening_hours": "Mo-Fr 09:00-19:00; Sa 09:00-18:00; Su 11:00-18:00", "image": "https://ac-branches.s3.amazonaws.com/branches/preston-renault-dacia_43c13fe83858d527a5f73ce97081a32070debe92.jpg", "brand": "Arnold Clark", "brand:wikidata": "Q29344371"}, "geometry": {"type": "Point", "coordinates": [-2.7596229314804077, 53.76063948201598]}},
{"type": "Feature", "id": "yczZJ4j_aTde4C08f68_mQJzl2E=", "properties": {"ref": "arnad", "@spider": "arnold_clark", "addr:street_address": "116 Hartington Rd,", "addr:city": "Preston", "addr:state": "England", "addr:postcode": "PR1 8PQ", "name": "Preston Motorstore", "phone": "+44-1772-418090", "website": "https://www.arnoldclark.com/find-a-dealer/preston-motorstore/ref/arnad", "opening_hours": "Mo-Fr 09:00-19:00; Sa 09:00-18:00; Su 11:00-17:00", "image": "https://ac-branches.s3.amazonaws.com/branches/preston-motorstore_5945c1f4a70a98b078871b5d904ffddf04b1e518.jpg", "brand": "Arnold Clark", "brand:wikidata": "Q29344371"}, "geometry": {"type": "Point", "coordinates": [-2.716799, 53.75729]}},
{"type": "Feature", "id": "1pjjqLbnzLyzkM6T0N8z7Jh5qxE=", "properties": {"ref": "arndv", "@spider": "arnold_clark", "addr:street_address": "Dales Industrial Estate,", "addr:city": "Peterhead", "addr:state": "North", "addr:postcode": "AB42 3JL", "name": "Peterhead Used Car Centre", "phone": "+44-1779-400930", "website": "https://www.arnoldclark.com/find-a-dealer/peterhead-used-car-centre/ref/arndv", "opening_hours": "Mo-Th 09:00-19:00; Fr 09:00-18:00; Sa 09:00-17:00; Su 12:00-17:00", "image": "https://ac-branches.s3.amazonaws.com/branches/peterhead-ford_1b49b504165cc1626a9d7f53321bc294c605e71d.jpg", "brand": "Arnold Clark", "brand:wikidata": "Q29344371"}, "geometry": {"type": "Point", "coordinates": [-1.80394, 57.487344]}},
{"type": "Feature", "id": "XvDHEtF5slwWXPOGxIuUFHD1YeU=", "properties": {"ref": "arnezc", "@spider": "arnold_clark", "addr:street_address": "The Triangle,", "addr:city": "Perth", "addr:state": "Central", "addr:postcode": "PH1 3GA", "name": "Perth Vanstore", "phone": "+44-1738-503-563", "website": "https://www.arnoldclark.com/find-a-dealer/perth-vanstore/ref/arnezc", "opening_hours": "Mo-Fr 09:00-19:00; Sa 09:00-18:00; Su 11:00-18:00", "image": "https://ac-branches.s3.amazonaws.com/branches/perth-vanstore_d063d0130b0dfc6db6025863caaa122dab40a6c7.jpg", "brand": "Arnold Clark", "brand:wikidata": "Q29344371"}, "geometry": {"type": "Point", "coordinates": [-3.462133, 56.417395]}},
{"type": "Feature", "id": "68bm7VeeS_4bFCMJ11Fgu_3uf2c=", "properties": {"ref": "arnybk", "@spider": "arnold_clark", "addr:street_address": "Ruthvenfield Road, Inveralmond Industrial Estate", "addr:city": "Perth", "addr:postcode": "PH1 3XF", "name": "Perth Used Car Centre", "phone": "+44-1738-505760", "website": "https://www.arnoldclark.com/find-a-dealer/perth-used-car-centre/ref/arnybk", "opening_hours": "Mo-Th 09:00-19:00; Fr 09:00-18:00; Sa 09:00-17:00; Su 11:00-17:00", "image": "https://ac-branches.s3.amazonaws.com/branches/perth-used-car-centre_37a3f64a05e734bf685ba8f4a2fee6e6ca668a87.jpg", "brand": "Arnold Clark", "brand:wikidata": "Q29344371"}, "geometry": {"type": "Point", "coordinates": [-3.4665513038635254, 56.42033445757114]}},
{"type": "Feature", "id": "OroYt9GfTuHd7RJuA00KOQcJplY=", "properties": {"ref": "arnez", "@spider": "arnold_clark", "addr:street_address": "The Triangle,", "addr:city": "Perth", "addr:state": "Central", "addr:postcode": "PH1 3GA", "name": "Perth Motorstore / Fiat / Abarth/ Jeep/ Alfa Romeo", "phone": "+44-1738-503-563", "website": "https://www.arnoldclark.com/find-a-dealer/perth-motorstore-fiat-abarth-jeep-alfa-romeo/ref/arnez", "opening_hours": "Mo-Fr 09:00-19:00; Sa 09:00-18:00; Su 11:00-18:00", "image": "https://ac-branches.s3.amazonaws.com/branches/perth-motorstore-fiat-abarth_f8c34fd84eadda2bdcdb046b647f5a7b0c66674a.jpg", "brand": "Arnold Clark", "brand:wikidata": "Q29344371"}, "geometry": {"type": "Point", "coordinates": [-3.462133, 56.417395]}},
{"type": "Feature", "id": "AoYDSVYuR4GLaWDz-fMKH7PY3is=", "properties": {"ref": "arnfa", "@spider": "arnold_clark", "addr:street_address": "153 Dunkeld Rd,", "addr:city": "Perth", "addr:state": "Central", "addr:postcode": "PH1 5AU", "name": "Perth Citro\u00ebn", "phone": "+44-1738-231354", "website": "https://www.arnoldclark.com/find-a-dealer/perth-citroen/ref/arnfa", "opening_hours": "Mo-Th 09:00-19:00; Fr-Sa 09:00-18:00; Su 11:00-18:00", "image": "https://ac-branches.s3.amazonaws.com/branches/perth-citroen_115cd1a56e068db409c6a9f097fa666f6c9e7454.jpg", "brand": "Arnold Clark", "brand:wikidata": "Q29344371"}, "geometry": {"type": "Point", "coordinates": [-3.449906, 56.409199]}},
{"type": "Feature", "id": "xVkUzjmMrsETsnxNbPweyXwwavU=", "properties": {"ref": "arneg", "@spider": "arnold_clark", "addr:street_address": "Renfrew Road,", "addr:city": "Paisley", "addr:postcode": "PA3 4AR", "name": "Paisley Fiat / Abarth", "phone": "+44-141-729-7780", "website": "https://www.arnoldclark.com/find-a-dealer/paisley-fiat-abarth/ref/arneg", "opening_hours": "Mo-Fr 09:00-19:00; Sa 09:00-18:00; Su 11:00-18:00", "image": "https://ac-branches.s3.amazonaws.com/branches/paisley-fiat-abarth_20ffeac02619b6c7af427d9c03783f75fa23e9fa.jpg", "brand": "Arnold Clark", "brand:wikidata": "Q29344371"}, "geometry": {"type": "Point", "coordinates": [-4.419894218444824, 55.851179864250895]}},
{"type": "Feature", "id": "ZW9wGAxmxS1_xsRUYDyrdbN6jBQ=", "properties": {"ref": "arnbu", "@spider": "arnold_clark", "addr:street_address": "Oldbury Ringway,", "addr:city": "Oldbury", "addr:state": "England", "addr:postcode": "B69 4JW", "name": "Oldbury Fiat / Motorstore / Jeep / Abarth", "phone": "+44-121-387-0020", "website": "https://www.arnoldclark.com/find-a-dealer/oldbury-fiat-motorstore-jeep-abarth/ref/arnbu", "opening_hours": "Mo-Fr 09:00-19:00; Sa 09:00-18:00; Su 11:00-17:00", "image": "https://ac-branches.s3.amazonaws.com/branches/oldbury-fiat-motorstore-jeep-abarth_a43ec79537affb6126f75364b0388a3577fb30c5.jpg", "brand": "Arnold Clark", "brand:wikidata": "Q29344371"}, "geometry": {"type": "Point", "coordinates": [-2.019149, 52.502396]}},
{"type": "Feature", "id": "dcQKsv-75HsnLeIcxzLcwpi4yNA=", "properties": {"ref": "arnhdc", "@spider": "arnold_clark", "addr:street_address": "Lenton Industrial Estate, Redfield Road", "addr:city": "Nottingham", "addr:postcode": "NG7 2UJ", "name": "Nottingham Vanstore", "phone": "+44-115-666-3200", "website": "https://www.arnoldclark.com/find-a-dealer/nottingham-vanstore/ref/arnhdc", "opening_hours": "Mo-Fr 09:00-19:00; Sa 09:00-18:00; Su 11:00-17:00", "image": "https://ac-branches.s3.amazonaws.com/branches/nottingham-vanstore_74c9815755c2cc5b6067e05266db18783fa16531.jpg", "brand": "Arnold Clark", "brand:wikidata": "Q29344371"}, "geometry": {"type": "Point", "coordinates": [-1.176993, 52.933042]}},
{"type": "Feature", "id": "PTHe4XeZPHZxLfNTol604LyH59s=", "properties": {"ref": "arnhd", "@spider": "arnold_clark", "addr:street_address": "Lenton Industrial Estate, Redfield Road", "addr:city": "Nottingham", "addr:postcode": "NG7 2UJ", "name": "Nottingham Motorstore", "phone": "+44-115-666-3200", "website": "https://www.arnoldclark.com/find-a-dealer/nottingham-motorstore/ref/arnhd", "opening_hours": "Mo-Fr 09:00-19:00; Sa 09:00-18:00; Su 11:00-17:00", "image": "https://ac-branches.s3.amazonaws.com/branches/nottingham-motorstore_e75deb480ab4a555fbc8a294eed2aa855faabc77.jpg", "brand": "Arnold Clark", "brand:wikidata": "Q29344371"}, "geometry": {"type": "Point", "coordinates": [-1.177036, 52.932997]}},
{"type": "Feature", "id": "mmnCMEiiWeDVOk41Vh6C_r94H2M=", "properties": {"ref": "arnai", "@spider": "arnold_clark", "addr:street_address": "Manchester Rd,", "addr:city": "Northwich", "addr:postcode": "CW9 5GG", "name": "Northwich Vauxhall / Kia", "phone": "+44-1606-663740", "website": "https://www.arnoldclark.com/find-a-dealer/northwich-vauxhall-kia/ref/arnai", "opening_hours": "Mo-Fr 09:00-19:00; Sa 09:00-18:00; Su 10:00-18:00", "image": "https://ac-branches.s3.amazonaws.com/branches/northwich-vauxhall-kia_f37ea3ac221a57e007a29a9b908b746ec2b84c05.jpg", "brand": "Arnold Clark", "brand:wikidata": "Q29344371"}, "geometry": {"type": "Point", "coordinates": [-2.490541, 53.263531]}},
{"type": "Feature", "id": "0aQXPVtt8NbLsImkonekBoFsF7c=", "properties": {"ref": "arnan", "@spider": "arnold_clark", "addr:street_address": "Scotswood Road,", "addr:city": "Newcastle", "addr:postcode": "NE4 7NN", "name": "Newcastle SEAT", "phone": "+44-191-933-1880", "website": "https://www.arnoldclark.com/find-a-dealer/newcastle-seat/ref/arnan", "opening_hours": "Mo-Fr 09:00-19:00; Sa 09:00-17:00; Su 11:00-17:00", "image": "https://ac-branches.s3.amazonaws.com/branches/newcastle-seat_664d1c011cd8cb338126d2329e55301509d2d6fb.jpg", "brand": "Arnold Clark", "brand:wikidata": "Q29344371"}, "geometry": {"type": "Point", "coordinates": [-1.635087, 54.963104]}},
{"type": "Feature", "id": "InX8gHugnAWLRoaX8RKaCe9CcD0=", "properties": {"ref": "arnbec", "@spider": "arnold_clark", "addr:street_address": "Shields Road,", "addr:city": "Motherwell", "addr:state": "North Lanarkshire", "addr:postcode": "ML1 2LD", "name": "Motherwell Vanstore", "phone": "+44-1698-757000", "website": "https://www.arnoldclark.com/find-a-dealer/motherwell-vanstore/ref/arnbec", "opening_hours": "Mo-Fr 09:00-19:00; Sa 09:00-18:00; Su 11:00-18:00", "image": "https://ac-branches.s3.amazonaws.com/branches/motherwell-vanstore_8f18bbe2845f787d00c983012c6480bd60d3bd4e.jpg", "brand": "Arnold Clark", "brand:wikidata": "Q29344371"}, "geometry": {"type": "Point", "coordinates": [-3.962301400000001, 55.7728094]}},
{"type": "Feature", "id": "MJ3I4T-HoCgIqNhsH0gdwa7LlF0=", "properties": {"ref": "arnbe", "@spider": "arnold_clark", "addr:street_address": "Shields Rd,", "addr:city": "Motherwell", "addr:state": "Glasgow", "addr:postcode": "ML1 2LD", "name": "Motherwell Motorstore", "phone": "+44-1698-757000", "website": "https://www.arnoldclark.com/find-a-dealer/motherwell-motorstore/ref/arnbe", "opening_hours": "Mo-Fr 09:00-19:00; Sa 09:00-18:00; Su 11:00-18:00", "image": "https://ac-branches.s3.amazonaws.com/branches/motherwell-motorstore_9a9b6ca1f7bf66586c499b5a88fae026e68ef96a.jpg", "brand": "Arnold Clark", "brand:wikidata": "Q29344371"}, "geometry": {"type": "Point", "coordinates": [-3.962609, 55.773201]}},
{"type": "Feature", "id": "IIrS_0rX7NxkCp_KqYBWEhJ9gVo=", "properties": {"ref": "arngb", "@spider": "arnold_clark", "addr:street_address": "Middlegate, White Lund", "addr:city": "Morecambe", "addr:postcode": "LA3 3BN", "name": "Morecambe Vauxhall", "phone": "+44-1524-969464", "website": "https://www.arnoldclark.com/find-a-dealer/morecambe-vauxhall/ref/arngb", "opening_hours": "Mo-Fr 09:00-19:00; Sa 09:00-17:00; Su 11:00-17:00", "image": "https://ac-branches.s3.amazonaws.com/branches/morecambe-vauxhall_e6238cd789a64534d2c1a33af5dc654342529252.jpg", "brand": "Arnold Clark", "brand:wikidata": "Q29344371"}, "geometry": {"type": "Point", "coordinates": [-2.8392791748046875, 54.059362697610034]}},
{"type": "Feature", "id": "_O4zl1jmUsK4uxmJiK44snKPqG4=", "properties": {"ref": "arnybm", "@spider": "arnold_clark", "addr:street_address": "Ruthvenfield Road, Inveralmond Industrial Estate", "addr:city": "Perth", "addr:postcode": "PH1 3XF", "name": "Mercedes-Benz of Perth", "phone": "+44-1738-505601", "website": "https://www.arnoldclark.com/find-a-dealer/mercedes-benz-of-perth/ref/arnybm", "opening_hours": "Mo-Th 09:00-19:00; Fr 09:00-18:00; Sa 09:00-17:00; Su 11:00-17:00", "image": "https://ac-branches.s3.amazonaws.com/branches/mercedes-benz-of-perth_30d264034753a50f6ff86e9d59bd776e408e6027.jpg", "brand": "Arnold Clark", "brand:wikidata": "Q29344371"}, "geometry": {"type": "Point", "coordinates": [-3.4670890867710114, 56.41981670597567]}},
{"type": "Feature", "id": "8S1jj_i-s7cMhNU6F6KsJ_ATUdY=", "properties": {"ref": "arnyem", "@spider": "arnold_clark", "addr:street_address": "Longman Road,", "addr:city": "Inverness", "addr:postcode": "IV1 1RY", "name": "Mercedes-Benz of Inverness", "phone": "+44-1463-217455", "website": "https://www.arnoldclark.com/find-a-dealer/mercedes-benz-of-inverness/ref/arnyem", "opening_hours": "Mo-Th 08:00-19:00; Fr 08:00-18:00; Sa 09:00-17:00; Su 11:00-17:00", "image": "https://ac-branches.s3.amazonaws.com/branches/mercedes-benz-of-inverness_ba4ce648bc05695a69f53456351b7056fe8e1717.jpg", "brand": "Arnold Clark", "brand:wikidata": "Q29344371"}, "geometry": {"type": "Point", "coordinates": [-4.221410751342773, 57.484198284701925]}},
{"type": "Feature", "id": "j-rJirD5WrAuRMp_NavUmb9tU4M=", "properties": {"ref": "arnyam", "@spider": "arnold_clark", "addr:street_address": "Beancross Road,", "addr:city": "Grangemouth", "addr:postcode": "FK3 8YF", "name": "Mercedes-Benz of Grangemouth", "phone": "+44-1324-465781", "website": "https://www.arnoldclark.com/find-a-dealer/mercedes-benz-of-grangemouth/ref/arnyam", "opening_hours": "Mo-Th 09:00-19:00; Fr 09:00-18:00; Sa 09:00-17:00; Su 11:00-17:00", "image": "https://ac-branches.s3.amazonaws.com/branches/mercedes-benz-of-grangemouth_cef13b157e7c3d00442432b48b85e2be89911578.jpg", "brand": "Arnold Clark", "brand:wikidata": "Q29344371"}, "geometry": {"type": "Point", "coordinates": [-3.737797737121582, 56.00717557387428]}},
{"type": "Feature", "id": "aXAaLlNhXh410Nr3M3cXt8VA9BE=", "properties": {"ref": "arnycm", "@spider": "arnold_clark", "addr:street_address": "Kings Cross Road,", "addr:city": "Dundee", "addr:postcode": "DD2 3PT", "name": "Mercedes-Benz of Dundee", "phone": "+44-1382-918251", "website": "https://www.arnoldclark.com/find-a-dealer/mercedes-benz-of-dundee/ref/arnycm", "opening_hours": "Mo-Th 08:30-19:00; Fr 08:30-18:00; Sa 09:00-17:00; Su 11:00-17:00", "image": "https://ac-branches.s3.amazonaws.com/branches/mercedes-benz-of-dundee_4bd65ca7efefdb87c3ecad1d4db59bc6792d330a.jpg", "brand": "Arnold Clark", "brand:wikidata": "Q29344371"}, "geometry": {"type": "Point", "coordinates": [-3.0009493231773376, 56.48129377568141]}},
{"type": "Feature", "id": "Feff1_JKXF_cDcSnnYTJP3IHBak=", "properties": {"ref": "arnydm", "@spider": "arnold_clark", "addr:street_address": "31 Craigshaw Drive,", "addr:city": "Aberdeen", "addr:postcode": "AB12 3BE", "name": "Mercedes-Benz of Aberdeen", "phone": "+44-1224-004340", "website": "https://www.arnoldclark.com/find-a-dealer/mercedes-benz-of-aberdeen/ref/arnydm", "opening_hours": "Mo-Th 09:00-19:00; Fr 08:30-18:00; Sa 09:00-17:00; Su 11:00-17:00", "image": "https://ac-branches.s3.amazonaws.com/branches/mercedes-benz-of-aberdeen_bf84af9835794b66bf6caaceb18cb9de75b43410.jpg", "brand": "Arnold Clark", "brand:wikidata": "Q29344371"}, "geometry": {"type": "Point", "coordinates": [-2.091994285583496, 57.12161173953376]}},
{"type": "Feature", "id": "HrGtQda5Bwhb53dA7VeB-ULv3l4=", "properties": {"ref": "arnbb", "@spider": "arnold_clark", "addr:street_address": "Chester Rd, Stretford", "addr:city": "Manchester", "addr:state": "England", "addr:postcode": "M32 0RB", "name": "Manchester Vauxhall", "phone": "+44-161-543-0344", "website": "https://www.arnoldclark.com/find-a-dealer/manchester-vauxhall/ref/arnbb", "opening_hours": "Mo-Fr 09:00-19:00; Sa 09:00-18:00; Su 10:00-18:00", "image": "https://ac-branches.s3.amazonaws.com/branches/manchester-vauxhall_824991df85de40e407644a547331e3e27c191e5f.jpg", "brand": "Arnold Clark", "brand:wikidata": "Q29344371"}, "geometry": {"type": "Point", "coordinates": [-2.2939538955688477, 53.4583132871027]}},
{"type": "Feature", "id": "SOW_2S4JB6_rDG8PaaNEGgIlzF0=", "properties": {"ref": "acmpc", "@spider": "arnold_clark", "addr:street_address": "Unit 1, Caledonia Way, Stretford Motorway Estate", "addr:city": "Manchester", "addr:postcode": "M32 0ZH", "name": "Manchester Parts Centre", "phone": "+44-161-519-1185", "website": "https://www.arnoldclark.com/find-a-dealer/manchester-parts-centre/ref/acmpc", "brand": "Arnold Clark", "brand:wikidata": "Q29344371"}, "geometry": {"type": "Point", "coordinates": [-2.331171, 53.461693]}},
{"type": "Feature", "id": "NmCUKSrXHTmNIproD1se9v2q-zg=", "properties": {"ref": "arnfe", "@spider": "arnold_clark", "addr:street_address": "Carmondean Centre, Deans", "addr:city": "Livingston", "addr:state": "Central", "addr:postcode": "EH54 8PT", "name": "Livingston Vauxhall", "phone": "+44-1506-539500", "website": "https://www.arnoldclark.com/find-a-dealer/livingston-vauxhall/ref/arnfe", "opening_hours": "Mo-Fr 09:00-19:00; Sa 09:00-18:00; Su 11:00-18:00", "image": "https://ac-branches.s3.amazonaws.com/branches/livingston-vauxhall_2b118c57ab08ea3257e3f2da0e86b7dd39693bc6.jpg", "brand": "Arnold Clark", "brand:wikidata": "Q29344371"}, "geometry": {"type": "Point", "coordinates": [-3.5443782806396484, 55.90261468767652]}},
{"type": "Feature", "id": "HSVOKhslT3IM0FVza1HP-jmrAoQ=", "properties": {"ref": "arnaxc", "@spider": "arnold_clark", "addr:street_address": "55 Sefton Street, Toxteth", "addr:city": "Liverpool", "addr:state": "England", "addr:postcode": "L8 6UD", "name": "Liverpool Vanstore", "phone": "+44-151-832-9460", "website": "https://www.arnoldclark.com/find-a-dealer/liverpool-vanstore/ref/arnaxc", "opening_hours": "Mo-Fr 09:00-19:00; Sa 09:00-18:00; Su 11:00-17:00", "image": "https://ac-branches.s3.amazonaws.com/branches/liverpool-vanstore_7da66f98315fdda53b47af1d27740a4b24719458.png", "brand": "Arnold Clark", "brand:wikidata": "Q29344371"}, "geometry": {"type": "Point", "coordinates": [-2.979388, 53.388156]}},
{"type": "Feature", "id": "MSvoqm6ym7JxSE5yiHbUFOsfqS0=", "properties": {"ref": "arnax", "@spider": "arnold_clark", "addr:street_address": "55 Sefton Street, Toxteth", "addr:city": "Liverpool", "addr:state": "England", "addr:postcode": "L8 6UD", "name": "Liverpool Motorstore / Kia / MG", "phone": "+44-151-832-9460", "website": "https://www.arnoldclark.com/find-a-dealer/liverpool-motorstore-kia-mg/ref/arnax", "opening_hours": "Mo-Fr 09:00-19:00; Sa 09:00-18:00; Su 11:00-17:00", "image": "https://ac-branches.s3.amazonaws.com/branches/liverpool-motorstore-kia-mg_2dec0700ccf7e909c686d153e3ba9daa6078b89e.jpg", "brand": "Arnold Clark", "brand:wikidata": "Q29344371"}, "geometry": {"type": "Point", "coordinates": [-2.979388, 53.388156]}},
{"type": "Feature", "id": "EVSNwR4erZbhTVRX8X9WU9K-qfY=", "properties": {"ref": "arncx", "@spider": "arnold_clark", "addr:street_address": "Pegasus Avenue, Phoenix Retail Park", "addr:city": "Linwood", "addr:state": "Glasgow", "addr:postcode": "PA1 2BH", "name": "Linwood Volkswagen", "phone": "+44-141-847-5970", "website": "https://www.arnoldclark.com/find-a-dealer/linwood-volkswagen/ref/arncx", "opening_hours": "Mo-Fr 09:00-19:00; Sa 09:00-18:00; Su 11:00-18:00", "image": "https://ac-branches.s3.amazonaws.com/branches/linwood-volkswagen_91f892c6ce45e8f5ee24f1c01d1c1d6fdbfc9142.jpg", "brand": "Arnold Clark", "brand:wikidata": "Q29344371"}, "geometry": {"type": "Point", "coordinates": [-4.478591680526733, 55.8467289289916]}},
{"type": "Feature", "id": "Go9chSfA0smf96b9lAyioeD32i0=", "properties": {"ref": "arnay", "@spider": "arnold_clark", "addr:street_address": "Phoenix Retail Park,", "addr:city": "Linwood", "addr:state": "Glasgow", "addr:postcode": "PA1 2BH", "name": "Linwood Vauxhall / Jeep / Alfa Romeo", "phone": "+44-141-739-5864", "website": "https://www.arnoldclark.com/find-a-dealer/linwood-vauxhall-jeep-alfa-romeo/ref/arnay", "opening_hours": "Mo-Fr 09:00-19:00; Sa 09:00-18:00; Su 11:00-18:00", "image": "https://ac-branches.s3.amazonaws.com/branches/linwood-vauxhall-jeep-alfa-romeo_75bc5c4daa384c311b86dc221d6b5151a355f778.jpg", "brand": "Arnold Clark", "brand:wikidata": "Q29344371"}, "geometry": {"type": "Point", "coordinates": [-4.475325, 55.845438]}},
{"type": "Feature", "id": "pHf_XmaBxLCK5WFmHP77UGlkSVs=", "properties": {"ref": "arnfy", "@spider": "arnold_clark", "addr:street_address": "Phoenix Retail Park,", "addr:city": "Linwood", "addr:postcode": "PA1 2BH", "name": "Linwood SEAT / \u0160KODA", "phone": "+44-141-732-7714", "website": "https://www.arnoldclark.com/find-a-dealer/linwood-seat-skoda/ref/arnfy", "opening_hours": "Mo-Fr 09:00-19:00; Sa 09:00-18:00; Su 11:00-18:00", "image": "https://ac-branches.s3.amazonaws.com/branches/linwood-seat-skoda_32354aeb636866cdbab8898e288fed102b88f1af.jpg", "brand": "Arnold Clark", "brand:wikidata": "Q29344371"}, "geometry": {"type": "Point", "coordinates": [-4.470877647399902, 55.845976014034214]}},
{"type": "Feature", "id": "pM6vUmyktQNdUufTk0F6uxJxoTE=", "properties": {"ref": "arnhs", "@spider": "arnold_clark", "addr:street_address": "Phoenix Retail Park, Linwood Road", "addr:city": "Paisley", "addr:postcode": "PA1 2BH", "name": "Linwood MG / Honda", "phone": "+44-141-648-6490", "website": "https://www.arnoldclark.com/find-a-dealer/linwood-mg-honda/ref/arnhs", "opening_hours": "Mo-Th 09:00-19:00; Fr 09:00-20:00; Sa 09:00-18:00; Su 11:00-18:00", "image": "https://ac-branches.s3.amazonaws.com/branches/linwood-mg-honda_cbab7ada5f0dd55af72700830bc158a5e36d439e.jpg", "brand": "Arnold Clark", "brand:wikidata": "Q29344371"}, "geometry": {"type": "Point", "coordinates": [-4.4754098, 55.8470913]}},
{"type": "Feature", "id": "wvUjqQqfw6MFPwjp3loGsMITpbI=", "properties": {"ref": "arnbt", "@spider": "arnold_clark", "addr:street_address": "Phoenix Retail Park,", "addr:city": "Linwood", "addr:state": "Glasgow", "addr:postcode": "PA1 2FE", "name": "Linwood Kia", "phone": "+44-141-849-5130", "website": "https://www.arnoldclark.com/find-a-dealer/linwood-kia/ref/arnbt", "opening_hours": "Mo-Fr 09:00-19:00; Sa 09:00-18:00; Su 11:00-18:00", "image": "https://ac-branches.s3.amazonaws.com/branches/linwood-kia-paisley_2ee7fc94be31530e845d4bd20495a90c1a53b612.jpg", "brand": "Arnold Clark", "brand:wikidata": "Q29344371"}, "geometry": {"type": "Point", "coordinates": [-4.480597972869873, 55.84640969483053]}},
{"type": "Feature", "id": "9ilJ28OXueVlG2q522F3yPR5icA=", "properties": {"ref": "arnhr", "@spider": "arnold_clark", "addr:street_address": "Phoenix Retail Park, Linwood Rd", "addr:city": "Paisley", "addr:postcode": "PA1 2AB", "name": "Linwood Hyundai / Used Car Centre", "phone": "+44-141-732-9920", "website": "https://www.arnoldclark.com/find-a-dealer/linwood-hyundai-used-car-centre/ref/arnhr", "opening_hours": "Mo-Th 09:00-19:00; Fr 08:30-19:00; Sa 09:00-18:00; Su 11:00-18:00", "image": "https://ac-branches.s3.amazonaws.com/branches/linwood-hyundai-kia_e2ee2dc8ec5a5b53b75d66006771fea0cb61e8e1.jpg", "brand": "Arnold Clark", "brand:wikidata": "Q29344371"}, "geometry": {"type": "Point", "coordinates": [-4.4742468, 55.8471745]}},
{"type": "Feature", "id": "4gsW7B5Xkp0ftAAZdoP-6c4dHkI=", "properties": {"ref": "arnel", "@spider": "arnold_clark", "addr:street_address": "Saturn Avenue, Phoenix Retail Park", "addr:city": "Linwood", "addr:state": "Glasgow", "addr:postcode": "PA1 2AB", "name": "Linwood Ford", "phone": "+44-141-842-8595", "website": "https://www.arnoldclark.com/find-a-dealer/linwood-ford/ref/arnel", "opening_hours": "Mo-Fr 09:00-19:00; Sa 09:00-18:00; Su 11:00-18:00", "image": "https://ac-branches.s3.amazonaws.com/branches/linwood-ford_c56713321c740375e54277028379874e8debb84c.jpg", "brand": "Arnold Clark", "brand:wikidata": "Q29344371"}, "geometry": {"type": "Point", "coordinates": [-4.475083351135254, 55.846746998771366]}},
{"type": "Feature", "id": "YYa0ohFoG-B4XRBkMLc5dTg4ea0=", "properties": {"ref": "arnbh", "@spider": "arnold_clark", "addr:street_address": "Farington Business Park, Golden Hill Lane", "addr:city": "Leyland", "addr:state": "England", "addr:postcode": "PR25 3GG", "name": "Leyland Motorstore", "phone": "+44-1772-419400", "website": "https://www.arnoldclark.com/find-a-dealer/leyland-motorstore/ref/arnbh", "opening_hours": "Mo-Fr 09:00-19:00; Sa 09:00-18:00; Su 11:00-17:00", "image": "https://ac-branches.s3.amazonaws.com/branches/leyland-motorstore_41b2cb4aaae77c98d4e6e462b763e7d7ff37d734.jpg", "brand": "Arnold Clark", "brand:wikidata": "Q29344371"}, "geometry": {"type": "Point", "coordinates": [-2.704985, 53.698522]}},
{"type": "Feature", "id": "Vz7vJjSwiNCwmvgRg6Up0DnY97s=", "properties": {"ref": "arnbn", "@spider": "arnold_clark", "addr:street_address": "69 Auchinloch Rd, Lenzie", "addr:city": "Kirkintilloch", "addr:state": "Glasgow", "addr:postcode": "G66 5EZ", "name": "Lenzie Vauxhall", "phone": "+44-141-648-2360", "website": "https://www.arnoldclark.com/find-a-dealer/lenzie-vauxhall/ref/arnbn", "opening_hours": "Mo-Fr 09:00-19:00; Sa 09:00-18:00; Su 11:00-18:00", "image": "https://ac-branches.s3.amazonaws.com/branches/lenzie-vauxhall_adf9f400c631ebdc98faa93587e14a9daff2917b.jpg", "brand": "Arnold Clark", "brand:wikidata": "Q29344371"}, "geometry": {"type": "Point", "coordinates": [-4.149521, 55.918393]}},
{"type": "Feature", "id": "xepjhqfPq7m2rta55nKO7SizwpM=", "properties": {"ref": "arnho", "@spider": "arnold_clark", "addr:street_address": "Roseville Road Motorstore,", "addr:city": "Leeds", "addr:postcode": "LS8 5QP", "name": "Leeds Roseville Road Motorstore", "phone": "+44-113-733-3804", "website": "https://www.arnoldclark.com/find-a-dealer/leeds-roseville-road-motorstore/ref/arnho", "opening_hours": "Mo-Fr 09:00-19:00; Sa 09:00-18:00; Su 11:00-17:00", "image": "https://ac-branches.s3.amazonaws.com/branches/leeds-roseville-road-motorstore_d19bbfea720d855095bf853531ccb09930481ecc.jpg", "brand": "Arnold Clark", "brand:wikidata": "Q29344371"}, "geometry": {"type": "Point", "coordinates": [-1.5312899, 53.8064754]}},
{"type": "Feature", "id": "aLUDJ_DHhxlSpOTfptIw_wooigY=", "properties": {"ref": "arngj", "@spider": "arnold_clark", "addr:street_address": "Whitehall Place,", "addr:city": "Leeds", "addr:postcode": "LS12 1AA", "name": "Leeds Motorstore / Fiat / Jeep / Abarth / Alfa Romeo", "phone": "+44-113-487-1240", "website": "https://www.arnoldclark.com/find-a-dealer/leeds-motorstore-fiat-jeep-abarth-alfa-romeo/ref/arngj", "opening_hours": "Mo-Fr 09:00-19:00; Sa 09:00-18:00; Su 11:00-17:00", "image": "https://ac-branches.s3.amazonaws.com/branches/leeds-motorstore-fiat-jeep-abarth-alfa-romeo_1ae513f3078508457b6414feb5448642745e6e2f.jpg", "brand": "Arnold Clark", "brand:wikidata": "Q29344371"}, "geometry": {"type": "Point", "coordinates": [-1.5640645, 53.7912822]}},
{"type": "Feature", "id": "SQ2nul3VcsOsU_ouVvy8tqvzwJg=", "properties": {"ref": "arnep", "@spider": "arnold_clark", "addr:street_address": "Caxton Place, Mitchelston Industrial Estate,", "addr:city": "Kirkcaldy", "addr:state": "Central", "addr:postcode": "KY1 3NF", "name": "Kirkcaldy Mazda / Peugeot", "phone": "+44-1592-804503", "website": "https://www.arnoldclark.com/find-a-dealer/kirkcaldy-mazda-peugeot/ref/arnep", "opening_hours": "Mo-Fr 09:00-19:00; Sa 09:00-18:00; Su 11:00-18:00", "image": "https://ac-branches.s3.amazonaws.com/branches/kirkcaldy-mazda-peugeot_5d091ec544bb9ed69dd0eb4a4210669fb0d43379.jpg", "brand": "Arnold Clark", "brand:wikidata": "Q29344371"}, "geometry": {"type": "Point", "coordinates": [-3.139417, 56.137665]}},
{"type": "Feature", "id": "EJuCc7j4Gumtrtp-wodnPYV7lgg=", "properties": {"ref": "arnen", "@spider": "arnold_clark", "addr:street_address": "Carberry Rd, Mitchelston Industrial Estate", "addr:city": "Kirkcaldy", "addr:state": "Central", "addr:postcode": "KY1 3NE", "name": "Kirkcaldy Kia", "phone": "+44-1592-809424", "website": "https://www.arnoldclark.com/find-a-dealer/kirkcaldy-kia/ref/arnen", "opening_hours": "Mo-Fr 09:00-19:00; Sa 09:00-18:00; Su 11:00-18:00", "image": "https://ac-branches.s3.amazonaws.com/branches/kirkcaldy-kia_b40594751c7445f501d67b99e8603b279e928cf1.jpg", "brand": "Arnold Clark", "brand:wikidata": "Q29344371"}, "geometry": {"type": "Point", "coordinates": [-3.14545, 56.136127]}},
{"type": "Feature", "id": "_AscTSIe38YyUbtUygXVtp5TcrA=", "properties": {"ref": "arnfg", "@spider": "arnold_clark", "addr:street_address": "Carberry Rd, Mitchelston Industrial Estate", "addr:city": "Kirkcaldy", "addr:state": "Central", "addr:postcode": "KY1 3NE", "name": "Kirkcaldy Fiat / Abarth", "phone": "+44-1592-804110", "website": "https://www.arnoldclark.com/find-a-dealer/kirkcaldy-fiat-abarth/ref/arnfg", "opening_hours": "Mo-Fr 09:00-19:00; Sa 09:00-18:00; Su 11:00-18:00", "image": "https://ac-branches.s3.amazonaws.com/branches/kirkcaldy-fiat-abarth_cf888264b879699e42add8d6487b1aa96406a815.jpg", "brand": "Arnold Clark", "brand:wikidata": "Q29344371"}, "geometry": {"type": "Point", "coordinates": [-3.145136833190918, 56.13586574429191]}},
{"type": "Feature", "id": "wNJBRCmbo_1bgRyYfCrhajkbgBk=", "properties": {"ref": "arn10d", "@spider": "arnold_clark", "addr:street_address": "Carberry Place,", "addr:city": "Kirkcaldy", "addr:postcode": "KY1 3NQ", "name": "Kirkcaldy BMW", "phone": "+44-1592-804472", "website": "https://www.arnoldclark.com/find-a-dealer/kirkcaldy-bmw/ref/arn10d", "opening_hours": "Mo-Th 09:00-19:00; Fr-Sa 09:00-18:00; Su 11:00-18:00", "image": "https://ac-branches.s3.amazonaws.com/branches/kirkcaldy-bmw_fd98f0f28e66813a48bd22693e8a9ac2561457e2.jpg", "brand": "Arnold Clark", "brand:wikidata": "Q29344371"}, "geometry": {"type": "Point", "coordinates": [-3.148355, 56.135387]}},
{"type": "Feature", "id": "V-wkpNHBcilVOouTAO1-4xMgwoI=", "properties": {"ref": "arnef", "@spider": "arnold_clark", "addr:street_address": "Western Rd,", "addr:city": "Kilmarnock", "addr:state": "South", "addr:postcode": "KA3 1NJ", "name": "Kilmarnock Peugeot", "phone": "+44-1563-591320", "website": "https://www.arnoldclark.com/find-a-dealer/kilmarnock-peugeot/ref/arnef", "opening_hours": "Mo-Fr 08:00-19:00; Sa 09:00-18:00; Su 11:00-18:00", "image": "https://ac-branches.s3.amazonaws.com/branches/kilmarnock-peugeot-toyota_daec5cd75f6fa6e9b3f1adb8cc0acc37d52581f3.jpg", "brand": "Arnold Clark", "brand:wikidata": "Q29344371"}, "geometry": {"type": "Point", "coordinates": [-4.505511, 55.617869]}},
{"type": "Feature", "id": "reZyPE_WIl6y1rnJx_GOHW45q9c=", "properties": {"ref": "commercial1", "@spider": "arnold_clark", "addr:street_address": "Victoria Road East,", "addr:city": "Kilmarnock", "addr:postcode": "KA1 3XF", "name": "Kilmarnock Ford Transit Centre", "phone": "+44-1563-555100", "website": "https://www.arnoldclark.com/find-a-dealer/kilmarnock-ford-transit-centre/ref/commercial1", "opening_hours": "Mo-Fr 08:30-18:00; Sa 09:00-12:00; Su 00:00-24:00", "image": "https://ac-branches.s3.amazonaws.com/branches/kilmarnock-ford-transit-centre_d889a2fec844f71dec0173f9c97f5220d67b9527.jpg", "brand": "Arnold Clark", "brand:wikidata": "Q29344371"}, "geometry": {"type": "Point", "coordinates": [-4.48840856552124, 55.60205081662888]}},
{"type": "Feature", "id": "ZjDeFwX1Lg0NWGt9sYypQ4TqAuA=", "properties": {"ref": "arncd", "@spider": "arnold_clark", "addr:street_address": "Queen&#39;s Drive,", "addr:city": "Kilmarnock", "addr:state": "South", "addr:postcode": "KA1 3XF", "name": "Kilmarnock Ford", "phone": "+44-1563-555160", "website": "https://www.arnoldclark.com/find-a-dealer/kilmarnock-ford/ref/arncd", "opening_hours": "Mo-Fr 09:00-19:00; Sa 09:00-18:00; Su 11:00-18:00", "image": "https://ac-branches.s3.amazonaws.com/branches/kilmarnock-ford_483f3ae9c5978105dd6cd429edb0527c9a8b764e.jpg", "brand": "Arnold Clark", "brand:wikidata": "Q29344371"}, "geometry": {"type": "Point", "coordinates": [-4.488644599914551, 55.60204475550692]}},
{"type": "Feature", "id": "o0tTvRZbGLP5xO6dnqigxhXT0W8=", "properties": {"ref": "arnhk", "@spider": "arnold_clark", "addr:street_address": "4 Victoria East Road,", "addr:city": "Kilmarnock", "addr:state": "East Ayrshire", "addr:postcode": "KA1 3XJ", "name": "Kilmarnock Citro\u00ebn", "phone": "+44-1563-597040", "website": "https://www.arnoldclark.com/find-a-dealer/kilmarnock-citroen/ref/arnhk", "opening_hours": "Mo-Fr 09:00-19:00; Sa 09:00-18:00; Su 11:00-18:00", "image": "https://ac-branches.s3.amazonaws.com/branches/kilmarnock-citroen_0d7284591d9db010f468cea94da62b6a50a1304b.jpg", "brand": "Arnold Clark", "brand:wikidata": "Q29344371"}, "geometry": {"type": "Point", "coordinates": [-4.486385400000017, 55.60195779999999]}},
{"type": "Feature", "id": "WVXZ9IulcGaWWB_vOGv5u_tsBZo=", "properties": {"ref": "arngc", "@spider": "arnold_clark", "addr:street_address": "Mintsfeet Road,", "addr:city": "Kendal", "addr:postcode": "LA9 6NN", "name": "Kendal Vauxhall", "phone": "+44-1539-762230", "website": "https://www.arnoldclark.com/find-a-dealer/kendal-vauxhall/ref/arngc", "opening_hours": "Mo-Fr 09:00-19:00; Sa 09:00-17:00; Su 11:00-17:00", "image": "https://ac-branches.s3.amazonaws.com/branches/kendal-vauxhall_e6e73d3753aa66066edf79a4ec5340690ede4990.jpg", "brand": "Arnold Clark", "brand:wikidata": "Q29344371"}, "geometry": {"type": "Point", "coordinates": [-2.7422046661376953, 54.33698873744662]}},
{"type": "Feature", "id": "pf2g_WxD8h0hAanvjvfxGUpqRr8=", "properties": {"ref": "003m", "@spider": "arnold_clark", "addr:street_address": "Ayr Road,", "addr:city": "Irvine", "addr:postcode": "KA12 8BZ", "name": "Irvine MINI", "phone": "+44-1294-440847", "website": "https://www.arnoldclark.com/find-a-dealer/irvine-mini/ref/003m", "opening_hours": "Mo-Fr 09:00-19:00; Sa 09:00-18:00; Su 11:00-18:00", "image": "https://ac-branches.s3.amazonaws.com/branches/irvine-mini_bd553318de359cf39c5cf311551e825232bd4d95.jpg", "brand": "Arnold Clark", "brand:wikidata": "Q29344371"}, "geometry": {"type": "Point", "coordinates": [-4.664655, 55.603439]}},
{"type": "Feature", "id": "pw7Mfdl-l8FCislRB2zQl4IUFBk=", "properties": {"ref": "arn05d", "@spider": "arnold_clark", "addr:street_address": "Ayr Road,", "addr:city": "Irvine", "addr:postcode": "KA12 8BZ", "name": "Irvine BMW", "phone": "+44-1294-440814", "website": "https://www.arnoldclark.com/find-a-dealer/irvine-bmw/ref/arn05d", "opening_hours": "Mo-Fr 09:00-19:00; Sa 09:00-18:00; Su 11:00-18:00", "image": "https://ac-branches.s3.amazonaws.com/branches/irvine-bmw_39072b19542d81824c0807686da182a2fe510c78.jpg", "brand": "Arnold Clark", "brand:wikidata": "Q29344371"}, "geometry": {"type": "Point", "coordinates": [-4.664655, 55.603439]}},
{"type": "Feature", "id": "v8JTxV1B0cMx0QTjcRcPMGWsld4=", "properties": {"ref": "arner", "@spider": "arnold_clark", "addr:street_address": "34 Longman Road,", "addr:city": "Inverness", "addr:state": "North", "addr:postcode": "IV1 1RY", "name": "Inverness Volvo", "phone": "+44-1463-214834", "website": "https://www.arnoldclark.com/find-a-dealer/inverness-volvo/ref/arner", "opening_hours": "Mo-Th 09:00-19:00; Fr 09:00-18:00; Sa 09:00-17:30; Su 12:00-17:30", "image": "https://ac-branches.s3.amazonaws.com/branches/inverness-volvo_db8c5bca70c91cad3e51196d457a8c4734d1b57a.jpg", "brand": "Arnold Clark", "brand:wikidata": "Q29344371"}, "geometry": {"type": "Point", "coordinates": [-4.2217084765434265, 57.484163682117185]}},
{"type": "Feature", "id": "-b0hXUmfvSUkzDE4-VpFglQV67A=", "properties": {"ref": "arngq", "@spider": "arnold_clark", "addr:street_address": "Harbour Road,", "addr:city": "Inverness", "addr:postcode": "IV1 1LN", "name": "Inverness Renault / Dacia", "phone": "+44-1463-217541", "website": "https://www.arnoldclark.com/find-a-dealer/inverness-renault-dacia/ref/arngq", "opening_hours": "Mo-Fr 09:00-19:00; Sa 09:00-18:00; Su 11:00-18:00", "image": "https://ac-branches.s3.amazonaws.com/branches/inverness-renault-dacia_db3c4f150402910489640760634cc6aa7c138093.jpg", "brand": "Arnold Clark", "brand:wikidata": "Q29344371"}, "geometry": {"type": "Point", "coordinates": [-4.211011, 57.484498]}},
{"type": "Feature", "id": "0OVX7g1ccf5c9q5P5e6QCVHn8v4=", "properties": {"ref": "arnes", "@spider": "arnold_clark", "addr:street_address": "36 Harbour Rd,", "addr:city": "Inverness", "addr:state": "North", "addr:postcode": "IV1 1UB", "name": "Inverness Peugeot / Citro\u00ebn", "phone": "+44-1463-217420", "website": "https://www.arnoldclark.com/find-a-dealer/inverness-peugeot-citroen/ref/arnes", "opening_hours": "Mo-Th 09:00-19:00; Fr-Sa 09:00-18:00; Su 11:00-17:00", "image": "https://ac-branches.s3.amazonaws.com/branches/inverness-peugeot_8a60927d6a2a212146147707b7fdb0b02d05fbcd.jpg", "brand": "Arnold Clark", "brand:wikidata": "Q29344371"}, "geometry": {"type": "Point", "coordinates": [-4.214378, 57.48512]}},
{"type": "Feature", "id": "eI1sUMleK5dUQnF17-eY1Dg9amc=", "properties": {"ref": "arnbz", "@spider": "arnold_clark", "addr:street_address": "47 Harbour Rd,", "addr:city": "Inverness", "addr:state": "North", "addr:postcode": "IV1 1UF", "name": "Inverness Motorstore / Hyundai", "phone": "+44-146-321-4875", "website": "https://www.arnoldclark.com/find-a-dealer/inverness-motorstore-hyundai/ref/arnbz", "opening_hours": "Mo-Fr 09:00-19:00; Sa 09:00-18:00; Su 11:00-18:00", "image": "https://ac-branches.s3.amazonaws.com/branches/inverness-motorstore-hyundai_7c548c82f2bc5773e3864b8c1b70b319a86a0401.jpg", "brand": "Arnold Clark", "brand:wikidata": "Q29344371"}, "geometry": {"type": "Point", "coordinates": [-4.208584, 57.48505]}},
{"type": "Feature", "id": "hdZRylSBeLWTdTAIrC7ZMYP-lX0=", "properties": {"ref": "011m", "@spider": "arnold_clark", "addr:street_address": "32 Longman Rd,", "addr:city": "Inverness", "addr:postcode": "IV1 1RY", "name": "Inverness MINI", "phone": "+44-1463-217527", "website": "https://www.arnoldclark.com/find-a-dealer/inverness-mini/ref/011m", "opening_hours": "Mo-Th 09:00-19:00; Fr 09:00-18:00; Sa 09:00-17:00; Su 12:00-17:00", "image": "https://ac-branches.s3.amazonaws.com/branches/inverness-mini_ae682003277c931aec98f682785fe706fd6281eb.jpg", "brand": "Arnold Clark", "brand:wikidata": "Q29344371"}, "geometry": {"type": "Point", "coordinates": [-4.213918, 57.487618]}},
{"type": "Feature", "id": "FTJz3IO7y03Xu-FxDPPrun8jTmw=", "properties": {"ref": "arn11d", "@spider": "arnold_clark", "addr:street_address": "32 Longman Rd,", "addr:city": "Inverness", "addr:postcode": "IV1 1RY", "name": "Inverness BMW", "phone": "+44-1463-217512", "website": "https://www.arnoldclark.com/find-a-dealer/inverness-bmw/ref/arn11d", "opening_hours": "Mo-Th 09:00-19:00; Fr 09:00-18:00; Sa 09:00-17:00; Su 12:00-17:00", "image": "https://ac-branches.s3.amazonaws.com/branches/inverness-bmw_8dfe173a3c9ad47e9be2b4f4e9ed711771ab4eed.jpg", "brand": "Arnold Clark", "brand:wikidata": "Q29344371"}, "geometry": {"type": "Point", "coordinates": [-4.221546, 57.484161]}},
{"type": "Feature", "id": "qXDMVAHAWeyqQQq40wR8PGntN_Q=", "properties": {"ref": "arnhy", "@spider": "arnold_clark", "addr:street_address": "701 Dumbarton Road,", "addr:city": "Glasgow", "addr:state": "Glasgow City", "addr:postcode": "G11 6NA", "name": "Innovation Centre", "phone": "+44-141-739-8705", "website": "https://www.arnoldclark.com/find-a-dealer/innovation-centre/ref/arnhy", "opening_hours": "Mo-Sa 09:00-18:00; Su 11:00-18:00", "image": "https://ac-branches.s3.amazonaws.com/branches/innovation-centre_13a72803cdcdd37b46dfbd049504f1ecfaa3d16b.jpg", "brand": "Arnold Clark", "brand:wikidata": "Q29344371"}, "geometry": {"type": "Point", "coordinates": [-4.3269812, 55.871866]}},
{"type": "Feature", "id": "8OzUMq3Zxu8sC82VlueJQKpingM=", "properties": {"ref": "arnco", "@spider": "arnold_clark", "addr:street_address": "649 Leeds Road,", "addr:city": "Huddersfield", "addr:postcode": "HD2 1YS", "name": "Huddersfield Renault / Dacia", "phone": "+44-1484-955460", "website": "https://www.arnoldclark.com/find-a-dealer/huddersfield-renault-dacia/ref/arnco", "opening_hours": "Mo-Fr 09:00-19:00; Sa 09:00-18:00; Su 11:00-18:00", "image": "https://ac-branches.s3.amazonaws.com/branches/huddersfield-renault-dacia_60da8594743e2b5dff9497340998711c96226ae6.jpg", "brand": "Arnold Clark", "brand:wikidata": "Q29344371"}, "geometry": {"type": "Point", "coordinates": [-1.755903, 53.663027]}},
{"type": "Feature", "id": "sQAE-5FMHAV5Lk3CZQCXStmguMk=", "properties": {"ref": "arnal", "@spider": "arnold_clark", "addr:street_address": "386 Leeds Rd,", "addr:city": "Huddersfield", "addr:state": "England", "addr:postcode": "HD2 1XL", "name": "Huddersfield Motorstore", "phone": "+44-1484-955670", "website": "https://www.arnoldclark.com/find-a-dealer/huddersfield-motorstore/ref/arnal", "opening_hours": "Mo-Fr 09:00-19:00; Sa 09:00-18:00; Su 11:00-17:00", "image": "https://ac-branches.s3.amazonaws.com/branches/huddersfield-motorstore_c50310bcd35b2232b7e4bf51caf6fb0185dd7a64.jpg", "brand": "Arnold Clark", "brand:wikidata": "Q29344371"}, "geometry": {"type": "Point", "coordinates": [-1.764003038406372, 53.65945393819648]}},
{"type": "Feature", "id": "FNiaKl-KgOPWFrkbsSAbAONSxa0=", "properties": {"ref": "arnevc", "@spider": "arnold_clark", "addr:street_address": "454 Hillington Road,", "addr:city": "Glasgow", "addr:postcode": "G52 4FH", "name": "Hillington Vanstore", "phone": "+44-141-648-7356", "website": "https://www.arnoldclark.com/find-a-dealer/hillington-vanstore/ref/arnevc", "opening_hours": "Mo-Fr 09:00-19:00; Sa 09:00-18:00; Su 11:00-18:00", "image": "https://ac-branches.s3.amazonaws.com/branches/hillington-vanstore_5199d0397d2009265e61bacc9f11b2f7faee5118.jpg", "brand": "Arnold Clark", "brand:wikidata": "Q29344371"}, "geometry": {"type": "Point", "coordinates": [-4.363779, 55.864072]}},
{"type": "Feature", "id": "tmw455ts00ZCuEs8xzpeEpEMueA=", "properties": {"ref": "arnev", "@spider": "arnold_clark", "addr:street_address": "454 Hillington Road,", "addr:city": "Glasgow", "addr:state": "Glasgow", "addr:postcode": "G52 4FH", "name": "Hillington Renault / Dacia / Alpine", "phone": "+44-141-648-7351", "website": "https://www.arnoldclark.com/find-a-dealer/hillington-renault-dacia-alpine/ref/arnev", "opening_hours": "Mo-Fr 09:00-19:00; Sa 09:00-18:00; Su 11:00-18:00", "image": "https://ac-branches.s3.amazonaws.com/branches/hillington-renault-dacia-alpine_d24dd5a3f34ab446734b772b824811d84aacf870.jpg", "brand": "Arnold Clark", "brand:wikidata": "Q29344371"}, "geometry": {"type": "Point", "coordinates": [-4.362916, 55.86407]}},
{"type": "Feature", "id": "EJzRvQeldHQi-Q6P35QBR1PCzlY=", "properties": {"ref": "arnap", "@spider": "arnold_clark", "addr:street_address": "Corbridge Road,", "addr:city": "Hexham", "addr:postcode": "NE46 1UL", "name": "Hexham Used Car Centre", "phone": "+44-1434-693730", "website": "https://www.arnoldclark.com/find-a-dealer/hexham-used-car-centre/ref/arnap", "opening_hours": "Mo-Fr 08:45-19:00; Sa 08:45-17:00; Su 11:00-17:00", "image": "https://ac-branches.s3.amazonaws.com/branches/hexham-ford_5c10c50891e828acd6f6dc773cb542e77b72d890.jpg", "brand": "Arnold Clark", "brand:wikidata": "Q29344371"}, "geometry": {"type": "Point", "coordinates": [-2.0734548568725586, 54.969091144972744]}},
{"type": "Feature", "id": "A2vYuwsaiXzOCWB7jZwVkQlm1vY=", "properties": {"ref": "arnem", "@spider": "arnold_clark", "addr:street_address": "Pottery Street,", "addr:city": "Greenock", "addr:state": "Glasgow", "addr:postcode": "PA15 2UH", "name": "Greenock Used Car Centre", "phone": "+44-1475-603484", "website": "https://www.arnoldclark.com/find-a-dealer/greenock-used-car-centre/ref/arnem", "opening_hours": "Mo-Fr 09:00-19:00; Sa 09:00-18:00; Su 11:00-18:00", "image": "https://ac-branches.s3.amazonaws.com/branches/greenock-used-car-centre_6975224885fa9a03e73988b90e7d9a2d44cd64f9.jpg", "brand": "Arnold Clark", "brand:wikidata": "Q29344371"}, "geometry": {"type": "Point", "coordinates": [-4.720151, 55.939673]}},
{"type": "Feature", "id": "HMkrBV8yg_FycvjVYgvvxqBgbCM=", "properties": {"ref": "arnbr", "@spider": "arnold_clark", "addr:street_address": "Beancross Rd,", "addr:city": "Grangemouth", "addr:state": "Central", "addr:postcode": "FK3 8YL", "name": "Grangemouth Renault / Dacia", "phone": "+44-1324-463104", "website": "https://www.arnoldclark.com/find-a-dealer/grangemouth-renault-dacia/ref/arnbr", "opening_hours": "Mo-Th 09:00-19:00; Fr 08:30-18:00; Sa 09:00-18:00; Su 11:00-18:00", "image": "https://ac-branches.s3.amazonaws.com/branches/grangemouth-renault-dacia_83a3cb09c553690a36f1c3fc73e6548f198de75a.jpg", "brand": "Arnold Clark", "brand:wikidata": "Q29344371"}, "geometry": {"type": "Point", "coordinates": [-3.736846, 56.007067]}},
{"type": "Feature", "id": "3eaNRlkZFEnTOJfZVC9E2JMT0o4=", "properties": {"ref": "arnfz", "@spider": "arnold_clark", "addr:street_address": "29 Dalmarnock Road,", "addr:city": "Rutherglen", "addr:postcode": "G73 1AE", "name": "Glasgow Volkswagen / MG (East)", "phone": "+44-141-648-4860", "website": "https://www.arnoldclark.com/find-a-dealer/glasgow-volkswagen-mg-east/ref/arnfz", "opening_hours": "Mo-Fr 09:00-19:00; Sa 09:00-18:00; Su 11:00-18:00", "image": "https://ac-branches.s3.amazonaws.com/branches/rutherglen-volkswagen-mg_b9129a81d0fe0e3bd53b8f1c30b6c7e0e3d919af.jpg", "brand": "Arnold Clark", "brand:wikidata": "Q29344371"}, "geometry": {"type": "Point", "coordinates": [-4.207098484039307, 55.83548187331104]}},
{"type": "Feature", "id": "XdpQwJOYZKrZ67kWCDNmt3uUp-A=", "properties": {"ref": "arnck", "@spider": "arnold_clark", "addr:street_address": "1646 Pollokshaws Road,", "addr:city": "Glasgow", "addr:state": "Glasgow", "addr:postcode": "G43 1RQ", "name": "Glasgow Volkswagen (South)", "phone": "+44-141-648-6518", "website": "https://www.arnoldclark.com/find-a-dealer/glasgow-volkswagen-south/ref/arnck", "opening_hours": "Mo-Fr 09:00-19:00; Sa 09:00-18:00; Su 11:00-18:00", "image": "https://ac-branches.s3.amazonaws.com/branches/glasgow-volkswagen-south_7094008d37d0428128d6ca44a8bc14aaabb6afde.jpg", "brand": "Arnold Clark", "brand:wikidata": "Q29344371"}, "geometry": {"type": "Point", "coordinates": [-4.296612, 55.827756]}},
{"type": "Feature", "id": "ln0LcwUoC1_lhgSzmbr2by8FfUs=", "properties": {"ref": "arncn", "@spider": "arnold_clark", "addr:street_address": "459 Crow Rd,", "addr:city": "Glasgow", "addr:state": "Glasgow", "addr:postcode": "G11 7DN", "name": "Glasgow Volkswagen (North)", "phone": "+44-141-435-5400", "website": "https://www.arnoldclark.com/find-a-dealer/glasgow-volkswagen-north/ref/arncn", "opening_hours": "Mo-Fr 09:00-19:00; Sa 09:00-18:00; Su 11:00-18:00", "image": "https://ac-branches.s3.amazonaws.com/branches/glasgow-volkswagen-north_55223be315c7021a6059924978d1bc7521f9f4b4.jpg", "brand": "Arnold Clark", "brand:wikidata": "Q29344371"}, "geometry": {"type": "Point", "coordinates": [-4.327278, 55.882239]}},
{"type": "Feature", "id": "KcjY6qmwCBFGHubDEjsNMuAzqw4=", "properties": {"ref": "gvbc", "@spider": "arnold_clark", "addr:street_address": "55 Hamilton Road, Mount Vernon", "addr:city": "Glasgow", "addr:postcode": "G32 9QQ", "name": "Glasgow Vauxhall Business Centre", "phone": "+44-141-648-4909", "website": "https://www.arnoldclark.com/find-a-dealer/glasgow-vauxhall-business-centre/ref/gvbc", "opening_hours": "Mo-Fr 09:00-19:00; Sa 09:00-18:00; Su 11:00-18:00", "image": "https://ac-branches.s3.amazonaws.com/branches/glasgow-vauxhall-business-centre_dcb13b24661e72ca7ed32607b11243c76f84702e.jpg", "brand": "Arnold Clark", "brand:wikidata": "Q29344371"}, "geometry": {"type": "Point", "coordinates": [-4.155535697937012, 55.84038591734251]}},
{"type": "Feature", "id": "xuG8qAPdD9tX4dSqZaLG-i7dLf4=", "properties": {"ref": "arnae", "@spider": "arnold_clark", "addr:street_address": "531 Garscube Rd,", "addr:city": "Glasgow", "addr:state": "Glasgow", "addr:postcode": "G20 7LD", "name": "Glasgow Vauxhall (North)", "phone": "+44-141-422-2820", "website": "https://www.arnoldclark.com/find-a-dealer/glasgow-vauxhall-north/ref/arnae", "opening_hours": "Mo-Fr 09:00-19:00; Sa 09:00-18:00; Su 11:00-18:00", "image": "https://ac-branches.s3.amazonaws.com/branches/glasgow-vauxhall-north_8576d63e1f5ae744a4bfae7af0dccb33f2802353.jpg", "brand": "Arnold Clark", "brand:wikidata": "Q29344371"}, "geometry": {"type": "Point", "coordinates": [-4.265678, 55.87663]}},
{"type": "Feature", "id": "tPZhKU3vVLuwH3Ei5ppuhfjYIXc=", "properties": {"ref": "arnbm", "@spider": "arnold_clark", "addr:street_address": "55 Hamilton Rd, Mount Vernon", "addr:city": "Glasgow", "addr:state": "Glasgow", "addr:postcode": "G32 9QQ", "name": "Glasgow Vauxhall", "phone": "+44-141-648-4893", "website": "https://www.arnoldclark.com/find-a-dealer/glasgow-vauxhall/ref/arnbm", "opening_hours": "Mo-Fr 09:00-19:00; Sa 09:00-18:00; Su 11:00-18:00", "image": "https://ac-branches.s3.amazonaws.com/branches/glasgow-vauxhall_d3287c3f0231c637268aa9a9ec7ee70235ce572e.jpg", "brand": "Arnold Clark", "brand:wikidata": "Q29344371"}, "geometry": {"type": "Point", "coordinates": [-4.156179428100586, 55.84057869267889]}},
{"type": "Feature", "id": "mBv14rhtPAROv_cX3NfHjxCVRXw=", "properties": {"ref": "arnhj", "@spider": "arnold_clark", "addr:street_address": "149 Kilbirnie Street,", "addr:city": "Glasgow", "addr:state": "Glasgow", "addr:postcode": "G5 8JH", "name": "Glasgow Vanstore", "phone": "+44-141-429-5123", "website": "https://www.arnoldclark.com/find-a-dealer/glasgow-vanstore/ref/arnhj", "opening_hours": "Mo-Fr 09:00-17:30; Sa 09:00-12:00; Su 00:00-24:00", "image": "https://ac-branches.s3.amazonaws.com/branches/glasgow-vanstore_d328cd6e47a991d9762f4a4b90c452804fceae10.jpg", "brand": "Arnold Clark", "brand:wikidata": "Q29344371"}, "geometry": {"type": "Point", "coordinates": [-4.268707, 55.8466]}},
{"type": "Feature", "id": "XO5bHIszCiWMJbPCk90r6DdvMC8=", "properties": {"ref": "arnbj", "@spider": "arnold_clark", "addr:street_address": "226 South Street,", "addr:city": "Glasgow", "addr:state": "Glasgow", "addr:postcode": "G11 6JY", "name": "Glasgow South Street Vauxhall/Peugeot/Citro\u00ebn/Mazda", "phone": "+44-141-435-5510", "website": "https://www.arnoldclark.com/find-a-dealer/glasgow-south-street-vauxhall-peugeot-citroen-mazda/ref/arnbj", "opening_hours": "Mo-Fr 09:00-19:00; Sa 09:00-18:00; Su 11:00-18:00", "image": "https://ac-branches.s3.amazonaws.com/branches/glasgow-south-street-vauxhall-peugeot-citroen-mazda_1492d67c7aab2572546d32090a0a9da6779e8dce.jpg", "brand": "Arnold Clark", "brand:wikidata": "Q29344371"}, "geometry": {"type": "Point", "coordinates": [-4.33685302734375, 55.87220499441543]}},
{"type": "Feature", "id": "v2LinrsPfzsGSP-6dORFz4RZ2yI=", "properties": {"ref": "arnge", "@spider": "arnold_clark", "addr:street_address": "274-304 Shields Road, Kinning Park", "addr:city": "Glasgow", "addr:postcode": "G41 1LA", "name": "Glasgow Shields Road", "phone": "+44-141-739-0704", "website": "https://www.arnoldclark.com/find-a-dealer/glasgow-shields-road/ref/arnge", "opening_hours": "Mo-Th 09:00-19:00; Fr 09:00-18:00; Sa 09:00-17:00; Su 12:00-17:00", "image": "https://ac-branches.s3.amazonaws.com/branches/glasgow-shields-road_89b6eda5dbc62bfe405e32ab22068a297dbca15c.jpg", "brand": "Arnold Clark", "brand:wikidata": "Q29344371"}, "geometry": {"type": "Point", "coordinates": [-4.2758166790008545, 55.84858404920848]}},
{"type": "Feature", "id": "GSG8jbx012CeHe82Tu1TJA3p9v8=", "properties": {"ref": "arnfc", "@spider": "arnold_clark", "addr:street_address": "470 Royston Rd,", "addr:city": "Glasgow", "addr:state": "Glasgow", "addr:postcode": "G21 2BE", "name": "Glasgow SEAT / CUPRA (North)", "phone": "+44-141-559-4800", "website": "https://www.arnoldclark.com/find-a-dealer/glasgow-seat-cupra-north/ref/arnfc", "opening_hours": "Mo-Fr 09:00-19:00; Sa 09:00-18:00; Su 11:00-18:00", "image": "https://ac-branches.s3.amazonaws.com/branches/glasgow-seat-cupra-north_0acfd7cf942481f814a4a0fa7beacdead7701163.jpg", "brand": "Arnold Clark", "brand:wikidata": "Q29344371"}, "geometry": {"type": "Point", "coordinates": [-4.215986, 55.872376]}},
{"type": "Feature", "id": "XbZ_2O1F0tckXunLVT0dyyQkB6M=", "properties": {"ref": "arncq", "@spider": "arnold_clark", "addr:street_address": "30 Hamilton Rd, Mount Vernon", "addr:city": "Glasgow", "addr:state": "Glasgow", "addr:postcode": "G32 9QA", "name": "Glasgow Peugeot", "phone": "+44-141-763-3380", "website": "https://www.arnoldclark.com/find-a-dealer/glasgow-peugeot/ref/arncq", "opening_hours": "Mo-Fr 08:00-19:00; Sa 08:00-18:00; Su 11:00-18:00", "image": "https://ac-branches.s3.amazonaws.com/branches/glasgow-peugeot_d1f2b7811338fe21ff7b84907030545b6f946fd7.jpg", "brand": "Arnold Clark", "brand:wikidata": "Q29344371"}, "geometry": {"type": "Point", "coordinates": [-4.158947, 55.84084]}},
{"type": "Feature", "id": "0cjtcXHcyY9rFeePGYk35TJYHzU=", "properties": {"ref": "acgpc", "@spider": "arnold_clark", "addr:street_address": "1394 South Street,", "addr:city": "Glasgow", "addr:state": "Glasgow City", "addr:postcode": "G14 0AP", "name": "Glasgow Parts Centre", "phone": "+44-141-950-4010", "website": "https://www.arnoldclark.com/find-a-dealer/glasgow-parts-centre/ref/acgpc", "image": "https://ac-branches.s3.amazonaws.com/branches/glasgow-parts-centre_9df989662ccb9f0e707b94625fb5656f790b0d44.jpg", "brand": "Arnold Clark", "brand:wikidata": "Q29344371"}, "geometry": {"type": "Point", "coordinates": [-4.354421799999955, 55.8769401]}},
{"type": "Feature", "id": "X_aHdfC24DlkphiaTRLLHthaivg=", "properties": {"ref": "004m", "@spider": "arnold_clark", "addr:street_address": "139 Burnfield Road, Giffnock", "addr:city": "Glasgow", "addr:postcode": "G46 7TS", "name": "Glasgow MINI", "phone": "+44-141-648-7720", "website": "https://www.arnoldclark.com/find-a-dealer/glasgow-mini/ref/004m", "opening_hours": "Mo-Fr 08:30-19:00; Sa 09:00-18:00; Su 11:00-18:00", "image": "https://ac-branches.s3.amazonaws.com/branches/harry-fairbairn-mini-glasgow_54b863412899666f598108ac316b8b1e62a1d7ab.jpg", "brand": "Arnold Clark", "brand:wikidata": "Q29344371"}, "geometry": {"type": "Point", "coordinates": [-4.291324, 55.814083]}},
{"type": "Feature", "id": "UJEtr9seIUtI6kZc1DIoBOhXIZA=", "properties": {"ref": "arnak", "@spider": "arnold_clark", "addr:street_address": "15 Westhorn Drive,", "addr:city": "Glasgow", "addr:state": "Glasgow", "addr:postcode": "G32 8YX", "name": "Glasgow London Road Motorstore", "phone": "+44-141-764-2235", "website": "https://www.arnoldclark.com/find-a-dealer/glasgow-london-road-motorstore/ref/arnak", "opening_hours": "Mo-Th 09:00-19:00; Fr 08:30-19:00; Sa 08:45-18:00; Su 11:00-18:00", "image": "https://ac-branches.s3.amazonaws.com/branches/glasgow-london-road-motorstore_34b451483340da1ae83b8c2d7519c939840faf08.jpg", "brand": "Arnold Clark", "brand:wikidata": "Q29344371"}, "geometry": {"type": "Point", "coordinates": [-4.169783, 55.835875]}},
{"type": "Feature", "id": "x2yVC4PHVQAh5SfsAW0my4bVFFg=", "properties": {"ref": "arneh", "@spider": "arnold_clark", "addr:street_address": "915 Springburn Road,", "addr:city": "Springburn", "addr:postcode": "G21 1LZ", "name": "Glasgow Fiat / Kia / Abarth (North)", "phone": "+44-141-422-2714", "website": "https://www.arnoldclark.com/find-a-dealer/glasgow-fiat-kia-abarth-north/ref/arneh", "opening_hours": "Mo-Fr 09:00-19:00; Sa 09:00-18:00; Su 11:00-18:00", "image": "https://ac-branches.s3.amazonaws.com/branches/glasgow-fiat-kia-abarth-north_e2331a4eb7ad2f7296a98cea3aac540cf3eb7254.jpg", "brand": "Arnold Clark", "brand:wikidata": "Q29344371"}, "geometry": {"type": "Point", "coordinates": [-4.233298301696777, 55.88782798716233]}},
{"type": "Feature", "id": "O18CsySckaF77SOn3xJwTxNcLdg=", "properties": {"ref": "arn04ds", "@spider": "arnold_clark", "addr:street_address": "Burnfield Road, Giffnock", "addr:city": "Glasgow", "addr:postcode": "G46 7TS", "name": "Glasgow BMW Service Centre", "phone": "+44-141-648-7720", "website": "https://www.arnoldclark.com/find-a-dealer/glasgow-bmw-service-centre/ref/arn04ds", "image": "https://ac-branches.s3.amazonaws.com/branches/glasgow-bmw-service-centre_71f9616d25557bb0c626d9309bf3bce3f33328cf.jpg", "brand": "Arnold Clark", "brand:wikidata": "Q29344371"}, "geometry": {"type": "Point", "coordinates": [-4.299787, 55.80889]}},
{"type": "Feature", "id": "2_mjwFKZWpcZNvhMbN8no_c9RMY=", "properties": {"ref": "arn04d", "@spider": "arnold_clark", "addr:street_address": "167 Fenwick Road, Giffnock", "addr:city": "Glasgow", "addr:postcode": "G46 6JB", "name": "Glasgow BMW", "phone": "+44-141-648-7753", "website": "https://www.arnoldclark.com/find-a-dealer/glasgow-bmw/ref/arn04d", "opening_hours": "Mo-Fr 08:30-19:00; Sa 09:00-18:00; Su 11:00-18:00", "image": "https://ac-branches.s3.amazonaws.com/branches/harry-fairbairn-bmw-glasgow_26411928952055c353c527a60d72a2582f791b5f.jpg", "brand": "Arnold Clark", "brand:wikidata": "Q29344371"}, "geometry": {"type": "Point", "coordinates": [-4.293465, 55.806945]}},
{"type": "Feature", "id": "v_RSMP5MOPTrcdwl4I14YXnR_RA=", "properties": {"ref": "arnda", "@spider": "arnold_clark", "addr:street_address": "Kirkintilloch Rd,", "addr:city": "Bishopbriggs", "addr:state": "Glasgow", "addr:postcode": "G64 2AL", "name": "Glasgow Bishopbriggs MG", "phone": "+44-141-761-4606", "website": "https://www.arnoldclark.com/find-a-dealer/glasgow-bishopbriggs-mg/ref/arnda", "opening_hours": "Mo-Fr 09:00-19:00; Sa 09:00-18:00; Su 11:00-18:00", "image": "https://ac-branches.s3.amazonaws.com/branches/glasgow-bishopbriggs-mg_fc3b49ba3f0439223945c1946b53dd3af1851cab.jpg", "brand": "Arnold Clark", "brand:wikidata": "Q29344371"}, "geometry": {"type": "Point", "coordinates": [-4.231147, 55.898957]}},
{"type": "Feature", "id": "DDGuuKh2OFT7IdxZrJcphH7ZFY4=", "properties": {"ref": "audi02", "@spider": "arnold_clark", "addr:street_address": "459 Crow Road,", "addr:city": "Glasgow", "addr:state": "Glasgow City", "addr:postcode": "G11 7DN", "name": "Glasgow Audi Service Centre", "phone": "+44-141-406-6060", "website": "https://www.arnoldclark.com/find-a-dealer/glasgow-audi-service-centre/ref/audi02", "image": "https://ac-branches.s3.amazonaws.com/branches/glasgow-audi-service-centre_022b790d794e1052d7d1cfaaf43e9d217091686b.jpg", "brand": "Arnold Clark", "brand:wikidata": "Q29344371"}, "geometry": {"type": "Point", "coordinates": [-4.3277702, 55.8816825]}},
{"type": "Feature", "id": "OxAxbScQcW0WpnvpjgYao6uAb74=", "properties": {"ref": "arndo", "@spider": "arnold_clark", "addr:street_address": "345 Alexandra Parade,", "addr:city": "Glasgow", "addr:postcode": "G31 3AD", "name": "Glasgow Alexandra Parade Hyundai", "phone": "+44-141-422-2780", "website": "https://www.arnoldclark.com/find-a-dealer/glasgow-alexandra-parade-hyundai/ref/arndo", "opening_hours": "Mo-Fr 09:00-19:00; Sa 09:00-18:00; Su 11:00-18:00", "image": "https://ac-branches.s3.amazonaws.com/branches/glasgow-alexandra-parade-hyundai_b8d2ca54963e23b6358ee2541b210993e0efa198.jpg", "brand": "Arnold Clark", "brand:wikidata": "Q29344371"}, "geometry": {"type": "Point", "coordinates": [-4.222459, 55.864872]}},
{"type": "Feature", "id": "JOMd69Zpr5v9qkNzOLMmr7gwlDs=", "properties": {"ref": "arneu", "@spider": "arnold_clark", "addr:street_address": "Falkirk Road,", "addr:city": "Grangemouth", "addr:state": "Central", "addr:postcode": "FK3 8XP", "name": "Falkirk Fiat / Abarth", "phone": "+44-1324-463383", "website": "https://www.arnoldclark.com/find-a-dealer/falkirk-fiat-abarth/ref/arneu", "opening_hours": "Mo-Fr 09:00-19:00; Sa 09:00-18:00; Su 11:00-18:00", "image": "https://ac-branches.s3.amazonaws.com/branches/falkirk-fiat-abarth_29c1d36abb121014d41c7737a165ec2f79ca3fbe.jpg", "brand": "Arnold Clark", "brand:wikidata": "Q29344371"}, "geometry": {"type": "Point", "coordinates": [-3.746748, 56.011637]}},
{"type": "Feature", "id": "DFohHn3oW6HJPIKNjZrZg6D51Lc=", "properties": {"ref": "arngr", "@spider": "arnold_clark", "addr:street_address": "Linkwood Place,", "addr:city": "Elgin", "addr:postcode": "IV30 1HZ", "name": "Elgin Renault / Dacia", "phone": "+44-1343-614910", "website": "https://www.arnoldclark.com/find-a-dealer/elgin-renault-dacia/ref/arngr", "opening_hours": "Mo-Th 09:00-19:00; Fr 09:00-18:00; Sa 09:00-17:30; Su 11:00-17:00", "image": "https://ac-branches.s3.amazonaws.com/branches/elgin-renault-dacia_652167f1503eb069b71e771dff3916e288a4c322.jpg", "brand": "Arnold Clark", "brand:wikidata": "Q29344371"}, "geometry": {"type": "Point", "coordinates": [-3.284587, 57.64625]}},
{"type": "Feature", "id": "LsKZc_Cy9c-R6-KIht15_H71Dk4=", "properties": {"ref": "arnet", "@spider": "arnold_clark", "addr:street_address": "Edgar Rd,", "addr:city": "Elgin", "addr:state": "North", "addr:postcode": "IV30 6YQ", "name": "Elgin Fiat / Abarth", "phone": "+44-1343-614880", "website": "https://www.arnoldclark.com/find-a-dealer/elgin-fiat-abarth/ref/arnet", "opening_hours": "Mo-Fr 09:00-19:00; Sa 09:00-17:30; Su 10:00-17:00", "image": "https://ac-branches.s3.amazonaws.com/branches/elgin-fiat-abarth_264e61364bdc6df800777f91944d809c0b607855.jpg", "brand": "Arnold Clark", "brand:wikidata": "Q29344371"}, "geometry": {"type": "Point", "coordinates": [-3.316247, 57.639676]}},
{"type": "Feature", "id": "lqrjZhXbBc1avKVxt6yZAiUdJEY=", "properties": {"ref": "arnbdc", "@spider": "arnold_clark", "addr:street_address": "18 Bankhead Drive,", "addr:city": "Edinburgh", "addr:state": "Edinburgh", "addr:postcode": "EH11 4DJ", "name": "Edinburgh Sighthill Vanstore", "phone": "+44-131-378-1084", "website": "https://www.arnoldclark.com/find-a-dealer/edinburgh-sighthill-vanstore/ref/arnbdc", "opening_hours": "Mo-Fr 09:00-19:00; Sa 09:00-18:00; Su 11:00-18:00", "image": "https://ac-branches.s3.amazonaws.com/branches/edinburgh-sighthill-vanstore_81d34fd3a7352545b95c754b70143b9388fd5684.jpg", "brand": "Arnold Clark", "brand:wikidata": "Q29344371"}, "geometry": {"type": "Point", "coordinates": [-3.3007886000000326, 55.9275793]}},
{"type": "Feature", "id": "njFlSYftMNAAB-ypO4YPrT_vAJ8=", "properties": {"ref": "arnbd", "@spider": "arnold_clark", "addr:street_address": "16-18 Bankhead Drive, Sighthill Industrial Estate", "addr:city": "Edinburgh", "addr:state": "Edinburgh", "addr:postcode": "EH11 4DJ", "name": "Edinburgh Sighthill Motorstore / Fiat", "phone": "+44-131-378-1084", "website": "https://www.arnoldclark.com/find-a-dealer/edinburgh-sighthill-motorstore-fiat/ref/arnbd", "opening_hours": "Mo-Fr 09:00-19:00; Sa 09:00-18:00; Su 11:00-18:00", "image": "https://ac-branches.s3.amazonaws.com/branches/edinburgh-sighthill-motorstore-fiat_db02b7ec899d8aa89ba415a13568a45794d74f77.jpg", "brand": "Arnold Clark", "brand:wikidata": "Q29344371"}, "geometry": {"type": "Point", "coordinates": [-3.300665, 55.927407]}},
{"type": "Feature", "id": "2N0Wnw6yHrmVOyE7HCSyt7i0gSg=", "properties": {"ref": "arnha", "@spider": "arnold_clark", "addr:street_address": "8 Bankhead Drive, Sighthill", "addr:city": "Edinburgh", "addr:postcode": "EH11 4EW", "name": "Edinburgh Sighthill Citro\u00ebn / DS", "phone": "+44-131-378-2644", "website": "https://www.arnoldclark.com/find-a-dealer/edinburgh-sighthill-citroen-ds/ref/arnha", "opening_hours": "Mo-Fr 09:00-19:00; Sa 09:00-18:00; Su 11:00-18:00", "image": "https://ac-branches.s3.amazonaws.com/branches/edinburgh-sighthill-citroen-ds_dd1612dd881f50bfca04b0de6f535bda22305efb.jpg", "brand": "Arnold Clark", "brand:wikidata": "Q29344371"}, "geometry": {"type": "Point", "coordinates": [-3.301801, 55.924125]}},
{"type": "Feature", "id": "yq2uVUt64VbDWkS1nYL1lbHePpY=", "properties": {"ref": "arnec", "@spider": "arnold_clark", "addr:street_address": "Seafield Rd,", "addr:city": "Edinburgh", "addr:state": "Edinburgh", "addr:postcode": "EH15 1ED", "name": "Edinburgh Seafield Peugeot / SEAT / CUPRA / \u0160KODA", "phone": "+44-131-657-6960", "website": "https://www.arnoldclark.com/find-a-dealer/edinburgh-seafield-peugeot-seat-cupra-skoda/ref/arnec", "opening_hours": "Mo-Fr 09:00-19:00; Sa 09:00-18:00; Su 11:00-18:00", "image": "https://ac-branches.s3.amazonaws.com/branches/edinburgh-seafield-peugeot-seat-cupra-skoda_b65986cb4a7041be201ea4ef23377ae853738723.jpg", "brand": "Arnold Clark", "brand:wikidata": "Q29344371"}, "geometry": {"type": "Point", "coordinates": [-3.126215, 55.961258]}},
{"type": "Feature", "id": "TcD0vPwpLLsyteGsvbHmVHAT6N0=", "properties": {"ref": "arnbgs", "@spider": "arnold_clark", "addr:street_address": "64 Craigentinny Avenue North,", "addr:city": "Edinburgh", "addr:postcode": "EH6 7LJ", "name": "Edinburgh Seafield Motorstore Fiat / Kia / Abarth Service Centre", "phone": "+44-131-553-3000", "website": "https://www.arnoldclark.com/find-a-dealer/edinburgh-seafield-motorstore-fiat-kia-abarth-service-centre/ref/arnbgs", "image": "https://ac-branches.s3.amazonaws.com/branches/edinburgh-seafield-motorstore-fiat-kia-abarth-service-centre_ce5e22bef209cb2309611fec3410eeb7267365e6.jpg", "brand": "Arnold Clark", "brand:wikidata": "Q29344371"}, "geometry": {"type": "Point", "coordinates": [-3.1415319442749023, 55.96690550889822]}},
{"type": "Feature", "id": "SwbI4YaOznXBM_7Az0YFvjp2KCY=", "properties": {"ref": "arnbg", "@spider": "arnold_clark", "addr:street_address": "38 Seafield Rd East,", "addr:city": "Edinburgh", "addr:state": "Edinburgh", "addr:postcode": "EH15 1ED", "name": "Edinburgh Seafield Motorstore", "phone": "+44-131-657-8750", "website": "https://www.arnoldclark.com/find-a-dealer/edinburgh-seafield-motorstore/ref/arnbg", "opening_hours": "Mo-Fr 09:00-19:00; Sa 09:00-18:00; Su 11:00-18:00", "image": "https://ac-branches.s3.amazonaws.com/branches/edinburgh-seafield-motorstore_b994bcdf4b0e716fdd7b1149d35d1ff6006539fa.jpg", "brand": "Arnold Clark", "brand:wikidata": "Q29344371"}, "geometry": {"type": "Point", "coordinates": [-3.1273484230041504, 55.96162107758635]}},
{"type": "Feature", "id": "WoAy1S8_V0i8aAQkADrre0uz-90=", "properties": {"ref": "arnhq", "@spider": "arnold_clark", "addr:street_address": "50 Seafield Road,", "addr:city": "Edinburgh", "addr:postcode": "EH6 7LQ", "name": "Edinburgh Seafield Fiat / Kia / Abarth", "phone": "+44-131-385-7740", "website": "https://www.arnoldclark.com/find-a-dealer/edinburgh-seafield-fiat-kia-abarth/ref/arnhq", "opening_hours": "Mo-Fr 09:00-19:00; Sa 09:00-18:00; Su 11:00-18:00", "image": "https://ac-branches.s3.amazonaws.com/branches/edinburgh-fiat-kia-abarth_b7eb2197192076a96ed1cc0f7366ce551fb3258a.jpg", "brand": "Arnold Clark", "brand:wikidata": "Q29344371"}, "geometry": {"type": "Point", "coordinates": [-3.14436, 55.96924]}},
{"type": "Feature", "id": "bLCHRwFxuTuC2PBz4erRpUOxA5A=", "properties": {"ref": "arngu", "@spider": "arnold_clark", "addr:street_address": "3 Braeview Place,", "addr:city": "East Kilbride", "addr:postcode": "G74 3XH", "name": "East Kilbride Vauxhall", "phone": "+44-1355-271360", "website": "https://www.arnoldclark.com/find-a-dealer/east-kilbride-vauxhall/ref/arngu", "opening_hours": "Mo-Fr 09:00-19:00; Sa 09:00-18:00; Su 11:00-17:00", "image": "https://ac-branches.s3.amazonaws.com/branches/east-kilbride-vauxhall_c8d20b00234f8b898aeef0a582edbf28615be274.jpg", "brand": "Arnold Clark", "brand:wikidata": "Q29344371"}, "geometry": {"type": "Point", "coordinates": [-4.160167, 55.777297]}},
{"type": "Feature", "id": "C1xLOyJH20JZDfdPtnaKgdxqJXI=", "properties": {"ref": "arnasc", "@spider": "arnold_clark", "addr:street_address": "1 Brooklands, Off Eaglesham Rd", "addr:city": "East Kilbride", "addr:postcode": "G74 5NH", "name": "East Kilbride Vanstore", "phone": "+44-1355-203031", "website": "https://www.arnoldclark.com/find-a-dealer/east-kilbride-vanstore/ref/arnasc", "opening_hours": "Mo-Th 08:30-19:00; Fr 08:30-20:00; Sa 08:30-18:00; Su 11:00-18:00", "image": "https://ac-branches.s3.amazonaws.com/branches/east-kilbride-vanstore_23e9189e40f25d27b688c63ed7cf93ed842ead26.jpg", "brand": "Arnold Clark", "brand:wikidata": "Q29344371"}, "geometry": {"type": "Point", "coordinates": [-4.174608, 55.760796]}},
{"type": "Feature", "id": "XXIi7rziO01zfse5TQ69-EEf9UU=", "properties": {"ref": "arnass", "@spider": "arnold_clark", "addr:street_address": "7 Hawbank Road, College Milton", "addr:city": "East Kilbride", "addr:postcode": "G74 5EG", "name": "East Kilbride Service Centre", "phone": "+44-1355-200660", "website": "https://www.arnoldclark.com/find-a-dealer/east-kilbride-service-centre/ref/arnass", "image": "https://ac-branches.s3.amazonaws.com/branches/east-kilbride-service-centre_09242f83808a5699a71b8a63aa5251b33a53086a.jpg", "brand": "Arnold Clark", "brand:wikidata": "Q29344371"}, "geometry": {"type": "Point", "coordinates": [-4.208736, 55.770954]}},
{"type": "Feature", "id": "u823lYO5r5bMHTfiZuACBZcYwUk=", "properties": {"ref": "arnas", "@spider": "arnold_clark", "addr:street_address": "1 Brooklands, Off Eaglesham Rd", "addr:city": "East Kilbride", "addr:state": "Glasgow", "addr:postcode": "G74 5NH", "name": "East Kilbride Motorstore", "phone": "+44-1355-203031", "website": "https://www.arnoldclark.com/find-a-dealer/east-kilbride-motorstore/ref/arnas", "opening_hours": "Mo-Fr 08:30-19:00; Sa 08:30-18:00; Su 11:00-18:00", "image": "https://ac-branches.s3.amazonaws.com/branches/east-kilbride-motorstore_82f1e8562fffb4c853eb7853f41a828158c2483d.jpg", "brand": "Arnold Clark", "brand:wikidata": "Q29344371"}, "geometry": {"type": "Point", "coordinates": [-4.209335, 55.763748]}},
{"type": "Feature", "id": "slivc6NoY-0wZA0qknf9ASuXvg0=", "properties": {"ref": "arnfr", "@spider": "arnold_clark", "addr:street_address": "Queensway Motor Park, 2 Millbrook", "addr:city": "East Kilbride", "addr:postcode": "G74 5NL", "name": "East Kilbride MG", "phone": "+44-1355-203000", "website": "https://www.arnoldclark.com/find-a-dealer/east-kilbride-mg/ref/arnfr", "opening_hours": "Mo-Fr 09:00-19:00; Sa 09:00-18:00; Su 11:00-18:00", "image": "https://ac-branches.s3.amazonaws.com/branches/east-kilbride-mg_c20c94fce5d33bf4653acfccd4b4371d5190b80f.jpg", "brand": "Arnold Clark", "brand:wikidata": "Q29344371"}, "geometry": {"type": "Point", "coordinates": [-4.208793, 55.763766]}},
{"type": "Feature", "id": "9nbAZBNAyCZAKLD61AaN-c6UaKk=", "properties": {"ref": "arnff", "@spider": "arnold_clark", "addr:street_address": "171 Halbeath Rd,", "addr:city": "Dunfermline", "addr:state": "Central", "addr:postcode": "KY11 4LF", "name": "Dunfermline Fiat", "phone": "+44-1383-663334", "website": "https://www.arnoldclark.com/find-a-dealer/dunfermline-fiat/ref/arnff", "opening_hours": "Mo-Fr 09:00-19:00; Sa 09:00-18:00; Su 11:00-17:00", "image": "https://ac-branches.s3.amazonaws.com/branches/dunfermline-fiat_2f5426f60d8d0db614cd59f78cae3a48a609bcc3.jpg", "brand": "Arnold Clark", "brand:wikidata": "Q29344371"}, "geometry": {"type": "Point", "coordinates": [-3.420852, 56.078633]}},
{"type": "Feature", "id": "lh18rfuGJ8L5o3_Keuv1zGa9Ma0=", "properties": {"ref": "arnbfs", "@spider": "arnold_clark", "addr:street_address": "31 East Dock Street,", "addr:city": "Dundee", "addr:state": "Dundee City", "addr:postcode": "DD1 3JN", "name": "Dundee Vauxhall Service Centre", "phone": "+44-1382-312034", "website": "https://www.arnoldclark.com/find-a-dealer/dundee-vauxhall-service-centre/ref/arnbfs", "image": "https://ac-branches.s3.amazonaws.com/branches/dundee-vauxhall-service-centre_82e906724a226c6a67f2c3630c76480807feeef8.jpg", "brand": "Arnold Clark", "brand:wikidata": "Q29344371"}, "geometry": {"type": "Point", "coordinates": [-2.959967699999993, 56.4632295]}},
{"type": "Feature", "id": "SXFqZ3ogc4qTU_rZwNLsGDBW8wE=", "properties": {"ref": "arnbf", "@spider": "arnold_clark", "addr:street_address": "5 East Dock Street,", "addr:city": "Dundee", "addr:state": "Central", "addr:postcode": "DD1 3HB", "name": "Dundee Vauxhall", "phone": "+44-1382-312030", "website": "https://www.arnoldclark.com/find-a-dealer/dundee-vauxhall/ref/arnbf", "opening_hours": "Mo-Fr 08:30-19:00; Sa 09:00-18:00; Su 11:00-18:00", "image": "https://ac-branches.s3.amazonaws.com/branches/dundee-vauxhall_cd78f3b2c61cb86e79bb77e0f565d95986d49aea.jpg", "brand": "Arnold Clark", "brand:wikidata": "Q29344371"}, "geometry": {"type": "Point", "coordinates": [-2.962368, 56.462304]}},
{"type": "Feature", "id": "rKkc1gDAyqFDeJqUTvlrcsbn08s=", "properties": {"ref": "arndc", "@spider": "arnold_clark", "addr:street_address": "Kingsway East,", "addr:city": "Dundee", "addr:state": "Central", "addr:postcode": "DD4 7HG", "name": "Dundee Renault / Hyundai / Dacia", "phone": "+44-1382-919820", "website": "https://www.arnoldclark.com/find-a-dealer/dundee-renault-hyundai-dacia/ref/arndc", "opening_hours": "Mo-Th 09:00-19:00; Fr 08:30-19:00; Sa 09:00-18:00; Su 11:00-18:00", "image": "https://ac-branches.s3.amazonaws.com/branches/dundee-renault-hyundai-dacia_cb5fa67afedaee422f8a4979bcdb121fdaf6d949.jpg", "brand": "Arnold Clark", "brand:wikidata": "Q29344371"}, "geometry": {"type": "Point", "coordinates": [-2.933962, 56.477292]}},
{"type": "Feature", "id": "y9Ut0O2g8_nfDztNjPLycmyjsHw=", "properties": {"ref": "arnde", "@spider": "arnold_clark", "addr:street_address": "40 Balfield Rd,", "addr:city": "Dundee", "addr:state": "Central", "addr:postcode": "DD3 6AH", "name": "Dundee Motorstore / Fiat / Kia / Abarth", "phone": "+44-1382-919720", "website": "https://www.arnoldclark.com/find-a-dealer/dundee-motorstore-fiat-kia-abarth/ref/arnde", "opening_hours": "Mo-Fr 09:00-19:00; Sa 09:00-18:00; Su 11:00-18:00", "image": "https://ac-branches.s3.amazonaws.com/branches/dundee-balfield-complex_7bc3e8a90490b8d5469baa70890148a5f82ee742.jpg", "brand": "Arnold Clark", "brand:wikidata": "Q29344371"}, "geometry": {"type": "Point", "coordinates": [-3.000195, 56.472697]}},
{"type": "Feature", "id": "8M-kJtiAg5t-4SVsw7QFXxqA75o=", "properties": {"ref": "arndq", "@spider": "arnold_clark", "addr:street_address": "361 Annan Rd,", "addr:city": "Dumfries", "addr:state": "South", "addr:postcode": "DG1 3JR", "name": "Dumfries Renault / Dacia", "phone": "+44-1387-340850", "website": "https://www.arnoldclark.com/find-a-dealer/dumfries-renault-dacia/ref/arndq", "opening_hours": "Mo-Fr 09:00-19:00; Sa 09:00-18:00; Su 11:00-18:00", "image": "https://ac-branches.s3.amazonaws.com/branches/dumfries-renault-dacia_31464d6f0ec60a6e03e7ad7d5793a3ba348edfa4.jpg", "brand": "Arnold Clark", "brand:wikidata": "Q29344371"}, "geometry": {"type": "Point", "coordinates": [-3.5722, 55.069181]}},
{"type": "Feature", "id": "ZGyzbFQMSJzGPb8CksNTLqV2_4s=", "properties": {"ref": "arn07d", "@spider": "arnold_clark", "addr:street_address": "York House, Annan Road", "addr:city": "Dumfries", "addr:state": "Dumfries and Galloway", "addr:postcode": "DG1 3AW", "name": "Dumfries BMW/MINI", "phone": "+44-1387-340810", "website": "https://www.arnoldclark.com/find-a-dealer/dumfries-bmw-mini/ref/arn07d", "opening_hours": "Mo 08:30-19:00; Tu-We 08:30-18:00; Th 08:30-19:00; Fr 08:30-18:00; Sa 09:00-17:00; Su 12:00-17:00", "image": "https://ac-branches.s3.amazonaws.com/branches/dumfries-bmw-mini_57280d92572a067ed5291b50853649f14a810ba0.jpg", "brand": "Arnold Clark", "brand:wikidata": "Q29344371"}, "geometry": {"type": "Point", "coordinates": [-3.60058140000001, 55.0707433]}},
{"type": "Feature", "id": "o5WM53BCz-uWRiQcF3QasP-2C8A=", "properties": {"ref": "arnews", "@spider": "arnold_clark", "addr:street_address": "Dumbarton Rd, Milton", "addr:city": "Dumbarton", "addr:postcode": "G82 2TY", "name": "Dumbarton Renault / Dacia / Nissan Service Centre", "phone": "+44-1389-318504", "website": "https://www.arnoldclark.com/find-a-dealer/dumbarton-renault-dacia-nissan-service-centre/ref/arnews", "image": "https://ac-branches.s3.amazonaws.com/branches/dumbarton-nissan-service-centre_f3d052c423b67964af0bac3666b3269a1abb19d2.jpg", "brand": "Arnold Clark", "brand:wikidata": "Q29344371"}, "geometry": {"type": "Point", "coordinates": [-4.5208740234375, 55.93997139914653]}},
{"type": "Feature", "id": "xKBhG3logmEJbI3nU3gw3ePzGr8=", "properties": {"ref": "arnew", "@spider": "arnold_clark", "addr:street_address": "Dumbarton Rd, Milton", "addr:city": "Dumbarton", "addr:state": "Glasgow", "addr:postcode": "G82 2TY", "name": "Dumbarton Renault / Dacia", "phone": "+44-1389-318500", "website": "https://www.arnoldclark.com/find-a-dealer/dumbarton-renault-dacia/ref/arnew", "opening_hours": "Mo-Fr 09:00-19:00; Sa 09:00-18:00; Su 11:00-18:00", "image": "https://ac-branches.s3.amazonaws.com/branches/dumbarton-renault-dacia_22d9a603e15ea71fee15b15ed8d19e7f60d10a07.jpg", "brand": "Arnold Clark", "brand:wikidata": "Q29344371"}, "geometry": {"type": "Point", "coordinates": [-4.516925811767578, 55.93453905894536]}},
{"type": "Feature", "id": "pE9vaoe6SG1cZQWLKOZFKbka0Hc=", "properties": {"ref": "arnhl", "@spider": "arnold_clark", "addr:street_address": "Milethorn Lane,", "addr:city": "Doncaster", "addr:state": "South Yorkshire", "addr:postcode": "DN1 2SU", "name": "Doncaster Motorstore", "phone": "+44-1302-430-733", "website": "https://www.arnoldclark.com/find-a-dealer/doncaster-motorstore/ref/arnhl", "opening_hours": "Mo-Fr 09:00-19:00; Sa 09:00-18:00; Su 11:00-17:00", "image": "https://ac-branches.s3.amazonaws.com/branches/doncaster-motorstore_bd1fe50322369291ba333ac4d7c13c12817c8c05.jpg", "brand": "Arnold Clark", "brand:wikidata": "Q29344371"}, "geometry": {"type": "Point", "coordinates": [-1.127196, 53.531886]}},
{"type": "Feature", "id": "eO7fLK8hLzedFALPOmEHPf52NLE=", "properties": {"ref": "arneo", "@spider": "arnold_clark", "addr:street_address": "South Carbrain Ring Rd,", "addr:city": "Cumbernauld", "addr:postcode": "G67 2UA", "name": "Cumbernauld Kia", "phone": "+44-1236-914280", "website": "https://www.arnoldclark.com/find-a-dealer/cumbernauld-kia/ref/arneo", "opening_hours": "Mo-Th 09:00-19:00; Fr-Sa 09:00-18:00; Su 11:00-18:00", "image": "https://ac-branches.s3.amazonaws.com/branches/cumbernauld-kia_81dfa9a8050cf6b6162c6c75c8557e6e404d0b35.jpg", "brand": "Arnold Clark", "brand:wikidata": "Q29344371"}, "geometry": {"type": "Point", "coordinates": [-3.9789390563964844, 55.94357651408936]}},
{"type": "Feature", "id": "8-NmGkCgm7xk27ErwZN0HNXyEpY=", "properties": {"ref": "arncg", "@spider": "arnold_clark", "addr:street_address": "Great Western Rd, Parkhall", "addr:city": "Clydebank", "addr:state": "Glasgow", "addr:postcode": "G81 3ST", "name": "Clydebank Used Car Centre", "phone": "+44-141-648-3420", "website": "https://www.arnoldclark.com/find-a-dealer/clydebank-used-car-centre/ref/arncg", "opening_hours": "Mo-Fr 09:00-19:00; Sa 09:00-18:00; Su 11:00-18:00", "image": "https://ac-branches.s3.amazonaws.com/branches/clydebank-ford_ae680b2618a96b684a777dadf809968da90e026e.jpg", "brand": "Arnold Clark", "brand:wikidata": "Q29344371"}, "geometry": {"type": "Point", "coordinates": [-4.410905, 55.920104]}},
{"type": "Feature", "id": "2DAFysRr2OWuaHdbGCN-A_aIiME=", "properties": {"ref": "arncl", "@spider": "arnold_clark", "addr:street_address": "Kilbowie Rd, Hardgate", "addr:city": "Clydebank", "addr:state": "Glasgow", "addr:postcode": "G81 6QU", "name": "Clydebank Peugeot", "phone": "+44-1389-318460", "website": "https://www.arnoldclark.com/find-a-dealer/clydebank-peugeot/ref/arncl", "opening_hours": "Mo-Fr 09:00-19:00; Sa 09:00-18:00; Su 11:00-18:00", "image": "https://ac-branches.s3.amazonaws.com/branches/clydebank-peugeot_29795583e276e0cbdb81bf9e2a7d83c1830be5b0.jpg", "brand": "Arnold Clark", "brand:wikidata": "Q29344371"}, "geometry": {"type": "Point", "coordinates": [-4.402818, 55.92392]}},
{"type": "Feature", "id": "X16bsEQ1yWtzZnhDpcIDgmJDkLQ=", "properties": {"ref": "arngzc", "@spider": "arnold_clark", "addr:street_address": "Meltham Lane,", "addr:city": "Chesterfield", "addr:postcode": "S41 7LG", "name": "Chesterfield Vanstore", "phone": "+44-1246-956450", "website": "https://www.arnoldclark.com/find-a-dealer/chesterfield-vanstore/ref/arngzc", "opening_hours": "Mo-Th 09:00-19:00; Fr 09:00-20:00; Sa 09:00-18:00; Su 11:00-17:00", "image": "https://ac-branches.s3.amazonaws.com/branches/chesterfield-vanstore_34903ca0cd1949c5069f054a8b4057966c1f653e.jpg", "brand": "Arnold Clark", "brand:wikidata": "Q29344371"}, "geometry": {"type": "Point", "coordinates": [-1.421803, 53.248435]}},
{"type": "Feature", "id": "nTu4fdNG3qSzHklTrn1JZKWQySQ=", "properties": {"ref": "abycsyd", "@spider": "arnold_clark", "addr:street_address": "140-149 Mayow Road,", "addr:city": "London", "addr:postcode": "SE26 4HZ", "name": "Arnold Clark Sydenham Click &amp; Collect", "phone": "+44-203-031-7637", "website": "https://www.arnoldclark.com/find-a-dealer/arnold-clark-sydenham-click-collect/ref/abycsyd", "opening_hours": "Mo-Fr 09:00-19:00; Sa 09:00-17:00; Su 11:00-17:00", "image": "https://ac-branches.s3.amazonaws.com/branches/arnold-clark-sydenham-click-collect_8b09e7e9382fe03e5eee8bc01102a96ebc0eb8dc.png", "brand": "Arnold Clark", "brand:wikidata": "Q29344371"}, "geometry": {"type": "Point", "coordinates": [-0.04821, 51.42634]}},
{"type": "Feature", "id": "fRee9qnljk1qJC-b4xBLTIKPB68=", "properties": {"ref": "abycsth", "@spider": "arnold_clark", "addr:street_address": "Rushington Roundabout, Totton", "addr:city": "Southampton", "addr:postcode": "SO40 9EB", "name": "Arnold Clark Southampton Click &amp; Collect", "phone": "+44-23-8235-8480", "website": "https://www.arnoldclark.com/find-a-dealer/arnold-clark-southampton-click-collect/ref/abycsth", "opening_hours": "Mo-Fr 09:00-19:00; Sa 09:00-17:00; Su 11:00-17:00", "image": "https://ac-branches.s3.amazonaws.com/branches/arnold-clark-southampton-click-collect_32c3d477f62678255047d9256c676997401934d8.jpg", "brand": "Arnold Clark", "brand:wikidata": "Q29344371"}, "geometry": {"type": "Point", "coordinates": [-1.491825, 50.912521]}},
{"type": "Feature", "id": "JCYCgntUez4_4pWVI7vkmoo4xys=", "properties": {"ref": "abycmk", "@spider": "arnold_clark", "addr:street_address": "43 Winchester Circle,", "addr:city": "Milton Keynes", "addr:postcode": "MK10 0BA", "name": "Arnold Clark Milton Keynes Click &amp; Collect", "phone": "+44-1908-280745", "website": "https://www.arnoldclark.com/find-a-dealer/arnold-clark-milton-keynes-click-collect/ref/abycmk", "opening_hours": "Mo-Fr 09:00-19:00; Sa 09:00-17:00; Su 11:00-17:00", "image": "https://ac-branches.s3.amazonaws.com/branches/arnold-clark-milton-keynes_099e7e56f544dc87be7df8e40b3bb9afcfb218d1.jpg", "brand": "Arnold Clark", "brand:wikidata": "Q29344371"}, "geometry": {"type": "Point", "coordinates": [-0.690182, 52.03458]}},
{"type": "Feature", "id": "oV0RraM_XimV-8tQuRtmZMBQ0kQ=", "properties": {"ref": "abyclvp", "@spider": "arnold_clark", "addr:street_address": "131 Sefton Street,", "addr:city": "Liverpool", "addr:postcode": "L8 5SN", "name": "Arnold Clark Liverpool Click &amp; Collect", "phone": "+44-151-459-9824", "website": "https://www.arnoldclark.com/find-a-dealer/arnold-clark-liverpool-click-collect/ref/abyclvp", "opening_hours": "Mo-Fr 09:00-19:00; Sa 09:00-17:00; Su 11:00-17:00", "image": "https://ac-branches.s3.amazonaws.com/branches/arnold-clark-liverpool-click-collect_32bba5c8b44a5ebc0091e1711b92615e29488a62.jpg", "brand": "Arnold Clark", "brand:wikidata": "Q29344371"}, "geometry": {"type": "Point", "coordinates": [-2.97493, 53.3819]}},
{"type": "Feature", "id": "QeqkmXhrvhuyHspbqJ7qMmtd16g=", "properties": {"ref": "abyclin", "@spider": "arnold_clark", "addr:street_address": "Phoenix Retail Park, Linwood Road", "addr:city": "Paisley", "addr:state": "Renfrewshire", "addr:postcode": "PA1 2BH", "name": "Arnold Clark Linwood Click &amp; Collect", "phone": "+44-141-483-1656", "website": "https://www.arnoldclark.com/find-a-dealer/arnold-clark-linwood-click-collect/ref/abyclin", "opening_hours": "Mo-Fr 09:00-19:00; Sa 09:00-17:00; Su 11:00-17:00", "image": "https://ac-branches.s3.amazonaws.com/branches/arnold-clark-linwood_5cd87e29328e04b2f18bcac1697c70ab3160e40f.jpg", "brand": "Arnold Clark", "brand:wikidata": "Q29344371"}, "geometry": {"type": "Point", "coordinates": [-4.4742985, 55.847001]}},
{"type": "Feature", "id": "S23q2NQ5kraN29iTmPe5x7YiQtM=", "properties": {"ref": "abyclf", "@spider": "arnold_clark", "addr:street_address": "Unit 37 Hobbs Industrial Estate,", "addr:city": "Lingfield", "addr:postcode": "RH7 6HN", "name": "Arnold Clark Lingfield Click &amp; Collect", "phone": "+44-134-277-7601", "website": "https://www.arnoldclark.com/find-a-dealer/arnold-clark-lingfield-click-collect/ref/abyclf", "opening_hours": "Mo-Fr 09:00-19:00; Sa 09:00-17:00; Su 11:00-17:00", "image": "https://ac-branches.s3.amazonaws.com/branches/arnold-clark-lingfield_e97a9a8232baee05c2d13c69165a5e5fdd1ea00a.jpg", "brand": "Arnold Clark", "brand:wikidata": "Q29344371"}, "geometry": {"type": "Point", "coordinates": [-0.05691799999999603, 51.154131]}},
{"type": "Feature", "id": "X6aMeN14G8p3UZLkzHk3-mPAboQ=", "properties": {"ref": "abyckil", "@spider": "arnold_clark", "addr:street_address": "Western Road,", "addr:city": "Kilmarnock", "addr:state": "East Ayrshire", "addr:postcode": "KA3 1NJ", "name": "Arnold Clark Kilmarnock Click &amp; Collect", "phone": "+44-1563-548711", "website": "https://www.arnoldclark.com/find-a-dealer/arnold-clark-kilmarnock-click-collect/ref/abyckil", "opening_hours": "Mo-Fr 09:00-19:00; Sa 09:00-17:00; Su 11:00-17:00", "image": "https://ac-branches.s3.amazonaws.com/branches/arnold-clark-kilmarnock-click-collect_0c0c8d78bd57bb46885b44ea24f0dfd6c63a9b86.jpg", "brand": "Arnold Clark", "brand:wikidata": "Q29344371"}, "geometry": {"type": "Point", "coordinates": [-4.5054225, 55.6179514]}},
{"type": "Feature", "id": "SWOhY1Z6vwttmMIiNKKeCkLiGKs=", "properties": {"ref": "arn06d", "@spider": "arnold_clark", "addr:street_address": "Ayr Road,", "addr:city": "Irvine", "addr:postcode": "KA12 8BZ", "name": "Arnold Clark Irvine", "phone": "+44-1294-445330", "website": "https://www.arnoldclark.com/find-a-dealer/arnold-clark-irvine/ref/arn06d", "opening_hours": "Mo-Fr 09:00-19:00; Sa 09:00-18:00; Su 11:00-18:00", "image": "https://ac-branches.s3.amazonaws.com/branches/arnold-clark-irvine_1ef4dfbf3a42f32e939a8e3b712e60e56ebbd530.jpg", "brand": "Arnold Clark", "brand:wikidata": "Q29344371"}, "geometry": {"type": "Point", "coordinates": [-4.664168357849121, 55.60334787518448]}},
{"type": "Feature", "id": "c_OanuvON21AYUL91OF_-lJdecg=", "properties": {"ref": "abycinv", "@spider": "arnold_clark", "addr:street_address": "32 Longman Road,", "addr:city": "Inverness", "addr:state": "Highland", "addr:postcode": "IV1 1RY", "name": "Arnold Clark Inverness Click &amp; Collect", "phone": "+44-1463-276222", "website": "https://www.arnoldclark.com/find-a-dealer/arnold-clark-inverness-click-collect/ref/abycinv", "opening_hours": "Mo-Th 09:00-19:00; Fr 09:00-18:00; Sa 09:00-17:00; Su 11:00-17:00", "image": "https://ac-branches.s3.amazonaws.com/branches/arnold-clark-inverness-click-collect_2be1502437b4c17c6a32be9de98a774b4f5c939c.jpg", "brand": "Arnold Clark", "brand:wikidata": "Q29344371"}, "geometry": {"type": "Point", "coordinates": [-4.2204732, 57.4858051]}},
{"type": "Feature", "id": "-tRrQWe566DUgnlqqkg5LFSmNCQ=", "properties": {"ref": "abycham", "@spider": "arnold_clark", "addr:street_address": "40 Hamilton Road, Mount Vernon", "addr:city": "Cambuslang", "addr:state": "Glasgow City", "addr:postcode": "G32 9QA", "name": "Arnold Clark Hamilton Road Click &amp; Collect", "phone": "+44-141-763-3355", "website": "https://www.arnoldclark.com/find-a-dealer/arnold-clark-hamilton-road-click-collect/ref/abycham", "opening_hours": "Mo-Fr 09:00-19:00; Sa 09:00-17:00; Su 11:00-17:00", "image": "https://ac-branches.s3.amazonaws.com/branches/arnold-clark-hamilton-road_7dc9437d48c31ac07eb981505f72e188ac15730b.jpg", "brand": "Arnold Clark", "brand:wikidata": "Q29344371"}, "geometry": {"type": "Point", "coordinates": [-4.1571867, 55.839658]}},
{"type": "Feature", "id": "SQSMH72FobIj0I2xK3FJCalkERg=", "properties": {"ref": "arncu", "@spider": "arnold_clark", "addr:street_address": "60 East Hamilton Street,", "addr:city": "Greenock", "addr:state": "Glasgow", "addr:postcode": "PA15 2UA", "name": "Arnold Clark Greenock", "phone": "+44-1475-603534", "website": "https://www.arnoldclark.com/find-a-dealer/arnold-clark-greenock/ref/arncu", "opening_hours": "Mo-Th 09:00-19:00; Fr-Sa 09:00-18:00; Su 11:00-18:00", "image": "https://ac-branches.s3.amazonaws.com/branches/greenock-volkswagen_4f7ec7fe0b550dfa95f27fef6cf3050db0376c30.jpg", "brand": "Arnold Clark", "brand:wikidata": "Q29344371"}, "geometry": {"type": "Point", "coordinates": [-4.726766, 55.941963]}},
{"type": "Feature", "id": "XTSABCfRWgNT4ude7G3UoOaHO6Y=", "properties": {"ref": "arnav", "@spider": "arnold_clark", "addr:street_address": "1 Blackwood Rd,", "addr:city": "Glenrothes", "addr:postcode": "KY7 4NP", "name": "Arnold Clark Glenrothes", "phone": "+44-1592-809670", "website": "https://www.arnoldclark.com/find-a-dealer/arnold-clark-glenrothes/ref/arnav", "opening_hours": "Mo-Fr 09:00-19:00; Sa 09:00-18:00; Su 11:00-18:00", "image": "https://ac-branches.s3.amazonaws.com/branches/arnold-clark-glenrothes_1ad5f1a289c9ef0251af6861b8100019b5b895bc.jpg", "brand": "Arnold Clark", "brand:wikidata": "Q29344371"}, "geometry": {"type": "Point", "coordinates": [-3.141016960144043, 56.18411683668779]}},
{"type": "Feature", "id": "5NpkDIR7TLVN8-chCRXlhAFS1FI=", "properties": {"ref": "abycdun", "@spider": "arnold_clark", "addr:street_address": "40 Balfield Road,", "addr:city": "Dundee", "addr:state": "Central", "addr:postcode": "DD3 6AH", "name": "Arnold Clark Dundee Click &amp; Collect", "phone": "+44-1382-938994", "website": "https://www.arnoldclark.com/find-a-dealer/arnold-clark-dundee-click-collect/ref/abycdun", "opening_hours": "Mo-Fr 09:00-19:00; Sa 09:00-17:00; Su 11:00-17:00", "image": "https://ac-branches.s3.amazonaws.com/branches/arnold-clark-dundee-click-collect_c1959fe7b12d4f81551211194324dc430469ed80.jpg", "brand": "Arnold Clark", "brand:wikidata": "Q29344371"}, "geometry": {"type": "Point", "coordinates": [-2.99977, 56.47105]}},
{"type": "Feature", "id": "W_s_T64LfKhdeu0taKxljAKM6ds=", "properties": {"ref": "arn08d", "@spider": "arnold_clark", "addr:street_address": "2 Annan Road,", "addr:city": "Dumfries", "addr:state": "Dumfries and Galloway", "addr:postcode": "DG1 3AD", "name": "Arnold Clark Dumfries", "phone": "+44-1387-245650", "website": "https://www.arnoldclark.com/find-a-dealer/arnold-clark-dumfries/ref/arn08d", "opening_hours": "Mo 08:30-19:00; Tu-We 08:30-18:00; Th 08:30-19:00; Fr 08:30-18:00; Sa 09:00-17:00; Su 12:00-17:00", "image": "https://ac-branches.s3.amazonaws.com/branches/arnold-clark-dumfries_7e071634313a5622fae613025e6d3011ba068f64.jpg", "brand": "Arnold Clark", "brand:wikidata": "Q29344371"}, "geometry": {"type": "Point", "coordinates": [-3.600559, 55.070018]}},
{"type": "Feature", "id": "FIMTGDs2t_dlDZ5HQoCfVGV0ycU=", "properties": {"ref": "abyccol", "@spider": "arnold_clark", "addr:street_address": "Manheim Colchester, Colchester Road", "addr:city": "Colchester", "addr:postcode": "CO7 7DX", "name": "Arnold Clark Colchester Click &amp; Collect", "phone": "+44-1206-635909", "website": "https://www.arnoldclark.com/find-a-dealer/arnold-clark-colchester-click-collect/ref/abyccol", "opening_hours": "Mo-Fr 09:00-19:00; Sa 09:00-17:00; Su 11:00-17:00", "image": "https://ac-branches.s3.amazonaws.com/branches/arnold-clark-colchester_17c8c440808448c47c809fdc0d0f295efdc2df49.jpg", "brand": "Arnold Clark", "brand:wikidata": "Q29344371"}, "geometry": {"type": "Point", "coordinates": [1.04891, 51.87207]}},
{"type": "Feature", "id": "WhWW-cBLYvf3QYr4BIGHv4DIY3Y=", "properties": {"ref": "abyccai", "@spider": "arnold_clark", "addr:street_address": "A77, Cairnryan Port", "addr:city": "Stranraer", "addr:postcode": "DG9 8RF", "name": "Arnold Clark Cairnryan Click &amp; Collect", "phone": "+44-1581-650162", "website": "https://www.arnoldclark.com/find-a-dealer/arnold-clark-cairnryan-click-collect/ref/abyccai", "opening_hours": "Mo-Fr 09:00-19:00; Sa 09:00-17:00; Su 11:00-17:00", "image": "https://ac-branches.s3.amazonaws.com/branches/arnold-clark-cairnryan-click-collect_7ebeb86b7fc13a7c6e389d1e9c367c3ef18868df.jpg", "brand": "Arnold Clark", "brand:wikidata": "Q29344371"}, "geometry": {"type": "Point", "coordinates": [-5.0152, 54.96566]}},
{"type": "Feature", "id": "hxqw2rYDToWz44YFSP1lNrHiPQk=", "properties": {"ref": "abycbri", "@spider": "arnold_clark", "addr:street_address": "Manheim Bristol, Ashton Vale Road", "addr:city": "Bristol", "addr:state": "South West England", "addr:postcode": "BS3 2AZ", "name": "Arnold Clark Bristol Click &amp; Collect", "phone": "+44-117-374-7472", "website": "https://www.arnoldclark.com/find-a-dealer/arnold-clark-bristol-click-collect/ref/abycbri", "opening_hours": "Mo-Fr 09:00-19:00; Sa 09:00-17:00; Su 11:00-17:00", "image": "https://ac-branches.s3.amazonaws.com/branches/arnold-clark-bristol_d05956f1869fe3c588ee9c65a5408283874307b1.jpeg", "brand": "Arnold Clark", "brand:wikidata": "Q29344371"}, "geometry": {"type": "Point", "coordinates": [-2.6262, 51.4377]}},
{"type": "Feature", "id": "-XNvno0Rx6fV9__knlf-G_cVuz4=", "properties": {"ref": "arnhb", "@spider": "arnold_clark", "addr:street_address": "Blackburn Road,", "addr:city": "Bathgate", "addr:postcode": "EH48 2EQ", "name": "Arnold Clark Bathgate", "phone": "+44-1506-539740", "website": "https://www.arnoldclark.com/find-a-dealer/arnold-clark-bathgate/ref/arnhb", "opening_hours": "Mo-Fr 09:00-19:00; Sa 09:00-18:00; Su 11:00-18:00", "image": "https://ac-branches.s3.amazonaws.com/branches/bathgate-volkswagen_c9a9122d31fe0f44a9474f4f0e15126ee577eab5.jpg", "brand": "Arnold Clark", "brand:wikidata": "Q29344371"}, "geometry": {"type": "Point", "coordinates": [-3.622727, 55.88685]}},
{"type": "Feature", "id": "PWntPRC4568VeJC7bd2XmO54SUg=", "properties": {"ref": "arnce", "@spider": "arnold_clark", "addr:street_address": "127 Prestwick Rd,", "addr:city": "Ayr", "addr:state": "South", "addr:postcode": "KA8 8NJ", "name": "Arnold Clark Ayr", "phone": "+44-1292-433290", "website": "https://www.arnoldclark.com/find-a-dealer/arnold-clark-ayr/ref/arnce", "opening_hours": "Mo-Fr 09:00-19:00; Sa 09:00-18:00; Su 11:00-18:00", "image": "https://ac-branches.s3.amazonaws.com/branches/arnold-clark-ayr_8935ab74f9835a1aaaeb371c210061457aa7a197.jpg", "brand": "Arnold Clark", "brand:wikidata": "Q29344371"}, "geometry": {"type": "Point", "coordinates": [-4.619834, 55.48085]}},
{"type": "Feature", "id": "kA-FO9OXf1nje3RQQ9zzI7E0ci0=", "properties": {"ref": "abycab", "@spider": "arnold_clark", "addr:street_address": "Craigshaw Road, West Tullos Industrial Estate", "addr:city": "Aberdeen", "addr:state": "Aberdeen City", "addr:postcode": "AB12 3AR", "name": "Arnold Clark Aberdeen Click &amp; Collect", "phone": "+44-1224-426-445", "website": "https://www.arnoldclark.com/find-a-dealer/arnold-clark-aberdeen-click-collect/ref/abycab", "opening_hours": "Mo-Fr 09:00-19:00; Sa 09:00-17:00; Su 11:00-17:00", "image": "https://ac-branches.s3.amazonaws.com/branches/arnold-clark-aberdeen-click-collect_a1697325cb793d6c22c2dfbababa3ec166530e91.jpg", "brand": "Arnold Clark", "brand:wikidata": "Q29344371"}, "geometry": {"type": "Point", "coordinates": [-2.0956667, 57.1257791]}},
{"type": "Feature", "id": "P7JP9EQO1lLUowOW4h5_T-u3W5U=", "properties": {"ref": "arnfh", "@spider": "arnold_clark", "addr:street_address": "2 Station Way,", "addr:city": "Armadale", "addr:state": "Edinburgh", "addr:postcode": "EH48 3LP", "name": "Armadale Citro\u00ebn", "phone": "+44-1501-648960", "website": "https://www.arnoldclark.com/find-a-dealer/armadale-citroen/ref/arnfh", "opening_hours": "Mo-Fr 09:00-19:00; Sa 09:00-18:00; Su 11:00-18:00", "image": "https://ac-branches.s3.amazonaws.com/branches/armadale-citroen-ds_02b10aaa92c0b66107aa1a1635126a753fc5e526.jpg", "brand": "Arnold Clark", "brand:wikidata": "Q29344371"}, "geometry": {"type": "Point", "coordinates": [-3.697073, 55.886588]}},
{"type": "Feature", "id": "ijKT7gI03aLCLK2F5DlEq5YZ5W4=", "properties": {"ref": "arndl", "@spider": "arnold_clark", "addr:street_address": "16 - 20 Stockport Rd,", "addr:city": "Altrincham", "addr:state": "England", "addr:postcode": "WA15 8EX", "name": "Altrincham Kia", "phone": "+44-161-233-9103", "website": "https://www.arnoldclark.com/find-a-dealer/altrincham-kia/ref/arndl", "opening_hours": "Mo-Fr 09:00-19:00; Sa 09:00-18:00; Su 11:00-17:00", "image": "https://ac-branches.s3.amazonaws.com/branches/altrincham-kia_65b08f2202c03fdf2153a67cbdc02f14001e17c2.jpg", "brand": "Arnold Clark", "brand:wikidata": "Q29344371"}, "geometry": {"type": "Point", "coordinates": [-2.343647, 53.3906]}},
{"type": "Feature", "id": "AIWBh56pEcgRF47HVKiDzv4AlGM=", "properties": {"ref": "arnah", "@spider": "arnold_clark", "addr:street_address": "Hallpark, Sauchie", "addr:city": "Alloa", "addr:postcode": "FK10 3NA", "name": "Alloa Vauxhall", "phone": "+44-1259-235884", "website": "https://www.arnoldclark.com/find-a-dealer/alloa-vauxhall/ref/arnah", "opening_hours": "Mo-Fr 09:00-19:00; Sa 09:00-18:00; Su 11:00-18:00", "image": "https://ac-branches.s3.amazonaws.com/branches/alloa-vauxhall_df12b50a8b20dc395aaa12eb5ecd821854f174a8.jpg", "brand": "Arnold Clark", "brand:wikidata": "Q29344371"}, "geometry": {"type": "Point", "coordinates": [-3.7811851501464844, 56.12455298488016]}},
{"type": "Feature", "id": "n92cWJ7hsUdnAQkp6PTE1b4iu6g=", "properties": {"ref": "arnhv", "@spider": "arnold_clark", "addr:street_address": "Wellington Road,", "addr:city": "Aberdeen", "addr:state": "Aberdeen City", "addr:postcode": "AB12 3DN", "name": "Aberdeen Volvo", "phone": "+44-1224-004384", "website": "https://www.arnoldclark.com/find-a-dealer/aberdeen-volvo/ref/arnhv", "opening_hours": "Mo-Th 09:00-19:00; Fr-Sa 09:00-18:00; Su 11:00-18:00", "image": "https://ac-branches.s3.amazonaws.com/branches/aberdeen-volvo_79e585f217c6762bbef3e7d5ccd3fc29ba72ff0a.jpg", "brand": "Arnold Clark", "brand:wikidata": "Q29344371"}, "geometry": {"type": "Point", "coordinates": [-2.0956607, 57.129639]}},
{"type": "Feature", "id": "twYnHxhPC_csJZNx4esguXC7RcE=", "properties": {"ref": "arndwx", "@spider": "arnold_clark", "addr:street_address": "Craigshaw Road, West Tullos Industrial Estate,", "addr:city": "Aberdeen", "addr:postcode": "AB12 3AR", "name": "Aberdeen Vanstore", "phone": "+44-1224-010600", "website": "https://www.arnoldclark.com/find-a-dealer/aberdeen-vanstore/ref/arndwx", "opening_hours": "Mo-Fr 08:30-18:00; Sa 09:00-13:00; Su 00:00-24:00", "image": "https://ac-branches.s3.amazonaws.com/branches/aberdeen-van-store_49007d7ac7ce01e6088110cb43ce69f9d6f0d211.png", "brand": "Arnold Clark", "brand:wikidata": "Q29344371"}, "geometry": {"type": "Point", "coordinates": [-2.088781, 57.129695]}},
{"type": "Feature", "id": "nr433b0n4F_ImRfOf104FSnUt3Q=", "properties": {"ref": "arnds", "@spider": "arnold_clark", "addr:street_address": "Whitemyres Place, Lang Stracht", "addr:city": "Aberdeen", "addr:state": "Aberdeen", "addr:postcode": "AB16 6HT", "name": "Aberdeen Motorstore / Vauxhall / Peugeot / Fiat / Abarth / Jeep / Alfa Romeo", "phone": "+44-1224-002734", "website": "https://www.arnoldclark.com/find-a-dealer/aberdeen-motorstore-vauxhall-peugeot-fiat-abarth-jeep-alfa-romeo/ref/arnds", "opening_hours": "Mo-Fr 08:30-19:00; Sa 08:30-18:00; Su 11:00-18:00", "image": "https://ac-branches.s3.amazonaws.com/branches/aberdeen-motorstore-vauxhall-hyundai-fiat-abarth-jeep-alfa-romeo_787901c09308a2cc883fce7ed4b4868a02a86b77.jpg", "brand": "Arnold Clark", "brand:wikidata": "Q29344371"}, "geometry": {"type": "Point", "coordinates": [-2.15745, 57.152145]}},
{"type": "Feature", "id": "em4Xs5ocrTbAjJaCQJ1QzkmUh3M=", "properties": {"ref": "arndws", "@spider": "arnold_clark", "addr:street_address": "Girdleness Road,", "addr:city": "Aberdeen", "addr:postcode": "AB11 8DU", "name": "Aberdeen Mazda / Ford Service Centre", "phone": "+44-1224-893630", "website": "https://www.arnoldclark.com/find-a-dealer/aberdeen-mazda-ford-service-centre/ref/arndws", "image": "https://ac-branches.s3.amazonaws.com/branches/aberdeen-service-centre_959163d055a7515aeb4ab23796cd3bb96f13b2a9.jpg", "brand": "Arnold Clark", "brand:wikidata": "Q29344371"}, "geometry": {"type": "Point", "coordinates": [-2.092692, 57.127267]}},
{"type": "Feature", "id": "YDKj8eqToNvsEgZgLQ-d3MRLWE8=", "properties": {"ref": "arndw", "@spider": "arnold_clark", "addr:street_address": "Craigshaw Road, West Tullos Industrial Estate", "addr:city": "Aberdeen", "addr:state": "Aberdeen", "addr:postcode": "AB12 3AR", "name": "Aberdeen Mazda", "phone": "+44-1224-010620", "website": "https://www.arnoldclark.com/find-a-dealer/aberdeen-mazda/ref/arndw", "opening_hours": "Mo-Fr 09:00-19:00; Sa 09:00-18:00; Su 11:00-18:00", "image": "https://ac-branches.s3.amazonaws.com/branches/aberdeen-mazda-ford_111185f2b9885d5fc8861edff91578b2605db70a.jpg", "brand": "Arnold Clark", "brand:wikidata": "Q29344371"}, "geometry": {"type": "Point", "coordinates": [-2.091647, 57.126932]}},
{"type": "Feature", "id": "Ua8dym1t8DN85yAWiZp-rNvH2fk=", "properties": {"ref": "arnhf", "@spider": "arnold_clark", "addr:street_address": "Hillview Road,", "addr:city": "Aberdeen", "addr:postcode": "AB12 3HB", "name": "Aberdeen Kia", "phone": "+44-1224-010490", "website": "https://www.arnoldclark.com/find-a-dealer/aberdeen-kia/ref/arnhf", "opening_hours": "Mo-Fr 09:00-19:00; Sa 09:00-18:00; Su 11:00-18:00", "image": "https://ac-branches.s3.amazonaws.com/branches/aberdeen-kia_0d89be9c5618c052497339bdca894a64265bf9af.jpg", "brand": "Arnold Clark", "brand:wikidata": "Q29344371"}, "geometry": {"type": "Point", "coordinates": [-2.088885, 57.126204]}},
{"type": "Feature", "id": "Cs98KHcwi__WyIpUnjxvQ2CSGNQ=", "properties": {"ref": "arndx", "@spider": "arnold_clark", "addr:street_address": "Wellington Rd, East Tullos", "addr:city": "Aberdeen", "addr:state": "Aberdeen", "addr:postcode": "AB12 3BJ", "name": "Aberdeen Hyundai", "phone": "+44-1224-004680", "website": "https://www.arnoldclark.com/find-a-dealer/aberdeen-hyundai/ref/arndx", "opening_hours": "Mo-Th 09:00-19:00; Fr-Sa 09:00-18:00; Su 11:00-18:00", "image": "https://ac-branches.s3.amazonaws.com/branches/aberdeen-hyundai_e272db951864e11f2b3323c33d200128fb8b6741.jpg", "brand": "Arnold Clark", "brand:wikidata": "Q29344371"}, "geometry": {"type": "Point", "coordinates": [-2.08907, 57.124715]}}]}