{"type":"FeatureCollection","features":[{"type": "Feature", "id": "pwc0k7lTWznwwlog__YjaI45ITY=", "properties": {"ref": "https://stores.ashleyhomestore.ca/store/ca/alberta/red-deer/9000182402/", "@spider": "ashley_homestore", "alt_name": "Ashley Furniture", "shop": "furniture", "addr:street_address": "110-5250 22nd St", "addr:city": "Red Deer", "addr:state": "AB", "addr:postcode": "T4R 2T4", "addr:country": "CA", "name": "Ashley HomeStore Red Deer, AB", "phone": "+14033142845", "website": "https://stores.ashleyhomestore.ca/store/ca/alberta/red-deer/9000182402/", "image": "http://res.cloudinary.com/cloudasset/image/upload/v1560182342/map/images/qtvcamum2a7qclm9k9i7.jpg", "brand": "Ashley HomeStore", "brand:wikidata": "Q4805437", "nsi_id": "ashleyhomestore-a694b9"}, "geometry": {"type": "Point", "coordinates": [-113.81606, 52.24038]}},
{"type": "Feature", "id": "vnD9Ih7vNbjB8vJMZ2oFySaAzi4=", "properties": {"ref": "https://stores.ashleyhomestore.ca/store/ca/alberta/medicine-hat/7710000509/", "@spider": "ashley_homestore", "alt_name": "Ashley Furniture", "shop": "furniture", "addr:street_address": "115-1920 Strachan Rd SE", "addr:city": "Medicine Hat", "addr:state": "AB", "addr:postcode": "T1B0G4", "addr:country": "CA", "name": "Ashley HomeStore Medicine Hat, AB", "phone": "+14035804468", "website": "https://stores.ashleyhomestore.ca/store/ca/alberta/medicine-hat/7710000509/", "image": "https://res.cloudinary.com/cloudasset/image/upload/v1666110371/map/images/kvvr55p6wahueusdlxrd.jpg", "brand": "Ashley HomeStore", "brand:wikidata": "Q4805437", "nsi_id": "ashleyhomestore-a694b9"}, "geometry": {"type": "Point", "coordinates": [-110.64711, 49.997494]}},
{"type": "Feature", "id": "XZ_9Y8hAqRwFfoRI-cihUJJq-1s=", "properties": {"ref": "https://stores.ashleyhomestore.ca/store/ca/alberta/lloydminster/9000480396/", "@spider": "ashley_homestore", "alt_name": "Ashley Furniture", "shop": "furniture", "addr:street_address": "3912 50 Ave", "addr:city": "Lloydminster", "addr:state": "AB", "addr:postcode": "T9V 1B1", "addr:country": "CA", "name": "Ashley HomeStore Lloydminster, AB", "phone": "+17808088800", "website": "https://stores.ashleyhomestore.ca/store/ca/alberta/lloydminster/9000480396/", "image": "http://res.cloudinary.com/cloudasset/image/upload/v1601397811/map/images/tnfcqfw5ijpchrwlrn49.jpg", "brand": "Ashley HomeStore", "brand:wikidata": "Q4805437", "nsi_id": "ashleyhomestore-a694b9"}, "geometry": {"type": "Point", "coordinates": [-110.006307, 53.274084]}},
{"type": "Feature", "id": "POnXhce0O1kSvvYzhhIVRxgVUC4=", "properties": {"ref": "https://stores.ashleyhomestore.ca/store/ca/alberta/lethbridge/7710000508/", "@spider": "ashley_homestore", "alt_name": "Ashley Furniture", "shop": "furniture", "addr:street_address": "3732 Mayor Magrath Dr S", "addr:city": "Lethbridge", "addr:state": "AB", "addr:postcode": "T1K 7V1", "addr:country": "CA", "name": "Ashley HomeStore Lethbridge, AB", "phone": "+14033204528", "website": "https://stores.ashleyhomestore.ca/store/ca/alberta/lethbridge/7710000508/", "image": "http://res.cloudinary.com/cloudasset/image/upload/v1539206834/map/images/jmxnggrg1cqshqof7tzc.jpg", "brand": "Ashley HomeStore", "brand:wikidata": "Q4805437", "nsi_id": "ashleyhomestore-a694b9"}, "geometry": {"type": "Point", "coordinates": [-112.79371, 49.655031]}},
{"type": "Feature", "id": "9LCTcnU4o05yzsjl9Kuw4kOlZwA=", "properties": {"ref": "https://stores.ashleyhomestore.ca/store/ca/alberta/grande-prairie/7710000507/", "@spider": "ashley_homestore", "alt_name": "Ashley Furniture", "shop": "furniture", "addr:street_address": "10515 117 Ave", "addr:city": "Grande Prairie", "addr:state": "AB", "addr:postcode": "T8V7N6", "addr:country": "CA", "name": "Ashley HomeStore Grande Prairie, AB", "phone": "+17808820010", "website": "https://stores.ashleyhomestore.ca/store/ca/alberta/grande-prairie/7710000507/", "image": "http://res.cloudinary.com/cloudasset/image/upload/v1564760140/map/images/helrwrb2vmzlseozsevh.jpg", "brand": "Ashley HomeStore", "brand:wikidata": "Q4805437", "nsi_id": "ashleyhomestore-a694b9"}, "geometry": {"type": "Point", "coordinates": [-118.812598, 55.185926]}},
{"type": "Feature", "id": "ES8M6ZWErtTfeCEh0MLc1qcuzrk=", "properties": {"ref": "https://stores.ashleyhomestore.ca/store/ca/alberta/fort-mcmurray/9000106896/", "@spider": "ashley_homestore", "alt_name": "Ashley Furniture", "shop": "furniture", "addr:street_address": "36 Riedel St", "addr:city": "Fort McMurray", "addr:state": "AB", "addr:postcode": "T9H 3E1", "addr:country": "CA", "name": "Ashley HomeStore Fort McMurray, AB", "phone": "+17807500222", "website": "https://stores.ashleyhomestore.ca/store/ca/alberta/fort-mcmurray/9000106896/", "image": "http://res.cloudinary.com/cloudasset/image/upload/v1547515692/map/images/gxzs8krrwhogaln5rpcn.jpg", "brand": "Ashley HomeStore", "brand:wikidata": "Q4805437", "nsi_id": "ashleyhomestore-a694b9"}, "geometry": {"type": "Point", "coordinates": [-111.362987, 56.724519]}},
{"type": "Feature", "id": "t6dQiBCRjCV_Plm5vTdHahUOb6o=", "properties": {"ref": "https://stores.ashleyhomestore.ca/store/ca/alberta/edmonton/7710000505/", "@spider": "ashley_homestore", "alt_name": "Ashley Furniture", "shop": "furniture", "addr:street_address": "1430 99th St NW", "addr:city": "Edmonton", "addr:state": "AB", "addr:postcode": "T5X 0A8", "addr:country": "CA", "name": "Ashley HomeStore Edmonton, AB", "phone": "+17807028610", "website": "https://stores.ashleyhomestore.ca/store/ca/alberta/edmonton/7710000505/", "image": "http://res.cloudinary.com/cloudasset/image/upload/v1539205424/map/images/ekkzkjq0ihmybnseehgs.jpg", "brand": "Ashley HomeStore", "brand:wikidata": "Q4805437", "nsi_id": "ashleyhomestore-a694b9"}, "geometry": {"type": "Point", "coordinates": [-113.486017, 53.443958]}},
{"type": "Feature", "id": "xn7OZ1F5KJn0gNvaHrj7StaHE5A=", "properties": {"ref": "https://stores.ashleyhomestore.ca/store/ca/alberta/edmonton/7710000506/", "@spider": "ashley_homestore", "alt_name": "Ashley Furniture", "shop": "furniture", "addr:street_address": "13932 137th Ave NW &#194;", "addr:city": "Edmonton", "addr:state": "AB", "addr:postcode": "T5L5H1", "addr:country": "CA", "name": "Ashley HomeStore Edmonton, AB", "phone": "+17804959550", "website": "https://stores.ashleyhomestore.ca/store/ca/alberta/edmonton/7710000506/", "image": "http://res.cloudinary.com/cloudasset/image/upload/v1535138137/map/images/xxo1fwtttfoiwishm2it.jpg", "brand": "Ashley HomeStore", "brand:wikidata": "Q4805437", "nsi_id": "ashleyhomestore-a694b9"}, "geometry": {"type": "Point", "coordinates": [-113.561543, 53.600847]}},
{"type": "Feature", "id": "T3I_s0AJyq4tldnW710BoLKJOUY=", "properties": {"ref": "https://stores.ashleyhomestore.ca/store/ca/alberta/calgary/9000342355/", "@spider": "ashley_homestore", "alt_name": "Ashley Furniture", "shop": "furniture", "addr:street_address": "901-64th Avenue NE", "addr:city": "Calgary", "addr:state": "AB", "addr:postcode": "T2E 7P4", "addr:country": "CA", "name": "Ashley HomeStore Calgary, AB", "phone": "+14032503166", "website": "https://stores.ashleyhomestore.ca/store/ca/alberta/calgary/9000342355/", "image": "https://res.cloudinary.com/cloudasset/image/upload/v1666108271/map/images/my0ghtcm58626cajdjo8.jpg", "brand": "Ashley HomeStore", "brand:wikidata": "Q4805437", "nsi_id": "ashleyhomestore-a694b9"}, "geometry": {"type": "Point", "coordinates": [-114.044189, 51.110543]}},
{"type": "Feature", "id": "L4e9ap4Fh7n9oAeSgiPjaTKYsd4=", "properties": {"ref": "https://stores.ashleyhomestore.ca/store/ca/yukon/whitehorse/7710000534/", "@spider": "ashley_homestore", "alt_name": "Ashley Furniture", "shop": "furniture", "addr:street_address": "303 Ogilvie St, Unit 3", "addr:city": "Whitehorse", "addr:state": "YT", "addr:postcode": "Y1A2S3", "addr:country": "CA", "name": "Ashley HomeStore Whitehorse, YT", "phone": "+18676687575", "website": "https://stores.ashleyhomestore.ca/store/ca/yukon/whitehorse/7710000534/", "image": "http://res.cloudinary.com/cloudasset/image/upload/v1560188563/map/images/x2wqy4gj3i8sjoz1fpqs.jpg", "brand": "Ashley HomeStore", "brand:wikidata": "Q4805437", "nsi_id": "ashleyhomestore-a694b9"}, "geometry": {"type": "Point", "coordinates": [-135.059874, 60.72514]}},
{"type": "Feature", "id": "keb1KSkPvbWrR8Dsr9p2ingCI1o=", "properties": {"ref": "https://stores.ashleyhomestore.ca/store/ca/saskatchewan/saskatoon/7710000532/", "@spider": "ashley_homestore", "alt_name": "Ashley Furniture", "shop": "furniture", "addr:street_address": "140-3047 Clarence Ave S", "addr:city": "Saskatoon", "addr:state": "SK", "addr:postcode": "S7T0B4", "addr:country": "CA", "name": "Ashley HomeStore Saskatoon, SK", "phone": "+13066517120", "website": "https://stores.ashleyhomestore.ca/store/ca/saskatchewan/saskatoon/7710000532/", "image": "https://res.cloudinary.com/cloudasset/image/upload/v1666108222/map/images/ayba7hgbfcsh9zojpqbc.jpg", "brand": "Ashley HomeStore", "brand:wikidata": "Q4805437", "nsi_id": "ashleyhomestore-a694b9"}, "geometry": {"type": "Point", "coordinates": [-106.644946, 52.086071]}},
{"type": "Feature", "id": "IMhGokhTvebgJ6WfaVjddfGA8Cg=", "properties": {"ref": "https://stores.ashleyhomestore.ca/store/ca/ontario/woodbridge/7710000527/", "@spider": "ashley_homestore", "alt_name": "Ashley Furniture", "shop": "furniture", "addr:street_address": "3900 Hwy 7", "addr:city": "Woodbridge", "addr:state": "ON", "addr:postcode": "L4L9C3", "addr:country": "CA", "name": "Ashley HomeStore Woodbridge, ON", "phone": "+16474273900", "website": "https://stores.ashleyhomestore.ca/store/ca/ontario/woodbridge/7710000527/", "image": "https://res.cloudinary.com/cloudasset/image/upload/v1666110228/map/images/fodqkpkldqae0nbvbtzc.jpg", "brand": "Ashley HomeStore", "brand:wikidata": "Q4805437", "nsi_id": "ashleyhomestore-a694b9"}, "geometry": {"type": "Point", "coordinates": [-79.553715, 43.789055]}},
{"type": "Feature", "id": "I6hfofykBLW8j3tJKQQ-e4-BOx0=", "properties": {"ref": "https://stores.ashleyhomestore.ca/store/ca/nova-scotia/dartmouth/7710000519/", "@spider": "ashley_homestore", "alt_name": "Ashley Furniture", "shop": "furniture", "addr:street_address": "60 Highfield Park Dr", "addr:city": "Dartmouth", "addr:state": "NS", "addr:postcode": "B3A4R9", "addr:country": "CA", "name": "Ashley HomeStore Dartmouth, NS", "phone": "+19024507007", "website": "https://stores.ashleyhomestore.ca/store/ca/nova-scotia/dartmouth/7710000519/", "image": "https://res.cloudinary.com/cloudasset/image/upload/v1666108448/map/images/gm3njxjgiqkqjqosewpy.jpg", "brand": "Ashley HomeStore", "brand:wikidata": "Q4805437", "nsi_id": "ashleyhomestore-a694b9"}, "geometry": {"type": "Point", "coordinates": [-63.590019, 44.688864]}},
{"type": "Feature", "id": "mUvV9Pk5QbI7P8c_s3ldM9CORrs=", "properties": {"ref": "https://stores.ashleyhomestore.ca/store/ca/new-brunswick/moncton/7710000518/", "@spider": "ashley_homestore", "alt_name": "Ashley Furniture", "shop": "furniture", "addr:street_address": "79 Wyse St, Suite 250", "addr:city": "Moncton", "addr:state": "NB", "addr:postcode": "E1G0Z5", "addr:country": "CA", "name": "Ashley HomeStore Moncton, NB", "phone": "+15069617700", "website": "https://stores.ashleyhomestore.ca/store/ca/new-brunswick/moncton/7710000518/", "image": "http://res.cloudinary.com/cloudasset/image/upload/v1601586485/map/images/qvk7ah5ttha7jphv49eh.jpg", "brand": "Ashley HomeStore", "brand:wikidata": "Q4805437", "nsi_id": "ashleyhomestore-a694b9"}, "geometry": {"type": "Point", "coordinates": [-64.824652, 46.119049]}},
{"type": "Feature", "id": "gtdXZHi_d5c_9oGsRdFNlFjbFfg=", "properties": {"ref": "https://stores.ashleyhomestore.ca/store/ca/manitoba/winnipeg/7710000517/", "@spider": "ashley_homestore", "alt_name": "Ashley Furniture", "shop": "furniture", "addr:street_address": "1580 Regent Ave W", "addr:city": "Winnipeg", "addr:state": "MB", "addr:postcode": "R2C 2Y9", "addr:country": "CA", "name": "Ashley HomeStore Winnipeg, MB", "phone": "+12046694466", "website": "https://stores.ashleyhomestore.ca/store/ca/manitoba/winnipeg/7710000517/", "image": "https://res.cloudinary.com/cloudasset/image/upload/v1666109956/map/images/rabzgck4vktsqir4wevs.jpg", "brand": "Ashley HomeStore", "brand:wikidata": "Q4805437", "nsi_id": "ashleyhomestore-a694b9"}, "geometry": {"type": "Point", "coordinates": [-97.066393, 49.896472]}},
{"type": "Feature", "id": "1KSo_KXOY6bGuuPEHyE21pDYPx4=", "properties": {"ref": "https://stores.ashleyhomestore.ca/store/ca/british-columbia/victoria/7710000514/", "@spider": "ashley_homestore", "alt_name": "Ashley Furniture", "shop": "furniture", "addr:street_address": "1652 Island Hwy", "addr:city": "Victoria", "addr:state": "BC", "addr:postcode": "V9B1H8", "addr:country": "CA", "name": "Ashley HomeStore Victoria, BC", "phone": "+12504742026", "website": "https://stores.ashleyhomestore.ca/store/ca/british-columbia/victoria/7710000514/", "image": "http://res.cloudinary.com/cloudasset/image/upload/v1560188388/map/images/azlgf0dgwhvmw6yfg9dw.jpg", "brand": "Ashley HomeStore", "brand:wikidata": "Q4805437", "nsi_id": "ashleyhomestore-a694b9"}, "geometry": {"type": "Point", "coordinates": [-123.462509, 48.454511]}},
{"type": "Feature", "id": "ZpsW5bpsTnJXJ67MIUVbk3FzIiw=", "properties": {"ref": "https://stores.ashleyhomestore.ca/store/ca/british-columbia/vernon/7710000513/", "@spider": "ashley_homestore", "alt_name": "Ashley Furniture", "shop": "furniture", "addr:street_address": "3202 28 St", "addr:city": "Vernon", "addr:state": "BC", "addr:postcode": "V1T4Z8", "addr:country": "CA", "name": "Ashley HomeStore Vernon, BC", "phone": "+12505450535", "website": "https://stores.ashleyhomestore.ca/store/ca/british-columbia/vernon/7710000513/", "image": "https://res.cloudinary.com/cloudasset/image/upload/v1666108080/map/images/uwv6ixhmlhik2idju4h0.jpg", "brand": "Ashley HomeStore", "brand:wikidata": "Q4805437", "nsi_id": "ashleyhomestore-a694b9"}, "geometry": {"type": "Point", "coordinates": [-119.268469, 50.265662]}},
{"type": "Feature", "id": "qKsbQ1I-QlwnaaqUtF1XsgdMVB4=", "properties": {"ref": "https://stores.ashleyhomestore.ca/store/ca/british-columbia/trail/9000452356/", "@spider": "ashley_homestore", "alt_name": "Ashley Furniture", "shop": "furniture", "addr:street_address": "8080 Old Waneta Rd", "addr:city": "Trail", "addr:state": "BC", "addr:postcode": "V1R4X1", "addr:country": "CA", "name": "Ashley HomeStore Trail, BC", "phone": "+17784564555", "website": "https://stores.ashleyhomestore.ca/store/ca/british-columbia/trail/9000452356/", "image": "https://res.cloudinary.com/cloudasset/image/upload/v1666110115/map/images/hyu50ypm6v7uw1igo46z.jpg", "brand": "Ashley HomeStore", "brand:wikidata": "Q4805437", "nsi_id": "ashleyhomestore-a694b9"}, "geometry": {"type": "Point", "coordinates": [-117.636758, 49.08988]}},
{"type": "Feature", "id": "3O_NitCUfUBXC7rDMD8iIEkWVIc=", "properties": {"ref": "https://stores.ashleyhomestore.ca/store/ca/british-columbia/salmon-arm/9000542439/", "@spider": "ashley_homestore", "alt_name": "Ashley Furniture", "shop": "furniture", "addr:street_address": "521 10 St SW", "addr:city": "Salmon Arm", "addr:state": "BC", "addr:postcode": "V1E 1T1", "addr:country": "CA", "name": "Ashley HomeStore Salmon Arm, BC", "phone": "+17784898383", "website": "https://stores.ashleyhomestore.ca/store/ca/british-columbia/salmon-arm/9000542439/", "image": "https://res.cloudinary.com/cloudasset/image/upload/v1666109414/map/images/zshpbmjpgojlicuddbhc.jpg", "brand": "Ashley HomeStore", "brand:wikidata": "Q4805437", "nsi_id": "ashleyhomestore-a694b9"}, "geometry": {"type": "Point", "coordinates": [-119.29707, 50.696243]}},
{"type": "Feature", "id": "q5V6cCA2Nh9RLqx4LEPYvF-10Ns=", "properties": {"ref": "https://stores.ashleyhomestore.ca/store/ca/british-columbia/quesnel/7710000294/", "@spider": "ashley_homestore", "alt_name": "Ashley Furniture", "shop": "furniture", "addr:street_address": "2316 Larch Ave", "addr:city": "Quesnel", "addr:state": "BC", "addr:postcode": "V2J5T9", "addr:country": "CA", "name": "Ashley HomeStore Quesnel, BC", "phone": "+12507477420", "website": "https://stores.ashleyhomestore.ca/store/ca/british-columbia/quesnel/7710000294/", "image": "https://res.cloudinary.com/cloudasset/image/upload/v1666110011/map/images/u94u7w7o1dngjwnmv9xr.jpg", "brand": "Ashley HomeStore", "brand:wikidata": "Q4805437", "nsi_id": "ashleyhomestore-a694b9"}, "geometry": {"type": "Point", "coordinates": [-122.439653, 52.971807]}},
{"type": "Feature", "id": "Oz2j5RGSmBODqVZPnIvil0m8l6Q=", "properties": {"ref": "https://stores.ashleyhomestore.ca/store/ca/british-columbia/prince-rupert/9000076427/", "@spider": "ashley_homestore", "alt_name": "Ashley Furniture", "shop": "furniture", "addr:street_address": "150 1st Ave W", "addr:city": "Prince Rupert", "addr:state": "BC", "addr:postcode": "V8J 1A8", "addr:country": "CA", "name": "Ashley HomeStore Prince Rupert, BC", "phone": "+12506244146", "website": "https://stores.ashleyhomestore.ca/store/ca/british-columbia/prince-rupert/9000076427/", "image": "http://res.cloudinary.com/cloudasset/image/upload/v1496673955/map/images/dkhulufwyh4zythqyzo5.jpg", "brand": "Ashley HomeStore", "brand:wikidata": "Q4805437", "nsi_id": "ashleyhomestore-a694b9"}, "geometry": {"type": "Point", "coordinates": [-130.324366, 54.315862]}},
{"type": "Feature", "id": "cPaP8rQ9nnVzHqZ8bfQsguMWQHY=", "properties": {"ref": "https://stores.ashleyhomestore.ca/store/ca/british-columbia/prince-george/7710000293/", "@spider": "ashley_homestore", "alt_name": "Ashley Furniture", "shop": "furniture", "addr:street_address": "1303 3Rd Ave", "addr:city": "Prince George", "addr:state": "BC", "addr:postcode": "V2L3E8", "addr:country": "CA", "name": "Ashley HomeStore Prince George, BC", "phone": "+12364230123", "website": "https://stores.ashleyhomestore.ca/store/ca/british-columbia/prince-george/7710000293/", "image": "http://res.cloudinary.com/cloudasset/image/upload/v1560182281/map/images/ffic8hdaxqibxvqitcdv.jpg", "brand": "Ashley HomeStore", "brand:wikidata": "Q4805437", "nsi_id": "ashleyhomestore-a694b9"}, "geometry": {"type": "Point", "coordinates": [-122.746829, 53.916955]}},
{"type": "Feature", "id": "37Aj_uYRtvj2H7sAP1fGboKZFsU=", "properties": {"ref": "https://stores.ashleyhomestore.ca/store/ca/british-columbia/penticton/9000074650/", "@spider": "ashley_homestore", "alt_name": "Ashley Furniture", "shop": "furniture", "addr:street_address": "3039 Skaha Lake Rd", "addr:city": "Penticton", "addr:state": "BC", "addr:postcode": "V2A6G3", "addr:country": "CA", "name": "Ashley HomeStore Penticton, BC", "phone": "+12364223220", "website": "https://stores.ashleyhomestore.ca/store/ca/british-columbia/penticton/9000074650/", "image": "http://res.cloudinary.com/cloudasset/image/upload/v1560181923/map/images/b0abyhytzactt3igc5iv.jpg", "brand": "Ashley HomeStore", "brand:wikidata": "Q4805437", "nsi_id": "ashleyhomestore-a694b9"}, "geometry": {"type": "Point", "coordinates": [-119.588347, 49.462519]}},
{"type": "Feature", "id": "EXHICVdA6G6OXqjcU1mQRmh3UHM=", "properties": {"ref": "https://stores.ashleyhomestore.ca/store/ca/british-columbia/langley/7710000292/", "@spider": "ashley_homestore", "alt_name": "Ashley Furniture", "shop": "furniture", "addr:street_address": "20645 Langley Bypass", "addr:city": "Langley", "addr:state": "BC", "addr:postcode": "V3A5E8", "addr:country": "CA", "name": "Ashley HomeStore Langley, BC", "phone": "+16045321167", "website": "https://stores.ashleyhomestore.ca/store/ca/british-columbia/langley/7710000292/", "image": "https://res.cloudinary.com/cloudasset/image/upload/v1666110334/map/images/n8h5wn4mlewbhkcpii9s.jpg", "brand": "Ashley HomeStore", "brand:wikidata": "Q4805437", "nsi_id": "ashleyhomestore-a694b9"}, "geometry": {"type": "Point", "coordinates": [-122.650655, 49.114193]}},
{"type": "Feature", "id": "DWsitc4RI75ScX04cuG9-HkqYGI=", "properties": {"ref": "https://stores.ashleyhomestore.ca/store/ca/british-columbia/kelowna/7710000291/", "@spider": "ashley_homestore", "alt_name": "Ashley Furniture", "shop": "furniture", "addr:street_address": "2514 N Hwy 97", "addr:city": "Kelowna", "addr:state": "BC", "addr:postcode": "V1X4J3", "addr:country": "CA", "name": "Ashley HomeStore Kelowna, BC", "phone": "+12508619321", "website": "https://stores.ashleyhomestore.ca/store/ca/british-columbia/kelowna/7710000291/", "image": "http://res.cloudinary.com/cloudasset/image/upload/v1485910132/map/images/yuoan4ghfdbcoipptyx0.jpg", "brand": "Ashley HomeStore", "brand:wikidata": "Q4805437", "nsi_id": "ashleyhomestore-a694b9"}, "geometry": {"type": "Point", "coordinates": [-119.420698, 49.890017]}},
{"type": "Feature", "id": "eodMBRQqCg_ukRwEleFe8idVt-4=", "properties": {"ref": "https://stores.ashleyhomestore.ca/store/ca/british-columbia/kamloops/9000109232/", "@spider": "ashley_homestore", "alt_name": "Ashley Furniture", "shop": "furniture", "addr:street_address": "1663 Trans-Canada HWY E Frontage Road", "addr:city": "Kamloops", "addr:state": "BC", "addr:postcode": "V2C 3Z5", "addr:country": "CA", "name": "Ashley HomeStore Kamloops, BC", "phone": "+12503727000", "website": "https://stores.ashleyhomestore.ca/store/ca/british-columbia/kamloops/9000109232/", "image": "http://res.cloudinary.com/cloudasset/image/upload/v1559668845/map/images/lzfpu7gkmbfbw3shi3dc.jpg", "brand": "Ashley HomeStore", "brand:wikidata": "Q4805437", "nsi_id": "ashleyhomestore-a694b9"}, "geometry": {"type": "Point", "coordinates": [-120.292422, 50.674361]}},
{"type": "Feature", "id": "gibu-3no54nXejID609ioewgcAI=", "properties": {"ref": "https://stores.ashleyhomestore.ca/store/ca/british-columbia/cranbrook/7710000289/", "@spider": "ashley_homestore", "alt_name": "Ashley Furniture", "shop": "furniture", "addr:street_address": "1708 Cranbrook St N", "addr:city": "Cranbrook", "addr:state": "BC", "addr:postcode": "V1C3S7", "addr:country": "CA", "name": "Ashley HomeStore Cranbrook, BC", "phone": "+12504262311", "website": "https://stores.ashleyhomestore.ca/store/ca/british-columbia/cranbrook/7710000289/", "image": "http://res.cloudinary.com/cloudasset/image/upload/v1564753511/map/images/wv59ydthnczqpwafq774.jpg", "brand": "Ashley HomeStore", "brand:wikidata": "Q4805437", "nsi_id": "ashleyhomestore-a694b9"}, "geometry": {"type": "Point", "coordinates": [-115.748536, 49.528099]}},
{"type": "Feature", "id": "lFmP_-4B0F41ClAteDGGDOkESeg=", "properties": {"ref": "https://stores.ashleyhomestore.ca/store/ca/british-columbia/courtenay/9000037220/", "@spider": "ashley_homestore", "alt_name": "Ashley Furniture", "shop": "furniture", "addr:street_address": "2966 Kilpatrick Ave", "addr:city": "Courtenay", "addr:state": "BC", "addr:postcode": "V9N 8P1", "addr:country": "CA", "name": "Ashley HomeStore Courtenay, BC", "phone": "+12503340007", "website": "https://stores.ashleyhomestore.ca/store/ca/british-columbia/courtenay/9000037220/", "image": "http://res.cloudinary.com/cloudasset/image/upload/v1559663138/map/images/fosjlgblob3jvriti3yn.jpg", "brand": "Ashley HomeStore", "brand:wikidata": "Q4805437", "nsi_id": "ashleyhomestore-a694b9"}, "geometry": {"type": "Point", "coordinates": [-124.980694, 49.670267]}},
{"type": "Feature", "id": "K0iya8-yycGCAr87KOrE_zzR1Gs=", "properties": {"ref": "https://stores.ashleyhomestore.ca/store/ca/british-columbia/coquitlam/7710000288/", "@spider": "ashley_homestore", "alt_name": "Ashley Furniture", "shop": "furniture", "addr:street_address": "1365 United Blvd", "addr:city": "Coquitlam", "addr:state": "BC", "addr:postcode": "V3K6Y3", "addr:country": "CA", "name": "Ashley HomeStore Coquitlam, BC", "phone": "+16047771365", "website": "https://stores.ashleyhomestore.ca/store/ca/british-columbia/coquitlam/7710000288/", "image": "https://res.cloudinary.com/cloudasset/image/upload/v1666109842/map/images/cdj7rh1rhxhhkk1cwadw.jpg", "brand": "Ashley HomeStore", "brand:wikidata": "Q4805437", "nsi_id": "ashleyhomestore-a694b9"}, "geometry": {"type": "Point", "coordinates": [-122.851741, 49.229749]}},
{"type": "Feature", "id": "xmTHe6vBFzRC8HKvVzNWRLmL6lI=", "properties": {"ref": "https://stores.ashleyhomestore.ca/store/ca/british-columbia/abbotsford/7710000511/", "@spider": "ashley_homestore", "alt_name": "Ashley Furniture", "shop": "furniture", "addr:street_address": "1425 Sumas Way, Unit 106", "addr:city": "Abbotsford", "addr:state": "BC", "addr:postcode": "V2S8M9", "addr:country": "CA", "name": "Ashley HomeStore Abbotsford, BC", "phone": "+16048649062", "website": "https://stores.ashleyhomestore.ca/store/ca/british-columbia/abbotsford/7710000511/", "image": "https://res.cloudinary.com/cloudasset/image/upload/v1666110553/map/images/a4gkuthhckyspwfox1y4.jpg", "brand": "Ashley HomeStore", "brand:wikidata": "Q4805437", "nsi_id": "ashleyhomestore-a694b9"}, "geometry": {"type": "Point", "coordinates": [-122.267102, 49.027568]}},
{"type": "Feature", "id": "CFxqqTVJMjnfuA-uq8nCVLkTTX4=", "properties": {"ref": "https://stores.ashleyhomestore.ca/store/ca/manitoba/winnipeg/7710000516/", "@spider": "ashley_homestore", "alt_name": "Ashley Furniture", "shop": "furniture", "addr:street_address": "1000 St James St", "addr:city": "Winnipeg", "addr:state": "MB", "addr:postcode": "R3H 0K3", "addr:country": "CA", "name": "Ashley HomeStore Winnipeg, MB", "phone": "+12047836400", "website": "https://stores.ashleyhomestore.ca/store/ca/manitoba/winnipeg/7710000516/", "image": "https://res.cloudinary.com/cloudasset/image/upload/v1666109162/map/images/vihskpjg937do26rkjz6.jpg", "brand": "Ashley HomeStore", "brand:wikidata": "Q4805437", "nsi_id": "ashleyhomestore-a694b9"}, "geometry": {"type": "Point", "coordinates": [-97.201278, 49.893518]}},
{"type": "Feature", "id": "VsiJhT-TDVboRFsd_K73zwB9HkM=", "properties": {"ref": "https://stores.ashleyhomestore.ca/store/ca/manitoba/brandon/7710000515/", "@spider": "ashley_homestore", "alt_name": "Ashley Furniture", "shop": "furniture", "addr:street_address": "925 18th Street North", "addr:city": "Brandon", "addr:state": "MB", "addr:postcode": "R7A7S1", "addr:country": "CA", "name": "Ashley HomeStore Brandon, MB", "phone": "+12047261817", "website": "https://stores.ashleyhomestore.ca/store/ca/manitoba/brandon/7710000515/", "image": "http://res.cloudinary.com/cloudasset/image/upload/v1539204159/map/images/zxwihjpxhqek3x7vwpdx.jpg", "brand": "Ashley HomeStore", "brand:wikidata": "Q4805437", "nsi_id": "ashleyhomestore-a694b9"}, "geometry": {"type": "Point", "coordinates": [-99.960862, 49.868679]}},
{"type": "Feature", "id": "GKqcE2sS0lU0v-ey_XO-MrAGyH0=", "properties": {"ref": "https://stores.ashleyhomestore.ca/store/ca/ontario/windsor/9000170257/", "@spider": "ashley_homestore", "alt_name": "Ashley Furniture", "shop": "furniture", "addr:street_address": "1-650 Division Rd", "addr:city": "Windsor", "addr:state": "ON", "addr:postcode": "N8X 5E7", "addr:country": "CA", "name": "Ashley HomeStore Windsor, ON", "phone": "+15199695814", "website": "https://stores.ashleyhomestore.ca/store/ca/ontario/windsor/9000170257/", "image": "http://res.cloudinary.com/cloudasset/image/upload/v1560188587/map/images/mgxbardkoa7yt9vzjp2s.jpg", "brand": "Ashley HomeStore", "brand:wikidata": "Q4805437", "nsi_id": "ashleyhomestore-a694b9"}, "geometry": {"type": "Point", "coordinates": [-82.996697, 42.270542]}},
{"type": "Feature", "id": "CQ8xR1Asxx-DCOPGc3omwIwwlPo=", "properties": {"ref": "https://stores.ashleyhomestore.ca/store/ca/ontario/whitby/9000035147/", "@spider": "ashley_homestore", "alt_name": "Ashley Furniture", "shop": "furniture", "addr:street_address": "1650 Victoria St E, Unit 5A", "addr:city": "Whitby", "addr:state": "ON", "addr:postcode": "L1N 9L4", "addr:country": "CA", "name": "Ashley HomeStore Whitby, ON", "phone": "+19057234786", "website": "https://stores.ashleyhomestore.ca/store/ca/ontario/whitby/9000035147/", "image": "http://res.cloudinary.com/cloudasset/image/upload/v1560188531/map/images/j6hlnluhagfo79drnkhf.jpg", "brand": "Ashley HomeStore", "brand:wikidata": "Q4805437", "nsi_id": "ashleyhomestore-a694b9"}, "geometry": {"type": "Point", "coordinates": [-78.901904, 43.867816]}},
{"type": "Feature", "id": "C9pPJhp5T7guke_dT018ySOeTDg=", "properties": {"ref": "https://stores.ashleyhomestore.ca/store/ca/ontario/thunder-bay/9000109139/", "@spider": "ashley_homestore", "alt_name": "Ashley Furniture", "shop": "furniture", "addr:street_address": "640 Balmoral Street", "addr:city": "Thunder Bay", "addr:state": "ON", "addr:postcode": "P7C 5G9", "addr:country": "CA", "name": "Ashley HomeStore Thunder Bay, ON", "phone": "+18074761466", "website": "https://stores.ashleyhomestore.ca/store/ca/ontario/thunder-bay/9000109139/", "image": "http://res.cloudinary.com/cloudasset/image/upload/v1520366064/map/images/rccbqasvzoce7kfve3rw.jpg", "brand": "Ashley HomeStore", "brand:wikidata": "Q4805437", "nsi_id": "ashleyhomestore-a694b9"}, "geometry": {"type": "Point", "coordinates": [-89.257682, 48.393662]}},
{"type": "Feature", "id": "K57RReXDgJldMj-aw2FI8-QmRS0=", "properties": {"ref": "https://stores.ashleyhomestore.ca/store/ca/ontario/sudbury/9000107123/", "@spider": "ashley_homestore", "alt_name": "Ashley Furniture", "shop": "furniture", "addr:street_address": "800 Barry Downe Rd", "addr:city": "Sudbury", "addr:state": "ON", "addr:postcode": "P3A 3T7", "addr:country": "CA", "name": "Ashley HomeStore Sudbury, ON", "phone": "+17055663511", "website": "https://stores.ashleyhomestore.ca/store/ca/ontario/sudbury/9000107123/", "image": "http://res.cloudinary.com/cloudasset/image/upload/v1560188227/map/images/g8eqafjqfi3vc4uxsh5q.jpg", "brand": "Ashley HomeStore", "brand:wikidata": "Q4805437", "nsi_id": "ashleyhomestore-a694b9"}, "geometry": {"type": "Point", "coordinates": [-80.943711, 46.514214]}},
{"type": "Feature", "id": "TXj_oG9WWasiGUjNlqRtobbBHpo=", "properties": {"ref": "https://stores.ashleyhomestore.ca/store/ca/ontario/stoney-creek/7710000526/", "@spider": "ashley_homestore", "alt_name": "Ashley Furniture", "shop": "furniture", "addr:street_address": "1776 Stone Church Rd E, Unit 2", "addr:city": "Stoney Creek", "addr:state": "ON", "addr:postcode": "L8J 2V4", "addr:country": "CA", "name": "Ashley HomeStore Stoney Creek, ON", "phone": "+19056434646", "website": "https://stores.ashleyhomestore.ca/store/ca/ontario/stoney-creek/7710000526/", "image": "https://res.cloudinary.com/cloudasset/image/upload/v1666110964/map/images/il0re2gtryjijp4wiobs.jpg", "brand": "Ashley HomeStore", "brand:wikidata": "Q4805437", "nsi_id": "ashleyhomestore-a694b9"}, "geometry": {"type": "Point", "coordinates": [-79.814772, 43.191707]}},
{"type": "Feature", "id": "4v-4n0sGmXY7mc5NMozJ7vaJRCQ=", "properties": {"ref": "https://stores.ashleyhomestore.ca/store/ca/ontario/scarborough/9000092868/", "@spider": "ashley_homestore", "alt_name": "Ashley Furniture", "shop": "furniture", "addr:street_address": "23 William Kitchen Rd, H3", "addr:city": "Scarborough", "addr:state": "ON", "addr:postcode": "M1P 5B7", "addr:country": "CA", "name": "Ashley HomeStore Scarborough, ON", "phone": "+14162991098", "website": "https://stores.ashleyhomestore.ca/store/ca/ontario/scarborough/9000092868/", "image": "http://res.cloudinary.com/cloudasset/image/upload/v1560187958/map/images/dfjjk63lkni4oxn1auuo.jpg", "brand": "Ashley HomeStore", "brand:wikidata": "Q4805437", "nsi_id": "ashleyhomestore-a694b9"}, "geometry": {"type": "Point", "coordinates": [-79.279599, 43.774369]}},
{"type": "Feature", "id": "WPRtI1p8K4LDaglFmkNRe_CnyXA=", "properties": {"ref": "https://stores.ashleyhomestore.ca/store/ca/ontario/sault-ste-marie/9000035146/", "@spider": "ashley_homestore", "alt_name": "Ashley Furniture", "shop": "furniture", "addr:street_address": "115 Northern Ave E", "addr:city": "Sault Ste. Marie", "addr:state": "ON", "addr:postcode": "P6B 4H5", "addr:country": "CA", "name": "Ashley HomeStore Sault Ste. Marie, ON", "phone": "+17059462538", "website": "https://stores.ashleyhomestore.ca/store/ca/ontario/sault-ste-marie/9000035146/", "image": "http://res.cloudinary.com/cloudasset/image/upload/v1560187925/map/images/vimfnryicaahkuplpj9m.jpg", "brand": "Ashley HomeStore", "brand:wikidata": "Q4805437", "nsi_id": "ashleyhomestore-a694b9"}, "geometry": {"type": "Point", "coordinates": [-84.330316, 46.533716]}},
{"type": "Feature", "id": "hlms79CGDONDgHRXX6KAC-GlVMI=", "properties": {"ref": "https://stores.ashleyhomestore.ca/store/ca/ontario/richmond-hill/9000117873/", "@spider": "ashley_homestore", "alt_name": "Ashley Furniture", "shop": "furniture", "addr:street_address": "45 Red Maple Rd", "addr:city": "Richmond Hill", "addr:state": "ON", "addr:postcode": "L4B 4M6", "addr:country": "CA", "name": "Ashley HomeStore Richmond Hill, ON", "phone": "+19057636020", "website": "https://stores.ashleyhomestore.ca/store/ca/ontario/richmond-hill/9000117873/", "image": "http://res.cloudinary.com/cloudasset/image/upload/v1560182522/map/images/b7afu1qq1dnuqp7vcfa0.jpg", "brand": "Ashley HomeStore", "brand:wikidata": "Q4805437", "nsi_id": "ashleyhomestore-a694b9"}, "geometry": {"type": "Point", "coordinates": [-79.420985, 43.841867]}},
{"type": "Feature", "id": "Jd1CrB1byfMI9cdVKnmfiU0Pzzg=", "properties": {"ref": "https://stores.ashleyhomestore.ca/store/ca/ontario/prescott/9000031917/", "@spider": "ashley_homestore", "alt_name": "Ashley Furniture", "shop": "furniture", "addr:street_address": "707 Lawrence St", "addr:city": "Prescott", "addr:state": "ON", "addr:postcode": "K0E 1T0", "addr:country": "CA", "name": "Ashley HomeStore Prescott, ON", "phone": "+16139751160", "website": "https://stores.ashleyhomestore.ca/store/ca/ontario/prescott/9000031917/", "image": "http://res.cloudinary.com/cloudasset/image/upload/v1560182251/map/images/pbjolszex5kml6popmah.jpg", "brand": "Ashley HomeStore", "brand:wikidata": "Q4805437", "nsi_id": "ashleyhomestore-a694b9"}, "geometry": {"type": "Point", "coordinates": [-75.524168, 44.710001]}},
{"type": "Feature", "id": "-SPWID-tDLA9i6Vcl-NUaCEsqyI=", "properties": {"ref": "https://stores.ashleyhomestore.ca/store/ca/ontario/pembroke/7710000524/", "@spider": "ashley_homestore", "alt_name": "Ashley Furniture", "shop": "furniture", "addr:street_address": "10 Matthews Ave", "addr:city": "Pembroke", "addr:state": "ON", "addr:postcode": "K8A8A4", "addr:country": "CA", "name": "Ashley HomeStore Pembroke, ON", "phone": "+16136295464", "website": "https://stores.ashleyhomestore.ca/store/ca/ontario/pembroke/7710000524/", "image": "http://res.cloudinary.com/cloudasset/image/upload/v1560181700/map/images/uvmgijln2wzig0dcdttv.jpg", "brand": "Ashley HomeStore", "brand:wikidata": "Q4805437", "nsi_id": "ashleyhomestore-a694b9"}, "geometry": {"type": "Point", "coordinates": [-77.160779, 45.836846]}},
{"type": "Feature", "id": "zxC5gCtp8bCQuhrZRlJz-lU_dso=", "properties": {"ref": "https://stores.ashleyhomestore.ca/store/ca/ontario/parry-sound/9000175432/", "@spider": "ashley_homestore", "alt_name": "Ashley Furniture", "shop": "furniture", "addr:street_address": "5 Mall Dr", "addr:city": "Parry Sound", "addr:state": "ON", "addr:postcode": "P2A 3A9", "addr:country": "CA", "name": "Ashley HomeStore Parry Sound, ON", "phone": "+17057468792", "website": "https://stores.ashleyhomestore.ca/store/ca/ontario/parry-sound/9000175432/", "image": "http://res.cloudinary.com/cloudasset/image/upload/v1531851580/map/images/oqwt7cdbu37kymvaq58c.jpg", "brand": "Ashley HomeStore", "brand:wikidata": "Q4805437", "nsi_id": "ashleyhomestore-a694b9"}, "geometry": {"type": "Point", "coordinates": [-80.042736, 45.360766]}},
{"type": "Feature", "id": "UHgGSTJw0Rm-ycl0osCLu15A3HI=", "properties": {"ref": "https://stores.ashleyhomestore.ca/store/ca/ontario/ottawa/9000064175/", "@spider": "ashley_homestore", "alt_name": "Ashley Furniture", "shop": "furniture", "addr:street_address": "530 West Hunt Club Rd", "addr:city": "Ottawa", "addr:state": "ON", "addr:postcode": "K2G 7B5", "addr:country": "CA", "name": "Ashley HomeStore Ottawa, ON", "phone": "+16132321441", "website": "https://stores.ashleyhomestore.ca/store/ca/ontario/ottawa/9000064175/", "image": "http://res.cloudinary.com/cloudasset/image/upload/v1539786243/map/images/nm1bckaiiz5iskaukbhs.jpg", "brand": "Ashley HomeStore", "brand:wikidata": "Q4805437", "nsi_id": "ashleyhomestore-a694b9"}, "geometry": {"type": "Point", "coordinates": [-75.725738, 45.332583]}},
{"type": "Feature", "id": "TuQPBa3VrGKM9Tczb9fX6wmLMaQ=", "properties": {"ref": "https://stores.ashleyhomestore.ca/store/ca/ontario/north-bay/9000076148/", "@spider": "ashley_homestore", "alt_name": "Ashley Furniture", "shop": "furniture", "addr:street_address": "111 Drury St", "addr:city": "North Bay", "addr:state": "ON", "addr:postcode": "P1A 3Z7", "addr:country": "CA", "name": "Ashley HomeStore North Bay, ON", "phone": "+17054720123", "website": "https://stores.ashleyhomestore.ca/store/ca/ontario/north-bay/9000076148/", "image": "http://res.cloudinary.com/cloudasset/image/upload/v1560173630/map/images/l1a3xshj1bq6vaor4ouj.jpg", "brand": "Ashley HomeStore", "brand:wikidata": "Q4805437", "nsi_id": "ashleyhomestore-a694b9"}, "geometry": {"type": "Point", "coordinates": [-79.44088, 46.310386]}},
{"type": "Feature", "id": "CBH_Yl59KMUI5e6yPv6tbkyFLok=", "properties": {"ref": "https://stores.ashleyhomestore.ca/store/ca/ontario/newmarket/9000200389/", "@spider": "ashley_homestore", "alt_name": "Ashley Furniture", "shop": "furniture", "addr:street_address": "17700 Yonge Street", "addr:city": "Newmarket", "addr:state": "ON", "addr:postcode": "L3Y 8P4", "addr:country": "CA", "name": "Ashley HomeStore Newmarket, ON", "phone": "+12893192770", "website": "https://stores.ashleyhomestore.ca/store/ca/ontario/newmarket/9000200389/", "image": "http://res.cloudinary.com/cloudasset/image/upload/v1560171589/map/images/cbuipz2k3cgqfeeokmy1.jpg", "brand": "Ashley HomeStore", "brand:wikidata": "Q4805437", "nsi_id": "ashleyhomestore-a694b9"}, "geometry": {"type": "Point", "coordinates": [-79.482428, 44.058834]}},
{"type": "Feature", "id": "7Yoi8xe6jLqOqgLdOj6PBjUAdco=", "properties": {"ref": "https://stores.ashleyhomestore.ca/store/ca/ontario/mississauga/9000482012/", "@spider": "ashley_homestore", "alt_name": "Ashley Furniture", "shop": "furniture", "addr:street_address": "333 Matheson Blvd W", "addr:city": "Mississauga", "addr:state": "ON", "addr:postcode": "L5R 3G3", "addr:country": "CA", "name": "Ashley HomeStore Mississauga, ON", "phone": "+19057129846", "website": "https://stores.ashleyhomestore.ca/store/ca/ontario/mississauga/9000482012/", "image": "https://res.cloudinary.com/cloudasset/image/upload/v1666108395/map/images/q5tg8fwap1m5rcin8b9i.jpg", "brand": "Ashley HomeStore", "brand:wikidata": "Q4805437", "nsi_id": "ashleyhomestore-a694b9"}, "geometry": {"type": "Point", "coordinates": [-79.681256, 43.613987]}},
{"type": "Feature", "id": "kE-UcOvzpvPXsiaEjSa2BBzyLUM=", "properties": {"ref": "https://stores.ashleyhomestore.ca/store/ca/ontario/mississauga/7710000523/", "@spider": "ashley_homestore", "alt_name": "Ashley Furniture", "shop": "furniture", "addr:street_address": "5900 Mavis Rd, Unit 2", "addr:city": "Mississauga", "addr:state": "ON", "addr:postcode": "L5V0B5", "addr:country": "CA", "name": "Ashley HomeStore Mississauga, ON", "phone": "+19057559030", "website": "https://stores.ashleyhomestore.ca/store/ca/ontario/mississauga/7710000523/", "image": "http://res.cloudinary.com/cloudasset/image/upload/v1560170962/map/images/vgkjyhnjzkobg7nrfrpf.jpg", "brand": "Ashley HomeStore", "brand:wikidata": "Q4805437", "nsi_id": "ashleyhomestore-a694b9"}, "geometry": {"type": "Point", "coordinates": [-79.694847, 43.609207]}},
{"type": "Feature", "id": "7gdpsQ-Rgo08I7JwGaVSFTd7g5M=", "properties": {"ref": "https://stores.ashleyhomestore.ca/store/ca/ontario/london/9000185634/", "@spider": "ashley_homestore", "alt_name": "Ashley Furniture", "shop": "furniture", "addr:street_address": "3325 Wonderland Rd South, Unit 1", "addr:city": "London", "addr:state": "ON", "addr:postcode": "N6L1A9", "addr:country": "CA", "name": "Ashley HomeStore London, ON", "phone": "+15196521637", "website": "https://stores.ashleyhomestore.ca/store/ca/ontario/london/9000185634/", "image": "http://res.cloudinary.com/cloudasset/image/upload/v1560170818/map/images/bx0eupwkpviycpndkg0v.jpg", "brand": "Ashley HomeStore", "brand:wikidata": "Q4805437", "nsi_id": "ashleyhomestore-a694b9"}, "geometry": {"type": "Point", "coordinates": [-81.281298, 42.929789]}},
{"type": "Feature", "id": "2WIIR89tPh_ojNdERGL-6HfezwQ=", "properties": {"ref": "https://stores.ashleyhomestore.ca/store/ca/ontario/kitchener/9000749061/", "@spider": "ashley_homestore", "alt_name": "Ashley Furniture", "shop": "furniture", "addr:street_address": "D2-655 Fairway Rd S", "addr:city": "Kitchener", "addr:state": "ON", "addr:postcode": "N2C 1X4", "addr:country": "CA", "name": "Ashley HomeStore Kitchener, ON", "phone": "+15198939595", "website": "https://stores.ashleyhomestore.ca/store/ca/ontario/kitchener/9000749061/", "image": "https://res.cloudinary.com/cloudasset/image/upload/v1668198868/map/images/utr4kahvghbv3pferuyj.jpg", "brand": "Ashley HomeStore", "brand:wikidata": "Q4805437", "nsi_id": "ashleyhomestore-a694b9"}, "geometry": {"type": "Point", "coordinates": [-80.449601, 43.418452]}},
{"type": "Feature", "id": "QeQ9XXzT_eu3pEVyS0SPc-s-jOQ=", "properties": {"ref": "https://stores.ashleyhomestore.ca/store/ca/ontario/kingston/9000031918/", "@spider": "ashley_homestore", "alt_name": "Ashley Furniture", "shop": "furniture", "addr:street_address": "2776 Princess St", "addr:city": "Kingston", "addr:state": "ON", "addr:postcode": "K7P 1W9", "addr:country": "CA", "name": "Ashley HomeStore Kingston, ON", "phone": "+16133842444", "website": "https://stores.ashleyhomestore.ca/store/ca/ontario/kingston/9000031918/", "image": "http://res.cloudinary.com/cloudasset/image/upload/v1489173396/map/images/ikz6h62b7pr8t2sl7i3t.jpg", "brand": "Ashley HomeStore", "brand:wikidata": "Q4805437", "nsi_id": "ashleyhomestore-a694b9"}, "geometry": {"type": "Point", "coordinates": [-76.580462, 44.259746]}},
{"type": "Feature", "id": "HdCUg87eH0Qfj4h6xi3-fpjxbHE=", "properties": {"ref": "https://stores.ashleyhomestore.ca/store/ca/ontario/hearst/9000170260/", "@spider": "ashley_homestore", "alt_name": "Ashley Furniture", "shop": "furniture", "addr:street_address": "1444 Hwy 11", "addr:city": "Hearst", "addr:state": "ON", "addr:postcode": "P0L 1N0", "addr:country": "CA", "name": "Ashley HomeStore Hearst, ON", "phone": "+17053624604", "website": "https://stores.ashleyhomestore.ca/store/ca/ontario/hearst/9000170260/", "image": "http://res.cloudinary.com/cloudasset/image/upload/v1537485379/map/images/iolepl2ual4celfntptf.jpg", "brand": "Ashley HomeStore", "brand:wikidata": "Q4805437", "nsi_id": "ashleyhomestore-a694b9"}, "geometry": {"type": "Point", "coordinates": [-83.679966, 49.691679]}},
{"type": "Feature", "id": "SBLM7Oj2XORws0R9grkwDgN9cVI=", "properties": {"ref": "https://stores.ashleyhomestore.ca/store/ca/ontario/guelph/9000187972/", "@spider": "ashley_homestore", "alt_name": "Ashley Furniture", "shop": "furniture", "addr:street_address": "389 Woodlawn Rd W", "addr:city": "Guelph", "addr:state": "ON", "addr:postcode": "N1H 7M1", "addr:country": "CA", "name": "Ashley HomeStore Guelph, ON", "phone": "+12267801373", "website": "https://stores.ashleyhomestore.ca/store/ca/ontario/guelph/9000187972/", "image": "http://res.cloudinary.com/cloudasset/image/upload/v1557245163/map/images/sbukqpzqmdg2kmlvy52s.jpg", "brand": "Ashley HomeStore", "brand:wikidata": "Q4805437", "nsi_id": "ashleyhomestore-a694b9"}, "geometry": {"type": "Point", "coordinates": [-80.304527, 43.546263]}},
{"type": "Feature", "id": "HRP_Y0YgzJtjTJin-0WBY2n3BoM=", "properties": {"ref": "https://stores.ashleyhomestore.ca/store/ca/ontario/espanola/9000062041/", "@spider": "ashley_homestore", "alt_name": "Ashley Furniture", "shop": "furniture", "addr:street_address": "613 Centre St", "addr:city": "Espanola", "addr:state": "ON", "addr:postcode": "P5E 1H4", "addr:country": "CA", "name": "Ashley HomeStore Espanola, ON", "phone": "+17058694771", "website": "https://stores.ashleyhomestore.ca/store/ca/ontario/espanola/9000062041/", "image": "https://res.cloudinary.com/cloudasset/image/upload/v1666109782/map/images/dspmg1c7ptao9he9eiks.jpg", "brand": "Ashley HomeStore", "brand:wikidata": "Q4805437", "nsi_id": "ashleyhomestore-a694b9"}, "geometry": {"type": "Point", "coordinates": [-81.764159, 46.251883]}},
{"type": "Feature", "id": "gnS9oXNomsC7w4-QS869DH2NtJs=", "properties": {"ref": "https://stores.ashleyhomestore.ca/store/ca/ontario/burlington/7710000538/", "@spider": "ashley_homestore", "alt_name": "Ashley Furniture", "shop": "furniture", "addr:street_address": "3060 Davidson Court", "addr:city": "Burlington", "addr:state": "ON", "addr:postcode": "L7M4M9", "addr:country": "CA", "name": "Ashley HomeStore Burlington, ON", "phone": "+19053151700", "website": "https://stores.ashleyhomestore.ca/store/ca/ontario/burlington/7710000538/", "image": "http://res.cloudinary.com/cloudasset/image/upload/v1507230970/map/images/vxgkkyrrzmx9whmvbzqe.jpg", "brand": "Ashley HomeStore", "brand:wikidata": "Q4805437", "nsi_id": "ashleyhomestore-a694b9"}, "geometry": {"type": "Point", "coordinates": [-79.804896, 43.357064]}},
{"type": "Feature", "id": "VPj_Wqu5aLCiLgC-j7pL3zhzTWs=", "properties": {"ref": "https://stores.ashleyhomestore.ca/store/ca/ontario/brantford/7710000521/", "@spider": "ashley_homestore", "alt_name": "Ashley Furniture", "shop": "furniture", "addr:street_address": "184 Lynden Rd", "addr:city": "Brantford", "addr:state": "ON", "addr:postcode": "N3R8A3", "addr:country": "CA", "name": "Ashley HomeStore Brantford, ON", "phone": "+12262500138", "website": "https://stores.ashleyhomestore.ca/store/ca/ontario/brantford/7710000521/", "image": "http://res.cloudinary.com/cloudasset/image/upload/v1559589892/map/images/uhtxubzphvspjcblrhn3.jpg", "brand": "Ashley HomeStore", "brand:wikidata": "Q4805437", "nsi_id": "ashleyhomestore-a694b9"}, "geometry": {"type": "Point", "coordinates": [-80.231347, 43.174409]}},
{"type": "Feature", "id": "b2NdWTqOsUwHX3kHv6S8elU8w3o=", "properties": {"ref": "https://stores.ashleyhomestore.ca/store/ca/ontario/brampton/7710000520/", "@spider": "ashley_homestore", "alt_name": "Ashley Furniture", "shop": "furniture", "addr:street_address": "70 Great Lakes Dr, Unit 149", "addr:city": "Brampton", "addr:state": "ON", "addr:postcode": "L6R 2K7", "addr:country": "CA", "name": "Ashley HomeStore Brampton, ON", "phone": "+19057993284", "website": "https://stores.ashleyhomestore.ca/store/ca/ontario/brampton/7710000520/", "image": "http://res.cloudinary.com/cloudasset/image/upload/v1507230624/map/images/asopkx6l5nkpcwpwdti2.jpg", "brand": "Ashley HomeStore", "brand:wikidata": "Q4805437", "nsi_id": "ashleyhomestore-a694b9"}, "geometry": {"type": "Point", "coordinates": [-79.767104, 43.730007]}},
{"type": "Feature", "id": "IrW6-MypyorMsWCHyAD9jM6H0ow=", "properties": {"ref": "https://stores.ashleyhomestore.ca/store/ca/ontario/belleville/9000340859/", "@spider": "ashley_homestore", "alt_name": "Ashley Furniture", "shop": "furniture", "addr:street_address": "390 N Front St, Unit 10003", "addr:city": "Belleville", "addr:state": "ON", "addr:postcode": "K8P3E1", "addr:country": "CA", "name": "Ashley HomeStore Belleville, ON", "phone": "+16139021689", "website": "https://stores.ashleyhomestore.ca/store/ca/ontario/belleville/9000340859/", "image": "http://res.cloudinary.com/cloudasset/image/upload/v1550158132/map/images/njvtf63qujtfyxoa2ndx.jpg", "brand": "Ashley HomeStore", "brand:wikidata": "Q4805437", "nsi_id": "ashleyhomestore-a694b9"}, "geometry": {"type": "Point", "coordinates": [-77.397489, 44.189134]}},
{"type": "Feature", "id": "XH4A61JkpUfdPPifDETHGWw-nUA=", "properties": {"ref": "https://stores.ashleyhomestore.ca/store/ca/ontario/barrie/9000092867/", "@spider": "ashley_homestore", "alt_name": "Ashley Furniture", "shop": "furniture", "addr:street_address": "30 North Village Way, Unit 4", "addr:city": "Barrie", "addr:state": "ON", "addr:postcode": "L4N 6P3", "addr:country": "CA", "name": "Ashley HomeStore Barrie, ON", "phone": "+17057287838", "website": "https://stores.ashleyhomestore.ca/store/ca/ontario/barrie/9000092867/", "image": "http://res.cloudinary.com/cloudasset/image/upload/v1559335791/map/images/vhkcagpqwg19cakp6g1j.jpg", "brand": "Ashley HomeStore", "brand:wikidata": "Q4805437", "nsi_id": "ashleyhomestore-a694b9"}, "geometry": {"type": "Point", "coordinates": [-79.681607, 44.342124]}},
{"type": "Feature", "id": "SNFqqTPBbjsGKcQ2X4F2f9imOEE=", "properties": {"ref": "https://stores.ashleyhomestore.ca/store/ca/saskatchewan/regina/7710000531/", "@spider": "ashley_homestore", "alt_name": "Ashley Furniture", "shop": "furniture", "addr:street_address": "2835 Quance St E", "addr:city": "Regina", "addr:state": "SK", "addr:postcode": "S4V 3B7", "addr:country": "CA", "name": "Ashley HomeStore Regina, SK", "phone": "+13065650830", "website": "https://stores.ashleyhomestore.ca/store/ca/saskatchewan/regina/7710000531/", "image": "http://res.cloudinary.com/cloudasset/image/upload/v1560182450/map/images/oxdiywbwycidlhls2rwk.jpg", "brand": "Ashley HomeStore", "brand:wikidata": "Q4805437", "nsi_id": "ashleyhomestore-a694b9"}, "geometry": {"type": "Point", "coordinates": [-104.542988, 50.445089]}},
{"type": "Feature", "id": "wHZGuxwxo1juwFQm3aaE-YH3-cs=", "properties": {"ref": "https://stores.ashleyhomestore.ca/store/ca/alberta/brentwood/9000187604/", "@spider": "ashley_homestore", "alt_name": "Ashley Furniture", "shop": "furniture", "addr:street_address": "510-3630 Brentwood Rd NW", "addr:city": "Brentwood", "addr:state": "AB", "addr:postcode": "T2L 1K8", "addr:country": "CA", "name": "Ashley HomeStore Brentwood, AB", "phone": "+15877741570", "website": "https://stores.ashleyhomestore.ca/store/ca/alberta/brentwood/9000187604/", "image": "http://res.cloudinary.com/cloudasset/image/upload/v1559662345/map/images/fayoxhbll3sl7he84nwd.jpg", "brand": "Ashley HomeStore", "brand:wikidata": "Q4805437", "nsi_id": "ashleyhomestore-a694b9"}, "geometry": {"type": "Point", "coordinates": [-114.125982, 51.085567]}},
{"type": "Feature", "id": "nc9h7ulzNKHvVjJCEZtSlX4_1Kk=", "properties": {"ref": "https://stores.ashleyhomestore.ca/store/ca/alberta/calgary/7710000504/", "@spider": "ashley_homestore", "alt_name": "Ashley Furniture", "shop": "furniture", "addr:street_address": "88 Heritage Gate SE", "addr:city": "Calgary", "addr:state": "AB", "addr:postcode": "T2H 3A7", "addr:country": "CA", "name": "Ashley HomeStore Calgary, AB", "phone": "+14033010100", "website": "https://stores.ashleyhomestore.ca/store/ca/alberta/calgary/7710000504/", "image": "http://res.cloudinary.com/cloudasset/image/upload/v1539204780/map/images/wvaan91dkmg8ppvqfx8w.jpg", "brand": "Ashley HomeStore", "brand:wikidata": "Q4805437", "nsi_id": "ashleyhomestore-a694b9"}, "geometry": {"type": "Point", "coordinates": [-114.043068, 50.989692]}}]}