{"type":"FeatureCollection","features":[{"type": "Feature", "id": "hsOmSozJIpu8g9adbcttWej-wCI=", "properties": {"ref": "21", "@spider": "asian_paints_arabia", "addr:street_address": "Shop 128, Rd 380 Off Budaiya Highway, Near Al Nuaim Eid Mosque, Block 314", "addr:state": "Manama", "addr:postcode": "323", "addr:country": "BH", "name": "Asian Paints Decor Lounge - Al Karar Trading Est.", "phone": "17232282", "brand": "Asian Paints", "brand:wikidata": "Q28171825"}, "geometry": {"type": "Point", "coordinates": [50.568715, 26.226282]}},
{"type": "Feature", "id": "81UyXLzpchn2ctmYqtonbwl56t4=", "properties": {"ref": "22", "@spider": "asian_paints_arabia", "addr:street_address": "Bldg 129, Rd 725, Near Municipal One Stop Shop, Block 713", "addr:state": "Tubli", "addr:postcode": "701", "addr:country": "BH", "name": "Asian Paints Decor Lounge - Fair Trading Co. WLL", "phone": "17879294", "brand": "Asian Paints", "brand:wikidata": "Q28171825"}, "geometry": {"type": "Point", "coordinates": [50.553608, 26.189135]}},
{"type": "Feature", "id": "ExolRIlw1-ohMtXJmu5Ea59R_8s=", "properties": {"ref": "23", "@spider": "asian_paints_arabia", "addr:street_address": "Bldg 133, Rd 3, Hatim Al Taie Avenue, Near Ali Bin Jaber Al Thani Mosque", "addr:state": "Hidd", "addr:postcode": "318", "addr:country": "BH", "name": "Asian Paints Decor Lounge - Jamal Al-Ahmed Build Material Hidd", "phone": "17466724", "brand": "Asian Paints", "brand:wikidata": "Q28171825"}, "geometry": {"type": "Point", "coordinates": [50.652194, 26.240645]}},
{"type": "Feature", "id": "qYb94hZOfV8epZrR7ukk5grqEkk=", "properties": {"ref": "24", "@spider": "asian_paints_arabia", "addr:street_address": "Bldg 1730, Rd 1504, Tujjar Avenue, Near Sunrise Sweets Factory, Block 215", "addr:state": "Muharraq", "addr:postcode": "602", "addr:country": "BH", "name": "Asian Paints Decor Lounge - Yousuf Hassan Ali  Sons", "phone": "17340926", "brand": "Asian Paints", "brand:wikidata": "Q28171825"}, "geometry": {"type": "Point", "coordinates": [50.610013, 26.249243]}},
{"type": "Feature", "id": "PpA9F9LyI7nMCFlzDRt7WJ9YYUs=", "properties": {"ref": "25", "@spider": "asian_paints_arabia", "addr:street_address": "Segaya Plaza Bldg, Rd 3201, Oman Avenue, Block 332, Bu Ashira", "addr:state": "Manama", "addr:postcode": "323", "addr:country": "BH", "name": "Asian Paints Decor Lounge - Aspire Trading Co. WLL", "phone": "17440641", "brand": "Asian Paints", "brand:wikidata": "Q28171825"}, "geometry": {"type": "Point", "coordinates": [50.575928, 26.212121]}},
{"type": "Feature", "id": "z38NR1Fjwv_dNiD0aoAHFixd3aU=", "properties": {"ref": "26", "@spider": "asian_paints_arabia", "addr:street_address": "Bldg 50, Rd 51, Sheikh Isa Avenue, Opposite to Casino Garden, Block 205 ", "addr:state": "Muharraq", "addr:postcode": "602", "addr:country": "BH", "name": "Asian Paints Decor Lounge - Vary Building Material Trading", "phone": "17162535", "brand": "Asian Paints", "brand:wikidata": "Q28171825"}, "geometry": {"type": "Point", "coordinates": [50.614626, 26.261135]}},
{"type": "Feature", "id": "p1JRhFgL7q6WQmZM6BgBfrVghXU=", "properties": {"ref": "27", "@spider": "asian_paints_arabia", "addr:street_address": "Bldg 1053, Rd 316 Off Rd 309, Near Hope Garden, Block 1203", "addr:state": "Hamad Town", "addr:postcode": "815", "addr:country": "BH", "name": "Asian Paints Decor Lounge - Al Ayam Trading", "phone": "17410690", "brand": "Asian Paints", "brand:wikidata": "Q28171825"}, "geometry": {"type": "Point", "coordinates": [50.497749, 26.141035]}},
{"type": "Feature", "id": "1qkDkjUqRk2Kzv2AWXgYf3cKWoY=", "properties": {"ref": "28", "@spider": "asian_paints_arabia", "addr:street_address": "Bldg 174, Rd 408, Near Abdul Rahman Kanoo International School, Block 704", "addr:state": "Salmabad", "addr:postcode": "743", "addr:country": "BH", "name": "Asian Paints Decor Lounge - Manazel", "phone": "17786727", "brand": "Asian Paints", "brand:wikidata": "Q28171825"}, "geometry": {"type": "Point", "coordinates": [50.536565, 26.182631]}},
{"type": "Feature", "id": "Q42ZsrR5KHM9Wa7yqLgU4uy5Vek=", "properties": {"ref": "29", "@spider": "asian_paints_arabia", "addr:street_address": "Bldg 192, Rd 8, Near Salmabad Primary Girls School, Block 706", "addr:state": "Salmabad", "addr:postcode": "743", "addr:country": "BH", "name": "Asian Paints Decor Lounge - Zaedon Building Materials WLL", "phone": "17877184", "brand": "Asian Paints", "brand:wikidata": "Q28171825"}, "geometry": {"type": "Point", "coordinates": [50.52438, 26.179897]}},
{"type": "Feature", "id": "SsVLWVYfyoQixhTvQi4BwIw1hss=", "properties": {"ref": "30", "@spider": "asian_paints_arabia", "addr:street_address": "Bldg 2855, Rd 106 Off Zaid Bin Omera Highway, Near Imam Hassan Mosque", "addr:state": "Sadad", "addr:postcode": "745", "addr:country": "BH", "name": "Asian Paints Decor Lounge - Abraj Al Khamis Trading Est.", "phone": "17630580", "brand": "Asian Paints", "brand:wikidata": "Q28171825"}, "geometry": {"type": "Point", "coordinates": [50.492123, 26.08543]}},
{"type": "Feature", "id": "Oc4Z1Tdj8MvZ6VHhoa07SjHeyOc=", "properties": {"ref": "31", "@spider": "asian_paints_arabia", "addr:street_address": "Bldg 2259, Rd 85 Off Budaiya Highway, Near Mohammed Bin Khalifa Mosque", "addr:state": "Budayia", "addr:postcode": "330", "addr:country": "BH", "name": "Asian Paints Decor Lounge -  Lammim Trading", "phone": "17697884", "brand": "Asian Paints", "brand:wikidata": "Q28171825"}, "geometry": {"type": "Point", "coordinates": [50.449946, 26.21319]}},
{"type": "Feature", "id": "iu8oHpLrrPLmqWoaBOLXlNxv-y4=", "properties": {"ref": "32", "@spider": "asian_paints_arabia", "addr:street_address": "Bldg 1378, Rd 4541, Near Al Taawon Secondary School, Block 745", "addr:state": "Sanad", "addr:postcode": "743", "addr:country": "BH", "name": "Asian Paints Decor Lounge - Asrar Sanad Building Materials", "phone": "17580933", "brand": "Asian Paints", "brand:wikidata": "Q28171825"}, "geometry": {"type": "Point", "coordinates": [50.58541, 26.144739]}},
{"type": "Feature", "id": "EGxYsxBfw-jeiqvd53R5ysSKgnU=", "properties": {"ref": "33", "@spider": "asian_paints_arabia", "addr:street_address": "Bldg 127, Rd 77, Ajwad Aljabri Avenue, Near Hasan Kadhem Mosque, Block 721", "addr:state": "Jidd Ali", "addr:postcode": "605", "addr:country": "BH", "name": "Asian Paints Decor Lounge - Al Shayan Building Materials", "phone": "17689546", "brand": "Asian Paints", "brand:wikidata": "Q28171825"}, "geometry": {"type": "Point", "coordinates": [50.553817, 26.177537]}},
{"type": "Feature", "id": "YD2TTbYo0WIGbS3BwUCr1WfWQyc=", "properties": {"ref": "34", "@spider": "asian_paints_arabia", "addr:street_address": "Bldg 964, Rd 31, Near Abdulla Nass Mosque, Block 623", "addr:state": "Al Eker", "addr:postcode": "623", "addr:country": "BH", "name": "Asian Paints Decor Lounge - Sayyed Saleh Trading Est.", "phone": "77005022", "brand": "Asian Paints", "brand:wikidata": "Q28171825"}, "geometry": {"type": "Point", "coordinates": [50.610751, 26.139084]}},
{"type": "Feature", "id": "rHBTW9W7pRqvFbtrrDBeHHJ3GPQ=", "properties": {"ref": "35", "@spider": "asian_paints_arabia", "addr:street_address": "Bldg 38, Rd 17, Opposite to Ben Huwail Mosque, Block 917, Bu Kowarah", "addr:state": "East Riffa", "addr:postcode": "624", "addr:country": "BH", "name": "Asian Paints Decor Lounge - Al Arsh Building Materials", "phone": "17772512", "brand": "Asian Paints", "brand:wikidata": "Q28171825"}, "geometry": {"type": "Point", "coordinates": [50.565993, 26.128677]}},
{"type": "Feature", "id": "g-S0shvRSJZINUqd5f8qxic-PEI=", "properties": {"ref": "36", "@spider": "asian_paints_arabia", "addr:street_address": "Bldg 408, Rd 14, Near Jidd Hafs Secondary Girls School, Block 425", "addr:state": "Jidhafs", "addr:postcode": "359", "addr:country": "BH", "name": "Asian Paints Decor Lounge - Mona Trading", "phone": "17554155", "brand": "Asian Paints", "brand:wikidata": "Q28171825"}, "geometry": {"type": "Point", "coordinates": [50.539221, 26.215126]}},
{"type": "Feature", "id": "4F2-ALv80TWeFtzk3rEJEVRoO0A=", "properties": {"ref": "37", "@spider": "asian_paints_arabia", "addr:street_address": "Bldg 29, Rd 37, Mahzorah Avenue, Block 933, Al Bahair", "addr:state": "East Riffa", "addr:postcode": "624", "addr:country": "BH", "name": "Asian Paints Decor Lounge - Three Colours Building Materials Co WLL", "phone": "35348766", "brand": "Asian Paints", "brand:wikidata": "Q28171825"}, "geometry": {"type": "Point", "coordinates": [50.572012, 26.13814]}},
{"type": "Feature", "id": "qj5Sqn6X72g96NeCAE0GJm5tBSg=", "properties": {"ref": "38", "@spider": "asian_paints_arabia", "addr:street_address": "Bldg 1642, Rd 569, Near East Riffa Commercial Center, Block 905", "addr:state": "East Riffa", "addr:postcode": "624", "addr:country": "BH", "name": "Asian Paints Decor Lounge -  Seven Art Trading-East Riffa", "phone": "17764505", "brand": "Asian Paints", "brand:wikidata": "Q28171825"}, "geometry": {"type": "Point", "coordinates": [50.568965, 26.121664]}},
{"type": "Feature", "id": "z33sLLzj8VovbikaVvZ669foeh0=", "properties": {"ref": "39", "@spider": "asian_paints_arabia", "addr:street_address": "Bldg 1888B, Rd 4063, Opposite to Al Arab Mall, Block 504", "addr:state": "Diraz", "addr:postcode": "412", "addr:country": "BH", "name": "Asian Paints Decor Lounge - Saven Art Trading-Duraz", "phone": "39118844", "brand": "Asian Paints", "brand:wikidata": "Q28171825"}, "geometry": {"type": "Point", "coordinates": [50.45924, 26.217831]}},
{"type": "Feature", "id": "AKa9_lEo5siOhM0iteydgScgdOA=", "properties": {"ref": "40", "@spider": "asian_paints_arabia", "addr:street_address": "Bldg 422, Rd 84 Off Sheikh Salman Highway, Near Al Khamis Mosque, Block 407", "addr:state": "Tashan", "addr:postcode": "407", "addr:country": "BH", "name": "Asian Paints Decor Lounge - Sufeen Contracting Co. WLL", "phone": "17414106", "brand": "Asian Paints", "brand:wikidata": "Q28171825"}, "geometry": {"type": "Point", "coordinates": [50.546581, 26.207948]}},
{"type": "Feature", "id": "rwtnCnj4d3hhp8xVN06BrpGClos=", "properties": {"ref": "158", "@spider": "asian_paints_arabia", "addr:street_address": "Samahram St, Near Al Maha Petrol Station, Industrial Workshop Area, Salalah", "addr:state": "Dhofar", "addr:country": "OM", "name": "Asian Paints Decor Lounge - Gulftech Electrical LLC", "phone": "96893214059", "brand": "Asian Paints", "brand:wikidata": "Q28171825"}, "geometry": {"type": "Point", "coordinates": [54.040083, 17.024081]}},
{"type": "Feature", "id": "dBh2DXZyK_l-LP07ht-x49qCOOQ=", "properties": {"ref": "159", "@spider": "asian_paints_arabia", "addr:street_address": "Souq Area, Near Sur Hotel, Harat Al Balush, Sur", "addr:state": "Ash Sharqiyah", "addr:country": "OM", "name": "Asian Paints Decor Lounge - New Sur International LLC", "phone": "96892263668", "brand": "Asian Paints", "brand:wikidata": "Q28171825"}, "geometry": {"type": "Point", "coordinates": [59.527688, 22.568469]}},
{"type": "Feature", "id": "doEDCOLT1GwQvI-B3KcPDZgWs8w=", "properties": {"ref": "143", "@spider": "asian_paints_arabia", "addr:street_address": "Izki-Sinaw Rd, Near Oman Oil Service Station, Qalat Al Awmar, Izki", "addr:state": "Ad Dakhiliyah", "addr:country": "OM", "name": "Asian Paints Decor Lounge - Hadhba Al Neel United LLC", "phone": "96871000514", "brand": "Asian Paints", "brand:wikidata": "Q28171825"}, "geometry": {"type": "Point", "coordinates": [57.754107, 22.830153]}},
{"type": "Feature", "id": "fO7-ipZh36pgVAc3WfTglai4Xu4=", "properties": {"ref": "144", "@spider": "asian_paints_arabia", "addr:street_address": "Al Hambar St, Opposite to Lulu Exchange, Sohar", "addr:state": "Al Batinah", "addr:country": "OM", "name": "Asian Paints Decor Lounge - Saeed Musabbah Saeed Al Jahwar", "phone": "96891896587", "brand": "Asian Paints", "brand:wikidata": "Q28171825"}, "geometry": {"type": "Point", "coordinates": [56.735323, 24.350574]}},
{"type": "Feature", "id": "J8Q8tLYcdcRPtk5V8WCbXdQk5Rk=", "properties": {"ref": "145", "@spider": "asian_paints_arabia", "addr:street_address": "Falaj al Harth Rd, Opposite to Oman Arab Bank, Saham", "addr:state": "Al Batinah", "addr:country": "OM", "name": "Asian Paints Decor Lounge - Moosa Rashid Al Zadjali  Part", "phone": "96895589484", "brand": "Asian Paints", "brand:wikidata": "Q28171825"}, "geometry": {"type": "Point", "coordinates": [56.875071, 24.141513]}},
{"type": "Feature", "id": "nbMdogUUebOpfalpgO4OKfjwHdI=", "properties": {"ref": "146", "@spider": "asian_paints_arabia", "addr:street_address": "Al Khaburah-Miskin Rd, Near Al Khaboura Health Complex, Al Khaburah", "addr:state": "Al Batinah", "addr:country": "OM", "name": "Asian Paints Decor Lounge - Nasser Al Hajer Trading  Cont", "phone": "96893343351", "brand": "Asian Paints", "brand:wikidata": "Q28171825"}, "geometry": {"type": "Point", "coordinates": [57.068933, 23.957218]}},
{"type": "Feature", "id": "XkU1JePyMMTD0N2voshr3mLbIYM=", "properties": {"ref": "147", "@spider": "asian_paints_arabia", "addr:street_address": "Al Batinah Highway, Near Toyota Showroom, Qasabiyat Az Zaab, As Suwayq", "addr:state": "Al Batinah", "addr:country": "OM", "name": "Asian Paints Decor Lounge - Al Sarah Global Enterprises LL", "phone": "96899311879", "brand": "Asian Paints", "brand:wikidata": "Q28171825"}, "geometry": {"type": "Point", "coordinates": [57.187771, 23.91278]}},
{"type": "Feature", "id": "rTKxlBkKcP56bziFIugdRvoE7cw=", "properties": {"ref": "153", "@spider": "asian_paints_arabia", "addr:street_address": "Nazwa-Ibri Rd, Near Al Maha Petrol Station, Nizwa", "addr:state": "Ad Dakhiliyah", "addr:country": "OM", "name": "Asian Paints Decor Lounge - Sahel Tanoof Al  -  Amira Ent.", "phone": "96895325596", "brand": "Asian Paints", "brand:wikidata": "Q28171825"}, "geometry": {"type": "Point", "coordinates": [57.54292, 22.96513]}},
{"type": "Feature", "id": "wBExvRaUI9vUWFOYTxZXqigiONs=", "properties": {"ref": "154", "@spider": "asian_paints_arabia", "addr:street_address": "Ibri-Hafeet Rd, Near Grand Hypermarket, Ibri", "addr:state": "Ad Dhahirah", "addr:country": "OM", "name": "Asian Paints Decor Lounge - Juma Saad Saed Al Ghafri Trad", "phone": "96893891021", "brand": "Asian Paints", "brand:wikidata": "Q28171825"}, "geometry": {"type": "Point", "coordinates": [56.494378, 23.222869]}},
{"type": "Feature", "id": "MduGaa7kfIt6wO3FGeqCR104xtw=", "properties": {"ref": "155", "@spider": "asian_paints_arabia", "addr:street_address": "Nazwa-Ibri Rd, Opposite to Meethaq Islamic Banking, Jabreen, Bahla", "addr:state": "Ad Dakhiliyah", "addr:country": "OM", "name": "Asian Paints Decor Lounge - Mulam Madinat Al Salam - Bahla", "phone": "96893115822", "brand": "Asian Paints", "brand:wikidata": "Q28171825"}, "geometry": {"type": "Point", "coordinates": [57.266503, 22.94682]}},
{"type": "Feature", "id": "HVTmhFRjVY1_HslXkYR-6DTc0A8=", "properties": {"ref": "156", "@spider": "asian_paints_arabia", "addr:street_address": "Ibri-Hafeet Rd, Near Shell Petrol Station, Ibri", "addr:state": "Ad Dhahirah", "addr:country": "OM", "name": "Asian Paints Decor Lounge - Al Bader Building Materials", "phone": "96890657046", "brand": "Asian Paints", "brand:wikidata": "Q28171825"}, "geometry": {"type": "Point", "coordinates": [56.496372, 23.229639]}},
{"type": "Feature", "id": "Fk4OWeIJqNKgfHxRSUMH7FuPIYU=", "properties": {"ref": "157", "@spider": "asian_paints_arabia", "addr:street_address": "Al Baladiya St, Near Toyota Quality Service, Al Humriyyah", "addr:state": "Muscat", "addr:country": "OM", "name": "Asian Paints Decor Lounge - Mustafa Gulam Ali Stores", "phone": "96893619897", "brand": "Asian Paints", "brand:wikidata": "Q28171825"}, "geometry": {"type": "Point", "coordinates": [58.551801, 23.587909]}},
{"type": "Feature", "id": "kcP7FizuOgE3NhI-Nntu9vJacLY=", "properties": {"ref": "148", "@spider": "asian_paints_arabia", "addr:street_address": "Rd 13, Near Oman Oil Service Station, Al Awabi", "addr:state": "Al Batinah ", "addr:country": "OM", "name": "Asian Paints Decor Lounge - Said Marhoon Saif Al Saidi TR", "phone": "96892734486", "brand": "Asian Paints", "brand:wikidata": "Q28171825"}, "geometry": {"type": "Point", "coordinates": [57.519549, 23.312173]}},
{"type": "Feature", "id": "zFwWOGC16gAGnPqLeCR4vMVnib0=", "properties": {"ref": "149", "@spider": "asian_paints_arabia", "addr:street_address": "Rustaq-Miskin Rd, Near Khalid Ibn Al Walid Mosque, Rustaq Industrial Area", "addr:state": "Al Batinah ", "addr:country": "OM", "name": "Asian Paints Decor Lounge - Sama Al Khaleew International LLC", "phone": "96893319700", "brand": "Asian Paints", "brand:wikidata": "Q28171825"}, "geometry": {"type": "Point", "coordinates": [57.381552, 23.428031]}},
{"type": "Feature", "id": "GCPKWBozXSwOamJAMR2oEapSOv0=", "properties": {"ref": "150", "@spider": "asian_paints_arabia", "addr:street_address": "Rustaq-Miskin Rd, Near Muscat Bank, Rustaq Souq", "addr:state": "Al Batinah ", "addr:country": "OM", "name": "Asian Paints Decor Lounge - Saif Bin Mohd Saud Al Busaidi Trad.", "phone": "96891489708", "brand": "Asian Paints", "brand:wikidata": "Q28171825"}, "geometry": {"type": "Point", "coordinates": [57.422688, 23.391284]}},
{"type": "Feature", "id": "wsTtkOlejI8fyXaoCnc83bkUOG4=", "properties": {"ref": "152", "@spider": "asian_paints_arabia", "addr:street_address": "Bahla Al Hamra Rd, Opposite Bank Muscat, Adam", "addr:state": "Ad Dakhiliyah", "addr:country": "OM", "name": "Asian Paints Decor Lounge - Al Shahir  Modern Trad. Ent.", "phone": "96898236232", "brand": "Asian Paints", "brand:wikidata": "Q28171825"}, "geometry": {"type": "Point", "coordinates": [57.529743, 22.386559]}},
{"type": "Feature", "id": "9tdf614lpwdoQ5oD4npP17Y4dkU=", "properties": {"ref": "160", "@spider": "asian_paints_arabia", "addr:street_address": "Rd 23, Behind Shell Petrol Station, Hillat Al Kahraba, Sur", "addr:state": "Ash Sharqiyah", "addr:country": "OM", "name": "Asian Paints Decor Lounge - Aswar Sur International Trad", "phone": "96894057279", "brand": "Asian Paints", "brand:wikidata": "Q28171825"}, "geometry": {"type": "Point", "coordinates": [59.508105, 22.57814]}},
{"type": "Feature", "id": "teaCz9vHBM5PhMjaVrFaTU2ttjI=", "properties": {"ref": "161", "@spider": "asian_paints_arabia", "addr:street_address": "Saih Al Hail St, Near Wadi Bani Khalid Hospital, Wadi Bani Khalid", "addr:state": "Ash Sharqiyah", "addr:country": "OM", "name": "Asian Paints Decor Lounge - Bronze Medal LLC", "phone": "96892995063", "brand": "Asian Paints", "brand:wikidata": "Q28171825"}, "geometry": {"type": "Point", "coordinates": [59.095919, 22.577853]}},
{"type": "Feature", "id": "-4DpVS7_qp8PuzV0mv0mmEOfvyY=", "properties": {"ref": "163", "@spider": "asian_paints_arabia", "addr:street_address": "Sohar-Yanqul Rd, Near Lulu Market, Sohar", "addr:state": "Al Batinah", "addr:country": "OM", "name": "Asian Paints Decor Lounge -  Diamond Palace", "phone": "96897311279", "brand": "Asian Paints", "brand:wikidata": "Q28171825"}, "geometry": {"type": "Point", "coordinates": [56.72513, 24.328841]}},
{"type": "Feature", "id": "yVXQ-nL2N-YXsfyAzPFHeqEXKug=", "properties": {"ref": "164", "@spider": "asian_paints_arabia", "addr:street_address": "Batinah Highway, Near Oman Oil Service Station, Hillat al Burj, Saham", "addr:state": "Al Batinah", "addr:country": "OM", "name": "Asian Paints Decor Lounge - Bab Al Khair International L.", "phone": "96898686595", "brand": "Asian Paints", "brand:wikidata": "Q28171825"}, "geometry": {"type": "Point", "coordinates": [57.000261, 24.044016]}},
{"type": "Feature", "id": "TtX9XBeSWeZyRDku06Ed_Kf0A3Y=", "properties": {"ref": "165", "@spider": "asian_paints_arabia", "addr:street_address": "Barka Souq Rd, Opposite to Shell Petrol Station, Barka", "addr:state": "Al Batinah", "addr:country": "OM", "name": "Asian Paints Decor Lounge - Abu Yahya Al Harasi Trading", "phone": "96898802783", "brand": "Asian Paints", "brand:wikidata": "Q28171825"}, "geometry": {"type": "Point", "coordinates": [57.892057, 23.704391]}},
{"type": "Feature", "id": "cZf4nd40ZDLTbuKpaNYwLrXnj3o=", "properties": {"ref": "166", "@spider": "asian_paints_arabia", "addr:street_address": "Barka Souq Rd, Near Honda Showroom, Barka", "addr:state": "Al Batinah", "addr:country": "OM", "name": "Asian Paints Decor Lounge - Al Badri International  L.L.C", "phone": "96897753407", "brand": "Asian Paints", "brand:wikidata": "Q28171825"}, "geometry": {"type": "Point", "coordinates": [57.887387, 23.672178]}},
{"type": "Feature", "id": "rkQo5ziffe5LiROGakhZii2pg4c=", "properties": {"ref": "167", "@spider": "asian_paints_arabia", "addr:street_address": "Barka Souq Rd, Near Oman Oil Service Station, Barka", "addr:state": "Al Batinah", "addr:country": "OM", "name": "Asian Paints Decor Lounge - Nada Barka Trading", "phone": "96826882771", "brand": "Asian Paints", "brand:wikidata": "Q28171825"}, "geometry": {"type": "Point", "coordinates": [57.885942, 23.679765]}},
{"type": "Feature", "id": "sPUC18VscUHax5-jn9XV7Bksy2o=", "properties": {"ref": "168", "@spider": "asian_paints_arabia", "addr:street_address": "Rd 1, Opposite to Bank Muscat, Ar Rumays, Barka", "addr:state": "Al Batinah", "addr:country": "OM", "name": "Asian Paints Decor Lounge - Al Nabahani Business LLC", "phone": "96826893997", "brand": "Asian Paints", "brand:wikidata": "Q28171825"}, "geometry": {"type": "Point", "coordinates": [58.015292, 23.681946]}},
{"type": "Feature", "id": "py8l6WM_wJAy1K7cOTJQg0S_rNE=", "properties": {"ref": "169", "@spider": "asian_paints_arabia", "addr:street_address": "Rd 7715, Near Nissan Showroom, Maabilah Industrial Area, Seeb", "addr:state": "Muscat", "addr:country": "OM", "name": "Asian Paints Decor Lounge - Rawafed Muscat National LLC", "phone": "96824460121", "brand": "Asian Paints", "brand:wikidata": "Q28171825"}, "geometry": {"type": "Point", "coordinates": [58.105997, 23.653104]}},
{"type": "Feature", "id": "u6QcYS62bglrJh3ExESYD4wLNvE=", "properties": {"ref": "170", "@spider": "asian_paints_arabia", "addr:street_address": "Barka-Nakhl Rd, Near Shell Petrol Station, Wasit", "addr:state": "Al Batinah ", "addr:country": "OM", "name": "Asian Paints Decor Lounge - Reyadah L.L.C", "phone": "96894670607", "brand": "Asian Paints", "brand:wikidata": "Q28171825"}, "geometry": {"type": "Point", "coordinates": [57.853578, 23.52351]}},
{"type": "Feature", "id": "dUNxJB3zfHbXRC6f027mQzBmi9Y=", "properties": {"ref": "171", "@spider": "asian_paints_arabia", "addr:street_address": "Rd 7716, Near Danube Home Mall, Maabilah Industrial Area, Seeb", "addr:state": "Muscat", "addr:country": "OM", "name": "Asian Paints Decor Lounge - Talal Al Shimal Trading-Mabelah", "phone": "96896309875", "brand": "Asian Paints", "brand:wikidata": "Q28171825"}, "geometry": {"type": "Point", "coordinates": [58.104216, 23.650971]}},
{"type": "Feature", "id": "xPToYwlpIFmUrNgWmxfOzJQ_bp8=", "properties": {"ref": "172", "@spider": "asian_paints_arabia", "addr:street_address": "Ibri-Dariz Rd, Near Al Maha Petrol Station, Al Araqi, Ibri", "addr:state": "Ad Dhahirah", "addr:country": "OM", "name": "Asian Paints Decor Lounge - Karama Building Materials", "phone": "96822579148", "brand": "Asian Paints", "brand:wikidata": "Q28171825"}, "geometry": {"type": "Point", "coordinates": [56.548566, 23.277791]}},
{"type": "Feature", "id": "JMeA5uHXlzfA_EhWt27_1cgEf6s=", "properties": {"ref": "173", "@spider": "asian_paints_arabia", "addr:street_address": "Rd 31, Near Ministry of Manpower, Karsha Industrial Area, Nizwa", "addr:state": "Ad Dakhiliyah", "addr:country": "OM", "name": "Asian Paints Decor Lounge - Riyam Engineering Trading", "phone": "96899887244", "brand": "Asian Paints", "brand:wikidata": "Q28171825"}, "geometry": {"type": "Point", "coordinates": [57.545352, 22.842737]}},
{"type": "Feature", "id": "NPGiYw-g1xfx0mFezJHKilLNDHU=", "properties": {"ref": "174", "@spider": "asian_paints_arabia", "addr:street_address": "Rustaq-Miskin Rd, Opposite to Al Imam Jaber Bin Zaid Mosque, Rustaq Industrial Area", "addr:state": "Al Batinah", "addr:country": "OM", "name": "Asian Paints Decor Lounge - Aryaf Hy Al Nahdh Trading", "phone": "96899542048", "brand": "Asian Paints", "brand:wikidata": "Q28171825"}, "geometry": {"type": "Point", "coordinates": [57.391845, 23.434502]}},
{"type": "Feature", "id": "9Zs8N4-Rf_5am063wSmXyUQwt0o=", "properties": {"ref": "175", "@spider": "asian_paints_arabia", "addr:street_address": "Rustaq-Miskin Rd, Near Muscat Bank, Rustaq Souq", "addr:state": "Al Batinah ", "addr:country": "OM", "name": "Asian Paints Decor Lounge - Al Hosni  Partners Trad. Co-RSTQ", "phone": "96892829277", "brand": "Asian Paints", "brand:wikidata": "Q28171825"}, "geometry": {"type": "Point", "coordinates": [57.422746, 23.39224]}},
{"type": "Feature", "id": "4sYNithi0IhvG0EBYRcnaPb6hW8=", "properties": {"ref": "176", "@spider": "asian_paints_arabia", "addr:street_address": "Barka-Nakhl Rd, Near Al Gawari Shopping, Nakhl", "addr:state": "Al Batinah ", "addr:country": "OM", "name": "Asian Paints Decor Lounge - Khamiz  Aziz Trading-Nakhal", "phone": "96898371052", "brand": "Asian Paints", "brand:wikidata": "Q28171825"}, "geometry": {"type": "Point", "coordinates": [57.824301, 23.416202]}},
{"type": "Feature", "id": "82aWRBy26hljB4ABw9siUaEF3pI=", "properties": {"ref": "177", "@spider": "asian_paints_arabia", "addr:street_address": "Rd 1, Near Bank Muscat, Al Masnaah", "addr:state": "Al Batinah ", "addr:country": "OM", "name": "Asian Paints Decor Lounge - Khamis  Aziz Trading-Musanna", "phone": "96896341710", "brand": "Asian Paints", "brand:wikidata": "Q28171825"}, "geometry": {"type": "Point", "coordinates": [57.646388, 23.742898]}},
{"type": "Feature", "id": "nYL6dVla1aTW79ETSR86g13v7VQ=", "properties": {"ref": "41", "@spider": "asian_paints_arabia", "addr:street_address": "D86, First Al Khail Street,Opposite Khaleej Times,Al Qouz Industrial area 1, Dubai - UAE", "addr:state": "Dubai", "addr:country": "UAE", "name": "Asian Paints Decor Lounge - Bin Dhahi Trading LLC", "phone": " 4 222 4454", "brand": "Asian Paints", "brand:wikidata": "Q28171825"}, "geometry": {"type": "Point", "coordinates": [55.2335131, 25.1524595]}},
{"type": "Feature", "id": "pKDhvDTahAUJ2MYhXH5bvPuL9Jo=", "properties": {"ref": "42", "@spider": "asian_paints_arabia", "addr:street_address": "22nd St, Near Al Quoz Mall, Al Quoz Industrial Area 3, Al Quoz", "addr:state": "Dubai", "addr:country": "UAE", "name": "Asian Paints Decor Lounge - Unity Building Materials Trading LLC", "phone": "4 321 1342", "brand": "Asian Paints", "brand:wikidata": "Q28171825"}, "geometry": {"type": "Point", "coordinates": [55.21998, 25.121336]}},
{"type": "Feature", "id": "pVpnJMuacaY0e0GiOk3oHyo7VUE=", "properties": {"ref": "43", "@spider": "asian_paints_arabia", "addr:street_address": "Al Nahhat St, Opposite to New Shahama Park, New Shahama, Al Shahama", "addr:state": "Abu Dhabi", "addr:country": "UAE", "name": "Asian Paints Decor Lounge - Best Trading Est.", "phone": "2 5635775", "brand": "Asian Paints", "brand:wikidata": "Q28171825"}, "geometry": {"type": "Point", "coordinates": [54.692271, 24.537802]}},
{"type": "Feature", "id": "8wUf9BZYWOwH91roGnWL5wQvTws=", "properties": {"ref": "44", "@spider": "asian_paints_arabia", "addr:street_address": "8th St, Next to Abu Dhabi Islamic Bank, M-9, Musaffah Industrial, Musaffah", "addr:state": "Abu Dhabi", "addr:country": "UAE", "name": "Asian Paints Decor Lounge - Complete Building Materials LLC", "phone": " 2 5521116", "brand": "Asian Paints", "brand:wikidata": "Q28171825"}, "geometry": {"type": "Point", "coordinates": [54.509055, 24.373665]}},
{"type": "Feature", "id": "fi6lcLJZKd-7ZSIhaaRi3O4whfA=", "properties": {"ref": "45", "@spider": "asian_paints_arabia", "addr:street_address": "Zayed Bin Sultan St, Near LuLu Center, Al Murabaa, Al Ain", "addr:state": "Abu Dhabi", "addr:country": "UAE", "name": "Asian Paints Decor Lounge - Golden Rainbow Paints Trading Est.", "phone": "50 5106323", "brand": "Asian Paints", "brand:wikidata": "Q28171825"}, "geometry": {"type": "Point", "coordinates": [55.776048, 24.218125]}},
{"type": "Feature", "id": "NgaTe2dpfEp4Q3TcPTEF029hrJs=", "properties": {"ref": "46", "@spider": "asian_paints_arabia", "addr:street_address": "Dubai-Hatta Rd, Opposite to Maryam Sweidan Mosque, Sayh Mudayrah", "addr:state": "Ajman", "addr:country": "UAE", "name": "Asian Paints Decor Lounge - Hatta Building Materials", "phone": "4 852 2172", "brand": "Asian Paints", "brand:wikidata": "Q28171825"}, "geometry": {"type": "Point", "coordinates": [56.050734, 24.841572]}},
{"type": "Feature", "id": "Y1yn7os2dDj4hUzK6eC4fveK8Gc=", "properties": {"ref": "48", "@spider": "asian_paints_arabia", "addr:street_address": "Manama St, Near Amer Center, Ras Al Khor Industrial Area 2, Ras Al Khor", "addr:state": "Dubai", "addr:country": "UAE", "name": "Asian Paints Decor Lounge - Al Nakiya Building Materials  Power Tools", "phone": "4 324 2147", "brand": "Asian Paints", "brand:wikidata": "Q28171825"}, "geometry": {"type": "Point", "coordinates": [55.350507, 25.169673]}},
{"type": "Feature", "id": "i222OzyKekcrypljhCHEoYR51I0=", "properties": {"ref": "49", "@spider": "asian_paints_arabia", "addr:street_address": "Al Mataf Rd, Near Al Mataf Primary Boys School, Al Nudood", "addr:state": "Ras Al Khaimah", "addr:country": "UAE", "name": "Asian Paints Decor Lounge - Jernas Building Material Trading LLC", "phone": "7 223-7160", "brand": "Asian Paints", "brand:wikidata": "Q28171825"}, "geometry": {"type": "Point", "coordinates": [55.987732, 25.825774]}},
{"type": "Feature", "id": "7_Wyfd2Enlop6fT64Fm2kcuDO4s=", "properties": {"ref": "50", "@spider": "asian_paints_arabia", "addr:street_address": "Rugaylat Rd, Near Bin Muslama Al Ansari Mosque, Zubara", "addr:state": "Fujairah", "addr:country": "UAE", "name": "Asian Paints Decor Lounge - Grand Building Material Trading", "phone": "9 238-4178", "brand": "Asian Paints", "brand:wikidata": "Q28171825"}, "geometry": {"type": "Point", "coordinates": [56.349554, 25.404657]}},
{"type": "Feature", "id": "xaFOOfW6RNcqSifKl4G5Xm-sxgk=", "properties": {"ref": "51", "@spider": "asian_paints_arabia", "addr:street_address": "Hamad Bin Abdullah Rd, Near Adnoc Petrol Station, Al Gurfa 2", "addr:state": "Fujairah", "addr:country": "UAE", "name": "Asian Paints Decor Lounge - Fujairah General Trading Est.", "phone": "9 222-2380", "brand": "Asian Paints", "brand:wikidata": "Q28171825"}, "geometry": {"type": "Point", "coordinates": [56.351783, 25.122241]}},
{"type": "Feature", "id": "Q_aMI4hurtgTRkiBO48p7-yAAnc=", "properties": {"ref": "52", "@spider": "asian_paints_arabia", "addr:street_address": "Fatima Bint Mubarak St - Najda, Near Adnoc Petrol Station, Al Danah", "addr:state": "Abu Dhabi", "addr:country": "UAE", "name": "Asian Paints Decor Lounge - Newlight Painting  Plumbing Trading", "phone": "02 5538161", "brand": "Asian Paints", "brand:wikidata": "Q28171825"}, "geometry": {"type": "Point", "coordinates": [54.371736, 24.488556]}},
{"type": "Feature", "id": "lCRCJ9h8GddQMFUo96hcHuIlOx4=", "properties": {"ref": "53", "@spider": "asian_paints_arabia", "addr:street_address": "Fatima Bint Mubarak St - Najda, Opposite to Yas Academy School, Al Danah", "addr:state": "Abu Dhabi", "addr:country": "UAE", "name": "Asian Paints Decor Lounge - Shade Trading LLC", "phone": "02 6427510", "brand": "Asian Paints", "brand:wikidata": "Q28171825"}, "geometry": {"type": "Point", "coordinates": [54.378809, 24.479687]}},
{"type": "Feature", "id": "Cp18V8ZkuqSuOvWp-_iLYaNCl1A=", "properties": {"ref": "181", "@spider": "asian_paints_arabia", "addr:street_address": "Al Ramool Oasis, Building Showroom No. 2, Opp. to Rashidiya Civil Defense", "addr:state": "Dubai", "addr:country": "UAE", "name": "Asian Paints Berger Decor Lounge - Unique Paints LLC", "phone": "052 207 1599", "brand": "Asian Paints", "brand:wikidata": "Q28171825"}, "geometry": {"type": "Point", "coordinates": [55.3759502, 25.2234647]}},
{"type": "Feature", "id": "Lmo3InsMtNr04j_T4XgtNYAdNJ8=", "properties": {"ref": "180", "@spider": "asian_paints_arabia", "addr:street_address": "Al Abraj Center, Shop No: 5, Naser Square, Opposite Sabkha Bus Station, Deira", "addr:state": "Dubai", "addr:country": "UAE", "name": "ASIAN PAINTS DECOR LOUNGE - Royal Prince General Trading", "phone": "97142257832 / 971565225348", "brand": "Asian Paints", "brand:wikidata": "Q28171825"}, "geometry": {"type": "Point", "coordinates": [55.30391147, 25.27005413]}},
{"type": "Feature", "id": "B-1TgxgSelwKL2rvAQ5Y74-GWhg=", "properties": {"ref": "162", "@spider": "asian_paints_arabia", "addr:street_address": "Abdul Rahman Bin Jasim St, Near Doha Exchange", "addr:state": "Al Wakrah", "addr:country": "QA", "name": "Asian Paints Decor Lounge - Al Jamal Trading Co.", "phone": "44354293", "brand": "Asian Paints", "brand:wikidata": "Q28171825"}, "geometry": {"type": "Point", "coordinates": [51.598725, 25.153328]}},
{"type": "Feature", "id": "_liPVwwxcVn43KiqFv-yDuN3wLo=", "properties": {"ref": "179", "@spider": "asian_paints_arabia", "addr:street_address": "Al Shamal Rd, Near Akherittiyat Pharmacy, Umm Salal Muhammed", "addr:state": "Karthiyath", "addr:country": "QA", "name": "Asian Paints Berger Decor Lounge - Rusiya International", "phone": "97474496085", "brand": "Asian Paints", "brand:wikidata": "Q28171825"}},
{"type": "Feature", "id": "97plKQFPKcWnZ2-hqYKa8UDGNOE=", "properties": {"ref": "178", "@spider": "asian_paints_arabia", "addr:street_address": "Al Azizia St Off Salwa Rd, Next to Ahli Bank, Al Aziziyah", "addr:state": "Doha", "addr:country": "QA", "name": "Asian Paints Decor Lounge - Magna Group Trading  Contracting W.L.L", "phone": "44188500", "brand": "Asian Paints", "brand:wikidata": "Q28171825"}}]}