{"type":"FeatureCollection","features":[{"type": "Feature", "id": "l9K5B8FqJgUaQ0V9BOzXlCso6ZQ=", "properties": {"ref": "+61 8 8237 9777", "@spider": "aurecongroup", "addr:full": "Level 3, 25 Grenfell Street, AdelaideSA 5000", "addr:city": "Adelaide", "phone": "+61 8 8237 9777", "brand": "Aurecon Group", "brand:wikidata": "Q2871849"}, "geometry": {"type": "Point", "coordinates": [138.600836, -34.924426]}},
{"type": "Feature", "id": "7PtpyCRBXO2ZTAtPzBvYMRCLrQM=", "properties": {"ref": "+61 7 3173 8000", "@spider": "aurecongroup", "addr:full": "Ground Floor, 25 King Street, Bowen Hills, BrisbaneQld4006", "addr:city": "Brisbane", "phone": "+61 7 3173 8000", "brand": "Aurecon Group", "brand:wikidata": "Q2871849"}, "geometry": {"type": "Point", "coordinates": [153.034173, -27.452309]}},
{"type": "Feature", "id": "swZN49poICUcOUsWBOo3LXkCYOE=", "properties": {"ref": "+61 7 4019 6400", "@spider": "aurecongroup", "addr:full": "Level 2, 58 Lake Street, Cairns CityQld4870", "addr:city": "Cairns", "phone": "+61 7 4019 6400", "brand": "Aurecon Group", "brand:wikidata": "Q2871849"}, "geometry": {"type": "Point", "coordinates": [145.777152869334, -16.9225088103007]}},
{"type": "Feature", "id": "KerVGBIXk80jFWowYb-Dr6QLihQ=", "properties": {"ref": "+61 2 6112 0100", "@spider": "aurecongroup", "addr:full": "Level 2, 33 Allara Street, Canberra City2601", "addr:city": "Canberra", "phone": "+61 2 6112 0100", "brand": "Aurecon Group", "brand:wikidata": "Q2871849"}, "geometry": {"type": "Point", "coordinates": [149.133894657672, -35.2827687226812]}},
{"type": "Feature", "id": "2SFfSRgWbZ9YTg8WNDHx1VMfJuw=", "properties": {"ref": "+61 8 8919 9777", "@spider": "aurecongroup", "addr:full": "Building 2, Darwin Corporate Park, 631 Stuart Highway,  DarwinNT0828", "addr:city": "Darwin", "phone": "+61 8 8919 9777", "brand": "Aurecon Group", "brand:wikidata": "Q2871849"}, "geometry": {"type": "Point", "coordinates": [130.91404, -12.429191]}},
{"type": "Feature", "id": "P617a90TziNor-SjkFN97OuEVcs=", "properties": {"ref": "+61 7 4962 0600", "@spider": "aurecongroup", "addr:full": "Level 1, 130 Auckland Street GladstoneQld4680", "addr:city": "Gladstone", "phone": "+61 7 4962 0600", "brand": "Aurecon Group", "brand:wikidata": "Q2871849"}, "geometry": {"type": "Point", "coordinates": [151.26025319817, -23.8454054853268]}},
{"type": "Feature", "id": "th6GjZhvc99V62oNJH44WXUMgbc=", "properties": {"ref": "+61 7 5591 7775", "@spider": "aurecongroup", "addr:full": "Level 5 Seabank, 12-14 Marine Parade SouthportQld4215", "addr:city": "Gold Coast", "phone": "+61 7 5591 7775", "brand": "Aurecon Group", "brand:wikidata": "Q2871849"}, "geometry": {"type": "Point", "coordinates": [153.416957, -27.970545]}},
{"type": "Feature", "id": "_QSxorw0QwTgl4_GBvr_CJPQbog=", "properties": {"ref": "+61 7 4977 5200", "@spider": "aurecongroup", "addr:full": "Level 1, 22-30 Wood Street MackayQld4740", "addr:city": "Mackay", "phone": "+61 7 4977 5200", "brand": "Aurecon Group", "brand:wikidata": "Q2871849"}, "geometry": {"type": "Point", "coordinates": [149.185733, -21.140072]}},
{"type": "Feature", "id": "VI6Q6--G5hEhmub1krHCdCBT2d0=", "properties": {"ref": "+61 3 9975 3000", "@spider": "aurecongroup", "addr:full": "Aurecon Centre, Level 8, 850 Collins Street, Docklands, Melbourne VIC3008", "addr:city": "Melbourne", "phone": "+61 3 9975 3000", "brand": "Aurecon Group", "brand:wikidata": "Q2871849"}, "geometry": {"type": "Point", "coordinates": [144.9447223, -37.8213355]}},
{"type": "Feature", "id": "7HvLArxb0vL4ZSs2omvQDSjMh2Q=", "properties": {"ref": "+61 2 4941 5415", "@spider": "aurecongroup", "addr:full": "23 Warabrook Boulevard WarabrookNSW2304", "addr:city": "Newcastle", "phone": "+61 2 4941 5415", "brand": "Aurecon Group", "brand:wikidata": "Q2871849"}, "geometry": {"type": "Point", "coordinates": [151.71563, -32.88719]}},
{"type": "Feature", "id": "jWpFwW1k9PkQac6AX4g1I4CYxA4=", "properties": {"ref": "+61 8 6145 9300", "@spider": "aurecongroup", "addr:full": "Level 5, 863 Hay Street PerthWA6000", "addr:city": "Perth", "phone": "+61 8 6145 9300", "brand": "Aurecon Group", "brand:wikidata": "Q2871849"}, "geometry": {"type": "Point", "coordinates": [115.853684, -31.952535]}},
{"type": "Feature", "id": "X6-Pm-IisQSYpHIcOKgH029xOq4=", "properties": {"ref": "+61 2 9465 5599", "@spider": "aurecongroup", "addr:full": "Level 11, 73 Miller Street, North SydneyNSW2060", "addr:city": "Sydney", "phone": "+61 2 9465 5599", "brand": "Aurecon Group", "brand:wikidata": "Q2871849"}, "geometry": {"type": "Point", "coordinates": [151.206788867651, -33.8404308777363]}},
{"type": "Feature", "id": "4kpC4lp5n63cPXhgmn4Ox0tqQJY=", "properties": {"ref": "+61 7 4642 2500", "@spider": "aurecongroup", "addr:full": "123 Margaret Street ToowoombaQld4350", "addr:city": "Toowoomba", "phone": "+61 7 4642 2500", "brand": "Aurecon Group", "brand:wikidata": "Q2871849"}, "geometry": {"type": "Point", "coordinates": [151.948024, -27.56632]}},
{"type": "Feature", "id": "fzV-pliOOUuRE9u1jLlvNOeQrk8=", "properties": {"ref": "+86 21 2407 3699", "@spider": "aurecongroup", "addr:full": "Room 2438, 4th Floor, Building, 3, No 8 Bridge East Road, Chaoyang District,Beijing100022", "addr:city": "Beijing", "phone": "+86 21 2407 3699", "brand": "Aurecon Group", "brand:wikidata": "Q2871849"}},
{"type": "Feature", "id": "yf2qxq1ASU5j-QD9Tm2um1n6QHY=", "properties": {"ref": "+86 21 2407 3688", "@spider": "aurecongroup", "addr:full": "Room 606, Level 6,Building G, No 9335 Hu Ming Road, Vanke Centre (Xuhui) Shanghai China Shanghai200235", "addr:city": "Shanghai", "phone": "+86 21 2407 3688", "brand": "Aurecon Group", "brand:wikidata": "Q2871849"}, "geometry": {"type": "Point", "coordinates": [121.433314, 31.160157]}},
{"type": "Feature", "id": "y7kwYCQFYvVzHCMBygoMg7UxTIg=", "properties": {"ref": "+852 3664 6888", "@spider": "aurecongroup", "addr:full": "Unit 1608 16/F, Tower B,  Manulife Financial Centre, 223 \u2013 231 Wai Yip Street, Kwun Tong, Kowloon", "addr:city": "Hong Kong", "phone": "+852 3664 6888", "brand": "Aurecon Group", "brand:wikidata": "Q2871849"}, "geometry": {"type": "Point", "coordinates": [114.223944, 22.307306]}},
{"type": "Feature", "id": "3NV0t7APhK7HWSzgSi3pDR7XsRA=", "properties": {"ref": "+62 21 5099 1060", "@spider": "aurecongroup", "addr:full": "Revenue Tower, 25th Floor, Unit 25-113, District 8 Jenderal Sudirman Kav. 52-53, SCBD Lot 13,South Jakarta12190", "addr:city": "Jakarta", "phone": "+62 21 5099 1060", "brand": "Aurecon Group", "brand:wikidata": "Q2871849"}, "geometry": {"type": "Point", "coordinates": [106.807006026712, -6.22721675726539]}},
{"type": "Feature", "id": "kj0DhA4d2GAgZ_G6Osy2VWlzYE8=", "properties": {"ref": "+607\u2013350 7391", "@spider": "aurecongroup", "addr:full": "No.12-02, Jalan Molek 1/5C, Taman Molek, 81100 Johor Bahru, Johor Darul Takzim, Malaysia ", "addr:city": "Taman Molek, Johor", "phone": "+607\u2013350 7391", "brand": "Aurecon Group", "brand:wikidata": "Q2871849"}, "geometry": {"type": "Point", "coordinates": [103.791651925961, 1.53102149906479]}},
{"type": "Feature", "id": "1z8V4kAQmSRQfr-cbepPpvKDAcU=", "properties": {"ref": "+603 7454 7900", "@spider": "aurecongroup", "addr:full": "Unit 21-02, Level 21, IMAZIUM, No. 8, Jalan SS21/37, Damansara Uptown, 47400 Petaling Jaya, Selangor Darul Ehsan, Malaysia ", "addr:city": "Petaling Jaya, Kuala Lumpur", "phone": "+603 7454 7900", "brand": "Aurecon Group", "brand:wikidata": "Q2871849"}, "geometry": {"type": "Point", "coordinates": [101.623658098, 3.13361061286721]}},
{"type": "Feature", "id": "J4ZnZAq91Z7V2MxctLpeoQ_zvv0=", "properties": {"ref": "+64 9 520 6019", "@spider": "aurecongroup", "addr:full": "Level 3, Air New Zealand Building, 185 Fanshawe Street, Wynyard Quarter,Auckland1010", "addr:city": "Auckland", "phone": "+64 9 520 6019", "brand": "Aurecon Group", "brand:wikidata": "Q2871849"}, "geometry": {"type": "Point", "coordinates": [174.753491597667, -36.8448755484096]}},
{"type": "Feature", "id": "XQ6udv0HDvZlIMEXnb5pXH_XvyY=", "properties": {"ref": "+64 3 366 0821", "@spider": "aurecongroup", "addr:full": "Level 2, Iwikau Building, 93 Cambridge Terrace,Christchurch 8013", "addr:city": "Christchurch", "phone": "+64 3 366 0821", "brand": "Aurecon Group", "brand:wikidata": "Q2871849"}, "geometry": {"type": "Point", "coordinates": [172.632635, -43.532885]}},
{"type": "Feature", "id": "6I_wemisvRUIWuYjDJ2jXnMHGb0=", "properties": {"ref": "+64 7 834 1565", "@spider": "aurecongroup", "addr:full": "Level 1, 286 Victoria Street Hamilton3240", "addr:city": "Hamilton", "phone": "+64 7 834 1565", "brand": "Aurecon Group", "brand:wikidata": "Q2871849"}, "geometry": {"type": "Point", "coordinates": [175283825.0, -37787779.0]}},
{"type": "Feature", "id": "Tsy1IWAMXNBMAkdZGwzchcJehf0=", "properties": {"ref": "+64 7 578 6183", "@spider": "aurecongroup", "addr:full": "Ground Level, ANZ Building, 247 Cameron Road,  Tauranga3140", "addr:city": "Tauranga", "phone": "+64 7 578 6183", "brand": "Aurecon Group", "brand:wikidata": "Q2871849"}, "geometry": {"type": "Point", "coordinates": [176.1649546, -37.6872167]}},
{"type": "Feature", "id": "7Xol46xtI78SEXO4zByk6kDjbiY=", "properties": {"ref": "+64 4 472 9589", "@spider": "aurecongroup", "addr:full": "Spark Central, Level 8,  42-52 Willis Street, Wellington,6011", "addr:city": "Wellington", "phone": "+64 4 472 9589", "brand": "Aurecon Group", "brand:wikidata": "Q2871849"}, "geometry": {"type": "Point", "coordinates": [174.775394, -41.287214]}},
{"type": "Feature", "id": "QNjUQoCXehj3m6AfoqSuyitSXyU=", "properties": {"ref": "+63 2 333 7000 / +63 2 470 9999", "@spider": "aurecongroup", "addr:full": "Level 3, South Wing, Estancia at Capitol Commons, Meralco Avenue corner Shaw Boulevard Barangay Oranbo,Pasig City1600", "addr:city": "Manila", "phone": "+63 2 333 7000 / +63 2 470 9999", "brand": "Aurecon Group", "brand:wikidata": "Q2871849"}, "geometry": {"type": "Point", "coordinates": [121.062705, 14.57583]}},
{"type": "Feature", "id": "Gfxb5QGyHlsq-1WJ86Wax2Yfgs0=", "properties": {"ref": "+65 6256 6188", "@spider": "aurecongroup", "addr:full": "152 Beach Road, #16-00 Gateway East, Singapore189721", "addr:city": "Singapore", "phone": "+65 6256 6188", "brand": "Aurecon Group", "brand:wikidata": "Q2871849"}, "geometry": {"type": "Point", "coordinates": [103.8593431, 1.2988691]}},
{"type": "Feature", "id": "HV1kAdEo2_oMR_24t6NmSZrOaSg=", "properties": {"ref": "+ 662 333 3222", "@spider": "aurecongroup", "addr:full": "Pakin Building, 11th Floor, Unit 1101, 9 Ratchadapisek Road,  Kwang Dindaeng, Khet Dindaeng, Bangkok 10400", "addr:city": "Bangkok", "phone": "+ 662 333 3222", "brand": "Aurecon Group", "brand:wikidata": "Q2871849"}, "geometry": {"type": "Point", "coordinates": [100.566192, 13.761288]}},
{"type": "Feature", "id": "ed2q-DObQcarZm9pKNUSeeiTF-M=", "properties": {"ref": "+84 28 3823 9994", "@spider": "aurecongroup", "addr:full": "Level 25, LIM Tower 3, 29A Nguyen Dinh Chieu, Da Kao Ward, District 1,Ho Chi Minh City, Vietnam", "addr:city": "Ho Chi Minh City", "phone": "+84 28 3823 9994", "brand": "Aurecon Group", "brand:wikidata": "Q2871849"}, "geometry": {"type": "Point", "coordinates": [106.698364173529, 10.7875197088179]}}]}