{"type":"FeatureCollection","features":[{"type": "Feature", "id": "IuMVjXbHVHBFoudfFeN8OMNjPos=", "properties": {"ref": "2805", "sells": "", "@spider": "auto_nation", "addr:full": "4901 Weidmar Lane", "addr:city": "Austin", "addr:state": "TX", "addr:postcode": "78745", "addr:country": "US", "name": "AutoNation Collision Center Austin", "phone": "(512) 900-1022", "website": "https://www.autonation.com/dealers/collision-center-austin-tx", "opening_hours": "Mo-Fr 08:00-18:00; Sa 08:00-12:00", "brand": "Auto Nation", "brand:wikidata": "Q784804"}, "geometry": {"type": "Point", "coordinates": [-97.760188, 30.208184]}},
{"type": "Feature", "id": "eQcHp-B_K-vj6lU4l65i-PQcAfg=", "properties": {"ref": "2571", "sells": "Scion, Toyota", "@spider": "auto_nation", "addr:full": "4800 IH 35 South", "addr:city": "Austin", "addr:state": "TX", "addr:postcode": "78745", "addr:country": "US", "name": "AutoNation Toyota South Austin", "phone": "(512) 518-6900", "website": "https://www.autonation.com/dealers/toyota-south-austin-tx", "opening_hours": "Mo-Sa 09:00-20:00", "brand": "Auto Nation", "brand:wikidata": "Q784804"}, "geometry": {"type": "Point", "coordinates": [-97.7584, 30.20766]}},
{"type": "Feature", "id": "EX7W5uFbSutic2RSVypGNKocphg=", "properties": {"ref": "2570", "sells": "Chevrolet", "@spider": "auto_nation", "addr:full": "11400 Research Boulevard", "addr:city": "Austin", "addr:state": "TX", "addr:postcode": "78759", "addr:country": "US", "name": "AutoNation Chevrolet West Austin", "phone": "(512) 309-0028", "website": "https://www.autonation.com/dealers/chevrolet-west-austin-tx", "opening_hours": "Mo-Sa 09:00-20:00", "brand": "Auto Nation", "brand:wikidata": "Q784804"}, "geometry": {"type": "Point", "coordinates": [-97.74599, 30.4109]}},
{"type": "Feature", "id": "E4lymejpIgq9fCMqwqn5tbSE-sE=", "properties": {"ref": "2971", "sells": "Acura, Alfa Romeo, Audi, Bentley, BMW", "@spider": "auto_nation", "addr:full": "15423 West I-10", "addr:city": "San Antonio", "addr:state": "TX", "addr:postcode": "78249", "addr:country": "US", "name": "AutoNation USA San Antonio", "phone": "(726) 610-6038", "website": "https://www.autonation.com/dealers/usa-san-antonio-tx-78249", "opening_hours": "Mo-Sa 09:00-20:00", "brand": "Auto Nation", "brand:wikidata": "Q784804"}, "geometry": {"type": "Point", "coordinates": [-98.595152, 29.581707]}},
{"type": "Feature", "id": "0hSEAV4D5XzxGi8sGYGjjm7mldk=", "properties": {"ref": "2295", "sells": "Mercedes-Benz", "@spider": "auto_nation", "addr:full": "1625 N. Valley Mills Drive", "addr:city": "Waco", "addr:state": "TX", "addr:postcode": "76710", "addr:country": "US", "name": "Mercedes-Benz of Waco", "phone": "(254) 244-0166", "website": "https://www.autonation.com/dealers/mercedes-benz-waco-tx", "opening_hours": "Mo-Fr 09:00-19:00; Sa 09:00-18:00", "brand": "Auto Nation", "brand:wikidata": "Q784804"}, "geometry": {"type": "Point", "coordinates": [-97.19751, 31.53313]}},
{"type": "Feature", "id": "2oVGDzOP7SMZGDrIkdovqaxw9a0=", "properties": {"ref": "2343", "sells": "Chevrolet", "@spider": "auto_nation", "addr:full": "1625 N. Valley Mills Drive", "addr:city": "Waco", "addr:state": "TX", "addr:postcode": "76710", "addr:country": "US", "name": "Autonation Chevrolet Waco", "phone": "(254) 242-0679", "website": "https://www.autonation.com/dealers/chevrolet-waco-tx", "opening_hours": "Mo-Fr 09:00-19:00; Sa 09:00-18:00", "brand": "Auto Nation", "brand:wikidata": "Q784804"}, "geometry": {"type": "Point", "coordinates": [-97.19731, 31.53306]}},
{"type": "Feature", "id": "CcoURYUdL2PvcjiKb_D8h_utGJ4=", "properties": {"ref": "2767", "sells": "", "@spider": "auto_nation", "addr:full": "1625 N. Valley Mills Drive", "addr:city": "Waco", "addr:state": "TX", "addr:postcode": "76710", "addr:country": "US", "name": "AutoNation Collision Center Waco", "phone": "(254) 307-7720", "website": "https://www.autonation.com/dealers/collision-center-waco-tx", "opening_hours": "Mo-Fr 08:00-18:00", "brand": "Auto Nation", "brand:wikidata": "Q784804"}, "geometry": {"type": "Point", "coordinates": [-97.19731, 31.53306]}},
{"type": "Feature", "id": "q-4zd0vmQvQVhIdsbv_u1x2C2Xs=", "properties": {"ref": "2386", "sells": "Chrysler, Dodge, Jeep, Ram", "@spider": "auto_nation", "addr:full": "21777 Katy Fwy", "addr:city": "Katy", "addr:state": "TX", "addr:postcode": "77450", "addr:country": "US", "name": "AutoNation Chrysler Dodge Jeep Ram Katy", "phone": "(281) 715-6920", "website": "https://www.autonation.com/dealers/chrysler-dodge-jeep-ram-katy-tx", "opening_hours": "Mo-Sa 09:00-21:00", "brand": "Auto Nation", "brand:wikidata": "Q784804"}, "geometry": {"type": "Point", "coordinates": [-95.744134, 29.783294]}},
{"type": "Feature", "id": "8bTXZKvTFyQX1DJr_1eIpZVe3hA=", "properties": {"ref": "2857", "sells": "", "@spider": "auto_nation", "addr:full": "21777 Katy Fwy", "addr:city": "Katy", "addr:state": "TX", "addr:postcode": "77450", "addr:country": "US", "name": "AutoNation Collision Center Katy West", "phone": "(281) 715-6909", "website": "https://www.autonation.com/dealers/collision-center-katy-west-tx", "opening_hours": "Mo-Fr 08:00-18:00; Sa 08:00-12:00", "brand": "Auto Nation", "brand:wikidata": "Q784804"}, "geometry": {"type": "Point", "coordinates": [-95.74408, 29.78341]}},
{"type": "Feature", "id": "KEU7q8rDRKqtz7vSptEfnzzLbCc=", "properties": {"ref": "2500", "sells": "Ford", "@spider": "auto_nation", "addr:full": "20777 Katy Freeway", "addr:city": "Katy", "addr:state": "TX", "addr:postcode": "77450", "addr:country": "US", "name": "AutoNation Ford Katy", "phone": "(281) 305-8949", "website": "https://www.autonation.com/dealers/ford-katy-tx", "opening_hours": "Mo-Sa 09:00-21:00", "brand": "Auto Nation", "brand:wikidata": "Q784804"}, "geometry": {"type": "Point", "coordinates": [-95.73225, 29.7841]}},
{"type": "Feature", "id": "ZAnp43QWJHz7Ydm-mmwQLZfWheo=", "properties": {"ref": "2662", "sells": "", "@spider": "auto_nation", "addr:full": "20777 Katy Freeway", "addr:city": "Katy", "addr:state": "TX", "addr:postcode": "77450", "addr:country": "US", "name": "AutoNation Collision Center Katy", "phone": "(281) 657-9318", "website": "https://www.autonation.com/dealers/collision-center-katy-tx", "opening_hours": "Mo-Fr 08:00-18:00; Sa 08:00-12:00", "brand": "Auto Nation", "brand:wikidata": "Q784804"}, "geometry": {"type": "Point", "coordinates": [-95.73225, 29.7841]}},
{"type": "Feature", "id": "tpiMlTfXsQX1zrFF217DTVWBBxA=", "properties": {"ref": "2611", "sells": "Jaguar, Land Rover", "@spider": "auto_nation", "addr:full": "20415 Katy Freeway", "addr:city": "Katy", "addr:state": "TX", "addr:postcode": "77450", "addr:country": "US", "name": "Jaguar Land Rover West Houston", "phone": "(281) 305-8906", "website": "https://www.autonation.com/dealers/jaguar-land-rover-west-houston", "opening_hours": "Mo-Sa 09:00-19:00", "brand": "Auto Nation", "brand:wikidata": "Q784804"}, "geometry": {"type": "Point", "coordinates": [-95.72545, 29.78395]}},
{"type": "Feature", "id": "HImeVqv9ufOpiHgDbu6fT9js23o=", "properties": {"ref": "2924", "sells": "Acura, Alfa Romeo, Audi, Bentley, BMW, Buick, Cadillac, Chevrolet, Chrysler, Dodge, FIAT, Ford, GMC, Honda, Hyundai, Infiniti, Jaguar, Jeep, Land Rover, Lexus, Lincoln, Maserati, Mazda, Mercedes-Benz, MINI, Mitsubishi, Nissan, Porsche, Ram, Scion, Smart, Subaru, Toyota, Volkswagen, Volvo", "@spider": "auto_nation", "addr:full": "15625 Katy Freeway", "addr:city": "Houston", "addr:state": "TX", "addr:postcode": "77094", "addr:country": "US", "name": "AutoNation USA Katy", "phone": "(346) 510-4287", "website": "https://www.autonation.com/dealers/usa-katy-tx-77094", "opening_hours": "Mo-Sa 09:00-21:00", "brand": "Auto Nation", "brand:wikidata": "Q784804"}, "geometry": {"type": "Point", "coordinates": [-95.657783, 29.783861]}},
{"type": "Feature", "id": "kIUcfDeHWtRIWTNQn5o5WEoKN9Y=", "properties": {"ref": "2397", "sells": "MINI", "@spider": "auto_nation", "addr:full": "16675 Interstate 45 South", "addr:city": "Conroe", "addr:state": "TX", "addr:postcode": "77385", "addr:country": "US", "name": "MINI of The Woodlands", "phone": "(936) 344-1258", "website": "https://www.autonation.com/dealers/mini-of-the-woodlands-tx", "opening_hours": "Mo-Sa 09:00-19:00", "brand": "Auto Nation", "brand:wikidata": "Q784804"}, "geometry": {"type": "Point", "coordinates": [-95.45617, 30.213388]}},
{"type": "Feature", "id": "_v1hJe0kx-8fNEAe6ESuq1H_91o=", "properties": {"ref": "2848", "sells": "BMW", "@spider": "auto_nation", "addr:full": "17830 Interstate 45 South", "addr:city": "The Woodlands", "addr:state": "TX", "addr:postcode": "77384", "addr:country": "US", "name": "BMW of The Woodlands", "phone": "(936) 776-4610", "website": "https://www.autonation.com/dealers/bmw-the-woodlands", "opening_hours": "Mo-Sa 09:00-19:00", "brand": "Auto Nation", "brand:wikidata": "Q784804"}, "geometry": {"type": "Point", "coordinates": [-95.45643, 30.19868]}},
{"type": "Feature", "id": "Qd7Gwtw-vx8bPe63ugrtZDY1U5c=", "properties": {"ref": "2166", "sells": "Chrysler, Dodge, Jeep, Ram", "@spider": "auto_nation", "addr:full": "21027 Interstate 45", "addr:city": "Spring", "addr:state": "TX", "addr:postcode": "77388", "addr:country": "US", "name": "AutoNation Chrysler Dodge Jeep Ram Spring", "phone": "(281) 715-6927", "website": "https://www.autonation.com/dealers/chrysler-dodge-jeep-ram-spring-tx", "opening_hours": "Mo-Sa 09:00-21:00", "brand": "Auto Nation", "brand:wikidata": "Q784804"}, "geometry": {"type": "Point", "coordinates": [-95.43653, 30.06879]}},
{"type": "Feature", "id": "4f_2rrN1mbw4_m-739nu2djVEEU=", "properties": {"ref": "2337", "sells": "BMW, Chrysler, Dodge, Jeep, MINI, Ram", "@spider": "auto_nation", "addr:full": "21055 North Freeway I-45", "addr:city": "Spring", "addr:state": "TX", "addr:postcode": "77388", "addr:country": "US", "name": "AutoNation Collision Center Spring", "phone": "(281) 766-8208", "website": "https://www.autonation.com/dealers/collision-center-spring-tx", "opening_hours": "Mo-Fr 08:00-18:00; Sa-Su 08:00-16:00", "brand": "Auto Nation", "brand:wikidata": "Q784804"}, "geometry": {"type": "Point", "coordinates": [-95.43561, 30.06948]}},
{"type": "Feature", "id": "jXu2iOwczswJu38CEhnTC-VGNB4=", "properties": {"ref": "2521", "sells": "Mercedes-Benz", "@spider": "auto_nation", "addr:full": "17510 I-45 North Freeway", "addr:city": "Houston", "addr:state": "TX", "addr:postcode": "77090", "addr:country": "US", "name": "Mercedes-Benz of Houston North", "phone": "(281) 305-8970", "website": "https://www.autonation.com/dealers/mercedes-benz-houston-north", "opening_hours": "Mo-Sa 09:00-19:00", "brand": "Auto Nation", "brand:wikidata": "Q784804"}, "geometry": {"type": "Point", "coordinates": [-95.42864, 30.02286]}},
{"type": "Feature", "id": "DGC3kLlDZWCIKzYWLhNgqhn74pM=", "properties": {"ref": "2516", "sells": "BMW", "@spider": "auto_nation", "addr:full": "17730 North Freeway (I45)", "addr:city": "Houston", "addr:state": "TX", "addr:postcode": "77090", "addr:country": "US", "name": "BMW of Houston North", "phone": "(281) 305-8901", "website": "https://www.autonation.com/dealers/bmw-houston-north", "opening_hours": "Mo-Sa 09:00-19:00", "brand": "Auto Nation", "brand:wikidata": "Q784804"}, "geometry": {"type": "Point", "coordinates": [-95.42742, 30.02438]}},
{"type": "Feature", "id": "N4WrUb9pQRj0d9aho2yJlobRYRk=", "properties": {"ref": "2499", "sells": "BMW, Mercedes-Benz, MINI", "@spider": "auto_nation", "addr:full": "325 FM 1960 Road", "addr:city": "Houston", "addr:state": "TX", "addr:postcode": "77073", "addr:country": "US", "name": "AutoNation Collision Center North Houston", "phone": "(713) 489-2084", "website": "https://www.autonation.com/dealers/collision-center-north-houston-tx", "opening_hours": "Mo-Fr 08:00-18:00; Sa 08:00-12:00", "brand": "Auto Nation", "brand:wikidata": "Q784804"}, "geometry": {"type": "Point", "coordinates": [-95.42452, 30.02361]}},
{"type": "Feature", "id": "A5LTeciG6HJBCVs4HS2Uj-J35GI=", "properties": {"ref": "2344", "sells": "", "@spider": "auto_nation", "addr:full": "5251 Gulfton Street", "addr:city": "Houston", "addr:state": "TX", "addr:postcode": "77081", "addr:country": "US", "name": "AutoNation Collision Center Galleria", "phone": "(713) 714-2207", "website": "https://www.autonation.com/dealers/collision-center-galleria-tx", "opening_hours": "Mo-Fr 07:30-18:00; Sa 08:00-13:00", "brand": "Auto Nation", "brand:wikidata": "Q784804"}, "geometry": {"type": "Point", "coordinates": [-95.47161, 29.71562]}},
{"type": "Feature", "id": "xCT91bfkRSFmHVfTx_cLkHOle8I=", "properties": {"ref": "2942", "sells": "Acura, Alfa Romeo, Audi, Bentley, BMW, Buick, Cadillac, Chevrolet, Chrysler, Dodge, FIAT, Ford, GMC, Honda, Hyundai, Infiniti, Jeep, Lexus, Lincoln, Maserati, Mazda, Mercedes-Benz, MINI, Mitsubishi, Nissan, Ram, Scion, Smart, Subaru, Toyota, Volkswagen, Volvo", "@spider": "auto_nation", "addr:full": "8526 North Freeway", "addr:city": "Houston", "addr:state": "TX", "addr:postcode": "77037", "addr:country": "US", "name": "AutoNation USA Houston", "phone": "(346) 510-4133", "website": "https://www.autonation.com/dealers/usa-houston-tx-77037", "opening_hours": "Mo-Sa 09:00-21:00", "brand": "Auto Nation", "brand:wikidata": "Q784804"}, "geometry": {"type": "Point", "coordinates": [-95.411171, 29.884424]}},
{"type": "Feature", "id": "8oeeaU0eVP1H2CcW--OBBKnZK-0=", "properties": {"ref": "2522", "sells": "Mercedes-Benz", "@spider": "auto_nation", "addr:full": "3900 Southwest Freeway", "addr:city": "Houston", "addr:state": "TX", "addr:postcode": "77027", "addr:country": "US", "name": "Mercedes-Benz of Houston Greenway", "phone": "(713) 489-2111", "website": "https://www.autonation.com/dealers/mercedes-benz-houston-greenway", "opening_hours": "Mo-Sa 09:00-19:00", "brand": "Auto Nation", "brand:wikidata": "Q784804"}, "geometry": {"type": "Point", "coordinates": [-95.439291, 29.730083]}},
{"type": "Feature", "id": "NgznmD6MBO0FwIBCEkF3UQG7ixo=", "properties": {"ref": "2347", "sells": "Chrysler, Dodge, Jeep, Ram", "@spider": "auto_nation", "addr:full": "1515 South Loop West", "addr:city": "Houston", "addr:state": "TX", "addr:postcode": "77054", "addr:country": "US", "name": "AutoNation Chrysler Dodge Jeep Ram Houston", "phone": "(713) 489-7825", "website": "https://www.autonation.com/dealers/chrysler-dodge-jeep-ram-houston-tx", "opening_hours": "Mo-Sa 09:00-21:00", "brand": "Auto Nation", "brand:wikidata": "Q784804"}, "geometry": {"type": "Point", "coordinates": [-95.4007, 29.67725]}},
{"type": "Feature", "id": "YCVeeNOa4DRVjGKPvCgFDv0Q7WU=", "properties": {"ref": "2887", "sells": "", "@spider": "auto_nation", "addr:full": "7200 Gulf Freeway", "addr:city": "Houston", "addr:state": "TX", "addr:postcode": "77017", "addr:country": "US", "name": "AutoNation Collision Center Gulfgate", "phone": "(713) 893-1063", "website": "https://www.autonation.com/dealers/collision-center-gulfgate-tx", "opening_hours": "Mo-Fr 08:00-18:00; Sa 08:00-12:30", "brand": "Auto Nation", "brand:wikidata": "Q784804"}, "geometry": {"type": "Point", "coordinates": [-95.29017, 29.69544]}},
{"type": "Feature", "id": "NOQrb5slOziLN4472YvW9r2QQ_Y=", "properties": {"ref": "2507", "sells": "Scion, Toyota", "@spider": "auto_nation", "addr:full": "12111 Gulf Freeway, Bldg B", "addr:city": "Houston", "addr:state": "TX", "addr:postcode": "77034", "addr:country": "US", "name": "AutoNation Toyota Gulf Freeway", "phone": "(713) 489-2097", "website": "https://www.autonation.com/dealers/toyota-gulf-freeway-tx", "opening_hours": "Mo-Sa 09:00-21:00", "brand": "Auto Nation", "brand:wikidata": "Q784804"}, "geometry": {"type": "Point", "coordinates": [-95.22405, 29.624458]}},
{"type": "Feature", "id": "Tw6pv1R1OwDnBj6wQKZfG3G7E5Q=", "properties": {"ref": "2510", "sells": "Ford", "@spider": "auto_nation", "addr:full": "12227 Gulf Freeway", "addr:city": "Houston", "addr:state": "TX", "addr:postcode": "77034", "addr:country": "US", "name": "AutoNation Ford Gulf Freeway", "phone": "(713) 489-2089", "website": "https://www.autonation.com/dealers/ford-gulf-freeway", "opening_hours": "Mo-Sa 09:00-21:00", "brand": "Auto Nation", "brand:wikidata": "Q784804"}, "geometry": {"type": "Point", "coordinates": [-95.222305, 29.622489]}},
{"type": "Feature", "id": "cwSdpUtoy-FUJilpZBpt75WS6TY=", "properties": {"ref": "2514", "sells": "Chevrolet", "@spider": "auto_nation", "addr:full": "13800 Gulf Freeway", "addr:city": "Houston", "addr:state": "TX", "addr:postcode": "77034", "addr:country": "US", "name": "AutoNation Chevrolet Gulf Freeway", "phone": "(281) 305-8940", "website": "https://www.autonation.com/dealers/chevrolet-gulf-freeway", "opening_hours": "Mo-Sa 09:00-21:00", "brand": "Auto Nation", "brand:wikidata": "Q784804"}, "geometry": {"type": "Point", "coordinates": [-95.203407, 29.60169]}},
{"type": "Feature", "id": "e64z7qF69fGpLi8p2JakifYY_bk=", "properties": {"ref": "2896", "sells": "", "@spider": "auto_nation", "addr:full": "13800 Gulf Freeway", "addr:city": "Houston", "addr:state": "TX", "addr:postcode": "77034", "addr:country": "US", "name": "AutoNation Collision Center NASA", "phone": "(281) 715-6921", "website": "https://www.autonation.com/dealers/collision-center-nasa-tx", "opening_hours": "Mo-Fr 08:00-18:00; Sa 08:30-12:30", "brand": "Auto Nation", "brand:wikidata": "Q784804"}, "geometry": {"type": "Point", "coordinates": [-95.20321, 29.60169]}},
{"type": "Feature", "id": "QZd1-JO36dThpGlTlrAPwLRWF1k=", "properties": {"ref": "2844", "sells": "Ford", "@spider": "auto_nation", "addr:full": "850 North Burleson Boulevard", "addr:city": "Burleson", "addr:state": "TX", "addr:postcode": "76028", "addr:country": "US", "name": "AutoNation Ford Burleson", "phone": "(817) 522-3224", "website": "https://www.autonation.com/dealers/ford-burleson-tx", "opening_hours": "Mo-Sa 09:00-20:00", "brand": "Auto Nation", "brand:wikidata": "Q784804"}, "geometry": {"type": "Point", "coordinates": [-97.31719, 32.55989]}},
{"type": "Feature", "id": "mqpcIaRl12JseSQi5wpJFTOcEbQ=", "properties": {"ref": "2491", "sells": "Ford", "@spider": "auto_nation", "addr:full": "5000 Bryant Irvin Road", "addr:city": "Fort Worth", "addr:state": "TX", "addr:postcode": "76132", "addr:country": "US", "name": "AutoNation Ford Fort Worth", "phone": "(817) 200-4212", "website": "https://www.autonation.com/dealers/ford-ft-worth-tx", "opening_hours": "Mo-Sa 08:30-20:00", "brand": "Auto Nation", "brand:wikidata": "Q784804"}, "geometry": {"type": "Point", "coordinates": [-97.4176, 32.67701]}},
{"type": "Feature", "id": "xNrNbyq6K-uVKB3ObF9NOVP4pVk=", "properties": {"ref": "2512", "sells": "Acura", "@spider": "auto_nation", "addr:full": "1125 Gulf Freeway South", "addr:city": "League City", "addr:state": "TX", "addr:postcode": "77573", "addr:country": "US", "name": "AutoNation Acura Gulf Freeway", "phone": "(713) 489-2050", "website": "https://www.autonation.com/dealers/acura-gulf-freeway", "opening_hours": "Mo-Sa 09:00-19:00", "brand": "Auto Nation", "brand:wikidata": "Q784804"}, "geometry": {"type": "Point", "coordinates": [-95.10895, 29.49315]}},
{"type": "Feature", "id": "mYmkERLzD4ZFgRT5751380CYLbI=", "properties": {"ref": "2635", "sells": "", "@spider": "auto_nation", "addr:full": "7004 S Cooper", "addr:city": "Arlington", "addr:state": "TX", "addr:postcode": "76001", "addr:country": "US", "name": "AutoNation Collision Center Arlington", "phone": "(817) 618-0680", "website": "https://www.autonation.com/dealers/collision-center-arlington-tx", "opening_hours": "Mo-Fr 08:00-18:00; Sa 09:00-13:00", "brand": "Auto Nation", "brand:wikidata": "Q784804"}, "geometry": {"type": "Point", "coordinates": [-97.137407, 32.63272]}},
{"type": "Feature", "id": "JCeTG0TyRPKPFYZjRlc-9XOS6aM=", "properties": {"ref": "2846", "sells": "Ford", "@spider": "auto_nation", "addr:full": "5300 Campus Drive", "addr:city": "Fort Worth", "addr:state": "TX", "addr:postcode": "76119", "addr:country": "US", "name": "AutoNation Ford South Fort Worth", "phone": "(817) 522-3225", "website": "https://www.autonation.com/dealers/ford-south-fort-worth-tx", "opening_hours": "Mo-Sa 09:00-20:00", "brand": "Auto Nation", "brand:wikidata": "Q784804"}, "geometry": {"type": "Point", "coordinates": [-97.29421, 32.66808]}},
{"type": "Feature", "id": "GrCA-RWd9ostsPS8ek5-q9k2VHw=", "properties": {"ref": "2324", "sells": "Chevrolet", "@spider": "auto_nation", "addr:full": "2118 Padre Island Drive", "addr:city": "Corpus Christi", "addr:state": "TX", "addr:postcode": "78416", "addr:country": "US", "name": "AutoNation Chevrolet North Corpus Christi", "phone": "(361) 371-4040", "website": "https://www.autonation.com/dealers/chevrolet-north-corpus-christi-tx", "opening_hours": "Mo-Sa 08:30-20:00", "brand": "Auto Nation", "brand:wikidata": "Q784804"}, "geometry": {"type": "Point", "coordinates": [-97.43159, 27.74077]}},
{"type": "Feature", "id": "GMTcme78eR5ftyYsE0AQA2YvX5s=", "properties": {"ref": "2884", "sells": "", "@spider": "auto_nation", "addr:full": "2118 S Padre Island Drive", "addr:city": "Corpus Christi", "addr:state": "TX", "addr:postcode": "78416", "addr:country": "US", "name": "AutoNation Collision Center North Corpus Christi", "phone": "(361) 226-8697", "website": "https://www.autonation.com/dealers/collision-center-north-corpus-christi-tx", "opening_hours": "Mo-Fr 08:00-18:00; Sa 08:00-12:00", "brand": "Auto Nation", "brand:wikidata": "Q784804"}, "geometry": {"type": "Point", "coordinates": [-97.43159, 27.74077]}},
{"type": "Feature", "id": "yPbcJ9QB99NVpvGd1jrYANTR5RM=", "properties": {"ref": "2939", "sells": "Acura, Alfa Romeo, Audi, Bentley, BMW, Buick, Cadillac, Chevrolet, Chrysler, Dodge, FIAT, Ford, GMC, Honda, Hyundai, Infiniti, Jaguar, Jeep, Land Rover, Lexus, Lincoln, Maserati, Mazda, Mercedes-Benz, MINI, Mitsubishi, Nissan, Porsche, Ram, Scion, Smart, Subaru, Toyota, Volkswagen, Volvo", "@spider": "auto_nation", "addr:full": "3115 S Padre Island Dr", "addr:city": "Corpus Christi", "addr:state": "TX", "addr:postcode": "78415", "addr:country": "US", "name": "AutoNation USA Corpus Christi", "phone": "(361) 929-3960", "website": "https://www.autonation.com/dealers/usa-corpus-christi-tx-78415", "opening_hours": "Mo-Sa 09:00-20:00", "brand": "Auto Nation", "brand:wikidata": "Q784804"}, "geometry": {"type": "Point", "coordinates": [-97.415108, 27.72841]}},
{"type": "Feature", "id": "NRN-1WXDBdTequW4VQEKXkvKT-8=", "properties": {"ref": "2768", "sells": "", "@spider": "auto_nation", "addr:full": "5105 Martin Luther King FWY", "addr:city": "Ft. Worth", "addr:state": "TX", "addr:postcode": "76119", "addr:country": "US", "name": "AutoNation Collision Center Fort Worth", "phone": "(817) 522-4983", "website": "https://www.autonation.com/dealers/collision-center-fort-worth-tx", "opening_hours": "Mo-Fr 07:00-18:00; Sa 09:00-13:00", "brand": "Auto Nation", "brand:wikidata": "Q784804"}, "geometry": {"type": "Point", "coordinates": [-97.24561, 32.69461]}},
{"type": "Feature", "id": "8dBCK6_1UnNh8AcSTC6xGk-PP7Y=", "properties": {"ref": "2843", "sells": "Ford", "@spider": "auto_nation", "addr:full": "1400 I-20 West", "addr:city": "Arlington", "addr:state": "TX", "addr:postcode": "76017", "addr:country": "US", "name": "AutoNation Ford Arlington", "phone": "(817) 200-4503", "website": "https://www.autonation.com/dealers/ford-arlington-tx", "opening_hours": "Mo-Sa 09:00-20:00", "brand": "Auto Nation", "brand:wikidata": "Q784804"}, "geometry": {"type": "Point", "coordinates": [-97.12792, 32.67492]}},
{"type": "Feature", "id": "Q--xqvJlLdx_-56Roxw9L-39gjg=", "properties": {"ref": "2518", "sells": "Ford, Mazda", "@spider": "auto_nation", "addr:full": "6250 South Padre Island Drive", "addr:city": "Corpus Christi", "addr:state": "TX", "addr:postcode": "78412", "addr:country": "US", "name": "AutoNation Ford Corpus Christi", "phone": "(361) 444-0125", "website": "https://www.autonation.com/dealers/ford-corpus-christi-tx", "opening_hours": "Mo-Fr 08:30-20:00; Sa 09:00-20:00", "brand": "Auto Nation", "brand:wikidata": "Q784804"}, "geometry": {"type": "Point", "coordinates": [-97.35668, 27.7025]}},
{"type": "Feature", "id": "1nQiqsYrHAp74RgFP6Cfqm2O3X0=", "properties": {"ref": "2597", "sells": "All", "@spider": "auto_nation", "addr:full": "1310 Daly Drive", "addr:city": "Corpus Christi", "addr:state": "TX", "addr:postcode": "78412", "addr:country": "US", "name": "AutoNation Collision Center Corpus Christi", "phone": "(361) 226-8695", "website": "https://www.autonation.com/dealers/collision-center-corpus-christi-tx", "opening_hours": "Mo-Fr 08:00-18:00; Sa 08:00-12:00", "brand": "Auto Nation", "brand:wikidata": "Q784804"}, "geometry": {"type": "Point", "coordinates": [-97.35089, 27.70129]}},
{"type": "Feature", "id": "qTKRXIHc-0IfsHZSWrxjCGlgQcs=", "properties": {"ref": "2520", "sells": "Buick, GMC", "@spider": "auto_nation", "addr:full": "6602 South Padre Island Drive", "addr:city": "Corpus Christi", "addr:state": "TX", "addr:postcode": "78412", "addr:country": "US", "name": "AutoNation Buick GMC Corpus Christi", "phone": "(361) 247-2494", "website": "https://www.autonation.com/dealers/buick-gmc-corpus-christi", "opening_hours": "Mo-Sa 08:30-20:00", "brand": "Auto Nation", "brand:wikidata": "Q784804"}, "geometry": {"type": "Point", "coordinates": [-97.35177, 27.699988]}},
{"type": "Feature", "id": "g6_hm0FyTxQzgOLlLFrmPEyWwJA=", "properties": {"ref": "2059", "sells": "Hyundai", "@spider": "auto_nation", "addr:full": "6686 South Padre Island Drive", "addr:city": "Corpus Christi", "addr:state": "TX", "addr:postcode": "78412", "addr:country": "US", "name": "AutoNation Hyundai Corpus Christi", "phone": "(361) 444-0156", "website": "https://www.autonation.com/dealers/hyundai-corpus-christi-tx", "opening_hours": "Mo-Sa 09:00-20:00", "brand": "Auto Nation", "brand:wikidata": "Q784804"}, "geometry": {"type": "Point", "coordinates": [-97.3491, 27.70013]}},
{"type": "Feature", "id": "cADEcNXWJWMhR2ZV1ycF997sxYk=", "properties": {"ref": "2497", "sells": "Cadillac, Chevrolet", "@spider": "auto_nation", "addr:full": "6650 South Padre Island Drive", "addr:city": "Corpus Christi", "addr:state": "TX", "addr:postcode": "78412", "addr:country": "US", "name": "AutoNation Chevrolet Cadillac South Corpus Christi", "phone": "(361) 444-0022", "website": "https://www.autonation.com/dealers/chevrolet-cadillac-corpus-christi-tx", "opening_hours": "Mo-Sa 08:30-20:00", "brand": "Auto Nation", "brand:wikidata": "Q784804"}, "geometry": {"type": "Point", "coordinates": [-97.35113, 27.69967]}},
{"type": "Feature", "id": "nq3AUt1P8u5A-tspMTG_p420mtE=", "properties": {"ref": "2498", "sells": "Scion, Toyota", "@spider": "auto_nation", "addr:full": "6672 South Padre Island Drive", "addr:city": "Corpus Christi", "addr:state": "TX", "addr:postcode": "78412", "addr:country": "US", "name": "AutoNation Toyota Corpus Christi", "phone": "(361) 444-0160", "website": "https://www.autonation.com/dealers/toyota-corpus-christi-tx", "opening_hours": "Mo-Fr 08:30-20:00; Sa 09:00-20:00", "brand": "Auto Nation", "brand:wikidata": "Q784804"}, "geometry": {"type": "Point", "coordinates": [-97.35023, 27.69922]}},
{"type": "Feature", "id": "vs8RsRHuxuTKLiFDBbWJABNnpVE=", "properties": {"ref": "2519", "sells": "Honda", "@spider": "auto_nation", "addr:full": "6702 South Padre Island Drive", "addr:city": "Corpus Christi", "addr:state": "TX", "addr:postcode": "78412", "addr:country": "US", "name": "AutoNation Honda South Corpus Christi", "phone": "(361) 444-0127", "website": "https://www.autonation.com/dealers/honda-south-corpus-christi-tx", "opening_hours": "Mo-Fr 08:30-20:00; Sa 09:00-20:00", "brand": "Auto Nation", "brand:wikidata": "Q784804"}, "geometry": {"type": "Point", "coordinates": [-97.34885, 27.69825]}},
{"type": "Feature", "id": "DE57ZVdgAw2eT5IzXJJ-FCsOF9s=", "properties": {"ref": "2328", "sells": "Hyundai", "@spider": "auto_nation", "addr:full": "7724 NE Loop 820", "addr:city": "Fort Worth", "addr:state": "TX", "addr:postcode": "76180", "addr:country": "US", "name": "AutoNation Hyundai North Richland Hills", "phone": "(817) 953-6549", "website": "https://www.autonation.com/dealers/hyundai-north-richland-hills", "opening_hours": "Mo-Sa 09:00-20:00", "brand": "Auto Nation", "brand:wikidata": "Q784804"}, "geometry": {"type": "Point", "coordinates": [-97.21436, 32.83132]}},
{"type": "Feature", "id": "SYbtE_GuGK6Jf158RZJJworukMU=", "properties": {"ref": "2877", "sells": "", "@spider": "auto_nation", "addr:full": "7724 N.E. Loop 820", "addr:city": "Fort Worth", "addr:state": "TX", "addr:postcode": "76180", "addr:country": "US", "name": "AutoNation Collision Center North Richland Hills", "phone": "(817) 618-0625", "website": "https://www.autonation.com/dealers/collision-center-north-richland-hills-tx", "opening_hours": "Mo-Fr 08:00-18:00; Sa 09:00-13:00", "brand": "Auto Nation", "brand:wikidata": "Q784804"}, "geometry": {"type": "Point", "coordinates": [-97.21436, 32.83132]}},
{"type": "Feature", "id": "AXnkNmXOhS68DY_7hhGPozvS1yY=", "properties": {"ref": "2336", "sells": "Chrysler, Dodge, Jeep, Ram", "@spider": "auto_nation", "addr:full": "7740 NE Loop 820", "addr:city": "Fort Worth", "addr:state": "TX", "addr:postcode": "76180", "addr:country": "US", "name": "AutoNation Chrysler Dodge Jeep Ram North Richland Hills", "phone": "(817) 522-4981", "website": "https://www.autonation.com/dealers/chrysler-dodge-jeep-ram-north-richland-hills", "opening_hours": "Mo-Sa 09:00-20:00", "brand": "Auto Nation", "brand:wikidata": "Q784804"}, "geometry": {"type": "Point", "coordinates": [-97.21284, 32.83216]}},
{"type": "Feature", "id": "SHT7b-4qH66hB60C34EtaZztB0Q=", "properties": {"ref": "2494", "sells": "Chevrolet", "@spider": "auto_nation", "addr:full": "7769 Boulevard 26", "addr:city": "North Richland Hills", "addr:state": "TX", "addr:postcode": "76180", "addr:country": "US", "name": "AutoNation Chevrolet North Richland Hills", "phone": "(682) 214-2010", "website": "https://www.autonation.com/dealers/chevrolet-north-richland-hills-tx", "opening_hours": "Mo-Sa 09:00-20:00", "brand": "Auto Nation", "brand:wikidata": "Q784804"}, "geometry": {"type": "Point", "coordinates": [-97.21561, 32.83477]}},
{"type": "Feature", "id": "H7DDbBf7EEWrOkydlsG2xS8-UZk=", "properties": {"ref": "2797", "sells": "BMW, MINI", "@spider": "auto_nation", "addr:full": "6700 Maple Avenue", "addr:city": "Dallas", "addr:state": "TX", "addr:postcode": "75235", "addr:country": "US", "name": "AutoNation Collision Center Maple", "phone": "(972) 895-3044", "website": "https://www.autonation.com/dealers/collision-center-maple-tx", "opening_hours": "Mo-Fr 08:00-18:00; Sa 09:00-13:00", "brand": "Auto Nation", "brand:wikidata": "Q784804"}, "geometry": {"type": "Point", "coordinates": [-96.84575, 32.83028]}},
{"type": "Feature", "id": "7zljdeIZ1Kkh5JWv9DddiZN_doA=", "properties": {"ref": "2322", "sells": "Chrysler, Dodge, Jeep, Ram", "@spider": "auto_nation", "addr:full": "11200 North Freeway", "addr:city": "Fort Worth", "addr:state": "TX", "addr:postcode": "76177", "addr:country": "US", "name": "AutoNation Chrysler Dodge Jeep Ram North Fort Worth", "phone": "(817) 642-7894", "website": "https://www.autonation.com/dealers/chrysler-dodge-jeep-ram-north-fort-worth", "opening_hours": "Mo-Sa 09:00-20:00", "brand": "Auto Nation", "brand:wikidata": "Q784804"}, "geometry": {"type": "Point", "coordinates": [-97.31174, 32.93724]}},
{"type": "Feature", "id": "-jLcrJLFoboC3oEaUtzru5xqzTU=", "properties": {"ref": "2868", "sells": "", "@spider": "auto_nation", "addr:full": "11200 North Freeway", "addr:city": "Fort Worth", "addr:state": "TX", "addr:postcode": "76177", "addr:country": "US", "name": "AutoNation Collision Center Alliance", "phone": "(817) 618-0627", "website": "https://www.autonation.com/dealers/collision-center-alliance-tx", "opening_hours": "Mo-Fr 08:00-18:00; Sa 09:00-13:00", "brand": "Auto Nation", "brand:wikidata": "Q784804"}, "geometry": {"type": "Point", "coordinates": [-97.31174, 32.93724]}},
{"type": "Feature", "id": "YHc-4kjCKJ1s1uHppzAykmmDtj0=", "properties": {"ref": "2382", "sells": "BMW, MINI", "@spider": "auto_nation", "addr:full": "6200 and 6250 Lemmon Avenue", "addr:city": "Dallas", "addr:state": "TX", "addr:postcode": "75209", "addr:country": "US", "name": "BMW of Dallas / MINI of Dallas", "phone": "(972) 763-5528", "website": "https://www.autonation.com/dealers/bmw-mini-dallas", "opening_hours": "Mo-Fr 08:30-20:00; Sa 08:30-18:00", "brand": "Auto Nation", "brand:wikidata": "Q784804"}, "geometry": {"type": "Point", "coordinates": [-96.82931, 32.83448]}},
{"type": "Feature", "id": "b1CY_Qo-oXrjM5IwnskrDLSvXYc=", "properties": {"ref": "2084", "sells": "All", "@spider": "auto_nation", "addr:full": "4300 Lindbergh Drive", "addr:city": "Addison", "addr:state": "TX", "addr:postcode": "75001", "addr:country": "US", "name": "AutoNation Collision Center Addison", "phone": "(682) 214-2011", "website": "https://www.autonation.com/dealers/collision-center-addison-tx", "opening_hours": "Mo-Fr 08:00-18:00; Sa 09:00-13:00", "brand": "Auto Nation", "brand:wikidata": "Q784804"}, "geometry": {"type": "Point", "coordinates": [-96.83394, 32.95757]}},
{"type": "Feature", "id": "MDtAxzwqmV7_jwhjtztejOTwBa4=", "properties": {"ref": "2381", "sells": "Honda", "@spider": "auto_nation", "addr:full": "601 Waters Ridge", "addr:city": "Lewisville", "addr:state": "TX", "addr:postcode": "75057", "addr:country": "US", "name": "AutoNation Honda Lewisville", "phone": "(972) 763-5524", "website": "https://www.autonation.com/dealers/honda-lewisville-tx", "opening_hours": "Mo-Fr 09:00-20:00; Sa 09:00-21:00", "brand": "Auto Nation", "brand:wikidata": "Q784804"}, "geometry": {"type": "Point", "coordinates": [-96.97476, 33.01217]}},
{"type": "Feature", "id": "UzS4t0Aca5IVn8JrdCBQN8zWj-U=", "properties": {"ref": "2116", "sells": "Audi", "@spider": "auto_nation", "addr:full": "5930 W. Plano Parkway", "addr:city": "Plano", "addr:state": "TX", "addr:postcode": "75093", "addr:country": "US", "name": "Audi Plano", "phone": "(972) 249-0905", "website": "https://www.autonation.com/dealers/audi-plano", "opening_hours": "Mo-Fr 09:00-20:00; Sa 09:00-18:00", "brand": "Auto Nation", "brand:wikidata": "Q784804"}, "geometry": {"type": "Point", "coordinates": [-96.82745, 33.01538]}},
{"type": "Feature", "id": "MWer_fIUorZ4BrY-sPjDly5cEls=", "properties": {"ref": "2164", "sells": "Porsche", "@spider": "auto_nation", "addr:full": "5924 W. Plano Parkway", "addr:city": "Plano", "addr:state": "TX", "addr:postcode": "75093", "addr:country": "US", "name": "Porsche Plano", "phone": "(972) 249-0910", "website": "https://www.autonation.com/dealers/porsche-plano-tx", "opening_hours": "Mo-Fr 08:30-20:00; Sa 09:00-18:00", "brand": "Auto Nation", "brand:wikidata": "Q784804"}, "geometry": {"type": "Point", "coordinates": [-96.82606, 33.01552]}},
{"type": "Feature", "id": "Y3usuwJenMjwPWSVCLh8KEK7QAQ=", "properties": {"ref": "2427", "sells": "", "@spider": "auto_nation", "addr:full": "4455 Tradition Trail", "addr:city": "Plano", "addr:state": "TX", "addr:postcode": "75093", "addr:country": "US", "name": "AutoNation Collision Center Plano", "phone": "(972) 465-9587", "website": "https://www.autonation.com/dealers/collision-center-plano-tx", "opening_hours": "Mo-Fr 08:00-18:00; Sa 09:00-13:00", "brand": "Auto Nation", "brand:wikidata": "Q784804"}, "geometry": {"type": "Point", "coordinates": [-96.78328, 33.01315]}},
{"type": "Feature", "id": "t5NYky9vWtU3NPEq7_LfOOWuQyQ=", "properties": {"ref": "2373", "sells": "Ford", "@spider": "auto_nation", "addr:full": "6850 Hwy 121", "addr:city": "Frisco", "addr:state": "TX", "addr:postcode": "75034", "addr:country": "US", "name": "AutoNation Ford Frisco", "phone": "(972) 763-5523", "website": "https://www.autonation.com/dealers/ford-frisco-tx", "opening_hours": "Mo-Fr 08:30-21:00; Sa 08:30-20:00", "brand": "Auto Nation", "brand:wikidata": "Q784804"}, "geometry": {"type": "Point", "coordinates": [-96.826972, 33.091484]}},
{"type": "Feature", "id": "Jkyvn2xjC-TBANVL5Fq-ozBArJY=", "properties": {"ref": "2910", "sells": "", "@spider": "auto_nation", "addr:full": "4801 S Hardin Blvd", "addr:city": "McKinney", "addr:state": "TX", "addr:postcode": "75070", "addr:country": "US", "name": "Porsche McKinney Service Center", "phone": "469-815-6560", "website": "https://www.autonation.com/dealers/porsche-mckinney-tx-service-center", "opening_hours": "Mo-Fr 08:00-18:00; Sa 08:00-17:00", "brand": "Auto Nation", "brand:wikidata": "Q784804"}, "geometry": {"type": "Point", "coordinates": [-96.661775, 33.15313]}},
{"type": "Feature", "id": "_RAYAzK2gpdL1x1IDkLlB-2E4Sk=", "properties": {"ref": "2066", "sells": "Chevrolet", "@spider": "auto_nation", "addr:full": "2200 Interstate 40", "addr:city": "Amarillo", "addr:state": "TX", "addr:postcode": "79103", "addr:country": "US", "name": "AutoNation Chevrolet Amarillo", "phone": "(806) 318-0044", "website": "https://www.autonation.com/dealers/chevrolet-amarillo-tx", "opening_hours": "Mo-Fr 08:00-20:00; Sa 09:00-20:00", "brand": "Auto Nation", "brand:wikidata": "Q784804"}, "geometry": {"type": "Point", "coordinates": [-101.81414, 35.19181]}},
{"type": "Feature", "id": "vKSOL91qlo_6X6KxS9JfuZyuAqY=", "properties": {"ref": "2068", "sells": "Cadillac, Chevrolet", "@spider": "auto_nation", "addr:full": "7300 I-40 West", "addr:city": "Amarillo", "addr:state": "TX", "addr:postcode": "79106", "addr:country": "US", "name": "AutoNation Chevrolet Cadillac West Amarillo", "phone": "(806) 318-0057", "website": "https://www.autonation.com/dealers/chevrolet-cadillac-west-amarillo-tx", "opening_hours": "Mo-Fr 08:00-20:00; Sa 09:00-20:00", "brand": "Auto Nation", "brand:wikidata": "Q784804"}, "geometry": {"type": "Point", "coordinates": [-101.921926, 35.187747]}},
{"type": "Feature", "id": "yyIsaUQtXqtmTvVDCjwz62rVFxI=", "properties": {"ref": "2471", "sells": "GMC", "@spider": "auto_nation", "addr:full": "2621 Mendenhall Road South", "addr:city": "Memphis", "addr:state": "TN", "addr:postcode": "38115", "addr:country": "US", "name": "AutoNation GMC Mendenhall", "phone": "(901) 209-1262", "website": "https://www.autonation.com/dealers/gmc-mendenhall-tn", "opening_hours": "Mo-Fr 09:00-19:00; Sa 09:00-18:00; Su 13:00-17:00", "brand": "Auto Nation", "brand:wikidata": "Q784804"}, "geometry": {"type": "Point", "coordinates": [-89.886592, 35.075102]}},
{"type": "Feature", "id": "hZu8zsOV35QB87oa6aSc13JLm9s=", "properties": {"ref": "2472", "sells": "Ford", "@spider": "auto_nation", "addr:full": "2515 Mt. Moriah Road", "addr:city": "Memphis", "addr:state": "TN", "addr:postcode": "38115", "addr:country": "US", "name": "AutoNation Ford Memphis", "phone": "(901) 209-1259", "website": "https://www.autonation.com/dealers/ford-memphis-tn", "opening_hours": "Mo-Fr 09:00-20:00; Sa 09:00-19:00; Su 13:00-17:00", "brand": "Auto Nation", "brand:wikidata": "Q784804"}, "geometry": {"type": "Point", "coordinates": [-89.88851, 35.07862]}},
{"type": "Feature", "id": "9EsaPcZ0_SgGIR4xrngISE3K9OU=", "properties": {"ref": "2649", "sells": "", "@spider": "auto_nation", "addr:full": "2525 Mt. Moriah", "addr:city": "Memphis", "addr:state": "TN", "addr:postcode": "38115", "addr:country": "US", "name": "AutoNation Collision Center Memphis", "phone": "(901) 592-1225", "website": "https://www.autonation.com/dealers/collision-center-memphis-tn", "opening_hours": "Mo-Fr 08:00-17:30; Sa 09:00-12:00", "brand": "Auto Nation", "brand:wikidata": "Q784804"}, "geometry": {"type": "Point", "coordinates": [-89.88779, 35.07872]}},
{"type": "Feature", "id": "U_ow9jLtVv4rqQ_MuSsUT4CCQp0=", "properties": {"ref": "2222", "sells": "Nissan", "@spider": "auto_nation", "addr:full": "4140 Hacks Cross Road", "addr:city": "Memphis", "addr:state": "TN", "addr:postcode": "38125", "addr:country": "US", "name": "AutoNation Nissan Memphis", "phone": "(901) 209-1318", "website": "https://www.autonation.com/dealers/nissan-memphis-tn", "opening_hours": "Mo-Fr 08:30-20:00; Sa 08:30-19:00; Su 13:00-17:00", "brand": "Auto Nation", "brand:wikidata": "Q784804"}, "geometry": {"type": "Point", "coordinates": [-89.794531, 35.035389]}},
{"type": "Feature", "id": "rZMU1NIJD11-UtfxkezXjRuKTr4=", "properties": {"ref": "2467", "sells": "Honda", "@spider": "auto_nation", "addr:full": "4030 Hacks Cross Road", "addr:city": "Memphis", "addr:state": "TN", "addr:postcode": "38125", "addr:country": "US", "name": "AutoNation Honda 385", "phone": "(901) 209-1308", "website": "https://www.autonation.com/dealers/honda-385", "opening_hours": "Mo-Th 08:30-20:00; Fr-Sa 08:30-19:00; Su 13:00-18:00", "brand": "Auto Nation", "brand:wikidata": "Q784804"}, "geometry": {"type": "Point", "coordinates": [-89.79575, 35.0395]}},
{"type": "Feature", "id": "dnuol_t4xl9LRook587QhA48yas=", "properties": {"ref": "2468", "sells": "Honda", "@spider": "auto_nation", "addr:full": "1990 Covington Pike", "addr:city": "Memphis", "addr:state": "TN", "addr:postcode": "38128", "addr:country": "US", "name": "AutoNation Honda Covington Pike", "phone": "(901) 209-1283", "website": "https://www.autonation.com/dealers/honda-covington-pike", "opening_hours": "Mo-Th 08:30-20:30; Fr-Sa 08:30-19:00; Su 13:00-17:00", "brand": "Auto Nation", "brand:wikidata": "Q784804"}, "geometry": {"type": "Point", "coordinates": [-89.89542, 35.17952]}},
{"type": "Feature", "id": "ekGYmTlH2cGqfswgPX92zhSF4HQ=", "properties": {"ref": "2477", "sells": "Ford", "@spider": "auto_nation", "addr:full": "901 E. I-65 Service Rd. South", "addr:city": "Mobile", "addr:state": "AL", "addr:postcode": "36606", "addr:country": "US", "name": "AutoNation Ford Mobile", "phone": "(251) 202-2016", "website": "https://www.autonation.com/dealers/ford-mobile-al", "opening_hours": "Mo-Fr 09:00-20:00; Sa 08:30-19:00", "brand": "Auto Nation", "brand:wikidata": "Q784804"}, "geometry": {"type": "Point", "coordinates": [-88.125763, 30.672995]}},
{"type": "Feature", "id": "WZgKfYmbVBs6vpwmwDmF6-6Zkkc=", "properties": {"ref": "2478", "sells": "Honda", "@spider": "auto_nation", "addr:full": "1175 East I-65 Service Road South", "addr:city": "Mobile", "addr:state": "AL", "addr:postcode": "36606", "addr:country": "US", "name": "AutoNation Honda at Bel Air Mall", "phone": "(251) 202-2023", "website": "https://www.autonation.com/dealers/honda-bel-air-mall", "opening_hours": "Mo-Fr 09:00-20:00; Sa 08:30-19:00", "brand": "Auto Nation", "brand:wikidata": "Q784804"}, "geometry": {"type": "Point", "coordinates": [-88.125483, 30.665488]}},
{"type": "Feature", "id": "CxGJ6tPmDIZfvwMRmeXWTl11XWU=", "properties": {"ref": "2161", "sells": "Chrysler, Dodge, Jeep, Ram", "@spider": "auto_nation", "addr:full": "3118 Government Blvd.", "addr:city": "Mobile", "addr:state": "AL", "addr:postcode": "36606", "addr:country": "US", "name": "AutoNation Chrysler Dodge Jeep Ram Mobile", "phone": "(251) 202-2253", "website": "https://www.autonation.com/dealers/chrysler-dodge-jeep-ram-mobile-al", "opening_hours": "Mo-Fr 08:30-20:00; Sa 08:30-19:00", "brand": "Auto Nation", "brand:wikidata": "Q784804"}, "geometry": {"type": "Point", "coordinates": [-88.119342, 30.655258]}},
{"type": "Feature", "id": "p15IlLgJZgMQaYf-EVv_tXQahag=", "properties": {"ref": "2363", "sells": "Ford, Lincoln", "@spider": "auto_nation", "addr:full": "7925 Stage Road", "addr:city": "Memphis", "addr:state": "TN", "addr:postcode": "38133", "addr:country": "US", "name": "AutoNation Ford Lincoln Wolfchase", "phone": "(901) 209-1257", "website": "https://www.autonation.com/dealers/ford-wolfchase", "opening_hours": "Mo-Fr 08:00-20:00; Sa 08:00-19:00; Su 13:00-17:00", "brand": "Auto Nation", "brand:wikidata": "Q784804"}, "geometry": {"type": "Point", "coordinates": [-89.798507, 35.204053]}},
{"type": "Feature", "id": "Pxdx3-Cf36F5rfucHBPwVYLHsOg=", "properties": {"ref": "2986", "sells": "All", "@spider": "auto_nation", "addr:full": "5040 N Service Road", "addr:city": "St Peters", "addr:state": "MO", "addr:postcode": "63376", "addr:country": "US", "name": "AutoNation USA St. Louis", "phone": "314-530-8286", "website": "https://www.autonation.com/dealers/usa-st-louis-mo-63376", "opening_hours": "Mo-Sa 09:00-20:00; Su 00:00-00:00", "brand": "Auto Nation", "brand:wikidata": "Q784804"}, "geometry": {"type": "Point", "coordinates": [-90.61, 38.799275]}},
{"type": "Feature", "id": "JoKiKI6F-FDeQjj4eaKTvikF0nE=", "properties": {"ref": "2532", "sells": "Ford", "@spider": "auto_nation", "addr:full": "730 West 15th Street", "addr:city": "Panama City", "addr:state": "FL", "addr:postcode": "32401", "addr:country": "US", "name": "AutoNation Ford Panama City", "phone": "(850) 253-7000", "website": "https://www.autonation.com/dealers/ford-panama-city-fl", "opening_hours": "Mo-Fr 08:30-19:00; Sa 08:30-18:00", "brand": "Auto Nation", "brand:wikidata": "Q784804"}, "geometry": {"type": "Point", "coordinates": [-85.671095, 30.176118]}},
{"type": "Feature", "id": "KDuV4uMvG8IeKoriOBOS9dBPHA4=", "properties": {"ref": "2106", "sells": "Buick, GMC", "@spider": "auto_nation", "addr:full": "8101 Parkway Drive", "addr:city": "Lone Tree", "addr:state": "CO", "addr:postcode": "80124", "addr:country": "US", "name": "AutoNation Buick GMC Park Meadows", "phone": "(303) 578-6093", "website": "https://www.autonation.com/dealers/buick-gmc-park-meadows", "opening_hours": "Mo-Sa 09:00-21:00", "brand": "Auto Nation", "brand:wikidata": "Q784804"}, "geometry": {"type": "Point", "coordinates": [-104.89551, 39.56527]}},
{"type": "Feature", "id": "hHnzZo1IZxeOcaFOPXG_4UEF8Cc=", "properties": {"ref": "2101", "sells": "Dodge, Ram", "@spider": "auto_nation", "addr:full": "10743 East Arapahoe Road", "addr:city": "Centennial", "addr:state": "CO", "addr:postcode": "80112", "addr:country": "US", "name": "AutoNation Dodge Ram Arapahoe", "phone": "(303) 578-6107", "website": "https://www.autonation.com/dealers/dodge-ram-arapahoe-co", "opening_hours": "Mo-Sa 09:00-21:00", "brand": "Auto Nation", "brand:wikidata": "Q784804"}, "geometry": {"type": "Point", "coordinates": [-104.86392, 39.59593]}},
{"type": "Feature", "id": "Wi8qVmFuylclgFGuxEKLNZQzbU8=", "properties": {"ref": "2219", "sells": "Scion, Toyota", "@spider": "auto_nation", "addr:full": "10531 East Arapahoe Road", "addr:city": "Centennial", "addr:state": "CO", "addr:postcode": "80112", "addr:country": "US", "name": "AutoNation Toyota Arapahoe", "phone": "(303) 578-6111", "website": "https://www.autonation.com/dealers/toyota-arapahoe-co", "opening_hours": "Mo-Sa 09:00-21:00", "brand": "Auto Nation", "brand:wikidata": "Q784804"}, "geometry": {"type": "Point", "coordinates": [-104.865631, 39.596366]}},
{"type": "Feature", "id": "7Q4sRqLaePlhgnO1uWLL3Kq30t8=", "properties": {"ref": "2169", "sells": "Chrysler, Dodge, Jeep, Ram", "@spider": "auto_nation", "addr:full": "9980 East Arapahoe Road", "addr:city": "Englewood", "addr:state": "CO", "addr:postcode": "80112", "addr:country": "US", "name": "AutoNation Chrysler Jeep Arapahoe", "phone": "(303) 900-0794", "website": "https://www.autonation.com/dealers/chrysler-jeep-arapahoe-co", "opening_hours": "Mo-Sa 09:00-21:00", "brand": "Auto Nation", "brand:wikidata": "Q784804"}, "geometry": {"type": "Point", "coordinates": [-104.873421, 39.594013]}},
{"type": "Feature", "id": "77i0dtk8fPvWqUlC24ZaTwkNmBI=", "properties": {"ref": "2108", "sells": "Subaru", "@spider": "auto_nation", "addr:full": "9955 E Arapahoe Road", "addr:city": "Centennial", "addr:state": "CO", "addr:postcode": "80112", "addr:country": "US", "name": "AutoNation Subaru Arapahoe", "phone": "(303) 578-6119", "website": "https://www.autonation.com/dealers/subaru-arapahoe-co", "opening_hours": "Mo-Sa 09:00-21:00", "brand": "Auto Nation", "brand:wikidata": "Q784804"}, "geometry": {"type": "Point", "coordinates": [-104.873154, 39.596104]}},
{"type": "Feature", "id": "6d1smCFGGdLYHg3B7Dn7iInPwjU=", "properties": {"ref": "2233", "sells": "Ford", "@spider": "auto_nation", "addr:full": "8252 South Broadway", "addr:city": "Littleton", "addr:state": "CO", "addr:postcode": "80122", "addr:country": "US", "name": "AutoNation Ford Littleton", "phone": "(303) 578-6106", "website": "https://www.autonation.com/dealers/ford-littleton-co", "opening_hours": "Mo-Sa 09:00-21:00", "brand": "Auto Nation", "brand:wikidata": "Q784804"}, "geometry": {"type": "Point", "coordinates": [-104.98847, 39.566923]}},
{"type": "Feature", "id": "4EjHkA7gBCIlu-hlpWNwN9TrfoQ=", "properties": {"ref": "2973", "sells": "Acura", "@spider": "auto_nation", "addr:full": "5501 South Broadway", "addr:city": "Littleton", "addr:state": "CO", "addr:postcode": "80121", "addr:country": "US", "name": "AutoNation USA Denver Broadway", "phone": "(720) 823-3325", "website": "https://www.autonation.com/dealers/usa-denver-broadway-co-80121", "opening_hours": "Mo-Sa 09:00-21:00", "brand": "Auto Nation", "brand:wikidata": "Q784804"}, "geometry": {"type": "Point", "coordinates": [-104.989758, 39.616613]}},
{"type": "Feature", "id": "E-ENfZTmW9G-orng2kKAeq8-zhc=", "properties": {"ref": "2100", "sells": "Chrysler, Jeep", "@spider": "auto_nation", "addr:full": "5445 South Broadway", "addr:city": "Littleton", "addr:state": "CO", "addr:postcode": "80121", "addr:country": "US", "name": "AutoNation Chrysler Jeep Broadway", "phone": "(303) 578-6103", "website": "https://www.autonation.com/dealers/chrysler-jeep-broadway-co", "opening_hours": "Mo-Sa 09:00-21:00", "brand": "Auto Nation", "brand:wikidata": "Q784804"}, "geometry": {"type": "Point", "coordinates": [-104.98896, 39.618167]}},
{"type": "Feature", "id": "PKu647-y6Oh2Dqg95TaK0EbG8kY=", "properties": {"ref": "2400", "sells": "Chrysler, Dodge, Jeep", "@spider": "auto_nation", "addr:full": "7980 West Tufts Avenue", "addr:city": "Littleton", "addr:state": "CO", "addr:postcode": "80123", "addr:country": "US", "name": "AutoNation Chrysler Dodge Jeep Ram Southwest", "phone": "(303) 578-6099", "website": "https://www.autonation.com/dealers/chrysler-dodge-jeep-ram-southwest", "opening_hours": "Mo-Sa 09:00-21:00", "brand": "Auto Nation", "brand:wikidata": "Q784804"}, "geometry": {"type": "Point", "coordinates": [-105.086159, 39.632198]}},
{"type": "Feature", "id": "uJhPdUef6XT0uDx3woZ2sxcHvws=", "properties": {"ref": "2278", "sells": "Chrysler, Dodge, Jeep, Ram", "@spider": "auto_nation", "addr:full": "2201 Victory Drive", "addr:city": "Columbus", "addr:state": "GA", "addr:postcode": "31901", "addr:country": "US", "name": "AutoNation Chrysler Dodge Jeep Ram South Columbus", "phone": "(706) 522-2089", "website": "https://www.autonation.com/dealers/chrysler-dodge-jeep-ram-south-columbus", "opening_hours": "Mo-Sa 09:00-20:00; Su 12:00-18:00", "brand": "Auto Nation", "brand:wikidata": "Q784804"}, "geometry": {"type": "Point", "coordinates": [-84.96651, 32.4423]}},
{"type": "Feature", "id": "u1YWkzja19d7AwM8niBj90PdY_8=", "properties": {"ref": "2403", "sells": "All", "@spider": "auto_nation", "addr:full": "7420 North Washington", "addr:city": "Denver", "addr:state": "CO", "addr:postcode": "80229", "addr:country": "US", "name": "AutoNation Collision Center Denver", "phone": "(303) 578-6105", "website": "https://www.autonation.com/dealers/collision-center-denver-co", "opening_hours": "Mo-Fr 08:00-18:00; Sa 09:00-13:00", "brand": "Auto Nation", "brand:wikidata": "Q784804"}, "geometry": {"type": "Point", "coordinates": [-104.97706, 39.83089]}},
{"type": "Feature", "id": "DNjSoOpUbHih5bOWh-BCewASQ5Q=", "properties": {"ref": "2105", "sells": "Buick, GMC", "@spider": "auto_nation", "addr:full": "16400 West Colfax Avenue", "addr:city": "Golden", "addr:state": "CO", "addr:postcode": "80401", "addr:country": "US", "name": "AutoNation Buick GMC West", "phone": "(303) 578-6095", "website": "https://www.autonation.com/dealers/buick-gmc-west", "opening_hours": "Mo-Sa 09:00-21:00", "brand": "Auto Nation", "brand:wikidata": "Q784804"}, "geometry": {"type": "Point", "coordinates": [-105.18515, 39.72619]}},
{"type": "Feature", "id": "zNitL2ZSBszIHMD3G_hkV1ZpseI=", "properties": {"ref": "2398", "sells": "Chevrolet", "@spider": "auto_nation", "addr:full": "7320 North Broadway", "addr:city": "Denver", "addr:state": "CO", "addr:postcode": "80221", "addr:country": "US", "name": "AutoNation Chevrolet North", "phone": "(303) 578-6096", "website": "https://www.autonation.com/dealers/chevrolet-north", "opening_hours": "Mo-Sa 09:00-21:00", "brand": "Auto Nation", "brand:wikidata": "Q784804"}, "geometry": {"type": "Point", "coordinates": [-104.98423, 39.830122]}},
{"type": "Feature", "id": "SJqfE4OHEdw29ObvDnq3v8opX88=", "properties": {"ref": "2102", "sells": "Chrysler, Jeep", "@spider": "auto_nation", "addr:full": "16300 West Colfax Avenue", "addr:city": "Golden", "addr:state": "CO", "addr:postcode": "80401", "addr:country": "US", "name": "AutoNation Chrysler Jeep West", "phone": "(303) 578-6104", "website": "https://www.autonation.com/dealers/chrysler-jeep-west-co", "opening_hours": "Mo-Sa 09:00-21:00", "brand": "Auto Nation", "brand:wikidata": "Q784804"}, "geometry": {"type": "Point", "coordinates": [-105.18372, 39.72723]}},
{"type": "Feature", "id": "iGoPDzONbICK9lg60OoVbxqAxIU=", "properties": {"ref": "2107", "sells": "Subaru", "@spider": "auto_nation", "addr:full": "16351 West Colfax Avenue", "addr:city": "Golden", "addr:state": "CO", "addr:postcode": "80401", "addr:country": "US", "name": "AutoNation Subaru West", "phone": "(303) 578-6120", "website": "https://www.autonation.com/dealers/subaru-west-co", "opening_hours": "Mo-Sa 09:00-21:00", "brand": "Auto Nation", "brand:wikidata": "Q784804"}, "geometry": {"type": "Point", "coordinates": [-105.183624, 39.727848]}},
{"type": "Feature", "id": "QBbKUIMbMlO6hnWX-URoWXlKT5g=", "properties": {"ref": "2249", "sells": "Chrysler, Dodge, FIAT, Jeep, Ram", "@spider": "auto_nation", "addr:full": "3000 North Lake Parkway", "addr:city": "Columbus", "addr:state": "GA", "addr:postcode": "31909", "addr:country": "US", "name": "AutoNation Chrysler Dodge Jeep Ram and FIAT North Columbus", "phone": "(706) 522-2116", "website": "https://www.autonation.com/dealers/chrysler-dodge-jeep-ram-fiat-north-columbus", "opening_hours": "Mo-Sa 09:00-20:00; Su 12:00-18:00", "brand": "Auto Nation", "brand:wikidata": "Q784804"}, "geometry": {"type": "Point", "coordinates": [-84.94108, 32.55198]}},
{"type": "Feature", "id": "CbSIj7qbCXOiTo61yQ1gFDizGMA=", "properties": {"ref": "2255", "sells": "Hyundai", "@spider": "auto_nation", "addr:full": "3000 North Lake Parkway", "addr:city": "Columbus", "addr:state": "GA", "addr:postcode": "31909", "addr:country": "US", "name": "AutoNation Hyundai Columbus", "phone": "(706) 522-2083", "website": "https://www.autonation.com/dealers/hyundai-columbus-ga", "opening_hours": "Mo-Sa 09:00-20:00; Su 12:00-17:00", "brand": "Auto Nation", "brand:wikidata": "Q784804"}, "geometry": {"type": "Point", "coordinates": [-84.940672, 32.551948]}},
{"type": "Feature", "id": "yZ49C8IBrxkcyH5uPrHbi4X8Zsk=", "properties": {"ref": "2293", "sells": "Volkswagen", "@spider": "auto_nation", "addr:full": "3000 North Lake Parkway", "addr:city": "Columbus", "addr:state": "GA", "addr:postcode": "31909", "addr:country": "US", "name": "AutoNation Volkswagen Columbus", "phone": "(706) 522-2148", "website": "https://www.autonation.com/dealers/volkswagen-columbus-ga", "opening_hours": "Mo-Sa 09:00-20:00; Su 12:00-17:00", "brand": "Auto Nation", "brand:wikidata": "Q784804"}, "geometry": {"type": "Point", "coordinates": [-84.940672, 32.551948]}},
{"type": "Feature", "id": "_9JbUq_F3SXp8NcU96h324xzDro=", "properties": {"ref": "2289", "sells": "Honda", "@spider": "auto_nation", "addr:full": "3000 North Lake Parkway", "addr:city": "Columbus", "addr:state": "GA", "addr:postcode": "31909", "addr:country": "US", "name": "AutoNation Honda Columbus", "phone": "(706) 522-2090", "website": "https://www.autonation.com/dealers/honda-columbus-ga", "opening_hours": "Mo-Sa 09:00-20:00; Su 12:00-17:00", "brand": "Auto Nation", "brand:wikidata": "Q784804"}, "geometry": {"type": "Point", "coordinates": [-84.940596, 32.55198]}},
{"type": "Feature", "id": "wOUaFqk8qXFZ-AT9HRi9FyPczkM=", "properties": {"ref": "2457", "sells": "", "@spider": "auto_nation", "addr:full": "300 North Lake Parkway", "addr:city": "Columbus", "addr:state": "GA", "addr:postcode": "31909", "addr:country": "US", "name": "AutoNation Collision Center Columbus", "phone": "(706) 610-0805", "website": "https://www.autonation.com/dealers/collision-center-columbus-ga", "opening_hours": "Mo-Fr 08:00-18:00; Sa 09:00-12:00", "brand": "Auto Nation", "brand:wikidata": "Q784804"}, "geometry": {"type": "Point", "coordinates": [-84.94041, 32.55252]}},
{"type": "Feature", "id": "1gWWoEwb1opygNq_lKb6aLICo3E=", "properties": {"ref": "2972", "sells": "Acura", "@spider": "auto_nation", "addr:full": "759 W 104th Ave", "addr:city": "Northglenn", "addr:state": "CO", "addr:postcode": "80234", "addr:country": "US", "name": "AutoNation USA Denver 104", "phone": "(720) 823-0902", "website": "https://www.autonation.com/dealers/usa-denver-104-co-80234", "opening_hours": "Mo-Sa 09:00-21:00", "brand": "Auto Nation", "brand:wikidata": "Q784804"}, "geometry": {"type": "Point", "coordinates": [-104.996323, 39.885315]}},
{"type": "Feature", "id": "_TD093FbinHBX1gi6_-x0_grCNM=", "properties": {"ref": "2220", "sells": "Honda", "@spider": "auto_nation", "addr:full": "2999 West 104th Avenue", "addr:city": "Westminster", "addr:state": "CO", "addr:postcode": "80234", "addr:country": "US", "name": "AutoNation Honda 104", "phone": "(303) 578-6112", "website": "https://www.autonation.com/dealers/honda-104-co", "opening_hours": "Mo-Sa 09:00-21:00", "brand": "Auto Nation", "brand:wikidata": "Q784804"}, "geometry": {"type": "Point", "coordinates": [-105.024182, 39.886027]}},
{"type": "Feature", "id": "tYhMgcl5nQMMhmocyDbefEVrJDc=", "properties": {"ref": "2466", "sells": "Honda", "@spider": "auto_nation", "addr:full": "810 West Wetmore Road", "addr:city": "Tucson", "addr:state": "AZ", "addr:postcode": "85705", "addr:country": "US", "name": "AutoNation Honda Tucson Auto Mall", "phone": "(520) 549-2238", "website": "https://www.autonation.com/dealers/honda-tucson-az", "opening_hours": "Mo-Fr 09:00-20:00; Sa 09:00-18:00", "brand": "Auto Nation", "brand:wikidata": "Q784804"}, "geometry": {"type": "Point", "coordinates": [-110.98523, 32.28698]}},
{"type": "Feature", "id": "FDbAxRbXyoIRO9UyayridzRc1lE=", "properties": {"ref": "2464", "sells": "BMW", "@spider": "auto_nation", "addr:full": "855 W. Wetmore Road", "addr:city": "Tucson", "addr:state": "AZ", "addr:postcode": "85705", "addr:country": "US", "name": "BMW of Tucson", "phone": "(520) 549-2167", "website": "https://www.autonation.com/dealers/bmw-tucson", "opening_hours": "Mo-Fr 09:00-20:00; Sa 09:00-18:00", "brand": "Auto Nation", "brand:wikidata": "Q784804"}, "geometry": {"type": "Point", "coordinates": [-110.98612, 32.28573]}},
{"type": "Feature", "id": "0VSbHQv3wO2kJHqOUEaNOpSiK1k=", "properties": {"ref": "2489", "sells": "Honda", "@spider": "auto_nation", "addr:full": "1979 Thornton Road", "addr:city": "Lithia Springs", "addr:state": "GA", "addr:postcode": "30122", "addr:country": "US", "name": "AutoNation Honda Thornton Road", "phone": "(770) 674-6078", "website": "https://www.autonation.com/dealers/honda-thornton-road", "opening_hours": "Mo-Sa 09:00-21:00; Su 12:00-18:00", "brand": "Auto Nation", "brand:wikidata": "Q784804"}, "geometry": {"type": "Point", "coordinates": [-84.612043, 33.786085]}},
{"type": "Feature", "id": "5RiphzTS9YvmMPEMZ8CEgoxxSSE=", "properties": {"ref": "2224", "sells": "Scion, Toyota", "@spider": "auto_nation", "addr:full": "1000 Blairs Bridge Road", "addr:city": "Lithia Springs", "addr:state": "GA", "addr:postcode": "30122", "addr:country": "US", "name": "AutoNation Toyota Thornton Road", "phone": "(770) 674-6082", "website": "https://www.autonation.com/dealers/toyota-thornton-road-ga", "opening_hours": "Mo-Sa 09:00-21:00; Su 12:00-18:00", "brand": "Auto Nation", "brand:wikidata": "Q784804"}, "geometry": {"type": "Point", "coordinates": [-84.604634, 33.773031]}},
{"type": "Feature", "id": "jOo7y3Nd6Tys1muRNX39STe-_T8=", "properties": {"ref": "2325", "sells": "Ford", "@spider": "auto_nation", "addr:full": "4355 Jonesboro Road", "addr:city": "Union City", "addr:state": "GA", "addr:postcode": "30291", "addr:country": "US", "name": "AutoNation Ford Union City", "phone": "(770) 674-6075", "website": "https://www.autonation.com/dealers/ford-union-city-ga", "opening_hours": "Mo-Sa 09:00-20:00; Su 12:00-18:00", "brand": "Auto Nation", "brand:wikidata": "Q784804"}, "geometry": {"type": "Point", "coordinates": [-84.53125, 33.56812]}},
{"type": "Feature", "id": "mC2Vk659dYoKXOgxqqTsaJH6YHo=", "properties": {"ref": "2914", "sells": "All", "@spider": "auto_nation", "addr:full": "2275 Barrett Lakes Blvd", "addr:city": "Kennesaw", "addr:state": "GA", "addr:postcode": "30144", "addr:country": "US", "name": "AutoNation USA Kennesaw", "phone": "470-372-1092", "website": "https://www.autonation.com/dealers/usa-kennesaw-ga-30144", "opening_hours": "Mo-Sa 09:00-20:00; Su 11:00-17:00", "brand": "Auto Nation", "brand:wikidata": "Q784804"}, "geometry": {"type": "Point", "coordinates": [-84.578286, 34.010418]}},
{"type": "Feature", "id": "KSPt5rXnYtUmbGkPKij9L-QSwYY=", "properties": {"ref": "2651", "sells": "", "@spider": "auto_nation", "addr:full": "795 S. Cobb Dr.", "addr:city": "Marietta", "addr:state": "GA", "addr:postcode": "30060", "addr:country": "US", "name": "AutoNation Collision Center Marietta", "phone": "(770) 686-7961", "website": "https://www.autonation.com/dealers/collision-center-marietta-ga", "opening_hours": "Mo-Fr 08:00-18:00; Sa 08:00-12:00", "brand": "Auto Nation", "brand:wikidata": "Q784804"}, "geometry": {"type": "Point", "coordinates": [-84.54546, 33.93349]}},
{"type": "Feature", "id": "TkCzYlDgUKoOFIJ0rrHj26meCFE=", "properties": {"ref": "2168", "sells": "Mercedes-Benz", "@spider": "auto_nation", "addr:full": "810 Cobb Parkway South", "addr:city": "Marietta", "addr:state": "GA", "addr:postcode": "30060", "addr:country": "US", "name": "Mercedes-Benz of Marietta", "phone": "(770) 783-5171", "website": "https://www.autonation.com/dealers/mercedes-benz-marietta-ga", "opening_hours": "Mo-Fr 09:00-19:00; Sa 09:00-18:00", "brand": "Auto Nation", "brand:wikidata": "Q784804"}, "geometry": {"type": "Point", "coordinates": [-84.51167, 33.93262]}},
{"type": "Feature", "id": "G2m8EhIQ4phA4vjlkVGOum8e7co=", "properties": {"ref": "2486", "sells": "Nissan", "@spider": "auto_nation", "addr:full": "925 Cobb Parkway, SE", "addr:city": "Marietta", "addr:state": "GA", "addr:postcode": "30060", "addr:country": "US", "name": "AutoNation Nissan Marietta", "phone": "(770) 674-6081", "website": "https://www.autonation.com/dealers/nissan-marietta-ga", "opening_hours": "Mo-Sa 09:00-20:00; Su 12:00-18:00", "brand": "Auto Nation", "brand:wikidata": "Q784804"}, "geometry": {"type": "Point", "coordinates": [-84.508394, 33.929989]}},
{"type": "Feature", "id": "FXX_JMSuhFRulew-f6FfU7ghkBw=", "properties": {"ref": "2550", "sells": "Ford", "@spider": "auto_nation", "addr:full": "869 Cobb Parkway, SE", "addr:city": "Marietta", "addr:state": "GA", "addr:postcode": "30060", "addr:country": "US", "name": "AutoNation Ford Marietta", "phone": "(770) 674-6077", "website": "https://www.autonation.com/dealers/ford-marietta-ga", "opening_hours": "Mo-Sa 09:00-20:00; Su 12:00-18:00", "brand": "Auto Nation", "brand:wikidata": "Q784804"}, "geometry": {"type": "Point", "coordinates": [-84.508697, 33.93107]}},
{"type": "Feature", "id": "ShrlFDjlzqyDOTySTd_uQ4yRAqk=", "properties": {"ref": "2603", "sells": "Chevrolet", "@spider": "auto_nation", "addr:full": "6330 East Superstition Springs Boulevard", "addr:city": "Mesa", "addr:state": "AZ", "addr:postcode": "85206", "addr:country": "US", "name": "AutoNation Chevrolet Mesa", "phone": "(480) 630-2824", "website": "https://www.autonation.com/dealers/chevrolet-mesa", "opening_hours": "Mo-Sa 09:00-21:00; Su 10:00-18:00", "brand": "Auto Nation", "brand:wikidata": "Q784804"}, "geometry": {"type": "Point", "coordinates": [-111.69563, 33.389842]}},
{"type": "Feature", "id": "CPMnzmUCT8ytWduA8MHO-XYWYjE=", "properties": {"ref": "2600", "sells": "Chevrolet", "@spider": "auto_nation", "addr:full": "3215 South Auto Way", "addr:city": "Gilbert", "addr:state": "AZ", "addr:postcode": "85297", "addr:country": "US", "name": "AutoNation Chevrolet Gilbert", "phone": "(480) 630-2821", "website": "https://www.autonation.com/dealers/chevrolet-gilbert-az", "opening_hours": "Mo-Sa 09:00-21:00; Su 10:00-18:00", "brand": "Auto Nation", "brand:wikidata": "Q784804"}, "geometry": {"type": "Point", "coordinates": [-111.757186, 33.294276]}},
{"type": "Feature", "id": "4rhZQLcic9SPv9PrVeNF1RjxbBk=", "properties": {"ref": "2769", "sells": "Acura, Alfa Romeo, Audi, Bentley, BMW, Buick, Cadillac, Chevrolet, Chrysler, Dodge, FIAT, Ford, GMC, Honda, Hyundai, Infiniti, Jaguar, Jeep, Land Rover, Lexus, Lincoln, Maserati, Mazda, Mercedes-Benz, MINI, Mitsubishi, Nissan, Porsche, Ram, Scion, Smart, Subaru, Toyota, Volkswagen", "@spider": "auto_nation", "addr:full": "4134 E. Valley Dr.", "addr:city": "Mesa", "addr:state": "AZ", "addr:postcode": "85206", "addr:country": "US", "name": "AutoNation Collision Center Mesa", "phone": "(480) 658-0386", "website": "https://www.autonation.com/dealers/collision-center-mesa-az", "opening_hours": "Mo-Fr 08:00-17:30; Sa 09:00-13:00", "brand": "Auto Nation", "brand:wikidata": "Q784804"}, "geometry": {"type": "Point", "coordinates": [-111.74399, 33.37927]}},
{"type": "Feature", "id": "GH1zZ3n_aZW0VU_sM5w-dTuOcHg=", "properties": {"ref": "2602", "sells": "Nissan", "@spider": "auto_nation", "addr:full": "1350 South Gilbert Road", "addr:city": "Chandler", "addr:state": "AZ", "addr:postcode": "85286", "addr:country": "US", "name": "AutoNation Nissan Chandler", "phone": "(480) 630-2828", "website": "https://www.autonation.com/dealers/nissan-chandler-az", "opening_hours": "Mo-Sa 09:00-21:00; Su 10:00-18:00", "brand": "Auto Nation", "brand:wikidata": "Q784804"}, "geometry": {"type": "Point", "coordinates": [-111.791483, 33.286537]}},
{"type": "Feature", "id": "dCywk-2cvpbRpMD5uvYM8lmCcEo=", "properties": {"ref": "2604", "sells": "All", "@spider": "auto_nation", "addr:full": "1350 S. Gilbert Rd", "addr:city": "Chandler", "addr:state": "AZ", "addr:postcode": "85286", "addr:country": "US", "name": "AutoNation Collision Center Chandler", "phone": "(480) 630-2823", "website": "https://www.autonation.com/dealers/collision-center-chandler-az", "opening_hours": "Mo-Fr 08:00-18:00; Sa 08:30-12:30", "brand": "Auto Nation", "brand:wikidata": "Q784804"}, "geometry": {"type": "Point", "coordinates": [-111.79195, 33.28667]}},
{"type": "Feature", "id": "ghOns8H7XkWQapPpx0pNRVGAxko=", "properties": {"ref": "2157", "sells": "Honda", "@spider": "auto_nation", "addr:full": "1150 S. Gilbert Rd", "addr:city": "Chandler", "addr:state": "AZ", "addr:postcode": "85286", "addr:country": "US", "name": "AutoNation Honda Chandler", "phone": "(480) 505-5186", "website": "https://www.autonation.com/dealers/honda-chandler-az", "opening_hours": "Mo-Sa 09:00-21:00; Su 10:00-18:00", "brand": "Auto Nation", "brand:wikidata": "Q784804"}, "geometry": {"type": "Point", "coordinates": [-111.79325, 33.28978]}},
{"type": "Feature", "id": "1rTokvEGjgQOHchpUS7d3F4xMBY=", "properties": {"ref": "2323", "sells": "Volkswagen", "@spider": "auto_nation", "addr:full": "3711 Buford Drive", "addr:city": "Buford", "addr:state": "GA", "addr:postcode": "30519", "addr:country": "US", "name": "AutoNation Volkswagen Mall of Georgia", "phone": "(678) 807-4171", "website": "https://www.autonation.com/dealers/volkswagen-mall-of-georgia", "opening_hours": "Mo-Sa 09:00-21:00; Su 12:00-18:00", "brand": "Auto Nation", "brand:wikidata": "Q784804"}, "geometry": {"type": "Point", "coordinates": [-83.98639, 34.08294]}},
{"type": "Feature", "id": "iu6kcowZTqDvJnVBhMD16IXoVbk=", "properties": {"ref": "2282", "sells": "Hyundai", "@spider": "auto_nation", "addr:full": "3445 Buford Drive", "addr:city": "Buford", "addr:state": "GA", "addr:postcode": "30519", "addr:country": "US", "name": "AutoNation Hyundai Mall of Georgia", "phone": "(770) 674-6079", "website": "https://www.autonation.com/dealers/hyundai-mall-of-georgia", "opening_hours": "Mo-Sa 09:00-21:00; Su 12:00-18:00", "brand": "Auto Nation", "brand:wikidata": "Q784804"}, "geometry": {"type": "Point", "coordinates": [-83.983767, 34.076246]}},
{"type": "Feature", "id": "LreyJ4L9IANHgbHxzuTUJ_ChI-o=", "properties": {"ref": "2281", "sells": "Scion, Toyota", "@spider": "auto_nation", "addr:full": "3505 Buford Drive", "addr:city": "Buford", "addr:state": "GA", "addr:postcode": "30519", "addr:country": "US", "name": "AutoNation Toyota Mall of Georgia", "phone": "(770) 674-6083", "website": "https://www.autonation.com/dealers/toyota-mall-of-georgia-ga", "opening_hours": "Mo-Sa 09:00-21:00; Su 12:00-18:00", "brand": "Auto Nation", "brand:wikidata": "Q784804"}, "geometry": {"type": "Point", "coordinates": [-83.98285, 34.07838]}},
{"type": "Feature", "id": "6x_kTTBh27n-X0G9yM7jD2uDVA8=", "properties": {"ref": "2659", "sells": "", "@spider": "auto_nation", "addr:full": "3505 Buford Drive", "addr:city": "Buford", "addr:state": "GA", "addr:postcode": "30519", "addr:country": "US", "name": "AutoNation Collision Center Mall of Georgia", "phone": "(678) 745-8474", "website": "https://www.autonation.com/dealers/collision-center-mall-of-georgia", "opening_hours": "Mo-Fr 07:30-18:00; Sa 09:00-13:00", "brand": "Auto Nation", "brand:wikidata": "Q784804"}, "geometry": {"type": "Point", "coordinates": [-83.98285, 34.07838]}},
{"type": "Feature", "id": "3WwHT9J3zW-pyufkIAknC1axGzw=", "properties": {"ref": "2167", "sells": "Hyundai", "@spider": "auto_nation", "addr:full": "8050 S. Autoplex Loop", "addr:city": "Tempe", "addr:state": "AZ", "addr:postcode": "85284", "addr:country": "US", "name": "AutoNation Hyundai Tempe", "phone": "(480) 505-4247", "website": "https://www.autonation.com/dealers/hyundai-tempe-az", "opening_hours": "Mo-Sa 09:00-21:00; Su 10:00-18:00", "brand": "Auto Nation", "brand:wikidata": "Q784804"}, "geometry": {"type": "Point", "coordinates": [-111.96488, 33.34339]}},
{"type": "Feature", "id": "xjXFmUrCPCxAPdBIqtle6v9t5fk=", "properties": {"ref": "2179", "sells": "Ford", "@spider": "auto_nation", "addr:full": "8555 East Frank Lloyd Wright Boulevard", "addr:city": "Scottsdale", "addr:state": "AZ", "addr:postcode": "85260", "addr:country": "US", "name": "AutoNation Ford Scottsdale", "phone": "(480) 630-2827", "website": "https://www.autonation.com/dealers/ford-scottsdale-az", "opening_hours": "Mo-Sa 09:00-21:00; Su 10:00-18:00", "brand": "Auto Nation", "brand:wikidata": "Q784804"}, "geometry": {"type": "Point", "coordinates": [-111.89673, 33.6306]}},
{"type": "Feature", "id": "1sqdoTES3YEozhFMoc0HWBAnYCE=", "properties": {"ref": "2063", "sells": "Subaru", "@spider": "auto_nation", "addr:full": "15678 N. Northsight Blvd.", "addr:city": "Scottsdale", "addr:state": "AZ", "addr:postcode": "85260", "addr:country": "US", "name": "AutoNation Subaru Scottsdale", "phone": "(480) 420-3440", "website": "https://www.autonation.com/dealers/subaru-scottsdale-az", "opening_hours": "Mo-Sa 09:00-21:00; Su 10:00-18:00", "brand": "Auto Nation", "brand:wikidata": "Q784804"}, "geometry": {"type": "Point", "coordinates": [-111.897457, 33.629546]}},
{"type": "Feature", "id": "6R_ix1T8lhrHt7SM-zQSqN54rbk=", "properties": {"ref": "2601", "sells": "Nissan", "@spider": "auto_nation", "addr:full": "7755 South Autoplex Loop", "addr:city": "Tempe", "addr:state": "AZ", "addr:postcode": "85284", "addr:country": "US", "name": "AutoNation Nissan Tempe", "phone": "(480) 630-2829", "website": "https://www.autonation.com/dealers/nissan-tempe-az", "opening_hours": "Mo-Sa 09:00-21:00; Su 10:00-18:00", "brand": "Auto Nation", "brand:wikidata": "Q784804"}, "geometry": {"type": "Point", "coordinates": [-111.96735, 33.34607]}},
{"type": "Feature", "id": "qOPkKMl7ZPqK6lQTufBIClX6ivs=", "properties": {"ref": "2184", "sells": "All", "@spider": "auto_nation", "addr:full": "7245 South Harl", "addr:city": "Tempe", "addr:state": "AZ", "addr:postcode": "85283", "addr:country": "US", "name": "AutoNation Collision Center Tempe", "phone": "(480) 505-4262", "website": "https://www.autonation.com/dealers/collision-center-tempe-az", "opening_hours": "Mo-Fr 08:00-18:00; Sa 08:00-12:00", "brand": "Auto Nation", "brand:wikidata": "Q784804"}, "geometry": {"type": "Point", "coordinates": [-111.96594, 33.35312]}},
{"type": "Feature", "id": "ln9py7YOMoZSU1v0so2RlooGUTw=", "properties": {"ref": "2195", "sells": "Scion, Toyota", "@spider": "auto_nation", "addr:full": "7970 South Autoplex Loop", "addr:city": "Tempe", "addr:state": "AZ", "addr:postcode": "85284", "addr:country": "US", "name": "AutoNation Toyota Tempe", "phone": "(480) 420-3425", "website": "https://www.autonation.com/dealers/toyota-tempe-az", "opening_hours": "Mo-Sa 09:00-21:00; Su 10:00-18:00", "brand": "Auto Nation", "brand:wikidata": "Q784804"}, "geometry": {"type": "Point", "coordinates": [-111.970831, 33.344308]}},
{"type": "Feature", "id": "_Ii1bjZgaK223vw-AA2GyzVxaCU=", "properties": {"ref": "2120", "sells": "Chrysler, Dodge, FIAT, Jeep, Ram", "@spider": "auto_nation", "addr:full": "16406 N 26 Avenue", "addr:city": "Phoenix", "addr:state": "AZ", "addr:postcode": "85023", "addr:country": "US", "name": "AutoNation Chrysler Dodge Jeep Ram & FIAT North Phoenix", "phone": "(480) 630-2825", "website": "https://www.autonation.com/dealers/chrysler-dodge-jeep-ram-fiat-north-phoenix", "opening_hours": "Mo-Sa 09:00-21:00; Su 10:00-19:00", "brand": "Auto Nation", "brand:wikidata": "Q784804"}, "geometry": {"type": "Point", "coordinates": [-112.113167, 33.636269]}},
{"type": "Feature", "id": "v7lZiuaJTnMD4Fcm9hI2z0EpSYI=", "properties": {"ref": "2970", "sells": "Acura, Alfa Romeo, Audi, Bentley, BMW, Buick, Cadillac, Chevrolet, Chrysler, Dodge, FIAT, Ford, GMC, Honda, Hyundai, Infiniti, Jaguar, Jeep, Land Rover, Lexus, Lincoln, Maserati, Mazda, Mercedes-Benz, MINI, Mitsubishi, Nissan, Porsche, Ram, Scion, Smart, Subaru, Toyota, Volkswagen, Volvo", "@spider": "auto_nation", "addr:full": "2625 W. Bell Road", "addr:city": "Phoenix", "addr:state": "AZ", "addr:postcode": "85023", "addr:country": "US", "name": "AutoNation USA Phoenix", "phone": "(480) 944-4527", "website": "https://www.autonation.com/dealers/usa-phoenix-az-85023", "opening_hours": "Mo-Sa 09:00-21:00; Su 10:00-18:00", "brand": "Auto Nation", "brand:wikidata": "Q784804"}, "geometry": {"type": "Point", "coordinates": [-112.11346, 33.63918]}},
{"type": "Feature", "id": "8ec0UWz4B9_i4cf4XbrH7GUSOWk=", "properties": {"ref": "2974", "sells": "", "@spider": "auto_nation", "addr:full": "10601 W Papago Fwy", "addr:city": "Avondale", "addr:state": "AZ", "addr:postcode": "85323", "addr:country": "US", "name": "AutoNation USA Phoenix Avondale", "phone": "(480) 944-4529", "website": "https://www.autonation.com/dealers/usa-phoenix-avondale-az", "opening_hours": "Mo-Sa 09:00-21:00; Su 10:00-18:00", "brand": "Auto Nation", "brand:wikidata": "Q784804"}, "geometry": {"type": "Point", "coordinates": [-112.287938, 33.459535]}},
{"type": "Feature", "id": "6CRrzXwTX0ShFnXTedTTAYqyHP4=", "properties": {"ref": "2689", "sells": "Audi", "@spider": "auto_nation", "addr:full": "16900 North 88th Drive", "addr:city": "Peoria", "addr:state": "AZ", "addr:postcode": "85382", "addr:country": "US", "name": "Audi Peoria", "phone": "(602) 399-7002", "website": "https://www.autonation.com/dealers/audi-peoria-az", "opening_hours": "Mo-Sa 09:00-20:00; Su 10:00-18:00", "brand": "Auto Nation", "brand:wikidata": "Q784804"}, "geometry": {"type": "Point", "coordinates": [-112.250117, 33.637141]}},
{"type": "Feature", "id": "yqjw56nSONZhjIK6_9cOWEaifOk=", "properties": {"ref": "2183", "sells": "Chevrolet", "@spider": "auto_nation", "addr:full": "9055 West Bell Road", "addr:city": "Peoria", "addr:state": "AZ", "addr:postcode": "85382", "addr:country": "US", "name": "AutoNation Chevrolet Arrowhead", "phone": "(623) 428-8851", "website": "https://www.autonation.com/dealers/chevrolet-arrowhead", "opening_hours": "Mo-Sa 09:00-21:00; Su 10:00-18:00", "brand": "Auto Nation", "brand:wikidata": "Q784804"}, "geometry": {"type": "Point", "coordinates": [-112.25156, 33.63714]}},
{"type": "Feature", "id": "ofT36vJ2VyWc1dha8FIHtc9mEwE=", "properties": {"ref": "2473", "sells": "Honda", "@spider": "auto_nation", "addr:full": "10117 Parkside Drive", "addr:city": "Knoxville", "addr:state": "TN", "addr:postcode": "37922", "addr:country": "US", "name": "AutoNation Honda Knoxville", "phone": "(865) 730-0012", "website": "https://www.autonation.com/dealers/honda-west-knoxville-tn", "opening_hours": "Mo-Sa 09:00-21:00; Su 12:00-18:00", "brand": "Auto Nation", "brand:wikidata": "Q784804"}, "geometry": {"type": "Point", "coordinates": [-84.12231, 35.90899]}},
{"type": "Feature", "id": "Ij0KLWQzfQ8kIPxtnnpm5f1BN-o=", "properties": {"ref": "2342", "sells": "Cadillac", "@spider": "auto_nation", "addr:full": "9921 US Highway 19 South", "addr:city": "Port Richey", "addr:state": "FL", "addr:postcode": "34668", "addr:country": "US", "name": "AutoNation Cadillac Port Richey", "phone": "(727) 231-1230", "website": "https://www.autonation.com/dealers/cadillac-port-richey", "opening_hours": "Mo-Fr 09:00-20:00; Sa 09:00-18:00; Su 11:00-17:00", "brand": "Auto Nation", "brand:wikidata": "Q784804"}, "geometry": {"type": "Point", "coordinates": [-82.70642, 28.30136]}},
{"type": "Feature", "id": "eme7Cn2woBZ6a1ezqETnrytJuMY=", "properties": {"ref": "2341", "sells": "Lexus", "@spider": "auto_nation", "addr:full": "27547 US Highway 19 North", "addr:city": "Clearwater", "addr:state": "FL", "addr:postcode": "33761", "addr:country": "US", "name": "Lexus of Clearwater", "phone": "(727) 231-1443", "website": "https://www.autonation.com/dealers/lexus-clearwater-fl", "opening_hours": "Mo-Fr 09:00-20:00; Sa 09:00-19:00; Su 11:00-17:00", "brand": "Auto Nation", "brand:wikidata": "Q784804"}, "geometry": {"type": "Point", "coordinates": [-82.7367, 28.02258]}},
{"type": "Feature", "id": "TCio-ba3FCEf6RfJXnC_wS9FKOo=", "properties": {"ref": "2151", "sells": "Lincoln", "@spider": "auto_nation", "addr:full": "2085 Gulf to Bay Boulevard", "addr:city": "Clearwater", "addr:state": "FL", "addr:postcode": "33765", "addr:country": "US", "name": "AutoNation Lincoln Clearwater", "phone": "(727) 231-1380", "website": "https://www.autonation.com/dealers/lincoln-clearwater-fl", "opening_hours": "Mo-Fr 09:00-20:00; Sa 09:00-18:00; Su 12:00-17:00", "brand": "Auto Nation", "brand:wikidata": "Q784804"}, "geometry": {"type": "Point", "coordinates": [-82.750503, 27.959888]}},
{"type": "Feature", "id": "p-tHaSFHjiH4h11ODPH_i0Waxjc=", "properties": {"ref": "2701", "sells": "", "@spider": "auto_nation", "addr:full": "16604 US Highway 19 North", "addr:city": "Clearwater", "addr:state": "FL", "addr:postcode": "33764", "addr:country": "US", "name": "AutoNation Collision Center Clearwater", "phone": "(727) 222-3876", "website": "https://www.autonation.com/dealers/collision-center-clearwater-fl", "opening_hours": "Mo-Fr 08:00-17:30; Sa 08:00-12:30", "brand": "Auto Nation", "brand:wikidata": "Q784804"}, "geometry": {"type": "Point", "coordinates": [-82.73143, 27.92404]}},
{"type": "Feature", "id": "wakX4NrB42QfuMCTejZ-6B5mr60=", "properties": {"ref": "2420", "sells": "Honda", "@spider": "auto_nation", "addr:full": "17275 US Highway 19 North", "addr:city": "Clearwater", "addr:state": "FL", "addr:postcode": "33764", "addr:country": "US", "name": "AutoNation Honda Clearwater", "phone": "(727) 231-1324", "website": "https://www.autonation.com/dealers/honda-clearwater-fl", "opening_hours": "Mo-Fr 09:00-20:00; Sa 09:00-19:00; Su 11:00-17:00", "brand": "Auto Nation", "brand:wikidata": "Q784804"}, "geometry": {"type": "Point", "coordinates": [-82.729257, 27.929252]}},
{"type": "Feature", "id": "PENi4C6jn8AKZ-MeP1W1dm0nqdc=", "properties": {"ref": "2060", "sells": "Chevrolet", "@spider": "auto_nation", "addr:full": "15005 US Highway 19 North", "addr:city": "Clearwater", "addr:state": "FL", "addr:postcode": "33764", "addr:country": "US", "name": "AutoNation Chevrolet South Clearwater", "phone": "(727) 231-1291", "website": "https://www.autonation.com/dealers/chevrolet-south-clearwater-fl", "opening_hours": "Mo-Fr 09:00-20:00; Sa 09:00-19:00; Su 11:00-17:00", "brand": "Auto Nation", "brand:wikidata": "Q784804"}, "geometry": {"type": "Point", "coordinates": [-82.72776, 27.9101]}},
{"type": "Feature", "id": "axFIRZErAqKPWZKyhPewegURViA=", "properties": {"ref": "2485", "sells": "Scion, Toyota", "@spider": "auto_nation", "addr:full": "8501 US Highway 19 North", "addr:city": "Pinellas Park", "addr:state": "FL", "addr:postcode": "33781", "addr:country": "US", "name": "AutoNation Toyota Pinellas Park", "phone": "(727) 231-1423", "website": "https://www.autonation.com/dealers/toyota-pinellas-park-fl", "opening_hours": "Mo-Sa 09:00-20:00; Su 11:00-18:00", "brand": "Auto Nation", "brand:wikidata": "Q784804"}, "geometry": {"type": "Point", "coordinates": [-82.689256, 27.849363]}},
{"type": "Feature", "id": "V6eUow6YvPzSHE3_w79ToncQ3Tw=", "properties": {"ref": "2150", "sells": "Ford", "@spider": "auto_nation", "addr:full": "2525 34th Street North", "addr:city": "St. Petersburg", "addr:state": "FL", "addr:postcode": "33713", "addr:country": "US", "name": "AutoNation Ford St. Petersburg", "phone": "(727) 231-1323", "website": "https://www.autonation.com/dealers/ford-st-petersburg-fl", "opening_hours": "Mo-Fr 09:00-20:00; Sa 09:00-19:00; Su 11:00-17:00", "brand": "Auto Nation", "brand:wikidata": "Q784804"}, "geometry": {"type": "Point", "coordinates": [-82.678835, 27.794347]}},
{"type": "Feature", "id": "Cb1bo-IqBjSOWaEvnj8S6Zbh0XE=", "properties": {"ref": "2642", "sells": "", "@spider": "auto_nation", "addr:full": "2525 34th Street North", "addr:city": "St. Petersburg", "addr:state": "FL", "addr:postcode": "33713", "addr:country": "US", "name": "AutoNation Collision Center Pinellas Park", "phone": "(727) 222-3853", "website": "https://www.autonation.com/dealers/collision-center-pinellas-park", "opening_hours": "Mo-Fr 07:30-18:00; Sa 08:00-13:00", "brand": "Auto Nation", "brand:wikidata": "Q784804"}, "geometry": {"type": "Point", "coordinates": [-82.67787, 27.79461]}},
{"type": "Feature", "id": "Hwo3OHxaGW442Ac6cMk848D30h0=", "properties": {"ref": "2061", "sells": "Ford", "@spider": "auto_nation", "addr:full": "7200 Broad Street", "addr:city": "Brooksville", "addr:state": "FL", "addr:postcode": "34601", "addr:country": "US", "name": "AutoNation Ford Brooksville", "phone": "(352) 419-0810", "website": "https://www.autonation.com/dealers/ford-brooksville-fl", "opening_hours": "Mo-Fr 09:00-20:00; Sa 09:00-19:00; Su 11:00-17:00", "brand": "Auto Nation", "brand:wikidata": "Q784804"}, "geometry": {"type": "Point", "coordinates": [-82.406395, 28.533283]}},
{"type": "Feature", "id": "cdRR6QysgAJVQLePNf0XAqLrrWU=", "properties": {"ref": "2340", "sells": "Lexus", "@spider": "auto_nation", "addr:full": "5852 N Dale Mabry Highway", "addr:city": "Tampa", "addr:state": "FL", "addr:postcode": "33614", "addr:country": "US", "name": "Lexus of Tampa Bay", "phone": "(813) 365-7152", "website": "https://www.autonation.com/dealers/lexus-tampa-bay", "opening_hours": "Mo-Fr 09:00-20:00; Sa 09:00-18:00; Su 11:00-17:00", "brand": "Auto Nation", "brand:wikidata": "Q784804"}, "geometry": {"type": "Point", "coordinates": [-82.505952, 28.00133]}},
{"type": "Feature", "id": "5s6XO4JnUxlRWwtlmBIsVA_arcg=", "properties": {"ref": "2159", "sells": "Mercedes-Benz", "@spider": "auto_nation", "addr:full": "2383  Willow Oak Drive", "addr:city": "Wesley Chapel", "addr:state": "FL", "addr:postcode": "33544", "addr:country": "US", "name": "Mercedes-Benz of Wesley Chapel", "phone": "(813) 200-7788", "website": "https://www.autonation.com/dealers/mercedes-benz-wesley-chapel-fl", "opening_hours": "Mo-Fr 09:00-20:00; Sa 09:00-18:00; Su 12:00-17:00", "brand": "Auto Nation", "brand:wikidata": "Q784804"}, "geometry": {"type": "Point", "coordinates": [-82.37843, 28.19174]}},
{"type": "Feature", "id": "LiRm_VAKqIeZJ0L66I1i1W30I5o=", "properties": {"ref": "2539", "sells": "Ford", "@spider": "auto_nation", "addr:full": "5325 14th Street West", "addr:city": "Bradenton", "addr:state": "FL", "addr:postcode": "34207", "addr:country": "US", "name": "AutoNation Ford Bradenton", "phone": "(941) 275-1267", "website": "https://www.autonation.com/dealers/ford-bradenton-fl", "opening_hours": "Mo-Fr 09:00-20:00; Sa 09:00-19:00; Su 11:00-17:00", "brand": "Auto Nation", "brand:wikidata": "Q784804"}, "geometry": {"type": "Point", "coordinates": [-82.574697, 27.446391]}},
{"type": "Feature", "id": "t31UtUBJuM9NU9U4ES4yuGlq2rA=", "properties": {"ref": "2369", "sells": "", "@spider": "auto_nation", "addr:full": "6828 S. Tamiami Trail", "addr:city": "Sarasota", "addr:state": "FL", "addr:postcode": "34231", "addr:country": "US", "name": "AutoNation Collision Center Sarasota", "phone": "(941) 363-6709", "website": "https://www.autonation.com/dealers/collision-center-sarasota-fl", "opening_hours": "Mo-Fr 08:00-18:00; Sa 08:00-12:00", "brand": "Auto Nation", "brand:wikidata": "Q784804"}, "geometry": {"type": "Point", "coordinates": [-82.51922, 27.2554]}},
{"type": "Feature", "id": "FGqYMhbeuaBZpTqHeBSYN-E5vtw=", "properties": {"ref": "2872", "sells": "Mercedes-Benz", "@spider": "auto_nation", "addr:full": "4754 Clark Road", "addr:city": "Sarasota", "addr:state": "FL", "addr:postcode": "34233", "addr:country": "US", "name": "Mercedes-Benz of Sarasota", "phone": "(941) 275-1293", "website": "https://www.autonation.com/dealers/mercedes-benz-sarasota-fl", "opening_hours": "Mo-Fr 09:00-20:00; Sa 09:00-18:00; Su 11:00-17:00", "brand": "Auto Nation", "brand:wikidata": "Q784804"}, "geometry": {"type": "Point", "coordinates": [-82.47421, 27.26751]}},
{"type": "Feature", "id": "TqpqM9s9on9pwpAkYOjq3t2aty8=", "properties": {"ref": "2285", "sells": "Ford, Lincoln", "@spider": "auto_nation", "addr:full": "7700 Blanding Boulevard", "addr:city": "Jacksonville", "addr:state": "FL", "addr:postcode": "32244", "addr:country": "US", "name": "AutoNation Ford Lincoln Orange Park", "phone": "(904) 270-9943", "website": "https://www.autonation.com/dealers/ford-lincoln-orange-park-fl", "opening_hours": "Mo-Fr 09:00-21:00; Sa 09:00-20:00; Su 12:00-18:00", "brand": "Auto Nation", "brand:wikidata": "Q784804"}, "geometry": {"type": "Point", "coordinates": [-81.74054, 30.20754]}},
{"type": "Feature", "id": "kqkguhy9wPTxuqZKsMoiDw8kp7s=", "properties": {"ref": "2631", "sells": "", "@spider": "auto_nation", "addr:full": "7700 Blanding Boulevard", "addr:city": "Jacksonville", "addr:state": "FL", "addr:postcode": "32244", "addr:country": "US", "name": "AutoNation Collision Center Orange Park", "phone": "(904) 758-0455", "website": "https://www.autonation.com/dealers/collision-center-orange-park-fl", "opening_hours": "Mo-Fr 08:30-17:30; Sa 08:00-12:00", "brand": "Auto Nation", "brand:wikidata": "Q784804"}, "geometry": {"type": "Point", "coordinates": [-81.74054, 30.20754]}},
{"type": "Feature", "id": "eYX8R5InL3Wh7ca6pJnJUD2cYzw=", "properties": {"ref": "2836", "sells": "Mercedes-Benz", "@spider": "auto_nation", "addr:full": "1569 West Ogden Avenue", "addr:city": "Naperville", "addr:state": "IL", "addr:postcode": "60540", "addr:country": "US", "name": "Mercedes-Benz of Naperville", "phone": "(630) 537-0312", "website": "https://www.autonation.com/dealers/mercedes-benz-naperville-il", "opening_hours": "Mo-Th 09:00-20:00; Fr-Sa 09:00-18:00", "brand": "Auto Nation", "brand:wikidata": "Q784804"}, "geometry": {"type": "Point", "coordinates": [-88.187705, 41.767932]}},
{"type": "Feature", "id": "_Nco0Ovhygf8fGnAy4epSqfNJTQ=", "properties": {"ref": "2834", "sells": "Mercedes-Benz", "@spider": "auto_nation", "addr:full": "200 East Ogden Avenue", "addr:city": "Westmont", "addr:state": "IL", "addr:postcode": "60559", "addr:country": "US", "name": "Mercedes-Benz of Westmont", "phone": "(630) 537-0313", "website": "https://www.autonation.com/dealers/mercedes-benz-westmont-il", "opening_hours": "Mo-Th 08:30-20:00; Fr-Sa 08:30-18:00", "brand": "Auto Nation", "brand:wikidata": "Q784804"}, "geometry": {"type": "Point", "coordinates": [-87.970835, 41.811292]}},
{"type": "Feature", "id": "jh3F2F7OpCzg9pyDObdyU5UezQc=", "properties": {"ref": "2831", "sells": "Audi", "@spider": "auto_nation", "addr:full": "276 East Ogden Avenue", "addr:city": "Westmont", "addr:state": "IL", "addr:postcode": "60559", "addr:country": "US", "name": "Audi Westmont", "phone": "(630) 537-0310", "website": "https://www.autonation.com/dealers/audi-westmont", "opening_hours": "Mo-Th 09:00-20:00; Fr-Sa 09:00-18:00", "brand": "Auto Nation", "brand:wikidata": "Q784804"}, "geometry": {"type": "Point", "coordinates": [-87.969521, 41.810935]}},
{"type": "Feature", "id": "jV-psD8MucRlRTC7BTrjqM_rxAw=", "properties": {"ref": "2832", "sells": "BMW", "@spider": "auto_nation", "addr:full": "430 East Ogden Avenue", "addr:city": "Westmont", "addr:state": "IL", "addr:postcode": "60559", "addr:country": "US", "name": "Laurel BMW of Westmont", "phone": "(630) 537-0311", "website": "https://www.autonation.com/dealers/laurel-bmw-westmont", "opening_hours": "Mo-Th 09:00-20:00; Fr-Sa 09:00-18:00", "brand": "Auto Nation", "brand:wikidata": "Q784804"}, "geometry": {"type": "Point", "coordinates": [-87.96318, 41.81121]}},
{"type": "Feature", "id": "CFxbaGwDthIx_dkLIHx3DUaI4vo=", "properties": {"ref": "2759", "sells": "", "@spider": "auto_nation", "addr:full": "433 Plaza Drive", "addr:city": "Westmont", "addr:state": "IL", "addr:postcode": "60559", "addr:country": "US", "name": "AutoNation Collision Center Westmont", "phone": "(630) 332-0444", "website": "https://www.autonation.com/dealers/collision-center-westmont", "opening_hours": "Mo-Fr 07:00-18:00; Sa 09:00-12:00", "brand": "Auto Nation", "brand:wikidata": "Q784804"}, "geometry": {"type": "Point", "coordinates": [-87.9641, 41.81256]}},
{"type": "Feature", "id": "ngcsQJQUJkBJbalPOyjsUSb-T5M=", "properties": {"ref": "2860", "sells": "Ford", "@spider": "auto_nation", "addr:full": "10720 Philips Highway", "addr:city": "Jacksonville", "addr:state": "FL", "addr:postcode": "32256", "addr:country": "US", "name": "AutoNation Ford Jacksonville", "phone": "(904) 242-6499", "website": "https://www.autonation.com/dealers/ford-jacksonville-fl", "opening_hours": "Mo-Fr 09:00-21:00; Sa 09:00-20:00; Su 12:00-18:00", "brand": "Auto Nation", "brand:wikidata": "Q784804"}, "geometry": {"type": "Point", "coordinates": [-81.548991, 30.174596]}},
{"type": "Feature", "id": "LtrhUDTtO2AmaHDVWQdbBsm9WG4=", "properties": {"ref": "2138", "sells": "Honda", "@spider": "auto_nation", "addr:full": "1533 South River Road", "addr:city": "Des Plaines", "addr:state": "IL", "addr:postcode": "60018", "addr:country": "US", "name": "AutoNation Honda O'Hare", "phone": "(847) 474-4048", "website": "https://www.autonation.com/dealers/honda-ohare", "opening_hours": "Mo-Th 09:00-21:00; Fr 09:00-20:00; Sa 09:00-18:00", "brand": "Auto Nation", "brand:wikidata": "Q784804"}, "geometry": {"type": "Point", "coordinates": [-87.877975, 42.000568]}},
{"type": "Feature", "id": "alPRbDoI5SDOY711bDwcUwZOACE=", "properties": {"ref": "2139", "sells": "Hyundai", "@spider": "auto_nation", "addr:full": "1509 South River Road", "addr:city": "Des Plaines", "addr:state": "IL", "addr:postcode": "60018", "addr:country": "US", "name": "AutoNation Hyundai O'Hare", "phone": "(847) 346-0144", "website": "https://www.autonation.com/dealers/hyundai-ohare-il", "opening_hours": "Mo-Th 09:00-21:00; Fr 09:00-20:00; Sa 09:00-18:00", "brand": "Auto Nation", "brand:wikidata": "Q784804"}, "geometry": {"type": "Point", "coordinates": [-87.876394, 42.026055]}},
{"type": "Feature", "id": "NiYzSIllhQuZz0rePr5PlMAoR_0=", "properties": {"ref": "2290", "sells": "Chrysler, Dodge, Jeep, Ram", "@spider": "auto_nation", "addr:full": "3700 Bristol Highway", "addr:city": "Johnson City", "addr:state": "TN", "addr:postcode": "37601", "addr:country": "US", "name": "AutoNation Chrysler Dodge Jeep Ram and FIAT Johnson City", "phone": "(423) 354-3916", "website": "https://www.autonation.com/dealers/chrysler-dodge-jeep-ram-fiat-johnson-city-tn", "opening_hours": "Mo-Sa 09:00-20:00", "brand": "Auto Nation", "brand:wikidata": "Q784804"}, "geometry": {"type": "Point", "coordinates": [-82.36821, 36.37772]}},
{"type": "Feature", "id": "bA0ewokHNT8B4yYWC65QinR1Tzo=", "properties": {"ref": "2533", "sells": "Chevrolet", "@spider": "auto_nation", "addr:full": "3707 West Colonial Drive", "addr:city": "Orlando", "addr:state": "FL", "addr:postcode": "32808", "addr:country": "US", "name": "AutoNation Chevrolet West Colonial", "phone": "(407) 680-0751", "website": "https://www.autonation.com/dealers/chevrolet-west-colonial-fl", "opening_hours": "Mo-Fr 09:00-21:00; Sa 09:00-20:00; Su 11:00-18:00", "brand": "Auto Nation", "brand:wikidata": "Q784804"}, "geometry": {"type": "Point", "coordinates": [-81.424214, 28.554594]}},
{"type": "Feature", "id": "_dKe55rELtInORPwBOYBHSiV4uA=", "properties": {"ref": "2368", "sells": "", "@spider": "auto_nation", "addr:full": "3707 West Colonial Drive", "addr:city": "Orlando", "addr:state": "FL", "addr:postcode": "32808", "addr:country": "US", "name": "AutoNation Collision Center West Colonial", "phone": "(407) 203-9555", "website": "https://www.autonation.com/dealers/collision-center-west-colonial", "opening_hours": "Mo-Fr 08:30-17:30; Sa 08:00-12:00", "brand": "Auto Nation", "brand:wikidata": "Q784804"}, "geometry": {"type": "Point", "coordinates": [-81.42421, 28.55459]}},
{"type": "Feature", "id": "dN7oqh6Y8AiQg0HMOxPNk4adX60=", "properties": {"ref": "2134", "sells": "Audi", "@spider": "auto_nation", "addr:full": "4725 Vineland Road", "addr:city": "Orlando", "addr:state": "FL", "addr:postcode": "32811", "addr:country": "US", "name": "Audi South Orlando", "phone": "(407) 674-0855", "website": "https://www.autonation.com/dealers/audi-south-orlando", "opening_hours": "Mo-Fr 09:00-20:00; Sa 09:00-19:00; Su 11:00-16:00", "brand": "Auto Nation", "brand:wikidata": "Q784804"}, "geometry": {"type": "Point", "coordinates": [-81.43641, 28.49343]}},
{"type": "Feature", "id": "8dZtRcC12fH6jAlngX1vgeBHdNk=", "properties": {"ref": "2230", "sells": "Honda", "@spider": "auto_nation", "addr:full": "1000 Rinehart Road", "addr:city": "Sanford", "addr:state": "FL", "addr:postcode": "32771", "addr:country": "US", "name": "AutoNation Honda Sanford", "phone": "(407) 680-0782", "website": "https://www.autonation.com/dealers/honda-sanford-fl", "opening_hours": "Mo-Sa 09:00-21:00; Su 11:00-18:00", "brand": "Auto Nation", "brand:wikidata": "Q784804"}, "geometry": {"type": "Point", "coordinates": [-81.344858, 28.792455]}},
{"type": "Feature", "id": "tHY4zznoy8tpL7vKnsjErj1rBeQ=", "properties": {"ref": "2538", "sells": "Ford", "@spider": "auto_nation", "addr:full": "4911 Wayside Drive", "addr:city": "Sanford", "addr:state": "FL", "addr:postcode": "32771", "addr:country": "US", "name": "AutoNation Ford Sanford", "phone": "(407) 680-0781", "website": "https://www.autonation.com/dealers/ford-sanford-fl", "opening_hours": "Mo-Fr 09:00-21:00; Sa 09:00-20:00; Su 11:00-18:00", "brand": "Auto Nation", "brand:wikidata": "Q784804"}, "geometry": {"type": "Point", "coordinates": [-81.341585, 28.808733]}},
{"type": "Feature", "id": "UZW5VPjX1ToKw3A_DrStyhwPA04=", "properties": {"ref": "2549", "sells": "Acura", "@spider": "auto_nation", "addr:full": "1001 Rinehart Road", "addr:city": "Sanford", "addr:state": "FL", "addr:postcode": "32771", "addr:country": "US", "name": "AutoNation Acura North Orlando", "phone": "(407) 680-0749", "website": "https://www.autonation.com/dealers/acura-north-orlando", "opening_hours": "Mo-Sa 09:00-20:00; Su 12:00-18:00", "brand": "Auto Nation", "brand:wikidata": "Q784804"}, "geometry": {"type": "Point", "coordinates": [-81.344568, 28.790709]}},
{"type": "Feature", "id": "MCRd7y0fm3Iql1Q9VTWsfz0fu4M=", "properties": {"ref": "2820", "sells": "Volkswagen", "@spider": "auto_nation", "addr:full": "50 Eisenhower Drive", "addr:city": "Savannah", "addr:state": "GA", "addr:postcode": "31406", "addr:country": "US", "name": "AutoNation Volkswagen Savannah", "phone": "912-521-9977", "website": "https://www.autonation.com/dealers/volkswagen-savannah-ga", "opening_hours": "Mo-Fr 09:00-19:30; Sa 09:00-18:00", "brand": "Auto Nation", "brand:wikidata": "Q784804"}, "geometry": {"type": "Point", "coordinates": [-81.115221, 32.010746]}},
{"type": "Feature", "id": "JRC5ZK2EN9zjS0SJCn52xpaRrEU=", "properties": {"ref": "2115", "sells": "Mercedes-Benz", "@spider": "auto_nation", "addr:full": "1100 Rinehart Road", "addr:city": "Sanford", "addr:state": "FL", "addr:postcode": "32771", "addr:country": "US", "name": "Mercedes-Benz of North Orlando", "phone": "(407) 710-5111", "website": "https://www.autonation.com/dealers/mercedes-benz-north-orlando", "opening_hours": "Mo-Fr 09:00-20:00; Sa 09:00-18:00; Su 11:00-16:00", "brand": "Auto Nation", "brand:wikidata": "Q784804"}, "geometry": {"type": "Point", "coordinates": [-81.342361, 28.793198]}},
{"type": "Feature", "id": "TarKAGzd9tV_tNLRI8F6OTlIvEI=", "properties": {"ref": "2821", "sells": "Genesis, Hyundai", "@spider": "auto_nation", "addr:full": "7103 Abercorn Street", "addr:city": "Savannah", "addr:state": "GA", "addr:postcode": "31406", "addr:country": "US", "name": "AutoNation Hyundai Savannah/ Genesis of Savannah", "phone": "912-999-4977", "website": "https://www.autonation.com/dealers/hyundai-genesis-savannah-ga", "opening_hours": "Mo-Fr 09:00-19:30; Sa 09:00-18:00", "brand": "Auto Nation", "brand:wikidata": "Q784804"}, "geometry": {"type": "Point", "coordinates": [-81.114648, 32.011257]}},
{"type": "Feature", "id": "n-fhq6EyMGn9BgT9ayDO7cxLRfY=", "properties": {"ref": "2280", "sells": "Scion, Toyota", "@spider": "auto_nation", "addr:full": "1180 South Milwaukee Avenue", "addr:city": "Libertyville", "addr:state": "IL", "addr:postcode": "60048", "addr:country": "US", "name": "AutoNation Toyota Libertyville", "phone": "(224) 993-9001", "website": "https://www.autonation.com/dealers/toyota-libertyville-il", "opening_hours": "Mo-Fr 09:00-21:00; Sa 09:00-19:00", "brand": "Auto Nation", "brand:wikidata": "Q784804"}, "geometry": {"type": "Point", "coordinates": [-87.94844, 42.265419]}},
{"type": "Feature", "id": "vTENWMBDQ2XHSy65Ovra_xbC-S8=", "properties": {"ref": "2870", "sells": "Mercedes-Benz", "@spider": "auto_nation", "addr:full": "810 North Orlando Avenue", "addr:city": "Maitland", "addr:state": "FL", "addr:postcode": "32751", "addr:country": "US", "name": "Mercedes-Benz of Orlando", "phone": "(407) 680-0784", "website": "https://www.autonation.com/dealers/mercedes-benz-orlando", "opening_hours": "Mo-Fr 08:30-20:00; Sa 09:00-18:00; Su 11:00-16:00", "brand": "Auto Nation", "brand:wikidata": "Q784804"}, "geometry": {"type": "Point", "coordinates": [-81.360605, 28.634063]}},
{"type": "Feature", "id": "zsKSjqpwxHrBD1vaUtL6eJAh9_8=", "properties": {"ref": "2871", "sells": "Porsche", "@spider": "auto_nation", "addr:full": "9590 South Highway 17-92", "addr:city": "Maitland", "addr:state": "FL", "addr:postcode": "32751", "addr:country": "US", "name": "Porsche Orlando", "phone": "(407) 680-0785", "website": "https://www.autonation.com/dealers/porsche-orlando-fl", "opening_hours": "Mo-Fr 08:30-19:00; Sa 09:00-18:00; Su 12:00-17:00", "brand": "Auto Nation", "brand:wikidata": "Q784804"}, "geometry": {"type": "Point", "coordinates": [-81.355901, 28.642266]}},
{"type": "Feature", "id": "YaEt0wYcQzp-FL06SHXTz8fXUFE=", "properties": {"ref": "2921", "sells": "All", "@spider": "auto_nation", "addr:full": "905 Florida Avenue", "addr:city": "Longwood", "addr:state": "FL", "addr:postcode": "32750", "addr:country": "US", "name": "AutoNation Collision Center North", "phone": "(407) 495-1082", "website": "https://www.autonation.com/dealers/collision-center-north-fl", "opening_hours": "Mo-Fr 08:30-17:30; Sa 08:00-12:00", "brand": "Auto Nation", "brand:wikidata": "Q784804"}, "geometry": {"type": "Point", "coordinates": [-81.32503, 28.70729]}},
{"type": "Feature", "id": "NMp8g1FiCMF-JSG6_U89ySaJXlw=", "properties": {"ref": "2231", "sells": "Scion, Toyota", "@spider": "auto_nation", "addr:full": "225 North Semoran Boulevard", "addr:city": "Winter Park", "addr:state": "FL", "addr:postcode": "32792", "addr:country": "US", "name": "AutoNation Toyota Winter Park", "phone": "(407) 680-0783", "website": "https://www.autonation.com/dealers/toyota-winter-park-fl", "opening_hours": "Mo-Sa 09:00-21:00; Su 11:00-19:00", "brand": "Auto Nation", "brand:wikidata": "Q784804"}, "geometry": {"type": "Point", "coordinates": [-81.307161, 28.597744]}},
{"type": "Feature", "id": "zsTkid9odnt30FMQ6V-gypYbwok=", "properties": {"ref": "2655", "sells": "", "@spider": "auto_nation", "addr:full": "2555 Colonial Blvd", "addr:city": "Fort Myers", "addr:state": "FL", "addr:postcode": "33907", "addr:country": "US", "name": "AutoNation Collision Center Fort Myers", "phone": "(239) 970-8433", "website": "https://www.autonation.com/dealers/collision-center-fort-myers-fl", "opening_hours": "Mo-Fr 07:30-18:00; Sa 08:00-12:00", "brand": "Auto Nation", "brand:wikidata": "Q784804"}, "geometry": {"type": "Point", "coordinates": [-81.8607, 26.59829]}},
{"type": "Feature", "id": "aRIMmX-vaThOeywj7Bpc8bMwWSs=", "properties": {"ref": "2125", "sells": "Scion, Toyota", "@spider": "auto_nation", "addr:full": "2555 Colonial Boulevard", "addr:city": "Ft. Myers", "addr:state": "FL", "addr:postcode": "33907", "addr:country": "US", "name": "AutoNation Toyota Fort Myers", "phone": "(239) 321-5413", "website": "https://www.autonation.com/dealers/toyota-ft-myers-fl", "opening_hours": "Mo-Fr 09:00-20:00; Sa 09:00-19:00; Su 11:00-17:00", "brand": "Auto Nation", "brand:wikidata": "Q784804"}, "geometry": {"type": "Point", "coordinates": [-81.860362, 26.598335]}},
{"type": "Feature", "id": "9CaEqnLe4B4Nq8zZCktxb3U5kDs=", "properties": {"ref": "2530", "sells": "Chevrolet", "@spider": "auto_nation", "addr:full": "5600 Lee Vista Boulevard", "addr:city": "Orlando", "addr:state": "FL", "addr:postcode": "32812", "addr:country": "US", "name": "AutoNation Chevrolet Airport", "phone": "(407) 680-0750", "website": "https://www.autonation.com/dealers/chevrolet-airport", "opening_hours": "Mo-Fr 09:00-21:00; Sa 09:00-20:00; Su 11:00-18:00", "brand": "Auto Nation", "brand:wikidata": "Q784804"}, "geometry": {"type": "Point", "coordinates": [-81.311889, 28.468301]}},
{"type": "Feature", "id": "7ENPY0JhFS-NymCTrKpG1C9M5qk=", "properties": {"ref": "2932", "sells": "All", "@spider": "auto_nation", "addr:full": "6140 Hoffner Ave.", "addr:city": "Orlando", "addr:state": "FL", "addr:postcode": "32822", "addr:country": "US", "name": "AutoNation Collision Center Airport", "phone": "(407) 357-0369", "website": "https://www.autonation.com/dealers/collision-center-airport-orlando-fl", "opening_hours": "Mo-Fr 08:30-17:30; Sa 08:00-12:00", "brand": "Auto Nation", "brand:wikidata": "Q784804"}, "geometry": {"type": "Point", "coordinates": [-81.30205, 28.48026]}},
{"type": "Feature", "id": "FxP1ZdOxer356m4yYdAOKX18ZRM=", "properties": {"ref": "2944", "sells": "All", "@spider": "auto_nation", "addr:full": "9200 E. Colonial Dr", "addr:city": "Orlando", "addr:state": "FL", "addr:postcode": "32817", "addr:country": "US", "name": "AutoNation Collision Center East Colonial", "phone": "(407) 680-0752", "website": "https://www.autonation.com/dealers/collision-center-east-colonial-fl", "opening_hours": "Mo-Th 08:30-17:30; Fr 08:30-18:30; Sa 08:00-12:00", "brand": "Auto Nation", "brand:wikidata": "Q784804"}, "geometry": {"type": "Point", "coordinates": [-81.25943, 28.56784]}},
{"type": "Feature", "id": "2lWTsR-4329flEzcYryzoVa8hyg=", "properties": {"ref": "2819", "sells": "Volkswagen", "@spider": "auto_nation", "addr:full": "137 Auto Mall Blvd.", "addr:city": "Hardeeville", "addr:state": "SC", "addr:postcode": "29927", "addr:country": "US", "name": "AutoNation Volkswagen Hilton Head", "phone": "843-214-2567", "website": "https://www.autonation.com/dealers/volkswagen-hilton-head-sc", "opening_hours": "Mo-Fr 09:00-19:30; Sa 09:00-18:00", "brand": "Auto Nation", "brand:wikidata": "Q784804"}, "geometry": {"type": "Point", "coordinates": [-80.985667, 32.313311]}},
{"type": "Feature", "id": "PrTYM1zBZxOxTT8RZd8mPlPgV1k=", "properties": {"ref": "2816", "sells": "Audi", "@spider": "auto_nation", "addr:full": "46 Auto Mall Blvd.", "addr:city": "Hardeeville", "addr:state": "SC", "addr:postcode": "29927", "addr:country": "US", "name": "Audi Hilton Head", "phone": "843-962-9517", "website": "https://www.autonation.com/dealers/audi-hilton-head-sc", "opening_hours": "Mo-Fr 09:00-19:30; Sa 09:00-18:00", "brand": "Auto Nation", "brand:wikidata": "Q784804"}, "geometry": {"type": "Point", "coordinates": [-80.984147, 32.312062]}},
{"type": "Feature", "id": "Rz4Ckv8sRdHYDpvCdsf4reAGS3s=", "properties": {"ref": "2815", "sells": "Porsche", "@spider": "auto_nation", "addr:full": "107 Drivers Way", "addr:city": "Hardeeville", "addr:state": "SC", "addr:postcode": "29927", "addr:country": "US", "name": "Porsche Hilton Head", "phone": "843-962-7932", "website": "https://www.autonation.com/dealers/porsche-hilton-head-sc", "opening_hours": "Mo-Fr 09:00-19:30; Sa 09:00-18:00", "brand": "Auto Nation", "brand:wikidata": "Q784804"}, "geometry": {"type": "Point", "coordinates": [-80.983294, 32.312129]}},
{"type": "Feature", "id": "38ttXQQY9iM4IMQr2iaSOuAb3go=", "properties": {"ref": "2817", "sells": "Chrysler, Dodge, Jeep, Ram", "@spider": "auto_nation", "addr:full": "265 Drivers Way A", "addr:city": "Hardeeville", "addr:state": "SC", "addr:postcode": "29927", "addr:country": "US", "name": "AutoNation Chrysler Dodge Jeep Ram Hilton Head", "phone": "843-962-7610", "website": "https://www.autonation.com/dealers/chrysler-dodge-jeep-ram-hilton-head-sc", "opening_hours": "Mo-Fr 09:00-19:30; Sa 09:00-18:00", "brand": "Auto Nation", "brand:wikidata": "Q784804"}, "geometry": {"type": "Point", "coordinates": [-80.98309, 32.312244]}},
{"type": "Feature", "id": "B7NWqpFTwj2ROAI7AJYJLv_qH2E=", "properties": {"ref": "2814", "sells": "Subaru", "@spider": "auto_nation", "addr:full": "111 Drivers Way", "addr:city": "Hardeeville", "addr:state": "SC", "addr:postcode": "29927", "addr:country": "US", "name": "AutoNation Subaru Hilton Head", "phone": "843-962-9813", "website": "https://www.autonation.com/dealers/subaru-hilton-head-sc", "opening_hours": "Mo-Fr 09:00-19:30; Sa 09:00-18:00", "brand": "Auto Nation", "brand:wikidata": "Q784804"}, "geometry": {"type": "Point", "coordinates": [-80.983043, 32.311994]}},
{"type": "Feature", "id": "JQZnOx7qberS9FDUIjWdLI9V3ZM=", "properties": {"ref": "2813", "sells": "Jaguar, Land Rover", "@spider": "auto_nation", "addr:full": "145 Drivers Way", "addr:city": "Hardeeville", "addr:state": "SC", "addr:postcode": "29927", "addr:country": "US", "name": "Jaguar Land Rover Hilton Head", "phone": "843-548-1017", "website": "https://www.autonation.com/dealers/jaguar-land-rover-hilton-head-sc", "opening_hours": "Mo-Fr 09:00-19:30; Sa 09:00-18:00", "brand": "Auto Nation", "brand:wikidata": "Q784804"}, "geometry": {"type": "Point", "coordinates": [-80.982206, 32.311917]}},
{"type": "Feature", "id": "WJUVZvSDX4ts5yS28wNaPKiinNk=", "properties": {"ref": "2818", "sells": "Genesis, Hyundai", "@spider": "auto_nation", "addr:full": "255 Drivers Way B", "addr:city": "Hardeeville", "addr:state": "SC", "addr:postcode": "29927", "addr:country": "US", "name": "AutoNation Hyundai Hilton Head/ Genesis of Hilton Head", "phone": "843-962-7743", "website": "https://www.autonation.com/dealers/hyundai-genesis-hilton-head-sc", "opening_hours": "Mo-Fr 09:00-19:30; Sa 09:00-18:00", "brand": "Auto Nation", "brand:wikidata": "Q784804"}, "geometry": {"type": "Point", "coordinates": [-80.981556, 32.311863]}},
{"type": "Feature", "id": "ZnQUF4-Au1ste_GFWByk56HX6LI=", "properties": {"ref": "2859", "sells": "All", "@spider": "auto_nation", "addr:full": "1441 Alafaya Trail", "addr:city": "Oviedo", "addr:state": "FL", "addr:postcode": "32765", "addr:country": "US", "name": "AutoNation Collision Center Oviedo", "phone": "(407) 680-0757", "website": "https://www.autonation.com/dealers/collision-center-oviedo-fl", "opening_hours": "Mo-Fr 08:30-17:30; Sa 08:00-12:00", "brand": "Auto Nation", "brand:wikidata": "Q784804"}, "geometry": {"type": "Point", "coordinates": [-81.20867, 28.64896]}},
{"type": "Feature", "id": "wzHElOJGDdLamys9sWUUHrpRwrM=", "properties": {"ref": "2824", "sells": "", "@spider": "auto_nation", "addr:full": "1667 Okatie HWY", "addr:city": "Ridgeland", "addr:state": "SC", "addr:postcode": "29936", "addr:country": "US", "name": "AutoNation Collision Center Hilton Head", "phone": "843-962-9629", "website": "https://www.autonation.com/dealers/collision-center-hilton-head-sc", "opening_hours": "Mo 07:00-17:30; Tu-Fr 07:30-17:30; Sa 08:00-12:00", "brand": "Auto Nation", "brand:wikidata": "Q784804"}, "geometry": {"type": "Point", "coordinates": [-80.933419, 32.32403]}},
{"type": "Feature", "id": "iTDbIAFpkQgf_shAzKhzUEd3akY=", "properties": {"ref": "2823", "sells": "Genesis, Hyundai", "@spider": "auto_nation", "addr:full": "250 Greystone Blvd", "addr:city": "Columbia", "addr:state": "SC", "addr:postcode": "29210", "addr:country": "US", "name": "AutoNation Hyundai Columbia/ Genesis of West Columbia", "phone": "803-973-8078", "website": "https://www.autonation.com/dealers/hyundai-genesis-columbia-sc", "opening_hours": "Mo-Fr 09:00-19:30; Sa 09:00-18:00", "brand": "Auto Nation", "brand:wikidata": "Q784804"}, "geometry": {"type": "Point", "coordinates": [-81.075288, 34.017356]}},
{"type": "Feature", "id": "SvwloQeVcLBAGpZTqFfvkd1IINQ=", "properties": {"ref": "2979", "sells": "All", "@spider": "auto_nation", "addr:full": "4800 E Independence Blvd", "addr:city": "Charlotte", "addr:state": "NC", "addr:postcode": "28212", "addr:country": "US", "name": "AutoNation USA Charlotte", "phone": "(980) 890-8317", "website": "https://www.autonation.com/dealers/usa-charlotte-nc-28212", "opening_hours": "Mo-Sa 09:00-20:00", "brand": "Auto Nation", "brand:wikidata": "Q784804"}, "geometry": {"type": "Point", "coordinates": [-80.764232, 35.191662]}},
{"type": "Feature", "id": "4XX_0XxzT4TPvhnat_VqSiIjo6U=", "properties": {"ref": "2800", "sells": "Ford", "@spider": "auto_nation", "addr:full": "1493 East County Road E", "addr:city": "White Bear Lake", "addr:state": "MN", "addr:postcode": "55110", "addr:country": "US", "name": "AutoNation Ford White Bear Lake", "phone": "(651) 301-8386", "website": "https://www.autonation.com/dealers/ford-white-bear-lake-mn", "opening_hours": "Mo-Th 09:00-21:00; Fr-Sa 09:00-18:00", "brand": "Auto Nation", "brand:wikidata": "Q784804"}, "geometry": {"type": "Point", "coordinates": [-93.037513, 45.051653]}},
{"type": "Feature", "id": "7JXipF_hPkfSa2RsM6_yxhVJZL4=", "properties": {"ref": "2980", "sells": "All", "@spider": "auto_nation", "addr:full": "2250 Savannah Hwy", "addr:city": "Charleston", "addr:state": "SC", "addr:postcode": "29414", "addr:country": "US", "name": "AutoNation USA Charleston", "phone": "(854) 895-3225", "website": "https://www.autonation.com/dealers/usa-charleston-sc-29414", "opening_hours": "Mo-Sa 09:00-20:00", "brand": "Auto Nation", "brand:wikidata": "Q784804"}, "geometry": {"type": "Point", "coordinates": [-80.039592, 32.792156]}},
{"type": "Feature", "id": "1O7MA7JJKMblWeIZU1N8Qnmt7Gk=", "properties": {"ref": "2072", "sells": "BMW", "@spider": "auto_nation", "addr:full": "261 Auto Mall Drive", "addr:city": "Henderson", "addr:state": "NV", "addr:postcode": "89014", "addr:country": "US", "name": "BMW of Henderson", "phone": "(702) 570-0278", "website": "https://www.autonation.com/dealers/bmw-henderson", "opening_hours": "Mo-Sa 09:00-21:00", "brand": "Auto Nation", "brand:wikidata": "Q784804"}, "geometry": {"type": "Point", "coordinates": [-115.024689, 36.046837]}},
{"type": "Feature", "id": "nHk1hxJUyHIhJoWJ2yhpGBWHlwk=", "properties": {"ref": "2042", "sells": "Buick, GMC", "@spider": "auto_nation", "addr:full": "330 North Gibson Road", "addr:city": "Henderson", "addr:state": "NV", "addr:postcode": "89014", "addr:country": "US", "name": "AutoNation Buick GMC Henderson", "phone": "(702) 570-0288", "website": "https://www.autonation.com/dealers/buick-gmc-henderson", "opening_hours": "Mo-Sa 09:00-21:00", "brand": "Auto Nation", "brand:wikidata": "Q784804"}, "geometry": {"type": "Point", "coordinates": [-115.028, 36.05181]}},
{"type": "Feature", "id": "cLlGkHMksEk9tugmUIwbCjh5JFw=", "properties": {"ref": "2975", "sells": "Acura, Alfa Romeo, Audi, Bentley, BMW, Buick, Cadillac, Chevrolet, Chrysler, Dodge, FIAT, Ford, GMC, Honda, Hyundai, Infiniti, Jaguar, Jeep, Land Rover, Lexus, Lincoln, Maserati, Mazda, Mercedes-Benz, MINI, Mitsubishi, Nissan, Porsche, Ram, Scion, Smart, Subaru, Toyota, Volkswagen, Volvo", "@spider": "auto_nation", "addr:full": "380 N. Gibson Road", "addr:city": "Henderson", "addr:state": "NV", "addr:postcode": "89014", "addr:country": "US", "name": "AutoNation USA Henderson", "phone": "(725) 433-3841", "website": "https://www.autonation.com/dealers/usa-henderson-nv-89104", "opening_hours": "Mo-Sa 09:00-21:00", "brand": "Auto Nation", "brand:wikidata": "Q784804"}, "geometry": {"type": "Point", "coordinates": [-115.027893, 36.054871]}},
{"type": "Feature", "id": "yfYaYNIsGxRQOTaee2VBqMt51Cg=", "properties": {"ref": "2075", "sells": "Honda", "@spider": "auto_nation", "addr:full": "1700 East Sahara Avenue", "addr:city": "Las Vegas", "addr:state": "NV", "addr:postcode": "89104", "addr:country": "US", "name": "AutoNation Honda East Las Vegas", "phone": "(702) 570-0282", "website": "https://www.autonation.com/dealers/honda-east-las-vegas-nv", "opening_hours": "Mo-Sa 09:00-21:00", "brand": "Auto Nation", "brand:wikidata": "Q784804"}, "geometry": {"type": "Point", "coordinates": [-115.12712, 36.14516]}},
{"type": "Feature", "id": "qULObt2tcCZUQ8aB3z6rseGvuKk=", "properties": {"ref": "2109", "sells": "All", "@spider": "auto_nation", "addr:full": "5720 West Sahara Avenue", "addr:city": "Las Vegas", "addr:state": "NV", "addr:postcode": "89146", "addr:country": "US", "name": "AutoNation Collision Center Las Vegas", "phone": "(702) 570-0284", "website": "https://www.autonation.com/dealers/collision-center-las-vegas-nv", "opening_hours": "Mo-Fr 07:30-18:00; Sa 08:00-12:00", "brand": "Auto Nation", "brand:wikidata": "Q784804"}, "geometry": {"type": "Point", "coordinates": [-115.21994, 36.14532]}},
{"type": "Feature", "id": "Rtr2VVCe-ZryM9Ylwq_IxShUatM=", "properties": {"ref": "2174", "sells": "MINI", "@spider": "auto_nation", "addr:full": "5750 West Sahara Avenue", "addr:city": "Las Vegas", "addr:state": "NV", "addr:postcode": "89146", "addr:country": "US", "name": "MINI of Las Vegas", "phone": "(702) 570-1009", "website": "https://www.autonation.com/dealers/mini-las-vegas-nv", "opening_hours": "Mo-Sa 09:00-21:00", "brand": "Auto Nation", "brand:wikidata": "Q784804"}, "geometry": {"type": "Point", "coordinates": [-115.22042, 36.145345]}},
{"type": "Feature", "id": "XQW2iylml_2pMItxMu9X5YmsFJY=", "properties": {"ref": "2071", "sells": "Nissan", "@spider": "auto_nation", "addr:full": "5800 West Sahara Avenue", "addr:city": "Las Vegas", "addr:state": "NV", "addr:postcode": "89146", "addr:country": "US", "name": "AutoNation Nissan Las Vegas", "phone": "(702) 570-1013", "website": "https://www.autonation.com/dealers/nissan-las-vegas-nv", "opening_hours": "Mo-Sa 09:00-21:00", "brand": "Auto Nation", "brand:wikidata": "Q784804"}, "geometry": {"type": "Point", "coordinates": [-115.22206, 36.145437]}},
{"type": "Feature", "id": "gCbhs1Pm7aTXnt8ZiCBYi3x_DZg=", "properties": {"ref": "2079", "sells": "Audi", "@spider": "auto_nation", "addr:full": "6335 West Sahara Avenue", "addr:city": "Las Vegas", "addr:state": "NV", "addr:postcode": "89146", "addr:country": "US", "name": "Audi Las Vegas", "phone": "(702) 570-0276", "website": "https://www.autonation.com/dealers/audi-las-vegas", "opening_hours": "Mo-Sa 09:00-21:00", "brand": "Auto Nation", "brand:wikidata": "Q784804"}, "geometry": {"type": "Point", "coordinates": [-115.230185, 36.143394]}},
{"type": "Feature", "id": "RXQ47OmD4Mz6awGwn9odFjdmo9U=", "properties": {"ref": "2073", "sells": "Volkswagen", "@spider": "auto_nation", "addr:full": "6375 West Sahara Avenue", "addr:city": "Las Vegas", "addr:state": "NV", "addr:postcode": "89146", "addr:country": "US", "name": "AutoNation Volkswagen Las Vegas", "phone": "(702) 605-5802", "website": "https://www.autonation.com/dealers/volkswagen-las-vegas-nv", "opening_hours": "Mo-Sa 09:00-21:00", "brand": "Auto Nation", "brand:wikidata": "Q784804"}, "geometry": {"type": "Point", "coordinates": [-115.23116, 36.14312]}},
{"type": "Feature", "id": "twjpMYQ1iYqksykb0bPa7enq2Ak=", "properties": {"ref": "2070", "sells": "Scion, Toyota", "@spider": "auto_nation", "addr:full": "6300 West Sahara Avenue", "addr:city": "Las Vegas", "addr:state": "NV", "addr:postcode": "89146", "addr:country": "US", "name": "AutoNation Toyota Las Vegas", "phone": "(702) 605-5801", "website": "https://www.autonation.com/dealers/toyota-las-vegas-nv", "opening_hours": "Mo-Sa 09:00-21:00", "brand": "Auto Nation", "brand:wikidata": "Q784804"}, "geometry": {"type": "Point", "coordinates": [-115.23071, 36.14523]}},
{"type": "Feature", "id": "mPhGGygQl1hdg5x4I612zqLRGWE=", "properties": {"ref": "2040", "sells": "Buick, GMC", "@spider": "auto_nation", "addr:full": "6400 West Sahara Avenue", "addr:city": "Las Vegas", "addr:state": "NV", "addr:postcode": "89146", "addr:country": "US", "name": "AutoNation Buick GMC West Sahara", "phone": "(702) 605-5808", "website": "https://www.autonation.com/dealers/buick-gmc-west-sahara", "opening_hours": "Mo-Sa 09:00-21:00", "brand": "Auto Nation", "brand:wikidata": "Q784804"}, "geometry": {"type": "Point", "coordinates": [-115.23509, 36.14475]}},
{"type": "Feature", "id": "B6Uw4_cVRlQie5UW6dRbaGrNmeM=", "properties": {"ref": "2074", "sells": "BMW", "@spider": "auto_nation", "addr:full": "6900 West Sahara Avenue", "addr:city": "Las Vegas", "addr:state": "NV", "addr:postcode": "89117", "addr:country": "US", "name": "BMW of Las Vegas", "phone": "(702) 570-0279", "website": "https://www.autonation.com/dealers/bmw-las-vegas", "opening_hours": "Mo-Sa 09:00-21:00", "brand": "Auto Nation", "brand:wikidata": "Q784804"}, "geometry": {"type": "Point", "coordinates": [-115.24426, 36.14512]}},
{"type": "Feature", "id": "5aUmBRTdCxWV_gOSVrtud9_6uVE=", "properties": {"ref": "2930", "sells": "Scion, Toyota", "@spider": "auto_nation", "addr:full": "4050 Weston Road", "addr:city": "Davie", "addr:state": "FL", "addr:postcode": "33331", "addr:country": "US", "name": "AutoNation Toyota Weston", "phone": "(954) 644-4867", "website": "https://www.autonation.com/dealers/toyota-weston-fl", "opening_hours": "Mo-Sa 09:00-21:00; Su 11:00-19:00", "brand": "Auto Nation", "brand:wikidata": "Q784804"}, "geometry": {"type": "Point", "coordinates": [-80.360971, 26.070731]}},
{"type": "Feature", "id": "xNzK6DBVkkY-ze6XU5A_VKqMm5Q=", "properties": {"ref": "2945", "sells": "Lexus", "@spider": "auto_nation", "addr:full": "5700 Okeechobee Boulevard", "addr:city": "West Palm Beach", "addr:state": "FL", "addr:postcode": "33417", "addr:country": "US", "name": "Lexus of Palm Beach", "phone": "(561) 291-6004", "website": "https://www.autonation.com/dealers/lexus-palm-beach-fl", "opening_hours": "Mo-Fr 09:00-21:00; Sa 09:00-19:00; Su 12:00-17:00", "brand": "Auto Nation", "brand:wikidata": "Q784804"}, "geometry": {"type": "Point", "coordinates": [-80.130632, 26.705072]}},
{"type": "Feature", "id": "t6LES8gRAojIoh-_8EVzWMEsMuI=", "properties": {"ref": "2348", "sells": "Cadillac", "@spider": "auto_nation", "addr:full": "2101 45th Street", "addr:city": "West Palm Beach", "addr:state": "FL", "addr:postcode": "33407", "addr:country": "US", "name": "AutoNation Cadillac West Palm Beach", "phone": "(561) 291-6025", "website": "https://www.autonation.com/dealers/cadillac-west-palm-beach", "opening_hours": "Mo-Fr 09:00-21:00; Sa 09:00-19:00; Su 12:00-17:00", "brand": "Auto Nation", "brand:wikidata": "Q784804"}, "geometry": {"type": "Point", "coordinates": [-80.085127, 26.759896]}},
{"type": "Feature", "id": "LHaOdx-ZzYq98Y0QKLPJa8Aj-8I=", "properties": {"ref": "2140", "sells": "Chevrolet", "@spider": "auto_nation", "addr:full": "5757 Lake Worth Road", "addr:city": "Greenacres", "addr:state": "FL", "addr:postcode": "33463", "addr:country": "US", "name": "AutoNation Chevrolet Greenacres", "phone": "(561) 291-6054", "website": "https://www.autonation.com/dealers/chevrolet-greenacres-fl", "opening_hours": "Mo-Sa 09:00-21:00; Su 12:00-17:00", "brand": "Auto Nation", "brand:wikidata": "Q784804"}, "geometry": {"type": "Point", "coordinates": [-80.13209, 26.62003]}},
{"type": "Feature", "id": "7-lrKQedzp5MS5oeJ8114crm93k=", "properties": {"ref": "2636", "sells": "", "@spider": "auto_nation", "addr:full": "5757 Lake Worth Road", "addr:city": "Greenacres", "addr:state": "FL", "addr:postcode": "33466", "addr:country": "US", "name": "AutoNation Collision Center Greenacres", "phone": "(561) 491-2314", "website": "https://www.autonation.com/dealers/collision-center-greenacres-fl", "opening_hours": "Mo-Fr 08:00-18:00; Sa 08:00-12:00", "brand": "Auto Nation", "brand:wikidata": "Q784804"}, "geometry": {"type": "Point", "coordinates": [-80.13209, 26.62003]}},
{"type": "Feature", "id": "tq2KD6APE1cM6pBsrR6xXuS1ZX8=", "properties": {"ref": "2590", "sells": "Mercedes-Benz", "@spider": "auto_nation", "addr:full": "14199 Pines Boulevard", "addr:city": "Pembroke Pines", "addr:state": "FL", "addr:postcode": "33027", "addr:country": "US", "name": "Mercedes-Benz of Pembroke Pines", "phone": "(954) 644-5035", "website": "https://www.autonation.com/dealers/mercedes-benz-pembroke-pines-fl", "opening_hours": "Mo-Fr 09:00-21:00; Sa 09:00-19:00; Su 12:00-17:00", "brand": "Auto Nation", "brand:wikidata": "Q784804"}, "geometry": {"type": "Point", "coordinates": [-80.33203, 26.00882]}},
{"type": "Feature", "id": "q1nQ48WelaA6z9kfPXzyPAHlfU4=", "properties": {"ref": "2940", "sells": "Chrysler, Dodge, Jeep, Ram", "@spider": "auto_nation", "addr:full": "13601 Pines Boulevard", "addr:city": "Pembroke Pines", "addr:state": "FL", "addr:postcode": "33027", "addr:country": "US", "name": "AutoNation Chrysler Dodge Jeep Ram Pembroke Pines", "phone": "(954) 446-8775", "website": "https://www.autonation.com/dealers/chrysler-dodge-jeep-ram-pembroke-pines-fl", "opening_hours": "Mo-Sa 09:00-21:00; Su 11:00-19:00", "brand": "Auto Nation", "brand:wikidata": "Q784804"}, "geometry": {"type": "Point", "coordinates": [-80.329722, 26.008807]}},
{"type": "Feature", "id": "rSfs0X8VG00cZ8Pbw6z0nSxuggA=", "properties": {"ref": "2123", "sells": "Mercedes-Benz", "@spider": "auto_nation", "addr:full": "4250 N. State Road 7", "addr:city": "Coconut Creek", "addr:state": "FL", "addr:postcode": "33073", "addr:country": "US", "name": "Mercedes-Benz of Coconut Creek", "phone": "(954) 406-1167", "website": "https://www.autonation.com/dealers/mercedes-benz-coconut-creek-fl", "opening_hours": "Mo-Fr 09:00-21:00; Sa 09:00-19:00; Su 12:00-17:00", "brand": "Auto Nation", "brand:wikidata": "Q784804"}, "geometry": {"type": "Point", "coordinates": [-80.200467, 26.281212]}},
{"type": "Feature", "id": "aY_7NAKiaZ5St17uuXTqoTTT2Zw=", "properties": {"ref": "2130", "sells": "Ford", "@spider": "auto_nation", "addr:full": "5401 W Copans Road", "addr:city": "Margate", "addr:state": "FL", "addr:postcode": "33063", "addr:country": "US", "name": "AutoNation Ford Margate", "phone": "(954) 644-4976", "website": "https://www.autonation.com/dealers/ford-margate-fl", "opening_hours": "Mo-Sa 09:00-21:00; Su 12:00-19:00", "brand": "Auto Nation", "brand:wikidata": "Q784804"}, "geometry": {"type": "Point", "coordinates": [-80.199018, 26.255274]}},
{"type": "Feature", "id": "ab3L_57d9FMilcBS5nrT_M3y4nw=", "properties": {"ref": "2577", "sells": "", "@spider": "auto_nation", "addr:full": "5355 NW 24th St.", "addr:city": "Margate", "addr:state": "FL", "addr:postcode": "33063", "addr:country": "US", "name": "AutoNation Collision Center Margate", "phone": "(954) 949-0696", "website": "https://www.autonation.com/dealers/collision-center-margate-fl", "opening_hours": "Mo-Fr 08:00-18:00; Sa 08:00-12:00", "brand": "Auto Nation", "brand:wikidata": "Q784804"}, "geometry": {"type": "Point", "coordinates": [-80.19662, 26.25826]}},
{"type": "Feature", "id": "m3YVys2aSs5QQj97qLUSzbU300s=", "properties": {"ref": "2330", "sells": "Honda", "@spider": "auto_nation", "addr:full": "5925 NW 167th Street", "addr:city": "Miami Lakes", "addr:state": "FL", "addr:postcode": "33015", "addr:country": "US", "name": "AutoNation Honda Miami Lakes", "phone": "(305) 707-0143", "website": "https://www.autonation.com/dealers/honda-miami-lakes", "opening_hours": "Mo-Sa 09:00-21:00; Su 11:00-19:00", "brand": "Auto Nation", "brand:wikidata": "Q784804"}, "geometry": {"type": "Point", "coordinates": [-80.297932, 25.926179]}},
{"type": "Feature", "id": "y6WeZHtegtnsgvDE5HUP6DEvKJA=", "properties": {"ref": "2335", "sells": "Ford", "@spider": "auto_nation", "addr:full": "16800 NW 57th Avenue", "addr:city": "Miami Lakes", "addr:state": "FL", "addr:postcode": "33015", "addr:country": "US", "name": "AutoNation Ford Miami", "phone": "(305) 707-0141", "website": "https://www.autonation.com/dealers/ford-miami-fl", "opening_hours": "Mo-Sa 09:00-21:00; Su 11:00-19:00", "brand": "Auto Nation", "brand:wikidata": "Q784804"}, "geometry": {"type": "Point", "coordinates": [-80.29453, 25.92666]}},
{"type": "Feature", "id": "2U600_lw1oPJFzCHR4kgceyJpDc=", "properties": {"ref": "2416", "sells": "Nissan", "@spider": "auto_nation", "addr:full": "8890 Pines Boulevard", "addr:city": "Pembroke Pines", "addr:state": "FL", "addr:postcode": "33024", "addr:country": "US", "name": "AutoNation Nissan Pembroke Pines", "phone": "(954) 949-0421", "website": "https://www.autonation.com/dealers/nissan-pembroke-pines-fl", "opening_hours": "Mo-Sa 09:00-21:00; Su 11:00-19:00", "brand": "Auto Nation", "brand:wikidata": "Q784804"}, "geometry": {"type": "Point", "coordinates": [-80.262802, 26.007635]}},
{"type": "Feature", "id": "2eSqOba-r0gIuKit9l2HqwSsGiY=", "properties": {"ref": "2269", "sells": "Chevrolet", "@spider": "auto_nation", "addr:full": "8600 Pines Boulevard", "addr:city": "Pembroke Pines", "addr:state": "FL", "addr:postcode": "33024", "addr:country": "US", "name": "AutoNation Chevrolet Pembroke Pines", "phone": "(954) 644-5038", "website": "https://www.autonation.com/dealers/chevrolet-pembroke-pines-fl", "opening_hours": "Mo-Sa 09:00-21:00; Su 11:00-19:00", "brand": "Auto Nation", "brand:wikidata": "Q784804"}, "geometry": {"type": "Point", "coordinates": [-80.25953, 26.00773]}},
{"type": "Feature", "id": "y3vdWtjkozDstNFeFBqTstoP6e0=", "properties": {"ref": "2574", "sells": "", "@spider": "auto_nation", "addr:full": "8600 Pines Boulevard", "addr:city": "Pembroke Pines", "addr:state": "FL", "addr:postcode": "33024", "addr:country": "US", "name": "AutoNation Collision Center Pembroke Pines", "phone": "(954) 644-5030", "website": "https://www.autonation.com/dealers/collision-center-pembroke-pines-fl", "opening_hours": "Mo-Fr 08:00-18:00; Sa 08:00-12:00", "brand": "Auto Nation", "brand:wikidata": "Q784804"}, "geometry": {"type": "Point", "coordinates": [-80.25953, 26.00773]}},
{"type": "Feature", "id": "Oemj0l1dUNj6fQ_na992Sl2Sd2Y=", "properties": {"ref": "2334", "sells": "Chevrolet", "@spider": "auto_nation", "addr:full": "1201 NW 89th Court", "addr:city": "Miami", "addr:state": "FL", "addr:postcode": "33172", "addr:country": "US", "name": "AutoNation Chevrolet Doral", "phone": "(786) 416-6002", "website": "https://www.autonation.com/dealers/chevrolet-doral", "opening_hours": "Mo-Sa 09:00-21:00; Su 11:00-19:00", "brand": "Auto Nation", "brand:wikidata": "Q784804"}, "geometry": {"type": "Point", "coordinates": [-80.339818, 25.783748]}},
{"type": "Feature", "id": "6utAaa450Dtetb8mWrJVvlzI8DM=", "properties": {"ref": "2947", "sells": "BMW", "@spider": "auto_nation", "addr:full": "1311 Linton Boulevard", "addr:city": "Delray Beach", "addr:state": "FL", "addr:postcode": "33444", "addr:country": "US", "name": "BMW of Delray Beach", "phone": "(561) 491-2329", "website": "https://www.autonation.com/dealers/bmw-delray-beach", "opening_hours": "Mo-Fr 09:00-21:00; Sa 09:00-19:00; Su 12:00-17:00", "brand": "Auto Nation", "brand:wikidata": "Q784804"}, "geometry": {"type": "Point", "coordinates": [-80.087295, 26.440768]}},
{"type": "Feature", "id": "j7exoW-_gexUFkXl11ivH_C8fCE=", "properties": {"ref": "2087", "sells": "Mercedes-Benz", "@spider": "auto_nation", "addr:full": "1001 Linton Boulevard", "addr:city": "Delray Beach", "addr:state": "FL", "addr:postcode": "33444", "addr:country": "US", "name": "Mercedes-Benz of Delray", "phone": "(561) 291-6095", "website": "https://www.autonation.com/dealers/mercedes-benz-delray", "opening_hours": "Mo-Fr 09:00-21:00; Sa 09:00-19:00; Su 12:00-17:00", "brand": "Auto Nation", "brand:wikidata": "Q784804"}, "geometry": {"type": "Point", "coordinates": [-80.083673, 26.44218]}},
{"type": "Feature", "id": "PpjKjVuOMuaBWvhl2ltx9JA44VI=", "properties": {"ref": "2439", "sells": "", "@spider": "auto_nation", "addr:full": "1475 SW 4th Avenue", "addr:city": "Delray Beach", "addr:state": "FL", "addr:postcode": "33444", "addr:country": "US", "name": "AutoNation Collision Center Delray", "phone": "(561) 491-2347", "website": "https://www.autonation.com/dealers/collision-center-delray-beach-fl", "opening_hours": "Mo-Fr 08:00-18:00; Sa 08:00-12:00", "brand": "Auto Nation", "brand:wikidata": "Q784804"}, "geometry": {"type": "Point", "coordinates": [-80.07563, 26.441837]}},
{"type": "Feature", "id": "NqwMeGwaXolFQqgTfTQoLgCgO5Y=", "properties": {"ref": "2054", "sells": "Land Rover", "@spider": "auto_nation", "addr:full": "400 W. Copans Road", "addr:city": "Pompano Beach", "addr:state": "FL", "addr:postcode": "33064", "addr:country": "US", "name": "Jaguar Land Rover Fort Lauderdale", "phone": "(954) 949-0654", "website": "https://www.autonation.com/dealers/Jaguar-land-rover-fort-lauderdale", "opening_hours": "Mo-Fr 09:00-21:00; Sa 09:00-19:00; Su 12:00-17:00", "brand": "Auto Nation", "brand:wikidata": "Q784804"}, "geometry": {"type": "Point", "coordinates": [-80.130904, 26.258791]}},
{"type": "Feature", "id": "PoIHe7GYdNJfousfvINhUGHJQFI=", "properties": {"ref": "2406", "sells": "Mercedes-Benz", "@spider": "auto_nation", "addr:full": "350 West Copans Road", "addr:city": "Pompano Beach", "addr:state": "FL", "addr:postcode": "33064", "addr:country": "US", "name": "Mercedes-Benz of Pompano", "phone": "(954) 644-4832", "website": "https://www.autonation.com/dealers/mercedes-benz-pompano-beach-fl", "opening_hours": "Mo-Fr 09:00-21:00; Sa 09:00-19:00; Su 12:00-17:00", "brand": "Auto Nation", "brand:wikidata": "Q784804"}, "geometry": {"type": "Point", "coordinates": [-80.12787, 26.26003]}},
{"type": "Feature", "id": "5V-aF8NmuaNLVzKSnDe-pPHxe84=", "properties": {"ref": "2045", "sells": "Honda", "@spider": "auto_nation", "addr:full": "2400 North State Road 7", "addr:city": "Hollywood", "addr:state": "FL", "addr:postcode": "33021", "addr:country": "US", "name": "AutoNation Honda Hollywood", "phone": "(954) 644-5033", "website": "https://www.autonation.com/dealers/honda-hollywood-fl", "opening_hours": "Mo-Sa 09:00-21:00; Su 11:00-19:00", "brand": "Auto Nation", "brand:wikidata": "Q784804"}, "geometry": {"type": "Point", "coordinates": [-80.209412, 26.031053]}},
{"type": "Feature", "id": "8GVME34KOmdKr2UScDuSy0N_p3w=", "properties": {"ref": "2629", "sells": "", "@spider": "auto_nation", "addr:full": "2400 N State Road 7", "addr:city": "Hollywood", "addr:state": "FL", "addr:postcode": "33021", "addr:country": "US", "name": "AutoNation Collision Center Hollywood", "phone": "(954) 949-0707", "website": "https://www.autonation.com/dealers/collision-center-hollywood-fl", "opening_hours": "Mo-Fr 08:00-18:00; Sa 08:00-12:00", "brand": "Auto Nation", "brand:wikidata": "Q784804"}, "geometry": {"type": "Point", "coordinates": [-80.20943, 26.0307]}},
{"type": "Feature", "id": "LQn8QJ6GTeSmgCnyXtPfTCwo51E=", "properties": {"ref": "2580", "sells": "", "@spider": "auto_nation", "addr:full": "1400 NW 159TH Street, Suite 100-105", "addr:city": "Miami Gardens", "addr:state": "FL", "addr:postcode": "33169", "addr:country": "US", "name": "AutoNation Collision Center Airport Miami", "phone": "(786) 924-0582", "website": "https://www.autonation.com/dealers/collision-center-airport-miami", "opening_hours": "Mo-Fr 08:00-18:00; Sa 08:00-12:00", "brand": "Auto Nation", "brand:wikidata": "Q784804"}, "geometry": {"type": "Point", "coordinates": [-80.222718, 25.919071]}},
{"type": "Feature", "id": "YwjVFGIcTiWH5jMC8gL7y2HJadU=", "properties": {"ref": "2370", "sells": "Mercedes-Benz", "@spider": "auto_nation", "addr:full": "1200 NW 167th Street", "addr:city": "Miami", "addr:state": "FL", "addr:postcode": "33169", "addr:country": "US", "name": "Mercedes-Benz of Miami", "phone": "(305) 707-0147", "website": "https://www.autonation.com/dealers/mercedes-benz-miami-fl", "opening_hours": "Mo-Fr 09:00-21:00; Sa 09:00-19:00; Su 12:00-17:00", "brand": "Auto Nation", "brand:wikidata": "Q784804"}, "geometry": {"type": "Point", "coordinates": [-80.219725, 25.926345]}},
{"type": "Feature", "id": "hSSW2orB-FuEPetgUxatZFbNRKU=", "properties": {"ref": "2941", "sells": "Mercedes-Benz, Nissan", "@spider": "auto_nation", "addr:full": "122 SW 22nd St.", "addr:city": "Ft. Lauderdale", "addr:state": "FL", "addr:postcode": "33315", "addr:country": "US", "name": "AutoNation Collision Center Fort Lauderdale South", "phone": "(954) 734-7318", "website": "https://www.autonation.com/dealers/collision-center-ft-lauderdale-south", "opening_hours": "Mo-Fr 08:00-18:00; Sa 08:00-12:00", "brand": "Auto Nation", "brand:wikidata": "Q784804"}, "geometry": {"type": "Point", "coordinates": [-80.1414, 26.09437]}},
{"type": "Feature", "id": "YdyNRhiJvUjz_vwNssPHWnZAgnw=", "properties": {"ref": "2165", "sells": "Mercedes-Benz", "@spider": "auto_nation", "addr:full": "2411 South Federal Highway", "addr:city": "Ft. Lauderdale", "addr:state": "FL", "addr:postcode": "33316", "addr:country": "US", "name": "Mercedes-Benz of Fort Lauderdale", "phone": "(954) 949-0623", "website": "https://www.autonation.com/dealers/mercedes-benz-ft-lauderdale-fl", "opening_hours": "Mo-Fr 09:00-21:00; Sa 09:00-19:00; Su 12:00-17:00", "brand": "Auto Nation", "brand:wikidata": "Q784804"}, "geometry": {"type": "Point", "coordinates": [-80.137595, 26.091747]}},
{"type": "Feature", "id": "3K-imOAdKz6fNZEA8mq5G24qTH4=", "properties": {"ref": "2461", "sells": "Chevrolet", "@spider": "auto_nation", "addr:full": "4181 SW 8th Street", "addr:city": "Miami", "addr:state": "FL", "addr:postcode": "33134", "addr:country": "US", "name": "AutoNation Chevrolet Coral Gables", "phone": "(305) 707-0139", "website": "https://www.autonation.com/dealers/chevrolet-coral-gables", "opening_hours": "Mo-Sa 09:00-21:00; Su 11:00-19:00", "brand": "Auto Nation", "brand:wikidata": "Q784804"}, "geometry": {"type": "Point", "coordinates": [-80.261498, 25.764771]}},
{"type": "Feature", "id": "73A0YYeqBEYQhpXWJ-NjrL9pGrs=", "properties": {"ref": "2890", "sells": "Nissan", "@spider": "auto_nation", "addr:full": "3345 SW 8th Street", "addr:city": "Miami", "addr:state": "FL", "addr:postcode": "33135", "addr:country": "US", "name": "AutoNation Nissan Miami", "phone": "(305) 707-0145", "website": "https://www.autonation.com/dealers/nissan-miami-fl", "opening_hours": "Mo-Sa 09:00-21:00; Su 11:00-19:00", "brand": "Auto Nation", "brand:wikidata": "Q784804"}, "geometry": {"type": "Point", "coordinates": [-80.250775, 25.764849]}},
{"type": "Feature", "id": "z2-iJGgCXW1jeKTlzvhCubEG7VM=", "properties": {"ref": "2080", "sells": "BMW", "@spider": "auto_nation", "addr:full": "1302 Encinitas Boulevard", "addr:city": "Encinitas", "addr:state": "CA", "addr:postcode": "92024", "addr:country": "US", "name": "BMW Encinitas", "phone": "(760) 335-6124", "website": "https://www.autonation.com/dealers/bmw-encinitas", "opening_hours": "Mo-Fr 09:00-21:00; Sa 08:30-21:00; Su 10:00-18:00", "brand": "Auto Nation", "brand:wikidata": "Q784804"}, "geometry": {"type": "Point", "coordinates": [-117.262522, 33.04659]}},
{"type": "Feature", "id": "nFYQ_IAWz5HylRSkvGY_5V0QDHU=", "properties": {"ref": "2456", "sells": "BMW", "@spider": "auto_nation", "addr:full": "1715 Hacienda Drive", "addr:city": "Vista", "addr:state": "CA", "addr:postcode": "92081", "addr:country": "US", "name": "BMW of Vista", "phone": "(760) 307-8202", "website": "https://www.autonation.com/dealers/bmw-vista", "opening_hours": "Mo-Sa 09:00-21:00; Su 10:00-18:00", "brand": "Auto Nation", "brand:wikidata": "Q784804"}, "geometry": {"type": "Point", "coordinates": [-117.273488, 33.190297]}},
{"type": "Feature", "id": "XTKma631pLpGZUPXaeEbZK5rScA=", "properties": {"ref": "2127", "sells": "Ford", "@spider": "auto_nation", "addr:full": "8000 Leavitt Road", "addr:city": "Amherst", "addr:state": "OH", "addr:postcode": "44001", "addr:country": "US", "name": "AutoNation Ford Amherst", "phone": "(440) 296-3021", "website": "https://www.autonation.com/dealers/ford-amherst-oh", "opening_hours": "Mo-Fr 09:00-21:00; Sa 09:00-18:00; Su 11:00-17:00", "brand": "Auto Nation", "brand:wikidata": "Q784804"}, "geometry": {"type": "Point", "coordinates": [-82.214035, 41.378876]}},
{"type": "Feature", "id": "mZAVUdILXYbpsiV0dCFspDChw6Y=", "properties": {"ref": "2623", "sells": "", "@spider": "auto_nation", "addr:full": "8000 Leavitt Road", "addr:city": "Amherst", "addr:state": "OH", "addr:postcode": "44001", "addr:country": "US", "name": "AutoNation Collision Center Amherst", "phone": "(440) 201-2379", "website": "https://www.autonation.com/dealers/collision-center-amherst-oh", "opening_hours": "Mo-Fr 08:00-18:00; Sa 08:00-12:00", "brand": "Auto Nation", "brand:wikidata": "Q784804"}, "geometry": {"type": "Point", "coordinates": [-82.213478, 41.379066]}},
{"type": "Feature", "id": "vlCK63bUXLxGhPrKxEVvWDQz688=", "properties": {"ref": "2598", "sells": "", "@spider": "auto_nation", "addr:full": "5600 Whipple Avenue NW", "addr:city": "North Canton", "addr:state": "OH", "addr:postcode": "44720", "addr:country": "US", "name": "AutoNation Collision Center North Canton", "phone": "(330) 541-5618", "website": "https://www.autonation.com/dealers/collision-center-north-canton-oh", "opening_hours": "Mo-Fr 08:00-18:00; Sa 08:00-12:00", "brand": "Auto Nation", "brand:wikidata": "Q784804"}, "geometry": {"type": "Point", "coordinates": [-81.421696, 40.86352]}},
{"type": "Feature", "id": "1N7QuL42NpD9Orgn1t-8tuciSbY=", "properties": {"ref": "2129", "sells": "Ford", "@spider": "auto_nation", "addr:full": "5900 Whipple Avenue", "addr:city": "North Canton", "addr:state": "OH", "addr:postcode": "44720", "addr:country": "US", "name": "AutoNation Ford North Canton", "phone": "(330) 238-3206", "website": "https://www.autonation.com/dealers/ford-north-canton", "opening_hours": "Mo-Fr 09:00-21:00; Sa 09:00-18:00; Su 11:00-17:00", "brand": "Auto Nation", "brand:wikidata": "Q784804"}, "geometry": {"type": "Point", "coordinates": [-81.419861, 40.867294]}},
{"type": "Feature", "id": "WJvxwE9Xo3SQGbtzNfXfsmMBZXo=", "properties": {"ref": "2025", "sells": "Ford", "@spider": "auto_nation", "addr:full": "23775 Center Ridge Rd", "addr:city": "Westlake", "addr:state": "OH", "addr:postcode": "44145", "addr:country": "US", "name": "AutoNation Ford Westlake", "phone": "(440) 296-3019", "website": "https://www.autonation.com/dealers/ford-westlake-oh", "opening_hours": "Mo-Fr 09:00-21:00; Sa 09:00-18:00; Su 11:00-17:00", "brand": "Auto Nation", "brand:wikidata": "Q784804"}, "geometry": {"type": "Point", "coordinates": [-81.884897, 41.456663]}},
{"type": "Feature", "id": "9H2knAYj5C5xE3eWHs1p1VPy68M=", "properties": {"ref": "2897", "sells": "", "@spider": "auto_nation", "addr:full": "23775 Center Ridge Rd", "addr:city": "Westlake", "addr:state": "OH", "addr:postcode": "44145", "addr:country": "US", "name": "AutoNation Collision Center Westlake", "phone": "(440) 201-2347", "website": "https://www.autonation.com/dealers/collision-center-westlake-oh", "opening_hours": "Mo-Fr 08:00-18:00; Sa 08:00-12:00", "brand": "Auto Nation", "brand:wikidata": "Q784804"}, "geometry": {"type": "Point", "coordinates": [-81.884021, 41.456864]}},
{"type": "Feature", "id": "oRYEHzbN27jFDXRunDpDmCSfHnM=", "properties": {"ref": "2751", "sells": "Porsche", "@spider": "auto_nation", "addr:full": "14500 Scientific Way", "addr:city": "Irvine", "addr:state": "CA", "addr:postcode": "92618", "addr:country": "US", "name": "Porsche Irvine", "phone": "(949) 423-3005", "website": "https://www.autonation.com/dealers/porsche-irvine-ca", "opening_hours": "Mo-Fr 09:00-20:00; Sa 09:00-19:00; Su 10:00-18:00", "brand": "Auto Nation", "brand:wikidata": "Q784804"}, "geometry": {"type": "Point", "coordinates": [-117.729217, 33.635142]}},
{"type": "Feature", "id": "LCZutxKFyRW5rjuHrnpzPo4aHOM=", "properties": {"ref": "2561", "sells": "Scion, Toyota", "@spider": "auto_nation", "addr:full": "9101 Research Drive", "addr:city": "Irvine", "addr:state": "CA", "addr:postcode": "92618", "addr:country": "US", "name": "AutoNation Toyota Irvine", "phone": "(949) 287-8766", "website": "https://www.autonation.com/dealers/toyota-irvine-ca", "opening_hours": "Mo-Sa 09:00-21:00; Su 10:00-18:00", "brand": "Auto Nation", "brand:wikidata": "Q784804"}, "geometry": {"type": "Point", "coordinates": [-117.735285, 33.640758]}},
{"type": "Feature", "id": "sqraHA95uDYUiMTAJE5GhXdINU8=", "properties": {"ref": "2682", "sells": "Infiniti", "@spider": "auto_nation", "addr:full": "33 Auto Center Drive", "addr:city": "Tustin", "addr:state": "CA", "addr:postcode": "92782", "addr:country": "US", "name": "AutoNation INFINITI Tustin", "phone": "(714) 627-5556", "website": "https://www.autonation.com/dealers/infiniti-tustin-ca", "opening_hours": "Mo-Sa 09:00-21:00; Su 10:00-18:00", "brand": "Auto Nation", "brand:wikidata": "Q784804"}, "geometry": {"type": "Point", "coordinates": [-117.798765, 33.725854]}},
{"type": "Feature", "id": "y5_SRAxmC18KRtFC3Ej1T_JiAvQ=", "properties": {"ref": "2680", "sells": "Ford", "@spider": "auto_nation", "addr:full": "2 Auto Center Drive", "addr:city": "Tustin", "addr:state": "CA", "addr:postcode": "92782", "addr:country": "US", "name": "AutoNation Ford Tustin", "phone": "(714) 627-5558", "website": "https://www.autonation.com/dealers/ford-tustin-ca", "opening_hours": "Mo-Sa 09:00-21:00; Su 10:00-20:00", "brand": "Auto Nation", "brand:wikidata": "Q784804"}, "geometry": {"type": "Point", "coordinates": [-117.79965, 33.72644]}},
{"type": "Feature", "id": "K4EIXLAupzecoTb908dYv3qN0V4=", "properties": {"ref": "2445", "sells": "Bentley, Porsche", "@spider": "auto_nation", "addr:full": "445 East Pacific Coast Highway", "addr:city": "Newport Beach", "addr:state": "CA", "addr:postcode": "92660", "addr:country": "US", "name": "Newport Auto Center", "phone": "(949) 478-0590", "website": "https://www.autonation.com/dealers/bentley-porsche-newport-beach", "opening_hours": "Mo-Fr 08:30-20:00; Sa 10:00-19:00; Su 10:00-18:00", "brand": "Auto Nation", "brand:wikidata": "Q784804"}, "geometry": {"type": "Point", "coordinates": [-117.899435, 33.615215]}},
{"type": "Feature", "id": "0V7x15Wa3ZqI3JqXvF0hLD7ryxs=", "properties": {"ref": "2443", "sells": "Honda", "@spider": "auto_nation", "addr:full": "2888 Harbor Boulevard", "addr:city": "Costa Mesa", "addr:state": "CA", "addr:postcode": "92626", "addr:country": "US", "name": "AutoNation Honda Costa Mesa", "phone": "(714) 627-5559", "website": "https://www.autonation.com/dealers/honda-costa-mesa-ca", "opening_hours": "Mo-Sa 09:00-21:00; Su 10:00-20:00", "brand": "Auto Nation", "brand:wikidata": "Q784804"}, "geometry": {"type": "Point", "coordinates": [-117.91813, 33.67661]}},
{"type": "Feature", "id": "cBy0nqcGG7JwkIrB2kup6v9LpA8=", "properties": {"ref": "2605", "sells": "Mercedes-Benz", "@spider": "auto_nation", "addr:full": "6862 Auto Center Drive", "addr:city": "Buena Park", "addr:state": "CA", "addr:postcode": "90621", "addr:country": "US", "name": "House of Imports", "phone": "(714) 627-5553", "website": "https://www.autonation.com/dealers/house-of-imports", "opening_hours": "Mo-Sa 09:00-21:00; Su 10:00-18:00", "brand": "Auto Nation", "brand:wikidata": "Q784804"}, "geometry": {"type": "Point", "coordinates": [-117.98791, 33.86112]}},
{"type": "Feature", "id": "V0Yq8jncQbhmUb7yMTdtDTcapx0=", "properties": {"ref": "2128", "sells": "Ford", "@spider": "auto_nation", "addr:full": "28825 Euclid Avenue", "addr:city": "Wickliffe", "addr:state": "OH", "addr:postcode": "44092", "addr:country": "US", "name": "AutoNation Ford East", "phone": "(440) 296-3020", "website": "https://www.autonation.com/dealers/ford-east-oh", "opening_hours": "Mo-Fr 09:00-21:00; Sa 09:00-18:00; Su 11:00-17:00", "brand": "Auto Nation", "brand:wikidata": "Q784804"}, "geometry": {"type": "Point", "coordinates": [-81.483292, 41.602168]}},
{"type": "Feature", "id": "B-bPqJPWLG64-9Opl0CCOIRQtHM=", "properties": {"ref": "2745", "sells": "BMW", "@spider": "auto_nation", "addr:full": "6750 Auto Center Drive", "addr:city": "Buena Park", "addr:state": "CA", "addr:postcode": "90621", "addr:country": "US", "name": "BMW of Buena Park", "phone": "(714) 598-3738", "website": "https://www.autonation.com/dealers/bmw-buena-park", "opening_hours": "Mo-Sa 09:00-21:00; Su 10:00-18:00", "brand": "Auto Nation", "brand:wikidata": "Q784804"}, "geometry": {"type": "Point", "coordinates": [-117.988653, 33.862667]}},
{"type": "Feature", "id": "-IQBqhdw2gyEwHIr8M0aMNpVefE=", "properties": {"ref": "2563", "sells": "Scion, Toyota", "@spider": "auto_nation", "addr:full": "6400 Beach Boulevard", "addr:city": "Buena Park", "addr:state": "CA", "addr:postcode": "90621", "addr:country": "US", "name": "AutoNation Toyota Buena Park", "phone": "(714) 627-5562", "website": "https://www.autonation.com/dealers/toyota-buena-park-ca", "opening_hours": "Mo-Sa 09:00-21:00; Su 10:00-18:00", "brand": "Auto Nation", "brand:wikidata": "Q784804"}, "geometry": {"type": "Point", "coordinates": [-117.996651, 33.866226]}},
{"type": "Feature", "id": "kqv-d0R7_sg2XEByyuOF8puDyYM=", "properties": {"ref": "2560", "sells": "Scion, Toyota", "@spider": "auto_nation", "addr:full": "18700 Studebaker Road", "addr:city": "Cerritos", "addr:state": "CA", "addr:postcode": "90703", "addr:country": "US", "name": "AutoNation Toyota Cerritos", "phone": "(562) 802-4000", "website": "https://www.autonation.com/dealers/toyota-cerritos-ca", "opening_hours": "Mo-Su 09:00-21:00", "brand": "Auto Nation", "brand:wikidata": "Q784804"}, "geometry": {"type": "Point", "coordinates": [-118.09848, 33.86198]}},
{"type": "Feature", "id": "KNleS7sv5keds5GpFTRxxb38FBc=", "properties": {"ref": "2564", "sells": "Lexus", "@spider": "auto_nation", "addr:full": "18800 Studebaker Road", "addr:city": "Cerritos", "addr:state": "CA", "addr:postcode": "90703", "addr:country": "US", "name": "Lexus of Cerritos", "phone": "(562) 263-7857", "website": "https://www.autonation.com/dealers/lexus-cerritos-ca", "opening_hours": "Mo-Fr 09:00-21:00; Sa 08:30-21:00; Su 09:00-21:00", "brand": "Auto Nation", "brand:wikidata": "Q784804"}, "geometry": {"type": "Point", "coordinates": [-118.098843, 33.860824]}},
{"type": "Feature", "id": "V4ueWcUT9yH-VF2r_iPF2oFVZa4=", "properties": {"ref": "2589", "sells": "Acura", "@spider": "auto_nation", "addr:full": "25341 Crenshaw Boulevard", "addr:city": "Torrance", "addr:state": "CA", "addr:postcode": "90505", "addr:country": "US", "name": "AutoNation Acura South Bay", "phone": "(310) 667-8231", "website": "https://www.autonation.com/dealers/acura-south-bay", "opening_hours": "Mo-Sa 09:00-21:00; Su 10:00-18:00", "brand": "Auto Nation", "brand:wikidata": "Q784804"}, "geometry": {"type": "Point", "coordinates": [-118.33054, 33.79397]}},
{"type": "Feature", "id": "C3NeKdL7qQunaZe79ClksHXCMVs=", "properties": {"ref": "2585", "sells": "Ford", "@spider": "auto_nation", "addr:full": "3111 Pacific Coast Highway", "addr:city": "Torrance", "addr:state": "CA", "addr:postcode": "90505", "addr:country": "US", "name": "AutoNation Ford Torrance", "phone": "(424) 253-4976", "website": "https://www.autonation.com/dealers/ford-torrance-ca", "opening_hours": "Mo-Sa 09:00-21:00; Su 10:00-18:00", "brand": "Auto Nation", "brand:wikidata": "Q784804"}, "geometry": {"type": "Point", "coordinates": [-118.339867, 33.798028]}},
{"type": "Feature", "id": "ImlCaQ54Nz8h4SyLgKsD1nhtTQk=", "properties": {"ref": "2441", "sells": "Jaguar, Land Rover", "@spider": "auto_nation", "addr:full": "3233 Pacific Coast Hwy", "addr:city": "Torrance", "addr:state": "CA", "addr:postcode": "90505", "addr:country": "US", "name": "Jaguar Land Rover South Bay", "phone": "(310) 975-6999", "website": "https://www.autonation.com/dealers/jaguar-land-rover-south-bay", "opening_hours": "Mo-Fr 09:00-20:00; Sa 09:00-19:00; Su 10:00-18:00", "brand": "Auto Nation", "brand:wikidata": "Q784804"}, "geometry": {"type": "Point", "coordinates": [-118.341956, 33.799607]}},
{"type": "Feature", "id": "FmgcNf-WErV_QgXiRBgNr5FbLOg=", "properties": {"ref": "2440", "sells": "Mercedes-Benz", "@spider": "auto_nation", "addr:full": "3311 Pacific Coast Highway", "addr:city": "Torrance", "addr:state": "CA", "addr:postcode": "90505", "addr:country": "US", "name": "Mercedes-Benz of South Bay", "phone": "(310) 513-5300", "website": "https://www.autonation.com/dealers/mercedes-benz-south-bay", "opening_hours": "Mo-Sa 09:00-21:00; Su 10:00-18:00", "brand": "Auto Nation", "brand:wikidata": "Q784804"}, "geometry": {"type": "Point", "coordinates": [-118.343475, 33.800915]}},
{"type": "Feature", "id": "TJTE61FZW0sunu7VIBEdZlT_3v8=", "properties": {"ref": "2691", "sells": "Honda", "@spider": "auto_nation", "addr:full": "23551 Magic Mountain Parkway", "addr:city": "Valencia", "addr:state": "CA", "addr:postcode": "91355", "addr:country": "US", "name": "AutoNation Honda Valencia", "phone": "(661) 200-9110", "website": "https://www.autonation.com/dealers/honda-valencia-ca", "opening_hours": "Mo-Sa 09:00-21:00; Su 10:00-18:00", "brand": "Auto Nation", "brand:wikidata": "Q784804"}, "geometry": {"type": "Point", "coordinates": [-118.546735, 34.415967]}},
{"type": "Feature", "id": "GX5rjQksmuBgEAPh9nso7T9JdV4=", "properties": {"ref": "2695", "sells": "BMW", "@spider": "auto_nation", "addr:full": "23435 Valencia Boulevard", "addr:city": "Valencia", "addr:state": "CA", "addr:postcode": "91355", "addr:country": "US", "name": "Valencia BMW", "phone": "(661) 200-9111", "website": "https://www.autonation.com/dealers/valencia-bmw", "opening_hours": "Mo-Sa 09:00-21:00; Su 10:00-18:00", "brand": "Auto Nation", "brand:wikidata": "Q784804"}, "geometry": {"type": "Point", "coordinates": [-118.549309, 34.420821]}},
{"type": "Feature", "id": "8o01rM9JMbjJTuqWLNxlzRKq0Y8=", "properties": {"ref": "2690", "sells": "Chevrolet", "@spider": "auto_nation", "addr:full": "23649 West Valencia Boulevard", "addr:city": "Valencia", "addr:state": "CA", "addr:postcode": "91355", "addr:country": "US", "name": "AutoNation Chevrolet Valencia", "phone": "(661) 200-9107", "website": "https://www.autonation.com/dealers/chevrolet-valencia-ca", "opening_hours": "Mo-Fr 09:00-21:00; Sa 10:00-20:00; Su 10:00-18:00", "brand": "Auto Nation", "brand:wikidata": "Q784804"}, "geometry": {"type": "Point", "coordinates": [-118.550532, 34.417283]}},
{"type": "Feature", "id": "1B7cPyLTVR0YbpfFpbxuSPJqQcM=", "properties": {"ref": "2865", "sells": "Chrysler, Dodge, Jeep, Ram", "@spider": "auto_nation", "addr:full": "23820 Creekside Rd", "addr:city": "Valencia", "addr:state": "CA", "addr:postcode": "91355", "addr:country": "US", "name": "AutoNation Chrysler Dodge Jeep Ram Valencia", "phone": "(661) 379-7709", "website": "https://www.autonation.com/dealers/chrysler-dodge-jeep-ram-valencia-ca", "opening_hours": "Mo-Sa 09:00-21:00; Su 10:00-18:00", "brand": "Auto Nation", "brand:wikidata": "Q784804"}, "geometry": {"type": "Point", "coordinates": [-118.55207, 34.41782]}},
{"type": "Feature", "id": "CLM2ZifiWr67CFmJk_wQTnmh7hI=", "properties": {"ref": "2121", "sells": "Ford", "@spider": "auto_nation", "addr:full": "23920 Creekside Road", "addr:city": "Valencia", "addr:state": "CA", "addr:postcode": "91355", "addr:country": "US", "name": "AutoNation Ford Valencia", "phone": "(661) 382-4700", "website": "https://www.autonation.com/dealers/ford-valencia-ca", "opening_hours": "Mo-Sa 09:00-21:00; Su 10:00-18:00", "brand": "Auto Nation", "brand:wikidata": "Q784804"}, "geometry": {"type": "Point", "coordinates": [-118.553229, 34.418025]}},
{"type": "Feature", "id": "Jwubji6GlxWuUzFYcmrHHBL8O3k=", "properties": {"ref": "2692", "sells": "Jaguar, Land Rover", "@spider": "auto_nation", "addr:full": "22006 Erwin Street", "addr:city": "Woodland Hills", "addr:state": "CA", "addr:postcode": "91367", "addr:country": "US", "name": "Jaguar Land Rover Woodland Hills", "phone": "(818) 861-9021", "website": "https://www.autonation.com/dealers/jaguar-land-rover-woodland-hills-ca", "opening_hours": "Mo-Fr 09:00-20:00; Sa 09:00-19:00; Su 10:00-18:00", "brand": "Auto Nation", "brand:wikidata": "Q784804"}, "geometry": {"type": "Point", "coordinates": [-118.606711, 34.182799]}},
{"type": "Feature", "id": "lKM87KnwsTRk1l7mGE9sUygpQrk=", "properties": {"ref": "2838", "sells": "Scion, Toyota", "@spider": "auto_nation", "addr:full": "1 Cardinal Park Drive, Southeast", "addr:city": "Leesburg", "addr:state": "VA", "addr:postcode": "20175", "addr:country": "US", "name": "AutoNation Toyota Leesburg", "phone": "(571) 357-3965", "website": "https://www.autonation.com/dealers/toyota-leesburg-va", "opening_hours": "Mo-Fr 09:00-21:00; Sa 09:00-19:00; Su 11:00-17:00", "brand": "Auto Nation", "brand:wikidata": "Q784804"}, "geometry": {"type": "Point", "coordinates": [-77.5397, 39.10097]}},
{"type": "Feature", "id": "WoTnkoxsnooNO4ErL4-4UAuw6MQ=", "properties": {"ref": "2837", "sells": "Honda", "@spider": "auto_nation", "addr:full": "21715 Auto World Drive", "addr:city": "Sterling", "addr:state": "VA", "addr:postcode": "20166", "addr:country": "US", "name": "AutoNation Honda Dulles", "phone": "(571) 357-3961", "website": "https://www.autonation.com/dealers/honda-dulles-va", "opening_hours": "Mo-Fr 09:00-21:00; Sa 09:00-19:00; Su 11:00-17:00", "brand": "Auto Nation", "brand:wikidata": "Q784804"}, "geometry": {"type": "Point", "coordinates": [-77.438965, 39.013718]}},
{"type": "Feature", "id": "ScN4u-KxZbe2OIREybnfpaecyDg=", "properties": {"ref": "2774", "sells": "BMW", "@spider": "auto_nation", "addr:full": "1450 Rockville Pike", "addr:city": "Rockville", "addr:state": "MD", "addr:postcode": "20852", "addr:country": "US", "name": "BMW of Rockville", "phone": "240-885-8171", "website": "https://www.autonation.com/dealers/bmw-rockville-md", "opening_hours": "Mo-Fr 09:00-20:00; Sa 09:00-19:00; Su 11:00-17:00", "brand": "Auto Nation", "brand:wikidata": "Q784804"}, "geometry": {"type": "Point", "coordinates": [-77.126796, 39.066572]}},
{"type": "Feature", "id": "-g52Y6qgDZoVirjhJALxSk5M0X4=", "properties": {"ref": "2559", "sells": "Jaguar, Land Rover", "@spider": "auto_nation", "addr:full": "11617 Old Georgetown Road N", "addr:city": "Bethesda", "addr:state": "MD", "addr:postcode": "20852", "addr:country": "US", "name": "Jaguar Land Rover Bethesda", "phone": "(301) 263-6377", "website": "https://www.autonation.com/dealers/jaguar-land-rover-bethesda", "opening_hours": "Mo-Fr 09:00-20:00; Sa 09:00-18:00; Su 11:00-17:00", "brand": "Auto Nation", "brand:wikidata": "Q784804"}, "geometry": {"type": "Point", "coordinates": [-77.11546, 39.048736]}},
{"type": "Feature", "id": "ynjutkUnyNHFIK6KN6EKY9d_ero=", "properties": {"ref": "2789", "sells": "All", "@spider": "auto_nation", "addr:full": "5812 Wicomico Avenue", "addr:city": "Rockville", "addr:state": "MD", "addr:postcode": "20852", "addr:country": "US", "name": "AutoNation Collision Center Rockville", "phone": "240-847-6234", "website": "https://www.autonation.com/dealers/collision-center-rockville-md", "opening_hours": "Mo-Fr 08:00-18:00; Sa 08:00-13:00", "brand": "Auto Nation", "brand:wikidata": "Q784804"}, "geometry": {"type": "Point", "coordinates": [-77.117606, 39.060118]}},
{"type": "Feature", "id": "sMTGhodanyZQdkWlMK7buMJJeLw=", "properties": {"ref": "2764", "sells": "Chevrolet", "@spider": "auto_nation", "addr:full": "500 Washington Boulevard", "addr:city": "Laurel", "addr:state": "MD", "addr:postcode": "20707", "addr:country": "US", "name": "AutoNation Chevrolet Laurel", "phone": "(240) 339-3932", "website": "https://www.autonation.com/dealers/chevrolet-laurel-md", "opening_hours": "Mo-Fr 09:00-20:00; Sa 09:00-19:00", "brand": "Auto Nation", "brand:wikidata": "Q784804"}, "geometry": {"type": "Point", "coordinates": [-76.847436, 39.09965]}},
{"type": "Feature", "id": "iPBWXxSpDhol3WuerWkFi8nVUaE=", "properties": {"ref": "2762", "sells": "Buick, GMC", "@spider": "auto_nation", "addr:full": "400 Washington Boulevard", "addr:city": "Laurel", "addr:state": "MD", "addr:postcode": "20707", "addr:country": "US", "name": "AutoNation Buick GMC Laurel", "phone": "(301) 263-6380", "website": "https://www.autonation.com/dealers/buick-gmc-laurel", "opening_hours": "Mo-Fr 09:00-20:00; Sa 09:00-19:00", "brand": "Auto Nation", "brand:wikidata": "Q784804"}, "geometry": {"type": "Point", "coordinates": [-76.846787, 39.100645]}},
{"type": "Feature", "id": "l0YUM2JMnJTA9AxaDvptL2iTxag=", "properties": {"ref": "2784", "sells": "MINI", "@spider": "auto_nation", "addr:full": "720 Kenilworth Drive", "addr:city": "Towson", "addr:state": "MD", "addr:postcode": "21204", "addr:country": "US", "name": "MINI of Towson", "phone": "667-308-3846", "website": "https://www.autonation.com/dealers/mini-towson-md", "opening_hours": "Mo-Fr 09:00-20:00; Sa 09:00-19:00", "brand": "Auto Nation", "brand:wikidata": "Q784804"}, "geometry": {"type": "Point", "coordinates": [-76.617824, 39.410518]}},
{"type": "Feature", "id": "2K48wIDd6BG2yTUwXTKYZO2gIcs=", "properties": {"ref": "2776", "sells": "BMW", "@spider": "auto_nation", "addr:full": "700 Kenilworth Drive", "addr:city": "Towson", "addr:state": "MD", "addr:postcode": "21204", "addr:country": "US", "name": "BMW of Towson", "phone": "667-930-2458", "website": "https://www.autonation.com/dealers/bmw-towson-md", "opening_hours": "Mo-Fr 09:00-20:00; Sa 09:00-19:00", "brand": "Auto Nation", "brand:wikidata": "Q784804"}, "geometry": {"type": "Point", "coordinates": [-76.616789, 39.410725]}},
{"type": "Feature", "id": "c82vS_6KQAMdgCshGpMpVJuDX2M=", "properties": {"ref": "2786", "sells": "Porsche", "@spider": "auto_nation", "addr:full": "700 Kenilworth Drive", "addr:city": "Towson", "addr:state": "MD", "addr:postcode": "21204", "addr:country": "US", "name": "Porsche Towson", "phone": "667-308-3419", "website": "https://www.autonation.com/dealers/porsche-towson-md", "opening_hours": "Mo-Fr 09:00-20:00; Sa 09:00-19:00", "brand": "Auto Nation", "brand:wikidata": "Q784804"}, "geometry": {"type": "Point", "coordinates": [-76.616789, 39.410725]}},
{"type": "Feature", "id": "tl76lSVb5sPc6qW7QQlx5v4tpaU=", "properties": {"ref": "2787", "sells": "All", "@spider": "auto_nation", "addr:full": "105 A Beaver Court", "addr:city": "Cockeysville", "addr:state": "MD", "addr:postcode": "21030", "addr:country": "US", "name": "AutoNation Collision Center Hunt Valley", "phone": "443-594-7498", "website": "https://www.autonation.com/dealers/collision-center-hunt-valley-md", "opening_hours": "Mo-Fr 08:00-18:00; Sa 08:00-13:00", "brand": "Auto Nation", "brand:wikidata": "Q784804"}, "geometry": {"type": "Point", "coordinates": [-76.649606, 39.478088]}},
{"type": "Feature", "id": "tU3Hyep3nHqDuxiCtDwRvA1Gj48=", "properties": {"ref": "2711", "sells": "Audi", "@spider": "auto_nation", "addr:full": "9800 York Rd", "addr:city": "Cockeysville", "addr:state": "MD", "addr:postcode": "21030", "addr:country": "US", "name": "Audi Hunt Valley", "phone": "(410) 630-3174", "website": "https://www.autonation.com/dealers/audi-hunt-valley", "opening_hours": "Mo-Fr 09:00-20:00; Sa 09:00-19:00", "brand": "Auto Nation", "brand:wikidata": "Q784804"}, "geometry": {"type": "Point", "coordinates": [-76.635529, 39.459248]}},
{"type": "Feature", "id": "6TbnnBttrmtIfVSAoeP22Jd74sA=", "properties": {"ref": "2744", "sells": "Subaru", "@spider": "auto_nation", "addr:full": "9800 York Rd", "addr:city": "Cockeysville", "addr:state": "MD", "addr:postcode": "21030", "addr:country": "US", "name": "AutoNation Subaru Hunt Valley", "phone": "(410) 630-3178", "website": "https://www.autonation.com/dealers/subaru-hunt-valley-md", "opening_hours": "Mo-Fr 09:00-20:00; Sa 09:00-19:00", "brand": "Auto Nation", "brand:wikidata": "Q784804"}, "geometry": {"type": "Point", "coordinates": [-76.635529, 39.459248]}},
{"type": "Feature", "id": "Di0NLcf4RnizlQU1wnpD8JddqG0=", "properties": {"ref": "2111", "sells": "Mercedes-Benz", "@spider": "auto_nation", "addr:full": "9800 York Rd", "addr:city": "Cockeysville", "addr:state": "MD", "addr:postcode": "21030", "addr:country": "US", "name": "Mercedes-Benz of Hunt Valley", "phone": "(410) 306-7080", "website": "https://www.autonation.com/dealers/mercedes-benz-hunt-valley", "opening_hours": "Mo-Fr 09:00-20:00; Sa 09:00-19:00", "brand": "Auto Nation", "brand:wikidata": "Q784804"}, "geometry": {"type": "Point", "coordinates": [-76.634995, 39.459044]}},
{"type": "Feature", "id": "gs-oDzTN2btmvC7wQdjUjecA7qQ=", "properties": {"ref": "2778", "sells": "Jaguar, Land Rover", "@spider": "auto_nation", "addr:full": "10240 York Road", "addr:city": "Cockeysville", "addr:state": "MD", "addr:postcode": "21030", "addr:country": "US", "name": "Jaguar Land Rover Hunt Valley", "phone": "410-999-1901", "website": "https://www.autonation.com/dealers/jaguar-land-rover-hunt-valley-md", "opening_hours": "Mo-Fr 09:00-20:00; Sa 09:00-19:00", "brand": "Auto Nation", "brand:wikidata": "Q784804"}, "geometry": {"type": "Point", "coordinates": [-76.639348, 39.469602]}},
{"type": "Feature", "id": "6pZY_BmqjvOPTZz1mxxsCZFzVCU=", "properties": {"ref": "2771", "sells": "Acura", "@spider": "auto_nation", "addr:full": "10400 York Road", "addr:city": "Cockeysville", "addr:state": "MD", "addr:postcode": "21030", "addr:country": "US", "name": "AutoNation Acura Hunt Valley", "phone": "443-608-5140", "website": "https://www.autonation.com/dealers/acura-hunt-valley-md", "opening_hours": "Mo-Fr 09:00-20:00; Sa 09:00-19:00", "brand": "Auto Nation", "brand:wikidata": "Q784804"}, "geometry": {"type": "Point", "coordinates": [-76.64119, 39.473551]}},
{"type": "Feature", "id": "sEWhIM8K2QK5Z8G3rwycqiW0y0I=", "properties": {"ref": "2949", "sells": "", "@spider": "auto_nation", "addr:full": "60 East Padonia Road", "addr:city": "Timonium", "addr:state": "MD", "addr:postcode": "21093", "addr:country": "US", "name": "AutoNation Collision Center Timonium", "phone": "(855) 553-5437", "website": "https://www.autonation.com/dealers/collision-center-timonium", "opening_hours": "Mo-Fr 08:00-18:00", "brand": "Auto Nation", "brand:wikidata": "Q784804"}, "geometry": {"type": "Point", "coordinates": [-76.62916, 39.45683]}},
{"type": "Feature", "id": "Wu5LTqWgZMXDlw1-v3NB0qLCun4=", "properties": {"ref": "2765", "sells": "Chevrolet", "@spider": "auto_nation", "addr:full": "60 East Padonia Road", "addr:city": "Timonium", "addr:state": "MD", "addr:postcode": "21093", "addr:country": "US", "name": "AutoNation Chevrolet Timonium", "phone": "(410) 443-0704", "website": "https://www.autonation.com/dealers/chevrolet-timonium-md", "opening_hours": "Mo-Fr 09:00-20:00; Sa 09:00-19:00", "brand": "Auto Nation", "brand:wikidata": "Q784804"}, "geometry": {"type": "Point", "coordinates": [-76.628845, 39.457092]}},
{"type": "Feature", "id": "jjQ0cou0YbmqO1JDxHN3ao23-e0=", "properties": {"ref": "2788", "sells": "All", "@spider": "auto_nation", "addr:full": "803 Gleneagles Ct.", "addr:city": "Towson", "addr:state": "MD", "addr:postcode": "21286", "addr:country": "US", "name": "AutoNation Collision Center Towson", "phone": "667-770-7306", "website": "https://www.autonation.com/dealers/collision-center-towson-md", "opening_hours": "Mo-Fr 08:00-18:00; Sa 08:00-13:00", "brand": "Auto Nation", "brand:wikidata": "Q784804"}, "geometry": {"type": "Point", "coordinates": [-76.57217, 39.401858]}},
{"type": "Feature", "id": "EhuEeoFqrTX6hc2UvScJOe7e6lg=", "properties": {"ref": "2773", "sells": "BMW", "@spider": "auto_nation", "addr:full": "716 Belair Road", "addr:city": "Bel Air", "addr:state": "MD", "addr:postcode": "21014", "addr:country": "US", "name": "BMW of Bel Air", "phone": "667-770-6776", "website": "https://www.autonation.com/dealers/bmw-bel-air-md", "opening_hours": "Mo-Fr 09:00-20:00; Sa 09:00-19:00", "brand": "Auto Nation", "brand:wikidata": "Q784804"}, "geometry": {"type": "Point", "coordinates": [-76.359575, 39.522431]}},
{"type": "Feature", "id": "GrjbKjPJ6kCcSIJHY60uGnQs6CI=", "properties": {"ref": "2185", "sells": "Mercedes-Benz", "@spider": "auto_nation", "addr:full": "11500 South Virginia Street", "addr:city": "Reno", "addr:state": "NV", "addr:postcode": "89511", "addr:country": "US", "name": "Mercedes-Benz of Reno", "phone": "(855) 661-9151", "website": "https://www.autonation.com/dealers/mercedes-benz-reno-nv", "opening_hours": "Mo-Sa 09:00-20:00; Su 10:00-17:00", "brand": "Auto Nation", "brand:wikidata": "Q784804"}, "geometry": {"type": "Point", "coordinates": [-119.760643, 39.426952]}},
{"type": "Feature", "id": "YdeUiIfLsj0ZHZ8IDoYRuLrlU5g=", "properties": {"ref": "2085", "sells": "BMW", "@spider": "auto_nation", "addr:full": "500 Automall Drive", "addr:city": "Roseville", "addr:state": "CA", "addr:postcode": "95661", "addr:country": "US", "name": "BMW of Roseville", "phone": "(916) 790-1990", "website": "https://www.autonation.com/dealers/bmw-roseville", "opening_hours": "Mo-Su 09:00-21:00", "brand": "Auto Nation", "brand:wikidata": "Q784804"}, "geometry": {"type": "Point", "coordinates": [-121.25519, 38.75147]}},
{"type": "Feature", "id": "D6vhJfILHBL1258e46qCnNA9xok=", "properties": {"ref": "2801", "sells": "Subaru", "@spider": "auto_nation", "addr:full": "250 Automall Drive", "addr:city": "Roseville", "addr:state": "CA", "addr:postcode": "95661", "addr:country": "US", "name": "AutoNation Subaru Roseville", "phone": "(916) 724-6774", "website": "https://www.autonation.com/dealers/subaru-roseville-ca", "opening_hours": "Mo-Su 09:00-21:00", "brand": "Auto Nation", "brand:wikidata": "Q784804"}, "geometry": {"type": "Point", "coordinates": [-121.25794, 38.74957]}},
{"type": "Feature", "id": "BlYskR3BRZeV_aQkPw2Dc6dRYQU=", "properties": {"ref": "2676", "sells": "Honda", "@spider": "auto_nation", "addr:full": "230 Auto Mall Drive", "addr:city": "Roseville", "addr:state": "CA", "addr:postcode": "95661", "addr:country": "US", "name": "AutoNation Honda Roseville", "phone": "(916) 467-8056", "website": "https://www.autonation.com/dealers/honda-roseville-ca", "opening_hours": "Mo-Su 09:00-21:00", "brand": "Auto Nation", "brand:wikidata": "Q784804"}, "geometry": {"type": "Point", "coordinates": [-121.25987, 38.75007]}},
{"type": "Feature", "id": "tkIYZu5BYcVMwSAx3qNojYkUb9s=", "properties": {"ref": "2671", "sells": "Chrysler, Dodge, Jeep, Ram", "@spider": "auto_nation", "addr:full": "200 Automall Drive", "addr:city": "Roseville", "addr:state": "CA", "addr:postcode": "95661", "addr:country": "US", "name": "AutoNation Chrysler Dodge Jeep Ram Roseville", "phone": "(916) 467-8055", "website": "https://www.autonation.com/dealers/chrysler-dodge-jeep-ram-roseville-ca", "opening_hours": "Mo-Su 09:00-21:00", "brand": "Auto Nation", "brand:wikidata": "Q784804"}, "geometry": {"type": "Point", "coordinates": [-121.26085, 38.75042]}},
{"type": "Feature", "id": "ZoV8Ltp8t_Cxjym_UP8LLYDsYAw=", "properties": {"ref": "2199", "sells": "Mercedes-Benz", "@spider": "auto_nation", "addr:full": "3000 East Capitol Expressway", "addr:city": "San Jose", "addr:state": "CA", "addr:postcode": "95148", "addr:country": "US", "name": "Mercedes-Benz of San Jose", "phone": "(408) 214-3009", "website": "https://www.autonation.com/dealers/mercedes-benz-san-jose-95148-ca", "opening_hours": "Mo-Sa 09:00-21:00; Su 10:00-20:00", "brand": "Auto Nation", "brand:wikidata": "Q784804"}, "geometry": {"type": "Point", "coordinates": [-121.81218, 37.33277]}},
{"type": "Feature", "id": "SamcC1Nhux9caILW7gRqLFXaLJs=", "properties": {"ref": "2049", "sells": "Acura, BMW, Honda, Mercedes-Benz, MINI, Toyota, Volvo", "@spider": "auto_nation", "addr:full": "4201 Stevens Creek Boulevard", "addr:city": "Santa Clara", "addr:state": "CA", "addr:postcode": "95051", "addr:country": "US", "name": "AutoNation Collision Center Stevens Creek", "phone": "(408) 512-2836", "website": "https://www.autonation.com/dealers/collision-center-stevens-creek-ca", "opening_hours": "Mo-Fr 08:00-17:30; Sa 09:00-12:00", "brand": "Auto Nation", "brand:wikidata": "Q784804"}, "geometry": {"type": "Point", "coordinates": [-121.97565, 37.32334]}},
{"type": "Feature", "id": "zxwx04bP5Q7vtQ1GlrU1ffSp3DM=", "properties": {"ref": "2110", "sells": "MINI", "@spider": "auto_nation", "addr:full": "4201 Stevens Creek Boulevard", "addr:city": "Santa Clara", "addr:state": "CA", "addr:postcode": "95051", "addr:country": "US", "name": "MINI of Stevens Creek", "phone": "(408) 641-4608", "website": "https://www.autonation.com/dealers/mini-stevens-creek-ca", "opening_hours": "Mo-Fr 09:00-21:00; Sa 08:00-21:00; Su 10:00-20:00", "brand": "Auto Nation", "brand:wikidata": "Q784804"}, "geometry": {"type": "Point", "coordinates": [-121.97565, 37.32334]}},
{"type": "Feature", "id": "xdVVz4tRD10FbTCf6a3M5jUAtUA=", "properties": {"ref": "2047", "sells": "Mercedes-Benz", "@spider": "auto_nation", "addr:full": "4500 Stevens Creek Boulevard", "addr:city": "San Jose", "addr:state": "CA", "addr:postcode": "95129", "addr:country": "US", "name": "Mercedes-Benz of Stevens Creek", "phone": "(408) 641-4610", "website": "https://www.autonation.com/dealers/mercedes-benz-stevens-creek", "opening_hours": "Mo-Sa 09:00-21:00; Su 10:00-18:00", "brand": "Auto Nation", "brand:wikidata": "Q784804"}, "geometry": {"type": "Point", "coordinates": [-121.981988, 37.322143]}},
{"type": "Feature", "id": "De4EMzy-qg_YgK4uRr25HaB84Uw=", "properties": {"ref": "2113", "sells": "Alfa Romeo, Maserati", "@spider": "auto_nation", "addr:full": "4520 Stevens Creek Boulevard", "addr:city": "San Jose", "addr:state": "CA", "addr:postcode": "95129", "addr:country": "US", "name": "AutoNation Maserati Alfa Romeo Stevens Creek", "phone": "(408) 540-1245", "website": "https://www.autonation.com/dealers/maserati-stevens-creek", "opening_hours": "Mo-Sa 09:00-21:00; Su 10:00-20:00", "brand": "Auto Nation", "brand:wikidata": "Q784804"}, "geometry": {"type": "Point", "coordinates": [-121.982489, 37.322678]}},
{"type": "Feature", "id": "c2HEk66g0qwbSS9cDMjjdMhbb0E=", "properties": {"ref": "2048", "sells": "Volvo", "@spider": "auto_nation", "addr:full": "4600 Stevens Creek Boulevard", "addr:city": "San Jose", "addr:state": "CA", "addr:postcode": "95129", "addr:country": "US", "name": "AutoNation Volvo Cars San Jose", "phone": "(408) 758-5501", "website": "https://www.autonation.com/dealers/volvo-san-jose-ca", "opening_hours": "Mo-Sa 09:00-21:00; Su 10:00-18:00", "brand": "Auto Nation", "brand:wikidata": "Q784804"}, "geometry": {"type": "Point", "coordinates": [-121.984341, 37.322628]}},
{"type": "Feature", "id": "r-s3xcyknTeSoG8ZrmIso8iEWGI=", "properties": {"ref": "2674", "sells": "Acura", "@spider": "auto_nation", "addr:full": "4747 Stevens Creek Boulevard", "addr:city": "Santa Clara", "addr:state": "CA", "addr:postcode": "95051", "addr:country": "US", "name": "AutoNation Acura Stevens Creek", "phone": "(408) 758-5502", "website": "https://www.autonation.com/dealers/acura-stevens-creek", "opening_hours": "Mo-Sa 09:00-21:00; Su 10:00-20:00", "brand": "Auto Nation", "brand:wikidata": "Q784804"}, "geometry": {"type": "Point", "coordinates": [-121.985669, 37.323801]}},
{"type": "Feature", "id": "he6fMok44tgr4QkeD7IQgeeHiE4=", "properties": {"ref": "2740", "sells": "BMW", "@spider": "auto_nation", "addr:full": "5720 Cushing Parkway", "addr:city": "Fremont", "addr:state": "CA", "addr:postcode": "94538", "addr:country": "US", "name": "BMW of Fremont", "phone": "(510) 224-4820", "website": "https://www.autonation.com/dealers/bmw-fremont", "opening_hours": "Mo-Sa 09:00-21:00; Su 10:00-20:00", "brand": "Auto Nation", "brand:wikidata": "Q784804"}, "geometry": {"type": "Point", "coordinates": [-121.975221, 37.498756]}},
{"type": "Feature", "id": "kSqeThzeNWvP9uSR79giGnhM3y0=", "properties": {"ref": "2673", "sells": "Honda", "@spider": "auto_nation", "addr:full": "5780 Cushing Parkway", "addr:city": "Fremont", "addr:state": "CA", "addr:postcode": "94538", "addr:country": "US", "name": "AutoNation Honda Fremont", "phone": "(510) 224-4801", "website": "https://www.autonation.com/dealers/honda-fremont-ca", "opening_hours": "Mo-Sa 09:00-21:00; Su 10:00-20:00", "brand": "Auto Nation", "brand:wikidata": "Q784804"}, "geometry": {"type": "Point", "coordinates": [-121.978063, 37.500325]}},
{"type": "Feature", "id": "rUPI3jg5s1TIZU8TbjDWPogDnE4=", "properties": {"ref": "2210", "sells": "BMW", "@spider": "auto_nation", "addr:full": "150 East El Camino Real", "addr:city": "Mountain View", "addr:state": "CA", "addr:postcode": "94040", "addr:country": "US", "name": "BMW of Mountain View", "phone": "(650) 200-0149", "website": "https://www.autonation.com/dealers/bmw-mountain-view", "opening_hours": "Mo-Sa 09:00-21:00; Su 10:00-20:00", "brand": "Auto Nation", "brand:wikidata": "Q784804"}, "geometry": {"type": "Point", "coordinates": [-122.07141, 37.38054]}},
{"type": "Feature", "id": "6LnCsMBL0v8_hIU3z7rKjb_wEVI=", "properties": {"ref": "2675", "sells": "Scion, Toyota", "@spider": "auto_nation", "addr:full": "24773 Mission Boulevard", "addr:city": "Hayward", "addr:state": "CA", "addr:postcode": "94544", "addr:country": "US", "name": "AutoNation Toyota Hayward", "phone": "(510) 224-4854", "website": "https://www.autonation.com/dealers/toyota-hayward-ca", "opening_hours": "Mo-Sa 09:00-21:00; Su 10:00-20:00", "brand": "Auto Nation", "brand:wikidata": "Q784804"}, "geometry": {"type": "Point", "coordinates": [-122.075432, 37.660921]}},
{"type": "Feature", "id": "LwxamN81mFr_IOlum2WudQxySG8=", "properties": {"ref": "2855", "sells": "Jaguar, Land Rover", "@spider": "auto_nation", "addr:full": "64 Nardozzi Place", "addr:city": "New Rochelle", "addr:state": "NY", "addr:postcode": "10805", "addr:country": "US", "name": "Jaguar Land Rover New Rochelle", "phone": "(914) 359-3210", "website": "https://www.autonation.com/dealers/jaguar-land-rover-new-rochelle", "opening_hours": "Mo-Th 09:00-20:00; Fr 09:00-19:00; Sa 09:00-18:00", "brand": "Auto Nation", "brand:wikidata": "Q784804"}, "geometry": {"type": "Point", "coordinates": [-73.765167, 40.920593]}},
{"type": "Feature", "id": "0TisRJs2PUt8txFV1miNvgQVrfM=", "properties": {"ref": "2779", "sells": "Jaguar, Land Rover", "@spider": "auto_nation", "addr:full": "295 East Main Street", "addr:city": "Elmsford", "addr:state": "NY", "addr:postcode": "10523", "addr:country": "US", "name": "Jaguar Land Rover White Plains", "phone": "(914) 468-4201", "website": "https://www.autonation.com/dealers/jaguar-land-rover-white-plains-ny", "opening_hours": "Mo-Th 09:00-20:00; Fr 09:00-19:00; Sa 09:00-18:00", "brand": "Auto Nation", "brand:wikidata": "Q784804"}, "geometry": {"type": "Point", "coordinates": [-73.806304, 41.047516]}},
{"type": "Feature", "id": "jCo1G-BnkeJ0wv9N2cxUhtcXmcA=", "properties": {"ref": "2899", "sells": "Jaguar, Land Rover", "@spider": "auto_nation", "addr:full": "299 Kisco Avenue", "addr:city": "Mount Kisco", "addr:state": "NY", "addr:postcode": "10549", "addr:country": "US", "name": "Jaguar Land Rover Mt Kisco", "phone": "(914) 614-0886", "website": "https://www.autonation.com/dealers/jaguar-land-rover-mt-kisco-ny", "opening_hours": "Mo-Th 09:00-20:00; Fr 09:00-19:00; Sa 09:00-18:00", "brand": "Auto Nation", "brand:wikidata": "Q784804"}, "geometry": {"type": "Point", "coordinates": [-73.725396, 41.21917]}},
{"type": "Feature", "id": "pntco6fu-AK6HFQlmabbp5f2h1k=", "properties": {"ref": "2412", "sells": "Subaru", "@spider": "auto_nation", "addr:full": "10000 East Sprague Avenue", "addr:city": "Spokane Valley", "addr:state": "WA", "addr:postcode": "99206", "addr:country": "US", "name": "AutoNation Subaru Spokane Valley", "phone": "(509) 850-9358", "website": "https://www.autonation.com/dealers/subaru-spokane-valley-wa", "opening_hours": "Mo-Sa 09:00-19:00; Su 10:00-18:00", "brand": "Auto Nation", "brand:wikidata": "Q784804"}, "geometry": {"type": "Point", "coordinates": [-117.27111, 47.65593]}},
{"type": "Feature", "id": "rHXYhRp5q0Hvhc-8hzAWmaeXXU0=", "properties": {"ref": "2414", "sells": "All", "@spider": "auto_nation", "addr:full": "10000 East Sprague Avenue", "addr:city": "Spokane", "addr:state": "WA", "addr:postcode": "99214", "addr:country": "US", "name": "AutoNation Collision Center Spokane", "phone": "(509) 590-0761", "website": "https://www.autonation.com/dealers/collision-center-spokane-wa", "opening_hours": "Mo-Fr 08:00-17:30; Sa 08:30-12:00", "brand": "Auto Nation", "brand:wikidata": "Q784804"}, "geometry": {"type": "Point", "coordinates": [-117.27111, 47.65593]}},
{"type": "Feature", "id": "XE31qN4saJMp98qNdZkhTRHV5vY=", "properties": {"ref": "2413", "sells": "Audi, Volkswagen", "@spider": "auto_nation", "addr:full": "10006 East Sprague Avenue", "addr:city": "Spokane Valley", "addr:state": "WA", "addr:postcode": "99206", "addr:country": "US", "name": "Audi Volkswagen Spokane", "phone": "(509) 850-9361", "website": "https://www.autonation.com/dealers/audi-volkswagen-spokane-valley", "opening_hours": "Mo-Sa 09:00-19:00; Su 10:00-18:00", "brand": "Auto Nation", "brand:wikidata": "Q784804"}, "geometry": {"type": "Point", "coordinates": [-117.270532, 47.656599]}},
{"type": "Feature", "id": "ZBpFOsIYNKXcrQx5aMrv6-wTLSg=", "properties": {"ref": "2410", "sells": "Chevrolet", "@spider": "auto_nation", "addr:full": "8500 East Sprague Avenue", "addr:city": "Spokane Valley", "addr:state": "WA", "addr:postcode": "99212", "addr:country": "US", "name": "AutoNation Chevrolet Spokane", "phone": "(509) 590-4294", "website": "https://www.autonation.com/dealers/chevrolet-spokane-valley-wa", "opening_hours": "Mo-Sa 09:00-20:00; Su 10:00-19:00", "brand": "Auto Nation", "brand:wikidata": "Q784804"}, "geometry": {"type": "Point", "coordinates": [-117.288642, 47.655897]}},
{"type": "Feature", "id": "-gbhRjc5TFYl3_O1OSWLIqGj3yk=", "properties": {"ref": "2411", "sells": "Scion, Toyota", "@spider": "auto_nation", "addr:full": "8600 East Sprague Avenue", "addr:city": "Spokane Valley", "addr:state": "WA", "addr:postcode": "99212", "addr:country": "US", "name": "AutoNation Toyota Spokane Valley", "phone": "(509) 850-9359", "website": "https://www.autonation.com/dealers/toyota-spokane-valley-wa", "opening_hours": "Mo-Sa 09:00-19:00; Su 10:00-18:00", "brand": "Auto Nation", "brand:wikidata": "Q784804"}, "geometry": {"type": "Point", "coordinates": [-117.28944, 47.65636]}},
{"type": "Feature", "id": "sD31YvtPmih0LW77VvPpasqVQfo=", "properties": {"ref": "2409", "sells": "Acura", "@spider": "auto_nation", "addr:full": "8325 East Sprague Avenue", "addr:city": "Spokane Valley", "addr:state": "WA", "addr:postcode": "99212", "addr:country": "US", "name": "AutoNation Acura Spokane Valley", "phone": "(509) 590-1266", "website": "https://www.autonation.com/dealers/acura-spokane-valley", "opening_hours": "Mo-Sa 09:00-20:00; Su 10:00-19:00", "brand": "Auto Nation", "brand:wikidata": "Q784804"}, "geometry": {"type": "Point", "coordinates": [-117.2922, 47.65737]}},
{"type": "Feature", "id": "YtBrpc1ExFzFk7CPl0mTChgcpA8=", "properties": {"ref": "2408", "sells": "Honda", "@spider": "auto_nation", "addr:full": "8201 East Sprague Avenue", "addr:city": "Spokane Valley", "addr:state": "WA", "addr:postcode": "99212", "addr:country": "US", "name": "AutoNation Honda Spokane Valley", "phone": "(509) 850-9357", "website": "https://www.autonation.com/dealers/honda-spokane-valley-wa", "opening_hours": "Mo-Fr 09:00-19:00; Sa 10:00-19:00; Su 10:00-18:00", "brand": "Auto Nation", "brand:wikidata": "Q784804"}, "geometry": {"type": "Point", "coordinates": [-117.29395, 47.65737]}},
{"type": "Feature", "id": "Ze-B_294_-IjF8QqG_z33D_hxz4=", "properties": {"ref": "2321", "sells": "Jaguar, Land Rover", "@spider": "auto_nation", "addr:full": "1310 West 3rd Avenue", "addr:city": "Spokane", "addr:state": "WA", "addr:postcode": "99201", "addr:country": "US", "name": "Land Rover Jaguar Spokane", "phone": "(509) 590-0762", "website": "https://www.autonation.com/dealers/jaguar-land-rover-spokane-wa", "opening_hours": "Mo-Sa 09:00-19:00; Su 10:00-18:00", "brand": "Auto Nation", "brand:wikidata": "Q784804"}, "geometry": {"type": "Point", "coordinates": [-117.431762, 47.653935]}},
{"type": "Feature", "id": "cg4nii73rt5_oHnzG8SiYl3TBrY=", "properties": {"ref": "2186", "sells": "Honda", "@spider": "auto_nation", "addr:full": "3701 E. Valley Road", "addr:city": "Renton", "addr:state": "WA", "addr:postcode": "98057", "addr:country": "US", "name": "AutoNation Honda Renton", "phone": "(425) 526-5088", "website": "https://www.autonation.com/dealers/honda-renton-wa", "opening_hours": "Mo-Sa 09:00-20:00; Su 10:00-19:00", "brand": "Auto Nation", "brand:wikidata": "Q784804"}, "geometry": {"type": "Point", "coordinates": [-122.220843, 47.446891]}},
{"type": "Feature", "id": "kDurVrsiLHopXwEserw4C9a_7u4=", "properties": {"ref": "2237", "sells": "", "@spider": "auto_nation", "addr:full": "1424 130th Ave NE", "addr:city": "Bellevue", "addr:state": "WA", "addr:postcode": "98005", "addr:country": "US", "name": "AutoNation Collision Center Bellevue", "phone": "(855) 867-9498", "website": "https://www.autonation.com/dealers/collision-center-bellevue-wa", "opening_hours": "Mo-Fr 08:00-17:30; Sa 09:00-14:00", "brand": "Auto Nation", "brand:wikidata": "Q784804"}, "geometry": {"type": "Point", "coordinates": [-122.16623, 47.62342]}},
{"type": "Feature", "id": "1iWTrJFXHKliRQghq1A69sZBO3c=", "properties": {"ref": "2667", "sells": "Chrysler, Dodge, Jeep, Ram", "@spider": "auto_nation", "addr:full": "120 116th Avenue NE", "addr:city": "Bellevue", "addr:state": "WA", "addr:postcode": "98004", "addr:country": "US", "name": "AutoNation Chrysler Dodge Jeep Ram Bellevue", "phone": "(425) 243-5202", "website": "https://www.autonation.com/dealers/chrysler-dodge-jeep-ram-bellevue-wa", "opening_hours": "Mo-Sa 09:00-20:00; Su 10:00-19:00", "brand": "Auto Nation", "brand:wikidata": "Q784804"}, "geometry": {"type": "Point", "coordinates": [-122.18469, 47.61098]}},
{"type": "Feature", "id": "QiymCQvLOJ4N7vzwziDG0PfCFEk=", "properties": {"ref": "2922", "sells": "Mercedes-Benz", "@spider": "auto_nation", "addr:full": "11850 Bel-Red Road", "addr:city": "Bellevue", "addr:state": "WA", "addr:postcode": "98005", "addr:country": "US", "name": "Mercedes-Benz of Bellevue", "phone": "(425) 249-7391", "website": "https://www.autonation.com/dealers/mercedes-benz-bellevue-wa", "opening_hours": "Mo-Sa 09:00-20:00; Su 10:00-19:00", "brand": "Auto Nation", "brand:wikidata": "Q784804"}, "geometry": {"type": "Point", "coordinates": [-122.18117, 47.61822]}},
{"type": "Feature", "id": "goMKXr77K2a_9vlfDWTvDVTuw7g=", "properties": {"ref": "2209", "sells": "Ford", "@spider": "auto_nation", "addr:full": "411 - 116th Avenue NE", "addr:city": "Bellevue", "addr:state": "WA", "addr:postcode": "98004", "addr:country": "US", "name": "AutoNation Ford  Bellevue", "phone": "(425) 243-5203", "website": "https://www.autonation.com/dealers/ford-bellevue-wa", "opening_hours": "Mo-Sa 09:00-20:00; Su 10:00-19:00", "brand": "Auto Nation", "brand:wikidata": "Q784804"}, "geometry": {"type": "Point", "coordinates": [-122.18671, 47.6138]}},
{"type": "Feature", "id": "b41aqgTv5-6DqCcdmrtVIhHoYv8=", "properties": {"ref": "2935", "sells": "Porsche", "@spider": "auto_nation", "addr:full": "11910 NE 8th Street", "addr:city": "Bellevue", "addr:state": "WA", "addr:postcode": "98005", "addr:country": "US", "name": "Porsche Bellevue", "phone": "(425) 412-4114", "website": "https://www.autonation.com/dealers/porsche-bellevue-wa", "opening_hours": "Mo-Sa 09:00-20:00; Su 10:00-19:00", "brand": "Auto Nation", "brand:wikidata": "Q784804"}, "geometry": {"type": "Point", "coordinates": [-122.182535, 47.618357]}},
{"type": "Feature", "id": "emixgLt-jEO2YGEOHL218BnnoPE=", "properties": {"ref": "2946", "sells": "Audi", "@spider": "auto_nation", "addr:full": "1533 120th Avenue NE", "addr:city": "Bellevue", "addr:state": "WA", "addr:postcode": "98005", "addr:country": "US", "name": "Audi Bellevue", "phone": "(425) 249-7388", "website": "https://www.autonation.com/dealers/audi-bellevue", "opening_hours": "Mo-Sa 09:00-20:00; Su 10:00-19:00", "brand": "Auto Nation", "brand:wikidata": "Q784804"}, "geometry": {"type": "Point", "coordinates": [-122.182342, 47.625138]}},
{"type": "Feature", "id": "0ivEcO8BSfyEHF_4ltwng9cUx74=", "properties": {"ref": "2055", "sells": "BMW", "@spider": "auto_nation", "addr:full": "11959 Northup Way", "addr:city": "Bellevue", "addr:state": "WA", "addr:postcode": "98005", "addr:country": "US", "name": "BMW of Bellevue", "phone": "(425) 243-5201", "website": "https://www.autonation.com/dealers/bmw-bellevue", "opening_hours": "Mo-Sa 09:00-20:00; Su 10:00-19:00", "brand": "Auto Nation", "brand:wikidata": "Q784804"}, "geometry": {"type": "Point", "coordinates": [-122.182218, 47.631107]}}]}