{"type":"FeatureCollection","features":[{"type": "Feature", "id": "Xry4cf35uQ94KAQOu2lbS29Y2vE=", "properties": {"ref": "st-ives-bay", "@spider": "away_resorts", "addr:full": "73 Loggans Rd, Upton Towans, Hayle, TR27 5BH, UK", "addr:postcode": "TR27 5BH", "addr:country": "GB", "name": "St Ives Bay", "phone": "0330 053 7000", "website": "https://www.awayresorts.co.uk/parks/cornwall/st-ives-bay/", "image": "https://awrwebsauksprod.blob.core.windows.net/assets/media/filer_public/07/95/07957717-53cc-4453-b239-5b6b8d21f3fc/st-ives-bay-hero.jpg", "brand": "Away Resorts", "brand:wikidata": "Q108045050"}, "geometry": {"type": "Point", "coordinates": [-5.3997162, 50.2025658]}},
{"type": "Feature", "id": "eCMAgsJFD_btTg4OUOjs3fXKCy0=", "properties": {"ref": "glendevon", "@spider": "away_resorts", "addr:full": "Glendevon Resort, Glendevon, Perthshire, Dollar, FK14 7JY", "addr:postcode": "FK14 7JY", "addr:country": "GB", "name": "Glendevon", "phone": "0330 053 7000", "website": "https://www.awayresorts.co.uk/parks/scotland/glendevon/", "image": "https://awrwebsauksprod.blob.core.windows.net/assets/media/filer_public/8e/32/8e3243f3-899d-4b76-bae8-965556d5ddf0/stream.jpeg", "brand": "Away Resorts", "brand:wikidata": "Q108045050"}, "geometry": {"type": "Point", "coordinates": [-3.6469778909347426, 56.22815978418737]}},
{"type": "Feature", "id": "jk64uwFc-ylaueWR3uUx_28ShuM=", "properties": {"ref": "bay-filey", "@spider": "away_resorts", "addr:full": "The Bay Filey, 1 Moor Rd, Filey, YO14 9GA", "addr:postcode": "YO14 9GA", "addr:country": "GB", "name": "The Bay Filey", "phone": "0330 053 7000", "website": "https://www.awayresorts.co.uk/parks/yorkshire/bay-filey/", "image": "https://awrwebsauksprod.blob.core.windows.net/assets/media/filer_public/0d/08/0d0811cc-7c59-469f-8e77-30ad3b4885dc/the-bay-filey-lakes.jpg", "brand": "Away Resorts", "brand:wikidata": "Q108045050"}, "geometry": {"type": "Point", "coordinates": [-0.28333115528378794, 54.18019515071338]}},
{"type": "Feature", "id": "19AV2Sz7S6-TgjfU67sheEIUm4M=", "properties": {"ref": "moffat-manor", "@spider": "away_resorts", "addr:full": "Moffat Manor, Beattock, Moffat, Dumfries and Galloway, DG10 9RE", "addr:postcode": "DG10 9RE", "addr:country": "GB", "name": "Moffat Manor", "phone": "0330 053 7000", "website": "https://www.awayresorts.co.uk/parks/scotland/moffat-manor/", "image": "https://awrwebsauksprod.blob.core.windows.net/assets/media/filer_public/8b/e6/8be62d7e-2aef-481a-b892-868f8462d512/moffat-manor-grounds-2.jpg", "brand": "Away Resorts", "brand:wikidata": "Q108045050"}, "geometry": {"type": "Point", "coordinates": [-3.4560953874806866, 55.30416440148391]}},
{"type": "Feature", "id": "Dv7cpcUfo8FSG3ssaIMhbGMOHpk=", "properties": {"ref": "swanage-bay", "@spider": "away_resorts", "addr:full": "Swanage Bay View, Panorama Rd, Swanage, BH19 2QS", "addr:postcode": "BH19 2QS", "addr:country": "GB", "name": "Swanage Bay View", "phone": "0330 053 7000", "website": "https://www.awayresorts.co.uk/parks/dorset/swanage-bay/", "image": "https://awrwebsauksprod.blob.core.windows.net/assets/media/filer_public/b4/f9/b4f959f5-182c-412e-af18-b4ba6e2a960a/swanage-bay-view-park-new.jpg", "brand": "Away Resorts", "brand:wikidata": "Q108045050"}, "geometry": {"type": "Point", "coordinates": [-1.9728548272431796, 50.60474132983258]}},
{"type": "Feature", "id": "64dUcgTNuC3qz_I66j4PRqP3r7c=", "properties": {"ref": "east-fleet-farm", "@spider": "away_resorts", "addr:full": "East Fleet Farm, Chickerell, Weymouth, Dorset, DT3 4DW", "addr:postcode": "DT3 4DW", "addr:country": "GB", "name": "East Fleet Farm", "phone": "01305 602370", "website": "https://www.awayresorts.co.uk/parks/dorset/east-fleet-farm/", "image": "https://awrwebsauksprod.blob.core.windows.net/assets/media/filer_public/39/db/39dbb853-6e88-4464-830e-5e049ec4df53/eastfleet-things-to-do.jpg", "brand": "Away Resorts", "brand:wikidata": "Q108045050"}, "geometry": {"type": "Point", "coordinates": [-2.511137, 50.6162331]}},
{"type": "Feature", "id": "vuvrkhmMM6_89A3LxSgeuR6jVq0=", "properties": {"ref": "golden-sands", "@spider": "away_resorts", "addr:full": "Golden Sands Holiday Park, Sandy Cove, Foryd Road, Kinmel Bay, North Wales, LL18 5NA", "addr:postcode": "LL18 5NA", "addr:country": "GB", "name": "Golden Sands", "phone": "0330 053 7000", "website": "https://www.awayresorts.co.uk/parks/north-wales/golden-sands/", "image": "https://awrwebsauksprod.blob.core.windows.net/assets/media/filer_public/b5/45/b5454682-2b4e-4136-9590-3eda0d9b18ea/golden-sands-beach.jpg", "brand": "Away Resorts", "brand:wikidata": "Q108045050"}, "geometry": {"type": "Point", "coordinates": [-3.53381, 53.30846]}},
{"type": "Feature", "id": "QxXuQmdN8LDW-WfIm-Jg_BOHts0=", "properties": {"ref": "barmouth-bay", "@spider": "away_resorts", "addr:full": "Barmouth Bay Holiday Park, Talybont, Barmouth, Gwynedd, North Wales, LL43 2BJ", "addr:postcode": "LL43 2BJ", "addr:country": "GB", "name": "Barmouth Bay", "phone": "0330 053 7000", "website": "https://www.awayresorts.co.uk/parks/north-wales/barmouth-bay/", "image": "https://awrwebsauksprod.blob.core.windows.net/assets/media/filer_public/3b/36/3b36e5be-971c-41b1-b868-2c895afb67a8/barmouth-hero.jpg", "brand": "Away Resorts", "brand:wikidata": "Q108045050"}, "geometry": {"type": "Point", "coordinates": [-4.107307, 52.7705558]}},
{"type": "Feature", "id": "Dse2Nh9845H1L-pmqn6_tmadie8=", "properties": {"ref": "lakes-rookley", "@spider": "away_resorts", "addr:full": "The Lakes Rookley, Main Rd, Rookley, Ventnor, PO38 3LU", "addr:postcode": "PO38 3LU", "addr:country": "GB", "name": "The Lakes Rookley", "phone": "0330 053 7000", "website": "https://www.awayresorts.co.uk/parks/isle-of-wight/lakes-rookley/", "image": "https://awrwebsauksprod.blob.core.windows.net/assets/media/filer_public/8c/e0/8ce0e36e-8609-4386-8742-8e27d68bf059/the-lakes-rookley-grounds-2.jpg", "brand": "Away Resorts", "brand:wikidata": "Q108045050"}, "geometry": {"type": "Point", "coordinates": [-1.2770085172122168, 50.653512631951706]}},
{"type": "Feature", "id": "TDWStUeMspUFsuInczw6H8J_zd0=", "properties": {"ref": "st-helens", "@spider": "away_resorts", "addr:full": "Field Ln, St Helens, Ryde, PO33 1UX", "addr:postcode": "PO33 1UX", "addr:country": "GB", "name": "St Helens", "phone": "0330 053 7000", "website": "https://www.awayresorts.co.uk/parks/isle-of-wight/st-helens/", "image": "https://awrwebsauksprod.blob.core.windows.net/assets/media/filer_public/a1/dd/a1ddbb41-97d3-477c-98f7-7db8acbed468/st-helens-grounds-resized.jpg", "brand": "Away Resorts", "brand:wikidata": "Q108045050"}, "geometry": {"type": "Point", "coordinates": [-1.1142274219434098, 50.69906479463972]}},
{"type": "Feature", "id": "oiwwelxWUZryxu8NqgVinTKL8ng=", "properties": {"ref": "bay-colwell", "@spider": "away_resorts", "addr:full": "The Bay Colwell, Fort Warden Rd, Freshwater, Totland Bay, PO39 0DA", "addr:postcode": "PO39 0DA", "addr:country": "GB", "name": "The Bay Colwell", "phone": "0330 053 7000", "website": "https://www.awayresorts.co.uk/parks/isle-of-wight/bay-colwell/", "image": "https://awrwebsauksprod.blob.core.windows.net/assets/media/filer_public/d6/e2/d6e24b57-3b72-4f32-824c-25c2ad4371e5/the-bay-colwell-beach.jpg", "brand": "Away Resorts", "brand:wikidata": "Q108045050"}, "geometry": {"type": "Point", "coordinates": [-1.5382234069401908, 50.68733514759181]}},
{"type": "Feature", "id": "Zp-I60KHoQfHsNrqJIM7N-QGxwQ=", "properties": {"ref": "whitecliff-bay", "@spider": "away_resorts", "addr:full": "Whitecliff Bay Holiday Park, Hillway Road, Bembridge, Isle of Wight, PO35 5PL", "addr:postcode": "PO35 5PL", "addr:country": "GB", "name": "Whitecliff Bay", "phone": "0330 053 7000", "website": "https://www.awayresorts.co.uk/parks/isle-of-wight/whitecliff-bay/", "image": "https://awrwebsauksprod.blob.core.windows.net/assets/media/filer_public/f3/f8/f3f8d754-d9fd-4558-b28d-ae0a0d41919d/wcb-outdoor-pool-2.jpg", "brand": "Away Resorts", "brand:wikidata": "Q108045050"}, "geometry": {"type": "Point", "coordinates": [-1.0949187, 50.6750669]}},
{"type": "Feature", "id": "iVHXPxVq4ut5iaR1pI3vajZOS_E=", "properties": {"ref": "mersea-island", "@spider": "away_resorts", "addr:full": "Mersea Island Holiday Park, Fen Lane, East Mersea, Colchester, Essex, CO5 8UA", "addr:postcode": "CO5 8UA", "addr:country": "GB", "name": "Mersea Island", "phone": "0330 053 7000", "website": "https://www.awayresorts.co.uk/parks/essex/mersea-island/", "image": "https://awrwebsauksprod.blob.core.windows.net/assets/media/filer_public/59/61/59617330-402c-4ee7-92d4-41cc7651ec1d/mersea-island-park.jpg", "brand": "Away Resorts", "brand:wikidata": "Q108045050"}, "geometry": {"type": "Point", "coordinates": [0.9344778, 51.7909849]}},
{"type": "Feature", "id": "WXznYPf1sbciGlSE3zgJebJU5oM=", "properties": {"ref": "sandy-balls", "@spider": "away_resorts", "addr:full": "Sandy Balls Holiday Village, Southampton Road, Fordingbridge, The New Forest, Hampshire, SP6 2JZ", "addr:postcode": "SP6 2JZ", "addr:country": "GB", "name": "Sandy Balls", "phone": "0330 053 7000", "website": "https://www.awayresorts.co.uk/parks/hampshire/sandy-balls/", "image": "https://awrwebsauksprod.blob.core.windows.net/assets/media/filer_public/73/7c/737c0bb7-e33d-4db6-83d7-1fdecd20c4c0/sandy-balls-hero.jpg", "brand": "Away Resorts", "brand:wikidata": "Q108045050"}, "geometry": {"type": "Point", "coordinates": [-1.7620994, 50.9303062]}},
{"type": "Feature", "id": "MfyuNF7nfuBRAxB1n6k88m_zoI0=", "properties": {"ref": "mill-rythe", "@spider": "away_resorts", "addr:full": "Mill Rythe Coastal Village, Havant Road, Hayling Island, Hampshire, PO11 0PB", "addr:postcode": "PO11 0PB", "addr:country": "GB", "name": "Mill Rythe", "phone": "0330 053 7000", "website": "https://www.awayresorts.co.uk/parks/hampshire/mill-rythe/", "image": "https://awrwebsauksprod.blob.core.windows.net/assets/media/filer_public/2a/cb/2acbb022-68e1-43e1-bb03-e38b9f2dacab/mlr-park-hero.jpg", "brand": "Away Resorts", "brand:wikidata": "Q108045050"}, "geometry": {"type": "Point", "coordinates": [-0.9687756, 50.8012701]}},
{"type": "Feature", "id": "DON60AyFtcEXxsNSCF7l4YCXi7E=", "properties": {"ref": "cleethorpes-pearl", "@spider": "away_resorts", "addr:full": "Cleethorpes Pearl Holiday Park , 208 North Sea Lane, Humberston, Cleethorpes, North East Lincolnshire, DN36 4ET", "addr:postcode": "DN36 4ET", "addr:country": "GB", "name": "Cleethorpes Pearl", "phone": "01472 812666", "website": "https://www.awayresorts.co.uk/parks/lincolnshire/cleethorpes-pearl/", "image": "https://awrwebsauksprod.blob.core.windows.net/assets/media/filer_public/e6/11/e61118e1-4472-49c5-8b82-d04e4811416b/beachcomber-park.jpg", "brand": "Away Resorts", "brand:wikidata": "Q108045050"}, "geometry": {"type": "Point", "coordinates": [-0.0062536, 53.5363858]}},
{"type": "Feature", "id": "Yp0H2zT48i3yZNvMaUTVbzPzUDg=", "properties": {"ref": "tattershall-lakes", "@spider": "away_resorts", "addr:full": "Tattershall Lakes Country Park, Sleaford Road, Tattershall, Lincolnshire, LN4 4LR", "addr:postcode": "LN4 4LR", "addr:country": "GB", "name": "Tattershall Lakes", "phone": "0330 053 7000", "website": "https://www.awayresorts.co.uk/parks/lincolnshire/tattershall-lakes/", "image": "https://awrwebsauksprod.blob.core.windows.net/assets/media/filer_public/75/97/75972b4f-8677-44d8-8284-d144206eb3d7/tsl_parkview_drone_ws_01_20.jpg", "brand": "Away Resorts", "brand:wikidata": "Q108045050"}, "geometry": {"type": "Point", "coordinates": [-0.20231, 53.0964046]}},
{"type": "Feature", "id": "bjvFntP5kWdrKbo4xWOP03BFL80=", "properties": {"ref": "appletree", "@spider": "away_resorts", "addr:full": "Appletree Holiday Park, Hubbert&#x27;s Bridge, Boston, Lincolnshire, PE20 3QX", "addr:postcode": "PE20 3QX", "addr:country": "GB", "name": "Appletree", "phone": "01205 290105", "website": "https://www.awayresorts.co.uk/parks/lincolnshire/appletree/", "image": "https://awrwebsauksprod.blob.core.windows.net/assets/media/filer_public/b8/5e/b85e89a1-af0c-45fa-b42d-aeb299b4e67c/apt-new-development-2.jpg", "brand": "Away Resorts", "brand:wikidata": "Q108045050"}, "geometry": {"type": "Point", "coordinates": [-0.1131034, 52.9775017]}},
{"type": "Feature", "id": "9-3tKfOp4Fi4Hrn6DTLUAvd_LYs=", "properties": {"ref": "newquay-bay", "@spider": "away_resorts", "addr:full": "Newquay Bay Resort, Trevelgue Road, Newquay, Cornwall, TR8 4AS", "addr:postcode": "TR8 4AS", "addr:country": "GB", "name": "Newquay Bay", "phone": "0330 053 7000", "website": "https://www.awayresorts.co.uk/parks/cornwall/newquay-bay/", "image": "https://awrwebsauksprod.blob.core.windows.net/assets/media/filer_public/73/b7/73b7980f-b724-46f0-b54e-15af679b8c3a/newquay-bay-resort.jpg", "brand": "Away Resorts", "brand:wikidata": "Q108045050"}, "geometry": {"type": "Point", "coordinates": [-5.04411210292545, 50.43192677698618]}},
{"type": "Feature", "id": "DCHa91HvYbjFVGs2Vm7BzSiQwY8=", "properties": {"ref": "retallack", "@spider": "away_resorts", "addr:full": "Winnards Perch, St Columb Major, Cornwall, TR9 6DE", "addr:postcode": "TR9 6DE", "addr:country": "GB", "name": "Retallack Resort &amp; Spa", "phone": "0330 053 7000", "website": "https://www.awayresorts.co.uk/parks/cornwall/retallack/", "image": "https://awrwebsauksprod.blob.core.windows.net/assets/media/filer_public/4e/a7/4ea76b06-5e53-4c28-8813-6c83771ed04b/retallack-homepage.jpg", "brand": "Away Resorts", "brand:wikidata": "Q108045050"}, "geometry": {"type": "Point", "coordinates": [-4.914150257700817, 50.45733087398238]}},
{"type": "Feature", "id": "9FYYVvV5oiBKdbY53CypgghYc08=", "properties": {"ref": "bude", "@spider": "away_resorts", "addr:full": "Bude Holiday Resort, Maer Lane, Bude, Cornwall, EX23 9EE", "addr:postcode": "EX23 9EE", "addr:country": "GB", "name": "Bude", "phone": "0330 053 7000", "website": "https://www.awayresorts.co.uk/parks/cornwall/bude/", "image": "https://awrwebsauksprod.blob.core.windows.net/assets/media/filer_public/5b/c9/5bc93115-b6f2-475c-8902-c038ded147c9/bude-park-resized.jpg", "brand": "Away Resorts", "brand:wikidata": "Q108045050"}, "geometry": {"type": "Point", "coordinates": [-4.545615370211143, 50.846241725363775]}},
{"type": "Feature", "id": "9aD2hN-WNXLKbDC70rc1_2x9PR0=", "properties": {"ref": "newperran", "@spider": "away_resorts", "addr:full": "Newperran, Hendra Croft, Newquay, TR8 5QJ", "addr:postcode": "TR8 5QJ", "addr:country": "GB", "name": "Newperran", "phone": "0330 053 7000", "website": "https://www.awayresorts.co.uk/parks/cornwall/newperran/", "image": "https://awrwebsauksprod.blob.core.windows.net/assets/media/filer_public/31/0c/310c8910-1d59-4396-871b-f6b41a90e2b5/newperran-resized.jpg", "brand": "Away Resorts", "brand:wikidata": "Q108045050"}, "geometry": {"type": "Point", "coordinates": [-5.101741944221148, 50.35065500699204]}}]}