{"type":"FeatureCollection","features":[{"type": "Feature", "id": "Bcmvp4aUmvZJjE3k5VPLzaxGk1o=", "properties": {"ref": "9615", "location_type": "ATM", "@spider": "bankofhawaii", "addr:full": "1425 Liliha St.", "addr:city": "Honolulu", "addr:state": "Hawaii", "addr:postcode": "96817", "addr:country": "US", "name": "Times Supermarket Liliha", "brand": "Bank of Hawaii", "brand:wikidata": "Q4856124"}, "geometry": {"type": "Point", "coordinates": [-157.861288189888, 21.3196761823156]}},
{"type": "Feature", "id": "XBZycney8k_vjc1WmqyPLnotJZ0=", "properties": {"ref": "9429", "location_type": "ATM", "@spider": "bankofhawaii", "addr:full": "1403 N. School St.", "addr:city": "Honolulu", "addr:state": "Hawaii", "addr:postcode": "96819", "addr:country": "US", "name": "Aloha Island Mart School Street", "brand": "Bank of Hawaii", "brand:wikidata": "Q4856124"}, "geometry": {"type": "Point", "coordinates": [-157.8666859, 21.332182]}},
{"type": "Feature", "id": "57ElzR29MOKTsM0WHqxwQVKjXBE=", "properties": {"ref": "9446", "location_type": "ATM", "@spider": "bankofhawaii", "addr:full": "1360 Pali Hwy.", "addr:city": "Honolulu", "addr:state": "Hawaii", "addr:postcode": "96813", "addr:country": "US", "name": "Safeway Pali", "brand": "Bank of Hawaii", "brand:wikidata": "Q4856124"}, "geometry": {"type": "Point", "coordinates": [-157.8570033, 21.3123471]}},
{"type": "Feature", "id": "TEDU6I6lviiOTTaucSNYLq3dFrk=", "properties": {"ref": "9433", "location_type": "ATM", "@spider": "bankofhawaii", "addr:full": "1226 College Walk", "addr:city": "Honolulu", "addr:state": "Hawaii", "addr:postcode": "96817", "addr:country": "US", "name": "HawaiiUSA Federal Credit Union - Main", "brand": "Bank of Hawaii", "brand:wikidata": "Q4856124"}, "geometry": {"type": "Point", "coordinates": [-157.862141, 21.315543]}},
{"type": "Feature", "id": "1fZYSFk3VkckwzXTQQiGgtrx3rY=", "properties": {"ref": "8562", "location_type": "ATM", "@spider": "bankofhawaii", "addr:full": "1620 N. School St.", "addr:city": "Honolulu", "addr:state": "Hawaii", "addr:postcode": "96817", "addr:country": "US", "name": "Times Supermarket Kamehameha", "brand": "Bank of Hawaii", "brand:wikidata": "Q4856124"}, "geometry": {"type": "Point", "coordinates": [-157.868744, 21.33692]}},
{"type": "Feature", "id": "ifrbImk_1S0cBvMl4ooQEfjESqY=", "properties": {"ref": "9450", "location_type": "ATM", "@spider": "bankofhawaii", "addr:full": "1329 Lusitana St.", "addr:city": "Honolulu", "addr:state": "Hawaii", "addr:postcode": "96813", "addr:country": "US", "name": "Queens Physicians - Office Building II", "brand": "Bank of Hawaii", "brand:wikidata": "Q4856124"}, "geometry": {"type": "Point", "coordinates": [-157.852013, 21.307421]}},
{"type": "Feature", "id": "StnLkDoLv8gP-mn6s7xDtJmOuQk=", "properties": {"ref": "9659", "location_type": "ATM", "@spider": "bankofhawaii", "addr:full": "1301 Punchbowl Street", "addr:city": "Honolulu", "addr:state": "Hawaii", "addr:postcode": "96813", "addr:country": "US", "name": "Queens Medical Center Nalani Wing", "brand": "Bank of Hawaii", "brand:wikidata": "Q4856124"}, "geometry": {"type": "Point", "coordinates": [-157.854882, 21.307872]}},
{"type": "Feature", "id": "KjfY4jNSQZBRotHY7tldAqpmtH4=", "properties": {"ref": "9667", "location_type": "ATM", "@spider": "bankofhawaii", "addr:full": "1301 Punchbowl Street", "addr:city": "Honolulu", "addr:state": "Hawaii", "addr:postcode": "96813", "addr:country": "US", "name": "Queens Medical Center Lobby", "brand": "Bank of Hawaii", "brand:wikidata": "Q4856124"}, "geometry": {"type": "Point", "coordinates": [-157.854882, 21.307872]}},
{"type": "Feature", "id": "tMfvdZnw89BkG08XcmNuNmYWqYE=", "properties": {"ref": "17898", "location_type": "ATM", "@spider": "bankofhawaii", "addr:full": "874 Dillingham Blvd.", "addr:city": "Honolulu", "addr:state": "Hawaii", "addr:postcode": "96817", "addr:country": "US", "name": "HCC - Campus", "brand": "Bank of Hawaii", "brand:wikidata": "Q4856124"}, "geometry": {"type": "Point", "coordinates": [-157.869182, 21.320392]}},
{"type": "Feature", "id": "1nBdjev50Z0s8bGyVX5FMipvu74=", "properties": {"ref": "9455", "location_type": "ATM", "@spider": "bankofhawaii", "addr:full": "1111 Alakea St., 2nd Floor", "addr:city": "Honolulu", "addr:state": "Hawaii", "addr:postcode": "96813", "addr:country": "US", "name": "Traffic Court", "brand": "Bank of Hawaii", "brand:wikidata": "Q4856124"}, "geometry": {"type": "Point", "coordinates": [-157.858858, 21.308927]}},
{"type": "Feature", "id": "_R5G8S0NKHttuHI_DE0glSS3PxE=", "properties": {"ref": "17128", "location_type": "Branch & ATM", "@spider": "bankofhawaii", "addr:full": "909 Dillingham Blvd.", "addr:city": "Honolulu", "addr:state": "Hawaii", "addr:postcode": "96817", "addr:country": "US", "name": "Iwilei Branch", "brand": "Bank of Hawaii", "brand:wikidata": "Q4856124"}, "geometry": {"type": "Point", "coordinates": [-157.869928, 21.319752]}},
{"type": "Feature", "id": "6fNi98StL0L-_ZxJHqhwvycjaIs=", "properties": {"ref": "9656", "location_type": "ATM", "@spider": "bankofhawaii", "addr:full": "550 S. Beretania St.", "addr:city": "Honolulu", "addr:state": "Hawaii", "addr:postcode": "96813", "addr:country": "US", "name": "Queens Physicians - Office Building III", "brand": "Bank of Hawaii", "brand:wikidata": "Q4856124"}, "geometry": {"type": "Point", "coordinates": [-157.854381, 21.306678]}},
{"type": "Feature", "id": "hT6Tl3uyQbO3yW5jR0QpoNwYxrk=", "properties": {"ref": "9431", "location_type": "ATM", "@spider": "bankofhawaii", "addr:full": "525 Alakawa St.", "addr:city": "Honolulu", "addr:state": "Hawaii", "addr:postcode": "96817", "addr:country": "US", "name": "Costco Iwilei", "brand": "Bank of Hawaii", "brand:wikidata": "Q4856124"}, "geometry": {"type": "Point", "coordinates": [-157.870576, 21.318449]}},
{"type": "Feature", "id": "Vv4tq3A_rIE7y3pM6Xg5DhtfyiA=", "properties": {"ref": "8504", "location_type": "Branch & ATM", "@spider": "bankofhawaii", "addr:full": "111 S. King St.", "addr:city": "Honolulu", "addr:state": "Hawaii", "addr:postcode": "96813", "addr:country": "US", "name": "Main Branch", "brand": "Bank of Hawaii", "brand:wikidata": "Q4856124"}, "geometry": {"type": "Point", "coordinates": [-157.861884, 21.308527]}},
{"type": "Feature", "id": "5D1tqRFz9VKcXNJoWkAmDpz6nXA=", "properties": {"ref": "8603", "location_type": "Branch", "@spider": "bankofhawaii", "addr:full": "111 S. King St, 3rd Floor", "addr:city": "Honolulu", "addr:state": "Hawaii", "addr:postcode": "96813", "addr:country": "US", "name": "The Private Bank - Downtown Office", "brand": "Bank of Hawaii", "brand:wikidata": "Q4856124"}, "geometry": {"type": "Point", "coordinates": [-157.861884, 21.308527]}},
{"type": "Feature", "id": "vDQ88zXwPKTWAd0M1zF4aY0AHiU=", "properties": {"ref": "8605", "location_type": "Branch", "@spider": "bankofhawaii", "addr:full": "130 Merchant St.,", "addr:city": "Honolulu", "addr:state": "Hawaii", "addr:postcode": "96813", "addr:country": "US", "name": "Downtown - Residential Loan Office", "brand": "Bank of Hawaii", "brand:wikidata": "Q4856124"}, "geometry": {"type": "Point", "coordinates": [-157.862216234207, 21.3086516987702]}},
{"type": "Feature", "id": "yDW7QjVR36rrVj7LDPRls4qWjfs=", "properties": {"ref": "8608", "location_type": "Branch", "@spider": "bankofhawaii", "addr:full": "130 Merchant St., 17th Floor", "addr:city": "Honolulu", "addr:state": "Hawaii", "addr:postcode": "96813", "addr:country": "US", "name": "Hawaii Commercial Banking Center", "brand": "Bank of Hawaii", "brand:wikidata": "Q4856124"}, "geometry": {"type": "Point", "coordinates": [-157.86222, 21.308591]}},
{"type": "Feature", "id": "xpTBuziw7uNtPExqfVAM8XIL7t0=", "properties": {"ref": "8610", "location_type": "Branch", "@spider": "bankofhawaii", "addr:full": "130 Merchant St., 18th Floor", "addr:city": "Honolulu", "addr:state": "Hawaii", "addr:postcode": "96813", "addr:country": "US", "name": "Cash Management", "brand": "Bank of Hawaii", "brand:wikidata": "Q4856124"}, "geometry": {"type": "Point", "coordinates": [-157.86222, 21.308591]}},
{"type": "Feature", "id": "7fgDcacNlhILOeUcP9ypQgXPl5U=", "properties": {"ref": "8611", "location_type": "Branch", "@spider": "bankofhawaii", "addr:full": "130 Merchant St., 16th Floor", "addr:city": "Honolulu", "addr:state": "Hawaii", "addr:postcode": "96813", "addr:country": "US", "name": "Commercial Deposit Management Center", "brand": "Bank of Hawaii", "brand:wikidata": "Q4856124"}, "geometry": {"type": "Point", "coordinates": [-157.86222, 21.308591]}},
{"type": "Feature", "id": "ynHk83KOR5pSywY_KKnSm4gKV1Q=", "properties": {"ref": "8612", "location_type": "Branch", "@spider": "bankofhawaii", "addr:full": "130 Merchant St., 16th Floor", "addr:city": "Honolulu", "addr:state": "Hawaii", "addr:postcode": "96813", "addr:country": "US", "name": "Commercial Real Estate Loan Division", "brand": "Bank of Hawaii", "brand:wikidata": "Q4856124"}, "geometry": {"type": "Point", "coordinates": [-157.86222, 21.308591]}},
{"type": "Feature", "id": "ssgYBokAss8AAIrAvz3BzbHYbhg=", "properties": {"ref": "9449", "location_type": "ATM", "@spider": "bankofhawaii", "addr:full": "130 Merchant St.", "addr:city": "Honolulu", "addr:state": "Hawaii", "addr:postcode": "96813", "addr:country": "US", "name": "Pacific Century Tower", "brand": "Bank of Hawaii", "brand:wikidata": "Q4856124"}, "geometry": {"type": "Point", "coordinates": [-157.86222, 21.308591]}},
{"type": "Feature", "id": "tv3KXh8knsyfZRx2UL03DWUHRM4=", "properties": {"ref": "9461", "location_type": "ATM", "@spider": "bankofhawaii", "addr:full": "650 Iwilei Rd.", "addr:city": "Honolulu", "addr:state": "Hawaii", "addr:postcode": "96817", "addr:country": "US", "name": "Dole Cannery Square", "brand": "Bank of Hawaii", "brand:wikidata": "Q4856124"}, "geometry": {"type": "Point", "coordinates": [-157.870912, 21.316223]}},
{"type": "Feature", "id": "Pxwz6hZDikup9eXqApfY7dZ_VmU=", "properties": {"ref": "9453", "location_type": "ATM", "@spider": "bankofhawaii", "addr:full": "888 S. King St.", "addr:city": "Honolulu", "addr:state": "Hawaii", "addr:postcode": "96813", "addr:country": "US", "name": "Straub Hospital", "brand": "Bank of Hawaii", "brand:wikidata": "Q4856124"}, "geometry": {"type": "Point", "coordinates": [-157.851158, 21.3030839]}},
{"type": "Feature", "id": "NBz6hcXhqKVvdDKnVWaU9SB3Fp4=", "properties": {"ref": "9454", "location_type": "ATM", "@spider": "bankofhawaii", "addr:full": "700 Bishop St.", "addr:city": "Honolulu", "addr:state": "Hawaii", "addr:postcode": "96813", "addr:country": "US", "name": "Topa Financial Plaza", "brand": "Bank of Hawaii", "brand:wikidata": "Q4856124"}, "geometry": {"type": "Point", "coordinates": [-157.863494, 21.307753]}},
{"type": "Feature", "id": "IZUHv4IgmjWm-jKPxh7ON5ej4fM=", "properties": {"ref": "9314", "location_type": "Branch & ATM", "@spider": "bankofhawaii", "addr:full": "1234 S. Beretania St.", "addr:city": "Honolulu", "addr:state": "HI", "addr:postcode": "96814", "addr:country": "US", "name": "Beretania Branch at Safeway", "brand": "Bank of Hawaii", "brand:wikidata": "Q4856124"}, "geometry": {"type": "Point", "coordinates": [-157.84246, 21.302308]}},
{"type": "Feature", "id": "ZtQmvSV4xYswDyUZayHpxqX8SQg=", "properties": {"ref": "9435", "location_type": "ATM", "@spider": "bankofhawaii", "addr:full": "1860 N. King St.", "addr:city": "Honolulu", "addr:state": "Hawaii", "addr:postcode": "96819", "addr:country": "US", "name": "Aloha Island Mart King St.", "brand": "Bank of Hawaii", "brand:wikidata": "Q4856124"}, "geometry": {"type": "Point", "coordinates": [-157.876706, 21.331841]}},
{"type": "Feature", "id": "nMMbhc3-6k97WVUyDh3_D5W1s-4=", "properties": {"ref": "9467", "location_type": "ATM", "@spider": "bankofhawaii", "addr:full": "1010 Pensacola St.", "addr:city": "Honolulu", "addr:state": "Hawaii", "addr:postcode": "96814", "addr:country": "US", "name": "Kaiser Permanente - Honolulu Clinic", "brand": "Bank of Hawaii", "brand:wikidata": "Q4856124"}, "geometry": {"type": "Point", "coordinates": [-157.846157, 21.301099]}},
{"type": "Feature", "id": "8V0ubRstOWM6Z9H7Z5d-d9bSxrg=", "properties": {"ref": "9427", "location_type": "ATM", "@spider": "bankofhawaii", "addr:full": "2314 N. School St.", "addr:city": "Honolulu", "addr:state": "Hawaii", "addr:postcode": "96819", "addr:country": "US", "name": "Aloha Island Mart Kam IV", "brand": "Bank of Hawaii", "brand:wikidata": "Q4856124"}, "geometry": {"type": "Point", "coordinates": [-157.874498, 21.341489]}},
{"type": "Feature", "id": "SE1iEcZW8az19ZnHWItQuMg_Y38=", "properties": {"ref": "9616", "location_type": "ATM", "@spider": "bankofhawaii", "addr:full": "1290 S. Beretania St.", "addr:city": "Honolulu", "addr:state": "Hawaii", "addr:postcode": "96814", "addr:country": "US", "name": "Times Supermarket Beretania", "brand": "Bank of Hawaii", "brand:wikidata": "Q4856124"}, "geometry": {"type": "Point", "coordinates": [-157.841203808784, 21.3013199091109]}},
{"type": "Feature", "id": "n47tN_um1iRpsrD7wC3SjCuqM0M=", "properties": {"ref": "9460", "location_type": "ATM", "@spider": "bankofhawaii", "addr:full": "101 Ala Moana Blvd., Piers 9 & 10", "addr:city": "Honolulu", "addr:state": "Hawaii", "addr:postcode": "96813", "addr:country": "US", "name": "Aloha Tower Marketplace", "brand": "Bank of Hawaii", "brand:wikidata": "Q4856124"}, "geometry": {"type": "Point", "coordinates": [-157.865767478943, 21.3066576081553]}},
{"type": "Feature", "id": "wmnJVfEh01OBGd0Sldo45QBtL3M=", "properties": {"ref": "9463", "location_type": "ATM", "@spider": "bankofhawaii", "addr:full": "777 Punchbowl St.", "addr:city": "Honolulu", "addr:state": "Hawaii", "addr:postcode": "96817", "addr:country": "US", "name": "First Circuit Court", "brand": "Bank of Hawaii", "brand:wikidata": "Q4856124"}, "geometry": {"type": "Point", "coordinates": [-157.861797809601, 21.3024894215576]}},
{"type": "Feature", "id": "b1QRwdlc20TVICmsbXhQQi1HxtE=", "properties": {"ref": "9425", "location_type": "ATM", "@spider": "bankofhawaii", "addr:full": "1701 Dillingham Blvd.", "addr:city": "Honolulu", "addr:state": "Hawaii", "addr:postcode": "96819", "addr:country": "US", "name": "Aloha Island Mart Dillingham", "brand": "Bank of Hawaii", "brand:wikidata": "Q4856124"}, "geometry": {"type": "Point", "coordinates": [-157.879949, 21.326989]}},
{"type": "Feature", "id": "54dSPW3OU7Xu-vDMhhQy75zZDpk=", "properties": {"ref": "24416", "location_type": "ATM", "@spider": "bankofhawaii", "addr:full": "1319 Punahou St.", "addr:city": "Honolulu", "addr:state": "HI", "addr:postcode": "96826", "addr:country": "US", "name": "Kapiolani Hospital", "brand": "Bank of Hawaii", "brand:wikidata": "Q4856124"}, "geometry": {"type": "Point", "coordinates": [-157.833405480317, 21.3000026827344]}},
{"type": "Feature", "id": "hCxOwse7v1g0J7mfi6xHquu9v9w=", "properties": {"ref": "19486", "location_type": "ATM", "@spider": "bankofhawaii", "addr:full": "818 Keeaumoku St.", "addr:city": "Honolulu", "addr:state": "HI", "addr:postcode": "96814", "addr:country": "US", "name": "HMSA Employee FCU", "brand": "Bank of Hawaii", "brand:wikidata": "Q4856124"}, "geometry": {"type": "Point", "coordinates": [-157.8415, 21.2968]}},
{"type": "Feature", "id": "jeySKTmcqt-6xCYkTmX9kWIkbkc=", "properties": {"ref": "9671", "location_type": "ATM", "@spider": "bankofhawaii", "addr:full": "691 Auahi St.", "addr:city": "Honolulu", "addr:state": "HI", "addr:postcode": "96813", "addr:country": "US", "name": "Salt at Kaka\u02bbako", "brand": "Bank of Hawaii", "brand:wikidata": "Q4856124"}, "geometry": {"type": "Point", "coordinates": [-157.861596, 21.298211]}},
{"type": "Feature", "id": "CvCtzUWqmVGd6WZ3_VwqgRf2kmI=", "properties": {"ref": "9617", "location_type": "ATM", "@spider": "bankofhawaii", "addr:full": "1772 S. King St.", "addr:city": "Honolulu", "addr:state": "Hawaii", "addr:postcode": "96826", "addr:country": "US", "name": "Times Supermarket McCully", "brand": "Bank of Hawaii", "brand:wikidata": "Q4856124"}, "geometry": {"type": "Point", "coordinates": [-157.832819223404, 21.2960519898052]}},
{"type": "Feature", "id": "BTnxapR9uRTpYG4I2U2JhBKInYQ=", "properties": {"ref": "9458", "location_type": "ATM", "@spider": "bankofhawaii", "addr:full": "1044 Auahi St.", "addr:city": "Honolulu", "addr:state": "Hawaii", "addr:postcode": "96814", "addr:country": "US", "name": "Ward Consolidated Theaters", "brand": "Bank of Hawaii", "brand:wikidata": "Q4856124"}, "geometry": {"type": "Point", "coordinates": [-157.854202, 21.294338]}},
{"type": "Feature", "id": "NiPvDwN4ALDJHyC5ZRQRM4xGtYo=", "properties": {"ref": "9468", "location_type": "ATM", "@spider": "bankofhawaii", "addr:full": "2310 Kamehameha Hwy.", "addr:city": "Honolulu", "addr:state": "Hawaii", "addr:postcode": "96819", "addr:country": "US", "name": "Marukai Wholesale Mart", "brand": "Bank of Hawaii", "brand:wikidata": "Q4856124"}, "geometry": {"type": "Point", "coordinates": [-157.885433, 21.332635]}},
{"type": "Feature", "id": "TsIO5hPUMOOSi9ZmntGN6rmy7I0=", "properties": {"ref": "8428", "location_type": "Branch", "@spider": "bankofhawaii", "addr:full": "1441 Kapiolani Blvd.", "addr:city": "Honolulu", "addr:state": "Hawaii", "addr:postcode": "96814", "addr:country": "US", "name": "Ala Moana Branch", "brand": "Bank of Hawaii", "brand:wikidata": "Q4856124"}, "geometry": {"type": "Point", "coordinates": [-157.842915, 21.292973]}},
{"type": "Feature", "id": "BkpL1ZqrsMXnFEOnBHIM_DjYpUk=", "properties": {"ref": "9459", "location_type": "ATM", "@spider": "bankofhawaii", "addr:full": "1441 Kapiolani Blvd.", "addr:city": "Honolulu", "addr:state": "Hawaii", "addr:postcode": "96814", "addr:country": "US", "name": "Ala Moana Banking Center", "brand": "Bank of Hawaii", "brand:wikidata": "Q4856124"}, "geometry": {"type": "Point", "coordinates": [-157.842915, 21.292973]}},
{"type": "Feature", "id": "hf_rkA9FuNy6LW-VyGuy0hgw9UM=", "properties": {"ref": "9462", "location_type": "ATM", "@spider": "bankofhawaii", "addr:full": "801 Kaheka St.", "addr:city": "Honolulu", "addr:state": "Hawaii", "addr:postcode": "96814", "addr:country": "US", "name": "Don Quijote Kaheka", "brand": "Bank of Hawaii", "brand:wikidata": "Q4856124"}, "geometry": {"type": "Point", "coordinates": [-157.838729, 21.293351]}},
{"type": "Feature", "id": "UqcEh8akeSQTfCze6CZpRCjXCUA=", "properties": {"ref": "9373", "location_type": "Branch & ATM", "@spider": "bankofhawaii", "addr:full": "1288 Ala Moana Blvd.", "addr:city": "Honolulu", "addr:state": "Hawaii", "addr:postcode": "96814", "addr:country": "US", "name": "Ward Branch", "brand": "Bank of Hawaii", "brand:wikidata": "Q4856124"}, "geometry": {"type": "Point", "coordinates": [-157.849957, 21.292395]}},
{"type": "Feature", "id": "UZJY-9ZHJW_fnrRHUG-5gAuNGjY=", "properties": {"ref": "9432", "location_type": "ATM", "@spider": "bankofhawaii", "addr:full": "1538 Kapiolani Blvd., Ste. 105", "addr:city": "Honolulu", "addr:state": "Hawaii", "addr:postcode": "96814", "addr:country": "US", "name": "HawaiiUSA Federal Credit Union - Ala Moana", "brand": "Bank of Hawaii", "brand:wikidata": "Q4856124"}, "geometry": {"type": "Point", "coordinates": [-157.840924, 21.292404]}},
{"type": "Feature", "id": "tx4Izg-qr_u1aIguW0iT3PUI3kM=", "properties": {"ref": "8518", "location_type": "Branch & ATM", "@spider": "bankofhawaii", "addr:full": "2809 East Manoa Rd.", "addr:city": "Honolulu", "addr:state": "Hawaii", "addr:postcode": "96822", "addr:country": "US", "name": "Manoa Branch", "brand": "Bank of Hawaii", "brand:wikidata": "Q4856124"}, "geometry": {"type": "Point", "coordinates": [-157.811698, 21.308918]}},
{"type": "Feature", "id": "W_q3GHVPv5NyDsqIqTLiszKiy6k=", "properties": {"ref": "9445", "location_type": "ATM", "@spider": "bankofhawaii", "addr:full": "2855 E. Manoa Rd.", "addr:city": "Honolulu", "addr:state": "Hawaii", "addr:postcode": "96822", "addr:country": "US", "name": "Safeway Manoa", "brand": "Bank of Hawaii", "brand:wikidata": "Q4856124"}, "geometry": {"type": "Point", "coordinates": [-157.810176, 21.308963]}},
{"type": "Feature", "id": "97WqpUzdaif_AdZ63MtOe4BJ1wY=", "properties": {"ref": "9456", "location_type": "ATM", "@spider": "bankofhawaii", "addr:full": "2465 Campus Rd.", "addr:city": "Honolulu", "addr:state": "Hawaii", "addr:postcode": "96822", "addr:country": "US", "name": "University of Hawaii - Campus Center", "brand": "Bank of Hawaii", "brand:wikidata": "Q4856124"}, "geometry": {"type": "Point", "coordinates": [-157.818893, 21.298401]}},
{"type": "Feature", "id": "dmVYuphavXFD4_-Q5MUmlNFxWUo=", "properties": {"ref": "9451", "location_type": "ATM", "@spider": "bankofhawaii", "addr:full": "111 Sand Island Access Rd.", "addr:city": "Honolulu", "addr:state": "Hawaii", "addr:postcode": "96819", "addr:country": "US", "name": "Sand Island Center", "brand": "Bank of Hawaii", "brand:wikidata": "Q4856124"}, "geometry": {"type": "Point", "coordinates": [-157.8905894, 21.323763]}},
{"type": "Feature", "id": "oyJ8n5-3EO_I-LKVmed3BPajrJY=", "properties": {"ref": "9298", "location_type": "Branch & ATM", "@spider": "bankofhawaii", "addr:full": "2470 S. King St., Suite 101", "addr:city": "Honolulu", "addr:state": "Hawaii", "addr:postcode": "96826", "addr:country": "US", "name": "Moiliili Branch", "brand": "Bank of Hawaii", "brand:wikidata": "Q4856124"}, "geometry": {"type": "Point", "coordinates": [-157.823899, 21.293089]}},
{"type": "Feature", "id": "qxhND3ksJw-fSiDWSUOBb6LiPRQ=", "properties": {"ref": "9457", "location_type": "ATM", "@spider": "bankofhawaii", "addr:full": "1355 Lower Campus Rd.", "addr:city": "Honolulu", "addr:state": "Hawaii", "addr:postcode": "96822", "addr:country": "US", "name": "University of Hawaii - Stan Sheriff Arena", "brand": "Bank of Hawaii", "brand:wikidata": "Q4856124"}, "geometry": {"type": "Point", "coordinates": [-157.819676, 21.294003]}},
{"type": "Feature", "id": "numeNJRvv-BpwunDuSpL6AgEnZU=", "properties": {"ref": "9430", "location_type": "ATM", "@spider": "bankofhawaii", "addr:full": "2025 Kalakaua Ave.", "addr:city": "Honolulu", "addr:state": "Hawaii", "addr:postcode": "96815", "addr:country": "US", "name": "Aloha Island Mart Waikiki", "brand": "Bank of Hawaii", "brand:wikidata": "Q4856124"}, "geometry": {"type": "Point", "coordinates": [-157.832264, 21.283991]}},
{"type": "Feature", "id": "5qcIka21eAnFUq8K5NMWiC4Q3T4=", "properties": {"ref": "8602", "location_type": "Branch & ATM", "@spider": "bankofhawaii", "addr:full": "2155 Kalakaua Ave., Suite 104", "addr:city": "Honolulu", "addr:state": "Hawaii", "addr:postcode": "96815", "addr:country": "US", "name": "Waikiki Branch", "brand": "Bank of Hawaii", "brand:wikidata": "Q4856124"}, "geometry": {"type": "Point", "coordinates": [-157.83026, 21.280502]}},
{"type": "Feature", "id": "4XOXVVtsyL0QKmv9igkrOmT8Fok=", "properties": {"ref": "8530", "location_type": "Branch & ATM", "@spider": "bankofhawaii", "addr:full": "2969 Mapunapuna Pl. #100", "addr:city": "Honolulu", "addr:state": "Hawaii", "addr:postcode": "96819", "addr:country": "US", "name": "Mapunapuna Branch", "brand": "Bank of Hawaii", "brand:wikidata": "Q4856124"}, "geometry": {"type": "Point", "coordinates": [-157.90074, 21.339097]}},
{"type": "Feature", "id": "vBMt28ZNaFZqRSGtL5V4Bemy3OI=", "properties": {"ref": "9421", "location_type": "Branch", "@spider": "bankofhawaii", "addr:full": "2969 Mapunapuna Pl.", "addr:city": "Honolulu", "addr:state": "Hawaii", "addr:postcode": "96819", "addr:country": "US", "name": "Mapunapuna Office - Commercial Banking Center", "brand": "Bank of Hawaii", "brand:wikidata": "Q4856124"}, "geometry": {"type": "Point", "coordinates": [-157.90074, 21.339097]}},
{"type": "Feature", "id": "1jNBjBM1TfbhZI0fFo-YczrwB-4=", "properties": {"ref": "9423", "location_type": "Branch", "@spider": "bankofhawaii", "addr:full": "2969 Mapunapuna Pl. #100", "addr:city": "Honolulu", "addr:state": "Hawaii", "addr:postcode": "96819", "addr:country": "US", "name": "Mapunapuna Office - Residential Loan Office (Mapunapuna Branch)", "brand": "Bank of Hawaii", "brand:wikidata": "Q4856124"}, "geometry": {"type": "Point", "coordinates": [-157.90074, 21.339097]}},
{"type": "Feature", "id": "zl-x4OK983FxwQX7txNNbAwr-rg=", "properties": {"ref": "9428", "location_type": "ATM", "@spider": "bankofhawaii", "addr:full": "1001 Kapahulu Ave.", "addr:city": "Honolulu", "addr:state": "Hawaii", "addr:postcode": "96816", "addr:country": "US", "name": "Aloha Island Mart Kapahulu", "brand": "Bank of Hawaii", "brand:wikidata": "Q4856124"}, "geometry": {"type": "Point", "coordinates": [-157.813096, 21.285739]}},
{"type": "Feature", "id": "KtZzNZMTlcGvNfyScPu5DCeNzR0=", "properties": {"ref": "9347", "location_type": "ATM", "@spider": "bankofhawaii", "addr:full": "888 Kapahulu Ave.,", "addr:city": "Honolulu", "addr:state": "Hawaii", "addr:postcode": "96816", "addr:country": "US", "name": "Safeway Kapahulu", "brand": "Bank of Hawaii", "brand:wikidata": "Q4856124"}, "geometry": {"type": "Point", "coordinates": [-157.81385, 21.28412]}},
{"type": "Feature", "id": "DpOT7A4etOJZfeDWhut9gf2lgH0=", "properties": {"ref": "9663", "location_type": "ATM", "@spider": "bankofhawaii", "addr:full": "2330 Kalakaua Ave.", "addr:city": "Honolulu", "addr:state": "HI", "addr:postcode": "96815", "addr:country": "US", "name": "International Market Place", "brand": "Bank of Hawaii", "brand:wikidata": "Q4856124"}, "geometry": {"type": "Point", "coordinates": [-157.826753, 21.277564]}},
{"type": "Feature", "id": "OIRLRWjQZFs1O39ajywmZbfOOvc=", "properties": {"ref": "9618", "location_type": "ATM", "@spider": "bankofhawaii", "addr:full": "3221 Waialae Ave. 376", "addr:city": "Honolulu", "addr:state": "Hawaii", "addr:postcode": "96816", "addr:country": "US", "name": "Times Supermarket Kaimuki", "brand": "Bank of Hawaii", "brand:wikidata": "Q4856124"}, "geometry": {"type": "Point", "coordinates": [-157.807713747025, 21.2867701963517]}},
{"type": "Feature", "id": "17aX7sFiwfmJjX_Hm8NbcDdQwQE=", "properties": {"ref": "9651", "location_type": "ATM", "@spider": "bankofhawaii", "addr:full": "3288 Moanalua Rd.", "addr:city": "Honolulu", "addr:state": "Hawaii", "addr:postcode": "96819", "addr:country": "US", "name": "Kaiser Permanente Moanalua - Lobby", "brand": "Bank of Hawaii", "brand:wikidata": "Q4856124"}, "geometry": {"type": "Point", "coordinates": [-157.899986, 21.363076]}},
{"type": "Feature", "id": "gn2eivglDPGjCEuBjBS30yk9Fbk=", "properties": {"ref": "8468", "location_type": "Branch & ATM", "@spider": "bankofhawaii", "addr:full": "3600 Waialae Ave.", "addr:city": "Honolulu", "addr:state": "Hawaii", "addr:postcode": "96816", "addr:country": "US", "name": "Kaimuki Branch", "brand": "Bank of Hawaii", "brand:wikidata": "Q4856124"}, "geometry": {"type": "Point", "coordinates": [-157.799179, 21.28326]}},
{"type": "Feature", "id": "9J9ZA7X9D1yQBCskuSNK0T0AoWQ=", "properties": {"ref": "9678", "location_type": "ATM", "@spider": "bankofhawaii", "addr:full": "3269 Koapaka St.", "addr:city": "Honolulu", "addr:state": "Hawaii", "addr:postcode": "96819", "addr:country": "US", "name": "Aloha Island Mart Shell Paiea", "brand": "Bank of Hawaii", "brand:wikidata": "Q4856124"}, "geometry": {"type": "Point", "coordinates": [-157.914447, 21.335643]}},
{"type": "Feature", "id": "oTv4EYwfuXXi3qBl0H0kjSrw6I8=", "properties": {"ref": "9447", "location_type": "ATM", "@spider": "bankofhawaii", "addr:full": "848 Ala Lilikoi St.", "addr:city": "Honolulu", "addr:state": "Hawaii", "addr:postcode": "96818", "addr:country": "US", "name": "Safeway Salt Lake", "brand": "Bank of Hawaii", "brand:wikidata": "Q4856124"}, "geometry": {"type": "Point", "coordinates": [-157.914129, 21.344788]}},
{"type": "Feature", "id": "vG7WlUl0l5wpFlxsPRFGMLbIjqs=", "properties": {"ref": "27036", "location_type": "ATM", "@spider": "bankofhawaii", "addr:full": "3375 Koapaka St G-350", "addr:city": "Honolulu", "addr:state": "HI", "addr:postcode": "96819", "addr:country": "US", "name": "Hawaiian Airlines Hq", "brand": "Bank of Hawaii", "brand:wikidata": "Q4856124"}, "geometry": {"type": "Point", "coordinates": [-157.9161526, 21.3347947386726]}},
{"type": "Feature", "id": "Wd-vkLhNn_SI5ZYhTP-QUOuWcbc=", "properties": {"ref": "9465", "location_type": "ATM", "@spider": "bankofhawaii", "addr:full": "300 Rodgers Blvd.", "addr:city": "Honolulu", "addr:state": "Hawaii", "addr:postcode": "96819", "addr:country": "US", "name": "Daniel K. Inouye International Airport - Overseas Terminal", "brand": "Bank of Hawaii", "brand:wikidata": "Q4856124"}, "geometry": {"type": "Point", "coordinates": [-157.91752, 21.331242]}},
{"type": "Feature", "id": "6Bmu7kAMmsVRBhjy7IpLRFB008M=", "properties": {"ref": "9644", "location_type": "ATM", "@spider": "bankofhawaii", "addr:full": "300 Rodgers Blvd.", "addr:city": "Honolulu", "addr:state": "Hawaii", "addr:postcode": "96819", "addr:country": "US", "name": "Daniel K. Inouye International Airport - Baggage Claim H", "brand": "Bank of Hawaii", "brand:wikidata": "Q4856124"}, "geometry": {"type": "Point", "coordinates": [-157.9177192, 21.3319447]}},
{"type": "Feature", "id": "tNzh9qR-ROXuxrFASQq1NhLzW5k=", "properties": {"ref": "9645", "location_type": "ATM", "@spider": "bankofhawaii", "addr:full": "300 Rodgers Blvd.", "addr:city": "Honolulu", "addr:state": "Hawaii", "addr:postcode": "96819", "addr:country": "US", "name": "Daniel K. Inouye International Airport - Checkpoint 3", "brand": "Bank of Hawaii", "brand:wikidata": "Q4856124"}, "geometry": {"type": "Point", "coordinates": [-157.919806, 21.331572]}},
{"type": "Feature", "id": "uc-XNTJdus-ek7dB46qwkJCRgZM=", "properties": {"ref": "9424", "location_type": "ATM", "@spider": "bankofhawaii", "addr:full": "3211 Monsarrat Ave.", "addr:city": "Honolulu", "addr:state": "Hawaii", "addr:postcode": "96815", "addr:country": "US", "name": "Aloha Island Mart Diamond Head", "brand": "Bank of Hawaii", "brand:wikidata": "Q4856124"}, "geometry": {"type": "Point", "coordinates": [-157.810804, 21.26939]}},
{"type": "Feature", "id": "NdftJfdEm0jcowOvh3cGpG62jxw=", "properties": {"ref": "9466", "location_type": "ATM", "@spider": "bankofhawaii", "addr:full": "300 Rodgers Blvd.", "addr:city": "Honolulu", "addr:state": "Hawaii", "addr:postcode": "96819", "addr:country": "US", "name": "Daniel K. Inouye International Airport - Y Concourse", "brand": "Bank of Hawaii", "brand:wikidata": "Q4856124"}, "geometry": {"type": "Point", "coordinates": [-157.920064, 21.330182]}},
{"type": "Feature", "id": "KbPbUu6ykUevRXxgLs5FU4LAzyU=", "properties": {"ref": "9464", "location_type": "ATM", "@spider": "bankofhawaii", "addr:full": "300 Rodgers Blvd.", "addr:city": "Honolulu", "addr:state": "Hawaii", "addr:postcode": "96819", "addr:country": "US", "name": "Daniel K. Inouye International Airport - Inter Island Terminal", "brand": "Bank of Hawaii", "brand:wikidata": "Q4856124"}, "geometry": {"type": "Point", "coordinates": [-157.923768, 21.334117]}},
{"type": "Feature", "id": "zCccFlhYYvyOmgLQUG9D6nc2Z7E=", "properties": {"ref": "24414", "location_type": "ATM", "@spider": "bankofhawaii", "addr:full": "4303 Diamond Head Rd. ", "addr:city": "Honolulu ", "addr:state": "Hi", "addr:postcode": "96816", "addr:country": "US", "name": "Kapiolani Community College - Ohi'a Cafeteria", "brand": "Bank of Hawaii", "brand:wikidata": "Q4856124"}, "geometry": {"type": "Point", "coordinates": [-157.80015, 21.27101]}},
{"type": "Feature", "id": "pDcJfGWGW7kPrbY_aOVBfUsOIQ8=", "properties": {"ref": "9619", "location_type": "ATM", "@spider": "bankofhawaii", "addr:full": "1173 21st Ave.", "addr:city": "Honolulu", "addr:state": "Hawaii", "addr:postcode": "96816", "addr:country": "US", "name": "Times Supermarket Kahala", "brand": "Bank of Hawaii", "brand:wikidata": "Q4856124"}, "geometry": {"type": "Point", "coordinates": [-157.788809537888, 21.277947700977]}},
{"type": "Feature", "id": "Ksu8GTIXE6KJQvkW6hWa1QOCz7E=", "properties": {"ref": "9434", "location_type": "ATM", "@spider": "bankofhawaii", "addr:full": "4137 Waialae Ave.", "addr:city": "Honolulu", "addr:state": "Hawaii", "addr:postcode": "96816", "addr:country": "US", "name": "HawaiiUSA Federal Credit Union - Kahala", "brand": "Bank of Hawaii", "brand:wikidata": "Q4856124"}, "geometry": {"type": "Point", "coordinates": [-157.788201, 21.278192]}},
{"type": "Feature", "id": "nCHFLa7cGUE46TYGM858NOfBxCw=", "properties": {"ref": "9426", "location_type": "ATM", "@spider": "bankofhawaii", "addr:full": "4339 Waialae Ave.", "addr:city": "Honolulu", "addr:state": "Hawaii", "addr:postcode": "96816", "addr:country": "US", "name": "Aloha Island Mart Kahala", "brand": "Bank of Hawaii", "brand:wikidata": "Q4856124"}, "geometry": {"type": "Point", "coordinates": [-157.7842609, 21.277859]}},
{"type": "Feature", "id": "hfRbTlLyhj7zV7Asc88SfWRjca4=", "properties": {"ref": "15895", "location_type": "Branch", "@spider": "bankofhawaii", "addr:full": "Kahala Mall (Near See\u2019s Candies)", "addr:city": "Honolulu", "addr:state": "Hawaii", "addr:postcode": "96816", "addr:country": "US", "name": "Kahala Mall Kiosk", "brand": "Bank of Hawaii", "brand:wikidata": "Q4856124"}, "geometry": {"type": "Point", "coordinates": [-157.785513, 21.276057]}},
{"type": "Feature", "id": "Hd75_4MrkHtK2RjiuoqmQfglCs8=", "properties": {"ref": "16219", "location_type": "ATM", "@spider": "bankofhawaii", "addr:full": "4211 Waialae Ave.", "addr:city": "Honolulu", "addr:state": "Hawaii", "addr:postcode": "96816", "addr:country": "US", "name": "Kahala Mall Kiosk ATM", "brand": "Bank of Hawaii", "brand:wikidata": "Q4856124"}, "geometry": {"type": "Point", "coordinates": [-157.785513, 21.276057]}},
{"type": "Feature", "id": "Etzr2_6VQoI8gMgB95rt_KjxwoM=", "properties": {"ref": "8588", "location_type": "Branch & ATM", "@spider": "bankofhawaii", "addr:full": "4634 Kilauea Ave.", "addr:city": "Honolulu", "addr:state": "Hawaii", "addr:postcode": "96816", "addr:country": "US", "name": "Waialae-Kahala Branch", "brand": "Bank of Hawaii", "brand:wikidata": "Q4856124"}, "geometry": {"type": "Point", "coordinates": [-157.785373, 21.275765]}},
{"type": "Feature", "id": "f-Zm0FD-3ENlIJc6eGUZiYn3940=", "properties": {"ref": "26601", "location_type": "Branch", "@spider": "bankofhawaii", "addr:full": "4634 Kilauea Ave, 2nd Floor", "addr:city": "Honolulu", "addr:state": "Hawaii", "addr:postcode": "96816", "addr:country": "US", "name": "The Private Bank - Waialae Kahala Centre", "brand": "Bank of Hawaii", "brand:wikidata": "Q4856124"}, "geometry": {"type": "Point", "coordinates": [-157.785373, 21.275765]}},
{"type": "Feature", "id": "YgnH141fY-2mZftLkwWviNI3el8=", "properties": {"ref": "9448", "location_type": "ATM", "@spider": "bankofhawaii", "addr:full": "930 Valkenburgh St.", "addr:city": "Honolulu", "addr:state": "Hawaii", "addr:postcode": "96818", "addr:country": "US", "name": "Moanalua Shopping Center", "brand": "Bank of Hawaii", "brand:wikidata": "Q4856124"}, "geometry": {"type": "Point", "coordinates": [-157.929015064316, 21.3456319585586]}},
{"type": "Feature", "id": "FcgwnhOimeBRFx-TbX7mKFf4Nkc=", "properties": {"ref": "9471", "location_type": "ATM", "@spider": "bankofhawaii", "addr:full": "Camp Smith, Bldg 700", "addr:city": "Aiea", "addr:state": "Hawaii", "addr:postcode": "96701", "addr:country": "US", "name": "Camp Smith Food Court", "brand": "Bank of Hawaii", "brand:wikidata": "Q4856124"}, "geometry": {"type": "Point", "coordinates": [-157.907899618148, 21.3850264562054]}},
{"type": "Feature", "id": "_vY8sUsbSfz2qDHcC7p84eP9HNk=", "properties": {"ref": "9521", "location_type": "ATM", "@spider": "bankofhawaii", "addr:full": "4725 Bougainville Dr., Bldg 631", "addr:city": "Honolulu", "addr:state": "Hawaii", "addr:postcode": "96818", "addr:country": "US", "name": "Pearl Harbor Navy Exchange", "brand": "Bank of Hawaii", "brand:wikidata": "Q4856124"}, "geometry": {"type": "Point", "coordinates": [-157.930224, 21.349188]}},
{"type": "Feature", "id": "OlGL8HKa6HXf3ANVdoyOmyH1iMY=", "properties": {"ref": "9522", "location_type": "ATM", "@spider": "bankofhawaii", "addr:full": "4725 Bougainville Dr., Bldg 631\u00a0- 2nd floor", "addr:city": "Honolulu", "addr:state": "Hawaii", "addr:postcode": "96818", "addr:country": "US", "name": "Pearl Harbor Exchange Food Court", "brand": "Bank of Hawaii", "brand:wikidata": "Q4856124"}, "geometry": {"type": "Point", "coordinates": [-157.930869, 21.349319]}},
{"type": "Feature", "id": "uAGaQc8pQkiGiJJN9A6-eJIUpYA=", "properties": {"ref": "9486", "location_type": "ATM", "@spider": "bankofhawaii", "addr:full": "45-596 Kamehameha Hwy.", "addr:city": "Kaneohe", "addr:state": "Hawaii", "addr:postcode": "96744", "addr:country": "US", "name": "Aloha Island Mart Kaneohe", "brand": "Bank of Hawaii", "brand:wikidata": "Q4856124"}, "geometry": {"type": "Point", "coordinates": [-157.799696, 21.400574]}},
{"type": "Feature", "id": "LXaIrYqaODmemtObLXjPftv_oAY=", "properties": {"ref": "9487", "location_type": "ATM", "@spider": "bankofhawaii", "addr:full": "45-620 Kamehameha Hwy.", "addr:city": "Kaneohe", "addr:state": "Hawaii", "addr:postcode": "96744", "addr:country": "US", "name": "Aloha Island Mart Likelike", "brand": "Bank of Hawaii", "brand:wikidata": "Q4856124"}, "geometry": {"type": "Point", "coordinates": [-157.800032, 21.402014]}},
{"type": "Feature", "id": "8G7xrHmt_McooXnO_Pg8l64oPYk=", "properties": {"ref": "9474", "location_type": "ATM", "@spider": "bankofhawaii", "addr:full": "99-500 Salt Lake Blvd.", "addr:city": "Honolulu", "addr:state": "Hawaii", "addr:postcode": "96818", "addr:country": "US", "name": "Aloha Stadium - Box Office", "brand": "Bank of Hawaii", "brand:wikidata": "Q4856124"}, "geometry": {"type": "Point", "coordinates": [-157.9304129, 21.372235]}},
{"type": "Feature", "id": "CHbOttbKCrkRiSpfpYQnfMBuI1w=", "properties": {"ref": "9605", "location_type": "ATM", "@spider": "bankofhawaii", "addr:full": "99-500 Salt Lake Blvd.", "addr:city": "Honolulu", "addr:state": "Hawaii", "addr:postcode": "96818", "addr:country": "US", "name": "Aloha Stadium - North End Zone", "brand": "Bank of Hawaii", "brand:wikidata": "Q4856124"}, "geometry": {"type": "Point", "coordinates": [-157.930161952972, 21.3734024341854]}},
{"type": "Feature", "id": "RjxB6uemEgVbRwzg6mLxcpBAQPw=", "properties": {"ref": "9520", "location_type": "ATM", "@spider": "bankofhawaii", "addr:full": "Abele St", "addr:city": "Honolulu", "addr:state": "Hawaii", "addr:postcode": "96818", "addr:country": "US", "name": "Pearl Harbor Holomoku Minimart", "brand": "Bank of Hawaii", "brand:wikidata": "Q4856124"}, "geometry": {"type": "Point", "coordinates": [-157.939877139835, 21.3569578838262]}},
{"type": "Feature", "id": "V-_TOoqawn8oVFD88mVSCsFYYsA=", "properties": {"ref": "9469", "location_type": "ATM", "@spider": "bankofhawaii", "addr:full": "99-115 Aiea Heights Dr. #114", "addr:city": "Aiea", "addr:state": "Hawaii", "addr:postcode": "96701", "addr:country": "US", "name": "HawaiiUSA Federal Credit Union - Aiea", "brand": "Bank of Hawaii", "brand:wikidata": "Q4856124"}, "geometry": {"type": "Point", "coordinates": [-157.929876, 21.378766]}},
{"type": "Feature", "id": "mG9436E_majtRGaiGr94g0J9Ncw=", "properties": {"ref": "9623", "location_type": "ATM", "@spider": "bankofhawaii", "addr:full": "99-115 Aiea Heights Dr.", "addr:city": "Aiea", "addr:state": "Hawaii", "addr:postcode": "96701", "addr:country": "US", "name": "Times Supermarket Aiea", "brand": "Bank of Hawaii", "brand:wikidata": "Q4856124"}, "geometry": {"type": "Point", "coordinates": [-157.930135130882, 21.378652590252]}},
{"type": "Feature", "id": "R9Vsq922uBES9fHI19oA0i1vU8o=", "properties": {"ref": "9621", "location_type": "ATM", "@spider": "bankofhawaii", "addr:full": "45-934 Kamehameha Hwy.", "addr:city": "Kaneohe", "addr:state": "Hawaii", "addr:postcode": "96744", "addr:country": "US", "name": "Times Supermarket Kaneohe", "brand": "Bank of Hawaii", "brand:wikidata": "Q4856124"}, "geometry": {"type": "Point", "coordinates": [-157.800825834274, 21.4140050620379]}},
{"type": "Feature", "id": "z_1kk6RkxVvozZhz3kbyzGn8RYQ=", "properties": {"ref": "8680", "location_type": "Branch & ATM", "@spider": "bankofhawaii", "addr:full": "45-1001 Kamehameha Hwy.", "addr:city": "Kaneohe", "addr:state": "Hawaii", "addr:postcode": "96744", "addr:country": "US", "name": "Kaneohe Branch", "brand": "Bank of Hawaii", "brand:wikidata": "Q4856124"}, "geometry": {"type": "Point", "coordinates": [-157.800439596176, 21.4151686813087]}},
{"type": "Feature", "id": "WMaHWwwjwQ5FoKm_ukvmICfWmIQ=", "properties": {"ref": "9612", "location_type": "ATM", "@spider": "bankofhawaii", "addr:full": "810 Williamette St., Bldg 1786", "addr:city": "Pearl Harbor", "addr:state": "Hawaii", "addr:postcode": "96860", "addr:country": "US", "name": "Pearl Harbor Fleet Store", "brand": "Bank of Hawaii", "brand:wikidata": "Q4856124"}, "geometry": {"type": "Point", "coordinates": [-157.946569, 21.350412]}},
{"type": "Feature", "id": "TNQOfeTpwUG0_EhqthFV8dFDQyc=", "properties": {"ref": "9489", "location_type": "ATM", "@spider": "bankofhawaii", "addr:full": "46-056 Kamehameha Hwy  Ste 233", "addr:city": "Kaneohe", "addr:state": "Hawaii", "addr:postcode": "96744", "addr:country": "US", "name": "HawaiiUSA Federal Credit Union - Kaneohe", "brand": "Bank of Hawaii", "brand:wikidata": "Q4856124"}, "geometry": {"type": "Point", "coordinates": [-157.805613577366, 21.4195983402509]}},
{"type": "Feature", "id": "ZreeHOwoESisu8w9gYsUtgePWPE=", "properties": {"ref": "9488", "location_type": "ATM", "@spider": "bankofhawaii", "addr:full": "46-004 Kamehameha Hwy.", "addr:city": "Kaneohe", "addr:state": "Hawaii", "addr:postcode": "96744", "addr:country": "US", "name": "Aloha Island Mart Windward Mall", "brand": "Bank of Hawaii", "brand:wikidata": "Q4856124"}, "geometry": {"type": "Point", "coordinates": [-157.801767289639, 21.4180826828901]}},
{"type": "Feature", "id": "YoS7vZ3x0r5p_uSiVkHMP-WpQ_4=", "properties": {"ref": "9499", "location_type": "ATM", "@spider": "bankofhawaii", "addr:full": "46-056 Kamehameha Hwy.", "addr:city": "Kaneohe", "addr:state": "Hawaii", "addr:postcode": "96744", "addr:country": "US", "name": "Windward Mall - Food Court", "brand": "Bank of Hawaii", "brand:wikidata": "Q4856124"}, "geometry": {"type": "Point", "coordinates": [-157.8053855896, 21.4203723931322]}},
{"type": "Feature", "id": "Sfq_h8oMTudYU0z97tywSKVFxGw=", "properties": {"ref": "8696", "location_type": "ATM", "@spider": "bankofhawaii", "addr:full": "46-065 Kamehameha Hwy.", "addr:city": "Kaneohe", "addr:state": "Hawaii", "addr:postcode": "96744", "addr:country": "US", "name": "Safeway Kaneohe", "brand": "Bank of Hawaii", "brand:wikidata": "Q4856124"}, "geometry": {"type": "Point", "coordinates": [-157.80301451683, 21.4219104989403]}},
{"type": "Feature", "id": "NPuKcOf3o-9XRS_lDwC8Pw4VisA=", "properties": {"ref": "8628", "location_type": "Branch", "@spider": "bankofhawaii", "addr:full": "98-1059 Moanalua Rd.", "addr:city": "Aiea", "addr:state": "Hawaii", "addr:postcode": "96701", "addr:country": "US", "name": "Pearlridge Office - Residential Loan Office (Pearlridge Branch)", "brand": "Bank of Hawaii", "brand:wikidata": "Q4856124"}, "geometry": {"type": "Point", "coordinates": [-157.9391504, 21.3822166]}},
{"type": "Feature", "id": "jreujPaypIF-6DlCnomlvMKwzso=", "properties": {"ref": "8627", "location_type": "Branch & ATM", "@spider": "bankofhawaii", "addr:full": "98-1059 Moanalua Rd.", "addr:city": "Aiea", "addr:state": "Hawaii", "addr:postcode": "96701", "addr:country": "US", "name": "Pearlridge Branch", "brand": "Bank of Hawaii", "brand:wikidata": "Q4856124"}, "geometry": {"type": "Point", "coordinates": [-157.938444, 21.384622]}},
{"type": "Feature", "id": "R2MHi99abEugQibKEdqvSC_QbuM=", "properties": {"ref": "9475", "location_type": "ATM", "@spider": "bankofhawaii", "addr:full": "98-1005 Moanalua Rd.", "addr:city": "Aiea", "addr:state": "Hawaii", "addr:postcode": "96701", "addr:country": "US", "name": "Pearlridge Center - Food Court Uptown", "brand": "Bank of Hawaii", "brand:wikidata": "Q4856124"}, "geometry": {"type": "Point", "coordinates": [-157.939952015877, 21.3830034332147]}},
{"type": "Feature", "id": "rskBZfQjG1Ly8RRCFFcW13IZlOI=", "properties": {"ref": "9620", "location_type": "ATM", "@spider": "bankofhawaii", "addr:full": "47-3888 Hui Iwa St.", "addr:city": "Kaneohe", "addr:state": "Hawaii", "addr:postcode": "96744", "addr:country": "US", "name": "Times Supermarket Temple Valley", "brand": "Bank of Hawaii", "brand:wikidata": "Q4856124"}, "geometry": {"type": "Point", "coordinates": [-157.826194167137, 21.4364068495337]}},
{"type": "Feature", "id": "FaKCNywGUERN_hHvby4b5MSSbpE=", "properties": {"ref": "9672", "location_type": "ATM", "@spider": "bankofhawaii", "addr:full": "Hickam Air Force Base", "addr:city": "Joint Base Pearl Harbor-Hickam", "addr:state": "HI", "addr:postcode": "96860", "addr:country": "US", "name": "Pearl Harbor Ford Island Exchange", "brand": "Bank of Hawaii", "brand:wikidata": "Q4856124"}, "geometry": {"type": "Point", "coordinates": [-157.961783, 21.358195]}},
{"type": "Feature", "id": "xOp-tFkVo_ujLGMXyRtXmtmt7iY=", "properties": {"ref": "9481", "location_type": "ATM", "@spider": "bankofhawaii", "addr:full": "151 Hekili Street Ste 101", "addr:city": "Kailua", "addr:state": "Hawaii", "addr:postcode": "96734", "addr:country": "US", "name": "Ko\u2019olau FCU - Kailua", "brand": "Bank of Hawaii", "brand:wikidata": "Q4856124"}, "geometry": {"type": "Point", "coordinates": [-157.743458747864, 21.3933430346086]}},
{"type": "Feature", "id": "jPDx9KO7j-4wsTWta481hOBHdF0=", "properties": {"ref": "9627", "location_type": "ATM", "@spider": "bankofhawaii", "addr:full": "434 Kuulei Rd.", "addr:city": "Kailua", "addr:state": "Hawaii", "addr:postcode": "96734", "addr:country": "US", "name": "Aloha Island Mart Kailua Shell", "brand": "Bank of Hawaii", "brand:wikidata": "Q4856124"}, "geometry": {"type": "Point", "coordinates": [-157.743356, 21.394894]}},
{"type": "Feature", "id": "Df8ff48I9eYDMHXpmEqBC2hcuiE=", "properties": {"ref": "9473", "location_type": "ATM", "@spider": "bankofhawaii", "addr:full": "98-1277 Kaahumanu St.", "addr:city": "Aiea", "addr:state": "Hawaii", "addr:postcode": "96701", "addr:country": "US", "name": "Safeway Newtown", "brand": "Bank of Hawaii", "brand:wikidata": "Q4856124"}, "geometry": {"type": "Point", "coordinates": [-157.951619625092, 21.3905059606991]}},
{"type": "Feature", "id": "T3aP6HH9BXwNHIewzB_tmPSZz0s=", "properties": {"ref": "8652", "location_type": "Branch & ATM", "@spider": "bankofhawaii", "addr:full": "636 Kailua Rd.", "addr:city": "Kailua", "addr:state": "Hawaii", "addr:postcode": "96734", "addr:country": "US", "name": "Kailua Branch", "brand": "Bank of Hawaii", "brand:wikidata": "Q4856124"}, "geometry": {"type": "Point", "coordinates": [-157.742589712143, 21.3944019283728]}},
{"type": "Feature", "id": "U3QV3cIoobhW-y3T7y2uIFBkKMo=", "properties": {"ref": "8668", "location_type": "ATM", "@spider": "bankofhawaii", "addr:full": "200 Hamakua Dr.,", "addr:city": "Kailua", "addr:state": "Hawaii", "addr:postcode": "96734", "addr:country": "US", "name": "Safeway Kailua", "brand": "Bank of Hawaii", "brand:wikidata": "Q4856124"}, "geometry": {"type": "Point", "coordinates": [-157.73987531662, 21.3906757870942]}},
{"type": "Feature", "id": "iaTsoZ3Fij5s71fCaxI9Ko2jv3w=", "properties": {"ref": "9632", "location_type": "ATM", "@spider": "bankofhawaii", "addr:full": "41-1606 Kalanianaole Hwy.", "addr:city": "Waimanalo", "addr:state": "Hawaii", "addr:postcode": "96795", "addr:country": "US", "name": "Shima's Market", "brand": "Bank of Hawaii", "brand:wikidata": "Q4856124"}, "geometry": {"type": "Point", "coordinates": [-157.722644805908, 21.3503015096849]}},
{"type": "Feature", "id": "mSl3N92qX8OVWePDb0XAcgcSzAM=", "properties": {"ref": "9624", "location_type": "ATM", "@spider": "bankofhawaii", "addr:full": "98-1264 Kaahumanu St.", "addr:city": "Pearl City", "addr:state": "Hawaii", "addr:postcode": "96782", "addr:country": "US", "name": "Times Supermarket Waimalu", "brand": "Bank of Hawaii", "brand:wikidata": "Q4856124"}, "geometry": {"type": "Point", "coordinates": [-157.954108715057, 21.3899315464306]}},
{"type": "Feature", "id": "_dnjKqB8FH4ItyzNhZzuPACgVIc=", "properties": {"ref": "9622", "location_type": "ATM", "@spider": "bankofhawaii", "addr:full": "590 Kailua Rd.", "addr:city": "Kailua", "addr:state": "Hawaii", "addr:postcode": "96734", "addr:country": "US", "name": "Times Supermarket Kailua", "brand": "Bank of Hawaii", "brand:wikidata": "Q4856124"}, "geometry": {"type": "Point", "coordinates": [-157.740207910537, 21.39385250332]}},
{"type": "Feature", "id": "GD_-naNACWAKf8xB6KnuC4PG3jQ=", "properties": {"ref": "9484", "location_type": "ATM", "@spider": "bankofhawaii", "addr:full": "1060 Keolu Dr.", "addr:city": "Kailua", "addr:state": "Hawaii", "addr:postcode": "96734", "addr:country": "US", "name": "Safeway Enchanted Lake", "brand": "Bank of Hawaii", "brand:wikidata": "Q4856124"}, "geometry": {"type": "Point", "coordinates": [-157.729205489159, 21.3773737874729]}},
{"type": "Feature", "id": "CfJuVaXsDIPgvbsui0W-Oy2Nbeo=", "properties": {"ref": "9478", "location_type": "ATM", "@spider": "bankofhawaii", "addr:full": "Comerant Ave., Bldg 6882", "addr:city": "Ewa Beach", "addr:state": "Hawaii", "addr:postcode": "96706", "addr:country": "US", "name": "Iroquois Point Exchange", "brand": "Bank of Hawaii", "brand:wikidata": "Q4856124"}, "geometry": {"type": "Point", "coordinates": [-157.982357740402, 21.3188216395214]}},
{"type": "Feature", "id": "Mla3EmaCXOqvbcYhspAZTUUyIA4=", "properties": {"ref": "9483", "location_type": "ATM", "@spider": "bankofhawaii", "addr:full": "25 Kaneohe Bay Dr.", "addr:city": "Kailua", "addr:state": "Hawaii", "addr:postcode": "96734", "addr:country": "US", "name": "Safeway Aikahi", "brand": "Bank of Hawaii", "brand:wikidata": "Q4856124"}, "geometry": {"type": "Point", "coordinates": [-157.748465, 21.423421]}},
{"type": "Feature", "id": "sWCdbO0WXuYOAofB5wAA7t73YbM=", "properties": {"ref": "9515", "location_type": "ATM", "@spider": "bankofhawaii", "addr:full": "850 Kamehameha Hwy.", "addr:city": "Pearl City", "addr:state": "Hawaii", "addr:postcode": "96782", "addr:country": "US", "name": "Don Quijote\u00a0Pearl City", "brand": "Bank of Hawaii", "brand:wikidata": "Q4856124"}, "geometry": {"type": "Point", "coordinates": [-157.968372, 21.394958]}},
{"type": "Feature", "id": "YgBrO0dAXNHUyRzQEFndjliHozw=", "properties": {"ref": "9677", "location_type": "ATM", "@spider": "bankofhawaii", "addr:full": "249 Keahole St.", "addr:city": "Honolulu", "addr:state": "HI", "addr:postcode": "96825", "addr:country": "US", "name": "Aloha Island Mart Hawaii Kai", "brand": "Bank of Hawaii", "brand:wikidata": "Q4856124"}, "geometry": {"type": "Point", "coordinates": [-157.713452, 21.28361]}},
{"type": "Feature", "id": "ffsEUG15UEz13yYNjkWjga0bwWc=", "properties": {"ref": "8785", "location_type": "Branch & ATM", "@spider": "bankofhawaii", "addr:full": "850 Kamehameha Hwy., Suite 270", "addr:city": "Pearl City", "addr:state": "Hawaii", "addr:postcode": "96782", "addr:country": "US", "name": "Pearl City Branch", "brand": "Bank of Hawaii", "brand:wikidata": "Q4856124"}, "geometry": {"type": "Point", "coordinates": [-157.9699363, 21.3938615]}},
{"type": "Feature", "id": "p3QN9bqgPEa6FYQ-N-lg85qjoCc=", "properties": {"ref": "9480", "location_type": "ATM", "@spider": "bankofhawaii", "addr:full": "333A Keahole St.", "addr:city": "Honolulu", "addr:state": "Hawaii", "addr:postcode": "96825", "addr:country": "US", "name": "Costco Hawaii Kai", "brand": "Bank of Hawaii", "brand:wikidata": "Q4856124"}, "geometry": {"type": "Point", "coordinates": [-157.711277, 21.282724]}},
{"type": "Feature", "id": "YnAVHjJ2YXpfd7tDQicerKou2cg=", "properties": {"ref": "9514", "location_type": "ATM", "@spider": "bankofhawaii", "addr:full": "Lehua Ave., Bldg 794", "addr:city": "Pearl City", "addr:state": "Hawaii", "addr:postcode": "96782", "addr:country": "US", "name": "Pearl Harbor Pearl City Mini Mart", "brand": "Bank of Hawaii", "brand:wikidata": "Q4856124"}, "geometry": {"type": "Point", "coordinates": [-157.976012, 21.389495]}},
{"type": "Feature", "id": "9buU0s_tDVCUPUwqUsw5zhtgZII=", "properties": {"ref": "8546", "location_type": "ATM", "@spider": "bankofhawaii", "addr:full": "377 Keahole St.", "addr:city": "Honolulu", "addr:state": "Hawaii", "addr:postcode": "96825", "addr:country": "US", "name": "Safeway Hawaii Kai", "brand": "Bank of Hawaii", "brand:wikidata": "Q4856124"}, "geometry": {"type": "Point", "coordinates": [-157.706902, 21.285077]}},
{"type": "Feature", "id": "ZmY5VHnuCsYlvoIPd7K_iOstp-I=", "properties": {"ref": "9646", "location_type": "ATM", "@spider": "bankofhawaii", "addr:full": "Building 6919 Selden Street", "addr:city": "Kaneohe", "addr:state": "Hawaii", "addr:postcode": "96863", "addr:country": "US", "name": "MCBH Selden St. Marine Mart", "brand": "Bank of Hawaii", "brand:wikidata": "Q4856124"}, "geometry": {"type": "Point", "coordinates": [-157.766068, 21.445735]}},
{"type": "Feature", "id": "Y-F_cUdCMScJTeAIEGIqw72HQds=", "properties": {"ref": "9606", "location_type": "ATM", "@spider": "bankofhawaii", "addr:full": "1245 Kuala St. #101", "addr:city": "Pearl City", "addr:state": "Hawaii", "addr:postcode": "96782", "addr:country": "US", "name": "HawaiiUSA Federal Credit Union - Pearl City", "brand": "Bank of Hawaii", "brand:wikidata": "Q4856124"}, "geometry": {"type": "Point", "coordinates": [-157.9727529, 21.4006673]}},
{"type": "Feature", "id": "Vbq-m2kvtMRYUlsKLqlIH91M_Wo=", "properties": {"ref": "9498", "location_type": "ATM", "@spider": "bankofhawaii", "addr:full": "MCBH, G St., Bldg. 3071", "addr:city": "Kaneohe", "addr:state": "Hawaii", "addr:postcode": "96734", "addr:country": "US", "name": "MCBH Seven Day Store", "brand": "Bank of Hawaii", "brand:wikidata": "Q4856124"}, "geometry": {"type": "Point", "coordinates": [-157.755990028381, 21.4393878358158]}},
{"type": "Feature", "id": "ZyBDSN7P9135c2JCToFhvRvr6b4=", "properties": {"ref": "8456", "location_type": "Branch & ATM", "@spider": "bankofhawaii", "addr:full": "7192 Kalanianaole Hwy., Ste. C-115", "addr:city": "Honolulu", "addr:state": "Hawaii", "addr:postcode": "96825", "addr:country": "US", "name": "Hawaii Kai Branch", "brand": "Bank of Hawaii", "brand:wikidata": "Q4856124"}, "geometry": {"type": "Point", "coordinates": [-157.70462, 21.277398]}},
{"type": "Feature", "id": "UYEaaw7SeSatOVhqdlaNBCUjYWc=", "properties": {"ref": "9490", "location_type": "ATM", "@spider": "bankofhawaii", "addr:full": "6699 Mokapu Rd.", "addr:city": "Kailua", "addr:state": "Hawaii", "addr:postcode": "96734", "addr:country": "US", "name": "Ko\u2019olau FCU - MCBH", "brand": "Bank of Hawaii", "brand:wikidata": "Q4856124"}, "geometry": {"type": "Point", "coordinates": [-157.744343876838, 21.4423937268121]}},
{"type": "Feature", "id": "GklVydj0ft-oxagjuD_ALr1qw_4=", "properties": {"ref": "25029", "location_type": "ATM", "@spider": "bankofhawaii", "addr:full": "Bldg 1667 Mokapu Rd", "addr:city": "Kailua", "addr:state": "Hawaii", "addr:postcode": "96734", "addr:country": "US", "name": "MCBH Mokapu Marine Mart", "brand": "Bank of Hawaii", "brand:wikidata": "Q4856124"}, "geometry": {"type": "Point", "coordinates": [-157.74416, 21.44234]}},
{"type": "Feature", "id": "FR331-dJ6tAWtRXnohiqLW4zkUA=", "properties": {"ref": "9496", "location_type": "ATM", "@spider": "bankofhawaii", "addr:full": "MCBH, Cushman St., Bldg. 6477", "addr:city": "Kaneohe", "addr:state": "Hawaii", "addr:postcode": "96863", "addr:country": "US", "name": "MCBH Food Court", "brand": "Bank of Hawaii", "brand:wikidata": "Q4856124"}, "geometry": {"type": "Point", "coordinates": [-157.744177579879, 21.4441013648745]}},
{"type": "Feature", "id": "cEiT7zZ02TUa8qMiLEpvPhdd09c=", "properties": {"ref": "9530", "location_type": "ATM", "@spider": "bankofhawaii", "addr:full": "94-780 Farrington Hwy.", "addr:city": "Waipahu", "addr:state": "Hawaii", "addr:postcode": "96797", "addr:country": "US", "name": "Aloha Island Mart Waipahu", "brand": "Bank of Hawaii", "brand:wikidata": "Q4856124"}, "geometry": {"type": "Point", "coordinates": [-158.004805, 21.384389]}},
{"type": "Feature", "id": "L-Qx943J2NTH05Bu3JMdasKcs8o=", "properties": {"ref": "9614", "location_type": "ATM", "@spider": "bankofhawaii", "addr:full": "94-766 Farrington Hwy.", "addr:city": "Waipahu", "addr:state": "Hawaii", "addr:postcode": "96797", "addr:country": "US", "name": "Times Supermarket Waipahu", "brand": "Bank of Hawaii", "brand:wikidata": "Q4856124"}, "geometry": {"type": "Point", "coordinates": [-158.005612492561, 21.384342128102]}},
{"type": "Feature", "id": "by9tulgi_zQOWCKtNNC_nSvEBkY=", "properties": {"ref": "8837", "location_type": "Branch & ATM", "@spider": "bankofhawaii", "addr:full": "94-712 Farrington Hwy.", "addr:city": "Waipahu", "addr:state": "Hawaii", "addr:postcode": "96797", "addr:country": "US", "name": "Waipahu Branch", "brand": "Bank of Hawaii", "brand:wikidata": "Q4856124"}, "geometry": {"type": "Point", "coordinates": [-158.006967, 21.383873]}},
{"type": "Feature", "id": "mRFBDTbsB1DfN9dFEah-Im-ioME=", "properties": {"ref": "9330", "location_type": "Branch & ATM", "@spider": "bankofhawaii", "addr:full": "91-1119 Keaunui Dr.", "addr:city": "Ewa Beach", "addr:state": "Hawaii", "addr:postcode": "96706", "addr:country": "US", "name": "Ewa Branch at Safeway", "brand": "Bank of Hawaii", "brand:wikidata": "Q4856124"}, "geometry": {"type": "Point", "coordinates": [-158.020113, 21.326862]}},
{"type": "Feature", "id": "cUCDD5EhxZFWpbD0RuMiiO_wIt0=", "properties": {"ref": "9534", "location_type": "ATM", "@spider": "bankofhawaii", "addr:full": "94-826 Ukee St.", "addr:city": "Waipahu", "addr:state": "Hawaii", "addr:postcode": "96797", "addr:country": "US", "name": "Aloha Island Mart Waipio", "brand": "Bank of Hawaii", "brand:wikidata": "Q4856124"}, "geometry": {"type": "Point", "coordinates": [-157.99974, 21.411922]}},
{"type": "Feature", "id": "HxP4yOUR7pGNiW2Do89pTJRGpbA=", "properties": {"ref": "9687", "location_type": "ATM", "@spider": "bankofhawaii", "addr:full": "91-1041 Keaunui Dr.", "addr:city": "Ewa Beach", "addr:state": "HI", "addr:postcode": "96706", "addr:country": "US", "name": "Safeway Ewa Gas Station", "brand": "Bank of Hawaii", "brand:wikidata": "Q4856124"}, "geometry": {"type": "Point", "coordinates": [-158.023228, 21.325877]}},
{"type": "Feature", "id": "xLlFCxll-5kVRc3wIV8de1hp8-s=", "properties": {"ref": "16021", "location_type": "ATM", "@spider": "bankofhawaii", "addr:full": "94-809 Lumiaina St.", "addr:city": "Waipahu", "addr:state": "HI", "addr:postcode": "96797", "addr:country": "US", "name": "Safeway Waikele", "brand": "Bank of Hawaii", "brand:wikidata": "Q4856124"}, "geometry": {"type": "Point", "coordinates": [-158.007845, 21.398501]}},
{"type": "Feature", "id": "YOsq1-5-WQcbxjLf1BIDnTVImPI=", "properties": {"ref": "9669", "location_type": "ATM", "@spider": "bankofhawaii", "addr:full": "91-1401 Fort Weaver Rd. C101", "addr:city": "Ewa Beach", "addr:state": "HI", "addr:postcode": "96706", "addr:country": "US", "name": "HawaiiUSA Federal Credit Union - Ewa Beach", "brand": "Bank of Hawaii", "brand:wikidata": "Q4856124"}, "geometry": {"type": "Point", "coordinates": [-158.024682, 21.334298]}},
{"type": "Feature", "id": "9kY9Cb_AAbgY-80kcJlzRXAr0Bg=", "properties": {"ref": "9683", "location_type": "ATM", "@spider": "bankofhawaii", "addr:full": "94-264 Farrington Highway", "addr:city": "Waipahu", "addr:state": "HI", "addr:postcode": "96797", "addr:country": "US", "name": "Aloha Island Mart Leokane", "brand": "Bank of Hawaii", "brand:wikidata": "Q4856124"}, "geometry": {"type": "Point", "coordinates": [-158.019401, 21.380366]}},
{"type": "Feature", "id": "ykYis-XgpkzmFgGpQVkR9JEnhRE=", "properties": {"ref": "9536", "location_type": "ATM", "@spider": "bankofhawaii", "addr:full": "94-1480 Moaniani St.", "addr:city": "Waipahu", "addr:state": "Hawaii", "addr:postcode": "96797", "addr:country": "US", "name": "Kaiser Permanente - Waipio Clinic", "brand": "Bank of Hawaii", "brand:wikidata": "Q4856124"}, "geometry": {"type": "Point", "coordinates": [-157.9969209, 21.425261]}},
{"type": "Feature", "id": "Ndt_-asXfzUD1hq3BivzxcaEt20=", "properties": {"ref": "9533", "location_type": "ATM", "@spider": "bankofhawaii", "addr:full": "94-144 Farrington Hwy.", "addr:city": "Waipahu", "addr:state": "Hawaii", "addr:postcode": "96797", "addr:country": "US", "name": "Don Quijote\u00a0Waipahu", "brand": "Bank of Hawaii", "brand:wikidata": "Q4856124"}, "geometry": {"type": "Point", "coordinates": [-158.0225869, 21.3792319]}},
{"type": "Feature", "id": "vFEVkM1lp-VQ43Fwi1gAapuRo3E=", "properties": {"ref": "9535", "location_type": "ATM", "@spider": "bankofhawaii", "addr:full": "94-1231 Ka Uka Blvd.", "addr:city": "Waipahu", "addr:state": "Hawaii", "addr:postcode": "96797", "addr:country": "US", "name": "Costco Waipio", "brand": "Bank of Hawaii", "brand:wikidata": "Q4856124"}, "geometry": {"type": "Point", "coordinates": [-157.99957, 21.426962]}},
{"type": "Feature", "id": "6ab4Hds8GqfviML5gjlaQnYDuc0=", "properties": {"ref": "9653", "location_type": "ATM", "@spider": "bankofhawaii", "addr:full": "91-2141 Fort Weaver Road", "addr:city": "Ewa Beach", "addr:state": "Hawaii", "addr:postcode": "96706", "addr:country": "US", "name": "Queens Medical Center West Oahu", "brand": "Bank of Hawaii", "brand:wikidata": "Q4856124"}, "geometry": {"type": "Point", "coordinates": [-158.027247, 21.37195]}},
{"type": "Feature", "id": "3EEs2OGtuPMCgy-I1hkk_l-hj5U=", "properties": {"ref": "9531", "location_type": "ATM", "@spider": "bankofhawaii", "addr:full": "94-030 Farrington Hwy. Ste #101", "addr:city": "Waipahu", "addr:state": "Hawaii", "addr:postcode": "96797", "addr:country": "US", "name": "HawaiiUSA Federal Credit Union - Waipahu", "brand": "Bank of Hawaii", "brand:wikidata": "Q4856124"}, "geometry": {"type": "Point", "coordinates": [-158.025849, 21.37802]}},
{"type": "Feature", "id": "OnCpjSznG2bbF_PIicoUZm3GX3o=", "properties": {"ref": "8823", "location_type": "Branch & ATM", "@spider": "bankofhawaii", "addr:full": "94-661 Kupuohi St.", "addr:city": "Waipahu", "addr:state": "Hawaii", "addr:postcode": "96797", "addr:country": "US", "name": "Kunia Branch", "brand": "Bank of Hawaii", "brand:wikidata": "Q4856124"}, "geometry": {"type": "Point", "coordinates": [-158.033421635628, 21.3877137866982]}},
{"type": "Feature", "id": "eBmvNNaA8VC7BMefyXoaX62To_k=", "properties": {"ref": "9613", "location_type": "ATM", "@spider": "bankofhawaii", "addr:full": "94-615 Kupuohi St.", "addr:city": "Waipahu", "addr:state": "Hawaii", "addr:postcode": "96797", "addr:country": "US", "name": "Times Supermarket Kunia", "brand": "Bank of Hawaii", "brand:wikidata": "Q4856124"}, "geometry": {"type": "Point", "coordinates": [-158.034237027168, 21.3897017800917]}},
{"type": "Feature", "id": "vGLlvSpnOOPVhKllPNDzCA336XU=", "properties": {"ref": "9512", "location_type": "ATM", "@spider": "bankofhawaii", "addr:full": "95-1249 Meheula Pkwy.", "addr:city": "Mililani", "addr:state": "Hawaii", "addr:postcode": "96789", "addr:country": "US", "name": "Times Supermarket Mililani", "brand": "Bank of Hawaii", "brand:wikidata": "Q4856124"}, "geometry": {"type": "Point", "coordinates": [-158.006444, 21.454077]}},
{"type": "Feature", "id": "bMz1NyIn5WUGJgSzP6vi91ypt-E=", "properties": {"ref": "8739", "location_type": "Branch & ATM", "@spider": "bankofhawaii", "addr:full": "95-1249 Meheula Pkwy.,", "addr:city": "Mililani", "addr:state": "Hawaii", "addr:postcode": "96789", "addr:country": "US", "name": "Mililani Branch", "brand": "Bank of Hawaii", "brand:wikidata": "Q4856124"}, "geometry": {"type": "Point", "coordinates": [-158.0081666, 21.4535206]}},
{"type": "Feature", "id": "daqmZLJ1QMLC0e8024ZGO5jfpy0=", "properties": {"ref": "8755", "location_type": "ATM", "@spider": "bankofhawaii", "addr:full": "94-780B Meheula Pkwy.,", "addr:city": "Mililani", "addr:state": "Hawaii", "addr:postcode": "96789", "addr:country": "US", "name": "Safeway Mililani", "brand": "Bank of Hawaii", "brand:wikidata": "Q4856124"}, "geometry": {"type": "Point", "coordinates": [-158.022755, 21.442236]}},
{"type": "Feature", "id": "M0-aOPJeoB7pQVGzVu4Tyt1y1No=", "properties": {"ref": "9508", "location_type": "ATM", "@spider": "bankofhawaii", "addr:full": "95-280 Kipapa Dr.", "addr:city": "Mililani", "addr:state": "Hawaii", "addr:postcode": "96789", "addr:country": "US", "name": "Aloha Island Mart Mililani", "brand": "Bank of Hawaii", "brand:wikidata": "Q4856124"}, "geometry": {"type": "Point", "coordinates": [-158.014791, 21.456622]}},
{"type": "Feature", "id": "Cc-hJXvmdY9WdSNhJehhqJJ9ZKo=", "properties": {"ref": "9509", "location_type": "ATM", "@spider": "bankofhawaii", "addr:full": "95-221 Kipapa Dr, #3120", "addr:city": "Mililani", "addr:state": "Hawaii", "addr:postcode": "96789", "addr:country": "US", "name": "HawaiiUSA Federal Credit Union - Mililani", "brand": "Bank of Hawaii", "brand:wikidata": "Q4856124"}, "geometry": {"type": "Point", "coordinates": [-158.016089, 21.457692]}},
{"type": "Feature", "id": "epSsFtm276ACkAy1EOvsqeyvE3c=", "properties": {"ref": "9476", "location_type": "ATM", "@spider": "bankofhawaii", "addr:full": "1928 Saratgoga Ave", "addr:city": "Kapolei", "addr:state": "Hawaii", "addr:postcode": "96707", "addr:country": "US", "name": "Navy Exchange Touch & Go Mini Mart", "brand": "Bank of Hawaii", "brand:wikidata": "Q4856124"}, "geometry": {"type": "Point", "coordinates": [-158.068907260894, 21.3211803654422]}},
{"type": "Feature", "id": "uhAPorF_rZ_9GgOH7L1VZz-cIVA=", "properties": {"ref": "9626", "location_type": "ATM", "@spider": "bankofhawaii", "addr:full": "577 Farrington Hwy.", "addr:city": "Kapolei", "addr:state": "Hawaii", "addr:postcode": "96707", "addr:country": "US", "name": "Aloha Island Mart Kapolei Shell", "brand": "Bank of Hawaii", "brand:wikidata": "Q4856124"}, "geometry": {"type": "Point", "coordinates": [-158.076936, 21.338974]}},
{"type": "Feature", "id": "lLapxDIFszM13yaC1G6V27m4ofI=", "properties": {"ref": "8726", "location_type": "ATM", "@spider": "bankofhawaii", "addr:full": "91-590 Farrington Hwy.,", "addr:city": "Kapolei", "addr:state": "Hawaii", "addr:postcode": "96707", "addr:country": "US", "name": "Safeway Kapolei", "brand": "Bank of Hawaii", "brand:wikidata": "Q4856124"}, "geometry": {"type": "Point", "coordinates": [-158.078337, 21.3398499]}},
{"type": "Feature", "id": "pdniZhb6B11lZ3Eo33wKQSlsuog=", "properties": {"ref": "8727", "location_type": "Branch", "@spider": "bankofhawaii", "addr:full": "949 Kamokila Blvd.", "addr:city": "Kapolei", "addr:state": "Hawaii", "addr:postcode": "96707", "addr:country": "US", "name": "Kapolei - Residential Loan Office", "brand": "Bank of Hawaii", "brand:wikidata": "Q4856124"}, "geometry": {"type": "Point", "coordinates": [-158.081337, 21.33373]}},
{"type": "Feature", "id": "E5hh6SzH7FiT4xIjSLOlRZxt9ZQ=", "properties": {"ref": "9503", "location_type": "ATM", "@spider": "bankofhawaii", "addr:full": "949 Kamokila Blvd., 4th Floor", "addr:city": "Kapolei", "addr:state": "Hawaii", "addr:postcode": "96707", "addr:country": "US", "name": "Hale O' Kapolei", "brand": "Bank of Hawaii", "brand:wikidata": "Q4856124"}, "geometry": {"type": "Point", "coordinates": [-158.08176, 21.333613]}},
{"type": "Feature", "id": "XXXyk0Uxvq1xh-kQuMYbAf3Ugaw=", "properties": {"ref": "9507", "location_type": "ATM", "@spider": "bankofhawaii", "addr:full": "92-585 Makakilo Dr.", "addr:city": "Kapolei", "addr:state": "Hawaii", "addr:postcode": "96707", "addr:country": "US", "name": "Makakilo Shopping Center", "brand": "Bank of Hawaii", "brand:wikidata": "Q4856124"}, "geometry": {"type": "Point", "coordinates": [-158.081174, 21.347686]}},
{"type": "Feature", "id": "CVCvoux9gTd2kl7bDrxShGwt9DU=", "properties": {"ref": "9501", "location_type": "ATM", "@spider": "bankofhawaii", "addr:full": "920 Kamokila Blvd.", "addr:city": "Kapolei", "addr:state": "Hawaii", "addr:postcode": "96707", "addr:country": "US", "name": "HawaiiUSA Federal Credit Union - Kapolei", "brand": "Bank of Hawaii", "brand:wikidata": "Q4856124"}, "geometry": {"type": "Point", "coordinates": [-158.0851506, 21.3308645]}},
{"type": "Feature", "id": "wGnr_UVscr1BaIVO52a00aB-hNw=", "properties": {"ref": "9500", "location_type": "ATM", "@spider": "bankofhawaii", "addr:full": "4589 Kapolei Pkwy.", "addr:city": "Kapolei", "addr:state": "Hawaii", "addr:postcode": "96707", "addr:country": "US", "name": "Costco Kapolei", "brand": "Bank of Hawaii", "brand:wikidata": "Q4856124"}, "geometry": {"type": "Point", "coordinates": [-158.0881083, 21.3272958]}},
{"type": "Feature", "id": "SSBy4KVkxXjCnOSjirwfboJPItA=", "properties": {"ref": "8710", "location_type": "Branch & ATM", "@spider": "bankofhawaii", "addr:full": "4480 Kapolei Pkwy.", "addr:city": "Kapolei", "addr:state": "Hawaii", "addr:postcode": "96707", "addr:country": "US", "name": "Kapolei Branch", "brand": "Bank of Hawaii", "brand:wikidata": "Q4856124"}, "geometry": {"type": "Point", "coordinates": [-158.093106, 21.32935]}},
{"type": "Feature", "id": "GQHdbjpuVwMN8UPX6WEdNk0l0ds=", "properties": {"ref": "8797", "location_type": "Branch & ATM", "@spider": "bankofhawaii", "addr:full": "634 California Ave.", "addr:city": "Wahiawa", "addr:state": "Hawaii", "addr:postcode": "96786", "addr:country": "US", "name": "Wahiawa Branch", "brand": "Bank of Hawaii", "brand:wikidata": "Q4856124"}, "geometry": {"type": "Point", "coordinates": [-158.028196, 21.497025]}},
{"type": "Feature", "id": "jlcWOJUv7Pw-qDU9AN8XhMh0kEg=", "properties": {"ref": "9525", "location_type": "ATM", "@spider": "bankofhawaii", "addr:full": "150 N. Kamehameha Hwy.", "addr:city": "Wahiawa", "addr:state": "Hawaii", "addr:postcode": "96786", "addr:country": "US", "name": "Aloha Island Mart Wahiawa", "brand": "Bank of Hawaii", "brand:wikidata": "Q4856124"}, "geometry": {"type": "Point", "coordinates": [-158.029444, 21.497796]}},
{"type": "Feature", "id": "o01TCdRfkc9hBYhOWrjRju4sxTc=", "properties": {"ref": "9506", "location_type": "ATM", "@spider": "bankofhawaii", "addr:full": "55-510 Kamehameha Hwy.", "addr:city": "Laie", "addr:state": "Hawaii", "addr:postcode": "96762", "addr:country": "US", "name": "Laie Shopping Center", "brand": "Bank of Hawaii", "brand:wikidata": "Q4856124"}, "geometry": {"type": "Point", "coordinates": [-157.90380253794, 21.6061263466566]}},
{"type": "Feature", "id": "EAYv3CVyc2GebJSaW00npVmrkow=", "properties": {"ref": "9654", "location_type": "ATM", "@spider": "bankofhawaii", "addr:full": "87-1942 Farrington Hwy.", "addr:city": "Waianae", "addr:state": "HI", "addr:postcode": "96792", "addr:country": "US", "name": "Aloha Island Mart Nanakuli", "brand": "Bank of Hawaii", "brand:wikidata": "Q4856124"}, "geometry": {"type": "Point", "coordinates": [-158.153332, 21.389184]}},
{"type": "Feature", "id": "j7rIJBIhKGWgUhGKpRFPeSi4zbc=", "properties": {"ref": "9505", "location_type": "ATM", "@spider": "bankofhawaii", "addr:full": "55-220 Kulanui St. #1961", "addr:city": "Laie", "addr:state": "Hawaii", "addr:postcode": "96762", "addr:country": "US", "name": "BYU Hawaii Bookstore", "brand": "Bank of Hawaii", "brand:wikidata": "Q4856124"}, "geometry": {"type": "Point", "coordinates": [-157.924429, 21.64181]}},
{"type": "Feature", "id": "Xb5kDrNYpAxw73UHy1ldTxqq6WU=", "properties": {"ref": "9504", "location_type": "ATM", "@spider": "bankofhawaii", "addr:full": "55-442 Kamehameha Hwy.", "addr:city": "Laie", "addr:state": "HI", "addr:postcode": "96762", "addr:country": "US", "name": "McDonald's Laie", "brand": "Bank of Hawaii", "brand:wikidata": "Q4856124"}, "geometry": {"type": "Point", "coordinates": [-157.920259232237, 21.6429140414598]}},
{"type": "Feature", "id": "2X0xoMoH6ponrsJttZ62TN_R-Ts=", "properties": {"ref": "8809", "location_type": "Branch & ATM", "@spider": "bankofhawaii", "addr:full": "86-120 Farrington Hwy.", "addr:city": "Waianae", "addr:state": "Hawaii", "addr:postcode": "96792", "addr:country": "US", "name": "Waianae Branch", "brand": "Bank of Hawaii", "brand:wikidata": "Q4856124"}, "geometry": {"type": "Point", "coordinates": [-158.185444, 21.437371]}},
{"type": "Feature", "id": "Y6eQQ7PYjDVo8b3hoyjFsxYoHRU=", "properties": {"ref": "9528", "location_type": "ATM", "@spider": "bankofhawaii", "addr:full": "85-803 Farrington Hwy.", "addr:city": "Waianae", "addr:state": "Hawaii", "addr:postcode": "96792", "addr:country": "US", "name": "Aloha Island Mart Waianae", "brand": "Bank of Hawaii", "brand:wikidata": "Q4856124"}, "geometry": {"type": "Point", "coordinates": [-158.188831, 21.4466569]}},
{"type": "Feature", "id": "_xtQzUiNFs1d2YogqsVnmUOZ6v8=", "properties": {"ref": "9479", "location_type": "ATM", "@spider": "bankofhawaii", "addr:full": "66-457 Kamehameha Hwy.", "addr:city": "Haleiwa", "addr:state": "Hawaii", "addr:postcode": "96712", "addr:country": "US", "name": "McDonald's Haleiwa", "brand": "Bank of Hawaii", "brand:wikidata": "Q4856124"}, "geometry": {"type": "Point", "coordinates": [-158.105621337891, 21.5812511245421]}},
{"type": "Feature", "id": "W3OA46O8FSjkIeh1Ct6d813_qDI=", "properties": {"ref": "8640", "location_type": "Branch & ATM", "@spider": "bankofhawaii", "addr:full": "66-165 Kamehameha Hwy., Suite 101", "addr:city": "Haleiwa", "addr:state": "Hawaii", "addr:postcode": "96712", "addr:country": "US", "name": "Haleiwa Branch", "brand": "Bank of Hawaii", "brand:wikidata": "Q4856124"}, "geometry": {"type": "Point", "coordinates": [-158.103272, 21.588888]}}]}