{"type":"FeatureCollection","features":[{"type": "Feature", "id": "P6kLgFKukuvY5rftO5YLt2DtAqU=", "properties": {"ref": "https://branches.bankofscotland.co.uk/#15681007", "amenity": "bank", "@spider": "bank_of_scotland_gb", "addr:street_address": "94/102 High Street", "addr:city": "Dumbarton", "addr:postcode": "G82 1PQ", "addr:country": "GB", "name": "Bank of Scotland Dumbarton High Street", "phone": "0345 721 3141", "website": "https://branches.bankofscotland.co.uk/dumbarton/94/102-high-street", "image": "https://dynl.mktgcdn.com/p/MHhnGJK-WHER9Gnz26XKpqIhGKs1SzNkKK02B9m2OZU/150x150.jpg", "brand": "Bank of Scotland", "brand:wikidata": "Q627381"}, "geometry": {"type": "Point", "coordinates": [-4.571744550565371, 55.94364530885239]}},
{"type": "Feature", "id": "pUjgy1Vga-PESID_mM54ROHatPQ=", "properties": {"ref": "https://branches.bankofscotland.co.uk/#15680661", "amenity": "bank", "@spider": "bank_of_scotland_gb", "addr:street_address": "High Street", "addr:city": "Dingwall", "addr:postcode": "IV15 9HL", "addr:country": "GB", "name": "Bank of Scotland Dingwall", "phone": "0345 721 3141", "website": "https://branches.bankofscotland.co.uk/dingwall/high-street", "image": "https://dynl.mktgcdn.com/p/MHhnGJK-WHER9Gnz26XKpqIhGKs1SzNkKK02B9m2OZU/150x150.jpg", "brand": "Bank of Scotland", "brand:wikidata": "Q627381"}, "geometry": {"type": "Point", "coordinates": [-4.427033143555885, 57.59556486156338]}},
{"type": "Feature", "id": "mfTJnsxXe6ak3Q03BZ-DB1T6AkA=", "properties": {"ref": "https://branches.bankofscotland.co.uk/#15680660", "amenity": "bank", "@spider": "bank_of_scotland_gb", "addr:street_address": "47 High Street", "addr:city": "Dalkeith", "addr:postcode": "EH22 1JA", "addr:country": "GB", "name": "Bank of Scotland Dalkeith", "phone": "0345 721 3141", "website": "https://branches.bankofscotland.co.uk/dalkeith/47-high-street", "image": "https://dynl.mktgcdn.com/p/MHhnGJK-WHER9Gnz26XKpqIhGKs1SzNkKK02B9m2OZU/150x150.jpg", "brand": "Bank of Scotland", "brand:wikidata": "Q627381"}, "geometry": {"type": "Point", "coordinates": [-3.071201304696387, 55.89417776881407]}},
{"type": "Feature", "id": "tkh2GzjacBA_PvWVZ7PbkCkOZlA=", "properties": {"ref": "https://branches.bankofscotland.co.uk/#15680659", "amenity": "bank", "@spider": "bank_of_scotland_gb", "addr:street_address": "The Cross", "addr:city": "Cupar", "addr:postcode": "KY15 4BP", "addr:country": "GB", "name": "Bank of Scotland Cupar", "phone": "0345 721 3141", "website": "https://branches.bankofscotland.co.uk/cupar/the-cross", "image": "https://dynl.mktgcdn.com/p/MHhnGJK-WHER9Gnz26XKpqIhGKs1SzNkKK02B9m2OZU/150x150.jpg", "brand": "Bank of Scotland", "brand:wikidata": "Q627381"}, "geometry": {"type": "Point", "coordinates": [-3.011630421694609, 56.31955178898956]}},
{"type": "Feature", "id": "LgLqzWhHiEhitpWrhuhOAV8zErs=", "properties": {"ref": "https://branches.bankofscotland.co.uk/#15681148", "amenity": "bank", "@spider": "bank_of_scotland_gb", "addr:street_address": "High Street Falkland", "addr:city": "Cupar", "addr:postcode": "KY15 7BZ", "addr:country": "GB", "name": "Bank of Scotland Falkland", "phone": "0345 721 3141", "website": "https://branches.bankofscotland.co.uk/cupar/high-street", "image": "https://dynl.mktgcdn.com/p/MHhnGJK-WHER9Gnz26XKpqIhGKs1SzNkKK02B9m2OZU/150x150.jpg", "brand": "Bank of Scotland", "brand:wikidata": "Q627381"}, "geometry": {"type": "Point", "coordinates": [-3.2070167, 56.2532672]}},
{"type": "Feature", "id": "EPSXj5i790Wf9JXbrlFFYO4IKNg=", "properties": {"ref": "https://branches.bankofscotland.co.uk/#15680658", "amenity": "bank", "@spider": "bank_of_scotland_gb", "addr:street_address": "43/45 Townhead Street", "addr:city": "Cumnock", "addr:postcode": "KA18 1LF", "addr:country": "GB", "name": "Bank of Scotland Cumnock", "phone": "0345 721 3141", "website": "https://branches.bankofscotland.co.uk/cumnock/43/45-townhead-street", "image": "https://dynl.mktgcdn.com/p/MHhnGJK-WHER9Gnz26XKpqIhGKs1SzNkKK02B9m2OZU/150x150.jpg", "brand": "Bank of Scotland", "brand:wikidata": "Q627381"}, "geometry": {"type": "Point", "coordinates": [-4.262983980624804, 55.4544109814807]}},
{"type": "Feature", "id": "25xay8w7Lx16zDXHlSUCakbTk9A=", "properties": {"ref": "https://branches.bankofscotland.co.uk/#15680657", "amenity": "bank", "@spider": "bank_of_scotland_gb", "addr:street_address": "Unit 17 Tryst Road Antonine Shopping Centre", "addr:city": "Cumbernauld", "addr:postcode": "G67 1JW", "addr:country": "GB", "name": "Bank of Scotland Cumbernauld Town Centre", "phone": "0345 721 3141", "website": "https://branches.bankofscotland.co.uk/cumbernauld/unit-17-tryst-road", "image": "https://dynl.mktgcdn.com/p/MHhnGJK-WHER9Gnz26XKpqIhGKs1SzNkKK02B9m2OZU/150x150.jpg", "brand": "Bank of Scotland", "brand:wikidata": "Q627381"}, "geometry": {"type": "Point", "coordinates": [-3.990669787648824, 55.94717170872327]}},
{"type": "Feature", "id": "dZCPBE0iRjrOraMQX7raRhqa-lM=", "properties": {"ref": "https://branches.bankofscotland.co.uk/#15680655", "amenity": "bank", "@spider": "bank_of_scotland_gb", "addr:street_address": "1 Galvelmore Street", "addr:city": "Crieff", "addr:postcode": "PH7 4DN", "addr:country": "GB", "name": "Bank of Scotland Crieff", "phone": "0345 721 3141", "website": "https://branches.bankofscotland.co.uk/crieff/1-galvelmore-street", "image": "https://dynl.mktgcdn.com/p/MHhnGJK-WHER9Gnz26XKpqIhGKs1SzNkKK02B9m2OZU/150x150.jpg", "brand": "Bank of Scotland", "brand:wikidata": "Q627381"}, "geometry": {"type": "Point", "coordinates": [-3.8433803833914615, 56.37343763861364]}},
{"type": "Feature", "id": "1IpRZkHhnekY6QIlnNfxoQCEcr8=", "properties": {"ref": "https://branches.bankofscotland.co.uk/#15680654", "amenity": "bank", "@spider": "bank_of_scotland_gb", "addr:street_address": "349/351 High Street", "addr:city": "Cowdenbeath", "addr:postcode": "KY4 9QJ", "addr:country": "GB", "name": "Bank of Scotland Cowdenbeath", "phone": "0345 721 3141", "website": "https://branches.bankofscotland.co.uk/cowdenbeath/349/351-high-street", "image": "https://dynl.mktgcdn.com/p/MHhnGJK-WHER9Gnz26XKpqIhGKs1SzNkKK02B9m2OZU/150x150.jpg", "brand": "Bank of Scotland", "brand:wikidata": "Q627381"}, "geometry": {"type": "Point", "coordinates": [-3.3426979472387353, 56.109415643772024]}},
{"type": "Feature", "id": "Yo2H6dYcQlg4cwUG-tdx2mW3j8M=", "properties": {"ref": "https://branches.bankofscotland.co.uk/#15680731", "amenity": "bank", "@spider": "bank_of_scotland_gb", "addr:street_address": "Clyde Shopping Centre 42-44 Sylvania Way", "addr:city": "Clydebank", "addr:postcode": "G81 2TL", "addr:country": "GB", "name": "Bank of Scotland Clydebank", "phone": "0345 721 3141", "website": "https://branches.bankofscotland.co.uk/clydebank/clyde-shopping-centre", "image": "https://dynl.mktgcdn.com/p/MHhnGJK-WHER9Gnz26XKpqIhGKs1SzNkKK02B9m2OZU/150x150.jpg", "brand": "Bank of Scotland", "brand:wikidata": "Q627381"}, "geometry": {"type": "Point", "coordinates": [-4.4039117, 55.90477569999999]}},
{"type": "Feature", "id": "etoM6cdUoVfzUpDGgsqsOLA2vAs=", "properties": {"ref": "https://branches.bankofscotland.co.uk/#15680650", "amenity": "bank", "@spider": "bank_of_scotland_gb", "addr:street_address": "192 King Street", "addr:city": "Castle Douglas", "addr:postcode": "DG7 1DB", "addr:country": "GB", "name": "Bank of Scotland Castle Douglas", "phone": "0345 721 3141", "website": "https://branches.bankofscotland.co.uk/castle-douglas/192-king-street", "image": "https://dynl.mktgcdn.com/p/MHhnGJK-WHER9Gnz26XKpqIhGKs1SzNkKK02B9m2OZU/150x150.jpg", "brand": "Bank of Scotland", "brand:wikidata": "Q627381"}, "geometry": {"type": "Point", "coordinates": [-3.931501346545192, 54.939640423729365]}},
{"type": "Feature", "id": "fr4jlKjkN8k7TTdKkLvluEEKYqQ=", "properties": {"ref": "https://branches.bankofscotland.co.uk/#15680652", "amenity": "bank", "@spider": "bank_of_scotland_gb", "addr:street_address": "9 Longrow South", "addr:city": "Campbeltown", "addr:postcode": "PA28 6AL", "addr:country": "GB", "name": "Bank of Scotland Campbeltown", "phone": "0345 721 3141", "website": "https://branches.bankofscotland.co.uk/campbeltown/9-longrow-south", "image": "https://dynl.mktgcdn.com/p/MHhnGJK-WHER9Gnz26XKpqIhGKs1SzNkKK02B9m2OZU/150x150.jpg", "brand": "Bank of Scotland", "brand:wikidata": "Q627381"}, "geometry": {"type": "Point", "coordinates": [-5.605611513429142, 55.4242672478781]}},
{"type": "Feature", "id": "lf_R7u1UY6vmqaoqdtgTBuPCdgU=", "properties": {"ref": "https://branches.bankofscotland.co.uk/#15680653", "amenity": "bank", "@spider": "bank_of_scotland_gb", "addr:street_address": "42 Main Street", "addr:city": "Callander", "addr:postcode": "FK17 8BD", "addr:country": "GB", "name": "Bank of Scotland Callander", "phone": "0345 721 3141", "website": "https://branches.bankofscotland.co.uk/callander/42-main-street", "image": "https://dynl.mktgcdn.com/p/MHhnGJK-WHER9Gnz26XKpqIhGKs1SzNkKK02B9m2OZU/150x150.jpg", "brand": "Bank of Scotland", "brand:wikidata": "Q627381"}, "geometry": {"type": "Point", "coordinates": [-4.215788793080548, 56.243863601544206]}},
{"type": "Feature", "id": "IIU6XBjdfumboDaDJvagBa2HQMA=", "properties": {"ref": "https://branches.bankofscotland.co.uk/#15680729", "amenity": "bank", "@spider": "bank_of_scotland_gb", "addr:street_address": "21 East Church Street", "addr:city": "Buckie", "addr:postcode": "AB56 1EX", "addr:country": "GB", "name": "Bank of Scotland Buckie", "phone": "0345 721 3141", "website": "https://branches.bankofscotland.co.uk/buckie/21-east-church-street", "image": "https://dynl.mktgcdn.com/p/MHhnGJK-WHER9Gnz26XKpqIhGKs1SzNkKK02B9m2OZU/150x150.jpg", "brand": "Bank of Scotland", "brand:wikidata": "Q627381"}, "geometry": {"type": "Point", "coordinates": [-2.9629048766864807, 57.676971595177534]}},
{"type": "Feature", "id": "lh2hc7HiIEfvVsMGOVFenxb6RvE=", "properties": {"ref": "https://branches.bankofscotland.co.uk/#15680726", "amenity": "bank", "@spider": "bank_of_scotland_gb", "addr:street_address": "Main Street", "addr:city": "Bridge of Weir", "addr:postcode": "PA11 3ED", "addr:country": "GB", "name": "Bank of Scotland Bridge Of Weir", "phone": "0345 721 3141", "website": "https://branches.bankofscotland.co.uk/bridge-of-weir/main-street", "image": "https://dynl.mktgcdn.com/p/MHhnGJK-WHER9Gnz26XKpqIhGKs1SzNkKK02B9m2OZU/150x150.jpg", "brand": "Bank of Scotland", "brand:wikidata": "Q627381"}, "geometry": {"type": "Point", "coordinates": [-4.5781218281175695, 55.856820091349505]}},
{"type": "Feature", "id": "gkZfCAdJBElRjYu8Yurqa6kL3zk=", "properties": {"ref": "https://branches.bankofscotland.co.uk/#15682163", "amenity": "bank", "@spider": "bank_of_scotland_gb", "addr:street_address": "79 Ellon Road", "addr:city": "Bridge of Don", "addr:postcode": "AB23 8BY", "addr:country": "GB", "name": "Bank of Scotland Bridge of Don", "phone": "0345 721 3141", "website": "https://branches.bankofscotland.co.uk/bridge-of-don/79-ellon-road", "image": "https://dynl.mktgcdn.com/p/MHhnGJK-WHER9Gnz26XKpqIhGKs1SzNkKK02B9m2OZU/150x150.jpg", "brand": "Bank of Scotland", "brand:wikidata": "Q627381"}, "geometry": {"type": "Point", "coordinates": [-2.0920778597382728, 57.18279929065395]}},
{"type": "Feature", "id": "go-Z9f6VPn-1Mz0iGoWF6Z3y_xk=", "properties": {"ref": "https://branches.bankofscotland.co.uk/#15681738", "amenity": "bank", "@spider": "bank_of_scotland_gb", "addr:street_address": "27-29 Main Street", "addr:city": "Wishaw", "addr:postcode": "ML2 7AF", "addr:country": "GB", "name": "Bank of Scotland Wishaw Main Street", "phone": "0345 721 3141", "website": "https://branches.bankofscotland.co.uk/wishaw/27-29-main-street", "image": "https://dynl.mktgcdn.com/p/MHhnGJK-WHER9Gnz26XKpqIhGKs1SzNkKK02B9m2OZU/150x150.jpg", "brand": "Bank of Scotland", "brand:wikidata": "Q627381"}, "geometry": {"type": "Point", "coordinates": [-3.920320630042078, 55.773790037197294]}},
{"type": "Feature", "id": "GiSFHh-ohKc0bPMKAkmC122IOBg=", "properties": {"ref": "https://branches.bankofscotland.co.uk/#15681737", "amenity": "bank", "@spider": "bank_of_scotland_gb", "addr:street_address": "18 Bridge Street", "addr:city": "Wick", "addr:postcode": "KW1 4NG", "addr:country": "GB", "name": "Bank of Scotland Wick", "phone": "0345 721 3141", "website": "https://branches.bankofscotland.co.uk/wick/18-bridge-street", "image": "https://dynl.mktgcdn.com/p/MHhnGJK-WHER9Gnz26XKpqIhGKs1SzNkKK02B9m2OZU/150x150.jpg", "brand": "Bank of Scotland", "brand:wikidata": "Q627381"}, "geometry": {"type": "Point", "coordinates": [-3.0930969202250247, 58.44216549757401]}},
{"type": "Feature", "id": "nsDDg2ya82yKvh1u6rruX1320_M=", "properties": {"ref": "https://branches.bankofscotland.co.uk/#15681736", "amenity": "bank", "@spider": "bank_of_scotland_gb", "addr:street_address": "30 West Argyle Street", "addr:city": "Ullapool", "addr:postcode": "IV26 2TY", "addr:country": "GB", "name": "Bank of Scotland Ullapool", "phone": "0345 721 3141", "website": "https://branches.bankofscotland.co.uk/ullapool/30-west-argyle-street", "image": "https://dynl.mktgcdn.com/p/MHhnGJK-WHER9Gnz26XKpqIhGKs1SzNkKK02B9m2OZU/150x150.jpg", "brand": "Bank of Scotland", "brand:wikidata": "Q627381"}, "geometry": {"type": "Point", "coordinates": [-5.160735539799279, 57.89589134801449]}},
{"type": "Feature", "id": "P8nqfmJYSzWKyGglU7eegVhjVhA=", "properties": {"ref": "https://branches.bankofscotland.co.uk/#15681735", "amenity": "bank", "@spider": "bank_of_scotland_gb", "addr:street_address": "56 Main Street", "addr:city": "Uddingston", "addr:postcode": "G71 7LS", "addr:country": "GB", "name": "Bank of Scotland Uddingston", "phone": "0345 721 3141", "website": "https://branches.bankofscotland.co.uk/uddingston/56-main-street", "image": "https://dynl.mktgcdn.com/p/MHhnGJK-WHER9Gnz26XKpqIhGKs1SzNkKK02B9m2OZU/150x150.jpg", "brand": "Bank of Scotland", "brand:wikidata": "Q627381"}, "geometry": {"type": "Point", "coordinates": [-4.0819268832986095, 55.819747554885204]}},
{"type": "Feature", "id": "qv8LkmQzqcyVTA4Xvq6kapMn2MU=", "properties": {"ref": "https://branches.bankofscotland.co.uk/#15681732", "amenity": "bank", "@spider": "bank_of_scotland_gb", "addr:street_address": "25 Olrig Street", "addr:city": "Thurso", "addr:postcode": "KW14 7HQ", "addr:country": "GB", "name": "Bank of Scotland Thurso", "phone": "0345 721 3141", "website": "https://branches.bankofscotland.co.uk/thurso/25-olrig-street", "image": "https://dynl.mktgcdn.com/p/MHhnGJK-WHER9Gnz26XKpqIhGKs1SzNkKK02B9m2OZU/150x150.jpg", "brand": "Bank of Scotland", "brand:wikidata": "Q627381"}, "geometry": {"type": "Point", "coordinates": [-3.521953200851655, 58.595499295273235]}},
{"type": "Feature", "id": "8_-kVlAVb2eAfX9CPGAcWMCFm8I=", "properties": {"ref": "https://branches.bankofscotland.co.uk/#15681731", "amenity": "bank", "@spider": "bank_of_scotland_gb", "addr:street_address": "63 Drumlanrig Street", "addr:city": "Thornhill", "addr:postcode": "DG3 5LY", "addr:country": "GB", "name": "Bank of Scotland Thornhill", "phone": "0345 721 3141", "website": "https://branches.bankofscotland.co.uk/thornhill/63-drumlanrig-street", "image": "https://dynl.mktgcdn.com/p/MHhnGJK-WHER9Gnz26XKpqIhGKs1SzNkKK02B9m2OZU/150x150.jpg", "brand": "Bank of Scotland", "brand:wikidata": "Q627381"}, "geometry": {"type": "Point", "coordinates": [-3.763910614343462, 55.24022514928728]}},
{"type": "Feature", "id": "aa_HK7e8CAA55oE49GjUr6VoF_M=", "properties": {"ref": "https://branches.bankofscotland.co.uk/#15682221", "amenity": "bank", "@spider": "bank_of_scotland_gb", "addr:street_address": "Main Street", "addr:city": "Tarbert", "addr:postcode": "HS3 3DJ", "addr:country": "GB", "name": "Bank of Scotland Tarbert Isle of Harris", "phone": "0345 721 3141", "website": "https://branches.bankofscotland.co.uk/tarbert/main-street", "image": "https://dynl.mktgcdn.com/p/MHhnGJK-WHER9Gnz26XKpqIhGKs1SzNkKK02B9m2OZU/150x150.jpg", "brand": "Bank of Scotland", "brand:wikidata": "Q627381"}, "geometry": {"type": "Point", "coordinates": [-6.799455728836065, 57.897815701635196]}},
{"type": "Feature", "id": "kHy-u9H0O2xpuy8CUIC2BniTVZQ=", "properties": {"ref": "https://branches.bankofscotland.co.uk/#15681730", "amenity": "bank", "@spider": "bank_of_scotland_gb", "addr:street_address": "Harbour Street Tarbert", "addr:city": "Tarbert", "addr:postcode": "PA29 6TZ", "addr:country": "GB", "name": "Bank of Scotland Argyll Tarbert", "phone": "0345 721 3141", "website": "https://branches.bankofscotland.co.uk/tarbert/harbour-street", "image": "https://dynl.mktgcdn.com/p/MHhnGJK-WHER9Gnz26XKpqIhGKs1SzNkKK02B9m2OZU/150x150.jpg", "brand": "Bank of Scotland", "brand:wikidata": "Q627381"}, "geometry": {"type": "Point", "coordinates": [-5.415204906745914, 55.86321600000001]}},
{"type": "Feature", "id": "BHjzyo8lZwzu3xwlmZiCVqXGuaA=", "properties": {"ref": "https://branches.bankofscotland.co.uk/#15681729", "amenity": "bank", "@spider": "bank_of_scotland_gb", "addr:street_address": "Tower Street", "addr:city": "Tain", "addr:postcode": "IV19 1DY", "addr:country": "GB", "name": "Bank of Scotland Tain", "phone": "0345 721 3141", "website": "https://branches.bankofscotland.co.uk/tain/tower-street", "image": "https://dynl.mktgcdn.com/p/MHhnGJK-WHER9Gnz26XKpqIhGKs1SzNkKK02B9m2OZU/150x150.jpg", "brand": "Bank of Scotland", "brand:wikidata": "Q627381"}, "geometry": {"type": "Point", "coordinates": [-4.0555649742050255, 57.81260812902511]}},
{"type": "Feature", "id": "KT35UT47Ey-mPsAPE-7rJVLREzE=", "properties": {"ref": "https://branches.bankofscotland.co.uk/#15681727", "amenity": "bank", "@spider": "bank_of_scotland_gb", "addr:street_address": "13 Common Green", "addr:city": "Strathaven", "addr:postcode": "ML10 6AQ", "addr:country": "GB", "name": "Bank of Scotland Strathaven", "phone": "0345 721 3141", "website": "https://branches.bankofscotland.co.uk/strathaven/13-common-green", "image": "https://dynl.mktgcdn.com/p/MHhnGJK-WHER9Gnz26XKpqIhGKs1SzNkKK02B9m2OZU/150x150.jpg", "brand": "Bank of Scotland", "brand:wikidata": "Q627381"}, "geometry": {"type": "Point", "coordinates": [-4.065787654829831, 55.67630906313165]}},
{"type": "Feature", "id": "a6teQzoxBCw9ese9vpEBMTDWfbA=", "properties": {"ref": "https://branches.bankofscotland.co.uk/#15681726", "amenity": "bank", "@spider": "bank_of_scotland_gb", "addr:street_address": "64-66 George Street", "addr:city": "Stranraer", "addr:postcode": "DG9 7JN", "addr:country": "GB", "name": "Bank of Scotland Stranraer George Street", "phone": "0345 721 3141", "website": "https://branches.bankofscotland.co.uk/stranraer/64-66-george-street", "image": "https://dynl.mktgcdn.com/p/MHhnGJK-WHER9Gnz26XKpqIhGKs1SzNkKK02B9m2OZU/150x150.jpg", "brand": "Bank of Scotland", "brand:wikidata": "Q627381"}, "geometry": {"type": "Point", "coordinates": [-5.0290452, 54.9048058]}},
{"type": "Feature", "id": "AJCXz3l3GDc4meCVmMEw95IgAzE=", "properties": {"ref": "https://branches.bankofscotland.co.uk/#15681724", "amenity": "bank", "@spider": "bank_of_scotland_gb", "addr:street_address": "47 Cromwell Street", "addr:city": "Stornoway", "addr:postcode": "HS1 2DD", "addr:country": "GB", "name": "Bank of Scotland Stornoway", "phone": "0345 721 3141", "website": "https://branches.bankofscotland.co.uk/stornoway/47-cromwell-street", "image": "https://dynl.mktgcdn.com/p/MHhnGJK-WHER9Gnz26XKpqIhGKs1SzNkKK02B9m2OZU/150x150.jpg", "brand": "Bank of Scotland", "brand:wikidata": "Q627381"}, "geometry": {"type": "Point", "coordinates": [-6.388362323014573, 58.20935258354299]}},
{"type": "Feature", "id": "ZWLI0T7dHYHG0pS2DwJkQ1rcY5I=", "properties": {"ref": "https://branches.bankofscotland.co.uk/#15681810", "amenity": "bank", "@spider": "bank_of_scotland_gb", "addr:street_address": "27 Market Square", "addr:city": "Stonehaven", "addr:postcode": "AB39 2BB", "addr:country": "GB", "name": "Bank of Scotland Stonehaven", "phone": "0345 721 3141", "website": "https://branches.bankofscotland.co.uk/stonehaven/27-market-square", "image": "https://dynl.mktgcdn.com/p/MHhnGJK-WHER9Gnz26XKpqIhGKs1SzNkKK02B9m2OZU/150x150.jpg", "brand": "Bank of Scotland", "brand:wikidata": "Q627381"}, "geometry": {"type": "Point", "coordinates": [-2.2088855685288444, 56.96443837510379]}},
{"type": "Feature", "id": "5LGXZ2lSHMUz5AJszyz7eQHTDVA=", "properties": {"ref": "https://branches.bankofscotland.co.uk/#15682149", "amenity": "bank", "@spider": "bank_of_scotland_gb", "addr:street_address": "Main Street Aberfoyle", "addr:city": "Stirling", "addr:postcode": "FK8 3UG", "addr:country": "GB", "name": "Bank of Scotland Stirling Aberfoyle", "phone": "0345 721 3141", "website": "https://branches.bankofscotland.co.uk/stirling/main-street", "image": "https://dynl.mktgcdn.com/p/MHhnGJK-WHER9Gnz26XKpqIhGKs1SzNkKK02B9m2OZU/150x150.jpg", "brand": "Bank of Scotland", "brand:wikidata": "Q627381"}, "geometry": {"type": "Point", "coordinates": [-4.38443495452516, 56.17880632263321]}},
{"type": "Feature", "id": "nNqs9c5CV-jAw-YHAVuPEPVT_k4=", "properties": {"ref": "https://branches.bankofscotland.co.uk/#15681809", "amenity": "bank", "@spider": "bank_of_scotland_gb", "addr:street_address": "7/13 Port Street", "addr:city": "Stirling", "addr:postcode": "FK8 2EJ", "addr:country": "GB", "name": "Bank of Scotland Stirling Port Street", "phone": "0345 721 3141", "website": "https://branches.bankofscotland.co.uk/stirling/7/13-port-street", "image": "https://dynl.mktgcdn.com/p/MHhnGJK-WHER9Gnz26XKpqIhGKs1SzNkKK02B9m2OZU/150x150.jpg", "brand": "Bank of Scotland", "brand:wikidata": "Q627381"}, "geometry": {"type": "Point", "coordinates": [-3.9364369, 56.1171964]}},
{"type": "Feature", "id": "jqSzshDiXFgR-wlIYZvrhIyqrUs=", "properties": {"ref": "https://branches.bankofscotland.co.uk/#15681808", "amenity": "bank", "@spider": "bank_of_scotland_gb", "addr:street_address": "1 Queen's Gardens", "addr:city": "St Andrews", "addr:postcode": "KY16 9TD", "addr:country": "GB", "name": "Bank of Scotland St Andrews Queens", "phone": "0345 721 3141", "website": "https://branches.bankofscotland.co.uk/st-andrews/1-queen's-gardens", "image": "https://dynl.mktgcdn.com/p/MHhnGJK-WHER9Gnz26XKpqIhGKs1SzNkKK02B9m2OZU/150x150.jpg", "brand": "Bank of Scotland", "brand:wikidata": "Q627381"}, "geometry": {"type": "Point", "coordinates": [-2.7957778422728974, 56.339152868810636]}},
{"type": "Feature", "id": "DkdhrJJQMKPiqJfKRSwi5FdApaM=", "properties": {"ref": "https://branches.bankofscotland.co.uk/#15681805", "amenity": "bank", "@spider": "bank_of_scotland_gb", "addr:street_address": "63 High Street", "addr:city": "Sanquhar", "addr:postcode": "DG4 6DT", "addr:country": "GB", "name": "Bank of Scotland Sanquhar", "phone": "0345 721 3141", "website": "https://branches.bankofscotland.co.uk/sanquhar/63-high-street", "image": "https://dynl.mktgcdn.com/p/MHhnGJK-WHER9Gnz26XKpqIhGKs1SzNkKK02B9m2OZU/150x150.jpg", "brand": "Bank of Scotland", "brand:wikidata": "Q627381"}, "geometry": {"type": "Point", "coordinates": [-3.922471107017511, 55.3673941789664]}},
{"type": "Feature", "id": "cXQKyDazkq47f9Mrhl9kkprQg3I=", "properties": {"ref": "https://branches.bankofscotland.co.uk/#15681804", "amenity": "bank", "@spider": "bank_of_scotland_gb", "addr:street_address": "57 Dockhead Street", "addr:city": "Saltcoats", "addr:postcode": "KA21 5EY", "addr:country": "GB", "name": "Bank of Scotland Saltcoats", "phone": "0345 721 3141", "website": "https://branches.bankofscotland.co.uk/saltcoats/57-dockhead-street", "image": "https://dynl.mktgcdn.com/p/MHhnGJK-WHER9Gnz26XKpqIhGKs1SzNkKK02B9m2OZU/150x150.jpg", "brand": "Bank of Scotland", "brand:wikidata": "Q627381"}, "geometry": {"type": "Point", "coordinates": [-4.787296793236733, 55.63308503180902]}},
{"type": "Feature", "id": "tPKxxAUpFIXTBoe31mGSoU67JF4=", "properties": {"ref": "https://branches.bankofscotland.co.uk/#15681803", "amenity": "bank", "@spider": "bank_of_scotland_gb", "addr:street_address": "82 Main Street", "addr:city": "Rutherglen", "addr:postcode": "G73 2HZ", "addr:country": "GB", "name": "Bank of Scotland Rutherglen", "phone": "0345 721 3141", "website": "https://branches.bankofscotland.co.uk/rutherglen/82-main-street", "image": "https://dynl.mktgcdn.com/p/MHhnGJK-WHER9Gnz26XKpqIhGKs1SzNkKK02B9m2OZU/150x150.jpg", "brand": "Bank of Scotland", "brand:wikidata": "Q627381"}, "geometry": {"type": "Point", "coordinates": [-4.216273697908039, 55.82813963992824]}},
{"type": "Feature", "id": "WQs5LvplT9v3_eQoV4zlDcexixI=", "properties": {"ref": "https://branches.bankofscotland.co.uk/#15681802", "amenity": "bank", "@spider": "bank_of_scotland_gb", "addr:street_address": "36/42 Montague Street", "addr:city": "Rothesay", "addr:postcode": "PA20 0BT", "addr:country": "GB", "name": "Bank of Scotland Rothesay", "phone": "0345 721 3141", "website": "https://branches.bankofscotland.co.uk/rothesay/36/42-montague-street", "image": "https://dynl.mktgcdn.com/p/MHhnGJK-WHER9Gnz26XKpqIhGKs1SzNkKK02B9m2OZU/150x150.jpg", "brand": "Bank of Scotland", "brand:wikidata": "Q627381"}, "geometry": {"type": "Point", "coordinates": [-5.05499776648441, 55.837493630298205]}},
{"type": "Feature", "id": "T02crXfhyHXqhWGYu9bQe38bsSI=", "properties": {"ref": "https://branches.bankofscotland.co.uk/#15681159", "amenity": "bank", "@spider": "bank_of_scotland_gb", "addr:street_address": "Bank Brae Gairloch", "addr:city": "Rossshire", "addr:postcode": "IV21 2BE", "addr:country": "GB", "name": "Bank of Scotland Gairloch", "phone": "0345 721 3141", "website": "https://branches.bankofscotland.co.uk/rossshire/bank-brae", "image": "https://dynl.mktgcdn.com/p/MHhnGJK-WHER9Gnz26XKpqIhGKs1SzNkKK02B9m2OZU/150x150.jpg", "brand": "Bank of Scotland", "brand:wikidata": "Q627381"}, "geometry": {"type": "Point", "coordinates": [-5.680882038860151, 57.714487082677714]}},
{"type": "Feature", "id": "BDL8G105_LLWO6AeOab2FRZ5eAc=", "properties": {"ref": "https://branches.bankofscotland.co.uk/#15681801", "amenity": "bank", "@spider": "bank_of_scotland_gb", "addr:street_address": "1 High Street", "addr:city": "Renfrew", "addr:postcode": "PA4 8QJ", "addr:country": "GB", "name": "Bank of Scotland Renfrew", "phone": "0345 721 3141", "website": "https://branches.bankofscotland.co.uk/renfrew/1-high-street", "image": "https://dynl.mktgcdn.com/p/MHhnGJK-WHER9Gnz26XKpqIhGKs1SzNkKK02B9m2OZU/150x150.jpg", "brand": "Bank of Scotland", "brand:wikidata": "Q627381"}, "geometry": {"type": "Point", "coordinates": [-4.3864905962357925, 55.878982256888044]}},
{"type": "Feature", "id": "zeoP0K6y94s6wn33fofB8vfTGZ0=", "properties": {"ref": "https://branches.bankofscotland.co.uk/#15681799", "amenity": "bank", "@spider": "bank_of_scotland_gb", "addr:street_address": "Somerled Square", "addr:city": "Portree", "addr:postcode": "IV51 9EH", "addr:country": "GB", "name": "Bank of Scotland Portree", "phone": "0345 721 3141", "website": "https://branches.bankofscotland.co.uk/portree/somerled-square", "image": "https://dynl.mktgcdn.com/p/MHhnGJK-WHER9Gnz26XKpqIhGKs1SzNkKK02B9m2OZU/150x150.jpg", "brand": "Bank of Scotland", "brand:wikidata": "Q627381"}, "geometry": {"type": "Point", "coordinates": [-6.1950164, 57.4132956]}},
{"type": "Feature", "id": "pVRIRXbXr8mQe3-ArMsN2wKwJA8=", "properties": {"ref": "https://branches.bankofscotland.co.uk/#15681800", "amenity": "bank", "@spider": "bank_of_scotland_gb", "addr:street_address": "26 John Wood Street", "addr:city": "Port Glasgow", "addr:postcode": "PA14 5HX", "addr:country": "GB", "name": "Bank of Scotland Port Glasgow", "phone": "0345 721 3141", "website": "https://branches.bankofscotland.co.uk/port-glasgow/26-john-wood-street", "image": "https://dynl.mktgcdn.com/p/MHhnGJK-WHER9Gnz26XKpqIhGKs1SzNkKK02B9m2OZU/150x150.jpg", "brand": "Bank of Scotland", "brand:wikidata": "Q627381"}, "geometry": {"type": "Point", "coordinates": [-4.688957646266203, 55.93363818454229]}},
{"type": "Feature", "id": "auZynhHwNLMlofRUB6zmCQprF_0=", "properties": {"ref": "https://branches.bankofscotland.co.uk/#15681798", "amenity": "bank", "@spider": "bank_of_scotland_gb", "addr:street_address": "76 Atholl Road", "addr:city": "Pitlochry", "addr:postcode": "PH16 5BW", "addr:country": "GB", "name": "Bank of Scotland Pitlochry", "phone": "0345 721 3141", "website": "https://branches.bankofscotland.co.uk/pitlochry/76-atholl-road", "image": "https://dynl.mktgcdn.com/p/MHhnGJK-WHER9Gnz26XKpqIhGKs1SzNkKK02B9m2OZU/150x150.jpg", "brand": "Bank of Scotland", "brand:wikidata": "Q627381"}, "geometry": {"type": "Point", "coordinates": [-3.7337278836101007, 56.703044821988435]}},
{"type": "Feature", "id": "cMqjlJ1YFTfGj13n3l61k-99gCE=", "properties": {"ref": "https://branches.bankofscotland.co.uk/#15681797", "amenity": "bank", "@spider": "bank_of_scotland_gb", "addr:street_address": "32 Broad Street", "addr:city": "Peterhead", "addr:postcode": "AB42 1BY", "addr:country": "GB", "name": "Bank of Scotland Peterhead Broad Street", "phone": "0345 721 3141", "website": "https://branches.bankofscotland.co.uk/peterhead/32-broad-street", "image": "https://dynl.mktgcdn.com/p/MHhnGJK-WHER9Gnz26XKpqIhGKs1SzNkKK02B9m2OZU/150x150.jpg", "brand": "Bank of Scotland", "brand:wikidata": "Q627381"}, "geometry": {"type": "Point", "coordinates": [-1.7764183880276674, 57.50469409161697]}},
{"type": "Feature", "id": "syDMHaYQHZeYz0bf0ZQt-NjGBVQ=", "properties": {"ref": "https://branches.bankofscotland.co.uk/#15681795", "amenity": "bank", "@spider": "bank_of_scotland_gb", "addr:street_address": "10/16 King Edward Street", "addr:city": "Perth", "addr:postcode": "PH1 5UT", "addr:country": "GB", "name": "Bank of Scotland Perth", "phone": "0345 721 3141", "website": "https://branches.bankofscotland.co.uk/perth/10/16-king-edward-street", "image": "https://dynl.mktgcdn.com/p/MHhnGJK-WHER9Gnz26XKpqIhGKs1SzNkKK02B9m2OZU/150x150.jpg", "brand": "Bank of Scotland", "brand:wikidata": "Q627381"}, "geometry": {"type": "Point", "coordinates": [-3.429691798536718, 56.396194062003474]}},
{"type": "Feature", "id": "CUEifdDt2KZa_SP-r8o2jXNxLME=", "properties": {"ref": "https://branches.bankofscotland.co.uk/#15681792", "amenity": "bank", "@spider": "bank_of_scotland_gb", "addr:street_address": "163A John Street", "addr:city": "Penicuik", "addr:postcode": "EH26 8AT", "addr:country": "GB", "name": "Bank of Scotland Penicuik", "phone": "0345 721 3141", "website": "https://branches.bankofscotland.co.uk/penicuik/163a-john-street", "image": "https://dynl.mktgcdn.com/p/MHhnGJK-WHER9Gnz26XKpqIhGKs1SzNkKK02B9m2OZU/150x150.jpg", "brand": "Bank of Scotland", "brand:wikidata": "Q627381"}, "geometry": {"type": "Point", "coordinates": [-3.2230912, 55.8325971]}},
{"type": "Feature", "id": "UNaRktsKzTYVKP5luiLyWH-WbG8=", "properties": {"ref": "https://branches.bankofscotland.co.uk/#15681796", "amenity": "bank", "@spider": "bank_of_scotland_gb", "addr:street_address": "70 High Steet", "addr:city": "Peebles", "addr:postcode": "EH45 8AQ", "addr:country": "GB", "name": "Bank of Scotland Peebles", "phone": "0345 721 3141", "website": "https://branches.bankofscotland.co.uk/peebles/70-high-steet", "image": "https://dynl.mktgcdn.com/p/MHhnGJK-WHER9Gnz26XKpqIhGKs1SzNkKK02B9m2OZU/150x150.jpg", "brand": "Bank of Scotland", "brand:wikidata": "Q627381"}, "geometry": {"type": "Point", "coordinates": [-3.1914737914190194, 55.65155320052156]}},
{"type": "Feature", "id": "toLfgo4EpFfCoAKmnGVk_HLk3mw=", "properties": {"ref": "https://branches.bankofscotland.co.uk/#15681793", "amenity": "bank", "@spider": "bank_of_scotland_gb", "addr:street_address": "The Cross Gilmour Street", "addr:city": "Paisley", "addr:postcode": "PA1 1DD", "addr:country": "GB", "name": "Bank of Scotland Paisley The Cross", "phone": "0345 721 3141", "website": "https://branches.bankofscotland.co.uk/paisley/the-cross", "image": "https://dynl.mktgcdn.com/p/MHhnGJK-WHER9Gnz26XKpqIhGKs1SzNkKK02B9m2OZU/150x150.jpg", "brand": "Bank of Scotland", "brand:wikidata": "Q627381"}, "geometry": {"type": "Point", "coordinates": [-4.42394971221345, 55.845839500082356]}},
{"type": "Feature", "id": "Yxa6fqhq9c6QjNNonS-TJYf9NjE=", "properties": {"ref": "https://branches.bankofscotland.co.uk/#15681794", "amenity": "bank", "@spider": "bank_of_scotland_gb", "addr:street_address": "Station Road", "addr:city": "Oban", "addr:postcode": "PA34 4LL", "addr:country": "GB", "name": "Bank of Scotland Oban Station Road", "phone": "0345 721 3141", "website": "https://branches.bankofscotland.co.uk/oban/station-road", "image": "https://dynl.mktgcdn.com/p/MHhnGJK-WHER9Gnz26XKpqIhGKs1SzNkKK02B9m2OZU/150x150.jpg", "brand": "Bank of Scotland", "brand:wikidata": "Q627381"}, "geometry": {"type": "Point", "coordinates": [-5.472756708312527, 56.41259780794319]}},
{"type": "Feature", "id": "8ZkaIuriOutsaMQgnxHoQoZ9ukg=", "properties": {"ref": "https://branches.bankofscotland.co.uk/#15681440", "amenity": "bank", "@spider": "bank_of_scotland_gb", "addr:street_address": "Lochmaddy", "addr:city": "North Uist", "addr:postcode": "HS6 5AA", "addr:country": "GB", "name": "Bank of Scotland Lochmaddy", "phone": "0345 721 3141", "website": "https://branches.bankofscotland.co.uk/north-uist/lochmaddy", "image": "https://dynl.mktgcdn.com/p/MHhnGJK-WHER9Gnz26XKpqIhGKs1SzNkKK02B9m2OZU/150x150.jpg", "brand": "Bank of Scotland", "brand:wikidata": "Q627381"}, "geometry": {"type": "Point", "coordinates": [-7.160627134144299, 57.599174825213176]}},
{"type": "Feature", "id": "OMrmPiNWI4nFRul62UeO5X6uqHY=", "properties": {"ref": "https://branches.bankofscotland.co.uk/#15681589", "amenity": "bank", "@spider": "bank_of_scotland_gb", "addr:street_address": "23 Westgate", "addr:city": "North Berwick", "addr:postcode": "EH39 4AG", "addr:country": "GB", "name": "Bank of Scotland North Berwick", "phone": "0345 721 3141", "website": "https://branches.bankofscotland.co.uk/north-berwick/23-westgate", "image": "https://dynl.mktgcdn.com/p/MHhnGJK-WHER9Gnz26XKpqIhGKs1SzNkKK02B9m2OZU/150x150.jpg", "brand": "Bank of Scotland", "brand:wikidata": "Q627381"}, "geometry": {"type": "Point", "coordinates": [-2.724636088937562, 56.057840751186646]}},
{"type": "Feature", "id": "HGxwyMF208JPkyJtZ1jes2x_6IE=", "properties": {"ref": "https://branches.bankofscotland.co.uk/#15681588", "amenity": "bank", "@spider": "bank_of_scotland_gb", "addr:street_address": "37 Albert Street", "addr:city": "Newton Stewart", "addr:postcode": "DG8 6EF", "addr:country": "GB", "name": "Bank of Scotland Newton Stewart", "phone": "0345 721 3141", "website": "https://branches.bankofscotland.co.uk/newton-stewart/37-albert-street", "image": "https://dynl.mktgcdn.com/p/MHhnGJK-WHER9Gnz26XKpqIhGKs1SzNkKK02B9m2OZU/150x150.jpg", "brand": "Bank of Scotland", "brand:wikidata": "Q627381"}, "geometry": {"type": "Point", "coordinates": [-4.4824119901387505, 54.957000938254204]}},
{"type": "Feature", "id": "Rr9sk24oPLsWXgDpcPCRKCtM-I8=", "properties": {"ref": "https://branches.bankofscotland.co.uk/#15681587", "amenity": "bank", "@spider": "bank_of_scotland_gb", "addr:street_address": "244 Ayr Road", "addr:city": "Newton Mearns", "addr:postcode": "G77 6AA", "addr:country": "GB", "name": "Bank of Scotland Newton Mearns", "phone": "0345 721 3141", "website": "https://branches.bankofscotland.co.uk/newton-mearns/244-ayr-road", "image": "https://dynl.mktgcdn.com/p/MHhnGJK-WHER9Gnz26XKpqIhGKs1SzNkKK02B9m2OZU/150x150.jpg", "brand": "Bank of Scotland", "brand:wikidata": "Q627381"}, "geometry": {"type": "Point", "coordinates": [-4.333506093865784, 55.7725307612954]}},
{"type": "Feature", "id": "JzbQUTNno4GYYwrhXew5hFuKt-U=", "properties": {"ref": "https://branches.bankofscotland.co.uk/#15682223", "amenity": "bank", "@spider": "bank_of_scotland_gb", "addr:street_address": "Douglas Square", "addr:city": "Newcastleton", "addr:postcode": "TD9 0QD", "addr:country": "GB", "name": "Bank of Scotland Newcastleton", "phone": "0345 721 3141", "website": "https://branches.bankofscotland.co.uk/newcastleton/douglas-square", "image": "https://dynl.mktgcdn.com/p/MHhnGJK-WHER9Gnz26XKpqIhGKs1SzNkKK02B9m2OZU/150x150.jpg", "brand": "Bank of Scotland", "brand:wikidata": "Q627381"}, "geometry": {"type": "Point", "coordinates": [-2.8134314, 55.1792607]}},
{"type": "Feature", "id": "kTYsBbYwe_7RD2LrEiFfqDl51gw=", "properties": {"ref": "https://branches.bankofscotland.co.uk/#15681586", "amenity": "bank", "@spider": "bank_of_scotland_gb", "addr:street_address": "73 High Street", "addr:city": "Nairn", "addr:postcode": "IV12 4BS", "addr:country": "GB", "name": "Bank of Scotland Nairn", "phone": "0345 721 3141", "website": "https://branches.bankofscotland.co.uk/nairn/73-high-street", "image": "https://dynl.mktgcdn.com/p/MHhnGJK-WHER9Gnz26XKpqIhGKs1SzNkKK02B9m2OZU/150x150.jpg", "brand": "Bank of Scotland", "brand:wikidata": "Q627381"}, "geometry": {"type": "Point", "coordinates": [-3.8678319, 57.5849568]}},
{"type": "Feature", "id": "tAP1NCiGOjBADnF8K56hJKx2SVc=", "properties": {"ref": "https://branches.bankofscotland.co.uk/#15681585", "amenity": "bank", "@spider": "bank_of_scotland_gb", "addr:street_address": "172 High Street", "addr:city": "Musselburgh", "addr:postcode": "EH21 7DZ", "addr:country": "GB", "name": "Bank of Scotland Musselburgh", "phone": "0345 721 3141", "website": "https://branches.bankofscotland.co.uk/musselburgh/172-high-street", "image": "https://dynl.mktgcdn.com/p/MHhnGJK-WHER9Gnz26XKpqIhGKs1SzNkKK02B9m2OZU/150x150.jpg", "brand": "Bank of Scotland", "brand:wikidata": "Q627381"}, "geometry": {"type": "Point", "coordinates": [-3.0522913, 55.9421095]}},
{"type": "Feature", "id": "DZXspwjKuKk863o4NAa-VK_Omh0=", "properties": {"ref": "https://branches.bankofscotland.co.uk/#15681584", "amenity": "bank", "@spider": "bank_of_scotland_gb", "addr:street_address": "32 Brandon Parade South", "addr:city": "Motherwell", "addr:postcode": "ML1 1RB", "addr:country": "GB", "name": "Bank of Scotland Motherwell", "phone": "0345 721 3141", "website": "https://branches.bankofscotland.co.uk/motherwell/32-brandon-parade-south", "image": "https://dynl.mktgcdn.com/p/MHhnGJK-WHER9Gnz26XKpqIhGKs1SzNkKK02B9m2OZU/150x150.jpg", "brand": "Bank of Scotland", "brand:wikidata": "Q627381"}, "geometry": {"type": "Point", "coordinates": [-3.9910413, 55.7896791]}},
{"type": "Feature", "id": "tzexWfd-dPm-W6oQ8xhgNgoLFKc=", "properties": {"ref": "https://branches.bankofscotland.co.uk/#15681579", "amenity": "bank", "@spider": "bank_of_scotland_gb", "addr:street_address": "31 High Street", "addr:city": "Montrose", "addr:postcode": "DD10 8LT", "addr:country": "GB", "name": "Bank of Scotland Montrose", "phone": "0345 721 3141", "website": "https://branches.bankofscotland.co.uk/montrose/31-high-street", "image": "https://dynl.mktgcdn.com/p/MHhnGJK-WHER9Gnz26XKpqIhGKs1SzNkKK02B9m2OZU/150x150.jpg", "brand": "Bank of Scotland", "brand:wikidata": "Q627381"}, "geometry": {"type": "Point", "coordinates": [-2.467800545626284, 56.71274894419028]}},
{"type": "Feature", "id": "ksvi4KE1HRKsXJFbhMi32vAudos=", "properties": {"ref": "https://branches.bankofscotland.co.uk/#15681580", "amenity": "bank", "@spider": "bank_of_scotland_gb", "addr:street_address": "8 High Street", "addr:city": "Moffat", "addr:postcode": "DG10 9EX", "addr:country": "GB", "name": "Bank of Scotland Moffat", "phone": "0345 721 3141", "website": "https://branches.bankofscotland.co.uk/moffat/8-high-street", "image": "https://dynl.mktgcdn.com/p/MHhnGJK-WHER9Gnz26XKpqIhGKs1SzNkKK02B9m2OZU/150x150.jpg", "brand": "Bank of Scotland", "brand:wikidata": "Q627381"}, "geometry": {"type": "Point", "coordinates": [-3.4442453, 55.3327811]}},
{"type": "Feature", "id": "HDH6fTM3HR5yoke2rVvrOp4saQ0=", "properties": {"ref": "https://branches.bankofscotland.co.uk/#15681583", "amenity": "bank", "@spider": "bank_of_scotland_gb", "addr:street_address": "2 Station Road", "addr:city": "Milngavie", "addr:postcode": "G62 8AA", "addr:country": "GB", "name": "Bank of Scotland Milngavie Station Road", "phone": "0345 721 3141", "website": "https://branches.bankofscotland.co.uk/milngavie/2-station-road", "image": "https://dynl.mktgcdn.com/p/MHhnGJK-WHER9Gnz26XKpqIhGKs1SzNkKK02B9m2OZU/150x150.jpg", "brand": "Bank of Scotland", "brand:wikidata": "Q627381"}, "geometry": {"type": "Point", "coordinates": [-4.316952403629199, 55.94172436043766]}},
{"type": "Feature", "id": "0ar1dzNHHcExbtPsHxXGUTxYvDk=", "properties": {"ref": "https://branches.bankofscotland.co.uk/#15681582", "amenity": "bank", "@spider": "bank_of_scotland_gb", "addr:street_address": "Main Street", "addr:city": "Mallaig", "addr:postcode": "PH41 4PZ", "addr:country": "GB", "name": "Bank of Scotland Mallaig", "phone": "0345 721 3141", "website": "https://branches.bankofscotland.co.uk/mallaig/main-street", "image": "https://dynl.mktgcdn.com/p/MHhnGJK-WHER9Gnz26XKpqIhGKs1SzNkKK02B9m2OZU/150x150.jpg", "brand": "Bank of Scotland", "brand:wikidata": "Q627381"}, "geometry": {"type": "Point", "coordinates": [-5.829176038028711, 57.005622351159104]}},
{"type": "Feature", "id": "Tv3F-B59TOF4lrNP2Ajm58UL5eI=", "properties": {"ref": "https://branches.bankofscotland.co.uk/#15681444", "amenity": "bank", "@spider": "bank_of_scotland_gb", "addr:street_address": "Poltalloch Street", "addr:city": "Lochgilphead", "addr:postcode": "PA31 8LW", "addr:country": "GB", "name": "Bank of Scotland Lochgilphead", "phone": "0345 721 3141", "website": "https://branches.bankofscotland.co.uk/lochgilphead/poltalloch-street", "image": "https://dynl.mktgcdn.com/p/MHhnGJK-WHER9Gnz26XKpqIhGKs1SzNkKK02B9m2OZU/150x150.jpg", "brand": "Bank of Scotland", "brand:wikidata": "Q627381"}, "geometry": {"type": "Point", "coordinates": [-5.436521, 56.037071]}},
{"type": "Feature", "id": "X8Xxj066OhOnQHrtJ9Pc2qAPLuw=", "properties": {"ref": "https://branches.bankofscotland.co.uk/#15681721", "amenity": "bank", "@spider": "bank_of_scotland_gb", "addr:street_address": "54-55 The Centre", "addr:city": "Livingston", "addr:postcode": "EH54 6NB", "addr:country": "GB", "name": "Bank of Scotland Livingston The Centre Unit 54", "phone": "0345 721 3141", "website": "https://branches.bankofscotland.co.uk/livingston/54-55-the-centre", "image": "https://dynl.mktgcdn.com/p/MHhnGJK-WHER9Gnz26XKpqIhGKs1SzNkKK02B9m2OZU/150x150.jpg", "brand": "Bank of Scotland", "brand:wikidata": "Q627381"}, "geometry": {"type": "Point", "coordinates": [-3.509493133735393, 55.88372513031614]}},
{"type": "Feature", "id": "bUmzx1JWKeSUuhlFecSCXAbdwhM=", "properties": {"ref": "https://branches.bankofscotland.co.uk/#15681441", "amenity": "bank", "@spider": "bank_of_scotland_gb", "addr:street_address": "Regent Centre Blackness Road", "addr:city": "Linlithgow", "addr:postcode": "EH49 7HU", "addr:country": "GB", "name": "Bank of Scotland Linlithgow", "phone": "0345 721 3141", "website": "https://branches.bankofscotland.co.uk/linlithgow/regent-centre", "image": "https://dynl.mktgcdn.com/p/MHhnGJK-WHER9Gnz26XKpqIhGKs1SzNkKK02B9m2OZU/150x150.jpg", "brand": "Bank of Scotland", "brand:wikidata": "Q627381"}, "geometry": {"type": "Point", "coordinates": [-3.594865, 55.977583]}},
{"type": "Feature", "id": "yCWGFWRPYqv6CwNTCMDljikM5ec=", "properties": {"ref": "https://branches.bankofscotland.co.uk/#15681439", "amenity": "bank", "@spider": "bank_of_scotland_gb", "addr:street_address": "60 High Street", "addr:city": "Leven", "addr:postcode": "KY8 4NA", "addr:country": "GB", "name": "Bank of Scotland Leven High Street", "phone": "0345 721 3141", "website": "https://branches.bankofscotland.co.uk/leven/60-high-street", "image": "https://dynl.mktgcdn.com/p/MHhnGJK-WHER9Gnz26XKpqIhGKs1SzNkKK02B9m2OZU/150x150.jpg", "brand": "Bank of Scotland", "brand:wikidata": "Q627381"}, "geometry": {"type": "Point", "coordinates": [-2.9971059, 56.1949777]}},
{"type": "Feature", "id": "LZyXKRHAKnq3EtS4Q9TQnwPdscw=", "properties": {"ref": "https://branches.bankofscotland.co.uk/#15681387", "amenity": "bank", "@spider": "bank_of_scotland_gb", "addr:street_address": "9 Abbeygreen", "addr:city": "Lesmahagow", "addr:postcode": "ML11 0EQ", "addr:country": "GB", "name": "Bank of Scotland Lesmahagow", "phone": "0345 721 3141", "website": "https://branches.bankofscotland.co.uk/lesmahagow/9-abbeygreen", "image": "https://dynl.mktgcdn.com/p/MHhnGJK-WHER9Gnz26XKpqIhGKs1SzNkKK02B9m2OZU/150x150.jpg", "brand": "Bank of Scotland", "brand:wikidata": "Q627381"}, "geometry": {"type": "Point", "coordinates": [-3.886025, 55.6395633]}},
{"type": "Feature", "id": "WuUkHjGRfK67ZT0v5ze6YjMDdZY=", "properties": {"ref": "https://branches.bankofscotland.co.uk/#15681386", "amenity": "bank", "@spider": "bank_of_scotland_gb", "addr:street_address": "117 Commercial Street", "addr:city": "Lerwick", "addr:postcode": "ZE1 0DL", "addr:country": "GB", "name": "Bank of Scotland Lerwick", "phone": "0345 721 3141", "website": "https://branches.bankofscotland.co.uk/lerwick/117-commercial-street", "image": "https://dynl.mktgcdn.com/p/MHhnGJK-WHER9Gnz26XKpqIhGKs1SzNkKK02B9m2OZU/150x150.jpg", "brand": "Bank of Scotland", "brand:wikidata": "Q627381"}, "geometry": {"type": "Point", "coordinates": [-1.1434679993238084, 60.153266007084454]}},
{"type": "Feature", "id": "kmlbCYOq0arkEZMyUTqo5mE4xGE=", "properties": {"ref": "https://branches.bankofscotland.co.uk/#15681385", "amenity": "bank", "@spider": "bank_of_scotland_gb", "addr:street_address": "39 Union Street", "addr:city": "Larkhall", "addr:postcode": "ML9 1DT", "addr:country": "GB", "name": "Bank of Scotland Larkhall", "phone": "0345 721 3141", "website": "https://branches.bankofscotland.co.uk/larkhall/39-union-street", "image": "https://dynl.mktgcdn.com/p/MHhnGJK-WHER9Gnz26XKpqIhGKs1SzNkKK02B9m2OZU/150x150.jpg", "brand": "Bank of Scotland", "brand:wikidata": "Q627381"}, "geometry": {"type": "Point", "coordinates": [-3.974078721478471, 55.740507311120446]}},
{"type": "Feature", "id": "z18g5g6ImytP-VKrAar8GuuD2pE=", "properties": {"ref": "https://branches.bankofscotland.co.uk/#15681384", "amenity": "bank", "@spider": "bank_of_scotland_gb", "addr:street_address": "32 Main Street", "addr:city": "Largs", "addr:postcode": "KA30 8AD", "addr:country": "GB", "name": "Bank of Scotland Largs", "phone": "0345 721 3141", "website": "https://branches.bankofscotland.co.uk/largs/32-main-street", "image": "https://dynl.mktgcdn.com/p/MHhnGJK-WHER9Gnz26XKpqIhGKs1SzNkKK02B9m2OZU/150x150.jpg", "brand": "Bank of Scotland", "brand:wikidata": "Q627381"}, "geometry": {"type": "Point", "coordinates": [-4.8696389881541124, 55.79415449838402]}},
{"type": "Feature", "id": "6KdaNyTvttsrbBWCRtbWiWcgxxQ=", "properties": {"ref": "https://branches.bankofscotland.co.uk/#15681383", "amenity": "bank", "@spider": "bank_of_scotland_gb", "addr:street_address": "High Street Langholm", "addr:city": "Langholm", "addr:postcode": "DG13 0JH", "addr:country": "GB", "name": "Bank of Scotland Langholm", "phone": "0345 721 3141", "website": "https://branches.bankofscotland.co.uk/langholm/high-street", "image": "https://dynl.mktgcdn.com/p/MHhnGJK-WHER9Gnz26XKpqIhGKs1SzNkKK02B9m2OZU/150x150.jpg", "brand": "Bank of Scotland", "brand:wikidata": "Q627381"}, "geometry": {"type": "Point", "coordinates": [-3.000011542352723, 55.151614282376464]}},
{"type": "Feature", "id": "CC3meNMd30lP4_HOU_4Bp0Str00=", "properties": {"ref": "https://branches.bankofscotland.co.uk/#15680662", "amenity": "bank", "@spider": "bank_of_scotland_gb", "addr:street_address": "The Quadrant Centre Main Street", "addr:city": "Lanarkshire", "addr:postcode": "ML5 3EG", "addr:country": "GB", "name": "Bank of Scotland Coatbridge", "phone": "0345 721 3141", "website": "https://branches.bankofscotland.co.uk/lanarkshire/the-quadrant-centre", "image": "https://dynl.mktgcdn.com/p/MHhnGJK-WHER9Gnz26XKpqIhGKs1SzNkKK02B9m2OZU/150x150.jpg", "brand": "Bank of Scotland", "brand:wikidata": "Q627381"}, "geometry": {"type": "Point", "coordinates": [-4.024253, 55.86221399999999]}},
{"type": "Feature", "id": "W3cOb12j1EEj12meu79O-bVlwA8=", "properties": {"ref": "https://branches.bankofscotland.co.uk/#15681382", "amenity": "bank", "@spider": "bank_of_scotland_gb", "addr:street_address": "23 Bloomgate", "addr:city": "Lanark", "addr:postcode": "ML11 9EZ", "addr:country": "GB", "name": "Bank of Scotland Lanark Bloomgate", "phone": "0345 721 3141", "website": "https://branches.bankofscotland.co.uk/lanark/23-bloomgate", "image": "https://dynl.mktgcdn.com/p/MHhnGJK-WHER9Gnz26XKpqIhGKs1SzNkKK02B9m2OZU/150x150.jpg", "brand": "Bank of Scotland", "brand:wikidata": "Q627381"}, "geometry": {"type": "Point", "coordinates": [-3.781903718344388, 55.67375189464886]}},
{"type": "Feature", "id": "C2LoBcrgJpDMWY4u49hrdWacwZo=", "properties": {"ref": "https://branches.bankofscotland.co.uk/#15681381", "amenity": "bank", "@spider": "bank_of_scotland_gb", "addr:street_address": "Main Street", "addr:city": "Kyle", "addr:postcode": "IV40 8AB", "addr:country": "GB", "name": "Bank of Scotland Kyle", "phone": "0345 721 3141", "website": "https://branches.bankofscotland.co.uk/kyle/main-street", "image": "https://dynl.mktgcdn.com/p/MHhnGJK-WHER9Gnz26XKpqIhGKs1SzNkKK02B9m2OZU/150x150.jpg", "brand": "Bank of Scotland", "brand:wikidata": "Q627381"}, "geometry": {"type": "Point", "coordinates": [-5.716205318279695, 57.28110853085837]}},
{"type": "Feature", "id": "l3qng9DK64eCszaRN3IOeyMW8cQ=", "properties": {"ref": "https://branches.bankofscotland.co.uk/#15681291", "amenity": "bank", "@spider": "bank_of_scotland_gb", "addr:street_address": "56 Albert Street", "addr:city": "Kirkwall", "addr:postcode": "KW15 1HJ", "addr:country": "GB", "name": "Bank of Scotland Kirkwall", "phone": "0345 721 3141", "website": "https://branches.bankofscotland.co.uk/kirkwall/56-albert-street", "image": "https://dynl.mktgcdn.com/p/MHhnGJK-WHER9Gnz26XKpqIhGKs1SzNkKK02B9m2OZU/150x150.jpg", "brand": "Bank of Scotland", "brand:wikidata": "Q627381"}, "geometry": {"type": "Point", "coordinates": [-2.95942392235498, 58.98249568961953]}},
{"type": "Feature", "id": "itEtsT0o3yeWXfL1bnNW3P8DhoM=", "properties": {"ref": "https://branches.bankofscotland.co.uk/#15681292", "amenity": "bank", "@spider": "bank_of_scotland_gb", "addr:street_address": "100/102 Cowgate", "addr:city": "Kirkintilloch", "addr:postcode": "G66 1JQ", "addr:country": "GB", "name": "Bank of Scotland Kirkintilloch", "phone": "0345 721 3141", "website": "https://branches.bankofscotland.co.uk/kirkintilloch/100/102-cowgate", "image": "https://dynl.mktgcdn.com/p/MHhnGJK-WHER9Gnz26XKpqIhGKs1SzNkKK02B9m2OZU/150x150.jpg", "brand": "Bank of Scotland", "brand:wikidata": "Q627381"}, "geometry": {"type": "Point", "coordinates": [-4.15628504293956, 55.93905400257888]}},
{"type": "Feature", "id": "PJ3xJs3VlbbhaBylN4lajlxdEDw=", "properties": {"ref": "https://branches.bankofscotland.co.uk/#15681390", "amenity": "bank", "@spider": "bank_of_scotland_gb", "addr:street_address": "Carberry Road Mitchelson Industrial Estate", "addr:city": "Kirkcaldy", "addr:postcode": "KY1 3PA", "addr:country": "GB", "name": "Bank of Scotland Kirkcaldy Mitchelston", "phone": "0345 721 3141", "website": "https://branches.bankofscotland.co.uk/kirkcaldy/carberry-road", "image": "https://dynl.mktgcdn.com/p/MHhnGJK-WHER9Gnz26XKpqIhGKs1SzNkKK02B9m2OZU/150x150.jpg", "brand": "Bank of Scotland", "brand:wikidata": "Q627381"}, "geometry": {"type": "Point", "coordinates": [-3.1472929999999955, 56.13510349477271]}},
{"type": "Feature", "id": "_y9JJWnC_NvDIafL5w7z0QSE4ZY=", "properties": {"ref": "https://branches.bankofscotland.co.uk/#15681379", "amenity": "bank", "@spider": "bank_of_scotland_gb", "addr:street_address": "163 High Street", "addr:city": "Kirkcaldy", "addr:postcode": "KY1 1LR", "addr:country": "GB", "name": "Bank of Scotland Kirkcaldy High Street", "phone": "0345 721 3141", "website": "https://branches.bankofscotland.co.uk/kirkcaldy/163-high-street", "image": "https://dynl.mktgcdn.com/p/MHhnGJK-WHER9Gnz26XKpqIhGKs1SzNkKK02B9m2OZU/150x150.jpg", "brand": "Bank of Scotland", "brand:wikidata": "Q627381"}, "geometry": {"type": "Point", "coordinates": [-3.1589115, 56.1105994]}},
{"type": "Feature", "id": "F3v9MO6SKlF8af536hjmgmVn9qU=", "properties": {"ref": "https://branches.bankofscotland.co.uk/#15685507", "amenity": "bank", "@spider": "bank_of_scotland_gb", "addr:street_address": "30/34 King Street", "addr:city": "Kilmarnock", "addr:postcode": "KA1 1NP", "addr:country": "GB", "name": "Bank of Scotland Kilmarnock", "phone": "0345 721 3141", "website": "https://branches.bankofscotland.co.uk/kilmarnock/30/34-king-street", "image": "https://dynl.mktgcdn.com/p/MHhnGJK-WHER9Gnz26XKpqIhGKs1SzNkKK02B9m2OZU/150x150.jpg", "brand": "Bank of Scotland", "brand:wikidata": "Q627381"}, "geometry": {"type": "Point", "coordinates": [-4.4964873, 55.6093574]}},
{"type": "Feature", "id": "HAItBuArJWk8mqNwfvz8VPEorKU=", "properties": {"ref": "https://branches.bankofscotland.co.uk/#15681376", "amenity": "bank", "@spider": "bank_of_scotland_gb", "addr:street_address": "8/9 The Square", "addr:city": "Kelso", "addr:postcode": "TD5 7HQ", "addr:country": "GB", "name": "Bank of Scotland Kelso", "phone": "0345 721 3141", "website": "https://branches.bankofscotland.co.uk/kelso/8/9-the-square", "image": "https://dynl.mktgcdn.com/p/MHhnGJK-WHER9Gnz26XKpqIhGKs1SzNkKK02B9m2OZU/150x150.jpg", "brand": "Bank of Scotland", "brand:wikidata": "Q627381"}, "geometry": {"type": "Point", "coordinates": [-2.4337647, 55.5981334]}},
{"type": "Feature", "id": "iqHuZDEZB_THK8cE7g5dG5ygQDE=", "properties": {"ref": "https://branches.bankofscotland.co.uk/#15681375", "amenity": "bank", "@spider": "bank_of_scotland_gb", "addr:street_address": "56 High Street", "addr:city": "Johnstone", "addr:postcode": "PA5 8AL", "addr:country": "GB", "name": "Bank of Scotland Johnstone", "phone": "0345 721 3141", "website": "https://branches.bankofscotland.co.uk/johnstone/56-high-street", "image": "https://dynl.mktgcdn.com/p/MHhnGJK-WHER9Gnz26XKpqIhGKs1SzNkKK02B9m2OZU/150x150.jpg", "brand": "Bank of Scotland", "brand:wikidata": "Q627381"}, "geometry": {"type": "Point", "coordinates": [-4.512766947053508, 55.83697136375451]}},
{"type": "Feature", "id": "IcBqQywcGwa1fIN35SdvCO29gXs=", "properties": {"ref": "https://branches.bankofscotland.co.uk/#15681374", "amenity": "bank", "@spider": "bank_of_scotland_gb", "addr:street_address": "40 High Street", "addr:city": "Jedburgh", "addr:postcode": "TD8 6DQ", "addr:country": "GB", "name": "Bank of Scotland Jedburgh", "phone": "0345 721 3141", "website": "https://branches.bankofscotland.co.uk/jedburgh/40-high-street", "image": "https://dynl.mktgcdn.com/p/MHhnGJK-WHER9Gnz26XKpqIhGKs1SzNkKK02B9m2OZU/150x150.jpg", "brand": "Bank of Scotland", "brand:wikidata": "Q627381"}, "geometry": {"type": "Point", "coordinates": [-2.5537113704877545, 55.47928709029535]}},
{"type": "Feature", "id": "AYOnf1GEzdWolaKJPcSyol2VgPE=", "properties": {"ref": "https://branches.bankofscotland.co.uk/#15681581", "amenity": "bank", "@spider": "bank_of_scotland_gb", "addr:street_address": "42 Stuart Street Millport", "addr:city": "Isle of Cumbrae", "addr:postcode": "KA28 0AG", "addr:country": "GB", "name": "Bank of Scotland Millport", "phone": "0345 721 3141", "website": "https://branches.bankofscotland.co.uk/isle-of-cumbrae/42-stuart-street", "image": "https://dynl.mktgcdn.com/p/MHhnGJK-WHER9Gnz26XKpqIhGKs1SzNkKK02B9m2OZU/150x150.jpg", "brand": "Bank of Scotland", "brand:wikidata": "Q627381"}, "geometry": {"type": "Point", "coordinates": [-4.931142361092444, 55.752376485068886]}},
{"type": "Feature", "id": "GmgVHkMkZ-gHWO1pMXKYHS0yP0o=", "properties": {"ref": "https://branches.bankofscotland.co.uk/#15682083", "amenity": "bank", "@spider": "bank_of_scotland_gb", "addr:street_address": "Balivanich", "addr:city": "Isle of Benbecula", "addr:postcode": "HS7 5LA", "addr:country": "GB", "name": "Bank of Scotland Isle of Benbecula", "phone": "0345 721 3141", "website": "https://branches.bankofscotland.co.uk/isle-of-benbecula/balivanich", "image": "https://dynl.mktgcdn.com/p/MHhnGJK-WHER9Gnz26XKpqIhGKs1SzNkKK02B9m2OZU/150x150.jpg", "brand": "Bank of Scotland", "brand:wikidata": "Q627381"}, "geometry": {"type": "Point", "coordinates": [-7.377969, 57.4731275]}},
{"type": "Feature", "id": "ClcC1-pQQWqMVCI3DCUuEzOOMjY=", "properties": {"ref": "https://branches.bankofscotland.co.uk/#15680732", "amenity": "bank", "@spider": "bank_of_scotland_gb", "addr:street_address": "Brodick", "addr:city": "Isle of Arran", "addr:postcode": "KA27 8AB", "addr:country": "GB", "name": "Bank of Scotland Brodick", "phone": "0345 721 3141", "website": "https://branches.bankofscotland.co.uk/isle-of-arran/brodick", "image": "https://dynl.mktgcdn.com/p/MHhnGJK-WHER9Gnz26XKpqIhGKs1SzNkKK02B9m2OZU/150x150.jpg", "brand": "Bank of Scotland", "brand:wikidata": "Q627381"}, "geometry": {"type": "Point", "coordinates": [-5.1504414490737815, 55.57742854554585]}},
{"type": "Feature", "id": "zinBbV5ELBrvhYbunLHBQOkplU4=", "properties": {"ref": "https://branches.bankofscotland.co.uk/#15681373", "amenity": "bank", "@spider": "bank_of_scotland_gb", "addr:street_address": "167 High Street", "addr:city": "Irvine", "addr:postcode": "KA12 8AF", "addr:country": "GB", "name": "Bank of Scotland Irvine High Street", "phone": "0345 721 3141", "website": "https://branches.bankofscotland.co.uk/irvine/167-high-street", "image": "https://dynl.mktgcdn.com/p/MHhnGJK-WHER9Gnz26XKpqIhGKs1SzNkKK02B9m2OZU/150x150.jpg", "brand": "Bank of Scotland", "brand:wikidata": "Q627381"}, "geometry": {"type": "Point", "coordinates": [-4.668414931448985, 55.61589445819165]}},
{"type": "Feature", "id": "xZV5STv1fDWTJzPy3MY_Z2YA3bc=", "properties": {"ref": "https://branches.bankofscotland.co.uk/#15681372", "amenity": "bank", "@spider": "bank_of_scotland_gb", "addr:street_address": "Garioch Centre", "addr:city": "Inverurie", "addr:postcode": "AB51 4SB", "addr:country": "GB", "name": "Bank of Scotland Inverurie", "phone": "0345 721 3141", "website": "https://branches.bankofscotland.co.uk/inverurie/garioch-centre", "image": "https://dynl.mktgcdn.com/p/MHhnGJK-WHER9Gnz26XKpqIhGKs1SzNkKK02B9m2OZU/150x150.jpg", "brand": "Bank of Scotland", "brand:wikidata": "Q627381"}, "geometry": {"type": "Point", "coordinates": [-2.3763143, 57.2863303]}},
{"type": "Feature", "id": "tr8K2e2csr-g1iO8B9IKv7SNUJ0=", "properties": {"ref": "https://branches.bankofscotland.co.uk/#15681389", "amenity": "bank", "@spider": "bank_of_scotland_gb", "addr:street_address": "35D Harbour Road Longman South", "addr:city": "Inverness", "addr:postcode": "IV1 1UA", "addr:country": "GB", "name": "Bank of Scotland Inverness Longman", "phone": "0345 721 3141", "website": "https://branches.bankofscotland.co.uk/inverness/35d-harbour-road", "image": "https://dynl.mktgcdn.com/p/MHhnGJK-WHER9Gnz26XKpqIhGKs1SzNkKK02B9m2OZU/150x150.jpg", "brand": "Bank of Scotland", "brand:wikidata": "Q627381"}, "geometry": {"type": "Point", "coordinates": [-4.213921139881133, 57.48439026118744]}},
{"type": "Feature", "id": "gE7cj_yHiiCI_UaaZXrACTZfZBs=", "properties": {"ref": "https://branches.bankofscotland.co.uk/#15681371", "amenity": "bank", "@spider": "bank_of_scotland_gb", "addr:street_address": "2-6 Eastgate", "addr:city": "Inverness", "addr:postcode": "IV2 3NA", "addr:country": "GB", "name": "Bank of Scotland Inverness City", "phone": "0345 721 3141", "website": "https://branches.bankofscotland.co.uk/inverness/2-6-eastgate", "image": "https://dynl.mktgcdn.com/p/MHhnGJK-WHER9Gnz26XKpqIhGKs1SzNkKK02B9m2OZU/150x150.jpg", "brand": "Bank of Scotland", "brand:wikidata": "Q627381"}, "geometry": {"type": "Point", "coordinates": [-4.22256955765478, 57.47804581617424]}},
{"type": "Feature", "id": "pdluYGM0PL5jNgtT8OIBnY-rMuM=", "properties": {"ref": "https://branches.bankofscotland.co.uk/#15681368", "amenity": "bank", "@spider": "bank_of_scotland_gb", "addr:street_address": "Shore Road Kilcreggan", "addr:city": "Helensburgh", "addr:postcode": "G84 0JH", "addr:country": "GB", "name": "Bank of Scotland Kilcreggan", "phone": "0345 721 3141", "website": "https://branches.bankofscotland.co.uk/helensburgh/shore-road", "image": "https://dynl.mktgcdn.com/p/MHhnGJK-WHER9Gnz26XKpqIhGKs1SzNkKK02B9m2OZU/150x150.jpg", "brand": "Bank of Scotland", "brand:wikidata": "Q627381"}, "geometry": {"type": "Point", "coordinates": [-4.820551, 55.985093]}},
{"type": "Feature", "id": "tm1sN_R8QaYAuCPvWFQH8o2Nzpk=", "properties": {"ref": "https://branches.bankofscotland.co.uk/#15681367", "amenity": "bank", "@spider": "bank_of_scotland_gb", "addr:street_address": "26 Colquhoun Square", "addr:city": "Helensburgh", "addr:postcode": "G84 8AD", "addr:country": "GB", "name": "Bank of Scotland Helensburgh", "phone": "0345 721 3141", "website": "https://branches.bankofscotland.co.uk/helensburgh/26-colquhoun-square", "image": "https://dynl.mktgcdn.com/p/MHhnGJK-WHER9Gnz26XKpqIhGKs1SzNkKK02B9m2OZU/150x150.jpg", "brand": "Bank of Scotland", "brand:wikidata": "Q627381"}, "geometry": {"type": "Point", "coordinates": [-4.734875294939826, 56.004811949842754]}},
{"type": "Feature", "id": "rcBSYDbFMIVPjVrdrAkh5Ifz_cc=", "properties": {"ref": "https://branches.bankofscotland.co.uk/#15681366", "amenity": "bank", "@spider": "bank_of_scotland_gb", "addr:street_address": "7 High Street", "addr:city": "Hawick", "addr:postcode": "TD9 9BZ", "addr:country": "GB", "name": "Bank of Scotland Hawick", "phone": "0345 721 3141", "website": "https://branches.bankofscotland.co.uk/hawick/7-high-street", "image": "https://dynl.mktgcdn.com/p/MHhnGJK-WHER9Gnz26XKpqIhGKs1SzNkKK02B9m2OZU/150x150.jpg", "brand": "Bank of Scotland", "brand:wikidata": "Q627381"}, "geometry": {"type": "Point", "coordinates": [-2.788145639331654, 55.421796689930744]}},
{"type": "Feature", "id": "jVPjOH2TY9-AIGwhayKnGwNmaFc=", "properties": {"ref": "https://branches.bankofscotland.co.uk/#15681365", "amenity": "bank", "@spider": "bank_of_scotland_gb", "addr:street_address": "9 Brandon Street", "addr:city": "Hamilton", "addr:postcode": "ML3 6BZ", "addr:country": "GB", "name": "Bank of Scotland Hamilton", "phone": "0345 721 3141", "website": "https://branches.bankofscotland.co.uk/hamilton/9-brandon-street", "image": "https://dynl.mktgcdn.com/p/MHhnGJK-WHER9Gnz26XKpqIhGKs1SzNkKK02B9m2OZU/150x150.jpg", "brand": "Bank of Scotland", "brand:wikidata": "Q627381"}, "geometry": {"type": "Point", "coordinates": [-4.037726517133981, 55.773870947905884]}},
{"type": "Feature", "id": "LxIfh0ia7vfd5jhqVWEeYmMEj2M=", "properties": {"ref": "https://branches.bankofscotland.co.uk/#15681438", "amenity": "bank", "@spider": "bank_of_scotland_gb", "addr:street_address": "44 Court Street", "addr:city": "Haddington", "addr:postcode": "EH41 3NP", "addr:country": "GB", "name": "Bank of Scotland Haddington", "phone": "0345 721 3141", "website": "https://branches.bankofscotland.co.uk/haddington/44-court-street", "image": "https://dynl.mktgcdn.com/p/MHhnGJK-WHER9Gnz26XKpqIhGKs1SzNkKK02B9m2OZU/150x150.jpg", "brand": "Bank of Scotland", "brand:wikidata": "Q627381"}, "geometry": {"type": "Point", "coordinates": [-2.7813475, 55.955765]}},
{"type": "Feature", "id": "QxWQkEBRSOOCFFLp8zXcb2E7PxY=", "properties": {"ref": "https://branches.bankofscotland.co.uk/#15681364", "amenity": "bank", "@spider": "bank_of_scotland_gb", "addr:street_address": "64/66 West Blackhall Street", "addr:city": "Greenock", "addr:postcode": "PA15 1XG", "addr:country": "GB", "name": "Bank of Scotland Greenock", "phone": "0345 721 3141", "website": "https://branches.bankofscotland.co.uk/greenock/64/66-west-blackhall-street", "image": "https://dynl.mktgcdn.com/p/MHhnGJK-WHER9Gnz26XKpqIhGKs1SzNkKK02B9m2OZU/150x150.jpg", "brand": "Bank of Scotland", "brand:wikidata": "Q627381"}, "geometry": {"type": "Point", "coordinates": [-4.76135757139283, 55.95073911409609]}},
{"type": "Feature", "id": "nlxqHmztqrRxxaq3-kYwytJOuno=", "properties": {"ref": "https://branches.bankofscotland.co.uk/#15681361", "amenity": "bank", "@spider": "bank_of_scotland_gb", "addr:street_address": "24 La Porte Precinct", "addr:city": "Grangemouth", "addr:postcode": "FK3 8AS", "addr:country": "GB", "name": "Bank of Scotland Grangemouth La Porte", "phone": "0345 721 3141", "website": "https://branches.bankofscotland.co.uk/grangemouth/24-la-porte-precinct", "image": "https://dynl.mktgcdn.com/p/MHhnGJK-WHER9Gnz26XKpqIhGKs1SzNkKK02B9m2OZU/150x150.jpg", "brand": "Bank of Scotland", "brand:wikidata": "Q627381"}, "geometry": {"type": "Point", "coordinates": [-3.7231053, 56.0189996]}},
{"type": "Feature", "id": "r_ihDCYHlVCQRQODAtoUPrGCvdQ=", "properties": {"ref": "https://branches.bankofscotland.co.uk/#15681359", "amenity": "bank", "@spider": "bank_of_scotland_gb", "addr:street_address": "Main Street Golspie", "addr:city": "Golspie", "addr:postcode": "KW10 6RJ", "addr:country": "GB", "name": "Bank of Scotland Golspie", "phone": "0345 721 3141", "website": "https://branches.bankofscotland.co.uk/golspie/main-street", "image": "https://dynl.mktgcdn.com/p/MHhnGJK-WHER9Gnz26XKpqIhGKs1SzNkKK02B9m2OZU/150x150.jpg", "brand": "Bank of Scotland", "brand:wikidata": "Q627381"}, "geometry": {"type": "Point", "coordinates": [-3.9711410378539713, 57.97521845531997]}},
{"type": "Feature", "id": "1QjcunD1KMcA6D46oQVp29bt9w0=", "properties": {"ref": "https://branches.bankofscotland.co.uk/#15681360", "amenity": "bank", "@spider": "bank_of_scotland_gb", "addr:street_address": "9 Falkland Gate", "addr:city": "Glenrothes", "addr:postcode": "KY7 5LW", "addr:country": "GB", "name": "Bank of Scotland Glenrothes", "phone": "0345 721 3141", "website": "https://branches.bankofscotland.co.uk/glenrothes/9-falkland-gate", "image": "https://dynl.mktgcdn.com/p/MHhnGJK-WHER9Gnz26XKpqIhGKs1SzNkKK02B9m2OZU/150x150.jpg", "brand": "Bank of Scotland", "brand:wikidata": "Q627381"}, "geometry": {"type": "Point", "coordinates": [-3.172038, 56.19603]}},
{"type": "Feature", "id": "rMW8bQN1yEg_UO1ad4lP86Tx1Ko=", "properties": {"ref": "https://branches.bankofscotland.co.uk/#15681722", "amenity": "bank", "@spider": "bank_of_scotland_gb", "addr:street_address": "Civic Realm Leisure Centre 27 Cowglen Road", "addr:city": "Glasgow", "addr:postcode": "G53 6EW", "addr:country": "GB", "name": "Bank of Scotland Glasgow Pollok", "phone": "0345 721 3141", "website": "https://branches.bankofscotland.co.uk/glasgow/civic-realm-leisure-centre", "image": "https://dynl.mktgcdn.com/p/MHhnGJK-WHER9Gnz26XKpqIhGKs1SzNkKK02B9m2OZU/150x150.jpg", "brand": "Bank of Scotland", "brand:wikidata": "Q627381"}, "geometry": {"type": "Point", "coordinates": [-4.34482272883606, 55.82307897807641]}},
{"type": "Feature", "id": "t2595VJKI6tGwFPN55eW-El8BVs=", "properties": {"ref": "https://branches.bankofscotland.co.uk/#15681077", "amenity": "bank", "@spider": "bank_of_scotland_gb", "addr:street_address": "836 Crow Road", "addr:city": "Glasgow", "addr:postcode": "G13 1ET", "addr:country": "GB", "name": "Bank of Scotland Glasgow Anniesland", "phone": "0345 721 3141", "website": "https://branches.bankofscotland.co.uk/glasgow/836-crow-road", "image": "https://dynl.mktgcdn.com/p/MHhnGJK-WHER9Gnz26XKpqIhGKs1SzNkKK02B9m2OZU/150x150.jpg", "brand": "Bank of Scotland", "brand:wikidata": "Q627381"}, "geometry": {"type": "Point", "coordinates": [-4.324552087872508, 55.89025256521237]}},
{"type": "Feature", "id": "mSvhHG1DvXd2_Ix1yjo746STSqQ=", "properties": {"ref": "https://branches.bankofscotland.co.uk/#15681434", "amenity": "bank", "@spider": "bank_of_scotland_gb", "addr:street_address": "816 Govan Road Govan", "addr:city": "Glasgow", "addr:postcode": "G51 3UP", "addr:country": "GB", "name": "Bank of Scotland Glasgow Govan", "phone": "0345 721 3141", "website": "https://branches.bankofscotland.co.uk/glasgow/816-govan-road", "image": "https://dynl.mktgcdn.com/p/MHhnGJK-WHER9Gnz26XKpqIhGKs1SzNkKK02B9m2OZU/150x150.jpg", "brand": "Bank of Scotland", "brand:wikidata": "Q627381"}, "geometry": {"type": "Point", "coordinates": [-4.311714644046525, 55.86323198560332]}},
{"type": "Feature", "id": "_NyHIxVaiu17iv8_72B7Nke2dOA=", "properties": {"ref": "https://branches.bankofscotland.co.uk/#15681433", "amenity": "bank", "@spider": "bank_of_scotland_gb", "addr:street_address": "56/60 Kilmarnock Road", "addr:city": "Glasgow", "addr:postcode": "G41 3NN", "addr:country": "GB", "name": "Bank of Scotland Glasgow Shawlands", "phone": "0345 721 3141", "website": "https://branches.bankofscotland.co.uk/glasgow/56/60-kilmarnock-road", "image": "https://dynl.mktgcdn.com/p/MHhnGJK-WHER9Gnz26XKpqIhGKs1SzNkKK02B9m2OZU/150x150.jpg", "brand": "Bank of Scotland", "brand:wikidata": "Q627381"}, "geometry": {"type": "Point", "coordinates": [-4.283021631560963, 55.82927312390386]}},
{"type": "Feature", "id": "itO5ycyDg517uwO8nTjDCGfWYrg=", "properties": {"ref": "https://branches.bankofscotland.co.uk/#15681076", "amenity": "bank", "@spider": "bank_of_scotland_gb", "addr:street_address": "54-62 Sauchiehall Street", "addr:city": "Glasgow", "addr:postcode": "G2 3AH", "addr:country": "GB", "name": "Bank of Scotland Glasgow 54 Sauchiehall Street", "phone": "0345 721 3141", "website": "https://branches.bankofscotland.co.uk/glasgow/54-62-sauchiehall-street", "image": "https://dynl.mktgcdn.com/p/MHhnGJK-WHER9Gnz26XKpqIhGKs1SzNkKK02B9m2OZU/150x150.jpg", "brand": "Bank of Scotland", "brand:wikidata": "Q627381"}, "geometry": {"type": "Point", "coordinates": [-4.254827680373949, 55.864595572624125]}},
{"type": "Feature", "id": "Mh_yjWf-PRe3Tg8ah-OtZA3Vp8w=", "properties": {"ref": "https://branches.bankofscotland.co.uk/#15681362", "amenity": "bank", "@spider": "bank_of_scotland_gb", "addr:street_address": "464 Victoria Road", "addr:city": "Glasgow", "addr:postcode": "G42 8PB", "addr:country": "GB", "name": "Bank of Scotland Glasgow Victoria Road", "phone": "0345 721 3141", "website": "https://branches.bankofscotland.co.uk/glasgow/464-victoria-road", "image": "https://dynl.mktgcdn.com/p/MHhnGJK-WHER9Gnz26XKpqIhGKs1SzNkKK02B9m2OZU/150x150.jpg", "brand": "Bank of Scotland", "brand:wikidata": "Q627381"}, "geometry": {"type": "Point", "coordinates": [-4.265569966904876, 55.83540477655256]}},
{"type": "Feature", "id": "Oozup3lFAdS9178rduYE0MLVweg=", "properties": {"ref": "https://branches.bankofscotland.co.uk/#15681432", "amenity": "bank", "@spider": "bank_of_scotland_gb", "addr:street_address": "258/262 Dumbarton Road", "addr:city": "Glasgow", "addr:postcode": "G11 6TU", "addr:country": "GB", "name": "Bank of Scotland Glasgow Partick", "phone": "0345 721 3141", "website": "https://branches.bankofscotland.co.uk/glasgow/258/262-dumbarton-road", "image": "https://dynl.mktgcdn.com/p/MHhnGJK-WHER9Gnz26XKpqIhGKs1SzNkKK02B9m2OZU/150x150.jpg", "brand": "Bank of Scotland", "brand:wikidata": "Q627381"}, "geometry": {"type": "Point", "coordinates": [-4.303869453239197, 55.87096656250376]}},
{"type": "Feature", "id": "dirQSKzFwPrueIUYmQovWJ2d55s=", "properties": {"ref": "https://branches.bankofscotland.co.uk/#15681446", "amenity": "bank", "@spider": "bank_of_scotland_gb", "addr:street_address": "236 Albert Drive Pollokshields", "addr:city": "Glasgow", "addr:postcode": "G41 2NL", "addr:country": "GB", "name": "Bank of Scotland Glasgow Pollokshields", "phone": "0345 721 3141", "website": "https://branches.bankofscotland.co.uk/glasgow/236-albert-drive", "image": "https://dynl.mktgcdn.com/p/MHhnGJK-WHER9Gnz26XKpqIhGKs1SzNkKK02B9m2OZU/150x150.jpg", "brand": "Bank of Scotland", "brand:wikidata": "Q627381"}, "geometry": {"type": "Point", "coordinates": [-4.274159120255094, 55.84261059402515]}},
{"type": "Feature", "id": "-zXLDbPOlwWAKhjVQKjQfjX852k=", "properties": {"ref": "https://branches.bankofscotland.co.uk/#15681078", "amenity": "bank", "@spider": "bank_of_scotland_gb", "addr:street_address": "2210 Paisley Road West", "addr:city": "Glasgow", "addr:postcode": "G52 3SJ", "addr:country": "GB", "name": "Bank of Scotland Glasgow Cardonald", "phone": "0345 721 3141", "website": "https://branches.bankofscotland.co.uk/glasgow/2210-paisley-road-west", "image": "https://dynl.mktgcdn.com/p/MHhnGJK-WHER9Gnz26XKpqIhGKs1SzNkKK02B9m2OZU/150x150.jpg", "brand": "Bank of Scotland", "brand:wikidata": "Q627381"}, "geometry": {"type": "Point", "coordinates": [-4.358321622759838, 55.8459420080464]}},
{"type": "Feature", "id": "ucuCHdrMHR6Z8A6RsOhePljYZY4=", "properties": {"ref": "https://branches.bankofscotland.co.uk/#15680730", "amenity": "bank", "@spider": "bank_of_scotland_gb", "addr:street_address": "20 Busby Road Clarkston", "addr:city": "Glasgow", "addr:postcode": "G76 7XH", "addr:country": "GB", "name": "Bank of Scotland Glasgow Clarkston", "phone": "0345 721 3141", "website": "https://branches.bankofscotland.co.uk/glasgow/20-busby-road", "image": "https://dynl.mktgcdn.com/p/MHhnGJK-WHER9Gnz26XKpqIhGKs1SzNkKK02B9m2OZU/150x150.jpg", "brand": "Bank of Scotland", "brand:wikidata": "Q627381"}, "geometry": {"type": "Point", "coordinates": [-4.2770746, 55.7896963]}},
{"type": "Feature", "id": "hvn3aPp2E_1kxvOXrb9efMz-Nu0=", "properties": {"ref": "https://branches.bankofscotland.co.uk/#15682160", "amenity": "bank", "@spider": "bank_of_scotland_gb", "addr:street_address": "19 Roman Road Bearsden", "addr:city": "Glasgow", "addr:postcode": "G61 2SP", "addr:country": "GB", "name": "Bank of Scotland Glasgow Bearsden", "phone": "0345 721 3141", "website": "https://branches.bankofscotland.co.uk/glasgow/19-roman-road", "image": "https://dynl.mktgcdn.com/p/MHhnGJK-WHER9Gnz26XKpqIhGKs1SzNkKK02B9m2OZU/150x150.jpg", "brand": "Bank of Scotland", "brand:wikidata": "Q627381"}, "geometry": {"type": "Point", "coordinates": [-4.332895876509359, 55.91964927433917]}},
{"type": "Feature", "id": "HACXlA97r4evNxocOWtQMR5s_Ow=", "properties": {"ref": "https://branches.bankofscotland.co.uk/#15681158", "amenity": "bank", "@spider": "bank_of_scotland_gb", "addr:street_address": "187 Baillieston Road", "addr:city": "Glasgow", "addr:postcode": "G32 0TN", "addr:country": "GB", "name": "Bank of Scotland Garrowhill", "phone": "0345 721 3141", "website": "https://branches.bankofscotland.co.uk/glasgow/187-baillieston-road", "image": "https://dynl.mktgcdn.com/p/MHhnGJK-WHER9Gnz26XKpqIhGKs1SzNkKK02B9m2OZU/150x150.jpg", "brand": "Bank of Scotland", "brand:wikidata": "Q627381"}, "geometry": {"type": "Point", "coordinates": [-4.132912435448188, 55.85011304339455]}},
{"type": "Feature", "id": "GKmKg4Je0kpd7ZIBJQ6k2nYP3ek=", "properties": {"ref": "https://branches.bankofscotland.co.uk/#15681075", "amenity": "bank", "@spider": "bank_of_scotland_gb", "addr:street_address": "174 Byres Road", "addr:city": "Glasgow", "addr:postcode": "G12 8SW", "addr:country": "GB", "name": "Bank of Scotland Glasgow Byres Road", "phone": "0345 721 3141", "website": "https://branches.bankofscotland.co.uk/glasgow/174-byres-road", "image": "https://dynl.mktgcdn.com/p/MHhnGJK-WHER9Gnz26XKpqIhGKs1SzNkKK02B9m2OZU/150x150.jpg", "brand": "Bank of Scotland", "brand:wikidata": "Q627381"}, "geometry": {"type": "Point", "coordinates": [-4.294084469270591, 55.874572012872434]}},
{"type": "Feature", "id": "a4DVyPPQRJw99rGFnasMrQJlDSA=", "properties": {"ref": "https://branches.bankofscotland.co.uk/#15682222", "amenity": "bank", "@spider": "bank_of_scotland_gb", "addr:street_address": "167-201 Argyle Street", "addr:city": "Glasgow", "addr:postcode": "G2 8BU", "addr:country": "GB", "name": "Bank of Scotland Glasgow Argyle Street", "phone": "0345 721 3141", "website": "https://branches.bankofscotland.co.uk/glasgow/167-201-argyle-street", "image": "https://dynl.mktgcdn.com/p/1-0MXY3OpjhW0Ln-DT7-iwmEIOGFxNwmddY9c7gtiq8/150x150.jpg", "brand": "Bank of Scotland", "brand:wikidata": "Q627381"}, "geometry": {"type": "Point", "coordinates": [-4.255388465383159, 55.85799669542105]}},
{"type": "Feature", "id": "eadPoe5pEYpRXADy7H4bhufw9dQ=", "properties": {"ref": "https://branches.bankofscotland.co.uk/#15681435", "amenity": "bank", "@spider": "bank_of_scotland_gb", "addr:street_address": "1195 Duke Street", "addr:city": "Glasgow", "addr:postcode": "G31 5NJ", "addr:country": "GB", "name": "Bank of Scotland Glasgow The Forge", "phone": "0345 721 3141", "website": "https://branches.bankofscotland.co.uk/glasgow/1195-duke-street", "image": "https://dynl.mktgcdn.com/p/MHhnGJK-WHER9Gnz26XKpqIhGKs1SzNkKK02B9m2OZU/150x150.jpg", "brand": "Bank of Scotland", "brand:wikidata": "Q627381"}, "geometry": {"type": "Point", "coordinates": [-4.197109112285804, 55.85357754120991]}},
{"type": "Feature", "id": "vLHZQU1r4iaHmoPuU7u7GoIBvxg=", "properties": {"ref": "https://branches.bankofscotland.co.uk/#15681079", "amenity": "bank", "@spider": "bank_of_scotland_gb", "addr:street_address": "17 Dalrymple Street", "addr:city": "Girvan", "addr:postcode": "KA26 9EU", "addr:country": "GB", "name": "Bank of Scotland Girvan", "phone": "0345 721 3141", "website": "https://branches.bankofscotland.co.uk/girvan/17-dalrymple-street", "image": "https://dynl.mktgcdn.com/p/MHhnGJK-WHER9Gnz26XKpqIhGKs1SzNkKK02B9m2OZU/150x150.jpg", "brand": "Bank of Scotland", "brand:wikidata": "Q627381"}, "geometry": {"type": "Point", "coordinates": [-4.855295336805343, 55.24284026360061]}},
{"type": "Feature", "id": "ZxHR7zDe2aYZHFNmjZ9VkaBVidM=", "properties": {"ref": "https://branches.bankofscotland.co.uk/#15681156", "amenity": "bank", "@spider": "bank_of_scotland_gb", "addr:street_address": "3 Channel Street", "addr:city": "Galashiels", "addr:postcode": "TD1 1BE", "addr:country": "GB", "name": "Bank of Scotland Galashiels", "phone": "0345 721 3141", "website": "https://branches.bankofscotland.co.uk/galashiels/3-channel-street", "image": "https://dynl.mktgcdn.com/p/MHhnGJK-WHER9Gnz26XKpqIhGKs1SzNkKK02B9m2OZU/150x150.jpg", "brand": "Bank of Scotland", "brand:wikidata": "Q627381"}, "geometry": {"type": "Point", "coordinates": [-2.8089363174501836, 55.61730789236735]}},
{"type": "Feature", "id": "0kxibZG6MH0adoZ75p5E3E-LJZk=", "properties": {"ref": "https://branches.bankofscotland.co.uk/#15681155", "amenity": "bank", "@spider": "bank_of_scotland_gb", "addr:street_address": "Seaforth Street", "addr:city": "Fraserburgh", "addr:postcode": "AB43 9BB", "addr:country": "GB", "name": "Bank of Scotland Fraserburgh", "phone": "0345 721 3141", "website": "https://branches.bankofscotland.co.uk/fraserburgh/seaforth-street", "image": "https://dynl.mktgcdn.com/p/MHhnGJK-WHER9Gnz26XKpqIhGKs1SzNkKK02B9m2OZU/150x150.jpg", "brand": "Bank of Scotland", "brand:wikidata": "Q627381"}, "geometry": {"type": "Point", "coordinates": [-2.005012101852426, 57.69120292970681]}},
{"type": "Feature", "id": "cVEL4gDH8Vb60aSIvgNzB5wK-gc=", "properties": {"ref": "https://branches.bankofscotland.co.uk/#15681154", "amenity": "bank", "@spider": "bank_of_scotland_gb", "addr:street_address": "62 High Street", "addr:city": "Fort William", "addr:postcode": "PH33 6AE", "addr:country": "GB", "name": "Bank of Scotland Fort William", "phone": "0345 721 3141", "website": "https://branches.bankofscotland.co.uk/fort-william/62-high-street", "image": "https://dynl.mktgcdn.com/p/MHhnGJK-WHER9Gnz26XKpqIhGKs1SzNkKK02B9m2OZU/150x150.jpg", "brand": "Bank of Scotland", "brand:wikidata": "Q627381"}, "geometry": {"type": "Point", "coordinates": [-5.112195233764272, 56.817186151830775]}},
{"type": "Feature", "id": "uK_T2kNDomgsmO8RIARh7jifEbM=", "properties": {"ref": "https://branches.bankofscotland.co.uk/#15682219", "amenity": "bank", "@spider": "bank_of_scotland_gb", "addr:street_address": "Station Road", "addr:city": "Fort Augustus", "addr:postcode": "PH32 4AZ", "addr:country": "GB", "name": "Bank of Scotland Fort Augustus", "phone": "0345 721 3141", "website": "https://branches.bankofscotland.co.uk/fort-augustus/station-road", "image": "https://dynl.mktgcdn.com/p/MHhnGJK-WHER9Gnz26XKpqIhGKs1SzNkKK02B9m2OZU/150x150.jpg", "brand": "Bank of Scotland", "brand:wikidata": "Q627381"}, "geometry": {"type": "Point", "coordinates": [-4.6838887, 57.1440186]}},
{"type": "Feature", "id": "qBc-Y2Qwr6-IJZPH5pgcusrOkLQ=", "properties": {"ref": "https://branches.bankofscotland.co.uk/#15681153", "amenity": "bank", "@spider": "bank_of_scotland_gb", "addr:street_address": "72 West High Street", "addr:city": "Forfar", "addr:postcode": "DD8 1BJ", "addr:country": "GB", "name": "Bank of Scotland Forfar", "phone": "0345 721 3141", "website": "https://branches.bankofscotland.co.uk/forfar/72-west-high-street", "image": "https://dynl.mktgcdn.com/p/MHhnGJK-WHER9Gnz26XKpqIhGKs1SzNkKK02B9m2OZU/150x150.jpg", "brand": "Bank of Scotland", "brand:wikidata": "Q627381"}, "geometry": {"type": "Point", "coordinates": [-2.891958, 56.6432794]}},
{"type": "Feature", "id": "B6pcevfrEYWw3lHXyaYCWB-akw8=", "properties": {"ref": "https://branches.bankofscotland.co.uk/#15681151", "amenity": "bank", "@spider": "bank_of_scotland_gb", "addr:street_address": "138/140 High Street", "addr:city": "Falkirk", "addr:postcode": "FK1 1NR", "addr:country": "GB", "name": "Bank of Scotland Falkirk High Street", "phone": "0345 721 3141", "website": "https://branches.bankofscotland.co.uk/falkirk/138/140-high-street", "image": "https://dynl.mktgcdn.com/p/MHhnGJK-WHER9Gnz26XKpqIhGKs1SzNkKK02B9m2OZU/150x150.jpg", "brand": "Bank of Scotland", "brand:wikidata": "Q627381"}, "geometry": {"type": "Point", "coordinates": [-3.7832006, 55.9990892]}},
{"type": "Feature", "id": "tv2mITw6fCmmytOsJFzH4zVFeQg=", "properties": {"ref": "https://branches.bankofscotland.co.uk/#15681146", "amenity": "bank", "@spider": "bank_of_scotland_gb", "addr:street_address": "Manse Road", "addr:city": "Eyemouth", "addr:postcode": "TD14 5JE", "addr:country": "GB", "name": "Bank of Scotland Eyemouth", "phone": "0345 721 3141", "website": "https://branches.bankofscotland.co.uk/eyemouth/manse-road", "image": "https://dynl.mktgcdn.com/p/MHhnGJK-WHER9Gnz26XKpqIhGKs1SzNkKK02B9m2OZU/150x150.jpg", "brand": "Bank of Scotland", "brand:wikidata": "Q627381"}, "geometry": {"type": "Point", "coordinates": [-2.088682620866782, 55.87140768440695]}},
{"type": "Feature", "id": "SP6C_-XuTvQADBS93Kmpu_1w3WY=", "properties": {"ref": "https://branches.bankofscotland.co.uk/#15681147", "amenity": "bank", "@spider": "bank_of_scotland_gb", "addr:street_address": "8 Bridgewater Shopping Centre", "addr:city": "Erskine", "addr:postcode": "PA8 7AA", "addr:country": "GB", "name": "Bank of Scotland Erskine", "phone": "0345 721 3141", "website": "https://branches.bankofscotland.co.uk/erskine/8-bridgewater-shopping-centre", "image": "https://dynl.mktgcdn.com/p/MHhnGJK-WHER9Gnz26XKpqIhGKs1SzNkKK02B9m2OZU/150x150.jpg", "brand": "Bank of Scotland", "brand:wikidata": "Q627381"}, "geometry": {"type": "Point", "coordinates": [-4.4484737, 55.9036366]}},
{"type": "Feature", "id": "dpfRai5mo1lAQ0A4u_HSaP8KIsY=", "properties": {"ref": "https://branches.bankofscotland.co.uk/#15681150", "amenity": "bank", "@spider": "bank_of_scotland_gb", "addr:street_address": "5 The Square", "addr:city": "Ellon", "addr:postcode": "AB41 9JB", "addr:country": "GB", "name": "Bank of Scotland Ellon", "phone": "0345 721 3141", "website": "https://branches.bankofscotland.co.uk/ellon/5-the-square", "image": "https://dynl.mktgcdn.com/p/MHhnGJK-WHER9Gnz26XKpqIhGKs1SzNkKK02B9m2OZU/150x150.jpg", "brand": "Bank of Scotland", "brand:wikidata": "Q627381"}, "geometry": {"type": "Point", "coordinates": [-2.071301758687236, 57.365015115376636]}},
{"type": "Feature", "id": "SyO5OEz71_zJEH7kUjg1waAvPK0=", "properties": {"ref": "https://branches.bankofscotland.co.uk/#15681149", "amenity": "bank", "@spider": "bank_of_scotland_gb", "addr:street_address": "90 High Street", "addr:city": "Elgin", "addr:postcode": "IV30 1BJ", "addr:country": "GB", "name": "Bank of Scotland Elgin High Street", "phone": "0345 721 3141", "website": "https://branches.bankofscotland.co.uk/elgin/90-high-street", "image": "https://dynl.mktgcdn.com/p/MHhnGJK-WHER9Gnz26XKpqIhGKs1SzNkKK02B9m2OZU/150x150.jpg", "brand": "Bank of Scotland", "brand:wikidata": "Q627381"}, "geometry": {"type": "Point", "coordinates": [-3.3146164742223783, 57.6485683702005]}},
{"type": "Feature", "id": "iQgIs-VZRck8J02nZR1Tb_DudEQ=", "properties": {"ref": "https://branches.bankofscotland.co.uk/#15681028", "amenity": "bank", "@spider": "bank_of_scotland_gb", "addr:street_address": "Unit 42 Gyle Avenue Gyle Shopping Centre", "addr:city": "Edinburgh", "addr:postcode": "EH12 9JU", "addr:country": "GB", "name": "Bank of Scotland Edinburgh Gyle Centre", "phone": "0345 721 3141", "website": "https://branches.bankofscotland.co.uk/edinburgh/unit-42-gyle-avenue", "image": "https://dynl.mktgcdn.com/p/MHhnGJK-WHER9Gnz26XKpqIhGKs1SzNkKK02B9m2OZU/150x150.jpg", "brand": "Bank of Scotland", "brand:wikidata": "Q627381"}, "geometry": {"type": "Point", "coordinates": [-3.3145286, 55.9384146]}},
{"type": "Feature", "id": "fV_3wrHMkq0SB_O1IW2ee0Eiovw=", "properties": {"ref": "https://branches.bankofscotland.co.uk/#15681725", "amenity": "bank", "@spider": "bank_of_scotland_gb", "addr:street_address": "Unit 15A Cameron Toll Lady Road", "addr:city": "Edinburgh", "addr:postcode": "EH16 5PB", "addr:country": "GB", "name": "Bank of Scotland Edinburgh Cameron Toll", "phone": "0345 721 3141", "website": "https://branches.bankofscotland.co.uk/edinburgh/unit-15a-cameron-toll", "image": "https://dynl.mktgcdn.com/p/MHhnGJK-WHER9Gnz26XKpqIhGKs1SzNkKK02B9m2OZU/150x150.jpg", "brand": "Bank of Scotland", "brand:wikidata": "Q627381"}, "geometry": {"type": "Point", "coordinates": [-3.163968, 55.927447]}},
{"type": "Feature", "id": "JWWuQfrLsZo3NC8MGg_kXv0U4V4=", "properties": {"ref": "https://branches.bankofscotland.co.uk/#15681020", "amenity": "bank", "@spider": "bank_of_scotland_gb", "addr:street_address": "75 George Street", "addr:city": "Edinburgh", "addr:postcode": "EH2 3EW", "addr:country": "GB", "name": "Bank of Scotland Edinburgh George Street", "phone": "0345 721 3141", "website": "https://branches.bankofscotland.co.uk/edinburgh/75-george-street", "image": "https://dynl.mktgcdn.com/p/MHhnGJK-WHER9Gnz26XKpqIhGKs1SzNkKK02B9m2OZU/150x150.jpg", "brand": "Bank of Scotland", "brand:wikidata": "Q627381"}, "geometry": {"type": "Point", "coordinates": [-3.2010770297251456, 55.95313822497737]}},
{"type": "Feature", "id": "QRnDLVBdozXsCpeAeFGPtOLOoYs=", "properties": {"ref": "https://branches.bankofscotland.co.uk/#15681024", "amenity": "bank", "@spider": "bank_of_scotland_gb", "addr:street_address": "51 South Clerk Street", "addr:city": "Edinburgh", "addr:postcode": "EH8 9PP", "addr:country": "GB", "name": "Bank of Scotland Edinburgh Newington", "phone": "0345 721 3141", "website": "https://branches.bankofscotland.co.uk/edinburgh/51-south-clerk-street", "image": "https://dynl.mktgcdn.com/p/MHhnGJK-WHER9Gnz26XKpqIhGKs1SzNkKK02B9m2OZU/150x150.jpg", "brand": "Bank of Scotland", "brand:wikidata": "Q627381"}, "geometry": {"type": "Point", "coordinates": [-3.179791343190419, 55.939915955900595]}},
{"type": "Feature", "id": "MdVc2gTObOwQiFrkIylACx2WP58=", "properties": {"ref": "https://branches.bankofscotland.co.uk/#15681017", "amenity": "bank", "@spider": "bank_of_scotland_gb", "addr:street_address": "43 Comely Bank", "addr:city": "Edinburgh", "addr:postcode": "EH4 1AF", "addr:country": "GB", "name": "Bank of Scotland Edinburgh Comely Bank", "phone": "0345 721 3141", "website": "https://branches.bankofscotland.co.uk/edinburgh/43-comely-bank", "image": "https://dynl.mktgcdn.com/p/MHhnGJK-WHER9Gnz26XKpqIhGKs1SzNkKK02B9m2OZU/150x150.jpg", "brand": "Bank of Scotland", "brand:wikidata": "Q627381"}, "geometry": {"type": "Point", "coordinates": [-3.2260431746348384, 55.958754071235205]}},
{"type": "Feature", "id": "eHBohz3TTtvHS_j2PZFj1z7yR7A=", "properties": {"ref": "https://branches.bankofscotland.co.uk/#15681025", "amenity": "bank", "@spider": "bank_of_scotland_gb", "addr:street_address": "426 Morningside Road", "addr:city": "Edinburgh", "addr:postcode": "EH10 5QF", "addr:country": "GB", "name": "Bank of Scotland Edinburgh Morningside", "phone": "0345 721 3141", "website": "https://branches.bankofscotland.co.uk/edinburgh/426-morningside-road", "image": "https://dynl.mktgcdn.com/p/MHhnGJK-WHER9Gnz26XKpqIhGKs1SzNkKK02B9m2OZU/150x150.jpg", "brand": "Bank of Scotland", "brand:wikidata": "Q627381"}, "geometry": {"type": "Point", "coordinates": [-3.209984197813287, 55.92527624237934]}},
{"type": "Feature", "id": "yAQzHowwh1-wcsaLGAUevvvD0t4=", "properties": {"ref": "https://branches.bankofscotland.co.uk/#15681022", "amenity": "bank", "@spider": "bank_of_scotland_gb", "addr:street_address": "300 Lawnmarket", "addr:city": "Edinburgh", "addr:postcode": "EH1 2PH", "addr:country": "GB", "name": "Bank of Scotland Edinburgh Royal Mile", "phone": "0345 721 3141", "website": "https://branches.bankofscotland.co.uk/edinburgh/300-lawnmarket", "image": "https://dynl.mktgcdn.com/p/MHhnGJK-WHER9Gnz26XKpqIhGKs1SzNkKK02B9m2OZU/150x150.jpg", "brand": "Bank of Scotland", "brand:wikidata": "Q627381"}, "geometry": {"type": "Point", "coordinates": [-3.192869951477564, 55.94924677677781]}},
{"type": "Feature", "id": "PshWFQ-9m_hDnh5BpXMo3CjPgSg=", "properties": {"ref": "https://branches.bankofscotland.co.uk/#15681018", "amenity": "bank", "@spider": "bank_of_scotland_gb", "addr:street_address": "206 St John's Road", "addr:city": "Edinburgh", "addr:postcode": "EH12 8SH", "addr:country": "GB", "name": "Bank of Scotland Edinburgh Corstorphine West", "phone": "0345 721 3141", "website": "https://branches.bankofscotland.co.uk/edinburgh/206-st-john's-road", "image": "https://dynl.mktgcdn.com/p/MHhnGJK-WHER9Gnz26XKpqIhGKs1SzNkKK02B9m2OZU/150x150.jpg", "brand": "Bank of Scotland", "brand:wikidata": "Q627381"}, "geometry": {"type": "Point", "coordinates": [-3.292954460716566, 55.9429421848255]}},
{"type": "Feature", "id": "99Z4zSsZtWtXT4r1lzelEfE2_4o=", "properties": {"ref": "https://branches.bankofscotland.co.uk/#15681027", "amenity": "bank", "@spider": "bank_of_scotland_gb", "addr:street_address": "20-22 Shandwick Place", "addr:city": "Edinburgh", "addr:postcode": "EH2 4RN", "addr:country": "GB", "name": "Bank of Scotland Edinburgh Shandwick Place", "phone": "0345 721 3141", "website": "https://branches.bankofscotland.co.uk/edinburgh/20-22-shandwick-place", "image": "https://dynl.mktgcdn.com/p/MHhnGJK-WHER9Gnz26XKpqIhGKs1SzNkKK02B9m2OZU/150x150.jpg", "brand": "Bank of Scotland", "brand:wikidata": "Q627381"}, "geometry": {"type": "Point", "coordinates": [-3.20921729542877, 55.9499080986092]}},
{"type": "Feature", "id": "v8_j3hGVQagMMBPVQlRjAtAZIXg=", "properties": {"ref": "https://branches.bankofscotland.co.uk/#15681723", "amenity": "bank", "@spider": "bank_of_scotland_gb", "addr:street_address": "18 Westside Plaza", "addr:city": "Edinburgh", "addr:postcode": "EH14 2SZ", "addr:country": "GB", "name": "Bank of Scotland Edinburgh Wester Hailes", "phone": "0345 721 3141", "website": "https://branches.bankofscotland.co.uk/edinburgh/18-westside-plaza", "image": "https://dynl.mktgcdn.com/p/MHhnGJK-WHER9Gnz26XKpqIhGKs1SzNkKK02B9m2OZU/150x150.jpg", "brand": "Bank of Scotland", "brand:wikidata": "Q627381"}, "geometry": {"type": "Point", "coordinates": [-3.2846957790985076, 55.9155417734631]}},
{"type": "Feature", "id": "wxcbcu84F9UZqdZUiYDYVlkl6NQ=", "properties": {"ref": "https://branches.bankofscotland.co.uk/#15681026", "amenity": "bank", "@spider": "bank_of_scotland_gb", "addr:street_address": "153 Portobello High Street", "addr:city": "Edinburgh", "addr:postcode": "EH15 1AG", "addr:country": "GB", "name": "Bank of Scotland Edinburgh Portobello", "phone": "0345 721 3141", "website": "https://branches.bankofscotland.co.uk/edinburgh/153-portobello-high-street", "image": "https://dynl.mktgcdn.com/p/MHhnGJK-WHER9Gnz26XKpqIhGKs1SzNkKK02B9m2OZU/150x150.jpg", "brand": "Bank of Scotland", "brand:wikidata": "Q627381"}, "geometry": {"type": "Point", "coordinates": [-3.114886756417412, 55.95284392964865]}},
{"type": "Feature", "id": "6H8BmKWnPQFj48BpKNtP0Qm_lZg=", "properties": {"ref": "https://branches.bankofscotland.co.uk/#15682220", "amenity": "bank", "@spider": "bank_of_scotland_gb", "addr:street_address": "13 Newkirkgate Leith", "addr:city": "Edinburgh", "addr:postcode": "EH6 6AD", "addr:country": "GB", "name": "Bank of Scotland Edinburgh Leith", "phone": "0345 721 3141", "website": "https://branches.bankofscotland.co.uk/edinburgh/13-newkirkgate", "image": "https://dynl.mktgcdn.com/p/MHhnGJK-WHER9Gnz26XKpqIhGKs1SzNkKK02B9m2OZU/150x150.jpg", "brand": "Bank of Scotland", "brand:wikidata": "Q627381"}, "geometry": {"type": "Point", "coordinates": [-3.1716105, 55.9717841]}},
{"type": "Feature", "id": "ZJxfL5bQWUzVnmooL0n4TRyRbOo=", "properties": {"ref": "https://branches.bankofscotland.co.uk/#24513672", "amenity": "bank", "@spider": "bank_of_scotland_gb", "addr:street_address": "112 St James Crescent", "addr:city": "Edinburgh", "addr:postcode": "EH1 3AD", "addr:country": "GB", "name": "Bank of Scotland St James Quarter", "phone": "0345 721 3141", "website": "https://branches.bankofscotland.co.uk/edinburgh/112-st-james-crescent", "image": "https://dynl.mktgcdn.com/p/1-0MXY3OpjhW0Ln-DT7-iwmEIOGFxNwmddY9c7gtiq8/150x150.jpg", "brand": "Bank of Scotland", "brand:wikidata": "Q627381"}, "geometry": {"type": "Point", "coordinates": [-3.1895163, 55.9547016]}},
{"type": "Feature", "id": "6BvltQcXKg8f8wpt_itfU7qBSQU=", "properties": {"ref": "https://branches.bankofscotland.co.uk/#15685508", "amenity": "bank", "@spider": "bank_of_scotland_gb", "addr:street_address": "41 Princes Mall", "addr:city": "East Kilbride", "addr:postcode": "G74 1LS", "addr:country": "GB", "name": "Bank of Scotland East Kilbride", "phone": "0345 721 3141", "website": "https://branches.bankofscotland.co.uk/east-kilbride/41-princes-mall", "image": "https://dynl.mktgcdn.com/p/MHhnGJK-WHER9Gnz26XKpqIhGKs1SzNkKK02B9m2OZU/150x150.jpg", "brand": "Bank of Scotland", "brand:wikidata": "Q627381"}, "geometry": {"type": "Point", "coordinates": [-4.176571, 55.760606]}},
{"type": "Feature", "id": "GOxXVaDrkCyih4LiT2_3CHcQr0A=", "properties": {"ref": "https://branches.bankofscotland.co.uk/#15681014", "amenity": "bank", "@spider": "bank_of_scotland_gb", "addr:street_address": "10 Market Square", "addr:city": "Duns", "addr:postcode": "TD11 3ED", "addr:country": "GB", "name": "Bank of Scotland Duns", "phone": "0345 721 3141", "website": "https://branches.bankofscotland.co.uk/duns/10-market-square", "image": "https://dynl.mktgcdn.com/p/MHhnGJK-WHER9Gnz26XKpqIhGKs1SzNkKK02B9m2OZU/150x150.jpg", "brand": "Bank of Scotland", "brand:wikidata": "Q627381"}, "geometry": {"type": "Point", "coordinates": [-2.3430245241702363, 55.77799972870161]}},
{"type": "Feature", "id": "qJPD3HGfAakooZ8_JxLy6sQuB6A=", "properties": {"ref": "https://branches.bankofscotland.co.uk/#15681013", "amenity": "bank", "@spider": "bank_of_scotland_gb", "addr:street_address": "78 Argyll Street", "addr:city": "Dunoon", "addr:postcode": "PA23 7NH", "addr:country": "GB", "name": "Bank of Scotland Dunoon", "phone": "0345 721 3141", "website": "https://branches.bankofscotland.co.uk/dunoon/78-argyll-street", "image": "https://dynl.mktgcdn.com/p/MHhnGJK-WHER9Gnz26XKpqIhGKs1SzNkKK02B9m2OZU/150x150.jpg", "brand": "Bank of Scotland", "brand:wikidata": "Q627381"}, "geometry": {"type": "Point", "coordinates": [-4.9251449, 55.9486795]}},
{"type": "Feature", "id": "sv6N1Xd4iF7XpbqoExSIckCFN_Y=", "properties": {"ref": "https://branches.bankofscotland.co.uk/#15681012", "amenity": "bank", "@spider": "bank_of_scotland_gb", "addr:street_address": "High Street", "addr:city": "Dunkeld", "addr:postcode": "PH8 0AL", "addr:country": "GB", "name": "Bank of Scotland Dunkeld", "phone": "0345 721 3141", "website": "https://branches.bankofscotland.co.uk/dunkeld/high-street", "image": "https://dynl.mktgcdn.com/p/MHhnGJK-WHER9Gnz26XKpqIhGKs1SzNkKK02B9m2OZU/150x150.jpg", "brand": "Bank of Scotland", "brand:wikidata": "Q627381"}, "geometry": {"type": "Point", "coordinates": [-3.5859554933616966, 56.56547533866693]}},
{"type": "Feature", "id": "Do2BC_0ylgC0kP5izt4vaogsbT0=", "properties": {"ref": "https://branches.bankofscotland.co.uk/#15681011", "amenity": "bank", "@spider": "bank_of_scotland_gb", "addr:street_address": "11-13 East Port", "addr:city": "Dunfermline", "addr:postcode": "KY12 7JY", "addr:country": "GB", "name": "Bank of Scotland Dunfermline East Port", "phone": "0345 721 3141", "website": "https://branches.bankofscotland.co.uk/dunfermline/11-13-east-port", "image": "https://dynl.mktgcdn.com/p/MHhnGJK-WHER9Gnz26XKpqIhGKs1SzNkKK02B9m2OZU/150x150.jpg", "brand": "Bank of Scotland", "brand:wikidata": "Q627381"}, "geometry": {"type": "Point", "coordinates": [-3.4582458714321462, 56.0715354674427]}},
{"type": "Feature", "id": "hAIQ9uu1Nh1iiVJ3VaRxjvu4Bc8=", "properties": {"ref": "https://branches.bankofscotland.co.uk/#15685509", "amenity": "bank", "@spider": "bank_of_scotland_gb", "addr:street_address": "1 Bothwell Street", "addr:city": "Dunfermline", "addr:postcode": "KY11 3AG", "addr:country": "GB", "name": "Bank of Scotland Dunfermline Bothwell", "phone": "0345 721 3141", "website": "https://branches.bankofscotland.co.uk/dunfermline/1-bothwell-street", "image": "https://dynl.mktgcdn.com/p/MHhnGJK-WHER9Gnz26XKpqIhGKs1SzNkKK02B9m2OZU/150x150.jpg", "brand": "Bank of Scotland", "brand:wikidata": "Q627381"}, "geometry": {"type": "Point", "coordinates": [-3.4551084055398973, 56.06583000805108]}},
{"type": "Feature", "id": "MZqyKRqdu9aBYZBDn9VYkzUHK8Q=", "properties": {"ref": "https://branches.bankofscotland.co.uk/#15681010", "amenity": "bank", "@spider": "bank_of_scotland_gb", "addr:street_address": "65-69 Murraygate", "addr:city": "Dundee", "addr:postcode": "DD1 2EA", "addr:country": "GB", "name": "Bank of Scotland Dundee Murraygate", "phone": "0345 721 3141", "website": "https://branches.bankofscotland.co.uk/dundee/65-69-murraygate", "image": "https://dynl.mktgcdn.com/p/MHhnGJK-WHER9Gnz26XKpqIhGKs1SzNkKK02B9m2OZU/150x150.jpg", "brand": "Bank of Scotland", "brand:wikidata": "Q627381"}, "geometry": {"type": "Point", "coordinates": [-2.968342335044951, 56.463161561578126]}},
{"type": "Feature", "id": "GJnwqAhAkMnXKY2hv159u6Z5eQQ=", "properties": {"ref": "https://branches.bankofscotland.co.uk/#15680728", "amenity": "bank", "@spider": "bank_of_scotland_gb", "addr:street_address": "327 Brook Street Broughty Ferry", "addr:city": "Dundee", "addr:postcode": "DD5 2DS", "addr:country": "GB", "name": "Bank of Scotland Dundee Broughty Ferry", "phone": "0345 721 3141", "website": "https://branches.bankofscotland.co.uk/dundee/327-brook-street", "image": "https://dynl.mktgcdn.com/p/MHhnGJK-WHER9Gnz26XKpqIhGKs1SzNkKK02B9m2OZU/150x150.jpg", "brand": "Bank of Scotland", "brand:wikidata": "Q627381"}, "geometry": {"type": "Point", "coordinates": [-2.871813825399434, 56.466886301867184]}},
{"type": "Feature", "id": "BoD3Q8TF4I6b_BB_ILylL5S4CdE=", "properties": {"ref": "https://branches.bankofscotland.co.uk/#15681009", "amenity": "bank", "@spider": "bank_of_scotland_gb", "addr:street_address": "291 Clepington Road", "addr:city": "Dundee", "addr:postcode": "DD3 8BD", "addr:country": "GB", "name": "Bank of Scotland Dundee Fairmuir", "phone": "0345 721 3141", "website": "https://branches.bankofscotland.co.uk/dundee/291-clepington-road", "image": "https://dynl.mktgcdn.com/p/MHhnGJK-WHER9Gnz26XKpqIhGKs1SzNkKK02B9m2OZU/150x150.jpg", "brand": "Bank of Scotland", "brand:wikidata": "Q627381"}, "geometry": {"type": "Point", "coordinates": [-2.9773765140895248, 56.47783709977351]}},
{"type": "Feature", "id": "sv-yAqc9zOHLo7IWuSOwZL01QEY=", "properties": {"ref": "https://branches.bankofscotland.co.uk/#15681006", "amenity": "bank", "@spider": "bank_of_scotland_gb", "addr:street_address": "95 High Street", "addr:city": "Dunbar", "addr:postcode": "EH42 1ER", "addr:country": "GB", "name": "Bank of Scotland Dunbar", "phone": "0345 721 3141", "website": "https://branches.bankofscotland.co.uk/dunbar/95-high-street", "image": "https://dynl.mktgcdn.com/p/MHhnGJK-WHER9Gnz26XKpqIhGKs1SzNkKK02B9m2OZU/150x150.jpg", "brand": "Bank of Scotland", "brand:wikidata": "Q627381"}, "geometry": {"type": "Point", "coordinates": [-2.5157714196120584, 56.002313001430736]}},
{"type": "Feature", "id": "xIMVMkmImVmy4KZDywReNZOq-v4=", "properties": {"ref": "https://branches.bankofscotland.co.uk/#15681005", "amenity": "bank", "@spider": "bank_of_scotland_gb", "addr:street_address": "91 High Street", "addr:city": "Dumfries", "addr:postcode": "DG1 2BN", "addr:country": "GB", "name": "Bank of Scotland Dumfries High Street", "phone": "0345 721 3141", "website": "https://branches.bankofscotland.co.uk/dumfries/91-high-street", "image": "https://dynl.mktgcdn.com/p/MHhnGJK-WHER9Gnz26XKpqIhGKs1SzNkKK02B9m2OZU/150x150.jpg", "brand": "Bank of Scotland", "brand:wikidata": "Q627381"}, "geometry": {"type": "Point", "coordinates": [-3.6104920987766365, 55.06814866073771]}},
{"type": "Feature", "id": "JNTSybYpAYmibSTwQ7aRR3PTw4k=", "properties": {"ref": "https://branches.bankofscotland.co.uk/#15682218", "amenity": "bank", "@spider": "bank_of_scotland_gb", "addr:street_address": "7/9 Invercauld Road Braemar", "addr:city": "Braemar", "addr:postcode": "AB35 5YP", "addr:country": "GB", "name": "Bank of Scotland Braemar", "phone": "0345 721 3141", "website": "https://branches.bankofscotland.co.uk/braemar/7/9-invercauld-road", "image": "https://dynl.mktgcdn.com/p/MHhnGJK-WHER9Gnz26XKpqIhGKs1SzNkKK02B9m2OZU/150x150.jpg", "brand": "Bank of Scotland", "brand:wikidata": "Q627381"}, "geometry": {"type": "Point", "coordinates": [-3.3981826, 57.0066169]}},
{"type": "Feature", "id": "1mWdQ4HLorrOL1p8NGdGVI6Qb5M=", "properties": {"ref": "https://branches.bankofscotland.co.uk/#15680721", "amenity": "bank", "@spider": "bank_of_scotland_gb", "addr:street_address": "Shore Street", "addr:city": "Bowmore", "addr:postcode": "PA43 7LB", "addr:country": "GB", "name": "Bank of Scotland Bowmore", "phone": "0345 721 3141", "website": "https://branches.bankofscotland.co.uk/bowmore/shore-street", "image": "https://dynl.mktgcdn.com/p/MHhnGJK-WHER9Gnz26XKpqIhGKs1SzNkKK02B9m2OZU/150x150.jpg", "brand": "Bank of Scotland", "brand:wikidata": "Q627381"}, "geometry": {"type": "Point", "coordinates": [-6.285287091891886, 55.757509040017986]}},
{"type": "Feature", "id": "3Vc-cMgB7RTLDPCaDkpMP7-Y_qA=", "properties": {"ref": "https://branches.bankofscotland.co.uk/#15680723", "amenity": "bank", "@spider": "bank_of_scotland_gb", "addr:street_address": "24 High Street", "addr:city": "Bonnyrigg", "addr:postcode": "EH19 2AA", "addr:country": "GB", "name": "Bank of Scotland Bonnyrigg", "phone": "0345 721 3141", "website": "https://branches.bankofscotland.co.uk/bonnyrigg/24-high-street", "image": "https://dynl.mktgcdn.com/p/MHhnGJK-WHER9Gnz26XKpqIhGKs1SzNkKK02B9m2OZU/150x150.jpg", "brand": "Bank of Scotland", "brand:wikidata": "Q627381"}, "geometry": {"type": "Point", "coordinates": [-3.1065577088611573, 55.875347172351105]}},
{"type": "Feature", "id": "WP0PKm4wgbo_ElHTh-yyuzzOh5g=", "properties": {"ref": "https://branches.bankofscotland.co.uk/#15680722", "amenity": "bank", "@spider": "bank_of_scotland_gb", "addr:street_address": "51 High Street", "addr:city": "Blairgowrie", "addr:postcode": "PH10 6DA", "addr:country": "GB", "name": "Bank of Scotland Blairgowrie", "phone": "0345 721 3141", "website": "https://branches.bankofscotland.co.uk/blairgowrie/51-high-street", "image": "https://dynl.mktgcdn.com/p/MHhnGJK-WHER9Gnz26XKpqIhGKs1SzNkKK02B9m2OZU/150x150.jpg", "brand": "Bank of Scotland", "brand:wikidata": "Q627381"}, "geometry": {"type": "Point", "coordinates": [-3.3404182012233696, 56.591911547698984]}},
{"type": "Feature", "id": "ezYbY3D9AeNHhs9VABQrlWMdKOY=", "properties": {"ref": "https://branches.bankofscotland.co.uk/#15680724", "amenity": "bank", "@spider": "bank_of_scotland_gb", "addr:street_address": "191 Kirkintilloch Road", "addr:city": "Bishopbriggs", "addr:postcode": "G64 2LS", "addr:country": "GB", "name": "Bank of Scotland Bishopbriggs", "phone": "0345 721 3141", "website": "https://branches.bankofscotland.co.uk/bishopbriggs/191-kirkintilloch-road", "image": "https://dynl.mktgcdn.com/p/MHhnGJK-WHER9Gnz26XKpqIhGKs1SzNkKK02B9m2OZU/150x150.jpg", "brand": "Bank of Scotland", "brand:wikidata": "Q627381"}, "geometry": {"type": "Point", "coordinates": [-4.224554086490824, 55.90563822048917]}},
{"type": "Feature", "id": "mh8lry_o_a1plLprR8Yqo3EZuxM=", "properties": {"ref": "https://branches.bankofscotland.co.uk/#15682162", "amenity": "bank", "@spider": "bank_of_scotland_gb", "addr:street_address": "61 Hide Hill", "addr:city": "Berwick-upon-Tweed", "addr:postcode": "TD15 1EN", "addr:country": "GB", "name": "Bank of Scotland Berwick-Upon-Tweed", "phone": "0345 721 3141", "website": "https://branches.bankofscotland.co.uk/berwick-upon-tweed/61-hide-hill", "image": "https://dynl.mktgcdn.com/p/MHhnGJK-WHER9Gnz26XKpqIhGKs1SzNkKK02B9m2OZU/150x150.jpg", "brand": "Bank of Scotland", "brand:wikidata": "Q627381"}, "geometry": {"type": "Point", "coordinates": [-2.00280004905645, 55.76786661834838]}},
{"type": "Feature", "id": "a-zzxtTYUYUQQIIuK_6UrEVfZ08=", "properties": {"ref": "https://branches.bankofscotland.co.uk/#15682161", "amenity": "bank", "@spider": "bank_of_scotland_gb", "addr:street_address": "207 Main Street", "addr:city": "Bellshill", "addr:postcode": "ML4 1AL", "addr:country": "GB", "name": "Bank of Scotland Bellshill", "phone": "0345 721 3141", "website": "https://branches.bankofscotland.co.uk/bellshill/207-main-street", "image": "https://dynl.mktgcdn.com/p/MHhnGJK-WHER9Gnz26XKpqIhGKs1SzNkKK02B9m2OZU/150x150.jpg", "brand": "Bank of Scotland", "brand:wikidata": "Q627381"}, "geometry": {"type": "Point", "coordinates": [-4.023752074834066, 55.819002777461364]}},
{"type": "Feature", "id": "k5d4p6PVbAoBdHtZsA84KXr8K30=", "properties": {"ref": "https://branches.bankofscotland.co.uk/#15682158", "amenity": "bank", "@spider": "bank_of_scotland_gb", "addr:street_address": "50 Hopetoun Street", "addr:city": "Bathgate", "addr:postcode": "EH48 4EU", "addr:country": "GB", "name": "Bank of Scotland Bathgate", "phone": "0345 721 3141", "website": "https://branches.bankofscotland.co.uk/bathgate/50-hopetoun-street", "image": "https://dynl.mktgcdn.com/p/MHhnGJK-WHER9Gnz26XKpqIhGKs1SzNkKK02B9m2OZU/150x150.jpg", "brand": "Bank of Scotland", "brand:wikidata": "Q627381"}, "geometry": {"type": "Point", "coordinates": [-3.6402211896983827, 55.90307462542387]}},
{"type": "Feature", "id": "UWawZafQHBiD0TxFQi2Nq6Rmsk8=", "properties": {"ref": "https://branches.bankofscotland.co.uk/#15682159", "amenity": "bank", "@spider": "bank_of_scotland_gb", "addr:street_address": "112 Main Street Barrhead", "addr:city": "Barrhead", "addr:postcode": "G78 1RD", "addr:country": "GB", "name": "Bank of Scotland Barrhead", "phone": "0345 721 3141", "website": "https://branches.bankofscotland.co.uk/barrhead/112-main-street", "image": "https://dynl.mktgcdn.com/p/MHhnGJK-WHER9Gnz26XKpqIhGKs1SzNkKK02B9m2OZU/150x150.jpg", "brand": "Bank of Scotland", "brand:wikidata": "Q627381"}, "geometry": {"type": "Point", "coordinates": [-4.391471539849796, 55.79990265883349]}},
{"type": "Feature", "id": "7Y6HWoabnWujBBitYqtZomh73h0=", "properties": {"ref": "https://branches.bankofscotland.co.uk/#15682157", "amenity": "bank", "@spider": "bank_of_scotland_gb", "addr:street_address": "29 Low Street", "addr:city": "Banff", "addr:postcode": "AB45 1AU", "addr:country": "GB", "name": "Bank of Scotland Banff", "phone": "0345 721 3141", "website": "https://branches.bankofscotland.co.uk/banff/29-low-street", "image": "https://dynl.mktgcdn.com/p/MHhnGJK-WHER9Gnz26XKpqIhGKs1SzNkKK02B9m2OZU/150x150.jpg", "brand": "Bank of Scotland", "brand:wikidata": "Q627381"}, "geometry": {"type": "Point", "coordinates": [-2.5218944475517735, 57.663963]}},
{"type": "Feature", "id": "JWws-1BPatbiHBO-4L2xbgxoHDU=", "properties": {"ref": "https://branches.bankofscotland.co.uk/#15682156", "amenity": "bank", "@spider": "bank_of_scotland_gb", "addr:street_address": "70 High Street", "addr:city": "Banchory", "addr:postcode": "AB31 5SS", "addr:country": "GB", "name": "Bank of Scotland Banchory", "phone": "0345 721 3141", "website": "https://branches.bankofscotland.co.uk/banchory/70-high-street", "image": "https://dynl.mktgcdn.com/p/MHhnGJK-WHER9Gnz26XKpqIhGKs1SzNkKK02B9m2OZU/150x150.jpg", "brand": "Bank of Scotland", "brand:wikidata": "Q627381"}, "geometry": {"type": "Point", "coordinates": [-2.503216316526682, 57.05123610252461]}},
{"type": "Feature", "id": "8cSwz97Zyv2sIw27iLzpC27Msv4=", "properties": {"ref": "https://branches.bankofscotland.co.uk/#15682155", "amenity": "bank", "@spider": "bank_of_scotland_gb", "addr:street_address": "9 Bridge Street", "addr:city": "Ballater", "addr:postcode": "AB35 5QP", "addr:country": "GB", "name": "Bank of Scotland Ballater", "phone": "0345 721 3141", "website": "https://branches.bankofscotland.co.uk/ballater/9-bridge-street", "image": "https://dynl.mktgcdn.com/p/MHhnGJK-WHER9Gnz26XKpqIhGKs1SzNkKK02B9m2OZU/150x150.jpg", "brand": "Bank of Scotland", "brand:wikidata": "Q627381"}, "geometry": {"type": "Point", "coordinates": [-3.038692554002005, 57.047830035829946]}},
{"type": "Feature", "id": "GxKbVgCLbAidLx5xwVjY0hT50sc=", "properties": {"ref": "https://branches.bankofscotland.co.uk/#15682081", "amenity": "bank", "@spider": "bank_of_scotland_gb", "addr:street_address": "123 High Street", "addr:city": "Ayr", "addr:postcode": "KA7 1QP", "addr:country": "GB", "name": "Bank of Scotland Ayr High Street", "phone": "0345 721 3141", "website": "https://branches.bankofscotland.co.uk/ayr/123-high-street", "image": "https://dynl.mktgcdn.com/p/MHhnGJK-WHER9Gnz26XKpqIhGKs1SzNkKK02B9m2OZU/150x150.jpg", "brand": "Bank of Scotland", "brand:wikidata": "Q627381"}, "geometry": {"type": "Point", "coordinates": [-4.630241833630497, 55.462432672645214]}},
{"type": "Feature", "id": "B4DnCa46vo_NIq9k5c4HTltYTYg=", "properties": {"ref": "https://branches.bankofscotland.co.uk/#15682079", "amenity": "bank", "@spider": "bank_of_scotland_gb", "addr:street_address": "Main Road", "addr:city": "Aviemore", "addr:postcode": "PH22 1RH", "addr:country": "GB", "name": "Bank of Scotland Aviemore", "phone": "0345 721 3141", "website": "https://branches.bankofscotland.co.uk/aviemore/main-road", "image": "https://dynl.mktgcdn.com/p/MHhnGJK-WHER9Gnz26XKpqIhGKs1SzNkKK02B9m2OZU/150x150.jpg", "brand": "Bank of Scotland", "brand:wikidata": "Q627381"}, "geometry": {"type": "Point", "coordinates": [-3.8291443, 57.1899523]}},
{"type": "Feature", "id": "K-x4Pc01gbA7muLqXBFXKB2UMvE=", "properties": {"ref": "https://branches.bankofscotland.co.uk/#15682078", "amenity": "bank", "@spider": "bank_of_scotland_gb", "addr:street_address": "Brothock Bridge", "addr:city": "Arbroath", "addr:postcode": "DD11 1NH", "addr:country": "GB", "name": "Bank of Scotland Arbroath", "phone": "0345 721 3141", "website": "https://branches.bankofscotland.co.uk/arbroath/brothock-bridge", "image": "https://dynl.mktgcdn.com/p/MHhnGJK-WHER9Gnz26XKpqIhGKs1SzNkKK02B9m2OZU/150x150.jpg", "brand": "Bank of Scotland", "brand:wikidata": "Q627381"}, "geometry": {"type": "Point", "coordinates": [-2.5832249533729645, 56.55831521867151]}},
{"type": "Feature", "id": "dg3A-53YqX0YZw_bij9cmyKIYpo=", "properties": {"ref": "https://branches.bankofscotland.co.uk/#15682080", "amenity": "bank", "@spider": "bank_of_scotland_gb", "addr:street_address": "111 High Street", "addr:city": "Annan", "addr:postcode": "DG12 6AB", "addr:country": "GB", "name": "Bank of Scotland Annan", "phone": "0345 721 3141", "website": "https://branches.bankofscotland.co.uk/annan/111-high-street", "image": "https://dynl.mktgcdn.com/p/MHhnGJK-WHER9Gnz26XKpqIhGKs1SzNkKK02B9m2OZU/150x150.jpg", "brand": "Bank of Scotland", "brand:wikidata": "Q627381"}, "geometry": {"type": "Point", "coordinates": [-3.2599830125208706, 54.98721645244767]}},
{"type": "Feature", "id": "BkRBvGeSTpksv4BgJ9QMIoTJHT8=", "properties": {"ref": "https://branches.bankofscotland.co.uk/#15682154", "amenity": "bank", "@spider": "bank_of_scotland_gb", "addr:street_address": "21 Mar Street", "addr:city": "Alloa", "addr:postcode": "FK10 1HR", "addr:country": "GB", "name": "Bank of Scotland Alloa Mar Street", "phone": "0345 721 3141", "website": "https://branches.bankofscotland.co.uk/alloa/21-mar-street", "image": "https://dynl.mktgcdn.com/p/MHhnGJK-WHER9Gnz26XKpqIhGKs1SzNkKK02B9m2OZU/150x150.jpg", "brand": "Bank of Scotland", "brand:wikidata": "Q627381"}, "geometry": {"type": "Point", "coordinates": [-3.7930529, 56.115289]}},
{"type": "Feature", "id": "3FkaP2EC9mkOQtf7q6r4WRK6hss=", "properties": {"ref": "https://branches.bankofscotland.co.uk/#15682152", "amenity": "bank", "@spider": "bank_of_scotland_gb", "addr:street_address": "133 Main Street", "addr:city": "Alexandria", "addr:postcode": "G83 0NX", "addr:country": "GB", "name": "Bank of Scotland Alexandria", "phone": "0345 721 3141", "website": "https://branches.bankofscotland.co.uk/alexandria/133-main-street", "image": "https://dynl.mktgcdn.com/p/MHhnGJK-WHER9Gnz26XKpqIhGKs1SzNkKK02B9m2OZU/150x150.jpg", "brand": "Bank of Scotland", "brand:wikidata": "Q627381"}, "geometry": {"type": "Point", "coordinates": [-4.581468185253461, 55.986992734172716]}},
{"type": "Feature", "id": "AF91UHFPVQl7t9uhWAiDIrj3Pm0=", "properties": {"ref": "https://branches.bankofscotland.co.uk/#15682153", "amenity": "bank", "@spider": "bank_of_scotland_gb", "addr:street_address": "40 South Bridge Street", "addr:city": "Airdrie", "addr:postcode": "ML6 6JA", "addr:country": "GB", "name": "Bank of Scotland Airdrie", "phone": "0345 721 3141", "website": "https://branches.bankofscotland.co.uk/airdrie/40-south-bridge-street", "image": "https://dynl.mktgcdn.com/p/MHhnGJK-WHER9Gnz26XKpqIhGKs1SzNkKK02B9m2OZU/150x150.jpg", "brand": "Bank of Scotland", "brand:wikidata": "Q627381"}, "geometry": {"type": "Point", "coordinates": [-3.982017254781831, 55.86768619876177]}},
{"type": "Feature", "id": "7wT4CwSgE2EJs7UoMTI8m9yteZs=", "properties": {"ref": "https://branches.bankofscotland.co.uk/#15682150", "amenity": "bank", "@spider": "bank_of_scotland_gb", "addr:street_address": "48 Upperkirkgate", "addr:city": "Aberdeen", "addr:postcode": "AB10 1BA", "addr:country": "GB", "name": "Bank of Scotland Aberdeen Upperkirkgate", "phone": "0345 721 3141", "website": "https://branches.bankofscotland.co.uk/aberdeen/48-upperkirkgate", "image": "https://dynl.mktgcdn.com/p/MHhnGJK-WHER9Gnz26XKpqIhGKs1SzNkKK02B9m2OZU/150x150.jpg", "brand": "Bank of Scotland", "brand:wikidata": "Q627381"}, "geometry": {"type": "Point", "coordinates": [-2.099225504299156, 57.14844919005552]}},
{"type": "Feature", "id": "pOHbNqbKF8BX8HUYLX_lVk1nB7U=", "properties": {"ref": "https://branches.bankofscotland.co.uk/#15682147", "amenity": "bank", "@spider": "bank_of_scotland_gb", "addr:street_address": "39 Albyn Place", "addr:city": "Aberdeen", "addr:postcode": "AB10 1YN", "addr:country": "GB", "name": "Bank of Scotland Aberdeen Queens Cross", "phone": "0345 721 3141", "website": "https://branches.bankofscotland.co.uk/aberdeen/39-albyn-place", "image": "https://dynl.mktgcdn.com/p/MHhnGJK-WHER9Gnz26XKpqIhGKs1SzNkKK02B9m2OZU/150x150.jpg", "brand": "Bank of Scotland", "brand:wikidata": "Q627381"}, "geometry": {"type": "Point", "coordinates": [-2.124881155908005, 57.142752004516254]}},
{"type": "Feature", "id": "f5_s5rU1pqD9MqYb7yvAm_HMuyk=", "properties": {"ref": "https://branches.bankofscotland.co.uk/#15680656", "amenity": "bank", "@spider": "bank_of_scotland_gb", "addr:street_address": "389 North Deeside Road Cults", "addr:city": "Aberdeen", "addr:postcode": "AB15 9SX", "addr:country": "GB", "name": "Bank of Scotland Aberdeen Cults", "phone": "0345 721 3141", "website": "https://branches.bankofscotland.co.uk/aberdeen/389-north-deeside-road", "image": "https://dynl.mktgcdn.com/p/MHhnGJK-WHER9Gnz26XKpqIhGKs1SzNkKK02B9m2OZU/150x150.jpg", "brand": "Bank of Scotland", "brand:wikidata": "Q627381"}, "geometry": {"type": "Point", "coordinates": [-2.17731927116394, 57.1172846313164]}}]}