{"type":"FeatureCollection","features":[{"type": "Feature", "id": "MeB1WRohNLhjUVlj7tJySTtyBsQ=", "properties": {"ref": "40537815", "@spider": "bar_and_block_gb", "addr:full": "4 James Street West, Bath, BA1 2BX", "addr:postcode": "BA1 2BX", "addr:country": "GB", "name": "Bath", "phone": "+01225618888", "website": "https://www.barandblock.co.uk/en-gb/locations/bath", "contact:email": "barandblock.bath@whitbread.com", "brand": "Bar and Block"}, "geometry": {"type": "Point", "coordinates": [-2.3666365, 51.3806354]}},
{"type": "Feature", "id": "rmSZasQIryXBWEA9YWFAhLtSjhk=", "properties": {"ref": "40537555", "@spider": "bar_and_block_gb", "addr:full": "Reading Road, Winnersh, Wokingham, RG41 5HQ", "addr:postcode": "RG41 5HQ", "addr:country": "GB", "name": "Winnersh", "phone": "0118 3380 946", "website": "https://www.barandblock.co.uk/en-gb/locations/winnersh", "contact:email": "barandblock.winnershGM@whitbread.com", "brand": "Bar and Block"}, "geometry": {"type": "Point", "coordinates": [-0.8947807, 51.4359364]}},
{"type": "Feature", "id": "U83NsFawA3rEcphyni-dW40dFDc=", "properties": {"ref": "40538560", "@spider": "bar_and_block_gb", "addr:full": "153-161 The Broadway, Wimbledon, London, SW19 1NE", "addr:postcode": "SW19 1NE", "addr:country": "GB", "name": "Wimbledon", "phone": "0208 0512946", "website": "https://www.barandblock.co.uk/en-gb/locations/wimbledon", "contact:email": "barandblock.Wimbledon@whitbread.com", "brand": "Bar and Block"}, "geometry": {"type": "Point", "coordinates": [-0.2008531, 51.4190647]}},
{"type": "Feature", "id": "x9quMOqF5sPnC1oMJ9dQBpfAZiE=", "properties": {"ref": "40037545", "@spider": "bar_and_block_gb", "addr:full": "Unit F7a, Whiteley Shopping Centre, Whiteley Way, PO15 7PD", "addr:postcode": "PO15 7PD", "addr:country": "GB", "name": "Whiteley", "phone": "01489 663344", "website": "https://www.barandblock.co.uk/en-gb/locations/whiteley", "contact:email": "barandblock.whiteley@whitbread.com%20", "brand": "Bar and Block"}, "geometry": {"type": "Point", "coordinates": [-1.2506833, 50.8862163]}},
{"type": "Feature", "id": "aeIGp03HYz2YG7kXDhriiWKHr4k=", "properties": {"ref": "40537010", "@spider": "bar_and_block_gb", "addr:full": "St. Nicholas Way, Sutton, London, SM1 1AT", "addr:postcode": "SM1 1AT", "addr:country": "GB", "name": "Sutton", "phone": "0203 727 0227", "website": "https://www.barandblock.co.uk/en-gb/locations/sutton", "contact:email": "barandblock.sutton@whitbread.com", "brand": "Bar and Block"}, "geometry": {"type": "Point", "coordinates": [-0.1963281, 51.3635207]}},
{"type": "Feature", "id": "Q2sGsgj5s4rriultoqedME5pljk=", "properties": {"ref": "40537685", "@spider": "bar_and_block_gb", "addr:full": "Queen Street, Portsmouth, PO1 3EE", "addr:postcode": "PO1 3EE", "addr:country": "GB", "name": "Portsmouth", "phone": "02394 216227", "website": "https://www.barandblock.co.uk/en-gb/locations/portsmouth", "contact:email": "barandblock.portsmouthdockyard@whitbread.com", "brand": "Bar and Block"}, "geometry": {"type": "Point", "coordinates": [-1.1083991, 50.799315]}},
{"type": "Feature", "id": "Envo6nX96KNc4DuDBciLF5K6LuI=", "properties": {"ref": "40538160", "@spider": "bar_and_block_gb", "addr:full": "7 Chapel Quarter, Chapel Bar, Nottingham, NG1 6JA", "addr:postcode": "NG1 6JA", "addr:country": "GB", "name": "Nottingham", "phone": "01156 973973", "website": "https://www.barandblock.co.uk/en-gb/locations/nottingham", "contact:email": "barandblock.nottingham@whitbread.com%20", "brand": "Bar and Block"}, "geometry": {"type": "Point", "coordinates": [-1.1568683, 52.9541106]}},
{"type": "Feature", "id": "QJ5vnM6kwBEflKEPocUt7_6V900=", "properties": {"ref": "40538905", "@spider": "bar_and_block_gb", "addr:full": "95 Newgate Street, Newcastle, Newcastle, NE1 5RF", "addr:postcode": "NE1 5RF", "addr:country": "GB", "name": "Newcastle", "phone": "0191 814 1888", "website": "https://www.barandblock.co.uk/en-gb/locations/newcastle", "contact:email": "BARANDBLOCK.NEWCASTLE@whitbread.com", "brand": "Bar and Block"}, "geometry": {"type": "Point", "coordinates": [-1.6194459, 54.9721576]}},
{"type": "Feature", "id": "FNU6JfoIX17yrJQyDoVrbUmFS3I=", "properties": {"ref": "40037970", "@spider": "bar_and_block_gb", "addr:full": "New Marlborough Yard, Ufford Street, London, SE1 8LE", "addr:postcode": "SE1 8LE", "addr:country": "GB", "name": "London Southwark", "phone": "020 3928 8288", "website": "https://www.barandblock.co.uk/en-gb/locations/london-southwark", "contact:email": "barandblock.southwarkstation@whitbread.com", "brand": "Bar and Block"}, "geometry": {"type": "Point", "coordinates": [-0.1057474, 51.508673]}},
{"type": "Feature", "id": "0_1FVExaLM6SKcYUv67pfkUOJ5s=", "properties": {"ref": "40538290", "@spider": "bar_and_block_gb", "addr:full": "66 Alie Street, London, E1 8PX", "addr:postcode": "E1 8PX", "addr:country": "GB", "name": "London Aldgate", "phone": "0208 0490888", "website": "https://www.barandblock.co.uk/en-gb/locations/london-aldgate", "contact:email": "barandblock.aldgate@whitbread.com%20%20", "brand": "Bar and Block"}, "geometry": {"type": "Point", "coordinates": [-0.1137936, 51.5228967]}},
{"type": "Feature", "id": "wvpW3oqCeveSQQOwFmWdKkSOgFg=", "properties": {"ref": "40538475", "@spider": "bar_and_block_gb", "addr:full": "148-150 Parade, Leamington Spa, CV32 4AG", "addr:postcode": "CV32 4AG", "addr:country": "GB", "name": "Leamington Spa", "phone": "01926 563772", "website": "https://www.barandblock.co.uk/en-gb/locations/leamington-spa", "contact:email": "barandblock.leamingtonspa@whitbread.com%20%20", "brand": "Bar and Block"}, "geometry": {"type": "Point", "coordinates": [-1.5371166, 52.2884592]}},
{"type": "Feature", "id": "DWXte67sHlIdJX-hNn0yskAq6i8=", "properties": {"ref": "40537520", "@spider": "bar_and_block_gb", "addr:full": "26-30 York Way, Kings Cross, London, N1 9AA", "addr:postcode": "N1 9AA", "addr:country": "GB", "name": "Kings Cross", "phone": "0203 8898888", "website": "https://www.barandblock.co.uk/en-gb/locations/kings-cross", "contact:email": "barandblock.kingscross@whitbread.com%20", "brand": "Bar and Block"}, "geometry": {"type": "Point", "coordinates": [-0.1244974, 51.5318297]}},
{"type": "Feature", "id": "SmGN6PIU_OFLRVj05RpevpRXKp0=", "properties": {"ref": "40538920", "@spider": "bar_and_block_gb", "addr:full": "24 Howard Street, Glasgow, Scotland, G1 4AG", "addr:postcode": "G1 4AG", "addr:country": "GB", "name": "Glasgow", "phone": "01417 329430", "website": "https://www.barandblock.co.uk/en-gb/locations/glasgow", "contact:email": "barandblock.glasgow@whitbread.com", "brand": "Bar and Block"}, "geometry": {"type": "Point", "coordinates": [-4.257138, 55.8568582]}},
{"type": "Feature", "id": "2sZ5aMZfZMEo7C94OdcZIk-2L4Y=", "properties": {"ref": "40539510", "@spider": "bar_and_block_gb", "addr:full": "121 Princes Street, Edinburgh, Scotland, EH2 4AD", "addr:postcode": "EH2 4AD", "addr:country": "GB", "name": "Edinburgh", "phone": "01312 974685", "website": "https://www.barandblock.co.uk/en-gb/locations/edinburgh", "contact:email": "barandblock.edinburgh@whitbread.com", "brand": "Bar and Block"}, "geometry": {"type": "Point", "coordinates": [-3.2064807, 55.9505317]}},
{"type": "Feature", "id": "V8UUeCRSYm_0MmqcSPNHBUSx20w=", "properties": {"ref": "40538650", "@spider": "bar_and_block_gb", "addr:full": "King Street, Bristol, BS1 4HQ", "addr:postcode": "BS1 4HQ", "addr:country": "GB", "name": "Bristol", "phone": "0117 9261650", "website": "https://www.barandblock.co.uk/en-gb/locations/bristol", "contact:email": "barandblock.bristolkingstreet@whitbread.com", "brand": "Bar and Block"}, "geometry": {"type": "Point", "coordinates": [-2.5948468, 51.4520856]}},
{"type": "Feature", "id": "QBcSkyOfJVG51KXR98xBQEBfp8w=", "properties": {"ref": "40537270", "@spider": "bar_and_block_gb", "addr:full": "3-6 Waterloo St, Birmingham, B2 5PG", "addr:postcode": "B2 5PG", "addr:country": "GB", "name": "Birmingham", "phone": "0121 2275139", "website": "https://www.barandblock.co.uk/en-gb/locations/birmingham", "contact:email": "barandblock.birmingham@whitbread.com%20", "brand": "Bar and Block"}, "geometry": {"type": "Point", "coordinates": [-1.9018069, 52.4803969]}},
{"type": "Feature", "id": "Pa-NsK-avt5A58_KiV1wqypOpFI=", "properties": {"ref": "40538460", "@spider": "bar_and_block_gb", "addr:full": "2-6 Waring Street, Belfast, BT1 2DX", "addr:postcode": "BT1 2DX", "addr:country": "GB", "name": "Belfast", "phone": "0289 6931227", "website": "https://www.barandblock.co.uk/en-gb/locations/belfast", "contact:email": "barandblockGM.belfastcitycathedralquarter@whitbread.com", "brand": "Bar and Block"}, "geometry": {"type": "Point", "coordinates": [-5.9296913, 54.6009759]}}]}