{"type":"FeatureCollection","features":[{"type": "Feature", "id": "lApaxa6d0bPtAuK6p5OWRzD5tQQ=", "properties": {"ref": "https://www.barlouie.com/locations/us/tn/murfreesboro/the-avenue-at-murfreesboro", "@spider": "barlouie", "addr:street_address": "2615 Medical Center Parkway Suite 2395", "addr:city": "Murfreesboro", "addr:state": "TN", "addr:postcode": "37129", "name": "The Avenue at Murfreesboro", "phone": "615-410-4120", "website": "https://www.barlouie.com/locations/us/tn/murfreesboro/the-avenue-at-murfreesboro", "opening_hours": "Mo-Fr 11:00-02:00; Sa-Su 10:00-02:00", "image": "https://images.prismic.io/bar-louie/7facc22c-b5bb-4cb1-ad5f-0a15e5bd33b2_New&#x2B;Search&#x2B;Location&#x2B;Header&#x2B;Image&#x2B;for&#x2B;Website.jpg?auto=compress,format&amp;rect=0,0,1520,360&amp;w=1520&amp;h=360", "brand": "Barlouie", "brand:wikidata": "Q16935493"}, "geometry": {"type": "Point", "coordinates": [-86.444324, 35.859382]}},
{"type": "Feature", "id": "k13Gs6oEsg0VL_s45PQhy07ifb4=", "properties": {"ref": "https://www.barlouie.com/locations/us/sc/myrtle-beach/broadway-at-the-beach", "@spider": "barlouie", "addr:street_address": "1318 Celebrity Circle", "addr:city": "Myrtle Beach", "addr:state": "SC", "addr:postcode": "29577", "name": "Broadway at the Beach", "phone": "854-854-8544", "website": "https://www.barlouie.com/locations/us/sc/myrtle-beach/broadway-at-the-beach", "opening_hours": "Mo-Th 11:00-24:00; Fr-Sa 11:00-02:00; Su 11:00-24:00", "image": "https://images.prismic.io/bar-louie/ce0d2c36971a3da125496bca39e807ef65c7f9b9_739143_495794_1518559039928.jpg?auto=compress,format", "brand": "Barlouie", "brand:wikidata": "Q16935493"}, "geometry": {"type": "Point", "coordinates": [-78.881119, 33.7179]}},
{"type": "Feature", "id": "1w-vmycBZhlLyF5bCimuFA0OO-Q=", "properties": {"ref": "https://www.barlouie.com/locations/us/pa/pittsburgh/north-shore", "@spider": "barlouie", "addr:street_address": "330 N Shore Dr Building 1B", "addr:city": "Pittsburgh", "addr:state": "PA", "addr:postcode": "15212", "name": "North Shore", "phone": "412-643-4500", "website": "https://www.barlouie.com/locations/us/pa/pittsburgh/north-shore", "opening_hours": "Mo-Fr 11:00-02:00; Sa-Su 10:00-02:00", "image": "https://images.prismic.io/bar-louie/73a3a739589de14b9254b22428ec0e5874dd371e_2016-06-17-14.59.41.jpg?auto=compress,format", "brand": "Barlouie", "brand:wikidata": "Q16935493"}, "geometry": {"type": "Point", "coordinates": [-80.010529, 40.446253]}},
{"type": "Feature", "id": "npkM2tgWAUMauWX1qSaDqDYQmRQ=", "properties": {"ref": "https://www.barlouie.com/locations/us/pa/center-valley/center-valley", "@spider": "barlouie", "addr:street_address": "2960 Center Valley Parkway Suite 700", "addr:city": "Center Valley", "addr:state": "PA", "addr:postcode": "18034", "name": "Center Valley", "phone": "610-798-6700", "website": "https://www.barlouie.com/locations/us/pa/center-valley/center-valley", "opening_hours": "Mo-Fr 11:00-02:00; Sa-Su 10:00-02:00", "image": "https://images.prismic.io/bar-louie/cee0ca12aba2ebe58b4fbd23cd418baa65e2d91b_center-valley.jpg?auto=compress,format", "brand": "Barlouie", "brand:wikidata": "Q16935493"}, "geometry": {"type": "Point", "coordinates": [-75.410872, 40.559035]}},
{"type": "Feature", "id": "xPrNX96j1TcMUc9MDtKbLHBGvwM=", "properties": {"ref": "https://www.barlouie.com/locations/us/oh/perrysburg/perrysburg", "@spider": "barlouie", "addr:street_address": "4105 Levis Commons Blvd", "addr:city": "Perrysburg", "addr:state": "OH", "addr:postcode": "43551", "name": "Perrysburg", "phone": "567-331-7700", "website": "https://www.barlouie.com/locations/us/oh/perrysburg/perrysburg", "opening_hours": "Mo-Su 11:00-02:00", "image": "https://images.prismic.io/bar-louie/944e2b215f54aea8f2e68a22d4260f56d19919a2_2016-06-17-14.59.41.jpg?auto=compress,format", "brand": "Barlouie", "brand:wikidata": "Q16935493"}, "geometry": {"type": "Point", "coordinates": [-83.640724, 41.527813]}},
{"type": "Feature", "id": "sDND7ASbLbHd3MuAq-ocLWi5xyo=", "properties": {"ref": "https://www.barlouie.com/locations/us/oh/westlake/crocker-park", "@spider": "barlouie", "addr:street_address": "9 Main St", "addr:city": "Westlake", "addr:state": "OH", "addr:postcode": "44145", "name": "Crocker Park", "phone": "440-641-4400", "website": "https://www.barlouie.com/locations/us/oh/westlake/crocker-park", "opening_hours": "Mo-Fr 11:00-02:00; Sa-Su 10:00-02:00", "image": "https://images.prismic.io/bar-louie/78eab9a42067d60ecf861d1e56e5715c11e2a86f_westlake.jpg?auto=compress,format", "brand": "Barlouie", "brand:wikidata": "Q16935493"}, "geometry": {"type": "Point", "coordinates": [-81.952165, 41.460548]}},
{"type": "Feature", "id": "2uGlCFOfAp5cSDRiz1IcExvffpY=", "properties": {"ref": "https://www.barlouie.com/locations/us/oh/lyndhurst/legacy-village", "@spider": "barlouie", "addr:street_address": "24337 Cedar Rd", "addr:city": "Lyndhurst", "addr:state": "OH", "addr:postcode": "44124", "name": "Legacy Village", "phone": "216-716-1100", "website": "https://www.barlouie.com/locations/us/oh/lyndhurst/legacy-village", "opening_hours": "Mo-Fr 11:00-02:00; Sa-Su 10:00-02:00", "image": "https://images.prismic.io/bar-louie/ae011f6724879d2ec29fc18104e4aaee112929c6_794300_574385_153928_1jxsg.jpg?auto=compress,format", "brand": "Barlouie", "brand:wikidata": "Q16935493"}, "geometry": {"type": "Point", "coordinates": [-81.502126, 41.503394]}},
{"type": "Feature", "id": "XVCyY4UvBxyVBwQve-nygalwiSM=", "properties": {"ref": "https://www.barlouie.com/locations/us/nj/east-brunswick/brunswick-square", "@spider": "barlouie", "addr:street_address": "755 State Route 18 Room 405A", "addr:city": "East Brunswick", "addr:state": "NJ", "addr:postcode": "08816", "name": "Brunswick Square", "phone": "732-724-0400", "website": "https://www.barlouie.com/locations/us/nj/east-brunswick/brunswick-square", "opening_hours": "Mo-Fr 11:00-02:00; Sa-Su 10:00-02:00", "image": "https://images.prismic.io/bar-louie/14852f645381fef59b283d6c2f059227fc900fe1_image5.jpeg?auto=compress,format", "brand": "Barlouie", "brand:wikidata": "Q16935493"}, "geometry": {"type": "Point", "coordinates": [-74.381718, 40.423938]}},
{"type": "Feature", "id": "i2HFJkzyklXz882IkUS6DELTBD0=", "properties": {"ref": "https://www.barlouie.com/locations/us/nc/raleigh/brier-creek", "@spider": "barlouie", "addr:street_address": "8401 Brier Creek Pkwy", "addr:city": "Raleigh", "addr:state": "NC", "addr:postcode": "27617", "name": "Brier Creek", "phone": "864-535-6500", "website": "https://www.barlouie.com/locations/us/nc/raleigh/brier-creek", "opening_hours": "Mo-Fr 11:00-02:00; Sa-Su 10:00-02:00", "image": "https://images.prismic.io/bar-louie/52ae10f91eae7e287a9a7b37cc390cf4b5812398_9e4a9342.jpg?auto=compress,format", "brand": "Barlouie", "brand:wikidata": "Q16935493"}, "geometry": {"type": "Point", "coordinates": [-78.784817, 35.90715]}},
{"type": "Feature", "id": "bTB2ALKKjH4LAdjLv90A5HB8WqU=", "properties": {"ref": "https://www.barlouie.com/locations/us/mo/st.-charles/streets-of-st.-charles", "@spider": "barlouie", "addr:street_address": "1650 Beale Street Suite 180", "addr:city": "St. Charles", "addr:state": "MO", "addr:postcode": "63303", "name": "Streets of St. Charles", "phone": "636-206-2600", "website": "https://www.barlouie.com/locations/us/mo/st.-charles/streets-of-st.-charles", "opening_hours": "Mo-Fr 11:00-01:30; Sa 10:00-01:30; Su 10:00-24:00", "image": "https://images.prismic.io/bar-louie/3e2685800cecbc4d08e69e21f6b42be67284e93f_bar_louie_st_charles_ttplx.jpg?auto=compress,format", "brand": "Barlouie", "brand:wikidata": "Q16935493"}, "geometry": {"type": "Point", "coordinates": [-90.493798, 38.766064]}},
{"type": "Feature", "id": "sCEyvEzR6Sqa7hUCkTaNl8IdZo0=", "properties": {"ref": "https://www.barlouie.com/locations/us/mo/kirkwood/kirkwood", "@spider": "barlouie", "addr:street_address": "110 S Kirkwood Rd", "addr:city": "Kirkwood", "addr:state": "MO", "addr:postcode": "63122", "name": "Kirkwood", "phone": "314-639-0100", "website": "https://www.barlouie.com/locations/us/mo/kirkwood/kirkwood", "opening_hours": "Mo-Su 11:00-02:00", "image": "https://images.prismic.io/bar-louie/944e2b215f54aea8f2e68a22d4260f56d19919a2_2016-06-17-14.59.41.jpg?auto=compress,format", "brand": "Barlouie", "brand:wikidata": "Q16935493"}, "geometry": {"type": "Point", "coordinates": [-90.405856, 38.580359]}},
{"type": "Feature", "id": "EIwj-j1GqiqDgCz7_i2rYFabfs4=", "properties": {"ref": "https://www.barlouie.com/locations/us/mo/chesterfield/chesterfield", "@spider": "barlouie", "addr:street_address": "105 Chesterfield Valley Dr", "addr:city": "Chesterfield", "addr:state": "MO", "addr:postcode": "63005", "name": "Chesterfield", "phone": "636-736-0600", "website": "https://www.barlouie.com/locations/us/mo/chesterfield/chesterfield", "opening_hours": "Mo-Fr 11:00-01:30; Sa 10:00-01:30; Su 10:00-24:00", "image": "https://images.prismic.io/bar-louie/85fec80159b4c4705fd342821e155c17b1abf826_2016-06-17-14.59.41.jpg?auto=compress,format", "brand": "Barlouie", "brand:wikidata": "Q16935493"}, "geometry": {"type": "Point", "coordinates": [-90.610375, 38.667801]}},
{"type": "Feature", "id": "lJ-WscglJdFi16iogTTTQo1Dm9k=", "properties": {"ref": "https://www.barlouie.com/locations/us/mi/royal-oak/royal-oak", "@spider": "barlouie", "addr:street_address": "510 South Main St", "addr:city": "Royal Oak", "addr:state": "MI", "addr:postcode": "48067", "name": "Royal Oak", "phone": "248-951-2195", "website": "https://www.barlouie.com/locations/us/mi/royal-oak/royal-oak", "opening_hours": "Mo-Th 11:00-23:00; Fr-Sa 11:00-01:00; Su 10:00-23:00", "image": "https://images.prismic.io/bar-louie/d02dd84d8b954f5b3a57206283c0a4dcf15b2abe_bar-1.jpg?auto=compress,format", "brand": "Barlouie", "brand:wikidata": "Q16935493"}, "geometry": {"type": "Point", "coordinates": [-83.144332, 42.486054]}},
{"type": "Feature", "id": "PtZZB_wOA5TykBoT0PGwsR3l2to=", "properties": {"ref": "https://www.barlouie.com/locations/us/mi/novi/twelve-mile-crossing", "@spider": "barlouie", "addr:street_address": "44375 12 Mile Rd Suite G-152", "addr:city": "Novi", "addr:state": "MI", "addr:postcode": "48377", "name": "Twelve Mile Crossing", "phone": "248-662-1100", "website": "https://www.barlouie.com/locations/us/mi/novi/twelve-mile-crossing", "image": "https://images.prismic.io/bar-louie/a01d7d8f43c49affc9e160d4d3d551244925489a_2016-06-17-14.59.41.jpg?auto=compress,format", "brand": "Barlouie", "brand:wikidata": "Q16935493"}, "geometry": {"type": "Point", "coordinates": [-83.484686, 42.490749]}},
{"type": "Feature", "id": "ZpopEYBOxKARh1hIYedZnEkae2s=", "properties": {"ref": "https://www.barlouie.com/locations/us/mi/livonia/laurel-park-place", "@spider": "barlouie", "addr:street_address": "37716 6 Mile Rd", "addr:city": "Livonia", "addr:state": "MI", "addr:postcode": "48152", "name": "Laurel Park Place", "phone": "734-838-5800", "website": "https://www.barlouie.com/locations/us/mi/livonia/laurel-park-place", "opening_hours": "Mo-Su 11:00-02:00", "image": "https://images.prismic.io/bar-louie/68c7222ddca019ecac222d41ff4c71e68e4c4915_2016-06-17-14.59.41.jpg?auto=compress,format", "brand": "Barlouie", "brand:wikidata": "Q16935493"}, "geometry": {"type": "Point", "coordinates": [-83.416781, 42.412353]}},
{"type": "Feature", "id": "ssW99fvtT4icyIZtgAKOp_QzH18=", "properties": {"ref": "https://www.barlouie.com/locations/us/wi/brookfield/brookfield", "@spider": "barlouie", "addr:street_address": "95 N Moorland Road #E 7", "addr:city": "Brookfield", "addr:state": "WI", "addr:postcode": "53005", "name": "Brookfield", "phone": "262-505-6319", "website": "https://www.barlouie.com/locations/us/wi/brookfield/brookfield", "opening_hours": "Mo-We 11:00-22:00; Th-Sa 11:00-24:00; Su 11:00-22:00", "image": "https://images.prismic.io/bar-louie/44067277a3dac0bf112c5c8543030aca0ec10289_brookfield-night.jpg?auto=compress,format", "brand": "Barlouie", "brand:wikidata": "Q16935493"}, "geometry": {"type": "Point", "coordinates": [-88.108832, 43.030752]}},
{"type": "Feature", "id": "_ME6wUUyF9vrOICEeavCqTTUcmU=", "properties": {"ref": "https://www.barlouie.com/locations/us/mi/dearborn/dearborn", "@spider": "barlouie", "addr:street_address": "22269 Michigan Ave", "addr:city": "Dearborn", "addr:state": "MI", "addr:postcode": "48124", "name": "Dearborn", "phone": "313-394-1000", "website": "https://www.barlouie.com/locations/us/mi/dearborn/dearborn", "image": "https://images.prismic.io/bar-louie/57ddeac5852591d8cdadef9b5f78e61ef1ef53c1_2016-06-17-14.59.41.jpg?auto=compress,format", "brand": "Barlouie", "brand:wikidata": "Q16935493"}, "geometry": {"type": "Point", "coordinates": [-83.249148, 42.304854]}},
{"type": "Feature", "id": "3TDHpFdpNEzVWwgHLa0XnfTPfhM=", "properties": {"ref": "https://www.barlouie.com/locations/us/va/woodbridge/stonebridge", "@spider": "barlouie", "addr:street_address": "15001 Potomac Town Place Suite 100", "addr:city": "Woodbridge", "addr:state": "VA", "addr:postcode": "22191", "name": "Stonebridge", "phone": "571-570-4400", "website": "https://www.barlouie.com/locations/us/va/woodbridge/stonebridge", "opening_hours": "Mo-Fr 11:00-24:00; Sa-Su 10:00-24:00", "image": "https://images.prismic.io/bar-louie/758b0c6316597d56d68b2d348e51fe88f31fa51b_2016-06-17-14.59.41.jpg?auto=compress,format", "brand": "Barlouie", "brand:wikidata": "Q16935493"}, "geometry": {"type": "Point", "coordinates": [-77.287819, 38.629461]}},
{"type": "Feature", "id": "jgdzY-ZRMBw9jz27R7xZCg8m09M=", "properties": {"ref": "https://www.barlouie.com/locations/us/va/herndon/herndon", "@spider": "barlouie", "addr:street_address": "13195 Parcher Ave", "addr:city": "Herndon", "addr:state": "VA", "addr:postcode": "20170", "name": "Herndon", "phone": "571-526-1100", "website": "https://www.barlouie.com/locations/us/va/herndon/herndon", "opening_hours": "Mo-Su 11:00-24:00", "image": "https://images.prismic.io/bar-louie/c18ee128d43b6d8bda14a0ef0d3bbe5c5f9e0f71_2016-06-17-14.59.41.jpg?auto=compress,format", "brand": "Barlouie", "brand:wikidata": "Q16935493"}, "geometry": {"type": "Point", "coordinates": [-77.403376, 38.959583]}},
{"type": "Feature", "id": "wT0E-7jRR25S6MKL49Zx9bpZwnE=", "properties": {"ref": "https://www.barlouie.com/locations/us/va/hampton/hampton", "@spider": "barlouie", "addr:street_address": "3530 Von Schilling Dr", "addr:city": "Hampton", "addr:state": "VA", "addr:postcode": "23666", "name": "Hampton", "phone": "757-814-2500", "website": "https://www.barlouie.com/locations/us/va/hampton/hampton", "opening_hours": "Mo-Su 11:00-02:00", "image": "https://images.prismic.io/bar-louie/d8f61385fc81db751f768ab73221a786d448e911_2016-06-17-14.59.41.jpg?auto=compress,format", "brand": "Barlouie", "brand:wikidata": "Q16935493"}, "geometry": {"type": "Point", "coordinates": [-76.393397, 37.043454]}},
{"type": "Feature", "id": "WJriva_r88xvMQig80ofabxVqts=", "properties": {"ref": "https://www.barlouie.com/locations/us/va/gainesville/virginia-gateway", "@spider": "barlouie", "addr:street_address": "14081 Promenade Commons St", "addr:city": "Gainesville", "addr:state": "VA", "addr:postcode": "20155", "name": "Virginia Gateway", "phone": "571-616-9900", "website": "https://www.barlouie.com/locations/us/va/gainesville/virginia-gateway", "opening_hours": "Mo-Fr 11:00-02:00; Sa-Su 10:00-02:00", "image": "https://images.prismic.io/bar-louie/e8c8cc490e2e42ff8229d7d1b0574fbbcf6348fa_gainesville.jpg?auto=compress,format", "brand": "Barlouie", "brand:wikidata": "Q16935493"}, "geometry": {"type": "Point", "coordinates": [-77.606303, 38.787588]}},
{"type": "Feature", "id": "-Cn1NquRKuChclfLY53uFT2TcY4=", "properties": {"ref": "https://www.barlouie.com/locations/us/va/ashburn/one-loudoun", "@spider": "barlouie", "addr:street_address": "20586 East Hampton Plaza", "addr:city": "Ashburn", "addr:state": "VA", "addr:postcode": "20147", "name": "One Loudoun", "phone": "571-549-3300", "website": "https://www.barlouie.com/locations/us/va/ashburn/one-loudoun", "opening_hours": "Mo-Fr 11:00-02:00; Sa-Su 10:00-02:00", "image": "https://images.prismic.io/bar-louie/e2a1a343b620f6927ac46d9852d9ddcec2e52eeb_ashburn..jpg?auto=compress,format", "brand": "Barlouie", "brand:wikidata": "Q16935493"}, "geometry": {"type": "Point", "coordinates": [-77.454149, 39.051669]}},
{"type": "Feature", "id": "U9rjEJCuYvlE694JFn3KK9HIzTQ=", "properties": {"ref": "https://www.barlouie.com/locations/us/tx/sugar-land/sugar-land", "@spider": "barlouie", "addr:street_address": "16089 City Walk", "addr:city": "Sugar Land", "addr:state": "TX", "addr:postcode": "77479", "name": "Sugar Land", "phone": "281-313-9002", "website": "https://www.barlouie.com/locations/us/tx/sugar-land/sugar-land", "opening_hours": "Mo-Su 11:00-02:00", "image": "https://images.prismic.io/bar-louie/4d82b216c07bd1642df9ede9bce8a69833534a2d_2016-06-17-14.59.41.jpg?auto=compress,format", "brand": "Barlouie", "brand:wikidata": "Q16935493"}, "geometry": {"type": "Point", "coordinates": [-95.621767, 29.596117]}},
{"type": "Feature", "id": "kjyW216S-4VNsQiKl5HGm5S088E=", "properties": {"ref": "https://www.barlouie.com/locations/us/tx/spring/the-woodlands", "@spider": "barlouie", "addr:street_address": "24 Waterway Ave", "addr:city": "Spring", "addr:state": "TX", "addr:postcode": "77380", "name": "The Woodlands", "phone": "281-909-3300", "website": "https://www.barlouie.com/locations/us/tx/spring/the-woodlands", "opening_hours": "Mo-Th 11:00-24:00; Fr-Sa 11:00-02:00; Su 11:00-24:00", "image": "https://images.prismic.io/bar-louie/085417d2b6035a331b38e9337c8bede9a2f12571_woodlands.jpg?auto=compress,format", "brand": "Barlouie", "brand:wikidata": "Q16935493"}, "geometry": {"type": "Point", "coordinates": [-95.45831, 30.160547]}},
{"type": "Feature", "id": "7EwCoAMl_vzoN40LOqEka-gPkJI=", "properties": {"ref": "https://www.barlouie.com/locations/us/tx/south-padre-island/south-padre-island", "@spider": "barlouie", "addr:street_address": "6700 Padre Blvd", "addr:city": "South Padre Island", "addr:state": "TX", "addr:postcode": "78597", "name": "South Padre Island", "phone": "956-433-2098", "website": "https://www.barlouie.com/locations/us/tx/south-padre-island/south-padre-island", "opening_hours": "Mo-Th 08:00-23:00; Fr-Sa 08:00-24:00; Su 08:00-23:00", "image": "https://images.prismic.io/bar-louie%2Fb1ef3e7b-ee1d-4beb-be7b-6aec0b3bb9c1_739143_495794_1518559039928.jpg?auto=compress,format&amp;rect=0,418,2738,991&amp;w=1520&amp;h=550", "brand": "Barlouie", "brand:wikidata": "Q16935493"}, "geometry": {"type": "Point", "coordinates": [-97.172000382956, 26.1373961520271]}},
{"type": "Feature", "id": "YEbFBcPhHpMl4dvDum0xvlAKsL4=", "properties": {"ref": "https://www.barlouie.com/locations/us/tx/katy/katy", "@spider": "barlouie", "addr:street_address": "2707 Commercial Center Blvd Building M", "addr:city": "Katy", "addr:state": "TX", "addr:postcode": "77494", "name": "Katy", "phone": "281-394-5480", "website": "https://www.barlouie.com/locations/us/tx/katy/katy", "opening_hours": "Mo-Su 11:00-02:00", "image": "https://images.prismic.io/bar-louie/939a5d74b383fa277b12d047d0cffeddae6b3602_2016-06-17-14.59.41.jpg?auto=compress,format", "brand": "Barlouie", "brand:wikidata": "Q16935493"}, "geometry": {"type": "Point", "coordinates": [-95.7740415778114, 29.7399560733635]}},
{"type": "Feature", "id": "RvF7dtbSfyjTkyrm-gGj-DRjP7k=", "properties": {"ref": "https://www.barlouie.com/locations/us/tx/irving/music-factory", "@spider": "barlouie", "addr:street_address": "360 W. Las Colinas Boulevard", "addr:city": "Irving", "addr:state": "TX", "addr:postcode": "75039", "name": "Music Factory", "phone": "469-472-1050", "website": "https://www.barlouie.com/locations/us/tx/irving/music-factory", "opening_hours": "Mo-Fr 11:00-02:00; Sa-Su 10:00-02:00", "image": "https://images.prismic.io/bar-louie/cf51cd84-6ae5-4a59-ba93-1b95f7edf02c_&#x2B;Bar&#x2B;Louie&#x2B;Music&#x2B;Factory-102.jpg?auto=compress,format&amp;rect=0,843,5520,1997&amp;w=1520&amp;h=550", "brand": "Barlouie", "brand:wikidata": "Q16935493"}, "geometry": {"type": "Point", "coordinates": [-96.943725, 32.875808]}},
{"type": "Feature", "id": "Q9BSf4AoEcGPJS4cC-FxL-Tk6uM=", "properties": {"ref": "https://www.barlouie.com/locations/us/tx/dallas/the-shops-at-park-lane", "@spider": "barlouie", "addr:street_address": "8166 Park Ln Suite C310", "addr:city": "Dallas", "addr:state": "TX", "addr:postcode": "75231", "name": "The Shops at Park Lane", "phone": "469-638-8050", "website": "https://www.barlouie.com/locations/us/tx/dallas/the-shops-at-park-lane", "opening_hours": "Mo-Fr 11:00-02:00; Sa-Su 10:00-02:00", "image": "https://images.prismic.io/bar-louie/3fd4318d9b90290e2446cf6bcad805abd1122be5_blpl0091.jpg?auto=compress,format", "brand": "Barlouie", "brand:wikidata": "Q16935493"}, "geometry": {"type": "Point", "coordinates": [-96.768006, 32.869639]}},
{"type": "Feature", "id": "rNPD8oGN8u77s5aB1c7vNT9lxR0=", "properties": {"ref": "https://www.barlouie.com/locations/us/tx/san-antonio/la-cantera", "@spider": "barlouie", "addr:street_address": "15900 La Cantera Parkway Suite 22100", "addr:city": "San Antonio", "addr:state": "TX", "addr:postcode": "78256", "name": "La Cantera", "phone": "726-900-7500", "website": "https://www.barlouie.com/locations/us/tx/san-antonio/la-cantera", "opening_hours": "Mo-Fr 11:00-02:00; Sa-Su 10:00-02:00", "image": "https://images.prismic.io/bar-louie/944e2b215f54aea8f2e68a22d4260f56d19919a2_2016-06-17-14.59.41.jpg?auto=compress,format", "brand": "Barlouie", "brand:wikidata": "Q16935493"}, "geometry": {"type": "Point", "coordinates": [-98.611016, 29.593125]}},
{"type": "Feature", "id": "FXi0obqLsBHKgWNl2LYvbVvmilU=", "properties": {"ref": "https://www.barlouie.com/locations/us/tx/arlington/arlington-highlands", "@spider": "barlouie", "addr:street_address": "4001 Bagpiper Way", "addr:city": "Arlington", "addr:state": "TX", "addr:postcode": "76018", "name": "Arlington Highlands", "phone": "682-307-5050", "website": "https://www.barlouie.com/locations/us/tx/arlington/arlington-highlands", "opening_hours": "Mo-Fr 11:00-02:00; Sa-Su 10:00-02:00", "image": "https://images.prismic.io/bar-louie/c1668b8d416b7407d35984abe58b72d2176c65ed_2016-06-17-14.59.41.jpg?auto=compress,format", "brand": "Barlouie", "brand:wikidata": "Q16935493"}, "geometry": {"type": "Point", "coordinates": [-97.105055, 32.67985]}},
{"type": "Feature", "id": "zpJuwx78gDzI8nia_xHnwUWMQ54=", "properties": {"ref": "https://www.barlouie.com/locations/us/tx/friendswood/baybrook-mall", "@spider": "barlouie", "addr:street_address": "700 Baybrook Mall Suite G 110", "addr:city": "Friendswood", "addr:state": "TX", "addr:postcode": "77546", "name": "Baybrook Mall", "phone": "281-819-5100", "website": "https://www.barlouie.com/locations/us/tx/friendswood/baybrook-mall", "opening_hours": "Mo-Fr 11:00-02:00; Sa-Su 10:00-02:00", "image": "https://images.prismic.io/bar-louie/78da51bc036bba17953bd660b8d3e53121a62e7d_794159_513274_153922_v3wnm.jpg?auto=compress,format", "brand": "Barlouie", "brand:wikidata": "Q16935493"}, "geometry": {"type": "Point", "coordinates": [-95.149457, 29.545596]}},
{"type": "Feature", "id": "8wVev5R4W6VHmWX1coCNViB9nnU=", "properties": {"ref": "https://www.barlouie.com/locations/us/tx/round-rock/round-rock", "@spider": "barlouie", "addr:street_address": "270 Bass Pro Dr", "addr:city": "Round Rock", "addr:state": "TX", "addr:postcode": "78655", "name": "Round Rock", "phone": "(512) 957-8660", "website": "https://www.barlouie.com/locations/us/tx/round-rock/round-rock", "image": "https://images.prismic.io/bar-louie/7facc22c-b5bb-4cb1-ad5f-0a15e5bd33b2_New&#x2B;Search&#x2B;Location&#x2B;Header&#x2B;Image&#x2B;for&#x2B;Website.jpg?auto=compress,format&amp;rect=0,0,1520,360&amp;w=1520&amp;h=360", "brand": "Barlouie", "brand:wikidata": "Q16935493"}, "geometry": {"type": "Point", "coordinates": [-97.6883124962974, 30.5699126883357]}},
{"type": "Feature", "id": "3EN5OYd6H6n5jAYgREE6cvhq_KM=", "properties": {"ref": "https://www.barlouie.com/locations/us/tx/allen/the-village-at-allen", "@spider": "barlouie", "addr:street_address": "190 East Stacy Rd Suite 1000", "addr:city": "Allen", "addr:state": "TX", "addr:postcode": "75002", "name": "The Village at Allen", "phone": "469-393-7070", "website": "https://www.barlouie.com/locations/us/tx/allen/the-village-at-allen", "opening_hours": "Mo-Su 11:00-02:00", "image": "https://images.prismic.io/bar-louie/7facc22c-b5bb-4cb1-ad5f-0a15e5bd33b2_New&#x2B;Search&#x2B;Location&#x2B;Header&#x2B;Image&#x2B;for&#x2B;Website.jpg?auto=compress,format&amp;rect=0,0,1520,360&amp;w=1520&amp;h=360", "brand": "Barlouie", "brand:wikidata": "Q16935493"}, "geometry": {"type": "Point", "coordinates": [-96.656904, 33.128524]}},
{"type": "Feature", "id": "-1zgmfM9M-goIxsELln7QvYIm-E=", "properties": {"ref": "https://www.barlouie.com/locations/us/tn/nashville/one-bellevue-place", "@spider": "barlouie", "addr:street_address": "8119 Sawyer Brown Road", "addr:city": "Nashville", "addr:state": "TN", "addr:postcode": "37221", "name": "One Bellevue Place", "phone": "615-733-4400", "website": "https://www.barlouie.com/locations/us/tn/nashville/one-bellevue-place", "opening_hours": "Mo-Fr 11:00-02:00; Sa-Su 10:00-02:00", "image": "https://images.prismic.io/bar-louie/da842cb1e9cd4408d681d95a286efbf61460dc91_2016-06-17-14.59.41.jpg?auto=compress,format", "brand": "Barlouie", "brand:wikidata": "Q16935493"}, "geometry": {"type": "Point", "coordinates": [-86.948532, 36.080757]}},
{"type": "Feature", "id": "T4210BwwBxEpKvTpk4LmwYOmf4E=", "properties": {"ref": "https://www.barlouie.com/locations/us/mi/auburn-hills/great-lakes-crossing-outlets", "@spider": "barlouie", "addr:street_address": "4390 Baldwin Road", "addr:city": "Auburn Hills", "addr:state": "MI", "addr:postcode": "48326", "name": "Great Lakes Crossing Outlets", "phone": "248-409-0087", "website": "https://www.barlouie.com/locations/us/mi/auburn-hills/great-lakes-crossing-outlets", "opening_hours": "Mo-Fr 11:00-24:00; Sa-Su 10:00-24:00", "image": "https://images.prismic.io/bar-louie/85777272028d037540db240ca4001738babbebe8_2016-06-17-14.59.41.jpg?auto=compress,format", "brand": "Barlouie", "brand:wikidata": "Q16935493"}, "geometry": {"type": "Point", "coordinates": [-83.29577, 42.702338]}},
{"type": "Feature", "id": "VyuGs53qpX6GPbQEoDUX4U1hVQ0=", "properties": {"ref": "https://www.barlouie.com/locations/us/mi/clinton-township/the-mall-at-partridge-creek", "@spider": "barlouie", "addr:street_address": "17460 Hall Rd Suite 152", "addr:city": "Clinton Township", "addr:state": "MI", "addr:postcode": "48038", "name": "The Mall at Partridge Creek", "phone": "586-464-3000", "website": "https://www.barlouie.com/locations/us/mi/clinton-township/the-mall-at-partridge-creek", "opening_hours": "Mo-Su 11:00-02:00", "image": "https://images.prismic.io/bar-louie/d8f61385fc81db751f768ab73221a786d448e911_2016-06-17-14.59.41.jpg?auto=compress,format", "brand": "Barlouie", "brand:wikidata": "Q16935493"}, "geometry": {"type": "Point", "coordinates": [-82.944226, 42.625644]}},
{"type": "Feature", "id": "NhTB7jjhDifVE5v0YJhojt-DfMc=", "properties": {"ref": "https://www.barlouie.com/locations/us/md/baltimore/the-avenue-at-white-marsh", "@spider": "barlouie", "addr:street_address": "8133-C Honeygo Boulevard", "addr:city": "Baltimore", "addr:state": "MD", "addr:postcode": "21236", "name": "The Avenue at White Marsh", "phone": "410-671-0700", "website": "https://www.barlouie.com/locations/us/md/baltimore/the-avenue-at-white-marsh", "opening_hours": "Mo-Fr 11:00-02:00; Sa-Su 10:00-02:00", "image": "https://images.prismic.io/bar-louie/c82263d4ad18a003bb0546a1fb852265edb88da1_barlouie08_25_18nonw_bzhk6.jpg?auto=compress,format", "brand": "Barlouie", "brand:wikidata": "Q16935493"}, "geometry": {"type": "Point", "coordinates": [-76.465044, 39.371178]}},
{"type": "Feature", "id": "-W-ceFL9gMrjPTc70b_s2i_Agow=", "properties": {"ref": "https://www.barlouie.com/locations/us/in/greenwood/greenwood-park-mall", "@spider": "barlouie", "addr:street_address": "1251 US Highway 31 N", "addr:city": "Greenwood", "addr:state": "IN", "addr:postcode": "46142", "name": "Greenwood Park Mall", "phone": "317-215-5400", "website": "https://www.barlouie.com/locations/us/in/greenwood/greenwood-park-mall", "opening_hours": "Mo-Th 11:00-24:00; Fr-Sa 11:00-01:00; Su 11:00-24:00", "image": "https://images.prismic.io/bar-louie/1e7c185f8e52e8bc9a57c3d8018f77d28d87ac1d_2016-06-17-14.59.41.jpg?auto=compress,format", "brand": "Barlouie", "brand:wikidata": "Q16935493"}, "geometry": {"type": "Point", "coordinates": [-86.121738, 39.633752]}},
{"type": "Feature", "id": "siwXIo1mrqn0fCUuYAtF9kR2Us8=", "properties": {"ref": "https://www.barlouie.com/locations/us/in/granger/granger", "@spider": "barlouie", "addr:street_address": "7320 Aspect Drive", "addr:city": "Granger", "addr:state": "IN", "addr:postcode": "46530", "name": "Granger", "phone": "574-277-9100", "website": "https://www.barlouie.com/locations/us/in/granger/granger", "opening_hours": "Mo-Sa 11:00-02:00; Su 10:00-02:00", "image": "https://images.prismic.io/bar-louie/7facc22c-b5bb-4cb1-ad5f-0a15e5bd33b2_New&#x2B;Search&#x2B;Location&#x2B;Header&#x2B;Image&#x2B;for&#x2B;Website.jpg?auto=compress,format&amp;rect=0,0,1520,360&amp;w=1520&amp;h=360", "brand": "Barlouie", "brand:wikidata": "Q16935493"}, "geometry": {"type": "Point", "coordinates": [-86.1798314, 41.7286545]}},
{"type": "Feature", "id": "AuGxqYex2p2A0-RxIiD9GuZp0JQ=", "properties": {"ref": "https://www.barlouie.com/locations/us/il/skokie/skokie-holiday-inn-north-shore", "@spider": "barlouie", "addr:street_address": "5300 Touhy Ave", "addr:city": "Skokie", "addr:state": "IL", "addr:postcode": "60077", "name": "Skokie Holiday Inn North Shore", "phone": "847-763-3056", "website": "https://www.barlouie.com/locations/us/il/skokie/skokie-holiday-inn-north-shore", "opening_hours": "Mo-We 11:30-22:00; Th 11:30-23:00; Fr-Sa 11:30-24:00; Su 11:30-22:00", "image": "https://images.prismic.io/bar-louie/c18ee128d43b6d8bda14a0ef0d3bbe5c5f9e0f71_2016-06-17-14.59.41.jpg?auto=compress,format", "brand": "Barlouie", "brand:wikidata": "Q16935493"}, "geometry": {"type": "Point", "coordinates": [-87.760422, 42.012445]}},
{"type": "Feature", "id": "W5SPhCjWd8boermkpi_13XjAgNw=", "properties": {"ref": "https://www.barlouie.com/locations/us/in/carmel/carmel", "@spider": "barlouie", "addr:street_address": "1111 West Main St Suite 140", "addr:city": "Carmel", "addr:state": "IN", "addr:postcode": "46032", "name": "Carmel", "phone": "317-817-0500", "website": "https://www.barlouie.com/locations/us/in/carmel/carmel", "opening_hours": "Mo-Th 11:00-01:00; Fr-Sa 11:00-02:00; Su 11:00-01:00", "image": "https://images.prismic.io/bar-louie/110da320c07c729589c3461754f5a28c4b7781c8_2016-06-17-14.59.41.jpg?auto=compress,format", "brand": "Barlouie", "brand:wikidata": "Q16935493"}, "geometry": {"type": "Point", "coordinates": [-86.146309, 39.977906]}},
{"type": "Feature", "id": "CoU8bhNE-LTGznPdwwqviG-W_Fw=", "properties": {"ref": "https://www.barlouie.com/locations/us/il/oakbrook-terrace/oakbrook-terrace", "@spider": "barlouie", "addr:street_address": "17W350 22nd St", "addr:city": "Oakbrook Terrace", "addr:state": "IL", "addr:postcode": "60181", "name": "Oakbrook Terrace", "phone": "630-478-8040", "website": "https://www.barlouie.com/locations/us/il/oakbrook-terrace/oakbrook-terrace", "opening_hours": "Mo-Th 11:00-24:00; Fr-Sa 11:00-02:00; Su 11:00-24:00", "image": "https://images.prismic.io/bar-louie/b113119c9de4795ece58075ec361cced3fdb5ec9_2016-06-17-14.59.41.jpg?auto=compress,format", "brand": "Barlouie", "brand:wikidata": "Q16935493"}, "geometry": {"type": "Point", "coordinates": [-87.96635, 41.84681]}},
{"type": "Feature", "id": "AWv0CQqXc2DBClkaiKw0eepr10Y=", "properties": {"ref": "https://www.barlouie.com/locations/us/il/matteson/matteson", "@spider": "barlouie", "addr:street_address": "500 Holiday Plaza Dr", "addr:city": "Matteson", "addr:state": "IL", "addr:postcode": "60443", "name": "Matteson", "phone": "708-898-0124", "website": "https://www.barlouie.com/locations/us/il/matteson/matteson", "opening_hours": "Mo-We 11:00-23:00; Th 11:00-24:00; Fr-Sa 11:00-01:00; Su 11:00-23:00", "image": "https://images.prismic.io/bar-louie/003f0edcbdbd6dca86c134032b2e3e9bfefe9f98_2016-06-17-14.59.41.jpg?auto=compress,format", "brand": "Barlouie", "brand:wikidata": "Q16935493"}, "geometry": {"type": "Point", "coordinates": [-87.738674, 41.504574]}},
{"type": "Feature", "id": "3Y07zZrTlkOr4giyRnPsmi4TW9o=", "properties": {"ref": "https://www.barlouie.com/locations/us/il/chicago/printers-row", "@spider": "barlouie", "addr:street_address": "47 W Polk St", "addr:city": "Chicago", "addr:state": "IL", "addr:postcode": "60605", "name": "Printers Row", "phone": "312-872-4550", "website": "https://www.barlouie.com/locations/us/il/chicago/printers-row", "opening_hours": "Mo-Fr 11:00-02:00; Sa-Su 10:00-02:00", "image": "https://images.prismic.io/bar-louie/315291909e790be8e590011e5a9f1076ebe484f4_792241_535656_153843_3nmlk.jpg?auto=compress,format", "brand": "Barlouie", "brand:wikidata": "Q16935493"}, "geometry": {"type": "Point", "coordinates": [-87.628913, 41.872096]}},
{"type": "Feature", "id": "RduulrQqmU2lnCB489CEr6H4jio=", "properties": {"ref": "https://www.barlouie.com/locations/us/il/bolingbrook/the-promenade-bolingbrook", "@spider": "barlouie", "addr:street_address": "619 E Boughton Rd #A", "addr:city": "Bolingbrook", "addr:state": "IL", "addr:postcode": "60440", "name": "The Promenade Bolingbrook", "phone": "331-246-0500", "website": "https://www.barlouie.com/locations/us/il/bolingbrook/the-promenade-bolingbrook", "opening_hours": "Mo-Su 11:00-02:00", "image": "https://images.prismic.io/bar-louie/d8f61385fc81db751f768ab73221a786d448e911_2016-06-17-14.59.41.jpg?auto=compress,format", "brand": "Barlouie", "brand:wikidata": "Q16935493"}, "geometry": {"type": "Point", "coordinates": [-88.043068, 41.717616]}},
{"type": "Feature", "id": "PDvaX3T-dkSP1p9ucQPS76Qbhr0=", "properties": {"ref": "https://www.barlouie.com/locations/us/ia/west-des-moines/jordan-creek-town-center", "@spider": "barlouie", "addr:street_address": "7105 Mills Civic Parkway Suite 150", "addr:city": "West Des Moines", "addr:state": "IA", "addr:postcode": "50266", "name": "Jordan Creek Town Center", "phone": "515-978-9800", "website": "https://www.barlouie.com/locations/us/ia/west-des-moines/jordan-creek-town-center", "opening_hours": "Mo-Fr 11:00-02:00; Sa-Su 10:00-02:00", "image": "https://images.prismic.io/bar-louie/c18ee128d43b6d8bda14a0ef0d3bbe5c5f9e0f71_2016-06-17-14.59.41.jpg?auto=compress,format", "brand": "Barlouie", "brand:wikidata": "Q16935493"}, "geometry": {"type": "Point", "coordinates": [-93.80461, 41.56488]}},
{"type": "Feature", "id": "M1de14XP7yidBHtQhtYq-0Cu27U=", "properties": {"ref": "https://www.barlouie.com/locations/us/ia/sioux-city/sioux-city", "@spider": "barlouie", "addr:street_address": "701 Gordon Drive", "addr:city": "Sioux City", "addr:state": "IA", "addr:postcode": "51101", "name": "Sioux City", "phone": "712-224-7600", "website": "https://www.barlouie.com/locations/us/ia/sioux-city/sioux-city", "opening_hours": "24/7", "image": "https://images.prismic.io/bar-louie/88f3a65d965debb6939c44b852269234fda5950f_2016-06-17-14.59.41.jpg?auto=compress,format", "brand": "Barlouie", "brand:wikidata": "Q16935493"}, "geometry": {"type": "Point", "coordinates": [-96.402039, 42.490218]}},
{"type": "Feature", "id": "OUROeX5gKT3T-QhmwLGwHUGc9ko=", "properties": {"ref": "https://www.barlouie.com/locations/us/fl/tampa/international-plaza", "@spider": "barlouie", "addr:street_address": "2223 North Westshore Boulevard #202 Suite B-202", "addr:city": "Tampa", "addr:state": "FL", "addr:postcode": "33607", "name": "International Plaza", "phone": "813-519-1900", "website": "https://www.barlouie.com/locations/us/fl/tampa/international-plaza", "opening_hours": "Mo-Fr 11:00-02:00; Sa-Su 10:00-02:00", "image": "https://images.prismic.io/bar-louie/be7560121d22ca7ca4a604124dba9b0dd24aa8b5_2016-06-17-14.59.41.jpg?auto=compress,format", "brand": "Barlouie", "brand:wikidata": "Q16935493"}, "geometry": {"type": "Point", "coordinates": [-82.5209729721685, 27.9661601657361]}},
{"type": "Feature", "id": "HOOSzbW9L5NDltOBZybPmEULlTQ=", "properties": {"ref": "https://www.barlouie.com/locations/us/fl/winter-park/winter-park", "@spider": "barlouie", "addr:street_address": "460 Orlando Ave., #122", "addr:city": "Winter Park", "addr:state": "FL", "addr:postcode": "32789", "name": "Winter Park", "phone": "407-794-9500", "website": "https://www.barlouie.com/locations/us/fl/winter-park/winter-park", "opening_hours": "Mo-Fr 11:00-02:00; Sa 10:00-02:00; Su 10:00-24:00", "image": "https://images.prismic.io/bar-louie/7facc22c-b5bb-4cb1-ad5f-0a15e5bd33b2_New&#x2B;Search&#x2B;Location&#x2B;Header&#x2B;Image&#x2B;for&#x2B;Website.jpg?auto=compress,format&amp;rect=0,0,1520,360&amp;w=1520&amp;h=360", "brand": "Barlouie", "brand:wikidata": "Q16935493"}, "geometry": {"type": "Point", "coordinates": [-81.362663, 28.601748]}},
{"type": "Feature", "id": "y8UbDblB6z58W8Qa4-ztJ-qgU3k=", "properties": {"ref": "https://www.barlouie.com/locations/us/ma/foxborough/patriot-place", "@spider": "barlouie", "addr:street_address": "232 Patriot Pl", "addr:city": "Foxborough", "addr:state": "MA", "addr:postcode": "02035", "name": "Patriot Place", "phone": "508-952-6800", "website": "https://www.barlouie.com/locations/us/ma/foxborough/patriot-place", "opening_hours": "Mo-Su 11:00-01:00", "image": "https://images.prismic.io/bar-louie/dcc604f737a8fea588ab1abefa134a24336383f3_793645_495482_153931_la2qn.jpg?auto=compress,format", "brand": "Barlouie", "brand:wikidata": "Q16935493"}, "geometry": {"type": "Point", "coordinates": [-71.266601396334, 42.0936468856169]}},
{"type": "Feature", "id": "e1X_uRP8XzfvGlWaNp0fftLcDjY=", "properties": {"ref": "https://www.barlouie.com/locations/us/fl/orlando/orlando-gateway", "@spider": "barlouie", "addr:street_address": "7015 S Semoran Blvd", "addr:city": "Orlando", "addr:state": "FL", "addr:postcode": "32822", "name": "Orlando Gateway", "phone": "407-813-2500", "website": "https://www.barlouie.com/locations/us/fl/orlando/orlando-gateway", "opening_hours": "Mo-Su 11:00-02:00", "image": "https://images.prismic.io/bar-louie/9d9f63c4b3a0d00569f89e8588a1a33a83ce82ad_2016-06-17-14.59.41.jpg?auto=compress,format", "brand": "Barlouie", "brand:wikidata": "Q16935493"}, "geometry": {"type": "Point", "coordinates": [-81.308918, 28.462039]}},
{"type": "Feature", "id": "EsclG7xZCmwNnKgw5VoFA3XKGLA=", "properties": {"ref": "https://www.barlouie.com/locations/us/fl/orlando/plaza-on-university", "@spider": "barlouie", "addr:street_address": "4100 N Alafaya Trl Suite 167 &amp; 173", "addr:city": "Orlando", "addr:state": "FL", "addr:postcode": "32826", "name": "Plaza on University", "phone": "407-337-7100", "website": "https://www.barlouie.com/locations/us/fl/orlando/plaza-on-university", "opening_hours": "Mo-Fr 11:00-02:00; Sa-Su 10:00-02:00", "image": "https://images.prismic.io/bar-louie/36d23cecff0721967c726cf9f538a3618fb4e493_2016-06-17-14.59.41.jpg?auto=compress,format", "brand": "Barlouie", "brand:wikidata": "Q16935493"}, "geometry": {"type": "Point", "coordinates": [-81.208325, 28.598241]}},
{"type": "Feature", "id": "500mMjDN2qSQ2Mc-I9Ezi420hUk=", "properties": {"ref": "https://www.barlouie.com/locations/us/fl/coconut-creek/coconut-creek", "@spider": "barlouie", "addr:street_address": "4443 Lyons Rd Suite D-101", "addr:city": "Coconut Creek", "addr:state": "FL", "addr:postcode": "33073", "name": "Coconut Creek", "phone": "954-543-5865", "website": "https://www.barlouie.com/locations/us/fl/coconut-creek/coconut-creek", "opening_hours": "Mo-Fr 11:00-02:00; Sa-Su 10:00-02:00", "image": "https://images.prismic.io/bar-louie/05cec0347de201cd0f720f1bb8f2818ebfe9a031_2016-06-17-14.59.41.jpg?auto=compress,format", "brand": "Barlouie", "brand:wikidata": "Q16935493"}, "geometry": {"type": "Point", "coordinates": [-80.18852, 26.283673]}},
{"type": "Feature", "id": "FM3ngmeOTkVk-PU_Ywv3V-a3b1k=", "properties": {"ref": "https://www.barlouie.com/locations/us/co/lakewood/belmar", "@spider": "barlouie", "addr:street_address": "7111 W. Alaska Drive", "addr:city": "Lakewood", "addr:state": "CO", "addr:postcode": "80226", "name": "Belmar", "phone": "720-677-6500", "website": "https://www.barlouie.com/locations/us/co/lakewood/belmar", "opening_hours": "Mo-Th 11:00-24:00; Fr 11:00-02:00; Sa 10:00-02:00; Su 10:00-24:00", "image": "https://images.prismic.io/bar-louie/eb4242f9037d401c8810aec851a410a1550864fa_676043_504933_1501034163289.jpg?auto=compress,format", "brand": "Barlouie", "brand:wikidata": "Q16935493"}, "geometry": {"type": "Point", "coordinates": [-105.075316, 39.70948]}},
{"type": "Feature", "id": "FVjhQ4XRQRBg068mSJP2_9agqkM=", "properties": {"ref": "https://www.barlouie.com/locations/us/in/evansville/evansville", "@spider": "barlouie", "addr:street_address": "7700 Eagle Crest Blvd", "addr:city": "Evansville", "addr:state": "IN", "addr:postcode": "47715", "name": "Evansville", "phone": "812-476-7069", "website": "https://www.barlouie.com/locations/us/in/evansville/evansville", "opening_hours": "Mo-Tu 11:00-22:00; We-Sa 11:00-24:00; Su 11:00-22:00", "image": "https://images.prismic.io/bar-louie/85fec80159b4c4705fd342821e155c17b1abf826_2016-06-17-14.59.41.jpg?auto=compress,format", "brand": "Barlouie", "brand:wikidata": "Q16935493"}, "geometry": {"type": "Point", "coordinates": [-87.45874, 37.976058]}},
{"type": "Feature", "id": "qJ167NWK6Qr30CSu4EsO9bQ5Kfg=", "properties": {"ref": "https://www.barlouie.com/locations/us/co/denver/the-shops-at-northfield", "@spider": "barlouie", "addr:street_address": "8332 E Northfield Blvd", "addr:city": "Denver", "addr:state": "CO", "addr:postcode": "80238", "name": "The Shops at Northfield", "phone": "720-677-6600", "website": "https://www.barlouie.com/locations/us/co/denver/the-shops-at-northfield", "opening_hours": "Mo-We 11:00-24:00; Th-Sa 11:00-02:00; Su 11:00-24:00", "image": "https://images.prismic.io/bar-louie/68c7222ddca019ecac222d41ff4c71e68e4c4915_2016-06-17-14.59.41.jpg?auto=compress,format", "brand": "Barlouie", "brand:wikidata": "Q16935493"}, "geometry": {"type": "Point", "coordinates": [-104.890802, 39.780816]}},
{"type": "Feature", "id": "Wl9rkLfgxRnHbAIaOaRZn6CsDzo=", "properties": {"ref": "https://www.barlouie.com/locations/us/ca/tustin/the-district", "@spider": "barlouie", "addr:street_address": "2467 Park Ave", "addr:city": "Tustin", "addr:state": "CA", "addr:postcode": "92782", "name": "The District", "phone": "657-296-4400", "website": "https://www.barlouie.com/locations/us/ca/tustin/the-district", "opening_hours": "Mo-Fr 11:00-02:00; Sa-Su 10:00-02:00", "image": "https://images.prismic.io/bar-louie/8280bee644ecb767002115fe147428bc45683b2f_726397_498137_1512785218013.jpg?auto=compress,format", "brand": "Barlouie", "brand:wikidata": "Q16935493"}, "geometry": {"type": "Point", "coordinates": [-117.828215, 33.696883]}},
{"type": "Feature", "id": "Q6TDnell1mxu2hMYZnHWOoIwIkw=", "properties": {"ref": "https://www.barlouie.com/locations/us/ca/northridge/northridge-fashion-center", "@spider": "barlouie", "addr:street_address": "9301 Tampa Ave Suite# 218", "addr:city": "Northridge", "addr:state": "CA", "addr:postcode": "91324", "name": "Northridge Fashion Center", "phone": "747-237-3500", "website": "https://www.barlouie.com/locations/us/ca/northridge/northridge-fashion-center", "opening_hours": "Mo 12:00-24:00; Tu-Su 12:00-02:00", "image": "https://images.prismic.io/bar-louie/41d6a055c0a733c85ca16255dd2d364a3252222e_2016-06-17-14.59.41.jpg?auto=compress,format", "brand": "Barlouie", "brand:wikidata": "Q16935493"}, "geometry": {"type": "Point", "coordinates": [-118.556483, 34.240569]}},
{"type": "Feature", "id": "drxQsYXz_cjHIl-yN2YEoTUSfIk=", "properties": {"ref": "https://www.barlouie.com/locations/us/ca/downey/the-promenade-at-downey", "@spider": "barlouie", "addr:street_address": "8860 Apollo Way Suite #304", "addr:city": "Downey", "addr:state": "CA", "addr:postcode": "90242", "name": "The Promenade at Downey", "phone": "562-414-4400", "website": "https://www.barlouie.com/locations/us/ca/downey/the-promenade-at-downey", "opening_hours": "Mo-We 11:00-02:00; Th 11:00-24:00; Fr 11:00-02:00; Sa-Su 10:00-02:00", "image": "https://images.prismic.io/bar-louie/301864c25e5f2ca27ec4d72a0ca01db649ebb148_downey.jpg?auto=compress,format", "brand": "Barlouie", "brand:wikidata": "Q16935493"}, "geometry": {"type": "Point", "coordinates": [-118.131646, 33.921762]}},
{"type": "Feature", "id": "3EuxHh0ne_fbC4KGMtR_hlAv77Y=", "properties": {"ref": "https://www.barlouie.com/locations/us/az/tempe/tempe-marketplace", "@spider": "barlouie", "addr:street_address": "2000 Rio Salado Parkway Suite 1220", "addr:city": "Tempe", "addr:state": "AZ", "addr:postcode": "85288", "name": "Tempe Marketplace", "phone": "602-609-6400", "website": "https://www.barlouie.com/locations/us/az/tempe/tempe-marketplace", "opening_hours": "Mo-Fr 11:00-02:00; Sa-Su 10:00-02:00", "image": "https://images.prismic.io/bar-louie/d9088d7c23182342acb3b6715bfc8d2123a3f6b2_2016-06-17-14.59.41.jpg?auto=compress,format", "brand": "Barlouie", "brand:wikidata": "Q16935493"}, "geometry": {"type": "Point", "coordinates": [-111.901519, 33.433301]}},
{"type": "Feature", "id": "_zB_cvwfSje-0Cx6h4y_ehxtThU=", "properties": {"ref": "https://www.barlouie.com/locations/us/il/chicago/university-village", "@spider": "barlouie", "addr:street_address": "1325 S Halsted St", "addr:city": "Chicago", "addr:state": "IL", "addr:postcode": "60607", "name": "University Village", "phone": "312-733-1411", "website": "https://www.barlouie.com/locations/us/il/chicago/university-village", "opening_hours": "Mo-Th 11:00-24:00; Fr-Sa 11:00-01:00; Su 11:00-24:00", "image": "https://images.prismic.io/bar-louie/f3c244ec00817110118453ec585bb2b5b2ffedba_uv.jpg?auto=compress,format", "brand": "Barlouie", "brand:wikidata": "Q16935493"}, "geometry": {"type": "Point", "coordinates": [-87.646682, 41.864666]}},
{"type": "Feature", "id": "bDEnLvb35mMOFrlQR7S18OOeCyk=", "properties": {"ref": "https://www.barlouie.com/locations/us/tx/dallas/dfw-airport", "@spider": "barlouie", "addr:street_address": "2333 S International Parkway Terminal D", "addr:city": "Dallas", "addr:state": "TX", "addr:postcode": "75261", "name": "DFW Airport", "phone": "469-319-8075", "website": "https://www.barlouie.com/locations/us/tx/dallas/dfw-airport", "image": "https://images.prismic.io/bar-louie/7facc22c-b5bb-4cb1-ad5f-0a15e5bd33b2_New&#x2B;Search&#x2B;Location&#x2B;Header&#x2B;Image&#x2B;for&#x2B;Website.jpg?auto=compress,format&amp;rect=0,0,1520,360&amp;w=1520&amp;h=360", "brand": "Barlouie", "brand:wikidata": "Q16935493"}, "geometry": {"type": "Point", "coordinates": [-97.044843, 32.897128]}},
{"type": "Feature", "id": "8LN2RMo1W9aMlHr-GBecVvyaXlo=", "properties": {"ref": "https://www.barlouie.com/locations/us/az/glendale/westgate-entertainment-district", "@spider": "barlouie", "addr:street_address": "6770 N Sunrise Blvd", "addr:city": "Glendale", "addr:state": "AZ", "addr:postcode": "85305", "name": "Westgate Entertainment District", "phone": "602-609-5500", "website": "https://www.barlouie.com/locations/us/az/glendale/westgate-entertainment-district", "opening_hours": "Mo-Fr 11:00-02:00; Sa-Su 10:00-02:00", "image": "https://images.prismic.io/bar-louie/a23fc082ac616b2161e36e24171c91a3290f6bc5_794157_502910_153929_ohhby.jpg?auto=compress,format", "brand": "Barlouie", "brand:wikidata": "Q16935493"}, "geometry": {"type": "Point", "coordinates": [-112.261096, 33.53354]}},
{"type": "Feature", "id": "OcK9bgt960W73JOvFq1iKI3BZzE=", "properties": {"ref": "https://www.barlouie.com/locations/us/ar/little-rock/pleasant-ridge-town-center", "@spider": "barlouie", "addr:street_address": "11525 Cantrell Rd", "addr:city": "Little Rock", "addr:state": "AR", "addr:postcode": "72212", "name": "Pleasant Ridge Town Center", "phone": "501-228-0444", "website": "https://www.barlouie.com/locations/us/ar/little-rock/pleasant-ridge-town-center", "opening_hours": "Mo-Th 11:00-24:00; Fr-Sa 11:00-01:00; Su 11:00-24:00", "image": "https://images.prismic.io/bar-louie/1cae98db9ff183fd2276cfa642db9a941f495bcf_2016-06-17-14.59.41.jpg?auto=compress,format", "brand": "Barlouie", "brand:wikidata": "Q16935493"}, "geometry": {"type": "Point", "coordinates": [-92.401557, 34.793541]}},
{"type": "Feature", "id": "4mIvowPyEtgkNeg1hB8mvghOQgM=", "properties": {"ref": "https://www.barlouie.com/locations/us/ar/north-little-rock/mccain-mall", "@spider": "barlouie", "addr:street_address": "3929 McCain Blvd", "addr:city": "North Little Rock", "addr:state": "AR", "addr:postcode": "72116", "name": "McCain Mall", "phone": "501-420-1445", "website": "https://www.barlouie.com/locations/us/ar/north-little-rock/mccain-mall", "opening_hours": "Mo-Th 11:00-24:00; Fr-Sa 11:00-01:00; Su 11:00-24:00", "image": "https://images.prismic.io/bar-louie/944e2b215f54aea8f2e68a22d4260f56d19919a2_2016-06-17-14.59.41.jpg?auto=compress,format", "brand": "Barlouie", "brand:wikidata": "Q16935493"}, "geometry": {"type": "Point", "coordinates": [-92.225497, 34.792625]}},
{"type": "Feature", "id": "hXvexQMQhgNPBlHY2OhCjgNMsoM=", "properties": {"ref": "https://www.barlouie.com/locations/us/il/chicago/o'hare", "@spider": "barlouie", "addr:street_address": "5615 N Cumberland Ave", "addr:city": "Chicago", "addr:state": "IL", "addr:postcode": "60631", "name": "O&#x27;Hare", "phone": "773-332-8029", "website": "https://www.barlouie.com/locations/us/il/chicago/o'hare", "opening_hours": "Mo-Th 11:30-24:00; Fr-Sa 11:30-01:00; Su 11:30-24:00", "image": "https://images.prismic.io/bar-louie/d8f61385fc81db751f768ab73221a786d448e911_2016-06-17-14.59.41.jpg?auto=compress,format", "brand": "Barlouie", "brand:wikidata": "Q16935493"}, "geometry": {"type": "Point", "coordinates": [-87.835765, 41.982013]}},
{"type": "Feature", "id": "Nojn1FXQ24NgX28MUgRklGJEoks=", "properties": {"ref": "https://www.barlouie.com/locations/us/tn/nashville/the-gulch", "@spider": "barlouie", "addr:street_address": "314 11th Ave S", "addr:city": "Nashville", "addr:state": "TN", "addr:postcode": "37203", "name": "The Gulch", "phone": "615-457-1632", "website": "https://www.barlouie.com/locations/us/tn/nashville/the-gulch", "opening_hours": "Mo-Th 11:00-02:00; Fr-Su 10:00-02:00", "image": "https://images.prismic.io/bar-louie/7facc22c-b5bb-4cb1-ad5f-0a15e5bd33b2_New&#x2B;Search&#x2B;Location&#x2B;Header&#x2B;Image&#x2B;for&#x2B;Website.jpg?auto=compress,format&amp;rect=0,0,1520,360&amp;w=1520&amp;h=360", "brand": "Barlouie", "brand:wikidata": "Q16935493"}, "geometry": {"type": "Point", "coordinates": [-86.783543, 36.153116]}}]}