{"type":"FeatureCollection","features":[{"type": "Feature", "id": "7xnsFSRJJYSpzD0goR1Q6RlsEWE=", "properties": {"ref": "Coastal Alabama Community College", "@spider": "barnesnoblecollege", "addr:full": "1900 US-31", "addr:city": "Minette", "addr:state": "AL", "addr:postcode": "36507", "addr:country": "US", "name": "Coastal Alabama Community College", "website": "https://www.bncollege.com/campus-stores/", "brand": "Barnes & Noble College", "brand:wikidata": "Q4861508"}},
{"type": "Feature", "id": "eXB7jjyQP_wFl3GO9NfsY7zssBs=", "properties": {"ref": "Northwest-Shoals Community College", "@spider": "barnesnoblecollege", "addr:full": "800 George Wallace Blvd #101", "addr:city": "Shoals", "addr:state": "AL", "addr:postcode": "35661", "addr:country": "US", "name": "Northwest-Shoals Community College", "website": "https://www.bncollege.com/campus-stores/", "brand": "Barnes & Noble College", "brand:wikidata": "Q4861508"}},
{"type": "Feature", "id": "ZRVIckyTDnim8SH3uf5LtUF6ucs=", "properties": {"ref": "Troy University", "@spider": "barnesnoblecollege", "addr:full": "versity Pl", "addr:city": "City", "addr:state": "AL", "addr:postcode": "36869", "addr:country": "US", "name": "Troy University", "website": "https://www.bncollege.com/campus-stores/", "brand": "Barnes & Noble College", "brand:wikidata": "Q4861508"}},
{"type": "Feature", "id": "iOmyG3cEwFV_3tYOAkzw2SFW2tg=", "properties": {"ref": "University of Mobile", "@spider": "barnesnoblecollege", "addr:full": "5735 College Pkwy", "addr:city": "Mile", "addr:state": "AL", "addr:postcode": "36613", "addr:country": "US", "name": "University of Mobile", "website": "https://www.bncollege.com/campus-stores/", "brand": "Barnes & Noble College", "brand:wikidata": "Q4861508"}},
{"type": "Feature", "id": "IlvPZRWugczD-xjaDDPl2hEg9CY=", "properties": {"ref": "Central Arizona College", "@spider": "barnesnoblecollege", "addr:full": "805 S Idaho Rd", "addr:city": "Junction", "addr:state": "AZ", "addr:postcode": "85119", "addr:country": "US", "name": "Central Arizona College", "website": "https://www.bncollege.com/campus-stores/", "brand": "Barnes & Noble College", "brand:wikidata": "Q4861508"}},
{"type": "Feature", "id": "SoL3mbTVveVl5Jl4Kk_td0ccfDs=", "properties": {"ref": "Pusch Ridge Christian Academy", "@spider": "barnesnoblecollege", "addr:full": "9500 N Oracle Rd", "addr:city": "Valley", "addr:state": "AZ", "addr:postcode": "85704", "addr:country": "US", "name": "Pusch Ridge Christian Academy", "website": "https://www.bncollege.com/campus-stores/", "brand": "Barnes & Noble College", "brand:wikidata": "Q4861508"}},
{"type": "Feature", "id": "-bzTCqOQew9ywqJ-cy5ZYZaL9Gk=", "properties": {"ref": "Southeast Arkansas College", "@spider": "barnesnoblecollege", "addr:full": "1900 S Hazel St", "addr:city": "Bluff", "addr:state": "AR", "addr:postcode": "71603", "addr:country": "US", "name": "Southeast Arkansas College", "website": "https://www.bncollege.com/campus-stores/", "brand": "Barnes & Noble College", "brand:wikidata": "Q4861508"}},
{"type": "Feature", "id": "ZOv8fQnjgj6MQ7eawOEKFeqaQTw=", "properties": {"ref": "University of Arkansas at Little Rock", "@spider": "barnesnoblecollege", "addr:full": "2801 S University Ave", "addr:city": "Rock", "addr:state": "AR", "addr:postcode": "72204", "addr:country": "US", "name": "University of Arkansas at Little Rock", "website": "https://www.bncollege.com/campus-stores/", "brand": "Barnes & Noble College", "brand:wikidata": "Q4861508"}},
{"type": "Feature", "id": "WIjq2O6dADZ2TrTweIP4nR3N76A=", "properties": {"ref": "Agbu Manoogian-Demirdjian", "@spider": "barnesnoblecollege", "addr:full": "6844 Oakdale Ave", "addr:city": "Park", "addr:state": "CA", "addr:postcode": "91306", "addr:country": "US", "name": "Agbu Manoogian-Demirdjian", "website": "https://www.bncollege.com/campus-stores/", "brand": "Barnes & Noble College", "brand:wikidata": "Q4861508"}},
{"type": "Feature", "id": "5RbB8hJwD75HJLfa9qPCXujzC_Y=", "properties": {"ref": "Alliant International University", "@spider": "barnesnoblecollege", "addr:full": "10455 Pomerado Rd", "addr:city": "Diego", "addr:state": "CA", "addr:postcode": "92131", "addr:country": "US", "name": "Alliant International University", "website": "https://www.bncollege.com/campus-stores/", "brand": "Barnes & Noble College", "brand:wikidata": "Q4861508"}},
{"type": "Feature", "id": "QRUjExIOYoatloCcM7rH0Ipmbf8=", "properties": {"ref": "Antioch University Los Angeles", "@spider": "barnesnoblecollege", "addr:full": "400 Corporate Pointe", "addr:city": "City", "addr:state": "CA", "addr:postcode": "90230", "addr:country": "US", "name": "Antioch University Los Angeles", "website": "https://www.bncollege.com/campus-stores/", "brand": "Barnes & Noble College", "brand:wikidata": "Q4861508"}},
{"type": "Feature", "id": "MGcZDAeY6_9nCm6MWnPLAIYaOGU=", "properties": {"ref": "Antioch University Santa Barbara", "@spider": "barnesnoblecollege", "addr:full": "602 Anacapa St", "addr:city": "Barbara", "addr:state": "CA", "addr:postcode": "93101", "addr:country": "US", "name": "Antioch University Santa Barbara", "website": "https://www.bncollege.com/campus-stores/", "brand": "Barnes & Noble College", "brand:wikidata": "Q4861508"}},
{"type": "Feature", "id": "rF6VdigKQZygy-Uq0QL3XlFT46s=", "properties": {"ref": "Archbishop Mitty High School", "@spider": "barnesnoblecollege", "addr:full": "5000 Mitty Way", "addr:city": "Jose", "addr:state": "CA", "addr:postcode": "95129", "addr:country": "US", "name": "Archbishop Mitty High School", "website": "https://www.bncollege.com/campus-stores/", "brand": "Barnes & Noble College", "brand:wikidata": "Q4861508"}},
{"type": "Feature", "id": "sbH76sLhcXUwv0QXJSaEEsDTPVQ=", "properties": {"ref": "BASIS Independent Silicon Valley", "@spider": "barnesnoblecollege", "addr:full": "1290 Parkmoor Ave", "addr:city": "Jose", "addr:state": "CA", "addr:postcode": "95126", "addr:country": "US", "name": "BASIS Independent Silicon Valley", "website": "https://www.bncollege.com/campus-stores/", "brand": "Barnes & Noble College", "brand:wikidata": "Q4861508"}},
{"type": "Feature", "id": "XfXl-nVlkMXbeDf0Czd6Yw5w9KI=", "properties": {"ref": "Bellarmine College Preparatory", "@spider": "barnesnoblecollege", "addr:full": "960 W Hedding St", "addr:city": "Jose", "addr:state": "CA", "addr:postcode": "95126", "addr:country": "US", "name": "Bellarmine College Preparatory", "website": "https://www.bncollege.com/campus-stores/", "brand": "Barnes & Noble College", "brand:wikidata": "Q4861508"}},
{"type": "Feature", "id": "AFlv0SBC2GPoijtdbPoTl4KjWLY=", "properties": {"ref": "California State University Los Angeles", "@spider": "barnesnoblecollege", "addr:full": "5154 State University Dr", "addr:city": "Angeles", "addr:state": "CA", "addr:postcode": "90032", "addr:country": "US", "name": "California State University Los Angeles", "website": "https://www.bncollege.com/campus-stores/", "brand": "Barnes & Noble College", "brand:wikidata": "Q4861508"}},
{"type": "Feature", "id": "LdOrf8YJhNu_x7xVEd9a-QORYQU=", "properties": {"ref": "Campbell Hall Episcopal School", "@spider": "barnesnoblecollege", "addr:full": "4533 Laurel Canyon Blvd", "addr:city": "City", "addr:state": "CA", "addr:postcode": "91607", "addr:country": "US", "name": "Campbell Hall Episcopal School", "website": "https://www.bncollege.com/campus-stores/", "brand": "Barnes & Noble College", "brand:wikidata": "Q4861508"}},
{"type": "Feature", "id": "BCDsuStKZtYcgGkIMQBSXkeOIsk=", "properties": {"ref": "Castilleja School", "@spider": "barnesnoblecollege", "addr:full": "1310 Bryant St", "addr:city": "Alto", "addr:state": "CA", "addr:postcode": "94301", "addr:country": "US", "name": "Castilleja School", "website": "https://www.bncollege.com/campus-stores/", "brand": "Barnes & Noble College", "brand:wikidata": "Q4861508"}},
{"type": "Feature", "id": "9ik_ZWTggf78A-xUmH0pi6akmk0=", "properties": {"ref": "Coastline Community College", "@spider": "barnesnoblecollege", "addr:full": "11460 Warner Ave", "addr:city": "Valley", "addr:state": "CA", "addr:postcode": "92708", "addr:country": "US", "name": "Coastline Community College", "website": "https://www.bncollege.com/campus-stores/", "brand": "Barnes & Noble College", "brand:wikidata": "Q4861508"}},
{"type": "Feature", "id": "AfGjUUlmcjHCihSdnrauS6KaEZM=", "properties": {"ref": "College of the Canyons", "@spider": "barnesnoblecollege", "addr:full": "26455 Rockwell Canyon Rd", "addr:city": "Clarita", "addr:state": "CA", "addr:postcode": "91355", "addr:country": "US", "name": "College of the Canyons", "website": "https://www.bncollege.com/campus-stores/", "brand": "Barnes & Noble College", "brand:wikidata": "Q4861508"}},
{"type": "Feature", "id": "zXhrtq6O-Qiwf-paz2r8fZewD6U=", "properties": {"ref": "Crossroads School for Arts & Sciences", "@spider": "barnesnoblecollege", "addr:full": "1714 21st St", "addr:city": "Monica", "addr:state": "CA", "addr:postcode": "90404", "addr:country": "US", "name": "Crossroads School for Arts & Sciences", "website": "https://www.bncollege.com/campus-stores/", "brand": "Barnes & Noble College", "brand:wikidata": "Q4861508"}},
{"type": "Feature", "id": "rAqmEMs68XThdOJvImeehDOo6sI=", "properties": {"ref": "Cuesta College", "@spider": "barnesnoblecollege", "addr:full": "enter", "addr:city": "Luis Obispo", "addr:state": "CA", "addr:postcode": "93401", "addr:country": "US", "name": "Cuesta College", "website": "https://www.bncollege.com/campus-stores/", "brand": "Barnes & Noble College", "brand:wikidata": "Q4861508"}},
{"type": "Feature", "id": "dB4QcyZD06YWZj5Z9Tk14C7BBl8=", "properties": {"ref": "Cuyamaca College", "@spider": "barnesnoblecollege", "addr:full": "900 Rancho San Diego Pkwy", "addr:city": "Cajon", "addr:state": "CA", "addr:postcode": "92019", "addr:country": "US", "name": "Cuyamaca College", "website": "https://www.bncollege.com/campus-stores/", "brand": "Barnes & Noble College", "brand:wikidata": "Q4861508"}},
{"type": "Feature", "id": "KLVNCsemnOhQzu0Pvs11XrXDFuk=", "properties": {"ref": "deToledo High School", "@spider": "barnesnoblecollege", "addr:full": "22622 Vanowen St", "addr:city": "Hills", "addr:state": "CA", "addr:postcode": "91307", "addr:country": "US", "name": "deToledo High School", "website": "https://www.bncollege.com/campus-stores/", "brand": "Barnes & Noble College", "brand:wikidata": "Q4861508"}},
{"type": "Feature", "id": "7t-k6eP7FPpB7crC-MIS7dfrlZo=", "properties": {"ref": "Golden West College", "@spider": "barnesnoblecollege", "addr:full": "15744 Goldenwest St", "addr:city": "Beach", "addr:state": "CA", "addr:postcode": "92647", "addr:country": "US", "name": "Golden West College", "website": "https://www.bncollege.com/campus-stores/", "brand": "Barnes & Noble College", "brand:wikidata": "Q4861508"}},
{"type": "Feature", "id": "iLkd7COJAZJMHgp76slN8R2UTAQ=", "properties": {"ref": "Grace Brethren Junior & Senior High Schools", "@spider": "barnesnoblecollege", "addr:full": "1350 Cherry Ave", "addr:city": "Valley", "addr:state": "CA", "addr:postcode": "93065", "addr:country": "US", "name": "Grace Brethren Junior & Senior High Schools", "website": "https://www.bncollege.com/campus-stores/", "brand": "Barnes & Noble College", "brand:wikidata": "Q4861508"}},
{"type": "Feature", "id": "cDX0WJ4c5yJmDGi7tBcianF8Ziw=", "properties": {"ref": "Grossmont College", "@spider": "barnesnoblecollege", "addr:full": "8800 Grossmont College Dr b", "addr:city": "Cajon", "addr:state": "CA", "addr:postcode": "92020", "addr:country": "US", "name": "Grossmont College", "website": "https://www.bncollege.com/campus-stores/", "brand": "Barnes & Noble College", "brand:wikidata": "Q4861508"}},
{"type": "Feature", "id": "2tOt5yoMCvNFNFMQIFMZgKca9Rs=", "properties": {"ref": "Harker School", "@spider": "barnesnoblecollege", "addr:full": "500 Saratoga Ave", "addr:city": "Jose", "addr:state": "CA", "addr:postcode": "95128", "addr:country": "US", "name": "Harker School", "website": "https://www.bncollege.com/campus-stores/", "brand": "Barnes & Noble College", "brand:wikidata": "Q4861508"}},
{"type": "Feature", "id": "O6bXgK_nKo8rl5L65TYcmIKr6x0=", "properties": {"ref": "Junipero Serra High School", "@spider": "barnesnoblecollege", "addr:full": "451 W 20th Ave", "addr:city": "Mateo", "addr:state": "CA", "addr:postcode": "94403", "addr:country": "US", "name": "Junipero Serra High School", "website": "https://www.bncollege.com/campus-stores/", "brand": "Barnes & Noble College", "brand:wikidata": "Q4861508"}},
{"type": "Feature", "id": "iYmRpXrUxWb2ypwHUy5o9h-4Ius=", "properties": {"ref": "La Reina High School and Middle School", "@spider": "barnesnoblecollege", "addr:full": "106 W Janss Rd", "addr:city": "Oaks", "addr:state": "CA", "addr:postcode": "91360", "addr:country": "US", "name": "La Reina High School and Middle School", "website": "https://www.bncollege.com/campus-stores/", "brand": "Barnes & Noble College", "brand:wikidata": "Q4861508"}},
{"type": "Feature", "id": "EB6TilZpzaSmlJQGPPy6O5qRSZI=", "properties": {"ref": "Lake Tahoe Community College", "@spider": "barnesnoblecollege", "addr:full": "ollege Dr", "addr:city": "Lake Tahoe", "addr:state": "CA", "addr:postcode": "96150", "addr:country": "US", "name": "Lake Tahoe Community College", "website": "https://www.bncollege.com/campus-stores/", "brand": "Barnes & Noble College", "brand:wikidata": "Q4861508"}},
{"type": "Feature", "id": "XXtonzsPiBT_qIBhLQsJ1vHyoKM=", "properties": {"ref": "Life Pacific University", "@spider": "barnesnoblecollege", "addr:full": "1100 W Covina Blvd", "addr:city": "Dimas", "addr:state": "CA", "addr:postcode": "91773", "addr:country": "US", "name": "Life Pacific University", "website": "https://www.bncollege.com/campus-stores/", "brand": "Barnes & Noble College", "brand:wikidata": "Q4861508"}},
{"type": "Feature", "id": "By6aoRYIfWB6rT9itoP1pZFFmzg=", "properties": {"ref": "Loma Linda University", "@spider": "barnesnoblecollege", "addr:full": "11161 Anderson St", "addr:city": "Linda", "addr:state": "CA", "addr:postcode": "92354", "addr:country": "US", "name": "Loma Linda University", "website": "https://www.bncollege.com/campus-stores/", "brand": "Barnes & Noble College", "brand:wikidata": "Q4861508"}},
{"type": "Feature", "id": "tqvZMaMyv_Sk1qUKIkI8otz4-bk=", "properties": {"ref": "Long Beach City College", "@spider": "barnesnoblecollege", "addr:full": "1305 E Pacific Coast Hwy", "addr:city": "Beach", "addr:state": "CA", "addr:postcode": "90806", "addr:country": "US", "name": "Long Beach City College", "website": "https://www.bncollege.com/campus-stores/", "brand": "Barnes & Noble College", "brand:wikidata": "Q4861508"}},
{"type": "Feature", "id": "SAbIayT4CckkpzUqKQEkGJVUXGY=", "properties": {"ref": "Louisville High School", "@spider": "barnesnoblecollege", "addr:full": "22300 Mulholland Dr", "addr:city": "Hills", "addr:state": "CA", "addr:postcode": "91364", "addr:country": "US", "name": "Louisville High School", "website": "https://www.bncollege.com/campus-stores/", "brand": "Barnes & Noble College", "brand:wikidata": "Q4861508"}},
{"type": "Feature", "id": "sl45SeLNpEnhI_6YiLfQ5PrTeVo=", "properties": {"ref": "Loyola Marymount University", "@spider": "barnesnoblecollege", "addr:full": "919 Albany St", "addr:city": "Angeles", "addr:state": "CA", "addr:postcode": "90015", "addr:country": "US", "name": "Loyola Marymount University", "website": "https://www.bncollege.com/campus-stores/", "brand": "Barnes & Noble College", "brand:wikidata": "Q4861508"}},
{"type": "Feature", "id": "tINbeR35wVFmMk05gbOAY4T2Mf0=", "properties": {"ref": "Maranatha Christian Schools", "@spider": "barnesnoblecollege", "addr:full": "9050 Maranatha Dr", "addr:city": "Diego", "addr:state": "CA", "addr:postcode": "92127", "addr:country": "US", "name": "Maranatha Christian Schools", "website": "https://www.bncollege.com/campus-stores/", "brand": "Barnes & Noble College", "brand:wikidata": "Q4861508"}},
{"type": "Feature", "id": "QC9f9Ww-vsSpamrpZOZG7Z7coG8=", "properties": {"ref": "Marin Academy", "@spider": "barnesnoblecollege", "addr:full": "1600 Mission Ave", "addr:city": "Rafael", "addr:state": "CA", "addr:postcode": "94901", "addr:country": "US", "name": "Marin Academy", "website": "https://www.bncollege.com/campus-stores/", "brand": "Barnes & Noble College", "brand:wikidata": "Q4861508"}},
{"type": "Feature", "id": "uG80qKw8F42cfIMSEdFu2tb74SM=", "properties": {"ref": "Marlborough School", "@spider": "barnesnoblecollege", "addr:full": "250 S Rossmore Ave", "addr:city": "Angeles", "addr:state": "CA", "addr:postcode": "90004", "addr:country": "US", "name": "Marlborough School", "website": "https://www.bncollege.com/campus-stores/", "brand": "Barnes & Noble College", "brand:wikidata": "Q4861508"}},
{"type": "Feature", "id": "M2FTgulzcQLhAsXpt_mtcY8n_5I=", "properties": {"ref": "Marymount High School", "@spider": "barnesnoblecollege", "addr:full": "10643 Sunset Blvd", "addr:city": "Angeles", "addr:state": "CA", "addr:postcode": "90077", "addr:country": "US", "name": "Marymount High School", "website": "https://www.bncollege.com/campus-stores/", "brand": "Barnes & Noble College", "brand:wikidata": "Q4861508"}},
{"type": "Feature", "id": "9QyNXgUe3t-aoWrIsDk-3ViZBYs=", "properties": {"ref": "Milken Community Schools", "@spider": "barnesnoblecollege", "addr:full": "15800 Zeldins Way", "addr:city": "Angeles", "addr:state": "CA", "addr:postcode": "90049", "addr:country": "US", "name": "Milken Community Schools", "website": "https://www.bncollege.com/campus-stores/", "brand": "Barnes & Noble College", "brand:wikidata": "Q4861508"}},
{"type": "Feature", "id": "WLKojlLYhLatP1NKgTEXzHfb00k=", "properties": {"ref": "Mission College", "@spider": "barnesnoblecollege", "addr:full": "3000 Mission College Blvd", "addr:city": "Clara", "addr:state": "CA", "addr:postcode": "95054", "addr:country": "US", "name": "Mission College", "website": "https://www.bncollege.com/campus-stores/", "brand": "Barnes & Noble College", "brand:wikidata": "Q4861508"}},
{"type": "Feature", "id": "3qd0nFrLqzMPuw0fptN4Wpk2VtE=", "properties": {"ref": "Mission College Preparatory Catholic High School", "@spider": "barnesnoblecollege", "addr:full": "682 Palm St", "addr:city": "Luis Obispo", "addr:state": "CA", "addr:postcode": "93401", "addr:country": "US", "name": "Mission College Preparatory Catholic High School", "website": "https://www.bncollege.com/campus-stores/", "brand": "Barnes & Noble College", "brand:wikidata": "Q4861508"}},
{"type": "Feature", "id": "7o2yPJCtI8MFcRuKfizPSzzKlc4=", "properties": {"ref": "Mt. San Jacinto College", "@spider": "barnesnoblecollege", "addr:full": "1499 N State St", "addr:city": "Jacinto", "addr:state": "CA", "addr:postcode": "92583", "addr:country": "US", "name": "Mt. San Jacinto College", "website": "https://www.bncollege.com/campus-stores/", "brand": "Barnes & Noble College", "brand:wikidata": "Q4861508"}},
{"type": "Feature", "id": "icm5uqLAjCftIGzQA6sSWfBU9IE=", "properties": {"ref": "National University", "@spider": "barnesnoblecollege", "addr:full": "11255 N Torrey Pines Rd", "addr:city": "Jolla", "addr:state": "CA", "addr:postcode": "92037", "addr:country": "US", "name": "National University", "website": "https://www.bncollege.com/campus-stores/", "brand": "Barnes & Noble College", "brand:wikidata": "Q4861508"}},
{"type": "Feature", "id": "CF8Aek3OT7iZe_zPrSF2H3oPxcE=", "properties": {"ref": "New Roads School", "@spider": "barnesnoblecollege", "addr:full": "3131 Olympic Blvd", "addr:city": "Monica", "addr:state": "CA", "addr:postcode": "90404", "addr:country": "US", "name": "New Roads School", "website": "https://www.bncollege.com/campus-stores/", "brand": "Barnes & Noble College", "brand:wikidata": "Q4861508"}},
{"type": "Feature", "id": "2E3Hv6fUmeC56wt9LRd5PwSheco=", "properties": {"ref": "Notre Dame High School (San Jose, CA)", "@spider": "barnesnoblecollege", "addr:full": "596 S Second St", "addr:city": "Jose", "addr:state": "CA", "addr:postcode": "95112", "addr:country": "US", "name": "Notre Dame High School (San Jose, CA)", "website": "https://www.bncollege.com/campus-stores/", "brand": "Barnes & Noble College", "brand:wikidata": "Q4861508"}},
{"type": "Feature", "id": "9WiWPoEhjj7aRWVQeY_EAQRTWjY=", "properties": {"ref": "Oakwood School", "@spider": "barnesnoblecollege", "addr:full": "11600 Magnolia Blvd", "addr:city": "Hollywood", "addr:state": "CA", "addr:postcode": "91601", "addr:country": "US", "name": "Oakwood School", "website": "https://www.bncollege.com/campus-stores/", "brand": "Barnes & Noble College", "brand:wikidata": "Q4861508"}},
{"type": "Feature", "id": "j0FacvOHzyQ-94gRF95fa2kEQ9k=", "properties": {"ref": "Orange Coast College", "@spider": "barnesnoblecollege", "addr:full": "2701 Fairview Rd", "addr:city": "Mesa", "addr:state": "CA", "addr:postcode": "92626", "addr:country": "US", "name": "Orange Coast College", "website": "https://www.bncollege.com/campus-stores/", "brand": "Barnes & Noble College", "brand:wikidata": "Q4861508"}},
{"type": "Feature", "id": "XsycxfdORK37iRavRCGBXTUFwek=", "properties": {"ref": "Palo Alto University", "@spider": "barnesnoblecollege", "addr:full": "1791 Arastradero Rd", "addr:city": "Alto", "addr:state": "CA", "addr:postcode": "94304", "addr:country": "US", "name": "Palo Alto University", "website": "https://www.bncollege.com/campus-stores/", "brand": "Barnes & Noble College", "brand:wikidata": "Q4861508"}},
{"type": "Feature", "id": "pvUxtu6uln-UkHNaEmQFweotWy8=", "properties": {"ref": "Point Loma Nazarene University", "@spider": "barnesnoblecollege", "addr:full": "3900 Lomaland Dr", "addr:city": "Diego", "addr:state": "CA", "addr:postcode": "92106", "addr:country": "US", "name": "Point Loma Nazarene University", "website": "https://www.bncollege.com/campus-stores/", "brand": "Barnes & Noble College", "brand:wikidata": "Q4861508"}},
{"type": "Feature", "id": "wpiv5HRrt3E8YwRrgYNK0P0R_3c=", "properties": {"ref": "Presentation High School", "@spider": "barnesnoblecollege", "addr:full": "2281 Plummer Ave", "addr:city": "Jose", "addr:state": "CA", "addr:postcode": "95125", "addr:country": "US", "name": "Presentation High School", "website": "https://www.bncollege.com/campus-stores/", "brand": "Barnes & Noble College", "brand:wikidata": "Q4861508"}},
{"type": "Feature", "id": "uuW_V3Q5ArF8_t_IbPnxCteK404=", "properties": {"ref": "Sacred Heart Cathedral Preparatory", "@spider": "barnesnoblecollege", "addr:full": "1055 Ellis St", "addr:city": "Francisco", "addr:state": "CA", "addr:postcode": "94109", "addr:country": "US", "name": "Sacred Heart Cathedral Preparatory", "website": "https://www.bncollege.com/campus-stores/", "brand": "Barnes & Noble College", "brand:wikidata": "Q4861508"}},
{"type": "Feature", "id": "pF9v-_pcjx3awfzNuZ2BEfxLjGg=", "properties": {"ref": "Saint Francis High School", "@spider": "barnesnoblecollege", "addr:full": "1885 Miramonte Ave", "addr:city": "View", "addr:state": "CA", "addr:postcode": "94040", "addr:country": "US", "name": "Saint Francis High School", "website": "https://www.bncollege.com/campus-stores/", "brand": "Barnes & Noble College", "brand:wikidata": "Q4861508"}},
{"type": "Feature", "id": "BAwhkzdK7Dje0ZGcLDrg_4VVRxk=", "properties": {"ref": "Saint Ignatius College Prep", "@spider": "barnesnoblecollege", "addr:full": "2001 37th Ave", "addr:city": "Francisco", "addr:state": "CA", "addr:postcode": "94116", "addr:country": "US", "name": "Saint Ignatius College Prep", "website": "https://www.bncollege.com/campus-stores/", "brand": "Barnes & Noble College", "brand:wikidata": "Q4861508"}},
{"type": "Feature", "id": "l-ut6XIGMto3rx4p_Q-7ytuywAw=", "properties": {"ref": "San Francisco Theological Seminary", "@spider": "barnesnoblecollege", "addr:full": "105 Seminary Rd", "addr:city": "Anselmo", "addr:state": "CA", "addr:postcode": "94960", "addr:country": "US", "name": "San Francisco Theological Seminary", "website": "https://www.bncollege.com/campus-stores/", "brand": "Barnes & Noble College", "brand:wikidata": "Q4861508"}},
{"type": "Feature", "id": "aO158WUv7b2ILhkMzrcUKQgOoqk=", "properties": {"ref": "San Jose State University", "@spider": "barnesnoblecollege", "addr:full": "211 S 9th St", "addr:city": "Jose", "addr:state": "CA", "addr:postcode": "95112", "addr:country": "US", "name": "San Jose State University", "website": "https://www.bncollege.com/campus-stores/", "brand": "Barnes & Noble College", "brand:wikidata": "Q4861508"}},
{"type": "Feature", "id": "fcsJoTpmEkdfLV9lsLlayI8LiWQ=", "properties": {"ref": "Santa Clara University", "@spider": "barnesnoblecollege", "addr:full": "The Alameda & Market St", "addr:city": "Clara", "addr:state": "CA", "addr:postcode": "95053", "addr:country": "US", "name": "Santa Clara University", "website": "https://www.bncollege.com/campus-stores/", "brand": "Barnes & Noble College", "brand:wikidata": "Q4861508"}},
{"type": "Feature", "id": "AjB1gBSMD0wbLZVbt-2isEJJx-k=", "properties": {"ref": "Santa Fe Christian Schools", "@spider": "barnesnoblecollege", "addr:full": "838 Academy Dr", "addr:city": "Beach", "addr:state": "CA", "addr:postcode": "92075", "addr:country": "US", "name": "Santa Fe Christian Schools", "website": "https://www.bncollege.com/campus-stores/", "brand": "Barnes & Noble College", "brand:wikidata": "Q4861508"}},
{"type": "Feature", "id": "lVFEu8cjiebORKE3fb-yvVmbbA0=", "properties": {"ref": "Sonoma Academy", "@spider": "barnesnoblecollege", "addr:full": "2500 Farmers Ln", "addr:city": "Rosa", "addr:state": "CA", "addr:postcode": "95404", "addr:country": "US", "name": "Sonoma Academy", "website": "https://www.bncollege.com/campus-stores/", "brand": "Barnes & Noble College", "brand:wikidata": "Q4861508"}},
{"type": "Feature", "id": "uhkPibzkV9a4hsNJquukzUTk5H0=", "properties": {"ref": "Sonoma State University", "@spider": "barnesnoblecollege", "addr:full": "1801 E Cotati Ave", "addr:city": "Park", "addr:state": "CA", "addr:postcode": "94928", "addr:country": "US", "name": "Sonoma State University", "website": "https://www.bncollege.com/campus-stores/", "brand": "Barnes & Noble College", "brand:wikidata": "Q4861508"}},
{"type": "Feature", "id": "TKKso3tnsykisdpptfTJzMnRbFk=", "properties": {"ref": "Spring Education Group Inc", "@spider": "barnesnoblecollege", "addr:full": "3800 Blackford Ave", "addr:city": "Jose", "addr:state": "CA", "addr:postcode": "95117", "addr:country": "US", "name": "Spring Education Group Inc", "website": "https://www.bncollege.com/campus-stores/", "brand": "Barnes & Noble College", "brand:wikidata": "Q4861508"}},
{"type": "Feature", "id": "H0SuEk1m4Dc8Z7_45dJhpT_0EAg=", "properties": {"ref": "St. Bernard", "@spider": "barnesnoblecollege", "addr:full": "9100 Falmouth Ave", "addr:city": "Del Rey", "addr:state": "CA", "addr:postcode": "90293", "addr:country": "US", "name": "St. Bernard", "website": "https://www.bncollege.com/campus-stores/", "brand": "Barnes & Noble College", "brand:wikidata": "Q4861508"}},
{"type": "Feature", "id": "bqoxwy38n2VXQx_QNpvYtg_W3S8=", "properties": {"ref": "St. Francis High School \u2013 La Canada", "@spider": "barnesnoblecollege", "addr:full": "200 Foothill Blvd", "addr:city": "Ca\u00f1ada Flintridge", "addr:state": "CA", "addr:postcode": "91011", "addr:country": "US", "name": "St. Francis High School \u2013 La Canada", "website": "https://www.bncollege.com/campus-stores/", "brand": "Barnes & Noble College", "brand:wikidata": "Q4861508"}},
{"type": "Feature", "id": "U0VvPS68U6kINEjhazOyBtwQoO0=", "properties": {"ref": "Stevenson School", "@spider": "barnesnoblecollege", "addr:full": "3152 Forest Lake Rd", "addr:city": "Beach", "addr:state": "CA", "addr:postcode": "93953", "addr:country": "US", "name": "Stevenson School", "website": "https://www.bncollege.com/campus-stores/", "brand": "Barnes & Noble College", "brand:wikidata": "Q4861508"}},
{"type": "Feature", "id": "znWaxijW3xx9EUKV1jbAgiJ9pKA=", "properties": {"ref": "SUM Bible College and Theological Seminary", "@spider": "barnesnoblecollege", "addr:full": "1107 Investment Blvd #290", "addr:city": "Dorado Hills", "addr:state": "CA", "addr:postcode": "95762", "addr:country": "US", "name": "SUM Bible College and Theological Seminary", "website": "https://www.bncollege.com/campus-stores/", "brand": "Barnes & Noble College", "brand:wikidata": "Q4861508"}},
{"type": "Feature", "id": "iUFTTGwBbjsHJStpAUyZGtirjko=", "properties": {"ref": "West Coast University \u2013 Orange County", "@spider": "barnesnoblecollege", "addr:full": "200 Baker St E #201", "addr:city": "Mesa", "addr:state": "CA", "addr:postcode": "92626", "addr:country": "US", "name": "West Coast University \u2013 Orange County", "website": "https://www.bncollege.com/campus-stores/", "brand": "Barnes & Noble College", "brand:wikidata": "Q4861508"}},
{"type": "Feature", "id": "A6Uh5mu6i-ZLauX7gfPTOlUTfLE=", "properties": {"ref": "Whittier Christian High School", "@spider": "barnesnoblecollege", "addr:full": "501 N Beach Blvd", "addr:city": "Habra", "addr:state": "CA", "addr:postcode": "90631", "addr:country": "US", "name": "Whittier Christian High School", "website": "https://www.bncollege.com/campus-stores/", "brand": "Barnes & Noble College", "brand:wikidata": "Q4861508"}},
{"type": "Feature", "id": "XBj0Cqs-JB9aXx9N90IpSC5j37o=", "properties": {"ref": "Windward School", "@spider": "barnesnoblecollege", "addr:full": "11350 Palms Blvd", "addr:city": "Angeles", "addr:state": "CA", "addr:postcode": "90066", "addr:country": "US", "name": "Windward School", "website": "https://www.bncollege.com/campus-stores/", "brand": "Barnes & Noble College", "brand:wikidata": "Q4861508"}},
{"type": "Feature", "id": "WRuyo68bo5VbSnIhX48OELdaRDg=", "properties": {"ref": "Woodside Priory School", "@spider": "barnesnoblecollege", "addr:full": "302 Portola Rd", "addr:city": "Valley", "addr:state": "CA", "addr:postcode": "94028", "addr:country": "US", "name": "Woodside Priory School", "website": "https://www.bncollege.com/campus-stores/", "brand": "Barnes & Noble College", "brand:wikidata": "Q4861508"}},
{"type": "Feature", "id": "NUNuz57qLqqeJMcwfiQzeZiPVks=", "properties": {"ref": "Morgan Community College", "@spider": "barnesnoblecollege", "addr:full": "920 Barlow Rd", "addr:city": "Morgan", "addr:state": "CO", "addr:postcode": "80701", "addr:country": "US", "name": "Morgan Community College", "website": "https://www.bncollege.com/campus-stores/", "brand": "Barnes & Noble College", "brand:wikidata": "Q4861508"}},
{"type": "Feature", "id": "dobWjGTIYOfo_JuLIYd1sNhA8rg=", "properties": {"ref": "Pikes Peak Community College", "@spider": "barnesnoblecollege", "addr:full": "5675 S Academy Blvd", "addr:city": "Springs", "addr:state": "CO", "addr:postcode": "80906", "addr:country": "US", "name": "Pikes Peak Community College", "website": "https://www.bncollege.com/campus-stores/", "brand": "Barnes & Noble College", "brand:wikidata": "Q4861508"}},
{"type": "Feature", "id": "sQtHTfoM2HSB1RvzHpJAQ-w7SJQ=", "properties": {"ref": "Valor Christian High School", "@spider": "barnesnoblecollege", "addr:full": "3775 Grace Blvd", "addr:city": "Ranch", "addr:state": "CO", "addr:postcode": "80126", "addr:country": "US", "name": "Valor Christian High School", "website": "https://www.bncollege.com/campus-stores/", "brand": "Barnes & Noble College", "brand:wikidata": "Q4861508"}},
{"type": "Feature", "id": "lNDmdsWhjxSontMj67SxH6LHZbU=", "properties": {"ref": "Central Connecticut State University", "@spider": "barnesnoblecollege", "addr:full": "105 Ella Grasso Blvd", "addr:city": "Britain", "addr:state": "CT", "addr:postcode": "06053", "addr:country": "US", "name": "Central Connecticut State University", "website": "https://www.bncollege.com/campus-stores/", "brand": "Barnes & Noble College", "brand:wikidata": "Q4861508"}},
{"type": "Feature", "id": "wJi9Im9mFTn6REMosi-W_EBDmQc=", "properties": {"ref": "Charter Oak State College", "@spider": "barnesnoblecollege", "addr:full": "55 Paul Manafort Senior Dr", "addr:city": "Britain", "addr:state": "CT", "addr:postcode": "06053", "addr:country": "US", "name": "Charter Oak State College", "website": "https://www.bncollege.com/campus-stores/", "brand": "Barnes & Noble College", "brand:wikidata": "Q4861508"}},
{"type": "Feature", "id": "-XV4KO9urWjCjRdiLwtHf7yX5zw=", "properties": {"ref": "Northwest Catholic High School", "@spider": "barnesnoblecollege", "addr:full": "29 Wampanoag Dr", "addr:city": "Hartford", "addr:state": "CT", "addr:postcode": "06117", "addr:country": "US", "name": "Northwest Catholic High School", "website": "https://www.bncollege.com/campus-stores/", "brand": "Barnes & Noble College", "brand:wikidata": "Q4861508"}},
{"type": "Feature", "id": "I7YBQ634S4hSvUFeWfKW0FkSOvw=", "properties": {"ref": "Porter and Chester Institute", "@spider": "barnesnoblecollege", "addr:full": "30 Waterchase Dr", "addr:city": "Hill", "addr:state": "CT", "addr:postcode": "06067", "addr:country": "US", "name": "Porter and Chester Institute", "website": "https://www.bncollege.com/campus-stores/", "brand": "Barnes & Noble College", "brand:wikidata": "Q4861508"}},
{"type": "Feature", "id": "--Bqz-1nPJxd_shQ8obxytMYUdM=", "properties": {"ref": "Southern Connecticut State University", "@spider": "barnesnoblecollege", "addr:full": "501 Crescent St", "addr:city": "Haven", "addr:state": "CT", "addr:postcode": "06515", "addr:country": "US", "name": "Southern Connecticut State University", "website": "https://www.bncollege.com/campus-stores/", "brand": "Barnes & Noble College", "brand:wikidata": "Q4861508"}},
{"type": "Feature", "id": "0Km-6m9w9eyWV0BVSPv8p9sFfeI=", "properties": {"ref": "Yale University", "@spider": "barnesnoblecollege", "addr:full": "77 Broadway", "addr:city": "Haven", "addr:state": "CT", "addr:postcode": "06511", "addr:country": "US", "name": "Yale University", "website": "https://www.bncollege.com/campus-stores/", "brand": "Barnes & Noble College", "brand:wikidata": "Q4861508"}},
{"type": "Feature", "id": "XebcyQsRjZJn89hjaaxBYyMRZvE=", "properties": {"ref": "Admiral Farragut Academy", "@spider": "barnesnoblecollege", "addr:full": "501 Park St N", "addr:city": "Petersburg", "addr:state": "FL", "addr:postcode": "33710", "addr:country": "US", "name": "Admiral Farragut Academy", "website": "https://www.bncollege.com/campus-stores/", "brand": "Barnes & Noble College", "brand:wikidata": "Q4861508"}},
{"type": "Feature", "id": "TzrLhHCpyQW3pTV3WgVNtULbAZU=", "properties": {"ref": "American Heritage School \u2013 Palm Beach", "@spider": "barnesnoblecollege", "addr:full": "6200 Linton Blvd", "addr:city": "Beach", "addr:state": "FL", "addr:postcode": "33484", "addr:country": "US", "name": "American Heritage School \u2013 Palm Beach", "website": "https://www.bncollege.com/campus-stores/", "brand": "Barnes & Noble College", "brand:wikidata": "Q4861508"}},
{"type": "Feature", "id": "dqg2_DzIEqwKUk0w-2ZCZhMaAEs=", "properties": {"ref": "Bishop Mclaughlin Catholic High School", "@spider": "barnesnoblecollege", "addr:full": "13651 Hays Rd", "addr:city": "Hills", "addr:state": "FL", "addr:postcode": "34610", "addr:country": "US", "name": "Bishop Mclaughlin Catholic High School", "website": "https://www.bncollege.com/campus-stores/", "brand": "Barnes & Noble College", "brand:wikidata": "Q4861508"}},
{"type": "Feature", "id": "eB07SSQtB4itMOY0V1wXFOkpjwc=", "properties": {"ref": "Broward College", "@spider": "barnesnoblecollege", "addr:full": "1000 Coconut Creek Blvd", "addr:city": "Creek", "addr:state": "FL", "addr:postcode": "33066", "addr:country": "US", "name": "Broward College", "website": "https://www.bncollege.com/campus-stores/", "brand": "Barnes & Noble College", "brand:wikidata": "Q4861508"}},
{"type": "Feature", "id": "dcZVXjLQF3eU7tequ9WBm81knmE=", "properties": {"ref": "Canterbury School of Florida", "@spider": "barnesnoblecollege", "addr:full": "8141 College Pkwy", "addr:city": "Myers", "addr:state": "FL", "addr:postcode": "33919", "addr:country": "US", "name": "Canterbury School of Florida", "website": "https://www.bncollege.com/campus-stores/", "brand": "Barnes & Noble College", "brand:wikidata": "Q4861508"}},
{"type": "Feature", "id": "LSxl9mh14YC-xsa4b9BWUdVvbw8=", "properties": {"ref": "Concord Law School", "@spider": "barnesnoblecollege", "addr:full": "1515 W Cypress Creek Rd", "addr:city": "Lauderdale", "addr:state": "FL", "addr:postcode": "33309", "addr:country": "US", "name": "Concord Law School", "website": "https://www.bncollege.com/campus-stores/", "brand": "Barnes & Noble College", "brand:wikidata": "Q4861508"}},
{"type": "Feature", "id": "H7-5iVfZoDf6LrKeaesqe0u_O7g=", "properties": {"ref": "Eastern Florida State College", "@spider": "barnesnoblecollege", "addr:full": "250 Community College Pkwy SE", "addr:city": "Bay", "addr:state": "FL", "addr:postcode": "32909", "addr:country": "US", "name": "Eastern Florida State College", "website": "https://www.bncollege.com/campus-stores/", "brand": "Barnes & Noble College", "brand:wikidata": "Q4861508"}},
{"type": "Feature", "id": "6bR_dIGgvci6AyFIAlTo7xDbgVg=", "properties": {"ref": "Eckerd College", "@spider": "barnesnoblecollege", "addr:full": "4200 54th Ave S", "addr:city": "Petersburg", "addr:state": "FL", "addr:postcode": "33711", "addr:country": "US", "name": "Eckerd College", "website": "https://www.bncollege.com/campus-stores/", "brand": "Barnes & Noble College", "brand:wikidata": "Q4861508"}},
{"type": "Feature", "id": "8CL5Mi-55-iBH-ETp-Nnu4H4d-o=", "properties": {"ref": "Flagler College", "@spider": "barnesnoblecollege", "addr:full": "107 King St", "addr:city": "Augustine", "addr:state": "FL", "addr:postcode": "32084", "addr:country": "US", "name": "Flagler College", "website": "https://www.bncollege.com/campus-stores/", "brand": "Barnes & Noble College", "brand:wikidata": "Q4861508"}},
{"type": "Feature", "id": "976yUaqs5P22rtG44BcQNm2A_po=", "properties": {"ref": "Florida Gulf Coast University", "@spider": "barnesnoblecollege", "addr:full": "11090 Fgcu Blvd N", "addr:city": "Myers", "addr:state": "FL", "addr:postcode": "33965", "addr:country": "US", "name": "Florida Gulf Coast University", "website": "https://www.bncollege.com/campus-stores/", "brand": "Barnes & Noble College", "brand:wikidata": "Q4861508"}},
{"type": "Feature", "id": "d3wzwS8y4oPqOAK6sQjXX1-Zcak=", "properties": {"ref": "Florida International University", "@spider": "barnesnoblecollege", "addr:full": "3000 NE 145th St", "addr:city": "Miami", "addr:state": "FL", "addr:postcode": "33181", "addr:country": "US", "name": "Florida International University", "website": "https://www.bncollege.com/campus-stores/", "brand": "Barnes & Noble College", "brand:wikidata": "Q4861508"}},
{"type": "Feature", "id": "wU3DPlyWyzh9y9pAjQ-QCpNzZyk=", "properties": {"ref": "Polk State College", "@spider": "barnesnoblecollege", "addr:full": "999 Ave H NE", "addr:city": "Haven", "addr:state": "FL", "addr:postcode": "33881", "addr:country": "US", "name": "Polk State College", "website": "https://www.bncollege.com/campus-stores/", "brand": "Barnes & Noble College", "brand:wikidata": "Q4861508"}},
{"type": "Feature", "id": "GEHu4PA67EuKz_-8XjXD5eW-WMU=", "properties": {"ref": "Saint Johns Country Day School", "@spider": "barnesnoblecollege", "addr:full": "3100 Doctors Lake Dr", "addr:city": "Park", "addr:state": "FL", "addr:postcode": "32073", "addr:country": "US", "name": "Saint Johns Country Day School", "website": "https://www.bncollege.com/campus-stores/", "brand": "Barnes & Noble College", "brand:wikidata": "Q4861508"}},
{"type": "Feature", "id": "ANd2jRGBbVml1hVE99jEPma0bCA=", "properties": {"ref": "Saint Leo University", "@spider": "barnesnoblecollege", "addr:full": "33701 State Rd 52", "addr:city": "Leo", "addr:state": "FL", "addr:postcode": "33574", "addr:country": "US", "name": "Saint Leo University", "website": "https://www.bncollege.com/campus-stores/", "brand": "Barnes & Noble College", "brand:wikidata": "Q4861508"}},
{"type": "Feature", "id": "kYRggdZTyyrZ2i6FaqzAhJnv-UI=", "properties": {"ref": "Seminole State College of Florida", "@spider": "barnesnoblecollege", "addr:full": "850 S State Rd 434", "addr:city": "Springs", "addr:state": "FL", "addr:postcode": "32714", "addr:country": "US", "name": "Seminole State College of Florida", "website": "https://www.bncollege.com/campus-stores/", "brand": "Barnes & Noble College", "brand:wikidata": "Q4861508"}},
{"type": "Feature", "id": "_vnOjQS5aNABJBUVCm4mzPg3n2U=", "properties": {"ref": "St. Joseph Academy", "@spider": "barnesnoblecollege", "addr:full": "155 State Rd 207", "addr:city": "Augustine", "addr:state": "FL", "addr:postcode": "32084", "addr:country": "US", "name": "St. Joseph Academy", "website": "https://www.bncollege.com/campus-stores/", "brand": "Barnes & Noble College", "brand:wikidata": "Q4861508"}},
{"type": "Feature", "id": "wIDQT97QPgGHlojD-D6g1a7-MbM=", "properties": {"ref": "St. Petersburg College", "@spider": "barnesnoblecollege", "addr:full": "674 E Klosterman Rd", "addr:city": "Springs", "addr:state": "FL", "addr:postcode": "34689", "addr:country": "US", "name": "St. Petersburg College", "website": "https://www.bncollege.com/campus-stores/", "brand": "Barnes & Noble College", "brand:wikidata": "Q4861508"}},
{"type": "Feature", "id": "sLHfC7Engt9-V9IlffEKlq43rLk=", "properties": {"ref": "Trinity Prep", "@spider": "barnesnoblecollege", "addr:full": "5700 Trinity Prep Ln", "addr:city": "Park", "addr:state": "FL", "addr:postcode": "32792", "addr:country": "US", "name": "Trinity Prep", "website": "https://www.bncollege.com/campus-stores/", "brand": "Barnes & Noble College", "brand:wikidata": "Q4861508"}},
{"type": "Feature", "id": "LSpO8IGDjgQJPjGY3EmyDRBs2XQ=", "properties": {"ref": "Brewton-Parker College", "@spider": "barnesnoblecollege", "addr:full": "Elise Dr", "addr:city": "Vernon", "addr:state": "GA", "addr:postcode": "30445", "addr:country": "US", "name": "Brewton-Parker College", "website": "https://www.bncollege.com/campus-stores/", "brand": "Barnes & Noble College", "brand:wikidata": "Q4861508"}},
{"type": "Feature", "id": "6J7DSbAhvZw7W0XxjMbca38Qseg=", "properties": {"ref": "Covenant College", "@spider": "barnesnoblecollege", "addr:full": "14049 Scenic Hwy", "addr:city": "Mountain", "addr:state": "GA", "addr:postcode": "30750", "addr:country": "US", "name": "Covenant College", "website": "https://www.bncollege.com/campus-stores/", "brand": "Barnes & Noble College", "brand:wikidata": "Q4861508"}},
{"type": "Feature", "id": "izWr9KzbdMsfsEpNHjJnXYgfDOk=", "properties": {"ref": "Woodward Academy", "@spider": "barnesnoblecollege", "addr:full": "1662 W Rugby Ave", "addr:city": "Park", "addr:state": "GA", "addr:postcode": "30337", "addr:country": "US", "name": "Woodward Academy", "website": "https://www.bncollege.com/campus-stores/", "brand": "Barnes & Noble College", "brand:wikidata": "Q4861508"}},
{"type": "Feature", "id": "Eu6wtiqzytl7lvay_PWZgF1dOyc=", "properties": {"ref": "Idaho State University", "@spider": "barnesnoblecollege", "addr:full": "1784 Science Center Dr", "addr:city": "Falls", "addr:state": "ID", "addr:postcode": "83402", "addr:country": "US", "name": "Idaho State University", "website": "https://www.bncollege.com/campus-stores/", "brand": "Barnes & Noble College", "brand:wikidata": "Q4861508"}},
{"type": "Feature", "id": "1iSs-dQ9n7OrLO-pqAPqh0rVeec=", "properties": {"ref": "Concordia University-Chicago", "@spider": "barnesnoblecollege", "addr:full": "7400 Augusta St", "addr:city": "Forest", "addr:state": "IL", "addr:postcode": "60305", "addr:country": "US", "name": "Concordia University-Chicago", "website": "https://www.bncollege.com/campus-stores/", "brand": "Barnes & Noble College", "brand:wikidata": "Q4861508"}},
{"type": "Feature", "id": "p8wpbjODjNNNWltGbTWZE1qD49Q=", "properties": {"ref": "Fenwick High School", "@spider": "barnesnoblecollege", "addr:full": "505 Washington Blvd", "addr:city": "Park", "addr:state": "IL", "addr:postcode": "60302", "addr:country": "US", "name": "Fenwick High School", "website": "https://www.bncollege.com/campus-stores/", "brand": "Barnes & Noble College", "brand:wikidata": "Q4861508"}},
{"type": "Feature", "id": "gcToAN5DELqGMX--AhCp9PM8uRE=", "properties": {"ref": "Prairie State College", "@spider": "barnesnoblecollege", "addr:full": "202 S Halsted St", "addr:city": "Heights", "addr:state": "IL", "addr:postcode": "60411", "addr:country": "US", "name": "Prairie State College", "website": "https://www.bncollege.com/campus-stores/", "brand": "Barnes & Noble College", "brand:wikidata": "Q4861508"}},
{"type": "Feature", "id": "2oPBrcFSCZ0rWlEOYEC3RLw5TjA=", "properties": {"ref": "Rosalind Franklin University of Medicine & Science", "@spider": "barnesnoblecollege", "addr:full": "3333 Green Bay Rd", "addr:city": "Chicago", "addr:state": "IL", "addr:postcode": "60088", "addr:country": "US", "name": "Rosalind Franklin University of Medicine & Science", "website": "https://www.bncollege.com/campus-stores/", "brand": "Barnes & Noble College", "brand:wikidata": "Q4861508"}},
{"type": "Feature", "id": "xJcMcdf29uCyr1JJc3LbZOWJIjI=", "properties": {"ref": "Southwestern Illinois College", "@spider": "barnesnoblecollege", "addr:full": "4950 Maryville Rd", "addr:city": "City", "addr:state": "IL", "addr:postcode": "62040", "addr:country": "US", "name": "Southwestern Illinois College", "website": "https://www.bncollege.com/campus-stores/", "brand": "Barnes & Noble College", "brand:wikidata": "Q4861508"}},
{"type": "Feature", "id": "jo08Xai9jFNE6anDwZ6HHkFbB6c=", "properties": {"ref": "Trinity College of Nursing & Health Sciences", "@spider": "barnesnoblecollege", "addr:full": "2122 25th Ave", "addr:city": "Island", "addr:state": "IL", "addr:postcode": "61201", "addr:country": "US", "name": "Trinity College of Nursing & Health Sciences", "website": "https://www.bncollege.com/campus-stores/", "brand": "Barnes & Noble College", "brand:wikidata": "Q4861508"}},
{"type": "Feature", "id": "LXg1oLFjanzT7WQS_tyLAm9U3CE=", "properties": {"ref": "Indiana State University", "@spider": "barnesnoblecollege", "addr:full": "25 N 4th St", "addr:city": "Haute", "addr:state": "IN", "addr:postcode": "47807", "addr:country": "US", "name": "Indiana State University", "website": "https://www.bncollege.com/campus-stores/", "brand": "Barnes & Noble College", "brand:wikidata": "Q4861508"}},
{"type": "Feature", "id": "6MKVufWp21QlqEH5Zz6bz5-E1i8=", "properties": {"ref": "Indiana University Southeast", "@spider": "barnesnoblecollege", "addr:full": "4201 Grant Line Rd", "addr:city": "Albany", "addr:state": "IN", "addr:postcode": "47150", "addr:country": "US", "name": "Indiana University Southeast", "website": "https://www.bncollege.com/campus-stores/", "brand": "Barnes & Noble College", "brand:wikidata": "Q4861508"}},
{"type": "Feature", "id": "nc5rlMo8glzVaejh1kxJhmNTg1c=", "properties": {"ref": "Ivy Tech Community College-Fort Wayne", "@spider": "barnesnoblecollege", "addr:full": "3701 Dean Dr", "addr:city": "Wayne", "addr:state": "IN", "addr:postcode": "46835", "addr:country": "US", "name": "Ivy Tech Community College-Fort Wayne", "website": "https://www.bncollege.com/campus-stores/", "brand": "Barnes & Noble College", "brand:wikidata": "Q4861508"}},
{"type": "Feature", "id": "JK84Mmir-mYX8KX67J1ZIuknrcA=", "properties": {"ref": "Ivy Tech Community College-Lake County", "@spider": "barnesnoblecollege", "addr:full": "410 E Columbus Dr", "addr:city": "Chicago", "addr:state": "IN", "addr:postcode": "46312", "addr:country": "US", "name": "Ivy Tech Community College-Lake County", "website": "https://www.bncollege.com/campus-stores/", "brand": "Barnes & Noble College", "brand:wikidata": "Q4861508"}},
{"type": "Feature", "id": "EQ_J2ITzeATbpZE3LStNXi4B018=", "properties": {"ref": "Ivy Tech Community College-South Bend/Elkhart", "@spider": "barnesnoblecollege", "addr:full": "220 Dean Johnson Blvd", "addr:city": "Bend", "addr:state": "IN", "addr:postcode": "46601", "addr:country": "US", "name": "Ivy Tech Community College-South Bend/Elkhart", "website": "https://www.bncollege.com/campus-stores/", "brand": "Barnes & Noble College", "brand:wikidata": "Q4861508"}},
{"type": "Feature", "id": "4sRK0mGPAGVSDdrvZb5KFmkxkr0=", "properties": {"ref": "Ivy Tech Community College-Terre Haute", "@spider": "barnesnoblecollege", "addr:full": "8000 Education Dr", "addr:city": "Haute", "addr:state": "IN", "addr:postcode": "47802", "addr:country": "US", "name": "Ivy Tech Community College-Terre Haute", "website": "https://www.bncollege.com/campus-stores/", "brand": "Barnes & Noble College", "brand:wikidata": "Q4861508"}},
{"type": "Feature", "id": "oUPGpG0YxeTyTI42a7oPofUte8U=", "properties": {"ref": "Morningside College", "@spider": "barnesnoblecollege", "addr:full": "3609 Peters Ave", "addr:city": "City", "addr:state": "IA", "addr:postcode": "51106", "addr:country": "US", "name": "Morningside College", "website": "https://www.bncollege.com/campus-stores/", "brand": "Barnes & Noble College", "brand:wikidata": "Q4861508"}},
{"type": "Feature", "id": "Hmc7kdROrJlB7DDhHhxOv1jMZSQ=", "properties": {"ref": "University of Iowa", "@spider": "barnesnoblecollege", "addr:full": "8 S Clinton St", "addr:city": "City", "addr:state": "IA", "addr:postcode": "52240", "addr:country": "US", "name": "University of Iowa", "website": "https://www.bncollege.com/campus-stores/", "brand": "Barnes & Noble College", "brand:wikidata": "Q4861508"}},
{"type": "Feature", "id": "ZIbgy2Gv8NrursnXD6NBFcpPkyk=", "properties": {"ref": "Waldorf University", "@spider": "barnesnoblecollege", "addr:full": "106 S 6th St", "addr:city": "City", "addr:state": "IA", "addr:postcode": "50436", "addr:country": "US", "name": "Waldorf University", "website": "https://www.bncollege.com/campus-stores/", "brand": "Barnes & Noble College", "brand:wikidata": "Q4861508"}},
{"type": "Feature", "id": "tHgE9cQgvEv9QLkZlKTMvx5ELyc=", "properties": {"ref": "Northern Kentucky University", "@spider": "barnesnoblecollege", "addr:full": "1 Louie B Nunn Dr", "addr:city": "Heights", "addr:state": "KY", "addr:postcode": "41076", "addr:country": "US", "name": "Northern Kentucky University", "website": "https://www.bncollege.com/campus-stores/", "brand": "Barnes & Noble College", "brand:wikidata": "Q4861508"}},
{"type": "Feature", "id": "2GFZphVptg3HoRtekHV9EVkbizI=", "properties": {"ref": "Southcentral Kentucky Community & Technical College", "@spider": "barnesnoblecollege", "addr:full": "1845 Loop Ave", "addr:city": "Green", "addr:state": "KY", "addr:postcode": "42101", "addr:country": "US", "name": "Southcentral Kentucky Community & Technical College", "website": "https://www.bncollege.com/campus-stores/", "brand": "Barnes & Noble College", "brand:wikidata": "Q4861508"}},
{"type": "Feature", "id": "bDe7OEZ3Bk8Xc7uq__Rb4fRNIzo=", "properties": {"ref": "The Walden School", "@spider": "barnesnoblecollege", "addr:full": "4238 Westport Rd", "addr:city": "Matthews", "addr:state": "KY", "addr:postcode": "40207", "addr:country": "US", "name": "The Walden School", "website": "https://www.bncollege.com/campus-stores/", "brand": "Barnes & Noble College", "brand:wikidata": "Q4861508"}},
{"type": "Feature", "id": "XjyM3lG4oa21t5rt-gBGYZlGwHY=", "properties": {"ref": "Western Kentucky University", "@spider": "barnesnoblecollege", "addr:full": "1906 College Heights Blvd", "addr:city": "Green", "addr:state": "KY", "addr:postcode": "42101", "addr:country": "US", "name": "Western Kentucky University", "website": "https://www.bncollege.com/campus-stores/", "brand": "Barnes & Noble College", "brand:wikidata": "Q4861508"}},
{"type": "Feature", "id": "W1o9lv1-GAERH6lqCTYs3B7hb9g=", "properties": {"ref": "Brother Martin High School", "@spider": "barnesnoblecollege", "addr:full": "4401 Elysian Fields Ave", "addr:city": "Orleans", "addr:state": "LA", "addr:postcode": "70122", "addr:country": "US", "name": "Brother Martin High School", "website": "https://www.bncollege.com/campus-stores/", "brand": "Barnes & Noble College", "brand:wikidata": "Q4861508"}},
{"type": "Feature", "id": "mvaiFeEc-Ae9Zu94m0C5z07H68E=", "properties": {"ref": "Cabrini High School", "@spider": "barnesnoblecollege", "addr:full": "1400 Moss St", "addr:city": "Orleans", "addr:state": "LA", "addr:postcode": "70119", "addr:country": "US", "name": "Cabrini High School", "website": "https://www.bncollege.com/campus-stores/", "brand": "Barnes & Noble College", "brand:wikidata": "Q4861508"}},
{"type": "Feature", "id": "TeTLqSoi-A-Gl_lQaDarVr8aeog=", "properties": {"ref": "De La Salle High School", "@spider": "barnesnoblecollege", "addr:full": "5300 St Charles Ave", "addr:city": "Orleans", "addr:state": "LA", "addr:postcode": "70115", "addr:country": "US", "name": "De La Salle High School", "website": "https://www.bncollege.com/campus-stores/", "brand": "Barnes & Noble College", "brand:wikidata": "Q4861508"}},
{"type": "Feature", "id": "OxQSDFyNlpDwF9m_-5AB19E4ghg=", "properties": {"ref": "Delgado Community College", "@spider": "barnesnoblecollege", "addr:full": "2600 General Meyer Ave", "addr:city": "Orleans", "addr:state": "LA", "addr:postcode": "70114", "addr:country": "US", "name": "Delgado Community College", "website": "https://www.bncollege.com/campus-stores/", "brand": "Barnes & Noble College", "brand:wikidata": "Q4861508"}},
{"type": "Feature", "id": "vHn-sAUPUAFGzMOH--FHAZ2qdZs=", "properties": {"ref": "Franciscan Missionaries of Our Lady University", "@spider": "barnesnoblecollege", "addr:full": "5414 Brittany Dr a", "addr:city": "Rouge", "addr:state": "LA", "addr:postcode": "70808", "addr:country": "US", "name": "Franciscan Missionaries of Our Lady University", "website": "https://www.bncollege.com/campus-stores/", "brand": "Barnes & Noble College", "brand:wikidata": "Q4861508"}},
{"type": "Feature", "id": "BY3ZHtl9jczvt3xEbYsq-ivtBZg=", "properties": {"ref": "Holy Cross School", "@spider": "barnesnoblecollege", "addr:full": "4950 Dauphine St", "addr:city": "Orleans", "addr:state": "LA", "addr:postcode": "70117", "addr:country": "US", "name": "Holy Cross School", "website": "https://www.bncollege.com/campus-stores/", "brand": "Barnes & Noble College", "brand:wikidata": "Q4861508"}},
{"type": "Feature", "id": "_hHNMxCF-cF7XhilQnBLwxbt7VI=", "properties": {"ref": "Isidore Newman School", "@spider": "barnesnoblecollege", "addr:full": "1903 Jefferson Ave", "addr:city": "Orleans", "addr:state": "LA", "addr:postcode": "70115", "addr:country": "US", "name": "Isidore Newman School", "website": "https://www.bncollege.com/campus-stores/", "brand": "Barnes & Noble College", "brand:wikidata": "Q4861508"}},
{"type": "Feature", "id": "WOZ-NxMG9Smpc7jBbzxuT7c-p3M=", "properties": {"ref": "Jesuit High School of New Orleans", "@spider": "barnesnoblecollege", "addr:full": "4133 Banks St", "addr:city": "Orleans", "addr:state": "LA", "addr:postcode": "70119", "addr:country": "US", "name": "Jesuit High School of New Orleans", "website": "https://www.bncollege.com/campus-stores/", "brand": "Barnes & Noble College", "brand:wikidata": "Q4861508"}},
{"type": "Feature", "id": "AGviRakA2fxtnYX8AwXCtCBB7a8=", "properties": {"ref": "Louisiana State University", "@spider": "barnesnoblecollege", "addr:full": "Highland @ Union Square - N", "addr:city": "Rouge", "addr:state": "LA", "addr:postcode": "70802", "addr:country": "US", "name": "Louisiana State University", "website": "https://www.bncollege.com/campus-stores/", "brand": "Barnes & Noble College", "brand:wikidata": "Q4861508"}},
{"type": "Feature", "id": "RVsG_wovHr13KP_Lm8StYrd1T3s=", "properties": {"ref": "Loyola University New Orleans", "@spider": "barnesnoblecollege", "addr:full": "Danna Student Center", "addr:city": "Orleans", "addr:state": "LA", "addr:postcode": "70118", "addr:country": "US", "name": "Loyola University New Orleans", "website": "https://www.bncollege.com/campus-stores/", "brand": "Barnes & Noble College", "brand:wikidata": "Q4861508"}},
{"type": "Feature", "id": "V4QHuemTKDD_lppK_lSHcAceDD8=", "properties": {"ref": "Mount Carmel Academy", "@spider": "barnesnoblecollege", "addr:full": "7027 Milne Blvd", "addr:city": "Orleans", "addr:state": "LA", "addr:postcode": "70124", "addr:country": "US", "name": "Mount Carmel Academy", "website": "https://www.bncollege.com/campus-stores/", "brand": "Barnes & Noble College", "brand:wikidata": "Q4861508"}},
{"type": "Feature", "id": "2s50UvuJuweJIkGRvMR9KfesOv4=", "properties": {"ref": "St. Mary\u2019s Dominican High School", "@spider": "barnesnoblecollege", "addr:full": "7701 Walmsley Ave", "addr:city": "Orleans", "addr:state": "LA", "addr:postcode": "70125", "addr:country": "US", "name": "St. Mary\u2019s Dominican High School", "website": "https://www.bncollege.com/campus-stores/", "brand": "Barnes & Noble College", "brand:wikidata": "Q4861508"}},
{"type": "Feature", "id": "TrlT9GKOyWnufKT2izZDzXAgV6g=", "properties": {"ref": "Ursuline Academy of New Orleans", "@spider": "barnesnoblecollege", "addr:full": "2635 State St", "addr:city": "Orleans", "addr:state": "LA", "addr:postcode": "70118", "addr:country": "US", "name": "Ursuline Academy of New Orleans", "website": "https://www.bncollege.com/campus-stores/", "brand": "Barnes & Noble College", "brand:wikidata": "Q4861508"}},
{"type": "Feature", "id": "QoPG12ebRz7S9EqmTLEZmVJt58M=", "properties": {"ref": "Xavier University of Louisiana", "@spider": "barnesnoblecollege", "addr:full": "4980 Dixon St", "addr:city": "Orleans", "addr:state": "LA", "addr:postcode": "70125", "addr:country": "US", "name": "Xavier University of Louisiana", "website": "https://www.bncollege.com/campus-stores/", "brand": "Barnes & Noble College", "brand:wikidata": "Q4861508"}},
{"type": "Feature", "id": "LTCjyjEcydJLAzIP2ic95_vYWOE=", "properties": {"ref": "Northern Maine Community College", "@spider": "barnesnoblecollege", "addr:full": "33 Edgemont Dr", "addr:city": "Isle", "addr:state": "ME", "addr:postcode": "04769", "addr:country": "US", "name": "Northern Maine Community College", "website": "https://www.bncollege.com/campus-stores/", "brand": "Barnes & Noble College", "brand:wikidata": "Q4861508"}},
{"type": "Feature", "id": "YKKpTAsZEZ4nI1aPS8bh1rJrltw=", "properties": {"ref": "Southern Maine Community College", "@spider": "barnesnoblecollege", "addr:full": "2 Fort Rd", "addr:city": "Portland", "addr:state": "ME", "addr:postcode": "04106", "addr:country": "US", "name": "Southern Maine Community College", "website": "https://www.bncollege.com/campus-stores/", "brand": "Barnes & Noble College", "brand:wikidata": "Q4861508"}},
{"type": "Feature", "id": "87JPiaYJ3LlT1MLNo8Ktf2ZD5YI=", "properties": {"ref": "Cecil College", "@spider": "barnesnoblecollege", "addr:full": "1 Seahawk Dr", "addr:city": "East", "addr:state": "MD", "addr:postcode": "21901", "addr:country": "US", "name": "Cecil College", "website": "https://www.bncollege.com/campus-stores/", "brand": "Barnes & Noble College", "brand:wikidata": "Q4861508"}},
{"type": "Feature", "id": "DOkJw7IUSqghRBTgd5DpbIw1p30=", "properties": {"ref": "Chesapeake College", "@spider": "barnesnoblecollege", "addr:full": "1000 College Cir", "addr:city": "Mills", "addr:state": "MD", "addr:postcode": "21679", "addr:country": "US", "name": "Chesapeake College", "website": "https://www.bncollege.com/campus-stores/", "brand": "Barnes & Noble College", "brand:wikidata": "Q4861508"}},
{"type": "Feature", "id": "iUMpev5XpZEOnoFGL3vXuQ1Y69Q=", "properties": {"ref": "Garrison Forest School", "@spider": "barnesnoblecollege", "addr:full": "300 Garrison Forest Rd", "addr:city": "Mills", "addr:state": "MD", "addr:postcode": "21117", "addr:country": "US", "name": "Garrison Forest School", "website": "https://www.bncollege.com/campus-stores/", "brand": "Barnes & Noble College", "brand:wikidata": "Q4861508"}},
{"type": "Feature", "id": "PteZob2az5KHuVQ859YTJClC1Ms=", "properties": {"ref": "Glenelg Country School", "@spider": "barnesnoblecollege", "addr:full": "12793 Folly Quarter Rd", "addr:city": "City", "addr:state": "MD", "addr:postcode": "21042", "addr:country": "US", "name": "Glenelg Country School", "website": "https://www.bncollege.com/campus-stores/", "brand": "Barnes & Noble College", "brand:wikidata": "Q4861508"}},
{"type": "Feature", "id": "Oe8tyg4OO3nMsjX66NRi-mPHzTM=", "properties": {"ref": "University of Maryland College Park", "@spider": "barnesnoblecollege", "addr:full": "versity Book Center/ B&N #370 Stamp Student Union Building #163", "addr:city": "Park", "addr:state": "MD", "addr:postcode": "20742", "addr:country": "US", "name": "University of Maryland College Park", "website": "https://www.bncollege.com/campus-stores/", "brand": "Barnes & Noble College", "brand:wikidata": "Q4861508"}},
{"type": "Feature", "id": "2Y4OKmGNRRYk-5fDe-dAPOMM5cI=", "properties": {"ref": "University of Maryland Eastern Shore", "@spider": "barnesnoblecollege", "addr:full": "30665 College Backbone Rd", "addr:city": "Anne", "addr:state": "MD", "addr:postcode": "21853", "addr:country": "US", "name": "University of Maryland Eastern Shore", "website": "https://www.bncollege.com/campus-stores/", "brand": "Barnes & Noble College", "brand:wikidata": "Q4861508"}},
{"type": "Feature", "id": "j09DN7gy9mHdDA1izZ--fP3eEjs=", "properties": {"ref": "Lasell University", "@spider": "barnesnoblecollege", "addr:full": "220 Woodland Rd", "addr:city": "Hill", "addr:state": "MA", "addr:postcode": "02467", "addr:country": "US", "name": "Lasell University", "website": "https://www.bncollege.com/campus-stores/", "brand": "Barnes & Noble College", "brand:wikidata": "Q4861508"}},
{"type": "Feature", "id": "mHQvzxJBDdkCfWwI4dIBVUzQANA=", "properties": {"ref": "Andrews University", "@spider": "barnesnoblecollege", "addr:full": "4245 Administration Dr", "addr:city": "Springs", "addr:state": "MI", "addr:postcode": "49103", "addr:country": "US", "name": "Andrews University", "website": "https://www.bncollege.com/campus-stores/", "brand": "Barnes & Noble College", "brand:wikidata": "Q4861508"}},
{"type": "Feature", "id": "zdzClJtD4Xv12jJ-kvtHEVRw31Q=", "properties": {"ref": "Central Michigan University", "@spider": "barnesnoblecollege", "addr:full": "250 E Bellows St", "addr:city": "Pleasant", "addr:state": "MI", "addr:postcode": "48858", "addr:country": "US", "name": "Central Michigan University", "website": "https://www.bncollege.com/campus-stores/", "brand": "Barnes & Noble College", "brand:wikidata": "Q4861508"}},
{"type": "Feature", "id": "N18fH1O78ImqvmRcfO_R4FWQW1s=", "properties": {"ref": "Cranbrook Schools", "@spider": "barnesnoblecollege", "addr:full": "39221 Woodward Ave", "addr:city": "Hills", "addr:state": "MI", "addr:postcode": "48304", "addr:country": "US", "name": "Cranbrook Schools", "website": "https://www.bncollege.com/campus-stores/", "brand": "Barnes & Noble College", "brand:wikidata": "Q4861508"}},
{"type": "Feature", "id": "cgwmWS1q_Ian7hLqfjt-K4P2j4Y=", "properties": {"ref": "Detroit Country Day School", "@spider": "barnesnoblecollege", "addr:full": "22305 W 13 Mile Rd", "addr:city": "Hills", "addr:state": "MI", "addr:postcode": "48025", "addr:country": "US", "name": "Detroit Country Day School", "website": "https://www.bncollege.com/campus-stores/", "brand": "Barnes & Noble College", "brand:wikidata": "Q4861508"}},
{"type": "Feature", "id": "Lmkx3av1q2waUO87NqIh3jK0d6w=", "properties": {"ref": "Emerson School", "@spider": "barnesnoblecollege", "addr:full": "5425 Scio Church Rd", "addr:city": "Arbor", "addr:state": "MI", "addr:postcode": "48103", "addr:country": "US", "name": "Emerson School", "website": "https://www.bncollege.com/campus-stores/", "brand": "Barnes & Noble College", "brand:wikidata": "Q4861508"}},
{"type": "Feature", "id": "iZz2MYFpeSnHFB1KMCEMFKX4hAo=", "properties": {"ref": "Everest Collegiate High School and Academy", "@spider": "barnesnoblecollege", "addr:full": "5935 Clarkston Rd", "addr:city": "of Clarkston", "addr:state": "MI", "addr:postcode": "48348", "addr:country": "US", "name": "Everest Collegiate High School and Academy", "website": "https://www.bncollege.com/campus-stores/", "brand": "Barnes & Noble College", "brand:wikidata": "Q4861508"}},
{"type": "Feature", "id": "6zqvYpd72uAeTendDd_8jCWryZk=", "properties": {"ref": "Greenhills School", "@spider": "barnesnoblecollege", "addr:full": "850 Greenhills Dr", "addr:city": "Arbor", "addr:state": "MI", "addr:postcode": "48105", "addr:country": "US", "name": "Greenhills School", "website": "https://www.bncollege.com/campus-stores/", "brand": "Barnes & Noble College", "brand:wikidata": "Q4861508"}},
{"type": "Feature", "id": "kSM9xIkM-dMGMvAiVMrSK46N34w=", "properties": {"ref": "Lake Michigan College", "@spider": "barnesnoblecollege", "addr:full": "2755 E Napier Ave", "addr:city": "Harbor", "addr:state": "MI", "addr:postcode": "49022", "addr:country": "US", "name": "Lake Michigan College", "website": "https://www.bncollege.com/campus-stores/", "brand": "Barnes & Noble College", "brand:wikidata": "Q4861508"}},
{"type": "Feature", "id": "Km5Sx4x0H0T-niFVtpPo2gzPcgc=", "properties": {"ref": "Lake Superior State University", "@spider": "barnesnoblecollege", "addr:full": "1000 College Dr", "addr:city": "Ste. Marie", "addr:state": "MI", "addr:postcode": "49783", "addr:country": "US", "name": "Lake Superior State University", "website": "https://www.bncollege.com/campus-stores/", "brand": "Barnes & Noble College", "brand:wikidata": "Q4861508"}},
{"type": "Feature", "id": "S6Si-bB7IdIvH5T2XmxwYi-F1yY=", "properties": {"ref": "Marian High School", "@spider": "barnesnoblecollege", "addr:full": "7225 Lahser Rd", "addr:city": "Hills", "addr:state": "MI", "addr:postcode": "48301", "addr:country": "US", "name": "Marian High School", "website": "https://www.bncollege.com/campus-stores/", "brand": "Barnes & Noble College", "brand:wikidata": "Q4861508"}},
{"type": "Feature", "id": "HoHnwcsx1KuhWvwzapQGpjuomTc=", "properties": {"ref": "Mercy High School", "@spider": "barnesnoblecollege", "addr:full": "29300 W Eleven Mile Rd", "addr:city": "Hills", "addr:state": "MI", "addr:postcode": "48334", "addr:country": "US", "name": "Mercy High School", "website": "https://www.bncollege.com/campus-stores/", "brand": "Barnes & Noble College", "brand:wikidata": "Q4861508"}},
{"type": "Feature", "id": "PR8jLH_CHJXGSqjGO9kvNZEwkQ4=", "properties": {"ref": "Mid Michigan College", "@spider": "barnesnoblecollege", "addr:full": "2600 S Summerton Rd", "addr:city": "Pleasant", "addr:state": "MI", "addr:postcode": "48858", "addr:country": "US", "name": "Mid Michigan College", "website": "https://www.bncollege.com/campus-stores/", "brand": "Barnes & Noble College", "brand:wikidata": "Q4861508"}},
{"type": "Feature", "id": "yG7IpWbDF8QdSORr45W62oIjMNI=", "properties": {"ref": "Our Lady of the Lakes High School", "@spider": "barnesnoblecollege", "addr:full": "5495 Dixie Hwy", "addr:city": "Twp", "addr:state": "MI", "addr:postcode": "48329", "addr:country": "US", "name": "Our Lady of the Lakes High School", "website": "https://www.bncollege.com/campus-stores/", "brand": "Barnes & Noble College", "brand:wikidata": "Q4861508"}},
{"type": "Feature", "id": "MVHrTqi5vZtvq7hJ3XEJ7vmJU80=", "properties": {"ref": "Rochester University", "@spider": "barnesnoblecollege", "addr:full": "800 W Avon Rd", "addr:city": "Hills", "addr:state": "MI", "addr:postcode": "48307", "addr:country": "US", "name": "Rochester University", "website": "https://www.bncollege.com/campus-stores/", "brand": "Barnes & Noble College", "brand:wikidata": "Q4861508"}},
{"type": "Feature", "id": "nmPs9fcCs6MQNb6er_atR80uLhc=", "properties": {"ref": "Saginaw Valley State University", "@spider": "barnesnoblecollege", "addr:full": "7400 Bay Rd", "addr:city": "Center", "addr:state": "MI", "addr:postcode": "48710", "addr:country": "US", "name": "Saginaw Valley State University", "website": "https://www.bncollege.com/campus-stores/", "brand": "Barnes & Noble College", "brand:wikidata": "Q4861508"}},
{"type": "Feature", "id": "CJ9FgOe26cZU8Q9QftWASfswHks=", "properties": {"ref": "Shrine Catholic Schools", "@spider": "barnesnoblecollege", "addr:full": "3500 W 13 Mile Rd", "addr:city": "Oak", "addr:state": "MI", "addr:postcode": "48073", "addr:country": "US", "name": "Shrine Catholic Schools", "website": "https://www.bncollege.com/campus-stores/", "brand": "Barnes & Noble College", "brand:wikidata": "Q4861508"}},
{"type": "Feature", "id": "SWNRrKESgGDsoAMNg6P6hPPQLGo=", "properties": {"ref": "The Roeper School", "@spider": "barnesnoblecollege", "addr:full": "41190 Woodward Ave", "addr:city": "Hills", "addr:state": "MI", "addr:postcode": "48304", "addr:country": "US", "name": "The Roeper School", "website": "https://www.bncollege.com/campus-stores/", "brand": "Barnes & Noble College", "brand:wikidata": "Q4861508"}},
{"type": "Feature", "id": "kXLEo3DrLVBIk9fiCjwgouD9Rzs=", "properties": {"ref": "University Liggett School", "@spider": "barnesnoblecollege", "addr:full": "1045 Cook Rd", "addr:city": "Pointe Woods", "addr:state": "MI", "addr:postcode": "48236", "addr:country": "US", "name": "University Liggett School", "website": "https://www.bncollege.com/campus-stores/", "brand": "Barnes & Noble College", "brand:wikidata": "Q4861508"}},
{"type": "Feature", "id": "3QXZFHubsrduV2dA6xFSreopYks=", "properties": {"ref": "University of Michigan", "@spider": "barnesnoblecollege", "addr:full": "2101 Bonisteel Blvd", "addr:city": "Arbor", "addr:state": "MI", "addr:postcode": "48109", "addr:country": "US", "name": "University of Michigan", "website": "https://www.bncollege.com/campus-stores/", "brand": "Barnes & Noble College", "brand:wikidata": "Q4861508"}},
{"type": "Feature", "id": "_Ls5p2tp5aWEXOQ7tl3sS1rr828=", "properties": {"ref": "Washtenaw Community College", "@spider": "barnesnoblecollege", "addr:full": "4800 E Huron River Dr", "addr:city": "Arbor", "addr:state": "MI", "addr:postcode": "48105", "addr:country": "US", "name": "Washtenaw Community College", "website": "https://www.bncollege.com/campus-stores/", "brand": "Barnes & Noble College", "brand:wikidata": "Q4861508"}},
{"type": "Feature", "id": "a83atB_60QSenRodqAtEKhEL5qY=", "properties": {"ref": "Bethel University (Minnesota)", "@spider": "barnesnoblecollege", "addr:full": "3900 Bethel Dr", "addr:city": "Paul", "addr:state": "MN", "addr:postcode": "55112", "addr:country": "US", "name": "Bethel University (Minnesota)", "website": "https://www.bncollege.com/campus-stores/", "brand": "Barnes & Noble College", "brand:wikidata": "Q4861508"}},
{"type": "Feature", "id": "Du6uOKDQZaAlUMjgRg0Lp60ud00=", "properties": {"ref": "Concordia University-St. Paul", "@spider": "barnesnoblecollege", "addr:full": "1282 Concordia Ave", "addr:city": "Paul", "addr:state": "MN", "addr:postcode": "55104", "addr:country": "US", "name": "Concordia University-St. Paul", "website": "https://www.bncollege.com/campus-stores/", "brand": "Barnes & Noble College", "brand:wikidata": "Q4861508"}},
{"type": "Feature", "id": "Sw3OMHNYVHuI-7X6QvF7pGxjh_A=", "properties": {"ref": "Crown College", "@spider": "barnesnoblecollege", "addr:full": "8700 College View Dr", "addr:city": "Bonifacius", "addr:state": "MN", "addr:postcode": "55375", "addr:country": "US", "name": "Crown College", "website": "https://www.bncollege.com/campus-stores/", "brand": "Barnes & Noble College", "brand:wikidata": "Q4861508"}},
{"type": "Feature", "id": "_GCE_cKm7H0VuDNjUe45FmPpsyw=", "properties": {"ref": "Macalester College", "@spider": "barnesnoblecollege", "addr:full": "32 Snelling Ave", "addr:city": "Paul", "addr:state": "MN", "addr:postcode": "55104", "addr:country": "US", "name": "Macalester College", "website": "https://www.bncollege.com/campus-stores/", "brand": "Barnes & Noble College", "brand:wikidata": "Q4861508"}},
{"type": "Feature", "id": "XulgeZ9tWu8F9PckjEzb3V6Jrn0=", "properties": {"ref": "Metropolitan State University", "@spider": "barnesnoblecollege", "addr:full": "645 E 7th St", "addr:city": "Paul", "addr:state": "MN", "addr:postcode": "55106", "addr:country": "US", "name": "Metropolitan State University", "website": "https://www.bncollege.com/campus-stores/", "brand": "Barnes & Noble College", "brand:wikidata": "Q4861508"}},
{"type": "Feature", "id": "AYeJ_LVmfg5XoxMNIHlaASCE7qM=", "properties": {"ref": "St. Catherine University", "@spider": "barnesnoblecollege", "addr:full": "2004 Randolph Ave", "addr:city": "Paul", "addr:state": "MN", "addr:postcode": "55105", "addr:country": "US", "name": "St. Catherine University", "website": "https://www.bncollege.com/campus-stores/", "brand": "Barnes & Noble College", "brand:wikidata": "Q4861508"}},
{"type": "Feature", "id": "94C33Mqzp4T1XWyUnV3BUWlJMYo=", "properties": {"ref": "Chaminade College Preparatory School", "@spider": "barnesnoblecollege", "addr:full": "425 S Lindbergh Blvd", "addr:city": "Louis", "addr:state": "MO", "addr:postcode": "63131", "addr:country": "US", "name": "Chaminade College Preparatory School", "website": "https://www.bncollege.com/campus-stores/", "brand": "Barnes & Noble College", "brand:wikidata": "Q4861508"}},
{"type": "Feature", "id": "GENT6hl--s1iL5IefcF_qDJzcsY=", "properties": {"ref": "Christian Brothers College High School", "@spider": "barnesnoblecollege", "addr:full": "1850 De La Salle Dr", "addr:city": "Louis", "addr:state": "MO", "addr:postcode": "63141", "addr:country": "US", "name": "Christian Brothers College High School", "website": "https://www.bncollege.com/campus-stores/", "brand": "Barnes & Noble College", "brand:wikidata": "Q4861508"}},
{"type": "Feature", "id": "4CKtVenWj9rqs54_uLprgcROsK8=", "properties": {"ref": "De Smet Jesuit High School", "@spider": "barnesnoblecollege", "addr:full": "233 N New Ballas Rd", "addr:city": "Louis", "addr:state": "MO", "addr:postcode": "63141", "addr:country": "US", "name": "De Smet Jesuit High School", "website": "https://www.bncollege.com/campus-stores/", "brand": "Barnes & Noble College", "brand:wikidata": "Q4861508"}},
{"type": "Feature", "id": "PpjmRZRayBg38ttySeEXbp9qf5o=", "properties": {"ref": "John Burroughs School", "@spider": "barnesnoblecollege", "addr:full": "755 S Price Rd", "addr:city": "Louis", "addr:state": "MO", "addr:postcode": "63124", "addr:country": "US", "name": "John Burroughs School", "website": "https://www.bncollege.com/campus-stores/", "brand": "Barnes & Noble College", "brand:wikidata": "Q4861508"}},
{"type": "Feature", "id": "RG7nzHx5ABGr8Cb084vkh4gONYQ=", "properties": {"ref": "Lindenwood University", "@spider": "barnesnoblecollege", "addr:full": "1923 1st Capitol Dr", "addr:city": "Charles", "addr:state": "MO", "addr:postcode": "63301", "addr:country": "US", "name": "Lindenwood University", "website": "https://www.bncollege.com/campus-stores/", "brand": "Barnes & Noble College", "brand:wikidata": "Q4861508"}},
{"type": "Feature", "id": "gJoh5ke9HYJHyqI_qKmoSclhork=", "properties": {"ref": "Missouri Western State University", "@spider": "barnesnoblecollege", "addr:full": "4525 Downs Dr", "addr:city": "Joseph", "addr:state": "MO", "addr:postcode": "64507", "addr:country": "US", "name": "Missouri Western State University", "website": "https://www.bncollege.com/campus-stores/", "brand": "Barnes & Noble College", "brand:wikidata": "Q4861508"}},
{"type": "Feature", "id": "Gl7S_4aBS4wh_wAnjHfXaa5okpg=", "properties": {"ref": "Nerinx Hall High School", "@spider": "barnesnoblecollege", "addr:full": "530 E Lockwood Ave", "addr:city": "Groves", "addr:state": "MO", "addr:postcode": "63119", "addr:country": "US", "name": "Nerinx Hall High School", "website": "https://www.bncollege.com/campus-stores/", "brand": "Barnes & Noble College", "brand:wikidata": "Q4861508"}},
{"type": "Feature", "id": "yiA72L7Gl4VYEQgQEhDJWYh6CTE=", "properties": {"ref": "Rockhurst University", "@spider": "barnesnoblecollege", "addr:full": "5228 Tracy Ave", "addr:city": "City", "addr:state": "MO", "addr:postcode": "64110", "addr:country": "US", "name": "Rockhurst University", "website": "https://www.bncollege.com/campus-stores/", "brand": "Barnes & Noble College", "brand:wikidata": "Q4861508"}},
{"type": "Feature", "id": "LuS539g_pYk56rpoR9_g5kQ3IiQ=", "properties": {"ref": "Saint Louis Priory School", "@spider": "barnesnoblecollege", "addr:full": "500 S Mason Rd", "addr:city": "Louis", "addr:state": "MO", "addr:postcode": "63141", "addr:country": "US", "name": "Saint Louis Priory School", "website": "https://www.bncollege.com/campus-stores/", "brand": "Barnes & Noble College", "brand:wikidata": "Q4861508"}},
{"type": "Feature", "id": "z-aSB4Bhd8gdi9GSqA4HP-pUtGU=", "properties": {"ref": "Saint Louis University", "@spider": "barnesnoblecollege", "addr:full": "20 N Grand Blvd", "addr:city": "Louis", "addr:state": "MO", "addr:postcode": "63103", "addr:country": "US", "name": "Saint Louis University", "website": "https://www.bncollege.com/campus-stores/", "brand": "Barnes & Noble College", "brand:wikidata": "Q4861508"}},
{"type": "Feature", "id": "w8Cfh3zAp5ikD0CGWNFyfdC_ybM=", "properties": {"ref": "Southeast Health College of Nursing and Health Sciences", "@spider": "barnesnoblecollege", "addr:full": "2001 William St #2", "addr:city": "Girardeau", "addr:state": "MO", "addr:postcode": "63703", "addr:country": "US", "name": "Southeast Health College of Nursing and Health Sciences", "website": "https://www.bncollege.com/campus-stores/", "brand": "Barnes & Noble College", "brand:wikidata": "Q4861508"}},
{"type": "Feature", "id": "cPbUb2GosG656e9CZ6nrH1FfcU8=", "properties": {"ref": "St. Joseph\u2019s Academy", "@spider": "barnesnoblecollege", "addr:full": "2307 S Lindbergh Blvd", "addr:city": "Louis", "addr:state": "MO", "addr:postcode": "63131", "addr:country": "US", "name": "St. Joseph\u2019s Academy", "website": "https://www.bncollege.com/campus-stores/", "brand": "Barnes & Noble College", "brand:wikidata": "Q4861508"}},
{"type": "Feature", "id": "mwikkPq8oocjriJn2Uva2I-ucTQ=", "properties": {"ref": "St. Louis University High", "@spider": "barnesnoblecollege", "addr:full": "4970 Oakland Ave", "addr:city": "Louis", "addr:state": "MO", "addr:postcode": "63110", "addr:country": "US", "name": "St. Louis University High", "website": "https://www.bncollege.com/campus-stores/", "brand": "Barnes & Noble College", "brand:wikidata": "Q4861508"}},
{"type": "Feature", "id": "8ooIS0xViQbShrUlzLp8bfbjxPE=", "properties": {"ref": "Thomas Jefferson School", "@spider": "barnesnoblecollege", "addr:full": "4100 S Lindbergh Blvd", "addr:city": "Louis", "addr:state": "MO", "addr:postcode": "63127", "addr:country": "US", "name": "Thomas Jefferson School", "website": "https://www.bncollege.com/campus-stores/", "brand": "Barnes & Noble College", "brand:wikidata": "Q4861508"}},
{"type": "Feature", "id": "Ctgjq3a3KjuGehb0_JpTgj9e4zE=", "properties": {"ref": "Visitation Academy of St. Louis", "@spider": "barnesnoblecollege", "addr:full": "3020 N Ballas Rd", "addr:city": "Louis", "addr:state": "MO", "addr:postcode": "63131", "addr:country": "US", "name": "Visitation Academy of St. Louis", "website": "https://www.bncollege.com/campus-stores/", "brand": "Barnes & Noble College", "brand:wikidata": "Q4861508"}},
{"type": "Feature", "id": "8GHusBW8fSp9yGuU0Xdh-fAnkd4=", "properties": {"ref": "Whitfield School", "@spider": "barnesnoblecollege", "addr:full": "175 S Mason Rd", "addr:city": "Louis", "addr:state": "MO", "addr:postcode": "63141", "addr:country": "US", "name": "Whitfield School", "website": "https://www.bncollege.com/campus-stores/", "brand": "Barnes & Noble College", "brand:wikidata": "Q4861508"}},
{"type": "Feature", "id": "q_ZJPkpiWk9cVFXQVBLTmOgxV1k=", "properties": {"ref": "Stone Child College", "@spider": "barnesnoblecollege", "addr:full": "8294 Upper Box Elder Rd", "addr:city": "Elder", "addr:state": "MT", "addr:postcode": "59521", "addr:country": "US", "name": "Stone Child College", "website": "https://www.bncollege.com/campus-stores/", "brand": "Barnes & Noble College", "brand:wikidata": "Q4861508"}},
{"type": "Feature", "id": "d_1D36_L18C3via0qoYiCYdyAMo=", "properties": {"ref": "The Meadows School", "@spider": "barnesnoblecollege", "addr:full": "8601 Scholar Ln", "addr:city": "Vegas", "addr:state": "NV", "addr:postcode": "89128", "addr:country": "US", "name": "The Meadows School", "website": "https://www.bncollege.com/campus-stores/", "brand": "Barnes & Noble College", "brand:wikidata": "Q4861508"}},
{"type": "Feature", "id": "3FmJKqbYRCUnMzzYyif19bvsNYg=", "properties": {"ref": "University of Nevada Las Vegas", "@spider": "barnesnoblecollege", "addr:full": "4505 S Maryland Pkwy", "addr:city": "Vegas", "addr:state": "NV", "addr:postcode": "89154", "addr:country": "US", "name": "University of Nevada Las Vegas", "website": "https://www.bncollege.com/campus-stores/", "brand": "Barnes & Noble College", "brand:wikidata": "Q4861508"}},
{"type": "Feature", "id": "7Np735u6iPA8xYAsA1fIA_W--so=", "properties": {"ref": "Colby-Sawyer College", "@spider": "barnesnoblecollege", "addr:full": "541 Main St", "addr:city": "London", "addr:state": "NH", "addr:postcode": "03257", "addr:country": "US", "name": "Colby-Sawyer College", "website": "https://www.bncollege.com/campus-stores/", "brand": "Barnes & Noble College", "brand:wikidata": "Q4861508"}},
{"type": "Feature", "id": "NNWvIKNyO95eL9anCaZhsiCcGzo=", "properties": {"ref": "City Colleges of Chicago Harold Washington College", "@spider": "barnesnoblecollege", "addr:full": "120 Mountainview Blvd", "addr:city": "Ridge", "addr:state": "NJ", "addr:postcode": "07920", "addr:country": "US", "name": "City Colleges of Chicago Harold Washington College", "website": "https://www.bncollege.com/campus-stores/", "brand": "Barnes & Noble College", "brand:wikidata": "Q4861508"}},
{"type": "Feature", "id": "taRRjKZecoXihoHCxbKr5lfgN2U=", "properties": {"ref": "City Colleges of Chicago Harry S Truman College", "@spider": "barnesnoblecollege", "addr:full": "120 Mountainview Blvd", "addr:city": "Ridge", "addr:state": "NJ", "addr:postcode": "07920", "addr:country": "US", "name": "City Colleges of Chicago Harry S Truman College", "website": "https://www.bncollege.com/campus-stores/", "brand": "Barnes & Noble College", "brand:wikidata": "Q4861508"}},
{"type": "Feature", "id": "-ohAZ6v7xiOGVws9sYNmWMGT7Wc=", "properties": {"ref": "City Colleges of Chicago Kennedy-King College", "@spider": "barnesnoblecollege", "addr:full": "120 Mountainview Blvd", "addr:city": "Ridge", "addr:state": "NJ", "addr:postcode": "07920", "addr:country": "US", "name": "City Colleges of Chicago Kennedy-King College", "website": "https://www.bncollege.com/campus-stores/", "brand": "Barnes & Noble College", "brand:wikidata": "Q4861508"}},
{"type": "Feature", "id": "7mDHFqCTHy-x0_Jk7JL0NLNYKEs=", "properties": {"ref": "City Colleges of Chicago Olive-Harvey College", "@spider": "barnesnoblecollege", "addr:full": "120 Mountainview Blvd", "addr:city": "Ridge", "addr:state": "NJ", "addr:postcode": "07920", "addr:country": "US", "name": "City Colleges of Chicago Olive-Harvey College", "website": "https://www.bncollege.com/campus-stores/", "brand": "Barnes & Noble College", "brand:wikidata": "Q4861508"}},
{"type": "Feature", "id": "588u8AYQFffN4Iv60Y94BfCldUw=", "properties": {"ref": "City Colleges of Chicago Richard J. Daley College", "@spider": "barnesnoblecollege", "addr:full": "120 Mountainview Blvd", "addr:city": "Ridge", "addr:state": "NJ", "addr:postcode": "07920", "addr:country": "US", "name": "City Colleges of Chicago Richard J. Daley College", "website": "https://www.bncollege.com/campus-stores/", "brand": "Barnes & Noble College", "brand:wikidata": "Q4861508"}},
{"type": "Feature", "id": "aOejip1_me1zoeG5Log4pfO5tFk=", "properties": {"ref": "City Colleges of Chicago Wilbur Wright College", "@spider": "barnesnoblecollege", "addr:full": "120 Mountainview Blvd", "addr:city": "Ridge", "addr:state": "NJ", "addr:postcode": "07920", "addr:country": "US", "name": "City Colleges of Chicago Wilbur Wright College", "website": "https://www.bncollege.com/campus-stores/", "brand": "Barnes & Noble College", "brand:wikidata": "Q4861508"}},
{"type": "Feature", "id": "pyFBg4Wm9yW4hUqHgzbICk82oxw=", "properties": {"ref": "Malcolm X College, One of the City Colleges of Chicago", "@spider": "barnesnoblecollege", "addr:full": "120 Mountainview Blvd", "addr:city": "Ridge", "addr:state": "NJ", "addr:postcode": "07920", "addr:country": "US", "name": "Malcolm X College, One of the City Colleges of Chicago", "website": "https://www.bncollege.com/campus-stores/", "brand": "Barnes & Noble College", "brand:wikidata": "Q4861508"}},
{"type": "Feature", "id": "pPqhkMtZSSLRrbX-D1xD8qf1dL0=", "properties": {"ref": "New Jersey City University", "@spider": "barnesnoblecollege", "addr:full": "2039 John F. Kennedy Blvd", "addr:city": "City", "addr:state": "NJ", "addr:postcode": "07305", "addr:country": "US", "name": "New Jersey City University", "website": "https://www.bncollege.com/campus-stores/", "brand": "Barnes & Noble College", "brand:wikidata": "Q4861508"}},
{"type": "Feature", "id": "qMdX-7Qeia-in49sPlDC9MJnvMc=", "properties": {"ref": "Ocean County College", "@spider": "barnesnoblecollege", "addr:full": "1 College Dr #8", "addr:city": "River", "addr:state": "NJ", "addr:postcode": "08754", "addr:country": "US", "name": "Ocean County College", "website": "https://www.bncollege.com/campus-stores/", "brand": "Barnes & Noble College", "brand:wikidata": "Q4861508"}},
{"type": "Feature", "id": "Bpyezs7tuUrCoUMfWJtdigILVl0=", "properties": {"ref": "Ranney School", "@spider": "barnesnoblecollege", "addr:full": "235 Hope Rd", "addr:city": "Falls", "addr:state": "NJ", "addr:postcode": "07724", "addr:country": "US", "name": "Ranney School", "website": "https://www.bncollege.com/campus-stores/", "brand": "Barnes & Noble College", "brand:wikidata": "Q4861508"}},
{"type": "Feature", "id": "dbly3aPljPBqDbuJ5nrQarQ6X1Q=", "properties": {"ref": "Rutgers University \u2013 New Brunswick", "@spider": "barnesnoblecollege", "addr:full": "100 Somerset St", "addr:city": "Brunswick", "addr:state": "NJ", "addr:postcode": "08901", "addr:country": "US", "name": "Rutgers University \u2013 New Brunswick", "website": "https://www.bncollege.com/campus-stores/", "brand": "Barnes & Noble College", "brand:wikidata": "Q4861508"}},
{"type": "Feature", "id": "Z09Yoz0mVWjPcA0kwwJtDpR295w=", "properties": {"ref": "Salem Community College", "@spider": "barnesnoblecollege", "addr:full": "460 Hollywood Ave", "addr:city": "Point Township", "addr:state": "NJ", "addr:postcode": "08069", "addr:country": "US", "name": "Salem Community College", "website": "https://www.bncollege.com/campus-stores/", "brand": "Barnes & Noble College", "brand:wikidata": "Q4861508"}},
{"type": "Feature", "id": "wEAydbwJZZhUA2c641XUVgBOTeE=", "properties": {"ref": "The College of New Jersey", "@spider": "barnesnoblecollege", "addr:full": "600 Campus Town Drive", "addr:city": "Township", "addr:state": "NJ", "addr:postcode": "08618", "addr:country": "US", "name": "The College of New Jersey", "website": "https://www.bncollege.com/campus-stores/", "brand": "Barnes & Noble College", "brand:wikidata": "Q4861508"}},
{"type": "Feature", "id": "tVEJyrrXW4KUOZHsTSA4HrPUWiQ=", "properties": {"ref": "Luna Community College", "@spider": "barnesnoblecollege", "addr:full": "366 Luna Dr", "addr:city": "Vegas", "addr:state": "NM", "addr:postcode": "87701", "addr:country": "US", "name": "Luna Community College", "website": "https://www.bncollege.com/campus-stores/", "brand": "Barnes & Noble College", "brand:wikidata": "Q4861508"}},
{"type": "Feature", "id": "MDu6o8osJraUMcKYAWiVaVhvN7k=", "properties": {"ref": "Santa Fe Community College", "@spider": "barnesnoblecollege", "addr:full": "6401 Richards Ave", "addr:city": "Fe", "addr:state": "NM", "addr:postcode": "87508", "addr:country": "US", "name": "Santa Fe Community College", "website": "https://www.bncollege.com/campus-stores/", "brand": "Barnes & Noble College", "brand:wikidata": "Q4861508"}},
{"type": "Feature", "id": "PZSiRiU6iVcLSi5JS3DnlAR8NBI=", "properties": {"ref": "University of New Mexico Los Alamos", "@spider": "barnesnoblecollege", "addr:full": "4000 University Dr", "addr:city": "Alamos", "addr:state": "NM", "addr:postcode": "87544", "addr:country": "US", "name": "University of New Mexico Los Alamos", "website": "https://www.bncollege.com/campus-stores/", "brand": "Barnes & Noble College", "brand:wikidata": "Q4861508"}},
{"type": "Feature", "id": "MwVENc5jyDCEE6DwmkxEeI5Uwpw=", "properties": {"ref": "Baruch College", "@spider": "barnesnoblecollege", "addr:full": "55 Lexington Ave", "addr:city": "York", "addr:state": "NY", "addr:postcode": "10010", "addr:country": "US", "name": "Baruch College", "website": "https://www.bncollege.com/campus-stores/", "brand": "Barnes & Noble College", "brand:wikidata": "Q4861508"}},
{"type": "Feature", "id": "Cw6ItOsF_OkpxNsM7bPTgcNPkp4=", "properties": {"ref": "Buckley School", "@spider": "barnesnoblecollege", "addr:full": "113 E 73rd St", "addr:city": "York", "addr:state": "NY", "addr:postcode": "10021", "addr:country": "US", "name": "Buckley School", "website": "https://www.bncollege.com/campus-stores/", "brand": "Barnes & Noble College", "brand:wikidata": "Q4861508"}},
{"type": "Feature", "id": "kK-5lXzVbOKSL1PzYUD7UPQmf64=", "properties": {"ref": "College of Staten Island", "@spider": "barnesnoblecollege", "addr:full": "2800 Victory Blvd #1c", "addr:city": "Island", "addr:state": "NY", "addr:postcode": "10314", "addr:country": "US", "name": "College of Staten Island", "website": "https://www.bncollege.com/campus-stores/", "brand": "Barnes & Noble College", "brand:wikidata": "Q4861508"}},
{"type": "Feature", "id": "sghl9asEPdHAaM4s0cwK6luiQgg=", "properties": {"ref": "Collegiate School (New York)", "@spider": "barnesnoblecollege", "addr:full": "301 Freedom Pl S", "addr:city": "York", "addr:state": "NY", "addr:postcode": "10069", "addr:country": "US", "name": "Collegiate School (New York)", "website": "https://www.bncollege.com/campus-stores/", "brand": "Barnes & Noble College", "brand:wikidata": "Q4861508"}},
{"type": "Feature", "id": "U0AtGZQY439-r7-QeiKdM5vZKek=", "properties": {"ref": "Columbia University in the City of New York", "@spider": "barnesnoblecollege", "addr:full": "2922 Broadway", "addr:city": "York", "addr:state": "NY", "addr:postcode": "10027", "addr:country": "US", "name": "Columbia University in the City of New York", "website": "https://www.bncollege.com/campus-stores/", "brand": "Barnes & Noble College", "brand:wikidata": "Q4861508"}},
{"type": "Feature", "id": "B5avzuOuKLnRcjtXvUYkIsOpcRA=", "properties": {"ref": "Fashion Institute of Technology", "@spider": "barnesnoblecollege", "addr:full": "227 W 27th St", "addr:city": "York", "addr:state": "NY", "addr:postcode": "10001", "addr:country": "US", "name": "Fashion Institute of Technology", "website": "https://www.bncollege.com/campus-stores/", "brand": "Barnes & Noble College", "brand:wikidata": "Q4861508"}},
{"type": "Feature", "id": "RVSrS-_tddWbumRXzNtJ3lJ99DY=", "properties": {"ref": "Iona College", "@spider": "barnesnoblecollege", "addr:full": "715 North Ave", "addr:city": "Rochelle", "addr:state": "NY", "addr:postcode": "10801", "addr:country": "US", "name": "Iona College", "website": "https://www.bncollege.com/campus-stores/", "brand": "Barnes & Noble College", "brand:wikidata": "Q4861508"}},
{"type": "Feature", "id": "P4u0Z9auysKWmKULMT5P9pJKsmM=", "properties": {"ref": "LIM College", "@spider": "barnesnoblecollege", "addr:full": "12 E 53rd St", "addr:city": "York", "addr:state": "NY", "addr:postcode": "10022", "addr:country": "US", "name": "LIM College", "website": "https://www.bncollege.com/campus-stores/", "brand": "Barnes & Noble College", "brand:wikidata": "Q4861508"}},
{"type": "Feature", "id": "oLC72ARG0WqsMyUWIADwSlrce9U=", "properties": {"ref": "Long Island University \u2013 LIU Post", "@spider": "barnesnoblecollege", "addr:full": "720 Northern Blvd", "addr:city": "Head", "addr:state": "NY", "addr:postcode": "11545", "addr:country": "US", "name": "Long Island University \u2013 LIU Post", "website": "https://www.bncollege.com/campus-stores/", "brand": "Barnes & Noble College", "brand:wikidata": "Q4861508"}},
{"type": "Feature", "id": "bQZ7vvxsR0ib5bqfGkuEDHvlKic=", "properties": {"ref": "Lycee Francais de New York", "@spider": "barnesnoblecollege", "addr:full": "505 E 75th St", "addr:city": "York", "addr:state": "NY", "addr:postcode": "10021", "addr:country": "US", "name": "Lycee Francais de New York", "website": "https://www.bncollege.com/campus-stores/", "brand": "Barnes & Noble College", "brand:wikidata": "Q4861508"}},
{"type": "Feature", "id": "rbRQvUtcA3-KbVC5s5lD-cYugWY=", "properties": {"ref": "New York Law School", "@spider": "barnesnoblecollege", "addr:full": "185 W Broadway", "addr:city": "York", "addr:state": "NY", "addr:postcode": "10013", "addr:country": "US", "name": "New York Law School", "website": "https://www.bncollege.com/campus-stores/", "brand": "Barnes & Noble College", "brand:wikidata": "Q4861508"}},
{"type": "Feature", "id": "byqgN02EEWRS2sRgiZStnDEkdTM=", "properties": {"ref": "Niagara County Community College", "@spider": "barnesnoblecollege", "addr:full": "28 Old Falls St", "addr:city": "Falls", "addr:state": "NY", "addr:postcode": "14303", "addr:country": "US", "name": "Niagara County Community College", "website": "https://www.bncollege.com/campus-stores/", "brand": "Barnes & Noble College", "brand:wikidata": "Q4861508"}},
{"type": "Feature", "id": "_Z6rf32-Qj6EBL7zxKloLHzbXP8=", "properties": {"ref": "Niagara University", "@spider": "barnesnoblecollege", "addr:full": "5795 Lewiston Rd", "addr:city": "University", "addr:state": "NY", "addr:postcode": "14109", "addr:country": "US", "name": "Niagara University", "website": "https://www.bncollege.com/campus-stores/", "brand": "Barnes & Noble College", "brand:wikidata": "Q4861508"}},
{"type": "Feature", "id": "5Y4rHNTC_upbKSBFq86QyP22Hi4=", "properties": {"ref": "Pace University", "@spider": "barnesnoblecollege", "addr:full": "78 N Broadway", "addr:city": "Plains", "addr:state": "NY", "addr:postcode": "10603", "addr:country": "US", "name": "Pace University", "website": "https://www.bncollege.com/campus-stores/", "brand": "Barnes & Noble College", "brand:wikidata": "Q4861508"}},
{"type": "Feature", "id": "rykM5swMI8yWdyxH1HVDf1HoO9k=", "properties": {"ref": "State University of New York College at Old Westbury", "@spider": "barnesnoblecollege", "addr:full": "223 Store Hill Rd", "addr:city": "Westbury", "addr:state": "NY", "addr:postcode": "11568", "addr:country": "US", "name": "State University of New York College at Old Westbury", "website": "https://www.bncollege.com/campus-stores/", "brand": "Barnes & Noble College", "brand:wikidata": "Q4861508"}},
{"type": "Feature", "id": "JKndncP113v2DnoEUjfiflG_B1w=", "properties": {"ref": "State University of New York Empire State College", "@spider": "barnesnoblecollege", "addr:full": "2 Union Ave", "addr:city": "Springs", "addr:state": "NY", "addr:postcode": "12866", "addr:country": "US", "name": "State University of New York Empire State College", "website": "https://www.bncollege.com/campus-stores/", "brand": "Barnes & Noble College", "brand:wikidata": "Q4861508"}},
{"type": "Feature", "id": "WhTUPfGaqFuNKPq_Sg8YV2drzt4=", "properties": {"ref": "Stony Brook School", "@spider": "barnesnoblecollege", "addr:full": "1 Chapman Pkwy", "addr:city": "Brook", "addr:state": "NY", "addr:postcode": "11790", "addr:country": "US", "name": "Stony Brook School", "website": "https://www.bncollege.com/campus-stores/", "brand": "Barnes & Noble College", "brand:wikidata": "Q4861508"}},
{"type": "Feature", "id": "MrwMmunBjneKFR7zlkCBennSqpE=", "properties": {"ref": "Stony Brook University", "@spider": "barnesnoblecollege", "addr:full": "100 Nicolls Rd", "addr:city": "Brook", "addr:state": "NY", "addr:postcode": "11794", "addr:country": "US", "name": "Stony Brook University", "website": "https://www.bncollege.com/campus-stores/", "brand": "Barnes & Noble College", "brand:wikidata": "Q4861508"}},
{"type": "Feature", "id": "kyon4jh3ffJlwaQx5q23I9R6Nj0=", "properties": {"ref": "The Brearley School", "@spider": "barnesnoblecollege", "addr:full": "610 E 83rd St", "addr:city": "York", "addr:state": "NY", "addr:postcode": "10028", "addr:country": "US", "name": "The Brearley School", "website": "https://www.bncollege.com/campus-stores/", "brand": "Barnes & Noble College", "brand:wikidata": "Q4861508"}},
{"type": "Feature", "id": "d9swRE0YQ-OJhLiIwNT0TDVa7-M=", "properties": {"ref": "The Chapin School", "@spider": "barnesnoblecollege", "addr:full": "100 East End Ave", "addr:city": "York", "addr:state": "NY", "addr:postcode": "10028", "addr:country": "US", "name": "The Chapin School", "website": "https://www.bncollege.com/campus-stores/", "brand": "Barnes & Noble College", "brand:wikidata": "Q4861508"}},
{"type": "Feature", "id": "HV9ipkcsqxuDlye5AQdP146XcOQ=", "properties": {"ref": "The Culinary Institute of America", "@spider": "barnesnoblecollege", "addr:full": "1946 Campus Dr", "addr:city": "Park", "addr:state": "NY", "addr:postcode": "12538", "addr:country": "US", "name": "The Culinary Institute of America", "website": "https://www.bncollege.com/campus-stores/", "brand": "Barnes & Noble College", "brand:wikidata": "Q4861508"}},
{"type": "Feature", "id": "3TLzZ5FDiPdD63HRqNveuTFnIek=", "properties": {"ref": "The Dwight School", "@spider": "barnesnoblecollege", "addr:full": "291 Central Park West", "addr:city": "York", "addr:state": "NY", "addr:postcode": "10024", "addr:country": "US", "name": "The Dwight School", "website": "https://www.bncollege.com/campus-stores/", "brand": "Barnes & Noble College", "brand:wikidata": "Q4861508"}},
{"type": "Feature", "id": "W9ny_tvoBYPIGZpBb6garxSEOIs=", "properties": {"ref": "Touro Law Center", "@spider": "barnesnoblecollege", "addr:full": "225 Eastview Dr", "addr:city": "Islip", "addr:state": "NY", "addr:postcode": "11722", "addr:country": "US", "name": "Touro Law Center", "website": "https://www.bncollege.com/campus-stores/", "brand": "Barnes & Noble College", "brand:wikidata": "Q4861508"}},
{"type": "Feature", "id": "3owyVhDWw6zqCjWMcFqKpi8cLz8=", "properties": {"ref": "Trinity School", "@spider": "barnesnoblecollege", "addr:full": "139 W 91st St", "addr:city": "York", "addr:state": "NY", "addr:postcode": "10024", "addr:country": "US", "name": "Trinity School", "website": "https://www.bncollege.com/campus-stores/", "brand": "Barnes & Noble College", "brand:wikidata": "Q4861508"}},
{"type": "Feature", "id": "_6OkJumeJNAC9lThr0I0ONflqbs=", "properties": {"ref": "University of Connecticut", "@spider": "barnesnoblecollege", "addr:full": "versity Pl", "addr:city": "York", "addr:state": "NY", "addr:postcode": "10003", "addr:country": "US", "name": "University of Connecticut", "website": "https://www.bncollege.com/campus-stores/", "brand": "Barnes & Noble College", "brand:wikidata": "Q4861508"}},
{"type": "Feature", "id": "bwrDRieKjqVXgYzM5IcRMOS5tzc=", "properties": {"ref": "Xavier High School (New York)", "@spider": "barnesnoblecollege", "addr:full": "30 W 16th St", "addr:city": "York", "addr:state": "NY", "addr:postcode": "10011", "addr:country": "US", "name": "Xavier High School (New York)", "website": "https://www.bncollege.com/campus-stores/", "brand": "Barnes & Noble College", "brand:wikidata": "Q4861508"}},
{"type": "Feature", "id": "xFZbTi4IwtQ8Aly1uvqtdofwTyA=", "properties": {"ref": "Blue Ridge Community College (North Carolina)", "@spider": "barnesnoblecollege", "addr:full": "140 Alumni Way", "addr:city": "Rock", "addr:state": "NC", "addr:postcode": "28731", "addr:country": "US", "name": "Blue Ridge Community College (North Carolina)", "website": "https://www.bncollege.com/campus-stores/", "brand": "Barnes & Noble College", "brand:wikidata": "Q4861508"}},
{"type": "Feature", "id": "Vk-by0uQHHP6u-lEIdBG7gDIY3k=", "properties": {"ref": "High Point University", "@spider": "barnesnoblecollege", "addr:full": "833 Montlieu Ave", "addr:city": "Point", "addr:state": "NC", "addr:postcode": "27262", "addr:country": "US", "name": "High Point University", "website": "https://www.bncollege.com/campus-stores/", "brand": "Barnes & Noble College", "brand:wikidata": "Q4861508"}},
{"type": "Feature", "id": "kUEIBoAABrbcXvI4COEjwOQiqPY=", "properties": {"ref": "Lees-McRae College", "@spider": "barnesnoblecollege", "addr:full": "159 Main St W", "addr:city": "Elk", "addr:state": "NC", "addr:postcode": "28604", "addr:country": "US", "name": "Lees-McRae College", "website": "https://www.bncollege.com/campus-stores/", "brand": "Barnes & Noble College", "brand:wikidata": "Q4861508"}},
{"type": "Feature", "id": "AATWs7izPfrkzqSfKaG1aKGOwaw=", "properties": {"ref": "Mid-Atlantic Christian University", "@spider": "barnesnoblecollege", "addr:full": "715 N Poindexter St", "addr:city": "City", "addr:state": "NC", "addr:postcode": "27909", "addr:country": "US", "name": "Mid-Atlantic Christian University", "website": "https://www.bncollege.com/campus-stores/", "brand": "Barnes & Noble College", "brand:wikidata": "Q4861508"}},
{"type": "Feature", "id": "3kFL6NknH9EnoHxAEyAW0fSMRtY=", "properties": {"ref": "The O\u2019Neal School", "@spider": "barnesnoblecollege", "addr:full": "3300 Airport Rd", "addr:city": "Pines", "addr:state": "NC", "addr:postcode": "28387", "addr:country": "US", "name": "The O\u2019Neal School", "website": "https://www.bncollege.com/campus-stores/", "brand": "Barnes & Noble College", "brand:wikidata": "Q4861508"}},
{"type": "Feature", "id": "4UhdwnA4CQj3JAcqBDE03v31Z_Y=", "properties": {"ref": "Antioch University Online", "@spider": "barnesnoblecollege", "addr:full": "900 Dayton St", "addr:city": "Springs", "addr:state": "OH", "addr:postcode": "45387", "addr:country": "US", "name": "Antioch University Online", "website": "https://www.bncollege.com/campus-stores/", "brand": "Barnes & Noble College", "brand:wikidata": "Q4861508"}},
{"type": "Feature", "id": "4Y3_IWYD0Go1prc7cbodkykMp1g=", "properties": {"ref": "Cuyahoga Community College", "@spider": "barnesnoblecollege", "addr:full": "4250 Richmond Rd", "addr:city": "Hills", "addr:state": "OH", "addr:postcode": "44122", "addr:country": "US", "name": "Cuyahoga Community College", "website": "https://www.bncollege.com/campus-stores/", "brand": "Barnes & Noble College", "brand:wikidata": "Q4861508"}},
{"type": "Feature", "id": "nl1jDTb4w2Pev_-9cV-q3RtqVjU=", "properties": {"ref": "Gilmour Academy", "@spider": "barnesnoblecollege", "addr:full": "34001 Cedar Rd", "addr:city": "Mills", "addr:state": "OH", "addr:postcode": "44040", "addr:country": "US", "name": "Gilmour Academy", "website": "https://www.bncollege.com/campus-stores/", "brand": "Barnes & Noble College", "brand:wikidata": "Q4861508"}},
{"type": "Feature", "id": "wGBQiVkxLZ_Q91hMVaoseHwjwGo=", "properties": {"ref": "Hathaway Brown School", "@spider": "barnesnoblecollege", "addr:full": "19600 N Park Blvd", "addr:city": "Heights", "addr:state": "OH", "addr:postcode": "44122", "addr:country": "US", "name": "Hathaway Brown School", "website": "https://www.bncollege.com/campus-stores/", "brand": "Barnes & Noble College", "brand:wikidata": "Q4861508"}},
{"type": "Feature", "id": "O9AxB6GbXqxfoJQG3Mz57LIylxQ=", "properties": {"ref": "Kent State University Stark Campus", "@spider": "barnesnoblecollege", "addr:full": "6000 Frank Ave NW", "addr:city": "Canton", "addr:state": "OH", "addr:postcode": "44720", "addr:country": "US", "name": "Kent State University Stark Campus", "website": "https://www.bncollege.com/campus-stores/", "brand": "Barnes & Noble College", "brand:wikidata": "Q4861508"}},
{"type": "Feature", "id": "g8LXxhfBSg-dwbmVQG_WWNE5mZE=", "properties": {"ref": "Kent State University Tuscarawas Campus", "@spider": "barnesnoblecollege", "addr:full": "330 University Dr NE", "addr:city": "Philadelphia", "addr:state": "OH", "addr:postcode": "44663", "addr:country": "US", "name": "Kent State University Tuscarawas Campus", "website": "https://www.bncollege.com/campus-stores/", "brand": "Barnes & Noble College", "brand:wikidata": "Q4861508"}},
{"type": "Feature", "id": "2xBTur7dbXbdrDW9KQTb-g7f-Bg=", "properties": {"ref": "Muskingum University", "@spider": "barnesnoblecollege", "addr:full": "161 Stormont St", "addr:city": "Concord", "addr:state": "OH", "addr:postcode": "43762", "addr:country": "US", "name": "Muskingum University", "website": "https://www.bncollege.com/campus-stores/", "brand": "Barnes & Noble College", "brand:wikidata": "Q4861508"}},
{"type": "Feature", "id": "-VzTaondaIYRoR9pzbZkIgJYhfw=", "properties": {"ref": "University of Rio Grande", "@spider": "barnesnoblecollege", "addr:full": "218 N College Ave", "addr:city": "Grande", "addr:state": "OH", "addr:postcode": "45674", "addr:country": "US", "name": "University of Rio Grande", "website": "https://www.bncollege.com/campus-stores/", "brand": "Barnes & Noble College", "brand:wikidata": "Q4861508"}},
{"type": "Feature", "id": "LuZtBmbG6EzRBFwov4zq-EQfTvc=", "properties": {"ref": "University School", "@spider": "barnesnoblecollege", "addr:full": "2785 Som Center Rd", "addr:city": "Falls", "addr:state": "OH", "addr:postcode": "44022", "addr:country": "US", "name": "University School", "website": "https://www.bncollege.com/campus-stores/", "brand": "Barnes & Noble College", "brand:wikidata": "Q4861508"}},
{"type": "Feature", "id": "NIvZvANH5GpokLWdGjXUBI4TJcU=", "properties": {"ref": "Walsh University", "@spider": "barnesnoblecollege", "addr:full": "2020 E Maple St", "addr:city": "Canton", "addr:state": "OH", "addr:postcode": "44720", "addr:country": "US", "name": "Walsh University", "website": "https://www.bncollege.com/campus-stores/", "brand": "Barnes & Noble College", "brand:wikidata": "Q4861508"}},
{"type": "Feature", "id": "M7Wq8icXUI_M-wOl0Nisu1S3MNI=", "properties": {"ref": "Mid-America Christian University", "@spider": "barnesnoblecollege", "addr:full": "3500 SW 119th St", "addr:city": "City", "addr:state": "OK", "addr:postcode": "73170", "addr:country": "US", "name": "Mid-America Christian University", "website": "https://www.bncollege.com/campus-stores/", "brand": "Barnes & Noble College", "brand:wikidata": "Q4861508"}},
{"type": "Feature", "id": "dsNkdS78I7zyUxOyXI-vozFcxkY=", "properties": {"ref": "Oklahoma State University \u2013 Oklahoma City", "@spider": "barnesnoblecollege", "addr:full": "900 N Portland Ave", "addr:city": "City", "addr:state": "OK", "addr:postcode": "73107", "addr:country": "US", "name": "Oklahoma State University \u2013 Oklahoma City", "website": "https://www.bncollege.com/campus-stores/", "brand": "Barnes & Noble College", "brand:wikidata": "Q4861508"}},
{"type": "Feature", "id": "ZC_ytS0kLpwZsp12CFsOKhW1CiI=", "properties": {"ref": "Redlands Community College", "@spider": "barnesnoblecollege", "addr:full": "1300 S Country Club Rd", "addr:city": "Reno", "addr:state": "OK", "addr:postcode": "73036", "addr:country": "US", "name": "Redlands Community College", "website": "https://www.bncollege.com/campus-stores/", "brand": "Barnes & Noble College", "brand:wikidata": "Q4861508"}},
{"type": "Feature", "id": "6rLP_Urv8cjaulyf_16dVgy8C2Y=", "properties": {"ref": "Eastern Oregon University", "@spider": "barnesnoblecollege", "addr:full": "versity Blvd", "addr:city": "Grande", "addr:state": "OR", "addr:postcode": "97850", "addr:country": "US", "name": "Eastern Oregon University", "website": "https://www.bncollege.com/campus-stores/", "brand": "Barnes & Noble College", "brand:wikidata": "Q4861508"}},
{"type": "Feature", "id": "aXw3OMg3qK5aL9KdHkwy7ZTS-x0=", "properties": {"ref": "Oregon Institute of Technology", "@spider": "barnesnoblecollege", "addr:full": "3201 Campus Dr", "addr:city": "Falls", "addr:state": "OR", "addr:postcode": "97601", "addr:country": "US", "name": "Oregon Institute of Technology", "website": "https://www.bncollege.com/campus-stores/", "brand": "Barnes & Noble College", "brand:wikidata": "Q4861508"}},
{"type": "Feature", "id": "9qckSAQs4xl0SVIGIjkhrV4gdGc=", "properties": {"ref": "Pacific University", "@spider": "barnesnoblecollege", "addr:full": "2043 College Way", "addr:city": "Grove", "addr:state": "OR", "addr:postcode": "97116", "addr:country": "US", "name": "Pacific University", "website": "https://www.bncollege.com/campus-stores/", "brand": "Barnes & Noble College", "brand:wikidata": "Q4861508"}},
{"type": "Feature", "id": "xm26I31tGAz_vwSh3psTSCbNSkg=", "properties": {"ref": "East Stroudsburg University", "@spider": "barnesnoblecollege", "addr:full": "200 Prospect St", "addr:city": "Stroudsburg", "addr:state": "PA", "addr:postcode": "18301", "addr:country": "US", "name": "East Stroudsburg University", "website": "https://www.bncollege.com/campus-stores/", "brand": "Barnes & Noble College", "brand:wikidata": "Q4861508"}},
{"type": "Feature", "id": "sO7nIOt-UI3CtNa6VFFCEvHWnno=", "properties": {"ref": "Lock Haven University", "@spider": "barnesnoblecollege", "addr:full": "401 N Fairview St", "addr:city": "Haven", "addr:state": "PA", "addr:postcode": "17745", "addr:country": "US", "name": "Lock Haven University", "website": "https://www.bncollege.com/campus-stores/", "brand": "Barnes & Noble College", "brand:wikidata": "Q4861508"}},
{"type": "Feature", "id": "ZV4iPsOYR4Op7QZPC9RdvnGB_So=", "properties": {"ref": "Penn State Fayette, The Eberly Camp", "@spider": "barnesnoblecollege", "addr:full": "2201 University Dr", "addr:city": "Furnace", "addr:state": "PA", "addr:postcode": "15456", "addr:country": "US", "name": "Penn State Fayette, The Eberly Camp", "website": "https://www.bncollege.com/campus-stores/", "brand": "Barnes & Noble College", "brand:wikidata": "Q4861508"}},
{"type": "Feature", "id": "xdrYvill8rJj_Q1rg4r_4N4F1qI=", "properties": {"ref": "Penn State Lehigh Valley", "@spider": "barnesnoblecollege", "addr:full": "2809 Saucon Valley Rd", "addr:city": "Valley", "addr:state": "PA", "addr:postcode": "18034", "addr:country": "US", "name": "Penn State Lehigh Valley", "website": "https://www.bncollege.com/campus-stores/", "brand": "Barnes & Noble College", "brand:wikidata": "Q4861508"}},
{"type": "Feature", "id": "KBFIvvmLDB2yG9HPpqzEN5iPBVY=", "properties": {"ref": "Penn State Mont Alto", "@spider": "barnesnoblecollege", "addr:full": "1 Campus Dr", "addr:city": "Alto", "addr:state": "PA", "addr:postcode": "17237", "addr:country": "US", "name": "Penn State Mont Alto", "website": "https://www.bncollege.com/campus-stores/", "brand": "Barnes & Noble College", "brand:wikidata": "Q4861508"}},
{"type": "Feature", "id": "lWjzIChW8EAwzYCnn4kL8OBN_To=", "properties": {"ref": "Penn State Schuylkill", "@spider": "barnesnoblecollege", "addr:full": "200 University Dr", "addr:city": "Haven", "addr:state": "PA", "addr:postcode": "17972", "addr:country": "US", "name": "Penn State Schuylkill", "website": "https://www.bncollege.com/campus-stores/", "brand": "Barnes & Noble College", "brand:wikidata": "Q4861508"}},
{"type": "Feature", "id": "9D2yIBCVqsgMCBNpDlpK78ZMSrk=", "properties": {"ref": "Penn State University Park", "@spider": "barnesnoblecollege", "addr:full": "1 Pollock Rd", "addr:city": "Park", "addr:state": "PA", "addr:postcode": "16802", "addr:country": "US", "name": "Penn State University Park", "website": "https://www.bncollege.com/campus-stores/", "brand": "Barnes & Noble College", "brand:wikidata": "Q4861508"}},
{"type": "Feature", "id": "T-ULXYcTIdmTFHwtDJg_gJJb7fM=", "properties": {"ref": "Robert Morris University (Pennsylvania)", "@spider": "barnesnoblecollege", "addr:full": "6001 University Blvd", "addr:city": "Twp", "addr:state": "PA", "addr:postcode": "15108", "addr:country": "US", "name": "Robert Morris University (Pennsylvania)", "website": "https://www.bncollege.com/campus-stores/", "brand": "Barnes & Noble College", "brand:wikidata": "Q4861508"}},
{"type": "Feature", "id": "0eWEBYtOndiCEnr8eGqCS8ispwA=", "properties": {"ref": "The Providence Country Day School", "@spider": "barnesnoblecollege", "addr:full": "660 Waterman Ave", "addr:city": "Providence", "addr:state": "RI", "addr:postcode": "02914", "addr:country": "US", "name": "The Providence Country Day School", "website": "https://www.bncollege.com/campus-stores/", "brand": "Barnes & Noble College", "brand:wikidata": "Q4861508"}},
{"type": "Feature", "id": "7bKr5gV_y-mZUhbeNAh8qW-qWHA=", "properties": {"ref": "Bishop England High Sch", "@spider": "barnesnoblecollege", "addr:full": "363 Seven Farms Drive", "addr:city": "Island", "addr:state": "SC", "addr:postcode": "29492", "addr:country": "US", "name": "Bishop England High Sch", "website": "https://www.bncollege.com/campus-stores/", "brand": "Barnes & Noble College", "brand:wikidata": "Q4861508"}},
{"type": "Feature", "id": "vFVNFIiX0aJRRnSVTCDBSonBK8o=", "properties": {"ref": "Horry-Georgetown Technical College", "@spider": "barnesnoblecollege", "addr:full": "3669 Pampas Dr", "addr:city": "Beach", "addr:state": "SC", "addr:postcode": "29577", "addr:country": "US", "name": "Horry-Georgetown Technical College", "website": "https://www.bncollege.com/campus-stores/", "brand": "Barnes & Noble College", "brand:wikidata": "Q4861508"}},
{"type": "Feature", "id": "lC-WcI-WV3wFqshVYRI3gfntJsk=", "properties": {"ref": "Midlands Technical College", "@spider": "barnesnoblecollege", "addr:full": "1260 Lexington Dr", "addr:city": "Columbia", "addr:state": "SC", "addr:postcode": "29170", "addr:country": "US", "name": "Midlands Technical College", "website": "https://www.bncollege.com/campus-stores/", "brand": "Barnes & Noble College", "brand:wikidata": "Q4861508"}},
{"type": "Feature", "id": "EU8li22J1_sI9ORO9IkOwy0DLrc=", "properties": {"ref": "Saint Elizabeth Ann Seton\u2019s", "@spider": "barnesnoblecollege", "addr:full": "1300 Carolina Forest Blvd", "addr:city": "Beach", "addr:state": "SC", "addr:postcode": "29579", "addr:country": "US", "name": "Saint Elizabeth Ann Seton\u2019s", "website": "https://www.bncollege.com/campus-stores/", "brand": "Barnes & Noble College", "brand:wikidata": "Q4861508"}},
{"type": "Feature", "id": "6Q2c9jl4pQ6bSOeM2VffRmxrbdA=", "properties": {"ref": "Winthrop University", "@spider": "barnesnoblecollege", "addr:full": "2020 Alumni Dr", "addr:city": "Hill", "addr:state": "SC", "addr:postcode": "29733", "addr:country": "US", "name": "Winthrop University", "website": "https://www.bncollege.com/campus-stores/", "brand": "Barnes & Noble College", "brand:wikidata": "Q4861508"}},
{"type": "Feature", "id": "pAqApxNITDGG8slwzQ4myTU9y_A=", "properties": {"ref": "York Technical College", "@spider": "barnesnoblecollege", "addr:full": "452 Anderson Rd S", "addr:city": "Hill", "addr:state": "SC", "addr:postcode": "29730", "addr:country": "US", "name": "York Technical College", "website": "https://www.bncollege.com/campus-stores/", "brand": "Barnes & Noble College", "brand:wikidata": "Q4861508"}},
{"type": "Feature", "id": "iVioswdBkDN7dwA4E3Ri1jJFxqM=", "properties": {"ref": "Augustana University", "@spider": "barnesnoblecollege", "addr:full": "2112 S Grange Ave", "addr:city": "Falls", "addr:state": "SD", "addr:postcode": "57197", "addr:country": "US", "name": "Augustana University", "website": "https://www.bncollege.com/campus-stores/", "brand": "Barnes & Noble College", "brand:wikidata": "Q4861508"}},
{"type": "Feature", "id": "Vtn5Ek9S0AE7YeLAxGap1DSFE6g=", "properties": {"ref": "Lincoln Memorial University", "@spider": "barnesnoblecollege", "addr:full": "6965 Cumberland Gap Pkwy", "addr:city": "Gap", "addr:state": "TN", "addr:postcode": "37724", "addr:country": "US", "name": "Lincoln Memorial University", "website": "https://www.bncollege.com/campus-stores/", "brand": "Barnes & Noble College", "brand:wikidata": "Q4861508"}},
{"type": "Feature", "id": "_i41AOn3aGZFJucC2rBYkZ3Jdlo=", "properties": {"ref": "Alamo Colleges \u2013 Northeast Lakeview", "@spider": "barnesnoblecollege", "addr:full": "1201 Kitty Hawk Rd", "addr:city": "City", "addr:state": "TX", "addr:postcode": "78148", "addr:country": "US", "name": "Alamo Colleges \u2013 Northeast Lakeview", "website": "https://www.bncollege.com/campus-stores/", "brand": "Barnes & Noble College", "brand:wikidata": "Q4861508"}},
{"type": "Feature", "id": "AJuDGkYxdCBtbaijAjaLzk046KM=", "properties": {"ref": "Alamo Colleges \u2013 Northwest Vista", "@spider": "barnesnoblecollege", "addr:full": "3535 N Ellison Dr", "addr:city": "Antonio", "addr:state": "TX", "addr:postcode": "78251", "addr:country": "US", "name": "Alamo Colleges \u2013 Northwest Vista", "website": "https://www.bncollege.com/campus-stores/", "brand": "Barnes & Noble College", "brand:wikidata": "Q4861508"}},
{"type": "Feature", "id": "wIbmhqsnT0cmBZy6DC46jjK72Sc=", "properties": {"ref": "Alamo Colleges \u2013 Palo Alto", "@spider": "barnesnoblecollege", "addr:full": "1400 W Villaret Blvd", "addr:city": "Antonio", "addr:state": "TX", "addr:postcode": "78224", "addr:country": "US", "name": "Alamo Colleges \u2013 Palo Alto", "website": "https://www.bncollege.com/campus-stores/", "brand": "Barnes & Noble College", "brand:wikidata": "Q4861508"}},
{"type": "Feature", "id": "Ijxw_D31Q36MkID3mpxmPRlcMhY=", "properties": {"ref": "Alamo Colleges \u2013 St. Philip\u2019s", "@spider": "barnesnoblecollege", "addr:full": "1801 Martin Luther King Dr", "addr:city": "Antonio", "addr:state": "TX", "addr:postcode": "78203", "addr:country": "US", "name": "Alamo Colleges \u2013 St. Philip\u2019s", "website": "https://www.bncollege.com/campus-stores/", "brand": "Barnes & Noble College", "brand:wikidata": "Q4861508"}},
{"type": "Feature", "id": "HTBCAWm3w_G2VjAoFbhpnLL8rHI=", "properties": {"ref": "Antonian College Preparatory", "@spider": "barnesnoblecollege", "addr:full": "6425 West Ave", "addr:city": "Antonio", "addr:state": "TX", "addr:postcode": "78213", "addr:country": "US", "name": "Antonian College Preparatory", "website": "https://www.bncollege.com/campus-stores/", "brand": "Barnes & Noble College", "brand:wikidata": "Q4861508"}},
{"type": "Feature", "id": "guZr1yb1dxFJYLfZizPKcjZ4ZZw=", "properties": {"ref": "Austin Community College", "@spider": "barnesnoblecollege", "addr:full": "4400 College Park Dr Building 2000", "addr:city": "Round Rock", "addr:state": "TX", "addr:postcode": "78665", "addr:country": "US", "name": "Austin Community College", "website": "https://www.bncollege.com/campus-stores/", "brand": "Barnes & Noble College", "brand:wikidata": "Q4861508"}},
{"type": "Feature", "id": "1gaWqOJKk6s86k71guutilElhbQ=", "properties": {"ref": "Coram Deo Academy", "@spider": "barnesnoblecollege", "addr:full": "4900 Wichita Trail", "addr:city": "Mound", "addr:state": "TX", "addr:postcode": "75022", "addr:country": "US", "name": "Coram Deo Academy", "website": "https://www.bncollege.com/campus-stores/", "brand": "Barnes & Noble College", "brand:wikidata": "Q4861508"}},
{"type": "Feature", "id": "cyK5VDi6H8UFjq57d24wGiYCeT4=", "properties": {"ref": "El Paso Community College", "@spider": "barnesnoblecollege", "addr:full": "919 Hunter Dr", "addr:city": "Paso", "addr:state": "TX", "addr:postcode": "79915", "addr:country": "US", "name": "El Paso Community College", "website": "https://www.bncollege.com/campus-stores/", "brand": "Barnes & Noble College", "brand:wikidata": "Q4861508"}},
{"type": "Feature", "id": "naZ_kOppPG2PchE1t8aWRGFgPtA=", "properties": {"ref": "Fort Worth Country Day School", "@spider": "barnesnoblecollege", "addr:full": "4200 Country Day Ln", "addr:city": "Worth", "addr:state": "TX", "addr:postcode": "76109", "addr:country": "US", "name": "Fort Worth Country Day School", "website": "https://www.bncollege.com/campus-stores/", "brand": "Barnes & Noble College", "brand:wikidata": "Q4861508"}},
{"type": "Feature", "id": "2VtFU6xczApNEBhxY9e3VT25fJ4=", "properties": {"ref": "John Cooper School", "@spider": "barnesnoblecollege", "addr:full": "1 John Cooper Dr", "addr:city": "Woodlands", "addr:state": "TX", "addr:postcode": "77381", "addr:country": "US", "name": "John Cooper School", "website": "https://www.bncollege.com/campus-stores/", "brand": "Barnes & Noble College", "brand:wikidata": "Q4861508"}},
{"type": "Feature", "id": "ChiZP9o5I48m4dCS8sq2ocXYXuA=", "properties": {"ref": "Lamar State College \u2013 Port Arthur", "@spider": "barnesnoblecollege", "addr:full": "300 Lake Charles Ave", "addr:city": "Arthur", "addr:state": "TX", "addr:postcode": "77640", "addr:country": "US", "name": "Lamar State College \u2013 Port Arthur", "website": "https://www.bncollege.com/campus-stores/", "brand": "Barnes & Noble College", "brand:wikidata": "Q4861508"}},
{"type": "Feature", "id": "yv3MlpOTG87WDrD9XcBF-hOjGXU=", "properties": {"ref": "Nolan Catholic High School", "@spider": "barnesnoblecollege", "addr:full": "4501 Bridge St", "addr:city": "Worth", "addr:state": "TX", "addr:postcode": "76103", "addr:country": "US", "name": "Nolan Catholic High School", "website": "https://www.bncollege.com/campus-stores/", "brand": "Barnes & Noble College", "brand:wikidata": "Q4861508"}},
{"type": "Feature", "id": "JkmSJwoJPxVxoN-LZ8sNvnyRYoE=", "properties": {"ref": "Parish Episcopal School", "@spider": "barnesnoblecollege", "addr:full": "4101 Sigma Rd", "addr:city": "Branch", "addr:state": "TX", "addr:postcode": "75244", "addr:country": "US", "name": "Parish Episcopal School", "website": "https://www.bncollege.com/campus-stores/", "brand": "Barnes & Noble College", "brand:wikidata": "Q4861508"}},
{"type": "Feature", "id": "p_c5yzqo_sk8Vg6AZdsCuMCJ_3w=", "properties": {"ref": "South Texas College", "@spider": "barnesnoblecollege", "addr:full": "142 FM 3167", "addr:city": "Grande City", "addr:state": "TX", "addr:postcode": "78582", "addr:country": "US", "name": "South Texas College", "website": "https://www.bncollege.com/campus-stores/", "brand": "Barnes & Noble College", "brand:wikidata": "Q4861508"}},
{"type": "Feature", "id": "_rhFRCzhr67wsqr6noZ3JMt6n8s=", "properties": {"ref": "Southwest Christian School", "@spider": "barnesnoblecollege", "addr:full": "7001 Benbrook Lake Dr", "addr:city": "Worth", "addr:state": "TX", "addr:postcode": "76123", "addr:country": "US", "name": "Southwest Christian School", "website": "https://www.bncollege.com/campus-stores/", "brand": "Barnes & Noble College", "brand:wikidata": "Q4861508"}},
{"type": "Feature", "id": "XID7suTft_1WQVzrgWPEsWGRrgM=", "properties": {"ref": "Southwestern Baptist Theological Seminary", "@spider": "barnesnoblecollege", "addr:full": "2001 W Seminary Dr", "addr:city": "Worth", "addr:state": "TX", "addr:postcode": "76115", "addr:country": "US", "name": "Southwestern Baptist Theological Seminary", "website": "https://www.bncollege.com/campus-stores/", "brand": "Barnes & Noble College", "brand:wikidata": "Q4861508"}},
{"type": "Feature", "id": "cz9TCi4g_YTqfjUho6fVRnWqSO0=", "properties": {"ref": "St. Mary\u2019s University (San Antonio)", "@spider": "barnesnoblecollege", "addr:full": "mino Santa Maria", "addr:city": "Antonio", "addr:state": "TX", "addr:postcode": "78228", "addr:country": "US", "name": "St. Mary\u2019s University (San Antonio)", "website": "https://www.bncollege.com/campus-stores/", "brand": "Barnes & Noble College", "brand:wikidata": "Q4861508"}},
{"type": "Feature", "id": "G0mEC0FDxzI83kIbgpO0Bh9Hny0=", "properties": {"ref": "Tarrant County College District", "@spider": "barnesnoblecollege", "addr:full": "300 Trinity Campus Cir", "addr:city": "Worth", "addr:state": "TX", "addr:postcode": "76102", "addr:country": "US", "name": "Tarrant County College District", "website": "https://www.bncollege.com/campus-stores/", "brand": "Barnes & Noble College", "brand:wikidata": "Q4861508"}},
{"type": "Feature", "id": "vfi8umApMeKOlJjbO_KH6K3ZSJw=", "properties": {"ref": "Temple Christian School", "@spider": "barnesnoblecollege", "addr:full": "6824 Randol Mill Rd", "addr:city": "Worth", "addr:state": "TX", "addr:postcode": "76120", "addr:country": "US", "name": "Temple Christian School", "website": "https://www.bncollege.com/campus-stores/", "brand": "Barnes & Noble College", "brand:wikidata": "Q4861508"}},
{"type": "Feature", "id": "4-aE68WWp_uxqUAtcyMZQ5AZESw=", "properties": {"ref": "Texas A & M University", "@spider": "barnesnoblecollege", "addr:full": "275 Joe Routt Blvd", "addr:city": "Station", "addr:state": "TX", "addr:postcode": "77843", "addr:country": "US", "name": "Texas A & M University", "website": "https://www.bncollege.com/campus-stores/", "brand": "Barnes & Noble College", "brand:wikidata": "Q4861508"}},
{"type": "Feature", "id": "pcVjbBcjvFMQtq8TdsENaxuTokA=", "properties": {"ref": "Trinity University", "@spider": "barnesnoblecollege", "addr:full": "715 Stadium Dr Rm 112", "addr:city": "Antonio", "addr:state": "TX", "addr:postcode": "78212", "addr:country": "US", "name": "Trinity University", "website": "https://www.bncollege.com/campus-stores/", "brand": "Barnes & Noble College", "brand:wikidata": "Q4861508"}},
{"type": "Feature", "id": "6BC5UENrZrbhGWCH4kUwPtVHPw4=", "properties": {"ref": "University of Texas Health Science Center at San Antonio", "@spider": "barnesnoblecollege", "addr:full": "7703 Floyd Curl Dr", "addr:city": "Antonio", "addr:state": "TX", "addr:postcode": "78229", "addr:country": "US", "name": "University of Texas Health Science Center at San Antonio", "website": "https://www.bncollege.com/campus-stores/", "brand": "Barnes & Noble College", "brand:wikidata": "Q4861508"}},
{"type": "Feature", "id": "6meB3mHhAQnDuPiPYYb7CBMoZAk=", "properties": {"ref": "Judge Memorial Catholic High School", "@spider": "barnesnoblecollege", "addr:full": "650 S 1100 E", "addr:city": "Lake City", "addr:state": "UT", "addr:postcode": "84102", "addr:country": "US", "name": "Judge Memorial Catholic High School", "website": "https://www.bncollege.com/campus-stores/", "brand": "Barnes & Noble College", "brand:wikidata": "Q4861508"}},
{"type": "Feature", "id": "ZKSZIeoeNVe7BuaPRuhFztkJME8=", "properties": {"ref": "Neumont College of Computer Science", "@spider": "barnesnoblecollege", "addr:full": "143 S Main St", "addr:city": "Lake City", "addr:state": "UT", "addr:postcode": "84111", "addr:country": "US", "name": "Neumont College of Computer Science", "website": "https://www.bncollege.com/campus-stores/", "brand": "Barnes & Noble College", "brand:wikidata": "Q4861508"}},
{"type": "Feature", "id": "FhPsW445onD769ZYCp4TmFWmf5A=", "properties": {"ref": "Cape Henry Collegiate", "@spider": "barnesnoblecollege", "addr:full": "1320 Mill Dam Rd", "addr:city": "Beach", "addr:state": "VA", "addr:postcode": "23454", "addr:country": "US", "name": "Cape Henry Collegiate", "website": "https://www.bncollege.com/campus-stores/", "brand": "Barnes & Noble College", "brand:wikidata": "Q4861508"}},
{"type": "Feature", "id": "_ylqgCwFHsNpXVssnFp_k7x1j_E=", "properties": {"ref": "Catholic High School", "@spider": "barnesnoblecollege", "addr:full": "4552 Princess Anne Rd", "addr:city": "Beach", "addr:state": "VA", "addr:postcode": "23462", "addr:country": "US", "name": "Catholic High School", "website": "https://www.bncollege.com/campus-stores/", "brand": "Barnes & Noble College", "brand:wikidata": "Q4861508"}},
{"type": "Feature", "id": "LscjmMrMf5u6rlVSNLKjNGpejhE=", "properties": {"ref": "Northern Virginia Community College", "@spider": "barnesnoblecollege", "addr:full": "46432 Logan Way", "addr:city": "Falls", "addr:state": "VA", "addr:postcode": "20165", "addr:country": "US", "name": "Northern Virginia Community College", "website": "https://www.bncollege.com/campus-stores/", "brand": "Barnes & Noble College", "brand:wikidata": "Q4861508"}},
{"type": "Feature", "id": "8BecF8a1w0UxADEi8y_6bEH-8Ic=", "properties": {"ref": "Peninsula Catholic High School", "@spider": "barnesnoblecollege", "addr:full": "600 Harpersville Rd", "addr:city": "News", "addr:state": "VA", "addr:postcode": "23601", "addr:country": "US", "name": "Peninsula Catholic High School", "website": "https://www.bncollege.com/campus-stores/", "brand": "Barnes & Noble College", "brand:wikidata": "Q4861508"}},
{"type": "Feature", "id": "P1wAr9dwbMGJOIFsJkRqZVjOdhE=", "properties": {"ref": "Regent University", "@spider": "barnesnoblecollege", "addr:full": "1000 Regent University Dr", "addr:city": "Beach", "addr:state": "VA", "addr:postcode": "23464", "addr:country": "US", "name": "Regent University", "website": "https://www.bncollege.com/campus-stores/", "brand": "Barnes & Noble College", "brand:wikidata": "Q4861508"}},
{"type": "Feature", "id": "e5MfWKiVBhYQ5v7zYAfbWY-KCgw=", "properties": {"ref": "Southside College of Health Sciences", "@spider": "barnesnoblecollege", "addr:full": "430 Clairmont Ct Suite 200", "addr:city": "Heights", "addr:state": "VA", "addr:postcode": "23834", "addr:country": "US", "name": "Southside College of Health Sciences", "website": "https://www.bncollege.com/campus-stores/", "brand": "Barnes & Noble College", "brand:wikidata": "Q4861508"}},
{"type": "Feature", "id": "_weTQTQkmBCHTJovEOTNq51zxdQ=", "properties": {"ref": "Tidewater Community College", "@spider": "barnesnoblecollege", "addr:full": "1700 College Crescent", "addr:city": "Beach", "addr:state": "VA", "addr:postcode": "23453", "addr:country": "US", "name": "Tidewater Community College", "website": "https://www.bncollege.com/campus-stores/", "brand": "Barnes & Noble College", "brand:wikidata": "Q4861508"}},
{"type": "Feature", "id": "NI2KbHOhfK3VaGnCDPl97PnJLWE=", "properties": {"ref": "Walla Walla University", "@spider": "barnesnoblecollege", "addr:full": "295 S College Ave", "addr:city": "Place", "addr:state": "WA", "addr:postcode": "99324", "addr:country": "US", "name": "Walla Walla University", "website": "https://www.bncollege.com/campus-stores/", "brand": "Barnes & Noble College", "brand:wikidata": "Q4861508"}},
{"type": "Feature", "id": "8_idKYs_ofXGXACPPhznH9cmc2g=", "properties": {"ref": "Whitman College", "@spider": "barnesnoblecollege", "addr:full": "280 Boyer Ave", "addr:city": "Walla", "addr:state": "WA", "addr:postcode": "99362", "addr:country": "US", "name": "Whitman College", "website": "https://www.bncollege.com/campus-stores/", "brand": "Barnes & Noble College", "brand:wikidata": "Q4861508"}},
{"type": "Feature", "id": "RJ2ZvSi4-fO5f65CwTTdcwE-Y-E=", "properties": {"ref": "Bellin College", "@spider": "barnesnoblecollege", "addr:full": "3201 Eaton Rd", "addr:city": "Bay", "addr:state": "WI", "addr:postcode": "54311", "addr:country": "US", "name": "Bellin College", "website": "https://www.bncollege.com/campus-stores/", "brand": "Barnes & Noble College", "brand:wikidata": "Q4861508"}},
{"type": "Feature", "id": "UIXWTs78Uuumkvl_tJIC2hutBic=", "properties": {"ref": "University of Wisconsin-Stevens Point", "@spider": "barnesnoblecollege", "addr:full": "1015 Reserve St", "addr:city": "Point", "addr:state": "WI", "addr:postcode": "54481", "addr:country": "US", "name": "University of Wisconsin-Stevens Point", "website": "https://www.bncollege.com/campus-stores/", "brand": "Barnes & Noble College", "brand:wikidata": "Q4861508"}},
{"type": "Feature", "id": "OMrgkP8R54UFmm09dN1CXKZ37Bg=", "properties": {"ref": "University School of Milwaukee", "@spider": "barnesnoblecollege", "addr:full": "2100 W Fairy Chasm Rd", "addr:city": "Hills", "addr:state": "WI", "addr:postcode": "53217", "addr:country": "US", "name": "University School of Milwaukee", "website": "https://www.bncollege.com/campus-stores/", "brand": "Barnes & Noble College", "brand:wikidata": "Q4861508"}},
{"type": "Feature", "id": "LvJA5ko0kO2PKWTQPXvSdUTrLdk=", "properties": {"ref": "Wayland Academy", "@spider": "barnesnoblecollege", "addr:full": "101 N University Ave", "addr:city": "Dam", "addr:state": "WI", "addr:postcode": "53916", "addr:country": "US", "name": "Wayland Academy", "website": "https://www.bncollege.com/campus-stores/", "brand": "Barnes & Noble College", "brand:wikidata": "Q4861508"}}]}