{"type":"FeatureCollection","features":[{"type": "Feature", "id": "dxDAyufBDvV7qkBc5Q-7ZCRUepg=", "properties": {"ref": "117653", "@spider": "bashas", "shop": "supermarket", "addr:street_address": "5311 S. SUPERSTITION MTN RD", "addr:city": "GOLD CANYON", "addr:state": "AZ", "addr:postcode": "85118", "addr:country": "US", "name": "Bashas\u2019 Supermarket: Superstition Mtn Dr & Hwy 60", "phone": "480-474-9401", "website": "https://www.bashas.com/stores/bashas-supermarket-superstition-mtn-dr-hwy-60/", "opening_hours": "Mo-Su 06:00-10:00", "brand": "Bashas'", "brand:wikidata": "Q4866786", "nsi_id": "bashas-dde59d"}, "geometry": {"type": "Point", "coordinates": [-111.474703, 33.366563]}},
{"type": "Feature", "id": "Cr_scNKauSPf04i6mDF4H-tBTU4=", "properties": {"ref": "117650", "@spider": "bashas", "shop": "supermarket", "addr:street_address": "2864 N. POWER RD", "addr:city": "MESA", "addr:state": "AZ", "addr:postcode": "85215", "addr:country": "US", "name": "Bashas\u2019 Supermarket: Power & McDowell", "phone": "480-830-7900", "website": "https://www.bashas.com/stores/bashas-supermarket-power-mcdowell/", "opening_hours": "Mo-Su 06:00-10:00", "brand": "Bashas'", "brand:wikidata": "Q4866786", "nsi_id": "bashas-dde59d"}, "geometry": {"type": "Point", "coordinates": [-111.685508, 33.467853]}},
{"type": "Feature", "id": "Aa476_Vu8QLAv82-x3eF8SIBoWA=", "properties": {"ref": "117648", "@spider": "bashas", "shop": "supermarket", "addr:street_address": "1000 N. HUMPHREYS #112", "addr:city": "FLAGSTAFF", "addr:state": "AZ", "addr:postcode": "86001", "addr:country": "US", "name": "Bashas\u2019 Supermarket: Humphreys & Columbus", "phone": "928-774-2101", "website": "https://www.bashas.com/stores/bashas-supermarket-humphreys-columbus/", "opening_hours": "Mo-Su 06:00-10:00", "brand": "Bashas'", "brand:wikidata": "Q4866786", "nsi_id": "bashas-dde59d"}, "geometry": {"type": "Point", "coordinates": [-111.646973, 35.207951]}},
{"type": "Feature", "id": "OaCoMrW79rHO3jFh9NVYO_MoNC8=", "properties": {"ref": "117647", "@spider": "bashas", "shop": "supermarket", "addr:street_address": "36889 TOM DARLINGTON", "addr:city": "CAREFREE", "addr:state": "AZ", "addr:postcode": "85377", "addr:country": "US", "name": "Bashas\u2019 Supermarket: Tom Darlington & Carefree Hwy", "phone": "480-488-1797", "website": "https://www.bashas.com/stores/bashas-supermarket-tom-darlington-carefree-hwy/", "opening_hours": "Mo-Su 06:00-09:00", "brand": "Bashas'", "brand:wikidata": "Q4866786", "nsi_id": "bashas-dde59d"}, "geometry": {"type": "Point", "coordinates": [-111.923375, 33.821564]}},
{"type": "Feature", "id": "tsC1umPGB2ht-rAn-OHC6hPDOHI=", "properties": {"ref": "117643", "@spider": "bashas", "shop": "supermarket", "addr:street_address": "650 N. MAIN", "addr:city": "TAYLOR", "addr:state": "AZ", "addr:postcode": "85939", "addr:country": "US", "name": "Bashas\u2019 Supermarket: Main St & Paper Mill", "phone": "928-536-2050", "website": "https://www.bashas.com/stores/bashas-supermarket-main-st-paper-mill/", "opening_hours": "Mo-Sa 06:00-10:00; Su 06:00-08:00", "brand": "Bashas'", "brand:wikidata": "Q4866786", "nsi_id": "bashas-dde59d"}, "geometry": {"type": "Point", "coordinates": [-110.091216, 34.457229]}},
{"type": "Feature", "id": "hxoee6mcCJO5T5StikR6Ot0Ocxw=", "properties": {"ref": "117640", "@spider": "bashas", "shop": "supermarket", "addr:street_address": "650 FINNEY FLAT RD", "addr:city": "CAMP VERDE", "addr:state": "AZ", "addr:postcode": "86322", "addr:country": "US", "name": "Bashas\u2019 Supermarket: Hwy 260 & Finney Flat", "phone": "928-567-4585", "website": "https://www.bashas.com/stores/bashas-supermarket-hwy-260-finney-flat/", "opening_hours": "Mo-Sa 06:00-10:00; Su 06:00-09:00", "brand": "Bashas'", "brand:wikidata": "Q4866786", "nsi_id": "bashas-dde59d"}, "geometry": {"type": "Point", "coordinates": [-111.864984, 34.567126]}},
{"type": "Feature", "id": "fTX1_fYMutvrj_AKGjz5SX2lAtI=", "properties": {"ref": "117639", "@spider": "bashas", "shop": "supermarket", "addr:street_address": "1761 E. WARNER RD", "addr:city": "TEMPE", "addr:state": "AZ", "addr:postcode": "85284", "addr:country": "US", "name": "Bashas\u2019 Supermarket: Warner & McClintock", "phone": "480-839-9778", "website": "https://www.bashas.com/stores/bashas-supermarket-warner-mcclintock/", "opening_hours": "Mo-Su 06:00-10:00", "brand": "Bashas'", "brand:wikidata": "Q4866786", "nsi_id": "bashas-dde59d"}, "geometry": {"type": "Point", "coordinates": [-111.912509, 33.333273]}},
{"type": "Feature", "id": "y0ukxWXKqNz9mVNc2fFJIptOak8=", "properties": {"ref": "117629", "@spider": "bashas", "shop": "supermarket", "addr:street_address": "3360 ANDY DEVINE DR", "addr:city": "KINGMAN", "addr:state": "AZ", "addr:postcode": "86401", "addr:country": "US", "name": "Bashas\u2019 Supermarket: Armour & Andy Devine", "phone": "928-757-7162", "website": "https://www.bashas.com/stores/bashas-supermarket-armour-andy-devine/", "opening_hours": "Mo-Su 06:00-09:00", "brand": "Bashas'", "brand:wikidata": "Q4866786", "nsi_id": "bashas-dde59d"}, "geometry": {"type": "Point", "coordinates": [-114.004621, 35.221286]}},
{"type": "Feature", "id": "wir4iFrKm-DEchIoyOwmSguNxtY=", "properties": {"ref": "117625", "@spider": "bashas", "shop": "supermarket", "addr:street_address": "2700 S. WOODLANDS VILLAGE BLVD", "addr:city": "FLAGSTAFF", "addr:state": "AZ", "addr:postcode": "86001", "addr:country": "US", "name": "Bashas\u2019 Supermarket: Woodlands Village", "phone": "928-774-3882", "website": "https://www.bashas.com/stores/bashas-supermarket-woodlands-village/", "opening_hours": "Mo-Su 06:00-10:00", "brand": "Bashas'", "brand:wikidata": "Q4866786", "nsi_id": "bashas-dde59d"}, "geometry": {"type": "Point", "coordinates": [-111.665868, 35.17628]}},
{"type": "Feature", "id": "c2zZyE10kGc6qPzEpzsdviHSt-U=", "properties": {"ref": "117623", "@spider": "bashas", "shop": "supermarket", "addr:street_address": "8423 E. MCDONALD DR.", "addr:city": "SCOTTSDALE", "addr:state": "AZ", "addr:postcode": "85250", "addr:country": "US", "name": "Bashas\u2019 Supermarket: McDonald & Granite Reef", "phone": "480-948-8110", "website": "https://www.bashas.com/stores/bashas-supermarket-mcdonald-granite-reef/", "opening_hours": "Mo-Su 06:00-11:00", "brand": "Bashas'", "brand:wikidata": "Q4866786", "nsi_id": "bashas-dde59d"}, "geometry": {"type": "Point", "coordinates": [-111.899074, 33.522706]}},
{"type": "Feature", "id": "Eg42a2Hj5xY8FqfBK5KVfEBjf8g=", "properties": {"ref": "117622", "@spider": "bashas", "shop": "supermarket", "addr:street_address": "10631 N. 32ND ST", "addr:city": "PHOENIX", "addr:state": "AZ", "addr:postcode": "85028", "addr:country": "US", "name": "Bashas\u2019 Supermarket: 32nd St. & E. Shea Blvd.", "phone": "602-996-1040", "website": "https://www.bashas.com/stores/bashas-supermarket-32nd-st-e-shea-blvd/", "opening_hours": "Mo-Su 06:00-11:00", "brand": "Bashas'", "brand:wikidata": "Q4866786", "nsi_id": "bashas-dde59d"}, "geometry": {"type": "Point", "coordinates": [-112.013067, 33.583434]}},
{"type": "Feature", "id": "ULLnNSkzFSpMuinLrC4wxuCBJpI=", "properties": {"ref": "117658", "@spider": "bashas", "shop": "supermarket", "addr:street_address": "10111 E. BELL RD", "addr:city": "SCOTTSDALE", "addr:state": "AZ", "addr:postcode": "85260", "addr:country": "US", "name": "Bashas\u2019 Supermarket: Thompson Peak & Bell Rd", "phone": "480-513-7560", "website": "https://www.bashas.com/stores/bashas-supermarket-thompson-peak-bell-rd/", "opening_hours": "Mo-Su 06:00-11:00", "brand": "Bashas'", "brand:wikidata": "Q4866786", "nsi_id": "bashas-dde59d"}, "geometry": {"type": "Point", "coordinates": [-111.863684, 33.638415]}},
{"type": "Feature", "id": "3n2wyhhOXxXMNc3wH8wprqDEksk=", "properties": {"ref": "117638", "@spider": "bashas", "shop": "supermarket", "addr:street_address": "16605 E. PALISADES BLVD", "addr:city": "FOUNTAIN HILLS", "addr:state": "AZ", "addr:postcode": "85268", "addr:country": "US", "name": "Bashas\u2019 Supermarket: Palisades Blvd & Saguaro", "phone": "480-391-4020", "website": "https://www.bashas.com/stores/bashas-supermarket-palisades-blvd-saguaro/", "opening_hours": "Mo-Su 06:00-10:00", "brand": "Bashas'", "brand:wikidata": "Q4866786", "nsi_id": "bashas-dde59d"}, "geometry": {"type": "Point", "coordinates": [-111.722111, 33.607682]}},
{"type": "Feature", "id": "RLy31-BTxjER93VV-zibuSlVF1I=", "properties": {"ref": "117045", "@spider": "bashas", "shop": "supermarket", "addr:street_address": "2323 W. HWY 70", "addr:city": "THATCHER", "addr:state": "AZ", "addr:postcode": "85552", "addr:country": "US", "name": "Bashas\u2019 Supermarket: Hwy 70, Thatcher", "phone": "928-428-6238", "website": "https://www.bashas.com/stores/bashas-supermarket-hwy-70-thatcher/", "opening_hours": "Mo-Su 06:00-09:00", "brand": "Bashas'", "brand:wikidata": "Q4866786", "nsi_id": "bashas-dde59d"}, "geometry": {"type": "Point", "coordinates": [-109.738311, 32.840303]}},
{"type": "Feature", "id": "1kI5ZBjdi6DHXYl73H5_OQAnOXM=", "properties": {"ref": "117020", "@spider": "bashas", "shop": "supermarket", "addr:street_address": "8035 E. INDIAN SCHOOL RD.", "addr:city": "SCOTTSDALE", "addr:state": "AZ", "addr:postcode": "85251", "addr:country": "US", "name": "Bashas\u2019 Supermarket: \u00a0Hayden & Indian School", "phone": "480-946-6821", "website": "https://www.bashas.com/stores/bashas-supermarket-hayden-indian-school/", "opening_hours": "Mo-Su 06:00-11:00", "brand": "Bashas'", "brand:wikidata": "Q4866786", "nsi_id": "bashas-dde59d"}, "geometry": {"type": "Point", "coordinates": [-111.907495, 33.49365]}},
{"type": "Feature", "id": "lpVx-IG1DMwb5Bg-gBDZTIJ29Vk=", "properties": {"ref": "117047", "@spider": "bashas", "shop": "supermarket", "addr:street_address": "10325 E. RIGGS RD.", "addr:city": "SUN LAKES", "addr:state": "AZ", "addr:postcode": "85248", "addr:country": "US", "name": "Bashas\u2019 Supermarket: \u00a0Alma School & Riggs", "phone": "480-802-7180", "website": "https://www.bashas.com/stores/bashas-supermarket-alma-school-riggs/", "opening_hours": "Mo-Su 05:00-09:00", "brand": "Bashas'", "brand:wikidata": "Q4866786", "nsi_id": "bashas-dde59d"}, "geometry": {"type": "Point", "coordinates": [-111.859486, 33.217702]}},
{"type": "Feature", "id": "5LfonYGU1fF-YPZBraeuSBn5ZPE=", "properties": {"ref": "117641", "@spider": "bashas", "shop": "supermarket", "addr:street_address": "1122 N. HIGLEY", "addr:city": "MESA", "addr:state": "AZ", "addr:postcode": "85205", "addr:country": "US", "name": "Bashas\u2019 Supermarket: Brown & Higley", "phone": "480-396-8098", "website": "https://www.bashas.com/stores/bashas-supermarket-brown-higley/", "opening_hours": "Mo-Su 06:00-10:00", "brand": "Bashas'", "brand:wikidata": "Q4866786", "nsi_id": "bashas-dde59d"}, "geometry": {"type": "Point", "coordinates": [-111.72096, 33.436049]}},
{"type": "Feature", "id": "bMeeFvbZwTa3x-ur4XqFVphQReU=", "properties": {"ref": "117671", "@spider": "bashas", "shop": "supermarket", "addr:street_address": "5555 N. 7TH STREET #130", "addr:city": "PHOENIX", "addr:state": "AZ", "addr:postcode": "85014", "addr:country": "US", "name": "Bashas\u2019 Supermarket: 7th St & Missouri", "phone": "602-222-1820", "website": "https://www.bashas.com/stores/bashas-supermarket-7th-st-missouri/", "opening_hours": "Mo-Su 06:00-11:00", "brand": "Bashas'", "brand:wikidata": "Q4866786", "nsi_id": "bashas-dde59d"}, "geometry": {"type": "Point", "coordinates": [-112.063617, 33.517795]}},
{"type": "Feature", "id": "mEn-NagkHbXIb9AZrRh6kJq48Jk=", "properties": {"ref": "117670", "@spider": "bashas", "shop": "supermarket", "addr:street_address": "9925 E. BASELINE RD", "addr:city": "MESA", "addr:state": "AZ", "addr:postcode": "85209", "addr:country": "US", "name": "Bashas\u2019 Supermarket: Baseline & Crismon", "phone": "480-354-2798", "website": "https://www.bashas.com/stores/bashas-supermarket-baseline-crismon/", "opening_hours": "Mo-Su 06:00-10:00", "brand": "Bashas'", "brand:wikidata": "Q4866786", "nsi_id": "bashas-dde59d"}, "geometry": {"type": "Point", "coordinates": [-111.621026, 33.377778]}},
{"type": "Feature", "id": "AywM_Yy4hQqVlxHhI2z0Z5nzIyQ=", "properties": {"ref": "117666", "@spider": "bashas", "shop": "supermarket", "addr:street_address": "150 N. MAIN", "addr:city": "EAGAR", "addr:state": "AZ", "addr:postcode": "85925", "addr:country": "US", "name": "Bashas\u2019 Supermarket", "phone": "928-333-0177", "website": "https://www.bashas.com/stores/bashas-supermarket-eagar-az/", "opening_hours": "Mo-Sa 06:00-09:00; Su 07:00-09:00", "brand": "Bashas'", "brand:wikidata": "Q4866786", "nsi_id": "bashas-dde59d"}, "geometry": {"type": "Point", "coordinates": [-109.291547, 34.113481]}},
{"type": "Feature", "id": "ZwDIEpWF5SrKCCi-GbsE8OvWIeI=", "properties": {"ref": "117661", "@spider": "bashas", "shop": "supermarket", "addr:street_address": "21044 N. JOHN WAYNE PKWY", "addr:city": "MARICOPA", "addr:state": "AZ", "addr:postcode": "85239", "addr:country": "US", "name": "Bashas\u2019 Supermarket: Maricopa Rd & Smith Enke Rd", "phone": "520-836-4400", "website": "https://www.bashas.com/stores/bashas-supermarket-maricopa-rd-smith-enke-rd/", "opening_hours": "Mo-Su 06:00-10:00", "brand": "Bashas'", "brand:wikidata": "Q4866786", "nsi_id": "bashas-dde59d"}, "geometry": {"type": "Point", "coordinates": [-112.046765, 33.071202]}},
{"type": "Feature", "id": "Y_Df4LIQv7LvLuc94Qr3fB51Dbo=", "properties": {"ref": "117656", "@spider": "bashas", "shop": "supermarket", "addr:street_address": "172 PLAZA, BOX 910", "addr:city": "MORENCI", "addr:state": "AZ", "addr:postcode": "85540", "addr:country": "US", "name": "Bashas\u2019 Supermarket: Hwy 191 & Burro Alley", "phone": "928-865-1820", "website": "https://www.bashas.com/stores/bashas-supermarket-hwy-191-burro-alley/", "opening_hours": "Mo-Fr 05:00-10:00; Sa-Su 06:00-10:00", "brand": "Bashas'", "brand:wikidata": "Q4866786", "nsi_id": "bashas-dde59d"}, "geometry": {"type": "Point", "coordinates": [-109.328028, 33.050886]}},
{"type": "Feature", "id": "6Ip_bokURDFHLeBsjn9dPP-Vyvk=", "properties": {"ref": "117655", "@spider": "bashas", "shop": "supermarket", "addr:street_address": "105 MAIN STREET PO BOX 337", "addr:city": "BAGDAD", "addr:state": "AZ", "addr:postcode": "86321", "addr:country": "US", "name": "Bashas\u2019 Supermarket:", "phone": "928-633-4599", "website": "https://www.bashas.com/stores/bashas-supermarket/", "opening_hours": "Mo-Su 05:00-09:00", "brand": "Bashas'", "brand:wikidata": "Q4866786", "nsi_id": "bashas-dde59d"}, "geometry": {"type": "Point", "coordinates": [-113.178959, 34.573388]}},
{"type": "Feature", "id": "e5O3bS9NufnUnhGrKCnHAHLKvdI=", "properties": {"ref": "117673", "@spider": "bashas", "shop": "supermarket", "addr:street_address": "4940 S. GILBERT RD", "addr:city": "CHANDLER", "addr:state": "AZ", "addr:postcode": "85249", "addr:country": "US", "name": "Bashas\u2019 Supermarket: Gilbert & Chandler Heights", "phone": "480-883-2240", "website": "https://www.bashas.com/stores/bashas-supermarket-gilbert-chandler-heights/", "opening_hours": "Mo-Su 06:00-10:00", "brand": "Bashas'", "brand:wikidata": "Q4866786", "nsi_id": "bashas-dde59d"}, "geometry": {"type": "Point", "coordinates": [-111.791703, 33.235054]}},
{"type": "Feature", "id": "0_gLv_U0O_9QukV-6jsSMsZAAp0=", "properties": {"ref": "117674", "@spider": "bashas", "shop": "supermarket", "addr:street_address": "99 S. HIGLEY RD", "addr:city": "GILBERT", "addr:state": "AZ", "addr:postcode": "85296", "addr:country": "US", "name": "Bashas\u2019 Supermarket: Higley & Elliot", "phone": "480-926-5220", "website": "https://www.bashas.com/stores/bashas-supermarket-higley-elliot/", "opening_hours": "Mo-Su 06:00-11:00", "brand": "Bashas'", "brand:wikidata": "Q4866786", "nsi_id": "bashas-dde59d"}, "geometry": {"type": "Point", "coordinates": [-111.71941, 33.348557]}},
{"type": "Feature", "id": "UFZ_KZvPzMW4-KUz3wQMVLi3xb8=", "properties": {"ref": "117637", "@spider": "bashas", "shop": "supermarket", "addr:street_address": "23760 S. POWER RD", "addr:city": "QUEEN CREEK", "addr:state": "AZ", "addr:postcode": "85142", "addr:country": "US", "name": "Bashas\u2019 Supermarket: Power & Chandler Heights", "phone": "480-279-5700", "website": "https://www.bashas.com/stores/bashas-supermarket-power-chandler-heights/", "opening_hours": "Mo-Su 06:00-11:00", "brand": "Bashas'", "brand:wikidata": "Q4866786", "nsi_id": "bashas-dde59d"}, "geometry": {"type": "Point", "coordinates": [-111.687464, 33.233223]}},
{"type": "Feature", "id": "VeK-d-jMP6A9mKFVTKwSqUT7KbI=", "properties": {"ref": "117642", "@spider": "bashas", "shop": "supermarket", "addr:street_address": "15310 N. ORACLE RD", "addr:city": "TUCSON", "addr:state": "AZ", "addr:postcode": "85739", "addr:country": "US", "name": "Bashas\u2019 Supermarket: Oracle & Golder Ranch", "phone": "520-575-7300", "website": "https://www.bashas.com/stores/bashas-supermarket-oracle-golder-ranch/", "opening_hours": "Mo-Su 06:00-10:00", "brand": "Bashas'", "brand:wikidata": "Q4866786", "nsi_id": "bashas-dde59d"}, "geometry": {"type": "Point", "coordinates": [-110.920346, 32.48339]}},
{"type": "Feature", "id": "Nv8qLeVGfZEvjMKK9lwZP2SZ8bw=", "properties": {"ref": "117649", "@spider": "bashas", "shop": "supermarket", "addr:street_address": "6900 E. SUNRISE DR", "addr:city": "TUCSON", "addr:state": "AZ", "addr:postcode": "85750", "addr:country": "US", "name": "Bashas\u2019 Supermarket: Sunrise & Kolb", "phone": "520-299-0633", "website": "https://www.bashas.com/stores/bashas-supermarket-sunrise-kolb/", "opening_hours": "Mo-Su 06:00-11:00", "brand": "Bashas'", "brand:wikidata": "Q4866786", "nsi_id": "bashas-dde59d"}, "geometry": {"type": "Point", "coordinates": [-110.845418, 32.306373]}},
{"type": "Feature", "id": "RAzL1dYylMzOKwZyUdlBN8gbhW0=", "properties": {"ref": "117659", "@spider": "bashas", "shop": "supermarket", "addr:street_address": "3275 N. SWAN RD", "addr:city": "TUCSON", "addr:state": "AZ", "addr:postcode": "85712", "addr:country": "US", "name": "Bashas\u2019 Supermarket: Camp Lowell & Swan", "phone": "520-323-5820", "website": "https://www.bashas.com/stores/bashas-supermarket-camp-lowell-swan/", "opening_hours": "Mo-Su 06:00-10:00", "brand": "Bashas'", "brand:wikidata": "Q4866786", "nsi_id": "bashas-dde59d"}, "geometry": {"type": "Point", "coordinates": [-110.894036, 32.266526]}},
{"type": "Feature", "id": "UK4xb8YSsRoGJa2xyAYhPjMcuU0=", "properties": {"ref": "117672", "@spider": "bashas", "shop": "supermarket", "addr:street_address": "2000 W. RIVER RD", "addr:city": "TUCSON", "addr:state": "AZ", "addr:postcode": "85704", "addr:country": "US", "name": "Bashas\u2019 Supermarket: River & La Cholla Blvd", "phone": "520-690-3680", "website": "https://www.bashas.com/stores/bashas-supermarket-river-la-cholla-blvd/", "opening_hours": "Mo-Su 06:00-10:00", "brand": "Bashas'", "brand:wikidata": "Q4866786", "nsi_id": "bashas-dde59d"}, "geometry": {"type": "Point", "coordinates": [-111.010352, 32.306883]}},
{"type": "Feature", "id": "MlXnhgxWqwFGp9WcViMwSrIhZgM=", "properties": {"ref": "117646", "@spider": "bashas", "shop": "supermarket", "addr:street_address": "21064 W. MAIN ST", "addr:city": "BUCKEYE", "addr:state": "AZ", "addr:postcode": "85396", "addr:country": "US", "name": "Bashas\u2019 Supermarket: Verrado & Main", "phone": "623-388-6000", "website": "https://www.bashas.com/stores/bashas-supermarket-verrado-main/", "opening_hours": "Mo-Su 06:00-10:00", "brand": "Bashas'", "brand:wikidata": "Q4866786", "nsi_id": "bashas-dde59d"}, "geometry": {"type": "Point", "coordinates": [-112.512754, 33.496158]}},
{"type": "Feature", "id": "-xRkgHs-3fVaNqwtFQ14fRZy7fI=", "properties": {"ref": "117669", "@spider": "bashas", "shop": "supermarket", "addr:street_address": "15367 W. WADDELL RD", "addr:city": "SURPRISE", "addr:state": "AZ", "addr:postcode": "85379", "addr:country": "US", "name": "Bashas\u2019 Supermarket: Waddell & Reems", "phone": "623-214-6460", "website": "https://www.bashas.com/stores/bashas-supermarket-waddell-reems/", "opening_hours": "Mo-Su 06:00-10:00", "brand": "Bashas'", "brand:wikidata": "Q4866786", "nsi_id": "bashas-dde59d"}, "geometry": {"type": "Point", "coordinates": [-112.392111, 33.608192]}},
{"type": "Feature", "id": "uBCMS_BVy_fEsKhsfIjoMMsf1EM=", "properties": {"ref": "117667", "@spider": "bashas", "shop": "supermarket", "addr:street_address": "13940 W. MEEKER BLVD", "addr:city": "SUN CITY WEST", "addr:state": "AZ", "addr:postcode": "85375", "addr:country": "US", "name": "Bashas\u2019 Supermarket: RH Johnson & Meeker", "phone": "623-975-6220", "website": "https://www.bashas.com/stores/bashas-supermarket-rh-johnson-meeker/", "opening_hours": "Mo-Su 05:00-09:00", "brand": "Bashas'", "brand:wikidata": "Q4866786", "nsi_id": "bashas-dde59d"}, "geometry": {"type": "Point", "coordinates": [-112.360096, 33.66111]}},
{"type": "Feature", "id": "VsGUNGEvX4kZtOj_dPBZeAuuYpU=", "properties": {"ref": "117668", "@spider": "bashas", "shop": "supermarket", "addr:street_address": "5115 N. DYSART RD", "addr:city": "LITCHFIELD PARK", "addr:state": "AZ", "addr:postcode": "85340", "addr:country": "US", "name": "Bashas\u2019 Supermarket: Dysart & Camelback", "phone": "623-547-4580", "website": "https://www.bashas.com/stores/bashas-supermarket-dysart-camelback/", "opening_hours": "Mo-Su 06:00-10:00", "brand": "Bashas'", "brand:wikidata": "Q4866786", "nsi_id": "bashas-dde59d"}, "geometry": {"type": "Point", "coordinates": [-112.339278, 33.509824]}},
{"type": "Feature", "id": "osHj-y7-h5SUfg7PY0YT7GHd-2s=", "properties": {"ref": "117660", "@spider": "bashas", "shop": "supermarket", "addr:street_address": "20351 N. LAKE PLEASANT RD", "addr:city": "PEORIA", "addr:state": "AZ", "addr:postcode": "85382", "addr:country": "US", "name": "Bashas\u2019 Supermarket: 99th Avenue & Beardsley", "phone": "623-537-2320", "website": "https://www.bashas.com/stores/bashas-supermarket-99th-avenue-beardsley/", "opening_hours": "Mo-Su 06:00-10:00", "brand": "Bashas'", "brand:wikidata": "Q4866786", "nsi_id": "bashas-dde59d"}, "geometry": {"type": "Point", "coordinates": [-112.278067, 33.668602]}},
{"type": "Feature", "id": "w5fSlw7uM8zxJuckxLYckG5CTyo=", "properties": {"ref": "117663", "@spider": "bashas", "shop": "supermarket", "addr:street_address": "731 E. UNION HILLS", "addr:city": "PHOENIX", "addr:state": "AZ", "addr:postcode": "85024", "addr:country": "US", "name": "Bashas\u2019 Supermarket: 7th St & E. Union Hills", "phone": "602-652-9520", "website": "https://www.bashas.com/stores/bashas-supermarket-7th-st-e-union-hills/", "opening_hours": "Mo-Su 06:00-10:00", "brand": "Bashas'", "brand:wikidata": "Q4866786", "nsi_id": "bashas-dde59d"}, "geometry": {"type": "Point", "coordinates": [-112.064248, 33.653526]}},
{"type": "Feature", "id": "S7E6ocS81ho6QovJcmYq1Uc25h8=", "properties": {"ref": "117627", "@spider": "bashas", "shop": "supermarket", "addr:street_address": "111 MAIN ST", "addr:city": "SELLS", "addr:state": "AZ", "addr:postcode": "85634", "addr:country": "US", "name": "Bashas\u2019 Supermarket: 27 Hwy 86 & Rte 19", "phone": "520-383-2546", "website": "https://www.bashas.com/stores/bashas-supermarket-27-hwy-86-rte-19/", "opening_hours": "Mo-Su 07:00-07:30", "brand": "Bashas'", "brand:wikidata": "Q4866786", "nsi_id": "bashas-dde59d"}, "geometry": {"type": "Point", "coordinates": [-111.8662, 31.914795]}},
{"type": "Feature", "id": "aNUs0h_XyZFK1ARWgSydCJcMWbk=", "properties": {"ref": "117630", "@spider": "bashas", "shop": "supermarket", "addr:street_address": "HWY. 57 & INDIAN SERVICE RD 9", "addr:city": "CROWNPOINT", "addr:state": "NM", "addr:postcode": "87313", "addr:country": "US", "name": "Bashas\u2019 Din\u00e9 Market", "phone": "505-786-5814", "website": "https://www.bashas.com/stores/bashas-dine-market/", "opening_hours": "Mo-Su 07:00-08:00", "brand": "Bashas'", "brand:wikidata": "Q4866786", "nsi_id": "bashas-dde59d"}, "geometry": {"type": "Point", "coordinates": [-108.114546, 35.744572]}},
{"type": "Feature", "id": "Q1YAKAezajOmahRm6sd_rntuav0=", "properties": {"ref": "117644", "@spider": "bashas", "shop": "supermarket", "addr:street_address": "142 E. HIGHWAY 260", "addr:city": "PAYSON", "addr:state": "AZ", "addr:postcode": "85541", "addr:country": "US", "name": "Bashas\u2019 Supermarket: Hwy 260 & Beeline Hwy", "phone": "928-474-4495", "website": "https://www.bashas.com/stores/bashas-supermarket-hwy-260-beeline-hwy/", "opening_hours": "Mo-Sa 06:00-10:00; Su 06:00-09:00", "brand": "Bashas'", "brand:wikidata": "Q4866786", "nsi_id": "bashas-dde59d"}, "geometry": {"type": "Point", "coordinates": [-111.321073, 34.242097]}},
{"type": "Feature", "id": "_6SUtp_uAEV50yYxqobQhNyt0ic=", "properties": {"ref": "117632", "@spider": "bashas", "shop": "supermarket", "addr:street_address": "NO. HWY 264 NAVAJO ROUTE 12", "addr:city": "WINDOW ROCK", "addr:state": "AZ", "addr:postcode": "86515", "addr:country": "US", "name": "Bashas\u2019 Din\u00e9 Market: Hwy 264 & NR12", "phone": "928-871-3322", "website": "https://www.bashas.com/stores/bashas-dine-market-hwy-264-nr12/", "opening_hours": "Mo-Su 07:00-08:00", "brand": "Bashas'", "brand:wikidata": "Q4866786", "nsi_id": "bashas-dde59d"}, "geometry": {"type": "Point", "coordinates": [-109.056605, 35.664033]}},
{"type": "Feature", "id": "2Ub56anXM9qVX2_FZ8uZYzNxyxk=", "properties": {"ref": "117631", "@spider": "bashas", "shop": "supermarket", "addr:street_address": "HWY 191", "addr:city": "CHINLE", "addr:state": "AZ", "addr:postcode": "86503", "addr:country": "US", "name": "Bashas\u2019 Din\u00e9 Market: Hwy 191 & Rte 7", "phone": "928-674-3465", "website": "https://www.bashas.com/stores/bashas-dine-market-hwy-191-rte-7/", "opening_hours": "Mo-Su 07:00-08:00", "brand": "Bashas'", "brand:wikidata": "Q4866786", "nsi_id": "bashas-dde59d"}, "geometry": {"type": "Point", "coordinates": [-109.582703, 36.157848]}},
{"type": "Feature", "id": "_eoLp0GquaRNh9on3QhXfsDZrnU=", "properties": {"ref": "117633", "@spider": "bashas", "shop": "supermarket", "addr:street_address": "HWY 160 AND HWY 264", "addr:city": "TUBA CITY", "addr:state": "AZ", "addr:postcode": "86045", "addr:country": "US", "name": "Bashas\u2019 Din\u00e9 Market: Hwy 160 & Hwy 264", "phone": "928-283-5250", "website": "https://www.bashas.com/stores/bashas-dine-market-hwy-160-hwy-264/", "opening_hours": "Mo-Su 07:00-08:00", "brand": "Bashas'", "brand:wikidata": "Q4866786", "nsi_id": "bashas-dde59d"}, "geometry": {"type": "Point", "coordinates": [-111.229231, 36.11934]}},
{"type": "Feature", "id": "zGzi_vDe_GDzI4G7-7Y8RZRd46E=", "properties": {"ref": "117635", "@spider": "bashas", "shop": "supermarket", "addr:street_address": "HWY 160/161 P.O. BOX 1810", "addr:city": "KAYENTA", "addr:state": "AZ", "addr:postcode": "86033", "addr:country": "US", "name": "Bashas\u2019 Din\u00e9 Market: Hwy 160 & 163", "phone": "928-697-8176", "website": "https://www.bashas.com/stores/bashas-dine-market-hwy-160-163/", "opening_hours": "Mo-Su 07:00-08:00", "brand": "Bashas'", "brand:wikidata": "Q4866786", "nsi_id": "bashas-dde59d"}, "geometry": {"type": "Point", "coordinates": [-110.249669, 36.707343]}},
{"type": "Feature", "id": "zTdsAPDT3ZjmBM2ND8cdVFIZqN8=", "properties": {"ref": "138103", "@spider": "bashas", "shop": "supermarket", "addr:street_address": "NWC I-40 & Apache Co Rd 7080", "addr:city": "Sanders", "addr:state": "AZ", "addr:postcode": "86512", "addr:country": "US", "name": "Bashas\u2019 Din\u00e9 Market", "phone": "928-688-4000", "website": "https://www.bashas.com/stores/bashas-dine-34/", "opening_hours": "Mo-Su 07:00-08:00", "brand": "Bashas'", "brand:wikidata": "Q4866786", "nsi_id": "bashas-dde59d"}, "geometry": {"type": "Point", "coordinates": [-109.336641, 35.216764]}},
{"type": "Feature", "id": "LShQFQv5YpbolX1uHHXCTWqQqSQ=", "properties": {"ref": "117624", "@spider": "bashas", "shop": "supermarket", "addr:street_address": "BIA ROUTE 4 AND ROUTE 41", "addr:city": "PINON", "addr:state": "AZ", "addr:postcode": "86510", "addr:country": "US", "name": "Bashas\u2019 Din\u00e9 Market: BIA Rte 4 & Rte 41", "phone": "928-725-3476", "website": "https://www.bashas.com/stores/bashas-dine-market-bia-rte-4-rte-41/", "opening_hours": "Mo-Su 07:00-08:00", "brand": "Bashas'", "brand:wikidata": "Q4866786", "nsi_id": "bashas-dde59d"}, "geometry": {"type": "Point", "coordinates": [-110.216794, 36.097989]}},
{"type": "Feature", "id": "KrXMipLBywJlPnfKX7eCjeN_27o=", "properties": {"ref": "117664", "@spider": "bashas", "shop": "supermarket", "addr:street_address": "3269 MARICOPA AVE SUITE 120", "addr:city": "LAKE HAVASU CITY", "addr:state": "AZ", "addr:postcode": "86406", "addr:country": "US", "name": "Bashas\u2019 Supermarket", "phone": "928-854-9550", "website": "https://www.bashas.com/stores/bashas-supermarket-lake-havasu-city/", "opening_hours": "Mo-Su 06:00-11:00", "brand": "Bashas'", "brand:wikidata": "Q4866786", "nsi_id": "bashas-dde59d"}, "geometry": {"type": "Point", "coordinates": [-114.278975, 34.459156]}},
{"type": "Feature", "id": "iDNpIcE9lrxKUYArMEtXypXYTug=", "properties": {"ref": "149432", "@spider": "bashas", "shop": "supermarket", "addr:street_address": "US 491 & Nm Us 64", "addr:city": "Shiprock", "addr:state": "AZ", "addr:postcode": "87420", "addr:country": "US", "name": "Bashas\u2019 Din\u00e9 Market", "phone": "505-368-4248", "website": "https://www.bashas.com/stores/bashas-dine-market-2/", "opening_hours": "Mo-Sa 07:00-09:00; Su 07:00-08:00", "brand": "Bashas'", "brand:wikidata": "Q4866786", "nsi_id": "bashas-dde59d"}, "geometry": {"type": "Point", "coordinates": [-108.69676, 36.77737]}},
{"type": "Feature", "id": "_Sxa4BZy2UX45woDpFbjVqKVqmg=", "properties": {"ref": "117645", "@spider": "bashas", "shop": "supermarket", "addr:street_address": "275 N. TEGNER", "addr:city": "WICKENBURG", "addr:state": "AZ", "addr:postcode": "85390", "addr:country": "US", "name": "Bashas\u2019 Supermarket: Tegner & Yavapai", "phone": "928-684-2831", "website": "https://www.bashas.com/stores/bashas-supermarket-tegner-yavapai/", "opening_hours": "Mo-Su 06:00-10:00", "brand": "Bashas'", "brand:wikidata": "Q4866786", "nsi_id": "bashas-dde59d"}, "geometry": {"type": "Point", "coordinates": [-112.73114, 33.971208]}},
{"type": "Feature", "id": "qI8lrOZlQIt7teOUlKGhGb-axTQ=", "properties": {"ref": "117628", "@spider": "bashas", "shop": "supermarket", "addr:street_address": "160 COFFEE POT DR", "addr:city": "SEDONA", "addr:state": "AZ", "addr:postcode": "86336", "addr:country": "US", "name": "Bashas\u2019 Supermarket: Coffee Pot & Yavapai", "phone": "928-282-5351", "website": "https://www.bashas.com/stores/bashas-supermarket-coffee-pot-yavapai/", "opening_hours": "Mo-Su 06:00-10:00", "brand": "Bashas'", "brand:wikidata": "Q4866786", "nsi_id": "bashas-dde59d"}, "geometry": {"type": "Point", "coordinates": [-111.794879, 34.866278]}},
{"type": "Feature", "id": "8edaXedNe__rgqfUKSNW-5tuQbE=", "properties": {"ref": "117053", "@spider": "bashas", "shop": "supermarket", "addr:street_address": "1133 N. ELLSWORTH RD.", "addr:city": "MESA", "addr:state": "AZ", "addr:postcode": "85207", "addr:country": "US", "name": "Bashas\u2019 Supermarket: Brown & Ellsworth", "phone": "480-357-3300", "website": "https://www.bashas.com/stores/bashas-supermarket-brown-ellsworth/", "opening_hours": "Mo-Su 06:00-11:00", "brand": "Bashas'", "brand:wikidata": "Q4866786", "nsi_id": "bashas-dde59d"}, "geometry": {"type": "Point", "coordinates": [-111.631154, 33.435557]}},
{"type": "Feature", "id": "OHMFzdkecwufraH4GFYGtf5P38w=", "properties": {"ref": "117652", "@spider": "bashas", "shop": "supermarket", "addr:street_address": "8360 N. THORNYDALE RD", "addr:city": "TUCSON", "addr:state": "AZ", "addr:postcode": "85741", "addr:country": "US", "name": "Bashas\u2019 Supermarket: Thornydale & Cortaro", "phone": "520-744-4488", "website": "https://www.bashas.com/stores/bashas-supermarket-thornydale-cortaro/", "opening_hours": "Mo-Su 06:00-10:00", "brand": "Bashas'", "brand:wikidata": "Q4866786", "nsi_id": "bashas-dde59d"}, "geometry": {"type": "Point", "coordinates": [-111.044232, 32.357979]}},
{"type": "Feature", "id": "HmlYSfh2W7KjBrBItk5ZkQNoZEA=", "properties": {"ref": "117657", "@spider": "bashas", "shop": "supermarket", "addr:street_address": "NEC NAVAJO RTE 15 AND 60", "addr:city": "DILKON", "addr:state": "AZ", "addr:postcode": "86047", "addr:country": "US", "name": "Bashas\u2019 Din\u00e9 Market", "phone": "928-657-3668", "website": "https://www.bashas.com/stores/bashas-dine-market-dilkon-az/", "opening_hours": "Mo-Sa 06:00-09:00; Su 06:00-08:00", "brand": "Bashas'", "brand:wikidata": "Q4866786", "nsi_id": "bashas-dde59d"}, "geometry": {"type": "Point", "coordinates": [-110.329426, 35.39147]}},
{"type": "Feature", "id": "sA4E9I7fuQ9PRxof_s2BWtKl24w=", "properties": {"ref": "117620", "@spider": "bashas", "shop": "supermarket", "addr:street_address": "US HWY 70 & SR170", "addr:city": "PERIDOT", "addr:state": "AZ", "addr:postcode": "85542", "addr:country": "US", "name": "Bashas\u2019 Supermarket", "phone": "928-475-2391", "website": "https://www.bashas.com/stores/bashas-supermarket-peridot-az/", "opening_hours": "Mo-Su 06:00-10:00", "brand": "Bashas'", "brand:wikidata": "Q4866786", "nsi_id": "bashas-dde59d"}, "geometry": {"type": "Point", "coordinates": [-110.457371, 33.299488]}},
{"type": "Feature", "id": "ZP3NGMuuvvs0M9JTqYQJ5OKz4dk=", "properties": {"ref": "117651", "@spider": "bashas", "shop": "supermarket", "addr:street_address": "1001 Chief Ave", "addr:city": "WHITERIVER", "addr:state": "AZ", "addr:postcode": "85941", "addr:country": "US", "name": "Bashas\u2019 Supermarket: Hwy 73 & Main St.", "phone": "928-338-4956", "website": "https://www.bashas.com/stores/bashas-supermarket-hwy-73-main-st/", "opening_hours": "Mo-Sa 06:00-10:00; Su 06:00-09:00", "brand": "Bashas'", "brand:wikidata": "Q4866786", "nsi_id": "bashas-dde59d"}, "geometry": {"type": "Point", "coordinates": [-109.979196, 33.824307]}},
{"type": "Feature", "id": "tlBEF1Ht_aWRsqcnprcDcfy1UNM=", "properties": {"ref": "117621", "@spider": "bashas", "shop": "supermarket", "addr:street_address": "4855 E. WARNER", "addr:city": "PHOENIX", "addr:state": "AZ", "addr:postcode": "85044", "addr:country": "US", "name": "Bashas\u2019 Supermarket: 48th St. & E. Warner", "phone": "480-496-8191", "website": "https://www.bashas.com/stores/bashas-supermarket-48th-st-e-warner/", "opening_hours": "Mo-Su 06:00-10:00", "brand": "Bashas'", "brand:wikidata": "Q4866786", "nsi_id": "bashas-dde59d"}, "geometry": {"type": "Point", "coordinates": [-111.979042, 33.330009]}}]}