{"type":"FeatureCollection","features":[{"type": "Feature", "id": "duC96K_dQ4PpOEfU8-Vwv4jxj6M=", "properties": {"ref": "523072", "@spider": "bassett_furniture", "addr:full": "3002 Memorial Parkway S.W.", "addr:city": "Huntsville", "addr:state": "AL", "addr:postcode": "35801", "addr:country": "US", "name": "bassett home furnishings huntsville", "phone": "256.880.3000", "website": "https://stores.bassettfurniture.com/al/huntsville/523072/", "brand": "Bassett Furniture", "brand:wikidata": "Q4868109"}, "geometry": {"type": "Point", "coordinates": [-86.5734209, 34.6687372]}},
{"type": "Feature", "id": "4merHqgotpuVyhj4O7_b1T5Dfq4=", "properties": {"ref": "1108361", "@spider": "bassett_furniture", "addr:full": "2970 John Hawkins Parkway", "addr:city": "Hoover", "addr:state": "AL", "addr:postcode": "35244", "addr:country": "US", "name": "bassett home furnishings hoover", "phone": "205.988.2180", "website": "https://stores.bassettfurniture.com/al/hoover/1108361/", "brand": "Bassett Furniture", "brand:wikidata": "Q4868109"}, "geometry": {"type": "Point", "coordinates": [-86.8147727, 33.3704575]}},
{"type": "Feature", "id": "HzFKVzuQyKykf3MlC0uhm0DLviE=", "properties": {"ref": "1135607", "@spider": "bassett_furniture", "addr:full": "1250 Eagle Rd.", "addr:city": "Meridian", "addr:state": "ID", "addr:postcode": "83642", "addr:country": "US", "name": "bassett home furnishings boise", "phone": "208.893.2053", "website": "https://stores.bassettfurniture.com/id/meridian/1135607/", "brand": "Bassett Furniture", "brand:wikidata": "Q4868109"}, "geometry": {"type": "Point", "coordinates": [-116.3545649, 43.5947475]}},
{"type": "Feature", "id": "kQ2H_stypWc5PWKbyfwqYF-57xY=", "properties": {"ref": "1104768", "@spider": "bassett_furniture", "addr:full": "840 Ernest Barrett Parkway, Suite 320", "addr:city": "Kennesaw", "addr:state": "GA", "addr:postcode": "30144", "addr:country": "US", "name": "bassett home furnishings kennesaw", "phone": "770.427.3947", "website": "https://stores.bassettfurniture.com/ga/kennesaw/1104768/", "brand": "Bassett Furniture", "brand:wikidata": "Q4868109"}, "geometry": {"type": "Point", "coordinates": [-84.5762203, 34.0055116]}},
{"type": "Feature", "id": "sSKA-X2ZBoSGYR87EIEylPwT_LY=", "properties": {"ref": "1104514", "@spider": "bassett_furniture", "addr:full": "1905 Mall of Georgia Boulevard", "addr:city": "Buford", "addr:state": "GA", "addr:postcode": "30519", "addr:country": "US", "name": "bassett home furnishings buford", "phone": "678.482.5967", "website": "https://stores.bassettfurniture.com/ga/buford/1104514/", "brand": "Bassett Furniture", "brand:wikidata": "Q4868109"}, "geometry": {"type": "Point", "coordinates": [-83.9879011, 34.0605576]}},
{"type": "Feature", "id": "ucevoxBUys-5Q876zSVkYh4hYNc=", "properties": {"ref": "1104513", "@spider": "bassett_furniture", "addr:full": "120 Perimeter Center West, Suite 400", "addr:city": "Atlanta", "addr:state": "GA", "addr:postcode": "30346", "addr:country": "US", "name": "bassett home furnishings perimeter center", "phone": "678.731.9706", "website": "https://stores.bassettfurniture.com/ga/atlanta/1104513/", "brand": "Bassett Furniture", "brand:wikidata": "Q4868109"}, "geometry": {"type": "Point", "coordinates": [-84.3432054, 33.9263384]}},
{"type": "Feature", "id": "wvo4zv9kgvcktdWZqgSQ-LDFa5E=", "properties": {"ref": "1137257", "@spider": "bassett_furniture", "addr:full": "210 N. Cattlemen Rd. Unit #1", "addr:city": "Sarasota", "addr:state": "FL", "addr:postcode": "34243", "addr:country": "US", "name": "bassett home furnishings sarasota", "phone": "941.888.6055", "website": "https://stores.bassettfurniture.com/fl/sarasota/1137257/", "brand": "Bassett Furniture", "brand:wikidata": "Q4868109"}, "geometry": {"type": "Point", "coordinates": [-82.4561473, 27.3840378]}},
{"type": "Feature", "id": "nbapAnBQpDfuOsLeJe7QAnA4qJo=", "properties": {"ref": "1103065", "@spider": "bassett_furniture", "addr:full": "3900 NW Federal Highway", "addr:city": "Jensen Beach", "addr:state": "FL", "addr:postcode": "34957", "addr:country": "US", "name": "bassett home furnishings jensen beach", "phone": "772.692.9005", "website": "https://stores.bassettfurniture.com/fl/jensen-beach/1103065/", "brand": "Bassett Furniture", "brand:wikidata": "Q4868109"}, "geometry": {"type": "Point", "coordinates": [-80.2778649, 27.2521336]}},
{"type": "Feature", "id": "7fWSgemdsUAIFpeBRvZ-zI4aJZE=", "properties": {"ref": "1103061", "@spider": "bassett_furniture", "addr:full": "11385 Legacy Ave.", "addr:city": "Palm Beach Gardens", "addr:state": "FL", "addr:postcode": "33410", "addr:country": "US", "name": "bassett home furnishings palm beach gardens", "phone": "561.624.4242", "website": "https://stores.bassettfurniture.com/fl/palm-beach-gardens/1103061/", "brand": "Bassett Furniture", "brand:wikidata": "Q4868109"}, "geometry": {"type": "Point", "coordinates": [-80.0912922, 26.84407]}},
{"type": "Feature", "id": "iEocfMAgeFntEEtBf8EdmBXa7iM=", "properties": {"ref": "1136386", "@spider": "bassett_furniture", "addr:full": "23230 Via Villagio", "addr:city": "Estero", "addr:state": "FL", "addr:postcode": "33928", "addr:country": "US", "name": "bassett home furnishings estero", "phone": "239.221.5271", "website": "https://stores.bassettfurniture.com/fl/estero/1136386/", "brand": "Bassett Furniture", "brand:wikidata": "Q4868109"}, "geometry": {"type": "Point", "coordinates": [-81.8099867, 26.4001837]}},
{"type": "Feature", "id": "n9N3QdEYXRaciwhPIzIWoSF59PA=", "properties": {"ref": "1105397", "@spider": "bassett_furniture", "addr:full": "5515 Concord Pike", "addr:city": "Wilmington", "addr:state": "DE", "addr:postcode": "19803", "addr:country": "US", "name": "bassett home furnishings wilmington", "phone": "302.477.3970", "website": "https://stores.bassettfurniture.com/de/wilmington/1105397/", "brand": "Bassett Furniture", "brand:wikidata": "Q4868109"}, "geometry": {"type": "Point", "coordinates": [-75.5426816, 39.8320846]}},
{"type": "Feature", "id": "dPuUxvjsyGr87eo2l2O4gDb8EdQ=", "properties": {"ref": "1109240", "@spider": "bassett_furniture", "addr:full": "1100 Post Rd. East", "addr:city": "Westport", "addr:state": "CT", "addr:postcode": "06880", "addr:country": "US", "name": "bassett home furnishings westport", "phone": "203.222.3888", "website": "https://stores.bassettfurniture.com/ct/westport/1109240/", "brand": "Bassett Furniture", "brand:wikidata": "Q4868109"}, "geometry": {"type": "Point", "coordinates": [-73.326011, 41.1385595]}},
{"type": "Feature", "id": "T3cPRFPtJNSgKTSPixza9n6spwQ=", "properties": {"ref": "1105244", "@spider": "bassett_furniture", "addr:full": "549 Boston Post Road", "addr:city": "Orange", "addr:state": "CT", "addr:postcode": "06477", "addr:country": "US", "name": "bassett home furnishings orange", "phone": "203.799.2595", "website": "https://stores.bassettfurniture.com/ct/orange/1105244/", "brand": "Bassett Furniture", "brand:wikidata": "Q4868109"}, "geometry": {"type": "Point", "coordinates": [-73.0193706, 41.2528353]}},
{"type": "Feature", "id": "O3V3PmlQWe--66oSGN7OHHakS9E=", "properties": {"ref": "103722-10", "@spider": "bassett_furniture", "addr:full": "4750 West Grande Market Drive", "addr:city": "Appleton", "addr:state": "WI", "addr:postcode": "54913", "addr:country": "US", "name": "steinhafel's furniture-appleton ", "phone": "9207331000", "website": "https://stores.bassettfurniture.com/wi/appleton/103722-10/", "brand": "Bassett Furniture", "brand:wikidata": "Q4868109"}, "geometry": {"type": "Point", "coordinates": [-88.478835, 44.2647492]}},
{"type": "Feature", "id": "5cqwwsi0CBZN9hJNR8Y6kKz56Lc=", "properties": {"ref": "218753", "@spider": "bassett_furniture", "addr:full": "5951 South 180th Street", "addr:city": "Tukwila", "addr:state": "WA", "addr:postcode": "98188", "addr:country": "US", "name": "bassett home furnishings tukwila", "phone": "206.575.8877", "website": "https://stores.bassettfurniture.com/wa/tukwila/218753/", "brand": "Bassett Furniture", "brand:wikidata": "Q4868109"}, "geometry": {"type": "Point", "coordinates": [-122.2586525, 47.4406114]}},
{"type": "Feature", "id": "hhrcQ3Sy-OxXW3Ivqf84Fy7ikxs=", "properties": {"ref": "244326", "@spider": "bassett_furniture", "addr:full": "1802 62nd Ave E", "addr:city": "Tacoma", "addr:state": "WA", "addr:postcode": "98424", "addr:country": "US", "name": "bassett home furnishings tacoma", "phone": "888.239.5758", "website": "https://stores.bassettfurniture.com/wa/tacoma/244326/", "brand": "Bassett Furniture", "brand:wikidata": "Q4868109"}, "geometry": {"type": "Point", "coordinates": [-122.3488775, 47.2401844]}},
{"type": "Feature", "id": "TXgVM7O08Im9wAkJGRMVRHasrAM=", "properties": {"ref": "399439", "@spider": "bassett_furniture", "addr:full": "2233 Bel Red Road", "addr:city": "Redmond", "addr:state": "WA", "addr:postcode": "98052", "addr:country": "US", "name": "bassett home furnishings redmond", "phone": "425.968.4663", "website": "https://stores.bassettfurniture.com/wa/redmond/399439/", "brand": "Bassett Furniture", "brand:wikidata": "Q4868109"}, "geometry": {"type": "Point", "coordinates": [-122.1349613, 47.630452]}},
{"type": "Feature", "id": "mP7kzcj6mSjKXHgC12rc-4rmoyE=", "properties": {"ref": "1123690", "@spider": "bassett_furniture", "addr:full": "21315 Windmill Parc Drive", "addr:city": "Sterling", "addr:state": "VA", "addr:postcode": "20166", "addr:country": "US", "name": "bassett home furnishings sterling", "phone": "703.444.7283", "website": "https://stores.bassettfurniture.com/va/sterling/1123690/", "brand": "Bassett Furniture", "brand:wikidata": "Q4868109"}, "geometry": {"type": "Point", "coordinates": [-77.4190068, 39.0272634]}},
{"type": "Feature", "id": "aZuulCZ4WxwKWSyR-kw8YspgBpE=", "properties": {"ref": "1103046", "@spider": "bassett_furniture", "addr:full": "11851 West Broad Street", "addr:city": "Richmond", "addr:state": "VA", "addr:postcode": "23233", "addr:country": "US", "name": "bassett home furnishings richmond", "phone": "804.364.2535", "website": "https://stores.bassettfurniture.com/va/richmond/1103046/", "brand": "Bassett Furniture", "brand:wikidata": "Q4868109"}, "geometry": {"type": "Point", "coordinates": [-77.6232815, 37.6527851]}},
{"type": "Feature", "id": "PjKMV-tiq1g1QUG_h0LrT9oWfNg=", "properties": {"ref": "1104841", "@spider": "bassett_furniture", "addr:full": "1551 Carl D. Silver Parkway", "addr:city": "Fredericksburg", "addr:state": "VA", "addr:postcode": "22401", "addr:country": "US", "name": "bassett home furnishings fredericksburg", "phone": "540.785.5080", "website": "https://stores.bassettfurniture.com/va/fredericksburg/1104841/", "brand": "Bassett Furniture", "brand:wikidata": "Q4868109"}, "geometry": {"type": "Point", "coordinates": [-77.5048789, 38.3034194]}},
{"type": "Feature", "id": "80kUr_MK_AZ6-13aP3MQQPqoLK8=", "properties": {"ref": "1105398", "@spider": "bassett_furniture", "addr:full": "7505 Leesburg Pike", "addr:city": "Falls Church", "addr:state": "VA", "addr:postcode": "22043", "addr:country": "US", "name": "bassett home furnishings falls church", "phone": "703.790.0374", "website": "https://stores.bassettfurniture.com/va/falls-church/1105398/", "brand": "Bassett Furniture", "brand:wikidata": "Q4868109"}, "geometry": {"type": "Point", "coordinates": [-77.2041695, 38.9035712]}},
{"type": "Feature", "id": "WZSImUhGKoVKOGnWsIw2vRF2cIo=", "properties": {"ref": "1070536", "@spider": "bassett_furniture", "addr:full": "2160 South 300 West", "addr:city": "Salt Lake City", "addr:state": "UT", "addr:postcode": "84115", "addr:country": "US", "name": "bassett home furnishings salt lake city", "phone": "801.994.5241", "website": "https://stores.bassettfurniture.com/ut/salt-lake-city/1070536/", "brand": "Bassett Furniture", "brand:wikidata": "Q4868109"}, "geometry": {"type": "Point", "coordinates": [-111.9003801, 40.7235007]}},
{"type": "Feature", "id": "6kZ3SLe2b0Js9ZWm7nqAWE93Jos=", "properties": {"ref": "372383", "@spider": "bassett_furniture", "addr:full": "322 West University Parkway", "addr:city": "Orem", "addr:state": "UT", "addr:postcode": "84058", "addr:country": "US", "name": "bassett home furnishings orem", "phone": "801.225.3632", "website": "https://stores.bassettfurniture.com/ut/orem/372383/", "brand": "Bassett Furniture", "brand:wikidata": "Q4868109"}, "geometry": {"type": "Point", "coordinates": [-111.7027768, 40.2748067]}},
{"type": "Feature", "id": "KspLSfcIDgAU6pBi56huuCn9tnw=", "properties": {"ref": "1104853", "@spider": "bassett_furniture", "addr:full": "530 West Southwest Loop 323", "addr:city": "Tyler", "addr:state": "TX", "addr:postcode": "75701", "addr:country": "US", "name": "bassett home furnishings tyler", "phone": "903.561.5719", "website": "https://stores.bassettfurniture.com/tx/tyler/1104853/", "brand": "Bassett Furniture", "brand:wikidata": "Q4868109"}, "geometry": {"type": "Point", "coordinates": [-95.308045, 32.3027537]}},
{"type": "Feature", "id": "RqeiiTDThbjYzFU8bZ5rK3PyAgo=", "properties": {"ref": "1104652", "@spider": "bassett_furniture", "addr:full": "1310 Lake Woodlands Dr.", "addr:city": "The Woodlands", "addr:state": "TX", "addr:postcode": "77380", "addr:country": "US", "name": "bassett home furnishings the woodlands", "phone": "281.465.8176", "website": "https://stores.bassettfurniture.com/tx/the-woodlands/1104652/", "brand": "Bassett Furniture", "brand:wikidata": "Q4868109"}, "geometry": {"type": "Point", "coordinates": [-95.4543566, 30.1697226]}},
{"type": "Feature", "id": "KMC4_xa0bYmT7FNLBH1NMGmEYAM=", "properties": {"ref": "1104852", "@spider": "bassett_furniture", "addr:full": "2261 East Southlake Blvd.", "addr:city": "Southlake", "addr:state": "TX", "addr:postcode": "76092", "addr:country": "US", "name": "bassett home furnishings southlake", "phone": "817.796.8034", "website": "https://stores.bassettfurniture.com/tx/southlake/1104852/", "brand": "Bassett Furniture", "brand:wikidata": "Q4868109"}, "geometry": {"type": "Point", "coordinates": [-97.1165597, 32.9403082]}},
{"type": "Feature", "id": "OmzMo7UVV_ZG83yaMuHnFAaGa30=", "properties": {"ref": "1104660", "@spider": "bassett_furniture", "addr:full": "17603 La Cantera Pkwy", "addr:city": "San Antonio", "addr:state": "TX", "addr:postcode": "78257", "addr:country": "US", "name": "bassett home furnishings san antonio", "phone": "210.641.0101", "website": "https://stores.bassettfurniture.com/tx/san-antonio/1104660/", "brand": "Bassett Furniture", "brand:wikidata": "Q4868109"}, "geometry": {"type": "Point", "coordinates": [-98.5970869, 29.6093901]}},
{"type": "Feature", "id": "ukTSZ_0ozsaJPRxDheloOglJvrM=", "properties": {"ref": "1104640", "@spider": "bassett_furniture", "addr:full": "15305 Katy Freeway", "addr:city": "Houston", "addr:state": "TX", "addr:postcode": "77094", "addr:country": "US", "name": "bassett home furnishings houston - katy", "phone": "281.616.5479", "website": "https://stores.bassettfurniture.com/tx/houston/1104640/", "brand": "Bassett Furniture", "brand:wikidata": "Q4868109"}, "geometry": {"type": "Point", "coordinates": [-95.6525322, 29.7835681]}},
{"type": "Feature", "id": "BPh6SSP3GwaqqV6Sos1PreUrJV4=", "properties": {"ref": "1134846", "@spider": "bassett_furniture", "addr:full": "8245 Gaylord Pkwy.", "addr:city": "Frisco", "addr:state": "TX", "addr:postcode": "75034", "addr:country": "US", "name": "bassett home furnishings frisco", "phone": "469.362.6642", "website": "https://stores.bassettfurniture.com/tx/frisco/1134846/", "brand": "Bassett Furniture", "brand:wikidata": "Q4868109"}, "geometry": {"type": "Point", "coordinates": [-96.8130363, 33.1016862]}},
{"type": "Feature", "id": "RDGpEXoqjwe3P29bDQsKsGb9Xjg=", "properties": {"ref": "1104654", "@spider": "bassett_furniture", "addr:full": "18734 Gulf Freeway", "addr:city": "Friendswood", "addr:state": "TX", "addr:postcode": "77546", "addr:country": "US", "name": "bassett home furnishings friendswood", "phone": "281.786.2980", "website": "https://stores.bassettfurniture.com/tx/friendswood/1104654/", "brand": "Bassett Furniture", "brand:wikidata": "Q4868109"}, "geometry": {"type": "Point", "coordinates": [-95.1517225, 29.5478207]}},
{"type": "Feature", "id": "H0rvcW0Euh3C7K5K1M4lcVr1lEw=", "properties": {"ref": "1109241", "@spider": "bassett_furniture", "addr:full": "4630 South Hulen St.", "addr:city": "Fort Worth", "addr:state": "TX", "addr:postcode": "76132", "addr:country": "US", "name": "bassett home furnishings fort worth", "phone": "817.292.7779", "website": "https://stores.bassettfurniture.com/tx/fort-worth/1109241/", "brand": "Bassett Furniture", "brand:wikidata": "Q4868109"}, "geometry": {"type": "Point", "coordinates": [-97.3951353, 32.6789593]}},
{"type": "Feature", "id": "bBOnq34IbvsKJOmOVtbGU37fw8E=", "properties": {"ref": "1131800", "@spider": "bassett_furniture", "addr:full": "6801 N. Mesa St. Suite B-11", "addr:city": "El Paso", "addr:state": "TX", "addr:postcode": "79912", "addr:country": "US", "name": "bassett home furnishings el paso", "phone": "915.581.2621", "website": "https://stores.bassettfurniture.com/tx/el-paso/1131800/", "brand": "Bassett Furniture", "brand:wikidata": "Q4868109"}, "geometry": {"type": "Point", "coordinates": [-106.5462539, 31.8341918]}},
{"type": "Feature", "id": "oVUaSz7Ul88tR5YpVEaG2Lb3A-Q=", "properties": {"ref": "1104639", "@spider": "bassett_furniture", "addr:full": "7801 Burnet Road", "addr:city": "Austin", "addr:state": "TX", "addr:postcode": "78757", "addr:country": "US", "name": "bassett home furnishings austin", "phone": "512.419.0101", "website": "https://stores.bassettfurniture.com/tx/austin/1104639/", "brand": "Bassett Furniture", "brand:wikidata": "Q4868109"}, "geometry": {"type": "Point", "coordinates": [-97.7303827, 30.3544294]}},
{"type": "Feature", "id": "kPkoLbxrMUf6RggetsbkJckGk38=", "properties": {"ref": "1104566", "@spider": "bassett_furniture", "addr:full": "9533 Kingston Pike", "addr:city": "Knoxville", "addr:state": "TN", "addr:postcode": "37922", "addr:country": "US", "name": "bassett home furnishings knoxville", "phone": "865.531.0201", "website": "https://stores.bassettfurniture.com/tn/knoxville/1104566/", "brand": "Bassett Furniture", "brand:wikidata": "Q4868109"}, "geometry": {"type": "Point", "coordinates": [-84.1015336, 35.9098216]}},
{"type": "Feature", "id": "3WsgLJyPQ8631TfjUbYRLyBxXiY=", "properties": {"ref": "156977", "@spider": "bassett_furniture", "addr:full": "2100 Hamilton Place Boulevard", "addr:city": "Chattanooga", "addr:state": "TN", "addr:postcode": "37421", "addr:country": "US", "name": "bassett home furnishings chattanooga", "phone": "423.296.8393", "website": "https://stores.bassettfurniture.com/tn/chattanooga/156977/", "brand": "Bassett Furniture", "brand:wikidata": "Q4868109"}, "geometry": {"type": "Point", "coordinates": [-85.1587186, 35.0340089]}},
{"type": "Feature", "id": "qKdIio4PGEsm0AFMz3h3m1WE_6w=", "properties": {"ref": "1104111", "@spider": "bassett_furniture", "addr:full": "773 Haywood Road", "addr:city": "Greenville", "addr:state": "SC", "addr:postcode": "29607", "addr:country": "US", "name": "bassett home furnishings greenville", "phone": "864.987.0609", "website": "https://stores.bassettfurniture.com/sc/greenville/1104111/", "brand": "Bassett Furniture", "brand:wikidata": "Q4868109"}, "geometry": {"type": "Point", "coordinates": [-82.3369658, 34.8523709]}},
{"type": "Feature", "id": "TZAfj4ZA3KfCGB4TLwwjp0t4qe8=", "properties": {"ref": "322928-2", "@spider": "bassett_furniture", "addr:full": "JC Penney Plaza Las Americas", "addr:city": "San Juan", "addr:postcode": "918", "addr:country": "PR", "name": "bassett home furnishings san juan", "phone": "787.292.4100", "website": "https://stores.bassettfurniture.com/san-juan/san-juan/322928-2/", "brand": "Bassett Furniture", "brand:wikidata": "Q4868109"}, "geometry": {"type": "Point", "coordinates": [-66.0744653, 18.4224736]}},
{"type": "Feature", "id": "LjrIt1Quts3z-SyTno21sDzcjNw=", "properties": {"ref": "1130145", "@spider": "bassett_furniture", "addr:full": "8003 McKnight Rd", "addr:city": "Pittsburgh", "addr:state": "PA", "addr:postcode": "15237", "addr:country": "US", "name": "bassett home furnishings pittsburgh", "phone": "412.366.2000", "website": "https://stores.bassettfurniture.com/pa/pittsburgh/1130145/", "brand": "Bassett Furniture", "brand:wikidata": "Q4868109"}, "geometry": {"type": "Point", "coordinates": [-80.0201096, 40.550402]}},
{"type": "Feature", "id": "T0rccdNI6U6w4PqaexytVSiUI0Y=", "properties": {"ref": "1127996", "@spider": "bassett_furniture", "addr:full": "611 West DeKalb Pike", "addr:city": "King of Prussia", "addr:state": "PA", "addr:postcode": "19406", "addr:country": "US", "name": "bassett home furnishings king of prussia", "phone": "610.337.1249", "website": "https://stores.bassettfurniture.com/pa/king-of-prussia/1127996/", "brand": "Bassett Furniture", "brand:wikidata": "Q4868109"}, "geometry": {"type": "Point", "coordinates": [-75.3824793, 40.087761]}},
{"type": "Feature", "id": "Wg5QAct6ADF46ceDJdMeGqPdgjM=", "properties": {"ref": "118494", "@spider": "bassett_furniture", "addr:full": "578 Bethlehem Pike", "addr:city": "Colmar", "addr:state": "PA", "addr:postcode": "18915", "addr:country": "US", "name": "bassett home furnishings colmar", "phone": "215.996.1550", "website": "https://stores.bassettfurniture.com/pa/colmar/118494/", "brand": "Bassett Furniture", "brand:wikidata": "Q4868109"}, "geometry": {"type": "Point", "coordinates": [-75.2529194, 40.2641877]}},
{"type": "Feature", "id": "QQfoa3TZNbKrm4p2RkFxKpIjc-s=", "properties": {"ref": "506671", "@spider": "bassett_furniture", "addr:full": "10137 E. 71st Street", "addr:city": "Tulsa", "addr:state": "OK", "addr:postcode": "74133", "addr:country": "US", "name": "bassett home furnishings tulsa", "phone": "918.254.6618", "website": "https://stores.bassettfurniture.com/ok/tulsa/506671/", "brand": "Bassett Furniture", "brand:wikidata": "Q4868109"}, "geometry": {"type": "Point", "coordinates": [-95.8628351, 36.0641135]}},
{"type": "Feature", "id": "P0xvB8Nhlsg9KonTlqepLhBrKEU=", "properties": {"ref": "1131032", "@spider": "bassett_furniture", "addr:full": "5710 N. Classen Blvd.", "addr:city": "Oklahoma City", "addr:state": "OK", "addr:postcode": "73118", "addr:country": "US", "name": "bassett home furnishings oklahoma city", "phone": "405.848.0500", "website": "https://stores.bassettfurniture.com/ok/oklahoma-city/1131032/", "brand": "Bassett Furniture", "brand:wikidata": "Q4868109"}, "geometry": {"type": "Point", "coordinates": [-97.5341592, 35.5297659]}},
{"type": "Feature", "id": "nv65-wbzn8GN-MPy9cmBkHM3xoQ=", "properties": {"ref": "1128179", "@spider": "bassett_furniture", "addr:full": "5929 Britton Pkwy", "addr:city": "Dublin", "addr:state": "OH", "addr:postcode": "43016", "addr:country": "US", "name": "bassett home furnishings dublin, ohio", "phone": "614.760.2560", "website": "https://stores.bassettfurniture.com/oh/dublin/1128179/", "brand": "Bassett Furniture", "brand:wikidata": "Q4868109"}, "geometry": {"type": "Point", "coordinates": [-83.1403575, 40.0736532]}},
{"type": "Feature", "id": "tlkY00KSEDjIEoLhTqQcZwIRzTI=", "properties": {"ref": "1137256", "@spider": "bassett_furniture", "addr:full": "4181 Weaverton Ln.", "addr:city": "Columbus", "addr:state": "OH", "addr:postcode": "43219", "addr:country": "US", "name": "bassett home furnishings columbus", "phone": "380.777.6049", "website": "https://stores.bassettfurniture.com/oh/columbus/1137256/", "brand": "Bassett Furniture", "brand:wikidata": "Q4868109"}, "geometry": {"type": "Point", "coordinates": [-82.9074993, 40.0557959]}},
{"type": "Feature", "id": "0NA-b48Divlilrhruz1tYkUgZKI=", "properties": {"ref": "1104890", "@spider": "bassett_furniture", "addr:full": "4 Commerce Drive", "addr:city": "Victor", "addr:state": "NY", "addr:postcode": "14564", "addr:country": "US", "name": "bassett home furnishings victor", "phone": "585.924.8424", "website": "https://stores.bassettfurniture.com/ny/victor/1104890/", "brand": "Bassett Furniture", "brand:wikidata": "Q4868109"}, "geometry": {"type": "Point", "coordinates": [-77.4392705, 43.0204238]}},
{"type": "Feature", "id": "KEbnsZkOt_dWQt44DqHKjIyktvM=", "properties": {"ref": "1134845", "@spider": "bassett_furniture", "addr:full": "88-1 Dunning Road", "addr:city": "Middletown", "addr:state": "NY", "addr:postcode": "10940", "addr:country": "US", "name": "bassett home furnishings middletown clearance", "phone": "845.956.0159", "website": "https://stores.bassettfurniture.com/ny/middletown/1134845/", "brand": "Bassett Furniture", "brand:wikidata": "Q4868109"}, "geometry": {"type": "Point", "coordinates": [-74.3794218, 41.4508272]}},
{"type": "Feature", "id": "HErKaCHS1wqumSXBv8_MHNtixrM=", "properties": {"ref": "1110769", "@spider": "bassett_furniture", "addr:full": "120 South Central Ave", "addr:city": "Hartsdale", "addr:state": "NY", "addr:postcode": "10530", "addr:country": "US", "name": "bassett home furnishings hartsdale", "phone": "914.529.7040", "website": "https://stores.bassettfurniture.com/ny/hartsdale/1110769/", "brand": "Bassett Furniture", "brand:wikidata": "Q4868109"}, "geometry": {"type": "Point", "coordinates": [-73.8016991, 41.0154022]}},
{"type": "Feature", "id": "zihLHTuFIS8IW3hQKHpJO2t8vRE=", "properties": {"ref": "1127714", "@spider": "bassett_furniture", "addr:full": "950 Old Country Road", "addr:city": "Garden City", "addr:state": "NY", "addr:postcode": "11530", "addr:country": "US", "name": "bassett home furnishings garden city", "phone": "516.222.0063", "website": "https://stores.bassettfurniture.com/ny/garden-city/1127714/", "brand": "Bassett Furniture", "brand:wikidata": "Q4868109"}, "geometry": {"type": "Point", "coordinates": [-73.5999332, 40.7434993]}},
{"type": "Feature", "id": "Gu1CvO4FXMK-1IeF7Cp_o2Sk6vU=", "properties": {"ref": "1104888", "@spider": "bassett_furniture", "addr:full": "3755 Sheridan Drive", "addr:city": "Amherst", "addr:state": "NY", "addr:postcode": "14226", "addr:country": "US", "name": "bassett home furnishings amherst", "phone": "716.505.2200", "website": "https://stores.bassettfurniture.com/ny/amherst/1104888/", "brand": "Bassett Furniture", "brand:wikidata": "Q4868109"}, "geometry": {"type": "Point", "coordinates": [-78.794947, 42.9786735]}},
{"type": "Feature", "id": "30J2gZMTQibw35vs9ot2AhAm2sw=", "properties": {"ref": "565505", "@spider": "bassett_furniture", "addr:full": "9025 South Virginia Street", "addr:city": "Reno", "addr:state": "NV", "addr:postcode": "89511", "addr:country": "US", "name": "bassett home furnishings reno", "phone": "775.850.5555", "website": "https://stores.bassettfurniture.com/nv/reno/565505/", "brand": "Bassett Furniture", "brand:wikidata": "Q4868109"}, "geometry": {"type": "Point", "coordinates": [-119.7758043, 39.4481431]}},
{"type": "Feature", "id": "Gh1lz5bpVWRN39MbY8wfUs8KDVU=", "properties": {"ref": "1104713", "@spider": "bassett_furniture", "addr:full": "1825 Festival Plaza Dr. #140", "addr:city": "Las Vegas", "addr:state": "NV", "addr:postcode": "89135", "addr:country": "US", "name": "bassett home furnishings las vegas", "phone": "702.364.2425", "website": "https://stores.bassettfurniture.com/nv/las-vegas/1104713/", "brand": "Bassett Furniture", "brand:wikidata": "Q4868109"}, "geometry": {"type": "Point", "coordinates": [-115.3337327, 36.1514063]}},
{"type": "Feature", "id": "4SKYlVWKBj_nbCcV-cdEhlRxIcs=", "properties": {"ref": "1105513", "@spider": "bassett_furniture", "addr:full": "240 Route 17 North", "addr:city": "Paramus", "addr:state": "NJ", "addr:postcode": "07652", "addr:country": "US", "name": "bassett home furnishings paramus", "phone": "201.265.4400", "website": "https://stores.bassettfurniture.com/nj/paramus/1105513/", "brand": "Bassett Furniture", "brand:wikidata": "Q4868109"}, "geometry": {"type": "Point", "coordinates": [-74.0692401, 40.9357221]}},
{"type": "Feature", "id": "bBV60KIEC-Efwevr38K2QLPG_BM=", "properties": {"ref": "679204", "@spider": "bassett_furniture", "addr:full": "9 Kanes Lane", "addr:city": "Middletown", "addr:state": "NJ", "addr:postcode": "07748", "addr:country": "US", "name": "bassett home furnishings middletown", "phone": "732.671.0400", "website": "https://stores.bassettfurniture.com/nj/middletown/679204/", "brand": "Bassett Furniture", "brand:wikidata": "Q4868109"}, "geometry": {"type": "Point", "coordinates": [-74.0943558, 40.3856999]}},
{"type": "Feature", "id": "9HWVF74xUgp2rOWUYccW5U2ziiQ=", "properties": {"ref": "1120830", "@spider": "bassett_furniture", "addr:full": "464 W. Mt. Pleasant Ave.", "addr:city": "Livingston", "addr:state": "NJ", "addr:postcode": "07039", "addr:country": "US", "name": "bassett home furnishings livingston", "phone": "973.533.5000", "website": "https://stores.bassettfurniture.com/nj/livingston/1120830/", "brand": "Bassett Furniture", "brand:wikidata": "Q4868109"}, "geometry": {"type": "Point", "coordinates": [-74.3449091, 40.79699]}},
{"type": "Feature", "id": "seSLRFgU5q3enDw0MM_evjwZMRE=", "properties": {"ref": "1139722", "@spider": "bassett_furniture", "addr:full": "3371 US Hwy. 1, Unit 35", "addr:city": "Lawrenceville", "addr:state": "NJ", "addr:postcode": "08648", "addr:country": "US", "name": "bassett home furnishings princeton", "phone": "609.803.7901", "website": "https://stores.bassettfurniture.com/nj/lawrenceville/1139722/", "brand": "Bassett Furniture", "brand:wikidata": "Q4868109"}, "geometry": {"type": "Point", "coordinates": [-74.6847736, 40.2964109]}},
{"type": "Feature", "id": "tTSw9spLFztCcv0zd9sWFUlqb_c=", "properties": {"ref": "679213", "@spider": "bassett_furniture", "addr:full": "292 Route 22", "addr:city": "Green Brook", "addr:state": "NJ", "addr:postcode": "08812", "addr:country": "US", "name": "bassett home furnishings green brook", "phone": "732.926.8800", "website": "https://stores.bassettfurniture.com/nj/green-brook/679213/", "brand": "Bassett Furniture", "brand:wikidata": "Q4868109"}, "geometry": {"type": "Point", "coordinates": [-74.4971625, 40.5926653]}},
{"type": "Feature", "id": "xcJFKKv9gcjQzFzynRHiG1PVaww=", "properties": {"ref": "115866", "@spider": "bassett_furniture", "addr:full": "1602 West Marlton Pike", "addr:city": "Cherry Hill", "addr:state": "NJ", "addr:postcode": "08034", "addr:country": "US", "name": "bassett home furnishings cherry hill", "phone": "856.795.8680", "website": "https://stores.bassettfurniture.com/nj/cherry-hill/115866/", "brand": "Bassett Furniture", "brand:wikidata": "Q4868109"}, "geometry": {"type": "Point", "coordinates": [-75.0288964, 39.9178035]}},
{"type": "Feature", "id": "g-pJ_BsoFQuQ5qt-uDdfHDkN1w0=", "properties": {"ref": "501834", "@spider": "bassett_furniture", "addr:full": "530 Route 70", "addr:city": "Brick", "addr:state": "NJ", "addr:postcode": "08723", "addr:country": "US", "name": "bassett home furnishings brick", "phone": "732.477.4004", "website": "https://stores.bassettfurniture.com/nj/brick/501834/", "brand": "Bassett Furniture", "brand:wikidata": "Q4868109"}, "geometry": {"type": "Point", "coordinates": [-74.153815, 40.0574118]}},
{"type": "Feature", "id": "h4xwb7-WD6EuZMcB5dFk0GRqtsQ=", "properties": {"ref": "1104121", "@spider": "bassett_furniture", "addr:full": "8201 Glenwood Avenue", "addr:city": "Raleigh", "addr:state": "NC", "addr:postcode": "27612", "addr:country": "US", "name": "bassett home furnishings raleigh", "phone": "919.781.5161", "website": "https://stores.bassettfurniture.com/nc/raleigh/1104121/", "brand": "Bassett Furniture", "brand:wikidata": "Q4868109"}, "geometry": {"type": "Point", "coordinates": [-78.7319596, 35.8759808]}},
{"type": "Feature", "id": "1clpYB7OCmsj7rlu86SZPdsfKKg=", "properties": {"ref": "1103830", "@spider": "bassett_furniture", "addr:full": "439 Daniels St.", "addr:city": "Raleigh", "addr:state": "NC", "addr:postcode": "27605", "addr:country": "US", "name": "bassett home furnishings cameron village", "phone": "919.831.4511", "website": "https://stores.bassettfurniture.com/nc/raleigh/1103830/", "brand": "Bassett Furniture", "brand:wikidata": "Q4868109"}, "geometry": {"type": "Point", "coordinates": [-78.6616585, 35.7902557]}},
{"type": "Feature", "id": "Vv6J980dUVwdMaBqssVbY5uNL3Y=", "properties": {"ref": "1104109", "@spider": "bassett_furniture", "addr:full": "4501 Landover Drive", "addr:city": "Greensboro", "addr:state": "NC", "addr:postcode": "27407", "addr:country": "US", "name": "bassett home furnishings greensboro", "phone": "336.323.0166", "website": "https://stores.bassettfurniture.com/nc/greensboro/1104109/", "brand": "Bassett Furniture", "brand:wikidata": "Q4868109"}, "geometry": {"type": "Point", "coordinates": [-79.8957295, 36.0539922]}},
{"type": "Feature", "id": "qCpWLxr0bzT2F3fgHfjX62Vw90s=", "properties": {"ref": "1104119", "@spider": "bassett_furniture", "addr:full": "11700 Carolina Place Parkway", "addr:city": "Pineville", "addr:state": "NC", "addr:postcode": "28134", "addr:country": "US", "name": "bassett home furnishings pineville", "phone": "704.540.6353", "website": "https://stores.bassettfurniture.com/nc/pineville/1104119/", "brand": "Bassett Furniture", "brand:wikidata": "Q4868109"}, "geometry": {"type": "Point", "coordinates": [-80.8800652, 35.0748127]}},
{"type": "Feature", "id": "B1ASUe-_8uA5p8I0NIarTfMGSnI=", "properties": {"ref": "1104104", "@spider": "bassett_furniture", "addr:full": "7830 Lyles Lane", "addr:city": "Concord", "addr:state": "NC", "addr:postcode": "28027", "addr:country": "US", "name": "bassett home furnishings concord", "phone": "704.979.5700", "website": "https://stores.bassettfurniture.com/nc/concord/1104104/", "brand": "Bassett Furniture", "brand:wikidata": "Q4868109"}, "geometry": {"type": "Point", "coordinates": [-80.7135587, 35.3668476]}},
{"type": "Feature", "id": "OmrE6530tE8-AXy5ChtW234EsQ4=", "properties": {"ref": "1118905", "@spider": "bassett_furniture", "addr:full": "5295 Pepperchase Dr.", "addr:city": "Southaven", "addr:state": "MS", "addr:postcode": "38671", "addr:country": "US", "name": "great american homestore great american homestore", "phone": "6629961000", "website": "https://stores.bassettfurniture.com/ms/southaven/1118905/", "brand": "Bassett Furniture", "brand:wikidata": "Q4868109"}, "geometry": {"type": "Point", "coordinates": [-89.9972314, 34.9377415]}},
{"type": "Feature", "id": "UiJJq9c6Bg-C0oRSOzicUAKc5u4=", "properties": {"ref": "1104593", "@spider": "bassett_furniture", "addr:full": "111 Highlands Blvd. Dr.", "addr:city": "Manchester", "addr:state": "MO", "addr:postcode": "63011", "addr:country": "US", "name": "bassett home furnishings manchester", "phone": "636.527.0011", "website": "https://stores.bassettfurniture.com/mo/manchester/1104593/", "brand": "Bassett Furniture", "brand:wikidata": "Q4868109"}, "geometry": {"type": "Point", "coordinates": [-90.5052472, 38.5938343]}},
{"type": "Feature", "id": "wHG3kFeRujmDYt1kvCvvkm8lwvw=", "properties": {"ref": "1105373", "@spider": "bassett_furniture", "addr:full": "1150 Rockville Pike", "addr:city": "Rockville", "addr:state": "MD", "addr:postcode": "20852", "addr:country": "US", "name": "bassett home furnishings rockville", "phone": "301.545.5560", "website": "https://stores.bassettfurniture.com/md/rockville/1105373/", "brand": "Bassett Furniture", "brand:wikidata": "Q4868109"}, "geometry": {"type": "Point", "coordinates": [-77.1314833, 39.0713378]}},
{"type": "Feature", "id": "SfH93drhacJWk3Ru4_JRMfuN4cM=", "properties": {"ref": "1125993", "@spider": "bassett_furniture", "addr:full": "100 Shawan Rd.", "addr:city": "Cockeysville", "addr:state": "MD", "addr:postcode": "21030", "addr:country": "US", "name": "bassett home furnishings cockeysville", "phone": "410.329.9828", "website": "https://stores.bassettfurniture.com/md/cockeysville/1125993/", "brand": "Bassett Furniture", "brand:wikidata": "Q4868109"}, "geometry": {"type": "Point", "coordinates": [-76.6540859, 39.4982823]}},
{"type": "Feature", "id": "Vf53ubJ8aUOk95OzWrYsMfoc1mQ=", "properties": {"ref": "1109239", "@spider": "bassett_furniture", "addr:full": "1906 Town Centre Blvd.", "addr:city": "Annapolis", "addr:state": "MD", "addr:postcode": "21401", "addr:country": "US", "name": "bassett home furnishings annapolis", "phone": "410.224.0003", "website": "https://stores.bassettfurniture.com/md/annapolis/1109239/", "brand": "Bassett Furniture", "brand:wikidata": "Q4868109"}, "geometry": {"type": "Point", "coordinates": [-76.5392947, 38.9806838]}},
{"type": "Feature", "id": "Qdp38WO5qGdaLbWT5ti6ES6O7uo=", "properties": {"ref": "1104998", "@spider": "bassett_furniture", "addr:full": "174 Boylston St", "addr:city": "Chestnut Hill", "addr:state": "MA", "addr:postcode": "02467", "addr:country": "US", "name": "bassett home furnishings chestnut hill", "phone": "617.243.9800", "website": "https://stores.bassettfurniture.com/ma/chestnut-hill/1104998/", "brand": "Bassett Furniture", "brand:wikidata": "Q4868109"}, "geometry": {"type": "Point", "coordinates": [-71.1746931, 42.3201258]}},
{"type": "Feature", "id": "QoElz8rIycEGbI3JXzAnyTD9nmg=", "properties": {"ref": "447952", "@spider": "bassett_furniture", "addr:full": "501 Acadiana Mall Circle", "addr:city": "Lafayette", "addr:state": "LA", "addr:postcode": "70503", "addr:country": "US", "name": "bassett home furnishings lafayette", "phone": "337.735.1000", "website": "https://stores.bassettfurniture.com/la/lafayette/447952/", "brand": "Bassett Furniture", "brand:wikidata": "Q4868109"}, "geometry": {"type": "Point", "coordinates": [-92.0771681, 30.1668298]}},
{"type": "Feature", "id": "KmTqOkkh2H80Bdqptf7NcSq3Ud8=", "properties": {"ref": "118691", "@spider": "bassett_furniture", "addr:full": "11655 Reiger Road", "addr:city": "Baton Rouge", "addr:state": "LA", "addr:postcode": "70809", "addr:country": "US", "name": "bassett home furnishings baton rouge", "phone": "225.755.0600", "website": "https://stores.bassettfurniture.com/la/baton-rouge/118691/", "brand": "Bassett Furniture", "brand:wikidata": "Q4868109"}, "geometry": {"type": "Point", "coordinates": [-91.0503091, 30.3733076]}},
{"type": "Feature", "id": "e_6TRsF4VCWD6vd4kJsMR7ZVqo4=", "properties": {"ref": "1104588", "@spider": "bassett_furniture", "addr:full": "12941 Shelbyville Road", "addr:city": "Louisville", "addr:state": "KY", "addr:postcode": "40243", "addr:country": "US", "name": "bassett home furnishings louisville", "phone": "502.254.7250", "website": "https://stores.bassettfurniture.com/ky/louisville/1104588/", "brand": "Bassett Furniture", "brand:wikidata": "Q4868109"}, "geometry": {"type": "Point", "coordinates": [-85.5130225, 38.2441301]}},
{"type": "Feature", "id": "kA6iUYGlt6VI_QZYrTkXk7g0UXo=", "properties": {"ref": "1128592", "@spider": "bassett_furniture", "addr:full": "6801 W 135th St.", "addr:city": "Overland Park", "addr:state": "KS", "addr:postcode": "66223", "addr:country": "US", "name": "bassett home furnishings overland park", "phone": "913.839.0200", "website": "https://stores.bassettfurniture.com/ks/overland-park/1128592/", "brand": "Bassett Furniture", "brand:wikidata": "Q4868109"}, "geometry": {"type": "Point", "coordinates": [-94.6644915, 38.8814752]}},
{"type": "Feature", "id": "-39fa7TXf-e3umbETlXTV6j1klU=", "properties": {"ref": "1105245", "@spider": "bassett_furniture", "addr:full": "3583 Berlin Turnpike", "addr:city": "Newington", "addr:state": "CT", "addr:postcode": "06111", "addr:country": "US", "name": "bassett home furnishings newington", "phone": "860.666.8666", "website": "https://stores.bassettfurniture.com/ct/newington/1105245/", "brand": "Bassett Furniture", "brand:wikidata": "Q4868109"}, "geometry": {"type": "Point", "coordinates": [-72.7301741, 41.6497056]}},
{"type": "Feature", "id": "XpDWWzy3alvRp6-s5AOb4EE-d8Y=", "properties": {"ref": "1140468", "@spider": "bassett_furniture", "addr:full": "16509 N Washington St.", "addr:city": "Thornton", "addr:state": "CO", "addr:postcode": "80023", "addr:country": "US", "name": "bassett home furnishings thornton", "phone": "303.450.5126", "website": "https://stores.bassettfurniture.com/co/thornton/1140468/", "brand": "Bassett Furniture", "brand:wikidata": "Q4868109"}, "geometry": {"type": "Point", "coordinates": [-104.978459, 39.9964171]}},
{"type": "Feature", "id": "2QcjdCdmyePR7U45GjuNeiF5a4s=", "properties": {"ref": "587809", "@spider": "bassett_furniture", "addr:full": "7854 E County Line Road", "addr:city": "LoneTree", "addr:state": "CO", "addr:postcode": "80124", "addr:country": "US", "name": "bassett home furnishings lonetree", "phone": "303.592.2525", "website": "https://stores.bassettfurniture.com/co/lonetree/587809/", "brand": "Bassett Furniture", "brand:wikidata": "Q4868109"}, "geometry": {"type": "Point", "coordinates": [-104.8980971, 39.5650429]}},
{"type": "Feature", "id": "2aF2I3cCC04PQcvilhsBWDDjEEQ=", "properties": {"ref": "523054", "@spider": "bassett_furniture", "addr:full": "325 West Gunnison Ave.", "addr:city": "Grand Junction", "addr:state": "CO", "addr:postcode": "81501", "addr:country": "US", "name": "bassett home furnishings grand junction", "phone": "970.245.4400", "website": "https://stores.bassettfurniture.com/co/grand-junction/523054/", "brand": "Bassett Furniture", "brand:wikidata": "Q4868109"}, "geometry": {"type": "Point", "coordinates": [-108.573867, 39.0725296]}},
{"type": "Feature", "id": "qsIHuMdR9oG9Vr3Yb1BWWB1HJ0U=", "properties": {"ref": "1120601", "@spider": "bassett_furniture", "addr:full": "6344 Topanga Canyon Blvd.", "addr:city": "Woodland Hills", "addr:state": "CA", "addr:postcode": "91367", "addr:country": "US", "name": "bassett home furnishings woodland hills", "phone": "818.593.4101", "website": "https://stores.bassettfurniture.com/ca/woodland-hills/1120601/", "brand": "Bassett Furniture", "brand:wikidata": "Q4868109"}, "geometry": {"type": "Point", "coordinates": [-118.6049181, 34.1861286]}},
{"type": "Feature", "id": "UQ-mbJKFUBKolfUL1xbBKZQKx5Y=", "properties": {"ref": "372555", "@spider": "bassett_furniture", "addr:full": "32130 Temecula Parkway", "addr:city": "Temecula", "addr:state": "CA", "addr:postcode": "92592", "addr:country": "US", "name": "bassett home furnishings temecula", "phone": "951.553.2778", "website": "https://stores.bassettfurniture.com/ca/temecula/372555/", "brand": "Bassett Furniture", "brand:wikidata": "Q4868109"}, "geometry": {"type": "Point", "coordinates": [-117.0968369, 33.482962]}},
{"type": "Feature", "id": "nbpRZupvIRDDtvXSbN_vwJimvQ0=", "properties": {"ref": "155998", "@spider": "bassett_furniture", "addr:full": "180 Knoll Road", "addr:city": "San Marcos", "addr:state": "CA", "addr:postcode": "92069", "addr:country": "US", "name": "bassett home furnishings san marcos", "phone": "760.744.2277", "website": "https://stores.bassettfurniture.com/ca/san-marcos/155998/", "brand": "Bassett Furniture", "brand:wikidata": "Q4868109"}, "geometry": {"type": "Point", "coordinates": [-117.1761248, 33.1394617]}},
{"type": "Feature", "id": "gObWn46_E7i6CyhPXJmYLkKlKks=", "properties": {"ref": "1100016", "@spider": "bassett_furniture", "addr:full": "1152-20 Blossom Hill Rd", "addr:city": "San Jose", "addr:state": "CA", "addr:postcode": "95118", "addr:country": "US", "name": "bassett home furnishings san jose", "phone": "408.978.7330", "website": "https://stores.bassettfurniture.com/ca/san-jose/1100016/", "brand": "Bassett Furniture", "brand:wikidata": "Q4868109"}, "geometry": {"type": "Point", "coordinates": [-121.8776986, 37.2491747]}},
{"type": "Feature", "id": "Oze7XcpqpKPhhkRCLSq25zpOaBI=", "properties": {"ref": "793360", "@spider": "bassett_furniture", "addr:full": "1287 Industrial Road", "addr:city": "San Carlos", "addr:state": "CA", "addr:postcode": "94070", "addr:country": "US", "name": "bassett home furnishings san carlos", "phone": "650.264.4500", "website": "https://stores.bassettfurniture.com/ca/san-carlos/793360/", "brand": "Bassett Furniture", "brand:wikidata": "Q4868109"}, "geometry": {"type": "Point", "coordinates": [-122.2450932, 37.5013169]}},
{"type": "Feature", "id": "Y4oubpFRoDq8_ir4gRL7taAeyzo=", "properties": {"ref": "322929", "@spider": "bassett_furniture", "addr:full": "JC Penney Plaza Carolina Mall", "addr:city": "Carolina", "addr:postcode": "983", "addr:country": "PR", "name": "bassett home furnishings carolina", "phone": "787.292.4100", "website": "https://stores.bassettfurniture.com/carolina/carolina/322929/", "brand": "Bassett Furniture", "brand:wikidata": "Q4868109"}, "geometry": {"type": "Point", "coordinates": [-65.9763196, 18.3937337]}},
{"type": "Feature", "id": "XK2bNElKadvQhZRBPx08mytiW4I=", "properties": {"ref": "609994", "@spider": "bassett_furniture", "addr:full": "3250 Buskirk Avenue", "addr:city": "Pleasant Hill", "addr:state": "CA", "addr:postcode": "94523", "addr:country": "US", "name": "bassett home furnishings pleasant hill", "phone": "925.296.0700", "website": "https://stores.bassettfurniture.com/ca/pleasant-hill/609994/", "brand": "Bassett Furniture", "brand:wikidata": "Q4868109"}, "geometry": {"type": "Point", "coordinates": [-122.0592299, 37.9350662]}},
{"type": "Feature", "id": "4hIGV9d78Nzh35yenyyfobdpeco=", "properties": {"ref": "1132865", "@spider": "bassett_furniture", "addr:full": "8657 Villa La Jolla Drive, Suite 231", "addr:city": "La Jolla", "addr:state": "CA", "addr:postcode": "92037", "addr:country": "US", "name": "bassett home furnishings la jolla", "phone": "858.997.1040", "website": "https://stores.bassettfurniture.com/ca/la-jolla/1132865/", "brand": "Bassett Furniture", "brand:wikidata": "Q4868109"}, "geometry": {"type": "Point", "coordinates": [-117.231441, 32.8647902]}},
{"type": "Feature", "id": "VuqfdQ5ca8ILhWEKfmZ4dzNSk8A=", "properties": {"ref": "1105523", "@spider": "bassett_furniture", "addr:full": "77 Technology W Drive", "addr:city": "Irvine", "addr:state": "CA", "addr:postcode": "92618", "addr:country": "US", "name": "bassett home furnishings irvine", "phone": "949.266.5000", "website": "https://stores.bassettfurniture.com/ca/irvine/1105523/", "brand": "Bassett Furniture", "brand:wikidata": "Q4868109"}, "geometry": {"type": "Point", "coordinates": [-117.7426065, 33.657169]}},
{"type": "Feature", "id": "sr6qgYlA6z1B8NZQ-03LQXYnzLE=", "properties": {"ref": "561849", "@spider": "bassett_furniture", "addr:full": "7575 Dublin Blvd.", "addr:city": "Dublin", "addr:state": "CA", "addr:postcode": "94568", "addr:country": "US", "name": "bassett home furnishings dublin", "phone": "925.560.9800", "website": "https://stores.bassettfurniture.com/ca/dublin/561849/", "brand": "Bassett Furniture", "brand:wikidata": "Q4868109"}, "geometry": {"type": "Point", "coordinates": [-121.9292671, 37.704753]}},
{"type": "Feature", "id": "97Ok1abbidc0u5RyMii2VtPudqI=", "properties": {"ref": "1134607", "@spider": "bassett_furniture", "addr:full": "317 Gellert Blvd.", "addr:city": "Daly City", "addr:state": "CA", "addr:postcode": "94015", "addr:country": "US", "name": "bassett home furnishings daly city", "phone": "650.608.0220", "website": "https://stores.bassettfurniture.com/ca/daly-city/1134607/", "brand": "Bassett Furniture", "brand:wikidata": "Q4868109"}, "geometry": {"type": "Point", "coordinates": [-122.4666711, 37.6671675]}},
{"type": "Feature", "id": "UlT7773LRREI9WcLXmR-y6rKXkQ=", "properties": {"ref": "1136543", "@spider": "bassett_furniture", "addr:full": "4336 N Oracle Road", "addr:city": "Tucson", "addr:state": "AZ", "addr:postcode": "85705", "addr:country": "US", "name": "bassett home furnishings tucson", "phone": "520.989.7137", "website": "https://stores.bassettfurniture.com/az/tucson/1136543/", "brand": "Bassett Furniture", "brand:wikidata": "Q4868109"}, "geometry": {"type": "Point", "coordinates": [-110.9761373, 32.2849799]}},
{"type": "Feature", "id": "ZuQHob4BBOrI9HKjmmiIThqxbBk=", "properties": {"ref": "1104892", "@spider": "bassett_furniture", "addr:full": "15600 North Scottsdale Rd.", "addr:city": "Scottsdale", "addr:state": "AZ", "addr:postcode": "85254", "addr:country": "US", "name": "bassett home furnishings scottsdale", "phone": "480.585.4141", "website": "https://stores.bassettfurniture.com/az/scottsdale/1104892/", "brand": "Bassett Furniture", "brand:wikidata": "Q4868109"}, "geometry": {"type": "Point", "coordinates": [-111.9262592, 33.6280111]}},
{"type": "Feature", "id": "UfZgOrbzYQ9OEcU4W_LL_xX9lmw=", "properties": {"ref": "1130503", "@spider": "bassett_furniture", "addr:full": "7131 W. Ray Rd. Suite #29-30", "addr:city": "Chandler", "addr:state": "AZ", "addr:postcode": "85226", "addr:country": "US", "name": "bassett home furnishings chandler", "phone": "480.940.1420", "website": "https://stores.bassettfurniture.com/az/chandler/1130503/", "brand": "Bassett Furniture", "brand:wikidata": "Q4868109"}, "geometry": {"type": "Point", "coordinates": [-111.9650818, 33.3183886]}},
{"type": "Feature", "id": "GCfts1o7rbJ5CfXlz4mBbnlylYc=", "properties": {"ref": "1104717", "@spider": "bassett_furniture", "addr:full": "11525 Cantrell Rd", "addr:city": "Little Rock", "addr:state": "AR", "addr:postcode": "72212", "addr:country": "US", "name": "bassett home furnishings little rock", "phone": "501.217.3860", "website": "https://stores.bassettfurniture.com/ar/little-rock/1104717/", "brand": "Bassett Furniture", "brand:wikidata": "Q4868109"}, "geometry": {"type": "Point", "coordinates": [-92.4024906, 34.7924089]}},
{"type": "Feature", "id": "fnx2wWMuLhYmBUdni3rU8A361uM=", "properties": {"ref": "621422", "@spider": "bassett_furniture", "addr:full": "3505 North Steele Blvd.", "addr:city": "Fayetteville", "addr:state": "AR", "addr:postcode": "72703", "addr:country": "US", "name": "bassett home furnishings fayetteville", "phone": "479.571.0200", "website": "https://stores.bassettfurniture.com/ar/fayetteville/621422/", "brand": "Bassett Furniture", "brand:wikidata": "Q4868109"}, "geometry": {"type": "Point", "coordinates": [-94.156892, 36.1188825]}}]}