{"type":"FeatureCollection","features":[{"type": "Feature", "id": "nE1Csbnga_BSGrWAufoIXVAJJuc=", "properties": {"ref": "27505", "@spider": "bayshore_healthcare", "addr:full": "8106 Fraser Ave, Suite 55 ", "addr:city": "Ft McMurray", "addr:state": "AB", "addr:postcode": "T9H 0G1", "addr:country": "CA", "name": "Bayshore Infusion Clinic - Fort McMurray, AB", "website": "https://www.bayshore.ca/locations/bayshore-infusion-clinic-fort-mcmurray-ab/", "brand": "Bayshore Healthcare"}, "geometry": {"type": "Point", "coordinates": [-111.3458923, 56.7163135]}},
{"type": "Feature", "id": "ebFq3LuNNPbPHDioC13M869ir18=", "properties": {"ref": "1497", "@spider": "bayshore_healthcare", "addr:full": "620 Duchess Street", "addr:city": "Saskatoon", "addr:state": "SK", "addr:postcode": "S7K 0R1", "addr:country": "CA", "name": "Bayshore Infusion Clinic - Saskatoon, SK", "website": "https://www.bayshore.ca/locations/bayshore-infusion-clinic-saskatoon-sk/", "brand": "Bayshore Healthcare"}, "geometry": {"type": "Point", "coordinates": [-106.6525026, 52.1427721]}},
{"type": "Feature", "id": "p2QkBNnlKHy4LCPd8iz-7CZDaVY=", "properties": {"ref": "1523", "@spider": "bayshore_healthcare", "addr:full": "620 Duchess Street", "addr:city": "Saskatoon", "addr:state": "SK", "addr:postcode": "S7K 0R1", "addr:country": "CA", "name": "Bayshore Pharmacy - Saskatoon, SK", "website": "https://www.bayshore.ca/locations/bayshore-pharmacy-saskatoon-sk/", "brand": "Bayshore Healthcare"}, "geometry": {"type": "Point", "coordinates": [-106.6525026, 52.1427721]}},
{"type": "Feature", "id": "HqqClXvXPA5dam-z4sNaFxPx0T4=", "properties": {"ref": "1405", "@spider": "bayshore_healthcare", "addr:full": "10 Crossmount Road", "addr:city": "Crossmount", "addr:state": "SK", "addr:postcode": "S7T 0X8", "addr:country": "CA", "name": "Bayshore Home Health - Saskatoon, SK", "phone": "(306) 652-3314", "website": "https://www.bayshore.ca/locations/bayshore-home-health-saskatoon-sk/", "brand": "Bayshore Healthcare"}, "geometry": {"type": "Point", "coordinates": [-106.6731549, 52.0324701]}},
{"type": "Feature", "id": "-TPKBD6QAqpSZ4YJudkZJwVbcUY=", "properties": {"ref": "1431", "@spider": "bayshore_healthcare", "addr:full": "8657 51st Avenue, Unit 304", "addr:city": "Edmonton", "addr:state": "AB", "addr:postcode": "T6E 6A8", "addr:country": "CA", "name": "Bayshore Home Care Solutions - Edmonton, AB", "phone": "(780) 436-8484", "website": "https://www.bayshore.ca/locations/bayshore-home-care-solutions-edmonton-ab/", "brand": "Bayshore Healthcare"}, "geometry": {"type": "Point", "coordinates": [-113.455985, 53.487465]}},
{"type": "Feature", "id": "CEdzebmjbLzwLhuEI2gCiTnMx7k=", "properties": {"ref": "1465", "@spider": "bayshore_healthcare", "addr:full": "Suite 205 10230 142 Street NW, Edmonton, AB", "addr:city": "Edmonton", "addr:state": "AB", "addr:postcode": "T5N 3Y6", "addr:country": "CA", "name": "Bayshore Infusion Clinic - Edmonton, AB", "website": "https://www.bayshore.ca/locations/bayshore-infusion-clinic-edmonton-ab/", "brand": "Bayshore Healthcare"}, "geometry": {"type": "Point", "coordinates": [-113.566082, 53.543734]}},
{"type": "Feature", "id": "c1Yq1GE8K6mCdvKG8_BOGAIYRz8=", "properties": {"ref": "1383", "@spider": "bayshore_healthcare", "addr:full": "1230 91 Ave SW", "addr:city": "Edmonton", "addr:state": "AB", "addr:postcode": "T6X 0P2", "addr:country": "CA", "name": "Bayshore Home Health - Edmonton, AB", "phone": "(780) 801-3880", "website": "https://www.bayshore.ca/locations/bayshore-home-health-edmonton-ab/", "brand": "Bayshore Healthcare"}, "geometry": {"type": "Point", "coordinates": [-113.4762041, 53.4222679]}},
{"type": "Feature", "id": "GNzUBLzX51jiUDlGMqy6YeCGmlw=", "properties": {"ref": "1518", "@spider": "bayshore_healthcare", "addr:full": "17936 106 A Ave NW, Unit 100", "addr:city": "Edmonton", "addr:state": "AB", "addr:postcode": "T5S 1V3", "addr:country": "CA", "name": "Bayshore Pharmacy - Edmonton, AB", "website": "https://www.bayshore.ca/locations/bayshore-pharmacy-edmonton-ab/", "brand": "Bayshore Healthcare"}, "geometry": {"type": "Point", "coordinates": [-113.6320579, 53.5517901]}},
{"type": "Feature", "id": "qmju18P2BKuDYVm738WcoGV8efg=", "properties": {"ref": "1403", "@spider": "bayshore_healthcare", "addr:full": "4010 Dewdney Ave", "addr:city": "Regina", "addr:state": "SK", "addr:postcode": "S4T 1A2", "addr:country": "CA", "name": "Bayshore Home Health - Regina, SK", "phone": "(306) 352-7144", "website": "https://www.bayshore.ca/locations/bayshore-home-health-regina-sk/", "brand": "Bayshore Healthcare"}, "geometry": {"type": "Point", "coordinates": [-104.639049, 50.4554589]}},
{"type": "Feature", "id": "buX-TG0fA-UTd9_FjmV6f5_d058=", "properties": {"ref": "1492", "@spider": "bayshore_healthcare", "addr:full": "4535 Rochdale Blvd", "addr:city": "Regina", "addr:state": "SK", "addr:postcode": "S4X 4R3", "addr:country": "CA", "name": "Bayshore Infusion Clinic - Regina, SK", "website": "https://www.bayshore.ca/locations/bayshore-infusion-clinic-regina-sk/", "brand": "Bayshore Healthcare"}, "geometry": {"type": "Point", "coordinates": [-104.6186128, 50.4491663]}},
{"type": "Feature", "id": "D1rlXe7aiZmRtxnDOwBpOccEaas=", "properties": {"ref": "1402", "@spider": "bayshore_healthcare", "addr:full": "4911 51 Street, Suite 101", "addr:city": "Red Deer", "addr:state": "AB", "addr:postcode": "T4N 6V4", "addr:country": "CA", "name": "Bayshore Home Health - Red Deer, AB", "website": "https://www.bayshore.ca/locations/bayshore-home-health-red-deer-ab/", "brand": "Bayshore Healthcare"}, "geometry": {"type": "Point", "coordinates": [-113.812178, 52.2698847]}},
{"type": "Feature", "id": "B0Zc3LnIF-skNmYytTkd6V69dvs=", "properties": {"ref": "24171", "@spider": "bayshore_healthcare", "addr:full": "205 - 4309 52 Ave", "addr:city": "Red Deer", "addr:state": "AB", "addr:postcode": "T4N 6S4", "addr:country": "CA", "name": "Bayshore Infusion Clinic - Red Deer, AB", "phone": "1-877-235-7798", "website": "https://www.bayshore.ca/locations/bayshore-infusion-clinic-red-deer-ab/", "brand": "Bayshore Healthcare"}, "geometry": {"type": "Point", "coordinates": [-113.8193569, 52.262574]}},
{"type": "Feature", "id": "KAYu0b7sZ-NCcw8wKawR6Nqs8Ng=", "properties": {"ref": "27551", "@spider": "bayshore_healthcare", "addr:full": "35 7th Street SE", "addr:city": "Medicine Hat", "addr:state": "AB", "addr:postcode": "T1A 1J2", "addr:country": "CA", "name": "Bayshore Infusion Clinic - Medicine Hat, AB", "website": "https://www.bayshore.ca/locations/bayshore-infusion-clinic-medicine-hat-ab/", "brand": "Bayshore Healthcare"}, "geometry": {"type": "Point", "coordinates": [-110.685783, 50.0321358]}},
{"type": "Feature", "id": "HW48GKXjZwERcRID--AnPYJ7Jq8=", "properties": {"ref": "1427", "@spider": "bayshore_healthcare", "addr:full": "1212 31 Avenue NE, Unit 106", "addr:city": "Calgary", "addr:state": "AB", "addr:postcode": "T2E 7S8", "addr:country": "CA", "name": "Bayshore Home Care Solutions - Calgary, AB", "phone": "(403) 229-3929", "website": "https://www.bayshore.ca/locations/bayshore-home-care-solutions-calgary-ab/", "brand": "Bayshore Healthcare"}, "geometry": {"type": "Point", "coordinates": [-114.0311004, 51.0808637]}},
{"type": "Feature", "id": "L95ecAFEK_VOqZBlew62iVFEmJA=", "properties": {"ref": "1461", "@spider": "bayshore_healthcare", "addr:full": "1212 31 Avenue NE, Unit 105", "addr:city": "Calgary", "addr:state": "AB", "addr:postcode": "T2B 7S8", "addr:country": "CA", "name": "Bayshore Infusion Clinic - Calgary (North), AB", "website": "https://www.bayshore.ca/locations/bayshore-infusion-clinic-calgary-north-ab/", "brand": "Bayshore Healthcare"}, "geometry": {"type": "Point", "coordinates": [-113.9854381, 51.0260034]}},
{"type": "Feature", "id": "QselCbNRIx8kQ4M5w6ghnO27G10=", "properties": {"ref": "1380", "@spider": "bayshore_healthcare", "addr:full": "105, 611 Meredith Rd NE", "addr:city": "Calgary", "addr:state": "AB", "addr:postcode": "T2E 5A9", "addr:country": "CA", "name": "Bayshore Home Health - Calgary, AB", "phone": "(403) 776-0460", "website": "https://www.bayshore.ca/locations/bayshore-home-health-calgary-ab/", "brand": "Bayshore Healthcare"}, "geometry": {"type": "Point", "coordinates": [-114.051017, 51.051621]}},
{"type": "Feature", "id": "zHqWpiPBc_E8uSNDHoYumBiVR7c=", "properties": {"ref": "1460", "@spider": "bayshore_healthcare", "addr:full": "10233 Elbow Dr. SW, Unit 125", "addr:city": "Calgary", "addr:state": "AB", "addr:postcode": "T2W 1E8", "addr:country": "CA", "name": "Bayshore Infusion Clinic - Calgary (South), AB", "website": "https://www.bayshore.ca/locations/bayshore-infusion-clinic-calgary-south-ab/", "brand": "Bayshore Healthcare"}, "geometry": {"type": "Point", "coordinates": [-114.0860765, 50.9609209]}},
{"type": "Feature", "id": "V2c7DK-aiU2NSc0Wlltje7SEcDI=", "properties": {"ref": "1469", "@spider": "bayshore_healthcare", "addr:full": "10104 97 Ave, Suite 201", "addr:city": "Grande Prairie", "addr:state": "AB", "addr:postcode": "T8V 7X6", "addr:country": "CA", "name": "Bayshore Infusion Clinic - Grande Prairie, AB", "website": "https://www.bayshore.ca/locations/bayshore-infusion-clinic-grande-prairie-ab/", "brand": "Bayshore Healthcare"}, "geometry": {"type": "Point", "coordinates": [-118.7880504, 55.1737693]}},
{"type": "Feature", "id": "tY_w7-Gpbskg0h_QJYpWjSXYMiA=", "properties": {"ref": "26569", "@spider": "bayshore_healthcare", "addr:city": "Lethbridge", "addr:state": "AB", "addr:country": "CA", "name": "Bayshore Home Health - Lethbridge, AB", "phone": "403-776-0460", "website": "https://www.bayshore.ca/locations/bayshore-home-health-lethbridge-ab/", "brand": "Bayshore Healthcare"}, "geometry": {"type": "Point", "coordinates": [-112.8451365, 49.6955856]}},
{"type": "Feature", "id": "nS3HSQd1lDlTsPEz4fxNOHS3elI=", "properties": {"ref": "1526", "@spider": "bayshore_healthcare", "addr:full": "1700 Ness Avenue", "addr:city": "Winnipeg", "addr:state": "MB", "addr:postcode": "R3J 3Y1", "addr:country": "CA", "name": "Bayshore Pharmacy - Winnipeg, MB", "website": "https://www.bayshore.ca/locations/bayshore-pharmacy-winnipeg-mb/", "brand": "Bayshore Healthcare"}, "geometry": {"type": "Point", "coordinates": [-97.2078495, 49.8834803]}},
{"type": "Feature", "id": "Y819zVYpldGBwtNjaZjkraEUu2I=", "properties": {"ref": "1418", "@spider": "bayshore_healthcare", "addr:full": "396 Edison Avenue", "addr:city": "Winnipeg", "addr:state": "MB", "addr:postcode": "R2G 0L8", "addr:country": "CA", "name": "Bayshore Home Health - Winnipeg, MB", "phone": "204-515-6717", "website": "https://www.bayshore.ca/locations/bayshore-home-health-winnipeg-mb/", "brand": "Bayshore Healthcare"}, "geometry": {"type": "Point", "coordinates": [-97.080292, 49.938115]}},
{"type": "Feature", "id": "AtahLwk9EgfC2a96W5OEepMAQ_4=", "properties": {"ref": "19443", "@spider": "bayshore_healthcare", "addr:full": "130 Marion Street , Unit 6B", "addr:city": "Winnipeg", "addr:state": "MB", "addr:postcode": "R2H 0T4", "addr:country": "CA", "name": "Bayshore Home Care Solutions - Winnipeg, MB", "phone": "204-815-5860", "website": "https://www.bayshore.ca/locations/bayshore-home-care-solutions-winnipeg-mb/", "brand": "Bayshore Healthcare"}, "geometry": {"type": "Point", "coordinates": [-97.12285259999999, 49.8812219]}},
{"type": "Feature", "id": "sAewXwMkMWHT1BqsecdD_nIPFyA=", "properties": {"ref": "1513", "@spider": "bayshore_healthcare", "addr:full": "2265 Pembina Highway, Markham Professional Centre, Suite 207", "addr:city": "Winnipeg", "addr:state": "MB", "addr:postcode": "R3T 5J3", "addr:country": "CA", "name": "Bayshore Infusion Clinic - Winnipeg, MB", "website": "https://www.bayshore.ca/locations/bayshore-infusion-clinic-winnipeg-mb/", "brand": "Bayshore Healthcare"}, "geometry": {"type": "Point", "coordinates": [-97.1550662, 49.8094237]}},
{"type": "Feature", "id": "BdDpNb799wUW89W1ydYs0b_1Xlc=", "properties": {"ref": "24995", "@spider": "bayshore_healthcare", "addr:full": "1100 Alward St", "addr:city": "Prince George", "addr:state": "BC", "addr:postcode": "V2M 7B1", "addr:country": "CA", "name": "Bayshore Infusion Clinic - Prince George, BC", "website": "https://www.bayshore.ca/locations/bayshore-infusion-clinic-prince-george-bc/", "brand": "Bayshore Healthcare"}, "geometry": {"type": "Point", "coordinates": [-122.7659104, 53.9141202]}},
{"type": "Feature", "id": "IuZGQC6ZSJAZ4LdhXVjf45RiO58=", "properties": {"ref": "17228", "@spider": "bayshore_healthcare", "addr:full": "3310 32nd Ave, Unit 200 ", "addr:city": "Vernon", "addr:state": "BC", "addr:postcode": "V1T 2M6", "addr:country": "CA", "name": "Bayshore Infusion Clinic - Vernon, BC", "website": "https://www.bayshore.ca/locations/bayshore-infusion-clinic-vernon-bc/", "brand": "Bayshore Healthcare"}, "geometry": {"type": "Point", "coordinates": [-119.2764388, 50.2651377]}},
{"type": "Feature", "id": "AuuZPPJOu5gefHBKfYYA4ffqS-A=", "properties": {"ref": "26290", "@spider": "bayshore_healthcare", "addr:full": "520 St Paul Street, Suite 201", "addr:city": "Kamloops", "addr:state": "BC", "addr:postcode": "V2C 2J9", "addr:country": "CA", "name": "Bayshore Infusion Clinic - Kamloops, BC", "website": "https://www.bayshore.ca/locations/bayshore-infusion-clinic-kamloops-bc/", "brand": "Bayshore Healthcare"}, "geometry": {"type": "Point", "coordinates": [-120.3288065, 50.67425]}},
{"type": "Feature", "id": "BcVkJDCQo_29P1ew9Ffif1qxMN8=", "properties": {"ref": "1473", "@spider": "bayshore_healthcare", "addr:full": "3001 Tutt Street, Suite 210", "addr:city": "Kelowna", "addr:state": "BC", "addr:postcode": "V1Y 2H4", "addr:country": "CA", "name": "Bayshore Infusion Clinic - Kelowna, BC", "website": "https://www.bayshore.ca/locations/bayshore-infusion-clinic-kelowna-bc/", "brand": "Bayshore Healthcare"}, "geometry": {"type": "Point", "coordinates": [-119.489349, 49.8631422]}},
{"type": "Feature", "id": "82-vwJulE0AzVe8IVuo604KDmZc=", "properties": {"ref": "1387", "@spider": "bayshore_healthcare", "addr:full": "3001 Tutt Street, Suite 210", "addr:city": "Kelowna", "addr:state": "BC", "addr:postcode": "V1Y 2H4", "addr:country": "CA", "name": "Bayshore Home Health - Kelowna, BC", "phone": "(250) 717-7528", "website": "https://www.bayshore.ca/locations/bayshore-home-health-kelowna-bc/", "brand": "Bayshore Healthcare"}, "geometry": {"type": "Point", "coordinates": [-119.4894229, 49.8631421]}},
{"type": "Feature", "id": "HNcvCMGwZsAb58v8HBdyNbUaj3k=", "properties": {"ref": "1464", "@spider": "bayshore_healthcare", "addr:full": "9181 Main Street, Suite 101", "addr:city": "Chilliwack", "addr:state": "BC", "addr:postcode": "V2P 4M9", "addr:country": "CA", "name": "Bayshore Infusion Clinic - Chilliwack, BC", "website": "https://www.bayshore.ca/locations/bayshore-infusion-clinic-chilliwack-bc/", "brand": "Bayshore Healthcare"}, "geometry": {"type": "Point", "coordinates": [-121.9574833, 49.1687794]}},
{"type": "Feature", "id": "cZ5REBiJw-p_oiJwHqT69WQ9ZKQ=", "properties": {"ref": "21564", "@spider": "bayshore_healthcare", "addr:full": "307-2051 McCallum Road", "addr:city": "Abbotsford", "addr:state": "BC", "addr:postcode": "V2S 3N5", "addr:country": "CA", "name": "Bayshore Infusion Clinic - Abbotsford, BC", "website": "https://www.bayshore.ca/locations/bayshore-infusion-clinic-abbotsford-bc/", "brand": "Bayshore Healthcare"}, "geometry": {"type": "Point", "coordinates": [-122.29267809999999, 49.0347371]}},
{"type": "Feature", "id": "bt9uJE-YvfdE2TanBGAyVtJwh5U=", "properties": {"ref": "1484", "@spider": "bayshore_healthcare", "addr:full": "301 East Columbia Street, Suite 104", "addr:city": "New Westminster", "addr:state": "BC", "addr:postcode": "V3L 3W5", "addr:country": "CA", "name": "Bayshore Infusion Clinic - New Westminster, BC", "website": "https://www.bayshore.ca/locations/bayshore-infusion-clinic-new-westminster-bc/", "brand": "Bayshore Healthcare"}, "geometry": {"type": "Point", "coordinates": [-122.8931799, 49.2258454]}},
{"type": "Feature", "id": "r8_q-WC8m7aYKVj4zm2DQn4lpI0=", "properties": {"ref": "1503", "@spider": "bayshore_healthcare", "addr:full": "13710 94A Avenue, Suite 307", "addr:city": "Surrey", "addr:state": "BC", "addr:postcode": "V3V 1N1", "addr:country": "CA", "name": "Bayshore Infusion Clinic - Surrey, BC", "website": "https://www.bayshore.ca/locations/bayshore-infusion-clinic-surrey-bc/", "brand": "Bayshore Healthcare"}, "geometry": {"type": "Point", "coordinates": [-122.8428878, 49.1743409]}},
{"type": "Feature", "id": "jnDNwlwwgxopqvRIae6IzcucfPo=", "properties": {"ref": "26836", "@spider": "bayshore_healthcare", "addr:full": "13710 94A Avenue, Suite 307", "addr:city": "Surrey", "addr:state": "BC", "addr:postcode": "V3V 1N1", "addr:country": "CA", "name": "Bayshore Home Health - Surrey, BC", "phone": "(604) 873-2545", "website": "https://www.bayshore.ca/locations/bayshore-home-health-surrey-bc/", "brand": "Bayshore Healthcare"}, "geometry": {"type": "Point", "coordinates": [-122.8428878, 49.1743409]}},
{"type": "Feature", "id": "meayHREOZbiWqT0NN-OBdCvhJps=", "properties": {"ref": "1485", "@spider": "bayshore_healthcare", "addr:full": "138 East 13th Street. Suite 340", "addr:city": "North Vancouver", "addr:state": "BC", "addr:postcode": "V7L 0E5", "addr:country": "CA", "name": "Bayshore Infusion Clinic - North Vancouver, BC", "website": "https://www.bayshore.ca/locations/bayshore-infusion-clinic-north-vancouver-bc/", "brand": "Bayshore Healthcare"}, "geometry": {"type": "Point", "coordinates": [-123.0707104, 49.3202347]}},
{"type": "Feature", "id": "1p5GAaUAtZbEeOxf_u0oZXymuVo=", "properties": {"ref": "1426", "@spider": "bayshore_healthcare", "addr:full": "125 - 4946 Canada Way", "addr:city": "Burnaby", "addr:state": "BC", "addr:postcode": "V5G 4H7", "addr:country": "CA", "name": "Bayshore Home Care Solutions - Pediatrics - Burnaby, BC", "phone": "604.739.7454", "website": "https://www.bayshore.ca/locations/bayshore-home-care-solutions-pediatrics-burnaby-bc/", "brand": "Bayshore Healthcare"}, "geometry": {"type": "Point", "coordinates": [-122.97244, 49.2449224]}},
{"type": "Feature", "id": "mVkFg0QvIvdaxs9cbJl1Hi9IYRw=", "properties": {"ref": "26846", "@spider": "bayshore_healthcare", "addr:full": "410-555 West 12th Avenue", "addr:city": "Vancouver", "addr:state": "BC", "addr:postcode": "V5Z 3X7", "addr:country": "CA", "name": "Bayshore Home Health - North Shore, BC", "phone": "(604) 873-2545", "website": "https://www.bayshore.ca/locations/bayshore-home-health-northshore-bc/", "brand": "Bayshore Healthcare"}, "geometry": {"type": "Point", "coordinates": [-123.0724139, 49.3199816]}},
{"type": "Feature", "id": "9NRL7MqhtkslSeAEtF9rqDs8TEs=", "properties": {"ref": "1524", "@spider": "bayshore_healthcare", "addr:full": "7313 Meadow Ave", "addr:city": "Burnaby", "addr:state": "BC", "addr:postcode": "V5J 4Z2", "addr:country": "CA", "name": "Bayshore Pharmacy - Burnaby, BC", "website": "https://www.bayshore.ca/locations/bayshore-pharmacy-south-surrey-bc/", "brand": "Bayshore Healthcare"}, "geometry": {"type": "Point", "coordinates": [-122.9769691, 49.2028106]}},
{"type": "Feature", "id": "ryUmaKhn3pdzmmxX1eteiLOlnU0=", "properties": {"ref": "1510", "@spider": "bayshore_healthcare", "addr:full": "555 West 12th Avenue (East Tower, City Square), Suite 410", "addr:city": "Vancouver", "addr:state": "BC", "addr:postcode": "V5Z 3X7", "addr:country": "CA", "name": "Bayshore Infusion Clinic - Vancouver, BC", "website": "https://www.bayshore.ca/locations/bayshore-infusion-clinic-vancouver-bc/", "brand": "Bayshore Healthcare"}, "geometry": {"type": "Point", "coordinates": [-123.1164951, 49.2609881]}},
{"type": "Feature", "id": "ZaLQotSo7yBa9h8uEAzVy_zpJ5Y=", "properties": {"ref": "1415", "@spider": "bayshore_healthcare", "addr:full": "555 West 12th Avenue (East Tower, City Square), Suite 410", "addr:city": "Vancouver", "addr:state": "BC", "addr:postcode": "V5Z 3X7", "addr:country": "CA", "name": "Bayshore Home Health - Vancouver, BC", "phone": "(604) 873-2545", "website": "https://www.bayshore.ca/locations/bayshore-home-health-vancouver-bc/", "brand": "Bayshore Healthcare"}, "geometry": {"type": "Point", "coordinates": [-123.116589, 49.260791]}},
{"type": "Feature", "id": "8cjGobsX7B95OH8p0TMRogj6WBw=", "properties": {"ref": "26889", "@spider": "bayshore_healthcare", "addr:city": "White Rock", "addr:state": "BC", "addr:country": "CA", "name": "Bayshore Home Health - White Rock, BC", "phone": "(604) 873-2545", "website": "https://www.bayshore.ca/locations/bayshore-home-health-white-rock-bc/", "brand": "Bayshore Healthcare"}, "geometry": {"type": "Point", "coordinates": [-122.802962, 49.0253085]}},
{"type": "Feature", "id": "EvLxsuofLO1yxsrvQwGTjJzmPx8=", "properties": {"ref": "1493", "@spider": "bayshore_healthcare", "addr:full": "6051 Gilbert Road, Suite 301", "addr:city": "Richmond", "addr:state": "BC", "addr:postcode": "V7C 3V3", "addr:country": "CA", "name": "Bayshore Infusion Clinic - Richmond, BC", "website": "https://www.bayshore.ca/locations/bayshore-infusion-clinic-richmond-bc/", "brand": "Bayshore Healthcare"}, "geometry": {"type": "Point", "coordinates": [-123.1481565, 49.1698551]}},
{"type": "Feature", "id": "17qgmsfkiuL62cOsFKF8cdB_9UE=", "properties": {"ref": "1394", "@spider": "bayshore_healthcare", "addr:full": "1650 Terminal Avenue N, Suite 206", "addr:city": "Nanaimo", "addr:state": "BC", "addr:postcode": "V9S 0A3", "addr:country": "CA", "name": "Bayshore Home Health - Nanaimo, BC", "phone": "(778) 841-0109", "website": "https://www.bayshore.ca/locations/bayshore-home-health-nanaimo-bc/", "brand": "Bayshore Healthcare"}, "geometry": {"type": "Point", "coordinates": [-123.9605205, 49.1877344]}},
{"type": "Feature", "id": "lE6rSvcse7A8ilWuEN_8tUFDgKc=", "properties": {"ref": "1483", "@spider": "bayshore_healthcare", "addr:full": "1650 Terminal Avenue N, Suite 206", "addr:city": "Nanaimo", "addr:state": "BC", "addr:postcode": "V9S 0A3", "addr:country": "CA", "name": "Bayshore Infusion Clinic - Nanaimo, BC", "website": "https://www.bayshore.ca/locations/bayshore-infusion-clinic-nanaimo-bc/", "brand": "Bayshore Healthcare"}, "geometry": {"type": "Point", "coordinates": [-123.960534, 49.1877319]}},
{"type": "Feature", "id": "bWYPJBp5ppxLLF0RmDU4AfKc9ls=", "properties": {"ref": "1407", "@spider": "bayshore_healthcare", "addr:full": "9840 Fifth Street, Suite 102", "addr:city": "Sidney", "addr:state": "BC", "addr:postcode": "V8L 2X3", "addr:country": "CA", "name": "Bayshore Home Health - Sidney, BC", "phone": "(778) 749-0014", "website": "https://www.bayshore.ca/locations/bayshore-home-health-sidney-bc/", "brand": "Bayshore Healthcare"}, "geometry": {"type": "Point", "coordinates": [-123.4004962, 48.6499929]}},
{"type": "Feature", "id": "CmvWY8Ck_77m8nSkZ-uFaTxtKt0=", "properties": {"ref": "1499", "@spider": "bayshore_healthcare", "addr:full": "9840 Fifth Street, Suite 102", "addr:city": "Sidney", "addr:state": "BC", "addr:postcode": "V8L 2X3", "addr:country": "CA", "name": "Bayshore Infusion Clinic - Sidney, BC", "website": "https://www.bayshore.ca/locations/bayshore-infusion-clinic-sidney-bc/", "brand": "Bayshore Healthcare"}, "geometry": {"type": "Point", "coordinates": [-123.4004962, 48.6499929]}},
{"type": "Feature", "id": "SBPXhIt7JhQdxy_2TCZeQ8NyK8o=", "properties": {"ref": "1400", "@spider": "bayshore_healthcare", "addr:city": "Qualicum Beach", "addr:state": "BC", "addr:country": "CA", "name": "Bayshore Home Health - Qualicum Beach, BC", "phone": "250-947-9775", "website": "https://www.bayshore.ca/locations/bayshore-home-health-qualicum-beach-bc/", "brand": "Bayshore Healthcare"}, "geometry": {"type": "Point", "coordinates": [-124.4378624, 49.3481935]}},
{"type": "Feature", "id": "Lhb85mzjek7QqnJmDRW7Vt8hyJI=", "properties": {"ref": "1416", "@spider": "bayshore_healthcare", "addr:full": "1831 Oak Bay Ave., Unit 103", "addr:city": "Victoria", "addr:state": "BC", "addr:postcode": "V8R 1C3", "addr:country": "CA", "name": "Bayshore Home Health - Vancouver Island, BC", "phone": "(250) 370-2253", "website": "https://www.bayshore.ca/locations/bayshore-home-health-victoria-bc/", "brand": "Bayshore Healthcare"}, "geometry": {"type": "Point", "coordinates": [-123.3286457, 48.4262957]}},
{"type": "Feature", "id": "pexQbB1M8jBv3NPHIy0zNTnBIQI=", "properties": {"ref": "1511", "@spider": "bayshore_healthcare", "addr:full": "#103 1831 Oak Bay Avenue", "addr:city": "Victoria", "addr:state": "BC", "addr:postcode": "V8R 1C3", "addr:country": "CA", "name": "Bayshore Infusion Clinic - Victoria, BC", "website": "https://www.bayshore.ca/locations/bayshore-infusion-clinic-victoria-bc/", "brand": "Bayshore Healthcare"}, "geometry": {"type": "Point", "coordinates": [-123.3286457, 48.4262957]}},
{"type": "Feature", "id": "zgZ_9iZcIf4h5gjduTkB7C2o2y4=", "properties": {"ref": "1505", "@spider": "bayshore_healthcare", "addr:full": "1260 Golf Links Road, Fort William Clinic, Suite 103", "addr:city": "Thunder Bay", "addr:state": "ON", "addr:postcode": "P7B 0A1", "addr:country": "CA", "name": "Bayshore Infusion Clinic - Thunder Bay, ON", "website": "https://www.bayshore.ca/locations/bayshore-infusion-clinic-thunder-bay-on/", "brand": "Bayshore Healthcare"}, "geometry": {"type": "Point", "coordinates": [-89.2738291, 48.4236735]}},
{"type": "Feature", "id": "G0NLr5L57lcKdMTvpLZ8GGoamH0=", "properties": {"ref": "1447", "@spider": "bayshore_healthcare", "addr:full": "1260 Golf Links Road, Unit 3", "addr:city": "Thunder Bay", "addr:state": "ON", "addr:postcode": "P7B 0A1", "addr:country": "CA", "name": "Bayshore Home Care Solutions - Thunder Bay, ON", "phone": "(807) 345-5322", "website": "https://www.bayshore.ca/locations/bayshore-home-care-solutions-thunder-bay-on/", "brand": "Bayshore Healthcare"}, "geometry": {"type": "Point", "coordinates": [-89.2739157, 48.4235941]}},
{"type": "Feature", "id": "apmU4UuExQBjRXaPiGi4zLdEEuc=", "properties": {"ref": "1412", "@spider": "bayshore_healthcare", "addr:full": "1260 Golf Links Road, Unit 3", "addr:city": "Thunder Bay", "addr:state": "ON", "addr:postcode": "P7B 0A1", "addr:country": "CA", "name": "Bayshore Home Health - Thunder Bay, ON", "phone": "866-223-3585", "website": "https://www.bayshore.ca/locations/bayshore-home-health-thunder-bay-on/", "brand": "Bayshore Healthcare"}, "geometry": {"type": "Point", "coordinates": [-89.2739157, 48.4235941]}},
{"type": "Feature", "id": "g0mhhPDdLo52GIdOcqEQC7s_bp0=", "properties": {"ref": "22213", "@spider": "bayshore_healthcare", "addr:full": "262 Queen Street E. Suite 200", "addr:city": "Sault Ste. Marie", "addr:state": "ON", "addr:postcode": "P6A 1Y7", "addr:country": "CA", "name": "Bayshore Infusion Clinic - Sault Ste. Marie, ON", "website": "https://www.bayshore.ca/locations/bayshore-infusion-clinic-sault-ste-marie-on/", "brand": "Bayshore Healthcare"}, "geometry": {"type": "Point", "coordinates": [-84.3361605, 46.5141957]}},
{"type": "Feature", "id": "pelB6M7MrKNHr4MgrMz8IKdXFlU=", "properties": {"ref": "1406", "@spider": "bayshore_healthcare", "addr:full": "262 Queen Street E, Suite 200", "addr:city": "Sault Ste. Marie", "addr:state": "ON", "addr:postcode": "P6A 1Y7", "addr:country": "CA", "name": "Bayshore Home Health - Sault Ste. Marie, ON", "phone": "(705) 251-0082", "website": "https://www.bayshore.ca/locations/bayshore-home-health-sault-ste-marie-on/", "brand": "Bayshore Healthcare"}, "geometry": {"type": "Point", "coordinates": [-84.3360919, 46.514238]}},
{"type": "Feature", "id": "olikIlrHqvVxR-0M17PYUlCb7Xs=", "properties": {"ref": "1444", "@spider": "bayshore_healthcare", "addr:full": "390 Bay Street, Unit 304", "addr:city": "Sault Ste. Marie", "addr:state": "ON", "addr:postcode": "P6A 1X2", "addr:country": "CA", "name": "Bayshore Home Care Solutions North East - Sault Ste. Marie, ON", "phone": "(705) 942-3232", "website": "https://www.bayshore.ca/locations/bayshore-home-care-solutions-north-east-sault-ste-marie-on/", "brand": "Bayshore Healthcare"}, "geometry": {"type": "Point", "coordinates": [-84.334551, 46.511376]}},
{"type": "Feature", "id": "aITOUGErVjcdBzyxLPKW0qszlJA=", "properties": {"ref": "1448", "@spider": "bayshore_healthcare", "addr:full": "119 Pine Street S", "addr:city": "Timmins", "addr:state": "ON", "addr:postcode": "P4N 2K4", "addr:country": "CA", "name": "Bayshore Home Care Solutions North East - Timmins, ON", "phone": "(705) 268-6088", "website": "https://www.bayshore.ca/locations/bayshore-home-care-solutions-north-east-timmins-on/", "brand": "Bayshore Healthcare"}, "geometry": {"type": "Point", "coordinates": [-81.328512, 48.4736541]}},
{"type": "Feature", "id": "_3zxSsnUA4Tzpd4pbw37q-iq4ZA=", "properties": {"ref": "1506", "@spider": "bayshore_healthcare", "addr:full": "119 Pine Street S, Suite 202", "addr:city": "Timmins", "addr:state": "ON", "addr:postcode": "P4N 2K3", "addr:country": "CA", "name": "Bayshore Infusion Clinic - Timmins, ON", "website": "https://www.bayshore.ca/locations/bayshore-infusion-clinic-timmins-on/", "brand": "Bayshore Healthcare"}, "geometry": {"type": "Point", "coordinates": [-81.3285672, 48.4735165]}},
{"type": "Feature", "id": "oLDowO0vNTawAHi9vheuvE9WbAI=", "properties": {"ref": "1413", "@spider": "bayshore_healthcare", "addr:full": "38 Pine Street N, Unit 149", "addr:city": "Timmins", "addr:state": "ON", "addr:postcode": "P4N 6K6", "addr:country": "CA", "name": "Bayshore Home Health - Timmins, ON", "phone": "(705) 269-0289", "website": "https://www.bayshore.ca/locations/bayshore-home-health-timmins-on/", "brand": "Bayshore Healthcare"}, "geometry": {"type": "Point", "coordinates": [-81.328603, 48.473475]}},
{"type": "Feature", "id": "WuItgvfyJzmENpf6211LCBFV3ug=", "properties": {"ref": "1502", "@spider": "bayshore_healthcare", "addr:full": "1984 Regent Street (Cedar Pointe Plaza), Unit 126", "addr:city": "Sudbury", "addr:state": "ON", "addr:postcode": "P3E 5S1", "addr:country": "CA", "name": "Bayshore Infusion Clinic - Sudbury, ON", "website": "https://www.bayshore.ca/locations/bayshore-infusion-clinic-sudbury-on/", "brand": "Bayshore Healthcare"}, "geometry": {"type": "Point", "coordinates": [-81.0068396, 46.4900816]}},
{"type": "Feature", "id": "ARxCgeqwBrlix9W4XeD-b8_bw7o=", "properties": {"ref": "1411", "@spider": "bayshore_healthcare", "addr:full": "430 Westmount Unit N Sudbury ", "addr:city": "Sudbury", "addr:state": "ON", "addr:postcode": "P3A 5Z8", "addr:country": "CA", "name": "Bayshore Home Health - Sudbury, ON", "phone": "(705) 419-1745", "website": "https://www.bayshore.ca/locations/bayshore-home-health-sudbury-on/", "brand": "Bayshore Healthcare"}, "geometry": {"type": "Point", "coordinates": [-80.9465938, 46.5071642]}},
{"type": "Feature", "id": "Ox8xdJ6yAdrGTpWRPa8j14hZPd4=", "properties": {"ref": "1446", "@spider": "bayshore_healthcare", "addr:full": "2120 Regent Street, Unit 8", "addr:city": "Sudbury", "addr:state": "ON", "addr:postcode": "P3E 5S8", "addr:country": "CA", "name": "Bayshore Home Care Solutions North East - Sudbury, ON", "phone": "(705) 523-6668", "website": "https://www.bayshore.ca/locations/bayshore-home-care-solutions-north-east-sudbury-on/", "brand": "Bayshore Healthcare"}, "geometry": {"type": "Point", "coordinates": [-81.001876, 46.451168]}},
{"type": "Feature", "id": "Q09B5TgA-rcBn0qXIVahZmof4sg=", "properties": {"ref": "17658", "@spider": "bayshore_healthcare", "addr:full": "265 Front St N, St. Clair Corporate Centre, Unit 407", "addr:city": "Sarnia", "addr:state": "ON", "addr:postcode": "N7T 7X1", "addr:country": "CA", "name": "Bayshore Infusion Clinic - Sarnia, ON", "website": "https://www.bayshore.ca/locations/bayshore-infusion-clinic-sarnia-on/", "brand": "Bayshore Healthcare"}, "geometry": {"type": "Point", "coordinates": [-82.40763729999998, 42.9754295]}},
{"type": "Feature", "id": "cXkL_uMZPKV3nn_VmgEVDt8sh3c=", "properties": {"ref": "1404", "@spider": "bayshore_healthcare", "addr:full": "265 Front Street North (St. Clair Corporate Centre), Unit 407", "addr:city": "Sarnia", "addr:state": "ON", "addr:postcode": "N7T 5S6", "addr:country": "CA", "name": "Bayshore Home Health - Sarnia, ON", "phone": "(226) 216-2485", "website": "https://www.bayshore.ca/locations/bayshore-home-health-sarnia-on/", "brand": "Bayshore Healthcare"}, "geometry": {"type": "Point", "coordinates": [-82.4075473, 42.9754426]}},
{"type": "Feature", "id": "O6vP0f0PkVPtbqTFWQn6emph8AQ=", "properties": {"ref": "1443", "@spider": "bayshore_healthcare", "addr:full": "49 Finch Drive, Unit 8", "addr:city": "Sarnia", "addr:state": "ON", "addr:postcode": "N7S 5C6", "addr:country": "CA", "name": "Bayshore Home Care Solutions - Sarnia, ON", "phone": "(519) 383-6979", "website": "https://www.bayshore.ca/locations/bayshore-home-care-solutions-sarnia-on/", "brand": "Bayshore Healthcare"}, "geometry": {"type": "Point", "coordinates": [-82.3545525, 42.969818]}},
{"type": "Feature", "id": "aJiqoImVM3BO0D8IEffduC2Agbw=", "properties": {"ref": "1512", "@spider": "bayshore_healthcare", "addr:full": "700 Tecumseh Rd E, Windsor Health Centre, Suite 305", "addr:city": "Windsor", "addr:state": "ON", "addr:postcode": "N8X 4T2", "addr:country": "CA", "name": "Bayshore Infusion Clinic - Windsor, ON", "website": "https://www.bayshore.ca/locations/bayshore-infusion-clinic-windsor-on/", "brand": "Bayshore Healthcare"}, "geometry": {"type": "Point", "coordinates": [-83.0149045, 42.2992528]}},
{"type": "Feature", "id": "yp80EkTyfMFPT5nwdZKMHOlGmpg=", "properties": {"ref": "19623", "@spider": "bayshore_healthcare", "addr:full": "3200 Deziel Drive (The Greenwood Centre), Suite 210", "addr:city": "Windsor", "addr:state": "ON", "addr:postcode": "N8W 5K8", "addr:country": "CA", "name": "Bayshore Therapy & Rehab - Windsor, ON", "phone": "(519) 974-5953", "website": "https://www.bayshore.ca/locations/bayshore-therapy-rehab-windsor-on/", "brand": "Bayshore Healthcare"}, "geometry": {"type": "Point", "coordinates": [-82.97002140000001, 42.2826202]}},
{"type": "Feature", "id": "PJwWMNesEgfMBy9qe5roTDSpW6U=", "properties": {"ref": "1450", "@spider": "bayshore_healthcare", "addr:full": "3200 Deziel Drive (the Greenwood Centre). Suite 408 Bldg 400 ", "addr:city": "Windsor", "addr:state": "ON", "addr:postcode": "N8W 5K8", "addr:country": "CA", "name": "Bayshore Home Care Solutions - Windsor, ON", "phone": "(519) 973-5411", "website": "https://www.bayshore.ca/locations/bayshore-home-care-solutions-windsor-on/", "brand": "Bayshore Healthcare"}, "geometry": {"type": "Point", "coordinates": [-82.96944859999996, 42.282524]}},
{"type": "Feature", "id": "rrO_lP0gDvxG97sxC7pVCUb337A=", "properties": {"ref": "1417", "@spider": "bayshore_healthcare", "addr:full": "1695 Manning Road, Unit D-201 ", "addr:city": "Windsor", "addr:state": "ON", "addr:postcode": "N8N 2L9  ", "addr:country": "CA", "name": "Bayshore Home Health - Windsor, ON", "phone": "(226) 216-2485", "website": "https://www.bayshore.ca/locations/bayshore-home-health-windsor-on/", "brand": "Bayshore Healthcare"}, "geometry": {"type": "Point", "coordinates": [-82.8702656, 42.3066678]}},
{"type": "Feature", "id": "5Bd6YCezsUBHJyv1g-sEa0MWgVY=", "properties": {"ref": "19634", "@spider": "bayshore_healthcare", "addr:full": "1303 County Road 22, Suite 135", "addr:city": "Lakeshore", "addr:state": "ON", "addr:postcode": "(519) 974-5953", "addr:country": "CA", "name": "Bayshore Therapy & Rehab - Lakeshore, ON", "phone": "1-877-351-3462", "website": "https://www.bayshore.ca/locations/bayshore-therapy-rehab-lakeshore-on/", "brand": "Bayshore Healthcare"}, "geometry": {"type": "Point", "coordinates": [-82.85601739999998, 42.3045874]}},
{"type": "Feature", "id": "sC2Ycb82KXYvjK0M0SOKBukUApw=", "properties": {"ref": "1377", "@spider": "bayshore_healthcare", "addr:full": "65 Cedar Pointe Drive, Unit 809A", "addr:city": "Barrie", "addr:state": "ON", "addr:postcode": "L4N 5R7", "addr:country": "CA", "name": "Bayshore Home Health - Barrie, ON", "phone": "705-986-0127", "website": "https://www.bayshore.ca/locations/bayshore-home-health-barrie-on/", "brand": "Bayshore Healthcare"}, "geometry": {"type": "Point", "coordinates": [-79.710627, 44.3838755]}},
{"type": "Feature", "id": "4duqb_YTXm958wnaOKeQTho3YTA=", "properties": {"ref": "1421", "@spider": "bayshore_healthcare", "addr:full": "80 Bradford Street, Suite 525", "addr:city": "Barrie", "addr:state": "ON", "addr:postcode": "L4N 6S7", "addr:country": "CA", "name": "Bayshore Home Care Solutions - Barrie, ON", "phone": "(705) 722-8993", "website": "https://www.bayshore.ca/locations/bayshore-home-care-solutions-barrie-on/", "brand": "Bayshore Healthcare"}, "geometry": {"type": "Point", "coordinates": [-79.6958124, 44.3836561]}},
{"type": "Feature", "id": "5M6_fiCsMtKc_ML0U41T7x59FR8=", "properties": {"ref": "1456", "@spider": "bayshore_healthcare", "addr:full": "480 Huronia Road, Suite 204C", "addr:city": "Barrie", "addr:state": "ON", "addr:postcode": "L4N 6M2", "addr:country": "CA", "name": "Bayshore Infusion Clinic - Barrie, ON", "website": "https://www.bayshore.ca/locations/bayshore-infusion-clinic-barrie-on/", "brand": "Bayshore Healthcare"}, "geometry": {"type": "Point", "coordinates": [-79.664858, 44.3474003]}},
{"type": "Feature", "id": "CoW2oEp_nhjtp4umZ_sst4O2KlM=", "properties": {"ref": "1420", "@spider": "bayshore_healthcare", "addr:full": "35 Victoria Street E, Suite 4", "addr:city": "Alliston", "addr:state": "ON", "addr:postcode": "L9R 1S9", "addr:country": "CA", "name": "Bayshore Home Care Solutions - Alliston, ON", "phone": "(905) 896-0200", "website": "https://www.bayshore.ca/locations/bayshore-home-care-solutions-alliston-on/", "brand": "Bayshore Healthcare"}, "geometry": {"type": "Point", "coordinates": [-79.8679094, 44.1540266]}},
{"type": "Feature", "id": "w41Rgu9sbIKXCJwujYlu53ENos4=", "properties": {"ref": "1429", "@spider": "bayshore_healthcare", "addr:full": "857 Grand Avenue W, Unit 206", "addr:city": "Chatham-Kent", "addr:state": "ON", "addr:postcode": "N7L 4T1", "addr:country": "CA", "name": "Bayshore Home Care Solutions - Chatham, ON", "phone": "(519) 354-2019  ", "website": "https://www.bayshore.ca/locations/bayshore-home-care-solutions-chatham-on/", "brand": "Bayshore Healthcare"}, "geometry": {"type": "Point", "coordinates": [-82.2159639, 42.3948825]}},
{"type": "Feature", "id": "1TntPAhVjN2A-dqoDyI1K20cHJw=", "properties": {"ref": "17653", "@spider": "bayshore_healthcare", "addr:full": "20 Emma St., Building B, Suite 101", "addr:city": "Chatham", "addr:state": "ON", "addr:postcode": "N7L 5K5", "addr:country": "CA", "name": "Bayshore Infusion Clinic - Chatham, ON", "website": "https://www.bayshore.ca/locations/bayshore-infusion-clinic-chatham-on/", "brand": "Bayshore Healthcare"}, "geometry": {"type": "Point", "coordinates": [-82.1908636, 42.406575]}},
{"type": "Feature", "id": "bgN56Dlbv1YwvnzaaZHGHa1L2T0=", "properties": {"ref": "1381", "@spider": "bayshore_healthcare", "addr:full": "20 Emma St.  Building B - Suite 101 ", "addr:city": "Chatham", "addr:state": "ON", "addr:postcode": "N7L 5K5", "addr:country": "CA", "name": "Bayshore Home Health - Chatham, ON", "phone": "(226) 216-2485", "website": "https://www.bayshore.ca/locations/bayshore-home-health-chatham-on/", "brand": "Bayshore Healthcare"}, "geometry": {"type": "Point", "coordinates": [-82.1907976, 42.406592]}},
{"type": "Feature", "id": "KJRAtrkVwGgoxdfTzVVHRuXXCDc=", "properties": {"ref": "1437", "@spider": "bayshore_healthcare", "addr:full": "236 Victoria Street N, Suite 3A", "addr:city": "Kitchener", "addr:state": "ON", "addr:postcode": "N2H 5C8", "addr:country": "CA", "name": "Bayshore Home Care Solutions - Kitchener, ON", "phone": "(519) 749-8716", "website": "https://www.bayshore.ca/locations/bayshore-home-care-solutions-kitchener-on/", "brand": "Bayshore Healthcare"}, "geometry": {"type": "Point", "coordinates": [-80.4885549, 43.4571021]}},
{"type": "Feature", "id": "0A-AutchkdXOJ-C8QRZ-XYpxEHg=", "properties": {"ref": "30146", "@spider": "bayshore_healthcare", "addr:full": "595 Bradley Avenue, 2nd Floor", "addr:city": "London", "addr:state": "ON", "addr:postcode": "N6E 3Z8", "addr:country": "CA", "name": "Bayshore Home Care Solutions - London, ON", "phone": "519-383-6979 ", "website": "https://www.bayshore.ca/locations/bayshore-home-care-solutions-london-on/", "brand": "Bayshore Healthcare"}, "geometry": {"type": "Point", "coordinates": [-81.2299391, 42.9338775]}},
{"type": "Feature", "id": "jq0DRNpl1MMFNe7pksPBY_xUErY=", "properties": {"ref": "1476", "@spider": "bayshore_healthcare", "addr:full": "595 Bradley Avenue, Bradley Medical Centre, 2nd Floor", "addr:city": "London", "addr:state": "ON", "addr:postcode": "N6E 3Z8", "addr:country": "CA", "name": "Bayshore Infusion Clinic - London, ON", "website": "https://www.bayshore.ca/locations/bayshore-infusion-clinic-london-on/", "brand": "Bayshore Healthcare"}, "geometry": {"type": "Point", "coordinates": [-81.2299391, 42.9338775]}},
{"type": "Feature", "id": "LnjV_Q4Bfcrt1ZW6g3ebMe3z-eQ=", "properties": {"ref": "1391", "@spider": "bayshore_healthcare", "addr:full": "595 Bradley Avenue, 2nd Floor", "addr:city": "London", "addr:state": "ON", "addr:postcode": "N6E 3Z8", "addr:country": "CA", "name": "Bayshore Home Health - London, ON", "phone": "(519) 438-6313", "website": "https://www.bayshore.ca/locations/bayshore-home-health-london-on/", "brand": "Bayshore Healthcare"}, "geometry": {"type": "Point", "coordinates": [-81.2299731, 42.9338287]}},
{"type": "Feature", "id": "NEX5u1tC6j3pBBq0nTpT62ApC0s=", "properties": {"ref": "1470", "@spider": "bayshore_healthcare", "addr:full": "89 Dawson Road, Guelph Medical Place, 1st floor", "addr:city": "Guelph", "addr:state": "ON", "addr:postcode": "N1H 1B1", "addr:country": "CA", "name": "Bayshore Infusion Clinic - Guelph, ON", "website": "https://www.bayshore.ca/locations/bayshore-infusion-clinic-guelph-on/", "brand": "Bayshore Healthcare"}, "geometry": {"type": "Point", "coordinates": [-80.2782715, 43.5491235]}},
{"type": "Feature", "id": "kqloGkm7UGYP9AqirpqBBd_O0cI=", "properties": {"ref": "1434", "@spider": "bayshore_healthcare", "addr:full": "300 Willow Road, Unit 203", "addr:city": "Guelph", "addr:state": "ON", "addr:postcode": "N1H 7C6", "addr:country": "CA", "name": "Bayshore Home Care Solutions - Guelph/Wellington, ON", "phone": "(519) 843-6731", "website": "https://www.bayshore.ca/locations/bayshore-home-care-solutions-guelph-wellington-on/", "brand": "Bayshore Healthcare"}, "geometry": {"type": "Point", "coordinates": [-80.2786051, 43.5397473]}},
{"type": "Feature", "id": "AAPSaPCvSjtF5NIoHp8nKkKsTZo=", "properties": {"ref": "1520", "@spider": "bayshore_healthcare", "addr:full": "1601 River Road E, Suite 21", "addr:city": "Kitchener", "addr:state": "ON", "addr:postcode": "N2A 3Y4", "addr:country": "CA", "name": "Bayshore Pharmacy - Kitchener, ON", "website": "https://www.bayshore.ca/locations/bayshore-pharmacy-kitchener-on/", "brand": "Bayshore Healthcare"}, "geometry": {"type": "Point", "coordinates": [-80.4219593, 43.4283686]}},
{"type": "Feature", "id": "xWsYebd7yDZ_IyTsvfmaBSQcj2E=", "properties": {"ref": "1389", "@spider": "bayshore_healthcare", "addr:full": "Chicopee Park Plaza, 1601 River Road E, Unit 307", "addr:city": "Kitchener", "addr:state": "ON", "addr:postcode": "N2A 3Y4", "addr:country": "CA", "name": "Bayshore Home Health - Kitchener, ON", "phone": "226-215-3152", "website": "https://www.bayshore.ca/locations/bayshore-home-health-kitchener-on/", "brand": "Bayshore Healthcare"}, "geometry": {"type": "Point", "coordinates": [-80.4219593, 43.4283686]}},
{"type": "Feature", "id": "h5MUdkwP7j-eojcjicSeT6uj29U=", "properties": {"ref": "25893", "@spider": "bayshore_healthcare", "addr:full": "679 Davis Drive, Davis Drive Medical Centre, Suite 221", "addr:city": "Newmarket", "addr:state": "ON", "addr:postcode": "L3Y 5G8", "addr:country": "CA", "name": "Bayshore Infusion Clinic - Newmarket, ON", "website": "https://www.bayshore.ca/locations/bayshore-infusion-clinic-newmarket-on/", "brand": "Bayshore Healthcare"}, "geometry": {"type": "Point", "coordinates": [-79.4498922, 44.062137]}},
{"type": "Feature", "id": "QKocUmH34nXiyc0NURVayL6w2f8=", "properties": {"ref": "1441", "@spider": "bayshore_healthcare", "addr:full": "1217 Pembroke St. E", "addr:city": "Pembroke", "addr:state": "ON", "addr:postcode": "K8A 7R8", "addr:country": "CA", "name": "Bayshore Home Care Solutions - Pembroke, ON", "website": "https://www.bayshore.ca/locations/bayshore-home-care-solutions-pembroke-on/", "brand": "Bayshore Healthcare"}, "geometry": {"type": "Point", "coordinates": [-77.0714164, 45.8128525]}},
{"type": "Feature", "id": "FpOPRIzP66s2folYOx5-zj4Cze4=", "properties": {"ref": "1458", "@spider": "bayshore_healthcare", "addr:full": "40 Finchgate Boulevard, Bestgate Professional Centre, Suite 308", "addr:city": "Brampton", "addr:state": "ON", "addr:postcode": "L6T 3J1", "addr:country": "CA", "name": "Bayshore Infusion Clinic - Brampton, ON", "website": "https://www.bayshore.ca/locations/bayshore-infusion-clinic-brampton-on/", "brand": "Bayshore Healthcare"}, "geometry": {"type": "Point", "coordinates": [-79.7120733, 43.7280689]}},
{"type": "Feature", "id": "qM7VtWzp2tWEeGcKyI3jQsfmpJ4=", "properties": {"ref": "1419", "@spider": "bayshore_healthcare", "addr:full": "9955 Yonge Street, Suite 203", "addr:city": "Richmond Hill", "addr:state": "ON", "addr:postcode": "L4C 9H6", "addr:country": "CA", "name": "Bayshore Home Health - York Region, ON", "phone": "(905) 944-9451", "website": "https://www.bayshore.ca/locations/bayshore-home-health-york-region-on/", "brand": "Bayshore Healthcare"}, "geometry": {"type": "Point", "coordinates": [-79.4364418, 43.8701096]}},
{"type": "Feature", "id": "Zhimws5jECZe__yIqGIisAW808Q=", "properties": {"ref": "1494", "@spider": "bayshore_healthcare", "addr:full": "9325 Yonge Street, South Hill Shopping Centre, Suite 8", "addr:city": "Richmond Hill", "addr:state": "ON", "addr:postcode": "L4C 0A8", "addr:country": "CA", "name": "Bayshore Infusion Clinic - Richmond Hill, ON", "website": "https://www.bayshore.ca/locations/bayshore-infusion-clinic-richmond-hill-on/", "brand": "Bayshore Healthcare"}, "geometry": {"type": "Point", "coordinates": [-79.4296485, 43.8547748]}},
{"type": "Feature", "id": "V0a8eE3eTRnQ_syCWlPrHpYIAto=", "properties": {"ref": "17217", "@spider": "bayshore_healthcare", "addr:full": "189 Kent St W, Kent Place, Suite 112", "addr:city": "Lindsay", "addr:state": "ON", "addr:postcode": "K9V 5G6", "addr:country": "CA", "name": "Bayshore Infusion Clinic - Lindsay, ON", "website": "https://www.bayshore.ca/locations/bayshore-infusion-clinic-lindsay-on/", "brand": "Bayshore Healthcare"}, "geometry": {"type": "Point", "coordinates": [-78.74027000000001, 44.3539334]}},
{"type": "Feature", "id": "VGKtzKVf1IMUXB5zC_jmwJP0fxM=", "properties": {"ref": "1390", "@spider": "bayshore_healthcare", "addr:full": "189 Kent Street W", "addr:city": "Lindsay", "addr:state": "ON", "addr:postcode": "K9V 5G6", "addr:country": "CA", "name": "Bayshore Home Health - Lindsay, ON", "phone": "(705) 340-3258", "website": "https://www.bayshore.ca/locations/bayshore-home-health-lindsay-on/", "brand": "Bayshore Healthcare"}, "geometry": {"type": "Point", "coordinates": [-78.74027, 44.3539334]}},
{"type": "Feature", "id": "v31e9V4i1O3Fwnb4rVMXlusQq2A=", "properties": {"ref": "1449", "@spider": "bayshore_healthcare", "addr:full": "7 Director Court, Unit 102", "addr:city": "Woodbridge", "addr:state": "ON", "addr:postcode": "L4L 4S5", "addr:country": "CA", "name": "Bayshore Home Care Solutions - Vaughan, ON", "phone": "(905) 896-0200", "website": "https://www.bayshore.ca/locations/bayshore-home-care-solutions-vaughan-on/", "brand": "Bayshore Healthcare"}, "geometry": {"type": "Point", "coordinates": [-79.5400151, 43.7725249]}},
{"type": "Feature", "id": "Js2J-thlcVbxwxB7iGWCIGHd6_k=", "properties": {"ref": "1433", "@spider": "bayshore_healthcare", "addr:full": "25 Watline Avenue, Unit 403", "addr:city": "Mississauga", "addr:state": "ON", "addr:postcode": "L4Z 2Z1", "addr:country": "CA", "name": "Bayshore Home Care Solutions - GTA, ON", "phone": "(905) 896-0200", "website": "https://www.bayshore.ca/locations/bayshore-home-care-solutions-gta-on/", "brand": "Bayshore Healthcare"}, "geometry": {"type": "Point", "coordinates": [-79.6725755, 43.6217351]}},
{"type": "Feature", "id": "XhRc701jnkUpIFqX6-wK6F6bI4o=", "properties": {"ref": "1517", "@spider": "bayshore_healthcare", "addr:full": "233 Alden Rd", "addr:city": "Markham", "addr:state": "ON", "addr:postcode": "L3R 3W6", "addr:country": "CA", "name": "Diabetes Express - Markham, ON", "website": "https://www.bayshore.ca/locations/bayshore-pharmacy-diabetes-express-markham-on/", "brand": "Bayshore Healthcare"}, "geometry": {"type": "Point", "coordinates": [-79.3352218, 43.8314794]}},
{"type": "Feature", "id": "Cc9MEXqkoQFvYCRmy_bgKtwlUb0=", "properties": {"ref": "1521", "@spider": "bayshore_healthcare", "addr:full": "233 Alden Rd", "addr:city": "Markham", "addr:state": "ON", "addr:postcode": "L3R 3W6", "addr:country": "CA", "name": "Bayshore Specialty Rx - Specialty Drug Programs - Markham, ON", "website": "https://www.bayshore.ca/locations/bayshore-pharmacy-markham-on/", "brand": "Bayshore Healthcare"}, "geometry": {"type": "Point", "coordinates": [-79.3352218, 43.8314794]}},
{"type": "Feature", "id": "7cb6swYhNmnD4W8N5XH_0u41X6Y=", "properties": {"ref": "35739", "@spider": "bayshore_healthcare", "addr:full": "233 Alden Rd", "addr:city": "Markham", "addr:state": "ON", "addr:postcode": "L3R 3W6", "addr:country": "CA", "name": "Bayshore Specialty Rx - Home Care (HCCSS) - Markham, ON", "website": "https://www.bayshore.ca/locations/bayshore-specialty-rx-home-care-hccss-markham-on/", "brand": "Bayshore Healthcare"}, "geometry": {"type": "Point", "coordinates": [-79.3351139, 43.8313952]}},
{"type": "Feature", "id": "21KjNxMDIU-r5XhZAMvwe5LNAm8=", "properties": {"ref": "1477", "@spider": "bayshore_healthcare", "addr:full": "7800 Kennedy Rd, Suite 305", "addr:city": "Markham", "addr:state": "ON", "addr:postcode": "L3R 2C8", "addr:country": "CA", "name": "Bayshore Infusion Clinic - Markham, ON", "website": "https://www.bayshore.ca/locations/bayshore-infusion-clinic-markham-on/", "brand": "Bayshore Healthcare"}, "geometry": {"type": "Point", "coordinates": [-79.3056683, 43.8448423]}},
{"type": "Feature", "id": "V5ymD1N--aLFirIni7CEs1zjskk=", "properties": {"ref": "1508", "@spider": "bayshore_healthcare", "addr:full": "4950 Yonge Street, Suite 908", "addr:city": "North York", "addr:state": "ON", "addr:postcode": "M2N 6K1 ", "addr:country": "CA", "name": "Bayshore Infusion Clinic - Toronto (Yonge), ON", "website": "https://www.bayshore.ca/locations/bayshore-infusion-clinic-toronto-yonge-on/", "brand": "Bayshore Healthcare"}, "geometry": {"type": "Point", "coordinates": [-79.4128023, 43.7648261]}},
{"type": "Feature", "id": "X9yk272l5K6_kshTUtck_VWgjNU=", "properties": {"ref": "1423", "@spider": "bayshore_healthcare", "addr:full": "505 Park Road N, Unit 221", "addr:city": "Brantford", "addr:state": "ON", "addr:postcode": "N3R 7K8", "addr:country": "CA", "name": "Bayshore Home Care Solutions - Brantford, ON", "phone": "519 751 9497", "website": "https://www.bayshore.ca/locations/bayshore-home-care-solutions-brantford-on/", "brand": "Bayshore Healthcare"}, "geometry": {"type": "Point", "coordinates": [-80.2484676, 43.1816145]}},
{"type": "Feature", "id": "hzBLXLQsZpY60qvi5Ztnit5HXA0=", "properties": {"ref": "24581", "@spider": "bayshore_healthcare", "addr:full": "1925 Avenue Road", "addr:city": "Toronto", "addr:state": "ON", "addr:postcode": "M5M 4A2", "addr:country": "CA", "name": "Bayshore Home Health - Toronto, ON", "phone": "(416) 927-7850", "website": "https://www.bayshore.ca/locations/bayshore-home-health-avenue-rd-toronto-on/", "brand": "Bayshore Healthcare"}, "geometry": {"type": "Point", "coordinates": [-79.4192449, 43.7337331]}},
{"type": "Feature", "id": "12JnYgLBNK4tBrr4TQ-BJp1pKpc=", "properties": {"ref": "1384", "@spider": "bayshore_healthcare", "addr:full": "185 The West Mall, Suite 115", "addr:city": "Etobicoke", "addr:state": "ON", "addr:postcode": "M9C 1B8", "addr:country": "CA", "name": "Bayshore Home Health - Etobicoke, ON", "phone": "(416) 927-7850", "website": "https://www.bayshore.ca/locations/bayshore-home-health-etobicoke-on/", "brand": "Bayshore Healthcare"}, "geometry": {"type": "Point", "coordinates": [-79.558228, 43.6249437]}},
{"type": "Feature", "id": "cvBI7AIPWX_1NBRI_B70fy5dC1E=", "properties": {"ref": "1479", "@spider": "bayshore_healthcare", "addr:full": "89 Queensway Street W, Suite 202", "addr:city": "Mississauga", "addr:state": "ON", "addr:postcode": "L5B 2V2", "addr:country": "CA", "name": "Bayshore Infusion Clinic - Mississauga, ON", "website": "https://www.bayshore.ca/locations/bayshore-infusion-clinic-mississauga-on/", "brand": "Bayshore Healthcare"}, "geometry": {"type": "Point", "coordinates": [-79.6104222, 43.5725779]}},
{"type": "Feature", "id": "RxqtkDe7eYf6WU3zUZYtyrjM1Fo=", "properties": {"ref": "1392", "@spider": "bayshore_healthcare", "addr:full": "89 Queensway West, Suite 202", "addr:city": "Mississauga", "addr:state": "ON", "addr:postcode": "L5B 2V2", "addr:country": "CA", "name": "Bayshore Home Health - Mississauga, ON", "phone": "(905) 277-3116", "website": "https://www.bayshore.ca/locations/bayshore-home-health-mississauga-on/", "brand": "Bayshore Healthcare"}, "geometry": {"type": "Point", "coordinates": [-79.6104112, 43.5725536]}},
{"type": "Feature", "id": "eVrkV5bJAJB0qXHghqwLxOYpLE4=", "properties": {"ref": "1507", "@spider": "bayshore_healthcare", "addr:full": "2425 Bloor Street W, Toronto West Professional Centre, Suite 311", "addr:city": "Toronto", "addr:state": "ON", "addr:postcode": "M6S 4W4", "addr:country": "CA", "name": "Bayshore Infusion Clinic - Toronto (Bloor), ON", "website": "https://www.bayshore.ca/locations/bayshore-infusion-clinic-toronto-bloor-on/", "brand": "Bayshore Healthcare"}, "geometry": {"type": "Point", "coordinates": [-79.4834832, 43.6491819]}},
{"type": "Feature", "id": "3-NIkvhAtpC_6CJNl-Ahh3X4zwU=", "properties": {"ref": "1486", "@spider": "bayshore_healthcare", "addr:full": "2525 Old Bronte Road, Palermo Professional Centre, Suite 210", "addr:city": "Oakville", "addr:state": "ON", "addr:postcode": "L6M 4J2", "addr:country": "CA", "name": "Bayshore Infusion Clinic - Oakville, ON", "website": "https://www.bayshore.ca/locations/bayshore-infusion-clinic-oakville-on/", "brand": "Bayshore Healthcare"}, "geometry": {"type": "Point", "coordinates": [-79.7755914, 43.4356583]}},
{"type": "Feature", "id": "CLKfpu2OictjxP3Zsc2prOP_z3M=", "properties": {"ref": "32687", "@spider": "bayshore_healthcare", "addr:full": "520 Ellesmere Road, Suite 213", "addr:city": "Scarborough", "addr:state": "ON", "addr:postcode": "M1R 4E6", "addr:country": "CA", "name": "Bayshore Infusion Clinic  - Scarborough, ON", "website": "https://www.bayshore.ca/locations/bayshore-infusion-clinic-scarborough-on/", "brand": "Bayshore Healthcare"}, "geometry": {"type": "Point", "coordinates": [-79.2953105, 43.763032]}},
{"type": "Feature", "id": "gZrRrCJJkHVKNWnHNIhqj5mA-fo=", "properties": {"ref": "1395", "@spider": "bayshore_healthcare", "addr:full": "225 Speers Rd. Unit 9", "addr:city": "Oakville", "addr:state": "ON", "addr:postcode": "L6K 2E9", "addr:country": "CA", "name": "Bayshore Home Health - Oakville, ON", "phone": "(905) 844-5588", "website": "https://www.bayshore.ca/locations/bayshore-home-health-oakville-on/", "brand": "Bayshore Healthcare"}, "geometry": {"type": "Point", "coordinates": [-79.6907703, 43.4439095]}},
{"type": "Feature", "id": "Ax-eq-qb_YLOL3964JgCLYwtgxk=", "properties": {"ref": "1414", "@spider": "bayshore_healthcare", "addr:full": "992 Kingston Road", "addr:city": "Toronto", "addr:state": "ON", "addr:postcode": "M4E 1T2", "addr:country": "CA", "name": "Bayshore Home Health - Toronto, ON", "phone": "(416) 927-7850", "website": "https://www.bayshore.ca/locations/bayshore-home-health-toronto-on/", "brand": "Bayshore Healthcare"}, "geometry": {"type": "Point", "coordinates": [-79.2859287, 43.6807578]}},
{"type": "Feature", "id": "jlPsIj3JHVBV8b25t5Sdw9gVYXI=", "properties": {"ref": "1386", "@spider": "bayshore_healthcare", "addr:full": "755 Concession Street, Unit 100", "addr:city": "Hamilton", "addr:state": "ON", "addr:postcode": "L8V 1C4", "addr:country": "CA", "name": "Bayshore Home Health - Hamilton, ON", "phone": "(905) 523-5999", "website": "https://www.bayshore.ca/locations/bayshore-home-health-hamilton-on/", "brand": "Bayshore Healthcare"}, "geometry": {"type": "Point", "coordinates": [-79.8434699, 43.238963]}},
{"type": "Feature", "id": "0jtE7mg_1KCR9frHccc-WKYaleM=", "properties": {"ref": "1435", "@spider": "bayshore_healthcare", "addr:full": "849 Upper Wentworth Street, Suite 301", "addr:city": "Hamilton", "addr:state": "ON", "addr:postcode": "L9A 5H4", "addr:country": "CA", "name": "Bayshore Home Care Solutions - Hamilton, ON", "phone": "(905) 521-8411", "website": "https://www.bayshore.ca/locations/bayshore-home-care-solutions-hamilton-on/", "brand": "Bayshore Healthcare"}, "geometry": {"type": "Point", "coordinates": [-79.8609499, 43.2218017]}},
{"type": "Feature", "id": "3ZnxZKXxJWg-147F-l4Wfqg0syg=", "properties": {"ref": "1472", "@spider": "bayshore_healthcare", "addr:full": "849 Upper Wentworth Street, Wentworth Limeridge Medical Centre, Suite 206B", "addr:city": "Hamilton", "addr:state": "ON", "addr:postcode": "L9A 5H4", "addr:country": "CA", "name": "Bayshore Infusion Clinic - Hamilton, ON", "website": "https://www.bayshore.ca/locations/bayshore-infusion-clinic-hamilton-on/", "brand": "Bayshore Healthcare"}, "geometry": {"type": "Point", "coordinates": [-79.8609499, 43.2218017]}},
{"type": "Feature", "id": "R_JpXHxnyD8DVXKhQzoVU7Jgff0=", "properties": {"ref": "1487", "@spider": "bayshore_healthcare", "addr:full": "1615 Dundas Street East, Suite 202 A, Whitby Mall", "addr:city": "Whitby", "addr:state": "ON", "addr:postcode": "L1N 1L1", "addr:country": "CA", "name": "Bayshore Infusion Clinic - Whitby, ON", "website": "https://www.bayshore.ca/locations/bayshore-infusion-clinic-whitby-on/", "brand": "Bayshore Healthcare"}, "geometry": {"type": "Point", "coordinates": [-78.9119798, 43.8863436]}},
{"type": "Feature", "id": "XZi2MFTlqfh7hLG7mW33SvqpMF0=", "properties": {"ref": "1378", "@spider": "bayshore_healthcare", "addr:full": "1615 Dundas Street East Unit 202A, Whitby Mall", "addr:city": "Whitby", "addr:state": "ON", "addr:postcode": "L1N 2L1", "addr:country": "CA", "name": "Bayshore Home Health - Belleville, ON", "phone": "(905) 433-4002", "website": "https://www.bayshore.ca/locations/bayshore-home-health-belleville-on/", "brand": "Bayshore Healthcare"}, "geometry": {"type": "Point", "coordinates": [-78.9105341, 43.8839666]}},
{"type": "Feature", "id": "cVynN4h4Ri68UuhRbw-euw9gX50=", "properties": {"ref": "1396", "@spider": "bayshore_healthcare", "addr:full": "1615 Dundas Street East Unit 202A, Whitby Mall", "addr:city": "Whitby", "addr:state": "ON", "addr:postcode": "L1N 2L1", "addr:country": "CA", "name": "Bayshore Home Health - Durham Region, ON", "phone": "(905) 433-4002", "website": "https://www.bayshore.ca/locations/bayshore-home-health-durham-region-on/", "brand": "Bayshore Healthcare"}, "geometry": {"type": "Point", "coordinates": [-78.9105341, 43.8839666]}},
{"type": "Feature", "id": "HA-GznDWxtk4p4fKPRLansQVg74=", "properties": {"ref": "1439", "@spider": "bayshore_healthcare", "addr:full": "305 Niagara Street", "addr:city": "St. Catharines", "addr:state": "ON", "addr:postcode": "L2M 4V9", "addr:country": "CA", "name": "Bayshore Home Care Solutions - Niagara, ON", "phone": "(289) 434-4795", "website": "https://www.bayshore.ca/locations/bayshore-home-care-solutions-niagara-on/", "brand": "Bayshore Healthcare"}, "geometry": {"type": "Point", "coordinates": [-79.2684596, 43.1820559]}},
{"type": "Feature", "id": "sjw1JTG9CS7IFNTl1AsJsprlmnk=", "properties": {"ref": "1500", "@spider": "bayshore_healthcare", "addr:full": "282 Linwell Road, Linwell Medical Plaza, Suite 205", "addr:city": "St. Catharines", "addr:state": "ON", "addr:postcode": "L2N 6N5", "addr:country": "CA", "name": "Bayshore Infusion Clinic - St. Catharines, ON", "website": "https://www.bayshore.ca/locations/bayshore-infusion-clinic-st-catharines-on/", "brand": "Bayshore Healthcare"}, "geometry": {"type": "Point", "coordinates": [-79.2375817, 43.1948807]}},
{"type": "Feature", "id": "Jm1tnoz7FEIFEkxVdMg19EgcVsg=", "properties": {"ref": "1409", "@spider": "bayshore_healthcare", "addr:full": "282 Linwell Road, Suite 205", "addr:city": "St. Catharines", "addr:state": "ON", "addr:postcode": "L2N 6N5", "addr:country": "CA", "name": "Bayshore Home Health - St. Catharines, ON", "phone": "(905) 688-5214", "website": "https://www.bayshore.ca/locations/bayshore-home-health-st-catharines-on/", "brand": "Bayshore Healthcare"}, "geometry": {"type": "Point", "coordinates": [-79.2373834, 43.1949157]}},
{"type": "Feature", "id": "R63rAqkdKMXBVnaV-m7d8jb7Tns=", "properties": {"ref": "1422", "@spider": "bayshore_healthcare", "addr:full": "81 Millennium Parkway #3, Unit 2A", "addr:city": "Belleville", "addr:state": "ON", "addr:postcode": "K8N 4Z5", "addr:country": "CA", "name": "Bayshore Home Care Solutions - Belleville, ON", "phone": "(613) 962-7229", "website": "https://www.bayshore.ca/locations/bayshore-home-care-solutions-belleville-on/", "brand": "Bayshore Healthcare"}, "geometry": {"type": "Point", "coordinates": [-77.4078423, 44.1923521]}},
{"type": "Feature", "id": "qZYJqleWXqEB22FsI2bckH663mU=", "properties": {"ref": "1428", "@spider": "bayshore_healthcare", "addr:full": "10459 ON - 7", "addr:city": "Carleton Place", "addr:state": "ON", "addr:postcode": "K7C 0C4", "addr:country": "CA", "name": "Bayshore Home Care Solutions - Carleton Place, ON", "phone": "(613) 253-0999", "website": "https://www.bayshore.ca/locations/bayshore-home-care-solutions-carleton-place-on/", "brand": "Bayshore Healthcare"}, "geometry": {"type": "Point", "coordinates": [-76.1220589, 45.1310104]}},
{"type": "Feature", "id": "gAK8y9z9nCfIwND18WKzEyLGacU=", "properties": {"ref": "1488", "@spider": "bayshore_healthcare", "addr:full": "117 Centrepointe Drive, Centrepointe Commerce Court, Suite 210", "addr:city": "Ottawa", "addr:state": "ON", "addr:postcode": "K2G 5X3", "addr:country": "CA", "name": "Bayshore Infusion Clinic - Ottawa, ON", "website": "https://www.bayshore.ca/locations/bayshore-infusion-clinic-ottawa-on/", "brand": "Bayshore Healthcare"}, "geometry": {"type": "Point", "coordinates": [-75.7624942, 45.3429403]}},
{"type": "Feature", "id": "eYtyywia4X2kMQHU2S5jT5MI4w4=", "properties": {"ref": "1397", "@spider": "bayshore_healthcare", "addr:full": "117 Centrepointe Drive, Unit 210", "addr:city": "Nepean", "addr:state": "ON", "addr:postcode": "K2G 5X3", "addr:country": "CA", "name": "Bayshore Home Health - Ottawa, ON", "phone": "(613) 226-7682", "website": "https://www.bayshore.ca/locations/bayshore-home-health-ottawa-on/", "brand": "Bayshore Healthcare"}, "geometry": {"type": "Point", "coordinates": [-75.7624942, 45.3429403]}},
{"type": "Feature", "id": "KkUdOybeHRJOobdqpBRuMK475es=", "properties": {"ref": "1382", "@spider": "bayshore_healthcare", "addr:full": "117 Centrepointe Dr", "addr:city": "Nepean", "addr:state": "ON", "addr:postcode": "K2G 5X3", "addr:country": "CA", "name": "Bayshore Home Health - Cornwall, ON", "phone": "613-226-7682", "website": "https://www.bayshore.ca/locations/bayshore-home-health-cornwall-on/", "brand": "Bayshore Healthcare"}, "geometry": {"type": "Point", "coordinates": [-75.7624942, 45.3429403]}},
{"type": "Feature", "id": "V2Iz_9Rue2_4eP_NJLECgU4flCk=", "properties": {"ref": "1398", "@spider": "bayshore_healthcare", "addr:city": "Pembroke", "addr:state": "ON", "addr:country": "CA", "name": "Bayshore Home Health - Pembroke, ON", "phone": "613-226-7682", "website": "https://www.bayshore.ca/locations/bayshore-home-health-pembroke-on/", "brand": "Bayshore Healthcare"}, "geometry": {"type": "Point", "coordinates": [-75.7624203, 45.3429094]}},
{"type": "Feature", "id": "HV9KbKjc31WdG1g2wWG_s-FC8vQ=", "properties": {"ref": "1495", "@spider": "bayshore_healthcare", "addr:full": "720, Boul. St-Joseph. Office 205", "addr:city": "Roberval", "addr:state": "QC", "addr:postcode": "G8H 2L2", "addr:country": "CA", "name": "Bayshore Infusion Clinic - Roberval, QC", "website": "https://www.bayshore.ca/locations/bayshore-infusion-clinic-roberval-qc/", "brand": "Bayshore Healthcare"}, "geometry": {"type": "Point", "coordinates": [-72.2205449, 48.5153963]}},
{"type": "Feature", "id": "6zrTDE3Pcr_UzB-snvKLCBqSons=", "properties": {"ref": "1440", "@spider": "bayshore_healthcare", "addr:full": "310 Hunt Club Road, Suite 202", "addr:city": "Ottawa", "addr:state": "ON", "addr:postcode": "K1V 1C1", "addr:country": "CA", "name": "Bayshore Home Care Solutions - Ottawa, ON", "phone": "(613) 733-4408", "website": "https://www.bayshore.ca/locations/bayshore-home-care-solutions-ottawa-on/", "brand": "Bayshore Healthcare"}, "geometry": {"type": "Point", "coordinates": [-75.6852868, 45.3373099]}},
{"type": "Feature", "id": "gbd8x5MeKixZ186QD-Zt1FIm-Bo=", "properties": {"ref": "1445", "@spider": "bayshore_healthcare", "addr:full": "52 Abbott Street N, Unit 3", "addr:city": "Smiths Falls", "addr:state": "ON", "addr:postcode": "K7A 1W3", "addr:country": "CA", "name": "Bayshore Home Care Solutions - Smiths Falls, ON", "phone": "(613) 283-1400", "website": "https://www.bayshore.ca/locations/bayshore-home-care-solutions-smiths-falls-on/", "brand": "Bayshore Healthcare"}, "geometry": {"type": "Point", "coordinates": [-76.0275926, 44.8979097]}},
{"type": "Feature", "id": "-tv8OAqWb56U1hFh-IunnTcvvso=", "properties": {"ref": "1408", "@spider": "bayshore_healthcare", "addr:full": "117 Centrepointe Dr.", "addr:city": "Ottawa", "addr:state": "ON", "addr:postcode": "K2G 5X3", "addr:country": "CA", "name": "Bayshore Home Health - Smiths Falls, ON", "phone": "613-226-7682", "website": "https://www.bayshore.ca/locations/bayshore-home-health-smiths-falls-on/", "brand": "Bayshore Healthcare"}, "geometry": {"type": "Point", "coordinates": [-76.0153344, 44.8825248]}},
{"type": "Feature", "id": "Zvidu56OENFDGd7CtiVrI0g6Nx0=", "properties": {"ref": "1474", "@spider": "bayshore_healthcare", "addr:full": "725 Arlington Park Place, Suite 3 ", "addr:city": "Kingston", "addr:state": "ON", "addr:postcode": "K7M 7E4", "addr:country": "CA", "name": "Bayshore Infusion Clinic - Kingston, ON", "website": "https://www.bayshore.ca/locations/bayshore-infusion-clinic-kingston-on/", "brand": "Bayshore Healthcare"}, "geometry": {"type": "Point", "coordinates": [-76.5728316, 44.2486508]}},
{"type": "Feature", "id": "Bv8L_KN24mbYCiK8gh4Qybam2SU=", "properties": {"ref": "30612", "@spider": "bayshore_healthcare", "addr:full": "500 Canatara Crt", "addr:city": "Kingston", "addr:state": "ON", "addr:postcode": "K7M 0E4", "addr:country": "CA", "name": "Bayshore Home Care Solutions - Kingston, ON", "phone": "(613) 542 4242", "website": "https://www.bayshore.ca/locations/bayshore-home-care-solutions-kingston-on/", "brand": "Bayshore Healthcare"}, "geometry": {"type": "Point", "coordinates": [-76.579276, 44.2369558]}},
{"type": "Feature", "id": "bjZyHWo4_tDSs2-sLs0mBhCIt-E=", "properties": {"ref": "1388", "@spider": "bayshore_healthcare", "addr:full": "500 Canatara Court", "addr:city": "Kingston", "addr:state": "ON", "addr:postcode": "K7M 0E4", "addr:country": "CA", "name": "Bayshore Home Health - Kingston, ON", "phone": "(613) 417-3361", "website": "https://www.bayshore.ca/locations/bayshore-home-health-kingston-on/", "brand": "Bayshore Healthcare"}, "geometry": {"type": "Point", "coordinates": [-76.579237, 44.2369309]}},
{"type": "Feature", "id": "abWrdoGB4A_3IFI45SQvy8DTgbY=", "properties": {"ref": "1379", "@spider": "bayshore_healthcare", "addr:full": "500 Canatara Court", "addr:city": "Kingston", "addr:state": "ON", "addr:postcode": "K7M 0E4", "addr:country": "CA", "name": "Bayshore Home Health - Brockville, ON", "phone": "(613) 417-3361", "website": "https://www.bayshore.ca/locations/bayshore-home-health-brockville-on/", "brand": "Bayshore Healthcare"}, "geometry": {"type": "Point", "coordinates": [-76.579237, 44.2369309]}},
{"type": "Feature", "id": "P5hb_vN4j6c5G3FSUB2SylCIPMs=", "properties": {"ref": "1424", "@spider": "bayshore_healthcare", "addr:full": "555 California Avenue, Unit 6", "addr:city": "Brockville", "addr:state": "ON", "addr:postcode": "K6V 5V5", "addr:country": "CA", "name": "Bayshore Home Care Solutions - Brockville, ON", "phone": "(613) 345-3371", "website": "https://www.bayshore.ca/locations/bayshore-home-care-solutions-brockville-on/", "brand": "Bayshore Healthcare"}, "geometry": {"type": "Point", "coordinates": [-75.6925359, 44.612227]}},
{"type": "Feature", "id": "PA1Nr7XykAJvq61kD7TEiUQN0L0=", "properties": {"ref": "16228", "@spider": "bayshore_healthcare", "addr:full": "305 Docteur Charles Leonard #301", "addr:city": "St-J\u00e9r\u00f4me", "addr:state": "QC", "addr:postcode": "J7Y 0M9", "addr:country": "CA", "name": "Bayshore Infusion Clinic - St-J\u00e9r\u00f4me (Biron), QC", "website": "https://www.bayshore.ca/locations/bayshore-infusion-clinic-st-jerome-biron-qc/", "brand": "Bayshore Healthcare"}, "geometry": {"type": "Point", "coordinates": [-74.0004678, 45.7626174]}},
{"type": "Feature", "id": "AgpB7XOyjyq096cZzjtAi4US_RQ=", "properties": {"ref": "1463", "@spider": "bayshore_healthcare", "addr:full": "80, rue Racine E, Suite 212 (Centre de Sant\u00e9 Racine)", "addr:city": "Chicoutimi", "addr:state": "QC", "addr:postcode": "G7H 1P6", "addr:country": "CA", "name": "Bayshore Infusion Clinic - Chicoutimi, QC", "website": "https://www.bayshore.ca/locations/bayshore-infusion-clinic-chicoutimi-qc/", "brand": "Bayshore Healthcare"}, "geometry": {"type": "Point", "coordinates": [-71.0659244, 48.4277821]}},
{"type": "Feature", "id": "xfV9fxuGMDMQSluvLvovGpm1MCY=", "properties": {"ref": "1430", "@spider": "bayshore_healthcare", "addr:full": "112 Second Street W", "addr:city": "Cornwall", "addr:state": "ON", "addr:postcode": "K6J 1G5", "addr:country": "CA", "name": "Bayshore Home Care Solutions - Cornwall, ON", "phone": "(613) 938-1691", "website": "https://www.bayshore.ca/locations/bayshore-home-care-solutions-cornwall-on/", "brand": "Bayshore Healthcare"}, "geometry": {"type": "Point", "coordinates": [-74.731458, 45.016937]}},
{"type": "Feature", "id": "gkZQDqW6r1k93GOKiLBFKUvbbgE=", "properties": {"ref": "23541", "@spider": "bayshore_healthcare", "addr:full": "65 Boul. De la Cite-des-Jeunes, Suite #225", "addr:city": "Vaudreuil-Dorion", "addr:state": "QC", "addr:postcode": "J7V 8C1", "addr:country": "CA", "name": "Bayshore Home Health - Vaudreuil-Dorion, QC", "phone": "450-897-0344 ", "website": "https://www.bayshore.ca/locations/bayshore-home-health-vaudreuil-dorion-qc/", "brand": "Bayshore Healthcare"}, "geometry": {"type": "Point", "coordinates": [-74.0372421, 45.4031997]}},
{"type": "Feature", "id": "WpLfukRe6lgPJbXYts7X6fhGnQQ=", "properties": {"ref": "22167", "@spider": "bayshore_healthcare", "addr:full": "65 Boul. De la Cite-des-Jeunes, Suite #225", "addr:city": "Vaudreuil-Dorion", "addr:state": "QC", "addr:postcode": "J7V 8C1", "addr:country": "CA", "name": "Bayshore Infusion Clinic - Vaudreuil-Dorion, QC", "website": "https://www.bayshore.ca/locations/bayshore-infusion-clinic-vaudreuil-dorion-qc/", "brand": "Bayshore Healthcare"}, "geometry": {"type": "Point", "coordinates": [-74.0502111, 45.3894831]}},
{"type": "Feature", "id": "qqkqbCsBT8lGRjf_HAcHErrJwhA=", "properties": {"ref": "22205", "@spider": "bayshore_healthcare", "addr:full": "3300, ave 100 Place Laval 440", "addr:city": "Laval", "addr:state": "QC", "addr:postcode": "H7T 0J7", "addr:country": "CA", "name": "Bayshore Infusion Clinic - Laval, QC", "website": "https://www.bayshore.ca/locations/bayshore-infusion-clinic-laval-qc/", "brand": "Bayshore Healthcare"}, "geometry": {"type": "Point", "coordinates": [-73.7068104, 45.5807525]}},
{"type": "Feature", "id": "XzeUmTrGCuXmDqxV052uFi_llo8=", "properties": {"ref": "1399", "@spider": "bayshore_healthcare", "addr:full": "955, boulevard St-Jean, Tower 2, Suite 214 (Centre M\u00e9dical Brunswick)", "addr:city": "Pointe-Claire", "addr:state": "QC", "addr:postcode": "H9R 5K3", "addr:country": "CA", "name": "Bayshore Home Health - Pointe-Claire, QC", "phone": "(514) 587-6533", "website": "https://www.bayshore.ca/locations/bayshore-home-health-pointe-claire-qc/", "brand": "Bayshore Healthcare"}, "geometry": {"type": "Point", "coordinates": [-73.8292113, 45.4688947]}},
{"type": "Feature", "id": "ZD-MffyU2qD5bZfcE82nXXW_xuk=", "properties": {"ref": "1489", "@spider": "bayshore_healthcare", "addr:full": "955, boulevard St-Jean, Suite 214 (Centre M\u00e9dical Brunswick)", "addr:city": "Pointe-Claire", "addr:state": "QC", "addr:postcode": "H9R 5K3", "addr:country": "CA", "name": "Bayshore Infusion Clinic - Pointe-Claire, QC", "website": "https://www.bayshore.ca/locations/bayshore-infusion-clinic-pointe-claire-qc/", "brand": "Bayshore Healthcare"}, "geometry": {"type": "Point", "coordinates": [-73.8292113, 45.4688947]}},
{"type": "Feature", "id": "AQZKgZ8M_3-f_U3hT_QK90SWSoY=", "properties": {"ref": "16218", "@spider": "bayshore_healthcare", "addr:full": "950, mont\u00e9e des Pionniers, Biron Laboratoire M\u00e9dical, Local 380", "addr:city": "Terrebonne", "addr:state": "QC", "addr:postcode": "J6V 1S8", "addr:country": "CA", "name": "Bayshore Infusion Clinic - Lachenaie (Biron), QC", "website": "https://www.bayshore.ca/locations/bayshore-infusion-clinic-lachenaie-biron-qc/", "brand": "Bayshore Healthcare"}, "geometry": {"type": "Point", "coordinates": [-73.5073281, 45.7247776]}},
{"type": "Feature", "id": "ftovvUTctJBCCdabBwxGZFR8thU=", "properties": {"ref": "24124", "@spider": "bayshore_healthcare", "addr:full": "7450 Boulevard des Galeries d\u2019Anjou, Suite 470", "addr:city": "Montr\u00e9al", "addr:state": "QC", "addr:postcode": "H1M 3M2", "addr:country": "CA", "name": "Bayshore Sant\u00e9 Nordique - Montr\u00e9al, QC", "phone": "438-315-4079, 20113", "website": "https://www.bayshore.ca/locations/bayshore-sante-nordique-montreal-qc/", "brand": "Bayshore Healthcare"}, "geometry": {"type": "Point", "coordinates": [-73.5654189, 45.5975181]}},
{"type": "Feature", "id": "7iVpJ8y2GmKVXskXB9D7FWBOAY0=", "properties": {"ref": "1481", "@spider": "bayshore_healthcare", "addr:full": "4101, rue Molson, Centre de Sant\u00e9 Angus, Suite 201.2", "addr:city": "Montr\u00e9al", "addr:state": "QC", "addr:postcode": "H1Y 3L1", "addr:country": "CA", "name": "Bayshore Infusion Clinic - Montreal (Angus), QC", "website": "https://www.bayshore.ca/locations/bayshore-infusion-clinic-montreal-angus-qc/", "brand": "Bayshore Healthcare"}, "geometry": {"type": "Point", "coordinates": [-73.5645948, 45.5418591]}},
{"type": "Feature", "id": "0U3fXNE6wcitOhKQt24t4s06vZs=", "properties": {"ref": "1393", "@spider": "bayshore_healthcare", "addr:full": "Suite 601 - 5100 Maisonneuve Boulevard West", "addr:city": "Montreal", "addr:state": "QC", "addr:postcode": "H4A 3T2", "addr:country": "CA", "name": "Bayshore Home Health - Montreal, QC", "phone": "(514) 879-5657", "website": "https://www.bayshore.ca/locations/bayshore-home-health-montreal-qc/", "brand": "Bayshore Healthcare"}, "geometry": {"type": "Point", "coordinates": [-73.60310909999998, 45.4745257]}},
{"type": "Feature", "id": "Tdyi-Ig-hNk1F4vveuxJ9DhHCjE=", "properties": {"ref": "22172", "@spider": "bayshore_healthcare", "addr:full": "5100 de Maisonneuve Ouest, suite 601", "addr:city": "Montr\u00e9al", "addr:state": "QC", "addr:postcode": "H4A 3T2", "addr:country": "CA", "name": "Bayshore Infusion Clinic - Montr\u00e9al, QC", "website": "https://www.bayshore.ca/locations/bayshore-infusion-clinic-montreal-qc/", "brand": "Bayshore Healthcare"}, "geometry": {"type": "Point", "coordinates": [-73.6030665, 45.4745001]}},
{"type": "Feature", "id": "TullTchBGmuUpuPhYIDhgv6b6vc=", "properties": {"ref": "1482", "@spider": "bayshore_healthcare", "addr:full": "450, rue Saint Antoine E, Clinique M\u00e9dicale Agatha, Suite 101", "addr:city": "Montr\u00e9al", "addr:state": "QC", "addr:postcode": "H2Y 1A5", "addr:country": "CA", "name": "Bayshore Infusion Clinic - Montreal (St. Antoine), QC", "website": "https://www.bayshore.ca/locations/bayshore-infusion-clinic-montreal-st-antoine-qc/", "brand": "Bayshore Healthcare"}, "geometry": {"type": "Point", "coordinates": [-73.5537419, 45.5117018]}},
{"type": "Feature", "id": "JmM8hlr8-t5KMDuvCWwWGqC0V3E=", "properties": {"ref": "1509", "@spider": "bayshore_healthcare", "addr:full": "1785, boulevard du Carmel, Suite 101B", "addr:city": "Trois-Rivi\u00e8res", "addr:state": "QC", "addr:postcode": "G8Z 3R8", "addr:country": "CA", "name": "Bayshore Infusion Clinic - Trois-Rivi\u00e8res, QC", "website": "https://www.bayshore.ca/locations/bayshore-infusion-clinic-trois-rivieres-qc/", "brand": "Bayshore Healthcare"}, "geometry": {"type": "Point", "coordinates": [-72.5600783, 46.3529689]}},
{"type": "Feature", "id": "7tWR6Kb2fEQY6dASqCFDcwKoGls=", "properties": {"ref": "1459", "@spider": "bayshore_healthcare", "addr:full": "9090, boulevard Leduc, Clinique DIX30, Local 510", "addr:city": "Brossard", "addr:state": "QC", "addr:postcode": "J4Y 0E9", "addr:country": "CA", "name": "Bayshore Infusion Clinic - Brossard, QC", "website": "https://www.bayshore.ca/locations/bayshore-infusion-clinic-brossard-qc/", "brand": "Bayshore Healthcare"}, "geometry": {"type": "Point", "coordinates": [-73.4391321, 45.4462178]}},
{"type": "Feature", "id": "L0No9nK_xZ50UBgcWu3SmGDQWS0=", "properties": {"ref": "17212", "@spider": "bayshore_healthcare", "addr:full": "2115, boul Casavant O, Biron Laboratoire M\u00e9dical, Local 102", "addr:city": "Saint-Hyacinthe", "addr:state": "QC", "addr:postcode": "J2S 7E5", "addr:country": "CA", "name": "Bayshore Infusion Clinic - Saint-Hyacinthe, QC", "website": "https://www.bayshore.ca/locations/bayshore-infusion-clinic-saint-hyacinthe-qc/", "brand": "Bayshore Healthcare"}, "geometry": {"type": "Point", "coordinates": [-72.96566860000001, 45.634204]}},
{"type": "Feature", "id": "2yqLgjy1qrmwqLqwMkNXdrPoYm4=", "properties": {"ref": "1490", "@spider": "bayshore_healthcare", "addr:full": "1200, rue des Soeurs-Du-Bon-Pasteur, GMF Cit\u00e9-Verte, Bloc Q, Local 220", "addr:city": "Qu\u00e9bec City ", "addr:state": "QC", "addr:postcode": "G1S 0B1", "addr:country": "CA", "name": "Bayshore Infusion Clinic - Qu\u00e9bec City, QC", "website": "https://www.bayshore.ca/locations/bayshore-infusion-clinic-quebec-city-qc/", "brand": "Bayshore Healthcare"}, "geometry": {"type": "Point", "coordinates": [-71.2511264, 46.797203]}},
{"type": "Feature", "id": "Wk98PIfqsQ1L0H4_hqyjUEYKUWw=", "properties": {"ref": "32938", "@spider": "bayshore_healthcare", "addr:full": "830 Avenue Ernest-Gagnon, Local 212A ", "addr:city": "Qu\u00e9bec City", "addr:state": "QC", "addr:postcode": "G1S 3R3.", "addr:country": "CA", "name": "Bayshore Home Health - Qu\u00e9bec City, QC", "phone": "(418) 650-6302", "website": "https://www.bayshore.ca/locations/bayshore-home-health-quebec-city-qc/", "brand": "Bayshore Healthcare"}, "geometry": {"type": "Point", "coordinates": [-71.2508996, 46.795096]}},
{"type": "Feature", "id": "3j9kly_fDd6rbLzNmuPfd-3KXEs=", "properties": {"ref": "2028", "@spider": "bayshore_healthcare", "addr:full": "5700, boul \u00c9tienne-Dallaire, Centre M\u00e9dical L\u00e9vis-M\u00e9tro, Biron Clinique du Sommeil, Local 110", "addr:city": "L\u00e9vis", "addr:state": "QC", "addr:postcode": "G6V 8R8", "addr:country": "CA", "name": "Bayshore Infusion Clinic - L\u00e9vis, QC", "website": "https://www.bayshore.ca/locations/bayshore-infusion-clinic-levis-qc/", "brand": "Bayshore Healthcare"}, "geometry": {"type": "Point", "coordinates": [-71.16611840000002, 46.7913765]}},
{"type": "Feature", "id": "9f_AmSzAmRYR2ut5Ua5z16xYMiM=", "properties": {"ref": "1498", "@spider": "bayshore_healthcare", "addr:full": "2340, rue King E, Suite 204", "addr:city": "Sherbrooke", "addr:state": "QC", "addr:postcode": "J1G 5G8", "addr:country": "CA", "name": "Bayshore Infusion Clinic - Sherbrooke, QC", "website": "https://www.bayshore.ca/locations/bayshore-infusion-clinic-sherbrooke-qc/", "brand": "Bayshore Healthcare"}, "geometry": {"type": "Point", "coordinates": [-71.8378297, 45.4120134]}},
{"type": "Feature", "id": "BI9QakcN-ohHCW5eNHZSCrV8WE8=", "properties": {"ref": "22189", "@spider": "bayshore_healthcare", "addr:full": "8480 boul Lacroix, Suite 222", "addr:city": "St-Georges de Beauce", "addr:state": "QC", "addr:postcode": "G5Y 1R7", "addr:country": "CA", "name": "Bayshore Infusion Clinic - St-Georges de Beauce, QC", "website": "https://www.bayshore.ca/locations/bayshore-infusion-clinic-st-georges-de-beauce-qc/", "brand": "Bayshore Healthcare"}, "geometry": {"type": "Point", "coordinates": [-70.7003089, 46.1325215]}},
{"type": "Feature", "id": "bYFvaXSRZcYUvMm9JIZQljzWbm8=", "properties": {"ref": "17209", "@spider": "bayshore_healthcare", "addr:full": "140, rue P\u00e8re-Divet, Biron Clinique du Sommeil, Local 3", "addr:city": "Sept-\u00celes", "addr:state": "QC", "addr:postcode": "G4R 1X5", "addr:country": "CA", "name": "Bayshore Infusion Clinic - Sept-\u00celes, QC", "website": "https://www.bayshore.ca/locations/bayshore-infusion-clinic-sept-iles-qc/", "brand": "Bayshore Healthcare"}, "geometry": {"type": "Point", "coordinates": [-66.37455729999999, 50.21349769999999]}},
{"type": "Feature", "id": "m9_NQhMlyZerW8peF81PdFALT_c=", "properties": {"ref": "1451", "@spider": "bayshore_healthcare", "addr:full": "389 Connell Street, Unit 105", "addr:city": "Woodstock", "addr:state": "NB", "addr:postcode": "E7M 1K7", "addr:country": "CA", "name": "Bayshore Home Care Solutions - Woodstock, NB", "phone": "(506) 325-0341", "website": "https://www.bayshore.ca/locations/bayshore-home-care-solutions-woodstock-nb/", "brand": "Bayshore Healthcare"}, "geometry": {"type": "Point", "coordinates": [-67.6019312, 46.1700381]}},
{"type": "Feature", "id": "oMRyHhrGkOCEXRxlqXDd7LslW_U=", "properties": {"ref": "1514", "@spider": "bayshore_healthcare", "addr:full": "100 Jones Street, Suite 102", "addr:city": "Woodstock", "addr:state": "NB", "addr:postcode": "E7M 0H6", "addr:country": "CA", "name": "Bayshore Infusion Clinic - Woodstock, NB", "website": "https://www.bayshore.ca/locations/bayshore-infusion-clinic-woodstock-nb/", "brand": "Bayshore Healthcare"}, "geometry": {"type": "Point", "coordinates": [-67.594657, 46.170408]}},
{"type": "Feature", "id": "d4jHvoNKuVYSj4-l8ghl7sW9nq0=", "properties": {"ref": "1457", "@spider": "bayshore_healthcare", "addr:full": "515 Youghall Drive", "addr:city": "Bathurst", "addr:state": "NB", "addr:postcode": "E2A 4X7", "addr:country": "CA", "name": "Bayshore Infusion Clinic - Bathurst, NB", "website": "https://www.bayshore.ca/locations/bayshore-infusion-clinic-bathurst-nb/", "brand": "Bayshore Healthcare"}, "geometry": {"type": "Point", "coordinates": [-65.6574387, 47.6526582]}},
{"type": "Feature", "id": "GYaDg1OghmpjN96FoHn6CLro8Dk=", "properties": {"ref": "1432", "@spider": "bayshore_healthcare", "addr:full": "850 Prospect Street, Suite 404", "addr:city": "Fredericton", "addr:state": "NB", "addr:postcode": "E3B 9M5", "addr:country": "CA", "name": "Bayshore Home Care Solutions - Fredericton, NB", "phone": "(506) 458-9934", "website": "https://www.bayshore.ca/locations/bayshore-home-care-solutions-fredericton-nb/", "brand": "Bayshore Healthcare"}, "geometry": {"type": "Point", "coordinates": [-66.6766798, 45.9449094]}},
{"type": "Feature", "id": "2IPX3M0ofjlNDIOP-O63PByS-Fc=", "properties": {"ref": "1467", "@spider": "bayshore_healthcare", "addr:full": "1015 Regent Street, Suite 500", "addr:city": "Fredericton", "addr:state": "NB", "addr:postcode": "E3B 6H5", "addr:country": "CA", "name": "Bayshore Infusion Clinic - Fredericton, NB", "website": "https://www.bayshore.ca/locations/bayshore-infusion-clinic-fredericton-nb/", "brand": "Bayshore Healthcare"}, "geometry": {"type": "Point", "coordinates": [-66.6766798, 45.9449094]}},
{"type": "Feature", "id": "2AAqK31I6Lh2OEfNoJRA3JkCd-Q=", "properties": {"ref": "1496", "@spider": "bayshore_healthcare", "addr:full": "1 Magazine Street, Suite 102", "addr:city": "Saint John", "addr:state": "NB", "addr:postcode": "E2K 5S9", "addr:country": "CA", "name": "Bayshore Infusion Clinic - Saint John, NB", "website": "https://www.bayshore.ca/locations/bayshore-infusion-clinic-saint-john-nb/", "brand": "Bayshore Healthcare"}, "geometry": {"type": "Point", "coordinates": [-66.0748547, 45.2763608]}},
{"type": "Feature", "id": "dTZDkk5olwveHmjMgr8m1TmBVLc=", "properties": {"ref": "1522", "@spider": "bayshore_healthcare", "addr:full": "600 Main Street (Hilyard Place), Suite C115, Bldg C", "addr:city": "Saint John", "addr:state": "NB", "addr:postcode": "E2K 1J5", "addr:country": "CA", "name": "Bayshore Pharmacy - Saint John, NB", "website": "https://www.bayshore.ca/locations/bayshore-pharmacy-saint-john-nb/", "brand": "Bayshore Healthcare"}, "geometry": {"type": "Point", "coordinates": [-66.0702374, 45.2762154]}},
{"type": "Feature", "id": "7Ki6tKNT4GCNyJhKZGJOrGYmG00=", "properties": {"ref": "1442", "@spider": "bayshore_healthcare", "addr:full": "600 Main Street (Hilyard Place), Suite C150, Bldg C", "addr:city": "Saint John", "addr:state": "NB", "addr:postcode": "E2K 1J5", "addr:country": "CA", "name": "Bayshore Home Care Solutions - Saint John, NB", "phone": "(506) 633-9588", "website": "https://www.bayshore.ca/locations/bayshore-home-care-solutions-saint-john-nb/", "brand": "Bayshore Healthcare"}, "geometry": {"type": "Point", "coordinates": [-66.0702374, 45.2762154]}},
{"type": "Feature", "id": "fMhcIuz2MfCmU3yw-uSsGl1NjpY=", "properties": {"ref": "1438", "@spider": "bayshore_healthcare", "addr:full": "1600 Main Street (Jones Lake Place), Suite 106B", "addr:city": "Moncton", "addr:state": "NB", "addr:postcode": "E1E 1G5", "addr:country": "CA", "name": "Bayshore Home Care Solutions - Moncton, NB", "phone": "(506) 857-9992", "website": "https://www.bayshore.ca/locations/bayshore-home-care-solutions-moncton-nb/", "brand": "Bayshore Healthcare"}, "geometry": {"type": "Point", "coordinates": [-64.7941907, 46.0818844]}},
{"type": "Feature", "id": "J4pbS3GMAydLGwcgHB8Oy9CKpLo=", "properties": {"ref": "1480", "@spider": "bayshore_healthcare", "addr:full": "1600 Main Street (Jones Lake Place), Suite 106", "addr:city": "Moncton", "addr:state": "NB", "addr:postcode": "E1E 1G5", "addr:country": "CA", "name": "Bayshore Infusion Clinic - Moncton, NB", "website": "https://www.bayshore.ca/locations/bayshore-infusion-clinic-moncton-nb/", "brand": "Bayshore Healthcare"}, "geometry": {"type": "Point", "coordinates": [-64.7936085, 46.0815514]}},
{"type": "Feature", "id": "1snjibz-bPVJAL7J4TUOw1T_3fk=", "properties": {"ref": "1462", "@spider": "bayshore_healthcare", "addr:full": "8 Mount Edward Road (Shops of St. Avards)", "addr:city": "Charlottetown", "addr:state": "PE", "addr:postcode": "C1A 5R8", "addr:country": "CA", "name": "Bayshore Infusion Clinic - Charlottetown, PE", "website": "https://www.bayshore.ca/locations/bayshore-infusion-clinic-charlottetown-pe/", "brand": "Bayshore Healthcare"}, "geometry": {"type": "Point", "coordinates": [-63.124283, 46.247535]}},
{"type": "Feature", "id": "g6gLoqHh3C3VeMFQ_vFbjl5vzpI=", "properties": {"ref": "1516", "@spider": "bayshore_healthcare", "addr:full": "8 Mount Edward Road (Shops of St. Avards)", "addr:city": "Charlottetown", "addr:state": "PE", "addr:postcode": "C1A 5R8", "addr:country": "CA", "name": "Bayshore Pharmacy - Charlottetown, PE", "website": "https://www.bayshore.ca/locations/bayshore-pharmacy-charlottetown-pe/", "brand": "Bayshore Healthcare"}, "geometry": {"type": "Point", "coordinates": [-63.1239488, 46.2475707]}},
{"type": "Feature", "id": "xARxPXA_3Ve-fFGiHQ8-WOgE8AI=", "properties": {"ref": "18168", "@spider": "bayshore_healthcare", "addr:full": "8 Mount Edward Road (Shops of St. Avards)", "addr:city": "Charlottetown", "addr:state": "PE", "addr:postcode": "C1A 5R8", "addr:country": "CA", "name": "Bayshore Home Health - Charlottetown, PE", "phone": "902-892-7355", "website": "https://www.bayshore.ca/locations/bayshore-home-health-charlottetown-pe/", "brand": "Bayshore Healthcare"}, "geometry": {"type": "Point", "coordinates": [-63.1238741, 46.2475807]}},
{"type": "Feature", "id": "8wBin_xBQVGjn3dlxAFOaWQkWLQ=", "properties": {"ref": "1471", "@spider": "bayshore_healthcare", "addr:full": "7071 Bayers Road, Suite 237", "addr:city": "Halifax", "addr:state": "NS", "addr:postcode": "B3L 2C2", "addr:country": "CA", "name": "Bayshore Infusion Clinic - Halifax, NS", "website": "https://www.bayshore.ca/locations/bayshore-infusion-clinic-halifax-ns/", "brand": "Bayshore Healthcare"}, "geometry": {"type": "Point", "coordinates": [-63.6258569, 44.6558793]}},
{"type": "Feature", "id": "j_Xjq-Wl3-tIWgM6vLKkMY4j8_g=", "properties": {"ref": "1385", "@spider": "bayshore_healthcare", "addr:full": "7071 Bayers Road, Suite 237", "addr:city": "Halifax", "addr:state": "NS", "addr:postcode": "B3L 2C2", "addr:country": "CA", "name": "Bayshore Home Health - Halifax, NS", "phone": "(902) 425-3351", "website": "https://www.bayshore.ca/locations/bayshore-home-health-halifax-ns/", "brand": "Bayshore Healthcare"}, "geometry": {"type": "Point", "coordinates": [-63.6258569, 44.6558793]}},
{"type": "Feature", "id": "JkKBd_7Bz9zi0tbafOdC0FhJqKM=", "properties": {"ref": "1519", "@spider": "bayshore_healthcare", "addr:full": "920-202 Brownlow Ave.", "addr:city": "Dartmouth", "addr:state": "NS", "addr:postcode": "B3B 1T5", "addr:country": "CA", "name": "Bayshore Pharmacy - Halifax, NS", "website": "https://www.bayshore.ca/locations/bayshore-pharmacy-halifax-ns/", "brand": "Bayshore Healthcare"}, "geometry": {"type": "Point", "coordinates": [-63.5749343, 44.6958939]}},
{"type": "Feature", "id": "orqFMfAJ8qdcFLm12WEWpfFbTsk=", "properties": {"ref": "17221", "@spider": "bayshore_healthcare", "addr:full": "44 Portland St, Dartmouth Medical Centre, Suite 201", "addr:city": "Dartmouth", "addr:state": "NS", "addr:postcode": "B2Y 1H4", "addr:country": "CA", "name": "Bayshore Infusion Clinic - Dartmouth, NS", "website": "https://www.bayshore.ca/locations/bayshore-infusion-clinic-dartmouth-ns/", "brand": "Bayshore Healthcare"}, "geometry": {"type": "Point", "coordinates": [-63.5669704, 44.6649087]}},
{"type": "Feature", "id": "Z1akQE2IWysqMLjEwIt-HVco36k=", "properties": {"ref": "1504", "@spider": "bayshore_healthcare", "addr:full": "45 Weatherbee Road, Suite 403B Sydney Health Park", "addr:city": "Sydney", "addr:state": "NS", "addr:postcode": "B1M 0A1", "addr:country": "CA", "name": "Bayshore Infusion Clinic - Sydney, NS", "website": "https://www.bayshore.ca/locations/bayshore-infusion-clinic-sydney-ns/", "brand": "Bayshore Healthcare"}, "geometry": {"type": "Point", "coordinates": [-60.1756705, 46.1135293]}},
{"type": "Feature", "id": "M9WVZYT8bWKSRaa1MW1nuo6QByY=", "properties": {"ref": "1501", "@spider": "bayshore_healthcare", "addr:full": "9 Paton Street, Unit A", "addr:city": "St. John's", "addr:state": "NL", "addr:postcode": "A1B 4S8", "addr:country": "CA", "name": "Bayshore Infusion Clinic - St. John's, NL", "website": "https://www.bayshore.ca/locations/bayshore-infusion-clinic-st-johns-nl/", "brand": "Bayshore Healthcare"}, "geometry": {"type": "Point", "coordinates": [-52.713079300000004, 47.6187481]}},
{"type": "Feature", "id": "Wf-GR23MBi4GvAy_XHZvEJWzgqg=", "properties": {"ref": "1525", "@spider": "bayshore_healthcare", "addr:full": "9 Paton Street, 9B", "addr:city": "St. John's", "addr:state": "NL", "addr:postcode": "A1B 4S8", "addr:country": "CA", "name": "Bayshore Pharmacy - St. John\u2019s, NL", "website": "https://www.bayshore.ca/locations/bayshore-pharmacy-st-johns-nl/", "brand": "Bayshore Healthcare"}, "geometry": {"type": "Point", "coordinates": [-52.7391172, 47.5658751]}},
{"type": "Feature", "id": "G3lp5B5Y-LuiXP1vasiaK5QkODk=", "properties": {"ref": "1410", "@spider": "bayshore_healthcare", "addr:full": "9 Paton Street, Unit A", "addr:city": "St. John's", "addr:state": "NL", "addr:postcode": "A1B 4S8", "addr:country": "CA", "name": "Bayshore Home Health - St. John's, NL", "phone": "(709) 576-2868", "website": "https://www.bayshore.ca/locations/bayshore-home-health-st-johns-nl/", "brand": "Bayshore Healthcare"}, "geometry": {"type": "Point", "coordinates": [-52.7390134, 47.5657136]}}]}