{"type":"FeatureCollection","features":[{"type": "Feature", "id": "CN5yhDIEk6i3gB6LjMywZlItnf4=", "properties": {"ref": "584", "contact:fax": " ", "@spider": "beef_o_bradys", "addr:street_address": "1000 George Hopper Road", "addr:city": "Midlothian", "addr:state": "TX", "addr:postcode": "76065     ", "name": "Midlothian", "phone": "(972) 775-7840", "website": "https://www.beefobradys.com/Midlothian", "contact:facebook": "https://www.facebook.com/BeefOBradysMidlothian/?fref=ts", "brand": "Beef 'o' Brady's", "brand:wikidata": "Q4879745"}, "geometry": {"type": "Point", "coordinates": [-96.982523, 32.474622]}},
{"type": "Feature", "id": "lyKogx6_F02__CJ0cCrMr_T4qgk=", "properties": {"ref": "534", "contact:fax": "(979) 285-9601", "@spider": "beef_o_bradys", "addr:street_address": "145 Oyster Creek Dr", "addr:city": "Lake Jackson", "addr:state": "TX", "addr:postcode": "77566-4197", "name": "Lake Jackson", "phone": "(979) 285-9580", "website": "https://www.beefobradys.com/LakeJackson", "contact:facebook": "https://www.facebook.com/ljbeefs?_rdr=p", "brand": "Beef 'o' Brady's", "brand:wikidata": "Q4879745"}, "geometry": {"type": "Point", "coordinates": [-95.45243, 29.04562]}},
{"type": "Feature", "id": "CGG2mQg386hmZDlZ04ThylPT_0k=", "properties": {"ref": "435", "contact:fax": "(806) 792-3336", "@spider": "beef_o_bradys", "addr:street_address": "5510 4th St Ste 280", "addr:city": "Lubbock", "addr:state": "TX", "addr:postcode": "79416-4275", "name": "Lubbock", "phone": "(806) 792-3337", "website": "https://www.beefobradys.com/Lubbock", "contact:facebook": "https://www.facebook.com/beefslubbock?fref=ts", "brand": "Beef 'o' Brady's", "brand:wikidata": "Q4879745"}, "geometry": {"type": "Point", "coordinates": [-101.93142, 33.59237]}},
{"type": "Feature", "id": "QkN31IhZtxYvRaj4nViF5E2mp0c=", "properties": {"ref": "410", "contact:fax": "(479) 268-4547", "@spider": "beef_o_bradys", "addr:street_address": "2500 SW 14th St Ste 108", "addr:city": "Bentonville", "addr:state": "AR", "addr:postcode": "72712-3544", "name": "Bentonville", "phone": "(479) 268-4545", "website": "https://www.beefobradys.com/Bentonville", "brand": "Beef 'o' Brady's", "brand:wikidata": "Q4879745"}, "geometry": {"type": "Point", "coordinates": [-94.24141, 36.35768]}},
{"type": "Feature", "id": "AeBzOxtGaozVViZCV1tVlfQwpG4=", "properties": {"ref": "313", "contact:fax": "(806) 358-0979", "@spider": "beef_o_bradys", "addr:street_address": "7306 SW 34th Ave Ste 7", "addr:city": "Amarillo", "addr:state": "TX", "addr:postcode": "79121-1446", "name": "Amarillo", "phone": "(806) 358-0997", "website": "https://www.beefobradys.com/Amarillo", "contact:facebook": "http://www.facebook.com/amarillobeefobradys", "brand": "Beef 'o' Brady's", "brand:wikidata": "Q4879745"}, "geometry": {"type": "Point", "coordinates": [-101.92037, 35.17662]}},
{"type": "Feature", "id": "tMd0slV1A_BkfW5iIq5cugkFXKA=", "properties": {"ref": "304", "contact:fax": "(251) 661-3516", "@spider": "beef_o_bradys", "addr:street_address": "4419 Rangeline Rd", "addr:city": "Mobile", "addr:state": "AL", "addr:postcode": "36619     ", "name": "Mobile", "phone": "(251) 661-3346", "website": "https://www.beefobradys.com/Mobile", "brand": "Beef 'o' Brady's", "brand:wikidata": "Q4879745"}, "geometry": {"type": "Point", "coordinates": [-88.18931, 30.59875]}},
{"type": "Feature", "id": "KxgtNciMsWC-t6un9cX7W89aGlQ=", "properties": {"ref": "588", "contact:fax": " ", "@spider": "beef_o_bradys", "addr:street_address": "1418 W Saint Joseph St Ste 90", "addr:city": "Perryville", "addr:state": "MO", "addr:postcode": "63775-1597", "name": "Perryville", "phone": "(573) 605-1109", "website": "https://www.beefobradys.com/perryville", "contact:facebook": "https://www.facebook.com/pages/Beef-OBradys-Perryville/869719153086575", "brand": "Beef 'o' Brady's", "brand:wikidata": "Q4879745"}, "geometry": {"type": "Point", "coordinates": [-89.885236, 37.728008]}},
{"type": "Feature", "id": "_DW9x1UM99QER6boxOyX9ot4_j0=", "properties": {"ref": "374", "contact:fax": "(251) 447-0104", "@spider": "beef_o_bradys", "addr:street_address": "6450 US Highway 90 Ste J", "addr:city": "Spanish Fort", "addr:state": "AL", "addr:postcode": "36527-9480", "name": "Spanish Fort", "phone": "(251) 447-0660", "website": "https://www.beefobradys.com/SpanishFort", "contact:facebook": "https://www.facebook.com/BeefOBradysSFAL", "brand": "Beef 'o' Brady's", "brand:wikidata": "Q4879745"}, "geometry": {"type": "Point", "coordinates": [-87.91964, 30.66728]}},
{"type": "Feature", "id": "SWbxSWrtQ_-2jkIvD07QQBkkiX0=", "properties": {"ref": "293", "contact:fax": "(850) 332-5042", "@spider": "beef_o_bradys", "addr:street_address": "1 New Market Street", "addr:city": "Cantonment", "addr:state": "FL", "addr:postcode": "32533     ", "name": "Cantonment", "phone": "(850) 332-5040", "website": "https://www.beefobradys.com/Cantonment", "contact:facebook": "https://www.facebook.com/beefs9mile?fref=ts", "brand": "Beef 'o' Brady's", "brand:wikidata": "Q4879745"}, "geometry": {"type": "Point", "coordinates": [-87.309498, 30.535699]}},
{"type": "Feature", "id": "7ZVm1c_89-IlNmXWQBxUggtF7_w=", "properties": {"ref": "598", "contact:fax": " ", "@spider": "beef_o_bradys", "addr:street_address": "4300 Helena Rd", "addr:city": "Helena", "addr:state": "AL", "addr:postcode": "35080-3259", "name": "Helena", "phone": "(205) 624-2333", "website": "https://www.beefobradys.com/helena", "contact:facebook": "https://www.facebook.com/beefobradyshelena/", "brand": "Beef 'o' Brady's", "brand:wikidata": "Q4879745"}, "geometry": {"type": "Point", "coordinates": [-86.842671, 33.297655]}},
{"type": "Feature", "id": "9xoc9kErVKJCo2XTUwDlUxFcwBk=", "properties": {"ref": "508", "contact:fax": "(205) 988-4053", "@spider": "beef_o_bradys", "addr:street_address": "5519 Grove Blvd", "addr:city": "Hoover", "addr:state": "AL", "addr:postcode": "35226-4605", "name": "Hoover", "phone": "(205) 987-9464", "website": "https://www.beefobradys.com/Hoover", "contact:facebook": "https://www.facebook.com/beefsatthegrove/?rf=261862597335120", "brand": "Beef 'o' Brady's", "brand:wikidata": "Q4879745"}, "geometry": {"type": "Point", "coordinates": [-86.84047, 33.38462]}},
{"type": "Feature", "id": "eypRdP1dIqyjmJdD8KQOAxRXblY=", "properties": {"ref": "70", "contact:fax": "(850) 889-4852", "@spider": "beef_o_bradys", "addr:street_address": "4275 Woodbine Road", "addr:city": "Pace", "addr:state": "FL", "addr:postcode": "32571-8704", "name": "Pace", "phone": "(850) 889-4852", "website": "https://www.beefobradys.com/Pensacola", "contact:facebook": "https://www.facebook.com/beefsateastgate?fref=ts", "brand": "Beef 'o' Brady's", "brand:wikidata": "Q4879745"}, "geometry": {"type": "Point", "coordinates": [-87.178743, 30.593777]}},
{"type": "Feature", "id": "YRZ8ZYy6bmuiO5O4qVhSvLH5r-Q=", "properties": {"ref": "620", "contact:fax": null, "@spider": "beef_o_bradys", "addr:street_address": "5279 U.S. 280", "addr:city": "Birmingham", "addr:state": "AL", "addr:postcode": "35242     ", "name": "Brook Highland", "phone": "(205) 637-6661", "website": "https://www.beefobradys.com/brookhighland", "contact:facebook": "https://www.facebook.com/beefobradysbrookhighland", "brand": "Beef 'o' Brady's", "brand:wikidata": "Q4879745"}, "geometry": {"type": "Point", "coordinates": [-86.68, 33.42]}},
{"type": "Feature", "id": "9WV68HqjyPaxu8JrO9UPxSKARHc=", "properties": {"ref": "397", "contact:fax": "(334) 290-9964", "@spider": "beef_o_bradys", "addr:street_address": "2776 Legends Pkwy", "addr:city": "Prattville", "addr:state": "AL", "addr:postcode": "36066-7752", "name": "Prattville", "phone": "(334) 290-9962", "website": "https://www.beefobradys.com/Prattville", "contact:facebook": "https://www.facebook.com/pages/Prattville-Beef-O-Bradys/108524112538431?fref=ts", "brand": "Beef 'o' Brady's", "brand:wikidata": "Q4879745"}, "geometry": {"type": "Point", "coordinates": [-86.3982148, 32.4583729]}},
{"type": "Feature", "id": "AhvmktZ6UUUtTB7nk-JJPrwZBYc=", "properties": {"ref": "614", "contact:fax": " ", "@spider": "beef_o_bradys", "addr:street_address": "9438 US Highway 431", "addr:city": "Albertville", "addr:state": "AL", "addr:postcode": "35950     ", "name": "Albertville", "phone": "(256) 849-0016", "website": "https://www.beefobradys.com/Albertville", "brand": "Beef 'o' Brady's", "brand:wikidata": "Q4879745"}, "geometry": {"type": "Point", "coordinates": [-86.240761, 34.28891]}},
{"type": "Feature", "id": "LEWqm7mYP_H_pkwiO32MxK4bmWc=", "properties": {"ref": "621", "contact:fax": null, "@spider": "beef_o_bradys", "addr:street_address": "2599 Wabash Ave", "addr:city": "Springfield", "addr:state": "IL", "addr:postcode": "62704     ", "name": "Springfield - Now Open", "phone": "(217) 679-5909", "website": "https://www.beefobradys.com/Springfield", "contact:facebook": "https://www.facebook.com/Beef-O-Bradys-Springfield-109909074876455", "brand": "Beef 'o' Brady's", "brand:wikidata": "Q4879745"}, "geometry": {"type": "Point", "coordinates": [-89.7, 39.764]}},
{"type": "Feature", "id": "u4aSe7bJq-1UH-zTrvfDRzNDFSc=", "properties": {"ref": "272", "contact:fax": "(850) 951-9878", "@spider": "beef_o_bradys", "addr:street_address": "1310 US Highway 331 S", "addr:city": "DeFuniak Springs", "addr:state": "FL", "addr:postcode": "32435-3420", "name": "DeFuniak Springs", "phone": "(850) 951-9877", "website": "https://www.beefobradys.com/DeFuniakSprings", "contact:facebook": "https://www.facebook.com/BeefsOfDefuniakSprings", "brand": "Beef 'o' Brady's", "brand:wikidata": "Q4879745"}, "geometry": {"type": "Point", "coordinates": [-86.13977, 30.73109]}},
{"type": "Feature", "id": "axgRzH7eiuBroL7KxLCovMkXARc=", "properties": {"ref": "398", "contact:fax": "(334) 347-3831", "@spider": "beef_o_bradys", "addr:street_address": "621 Boll Weevil Cir Ste 32A", "addr:city": "Enterprise", "addr:state": "AL", "addr:postcode": "36330-2798", "name": "Enterprise", "phone": "(334) 348-9464", "website": "https://www.beefobradys.com/Enterprise", "contact:facebook": "https://www.facebook.com/pages/Beef-O-Bradys-Enterprise/258914974120340?fref=ts", "brand": "Beef 'o' Brady's", "brand:wikidata": "Q4879745"}, "geometry": {"type": "Point", "coordinates": [-85.86175, 31.33378]}},
{"type": "Feature", "id": "rKD6kX1ZTTZjSPErhoKbJ2LXvJw=", "properties": {"ref": "600", "contact:fax": null, "@spider": "beef_o_bradys", "addr:street_address": "200 N Main St", "addr:city": "Beaver Dam", "addr:state": "KY", "addr:postcode": "42320-1915", "name": "Beaver Dam", "phone": "(270) 363-2231", "website": "https://www.beefobradys.com/BeaverDam", "brand": "Beef 'o' Brady's", "brand:wikidata": "Q4879745"}, "geometry": {"type": "Point", "coordinates": [-86.876267, 37.40317]}},
{"type": "Feature", "id": "DdoKF9vDW4jHIZrBD_ixVemA3m0=", "properties": {"ref": "335", "contact:fax": "(270) 685-4989", "@spider": "beef_o_bradys", "addr:street_address": "3189 Fairview Dr Ste E", "addr:city": "Owensboro", "addr:state": "KY", "addr:postcode": "42303-7820", "name": "Owensboro, KY", "phone": "(270) 685-4969", "website": "https://www.beefobradys.com/OwensboroKY", "contact:facebook": "https://www.facebook.com/pages/Beef-O-Bradys-Owensboro/191737007511650?fref=ts", "brand": "Beef 'o' Brady's", "brand:wikidata": "Q4879745"}, "geometry": {"type": "Point", "coordinates": [-87.05918, 37.75278]}},
{"type": "Feature", "id": "KQuDlWkbe4YzWqW22mzbvNuZqVs=", "properties": {"ref": "601", "contact:fax": null, "@spider": "beef_o_bradys", "addr:street_address": "11226 Hutchison Blvd", "addr:city": "Panama City Beach", "addr:state": "FL", "addr:postcode": "32407-3718", "name": "Panama City Beach", "phone": "(850) 739-4647", "website": "https://www.beefobradys.com/PanamaCityBeach", "brand": "Beef 'o' Brady's", "brand:wikidata": "Q4879745"}, "geometry": {"type": "Point", "coordinates": [-85.817459, 30.190293]}},
{"type": "Feature", "id": "WfZeglrlXjx5bXobJSmhanpWGgc=", "properties": {"ref": "45", "contact:fax": "(334) 678-0851", "@spider": "beef_o_bradys", "addr:street_address": "2743 Montgomery Hwy Ste 1010", "addr:city": "Dothan", "addr:state": "AL", "addr:postcode": "36303-2642", "name": "Dothan", "phone": "(334) 678-0010", "website": "https://www.beefobradys.com/Dothan", "contact:facebook": "https://www.facebook.com/pages/Beef-O-Bradys-Dothan/1024135580933116?ref=hl", "brand": "Beef 'o' Brady's", "brand:wikidata": "Q4879745"}, "geometry": {"type": "Point", "coordinates": [-85.4219, 31.24627]}},
{"type": "Feature", "id": "0RMw2kVMVJRvJzaaGD0QE7V1Iu4=", "properties": {"ref": "105", "contact:fax": "(850) 271-0644", "@spider": "beef_o_bradys", "addr:street_address": "2310 S Highway 77 Ste 350", "addr:city": "Lynn Haven", "addr:state": "FL", "addr:postcode": "32444-4634", "name": "Lynn Haven", "phone": "(850) 271-0064", "website": "https://www.beefobradys.com/LynnHaven", "contact:facebook": "https://www.facebook.com/BeefsLynnHaven?fref=ts", "brand": "Beef 'o' Brady's", "brand:wikidata": "Q4879745"}, "geometry": {"type": "Point", "coordinates": [-85.6494, 30.22774]}},
{"type": "Feature", "id": "BK2yu9VuBa0NKevLjwXA4UNcJEE=", "properties": {"ref": "211", "contact:fax": "(850) 215-2357", "@spider": "beef_o_bradys", "addr:street_address": "842 N Tyndall Pkwy", "addr:city": "Callaway", "addr:state": "FL", "addr:postcode": "32404-9407", "name": "Callaway", "phone": "(850) 215-3905", "website": "https://www.beefobradys.com/Callaway", "contact:facebook": "https://www.facebook.com/BeefOBradysCallaway", "brand": "Beef 'o' Brady's", "brand:wikidata": "Q4879745"}, "geometry": {"type": "Point", "coordinates": [-85.59135, 30.13228]}},
{"type": "Feature", "id": "FlvwPBBMb-3BcMd9R25GwAZSjmY=", "properties": {"ref": "290", "contact:fax": "(850) 482-0004", "@spider": "beef_o_bradys", "addr:street_address": "4944 Malloy Plz", "addr:city": "Marianna", "addr:state": "FL", "addr:postcode": "32448-2523", "name": "Marianna", "phone": "(850) 482-0002", "website": "https://www.beefobradys.com/Marianna", "contact:facebook": "https://www.facebook.com/marianna.beefs?fref=ts", "brand": "Beef 'o' Brady's", "brand:wikidata": "Q4879745"}, "geometry": {"type": "Point", "coordinates": [-85.19033, 30.74748]}},
{"type": "Feature", "id": "RRurxZvl_b-XyGRy56mosT7fLRw=", "properties": {"ref": "446", "contact:fax": "(423) 910-0265", "@spider": "beef_o_bradys", "addr:street_address": "5958 Snow Hill Rd Ste 100-112", "addr:city": "Ooltewah", "addr:state": "TN", "addr:postcode": "37363-7833", "name": "Ooltewah", "phone": "(423) 910-0261", "website": "https://www.beefobradys.com/Ooltewah", "contact:facebook": "https://www.facebook.com/ooltewahbeefs", "brand": "Beef 'o' Brady's", "brand:wikidata": "Q4879745"}, "geometry": {"type": "Point", "coordinates": [-85.06407, 35.08625]}},
{"type": "Feature", "id": "67LruTppcyOAccMIqmiIkOH9QIY=", "properties": {"ref": "56", "contact:fax": "(770) 486-1828", "@spider": "beef_o_bradys", "addr:street_address": "100 N Peachtree Pkwy Ste 18", "addr:city": "Peachtree City", "addr:state": "GA", "addr:postcode": "30269-1744", "name": "Peachtree City", "phone": "(770) 486-1860", "website": "https://www.beefobradys.com/PeachtreeCity", "contact:facebook": "https://www.facebook.com/pages/Beef-O-Bradys-Peachtree-City/322554134620769", "brand": "Beef 'o' Brady's", "brand:wikidata": "Q4879745"}, "geometry": {"type": "Point", "coordinates": [-84.5688, 33.40786]}},
{"type": "Feature", "id": "u9VjgQP9SeoxSkVO6YaL9nkPCTA=", "properties": {"ref": "450", "contact:fax": "(812) 734-3266", "@spider": "beef_o_bradys", "addr:street_address": "2402 Landmark Ave NE", "addr:city": "Corydon", "addr:state": "IN", "addr:postcode": "47112-2019", "name": "Corydon", "phone": "(812) 734-3200", "website": "https://www.beefobradys.com/Corydon", "contact:facebook": "https://www.facebook.com/pages/beef-O-Bradys-Corydon/371102478233?fref=ts", "brand": "Beef 'o' Brady's", "brand:wikidata": "Q4879745"}, "geometry": {"type": "Point", "coordinates": [-86.12518, 38.23599]}},
{"type": "Feature", "id": "OtJC-WTTXR2BvPBPeLKIB85VdbE=", "properties": {"ref": "416", "contact:fax": "(229) 246-8788", "@spider": "beef_o_bradys", "addr:street_address": "1408 Tallahassee Hwy Ste J", "addr:city": "Bainbridge", "addr:state": "GA", "addr:postcode": "39819-7900", "name": "Bainbridge", "phone": "(229) 246-8488", "website": "https://www.beefobradys.com/Bainbridge", "contact:facebook": "https://www.facebook.com/Beef-O-Bradys-Bainbridge-156356774096/", "brand": "Beef 'o' Brady's", "brand:wikidata": "Q4879745"}, "geometry": {"type": "Point", "coordinates": [-84.56531, 30.88292]}},
{"type": "Feature", "id": "PayLLtkhcnbxKAQHVOYMyH7R9bo=", "properties": {"ref": "236", "contact:fax": "(812) 923-1439", "@spider": "beef_o_bradys", "addr:street_address": "105 Lafollette Sta S", "addr:city": "Floyds Knobs", "addr:state": "IN", "addr:postcode": "47119-9772", "name": "Floyds Knobs", "phone": "(812) 923-1316", "website": "https://www.beefobradys.com/FloydsKnobs", "contact:facebook": "https://www.facebook.com/BOBFloydsKnobs/", "brand": "Beef 'o' Brady's", "brand:wikidata": "Q4879745"}, "geometry": {"type": "Point", "coordinates": [-85.8728, 38.32326]}},
{"type": "Feature", "id": "n6dY7fLu-ekZNmGD087f3WDwaoE=", "properties": {"ref": "559", "contact:fax": "(502) 637-3826\r\n", "@spider": "beef_o_bradys", "addr:street_address": "3101 S 2nd St", "addr:city": "Louisville", "addr:state": "KY", "addr:postcode": "40208-1446", "name": "Central Station", "phone": "(502) 637-3737\r\n", "website": "https://www.beefobradys.com/CentralStation", "contact:facebook": "https://www.facebook.com/BeefOBradysCentralStation?ref=ts&fref=ts", "brand": "Beef 'o' Brady's", "brand:wikidata": "Q4879745"}, "geometry": {"type": "Point", "coordinates": [-85.76322, 38.20411]}},
{"type": "Feature", "id": "raD1L2-40vijJZW6NsL1RhEK0gc=", "properties": {"ref": "585", "contact:fax": "(502) 969-2921", "@spider": "beef_o_bradys", "addr:street_address": "11324 Preston Hwy", "addr:city": "Louisville", "addr:state": "KY", "addr:postcode": "40229-2862", "name": "Hillview", "phone": "(502) 969-5559", "website": "https://www.beefobradys.com/Louisville", "contact:facebook": "https://www.facebook.com/pages/Beef-O-Bradys-of-Hillview/820048341346496?fref=ts", "brand": "Beef 'o' Brady's", "brand:wikidata": "Q4879745"}, "geometry": {"type": "Point", "coordinates": [-85.6745, 38.08696]}},
{"type": "Feature", "id": "Ko5gqKnMuenACPiMs2xB-kIZkGs=", "properties": {"ref": "65", "contact:fax": "(502) 239-2216", "@spider": "beef_o_bradys", "addr:street_address": "5628 Bardstown Rd", "addr:city": "Louisville", "addr:state": "KY", "addr:postcode": "40291-1912", "name": "Fern Creek", "phone": "(502) 239-2226", "website": "https://www.beefobradys.com/FernCreek", "contact:facebook": "https://www.facebook.com/pages/Beef-O-Bradys-Fern-Creek/867880039941813", "brand": "Beef 'o' Brady's", "brand:wikidata": "Q4879745"}, "geometry": {"type": "Point", "coordinates": [-85.59749, 38.16381]}},
{"type": "Feature", "id": "zZv7dkQxq9B6EXGEpsA0K22PHHk=", "properties": {"ref": "58", "contact:fax": "(502) 254-9323", "@spider": "beef_o_bradys", "addr:street_address": "241 Blankenbaker Pkwy", "addr:city": "Louisville", "addr:state": "KY", "addr:postcode": "40243-1877", "name": "Middletown", "phone": "(502) 254-2322", "website": "https://www.beefobradys.com/Middletown", "contact:facebook": "https://www.facebook.com/middletownbeefs/", "brand": "Beef 'o' Brady's", "brand:wikidata": "Q4879745"}, "geometry": {"type": "Point", "coordinates": [-85.54619, 38.24176]}},
{"type": "Feature", "id": "HwI4ov0z40syCpmPTRp-ZgPuXWg=", "properties": {"ref": "278", "contact:fax": "(850) 671-2337", "@spider": "beef_o_bradys", "addr:street_address": "1208 Capital Cir SE", "addr:city": "Tallahassee", "addr:state": "FL", "addr:postcode": "32301-3811", "name": "Capital Circle", "phone": "(850) 504-2333", "website": "https://www.beefobradys.com/CapitalCircle", "contact:facebook": "https://www.facebook.com/BeefsCapitalCircle/", "brand": "Beef 'o' Brady's", "brand:wikidata": "Q4879745"}, "geometry": {"type": "Point", "coordinates": [-84.22687, 30.43089]}},
{"type": "Feature", "id": "htgnEIWMMpPcw5rUZb1pUYtU7nw=", "properties": {"ref": "62", "contact:fax": "(229) 227-6770", "@spider": "beef_o_bradys", "addr:street_address": "1508 E Jackson St", "addr:city": "Thomasville", "addr:state": "GA", "addr:postcode": "31792-3939", "name": "Thomasville", "phone": "(229) 551-9464", "website": "https://www.beefobradys.com/Thomasville", "contact:facebook": "https://www.facebook.com/Beef-O-Bradys-Thomasville-120588372050/", "brand": "Beef 'o' Brady's", "brand:wikidata": "Q4879745"}, "geometry": {"type": "Point", "coordinates": [-83.95388, 30.854345]}},
{"type": "Feature", "id": "F9tTRLG0QTmFvz-zow3ODVOt214=", "properties": {"ref": "277", "contact:fax": "(815) 929-9898", "@spider": "beef_o_bradys", "addr:street_address": "547 Main St NW", "addr:city": "Bourbonnais", "addr:state": "IL", "addr:postcode": "60914-2305", "name": "Bourbonnais", "phone": "(815) 929-9800", "website": "https://www.beefobradys.com/Bourbonnais", "contact:facebook": "http://www.facebook.com/pages/Bourbonnais-Beef-O-Bradys/80864872346", "brand": "Beef 'o' Brady's", "brand:wikidata": "Q4879745"}, "geometry": {"type": "Point", "coordinates": [-87.87636, 41.15004]}},
{"type": "Feature", "id": "u7pi2hKgAnIo4NE-l_FYgQMybrQ=", "properties": {"ref": "353", "contact:fax": "(706) 367-4845", "@spider": "beef_o_bradys", "addr:street_address": "1679 Old Pendergrass Rd", "addr:city": "Jefferson", "addr:state": "GA", "addr:postcode": "30549-2705", "name": "Jefferson", "phone": "(706) 367-4835", "website": "https://www.beefobradys.com/Jefferson", "contact:facebook": "https://www.facebook.com/pages/Beef-O-Bradys/104043886206?sk=timeline ", "brand": "Beef 'o' Brady's", "brand:wikidata": "Q4879745"}, "geometry": {"type": "Point", "coordinates": [-83.60499, 34.1231]}},
{"type": "Feature", "id": "dIPhSd5ZZ5_0Kn9aW_8bpc3OPSY=", "properties": {"ref": "603", "contact:fax": "(502) 228-3888", "@spider": "beef_o_bradys", "addr:street_address": "111 Westridge Dr", "addr:city": "Frankfort", "addr:state": "KY", "addr:postcode": "40601-4448", "name": "Frankfort", "phone": "(502) 226-3666", "website": "https://www.beefobradys.com/Frankfort", "brand": "Beef 'o' Brady's", "brand:wikidata": "Q4879745"}, "geometry": {"type": "Point", "coordinates": [-84.89444, 38.164354]}},
{"type": "Feature", "id": "TD8JjhHUvqa8xAN4-rUIFSLpPmg=", "properties": {"ref": "433", "contact:fax": "(706) 850-1965", "@spider": "beef_o_bradys", "addr:street_address": "1860 Barnett Shoals Rd Ste 101", "addr:city": "Athens", "addr:state": "GA", "addr:postcode": "30605-6821", "name": "Athens", "phone": "(706) 850-1916", "website": "https://www.beefobradys.com/Athens", "contact:facebook": "https://www.facebook.com/pages/Beef-O-Bradys-Athens-GA/180866408596", "brand": "Beef 'o' Brady's", "brand:wikidata": "Q4879745"}, "geometry": {"type": "Point", "coordinates": [-83.34079, 33.92535]}},
{"type": "Feature", "id": "dF19t8zT4idsCP9Q06nqfc-r9mQ=", "properties": {"ref": "296", "contact:fax": "(859) 384-8983", "@spider": "beef_o_bradys", "addr:street_address": "1597 Cavalry Dr", "addr:city": "Union", "addr:state": "KY", "addr:postcode": "41091-8731", "name": "Union", "phone": "(859) 384-9464", "website": "https://www.beefobradys.com/Union", "contact:facebook": "https://www.facebook.com/unionbeefobradys/?fref=ts&ref=br_tf", "brand": "Beef 'o' Brady's", "brand:wikidata": "Q4879745"}, "geometry": {"type": "Point", "coordinates": [-84.66713, 38.95273]}},
{"type": "Feature", "id": "htMRHuiDf3MMbNuFIJUNYu1pt7Q=", "properties": {"ref": "439", "contact:fax": "(765) 472-3997", "@spider": "beef_o_bradys", "addr:street_address": "911 W Main St", "addr:city": "Peru", "addr:state": "IN", "addr:postcode": "46970-1740", "name": "Peru", "phone": "(765) 472-3900", "website": "https://www.beefobradys.com/Peru", "contact:facebook": "https://www.facebook.com/pages/Beef-OBradys-Peru-Indiana/169466133075625?fref=ts", "brand": "Beef 'o' Brady's", "brand:wikidata": "Q4879745"}, "geometry": {"type": "Point", "coordinates": [-86.09405, 40.74467]}},
{"type": "Feature", "id": "Wuuh7pNTyN9evVX0yQMWbmkXaB4=", "properties": {"ref": "594", "contact:fax": "(386) 219-0522", "@spider": "beef_o_bradys", "addr:street_address": "6844 Suwannee Plaza Ln", "addr:city": "Live Oak", "addr:state": "FL", "addr:postcode": "32060-7495", "name": "Live Oak", "phone": "(386) 219-0522", "website": "https://www.beefobradys.com/LiveOak", "contact:facebook": "https://www.facebook.com/LIVEOAKBEEFOBRADYS/", "brand": "Beef 'o' Brady's", "brand:wikidata": "Q4879745"}, "geometry": {"type": "Point", "coordinates": [-82.96434, 30.325539]}},
{"type": "Feature", "id": "xmQrNcOkMmdFP6j99TMK3u_b8vs=", "properties": {"ref": "157", "contact:fax": "(828) 684-2483", "@spider": "beef_o_bradys", "addr:street_address": "2625 Hendersonville Rd", "addr:city": "Arden", "addr:state": "NC", "addr:postcode": "28704-9226", "name": "Arden", "phone": "(828) 684-2295", "website": "https://www.beefobradys.com/Arden", "contact:facebook": "http://www.facebook.com/pages/Beef-O-Bradys-ARDEN-NC/89145665763", "brand": "Beef 'o' Brady's", "brand:wikidata": "Q4879745"}, "geometry": {"type": "Point", "coordinates": [-82.50815, 35.44734]}},
{"type": "Feature", "id": "d2PHADnR_iAlYwBgjiI14_396PE=", "properties": {"ref": "535", "contact:fax": "(352) 493-9696", "@spider": "beef_o_bradys", "addr:street_address": "7050 NW 140th St", "addr:city": "Chiefland", "addr:state": "FL", "addr:postcode": "32626-8166", "name": "Chiefland", "phone": "(352) 493-9664", "website": "https://www.beefobradys.com/Chiefland", "contact:facebook": "http://www.facebook.com/pages/Beef-O-Bradys-Chiefland-FL/154203721313918", "brand": "Beef 'o' Brady's", "brand:wikidata": "Q4879745"}, "geometry": {"type": "Point", "coordinates": [-82.89367, 29.53164]}},
{"type": "Feature", "id": "Igs6iEqi_wFNkMV9dYalIAlPmo8=", "properties": {"ref": "51", "contact:fax": "(386) 754-6861", "@spider": "beef_o_bradys", "addr:street_address": "857 SW Main Blvd Ste 100", "addr:city": "Lake City", "addr:state": "FL", "addr:postcode": "32025-5796", "name": "Lake City", "phone": "(386) 754-6860", "website": "https://www.beefobradys.com/LakeCity", "contact:facebook": "https://www.facebook.com/pages/Beef-O-Bradys-Lake-City/1610174495863887?ref=hl", "brand": "Beef 'o' Brady's", "brand:wikidata": "Q4879745"}, "geometry": {"type": "Point", "coordinates": [-82.64248, 30.17797]}},
{"type": "Feature", "id": "QfD_eGdyCLASWgfKGFUVdTCArso=", "properties": {"ref": "539", "contact:fax": "(423) 245-2338", "@spider": "beef_o_bradys", "addr:street_address": "300 Clinchfield St Ste 180", "addr:city": "Kingsport", "addr:state": "TN", "addr:postcode": "37660-3856", "name": "Kingsport", "phone": "(423) 245-2333", "website": "https://www.beefobradys.com/Kingsport", "contact:facebook": "https://www.facebook.com/pages/Beef-O-Bradys-Kingsport/131480660303372?fref=ts", "brand": "Beef 'o' Brady's", "brand:wikidata": "Q4879745"}, "geometry": {"type": "Point", "coordinates": [-82.56373, 36.55407]}},
{"type": "Feature", "id": "VDaDibkJWnwWdJOqd1cs-OD4oug=", "properties": {"ref": "412", "contact:fax": "(423) 283-9464", "@spider": "beef_o_bradys", "addr:street_address": "2913 Boones Creek Rd", "addr:city": "Johnson City ", "addr:state": "TN", "addr:postcode": "37615-4997", "name": "Gray", "phone": "(423) 282-9464", "website": "https://www.beefobradys.com/Gray", "contact:facebook": "https://www.facebook.com/Beef-O-Bradys-Johnson-City-2074412832861232/", "brand": "Beef 'o' Brady's", "brand:wikidata": "Q4879745"}, "geometry": {"type": "Point", "coordinates": [-82.41957, 36.38416]}},
{"type": "Feature", "id": "K3t__FaC5DuADYcPnEkvv32fYg8=", "properties": {"ref": "317", "contact:fax": "(574) 271-9609", "@spider": "beef_o_bradys", "addr:street_address": "12479 State Rd 23", "addr:city": "Granger", "addr:state": "IN", "addr:postcode": "46530     ", "name": "Granger", "phone": "(574) 271-1415", "website": "https://www.beefobradys.com/Granger", "contact:facebook": "https://www.facebook.com/pages/Beef-O-Bradys/230337490342106?fref=ts", "brand": "Beef 'o' Brady's", "brand:wikidata": "Q4879745"}, "geometry": {"type": "Point", "coordinates": [-86.11782, 41.75361]}},
{"type": "Feature", "id": "UPbaAk_k06CBPXYU_vbOlvz631o=", "properties": {"ref": "60", "contact:fax": "(352) 564-6867", "@spider": "beef_o_bradys", "addr:street_address": "6738 W Gulf To Lake Hwy", "addr:city": "Crystal River", "addr:state": "FL", "addr:postcode": "34429-9348", "name": "Crystal River", "phone": "(352) 564-0544", "website": "https://www.beefobradys.com/CrystalRiver", "contact:facebook": "https://www.facebook.com/pages/Crystal-River-Beef-O-Bradys/106766439364731?fref=ts", "brand": "Beef 'o' Brady's", "brand:wikidata": "Q4879745"}, "geometry": {"type": "Point", "coordinates": [-82.54688, 28.88976]}},
{"type": "Feature", "id": "WnoD6exV4rP13cHSg_TNQvIXt9M=", "properties": {"ref": "589", "contact:fax": "(904) 964-2183", "@spider": "beef_o_bradys", "addr:street_address": "502 N Temple Ave", "addr:city": "Starke", "addr:state": "FL", "addr:postcode": "32091-2610", "name": "Starke", "phone": "(904) 964-2716", "website": "https://www.beefobradys.com/Starke", "contact:facebook": "https://www.facebook.com/starkebeefs/?fref=ts", "brand": "Beef 'o' Brady's", "brand:wikidata": "Q4879745"}, "geometry": {"type": "Point", "coordinates": [-82.109766, 29.949088]}},
{"type": "Feature", "id": "AvFbfMIS5dPfZ2_gGlAROpKBfd8=", "properties": {"ref": "496", "contact:fax": "(352) 402-0083", "@spider": "beef_o_bradys", "addr:street_address": "11100 SW 93rd Court Rd Ste 12", "addr:city": "Ocala ", "addr:state": "FL", "addr:postcode": "34481-5188", "name": "Ocala W.", "phone": "(352) 402-0003", "website": "https://www.beefobradys.com/OcalaW-", "contact:facebook": "https://www.facebook.com/pages/BEEF-O-BRADYS-OCALA-WEST/110458205639760?fref=ts", "brand": "Beef 'o' Brady's", "brand:wikidata": "Q4879745"}, "geometry": {"type": "Point", "coordinates": [-82.3526, 29.16254]}},
{"type": "Feature", "id": "bv7qyU9f7ImHIqWmhNWLvHBNoio=", "properties": {"ref": "596", "contact:fax": " ", "@spider": "beef_o_bradys", "addr:street_address": "5546 Main St", "addr:city": "New Port Richey", "addr:state": "FL", "addr:postcode": "34652-2638", "name": "New Port Richey - Main St", "phone": "(727) 312-3712", "website": "https://www.beefobradys.com/NewPortRicheyMainSt", "contact:facebook": "https://www.facebook.com/Beef-O-Bradys-New-Port-Richey-Main-St-1655204764791686/?fref=ts", "brand": "Beef 'o' Brady's", "brand:wikidata": "Q4879745"}, "geometry": {"type": "Point", "coordinates": [-82.722158, 28.249916]}},
{"type": "Feature", "id": "6VLQSjr8F52dBWESwNdwxe8HWT0=", "properties": {"ref": "24", "contact:fax": "(727) 841-7571", "@spider": "beef_o_bradys", "addr:street_address": "8717 Little Rd Ste 6", "addr:city": "New Port Richey", "addr:state": "FL", "addr:postcode": "34654-4949", "name": "New Port Richey", "phone": "(727) 842-4757", "website": "https://www.beefobradys.com/NewPortRichey", "brand": "Beef 'o' Brady's", "brand:wikidata": "Q4879745"}, "geometry": {"type": "Point", "coordinates": [-82.67595, 28.28331]}},
{"type": "Feature", "id": "xePTqOnj2HDVB1lvQ21R7Ji3OY8=", "properties": {"ref": "514", "contact:fax": "(763) 295-2999", "@spider": "beef_o_bradys", "addr:street_address": "254 W Broadway St", "addr:city": "Monticello", "addr:state": "MN", "addr:postcode": "55362-9353", "name": "Monticello", "phone": "(763) 295-2952", "website": "https://www.beefobradys.com/Monticello", "contact:facebook": "https://www.facebook.com/pages/BEEF-O-BRADYS-MONTICELLO-MN/112658092114970?fref=ts", "brand": "Beef 'o' Brady's", "brand:wikidata": "Q4879745"}, "geometry": {"type": "Point", "coordinates": [-93.79616, 45.30626]}},
{"type": "Feature", "id": "qFCsiuKw9VH2QfzFijivBFSZ7JA=", "properties": {"ref": "540", "contact:fax": "(727) 379-9440", "@spider": "beef_o_bradys", "addr:street_address": "14851 State Road 52", "addr:city": "Hudson", "addr:state": "FL", "addr:postcode": "34669-4061", "name": "Hudson", "phone": "(727) 379-9464", "website": "https://www.beefobradys.com/Hudson", "contact:facebook": "https://www.facebook.com/beefshudson", "brand": "Beef 'o' Brady's", "brand:wikidata": "Q4879745"}, "geometry": {"type": "Point", "coordinates": [-82.63329, 28.33421]}},
{"type": "Feature", "id": "Ef1MbKVyqnuKdWW1C8fQt9LG328=", "properties": {"ref": "469", "contact:fax": "(763) 434-2707", "@spider": "beef_o_bradys", "addr:street_address": "15190 Bluebird St NW Ste 114", "addr:city": "Andover", "addr:state": "MN", "addr:postcode": "55304-3544", "name": "Andover", "phone": "(763) 434-2700", "website": "https://www.beefobradys.com/Andover", "contact:facebook": "https://www.facebook.com/andoverbeefs?fref=ts", "brand": "Beef 'o' Brady's", "brand:wikidata": "Q4879745"}, "geometry": {"type": "Point", "coordinates": [-93.30278, 45.24614]}},
{"type": "Feature", "id": "67d0UAnWscaQrOF_k2GdMZo8aWE=", "properties": {"ref": "473", "contact:fax": "(352) 666-4086", "@spider": "beef_o_bradys", "addr:street_address": "14387 Spring Hill Dr Ste 400", "addr:city": "Spring Hill", "addr:state": "FL", "addr:postcode": "34609-8199", "name": "Spring Hill 2", "phone": "(352) 777-4933", "website": "https://www.beefobradys.com/SpringHill2", "contact:facebook": "https://www.facebook.com/pages/Beef-O-Bradys-Barclay-Crossing/321487624800", "brand": "Beef 'o' Brady's", "brand:wikidata": "Q4879745"}, "geometry": {"type": "Point", "coordinates": [-82.48881, 28.47716]}},
{"type": "Feature", "id": "N3nc2gYSksRcwFys5cK4RJ8epEs=", "properties": {"ref": "200", "contact:fax": "(352) 797-9463", "@spider": "beef_o_bradys", "addr:street_address": "7601 Horse Lake Rd", "addr:city": "Brooksville", "addr:state": "FL", "addr:postcode": "34601-9021", "name": "Brooksville II", "phone": "(352) 797-9464", "website": "https://www.beefobradys.com/BrooksvilleII", "contact:facebook": "https://www.facebook.com/pages/Beef-O-Bradys-Horse-Lake-Rd/169741569702794?fref=ts ", "brand": "Beef 'o' Brady's", "brand:wikidata": "Q4879745"}, "geometry": {"type": "Point", "coordinates": [-82.4143, 28.54092]}},
{"type": "Feature", "id": "LS-umIS_TTbr8WRj6N2YVP9DAKU=", "properties": {"ref": "566", "contact:fax": "(763) 753-8000\r\n", "@spider": "beef_o_bradys", "addr:street_address": "23212 Saint Francis Blvd NW Ste 700", "addr:city": "St. Francis", "addr:state": "MN", "addr:postcode": "55070-2304", "name": "St. Francis", "phone": "(763) 753-8000\r\n", "website": "https://www.beefobradys.com/St-Francis", "contact:facebook": "https://www.facebook.com/pages/Beef-O-Bradys-St-Francis/504315762925138?fref=ts", "brand": "Beef 'o' Brady's", "brand:wikidata": "Q4879745"}, "geometry": {"type": "Point", "coordinates": [-93.36786, 45.39147]}},
{"type": "Feature", "id": "wOGTWlAii080USwKXKmzX_gBtmA=", "properties": {"ref": "227", "contact:fax": "(813) 792-8928", "@spider": "beef_o_bradys", "addr:street_address": "8568 Gunn Hwy", "addr:city": "Odessa", "addr:state": "FL", "addr:postcode": "33556-3289", "name": "Citrus Park", "phone": "(813) 920-6525", "website": "https://www.beefobradys.com/CitrusPark", "contact:facebook": "https://www.facebook.com/BeefsCitrusPark?fref=ts", "brand": "Beef 'o' Brady's", "brand:wikidata": "Q4879745"}, "geometry": {"type": "Point", "coordinates": [-82.57904, 28.09303]}},
{"type": "Feature", "id": "TuVUMExC2eoPZ2v-0fVgfDOKGB0=", "properties": {"ref": "517", "contact:fax": "(813) 428-6929", "@spider": "beef_o_bradys", "addr:street_address": "18835 State Road 54", "addr:city": "Lutz", "addr:state": "FL", "addr:postcode": "33558-8201", "name": "Sun Lake (Lutz)", "phone": "(813) 428-6928", "website": "https://www.beefobradys.com/SunLake-Lutz", "contact:facebook": "https://www.facebook.com/beefssunlakeofficial", "brand": "Beef 'o' Brady's", "brand:wikidata": "Q4879745"}, "geometry": {"type": "Point", "coordinates": [-82.51397, 28.19526]}},
{"type": "Feature", "id": "474qOtIUQ0gZlOabzFm9PtkFrDw=", "properties": {"ref": "430", "contact:fax": null, "@spider": "beef_o_bradys", "addr:street_address": "3434 E Silver Springs Blvd", "addr:city": "Ocala", "addr:state": "FL", "addr:postcode": "34470-6406", "name": "Ocala", "phone": "(352) 622-4200", "website": "https://www.beefobradys.com/Ocala", "contact:facebook": "https://www.facebook.com/BeefsOcalaEast/", "brand": "Beef 'o' Brady's", "brand:wikidata": "Q4879745"}, "geometry": {"type": "Point", "coordinates": [-82.089318, 29.1944385]}},
{"type": "Feature", "id": "htbsFxL4r8CrUlEBikqEMgjF-o8=", "properties": {"ref": "429", "contact:fax": "(813) 388-6894", "@spider": "beef_o_bradys", "addr:street_address": "7040 Land O Lakes Blvd Unit 108", "addr:city": "Land O' Lakes", "addr:state": "FL", "addr:postcode": "34638-3201", "name": "Lake Wilderness", "phone": "(813) 388-6893", "website": "https://www.beefobradys.com/LakeWilderness", "brand": "Beef 'o' Brady's", "brand:wikidata": "Q4879745"}, "geometry": {"type": "Point", "coordinates": [-82.47351, 28.25754]}},
{"type": "Feature", "id": "nWnnbNqQUJyoySyxm3HRAWb90EE=", "properties": {"ref": "6", "contact:fax": "(813) 969-1886", "@spider": "beef_o_bradys", "addr:street_address": "15784 N Dale Mabry Hwy", "addr:city": "Tampa", "addr:state": "FL", "addr:postcode": "33618-1608", "name": "Northdale", "phone": "(813) 969-4647", "website": "https://www.beefobradys.com/Northdale", "contact:facebook": "https://www.facebook.com/BeefsNorthdale?fref=ts", "brand": "Beef 'o' Brady's", "brand:wikidata": "Q4879745"}, "geometry": {"type": "Point", "coordinates": [-82.50224, 28.09633]}},
{"type": "Feature", "id": "p7DVp6w5129E_hcTffAIcbEhTWc=", "properties": {"ref": "137", "contact:fax": "(727) 867-4720", "@spider": "beef_o_bradys", "addr:street_address": "4775 34th St S", "addr:city": "St. Petersburg", "addr:state": "FL", "addr:postcode": "33711-4507", "name": "South St. Pete", "phone": "(727) 866-1086", "website": "https://www.beefobradys.com/SouthSt-Pete", "contact:facebook": "https://www.facebook.com/BeefsSouthStPete", "brand": "Beef 'o' Brady's", "brand:wikidata": "Q4879745"}, "geometry": {"type": "Point", "coordinates": [-82.6801622, 27.7246893]}},
{"type": "Feature", "id": "gJeBCRuVUb-bIbEwn0Ve63l8sdo=", "properties": {"ref": "102", "contact:fax": "(813) 909-2053", "@spider": "beef_o_bradys", "addr:street_address": "18421 N US Highway 41", "addr:city": "Lutz", "addr:state": "FL", "addr:postcode": "33549-4470", "name": "Lutz", "phone": "(813) 909-2300", "website": "https://www.beefobradys.com/Lutz", "contact:facebook": "https://www.facebook.com/pages/Lutz-Beef-O-Bradys/111861648842689?fref=ts", "brand": "Beef 'o' Brady's", "brand:wikidata": "Q4879745"}, "geometry": {"type": "Point", "coordinates": [-82.46262, 28.14071]}},
{"type": "Feature", "id": "zUQl8BDx1if8J_vlOqIEwG5Hytk=", "properties": {"ref": "59", "contact:fax": "(813) 936-2078", "@spider": "beef_o_bradys", "addr:street_address": "8810 N Himes Ave", "addr:city": "Tampa", "addr:state": "FL", "addr:postcode": "33614-1627", "name": "Forest Hills", "phone": "(813) 936-2058", "website": "https://www.beefobradys.com/ForestHills", "contact:facebook": "https://www.facebook.com/pages/Beef-O-Bradys-Forest-Hills/186662358032308?fref=ts", "brand": "Beef 'o' Brady's", "brand:wikidata": "Q4879745"}, "geometry": {"type": "Point", "coordinates": [-82.50076, 28.03564]}},
{"type": "Feature", "id": "xTmOMg_qAYtrkv5b43xmvrQuOJw=", "properties": {"ref": "49", "contact:fax": "(813) 994-1411", "@spider": "beef_o_bradys", "addr:street_address": "27315 State Road 54", "addr:city": "Wesley Chapel", "addr:state": "FL", "addr:postcode": "33544-7428", "name": "Wesley Chapel", "phone": "(813) 994-1511", "website": "https://www.beefobradys.com/WesleyChapel", "contact:facebook": "https://www.facebook.com/pages/Wesley-Chapel-Beef-O-Bradys/162419370437711?fref=ts", "brand": "Beef 'o' Brady's", "brand:wikidata": "Q4879745"}, "geometry": {"type": "Point", "coordinates": [-82.36686, 28.23098]}},
{"type": "Feature", "id": "KGmt8j-BFWsvdxPpSKJeuzXHds8=", "properties": {"ref": "463", "contact:fax": "(352) 345-4821", "@spider": "beef_o_bradys", "addr:street_address": "31120 Cortez Blvd", "addr:city": "Brooksville", "addr:state": "FL", "addr:postcode": "34602-7548", "name": "Ridge Manor at I-75 & Cortez Rd", "phone": "(352) 345-4819", "website": "https://www.beefobradys.com/RidgeManor", "brand": "Beef 'o' Brady's", "brand:wikidata": "Q4879745"}, "geometry": {"type": "Point", "coordinates": [-82.22298, 28.52299]}},
{"type": "Feature", "id": "fTfI7vohg4Z6fhajMFlaC5lWWYI=", "properties": {"ref": "9", "contact:fax": "(813) 832-3594", "@spider": "beef_o_bradys", "addr:street_address": "2819 S Macdill Ave", "addr:city": "Tampa", "addr:state": "FL", "addr:postcode": "33629-7288", "name": "Palma Ceia", "phone": "(813) 835-9464", "website": "https://www.beefobradys.com/PalmaCeia", "contact:facebook": "http://www.facebook.com/pages/Beef-O-Bradys-South-Tampa/337390979823?ref=ts&v=wall", "brand": "Beef 'o' Brady's", "brand:wikidata": "Q4879745"}, "geometry": {"type": "Point", "coordinates": [-82.4937, 27.92037]}},
{"type": "Feature", "id": "sPfmwINVarm64RulJVfRgPm-YYI=", "properties": {"ref": "180", "contact:fax": "(813) 973-2517", "@spider": "beef_o_bradys", "addr:street_address": "1660 Bruce B Downs Blvd", "addr:city": "Wesley Chapel", "addr:state": "FL", "addr:postcode": "33544-8600", "name": "Beef's Wesley Chapel at Wiregrass", "phone": "(813) 929-7744", "website": "https://www.beefobradys.com/WesleyChapelatWiregrass", "contact:facebook": "https://www.facebook.com/pages/Beef-O-Bradys-Wesley-Chapel-South/284608474095?fref=ts", "brand": "Beef 'o' Brady's", "brand:wikidata": "Q4879745"}, "geometry": {"type": "Point", "coordinates": [-82.36147, 28.18732]}},
{"type": "Feature", "id": "wdBlV56x1tQlS3y0fo-0UJc5Zjo=", "properties": {"ref": "289", "contact:fax": "(352) 568-7002", "@spider": "beef_o_bradys", "addr:street_address": "2586 W C 48", "addr:city": "Bushnell", "addr:state": "FL", "addr:postcode": "33513-8386", "name": "Bushnell", "phone": "(352) 568-7000", "website": "https://www.beefobradys.com/Bushnell", "brand": "Beef 'o' Brady's", "brand:wikidata": "Q4879745"}, "geometry": {"type": "Point", "coordinates": [-82.1466721, 28.6693805]}},
{"type": "Feature", "id": "_IXN7HIHhphBgaHoo_p1IDhdKj8=", "properties": {"ref": "97", "contact:fax": null, "@spider": "beef_o_bradys", "addr:street_address": "8720 SE 165th Mulberry Ln", "addr:city": "The Villages", "addr:state": "FL", "addr:postcode": "32162-5861", "name": "Villages 1", "phone": "(352) 259-1536", "website": "https://www.beefobradys.com/Villages1", "contact:facebook": "https://www.facebook.com/BeefsMulberryGrove/", "brand": "Beef 'o' Brady's", "brand:wikidata": "Q4879745"}, "geometry": {"type": "Point", "coordinates": [-82.00747, 28.98109]}},
{"type": "Feature", "id": "oCoBx76kNM5U_Holp29RgjRTpMw=", "properties": {"ref": "156", "contact:fax": null, "@spider": "beef_o_bradys", "addr:street_address": "3539 Wedgewood Ln", "addr:city": "The Villages", "addr:state": "FL", "addr:postcode": "32162-7188", "name": "Southern Trace", "phone": "(352) 751-7169", "website": "https://www.beefobradys.com/SouthernTrace", "contact:facebook": "https://www.facebook.com/BeefsHomeOffice", "brand": "Beef 'o' Brady's", "brand:wikidata": "Q4879745"}, "geometry": {"type": "Point", "coordinates": [-82.01112, 28.95052]}},
{"type": "Feature", "id": "idik3mY8dgokEx4H3KRFLzT52tU=", "properties": {"ref": "373", "contact:fax": "(352) 567-4138", "@spider": "beef_o_bradys", "addr:street_address": "14136 7th St", "addr:city": "Dade City", "addr:state": "FL", "addr:postcode": "33525-3829", "name": "Dade City", "phone": "(352) 567-4136", "website": "https://www.beefobradys.com/DadeCity", "contact:facebook": "http://www.facebook.com/dcbeefs", "brand": "Beef 'o' Brady's", "brand:wikidata": "Q4879745"}, "geometry": {"type": "Point", "coordinates": [-82.18899, 28.36389]}},
{"type": "Feature", "id": "A9oAlPBAL5rJGCp7fO8qMPguxCA=", "properties": {"ref": "350", "contact:fax": "(352) 750-5980", "@spider": "beef_o_bradys", "addr:street_address": "353 Colony Blvd Ste 100", "addr:city": "The Villages", "addr:state": "FL", "addr:postcode": "32162-6083", "name": "Colony Plaza", "phone": "(352) 750-5975", "website": "https://www.beefobradys.com/ColonyPlaza", "contact:facebook": "https://www.facebook.com/BeefsHomeOffice", "brand": "Beef 'o' Brady's", "brand:wikidata": "Q4879745"}, "geometry": {"type": "Point", "coordinates": [-81.96319, 28.89584]}},
{"type": "Feature", "id": "WMw1mvQ28mOb8AZE2H-edslP1sM=", "properties": {"ref": "560", "contact:fax": "(941) 798-6960\r\n", "@spider": "beef_o_bradys", "addr:street_address": "4925 Cortez Rd W", "addr:city": "Bradenton", "addr:state": "FL", "addr:postcode": "34210-2806", "name": "Bradenton", "phone": "(941) 798-6939\r\n", "website": "https://www.beefobradys.com/Bradenton", "contact:facebook": "https://www.facebook.com/bradenton.beefs.1", "brand": "Beef 'o' Brady's", "brand:wikidata": "Q4879745"}, "geometry": {"type": "Point", "coordinates": [-82.61072, 27.46233]}},
{"type": "Feature", "id": "-ffwAukbYXfqbHIQyEsvLHWPNHo=", "properties": {"ref": "247", "contact:fax": "(614) 529-9407", "@spider": "beef_o_bradys", "addr:street_address": "6340 Scioto Darby Rd", "addr:city": "Hilliard", "addr:state": "OH", "addr:postcode": "43026-9726", "name": "Hilliard", "phone": "(614) 529-9464", "website": "https://www.beefobradys.com/Hilliard", "contact:facebook": "https://www.facebook.com/beefobradyshilliard?fref=ts", "brand": "Beef 'o' Brady's", "brand:wikidata": "Q4879745"}, "geometry": {"type": "Point", "coordinates": [-83.17921, 40.03299]}},
{"type": "Feature", "id": "I9JpTG7sfQGfPfcK5Leu-D9mdKg=", "properties": {"ref": "11", "contact:fax": "(813) 643-1969", "@spider": "beef_o_bradys", "addr:street_address": "7833 Gall Blvd", "addr:city": "Zephyrhills", "addr:state": "FL", "addr:postcode": "33541-4317", "name": "Zephyrhills", "phone": "(813) 780-7717", "website": "https://www.beefobradys.com/Zephyrhills", "contact:facebook": "https://www.facebook.com/pages/Beef-O-Bradys-Zephyrhills/979059695439693?ref=hl", "brand": "Beef 'o' Brady's", "brand:wikidata": "Q4879745"}, "geometry": {"type": "Point", "coordinates": [-82.18838, 28.27121]}},
{"type": "Feature", "id": "xV6xW-AW7TZp15KRqZKgALqf2cU=", "properties": {"ref": "2", "contact:fax": "(813) 645-1722", "@spider": "beef_o_bradys", "addr:street_address": "205 Apollo Beach Blvd", "addr:city": "Apollo Beach", "addr:state": "FL", "addr:postcode": "33572-2299", "name": "Apollo Beach", "phone": "(813) 641-1989", "website": "https://www.beefobradys.com/apollobeach", "contact:facebook": "https://www.facebook.com/BeefsApolloBeach", "brand": "Beef 'o' Brady's", "brand:wikidata": "Q4879745"}, "geometry": {"type": "Point", "coordinates": [-82.39414, 27.77098]}},
{"type": "Feature", "id": "C-mk4cjuYt3UuitbeJi9OTpXdHM=", "properties": {"ref": "21", "contact:fax": "(813) 643-1969", "@spider": "beef_o_bradys", "addr:street_address": "812 W Dr Martin Luther King Jr Blvd", "addr:city": "Seffner", "addr:state": "FL", "addr:postcode": "33584-4583", "name": "Seffner", "phone": "(813) 661-7343", "website": "https://www.beefobradys.com/Seffner", "contact:facebook": "https://www.facebook.com/BeefsHomeOffice", "brand": "Beef 'o' Brady's", "brand:wikidata": "Q4879745"}, "geometry": {"type": "Point", "coordinates": [-82.2886276, 27.9810619]}},
{"type": "Feature", "id": "QQ6TSQSNfA4IYqwTrobwXyg6Pjw=", "properties": {"ref": "1", "contact:fax": "(813) 689-2926", "@spider": "beef_o_bradys", "addr:street_address": "210 S Kings Ave", "addr:city": "Brandon", "addr:state": "FL", "addr:postcode": "33511-5705", "name": "Brandon", "phone": "(813) 681-3428", "website": "https://www.beefobradys.com/brandon", "contact:facebook": "http://www.facebook.com/pages/Beef-O-Bradys-the-Original/92313376243?ref=ts", "brand": "Beef 'o' Brady's", "brand:wikidata": "Q4879745"}, "geometry": {"type": "Point", "coordinates": [-82.29402, 27.93575]}},
{"type": "Feature", "id": "CwcDq0SVoVlvRiYghonQIjmw6hs=", "properties": {"ref": "27", "contact:fax": "(813) 671-5558", "@spider": "beef_o_bradys", "addr:street_address": "9622 US Highway 301 S", "addr:city": "Riverview", "addr:state": "FL", "addr:postcode": "33569     ", "name": "Riverview", "phone": "(813) 672-9464", "website": "https://www.beefobradys.com/Riverview", "contact:facebook": "https://www.facebook.com/BeefsRiverview", "brand": "Beef 'o' Brady's", "brand:wikidata": "Q4879745"}, "geometry": {"type": "Point", "coordinates": [-82.3251, 27.859063]}},
{"type": "Feature", "id": "OEpPCu-N9VXNtsRtR6HW3rXDsBg=", "properties": {"ref": "91", "contact:fax": "(813) 633-8443", "@spider": "beef_o_bradys", "addr:street_address": "723 Cypress Village Blvd", "addr:city": "Ruskin", "addr:state": "FL", "addr:postcode": "33573-6801", "name": "Sun City Center", "phone": "(813) 633-2333", "website": "https://www.beefobradys.com/SunCityCenter", "contact:facebook": "https://www.facebook.com/pages/Beef-O-Bradys-Sun-City-Center-Ruskin/120347544643879", "brand": "Beef 'o' Brady's", "brand:wikidata": "Q4879745"}, "geometry": {"type": "Point", "coordinates": [-82.38038, 27.71984]}},
{"type": "Feature", "id": "DA_tEEtYlMG77r47QqkMOEdvRF0=", "properties": {"ref": "264", "contact:fax": "(813) 672-4277", "@spider": "beef_o_bradys", "addr:street_address": "13326 Lincoln Rd", "addr:city": "Riverview", "addr:state": "FL", "addr:postcode": "33578-7506", "name": "Summerfield", "phone": "(813) 672-4411", "website": "https://www.beefobradys.com/Summerfield", "contact:facebook": "https://www.facebook.com/summerfield.beefobradys?fref=ts", "brand": "Beef 'o' Brady's", "brand:wikidata": "Q4879745"}, "geometry": {"type": "Point", "coordinates": [-82.34164, 27.79048]}},
{"type": "Feature", "id": "4LBoaGollKr0EDfzZ7LsKamB4vo=", "properties": {"ref": "413", "contact:fax": "(941) 896-8805", "@spider": "beef_o_bradys", "addr:street_address": "4286 53rd Ave E", "addr:city": "Bradenton", "addr:state": "FL", "addr:postcode": "34203-8097", "name": "Bradenton (Lockwood Ridge)", "phone": "(941) 896-3992", "website": "https://www.beefobradys.com/Bradenton-Lockwoodridge", "contact:facebook": "https://www.facebook.com/BeefsLockwood", "brand": "Beef 'o' Brady's", "brand:wikidata": "Q4879745"}, "geometry": {"type": "Point", "coordinates": [-82.5073886, 27.4449155]}},
{"type": "Feature", "id": "fLf8E9iAEaF74Ett7MaSVQ2-3x0=", "properties": {"ref": "611", "contact:fax": null, "@spider": "beef_o_bradys", "addr:street_address": "889 E Bloomingdale Ave", "addr:city": "Brandon", "addr:state": "FL", "addr:postcode": "33511-8113", "name": "Bloomingdale", "phone": "(813) 564-8894", "website": "https://www.beefobradys.com/Bloomingdale", "brand": "Beef 'o' Brady's", "brand:wikidata": "Q4879745"}, "geometry": {"type": "Point", "coordinates": [-82.27, 27.891]}},
{"type": "Feature", "id": "4fB9w40huvp1lXvCCfB4VSY1sRk=", "properties": {"ref": "73", "contact:fax": "(813) 685-6481", "@spider": "beef_o_bradys", "addr:street_address": "2561 E State Road 60", "addr:city": "Valrico", "addr:state": "FL", "addr:postcode": "33594-3830", "name": "Valrico", "phone": "(813) 655-1055", "website": "https://www.beefobradys.com/valrico", "brand": "Beef 'o' Brady's", "brand:wikidata": "Q4879745"}, "geometry": {"type": "Point", "coordinates": [-82.24364, 27.9378]}},
{"type": "Feature", "id": "H23WoiakuNRrieB-ku9lBkrscis=", "properties": {"ref": "415", "contact:fax": "(941) 776-0054", "@spider": "beef_o_bradys", "addr:street_address": "8913 US 301 North", "addr:city": "Parrish", "addr:state": "FL", "addr:postcode": "34219     ", "name": "Parrish", "phone": "(941) 776-0053", "website": "https://www.beefobradys.com/Parrish", "contact:facebook": "https://www.facebook.com/beefobradysparrish", "brand": "Beef 'o' Brady's", "brand:wikidata": "Q4879745"}, "geometry": {"type": "Point", "coordinates": [-82.41644, 27.55909]}},
{"type": "Feature", "id": "WCOJk0GWQUO3WqLKP7YPZrgTi4U=", "properties": {"ref": "590", "contact:fax": " ", "@spider": "beef_o_bradys", "addr:street_address": "4561 Hard Scrabble Rd", "addr:city": "Columbia", "addr:state": "SC", "addr:postcode": "29229-9464", "name": "Columbia", "phone": "(803) 708-0260", "website": "https://www.beefobradys.com/Columbia", "contact:facebook": "https://www.facebook.com/pages/Beef-O-Bradys-Columbia/936411016404141?rf=177073015693223", "brand": "Beef 'o' Brady's", "brand:wikidata": "Q4879745"}, "geometry": {"type": "Point", "coordinates": [-80.912346, 34.150443]}},
{"type": "Feature", "id": "BRPav88jpbL0iA8fw2_BsBLLuJw=", "properties": {"ref": "67", "contact:fax": "(941) 744-1109", "@spider": "beef_o_bradys", "addr:street_address": "1795 Lakewood Ranch Blvd", "addr:city": "Bradenton", "addr:state": "FL", "addr:postcode": "34211-4906", "name": "Lakewood Ranch", "phone": "(941) 744-1155", "website": "https://www.beefobradys.com/LakewoodRanch", "contact:facebook": "https://www.facebook.com/beefs.lakewoodranch", "brand": "Beef 'o' Brady's", "brand:wikidata": "Q4879745"}, "geometry": {"type": "Point", "coordinates": [-82.43709, 27.48193]}},
{"type": "Feature", "id": "E-rfDN2BbsrXduEK539lh0BtiFk=", "properties": {"ref": "25", "contact:fax": "(352) 728-5029", "@spider": "beef_o_bradys", "addr:street_address": "27405 US Highway 27 Ste 109", "addr:city": "Leesburg", "addr:state": "FL", "addr:postcode": "34748-7914", "name": "Leesburg", "phone": "(352) 728-3233", "website": "https://www.beefobradys.com/Leesburg", "contact:facebook": "https://www.facebook.com/BeefsHomeOffice", "brand": "Beef 'o' Brady's", "brand:wikidata": "Q4879745"}, "geometry": {"type": "Point", "coordinates": [-81.8548, 28.66305]}},
{"type": "Feature", "id": "VLTYvT_Y32R4c5NX8qNS_JvVkHA=", "properties": {"ref": "50", "contact:fax": "(813) 651-0836", "@spider": "beef_o_bradys", "addr:street_address": "16773 Fishhawk Blvd # 1677", "addr:city": "Lithia", "addr:state": "FL", "addr:postcode": "33547-3860", "name": "Fishhawk", "phone": "(813) 651-0388", "website": "https://www.beefobradys.com/Fishhawk", "brand": "Beef 'o' Brady's", "brand:wikidata": "Q4879745"}, "geometry": {"type": "Point", "coordinates": [-82.2043418, 27.8565186]}},
{"type": "Feature", "id": "NKIXZgymFOav68rhCdsl6vQXnp4=", "properties": {"ref": "4", "contact:fax": "(813) 757-0254", "@spider": "beef_o_bradys", "addr:street_address": "2418 James L Redman Pkwy", "addr:city": "Plant City", "addr:state": "FL", "addr:postcode": "33566-7111", "name": "Plant City", "phone": "(813) 757-0300", "website": "https://www.beefobradys.com/PlantCity", "contact:facebook": "https://www.facebook.com/BeefsPlantCity", "brand": "Beef 'o' Brady's", "brand:wikidata": "Q4879745"}, "geometry": {"type": "Point", "coordinates": [-82.12152, 27.98728]}},
{"type": "Feature", "id": "zJmnTvnBPGZKnm6gVfeSWHFINXo=", "properties": {"ref": "22", "contact:fax": "(863) 853-9745", "@spider": "beef_o_bradys", "addr:street_address": "1070 Wedgewood Estates Blvd", "addr:city": "Lakeland", "addr:state": "FL", "addr:postcode": "33809-4038", "name": "North Lakeland", "phone": "(863) 853-9464", "website": "https://www.beefobradys.com/NorthLakeland", "contact:facebook": "https://www.facebook.com/pages/BEEFS-North-Lakeland/120554864641969?fref=ts&rf=195373073855235", "brand": "Beef 'o' Brady's", "brand:wikidata": "Q4879745"}, "geometry": {"type": "Point", "coordinates": [-81.97048, 28.09666]}},
{"type": "Feature", "id": "Brqfk2ewS1sYqu1OIDEPie5Z_sE=", "properties": {"ref": "524", "contact:fax": "(352) 394-4041", "@spider": "beef_o_bradys", "addr:street_address": "1642 E Highway 50", "addr:city": "Clermont", "addr:state": "FL", "addr:postcode": "34711-5156", "name": "Clermont", "phone": "(352) 242-9700", "website": "https://www.beefobradys.com/Clermont", "contact:facebook": "https://www.facebook.com/ClermontBeefs/", "brand": "Beef 'o' Brady's", "brand:wikidata": "Q4879745"}, "geometry": {"type": "Point", "coordinates": [-81.72732, 28.55434]}},
{"type": "Feature", "id": "I7qJP1y3BF0lYoGDbYMI1zOR40o=", "properties": {"ref": "581", "contact:fax": " ", "@spider": "beef_o_bradys", "addr:street_address": "6551 N Orange Blossom Trl", "addr:city": "Mount Dora", "addr:state": "FL", "addr:postcode": "32757-7013", "name": "Mount Dora", "phone": "(352) 735-3810", "website": "https://www.beefobradys.com/mountdora", "contact:facebook": "https://www.facebook.com/pages/Beef-O-Bradys-Mount-Dora/1544594279086678", "brand": "Beef 'o' Brady's", "brand:wikidata": "Q4879745"}, "geometry": {"type": "Point", "coordinates": [-81.6233325, 28.7807684]}},
{"type": "Feature", "id": "YS5Ge18gzp7lRqwQnYuISv-lvTQ=", "properties": {"ref": "5", "contact:fax": "(863) 646-2256", "@spider": "beef_o_bradys", "addr:street_address": "4810 S Florida Ave", "addr:city": "Lakeland", "addr:state": "FL", "addr:postcode": "33813-2167", "name": "South Lakeland", "phone": "(863) 646-7757", "website": "https://www.beefobradys.com/SouthLakeland", "contact:facebook": "http://www.facebook.com/beefobradyslakelandsouth", "brand": "Beef 'o' Brady's", "brand:wikidata": "Q4879745"}, "geometry": {"type": "Point", "coordinates": [-81.95832, 27.97793]}},
{"type": "Feature", "id": "iFwgkrqAUeB1hv9mbxOdUoyMq-8=", "properties": {"ref": "61", "contact:fax": "(863) 968-1310", "@spider": "beef_o_bradys", "addr:street_address": "102 W Polk St", "addr:city": "Auburndale", "addr:state": "FL", "addr:postcode": "33823-3428", "name": "Auburndale", "phone": "(863) 968-0010", "website": "https://www.beefobradys.com/Auburndale", "contact:facebook": "https://www.facebook.com/beefsadale/", "brand": "Beef 'o' Brady's", "brand:wikidata": "Q4879745"}, "geometry": {"type": "Point", "coordinates": [-81.7875224, 28.066064]}},
{"type": "Feature", "id": "K47h8uGOKSKPboIjSapHZ6QrK_w=", "properties": {"ref": "119", "contact:fax": "(407) 880-6774", "@spider": "beef_o_bradys", "addr:street_address": "1410 Rock Springs Rd", "addr:city": "Apopka", "addr:state": "FL", "addr:postcode": "32712-2306", "name": "Apopka", "phone": "(407) 880-6777", "website": "https://www.beefobradys.com/Apopka", "contact:facebook": "https://www.facebook.com/beefsapopka.fl?fref=ts", "brand": "Beef 'o' Brady's", "brand:wikidata": "Q4879745"}, "geometry": {"type": "Point", "coordinates": [-81.50933, 28.70692]}},
{"type": "Feature", "id": "e_Er63FqKXCcCiK18m3FI34M-Uc=", "properties": {"ref": "144", "contact:fax": "(863) 534-3388", "@spider": "beef_o_bradys", "addr:street_address": "120 E Van Fleet Dr", "addr:city": "Bartow", "addr:state": "FL", "addr:postcode": "33830-3828", "name": "Bartow", "phone": "(863) 534-3111", "website": "https://www.beefobradys.com/Bartow", "contact:facebook": "https://www.facebook.com/pages/Beef-O-Bradys-Bartow-Fl/113183588707358?fref=ts", "brand": "Beef 'o' Brady's", "brand:wikidata": "Q4879745"}, "geometry": {"type": "Point", "coordinates": [-81.8431, 27.90419]}},
{"type": "Feature", "id": "zEk6NTRhS53Ig_0KjmLDlAwv7NU=", "properties": {"ref": "126", "contact:fax": "(863) 420-3448", "@spider": "beef_o_bradys", "addr:street_address": "45653 Highway 27", "addr:city": "Davenport", "addr:state": "FL", "addr:postcode": "33897-4546", "name": "Davenport", "phone": "(863) 420-3350", "website": "https://www.beefobradys.com/Davenport", "contact:facebook": "https://www.facebook.com/Beef-O-Bradys-Davenport-FL-150187254992777/", "brand": "Beef 'o' Brady's", "brand:wikidata": "Q4879745"}, "geometry": {"type": "Point", "coordinates": [-81.6581, 28.25632]}},
{"type": "Feature", "id": "K2dyKzVOq5g5oLA9VDTH18nzRDU=", "properties": {"ref": "230", "contact:fax": "(941) 426-3654", "@spider": "beef_o_bradys", "addr:street_address": "1037 N Sumter Blvd", "addr:city": "North Port", "addr:state": "FL", "addr:postcode": "34286-8073", "name": "North Port", "phone": "(941) 426-3570", "website": "https://www.beefobradys.com/NorthPort", "contact:facebook": "https://www.facebook.com/NorthPortBeefs?fref=ts", "brand": "Beef 'o' Brady's", "brand:wikidata": "Q4879745"}, "geometry": {"type": "Point", "coordinates": [-82.20883, 27.06855]}},
{"type": "Feature", "id": "v8dwpK4lRQMSRXliHUlOm95ep_o=", "properties": {"ref": "8", "contact:fax": "(863) 295-9464", "@spider": "beef_o_bradys", "addr:street_address": "300 Cypress Gardens Blvd", "addr:city": "Winter Haven", "addr:state": "FL", "addr:postcode": "33880-4451", "name": "Winter Haven", "phone": "(863) 293-9464", "website": "https://www.beefobradys.com/WinterHaven", "contact:facebook": "https://www.facebook.com/pages/Beef-O-Bradys-Winter-Haven/130813796952001?fref=ts", "brand": "Beef 'o' Brady's", "brand:wikidata": "Q4879745"}, "geometry": {"type": "Point", "coordinates": [-81.72429, 28.00409]}},
{"type": "Feature", "id": "aHr4iz1D9FZpu3mTd2NaCezXppo=", "properties": {"ref": "178", "contact:fax": "(863) 419-0106", "@spider": "beef_o_bradys", "addr:street_address": "902 Old Polk City Road", "addr:city": "Haines City", "addr:state": "FL", "addr:postcode": "33844     ", "name": "Haines City", "phone": "(863) 419-4848", "website": "https://www.beefobradys.com/HainesCity", "contact:facebook": "https://www.facebook.com/BeefOBradysHainesCity", "brand": "Beef 'o' Brady's", "brand:wikidata": "Q4879745"}, "geometry": {"type": "Point", "coordinates": [-81.58258, 28.10167]}},
{"type": "Feature", "id": "lVzMbkxPv27eWkjKva9aMRb3GMI=", "properties": {"ref": "616", "contact:fax": null, "@spider": "beef_o_bradys", "addr:street_address": "530 S 6th Avenue", "addr:city": "Wauchula", "addr:state": "FL", "addr:postcode": "33873     ", "name": "Wauchula", "phone": "(863) 448-4233", "website": "https://www.beefobradys.com/Wauchula", "contact:facebook": "https://www.facebook.com/WauchulaBeesfs", "brand": "Beef 'o' Brady's", "brand:wikidata": "Q4879745"}, "geometry": {"type": "Point", "coordinates": [-81.81, 27.542]}},
{"type": "Feature", "id": "WkpVvDMJ7HggDK5NqFULZxPmJCo=", "properties": {"ref": "511", "contact:fax": "(386) 789-9404", "@spider": "beef_o_bradys", "addr:street_address": "2160 Howland Blvd", "addr:city": "Deltona", "addr:state": "FL", "addr:postcode": "32738-3467", "name": "Deltona", "phone": "(386) 789-9464", "website": "https://www.beefobradys.com/Deltona", "contact:facebook": "https://www.facebook.com/pages/Beef-O-Bradys/110466725696020?fref=ts   ", "brand": "Beef 'o' Brady's", "brand:wikidata": "Q4879745"}, "geometry": {"type": "Point", "coordinates": [-81.18788, 28.9241]}},
{"type": "Feature", "id": "esRU9OrKjBCLTQl-H9BeAZR_PoU=", "properties": {"ref": "612", "contact:fax": " ", "@spider": "beef_o_bradys", "addr:street_address": "24901 Sandhill Blvd", "addr:city": "Punta Gorda", "addr:state": "FL", "addr:postcode": "33983-5213", "name": "Deep Creek", "phone": "(941) 732-9464", "website": "https://www.beefobradys.com/DeepCreek", "brand": "Beef 'o' Brady's", "brand:wikidata": "Q4879745"}, "geometry": {"type": "Point", "coordinates": [-82.04, 27.016]}},
{"type": "Feature", "id": "8qQL_FlYp7kYnGnAUNZ4gkaS4-0=", "properties": {"ref": "75", "contact:fax": "(863) 679-8056", "@spider": "beef_o_bradys", "addr:street_address": "19598 Hwy 27", "addr:city": "Lake Wales", "addr:state": "FL", "addr:postcode": "33853-2431", "name": "Lake Wales", "phone": "(863) 679-1975", "website": "https://www.beefobradys.com/LakeWales", "contact:facebook": "https://www.facebook.com/LakeWalesBeefs/", "brand": "Beef 'o' Brady's", "brand:wikidata": "Q4879745"}, "geometry": {"type": "Point", "coordinates": [-81.5941, 27.87545]}},
{"type": "Feature", "id": "gOnZJ0yE61dB_JRQK-BOjuvO41E=", "properties": {"ref": "377", "contact:fax": "(941) 505-2331", "@spider": "beef_o_bradys", "addr:street_address": "1105 Taylor St", "addr:city": "Punta Gorda", "addr:state": "FL", "addr:postcode": "33950-6075", "name": "Punta Gorda", "phone": "(941) 505-2333", "website": "https://www.beefobradys.com/PuntaGorda", "contact:facebook": "https://www.facebook.com/pgbeefs?fref=ts", "brand": "Beef 'o' Brady's", "brand:wikidata": "Q4879745"}, "geometry": {"type": "Point", "coordinates": [-82.04533, 26.92664]}},
{"type": "Feature", "id": "YsGaPVB7KsQ-wP-GD_jjZRuFkcA=", "properties": {"ref": "44", "contact:fax": "(407) 366-8939", "@spider": "beef_o_bradys", "addr:street_address": "1817 E Broadway St Bldg 6", "addr:city": "Oviedo", "addr:state": "FL", "addr:postcode": "32765-8597", "name": "Oviedo", "phone": "(407) 366-2333", "website": "https://www.beefobradys.com/Oviedo", "contact:facebook": "https://www.facebook.com/pages/Beef-OBradys-Oviedo/194550736666?fref=ts", "brand": "Beef 'o' Brady's", "brand:wikidata": "Q4879745"}, "geometry": {"type": "Point", "coordinates": [-81.17939, 28.66021]}},
{"type": "Feature", "id": "33Q0m1kcFzJweyhgrfVN6j0pN_Y=", "properties": {"ref": "356", "contact:fax": "(863) 494-9331", "@spider": "beef_o_bradys", "addr:street_address": "1703 E Oak St", "addr:city": "Arcadia", "addr:state": "FL", "addr:postcode": "34266-8925", "name": "Arcadia", "phone": "(863) 494-9333", "website": "https://www.beefobradys.com/Arcadia", "contact:facebook": "https://www.facebook.com/beefsarcadia?fref=ts", "brand": "Beef 'o' Brady's", "brand:wikidata": "Q4879745"}, "geometry": {"type": "Point", "coordinates": [-81.84312, 27.21288]}},
{"type": "Feature", "id": "7gRk7UyRK1LxG-rywPkWZpA7qFM=", "properties": {"ref": "71", "contact:fax": "(407) 891-1400", "@spider": "beef_o_bradys", "addr:street_address": "2926 13th St", "addr:city": "St. Cloud", "addr:state": "FL", "addr:postcode": "34769-5902", "name": "St. Cloud", "phone": "(407) 891-1900", "website": "https://www.beefobradys.com/St-Cloud", "contact:facebook": "https://www.facebook.com/BeefsSt.Cloud/?fref=ts", "brand": "Beef 'o' Brady's", "brand:wikidata": "Q4879745"}, "geometry": {"type": "Point", "coordinates": [-81.30195, 28.24628]}},
{"type": "Feature", "id": "LPu5EabHaJgg--VTNCDWtIsrLeI=", "properties": {"ref": "575", "contact:fax": "(386) 424-9325", "@spider": "beef_o_bradys", "addr:street_address": "1610 S Dixie Fwy", "addr:city": "New Smyrna Beach", "addr:state": "FL", "addr:postcode": "32168-7732", "name": "New Smyrna Beach", "phone": "(386) 424-9292", "website": "https://www.beefobradys.com/NewSmyrnaBeach", "contact:facebook": "https://www.facebook.com/BeefsNSB?fref=ts&rf=111706715534330", "brand": "Beef 'o' Brady's", "brand:wikidata": "Q4879745"}, "geometry": {"type": "Point", "coordinates": [-80.91701, 29.00613]}},
{"type": "Feature", "id": "fhAFW6yWxEO8vblqanC5oK4kdnA=", "properties": {"ref": "283", "contact:fax": "(239) 242-0695", "@spider": "beef_o_bradys", "addr:street_address": "2481 Del Prado Blvd N", "addr:city": "Cape Coral", "addr:state": "FL", "addr:postcode": "33909-4002", "name": "N. Cape Coral", "phone": "(239) 573-6172", "website": "https://www.beefobradys.com/N-CapeCoral", "contact:facebook": "https://www.facebook.com/Beefs.NCapeCoral?fref=ts", "brand": "Beef 'o' Brady's", "brand:wikidata": "Q4879745"}, "geometry": {"type": "Point", "coordinates": [-81.940065, 26.697484]}},
{"type": "Feature", "id": "-AQNa3ZCuG0l8kEE74C0-ygenrM=", "properties": {"ref": "284", "contact:fax": "(239) 283-9994", "@spider": "beef_o_bradys", "addr:street_address": "2514 Santa Barbara Blvd.", "addr:city": "Cape Coral", "addr:state": "FL", "addr:postcode": "33914     ", "name": "Midpoint", "phone": "(239) 574-2060", "website": "https://www.beefobradys.com/midpoint", "contact:facebook": "https://www.facebook.com/Beefs.CapeCoral?fref=ts", "brand": "Beef 'o' Brady's", "brand:wikidata": "Q4879745"}, "geometry": {"type": "Point", "coordinates": [-81.97641, 26.60507]}},
{"type": "Feature", "id": "YhL0CbSz2AujmfHV6Y1aD7-sbnU=", "properties": {"ref": "17", "contact:fax": "(863) 471-2298", "@spider": "beef_o_bradys", "addr:street_address": "2940 US Highway 27 N", "addr:city": "Sebring", "addr:state": "FL", "addr:postcode": "33870-1627", "name": "Sebring", "phone": "(863) 471-2214", "website": "https://www.beefobradys.com/Sebring", "contact:facebook": "https://www.facebook.com/SebringBeefs/", "brand": "Beef 'o' Brady's", "brand:wikidata": "Q4879745"}, "geometry": {"type": "Point", "coordinates": [-81.44245, 27.47118]}},
{"type": "Feature", "id": "oSVkyYHE3kHYDGCPDBIZFBMtozA=", "properties": {"ref": "444", "contact:fax": "(239) 432-9654", "@spider": "beef_o_bradys", "addr:street_address": "11841 Palm Beach Blvd", "addr:city": "Ft. Myers", "addr:state": "FL", "addr:postcode": "33905-5913", "name": "Verandah", "phone": "(239) 267-9236", "website": "https://www.beefobradys.com/Verandah", "contact:facebook": "https://www.facebook.com/pages/Beef-O-Bradys-at-the-Verandah/162447980469322?fref=ts", "brand": "Beef 'o' Brady's", "brand:wikidata": "Q4879745"}, "geometry": {"type": "Point", "coordinates": [-81.77739, 26.69582]}},
{"type": "Feature", "id": "E_Bn4srsz01CY-8mejLFaAozZvQ=", "properties": {"ref": "258", "contact:fax": "(321) 268-5252", "@spider": "beef_o_bradys", "addr:street_address": "2825 Garden St Ste 9", "addr:city": "Titusville", "addr:state": "FL", "addr:postcode": "32796-3186", "name": "Titusville", "phone": "(321) 268-2929", "website": "https://www.beefobradys.com/Titusville", "contact:facebook": "https://www.facebook.com/pages/Beef-O-Bradys-Titusville/1472486733041111?fref=ts", "brand": "Beef 'o' Brady's", "brand:wikidata": "Q4879745"}, "geometry": {"type": "Point", "coordinates": [-80.8378, 28.61476]}},
{"type": "Feature", "id": "xPVv6jlDqmg7ON-m0_dlFetEgPQ=", "properties": {"ref": "613", "contact:fax": null, "@spider": "beef_o_bradys", "addr:street_address": "3455 Cheney Hwy", "addr:city": "Titusville", "addr:state": "FL", "addr:postcode": "32780     ", "name": "Space Coast", "phone": "(321) 567-4271", "website": "https://www.beefobradys.com/SpaceCoast", "brand": "Beef 'o' Brady's", "brand:wikidata": "Q4879745"}, "geometry": {"type": "Point", "coordinates": [-80.84, 28.551]}},
{"type": "Feature", "id": "JNLjCyCjeIIH8LUNQwLn2kXEwG0=", "properties": {"ref": "128", "contact:fax": "(863) 465-7630", "@spider": "beef_o_bradys", "addr:street_address": "110 Plaza Ave", "addr:city": "Lake Placid", "addr:state": "FL", "addr:postcode": "33852-5253", "name": "Lake Placid", "phone": "(863) 465-3519", "website": "https://www.beefobradys.com/LakePlacid", "contact:facebook": "https://www.facebook.com/BeefsLakePlacid?fref=ts", "brand": "Beef 'o' Brady's", "brand:wikidata": "Q4879745"}, "geometry": {"type": "Point", "coordinates": [-81.35703, 27.29849]}},
{"type": "Feature", "id": "_dUZuqoLeBBbPyHKvYSMs0a-CHQ=", "properties": {"ref": "593", "contact:fax": " (321) 304-4941", "@spider": "beef_o_bradys", "addr:street_address": "3745 Curtis Blvd", "addr:city": "Port St John", "addr:state": "FL", "addr:postcode": "32927     ", "name": "Port St John", "phone": "(321) 305-4940", "website": "https://www.beefobradys.com/PortStJohn", "brand": "Beef 'o' Brady's", "brand:wikidata": "Q4879745"}, "geometry": {"type": "Point", "coordinates": [-80.780318, 28.477651]}},
{"type": "Feature", "id": "WimDmf8IaadqWqkBIMf-EBxslrE=", "properties": {"ref": "177", "contact:fax": "(239) 369-0116", "@spider": "beef_o_bradys", "addr:street_address": "3114 Lee Blvd", "addr:city": "Lehigh Acres", "addr:state": "FL", "addr:postcode": "33971-2421", "name": "Lehigh Acres", "phone": "(239) 369-0390", "website": "https://www.beefobradys.com/LehighAcres", "contact:facebook": "https://www.facebook.com/Beef-O-Bradys-Lehigh-258025634207810/?fref=ts", "brand": "Beef 'o' Brady's", "brand:wikidata": "Q4879745"}, "geometry": {"type": "Point", "coordinates": [-81.68036, 26.61721]}},
{"type": "Feature", "id": "Yn_YyFPQd1-zoB79v50E_optJCw=", "properties": {"ref": "72", "contact:fax": "(321) 637-1155", "@spider": "beef_o_bradys", "addr:street_address": "2301 State Road 524 # 170-175", "addr:city": "Cocoa  ", "addr:state": "FL", "addr:postcode": "32926-5819", "name": "Cocoa Commons", "phone": "(321) 637-1133", "website": "https://www.beefobradys.com/CocoaCommons", "contact:facebook": "https://www.facebook.com/pages/Beef-O-Bradys-Cocoa/326491626780?fref=ts", "brand": "Beef 'o' Brady's", "brand:wikidata": "Q4879745"}, "geometry": {"type": "Point", "coordinates": [-80.76364, 28.39678]}},
{"type": "Feature", "id": "jEGtivIpPoQ5N2nT5RUYZ4JFUCE=", "properties": {"ref": "101", "contact:fax": "(321) 455-6680", "@spider": "beef_o_bradys", "addr:street_address": "1450 N Courtenay Pkwy Ste 36", "addr:city": "Merritt Island", "addr:state": "FL", "addr:postcode": "32953-4473", "name": "Merritt Island", "phone": "(321) 455-6665", "website": "https://www.beefobradys.com/MerrittIsland", "contact:facebook": "https://www.facebook.com/pages/Merritt-Island-Beef-O-Bradys/138530102827338", "brand": "Beef 'o' Brady's", "brand:wikidata": "Q4879745"}, "geometry": {"type": "Point", "coordinates": [-80.70128, 28.38327]}},
{"type": "Feature", "id": "7_Q4WPEyd6Rn-Prhcz1vkyIRGUo=", "properties": {"ref": "622", "contact:fax": " ", "@spider": "beef_o_bradys", "addr:street_address": "244 S Market St", "addr:city": "Wooster", "addr:state": "OH", "addr:postcode": "44691     ", "name": "Wooster", "phone": "(330) 264-2226", "website": "https://www.beefobradys.com/Wooster", "brand": "Beef 'o' Brady's", "brand:wikidata": "Q4879745"}, "geometry": {"type": "Point", "coordinates": [-81.93, 40.796]}},
{"type": "Feature", "id": "IpxDm-47GGTsdOrI60s_jNVEawk=", "properties": {"ref": "609", "contact:fax": "(321) 305-4898", "@spider": "beef_o_bradys", "addr:street_address": "5410 Murrell Rd Ste 101", "addr:city": "Viera", "addr:state": "FL", "addr:postcode": "32955-6649", "name": "Viera", "phone": "(321) 305-6600", "website": "https://www.beefobradys.com/Viera", "brand": "Beef 'o' Brady's", "brand:wikidata": "Q4879745"}, "geometry": {"type": "Point", "coordinates": [-80.71984, 28.267592]}},
{"type": "Feature", "id": "GMhNw2AsmuT8BF3395df-chtEzg=", "properties": {"ref": "477", "contact:fax": "(863) 612-9816", "@spider": "beef_o_bradys", "addr:street_address": "21 S. Lee St.", "addr:city": "LaBelle", "addr:state": "FL", "addr:postcode": "33935     ", "name": "LaBelle", "phone": "(863) 612-9818", "website": "https://www.beefobradys.com/LaBelle", "brand": "Beef 'o' Brady's", "brand:wikidata": "Q4879745"}, "geometry": {"type": "Point", "coordinates": [-81.43597, 26.76228]}},
{"type": "Feature", "id": "UPSeHrvSe3S-y-TEgEM8aArHxVo=", "properties": {"ref": "46", "contact:fax": "(239) 348-1689", "@spider": "beef_o_bradys", "addr:street_address": "7385 Radio Rd Ste 101", "addr:city": "Naples", "addr:state": "FL", "addr:postcode": "34104-6703", "name": "Naples", "phone": "(239) 348-2100", "website": "https://www.beefobradys.com/Naples", "contact:facebook": "https://www.facebook.com/pages/Beef-O-Bradys-Radio-RD/185722784831801?fref=ts", "brand": "Beef 'o' Brady's", "brand:wikidata": "Q4879745"}, "geometry": {"type": "Point", "coordinates": [-81.71961, 26.15433]}},
{"type": "Feature", "id": "kh1kW5AXTpOVHfsPHMBpJMq0Ags=", "properties": {"ref": "116", "contact:fax": "(321) 751-4170", "@spider": "beef_o_bradys", "addr:street_address": "3030 Lake Washington Rd", "addr:city": "Melbourne", "addr:state": "FL", "addr:postcode": "32934-7613", "name": "Melbourne", "phone": "(321) 751-3860", "website": "https://www.beefobradys.com/Melbourne", "contact:facebook": "https://www.facebook.com/pages/Beef-O-Bradys/282253201875986?fref=ts", "brand": "Beef 'o' Brady's", "brand:wikidata": "Q4879745"}, "geometry": {"type": "Point", "coordinates": [-80.6732, 28.14679]}},
{"type": "Feature", "id": "rQ7dnUYVQvhgdcaoOTAyNSMSV0k=", "properties": {"ref": "341", "contact:fax": "(321) 777-7108", "@spider": "beef_o_bradys", "addr:street_address": "724 South Patrick Dr", "addr:city": "Satellite Beach", "addr:state": "FL", "addr:postcode": "32937-3875", "name": "Satellite Beach", "phone": "(321) 777-7107", "website": "https://www.beefobradys.com/SatelliteBeach", "contact:facebook": "https://www.facebook.com/beefobradys.satellitebeach?fref=ts", "brand": "Beef 'o' Brady's", "brand:wikidata": "Q4879745"}, "geometry": {"type": "Point", "coordinates": [-80.60629, 28.19322]}},
{"type": "Feature", "id": "-1TGPcfueGcan6o3yDNhevK3E3Q=", "properties": {"ref": "610", "contact:fax": "(321) 999-9999", "@spider": "beef_o_bradys", "addr:street_address": "2400 Dairy Rd", "addr:city": "West Melbourne", "addr:state": "FL", "addr:postcode": "32904-5248", "name": "West Melbourne", "phone": "(321) 372-5155", "website": "https://www.beefobradys.com/west-melbourne", "brand": "Beef 'o' Brady's", "brand:wikidata": "Q4879745"}, "geometry": {"type": "Point", "coordinates": [-80.638268, 28.073034]}},
{"type": "Feature", "id": "_cord-_PU9doxVSx95CFHWLiJys=", "properties": {"ref": "100", "contact:fax": "(321) 953-5305", "@spider": "beef_o_bradys", "addr:street_address": "3450 Bayside Lakes Blvd SE # 101-102", "addr:city": "Palm Bay", "addr:state": "FL", "addr:postcode": "32909-6815", "name": "West Palm Bay", "phone": "(321) 953-4600", "website": "https://www.beefobradys.com/WestPalmBay", "contact:facebook": "https://www.facebook.com/pages/Beef-O-Bradys-Bayside-Lakes/621228087889497?fref=ts", "brand": "Beef 'o' Brady's", "brand:wikidata": "Q4879745"}, "geometry": {"type": "Point", "coordinates": [-80.65775, 27.95128]}},
{"type": "Feature", "id": "K23COpDCKuUKwGO5evBgdTlFwrU=", "properties": {"ref": "451", "contact:fax": "(330) 336-2758", "@spider": "beef_o_bradys", "addr:street_address": "1090 Williams Reserve Blvd", "addr:city": "Wadsworth", "addr:state": "OH", "addr:postcode": "44281-9345", "name": "Wadsworth", "phone": "(330) 336-3600", "website": "https://www.beefobradys.com/Wadsworth", "contact:facebook": "https://www.facebook.com/pages/Beef-OBradys/155064658008447?ref=ts&fref=ts&rf=158124217619514", "brand": "Beef 'o' Brady's", "brand:wikidata": "Q4879745"}, "geometry": {"type": "Point", "coordinates": [-81.69493, 41.03813]}},
{"type": "Feature", "id": "96zD2sZ3-fLOdY-lgq77K5m5n2U=", "properties": {"ref": "115", "contact:fax": "(989) 249-0801", "@spider": "beef_o_bradys", "addr:street_address": "4880 Gratiot Rd Bldg A Ste 5-7", "addr:city": "Saginaw", "addr:state": "MI", "addr:postcode": "48638-6267", "name": "Saginaw", "phone": "(989) 249-0800", "website": "https://www.beefobradys.com/Saginaw", "contact:facebook": "https://www.facebook.com/pages/Beef-O-Bradys/116353598393643?fref=ts", "brand": "Beef 'o' Brady's", "brand:wikidata": "Q4879745"}, "geometry": {"type": "Point", "coordinates": [-84.01217, 43.41535]}},
{"type": "Feature", "id": "v3RJa54ODi7qKdaMXvRvo_cynXk=", "properties": {"ref": "184", "contact:fax": "(863) 763-7719", "@spider": "beef_o_bradys", "addr:street_address": "608 S Parrott Ave", "addr:city": "Okeechobee", "addr:state": "FL", "addr:postcode": "34974-5136", "name": "Okeechobee", "phone": "(863) 763-7300", "website": "https://www.beefobradys.com/Okeechobee", "contact:facebook": "https://www.facebook.com/pages/Beef-O-Bradys-Okeechobee/123554957695549?fref=ts", "brand": "Beef 'o' Brady's", "brand:wikidata": "Q4879745"}, "geometry": {"type": "Point", "coordinates": [-80.82998, 27.23701]}},
{"type": "Feature", "id": "0vSyN8R-ow-O7pbboH-bUqH5Sa8=", "properties": {"ref": "400", "contact:fax": "(863) 983-5007", "@spider": "beef_o_bradys", "addr:street_address": "892 W Sugarland Hwy", "addr:city": "Clewiston", "addr:state": "FL", "addr:postcode": "33440-2704", "name": "Clewiston", "phone": "(863) 983-5002", "website": "https://www.beefobradys.com/Clewiston", "contact:facebook": "https://www.facebook.com/Beef-O-Bradys-of-Clewiston-114033616952477", "brand": "Beef 'o' Brady's", "brand:wikidata": "Q4879745"}, "geometry": {"type": "Point", "coordinates": [-80.93021, 26.75421]}},
{"type": "Feature", "id": "QxIGbkTEVHyaZOPK7nb7bv8I8jk=", "properties": {"ref": "408", "contact:fax": "(330) 678-4801", "@spider": "beef_o_bradys", "addr:street_address": "3975 Cascades Blvd", "addr:city": "Brimfield", "addr:state": "OH", "addr:postcode": "44240-8053", "name": "Brimfield", "phone": "(330) 678-4800", "website": "https://www.beefobradys.com/Brimfield", "contact:facebook": "https://www.facebook.com/BeefOBradysBrimfield/?fref=ts", "brand": "Beef 'o' Brady's", "brand:wikidata": "Q4879745"}, "geometry": {"type": "Point", "coordinates": [-81.39248, 41.09538]}}]}