{"type":"FeatureCollection","features":[{"type": "Feature", "id": "3QEfIHXeJL6Zo6nSF4-3DLYIntc=", "properties": {"ref": "2002", "@spider": "beer_store", "shop": "alcohol", "addr:street_address": "198 Queen St. E.", "name": "Queen St.", "brand": "The Beer Store", "brand:wikidata": "Q16243674", "nsi_id": "thebeerstore-19c622"}, "geometry": {"type": "Point", "coordinates": [-79.751625, 43.694022]}},
{"type": "Feature", "id": "N352DWTe7fVCyE4rPZl52NSTu7M=", "properties": {"ref": "2004", "@spider": "beer_store", "shop": "alcohol", "addr:street_address": "2890 Queen St. E.", "name": "Airport Road", "brand": "The Beer Store", "brand:wikidata": "Q16243674", "nsi_id": "thebeerstore-19c622"}, "geometry": {"type": "Point", "coordinates": [-79.697299, 43.742892]}},
{"type": "Feature", "id": "qRB2S0bxKYU0IPgxAtztdt7fkLo=", "properties": {"ref": "2005", "@spider": "beer_store", "shop": "alcohol", "addr:street_address": "180 Sandalwood Pkwy.", "name": "Heart Lake", "brand": "The Beer Store", "brand:wikidata": "Q16243674", "nsi_id": "thebeerstore-19c622"}, "geometry": {"type": "Point", "coordinates": [-79.79461, 43.728596]}},
{"type": "Feature", "id": "zYnss7b1BiwZbDWH52rFZCRXnmI=", "properties": {"ref": "2006", "@spider": "beer_store", "shop": "alcohol", "addr:street_address": "80 Peel Centre Dr.", "name": "Bramalea City Centre", "brand": "The Beer Store", "brand:wikidata": "Q16243674", "nsi_id": "thebeerstore-19c622"}, "geometry": {"type": "Point", "coordinates": [-79.723375, 43.71258]}},
{"type": "Feature", "id": "G1ouwR4GGoV5SuoCBJpH3eW7Z3U=", "properties": {"ref": "2014", "@spider": "beer_store", "shop": "alcohol", "addr:street_address": "374 Main St. N.", "name": "Kingspoint Plaza (Main/Vodden)", "brand": "The Beer Store", "brand:wikidata": "Q16243674", "nsi_id": "thebeerstore-19c622"}, "geometry": {"type": "Point", "coordinates": [-79.772392, 43.696922]}},
{"type": "Feature", "id": "XXSI7Mjc80IwzuFT_fzNOQA07Ys=", "properties": {"ref": "2016", "@spider": "beer_store", "shop": "alcohol", "addr:street_address": "932 North Park Dr.", "name": "North Park/Mckay", "brand": "The Beer Store", "brand:wikidata": "Q16243674", "nsi_id": "thebeerstore-19c622"}, "geometry": {"type": "Point", "coordinates": [-79.743152, 43.734802]}},
{"type": "Feature", "id": "08bQ3QCxjfGOUUmSg0-cn0s8tjk=", "properties": {"ref": "2019", "@spider": "beer_store", "shop": "alcohol", "addr:street_address": "11 Worthington Avenue", "name": "Fletchers Meadow", "brand": "The Beer Store", "brand:wikidata": "Q16243674", "nsi_id": "thebeerstore-19c622"}, "geometry": {"type": "Point", "coordinates": [-79.8139038, 43.68149757]}},
{"type": "Feature", "id": "iQOnnQxOi2tFY7dLr7wsUiU7Als=", "properties": {"ref": "2022", "@spider": "beer_store", "shop": "alcohol", "addr:street_address": "10585 Bramalea Road", "name": "Brampton - Bramalea/Sandalwood", "brand": "The Beer Store", "brand:wikidata": "Q16243674", "nsi_id": "thebeerstore-19c622"}, "geometry": {"type": "Point", "coordinates": [-79.756327, 43.755903]}},
{"type": "Feature", "id": "IvBwqcS_dnh49JvBP-8yJ701LG0=", "properties": {"ref": "2041", "@spider": "beer_store", "shop": "alcohol", "addr:street_address": "69 First Gulf Blvd", "name": "Brampton Distribution Centre", "brand": "The Beer Store", "brand:wikidata": "Q16243674", "nsi_id": "thebeerstore-19c622"}, "geometry": {"type": "Point", "coordinates": [-79.715567, 43.678325]}},
{"type": "Feature", "id": "m_hAL2ZSOfB5RLx-Eht_Sy1Zezk=", "properties": {"ref": "2062", "@spider": "beer_store", "shop": "alcohol", "addr:street_address": "55 Charolais Blvd", "name": "Hurontario/Steeles", "brand": "The Beer Store", "brand:wikidata": "Q16243674", "nsi_id": "thebeerstore-19c622"}, "geometry": {"type": "Point", "coordinates": [-79.741682, 43.667238]}},
{"type": "Feature", "id": "llskDrjQS5WC6p0YvVDqoRbIQGs=", "properties": {"ref": "2007", "@spider": "beer_store", "shop": "alcohol", "addr:street_address": "150 Mcewan Drive East", "name": "Bolton", "brand": "The Beer Store", "brand:wikidata": "Q16243674", "nsi_id": "thebeerstore-19c622"}, "geometry": {"type": "Point", "coordinates": [-79.710483, 43.863483]}},
{"type": "Feature", "id": "0ARjrRAy6EgpVS4ws-89l1aBmTU=", "properties": {"ref": "2008", "@spider": "beer_store", "shop": "alcohol", "addr:street_address": "236 Guelph St.", "name": "Georgetown", "brand": "The Beer Store", "brand:wikidata": "Q16243674", "nsi_id": "thebeerstore-19c622"}, "geometry": {"type": "Point", "coordinates": [-79.901771, 43.649664]}},
{"type": "Feature", "id": "a8a3j3RRD0uszZeQTt7YCPfNzts=", "properties": {"ref": "2009", "@spider": "beer_store", "shop": "alcohol", "addr:street_address": "51 Millside Dr.", "name": "Milton", "brand": "The Beer Store", "brand:wikidata": "Q16243674", "nsi_id": "thebeerstore-19c622"}, "geometry": {"type": "Point", "coordinates": [-79.882488, 43.516462]}},
{"type": "Feature", "id": "g_HHnp_5LGPypWRG4r_lBTSj6JE=", "properties": {"ref": "2020", "@spider": "beer_store", "shop": "alcohol", "addr:street_address": "1071 Maple Ave.", "name": "Milton", "brand": "The Beer Store", "brand:wikidata": "Q16243674", "nsi_id": "thebeerstore-19c622"}, "geometry": {"type": "Point", "coordinates": [-79.87363, 43.536426]}},
{"type": "Feature", "id": "IqmmtlNPWkQ8fUg4IvD1DOvoS-o=", "properties": {"ref": "2021", "@spider": "beer_store", "shop": "alcohol", "addr:street_address": "1015 Bronte Street South", "name": "Milton", "brand": "The Beer Store", "brand:wikidata": "Q16243674", "nsi_id": "thebeerstore-19c622"}, "geometry": {"type": "Point", "coordinates": [-79.859613, 43.48779]}},
{"type": "Feature", "id": "ESm7_iU4H81E377t48yEPHOJGKA=", "properties": {"ref": "2010", "@spider": "beer_store", "shop": "alcohol", "addr:street_address": "65 Queen St.n.", "name": "Streetsville", "brand": "The Beer Store", "brand:wikidata": "Q16243674", "nsi_id": "thebeerstore-19c622"}, "geometry": {"type": "Point", "coordinates": [-79.72507, 43.590777]}},
{"type": "Feature", "id": "uOq5uSO1GQuz2i4G8TZ4jA1yXqc=", "properties": {"ref": "2011", "@spider": "beer_store", "shop": "alcohol", "addr:street_address": "6780 Town Centre Circle", "name": "Meadowvale", "brand": "The Beer Store", "brand:wikidata": "Q16243674", "nsi_id": "thebeerstore-19c622"}, "geometry": {"type": "Point", "coordinates": [-79.760784, 43.584527]}},
{"type": "Feature", "id": "OQkUpQmt3hAXRhdvI9-Zo3j_rFM=", "properties": {"ref": "2012", "@spider": "beer_store", "shop": "alcohol", "addr:street_address": "3535 Etude Dr.", "name": "Malton (Westwood Mall)", "brand": "The Beer Store", "brand:wikidata": "Q16243674", "nsi_id": "thebeerstore-19c622"}, "geometry": {"type": "Point", "coordinates": [-79.634334, 43.71862]}},
{"type": "Feature", "id": "-KGIrjPynhn5TRYVUmx5gLP3J9Q=", "properties": {"ref": "2056", "@spider": "beer_store", "shop": "alcohol", "addr:street_address": "2425 Truscott Dr.", "name": "Clarkson (Truscott Dr.)", "brand": "The Beer Store", "brand:wikidata": "Q16243674", "nsi_id": "thebeerstore-19c622"}, "geometry": {"type": "Point", "coordinates": [-79.649017, 43.513226]}},
{"type": "Feature", "id": "RXvON-kIbTnn8srpHTqjc0x6elA=", "properties": {"ref": "2057", "@spider": "beer_store", "shop": "alcohol", "addr:street_address": "2458 Dundas St. W. (hwy #5)", "name": "Dundas St.w.(Hwy 5)", "brand": "The Beer Store", "brand:wikidata": "Q16243674", "nsi_id": "thebeerstore-19c622"}, "geometry": {"type": "Point", "coordinates": [-79.676067, 43.526998]}},
{"type": "Feature", "id": "FNV-IllhKRYae635s16X-JbeTps=", "properties": {"ref": "2059", "@spider": "beer_store", "shop": "alcohol", "addr:street_address": "2925 Eglinton Ave. W.", "name": "Winston Churchill/Eglinton", "brand": "The Beer Store", "brand:wikidata": "Q16243674", "nsi_id": "thebeerstore-19c622"}, "geometry": {"type": "Point", "coordinates": [-79.7162, 43.551089]}},
{"type": "Feature", "id": "373fCtTrz1cy2HDzsUwGIYZoE_s=", "properties": {"ref": "2060", "@spider": "beer_store", "shop": "alcohol", "addr:street_address": "5800 Mclaughlin Road", "name": "Heartland Mall", "brand": "The Beer Store", "brand:wikidata": "Q16243674", "nsi_id": "thebeerstore-19c622"}, "geometry": {"type": "Point", "coordinates": [-79.687489, 43.613909]}},
{"type": "Feature", "id": "XnK-aEVyBBUP6Lbp0Zi8Y0XltGU=", "properties": {"ref": "2322", "@spider": "beer_store", "shop": "alcohol", "addr:street_address": "3154 Hurontario Street", "name": "Cooksville", "brand": "The Beer Store", "brand:wikidata": "Q16243674", "nsi_id": "thebeerstore-19c622"}, "geometry": {"type": "Point", "coordinates": [-79.621027, 43.582953]}},
{"type": "Feature", "id": "GfDzVs7hE16Vum5slKFbx7URUqY=", "properties": {"ref": "2323", "@spider": "beer_store", "shop": "alcohol", "addr:street_address": "1079 North Service Rd", "name": "Applewood (N. Service Rd.)", "brand": "The Beer Store", "brand:wikidata": "Q16243674", "nsi_id": "thebeerstore-19c622"}, "geometry": {"type": "Point", "coordinates": [-79.576944, 43.591471]}},
{"type": "Feature", "id": "8z9EG9p2qIaBkG4PMIm5zooNxlk=", "properties": {"ref": "2325", "@spider": "beer_store", "shop": "alcohol", "addr:street_address": "3030 Erindale Station Road", "name": "Erindale Station/Dundas", "brand": "The Beer Store", "brand:wikidata": "Q16243674", "nsi_id": "thebeerstore-19c622"}, "geometry": {"type": "Point", "coordinates": [-79.644859, 43.557768]}},
{"type": "Feature", "id": "xaYPAOKo19s2YC4GyNul9DkZsqQ=", "properties": {"ref": "2326", "@spider": "beer_store", "shop": "alcohol", "addr:street_address": "4141 Dixie Road", "name": "Dixie/Burnhamthorpe", "brand": "The Beer Store", "brand:wikidata": "Q16243674", "nsi_id": "thebeerstore-19c622"}, "geometry": {"type": "Point", "coordinates": [-79.602017, 43.62419]}},
{"type": "Feature", "id": "3fXKzCrYVOk390yHJpDEledbKSc=", "properties": {"ref": "2328", "@spider": "beer_store", "shop": "alcohol", "addr:street_address": "420 Lakeshore Road East", "name": "Port Credit", "brand": "The Beer Store", "brand:wikidata": "Q16243674", "nsi_id": "thebeerstore-19c622"}, "geometry": {"type": "Point", "coordinates": [-79.571376, 43.564235]}},
{"type": "Feature", "id": "7nUzttN1mhpUgEIuRMYjbQUFDiw=", "properties": {"ref": "2333", "@spider": "beer_store", "shop": "alcohol", "addr:street_address": "1550 Dundas Street East", "name": "Mississauga - Dixie/Dundas", "brand": "The Beer Store", "brand:wikidata": "Q16243674", "nsi_id": "thebeerstore-19c622"}, "geometry": {"type": "Point", "coordinates": [-79.57912, 43.612587]}},
{"type": "Feature", "id": "NbFUsKDWKHhjeBhiPUKP2f8_Ces=", "properties": {"ref": "2013", "@spider": "beer_store", "shop": "alcohol", "addr:street_address": "7676 Islington Ave. N.", "name": "Woodbridge(Islington/Hwy #7)", "brand": "The Beer Store", "brand:wikidata": "Q16243674", "nsi_id": "thebeerstore-19c622"}, "geometry": {"type": "Point", "coordinates": [-79.587265, 43.779247]}},
{"type": "Feature", "id": "ZULVOPixAF_l5B4B1GOs8b5Nznk=", "properties": {"ref": "2018", "@spider": "beer_store", "shop": "alcohol", "addr:street_address": "7850 Weston Road", "name": "Woodbridge", "brand": "The Beer Store", "brand:wikidata": "Q16243674", "nsi_id": "thebeerstore-19c622"}, "geometry": {"type": "Point", "coordinates": [-79.550387, 43.790816]}},
{"type": "Feature", "id": "NPDU_imvCZngowfEKD5q5mzyTRs=", "properties": {"ref": "2053", "@spider": "beer_store", "shop": "alcohol", "addr:street_address": "1431 Rebecca St.", "name": "Rebecca Street", "brand": "The Beer Store", "brand:wikidata": "Q16243674", "nsi_id": "thebeerstore-19c622"}, "geometry": {"type": "Point", "coordinates": [-79.70389, 43.413652]}},
{"type": "Feature", "id": "4VofvlrpPJ580SMvk2MJp1uOWLc=", "properties": {"ref": "2054", "@spider": "beer_store", "shop": "alcohol", "addr:street_address": "511 Maple Grove Dr.", "name": "Maple Grove", "brand": "The Beer Store", "brand:wikidata": "Q16243674", "nsi_id": "thebeerstore-19c622"}, "geometry": {"type": "Point", "coordinates": [-79.65648, 43.480078]}},
{"type": "Feature", "id": "oVpMpAH6JhKh8L19HB-KfO85BnQ=", "properties": {"ref": "2055", "@spider": "beer_store", "shop": "alcohol", "addr:street_address": "1011 Upper Middle Road", "name": "Upper Middle Road", "brand": "The Beer Store", "brand:wikidata": "Q16243674", "nsi_id": "thebeerstore-19c622"}, "geometry": {"type": "Point", "coordinates": [-79.695988, 43.481496]}},
{"type": "Feature", "id": "DsgXkLYLXGMlUd82WmFP7gyphE8=", "properties": {"ref": "2058", "@spider": "beer_store", "shop": "alcohol", "addr:street_address": "1500 Upper Middle Road", "name": "Glen Abbey Plaza", "brand": "The Beer Store", "brand:wikidata": "Q16243674", "nsi_id": "thebeerstore-19c622"}, "geometry": {"type": "Point", "coordinates": [-79.741199, 43.436743]}},
{"type": "Feature", "id": "90hjf6e0DpO5slYNG-PhzxGqllg=", "properties": {"ref": "2061", "@spider": "beer_store", "shop": "alcohol", "addr:street_address": "290 Hays Boulevard", "name": "Trafalgar And Dundas", "brand": "The Beer Store", "brand:wikidata": "Q16243674", "nsi_id": "thebeerstore-19c622"}, "geometry": {"type": "Point", "coordinates": [-79.717122, 43.484693]}},
{"type": "Feature", "id": "3us2usfU0LvjCLc5FdXHTVC9FJw=", "properties": {"ref": "2090", "@spider": "beer_store", "shop": "alcohol", "addr:street_address": "104 Lakeshore Road W.", "name": "Lakeshore Rd/Kerr St", "brand": "The Beer Store", "brand:wikidata": "Q16243674", "nsi_id": "thebeerstore-19c622"}, "geometry": {"type": "Point", "coordinates": [-79.674567, 43.439512]}},
{"type": "Feature", "id": "X5TbdXjXUeAKkPA1bZon5-wKUEg=", "properties": {"ref": "2101", "@spider": "beer_store", "shop": "alcohol", "addr:street_address": "200 Ritson Road North Unit B", "name": "Ritson Road", "brand": "The Beer Store", "brand:wikidata": "Q16243674", "nsi_id": "thebeerstore-19c622"}, "geometry": {"type": "Point", "coordinates": [-78.859062, 43.910805]}},
{"type": "Feature", "id": "U9dQ7jEU1cCYRyKLRkVxJ5vim9M=", "properties": {"ref": "2102", "@spider": "beer_store", "shop": "alcohol", "addr:street_address": "257 Wentworth St. W.", "name": "Wentworth St. W.", "brand": "The Beer Store", "brand:wikidata": "Q16243674", "nsi_id": "thebeerstore-19c622"}, "geometry": {"type": "Point", "coordinates": [-78.852211, 43.869823]}},
{"type": "Feature", "id": "A3VIhOeLvM5TIthne5301sDri4M=", "properties": {"ref": "2103", "@spider": "beer_store", "shop": "alcohol", "addr:street_address": "150 Midtown Dr.", "name": "Midtown Drive", "brand": "The Beer Store", "brand:wikidata": "Q16243674", "nsi_id": "thebeerstore-19c622"}, "geometry": {"type": "Point", "coordinates": [-78.867957, 43.895706]}},
{"type": "Feature", "id": "U--eay1duIRMR3eoU_bNglyE77w=", "properties": {"ref": "2104", "@spider": "beer_store", "shop": "alcohol", "addr:street_address": "305 Taunton Road E.", "name": "Taunton Rd. E.", "brand": "The Beer Store", "brand:wikidata": "Q16243674", "nsi_id": "thebeerstore-19c622"}, "geometry": {"type": "Point", "coordinates": [-78.866222, 43.935632]}},
{"type": "Feature", "id": "Wr1ZDanbyMt_zaVM4NMZdf2AGIk=", "properties": {"ref": "2105", "@spider": "beer_store", "shop": "alcohol", "addr:street_address": "650 King St. E.", "name": "King St. E.", "brand": "The Beer Store", "brand:wikidata": "Q16243674", "nsi_id": "thebeerstore-19c622"}, "geometry": {"type": "Point", "coordinates": [-78.840869, 43.903503]}},
{"type": "Feature", "id": "WxiNPZEWB52EJTEQTT8v9C4th-M=", "properties": {"ref": "2106", "@spider": "beer_store", "shop": "alcohol", "addr:street_address": "95 Commercial Plaza", "name": "Ajax", "brand": "The Beer Store", "brand:wikidata": "Q16243674", "nsi_id": "thebeerstore-19c622"}, "geometry": {"type": "Point", "coordinates": [-79.067802, 43.852699]}},
{"type": "Feature", "id": "a79gLLhk_D2tmXA3qkpVa5I3TIU=", "properties": {"ref": "2113", "@spider": "beer_store", "shop": "alcohol", "addr:street_address": "75 Kingston Road E.", "name": "Ajax", "brand": "The Beer Store", "brand:wikidata": "Q16243674", "nsi_id": "thebeerstore-19c622"}, "geometry": {"type": "Point", "coordinates": [-78.909103, 43.880901]}},
{"type": "Feature", "id": "0e-Izd1fvvMBEbxmu1a7vYDoYBA=", "properties": {"ref": "2115", "@spider": "beer_store", "shop": "alcohol", "addr:street_address": "1953 Ravenscroft Road", "name": "Ajax", "brand": "The Beer Store", "brand:wikidata": "Q16243674", "nsi_id": "thebeerstore-19c622"}, "geometry": {"type": "Point", "coordinates": [-79.054213, 43.888376]}},
{"type": "Feature", "id": "k5VMYDssb6Onkxy1-AkqwYkR_eM=", "properties": {"ref": "2107", "@spider": "beer_store", "shop": "alcohol", "addr:street_address": "195 King St. E.", "name": "Bowmanville", "brand": "The Beer Store", "brand:wikidata": "Q16243674", "nsi_id": "thebeerstore-19c622"}, "geometry": {"type": "Point", "coordinates": [-78.679276, 43.910197]}},
{"type": "Feature", "id": "51c-Hn7yUlMFN8iwTAAQiDpoC78=", "properties": {"ref": "2108", "@spider": "beer_store", "shop": "alcohol", "addr:street_address": "55 Peter St.", "name": "Port Hope", "brand": "The Beer Store", "brand:wikidata": "Q16243674", "nsi_id": "thebeerstore-19c622"}, "geometry": {"type": "Point", "coordinates": [-78.287887, 43.948685]}},
{"type": "Feature", "id": "9ER0hOwnlZIIELU5bFTDX8Z3AK4=", "properties": {"ref": "2109", "@spider": "beer_store", "shop": "alcohol", "addr:street_address": "677 Queen Street", "name": "Port Perry", "brand": "The Beer Store", "brand:wikidata": "Q16243674", "nsi_id": "thebeerstore-19c622"}, "geometry": {"type": "Point", "coordinates": [-78.942047, 44.104439]}},
{"type": "Feature", "id": "fiBlhvSgsZYADxXVX2Fjs2py2I0=", "properties": {"ref": "2110", "@spider": "beer_store", "shop": "alcohol", "addr:street_address": "178 Main Street N.", "name": "Uxbridge", "brand": "The Beer Store", "brand:wikidata": "Q16243674", "nsi_id": "thebeerstore-19c622"}, "geometry": {"type": "Point", "coordinates": [-79.123306, 44.115147]}},
{"type": "Feature", "id": "B-yTHZ7IWYgaLjjWvT8X96BbBxU=", "properties": {"ref": "2111", "@spider": "beer_store", "shop": "alcohol", "addr:street_address": "301 Dundas Street E.", "name": "301 Dundas St. E.", "brand": "The Beer Store", "brand:wikidata": "Q16243674", "nsi_id": "thebeerstore-19c622"}, "geometry": {"type": "Point", "coordinates": [-78.939972, 43.880329]}},
{"type": "Feature", "id": "pIhmYASOuuiMGwawgXwOIxdpds0=", "properties": {"ref": "2112", "@spider": "beer_store", "shop": "alcohol", "addr:street_address": "1801 Dundas Street East", "name": "Kendalwood", "brand": "The Beer Store", "brand:wikidata": "Q16243674", "nsi_id": "thebeerstore-19c622"}, "geometry": {"type": "Point", "coordinates": [-78.905261, 43.888033]}},
{"type": "Feature", "id": "U_UJaYVVmCQwLB95nxHSgAOtUNw=", "properties": {"ref": "2114", "@spider": "beer_store", "shop": "alcohol", "addr:street_address": "3950 Brock St. N.", "name": "Brock St. N.", "brand": "The Beer Store", "brand:wikidata": "Q16243674", "nsi_id": "thebeerstore-19c622"}, "geometry": {"type": "Point", "coordinates": [-78.95868, 43.914714]}},
{"type": "Feature", "id": "6nn1YgfjoSVKFyk2jXRHUUQ7TFM=", "properties": {"ref": "2116", "@spider": "beer_store", "shop": "alcohol", "addr:street_address": "5929 Baldwin Street South", "name": "Brooklin", "brand": "The Beer Store", "brand:wikidata": "Q16243674", "nsi_id": "thebeerstore-19c622"}, "geometry": {"type": "Point", "coordinates": [-78.962086, 43.951606]}},
{"type": "Feature", "id": "yeagIcMJwC1of9tjprLPP2aOl1o=", "properties": {"ref": "2142", "@spider": "beer_store", "shop": "alcohol", "addr:street_address": "1655 Tricont Avenue", "name": "Whitby Distribution Centre", "brand": "The Beer Store", "brand:wikidata": "Q16243674", "nsi_id": "thebeerstore-19c622"}, "geometry": {"type": "Point", "coordinates": [-78.897301, 43.862824]}},
{"type": "Feature", "id": "VaIH-KllyGSRUu6SPFtcFshaGsM=", "properties": {"ref": "2141", "@spider": "beer_store", "shop": "alcohol", "addr:street_address": "476 Division Street", "name": "Cobourg", "brand": "The Beer Store", "brand:wikidata": "Q16243674", "nsi_id": "thebeerstore-19c622"}, "geometry": {"type": "Point", "coordinates": [-78.167994, 43.966293]}},
{"type": "Feature", "id": "qKabuILOinSezDZnLchssqvNFvY=", "properties": {"ref": "2302", "@spider": "beer_store", "shop": "alcohol", "addr:street_address": "761 Queen Street W.", "name": "Queen/Euclid", "brand": "The Beer Store", "brand:wikidata": "Q16243674", "nsi_id": "thebeerstore-19c622"}, "geometry": {"type": "Point", "coordinates": [-79.41213, 43.64555]}},
{"type": "Feature", "id": "IgvEFsCEWOk9JzbRWx7N6BTKKHg=", "properties": {"ref": "2303", "@spider": "beer_store", "shop": "alcohol", "addr:street_address": "452 Bathurst Street", "name": "College/Bathurst", "brand": "The Beer Store", "brand:wikidata": "Q16243674", "nsi_id": "thebeerstore-19c622"}, "geometry": {"type": "Point", "coordinates": [-79.407514, 43.655625]}},
{"type": "Feature", "id": "3UUwNYt9C4_-AKstApmyEcdX6js=", "properties": {"ref": "2306", "@spider": "beer_store", "shop": "alcohol", "addr:street_address": "2135 Dundas Street W.", "name": "Dundas/Roncesvalles", "brand": "The Beer Store", "brand:wikidata": "Q16243674", "nsi_id": "thebeerstore-19c622"}, "geometry": {"type": "Point", "coordinates": [-79.449754, 43.652744]}},
{"type": "Feature", "id": "vpKjQZPpoEyiHc9aCruE-ZMRWUE=", "properties": {"ref": "2311", "@spider": "beer_store", "shop": "alcohol", "addr:street_address": "904 Dufferin Street", "name": "Dufferin Mall Bloor/Dufferin", "brand": "The Beer Store", "brand:wikidata": "Q16243674", "nsi_id": "thebeerstore-19c622"}, "geometry": {"type": "Point", "coordinates": [-79.436704, 43.65776]}},
{"type": "Feature", "id": "3l2HxzsYjKQvZweKo6qgRcN2hn4=", "properties": {"ref": "2312", "@spider": "beer_store", "shop": "alcohol", "addr:street_address": "500 Dupont Street", "name": "Bathurst/Dupont", "brand": "The Beer Store", "brand:wikidata": "Q16243674", "nsi_id": "thebeerstore-19c622"}, "geometry": {"type": "Point", "coordinates": [-79.415649, 43.673263]}},
{"type": "Feature", "id": "FLFkuBP5ap9kZ9QwcRHDVM6P7SE=", "properties": {"ref": "2318", "@spider": "beer_store", "shop": "alcohol", "addr:street_address": "323 Symington Avenue", "name": "Symington/Dupont", "brand": "The Beer Store", "brand:wikidata": "Q16243674", "nsi_id": "thebeerstore-19c622"}, "geometry": {"type": "Point", "coordinates": [-79.451176, 43.666209]}},
{"type": "Feature", "id": "NajumCX3grVT5CspqfKEvDxsk9I=", "properties": {"ref": "2321", "@spider": "beer_store", "shop": "alcohol", "addr:street_address": "720 Spadina Avenue", "name": "Bloor/Spadina", "brand": "The Beer Store", "brand:wikidata": "Q16243674", "nsi_id": "thebeerstore-19c622"}, "geometry": {"type": "Point", "coordinates": [-79.40328, 43.665428]}},
{"type": "Feature", "id": "zdSqIjNNaFcgGRrcM9v7_eA_HZA=", "properties": {"ref": "2330", "@spider": "beer_store", "shop": "alcohol", "addr:street_address": "350 Queens Quay West", "name": "Toronto (Queens Quay)", "brand": "The Beer Store", "brand:wikidata": "Q16243674", "nsi_id": "thebeerstore-19c622"}, "geometry": {"type": "Point", "coordinates": [-79.389157, 43.638398]}},
{"type": "Feature", "id": "RaPuyRjqa3Nj0z1lQtbNjtR0ErA=", "properties": {"ref": "2371", "@spider": "beer_store", "shop": "alcohol", "addr:street_address": "2153 St. Clair Avenue", "name": "Stockyards", "brand": "The Beer Store", "brand:wikidata": "Q16243674", "nsi_id": "thebeerstore-19c622"}, "geometry": {"type": "Point", "coordinates": [-79.47271, 43.669971]}},
{"type": "Feature", "id": "XcJAZaC9dR357VGHRq4CutTkS7A=", "properties": {"ref": "2376", "@spider": "beer_store", "shop": "alcohol", "addr:street_address": "2625a Weston Road", "name": "Crossroads", "brand": "The Beer Store", "brand:wikidata": "Q16243674", "nsi_id": "thebeerstore-19c622"}, "geometry": {"type": "Point", "coordinates": [-79.535005, 43.712479]}},
{"type": "Feature", "id": "I613xfKEIhmBeVnLHGDiVvMO13Q=", "properties": {"ref": "2377", "@spider": "beer_store", "shop": "alcohol", "addr:street_address": "120 Lynn Williams Street", "name": "Liberty Village", "brand": "The Beer Store", "brand:wikidata": "Q16243674", "nsi_id": "thebeerstore-19c622"}, "geometry": {"type": "Point", "coordinates": [-79.4177426, 43.6390293]}},
{"type": "Feature", "id": "58xUGUqmw8y3RxCMwHhIT-FP99o=", "properties": {"ref": "2379", "@spider": "beer_store", "shop": "alcohol", "addr:street_address": "81 Billy Bishop Way", "name": "Billy Bishop", "brand": "The Beer Store", "brand:wikidata": "Q16243674", "nsi_id": "thebeerstore-19c622"}, "geometry": {"type": "Point", "coordinates": [-79.452105, 43.73246]}},
{"type": "Feature", "id": "h3K-Tr8iyM0BMAwtl3SfLoEk1jk=", "properties": {"ref": "2410", "@spider": "beer_store", "shop": "alcohol", "addr:street_address": "28 River Street", "name": "Queen/River", "brand": "The Beer Store", "brand:wikidata": "Q16243674", "nsi_id": "thebeerstore-19c622"}, "geometry": {"type": "Point", "coordinates": [-79.357025, 43.658081]}},
{"type": "Feature", "id": "NVJ5j5lc6jQ9wcd0TjyQulyV4Wg=", "properties": {"ref": "2413", "@spider": "beer_store", "shop": "alcohol", "addr:street_address": "534 Parliament Street", "name": "Parliament/Winchestr", "brand": "The Beer Store", "brand:wikidata": "Q16243674", "nsi_id": "thebeerstore-19c622"}, "geometry": {"type": "Point", "coordinates": [-79.368904, 43.666359]}},
{"type": "Feature", "id": "oBiOc5Qu_j45gXAU0lQO2nXagWU=", "properties": {"ref": "2415", "@spider": "beer_store", "shop": "alcohol", "addr:street_address": "89 Laird Drive", "name": "Leaside Village", "brand": "The Beer Store", "brand:wikidata": "Q16243674", "nsi_id": "thebeerstore-19c622"}, "geometry": {"type": "Point", "coordinates": [-79.348404, 43.705555]}},
{"type": "Feature", "id": "pQWUsrtjRVowPdlBXEN_ed4XwVw=", "properties": {"ref": "2419", "@spider": "beer_store", "shop": "alcohol", "addr:street_address": "227 Gerrard Street E.", "name": "Gerrard/Seaton", "brand": "The Beer Store", "brand:wikidata": "Q16243674", "nsi_id": "thebeerstore-19c622"}, "geometry": {"type": "Point", "coordinates": [-79.370606, 43.661495]}},
{"type": "Feature", "id": "s5MOhYd23D1bnhHJpWHfBNcVAHo=", "properties": {"ref": "2431", "@spider": "beer_store", "shop": "alcohol", "addr:street_address": "41 Mill Street", "name": "Distillery District", "brand": "The Beer Store", "brand:wikidata": "Q16243674", "nsi_id": "thebeerstore-19c622"}, "geometry": {"type": "Point", "coordinates": [-79.361519, 43.650349]}},
{"type": "Feature", "id": "Lra854mWGIaiqrqDFdA10CQ01Sw=", "properties": {"ref": "2432", "@spider": "beer_store", "shop": "alcohol", "addr:street_address": "10 Dundas St. E. Suite B-1", "name": "Yonge/Dundas", "brand": "The Beer Store", "brand:wikidata": "Q16243674", "nsi_id": "thebeerstore-19c622"}, "geometry": {"type": "Point", "coordinates": [-79.380646, 43.656513]}},
{"type": "Feature", "id": "CCBm7u801y4WZ2-7FO0wwUEmLZ8=", "properties": {"ref": "2452", "@spider": "beer_store", "shop": "alcohol", "addr:street_address": "609 Roehampton Avenue", "name": "Bayview/Roehampton", "brand": "The Beer Store", "brand:wikidata": "Q16243674", "nsi_id": "thebeerstore-19c622"}, "geometry": {"type": "Point", "coordinates": [-79.378632, 43.711707]}},
{"type": "Feature", "id": "dSb5S-8SCrMIDtxDLuRMfPNn2ms=", "properties": {"ref": "2487", "@spider": "beer_store", "shop": "alcohol", "addr:street_address": "400 Eastern Avenue", "name": "Eastern Avenue", "brand": "The Beer Store", "brand:wikidata": "Q16243674", "nsi_id": "thebeerstore-19c622"}, "geometry": {"type": "Point", "coordinates": [-79.344865, 43.657202]}},
{"type": "Feature", "id": "MCqIIodmLmpOw9wicZxis2NAcBM=", "properties": {"ref": "2307", "@spider": "beer_store", "shop": "alcohol", "addr:street_address": "2458 Lakeshore Blvd. W.", "name": "Mimico", "brand": "The Beer Store", "brand:wikidata": "Q16243674", "nsi_id": "thebeerstore-19c622"}, "geometry": {"type": "Point", "coordinates": [-79.489848, 43.613415]}},
{"type": "Feature", "id": "wtMh-cjnVIDZYzGXtf1UKwnLYdk=", "properties": {"ref": "2308", "@spider": "beer_store", "shop": "alcohol", "addr:street_address": "3560 Lakeshore Blvd. W.", "name": "Long Branch", "brand": "The Beer Store", "brand:wikidata": "Q16243674", "nsi_id": "thebeerstore-19c622"}, "geometry": {"type": "Point", "coordinates": [-79.534069, 43.594505]}},
{"type": "Feature", "id": "a8LANW1kt_7gBuzf_CWz4jq1VnI=", "properties": {"ref": "2310", "@spider": "beer_store", "shop": "alcohol", "addr:street_address": "3429 Bloor Street W.", "name": "Bloor/Islington", "brand": "The Beer Store", "brand:wikidata": "Q16243674", "nsi_id": "thebeerstore-19c622"}, "geometry": {"type": "Point", "coordinates": [-79.525142, 43.643997]}},
{"type": "Feature", "id": "-c6uaYf_iTG4VXLOrjOICrlsUU8=", "properties": {"ref": "2313", "@spider": "beer_store", "shop": "alcohol", "addr:street_address": "10 The East Mall Cres.", "name": "Cloverdale (East Mall)", "brand": "The Beer Store", "brand:wikidata": "Q16243674", "nsi_id": "thebeerstore-19c622"}, "geometry": {"type": "Point", "coordinates": [-79.551584, 43.631171]}},
{"type": "Feature", "id": "l5Gj6mKEGYTeTuJoNo0FMuV4jbw=", "properties": {"ref": "2320", "@spider": "beer_store", "shop": "alcohol", "addr:street_address": "666 Burnhamthorpe Road", "name": "Burnhamthorpe/Saturn", "brand": "The Beer Store", "brand:wikidata": "Q16243674", "nsi_id": "thebeerstore-19c622"}, "geometry": {"type": "Point", "coordinates": [-79.575909, 43.64186]}},
{"type": "Feature", "id": "Co46ttJS-ZzwRU2zQNVLCPR5HWc=", "properties": {"ref": "2360", "@spider": "beer_store", "shop": "alcohol", "addr:street_address": "1735 Kipling Avenue", "name": "Kipling/Dixon", "brand": "The Beer Store", "brand:wikidata": "Q16243674", "nsi_id": "thebeerstore-19c622"}, "geometry": {"type": "Point", "coordinates": [-79.557379, 43.693584]}},
{"type": "Feature", "id": "vKL30678URdPuA5DJNhfxRRDAjU=", "properties": {"ref": "2362", "@spider": "beer_store", "shop": "alcohol", "addr:street_address": "1530 Albion Road", "name": "Albion Mall (Albion/Kipling)", "brand": "The Beer Store", "brand:wikidata": "Q16243674", "nsi_id": "thebeerstore-19c622"}, "geometry": {"type": "Point", "coordinates": [-79.587005, 43.742662]}},
{"type": "Feature", "id": "iG8zF1Pb0DrWo_X6Woi3Qt_pmLY=", "properties": {"ref": "2363", "@spider": "beer_store", "shop": "alcohol", "addr:street_address": "250 Wincott Drive", "name": "Eglinton/Wincott", "brand": "The Beer Store", "brand:wikidata": "Q16243674", "nsi_id": "thebeerstore-19c622"}, "geometry": {"type": "Point", "coordinates": [-79.545868, 43.679644]}},
{"type": "Feature", "id": "FgZoePrYK6Bb5Y8gQOLpRgBTQsE=", "properties": {"ref": "2314", "@spider": "beer_store", "shop": "alcohol", "addr:street_address": "3524 Dundas Street W.", "name": "Dundas/Jane", "brand": "The Beer Store", "brand:wikidata": "Q16243674", "nsi_id": "thebeerstore-19c622"}, "geometry": {"type": "Point", "coordinates": [-79.489207, 43.666091]}},
{"type": "Feature", "id": "orGbGFJbuLlpiH2A8uPv7LV77Ys=", "properties": {"ref": "2353", "@spider": "beer_store", "shop": "alcohol", "addr:street_address": "1515 Keele Street", "name": "Keele/Lavender", "brand": "The Beer Store", "brand:wikidata": "Q16243674", "nsi_id": "thebeerstore-19c622"}, "geometry": {"type": "Point", "coordinates": [-79.470207, 43.68004]}},
{"type": "Feature", "id": "wJzLDcAL5bY5sxJgSNmqezjDE18=", "properties": {"ref": "2354", "@spider": "beer_store", "shop": "alcohol", "addr:street_address": "529 Oakwood Avenue", "name": "Oakwood/Vaughan", "brand": "The Beer Store", "brand:wikidata": "Q16243674", "nsi_id": "thebeerstore-19c622"}, "geometry": {"type": "Point", "coordinates": [-79.441153, 43.693766]}},
{"type": "Feature", "id": "cvRlQpz_Jugh61c7yvXMYm5Rni0=", "properties": {"ref": "2356", "@spider": "beer_store", "shop": "alcohol", "addr:street_address": "1718 Wilson Avenue", "name": "Wilson/Jane (Dallner)", "brand": "The Beer Store", "brand:wikidata": "Q16243674", "nsi_id": "thebeerstore-19c622"}, "geometry": {"type": "Point", "coordinates": [-79.513348, 43.720467]}},
{"type": "Feature", "id": "xOZSx479A5sMt72auEWlRcUoboM=", "properties": {"ref": "2369", "@spider": "beer_store", "shop": "alcohol", "addr:street_address": "2568 Finch Avenue W.", "name": "Finchdale Plaza (Weston)", "brand": "The Beer Store", "brand:wikidata": "Q16243674", "nsi_id": "thebeerstore-19c622"}, "geometry": {"type": "Point", "coordinates": [-79.560966, 43.748753]}},
{"type": "Feature", "id": "cO6Bp_8APUWDXw7Qf9x0HpCu29g=", "properties": {"ref": "2372", "@spider": "beer_store", "shop": "alcohol", "addr:street_address": "2005 Finch Ave. W.", "name": "Jane/Finch", "brand": "The Beer Store", "brand:wikidata": "Q16243674", "nsi_id": "thebeerstore-19c622"}, "geometry": {"type": "Point", "coordinates": [-79.519318, 43.756502]}},
{"type": "Feature", "id": "MU0ubZYWDXexFkVDxD6nWJrQwD4=", "properties": {"ref": "2453", "@spider": "beer_store", "shop": "alcohol", "addr:street_address": "179 Sheppard Avenue E.", "name": "Sheppard/Willowdale", "brand": "The Beer Store", "brand:wikidata": "Q16243674", "nsi_id": "thebeerstore-19c622"}, "geometry": {"type": "Point", "coordinates": [-79.400063, 43.763767]}},
{"type": "Feature", "id": "ZfGedtvCWWpIcauaWnOFD_IOeYo=", "properties": {"ref": "2454", "@spider": "beer_store", "shop": "alcohol", "addr:street_address": "6212 Yonge Street", "name": "Centrepoint (Yonge/Steeles)", "brand": "The Beer Store", "brand:wikidata": "Q16243674", "nsi_id": "thebeerstore-19c622"}, "geometry": {"type": "Point", "coordinates": [-79.419083, 43.793758]}},
{"type": "Feature", "id": "JQ3vuH0Ym2iWtX677PsH3vCqlJA=", "properties": {"ref": "2455", "@spider": "beer_store", "shop": "alcohol", "addr:street_address": "900a Don Mills Road", "name": "Don Mills Rd/Barber Green Rd", "brand": "The Beer Store", "brand:wikidata": "Q16243674", "nsi_id": "thebeerstore-19c622"}, "geometry": {"type": "Point", "coordinates": [-79.34227, 43.732189]}},
{"type": "Feature", "id": "OOQIw5xfowHZj7cr9G6GcFdqn5Q=", "properties": {"ref": "2467", "@spider": "beer_store", "shop": "alcohol", "addr:street_address": "3078 Don Mills Rd", "name": "Peanut Plaza (Don Mills Rd.)", "brand": "The Beer Store", "brand:wikidata": "Q16243674", "nsi_id": "thebeerstore-19c622"}, "geometry": {"type": "Point", "coordinates": [-79.352604, 43.78639]}},
{"type": "Feature", "id": "jmnf-e5TTAY2F5GKlK6mQ4YiF24=", "properties": {"ref": "2374", "@spider": "beer_store", "shop": "alcohol", "addr:street_address": "9771 Jane Street", "name": "Maple", "brand": "The Beer Store", "brand:wikidata": "Q16243674", "nsi_id": "thebeerstore-19c622"}, "geometry": {"type": "Point", "coordinates": [-79.53562, 43.846331]}},
{"type": "Feature", "id": "I4w7RT_2B6b6g4F9R0-Tgzb4_uo=", "properties": {"ref": "2378", "@spider": "beer_store", "shop": "alcohol", "addr:street_address": "1470 Major Mackenzie Drive", "name": "Dufferin And Major Mackenzie", "brand": "The Beer Store", "brand:wikidata": "Q16243674", "nsi_id": "thebeerstore-19c622"}, "geometry": {"type": "Point", "coordinates": [-79.486853, 43.862265]}},
{"type": "Feature", "id": "r5GhvaJmjYjjeUnwewl-T3arVT4=", "properties": {"ref": "2402", "@spider": "beer_store", "shop": "alcohol", "addr:street_address": "380 Donlands Avenue", "name": "Donlands/O'connor", "brand": "The Beer Store", "brand:wikidata": "Q16243674", "nsi_id": "thebeerstore-19c622"}, "geometry": {"type": "Point", "coordinates": [-79.34317, 43.694008]}},
{"type": "Feature", "id": "7xZtqSaBCWbj2Ihp5EuPJ2GmEMM=", "properties": {"ref": "2407", "@spider": "beer_store", "shop": "alcohol", "addr:street_address": "1270 Woodbine Avenue", "name": "Woodbine/Barker", "brand": "The Beer Store", "brand:wikidata": "Q16243674", "nsi_id": "thebeerstore-19c622"}, "geometry": {"type": "Point", "coordinates": [-79.316671, 43.693995]}},
{"type": "Feature", "id": "VuSY3Qk2Aj6g3lEyKzatYJNV4sY=", "properties": {"ref": "2405", "@spider": "beer_store", "shop": "alcohol", "addr:street_address": "3130 Danforth Avenue", "name": "Macey/Danforth", "brand": "The Beer Store", "brand:wikidata": "Q16243674", "nsi_id": "thebeerstore-19c622"}, "geometry": {"type": "Point", "coordinates": [-79.28688, 43.691566]}},
{"type": "Feature", "id": "SMB3yKQm6fTPm8Pv-sxcdANOLPU=", "properties": {"ref": "2409", "@spider": "beer_store", "shop": "alcohol", "addr:street_address": "2727 Eglinton Avenue E", "name": "Brimley/Eglinton", "brand": "The Beer Store", "brand:wikidata": "Q16243674", "nsi_id": "thebeerstore-19c622"}, "geometry": {"type": "Point", "coordinates": [-79.248756, 43.736565]}},
{"type": "Feature", "id": "f6Vx0uAEwHsjKxZXfWoekYm6glY=", "properties": {"ref": "2412", "@spider": "beer_store", "shop": "alcohol", "addr:street_address": "1437 Victoria Park", "name": "Victoria Pk/Eglinton", "brand": "The Beer Store", "brand:wikidata": "Q16243674", "nsi_id": "thebeerstore-19c622"}, "geometry": {"type": "Point", "coordinates": [-79.301904, 43.723156]}},
{"type": "Feature", "id": "etcjbguuj-I7i4CZaaTWTnDgJ18=", "properties": {"ref": "2416", "@spider": "beer_store", "shop": "alcohol", "addr:street_address": "3431 St. Clair Avenue E.", "name": "St. Clair/Birchmount", "brand": "The Beer Store", "brand:wikidata": "Q16243674", "nsi_id": "thebeerstore-19c622"}, "geometry": {"type": "Point", "coordinates": [-79.273293, 43.713745]}},
{"type": "Feature", "id": "RbLapCnVGNRaI4VFzXVtHhWWbOg=", "properties": {"ref": "2421", "@spider": "beer_store", "shop": "alcohol", "addr:street_address": "1089 Kingston Road", "name": "Henley Gardens", "brand": "The Beer Store", "brand:wikidata": "Q16243674", "nsi_id": "thebeerstore-19c622"}, "geometry": {"type": "Point", "coordinates": [-79.283718, 43.680681]}},
{"type": "Feature", "id": "vAHOL8KNqqYwevEFydo-uxJp8PU=", "properties": {"ref": "2456", "@spider": "beer_store", "shop": "alcohol", "addr:street_address": "4479 Kingston Road", "name": "Kingston Rd/Morningside", "brand": "The Beer Store", "brand:wikidata": "Q16243674", "nsi_id": "thebeerstore-19c622"}, "geometry": {"type": "Point", "coordinates": [-79.189003, 43.768608]}},
{"type": "Feature", "id": "-kSDqkWPfG86f3lqjRQR6acRye8=", "properties": {"ref": "2457", "@spider": "beer_store", "shop": "alcohol", "addr:street_address": "40 Ellesmere Road", "name": "Ellesmere/Victoria Park", "brand": "The Beer Store", "brand:wikidata": "Q16243674", "nsi_id": "thebeerstore-19c622"}, "geometry": {"type": "Point", "coordinates": [-79.314068, 43.758872]}},
{"type": "Feature", "id": "gL3-hccuUtGash1AgFEouHLk2B8=", "properties": {"ref": "2459", "@spider": "beer_store", "shop": "alcohol", "addr:street_address": "2300 Lawrence Avenue E.", "name": "Lawrence/Kennedy", "brand": "The Beer Store", "brand:wikidata": "Q16243674", "nsi_id": "thebeerstore-19c622"}, "geometry": {"type": "Point", "coordinates": [-79.276299, 43.749146]}},
{"type": "Feature", "id": "8KFU2vAAe-njyqDxai9TN-drJBI=", "properties": {"ref": "2460", "@spider": "beer_store", "shop": "alcohol", "addr:street_address": "3561 Lawrence Avenue E.", "name": "Cedarbrae (Lawrence/Markham)", "brand": "The Beer Store", "brand:wikidata": "Q16243674", "nsi_id": "thebeerstore-19c622"}, "geometry": {"type": "Point", "coordinates": [-79.2294368, 43.7590773]}},
{"type": "Feature", "id": "Iyn-X3EhPCteyAFH8xmrxKllYz4=", "properties": {"ref": "2466", "@spider": "beer_store", "shop": "alcohol", "addr:street_address": "2360 Kennedy Road", "name": "Kennedy/Sheppard", "brand": "The Beer Store", "brand:wikidata": "Q16243674", "nsi_id": "thebeerstore-19c622"}, "geometry": {"type": "Point", "coordinates": [-79.288345, 43.782967]}},
{"type": "Feature", "id": "aHB4-vmxY62jVb94DXQz3Gfzjfk=", "properties": {"ref": "2469", "@spider": "beer_store", "shop": "alcohol", "addr:street_address": "5544 Lawrence Avenue E.", "name": "Lawrence/Port Union", "brand": "The Beer Store", "brand:wikidata": "Q16243674", "nsi_id": "thebeerstore-19c622"}, "geometry": {"type": "Point", "coordinates": [-79.1397996, 43.7802371]}},
{"type": "Feature", "id": "Kxxp9-OYzenmoxT5hkv9EIcpSKo=", "properties": {"ref": "2470", "@spider": "beer_store", "shop": "alcohol", "addr:street_address": "2934 Finch Ave. East", "name": "Victoria Park/Finch", "brand": "The Beer Store", "brand:wikidata": "Q16243674", "nsi_id": "thebeerstore-19c622"}, "geometry": {"type": "Point", "coordinates": [-79.330738, 43.793834]}},
{"type": "Feature", "id": "6k2g_tak7_K75oWkd3tbsL8MStU=", "properties": {"ref": "2471", "@spider": "beer_store", "shop": "alcohol", "addr:street_address": "1001 Sandhurst Circle", "name": "Finch/Mccowan (Sandhurst)", "brand": "The Beer Store", "brand:wikidata": "Q16243674", "nsi_id": "thebeerstore-19c622"}, "geometry": {"type": "Point", "coordinates": [-79.263223, 43.808994]}},
{"type": "Feature", "id": "e5ZXVvmMmBMALCGloFEEP7UT2pk=", "properties": {"ref": "2486", "@spider": "beer_store", "shop": "alcohol", "addr:street_address": "871 Milner Ave", "name": "Milner & Morningside", "brand": "The Beer Store", "brand:wikidata": "Q16243674", "nsi_id": "thebeerstore-19c622"}, "geometry": {"type": "Point", "coordinates": [-79.196768, 43.799465]}},
{"type": "Feature", "id": "jxWPr4PH73Yb1ZVZ2-N9BuTy3-4=", "properties": {"ref": "2472", "@spider": "beer_store", "shop": "alcohol", "addr:street_address": "5804 Hwy #7", "name": "Hwy #7", "brand": "The Beer Store", "brand:wikidata": "Q16243674", "nsi_id": "thebeerstore-19c622"}, "geometry": {"type": "Point", "coordinates": [-79.2661375, 43.8723168]}},
{"type": "Feature", "id": "sLDueO8Haz7rjEMWNcpiu6BPp0o=", "properties": {"ref": "2473", "@spider": "beer_store", "shop": "alcohol", "addr:street_address": "4681 Hwy # 7", "name": "Unionville", "brand": "The Beer Store", "brand:wikidata": "Q16243674", "nsi_id": "thebeerstore-19c622"}, "geometry": {"type": "Point", "coordinates": [-79.312599, 43.867401]}},
{"type": "Feature", "id": "mwh23Cof7L6ms0oboNpg4ssc5Rg=", "properties": {"ref": "2483", "@spider": "beer_store", "shop": "alcohol", "addr:street_address": "9780 Markham Road", "name": "Markham Rd", "brand": "The Beer Store", "brand:wikidata": "Q16243674", "nsi_id": "thebeerstore-19c622"}, "geometry": {"type": "Point", "coordinates": [-79.264364, 43.894535]}},
{"type": "Feature", "id": "J-SQA3FdvMf_iX39e5lVm7Al4NM=", "properties": {"ref": "2474", "@spider": "beer_store", "shop": "alcohol", "addr:street_address": "1355 Kingston Rd.", "name": "Kingston Road", "brand": "The Beer Store", "brand:wikidata": "Q16243674", "nsi_id": "thebeerstore-19c622"}, "geometry": {"type": "Point", "coordinates": [-79.089844, 43.833817]}},
{"type": "Feature", "id": "q5RYhBowcDO9WzqQ68Rend5fXqU=", "properties": {"ref": "2478", "@spider": "beer_store", "shop": "alcohol", "addr:street_address": "705 Kingston Road", "name": "Kingston/Whites", "brand": "The Beer Store", "brand:wikidata": "Q16243674", "nsi_id": "thebeerstore-19c622"}, "geometry": {"type": "Point", "coordinates": [-79.115776, 43.819378]}},
{"type": "Feature", "id": "Ch0Z-eD9E9j-zkMnbmKpSDvZn-c=", "properties": {"ref": "2475", "@spider": "beer_store", "shop": "alcohol", "addr:street_address": "10375 Yonge Street N.", "name": "Yonge St. N.", "brand": "The Beer Store", "brand:wikidata": "Q16243674", "nsi_id": "thebeerstore-19c622"}, "geometry": {"type": "Point", "coordinates": [-79.438322, 43.880788]}},
{"type": "Feature", "id": "te4sqtXxjlDzQOxKq_ot67ZMydk=", "properties": {"ref": "2481", "@spider": "beer_store", "shop": "alcohol", "addr:street_address": "8825 Yonge St.", "name": "Yonge/High Tech", "brand": "The Beer Store", "brand:wikidata": "Q16243674", "nsi_id": "thebeerstore-19c622"}, "geometry": {"type": "Point", "coordinates": [-79.429851, 43.842268]}},
{"type": "Feature", "id": "yJel67j9P7yqbt4Xn6jyiLUQYBY=", "properties": {"ref": "2485", "@spider": "beer_store", "shop": "alcohol", "addr:street_address": "13469 Yonge Street", "name": "Oak Ridges", "brand": "The Beer Store", "brand:wikidata": "Q16243674", "nsi_id": "thebeerstore-19c622"}, "geometry": {"type": "Point", "coordinates": [-79.456607, 43.954829]}},
{"type": "Feature", "id": "otBzqyfpYyRlXdQ4Ex_5Rg6Ydrk=", "properties": {"ref": "2476", "@spider": "beer_store", "shop": "alcohol", "addr:street_address": "5779 Main Street", "name": "Stouffville", "brand": "The Beer Store", "brand:wikidata": "Q16243674", "nsi_id": "thebeerstore-19c622"}, "geometry": {"type": "Point", "coordinates": [-79.2653632, 43.966886]}},
{"type": "Feature", "id": "9MsuFYU1LFxRe_C2xL-iJlvNKt8=", "properties": {"ref": "3002", "@spider": "beer_store", "shop": "alcohol", "addr:street_address": "280 Murray Street", "name": "Murray St.", "brand": "The Beer Store", "brand:wikidata": "Q16243674", "nsi_id": "thebeerstore-19c622"}, "geometry": {"type": "Point", "coordinates": [-80.253428, 43.146737]}},
{"type": "Feature", "id": "ddHkAR3VGMhf2oruz4SEzS7wzzw=", "properties": {"ref": "3003", "@spider": "beer_store", "shop": "alcohol", "addr:street_address": "116 St. George Street", "name": "St. George St.", "brand": "The Beer Store", "brand:wikidata": "Q16243674", "nsi_id": "thebeerstore-19c622"}, "geometry": {"type": "Point", "coordinates": [-80.273827, 43.155319]}},
{"type": "Feature", "id": "Jjs1Ndmn5mNbHu1O1xGxPieED6s=", "properties": {"ref": "3004", "@spider": "beer_store", "shop": "alcohol", "addr:street_address": "300 King George Road", "name": "Brantford Mall (King George)", "brand": "The Beer Store", "brand:wikidata": "Q16243674", "nsi_id": "thebeerstore-19c622"}, "geometry": {"type": "Point", "coordinates": [-80.280782, 43.182749]}},
{"type": "Feature", "id": "ZwZ1oOglTG-u0U8tk2SvTU49eCE=", "properties": {"ref": "3011", "@spider": "beer_store", "shop": "alcohol", "addr:street_address": "50 Market Street South", "name": "Market St. S.", "brand": "The Beer Store", "brand:wikidata": "Q16243674", "nsi_id": "thebeerstore-19c622"}, "geometry": {"type": "Point", "coordinates": [-80.263489, 43.136684]}},
{"type": "Feature", "id": "DDmntEEbsTK1Lwjlv1um6xJcIKA=", "properties": {"ref": "3005", "@spider": "beer_store", "shop": "alcohol", "addr:street_address": "64 Argyle Avenue", "name": "Delhi", "brand": "The Beer Store", "brand:wikidata": "Q16243674", "nsi_id": "thebeerstore-19c622"}, "geometry": {"type": "Point", "coordinates": [-80.488392, 42.849113]}},
{"type": "Feature", "id": "SFloAZKj4H4PN4mPdr7ZuRn4P6Q=", "properties": {"ref": "3006", "@spider": "beer_store", "shop": "alcohol", "addr:street_address": "55 Main Street N", "name": "Hagersville", "brand": "The Beer Store", "brand:wikidata": "Q16243674", "nsi_id": "thebeerstore-19c622"}, "geometry": {"type": "Point", "coordinates": [-80.050003, 42.964298]}},
{"type": "Feature", "id": "CwOdRotizx2flcjEmLHcXWlkjlQ=", "properties": {"ref": "3007", "@spider": "beer_store", "shop": "alcohol", "addr:street_address": "28 Silver St.", "name": "Paris", "brand": "The Beer Store", "brand:wikidata": "Q16243674", "nsi_id": "thebeerstore-19c622"}, "geometry": {"type": "Point", "coordinates": [-80.393379, 43.205238]}},
{"type": "Feature", "id": "bWFdwi_t03Y7rhY4n7UHAJILNAg=", "properties": {"ref": "3008", "@spider": "beer_store", "shop": "alcohol", "addr:street_address": "120 Andrew Street", "name": "Port Dover", "brand": "The Beer Store", "brand:wikidata": "Q16243674", "nsi_id": "thebeerstore-19c622"}, "geometry": {"type": "Point", "coordinates": [-80.202547, 42.787815]}},
{"type": "Feature", "id": "-eD2baSHuoZqCHwbVigOOdUqaK4=", "properties": {"ref": "3009", "@spider": "beer_store", "shop": "alcohol", "addr:street_address": "22 College Road", "name": "Port Rowan", "brand": "The Beer Store", "brand:wikidata": "Q16243674", "nsi_id": "thebeerstore-19c622"}, "geometry": {"type": "Point", "coordinates": [-80.453697, 42.623001]}},
{"type": "Feature", "id": "qMFJjInyib8zceGJ23xlOr7AKaI=", "properties": {"ref": "3010", "@spider": "beer_store", "shop": "alcohol", "addr:street_address": "49 Stover St. South", "name": "Norwich", "brand": "The Beer Store", "brand:wikidata": "Q16243674", "nsi_id": "thebeerstore-19c622"}, "geometry": {"type": "Point", "coordinates": [-80.595345, 42.98296]}},
{"type": "Feature", "id": "YDqAhPygZfwiumiVm8BH8rGvAnM=", "properties": {"ref": "3041", "@spider": "beer_store", "shop": "alcohol", "addr:street_address": "454 Norfolk Street South", "name": "Simcoe", "brand": "The Beer Store", "brand:wikidata": "Q16243674", "nsi_id": "thebeerstore-19c622"}, "geometry": {"type": "Point", "coordinates": [-80.300673, 42.835411]}},
{"type": "Feature", "id": "yu3mfN12PPTiNyfL4n4TBdwD3YQ=", "properties": {"ref": "3042", "@spider": "beer_store", "shop": "alcohol", "addr:street_address": "114 Concession Street E.", "name": "Tillsonburg", "brand": "The Beer Store", "brand:wikidata": "Q16243674", "nsi_id": "thebeerstore-19c622"}, "geometry": {"type": "Point", "coordinates": [-80.72242, 42.867809]}},
{"type": "Feature", "id": "gf71lEftLtktSB64hvdqyKAluOM=", "properties": {"ref": "3052", "@spider": "beer_store", "shop": "alcohol", "addr:street_address": "445 St Clair St.", "name": "St.clair Avenue", "brand": "The Beer Store", "brand:wikidata": "Q16243674", "nsi_id": "thebeerstore-19c622"}, "geometry": {"type": "Point", "coordinates": [-82.201973, 42.417557]}},
{"type": "Feature", "id": "hU5ZftL7uxHX9WK0r3n3XBCDV_Q=", "properties": {"ref": "3053", "@spider": "beer_store", "shop": "alcohol", "addr:street_address": "132 Richmond Street", "name": "Richmond Street", "brand": "The Beer Store", "brand:wikidata": "Q16243674", "nsi_id": "thebeerstore-19c622"}, "geometry": {"type": "Point", "coordinates": [-82.187431, 42.39809]}},
{"type": "Feature", "id": "k1Qy9S_GsmRE_KaGFPYIZhWGNcA=", "properties": {"ref": "3054", "@spider": "beer_store", "shop": "alcohol", "addr:street_address": "100 Marlborough St N", "name": "Blenheim", "brand": "The Beer Store", "brand:wikidata": "Q16243674", "nsi_id": "thebeerstore-19c622"}, "geometry": {"type": "Point", "coordinates": [-81.99479, 42.333598]}},
{"type": "Feature", "id": "_95nST936hVP9nYp76Z459yRdNk=", "properties": {"ref": "3055", "@spider": "beer_store", "shop": "alcohol", "addr:street_address": "160 Oak Street West", "name": "Bothwell", "brand": "The Beer Store", "brand:wikidata": "Q16243674", "nsi_id": "thebeerstore-19c622"}, "geometry": {"type": "Point", "coordinates": [-81.87082, 42.629425]}},
{"type": "Feature", "id": "6DITSCgOcedcxEuQ1e_9PeHs954=", "properties": {"ref": "3056", "@spider": "beer_store", "shop": "alcohol", "addr:street_address": "90 Erie St S. & #21 Hwy.", "name": "Ridgetown", "brand": "The Beer Store", "brand:wikidata": "Q16243674", "nsi_id": "thebeerstore-19c622"}, "geometry": {"type": "Point", "coordinates": [-81.886624, 42.438885]}},
{"type": "Feature", "id": "RtsbWEosJHqZ2sXWjToR0IK22ag=", "properties": {"ref": "3057", "@spider": "beer_store", "shop": "alcohol", "addr:street_address": "167 Queen Street", "name": "Rodney", "brand": "The Beer Store", "brand:wikidata": "Q16243674", "nsi_id": "thebeerstore-19c622"}, "geometry": {"type": "Point", "coordinates": [-81.684395, 42.567978]}},
{"type": "Feature", "id": "B2prvn-rMl3ASOJQ7PE8hhWXikE=", "properties": {"ref": "3058", "@spider": "beer_store", "shop": "alcohol", "addr:street_address": "2 Queen Street South", "name": "Tilbury", "brand": "The Beer Store", "brand:wikidata": "Q16243674", "nsi_id": "thebeerstore-19c622"}, "geometry": {"type": "Point", "coordinates": [-82.434921, 42.26368]}},
{"type": "Feature", "id": "TDTdUvUVJ5j2vm04EL0ZajSeZJg=", "properties": {"ref": "3059", "@spider": "beer_store", "shop": "alcohol", "addr:street_address": "64 Mcnaughton Street", "name": "Wallaceburg", "brand": "The Beer Store", "brand:wikidata": "Q16243674", "nsi_id": "thebeerstore-19c622"}, "geometry": {"type": "Point", "coordinates": [-82.383751, 42.585182]}},
{"type": "Feature", "id": "vU8FSSE9JIJ45QvS4dm-ywBcFRE=", "properties": {"ref": "3102", "@spider": "beer_store", "shop": "alcohol", "addr:street_address": "514 Adelaide Street", "name": "Adelaide/Lorne", "brand": "The Beer Store", "brand:wikidata": "Q16243674", "nsi_id": "thebeerstore-19c622"}, "geometry": {"type": "Point", "coordinates": [-81.232903, 42.99231]}},
{"type": "Feature", "id": "ENbzK_r60LDkJKWO-ZGRZmtgcpo=", "properties": {"ref": "3103", "@spider": "beer_store", "shop": "alcohol", "addr:street_address": "552 Hamilton Road", "name": "Hamilton/Sackville", "brand": "The Beer Store", "brand:wikidata": "Q16243674", "nsi_id": "thebeerstore-19c622"}, "geometry": {"type": "Point", "coordinates": [-81.2145, 42.980667]}},
{"type": "Feature", "id": "f1FDV3EK64WNbKB1ZCCtiwjiQN0=", "properties": {"ref": "3104", "@spider": "beer_store", "shop": "alcohol", "addr:street_address": "250 Piccadilly Street", "name": "Piccadilly St.", "brand": "The Beer Store", "brand:wikidata": "Q16243674", "nsi_id": "thebeerstore-19c622"}, "geometry": {"type": "Point", "coordinates": [-81.251556, 42.995014]}},
{"type": "Feature", "id": "YgGHd1211TKwDF8zsGbWtCozFxA=", "properties": {"ref": "3105", "@spider": "beer_store", "shop": "alcohol", "addr:street_address": "1600 Dundas Street E.", "name": "Dundas St. E.", "brand": "The Beer Store", "brand:wikidata": "Q16243674", "nsi_id": "thebeerstore-19c622"}, "geometry": {"type": "Point", "coordinates": [-81.192162, 43.000401]}},
{"type": "Feature", "id": "tf41XBnfXfBVoHE4UWhj_Gys8vA=", "properties": {"ref": "3106", "@spider": "beer_store", "shop": "alcohol", "addr:street_address": "155 Clarke Road", "name": "Clarke Road", "brand": "The Beer Store", "brand:wikidata": "Q16243674", "nsi_id": "thebeerstore-19c622"}, "geometry": {"type": "Point", "coordinates": [-81.171188, 42.991413]}},
{"type": "Feature", "id": "ogEpmynIIhixhmpz0rUKUMlWgEw=", "properties": {"ref": "3107", "@spider": "beer_store", "shop": "alcohol", "addr:street_address": "414 Wharncliffe Road South", "name": "Wharncliffe Rd.s.", "brand": "The Beer Store", "brand:wikidata": "Q16243674", "nsi_id": "thebeerstore-19c622"}, "geometry": {"type": "Point", "coordinates": [-81.260536, 42.962193]}},
{"type": "Feature", "id": "7q5ePWC9zYwc4K0EVyijbqAqJME=", "properties": {"ref": "3108", "@spider": "beer_store", "shop": "alcohol", "addr:street_address": "1199 Oxford Street West", "name": "Oakridge Mall (Oxford St. W)", "brand": "The Beer Store", "brand:wikidata": "Q16243674", "nsi_id": "thebeerstore-19c622"}, "geometry": {"type": "Point", "coordinates": [-81.321129, 42.976032]}},
{"type": "Feature", "id": "j4rpMVouSPEHX330yIPKxI7I7hs=", "properties": {"ref": "3110", "@spider": "beer_store", "shop": "alcohol", "addr:street_address": "3069 Wonderland Road S.", "name": "Westmount (Wonderland Rd.)", "brand": "The Beer Store", "brand:wikidata": "Q16243674", "nsi_id": "thebeerstore-19c622"}, "geometry": {"type": "Point", "coordinates": [-81.281578, 42.937016]}},
{"type": "Feature", "id": "h8U_of1H0XOB7Z5SEXLR3HdVYGQ=", "properties": {"ref": "3111", "@spider": "beer_store", "shop": "alcohol", "addr:street_address": "712 Baseline Road E.", "name": "Baseline/Wellington", "brand": "The Beer Store", "brand:wikidata": "Q16243674", "nsi_id": "thebeerstore-19c622"}, "geometry": {"type": "Point", "coordinates": [-81.229797, 42.962456]}},
{"type": "Feature", "id": "ZVF-to7cBXFpVPEYl8H4da7ddTQ=", "properties": {"ref": "3112", "@spider": "beer_store", "shop": "alcohol", "addr:street_address": "1080 Adelaide St. North", "name": "Huron/Adelaide", "brand": "The Beer Store", "brand:wikidata": "Q16243674", "nsi_id": "thebeerstore-19c622"}, "geometry": {"type": "Point", "coordinates": [-81.241402, 43.010235]}},
{"type": "Feature", "id": "5bajJHDOlSy72vUpmqRce-4C93I=", "properties": {"ref": "3113", "@spider": "beer_store", "shop": "alcohol", "addr:street_address": "1005 Wellington Road", "name": "Wellington Road", "brand": "The Beer Store", "brand:wikidata": "Q16243674", "nsi_id": "thebeerstore-19c622"}, "geometry": {"type": "Point", "coordinates": [-81.226318, 42.938667]}},
{"type": "Feature", "id": "dZX-HJrioiFuA6PHWnpkdQQvYTQ=", "properties": {"ref": "3114", "@spider": "beer_store", "shop": "alcohol", "addr:street_address": "1225 Wonderland Road N.", "name": "Medway (Wonderland Rd. N.)", "brand": "The Beer Store", "brand:wikidata": "Q16243674", "nsi_id": "thebeerstore-19c622"}, "geometry": {"type": "Point", "coordinates": [-81.306999, 43.005497]}},
{"type": "Feature", "id": "cm4wGGM2uFCGLhPwSRzklLZgcq4=", "properties": {"ref": "3117", "@spider": "beer_store", "shop": "alcohol", "addr:street_address": "1727 Richmond Street", "name": "The Hyland Centre", "brand": "The Beer Store", "brand:wikidata": "Q16243674", "nsi_id": "thebeerstore-19c622"}, "geometry": {"type": "Point", "coordinates": [-81.283958, 43.027927]}},
{"type": "Feature", "id": "VPPw3Wf-Kl2rGiqPFBkXWvX9N0E=", "properties": {"ref": "3118", "@spider": "beer_store", "shop": "alcohol", "addr:street_address": "2386 Main Street", "name": "Lambeth", "brand": "The Beer Store", "brand:wikidata": "Q16243674", "nsi_id": "thebeerstore-19c622"}, "geometry": {"type": "Point", "coordinates": [-81.2939, 42.91058]}},
{"type": "Feature", "id": "PCQ6mKzeGlilkqqxmdj5T7iTslU=", "properties": {"ref": "3140", "@spider": "beer_store", "shop": "alcohol", "addr:street_address": "280 Sovereign Road", "name": "London Distribution Centre", "brand": "The Beer Store", "brand:wikidata": "Q16243674", "nsi_id": "thebeerstore-19c622"}, "geometry": {"type": "Point", "coordinates": [-80.02040863, 44.52152442]}},
{"type": "Feature", "id": "qVMq25lbAYY-7yCYGhgalxBx-Lg=", "properties": {"ref": "3115", "@spider": "beer_store", "shop": "alcohol", "addr:street_address": "371 John Street N.", "name": "Aylmer", "brand": "The Beer Store", "brand:wikidata": "Q16243674", "nsi_id": "thebeerstore-19c622"}, "geometry": {"type": "Point", "coordinates": [-80.982498, 42.778095]}},
{"type": "Feature", "id": "rN82jOTrugw7t0EID5eKkU3_KgI=", "properties": {"ref": "3116", "@spider": "beer_store", "shop": "alcohol", "addr:street_address": "112 Metcalfe Street W.", "name": "Strathroy", "brand": "The Beer Store", "brand:wikidata": "Q16243674", "nsi_id": "thebeerstore-19c622"}, "geometry": {"type": "Point", "coordinates": [-81.624298, 42.953705]}},
{"type": "Feature", "id": "FKeISuYwDR_8u2V9oJ05Dha0TZI=", "properties": {"ref": "3119", "@spider": "beer_store", "shop": "alcohol", "addr:street_address": "4367 Hamilton Road", "name": "Dorchester", "brand": "The Beer Store", "brand:wikidata": "Q16243674", "nsi_id": "thebeerstore-19c622"}, "geometry": {"type": "Point", "coordinates": [-81.052925, 42.968258]}},
{"type": "Feature", "id": "CVArpuAmCxR_ygQMw83ld1h8MjY=", "properties": {"ref": "3139", "@spider": "beer_store", "shop": "alcohol", "addr:street_address": "1014 Talbot Street", "name": "St. Thomas", "brand": "The Beer Store", "brand:wikidata": "Q16243674", "nsi_id": "thebeerstore-19c622"}, "geometry": {"type": "Point", "coordinates": [-81.172768, 42.778004]}},
{"type": "Feature", "id": "gtdhO40J5K3wWYqj9nY6ZJaOtVU=", "properties": {"ref": "3151", "@spider": "beer_store", "shop": "alcohol", "addr:street_address": "1107 Confederation St.", "name": "Confederation St.", "brand": "The Beer Store", "brand:wikidata": "Q16243674", "nsi_id": "thebeerstore-19c622"}, "geometry": {"type": "Point", "coordinates": [-82.374283, 42.960007]}},
{"type": "Feature", "id": "sepK6V0pRNtrJMmJLW7cH1jrgek=", "properties": {"ref": "3152", "@spider": "beer_store", "shop": "alcohol", "addr:street_address": "210 Maxwell Street", "name": "Maxwell St.", "brand": "The Beer Store", "brand:wikidata": "Q16243674", "nsi_id": "thebeerstore-19c622"}, "geometry": {"type": "Point", "coordinates": [-82.401115, 42.98138]}},
{"type": "Feature", "id": "eU-F_sEYaH4BqljnAdOxu3XsSO0=", "properties": {"ref": "3153", "@spider": "beer_store", "shop": "alcohol", "addr:street_address": "1380 London Road", "name": "Lambton Mall (London Rd.)", "brand": "The Beer Store", "brand:wikidata": "Q16243674", "nsi_id": "thebeerstore-19c622"}, "geometry": {"type": "Point", "coordinates": [-82.354752, 42.982101]}},
{"type": "Feature", "id": "IGqh7TAjlsvaEUnnazMOMG5zQvs=", "properties": {"ref": "3154", "@spider": "beer_store", "shop": "alcohol", "addr:street_address": "195 St. Clair Blvd.", "name": "Corunna", "brand": "The Beer Store", "brand:wikidata": "Q16243674", "nsi_id": "thebeerstore-19c622"}, "geometry": {"type": "Point", "coordinates": [-82.452796, 42.878474]}},
{"type": "Feature", "id": "weMQMBrY8EN-y-HFL7bkaaNQtYA=", "properties": {"ref": "3155", "@spider": "beer_store", "shop": "alcohol", "addr:street_address": "78 Main Street N.", "name": "Exeter", "brand": "The Beer Store", "brand:wikidata": "Q16243674", "nsi_id": "thebeerstore-19c622"}, "geometry": {"type": "Point", "coordinates": [-81.482085, 43.354635]}},
{"type": "Feature", "id": "HWJKmAvVCmeEtx1NP7unkCLm3to=", "properties": {"ref": "3156", "@spider": "beer_store", "shop": "alcohol", "addr:street_address": "89 Main St. S.", "name": "Forest", "brand": "The Beer Store", "brand:wikidata": "Q16243674", "nsi_id": "thebeerstore-19c622"}, "geometry": {"type": "Point", "coordinates": [-82.00069, 43.08806]}},
{"type": "Feature", "id": "axjxqWGE5W2yQXLo9syerlODeTQ=", "properties": {"ref": "3157", "@spider": "beer_store", "shop": "alcohol", "addr:street_address": "4355 Petrolia Street E.", "name": "Petrolia", "brand": "The Beer Store", "brand:wikidata": "Q16243674", "nsi_id": "thebeerstore-19c622"}, "geometry": {"type": "Point", "coordinates": [-82.133873, 42.88126]}},
{"type": "Feature", "id": "vgvdjfcMn_1TP4-Uib2be3sus4s=", "properties": {"ref": "3159", "@spider": "beer_store", "shop": "alcohol", "addr:street_address": "121 Main Street", "name": "Thedford", "brand": "The Beer Store", "brand:wikidata": "Q16243674", "nsi_id": "thebeerstore-19c622"}, "geometry": {"type": "Point", "coordinates": [-81.853398, 43.164489]}},
{"type": "Feature", "id": "TInoBcVwasXWN2BSNuNk1omilPE=", "properties": {"ref": "3191", "@spider": "beer_store", "shop": "alcohol", "addr:street_address": "21 Ontario Street North", "name": "Grand Bend", "brand": "The Beer Store", "brand:wikidata": "Q16243674", "nsi_id": "thebeerstore-19c622"}, "geometry": {"type": "Point", "coordinates": [-81.756172, 43.31345]}},
{"type": "Feature", "id": "7A6KeQ16K8_oMWzbEUvdaru9EyM=", "properties": {"ref": "3202", "@spider": "beer_store", "shop": "alcohol", "addr:street_address": "925 Ontario Street", "name": "Stratford", "brand": "The Beer Store", "brand:wikidata": "Q16243674", "nsi_id": "thebeerstore-19c622"}, "geometry": {"type": "Point", "coordinates": [-80.948792, 43.369011]}},
{"type": "Feature", "id": "KzbII_tvVEKaYF2AJxpG2LoxeIE=", "properties": {"ref": "3240", "@spider": "beer_store", "shop": "alcohol", "addr:street_address": "429 Huron Street", "name": "Stratford", "brand": "The Beer Store", "brand:wikidata": "Q16243674", "nsi_id": "thebeerstore-19c622"}, "geometry": {"type": "Point", "coordinates": [-80.999031, 43.378342]}},
{"type": "Feature", "id": "EHETz5FLqK9XYAdqgCuk27ndBLI=", "properties": {"ref": "3203", "@spider": "beer_store", "shop": "alcohol", "addr:street_address": "30 Mill Street", "name": "Clinton", "brand": "The Beer Store", "brand:wikidata": "Q16243674", "nsi_id": "thebeerstore-19c622"}, "geometry": {"type": "Point", "coordinates": [-81.53833, 43.619904]}},
{"type": "Feature", "id": "BqPnmHrP5gaAIk9cikKNQdMQFZ4=", "properties": {"ref": "3204", "@spider": "beer_store", "shop": "alcohol", "addr:street_address": "395 Huron Road", "name": "Goderich", "brand": "The Beer Store", "brand:wikidata": "Q16243674", "nsi_id": "thebeerstore-19c622"}, "geometry": {"type": "Point", "coordinates": [-81.693413, 43.733303]}},
{"type": "Feature", "id": "zhIsghej0n-xd7R4CUCwEbcmtfE=", "properties": {"ref": "3205", "@spider": "beer_store", "shop": "alcohol", "addr:street_address": "62 Charles Street W.", "name": "Ingersoll", "brand": "The Beer Store", "brand:wikidata": "Q16243674", "nsi_id": "thebeerstore-19c622"}, "geometry": {"type": "Point", "coordinates": [-80.885101, 43.039204]}},
{"type": "Feature", "id": "hUTkZ7jRBmsXDALrubuZvFi_sNA=", "properties": {"ref": "3206", "@spider": "beer_store", "shop": "alcohol", "addr:street_address": "215 St. George Street", "name": "Mitchell", "brand": "The Beer Store", "brand:wikidata": "Q16243674", "nsi_id": "thebeerstore-19c622"}, "geometry": {"type": "Point", "coordinates": [-81.191338, 43.473831]}},
{"type": "Feature", "id": "J2BXeLrrcWNLJDjwvE5NT3l-1XQ=", "properties": {"ref": "3208", "@spider": "beer_store", "shop": "alcohol", "addr:street_address": "571 Queen St. W.", "name": "St. Marys", "brand": "The Beer Store", "brand:wikidata": "Q16243674", "nsi_id": "thebeerstore-19c622"}, "geometry": {"type": "Point", "coordinates": [-81.163368, 43.257404]}},
{"type": "Feature", "id": "zGTYmv6Dwg7ieV6mLqK1FstoUbg=", "properties": {"ref": "3209", "@spider": "beer_store", "shop": "alcohol", "addr:street_address": "911 Dundas Street", "name": "Dundas St. E.", "brand": "The Beer Store", "brand:wikidata": "Q16243674", "nsi_id": "thebeerstore-19c622"}, "geometry": {"type": "Point", "coordinates": [-80.729652, 43.133244]}},
{"type": "Feature", "id": "CCroygKL9AP-wZj-HFzgvZxHWLw=", "properties": {"ref": "3241", "@spider": "beer_store", "shop": "alcohol", "addr:street_address": "86 Beale Street", "name": "Woodstock", "brand": "The Beer Store", "brand:wikidata": "Q16243674", "nsi_id": "thebeerstore-19c622"}, "geometry": {"type": "Point", "coordinates": [-80.75135, 43.133747]}},
{"type": "Feature", "id": "yLdLKM_KkL-fjAkjHHEP-gkdC1E=", "properties": {"ref": "3251", "@spider": "beer_store", "shop": "alcohol", "addr:street_address": "2380 Walker Road", "name": "Walker Rd/Ypres", "brand": "The Beer Store", "brand:wikidata": "Q16243674", "nsi_id": "thebeerstore-19c622"}, "geometry": {"type": "Point", "coordinates": [-82.99073, 42.298145]}},
{"type": "Feature", "id": "GpJWyjvF4tzdsFdcr_3fBgPOxlk=", "properties": {"ref": "3252", "@spider": "beer_store", "shop": "alcohol", "addr:street_address": "5455 Wyandotte St. E.", "name": "Riverside (Wyandotte E.)", "brand": "The Beer Store", "brand:wikidata": "Q16243674", "nsi_id": "thebeerstore-19c622"}, "geometry": {"type": "Point", "coordinates": [-82.96024, 42.33019]}},
{"type": "Feature", "id": "3ytbxR-i8sTqQfPj5dwRv43UYBo=", "properties": {"ref": "3253", "@spider": "beer_store", "shop": "alcohol", "addr:street_address": "790 Goyeau Street", "name": "Goyeau @ Elliott Street", "brand": "The Beer Store", "brand:wikidata": "Q16243674", "nsi_id": "thebeerstore-19c622"}, "geometry": {"type": "Point", "coordinates": [-83.033825, 42.312989]}},
{"type": "Feature", "id": "_vDVfU7SWaJr00RF9WCYR9MW694=", "properties": {"ref": "3254", "@spider": "beer_store", "shop": "alcohol", "addr:street_address": "1780 College Avenue", "name": "College/Campbell", "brand": "The Beer Store", "brand:wikidata": "Q16243674", "nsi_id": "thebeerstore-19c622"}, "geometry": {"type": "Point", "coordinates": [-83.05545, 42.302995]}},
{"type": "Feature", "id": "vwIj53hr2KQ5Af4H7S80NL7uMZg=", "properties": {"ref": "3255", "@spider": "beer_store", "shop": "alcohol", "addr:street_address": "2451 Jefferson Blvd.", "name": "Jefferson/Tecumseh", "brand": "The Beer Store", "brand:wikidata": "Q16243674", "nsi_id": "thebeerstore-19c622"}, "geometry": {"type": "Point", "coordinates": [-82.951275, 42.30954]}},
{"type": "Feature", "id": "U2_CyizRl1KhnQl_Z02Y5DLEyqA=", "properties": {"ref": "3256", "@spider": "beer_store", "shop": "alcohol", "addr:street_address": "3240 Dougall Road", "name": "Gateway Plaza (Dougall Rd.)", "brand": "The Beer Store", "brand:wikidata": "Q16243674", "nsi_id": "thebeerstore-19c622"}, "geometry": {"type": "Point", "coordinates": [-83.010246, 42.268456]}},
{"type": "Feature", "id": "_MtPBFX2lNfjGy8zxG0q92fFE0M=", "properties": {"ref": "3258", "@spider": "beer_store", "shop": "alcohol", "addr:street_address": "8150 Tecumseh Blvd. E.", "name": "Tecumseh/Lauzon", "brand": "The Beer Store", "brand:wikidata": "Q16243674", "nsi_id": "thebeerstore-19c622"}, "geometry": {"type": "Point", "coordinates": [-82.928947, 42.315022]}},
{"type": "Feature", "id": "nva8n3WN4kI9Lm6MyeIc4vJSpTo=", "properties": {"ref": "3260", "@spider": "beer_store", "shop": "alcohol", "addr:street_address": "1818 Huron Church Road", "name": "Huron Church/Malden", "brand": "The Beer Store", "brand:wikidata": "Q16243674", "nsi_id": "thebeerstore-19c622"}, "geometry": {"type": "Point", "coordinates": [-83.057404, 42.287704]}},
{"type": "Feature", "id": "Vy5TYxYDV6KTA2u0dt5kAtCiPRA=", "properties": {"ref": "3262", "@spider": "beer_store", "shop": "alcohol", "addr:street_address": "1050 Walker Road", "name": "1050 Walker Road", "brand": "The Beer Store", "brand:wikidata": "Q16243674", "nsi_id": "thebeerstore-19c622"}, "geometry": {"type": "Point", "coordinates": [-83.004311, 42.31852]}},
{"type": "Feature", "id": "CJR3VxAQhlZX90BOJLnpiLnCD5Y=", "properties": {"ref": "3290", "@spider": "beer_store", "shop": "alcohol", "addr:street_address": "2380 Walker Road", "name": "Windsor Crossdock", "brand": "The Beer Store", "brand:wikidata": "Q16243674", "nsi_id": "thebeerstore-19c622"}, "geometry": {"type": "Point", "coordinates": [-82.992209, 42.298775]}},
{"type": "Feature", "id": "Kv4fycHyzsAVAmGB1G2y41tAOYk=", "properties": {"ref": "3259", "@spider": "beer_store", "shop": "alcohol", "addr:street_address": "1539 Front Road", "name": "Lasalle", "brand": "The Beer Store", "brand:wikidata": "Q16243674", "nsi_id": "thebeerstore-19c622"}, "geometry": {"type": "Point", "coordinates": [-83.1026, 42.234097]}},
{"type": "Feature", "id": "iVtJ4VA6Wno5a0VI1nSKeC0vhdE=", "properties": {"ref": "3263", "@spider": "beer_store", "shop": "alcohol", "addr:street_address": "80 Park Street", "name": "Amherstburg", "brand": "The Beer Store", "brand:wikidata": "Q16243674", "nsi_id": "thebeerstore-19c622"}, "geometry": {"type": "Point", "coordinates": [-83.111, 42.099461]}},
{"type": "Feature", "id": "YIc0sE5F2jrh8rf1WqNwwZaMXow=", "properties": {"ref": "3264", "@spider": "beer_store", "shop": "alcohol", "addr:street_address": "399 Notre Dame Street", "name": "Belle River", "brand": "The Beer Store", "brand:wikidata": "Q16243674", "nsi_id": "thebeerstore-19c622"}, "geometry": {"type": "Point", "coordinates": [-82.692215, 42.29285]}},
{"type": "Feature", "id": "tbfqT3iT0mlE0iVzUcIkwHGkReY=", "properties": {"ref": "3265", "@spider": "beer_store", "shop": "alcohol", "addr:street_address": "160 Talbot St. N.", "name": "Essex", "brand": "The Beer Store", "brand:wikidata": "Q16243674", "nsi_id": "thebeerstore-19c622"}, "geometry": {"type": "Point", "coordinates": [-82.825195, 42.176807]}},
{"type": "Feature", "id": "X7OL19PENKPTmESurY3NYnsfwl0=", "properties": {"ref": "3266", "@spider": "beer_store", "shop": "alcohol", "addr:street_address": "398 King Street W.", "name": "Harrow", "brand": "The Beer Store", "brand:wikidata": "Q16243674", "nsi_id": "thebeerstore-19c622"}, "geometry": {"type": "Point", "coordinates": [-82.926285, 42.036362]}},
{"type": "Feature", "id": "r6pAkuAc_XoroLxHqtE3DSFcCE4=", "properties": {"ref": "3267", "@spider": "beer_store", "shop": "alcohol", "addr:street_address": "251 Main Street W.", "name": "Kingsville", "brand": "The Beer Store", "brand:wikidata": "Q16243674", "nsi_id": "thebeerstore-19c622"}, "geometry": {"type": "Point", "coordinates": [-82.751656, 42.036366]}},
{"type": "Feature", "id": "pUyMwVZdHPaehXPi6Ue2JvA0CDs=", "properties": {"ref": "3268", "@spider": "beer_store", "shop": "alcohol", "addr:street_address": "12022 Tecumseh Road", "name": "Tecumseh", "brand": "The Beer Store", "brand:wikidata": "Q16243674", "nsi_id": "thebeerstore-19c622"}, "geometry": {"type": "Point", "coordinates": [-82.881855, 42.312235]}},
{"type": "Feature", "id": "U0nmByOCz6W_H1uOQl1sYvme4-o=", "properties": {"ref": "3291", "@spider": "beer_store", "shop": "alcohol", "addr:street_address": "255 Erie Street South", "name": "Leamington", "brand": "The Beer Store", "brand:wikidata": "Q16243674", "nsi_id": "thebeerstore-19c622"}, "geometry": {"type": "Point", "coordinates": [-82.601098, 42.039288]}},
{"type": "Feature", "id": "pBQHaxdBy-WpmTxfOrjrSmsbra8=", "properties": {"ref": "3401", "@spider": "beer_store", "shop": "alcohol", "addr:street_address": "30 Anne Street South", "name": "Anne/George", "brand": "The Beer Store", "brand:wikidata": "Q16243674", "nsi_id": "thebeerstore-19c622"}, "geometry": {"type": "Point", "coordinates": [-79.701755, 44.378415]}},
{"type": "Feature", "id": "fAuFx7nNbupBNBLpoYhk9_xAsP8=", "properties": {"ref": "3402", "@spider": "beer_store", "shop": "alcohol", "addr:street_address": "299 Blake Street", "name": "Blake St.", "brand": "The Beer Store", "brand:wikidata": "Q16243674", "nsi_id": "thebeerstore-19c622"}, "geometry": {"type": "Point", "coordinates": [-79.658585, 44.395052]}},
{"type": "Feature", "id": "fRv-YAfBEhIQZT4SOpPdu-gEZDs=", "properties": {"ref": "3403", "@spider": "beer_store", "shop": "alcohol", "addr:street_address": "531 Bayfield Street", "name": "Bayfield St.", "brand": "The Beer Store", "brand:wikidata": "Q16243674", "nsi_id": "thebeerstore-19c622"}, "geometry": {"type": "Point", "coordinates": [-79.711614, 44.415084]}},
{"type": "Feature", "id": "lGDYt8ImZ4uSHy9gCVj7hYGK-LI=", "properties": {"ref": "3428", "@spider": "beer_store", "shop": "alcohol", "addr:street_address": "71 Mapleview Drive", "name": "Barrie", "brand": "The Beer Store", "brand:wikidata": "Q16243674", "nsi_id": "thebeerstore-19c622"}, "geometry": {"type": "Point", "coordinates": [-79.69313049, 44.33357048]}},
{"type": "Feature", "id": "6A2Em7lxanTzoZhERnfrRV3s5Xk=", "properties": {"ref": "3429", "@spider": "beer_store", "shop": "alcohol", "addr:street_address": "640 Yonge Street", "name": "Yonge St Barrie", "brand": "The Beer Store", "brand:wikidata": "Q16243674", "nsi_id": "thebeerstore-19c622"}, "geometry": {"type": "Point", "coordinates": [-79.644552, 44.355293]}},
{"type": "Feature", "id": "8EiYu17XM5ijGCHv4j603rVHOI8=", "properties": {"ref": "3404", "@spider": "beer_store", "shop": "alcohol", "addr:street_address": "161 Young St.", "name": "Alliston", "brand": "The Beer Store", "brand:wikidata": "Q16243674", "nsi_id": "thebeerstore-19c622"}, "geometry": {"type": "Point", "coordinates": [-79.8880877, 44.1461038]}},
{"type": "Feature", "id": "DjKXYdaLz1TisgmGeCFnG-GyMT0=", "properties": {"ref": "3405", "@spider": "beer_store", "shop": "alcohol", "addr:street_address": "17 King Street", "name": "Angus", "brand": "The Beer Store", "brand:wikidata": "Q16243674", "nsi_id": "thebeerstore-19c622"}, "geometry": {"type": "Point", "coordinates": [-79.88611602, 44.32074165]}},
{"type": "Feature", "id": "6kl6hAIV-0iWn23yiMmvRemVFq8=", "properties": {"ref": "3406", "@spider": "beer_store", "shop": "alcohol", "addr:street_address": "14800 Yonge Street", "name": "Yonge Street", "brand": "The Beer Store", "brand:wikidata": "Q16243674", "nsi_id": "thebeerstore-19c622"}, "geometry": {"type": "Point", "coordinates": [-79.464962, 43.987199]}},
{"type": "Feature", "id": "ymFfGGwzhyzzarAuzlSGJdMAPYI=", "properties": {"ref": "3430", "@spider": "beer_store", "shop": "alcohol", "addr:street_address": "15820 Bayview Avenue", "name": "Bayview & St. Johns", "brand": "The Beer Store", "brand:wikidata": "Q16243674", "nsi_id": "thebeerstore-19c622"}, "geometry": {"type": "Point", "coordinates": [-79.447577, 44.019954]}},
{"type": "Feature", "id": "-pgh4Ju7LC5x6EL-0_rc2LHfKOk=", "properties": {"ref": "3407", "@spider": "beer_store", "shop": "alcohol", "addr:street_address": "3025 Hwy. #169", "name": "Bala", "brand": "The Beer Store", "brand:wikidata": "Q16243674", "nsi_id": "thebeerstore-19c622"}, "geometry": {"type": "Point", "coordinates": [-79.612112, 45.006086]}},
{"type": "Feature", "id": "P3CJlVoCbIpr0pB6qBW1yabXC5Y=", "properties": {"ref": "3408", "@spider": "beer_store", "shop": "alcohol", "addr:street_address": "505 Hwy #118", "name": "Bracebridge", "brand": "The Beer Store", "brand:wikidata": "Q16243674", "nsi_id": "thebeerstore-19c622"}, "geometry": {"type": "Point", "coordinates": [-79.329676, 45.044958]}},
{"type": "Feature", "id": "duwNefPMuEiV28Je8INgUmLITds=", "properties": {"ref": "3409", "@spider": "beer_store", "shop": "alcohol", "addr:street_address": "452 Holland Street West", "name": "Bradford", "brand": "The Beer Store", "brand:wikidata": "Q16243674", "nsi_id": "thebeerstore-19c622"}, "geometry": {"type": "Point", "coordinates": [-79.584554, 44.108942]}},
{"type": "Feature", "id": "7BAZlq-Ymt1-YG4dWt-JaO1KsTM=", "properties": {"ref": "3410", "@spider": "beer_store", "shop": "alcohol", "addr:street_address": "16 Sturgeon Bay Road", "name": "Coldwater", "brand": "The Beer Store", "brand:wikidata": "Q16243674", "nsi_id": "thebeerstore-19c622"}, "geometry": {"type": "Point", "coordinates": [-79.647623, 44.709243]}},
{"type": "Feature", "id": "AsKz2zFET4ClnWF0QEa93MnsBCs=", "properties": {"ref": "3411", "@spider": "beer_store", "shop": "alcohol", "addr:street_address": "58 Queen Street West", "name": "Elmvale", "brand": "The Beer Store", "brand:wikidata": "Q16243674", "nsi_id": "thebeerstore-19c622"}, "geometry": {"type": "Point", "coordinates": [-79.8691101, 44.58254051]}},
{"type": "Feature", "id": "3EYVzc3rCbzSwSsfTcXAl5DIrRA=", "properties": {"ref": "3412", "@spider": "beer_store", "shop": "alcohol", "addr:street_address": "320 Sykes Street South", "name": "Meaford", "brand": "The Beer Store", "brand:wikidata": "Q16243674", "nsi_id": "thebeerstore-19c622"}, "geometry": {"type": "Point", "coordinates": [-80.586853, 44.598225]}},
{"type": "Feature", "id": "T4ESq7VNc8nnnDxmLC_QBxWGlAs=", "properties": {"ref": "3413", "@spider": "beer_store", "shop": "alcohol", "addr:street_address": "291 Midland Ave.", "name": "Midland Ave.", "brand": "The Beer Store", "brand:wikidata": "Q16243674", "nsi_id": "thebeerstore-19c622"}, "geometry": {"type": "Point", "coordinates": [-79.88324, 44.750198]}},
{"type": "Feature", "id": "g0KlQupNP37bKFn5wsPQYVZHDHQ=", "properties": {"ref": "3443", "@spider": "beer_store", "shop": "alcohol", "addr:street_address": "9350 Highway #93.", "name": "Midland", "brand": "The Beer Store", "brand:wikidata": "Q16243674", "nsi_id": "thebeerstore-19c622"}, "geometry": {"type": "Point", "coordinates": [-79.917112, 44.740698]}},
{"type": "Feature", "id": "VNiRJP6-wHRk6VD_42LmtEmL_Sc=", "properties": {"ref": "3414", "@spider": "beer_store", "shop": "alcohol", "addr:street_address": "1100 Davis Drive", "name": "Davis/Leslie", "brand": "The Beer Store", "brand:wikidata": "Q16243674", "nsi_id": "thebeerstore-19c622"}, "geometry": {"type": "Point", "coordinates": [-79.431475, 44.065573]}},
{"type": "Feature", "id": "Kw3GiwyyxvoKXkfqU_cULercqhA=", "properties": {"ref": "3423", "@spider": "beer_store", "shop": "alcohol", "addr:street_address": "16715 Yonge Street", "name": "Newmarket", "brand": "The Beer Store", "brand:wikidata": "Q16243674", "nsi_id": "thebeerstore-19c622"}, "geometry": {"type": "Point", "coordinates": [-79.474368, 44.03642]}},
{"type": "Feature", "id": "LNrYt18qOLMm99veFqEpo2eyUwk=", "properties": {"ref": "3415", "@spider": "beer_store", "shop": "alcohol", "addr:street_address": "18307 Yonge Street Unit 1", "name": "Yonge St. N.", "brand": "The Beer Store", "brand:wikidata": "Q16243674", "nsi_id": "thebeerstore-19c622"}, "geometry": {"type": "Point", "coordinates": [-79.481008, 44.060837]}},
{"type": "Feature", "id": "KaUKhHDo0RY6ycw-yFYIB598ecY=", "properties": {"ref": "3416", "@spider": "beer_store", "shop": "alcohol", "addr:street_address": "426 Muskoka Road", "name": "Muskoka Road", "brand": "The Beer Store", "brand:wikidata": "Q16243674", "nsi_id": "thebeerstore-19c622"}, "geometry": {"type": "Point", "coordinates": [-79.421773, 44.62603]}},
{"type": "Feature", "id": "3a3ExHSgMndIE31qopw8P0iNVTo=", "properties": {"ref": "3444", "@spider": "beer_store", "shop": "alcohol", "addr:street_address": "275 Atherly Road", "name": "Orillia", "brand": "The Beer Store", "brand:wikidata": "Q16243674", "nsi_id": "thebeerstore-19c622"}, "geometry": {"type": "Point", "coordinates": [-79.39826965, 44.60557746]}},
{"type": "Feature", "id": "AvJphtUb8IMBQ3sztOXAkA43x_I=", "properties": {"ref": "3417", "@spider": "beer_store", "shop": "alcohol", "addr:street_address": "15 Main St.", "name": "Penetang", "brand": "The Beer Store", "brand:wikidata": "Q16243674", "nsi_id": "thebeerstore-19c622"}, "geometry": {"type": "Point", "coordinates": [-79.93634, 44.772282]}},
{"type": "Feature", "id": "UJn3pdrAMvnJRIS9YLPX9CmiyxM=", "properties": {"ref": "3418", "@spider": "beer_store", "shop": "alcohol", "addr:street_address": "7947 Yonge Street", "name": "Stroud", "brand": "The Beer Store", "brand:wikidata": "Q16243674", "nsi_id": "thebeerstore-19c622"}, "geometry": {"type": "Point", "coordinates": [-79.620819, 44.327151]}},
{"type": "Feature", "id": "y3dnbyE52FP_z0FjeDmRuAUQk6o=", "properties": {"ref": "3419", "@spider": "beer_store", "shop": "alcohol", "addr:street_address": "55 Queen Street", "name": "Tottenham", "brand": "The Beer Store", "brand:wikidata": "Q16243674", "nsi_id": "thebeerstore-19c622"}, "geometry": {"type": "Point", "coordinates": [-79.803562, 44.019341]}},
{"type": "Feature", "id": "jkmIaauWPO5KkDI6gY_guZGVtiA=", "properties": {"ref": "3420", "@spider": "beer_store", "shop": "alcohol", "addr:street_address": "100 Mosely Street", "name": "Wasaga Beach", "brand": "The Beer Store", "brand:wikidata": "Q16243674", "nsi_id": "thebeerstore-19c622"}, "geometry": {"type": "Point", "coordinates": [-80.02169799, 44.52020072]}},
{"type": "Feature", "id": "WLS_XUC2wQRqbgsiQb-xtLBDEsw=", "properties": {"ref": "3422", "@spider": "beer_store", "shop": "alcohol", "addr:street_address": "7380 Hwy. 26", "name": "Stayner", "brand": "The Beer Store", "brand:wikidata": "Q16243674", "nsi_id": "thebeerstore-19c622"}, "geometry": {"type": "Point", "coordinates": [-80.095603, 44.418701]}},
{"type": "Feature", "id": "NF1vaqwx1QjGsmSfxMNMqZztffE=", "properties": {"ref": "3426", "@spider": "beer_store", "shop": "alcohol", "addr:street_address": "945 Innisfil Beach Road", "name": "Alcona", "brand": "The Beer Store", "brand:wikidata": "Q16243674", "nsi_id": "thebeerstore-19c622"}, "geometry": {"type": "Point", "coordinates": [-79.547011, 44.314734]}},
{"type": "Feature", "id": "wPuZR6rSDlWMRSuaVYPcEfDy_sU=", "properties": {"ref": "3427", "@spider": "beer_store", "shop": "alcohol", "addr:street_address": "17250 Highway #27", "name": "Schomberg", "brand": "The Beer Store", "brand:wikidata": "Q16243674", "nsi_id": "thebeerstore-19c622"}, "geometry": {"type": "Point", "coordinates": [-79.678994, 44.003654]}},
{"type": "Feature", "id": "Sc_wfx_eJ8TaqinOs1avo93bEe0=", "properties": {"ref": "3441", "@spider": "beer_store", "shop": "alcohol", "addr:street_address": "415 First Street", "name": "Collingwood", "brand": "The Beer Store", "brand:wikidata": "Q16243674", "nsi_id": "thebeerstore-19c622"}, "geometry": {"type": "Point", "coordinates": [-80.230504, 44.501746]}},
{"type": "Feature", "id": "yCouAEu8uzMeEBnbLyJUjG70YaU=", "properties": {"ref": "3442", "@spider": "beer_store", "shop": "alcohol", "addr:street_address": "230 David Street", "name": "Gravenhurst", "brand": "The Beer Store", "brand:wikidata": "Q16243674", "nsi_id": "thebeerstore-19c622"}, "geometry": {"type": "Point", "coordinates": [-79.369476, 44.916253]}},
{"type": "Feature", "id": "OttLkBSi9DR3sPYe0tpGVX9wznw=", "properties": {"ref": "3490", "@spider": "beer_store", "shop": "alcohol", "addr:street_address": "79 Queen Street", "name": "Dryden", "brand": "The Beer Store", "brand:wikidata": "Q16243674", "nsi_id": "thebeerstore-19c622"}, "geometry": {"type": "Point", "coordinates": [-92.835682, 49.78546]}},
{"type": "Feature", "id": "K8yDLP0k8ICV1OT-G1aZXoyWjmc=", "properties": {"ref": "3491", "@spider": "beer_store", "shop": "alcohol", "addr:street_address": "711 Mackenzie St E", "name": "Atikokan", "brand": "The Beer Store", "brand:wikidata": "Q16243674", "nsi_id": "thebeerstore-19c622"}, "geometry": {"type": "Point", "coordinates": [-91.605932, 48.753792]}},
{"type": "Feature", "id": "gavWuMte66X1-HuE9maN2-TzAVk=", "properties": {"ref": "3492", "@spider": "beer_store", "shop": "alcohol", "addr:street_address": "343 Fifth St. East", "name": "Fort Frances", "brand": "The Beer Store", "brand:wikidata": "Q16243674", "nsi_id": "thebeerstore-19c622"}, "geometry": {"type": "Point", "coordinates": [-93.393726, 48.614389]}},
{"type": "Feature", "id": "2IlJcUbLqiNoF7GWC5TVEoWhJns=", "properties": {"ref": "3493", "@spider": "beer_store", "shop": "alcohol", "addr:street_address": "560 Railway Street", "name": "Kenora", "brand": "The Beer Store", "brand:wikidata": "Q16243674", "nsi_id": "thebeerstore-19c622"}, "geometry": {"type": "Point", "coordinates": [-94.48315, 49.767643]}},
{"type": "Feature", "id": "fevwEWUBgyiq1aKfZRVc0NNB6Is=", "properties": {"ref": "3494", "@spider": "beer_store", "shop": "alcohol", "addr:street_address": "35 Birks Drive", "name": "Red Lake", "brand": "The Beer Store", "brand:wikidata": "Q16243674", "nsi_id": "thebeerstore-19c622"}, "geometry": {"type": "Point", "coordinates": [-93.828997, 51.01699]}},
{"type": "Feature", "id": "s5BUbYC90J_WPp565fSZAoO3tXc=", "properties": {"ref": "3495", "@spider": "beer_store", "shop": "alcohol", "addr:street_address": "41 Front Street", "name": "Sioux Lookout", "brand": "The Beer Store", "brand:wikidata": "Q16243674", "nsi_id": "thebeerstore-19c622"}, "geometry": {"type": "Point", "coordinates": [-91.914951, 50.097916]}},
{"type": "Feature", "id": "IffAq2_tXni_ANvw25DnoLdJr7I=", "properties": {"ref": "3502", "@spider": "beer_store", "shop": "alcohol", "addr:street_address": "390 Lakeshore Drive", "name": "Lakeshore Drive", "brand": "The Beer Store", "brand:wikidata": "Q16243674", "nsi_id": "thebeerstore-19c622"}, "geometry": {"type": "Point", "coordinates": [-79.444161, 46.278298]}},
{"type": "Feature", "id": "-Sk634BQgtTu89kUNWV4Rm7ek8g=", "properties": {"ref": "3503", "@spider": "beer_store", "shop": "alcohol", "addr:street_address": "2035 Cassells Street", "name": "Cassells St.", "brand": "The Beer Store", "brand:wikidata": "Q16243674", "nsi_id": "thebeerstore-19c622"}, "geometry": {"type": "Point", "coordinates": [-79.445052, 46.317759]}},
{"type": "Feature", "id": "QxnIiqhux1D4qyq4Zw7Nn5yBPGQ=", "properties": {"ref": "3540", "@spider": "beer_store", "shop": "alcohol", "addr:street_address": "1065 Main Street West", "name": "North Bay", "brand": "The Beer Store", "brand:wikidata": "Q16243674", "nsi_id": "thebeerstore-19c622"}, "geometry": {"type": "Point", "coordinates": [-79.477792, 46.319431]}},
{"type": "Feature", "id": "CxuGz0C3asI4swsXIxP9lin3Ghc=", "properties": {"ref": "5103", "@spider": "beer_store", "shop": "alcohol", "addr:street_address": "1065 Main Street West", "name": "North Bay Crossdock", "brand": "The Beer Store", "brand:wikidata": "Q16243674", "nsi_id": "thebeerstore-19c622"}},
{"type": "Feature", "id": "WV35wRr06-MnutdaoTwBREn3594=", "properties": {"ref": "3504", "@spider": "beer_store", "shop": "alcohol", "addr:street_address": "511 Valois Drive", "name": "Mattawa", "brand": "The Beer Store", "brand:wikidata": "Q16243674", "nsi_id": "thebeerstore-19c622"}, "geometry": {"type": "Point", "coordinates": [-78.698205, 46.31696]}},
{"type": "Feature", "id": "PwQRrhZgOIwJXuOQf1qjr3BaxBA=", "properties": {"ref": "3505", "@spider": "beer_store", "shop": "alcohol", "addr:street_address": "142 St. David Street North", "name": "Noelville", "brand": "The Beer Store", "brand:wikidata": "Q16243674", "nsi_id": "thebeerstore-19c622"}, "geometry": {"type": "Point", "coordinates": [-80.431421, 46.1393]}},
{"type": "Feature", "id": "wPxq3w4c3KMbzNE3w5WdELlepic=", "properties": {"ref": "3506", "@spider": "beer_store", "shop": "alcohol", "addr:street_address": "760 Main Street", "name": "Powassan", "brand": "The Beer Store", "brand:wikidata": "Q16243674", "nsi_id": "thebeerstore-19c622"}, "geometry": {"type": "Point", "coordinates": [-79.359193, 46.075213]}},
{"type": "Feature", "id": "F1tUWDKYz4cMbOPC0FEQ60ZmUL4=", "properties": {"ref": "3507", "@spider": "beer_store", "shop": "alcohol", "addr:street_address": "310 Highway #11", "name": "South River", "brand": "The Beer Store", "brand:wikidata": "Q16243674", "nsi_id": "thebeerstore-19c622"}, "geometry": {"type": "Point", "coordinates": [-79.378993, 45.839374]}},
{"type": "Feature", "id": "Y-PBiTnxiMtDy9hWBBrFaaT284Y=", "properties": {"ref": "3541", "@spider": "beer_store", "shop": "alcohol", "addr:street_address": "18 Hanes Road", "name": "Huntsville", "brand": "The Beer Store", "brand:wikidata": "Q16243674", "nsi_id": "thebeerstore-19c622"}, "geometry": {"type": "Point", "coordinates": [-79.209994, 45.330977]}},
{"type": "Feature", "id": "coMWnc1-ylb45utmB6hGCnb3CGQ=", "properties": {"ref": "3542", "@spider": "beer_store", "shop": "alcohol", "addr:street_address": "50 Jaffray Street", "name": "New Liskeard", "brand": "The Beer Store", "brand:wikidata": "Q16243674", "nsi_id": "thebeerstore-19c622"}, "geometry": {"type": "Point", "coordinates": [-79.6855, 47.509707]}},
{"type": "Feature", "id": "hjkNtv5nW5GPQGeH_eGLy2M4nvI=", "properties": {"ref": "3543", "@spider": "beer_store", "shop": "alcohol", "addr:street_address": "17 William Street", "name": "Parry Sound", "brand": "The Beer Store", "brand:wikidata": "Q16243674", "nsi_id": "thebeerstore-19c622"}, "geometry": {"type": "Point", "coordinates": [-80.03153, 45.34876]}},
{"type": "Feature", "id": "5s1YQ376r95n6ZC5eB0HkFaVKS8=", "properties": {"ref": "3544", "@spider": "beer_store", "shop": "alcohol", "addr:street_address": "100 Front Street", "name": "Sturgeon Falls", "brand": "The Beer Store", "brand:wikidata": "Q16243674", "nsi_id": "thebeerstore-19c622"}, "geometry": {"type": "Point", "coordinates": [-79.926889, 46.366147]}},
{"type": "Feature", "id": "datB6U5TpcbGxeoGOPh4ml3QYOo=", "properties": {"ref": "3551", "@spider": "beer_store", "shop": "alcohol", "addr:street_address": "250 Bruce Street", "name": "Bruce St.", "brand": "The Beer Store", "brand:wikidata": "Q16243674", "nsi_id": "thebeerstore-19c622"}, "geometry": {"type": "Point", "coordinates": [-84.331415, 46.51639]}},
{"type": "Feature", "id": "2oiiOCmuX2jFXkhFIMP9qTRbTVI=", "properties": {"ref": "3552", "@spider": "beer_store", "shop": "alcohol", "addr:street_address": "275 2nd Line", "name": "Market Mall (2nd Line)", "brand": "The Beer Store", "brand:wikidata": "Q16243674", "nsi_id": "thebeerstore-19c622"}, "geometry": {"type": "Point", "coordinates": [-84.36488, 46.537395]}},
{"type": "Feature", "id": "Zqm90qDKph1FpY__pyh5vanqzhk=", "properties": {"ref": "3553", "@spider": "beer_store", "shop": "alcohol", "addr:street_address": "150 Churchill Blvd.", "name": "Churchill Blvd.", "brand": "The Beer Store", "brand:wikidata": "Q16243674", "nsi_id": "thebeerstore-19c622"}, "geometry": {"type": "Point", "coordinates": [-84.29848, 46.508465]}},
{"type": "Feature", "id": "lRUNiHbwvGrBGhOkb61ZgvU3i5I=", "properties": {"ref": "3554", "@spider": "beer_store", "shop": "alcohol", "addr:street_address": "486 Great Northern Road", "name": "Great Northern Rd.", "brand": "The Beer Store", "brand:wikidata": "Q16243674", "nsi_id": "thebeerstore-19c622"}, "geometry": {"type": "Point", "coordinates": [-84.319545, 46.552045]}},
{"type": "Feature", "id": "X1UMVOQhmb0qhn0teivq2RdEqp8=", "properties": {"ref": "3590", "@spider": "beer_store", "shop": "alcohol", "addr:street_address": "250 Bruce Street", "name": "Sault Ste Marie Dc (Bruce St)", "brand": "The Beer Store", "brand:wikidata": "Q16243674", "nsi_id": "thebeerstore-19c622"}, "geometry": {"type": "Point", "coordinates": [-84.335484, 46.51366]}},
{"type": "Feature", "id": "lSczC81b4OH94iSJ7GD3gG_vin0=", "properties": {"ref": "3556", "@spider": "beer_store", "shop": "alcohol", "addr:street_address": "12 Hillside Dr. S.", "name": "Elliot Lake", "brand": "The Beer Store", "brand:wikidata": "Q16243674", "nsi_id": "thebeerstore-19c622"}, "geometry": {"type": "Point", "coordinates": [-82.642485, 46.382478]}},
{"type": "Feature", "id": "wpLHyFzVvVSJHLoX8ms62vAAQQI=", "properties": {"ref": "3591", "@spider": "beer_store", "shop": "alcohol", "addr:street_address": "59 Lisgar Street", "name": "Chapleau", "brand": "The Beer Store", "brand:wikidata": "Q16243674", "nsi_id": "thebeerstore-19c622"}, "geometry": {"type": "Point", "coordinates": [-83.406587, 47.843931]}},
{"type": "Feature", "id": "SYMBNKGHHHVnEyQVkW1vZbQ-Tu0=", "properties": {"ref": "3593", "@spider": "beer_store", "shop": "alcohol", "addr:street_address": "156 Mission Road", "name": "Wawa", "brand": "The Beer Store", "brand:wikidata": "Q16243674", "nsi_id": "thebeerstore-19c622"}, "geometry": {"type": "Point", "coordinates": [-84.782328, 47.977955]}},
{"type": "Feature", "id": "A320aciF6gg3k71ENqtfRLmmPvg=", "properties": {"ref": "3594", "@spider": "beer_store", "shop": "alcohol", "addr:street_address": "115 Causley Street", "name": "Blind River", "brand": "The Beer Store", "brand:wikidata": "Q16243674", "nsi_id": "thebeerstore-19c622"}, "geometry": {"type": "Point", "coordinates": [-82.948717, 46.183198]}},
{"type": "Feature", "id": "qJmTfxUk7S4UXPgX-RcV6utxR2Q=", "properties": {"ref": "3601", "@spider": "beer_store", "shop": "alcohol", "addr:street_address": "42 Lorne Street", "name": "Lorne St.", "brand": "The Beer Store", "brand:wikidata": "Q16243674", "nsi_id": "thebeerstore-19c622"}, "geometry": {"type": "Point", "coordinates": [-81.000128, 46.492014]}},
{"type": "Feature", "id": "FL_ZeUr9oKXIIbR0UbhZ-zqXBaQ=", "properties": {"ref": "3602", "@spider": "beer_store", "shop": "alcohol", "addr:street_address": "1485 Lasalle Blvd", "name": "Supermall", "brand": "The Beer Store", "brand:wikidata": "Q16243674", "nsi_id": "thebeerstore-19c622"}, "geometry": {"type": "Point", "coordinates": [-80.939006, 46.521354]}},
{"type": "Feature", "id": "6LFga8wYkZd3RBRsy0sTQ9UTR7I=", "properties": {"ref": "3603", "@spider": "beer_store", "shop": "alcohol", "addr:street_address": "891 Notre Dame Avenue", "name": "Notre Dame Ave.", "brand": "The Beer Store", "brand:wikidata": "Q16243674", "nsi_id": "thebeerstore-19c622"}, "geometry": {"type": "Point", "coordinates": [-80.98485, 46.516471]}},
{"type": "Feature", "id": "8IkdX6o5ZL-iX1Lrj-QNRnrNL50=", "properties": {"ref": "3604", "@spider": "beer_store", "shop": "alcohol", "addr:street_address": "1889 Paris Street", "name": "Paris St.", "brand": "The Beer Store", "brand:wikidata": "Q16243674", "nsi_id": "thebeerstore-19c622"}, "geometry": {"type": "Point", "coordinates": [-81.002586, 46.452885]}},
{"type": "Feature", "id": "7DRR_ZPjWpzngecEn3lkRxkBiPI=", "properties": {"ref": "3605", "@spider": "beer_store", "shop": "alcohol", "addr:street_address": "93 Notre Dame St. E.", "name": "Azilda", "brand": "The Beer Store", "brand:wikidata": "Q16243674", "nsi_id": "thebeerstore-19c622"}, "geometry": {"type": "Point", "coordinates": [-81.118368, 46.551865]}},
{"type": "Feature", "id": "poC5CfgrdvZARZpjJkcydFOUt10=", "properties": {"ref": "3607", "@spider": "beer_store", "shop": "alcohol", "addr:street_address": "199 Aurore Street", "name": "Chelmsford", "brand": "The Beer Store", "brand:wikidata": "Q16243674", "nsi_id": "thebeerstore-19c622"}, "geometry": {"type": "Point", "coordinates": [-81.188458, 46.567637]}},
{"type": "Feature", "id": "9OOt3ZYgdp6WXTaTXJbEmQrwb6c=", "properties": {"ref": "3610", "@spider": "beer_store", "shop": "alcohol", "addr:street_address": "5085 Municipal Rd. #80", "name": "Hanmer", "brand": "The Beer Store", "brand:wikidata": "Q16243674", "nsi_id": "thebeerstore-19c622"}, "geometry": {"type": "Point", "coordinates": [-80.937698, 46.650299]}},
{"type": "Feature", "id": "Dg87U8p3QFPjWQkMZ40dSzAbObg=", "properties": {"ref": "3611", "@spider": "beer_store", "shop": "alcohol", "addr:street_address": "3rd Avenue & Main St.", "name": "Levack", "brand": "The Beer Store", "brand:wikidata": "Q16243674", "nsi_id": "thebeerstore-19c622"}, "geometry": {"type": "Point", "coordinates": [-81.387829, 46.640136]}},
{"type": "Feature", "id": "0KpZHlGFTc33Yr7o4tX1hE82Nx0=", "properties": {"ref": "3612", "@spider": "beer_store", "shop": "alcohol", "addr:street_address": "8th Ave & Main St.", "name": "Lively", "brand": "The Beer Store", "brand:wikidata": "Q16243674", "nsi_id": "thebeerstore-19c622"}, "geometry": {"type": "Point", "coordinates": [-81.14615, 46.43756]}},
{"type": "Feature", "id": "xMnUrLJICN-HD4f37biYZ5uvkw0=", "properties": {"ref": "3640", "@spider": "beer_store", "shop": "alcohol", "addr:street_address": "50 Vagnini Crt.", "name": "Sudbury Distribution Centre", "brand": "The Beer Store", "brand:wikidata": "Q16243674", "nsi_id": "thebeerstore-19c622"}, "geometry": {"type": "Point", "coordinates": [-81.113828, 46.431289]}},
{"type": "Feature", "id": "jJH7Wrtfd-gGNH9igT9-nTJIGsk=", "properties": {"ref": "3613", "@spider": "beer_store", "shop": "alcohol", "addr:street_address": "24 Amanda Street", "name": "Coniston Mall", "brand": "The Beer Store", "brand:wikidata": "Q16243674", "nsi_id": "thebeerstore-19c622"}, "geometry": {"type": "Point", "coordinates": [-80.838203, 46.4907]}},
{"type": "Feature", "id": "SZhO2l2y_hCl6w0zzFhx0aJUnpk=", "properties": {"ref": "3614", "@spider": "beer_store", "shop": "alcohol", "addr:street_address": "3098 Falconbridge Highway", "name": "Garson", "brand": "The Beer Store", "brand:wikidata": "Q16243674", "nsi_id": "thebeerstore-19c622"}, "geometry": {"type": "Point", "coordinates": [-80.878887, 46.548335]}},
{"type": "Feature", "id": "jX7SEyVS_GUknpjeBkSTXXCZQJk=", "properties": {"ref": "3641", "@spider": "beer_store", "shop": "alcohol", "addr:street_address": "53 Meredith Street East", "name": "Little Current", "brand": "The Beer Store", "brand:wikidata": "Q16243674", "nsi_id": "thebeerstore-19c622"}, "geometry": {"type": "Point", "coordinates": [-81.920214, 45.977938]}},
{"type": "Feature", "id": "_IONpGC7WGCYU4bShWbcdMCb38E=", "properties": {"ref": "3642", "@spider": "beer_store", "shop": "alcohol", "addr:street_address": "124 Station Road", "name": "Espanola", "brand": "The Beer Store", "brand:wikidata": "Q16243674", "nsi_id": "thebeerstore-19c622"}, "geometry": {"type": "Point", "coordinates": [-81.766358, 46.264017]}},
{"type": "Feature", "id": "LZqbToZR9Vqmg0BTVzervdj0Sd8=", "properties": {"ref": "3652", "@spider": "beer_store", "shop": "alcohol", "addr:street_address": "806 Red River Road", "name": "Red River Road", "brand": "The Beer Store", "brand:wikidata": "Q16243674", "nsi_id": "thebeerstore-19c622"}, "geometry": {"type": "Point", "coordinates": [-89.247559, 48.444769]}},
{"type": "Feature", "id": "tdeG2qoMyjVz6b_oZtQvhUnR-Hs=", "properties": {"ref": "3653", "@spider": "beer_store", "shop": "alcohol", "addr:street_address": "911 Fort William Road, Unit 1", "name": "Fort William Rd", "brand": "The Beer Store", "brand:wikidata": "Q16243674", "nsi_id": "thebeerstore-19c622"}, "geometry": {"type": "Point", "coordinates": [-89.245522, 48.388681]}},
{"type": "Feature", "id": "HSJmV4WrSUZObW2OwkYtXSk7xyk=", "properties": {"ref": "3654", "@spider": "beer_store", "shop": "alcohol", "addr:street_address": "145 West Gore Street", "name": "West Gore St.", "brand": "The Beer Store", "brand:wikidata": "Q16243674", "nsi_id": "thebeerstore-19c622"}, "geometry": {"type": "Point", "coordinates": [-89.281372, 48.364031]}},
{"type": "Feature", "id": "T6Z7tUMkG1BAdWFyp3gVAJT8O20=", "properties": {"ref": "3655", "@spider": "beer_store", "shop": "alcohol", "addr:street_address": "417 Edward Street N.", "name": "Edward St. N.", "brand": "The Beer Store", "brand:wikidata": "Q16243674", "nsi_id": "thebeerstore-19c622"}, "geometry": {"type": "Point", "coordinates": [-89.278351, 48.39295]}},
{"type": "Feature", "id": "11Sr0Q-8HT2NuSI9GcDdqqoIB9o=", "properties": {"ref": "3656", "@spider": "beer_store", "shop": "alcohol", "addr:street_address": "212 N. Cumberland Street", "name": "N. Cumberland", "brand": "The Beer Store", "brand:wikidata": "Q16243674", "nsi_id": "thebeerstore-19c622"}, "geometry": {"type": "Point", "coordinates": [-89.211601, 48.441591]}},
{"type": "Feature", "id": "hf_yoR3leZf6MgekVB-WJ4ICUcw=", "properties": {"ref": "3690", "@spider": "beer_store", "shop": "alcohol", "addr:street_address": "490 Maureen Street Unit 500", "name": "Thunder Bay Distribution Centr", "brand": "The Beer Store", "brand:wikidata": "Q16243674", "nsi_id": "thebeerstore-19c622"}, "geometry": {"type": "Point", "coordinates": [-89.217095, 48.43644]}},
{"type": "Feature", "id": "uWf2GuPROXBlEaN1RKDf3pIVgMw=", "properties": {"ref": "3691", "@spider": "beer_store", "shop": "alcohol", "addr:street_address": "101 First St. W.", "name": "Geraldton", "brand": "The Beer Store", "brand:wikidata": "Q16243674", "nsi_id": "thebeerstore-19c622"}, "geometry": {"type": "Point", "coordinates": [-86.950467, 49.726133]}},
{"type": "Feature", "id": "g63bktRWkHf8ca47fMiu4q4Ixc0=", "properties": {"ref": "3692", "@spider": "beer_store", "shop": "alcohol", "addr:street_address": "2 Ontario Street", "name": "Marathon", "brand": "The Beer Store", "brand:wikidata": "Q16243674", "nsi_id": "thebeerstore-19c622"}, "geometry": {"type": "Point", "coordinates": [-86.379997, 48.718729]}},
{"type": "Feature", "id": "XiB0sTOY99hJp4hSVtdUUyvBEFQ=", "properties": {"ref": "3693", "@spider": "beer_store", "shop": "alcohol", "addr:street_address": "154 Railway Street", "name": "Nipigon", "brand": "The Beer Store", "brand:wikidata": "Q16243674", "nsi_id": "thebeerstore-19c622"}, "geometry": {"type": "Point", "coordinates": [-88.255871, 49.018419]}},
{"type": "Feature", "id": "cD0ang9kzJ5T9QCCuy0Y_G7yUTc=", "properties": {"ref": "3702", "@spider": "beer_store", "shop": "alcohol", "addr:street_address": "230 Algonquin Blvd. W.", "name": "Algonquin Blvd.w.", "brand": "The Beer Store", "brand:wikidata": "Q16243674", "nsi_id": "thebeerstore-19c622"}, "geometry": {"type": "Point", "coordinates": [-81.342628, 48.476499]}},
{"type": "Feature", "id": "NWKhumTThsW7HG7PrIm2pIgHrY0=", "properties": {"ref": "3740", "@spider": "beer_store", "shop": "alcohol", "addr:street_address": "326 Knox Avenue", "name": "Timmins Distribution Centre", "brand": "The Beer Store", "brand:wikidata": "Q16243674", "nsi_id": "thebeerstore-19c622"}, "geometry": {"type": "Point", "coordinates": [-81.324937, 48.47113]}},
{"type": "Feature", "id": "ldzpLkUlZKIO9UvMTHzde_p7ScY=", "properties": {"ref": "3703", "@spider": "beer_store", "shop": "alcohol", "addr:street_address": "4145 Harold Avenue", "name": "South Porcupine", "brand": "The Beer Store", "brand:wikidata": "Q16243674", "nsi_id": "thebeerstore-19c622"}, "geometry": {"type": "Point", "coordinates": [-81.215459, 48.484828]}},
{"type": "Feature", "id": "-7RTv4f0NRWb_O_F75vhjn74ul4=", "properties": {"ref": "3741", "@spider": "beer_store", "shop": "alcohol", "addr:street_address": "8 James Bay Road", "name": "Cochrane", "brand": "The Beer Store", "brand:wikidata": "Q16243674", "nsi_id": "thebeerstore-19c622"}, "geometry": {"type": "Point", "coordinates": [-81.033516, 49.064218]}},
{"type": "Feature", "id": "eBiSr-7ucLNvGBHgErt1o0q7A6o=", "properties": {"ref": "3742", "@spider": "beer_store", "shop": "alcohol", "addr:street_address": "1106 Front Street", "name": "Hearst", "brand": "The Beer Store", "brand:wikidata": "Q16243674", "nsi_id": "thebeerstore-19c622"}, "geometry": {"type": "Point", "coordinates": [-83.672131, 49.690271]}},
{"type": "Feature", "id": "uwCsPNGYvPDRNQWsfPjCRlCJTLs=", "properties": {"ref": "3743", "@spider": "beer_store", "shop": "alcohol", "addr:street_address": "227 Cambridge Avenue", "name": "Iroquois Falls", "brand": "The Beer Store", "brand:wikidata": "Q16243674", "nsi_id": "thebeerstore-19c622"}, "geometry": {"type": "Point", "coordinates": [-80.679186, 48.765387]}},
{"type": "Feature", "id": "SIiDaUNo9y6S0L7d_td8E4-pHOE=", "properties": {"ref": "3744", "@spider": "beer_store", "shop": "alcohol", "addr:street_address": "25 Government Road", "name": "Kapuskasing", "brand": "The Beer Store", "brand:wikidata": "Q16243674", "nsi_id": "thebeerstore-19c622"}, "geometry": {"type": "Point", "coordinates": [-82.422408, 49.412801]}},
{"type": "Feature", "id": "qk8uaj-zRWHys4sp3afNWNrzEz8=", "properties": {"ref": "3745", "@spider": "beer_store", "shop": "alcohol", "addr:street_address": "25 Station Road", "name": "Kirkland Lake", "brand": "The Beer Store", "brand:wikidata": "Q16243674", "nsi_id": "thebeerstore-19c622"}, "geometry": {"type": "Point", "coordinates": [-80.029341, 48.155346]}},
{"type": "Feature", "id": "DEvnrfw921TKsg_g2El2qLrXQUU=", "properties": {"ref": "4003", "@spider": "beer_store", "shop": "alcohol", "addr:street_address": "15 Municipal Street", "name": "Municipal St.", "brand": "The Beer Store", "brand:wikidata": "Q16243674", "nsi_id": "thebeerstore-19c622"}, "geometry": {"type": "Point", "coordinates": [-80.247433, 43.529289]}},
{"type": "Feature", "id": "ZwSuzwaI3TomqGAADTjVrDYyK6s=", "properties": {"ref": "4007", "@spider": "beer_store", "shop": "alcohol", "addr:street_address": "111 Silvercreek Parkway N.", "name": "Willow West Mall", "brand": "The Beer Store", "brand:wikidata": "Q16243674", "nsi_id": "thebeerstore-19c622"}, "geometry": {"type": "Point", "coordinates": [-80.278697, 43.541096]}},
{"type": "Feature", "id": "yNgCec4ARdI-PEZ58puLxaDpIdY=", "properties": {"ref": "4009", "@spider": "beer_store", "shop": "alcohol", "addr:street_address": "63 Clair Road East", "name": "South Guelph", "brand": "The Beer Store", "brand:wikidata": "Q16243674", "nsi_id": "thebeerstore-19c622"}, "geometry": {"type": "Point", "coordinates": [-80.186619, 43.501809]}},
{"type": "Feature", "id": "Le5F_eHptcI-_Y48r8rlNTQ2jag=", "properties": {"ref": "4040", "@spider": "beer_store", "shop": "alcohol", "addr:street_address": "710 Woolwich Street", "name": "Woolwich St.", "brand": "The Beer Store", "brand:wikidata": "Q16243674", "nsi_id": "thebeerstore-19c622"}, "geometry": {"type": "Point", "coordinates": [-80.273031, 43.561312]}},
{"type": "Feature", "id": "I-DemfKl0WLfxyzqgXjdH41tPcE=", "properties": {"ref": "4004", "@spider": "beer_store", "shop": "alcohol", "addr:street_address": "332 Queen Street", "name": "Acton", "brand": "The Beer Store", "brand:wikidata": "Q16243674", "nsi_id": "thebeerstore-19c622"}, "geometry": {"type": "Point", "coordinates": [-80.028869, 43.636245]}},
{"type": "Feature", "id": "Ec368njgFFSwuwflwSDx9zcnCK8=", "properties": {"ref": "4005", "@spider": "beer_store", "shop": "alcohol", "addr:street_address": "720 St. David St. N.", "name": "Fergus", "brand": "The Beer Store", "brand:wikidata": "Q16243674", "nsi_id": "thebeerstore-19c622"}, "geometry": {"type": "Point", "coordinates": [-80.385543, 43.711041]}},
{"type": "Feature", "id": "WKA75jtG8KDkb8fSCvzKqWbmfJE=", "properties": {"ref": "4006", "@spider": "beer_store", "shop": "alcohol", "addr:street_address": "270 Broadway Street", "name": "Orangeville", "brand": "The Beer Store", "brand:wikidata": "Q16243674", "nsi_id": "thebeerstore-19c622"}, "geometry": {"type": "Point", "coordinates": [-80.104334, 43.917203]}},
{"type": "Feature", "id": "dsd7-77EOXQPKYzJVgiF_aylBLQ=", "properties": {"ref": "4008", "@spider": "beer_store", "shop": "alcohol", "addr:street_address": "140 Main Street", "name": "Erin", "brand": "The Beer Store", "brand:wikidata": "Q16243674", "nsi_id": "thebeerstore-19c622"}, "geometry": {"type": "Point", "coordinates": [-80.064679, 43.77013]}},
{"type": "Feature", "id": "xKbcz24wsbPLUZD2AM0AMWE89_A=", "properties": {"ref": "4054", "@spider": "beer_store", "shop": "alcohol", "addr:street_address": "1462 Main St. E.", "name": "Main St. E.", "brand": "The Beer Store", "brand:wikidata": "Q16243674", "nsi_id": "thebeerstore-19c622"}, "geometry": {"type": "Point", "coordinates": [-79.807982, 43.239758]}},
{"type": "Feature", "id": "T2W8Bsgq-_jdS9xgT95XyD_zBYo=", "properties": {"ref": "4055", "@spider": "beer_store", "shop": "alcohol", "addr:street_address": "229 Dundurn St. S.", "name": "Dundurn St.s.", "brand": "The Beer Store", "brand:wikidata": "Q16243674", "nsi_id": "thebeerstore-19c622"}, "geometry": {"type": "Point", "coordinates": [-79.891075, 43.255051]}},
{"type": "Feature", "id": "1Ch5wZhmAHm7oHcoQmMuzbkrzRU=", "properties": {"ref": "4056", "@spider": "beer_store", "shop": "alcohol", "addr:street_address": "282 Parkdale N.", "name": "Parkdale N.", "brand": "The Beer Store", "brand:wikidata": "Q16243674", "nsi_id": "thebeerstore-19c622"}, "geometry": {"type": "Point", "coordinates": [-79.788773, 43.245243]}},
{"type": "Feature", "id": "BIZaSw-JUxpJ3gk-nexMJVubqpY=", "properties": {"ref": "4057", "@spider": "beer_store", "shop": "alcohol", "addr:street_address": "1111 Barton St. E.", "name": "Barton/Ottawa", "brand": "The Beer Store", "brand:wikidata": "Q16243674", "nsi_id": "thebeerstore-19c622"}, "geometry": {"type": "Point", "coordinates": [-79.815812, 43.251492]}},
{"type": "Feature", "id": "DvFQKm1f4cJBicfs7bX5maiALc0=", "properties": {"ref": "4058", "@spider": "beer_store", "shop": "alcohol", "addr:street_address": "655 Upper James St", "name": "Upper James St.", "brand": "The Beer Store", "brand:wikidata": "Q16243674", "nsi_id": "thebeerstore-19c622"}, "geometry": {"type": "Point", "coordinates": [-79.87851, 43.235508]}},
{"type": "Feature", "id": "JVzJOTu0F4zEyOyg2QsZ4p-zI_M=", "properties": {"ref": "4059", "@spider": "beer_store", "shop": "alcohol", "addr:street_address": "959 Fennell Ave. East", "name": "Gage/Fennell", "brand": "The Beer Store", "brand:wikidata": "Q16243674", "nsi_id": "thebeerstore-19c622"}, "geometry": {"type": "Point", "coordinates": [-79.83905, 43.227646]}},
{"type": "Feature", "id": "otjG7VuSLh9IGoKg_F8Xg4rFlBk=", "properties": {"ref": "4060", "@spider": "beer_store", "shop": "alcohol", "addr:street_address": "75 Centennial Pkwy N", "name": "Eastgate (Queenston/Hwy. #20)", "brand": "The Beer Store", "brand:wikidata": "Q16243674", "nsi_id": "thebeerstore-19c622"}, "geometry": {"type": "Point", "coordinates": [-79.764091, 43.228699]}},
{"type": "Feature", "id": "FGHlnHorPRqzpnai07v3C-hedBg=", "properties": {"ref": "4062", "@spider": "beer_store", "shop": "alcohol", "addr:street_address": "499 Mohawk Road E.", "name": "Mohawk Rd. E.", "brand": "The Beer Store", "brand:wikidata": "Q16243674", "nsi_id": "thebeerstore-19c622"}, "geometry": {"type": "Point", "coordinates": [-79.85248, 43.222662]}},
{"type": "Feature", "id": "A8vza7QS2tRrkE2zbZXV7V6WzW8=", "properties": {"ref": "4063", "@spider": "beer_store", "shop": "alcohol", "addr:street_address": "584 Mohawk Road W.", "name": "Westcliffe Mall (Mohawk W.)", "brand": "The Beer Store", "brand:wikidata": "Q16243674", "nsi_id": "thebeerstore-19c622"}, "geometry": {"type": "Point", "coordinates": [-79.911766, 43.233322]}},
{"type": "Feature", "id": "Y8Edby8UaRw-6Wdf0irM1dj1kok=", "properties": {"ref": "4075", "@spider": "beer_store", "shop": "alcohol", "addr:street_address": "150 Barton St. E.", "name": "Barton/Mary", "brand": "The Beer Store", "brand:wikidata": "Q16243674", "nsi_id": "thebeerstore-19c622"}, "geometry": {"type": "Point", "coordinates": [-79.860359, 43.262438]}},
{"type": "Feature", "id": "713F7Nu16SgsIIGZ5EqHszzgAeY=", "properties": {"ref": "4078", "@spider": "beer_store", "shop": "alcohol", "addr:street_address": "1408 Upper James Street", "name": "Hamilton", "brand": "The Beer Store", "brand:wikidata": "Q16243674", "nsi_id": "thebeerstore-19c622"}, "geometry": {"type": "Point", "coordinates": [-79.890982, 43.208863]}},
{"type": "Feature", "id": "dKyxQBvgCra2ZUW_vSPSPhof9N0=", "properties": {"ref": "4064", "@spider": "beer_store", "shop": "alcohol", "addr:street_address": "44 Wilson Street West", "name": "Ancaster", "brand": "The Beer Store", "brand:wikidata": "Q16243674", "nsi_id": "thebeerstore-19c622"}, "geometry": {"type": "Point", "coordinates": [-79.989354, 43.215811]}},
{"type": "Feature", "id": "TYTL_eVPqBMIy8kawVStB_3sfqc=", "properties": {"ref": "4065", "@spider": "beer_store", "shop": "alcohol", "addr:street_address": "2025 Guelph Line", "name": "Supercentre (Guelph Line)", "brand": "The Beer Store", "brand:wikidata": "Q16243674", "nsi_id": "thebeerstore-19c622"}, "geometry": {"type": "Point", "coordinates": [-79.821552, 43.366334]}},
{"type": "Feature", "id": "ggac4CL_WRryPeuSc85qY-3nsU4=", "properties": {"ref": "4066", "@spider": "beer_store", "shop": "alcohol", "addr:street_address": "396 Elizabeth Street", "name": "Elizabeth St.", "brand": "The Beer Store", "brand:wikidata": "Q16243674", "nsi_id": "thebeerstore-19c622"}, "geometry": {"type": "Point", "coordinates": [-79.795563, 43.325564]}},
{"type": "Feature", "id": "Ov3aBuFNL3NgpzGJz7soxO-q7YI=", "properties": {"ref": "4068", "@spider": "beer_store", "shop": "alcohol", "addr:street_address": "2055 Mount Forest Drive", "name": "Mt. Forest Drive", "brand": "The Beer Store", "brand:wikidata": "Q16243674", "nsi_id": "thebeerstore-19c622"}, "geometry": {"type": "Point", "coordinates": [-79.826958, 43.348099]}},
{"type": "Feature", "id": "TQgqx5wiAhOSW9xOYwhb9AZ15qs=", "properties": {"ref": "4069", "@spider": "beer_store", "shop": "alcohol", "addr:street_address": "5051 New Street", "name": "New Street", "brand": "The Beer Store", "brand:wikidata": "Q16243674", "nsi_id": "thebeerstore-19c622"}, "geometry": {"type": "Point", "coordinates": [-79.755214, 43.369013]}},
{"type": "Feature", "id": "v59RrD48zRkabF8OTxv2MUy0--g=", "properties": {"ref": "4076", "@spider": "beer_store", "shop": "alcohol", "addr:street_address": "2020 Appleby Line", "name": "Millcroft", "brand": "The Beer Store", "brand:wikidata": "Q16243674", "nsi_id": "thebeerstore-19c622"}, "geometry": {"type": "Point", "coordinates": [-79.7962307, 43.3930643]}},
{"type": "Feature", "id": "EofVLXpYKyOLMoowHTTdi8KbFts=", "properties": {"ref": "4077", "@spider": "beer_store", "shop": "alcohol", "addr:street_address": "1235 Fairview St", "name": "Maple Mews", "brand": "The Beer Store", "brand:wikidata": "Q16243674", "nsi_id": "thebeerstore-19c622"}, "geometry": {"type": "Point", "coordinates": [-79.820602, 43.329468]}},
{"type": "Feature", "id": "IkYQap8XqU1WR1OyIgacGNv4bRc=", "properties": {"ref": "4070", "@spider": "beer_store", "shop": "alcohol", "addr:street_address": "272 Argyle St. S.", "name": "Caledonia", "brand": "The Beer Store", "brand:wikidata": "Q16243674", "nsi_id": "thebeerstore-19c622"}, "geometry": {"type": "Point", "coordinates": [-79.958306, 43.064984]}},
{"type": "Feature", "id": "ES5XM0D0XacluV_f6GIidhKjN3A=", "properties": {"ref": "4071", "@spider": "beer_store", "shop": "alcohol", "addr:street_address": "55 Cootes Drive", "name": "Dundas", "brand": "The Beer Store", "brand:wikidata": "Q16243674", "nsi_id": "thebeerstore-19c622"}, "geometry": {"type": "Point", "coordinates": [-79.945382, 43.266233]}},
{"type": "Feature", "id": "Jb-ftRoRS75X6h3og4xRTk57tI8=", "properties": {"ref": "4072", "@spider": "beer_store", "shop": "alcohol", "addr:street_address": "44 Livingston Ave.", "name": "Grimsby", "brand": "The Beer Store", "brand:wikidata": "Q16243674", "nsi_id": "thebeerstore-19c622"}, "geometry": {"type": "Point", "coordinates": [-79.568692, 43.197202]}},
{"type": "Feature", "id": "S1R6t_aPeNhl8hNotPeIyGqvWbQ=", "properties": {"ref": "4073", "@spider": "beer_store", "shop": "alcohol", "addr:street_address": "135 #8 Highway", "name": "Stoney Creek", "brand": "The Beer Store", "brand:wikidata": "Q16243674", "nsi_id": "thebeerstore-19c622"}, "geometry": {"type": "Point", "coordinates": [-79.74543, 43.223511]}},
{"type": "Feature", "id": "38obI4_TGyDwMHk3InMo0curBeM=", "properties": {"ref": "4079", "@spider": "beer_store", "shop": "alcohol", "addr:street_address": "2297 Rymal Road Building A", "name": "Rymal And Upper Centennial", "brand": "The Beer Store", "brand:wikidata": "Q16243674", "nsi_id": "thebeerstore-19c622"}, "geometry": {"type": "Point", "coordinates": [-79.77744, 43.173968]}},
{"type": "Feature", "id": "lDASMaFzw8-d2U4Qwe8NtmNwiP0=", "properties": {"ref": "4091", "@spider": "beer_store", "shop": "alcohol", "addr:street_address": "414 Dewitt Road", "name": "Stoney Creek Dc", "brand": "The Beer Store", "brand:wikidata": "Q16243674", "nsi_id": "thebeerstore-19c622"}, "geometry": {"type": "Point", "coordinates": [-79.706034, 43.231174]}},
{"type": "Feature", "id": "nhlP_hKSX-50R9OpDkaOT6QUSHc=", "properties": {"ref": "4074", "@spider": "beer_store", "shop": "alcohol", "addr:street_address": "70 Hamilton Street N.", "name": "Waterdown", "brand": "The Beer Store", "brand:wikidata": "Q16243674", "nsi_id": "thebeerstore-19c622"}, "geometry": {"type": "Point", "coordinates": [-79.89777, 43.332959]}},
{"type": "Feature", "id": "EqKyKQB_L-tRnwl0HH2QJpBEaaI=", "properties": {"ref": "4102", "@spider": "beer_store", "shop": "alcohol", "addr:street_address": "626 Garafraxa Highway 6", "name": "Durham", "brand": "The Beer Store", "brand:wikidata": "Q16243674", "nsi_id": "thebeerstore-19c622"}, "geometry": {"type": "Point", "coordinates": [-80.817217, 44.166542]}},
{"type": "Feature", "id": "IxY2WTpyCZzKeTkOF857FStCJDc=", "properties": {"ref": "4103", "@spider": "beer_store", "shop": "alcohol", "addr:street_address": "427 Broadway Street", "name": "Kincardine", "brand": "The Beer Store", "brand:wikidata": "Q16243674", "nsi_id": "thebeerstore-19c622"}, "geometry": {"type": "Point", "coordinates": [-81.632698, 44.181499]}},
{"type": "Feature", "id": "VoNezlhdGytVfsXjg377ZKLaB3A=", "properties": {"ref": "4104", "@spider": "beer_store", "shop": "alcohol", "addr:street_address": "850 Wallace Avenue N.", "name": "Listowel", "brand": "The Beer Store", "brand:wikidata": "Q16243674", "nsi_id": "thebeerstore-19c622"}, "geometry": {"type": "Point", "coordinates": [-80.946873, 43.739202]}},
{"type": "Feature", "id": "R0eBAaCzz9jT5ver9BwBKqKm_5Q=", "properties": {"ref": "4105", "@spider": "beer_store", "shop": "alcohol", "addr:street_address": "33 Argyle Street", "name": "Markdale", "brand": "The Beer Store", "brand:wikidata": "Q16243674", "nsi_id": "thebeerstore-19c622"}, "geometry": {"type": "Point", "coordinates": [-80.6502, 44.318436]}},
{"type": "Feature", "id": "ra4yhDPIg3wdhTePmXXUIbWinbI=", "properties": {"ref": "4106", "@spider": "beer_store", "shop": "alcohol", "addr:street_address": "429 Main Street North", "name": "Mount Forest", "brand": "The Beer Store", "brand:wikidata": "Q16243674", "nsi_id": "thebeerstore-19c622"}, "geometry": {"type": "Point", "coordinates": [-80.743118, 43.986259]}},
{"type": "Feature", "id": "SEXHIqmm2vkp913m5hn-uj565kE=", "properties": {"ref": "4107", "@spider": "beer_store", "shop": "alcohol", "addr:street_address": "1155 First Avenue E.", "name": "Owen Sound", "brand": "The Beer Store", "brand:wikidata": "Q16243674", "nsi_id": "thebeerstore-19c622"}, "geometry": {"type": "Point", "coordinates": [-80.942268, 44.571648]}},
{"type": "Feature", "id": "syXtpQ4ShgCr4TvBjptHSTmWAGg=", "properties": {"ref": "4115", "@spider": "beer_store", "shop": "alcohol", "addr:street_address": "965 10th Street West", "name": "Owen Sound", "brand": "The Beer Store", "brand:wikidata": "Q16243674", "nsi_id": "thebeerstore-19c622"}, "geometry": {"type": "Point", "coordinates": [-80.966576, 44.560879]}},
{"type": "Feature", "id": "SlSZAyJNAJ0Iyb3OUHXFFKOaXv0=", "properties": {"ref": "4108", "@spider": "beer_store", "shop": "alcohol", "addr:street_address": "355 Goderich Street", "name": "Port Elgin", "brand": "The Beer Store", "brand:wikidata": "Q16243674", "nsi_id": "thebeerstore-19c622"}, "geometry": {"type": "Point", "coordinates": [-81.393654, 44.429977]}},
{"type": "Feature", "id": "G18uYyEczhQhzuMy4Papg1qM3fY=", "properties": {"ref": "4109", "@spider": "beer_store", "shop": "alcohol", "addr:street_address": "704 Main Street", "name": "Sauble Beach", "brand": "The Beer Store", "brand:wikidata": "Q16243674", "nsi_id": "thebeerstore-19c622"}, "geometry": {"type": "Point", "coordinates": [-81.263443, 44.633949]}},
{"type": "Feature", "id": "XmsfV796lXk_ZuliiB_lcSZMT08=", "properties": {"ref": "4110", "@spider": "beer_store", "shop": "alcohol", "addr:street_address": "802 Main Street East", "name": "Hwy #89 & 124", "brand": "The Beer Store", "brand:wikidata": "Q16243674", "nsi_id": "thebeerstore-19c622"}, "geometry": {"type": "Point", "coordinates": [-80.18758, 44.082351]}},
{"type": "Feature", "id": "vYV75teLQPzK0pg3ccR2Rjh70YU=", "properties": {"ref": "4111", "@spider": "beer_store", "shop": "alcohol", "addr:street_address": "330 Mcnabb", "name": "Southampton", "brand": "The Beer Store", "brand:wikidata": "Q16243674", "nsi_id": "thebeerstore-19c622"}, "geometry": {"type": "Point", "coordinates": [-81.374352, 44.483776]}},
{"type": "Feature", "id": "nFV_xuuy99QlENacvl5n7YVxZ_k=", "properties": {"ref": "4112", "@spider": "beer_store", "shop": "alcohol", "addr:street_address": "430 Durham Street", "name": "Walkerton", "brand": "The Beer Store", "brand:wikidata": "Q16243674", "nsi_id": "thebeerstore-19c622"}, "geometry": {"type": "Point", "coordinates": [-81.146622, 44.132912]}},
{"type": "Feature", "id": "6vYRfBTrAqEgaOLWx7i3MOBiBDg=", "properties": {"ref": "4113", "@spider": "beer_store", "shop": "alcohol", "addr:street_address": "690 Berford Street", "name": "Wiarton", "brand": "The Beer Store", "brand:wikidata": "Q16243674", "nsi_id": "thebeerstore-19c622"}, "geometry": {"type": "Point", "coordinates": [-81.141304, 44.745907]}},
{"type": "Feature", "id": "UdAIQdBXqTgWrPjiChPNv1K38yQ=", "properties": {"ref": "4114", "@spider": "beer_store", "shop": "alcohol", "addr:street_address": "482 Josephine Street", "name": "Wingham", "brand": "The Beer Store", "brand:wikidata": "Q16243674", "nsi_id": "thebeerstore-19c622"}, "geometry": {"type": "Point", "coordinates": [-81.314079, 43.885098]}},
{"type": "Feature", "id": "C_p-mc7RiXhJX81krCn083ukwco=", "properties": {"ref": "4140", "@spider": "beer_store", "shop": "alcohol", "addr:street_address": "576 11th Street", "name": "Hanover", "brand": "The Beer Store", "brand:wikidata": "Q16243674", "nsi_id": "thebeerstore-19c622"}, "geometry": {"type": "Point", "coordinates": [-81.01844, 44.154804]}},
{"type": "Feature", "id": "CtJAetUVG9xhZd7qQLP7eHW2jL4=", "properties": {"ref": "5106", "@spider": "beer_store", "shop": "alcohol", "addr:street_address": "576 11th Street", "name": "Hanover Crossdock", "brand": "The Beer Store", "brand:wikidata": "Q16243674", "nsi_id": "thebeerstore-19c622"}, "geometry": {"type": "Point", "coordinates": [-81.01323, 44.155435]}},
{"type": "Feature", "id": "0BSJ2Nnp0qeuERT7tlionfS7RoI=", "properties": {"ref": "4151", "@spider": "beer_store", "shop": "alcohol", "addr:street_address": "1255 Weber St. E.", "name": "King St. E.", "brand": "The Beer Store", "brand:wikidata": "Q16243674", "nsi_id": "thebeerstore-19c622"}, "geometry": {"type": "Point", "coordinates": [-80.44302, 43.43223]}},
{"type": "Feature", "id": "awg50Xq8RXCbdqWqtS3vkiy5Bl8=", "properties": {"ref": "4154", "@spider": "beer_store", "shop": "alcohol", "addr:street_address": "400 King Street W.", "name": "Dow Store (King W.)", "brand": "The Beer Store", "brand:wikidata": "Q16243674", "nsi_id": "thebeerstore-19c622"}, "geometry": {"type": "Point", "coordinates": [-80.49605305, 43.45241671]}},
{"type": "Feature", "id": "ehIvi3tbxol5MRg1mWybKvuqK0A=", "properties": {"ref": "4156", "@spider": "beer_store", "shop": "alcohol", "addr:street_address": "250 Bleams Road", "name": "Bleams Road", "brand": "The Beer Store", "brand:wikidata": "Q16243674", "nsi_id": "thebeerstore-19c622"}, "geometry": {"type": "Point", "coordinates": [-80.45871059, 43.411268]}},
{"type": "Feature", "id": "tlamCmprJc48vCdCXvsIviPXQDc=", "properties": {"ref": "4166", "@spider": "beer_store", "shop": "alcohol", "addr:street_address": "875 Highland Road West", "name": "Supercentre (Highland Rd.)", "brand": "The Beer Store", "brand:wikidata": "Q16243674", "nsi_id": "thebeerstore-19c622"}, "geometry": {"type": "Point", "coordinates": [-80.52591215, 43.43109788]}},
{"type": "Feature", "id": "96u2mW8QXRgb7SQ0Li0kWxZDzbU=", "properties": {"ref": "4167", "@spider": "beer_store", "shop": "alcohol", "addr:street_address": "1120 Victoria Street N", "name": "Victoria St.", "brand": "The Beer Store", "brand:wikidata": "Q16243674", "nsi_id": "thebeerstore-19c622"}, "geometry": {"type": "Point", "coordinates": [-80.45764415, 43.46718723]}},
{"type": "Feature", "id": "o-xkD62eFFuT1R7bn0vqRjoyiVU=", "properties": {"ref": "4157", "@spider": "beer_store", "shop": "alcohol", "addr:street_address": "200 Franklin Blvd.", "name": "S. Cambridge Mall (Hwy 97)", "brand": "The Beer Store", "brand:wikidata": "Q16243674", "nsi_id": "thebeerstore-19c622"}, "geometry": {"type": "Point", "coordinates": [-80.28948894, 43.35711564]}},
{"type": "Feature", "id": "kldPRs9m8m83FyIN_ptzd5RL_t4=", "properties": {"ref": "4158", "@spider": "beer_store", "shop": "alcohol", "addr:street_address": "140 Chopin Street S.", "name": "Chopin St. S. (Preston)", "brand": "The Beer Store", "brand:wikidata": "Q16243674", "nsi_id": "thebeerstore-19c622"}, "geometry": {"type": "Point", "coordinates": [-80.36550554, 43.39852329]}},
{"type": "Feature", "id": "D-iKSl2j7rbeaFBFE0vivWKsQ88=", "properties": {"ref": "4161", "@spider": "beer_store", "shop": "alcohol", "addr:street_address": "130 Cedar Street", "name": "Westgate Plaza (Cedar St.)", "brand": "The Beer Store", "brand:wikidata": "Q16243674", "nsi_id": "thebeerstore-19c622"}, "geometry": {"type": "Point", "coordinates": [-80.32981491, 43.35180473]}},
{"type": "Feature", "id": "G-xa32T_NgbjUvfKOKjTQz-ge7s=", "properties": {"ref": "4162", "@spider": "beer_store", "shop": "alcohol", "addr:street_address": "150 Holiday Inn Drive", "name": "Tricity Centre", "brand": "The Beer Store", "brand:wikidata": "Q16243674", "nsi_id": "thebeerstore-19c622"}, "geometry": {"type": "Point", "coordinates": [-80.32577721, 43.41887885]}},
{"type": "Feature", "id": "HdvkYHz9xz4pBODpvkkOXqcOLOk=", "properties": {"ref": "4159", "@spider": "beer_store", "shop": "alcohol", "addr:street_address": "6 Wyatt Street East", "name": "Elmira", "brand": "The Beer Store", "brand:wikidata": "Q16243674", "nsi_id": "thebeerstore-19c622"}, "geometry": {"type": "Point", "coordinates": [-80.55750339, 43.59762791]}},
{"type": "Feature", "id": "GiESZUbiq0zNw7nYerxjCFTJSdw=", "properties": {"ref": "4163", "@spider": "beer_store", "shop": "alcohol", "addr:street_address": "112 Burns Street", "name": "New Hamburg", "brand": "The Beer Store", "brand:wikidata": "Q16243674", "nsi_id": "thebeerstore-19c622"}, "geometry": {"type": "Point", "coordinates": [-80.71158417, 43.37957548]}},
{"type": "Feature", "id": "a82aHXgLkfT-sat7AAX-9hSRP1c=", "properties": {"ref": "4164", "@spider": "beer_store", "shop": "alcohol", "addr:street_address": "70 Weber Street N.", "name": "Weber St.", "brand": "The Beer Store", "brand:wikidata": "Q16243674", "nsi_id": "thebeerstore-19c622"}, "geometry": {"type": "Point", "coordinates": [-80.51300921, 43.4710889]}},
{"type": "Feature", "id": "K__cnHmv99PBnHtnpclryIOnoVU=", "properties": {"ref": "4165", "@spider": "beer_store", "shop": "alcohol", "addr:street_address": "462 Albert Street", "name": "Parkdale(Albert)", "brand": "The Beer Store", "brand:wikidata": "Q16243674", "nsi_id": "thebeerstore-19c622"}, "geometry": {"type": "Point", "coordinates": [-80.53927162, 43.48597637]}},
{"type": "Feature", "id": "uD3EYUMAdv3P7H5-Rr7JpcB9O4E=", "properties": {"ref": "4169", "@spider": "beer_store", "shop": "alcohol", "addr:street_address": "659 Erb Street West", "name": "Erb/Ira Needles", "brand": "The Beer Store", "brand:wikidata": "Q16243674", "nsi_id": "thebeerstore-19c622"}, "geometry": {"type": "Point", "coordinates": [-80.57220235, 43.44556606]}},
{"type": "Feature", "id": "OZ_hlfAYrQunUCKA6Ppf0ra3wAA=", "properties": {"ref": "4170", "@spider": "beer_store", "shop": "alcohol", "addr:street_address": "624 King Street North", "name": "King Street North", "brand": "The Beer Store", "brand:wikidata": "Q16243674", "nsi_id": "thebeerstore-19c622"}, "geometry": {"type": "Point", "coordinates": [-80.537109, 43.505209]}},
{"type": "Feature", "id": "cUPTYbILQ-kekYCp7u-jJNu9qS8=", "properties": {"ref": "4168", "@spider": "beer_store", "shop": "alcohol", "addr:street_address": "Feb-58 Wellington Road 7", "name": "Elora", "brand": "The Beer Store", "brand:wikidata": "Q16243674", "nsi_id": "thebeerstore-19c622"}, "geometry": {"type": "Point", "coordinates": [-80.42641412, 43.67375993]}},
{"type": "Feature", "id": "NMwAMl4MeXAkw53xGUjNTgnywJY=", "properties": {"ref": "4201", "@spider": "beer_store", "shop": "alcohol", "addr:street_address": "99 Dieppe Road", "name": "Dieppe Road", "brand": "The Beer Store", "brand:wikidata": "Q16243674", "nsi_id": "thebeerstore-19c622"}, "geometry": {"type": "Point", "coordinates": [-79.220413, 43.170879]}},
{"type": "Feature", "id": "8HJn7860XthOLgtYNo6p6_lUmpk=", "properties": {"ref": "4203", "@spider": "beer_store", "shop": "alcohol", "addr:street_address": "2 D Tremont Drive", "name": "Tremont Square", "brand": "The Beer Store", "brand:wikidata": "Q16243674", "nsi_id": "thebeerstore-19c622"}, "geometry": {"type": "Point", "coordinates": [-79.223976, 43.132778]}},
{"type": "Feature", "id": "zx7pVOIxHsZzR64H3EoOBhn4FhE=", "properties": {"ref": "4204", "@spider": "beer_store", "shop": "alcohol", "addr:street_address": "150 Lakeport Road", "name": "Lakeport", "brand": "The Beer Store", "brand:wikidata": "Q16243674", "nsi_id": "thebeerstore-19c622"}, "geometry": {"type": "Point", "coordinates": [-79.257874, 43.193985]}},
{"type": "Feature", "id": "qQ53Hc9e3hKKPTHAmeL9ud-4SiQ=", "properties": {"ref": "4205", "@spider": "beer_store", "shop": "alcohol", "addr:street_address": "120 Welland Avenue", "name": "Welland Avenue", "brand": "The Beer Store", "brand:wikidata": "Q16243674", "nsi_id": "thebeerstore-19c622"}, "geometry": {"type": "Point", "coordinates": [-79.251297, 43.1619]}},
{"type": "Feature", "id": "_v9kLpM5i0easxl3FnvRRMY_vic=", "properties": {"ref": "4206", "@spider": "beer_store", "shop": "alcohol", "addr:street_address": "446 Scott Street", "name": "Scott St.", "brand": "The Beer Store", "brand:wikidata": "Q16243674", "nsi_id": "thebeerstore-19c622"}, "geometry": {"type": "Point", "coordinates": [-79.223651, 43.190655]}},
{"type": "Feature", "id": "17_KMG-dM13TUfRbWSzDnJACsP8=", "properties": {"ref": "4207", "@spider": "beer_store", "shop": "alcohol", "addr:street_address": "4313 Ontario Street", "name": "Beamsville", "brand": "The Beer Store", "brand:wikidata": "Q16243674", "nsi_id": "thebeerstore-19c622"}, "geometry": {"type": "Point", "coordinates": [-79.475936, 43.166443]}},
{"type": "Feature", "id": "BmMdEVtqeUe-hanWbbntyUGneFc=", "properties": {"ref": "4208", "@spider": "beer_store", "shop": "alcohol", "addr:street_address": "4670 Bridge Street", "name": "Bridge St.", "brand": "The Beer Store", "brand:wikidata": "Q16243674", "nsi_id": "thebeerstore-19c622"}, "geometry": {"type": "Point", "coordinates": [-79.071198, 43.108566]}},
{"type": "Feature", "id": "bExWJrxfkR4xxsPknTdTH4tmxO8=", "properties": {"ref": "4209", "@spider": "beer_store", "shop": "alcohol", "addr:street_address": "6757 Lundys Lane", "name": "Lundy's Lane", "brand": "The Beer Store", "brand:wikidata": "Q16243674", "nsi_id": "thebeerstore-19c622"}, "geometry": {"type": "Point", "coordinates": [-79.108295, 43.089565]}},
{"type": "Feature", "id": "P7oU2TFWfJqRjIaAKuZ2tf5vZ4A=", "properties": {"ref": "4210", "@spider": "beer_store", "shop": "alcohol", "addr:street_address": "3739 Portage Road N.", "name": "Stamford (Portage Rd.)", "brand": "The Beer Store", "brand:wikidata": "Q16243674", "nsi_id": "thebeerstore-19c622"}, "geometry": {"type": "Point", "coordinates": [-79.100472, 43.119068]}},
{"type": "Feature", "id": "hgcwsVMP1M_Gr_FKbaawwWtZK3w=", "properties": {"ref": "4213", "@spider": "beer_store", "shop": "alcohol", "addr:street_address": "78 Ormond Street S.", "name": "Thorold", "brand": "The Beer Store", "brand:wikidata": "Q16243674", "nsi_id": "thebeerstore-19c622"}, "geometry": {"type": "Point", "coordinates": [-79.19795, 43.118833]}},
{"type": "Feature", "id": "5CQVDoXKBK8PE1E-q4D9EqPUWxo=", "properties": {"ref": "4214", "@spider": "beer_store", "shop": "alcohol", "addr:street_address": "390 Lincoln St. East", "name": "Lincoln St. E.", "brand": "The Beer Store", "brand:wikidata": "Q16243674", "nsi_id": "thebeerstore-19c622"}, "geometry": {"type": "Point", "coordinates": [-79.2375, 42.984882]}},
{"type": "Feature", "id": "WwscXDKFbbU1j3suf47SG8SlmCk=", "properties": {"ref": "4215", "@spider": "beer_store", "shop": "alcohol", "addr:street_address": "23 Thorold Road E.", "name": "Thorold Rd. E.", "brand": "The Beer Store", "brand:wikidata": "Q16243674", "nsi_id": "thebeerstore-19c622"}, "geometry": {"type": "Point", "coordinates": [-79.253197, 43.003635]}},
{"type": "Feature", "id": "ArGEH0R9RlICfBqmERgj_6mnhAs=", "properties": {"ref": "4216", "@spider": "beer_store", "shop": "alcohol", "addr:street_address": "240 Main St. E.", "name": "Dunnville", "brand": "The Beer Store", "brand:wikidata": "Q16243674", "nsi_id": "thebeerstore-19c622"}, "geometry": {"type": "Point", "coordinates": [-79.615586, 42.901281]}},
{"type": "Feature", "id": "tZwzepH8Ybqu3OclNfLOhBueiCs=", "properties": {"ref": "4217", "@spider": "beer_store", "shop": "alcohol", "addr:street_address": "20 Highway #20 East", "name": "Pelham (Fonthill)", "brand": "The Beer Store", "brand:wikidata": "Q16243674", "nsi_id": "thebeerstore-19c622"}, "geometry": {"type": "Point", "coordinates": [-79.282336, 43.044381]}},
{"type": "Feature", "id": "AFQ6GPxiKNrw_6qWxhJ-KCkCpaA=", "properties": {"ref": "4218", "@spider": "beer_store", "shop": "alcohol", "addr:street_address": "420 Catharine Street", "name": "Port Colborne", "brand": "The Beer Store", "brand:wikidata": "Q16243674", "nsi_id": "thebeerstore-19c622"}, "geometry": {"type": "Point", "coordinates": [-79.253662, 42.891567]}},
{"type": "Feature", "id": "mwG55qmdtucr4Q9CoTTrE9I3VCc=", "properties": {"ref": "4219", "@spider": "beer_store", "shop": "alcohol", "addr:street_address": "265 Ridge Road", "name": "Ridgeway", "brand": "The Beer Store", "brand:wikidata": "Q16243674", "nsi_id": "thebeerstore-19c622"}, "geometry": {"type": "Point", "coordinates": [-79.052191, 42.882111]}},
{"type": "Feature", "id": "5Y1T1SzXSS_Nk9QF0BqNg0Ks8lg=", "properties": {"ref": "4220", "@spider": "beer_store", "shop": "alcohol", "addr:street_address": "249 St. Catharine Street", "name": "Smithville", "brand": "The Beer Store", "brand:wikidata": "Q16243674", "nsi_id": "thebeerstore-19c622"}, "geometry": {"type": "Point", "coordinates": [-79.539077, 43.095052]}},
{"type": "Feature", "id": "IxFDzxaqj0W0xeUbzO2exH_doKY=", "properties": {"ref": "4242", "@spider": "beer_store", "shop": "alcohol", "addr:street_address": "194 Garrison Road", "name": "Fort Erie", "brand": "The Beer Store", "brand:wikidata": "Q16243674", "nsi_id": "thebeerstore-19c622"}, "geometry": {"type": "Point", "coordinates": [-78.920472, 42.9052]}},
{"type": "Feature", "id": "FkQ0oFPFGwWrfjblQwb4Gn65ZCY=", "properties": {"ref": "4301", "@spider": "beer_store", "shop": "alcohol", "addr:street_address": "113 Station Street", "name": "Station St.", "brand": "The Beer Store", "brand:wikidata": "Q16243674", "nsi_id": "thebeerstore-19c622"}, "geometry": {"type": "Point", "coordinates": [-77.37985, 44.173416]}},
{"type": "Feature", "id": "fn8CoFAbwbOOYbKSfPA_PU8ehok=", "properties": {"ref": "4302", "@spider": "beer_store", "shop": "alcohol", "addr:street_address": "91 Front St. S.", "name": "Front St. S.", "brand": "The Beer Store", "brand:wikidata": "Q16243674", "nsi_id": "thebeerstore-19c622"}, "geometry": {"type": "Point", "coordinates": [-77.381401, 44.159401]}},
{"type": "Feature", "id": "zWr1kGMq8vFEfI-OBZSZrhMceFk=", "properties": {"ref": "4303", "@spider": "beer_store", "shop": "alcohol", "addr:street_address": "72 Main St.", "name": "Brighton", "brand": "The Beer Store", "brand:wikidata": "Q16243674", "nsi_id": "thebeerstore-19c622"}, "geometry": {"type": "Point", "coordinates": [-77.739799, 44.042099]}},
{"type": "Feature", "id": "LLvn5SMx-9A_R240V7Z-lDfdyjI=", "properties": {"ref": "4304", "@spider": "beer_store", "shop": "alcohol", "addr:street_address": "46 Wellington St", "name": "Madoc", "brand": "The Beer Store", "brand:wikidata": "Q16243674", "nsi_id": "thebeerstore-19c622"}, "geometry": {"type": "Point", "coordinates": [-77.469202, 44.508047]}},
{"type": "Feature", "id": "D5dg_fyPGgAHVkl-pRjg76zirm0=", "properties": {"ref": "4305", "@spider": "beer_store", "shop": "alcohol", "addr:street_address": "100 Forsythe Street", "name": "Marmora", "brand": "The Beer Store", "brand:wikidata": "Q16243674", "nsi_id": "thebeerstore-19c622"}, "geometry": {"type": "Point", "coordinates": [-77.677969, 44.477958]}},
{"type": "Feature", "id": "JF0BkeyYjUnnu9S9dX7KbEgDCY4=", "properties": {"ref": "4306", "@spider": "beer_store", "shop": "alcohol", "addr:street_address": "450 Centre Street", "name": "Napanee", "brand": "The Beer Store", "brand:wikidata": "Q16243674", "nsi_id": "thebeerstore-19c622"}, "geometry": {"type": "Point", "coordinates": [-77.9657175, 44.2584129]}},
{"type": "Feature", "id": "qLYZkqmc_ldn03T0NJ9V_sstW6Y=", "properties": {"ref": "4307", "@spider": "beer_store", "shop": "alcohol", "addr:street_address": "12334 Highway #41", "name": "Northbrook", "brand": "The Beer Store", "brand:wikidata": "Q16243674", "nsi_id": "thebeerstore-19c622"}, "geometry": {"type": "Point", "coordinates": [-77.159698, 44.7351]}},
{"type": "Feature", "id": "d4HxoZhZKMEidvPFnjwk2bukw8c=", "properties": {"ref": "4308", "@spider": "beer_store", "shop": "alcohol", "addr:street_address": "412 Picton Main St.", "name": "Picton", "brand": "The Beer Store", "brand:wikidata": "Q16243674", "nsi_id": "thebeerstore-19c622"}, "geometry": {"type": "Point", "coordinates": [-77.1362, 44.028099]}},
{"type": "Feature", "id": "nbRU2R96J9YmBGFkkdm6j4p5RIM=", "properties": {"ref": "4309", "@spider": "beer_store", "shop": "alcohol", "addr:street_address": "49 Byron Street", "name": "Trenton", "brand": "The Beer Store", "brand:wikidata": "Q16243674", "nsi_id": "thebeerstore-19c622"}, "geometry": {"type": "Point", "coordinates": [-77.568001, 44.105]}},
{"type": "Feature", "id": "d8bJfZUU9K-d0yKW-gW2zr82esE=", "properties": {"ref": "4310", "@spider": "beer_store", "shop": "alcohol", "addr:street_address": "85b Victoria St. N.", "name": "Tweed", "brand": "The Beer Store", "brand:wikidata": "Q16243674", "nsi_id": "thebeerstore-19c622"}, "geometry": {"type": "Point", "coordinates": [-77.3106, 44.475201]}},
{"type": "Feature", "id": "xTQgxZRAPUvF8jRdpSIfShkYTEI=", "properties": {"ref": "4311", "@spider": "beer_store", "shop": "alcohol", "addr:street_address": "24585b Highway 7", "name": "Sharbot Lake", "brand": "The Beer Store", "brand:wikidata": "Q16243674", "nsi_id": "thebeerstore-19c622"}, "geometry": {"type": "Point", "coordinates": [-76.682098, 44.797474]}},
{"type": "Feature", "id": "68un9IIHOzN84a96gOMOvLnzj0w=", "properties": {"ref": "4351", "@spider": "beer_store", "shop": "alcohol", "addr:street_address": "838 Sydney Street", "name": "Sydney St.", "brand": "The Beer Store", "brand:wikidata": "Q16243674", "nsi_id": "thebeerstore-19c622"}, "geometry": {"type": "Point", "coordinates": [-74.732468, 45.028404]}},
{"type": "Feature", "id": "1apnBEHcNrne0BqQUrA5w_CgJus=", "properties": {"ref": "4352", "@spider": "beer_store", "shop": "alcohol", "addr:street_address": "1396 2nd Street East", "name": "Bridge Store (2nd St. E.)", "brand": "The Beer Store", "brand:wikidata": "Q16243674", "nsi_id": "thebeerstore-19c622"}, "geometry": {"type": "Point", "coordinates": [-74.701404, 45.027835]}},
{"type": "Feature", "id": "BcvJoLhc4-8dUiGm7aEH5-pVyHY=", "properties": {"ref": "4353", "@spider": "beer_store", "shop": "alcohol", "addr:street_address": "960 Brookdale Ave.", "name": "Brookdale Ave.", "brand": "The Beer Store", "brand:wikidata": "Q16243674", "nsi_id": "thebeerstore-19c622"}, "geometry": {"type": "Point", "coordinates": [-74.753319, 45.02395]}},
{"type": "Feature", "id": "8Q4HDER22dk4hrkEOFEaF5slgPE=", "properties": {"ref": "4354", "@spider": "beer_store", "shop": "alcohol", "addr:street_address": "118 Main St. N.", "name": "Alexandria", "brand": "The Beer Store", "brand:wikidata": "Q16243674", "nsi_id": "thebeerstore-19c622"}, "geometry": {"type": "Point", "coordinates": [-74.638519, 45.313132]}},
{"type": "Feature", "id": "-uGVpyCwPL84WuUSd8CmqJNaNs8=", "properties": {"ref": "4356", "@spider": "beer_store", "shop": "alcohol", "addr:street_address": "111 Main Street", "name": "Morrisburg", "brand": "The Beer Store", "brand:wikidata": "Q16243674", "nsi_id": "thebeerstore-19c622"}, "geometry": {"type": "Point", "coordinates": [-75.181, 44.901867]}},
{"type": "Feature", "id": "VylpqmvNZ1Ycf9Ltr4-iHrJwI8w=", "properties": {"ref": "4358", "@spider": "beer_store", "shop": "alcohol", "addr:street_address": "970 Edward Street", "name": "Prescott", "brand": "The Beer Store", "brand:wikidata": "Q16243674", "nsi_id": "thebeerstore-19c622"}, "geometry": {"type": "Point", "coordinates": [-75.522224, 44.719154]}},
{"type": "Feature", "id": "bxjVTKUPop6_ueSAJ77R9rSejkA=", "properties": {"ref": "4392", "@spider": "beer_store", "shop": "alcohol", "addr:street_address": "125 Stewart Boulevard", "name": "Brockville", "brand": "The Beer Store", "brand:wikidata": "Q16243674", "nsi_id": "thebeerstore-19c622"}, "geometry": {"type": "Point", "coordinates": [-75.695198, 44.597]}},
{"type": "Feature", "id": "9Bn5Jg-QsrKSMpHn-VizHVui8Yg=", "properties": {"ref": "4502", "@spider": "beer_store", "shop": "alcohol", "addr:street_address": "290 Concession Street", "name": "Concession St.", "brand": "The Beer Store", "brand:wikidata": "Q16243674", "nsi_id": "thebeerstore-19c622"}, "geometry": {"type": "Point", "coordinates": [-76.508369, 44.241085]}},
{"type": "Feature", "id": "q0EeHc7joxSr-tDr3jOFzfajp5E=", "properties": {"ref": "4503", "@spider": "beer_store", "shop": "alcohol", "addr:street_address": "1675 Bath Road", "name": "Bath Rd.", "brand": "The Beer Store", "brand:wikidata": "Q16243674", "nsi_id": "thebeerstore-19c622"}, "geometry": {"type": "Point", "coordinates": [-76.570099, 44.237701]}},
{"type": "Feature", "id": "_agqxfXj0cxsRggVI9sC1L08jlY=", "properties": {"ref": "4505", "@spider": "beer_store", "shop": "alcohol", "addr:street_address": "500 Princess Street", "name": "Princess St.", "brand": "The Beer Store", "brand:wikidata": "Q16243674", "nsi_id": "thebeerstore-19c622"}, "geometry": {"type": "Point", "coordinates": [-76.496651, 44.234703]}},
{"type": "Feature", "id": "CAAg1poAKV3hJA3jeG7IZi3kIRk=", "properties": {"ref": "4510", "@spider": "beer_store", "shop": "alcohol", "addr:street_address": "1090 Midland Avenue", "name": "Kingston Nw Walmart", "brand": "The Beer Store", "brand:wikidata": "Q16243674", "nsi_id": "thebeerstore-19c622"}, "geometry": {"type": "Point", "coordinates": [-76.57402, 44.262554]}},
{"type": "Feature", "id": "UODptIUhJ_AHMqOix3q2wr6B9oA=", "properties": {"ref": "4511", "@spider": "beer_store", "shop": "alcohol", "addr:street_address": "88 Dalton Avenue", "name": "Dalton Ave", "brand": "The Beer Store", "brand:wikidata": "Q16243674", "nsi_id": "thebeerstore-19c622"}, "geometry": {"type": "Point", "coordinates": [-76.496651, 44.234703]}},
{"type": "Feature", "id": "-vP0z3rIb-pLvtoA6yM2oSfU8FU=", "properties": {"ref": "4506", "@spider": "beer_store", "shop": "alcohol", "addr:street_address": "4501 Bath Road", "name": "Amherstview", "brand": "The Beer Store", "brand:wikidata": "Q16243674", "nsi_id": "thebeerstore-19c622"}, "geometry": {"type": "Point", "coordinates": [-76.637764, 44.221046]}},
{"type": "Feature", "id": "lsyoJbUAFlu6gbWnJR7jtiu4Yo8=", "properties": {"ref": "4507", "@spider": "beer_store", "shop": "alcohol", "addr:street_address": "580 King St. E.", "name": "Gananoque", "brand": "The Beer Store", "brand:wikidata": "Q16243674", "nsi_id": "thebeerstore-19c622"}, "geometry": {"type": "Point", "coordinates": [-76.157822, 44.332954]}},
{"type": "Feature", "id": "pQyCrzh0piS8Njk_qOXAsKm9QSc=", "properties": {"ref": "4509", "@spider": "beer_store", "shop": "alcohol", "addr:street_address": "77 Bedford Street", "name": "Westport", "brand": "The Beer Store", "brand:wikidata": "Q16243674", "nsi_id": "thebeerstore-19c622"}, "geometry": {"type": "Point", "coordinates": [-76.407227, 44.679626]}},
{"type": "Feature", "id": "PQ-JVDP93uB8att0c9Oa04xFeHY=", "properties": {"ref": "4552", "@spider": "beer_store", "shop": "alcohol", "addr:street_address": "553 Mara Road", "name": "Beaverton", "brand": "The Beer Store", "brand:wikidata": "Q16243674", "nsi_id": "thebeerstore-19c622"}, "geometry": {"type": "Point", "coordinates": [-79.14991, 44.4363]}},
{"type": "Feature", "id": "IkkxDHhYkkERyfdroNOtkwWOp30=", "properties": {"ref": "4553", "@spider": "beer_store", "shop": "alcohol", "addr:street_address": "25 King St. E.", "name": "Bobcaygeon", "brand": "The Beer Store", "brand:wikidata": "Q16243674", "nsi_id": "thebeerstore-19c622"}, "geometry": {"type": "Point", "coordinates": [-78.542256, 44.535567]}},
{"type": "Feature", "id": "AoA2rNyLiQ71iF207G2mYm-k6Q4=", "properties": {"ref": "4554", "@spider": "beer_store", "shop": "alcohol", "addr:street_address": "6716 Hwy #35", "name": "Coboconk", "brand": "The Beer Store", "brand:wikidata": "Q16243674", "nsi_id": "thebeerstore-19c622"}, "geometry": {"type": "Point", "coordinates": [-78.80106, 44.662826]}},
{"type": "Feature", "id": "p4Gc7WYtEszgcXml-9kxDYEv1FU=", "properties": {"ref": "4555", "@spider": "beer_store", "shop": "alcohol", "addr:street_address": "125 Lindsay Street", "name": "Fenelon Falls", "brand": "The Beer Store", "brand:wikidata": "Q16243674", "nsi_id": "thebeerstore-19c622"}, "geometry": {"type": "Point", "coordinates": [-78.740448, 44.530373]}},
{"type": "Feature", "id": "f2rrErrrDAOMcrrlvIYVE2fGXak=", "properties": {"ref": "4556", "@spider": "beer_store", "shop": "alcohol", "addr:street_address": "15 Hops Drive", "name": "Haliburton", "brand": "The Beer Store", "brand:wikidata": "Q16243674", "nsi_id": "thebeerstore-19c622"}, "geometry": {"type": "Point", "coordinates": [-78.53405, 45.046799]}},
{"type": "Feature", "id": "0cc-O-_Twz5JDSXD_mMEAsinAP4=", "properties": {"ref": "4557", "@spider": "beer_store", "shop": "alcohol", "addr:street_address": "443 The Queensway South", "name": "Keswick", "brand": "The Beer Store", "brand:wikidata": "Q16243674", "nsi_id": "thebeerstore-19c622"}, "geometry": {"type": "Point", "coordinates": [-79.449799, 44.237301]}},
{"type": "Feature", "id": "jU8RWR_EHSsR5yWJCbC0ttA7lEA=", "properties": {"ref": "4558", "@spider": "beer_store", "shop": "alcohol", "addr:street_address": "12325 Hwy. #35", "name": "Minden", "brand": "The Beer Store", "brand:wikidata": "Q16243674", "nsi_id": "thebeerstore-19c622"}, "geometry": {"type": "Point", "coordinates": [-78.720462, 44.918736]}},
{"type": "Feature", "id": "sQ3CGrepUFFp-mFE7unfdIQwaXk=", "properties": {"ref": "4590", "@spider": "beer_store", "shop": "alcohol", "addr:street_address": "370 Kent Street W.", "name": "Lindsay", "brand": "The Beer Store", "brand:wikidata": "Q16243674", "nsi_id": "thebeerstore-19c622"}, "geometry": {"type": "Point", "coordinates": [-78.759595, 44.350354]}},
{"type": "Feature", "id": "a6oZxW7gSyCtM42aFOLRd5-bywI=", "properties": {"ref": "4591", "@spider": "beer_store", "shop": "alcohol", "addr:street_address": "20903 Dalton Road", "name": "Sutton West", "brand": "The Beer Store", "brand:wikidata": "Q16243674", "nsi_id": "thebeerstore-19c622"}, "geometry": {"type": "Point", "coordinates": [-79.371567, 44.321152]}},
{"type": "Feature", "id": "FT5LUzz_5kulPGAfhy1SLY0e11Q=", "properties": {"ref": "4601", "@spider": "beer_store", "shop": "alcohol", "addr:street_address": "1860 Bank Street", "name": "Ottawa", "brand": "The Beer Store", "brand:wikidata": "Q16243674", "nsi_id": "thebeerstore-19c622"}, "geometry": {"type": "Point", "coordinates": [-75.663019, 45.368287]}},
{"type": "Feature", "id": "-64gbk4GO-5Tcy4rXVO---w8tps=", "properties": {"ref": "4603", "@spider": "beer_store", "shop": "alcohol", "addr:street_address": "1984 Baseline Road", "name": "College Square", "brand": "The Beer Store", "brand:wikidata": "Q16243674", "nsi_id": "thebeerstore-19c622"}, "geometry": {"type": "Point", "coordinates": [-75.763184, 45.351463]}},
{"type": "Feature", "id": "rg7shM_EzJw28idZYrmMYfuZYc0=", "properties": {"ref": "4604", "@spider": "beer_store", "shop": "alcohol", "addr:street_address": "7 Selkirk Street", "name": "Vanier (Selkirk St.)", "brand": "The Beer Store", "brand:wikidata": "Q16243674", "nsi_id": "thebeerstore-19c622"}, "geometry": {"type": "Point", "coordinates": [-75.669117, 45.431555]}},
{"type": "Feature", "id": "Q6jUJkCYJS6cC7CTfdlHuQw41q4=", "properties": {"ref": "4606", "@spider": "beer_store", "shop": "alcohol", "addr:street_address": "1546 Scott Street", "name": "Scott Street", "brand": "The Beer Store", "brand:wikidata": "Q16243674", "nsi_id": "thebeerstore-19c622"}, "geometry": {"type": "Point", "coordinates": [-75.732969, 45.403985]}},
{"type": "Feature", "id": "6C8LR3VQrmeyhXewAw259_LH6Qc=", "properties": {"ref": "4607", "@spider": "beer_store", "shop": "alcohol", "addr:street_address": "548 Montreal Road", "name": "Montreal Rd.", "brand": "The Beer Store", "brand:wikidata": "Q16243674", "nsi_id": "thebeerstore-19c622"}, "geometry": {"type": "Point", "coordinates": [-75.645184, 45.441311]}},
{"type": "Feature", "id": "Pf7M85ZEjS0DHqhjVIvh7BTG3kg=", "properties": {"ref": "4609", "@spider": "beer_store", "shop": "alcohol", "addr:street_address": "515 Somerset Street W.", "name": "Somerset St. W.", "brand": "The Beer Store", "brand:wikidata": "Q16243674", "nsi_id": "thebeerstore-19c622"}, "geometry": {"type": "Point", "coordinates": [-75.701378, 45.413445]}},
{"type": "Feature", "id": "BSgP8MeFoUL8QOTBlnNeJqasQH0=", "properties": {"ref": "4610", "@spider": "beer_store", "shop": "alcohol", "addr:street_address": "2144 Carling Avenue", "name": "2144 Carling Ave.", "brand": "The Beer Store", "brand:wikidata": "Q16243674", "nsi_id": "thebeerstore-19c622"}, "geometry": {"type": "Point", "coordinates": [-75.75577, 45.37717]}},
{"type": "Feature", "id": "ojbBQkDdOny4nXK7-Kupevsfo2U=", "properties": {"ref": "4614", "@spider": "beer_store", "shop": "alcohol", "addr:street_address": "82 North Side Road", "name": "Bells Corners (North Side Rd.)", "brand": "The Beer Store", "brand:wikidata": "Q16243674", "nsi_id": "thebeerstore-19c622"}, "geometry": {"type": "Point", "coordinates": [-75.818474, 45.327079]}},
{"type": "Feature", "id": "0nQ9ReFUgrYof3FN4isvAsNpiuc=", "properties": {"ref": "4615", "@spider": "beer_store", "shop": "alcohol", "addr:street_address": "1669 Merivale Road", "name": "Merivale Rd.", "brand": "The Beer Store", "brand:wikidata": "Q16243674", "nsi_id": "thebeerstore-19c622"}, "geometry": {"type": "Point", "coordinates": [-75.732242, 45.349493]}},
{"type": "Feature", "id": "6xBCpbMjP9pW5qymtWXrKucRMDM=", "properties": {"ref": "4617", "@spider": "beer_store", "shop": "alcohol", "addr:street_address": "1910 St. Laurent Blvd.", "name": "Elmvale(St. Laurent)", "brand": "The Beer Store", "brand:wikidata": "Q16243674", "nsi_id": "thebeerstore-19c622"}, "geometry": {"type": "Point", "coordinates": [-75.625222, 45.399648]}},
{"type": "Feature", "id": "_-Xij51E4-SiIzF0m9HAYI2UHG0=", "properties": {"ref": "4618", "@spider": "beer_store", "shop": "alcohol", "addr:street_address": "2016 Ogilvie Road", "name": "Blair Place", "brand": "The Beer Store", "brand:wikidata": "Q16243674", "nsi_id": "thebeerstore-19c622"}, "geometry": {"type": "Point", "coordinates": [-75.605888, 45.435013]}},
{"type": "Feature", "id": "-WJec-Ir3cMkYmVMeuzLwb9YikE=", "properties": {"ref": "4629", "@spider": "beer_store", "shop": "alcohol", "addr:street_address": "1140 Carp Road", "name": "Carp Road", "brand": "The Beer Store", "brand:wikidata": "Q16243674", "nsi_id": "thebeerstore-19c622"}, "geometry": {"type": "Point", "coordinates": [-75.939961, 45.267851]}},
{"type": "Feature", "id": "CNiNgiHBjrULezUQ5ulOhka0qCI=", "properties": {"ref": "4643", "@spider": "beer_store", "shop": "alcohol", "addr:street_address": "2750 Swansea Crescent", "name": "Ottawa Distribution Centre", "brand": "The Beer Store", "brand:wikidata": "Q16243674", "nsi_id": "thebeerstore-19c622"}, "geometry": {"type": "Point", "coordinates": [-75.605316, 45.381111]}},
{"type": "Feature", "id": "1tTvzsapkVl9Wp_1576lOrTynjQ=", "properties": {"ref": "4620", "@spider": "beer_store", "shop": "alcohol", "addr:street_address": "3500 Fallowfield Road", "name": "Nepean", "brand": "The Beer Store", "brand:wikidata": "Q16243674", "nsi_id": "thebeerstore-19c622"}, "geometry": {"type": "Point", "coordinates": [-75.756409, 45.285316]}},
{"type": "Feature", "id": "q_UkKRk6IZtcxs_EWe01qkAD9aQ=", "properties": {"ref": "4621", "@spider": "beer_store", "shop": "alcohol", "addr:street_address": "753 Notre Dame St", "name": "Embrun", "brand": "The Beer Store", "brand:wikidata": "Q16243674", "nsi_id": "thebeerstore-19c622"}, "geometry": {"type": "Point", "coordinates": [-75.303833, 45.267723]}},
{"type": "Feature", "id": "Yr2gCa4htLlC9ZuucGv3AZue55A=", "properties": {"ref": "4622", "@spider": "beer_store", "shop": "alcohol", "addr:street_address": "499 Terry Fox Drive", "name": "Signature Centre", "brand": "The Beer Store", "brand:wikidata": "Q16243674", "nsi_id": "thebeerstore-19c622"}, "geometry": {"type": "Point", "coordinates": [-75.92187, 45.3105247]}},
{"type": "Feature", "id": "H_N1QArJceq2RNLK7CmgRVJP-LM=", "properties": {"ref": "4630", "@spider": "beer_store", "shop": "alcohol", "addr:street_address": "720 Eagleson Road", "name": "Eagleson South Centre", "brand": "The Beer Store", "brand:wikidata": "Q16243674", "nsi_id": "thebeerstore-19c622"}, "geometry": {"type": "Point", "coordinates": [-75.869499, 45.288399]}},
{"type": "Feature", "id": "zywuoyZIK0TJMvgKsq7uhwEjzPg=", "properties": {"ref": "4623", "@spider": "beer_store", "shop": "alcohol", "addr:street_address": "1160 Beaverwood Road", "name": "Manotick", "brand": "The Beer Store", "brand:wikidata": "Q16243674", "nsi_id": "thebeerstore-19c622"}, "geometry": {"type": "Point", "coordinates": [-75.686516, 45.22366]}},
{"type": "Feature", "id": "0nVdNMXlFy7Y7RnQBlhPp6C5Qpc=", "properties": {"ref": "4624", "@spider": "beer_store", "shop": "alcohol", "addr:street_address": "6485 Jeanne D Arc Blvd.", "name": "Convent Glen (Jeanne D'arc)", "brand": "The Beer Store", "brand:wikidata": "Q16243674", "nsi_id": "thebeerstore-19c622"}, "geometry": {"type": "Point", "coordinates": [-75.537562, 45.479353]}},
{"type": "Feature", "id": "C9mFspqV0ibJFtKy_MRyrLHhz38=", "properties": {"ref": "4626", "@spider": "beer_store", "shop": "alcohol", "addr:street_address": "2276 Tenth Line Rd.", "name": "10th Line", "brand": "The Beer Store", "brand:wikidata": "Q16243674", "nsi_id": "thebeerstore-19c622"}, "geometry": {"type": "Point", "coordinates": [-75.484569, 45.452053]}},
{"type": "Feature", "id": "8LIkZe6lZVbV6MVkfEekS_9tGQw=", "properties": {"ref": "4625", "@spider": "beer_store", "shop": "alcohol", "addr:street_address": "2729 Laurier Street", "name": "Rockland", "brand": "The Beer Store", "brand:wikidata": "Q16243674", "nsi_id": "thebeerstore-19c622"}, "geometry": {"type": "Point", "coordinates": [-75.299641, 45.542319]}},
{"type": "Feature", "id": "hAbskmXd4_c-UlU-6NYJY6ExWDE=", "properties": {"ref": "4627", "@spider": "beer_store", "shop": "alcohol", "addr:street_address": "330 Colonnade Drive", "name": "Kemptville", "brand": "The Beer Store", "brand:wikidata": "Q16243674", "nsi_id": "thebeerstore-19c622"}, "geometry": {"type": "Point", "coordinates": [-75.65181, 45.019619]}},
{"type": "Feature", "id": "1iN8aqAbVeibMI0rA4Dp2tlHJEQ=", "properties": {"ref": "4628", "@spider": "beer_store", "shop": "alcohol", "addr:street_address": "100 Wilson Street W.", "name": "Perth", "brand": "The Beer Store", "brand:wikidata": "Q16243674", "nsi_id": "thebeerstore-19c622"}, "geometry": {"type": "Point", "coordinates": [-76.258148, 44.904087]}},
{"type": "Feature", "id": "SvyZ1EHqBYDKpKhSQ-cDh86WBG0=", "properties": {"ref": "4641", "@spider": "beer_store", "shop": "alcohol", "addr:street_address": "1036 Lansdowne Road", "name": "Hawkesbury", "brand": "The Beer Store", "brand:wikidata": "Q16243674", "nsi_id": "thebeerstore-19c622"}, "geometry": {"type": "Point", "coordinates": [-74.609901, 45.613701]}},
{"type": "Feature", "id": "e57cxpVccLYOOyTBgEjtSexnxCA=", "properties": {"ref": "4642", "@spider": "beer_store", "shop": "alcohol", "addr:street_address": "75 Lombard Street", "name": "Smiths Falls", "brand": "The Beer Store", "brand:wikidata": "Q16243674", "nsi_id": "thebeerstore-19c622"}, "geometry": {"type": "Point", "coordinates": [-76.0261, 44.8951]}},
{"type": "Feature", "id": "L2V2273_40Fxvnx5bRfZWhPpk3Y=", "properties": {"ref": "4652", "@spider": "beer_store", "shop": "alcohol", "addr:street_address": "3322 5 Highway #17", "name": "Deep River", "brand": "The Beer Store", "brand:wikidata": "Q16243674", "nsi_id": "thebeerstore-19c622"}, "geometry": {"type": "Point", "coordinates": [-77.498092, 46.099396]}},
{"type": "Feature", "id": "DPg-lzbFAeC_q2GfGsgEWsg_LLE=", "properties": {"ref": "4653", "@spider": "beer_store", "shop": "alcohol", "addr:street_address": "8647 Hwy # 60", "name": "Eganville", "brand": "The Beer Store", "brand:wikidata": "Q16243674", "nsi_id": "thebeerstore-19c622"}, "geometry": {"type": "Point", "coordinates": [-77.109777, 45.547948]}},
{"type": "Feature", "id": "LxF4EI9l2UkpzHcvnG8oJBCQ2uo=", "properties": {"ref": "4654", "@spider": "beer_store", "shop": "alcohol", "addr:street_address": "3 Renfrew St.", "name": "Petawawa", "brand": "The Beer Store", "brand:wikidata": "Q16243674", "nsi_id": "thebeerstore-19c622"}, "geometry": {"type": "Point", "coordinates": [-77.25823, 45.886995]}},
{"type": "Feature", "id": "FvjOwUH6CdffuB8Ali4a1qDuFD4=", "properties": {"ref": "4655", "@spider": "beer_store", "shop": "alcohol", "addr:street_address": "252 Veterans Memorial Blvd.", "name": "Renfrew", "brand": "The Beer Store", "brand:wikidata": "Q16243674", "nsi_id": "thebeerstore-19c622"}, "geometry": {"type": "Point", "coordinates": [-76.671632, 45.46932]}},
{"type": "Feature", "id": "X0uZTvjnZ-PhOQ7IwrZT7E0aUbY=", "properties": {"ref": "4656", "@spider": "beer_store", "shop": "alcohol", "addr:street_address": "113 High Street", "name": "Almonte", "brand": "The Beer Store", "brand:wikidata": "Q16243674", "nsi_id": "thebeerstore-19c622"}, "geometry": {"type": "Point", "coordinates": [-76.120399, 45.436001]}},
{"type": "Feature", "id": "ESA5-Hka5m4VkSnlOJPbBb7iNms=", "properties": {"ref": "4657", "@spider": "beer_store", "shop": "alcohol", "addr:street_address": "120 Madawaska Blvd.", "name": "Arnprior", "brand": "The Beer Store", "brand:wikidata": "Q16243674", "nsi_id": "thebeerstore-19c622"}, "geometry": {"type": "Point", "coordinates": [-76.345025, 45.433935]}},
{"type": "Feature", "id": "gMF6VE-wlGkmzMLNqK1cnK_S5vw=", "properties": {"ref": "4658", "@spider": "beer_store", "shop": "alcohol", "addr:street_address": "575 Mcneely Avenue", "name": "Carleton Place", "brand": "The Beer Store", "brand:wikidata": "Q16243674", "nsi_id": "thebeerstore-19c622"}, "geometry": {"type": "Point", "coordinates": [-76.1220144, 45.130454]}},
{"type": "Feature", "id": "H6ZHI041Lao6nKsbspw_Rr78zio=", "properties": {"ref": "4690", "@spider": "beer_store", "shop": "alcohol", "addr:street_address": "311 Nelson Street", "name": "Pembroke Dc (Nelson St)", "brand": "The Beer Store", "brand:wikidata": "Q16243674", "nsi_id": "thebeerstore-19c622"}, "geometry": {"type": "Point", "coordinates": [-77.097801, 45.829399]}},
{"type": "Feature", "id": "Xn8i3CU8m6hkWSoa353HLJhRaMs=", "properties": {"ref": "5105", "@spider": "beer_store", "shop": "alcohol", "addr:street_address": "311 Nelson Street", "name": "Pembroke Crossdock", "brand": "The Beer Store", "brand:wikidata": "Q16243674", "nsi_id": "thebeerstore-19c622"}, "geometry": {"type": "Point", "coordinates": [-77.107253, 45.829026]}},
{"type": "Feature", "id": "d5P2ec7kvOtOcqmw_bzWQyJ8pIM=", "properties": {"ref": "4691", "@spider": "beer_store", "shop": "alcohol", "addr:street_address": "1961 9 Opeongo Line", "name": "Barry's Bay", "brand": "The Beer Store", "brand:wikidata": "Q16243674", "nsi_id": "thebeerstore-19c622"}, "geometry": {"type": "Point", "coordinates": [-77.680099, 45.488899]}},
{"type": "Feature", "id": "bF5BRIIK40gFCBtSGTxaUTM2QIs=", "properties": {"ref": "4701", "@spider": "beer_store", "shop": "alcohol", "addr:street_address": "570 Lansdowne St. West", "name": "Lansdowne/Monaghan", "brand": "The Beer Store", "brand:wikidata": "Q16243674", "nsi_id": "thebeerstore-19c622"}, "geometry": {"type": "Point", "coordinates": [-78.329399, 44.286098]}},
{"type": "Feature", "id": "8pc65Orl9iOQNyQ50Jvc2Pk0shY=", "properties": {"ref": "4702", "@spider": "beer_store", "shop": "alcohol", "addr:street_address": "139 George Street N.", "name": "Market Plaza", "brand": "The Beer Store", "brand:wikidata": "Q16243674", "nsi_id": "thebeerstore-19c622"}, "geometry": {"type": "Point", "coordinates": [-78.319931, 44.296841]}},
{"type": "Feature", "id": "dnpULh2q22-hQhM27Xdu5mwje-w=", "properties": {"ref": "4703", "@spider": "beer_store", "shop": "alcohol", "addr:street_address": "1154 Chemong Road", "name": "Portage Place", "brand": "The Beer Store", "brand:wikidata": "Q16243674", "nsi_id": "thebeerstore-19c622"}, "geometry": {"type": "Point", "coordinates": [-78.343391, 44.330654]}},
{"type": "Feature", "id": "_RwMh8WK303owAFvvo9iJcAmKIU=", "properties": {"ref": "4710", "@spider": "beer_store", "shop": "alcohol", "addr:street_address": "1900 Lansdowne St W", "name": "Lansdowne", "brand": "The Beer Store", "brand:wikidata": "Q16243674", "nsi_id": "thebeerstore-19c622"}, "geometry": {"type": "Point", "coordinates": [-78.377791, 44.27461]}},
{"type": "Feature", "id": "wPU3cNGbuvetN6ldGfL18eSuz0U=", "properties": {"ref": "4704", "@spider": "beer_store", "shop": "alcohol", "addr:street_address": "1 Madawaksa St", "name": "Bancroft", "brand": "The Beer Store", "brand:wikidata": "Q16243674", "nsi_id": "thebeerstore-19c622"}, "geometry": {"type": "Point", "coordinates": [-77.855698, 45.061199]}},
{"type": "Feature", "id": "LF2yI-u0xFzQ7-LHJInb486CbMA=", "properties": {"ref": "4705", "@spider": "beer_store", "shop": "alcohol", "addr:street_address": "882 Ward Street", "name": "Bridgenorth", "brand": "The Beer Store", "brand:wikidata": "Q16243674", "nsi_id": "thebeerstore-19c622"}, "geometry": {"type": "Point", "coordinates": [-78.386299, 44.376202]}},
{"type": "Feature", "id": "7GToxh8dDzJ5lu9yENascWhUGng=", "properties": {"ref": "4706", "@spider": "beer_store", "shop": "alcohol", "addr:street_address": "80 Centre Street", "name": "Campbellford", "brand": "The Beer Store", "brand:wikidata": "Q16243674", "nsi_id": "thebeerstore-19c622"}, "geometry": {"type": "Point", "coordinates": [-77.803001, 44.306]}},
{"type": "Feature", "id": "zDTcqAiio_YvncSywnRWox4IN48=", "properties": {"ref": "4707", "@spider": "beer_store", "shop": "alcohol", "addr:street_address": "23 Front Street East", "name": "Hastings", "brand": "The Beer Store", "brand:wikidata": "Q16243674", "nsi_id": "thebeerstore-19c622"}, "geometry": {"type": "Point", "coordinates": [-77.955487, 44.309974]}},
{"type": "Feature", "id": "ZP2kBwyojUs2GNKXg0vwBL8h39E=", "properties": {"ref": "4708", "@spider": "beer_store", "shop": "alcohol", "addr:street_address": "28 Ottawa Street", "name": "Havelock", "brand": "The Beer Store", "brand:wikidata": "Q16243674", "nsi_id": "thebeerstore-19c622"}, "geometry": {"type": "Point", "coordinates": [-77.885234, 44.4334]}},
{"type": "Feature", "id": "hHrfajyn27A_H-K42d1HoPYNbHE=", "properties": {"ref": "4709", "@spider": "beer_store", "shop": "alcohol", "addr:street_address": "102 Queen Street", "name": "Lakefield", "brand": "The Beer Store", "brand:wikidata": "Q16243674", "nsi_id": "thebeerstore-19c622"}, "geometry": {"type": "Point", "coordinates": [-78.270326, 44.427372]}}]}