{"type":"FeatureCollection","features":[{"type": "Feature", "id": "bKBGWXHLl1bm0Z54V3HRzHGvUsk=", "properties": {"ref": "3844", "@spider": "belhaven_pubs", "amenity": "pub", "addr:full": "112 - 114 Stockwell Street, Glasgow, G1 4LW", "addr:postcode": "G1 4LW", "addr:country": "GB", "name": "Scotia Bar", "phone": "0141 552 8681", "website": "https://www.belhavenpubs.co.uk/pubs/lanarkshire/scotia-bar/", "contact:email": "3844@greeneking.co.uk", "opening_hours": "Mo-Su 12:00-24:00", "image": "https://www.belhavenpubs.co.uk/q/i/3844/", "brand": "Belhaven Pubs", "brand:wikidata": "Q105516156", "nsi_id": "belhavenpubs-eaed91"}, "geometry": {"type": "Point", "coordinates": [-4.250234, 55.8554]}},
{"type": "Feature", "id": "9Cl006FR_htF7EhfkpUNImCuK3M=", "properties": {"ref": "3737", "@spider": "belhaven_pubs", "amenity": "pub", "addr:full": "Inverurie Road, Bucksburn, Aberdeen, AB21 9BB", "addr:postcode": "AB21 9BB", "addr:country": "GB", "name": "Four Mile Inn", "phone": "01224 712588", "website": "https://www.belhavenpubs.co.uk/pubs/aberdeenshire/four-mile-inn/", "contact:email": "3737@greeneking.co.uk", "opening_hours": "Mo-Su 12:00-23:00", "image": "https://www.belhavenpubs.co.uk/q/i/3737/", "brand": "Belhaven Pubs", "brand:wikidata": "Q105516156", "nsi_id": "belhavenpubs-eaed91"}, "geometry": {"type": "Point", "coordinates": [-2.185438, 57.179833]}},
{"type": "Feature", "id": "8zF-Bx2NclsBb0OzqnDMWFo_w20=", "properties": {"ref": "1661", "@spider": "belhaven_pubs", "amenity": "pub", "addr:full": "21-23 Waterloo Street, Glasgow, G2 6BZ", "addr:postcode": "G2 6BZ", "addr:country": "GB", "name": "Rhoderick Dhu", "phone": "0141 221 5479", "website": "https://www.belhavenpubs.co.uk/pubs/lanarkshire/rhoderick-dhu/", "contact:email": "1661@greeneking.co.uk", "opening_hours": "Mo-Th 11:00-23:00; Fr-Sa 11:00-24:00; Su 12:30-23:00", "image": "https://www.belhavenpubs.co.uk/q/i/1661/", "brand": "Belhaven Pubs", "brand:wikidata": "Q105516156", "nsi_id": "belhavenpubs-eaed91"}, "geometry": {"type": "Point", "coordinates": [-4.259946, 55.860224]}},
{"type": "Feature", "id": "uKWaXXHFvQmJ0XuaAqFr_dphJFI=", "properties": {"ref": "7122", "@spider": "belhaven_pubs", "amenity": "pub", "addr:full": "1860 Paisley Road West, Glasgow, G52 3TN", "addr:postcode": "G52 3TN", "addr:country": "GB", "name": "Quo Vadis", "phone": "01418 836538", "website": "https://www.belhavenpubs.co.uk/pubs/lanarkshire/quo-vadis/", "contact:email": "7122@greeneking.co.uk", "opening_hours": "Mo-Su 11:00-24:00", "image": "https://www.belhavenpubs.co.uk/q/i/7122/", "brand": "Belhaven Pubs", "brand:wikidata": "Q105516156", "nsi_id": "belhavenpubs-eaed91"}, "geometry": {"type": "Point", "coordinates": [-4.345455, 55.845621]}},
{"type": "Feature", "id": "pkPZGfzlsjGKzDB0sOUnRGsNlUI=", "properties": {"ref": "3827", "@spider": "belhaven_pubs", "amenity": "pub", "addr:full": "52 Coustonholme Road, Glasgow, G43 1UF", "addr:postcode": "G43 1UF", "addr:country": "GB", "name": "Quaich", "phone": "0141 632 9003", "website": "https://www.belhavenpubs.co.uk/pubs/lanarkshire/quaich/", "contact:email": "3827@greeneking.co.uk", "opening_hours": "Mo-Th 11:00-23:00; Fr-Sa 11:00-24:00; Su 11:00-23:00", "image": "https://www.belhavenpubs.co.uk/q/i/3827/", "brand": "Belhaven Pubs", "brand:wikidata": "Q105516156", "nsi_id": "belhavenpubs-eaed91"}, "geometry": {"type": "Point", "coordinates": [-4.287596, 55.825394]}},
{"type": "Feature", "id": "mPt3atD0kqas1QhfalcXDsIriAs=", "properties": {"ref": "7759", "@spider": "belhaven_pubs", "amenity": "pub", "addr:full": "287-315 Woodlands Road, Glasgow, G3 6NG", "addr:postcode": "G3 6NG", "addr:country": "GB", "name": "Old Schoolhouse", "phone": "0141 337 1790", "website": "https://www.belhavenpubs.co.uk/pubs/lanarkshire/old-schoolhouse/", "contact:email": "7759@greeneking.co.uk", "opening_hours": "Mo-Su 12:00-24:00", "image": "https://www.belhavenpubs.co.uk/q/i/7759/", "brand": "Belhaven Pubs", "brand:wikidata": "Q105516156", "nsi_id": "belhavenpubs-eaed91"}, "geometry": {"type": "Point", "coordinates": [-4.278422, 55.872144]}},
{"type": "Feature", "id": "Lu-yTNBhChSrUpOKiFquIj6yVSs=", "properties": {"ref": "3782", "@spider": "belhaven_pubs", "amenity": "pub", "addr:full": "39 Main Street, Rutherglen, G73 2JF", "addr:postcode": "G73 2JF", "addr:country": "GB", "name": "Picture House", "phone": "0141 6478289", "website": "https://www.belhavenpubs.co.uk/pubs/lanarkshire/picture-house/", "contact:email": "3782@greeneking.co.uk", "opening_hours": "Mo-Su 11:00-24:00", "image": "https://www.belhavenpubs.co.uk/q/i/3782/", "brand": "Belhaven Pubs", "brand:wikidata": "Q105516156", "nsi_id": "belhavenpubs-eaed91"}, "geometry": {"type": "Point", "coordinates": [-4.218644, 55.828548]}},
{"type": "Feature", "id": "3E9ndmrXw68jtdrZqU_FjKm9q2w=", "properties": {"ref": "3797", "@spider": "belhaven_pubs", "amenity": "pub", "addr:full": "224 Hope Street, Glasgow, G2 2UG", "addr:postcode": "G2 2UG", "addr:country": "GB", "name": "Molly Malone's", "phone": "0141 332 2757", "website": "https://www.belhavenpubs.co.uk/pubs/lanarkshire/molly-malones/", "contact:email": "3797@greeneking.co.uk", "opening_hours": "Mo-Th 11:00-23:00; Fr-Sa 11:00-24:00; Su 11:00-23:00", "image": "https://www.belhavenpubs.co.uk/q/i/3797/", "brand": "Belhaven Pubs", "brand:wikidata": "Q105516156", "nsi_id": "belhavenpubs-eaed91"}, "geometry": {"type": "Point", "coordinates": [-4.256874, 55.865099]}},
{"type": "Feature", "id": "4lSjx_yz13n1EM2XI3e6aXyIeAc=", "properties": {"ref": "3795", "@spider": "belhaven_pubs", "amenity": "pub", "addr:full": "24 Mill Street, Rutherglen, Glasgow, G73 2NA", "addr:postcode": "G73 2NA", "addr:country": "GB", "name": "Millcroft", "phone": "0141 647 2866", "website": "https://www.belhavenpubs.co.uk/pubs/lanarkshire/millcroft/", "contact:email": "3795@greeneking.co.uk", "opening_hours": "Mo-Th 11:00-23:00; Fr-Sa 11:00-24:00; Su 11:00-23:00", "image": "https://www.belhavenpubs.co.uk/q/i/3795/", "brand": "Belhaven Pubs", "brand:wikidata": "Q105516156", "nsi_id": "belhavenpubs-eaed91"}, "geometry": {"type": "Point", "coordinates": [-4.218274, 55.827812]}},
{"type": "Feature", "id": "XJjjM7zfcDLuakadqA11ifnkuo4=", "properties": {"ref": "1635", "@spider": "belhaven_pubs", "amenity": "pub", "addr:full": "59-61 Renfield Street, Glasgow, G2 1LF", "addr:postcode": "G2 1LF", "addr:country": "GB", "name": "Maltman", "phone": "0141 331 0299", "website": "https://www.belhavenpubs.co.uk/pubs/lanarkshire/maltman/", "contact:email": "1635@greeneking.co.uk", "opening_hours": "Mo-Th 11:00-23:00; Fr-Sa 11:00-24:00; Su 11:00-23:00", "image": "https://www.belhavenpubs.co.uk/q/i/1635/", "brand": "Belhaven Pubs", "brand:wikidata": "Q105516156", "nsi_id": "belhavenpubs-eaed91"}, "geometry": {"type": "Point", "coordinates": [-4.256367, 55.862775]}},
{"type": "Feature", "id": "F6vZhtJO9avYcs0iEyn_Pq5wtj8=", "properties": {"ref": "3752", "@spider": "belhaven_pubs", "amenity": "pub", "addr:full": "8 Kelvingrove Street, Glasgow, G3 7RX", "addr:postcode": "G3 7RX", "addr:country": "GB", "name": "Grove", "phone": "0141 243 2565", "website": "https://www.belhavenpubs.co.uk/pubs/lanarkshire/grove/", "contact:email": "3752@greeneking.co.uk", "opening_hours": "Mo-Th 11:00-23:00; Fr-Su 11:00-24:00", "image": "https://www.belhavenpubs.co.uk/q/i/3752/", "brand": "Belhaven Pubs", "brand:wikidata": "Q105516156", "nsi_id": "belhavenpubs-eaed91"}, "geometry": {"type": "Point", "coordinates": [-4.284081, 55.864871]}},
{"type": "Feature", "id": "f_x7uOFrMh2cyxWiTrZb4Ado0s0=", "properties": {"ref": "3744", "@spider": "belhaven_pubs", "amenity": "pub", "addr:full": "1097 Pollokshaws Road, Shawlands, Glasgow, G41 3YG", "addr:postcode": "G41 3YG", "addr:country": "GB", "name": "Georgic", "phone": "0141 632 2317", "website": "https://www.belhavenpubs.co.uk/pubs/lanarkshire/georgic/", "contact:email": "3744@greeneking.co.uk", "opening_hours": "Mo-Th 11:00-23:00; Fr-Sa 11:00-24:00; Su 11:00-23:00", "image": "https://www.belhavenpubs.co.uk/q/i/3744/", "brand": "Belhaven Pubs", "brand:wikidata": "Q105516156", "nsi_id": "belhavenpubs-eaed91"}, "geometry": {"type": "Point", "coordinates": [-4.280059, 55.830749]}},
{"type": "Feature", "id": "GK_r1nJFzlT6UO-9urRABax4UPE=", "properties": {"ref": "3973", "@spider": "belhaven_pubs", "amenity": "pub", "addr:full": "Greenhills Square, East Kilbride, G75 8TT", "addr:postcode": "G75 8TT", "addr:country": "GB", "name": "Greenhills", "phone": "01355 242928", "website": "https://www.belhavenpubs.co.uk/pubs/lanarkshire/greenhills/", "contact:email": "3973@greeneking.co.uk", "opening_hours": "Mo-Th 11:00-23:00; Fr-Sa 11:00-24:00; Su 11:00-23:00", "image": "https://www.belhavenpubs.co.uk/q/i/3973/", "brand": "Belhaven Pubs", "brand:wikidata": "Q105516156", "nsi_id": "belhavenpubs-eaed91"}, "geometry": {"type": "Point", "coordinates": [-4.206229, 55.745142]}},
{"type": "Feature", "id": "JTD9p0JXDhZTEkaL5oH5BU3_zYc=", "properties": {"ref": "3742", "@spider": "belhaven_pubs", "amenity": "pub", "addr:full": "Gardenhall, Mossneuk, East Kilbride, G75 8SP", "addr:postcode": "G75 8SP", "addr:country": "GB", "name": "Gardenhall Inn", "phone": "01355 226431", "website": "https://www.belhavenpubs.co.uk/pubs/lanarkshire/gardenhall-inn/", "contact:email": "3742@greeneking.co.uk", "opening_hours": "Mo-Th 12:00-23:00; Fr-Sa 12:00-01:00; Su 12:00-23:00", "image": "https://www.belhavenpubs.co.uk/q/i/3742/", "brand": "Belhaven Pubs", "brand:wikidata": "Q105516156", "nsi_id": "belhavenpubs-eaed91"}, "geometry": {"type": "Point", "coordinates": [-4.231803, 55.755827]}},
{"type": "Feature", "id": "qPN-oSM-0Cs7drPr5e7EmU0yddE=", "properties": {"ref": "1640", "@spider": "belhaven_pubs", "amenity": "pub", "addr:full": "155 Queen Street, Glasgow, G1 3BJ", "addr:postcode": "G1 3BJ", "addr:country": "GB", "name": "Drouthy's", "phone": "0141 243 2964", "website": "https://www.belhavenpubs.co.uk/pubs/lanarkshire/drouthys/", "contact:email": "drouthys.glasgow@belhavenpubs.net", "opening_hours": "Mo-Th 09:00-23:00; Fr-Sa 09:00-24:00; Su 11:00-23:00", "image": "https://www.belhavenpubs.co.uk/q/i/1640/", "brand": "Belhaven Pubs", "brand:wikidata": "Q105516156", "nsi_id": "belhavenpubs-eaed91"}, "geometry": {"type": "Point", "coordinates": [-4.251815, 55.860691]}},
{"type": "Feature", "id": "2GX5CJbmvFH8ip1ziFRIP8TZ2d4=", "properties": {"ref": "4381", "@spider": "belhaven_pubs", "amenity": "pub", "addr:full": "29-31 High Street, Linlithgow, EH49 7AB", "addr:postcode": "EH49 7AB", "addr:country": "GB", "name": "Old Post Office Bar", "phone": "01506 844889", "website": "https://www.belhavenpubs.co.uk/pubs/west-lothian/old-post-office-bar/", "contact:email": "4381@greeneking.co.uk", "opening_hours": "Mo-Th 12:00-23:00; Fr-Sa 12:00-01:00; Su 12:00-23:00", "image": "https://www.belhavenpubs.co.uk/q/i/4381/", "brand": "Belhaven Pubs", "brand:wikidata": "Q105516156", "nsi_id": "belhavenpubs-eaed91"}, "geometry": {"type": "Point", "coordinates": [-3.597936, 55.976669]}},
{"type": "Feature", "id": "Q8L84xb1q27xjTz0P3oDKd61lzw=", "properties": {"ref": "3736", "@spider": "belhaven_pubs", "amenity": "pub", "addr:full": "65/67 High Street, Linlithgow, EH49 7ED", "addr:postcode": "EH49 7ED", "addr:country": "GB", "name": "Four Marys", "phone": "01506 842171", "website": "https://www.belhavenpubs.co.uk/pubs/west-lothian/four-marys/", "contact:email": "3736@greeneking.co.uk", "opening_hours": "Mo-Th 12:00-24:00; Fr-Sa 12:00-01:00; Su 12:00-24:00", "image": "https://www.belhavenpubs.co.uk/q/i/3736/", "brand": "Belhaven Pubs", "brand:wikidata": "Q105516156", "nsi_id": "belhavenpubs-eaed91"}, "geometry": {"type": "Point", "coordinates": [-3.599793, 55.976832]}},
{"type": "Feature", "id": "P1nBxx-z3YCBnxslhRZyqU6BGO0=", "properties": {"ref": "1633", "@spider": "belhaven_pubs", "amenity": "pub", "addr:full": "499 Great Western Road, Glasgow, G12 8HN", "addr:postcode": "G12 8HN", "addr:country": "GB", "name": "Coopers", "phone": "0141 334 0884", "website": "https://www.belhavenpubs.co.uk/pubs/lanarkshire/coopers/", "contact:email": "1633@greeneking.co.uk", "opening_hours": "Mo-Su 12:00-24:00", "image": "https://www.belhavenpubs.co.uk/q/i/1633/", "brand": "Belhaven Pubs", "brand:wikidata": "Q105516156", "nsi_id": "belhavenpubs-eaed91"}, "geometry": {"type": "Point", "coordinates": [-4.282484, 55.875506]}},
{"type": "Feature", "id": "oUe4s4AemW-sqgpa3FsmQVBhNJQ=", "properties": {"ref": "3706", "@spider": "belhaven_pubs", "amenity": "pub", "addr:full": "35 High Street, Peebles, EH45 8AN", "addr:postcode": "EH45 8AN", "addr:country": "GB", "name": "County Hotel", "phone": "01721 720595", "website": "https://www.belhavenpubs.co.uk/pubs/scottish-borders/county-hotel/", "contact:email": "3706@greeneking.co.uk", "opening_hours": "Mo-We 11:00-23:00; Th 11:00-24:00; Fr-Sa 11:00-01:00; Su 11:00-23:00", "image": "https://www.belhavenpubs.co.uk/q/i/3706/", "brand": "Belhaven Pubs", "brand:wikidata": "Q105516156", "nsi_id": "belhavenpubs-eaed91"}, "geometry": {"type": "Point", "coordinates": [-3.190395, 55.651476]}},
{"type": "Feature", "id": "NsVkSqSzTdTYSpKMAc0UfNUcdkw=", "properties": {"ref": "3978", "@spider": "belhaven_pubs", "amenity": "pub", "addr:full": "88-94 Main Street, Callander, FK17 8BD", "addr:postcode": "FK17 8BD", "addr:country": "GB", "name": "Waverley Hotel", "phone": "01877330245", "website": "https://www.belhavenpubs.co.uk/pubs/stirling/waverley-hotel/", "contact:email": "3978@greeneking.co.uk", "opening_hours": "Mo-Th 09:00-23:00; Fr-Sa 09:00-24:00; Su 09:00-23:00", "image": "https://www.belhavenpubs.co.uk/q/i/3978/", "brand": "Belhaven Pubs", "brand:wikidata": "Q105516156", "nsi_id": "belhavenpubs-eaed91"}, "geometry": {"type": "Point", "coordinates": [-4.213651, 56.24331]}},
{"type": "Feature", "id": "gaNta2dxxm_p3n75yBwdGEoz0cc=", "properties": {"ref": "7752", "@spider": "belhaven_pubs", "amenity": "pub", "addr:full": "2 Baker Street, Stirling, FK8 1BJ", "addr:postcode": "FK8 1BJ", "addr:country": "GB", "name": "No 2 Baker Street", "phone": "01786 448722", "website": "https://www.belhavenpubs.co.uk/pubs/stirling/no-2-baker-street/", "contact:email": "7752@greeneking.co.uk", "opening_hours": "Mo-Th 11:00-24:00; Fr-Sa 11:00-01:00; Su 11:00-24:00", "image": "https://www.belhavenpubs.co.uk/q/i/7752/", "brand": "Belhaven Pubs", "brand:wikidata": "Q105516156", "nsi_id": "belhavenpubs-eaed91"}, "geometry": {"type": "Point", "coordinates": [-3.938538, 56.118906]}},
{"type": "Feature", "id": "hyaRcJee2w6uIdF8VNEicoojrMA=", "properties": {"ref": "1641", "@spider": "belhaven_pubs", "amenity": "pub", "addr:full": "11 Maxwell Place, Stirling, FK8 1JU", "addr:postcode": "FK8 1JU", "addr:country": "GB", "name": "Molly Malones", "phone": "01786 478 264", "website": "https://www.belhavenpubs.co.uk/pubs/stirling/molly-malones/", "contact:email": "oneills.stirling@belhavenpubs.net", "opening_hours": "Mo-Th 11:00-24:00; Fr-Sa 11:00-01:00; Su 11:00-24:00", "image": "https://www.belhavenpubs.co.uk/q/i/1641/", "brand": "Belhaven Pubs", "brand:wikidata": "Q105516156", "nsi_id": "belhavenpubs-eaed91"}, "geometry": {"type": "Point", "coordinates": [-3.937443, 56.120245]}},
{"type": "Feature", "id": "ApBJpv5-KXc6ybmnW1Qv6yxNfTU=", "properties": {"ref": "3950", "@spider": "belhaven_pubs", "amenity": "pub", "addr:full": "6 Back Walk, Stirling, FK8 2QA", "addr:postcode": "FK8 2QA", "addr:country": "GB", "name": "City Walls", "phone": "01786 451063", "website": "https://www.belhavenpubs.co.uk/pubs/stirling/city-walls/", "contact:email": "3950@greeneking.co.uk", "opening_hours": "Mo-Th 12:00-23:00; Fr-Sa 12:00-01:00; Su 12:00-23:00", "image": "https://www.belhavenpubs.co.uk/q/i/3950/", "brand": "Belhaven Pubs", "brand:wikidata": "Q105516156", "nsi_id": "belhavenpubs-eaed91"}, "geometry": {"type": "Point", "coordinates": [-3.938739, 56.117557]}},
{"type": "Feature", "id": "Cx1HzNzYONozIwjwFZS3ZJ6SNPQ=", "properties": {"ref": "3823", "@spider": "belhaven_pubs", "amenity": "pub", "addr:full": "11-13 Corn Exchange, Stirling, FK8 2HX", "addr:postcode": "FK8 2HX", "addr:country": "GB", "name": "Corn Exchange", "phone": "01786 451904", "website": "https://www.belhavenpubs.co.uk/pubs/stirling/corn-exchange/", "contact:email": "3823@greeneking.co.uk", "opening_hours": "Mo-Th 11:00-23:00; Fr-Sa 11:00-02:00; Su 11:00-23:00", "image": "https://www.belhavenpubs.co.uk/q/i/3823/", "brand": "Belhaven Pubs", "brand:wikidata": "Q105516156", "nsi_id": "belhavenpubs-eaed91"}, "geometry": {"type": "Point", "coordinates": [-3.938938, 56.118145]}},
{"type": "Feature", "id": "osFiX3gbSbeJhPCBt_YVWZMk_rc=", "properties": {"ref": "1668", "@spider": "belhaven_pubs", "amenity": "pub", "addr:full": "84-86 Murray Place, Stirling, FK8 2BX", "addr:postcode": "FK8 2BX", "addr:country": "GB", "name": "Cold Beer Company", "phone": "01786 463 524", "website": "https://www.belhavenpubs.co.uk/pubs/stirling/cold-beer-company/", "contact:email": "1668@greeneking.co.uk", "opening_hours": "Mo-Th 11:00-24:00; Fr-Sa 11:00-01:00; Su 11:00-24:00", "image": "https://www.belhavenpubs.co.uk/q/i/1668/", "brand": "Belhaven Pubs", "brand:wikidata": "Q105516156", "nsi_id": "belhavenpubs-eaed91"}, "geometry": {"type": "Point", "coordinates": [-3.937358, 56.119905]}},
{"type": "Feature", "id": "iWc7f3JbpoIRqRLZ0EGTfOsbVjQ=", "properties": {"ref": "3992", "@spider": "belhaven_pubs", "amenity": "pub", "addr:full": "106 Shore Street, Gourock, PA19 1PG", "addr:postcode": "PA19 1PG", "addr:country": "GB", "name": "Victoria Bar", "phone": "01475 633152", "website": "https://www.belhavenpubs.co.uk/pubs/renfrewshire/victoria-bar/", "contact:email": "3992@greeneking.co.uk", "opening_hours": "Mo-Th 11:00-23:00; Fr-Sa 11:00-24:00; Su 12:15-23:00", "image": "https://www.belhavenpubs.co.uk/q/i/3992/", "brand": "Belhaven Pubs", "brand:wikidata": "Q105516156", "nsi_id": "belhavenpubs-eaed91"}, "geometry": {"type": "Point", "coordinates": [-4.816774, 55.9604]}},
{"type": "Feature", "id": "XBd0UzeOkiV59PJv7l0F76-E0Oo=", "properties": {"ref": "3740", "@spider": "belhaven_pubs", "amenity": "pub", "addr:full": "33 Gauze Street, Paisley, PA1  1EX", "addr:country": "GB", "name": "Gabriels", "phone": "0141 887 8204", "website": "https://www.belhavenpubs.co.uk/pubs/renfrewshire/gabriels/", "contact:email": "3740@greeneking.co.uk", "opening_hours": "Mo-Th 11:00-23:00; Fr-Sa 11:00-01:00; Su 11:00-23:00", "image": "https://www.belhavenpubs.co.uk/q/i/3740/", "brand": "Belhaven Pubs", "brand:wikidata": "Q105516156", "nsi_id": "belhavenpubs-eaed91"}, "geometry": {"type": "Point", "coordinates": [-4.418081, 55.846527]}},
{"type": "Feature", "id": "jak0Jq1oFhlenhaFZipsxihXlmM=", "properties": {"ref": "3922", "@spider": "belhaven_pubs", "amenity": "pub", "addr:full": "Broadloan, Renfrew, PA4 0DQ", "addr:postcode": "PA4 0DQ", "addr:country": "GB", "name": "Flying Scotsman", "phone": "0141 885 2242", "website": "https://www.belhavenpubs.co.uk/pubs/renfrewshire/flying-scotsman/", "contact:email": "3922@greeneking.co.uk", "opening_hours": "Mo-Th 12:00-23:00; Fr-Sa 12:00-01:00; Su 12:00-23:00", "image": "https://www.belhavenpubs.co.uk/q/i/3922/", "brand": "Belhaven Pubs", "brand:wikidata": "Q105516156", "nsi_id": "belhavenpubs-eaed91"}, "geometry": {"type": "Point", "coordinates": [-4.387027, 55.868096]}},
{"type": "Feature", "id": "S1Y7pEcM9W4ceMU1sO-yVBxTjkY=", "properties": {"ref": "3707", "@spider": "belhaven_pubs", "amenity": "pub", "addr:full": "4 Calside, Paisley, PA2 6DA", "addr:postcode": "PA2 6DA", "addr:country": "GB", "name": "Craig Dhu", "phone": "0141 561 7099", "website": "https://www.belhavenpubs.co.uk/pubs/renfrewshire/craig-dhu/", "contact:email": "3707@greeneking.co.uk", "opening_hours": "Mo-Th 12:00-23:00; Fr-Sa 12:00-24:00; Su 12:00-23:00", "image": "https://www.belhavenpubs.co.uk/q/i/3707/", "brand": "Belhaven Pubs", "brand:wikidata": "Q105516156", "nsi_id": "belhavenpubs-eaed91"}, "geometry": {"type": "Point", "coordinates": [-4.42561, 55.838769]}},
{"type": "Feature", "id": "mgjDN7r4TNpvhBeG3A4L7fgMb4o=", "properties": {"ref": "3735", "@spider": "belhaven_pubs", "amenity": "pub", "addr:full": "3 Murray Street, Perth, PH1 5PJ", "addr:postcode": "PH1 5PJ", "addr:country": "GB", "name": "Foundry", "phone": "01738 636863", "website": "https://www.belhavenpubs.co.uk/pubs/perth-and-kinross/foundry/", "contact:email": "3735@greeneking.co.uk", "opening_hours": "Mo-Th 11:00-23:00; Fr-Sa 11:00-00:30; Su 11:00-24:00", "image": "https://www.belhavenpubs.co.uk/q/i/3735/", "brand": "Belhaven Pubs", "brand:wikidata": "Q105516156", "nsi_id": "belhavenpubs-eaed91"}, "geometry": {"type": "Point", "coordinates": [-3.433049, 56.397761]}},
{"type": "Feature", "id": "bNtisRqdsfaamrVGKPF33rRsO9o=", "properties": {"ref": "3910", "@spider": "belhaven_pubs", "amenity": "pub", "addr:full": "Kirk Street, Dunblane, FK15 0AL", "addr:postcode": "FK15 0AL", "addr:country": "GB", "name": "Tappit Hen", "phone": "01786 825226", "website": "https://www.belhavenpubs.co.uk/pubs/perth-and-kinross/tappit-hen/", "contact:email": "3910@greeneking.co.uk", "opening_hours": "Mo-Th 11:00-24:00; Fr-Sa 11:00-01:00; Su 11:00-24:00", "image": "https://www.belhavenpubs.co.uk/q/i/3910/", "brand": "Belhaven Pubs", "brand:wikidata": "Q105516156", "nsi_id": "belhavenpubs-eaed91"}, "geometry": {"type": "Point", "coordinates": [-3.963797, 56.1892]}},
{"type": "Feature", "id": "kHEFjzN6YHGQWsJkUsdLbSIysqI=", "properties": {"ref": "7497", "@spider": "belhaven_pubs", "amenity": "pub", "addr:full": "18-20 Morrison Street, Edinburgh, EH3 8BJ", "addr:postcode": "EH3 8BJ", "addr:country": "GB", "name": "Festival", "phone": "01312 028825", "website": "https://www.belhavenpubs.co.uk/pubs/midlothian/festival/", "contact:email": "7497@greeneking.co.uk", "opening_hours": "Mo-Th 11:00-23:00; Fr-Sa 11:00-24:00; Su 11:00-23:00", "image": "https://www.belhavenpubs.co.uk/q/i/7497/", "brand": "Belhaven Pubs", "brand:wikidata": "Q105516156", "nsi_id": "belhavenpubs-eaed91"}, "geometry": {"type": "Point", "coordinates": [-3.206414, 55.945872]}},
{"type": "Feature", "id": "9LRD5aEFxTtPyAWjZ1oRSzv-lR0=", "properties": {"ref": "3732", "@spider": "belhaven_pubs", "amenity": "pub", "addr:full": "14-18 Thunderton Place, Elgin, IV30 1BG", "addr:postcode": "IV30 1BG", "addr:country": "GB", "name": "Granary", "phone": "01343 555175", "website": "https://www.belhavenpubs.co.uk/pubs/moray/granary/", "contact:email": "3732@greeneking.co.uk", "opening_hours": "Mo-Th 09:00-23:00; Fr-Sa 09:00-01:00; Su 10:00-23:00", "image": "https://www.belhavenpubs.co.uk/q/i/3732/", "brand": "Belhaven Pubs", "brand:wikidata": "Q105516156", "nsi_id": "belhavenpubs-eaed91"}, "geometry": {"type": "Point", "coordinates": [-3.31703, 57.647891]}},
{"type": "Feature", "id": "Jx85JGd6ElV2TUCM2ID_Wq8wY_4=", "properties": {"ref": "3942", "@spider": "belhaven_pubs", "amenity": "pub", "addr:full": "2-8 High Street, Edinburgh, EH1 1TB", "addr:postcode": "EH1 1TB", "addr:country": "GB", "name": "World's End", "phone": "0131 556 3628", "website": "https://www.belhavenpubs.co.uk/pubs/midlothian/worlds-end/", "contact:email": "3942@greeneking.co.uk", "opening_hours": "Mo-Th 11:00-24:00; Fr-Sa 11:00-01:00; Su 11:00-24:00", "image": "https://www.belhavenpubs.co.uk/q/i/3942/", "brand": "Belhaven Pubs", "brand:wikidata": "Q105516156", "nsi_id": "belhavenpubs-eaed91"}, "geometry": {"type": "Point", "coordinates": [-3.184431, 55.950525]}},
{"type": "Feature", "id": "6gEZWm6HS6NnKeD3ae_kkNHDtQ4=", "properties": {"ref": "1643", "@spider": "belhaven_pubs", "amenity": "pub", "addr:full": "32-34 Grassmarket, Edinburgh, EH1 2JU", "addr:postcode": "EH1 2JU", "addr:country": "GB", "name": "White Hart", "phone": "0131 226 2806", "website": "https://www.belhavenpubs.co.uk/pubs/midlothian/white-hart/", "contact:email": "whitehart.edinburgh@belhavenpubs.net", "opening_hours": "Mo-Th 12:00-24:00; Fr-Sa 12:00-01:00; Su 12:00-24:00", "image": "https://www.belhavenpubs.co.uk/q/i/1643/", "brand": "Belhaven Pubs", "brand:wikidata": "Q105516156", "nsi_id": "belhavenpubs-eaed91"}, "geometry": {"type": "Point", "coordinates": [-3.196791, 55.947477]}},
{"type": "Feature", "id": "fMc7dIbcrxCa6UIjfLwGsyrlQAk=", "properties": {"ref": "3867", "@spider": "belhaven_pubs", "amenity": "pub", "addr:full": "64 Laverockbank Road, Newhaven, Edinburgh, EH5 3BZ", "addr:postcode": "EH5 3BZ", "addr:country": "GB", "name": "Starbank Inn", "phone": "0131 552 4141", "website": "https://www.belhavenpubs.co.uk/pubs/midlothian/starbank-inn/", "contact:email": "3867@greeneking.co.uk", "opening_hours": "Mo-Th 12:00-23:00; Fr-Sa 12:00-24:00; Su 12:00-23:00", "image": "https://www.belhavenpubs.co.uk/q/i/3867/", "brand": "Belhaven Pubs", "brand:wikidata": "Q105516156", "nsi_id": "belhavenpubs-eaed91"}, "geometry": {"type": "Point", "coordinates": [-3.202121, 55.979902]}},
{"type": "Feature", "id": "JOUeZHYA_F8c-XSijeVwEMk0K7w=", "properties": {"ref": "7132", "@spider": "belhaven_pubs", "amenity": "pub", "addr:full": "65 Lothian Road, Edinburgh, EH1 2DJ", "addr:postcode": "EH1 2DJ", "addr:country": "GB", "name": "Shakespeare", "phone": "01312 288400", "website": "https://www.belhavenpubs.co.uk/pubs/midlothian/shakespeare/", "contact:email": "7132@greeneking.co.uk", "opening_hours": "Mo-Th 11:00-23:00; Fr-Sa 11:00-01:00; Su 11:00-23:00", "image": "https://www.belhavenpubs.co.uk/q/i/7132/", "brand": "Belhaven Pubs", "brand:wikidata": "Q105516156", "nsi_id": "belhavenpubs-eaed91"}, "geometry": {"type": "Point", "coordinates": [-3.205892, 55.947542]}},
{"type": "Feature", "id": "F6-CpKpDqiMfzERiWZXiyTS6GEE=", "properties": {"ref": "7221", "@spider": "belhaven_pubs", "amenity": "pub", "addr:full": "35 Hanover Street, Edinburgh, EH2 2PJ", "addr:postcode": "EH2 2PJ", "addr:country": "GB", "name": "Milnes Bar", "phone": "01312 256738", "website": "https://www.belhavenpubs.co.uk/pubs/midlothian/milnes-bar/", "contact:email": "7221@greeneking.co.uk", "opening_hours": "Mo-Th 11:00-23:00; Fr-Sa 11:00-01:00; Su 11:00-23:00", "image": "https://www.belhavenpubs.co.uk/q/i/7221/", "brand": "Belhaven Pubs", "brand:wikidata": "Q105516156", "nsi_id": "belhavenpubs-eaed91"}, "geometry": {"type": "Point", "coordinates": [-3.196687, 55.952919]}},
{"type": "Feature", "id": "s2q--sdJBrmY9vHeObCD-ozLxG8=", "properties": {"ref": "1793", "@spider": "belhaven_pubs", "amenity": "pub", "addr:full": "8 Clifton Terrace, Haymarket, Edinburgh, EH12 5DR", "addr:postcode": "EH12 5DR", "addr:country": "GB", "name": "Platform 5", "phone": "0131 347 1616", "website": "https://www.belhavenpubs.co.uk/pubs/midlothian/platform-5/", "contact:email": "1793@greeneking.co.uk", "opening_hours": "Mo-Th 09:00-24:00; Fr-Sa 09:00-01:00; Su 09:00-24:00", "image": "https://www.belhavenpubs.co.uk/q/i/1793/", "brand": "Belhaven Pubs", "brand:wikidata": "Q105516156", "nsi_id": "belhavenpubs-eaed91"}, "geometry": {"type": "Point", "coordinates": [-3.218492, 55.946156]}},
{"type": "Feature", "id": "ZpI67oe5iF49tpDO6s1SUdWnWxo=", "properties": {"ref": "1652", "@spider": "belhaven_pubs", "amenity": "pub", "addr:full": "168-172 Morningside Road, Edinburgh, EH10 4PU", "addr:postcode": "EH10 4PU", "addr:country": "GB", "name": "Merlin", "phone": "0131 447 4329", "website": "https://www.belhavenpubs.co.uk/pubs/midlothian/merlin/", "contact:email": "1652@greeneking.co.uk", "opening_hours": "Mo-Th 11:00-23:00; Fr-Sa 11:00-01:00; Su 11:00-23:00", "image": "https://www.belhavenpubs.co.uk/q/i/1652/", "brand": "Belhaven Pubs", "brand:wikidata": "Q105516156", "nsi_id": "belhavenpubs-eaed91"}, "geometry": {"type": "Point", "coordinates": [-3.209852, 55.929266]}},
{"type": "Feature", "id": "BkBoFvB0yExeylKHNAdy_PzJRnA=", "properties": {"ref": "7217", "@spider": "belhaven_pubs", "amenity": "pub", "addr:full": "11-15 Cockburn Street, Edinburgh, EH1 1BP", "addr:postcode": "EH1 1BP", "addr:country": "GB", "name": "Malt Shovel Inn", "phone": "01312 256843", "website": "https://www.belhavenpubs.co.uk/pubs/midlothian/malt-shovel-inn/", "contact:email": "7217@greeneking.co.uk", "opening_hours": "Mo-Su 11:00-01:00", "image": "https://www.belhavenpubs.co.uk/q/i/7217/", "brand": "Belhaven Pubs", "brand:wikidata": "Q105516156", "nsi_id": "belhavenpubs-eaed91"}, "geometry": {"type": "Point", "coordinates": [-3.190685, 55.950659]}},
{"type": "Feature", "id": "qibRHFWd7ocF9dMKuvIK6zo0fug=", "properties": {"ref": "3755", "@spider": "belhaven_pubs", "amenity": "pub", "addr:full": "14 Corstorphine Road, Edinburgh, EH12 6HN", "addr:postcode": "EH12 6HN", "addr:country": "GB", "name": "Hampton Hotel", "phone": "0131 337 1130", "website": "https://www.belhavenpubs.co.uk/pubs/midlothian/hampton-hotel/", "contact:email": "3755@greeneking.co.uk", "opening_hours": "Mo-Su 11:00-23:00", "image": "https://www.belhavenpubs.co.uk/q/i/3755/", "brand": "Belhaven Pubs", "brand:wikidata": "Q105516156", "nsi_id": "belhavenpubs-eaed91"}, "geometry": {"type": "Point", "coordinates": [-3.24291, 55.945654]}},
{"type": "Feature", "id": "6LEAdVk5M_05uIHtsWbpIMXQ6Do=", "properties": {"ref": "7204", "@spider": "belhaven_pubs", "amenity": "pub", "addr:full": "26-28 Shandwick Place, Edinburgh, EH2 4RT", "addr:postcode": "EH2 4RT", "addr:country": "GB", "name": "Grosvenor", "phone": "01312 264579", "website": "https://www.belhavenpubs.co.uk/pubs/midlothian/grosvenor/", "contact:email": "7204@greeneking.co.uk", "opening_hours": "Mo-Th 12:00-23:00; Fr-Sa 12:00-01:30; Su 12:00-22:30", "image": "https://www.belhavenpubs.co.uk/q/i/7204/", "brand": "Belhaven Pubs", "brand:wikidata": "Q105516156", "nsi_id": "belhavenpubs-eaed91"}, "geometry": {"type": "Point", "coordinates": [-3.209256, 55.949796]}},
{"type": "Feature", "id": "h_qOK8JiDeYXGuJtbowFNChSNo4=", "properties": {"ref": "7182", "@spider": "belhaven_pubs", "amenity": "pub", "addr:full": "32 Forrest Road, Edinburgh, Edinburgh, EH1 2QN", "addr:postcode": "EH1 2QN", "addr:country": "GB", "name": "Doctors", "phone": "01312 251819", "website": "https://www.belhavenpubs.co.uk/pubs/midlothian/doctors/", "contact:email": "7182@greeneking.co.uk", "opening_hours": "Mo-Su 11:00-01:00", "image": "https://www.belhavenpubs.co.uk/q/i/7182/", "brand": "Belhaven Pubs", "brand:wikidata": "Q105516156", "nsi_id": "belhavenpubs-eaed91"}, "geometry": {"type": "Point", "coordinates": [-3.190991, 55.945476]}},
{"type": "Feature", "id": "SQaPOw2abXdDxFdabvSPYISj1U4=", "properties": {"ref": "6904", "@spider": "belhaven_pubs", "amenity": "pub", "addr:full": "17 Corstorphine High Street, Edinburgh, EH12 7SU", "addr:postcode": "EH12 7SU", "addr:country": "GB", "name": "Corstorphine Inn", "phone": "01313 341019", "website": "https://www.belhavenpubs.co.uk/pubs/midlothian/corstorphine-inn/", "contact:email": "6904@greeneking.co.uk", "opening_hours": "Mo-Su 12:00-24:00", "image": "https://www.belhavenpubs.co.uk/q/i/6904/", "brand": "Belhaven Pubs", "brand:wikidata": "Q105516156", "nsi_id": "belhavenpubs-eaed91"}, "geometry": {"type": "Point", "coordinates": [-3.283347, 55.940539]}},
{"type": "Feature", "id": "UUbaJx4INcpHL-x7IbtzQ8z9cnI=", "properties": {"ref": "3821", "@spider": "belhaven_pubs", "amenity": "pub", "addr:full": "2-6 Calton Road, Edinburgh, EH8 8DL", "addr:postcode": "EH8 8DL", "addr:country": "GB", "name": "Bunker", "phone": "0131 557 2925", "website": "https://www.belhavenpubs.co.uk/pubs/midlothian/bunker/", "contact:email": "3821@greeneking.co.uk", "opening_hours": "Mo-We 17:00-01:00; Th 12:00-01:30; Fr-Sa 12:00-03:30; Su 12:00-03:00", "image": "https://www.belhavenpubs.co.uk/q/i/3821/", "brand": "Belhaven Pubs", "brand:wikidata": "Q105516156", "nsi_id": "belhavenpubs-eaed91"}, "geometry": {"type": "Point", "coordinates": [-3.187393, 55.954158]}},
{"type": "Feature", "id": "qUMhivWlrTn_K8LDF9CYiPlirF0=", "properties": {"ref": "3667", "@spider": "belhaven_pubs", "amenity": "pub", "addr:full": "43 Leith Street, Edinburgh, EH1 3AT", "addr:postcode": "EH1 3AT", "addr:country": "GB", "name": "Black Bull", "phone": "0131 557 5121", "website": "https://www.belhavenpubs.co.uk/pubs/midlothian/black-bull/", "contact:email": "3667@greeneking.co.uk", "opening_hours": "Mo-Su 12:00-01:00", "image": "https://www.belhavenpubs.co.uk/q/i/3667/", "brand": "Belhaven Pubs", "brand:wikidata": "Q105516156", "nsi_id": "belhavenpubs-eaed91"}, "geometry": {"type": "Point", "coordinates": [-3.18734, 55.954294]}},
{"type": "Feature", "id": "nyhZhKV9FJGiBGvWlOVNpWIj34w=", "properties": {"ref": "7170", "@spider": "belhaven_pubs", "amenity": "pub", "addr:full": "18-20 Grassmarket, Edinburgh, EH1 2JU", "addr:postcode": "EH1 2JU", "addr:country": "GB", "name": "Beehive Inn", "phone": "01312 257171", "website": "https://www.belhavenpubs.co.uk/pubs/midlothian/beehive-inn/", "contact:email": "7170@greeneking.co.uk", "opening_hours": "Mo-We 11:00-23:00; Th-Sa 11:00-24:00; Su 11:00-23:00", "image": "https://www.belhavenpubs.co.uk/q/i/7170/", "brand": "Belhaven Pubs", "brand:wikidata": "Q105516156", "nsi_id": "belhavenpubs-eaed91"}, "geometry": {"type": "Point", "coordinates": [-3.197136, 55.947397]}},
{"type": "Feature", "id": "zjqxum5IoAvGAof8soasWjDcmMw=", "properties": {"ref": "3649", "@spider": "belhaven_pubs", "amenity": "pub", "addr:full": "197 High Street, Edinburgh, EH1 1PE", "addr:postcode": "EH1 1PE", "addr:country": "GB", "name": "Albanach", "phone": "0131 220 5277", "website": "https://www.belhavenpubs.co.uk/pubs/midlothian/albanach/", "contact:email": "3649@greeneking.co.uk", "opening_hours": "Mo-Th 11:00-24:00; Fr-Sa 11:00-01:00; Su 11:00-24:00", "image": "https://www.belhavenpubs.co.uk/q/i/3649/", "brand": "Belhaven Pubs", "brand:wikidata": "Q105516156", "nsi_id": "belhavenpubs-eaed91"}, "geometry": {"type": "Point", "coordinates": [-3.188431, 55.950176]}},
{"type": "Feature", "id": "6bfh3A8sSPA-0WbbOVS5RUSsOL0=", "properties": {"ref": "1638", "@spider": "belhaven_pubs", "amenity": "pub", "addr:full": "7 Hunter Square, Edinburgh, EH1 1QW", "addr:postcode": "EH1 1QW", "addr:country": "GB", "name": "Advocate", "phone": "0131 226 2749", "website": "https://www.belhavenpubs.co.uk/pubs/midlothian/advocate/", "contact:email": "advocate.edinburgh@belhavenpubs.net", "opening_hours": "Mo-Th 11:00-23:00; Fr-Sa 11:00-01:00; Su 11:00-23:00", "image": "https://www.belhavenpubs.co.uk/q/i/1638/", "brand": "Belhaven Pubs", "brand:wikidata": "Q105516156", "nsi_id": "belhavenpubs-eaed91"}, "geometry": {"type": "Point", "coordinates": [-3.187987, 55.949519]}},
{"type": "Feature", "id": "sP_S0KFmloui0n3m96NvMWURx1Y=", "properties": {"ref": "7377", "@spider": "belhaven_pubs", "amenity": "pub", "addr:full": "508 Great Western Road, Glasgow, G12 8EL", "addr:postcode": "G12 8EL", "addr:country": "GB", "name": "Bakehouse", "phone": "01414718077", "website": "https://www.belhavenpubs.co.uk/pubs/lanarkshire/bakehouse/", "contact:email": "7377@greeneking.co.uk", "opening_hours": "Mo-Su 11:00-24:00", "image": "https://www.belhavenpubs.co.uk/q/i/7377/", "brand": "Belhaven Pubs", "brand:wikidata": "Q105516156", "nsi_id": "belhavenpubs-eaed91"}, "geometry": {"type": "Point", "coordinates": [-4.282322, 55.875719]}},
{"type": "Feature", "id": "e_Wzq-IrhFtCQJUrymnQqY7T69c=", "properties": {"ref": "7142", "@spider": "belhaven_pubs", "amenity": "pub", "addr:full": "29-31 Princes Square, East Kilbride, G74 1LT", "addr:postcode": "G74 1LT", "addr:country": "GB", "name": "Tower", "phone": "01355 222112", "website": "https://www.belhavenpubs.co.uk/pubs/lanarkshire/tower/", "contact:email": "7142@greeneking.co.uk", "opening_hours": "Mo-Su 11:00-22:00", "image": "https://www.belhavenpubs.co.uk/q/i/7142/", "brand": "Belhaven Pubs", "brand:wikidata": "Q105516156", "nsi_id": "belhavenpubs-eaed91"}, "geometry": {"type": "Point", "coordinates": [-4.177609, 55.760806]}},
{"type": "Feature", "id": "uu2-qCEZcInAQpLAVxq63d47-lw=", "properties": {"ref": "3991", "@spider": "belhaven_pubs", "amenity": "pub", "addr:full": "7 Peel Street, Glasgow, G11 5LL", "addr:postcode": "G11 5LL", "addr:country": "GB", "name": "Stumps", "phone": "0141 334 7737", "website": "https://www.belhavenpubs.co.uk/pubs/lanarkshire/stumps/", "contact:email": "3991@greeneking.co.uk", "opening_hours": "Mo-Th 11:00-23:00; Fr-Sa 11:00-24:00; Su 11:00-23:00", "image": "https://www.belhavenpubs.co.uk/q/i/3991/", "brand": "Belhaven Pubs", "brand:wikidata": "Q105516156", "nsi_id": "belhavenpubs-eaed91"}, "geometry": {"type": "Point", "coordinates": [-4.309801, 55.871028]}},
{"type": "Feature", "id": "ORUGYF2hC7cw7-1UHzsjOuaEWzQ=", "properties": {"ref": "3993", "@spider": "belhaven_pubs", "amenity": "pub", "addr:full": "979 Sauchiehall Street, Glasgow, G3 7TQ", "addr:postcode": "G3 7TQ", "addr:country": "GB", "name": "Snaffle Bit", "phone": "0141 339 7163", "website": "https://www.belhavenpubs.co.uk/pubs/lanarkshire/snaffle-bit/", "contact:email": "3993@greeneking.co.uk", "opening_hours": "Mo-Th 12:00-24:00; Fr-Su 11:00-24:00", "image": "https://www.belhavenpubs.co.uk/q/i/3993/", "brand": "Belhaven Pubs", "brand:wikidata": "Q105516156", "nsi_id": "belhavenpubs-eaed91"}, "geometry": {"type": "Point", "coordinates": [-4.286819, 55.866099]}},
{"type": "Feature", "id": "hAC2ZPpv65dOMpnApnNSTVnxjgI=", "properties": {"ref": "4371", "@spider": "belhaven_pubs", "amenity": "pub", "addr:full": "Ben Lawers Drive, Cumbernauld, G68 9DN", "addr:postcode": "G68 9DN", "addr:country": "GB", "name": "Smiddy Inn", "phone": "01236 728419", "website": "https://www.belhavenpubs.co.uk/pubs/lanarkshire/smiddy-inn/", "contact:email": "4371@greeneking.co.uk", "opening_hours": "Mo-We 12:00-23:00; Th 12:00-24:00; Fr 12:00-01:00; Sa 11:00-01:00; Su 11:00-24:00", "image": "https://www.belhavenpubs.co.uk/q/i/4371/", "brand": "Belhaven Pubs", "brand:wikidata": "Q105516156", "nsi_id": "belhavenpubs-eaed91"}, "geometry": {"type": "Point", "coordinates": [-4.023561, 55.94765]}},
{"type": "Feature", "id": "_aeuAm8h43vD9kZ5e1uIQUbKfvg=", "properties": {"ref": "3854", "@spider": "belhaven_pubs", "amenity": "pub", "addr:full": "309 Dumbarton Road, Glasgow, G11 6AL", "addr:postcode": "G11 6AL", "addr:country": "GB", "name": "Smiddy Bar", "phone": "0141 357 5621", "website": "https://www.belhavenpubs.co.uk/pubs/lanarkshire/smiddy-bar/", "contact:email": "3854@greeneking.co.uk", "opening_hours": "Mo-Th 11:00-23:00; Fr-Sa 11:00-24:00; Su 11:00-23:00", "image": "https://www.belhavenpubs.co.uk/q/i/3854/", "brand": "Belhaven Pubs", "brand:wikidata": "Q105516156", "nsi_id": "belhavenpubs-eaed91"}, "geometry": {"type": "Point", "coordinates": [-4.305543, 55.870742]}},
{"type": "Feature", "id": "W2yprF0IVS8simfjRYS3u5BEmt8=", "properties": {"ref": "3695", "@spider": "belhaven_pubs", "amenity": "pub", "addr:full": "93 Merkland Drive, Kirkintilloch, G66 3SJ", "addr:postcode": "G66 3SJ", "addr:country": "GB", "name": "Chase Inn", "phone": "0141 776 6415", "website": "https://www.belhavenpubs.co.uk/pubs/lanarkshire/chase-inn/", "contact:email": "3695@greeneking.co.uk", "opening_hours": "Mo-Th 11:00-23:00; Fr-Sa 11:00-24:00; Su 11:00-23:00", "image": "https://www.belhavenpubs.co.uk/q/i/3695/", "brand": "Belhaven Pubs", "brand:wikidata": "Q105516156", "nsi_id": "belhavenpubs-eaed91"}, "geometry": {"type": "Point", "coordinates": [-4.131411, 55.94255]}},
{"type": "Feature", "id": "_PfFY8u4ksCcXqKBRJsO94MtGpk=", "properties": {"ref": "7070", "@spider": "belhaven_pubs", "amenity": "pub", "addr:full": "5/15 Miller Street, Glasgow, G1 1EA", "addr:postcode": "G1 1EA", "addr:country": "GB", "name": "Cairns Bar", "phone": "01412 485007", "website": "https://www.belhavenpubs.co.uk/pubs/lanarkshire/cairns-bar/", "contact:email": "7070@greeneking.co.uk", "opening_hours": "Mo-Th 11:00-23:00; Fr-Sa 11:00-24:00; Su 11:00-23:00", "image": "https://www.belhavenpubs.co.uk/q/i/7070/", "brand": "Belhaven Pubs", "brand:wikidata": "Q105516156", "nsi_id": "belhavenpubs-eaed91"}, "geometry": {"type": "Point", "coordinates": [-4.251489, 55.858088]}},
{"type": "Feature", "id": "KvfD17Nv0F4ewy-0aN2VzB5GlhI=", "properties": {"ref": "6752", "@spider": "belhaven_pubs", "amenity": "pub", "addr:full": "164 Ardmay Crescent, Kings Park, Glasgow, G44 4PP", "addr:postcode": "G44 4PP", "addr:country": "GB", "name": "Beechwood", "phone": "01416 325476", "website": "https://www.belhavenpubs.co.uk/pubs/lanarkshire/beechwood/", "contact:email": "6752@greeneking.co.uk", "opening_hours": "Mo-Th 11:00-23:00; Fr-Su 11:00-24:00", "image": "https://www.belhavenpubs.co.uk/q/i/6752/", "brand": "Belhaven Pubs", "brand:wikidata": "Q105516156", "nsi_id": "belhavenpubs-eaed91"}, "geometry": {"type": "Point", "coordinates": [-4.248546, 55.823544]}},
{"type": "Feature", "id": "PUjSMnnMQ12vQAtnjoh2c0iQKMs=", "properties": {"ref": "None", "@spider": "belhaven_pubs", "amenity": "pub", "addr:country": "GB", "website": "https://www.belhavenpubs.co.uk/pubs/lanarkshire/barrachnie-inn/", "brand": "Belhaven Pubs", "brand:wikidata": "Q105516156", "nsi_id": "belhavenpubs-eaed91"}},
{"type": "Feature", "id": "_A9QmhsezQTP_-_NTba_PU5mns8=", "properties": {"ref": "3653", "@spider": "belhaven_pubs", "amenity": "pub", "addr:full": "136 Battlefield Road, Battlefield, Glasgow, G42 9JT", "addr:postcode": "G42 9JT", "addr:country": "GB", "name": "Armstrong's", "phone": "0141 636 9229", "website": "https://www.belhavenpubs.co.uk/pubs/lanarkshire/armstrongs/", "contact:email": "3653@greeneking.co.uk", "opening_hours": "Mo-Th 11:00-23:00; Fr-Sa 11:00-24:00; Su 11:00-23:00", "image": "https://www.belhavenpubs.co.uk/q/i/3653/", "brand": "Belhaven Pubs", "brand:wikidata": "Q105516156", "nsi_id": "belhavenpubs-eaed91"}, "geometry": {"type": "Point", "coordinates": [-4.265461, 55.826436]}},
{"type": "Feature", "id": "pf0Hgal4ZJ8bamzQt8M96FG34k0=", "properties": {"ref": "3648", "@spider": "belhaven_pubs", "amenity": "pub", "addr:full": "26 Burnbank Road, Hamilton, ML3  9AA", "addr:country": "GB", "name": "Academical Vaults", "phone": "01698 422885", "website": "https://www.belhavenpubs.co.uk/pubs/lanarkshire/academical-vaults/", "contact:email": "3648@greeneking.co.uk", "opening_hours": "Mo-Th 11:00-23:00; Fr-Sa 11:00-24:00; Su 11:00-23:00", "image": "https://www.belhavenpubs.co.uk/q/i/3648/", "brand": "Belhaven Pubs", "brand:wikidata": "Q105516156", "nsi_id": "belhavenpubs-eaed91"}, "geometry": {"type": "Point", "coordinates": [-4.055356, 55.778328]}},
{"type": "Feature", "id": "w5OWA3eue7NcbZTEtEw4_1-logw=", "properties": {"ref": "3822", "@spider": "belhaven_pubs", "amenity": "pub", "addr:full": "38-40 Academy Street, Inverness, IV1 1JT", "addr:postcode": "IV1 1JT", "addr:country": "GB", "name": "Platform 8", "phone": "01463 713307", "website": "https://www.belhavenpubs.co.uk/pubs/inverness-shire/platform-8/", "contact:email": "3822@greeneking.co.uk", "opening_hours": "Mo-Th 10:00-23:00; Fr-Sa 10:00-24:00; Su 10:00-23:00", "image": "https://www.belhavenpubs.co.uk/q/i/3822/", "brand": "Belhaven Pubs", "brand:wikidata": "Q105516156", "nsi_id": "belhavenpubs-eaed91"}, "geometry": {"type": "Point", "coordinates": [-4.224857, 57.479545]}},
{"type": "Feature", "id": "HX6OwB8tk93lz2nuDyZczsFzXXA=", "properties": {"ref": "3949", "@spider": "belhaven_pubs", "amenity": "pub", "addr:full": "28 Church Street, Inverness, IV1 1EH", "addr:postcode": "IV1 1EH", "addr:country": "GB", "name": "Auctioneer's", "phone": "01463 713005", "website": "https://www.belhavenpubs.co.uk/pubs/inverness-shire/auctioneers/", "contact:email": "3949@greeneking.co.uk", "opening_hours": "Mo-Th 11:00-23:00; Fr 11:00-01:00; Sa 11:00-02:00; Su 11:00-23:00", "image": "https://www.belhavenpubs.co.uk/q/i/3949/", "brand": "Belhaven Pubs", "brand:wikidata": "Q105516156", "nsi_id": "belhavenpubs-eaed91"}, "geometry": {"type": "Point", "coordinates": [-4.226431, 57.478671]}},
{"type": "Feature", "id": "Cj8NRxPvmBzo_Y28BB2iYvwSZMM=", "properties": {"ref": "3935", "@spider": "belhaven_pubs", "amenity": "pub", "addr:full": "1 Bridge Street, St Andrews, KY16 9EX", "addr:postcode": "KY16 9EX", "addr:country": "GB", "name": "Whey Pat Tavern", "phone": "01334 477740", "website": "https://www.belhavenpubs.co.uk/pubs/fife/whey-pat-tavern/", "contact:email": "3935@greeneking.co.uk", "opening_hours": "Mo-Su 11:00-24:00", "image": "https://www.belhavenpubs.co.uk/q/i/3935/", "brand": "Belhaven Pubs", "brand:wikidata": "Q105516156", "nsi_id": "belhavenpubs-eaed91"}, "geometry": {"type": "Point", "coordinates": [-2.801254, 56.338593]}},
{"type": "Feature", "id": "t9xMcw4vlKMyaRjOi_fGr5m-P4c=", "properties": {"ref": "1642", "@spider": "belhaven_pubs", "amenity": "pub", "addr:full": "5 Alexandra Place, St Andrews, KY16 9XD", "addr:postcode": "KY16 9XD", "addr:country": "GB", "name": "Molly Malones", "phone": "01334 474 068", "website": "https://www.belhavenpubs.co.uk/pubs/fife/molly-malones/", "contact:email": "raisin.standrews@belhavenpubs.net", "opening_hours": "Mo-Th 12:00-23:00; Fr-Sa 12:00-01:00; Su 12:00-23:00", "image": "https://www.belhavenpubs.co.uk/q/i/1642/", "brand": "Belhaven Pubs", "brand:wikidata": "Q105516156", "nsi_id": "belhavenpubs-eaed91"}, "geometry": {"type": "Point", "coordinates": [-2.801212, 56.340087]}},
{"type": "Feature", "id": "bn3epCdPWNO9p029YkkeXXGXvZg=", "properties": {"ref": "3980", "@spider": "belhaven_pubs", "amenity": "pub", "addr:full": "32 - 42 Bridge Street, Dunfermline, KY12 8DA", "addr:postcode": "KY12 8DA", "addr:country": "GB", "name": "Seven Kings", "phone": "01383 736290", "website": "https://www.belhavenpubs.co.uk/pubs/fife/seven-kings/", "contact:email": "3980@greeneking.co.uk", "opening_hours": "Mo-Th 11:00-23:00; Fr-Sa 11:00-01:00; Su 11:00-23:00", "image": "https://www.belhavenpubs.co.uk/q/i/3980/", "brand": "Belhaven Pubs", "brand:wikidata": "Q105516156", "nsi_id": "belhavenpubs-eaed91"}, "geometry": {"type": "Point", "coordinates": [-3.465506, 56.071197]}},
{"type": "Feature", "id": "a5obwk07Wwyt45sR9CF-VlomYoc=", "properties": {"ref": "1794", "@spider": "belhaven_pubs", "amenity": "pub", "addr:full": "129 North Street, St Andrews, KY16 9AG", "addr:postcode": "KY16 9AG", "addr:country": "GB", "name": "Greyfriars Hotel", "phone": "01334 474906", "website": "https://www.belhavenpubs.co.uk/pubs/fife/greyfriars-hotel/", "contact:email": "1794@greeneking.co.uk", "opening_hours": "Mo-Su 09:00-01:00", "image": "https://www.belhavenpubs.co.uk/q/i/1794/", "brand": "Belhaven Pubs", "brand:wikidata": "Q105516156", "nsi_id": "belhavenpubs-eaed91"}, "geometry": {"type": "Point", "coordinates": [-2.798982, 56.341879]}},
{"type": "Feature", "id": "qsUl-FRZGdWJ6PFrCukO6C2hLhU=", "properties": {"ref": "6592", "@spider": "belhaven_pubs", "amenity": "pub", "addr:full": "Harbour Drive, Dalgety Bay, KY11 9NA", "addr:postcode": "KY11 9NA", "addr:country": "GB", "name": "Compass", "phone": "01383 821795", "website": "https://www.belhavenpubs.co.uk/pubs/fife/compass/", "contact:email": "6592@greeneking.co.uk", "opening_hours": "Mo-Th 12:00-22:00; Fr-Sa 12:00-23:00; Su 12:00-22:00", "image": "https://www.belhavenpubs.co.uk/q/i/6592/", "brand": "Belhaven Pubs", "brand:wikidata": "Q105516156", "nsi_id": "belhavenpubs-eaed91"}, "geometry": {"type": "Point", "coordinates": [-3.366496, 56.040625]}},
{"type": "Feature", "id": "i9KlASpJJLGa6YYNVRy0Yn3Cbms=", "properties": {"ref": "7172", "@spider": "belhaven_pubs", "amenity": "pub", "addr:full": "77-79 Market Street, St Andrews, KY16 9NU", "addr:postcode": "KY16 9NU", "addr:country": "GB", "name": "Central Bar", "phone": "01334 478296", "website": "https://www.belhavenpubs.co.uk/pubs/fife/central-bar/", "contact:email": "7172@greeneking.co.uk", "opening_hours": "Mo-Su 09:00-01:00", "image": "https://www.belhavenpubs.co.uk/q/i/7172/", "brand": "Belhaven Pubs", "brand:wikidata": "Q105516156", "nsi_id": "belhavenpubs-eaed91"}, "geometry": {"type": "Point", "coordinates": [-2.794933, 56.340491]}},
{"type": "Feature", "id": "mIjo35Thm0NSExLEcPzUFZz4Rj0=", "properties": {"ref": "1826", "@spider": "belhaven_pubs", "amenity": "pub", "addr:full": "10-14 Busby Road, Clarkston, Glasgow, G76 7XL", "addr:postcode": "G76 7XL", "addr:country": "GB", "name": "Overlee", "phone": "0141 638 6649", "website": "https://www.belhavenpubs.co.uk/pubs/east-renfrewshire/overlee/", "contact:email": "1826@greeneking.co.uk", "opening_hours": "Mo-Th 11:00-23:00; Fr-Sa 11:00-01:00; Su 11:00-23:00", "image": "https://www.belhavenpubs.co.uk/q/i/1826/", "brand": "Belhaven Pubs", "brand:wikidata": "Q105516156", "nsi_id": "belhavenpubs-eaed91"}, "geometry": {"type": "Point", "coordinates": [-4.278313, 55.789998]}},
{"type": "Feature", "id": "NkYsDdYz8L6Awkj5dR4Pe4HNops=", "properties": {"ref": "3944", "@spider": "belhaven_pubs", "amenity": "pub", "addr:full": "17 High Street, Dumbarton, G82 1LS", "addr:postcode": "G82 1LS", "addr:country": "GB", "name": "Counting House", "phone": "01389 765457", "website": "https://www.belhavenpubs.co.uk/pubs/dunbartonshire/counting-house/", "contact:email": "3944@greeneking.co.uk", "opening_hours": "Mo-Th 12:00-23:00; Fr-Sa 11:00-24:00; Su 11:00-23:00", "image": "https://www.belhavenpubs.co.uk/q/i/3944/", "brand": "Belhaven Pubs", "brand:wikidata": "Q105516156", "nsi_id": "belhavenpubs-eaed91"}, "geometry": {"type": "Point", "coordinates": [-4.568897, 55.942984]}},
{"type": "Feature", "id": "Jmb3GpSBMtIewux-G767koqjiEI=", "properties": {"ref": "7064", "@spider": "belhaven_pubs", "amenity": "pub", "addr:full": "Shore Road/Gareloch Road, Rhu, Helensburgh, G84 8LA", "addr:postcode": "G84 8LA", "addr:country": "GB", "name": "Ardencaple Hotel", "phone": "01436 820200", "website": "https://www.belhavenpubs.co.uk/pubs/dunbartonshire/ardencaple-hotel/", "contact:email": "7064@greeneking.co.uk", "opening_hours": "Mo-Th 11:00-23:00; Fr-Sa 11:00-24:00; Su 11:00-23:00", "image": "https://www.belhavenpubs.co.uk/q/i/7064/", "brand": "Belhaven Pubs", "brand:wikidata": "Q105516156", "nsi_id": "belhavenpubs-eaed91"}, "geometry": {"type": "Point", "coordinates": [-4.764394, 56.013123]}},
{"type": "Feature", "id": "VugP_UAmeSSRO7pBdPLwTXVRMwo=", "properties": {"ref": "3945", "@spider": "belhaven_pubs", "amenity": "pub", "addr:full": "Dobies Building, Loreburn Street, Dumfries, DG1 1HN", "addr:postcode": "DG1 1HN", "addr:country": "GB", "name": "Granary", "phone": "01387 250534", "website": "https://www.belhavenpubs.co.uk/pubs/dumfries-galloway/granary/", "contact:email": "3945@greeneking.co.uk", "opening_hours": "Mo-Th 11:00-23:00; Fr-Sa 11:00-24:00; Su 11:00-23:00", "image": "https://www.belhavenpubs.co.uk/q/i/3945/", "brand": "Belhaven Pubs", "brand:wikidata": "Q105516156", "nsi_id": "belhavenpubs-eaed91"}, "geometry": {"type": "Point", "coordinates": [-3.609108, 55.069033]}},
{"type": "Feature", "id": "AP1voua4iVmvTY9LYxCRDrm54rY=", "properties": {"ref": "3929", "@spider": "belhaven_pubs", "amenity": "pub", "addr:full": "North Strand Street, Stranraer, DG9 7RB", "addr:postcode": "DG9 7RB", "addr:country": "GB", "name": "Custom House", "phone": "01776 889727", "website": "https://www.belhavenpubs.co.uk/pubs/dumfries-galloway/custom-house/", "contact:email": "3929@greeneking.co.uk", "opening_hours": "Mo-Th 12:00-23:00; Fr-Sa 12:00-01:00; Su 12:00-23:00", "image": "https://www.belhavenpubs.co.uk/q/i/3929/", "brand": "Belhaven Pubs", "brand:wikidata": "Q105516156", "nsi_id": "belhavenpubs-eaed91"}, "geometry": {"type": "Point", "coordinates": [-5.026004, 54.905311]}},
{"type": "Feature", "id": "YNNiQzI64jfM1IZdz_8hmfaBkf8=", "properties": {"ref": "3970", "@spider": "belhaven_pubs", "amenity": "pub", "addr:full": "20 East Vennel, Alloa, FK10 1ED", "addr:postcode": "FK10 1ED", "addr:country": "GB", "name": "Old Brewery", "phone": "01259 722722", "website": "https://www.belhavenpubs.co.uk/pubs/clackmannanshire/old-brewery/", "contact:email": "3970@greeneking.co.uk", "opening_hours": "Mo-Th 12:00-23:00; Fr 12:00-01:00; Sa 12:00-02:00; Su 12:00-23:00", "image": "https://www.belhavenpubs.co.uk/q/i/3970/", "brand": "Belhaven Pubs", "brand:wikidata": "Q105516156", "nsi_id": "belhavenpubs-eaed91"}, "geometry": {"type": "Point", "coordinates": [-3.789894, 56.114709]}},
{"type": "Feature", "id": "0Uvok1FDp1OzNZfJBvkTyIknTP4=", "properties": {"ref": "3832", "@spider": "belhaven_pubs", "amenity": "pub", "addr:full": "23a Burns Statue Square, Ayr, KA7 1SU", "addr:postcode": "KA7 1SU", "addr:country": "GB", "name": "Rabbies", "phone": "01292 262112", "website": "https://www.belhavenpubs.co.uk/pubs/ayrshire/rabbies/", "contact:email": "3832@greeneking.co.uk", "opening_hours": "Mo-Th 10:00-23:00; Fr-Sa 10:00-24:00; Su 10:00-23:00", "image": "https://www.belhavenpubs.co.uk/q/i/3832/", "brand": "Belhaven Pubs", "brand:wikidata": "Q105516156", "nsi_id": "belhavenpubs-eaed91"}, "geometry": {"type": "Point", "coordinates": [-4.628505, 55.458452]}},
{"type": "Feature", "id": "4qOXRa31lubz6ylcwXqeXBduBYw=", "properties": {"ref": "3793", "@spider": "belhaven_pubs", "amenity": "pub", "addr:full": "80 Main Street, Largs, KA30 8AL", "addr:postcode": "KA30 8AL", "addr:country": "GB", "name": "Drouthy Neebors", "phone": "01475 676089", "website": "https://www.belhavenpubs.co.uk/pubs/ayrshire/drouthy-neebors/", "contact:email": "3793@greeneking.co.uk", "opening_hours": "Mo-Th 11:00-24:00; Fr-Sa 11:00-01:00; Su 11:00-24:00", "image": "https://www.belhavenpubs.co.uk/q/i/3793/", "brand": "Belhaven Pubs", "brand:wikidata": "Q105516156", "nsi_id": "belhavenpubs-eaed91"}, "geometry": {"type": "Point", "coordinates": [-4.868085, 55.79354]}},
{"type": "Feature", "id": "mB8Q_y8phDEclavRxjKaSBZTv6U=", "properties": {"ref": "3808", "@spider": "belhaven_pubs", "amenity": "pub", "addr:full": "56 Smith Street, Ayr, KA7 1TF", "addr:postcode": "KA7 1TF", "addr:country": "GB", "name": "Drouthy Neebors", "phone": "01292 266076", "website": "https://www.belhavenpubs.co.uk/pubs/ayrshire/drouthy-neebors-ayr/", "contact:email": "3808@greeneking.co.uk", "opening_hours": "Mo-Th 11:00-23:00; Fr-Sa 11:00-01:00; Su 11:00-23:00", "image": "https://www.belhavenpubs.co.uk/q/i/3808/", "brand": "Belhaven Pubs", "brand:wikidata": "Q105516156", "nsi_id": "belhavenpubs-eaed91"}, "geometry": {"type": "Point", "coordinates": [-4.627505, 55.458151]}},
{"type": "Feature", "id": "cUDqVbAB9X1zYdwvNcWk861oEAY=", "properties": {"ref": "4380", "@spider": "belhaven_pubs", "amenity": "pub", "addr:full": "40 Nethergate, Dundee, DD1 4ET", "addr:postcode": "DD1 4ET", "addr:country": "GB", "name": "Trades House", "phone": "01382 229 494", "website": "https://www.belhavenpubs.co.uk/pubs/angus/trades-house/", "contact:email": "4380@greeneking.co.uk", "opening_hours": "Mo-Th 10:00-12:00; Fr-Sa 10:00-01:00; Su 10:00-12:00", "image": "https://www.belhavenpubs.co.uk/q/i/4380/", "brand": "Belhaven Pubs", "brand:wikidata": "Q105516156", "nsi_id": "belhavenpubs-eaed91"}, "geometry": {"type": "Point", "coordinates": [-2.971457, 56.459375]}},
{"type": "Feature", "id": "IOn7-BW8XCwSbGVcBuuAsK-2330=", "properties": {"ref": "3725", "@spider": "belhaven_pubs", "amenity": "pub", "addr:full": "112-114 High Street, Irvine, KA12 8AH", "addr:postcode": "KA12 8AH", "addr:country": "GB", "name": "Carrick", "phone": "01294 313378", "website": "https://www.belhavenpubs.co.uk/pubs/ayrshire/carrick/", "contact:email": "3725@greeneking.co.uk", "opening_hours": "Mo-Th 10:00-23:00; Fr-Sa 10:00-24:00; Su 10:00-23:00", "image": "https://www.belhavenpubs.co.uk/q/i/3725/", "brand": "Belhaven Pubs", "brand:wikidata": "Q105516156", "nsi_id": "belhavenpubs-eaed91"}, "geometry": {"type": "Point", "coordinates": [-4.6672, 55.614953]}},
{"type": "Feature", "id": "G08BkngAiljiJj8S5Nolvz3TfJg=", "properties": {"ref": "4382", "@spider": "belhaven_pubs", "amenity": "pub", "addr:full": "12 Hume Street, Montrose, DD10 8JD", "addr:postcode": "DD10 8JD", "addr:country": "GB", "name": "Picture House", "phone": "01674 676991", "website": "https://www.belhavenpubs.co.uk/pubs/angus/picture-house/", "contact:email": "4382@greeneking.co.uk", "opening_hours": "Mo-Th 11:00-23:00; Fr-Sa 11:00-01:00; Su 11:00-23:00", "image": "https://www.belhavenpubs.co.uk/q/i/4382/", "brand": "Belhaven Pubs", "brand:wikidata": "Q105516156", "nsi_id": "belhavenpubs-eaed91"}, "geometry": {"type": "Point", "coordinates": [-2.469182, 56.711487]}},
{"type": "Feature", "id": "sPZEimOHsYs2dmdO47PHNOeWUkM=", "properties": {"ref": "3825", "@spider": "belhaven_pubs", "amenity": "pub", "addr:full": "218 Queen Street, Broughty Ferry, DD5 2HG", "addr:postcode": "DD5 2HG", "addr:country": "GB", "name": "Post Office Bar", "phone": "01382 736444", "website": "https://www.belhavenpubs.co.uk/pubs/angus/post-office-bar/", "contact:email": "3825@greeneking.co.uk", "opening_hours": "Mo-Su 11:00-23:00", "image": "https://www.belhavenpubs.co.uk/q/i/3825/", "brand": "Belhaven Pubs", "brand:wikidata": "Q105516156", "nsi_id": "belhavenpubs-eaed91"}, "geometry": {"type": "Point", "coordinates": [-2.875821, 56.468215]}},
{"type": "Feature", "id": "VC6OS5bpA15_exysnSCt3ev2aN0=", "properties": {"ref": "3963", "@spider": "belhaven_pubs", "amenity": "pub", "addr:full": "34 Reform Street, Dundee, DD1 1RH", "addr:postcode": "DD1 1RH", "addr:country": "GB", "name": "Old Bank Bar", "phone": "01382 226552", "website": "https://www.belhavenpubs.co.uk/pubs/angus/old-bank-bar/", "contact:email": "3963@greeneking.co.uk", "opening_hours": "Mo-Su 11:00-24:00", "image": "https://www.belhavenpubs.co.uk/q/i/3963/", "brand": "Belhaven Pubs", "brand:wikidata": "Q105516156", "nsi_id": "belhavenpubs-eaed91"}, "geometry": {"type": "Point", "coordinates": [-2.971263, 56.461294]}},
{"type": "Feature", "id": "8R7jgvTq6I8Jd0xRrvp0EZaysyQ=", "properties": {"ref": "3749", "@spider": "belhaven_pubs", "amenity": "pub", "addr:full": "53 - 57 Westport, Dundee, DD1 5ER", "addr:postcode": "DD1 5ER", "addr:country": "GB", "name": "Molly Malones", "phone": "01382 224712", "website": "https://www.belhavenpubs.co.uk/pubs/angus/molly-malones/", "contact:email": "3749@greeneking.co.uk", "opening_hours": "Mo-Su 11:00-24:00", "image": "https://www.belhavenpubs.co.uk/q/i/3749/", "brand": "Belhaven Pubs", "brand:wikidata": "Q105516156", "nsi_id": "belhavenpubs-eaed91"}, "geometry": {"type": "Point", "coordinates": [-2.979677, 56.459606]}},
{"type": "Feature", "id": "O9zZMAZbi2uGabi9GMHagPa0n6w=", "properties": {"ref": "3994", "@spider": "belhaven_pubs", "amenity": "pub", "addr:full": "10 - 16 Fort Street, Broughty Ferry, Dundee, DD5 2AD", "addr:postcode": "DD5 2AD", "addr:country": "GB", "name": "Fisherman's Tavern", "phone": "01382 775941", "website": "https://www.belhavenpubs.co.uk/pubs/angus/fishermans-tavern/", "contact:email": "3994@greeneking.co.uk", "opening_hours": "Mo-Su 11:00-24:00", "image": "https://www.belhavenpubs.co.uk/q/i/3994/", "brand": "Belhaven Pubs", "brand:wikidata": "Q105516156", "nsi_id": "belhavenpubs-eaed91"}, "geometry": {"type": "Point", "coordinates": [-2.87689, 56.465433]}},
{"type": "Feature", "id": "tlTCZ65tZSBzo03gf6xIzkCdIqo=", "properties": {"ref": "1644", "@spider": "belhaven_pubs", "amenity": "pub", "addr:full": "19 Belmont Street, Aberdeen, AB10 1JR", "addr:postcode": "AB10 1JR", "addr:country": "GB", "name": "Wild Boar", "phone": "01224 625 357", "website": "https://www.belhavenpubs.co.uk/pubs/aberdeenshire/wild-boar/", "contact:email": "wildboar.aberdeen@belhavenpubs.net", "opening_hours": "Mo-Th 11:00-23:00; Fr-Sa 11:00-01:00; Su 11:00-23:00", "image": "https://www.belhavenpubs.co.uk/q/i/1644/", "brand": "Belhaven Pubs", "brand:wikidata": "Q105516156", "nsi_id": "belhavenpubs-eaed91"}, "geometry": {"type": "Point", "coordinates": [-2.101388, 57.146701]}},
{"type": "Feature", "id": "OJZFTEp9ZHxAG_979fLAJhXJDG8=", "properties": {"ref": "3995", "@spider": "belhaven_pubs", "amenity": "pub", "addr:full": "7 St Nicholas Lane, Aberdeen, AB10 1HF", "addr:postcode": "AB10 1HF", "addr:country": "GB", "name": "Prince of Wales", "phone": "01224 640597", "website": "https://www.belhavenpubs.co.uk/pubs/aberdeenshire/prince-of-wales/", "contact:email": "3995@greeneking.co.uk", "opening_hours": "Mo-Su 10:00-23:00", "image": "https://www.belhavenpubs.co.uk/q/i/3995/", "brand": "Belhaven Pubs", "brand:wikidata": "Q105516156", "nsi_id": "belhavenpubs-eaed91"}, "geometry": {"type": "Point", "coordinates": [-2.0983, 57.147026]}},
{"type": "Feature", "id": "2YaPZdTPtNLm7gmfrJk31qdjQao=", "properties": {"ref": "7745", "@spider": "belhaven_pubs", "amenity": "pub", "addr:full": "Little Belmont Street, Aberdeen, AB10 1JG", "addr:postcode": "AB10 1JG", "addr:country": "GB", "name": "Old School House", "phone": "01224 626 490", "website": "https://www.belhavenpubs.co.uk/pubs/aberdeenshire/old-school-house/", "contact:email": "7745@greeneking.co.uk", "opening_hours": "Mo-Th 11:00-23:00; Fr-Sa 11:00-01:00; Su 11:00-23:00", "image": "https://www.belhavenpubs.co.uk/q/i/7745/", "brand": "Belhaven Pubs", "brand:wikidata": "Q105516156", "nsi_id": "belhavenpubs-eaed91"}, "geometry": {"type": "Point", "coordinates": [-2.100902, 57.147004]}},
{"type": "Feature", "id": "JrmwuCVrHbfCuevxpmA5eomEM24=", "properties": {"ref": "3809", "@spider": "belhaven_pubs", "amenity": "pub", "addr:full": "52 Castlegate, Aberdeen, AB11 5BB", "addr:postcode": "AB11 5BB", "addr:country": "GB", "name": "Old Blackfriars", "phone": "01224 581922", "website": "https://www.belhavenpubs.co.uk/pubs/aberdeenshire/old-blackfriars/", "contact:email": "3809@greeneking.co.uk", "opening_hours": "Mo-Su 12:00-24:00", "image": "https://www.belhavenpubs.co.uk/q/i/3809/", "brand": "Belhaven Pubs", "brand:wikidata": "Q105516156", "nsi_id": "belhavenpubs-eaed91"}, "geometry": {"type": "Point", "coordinates": [-2.093252, 57.147819]}},
{"type": "Feature", "id": "3GkjXQ6ZADNBV5d59eLn3UyBhxU=", "properties": {"ref": "3806", "@spider": "belhaven_pubs", "amenity": "pub", "addr:full": "325 George Street, Aberdeen, AB25 1EE", "addr:postcode": "AB25 1EE", "addr:country": "GB", "name": "Northern Bar", "phone": "01224 636973", "website": "https://www.belhavenpubs.co.uk/pubs/aberdeenshire/northern-bar/", "contact:email": "3806@greeneking.co.uk", "opening_hours": "Mo-Su 11:00-24:00", "image": "https://www.belhavenpubs.co.uk/q/i/3806/", "brand": "Belhaven Pubs", "brand:wikidata": "Q105516156", "nsi_id": "belhavenpubs-eaed91"}, "geometry": {"type": "Point", "coordinates": [-2.104376, 57.152439]}},
{"type": "Feature", "id": "uAdkEGDlM-kVwMu5swIzD7o_uRQ=", "properties": {"ref": "3786", "@spider": "belhaven_pubs", "amenity": "pub", "addr:full": "Little Belmont Street, Aberdeen, AB10 1JG", "addr:postcode": "AB10 1JG", "addr:country": "GB", "name": "Ma Camerons", "phone": "01224 644487", "website": "https://www.belhavenpubs.co.uk/pubs/aberdeenshire/ma-camerons/", "contact:email": "3786@greeneking.co.uk", "opening_hours": "Mo-Su 11:00-24:00", "image": "https://www.belhavenpubs.co.uk/q/i/3786/", "brand": "Belhaven Pubs", "brand:wikidata": "Q105516156", "nsi_id": "belhavenpubs-eaed91"}, "geometry": {"type": "Point", "coordinates": [-2.100426, 57.147071]}},
{"type": "Feature", "id": "qhNrU8RC_8MPk8Y9YnpUvByCWWg=", "properties": {"ref": "3862", "@spider": "belhaven_pubs", "amenity": "pub", "addr:full": "224 Union Street, Aberdeen, AB10 1TL", "addr:postcode": "AB10 1TL", "addr:country": "GB", "name": "Molly Malones", "phone": "01224 624040", "website": "https://www.belhavenpubs.co.uk/pubs/aberdeenshire/molly-malones/", "contact:email": "3862@greeneking.co.uk", "opening_hours": "Mo-Th 11:00-24:00; Fr-Sa 11:00-01:00; Su 11:00-24:00", "image": "https://www.belhavenpubs.co.uk/q/i/3862/", "brand": "Belhaven Pubs", "brand:wikidata": "Q105516156", "nsi_id": "belhavenpubs-eaed91"}, "geometry": {"type": "Point", "coordinates": [-2.106387, 57.144609]}},
{"type": "Feature", "id": "XoWGj9B0Gk6_UqDUnPTfABuSBxY=", "properties": {"ref": "1639", "@spider": "belhaven_pubs", "amenity": "pub", "addr:full": "225 Holburn Street, Aberdeen, AB10 6BL", "addr:postcode": "AB10 6BL", "addr:country": "GB", "name": "Holburn Bar", "phone": "01224 211 941", "website": "https://www.belhavenpubs.co.uk/pubs/aberdeenshire/holburn-bar/", "contact:email": "1639@greeneking.co.uk", "opening_hours": "Mo-Fr 11:00-24:00; Sa-Su 10:00-24:00", "image": "https://www.belhavenpubs.co.uk/q/i/1639/", "brand": "Belhaven Pubs", "brand:wikidata": "Q105516156", "nsi_id": "belhavenpubs-eaed91"}, "geometry": {"type": "Point", "coordinates": [-2.114147, 57.137647]}}]}