{"type":"FeatureCollection","features":[{"type": "Feature", "id": "ilabSLRcVHu9Dp5UE6XTQCPalIE=", "properties": {"ref": "https://www.belk.com/store/?StoreID=339", "@spider": "belk", "shop": "department_store", "addr:street_address": "300 Colonial Promenade Parkway", "addr:city": "Alabaster", "addr:state": "AL", "addr:postcode": "35007-3112", "addr:country": "US", "name": "Alabaster AL", "phone": "+2056859034", "website": "https://www.belk.com/store/belk-alabaster-al/?StoreID=339", "brand": "Belk", "brand:wikidata": "Q127428", "nsi_id": "belk-592fe0"}, "geometry": {"type": "Point", "coordinates": [-86.8021363, 33.2327378]}},
{"type": "Feature", "id": "j0XCubyrwsTPGU8uTmyFzfjR2iA=", "properties": {"ref": "https://www.belk.com/store/?StoreID=228", "@spider": "belk", "shop": "department_store", "addr:street_address": "1020 Bichara Blvd,The Villages", "addr:city": "Lady Lake", "addr:state": "FL", "addr:postcode": "32159-7715", "addr:country": "US", "name": "Lady Lake FL", "phone": "+3527530227", "website": "https://www.belk.com/store/belk-lady-lake-fl/?StoreID=228", "brand": "Belk", "brand:wikidata": "Q127428", "nsi_id": "belk-592fe0"}, "geometry": {"type": "Point", "coordinates": [-81.946539, 28.937521]}},
{"type": "Feature", "id": "VS2EoxouW3Dtz_9eOJa7qFWABec=", "properties": {"ref": "https://www.belk.com/store/?StoreID=428", "@spider": "belk", "shop": "department_store", "addr:street_address": "11901 Atlantic Blvd Suite 100", "addr:city": "Jacksonville", "addr:state": "FL", "addr:postcode": "32225-2919", "addr:country": "US", "name": "Jacksonville FL - Atlantic", "phone": "+9047257744", "website": "https://www.belk.com/store/belk-jacksonville-fl--atlantic/?StoreID=428", "brand": "Belk", "brand:wikidata": "Q127428", "nsi_id": "belk-592fe0"}, "geometry": {"type": "Point", "coordinates": [-81.4952506, 30.3237325]}},
{"type": "Feature", "id": "OVv1uLrB_fwnkkKqbAyvjxC6b5s=", "properties": {"ref": "https://www.belk.com/store/?StoreID=141", "@spider": "belk", "shop": "department_store", "addr:street_address": "10310 Southside Blvd", "addr:city": "Jacksonville", "addr:state": "FL", "addr:postcode": "32256-0706", "addr:country": "US", "name": "Jacksonville FL - Avenues", "phone": "+9043631100", "website": "https://www.belk.com/store/belk-jacksonville-fl--aven/?StoreID=141", "brand": "Belk", "brand:wikidata": "Q127428", "nsi_id": "belk-592fe0"}, "geometry": {"type": "Point", "coordinates": [-81.553676, 30.182526]}},
{"type": "Feature", "id": "u3taqqBDw7X7-ueaCJB8YfRYsxk=", "properties": {"ref": "https://www.belk.com/store/?StoreID=490", "@spider": "belk", "shop": "department_store", "addr:street_address": "6323 West Newberry Road", "addr:city": "Gainesville", "addr:state": "FL", "addr:postcode": "32605-4339", "addr:country": "US", "name": "Gainesville FL", "phone": "+3523313535", "website": "https://www.belk.com/store/belk-gainesville-fl/?StoreID=490", "brand": "Belk", "brand:wikidata": "Q127428", "nsi_id": "belk-592fe0"}, "geometry": {"type": "Point", "coordinates": [-82.410056, 29.657489]}},
{"type": "Feature", "id": "9pqsuZK0IgUQYxGB6daDsGPeXgY=", "properties": {"ref": "https://www.belk.com/store/?StoreID=346", "@spider": "belk", "shop": "department_store", "addr:street_address": "10069 Gulf Center Drive", "addr:city": "Ft Myers", "addr:state": "FL", "addr:postcode": "33913-8963", "addr:country": "US", "name": "Ft Myers FL", "phone": "+2394151015", "website": "https://www.belk.com/store/belk-ft-myers-fl/?StoreID=346", "brand": "Belk", "brand:wikidata": "Q127428", "nsi_id": "belk-592fe0"}, "geometry": {"type": "Point", "coordinates": [-81.7887765, 26.4876573]}},
{"type": "Feature", "id": "T2PaB5Qgz-TGQJE0k6O4E7fYP0o=", "properties": {"ref": "https://www.belk.com/store/?StoreID=308", "@spider": "belk", "shop": "department_store", "addr:street_address": "4101 Legendary Way", "addr:city": "Destin", "addr:state": "FL", "addr:postcode": "32541-5393", "addr:country": "US", "name": "Destin FL", "phone": "+8506504091", "website": "https://www.belk.com/store/belk-destin-fl/?StoreID=308", "brand": "Belk", "brand:wikidata": "Q127428", "nsi_id": "belk-592fe0"}, "geometry": {"type": "Point", "coordinates": [-86.425994, 30.3923023]}},
{"type": "Feature", "id": "UZB6Wf_a6gGC6MHm3nbzChQ3R9Y=", "properties": {"ref": "https://www.belk.com/store/?StoreID=234", "@spider": "belk", "shop": "department_store", "addr:street_address": "2617 S Woodland Blvd", "addr:city": "Deland", "addr:state": "FL", "addr:postcode": "32720-8641", "addr:country": "US", "name": "Deland FL", "phone": "+3867850043", "website": "https://www.belk.com/store/belk-deland-fl/?StoreID=234", "brand": "Belk", "brand:wikidata": "Q127428", "nsi_id": "belk-592fe0"}, "geometry": {"type": "Point", "coordinates": [-81.297031, 28.982794]}},
{"type": "Feature", "id": "WgcD451GlyHEPKjlwvTao1MRfjI=", "properties": {"ref": "https://www.belk.com/store/?StoreID=345", "@spider": "belk", "shop": "department_store", "addr:street_address": "270 Citrus Tower Blvd", "addr:city": "Clermont", "addr:state": "FL", "addr:postcode": "34711-2790", "addr:country": "US", "name": "Clermont FL", "phone": "+3522432227", "website": "https://www.belk.com/store/belk-clermont-fl/?StoreID=345", "brand": "Belk", "brand:wikidata": "Q127428", "nsi_id": "belk-592fe0"}, "geometry": {"type": "Point", "coordinates": [-81.7413523, 28.5670864]}},
{"type": "Feature", "id": "seVHlL9RwsG6B5Wbh0PlWwiypo0=", "properties": {"ref": "https://www.belk.com/store/?StoreID=388", "@spider": "belk", "shop": "department_store", "addr:street_address": "2342 Surfside Boulevard", "addr:city": "Cape Coral", "addr:state": "FL", "addr:postcode": "33991-3171", "addr:country": "US", "name": "Cape Coral FL", "phone": "+2392825692", "website": "https://www.belk.com/store/belk-cape-coral-fl/?StoreID=388", "brand": "Belk", "brand:wikidata": "Q127428", "nsi_id": "belk-592fe0"}, "geometry": {"type": "Point", "coordinates": [-82.024454, 26.609237]}},
{"type": "Feature", "id": "py1xPS1JvnWNNB-rQKnj2VXKaUo=", "properties": {"ref": "https://www.belk.com/store/?StoreID=121", "@spider": "belk", "shop": "department_store", "addr:street_address": "13151 Cortez Blvd", "addr:city": "Brooksville", "addr:state": "FL", "addr:postcode": "34613-7803", "addr:country": "US", "name": "Spring Hill FL", "phone": "+3525921515", "website": "https://www.belk.com/store/belk-spring-hill-fl/?StoreID=121", "brand": "Belk", "brand:wikidata": "Q127428", "nsi_id": "belk-592fe0"}, "geometry": {"type": "Point", "coordinates": [-82.508731, 28.53582]}},
{"type": "Feature", "id": "kWckHKUEqpBHiJjdeZ7RGwj-t20=", "properties": {"ref": "https://www.belk.com/store/?StoreID=558", "@spider": "belk", "shop": "department_store", "addr:street_address": "2110 S Buerkle Street", "addr:city": "Stuttgart", "addr:state": "AR", "addr:postcode": "72160-6510", "addr:country": "US", "name": "Stuttgart AR", "phone": "+8706732544", "website": "https://www.belk.com/store/belk-stuttgart-ar/?StoreID=558", "brand": "Belk", "brand:wikidata": "Q127428", "nsi_id": "belk-592fe0"}, "geometry": {"type": "Point", "coordinates": [-91.559268, 34.480164]}},
{"type": "Feature", "id": "8kNXpYBRbFNl-AgNHbb1EHF5aIs=", "properties": {"ref": "https://www.belk.com/store/?StoreID=359", "@spider": "belk", "shop": "department_store", "addr:street_address": "Valley Park Center 3093 East Main Street, Suite B", "addr:city": "Russellville", "addr:state": "AR", "addr:postcode": "72802-9643", "addr:country": "US", "name": "Russellville AR", "phone": "+4799679082", "website": "https://www.belk.com/store/belk-russellville-ar/?StoreID=359", "brand": "Belk", "brand:wikidata": "Q127428", "nsi_id": "belk-592fe0"}, "geometry": {"type": "Point", "coordinates": [-93.094811, 35.28065]}},
{"type": "Feature", "id": "4RNMra_Eqqw_-VTcXVcxB7MDa0c=", "properties": {"ref": "https://www.belk.com/store/?StoreID=285", "@spider": "belk", "shop": "department_store", "addr:street_address": "503 North 46th Street", "addr:city": "Rogers", "addr:state": "AR", "addr:postcode": "72756-1828", "addr:country": "US", "name": "Rogers AR", "phone": "+4796210700", "website": "https://www.belk.com/store/belk-rogers-ar/?StoreID=285", "brand": "Belk", "brand:wikidata": "Q127428", "nsi_id": "belk-592fe0"}, "geometry": {"type": "Point", "coordinates": [-94.176522, 36.339137]}},
{"type": "Feature", "id": "qQ1BLMON8KcqxHFTC6l_tiP3UKQ=", "properties": {"ref": "https://www.belk.com/store/?StoreID=199", "@spider": "belk", "shop": "department_store", "addr:street_address": "2415 West Kings Hwy", "addr:city": "Paragould", "addr:state": "AR", "addr:postcode": "72450-3902", "addr:country": "US", "name": "Paragould AR", "phone": "+8702362126", "website": "https://www.belk.com/store/belk-paragould-ar/?StoreID=199", "brand": "Belk", "brand:wikidata": "Q127428", "nsi_id": "belk-592fe0"}, "geometry": {"type": "Point", "coordinates": [-90.517775, 36.06172]}},
{"type": "Feature", "id": "Ck0fyWM1j6o4sN8k0PT7KUM2--I=", "properties": {"ref": "https://www.belk.com/store/?StoreID=633", "@spider": "belk", "shop": "department_store", "addr:street_address": "11525 Cantrell Road, Suite 500", "addr:city": "Little Rock", "addr:state": "AR", "addr:postcode": "72212-1709", "addr:country": "US", "name": "Little Rock AR", "phone": "+5019076200", "website": "https://www.belk.com/store/belk-little-rock-ar/?StoreID=633", "brand": "Belk", "brand:wikidata": "Q127428", "nsi_id": "belk-592fe0"}, "geometry": {"type": "Point", "coordinates": [-92.4025592, 34.7922416]}},
{"type": "Feature", "id": "xE1rj6wgT0UyNJ9XQFbWwQrUliE=", "properties": {"ref": "https://www.belk.com/store/?StoreID=698", "@spider": "belk", "shop": "department_store", "addr:street_address": "300 Grand Central Mall", "addr:city": "Parkersburg", "addr:state": "WV", "addr:postcode": "26101-4110", "addr:country": "US", "name": "Parkersburg WV", "phone": "+3044220062", "website": "https://www.belk.com/store/belk-parkersburg-wv/?StoreID=698", "brand": "Belk", "brand:wikidata": "Q127428", "nsi_id": "belk-592fe0"}, "geometry": {"type": "Point", "coordinates": [-81.551785, 39.301061]}},
{"type": "Feature", "id": "EqC8UpBH2kaDux3jFa5K1IJfQ2w=", "properties": {"ref": "https://www.belk.com/store/?StoreID=498", "@spider": "belk", "shop": "department_store", "addr:street_address": "110 Crossroads Mall", "addr:city": "Mount Hope", "addr:state": "WV", "addr:postcode": "25880-9668", "addr:country": "US", "name": "Beckley WV", "phone": "+3042555600", "website": "https://www.belk.com/store/belk-beckley-wv/?StoreID=498", "brand": "Belk", "brand:wikidata": "Q127428", "nsi_id": "belk-592fe0"}, "geometry": {"type": "Point", "coordinates": [-81.196965, 37.844863]}},
{"type": "Feature", "id": "w1CI6KKkK_hl7B2h4ACgGKNALcA=", "properties": {"ref": "https://www.belk.com/store/?StoreID=408", "@spider": "belk", "shop": "department_store", "addr:street_address": "261 Mercer Mall Rd. Ste 3/Rt 19 and 460, Ste. 3", "addr:city": "Bluefield", "addr:state": "WV", "addr:postcode": "24701-5405", "addr:country": "US", "name": "Bluefield WV", "phone": "+3043270561", "website": "https://www.belk.com/store/belk-bluefield-wv/?StoreID=408", "brand": "Belk", "brand:wikidata": "Q127428", "nsi_id": "belk-592fe0"}, "geometry": {"type": "Point", "coordinates": [-81.169422, 37.298098]}},
{"type": "Feature", "id": "M2NYrGGGtv7URpCQAeHM0SNZ9NY=", "properties": {"ref": "https://www.belk.com/store/?StoreID=561", "@spider": "belk", "shop": "department_store", "addr:street_address": "75 Ridgeview Rd SW", "addr:city": "Wise", "addr:state": "VA", "addr:postcode": "24293-5622", "addr:country": "US", "name": "Wise VA", "phone": "+2766792100", "website": "https://www.belk.com/store/belk-wise-va/?StoreID=561", "brand": "Belk", "brand:wikidata": "Q127428", "nsi_id": "belk-592fe0"}, "geometry": {"type": "Point", "coordinates": [-82.600207, 36.966201]}},
{"type": "Feature", "id": "188_99qvo4Ijh_hgfzg4AwhnLjs=", "properties": {"ref": "https://www.belk.com/store/?StoreID=187", "@spider": "belk", "shop": "department_store", "addr:street_address": "1850 Apple Blossom Drive", "addr:city": "Winchester", "addr:state": "VA", "addr:postcode": "22601-5162", "addr:country": "US", "name": "Winchester VA", "phone": "+5406672200", "website": "https://www.belk.com/store/belk-winchester-va/?StoreID=187", "brand": "Belk", "brand:wikidata": "Q127428", "nsi_id": "belk-592fe0"}, "geometry": {"type": "Point", "coordinates": [-78.165708, 39.159456]}},
{"type": "Feature", "id": "LldZcsTXnTE5K0PJ9Q9c6ICfKB4=", "properties": {"ref": "https://www.belk.com/store/?StoreID=321", "@spider": "belk", "shop": "department_store", "addr:street_address": "4900-3 Monticello Avenue", "addr:city": "Williamsburg", "addr:state": "VA", "addr:postcode": "23188-8222", "addr:country": "US", "name": "Williamsburg VA", "phone": "+7572209143", "website": "https://www.belk.com/store/belk-williamsburg-va/?StoreID=321", "brand": "Belk", "brand:wikidata": "Q127428", "nsi_id": "belk-592fe0"}, "geometry": {"type": "Point", "coordinates": [-76.755316, 37.274146]}},
{"type": "Feature", "id": "ha2pKoa66O85p-vygzC0Z0YRh2M=", "properties": {"ref": "https://www.belk.com/store/?StoreID=110", "@spider": "belk", "shop": "department_store", "addr:street_address": "1403 N. Main Street", "addr:city": "Suffolk", "addr:state": "VA", "addr:postcode": "23434-4352", "addr:country": "US", "name": "Suffolk VA", "phone": "+7575390477", "website": "https://www.belk.com/store/belk-suffolk-va/?StoreID=110", "brand": "Belk", "brand:wikidata": "Q127428", "nsi_id": "belk-592fe0"}, "geometry": {"type": "Point", "coordinates": [-76.585501, 36.748672]}},
{"type": "Feature", "id": "qcKNSN5siigkPqffTtVbjxUz7jA=", "properties": {"ref": "https://www.belk.com/store/?StoreID=531", "@spider": "belk", "shop": "department_store", "addr:street_address": "90 Lee Jackson Hwy Ste 100", "addr:city": "Staunton", "addr:state": "VA", "addr:postcode": "24401-5584", "addr:country": "US", "name": "Staunton VA", "phone": "+5408866211", "website": "https://www.belk.com/store/belk-staunton-va/?StoreID=531", "brand": "Belk", "brand:wikidata": "Q127428", "nsi_id": "belk-592fe0"}, "geometry": {"type": "Point", "coordinates": [-79.063393, 38.126037]}},
{"type": "Feature", "id": "sHP9bCYT3p3ym2ESIRZ7qmW6Cl0=", "properties": {"ref": "https://www.belk.com/store/?StoreID=48", "@spider": "belk", "shop": "department_store", "addr:street_address": "2219 Wilborn Avenue", "addr:city": "South Boston", "addr:state": "VA", "addr:postcode": "24592-1629", "addr:country": "US", "name": "South Boston VA", "phone": "+4345722975", "website": "https://www.belk.com/store/belk-south-boston-va/?StoreID=48", "brand": "Belk", "brand:wikidata": "Q127428", "nsi_id": "belk-592fe0"}, "geometry": {"type": "Point", "coordinates": [-78.911662, 36.71423]}},
{"type": "Feature", "id": "J5XHkzXzC5lXGfwJYJ7U7Uz1yxg=", "properties": {"ref": "https://www.belk.com/store/?StoreID=517", "@spider": "belk", "shop": "department_store", "addr:street_address": "4811 Valley View Blvd.", "addr:city": "Roanoke", "addr:state": "VA", "addr:postcode": "24012-2018", "addr:country": "US", "name": "Roanoke VA - Valley View", "phone": "+5403661900", "website": "https://www.belk.com/store/belk-roanoke-va--valley-view/?StoreID=517", "brand": "Belk", "brand:wikidata": "Q127428", "nsi_id": "belk-592fe0"}, "geometry": {"type": "Point", "coordinates": [-79.963899, 37.303159]}},
{"type": "Feature", "id": "ObyX30pjFYhtwlL6_Ph42Gig2dM=", "properties": {"ref": "https://www.belk.com/store/?StoreID=362", "@spider": "belk", "shop": "department_store", "addr:street_address": "2040 North Perkins Road", "addr:city": "Stillwater", "addr:state": "OK", "addr:postcode": "74075-3080", "addr:country": "US", "name": "Stillwater OK", "phone": "+4055331301", "website": "https://www.belk.com/store/belk-roanoke-va/?StoreID=362", "brand": "Belk", "brand:wikidata": "Q127428", "nsi_id": "belk-592fe0"}, "geometry": {"type": "Point", "coordinates": [-97.054087, 36.142307]}},
{"type": "Feature", "id": "ZeKz7-3pzhEPdbITqDXcVswBkvo=", "properties": {"ref": "https://www.belk.com/store/?StoreID=544", "@spider": "belk", "shop": "department_store", "addr:street_address": "240 Commonwealth Blvd", "addr:city": "Martinsville", "addr:state": "VA", "addr:postcode": "24112-1800", "addr:country": "US", "name": "Martinsville VA", "phone": "+2766382471", "website": "https://www.belk.com/store/belk-martinsville-va/?StoreID=544", "brand": "Belk", "brand:wikidata": "Q127428", "nsi_id": "belk-592fe0"}, "geometry": {"type": "Point", "coordinates": [-79.879382, 36.698322]}},
{"type": "Feature", "id": "mTfDerKSXMlW45x4EcLwFiI8N5U=", "properties": {"ref": "https://www.belk.com/store/?StoreID=322", "@spider": "belk", "shop": "department_store", "addr:street_address": "3415 Candlers Mtn Road", "addr:city": "Lynchburg", "addr:state": "VA", "addr:postcode": "24502-2221", "addr:country": "US", "name": "Lynchburg VA", "phone": "+4342376611", "website": "https://www.belk.com/store/belk-lynchburg-va/?StoreID=322", "brand": "Belk", "brand:wikidata": "Q127428", "nsi_id": "belk-592fe0"}, "geometry": {"type": "Point", "coordinates": [-79.179286, 37.365725]}},
{"type": "Feature", "id": "98PfIXYbhdrrR65RZn76nUGsjbc=", "properties": {"ref": "https://www.belk.com/store/?StoreID=353", "@spider": "belk", "shop": "department_store", "addr:street_address": "1925 East Market Street", "addr:city": "Harrisonburg", "addr:state": "VA", "addr:postcode": "22801-3432", "addr:country": "US", "name": "Harrisonburg VA", "phone": "+5404344477", "website": "https://www.belk.com/store/belk-harrisonburg-va/?StoreID=353", "brand": "Belk", "brand:wikidata": "Q127428", "nsi_id": "belk-592fe0"}, "geometry": {"type": "Point", "coordinates": [-78.842748, 38.427723]}},
{"type": "Feature", "id": "25Z9s3qqGc5b0HFVsIZ8L2Q0OFw=", "properties": {"ref": "https://www.belk.com/store/?StoreID=347", "@spider": "belk", "shop": "department_store", "addr:street_address": "Route 3 500 Spotsylvania Mall", "addr:city": "Fredericksburg", "addr:state": "VA", "addr:postcode": "22401-1122", "addr:country": "US", "name": "Fredericksburg VA", "phone": "+5407867100", "website": "https://www.belk.com/store/belk-fredericksburg-va/?StoreID=347", "brand": "Belk", "brand:wikidata": "Q127428", "nsi_id": "belk-592fe0"}, "geometry": {"type": "Point", "coordinates": [-77.513917, 38.292235]}},
{"type": "Feature", "id": "YKOW8nvvSljJkuxQ9OJEbr8cWvc=", "properties": {"ref": "https://www.belk.com/store/?StoreID=537", "@spider": "belk", "shop": "department_store", "addr:street_address": "1354 Armory Drive", "addr:city": "Franklin", "addr:state": "VA", "addr:postcode": "23851-2421", "addr:country": "US", "name": "Franklin VA", "phone": "+7575624141", "website": "https://www.belk.com/store/belk-franklin-va/?StoreID=537", "brand": "Belk", "brand:wikidata": "Q127428", "nsi_id": "belk-592fe0"}, "geometry": {"type": "Point", "coordinates": [-76.9490012, 36.6712157]}},
{"type": "Feature", "id": "fL1jv1wgQb78beOhgHLkz9r6Bns=", "properties": {"ref": "https://www.belk.com/store/?StoreID=530", "@spider": "belk", "shop": "department_store", "addr:street_address": "1506 S. Main Street", "addr:city": "Farmville", "addr:state": "VA", "addr:postcode": "23901-4514", "addr:country": "US", "name": "Farmville VA", "phone": "+4343928843", "website": "https://www.belk.com/store/belk-farmville-va/?StoreID=530", "brand": "Belk", "brand:wikidata": "Q127428", "nsi_id": "belk-592fe0"}, "geometry": {"type": "Point", "coordinates": [-78.394148, 37.283772]}},
{"type": "Feature", "id": "twjoFdcv0D36JRFOYbrDFmtgx48=", "properties": {"ref": "https://www.belk.com/store/?StoreID=24", "@spider": "belk", "shop": "department_store", "addr:street_address": "325 Piedmont Drive", "addr:city": "Danville", "addr:state": "VA", "addr:postcode": "24540-4028", "addr:country": "US", "name": "Danville VA", "phone": "+4347926211", "website": "https://www.belk.com/store/belk-danville-va/?StoreID=24", "brand": "Belk", "brand:wikidata": "Q127428", "nsi_id": "belk-592fe0"}, "geometry": {"type": "Point", "coordinates": [-79.419984, 36.593885]}},
{"type": "Feature", "id": "w8lWoTUuGhCduoyIG5MpG0O6KMo=", "properties": {"ref": "https://www.belk.com/store/?StoreID=540", "@spider": "belk", "shop": "department_store", "addr:street_address": "650 New River Valley Mall", "addr:city": "Christiansburg", "addr:state": "VA", "addr:postcode": "24073-6500", "addr:country": "US", "name": "Christiansburg VA", "phone": "+5403822931", "website": "https://www.belk.com/store/belk-christiansburg-va/?StoreID=540", "brand": "Belk", "brand:wikidata": "Q127428", "nsi_id": "belk-592fe0"}, "geometry": {"type": "Point", "coordinates": [-80.426242, 37.165917]}},
{"type": "Feature", "id": "faR4uAcjvcsJv24LDaM5FSGSswI=", "properties": {"ref": "https://www.belk.com/store/?StoreID=506", "@spider": "belk", "shop": "department_store", "addr:street_address": "19 Claypool Hill Mall", "addr:city": "Cedar Bluff", "addr:state": "VA", "addr:postcode": "24609-9453", "addr:country": "US", "name": "Richlands VA", "phone": "+2769649124", "website": "https://www.belk.com/store/belk-richlands-va/?StoreID=506", "brand": "Belk", "brand:wikidata": "Q127428", "nsi_id": "belk-592fe0"}, "geometry": {"type": "Point", "coordinates": [-81.7584471, 37.0673552]}},
{"type": "Feature", "id": "qkvVJ4BZ3E_WahxRAdXLUkGPZSw=", "properties": {"ref": "https://www.belk.com/store/?StoreID=385", "@spider": "belk", "shop": "department_store", "addr:street_address": "205 Adams Drive", "addr:city": "Weatherford", "addr:state": "TX", "addr:postcode": "76086-6700", "addr:country": "US", "name": "Weatherford TX", "phone": "+8175942295", "website": "https://www.belk.com/store/belk-weatherford-tx/?StoreID=385", "brand": "Belk", "brand:wikidata": "Q127428", "nsi_id": "belk-592fe0"}, "geometry": {"type": "Point", "coordinates": [-97.789392, 32.73352]}},
{"type": "Feature", "id": "3G8cwm0n0C_3tJCBIUpg8DWjRnE=", "properties": {"ref": "https://www.belk.com/store/?StoreID=491", "@spider": "belk", "shop": "department_store", "addr:street_address": "1581 East Rio Road", "addr:city": "Charlottesville", "addr:state": "VA", "addr:postcode": "22901-1402", "addr:country": "US", "name": "Charlottesville VA", "phone": "+4349737878", "website": "https://www.belk.com/store/belk-charlottesville-va/?StoreID=491", "brand": "Belk", "brand:wikidata": "Q127428", "nsi_id": "belk-592fe0"}, "geometry": {"type": "Point", "coordinates": [-78.474123, 38.076453]}},
{"type": "Feature", "id": "-t5vunVM7gpHXuD5VFxho9-L5vA=", "properties": {"ref": "https://www.belk.com/store/?StoreID=341", "@spider": "belk", "shop": "department_store", "addr:street_address": "1540 Hwy 77N", "addr:city": "Waxahachie", "addr:state": "TX", "addr:postcode": "75165-5205", "addr:country": "US", "name": "Waxahachie TX", "phone": "+9729370347", "website": "https://www.belk.com/store/belk-waxahachie-tx/?StoreID=341", "brand": "Belk", "brand:wikidata": "Q127428", "nsi_id": "belk-592fe0"}, "geometry": {"type": "Point", "coordinates": [-96.837562, 32.425254]}},
{"type": "Feature", "id": "cD6Oz4aZGt6T8UYtjtZ_sM6SP8A=", "properties": {"ref": "https://www.belk.com/store/?StoreID=327", "@spider": "belk", "shop": "department_store", "addr:street_address": "3606 Town Center Street", "addr:city": "Sherman", "addr:state": "TX", "addr:postcode": "75092-2570", "addr:country": "US", "name": "Sherman TX", "phone": "+9038937051", "website": "https://www.belk.com/store/belk-sherman-tx/?StoreID=327", "brand": "Belk", "brand:wikidata": "Q127428", "nsi_id": "belk-592fe0"}, "geometry": {"type": "Point", "coordinates": [-96.612855, 33.677273]}},
{"type": "Feature", "id": "xYFM6Na33HxksqymOhqpVB0xVZA=", "properties": {"ref": "https://www.belk.com/store/?StoreID=296", "@spider": "belk", "shop": "department_store", "addr:street_address": "2700 West Loop 340", "addr:city": "Waco", "addr:state": "TX", "addr:postcode": "76711-2408", "addr:country": "US", "name": "Waco TX", "phone": "+2546621168", "website": "https://www.belk.com/store/belk-waco-tx/?StoreID=296", "brand": "Belk", "brand:wikidata": "Q127428", "nsi_id": "belk-592fe0"}, "geometry": {"type": "Point", "coordinates": [-97.154598, 31.497646]}},
{"type": "Feature", "id": "YnsixnwueQUvxhitxaxfA1IHrUc=", "properties": {"ref": "https://www.belk.com/store/?StoreID=377", "@spider": "belk", "shop": "department_store", "addr:street_address": "1027 East I-30 Service Road", "addr:city": "Rockwall", "addr:state": "TX", "addr:postcode": "75087-4826", "addr:country": "US", "name": "Rockwall TX", "phone": "+9727226175", "website": "https://www.belk.com/store/belk-rockwall-tx/?StoreID=377", "brand": "Belk", "brand:wikidata": "Q127428", "nsi_id": "belk-592fe0"}, "geometry": {"type": "Point", "coordinates": [-96.449075, 32.904224]}},
{"type": "Feature", "id": "MOpNNHCo-3WFzRKjw6-uNgkaPeI=", "properties": {"ref": "https://www.belk.com/store/?StoreID=320", "@spider": "belk", "shop": "department_store", "addr:street_address": "3510 Lamar Avenue Ste. 840", "addr:city": "Paris", "addr:state": "TX", "addr:postcode": "75460-5026", "addr:country": "US", "name": "Paris TX", "phone": "+9037844343", "website": "https://www.belk.com/store/belk-paris-tx/?StoreID=320", "brand": "Belk", "brand:wikidata": "Q127428", "nsi_id": "belk-592fe0"}, "geometry": {"type": "Point", "coordinates": [-95.510049, 33.657848]}},
{"type": "Feature", "id": "KE6ekzo4evA3WepP3YuSX3XVC2E=", "properties": {"ref": "https://www.belk.com/store/?StoreID=415", "@spider": "belk", "shop": "department_store", "addr:street_address": "240 Creekside Way", "addr:city": "New Braunfels", "addr:state": "TX", "addr:postcode": "78130-6389", "addr:country": "US", "name": "New Braunfels TX", "phone": "+8306209043", "website": "https://www.belk.com/store/belk-new-braunfels-tx/?StoreID=415", "brand": "Belk", "brand:wikidata": "Q127428", "nsi_id": "belk-592fe0"}, "geometry": {"type": "Point", "coordinates": [-98.0723333, 29.7266741]}},
{"type": "Feature", "id": "TZdjPF3nYzm2HtsSW6IK1Gi4lzA=", "properties": {"ref": "https://www.belk.com/store/?StoreID=255", "@spider": "belk", "shop": "department_store", "addr:street_address": "1122 N. University Drive", "addr:city": "Nacogdoches", "addr:state": "TX", "addr:postcode": "75961-4210", "addr:country": "US", "name": "Nacogdoches TX", "phone": "+9367159390", "website": "https://www.belk.com/store/belk-nacogdoches-tx/?StoreID=255", "brand": "Belk", "brand:wikidata": "Q127428", "nsi_id": "belk-592fe0"}, "geometry": {"type": "Point", "coordinates": [-94.637054, 31.613983]}},
{"type": "Feature", "id": "KYW05aSUn9AfY1rjJsP0WsKF9pc=", "properties": {"ref": "https://www.belk.com/store/?StoreID=336", "@spider": "belk", "shop": "department_store", "addr:street_address": "2750 S Central Expressway", "addr:city": "Mckinney", "addr:state": "TX", "addr:postcode": "75070-2779", "addr:country": "US", "name": "Mckinney TX", "phone": "+9725474310", "website": "https://www.belk.com/store/belk-mckinney-tx/?StoreID=336", "brand": "Belk", "brand:wikidata": "Q127428", "nsi_id": "belk-592fe0"}, "geometry": {"type": "Point", "coordinates": [-96.642715, 33.175269]}},
{"type": "Feature", "id": "U9pozJMen00TWoanEi-kienF5qw=", "properties": {"ref": "https://www.belk.com/store/?StoreID=478", "@spider": "belk", "shop": "department_store", "addr:street_address": "1683 East Broad Street", "addr:city": "Mansfield", "addr:state": "TX", "addr:postcode": "76063-4843", "addr:country": "US", "name": "Mansfield TX", "phone": "+8175393816", "website": "https://www.belk.com/store/belk-mansfield-tx/?StoreID=478", "brand": "Belk", "brand:wikidata": "Q127428", "nsi_id": "belk-592fe0"}, "geometry": {"type": "Point", "coordinates": [-97.11561, 32.56877]}},
{"type": "Feature", "id": "FbdGiNiFJQPmVSX959XuhNHhfcs=", "properties": {"ref": "https://www.belk.com/store/?StoreID=297", "@spider": "belk", "shop": "department_store", "addr:street_address": "2215 South First Street", "addr:city": "Lufkin", "addr:state": "TX", "addr:postcode": "75901-5903", "addr:country": "US", "name": "Lufkin TX", "phone": "+9366995055", "website": "https://www.belk.com/store/belk-lufkin-tx/?StoreID=297", "brand": "Belk", "brand:wikidata": "Q127428", "nsi_id": "belk-592fe0"}, "geometry": {"type": "Point", "coordinates": [-94.725513, 31.298771]}},
{"type": "Feature", "id": "X626qTrcte0COAc3WPrFqxYeY2M=", "properties": {"ref": "https://www.belk.com/store/?StoreID=328", "@spider": "belk", "shop": "department_store", "addr:street_address": "200 Sidney Baker South-Suite 1", "addr:city": "Kerrville", "addr:state": "TX", "addr:postcode": "78028-5367", "addr:country": "US", "name": "Kerrville TX", "phone": "+8302576800", "website": "https://www.belk.com/store/belk-kerrville-tx/?StoreID=328", "brand": "Belk", "brand:wikidata": "Q127428", "nsi_id": "belk-592fe0"}, "geometry": {"type": "Point", "coordinates": [-99.147226, 30.043107]}},
{"type": "Feature", "id": "JywLYzOdvTTfmFDZBj0VALbGh9U=", "properties": {"ref": "https://www.belk.com/store/?StoreID=124", "@spider": "belk", "shop": "department_store", "addr:street_address": "6834 Wesley Street Crossrds Ml", "addr:city": "Greenville", "addr:state": "TX", "addr:postcode": "75402-7373", "addr:country": "US", "name": "Greenville TX", "phone": "+9034556989", "website": "https://www.belk.com/store/belk-greenville-tx/?StoreID=124", "brand": "Belk", "brand:wikidata": "Q127428", "nsi_id": "belk-592fe0"}, "geometry": {"type": "Point", "coordinates": [-96.111496, 33.099709]}},
{"type": "Feature", "id": "kZuvw42TRhC-FMx3qzhyqpyT-Fc=", "properties": {"ref": "https://www.belk.com/store/?StoreID=381", "@spider": "belk", "shop": "department_store", "addr:street_address": "9488 Sage Meadow Trail", "addr:city": "Fort Worth", "addr:state": "TX", "addr:postcode": "76177-8592", "addr:country": "US", "name": "Fort Worth TX", "phone": "+8177503500", "website": "https://www.belk.com/store/belk-fort-worth-tx/?StoreID=381", "brand": "Belk", "brand:wikidata": "Q127428", "nsi_id": "belk-592fe0"}, "geometry": {"type": "Point", "coordinates": [-97.313707, 32.910511]}},
{"type": "Feature", "id": "oXKtmh66TzZ2k0repeEn2ImIcV0=", "properties": {"ref": "https://www.belk.com/store/?StoreID=379", "@spider": "belk", "shop": "department_store", "addr:street_address": "5801 Long Prairie Rd", "addr:city": "Flower Mound", "addr:state": "TX", "addr:postcode": "75028-5621", "addr:country": "US", "name": "FLower Mound TX", "phone": "+9725390849", "website": "https://www.belk.com/store/belk-flower-mound-tx/?StoreID=379", "brand": "Belk", "brand:wikidata": "Q127428", "nsi_id": "belk-592fe0"}, "geometry": {"type": "Point", "coordinates": [-97.083699, 33.063632]}},
{"type": "Feature", "id": "PMEMjBl6nDxVJyX5E406iAezjEU=", "properties": {"ref": "https://www.belk.com/store/?StoreID=468", "@spider": "belk", "shop": "department_store", "addr:street_address": "2701 Rio Grande Blvd Suite100", "addr:city": "Euless", "addr:state": "TX", "addr:postcode": "76039-1248", "addr:country": "US", "name": "Euless TX", "phone": "+8176851700", "website": "https://www.belk.com/store/belk-euless-tx/?StoreID=468", "brand": "Belk", "brand:wikidata": "Q127428", "nsi_id": "belk-592fe0"}, "geometry": {"type": "Point", "coordinates": [-97.1029829, 32.8762353]}},
{"type": "Feature", "id": "rvSmtR3SyqPPA5BR4JaZndYxCdQ=", "properties": {"ref": "https://www.belk.com/store/?StoreID=335", "@spider": "belk", "shop": "department_store", "addr:street_address": "655 Parkway", "addr:city": "Sevierville", "addr:state": "TN", "addr:postcode": "37862-4344", "addr:country": "US", "name": "Sevierville TN", "phone": "+8659089113", "website": "https://www.belk.com/store/belk-sevierville-tn/?StoreID=335", "brand": "Belk", "brand:wikidata": "Q127428", "nsi_id": "belk-592fe0"}, "geometry": {"type": "Point", "coordinates": [-83.569746, 35.859803]}},
{"type": "Feature", "id": "5CSLn9P3AQwONRGkUNxDg2DD14c=", "properties": {"ref": "https://www.belk.com/store/?StoreID=316", "@spider": "belk", "shop": "department_store", "addr:street_address": "2106 Memorial Blvd, Unit A-1", "addr:city": "Springfield", "addr:state": "TN", "addr:postcode": "37172-3916", "addr:country": "US", "name": "Springfield TN", "phone": "+6153825913", "website": "https://www.belk.com/store/belk-springfield-tn/?StoreID=316", "brand": "Belk", "brand:wikidata": "Q127428", "nsi_id": "belk-592fe0"}, "geometry": {"type": "Point", "coordinates": [-86.87546, 36.494941]}},
{"type": "Feature", "id": "ELNBrpPSmX7HxDHcQRG9xHnfj8U=", "properties": {"ref": "https://www.belk.com/store/?StoreID=686", "@spider": "belk", "shop": "department_store", "addr:street_address": "751 West Main Street", "addr:city": "Oak Ridge", "addr:state": "TN", "addr:postcode": "37830-6727", "addr:country": "US", "name": "Oak Ridge TN", "phone": "+8654824045", "website": "https://www.belk.com/store/belk-oak-ridge-tn/?StoreID=686", "brand": "Belk", "brand:wikidata": "Q127428", "nsi_id": "belk-592fe0"}, "geometry": {"type": "Point", "coordinates": [-84.255698, 36.010807]}},
{"type": "Feature", "id": "qSeHW6MEHASWypnsQj6UiX2hlzY=", "properties": {"ref": "https://www.belk.com/store/?StoreID=380", "@spider": "belk", "shop": "department_store", "addr:street_address": "2615 Medical Center Pkwy S1600", "addr:city": "Murfreesboro", "addr:state": "TN", "addr:postcode": "37129-2257", "addr:country": "US", "name": "Murfreesboro TN", "phone": "+6158965003", "website": "https://www.belk.com/store/belk-murfreesboro-tn/?StoreID=380", "brand": "Belk", "brand:wikidata": "Q127428", "nsi_id": "belk-592fe0"}, "geometry": {"type": "Point", "coordinates": [-86.442499, 35.8568449]}},
{"type": "Feature", "id": "IaCkerhf9SuKj-uL8BdLPDmpt04=", "properties": {"ref": "https://www.belk.com/store/?StoreID=358", "@spider": "belk", "shop": "department_store", "addr:street_address": "401 South Mount Juliet Rd S 350", "addr:city": "Mount Juliet", "addr:state": "TN", "addr:postcode": "37122-6319", "addr:country": "US", "name": "Mount Juliet TN", "phone": "+6157732687", "website": "https://www.belk.com/store/belk-mount-juliet-tn/?StoreID=358", "brand": "Belk", "brand:wikidata": "Q127428", "nsi_id": "belk-592fe0"}, "geometry": {"type": "Point", "coordinates": [-86.511333, 36.167119]}},
{"type": "Feature", "id": "A5734Z-7As9B-AYpLDVHJ-NV5lI=", "properties": {"ref": "https://www.belk.com/store/?StoreID=282", "@spider": "belk", "shop": "department_store", "addr:street_address": "2550 East Morris Blvd #36", "addr:city": "Morristown", "addr:state": "TN", "addr:postcode": "37813-1946", "addr:country": "US", "name": "Morristown TN", "phone": "+4235855121", "website": "https://www.belk.com/store/belk-morristown-tn/?StoreID=282", "brand": "Belk", "brand:wikidata": "Q127428", "nsi_id": "belk-592fe0"}, "geometry": {"type": "Point", "coordinates": [-83.2585841, 36.2202102]}},
{"type": "Feature", "id": "dfo7z7r58UN9N7xL2tOOo-zi0Dk=", "properties": {"ref": "https://www.belk.com/store/?StoreID=683", "@spider": "belk", "shop": "department_store", "addr:street_address": "173 Foothills Mall Drive", "addr:city": "Maryville", "addr:state": "TN", "addr:postcode": "37801-5513", "addr:country": "US", "name": "Maryville TN", "phone": "+8659839454", "website": "https://www.belk.com/store/belk-maryville-tn/?StoreID=683", "brand": "Belk", "brand:wikidata": "Q127428", "nsi_id": "belk-592fe0"}, "geometry": {"type": "Point", "coordinates": [-83.9970806, 35.7451228]}},
{"type": "Feature", "id": "a2W6IctHb4d5cEu8ZgdkO681eGU=", "properties": {"ref": "https://www.belk.com/store/?StoreID=689", "@spider": "belk", "shop": "department_store", "addr:street_address": "11397 Parkside Drive", "addr:city": "Knoxville", "addr:state": "TN", "addr:postcode": "37934-1972", "addr:country": "US", "name": "Knoxville TN - Turkey Creek", "phone": "+8659669881", "website": "https://www.belk.com/store/belk-knoxville-tn--turky=-crk/?StoreID=689", "brand": "Belk", "brand:wikidata": "Q127428", "nsi_id": "belk-592fe0"}, "geometry": {"type": "Point", "coordinates": [-84.16087, 35.901038]}},
{"type": "Feature", "id": "kRbVCaYRO3IUlXIH3PLbkYTvzXA=", "properties": {"ref": "https://www.belk.com/store/?StoreID=685", "@spider": "belk", "shop": "department_store", "addr:street_address": "7600 Kingston Pike", "addr:city": "Knoxville", "addr:state": "TN", "addr:postcode": "37919-5600", "addr:country": "US", "name": "Knoxville TN - West Town", "phone": "+8656934000", "website": "https://www.belk.com/store/belk-knoxville-tn--westml/?StoreID=685", "brand": "Belk", "brand:wikidata": "Q127428", "nsi_id": "belk-592fe0"}, "geometry": {"type": "Point", "coordinates": [-84.037656, 35.926785]}},
{"type": "Feature", "id": "AyMWHLDNWMYTRMqdA6bzHDM9Npg=", "properties": {"ref": "https://www.belk.com/store/?StoreID=682", "@spider": "belk", "shop": "department_store", "addr:street_address": "2101 Fort Henry Drive", "addr:city": "Kingsport", "addr:state": "TN", "addr:postcode": "37664-3658", "addr:country": "US", "name": "Kingsport TN", "phone": "+4232454121", "website": "https://www.belk.com/store/belk-kingsport-tn/?StoreID=682", "brand": "Belk", "brand:wikidata": "Q127428", "nsi_id": "belk-592fe0"}, "geometry": {"type": "Point", "coordinates": [-82.523111, 36.5282683]}},
{"type": "Feature", "id": "0pjF0LuukS58Io88cvcxHkNO7-M=", "properties": {"ref": "https://www.belk.com/store/?StoreID=688", "@spider": "belk", "shop": "department_store", "addr:street_address": "2011 North Roan Street Store E", "addr:city": "Johnson City", "addr:state": "TN", "addr:postcode": "37601-3130", "addr:country": "US", "name": "Johnson City TN", "phone": "+4232821994", "website": "https://www.belk.com/store/belk-johnson-city-tn/?StoreID=688", "brand": "Belk", "brand:wikidata": "Q127428", "nsi_id": "belk-592fe0"}, "geometry": {"type": "Point", "coordinates": [-82.378902, 36.339283]}},
{"type": "Feature", "id": "_pBjIq28NySU8o4loYBJSfYFzpU=", "properties": {"ref": "https://www.belk.com/store/?StoreID=693", "@spider": "belk", "shop": "department_store", "addr:street_address": "1367 Tusculum Blvd", "addr:city": "Greeneville", "addr:state": "TN", "addr:postcode": "37745-4249", "addr:country": "US", "name": "Greeneville TN", "phone": "+4236394165", "website": "https://www.belk.com/store/belk-greenville-tn/?StoreID=693", "brand": "Belk", "brand:wikidata": "Q127428", "nsi_id": "belk-592fe0"}, "geometry": {"type": "Point", "coordinates": [-82.795199, 36.174045]}},
{"type": "Feature", "id": "xJXPCBmgC4eG0xVSOeSBAk_Rrx4=", "properties": {"ref": "https://www.belk.com/store/?StoreID=311", "@spider": "belk", "shop": "department_store", "addr:street_address": "555 Village Green Drive", "addr:city": "Gallatin", "addr:state": "TN", "addr:postcode": "37066-7129", "addr:country": "US", "name": "Gallatin TN", "phone": "+6154511660", "website": "https://www.belk.com/store/belk-gallatin-tn/?StoreID=311", "brand": "Belk", "brand:wikidata": "Q127428", "nsi_id": "belk-592fe0"}, "geometry": {"type": "Point", "coordinates": [-86.4753842, 36.3777848]}},
{"type": "Feature", "id": "9sYF12FqlQ1ShykQlqnzMeuF4x4=", "properties": {"ref": "https://www.belk.com/store/?StoreID=629", "@spider": "belk", "shop": "department_store", "addr:street_address": "1800 Galleria Blvd", "addr:city": "Franklin", "addr:state": "TN", "addr:postcode": "37067-1605", "addr:country": "US", "name": "Franklin TN", "phone": "+6157713200", "website": "https://www.belk.com/store/belk-franklin-tn/?StoreID=629", "brand": "Belk", "brand:wikidata": "Q127428", "nsi_id": "belk-592fe0"}, "geometry": {"type": "Point", "coordinates": [-86.815086, 35.956645]}},
{"type": "Feature", "id": "4dFAV9OKZEFAKQ33zKUUC3kpijI=", "properties": {"ref": "https://www.belk.com/store/?StoreID=585", "@spider": "belk", "shop": "department_store", "addr:street_address": "377 West Jackson Drive", "addr:city": "Cookeville", "addr:state": "TN", "addr:postcode": "38501-5930", "addr:country": "US", "name": "Cookeville TN", "phone": "+9315251418", "website": "https://www.belk.com/store/belk-cookeville-tn/?StoreID=585", "brand": "Belk", "brand:wikidata": "Q127428", "nsi_id": "belk-592fe0"}, "geometry": {"type": "Point", "coordinates": [-85.5186633, 36.1570141]}},
{"type": "Feature", "id": "Pp6Qm-H37B5C7nVWpvz-i2RYk74=", "properties": {"ref": "https://www.belk.com/store/?StoreID=315", "@spider": "belk", "shop": "department_store", "addr:street_address": "2101 Brookmeade Drive", "addr:city": "Columbia", "addr:state": "TN", "addr:postcode": "38401-3982", "addr:country": "US", "name": "Columbia TN", "phone": "+9313802197", "website": "https://www.belk.com/store/belk-columbia-tn/?StoreID=315", "brand": "Belk", "brand:wikidata": "Q127428", "nsi_id": "belk-592fe0"}, "geometry": {"type": "Point", "coordinates": [-87.051827, 35.595023]}},
{"type": "Feature", "id": "z6H5_O8HKiotZgmyjrRmbCrdaJY=", "properties": {"ref": "https://www.belk.com/store/?StoreID=692", "@spider": "belk", "shop": "department_store", "addr:street_address": "200 Paul Huff Parkway NW, Suite 16", "addr:city": "Cleveland", "addr:state": "TN", "addr:postcode": "37312-2980", "addr:country": "US", "name": "Cleveland TN", "phone": "+4234786300", "website": "https://www.belk.com/store/belk-cleveland-tn/?StoreID=692", "brand": "Belk", "brand:wikidata": "Q127428", "nsi_id": "belk-592fe0"}, "geometry": {"type": "Point", "coordinates": [-84.8468407, 35.2049089]}},
{"type": "Feature", "id": "HYk0HqHHYUhmW34z0thoH4SZIik=", "properties": {"ref": "https://www.belk.com/store/?StoreID=539", "@spider": "belk", "shop": "department_store", "addr:street_address": "2801 Wilma Rudolph Blvd, Ste 800", "addr:city": "Clarksville", "addr:state": "TN", "addr:postcode": "37040-5065", "addr:country": "US", "name": "Clarksville TN", "phone": "+9316482246", "website": "https://www.belk.com/store/belk-clarksville-tn/?StoreID=539", "brand": "Belk", "brand:wikidata": "Q127428", "nsi_id": "belk-592fe0"}, "geometry": {"type": "Point", "coordinates": [-87.288919, 36.586648]}},
{"type": "Feature", "id": "ibKR1xqgqiOiSPICyAQzdbnpzto=", "properties": {"ref": "https://www.belk.com/store/?StoreID=694", "@spider": "belk", "shop": "department_store", "addr:street_address": "2100 Hamilton Place Blvd", "addr:city": "Chattanooga", "addr:state": "TN", "addr:postcode": "37421-6017", "addr:country": "US", "name": "Chattanooga TN - Hamilton", "phone": "+4238993148", "website": "https://www.belk.com/store/belk-chattanooga-tn--hamilton/?StoreID=694", "brand": "Belk", "brand:wikidata": "Q127428", "nsi_id": "belk-592fe0"}, "geometry": {"type": "Point", "coordinates": [-85.1595783, 35.0343208]}},
{"type": "Feature", "id": "VgFhSo1TL-AHojDqMIruCpw8BFI=", "properties": {"ref": "https://www.belk.com/store/?StoreID=691", "@spider": "belk", "shop": "department_store", "addr:street_address": "101 Northgate Mall", "addr:city": "Chattanooga", "addr:state": "TN", "addr:postcode": "37415-6939", "addr:country": "US", "name": "Chattanooga TN - Northgate", "phone": "+4238752734", "website": "https://www.belk.com/store/belk-chattanooga-tn--northgate/?StoreID=691", "brand": "Belk", "brand:wikidata": "Q127428", "nsi_id": "belk-592fe0"}, "geometry": {"type": "Point", "coordinates": [-85.2398863, 35.1312854]}},
{"type": "Feature", "id": "vaRB8K84iYcg87_A7c55AgxSfvk=", "properties": {"ref": "https://www.belk.com/store/?StoreID=459", "@spider": "belk", "shop": "department_store", "addr:street_address": "470 Pinnacle Parkway", "addr:city": "Bristol", "addr:state": "TN", "addr:postcode": "37620-8629", "addr:country": "US", "name": "Bristol TN", "phone": "+4232742600", "website": "https://www.belk.com/store/belk-bristol-tn/?StoreID=459", "brand": "Belk", "brand:wikidata": "Q127428", "nsi_id": "belk-592fe0"}, "geometry": {"type": "Point", "coordinates": [-82.258815, 36.5947892]}},
{"type": "Feature", "id": "4LYOabuFm3GwQg_jR2jCy_vOJrQ=", "properties": {"ref": "https://www.belk.com/store/?StoreID=684", "@spider": "belk", "shop": "department_store", "addr:street_address": "1516 Decatur Pike", "addr:city": "Athens", "addr:state": "TN", "addr:postcode": "37303-2422", "addr:country": "US", "name": "Athens TN", "phone": "+4237453663", "website": "https://www.belk.com/store/belk-athens-tn/?StoreID=684", "brand": "Belk", "brand:wikidata": "Q127428", "nsi_id": "belk-592fe0"}, "geometry": {"type": "Point", "coordinates": [-84.620455, 35.45128]}},
{"type": "Feature", "id": "GMpEbDNwYtGCJjEShXlv4uRphEQ=", "properties": {"ref": "https://www.belk.com/store/?StoreID=374", "@spider": "belk", "shop": "department_store", "addr:street_address": "389 Bells Hwy", "addr:city": "Walterboro", "addr:state": "SC", "addr:postcode": "29488-2703", "addr:country": "US", "name": "Walterboro SC", "phone": "+8437828000", "website": "https://www.belk.com/store/belk-walterboro-sc/?StoreID=374", "brand": "Belk", "brand:wikidata": "Q127428", "nsi_id": "belk-592fe0"}, "geometry": {"type": "Point", "coordinates": [-80.6746619, 32.9143147]}},
{"type": "Feature", "id": "HUVgCUbjN1SFL_2ECM9a9Q_uWIo=", "properties": {"ref": "https://www.belk.com/store/?StoreID=503", "@spider": "belk", "shop": "department_store", "addr:street_address": "1057 Broad Street Sumter Mall", "addr:city": "Sumter", "addr:state": "SC", "addr:postcode": "29150-2504", "addr:country": "US", "name": "Sumter SC", "phone": "+8037781811", "website": "https://www.belk.com/store/belk-sumter-sc/?StoreID=503", "brand": "Belk", "brand:wikidata": "Q127428", "nsi_id": "belk-592fe0"}, "geometry": {"type": "Point", "coordinates": [-80.3722912, 33.9486155]}},
{"type": "Feature", "id": "ahHWvuYvdCzA3TeejIrcxWKZM2E=", "properties": {"ref": "https://www.belk.com/store/?StoreID=482", "@spider": "belk", "shop": "department_store", "addr:street_address": "205 W. Blackstock Rd Suite 132", "addr:city": "Spartanburg", "addr:state": "SC", "addr:postcode": "29301-1330", "addr:country": "US", "name": "Spartanburg SC", "phone": "+8645741660", "website": "https://www.belk.com/store/belk-spartanburg-sc/?StoreID=482", "brand": "Belk", "brand:wikidata": "Q127428", "nsi_id": "belk-592fe0"}, "geometry": {"type": "Point", "coordinates": [-81.994, 34.941702]}},
{"type": "Feature", "id": "cpmHEeXtTffBVDlx3TC4ISRO1YA=", "properties": {"ref": "https://www.belk.com/store/?StoreID=89", "@spider": "belk", "shop": "department_store", "addr:street_address": "665 Fairview Road", "addr:city": "Simpsonville", "addr:state": "SC", "addr:postcode": "29680-6706", "addr:country": "US", "name": "Simpsonville SC", "phone": "+8649637005", "website": "https://www.belk.com/store/belk-simpsonville-sc/?StoreID=89", "brand": "Belk", "brand:wikidata": "Q127428", "nsi_id": "belk-592fe0"}, "geometry": {"type": "Point", "coordinates": [-82.2547657, 34.7103209]}},
{"type": "Feature", "id": "Frssy2q9X2ImGEZyipaq12Plky0=", "properties": {"ref": "https://www.belk.com/store/?StoreID=538", "@spider": "belk", "shop": "department_store", "addr:street_address": "285 Applewood Center Place, Suite A", "addr:city": "Seneca", "addr:state": "SC", "addr:postcode": "29678-0919", "addr:country": "US", "name": "Seneca SC", "phone": "+8648822431", "website": "https://www.belk.com/store/belk-seneca-sc/?StoreID=538", "brand": "Belk", "brand:wikidata": "Q127428", "nsi_id": "belk-592fe0"}, "geometry": {"type": "Point", "coordinates": [-82.991077, 34.689393]}},
{"type": "Feature", "id": "5n9ijyHG-l1-tjq0noGjLFoiAn8=", "properties": {"ref": "https://www.belk.com/store/?StoreID=581", "@spider": "belk", "shop": "department_store", "addr:street_address": "2251 Dave Lyle Blvd", "addr:city": "Rock Hill", "addr:state": "SC", "addr:postcode": "29730-4973", "addr:country": "US", "name": "Rock Hill SC", "phone": "+8033669471", "website": "https://www.belk.com/store/belk-rock-hill-sc/?StoreID=581", "brand": "Belk", "brand:wikidata": "Q127428", "nsi_id": "belk-592fe0"}, "geometry": {"type": "Point", "coordinates": [-80.966459, 34.942476]}},
{"type": "Feature", "id": "iHWK-gEhflHJXs7VWxlKmm8xHF0=", "properties": {"ref": "https://www.belk.com/store/?StoreID=513", "@spider": "belk", "shop": "department_store", "addr:street_address": "2390 Chestnut, N.E.", "addr:city": "Orangeburg", "addr:state": "SC", "addr:postcode": "29115-3201", "addr:country": "US", "name": "Orangeburg SC", "phone": "+8035361930", "website": "https://www.belk.com/store/belk-orangeburg-sc/?StoreID=513", "brand": "Belk", "brand:wikidata": "Q127428", "nsi_id": "belk-592fe0"}, "geometry": {"type": "Point", "coordinates": [-80.879921, 33.5221839]}},
{"type": "Feature", "id": "NftAtHqzM92qD9zxBtgOvrwxXFE=", "properties": {"ref": "https://www.belk.com/store/?StoreID=463", "@spider": "belk", "shop": "department_store", "addr:street_address": "2222 Northwoods Blvd", "addr:city": "North Charleston", "addr:state": "SC", "addr:postcode": "29406-4008", "addr:country": "US", "name": "North Charleston SC", "phone": "+8437972600", "website": "https://www.belk.com/store/belk-aiken-sc/?StoreID=463", "brand": "Belk", "brand:wikidata": "Q127428", "nsi_id": "belk-592fe0"}, "geometry": {"type": "Point", "coordinates": [-80.046309, 32.943579]}},
{"type": "Feature", "id": "M-nO-6VaqdFZGrE0Mp5ut0-njvU=", "properties": {"ref": "https://www.belk.com/store/?StoreID=299", "@spider": "belk", "shop": "department_store", "addr:street_address": "1163 Knox Avenue", "addr:city": "North Augusta", "addr:state": "SC", "addr:postcode": "29841-4054", "addr:country": "US", "name": "North Augusta SC", "phone": "+8032794420", "website": "https://www.belk.com/store/belk-north-augusta-sc/?StoreID=299", "brand": "Belk", "brand:wikidata": "Q127428", "nsi_id": "belk-592fe0"}, "geometry": {"type": "Point", "coordinates": [-81.9579836, 33.4986531]}},
{"type": "Feature", "id": "yAFkQuMUprNxGkb_pJwv66YrhGU=", "properties": {"ref": "https://www.belk.com/store/?StoreID=516", "@spider": "belk", "shop": "department_store", "addr:street_address": "10177 N. Kings Highway", "addr:city": "Myrtle Beach", "addr:state": "SC", "addr:postcode": "29572-4021", "addr:country": "US", "name": "North Myrtle Beach SC", "phone": "+8432724200", "website": "https://www.belk.com/store/belk-myrtle-beach-sc/?StoreID=516", "brand": "Belk", "brand:wikidata": "Q127428", "nsi_id": "belk-592fe0"}, "geometry": {"type": "Point", "coordinates": [-78.7646287, 33.7920011]}},
{"type": "Feature", "id": "WvZbVNB_T7lf41-oHjpi_Zm5MUc=", "properties": {"ref": "https://www.belk.com/store/?StoreID=244", "@spider": "belk", "shop": "department_store", "addr:street_address": "1400 Coastal Grand Circle", "addr:city": "Myrtle Beach", "addr:state": "SC", "addr:postcode": "29577-9778", "addr:country": "US", "name": "Myrtle Beach SC - Coastal Grand", "phone": "+8434481516", "website": "https://www.belk.com/store/belk-myrtle-beach-sc--coastal/?StoreID=244", "brand": "Belk", "brand:wikidata": "Q127428", "nsi_id": "belk-592fe0"}, "geometry": {"type": "Point", "coordinates": [-78.9204572, 33.7032888]}},
{"type": "Feature", "id": "FWXHX2JRWxBSeBd1o9PnISirWgw=", "properties": {"ref": "https://www.belk.com/store/?StoreID=551", "@spider": "belk", "shop": "department_store", "addr:street_address": "12125 US 17", "addr:city": "Murrells Inlet", "addr:state": "SC", "addr:postcode": "29576-9315", "addr:country": "US", "name": "Murrells Inlet SC", "phone": "+8436516377", "website": "https://www.belk.com/store/belk-murrells-inlet-sc/?StoreID=551", "brand": "Belk", "brand:wikidata": "Q127428", "nsi_id": "belk-592fe0"}, "geometry": {"type": "Point", "coordinates": [-79.0260046, 33.5793868]}},
{"type": "Feature", "id": "bsuiIpQKrjdWGRIV-zdsoVIeGQc=", "properties": {"ref": "https://www.belk.com/store/?StoreID=74", "@spider": "belk", "shop": "department_store", "addr:street_address": "1200 Belk Drive", "addr:city": "Mt Pleasant", "addr:state": "SC", "addr:postcode": "29464-3394", "addr:country": "US", "name": "Mount Pleasant SC", "phone": "+8438842841", "website": "https://www.belk.com/store/belk-mt-pleasant-sc/?StoreID=74", "brand": "Belk", "brand:wikidata": "Q127428", "nsi_id": "belk-592fe0"}, "geometry": {"type": "Point", "coordinates": [-79.8296227, 32.8284924]}},
{"type": "Feature", "id": "ntQzncIX41c1aA8bo4E0qIMIiB4=", "properties": {"ref": "https://www.belk.com/store/?StoreID=592", "@spider": "belk", "shop": "department_store", "addr:street_address": "911 E Main Street", "addr:city": "Laurens", "addr:state": "SC", "addr:postcode": "29360-3601", "addr:country": "US", "name": "Laurens SC", "phone": "+8649846525", "website": "https://www.belk.com/store/belk-laurens-sc/?StoreID=592", "brand": "Belk", "brand:wikidata": "Q127428", "nsi_id": "belk-592fe0"}, "geometry": {"type": "Point", "coordinates": [-81.981571, 34.494387]}},
{"type": "Feature", "id": "0hIBYqtNdWlTkc73qMfJ5BxiRJw=", "properties": {"ref": "https://www.belk.com/store/?StoreID=56", "@spider": "belk", "shop": "department_store", "addr:street_address": "969 N. Main Street", "addr:city": "Lancaster", "addr:state": "SC", "addr:postcode": "29720-2188", "addr:country": "US", "name": "Lancaster SC", "phone": "+8032859481", "website": "https://www.belk.com/store/belk-lancaster-sc/?StoreID=56", "brand": "Belk", "brand:wikidata": "Q127428", "nsi_id": "belk-592fe0"}, "geometry": {"type": "Point", "coordinates": [-80.774664, 34.733056]}},
{"type": "Feature", "id": "5haPL5x_ePinejGJwR9KsOIscQs=", "properties": {"ref": "https://www.belk.com/store/?StoreID=594", "@spider": "belk", "shop": "department_store", "addr:street_address": "259 N. Ron Mcnair Blvd", "addr:city": "Lake City", "addr:state": "SC", "addr:postcode": "29560-2437", "addr:country": "US", "name": "Lake City SC", "phone": "+8433943549", "website": "https://www.belk.com/store/belk-lake-city-sc/?StoreID=594", "brand": "Belk", "brand:wikidata": "Q127428", "nsi_id": "belk-592fe0"}, "geometry": {"type": "Point", "coordinates": [-79.757509, 33.879954]}},
{"type": "Feature", "id": "PgALag20guXb_fkHIkc-ARjkPkg=", "properties": {"ref": "https://www.belk.com/store/?StoreID=534", "@spider": "belk", "shop": "department_store", "addr:street_address": "28 Shelter Cove Lane Suite 100", "addr:city": "Hilton Head", "addr:state": "SC", "addr:postcode": "29928-2007", "addr:country": "US", "name": "Hilton Head SC", "phone": "+8436868710", "website": "https://www.belk.com/store/belk-hilton-head-sc/?StoreID=534", "brand": "Belk", "brand:wikidata": "Q127428", "nsi_id": "belk-592fe0"}, "geometry": {"type": "Point", "coordinates": [-80.722453, 32.183672]}},
{"type": "Feature", "id": "YGJy7E-gChzv1EI6qKbKQlO2fiw=", "properties": {"ref": "https://www.belk.com/store/?StoreID=566", "@spider": "belk", "shop": "department_store", "addr:street_address": "1301 N Main Street", "addr:city": "Summerville", "addr:state": "SC", "addr:postcode": "29483-7307", "addr:country": "US", "name": "Summerville SC", "phone": "+8438213780", "website": "https://www.belk.com/store/belk-summerville-sc/?StoreID=566", "brand": "Belk", "brand:wikidata": "Q127428", "nsi_id": "belk-592fe0"}, "geometry": {"type": "Point", "coordinates": [-80.156055, 33.034157]}},
{"type": "Feature", "id": "z1MQfOJVnDu-X_PFvopVvYiJmx8=", "properties": {"ref": "https://www.belk.com/store/?StoreID=560", "@spider": "belk", "shop": "department_store", "addr:street_address": "807 S. Fifth Street", "addr:city": "Hartsville", "addr:state": "SC", "addr:postcode": "29550-6501", "addr:country": "US", "name": "Hartsville SC", "phone": "+8433328156", "website": "https://www.belk.com/store/belk-hartsville-sc/?StoreID=560", "brand": "Belk", "brand:wikidata": "Q127428", "nsi_id": "belk-592fe0"}, "geometry": {"type": "Point", "coordinates": [-80.066722, 34.365551]}},
{"type": "Feature", "id": "f_j9BtjC2BHvyEtRPrQonAndeh8=", "properties": {"ref": "https://www.belk.com/store/?StoreID=464", "@spider": "belk", "shop": "department_store", "addr:street_address": "805 W Wade Hampton Blvd.", "addr:city": "Greer", "addr:state": "SC", "addr:postcode": "29650-1310", "addr:country": "US", "name": "Greer SC", "phone": "+8648792182", "website": "https://www.belk.com/store/belk-greer-sc/?StoreID=464", "brand": "Belk", "brand:wikidata": "Q127428", "nsi_id": "belk-592fe0"}, "geometry": {"type": "Point", "coordinates": [-82.2459885, 34.9450267]}},
{"type": "Feature", "id": "vpjIxozXHAZemcGgXAdZ433M1T8=", "properties": {"ref": "https://www.belk.com/store/?StoreID=27", "@spider": "belk", "shop": "department_store", "addr:street_address": "430 Bypass Northwest", "addr:city": "Greenwood", "addr:state": "SC", "addr:postcode": "29649-1404", "addr:country": "US", "name": "Greenwood SC", "phone": "+8642238581", "website": "https://www.belk.com/store/belk-greenwood-sc/?StoreID=27", "brand": "Belk", "brand:wikidata": "Q127428", "nsi_id": "belk-592fe0"}, "geometry": {"type": "Point", "coordinates": [-82.182922, 34.210929]}},
{"type": "Feature", "id": "PmtzDgLp1bie1wc7MWABK-Rk1tY=", "properties": {"ref": "https://www.belk.com/store/?StoreID=16", "@spider": "belk", "shop": "department_store", "addr:street_address": "700 Haywood Road #108", "addr:city": "Greenville", "addr:state": "SC", "addr:postcode": "29607-2725", "addr:country": "US", "name": "Greenville SC", "phone": "+8642973200", "website": "https://www.belk.com/store/belk-greenville-sc/?StoreID=16", "brand": "Belk", "brand:wikidata": "Q127428", "nsi_id": "belk-592fe0"}, "geometry": {"type": "Point", "coordinates": [-82.332634, 34.849712]}},
{"type": "Feature", "id": "QSioma9G5s08KJRswx-m5PUlX9U=", "properties": {"ref": "https://www.belk.com/store/?StoreID=569", "@spider": "belk", "shop": "department_store", "addr:street_address": "1212 N Fraser Street", "addr:city": "Georgetown", "addr:state": "SC", "addr:postcode": "29440-2852", "addr:country": "US", "name": "Georgetown SC", "phone": "+8435468466", "website": "https://www.belk.com/store/belk-georgetown-sc/?StoreID=569", "brand": "Belk", "brand:wikidata": "Q127428", "nsi_id": "belk-592fe0"}, "geometry": {"type": "Point", "coordinates": [-79.28707, 33.391451]}},
{"type": "Feature", "id": "KLBKA0pe_5A-rSLg0eoBnwGsozU=", "properties": {"ref": "https://www.belk.com/store/?StoreID=72", "@spider": "belk", "shop": "department_store", "addr:street_address": "1607 W. Floyd Baker Blvd", "addr:city": "Gaffney", "addr:state": "SC", "addr:postcode": "29341-1255", "addr:country": "US", "name": "Gaffney SC", "phone": "+8644898183", "website": "https://www.belk.com/store/belk-gaffney-sc/?StoreID=72", "brand": "Belk", "brand:wikidata": "Q127428", "nsi_id": "belk-592fe0"}, "geometry": {"type": "Point", "coordinates": [-81.666725, 35.091815]}},
{"type": "Feature", "id": "cWrbyZHIqiOQzCtTUXiyUyEc4Q0=", "properties": {"ref": "https://www.belk.com/store/?StoreID=84", "@spider": "belk", "shop": "department_store", "addr:street_address": "2701 David McLeod Blvd. PO Box 6285", "addr:city": "Florence", "addr:state": "SC", "addr:postcode": "29501-4043", "addr:country": "US", "name": "Florence SC", "phone": "+8436623201", "website": "https://www.belk.com/store/belk-florence-sc/?StoreID=84", "brand": "Belk", "brand:wikidata": "Q127428", "nsi_id": "belk-592fe0"}, "geometry": {"type": "Point", "coordinates": [-79.835484, 34.192393]}},
{"type": "Feature", "id": "ImeDZCjMGaArTLhOCcMTesFM9Jg=", "properties": {"ref": "https://www.belk.com/store/?StoreID=454", "@spider": "belk", "shop": "department_store", "addr:street_address": "6101 Calhoun Memorial Hwy", "addr:city": "Easley", "addr:state": "SC", "addr:postcode": "29640-3789", "addr:country": "US", "name": "Easley SC", "phone": "+8648598771", "website": "https://www.belk.com/store/belk-easley-sc/?StoreID=454", "brand": "Belk", "brand:wikidata": "Q127428", "nsi_id": "belk-592fe0"}, "geometry": {"type": "Point", "coordinates": [-82.5777636, 34.8215367]}},
{"type": "Feature", "id": "iL6kovNRHGrFpu064rhF2JWH5v0=", "properties": {"ref": "https://www.belk.com/store/?StoreID=114", "@spider": "belk", "shop": "department_store", "addr:street_address": "1610-0 Church Street", "addr:city": "Conway", "addr:state": "SC", "addr:postcode": "29526-2930", "addr:country": "US", "name": "Conway SC", "phone": "+8432487256", "website": "https://www.belk.com/store/belk-conway-sc/?StoreID=114", "brand": "Belk", "brand:wikidata": "Q127428", "nsi_id": "belk-592fe0"}, "geometry": {"type": "Point", "coordinates": [-79.062746, 33.848404]}},
{"type": "Feature", "id": "8ZnwOrMwUxE6KnO3fo6OQYI9ZXg=", "properties": {"ref": "https://www.belk.com/store/?StoreID=182", "@spider": "belk", "shop": "department_store", "addr:street_address": "3400 Forest Drive", "addr:city": "Columbia", "addr:state": "SC", "addr:postcode": "29204-4029", "addr:country": "US", "name": "Columbia SC - Richland", "phone": "+8037822600", "website": "https://www.belk.com/store/belk-columbia-sc---richland/?StoreID=182", "brand": "Belk", "brand:wikidata": "Q127428", "nsi_id": "belk-592fe0"}, "geometry": {"type": "Point", "coordinates": [-80.990551, 34.017106]}},
{"type": "Feature", "id": "cN3ZBCsxzvDPC9w5tcTmY16UoBA=", "properties": {"ref": "https://www.belk.com/store/?StoreID=378", "@spider": "belk", "shop": "department_store", "addr:street_address": "670 Promenade Place", "addr:city": "Columbia", "addr:state": "SC", "addr:postcode": "29229-7948", "addr:country": "US", "name": "Columbia SC - Sandhill", "phone": "+8034197878", "website": "https://www.belk.com/store/belk-columbia-sc/?StoreID=378", "brand": "Belk", "brand:wikidata": "Q127428", "nsi_id": "belk-592fe0"}, "geometry": {"type": "Point", "coordinates": [-80.880812, 34.127654]}},
{"type": "Feature", "id": "oCk-gOl21htaDt1KNI3SG3Ai_yU=", "properties": {"ref": "https://www.belk.com/store/?StoreID=202", "@spider": "belk", "shop": "department_store", "addr:street_address": "2064 Sam Rittenburg Blvd", "addr:city": "Charleston", "addr:state": "SC", "addr:postcode": "29407-4616", "addr:country": "US", "name": "Charleston SC", "phone": "+8435715420", "website": "https://www.belk.com/store/belk-charleston-sc/?StoreID=202", "brand": "Belk", "brand:wikidata": "Q127428", "nsi_id": "belk-592fe0"}, "geometry": {"type": "Point", "coordinates": [-80.032542, 32.799444]}},
{"type": "Feature", "id": "ugWm3U2IImzIlVVAC09Vu6Qzxz8=", "properties": {"ref": "https://www.belk.com/store/?StoreID=227", "@spider": "belk", "shop": "department_store", "addr:street_address": "1671 Springdale Drive", "addr:city": "Camden", "addr:state": "SC", "addr:postcode": "29020-2078", "addr:country": "US", "name": "Camden SC", "phone": "+8034327641", "website": "https://www.belk.com/store/belk-camden-sc/?StoreID=227", "brand": "Belk", "brand:wikidata": "Q127428", "nsi_id": "belk-592fe0"}, "geometry": {"type": "Point", "coordinates": [-80.643134, 34.252565]}},
{"type": "Feature", "id": "O1W_UP1eSLPJ-bXeWqotdkM1Lr8=", "properties": {"ref": "https://www.belk.com/store/?StoreID=325", "@spider": "belk", "shop": "department_store", "addr:street_address": "332 Robert Small Pkwy-Suite B", "addr:city": "Beaufort", "addr:state": "SC", "addr:postcode": "29906-4223", "addr:country": "US", "name": "Beaufort SC", "phone": "+8435229599", "website": "https://www.belk.com/store/belk-beaufort-sc/?StoreID=325", "brand": "Belk", "brand:wikidata": "Q127428", "nsi_id": "belk-592fe0"}, "geometry": {"type": "Point", "coordinates": [-80.731492, 32.4262375]}},
{"type": "Feature", "id": "JiKKWFrCGux590kUYEatZu54B9w=", "properties": {"ref": "https://www.belk.com/store/?StoreID=19", "@spider": "belk", "shop": "department_store", "addr:street_address": "3101 N. Main Street", "addr:city": "Anderson", "addr:state": "SC", "addr:postcode": "29621-2767", "addr:country": "US", "name": "Anderson SC", "phone": "+8642252511", "website": "https://www.belk.com/store/belk-anderson-sc/?StoreID=19", "brand": "Belk", "brand:wikidata": "Q127428", "nsi_id": "belk-592fe0"}, "geometry": {"type": "Point", "coordinates": [-82.672763, 34.538215]}},
{"type": "Feature", "id": "YvFuDm-32px5FBNaGvWY78EoVj4=", "properties": {"ref": "https://www.belk.com/store/?StoreID=554", "@spider": "belk", "shop": "department_store", "addr:street_address": "2441 Whiskey Road#149", "addr:city": "Aiken", "addr:state": "SC", "addr:postcode": "29803-6137", "addr:country": "US", "name": "Aiken SC", "phone": "+8036425628", "website": "https://www.belk.com/store/belk-aiken-sc/?StoreID=554", "brand": "Belk", "brand:wikidata": "Q127428", "nsi_id": "belk-592fe0"}, "geometry": {"type": "Point", "coordinates": [-81.7155046, 33.5090029]}},
{"type": "Feature", "id": "5IOd1v7TuROMjo0qQG8bdMHqTio=", "properties": {"ref": "https://www.belk.com/store/?StoreID=371", "@spider": "belk", "shop": "department_store", "addr:street_address": "7309 S Olympia Ave", "addr:city": "Tulsa", "addr:state": "OK", "addr:postcode": "74132-1849", "addr:country": "US", "name": "Tulsa OK", "phone": "+9184476823", "website": "https://www.belk.com/store/belk-tulsa-ok/?StoreID=371", "brand": "Belk", "brand:wikidata": "Q127428", "nsi_id": "belk-592fe0"}, "geometry": {"type": "Point", "coordinates": [-96.001395, 36.057361]}},
{"type": "Feature", "id": "I3jh0fXZrLy6FELl-eMXJ5GRLvg=", "properties": {"ref": "https://www.belk.com/store/?StoreID=352", "@spider": "belk", "shop": "department_store", "addr:street_address": "9002 N 121St East Ave Suite 900", "addr:city": "Owasso", "addr:state": "OK", "addr:postcode": "74055-5358", "addr:country": "US", "name": "Owasso OK", "phone": "+9182720062", "website": "https://www.belk.com/store/belk-owasso-ok/?StoreID=352", "brand": "Belk", "brand:wikidata": "Q127428", "nsi_id": "belk-592fe0"}, "geometry": {"type": "Point", "coordinates": [-95.8469416, 36.2881918]}},
{"type": "Feature", "id": "q--z5fcUb1_FL6YPms4i092dzrM=", "properties": {"ref": "https://www.belk.com/store/?StoreID=529", "@spider": "belk", "shop": "department_store", "addr:street_address": "164 Wakelon Street", "addr:city": "Zebulon", "addr:state": "NC", "addr:postcode": "27597-2403", "addr:country": "US", "name": "Zebulon NC", "phone": "+9192694141", "website": "https://www.belk.com/store/belk-zebulon-nc/?StoreID=529", "brand": "Belk", "brand:wikidata": "Q127428", "nsi_id": "belk-592fe0"}, "geometry": {"type": "Point", "coordinates": [-78.316864, 35.832183]}},
{"type": "Feature", "id": "FK7u1IV6bBOmMdSLb0Y5ASZfyVI=", "properties": {"ref": "https://www.belk.com/store/?StoreID=17", "@spider": "belk", "shop": "department_store", "addr:street_address": "3320 Silas Creek Parkway,S 150", "addr:city": "Winston Salem", "addr:state": "NC", "addr:postcode": "27103-3031", "addr:country": "US", "name": "Winston Salem NC", "phone": "+3367689200", "website": "https://www.belk.com/store/belk-winston-salem-nc/?StoreID=17", "brand": "Belk", "brand:wikidata": "Q127428", "nsi_id": "belk-592fe0"}, "geometry": {"type": "Point", "coordinates": [-80.30089, 36.070698]}},
{"type": "Feature", "id": "2Bz4CZKwSC7_UgJ0afEnN9oNM4E=", "properties": {"ref": "https://www.belk.com/store/?StoreID=368", "@spider": "belk", "shop": "department_store", "addr:street_address": "3401 Raleigh Road Pkwy, Bld 2C", "addr:city": "Wilson", "addr:state": "NC", "addr:postcode": "27896-8219", "addr:country": "US", "name": "Wilson NC", "phone": "+2522654214", "website": "https://www.belk.com/store/belk-wilson-nc/?StoreID=368", "brand": "Belk", "brand:wikidata": "Q127428", "nsi_id": "belk-592fe0"}, "geometry": {"type": "Point", "coordinates": [-77.967214, 35.741806]}},
{"type": "Feature", "id": "UZca2J6-nUQtD2y5arZUEtXKauc=", "properties": {"ref": "https://www.belk.com/store/?StoreID=394", "@spider": "belk", "shop": "department_store", "addr:street_address": "940 Inspiration Drive", "addr:city": "Wilmington", "addr:state": "NC", "addr:postcode": "28405-4171", "addr:country": "US", "name": "Wilmington NC - Mayfaire", "phone": "+9102562115", "website": "https://www.belk.com/store/belk-wilmington-nc/?StoreID=394", "brand": "Belk", "brand:wikidata": "Q127428", "nsi_id": "belk-592fe0"}, "geometry": {"type": "Point", "coordinates": [-77.830638, 34.241223]}},
{"type": "Feature", "id": "Y_JQDWwxwNuXFzO8vRrFVvnYZ8k=", "properties": {"ref": "https://www.belk.com/store/?StoreID=13", "@spider": "belk", "shop": "department_store", "addr:street_address": "3500 Oleander Drive", "addr:city": "Wilmington", "addr:state": "NC", "addr:postcode": "28403-0811", "addr:country": "US", "name": "Wilmington NC - Independence", "phone": "+9103921440", "website": "https://www.belk.com/store/belk-wilmington-nc--wilmington/?StoreID=13", "brand": "Belk", "brand:wikidata": "Q127428", "nsi_id": "belk-592fe0"}, "geometry": {"type": "Point", "coordinates": [-77.906959, 34.215164]}},
{"type": "Feature", "id": "H4dWZ0_w9lp3NQU1a6SEewIFCf4=", "properties": {"ref": "https://www.belk.com/store/?StoreID=584", "@spider": "belk", "shop": "department_store", "addr:street_address": "821 East Blvd", "addr:city": "Williamston", "addr:state": "NC", "addr:postcode": "27892-2739", "addr:country": "US", "name": "Williamston NC", "phone": "+2527923118", "website": "https://www.belk.com/store/belk-williamston-nc/?StoreID=584", "brand": "Belk", "brand:wikidata": "Q127428", "nsi_id": "belk-592fe0"}, "geometry": {"type": "Point", "coordinates": [-77.04639, 35.850325]}},
{"type": "Feature", "id": "48LJuFFBgXeBoQ1461ekG-JRyPY=", "properties": {"ref": "https://www.belk.com/store/?StoreID=233", "@spider": "belk", "shop": "department_store", "addr:street_address": "1909 Hwy 421 North", "addr:city": "Wilkesboro", "addr:state": "NC", "addr:postcode": "28697-2281", "addr:country": "US", "name": "Wilkesboro NC", "phone": "+3368385101", "website": "https://www.belk.com/store/belk-wilkesboro-nc/?StoreID=233", "brand": "Belk", "brand:wikidata": "Q127428", "nsi_id": "belk-592fe0"}, "geometry": {"type": "Point", "coordinates": [-81.1976251, 36.1481211]}},
{"type": "Feature", "id": "Ad-cwKb2CmtH8tsfm3zvHpkEzgU=", "properties": {"ref": "https://www.belk.com/store/?StoreID=593", "@spider": "belk", "shop": "department_store", "addr:street_address": "56 Whites Crossing", "addr:city": "Whiteville", "addr:state": "NC", "addr:postcode": "28472-8947", "addr:country": "US", "name": "Whiteville NC", "phone": "+9106426179", "website": "https://www.belk.com/store/belk-whiteville-nc/?StoreID=593", "brand": "Belk", "brand:wikidata": "Q127428", "nsi_id": "belk-592fe0"}, "geometry": {"type": "Point", "coordinates": [-78.721964, 34.303132]}},
{"type": "Feature", "id": "vYm3ewXXudP_sKZDk4f2BrQ1msA=", "properties": {"ref": "https://www.belk.com/store/?StoreID=412", "@spider": "belk", "shop": "department_store", "addr:street_address": "265 Town Center Loop", "addr:city": "Waynesville", "addr:state": "NC", "addr:postcode": "28786-6242", "addr:country": "US", "name": "Waynesville NC", "phone": "+8284525117", "website": "https://www.belk.com/store/belk-waynesville-nc/?StoreID=412", "brand": "Belk", "brand:wikidata": "Q127428", "nsi_id": "belk-592fe0"}, "geometry": {"type": "Point", "coordinates": [-83.0092272, 35.4684077]}},
{"type": "Feature", "id": "ibMrZrk9JWhbOXgSRKMazpZGGVc=", "properties": {"ref": "https://www.belk.com/store/?StoreID=130", "@spider": "belk", "shop": "department_store", "addr:street_address": "981 Washington Square Mall", "addr:city": "Washington", "addr:state": "NC", "addr:postcode": "27889-3532", "addr:country": "US", "name": "Washington NC", "phone": "+2529464155", "website": "https://www.belk.com/store/belk-washington-nc/?StoreID=130", "brand": "Belk", "brand:wikidata": "Q127428", "nsi_id": "belk-592fe0"}, "geometry": {"type": "Point", "coordinates": [-77.059253, 35.559909]}},
{"type": "Feature", "id": "mtXlpqC9UkgUHYDnGtOPkxpxcmU=", "properties": {"ref": "https://www.belk.com/store/?StoreID=11", "@spider": "belk", "shop": "department_store", "addr:street_address": "1607 East Broad Street Ext", "addr:city": "Statesville", "addr:state": "NC", "addr:postcode": "28625-4303", "addr:country": "US", "name": "Statesville NC", "phone": "+7048720951", "website": "https://www.belk.com/store/belk-statesville-nc/?StoreID=11", "brand": "Belk", "brand:wikidata": "Q127428", "nsi_id": "belk-592fe0"}, "geometry": {"type": "Point", "coordinates": [-80.858662, 35.792395]}},
{"type": "Feature", "id": "30dImTlJe3E96WgeYBoHE8K9hEE=", "properties": {"ref": "https://www.belk.com/store/?StoreID=532", "@spider": "belk", "shop": "department_store", "addr:street_address": "10205 Hwy 15-501", "addr:city": "Southern Pines", "addr:state": "NC", "addr:postcode": "28387-4301", "addr:country": "US", "name": "Southern Pines NC", "phone": "+9106926088", "website": "https://www.belk.com/store/belk-southern-pines-nc/?StoreID=532", "brand": "Belk", "brand:wikidata": "Q127428", "nsi_id": "belk-592fe0"}, "geometry": {"type": "Point", "coordinates": [-79.431924, 35.179562]}},
{"type": "Feature", "id": "H5fsok-7QFbPdcd3FH5RWE2_1-0=", "properties": {"ref": "https://www.belk.com/store/?StoreID=60", "@spider": "belk", "shop": "department_store", "addr:street_address": "1231 North Bright Leaf Blvd", "addr:city": "Smithfield", "addr:state": "NC", "addr:postcode": "27577-4229", "addr:country": "US", "name": "Smithfield NC", "phone": "+9199345196", "website": "https://www.belk.com/store/belk-smithfield-nc/?StoreID=60", "brand": "Belk", "brand:wikidata": "Q127428", "nsi_id": "belk-592fe0"}, "geometry": {"type": "Point", "coordinates": [-78.3143422, 35.521554]}},
{"type": "Feature", "id": "A80qOptLef9_J7r5XGiQESKlHA8=", "properties": {"ref": "https://www.belk.com/store/?StoreID=80", "@spider": "belk", "shop": "department_store", "addr:street_address": "2001-1 E. Dixon Blvd", "addr:city": "Shelby", "addr:state": "NC", "addr:postcode": "28152-6956", "addr:country": "US", "name": "Shelby NC", "phone": "+7044826741", "website": "https://www.belk.com/store/belk-shelby-nc/?StoreID=80", "brand": "Belk", "brand:wikidata": "Q127428", "nsi_id": "belk-592fe0"}, "geometry": {"type": "Point", "coordinates": [-81.4842467, 35.2700093]}},
{"type": "Feature", "id": "wST4C7FrQbZn5qLrk6Eo-w-_6Y0=", "properties": {"ref": "https://www.belk.com/store/?StoreID=263", "@spider": "belk", "shop": "department_store", "addr:street_address": "130 Shallotte Crossing Pkwy-Suite 1", "addr:city": "Shallotte", "addr:state": "NC", "addr:postcode": "28470-1792", "addr:country": "US", "name": "Shallotte NC", "phone": "+9107550939", "website": "https://www.belk.com/store/belk-shallotte-nc/?StoreID=263", "brand": "Belk", "brand:wikidata": "Q127428", "nsi_id": "belk-592fe0"}, "geometry": {"type": "Point", "coordinates": [-78.3743056, 33.9779337]}},
{"type": "Feature", "id": "oFaAL2DHbYCrRYQFIZgpusqkBOA=", "properties": {"ref": "https://www.belk.com/store/?StoreID=8", "@spider": "belk", "shop": "department_store", "addr:street_address": "1065 Spring Lane", "addr:city": "Sanford", "addr:state": "NC", "addr:postcode": "27330-3459", "addr:country": "US", "name": "Sanford NC", "phone": "+9197744428", "website": "https://www.belk.com/store/belk-sanford-nc/?StoreID=8", "brand": "Belk", "brand:wikidata": "Q127428", "nsi_id": "belk-592fe0"}, "geometry": {"type": "Point", "coordinates": [-79.201938, 35.485048]}},
{"type": "Feature", "id": "mkby2HW6_I7_x7dKHmbyaWveBJo=", "properties": {"ref": "https://www.belk.com/store/?StoreID=416", "@spider": "belk", "shop": "department_store", "addr:street_address": "1455 Klumac Road", "addr:city": "Salisbury", "addr:state": "NC", "addr:postcode": "28144-9087", "addr:country": "US", "name": "Salisbury NC", "phone": "+7046365241", "website": "https://www.belk.com/store/belk-salisbury-nc/?StoreID=416", "brand": "Belk", "brand:wikidata": "Q127428", "nsi_id": "belk-592fe0"}, "geometry": {"type": "Point", "coordinates": [-80.4906005, 35.6378935]}},
{"type": "Feature", "id": "DYfgq4PwEca3gNp0dPLLrsznNgg=", "properties": {"ref": "https://www.belk.com/store/?StoreID=28", "@spider": "belk", "shop": "department_store", "addr:street_address": "1100 N Wesleyan Blvd Suite 9101", "addr:city": "Rocky Mount", "addr:state": "NC", "addr:postcode": "27804-1829", "addr:country": "US", "name": "Rocky Mount NC", "phone": "+2529772355", "website": "https://www.belk.com/store/belk-rocky-mount-nc/?StoreID=28", "brand": "Belk", "brand:wikidata": "Q127428", "nsi_id": "belk-592fe0"}, "geometry": {"type": "Point", "coordinates": [-77.807273, 35.973653]}},
{"type": "Feature", "id": "vuihqmwpyPkRQmhwb7FbmlUPN8A=", "properties": {"ref": "https://www.belk.com/store/?StoreID=14", "@spider": "belk", "shop": "department_store", "addr:street_address": "1305 E Broad Ave Ste 8", "addr:city": "Rockingham", "addr:state": "NC", "addr:postcode": "28379-4456", "addr:country": "US", "name": "Rockingham NC", "phone": "+9109972221", "website": "https://www.belk.com/store/belk-rockingham-nc/?StoreID=14", "brand": "Belk", "brand:wikidata": "Q127428", "nsi_id": "belk-592fe0"}, "geometry": {"type": "Point", "coordinates": [-79.747602, 34.9226988]}},
{"type": "Feature", "id": "3QtIMd4A6aYJMnWJeEiEdka8IH8=", "properties": {"ref": "https://www.belk.com/store/?StoreID=360", "@spider": "belk", "shop": "department_store", "addr:street_address": "337 Premier Blvd", "addr:city": "Roanoke Rapids", "addr:state": "NC", "addr:postcode": "27870-5083", "addr:country": "US", "name": "Roanoke Rapids NC", "phone": "+2525192127", "website": "https://www.belk.com/store/belk-roanoke-rapids-nc/?StoreID=360", "brand": "Belk", "brand:wikidata": "Q127428", "nsi_id": "belk-592fe0"}, "geometry": {"type": "Point", "coordinates": [-77.635693, 36.424798]}},
{"type": "Feature", "id": "3pOpQmgnrmzwvsFbuOYx7NwfgdI=", "properties": {"ref": "https://www.belk.com/store/?StoreID=79", "@spider": "belk", "shop": "department_store", "addr:street_address": "1450 Garner Station Blvd", "addr:city": "Raleigh", "addr:state": "NC", "addr:postcode": "27603-3600", "addr:country": "US", "name": "Raleigh NC - Garner", "phone": "+9197720105", "website": "https://www.belk.com/store/belk-raleigh-nc--garner/?StoreID=79", "brand": "Belk", "brand:wikidata": "Q127428", "nsi_id": "belk-592fe0"}, "geometry": {"type": "Point", "coordinates": [-78.652989, 35.725947]}},
{"type": "Feature", "id": "_3x2xhaBBYNos2e9fAFM1n80LHs=", "properties": {"ref": "https://www.belk.com/store/?StoreID=31", "@spider": "belk", "shop": "department_store", "addr:street_address": "1601 South Scales Street", "addr:city": "Reidsville", "addr:state": "NC", "addr:postcode": "27320-5646", "addr:country": "US", "name": "Reidsville NC", "phone": "+3363423321", "website": "https://www.belk.com/store/belk-reidsville-nc/?StoreID=31", "brand": "Belk", "brand:wikidata": "Q127428", "nsi_id": "belk-592fe0"}, "geometry": {"type": "Point", "coordinates": [-79.661002, 36.340145]}},
{"type": "Feature", "id": "tqJ8jt1GKvE3yyC8k55ladNCZvU=", "properties": {"ref": "https://www.belk.com/store/?StoreID=458", "@spider": "belk", "shop": "department_store", "addr:street_address": "4325 Glenwood Avenue", "addr:city": "Raleigh", "addr:state": "NC", "addr:postcode": "27612-4501", "addr:country": "US", "name": "Raleigh NC - Crabtree", "phone": "+9197827010", "website": "https://www.belk.com/store/belk-raleigh-nc--crabtree/?StoreID=458", "brand": "Belk", "brand:wikidata": "Q127428", "nsi_id": "belk-592fe0"}, "geometry": {"type": "Point", "coordinates": [-78.678223, 35.839213]}},
{"type": "Feature", "id": "avDAzQQoSV83Qmc72dlZMjbyhv8=", "properties": {"ref": "https://www.belk.com/store/?StoreID=243", "@spider": "belk", "shop": "department_store", "addr:street_address": "7500 Old Wake Forest Road", "addr:city": "Raleigh", "addr:state": "NC", "addr:postcode": "27616-3224", "addr:country": "US", "name": "Raleigh NC - Triangle", "phone": "+9197922400", "website": "https://www.belk.com/store/belk-raleigh-nc--triangle/?StoreID=243", "brand": "Belk", "brand:wikidata": "Q127428", "nsi_id": "belk-592fe0"}, "geometry": {"type": "Point", "coordinates": [-78.575651, 35.867667]}},
{"type": "Feature", "id": "2FhzpTYN90572p7yY2kAanNaAas=", "properties": {"ref": "https://www.belk.com/store/?StoreID=587", "@spider": "belk", "shop": "department_store", "addr:street_address": "500 Forest Gate Drive", "addr:city": "Pisgah Forest", "addr:state": "NC", "addr:postcode": "28768-7931", "addr:country": "US", "name": "Brevard NC", "phone": "+8288842931", "website": "https://www.belk.com/store/belk-brevard-nc/?StoreID=587", "brand": "Belk", "brand:wikidata": "Q127428", "nsi_id": "belk-592fe0"}, "geometry": {"type": "Point", "coordinates": [-82.703161, 35.277753]}},
{"type": "Feature", "id": "rhEMhiOEGi_vxuPDxefTfuKDSi0=", "properties": {"ref": "https://www.belk.com/store/?StoreID=553", "@spider": "belk", "shop": "department_store", "addr:street_address": "11009 Carolina Place Parkway", "addr:city": "Pineville", "addr:state": "NC", "addr:postcode": "28134-8370", "addr:country": "US", "name": "Pineville NC", "phone": "+7045439888", "website": "https://www.belk.com/store/belk-pineville-nc/?StoreID=553", "brand": "Belk", "brand:wikidata": "Q127428", "nsi_id": "belk-592fe0"}, "geometry": {"type": "Point", "coordinates": [-80.877038, 35.083915]}},
{"type": "Feature", "id": "xZvo2f-0AmwBGBknrToZ5qWLXIc=", "properties": {"ref": "https://www.belk.com/store/?StoreID=85", "@spider": "belk", "shop": "department_store", "addr:street_address": "3100 Martin Luther King Jr Blvd", "addr:city": "New Bern", "addr:state": "NC", "addr:postcode": "28562-5214", "addr:country": "US", "name": "New Bern NC", "phone": "+2526331136", "website": "https://www.belk.com/store/belk-new-bern-nc/?StoreID=85", "brand": "Belk", "brand:wikidata": "Q127428", "nsi_id": "belk-592fe0"}, "geometry": {"type": "Point", "coordinates": [-77.0884528, 35.1047488]}},
{"type": "Feature", "id": "ATtn36DsNS3b2c4DV2Sj3zPk5A8=", "properties": {"ref": "https://www.belk.com/store/?StoreID=42", "@spider": "belk", "shop": "department_store", "addr:street_address": "70 Mayberry Mall", "addr:city": "Mount Airy", "addr:state": "NC", "addr:postcode": "27030-5632", "addr:country": "US", "name": "Mount Airy NC", "phone": "+3367892111", "website": "https://www.belk.com/store/belk-mount-airy-nc/?StoreID=42", "brand": "Belk", "brand:wikidata": "Q127428", "nsi_id": "belk-592fe0"}, "geometry": {"type": "Point", "coordinates": [-80.621531, 36.505614]}},
{"type": "Feature", "id": "j7aYRHIZuvlqgtcgads3aFoOHZA=", "properties": {"ref": "https://www.belk.com/store/?StoreID=414", "@spider": "belk", "shop": "department_store", "addr:street_address": "C10-2 Morganton Heights Blvd", "addr:city": "Morganton", "addr:state": "NC", "addr:postcode": "28655-5213", "addr:country": "US", "name": "Morganton NC", "phone": "+8284373681", "website": "https://www.belk.com/store/belk-morganton-nc--morganton/?StoreID=414", "brand": "Belk", "brand:wikidata": "Q127428", "nsi_id": "belk-592fe0"}, "geometry": {"type": "Point", "coordinates": [-81.699902, 35.726907]}},
{"type": "Feature", "id": "fvky-Y8nXSSLPG3nAtxEkSt3hVE=", "properties": {"ref": "https://www.belk.com/store/?StoreID=283", "@spider": "belk", "shop": "department_store", "addr:street_address": "5167 Hwy 70 West Ste. 10", "addr:city": "Morehead City", "addr:state": "NC", "addr:postcode": "28557-2502", "addr:country": "US", "name": "Morehead City NC", "phone": "+2527270980", "website": "https://www.belk.com/store/belk-morehead-city-nc/?StoreID=283", "brand": "Belk", "brand:wikidata": "Q127428", "nsi_id": "belk-592fe0"}, "geometry": {"type": "Point", "coordinates": [-76.806361, 34.737028]}},
{"type": "Feature", "id": "86U35Wt-e1FBc-2y0iVLTcyfD8M=", "properties": {"ref": "https://www.belk.com/store/?StoreID=1", "@spider": "belk", "shop": "department_store", "addr:street_address": "2115 West Roosevelt Blvd", "addr:city": "Monroe", "addr:state": "NC", "addr:postcode": "28110-2712", "addr:country": "US", "name": "Monroe NC", "phone": "+7042896551", "website": "https://www.belk.com/store/belk-monroe-nc/?StoreID=1", "brand": "Belk", "brand:wikidata": "Q127428", "nsi_id": "belk-592fe0"}, "geometry": {"type": "Point", "coordinates": [-80.56083, 35.005353]}},
{"type": "Feature", "id": "_8Fe0gWUtIGWluwxRSrkG3zX3qw=", "properties": {"ref": "https://www.belk.com/store/?StoreID=580", "@spider": "belk", "shop": "department_store", "addr:street_address": "350 West Plaza Drive", "addr:city": "Mooresville", "addr:state": "NC", "addr:postcode": "28117-6952", "addr:country": "US", "name": "Mooresville NC", "phone": "+7046642593", "website": "https://www.belk.com/store/belk-mooresville-nc/?StoreID=580", "brand": "Belk", "brand:wikidata": "Q127428", "nsi_id": "belk-592fe0"}, "geometry": {"type": "Point", "coordinates": [-80.854182, 35.59405]}},
{"type": "Feature", "id": "KLcal-iRAqCBRVYeiWeDoSvwMVQ=", "properties": {"ref": "https://www.belk.com/store/?StoreID=120", "@spider": "belk", "shop": "department_store", "addr:street_address": "2750 N. Elm Street", "addr:city": "Lumberton", "addr:state": "NC", "addr:postcode": "28358-2750", "addr:country": "US", "name": "Lumberton NC", "phone": "+9107393277", "website": "https://www.belk.com/store/belk-lumberton-nc/?StoreID=120", "brand": "Belk", "brand:wikidata": "Q127428", "nsi_id": "belk-592fe0"}, "geometry": {"type": "Point", "coordinates": [-79.006635, 34.63652]}},
{"type": "Feature", "id": "9A4XsHPRt9uyyN7X7rM_v8g03k0=", "properties": {"ref": "https://www.belk.com/store/?StoreID=22", "@spider": "belk", "shop": "department_store", "addr:street_address": "415 N. Generals Blvd.", "addr:city": "Lincolnton", "addr:state": "NC", "addr:postcode": "28092-3559", "addr:country": "US", "name": "Lincolnton NC", "phone": "+7047350497", "website": "https://www.belk.com/store/belk-lincolnton-nc/?StoreID=22", "brand": "Belk", "brand:wikidata": "Q127428", "nsi_id": "belk-592fe0"}, "geometry": {"type": "Point", "coordinates": [-81.24738, 35.489527]}},
{"type": "Feature", "id": "VHLDnNbRUdP7rPO_FBnTt5ARFNU=", "properties": {"ref": "https://www.belk.com/store/?StoreID=571", "@spider": "belk", "shop": "department_store", "addr:street_address": "69 Plaza Parkway", "addr:city": "Lexington", "addr:state": "NC", "addr:postcode": "27292-5366", "addr:country": "US", "name": "Lexington NC", "phone": "+3362493126", "website": "https://www.belk.com/store/belk-lexington-nc/?StoreID=571", "brand": "Belk", "brand:wikidata": "Q127428", "nsi_id": "belk-592fe0"}, "geometry": {"type": "Point", "coordinates": [-80.2527857, 35.7838135]}},
{"type": "Feature", "id": "B-WH6aGLH7TpteFfkA4fFi1zun8=", "properties": {"ref": "https://www.belk.com/store/?StoreID=319", "@spider": "belk", "shop": "department_store", "addr:street_address": "350 Blowing Rock Road Ne", "addr:city": "Lenoir", "addr:state": "NC", "addr:postcode": "28645-4406", "addr:country": "US", "name": "Lenoir NC", "phone": "+8287542441", "website": "https://www.belk.com/store/belk-lenoir-nc/?StoreID=319", "brand": "Belk", "brand:wikidata": "Q127428", "nsi_id": "belk-592fe0"}, "geometry": {"type": "Point", "coordinates": [-81.521823, 35.920721]}},
{"type": "Feature", "id": "sjeyVPrHy8jtwK6gY12Sxnvgzn4=", "properties": {"ref": "https://www.belk.com/store/?StoreID=565", "@spider": "belk", "shop": "department_store", "addr:street_address": "1339 Scotland Crossing Drive", "addr:city": "Laurinburg", "addr:state": "NC", "addr:postcode": "28352-5414", "addr:country": "US", "name": "Laurinburg NC", "phone": "+9102762431", "website": "https://www.belk.com/store/belk-laurinburg-nc/?StoreID=565", "brand": "Belk", "brand:wikidata": "Q127428", "nsi_id": "belk-592fe0"}, "geometry": {"type": "Point", "coordinates": [-79.48442, 34.756858]}},
{"type": "Feature", "id": "wSnRVMgZXENEIE5uBIyteAeIzlo=", "properties": {"ref": "https://www.belk.com/store/?StoreID=449", "@spider": "belk", "shop": "department_store", "addr:street_address": "800 Hardee Road", "addr:city": "Kinston", "addr:state": "NC", "addr:postcode": "28504-3305", "addr:country": "US", "name": "Kinston NC", "phone": "+2525277181", "website": "https://www.belk.com/store/belk-kinston-nc/?StoreID=449", "brand": "Belk", "brand:wikidata": "Q127428", "nsi_id": "belk-592fe0"}, "geometry": {"type": "Point", "coordinates": [-77.608712, 35.273571]}},
{"type": "Feature", "id": "BdncLkX7PNm3JK4NZK2UAJf7f_A=", "properties": {"ref": "https://www.belk.com/store/?StoreID=555", "@spider": "belk", "shop": "department_store", "addr:street_address": "1732 N Croatan Hwy", "addr:city": "Kill Devil Hills", "addr:state": "NC", "addr:postcode": "27948-9259", "addr:country": "US", "name": "Kill Devil Hills NC", "phone": "+2524802355", "website": "https://www.belk.com/store/belk-kill-devil-hills-nc/?StoreID=555", "brand": "Belk", "brand:wikidata": "Q127428", "nsi_id": "belk-592fe0"}, "geometry": {"type": "Point", "coordinates": [-75.6589926166242, 36.0099569032976]}},
{"type": "Feature", "id": "2BafOU8LMiyJyOxg73Hsxt_p3fw=", "properties": {"ref": "https://www.belk.com/store/?StoreID=294", "@spider": "belk", "shop": "department_store", "addr:street_address": "300 Jacksonville Mall", "addr:city": "Jacksonville", "addr:state": "NC", "addr:postcode": "28546-7350", "addr:country": "US", "name": "Jacksonville NC", "phone": "+9103538490", "website": "https://www.belk.com/store/belk-jacksonville-nc/?StoreID=294", "brand": "Belk", "brand:wikidata": "Q127428", "nsi_id": "belk-592fe0"}, "geometry": {"type": "Point", "coordinates": [-77.38054, 34.763904]}},
{"type": "Feature", "id": "Jljl6J35Ih1I-NEI0VzClppiDT8=", "properties": {"ref": "https://www.belk.com/store/?StoreID=424", "@spider": "belk", "shop": "department_store", "addr:street_address": "4135 Brian Jordan Place", "addr:city": "High Point", "addr:state": "NC", "addr:postcode": "27265-8369", "addr:country": "US", "name": "High Point NC", "phone": "+3368848512", "website": "https://www.belk.com/store/belk-high-point-nc/?StoreID=424", "brand": "Belk", "brand:wikidata": "Q127428", "nsi_id": "belk-592fe0"}, "geometry": {"type": "Point", "coordinates": [-79.9550172, 36.0348521]}},
{"type": "Feature", "id": "PDLOdPiV3tGfuHxbg27vRQKs43o=", "properties": {"ref": "https://www.belk.com/store/?StoreID=26", "@spider": "belk", "shop": "department_store", "addr:street_address": "1980 Hwy. 70 S.E.", "addr:city": "Hickory", "addr:state": "NC", "addr:postcode": "28602-5158", "addr:country": "US", "name": "Hickory NC", "phone": "+8283227010", "website": "https://www.belk.com/store/belk-hickory-nc/?StoreID=26", "brand": "Belk", "brand:wikidata": "Q127428", "nsi_id": "belk-592fe0"}, "geometry": {"type": "Point", "coordinates": [-81.303699, 35.703365]}},
{"type": "Feature", "id": "ODpR9m4VA2g_DSYq1Pfifcg7dUY=", "properties": {"ref": "https://www.belk.com/store/?StoreID=165", "@spider": "belk", "shop": "department_store", "addr:street_address": "1800 Four Seasons Blvd", "addr:city": "Hendersonville", "addr:state": "NC", "addr:postcode": "28792-2891", "addr:country": "US", "name": "Hendersonville NC", "phone": "+8286923236", "website": "https://www.belk.com/store/belk-hendorsonville-nc/?StoreID=165", "brand": "Belk", "brand:wikidata": "Q127428", "nsi_id": "belk-592fe0"}, "geometry": {"type": "Point", "coordinates": [-82.4458654, 35.3330645]}},
{"type": "Feature", "id": "qIWhwtAHJfWcEbzzR026F7SezNg=", "properties": {"ref": "https://www.belk.com/store/?StoreID=598", "@spider": "belk", "shop": "department_store", "addr:street_address": "350 North Cooper Drive", "addr:city": "Henderson", "addr:state": "NC", "addr:postcode": "27536-4018", "addr:country": "US", "name": "Henderson NC", "phone": "+2524921121", "website": "https://www.belk.com/store/belk-henderson-nc/?StoreID=598", "brand": "Belk", "brand:wikidata": "Q127428", "nsi_id": "belk-592fe0"}, "geometry": {"type": "Point", "coordinates": [-78.444791, 36.332521]}},
{"type": "Feature", "id": "kFqFNYRlcN8EiZPwRLzRC0Z1YEg=", "properties": {"ref": "https://www.belk.com/store/?StoreID=552", "@spider": "belk", "shop": "department_store", "addr:street_address": "714 Greenville Blvd. SE", "addr:city": "Greenville", "addr:state": "NC", "addr:postcode": "27858-5101", "addr:country": "US", "name": "Greenville NC", "phone": "+2523558000", "website": "https://www.belk.com/store/belk-greenville-nc/?StoreID=552", "brand": "Belk", "brand:wikidata": "Q127428", "nsi_id": "belk-592fe0"}, "geometry": {"type": "Point", "coordinates": [-77.366787, 35.586107]}},
{"type": "Feature", "id": "teCq-PBTGG25IVYtRSCZ4lHTNhg=", "properties": {"ref": "https://www.belk.com/store/?StoreID=25", "@spider": "belk", "shop": "department_store", "addr:street_address": "600 Friendly Center Road", "addr:city": "Greensboro", "addr:state": "NC", "addr:postcode": "27408-7804", "addr:country": "US", "name": "Greensboro NC", "phone": "+3362920960", "website": "https://www.belk.com/store/belk-greensboro-nc--friendly-center/?StoreID=25", "brand": "Belk", "brand:wikidata": "Q127428", "nsi_id": "belk-592fe0"}, "geometry": {"type": "Point", "coordinates": [-79.8306834, 36.0837152]}},
{"type": "Feature", "id": "xg9zUgGggr5qO8FJVC-HRqROxCo=", "properties": {"ref": "https://www.belk.com/store/?StoreID=83", "@spider": "belk", "shop": "department_store", "addr:street_address": "617 N Berkeley Blvd", "addr:city": "Goldsboro", "addr:state": "NC", "addr:postcode": "27534-3443", "addr:country": "US", "name": "Goldsboro NC", "phone": "+9197785050", "website": "https://www.belk.com/store/belk-goldsboro-nc/?StoreID=83", "brand": "Belk", "brand:wikidata": "Q127428", "nsi_id": "belk-592fe0"}, "geometry": {"type": "Point", "coordinates": [-77.9436707, 35.3774437]}},
{"type": "Feature", "id": "rtL7uMvblpHj-3mBD9D_gxDbugc=", "properties": {"ref": "https://www.belk.com/store/?StoreID=6", "@spider": "belk", "shop": "department_store", "addr:street_address": "254 North New Hope Road", "addr:city": "Gastonia", "addr:state": "NC", "addr:postcode": "28054-0047", "addr:country": "US", "name": "Gastonia NC", "phone": "+7048673671", "website": "https://www.belk.com/store/belk-gastonia-nc/?StoreID=6", "brand": "Belk", "brand:wikidata": "Q127428", "nsi_id": "belk-592fe0"}, "geometry": {"type": "Point", "coordinates": [-81.14684, 35.265917]}},
{"type": "Feature", "id": "noM495LXD9HmyHRtALnXTsOcyW8=", "properties": {"ref": "https://www.belk.com/store/?StoreID=122", "@spider": "belk", "shop": "department_store", "addr:street_address": "2270 College Ave.", "addr:city": "Forest City", "addr:state": "NC", "addr:postcode": "28043-2403", "addr:country": "US", "name": "Forest City NC", "phone": "+8282456441", "website": "https://www.belk.com/store/belk-forest-city-nc/?StoreID=122", "brand": "Belk", "brand:wikidata": "Q127428", "nsi_id": "belk-592fe0"}, "geometry": {"type": "Point", "coordinates": [-81.890482, 35.331613]}},
{"type": "Feature", "id": "3r0YQRZDfd2El2M494p9GMg-tS8=", "properties": {"ref": "https://www.belk.com/store/?StoreID=476", "@spider": "belk", "shop": "department_store", "addr:street_address": "200 Cross Creek Mall", "addr:city": "Fayetteville", "addr:state": "NC", "addr:postcode": "28303-7240", "addr:country": "US", "name": "Fayetteville NC", "phone": "+9108641111", "website": "https://www.belk.com/store/belk-fayetteville-nc--cross-creek/?StoreID=476", "brand": "Belk", "brand:wikidata": "Q127428", "nsi_id": "belk-592fe0"}, "geometry": {"type": "Point", "coordinates": [-78.959329, 35.071644]}},
{"type": "Feature", "id": "xKs5919o_0I5FslTIpunOFX3k2g=", "properties": {"ref": "https://www.belk.com/store/?StoreID=564", "@spider": "belk", "shop": "department_store", "addr:street_address": "2125 N. Bridge Street", "addr:city": "Elkin", "addr:state": "NC", "addr:postcode": "28621-2134", "addr:country": "US", "name": "Elkin NC", "phone": "+3368354540", "website": "https://www.belk.com/store/belk-elkin-nc/?StoreID=564", "brand": "Belk", "brand:wikidata": "Q127428", "nsi_id": "belk-592fe0"}, "geometry": {"type": "Point", "coordinates": [-80.855553, 36.28593]}},
{"type": "Feature", "id": "7EhnFUo1RkgAlUqvUe8spV4WBL0=", "properties": {"ref": "https://www.belk.com/store/?StoreID=108", "@spider": "belk", "shop": "department_store", "addr:street_address": "1409 W Ehringhaus Street", "addr:city": "Elizabeth City", "addr:state": "NC", "addr:postcode": "27909-4514", "addr:country": "US", "name": "Elizabeth City NC", "phone": "+2523352957", "website": "https://www.belk.com/store/belk-elizabeth-city-nc/?StoreID=108", "brand": "Belk", "brand:wikidata": "Q127428", "nsi_id": "belk-592fe0"}, "geometry": {"type": "Point", "coordinates": [-76.2396508, 36.2929021]}},
{"type": "Feature", "id": "ruAjfyqAwNKHK8cQgqpIxrDesWs=", "properties": {"ref": "https://www.belk.com/store/?StoreID=242", "@spider": "belk", "shop": "department_store", "addr:street_address": "6910 Fayetteville Road, S 700", "addr:city": "Durham", "addr:state": "NC", "addr:postcode": "27713-8722", "addr:country": "US", "name": "Durham NC", "phone": "+9193618868", "website": "https://www.belk.com/store/belk-durham-nc/?StoreID=242", "brand": "Belk", "brand:wikidata": "Q127428", "nsi_id": "belk-592fe0"}, "geometry": {"type": "Point", "coordinates": [-78.9418208, 35.9026475]}},
{"type": "Feature", "id": "X0TX4TDExZPEFh_CAp1GnZx1lxI=", "properties": {"ref": "https://www.belk.com/store/?StoreID=91", "@spider": "belk", "shop": "department_store", "addr:street_address": "2140 W Cumberland St", "addr:city": "Dunn", "addr:state": "NC", "addr:postcode": "28334-4446", "addr:country": "US", "name": "Dunn NC", "phone": "+9108929131", "website": "https://www.belk.com/store/belk-dunn-nc/?StoreID=91", "brand": "Belk", "brand:wikidata": "Q127428", "nsi_id": "belk-592fe0"}, "geometry": {"type": "Point", "coordinates": [-78.633893, 35.322117]}},
{"type": "Feature", "id": "wVO3LvSbeiOPpFZy6EUHWFH2bCA=", "properties": {"ref": "https://www.belk.com/store/?StoreID=10", "@spider": "belk", "shop": "department_store", "addr:street_address": "1480 Concord Parkway N.", "addr:city": "Concord", "addr:state": "NC", "addr:postcode": "28025-2933", "addr:country": "US", "name": "Concord NC", "phone": "+7047867111", "website": "https://www.belk.com/store/belk-concord-nc/?StoreID=10", "brand": "Belk", "brand:wikidata": "Q127428", "nsi_id": "belk-592fe0"}, "geometry": {"type": "Point", "coordinates": [-80.6030534, 35.4412811]}},
{"type": "Feature", "id": "Ajpihk5VTiX1atmy63hbHST7LZ8=", "properties": {"ref": "https://www.belk.com/store/?StoreID=86", "@spider": "belk", "shop": "department_store", "addr:street_address": "1401 Sunset Avenue", "addr:city": "Clinton", "addr:state": "NC", "addr:postcode": "28328-3825", "addr:country": "US", "name": "Clinton NC", "phone": "+9105927953", "website": "https://www.belk.com/store/belk-clinton-nc/?StoreID=86", "brand": "Belk", "brand:wikidata": "Q127428", "nsi_id": "belk-592fe0"}, "geometry": {"type": "Point", "coordinates": [-78.349769, 34.988744]}},
{"type": "Feature", "id": "6iErmXQsxu_iMnbvm2ZmXkMWusk=", "properties": {"ref": "https://www.belk.com/store/?StoreID=452", "@spider": "belk", "shop": "department_store", "addr:street_address": "4400 Sharon Road", "addr:city": "Charlotte", "addr:state": "NC", "addr:postcode": "28211-3525", "addr:country": "US", "name": "Charlotte NC - Southpark", "phone": "+7043644251", "website": "https://www.belk.com/store/belk-charlotte-nc--southpark/?StoreID=452", "brand": "Belk", "brand:wikidata": "Q127428", "nsi_id": "belk-592fe0"}, "geometry": {"type": "Point", "coordinates": [-80.831603, 35.150885]}},
{"type": "Feature", "id": "LvE62Zsh02_tcpDLSBzfcoqmKSE=", "properties": {"ref": "https://www.belk.com/store/?StoreID=329", "@spider": "belk", "shop": "department_store", "addr:street_address": "7115 Northlake Mall Drive", "addr:city": "Charlotte", "addr:state": "NC", "addr:postcode": "28216-1938", "addr:country": "US", "name": "Charlotte NC - Northlake", "phone": "+7045982771", "website": "https://www.belk.com/store/belk-charlotte-nc--northlake/?StoreID=329", "brand": "Belk", "brand:wikidata": "Q127428", "nsi_id": "belk-592fe0"}, "geometry": {"type": "Point", "coordinates": [-80.848923, 35.352039]}},
{"type": "Feature", "id": "K2RM4MgFkaeWvX0ektasIKzJxFs=", "properties": {"ref": "https://www.belk.com/store/?StoreID=386", "@spider": "belk", "shop": "department_store", "addr:street_address": "3187 Watermill Drive", "addr:city": "Burlington", "addr:state": "NC", "addr:postcode": "27215-8237", "addr:country": "US", "name": "Burlington NC", "phone": "+3365848282", "website": "https://www.belk.com/store/belk-burlington-nc/?StoreID=386", "brand": "Belk", "brand:wikidata": "Q127428", "nsi_id": "belk-592fe0"}, "geometry": {"type": "Point", "coordinates": [-79.5062702, 36.0703006]}},
{"type": "Feature", "id": "CirYGsllhzTzVNYrvrYmpwposRE=", "properties": {"ref": "https://www.belk.com/store/?StoreID=115", "@spider": "belk", "shop": "department_store", "addr:street_address": "1180 Blowing Rock Road E01", "addr:city": "Boone", "addr:state": "NC", "addr:postcode": "28607-6135", "addr:country": "US", "name": "Boone NC", "phone": "+8282643886", "website": "https://www.belk.com/store/belk-boone-nc/?StoreID=115", "brand": "Belk", "brand:wikidata": "Q127428", "nsi_id": "belk-592fe0"}, "geometry": {"type": "Point", "coordinates": [-81.66882, 36.202107]}},
{"type": "Feature", "id": "lQNChKtUondn7slCBfj_16RtpaQ=", "properties": {"ref": "https://www.belk.com/store/?StoreID=112", "@spider": "belk", "shop": "department_store", "addr:street_address": "5 South Tunnel Road", "addr:city": "Asheville", "addr:state": "NC", "addr:postcode": "28805-2218", "addr:country": "US", "name": "Asheville NC", "phone": "+8282984970", "website": "https://www.belk.com/store/belk-asheville-nc/?StoreID=112", "brand": "Belk", "brand:wikidata": "Q127428", "nsi_id": "belk-592fe0"}, "geometry": {"type": "Point", "coordinates": [-82.5258245, 35.580341]}},
{"type": "Feature", "id": "YTcLJDlY5wEHVZdy7nsu58c5PT0=", "properties": {"ref": "https://www.belk.com/store/?StoreID=61", "@spider": "belk", "shop": "department_store", "addr:street_address": "100 Randolph Mall Hwy 64 East", "addr:city": "Asheboro", "addr:state": "NC", "addr:postcode": "27203-4978", "addr:country": "US", "name": "Asheboro NC", "phone": "+3366299161", "website": "https://www.belk.com/store/belk-asheboro-nc/?StoreID=61", "brand": "Belk", "brand:wikidata": "Q127428", "nsi_id": "belk-592fe0"}, "geometry": {"type": "Point", "coordinates": [-79.7880551, 35.7012785]}},
{"type": "Feature", "id": "p1OcIGwOvrYGKwMaaUU7gc0jjqM=", "properties": {"ref": "https://www.belk.com/store/?StoreID=18", "@spider": "belk", "shop": "department_store", "addr:street_address": "Highway 24/27 Bypass", "addr:city": "Albemarle", "addr:state": "NC", "addr:postcode": "28001-5372", "addr:country": "US", "name": "Albemarle NC", "phone": "+7049831178", "website": "https://www.belk.com/store/belk-albemarle-nc/?StoreID=18", "brand": "Belk", "brand:wikidata": "Q127428", "nsi_id": "belk-592fe0"}, "geometry": {"type": "Point", "coordinates": [-80.165144, 35.347276]}},
{"type": "Feature", "id": "LENPc9MF55kgKyXw_9yy1fulLuo=", "properties": {"ref": "https://www.belk.com/store/?StoreID=589", "@spider": "belk", "shop": "department_store", "addr:street_address": "1474 East Memorial Drive", "addr:city": "Ahoskie", "addr:state": "NC", "addr:postcode": "27910-3926", "addr:country": "US", "name": "Ahoskie NC", "phone": "+2523323176", "website": "https://www.belk.com/store/belk-ahoskie-nc/?StoreID=589", "brand": "Belk", "brand:wikidata": "Q127428", "nsi_id": "belk-592fe0"}, "geometry": {"type": "Point", "coordinates": [-76.9733235, 36.2715594]}},
{"type": "Feature", "id": "qrFo7Pn4PcDPCOUKfmZgulFNFik=", "properties": {"ref": "https://www.belk.com/store/?StoreID=670", "@spider": "belk", "shop": "department_store", "addr:street_address": "1000 Turtle Creek Drive, Suite A1", "addr:city": "Hattiesburg", "addr:state": "MS", "addr:postcode": "39402-1189", "addr:country": "US", "name": "Hattiesburg MS", "phone": "+6012610016", "website": "https://www.belk.com/store/belk-hattiesburg-ms/?StoreID=670", "brand": "Belk", "brand:wikidata": "Q127428", "nsi_id": "belk-592fe0"}, "geometry": {"type": "Point", "coordinates": [-89.375328, 31.326801]}},
{"type": "Feature", "id": "43YTqDuWB8CN-gCbnxCqGncpSDI=", "properties": {"ref": "https://www.belk.com/store/?StoreID=675", "@spider": "belk", "shop": "department_store", "addr:street_address": "2031 Highway 45 North", "addr:city": "Columbus", "addr:state": "MS", "addr:postcode": "39705-2227", "addr:country": "US", "name": "Columbus MS", "phone": "+6622414443", "website": "https://www.belk.com/store/belk-columbus-ms/?StoreID=675", "brand": "Belk", "brand:wikidata": "Q127428", "nsi_id": "belk-592fe0"}, "geometry": {"type": "Point", "coordinates": [-88.43829, 33.524081]}},
{"type": "Feature", "id": "HmiJHw0UwhwrWH1hU45Ud6Agyao=", "properties": {"ref": "https://www.belk.com/store/?StoreID=351", "@spider": "belk", "shop": "department_store", "addr:street_address": "5 Branson Landing", "addr:city": "Branson", "addr:state": "MO", "addr:postcode": "65616-2390", "addr:country": "US", "name": "Branson MO", "phone": "+4172393314", "website": "https://www.belk.com/store/belk-branson-mo/?StoreID=351", "brand": "Belk", "brand:wikidata": "Q127428", "nsi_id": "belk-592fe0"}, "geometry": {"type": "Point", "coordinates": [-93.215242, 36.646853]}},
{"type": "Feature", "id": "RqnYe9kMnXxxB7MsfTuHwxkys14=", "properties": {"ref": "https://www.belk.com/store/?StoreID=521", "@spider": "belk", "shop": "department_store", "addr:street_address": "400 North Center Street", "addr:city": "Westminster", "addr:state": "MD", "addr:postcode": "21157-5141", "addr:country": "US", "name": "Westminster MD", "phone": "+4108481200", "website": "https://www.belk.com/store/belk-westminster-md/?StoreID=521", "brand": "Belk", "brand:wikidata": "Q127428", "nsi_id": "belk-592fe0"}, "geometry": {"type": "Point", "coordinates": [-76.984066, 39.57732]}},
{"type": "Feature", "id": "_4ovGtJDJCa2g9o3PTvWuDw83uo=", "properties": {"ref": "https://www.belk.com/store/?StoreID=639", "@spider": "belk", "shop": "department_store", "addr:street_address": "17301 Valley Mall Rd", "addr:city": "Hagerstown", "addr:state": "MD", "addr:postcode": "21740-6966", "addr:country": "US", "name": "Hagerstown MD", "phone": "+2405133189", "website": "https://www.belk.com/store/belk-hagerstown-md/?StoreID=639", "brand": "Belk", "brand:wikidata": "Q127428", "nsi_id": "belk-592fe0"}, "geometry": {"type": "Point", "coordinates": [-77.77128, 39.6211]}},
{"type": "Feature", "id": "8WQLoYj3yJOfW5jygjio66uNZPI=", "properties": {"ref": "https://www.belk.com/store/?StoreID=543", "@spider": "belk", "shop": "department_store", "addr:street_address": "23415 Three Notch Road #2057", "addr:city": "California", "addr:state": "MD", "addr:postcode": "20619-2075", "addr:country": "US", "name": "California MD", "phone": "+3017370900", "website": "https://www.belk.com/store/belk-california-md/?StoreID=543", "brand": "Belk", "brand:wikidata": "Q127428", "nsi_id": "belk-592fe0"}, "geometry": {"type": "Point", "coordinates": [-76.5356352, 38.3108574]}},
{"type": "Feature", "id": "xL1sK1cZ3IzgnqHK8dxMn0jvQws=", "properties": {"ref": "https://www.belk.com/store/?StoreID=356", "@spider": "belk", "shop": "department_store", "addr:street_address": "1704 East 70th Street", "addr:city": "Shreveport", "addr:state": "LA", "addr:postcode": "71105-5202", "addr:country": "US", "name": "Shreveport LA", "phone": "+3187988445", "website": "https://www.belk.com/store/belk-shreveport-la/?StoreID=356", "brand": "Belk", "brand:wikidata": "Q127428", "nsi_id": "belk-592fe0"}, "geometry": {"type": "Point", "coordinates": [-93.717842, 32.445554]}},
{"type": "Feature", "id": "1uUuOlFyVkFnqdIQRHhf-ccOGvE=", "properties": {"ref": "https://www.belk.com/store/?StoreID=304", "@spider": "belk", "shop": "department_store", "addr:street_address": "69294 Hwy 21", "addr:city": "North Shore", "addr:state": "LA", "addr:postcode": "70433-7214", "addr:country": "US", "name": "North Shore LA", "phone": "+9858090366", "website": "https://www.belk.com/store/belk-north-shore-la/?StoreID=304", "brand": "Belk", "brand:wikidata": "Q127428", "nsi_id": "belk-592fe0"}, "geometry": {"type": "Point", "coordinates": [-90.1415826, 30.4409703]}},
{"type": "Feature", "id": "DetJS1BhRZog8As4NaGZ8NhlfrI=", "properties": {"ref": "https://www.belk.com/store/?StoreID=645", "@spider": "belk", "shop": "department_store", "addr:street_address": "4920 Millhaven", "addr:city": "Monroe", "addr:state": "LA", "addr:postcode": "71203-9014", "addr:country": "US", "name": "Monroe LA", "phone": "+3183612213", "website": "https://www.belk.com/store/belk-monroe-la/?StoreID=645", "brand": "Belk", "brand:wikidata": "Q127428", "nsi_id": "belk-592fe0"}, "geometry": {"type": "Point", "coordinates": [-92.056418, 32.497551]}},
{"type": "Feature", "id": "xS2rExa9Kg7QwC2OP6sATwSUkCM=", "properties": {"ref": "https://www.belk.com/store/?StoreID=426", "@spider": "belk", "shop": "department_store", "addr:street_address": "10075 Crossing Way, Suite 600", "addr:city": "Denham Springs", "addr:state": "LA", "addr:postcode": "70726-5893", "addr:country": "US", "name": "Denham Springs LA", "phone": "+2252713810", "website": "https://www.belk.com/store/belk-denham-springs-la/?StoreID=426", "brand": "Belk", "brand:wikidata": "Q127428", "nsi_id": "belk-592fe0"}, "geometry": {"type": "Point", "coordinates": [-90.9233558, 30.4653577]}},
{"type": "Feature", "id": "A8HABrlvYGNZdDIFEhwzW1zy-0A=", "properties": {"ref": "https://www.belk.com/store/?StoreID=372", "@spider": "belk", "shop": "department_store", "addr:street_address": "2990 Meadow Creek Drive", "addr:city": "Bossier City", "addr:state": "LA", "addr:postcode": "71111-5496", "addr:country": "US", "name": "Bossier City LA", "phone": "+3187470874", "website": "https://www.belk.com/store/belk-bossier-city-la/?StoreID=372", "brand": "Belk", "brand:wikidata": "Q127428", "nsi_id": "belk-592fe0"}, "geometry": {"type": "Point", "coordinates": [-93.708633, 32.563327]}},
{"type": "Feature", "id": "nnv-gtGo1gYggB1ziWn-TdclNgo=", "properties": {"ref": "https://www.belk.com/store/?StoreID=501", "@spider": "belk", "shop": "department_store", "addr:street_address": "4150 S. Highway 27 - Suite A", "addr:city": "Somerset", "addr:state": "KY", "addr:postcode": "42502-6174", "addr:country": "US", "name": "Somerset KY", "phone": "+6066798351", "website": "https://www.belk.com/store/belk-somerset-ky/?StoreID=501", "brand": "Belk", "brand:wikidata": "Q127428", "nsi_id": "belk-592fe0"}, "geometry": {"type": "Point", "coordinates": [-84.6247995, 37.0360594]}},
{"type": "Feature", "id": "fv8bch4mpJqxiZ9C7Tai_NROjxU=", "properties": {"ref": "https://www.belk.com/store/?StoreID=402", "@spider": "belk", "shop": "department_store", "addr:street_address": "2181 Lantern Ridge Drive", "addr:city": "Richmond", "addr:state": "KY", "addr:postcode": "40475-6011", "addr:country": "US", "name": "Richmond KY", "phone": "+8596249631", "website": "https://www.belk.com/store/belk-richmond-ky/?StoreID=402", "brand": "Belk", "brand:wikidata": "Q127428", "nsi_id": "belk-592fe0"}, "geometry": {"type": "Point", "coordinates": [-84.326886, 37.740303]}},
{"type": "Feature", "id": "TWcH2gD1Xk-IVFefQAuyuPi9szU=", "properties": {"ref": "https://www.belk.com/store/?StoreID=496", "@spider": "belk", "shop": "department_store", "addr:street_address": "905 N 12Th Street - Suite 16", "addr:city": "Middlesboro", "addr:state": "KY", "addr:postcode": "40965-1831", "addr:country": "US", "name": "Middlesboro KY", "phone": "+6062480970", "website": "https://www.belk.com/store/belk-middlesboro-ky/?StoreID=496", "brand": "Belk", "brand:wikidata": "Q127428", "nsi_id": "belk-592fe0"}, "geometry": {"type": "Point", "coordinates": [-83.705931, 36.6179517]}},
{"type": "Feature", "id": "Bp9vAqMZ0MOaeVVquoQN9RI8IxI=", "properties": {"ref": "https://www.belk.com/store/?StoreID=664", "@spider": "belk", "shop": "department_store", "addr:street_address": "1704 North Dixie Highway", "addr:city": "Elizabethtown", "addr:state": "KY", "addr:postcode": "42701-6452", "addr:country": "US", "name": "Elizabethtown KY", "phone": "+2707655652", "website": "https://www.belk.com/store/belk-elizabethtown-ky/?StoreID=664", "brand": "Belk", "brand:wikidata": "Q127428", "nsi_id": "belk-592fe0"}, "geometry": {"type": "Point", "coordinates": [-85.8889849, 37.7324479]}},
{"type": "Feature", "id": "u-tEAcspvMmDAPWCVYw2cA-TI2w=", "properties": {"ref": "https://www.belk.com/store/?StoreID=251", "@spider": "belk", "shop": "department_store", "addr:street_address": "14659 N US Hwy 25 E, Suite 50", "addr:city": "Corbin", "addr:state": "KY", "addr:postcode": "40701-9974", "addr:country": "US", "name": "Corbin KY", "phone": "+6065289311", "website": "https://www.belk.com/store/belk-corbin-ky/?StoreID=251", "brand": "Belk", "brand:wikidata": "Q127428", "nsi_id": "belk-592fe0"}, "geometry": {"type": "Point", "coordinates": [-84.07451, 36.956304]}},
{"type": "Feature", "id": "cSPcHxeZUJyXDG9DLOEhqGf1FoU=", "properties": {"ref": "https://www.belk.com/store/?StoreID=638", "@spider": "belk", "shop": "department_store", "addr:street_address": "2625 Scottsville Rd", "addr:city": "Bowling Green", "addr:state": "KY", "addr:postcode": "42104-4405", "addr:country": "US", "name": "Bowling Green KY", "phone": "+2709366421", "website": "https://www.belk.com/store/belk-bowling-green-ky/?StoreID=638", "brand": "Belk", "brand:wikidata": "Q127428", "nsi_id": "belk-592fe0"}, "geometry": {"type": "Point", "coordinates": [-86.4282766, 36.9481357]}},
{"type": "Feature", "id": "CULRxFHDwk9ST4DTqBms1AKwSqc=", "properties": {"ref": "https://www.belk.com/store/?StoreID=663", "@spider": "belk", "shop": "department_store", "addr:street_address": "500 Winchester", "addr:city": "Ashland", "addr:state": "KY", "addr:postcode": "41101-7362", "addr:country": "US", "name": "Ashland KY", "phone": "+6063252444", "website": "https://www.belk.com/store/belk-ashland-ky/?StoreID=663", "brand": "Belk", "brand:wikidata": "Q127428", "nsi_id": "belk-592fe0"}, "geometry": {"type": "Point", "coordinates": [-82.655031, 38.484886]}},
{"type": "Feature", "id": "AlWjw88pC-ZccBBAX9O622OiSXk=", "properties": {"ref": "https://www.belk.com/store/?StoreID=520", "@spider": "belk", "shop": "department_store", "addr:street_address": "2215 Memorial Drive", "addr:city": "Waycross", "addr:state": "GA", "addr:postcode": "31501-0983", "addr:country": "US", "name": "Waycross GA", "phone": "+9122838255", "website": "https://www.belk.com/store/belk-waycross-ga/?StoreID=520", "brand": "Belk", "brand:wikidata": "Q127428", "nsi_id": "belk-592fe0"}, "geometry": {"type": "Point", "coordinates": [-82.324613, 31.200167]}},
{"type": "Feature", "id": "N4pPCrO6THHRWjuz2tKHS-e23p0=", "properties": {"ref": "https://www.belk.com/store/?StoreID=547", "@spider": "belk", "shop": "department_store", "addr:street_address": "2347 1st Street East", "addr:city": "Vidalia", "addr:state": "GA", "addr:postcode": "30474-8811", "addr:country": "US", "name": "Vidalia GA", "phone": "+9125372355", "website": "https://www.belk.com/store/belk-vidalia-ga/?StoreID=547", "brand": "Belk", "brand:wikidata": "Q127428", "nsi_id": "belk-592fe0"}, "geometry": {"type": "Point", "coordinates": [-82.37988, 32.206402]}},
{"type": "Feature", "id": "SWW782mQBNLd4qGeF8DXw7LNFCw=", "properties": {"ref": "https://www.belk.com/store/?StoreID=510", "@spider": "belk", "shop": "department_store", "addr:street_address": "1181 N St.Augustine Road", "addr:city": "Valdosta", "addr:state": "GA", "addr:postcode": "31601-3533", "addr:country": "US", "name": "Valdosta GA", "phone": "+2292446391", "website": "https://www.belk.com/store/belk-valdosta-ga/?StoreID=510", "brand": "Belk", "brand:wikidata": "Q127428", "nsi_id": "belk-592fe0"}, "geometry": {"type": "Point", "coordinates": [-83.320946, 30.842322]}},
{"type": "Feature", "id": "1F5khv09CRYupdP_Sp9YSjXssn0=", "properties": {"ref": "https://www.belk.com/store/?StoreID=599", "@spider": "belk", "shop": "department_store", "addr:street_address": "1161 Big A Road", "addr:city": "Toccoa", "addr:state": "GA", "addr:postcode": "30577-3815", "addr:country": "US", "name": "Toccoa GA", "phone": "+7068868496", "website": "https://www.belk.com/store/belk-toccoa-ga/?StoreID=599", "brand": "Belk", "brand:wikidata": "Q127428", "nsi_id": "belk-592fe0"}, "geometry": {"type": "Point", "coordinates": [-83.3044525, 34.5708958]}},
{"type": "Feature", "id": "VyHNao9n6f1tN8APMnzz90ma9kI=", "properties": {"ref": "https://www.belk.com/store/?StoreID=266", "@spider": "belk", "shop": "department_store", "addr:street_address": "458 Virginia Avenue N,Suite 7", "addr:city": "Tifton", "addr:state": "GA", "addr:postcode": "31794-4263", "addr:country": "US", "name": "Tifton GA", "phone": "+2293822414", "website": "https://www.belk.com/store/belk-tifton-ga/?StoreID=266", "brand": "Belk", "brand:wikidata": "Q127428", "nsi_id": "belk-592fe0"}, "geometry": {"type": "Point", "coordinates": [-83.528717, 31.4606612]}},
{"type": "Feature", "id": "nkfwbQ3axmTyFNDVNrsdFkRsq4I=", "properties": {"ref": "https://www.belk.com/store/?StoreID=274", "@spider": "belk", "shop": "department_store", "addr:street_address": "15023 Us Highway 19", "addr:city": "Thomasville", "addr:state": "GA", "addr:postcode": "31792-4869", "addr:country": "US", "name": "Thomasville GA", "phone": "+2292263725", "website": "https://www.belk.com/store/belk-thomasville-ga/?StoreID=274", "brand": "Belk", "brand:wikidata": "Q127428", "nsi_id": "belk-592fe0"}, "geometry": {"type": "Point", "coordinates": [-83.948312, 30.853198]}},
{"type": "Feature", "id": "pv1vOwG80KFIqguX3eCViaT3iag=", "properties": {"ref": "https://www.belk.com/store/?StoreID=366", "@spider": "belk", "shop": "department_store", "addr:street_address": "1055 Highway 19 North", "addr:city": "Thomaston", "addr:state": "GA", "addr:postcode": "30286-2230", "addr:country": "US", "name": "Thomaston GA", "phone": "+7066482131", "website": "https://www.belk.com/store/belk-thomaston-ga/?StoreID=366", "brand": "Belk", "brand:wikidata": "Q127428", "nsi_id": "belk-592fe0"}, "geometry": {"type": "Point", "coordinates": [-84.3356404, 32.923468]}},
{"type": "Feature", "id": "aUZi4Su1trrYLH1hHYjpFuBhNkg=", "properties": {"ref": "https://www.belk.com/store/?StoreID=284", "@spider": "belk", "shop": "department_store", "addr:street_address": "325 Northside Drive E Suite 13", "addr:city": "Statesboro", "addr:state": "GA", "addr:postcode": "30458-4762", "addr:country": "US", "name": "Statesboro GA", "phone": "+9127647575", "website": "https://www.belk.com/store/belk-statesboro-ga/?StoreID=284", "brand": "Belk", "brand:wikidata": "Q127428", "nsi_id": "belk-592fe0"}, "geometry": {"type": "Point", "coordinates": [-81.7612543, 32.4361269]}},
{"type": "Feature", "id": "rtdcLPPGDtyGMNNYiTuumAaBIoc=", "properties": {"ref": "https://www.belk.com/store/?StoreID=184", "@spider": "belk", "shop": "department_store", "addr:street_address": "2059 Scenic Hwy. N, Ste 110", "addr:city": "Snellville", "addr:state": "GA", "addr:postcode": "30078-6105", "addr:country": "US", "name": "Snellville GA", "phone": "+6783448484", "website": "https://www.belk.com/store/belk-snellville-ga/?StoreID=184", "brand": "Belk", "brand:wikidata": "Q127428", "nsi_id": "belk-592fe0"}, "geometry": {"type": "Point", "coordinates": [-84.0180986, 33.866286]}},
{"type": "Feature", "id": "z3kWz_EnX_Ywq2BZjBqw1eYz6Kg=", "properties": {"ref": "https://www.belk.com/store/?StoreID=239", "@spider": "belk", "shop": "department_store", "addr:street_address": "7804 Abercorn Expressway, Ste. 184", "addr:city": "Savannah", "addr:state": "GA", "addr:postcode": "31406-2440", "addr:country": "US", "name": "Savannah GA", "phone": "+9123521830", "website": "https://www.belk.com/store/belk-savannah-ga/?StoreID=239", "brand": "Belk", "brand:wikidata": "Q127428", "nsi_id": "belk-592fe0"}, "geometry": {"type": "Point", "coordinates": [-81.115781, 32.004088]}},
{"type": "Feature", "id": "jeLoGLpP76t7-FVhTet4T1_GUfc=", "properties": {"ref": "https://www.belk.com/store/?StoreID=573", "@spider": "belk", "shop": "department_store", "addr:street_address": "101 City Smitty Drive", "addr:city": "Saint Marys", "addr:state": "GA", "addr:postcode": "31558-8908", "addr:country": "US", "name": "Saint Marys GA", "phone": "+9128821900", "website": "https://www.belk.com/store/belk-saint-marys-ga/?StoreID=573", "brand": "Belk", "brand:wikidata": "Q127428", "nsi_id": "belk-592fe0"}, "geometry": {"type": "Point", "coordinates": [-81.57411, 30.749647]}},
{"type": "Feature", "id": "FyC_7NxG0m-Rzzyv--MISQlfygk=", "properties": {"ref": "https://www.belk.com/store/?StoreID=574", "@spider": "belk", "shop": "department_store", "addr:street_address": "2770 Martha Berry Hwy Suite100", "addr:city": "Rome", "addr:state": "GA", "addr:postcode": "30165-1311", "addr:country": "US", "name": "Rome GA", "phone": "+7062957387", "website": "https://www.belk.com/store/belk-rome-ga/?StoreID=574", "brand": "Belk", "brand:wikidata": "Q127428", "nsi_id": "belk-592fe0"}, "geometry": {"type": "Point", "coordinates": [-85.1710796, 34.2998454]}},
{"type": "Feature", "id": "WoNfTsrwFVz-gPJ6f_kLfVzLdf8=", "properties": {"ref": "https://www.belk.com/store/?StoreID=270", "@spider": "belk", "shop": "department_store", "addr:street_address": "5165 Peachtree Pkwy", "addr:city": "Norcross", "addr:state": "GA", "addr:postcode": "30092-2527", "addr:country": "US", "name": "Norcross GA", "phone": "+6782919980", "website": "https://www.belk.com/store/belk-norcross-ga/?StoreID=270", "brand": "Belk", "brand:wikidata": "Q127428", "nsi_id": "belk-592fe0"}, "geometry": {"type": "Point", "coordinates": [-84.219144, 33.980561]}},
{"type": "Feature", "id": "XFhMmyPTuk2v0H4P2qvKlGlyXFg=", "properties": {"ref": "https://www.belk.com/store/?StoreID=404", "@spider": "belk", "shop": "department_store", "addr:street_address": "450 Newnan Crossing Bypass", "addr:city": "Newnan", "addr:state": "GA", "addr:postcode": "30265-2168", "addr:country": "US", "name": "Newnan GA", "phone": "+7702514335", "website": "https://www.belk.com/store/belk-newnan-ga/?StoreID=404", "brand": "Belk", "brand:wikidata": "Q127428", "nsi_id": "belk-592fe0"}, "geometry": {"type": "Point", "coordinates": [-84.764445, 33.385083]}},
{"type": "Feature", "id": "2swoh1JlbYXcmuaEBeHrHsps__8=", "properties": {"ref": "https://www.belk.com/store/?StoreID=302", "@spider": "belk", "shop": "department_store", "addr:street_address": "2400 N. Columbia Street", "addr:city": "Milledgeville", "addr:state": "GA", "addr:postcode": "31061-2066", "addr:country": "US", "name": "Milledgeville GA", "phone": "+4784525572", "website": "https://www.belk.com/store/belk-milledgeville-ga/?StoreID=302", "brand": "Belk", "brand:wikidata": "Q127428", "nsi_id": "belk-592fe0"}, "geometry": {"type": "Point", "coordinates": [-83.256803, 33.108655]}},
{"type": "Feature", "id": "ZURjaoQkJtxXz7eZssDwhf_ZV_E=", "properties": {"ref": "https://www.belk.com/store/?StoreID=179", "@spider": "belk", "shop": "department_store", "addr:street_address": "2443 S Main St", "addr:city": "Moultrie", "addr:state": "GA", "addr:postcode": "31768-6531", "addr:country": "US", "name": "Moultrie GA", "phone": "+2299856910", "website": "https://www.belk.com/store/belk-moultrie-ga/?StoreID=179", "brand": "Belk", "brand:wikidata": "Q127428", "nsi_id": "belk-592fe0"}, "geometry": {"type": "Point", "coordinates": [-83.781763, 31.139218]}},
{"type": "Feature", "id": "vsaD0YH24bvgMye5vI30TawH-4c=", "properties": {"ref": "https://www.belk.com/store/?StoreID=262", "@spider": "belk", "shop": "department_store", "addr:street_address": "1800 Jonesboro Road", "addr:city": "Mcdonough", "addr:state": "GA", "addr:postcode": "30253-5960", "addr:country": "US", "name": "Mcdonough GA", "phone": "+6785831996", "website": "https://www.belk.com/store/belk-mcdonough-ga/?StoreID=262", "brand": "Belk", "brand:wikidata": "Q127428", "nsi_id": "belk-592fe0"}, "geometry": {"type": "Point", "coordinates": [-84.215265, 33.46761]}},
{"type": "Feature", "id": "VgdnQZwg4fORCBeYBHjEa91RQUU=", "properties": {"ref": "https://www.belk.com/store/?StoreID=334", "@spider": "belk", "shop": "department_store", "addr:street_address": "3636 Dallas Hwy Sw, Suite 100", "addr:city": "Marietta", "addr:state": "GA", "addr:postcode": "30064-5918", "addr:country": "US", "name": "Marietta GA", "phone": "+7705909665", "website": "https://www.belk.com/store/belk-marietta-ga/?StoreID=334", "brand": "Belk", "brand:wikidata": "Q127428", "nsi_id": "belk-592fe0"}, "geometry": {"type": "Point", "coordinates": [-84.657895, 33.955069]}},
{"type": "Feature", "id": "u24bOyG33ipaVxIVF-7kBOnCVtw=", "properties": {"ref": "https://www.belk.com/store/?StoreID=398", "@spider": "belk", "shop": "department_store", "addr:street_address": "5080 Riverside Drive, Suite 900", "addr:city": "Macon", "addr:state": "GA", "addr:postcode": "31210-1122", "addr:country": "US", "name": "Macon GA", "phone": "+4784741078", "website": "https://www.belk.com/store/belk-macon-ga/?StoreID=398", "brand": "Belk", "brand:wikidata": "Q127428", "nsi_id": "belk-592fe0"}, "geometry": {"type": "Point", "coordinates": [-83.715538, 32.9248157]}},
{"type": "Feature", "id": "cKWoL-BuhgeGcj1SoNPZ_WkPMgA=", "properties": {"ref": "https://www.belk.com/store/?StoreID=106", "@spider": "belk", "shop": "department_store", "addr:street_address": "1501 Lafayette Parkway", "addr:city": "Lagrange", "addr:state": "GA", "addr:postcode": "30241-2513", "addr:country": "US", "name": "Lagrange GA", "phone": "+7068825576", "website": "https://www.belk.com/store/belk-lagrange-ga/?StoreID=106", "brand": "Belk", "brand:wikidata": "Q127428", "nsi_id": "belk-592fe0"}, "geometry": {"type": "Point", "coordinates": [-84.980263, 33.044144]}},
{"type": "Feature", "id": "K49-tcSfpLHfTcHbqvhC8CjNDA8=", "properties": {"ref": "https://www.belk.com/store/?StoreID=620", "@spider": "belk", "shop": "department_store", "addr:street_address": "400 Ernest W Barrett Pkwy", "addr:city": "Kennesaw", "addr:state": "GA", "addr:postcode": "30144-4901", "addr:country": "US", "name": "Kennesaw GA", "phone": "+7705145200", "website": "https://www.belk.com/store/belk-kennesaw-ga/?StoreID=620", "brand": "Belk", "brand:wikidata": "Q127428", "nsi_id": "belk-592fe0"}, "geometry": {"type": "Point", "coordinates": [-84.563598, 34.019183]}},
{"type": "Feature", "id": "2ibaOEal491VFw6BvMoejPDzo7I=", "properties": {"ref": "https://www.belk.com/store/?StoreID=78", "@spider": "belk", "shop": "department_store", "addr:street_address": "1094 E. Franklin Street", "addr:city": "Hartwell", "addr:state": "GA", "addr:postcode": "30643-2204", "addr:country": "US", "name": "Hartwell GA", "phone": "+7063768514", "website": "https://www.belk.com/store/belk-hartwell-ga/?StoreID=78", "brand": "Belk", "brand:wikidata": "Q127428", "nsi_id": "belk-592fe0"}, "geometry": {"type": "Point", "coordinates": [-82.9101579, 34.353564]}},
{"type": "Feature", "id": "_cGKggWpFmnLVNHyHYwv7_5tcSg=", "properties": {"ref": "https://www.belk.com/store/?StoreID=495", "@spider": "belk", "shop": "department_store", "addr:street_address": "1645 North Expressway", "addr:city": "Griffin", "addr:state": "GA", "addr:postcode": "30223-1276", "addr:country": "US", "name": "Griffin GA", "phone": "+7702286660", "website": "https://www.belk.com/store/belk-griffin-ga/?StoreID=495", "brand": "Belk", "brand:wikidata": "Q127428", "nsi_id": "belk-592fe0"}, "geometry": {"type": "Point", "coordinates": [-84.2938551, 33.2764669]}},
{"type": "Feature", "id": "jN9a7Mmzv18x_ZZU5SbCaw0VqmU=", "properties": {"ref": "https://www.belk.com/store/?StoreID=87", "@spider": "belk", "shop": "department_store", "addr:street_address": "150 Pearl Nix Parkway", "addr:city": "Gainesville", "addr:state": "GA", "addr:postcode": "30501-3563", "addr:country": "US", "name": "Gainesville GA", "phone": "+7705327021", "website": "https://www.belk.com/store/belk-gainesville-ga/?StoreID=87", "brand": "Belk", "brand:wikidata": "Q127428", "nsi_id": "belk-592fe0"}, "geometry": {"type": "Point", "coordinates": [-83.843621, 34.2920316]}},
{"type": "Feature", "id": "ZgnhEEFlGOXrffqxsIE4WQMDLKc=", "properties": {"ref": "https://www.belk.com/store/?StoreID=196", "@spider": "belk", "shop": "department_store", "addr:street_address": "205 Pavilion Parkway", "addr:city": "Fayetteville", "addr:state": "GA", "addr:postcode": "30214-4065", "addr:country": "US", "name": "Fayetteville GA", "phone": "+7704608550", "website": "https://www.belk.com/store/belk-fayetteville-ga/?StoreID=196", "brand": "Belk", "brand:wikidata": "Q127428", "nsi_id": "belk-592fe0"}, "geometry": {"type": "Point", "coordinates": [-84.446079, 33.481966]}},
{"type": "Feature", "id": "IyeoS65uWuXloQm1RnbS_EJW63Y=", "properties": {"ref": "https://www.belk.com/store/?StoreID=636", "@spider": "belk", "shop": "department_store", "addr:street_address": "4263 Washington Road", "addr:city": "Evans", "addr:state": "GA", "addr:postcode": "30809-3033", "addr:country": "US", "name": "Evans GA", "phone": "+7068498015", "website": "https://www.belk.com/store/belk-evans-ga/?StoreID=636", "brand": "Belk", "brand:wikidata": "Q127428", "nsi_id": "belk-592fe0"}, "geometry": {"type": "Point", "coordinates": [-82.120611, 33.529594]}},
{"type": "Feature", "id": "JLF2h9B8X99bPDno4FOCJ25K5Uo=", "properties": {"ref": "https://www.belk.com/store/?StoreID=238", "@spider": "belk", "shop": "department_store", "addr:street_address": "2001 Veterans Blvd.", "addr:city": "Dublin", "addr:state": "GA", "addr:postcode": "31021-3031", "addr:country": "US", "name": "Dublin GA", "phone": "+4782723415", "website": "https://www.belk.com/store/belk-dublin-ga/?StoreID=238", "brand": "Belk", "brand:wikidata": "Q127428", "nsi_id": "belk-592fe0"}, "geometry": {"type": "Point", "coordinates": [-82.948851, 32.54291]}},
{"type": "Feature", "id": "IlwCZHZthzyi24iEbqxW0PFlKZI=", "properties": {"ref": "https://www.belk.com/store/?StoreID=623", "@spider": "belk", "shop": "department_store", "addr:street_address": "6640 Douglas Blvd", "addr:city": "Douglasville", "addr:state": "GA", "addr:postcode": "30135-1532", "addr:country": "US", "name": "Douglasville GA", "phone": "+6788382200", "website": "https://www.belk.com/store/belk-douglasville-ga/?StoreID=623", "brand": "Belk", "brand:wikidata": "Q127428", "nsi_id": "belk-592fe0"}, "geometry": {"type": "Point", "coordinates": [-84.745846, 33.728536]}},
{"type": "Feature", "id": "yQvdWuL-RDvOuBMEfxniY-rnBkY=", "properties": {"ref": "https://www.belk.com/store/?StoreID=107", "@spider": "belk", "shop": "department_store", "addr:street_address": "1322 S. Peterson Ave", "addr:city": "Douglas", "addr:state": "GA", "addr:postcode": "31533-4419", "addr:country": "US", "name": "Douglas GA", "phone": "+9123844212", "website": "https://www.belk.com/store/belk-douglas-ga/?StoreID=107", "brand": "Belk", "brand:wikidata": "Q127428", "nsi_id": "belk-592fe0"}, "geometry": {"type": "Point", "coordinates": [-82.8492307, 31.4889738]}},
{"type": "Feature", "id": "hqb5UuOhfQiuBZfzd3Y1Nx76b6s=", "properties": {"ref": "https://www.belk.com/store/?StoreID=188", "@spider": "belk", "shop": "department_store", "addr:street_address": "2150 E Walnut Ave.", "addr:city": "Dalton", "addr:state": "GA", "addr:postcode": "30721-4591", "addr:country": "US", "name": "Dalton GA", "phone": "+7062785345", "website": "https://www.belk.com/store/belk-dalton-ga/?StoreID=188", "brand": "Belk", "brand:wikidata": "Q127428", "nsi_id": "belk-592fe0"}, "geometry": {"type": "Point", "coordinates": [-84.9335858, 34.759413]}},
{"type": "Feature", "id": "-B45Gp-sOHUEyZe4hQ5wrVRb86o=", "properties": {"ref": "https://www.belk.com/store/?StoreID=337", "@spider": "belk", "shop": "department_store", "addr:street_address": "520 Lakeland Plaza", "addr:city": "Cumming", "addr:state": "GA", "addr:postcode": "30040-2779", "addr:country": "US", "name": "Cumming GA", "phone": "+7708895998", "website": "https://www.belk.com/store/belk-cumming-ga/?StoreID=337", "brand": "Belk", "brand:wikidata": "Q127428", "nsi_id": "belk-592fe0"}, "geometry": {"type": "Point", "coordinates": [-84.14178, 34.183046]}},
{"type": "Feature", "id": "aTFm8ne36sK4v_h8EweawT2muOg=", "properties": {"ref": "https://www.belk.com/store/?StoreID=177", "@spider": "belk", "shop": "department_store", "addr:street_address": "317 Habersham Co Shopping Ctr", "addr:city": "Cornelia", "addr:state": "GA", "addr:postcode": "30531-3414", "addr:country": "US", "name": "Cornelia GA", "phone": "+7067789400", "website": "https://www.belk.com/store/belk-cornelia-ga/?StoreID=177", "brand": "Belk", "brand:wikidata": "Q127428", "nsi_id": "belk-592fe0"}, "geometry": {"type": "Point", "coordinates": [-83.5429921, 34.5124137]}},
{"type": "Feature", "id": "nz-7pRQj67Pf_3wgLKmMQ04hihE=", "properties": {"ref": "https://www.belk.com/store/?StoreID=522", "@spider": "belk", "shop": "department_store", "addr:street_address": "907 16th Ave. East", "addr:city": "Cordele", "addr:state": "GA", "addr:postcode": "31015-1517", "addr:country": "US", "name": "Cordele GA", "phone": "+2292732875", "website": "https://www.belk.com/store/belk-cordele-ga/?StoreID=522", "brand": "Belk", "brand:wikidata": "Q127428", "nsi_id": "belk-592fe0"}, "geometry": {"type": "Point", "coordinates": [-83.767831, 31.964491]}},
{"type": "Feature", "id": "ePlFplUo08FHndqQ76-i-IDgLv8=", "properties": {"ref": "https://www.belk.com/store/?StoreID=331", "@spider": "belk", "shop": "department_store", "addr:street_address": "1454 Dogwood Drive", "addr:city": "Conyers", "addr:state": "GA", "addr:postcode": "30013-5037", "addr:country": "US", "name": "Conyers GA", "phone": "+6784133511", "website": "https://www.belk.com/store/belk-conyers-ga/?StoreID=331", "brand": "Belk", "brand:wikidata": "Q127428", "nsi_id": "belk-592fe0"}, "geometry": {"type": "Point", "coordinates": [-83.99586, 33.650816]}},
{"type": "Feature", "id": "BXxYM-ybWipAJWXWufR4NjING38=", "properties": {"ref": "https://www.belk.com/store/?StoreID=582", "@spider": "belk", "shop": "department_store", "addr:street_address": "2950 Watson Blvd", "addr:city": "Centerville", "addr:state": "GA", "addr:postcode": "31028-1245", "addr:country": "US", "name": "Centerville GA", "phone": "+4789537422", "website": "https://www.belk.com/store/belk-centerville-ga/?StoreID=582", "brand": "Belk", "brand:wikidata": "Q127428", "nsi_id": "belk-592fe0"}, "geometry": {"type": "Point", "coordinates": [-83.685694, 32.620707]}},
{"type": "Feature", "id": "yDkIRutKC8HJ6Xw-kG9IccOzUI0=", "properties": {"ref": "https://www.belk.com/store/?StoreID=44", "@spider": "belk", "shop": "department_store", "addr:street_address": "1109 South Park- Suite #300", "addr:city": "Carrollton", "addr:state": "GA", "addr:postcode": "30117-4429", "addr:country": "US", "name": "Carrollton GA", "phone": "+7708321421", "website": "https://www.belk.com/store/belk-carrollton-ga/?StoreID=44", "brand": "Belk", "brand:wikidata": "Q127428", "nsi_id": "belk-592fe0"}, "geometry": {"type": "Point", "coordinates": [-85.076875, 33.5599256]}},
{"type": "Feature", "id": "HDk1EoSHrrRtJ1OVoSjofRZQR7I=", "properties": {"ref": "https://www.belk.com/store/?StoreID=39", "@spider": "belk", "shop": "department_store", "addr:street_address": "600 Cherokee Place", "addr:city": "Cartersville", "addr:state": "GA", "addr:postcode": "30120-2961", "addr:country": "US", "name": "Cartersville GA", "phone": "+7703823770", "website": "https://www.belk.com/store/belk-cartersville-ga/?StoreID=39", "brand": "Belk", "brand:wikidata": "Q127428", "nsi_id": "belk-592fe0"}, "geometry": {"type": "Point", "coordinates": [-84.7826235, 34.1747592]}},
{"type": "Feature", "id": "fAaLre0CVePJC9xv4FjiS7_UoHQ=", "properties": {"ref": "https://www.belk.com/store/?StoreID=33", "@spider": "belk", "shop": "department_store", "addr:street_address": "1447 Riverstone Parkway", "addr:city": "Canton", "addr:state": "GA", "addr:postcode": "30114-5624", "addr:country": "US", "name": "Canton GA", "phone": "+7707201125", "website": "https://www.belk.com/store/belk-canton-ga/?StoreID=33", "brand": "Belk", "brand:wikidata": "Q127428", "nsi_id": "belk-592fe0"}, "geometry": {"type": "Point", "coordinates": [-84.476941, 34.252474]}},
{"type": "Feature", "id": "qab4xuC_2MEXB3mBgr96b0k0XpQ=", "properties": {"ref": "https://www.belk.com/store/?StoreID=375", "@spider": "belk", "shop": "department_store", "addr:street_address": "3333 Buford Drive", "addr:city": "Buford", "addr:state": "GA", "addr:postcode": "30519-4913", "addr:country": "US", "name": "Buford GA", "phone": "+6787149914", "website": "https://www.belk.com/store/belk-buford-ga/?StoreID=375", "brand": "Belk", "brand:wikidata": "Q127428", "nsi_id": "belk-592fe0"}, "geometry": {"type": "Point", "coordinates": [-83.984356, 34.066105]}},
{"type": "Feature", "id": "7dNpl72Ju3xvZ5U33sesFlzuzJQ=", "properties": {"ref": "https://www.belk.com/store/?StoreID=514", "@spider": "belk", "shop": "department_store", "addr:street_address": "100 Mall Boulevard,Suite #200", "addr:city": "Brunswick", "addr:state": "GA", "addr:postcode": "31525-1855", "addr:country": "US", "name": "Brunswick GA", "phone": "+9122643516", "website": "https://www.belk.com/store/belk-brunswick-ga/?StoreID=514", "brand": "Belk", "brand:wikidata": "Q127428", "nsi_id": "belk-592fe0"}, "geometry": {"type": "Point", "coordinates": [-81.4907042, 31.2170636]}},
{"type": "Feature", "id": "OS1HtP63j2YsL2O_vIERaHmaxRo=", "properties": {"ref": "https://www.belk.com/store/?StoreID=401", "@spider": "belk", "shop": "department_store", "addr:street_address": "916 Loganville Hwy Suite 1000", "addr:city": "Bethlehem", "addr:state": "GA", "addr:postcode": "30620-2116", "addr:country": "US", "name": "Winder GA", "phone": "+7705865955", "website": "https://www.belk.com/store/belk-winder-ga/?StoreID=401", "brand": "Belk", "brand:wikidata": "Q127428", "nsi_id": "belk-592fe0"}, "geometry": {"type": "Point", "coordinates": [-83.7494085, 33.9426212]}},
{"type": "Feature", "id": "jh3VFS00C7HPL0CiFsyQbsZ5Lxk=", "properties": {"ref": "https://www.belk.com/store/?StoreID=269", "@spider": "belk", "shop": "department_store", "addr:street_address": "1400 East Shotwell Street", "addr:city": "Bainbridge", "addr:state": "GA", "addr:postcode": "39819-9968", "addr:country": "US", "name": "Bainbridge GA", "phone": "+2292467576", "website": "https://www.belk.com/store/belk-bainbridge-ga/?StoreID=269", "brand": "Belk", "brand:wikidata": "Q127428", "nsi_id": "belk-592fe0"}, "geometry": {"type": "Point", "coordinates": [-84.556459, 30.902471]}},
{"type": "Feature", "id": "kcIvM7yP_54lTF_CoI3BPzxdCqY=", "properties": {"ref": "https://www.belk.com/store/?StoreID=54", "@spider": "belk", "shop": "department_store", "addr:street_address": "3700 Atlanta Hwy, Suite 175", "addr:city": "Athens", "addr:state": "GA", "addr:postcode": "30606-3170", "addr:country": "US", "name": "Athens GA", "phone": "+7063530060", "website": "https://www.belk.com/store/belk-athens-ga/?StoreID=54", "brand": "Belk", "brand:wikidata": "Q127428", "nsi_id": "belk-592fe0"}, "geometry": {"type": "Point", "coordinates": [-83.4677642, 33.9433154]}},
{"type": "Feature", "id": "TmF9Q8eemLMBQ-3CpI5lcfBmuvA=", "properties": {"ref": "https://www.belk.com/store/?StoreID=528", "@spider": "belk", "shop": "department_store", "addr:street_address": "1456 East Forsyth Street", "addr:city": "Americus", "addr:state": "GA", "addr:postcode": "31709-3808", "addr:country": "US", "name": "Americus GA", "phone": "+2299248821", "website": "https://www.belk.com/store/belk-americus-ga/?StoreID=528", "brand": "Belk", "brand:wikidata": "Q127428", "nsi_id": "belk-592fe0"}, "geometry": {"type": "Point", "coordinates": [-84.213847, 32.073664]}},
{"type": "Feature", "id": "W5TX_kCRse3E1RRwx879Gu2sVdI=", "properties": {"ref": "https://www.belk.com/store/?StoreID=484", "@spider": "belk", "shop": "department_store", "addr:street_address": "2601 Dawson Road", "addr:city": "Albany", "addr:state": "GA", "addr:postcode": "31707-1608", "addr:country": "US", "name": "Albany GA", "phone": "+2294365741", "website": "https://www.belk.com/store/belk-albany-ga/?StoreID=484", "brand": "Belk", "brand:wikidata": "Q127428", "nsi_id": "belk-592fe0"}, "geometry": {"type": "Point", "coordinates": [-84.216331, 31.618012]}},
{"type": "Feature", "id": "FlSIz_fBMcuTLG0pX2OGqMsZ15A=", "properties": {"ref": "https://www.belk.com/store/?StoreID=248", "@spider": "belk", "shop": "department_store", "addr:street_address": "253 Citi Centre Street", "addr:city": "Winter Haven", "addr:state": "FL", "addr:postcode": "33880-3405", "addr:country": "US", "name": "Winter Haven FL", "phone": "+8634019031", "website": "https://www.belk.com/store/belk-winter-haven-fl/?StoreID=248", "brand": "Belk", "brand:wikidata": "Q127428", "nsi_id": "belk-592fe0"}, "geometry": {"type": "Point", "coordinates": [-81.7296418, 28.0140618]}},
{"type": "Feature", "id": "FLRdJRYvx4ylUE2phRke3ficAbk=", "properties": {"ref": "https://www.belk.com/store/?StoreID=323", "@spider": "belk", "shop": "department_store", "addr:street_address": "2261 Town Center Ave,Suite 131", "addr:city": "Viera", "addr:state": "FL", "addr:postcode": "32940-6101", "addr:country": "US", "name": "Viera FL", "phone": "+3216361033", "website": "https://www.belk.com/store/belk-viera-fl/?StoreID=323", "brand": "Belk", "brand:wikidata": "Q127428", "nsi_id": "belk-592fe0"}, "geometry": {"type": "Point", "coordinates": [-80.7269089, 28.2418394]}},
{"type": "Feature", "id": "q6rs33_L-vP7txz6x1s18hWOvlI=", "properties": {"ref": "https://www.belk.com/store/?StoreID=627", "@spider": "belk", "shop": "department_store", "addr:street_address": "2415 North Monroe", "addr:city": "Tallahassee", "addr:state": "FL", "addr:postcode": "32303-4103", "addr:country": "US", "name": "Tallahassee FL", "phone": "+8504226200", "website": "https://www.belk.com/store/belk-tallahassee-fl/?StoreID=627", "brand": "Belk", "brand:wikidata": "Q127428", "nsi_id": "belk-592fe0"}, "geometry": {"type": "Point", "coordinates": [-84.287788, 30.476553]}},
{"type": "Feature", "id": "fGRcT-zObS54_hSU9RrQRv3P6TU=", "properties": {"ref": "https://www.belk.com/store/?StoreID=583", "@spider": "belk", "shop": "department_store", "addr:street_address": "901 U.S. 27 North - Suite 140", "addr:city": "Sebring", "addr:state": "FL", "addr:postcode": "33870-2131", "addr:country": "US", "name": "Sebring FL", "phone": "+8633853200", "website": "https://www.belk.com/store/belk-sebring-fl/?StoreID=583", "brand": "Belk", "brand:wikidata": "Q127428", "nsi_id": "belk-592fe0"}, "geometry": {"type": "Point", "coordinates": [-81.487269, 27.489866]}},
{"type": "Feature", "id": "eXG9LRSV6l6wg3q91aK-z1cLfxg=", "properties": {"ref": "https://www.belk.com/store/?StoreID=350", "@spider": "belk", "shop": "department_store", "addr:street_address": "2121 U.S. 1 South", "addr:city": "St Augustine", "addr:state": "FL", "addr:postcode": "32086-6070", "addr:country": "US", "name": "St Augustine FL", "phone": "+9047975033", "website": "https://www.belk.com/store/belk-st-augustine-fl/?StoreID=350", "brand": "Belk", "brand:wikidata": "Q127428", "nsi_id": "belk-592fe0"}, "geometry": {"type": "Point", "coordinates": [-81.3254141, 29.8605621]}},
{"type": "Feature", "id": "yF-QyenOH35x08vllEGkTcDMILc=", "properties": {"ref": "https://www.belk.com/store/?StoreID=392", "@spider": "belk", "shop": "department_store", "addr:street_address": "5519 S. Williamson Blvd", "addr:city": "Port Orange", "addr:state": "FL", "addr:postcode": "32128-7370", "addr:country": "US", "name": "Port Orange FL", "phone": "+3863043901", "website": "https://www.belk.com/store/belk-port-orange-fl/?StoreID=392", "brand": "Belk", "brand:wikidata": "Q127428", "nsi_id": "belk-592fe0"}, "geometry": {"type": "Point", "coordinates": [-81.033258, 29.111359]}},
{"type": "Feature", "id": "SwbA2Yve1hA9qTpT7dpcbgdt2zA=", "properties": {"ref": "https://www.belk.com/store/?StoreID=413", "@spider": "belk", "shop": "department_store", "addr:street_address": "5100 North 9th Avenue", "addr:city": "Pensacola", "addr:state": "FL", "addr:postcode": "32504-8722", "addr:country": "US", "name": "Pensacola FL", "phone": "+8504843300", "website": "https://www.belk.com/store/belk-pensacola-fl/?StoreID=413", "brand": "Belk", "brand:wikidata": "Q127428", "nsi_id": "belk-592fe0"}, "geometry": {"type": "Point", "coordinates": [-87.205913, 30.4757078]}},
{"type": "Feature", "id": "5FWcevY2kPQpvp1u4xHKxeA6OW4=", "properties": {"ref": "https://www.belk.com/store/?StoreID=363", "@spider": "belk", "shop": "department_store", "addr:street_address": "270 Cypress Edge Drive", "addr:city": "Palm Coast", "addr:state": "FL", "addr:postcode": "32164-8429", "addr:country": "US", "name": "Palm Coast FL", "phone": "+3864461880", "website": "https://www.belk.com/store/belk-palm-coast-fl/?StoreID=363", "brand": "Belk", "brand:wikidata": "Q127428", "nsi_id": "belk-592fe0"}, "geometry": {"type": "Point", "coordinates": [-81.221328, 29.550005]}},
{"type": "Feature", "id": "GscwVP2E6zphedW0zQFLyeUCdOA=", "properties": {"ref": "https://www.belk.com/store/?StoreID=149", "@spider": "belk", "shop": "department_store", "addr:street_address": "1910 Wells Road, Lot 44", "addr:city": "Orange Park", "addr:state": "FL", "addr:postcode": "32073-2325", "addr:country": "US", "name": "Jacksonville FL - Orange Park", "phone": "+9042691211", "website": "https://www.belk.com/store/belk-jacksonville-fl--orange-park/?StoreID=149", "brand": "Belk", "brand:wikidata": "Q127428", "nsi_id": "belk-592fe0"}, "geometry": {"type": "Point", "coordinates": [-81.733963, 30.185528]}},
{"type": "Feature", "id": "u2p3r7gB9QJPz2S-DWsMEVos3Gg=", "properties": {"ref": "https://www.belk.com/store/?StoreID=109", "@spider": "belk", "shop": "department_store", "addr:street_address": "3100 S.W. College Road Ste. 300", "addr:city": "Ocala", "addr:state": "FL", "addr:postcode": "34474-7443", "addr:country": "US", "name": "Ocala FL", "phone": "+3522371200", "website": "https://www.belk.com/store/belk-ocala-fl/?StoreID=109", "brand": "Belk", "brand:wikidata": "Q127428", "nsi_id": "belk-592fe0"}, "geometry": {"type": "Point", "coordinates": [-82.174567, 29.157979]}},
{"type": "Feature", "id": "kWlSLZZlK14rIE_lLQyYoQfW7Uc=", "properties": {"ref": "https://www.belk.com/store/?StoreID=497", "@spider": "belk", "shop": "department_store", "addr:street_address": "10401-2003 Hwy. 441", "addr:city": "Leesburg", "addr:state": "FL", "addr:postcode": "34788-7252", "addr:country": "US", "name": "Leesburg FL", "phone": "+3527873412", "website": "https://www.belk.com/store/belk-leesburg-fl/?StoreID=497", "brand": "Belk", "brand:wikidata": "Q127428", "nsi_id": "belk-592fe0"}, "geometry": {"type": "Point", "coordinates": [-81.784664, 28.824853]}},
{"type": "Feature", "id": "vQMgXgQ-sY7B-cukH8ASR0BBQoE=", "properties": {"ref": "https://www.belk.com/store/?StoreID=344", "@spider": "belk", "shop": "department_store", "addr:street_address": "2111 Collier Parkway", "addr:city": "Land O Lakes", "addr:state": "FL", "addr:postcode": "34639-5286", "addr:country": "US", "name": "Land O Lakes FL", "phone": "+8139488555", "website": "https://www.belk.com/store/belk-land-o-lakes-fl/?StoreID=344", "brand": "Belk", "brand:wikidata": "Q127428", "nsi_id": "belk-592fe0"}, "geometry": {"type": "Point", "coordinates": [-82.440264, 28.188332]}},
{"type": "Feature", "id": "9Xt9u1L0ad6C-igB7M5UMNIt7bk=", "properties": {"ref": "https://www.belk.com/store/?StoreID=355", "@spider": "belk", "shop": "department_store", "addr:street_address": "1400 Town Center Drive", "addr:city": "Lakeland", "addr:state": "FL", "addr:postcode": "33803-7965", "addr:country": "US", "name": "Lakeland FL", "phone": "+8636887872", "website": "https://www.belk.com/store/belk-lakeland-fl/?StoreID=355", "brand": "Belk", "brand:wikidata": "Q127428", "nsi_id": "belk-592fe0"}, "geometry": {"type": "Point", "coordinates": [-81.978054, 28.000058]}},
{"type": "Feature", "id": "HorLRzQeYkO3S0EMJ0uGKHFko7k=", "properties": {"ref": "https://www.belk.com/store/?StoreID=204", "@spider": "belk", "shop": "department_store", "addr:street_address": "2533 West US Hwy 90", "addr:city": "Lake City", "addr:state": "FL", "addr:postcode": "32055-7256", "addr:country": "US", "name": "Lake City FL", "phone": "+3867550153", "website": "https://www.belk.com/store/belk-lake-city-fl/?StoreID=204", "brand": "Belk", "brand:wikidata": "Q127428", "nsi_id": "belk-592fe0"}, "geometry": {"type": "Point", "coordinates": [-82.6726019, 30.1810119]}},
{"type": "Feature", "id": "8fnmXvWC-lBzE2oVQUBc3QNGgGs=", "properties": {"ref": "https://www.belk.com/store/?StoreID=288", "@spider": "belk", "shop": "department_store", "addr:street_address": "601 Elsinger Blvd", "addr:city": "Conway", "addr:state": "AR", "addr:postcode": "72032-4718", "addr:country": "US", "name": "Conway AR", "phone": "+5013285396", "website": "https://www.belk.com/store/belk-conway-ar/?StoreID=288", "brand": "Belk", "brand:wikidata": "Q127428", "nsi_id": "belk-592fe0"}, "geometry": {"type": "Point", "coordinates": [-92.414591, 35.087507]}},
{"type": "Feature", "id": "rfJkpoZDWO3o3hbwvzF4YXfT_sU=", "properties": {"ref": "https://www.belk.com/store/?StoreID=292", "@spider": "belk", "shop": "department_store", "addr:street_address": "500 Cornerstone Blvd", "addr:city": "Hot Springs", "addr:state": "AR", "addr:postcode": "71913-6566", "addr:country": "US", "name": "Hot Springs AR", "phone": "+5015250755", "website": "https://www.belk.com/store/belk-hot-springs-ar/?StoreID=292", "brand": "Belk", "brand:wikidata": "Q127428", "nsi_id": "belk-592fe0"}, "geometry": {"type": "Point", "coordinates": [-93.056255, 34.46392]}},
{"type": "Feature", "id": "szFaYT-07Bkb6J9F-pRAApvC6AY=", "properties": {"ref": "https://www.belk.com/store/?StoreID=281", "@spider": "belk", "shop": "department_store", "addr:street_address": "30500 Hwy 181, Suite 500", "addr:city": "Spanish Fort", "addr:state": "AL", "addr:postcode": "36527-5810", "addr:country": "US", "name": "Spanish Fort AL", "phone": "+2516215752", "website": "https://www.belk.com/store/belk-spanish-fort-al/?StoreID=281", "brand": "Belk", "brand:wikidata": "Q127428", "nsi_id": "belk-592fe0"}, "geometry": {"type": "Point", "coordinates": [-87.849114, 30.671509]}},
{"type": "Feature", "id": "YVcIUx6vL8-IrW4ynmhA2XjhRvk=", "properties": {"ref": "https://www.belk.com/store/?StoreID=655", "@spider": "belk", "shop": "department_store", "addr:street_address": "1373 Highland Avenue", "addr:city": "Selma", "addr:state": "AL", "addr:postcode": "36703-3213", "addr:country": "US", "name": "Selma AL", "phone": "+3348725537", "website": "https://www.belk.com/store/belk-selma-al/?StoreID=655", "brand": "Belk", "brand:wikidata": "Q127428", "nsi_id": "belk-592fe0"}, "geometry": {"type": "Point", "coordinates": [-87.015543, 32.433076]}},
{"type": "Feature", "id": "i11nUlJvedgY4At_c0gHywPOmUI=", "properties": {"ref": "https://www.belk.com/store/?StoreID=400", "@spider": "belk", "shop": "department_store", "addr:street_address": "2475 Pinnacle Way", "addr:city": "Prattville", "addr:state": "AL", "addr:postcode": "36066-6543", "addr:country": "US", "name": "Prattville AL", "phone": "+3342853419", "website": "https://www.belk.com/store/belk-prattville-al/?StoreID=400", "brand": "Belk", "brand:wikidata": "Q127428", "nsi_id": "belk-592fe0"}, "geometry": {"type": "Point", "coordinates": [-86.396119, 32.465478]}},
{"type": "Feature", "id": "kH_4e-geJ4ftkP7_-Vjo5y3ayg0=", "properties": {"ref": "https://www.belk.com/store/?StoreID=613", "@spider": "belk", "shop": "department_store", "addr:street_address": "2500 Eastdale Mall", "addr:city": "Montgomery", "addr:state": "AL", "addr:postcode": "36117-2126", "addr:country": "US", "name": "Montgomery AL", "phone": "+3342702400", "website": "https://www.belk.com/store/belk-montgomery-al/?StoreID=613", "brand": "Belk", "brand:wikidata": "Q127428", "nsi_id": "belk-592fe0"}, "geometry": {"type": "Point", "coordinates": [-86.2061763, 32.386041]}},
{"type": "Feature", "id": "D4L0IDiEz3H5ffAIk-7t7Y3_SW8=", "properties": {"ref": "https://www.belk.com/store/?StoreID=549", "@spider": "belk", "shop": "department_store", "addr:street_address": "3201 Bel Air Mall", "addr:city": "Mobile", "addr:state": "AL", "addr:postcode": "36606-3202", "addr:country": "US", "name": "Mobile AL", "phone": "+2514705400", "website": "https://www.belk.com/store/belk-mobile-al/?StoreID=549", "brand": "Belk", "brand:wikidata": "Q127428", "nsi_id": "belk-592fe0"}, "geometry": {"type": "Point", "coordinates": [-88.1202758, 30.6741986]}},
{"type": "Feature", "id": "l5qVIPUkr3i7AZTJUQI496YUqaQ=", "properties": {"ref": "https://www.belk.com/store/?StoreID=253", "@spider": "belk", "shop": "department_store", "addr:street_address": "300 Highway 78 East", "addr:city": "Jasper", "addr:state": "AL", "addr:postcode": "35501-3831", "addr:country": "US", "name": "Jasper AL", "phone": "+2053846361", "website": "https://www.belk.com/store/belk-jasper-al/?StoreID=253", "brand": "Belk", "brand:wikidata": "Q127428", "nsi_id": "belk-592fe0"}, "geometry": {"type": "Point", "coordinates": [-87.271808, 33.851588]}},
{"type": "Feature", "id": "pICsOc8IYq313fSXsh9-24Yha1o=", "properties": {"ref": "https://www.belk.com/store/?StoreID=607", "@spider": "belk", "shop": "department_store", "addr:street_address": "2801 Memorial Parkway", "addr:city": "Huntsville", "addr:state": "AL", "addr:postcode": "35801-6519", "addr:country": "US", "name": "Huntsville AL - Parkway", "phone": "+2565514200", "website": "https://www.belk.com/store/belk-huntsville-al--parkway/?StoreID=607", "brand": "Belk", "brand:wikidata": "Q127428", "nsi_id": "belk-592fe0"}, "geometry": {"type": "Point", "coordinates": [-86.588097, 34.708417]}},
{"type": "Feature", "id": "Rs1FLiKC509NIkO00-sAnyfaikM=", "properties": {"ref": "https://www.belk.com/store/?StoreID=423", "@spider": "belk", "shop": "department_store", "addr:street_address": "445 The Bridge Street Nw", "addr:city": "Huntsville", "addr:state": "AL", "addr:postcode": "35806-0030", "addr:country": "US", "name": "Huntsville AL - Bridge Street", "phone": "+2567222400", "website": "https://www.belk.com/store/belk-huntsville-al--bridge-street/?StoreID=423", "brand": "Belk", "brand:wikidata": "Q127428", "nsi_id": "belk-592fe0"}, "geometry": {"type": "Point", "coordinates": [-86.6749649, 34.7170793]}},
{"type": "Feature", "id": "USG7m3-XnqkNt_fFkd1BZaVN8nc=", "properties": {"ref": "https://www.belk.com/store/?StoreID=348", "@spider": "belk", "shop": "department_store", "addr:street_address": "11655 Us Hwy 431 South", "addr:city": "Guntersville", "addr:state": "AL", "addr:postcode": "35976-5667", "addr:country": "US", "name": "Guntersville AL", "phone": "+2568912833", "website": "https://www.belk.com/store/belk-guntersville-al/?StoreID=348", "brand": "Belk", "brand:wikidata": "Q127428", "nsi_id": "belk-592fe0"}, "geometry": {"type": "Point", "coordinates": [-86.277373, 34.298859]}},
{"type": "Feature", "id": "MJzWbF9T1SPih2hrAmLMvSXIRi0=", "properties": {"ref": "https://www.belk.com/store/?StoreID=616", "@spider": "belk", "shop": "department_store", "addr:street_address": "1001 Rainbow Drive", "addr:city": "Gadsden", "addr:state": "AL", "addr:postcode": "35901-5311", "addr:country": "US", "name": "Gadsden AL", "phone": "+2565496300", "website": "https://www.belk.com/store/belk-gadsden-al/?StoreID=616", "brand": "Belk", "brand:wikidata": "Q127428", "nsi_id": "belk-592fe0"}, "geometry": {"type": "Point", "coordinates": [-86.007615, 33.993967]}},
{"type": "Feature", "id": "8WndhhicC_uajImrNkz1vaOWgZs=", "properties": {"ref": "https://www.belk.com/store/?StoreID=614", "@spider": "belk", "shop": "department_store", "addr:street_address": "301 Cox Creek Parkway", "addr:city": "Florence", "addr:state": "AL", "addr:postcode": "35630-1590", "addr:country": "US", "name": "Florence AL", "phone": "+2567602400", "website": "https://www.belk.com/store/belk-florence-al/?StoreID=614", "brand": "Belk", "brand:wikidata": "Q127428", "nsi_id": "belk-592fe0"}, "geometry": {"type": "Point", "coordinates": [-87.636451, 34.838138]}},
{"type": "Feature", "id": "MqUeuxIgPVehr6Jdd6lVeTSxIc0=", "properties": {"ref": "https://www.belk.com/store/?StoreID=615", "@spider": "belk", "shop": "department_store", "addr:street_address": "900 Commons Drive, Suite 400", "addr:city": "Dothan", "addr:state": "AL", "addr:postcode": "36303-2281", "addr:country": "US", "name": "Dothan AL", "phone": "+3346712400", "website": "https://www.belk.com/store/belk-dothan-al/?StoreID=615", "brand": "Belk", "brand:wikidata": "Q127428", "nsi_id": "belk-592fe0"}, "geometry": {"type": "Point", "coordinates": [-85.426283, 31.254952]}},
{"type": "Feature", "id": "E7_jvUeGyPZYr6BYw40E6S7w3sI=", "properties": {"ref": "https://www.belk.com/store/?StoreID=417", "@spider": "belk", "shop": "department_store", "addr:street_address": "1216 Cullman Shpg Ctr.", "addr:city": "Cullman", "addr:state": "AL", "addr:postcode": "35055-2856", "addr:country": "US", "name": "Cullman AL", "phone": "+2567348941", "website": "https://www.belk.com/store/belk-cullman-al/?StoreID=417", "brand": "Belk", "brand:wikidata": "Q127428", "nsi_id": "belk-592fe0"}, "geometry": {"type": "Point", "coordinates": [-86.851035, 34.18259]}},
{"type": "Feature", "id": "jryv1cDzN9HmEkYnirRbDLj-ldA=", "properties": {"ref": "https://www.belk.com/store/?StoreID=611", "@spider": "belk", "shop": "department_store", "addr:street_address": "1801 Beltline Road Sw", "addr:city": "Decatur", "addr:state": "AL", "addr:postcode": "35601-5511", "addr:country": "US", "name": "Decatur AL", "phone": "+2563515300", "website": "https://www.belk.com/store/belk-decatur-al/?StoreID=611", "brand": "Belk", "brand:wikidata": "Q127428", "nsi_id": "belk-592fe0"}, "geometry": {"type": "Point", "coordinates": [-87.016997, 34.57097]}},
{"type": "Feature", "id": "TKqn_3miihZejBMXRZHx9e2eJEk=", "properties": {"ref": "https://www.belk.com/store/?StoreID=604", "@spider": "belk", "shop": "department_store", "addr:street_address": "221 Summit Blvd", "addr:city": "Birmingham", "addr:state": "AL", "addr:postcode": "35243-3108", "addr:country": "US", "name": "Birmingham AL - Summit", "phone": "+2059684200", "website": "https://www.belk.com/store/belk-birmingham-al--summit/?StoreID=604", "brand": "Belk", "brand:wikidata": "Q127428", "nsi_id": "belk-592fe0"}, "geometry": {"type": "Point", "coordinates": [-86.728198, 33.447925]}},
{"type": "Feature", "id": "BvxjcYK_KwXX1clzLWh2_gVSaJQ=", "properties": {"ref": "https://www.belk.com/store/?StoreID=608", "@spider": "belk", "shop": "department_store", "addr:street_address": "1701 McFarland Boulevard East, Suite 169", "addr:city": "Tuscaloosa", "addr:state": "AL", "addr:postcode": "35404-5800", "addr:country": "US", "name": "Tuscaloosa AL", "phone": "+2055542400", "website": "https://www.belk.com/store/belk-tuscaloosa-al/?StoreID=608", "brand": "Belk", "brand:wikidata": "Q127428", "nsi_id": "belk-592fe0"}, "geometry": {"type": "Point", "coordinates": [-87.523809, 33.195774]}},
{"type": "Feature", "id": "lzCs7eKAe6WtIlgSuAQSUSRfvqI=", "properties": {"ref": "https://www.belk.com/store/?StoreID=603", "@spider": "belk", "shop": "department_store", "addr:street_address": "2100 Riverchase Galleria", "addr:city": "Birmingham", "addr:state": "AL", "addr:postcode": "35244-2307", "addr:country": "US", "name": "Birmingham AL - Riverchase", "phone": "+2059874200", "website": "https://www.belk.com/store/belk-birmingham-al--riverchase/?StoreID=603", "brand": "Belk", "brand:wikidata": "Q127428", "nsi_id": "belk-592fe0"}, "geometry": {"type": "Point", "coordinates": [-86.809144, 33.380582]}},
{"type": "Feature", "id": "hxFIX4jC-lILs8E1X__ZpXRxzJA=", "properties": {"ref": "https://www.belk.com/store/?StoreID=349", "@spider": "belk", "shop": "department_store", "addr:street_address": "5000 Pinnacle Square", "addr:city": "Birmingham", "addr:state": "AL", "addr:postcode": "35235-3164", "addr:country": "US", "name": "Trussville AL", "phone": "+2056552694", "website": "https://www.belk.com/store/belk-trussville-al/?StoreID=349", "brand": "Belk", "brand:wikidata": "Q127428", "nsi_id": "belk-592fe0"}, "geometry": {"type": "Point", "coordinates": [-86.638459, 33.608429]}},
{"type": "Feature", "id": "fv8-h3pVXQjNI-tdmZ1ga5a8q5M=", "properties": {"ref": "https://www.belk.com/store/?StoreID=289", "@spider": "belk", "shop": "department_store", "addr:street_address": "1627 Opelika Road", "addr:city": "Auburn", "addr:state": "AL", "addr:postcode": "36830-2871", "addr:country": "US", "name": "Auburn AL", "phone": "+3348211007", "website": "https://www.belk.com/store/belk-auburn-al/?StoreID=289", "brand": "Belk", "brand:wikidata": "Q127428", "nsi_id": "belk-592fe0"}, "geometry": {"type": "Point", "coordinates": [-85.446222, 32.6267]}}]}