{"type":"FeatureCollection","features":[{"type": "Feature", "id": "lVATiOKlZ8UZ4vAAAZ_bBJWOC3A=", "properties": {"ref": "lake_arrowhead_resort_california", "@spider": "benchmark_hospitality", "addr:full": "27984 Hwy 189, Lake Arrowhead, CA 92352", "name": "Lake Arrowhead Resort and Spa", "phone": "909-336-1511 \u00a0 F: 909-744-3088", "website": "https://www.benchmarkresortsandhotels.com//lake_arrowhead_resort_california/"}, "geometry": {"type": "Point", "coordinates": [-117.1920998, 34.251881]}},
{"type": "Feature", "id": "dVGrBjZyrQWse37f5KwnjLgByfY=", "properties": {"ref": "forest_suites_resort_tahoe_ca", "@spider": "benchmark_hospitality", "addr:full": "One Lake Parkway South Lake Tahoe, California 96150", "name": "Forest Suites Resort", "phone": "800.822.5950", "website": "https://www.benchmarkresortsandhotels.com//forest_suites_resort_tahoe_ca/"}, "geometry": {"type": "Point", "coordinates": [-119.940696, 38.9559706]}},
{"type": "Feature", "id": "J040ElLat8UJubVBX-cRZgT6yYY=", "properties": {"ref": "nautical_beachfront_resort_az", "@spider": "benchmark_hospitality", "addr:full": "1000 McCulloch Boulevard North, Lake Havasu City, AZ 86403", "name": "The Nautical Beachfront Resort", "phone": "928.855.2141", "website": "https://www.benchmarkresortsandhotels.com//nautical_beachfront_resort_az/"}, "geometry": {"type": "Point", "coordinates": [-114.3537916, 34.4686261]}},
{"type": "Feature", "id": "9I6KwzYe-mOgXF34ENNtXQqDZd8=", "properties": {"ref": "chaminade_resort_santa_cruz", "@spider": "benchmark_hospitality", "addr:full": "One Chaminade Lane, Santa Cruz, CA 95065", "name": "Chaminade Resort & Spa", "phone": "(831) 475-5600", "website": "https://www.benchmarkresortsandhotels.com//chaminade_resort_santa_cruz/"}, "geometry": {"type": "Point", "coordinates": [-121.9849876, 36.9984185]}},
{"type": "Feature", "id": "W6RHpGoVH1i-DaJrGDrcO54dRa0=", "properties": {"ref": "cardozo_hotel_south_beach", "@spider": "benchmark_hospitality", "addr:full": "1300 Ocean Drive, Miami Beach, FL 33139", "name": "Cardozo South Beach", "phone": "(305) 533-6500", "website": "https://www.benchmarkresortsandhotels.com//cardozo_hotel_south_beach/"}, "geometry": {"type": "Point", "coordinates": [-80.1302232, 25.7841621]}},
{"type": "Feature", "id": "LzL-qKamTYie-emcVXlQWsRycfk=", "properties": {"ref": "costa_deste_vero_beach_resort", "@spider": "benchmark_hospitality", "addr:full": "Costa d'Este Beach Resort & Spa, 3244 Ocean Dr Vero Beach, FL 32963", "name": "Costa d\u2019Este Beach Resort & Spa", "phone": "(722) 562-9919", "website": "https://www.benchmarkresortsandhotels.com//costa_deste_vero_beach_resort/"}, "geometry": {"type": "Point", "coordinates": [-80.3553564, 27.652081]}},
{"type": "Feature", "id": "xyTsTusJZOvfdHo14n6QuUxD1aE=", "properties": {"ref": "snow_king_hotel_jackson_hole", "@spider": "benchmark_hospitality", "addr:full": "400 Snow King Loop Road, Jackson, WY 83001", "name": "Snow King Resort", "phone": "(307) 733-5200", "website": "https://www.benchmarkresortsandhotels.com//snow_king_hotel_jackson_hole/"}, "geometry": {"type": "Point", "coordinates": [-110.7590155, 43.4734237]}},
{"type": "Feature", "id": "s28fUEYI28awK63sciaukBN6XEg=", "properties": {"ref": "rise_uptown", "@spider": "benchmark_hospitality", "addr:full": "400 W Camelback Rd., Phoenix, AZ 85013", "name": "Rise Uptown", "phone": "480.536.8900", "website": "https://www.benchmarkresortsandhotels.com/rise_uptown/Overview/"}, "geometry": {"type": "Point", "coordinates": [-112.0816365, 33.5097692]}},
{"type": "Feature", "id": "gSscB_5P2D4fbs1jXLGoTr_5-fM=", "properties": {"ref": "abbey_resort_lake_geneva", "@spider": "benchmark_hospitality", "addr:full": "269 Fontana Blvd, Fontana, WI 53125", "name": "The Abbey Resort", "phone": "262-275-6811", "website": "https://www.benchmarkresortsandhotels.com//abbey_resort_lake_geneva/"}, "geometry": {"type": "Point", "coordinates": [-88.5763278, 42.5481755]}},
{"type": "Feature", "id": "8J4kcW1Bj6F4mj1ylk6-8rZDMUA=", "properties": {"ref": "wigwam-arizona", "@spider": "benchmark_hospitality", "addr:full": "300 East Wigwam Blvd, Litchfield Park, Arizona 85340", "name": "The Wigwam", "phone": "866-976-6894", "website": "https://www.benchmarkresortsandhotels.com/wigwam-arizona/Overview/"}, "geometry": {"type": "Point", "coordinates": [-112.3573715, 33.4935822]}},
{"type": "Feature", "id": "zUmS73WBI0VDEHZno9LUl8SYb_M=", "properties": {"ref": "mountain_shadows_az", "@spider": "benchmark_hospitality", "addr:full": "5445 E. Lincoln Drive, Paradise Valley AZ 85253", "name": "Mountain Shadows", "phone": "(855) 458-1417", "website": "https://www.benchmarkresortsandhotels.com/mountain_shadows_az/overview/"}, "geometry": {"type": "Point", "coordinates": [-111.9661752, 33.5303911]}},
{"type": "Feature", "id": "i_UmilZ5A4jPqjc916EE98IuWSI=", "properties": {"ref": "hotel_valley_ho_scottsdale", "@spider": "benchmark_hospitality", "addr:full": "6850 East Main Street, Scottsdale, AZ 85251", "name": "Hotel Valley Ho", "phone": "(480) 376-2600", "website": "https://www.benchmarkresortsandhotels.com/hotel_valley_ho_scottsdale/overview/"}, "geometry": {"type": "Point", "coordinates": [-111.9361417, 33.493449]}},
{"type": "Feature", "id": "Va5EY4UisI86Hndfo1yTZMiVkWY=", "properties": {"ref": "gilchrist_club_trenton_florida", "@spider": "benchmark_hospitality", "addr:full": "3270 SE 4th Way Trenton, Florida 32693", "name": "Gilchrist Club", "phone": "(352) 463-7070", "website": "https://www.benchmarkresortsandhotels.com/gilchrist_club_trenton_florida/about/"}, "geometry": {"type": "Point", "coordinates": [-82.8143294, 29.6127276]}},
{"type": "Feature", "id": "Y7KQgB-Rk5A96z1e6DMr2on-heo=", "properties": {"ref": "shores-resort", "@spider": "benchmark_hospitality", "addr:full": "2637 South Atlantic Avenue, Daytona Beach Shores, Florida 32118", "name": "The Shores Resort & Spa", "phone": "386-767-7350", "website": "https://www.benchmarkresortsandhotels.com/shores-resort/Overview/"}, "geometry": {"type": "Point", "coordinates": [-80.9868642, 29.1809164]}},
{"type": "Feature", "id": "dTtPktoWbRMV1HPC81a3IuHrnwQ=", "properties": {"ref": "grand_plaza_florida", "@spider": "benchmark_hospitality", "addr:full": "5250 Gulf Boulevard, St.Pete Beach, Florida 33706", "name": "Bellwether Beach Resort", "phone": "800-448-0901", "website": "https://www.benchmarkresortsandhotels.com/grand_plaza_florida/Overview/"}, "geometry": {"type": "Point", "coordinates": [-82.7452473, 27.7258175]}},
{"type": "Feature", "id": "eEgBhQybPO_6vTSxomNbsOqiP4s=", "properties": {"ref": "beachcomber_resort_florida", "@spider": "benchmark_hospitality", "addr:full": "6200 Gulf Boulevard, St. Pete Beach, Florida 33706", "name": "The Beachcomber", "phone": "800-544-4222", "website": "https://www.benchmarkresortsandhotels.com/beachcomber_resort_florida/overview/"}, "geometry": {"type": "Point", "coordinates": [-82.749614, 27.7328122]}},
{"type": "Feature", "id": "kB7FXnpx0SSrIKfCDE--EcjZH_w=", "properties": {"ref": "manor_vail_lodge_colorado", "@spider": "benchmark_hospitality", "addr:full": "595 Vail Valley Dr, Vail, CO 81657", "name": "Manor Vail Lodge", "phone": "970-476-5000", "website": "https://www.benchmarkresortsandhotels.com/manor_vail_lodge_colorado/Overview/"}, "geometry": {"type": "Point", "coordinates": [-106.3706359, 39.6393281]}},
{"type": "Feature", "id": "B6TAkGjOwOE_e7eDXfOtCXXnG9s=", "properties": {"ref": "skamania_lodge_stevenson_washington", "@spider": "benchmark_hospitality", "addr:full": "1131 SW  Way, Stevenson, WA 98648", "name": "Skamania Lodge", "phone": "509-314-4177", "website": "https://www.benchmarkresortsandhotels.com/skamania_lodge_stevenson_washington"}, "geometry": {"type": "Point", "coordinates": [-121.907029, 45.68574]}},
{"type": "Feature", "id": "gK8iEw07VCpMek3Ya2kHaojwk34=", "properties": {"ref": "wingspread_conference_center", "@spider": "benchmark_hospitality", "addr:full": "33 E 4 Mile Rd, Wind Point, WI 53402", "name": "Wingspread Retreat & Executive Conference Center", "phone": "262-639-3211", "website": "https://www.benchmarkresortsandhotels.com/wingspread_conference_center/Overview/"}, "geometry": {"type": "Point", "coordinates": [-87.771599, 42.784472]}},
{"type": "Feature", "id": "DLcJEnn1w0B0N4sDoSjzBfairxc=", "properties": {"ref": "willows_lodge_washington", "@spider": "benchmark_hospitality", "addr:full": "14580 NE 145th Street, Woodinville, WA 98072", "name": "Willows Lodge", "phone": "(425) 424-3900", "website": "https://www.benchmarkresortsandhotels.com//willows_lodge_washington/"}, "geometry": {"type": "Point", "coordinates": [-122.1470106, 47.7337759]}},
{"type": "Feature", "id": "tVEvFSHOxHu0C9X822QyRnMhT3Y=", "properties": {"ref": "hotel_roanoke_virginia", "@spider": "benchmark_hospitality", "addr:full": "Hotel Roanoke & Conference Center, 110 Shenandoah Ave. NW, Roanoke, VA 24016", "name": "The Hotel Roanoke & Conference Center", "phone": "(540) 985-5900", "website": "https://www.benchmarkresortsandhotels.com//hotel_roanoke_virginia/"}, "geometry": {"type": "Point", "coordinates": [-79.9395185, 37.2745685]}},
{"type": "Feature", "id": "AlMhBmLTTeKLGYt_shfoUF9IxC8=", "properties": {"ref": "stonewallresort", "@spider": "benchmark_hospitality", "addr:full": "940 Resort Drive Roanoke, WV 26447", "name": "Stonewall Resort", "phone": "(304) 269-7400", "website": "https://www.benchmarkresortsandhotels.com/stonewallresort/about/"}, "geometry": {"type": "Point", "coordinates": [-80.4926786, 38.9493986]}},
{"type": "Feature", "id": "DJkYLIr06o9QF2M2jB5QxDJ0G_8=", "properties": {"ref": "lansdowne_resort_spa_virginia", "@spider": "benchmark_hospitality", "addr:full": "44050 Woodridge Parkway Leesburg, VA 20176", "name": "Lansdowne", "phone": "703-729-8400", "website": "https://www.benchmarkresortsandhotels.com//lansdowne_resort_spa_virginia/"}, "geometry": {"type": "Point", "coordinates": [-77.4784423, 39.0834518]}},
{"type": "Feature", "id": "UsrtZNLauvLZih9mYQorzuWmrGI=", "properties": {"ref": "essex_resort_spa_vermont", "@spider": "benchmark_hospitality", "addr:full": "70 Essex Way, Essex (Burlington), VT 05452", "name": "The Essex Resort & Spa", "phone": "(877) 684-1123", "website": "https://www.benchmarkresortsandhotels.com//essex_resort_spa_vermont/"}, "geometry": {"type": "Point", "coordinates": [-73.078514, 44.501606]}},
{"type": "Feature", "id": "q9pe2fxhCW-XN6bo_fg16lv0o8I=", "properties": {"ref": "hotel-murano-tacoma", "@spider": "benchmark_hospitality", "addr:full": "1320 Broadway, Tacoma, Washington 98402", "name": "Hotel Murano", "phone": "(253) 238-8000", "website": "https://www.benchmarkresortsandhotels.com/hotel-murano-tacoma/Overview/"}, "geometry": {"type": "Point", "coordinates": [-122.4423807, 47.2504275]}},
{"type": "Feature", "id": "6W8XOMlwdm1SHQLam00oCsusOMU=", "properties": {"ref": "hotel-theodore-seattle", "@spider": "benchmark_hospitality", "addr:full": "1531 7th Ave, Seattle, Washington 98101", "name": "Hotel Theodore", "phone": "(206) 621-1200", "website": "https://www.benchmarkresortsandhotels.com/hotel-theodore-seattle/Overview/"}, "geometry": {"type": "Point", "coordinates": [-122.3364792, 47.6123296]}},
{"type": "Feature", "id": "CDzdu_Nj3cOAc1PKwGAQh1n_Etg=", "properties": {"ref": "hotel-max-seattle", "@spider": "benchmark_hospitality", "addr:full": "620 Stewart St, Seattle, Washington 98101", "name": "Hotel Max", "phone": "(206) 728-6299", "website": "https://www.benchmarkresortsandhotels.com/hotel-max-seattle/Overview/"}, "geometry": {"type": "Point", "coordinates": [-122.3389322, 47.6143091]}},
{"type": "Feature", "id": "UVZhH_HgimzB90-l9nWmNzBaMJI=", "properties": {"ref": "margaritaville_lake_conroe_texas", "@spider": "benchmark_hospitality", "addr:full": "Margaritaville Lake Resort, 600 Margaritaville Parkway, Montgomery, TX 77356", "name": "Margaritaville Lake Resort, Lake Conroe-Houston", "phone": "936-448-4400", "website": "https://www.benchmarkresortsandhotels.com//margaritaville_lake_conroe_texas"}, "geometry": {"type": "Point", "coordinates": [-95.6771772, 30.4626729]}},
{"type": "Feature", "id": "DoVbtZlxLUqnCV6UuKcLgp3u2Ek=", "properties": {"ref": "Texas_AM_Hotel_Conference_Center_College_Station", "@spider": "benchmark_hospitality", "addr:full": "Texas A&M Hotel & Conference Center, 177 Joe Routt Boulevard \u2022 1239 TAMU, College Station, Texas 77843", "name": "Texas A&M Hotel and Conference Center", "phone": "888-65-GIGEM (44436)", "website": "https://www.benchmarkresortsandhotels.com//Texas_AM_Hotel_Conference_Center_College_Station/"}, "geometry": {"type": "Point", "coordinates": [-96.3422991, 30.6109546]}},
{"type": "Feature", "id": "6WdGeTxGKyJKFVaOIldR9URnn8U=", "properties": {"ref": "hill_country_tx_resort", "@spider": "benchmark_hospitality", "addr:full": "16641 La Cantera Parkway, San Antonio, TX 78256", "name": "La Cantera Resort & Spa", "phone": "210-558-6500", "website": "https://www.benchmarkresortsandhotels.com//hill_country_tx_resort/"}, "geometry": {"type": "Point", "coordinates": [-98.6185826, 29.6017633]}},
{"type": "Feature", "id": "Ljms2XghOEDW9DnA64Ez8ptDFxM=", "properties": {"ref": "sanderling_resort_nc", "@spider": "benchmark_hospitality", "addr:full": "1461 Duck Road, Duck, NC 27949", "name": "Sanderling Resort", "phone": "(855) 412-7866", "website": "https://www.benchmarkresortsandhotels.com/sanderling_resort_nc"}, "geometry": {"type": "Point", "coordinates": [-75.7731719, 36.2230821]}},
{"type": "Feature", "id": "ljGeUpjVLcihz_G-5VRWDkf1ULw=", "properties": {"ref": "equinox_resort_vermont", "@spider": "benchmark_hospitality", "addr:full": "3567 Main Street, Manchester Village, VT, 05254", "name": "The Equinox Golf Resort & Spa", "phone": "802-362-4700", "website": "https://www.benchmarkresortsandhotels.com/equinox_resort_vermont/Overview/"}, "geometry": {"type": "Point", "coordinates": [-73.0727, 43.1623]}},
{"type": "Feature", "id": "bCLA3pYLz49ErbVU_Ki0SPizHi8=", "properties": {"ref": "heldrich_hotel_new_brunswick", "@spider": "benchmark_hospitality", "addr:full": "10 Livingston Avenue New Brunswick, NJ 08901", "name": "The Heldrich", "phone": "(732) 729-4670", "website": "https://www.benchmarkresortsandhotels.com//heldrich_hotel_new_brunswick/"}, "geometry": {"type": "Point", "coordinates": [-74.4440794, 40.4928241]}},
{"type": "Feature", "id": "xH6k4KP7aT57NCcR87J0clW6gO4=", "properties": {"ref": "Yotelpad_park_city", "@spider": "benchmark_hospitality", "addr:full": "2670 W Canyons Resort Drive, Park City, UT 84098", "name": "YOTELPAD Park City", "phone": "435-659-8993", "website": "https://www.benchmarkresortsandhotels.com/Yotelpad_park_city/Overview/"}, "geometry": {"type": "Point", "coordinates": [-111.5549797, 40.6849001]}},
{"type": "Feature", "id": "xXZgSI7E36HbgxpklFpq1bVBrM4=", "properties": {"ref": "hotel_preston", "@spider": "benchmark_hospitality", "addr:full": "733 Briley Parkway, Nashville, Tennessee 37217", "name": "Hotel Preston", "phone": "(615) 361-5900", "website": "https://www.benchmarkresortsandhotels.com/hotel_preston/Overview/"}, "geometry": {"type": "Point", "coordinates": [-86.7034601, 36.1421561]}},
{"type": "Feature", "id": "R70HE-Ujabr3dOW4s25xjfM00vI=", "properties": {"ref": "sentinel-hotel", "@spider": "benchmark_hospitality", "addr:full": "614 SW 11th Ave, Portland, Oregon 97205", "name": "Sentinel", "phone": "(503) 224-3400", "website": "https://www.benchmarkresortsandhotels.com/sentinel-hotel/Overview/"}, "geometry": {"type": "Point", "coordinates": [-122.6844971, 45.520569]}},
{"type": "Feature", "id": "p8C1-vY61524KJNvX4XbvEya4Ps=", "properties": {"ref": "hotel-lucia-portland", "@spider": "benchmark_hospitality", "addr:full": "400 SW Broadway, Portland, Oregon 97205", "name": "Hotel Lucia", "phone": "(503) 225-1717", "website": "https://www.benchmarkresortsandhotels.com/hotel-lucia-portland/Overview/"}, "geometry": {"type": "Point", "coordinates": [-122.6805333, 45.5210181]}},
{"type": "Feature", "id": "QcXr8yGUqVAywKqeNrqoKqncMXk=", "properties": {"ref": "the-heathman-hotel", "@spider": "benchmark_hospitality", "addr:full": "1001 SW Broadway, Portland, Oregon 97205", "name": "The Heathman Hotel", "phone": "(503) 241-4100", "website": "https://www.benchmarkresortsandhotels.com/the-heathman-hotel/Overview/"}, "geometry": {"type": "Point", "coordinates": [-122.6832579, 45.5172265]}},
{"type": "Feature", "id": "cFD9_qsZRMwYOWTtHDrM3h5_zFI=", "properties": {"ref": "dossier-hotel-portland", "@spider": "benchmark_hospitality", "addr:full": "750 SW Alder Street, Portland, Oregon 97205", "name": "Dossier", "phone": "(503) 294-9000", "website": "https://www.benchmarkresortsandhotels.com/dossier-hotel-portland/Overview/"}, "geometry": {"type": "Point", "coordinates": [-122.6822671, 45.520059]}},
{"type": "Feature", "id": "yFBt0Qv2v71qlSXqktwU-XeryJw=", "properties": {"ref": "hotel-deluxe-portland", "@spider": "benchmark_hospitality", "addr:full": "729 SW 15th Ave, Portland, Oregon 97205", "name": "Hotel deLuxe", "phone": "(503) 219-2094", "website": "https://www.benchmarkresortsandhotels.com/hotel-deluxe-portland/Overview/"}, "geometry": {"type": "Point", "coordinates": [-122.6899451, 45.5209998]}},
{"type": "Feature", "id": "5pnD-ivzap3px2OYmMr4jemHJxc=", "properties": {"ref": "riverhouse_oregon", "@spider": "benchmark_hospitality", "addr:full": "3075 N. Business 97, Bend, OR 97703", "name": "Riverhouse on the Deschutes", "phone": "888-919-9148", "website": "https://www.benchmarkresortsandhotels.com/riverhouse_oregon/Overview/"}, "geometry": {"type": "Point", "coordinates": [-121.30616, 44.08132]}},
{"type": "Feature", "id": "B7GoDdENttmFe0lGkNmV4c0ud6k=", "properties": {"ref": "edith_macy_conference_center_ny", "@spider": "benchmark_hospitality", "addr:full": "550 Chappaqua Road, Briarcliff Manor, NY 10510", "name": "Edith Macy Center", "phone": "(914) 945-8000", "website": "https://www.benchmarkresortsandhotels.com/edith_macy_conference_center_ny/about/"}, "geometry": {"type": "Point", "coordinates": [-73.8074323, 41.1599852]}},
{"type": "Feature", "id": "YS6RnJDgDcl0vjxgJWbK9Ol7nuk=", "properties": {"ref": "hanover_inn_dartmouth", "@spider": "benchmark_hospitality", "addr:full": "Two East Wheelock Hanover, New Hampshire 03755", "name": "Hanover Inn Dartmouth", "phone": "(603) 643-4300", "website": "https://www.benchmarkresortsandhotels.com/hanover_inn_dartmouth/overview/"}, "geometry": {"type": "Point", "coordinates": [-72.2909838, 43.7021933]}},
{"type": "Feature", "id": "gnlUhz--Gk23V5JMU_We-WNRZh4=", "properties": {"ref": "boston_harbor_hotel", "@spider": "benchmark_hospitality", "addr:full": "70 Rowes Wharf, Boston MA 02110", "name": "Boston Harbor Hotel", "phone": "617-439-7000 \u00a0 F: 1-800-752-7077", "website": "https://www.benchmarkresortsandhotels.com/boston_harbor_hotel/Overview/"}, "geometry": {"type": "Point", "coordinates": [-71.0504, 42.3562]}},
{"type": "Feature", "id": "kvE37IwiXqr1D5Tsw4j-v1zYDto=", "properties": {"ref": "spruce_point_inn_maine", "@spider": "benchmark_hospitality", "addr:full": "88 Grandview Avenue, Boothbay Harbor, Maine, 04538", "name": "Spruce Point Inn", "phone": "(207) 633-4152", "website": "https://www.benchmarkresortsandhotels.com/spruce_point_inn_maine/Overview/"}, "geometry": {"type": "Point", "coordinates": [-69.6248, 43.8300429]}},
{"type": "Feature", "id": "e2BsyWak72vF_v89144FHJgTvYk=", "properties": {"ref": "luxury_resort_hawaii", "@spider": "benchmark_hospitality", "addr:full": "57-091 Kamehameha Highway, Kahuku, HI 96731", "name": "Ocean Bungalows at Turtle Bay Resort", "phone": "(866) 475-2569", "website": "https://www.benchmarkresortsandhotels.com//luxury_resort_hawaii/"}, "geometry": {"type": "Point", "coordinates": [-157.9987016, 21.7042435]}},
{"type": "Feature", "id": "bPNRgOMR-w5xJSr5tGCJ3Up8IbE=", "properties": {"ref": "turtle_bay_resort_oahu", "@spider": "benchmark_hospitality", "name": "Turtle Bay Resort", "phone": "(866) 475-2569", "website": "https://www.benchmarkresortsandhotels.com//turtle_bay_resort_oahu/"}, "geometry": {"type": "Point", "coordinates": [-157.9987016, 21.7042435]}},
{"type": "Feature", "id": "VnPxqv6GyC1JvUaT2aAeo4vgXeA=", "properties": {"ref": "tivoli_lodge_vail_co", "@spider": "benchmark_hospitality", "addr:full": "383 Hanson Ranch Road, Vail, CO 81657", "name": "Tivoli Lodge", "phone": "970.476.5615", "website": "https://www.benchmarkresortsandhotels.com//tivoli_lodge_vail_co/"}, "geometry": {"type": "Point", "coordinates": [-106.37108, 39.64027]}},
{"type": "Feature", "id": "df_7UVfPz8gIHq-9j1BzNyAMZ1w=", "properties": {"ref": "old-77-hotel", "@spider": "benchmark_hospitality", "addr:full": "535 Tchoupitoulas St, New Orleans, Louisiana 70130", "name": "The Old No. 77 Hotel", "phone": "(504) 527-5271", "website": "https://www.benchmarkresortsandhotels.com/old-77-hotel/Overview/"}, "geometry": {"type": "Point", "coordinates": [-90.0696944, 29.9479095]}},
{"type": "Feature", "id": "8ubYJv-LTbHmv1Q2chVJaFsX5js=", "properties": {"ref": "garden_of_the_gods_co_springs", "@spider": "benchmark_hospitality", "addr:full": "3320 Mesa Road, Colorado Springs, CO  80904", "name": "Garden of the Gods Resort and Club", "phone": "719.632.5541", "website": "https://www.benchmarkresortsandhotels.com//garden_of_the_gods_co_springs/"}, "geometry": {"type": "Point", "coordinates": [-104.8684324, 38.8794444]}},
{"type": "Feature", "id": "6zLVNr34g677Tw5pc7GUdNxs3D4=", "properties": {"ref": "cambridge_beaches_bermuda", "@spider": "benchmark_hospitality", "addr:full": "30 Kings Point Road, Sandys MA02 . Bermuda", "name": "Cambridge Beaches Resort & Spa", "phone": "(800) 468-7300", "website": "https://www.benchmarkresortsandhotels.com/cambridge_beaches_bermuda/Overview/"}, "geometry": {"type": "Point", "coordinates": [-64.8681806, 32.3097015]}},
{"type": "Feature", "id": "Kz_VnFO8vsMlukZ0rPwiiAMT_70=", "properties": {"ref": "the_bradley_hotel", "@spider": "benchmark_hospitality", "addr:full": "204 W Main St, Wayne, Indiana 46802", "name": "The Bradley", "phone": "(260) 428-4018", "website": "https://www.benchmarkresortsandhotels.com/the_bradley_hotel/Overview/"}, "geometry": {"type": "Point", "coordinates": [-85.1441896, 41.080312]}},
{"type": "Feature", "id": "54h2ttLv1-tuyZ0Q12_XStPQNq8=", "properties": {"ref": "david_rubenstein_forum_chicago", "@spider": "benchmark_hospitality", "addr:full": "1201 East 60th Street, Chicago, IL 60637", "name": "David Rubenstein Forum", "phone": "773-702-2110", "website": "https://www.benchmarkresortsandhotels.com/david_rubenstein_forum_chicago/Overview/"}, "geometry": {"type": "Point", "coordinates": [-87.5983584, 41.7859006]}},
{"type": "Feature", "id": "_oIFDeFSravbK3AaSE5-rZyp3L4=", "properties": {"ref": "legacy-lodge-lanier-islands", "@spider": "benchmark_hospitality", "addr:full": "7000 Lanier Islands Parkway, Buford, GA 30518", "name": "Legacy Lodge at Lanier Islands", "phone": "770-945-8787", "website": "https://www.benchmarkresortsandhotels.com/legacy-lodge-lanier-islands/Overview/"}, "geometry": {"type": "Point", "coordinates": [-84.00696, 34.172322]}},
{"type": "Feature", "id": "_torGot_HuLoFSZ0BQV9dB59zIw=", "properties": {"ref": "hotel-eleo-florida", "@spider": "benchmark_hospitality", "addr:full": "1514 SW 14th Street, Gainesville, Florida 32608", "name": "Hotel Eleo", "phone": "352-565-3536", "website": "https://www.benchmarkresortsandhotels.com/hotel-eleo-florida/Overview/"}, "geometry": {"type": "Point", "coordinates": [-82.3431487, 29.6368707]}},
{"type": "Feature", "id": "tIQREUdanMNhZZseB-gqflCM8ZI=", "properties": {"ref": "banyan_cay_florida", "@spider": "benchmark_hospitality", "addr:full": "1900 Banyan Club Road, West Palm Beach, FL 33401", "name": "Banyan Cay Resort & Golf", "phone": "(561) 557-5840", "website": "https://www.benchmarkresortsandhotels.com/banyan_cay_florida/overview/"}, "geometry": {"type": "Point", "coordinates": [-80.0901586, 26.7389597]}},
{"type": "Feature", "id": "JkCCW-WAnfe-MGnTpRbEAXonWT0=", "properties": {"ref": "duck_key_florida", "@spider": "benchmark_hospitality", "addr:full": "61 Hawks Cay Boulevard, Duck Key, FL 33050", "name": "Hawks Cay Resort", "phone": "(888) 395-5539", "website": "https://www.benchmarkresortsandhotels.com/duck_key_florida/Overview/"}, "geometry": {"type": "Point", "coordinates": [-80.9154113, 24.7770677]}},
{"type": "Feature", "id": "B3cMQg9zEIwhTjpM_2DwnSip6S8=", "properties": {"ref": "University_of_florida_hotel_gainesville", "@spider": "benchmark_hospitality", "addr:full": "1714 SW 34th Street, Gainesville, FL, 32607", "name": "Hilton University of Florida Conference Center Gainesville", "phone": "(352) 371-3600", "website": "https://www.benchmarkresortsandhotels.com/University_of_florida_hotel_gainesville/overview/"}, "geometry": {"type": "Point", "coordinates": [-82.3762558, 29.6366749]}}]}