{"type":"FeatureCollection","features":[{"type": "Feature", "id": "9HfHxpqkbblbUz-VjZj-eDi8bYI=", "properties": {"ref": "https://www.benihana.com/locations/old-town/", "@spider": "benihana", "amenity": "restaurant", "cuisine": "japanese;teppanyaki;steak", "addr:city": " Old Town", "addr:state": "AZ", "addr:country": "US", "name": "Old Town, AZ", "website": "https://www.benihana.com/locations/old-town/", "brand": "Benihana", "brand:wikidata": "Q4887996", "nsi_id": "benihana-bbd124"}, "geometry": {"type": "Point", "coordinates": [-68.6453092, 44.9342349]}},
{"type": "Feature", "id": "8BIvrY7zcPrRb6EryWwfQ-DXSsg=", "properties": {"ref": "https://www.benihana.com/locations/anchorage-ak-ac/", "@spider": "benihana", "amenity": "restaurant", "cuisine": "japanese;teppanyaki;steak", "addr:street_address": "1100 W 8th Ave", "addr:city": " Anchorage", "addr:state": "AK", "addr:postcode": "99501", "addr:country": "US", "name": "ANCHORAGE, AK", "phone": "907.222.5212", "website": "https://www.benihana.com/locations/anchorage-ak-ac/", "brand": "Benihana", "brand:wikidata": "Q4887996", "nsi_id": "benihana-bbd124"}, "geometry": {"type": "Point", "coordinates": [-149.9040957, 61.21429139999999]}},
{"type": "Feature", "id": "w263u2znuxcEeTlYkETVyastIEA=", "properties": {"ref": "https://www.benihana.com/locations/manhasset-ny-mn/", "@spider": "benihana", "amenity": "restaurant", "cuisine": "japanese;teppanyaki;steak", "addr:street_address": "2105 Northern Blvd.", "addr:city": " Manhasset", "addr:state": "NY", "addr:postcode": "11030", "addr:country": "US", "name": "MANHASSET, NY", "phone": "516.627.3400", "website": "https://www.benihana.com/locations/manhasset-ny-mn/", "brand": "Benihana", "brand:wikidata": "Q4887996", "nsi_id": "benihana-bbd124"}, "geometry": {"type": "Point", "coordinates": [-73.6701305, 40.7979429]}},
{"type": "Feature", "id": "wgOO48Xjzv7fvy0Z3oObsowqKuI=", "properties": {"ref": "https://www.benihana.com/locations/westbury-ny-wy/", "@spider": "benihana", "amenity": "restaurant", "cuisine": "japanese;teppanyaki;steak", "addr:street_address": "920 Merchant\u2019s Concourse", "addr:city": " Westbury", "addr:state": "NY", "addr:postcode": "11590", "addr:country": "US", "name": "WESTBURY, NY", "phone": "516.222.6091", "website": "https://www.benihana.com/locations/westbury-ny-wy/", "brand": "Benihana", "brand:wikidata": "Q4887996", "nsi_id": "benihana-bbd124"}, "geometry": {"type": "Point", "coordinates": [-73.5919397, 40.7453479]}},
{"type": "Feature", "id": "N9J8CEA5XDd0LCRARsfNB5VZ3Es=", "properties": {"ref": "https://www.benihana.com/locations/yankee-stadium-ny/", "@spider": "benihana", "amenity": "restaurant", "cuisine": "japanese;teppanyaki;steak", "addr:street_address": "1 E 161 St", "addr:city": " The Bronx", "addr:state": "NY", "addr:postcode": "10451", "addr:country": "US", "name": "YANKEE STADIUM, NY", "website": "https://www.benihana.com/locations/yankee-stadium-ny/", "brand": "Benihana", "brand:wikidata": "Q4887996", "nsi_id": "benihana-bbd124"}, "geometry": {"type": "Point", "coordinates": [-73.9278437, 40.8292979]}},
{"type": "Feature", "id": "Iu1rYAQziLwY_nrAURBXJHABmVw=", "properties": {"ref": "https://www.benihana.com/locations/newyorkwest-ny-we/", "@spider": "benihana", "amenity": "restaurant", "cuisine": "japanese;teppanyaki;steak", "addr:street_address": "47 West 56th Street", "addr:city": " New York", "addr:state": "NY", "addr:postcode": "10019", "addr:country": "US", "name": "NEW YORK, NY", "phone": "212.581.0930", "website": "https://www.benihana.com/locations/newyorkwest-ny-we/", "brand": "Benihana", "brand:wikidata": "Q4887996", "nsi_id": "benihana-bbd124"}, "geometry": {"type": "Point", "coordinates": [-73.9767844, 40.7634526]}},
{"type": "Feature", "id": "zKE5hC5a2PxdjCn7yNlTv1RbYdw=", "properties": {"ref": "https://www.benihana.com/locations/times-square/", "@spider": "benihana", "amenity": "restaurant", "cuisine": "japanese;teppanyaki;steak", "addr:city": " NEW YORK", "addr:state": "NY", "addr:country": "US", "name": "TIMES SQUARE, NY", "website": "https://www.benihana.com/locations/times-square/", "brand": "Benihana", "brand:wikidata": "Q4887996", "nsi_id": "benihana-bbd124"}, "geometry": {"type": "Point", "coordinates": [-74.0059728, 40.7127753]}},
{"type": "Feature", "id": "QU0KXR_hFk9b6bRmxEPeDdb09JQ=", "properties": {"ref": "https://www.benihana.com/locations/shorthills-nj-sh/", "@spider": "benihana", "amenity": "restaurant", "cuisine": "japanese;teppanyaki;steak", "addr:street_address": "840 Morris Turnpike", "addr:city": " Short Hills", "addr:state": "NJ", "addr:postcode": "07078", "addr:country": "US", "name": "SHORT HILLS, NJ", "phone": "973.467.9550", "website": "https://www.benihana.com/locations/shorthills-nj-sh/", "brand": "Benihana", "brand:wikidata": "Q4887996", "nsi_id": "benihana-bbd124"}, "geometry": {"type": "Point", "coordinates": [-74.3378979, 40.7236575]}},
{"type": "Feature", "id": "UzDrNx3DLl5TuoQJavI8-GFCt-I=", "properties": {"ref": "https://www.benihana.com/locations/edison-nj-ed/", "@spider": "benihana", "amenity": "restaurant", "cuisine": "japanese;teppanyaki;steak", "addr:street_address": "60 Parsonage Rd.", "addr:city": " Edison", "addr:state": "NJ", "addr:postcode": "08837", "addr:country": "US", "name": "EDISON, NJ", "phone": "732.744.0660", "website": "https://www.benihana.com/locations/edison-nj-ed/", "brand": "Benihana", "brand:wikidata": "Q4887996", "nsi_id": "benihana-bbd124"}, "geometry": {"type": "Point", "coordinates": [-74.3334986, 40.54890710000001]}},
{"type": "Feature", "id": "LX04P-HLGPZ25Y2EWHomxuWzeZU=", "properties": {"ref": "https://www.benihana.com/locations/plymouth-meeting/", "@spider": "benihana", "amenity": "restaurant", "cuisine": "japanese;teppanyaki;steak", "addr:street_address": "508 W. Germantown Pike", "addr:city": " Plymouth Meeting", "addr:state": "PA", "addr:postcode": "19462", "addr:country": "US", "name": "PLYMOUTH MEETING, PA", "phone": "610.832.5924", "website": "https://www.benihana.com/locations/plymouth-meeting/", "brand": "Benihana", "brand:wikidata": "Q4887996", "nsi_id": "benihana-bbd124"}, "geometry": {"type": "Point", "coordinates": [-75.2792137, 40.1164066]}},
{"type": "Feature", "id": "CfWjVzVfQDZjgVfHETVTlIYx4Xw=", "properties": {"ref": "https://www.benihana.com/locations/cherryhill-nj-ch/", "@spider": "benihana", "amenity": "restaurant", "cuisine": "japanese;teppanyaki;steak", "addr:street_address": "5255 Marlton Pike", "addr:city": " Pennsauken", "addr:state": "NJ", "addr:postcode": "08109", "addr:country": "US", "name": "CHERRY HILL, NJ", "phone": "856.665.6320", "website": "https://www.benihana.com/locations/cherryhill-nj-ch/", "brand": "Benihana", "brand:wikidata": "Q4887996", "nsi_id": "benihana-bbd124"}, "geometry": {"type": "Point", "coordinates": [-75.066863, 39.9336039]}},
{"type": "Feature", "id": "YDahwuPn4p3VAgFIP65xjyfnP9k=", "properties": {"ref": "https://www.benihana.com/locations/midland-mi/", "@spider": "benihana", "amenity": "restaurant", "cuisine": "japanese;teppanyaki;steak", "addr:street_address": "2929 S. Saginaw Road", "addr:city": " Midland", "addr:state": "MI", "addr:postcode": "48640", "addr:country": "US", "name": "Midland, MI", "website": "https://www.benihana.com/locations/midland-mi/", "brand": "Benihana", "brand:wikidata": "Q4887996", "nsi_id": "benihana-bbd124"}, "geometry": {"type": "Point", "coordinates": [-84.20700509999999, 43.60637639999999]}},
{"type": "Feature", "id": "e8IUvzmoqI70L618pExAH9uC0m0=", "properties": {"ref": "https://www.benihana.com/locations/saginaw-mi/", "@spider": "benihana", "amenity": "restaurant", "cuisine": "japanese;teppanyaki;steak", "addr:street_address": "3870 Bay Road", "addr:city": " Saginaw", "addr:state": "MI", "addr:postcode": "48603", "addr:country": "US", "name": "Saginaw, MI", "website": "https://www.benihana.com/locations/saginaw-mi/", "brand": "Benihana", "brand:wikidata": "Q4887996", "nsi_id": "benihana-bbd124"}, "geometry": {"type": "Point", "coordinates": [-83.9747982, 43.4640067]}},
{"type": "Feature", "id": "VVHCjW0GII4FZkJod-JN4aIoBME=", "properties": {"ref": "https://www.benihana.com/locations/baltimore/", "@spider": "benihana", "amenity": "restaurant", "cuisine": "japanese;teppanyaki;steak", "addr:street_address": "1390 Lancaster St", "addr:city": " Baltimore", "addr:state": "MD", "addr:postcode": "21231", "addr:country": "US", "name": "BALTIMORE, MD", "phone": "443.873.4001", "website": "https://www.benihana.com/locations/baltimore/", "brand": "Benihana", "brand:wikidata": "Q4887996", "nsi_id": "benihana-bbd124"}, "geometry": {"type": "Point", "coordinates": [-76.5974426, 39.2824818]}},
{"type": "Feature", "id": "udfiXpA6MQcoHyblGnH1qmpiv5g=", "properties": {"ref": "https://www.benihana.com/locations/troy-mi-ty/", "@spider": "benihana", "amenity": "restaurant", "cuisine": "japanese;teppanyaki;steak", "addr:street_address": "1985 W. Big Beaver Road", "addr:city": " Troy", "addr:state": "MI", "addr:postcode": "48084", "addr:country": "US", "name": "TROY, MI", "phone": "248.649.6340", "website": "https://www.benihana.com/locations/troy-mi-ty/", "brand": "Benihana", "brand:wikidata": "Q4887996", "nsi_id": "benihana-bbd124"}, "geometry": {"type": "Point", "coordinates": [-83.17381859999999, 42.56101350000001]}},
{"type": "Feature", "id": "MRM7sKMhE4RRDGvkGCpfEs4wJd4=", "properties": {"ref": "https://www.benihana.com/locations/farmington-hills-mi-fh/", "@spider": "benihana", "amenity": "restaurant", "cuisine": "japanese;teppanyaki;steak", "addr:street_address": "21150 Haggerty Road", "addr:city": " Northville", "addr:state": "MI", "addr:postcode": "48167", "addr:country": "US", "name": "FARMINGTON HILLS, MI", "phone": "248.348.7900", "website": "https://www.benihana.com/locations/farmington-hills-mi-fh/", "brand": "Benihana", "brand:wikidata": "Q4887996", "nsi_id": "benihana-bbd124"}, "geometry": {"type": "Point", "coordinates": [-83.43314099999999, 42.4434277]}},
{"type": "Feature", "id": "ubjM-CxcdOCu6-lUA9knEXZNY10=", "properties": {"ref": "https://www.benihana.com/locations/cleveland-oh-cl/", "@spider": "benihana", "amenity": "restaurant", "cuisine": "japanese;teppanyaki;steak", "addr:street_address": "23611 Chagrin Blvd.", "addr:city": " Cleveland", "addr:state": "OH", "addr:postcode": "44122", "addr:country": "US", "name": "CLEVELAND, OH", "phone": "216.464.7575", "website": "https://www.benihana.com/locations/cleveland-oh-cl/", "brand": "Benihana", "brand:wikidata": "Q4887996", "nsi_id": "benihana-bbd124"}, "geometry": {"type": "Point", "coordinates": [-81.5116812, 41.4652181]}},
{"type": "Feature", "id": "YNEPff0jlkFWpaUVug2oHUBalNw=", "properties": {"ref": "https://www.benihana.com/locations/dearborn-mi-db/", "@spider": "benihana", "amenity": "restaurant", "cuisine": "japanese;teppanyaki;steak", "addr:street_address": "18601 Hubbard Drive", "addr:city": " Dearborn", "addr:state": "MI", "addr:postcode": "48126", "addr:country": "US", "name": "DEARBORN, MI", "phone": "313.593.3200", "website": "https://www.benihana.com/locations/dearborn-mi-db/", "brand": "Benihana", "brand:wikidata": "Q4887996", "nsi_id": "benihana-bbd124"}, "geometry": {"type": "Point", "coordinates": [-83.2211121, 42.3207198]}},
{"type": "Feature", "id": "fRX1s13B-nHdCC1I8LcsWehBeiw=", "properties": {"ref": "https://www.benihana.com/locations/bethesda-md-bb/", "@spider": "benihana", "amenity": "restaurant", "cuisine": "japanese;teppanyaki;steak", "addr:street_address": "7935 Wisconsin Avenue", "addr:city": " Bethesda", "addr:state": "MD", "addr:postcode": "20814", "addr:country": "US", "name": "BETHESDA, MD", "phone": "301.652.5391", "website": "https://www.benihana.com/locations/bethesda-md-bb/", "brand": "Benihana", "brand:wikidata": "Q4887996", "nsi_id": "benihana-bbd124"}, "geometry": {"type": "Point", "coordinates": [-77.09507219999999, 38.9903505]}},
{"type": "Feature", "id": "bN-H4UfvuHWD9IBlanQnbe6QQ9Q=", "properties": {"ref": "https://www.benihana.com/locations/dulles-va-du/", "@spider": "benihana", "amenity": "restaurant", "cuisine": "japanese;teppanyaki;steak", "addr:street_address": "21089 Dulles Town Circle/Dulles Town Ctr", "addr:city": " Dulles", "addr:state": "VA", "addr:postcode": "20166", "addr:country": "US", "name": "DULLES, VA", "phone": "703.421.0888", "website": "https://www.benihana.com/locations/dulles-va-du/", "brand": "Benihana", "brand:wikidata": "Q4887996", "nsi_id": "benihana-bbd124"}, "geometry": {"type": "Point", "coordinates": [-77.4191413, 39.0289218]}},
{"type": "Feature", "id": "cUbsmVSQ37OVgVyZC26phVcBHIo=", "properties": {"ref": "https://www.benihana.com/locations/pittsburgh-pa-pi/", "@spider": "benihana", "amenity": "restaurant", "cuisine": "japanese;teppanyaki;steak", "addr:street_address": "2100 Greentree Road", "addr:city": "  Pittsburgh", "addr:state": "PA", "addr:postcode": "15220", "addr:country": "US", "name": "PITTSBURGH, PA", "phone": "412.276.2100", "website": "https://www.benihana.com/locations/pittsburgh-pa-pi/", "brand": "Benihana", "brand:wikidata": "Q4887996", "nsi_id": "benihana-bbd124"}, "geometry": {"type": "Point", "coordinates": [-80.0702316, 40.3921633]}},
{"type": "Feature", "id": "SBfciC6VpSGZalNCgZuxoEFSBV4=", "properties": {"ref": "https://www.benihana.com/locations/milwaukee-wi-mi/", "@spider": "benihana", "amenity": "restaurant", "cuisine": "japanese;teppanyaki;steak", "addr:street_address": "850 N. Plankinton Ave.", "addr:city": " Milwaukee", "addr:state": "WI", "addr:postcode": "53203", "addr:country": "US", "name": "MILWAUKEE, WI", "phone": "414.270.0890", "website": "https://www.benihana.com/locations/milwaukee-wi-mi/", "brand": "Benihana", "brand:wikidata": "Q4887996", "nsi_id": "benihana-bbd124"}, "geometry": {"type": "Point", "coordinates": [-87.91306229999999, 43.0413113]}},
{"type": "Feature", "id": "Vl0AOQikKRYcgCO7NQZ0kXm2xMM=", "properties": {"ref": "https://www.benihana.com/locations/maplegrove-mn-mg/", "@spider": "benihana", "amenity": "restaurant", "cuisine": "japanese;teppanyaki;steak", "addr:street_address": "11840 Fountains Way N.", "addr:city": " Maple Grove", "addr:state": "MN", "addr:postcode": "55369", "addr:country": "US", "name": "MAPLE GROVE, MN", "phone": "763.315.0090", "website": "https://www.benihana.com/locations/maplegrove-mn-mg/", "brand": "Benihana", "brand:wikidata": "Q4887996", "nsi_id": "benihana-bbd124"}, "geometry": {"type": "Point", "coordinates": [-93.4308231, 45.0937859]}},
{"type": "Feature", "id": "qwQhvIaA9-wdQC7UK9tL5DnBcsw=", "properties": {"ref": "https://www.benihana.com/locations/minneapolis-mn-mp/", "@spider": "benihana", "amenity": "restaurant", "cuisine": "japanese;teppanyaki;steak", "addr:street_address": "850 Louisiana Avenue", "addr:city": " South Golden Valley", "addr:state": "MN", "addr:postcode": "55426", "addr:country": "US", "name": "MINNEAPOLIS, MN", "phone": "763.542.9922", "website": "https://www.benihana.com/locations/minneapolis-mn-mp/", "brand": "Benihana", "brand:wikidata": "Q4887996", "nsi_id": "benihana-bbd124"}, "geometry": {"type": "Point", "coordinates": [-93.3709907, 44.9735091]}},
{"type": "Feature", "id": "g_xua6gOXitbgjU-9OJvy5wxbkY=", "properties": {"ref": "https://www.benihana.com/locations/mall-of-america/", "@spider": "benihana", "amenity": "restaurant", "cuisine": "japanese;teppanyaki;steak", "addr:street_address": "358 South Avenue", "addr:city": " Bloomington", "addr:state": "MN", "addr:postcode": "55425", "addr:country": "US", "name": "MALL OF AMERICA, MN", "phone": "952.594.6205", "website": "https://www.benihana.com/locations/mall-of-america/", "brand": "Benihana", "brand:wikidata": "Q4887996", "nsi_id": "benihana-bbd124"}, "geometry": {"type": "Point", "coordinates": [-93.24337729999999, 44.85351]}},
{"type": "Feature", "id": "Z52eZlMIFNJm6laGeJO6c71HmG0=", "properties": {"ref": "https://www.benihana.com/locations/columbus/", "@spider": "benihana", "amenity": "restaurant", "cuisine": "japanese;teppanyaki;steak", "addr:street_address": "8781 Lyra Drive", "addr:city": " Columbus", "addr:state": "OH", "addr:postcode": "43240", "addr:country": "US", "name": "COLUMBUS, OH", "phone": "614.436.3705", "website": "https://www.benihana.com/locations/columbus/", "brand": "Benihana", "brand:wikidata": "Q4887996", "nsi_id": "benihana-bbd124"}, "geometry": {"type": "Point", "coordinates": [-82.9774782, 40.1452878]}},
{"type": "Feature", "id": "L_u1CuhnHpGGBJPUuFSaPMOmUyE=", "properties": {"ref": "https://www.benihana.com/locations/wheeling-il-wh/", "@spider": "benihana", "amenity": "restaurant", "cuisine": "japanese;teppanyaki;steak", "addr:street_address": "150 N. Milwaukee Avenue", "addr:city": " Wheeling", "addr:state": "IL", "addr:postcode": "60090", "addr:country": "US", "name": "WHEELING, IL", "phone": "847.465.6021", "website": "https://www.benihana.com/locations/wheeling-il-wh/", "brand": "Benihana", "brand:wikidata": "Q4887996", "nsi_id": "benihana-bbd124"}, "geometry": {"type": "Point", "coordinates": [-87.9093072, 42.1417226]}},
{"type": "Feature", "id": "IupP4xzy6u_DN35Yy7WnKU94sRU=", "properties": {"ref": "https://www.benihana.com/locations/chicago-il-ch/", "@spider": "benihana", "amenity": "restaurant", "cuisine": "japanese;teppanyaki;steak", "addr:street_address": "875 North Michigan Avenue", "addr:city": " Chicago", "addr:state": "IL", "addr:postcode": "60611", "addr:country": "US", "name": "CHICAGO, IL", "phone": "312.780.3110", "website": "https://www.benihana.com/locations/chicago-il-ch/", "brand": "Benihana", "brand:wikidata": "Q4887996", "nsi_id": "benihana-bbd124"}, "geometry": {"type": "Point", "coordinates": [-87.62315029999999, 41.898883]}},
{"type": "Feature", "id": "GTFbLWIrEfQcXKpJYjm7A7w_210=", "properties": {"ref": "https://www.benihana.com/locations/schaumburg-il-sc/", "@spider": "benihana", "amenity": "restaurant", "cuisine": "japanese;teppanyaki;steak", "addr:street_address": "1200 E. Higgins Road", "addr:city": " Schaumburg", "addr:state": "IL", "addr:postcode": "60173", "addr:country": "US", "name": "SCHAUMBURG, IL", "phone": "847.995.8201", "website": "https://www.benihana.com/locations/schaumburg-il-sc/", "brand": "Benihana", "brand:wikidata": "Q4887996", "nsi_id": "benihana-bbd124"}, "geometry": {"type": "Point", "coordinates": [-88.0496421, 42.0401361]}},
{"type": "Feature", "id": "MLuU1DKvrLUng42N1p779l5RaTk=", "properties": {"ref": "https://www.benihana.com/locations/lombard-il-lb/", "@spider": "benihana", "amenity": "restaurant", "cuisine": "japanese;teppanyaki;steak", "addr:street_address": "747 E. Butterfield Road", "addr:city": " Lombard", "addr:state": "IL", "addr:postcode": "60148", "addr:country": "US", "name": "LOMBARD, IL", "phone": "630.571.4440", "website": "https://www.benihana.com/locations/lombard-il-lb/", "brand": "Benihana", "brand:wikidata": "Q4887996", "nsi_id": "benihana-bbd124"}, "geometry": {"type": "Point", "coordinates": [-87.9392944, 41.8684141]}},
{"type": "Feature", "id": "SzM5H9sCHP4ITAc-WvS057OoDAs=", "properties": {"ref": "https://www.benihana.com/locations/cincinnati-oh-ci/", "@spider": "benihana", "amenity": "restaurant", "cuisine": "japanese;teppanyaki;steak", "addr:street_address": "50 Tri-County Parkway", "addr:city": "  Cincinnati", "addr:state": "OH", "addr:postcode": "45246", "addr:country": "US", "name": "CINCINNATI - TRI-COUNTY, OH", "phone": "513.772.4800", "website": "https://www.benihana.com/locations/cincinnati-oh-ci/", "brand": "Benihana", "brand:wikidata": "Q4887996", "nsi_id": "benihana-bbd124"}, "geometry": {"type": "Point", "coordinates": [-84.47043459999999, 39.2836294]}},
{"type": "Feature", "id": "jJUo7HXOI-3BxNCSHKoL4owwcT0=", "properties": {"ref": "https://www.benihana.com/locations/indianapolis-in-in/", "@spider": "benihana", "amenity": "restaurant", "cuisine": "japanese;teppanyaki;steak", "addr:street_address": "8830 Keystone Crossing Road", "addr:city": " Indianapolis", "addr:state": "IN", "addr:postcode": "46240", "addr:country": "US", "name": "INDIANAPOLIS, IN", "phone": "317.846.2495", "website": "https://www.benihana.com/locations/indianapolis-in-in/", "brand": "Benihana", "brand:wikidata": "Q4887996", "nsi_id": "benihana-bbd124"}, "geometry": {"type": "Point", "coordinates": [-86.1100865, 39.9160882]}},
{"type": "Feature", "id": "ya6XDg1hRk5hGFdhiaaL9GaBK1Y=", "properties": {"ref": "https://www.benihana.com/locations/t-mobile-center-kansas-mo/", "@spider": "benihana", "amenity": "restaurant", "cuisine": "japanese;teppanyaki;steak", "addr:street_address": "1407 Grand Blvd.", "addr:city": " Kansas City", "addr:state": "MO", "addr:postcode": "64106", "addr:country": "US", "name": "T-MOBILE CENTER, KANSAS CITY, MO", "website": "https://www.benihana.com/locations/t-mobile-center-kansas-mo/", "brand": "Benihana", "brand:wikidata": "Q4887996", "nsi_id": "benihana-bbd124"}, "geometry": {"type": "Point", "coordinates": [-94.5799392, 39.0972997]}},
{"type": "Feature", "id": "X6hjzQWMeh4BHMBMSYFJIITKU5o=", "properties": {"ref": "https://www.benihana.com/locations/leawood/", "@spider": "benihana", "amenity": "restaurant", "cuisine": "japanese;teppanyaki;steak", "addr:street_address": "11638 Ash St", "addr:city": " Leawood", "addr:state": "KS", "addr:postcode": "66211", "addr:country": "US", "name": "LEAWOOD, KS", "phone": "913.981.2079", "website": "https://www.benihana.com/locations/leawood/", "brand": "Benihana", "brand:wikidata": "Q4887996", "nsi_id": "benihana-bbd124"}, "geometry": {"type": "Point", "coordinates": [-94.6481212, 38.9171841]}},
{"type": "Feature", "id": "o1QuZV5zKv3bQYVIRggkSIRoFC4=", "properties": {"ref": "https://www.benihana.com/locations/alpharetta-ga-al/", "@spider": "benihana", "amenity": "restaurant", "cuisine": "japanese;teppanyaki;steak", "addr:street_address": "2365 Mansell Road", "addr:city": " Alpharetta", "addr:state": "GA", "addr:postcode": "30022", "addr:country": "US", "name": "ALPHARETTA, GA", "phone": "678.461.8440", "website": "https://www.benihana.com/locations/alpharetta-ga-al/", "brand": "Benihana", "brand:wikidata": "Q4887996", "nsi_id": "benihana-bbd124"}, "geometry": {"type": "Point", "coordinates": [-84.3056311, 34.0371642]}},
{"type": "Feature", "id": "lrTYPQv3VU7Q7YhMfHEH55ZFzmM=", "properties": {"ref": "https://www.benihana.com/locations/atlanta-ga-at1/", "@spider": "benihana", "amenity": "restaurant", "cuisine": "japanese;teppanyaki;steak", "addr:street_address": "2143 Peachtree Road NE", "addr:city": " Atlanta", "addr:state": "GA", "addr:postcode": "30309", "addr:country": "US", "name": "ATLANTA - BUCKHEAD, GA", "phone": "404.355.8565", "website": "https://www.benihana.com/locations/atlanta-ga-at1/", "brand": "Benihana", "brand:wikidata": "Q4887996", "nsi_id": "benihana-bbd124"}, "geometry": {"type": "Point", "coordinates": [-84.379528, 33.8396515]}},
{"type": "Feature", "id": "d_S3Tb0KA3ur5-ccC_9683lQ9T0=", "properties": {"ref": "https://www.benihana.com/locations/beaverton-or/", "@spider": "benihana", "amenity": "restaurant", "cuisine": "japanese;teppanyaki;steak", "addr:street_address": " 9205 SW Cascade Avenue", "addr:city": " Beaverton", "addr:state": "OR", "addr:postcode": "97008", "addr:country": "US", "name": "BEAVERTON, OR", "phone": "503.643.4016", "website": "https://www.benihana.com/locations/beaverton-or/", "brand": "Benihana", "brand:wikidata": "Q4887996", "nsi_id": "benihana-bbd124"}, "geometry": {"type": "Point", "coordinates": [-122.7855231, 45.4533363]}},
{"type": "Feature", "id": "5qUidflP7FH7Y07DGMRMdqumCkc=", "properties": {"ref": "https://www.benihana.com/locations/memphis-tn-me/", "@spider": "benihana", "amenity": "restaurant", "cuisine": "japanese;teppanyaki;steak", "addr:street_address": "912 Ridgelake Blvd.", "addr:city": " Memphis", "addr:state": "TN", "addr:postcode": "38120", "addr:country": "US", "name": "MEMPHIS, TN", "phone": "901.767.8980", "website": "https://www.benihana.com/locations/memphis-tn-me/", "brand": "Benihana", "brand:wikidata": "Q4887996", "nsi_id": "benihana-bbd124"}, "geometry": {"type": "Point", "coordinates": [-89.8672119, 35.1069903]}},
{"type": "Feature", "id": "kH4VfdZjf3uBTFhjYixFPgmwU0M=", "properties": {"ref": "https://www.benihana.com/locations/broomfield-co-bo/", "@spider": "benihana", "amenity": "restaurant", "cuisine": "japanese;teppanyaki;steak", "addr:street_address": "515 Zang Street", "addr:city": " Broomfield", "addr:state": "CO", "addr:postcode": "80021", "addr:country": "US", "name": "BROOMFIELD, CO", "phone": "303.410.0482", "website": "https://www.benihana.com/locations/broomfield-co-bo/", "brand": "Benihana", "brand:wikidata": "Q4887996", "nsi_id": "benihana-bbd124"}, "geometry": {"type": "Point", "coordinates": [-105.1329765, 39.9269579]}},
{"type": "Feature", "id": "Vp4cf8tXMm1e_9nUne2VRpf3rak=", "properties": {"ref": "https://www.benihana.com/locations/denver-co-de/", "@spider": "benihana", "amenity": "restaurant", "cuisine": "japanese;teppanyaki;steak", "addr:street_address": "3295 S. Tamarac Drive", "addr:city": " Denver", "addr:state": "CO", "addr:postcode": "80231", "addr:country": "US", "name": "DENVER, CO", "phone": "303.750.0200", "website": "https://www.benihana.com/locations/denver-co-de/", "brand": "Benihana", "brand:wikidata": "Q4887996", "nsi_id": "benihana-bbd124"}, "geometry": {"type": "Point", "coordinates": [-104.8994786, 39.6561694]}},
{"type": "Feature", "id": "7dTszrfD5flxF12kEjMO4M1fvwM=", "properties": {"ref": "https://www.benihana.com/locations/northlittlerock-ar-no/", "@spider": "benihana", "amenity": "restaurant", "cuisine": "japanese;teppanyaki;steak", "addr:street_address": "2 Riverfront Place", "addr:city": " N Little Rock", "addr:state": "AR", "addr:postcode": "72114", "addr:country": "US", "name": "NORTH LITTLE ROCK, AR", "phone": "501.374.8081", "website": "https://www.benihana.com/locations/northlittlerock-ar-no/", "brand": "Benihana", "brand:wikidata": "Q4887996", "nsi_id": "benihana-bbd124"}, "geometry": {"type": "Point", "coordinates": [-92.2705793, 34.7545525]}},
{"type": "Feature", "id": "z1Or9DW5cyRHxC7mU4RMYERQMVA=", "properties": {"ref": "https://www.benihana.com/locations/saltlakecity-ut-sl/", "@spider": "benihana", "amenity": "restaurant", "cuisine": "japanese;teppanyaki;steak", "addr:street_address": " 165 S. West Temple", "addr:city": " Salt Lake City", "addr:state": "UT", "addr:postcode": "84101", "addr:country": "US", "name": "SALT LAKE CITY, UT", "phone": "801.322.2421", "website": "https://www.benihana.com/locations/saltlakecity-ut-sl/", "brand": "Benihana", "brand:wikidata": "Q4887996", "nsi_id": "benihana-bbd124"}, "geometry": {"type": "Point", "coordinates": [-111.8928044, 40.765603]}},
{"type": "Feature", "id": "DaidaWojvLSYwA0cLjiuGAzL8tI=", "properties": {"ref": "https://www.benihana.com/locations/orlando-ol/", "@spider": "benihana", "amenity": "restaurant", "cuisine": "japanese;teppanyaki;steak", "addr:street_address": "12690 International Drive S.", "addr:city": " Orlando", "addr:state": "FL", "addr:postcode": "32821", "addr:country": "US", "name": "ORLANDO \u2013 INT\u2019L DRIVE, FL", "phone": "407.239.7400", "website": "https://www.benihana.com/locations/orlando-ol/", "brand": "Benihana", "brand:wikidata": "Q4887996", "nsi_id": "benihana-bbd124"}, "geometry": {"type": "Point", "coordinates": [-81.48118989999999, 28.3870656]}},
{"type": "Feature", "id": "blrylZxoxW_7Pn7AQfugcCTbgJ0=", "properties": {"ref": "https://www.benihana.com/locations/orlando-fl-or/", "@spider": "benihana", "amenity": "restaurant", "cuisine": "japanese;teppanyaki;steak", "addr:street_address": "1751 Hotel Plaza Blvd.", "addr:city": " Lake Buena Vista", "addr:state": "FL", "addr:postcode": "32830", "addr:country": "US", "name": "ORLANDO-LAKE BUENA VISTA, FL", "phone": "407.827.4865", "website": "https://www.benihana.com/locations/orlando-fl-or/", "brand": "Benihana", "brand:wikidata": "Q4887996", "nsi_id": "benihana-bbd124"}, "geometry": {"type": "Point", "coordinates": [-81.51095149999999, 28.3727086]}},
{"type": "Feature", "id": "Ai2CzC3m9TWg96yGgefI614UJ18=", "properties": {"ref": "https://www.benihana.com/locations/stuart-fl-st/", "@spider": "benihana", "amenity": "restaurant", "cuisine": "japanese;teppanyaki;steak", "addr:street_address": "3602 SE Ocean Blvd.", "addr:city": " Stuart", "addr:state": "FL", "addr:postcode": "34996", "addr:country": "US", "name": "STUART, FL", "phone": "772.286.0740", "website": "https://www.benihana.com/locations/stuart-fl-st/", "brand": "Benihana", "brand:wikidata": "Q4887996", "nsi_id": "benihana-bbd124"}, "geometry": {"type": "Point", "coordinates": [-80.2035027, 27.2021398]}},
{"type": "Feature", "id": "JA9xixMwAEOwKLLLIJUkuDAPDb8=", "properties": {"ref": "https://www.benihana.com/locations/bocaraton-fl-br/", "@spider": "benihana", "amenity": "restaurant", "cuisine": "japanese;teppanyaki;steak", "addr:street_address": "9918 Glades Road", "addr:city": " Boca Raton", "addr:state": "FL", "addr:postcode": "33434", "addr:country": "US", "name": "BOCA RATON, FL", "phone": "561.962.9980", "website": "https://www.benihana.com/locations/bocaraton-fl-br/", "brand": "Benihana", "brand:wikidata": "Q4887996", "nsi_id": "benihana-bbd124"}, "geometry": {"type": "Point", "coordinates": [-80.2020209, 26.3666135]}},
{"type": "Feature", "id": "S8oqo_JDaTL2YNY42X5n-w2vU5c=", "properties": {"ref": "https://www.benihana.com/locations/fortlauderdale-fl-ft/", "@spider": "benihana", "amenity": "restaurant", "cuisine": "japanese;teppanyaki;steak", "addr:street_address": "276 E. Commercial Blvd.", "addr:city": " Lauderdale-by-the-Sea", "addr:state": "FL", "addr:postcode": "33308", "addr:country": "US", "name": "FORT LAUDERDALE, FL", "phone": "954.776.0111", "website": "https://www.benihana.com/locations/fortlauderdale-fl-ft/", "brand": "Benihana", "brand:wikidata": "Q4887996", "nsi_id": "benihana-bbd124"}, "geometry": {"type": "Point", "coordinates": [-80.1431435, 26.1884192]}},
{"type": "Feature", "id": "TIcMgYjV08433mMz93e1xtR2rf0=", "properties": {"ref": "https://www.benihana.com/locations/coral-springs-fl/", "@spider": "benihana", "amenity": "restaurant", "cuisine": "japanese;teppanyaki;steak", "addr:street_address": "1695 N. University Drive", "addr:city": " Coral Springs", "addr:state": "FL", "addr:postcode": "33071", "addr:country": "US", "name": "CORAL SPRINGS, FL", "phone": "954.341.9622", "website": "https://www.benihana.com/locations/coral-springs-fl/", "brand": "Benihana", "brand:wikidata": "Q4887996", "nsi_id": "benihana-bbd124"}, "geometry": {"type": "Point", "coordinates": [-80.252562, 26.2516352]}},
{"type": "Feature", "id": "WGaA1hy1-tF_WBAAIpyeFQTGPY8=", "properties": {"ref": "https://www.benihana.com/locations/pembroke-pines/", "@spider": "benihana", "amenity": "restaurant", "cuisine": "japanese;teppanyaki;steak", "addr:city": " PEMBROKE PINES", "addr:state": "FL", "addr:country": "US", "name": "PEMBROKE PINES, FL", "website": "https://www.benihana.com/locations/pembroke-pines/", "brand": "Benihana", "brand:wikidata": "Q4887996", "nsi_id": "benihana-bbd124"}, "geometry": {"type": "Point", "coordinates": [-80.2962555, 26.007765]}},
{"type": "Feature", "id": "NS58efdwbXSRlSIenqQEd8ZCwWc=", "properties": {"ref": "https://www.benihana.com/locations/hard-rock-stadium-fl/", "@spider": "benihana", "amenity": "restaurant", "cuisine": "japanese;teppanyaki;steak", "addr:street_address": "347 Don Shula Dr.", "addr:city": " Miami Gardens", "addr:state": "FL", "addr:postcode": "33056", "addr:country": "US", "name": "HARD ROCK STADIUM, MIAMI, FL", "website": "https://www.benihana.com/locations/hard-rock-stadium-fl/", "brand": "Benihana", "brand:wikidata": "Q4887996", "nsi_id": "benihana-bbd124"}, "geometry": {"type": "Point", "coordinates": [-80.2387705, 25.9578662]}},
{"type": "Feature", "id": "AzuUDuK7CFX0ZnQO17uGX3pqfkI=", "properties": {"ref": "https://www.benihana.com/locations/miramar-fl-mr/", "@spider": "benihana", "amenity": "restaurant", "cuisine": "japanese;teppanyaki;steak", "addr:street_address": "3261 S.W. 160 Avenue", "addr:city": " Miramar", "addr:state": "FL", "addr:postcode": "33027", "addr:country": "US", "name": "MIRAMAR, FL", "phone": "954.342.2892", "website": "https://www.benihana.com/locations/miramar-fl-mr/", "brand": "Benihana", "brand:wikidata": "Q4887996", "nsi_id": "benihana-bbd124"}, "geometry": {"type": "Point", "coordinates": [-80.35459809999999, 25.9805773]}},
{"type": "Feature", "id": "oCIhM6PyZqKVX1jOrQG1jMc1sqU=", "properties": {"ref": "https://www.benihana.com/locations/miamibeach-fl-mb-1/", "@spider": "benihana", "amenity": "restaurant", "cuisine": "japanese;teppanyaki;steak", "addr:street_address": "1665 NE 79th Street Causeway", "addr:city": " North Bay Village", "addr:state": "FL", "addr:postcode": "33141", "addr:country": "US", "name": "MIAMI BEACH/NORTH BAY VILLAGE, FL", "phone": "305.866.2768", "website": "https://www.benihana.com/locations/miamibeach-fl-mb-1/", "brand": "Benihana", "brand:wikidata": "Q4887996", "nsi_id": "benihana-bbd124"}, "geometry": {"type": "Point", "coordinates": [-80.1506647, 25.8492791]}},
{"type": "Feature", "id": "64snJrgeVXwkmkT5-ETvED7kyXA=", "properties": {"ref": "https://www.benihana.com/locations/bayside-marketplace/", "@spider": "benihana", "amenity": "restaurant", "cuisine": "japanese;teppanyaki;steak", "addr:street_address": "401 Biscayne Boulevard S113", "addr:city": " Miami", "addr:state": "FL", "addr:postcode": "33132", "addr:country": "US", "name": "Bayside Marketplace / Miami, FL", "website": "https://www.benihana.com/locations/bayside-marketplace/", "brand": "Benihana", "brand:wikidata": "Q4887996", "nsi_id": "benihana-bbd124"}, "geometry": {"type": "Point", "coordinates": [-80.1881751, 25.778931]}},
{"type": "Feature", "id": "jr5t-L5VO0FoMKo_yRXCVbRCi3Q=", "properties": {"ref": "https://www.benihana.com/locations/coralgables-fl-gb/", "@spider": "benihana", "amenity": "restaurant", "cuisine": "japanese;teppanyaki;steak", "addr:street_address": "242 Miracle Mile", "addr:city": " Coral Gables", "addr:postcode": "33134", "addr:country": "US", "name": "CORAL GABLES, FL", "phone": "305.567.2000", "website": "https://www.benihana.com/locations/coralgables-fl-gb/", "brand": "Benihana", "brand:wikidata": "Q4887996", "nsi_id": "benihana-bbd124"}, "geometry": {"type": "Point", "coordinates": [-80.2595309, 25.7491421]}},
{"type": "Feature", "id": "dd2PFswinAEfup277GJsC96nRvI=", "properties": {"ref": "https://www.benihana.com/locations/miami-fl-mi/", "@spider": "benihana", "amenity": "restaurant", "cuisine": "japanese;teppanyaki;steak", "addr:street_address": "8717 SW 136 Street", "addr:city": " Miami", "addr:state": "FL", "addr:postcode": "33176", "addr:country": "US", "name": "MIAMI \u2013 SAMURAI, FL", "phone": "305.238.2131", "website": "https://www.benihana.com/locations/miami-fl-mi/", "brand": "Benihana", "brand:wikidata": "Q4887996", "nsi_id": "benihana-bbd124"}, "geometry": {"type": "Point", "coordinates": [-80.33467069999999, 25.6445865]}},
{"type": "Feature", "id": "8LuIs6pJqZyiCdO3Rppuo_7ZL1M=", "properties": {"ref": "https://www.benihana.com/locations/plano-tx/", "@spider": "benihana", "amenity": "restaurant", "cuisine": "japanese;teppanyaki;steak", "addr:street_address": "5840 Legacy Circle", "addr:city": " Plano", "addr:state": "TX", "addr:postcode": "75024", "addr:country": "US", "name": "PLANO, TX", "phone": "469.467.2242", "website": "https://www.benihana.com/locations/plano-tx/", "brand": "Benihana", "brand:wikidata": "Q4887996", "nsi_id": "benihana-bbd124"}, "geometry": {"type": "Point", "coordinates": [-96.822366, 33.0805383]}},
{"type": "Feature", "id": "i2l1hvbG_qMgNJUSVqX-yDveypg=", "properties": {"ref": "https://www.benihana.com/locations/houston-highland-village/", "@spider": "benihana", "amenity": "restaurant", "cuisine": "japanese;teppanyaki;steak", "addr:city": " HIGHLAND VILLAGE", "addr:state": "TX", "addr:country": "US", "name": "HIGHLAND VILLAGE, TX", "website": "https://www.benihana.com/locations/houston-highland-village/", "brand": "Benihana", "brand:wikidata": "Q4887996", "nsi_id": "benihana-bbd124"}, "geometry": {"type": "Point", "coordinates": [-97.0466759, 33.091788]}},
{"type": "Feature", "id": "6cx_UhS7dq6TpCI4RNus3ULNXjg=", "properties": {"ref": "https://www.benihana.com/locations/addison-walk-tx/", "@spider": "benihana", "amenity": "restaurant", "cuisine": "japanese;teppanyaki;steak", "addr:street_address": "5000 Belt Line Rd Ste 600", "addr:city": " Dallas", "addr:state": "TX", "addr:postcode": "75254", "addr:country": "US", "name": "Addison Walk, TX", "phone": "469.893.4486", "website": "https://www.benihana.com/locations/addison-walk-tx/", "brand": "Benihana", "brand:wikidata": "Q4887996", "nsi_id": "benihana-bbd124"}, "geometry": {"type": "Point", "coordinates": [-96.8226646, 32.9532931]}},
{"type": "Feature", "id": "ssj1DS5mdRQDaNLewlLNzv4dHIw=", "properties": {"ref": "https://www.benihana.com/locations/dallas-tx-da/", "@spider": "benihana", "amenity": "restaurant", "cuisine": "japanese;teppanyaki;steak", "addr:street_address": "7775 Banner Drive", "addr:city": " Dallas", "addr:state": "TX", "addr:postcode": "75251", "addr:country": "US", "name": "DALLAS, TX", "phone": "972.387.4404", "website": "https://www.benihana.com/locations/dallas-tx-da/", "brand": "Benihana", "brand:wikidata": "Q4887996", "nsi_id": "benihana-bbd124"}, "geometry": {"type": "Point", "coordinates": [-96.7729473, 32.9216471]}},
{"type": "Feature", "id": "0eCZSIowq6uKLqZmLXaLZu_JoDQ=", "properties": {"ref": "https://www.benihana.com/locations/lascolinas-tx-lc/", "@spider": "benihana", "amenity": "restaurant", "cuisine": "japanese;teppanyaki;steak", "addr:street_address": "5400 Whitehall Street", "addr:city": " Irving", "addr:state": "TX", "addr:postcode": "75038", "addr:country": "US", "name": "LAS COLINAS, TX", "phone": "972.550.0060", "website": "https://www.benihana.com/locations/lascolinas-tx-lc/", "brand": "Benihana", "brand:wikidata": "Q4887996", "nsi_id": "benihana-bbd124"}, "geometry": {"type": "Point", "coordinates": [-96.9596023, 32.8844948]}},
{"type": "Feature", "id": "TXGJ4gy9Vnj6e4yeTBU26r3RYLY=", "properties": {"ref": "https://www.benihana.com/locations/southlake/", "@spider": "benihana", "amenity": "restaurant", "cuisine": "japanese;teppanyaki;steak", "addr:city": " Southlake", "addr:state": "TX", "addr:country": "US", "name": "SOUTHLAKE, TX", "website": "https://www.benihana.com/locations/southlake/", "brand": "Benihana", "brand:wikidata": "Q4887996", "nsi_id": "benihana-bbd124"}, "geometry": {"type": "Point", "coordinates": [-97.1341783, 32.9412363]}},
{"type": "Feature", "id": "_sGp3mcyw498kHyydV_pIXxm22Y=", "properties": {"ref": "https://www.benihana.com/locations/keywest-fl-ke/", "@spider": "benihana", "amenity": "restaurant", "cuisine": "japanese;teppanyaki;steak", "addr:street_address": "3591 S. Roosevelt Blvd.", "addr:city": " Key West", "addr:state": "FL", "addr:postcode": "33040", "addr:country": "US", "name": "KEY WEST, FL", "phone": "305.294.6400", "website": "https://www.benihana.com/locations/keywest-fl-ke/", "brand": "Benihana", "brand:wikidata": "Q4887996", "nsi_id": "benihana-bbd124"}, "geometry": {"type": "Point", "coordinates": [-81.75256929999999, 24.5530272]}},
{"type": "Feature", "id": "pQ0PTdzkiasm7KzCyfWrX-T7gSg=", "properties": {"ref": "https://www.benihana.com/locations/conroe-tx/", "@spider": "benihana", "amenity": "restaurant", "cuisine": "japanese;teppanyaki;steak", "addr:street_address": "3061 Interstate 45 North", "addr:city": " Conroe", "addr:state": "TX", "addr:postcode": "77304", "addr:country": "US", "name": "Conroe, TX", "website": "https://www.benihana.com/locations/conroe-tx/", "brand": "Benihana", "brand:wikidata": "Q4887996", "nsi_id": "benihana-bbd124"}, "geometry": {"type": "Point", "coordinates": [-95.4851954, 30.35350309999999]}},
{"type": "Feature", "id": "wiY8MqAVY_PkOcvrCX7-r7VWCv0=", "properties": {"ref": "https://www.benihana.com/locations/concord-ca-co/", "@spider": "benihana", "amenity": "restaurant", "cuisine": "japanese;teppanyaki;steak", "addr:street_address": "1989 Diamond Blvd.", "addr:city": " Concord", "addr:state": "CA", "addr:postcode": "94520", "addr:country": "US", "name": "Concord, CA", "phone": "925.827.4220", "website": "https://www.benihana.com/locations/concord-ca-co/", "brand": "Benihana", "brand:wikidata": "Q4887996", "nsi_id": "benihana-bbd124"}, "geometry": {"type": "Point", "coordinates": [-122.0579228, 37.9699947]}},
{"type": "Feature", "id": "PI_TdAgxiynU1TLatyc3BQJQ7H8=", "properties": {"ref": "https://www.benihana.com/locations/woodlands-tx-wo/", "@spider": "benihana", "amenity": "restaurant", "cuisine": "japanese;teppanyaki;steak", "addr:street_address": "1720 Lake Woodlands Drive", "addr:city": " The Woodlands", "addr:state": "TX", "addr:postcode": "77380", "addr:country": "US", "name": "THE WOODLANDS, TX", "phone": "281.292.0061", "website": "https://www.benihana.com/locations/woodlands-tx-wo/", "brand": "Benihana", "brand:wikidata": "Q4887996", "nsi_id": "benihana-bbd124"}, "geometry": {"type": "Point", "coordinates": [-95.46070320000001, 30.1668963]}},
{"type": "Feature", "id": "aKH9GQuZb9GhVNrPEaScblo7RfM=", "properties": {"ref": "https://www.benihana.com/locations/sanfrancisco-ca-sf/", "@spider": "benihana", "amenity": "restaurant", "cuisine": "japanese;teppanyaki;steak", "addr:street_address": "1737 Post Street", "addr:city": " San Francisco", "addr:state": "CA", "addr:postcode": "94115", "addr:country": "US", "name": "SAN FRANCISCO, CA", "phone": "415.563.4844", "website": "https://www.benihana.com/locations/sanfrancisco-ca-sf/", "brand": "Benihana", "brand:wikidata": "Q4887996", "nsi_id": "benihana-bbd124"}, "geometry": {"type": "Point", "coordinates": [-122.4291175, 37.7852719]}},
{"type": "Feature", "id": "1-NGTevI31lpGTkuDVcX9vW1mSQ=", "properties": {"ref": "https://www.benihana.com/locations/burlingame-ca-bu/", "@spider": "benihana", "amenity": "restaurant", "cuisine": "japanese;teppanyaki;steak", "addr:street_address": "1496 Old Bayshore Highway", "addr:city": " Burlingame", "addr:state": "CA", "addr:postcode": "94010", "addr:country": "US", "name": "Burlingame, CA", "phone": "650.342.5202", "website": "https://www.benihana.com/locations/burlingame-ca-bu/", "brand": "Benihana", "brand:wikidata": "Q4887996", "nsi_id": "benihana-bbd124"}, "geometry": {"type": "Point", "coordinates": [-122.3642851, 37.5982738]}},
{"type": "Feature", "id": "rZ3tPZgjR7_fPWMteUkY4fMp0fU=", "properties": {"ref": "https://www.benihana.com/locations/houston-city-centre/", "@spider": "benihana", "amenity": "restaurant", "cuisine": "japanese;teppanyaki;steak", "addr:city": " HOUSTON", "addr:state": "TX", "addr:country": "US", "name": "HOUSTON - CITY CENTRE, TX", "website": "https://www.benihana.com/locations/houston-city-centre/", "brand": "Benihana", "brand:wikidata": "Q4887996", "nsi_id": "benihana-bbd124"}, "geometry": {"type": "Point", "coordinates": [-95.3698028, 29.7604267]}},
{"type": "Feature", "id": "BVC30kuxGVZ69rqEiVLJQvFp_Qo=", "properties": {"ref": "https://www.benihana.com/locations/houston-tx-ho/", "@spider": "benihana", "amenity": "restaurant", "cuisine": "japanese;teppanyaki;steak", "addr:street_address": "1318 Louisiana Street", "addr:city": " Houston", "addr:state": "TX", "addr:postcode": "77002", "addr:country": "US", "name": "HOUSTON - DOWNTOWN, TX", "phone": "713.659.8231", "website": "https://www.benihana.com/locations/houston-tx-ho/", "brand": "Benihana", "brand:wikidata": "Q4887996", "nsi_id": "benihana-bbd124"}, "geometry": {"type": "Point", "coordinates": [-95.36965970000001, 29.7561567]}},
{"type": "Feature", "id": "uKQswpS1vqYmYQjPNVKfnEVKecE=", "properties": {"ref": "https://www.benihana.com/locations/lasvegas-nv-la/", "@spider": "benihana", "amenity": "restaurant", "cuisine": "japanese;teppanyaki;steak", "addr:street_address": "3000 Paradise Road", "addr:city": " Las Vegas", "addr:state": "NV", "addr:postcode": "89109", "addr:country": "US", "name": "LAS VEGAS - WESTGATE RESORT & CASINO, NV", "phone": "702.732.5334", "website": "https://www.benihana.com/locations/lasvegas-nv-la/", "brand": "Benihana", "brand:wikidata": "Q4887996", "nsi_id": "benihana-bbd124"}, "geometry": {"type": "Point", "coordinates": [-115.1512539, 36.1362611]}},
{"type": "Feature", "id": "ZThfHjM0Nd53-U6Vw4-XS_SBlIs=", "properties": {"ref": "https://www.benihana.com/locations/lasvegasfashion-nv-la/", "@spider": "benihana", "amenity": "restaurant", "cuisine": "japanese;teppanyaki;steak", "addr:street_address": "3200 Las Vegas Blvd Suite 1250", "addr:city": " Las Vegas", "addr:state": "NV", "addr:postcode": "89109", "addr:country": "US", "name": "LAS VEGAS STRIP, NV", "phone": "702.820.3080", "website": "https://www.benihana.com/locations/lasvegasfashion-nv-la/", "brand": "Benihana", "brand:wikidata": "Q4887996", "nsi_id": "benihana-bbd124"}, "geometry": {"type": "Point", "coordinates": [-115.1715003, 36.1275236]}},
{"type": "Feature", "id": "BzxUbJqD2TokKt76HNEhWn2DdPc=", "properties": {"ref": "https://www.benihana.com/locations/houston-tx-hh/", "@spider": "benihana", "amenity": "restaurant", "cuisine": "japanese;teppanyaki;steak", "addr:street_address": "9707 Westheimer Road", "addr:city": " Houston", "addr:state": "TX", "addr:postcode": "77042", "addr:country": "US", "name": "HOUSTON - WESTHEIMER, TX", "phone": "713.789.4962", "website": "https://www.benihana.com/locations/houston-tx-hh/", "brand": "Benihana", "brand:wikidata": "Q4887996", "nsi_id": "benihana-bbd124"}, "geometry": {"type": "Point", "coordinates": [-95.54020299999999, 29.7365359]}},
{"type": "Feature", "id": "YM9W7A_sMgT9I3-z7_M235vjCSc=", "properties": {"ref": "https://www.benihana.com/locations/cupertino-ca-cu/", "@spider": "benihana", "amenity": "restaurant", "cuisine": "japanese;teppanyaki;steak", "addr:street_address": "2074 Vallco Fashion Park", "addr:city": " Cupertino", "addr:state": "CA", "addr:postcode": "95014", "addr:country": "US", "name": "Cupertino, CA", "phone": "408.253.1221", "website": "https://www.benihana.com/locations/cupertino-ca-cu/", "brand": "Benihana", "brand:wikidata": "Q4887996", "nsi_id": "benihana-bbd124"}, "geometry": {"type": "Point", "coordinates": [-122.0137843, 37.3275364]}},
{"type": "Feature", "id": "-xCi1cZHMey24-nR6RbjLraYNTs=", "properties": {"ref": "https://www.benihana.com/locations/sugarland-tx-su/", "@spider": "benihana", "amenity": "restaurant", "cuisine": "japanese;teppanyaki;steak", "addr:street_address": "2579 Town Center Blvd.", "addr:city": " Sugar Land", "addr:state": " TX", "addr:postcode": "77479", "addr:country": "US", "name": "SUGAR LAND, TX", "phone": "281.565.8888", "website": "https://www.benihana.com/locations/sugarland-tx-su/", "brand": "Benihana", "brand:wikidata": "Q4887996", "nsi_id": "benihana-bbd124"}, "geometry": {"type": "Point", "coordinates": [-95.6193972, 29.595243]}},
{"type": "Feature", "id": "koKJcIHjCDV5IPsOZ1V4-xmBIbI=", "properties": {"ref": "https://www.benihana.com/locations/austin/", "@spider": "benihana", "amenity": "restaurant", "cuisine": "japanese;teppanyaki;steak", "addr:city": " AUSTIN", "addr:state": "TX", "addr:country": "US", "name": "AUSTIN, TX", "website": "https://www.benihana.com/locations/austin/", "brand": "Benihana", "brand:wikidata": "Q4887996", "nsi_id": "benihana-bbd124"}, "geometry": {"type": "Point", "coordinates": [-97.7430608, 30.267153]}},
{"type": "Feature", "id": "Sp-me8BVjFJdp0wCo-cV7O8aav4=", "properties": {"ref": "https://www.benihana.com/locations/monterey-ca-mo/", "@spider": "benihana", "amenity": "restaurant", "cuisine": "japanese;teppanyaki;steak", "addr:street_address": "136 Olivier Street", "addr:city": " Monterey", "addr:state": "CA", "addr:postcode": "93940", "addr:country": "US", "name": "Monterey, CA", "phone": "831.644.9007", "website": "https://www.benihana.com/locations/monterey-ca-mo/", "brand": "Benihana", "brand:wikidata": "Q4887996", "nsi_id": "benihana-bbd124"}, "geometry": {"type": "Point", "coordinates": [-121.8945732, 36.6035019]}},
{"type": "Feature", "id": "sNybftwbjWdqy8wyGfYtreuGg0Q=", "properties": {"ref": "https://www.benihana.com/locations/palmbeach-aw-pa/", "@spider": "benihana", "amenity": "restaurant", "cuisine": "japanese;teppanyaki;steak", "addr:street_address": "South Beach Building Palm Beach 55", "addr:city": " Noord", "addr:country": "AW", "name": "PALM BEACH, ARUBA", "phone": "+297.586.2060", "website": "https://www.benihana.com/locations/palmbeach-aw-pa/", "brand": "Benihana", "brand:wikidata": "Q4887996", "nsi_id": "benihana-bbd124"}, "geometry": {"type": "Point", "coordinates": [-70.044682, 12.5688994]}},
{"type": "Feature", "id": "UJavo7gWOvSHFPd0_zwcdqULsBs=", "properties": {"ref": "https://www.benihana.com/locations/north-scottsdale/", "@spider": "benihana", "amenity": "restaurant", "cuisine": "japanese;teppanyaki;steak", "addr:city": " North Scottsdale", "addr:state": "AZ", "addr:country": "US", "name": "North Scottsdale, AZ", "website": "https://www.benihana.com/locations/north-scottsdale/", "brand": "Benihana", "brand:wikidata": "Q4887996", "nsi_id": "benihana-bbd124"}, "geometry": {"type": "Point", "coordinates": [-111.8686426, 33.6720596]}},
{"type": "Feature", "id": "7n62KnB0M6hVA01hJRsFWFsN1FQ=", "properties": {"ref": "https://www.benihana.com/locations/scottsdale-az-so/", "@spider": "benihana", "amenity": "restaurant", "cuisine": "japanese;teppanyaki;steak", "addr:street_address": "16403 N. Scottsdale Road", "addr:city": " Scottsdale", "addr:state": "AZ", "addr:postcode": "85254", "addr:country": "US", "name": "Scottsdale, AZ", "phone": "480.444.0068", "website": "https://www.benihana.com/locations/scottsdale-az-so/", "brand": "Benihana", "brand:wikidata": "Q4887996", "nsi_id": "benihana-bbd124"}, "geometry": {"type": "Point", "coordinates": [-111.9247221, 33.6348255]}},
{"type": "Feature", "id": "aqerliuhf1SN7try73jlzDhahYs=", "properties": {"ref": "https://www.benihana.com/locations/mesa-az/", "@spider": "benihana", "amenity": "restaurant", "cuisine": "japanese;teppanyaki;steak", "addr:city": " Mesa", "addr:state": "AZ", "addr:country": "US", "name": "Mesa, AZ", "website": "https://www.benihana.com/locations/mesa-az/", "brand": "Benihana", "brand:wikidata": "Q4887996", "nsi_id": "benihana-bbd124"}, "geometry": {"type": "Point", "coordinates": [-111.8314724, 33.4151843]}},
{"type": "Feature", "id": "viMhLhaw-rkfB8CO_q_BnKwShqI=", "properties": {"ref": "https://www.benihana.com/locations/footprint-center-az/", "@spider": "benihana", "amenity": "restaurant", "cuisine": "japanese;teppanyaki;steak", "addr:street_address": "201 E Jefferson St", "addr:city": " Phoenix", "addr:state": "AZ", "addr:postcode": "85004", "addr:country": "US", "name": "Footprint Center, Phoenix, AZ", "website": "https://www.benihana.com/locations/footprint-center-az/", "brand": "Benihana", "brand:wikidata": "Q4887996", "nsi_id": "benihana-bbd124"}, "geometry": {"type": "Point", "coordinates": [-112.0718561, 33.4458753]}},
{"type": "Feature", "id": "wvUGL4Tz90gNEeL9dO-Qk5HDn_w=", "properties": {"ref": "https://www.benihana.com/locations/chandler-az-cd/", "@spider": "benihana", "amenity": "restaurant", "cuisine": "japanese;teppanyaki;steak", "addr:street_address": "3025 W. Chandler Blvd.", "addr:city": " Chandler", "addr:state": "AZ", "addr:postcode": "85226", "addr:country": "US", "name": "CHANDLER, AZ", "phone": "480.812.4701", "website": "https://www.benihana.com/locations/chandler-az-cd/", "brand": "Benihana", "brand:wikidata": "Q4887996", "nsi_id": "benihana-bbd124"}, "geometry": {"type": "Point", "coordinates": [-111.895363, 33.3039862]}},
{"type": "Feature", "id": "gNENRg0bEHo-uF5cubEKKnhd5fA=", "properties": {"ref": "https://www.benihana.com/locations/ahwatukee/", "@spider": "benihana", "amenity": "restaurant", "cuisine": "japanese;teppanyaki;steak", "addr:city": " Ahwatukee", "addr:state": "AZ", "addr:country": "US", "name": "Ahwatukee, AZ", "website": "https://www.benihana.com/locations/ahwatukee/", "brand": "Benihana", "brand:wikidata": "Q4887996", "nsi_id": "benihana-bbd124"}, "geometry": {"type": "Point", "coordinates": [-112.0357137, 33.3122624]}},
{"type": "Feature", "id": "qIrkKuUG9G-wvGPIanaCDVeCXw0=", "properties": {"ref": "https://www.benihana.com/locations/ontario-ca-on/", "@spider": "benihana", "amenity": "restaurant", "cuisine": "japanese;teppanyaki;steak", "addr:street_address": "3760 E. Inland Empire Blvd.", "addr:city": " Ontario", "addr:state": "CA ", "addr:postcode": "91764", "addr:country": "AF", "name": "Ontario, CA", "phone": "909.483.0937", "website": "https://www.benihana.com/locations/ontario-ca-on/", "brand": "Benihana", "brand:wikidata": "Q4887996", "nsi_id": "benihana-bbd124"}, "geometry": {"type": "Point", "coordinates": [-117.5703289, 34.0682461]}},
{"type": "Feature", "id": "R3E1XDnxIjKKypy9GF470Vh7ras=", "properties": {"ref": "https://www.benihana.com/locations/santaanita/", "@spider": "benihana", "amenity": "restaurant", "cuisine": "japanese;teppanyaki;steak", "addr:street_address": "400 S Baldwin Avenue", "addr:city": " Arcadia", "addr:state": "CA", "addr:postcode": "91007", "addr:country": "US", "name": "SANTA ANITA / ARCADIA, CA", "phone": "626.340.2276", "website": "https://www.benihana.com/locations/santaanita/", "brand": "Benihana", "brand:wikidata": "Q4887996", "nsi_id": "benihana-bbd124"}, "geometry": {"type": "Point", "coordinates": [-118.0515879, 34.1347001]}},
{"type": "Feature", "id": "MHq4WMxWSJ4jLEWKVhoT1ZB3uyc=", "properties": {"ref": "https://www.benihana.com/locations/encino-ca-en/", "@spider": "benihana", "amenity": "restaurant", "cuisine": "japanese;teppanyaki;steak", "addr:street_address": "16226 Ventura Blvd.", "addr:city": " Encino", "addr:state": "CA", "addr:postcode": "91436", "addr:country": "US", "name": "Encino, CA", "phone": "818.788.7121", "website": "https://www.benihana.com/locations/encino-ca-en/", "brand": "Benihana", "brand:wikidata": "Q4887996", "nsi_id": "benihana-bbd124"}, "geometry": {"type": "Point", "coordinates": [-118.486517, 34.1564916]}},
{"type": "Feature", "id": "QuSL0NG1MrBxS1wJu-8siWIvIRo=", "properties": {"ref": "https://www.benihana.com/locations/chino-hills/", "@spider": "benihana", "amenity": "restaurant", "cuisine": "japanese;teppanyaki;steak", "addr:city": " Chino Hills", "addr:state": "CA", "addr:country": "US", "name": "Chino Hills, CA", "website": "https://www.benihana.com/locations/chino-hills/", "brand": "Benihana", "brand:wikidata": "Q4887996", "nsi_id": "benihana-bbd124"}, "geometry": {"type": "Point", "coordinates": [-117.7325848, 33.9898188]}},
{"type": "Feature", "id": "gomANNpawC-pdGWxOevyF7cNxY0=", "properties": {"ref": "https://www.benihana.com/locations/puentehills-ca-ph/", "@spider": "benihana", "amenity": "restaurant", "cuisine": "japanese;teppanyaki;steak", "addr:street_address": "17877 Gale Avenue", "addr:city": " City of Industry", "addr:state": "CA", "addr:postcode": "91748", "addr:country": "US", "name": "PUENTE HILLS, CA", "phone": "626.912.8784", "website": "https://www.benihana.com/locations/puentehills-ca-ph/", "brand": "Benihana", "brand:wikidata": "Q4887996", "nsi_id": "benihana-bbd124"}, "geometry": {"type": "Point", "coordinates": [-117.9142676, 33.995458]}},
{"type": "Feature", "id": "2fnW_Si-inCDqFWfcJ5fV2fycCY=", "properties": {"ref": "https://www.benihana.com/locations/santamonica-ca-sm/", "@spider": "benihana", "amenity": "restaurant", "cuisine": "japanese;teppanyaki;steak", "addr:street_address": "1447 4th Street", "addr:city": " Santa Monica", "addr:state": "CA", "addr:postcode": "90401", "addr:country": "US", "name": "SANTA MONICA, CA", "phone": "310.260.1423", "website": "https://www.benihana.com/locations/santamonica-ca-sm/", "brand": "Benihana", "brand:wikidata": "Q4887996", "nsi_id": "benihana-bbd124"}, "geometry": {"type": "Point", "coordinates": [-118.4938554, 34.0155176]}},
{"type": "Feature", "id": "2EgiiNteSzoe-rLiJfmTuJrCIm0=", "properties": {"ref": "https://www.benihana.com/locations/downey-ca-do/", "@spider": "benihana", "amenity": "restaurant", "cuisine": "japanese;teppanyaki;steak", "addr:street_address": " 8801 Apollo Way", "addr:city": " Downey", "addr:state": "CA", "addr:postcode": "90242", "addr:country": "US", "name": "Downey, CA", "phone": "562.372.9210", "website": "https://www.benihana.com/locations/downey-ca-do/", "brand": "Benihana", "brand:wikidata": "Q4887996", "nsi_id": "benihana-bbd124"}, "geometry": {"type": "Point", "coordinates": [-118.1328863, 33.922758]}},
{"type": "Feature", "id": "oT9q6cNcHkq2svMO3LF0UyGmjAQ=", "properties": {"ref": "https://www.benihana.com/locations/tucson/", "@spider": "benihana", "amenity": "restaurant", "cuisine": "japanese;teppanyaki;steak", "addr:city": " Tucson", "addr:state": "AZ", "addr:country": "US", "name": "Tucson, AZ", "website": "https://www.benihana.com/locations/tucson/", "brand": "Benihana", "brand:wikidata": "Q4887996", "nsi_id": "benihana-bbd124"}, "geometry": {"type": "Point", "coordinates": [-110.9747108, 32.2226066]}},
{"type": "Feature", "id": "39TjzkXtr9JRwXT_ffaY-bxdbL8=", "properties": {"ref": "https://www.benihana.com/locations/anaheim-ca-an/", "@spider": "benihana", "amenity": "restaurant", "cuisine": "japanese;teppanyaki;steak", "addr:street_address": "2100 East Ball Road", "addr:city": " Anaheim", "addr:state": "CA", "addr:postcode": "92806", "addr:country": "US", "name": "Anaheim, CA", "phone": "714.774.4940", "website": "https://www.benihana.com/locations/anaheim-ca-an/", "brand": "Benihana", "brand:wikidata": "Q4887996", "nsi_id": "benihana-bbd124"}, "geometry": {"type": "Point", "coordinates": [-117.8873206, 33.8177465]}},
{"type": "Feature", "id": "09o0CuJHRsQMKBq6Rj2ltRx1V54=", "properties": {"ref": "https://www.benihana.com/locations/dignity-health-sports-park/", "@spider": "benihana", "amenity": "restaurant", "cuisine": "japanese;teppanyaki;steak", "addr:street_address": "18400 Avalon Blvd.", "addr:city": " Carson", "addr:state": "CA", "addr:postcode": "90746", "addr:country": "US", "name": "Dignity Health Sports Park, Carson, CA", "website": "https://www.benihana.com/locations/dignity-health-sports-park/", "brand": "Benihana", "brand:wikidata": "Q4887996", "nsi_id": "benihana-bbd124"}, "geometry": {"type": "Point", "coordinates": [-118.2610677, 33.8645988]}},
{"type": "Feature", "id": "MT5tmzSGIuDCOdWMdOrZWvvNH0A=", "properties": {"ref": "https://www.benihana.com/locations/tustin/", "@spider": "benihana", "amenity": "restaurant", "cuisine": "japanese;teppanyaki;steak", "addr:city": " TUSTIN", "addr:state": "CA", "addr:country": "US", "name": "TUSTIN, CA", "website": "https://www.benihana.com/locations/tustin/", "brand": "Benihana", "brand:wikidata": "Q4887996", "nsi_id": "benihana-bbd124"}, "geometry": {"type": "Point", "coordinates": [-117.8236391, 33.7420005]}},
{"type": "Feature", "id": "C9CtXfjffqiY9NGA5o-x5Gle-TM=", "properties": {"ref": "https://www.benihana.com/locations/torrance-ca-to/", "@spider": "benihana", "amenity": "restaurant", "cuisine": "japanese;teppanyaki;steak", "addr:street_address": "21327 Hawthorne Blvd.", "addr:city": " Torrance", "addr:state": "CA", "addr:postcode": "90503", "addr:country": "US", "name": "TORRANCE, CA", "phone": "310.316.7777", "website": "https://www.benihana.com/locations/torrance-ca-to/", "brand": "Benihana", "brand:wikidata": "Q4887996", "nsi_id": "benihana-bbd124"}, "geometry": {"type": "Point", "coordinates": [-118.3558055, 33.8345574]}},
{"type": "Feature", "id": "psgGTwHt-Gg9hFbf90iDdE34_yw=", "properties": {"ref": "https://www.benihana.com/locations/temecula-ca/", "@spider": "benihana", "amenity": "restaurant", "cuisine": "japanese;teppanyaki;steak", "addr:street_address": "26420 Ynez Road at the Promenade Temecula", "addr:city": " Temecula", "addr:state": "CA", "addr:postcode": "92591", "addr:country": "US", "name": "Temecula, CA", "website": "https://www.benihana.com/locations/temecula-ca/", "brand": "Benihana", "brand:wikidata": "Q4887996", "nsi_id": "benihana-bbd124"}, "geometry": {"type": "Point", "coordinates": [-117.1591674, 33.5243364]}},
{"type": "Feature", "id": "DPrHaZH2iV6hqNdt13KUP6jzeH0=", "properties": {"ref": "https://www.benihana.com/locations/newportbeach-ca-nbe/", "@spider": "benihana", "amenity": "restaurant", "cuisine": "japanese;teppanyaki;steak", "addr:street_address": "4250 Birch Street", "addr:city": " Newport Beach", "addr:state": "CA", "addr:postcode": "92660", "addr:country": "AF", "name": "Newport Beach, CA", "phone": "949.955.0822", "website": "https://www.benihana.com/locations/newportbeach-ca-nbe/", "brand": "Benihana", "brand:wikidata": "Q4887996", "nsi_id": "benihana-bbd124"}, "geometry": {"type": "Point", "coordinates": [-117.8669942, 33.6668051]}},
{"type": "Feature", "id": "K-4nSx1BZhC7480896LWr3TKnZM=", "properties": {"ref": "https://www.benihana.com/locations/carlsbad-ca-ca/", "@spider": "benihana", "amenity": "restaurant", "cuisine": "japanese;teppanyaki;steak", "addr:street_address": "755 Raintree Drive Suite 100", "addr:city": " Carlsbad", "addr:state": "CA", "addr:postcode": "92011", "addr:country": "US", "name": "Carlsbad, CA", "phone": "760.929.8311", "website": "https://www.benihana.com/locations/carlsbad-ca-ca/", "brand": "Benihana", "brand:wikidata": "Q4887996", "nsi_id": "benihana-bbd124"}, "geometry": {"type": "Point", "coordinates": [-117.3127067, 33.1042976]}},
{"type": "Feature", "id": "z24FWDcEJ5gpqmTU-gaOYQLeKBw=", "properties": {"ref": "https://www.benihana.com/locations/sandiego-ca-sd/", "@spider": "benihana", "amenity": "restaurant", "cuisine": "japanese;teppanyaki;steak", "addr:street_address": "477 Camino Del Rio South", "addr:city": " San Diego", "addr:state": "CA", "addr:postcode": "92108", "addr:country": "US", "name": "SAN DIEGO, CA", "phone": "619.298.4666", "website": "https://www.benihana.com/locations/sandiego-ca-sd/", "brand": "Benihana", "brand:wikidata": "Q4887996", "nsi_id": "benihana-bbd124"}, "geometry": {"type": "Point", "coordinates": [-117.1601602, 32.762923]}},
{"type": "Feature", "id": "QoBmYQfBZsf74QEkcWcTG0pR_bE=", "properties": {"ref": "https://www.benihana.com/locations/panamacity-pa-pa/", "@spider": "benihana", "amenity": "restaurant", "cuisine": "japanese;teppanyaki;steak", "addr:street_address": "Centro Comercial Multiplaza Pacific local C-356", "addr:city": " Panama City", "addr:country": "PA", "name": "PANAMA CITY, PANAMA", "phone": "+507.302.6207", "website": "https://www.benihana.com/locations/panamacity-pa-pa/", "brand": "Benihana", "brand:wikidata": "Q4887996", "nsi_id": "benihana-bbd124"}, "geometry": {"type": "Point", "coordinates": [-79.51232499999999, 8.984676]}},
{"type": "Feature", "id": "_jpWkaD3UzffBDpMkIP2Nq5a7qU=", "properties": {"ref": "https://www.benihana.com/locations/sansalvador-sv-sa/", "@spider": "benihana", "amenity": "restaurant", "cuisine": "japanese;teppanyaki;steak", "addr:street_address": "Calle Juan Jose Ca\u00f1as 77 Avenida Sur Local 21 Centro Comercial El Paseo", "addr:city": " Paseo General Escal\u00f3n", "addr:country": "SV", "name": "SAN SALVADOR, EL SALVADOR", "phone": "+503.2278.3636", "website": "https://www.benihana.com/locations/sansalvador-sv-sa/", "brand": "Benihana", "brand:wikidata": "Q4887996", "nsi_id": "benihana-bbd124"}, "geometry": {"type": "Point", "coordinates": [-89.23464349999999, 13.7021817]}},
{"type": "Feature", "id": "rL6Uh76Vg5dX69wvqysb_ud0EFA=", "properties": {"ref": "https://www.benihana.com/locations/saopaulo-sp-so/", "@spider": "benihana", "amenity": "restaurant", "cuisine": "japanese;teppanyaki;steak", "addr:street_address": "Rua Amauri, 517 \u2013 Jrdim Europa", "addr:city": " S\u00e3o Paulo", "addr:state": "SP, 01448-000", "addr:country": "BR", "name": "S\u00c3O PAULO, SP - CEP", "phone": "+55.11.3078.2549", "website": "https://www.benihana.com/locations/saopaulo-sp-so/", "brand": "Benihana", "brand:wikidata": "Q4887996", "nsi_id": "benihana-bbd124"}, "geometry": {"type": "Point", "coordinates": [-46.6849241, -23.5826717]}}]}