{"type":"FeatureCollection","features":[{"type": "Feature", "id": "9vUXQih3T5CUz0XpJHmhJdRtcY0=", "properties": {"ref": "9905802", "@spider": "bertuccis", "amenity": "restaurant", "cuisine": "pizza;italian", "addr:street": "435 Andover Street", "addr:city": "North Andover", "addr:state": "Massachusetts", "addr:postcode": "01845", "addr:country": "US", "name": "Bertucci\u2019s Brick Oven Pizza & Pasta", "phone": "(978) 685-4498", "website": "https://locations.bertuccis.com/us/ma/north-andover/435-andover-street", "opening_hours": "Mo-We 11:00-21:30; Th 11:00-22:00; Fr-Sa 11:00-23:00; Su 11:00-21:30", "brand": "Bertucci's", "brand:wikidata": "Q4895917", "nsi_id": "bertuccis-96af40"}, "geometry": {"type": "Point", "coordinates": [-71.12626746296877, 42.674004600419465]}},
{"type": "Feature", "id": "S-Zibljh5D8_hs7U8aTnFEc4Rqo=", "properties": {"ref": "9905801", "@spider": "bertuccis", "amenity": "restaurant", "cuisine": "pizza;italian", "addr:street": "275 Centre Street", "addr:city": "Newton", "addr:state": "Massachusetts", "addr:postcode": "02458", "addr:country": "US", "name": "Bertucci\u2019s Brick Oven Pizza & Pasta", "phone": "(617) 244-4900", "website": "https://locations.bertuccis.com/us/ma/newton/275-centre-street", "opening_hours": "Mo-We 11:00-21:30; Th 11:00-22:00; Fr-Sa 11:00-23:00; Su 11:00-21:30", "brand": "Bertucci's", "brand:wikidata": "Q4895917", "nsi_id": "bertuccis-96af40"}, "geometry": {"type": "Point", "coordinates": [-71.1851409, 42.3586388]}},
{"type": "Feature", "id": "U0oO3K1mxsQiQfIo8isyGDCVZvU=", "properties": {"ref": "9905799", "@spider": "bertuccis", "amenity": "restaurant", "cuisine": "pizza;italian", "addr:street": "1257 Highland Avenue", "addr:city": "Needham", "addr:state": "Massachusetts", "addr:postcode": "02492", "addr:country": "US", "name": "Bertucci\u2019s Brick Oven Pizza & Pasta", "phone": "(781) 449-3777", "website": "https://locations.bertuccis.com/us/ma/needham/1257-highland-avenue", "opening_hours": "Mo-We 11:00-21:30; Th 11:00-22:00; Fr-Sa 11:00-23:00; Su 11:00-21:30", "brand": "Bertucci's", "brand:wikidata": "Q4895917", "nsi_id": "bertuccis-96af40"}, "geometry": {"type": "Point", "coordinates": [-71.2361449, 42.2848195]}},
{"type": "Feature", "id": "KUtyX1P4UyJEhG9NtMo-bPztHvc=", "properties": {"ref": "9905797", "@spider": "bertuccis", "amenity": "restaurant", "cuisine": "pizza;italian", "addr:street": "4054 Mystic Valley Parkway", "addr:city": "Medford", "addr:state": "Massachusetts", "addr:postcode": "02155", "addr:country": "US", "name": "Bertucci\u2019s Brick Oven Pizza & Pasta", "phone": "(781) 396-9933", "website": "https://locations.bertuccis.com/us/ma/medford/4054-mystic-valley-parkway", "opening_hours": "Mo-We 11:00-21:30; Th 11:00-22:00; Fr-Sa 11:00-23:00; Su 11:00-21:30", "brand": "Bertucci's", "brand:wikidata": "Q4895917", "nsi_id": "bertuccis-96af40"}, "geometry": {"type": "Point", "coordinates": [-71.0862938, 42.4049561]}},
{"type": "Feature", "id": "nUdjfga6wJhvbOnUwcc_kWNRJwA=", "properties": {"ref": "9905795", "@spider": "bertuccis", "amenity": "restaurant", "cuisine": "pizza;italian", "addr:street": "601 Donald Lynch", "addr:city": "Marlborough", "addr:state": "Massachusetts", "addr:postcode": "01752", "addr:country": "US", "name": "Bertucci\u2019s Brick Oven Pizza & Pasta", "phone": "(508) 485-3636", "website": "https://locations.bertuccis.com/us/ma/marlborough/601-donald-lynch", "opening_hours": "Mo-Th 11:00-20:00; Fr-Sa 11:00-21:00; Su 11:00-18:00", "brand": "Bertucci's", "brand:wikidata": "Q4895917", "nsi_id": "bertuccis-96af40"}, "geometry": {"type": "Point", "coordinates": [-71.61257743835449, 42.35591969513881]}},
{"type": "Feature", "id": "rttxgQ2DSOJDAyO7sS8817la4jc=", "properties": {"ref": "9905793", "@spider": "bertuccis", "amenity": "restaurant", "cuisine": "pizza;italian", "addr:street": "280 School Street", "addr:city": "Mansfield", "addr:state": "Massachusetts", "addr:postcode": "02048", "addr:country": "US", "name": "Bertucci\u2019s Brick Oven Pizza & Pasta", "phone": "(508) 261-2371", "website": "https://locations.bertuccis.com/us/ma/mansfield/280-school-street", "opening_hours": "Mo-We 11:00-21:30; Th 11:00-22:00; Fr-Sa 11:00-23:00; Su 11:00-21:30", "brand": "Bertucci's", "brand:wikidata": "Q4895917", "nsi_id": "bertuccis-96af40"}, "geometry": {"type": "Point", "coordinates": [-71.229755, 42.012363]}},
{"type": "Feature", "id": "dW7NSlARvLdP9lQkBh-55pndc10=", "properties": {"ref": "9905790", "@spider": "bertuccis", "amenity": "restaurant", "cuisine": "pizza;italian", "addr:street": "1777 Massachusetts Avenue", "addr:city": "Lexington", "addr:state": "Massachusetts", "addr:postcode": "02420", "addr:country": "US", "name": "Bertucci\u2019s Brick Oven Pizza & Pasta", "phone": "(781) 860-9000", "website": "https://locations.bertuccis.com/us/ma/lexington/1777-massachusetts-avenue", "opening_hours": "Mo-We 11:00-21:30; Th 11:00-22:00; Fr-Sa 11:00-23:00; Su 11:00-21:30", "brand": "Bertucci's", "brand:wikidata": "Q4895917", "nsi_id": "bertuccis-96af40"}, "geometry": {"type": "Point", "coordinates": [-71.2276254594326, 42.447875445725245]}},
{"type": "Feature", "id": "Oq0y7yboR0CpOz7IxRkhsmdDeLg=", "properties": {"ref": "9905788", "@spider": "bertuccis", "amenity": "restaurant", "cuisine": "pizza;italian", "addr:street": "414 Washington Street", "addr:city": "Holliston", "addr:state": "Massachusetts", "addr:postcode": "01746", "addr:country": "US", "name": "Bertucci\u2019s Brick Oven Pizza & Pasta", "phone": "(508) 429-4571", "website": "https://locations.bertuccis.com/us/ma/holliston/414-washington-street", "opening_hours": "Mo-We 11:00-21:30; Th 11:00-22:00; Fr-Sa 11:00-23:00; Su 11:00-21:30", "brand": "Bertucci's", "brand:wikidata": "Q4895917", "nsi_id": "bertuccis-96af40"}, "geometry": {"type": "Point", "coordinates": [-71.42551481723785, 42.211077026776586]}},
{"type": "Feature", "id": "7r3Qb1WF47Ek6KH9vqWWuJXUAS0=", "properties": {"ref": "9905787", "@spider": "bertuccis", "amenity": "restaurant", "cuisine": "pizza;italian", "addr:street": "90 Derby Street", "addr:city": "Hingham", "addr:state": "Massachusetts", "addr:postcode": "02043", "addr:country": "US", "name": "Bertucci\u2019s Brick Oven Pizza & Pasta", "phone": "(781) 740-4405", "website": "https://locations.bertuccis.com/us/ma/hingham/90-derby-street", "opening_hours": "Mo-We 11:00-21:30; Th 11:00-22:00; Fr-Sa 11:00-23:00; Su 11:00-21:30", "brand": "Bertucci's", "brand:wikidata": "Q4895917", "nsi_id": "bertuccis-96af40"}, "geometry": {"type": "Point", "coordinates": [-70.90692847967148, 42.17977366475019]}},
{"type": "Feature", "id": "bfFbWkzMplmSotDaXGmEbS66cIE=", "properties": {"ref": "9905784", "@spider": "bertuccis", "amenity": "restaurant", "cuisine": "pizza;italian", "addr:street": "150 Worcester Road", "addr:city": "Framingham", "addr:state": "Massachusetts", "addr:postcode": "01702", "addr:country": "US", "name": "Bertucci\u2019s Brick Oven Pizza & Pasta", "phone": "(508) 879-9161", "website": "https://locations.bertuccis.com/us/ma/framingham/150-worcester-road", "opening_hours": "Mo-We 11:00-21:30; Th 11:00-22:00; Fr-Sa 11:00-23:00; Su 11:00-21:30", "brand": "Bertucci's", "brand:wikidata": "Q4895917", "nsi_id": "bertuccis-96af40"}, "geometry": {"type": "Point", "coordinates": [-71.40068829059607, 42.29812733712494]}},
{"type": "Feature", "id": "sMm3G_L_7lsMCbbmlHdZIkXyils=", "properties": {"ref": "9905808", "@spider": "bertuccis", "amenity": "restaurant", "cuisine": "pizza;italian", "addr:street": "683 VFW Pkwy", "addr:city": "Chestnut Hill", "addr:state": "Massachusetts", "addr:postcode": "02467", "addr:country": "US", "name": "Bertucci\u2019s Brick Oven Pizza & Pasta", "phone": "(617) 327-0898", "website": "https://locations.bertuccis.com/us/ma/chestnut-hill/683-vfw-pkwy", "opening_hours": "Mo-We 11:00-21:30; Th 11:00-22:00; Fr-Sa 11:00-23:00; Su 11:00-21:30", "brand": "Bertucci's", "brand:wikidata": "Q4895917", "nsi_id": "bertuccis-96af40"}, "geometry": {"type": "Point", "coordinates": [-71.15748628042638, 42.29642009558911]}},
{"type": "Feature", "id": "CIqK5URSIAbMGcD9GoyzkUqQzYs=", "properties": {"ref": "9905780", "@spider": "bertuccis", "amenity": "restaurant", "cuisine": "pizza;italian", "addr:street": "14 Littleton Road", "addr:city": "Chelmsford", "addr:state": "Massachusetts", "addr:postcode": "01824", "addr:country": "US", "name": "Bertucci\u2019s Brick Oven Pizza & Pasta", "phone": "(978) 250-8800", "website": "https://locations.bertuccis.com/us/ma/chelmsford/14-littleton-road", "opening_hours": "Mo-We 11:00-21:30; Th 11:00-22:00; Fr-Sa 11:00-23:00; Su 11:00-21:30", "brand": "Bertucci's", "brand:wikidata": "Q4895917", "nsi_id": "bertuccis-96af40"}, "geometry": {"type": "Point", "coordinates": [-71.35493327976224, 42.59628374484309]}},
{"type": "Feature", "id": "iyfYBwG9c8UIWyYjuHW1lIzuuFw=", "properties": {"ref": "9905777", "@spider": "bertuccis", "amenity": "restaurant", "cuisine": "pizza;italian", "addr:street": "95 Washington Street", "addr:city": "Canton", "addr:state": "Massachusetts", "addr:postcode": "02021", "addr:country": "US", "name": "Bertucci\u2019s Brick Oven Pizza & Pasta", "phone": "(781) 828-9901", "website": "https://locations.bertuccis.com/us/ma/canton/95-washington-street", "opening_hours": "Mo-We 11:00-21:30; Th 11:00-22:00; Fr-Sa 11:00-23:00; Su 11:00-21:30", "brand": "Bertucci's", "brand:wikidata": "Q4895917", "nsi_id": "bertuccis-96af40"}, "geometry": {"type": "Point", "coordinates": [-71.14702641963964, 42.14049586965896]}},
{"type": "Feature", "id": "W5hPYGtAyPz-a2wJ9P5nH7hXlc0=", "properties": {"ref": "9905778", "@spider": "bertuccis", "amenity": "restaurant", "cuisine": "pizza;italian", "addr:street": "799 Main Street", "addr:city": "Cambridge", "addr:state": "Massachusetts", "addr:postcode": "02139", "addr:country": "US", "name": "Bertucci\u2019s Brick Oven Pizza & Pasta", "phone": "(617) 661-8356", "website": "https://locations.bertuccis.com/us/ma/cambridge/799-main-street", "opening_hours": "Mo-We 11:00-21:30; Th 11:00-22:00; Fr-Sa 11:00-23:00; Su 11:00-21:30", "brand": "Bertucci's", "brand:wikidata": "Q4895917", "nsi_id": "bertuccis-96af40"}, "geometry": {"type": "Point", "coordinates": [-71.0972848534584, 42.36341845660677]}},
{"type": "Feature", "id": "GpC3J1ByT-q7AGGIl3S76agQspc=", "properties": {"ref": "9905775", "@spider": "bertuccis", "amenity": "restaurant", "cuisine": "pizza;italian", "addr:street": "1285 Belmont Street", "addr:city": "Brockton", "addr:state": "Massachusetts", "addr:postcode": "02301", "addr:country": "US", "name": "Bertucci\u2019s Brick Oven Pizza & Pasta", "phone": "(508) 584-3080", "website": "https://locations.bertuccis.com/us/ma/brockton/1285-belmont-street", "opening_hours": "Mo-We 11:00-21:30; Th 11:00-22:00; Fr-Sa 11:00-23:00; Su 11:00-21:30", "brand": "Bertucci's", "brand:wikidata": "Q4895917", "nsi_id": "bertuccis-96af40"}, "geometry": {"type": "Point", "coordinates": [-71.06903314590454, 42.058663013385946]}},
{"type": "Feature", "id": "FLsu5AQ-OfqCOPe-nAkHEX875pc=", "properties": {"ref": "9905779", "@spider": "bertuccis", "amenity": "restaurant", "cuisine": "pizza;italian", "addr:street": "412 Franklin Street", "addr:city": "Braintree", "addr:state": "Massachusetts", "addr:postcode": "02184", "addr:country": "US", "name": "Bertucci\u2019s Brick Oven Pizza & Pasta", "phone": "(781) 849-3066", "website": "https://locations.bertuccis.com/us/ma/braintree/412-franklin-street", "opening_hours": "Mo-We 11:00-21:30; Th 11:00-22:00; Fr-Sa 11:00-23:00; Su 11:00-21:30", "brand": "Bertucci's", "brand:wikidata": "Q4895917", "nsi_id": "bertuccis-96af40"}, "geometry": {"type": "Point", "coordinates": [-71.01945, 42.2110893]}},
{"type": "Feature", "id": "Hm59nDaCB9sVYogNNyVIoPlkQQY=", "properties": {"ref": "9905815", "@spider": "bertuccis", "amenity": "restaurant", "cuisine": "pizza;italian", "addr:street": "6525 Frontier Drive", "addr:city": "Springfield", "addr:state": "Virginia", "addr:postcode": "22150", "addr:country": "US", "name": "Bertucci\u2019s Brick Oven Pizza & Pasta", "phone": "(703) 313-6700", "website": "https://locations.bertuccis.com/us/va/springfield/6525-frontier-drive", "opening_hours": "Mo-We 11:00-21:30; Th 11:00-22:00; Fr-Sa 11:00-23:00; Su 11:00-21:30", "brand": "Bertucci's", "brand:wikidata": "Q4895917", "nsi_id": "bertuccis-96af40"}, "geometry": {"type": "Point", "coordinates": [-77.1710778, 38.7750714]}},
{"type": "Feature", "id": "vj2Yt5rCQevW44oYDMjj7MsyRII=", "properties": {"ref": "9905820", "@spider": "bertuccis", "amenity": "restaurant", "cuisine": "pizza;italian", "addr:street": "1946 Post Road", "addr:city": "Warwick", "addr:state": "Rhode Island", "addr:postcode": "02886", "addr:country": "US", "name": "Bertucci\u2019s Brick Oven Pizza & Pasta", "phone": "(401) 732-4343", "website": "https://locations.bertuccis.com/us/ri/warwick/1946-post-road", "opening_hours": "Mo-We 11:00-21:30; Th 11:00-22:00; Fr-Sa 11:00-23:00; Su 11:00-21:30", "brand": "Bertucci's", "brand:wikidata": "Q4895917", "nsi_id": "bertuccis-96af40"}, "geometry": {"type": "Point", "coordinates": [-71.43757231076052, 41.728523961137476]}},
{"type": "Feature", "id": "L6HOWvbY_g3Y6DrhbyDLQhh1WvE=", "properties": {"ref": "9905822", "@spider": "bertuccis", "amenity": "restaurant", "cuisine": "pizza;italian", "addr:street": "523 West Lancaster Avenue", "addr:city": "Wayne", "addr:state": "Pennsylvania", "addr:postcode": "19087", "addr:country": "US", "name": "Bertucci\u2019s Brick Oven Pizza & Pasta", "phone": "(610) 293-1700", "website": "https://locations.bertuccis.com/us/pa/wayne/523-west-lancaster-avenue", "opening_hours": "Mo-We 11:00-21:30; Th 11:00-22:00; Fr-Sa 11:00-23:00; Su 11:00-21:30", "brand": "Bertucci's", "brand:wikidata": "Q4895917", "nsi_id": "bertuccis-96af40"}, "geometry": {"type": "Point", "coordinates": [-75.40338099002838, 40.04555459977201]}},
{"type": "Feature", "id": "HLqU5jnX4dmyr-zHf4rguiDQqHs=", "properties": {"ref": "9905814", "@spider": "bertuccis", "amenity": "restaurant", "cuisine": "pizza;italian", "addr:street": "965 Baltimore Pike", "addr:city": "Springfield", "addr:state": "Pennsylvania", "addr:postcode": "19064", "addr:country": "US", "name": "Bertucci\u2019s Brick Oven Pizza & Pasta", "phone": "(610) 543-8079", "website": "https://locations.bertuccis.com/us/pa/springfield/965-baltimore-pike", "opening_hours": "Mo-We 11:00-21:30; Th 11:00-22:00; Fr-Sa 11:00-23:00; Su 11:00-21:30", "brand": "Bertucci's", "brand:wikidata": "Q4895917", "nsi_id": "bertuccis-96af40"}, "geometry": {"type": "Point", "coordinates": [-75.33981800079346, 39.914278833909634]}},
{"type": "Feature", "id": "ioo_TBXSBQMR7-uei6fcsMHqpHU=", "properties": {"ref": "9905811", "@spider": "bertuccis", "amenity": "restaurant", "cuisine": "pizza;italian", "addr:street": "500 West Germantown Pike", "addr:city": "Plymouth Meeting", "addr:state": "Pennsylvania", "addr:postcode": "19462", "addr:country": "US", "name": "Bertucci\u2019s Brick Oven Pizza & Pasta", "phone": "(610) 397-0650", "website": "https://locations.bertuccis.com/us/pa/plymouth-meeting/500-west-germantown-pike", "opening_hours": "Mo-Su 11:00-23:00", "brand": "Bertucci's", "brand:wikidata": "Q4895917", "nsi_id": "bertuccis-96af40"}, "geometry": {"type": "Point", "coordinates": [-75.2816573, 40.1171732]}},
{"type": "Feature", "id": "ExpwOvZNSlod_ZrUiLa1YlnzmSg=", "properties": {"ref": "10446409", "@spider": "bertuccis", "amenity": "restaurant", "cuisine": "pizza;italian", "addr:street": "860 Bethlehem Pike", "addr:city": "North Wales", "addr:state": "Pennsylvania", "addr:postcode": "19454", "addr:country": "US", "name": "Bertucci\u2019s Brick Oven Pizza & Pasta", "phone": "(267) 498-5538", "website": "https://locations.bertuccis.com/us/pa/north-wales/860-bethlehem-pike", "opening_hours": "Mo-We 11:00-21:30; Th 11:00-22:00; Fr-Sa 11:00-23:00; Su 11:00-21:30", "brand": "Bertucci's", "brand:wikidata": "Q4895917", "nsi_id": "bertuccis-96af40"}, "geometry": {"type": "Point", "coordinates": [-75.2422089, 40.2370456]}},
{"type": "Feature", "id": "H_Tm3bDa_9g1vnBKEGE21CRZe-8=", "properties": {"ref": "9905791", "@spider": "bertuccis", "amenity": "restaurant", "cuisine": "pizza;italian", "addr:street": "675 Middletown Blvd", "addr:city": "Langhorne", "addr:state": "Pennsylvania", "addr:postcode": "19047", "addr:country": "US", "name": "Bertucci\u2019s Brick Oven Pizza & Pasta", "phone": "(215) 752-9200", "website": "https://locations.bertuccis.com/us/pa/langhorne/675-middletown-blvd", "opening_hours": "Mo-We 11:00-21:30; Th 11:00-22:00; Fr-Sa 11:00-23:00; Su 11:00-21:30", "brand": "Bertucci's", "brand:wikidata": "Q4895917", "nsi_id": "bertuccis-96af40"}, "geometry": {"type": "Point", "coordinates": [-74.87692161463207, 40.1833272480282]}},
{"type": "Feature", "id": "GN7z79oqveQ8kD0p4a-uSx7c030=", "properties": {"ref": "9905792", "@spider": "bertuccis", "amenity": "restaurant", "cuisine": "pizza;italian", "addr:street": "2190 East County Line Road", "addr:city": "Huntingdon Valley", "addr:state": "Pennsylvania", "addr:postcode": "19006", "addr:country": "US", "name": "Bertucci\u2019s Brick Oven Pizza & Pasta", "phone": "(267) 282-4746", "website": "https://locations.bertuccis.com/us/pa/huntingdon-valley/2190-east-county-line-road", "opening_hours": "Mo-We 11:00-21:30; Th 11:00-22:00; Fr-Sa 11:00-23:00; Su 11:00-21:30", "brand": "Bertucci's", "brand:wikidata": "Q4895917", "nsi_id": "bertuccis-96af40"}, "geometry": {"type": "Point", "coordinates": [-75.07301, 40.1714887]}},
{"type": "Feature", "id": "j-qgItjkMo5rzHMaaH31RWim1Fg=", "properties": {"ref": "9905785", "@spider": "bertuccis", "amenity": "restaurant", "cuisine": "pizza;italian", "addr:street": "501 Byers Drive", "addr:city": "Glen Mills", "addr:state": "Pennsylvania", "addr:postcode": "19342", "addr:country": "US", "name": "Bertucci\u2019s Brick Oven Pizza & Pasta", "phone": "(610) 358-0127", "website": "https://locations.bertuccis.com/us/pa/glen-mills/501-byers-drive", "opening_hours": "Mo-We 11:00-21:30; Th 11:00-22:00; Fr-Sa 11:00-23:00; Su 11:00-21:30", "brand": "Bertucci's", "brand:wikidata": "Q4895917", "nsi_id": "bertuccis-96af40"}, "geometry": {"type": "Point", "coordinates": [-75.52913904190063, 39.88459836589284]}},
{"type": "Feature", "id": "mQ_YueGbRXToBFuDR6b0zS8wEk8=", "properties": {"ref": "9905798", "@spider": "bertuccis", "amenity": "restaurant", "cuisine": "pizza;italian", "addr:street": "1220 Nixon Drive", "addr:city": "Mt. Laurel", "addr:state": "New Jersey", "addr:postcode": "08054", "addr:country": "US", "name": "Bertucci\u2019s Brick Oven Pizza & Pasta", "phone": "(856) 273-0400", "website": "https://locations.bertuccis.com/us/nj/mt--laurel/1220-nixon-drive", "opening_hours": "Mo-We 11:00-21:30; Th 11:00-22:00; Fr-Sa 11:00-23:00; Su 11:00-21:30", "brand": "Bertucci's", "brand:wikidata": "Q4895917", "nsi_id": "bertuccis-96af40"}, "geometry": {"type": "Point", "coordinates": [-74.96380448341375, 39.93905826255474]}},
{"type": "Feature", "id": "CoBEpvGTPAl9s3rno61xi4zRkvM=", "properties": {"ref": "9905794", "@spider": "bertuccis", "amenity": "restaurant", "cuisine": "pizza;italian", "addr:street": "515 North Route 73", "addr:city": "Marlton", "addr:state": "New Jersey", "addr:postcode": "08053", "addr:country": "US", "name": "Bertucci\u2019s Brick Oven Pizza & Pasta", "phone": "(856) 988-8070", "website": "https://locations.bertuccis.com/us/nj/marlton/515-north-route-73", "opening_hours": "Mo-We 11:00-21:30; Th 11:00-22:00; Fr-Sa 11:00-23:00; Su 11:00-21:30", "brand": "Bertucci's", "brand:wikidata": "Q4895917", "nsi_id": "bertuccis-96af40"}, "geometry": {"type": "Point", "coordinates": [-74.93423337301635, 39.900843250269666]}},
{"type": "Feature", "id": "bXcavoFaERWkUbE61Mga7tgjiYE=", "properties": {"ref": "9905813", "@spider": "bertuccis", "amenity": "restaurant", "cuisine": "pizza;italian", "addr:street": "275 Rockingham Park Blvd", "addr:city": "Salem", "addr:state": "New Hampshire", "addr:postcode": "03079", "addr:country": "US", "name": "Bertucci\u2019s Brick Oven Pizza & Pasta", "phone": "(603) 890-3434", "website": "https://locations.bertuccis.com/us/nh/salem/275-rockingham-park-blvd", "opening_hours": "Mo-Th 11:00-20:00; Fr-Sa 11:00-21:00; Su 11:00-18:00", "brand": "Bertucci's", "brand:wikidata": "Q4895917", "nsi_id": "bertuccis-96af40"}, "geometry": {"type": "Point", "coordinates": [-71.231431, 42.768967]}},
{"type": "Feature", "id": "Mig8Siv8v0eCC-IZHmSikzMjB-c=", "properties": {"ref": "9905804", "@spider": "bertuccis", "amenity": "restaurant", "cuisine": "pizza;italian", "addr:street": "406 Amherst Street", "addr:city": "Nashua", "addr:state": "New Hampshire", "addr:postcode": "03063", "addr:country": "US", "name": "Bertucci\u2019s Brick Oven Pizza & Pasta", "phone": "(603) 595-7244", "website": "https://locations.bertuccis.com/us/nh/nashua/406-amherst-street", "opening_hours": "Mo-We 11:00-21:30; Th 11:00-22:00; Fr-Sa 11:00-23:00; Su 11:00-21:30", "brand": "Bertucci's", "brand:wikidata": "Q4895917", "nsi_id": "bertuccis-96af40"}, "geometry": {"type": "Point", "coordinates": [-71.51070982217789, 42.785383860264545]}},
{"type": "Feature", "id": "0YI43_9Wf7DTuccIo36XSsyHvcA=", "properties": {"ref": "9905789", "@spider": "bertuccis", "amenity": "restaurant", "cuisine": "pizza;italian", "addr:street": "1500 South Willow St.", "addr:city": "Manchester", "addr:state": "New Hampshire", "addr:postcode": "03103", "addr:country": "US", "name": "Bertucci\u2019s Brick Oven Pizza & Pasta", "phone": "(603) 668-6204", "website": "https://locations.bertuccis.com/us/nh/manchester/1500-south-willow-st", "opening_hours": "Mo-Th 11:00-19:00; Fr-Sa 11:00-21:00; Su 12:00-18:00", "brand": "Bertucci's", "brand:wikidata": "Q4895917", "nsi_id": "bertuccis-96af40"}, "geometry": {"type": "Point", "coordinates": [-71.4330667, 42.9552545]}},
{"type": "Feature", "id": "AmGYauejqiBtqwkH_lB_0aWg-Hg=", "properties": {"ref": "9905816", "@spider": "bertuccis", "amenity": "restaurant", "cuisine": "pizza;italian", "addr:street": "1818 York Road", "addr:city": "Timonium", "addr:state": "Maryland", "addr:postcode": "21093", "addr:country": "US", "name": "Bertucci\u2019s Brick Oven Pizza & Pasta", "phone": "(410) 561-7000", "website": "https://locations.bertuccis.com/us/md/timonium/1818-york-road", "opening_hours": "Mo-We 11:00-21:30; Th 11:00-22:00; Fr-Sa 11:00-23:00; Su 11:00-21:30", "brand": "Bertucci's", "brand:wikidata": "Q4895917", "nsi_id": "bertuccis-96af40"}, "geometry": {"type": "Point", "coordinates": [-76.62289559841156, 39.43162920952231]}},
{"type": "Feature", "id": "1lSQsCjgQVB4z6b01Us7jjNQGPQ=", "properties": {"ref": "9905781", "@spider": "bertuccis", "amenity": "restaurant", "cuisine": "pizza;italian", "addr:street": "9081 Snowden River Parkway", "addr:city": "Columbia", "addr:state": "Maryland", "addr:postcode": "21046", "addr:country": "US", "name": "Bertucci\u2019s Brick Oven Pizza & Pasta", "phone": "(410) 312-4800", "website": "https://locations.bertuccis.com/us/md/columbia/9081-snowden-river-parkway", "opening_hours": "Mo-We 11:00-21:30; Th 11:00-22:00; Fr-Sa 11:00-23:00; Su 11:00-21:30", "brand": "Bertucci's", "brand:wikidata": "Q4895917", "nsi_id": "bertuccis-96af40"}, "geometry": {"type": "Point", "coordinates": [-76.82259008288378, 39.1809496767102]}},
{"type": "Feature", "id": "qFtV3LRaDdtBmwCMZ1HtLrwPokA=", "properties": {"ref": "9905773", "@spider": "bertuccis", "amenity": "restaurant", "cuisine": "pizza;italian", "addr:street": "12 Bel Air South Parkway", "addr:city": "Bel Air", "addr:state": "Maryland", "addr:postcode": "21015", "addr:country": "US", "name": "Bertucci\u2019s Brick Oven Pizza & Pasta", "phone": "(410) 569-4600", "website": "https://locations.bertuccis.com/us/md/bel-air/12-bel-air-south-parkway", "opening_hours": "Mo-We 11:00-21:30; Th 11:00-22:00; Fr-Sa 11:00-23:00; Su 11:00-21:30", "brand": "Bertucci's", "brand:wikidata": "Q4895917", "nsi_id": "bertuccis-96af40"}, "geometry": {"type": "Point", "coordinates": [-76.32897108793259, 39.49767244513638]}},
{"type": "Feature", "id": "LCJeMySGbR0svPw-Uvxuu2lKAGQ=", "properties": {"ref": "9905823", "@spider": "bertuccis", "amenity": "restaurant", "cuisine": "pizza;italian", "addr:street": "160 Turnpike Road", "addr:city": "Westborough", "addr:state": "Massachusetts", "addr:postcode": "01581", "addr:country": "US", "name": "Bertucci\u2019s Brick Oven Pizza & Pasta", "phone": "(508) 898-3074", "website": "https://locations.bertuccis.com/us/ma/westborough/160-turnpike-road", "opening_hours": "Mo-We 11:00-21:30; Th 11:00-22:00; Fr-Sa 11:00-23:00; Su 11:00-21:30", "brand": "Bertucci's", "brand:wikidata": "Q4895917", "nsi_id": "bertuccis-96af40"}, "geometry": {"type": "Point", "coordinates": [-71.6136148, 42.2843605]}},
{"type": "Feature", "id": "a2CRCeF1pYBFDiANh8ZdRIYycME=", "properties": {"ref": "9905818", "@spider": "bertuccis", "amenity": "restaurant", "cuisine": "pizza;italian", "addr:street": "475 Winter Street", "addr:city": "Waltham", "addr:state": "Massachusetts", "addr:postcode": "02451", "addr:country": "US", "name": "Bertucci\u2019s Brick Oven Pizza & Pasta", "phone": "(781) 684-0650", "website": "https://locations.bertuccis.com/us/ma/waltham/475-winter-street", "opening_hours": "Mo-We 11:00-21:30; Th 11:00-22:00; Fr-Sa 11:00-23:00; Su 11:00-21:30", "brand": "Bertucci's", "brand:wikidata": "Q4895917", "nsi_id": "bertuccis-96af40"}, "geometry": {"type": "Point", "coordinates": [-71.26192152500147, 42.398329867145485]}},
{"type": "Feature", "id": "hp3yf5LazdYBQHnWoScH31akUNw=", "properties": {"ref": "9905817", "@spider": "bertuccis", "amenity": "restaurant", "cuisine": "pizza;italian", "addr:street": "450 Paradise Road", "addr:city": "Swampscott", "addr:state": "Massachusetts", "addr:postcode": "01907", "addr:country": "US", "name": "Bertucci\u2019s Brick Oven Pizza & Pasta", "phone": "(781) 581-6588", "website": "https://locations.bertuccis.com/us/ma/swampscott/450-paradise-road", "opening_hours": "Mo-We 11:00-21:30; Th 11:00-22:00; Fr-Sa 11:00-23:00; Su 11:00-21:30", "brand": "Bertucci's", "brand:wikidata": "Q4895917", "nsi_id": "bertuccis-96af40"}, "geometry": {"type": "Point", "coordinates": [-70.9034508280456, 42.48284457304232]}},
{"type": "Feature", "id": "TVPD_FidAsw-WrSgtu_0IPgYzTs=", "properties": {"ref": "9905809", "@spider": "bertuccis", "amenity": "restaurant", "cuisine": "pizza;italian", "addr:street": "45 Walkers Brook Drive", "addr:city": "Reading", "addr:state": "Massachusetts", "addr:postcode": "01867", "addr:country": "US", "name": "Bertucci\u2019s Brick Oven Pizza & Pasta", "phone": "(781) 942-2001", "website": "https://locations.bertuccis.com/us/ma/reading/45-walkers-brook-drive", "opening_hours": "Mo-We 11:00-21:30; Th 11:00-22:00; Fr-Sa 11:00-23:00; Su 11:00-21:30", "brand": "Bertucci's", "brand:wikidata": "Q4895917", "nsi_id": "bertuccis-96af40"}, "geometry": {"type": "Point", "coordinates": [-71.09434247016901, 42.5188669371731]}},
{"type": "Feature", "id": "JVO51YJJYhI10kPOpCc5eLsjZU0=", "properties": {"ref": "9905807", "@spider": "bertuccis", "amenity": "restaurant", "cuisine": "pizza;italian", "addr:street": "6 Plaza Way", "addr:city": "Plymouth", "addr:state": "Massachusetts", "addr:postcode": "02360", "addr:country": "US", "name": "Bertucci\u2019s Brick Oven Pizza & Pasta", "phone": "(508) 747-1187", "website": "https://locations.bertuccis.com/us/ma/plymouth/6-plaza-way", "opening_hours": "Mo-We 11:00-21:30; Th 11:00-22:00; Fr-Sa 11:00-23:00; Su 11:00-21:30", "brand": "Bertucci's", "brand:wikidata": "Q4895917", "nsi_id": "bertuccis-96af40"}, "geometry": {"type": "Point", "coordinates": [-70.71584983745197, 41.948891169709924]}},
{"type": "Feature", "id": "rMO3tiukujFBUsLdqlMbi46Y1M0=", "properties": {"ref": "9905810", "@spider": "bertuccis", "amenity": "restaurant", "cuisine": "pizza;italian", "addr:street": "15 Newbury Street", "addr:city": "Peabody", "addr:state": "Massachusetts", "addr:postcode": "01960", "addr:country": "US", "name": "Bertucci\u2019s Brick Oven Pizza & Pasta", "phone": "(978) 535-0969", "website": "https://locations.bertuccis.com/us/ma/peabody/15-newbury-street", "opening_hours": "Mo-We 11:00-21:30; Th 11:00-22:00; Fr-Sa 11:00-23:00; Su 11:00-21:30", "brand": "Bertucci's", "brand:wikidata": "Q4895917", "nsi_id": "bertuccis-96af40"}, "geometry": {"type": "Point", "coordinates": [-70.99697752872089, 42.52146154204321]}},
{"type": "Feature", "id": "gce9MlwjaArpSIySSi26snOOZ1E=", "properties": {"ref": "9905806", "@spider": "bertuccis", "amenity": "restaurant", "cuisine": "pizza;italian", "addr:street": "1405 Providence Highway", "addr:city": "Norwood", "addr:state": "Massachusetts", "addr:postcode": "02062", "addr:country": "US", "name": "Bertucci\u2019s Brick Oven Pizza & Pasta", "phone": "(781) 762-4155", "website": "https://locations.bertuccis.com/us/ma/norwood/1405-providence-highway", "opening_hours": "Mo-We 11:00-21:30; Th 11:00-22:00; Fr-Sa 11:00-23:00; Su 11:00-21:30", "brand": "Bertucci's", "brand:wikidata": "Q4895917", "nsi_id": "bertuccis-96af40"}, "geometry": {"type": "Point", "coordinates": [-71.19955480098724, 42.16519272776503]}},
{"type": "Feature", "id": "rSrH5BxuVyMbuQdJrzX1pjvsHG0=", "properties": {"ref": "9905803", "@spider": "bertuccis", "amenity": "restaurant", "cuisine": "pizza;italian", "addr:street": "999 South Washington Street", "addr:city": "North Attleboro", "addr:state": "Massachusetts", "addr:postcode": "02760", "addr:country": "US", "name": "Bertucci\u2019s Brick Oven Pizza & Pasta", "phone": "(508) 699-2491", "website": "https://locations.bertuccis.com/us/ma/north-attleboro/999-south-washington-street", "opening_hours": "Mo-Th 11:00-20:00; Fr-Sa 11:00-21:00; Su 11:00-18:00", "brand": "Bertucci's", "brand:wikidata": "Q4895917", "nsi_id": "bertuccis-96af40"}, "geometry": {"type": "Point", "coordinates": [-71.3492765, 41.9460696]}},
{"type": "Feature", "id": "-JCwWAhO1s9169FS4DwtagfAAkI=", "properties": {"ref": "9905772", "@spider": "bertuccis", "amenity": "restaurant", "cuisine": "pizza;italian", "addr:street": "27 Enon Street", "addr:city": "Beverly", "addr:state": "Massachusetts", "addr:postcode": "01915", "addr:country": "US", "name": "Bertucci\u2019s Brick Oven Pizza & Pasta", "phone": "(978) 927-6866", "website": "https://locations.bertuccis.com/us/ma/beverly/27-enon-street", "opening_hours": "Mo-We 11:00-21:30; Th 11:00-22:00; Fr-Sa 11:00-23:00; Su 11:00-21:30", "brand": "Bertucci's", "brand:wikidata": "Q4895917", "nsi_id": "bertuccis-96af40"}, "geometry": {"type": "Point", "coordinates": [-70.88425576686853, 42.58520036572333]}},
{"type": "Feature", "id": "CcU-scmWnkibtFFdkJO10AmJc_M=", "properties": {"ref": "9905825", "@spider": "bertuccis", "amenity": "restaurant", "cuisine": "pizza;italian", "addr:street": "3610 Concord Pike", "addr:city": "Wilmington", "addr:state": "Delaware", "addr:postcode": "19803", "addr:country": "US", "name": "Bertucci\u2019s Brick Oven Pizza & Pasta", "phone": "(302) 250-4848", "website": "https://locations.bertuccis.com/us/de/wilmington/3610-concord-pike", "opening_hours": "Mo-We 11:00-21:30; Th 11:00-22:00; Fr-Sa 11:00-23:00; Su 11:00-21:30", "brand": "Bertucci's", "brand:wikidata": "Q4895917", "nsi_id": "bertuccis-96af40"}, "geometry": {"type": "Point", "coordinates": [-75.54944068193436, 39.80370722796327]}},
{"type": "Feature", "id": "rP5-Z00PJY49FdW2T_HKVbooclg=", "properties": {"ref": "9905800", "@spider": "bertuccis", "amenity": "restaurant", "cuisine": "pizza;italian", "addr:street": "201 West Main Street", "addr:city": "Newark", "addr:state": "Delaware", "addr:postcode": "19702", "addr:country": "US", "name": "Bertucci\u2019s Brick Oven Pizza & Pasta", "phone": "(302) 286-6600", "website": "https://locations.bertuccis.com/us/de/newark/201-west-main-street", "opening_hours": "Mo-We 11:00-21:30; Th 11:00-22:00; Fr-Sa 11:00-23:00; Su 11:00-21:30", "brand": "Bertucci's", "brand:wikidata": "Q4895917", "nsi_id": "bertuccis-96af40"}, "geometry": {"type": "Point", "coordinates": [-75.66413328051567, 39.66902451098485]}},
{"type": "Feature", "id": "ecc1A3tmGfn5DV2inZDiYhNl-7E=", "properties": {"ref": "9905805", "@spider": "bertuccis", "amenity": "restaurant", "cuisine": "pizza;italian", "addr:street": "2929 Berlin Turnpike", "addr:city": "Newington", "addr:state": "Connecticut", "addr:postcode": "06111", "addr:country": "US", "name": "Bertucci\u2019s Brick Oven Pizza & Pasta", "phone": "(860) 666-1949", "website": "https://locations.bertuccis.com/us/ct/newington/2929-berlin-turnpike", "opening_hours": "Mo-We 11:00-21:30; Th 11:00-22:00; Fr-Sa 11:00-23:00; Su 11:00-21:30", "brand": "Bertucci's", "brand:wikidata": "Q4895917", "nsi_id": "bertuccis-96af40"}, "geometry": {"type": "Point", "coordinates": [-72.7185981, 41.6697051]}},
{"type": "Feature", "id": "e2leugCt8vg0LxvNeR9QkSvKVPY=", "properties": {"ref": "9905783", "@spider": "bertuccis", "amenity": "restaurant", "cuisine": "pizza;italian", "addr:street": "2882 Main Street", "addr:city": "Glastonbury", "addr:state": "Connecticut", "addr:postcode": "06033", "addr:country": "US", "name": "Bertucci\u2019s Brick Oven Pizza & Pasta", "phone": "(860) 633-2225", "website": "https://locations.bertuccis.com/us/ct/glastonbury/2882-main-street", "opening_hours": "Mo-We 11:00-21:30; Th 11:00-22:00; Fr-Sa 11:00-23:00; Su 11:00-21:30", "brand": "Bertucci's", "brand:wikidata": "Q4895917", "nsi_id": "bertuccis-96af40"}, "geometry": {"type": "Point", "coordinates": [-72.61385142803186, 41.721884344763346]}},
{"type": "Feature", "id": "U_EmT4PZPvmg0xQDo523SyDqsAI=", "properties": {"ref": "9905770", "@spider": "bertuccis", "amenity": "restaurant", "cuisine": "pizza;italian", "addr:street": "380 West Main Street", "addr:city": "Avon", "addr:state": "Connecticut", "addr:postcode": "06001", "addr:country": "US", "name": "Bertucci\u2019s Brick Oven Pizza & Pasta", "phone": "(860) 676-1177", "website": "https://locations.bertuccis.com/us/ct/avon/380-west-main-street", "opening_hours": "Mo-We 11:00-21:30; Th 11:00-22:00; Fr-Sa 11:00-23:00; Su 11:00-21:30", "brand": "Bertucci's", "brand:wikidata": "Q4895917", "nsi_id": "bertuccis-96af40"}, "geometry": {"type": "Point", "coordinates": [-72.8630706183854, 41.81677300200213]}}]}