{"type":"FeatureCollection","features":[{"type": "Feature", "id": "P_QypQdTwKe-cZaDDPDZDLUUBdU=", "properties": {"ref": "https://stores.bestbuy.ca/en-ca/pe/charlottetown/191-buchanan-dr", "@spider": "bestbuy-ca", "addr:full": "191 Buchanan Dr.", "addr:city": "Charlottetown", "addr:state": "PE", "addr:postcode": "C1E2E4", "addr:country": "CA", "name": "Best Buy", "phone": "(866) 237-8289", "website": "https://stores.bestbuy.ca/en-ca/pe/charlottetown/191-buchanan-dr", "brand": "Best Buy", "brand:wikidata": "Q533415"}, "geometry": {"type": "Point", "coordinates": [-63.150025650847965, 46.26461780860622]}},
{"type": "Feature", "id": "OsezF1mqUUKYw1pqlwgzP81rU8I=", "properties": {"ref": "https://stores.bestbuy.ca/en-ca/nl/st-johns/3-stavanger-dr", "@spider": "bestbuy-ca", "addr:full": "3 Stavanger Dr.", "addr:city": "St. Johns", "addr:state": "NL", "addr:postcode": "A1A5E8", "addr:country": "CA", "name": "Best Buy", "phone": "(866) 237-8289", "website": "https://stores.bestbuy.ca/en-ca/nl/st-johns/3-stavanger-dr", "brand": "Best Buy", "brand:wikidata": "Q533415"}, "geometry": {"type": "Point", "coordinates": [-52.7221403, 47.6156557]}},
{"type": "Feature", "id": "jJIjvRXQ6sFFh54Kt3mo_N9ERvo=", "properties": {"ref": "https://stores.bestbuy.ca/en-ca/sk/prince-albert/800-15th-st-e-unit-300", "@spider": "bestbuy-ca", "addr:full": "800 15th St. E, Unit 300", "addr:city": "Prince Albert", "addr:state": "SK", "addr:postcode": "S6V8E3", "addr:country": "CA", "name": "Best Buy", "phone": "(866) 237-8289", "website": "https://stores.bestbuy.ca/en-ca/sk/prince-albert/800-15th-st-e-unit-300", "brand": "Best Buy", "brand:wikidata": "Q533415"}, "geometry": {"type": "Point", "coordinates": [-105.7291494, 53.2011965]}},
{"type": "Feature", "id": "fG4taAhnIYIAITULqT9jbKD-0WU=", "properties": {"ref": "https://stores.bestbuy.ca/en-ca/sk/regina/2125-prince-of-wales-dr", "@spider": "bestbuy-ca", "addr:full": "2125 Prince Of Wales Dr.", "addr:city": "Regina", "addr:state": "SK", "addr:postcode": "S4V3A4", "addr:country": "CA", "name": "Best Buy", "phone": "(866) 237-8289", "website": "https://stores.bestbuy.ca/en-ca/sk/regina/2125-prince-of-wales-dr", "brand": "Best Buy", "brand:wikidata": "Q533415"}, "geometry": {"type": "Point", "coordinates": [-104.5320789, 50.4440557]}},
{"type": "Feature", "id": "Eou7boLQruAHothDPINP6phqLCQ=", "properties": {"ref": "https://stores.bestbuy.ca/en-ca/qc/vaudreuil-dorion/3090-boul-de-la-gare", "@spider": "bestbuy-ca", "addr:full": "3090 Boul. De La Gare", "addr:city": "Vaudreuil-Dorion", "addr:state": "QC", "addr:postcode": "J7V0H1", "addr:country": "CA", "name": "Best Buy", "phone": "(866) 237-8289", "website": "https://stores.bestbuy.ca/en-ca/qc/vaudreuil-dorion/3090-boul-de-la-gare", "brand": "Best Buy", "brand:wikidata": "Q533415"}, "geometry": {"type": "Point", "coordinates": [-74.05474885400201, 45.398223489406526]}},
{"type": "Feature", "id": "raPI3CpJswCT8rDcbspFiYfv5wI=", "properties": {"ref": "https://stores.bestbuy.ca/en-ca/qc/trois-rivieres/4520-boul-des-recollets-unit-900a", "@spider": "bestbuy-ca", "addr:full": "4520 Boul. Des Recollets, Unit 900A", "addr:city": "Trois-Rivieres", "addr:state": "QC", "addr:postcode": "G9A4N2", "addr:country": "CA", "name": "Best Buy", "phone": "(866) 237-8289", "website": "https://stores.bestbuy.ca/en-ca/qc/trois-rivieres/4520-boul-des-recollets-unit-900a", "brand": "Best Buy", "brand:wikidata": "Q533415"}, "geometry": {"type": "Point", "coordinates": [-72.567119, 46.3269615]}},
{"type": "Feature", "id": "Svfm3rbF2KgqDtHenYzD_WUxp3A=", "properties": {"ref": "https://stores.bestbuy.ca/en-ca/qc/st-bruno-de-montarville/1235-boul-des-promenades", "@spider": "bestbuy-ca", "addr:full": "1235 Boul. Des Promenades", "addr:city": "St-Bruno de Montarville", "addr:state": "QC", "addr:postcode": "J3V6H1", "addr:country": "CA", "name": "Best Buy", "phone": "(866) 237-8289", "website": "https://stores.bestbuy.ca/en-ca/qc/st-bruno-de-montarville/1235-boul-des-promenades", "brand": "Best Buy", "brand:wikidata": "Q533415"}, "geometry": {"type": "Point", "coordinates": [-73.37698432806974, 45.49984125671193]}},
{"type": "Feature", "id": "rC9Fv5OB0nt8MyFRIUgGeqFh99g=", "properties": {"ref": "https://stores.bestbuy.ca/en-ca/qc/sherbrooke/3450-boul-de-portland", "@spider": "bestbuy-ca", "addr:full": "3450 Boul. De Portland", "addr:city": "Sherbrooke", "addr:state": "QC", "addr:postcode": "J1L2A6", "addr:country": "CA", "name": "Best Buy", "phone": "(866) 237-8289", "website": "https://stores.bestbuy.ca/en-ca/qc/sherbrooke/3450-boul-de-portland", "brand": "Best Buy", "brand:wikidata": "Q533415"}, "geometry": {"type": "Point", "coordinates": [-71.95930427320485, 45.40237227818649]}},
{"type": "Feature", "id": "l8GNCR36Vd4dZNFXmz3CtkMz0uI=", "properties": {"ref": "https://stores.bestbuy.ca/en-ca/qc/saint-jerome/1040-boul-du-grand-heron", "@spider": "bestbuy-ca", "addr:full": "1040 Boul. Du Grand-Heron", "addr:city": "Saint-Jerome", "addr:state": "QC", "addr:postcode": "J7Y5K8", "addr:country": "CA", "name": "Best Buy", "phone": "(866) 237-8289", "website": "https://stores.bestbuy.ca/en-ca/qc/saint-jerome/1040-boul-du-grand-heron", "brand": "Best Buy", "brand:wikidata": "Q533415"}, "geometry": {"type": "Point", "coordinates": [-74.01916265487671, 45.76057351576926]}},
{"type": "Feature", "id": "syJPwXUTPfst05J6q6NGSJ8Rf-w=", "properties": {"ref": "https://stores.bestbuy.ca/en-ca/qc/saint-jean-sur-richelieu/600-rue-pierre-caisse-unit-4000", "@spider": "bestbuy-ca", "addr:full": "600 Rue Pierre-Caisse, Unit 4000", "addr:city": "Saint-Jean-sur-Richelieu", "addr:state": "QC", "addr:postcode": "J3A1M1", "addr:country": "CA", "name": "Best Buy", "phone": "(866) 237-8289", "website": "https://stores.bestbuy.ca/en-ca/qc/saint-jean-sur-richelieu/600-rue-pierre-caisse-unit-4000", "brand": "Best Buy", "brand:wikidata": "Q533415"}, "geometry": {"type": "Point", "coordinates": [-73.2812225818634, 45.32985738556205]}},
{"type": "Feature", "id": "CzCos1TYgYfUoOj-eyOZ_nP0p-w=", "properties": {"ref": "https://stores.bestbuy.ca/en-ca/qc/rosemere/401-boul-labelle-unit-m-20", "@spider": "bestbuy-ca", "addr:full": "401 Boul. Labelle, Unit M-20", "addr:city": "Rosemere", "addr:state": "QC", "addr:postcode": "J7A3T2", "addr:country": "CA", "name": "Best Buy", "phone": "(866) 237-8289", "website": "https://stores.bestbuy.ca/en-ca/qc/rosemere/401-boul-labelle-unit-m-20", "brand": "Best Buy", "brand:wikidata": "Q533415"}, "geometry": {"type": "Point", "coordinates": [-73.8211949, 45.631133]}},
{"type": "Feature", "id": "bLlYOe90jvD-Jfi0EPMplnY5bR4=", "properties": {"ref": "https://stores.bestbuy.ca/en-ca/on/woodbridge/7850-weston-rd--bldg-e-unit-1", "@spider": "bestbuy-ca", "addr:full": "7850 Weston Rd. , Bldg. E Unit 1", "addr:city": "Woodbridge", "addr:state": "ON", "addr:postcode": "L4L9N8", "addr:country": "CA", "name": "Best Buy", "phone": "(866) 237-8289", "website": "https://stores.bestbuy.ca/en-ca/on/woodbridge/7850-weston-rd--bldg-e-unit-1", "brand": "Best Buy", "brand:wikidata": "Q533415"}, "geometry": {"type": "Point", "coordinates": [-79.5490796, 43.7922458]}},
{"type": "Feature", "id": "B0pEEJo-8F2NMroOCiMjti0JSRw=", "properties": {"ref": "https://stores.bestbuy.ca/en-ca/ns/halifax/11-washmill-lake-dr", "@spider": "bestbuy-ca", "addr:full": "11 Washmill Lake Dr.", "addr:city": "Halifax", "addr:state": "NS", "addr:postcode": "B3S0A2", "addr:country": "CA", "name": "Best Buy", "phone": "(866) 237-8289", "website": "https://stores.bestbuy.ca/en-ca/ns/halifax/11-washmill-lake-dr", "brand": "Best Buy", "brand:wikidata": "Q533415"}, "geometry": {"type": "Point", "coordinates": [-63.67159339789396, 44.64677174967007]}},
{"type": "Feature", "id": "IPVwsgEayh1CtE021Cv8xV_FSjM=", "properties": {"ref": "https://stores.bestbuy.ca/en-ca/nb/saint-john/80-consumers-dr", "@spider": "bestbuy-ca", "addr:full": "80 Consumers Dr.", "addr:city": "Saint John", "addr:state": "NB", "addr:postcode": "E2J4Z3", "addr:country": "CA", "name": "Best Buy", "phone": "(866) 237-8289", "website": "https://stores.bestbuy.ca/en-ca/nb/saint-john/80-consumers-dr", "brand": "Best Buy", "brand:wikidata": "Q533415"}, "geometry": {"type": "Point", "coordinates": [-66.02136924862862, 45.30684768782325]}},
{"type": "Feature", "id": "xGpOyp_2sgqlcT8NJu035njB_xM=", "properties": {"ref": "https://stores.bestbuy.ca/en-ca/bc/west-vancouver/2100-park-royal-s", "@spider": "bestbuy-ca", "addr:full": "2100 Park Royal S", "addr:city": "West Vancouver", "addr:state": "BC", "addr:postcode": "V7T2W4", "addr:country": "CA", "name": "Best Buy", "phone": "(866) 237-8289", "website": "https://stores.bestbuy.ca/en-ca/bc/west-vancouver/2100-park-royal-s", "brand": "Best Buy", "brand:wikidata": "Q533415"}, "geometry": {"type": "Point", "coordinates": [-123.13656002283096, 49.324517119657436]}},
{"type": "Feature", "id": "vek2MyX3sgyGQytvM1kHDwDQ_Hw=", "properties": {"ref": "https://stores.bestbuy.ca/en-ca/ab/medicine-hat/3292-dunmore-rd-se-unit-600", "@spider": "bestbuy-ca", "addr:full": "3292 Dunmore Rd. Se, Unit 600", "addr:city": "Medicine Hat", "addr:state": "AB", "addr:postcode": "T1B2R4", "addr:country": "CA", "name": "Best Buy", "phone": "(866) 237-8289", "website": "https://stores.bestbuy.ca/en-ca/ab/medicine-hat/3292-dunmore-rd-se-unit-600", "brand": "Best Buy", "brand:wikidata": "Q533415"}, "geometry": {"type": "Point", "coordinates": [-110.64732313156128, 50.00404301709047]}},
{"type": "Feature", "id": "WAMwJJq6Wbdis0xs8np6Hd7AqGY=", "properties": {"ref": "https://stores.bestbuy.ca/en-ca/sk/saskatoon/3310-8th-st-e-unit-20a", "@spider": "bestbuy-ca", "addr:full": "3310 8th St. E, Unit 20A", "addr:city": "Saskatoon", "addr:state": "SK", "addr:postcode": "S7H5M3", "addr:country": "CA", "name": "Best Buy", "phone": "(866) 237-8289", "website": "https://stores.bestbuy.ca/en-ca/sk/saskatoon/3310-8th-st-e-unit-20a", "brand": "Best Buy", "brand:wikidata": "Q533415"}, "geometry": {"type": "Point", "coordinates": [-106.6018238, 52.1128623]}},
{"type": "Feature", "id": "R--hMjRa29vPBYHL5Jh_H507NaY=", "properties": {"ref": "https://stores.bestbuy.ca/en-ca/sk/saskatoon/1723-preston-ave-n-unit-221", "@spider": "bestbuy-ca", "addr:full": "1723 Preston Ave. N, Unit 221", "addr:city": "Saskatoon", "addr:state": "SK", "addr:postcode": "S7N4V2", "addr:country": "CA", "name": "Best Buy", "phone": "(866) 237-8289", "website": "https://stores.bestbuy.ca/en-ca/sk/saskatoon/1723-preston-ave-n-unit-221", "brand": "Best Buy", "brand:wikidata": "Q533415"}, "geometry": {"type": "Point", "coordinates": [-106.6178482, 52.1472559]}},
{"type": "Feature", "id": "IfeIs7wXfogMIq-KQsECu8RL72Y=", "properties": {"ref": "https://stores.bestbuy.ca/en-ca/ab/lloydminster/7501-44th-st-unit-101", "@spider": "bestbuy-ca", "addr:full": "7501 44th St., Unit 101", "addr:city": "Lloydminster", "addr:state": "AB", "addr:postcode": "T9V0X9", "addr:country": "CA", "name": "Best Buy", "phone": "(866) 237-8289", "website": "https://stores.bestbuy.ca/en-ca/ab/lloydminster/7501-44th-st-unit-101", "brand": "Best Buy", "brand:wikidata": "Q533415"}, "geometry": {"type": "Point", "coordinates": [-110.0556492805481, 53.27595371335808]}},
{"type": "Feature", "id": "97AyI90pfCa11HtG2J4PYWk6VMM=", "properties": {"ref": "https://stores.bestbuy.ca/en-ca/ab/lethbridge/3734-mayor-magrath-dr-s-unit-1c", "@spider": "bestbuy-ca", "addr:full": "3734 Mayor Magrath Dr. S, Unit 1C", "addr:city": "Lethbridge", "addr:state": "AB", "addr:postcode": "T1K7T6", "addr:country": "CA", "name": "Best Buy", "phone": "(866) 237-8289", "website": "https://stores.bestbuy.ca/en-ca/ab/lethbridge/3734-mayor-magrath-dr-s-unit-1c", "brand": "Best Buy", "brand:wikidata": "Q533415"}, "geometry": {"type": "Point", "coordinates": [-112.79444490372043, 49.65504855213399]}},
{"type": "Feature", "id": "uc75C2dJJv6rk5YbbivqMNn1WjI=", "properties": {"ref": "https://stores.bestbuy.ca/en-ca/ab/grande-prairie/9817-116th-st", "@spider": "bestbuy-ca", "addr:full": "9817 116th St.", "addr:city": "Grande Prairie", "addr:state": "AB", "addr:postcode": "T8W0C7", "addr:country": "CA", "name": "Best Buy", "phone": "(866) 237-8289", "website": "https://stores.bestbuy.ca/en-ca/ab/grande-prairie/9817-116th-st", "brand": "Best Buy", "brand:wikidata": "Q533415"}, "geometry": {"type": "Point", "coordinates": [-118.8487448, 55.1689951]}},
{"type": "Feature", "id": "JhQQLJaoD_3q5_sp8yYu80-Fc5Y=", "properties": {"ref": "https://stores.bestbuy.ca/en-ca/ns/sydney/800-grand-lake-rd-unit-e64", "@spider": "bestbuy-ca", "addr:full": "800 Grand Lake Rd., Unit E64", "addr:city": "Sydney", "addr:state": "NS", "addr:postcode": "B1P6S9", "addr:country": "CA", "name": "Best Buy", "phone": "(866) 237-8289", "website": "https://stores.bestbuy.ca/en-ca/ns/sydney/800-grand-lake-rd-unit-e64", "brand": "Best Buy", "brand:wikidata": "Q533415"}, "geometry": {"type": "Point", "coordinates": [-60.13709984785441, 46.14684951092307]}},
{"type": "Feature", "id": "PEhL2x1dop_Aoo0LEmtq31R1zco=", "properties": {"ref": "https://stores.bestbuy.ca/en-ca/ns/sydney/800-grand-lake-rd-unit-e63", "@spider": "bestbuy-ca", "addr:full": "800 Grand Lake Rd., Unit E63", "addr:city": "Sydney", "addr:state": "NS", "addr:postcode": "B1P6S9", "addr:country": "CA", "name": "Best Buy Mobile", "phone": "(902) 539-9941", "website": "https://stores.bestbuy.ca/en-ca/ns/sydney/800-grand-lake-rd-unit-e63", "opening_hours": "Mo-Fr 10:00-20:00; Sa 10:00-19:00; Su 12:00-17:00", "brand": "Best Buy", "brand:wikidata": "Q533415"}, "geometry": {"type": "Point", "coordinates": [-60.13894557952881, 46.14554408912733]}},
{"type": "Feature", "id": "QkCpu-z8uutNpntRHPmmOp3KzCI=", "properties": {"ref": "https://stores.bestbuy.ca/en-ca/mb/winnipeg/810-st-james-st-unit-a", "@spider": "bestbuy-ca", "addr:full": "810 St. James St., Unit A", "addr:city": "Winnipeg", "addr:state": "MB", "addr:postcode": "R3G3J7", "addr:country": "CA", "name": "Best Buy", "phone": "(866) 237-8289", "website": "https://stores.bestbuy.ca/en-ca/mb/winnipeg/810-st-james-st-unit-a", "brand": "Best Buy", "brand:wikidata": "Q533415"}, "geometry": {"type": "Point", "coordinates": [-97.20247301463138, 49.88785953230525]}},
{"type": "Feature", "id": "Zqauw7vTE6DUOqu-dMJXg7H88nc=", "properties": {"ref": "https://stores.bestbuy.ca/en-ca/mb/winnipeg/1910-pembina-hwy-unit-6", "@spider": "bestbuy-ca", "addr:full": "1910 Pembina Hwy., Unit 6", "addr:city": "Winnipeg", "addr:state": "MB", "addr:postcode": "R3T4S5", "addr:country": "CA", "name": "Best Buy", "phone": "(866) 237-8289", "website": "https://stores.bestbuy.ca/en-ca/mb/winnipeg/1910-pembina-hwy-unit-6", "brand": "Best Buy", "brand:wikidata": "Q533415"}, "geometry": {"type": "Point", "coordinates": [-97.1498837881154, 49.82249379427464]}},
{"type": "Feature", "id": "Gitbn6qgIQPCVMlhUldl2octs7Y=", "properties": {"ref": "https://stores.bestbuy.ca/en-ca/ab/red-deer/5001-19th-st-unit-800", "@spider": "bestbuy-ca", "addr:full": "5001 19th St., Unit 800", "addr:city": "Red Deer", "addr:state": "AB", "addr:postcode": "T4R3R1", "addr:country": "CA", "name": "Best Buy", "phone": "(866) 237-8289", "website": "https://stores.bestbuy.ca/en-ca/ab/red-deer/5001-19th-st-unit-800", "brand": "Best Buy", "brand:wikidata": "Q533415"}, "geometry": {"type": "Point", "coordinates": [-113.8180328, 52.2314763]}},
{"type": "Feature", "id": "CPl1R4TrPWxEcCc4LZ58D-5FoX4=", "properties": {"ref": "https://stores.bestbuy.ca/en-ca/ab/red-deer/4747-67th-st-unit-221", "@spider": "bestbuy-ca", "addr:full": "4747 67th St., Unit 221", "addr:city": "Red Deer", "addr:state": "AB", "addr:postcode": "T4N6H3", "addr:country": "CA", "name": "Best Buy Mobile", "phone": "(403) 340-8315", "website": "https://stores.bestbuy.ca/en-ca/ab/red-deer/4747-67th-st-unit-221", "opening_hours": "Mo-Fr 11:00-19:00; Sa 10:00-18:00; Su 11:00-17:00", "brand": "Best Buy", "brand:wikidata": "Q533415"}, "geometry": {"type": "Point", "coordinates": [-113.8114849, 52.2858921]}},
{"type": "Feature", "id": "lQvj2FKTcQ3N6a_qjqFNoY_vZ7o=", "properties": {"ref": "https://stores.bestbuy.ca/en-ca/mb/winnipeg/1580-regent-ave-w-unit-10", "@spider": "bestbuy-ca", "addr:full": "1580 Regent Ave. W, Unit 10", "addr:city": "Winnipeg", "addr:state": "MB", "addr:postcode": "R2C2Y9", "addr:country": "CA", "name": "Best Buy", "phone": "(866) 237-8289", "website": "https://stores.bestbuy.ca/en-ca/mb/winnipeg/1580-regent-ave-w-unit-10", "brand": "Best Buy", "brand:wikidata": "Q533415"}, "geometry": {"type": "Point", "coordinates": [-97.06635627154355, 49.89650621464225]}},
{"type": "Feature", "id": "pE0UGdj467paQX1-n1N_bA1rKDo=", "properties": {"ref": "https://stores.bestbuy.ca/en-ca/bc/saanich/3450-uptown-blvd-suite-200", "@spider": "bestbuy-ca", "addr:full": "3450 Uptown Blvd., Suite 200", "addr:city": "Saanich", "addr:state": "BC", "addr:postcode": "V8Z0B9", "addr:country": "CA", "name": "Best Buy", "phone": "(866) 237-8289", "website": "https://stores.bestbuy.ca/en-ca/bc/saanich/3450-uptown-blvd-suite-200", "brand": "Best Buy", "brand:wikidata": "Q533415"}, "geometry": {"type": "Point", "coordinates": [-123.375270098486, 48.45379690487985]}},
{"type": "Feature", "id": "ZHKbR7OEd6H9Yt0FJLQlSCVJAZ8=", "properties": {"ref": "https://stores.bestbuy.ca/en-ca/bc/richmond/5300-no-3-rd-unit-700", "@spider": "bestbuy-ca", "addr:full": "5300 No. 3 Rd., Unit 700", "addr:city": "Richmond", "addr:state": "BC", "addr:postcode": "V6X2X9", "addr:country": "CA", "name": "Best Buy", "phone": "(866) 237-8289", "website": "https://stores.bestbuy.ca/en-ca/bc/richmond/5300-no-3-rd-unit-700", "brand": "Best Buy", "brand:wikidata": "Q533415"}, "geometry": {"type": "Point", "coordinates": [-123.13403038311662, 49.17491413306345]}},
{"type": "Feature", "id": "gooStr0rFVmX9U4KlYK648XbOpU=", "properties": {"ref": "https://stores.bestbuy.ca/en-ca/bc/prince-george/3900-walls-ave-unit-201", "@spider": "bestbuy-ca", "addr:full": "3900 Walls Ave., Unit 201", "addr:city": "Prince George", "addr:state": "BC", "addr:postcode": "V2N4L4", "addr:country": "CA", "name": "Best Buy", "phone": "(866) 237-8289", "website": "https://stores.bestbuy.ca/en-ca/bc/prince-george/3900-walls-ave-unit-201", "brand": "Best Buy", "brand:wikidata": "Q533415"}, "geometry": {"type": "Point", "coordinates": [-122.7716368, 53.8819534]}},
{"type": "Feature", "id": "DMpnhiNdODIiexEHHc3JFANRQuI=", "properties": {"ref": "https://stores.bestbuy.ca/en-ca/ab/edmonton/9931-19-ave-nw", "@spider": "bestbuy-ca", "addr:full": "9931 19 Ave. NW", "addr:city": "Edmonton", "addr:state": "AB", "addr:postcode": "T6N1M4", "addr:country": "CA", "name": "Best Buy", "phone": "(866) 237-8289", "website": "https://stores.bestbuy.ca/en-ca/ab/edmonton/9931-19-ave-nw", "brand": "Best Buy", "brand:wikidata": "Q533415"}, "geometry": {"type": "Point", "coordinates": [-113.4879649132381, 53.44667706871102]}},
{"type": "Feature", "id": "ERNsFyGZ4vvG8RBNYf2JYSVQpBQ=", "properties": {"ref": "https://stores.bestbuy.ca/en-ca/ab/calgary/901-17th-ave-sw", "@spider": "bestbuy-ca", "addr:full": "901 17th Ave. SW", "addr:city": "Calgary", "addr:state": "AB", "addr:postcode": "T2T0A4", "addr:country": "CA", "name": "Best Buy", "phone": "(866) 237-8289", "website": "https://stores.bestbuy.ca/en-ca/ab/calgary/901-17th-ave-sw", "brand": "Best Buy", "brand:wikidata": "Q533415"}, "geometry": {"type": "Point", "coordinates": [-114.0820517, 51.0376802]}},
{"type": "Feature", "id": "1gJmmk8qgaGtuBQK7it5RzE2mYo=", "properties": {"ref": "https://stores.bestbuy.ca/en-ca/bc/victoria/779-mccallum-dr", "@spider": "bestbuy-ca", "addr:full": "779 McCallum Dr.", "addr:city": "Victoria", "addr:state": "BC", "addr:postcode": "V9B6A2", "addr:country": "CA", "name": "Best Buy", "phone": "(866) 237-8289", "website": "https://stores.bestbuy.ca/en-ca/bc/victoria/779-mccallum-dr", "brand": "Best Buy", "brand:wikidata": "Q533415"}, "geometry": {"type": "Point", "coordinates": [-123.49933420120578, 48.45954137510536]}},
{"type": "Feature", "id": "qLs8wuhKeMgCAfVHQSiw9IbyQ8g=", "properties": {"ref": "https://stores.bestbuy.ca/en-ca/bc/vernon/5600-24th-st", "@spider": "bestbuy-ca", "addr:full": "5600 24th St.", "addr:city": "Vernon", "addr:state": "BC", "addr:postcode": "V1T9T3", "addr:country": "CA", "name": "Best Buy", "phone": "(866) 237-8289", "website": "https://stores.bestbuy.ca/en-ca/bc/vernon/5600-24th-st", "brand": "Best Buy", "brand:wikidata": "Q533415"}, "geometry": {"type": "Point", "coordinates": [-119.26367971304899, 50.286942308017814]}},
{"type": "Feature", "id": "_1t2TBjplWtPjzmytxamyUGKicw=", "properties": {"ref": "https://stores.bestbuy.ca/en-ca/bc/vancouver/8133-ontario-st", "@spider": "bestbuy-ca", "addr:full": "8133 Ontario St.", "addr:city": "Vancouver", "addr:state": "BC", "addr:postcode": "V5X0A7", "addr:country": "CA", "name": "Best Buy", "phone": "(866) 237-8289", "website": "https://stores.bestbuy.ca/en-ca/bc/vancouver/8133-ontario-st", "brand": "Best Buy", "brand:wikidata": "Q533415"}, "geometry": {"type": "Point", "coordinates": [-123.1074496, 49.2114174]}},
{"type": "Feature", "id": "c0Hky85WPEuZp3J6FCHFJvGnR44=", "properties": {"ref": "https://stores.bestbuy.ca/en-ca/bc/vancouver/798-granville-st--suite-200", "@spider": "bestbuy-ca", "addr:full": "798 Granville St. , Suite 200", "addr:city": "Vancouver", "addr:state": "BC", "addr:postcode": "V6Z3C3", "addr:country": "CA", "name": "Best Buy", "phone": "(866) 237-8289", "website": "https://stores.bestbuy.ca/en-ca/bc/vancouver/798-granville-st--suite-200", "brand": "Best Buy", "brand:wikidata": "Q533415"}, "geometry": {"type": "Point", "coordinates": [-123.1195274, 49.281376]}},
{"type": "Feature", "id": "U2po7aQ2uGl3hdWM5LFNWxTm7IQ=", "properties": {"ref": "https://stores.bestbuy.ca/en-ca/bc/vancouver/701-west-georgia-st-unit-d038c", "@spider": "bestbuy-ca", "addr:full": "701 West Georgia St., Unit D038C", "addr:city": "Vancouver", "addr:state": "BC", "addr:postcode": "V7Y1G5", "addr:country": "CA", "name": "Best Buy Mobile", "phone": "(604) 688-3310", "website": "https://stores.bestbuy.ca/en-ca/bc/vancouver/701-west-georgia-st-unit-d038c", "opening_hours": "Mo-We 10:00-19:00; Th-Fr 10:00-21:00; Sa 10:00-20:00; Su 11:00-19:00", "brand": "Best Buy", "brand:wikidata": "Q533415"}, "geometry": {"type": "Point", "coordinates": [-123.1170903, 49.283721]}},
{"type": "Feature", "id": "rV0cEyfBmxiMgFd-Nx_3tcWx-mc=", "properties": {"ref": "https://stores.bestbuy.ca/en-ca/bc/surrey/2267-160th-st", "@spider": "bestbuy-ca", "addr:full": "2267 160th St.", "addr:city": "Surrey", "addr:state": "BC", "addr:postcode": "V3Z9N6", "addr:country": "CA", "name": "Best Buy", "phone": "(866) 237-8289", "website": "https://stores.bestbuy.ca/en-ca/bc/surrey/2267-160th-st", "brand": "Best Buy", "brand:wikidata": "Q533415"}, "geometry": {"type": "Point", "coordinates": [-122.7808314, 49.0431215]}},
{"type": "Feature", "id": "raIWCAbKcovsutOyosQR5moY2_g=", "properties": {"ref": "https://stores.bestbuy.ca/en-ca/bc/surrey/12048-80th-ave", "@spider": "bestbuy-ca", "addr:full": "12048 80th Ave.", "addr:city": "Surrey", "addr:state": "BC", "addr:postcode": "V3W3M1", "addr:country": "CA", "name": "Best Buy", "phone": "(866) 237-8289", "website": "https://stores.bestbuy.ca/en-ca/bc/surrey/12048-80th-ave", "brand": "Best Buy", "brand:wikidata": "Q533415"}, "geometry": {"type": "Point", "coordinates": [-122.88862844907374, 49.14776898215712]}},
{"type": "Feature", "id": "ban5JLbgTisTpyoo1tqiDnTKS2k=", "properties": {"ref": "https://stores.bestbuy.ca/en-ca/bc/surrey/10153-king-george-highway-unit-3200", "@spider": "bestbuy-ca", "addr:full": "10153 King George Highway - Unit 3200", "addr:city": "Surrey", "addr:state": "BC", "addr:postcode": "V3T2W1", "addr:country": "CA", "name": "Best Buy", "phone": "(866) 237-8289", "website": "https://stores.bestbuy.ca/en-ca/bc/surrey/10153-king-george-highway-unit-3200", "brand": "Best Buy", "brand:wikidata": "Q533415"}, "geometry": {"type": "Point", "coordinates": [-122.8481866111145, 49.18601432338064]}},
{"type": "Feature", "id": "fI1M5pR52eVWCF8VszR5KCCiD34=", "properties": {"ref": "https://stores.bestbuy.ca/en-ca/bc/vancouver/2220-cambie-st", "@spider": "bestbuy-ca", "addr:full": "2220 Cambie St.", "addr:city": "Vancouver", "addr:state": "BC", "addr:postcode": "V5Z2T7", "addr:country": "CA", "name": "Best Buy", "phone": "(866) 237-8289", "website": "https://stores.bestbuy.ca/en-ca/bc/vancouver/2220-cambie-st", "brand": "Best Buy", "brand:wikidata": "Q533415"}, "geometry": {"type": "Point", "coordinates": [-123.1143457, 49.2655502]}},
{"type": "Feature", "id": "hqT6HgcKkl22YpD6PGIUBY_VGM0=", "properties": {"ref": "https://stores.bestbuy.ca/en-ca/bc/vernon/4900-27th-st-unit-205", "@spider": "bestbuy-ca", "addr:full": "4900 27th St., Unit 205", "addr:city": "Vernon", "addr:state": "BC", "addr:postcode": "V1T7G7", "addr:country": "CA", "name": "Best Buy Mobile", "phone": "(250) 545-1136", "website": "https://stores.bestbuy.ca/en-ca/bc/vernon/4900-27th-st-unit-205", "opening_hours": "Mo-Th 10:00-18:00; Fr 10:00-20:00; Sa 10:00-18:00; Su 11:00-17:00", "brand": "Best Buy", "brand:wikidata": "Q533415"}, "geometry": {"type": "Point", "coordinates": [-119.2689166, 50.2837353]}},
{"type": "Feature", "id": "8j5F4Ep-FNenyXD6tRDplV_L9Xg=", "properties": {"ref": "https://stores.bestbuy.ca/en-ca/bc/victoria/3147-douglas-st-unit-344", "@spider": "bestbuy-ca", "addr:full": "3147 Douglas St., Unit 344", "addr:city": "Victoria", "addr:state": "BC", "addr:postcode": "V8Z6E3", "addr:country": "CA", "name": "Best Buy Mobile", "phone": "(250) 382-3893", "website": "https://stores.bestbuy.ca/en-ca/bc/victoria/3147-douglas-st-unit-344", "opening_hours": "Mo-We 10:00-18:00; Th-Fr 10:00-21:00; Sa 10:00-18:00; Su 11:00-17:00", "brand": "Best Buy", "brand:wikidata": "Q533415"}, "geometry": {"type": "Point", "coordinates": [-123.3692321, 48.4468384]}},
{"type": "Feature", "id": "m2R90-hA9GuncUcNJOInWUPVCBA=", "properties": {"ref": "https://stores.bestbuy.ca/en-ca/ab/calgary/8180-11th-st-seunit-300", "@spider": "bestbuy-ca", "addr:full": "8180 11th St. Se,Unit 300", "addr:city": "Calgary", "addr:state": "AB", "addr:postcode": "T2H3B5", "addr:country": "CA", "name": "Best Buy", "phone": "(866) 237-8289", "website": "https://stores.bestbuy.ca/en-ca/ab/calgary/8180-11th-st-seunit-300", "brand": "Best Buy", "brand:wikidata": "Q533415"}, "geometry": {"type": "Point", "coordinates": [-114.04247403144836, 50.9827015983704]}},
{"type": "Feature", "id": "8c9GWdvCKUB5X7gNbeqSRTW6i0g=", "properties": {"ref": "https://stores.bestbuy.ca/en-ca/ab/calgary/6455-macleod-trail-sw-unit-0155", "@spider": "bestbuy-ca", "addr:full": "6455 Macleod Trail Sw, Unit 0155", "addr:city": "Calgary", "addr:state": "AB", "addr:postcode": "T2H0K8", "addr:country": "CA", "name": "Best Buy Mobile", "phone": "(403) 441-0634", "website": "https://stores.bestbuy.ca/en-ca/ab/calgary/6455-macleod-trail-sw-unit-0155", "opening_hours": "Mo-Sa 10:00-21:00; Su 10:00-18:00", "brand": "Best Buy", "brand:wikidata": "Q533415"}, "geometry": {"type": "Point", "coordinates": [-114.0742231, 50.999829]}},
{"type": "Feature", "id": "Z2M9T8P798oVPBKseaEfNFtk7v8=", "properties": {"ref": "https://stores.bestbuy.ca/en-ca/ab/calgary/515-marlborough-way-ne", "@spider": "bestbuy-ca", "addr:full": "515 Marlborough Way NE", "addr:city": "Calgary", "addr:state": "AB", "addr:postcode": "T2A2K2", "addr:country": "CA", "name": "Best Buy Mobile", "phone": "(403) 536-1332", "website": "https://stores.bestbuy.ca/en-ca/ab/calgary/515-marlborough-way-ne", "opening_hours": "Mo-Sa 10:00-20:00; Su 11:00-17:00", "brand": "Best Buy", "brand:wikidata": "Q533415"}, "geometry": {"type": "Point", "coordinates": [-113.9786947, 51.0555307]}},
{"type": "Feature", "id": "o7llIYk0FLdU1T5oXr2gW1wH2Lg=", "properties": {"ref": "https://stores.bestbuy.ca/en-ca/bc/nanaimo/6631-island-hwy-n-unit-52", "@spider": "bestbuy-ca", "addr:full": "6631 Island Hwy. N, Unit 52", "addr:city": "Nanaimo", "addr:state": "BC", "addr:postcode": "V9T4T7", "addr:country": "CA", "name": "Best Buy Mobile", "phone": "(250) 390-2026", "website": "https://stores.bestbuy.ca/en-ca/bc/nanaimo/6631-island-hwy-n-unit-52", "opening_hours": "Mo-Sa 10:00-18:00; Su 11:00-17:00", "brand": "Best Buy", "brand:wikidata": "Q533415"}, "geometry": {"type": "Point", "coordinates": [-124.04954846955661, 49.236850853755634]}},
{"type": "Feature", "id": "6xToD4cXxUKgb9l_yRukaXTkv_g=", "properties": {"ref": "https://stores.bestbuy.ca/en-ca/bc/nanaimo/3200-north-island-hwy-unit-87", "@spider": "bestbuy-ca", "addr:full": "3200 North Island Hwy, Unit 87", "addr:city": "Nanaimo", "addr:state": "BC", "addr:postcode": "V9T1W1", "addr:country": "CA", "name": "Best Buy", "phone": "(866) 237-8289", "website": "https://stores.bestbuy.ca/en-ca/bc/nanaimo/3200-north-island-hwy-unit-87", "brand": "Best Buy", "brand:wikidata": "Q533415"}, "geometry": {"type": "Point", "coordinates": [-124.00375843048096, 49.206116753633786]}},
{"type": "Feature", "id": "JbfJvP8aC5MRnJWCXU5qFbhuxrs=", "properties": {"ref": "https://stores.bestbuy.ca/en-ca/ab/calgary/5111-northland-dr-nw-unit-350", "@spider": "bestbuy-ca", "addr:full": "5111 Northland Dr. Nw, Unit 350", "addr:city": "Calgary", "addr:state": "AB", "addr:postcode": "T2L2J8", "addr:country": "CA", "name": "Best Buy", "phone": "(866) 237-8289", "website": "https://stores.bestbuy.ca/en-ca/ab/calgary/5111-northland-dr-nw-unit-350", "brand": "Best Buy", "brand:wikidata": "Q533415"}, "geometry": {"type": "Point", "coordinates": [-114.14467692375177, 51.09930451358444]}},
{"type": "Feature", "id": "fg23teh3NH0is2tNMMe2z2G2d74=", "properties": {"ref": "https://stores.bestbuy.ca/en-ca/ab/calgary/3625-shaganappi-trail-nw-unit-z029", "@spider": "bestbuy-ca", "addr:full": "3625 Shaganappi Trail Nw, Unit Z029", "addr:city": "Calgary", "addr:state": "AB", "addr:postcode": "T3A0E2", "addr:country": "CA", "name": "Best Buy Mobile Kiosk", "phone": "(403) 247-2493", "website": "https://stores.bestbuy.ca/en-ca/ab/calgary/3625-shaganappi-trail-nw-unit-z029", "opening_hours": "Mo-Fr 10:00-21:00; Sa 10:00-20:00; Su 10:00-18:00", "brand": "Best Buy", "brand:wikidata": "Q533415"}, "geometry": {"type": "Point", "coordinates": [-114.1556005, 51.0847054]}},
{"type": "Feature", "id": "2TkKwfkJTduiBmahdltwRWYN200=", "properties": {"ref": "https://stores.bestbuy.ca/en-ca/ab/calgary/350r-shawville-blvd-se-unit-110", "@spider": "bestbuy-ca", "addr:full": "350R Shawville Blvd. Se, Unit 110", "addr:city": "Calgary", "addr:state": "AB", "addr:postcode": "T2Y3S4", "addr:country": "CA", "name": "Best Buy", "phone": "(866) 237-8289", "website": "https://stores.bestbuy.ca/en-ca/ab/calgary/350r-shawville-blvd-se-unit-110", "brand": "Best Buy", "brand:wikidata": "Q533415"}, "geometry": {"type": "Point", "coordinates": [-114.0605851, 50.8998673]}},
{"type": "Feature", "id": "kc83cTEJ9UG5nggTzBcefssKaZs=", "properties": {"ref": "https://stores.bestbuy.ca/en-ca/ab/calgary/350-stewart-green-sw", "@spider": "bestbuy-ca", "addr:full": "350 Stewart Green SW", "addr:city": "Calgary", "addr:state": "AB", "addr:postcode": "T3H3C8", "addr:country": "CA", "name": "Best Buy", "phone": "(866) 237-8289", "website": "https://stores.bestbuy.ca/en-ca/ab/calgary/350-stewart-green-sw", "brand": "Best Buy", "brand:wikidata": "Q533415"}, "geometry": {"type": "Point", "coordinates": [-114.1716385, 51.0150854]}},
{"type": "Feature", "id": "ihJod8GhwIYk3DkVPqpP49zgOWk=", "properties": {"ref": "https://stores.bestbuy.ca/en-ca/ab/calgary/3319-%E2%80%93-26th-avenue-ne", "@spider": "bestbuy-ca", "addr:full": "3319 \u2013 26th Avenue NE", "addr:city": "Calgary", "addr:state": "AB", "addr:postcode": "T1Y6L4", "addr:country": "CA", "name": "Best Buy", "phone": "(866) 237-8289", "website": "https://stores.bestbuy.ca/en-ca/ab/calgary/3319-%E2%80%93-26th-avenue-ne", "brand": "Best Buy", "brand:wikidata": "Q533415"}, "geometry": {"type": "Point", "coordinates": [-113.98769792753706, 51.07706441155291]}},
{"type": "Feature", "id": "P7c_MrD7YcyhVjlu75rfQRlvZcA=", "properties": {"ref": "https://stores.bestbuy.ca/en-ca/ab/calgary/2525-36th-st-ne", "@spider": "bestbuy-ca", "addr:full": "2525 36th St. NE Unit 120", "addr:city": "Calgary", "addr:state": "AB", "addr:postcode": "T1Y5T4", "addr:country": "CA", "name": "Best Buy Mobile", "phone": "(403) 261-0759", "website": "https://stores.bestbuy.ca/en-ca/ab/calgary/2525-36th-st-ne", "opening_hours": "Mo-Sa 10:00-20:00; Su 11:00-17:00", "brand": "Best Buy", "brand:wikidata": "Q533415"}, "geometry": {"type": "Point", "coordinates": [-113.98538462335935, 51.07433496426796]}},
{"type": "Feature", "id": "tW0hvJ_gNcLobp3lNWwKkD3K4xA=", "properties": {"ref": "https://stores.bestbuy.ca/en-ca/ab/calgary/100-anderson-rd-se-unit-346", "@spider": "bestbuy-ca", "addr:full": "100 Anderson Rd. Se, Unit 346", "addr:city": "Calgary", "addr:state": "AB", "addr:postcode": "T2J3V1", "addr:country": "CA", "name": "Best Buy Mobile", "phone": "(403) 225-4919", "website": "https://stores.bestbuy.ca/en-ca/ab/calgary/100-anderson-rd-se-unit-346", "opening_hours": "Mo-Sa 10:00-20:00; Su 11:00-18:00", "brand": "Best Buy", "brand:wikidata": "Q533415"}, "geometry": {"type": "Point", "coordinates": [-114.0648716, 50.9523914]}},
{"type": "Feature", "id": "T0pmpB4Sy0fbS6lOYe2I26NirSI=", "properties": {"ref": "https://stores.bestbuy.ca/en-ca/ab/edmonton/4250-137-ave", "@spider": "bestbuy-ca", "addr:full": "4250 137 Ave.", "addr:city": "Edmonton", "addr:state": "AB", "addr:postcode": "T5Y2W7", "addr:country": "CA", "name": "Best Buy", "phone": "(866) 237-8289", "website": "https://stores.bestbuy.ca/en-ca/ab/edmonton/4250-137-ave", "brand": "Best Buy", "brand:wikidata": "Q533415"}, "geometry": {"type": "Point", "coordinates": [-113.4077683, 53.5989528]}},
{"type": "Feature", "id": "Zhng2n4F8NKfxKWLy-JaWNyY-x8=", "properties": {"ref": "https://stores.bestbuy.ca/en-ca/ab/edmonton/2020-sherwood-dr-sherwood-park-unit-200b", "@spider": "bestbuy-ca", "addr:full": "2020 Sherwood Dr, Sherwood Park, Unit 200B", "addr:city": "Edmonton", "addr:state": "AB", "addr:postcode": "T8A3H9", "addr:country": "CA", "name": "Best Buy", "phone": "(866) 237-8289", "website": "https://stores.bestbuy.ca/en-ca/ab/edmonton/2020-sherwood-dr-sherwood-park-unit-200b", "brand": "Best Buy", "brand:wikidata": "Q533415"}, "geometry": {"type": "Point", "coordinates": [-113.29355577003625, 53.53092443491018]}},
{"type": "Feature", "id": "FE365E09jwFrkiFfcIsLuV8zWlw=", "properties": {"ref": "https://stores.bestbuy.ca/en-ca/ab/edmonton/17539-stony-plain-rd-nw", "@spider": "bestbuy-ca", "addr:full": "17539 Stony Plain Rd. NW", "addr:city": "Edmonton", "addr:state": "AB", "addr:postcode": "T5S2S1", "addr:country": "CA", "name": "Best Buy", "phone": "(866) 237-8289", "website": "https://stores.bestbuy.ca/en-ca/ab/edmonton/17539-stony-plain-rd-nw", "brand": "Best Buy", "brand:wikidata": "Q533415"}, "geometry": {"type": "Point", "coordinates": [-113.62507943807941, 53.54062256180971]}},
{"type": "Feature", "id": "VjBWRTMyKjUTUyoNq2JEa0bFuDg=", "properties": {"ref": "https://stores.bestbuy.ca/en-ca/ab/edmonton/13924-137-ave-nw", "@spider": "bestbuy-ca", "addr:full": "13924 137 Ave. NW", "addr:city": "Edmonton", "addr:state": "AB", "addr:postcode": "T5L5H1", "addr:country": "CA", "name": "Best Buy", "phone": "(866) 237-8289", "website": "https://stores.bestbuy.ca/en-ca/ab/edmonton/13924-137-ave-nw", "brand": "Best Buy", "brand:wikidata": "Q533415"}, "geometry": {"type": "Point", "coordinates": [-113.56072751808824, 53.600740631287124]}},
{"type": "Feature", "id": "xG8bW_0TkKIYW2PnAkXHZQB_Ch4=", "properties": {"ref": "https://stores.bestbuy.ca/en-ca/ab/edmonton/1340-8882-170-street-nw", "@spider": "bestbuy-ca", "addr:full": "1340 - 8882 170 Street NW", "addr:city": "Edmonton", "addr:state": "AB", "addr:postcode": "T5T4M2", "addr:country": "CA", "name": "Best Buy Mobile", "phone": "(780) 484-1595", "website": "https://stores.bestbuy.ca/en-ca/ab/edmonton/1340-8882-170-street-nw", "opening_hours": "Mo-Sa 10:00-21:00; Su 11:00-18:00", "brand": "Best Buy", "brand:wikidata": "Q533415"}, "geometry": {"type": "Point", "coordinates": [-113.6220035, 53.5224745]}},
{"type": "Feature", "id": "eEyYZaf68ca2HWFrEy-bQ_2k8KI=", "properties": {"ref": "https://stores.bestbuy.ca/en-ca/ab/edmonton/10304-109th-st-nw", "@spider": "bestbuy-ca", "addr:full": "10304 109th St. NW", "addr:city": "Edmonton", "addr:state": "AB", "addr:postcode": "T5J1M3", "addr:country": "CA", "name": "Best Buy", "phone": "(866) 237-8289", "website": "https://stores.bestbuy.ca/en-ca/ab/edmonton/10304-109th-st-nw", "brand": "Best Buy", "brand:wikidata": "Q533415"}, "geometry": {"type": "Point", "coordinates": [-113.5097323, 53.5450909]}},
{"type": "Feature", "id": "7DflQTXpyfAH7WTSbbFHcGkS6ZY=", "properties": {"ref": "https://stores.bestbuy.ca/en-ca/bc/kelowna/2271-harvey-ave-unit-1403", "@spider": "bestbuy-ca", "addr:full": "2271 Harvey Ave., Unit 1403", "addr:city": "Kelowna", "addr:state": "BC", "addr:postcode": "V1Y6H2", "addr:country": "CA", "name": "Best Buy", "phone": "(866) 237-8289", "website": "https://stores.bestbuy.ca/en-ca/bc/kelowna/2271-harvey-ave-unit-1403", "brand": "Best Buy", "brand:wikidata": "Q533415"}, "geometry": {"type": "Point", "coordinates": [-119.43856358528137, 49.8791744277817]}},
{"type": "Feature", "id": "wkw3_6LMor1Bb0_X5NSQ0fvBZs8=", "properties": {"ref": "https://stores.bestbuy.ca/en-ca/bc/duncan/2900-drinkwater-rd--unit-101", "@spider": "bestbuy-ca", "addr:full": "2900 Drinkwater Rd. , Unit 101", "addr:city": "Duncan", "addr:state": "BC", "addr:postcode": "V9L6C6", "addr:country": "CA", "name": "Best Buy", "phone": "(866) 237-8289", "website": "https://stores.bestbuy.ca/en-ca/bc/duncan/2900-drinkwater-rd--unit-101", "brand": "Best Buy", "brand:wikidata": "Q533415"}, "geometry": {"type": "Point", "coordinates": [-123.7176299, 48.8027517]}},
{"type": "Feature", "id": "tYvMagVVE6thCDbWSRnIihtopu8=", "properties": {"ref": "https://stores.bestbuy.ca/en-ca/bc/courtenay/3245-cliffe-ave-bldg-d-unit-1", "@spider": "bestbuy-ca", "addr:full": "3245 Cliffe Ave., Bldg. D Unit 1", "addr:city": "Courtenay", "addr:state": "BC", "addr:postcode": "V9N2L9", "addr:country": "CA", "name": "Best Buy", "phone": "(866) 237-8289", "website": "https://stores.bestbuy.ca/en-ca/bc/courtenay/3245-cliffe-ave-bldg-d-unit-1", "brand": "Best Buy", "brand:wikidata": "Q533415"}, "geometry": {"type": "Point", "coordinates": [-124.9775927, 49.6674023]}},
{"type": "Feature", "id": "flbAVOyFgL_SiNsycpE-2pnT034=", "properties": {"ref": "https://stores.bestbuy.ca/en-ca/bc/coquitlam/coquitlam-centre", "@spider": "bestbuy-ca", "addr:full": "Coquitlam Centre Unit 2140-2929 Barnet Highway", "addr:city": "Coquitlam", "addr:state": "BC", "addr:postcode": "V3B5R5", "addr:country": "CA", "name": "Best Buy", "phone": "(866) 237-8289", "website": "https://stores.bestbuy.ca/en-ca/bc/coquitlam/coquitlam-centre", "brand": "Best Buy", "brand:wikidata": "Q533415"}, "geometry": {"type": "Point", "coordinates": [-122.7985819, 49.2780334]}},
{"type": "Feature", "id": "RFxXunpC5JqBjk5gmL7BngPf_J8=", "properties": {"ref": "https://stores.bestbuy.ca/en-ca/bc/chilliwack/45805-luckakuck-way-unit-109", "@spider": "bestbuy-ca", "addr:full": "45805 Luckakuck Way, Unit 109", "addr:city": "Chilliwack", "addr:state": "BC", "addr:postcode": "V2R5S3", "addr:country": "CA", "name": "Best Buy", "phone": "(866) 237-8289", "website": "https://stores.bestbuy.ca/en-ca/bc/chilliwack/45805-luckakuck-way-unit-109", "brand": "Best Buy", "brand:wikidata": "Q533415"}, "geometry": {"type": "Point", "coordinates": [-121.9581702, 49.1448502]}},
{"type": "Feature", "id": "nzvzFU8nEYQYTNXnrHAHde-Xtk4=", "properties": {"ref": "https://stores.bestbuy.ca/en-ca/bc/burnaby/station-square", "@spider": "bestbuy-ca", "addr:full": "Station Square Unit 200-6200 McKay Avenue", "addr:city": "Burnaby", "addr:state": "BC", "addr:postcode": "V5H4L7", "addr:country": "CA", "name": "Best Buy", "phone": "(866) 237-8289", "website": "https://stores.bestbuy.ca/en-ca/bc/burnaby/station-square", "brand": "Best Buy", "brand:wikidata": "Q533415"}, "geometry": {"type": "Point", "coordinates": [-123.00361367591853, 49.2268777091603]}},
{"type": "Feature", "id": "aruBZaiOztFD1R4elxTs-pSK158=", "properties": {"ref": "https://stores.bestbuy.ca/en-ca/bc/abbotsford/32900-south-fraser-way-unit-4", "@spider": "bestbuy-ca", "addr:full": "32900 South Fraser Way, Unit 4", "addr:city": "Abbotsford", "addr:state": "BC", "addr:postcode": "V2S5A1", "addr:country": "CA", "name": "Best Buy", "phone": "(866) 237-8289", "website": "https://stores.bestbuy.ca/en-ca/bc/abbotsford/32900-south-fraser-way-unit-4", "brand": "Best Buy", "brand:wikidata": "Q533415"}, "geometry": {"type": "Point", "coordinates": [-122.3107041, 49.0497506]}},
{"type": "Feature", "id": "TtYkXMZOsEWAigB_uQmEllkp_LE=", "properties": {"ref": "https://stores.bestbuy.ca/en-ca/mb/brandon/901a-18th-st-n", "@spider": "bestbuy-ca", "addr:full": "901A 18th St. N", "addr:city": "Brandon", "addr:state": "MB", "addr:postcode": "R7A7S1", "addr:country": "CA", "name": "Best Buy", "phone": "(866) 237-8289", "website": "https://stores.bestbuy.ca/en-ca/mb/brandon/901a-18th-st-n", "brand": "Best Buy", "brand:wikidata": "Q533415"}, "geometry": {"type": "Point", "coordinates": [-99.9578252, 49.866291]}},
{"type": "Feature", "id": "2Cc7nBXyGL9_ohCI6zQAj92oYuk=", "properties": {"ref": "https://stores.bestbuy.ca/en-ca/nb/moncton/50-plaza-blvd", "@spider": "bestbuy-ca", "addr:full": "50 Plaza Blvd.", "addr:city": "Moncton", "addr:state": "NB", "addr:postcode": "E1C0G4", "addr:country": "CA", "name": "Best Buy", "phone": "(866) 237-8289", "website": "https://stores.bestbuy.ca/en-ca/nb/moncton/50-plaza-blvd", "brand": "Best Buy", "brand:wikidata": "Q533415"}, "geometry": {"type": "Point", "coordinates": [-64.8302477, 46.1124251]}},
{"type": "Feature", "id": "fjtgwMh-lSomaMIZE889wjikUBs=", "properties": {"ref": "https://stores.bestbuy.ca/en-ca/nb/fredericton/1220-prospect-st", "@spider": "bestbuy-ca", "addr:full": "1220 Prospect St.", "addr:city": "Fredericton", "addr:state": "NB", "addr:postcode": "E3B3C1", "addr:country": "CA", "name": "Best Buy", "phone": "(866) 237-8289", "website": "https://stores.bestbuy.ca/en-ca/nb/fredericton/1220-prospect-st", "brand": "Best Buy", "brand:wikidata": "Q533415"}, "geometry": {"type": "Point", "coordinates": [-66.66052190590563, 45.937623866838656]}},
{"type": "Feature", "id": "SC8MmhMMrInyBkHG_3jdWpYvzQc=", "properties": {"ref": "https://stores.bestbuy.ca/en-ca/ns/dartmouth/119-gale-terrace-bldg-1k-4", "@spider": "bestbuy-ca", "addr:full": "119 Gale Terrace, Bldg. 1K-4", "addr:city": "Dartmouth", "addr:state": "NS", "addr:postcode": "B3B0C4", "addr:country": "CA", "name": "Best Buy", "phone": "(866) 237-8289", "website": "https://stores.bestbuy.ca/en-ca/ns/dartmouth/119-gale-terrace-bldg-1k-4", "brand": "Best Buy", "brand:wikidata": "Q533415"}, "geometry": {"type": "Point", "coordinates": [-63.563588708639145, 44.69731045821808]}},
{"type": "Feature", "id": "oOdQI0JodgCT3RKoxN4jZd4L3as=", "properties": {"ref": "https://stores.bestbuy.ca/en-ca/on/whitby/1751-victoria-st-e", "@spider": "bestbuy-ca", "addr:full": "1751 Victoria St. E", "addr:city": "Whitby", "addr:state": "ON", "addr:postcode": "L1N9W4", "addr:country": "CA", "name": "Best Buy", "phone": "(866) 237-8289", "website": "https://stores.bestbuy.ca/en-ca/on/whitby/1751-victoria-st-e", "brand": "Best Buy", "brand:wikidata": "Q533415"}, "geometry": {"type": "Point", "coordinates": [-78.89798535967202, 43.86709003416757]}},
{"type": "Feature", "id": "tMY8bgkYh3VHi2CcEFft5BcDvrY=", "properties": {"ref": "https://stores.bestbuy.ca/en-ca/on/vaughan/1-bass-pro-mills-dr-unit-327", "@spider": "bestbuy-ca", "addr:full": "1 Bass Pro Mills Dr., Unit 327", "addr:city": "Vaughan", "addr:state": "ON", "addr:postcode": "L4K5W4", "addr:country": "CA", "name": "Best Buy Mobile", "phone": "(905) 761-8476", "website": "https://stores.bestbuy.ca/en-ca/on/vaughan/1-bass-pro-mills-dr-unit-327", "opening_hours": "Mo-Sa 10:00-21:00; Su 11:00-19:00", "brand": "Best Buy", "brand:wikidata": "Q533415"}, "geometry": {"type": "Point", "coordinates": [-79.5357317626258, 43.826053679592206]}},
{"type": "Feature", "id": "yCd-Faf5Gf-1YOIWkMR-CF1ctkg=", "properties": {"ref": "https://stores.bestbuy.ca/en-ca/bc/langley/20202-66th-ave-unit-f3", "@spider": "bestbuy-ca", "addr:full": "20202 66th Ave., Unit F3", "addr:city": "Langley", "addr:state": "BC", "addr:postcode": "V2Y1P3", "addr:country": "CA", "name": "Best Buy", "phone": "(866) 237-8289", "website": "https://stores.bestbuy.ca/en-ca/bc/langley/20202-66th-ave-unit-f3", "brand": "Best Buy", "brand:wikidata": "Q533415"}, "geometry": {"type": "Point", "coordinates": [-122.6642062, 49.1220388]}},
{"type": "Feature", "id": "U1zkzrIEWLqCQ0sQHYsuWewG1aU=", "properties": {"ref": "https://stores.bestbuy.ca/en-ca/bc/langley/19890-92a-ave-9728757", "@spider": "bestbuy-ca", "addr:full": "19890 92A Ave Unit 2", "addr:city": "Langley", "addr:state": "BC", "addr:postcode": "V1M 3A9", "addr:country": "CA", "name": "Best Buy Appliance Clearance Centre", "phone": "(866) 237-8289", "website": "https://stores.bestbuy.ca/en-ca/bc/langley/19890-92a-ave-9728757", "opening_hours": "Mo 11:00-19:00; Th-Su 11:00-19:00", "brand": "Best Buy", "brand:wikidata": "Q533415"}, "geometry": {"type": "Point", "coordinates": [-122.67034649848938, 49.169814864483385]}},
{"type": "Feature", "id": "d-UHvYzS1yDf1UygifXcMzm5O-E=", "properties": {"ref": "https://stores.bestbuy.ca/en-ca/bc/kamloops/1320-west-trans-canada-hwy-unit-y700", "@spider": "bestbuy-ca", "addr:full": "1320 West Trans Canada Hwy., Unit Y700", "addr:city": "Kamloops", "addr:state": "BC", "addr:postcode": "V1S1J2", "addr:country": "CA", "name": "Best Buy", "phone": "(866) 237-8289", "website": "https://stores.bestbuy.ca/en-ca/bc/kamloops/1320-west-trans-canada-hwy-unit-y700", "brand": "Best Buy", "brand:wikidata": "Q533415"}, "geometry": {"type": "Point", "coordinates": [-120.37135943770409, 50.655050318787836]}},
{"type": "Feature", "id": "_ECUCvMAsXfQurJ4oGYSbJBY8Ak=", "properties": {"ref": "https://stores.bestbuy.ca/en-ca/bc/kamloops/1320-trans-canada-hwy-w-unit-261a", "@spider": "bestbuy-ca", "addr:full": "1320 Trans Canada Hwy. W, Unit 261A", "addr:city": "Kamloops", "addr:state": "BC", "addr:postcode": "V1S1J2", "addr:country": "CA", "name": "Best Buy Mobile", "phone": "(250) 372-8822", "website": "https://stores.bestbuy.ca/en-ca/bc/kamloops/1320-trans-canada-hwy-w-unit-261a", "opening_hours": "Mo-Th 10:00-18:00; Fr 10:00-19:00; Sa 10:00-18:00; Su 11:00-17:00", "brand": "Best Buy", "brand:wikidata": "Q533415"}, "geometry": {"type": "Point", "coordinates": [-120.3716015, 50.6552386]}},
{"type": "Feature", "id": "MR1ZV_cHtXyjz6es_veSS6n5YHw=", "properties": {"ref": "https://stores.bestbuy.ca/en-ca/bc/langley/19890-92a-ave-9462169", "@spider": "bestbuy-ca", "addr:full": "19890 92A Ave", "addr:city": "Langley", "addr:state": "BC", "addr:postcode": "V1M 3A9", "addr:country": "CA", "name": "Best Buy Distribution Centre", "phone": "(866) 237-8289", "website": "https://stores.bestbuy.ca/en-ca/bc/langley/19890-92a-ave-9462169", "opening_hours": "Mo-Th 09:00-17:00; Fr 09:00-13:00", "brand": "Best Buy", "brand:wikidata": "Q533415"}, "geometry": {"type": "Point", "coordinates": [-122.67098151147366, 49.16987102001528]}},
{"type": "Feature", "id": "EFGpwBfnlniTL3ZmXLTVYNG2NmM=", "properties": {"ref": "https://stores.bestbuy.ca/en-ca/on/timmins/1390-riverside-dr", "@spider": "bestbuy-ca", "addr:full": "1390 Riverside Dr.", "addr:city": "Timmins", "addr:state": "ON", "addr:postcode": "P4R1A5", "addr:country": "CA", "name": "Best Buy", "phone": "(866) 237-8289", "website": "https://stores.bestbuy.ca/en-ca/on/timmins/1390-riverside-dr", "brand": "Best Buy", "brand:wikidata": "Q533415"}, "geometry": {"type": "Point", "coordinates": [-81.3775813, 48.4731204]}},
{"type": "Feature", "id": "Wb6Eis8Mgevp-vwuR65ArkoqzwU=", "properties": {"ref": "https://stores.bestbuy.ca/en-ca/on/thunder-bay/767-memorial-ave-unit-1", "@spider": "bestbuy-ca", "addr:full": "767 Memorial Ave., Unit 1", "addr:city": "Thunder Bay", "addr:state": "ON", "addr:postcode": "P7B3Z7", "addr:country": "CA", "name": "Best Buy", "phone": "(866) 237-8289", "website": "https://stores.bestbuy.ca/en-ca/on/thunder-bay/767-memorial-ave-unit-1", "brand": "Best Buy", "brand:wikidata": "Q533415"}, "geometry": {"type": "Point", "coordinates": [-89.24297332763678, 48.41283830926346]}},
{"type": "Feature", "id": "mkra6Tkr-Q96D7wxZ-IZGaZr6LM=", "properties": {"ref": "https://stores.bestbuy.ca/en-ca/on/sudbury/1099-marcus-dr", "@spider": "bestbuy-ca", "addr:full": "1099 Marcus Dr.", "addr:city": "Sudbury", "addr:state": "ON", "addr:postcode": "P3B4K6", "addr:country": "CA", "name": "Best Buy", "phone": "(866) 237-8289", "website": "https://stores.bestbuy.ca/en-ca/on/sudbury/1099-marcus-dr", "brand": "Best Buy", "brand:wikidata": "Q533415"}, "geometry": {"type": "Point", "coordinates": [-80.9484806, 46.4995874]}},
{"type": "Feature", "id": "3ARVXGw6BOWcPY9zWGJlr7R97c8=", "properties": {"ref": "https://stores.bestbuy.ca/en-ca/on/sault-ste-marie/548-great-northern-rd", "@spider": "bestbuy-ca", "addr:full": "548 Great Northern Rd.", "addr:city": "Sault Ste. Marie", "addr:state": "ON", "addr:postcode": "P6B4Z9", "addr:country": "CA", "name": "Best Buy", "phone": "(866) 237-8289", "website": "https://stores.bestbuy.ca/en-ca/on/sault-ste-marie/548-great-northern-rd", "brand": "Best Buy", "brand:wikidata": "Q533415"}, "geometry": {"type": "Point", "coordinates": [-84.3178028, 46.5436648]}},
{"type": "Feature", "id": "J_X4iUOv3cYFjd_HlVq8JvSC1Po=", "properties": {"ref": "https://stores.bestbuy.ca/en-ca/on/sarnia/1380-exmouth-st", "@spider": "bestbuy-ca", "addr:full": "1380 Exmouth St.", "addr:city": "Sarnia", "addr:state": "ON", "addr:postcode": "N7S3X9", "addr:country": "CA", "name": "Best Buy", "phone": "(866) 237-8289", "website": "https://stores.bestbuy.ca/en-ca/on/sarnia/1380-exmouth-st", "brand": "Best Buy", "brand:wikidata": "Q533415"}, "geometry": {"type": "Point", "coordinates": [-82.35304323976379, 42.98546836804299]}},
{"type": "Feature", "id": "Ji7uJTendVoXnA5m4A3ed5pyLXM=", "properties": {"ref": "https://stores.bestbuy.ca/en-ca/on/windsor/4379-walker-rd", "@spider": "bestbuy-ca", "addr:full": "4379 Walker Rd.", "addr:city": "Windsor", "addr:state": "ON", "addr:postcode": "N8W3T6", "addr:country": "CA", "name": "Best Buy", "phone": "(866) 237-8289", "website": "https://stores.bestbuy.ca/en-ca/on/windsor/4379-walker-rd", "brand": "Best Buy", "brand:wikidata": "Q533415"}, "geometry": {"type": "Point", "coordinates": [-82.96679167080583, 42.25651490188956]}},
{"type": "Feature", "id": "ASr1GGOolHMweAt9UeMCtH79xqg=", "properties": {"ref": "https://stores.bestbuy.ca/en-ca/on/windsor/3100-howard-ave-unit-ss7", "@spider": "bestbuy-ca", "addr:full": "3100 Howard Ave., Unit SS7", "addr:city": "Windsor", "addr:state": "ON", "addr:postcode": "N8X3Y8", "addr:country": "CA", "name": "Best Buy Mobile", "phone": "(519) 946-0712", "website": "https://stores.bestbuy.ca/en-ca/on/windsor/3100-howard-ave-unit-ss7", "opening_hours": "Mo-Fr 10:00-20:00; Sa 10:00-18:00; Su 11:00-17:00", "brand": "Best Buy", "brand:wikidata": "Q533415"}, "geometry": {"type": "Point", "coordinates": [-83.00188, 42.274735]}},
{"type": "Feature", "id": "qeQlV1dYiXGo-G-NpbI4XE89T3k=", "properties": {"ref": "https://stores.bestbuy.ca/en-ca/on/waterloo/580-king-st-n-bldg-b", "@spider": "bestbuy-ca", "addr:full": "580 King St. N, Bldg. B", "addr:city": "Waterloo", "addr:state": "ON", "addr:postcode": "N2L6L3", "addr:country": "CA", "name": "Best Buy", "phone": "(866) 237-8289", "website": "https://stores.bestbuy.ca/en-ca/on/waterloo/580-king-st-n-bldg-b", "brand": "Best Buy", "brand:wikidata": "Q533415"}, "geometry": {"type": "Point", "coordinates": [-80.5320522, 43.5013197]}},
{"type": "Feature", "id": "Mdf8Qr4xcnsscjn55iKczteoEGg=", "properties": {"ref": "https://stores.bestbuy.ca/en-ca/on/waterloo/550-king-st-n-unit-h16", "@spider": "bestbuy-ca", "addr:full": "550 King St. N, Unit H16", "addr:city": "Waterloo", "addr:state": "ON", "addr:postcode": "N2L5W6", "addr:country": "CA", "name": "Best Buy Mobile", "phone": "(519) 772-0341", "website": "https://stores.bestbuy.ca/en-ca/on/waterloo/550-king-st-n-unit-h16", "opening_hours": "Mo-Fr 10:00-21:00; Sa 10:00-18:00; Su 11:00-17:00", "brand": "Best Buy", "brand:wikidata": "Q533415"}, "geometry": {"type": "Point", "coordinates": [-80.5260007, 43.4972233]}},
{"type": "Feature", "id": "Tpz05s5IU_jcZ9MYQ_1iTdXvlLI=", "properties": {"ref": "https://stores.bestbuy.ca/en-ca/on/richmond-hill/225-high-tech-rd-unit-3", "@spider": "bestbuy-ca", "addr:full": "225 High Tech Rd., Unit 3", "addr:city": "Richmond Hill", "addr:state": "ON", "addr:postcode": "L4B0A6", "addr:country": "CA", "name": "Best Buy", "phone": "(866) 237-8289", "website": "https://stores.bestbuy.ca/en-ca/on/richmond-hill/225-high-tech-rd-unit-3", "brand": "Best Buy", "brand:wikidata": "Q533415"}, "geometry": {"type": "Point", "coordinates": [-79.4175206, 43.8419634]}},
{"type": "Feature", "id": "Ke3R4Wpm3UtYPSoNDwre7dwDooU=", "properties": {"ref": "https://stores.bestbuy.ca/en-ca/on/pickering/1355-kingston-rd-unit-78", "@spider": "bestbuy-ca", "addr:full": "1355 Kingston Rd., Unit 78", "addr:city": "Pickering", "addr:state": "ON", "addr:postcode": "L1V1B8", "addr:country": "CA", "name": "Best Buy Mobile", "phone": "(905) 837-3078", "website": "https://stores.bestbuy.ca/en-ca/on/pickering/1355-kingston-rd-unit-78", "opening_hours": "Mo-Fr 10:00-21:00; Sa 10:00-18:00; Su 12:00-17:00", "brand": "Best Buy", "brand:wikidata": "Q533415"}, "geometry": {"type": "Point", "coordinates": [-79.0860983, 43.8355951]}},
{"type": "Feature", "id": "YLvur6Vqz_4ZJtGtI2MJXS3C_W0=", "properties": {"ref": "https://stores.bestbuy.ca/en-ca/on/oshawa/1421-harmony-rd-n", "@spider": "bestbuy-ca", "addr:full": "1421 Harmony Rd. N", "addr:city": "Oshawa", "addr:state": "ON", "addr:postcode": "L1K0Z6", "addr:country": "CA", "name": "Best Buy", "phone": "(866) 237-8289", "website": "https://stores.bestbuy.ca/en-ca/on/oshawa/1421-harmony-rd-n", "brand": "Best Buy", "brand:wikidata": "Q533415"}, "geometry": {"type": "Point", "coordinates": [-78.84966284036636, 43.94151084208076]}},
{"type": "Feature", "id": "ShdZCDhPbolVotlthSEEJPTl_Nc=", "properties": {"ref": "https://stores.bestbuy.ca/en-ca/on/toronto/900-dufferin-st-unit-0455", "@spider": "bestbuy-ca", "addr:full": "900 Dufferin St., Unit 0455", "addr:city": "Toronto", "addr:state": "ON", "addr:postcode": "M6H4A9", "addr:country": "CA", "name": "Best Buy Mobile", "phone": "(416) 645-1646", "website": "https://stores.bestbuy.ca/en-ca/on/toronto/900-dufferin-st-unit-0455", "opening_hours": "Mo-Sa 10:00-20:00; Su 11:00-18:00", "brand": "Best Buy", "brand:wikidata": "Q533415"}, "geometry": {"type": "Point", "coordinates": [-79.4359397, 43.6561525]}},
{"type": "Feature", "id": "mflypiMv7TusgXj9MDTQgdIcxgg=", "properties": {"ref": "https://stores.bestbuy.ca/en-ca/on/toronto/695-wilson-ave", "@spider": "bestbuy-ca", "addr:full": "695 Wilson Ave.", "addr:city": "Toronto", "addr:state": "ON", "addr:postcode": "M3K1E3", "addr:country": "CA", "name": "Best Buy", "phone": "(866) 237-8289", "website": "https://stores.bestbuy.ca/en-ca/on/toronto/695-wilson-ave", "brand": "Best Buy", "brand:wikidata": "Q533415"}, "geometry": {"type": "Point", "coordinates": [-79.4564214348793, 43.73208460392743]}},
{"type": "Feature", "id": "1eoiO-pV3MfkCz2eCAfgPU1y3N4=", "properties": {"ref": "https://stores.bestbuy.ca/en-ca/on/toronto/65-dundas-st-w", "@spider": "bestbuy-ca", "addr:full": "65 Dundas St. W", "addr:city": "Toronto", "addr:state": "ON", "addr:postcode": "M5G2C3", "addr:country": "CA", "name": "Best Buy", "phone": "(866) 237-8289", "website": "https://stores.bestbuy.ca/en-ca/on/toronto/65-dundas-st-w", "brand": "Best Buy", "brand:wikidata": "Q533415"}, "geometry": {"type": "Point", "coordinates": [-79.3824463, 43.6554395]}},
{"type": "Feature", "id": "elaXy0CPs5C_OHzkt4tJ98BQy0w=", "properties": {"ref": "https://stores.bestbuy.ca/en-ca/on/toronto/147-laird-dr", "@spider": "bestbuy-ca", "addr:full": "147 Laird Dr.", "addr:city": "Toronto", "addr:state": "ON", "addr:postcode": "M4G4K1", "addr:country": "CA", "name": "Best Buy", "phone": "(866) 237-8289", "website": "https://stores.bestbuy.ca/en-ca/on/toronto/147-laird-dr", "brand": "Best Buy", "brand:wikidata": "Q533415"}, "geometry": {"type": "Point", "coordinates": [-79.36168044805527, 43.709255121223215]}},
{"type": "Feature", "id": "kIjf7E28_yOqRf0qeS7b5Xo0HhM=", "properties": {"ref": "https://stores.bestbuy.ca/en-ca/on/st-catharines/420-vansickle-rd-unit-l1", "@spider": "bestbuy-ca", "addr:full": "420 Vansickle Rd. Unit L1", "addr:city": "St. Catharines", "addr:state": "ON", "addr:postcode": "L2S0C7", "addr:country": "CA", "name": "Best Buy", "phone": "(866) 237-8289", "website": "https://stores.bestbuy.ca/en-ca/on/st-catharines/420-vansickle-rd-unit-l1", "brand": "Best Buy", "brand:wikidata": "Q533415"}, "geometry": {"type": "Point", "coordinates": [-79.26988922059536, 43.15153026224211]}},
{"type": "Feature", "id": "BXeuwuMrfSz336mNhOqtiYyRRqY=", "properties": {"ref": "https://stores.bestbuy.ca/en-ca/on/scarborough/50-ashtonbee-rd-unit-2", "@spider": "bestbuy-ca", "addr:full": "50 Ashtonbee Rd., Unit 2", "addr:city": "Scarborough", "addr:state": "ON", "addr:postcode": "M1L4R5", "addr:country": "CA", "name": "Best Buy", "phone": "(866) 237-8289", "website": "https://stores.bestbuy.ca/en-ca/on/scarborough/50-ashtonbee-rd-unit-2", "brand": "Best Buy", "brand:wikidata": "Q533415"}, "geometry": {"type": "Point", "coordinates": [-79.2892152294462, 43.73012100688982]}},
{"type": "Feature", "id": "a2Wsp2wWGa3JQuH27hbhn-U3jy0=", "properties": {"ref": "https://stores.bestbuy.ca/en-ca/on/scarborough/480-progress-ave", "@spider": "bestbuy-ca", "addr:full": "480 Progress Ave.", "addr:city": "Scarborough", "addr:state": "ON", "addr:postcode": "M1P5J1", "addr:country": "CA", "name": "Best Buy", "phone": "(866) 237-8289", "website": "https://stores.bestbuy.ca/en-ca/on/scarborough/480-progress-ave", "brand": "Best Buy", "brand:wikidata": "Q533415"}, "geometry": {"type": "Point", "coordinates": [-79.25992615520954, 43.778763244620826]}},
{"type": "Feature", "id": "xaCa6M7PUBfcYck8Yn6mSSlmAyQ=", "properties": {"ref": "https://stores.bestbuy.ca/en-ca/on/st-catharines/221-glendale-ave-unit-146", "@spider": "bestbuy-ca", "addr:full": "221 Glendale Ave., Unit 146", "addr:city": "St. Catharines", "addr:state": "ON", "addr:postcode": "L2T2K9", "addr:country": "CA", "name": "Best Buy Mobile", "phone": "(905) 346-0274", "website": "https://stores.bestbuy.ca/en-ca/on/st-catharines/221-glendale-ave-unit-146", "opening_hours": "Mo-Fr 10:00-21:00; Sa 10:00-18:00; Su 11:00-17:00", "brand": "Best Buy", "brand:wikidata": "Q533415"}, "geometry": {"type": "Point", "coordinates": [-79.225323, 43.135124]}},
{"type": "Feature", "id": "nIrkB4ZN_4BeiZ2nAxvq6hfPEWI=", "properties": {"ref": "https://stores.bestbuy.ca/en-ca/on/toronto/10-old-stock-yards-rd", "@spider": "bestbuy-ca", "addr:full": "10 Old Stock Yards Rd.", "addr:city": "Toronto", "addr:state": "ON", "addr:postcode": "M6N5G8", "addr:country": "CA", "name": "Best Buy", "phone": "(866) 237-8289", "website": "https://stores.bestbuy.ca/en-ca/on/toronto/10-old-stock-yards-rd", "brand": "Best Buy", "brand:wikidata": "Q533415"}, "geometry": {"type": "Point", "coordinates": [-79.4715066, 43.6692236]}},
{"type": "Feature", "id": "4vPKXM9wRVTXt4y0A9JChpuB2g0=", "properties": {"ref": "https://stores.bestbuy.ca/en-ca/on/orleans/2020-mer-bleue-rd-unit-c2", "@spider": "bestbuy-ca", "addr:full": "2020 Mer Bleue Rd., Unit C2", "addr:city": "Orleans", "addr:state": "ON", "addr:postcode": "K4A0G2", "addr:country": "CA", "name": "Best Buy", "phone": "(866) 237-8289", "website": "https://stores.bestbuy.ca/en-ca/on/orleans/2020-mer-bleue-rd-unit-c2", "brand": "Best Buy", "brand:wikidata": "Q533415"}, "geometry": {"type": "Point", "coordinates": [-75.50430178642273, 45.45268389782455]}},
{"type": "Feature", "id": "CqN8fEz72jYZGAnyfD7X53ZiHMM=", "properties": {"ref": "https://stores.bestbuy.ca/en-ca/on/orillia/3200-monarch-dr-unit-1", "@spider": "bestbuy-ca", "addr:full": "3200 Monarch Dr., Unit 1", "addr:city": "Orillia", "addr:state": "ON", "addr:postcode": "L3V8A2", "addr:country": "CA", "name": "Best Buy", "phone": "(866) 237-8289", "website": "https://stores.bestbuy.ca/en-ca/on/orillia/3200-monarch-dr-unit-1", "brand": "Best Buy", "brand:wikidata": "Q533415"}, "geometry": {"type": "Point", "coordinates": [-79.45410132408142, 44.60992418520045]}},
{"type": "Feature", "id": "H-t3frPNAOsNQVNcXMxxZNBi0Pc=", "properties": {"ref": "https://stores.bestbuy.ca/en-ca/on/orangeville/95-first-st", "@spider": "bestbuy-ca", "addr:full": "95 First St.", "addr:city": "Orangeville", "addr:state": "ON", "addr:postcode": "L9W2E8", "addr:country": "CA", "name": "Best Buy", "phone": "(866) 237-8289", "website": "https://stores.bestbuy.ca/en-ca/on/orangeville/95-first-st", "brand": "Best Buy", "brand:wikidata": "Q533415"}, "geometry": {"type": "Point", "coordinates": [-80.098958, 43.9299208]}},
{"type": "Feature", "id": "Y2bRZFOiOOFMGZlc9j8W6TOG568=", "properties": {"ref": "https://stores.bestbuy.ca/en-ca/on/north-york/6464-yonge-st-unit-106", "@spider": "bestbuy-ca", "addr:full": "6464 Yonge St., Unit 106", "addr:city": "North York", "addr:state": "ON", "addr:postcode": "M2M3X4", "addr:country": "CA", "name": "Best Buy Mobile", "phone": "(416) 218-8718", "website": "https://stores.bestbuy.ca/en-ca/on/north-york/6464-yonge-st-unit-106", "opening_hours": "Mo-Fr 10:00-20:00; Sa 10:00-18:00; Su 12:00-17:00", "brand": "Best Buy", "brand:wikidata": "Q533415"}, "geometry": {"type": "Point", "coordinates": [-79.4227332, 43.7960392]}},
{"type": "Feature", "id": "vAZyaWwaJcBeFIU66_s-I4V8XCw=", "properties": {"ref": "https://stores.bestbuy.ca/en-ca/on/peterborough/645-landsdowne-st-w-unit-136b", "@spider": "bestbuy-ca", "addr:full": "645 Landsdowne St. W, Unit 136B", "addr:city": "Peterborough", "addr:state": "ON", "addr:postcode": "K9J7Y5", "addr:country": "CA", "name": "Best Buy Mobile", "phone": "(705) 743-0111", "website": "https://stores.bestbuy.ca/en-ca/on/peterborough/645-landsdowne-st-w-unit-136b", "opening_hours": "Mo-Fr 10:00-20:00; Sa 09:30-18:00; Su 11:00-17:00", "brand": "Best Buy", "brand:wikidata": "Q533415"}, "geometry": {"type": "Point", "coordinates": [-78.3318803, 44.2825785]}},
{"type": "Feature", "id": "0Uv4plfzNDvzJFk2bVtBht6x72Y=", "properties": {"ref": "https://stores.bestbuy.ca/en-ca/on/ottawa/380-coventry-rd", "@spider": "bestbuy-ca", "addr:full": "380 Coventry Rd.", "addr:city": "Ottawa", "addr:state": "ON", "addr:postcode": "K1K2C6", "addr:country": "CA", "name": "Best Buy", "phone": "(866) 237-8289", "website": "https://stores.bestbuy.ca/en-ca/on/ottawa/380-coventry-rd", "brand": "Best Buy", "brand:wikidata": "Q533415"}, "geometry": {"type": "Point", "coordinates": [-75.649179, 45.4201065]}},
{"type": "Feature", "id": "YQK0Sl5UGAgWcA-ewfM1ggvzafM=", "properties": {"ref": "https://stores.bestbuy.ca/en-ca/on/ottawa/110-place-d'-orleans-dr-unit-0200", "@spider": "bestbuy-ca", "addr:full": "110 Place D' Orleans Dr., Unit 0200", "addr:city": "Ottawa", "addr:state": "ON", "addr:postcode": "K1C2L9", "addr:country": "CA", "name": "Best Buy Mobile", "phone": "(613) 834-3276", "website": "https://stores.bestbuy.ca/en-ca/on/ottawa/110-place-d'-orleans-dr-unit-0200", "opening_hours": "Mo-We 09:30-19:00; Th-Fr 09:30-20:00; Sa 09:30-19:00; Su 11:00-17:00", "brand": "Best Buy", "brand:wikidata": "Q533415"}, "geometry": {"type": "Point", "coordinates": [-75.5159051120063, 45.47795078082661]}},
{"type": "Feature", "id": "cGXzhcWIQ5gh3KWH8nKbeJnWB6k=", "properties": {"ref": "https://stores.bestbuy.ca/en-ca/on/peterborough/1101-lansdowne-st-w", "@spider": "bestbuy-ca", "addr:full": "1101 Lansdowne St. W", "addr:city": "Peterborough", "addr:state": "ON", "addr:postcode": "K9J7M2", "addr:country": "CA", "name": "Best Buy", "phone": "(866) 237-8289", "website": "https://stores.bestbuy.ca/en-ca/on/peterborough/1101-lansdowne-st-w", "brand": "Best Buy", "brand:wikidata": "Q533415"}, "geometry": {"type": "Point", "coordinates": [-78.3474475, 44.2807138]}},
{"type": "Feature", "id": "-t_asQbhP8ul6_8PO7dNp2_duPM=", "properties": {"ref": "https://stores.bestbuy.ca/en-ca/on/north-bay/1500-fisher-st", "@spider": "bestbuy-ca", "addr:full": "1500 Fisher St.", "addr:city": "North Bay", "addr:state": "ON", "addr:postcode": "P1B2H3", "addr:country": "CA", "name": "Best Buy", "phone": "(866) 237-8289", "website": "https://stores.bestbuy.ca/en-ca/on/north-bay/1500-fisher-st", "brand": "Best Buy", "brand:wikidata": "Q533415"}, "geometry": {"type": "Point", "coordinates": [-79.44082590941434, 46.313033384834576]}},
{"type": "Feature", "id": "M7qfMz16K_wBPknUrq-YiBvFJYU=", "properties": {"ref": "https://stores.bestbuy.ca/en-ca/on/milton/1195-maple-ave", "@spider": "bestbuy-ca", "addr:full": "1195 Maple Ave.", "addr:city": "Milton", "addr:state": "ON", "addr:postcode": "L9T0A5", "addr:country": "CA", "name": "Best Buy", "phone": "(866) 237-8289", "website": "https://stores.bestbuy.ca/en-ca/on/milton/1195-maple-ave", "brand": "Best Buy", "brand:wikidata": "Q533415"}, "geometry": {"type": "Point", "coordinates": [-79.86846171319485, 43.538776571154045]}},
{"type": "Feature", "id": "1glXX1BWQHS5cHo274DtMx8j4so=", "properties": {"ref": "https://stores.bestbuy.ca/en-ca/on/markham/5000-hwy-7-e-unit-2070l", "@spider": "bestbuy-ca", "addr:full": "5000 Hwy 7 E, Unit 2070L", "addr:city": "Markham", "addr:state": "ON", "addr:postcode": "L3R4M9", "addr:country": "CA", "name": "Best Buy", "phone": "(866) 237-8289", "website": "https://stores.bestbuy.ca/en-ca/on/markham/5000-hwy-7-e-unit-2070l", "brand": "Best Buy", "brand:wikidata": "Q533415"}, "geometry": {"type": "Point", "coordinates": [-79.2889952, 43.8690265]}},
{"type": "Feature", "id": "NBIL4XJz3y3yN9QFaivPFRoO1kQ=", "properties": {"ref": "https://stores.bestbuy.ca/en-ca/on/kitchener/215-fairway-rd-s", "@spider": "bestbuy-ca", "addr:full": "215 Fairway Rd. S", "addr:city": "Kitchener", "addr:state": "ON", "addr:postcode": "N2C1X2", "addr:country": "CA", "name": "Best Buy", "phone": "(866) 237-8289", "website": "https://stores.bestbuy.ca/en-ca/on/kitchener/215-fairway-rd-s", "brand": "Best Buy", "brand:wikidata": "Q533415"}, "geometry": {"type": "Point", "coordinates": [-80.43720133602625, 43.42126890731416]}},
{"type": "Feature", "id": "9_bEhTak3F8RH1mPcbGUZOzreUI=", "properties": {"ref": "https://stores.bestbuy.ca/en-ca/on/kanata/745-kanata-ave", "@spider": "bestbuy-ca", "addr:full": "745 Kanata Ave.", "addr:city": "Kanata", "addr:state": "ON", "addr:postcode": "K2T1H9", "addr:country": "CA", "name": "Best Buy", "phone": "(866) 237-8289", "website": "https://stores.bestbuy.ca/en-ca/on/kanata/745-kanata-ave", "brand": "Best Buy", "brand:wikidata": "Q533415"}, "geometry": {"type": "Point", "coordinates": [-75.909708, 45.3109732]}},
{"type": "Feature", "id": "nud7pu_oPoMgpib7r4xcDbw58WY=", "properties": {"ref": "https://stores.bestbuy.ca/en-ca/on/guelph/151-stone-rd-west", "@spider": "bestbuy-ca", "addr:full": "151 Stone Rd. West", "addr:city": "Guelph", "addr:state": "ON", "addr:postcode": "N1G5L4", "addr:country": "CA", "name": "Best Buy", "phone": "(866) 237-8289", "website": "https://stores.bestbuy.ca/en-ca/on/guelph/151-stone-rd-west", "brand": "Best Buy", "brand:wikidata": "Q533415"}, "geometry": {"type": "Point", "coordinates": [-80.2321350574494, 43.52423492623127]}},
{"type": "Feature", "id": "mHceja6p2sSkmp6IkV8vo6oCvCs=", "properties": {"ref": "https://stores.bestbuy.ca/en-ca/on/oakville/2500-winston-park-dr-unit-a", "@spider": "bestbuy-ca", "addr:full": "2500 Winston Park Dr., Unit A", "addr:city": "Oakville", "addr:state": "ON", "addr:postcode": "L6H7E5", "addr:country": "CA", "name": "Best Buy", "phone": "(866) 237-8289", "website": "https://stores.bestbuy.ca/en-ca/on/oakville/2500-winston-park-dr-unit-a", "brand": "Best Buy", "brand:wikidata": "Q533415"}, "geometry": {"type": "Point", "coordinates": [-79.6859411, 43.5162656]}},
{"type": "Feature", "id": "U5HSEfA6Ao3Ppwbe6w8-j13Lq8E=", "properties": {"ref": "https://stores.bestbuy.ca/en-ca/on/oakville/240-leighland-ave-unit-210a", "@spider": "bestbuy-ca", "addr:full": "240 Leighland Ave., Unit 210A", "addr:city": "Oakville", "addr:state": "ON", "addr:postcode": "L6H3H6", "addr:country": "CA", "name": "Best Buy Mobile", "phone": "(289) 291-1411", "website": "https://stores.bestbuy.ca/en-ca/on/oakville/240-leighland-ave-unit-210a", "opening_hours": "Mo-Fr 10:00-21:00; Sa 09:30-18:00; Su 11:00-17:00", "brand": "Best Buy", "brand:wikidata": "Q533415"}, "geometry": {"type": "Point", "coordinates": [-79.6868686, 43.461607]}},
{"type": "Feature", "id": "RiC_nCwYyBGIgESiUFx-NXgaZoQ=", "properties": {"ref": "https://stores.bestbuy.ca/en-ca/on/east-gwillimbury/175-green-lane-e", "@spider": "bestbuy-ca", "addr:full": "175 Green Lane E", "addr:city": "East Gwillimbury", "addr:state": "ON", "addr:postcode": "L9N0C9", "addr:country": "CA", "name": "Best Buy", "phone": "(866) 237-8289", "website": "https://stores.bestbuy.ca/en-ca/on/east-gwillimbury/175-green-lane-e", "brand": "Best Buy", "brand:wikidata": "Q533415"}, "geometry": {"type": "Point", "coordinates": [-79.48292970657349, 44.072808323486015]}},
{"type": "Feature", "id": "MH9XUEzu9GK-sg4LjVCC9mT_16Y=", "properties": {"ref": "https://stores.bestbuy.ca/en-ca/on/cornwall/501-tollgate-rd-w-unit-6", "@spider": "bestbuy-ca", "addr:full": "501 Tollgate Rd. W, Unit 6", "addr:city": "Cornwall", "addr:state": "ON", "addr:postcode": "K6H0B4", "addr:country": "CA", "name": "Best Buy", "phone": "(866) 237-8289", "website": "https://stores.bestbuy.ca/en-ca/on/cornwall/501-tollgate-rd-w-unit-6", "brand": "Best Buy", "brand:wikidata": "Q533415"}, "geometry": {"type": "Point", "coordinates": [-74.761532, 45.041061]}},
{"type": "Feature", "id": "xEL8Dev9AWd08Nse17Y_ssoxhfM=", "properties": {"ref": "https://stores.bestbuy.ca/en-ca/on/chatham/802-st-claire-st", "@spider": "bestbuy-ca", "addr:full": "802 St. Claire St.", "addr:city": "Chatham", "addr:state": "ON", "addr:postcode": "N7L0E8", "addr:country": "CA", "name": "Best Buy", "phone": "(866) 237-8289", "website": "https://stores.bestbuy.ca/en-ca/on/chatham/802-st-claire-st", "brand": "Best Buy", "brand:wikidata": "Q533415"}, "geometry": {"type": "Point", "coordinates": [-82.2233319, 42.4308849]}},
{"type": "Feature", "id": "SLCvaw-vQTUefDOYDr2mfH6IMHo=", "properties": {"ref": "https://stores.bestbuy.ca/en-ca/on/cambridge/28-pinebush-rd", "@spider": "bestbuy-ca", "addr:full": "28 Pinebush Rd.", "addr:city": "Cambridge", "addr:state": "ON", "addr:postcode": "N1R8K5", "addr:country": "CA", "name": "Best Buy", "phone": "(866) 237-8289", "website": "https://stores.bestbuy.ca/en-ca/on/cambridge/28-pinebush-rd", "brand": "Best Buy", "brand:wikidata": "Q533415"}, "geometry": {"type": "Point", "coordinates": [-80.32529354095459, 43.412498715996264]}},
{"type": "Feature", "id": "dSdbj_IB95rrHF4TodBg7IXTwBY=", "properties": {"ref": "https://stores.bestbuy.ca/en-ca/on/nepean/3777-strandherd-dr", "@spider": "bestbuy-ca", "addr:full": "3777 Strandherd Dr.", "addr:city": "Nepean", "addr:state": "ON", "addr:postcode": "K2J4B1", "addr:country": "CA", "name": "Best Buy", "phone": "(866) 237-8289", "website": "https://stores.bestbuy.ca/en-ca/on/nepean/3777-strandherd-dr", "brand": "Best Buy", "brand:wikidata": "Q533415"}, "geometry": {"type": "Point", "coordinates": [-75.7496227, 45.2675772]}},
{"type": "Feature", "id": "L5BFyX9W9dnTe2458EPzBqvylkA=", "properties": {"ref": "https://stores.bestbuy.ca/en-ca/on/mississauga/6075-mavis-rd-unit-1", "@spider": "bestbuy-ca", "addr:full": "6075 Mavis Rd., Unit 1", "addr:city": "Mississauga", "addr:state": "ON", "addr:postcode": "L5R4G6", "addr:country": "CA", "name": "Best Buy", "phone": "(866) 237-8289", "website": "https://stores.bestbuy.ca/en-ca/on/mississauga/6075-mavis-rd-unit-1", "brand": "Best Buy", "brand:wikidata": "Q533415"}, "geometry": {"type": "Point", "coordinates": [-79.69702347183556, 43.61469071288022]}},
{"type": "Feature", "id": "0UwSUbAr4nEhW6xs9ES-k8HoIcI=", "properties": {"ref": "https://stores.bestbuy.ca/en-ca/on/mississauga/2975-argentia-rd", "@spider": "bestbuy-ca", "addr:full": "2975 Argentia Rd.", "addr:city": "Mississauga", "addr:state": "ON", "addr:postcode": "L5N0A2", "addr:country": "CA", "name": "Best Buy", "phone": "(866) 237-8289", "website": "https://stores.bestbuy.ca/en-ca/on/mississauga/2975-argentia-rd", "brand": "Best Buy", "brand:wikidata": "Q533415"}, "geometry": {"type": "Point", "coordinates": [-79.78507134322172, 43.599532968759064]}},
{"type": "Feature", "id": "bG7r3aywn9a9SnAIH5q9uqGoamc=", "properties": {"ref": "https://stores.bestbuy.ca/en-ca/on/mississauga/100-city-centre-dr-unit-1-839", "@spider": "bestbuy-ca", "addr:full": "100 City Centre Dr., Unit 1-839", "addr:city": "Mississauga", "addr:state": "ON", "addr:postcode": "L5B2C9", "addr:country": "CA", "name": "Best Buy Mobile", "phone": "(905) 361-1016", "website": "https://stores.bestbuy.ca/en-ca/on/mississauga/100-city-centre-dr-unit-1-839", "opening_hours": "Mo-Sa 10:00-21:00; Su 11:00-19:00", "brand": "Best Buy", "brand:wikidata": "Q533415"}, "geometry": {"type": "Point", "coordinates": [-79.641647, 43.5932995]}},
{"type": "Feature", "id": "l9eMeRi4tbk4FT8NeuVQAQ4hbmI=", "properties": {"ref": "https://stores.bestbuy.ca/en-ca/on/london/1735-richmond-st-unit-1", "@spider": "bestbuy-ca", "addr:full": "1735 Richmond St., Unit 1", "addr:city": "London", "addr:state": "ON", "addr:postcode": "N5X3Y2", "addr:country": "CA", "name": "Best Buy", "phone": "(866) 237-8289", "website": "https://stores.bestbuy.ca/en-ca/on/london/1735-richmond-st-unit-1", "brand": "Best Buy", "brand:wikidata": "Q533415"}, "geometry": {"type": "Point", "coordinates": [-81.28503620624542, 43.02848643503646]}},
{"type": "Feature", "id": "e1It92J8gCVR5iIS63wmWksJ2bM=", "properties": {"ref": "https://stores.bestbuy.ca/en-ca/on/london/1680-richmond-st-n-unit-l027a", "@spider": "bestbuy-ca", "addr:full": "1680 Richmond St. N, Unit L027A", "addr:city": "London", "addr:state": "ON", "addr:postcode": "N6G3Y9", "addr:country": "CA", "name": "Best Buy Mobile", "phone": "(519) 679-4575", "website": "https://stores.bestbuy.ca/en-ca/on/london/1680-richmond-st-n-unit-l027a", "opening_hours": "Mo-Fr 10:00-21:00; Sa 10:00-20:00; Su 10:00-17:00", "brand": "Best Buy", "brand:wikidata": "Q533415"}, "geometry": {"type": "Point", "coordinates": [-81.2782261, 43.0261505]}},
{"type": "Feature", "id": "JCRLp1pQI0JCDYH-2Rx36nwa0BA=", "properties": {"ref": "https://stores.bestbuy.ca/en-ca/on/kingston/945-gardiners-rd-unit-l30a", "@spider": "bestbuy-ca", "addr:full": "945 Gardiners Rd., Unit L30A", "addr:city": "Kingston", "addr:state": "ON", "addr:postcode": "K7M7H4", "addr:country": "CA", "name": "Best Buy Mobile", "phone": "(613) 389-9616", "website": "https://stores.bestbuy.ca/en-ca/on/kingston/945-gardiners-rd-unit-l30a", "opening_hours": "Mo-Fr 10:00-19:00; Sa 10:00-18:00; Su 11:00-17:00", "brand": "Best Buy", "brand:wikidata": "Q533415"}, "geometry": {"type": "Point", "coordinates": [-76.572171, 44.2563363]}},
{"type": "Feature", "id": "0CTb1ax7HRcKH4V5S22HyXUWQmU=", "properties": {"ref": "https://stores.bestbuy.ca/en-ca/on/kingston/770-gardiners-rd", "@spider": "bestbuy-ca", "addr:full": "770 Gardiners Rd.", "addr:city": "Kingston", "addr:state": "ON", "addr:postcode": "K7M3X9", "addr:country": "CA", "name": "Best Buy", "phone": "(866) 237-8289", "website": "https://stores.bestbuy.ca/en-ca/on/kingston/770-gardiners-rd", "brand": "Best Buy", "brand:wikidata": "Q533415"}, "geometry": {"type": "Point", "coordinates": [-76.566384, 44.248561]}},
{"type": "Feature", "id": "PaS1gggvXXz2ST7FqbTen01WASk=", "properties": {"ref": "https://stores.bestbuy.ca/en-ca/on/hamilton/999-upper-wentworth-st-unit-0450", "@spider": "bestbuy-ca", "addr:full": "999 Upper Wentworth St., Unit 0450", "addr:city": "Hamilton", "addr:state": "ON", "addr:postcode": "L9A4X5", "addr:country": "CA", "name": "Best Buy Mobile", "phone": "(905) 385-0272", "website": "https://stores.bestbuy.ca/en-ca/on/hamilton/999-upper-wentworth-st-unit-0450", "opening_hours": "Mo-Fr 10:00-21:00; Sa 09:30-18:00; Su 11:00-18:00", "brand": "Best Buy", "brand:wikidata": "Q533415"}, "geometry": {"type": "Point", "coordinates": [-79.8609434, 43.2172164]}},
{"type": "Feature", "id": "XijUAikLA9cbwuyKrqKRJo5FAgQ=", "properties": {"ref": "https://stores.bestbuy.ca/en-ca/on/hamilton/1779-stone-church-rd-e", "@spider": "bestbuy-ca", "addr:full": "1779 Stone Church Rd. E", "addr:city": "Hamilton", "addr:state": "ON", "addr:postcode": "L8J0B4", "addr:country": "CA", "name": "Best Buy", "phone": "(866) 237-8289", "website": "https://stores.bestbuy.ca/en-ca/on/hamilton/1779-stone-church-rd-e", "brand": "Best Buy", "brand:wikidata": "Q533415"}, "geometry": {"type": "Point", "coordinates": [-79.81204479932785, 43.19447667947406]}},
{"type": "Feature", "id": "0RFDdrMnVpEGbDETYg8fgKQ-Ypo=", "properties": {"ref": "https://stores.bestbuy.ca/en-ca/on/london/1080-wellington-rd", "@spider": "bestbuy-ca", "addr:full": "1080 Wellington Rd.", "addr:city": "London", "addr:state": "ON", "addr:postcode": "N6E1M2", "addr:country": "CA", "name": "Best Buy", "phone": "(866) 237-8289", "website": "https://stores.bestbuy.ca/en-ca/on/london/1080-wellington-rd", "brand": "Best Buy", "brand:wikidata": "Q533415"}, "geometry": {"type": "Point", "coordinates": [-81.2211191, 42.9331514]}},
{"type": "Feature", "id": "XKHEiwxV_FaqnTp1g9nO7rrHcmM=", "properties": {"ref": "https://stores.bestbuy.ca/en-ca/on/nepean/1701-merivale-rd", "@spider": "bestbuy-ca", "addr:full": "1701 Merivale Rd.", "addr:city": "Nepean", "addr:state": "ON", "addr:postcode": "K2G3K2", "addr:country": "CA", "name": "Best Buy", "phone": "(866) 237-8289", "website": "https://stores.bestbuy.ca/en-ca/on/nepean/1701-merivale-rd", "brand": "Best Buy", "brand:wikidata": "Q533415"}, "geometry": {"type": "Point", "coordinates": [-75.7287703, 45.3461347]}},
{"type": "Feature", "id": "RTdZzRPGQCacQMqfEUCOeeodux0=", "properties": {"ref": "https://stores.bestbuy.ca/en-ca/on/etobicoke/500-rexdale-blvd-unit-f006", "@spider": "bestbuy-ca", "addr:full": "500 Rexdale Blvd., Unit F006", "addr:city": "Etobicoke", "addr:state": "ON", "addr:postcode": "M9W6K5", "addr:country": "CA", "name": "Best Buy Mobile", "phone": "(416) 640-1953", "website": "https://stores.bestbuy.ca/en-ca/on/etobicoke/500-rexdale-blvd-unit-f006", "opening_hours": "Mo-Sa 10:00-20:00; Su 11:00-18:00", "brand": "Best Buy", "brand:wikidata": "Q533415"}, "geometry": {"type": "Point", "coordinates": [-79.600224, 43.7203596]}},
{"type": "Feature", "id": "74gRjSZJ7blY5vD6jkGniEcBDbc=", "properties": {"ref": "https://stores.bestbuy.ca/en-ca/on/etobicoke/167-north-queen-st", "@spider": "bestbuy-ca", "addr:full": "167 North Queen St.", "addr:city": "Etobicoke", "addr:state": "ON", "addr:postcode": "M9C1A7", "addr:country": "CA", "name": "Best Buy", "phone": "(866) 237-8289", "website": "https://stores.bestbuy.ca/en-ca/on/etobicoke/167-north-queen-st", "brand": "Best Buy", "brand:wikidata": "Q533415"}, "geometry": {"type": "Point", "coordinates": [-79.55372393131256, 43.61716862821808]}},
{"type": "Feature", "id": "bwUj-_gsotCK1ie84-hcV_mXAzs=", "properties": {"ref": "https://stores.bestbuy.ca/en-ca/on/burlington/1200-brant-st-unit-1", "@spider": "bestbuy-ca", "addr:full": "1200 Brant St., Unit 1", "addr:city": "Burlington", "addr:state": "ON", "addr:postcode": "L7P5C6", "addr:country": "CA", "name": "Best Buy", "phone": "(866) 237-8289", "website": "https://stores.bestbuy.ca/en-ca/on/burlington/1200-brant-st-unit-1", "brand": "Best Buy", "brand:wikidata": "Q533415"}, "geometry": {"type": "Point", "coordinates": [-79.8254047, 43.3422194]}},
{"type": "Feature", "id": "i5LJ7UfsV6OJNHdUsZw9V6qFh_w=", "properties": {"ref": "https://stores.bestbuy.ca/en-ca/on/brantford/61-lynden-rd-unit-a", "@spider": "bestbuy-ca", "addr:full": "61 Lynden Rd., Unit A", "addr:city": "Brantford", "addr:state": "ON", "addr:postcode": "N3R7J9", "addr:country": "CA", "name": "Best Buy", "phone": "(866) 237-8289", "website": "https://stores.bestbuy.ca/en-ca/on/brantford/61-lynden-rd-unit-a", "brand": "Best Buy", "brand:wikidata": "Q533415"}, "geometry": {"type": "Point", "coordinates": [-80.2431212, 43.1744439]}},
{"type": "Feature", "id": "JqUUjBo6fkQZYBERo-lUSuEBiB4=", "properties": {"ref": "https://stores.bestbuy.ca/en-ca/on/aurora/52-first-commerce-dr-unit-2", "@spider": "bestbuy-ca", "addr:full": "52 First Commerce Dr., Unit 2", "addr:city": "Aurora", "addr:state": "ON", "addr:postcode": "L4G0H5", "addr:country": "CA", "name": "Best Buy", "phone": "(866) 237-8289", "website": "https://stores.bestbuy.ca/en-ca/on/aurora/52-first-commerce-dr-unit-2", "brand": "Best Buy", "brand:wikidata": "Q533415"}, "geometry": {"type": "Point", "coordinates": [-79.41785931587219, 44.01245512046661]}},
{"type": "Feature", "id": "Utvu_DZtg13sM-CN8U9XWkH9inM=", "properties": {"ref": "https://stores.bestbuy.ca/en-ca/on/ancaster/14-martindale-cres-unit-1", "@spider": "bestbuy-ca", "addr:full": "14 Martindale Cres., Unit 1", "addr:city": "Ancaster", "addr:state": "ON", "addr:postcode": "L9K1J9", "addr:country": "CA", "name": "Best Buy", "phone": "(866) 237-8289", "website": "https://stores.bestbuy.ca/en-ca/on/ancaster/14-martindale-cres-unit-1", "brand": "Best Buy", "brand:wikidata": "Q533415"}, "geometry": {"type": "Point", "coordinates": [-79.9404233, 43.2299867]}},
{"type": "Feature", "id": "Ig2gKIRSFpHZ17iaOvARJfsImS4=", "properties": {"ref": "https://stores.bestbuy.ca/en-ca/on/ajax/20-kingston-rd-w", "@spider": "bestbuy-ca", "addr:full": "20 Kingston Rd. W", "addr:city": "Ajax", "addr:state": "ON", "addr:postcode": "L1T4K8", "addr:country": "CA", "name": "Best Buy", "phone": "(866) 237-8289", "website": "https://stores.bestbuy.ca/en-ca/on/ajax/20-kingston-rd-w", "brand": "Best Buy", "brand:wikidata": "Q533415"}, "geometry": {"type": "Point", "coordinates": [-79.0284937620163, 43.86173537091146]}},
{"type": "Feature", "id": "HM0QW6ZHagbiJSZ9aoDicFcB4ms=", "properties": {"ref": "https://stores.bestbuy.ca/en-ca/qc/pointe-claire/6815-autoroute-transcanadienne", "@spider": "bestbuy-ca", "addr:full": "6815 Autoroute Transcanadienne Local #Y009", "addr:city": "Pointe-Claire", "addr:state": "QC", "addr:postcode": "H9R1C4", "addr:country": "CA", "name": "Best Buy", "phone": "(866) 237-8289", "website": "https://stores.bestbuy.ca/en-ca/qc/pointe-claire/6815-autoroute-transcanadienne", "brand": "Best Buy", "brand:wikidata": "Q533415"}, "geometry": {"type": "Point", "coordinates": [-73.83326411247253, 45.46426185631402]}},
{"type": "Feature", "id": "sKwrIyUb9IZLzwdv40j9dbFsNUE=", "properties": {"ref": "https://stores.bestbuy.ca/en-ca/qc/mascouche/113-monte-masson-bldg-c-unit-2", "@spider": "bestbuy-ca", "addr:full": "113 Monte Masson, Bldg. C Unit 2", "addr:city": "Mascouche", "addr:state": "QC", "addr:postcode": "J7K3B4", "addr:country": "CA", "name": "Best Buy", "phone": "(866) 237-8289", "website": "https://stores.bestbuy.ca/en-ca/qc/mascouche/113-monte-masson-bldg-c-unit-2", "brand": "Best Buy", "brand:wikidata": "Q533415"}, "geometry": {"type": "Point", "coordinates": [-73.6176912, 45.7223004]}},
{"type": "Feature", "id": "IMg0f-hR82FEQsmMg0t9dzEz2DA=", "properties": {"ref": "https://stores.bestbuy.ca/en-ca/qc/laval/1560-boul-le-corbusier", "@spider": "bestbuy-ca", "addr:full": "1560 Boul. Le Corbusier", "addr:city": "Laval", "addr:state": "QC", "addr:postcode": "H7S1Y8", "addr:country": "CA", "name": "Best Buy", "phone": "(866) 237-8289", "website": "https://stores.bestbuy.ca/en-ca/qc/laval/1560-boul-le-corbusier", "brand": "Best Buy", "brand:wikidata": "Q533415"}, "geometry": {"type": "Point", "coordinates": [-73.73248144984245, 45.56136914308319]}},
{"type": "Feature", "id": "7ZgjhWsMPNMAAqABA10TxfAQVyo=", "properties": {"ref": "https://stores.bestbuy.ca/en-ca/qc/lasalle/7077-boul-newman", "@spider": "bestbuy-ca", "addr:full": "7077 Boul. Newman", "addr:city": "LaSalle", "addr:state": "QC", "addr:postcode": "H8N1X1", "addr:country": "CA", "name": "Best Buy", "phone": "(866) 237-8289", "website": "https://stores.bestbuy.ca/en-ca/qc/lasalle/7077-boul-newman", "brand": "Best Buy", "brand:wikidata": "Q533415"}, "geometry": {"type": "Point", "coordinates": [-73.6164362, 45.4489522]}},
{"type": "Feature", "id": "77q8Z_Zb_0EJn4LGAr7r0ie82Iw=", "properties": {"ref": "https://stores.bestbuy.ca/en-ca/qc/granby/90-rue-simonds-n", "@spider": "bestbuy-ca", "addr:full": "90 Rue Simonds N", "addr:city": "Granby", "addr:state": "QC", "addr:postcode": "J2J2L1", "addr:country": "CA", "name": "Best Buy", "phone": "(866) 237-8289", "website": "https://stores.bestbuy.ca/en-ca/qc/granby/90-rue-simonds-n", "brand": "Best Buy", "brand:wikidata": "Q533415"}, "geometry": {"type": "Point", "coordinates": [-72.7551180571208, 45.41827226260767]}},
{"type": "Feature", "id": "XVapNCf-1OA6ToOkfZOkmIfBYVU=", "properties": {"ref": "https://stores.bestbuy.ca/en-ca/qc/gatineau/920-maloney-blvd-w", "@spider": "bestbuy-ca", "addr:full": "920 Maloney Blvd. W", "addr:city": "Gatineau", "addr:state": "QC", "addr:postcode": "J8T3R6", "addr:country": "CA", "name": "Best Buy", "phone": "(866) 237-8289", "website": "https://stores.bestbuy.ca/en-ca/qc/gatineau/920-maloney-blvd-w", "brand": "Best Buy", "brand:wikidata": "Q533415"}, "geometry": {"type": "Point", "coordinates": [-75.6918171, 45.4777212]}},
{"type": "Feature", "id": "E2MQThY6WtDVekMG8ztlZZrHmSE=", "properties": {"ref": "https://stores.bestbuy.ca/en-ca/qc/drummondville/850-rue-hains", "@spider": "bestbuy-ca", "addr:full": "850 Rue Hains", "addr:city": "Drummondville", "addr:state": "QC", "addr:postcode": "J2C5N9", "addr:country": "CA", "name": "Best Buy", "phone": "(866) 237-8289", "website": "https://stores.bestbuy.ca/en-ca/qc/drummondville/850-rue-hains", "brand": "Best Buy", "brand:wikidata": "Q533415"}, "geometry": {"type": "Point", "coordinates": [-72.52011895179749, 45.90007367615071]}},
{"type": "Feature", "id": "9mjPEgo-SSE5HdVXdp3iLFmcf_Y=", "properties": {"ref": "https://stores.bestbuy.ca/en-ca/qc/chicoutimi/1401-boul-talbot", "@spider": "bestbuy-ca", "addr:full": "1401 Boul. Talbot", "addr:city": "Chicoutimi", "addr:state": "QC", "addr:postcode": "G7H4C1", "addr:country": "CA", "name": "Best Buy", "phone": "(866) 237-8289", "website": "https://stores.bestbuy.ca/en-ca/qc/chicoutimi/1401-boul-talbot", "brand": "Best Buy", "brand:wikidata": "Q533415"}, "geometry": {"type": "Point", "coordinates": [-71.0557683, 48.4048088]}},
{"type": "Feature", "id": "3vIrIEpGal3yhfzsgva4a3t6514=", "properties": {"ref": "https://stores.bestbuy.ca/en-ca/qc/brossard/8480-boul-leduc-unit-100", "@spider": "bestbuy-ca", "addr:full": "8480 Boul. Leduc, Unit 100", "addr:city": "Brossard", "addr:state": "QC", "addr:postcode": "J4Y0K7", "addr:country": "CA", "name": "Best Buy", "phone": "(866) 237-8289", "website": "https://stores.bestbuy.ca/en-ca/qc/brossard/8480-boul-leduc-unit-100", "brand": "Best Buy", "brand:wikidata": "Q533415"}, "geometry": {"type": "Point", "coordinates": [-73.442766, 45.4522631]}},
{"type": "Feature", "id": "o-LSoawHgie-KcaN0smxDPE8WEs=", "properties": {"ref": "https://stores.bestbuy.ca/en-ca/on/brampton/9250-airport-road", "@spider": "bestbuy-ca", "addr:full": "9250 Airport Road", "addr:city": "Brampton", "addr:state": "ON", "addr:postcode": "L6S 6K5", "addr:country": "CA", "name": "Best Buy Distribution Centre", "phone": "(866) 237-8289", "website": "https://stores.bestbuy.ca/en-ca/on/brampton/9250-airport-road", "opening_hours": "Mo-Fr 13:00-15:05; Su 09:00-17:00", "brand": "Best Buy", "brand:wikidata": "Q533415"}, "geometry": {"type": "Point", "coordinates": [-79.7046583, 43.7487813]}},
{"type": "Feature", "id": "AOqQ0cIGdNYuy6nYjkHn1bnxeXo=", "properties": {"ref": "https://stores.bestbuy.ca/en-ca/on/belleville/390-north-front-st-unit-p6", "@spider": "bestbuy-ca", "addr:full": "390 North Front St., Unit P6", "addr:city": "Belleville", "addr:state": "ON", "addr:postcode": "K8P3E1", "addr:country": "CA", "name": "Best Buy Mobile", "phone": "(613) 968-5875", "website": "https://stores.bestbuy.ca/en-ca/on/belleville/390-north-front-st-unit-p6", "opening_hours": "Mo-Fr 10:00-20:00; Sa 09:30-18:00; Su 11:00-17:00", "brand": "Best Buy", "brand:wikidata": "Q533415"}, "geometry": {"type": "Point", "coordinates": [-77.4019457, 44.1890107]}},
{"type": "Feature", "id": "b9MfI2rYN6gonw9YnUCcJtddm34=", "properties": {"ref": "https://stores.bestbuy.ca/en-ca/on/barrie/80-concert-way-unit-2", "@spider": "bestbuy-ca", "addr:full": "80 Concert Way, Unit 2", "addr:city": "Barrie", "addr:state": "ON", "addr:postcode": "L4N6N5", "addr:country": "CA", "name": "Best Buy", "phone": "(866) 237-8289", "website": "https://stores.bestbuy.ca/en-ca/on/barrie/80-concert-way-unit-2", "brand": "Best Buy", "brand:wikidata": "Q533415"}, "geometry": {"type": "Point", "coordinates": [-79.68413009318283, 44.3384851175647]}},
{"type": "Feature", "id": "JtYgXoxdL-TChy5LDw6w2Slk0cg=", "properties": {"ref": "https://stores.bestbuy.ca/en-ca/on/barrie/509-bayfield-st-unit-b005", "@spider": "bestbuy-ca", "addr:full": "509 Bayfield St., Unit B005", "addr:city": "Barrie", "addr:state": "ON", "addr:postcode": "L4M4Z8", "addr:country": "CA", "name": "Best Buy Mobile", "phone": "(705) 725-9780", "website": "https://stores.bestbuy.ca/en-ca/on/barrie/509-bayfield-st-unit-b005", "opening_hours": "Mo-Fr 09:30-21:00; Sa 09:30-18:00; Su 11:00-17:00", "brand": "Best Buy", "brand:wikidata": "Q533415"}, "geometry": {"type": "Point", "coordinates": [-79.7088081, 44.4140838]}},
{"type": "Feature", "id": "PYzP4LjFYCipx1MuIT4RCjcfpbA=", "properties": {"ref": "https://stores.bestbuy.ca/en-ca/on/belleville/202-bell-blvd", "@spider": "bestbuy-ca", "addr:full": "202 Bell Blvd.", "addr:city": "Belleville", "addr:state": "ON", "addr:postcode": "K8P5L8", "addr:country": "CA", "name": "Best Buy", "phone": "(866) 237-8289", "website": "https://stores.bestbuy.ca/en-ca/on/belleville/202-bell-blvd", "brand": "Best Buy", "brand:wikidata": "Q533415"}, "geometry": {"type": "Point", "coordinates": [-77.4077561, 44.188693]}},
{"type": "Feature", "id": "8pmuYoJAmR4Ne5k6luDIvXTwC-s=", "properties": {"ref": "https://stores.bestbuy.ca/en-ca/on/brampton/9200-airport-rd", "@spider": "bestbuy-ca", "addr:full": "9200 Airport Rd", "addr:city": "Brampton", "addr:state": "ON", "addr:postcode": "L6S 6G6", "addr:country": "CA", "name": "Best Buy Appliance Clearance Centre", "phone": "(866) 237-8289", "website": "https://stores.bestbuy.ca/en-ca/on/brampton/9200-airport-rd", "opening_hours": "Mo 11:00-19:00; Th-Su 11:00-19:00", "brand": "Best Buy", "brand:wikidata": "Q533415"}, "geometry": {"type": "Point", "coordinates": [-79.70492026064016, 43.74790393675987]}},
{"type": "Feature", "id": "241Z-LjXRZzi_wozXHBlDJ3AZzY=", "properties": {"ref": "https://stores.bestbuy.ca/en-ca/qc/quebec/5401-boul-des-galeries", "@spider": "bestbuy-ca", "addr:full": "5401 Boul. Des Galeries", "addr:city": "Quebec", "addr:state": "QC", "addr:postcode": "G2K1N4", "addr:country": "CA", "name": "Best Buy", "phone": "(866) 237-8289", "website": "https://stores.bestbuy.ca/en-ca/qc/quebec/5401-boul-des-galeries", "brand": "Best Buy", "brand:wikidata": "Q533415"}, "geometry": {"type": "Point", "coordinates": [-71.3004166781684, 46.82954910637086]}},
{"type": "Feature", "id": "24piXRGcW3Qaz-vGEmIVabvh0J4=", "properties": {"ref": "https://stores.bestbuy.ca/en-ca/qc/quebec/2700-boul-laurier-unit-2290", "@spider": "bestbuy-ca", "addr:full": "2700 Boul. Laurier, Unit 2290", "addr:city": "Quebec", "addr:state": "QC", "addr:postcode": "G1V2L8", "addr:country": "CA", "name": "Best Buy", "phone": "(866) 237-8289", "website": "https://stores.bestbuy.ca/en-ca/qc/quebec/2700-boul-laurier-unit-2290", "brand": "Best Buy", "brand:wikidata": "Q533415"}, "geometry": {"type": "Point", "coordinates": [-71.28296229247098, 46.77103272972512]}},
{"type": "Feature", "id": "LEC1JSXYBnoIHazVCJxZLAh7Qgc=", "properties": {"ref": "https://stores.bestbuy.ca/en-ca/qc/montreal/8871-boul-de-l'acadie", "@spider": "bestbuy-ca", "addr:full": "8871 Boul. De L'Acadie", "addr:city": "Montreal", "addr:state": "QC", "addr:postcode": "H4N3K1", "addr:country": "CA", "name": "Best Buy", "phone": "(866) 237-8289", "website": "https://stores.bestbuy.ca/en-ca/qc/montreal/8871-boul-de-l'acadie", "brand": "Best Buy", "brand:wikidata": "Q533415"}, "geometry": {"type": "Point", "coordinates": [-73.65081623196602, 45.53198680518]}},
{"type": "Feature", "id": "PReY61nCXfIQ0gzjhpgSEJ1DdSA=", "properties": {"ref": "https://stores.bestbuy.ca/en-ca/qc/montreal/7275-rue-sherbrooke-e-unit-121", "@spider": "bestbuy-ca", "addr:full": "7275 Rue Sherbrooke E, Unit 121", "addr:city": "Montreal", "addr:state": "QC", "addr:postcode": "H1N1E9", "addr:country": "CA", "name": "Best Buy Mobile", "phone": "(514) 798-0415", "website": "https://stores.bestbuy.ca/en-ca/qc/montreal/7275-rue-sherbrooke-e-unit-121", "opening_hours": "Mo-Tu 10:00-18:00; We-Fr 10:00-21:00; Sa 09:00-17:00; Su 10:00-17:00", "brand": "Best Buy", "brand:wikidata": "Q533415"}, "geometry": {"type": "Point", "coordinates": [-73.542277, 45.5920411]}},
{"type": "Feature", "id": "NB0Bh1e6E0Np23L9lqGhETWqYhQ=", "properties": {"ref": "https://stores.bestbuy.ca/en-ca/qc/montreal/705-rue-sainte-catherine-o-unit-2114a", "@spider": "bestbuy-ca", "addr:full": "705 Rue Sainte-Catherine O, Unit 2114A", "addr:city": "Montreal", "addr:state": "QC", "addr:postcode": "H3B4G5", "addr:country": "CA", "name": "Best Buy Mobile", "phone": "(514) 798-8997", "website": "https://stores.bestbuy.ca/en-ca/qc/montreal/705-rue-sainte-catherine-o-unit-2114a", "opening_hours": "Mo-Fr 10:00-21:00; Sa 10:00-19:00; Su 11:00-17:00", "brand": "Best Buy", "brand:wikidata": "Q533415"}, "geometry": {"type": "Point", "coordinates": [-73.57152, 45.50281]}},
{"type": "Feature", "id": "BiUrWHhcCaWZbmrUz9viTTMB6gs=", "properties": {"ref": "https://stores.bestbuy.ca/en-ca/qc/montreal/470-rue-ste-catherine-o", "@spider": "bestbuy-ca", "addr:full": "470 Rue Ste. Catherine O", "addr:city": "Montreal", "addr:state": "QC", "addr:postcode": "H3B1A6", "addr:country": "CA", "name": "Best Buy", "phone": "(866) 237-8289", "website": "https://stores.bestbuy.ca/en-ca/qc/montreal/470-rue-ste-catherine-o", "brand": "Best Buy", "brand:wikidata": "Q533415"}, "geometry": {"type": "Point", "coordinates": [-73.56788970530039, 45.50479418699404]}},
{"type": "Feature", "id": "AZO49sOD41SL11jStnML3hPiFV0=", "properties": {"ref": "https://stores.bestbuy.ca/en-ca/on/brampton/25-peel-centre-dr-unit-506", "@spider": "bestbuy-ca", "addr:full": "25 Peel Centre Dr., Unit 506", "addr:city": "Brampton", "addr:state": "ON", "addr:postcode": "L6T3R5", "addr:country": "CA", "name": "Best Buy Mobile", "phone": "(905) 595-0636", "website": "https://stores.bestbuy.ca/en-ca/on/brampton/25-peel-centre-dr-unit-506", "opening_hours": "Mo-Th 10:00-20:00; Fr-Sa 10:00-21:00; Su 11:00-19:00", "brand": "Best Buy", "brand:wikidata": "Q533415"}, "geometry": {"type": "Point", "coordinates": [-79.7217707, 43.7166483]}},
{"type": "Feature", "id": "OWeW-zNRukhBe6IdYhjyEB_4T7Q=", "properties": {"ref": "https://stores.bestbuy.ca/en-ca/on/brampton/25-peel-centre-dr-unit-451", "@spider": "bestbuy-ca", "addr:full": "25 Peel Centre Dr., Unit 451", "addr:city": "Brampton", "addr:state": "ON", "addr:postcode": "L6T3R5", "addr:country": "CA", "name": "Best Buy", "phone": "(866) 237-8289", "website": "https://stores.bestbuy.ca/en-ca/on/brampton/25-peel-centre-dr-unit-451", "brand": "Best Buy", "brand:wikidata": "Q533415"}, "geometry": {"type": "Point", "coordinates": [-79.722036, 43.7145309]}},
{"type": "Feature", "id": "bBLRklp4tiylXyvaBeIi-EhuIRQ=", "properties": {"ref": "https://stores.bestbuy.ca/en-ca/qc/anjou/7400-boul-des-roseraies", "@spider": "bestbuy-ca", "addr:full": "7400 Boul. Des Roseraies", "addr:city": "Anjou", "addr:state": "QC", "addr:postcode": "H1M3X8", "addr:country": "CA", "name": "Best Buy", "phone": "(866) 237-8289", "website": "https://stores.bestbuy.ca/en-ca/qc/anjou/7400-boul-des-roseraies", "brand": "Best Buy", "brand:wikidata": "Q533415"}, "geometry": {"type": "Point", "coordinates": [-73.5605824, 45.6013609]}}]}