{"type":"FeatureCollection","features":[{"type": "Feature", "id": "NpzzlkGK-P8r4Ba3uJxEKstkqJU=", "properties": {"ref": "9601 Baptist Health Dr.Little RockAR", "@spider": "bha", "addr:full": "9601 Baptist Health Dr.", "addr:city": "Little Rock", "addr:state": "AR", "addr:postcode": "72205", "addr:country": "US", "name": "Baptist Health Arkansas", "phone": "(501) 202-2000", "brand": "Baptist Health Foundation", "brand:wikidata": "Q50379824"}, "geometry": {"type": "Point", "coordinates": [-92.381754, 34.744256]}},
{"type": "Feature", "id": "AARR0tI85P9Ne2FlcJSuajbd_W4=", "properties": {"ref": "1001 Towson AvenueFort SmithAR", "@spider": "bha", "addr:full": "1001 Towson Avenue", "addr:city": "Fort Smith", "addr:state": "AR", "addr:postcode": "72901", "addr:country": "US", "name": "Baptist Health Arkansas", "phone": "(479) 441-4000", "brand": "Baptist Health Foundation", "brand:wikidata": "Q50379824"}, "geometry": {"type": "Point", "coordinates": [-94.419774, 35.3741136]}},
{"type": "Feature", "id": "QvBQI9gvjP696lkmCsdVLPUxPLs=", "properties": {"ref": "3333 Springhill DriveNorth Little RockAR", "@spider": "bha", "addr:full": "3333 Springhill Drive", "addr:city": "North Little Rock", "addr:state": "AR", "addr:postcode": "72117", "addr:country": "US", "name": "Baptist Health Arkansas", "phone": "(501) 202-3000", "brand": "Baptist Health Foundation", "brand:wikidata": "Q50379824"}, "geometry": {"type": "Point", "coordinates": [-92.222009, 34.783972]}},
{"type": "Feature", "id": "GdOpg9RDLwSXsIgQbDBigHPWVQY=", "properties": {"ref": "9501 Baptist Health DriveLittle RockAR", "@spider": "bha", "addr:full": "9501 Baptist Health Drive", "addr:city": "Little Rock", "addr:state": "AR", "addr:postcode": "72205", "addr:country": "US", "name": "Baptist Health Arkansas", "phone": "(501) 202-7000", "brand": "Baptist Health Foundation", "brand:wikidata": "Q50379824"}, "geometry": {"type": "Point", "coordinates": [-92.3796084, 34.7449684]}},
{"type": "Feature", "id": "iFy06SDcfRhuGHQVG7kvH77cDpU=", "properties": {"ref": "1555 Exchange Ave.ConwayAR", "@spider": "bha", "addr:full": "1555 Exchange Ave.", "addr:city": "Conway", "addr:state": "AR", "addr:postcode": "72032", "addr:country": "US", "name": "Baptist Health Arkansas", "phone": "(501) 585-2000", "brand": "Baptist Health Foundation", "brand:wikidata": "Q50379824"}, "geometry": {"type": "Point", "coordinates": [-92.417907, 35.055828]}},
{"type": "Feature", "id": "JtWXM6vKiSPKa7x8H1iS6l0P40M=", "properties": {"ref": "211 Crawford Memorial DriveVan BurenAR", "@spider": "bha", "addr:full": "211 Crawford Memorial Drive", "addr:city": "Van Buren", "addr:state": "AR", "addr:postcode": "72956", "addr:country": "US", "name": "Baptist Health Arkansas", "phone": "(479) 474-3401", "brand": "Baptist Health Foundation", "brand:wikidata": "Q50379824"}, "geometry": {"type": "Point", "coordinates": [-94.3388762, 35.4354401]}},
{"type": "Feature", "id": "2-W5Shu4ZugThinuPSwM_pl0xBc=", "properties": {"ref": "1001 Schneider DriveMalvernAR", "@spider": "bha", "addr:full": "1001 Schneider Drive", "addr:city": "Malvern", "addr:state": "AR", "addr:postcode": "72104", "addr:country": "US", "name": "Baptist Health Arkansas", "phone": "(501) 332-1000", "brand": "Baptist Health Foundation", "brand:wikidata": "Q50379824"}, "geometry": {"type": "Point", "coordinates": [-92.785325, 34.359148]}},
{"type": "Feature", "id": "DwBRhT9YOZ7LRYuliyFn3Ee6JJc=", "properties": {"ref": "1703 North BuerkleStuttgartAR", "@spider": "bha", "addr:full": "1703 North Buerkle", "addr:city": "Stuttgart", "addr:state": "AR", "addr:postcode": "72160", "addr:country": "US", "name": "Baptist Health Arkansas", "phone": "(870) 673-3511", "brand": "Baptist Health Foundation", "brand:wikidata": "Q50379824"}, "geometry": {"type": "Point", "coordinates": [-91.558651, 34.516683]}},
{"type": "Feature", "id": "35yWoIFvrPZoX_VwoSplpXYzSPo=", "properties": {"ref": "3050 Twin Rivers DriveArkadelphiaAR", "@spider": "bha", "addr:full": "3050 Twin Rivers Drive", "addr:city": "Arkadelphia", "addr:state": "AR", "addr:postcode": "71923", "addr:country": "US", "name": "Baptist Health Arkansas", "phone": "(870) 245-2622", "brand": "Baptist Health Foundation", "brand:wikidata": "Q50379824"}, "geometry": {"type": "Point", "coordinates": [-93.088863, 34.122728]}},
{"type": "Feature", "id": "ca0AOJx3EaCuqp1aQyVNFjLp7YU=", "properties": {"ref": "1800 Bypass RoadHeber SpringsAR", "@spider": "bha", "addr:full": "1800 Bypass Road", "addr:city": "Heber Springs", "addr:state": "AR", "addr:postcode": "72543", "addr:country": "US", "name": "Baptist Health Arkansas", "phone": "(501) 887-3000", "brand": "Baptist Health Foundation", "brand:wikidata": "Q50379824"}, "geometry": {"type": "Point", "coordinates": [-91.998005, 35.504465]}},
{"type": "Feature", "id": "0o9Er0ThgSC2F7r_Re0VTA77R80=", "properties": {"ref": "9501 Baptist Health Dr.Little RockAR", "@spider": "bha", "addr:full": "9501 Baptist Health Dr.", "addr:city": "Little Rock", "addr:state": "AR", "addr:postcode": "72205", "addr:country": "US", "name": "Baptist Health Arkansas", "phone": "(501) 217-8467", "brand": "Baptist Health Foundation", "brand:wikidata": "Q50379824"}, "geometry": {"type": "Point", "coordinates": [-92.379432, 34.745104]}},
{"type": "Feature", "id": "c_JgCoj_lWAn6QRDDg46znUXWOU=", "properties": {"ref": "1120 Lexington Ave.Fort SmithAR", "@spider": "bha", "addr:full": "1120 Lexington Ave.", "addr:city": "Fort Smith", "addr:state": "AR", "addr:postcode": "72901", "addr:country": "US", "name": "Baptist Health Arkansas", "phone": "(479) 709-7260", "brand": "Baptist Health Foundation", "brand:wikidata": "Q50379824"}, "geometry": {"type": "Point", "coordinates": [-94.4182919, 35.372811]}},
{"type": "Feature", "id": "Mx1h6IkCg9TzPzBcMwkBH6qVyow=", "properties": {"ref": "2913 Cypress Rd.ArkadelphiaAR", "@spider": "bha", "addr:full": "2913 Cypress Rd.", "addr:city": "Arkadelphia", "addr:state": "AR", "addr:postcode": "71923", "addr:country": "US", "name": "Baptist Health Arkansas", "phone": "(870) 246-2471", "brand": "Baptist Health Foundation", "brand:wikidata": "Q50379824"}, "geometry": {"type": "Point", "coordinates": [-93.087708, 34.11891]}},
{"type": "Feature", "id": "8Vf33UQO6plybB0CPoc9viYj3tw=", "properties": {"ref": "9601 Baptist Health DriveLittle RockAR", "@spider": "bha", "addr:full": "9601 Baptist Health Drive", "addr:city": "Little Rock", "addr:state": "AR", "addr:postcode": "72205", "addr:country": "US", "name": "Baptist Health Arkansas", "phone": "(501) 202-4477", "brand": "Baptist Health Foundation", "brand:wikidata": "Q50379824"}, "geometry": {"type": "Point", "coordinates": [-92.3821443, 34.7457276]}},
{"type": "Feature", "id": "m5L4oVYVeNHCXyIOOOTjpDYIw3I=", "properties": {"ref": "11321 Mabelvale West Rd.Little RockAR", "@spider": "bha", "addr:full": "11321 Mabelvale West Rd.", "addr:city": "Little Rock", "addr:state": "AR", "addr:postcode": "72103", "addr:country": "US", "name": "Baptist Health Arkansas", "phone": "(501) 202-7587", "brand": "Baptist Health Foundation", "brand:wikidata": "Q50379824"}, "geometry": {"type": "Point", "coordinates": [-92.402384, 34.656597]}},
{"type": "Feature", "id": "mWsc5uat04H7FROy60bpVHESobc=", "properties": {"ref": "3401 Springhill Dr.North Little RockAR", "@spider": "bha", "addr:full": "3401 Springhill Dr.", "addr:city": "North Little Rock", "addr:state": "AR", "addr:postcode": "72117", "addr:country": "US", "name": "Baptist Health Arkansas", "phone": "(501) 945-8838", "brand": "Baptist Health Foundation", "brand:wikidata": "Q50379824"}, "geometry": {"type": "Point", "coordinates": [-92.222358, 34.7893439]}},
{"type": "Feature", "id": "UbsZviXpPzRLMt-YeitaG2dtgZ0=", "properties": {"ref": "1500 Dodson AveFort SmithAR", "@spider": "bha", "addr:full": "1500 Dodson Ave", "addr:city": "Fort Smith", "addr:state": "AR", "addr:postcode": "72901", "addr:country": "US", "name": "Baptist Health Arkansas", "phone": "(479) 709-1913", "brand": "Baptist Health Foundation", "brand:wikidata": "Q50379824"}, "geometry": {"type": "Point", "coordinates": [-94.4176907, 35.3714092]}},
{"type": "Feature", "id": "Z9SQEQbW1c5n1FAgTGrKv08j9lE=", "properties": {"ref": "9500 Kanis RoadLittle RockAR", "@spider": "bha", "addr:full": "9500 Kanis Road", "addr:city": "Little Rock", "addr:state": "AR", "addr:postcode": "72205", "addr:country": "US", "name": "Baptist Health Arkansas", "phone": "(501) 202-1922", "brand": "Baptist Health Foundation", "brand:wikidata": "Q50379824"}, "geometry": {"type": "Point", "coordinates": [-92.380039, 34.743645]}},
{"type": "Feature", "id": "a2aTX2Dmyy3C138pGHzax7hOHLk=", "properties": {"ref": "3401 Springhill DriveNorth Little RockAR", "@spider": "bha", "addr:full": "3401 Springhill Drive", "addr:city": "North Little Rock", "addr:state": "AR", "addr:postcode": "72117", "addr:country": "US", "name": "Baptist Health Arkansas", "phone": "(501) 202-1922", "brand": "Baptist Health Foundation", "brand:wikidata": "Q50379824"}, "geometry": {"type": "Point", "coordinates": [-92.220029, 34.784779]}},
{"type": "Feature", "id": "lcPN0eENIanl6hX_LogT85KHwKw=", "properties": {"ref": "1500 Dodson Ave.Fort SmithAR", "@spider": "bha", "addr:full": "1500 Dodson Ave.", "addr:city": "Fort Smith", "addr:state": "AR", "addr:postcode": "72901", "addr:country": "US", "name": "Baptist Health Arkansas", "phone": "(479) 709-7325", "brand": "Baptist Health Foundation", "brand:wikidata": "Q50379824"}, "geometry": {"type": "Point", "coordinates": [-94.4176907, 35.3714092]}},
{"type": "Feature", "id": "mUPVl2ixXKyPIK-6LBEIMjkCG8I=", "properties": {"ref": "1500 Dodson AvenueFort SmithAR", "@spider": "bha", "addr:full": "1500 Dodson Avenue", "addr:city": "Fort Smith", "addr:state": "AR", "addr:postcode": "72901", "addr:country": "US", "name": "Baptist Health Arkansas", "phone": "(479) 709-7025", "brand": "Baptist Health Foundation", "brand:wikidata": "Q50379824"}, "geometry": {"type": "Point", "coordinates": [-94.4197408, 35.3716441]}},
{"type": "Feature", "id": "XRI6zZgTsys2JGiCt_zI7jQhVdw=", "properties": {"ref": "7500 Dollarway RoadWhite HallAR", "@spider": "bha", "addr:full": "7500 Dollarway Road", "addr:city": "White Hall", "addr:state": "AR", "addr:postcode": "71602", "addr:country": "US", "name": "Baptist Health Arkansas", "phone": "(501) 227-7596", "brand": "Baptist Health Foundation", "brand:wikidata": "Q50379824"}, "geometry": {"type": "Point", "coordinates": [-92.085865, 34.264402]}},
{"type": "Feature", "id": "v7q_aQA6HVRf9pgKDiZb51PKONc=", "properties": {"ref": "800 Scott StreetLittle RockAR", "@spider": "bha", "addr:full": "800 Scott Street", "addr:city": "Little Rock", "addr:state": "AR", "addr:postcode": "72201", "addr:country": "US", "name": "Baptist Health Arkansas", "phone": "(501) 227-8478", "brand": "Baptist Health Foundation", "brand:wikidata": "Q50379824"}, "geometry": {"type": "Point", "coordinates": [-92.270282, 34.740445]}},
{"type": "Feature", "id": "Agrv1xCbLZOcmjeNcNhTtPpxku8=", "properties": {"ref": "703 West Main StreetJacksonvilleAR", "@spider": "bha", "addr:full": "703 West Main Street", "addr:city": "Jacksonville", "addr:state": "AR", "addr:postcode": "72076", "addr:country": "US", "name": "Baptist Health Arkansas", "phone": "(501) 457-5038", "brand": "Baptist Health Foundation", "brand:wikidata": "Q50379824"}, "geometry": {"type": "Point", "coordinates": [92.1167, 34.8667]}},
{"type": "Feature", "id": "73OinVzWhYj2vVhtVFi4fT6DkWM=", "properties": {"ref": "6401 Boone Road #3BryantAR", "@spider": "bha", "addr:full": "6401 Boone Road #3", "addr:city": "Bryant", "addr:state": "AR", "addr:postcode": "72022", "addr:country": "US", "name": "Baptist Health Arkansas", "phone": "(501) 227-8478", "brand": "Baptist Health Foundation", "brand:wikidata": "Q50379824"}, "geometry": {"type": "Point", "coordinates": [-92.5141265, 34.5918135]}},
{"type": "Feature", "id": "frcJGz8eK15U9W1FB3P6M_9UC9s=", "properties": {"ref": "1001 West 16th StreetLittle RockAR", "@spider": "bha", "addr:full": "1001 West 16th Street", "addr:city": "Little Rock", "addr:state": "AR", "addr:postcode": "72202", "addr:country": "US", "name": "Baptist Health Arkansas", "phone": "(501) 227-8478", "brand": "Baptist Health Foundation", "brand:wikidata": "Q50379824"}, "geometry": {"type": "Point", "coordinates": [-92.2844877, 34.7345398]}},
{"type": "Feature", "id": "kk-pkogGgX01C0geoLm17C78qe0=", "properties": {"ref": "1355 W. Front StreetLonokeAR", "@spider": "bha", "addr:full": "1355 W. Front Street", "addr:city": "Lonoke", "addr:state": "AR", "addr:postcode": "72086", "addr:country": "US", "name": "Baptist Health Arkansas", "phone": "(501) 227-8478", "brand": "Baptist Health Foundation", "brand:wikidata": "Q50379824"}, "geometry": {"type": "Point", "coordinates": [-91.914308, 34.780474]}},
{"type": "Feature", "id": "ksmBTkXlR4ISPfDfFEZfr6K0Sfc=", "properties": {"ref": "6221 Colonel Glenn RoadLittle RockAR", "@spider": "bha", "addr:full": "6221 Colonel Glenn Road", "addr:city": "Little Rock", "addr:state": "AR", "addr:postcode": "72204", "addr:country": "US", "name": "Baptist Health Arkansas", "phone": "(501) 227-8478", "brand": "Baptist Health Foundation", "brand:wikidata": "Q50379824"}, "geometry": {"type": "Point", "coordinates": [-92.3449396, 34.7151706]}},
{"type": "Feature", "id": "OmlfuhKPSZ6X2zu12CWOYlheueo=", "properties": {"ref": "401 West PershingNorth Little RockAR", "@spider": "bha", "addr:full": "401 West Pershing", "addr:city": "North Little Rock", "addr:state": "AR", "addr:postcode": "72114", "addr:country": "US", "name": "Baptist Health Arkansas", "phone": "(501) 227-8478", "brand": "Baptist Health Foundation", "brand:wikidata": "Q50379824"}, "geometry": {"type": "Point", "coordinates": [-92.2720329, 34.7803295]}},
{"type": "Feature", "id": "40d8JmTFV-VzvETXKXKbSHbP9O8=", "properties": {"ref": "2301 Thornhill DriveSherwoodAR", "@spider": "bha", "addr:full": "2301 Thornhill Drive", "addr:city": "Sherwood", "addr:state": "AR", "addr:postcode": "72120", "addr:country": "US", "name": "Baptist Health Arkansas", "phone": "(501) 227-8478", "brand": "Baptist Health Foundation", "brand:wikidata": "Q50379824"}, "geometry": {"type": "Point", "coordinates": [-92.207772, 34.834361]}},
{"type": "Feature", "id": "11IUoIV3iG4L1gmiJvZL4TL2BIs=", "properties": {"ref": "6401 Baseline RoadLittle RockAR", "@spider": "bha", "addr:full": "6401 Baseline Road", "addr:city": "Little Rock", "addr:state": "AR", "addr:postcode": "72209", "addr:country": "US", "name": "Baptist Health Arkansas", "phone": "(501) 227-8478", "brand": "Baptist Health Foundation", "brand:wikidata": "Q50379824"}, "geometry": {"type": "Point", "coordinates": [-92.3523307, 34.667068]}},
{"type": "Feature", "id": "PY_23J8KOyAnrclLYIhs-3z-BJw=", "properties": {"ref": "520 Towson Ave.Fort SmithAR", "@spider": "bha", "addr:full": "520 Towson Ave.", "addr:city": "Fort Smith", "addr:state": "AR", "addr:postcode": "72901", "addr:country": "US", "name": "Baptist Health Arkansas", "phone": "(479) 573-7985", "brand": "Baptist Health Foundation", "brand:wikidata": "Q50379824"}, "geometry": {"type": "Point", "coordinates": [-94.4216625, 35.3786256]}},
{"type": "Feature", "id": "FWHpoUl44Qi-TERMJ83EJaIQQFo=", "properties": {"ref": "9800 Baptist Health DriveLittle RockAR", "@spider": "bha", "addr:full": "9800 Baptist Health Drive", "addr:city": "Little Rock", "addr:state": "AR", "addr:postcode": "72205", "addr:country": "US", "name": "Baptist Health Arkansas", "phone": "(501) 202-7150", "brand": "Baptist Health Foundation", "brand:wikidata": "Q50379824"}, "geometry": {"type": "Point", "coordinates": [-92.38281, 34.746353]}},
{"type": "Feature", "id": "qpR5ldS6_-DETHsN8ydP5UJRFpA=", "properties": {"ref": "937 Hwy 64 EastAlmaAR", "@spider": "bha", "addr:full": "937 Hwy 64 East", "addr:city": "Alma", "addr:state": "AR", "addr:postcode": "72921", "addr:country": "US", "name": "Baptist Health Arkansas", "phone": "(479) 632-3855", "brand": "Baptist Health Foundation", "brand:wikidata": "Q50379824"}, "geometry": {"type": "Point", "coordinates": [-94.2114839, 35.4883877]}},
{"type": "Feature", "id": "DTnPRMPWMknZKdLWGpbC0TeToY0=", "properties": {"ref": "9600 Baptist Health Dr.Little RockAR", "@spider": "bha", "addr:full": "9600 Baptist Health Dr.", "addr:city": "Little Rock", "addr:state": "AR", "addr:postcode": "72205", "addr:country": "US", "name": "Baptist Health Arkansas", "phone": "(501) 217-0500", "brand": "Baptist Health Foundation", "brand:wikidata": "Q50379824"}, "geometry": {"type": "Point", "coordinates": [-92.380733, 34.746645]}},
{"type": "Feature", "id": "SxBIhfykJWVj40Cis8-LPeLf9vg=", "properties": {"ref": "6679 Highway 7BismarckAR", "@spider": "bha", "addr:full": "6679 Highway 7", "addr:city": "Bismarck", "addr:state": "AR", "addr:postcode": "71929", "addr:country": "US", "name": "Baptist Health Arkansas", "phone": "(501) 865-2855", "brand": "Baptist Health Foundation", "brand:wikidata": "Q50379824"}, "geometry": {"type": "Point", "coordinates": [-93.1709008, 34.3149844]}},
{"type": "Feature", "id": "BtwQ447SqRGju7Z10EUfhNZG4yU=", "properties": {"ref": "110 North New York AvenueBrinkleyAR", "@spider": "bha", "addr:full": "110 North New York Avenue", "addr:city": "Brinkley", "addr:state": "AR", "addr:postcode": "72021", "addr:country": "US", "name": "Baptist Health Arkansas", "phone": "(870) 734-4405", "brand": "Baptist Health Foundation", "brand:wikidata": "Q50379824"}, "geometry": {"type": "Point", "coordinates": [-91.196246, 34.887898]}},
{"type": "Feature", "id": "ibU-5ieS_-f25_6WM_oXdk8dA3I=", "properties": {"ref": "4411 Hwy 5 NorthBryantAR", "@spider": "bha", "addr:full": "4411 Hwy 5 North", "addr:city": "Bryant", "addr:state": "AR", "addr:postcode": "72022", "addr:country": "US", "name": "Baptist Health Arkansas", "phone": "(501) 847-0289", "brand": "Baptist Health Foundation", "brand:wikidata": "Q50379824"}, "geometry": {"type": "Point", "coordinates": [-92.509248, 34.619533]}},
{"type": "Feature", "id": "etughLLnIv9T8qKvV6dvF5rr0ss=", "properties": {"ref": "205 Westport Dr.CabotAR", "@spider": "bha", "addr:full": "205 Westport Dr.", "addr:city": "Cabot", "addr:state": "AR", "addr:postcode": "72023", "addr:country": "US", "name": "Baptist Health Arkansas", "phone": "(501) 843-6585", "brand": "Baptist Health Foundation", "brand:wikidata": "Q50379824"}, "geometry": {"type": "Point", "coordinates": [-92.043349, 34.980565]}},
{"type": "Feature", "id": "1mjyL6mZSkF2IdC-ZYTPuVD2YZY=", "properties": {"ref": "10 Montgomery Dr.ArkadelphiaAR", "@spider": "bha", "addr:full": "10 Montgomery Dr.", "addr:city": "Arkadelphia", "addr:state": "AR", "addr:postcode": "71923", "addr:country": "US", "name": "Baptist Health Arkansas", "phone": "(870) 245-2198", "brand": "Baptist Health Foundation", "brand:wikidata": "Q50379824"}, "geometry": {"type": "Point", "coordinates": [-93.0679991, 34.1824996]}},
{"type": "Feature", "id": "x6XJsnctsWqmfbvU9FapLV6jgg0=", "properties": {"ref": "198 South Main St.ClarendonAR", "@spider": "bha", "addr:full": "198 South Main St.", "addr:city": "Clarendon", "addr:state": "AR", "addr:postcode": "72029", "addr:country": "US", "name": "Baptist Health Arkansas", "phone": "(870) 747-3349", "brand": "Baptist Health Foundation", "brand:wikidata": "Q50379824"}, "geometry": {"type": "Point", "coordinates": [-91.314874, 34.69197]}},
{"type": "Feature", "id": "MJZ8QXmN_jEk4zFmvy3Le4gqkp4=", "properties": {"ref": "625 United Dr.ConwayAR", "@spider": "bha", "addr:full": "625 United Dr.", "addr:city": "Conway", "addr:state": "AR", "addr:postcode": "72032", "addr:country": "US", "name": "Baptist Health Arkansas", "phone": "(501) 358-6720", "brand": "Baptist Health Foundation", "brand:wikidata": "Q50379824"}, "geometry": {"type": "Point", "coordinates": [-92.421227, 35.057671]}},
{"type": "Feature", "id": "IhZuL8X4qf3CwfHqTo9Tk8el2kI=", "properties": {"ref": "1703 South Whitehead Dr.DeWittAR", "@spider": "bha", "addr:full": "1703 South Whitehead Dr.", "addr:city": "DeWitt", "addr:state": "AR", "addr:postcode": "72042", "addr:country": "US", "name": "Baptist Health Arkansas", "phone": "(870) 946-0300", "brand": "Baptist Health Foundation", "brand:wikidata": "Q50379824"}, "geometry": {"type": "Point", "coordinates": [-91.338886, 34.278613]}},
{"type": "Feature", "id": "-s49B7N3fWN2DEled-xRNuf79cg=", "properties": {"ref": "5428 Ellsworth RdFort SmithAR", "@spider": "bha", "addr:full": "5428 Ellsworth Rd", "addr:city": "Fort Smith", "addr:state": "AR", "addr:postcode": "72903", "addr:country": "US", "name": "Baptist Health Arkansas", "phone": "(479) 709-7440", "brand": "Baptist Health Foundation", "brand:wikidata": "Q50379824"}, "geometry": {"type": "Point", "coordinates": [-94.3719222, 35.3658565]}},
{"type": "Feature", "id": "cyq3FZfOnZCkpQN7LtbXgq_bl1Y=", "properties": {"ref": "221 NE 2nd St.EnglandAR", "@spider": "bha", "addr:full": "221 NE 2nd St.", "addr:city": "England", "addr:state": "AR", "addr:postcode": "72046", "addr:country": "US", "name": "Baptist Health Arkansas", "phone": "(501) 842-3819", "brand": "Baptist Health Foundation", "brand:wikidata": "Q50379824"}, "geometry": {"type": "Point", "coordinates": [-91.969719, 34.547066]}},
{"type": "Feature", "id": "JI-_9QuzNXAEDXv2xm3eTfN2UYQ=", "properties": {"ref": "1480 West Center St.GreenwoodAR", "@spider": "bha", "addr:full": "1480 West Center St.", "addr:city": "Greenwood", "addr:state": "AR", "addr:postcode": "72936", "addr:country": "US", "name": "Baptist Health Arkansas", "phone": "(479) 996-5585", "brand": "Baptist Health Foundation", "brand:wikidata": "Q50379824"}, "geometry": {"type": "Point", "coordinates": [-94.278812, 35.2220657]}},
{"type": "Feature", "id": "77yinKie3KOZruZDwLMizTqlGIw=", "properties": {"ref": "8544 Edgemont RoadGreers FerryAR", "@spider": "bha", "addr:full": "8544 Edgemont Road", "addr:city": "Greers Ferry", "addr:state": "AR", "addr:postcode": "72067", "addr:country": "US", "name": "Baptist Health Arkansas", "phone": "501-825-8800", "brand": "Baptist Health Foundation", "brand:wikidata": "Q50379824"}, "geometry": {"type": "Point", "coordinates": [-92.17654, 35.571869]}},
{"type": "Feature", "id": "rUiSP0vq62I00_PYwb31fbtMl5E=", "properties": {"ref": "200 East WalnutGurdonAR", "@spider": "bha", "addr:full": "200 East Walnut", "addr:city": "Gurdon", "addr:state": "AR", "addr:postcode": "71743", "addr:country": "US", "name": "Baptist Health Arkansas", "phone": "(870) 353-2800", "brand": "Baptist Health Foundation", "brand:wikidata": "Q50379824"}, "geometry": {"type": "Point", "coordinates": [-93.1510266, 33.9197351]}},
{"type": "Feature", "id": "jHdZhRR7LUQXRhUkqdOFbo_7Gc0=", "properties": {"ref": "102 West North Front St.HazenAR", "@spider": "bha", "addr:full": "102 West North Front St.", "addr:city": "Hazen", "addr:state": "AR", "addr:postcode": "72064", "addr:country": "US", "name": "Baptist Health Arkansas", "phone": "(870) 255-3954", "brand": "Baptist Health Foundation", "brand:wikidata": "Q50379824"}, "geometry": {"type": "Point", "coordinates": [-91.579791, 34.778964]}},
{"type": "Feature", "id": "CU0n3FCdA7eE20uO2Drkxl5ZxLs=", "properties": {"ref": "1415 Hwy 25BHeber SpringsAR", "@spider": "bha", "addr:full": "1415 Hwy 25B", "addr:city": "Heber Springs", "addr:state": "AR", "addr:postcode": "72543", "addr:country": "US", "name": "Baptist Health Arkansas", "phone": "(501) 362-7538", "brand": "Baptist Health Foundation", "brand:wikidata": "Q50379824"}, "geometry": {"type": "Point", "coordinates": [-92.0286976, 35.5060838]}},
{"type": "Feature", "id": "ozyQdt5BXAEeGGE_wjqfUpsUr_U=", "properties": {"ref": "2601 Kavanaugh Blvd.Little RockAR", "@spider": "bha", "addr:full": "2601 Kavanaugh Blvd.", "addr:city": "Little Rock", "addr:state": "AR", "addr:postcode": "72205", "addr:country": "US", "name": "Baptist Health Arkansas", "phone": "(501) 663-4357", "brand": "Baptist Health Foundation", "brand:wikidata": "Q50379824"}, "geometry": {"type": "Point", "coordinates": [-92.322067, 34.757112]}},
{"type": "Feature", "id": "UWrz5s6KKcnNyTvf4fw7hL4vUng=", "properties": {"ref": "4700 Kelley Hwy.Fort SmithAR", "@spider": "bha", "addr:full": "4700 Kelley Hwy.", "addr:city": "Fort Smith", "addr:state": "AR", "addr:postcode": "72904", "addr:country": "US", "name": "Baptist Health Arkansas", "phone": "(479) 573-7990", "brand": "Baptist Health Foundation", "brand:wikidata": "Q50379824"}, "geometry": {"type": "Point", "coordinates": [-94.3787169, 35.4028781]}},
{"type": "Feature", "id": "OMEhMIlpvYoHYqIJ3FHLyGeB7mw=", "properties": {"ref": "2508 Crestwood Rd.North Little RockAR", "@spider": "bha", "addr:full": "2508 Crestwood Rd.", "addr:city": "North Little Rock", "addr:state": "AR", "addr:postcode": "72116", "addr:country": "US", "name": "Baptist Health Arkansas", "phone": "(501) 758-2294", "brand": "Baptist Health Foundation", "brand:wikidata": "Q50379824"}, "geometry": {"type": "Point", "coordinates": [-92.23596, 34.799252]}},
{"type": "Feature", "id": "tjjUELfgJrx9n88XyiKKrNp1dDw=", "properties": {"ref": "757 E Front StreetLonokeAR", "@spider": "bha", "addr:full": "757 E Front Street", "addr:city": "Lonoke", "addr:state": "AR", "addr:postcode": "72086", "addr:country": "US", "name": "Baptist Health Arkansas", "phone": "(501) 266-7265", "brand": "Baptist Health Foundation", "brand:wikidata": "Q50379824"}, "geometry": {"type": "Point", "coordinates": [-91.9098458, 34.78309]}},
{"type": "Feature", "id": "RSfLz_XH9lreRnwQumizd5UU2Dw=", "properties": {"ref": "1234 South Main St.MalvernAR", "@spider": "bha", "addr:full": "1234 South Main St.", "addr:city": "Malvern", "addr:state": "AR", "addr:postcode": "72104", "addr:country": "US", "name": "Baptist Health Arkansas", "phone": "(501) 337-9066", "brand": "Baptist Health Foundation", "brand:wikidata": "Q50379824"}, "geometry": {"type": "Point", "coordinates": [-92.786481, 34.35921]}},
{"type": "Feature", "id": "LPjcQXWinUkQNtZwucQtCjcvU-8=", "properties": {"ref": "6100 Massard RoadFort SmithAR", "@spider": "bha", "addr:full": "6100 Massard Road", "addr:city": "Fort Smith", "addr:state": "AR", "addr:postcode": "72916", "addr:country": "US", "name": "Baptist Health Arkansas", "phone": "(479) 709-7250", "brand": "Baptist Health Foundation", "brand:wikidata": "Q50379824"}, "geometry": {"type": "Point", "coordinates": [-94.3418926, 35.3229465]}},
{"type": "Feature", "id": "Kd_bYsxSkyT_Ucu_DKskTACvoJg=", "properties": {"ref": "1701 Club Manor Dr.MaumelleAR", "@spider": "bha", "addr:full": "1701 Club Manor Dr.", "addr:city": "Maumelle", "addr:state": "AR", "addr:postcode": "72113", "addr:country": "US", "name": "Baptist Health Arkansas", "phone": "(501) 851-7400", "brand": "Baptist Health Foundation", "brand:wikidata": "Q50379824"}, "geometry": {"type": "Point", "coordinates": [-92.405244, 34.854612]}},
{"type": "Feature", "id": "abBBhprUhaQk-G5kAs6kuxEoQBI=", "properties": {"ref": "11321 Interstate 30Little RockAR", "@spider": "bha", "addr:full": "11321 Interstate 30", "addr:city": "Little Rock", "addr:state": "AR", "addr:postcode": "72209", "addr:country": "US", "name": "Baptist Health Arkansas", "phone": "(501) 455-1331", "brand": "Baptist Health Foundation", "brand:wikidata": "Q50379824"}, "geometry": {"type": "Point", "coordinates": [-92.402049, 34.656734]}},
{"type": "Feature", "id": "sknoYC5FrM5FqmxjJAfcoMi0uh0=", "properties": {"ref": "518 N. Fourche Ave.PerryvilleAR", "@spider": "bha", "addr:full": "518 N. Fourche Ave.", "addr:city": "Perryville", "addr:state": "AR", "addr:postcode": "72126", "addr:country": "US", "name": "Baptist Health Arkansas", "phone": "(501) 889-5543", "brand": "Baptist Health Foundation", "brand:wikidata": "Q50379824"}, "geometry": {"type": "Point", "coordinates": [-92.8002748, 35.0080617]}},
{"type": "Feature", "id": "BYGpd6s9gRSEOYITQ5PNUL23PMA=", "properties": {"ref": "1484 West 1st St.PrescottAR", "@spider": "bha", "addr:full": "1484 West 1st St.", "addr:city": "Prescott", "addr:state": "AR", "addr:postcode": "71857", "addr:country": "US", "name": "Baptist Health Arkansas", "phone": "(870) 887-0155", "brand": "Baptist Health Foundation", "brand:wikidata": "Q50379824"}, "geometry": {"type": "Point", "coordinates": [-93.3754643, 33.8119911]}},
{"type": "Feature", "id": "0Gc77CAOo3zmj0X4EHxaG5cxGdg=", "properties": {"ref": "8600 South 36th TerraceFort SmithAR", "@spider": "bha", "addr:full": "8600 South 36th Terrace", "addr:city": "Fort Smith", "addr:state": "AR", "addr:postcode": "72908", "addr:country": "US", "name": "Baptist Health Arkansas", "phone": "(479) 709-7465", "brand": "Baptist Health Foundation", "brand:wikidata": "Q50379824"}, "geometry": {"type": "Point", "coordinates": [-94.3961492, 35.3028351]}},
{"type": "Feature", "id": "UaRvIYjhdnHAYXzlG9ax_rAq8BA=", "properties": {"ref": "3808 Gary St.Fort SmithAR", "@spider": "bha", "addr:full": "3808 Gary St.", "addr:city": "Fort Smith", "addr:state": "AR", "addr:postcode": "72903", "addr:country": "US", "name": "Baptist Health Arkansas", "phone": "(479) 709-7120", "brand": "Baptist Health Foundation", "brand:wikidata": "Q50379824"}, "geometry": {"type": "Point", "coordinates": [-94.3907663, 35.3485589]}},
{"type": "Feature", "id": "maMFNJv2P9EEb_YThGXeUzCqqT0=", "properties": {"ref": "104 W. Taylor St.SparkmanAR", "@spider": "bha", "addr:full": "104 W. Taylor St.", "addr:city": "Sparkman", "addr:state": "AR", "addr:postcode": "71763", "addr:country": "US", "name": "Baptist Health Arkansas", "phone": "(870) 678-4010", "brand": "Baptist Health Foundation", "brand:wikidata": "Q50379824"}, "geometry": {"type": "Point", "coordinates": [-92.8501907, 33.915504]}},
{"type": "Feature", "id": "lFqZ4pZY9oukdm5fHUG3HYzx7EY=", "properties": {"ref": "209 W. Pointer TrailVan BurenAR", "@spider": "bha", "addr:full": "209 W. Pointer Trail", "addr:city": "Van Buren", "addr:state": "AR", "addr:postcode": "72956", "addr:country": "US", "name": "Baptist Health Arkansas", "phone": "(479) 474-1100", "brand": "Baptist Health Foundation", "brand:wikidata": "Q50379824"}, "geometry": {"type": "Point", "coordinates": [-94.3639022, 35.4584431]}},
{"type": "Feature", "id": "RGq08Cj7fbQClW165RhPp5gh1_4=", "properties": {"ref": "6015 Chenonceau Blvd.Little RockAR", "@spider": "bha", "addr:full": "6015 Chenonceau Blvd.", "addr:city": "Little Rock", "addr:state": "AR", "addr:postcode": "72223", "addr:country": "US", "name": "Baptist Health Arkansas", "phone": "(501) 868-8410", "brand": "Baptist Health Foundation", "brand:wikidata": "Q50379824"}, "geometry": {"type": "Point", "coordinates": [-92.46831, 34.806775]}},
{"type": "Feature", "id": "jm0QGOQrcN0Cjm-fZh-YMrDeOZo=", "properties": {"ref": "7500 Dollarway Rd.White HallAR", "@spider": "bha", "addr:full": "7500 Dollarway Rd.", "addr:city": "White Hall", "addr:state": "AR", "addr:postcode": "71602", "addr:country": "US", "name": "Baptist Health Arkansas", "phone": "(870) 247-7632", "brand": "Baptist Health Foundation", "brand:wikidata": "Q50379824"}, "geometry": {"type": "Point", "coordinates": [-92.085865, 34.264402]}},
{"type": "Feature", "id": "DBEVIAckyRXXV3AiTOUQ3pROoNw=", "properties": {"ref": "3201 Springhill DriveNorth Little RockAR", "@spider": "bha", "addr:full": "3201 Springhill Drive", "addr:city": "North Little Rock", "addr:state": "AR", "addr:postcode": "72117", "addr:country": "US", "name": "Baptist Health Arkansas", "phone": "(501) 753-4132", "brand": "Baptist Health Foundation", "brand:wikidata": "Q50379824"}, "geometry": {"type": "Point", "coordinates": [-92.2190017, 34.7826499]}},
{"type": "Feature", "id": "nXqIu93hZ6e8hZaj1HfO7yPHhqg=", "properties": {"ref": "201 E Oak AvenueJonesboroAR", "@spider": "bha", "addr:full": "201 E Oak Avenue", "addr:city": "Jonesboro", "addr:state": "AR", "addr:postcode": "72401", "addr:country": "US", "name": "Baptist Health Arkansas", "phone": "(501) 202-1500", "brand": "Baptist Health Foundation", "brand:wikidata": "Q50379824"}, "geometry": {"type": "Point", "coordinates": [-90.7038133, 35.8335704]}},
{"type": "Feature", "id": "5ZQE8JHtWDHaGs9a5QKYJOtBdLE=", "properties": {"ref": "1127 Main St.ViloniaAR", "@spider": "bha", "addr:full": "1127 Main St.", "addr:city": "Vilonia", "addr:state": "AR", "addr:postcode": "72173", "addr:country": "US", "name": "Baptist Health Arkansas", "phone": "(501) 327-7555", "brand": "Baptist Health Foundation", "brand:wikidata": "Q50379824"}, "geometry": {"type": "Point", "coordinates": [-92.20184, 35.08495]}},
{"type": "Feature", "id": "wqQCCUdlEktL3BrbI_5nRCEUjHI=", "properties": {"ref": "3001 Twin Rivers DriveArkadelphiaAR", "@spider": "bha", "addr:full": "3001 Twin Rivers Drive", "addr:city": "Arkadelphia", "addr:state": "AR", "addr:postcode": "71923", "addr:country": "US", "name": "Baptist Health Arkansas", "phone": "(501) 227-7596", "brand": "Baptist Health Foundation", "brand:wikidata": "Q50379824"}, "geometry": {"type": "Point", "coordinates": [-93.0864647, 34.123816]}},
{"type": "Feature", "id": "6Pg4eDRGNS6Ipp_eGaXRHbeMNls=", "properties": {"ref": "400 Hwy 64 EAugustaAR", "@spider": "bha", "addr:full": "400 Hwy 64 E", "addr:city": "Augusta", "addr:state": "AR", "addr:postcode": "72006", "addr:country": "US", "name": "Baptist Health Arkansas", "phone": "(501) 975-7676", "brand": "Baptist Health Foundation", "brand:wikidata": "Q50379824"}, "geometry": {"type": "Point", "coordinates": [-91.362115, 35.292958]}},
{"type": "Feature", "id": "k_rN-v8lUfjuYi3VWzfn0nW3ICc=", "properties": {"ref": "1304 Military RoadBentonAR", "@spider": "bha", "addr:full": "1304 Military Road", "addr:city": "Benton", "addr:state": "AR", "addr:postcode": "72015", "addr:country": "US", "name": "Baptist Health Arkansas", "phone": "(501) 227-7596", "brand": "Baptist Health Foundation", "brand:wikidata": "Q50379824"}, "geometry": {"type": "Point", "coordinates": [92.578026, 34.577089]}},
{"type": "Feature", "id": "P7W6yM2Vt6yByedcQaJwXtKYMl0=", "properties": {"ref": "827 West CarpenterBentonAR", "@spider": "bha", "addr:full": "827 West Carpenter", "addr:city": "Benton", "addr:state": "AR", "addr:postcode": "72015", "addr:country": "US", "name": "Baptist Health Arkansas", "phone": "(501) 227-7596", "brand": "Baptist Health Foundation", "brand:wikidata": "Q50379824"}, "geometry": {"type": "Point", "coordinates": [-92.588928, 34.5711005]}},
{"type": "Feature", "id": "2vjmLaXTLdvjUKsJPo4c9CgpSv4=", "properties": {"ref": "47 Hwy 64 WestBeebeAR", "@spider": "bha", "addr:full": "47 Hwy 64 West", "addr:city": "Beebe", "addr:state": "AR", "addr:postcode": "72012", "addr:country": "US", "name": "Baptist Health Arkansas", "phone": "(501) 975-7676", "brand": "Baptist Health Foundation", "brand:wikidata": "Q50379824"}, "geometry": {"type": "Point", "coordinates": [-91.923707, 35.068395]}},
{"type": "Feature", "id": "Bha0RpLk66YFSlFVX4VBOMvrGWY=", "properties": {"ref": "821 East Park RoadCarlisleAR", "@spider": "bha", "addr:full": "821 East Park Road", "addr:city": "Carlisle", "addr:state": "AR", "addr:postcode": "72024", "addr:country": "US", "name": "Baptist Health Arkansas", "phone": "(501) 975-7676", "brand": "Baptist Health Foundation", "brand:wikidata": "Q50379824"}, "geometry": {"type": "Point", "coordinates": [-91.7375296, 34.7804223]}},
{"type": "Feature", "id": "hqO7Om2KyNk8ImkTk6oAb3zaC2I=", "properties": {"ref": "353 Cash RoadCamdenAR", "@spider": "bha", "addr:full": "353 Cash Road", "addr:city": "Camden", "addr:state": "AR", "addr:postcode": "71701", "addr:country": "US", "name": "Baptist Health Arkansas", "phone": "(501) 227-7596", "brand": "Baptist Health Foundation", "brand:wikidata": "Q50379824"}, "geometry": {"type": "Point", "coordinates": [-92.8504639, 33.5816471]}},
{"type": "Feature", "id": "EoinVkun3BpGK6tAi-OKISyYbyM=", "properties": {"ref": "205 Westport DriveCabotAR", "@spider": "bha", "addr:full": "205 Westport Drive", "addr:city": "Cabot", "addr:state": "AR", "addr:postcode": "72023", "addr:country": "US", "name": "Baptist Health Arkansas", "phone": "(501) 975-7676", "brand": "Baptist Health Foundation", "brand:wikidata": "Q50379824"}, "geometry": {"type": "Point", "coordinates": [-92.043494, 34.9803047]}},
{"type": "Feature", "id": "po5eOJn3rDJvt4-hu3ARYgDLI4s=", "properties": {"ref": "2526 Hwy 65 SouthClintonAR", "@spider": "bha", "addr:full": "2526 Hwy 65 South", "addr:city": "Clinton", "addr:state": "AR", "addr:postcode": "72031", "addr:country": "US", "name": "Baptist Health Arkansas", "phone": "(501) 975-7676", "brand": "Baptist Health Foundation", "brand:wikidata": "Q50379824"}, "geometry": {"type": "Point", "coordinates": [-92.4507573, 35.5588445]}},
{"type": "Feature", "id": "s_rLUSr3M9oRVhiI81wP5_Z_lc8=", "properties": {"ref": "631 N 11th StreetClarendonAR", "@spider": "bha", "addr:full": "631 N 11th Street", "addr:city": "Clarendon", "addr:state": "AR", "addr:postcode": "72029", "addr:country": "US", "name": "Baptist Health Arkansas", "phone": "(501) 227-7596", "brand": "Baptist Health Foundation", "brand:wikidata": "Q50379824"}, "geometry": {"type": "Point", "coordinates": [91.302, 34.6974]}},
{"type": "Feature", "id": "hzwfA7_2IJLfRxcDIi3BqP3ylHI=", "properties": {"ref": "528 West Faulkner StreetEl DoradoAR", "@spider": "bha", "addr:full": "528 West Faulkner Street", "addr:city": "El Dorado", "addr:state": "AR", "addr:postcode": "71730", "addr:country": "US", "name": "Baptist Health Arkansas", "phone": "(501) 227-7596", "brand": "Baptist Health Foundation", "brand:wikidata": "Q50379824"}, "geometry": {"type": "Point", "coordinates": [-92.6703743, 33.2133667]}},
{"type": "Feature", "id": "MNmGPRR-zQzP1MOVp6FUPPZqL0c=", "properties": {"ref": "20 Baptist Health DriveHeber SpringsAR", "@spider": "bha", "addr:full": "20 Baptist Health Drive", "addr:city": "Heber Springs", "addr:state": "AR", "addr:postcode": "72543", "addr:country": "US", "name": "Baptist Health Arkansas", "phone": "(501) 227-7596", "brand": "Baptist Health Foundation", "brand:wikidata": "Q50379824"}, "geometry": {"type": "Point", "coordinates": [-92.0296539, 35.4989615]}},
{"type": "Feature", "id": "MivYcNZtRkR_Shd2tFLxUfxuUvk=", "properties": {"ref": "1300 Braden StreetJacksonvilleAR", "@spider": "bha", "addr:full": "1300 Braden Street", "addr:city": "Jacksonville", "addr:state": "AR", "addr:postcode": "72076", "addr:country": "US", "name": "Baptist Health Arkansas", "phone": "(501) 975-7676", "brand": "Baptist Health Foundation", "brand:wikidata": "Q50379824"}, "geometry": {"type": "Point", "coordinates": [-92.1226819, 34.8731948]}},
{"type": "Feature", "id": "6saSbB0MYKPxMPzEg-T46RsTE_s=", "properties": {"ref": "1002 Schneider Dr.MalvernAR", "@spider": "bha", "addr:full": "1002 Schneider Dr.", "addr:city": "Malvern", "addr:state": "AR", "addr:postcode": "72104", "addr:country": "US", "name": "Baptist Health Arkansas", "phone": "(501) 227-7596", "brand": "Baptist Health Foundation", "brand:wikidata": "Q50379824"}, "geometry": {"type": "Point", "coordinates": [-92.7856837, 34.3588708]}},
{"type": "Feature", "id": "uz5e9nx551oxAnZEXv51OPEBmZg=", "properties": {"ref": "10 Hospital Dr.MorriltonAR", "@spider": "bha", "addr:full": "10 Hospital Dr.", "addr:city": "Morrilton", "addr:state": "AR", "addr:postcode": "72110", "addr:country": "US", "name": "Baptist Health Arkansas", "phone": "(501) 327-7555", "brand": "Baptist Health Foundation", "brand:wikidata": "Q50379824"}, "geometry": {"type": "Point", "coordinates": [-92.719152, 35.168118]}},
{"type": "Feature", "id": "v8ue9EY_e_p0a1XkgAhhwyKfgqA=", "properties": {"ref": "778 Scogin DriveMonticelloAR", "@spider": "bha", "addr:full": "778 Scogin Drive", "addr:city": "Monticello", "addr:state": "AR", "addr:postcode": "71655", "addr:country": "US", "name": "Baptist Health Arkansas", "phone": "(501) 227-7596", "brand": "Baptist Health Foundation", "brand:wikidata": "Q50379824"}, "geometry": {"type": "Point", "coordinates": [-91.8170545, 33.6107603]}},
{"type": "Feature", "id": "MkfeplbcJkKUDmHtH9aCHT4SeW0=", "properties": {"ref": "1605 West Main StreetRussellvilleAR", "@spider": "bha", "addr:full": "1605 West Main Street", "addr:city": "Russellville", "addr:state": "AR", "addr:postcode": "72801", "addr:country": "US", "name": "Baptist Health Arkansas", "phone": "(501)227-7596", "brand": "Baptist Health Foundation", "brand:wikidata": "Q50379824"}, "geometry": {"type": "Point", "coordinates": [-93.14845, 35.28193]}},
{"type": "Feature", "id": "cZOFzHYtRNbzaDu2qeiCYwWZ6l4=", "properties": {"ref": "1110 West Vine StreetSheridanAR", "@spider": "bha", "addr:full": "1110 West Vine Street", "addr:city": "Sheridan", "addr:state": "AR", "addr:postcode": "72150", "addr:country": "US", "name": "Baptist Health Arkansas", "phone": "(501) 227-7596", "brand": "Baptist Health Foundation", "brand:wikidata": "Q50379824"}, "geometry": {"type": "Point", "coordinates": [-92.4120287, 34.3110963]}},
{"type": "Feature", "id": "Hxg4-TjRL2S7G7o_DCFNRWauuVo=", "properties": {"ref": "9500 Kanis Rd.Little RockAR", "@spider": "bha", "addr:full": "9500 Kanis Rd.", "addr:city": "Little Rock", "addr:state": "AR", "addr:postcode": "72205", "addr:country": "US", "name": "Baptist Health Arkansas", "phone": "501-202-1521", "brand": "Baptist Health Foundation", "brand:wikidata": "Q50379824"}, "geometry": {"type": "Point", "coordinates": [-92.3803334, 34.7436066]}},
{"type": "Feature", "id": "DuOCIEb6OY_bLF6_pZYB8bYvoAc=", "properties": {"ref": "3343 Springhill DriveNorth Little RockAR", "@spider": "bha", "addr:full": "3343 Springhill Drive", "addr:city": "North Little Rock", "addr:state": "AR", "addr:postcode": "72117", "addr:country": "US", "name": "Baptist Health Arkansas", "phone": "(501) 975-7676", "brand": "Baptist Health Foundation", "brand:wikidata": "Q50379824"}, "geometry": {"type": "Point", "coordinates": [-92.2221683, 34.7834263]}},
{"type": "Feature", "id": "hluIv3vhSn0v-3OmQw5S5hzx1VY=", "properties": {"ref": "625 United DriveConwayAR", "@spider": "bha", "addr:full": "625 United Drive", "addr:city": "Conway", "addr:state": "AR", "addr:postcode": "72032", "addr:country": "US", "name": "Baptist Health Arkansas", "phone": "(501) 358-6361", "brand": "Baptist Health Foundation", "brand:wikidata": "Q50379824"}, "geometry": {"type": "Point", "coordinates": [-92.4217884, 35.0573884]}},
{"type": "Feature", "id": "rd-5URBia42Fn8FUBdxRMcbiyYY=", "properties": {"ref": "9500 Kanis RdLittle RockAR", "@spider": "bha", "addr:full": "9500 Kanis Rd", "addr:city": "Little Rock", "addr:state": "AR", "addr:postcode": "72205", "addr:country": "US", "name": "Baptist Health Arkansas", "phone": "(501) 202-7295", "brand": "Baptist Health Foundation", "brand:wikidata": "Q50379824"}, "geometry": {"type": "Point", "coordinates": [-92.4503735, 34.7435866]}},
{"type": "Feature", "id": "4JOBjRFnZIS14pLZBlOlTnxdZRs=", "properties": {"ref": "9101 Kanis Rd.Little RockAR", "@spider": "bha", "addr:full": "9101 Kanis Rd.", "addr:city": "Little Rock", "addr:state": "AR", "addr:postcode": "72205", "addr:country": "US", "name": "Baptist Health Arkansas", "phone": "(501) 202-4020", "brand": "Baptist Health Foundation", "brand:wikidata": "Q50379824"}, "geometry": {"type": "Point", "coordinates": [-92.3762816, 34.7406605]}},
{"type": "Feature", "id": "36nHXkd2-ecperwWMUjjkjs358A=", "properties": {"ref": "3600 Springhill DriveNorth Little RockAR", "@spider": "bha", "addr:full": "3600 Springhill Drive", "addr:city": "North Little Rock", "addr:state": "AR", "addr:postcode": "72117", "addr:country": "US", "name": "Baptist Health Arkansas", "phone": "(501) 202-6999", "brand": "Baptist Health Foundation", "brand:wikidata": "Q50379824"}, "geometry": {"type": "Point", "coordinates": [-92.21967, 34.788025]}},
{"type": "Feature", "id": "H50QPFjowS5pTCnz_uox3u3Xnn0=", "properties": {"ref": "829 West Carpenter StreetBentonAR", "@spider": "bha", "addr:full": "829 West Carpenter Street", "addr:city": "Benton", "addr:state": "AR", "addr:postcode": "72015", "addr:country": "US", "name": "Baptist Health Arkansas", "phone": "(501) 776-2006", "brand": "Baptist Health Foundation", "brand:wikidata": "Q50379824"}, "geometry": {"type": "Point", "coordinates": [-92.5889, 34.571448]}},
{"type": "Feature", "id": "deJvWJ_npVmAd4-L97gV3i1xhus=", "properties": {"ref": "1500 Dodson Avenue Fort Smith AR", "@spider": "bha", "addr:full": "1500 Dodson Avenue ", "addr:city": "Fort Smith ", "addr:state": "AR", "addr:postcode": "79201", "addr:country": "US", "name": "Baptist Health Arkansas", "phone": "479-709-7445", "brand": "Baptist Health Foundation", "brand:wikidata": "Q50379824"}, "geometry": {"type": "Point", "coordinates": [-94.417701, 35.371637]}},
{"type": "Feature", "id": "7d1pzsZAGpOFSYIP4llO_c4V0XU=", "properties": {"ref": "4700 Kelley HighwayFort SmithAR", "@spider": "bha", "addr:full": "4700 Kelley Highway", "addr:city": "Fort Smith", "addr:state": "AR", "addr:postcode": "72901", "addr:country": "US", "name": "Baptist Health Arkansas", "phone": "(479) 573-7995", "brand": "Baptist Health Foundation", "brand:wikidata": "Q50379824"}, "geometry": {"type": "Point", "coordinates": [-92.3828224, 34.7439104]}},
{"type": "Feature", "id": "Z0faybqh2ppgDRoTqzFfosDBsn8=", "properties": {"ref": "1500 Dodson Avenue. Fort Smith AR", "@spider": "bha", "addr:full": "1500 Dodson Avenue. ", "addr:city": "Fort Smith ", "addr:state": "AR", "addr:postcode": "72901", "addr:country": "US", "name": "Baptist Health Arkansas", "phone": "479-709-1986", "brand": "Baptist Health Foundation", "brand:wikidata": "Q50379824"}, "geometry": {"type": "Point", "coordinates": [-94.417648, 35.372372]}},
{"type": "Feature", "id": "pwExynYZ71dPSQ9FeQJMPcfSWbc=", "properties": {"ref": "9600 Baptist Health DriveLittle RockAR", "@spider": "bha", "addr:full": "9600 Baptist Health Drive", "addr:city": "Little Rock", "addr:state": "AR", "addr:postcode": "72205", "addr:country": "US", "name": "Baptist Health Arkansas", "phone": "(501) 227-0421", "brand": "Baptist Health Foundation", "brand:wikidata": "Q50379824"}, "geometry": {"type": "Point", "coordinates": [-92.380324, 34.743581]}},
{"type": "Feature", "id": "SC3DQbQ0VujjR3wFyXBYtHmc_rk=", "properties": {"ref": "2915 Cypress RoadArkadelphiaAR", "@spider": "bha", "addr:full": "2915 Cypress Road", "addr:city": "Arkadelphia", "addr:state": "AR", "addr:postcode": "71923", "addr:country": "US", "name": "Baptist Health Arkansas", "phone": "(501) 224-0200", "brand": "Baptist Health Foundation", "brand:wikidata": "Q50379824"}, "geometry": {"type": "Point", "coordinates": [-93.087708, 34.11891]}},
{"type": "Feature", "id": "Q3wHhYFJ-l3MHLYIfe8-KqOXNqw=", "properties": {"ref": "406 Rodgers Dr.SearcyAR", "@spider": "bha", "addr:full": "406 Rodgers Dr.", "addr:city": "Searcy", "addr:state": "AR", "addr:postcode": "72143", "addr:country": "US", "name": "Baptist Health Arkansas", "phone": "(501) 224-0200", "brand": "Baptist Health Foundation", "brand:wikidata": "Q50379824"}, "geometry": {"type": "Point", "coordinates": [-91.7306905, 35.2359199]}},
{"type": "Feature", "id": "blQORlhwb8Mz5qqjv5-XTiTjSSI=", "properties": {"ref": "1900 Malvern Ave.Hot SpringsAR", "@spider": "bha", "addr:full": "1900 Malvern Ave.", "addr:city": "Hot Springs", "addr:state": "AR", "addr:postcode": "71901", "addr:country": "US", "name": "Baptist Health Arkansas", "phone": "(501) 224-0200", "brand": "Baptist Health Foundation", "brand:wikidata": "Q50379824"}, "geometry": {"type": "Point", "coordinates": [-93.0377855, 34.4869376]}},
{"type": "Feature", "id": "QG9lpd9Jh8lBDv5zIegUD_resUY=", "properties": {"ref": "9500 Baptist Health Dr. Little RockAR", "@spider": "bha", "addr:full": "9500 Baptist Health Dr. ", "addr:city": "Little Rock", "addr:state": "AR", "addr:postcode": "72205", "addr:country": "US", "name": "Baptist Health Arkansas", "phone": "(501) 217-3533", "brand": "Baptist Health Foundation", "brand:wikidata": "Q50379824"}, "geometry": {"type": "Point", "coordinates": [-92.381314, 34.7461896]}},
{"type": "Feature", "id": "CZsmAPtPVisk6OdoUzrWpyprBQ0=", "properties": {"ref": "821 West CarpenterBentonAR", "@spider": "bha", "addr:full": "821 West Carpenter", "addr:city": "Benton", "addr:state": "AR", "addr:postcode": "72015", "addr:country": "US", "name": "Baptist Health Arkansas", "phone": "(501) 217-3533", "brand": "Baptist Health Foundation", "brand:wikidata": "Q50379824"}, "geometry": {"type": "Point", "coordinates": [-92.5889, 34.571448]}},
{"type": "Feature", "id": "k-qfTso7AQNJ9KCXsgoHS85bvZQ=", "properties": {"ref": "1800 Bypass RdHeber SpringsAR", "@spider": "bha", "addr:full": "1800 Bypass Rd", "addr:city": "Heber Springs", "addr:state": "AR", "addr:postcode": "72543", "addr:country": "US", "name": "Baptist Health Arkansas", "phone": "(501) 206-0176", "brand": "Baptist Health Foundation", "brand:wikidata": "Q50379824"}, "geometry": {"type": "Point", "coordinates": [-91.9980175, 35.5044136]}},
{"type": "Feature", "id": "48aIjI95pvdlecxXtn3ZGa2Ud4Q=", "properties": {"ref": "1506 Dodson Ave.Fort SmithAR", "@spider": "bha", "addr:full": "1506 Dodson Ave.", "addr:city": "Fort Smith", "addr:state": "AR", "addr:postcode": "72901", "addr:country": "US", "name": "Baptist Health Arkansas", "phone": "(479) 709-7000", "brand": "Baptist Health Foundation", "brand:wikidata": "Q50379824"}, "geometry": {"type": "Point", "coordinates": [-94.4165056, 35.3719253]}},
{"type": "Feature", "id": "vB6ApqW1iSPfeGcZObeaaZFPWoE=", "properties": {"ref": "10117 Kanis RoadLittle RockAR", "@spider": "bha", "addr:full": "10117 Kanis Road", "addr:city": "Little Rock", "addr:state": "AR", "addr:postcode": "72205", "addr:country": "US", "name": "Baptist Health Arkansas", "phone": "(501) 202-1540", "brand": "Baptist Health Foundation", "brand:wikidata": "Q50379824"}, "geometry": {"type": "Point", "coordinates": [-92.387186, 34.7423651]}},
{"type": "Feature", "id": "hMZKMa5HD0xGU2XUaIhH6UDE57Y=", "properties": {"ref": "518 West 26th StreetNorth Little RockAR", "@spider": "bha", "addr:full": "518 West 26th Street", "addr:city": "North Little Rock", "addr:state": "AR", "addr:postcode": "72114", "addr:country": "US", "name": "Baptist Health Arkansas", "phone": "(501) 758-0305", "brand": "Baptist Health Foundation", "brand:wikidata": "Q50379824"}, "geometry": {"type": "Point", "coordinates": [-92.273542, 34.778569]}},
{"type": "Feature", "id": "UNw3GFl0A3APVMB6KWrDbo1Ddbw=", "properties": {"ref": "10324 Kanis RoadLittle RockAR", "@spider": "bha", "addr:full": "10324 Kanis Road", "addr:city": "Little Rock", "addr:state": "AR", "addr:postcode": "72205", "addr:country": "US", "name": "Baptist Health Arkansas", "phone": "(501) 202-1945", "brand": "Baptist Health Foundation", "brand:wikidata": "Q50379824"}, "geometry": {"type": "Point", "coordinates": [-92.38958, 34.743351]}},
{"type": "Feature", "id": "3CXLRwDzOVXTtc_w5ZJ_0cMTgjA=", "properties": {"ref": "3335 Springhill DriveNorth Little RockAR", "@spider": "bha", "addr:full": "3335 Springhill Drive", "addr:city": "North Little Rock", "addr:state": "AR", "addr:postcode": "72117", "addr:country": "US", "name": "Baptist Health Arkansas", "phone": "(501) 202-3877", "brand": "Baptist Health Foundation", "brand:wikidata": "Q50379824"}, "geometry": {"type": "Point", "coordinates": [-92.220484, 34.784557]}},
{"type": "Feature", "id": "8Cgwq4_cTH7pb1GeJue6MqlKXEU=", "properties": {"ref": "625 United Drive, Suite 360ConwayAR", "@spider": "bha", "addr:full": "625 United Drive, Suite 360", "addr:city": "Conway", "addr:state": "AR", "addr:postcode": "72032", "addr:country": "US", "name": "Baptist Health Arkansas", "phone": "(501) 358-6206 (Fax) 501-358-6809", "brand": "Baptist Health Foundation", "brand:wikidata": "Q50379824"}, "geometry": {"type": "Point", "coordinates": [-92.4189559889707, 35.05681234168037]}},
{"type": "Feature", "id": "aEpnFdU9MCZJFApU9FxUjBpz65I=", "properties": {"ref": "1502 Dodson Ave.Fort SmithAR", "@spider": "bha", "addr:full": "1502 Dodson Ave.", "addr:city": "Fort Smith", "addr:state": "AR", "addr:postcode": "72901", "addr:country": "US", "name": "Baptist Health Arkansas", "phone": "(479) 709-7190", "brand": "Baptist Health Foundation", "brand:wikidata": "Q50379824"}, "geometry": {"type": "Point", "coordinates": [-94.4166415, 35.3717417]}},
{"type": "Feature", "id": "DnW0kUdKivNFh5Emx_0G8U03cIQ=", "properties": {"ref": "1001 Towson Ave.Fort SmithAR", "@spider": "bha", "addr:full": "1001 Towson Ave.", "addr:city": "Fort Smith", "addr:state": "AR", "addr:postcode": "72901", "addr:country": "US", "name": "Baptist Health Arkansas", "phone": "(479) 441-5603", "brand": "Baptist Health Foundation", "brand:wikidata": "Q50379824"}, "geometry": {"type": "Point", "coordinates": [-94.419774, 35.3741136]}},
{"type": "Feature", "id": "FagBL_-vmg4U_-pM7xGWAIrcFKo=", "properties": {"ref": "3333 Springhill 3rd floorNorth Little RockAR", "@spider": "bha", "addr:full": "3333 Springhill 3rd floor", "addr:city": "North Little Rock", "addr:state": "AR", "addr:postcode": "72117", "addr:country": "US", "name": "Baptist Health Arkansas", "phone": "(501) 202-3712", "brand": "Baptist Health Foundation", "brand:wikidata": "Q50379824"}, "geometry": {"type": "Point", "coordinates": [-92.4420855, 34.7763199]}},
{"type": "Feature", "id": "B6UZrSfqVjSJ4VWdP_KXOrt3Z5k=", "properties": {"ref": "819 W. Carpenter St.BentonAR", "@spider": "bha", "addr:full": "819 W. Carpenter St.", "addr:city": "Benton", "addr:state": "AR", "addr:postcode": "72015", "addr:country": "US", "name": "Baptist Health Arkansas", "phone": "(501) 202-1902", "brand": "Baptist Health Foundation", "brand:wikidata": "Q50379824"}, "geometry": {"type": "Point", "coordinates": [-92.588778, 34.571127]}},
{"type": "Feature", "id": "qDU0COChYj2ljKa_4cYDRjx_wfU=", "properties": {"ref": "20 Baptist Health Drive Heber Springs, AR 72543Heber SpringsAR", "@spider": "bha", "addr:full": "20 Baptist Health Drive Heber Springs, AR 72543", "addr:city": "Heber Springs", "addr:state": "AR", "addr:postcode": "72543", "addr:country": "US", "name": "Baptist Health Arkansas", "phone": "(501) 202-1902", "brand": "Baptist Health Foundation", "brand:wikidata": "Q50379824"}, "geometry": {"type": "Point", "coordinates": [-92.0680576, 35.5043934]}},
{"type": "Feature", "id": "isjGr_TOs46yMiwu3d0L63n2SBU=", "properties": {"ref": "1001 Schneider Drive MalvernAR", "@spider": "bha", "addr:full": "1001 Schneider Drive ", "addr:city": "Malvern", "addr:state": "AR", "addr:postcode": "72104", "addr:country": "US", "name": "Baptist Health Arkansas", "phone": "(501) 202-1902", "brand": "Baptist Health Foundation", "brand:wikidata": "Q50379824"}, "geometry": {"type": "Point", "coordinates": [-92.7878567, 34.3587893]}},
{"type": "Feature", "id": "tPneUDYSq7nIKOmrxz4JlAqA1xc=", "properties": {"ref": "#1 Lile Court Little RockAR", "@spider": "bha", "addr:full": "#1 Lile Court ", "addr:city": "Little Rock", "addr:state": "AR", "addr:postcode": "72205", "addr:country": "US", "name": "Baptist Health Arkansas", "phone": "(501) 202-1902", "brand": "Baptist Health Foundation", "brand:wikidata": "Q50379824"}, "geometry": {"type": "Point", "coordinates": [-92.3784177, 34.7457056]}},
{"type": "Feature", "id": "CCLpdbf4D47JSnaX1MxDB7IJiAQ=", "properties": {"ref": "1001 Towson Avenue Fort Smith AR", "@spider": "bha", "addr:full": "1001 Towson Avenue ", "addr:city": "Fort Smith ", "addr:state": "AR", "addr:postcode": "72956", "addr:country": "US", "name": "Baptist Health Arkansas", "phone": "479-441-5255", "brand": "Baptist Health Foundation", "brand:wikidata": "Q50379824"}, "geometry": {"type": "Point", "coordinates": [-94.41972, 35.374367]}},
{"type": "Feature", "id": "KhG56CXJXpuEA04su4sE3b-XXFM=", "properties": {"ref": "2915 CypressArkadelphiaAR", "@spider": "bha", "addr:full": "2915 Cypress", "addr:city": "Arkadelphia", "addr:state": "AR", "addr:postcode": "71923", "addr:country": "US", "name": "Baptist Health Arkansas", "phone": "(870) 246-5097", "brand": "Baptist Health Foundation", "brand:wikidata": "Q50379824"}, "geometry": {"type": "Point", "coordinates": [-93.088247, 34.123668]}},
{"type": "Feature", "id": "GzsZy7GJad4qTJxRxoESGANIH8k=", "properties": {"ref": "100 East 20th St.HopeAR", "@spider": "bha", "addr:full": "100 East 20th St.", "addr:city": "Hope", "addr:state": "AR", "addr:postcode": "71801", "addr:country": "US", "name": "Baptist Health Arkansas", "phone": "870-245-3002", "brand": "Baptist Health Foundation", "brand:wikidata": "Q50379824"}, "geometry": {"type": "Point", "coordinates": [93.586162, 33.649308]}},
{"type": "Feature", "id": "fnB5ojkgFXTFnaHgBJ1MTMygQFU=", "properties": {"ref": "20 Baptist Health Dr.Heber SpringsAR", "@spider": "bha", "addr:full": "20 Baptist Health Dr.", "addr:city": "Heber Springs", "addr:state": "AR", "addr:postcode": "72543", "addr:country": "US", "name": "Baptist Health Arkansas", "phone": "(501) 887-3279", "brand": "Baptist Health Foundation", "brand:wikidata": "Q50379824"}, "geometry": {"type": "Point", "coordinates": [-91.9961097, 35.5049894]}},
{"type": "Feature", "id": "smaWzTdidjcmDy5ATyz4AzodEts=", "properties": {"ref": "1002 Schneider DriveMalvernAR", "@spider": "bha", "addr:full": "1002 Schneider Drive", "addr:city": "Malvern", "addr:state": "AR", "addr:postcode": "72104", "addr:country": "US", "name": "Baptist Health Arkansas", "phone": "(501) 332-1012", "brand": "Baptist Health Foundation", "brand:wikidata": "Q50379824"}, "geometry": {"type": "Point", "coordinates": [-92.7856837, 34.3588708]}},
{"type": "Feature", "id": "RR-a0b82Z4bQQ5Oi0heHUud4-a0=", "properties": {"ref": "9101 Kanis RoadLittle RockAR", "@spider": "bha", "addr:full": "9101 Kanis Road", "addr:city": "Little Rock", "addr:state": "AR", "addr:postcode": "72205", "addr:country": "US", "name": "Baptist Health Arkansas", "phone": "(501) 202-6767", "brand": "Baptist Health Foundation", "brand:wikidata": "Q50379824"}, "geometry": {"type": "Point", "coordinates": [-92.3762816, 34.7406605]}},
{"type": "Feature", "id": "LUWtqFb_MgYMqDcrCb5-8K5ecyM=", "properties": {"ref": "1609 North Medical DriveStuttgartAR", "@spider": "bha", "addr:full": "1609 North Medical Drive", "addr:city": "Stuttgart", "addr:state": "AR", "addr:postcode": "72160", "addr:country": "US", "name": "Baptist Health Arkansas", "phone": "(870) 673-7211", "brand": "Baptist Health Foundation", "brand:wikidata": "Q50379824"}, "geometry": {"type": "Point", "coordinates": [-91.558651, 34.516683]}},
{"type": "Feature", "id": "OSDrjS9g00oBIfMbKLy0Ct_bvi8=", "properties": {"ref": "650 United Dr.ConwayAR", "@spider": "bha", "addr:full": "650 United Dr.", "addr:city": "Conway", "addr:state": "AR", "addr:postcode": "72032", "addr:country": "US", "name": "Baptist Health Arkansas", "phone": "(501) 329-1415", "brand": "Baptist Health Foundation", "brand:wikidata": "Q50379824"}, "geometry": {"type": "Point", "coordinates": [-92.4201765, 35.0587283]}},
{"type": "Feature", "id": "J2jzSNpp3oe-uYbzBoWyQH74EAE=", "properties": {"ref": "923 Lexington Ave.Fort SmithAR", "@spider": "bha", "addr:full": "923 Lexington Ave.", "addr:city": "Fort Smith", "addr:state": "AR", "addr:postcode": "72901", "addr:country": "US", "name": "Baptist Health Arkansas", "phone": "(479) 709-7350", "brand": "Baptist Health Foundation", "brand:wikidata": "Q50379824"}, "geometry": {"type": "Point", "coordinates": [-94.4174855, 35.3746617]}},
{"type": "Feature", "id": "-Q-lYtd3_GHhiooBGSfJTkVoYhY=", "properties": {"ref": "312 Professional Park Dr.ArkadelphiaAR", "@spider": "bha", "addr:full": "312 Professional Park Dr.", "addr:city": "Arkadelphia", "addr:state": "AR", "addr:postcode": "71923", "addr:country": "US", "name": "Baptist Health Arkansas", "phone": "(870) 245-1385", "brand": "Baptist Health Foundation", "brand:wikidata": "Q50379824"}, "geometry": {"type": "Point", "coordinates": [-93.088247, 34.123668]}},
{"type": "Feature", "id": "4BDLdSGbxs2eQ6F_NFa-9C55-8I=", "properties": {"ref": "825 West Carpenter StreetBentonAR", "@spider": "bha", "addr:full": "825 West Carpenter Street", "addr:city": "Benton", "addr:state": "AR", "addr:postcode": "72015", "addr:country": "US", "name": "Baptist Health Arkansas", "phone": "(501) 315-1803", "brand": "Baptist Health Foundation", "brand:wikidata": "Q50379824"}, "geometry": {"type": "Point", "coordinates": [-92.5889, 34.571448]}},
{"type": "Feature", "id": "S2Xal7o1Pv3FECar-moUFzGd3J0=", "properties": {"ref": "200 North Bowman RoadLittle RockAR", "@spider": "bha", "addr:full": "200 North Bowman Road", "addr:city": "Little Rock", "addr:state": "AR", "addr:postcode": "72211", "addr:country": "US", "name": "Baptist Health Arkansas", "phone": "(501) 228-0107", "brand": "Baptist Health Foundation", "brand:wikidata": "Q50379824"}, "geometry": {"type": "Point", "coordinates": [-92.4067786, 34.7560028]}},
{"type": "Feature", "id": "UZ_7h0aWP83hjmnDkPNwbQFSnOo=", "properties": {"ref": "612 Office Park DriveBryantAR", "@spider": "bha", "addr:full": "612 Office Park Drive", "addr:city": "Bryant", "addr:state": "AR", "addr:postcode": "72022", "addr:country": "US", "name": "Baptist Health Arkansas", "phone": "(501) 847-5978", "brand": "Baptist Health Foundation", "brand:wikidata": "Q50379824"}, "geometry": {"type": "Point", "coordinates": [-92.5013794, 34.6230699]}},
{"type": "Feature", "id": "6lQTrGQ04P0nkkgRl18aVVDGUHg=", "properties": {"ref": "100 Northport Dr.CabotAR", "@spider": "bha", "addr:full": "100 Northport Dr.", "addr:city": "Cabot", "addr:state": "AR", "addr:postcode": "72023", "addr:country": "US", "name": "Baptist Health Arkansas", "phone": "(501) 843-9893", "brand": "Baptist Health Foundation", "brand:wikidata": "Q50379824"}, "geometry": {"type": "Point", "coordinates": [-92.043327, 34.980591]}},
{"type": "Feature", "id": "zoqj2CkNoo4QVIxyeklxcsQXwzM=", "properties": {"ref": "815 Hogan LaneConwayAR", "@spider": "bha", "addr:full": "815 Hogan Lane", "addr:city": "Conway", "addr:state": "AR", "addr:postcode": "72034", "addr:country": "US", "name": "Baptist Health Arkansas", "phone": "(501) 329-1888", "brand": "Baptist Health Foundation", "brand:wikidata": "Q50379824"}, "geometry": {"type": "Point", "coordinates": [-92.498474, 35.090526]}},
{"type": "Feature", "id": "YRkIhnxhnrmJfr86hYXbbs0B_0g=", "properties": {"ref": "381 Dave Creek ParkwayFairfield BayAR", "@spider": "bha", "addr:full": "381 Dave Creek Parkway", "addr:city": "Fairfield Bay", "addr:state": "AR", "addr:postcode": "72088", "addr:country": "US", "name": "Baptist Health Arkansas", "phone": "(501) 884-4122", "brand": "Baptist Health Foundation", "brand:wikidata": "Q50379824"}, "geometry": {"type": "Point", "coordinates": [-92.265083, 35.61022]}},
{"type": "Feature", "id": "5FH3zvEIaRhOk57R1LbarHV-6Oo=", "properties": {"ref": "624 Towson AvenueFort SmithAR", "@spider": "bha", "addr:full": "624 Towson Avenue", "addr:city": "Fort Smith", "addr:state": "AR", "addr:postcode": "72901", "addr:country": "US", "name": "Baptist Health Arkansas", "phone": "(479) 441-5361", "brand": "Baptist Health Foundation", "brand:wikidata": "Q50379824"}, "geometry": {"type": "Point", "coordinates": [-94.4213945, 35.3774141]}},
{"type": "Feature", "id": "t0_5wn1x5C3hGeG2YN2VgAk2nq4=", "properties": {"ref": "49 South BroadviewGreenbrierAR", "@spider": "bha", "addr:full": "49 South Broadview", "addr:city": "Greenbrier", "addr:state": "AR", "addr:postcode": "72058", "addr:country": "US", "name": "Baptist Health Arkansas", "phone": "(501) 679-5360", "brand": "Baptist Health Foundation", "brand:wikidata": "Q50379824"}, "geometry": {"type": "Point", "coordinates": [-92.3886517, 35.2296175]}},
{"type": "Feature", "id": "TUDqW6AzgcsPx0fY8dJzdhR4fds=", "properties": {"ref": "1415 Hwy 25B NHeber SpringsAR", "@spider": "bha", "addr:full": "1415 Hwy 25B N", "addr:city": "Heber Springs", "addr:state": "AR", "addr:postcode": "72543", "addr:country": "US", "name": "Baptist Health Arkansas", "phone": "(501) 206-2482", "brand": "Baptist Health Foundation", "brand:wikidata": "Q50379824"}, "geometry": {"type": "Point", "coordinates": [-92.0286976, 35.5060838]}},
{"type": "Feature", "id": "KCty2LeDIsQj0PULCKCxW7E2BOg=", "properties": {"ref": "5618 R StreetLittle RockAR", "@spider": "bha", "addr:full": "5618 R Street", "addr:city": "Little Rock", "addr:state": "AR", "addr:postcode": "72207", "addr:country": "US", "name": "Baptist Health Arkansas", "phone": "(501) 661-1555", "brand": "Baptist Health Foundation", "brand:wikidata": "Q50379824"}, "geometry": {"type": "Point", "coordinates": [-92.33657, 34.769423]}},
{"type": "Feature", "id": "4Z56hzlAbzLEZaB-1WHgk-cDcHg=", "properties": {"ref": "117 Gregory Place Shopping CenterJacksonvilleAR", "@spider": "bha", "addr:full": "117 Gregory Place Shopping Center", "addr:city": "Jacksonville", "addr:state": "AR", "addr:postcode": "72016", "addr:country": "US", "name": "Baptist Health Arkansas", "phone": "(501) 241-1193", "brand": "Baptist Health Foundation", "brand:wikidata": "Q50379824"}, "geometry": {"type": "Point", "coordinates": [-92.110492, 34.879475]}},
{"type": "Feature", "id": "u0avtR2zYCfa8_mWAOjOwVQ1Ves=", "properties": {"ref": "1310 N. Center St.LonokeAR", "@spider": "bha", "addr:full": "1310 N. Center St.", "addr:city": "Lonoke", "addr:state": "AR", "addr:postcode": "72086", "addr:country": "US", "name": "Baptist Health Arkansas", "phone": "(501) 676-9466", "brand": "Baptist Health Foundation", "brand:wikidata": "Q50379824"}, "geometry": {"type": "Point", "coordinates": [-91.897866, 34.79523]}},
{"type": "Feature", "id": "pZXM7N_1vMY-q7gPy6zT2RchQSU=", "properties": {"ref": "1701 Club Manor DriveMaumelleAR", "@spider": "bha", "addr:full": "1701 Club Manor Drive", "addr:city": "Maumelle", "addr:state": "AR", "addr:postcode": "72113", "addr:country": "US", "name": "Baptist Health Arkansas", "phone": "(501) 851-8504", "brand": "Baptist Health Foundation", "brand:wikidata": "Q50379824"}, "geometry": {"type": "Point", "coordinates": [-92.405244, 34.854612]}},
{"type": "Feature", "id": "HUnCucOLA-PRc0XB69vZav8y3Fc=", "properties": {"ref": "2601 McCain Boulevard,North Little RockAR", "@spider": "bha", "addr:full": "2601 McCain Boulevard,", "addr:city": "North Little Rock", "addr:state": "AR", "addr:postcode": "72216", "addr:country": "US", "name": "Baptist Health Arkansas", "phone": "(501) 202-3442", "brand": "Baptist Health Foundation", "brand:wikidata": "Q50379824"}, "geometry": {"type": "Point", "coordinates": [-92.2368486, 34.7960227]}},
{"type": "Feature", "id": "R7JGybWVFi6Q7I1yYmnzpFUJ-T0=", "properties": {"ref": "11401 Interstate 30Little RockAR", "@spider": "bha", "addr:full": "11401 Interstate 30", "addr:city": "Little Rock", "addr:state": "AR", "addr:postcode": "72209", "addr:country": "US", "name": "Baptist Health Arkansas", "phone": "(501) 202-6690", "brand": "Baptist Health Foundation", "brand:wikidata": "Q50379824"}, "geometry": {"type": "Point", "coordinates": [-92.402908, 34.657651]}},
{"type": "Feature", "id": "ZfSslWZqGpKHTHJdy1KQhbMTPWE=", "properties": {"ref": "5900 Ranch DriveLittle RockAR", "@spider": "bha", "addr:full": "5900 Ranch Drive", "addr:city": "Little Rock", "addr:state": "AR", "addr:postcode": "72223", "addr:country": "US", "name": "Baptist Health Arkansas", "phone": "(501) 868-9694", "brand": "Baptist Health Foundation", "brand:wikidata": "Q50379824"}, "geometry": {"type": "Point", "coordinates": [-92.462902, 34.808056]}},
{"type": "Feature", "id": "hAFcDYq-8QeS2YMCvMOnLHgE1Us=", "properties": {"ref": "1409 S. Rock StreetSheridanAR", "@spider": "bha", "addr:full": "1409 S. Rock Street", "addr:city": "Sheridan", "addr:state": "AR", "addr:postcode": "72150", "addr:country": "US", "name": "Baptist Health Arkansas", "phone": "(870) 942-7911", "brand": "Baptist Health Foundation", "brand:wikidata": "Q50379824"}, "geometry": {"type": "Point", "coordinates": [-92.399608, 34.289437]}},
{"type": "Feature", "id": "jeDGXDIHmyN_xunKnvYFEtY4VRo=", "properties": {"ref": "2001 East Kiehl #7SherwoodAR", "@spider": "bha", "addr:full": "2001 East Kiehl #7", "addr:city": "Sherwood", "addr:state": "AR", "addr:postcode": "72120", "addr:country": "US", "name": "Baptist Health Arkansas", "phone": "(501) 835-7543", "brand": "Baptist Health Foundation", "brand:wikidata": "Q50379824"}, "geometry": {"type": "Point", "coordinates": [-92.210862, 34.832835]}},
{"type": "Feature", "id": "HGRGfKXxYgny2SIf4o1RkwxiwP4=", "properties": {"ref": "1703 N Buerkle StreetStuttgartAR", "@spider": "bha", "addr:full": "1703 N Buerkle Street", "addr:city": "Stuttgart", "addr:state": "AR", "addr:postcode": "72160", "addr:country": "US", "name": "Baptist Health Arkansas", "phone": "(870) 673-8775", "brand": "Baptist Health Foundation", "brand:wikidata": "Q50379824"}, "geometry": {"type": "Point", "coordinates": [-91.559144, 34.479928]}},
{"type": "Feature", "id": "jauAWQZNX_KjLMwSd9ANzQMOHLQ=", "properties": {"ref": "2020 ChestnutVan BurenAR", "@spider": "bha", "addr:full": "2020 Chestnut", "addr:city": "Van Buren", "addr:state": "AR", "addr:postcode": "72956", "addr:country": "US", "name": "Baptist Health Arkansas", "phone": "(479) 471-4545", "brand": "Baptist Health Foundation", "brand:wikidata": "Q50379824"}, "geometry": {"type": "Point", "coordinates": [-94.3401271, 35.4345835]}},
{"type": "Feature", "id": "0_ZhhbQxxLLG0fVN8BXjTUOD-wA=", "properties": {"ref": "2801 Rogers Ave.Fort SmithAR", "@spider": "bha", "addr:full": "2801 Rogers Ave.", "addr:city": "Fort Smith", "addr:state": "AR", "addr:postcode": "72901", "addr:country": "US", "name": "Baptist Health Arkansas", "phone": "(479) 226-8770", "brand": "Baptist Health Foundation", "brand:wikidata": "Q50379824"}, "geometry": {"type": "Point", "coordinates": [-94.40195, 35.37574]}},
{"type": "Feature", "id": "A7Guv0Zcvw2xgF68No_lCh0ktzI=", "properties": {"ref": "2069 W. Center StreetBeebeAR", "@spider": "bha", "addr:full": "2069 W. Center Street", "addr:city": "Beebe", "addr:state": "AR", "addr:postcode": "72012", "addr:country": "US", "name": "Baptist Health Arkansas", "phone": "(501) 628-9212", "brand": "Baptist Health Foundation", "brand:wikidata": "Q50379824"}, "geometry": {"type": "Point", "coordinates": [-91.9086666, 35.0684707]}},
{"type": "Feature", "id": "UwjAVo9mak-S5cYWzT5kzsGk2m8=", "properties": {"ref": "824 Military Rd.BentonAR", "@spider": "bha", "addr:full": "824 Military Rd.", "addr:city": "Benton", "addr:state": "AR", "addr:postcode": "72015", "addr:country": "US", "name": "Baptist Health Arkansas", "phone": "(501) 574-3019", "brand": "Baptist Health Foundation", "brand:wikidata": "Q50379824"}, "geometry": {"type": "Point", "coordinates": [-92.5837995, 34.5713025]}},
{"type": "Feature", "id": "BXmp5GlZm43DD60jmieOm4AAzjM=", "properties": {"ref": "3304 Commonwealth DriveBryantAR", "@spider": "bha", "addr:full": "3304 Commonwealth Drive", "addr:city": "Bryant", "addr:state": "AR", "addr:postcode": "72022", "addr:country": "US", "name": "Baptist Health Arkansas", "phone": "(501) 205-7020", "brand": "Baptist Health Foundation", "brand:wikidata": "Q50379824"}, "geometry": {"type": "Point", "coordinates": [-92.5001426, 34.6286041]}},
{"type": "Feature", "id": "EREaPMMPypnZyeY7sbjfT30c3bc=", "properties": {"ref": "402 W. Main St.CabotAR", "@spider": "bha", "addr:full": "402 W. Main St.", "addr:city": "Cabot", "addr:state": "AR", "addr:postcode": "72023", "addr:country": "US", "name": "Baptist Health Arkansas", "phone": "(501) 628-9215", "brand": "Baptist Health Foundation", "brand:wikidata": "Q50379824"}, "geometry": {"type": "Point", "coordinates": [-92.0189704, 34.9758694]}},
{"type": "Feature", "id": "hovVC671_lBivME2-6XwGtDhnrw=", "properties": {"ref": "7600 Rogers Ave. Fort SmithAR", "@spider": "bha", "addr:full": "7600 Rogers Ave. ", "addr:city": "Fort Smith", "addr:state": "AR", "addr:postcode": "72903", "addr:country": "US", "name": "Baptist Health Arkansas", "phone": "(479) 226-8340", "brand": "Baptist Health Foundation", "brand:wikidata": "Q50379824"}, "geometry": {"type": "Point", "coordinates": [-94.348464, 35.351579]}},
{"type": "Feature", "id": "QlR-zYUyr9WIpS6eNMqApcmd9v0=", "properties": {"ref": "1910 S. Zero StreetFort SmithAR", "@spider": "bha", "addr:full": "1910 S. Zero Street", "addr:city": "Fort Smith", "addr:state": "AR", "addr:postcode": "72901", "addr:country": "US", "name": "Baptist Health Arkansas", "phone": "(479) 259-9239", "brand": "Baptist Health Foundation", "brand:wikidata": "Q50379824"}, "geometry": {"type": "Point", "coordinates": [-94.4175625, 35.3275454]}},
{"type": "Feature", "id": "RgEGuFrk6iDeblqo9EzcHOFxJEc=", "properties": {"ref": "1813 T.P. White DriveJacksonvilleAR", "@spider": "bha", "addr:full": "1813 T.P. White Drive", "addr:city": "Jacksonville", "addr:state": "AR", "addr:postcode": "72076", "addr:country": "US", "name": "Baptist Health Arkansas", "phone": "(501) 241-4510", "brand": "Baptist Health Foundation", "brand:wikidata": "Q50379824"}, "geometry": {"type": "Point", "coordinates": [-92.1088028, 34.8841796]}},
{"type": "Feature", "id": "zaxzso5YQwGa8_-N50oAHqqfcjw=", "properties": {"ref": "6805 Cantrell Rd.Little RockAR", "@spider": "bha", "addr:full": "6805 Cantrell Rd.", "addr:city": "Little Rock", "addr:state": "AR", "addr:postcode": "72207", "addr:country": "US", "name": "Baptist Health Arkansas", "phone": "(501) 260-7992", "brand": "Baptist Health Foundation", "brand:wikidata": "Q50379824"}, "geometry": {"type": "Point", "coordinates": [-92.3509625, 34.7681534]}},
{"type": "Feature", "id": "xgvYZObtA505_j4OF6RXfJ-Sw78=", "properties": {"ref": "11402 W. Markham St.Little RockAR", "@spider": "bha", "addr:full": "11402 W. Markham St.", "addr:city": "Little Rock", "addr:state": "AR", "addr:postcode": "72211", "addr:country": "US", "name": "Baptist Health Arkansas", "phone": "501-482-3389", "brand": "Baptist Health Foundation", "brand:wikidata": "Q50379824"}, "geometry": {"type": "Point", "coordinates": [-92.39994, 34.75428]}},
{"type": "Feature", "id": "fMQTMHXMmRZBCW4CkFZylBHxX4c=", "properties": {"ref": "14524 Cantrell Rd.Little RockAR", "@spider": "bha", "addr:full": "14524 Cantrell Rd.", "addr:city": "Little Rock", "addr:state": "AR", "addr:postcode": "72223", "addr:country": "US", "name": "Baptist Health Arkansas", "phone": "(501) 482-3074", "brand": "Baptist Health Foundation", "brand:wikidata": "Q50379824"}, "geometry": {"type": "Point", "coordinates": [-92.4374986, 34.8025327]}},
{"type": "Feature", "id": "zllOO5krSg1xpuL7qUt8C7TyFFQ=", "properties": {"ref": "3550 Springhill DriveNorth Little RockAR", "@spider": "bha", "addr:full": "3550 Springhill Drive", "addr:city": "North Little Rock", "addr:state": "AR", "addr:postcode": "72117", "addr:country": "US", "name": "Baptist Health Arkansas", "phone": "(501) 214-7177", "brand": "Baptist Health Foundation", "brand:wikidata": "Q50379824"}, "geometry": {"type": "Point", "coordinates": [-92.2195579, 34.787924]}},
{"type": "Feature", "id": "6CR_-VM6_Yedkf9YcPG4pgyEzsw=", "properties": {"ref": "1902 Fayetteville Rd.Van BurenAR", "@spider": "bha", "addr:full": "1902 Fayetteville Rd.", "addr:city": "Van Buren", "addr:state": "AR", "addr:postcode": "72956", "addr:country": "US", "name": "Baptist Health Arkansas", "phone": "(479) 208-5047", "brand": "Baptist Health Foundation", "brand:wikidata": "Q50379824"}, "geometry": {"type": "Point", "coordinates": [-94.3558393, 35.4642891]}},
{"type": "Feature", "id": "LvB-IBi8zMvOcbWyMv0rdySt5CQ=", "properties": {"ref": "5500 Ellsworth RoadFort SmithAR", "@spider": "bha", "addr:full": "5500 Ellsworth Road", "addr:city": "Fort Smith", "addr:state": "AR", "addr:postcode": "72903", "addr:country": "US", "name": "Baptist Health Arkansas", "phone": "(479) 709-7295", "brand": "Baptist Health Foundation", "brand:wikidata": "Q50379824"}, "geometry": {"type": "Point", "coordinates": [-94.3706648, 35.3653311]}},
{"type": "Feature", "id": "d8KdiM3x3SSYLnCk8jqRbhcIJCk=", "properties": {"ref": "3808 Gary Street, Ste BFort SmithAR", "@spider": "bha", "addr:full": "3808 Gary Street, Ste B", "addr:city": "Fort Smith", "addr:state": "AR", "addr:postcode": "72903", "addr:country": "US", "name": "Baptist Health Arkansas", "phone": "479-709-7020", "brand": "Baptist Health Foundation", "brand:wikidata": "Q50379824"}, "geometry": {"type": "Point", "coordinates": [-94.3907663, 35.3485589]}},
{"type": "Feature", "id": "9FrKvne5ddApX_z9VOXJYnPyris=", "properties": {"ref": "10915 N. Rodney Parham RoadLittle RockAR", "@spider": "bha", "addr:full": "10915 N. Rodney Parham Road", "addr:city": "Little Rock", "addr:state": "AR", "addr:postcode": "72212", "addr:country": "US", "name": "Baptist Health Arkansas", "phone": "(501) 202-2001, ext. 1", "brand": "Baptist Health Foundation", "brand:wikidata": "Q50379824"}, "geometry": {"type": "Point", "coordinates": [-92.3971703, 34.770512]}},
{"type": "Feature", "id": "QDuyoQSSrtxxxsrQoxGvSlaXf_E=", "properties": {"ref": "819 West CarpenterBentonAR", "@spider": "bha", "addr:full": "819 West Carpenter", "addr:city": "Benton", "addr:state": "AR", "addr:postcode": "72015", "addr:country": "US", "name": "Baptist Health Arkansas", "phone": "501-224-6699", "brand": "Baptist Health Foundation", "brand:wikidata": "Q50379824"}, "geometry": {"type": "Point", "coordinates": [-92.588928, 34.5711005]}},
{"type": "Feature", "id": "z4Fmuf-ecqltcBxj0hqhjWBSsAI=", "properties": {"ref": "1001 Towson AveFort SmithAR", "@spider": "bha", "addr:full": "1001 Towson Ave", "addr:city": "Fort Smith", "addr:state": "AR", "addr:postcode": "72901", "addr:country": "US", "name": "Baptist Health Arkansas", "phone": "(479) 441-5078", "brand": "Baptist Health Foundation", "brand:wikidata": "Q50379824"}, "geometry": {"type": "Point", "coordinates": [-94.4182919, 35.372811]}},
{"type": "Feature", "id": "hyaKrE4m8XpnAw0dwmEi3MJaa8g=", "properties": {"ref": "14322 Chenal ParkwayLittle RockAR", "@spider": "bha", "addr:full": "14322 Chenal Parkway", "addr:city": "Little Rock", "addr:state": "AR", "addr:postcode": "72211", "addr:country": "US", "name": "Baptist Health Arkansas", "phone": "(501) 202-6100", "brand": "Baptist Health Foundation", "brand:wikidata": "Q50379824"}, "geometry": {"type": "Point", "coordinates": [-92.431222, 34.758065]}},
{"type": "Feature", "id": "gxzSuJQjcJZ8VVn2O-vnKvH296s=", "properties": {"ref": "3201 Springhill Dr.North Little RockAR", "@spider": "bha", "addr:full": "3201 Springhill Dr.", "addr:city": "North Little Rock", "addr:state": "AR", "addr:postcode": "72117", "addr:country": "US", "name": "Baptist Health Arkansas", "phone": "(501) 202-3800", "brand": "Baptist Health Foundation", "brand:wikidata": "Q50379824"}, "geometry": {"type": "Point", "coordinates": [-92.218, 34.781225]}},
{"type": "Feature", "id": "TkacBbYrSNSgRFJopp4XLsG-YO8=", "properties": {"ref": "353 Cash Rd.CamdenAR", "@spider": "bha", "addr:full": "353 Cash Rd.", "addr:city": "Camden", "addr:state": "AR", "addr:postcode": "71701", "addr:country": "US", "name": "Baptist Health Arkansas", "phone": "(870) 836-8101", "brand": "Baptist Health Foundation", "brand:wikidata": "Q50379824"}, "geometry": {"type": "Point", "coordinates": [-92.850865, 33.581742]}},
{"type": "Feature", "id": "dzSdOfejIRScc8WRBdqjRdEUNTg=", "properties": {"ref": "14311 Chenal ParkwayLittle RockAR", "@spider": "bha", "addr:full": "14311 Chenal Parkway", "addr:city": "Little Rock", "addr:state": "AR", "addr:postcode": "72211", "addr:country": "US", "name": "Baptist Health Arkansas", "phone": "(501) 202-1645", "brand": "Baptist Health Foundation", "brand:wikidata": "Q50379824"}, "geometry": {"type": "Point", "coordinates": [-92.433162, 34.754889]}},
{"type": "Feature", "id": "byX_QshjpQ9YtVf1qoDNY7VGLmw=", "properties": {"ref": "14328 Chenal ParkwayLittle RockAR", "@spider": "bha", "addr:full": "14328 Chenal Parkway", "addr:city": "Little Rock", "addr:state": "AR", "addr:postcode": "72211", "addr:country": "US", "name": "Baptist Health Arkansas", "phone": "(501) 202-1669", "brand": "Baptist Health Foundation", "brand:wikidata": "Q50379824"}, "geometry": {"type": "Point", "coordinates": [-92.433162, 34.754889]}},
{"type": "Feature", "id": "TcQxeOCL3-JC_cwdcd3HDbHTVKA=", "properties": {"ref": "14300 Chenal ParkwayLittle RockAR", "@spider": "bha", "addr:full": "14300 Chenal Parkway", "addr:city": "Little Rock", "addr:state": "AR", "addr:postcode": "72211", "addr:country": "US", "name": "Baptist Health Arkansas", "phone": "(501) 202-1600", "brand": "Baptist Health Foundation", "brand:wikidata": "Q50379824"}, "geometry": {"type": "Point", "coordinates": [-92.4327085, 34.7567795]}},
{"type": "Feature", "id": "G743OGpJb0OK9HmIwh5qMJ1nHf0=", "properties": {"ref": "1308 East Kiehl AvenueSherwoodAR", "@spider": "bha", "addr:full": "1308 East Kiehl Avenue", "addr:city": "Sherwood", "addr:state": "AR", "addr:postcode": "72120", "addr:country": "US", "name": "Baptist Health Arkansas", "phone": "(501) 835-0703", "brand": "Baptist Health Foundation", "brand:wikidata": "Q50379824"}, "geometry": {"type": "Point", "coordinates": [-92.218364, 34.832681]}}]}