{"type":"FeatureCollection","features":[{"type": "Feature", "id": "SLR6gcGjXBOiok4xaUWFL1YmCfY=", "properties": {"ref": "STORE 1039", "@spider": "biggby", "amenity": "cafe", "cuisine": "coffee_shop", "takeaway": "yes", "addr:full": "1936 East Second Street", "addr:city": "Defiance", "addr:state": "OH", "addr:postcode": "43512", "name": "Biggby Coffee STORE 1039", "brand": "Biggby Coffee", "brand:wikidata": "Q4906876", "nsi_id": "biggbycoffee-243cad"}, "geometry": {"type": "Point", "coordinates": [-84.325238, 41.2829933]}},
{"type": "Feature", "id": "fEqC0s6kedZRPLnUKz0eyJgvbn4=", "properties": {"ref": "STORE 804", "@spider": "biggby", "amenity": "cafe", "cuisine": "coffee_shop", "takeaway": "yes", "addr:full": "114 Goldsboro Street", "addr:city": "Pikeville", "addr:state": "NC", "addr:postcode": "27863", "name": "Biggby Coffee STORE 804", "brand": "Biggby Coffee", "brand:wikidata": "Q4906876", "nsi_id": "biggbycoffee-243cad"}, "geometry": {"type": "Point", "coordinates": [-77.9813381, 35.4973393]}},
{"type": "Feature", "id": "ksaqQ8M0w5QTNDsuJlhO0FzZIHI=", "properties": {"ref": "STORE 1020", "@spider": "biggby", "amenity": "cafe", "cuisine": "coffee_shop", "takeaway": "yes", "addr:full": "1617 Claremont Avenue", "addr:city": "Ashland", "addr:state": "OH", "addr:postcode": "44805", "name": "Biggby Coffee STORE 1020", "brand": "Biggby Coffee", "brand:wikidata": "Q4906876", "nsi_id": "biggbycoffee-243cad"}, "geometry": {"type": "Point", "coordinates": [-82.3366266, 40.8528512]}},
{"type": "Feature", "id": "H_dZt9f4OqaRKGmjxa1ACk_CjT8=", "properties": {"ref": "STORE 1004", "@spider": "biggby", "amenity": "cafe", "cuisine": "coffee_shop", "takeaway": "yes", "addr:full": "3360 Walker Avenue", "addr:city": "Walker", "addr:state": "MI", "addr:postcode": "49534", "name": "Biggby Coffee STORE 1004", "brand": "Biggby Coffee", "brand:wikidata": "Q4906876", "nsi_id": "biggbycoffee-243cad"}, "geometry": {"type": "Point", "coordinates": [-85.7270431, 43.0251954]}},
{"type": "Feature", "id": "_6fu_0nDNMR7cqg2-yEU6ZiNdBg=", "properties": {"ref": "STORE 841", "@spider": "biggby", "amenity": "cafe", "cuisine": "coffee_shop", "takeaway": "yes", "addr:full": "24408 Van Dyke Ave", "addr:city": "Centerline", "addr:state": "MI", "addr:postcode": "48015", "name": "Biggby Coffee STORE 841", "brand": "Biggby Coffee", "brand:wikidata": "Q4906876", "nsi_id": "biggbycoffee-243cad"}, "geometry": {"type": "Point", "coordinates": [-83.0266129, 42.4733961]}},
{"type": "Feature", "id": "8CrhXEb_F0W3pWT7QsLdtPYTQns=", "properties": {"ref": "STORE 811", "@spider": "biggby", "amenity": "cafe", "cuisine": "coffee_shop", "takeaway": "yes", "addr:full": "10726 Sawmill Parkway", "addr:city": "Powell", "addr:state": "OH", "addr:postcode": "43065", "name": "Biggby Coffee STORE 811", "brand": "Biggby Coffee", "brand:wikidata": "Q4906876", "nsi_id": "biggbycoffee-243cad"}, "geometry": {"type": "Point", "coordinates": [-83.0893646, 40.1429379]}},
{"type": "Feature", "id": "AIkKIlM2TEmDY0o2NPgC5GzM5EY=", "properties": {"ref": "STORE 826", "@spider": "biggby", "amenity": "cafe", "cuisine": "coffee_shop", "takeaway": "yes", "addr:full": "2041 S Ortonville Rd", "addr:city": "Ortonville", "addr:state": "MI", "addr:postcode": "48462", "name": "Biggby Coffee STORE 826", "brand": "Biggby Coffee", "brand:wikidata": "Q4906876", "nsi_id": "biggbycoffee-243cad"}, "geometry": {"type": "Point", "coordinates": [-83.4396159, 42.8228175]}},
{"type": "Feature", "id": "U4-qbZc6ARekoFoo2CcH57mKthQ=", "properties": {"ref": "STORE 857", "@spider": "biggby", "amenity": "cafe", "cuisine": "coffee_shop", "takeaway": "yes", "addr:full": "16-62 Martha Layne Collins Blvd", "addr:city": "Cold Spring", "addr:state": "KY", "addr:postcode": "41076", "name": "Biggby Coffee STORE 857", "brand": "Biggby Coffee", "brand:wikidata": "Q4906876", "nsi_id": "biggbycoffee-243cad"}, "geometry": {"type": "Point", "coordinates": [-84.4510276, 39.0273298]}},
{"type": "Feature", "id": "8bO2sg_K40avvb33N2pEf5doI9k=", "properties": {"ref": "STORE 854", "@spider": "biggby", "amenity": "cafe", "cuisine": "coffee_shop", "takeaway": "yes", "addr:city": "Osceola County", "addr:state": "MI", "name": "Biggby Coffee STORE 854", "brand": "Biggby Coffee", "brand:wikidata": "Q4906876", "nsi_id": "biggbycoffee-243cad"}, "geometry": {"type": "Point", "coordinates": [-85.354965, 43.9257279]}},
{"type": "Feature", "id": "BOp0yTbPNMuli09Jk0_bhbpheY4=", "properties": {"ref": "STORE 724", "@spider": "biggby", "amenity": "cafe", "cuisine": "coffee_shop", "takeaway": "yes", "addr:full": "8587 Beach Boulevard", "addr:city": "Jacksonville", "addr:state": "FL", "addr:postcode": "32216", "name": "Biggby Coffee STORE 724", "brand": "Biggby Coffee", "brand:wikidata": "Q4906876", "nsi_id": "biggbycoffee-243cad"}, "geometry": {"type": "Point", "coordinates": [-81.5673977, 30.2878443]}},
{"type": "Feature", "id": "8c31JNeqdY6W5GSYnNl0NTI5cew=", "properties": {"ref": "STORE 715", "@spider": "biggby", "amenity": "cafe", "cuisine": "coffee_shop", "takeaway": "yes", "addr:full": "35111 Center Ridge Road", "addr:city": "North Ridgeville", "addr:state": "OH", "addr:postcode": "44039", "name": "Biggby Coffee STORE 715", "brand": "Biggby Coffee", "brand:wikidata": "Q4906876", "nsi_id": "biggbycoffee-243cad"}, "geometry": {"type": "Point", "coordinates": [-82.0070345, 41.3924095]}},
{"type": "Feature", "id": "F3mt5h-r5TdTI05VjTtlIoRr0g8=", "properties": {"ref": "STORE 819", "@spider": "biggby", "amenity": "cafe", "cuisine": "coffee_shop", "takeaway": "yes", "addr:city": "Batavia", "addr:state": "OH", "name": "Biggby Coffee STORE 819", "brand": "Biggby Coffee", "brand:wikidata": "Q4906876", "nsi_id": "biggbycoffee-243cad"}, "geometry": {"type": "Point", "coordinates": [-84.2507793, 39.0517407]}},
{"type": "Feature", "id": "DLRJsyCHtjgjPLJvOLJXXSjPEw0=", "properties": {"ref": "STORE 1030", "@spider": "biggby", "amenity": "cafe", "cuisine": "coffee_shop", "takeaway": "yes", "addr:full": "4537 Everhard Rd NW", "addr:city": "North Canton", "addr:state": "OH", "addr:postcode": "44708", "name": "Biggby Coffee STORE 1030", "brand": "Biggby Coffee", "brand:wikidata": "Q4906876", "nsi_id": "biggbycoffee-243cad"}, "geometry": {"type": "Point", "coordinates": [-81.4344867, 40.8584776]}},
{"type": "Feature", "id": "IPhTM6iw2Qj1-AciETFmUoevYdA=", "properties": {"ref": "STORE 1580", "@spider": "biggby", "amenity": "cafe", "cuisine": "coffee_shop", "takeaway": "yes", "addr:full": "2111 N Bend Rd", "addr:city": "Hebron", "addr:state": "KY", "addr:postcode": "41048", "name": "Biggby Coffee STORE 1580", "brand": "Biggby Coffee", "brand:wikidata": "Q4906876", "nsi_id": "biggbycoffee-243cad"}, "geometry": {"type": "Point", "coordinates": [-84.7116216, 39.0856905]}},
{"type": "Feature", "id": "yGoTM_vS2KBLTDEFwhbRn9o67Vc=", "properties": {"ref": "STORE 817", "@spider": "biggby", "amenity": "cafe", "cuisine": "coffee_shop", "takeaway": "yes", "addr:full": "11858 Northland Drive NE", "addr:city": "Rockford", "addr:state": "MI", "addr:postcode": "49341", "name": "Biggby Coffee STORE 817", "brand": "Biggby Coffee", "brand:wikidata": "Q4906876", "nsi_id": "biggbycoffee-243cad"}, "geometry": {"type": "Point", "coordinates": [-85.549345, 43.180177]}},
{"type": "Feature", "id": "gKeTYb45S7kER4WYPN5XwljzqU4=", "properties": {"ref": "STORE 882", "@spider": "biggby", "amenity": "cafe", "cuisine": "coffee_shop", "takeaway": "yes", "addr:full": "1222 W state road 2", "addr:city": "LaPorte", "addr:state": "IN", "addr:postcode": "46350", "name": "Biggby Coffee STORE 882", "brand": "Biggby Coffee", "brand:wikidata": "Q4906876", "nsi_id": "biggbycoffee-243cad"}, "geometry": {"type": "Point", "coordinates": [-86.7329539, 41.6004661]}},
{"type": "Feature", "id": "HrWPh6B7ZrOboZZKo9KcOsYS_mo=", "properties": {"ref": "STORE 832", "@spider": "biggby", "amenity": "cafe", "cuisine": "coffee_shop", "takeaway": "yes", "addr:full": "4105 Hills and Dales Rd. NW", "addr:city": "Canton", "addr:state": "OH", "addr:postcode": "44708", "name": "Biggby Coffee STORE 832", "brand": "Biggby Coffee", "brand:wikidata": "Q4906876", "nsi_id": "biggbycoffee-243cad"}, "geometry": {"type": "Point", "coordinates": [-81.4208739, 40.8331334]}},
{"type": "Feature", "id": "qsT90Ga_-CMwteF3dpS9GiCX36g=", "properties": {"ref": "STORE 809", "@spider": "biggby", "amenity": "cafe", "cuisine": "coffee_shop", "takeaway": "yes", "addr:full": "558 Columbus Drive", "addr:city": "Plymouth", "addr:state": "IN", "addr:postcode": "46563", "name": "Biggby Coffee STORE 809", "brand": "Biggby Coffee", "brand:wikidata": "Q4906876", "nsi_id": "biggbycoffee-243cad"}, "geometry": {"type": "Point", "coordinates": [-86.2968002, 41.3438368]}},
{"type": "Feature", "id": "fFSwHsdaZdkbLzl1dJZp4BweWFY=", "properties": {"ref": "STORE 820", "@spider": "biggby", "amenity": "cafe", "cuisine": "coffee_shop", "takeaway": "yes", "addr:city": "Boone County", "addr:state": "KY", "name": "Biggby Coffee STORE 820", "brand": "Biggby Coffee", "brand:wikidata": "Q4906876", "nsi_id": "biggbycoffee-243cad"}, "geometry": {"type": "Point", "coordinates": [-84.7786932, 39.183384]}},
{"type": "Feature", "id": "HL7BlT5g023cuneigCg7ustQceA=", "properties": {"ref": "STORE 836", "@spider": "biggby", "amenity": "cafe", "cuisine": "coffee_shop", "takeaway": "yes", "addr:full": "1811 Monmouth Street", "addr:city": "Newport", "addr:state": "KY", "addr:postcode": "41071", "name": "Biggby Coffee STORE 836", "brand": "Biggby Coffee", "brand:wikidata": "Q4906876", "nsi_id": "biggbycoffee-243cad"}, "geometry": {"type": "Point", "coordinates": [-84.4811828, 39.080485]}},
{"type": "Feature", "id": "T1MKzuZ93WaGAJqT3edmPDgbPI8=", "properties": {"ref": "STORE 783", "@spider": "biggby", "amenity": "cafe", "cuisine": "coffee_shop", "takeaway": "yes", "addr:full": "202 W Praire Rd.", "addr:city": "Dowagaic", "addr:state": "MI", "addr:postcode": "49047", "name": "Biggby Coffee STORE 783", "brand": "Biggby Coffee", "brand:wikidata": "Q4906876", "nsi_id": "biggbycoffee-243cad"}, "geometry": {"type": "Point", "coordinates": [-86.1087931, 41.9913705]}},
{"type": "Feature", "id": "NqnS6Lm1WXgNlCJbFreFnn3lvbk=", "properties": {"ref": "STORE 1006", "@spider": "biggby", "amenity": "cafe", "cuisine": "coffee_shop", "takeaway": "yes", "addr:full": "9151 Wicker Ave.", "addr:city": "St. John", "addr:state": "IN", "addr:postcode": "46373", "name": "Biggby Coffee STORE 1006", "brand": "Biggby Coffee", "brand:wikidata": "Q4906876", "nsi_id": "biggbycoffee-243cad"}, "geometry": {"type": "Point", "coordinates": [-87.4688714, 41.4520806]}},
{"type": "Feature", "id": "il2f6zdtkl6GtKXGxHHsla9PubI=", "properties": {"ref": "STORE 894", "@spider": "biggby", "amenity": "cafe", "cuisine": "coffee_shop", "takeaway": "yes", "addr:full": "465 Walton Drive", "addr:city": "Plymouth", "addr:state": "WI", "addr:postcode": "53073", "name": "Biggby Coffee STORE 894", "brand": "Biggby Coffee", "brand:wikidata": "Q4906876", "nsi_id": "biggbycoffee-243cad"}, "geometry": {"type": "Point", "coordinates": [-87.943325, 43.7509782]}},
{"type": "Feature", "id": "U8fZ63eLdywHnIS-TIvEpRAIYdM=", "properties": {"ref": "STORE 643", "@spider": "biggby", "amenity": "cafe", "cuisine": "coffee_shop", "takeaway": "yes", "addr:full": "7829 Sunnyside Road, Suite C", "addr:city": "Indianapolis", "addr:state": "IN", "addr:postcode": "46236", "name": "Biggby Coffee STORE 643", "brand": "Biggby Coffee", "brand:wikidata": "Q4906876", "nsi_id": "biggbycoffee-243cad"}, "geometry": {"type": "Point", "coordinates": [-85.9754974, 39.8969017]}},
{"type": "Feature", "id": "6RCha6BVpOK35P6ZromsB8Fj6t4=", "properties": {"ref": "STORE 878", "@spider": "biggby", "amenity": "cafe", "cuisine": "coffee_shop", "takeaway": "yes", "addr:full": "1925 Stone Port Road", "addr:city": "Harrisonburg", "addr:state": "VA", "addr:postcode": "22801", "name": "Biggby Coffee STORE 878", "brand": "Biggby Coffee", "brand:wikidata": "Q4906876", "nsi_id": "biggbycoffee-243cad"}, "geometry": {"type": "Point", "coordinates": [-78.8647517, 38.4077374]}},
{"type": "Feature", "id": "SSRGeVxJG6qJXXq3jKItd5_DwGM=", "properties": {"ref": "STORE 812", "@spider": "biggby", "amenity": "cafe", "cuisine": "coffee_shop", "takeaway": "yes", "addr:full": "1424 Two Notch Rd", "addr:city": "Lexington", "addr:state": "SC", "addr:postcode": "29073", "name": "Biggby Coffee STORE 812", "brand": "Biggby Coffee", "brand:wikidata": "Q4906876", "nsi_id": "biggbycoffee-243cad"}, "geometry": {"type": "Point", "coordinates": [-81.2319138, 33.953673]}},
{"type": "Feature", "id": "ePBeR3zMgKPD0I6TSgDo-yr5hEE=", "properties": {"ref": "STORE 1015", "@spider": "biggby", "amenity": "cafe", "cuisine": "coffee_shop", "takeaway": "yes", "addr:full": "28940 Euclid Ave", "addr:city": "Wickliffe", "addr:state": "OH", "addr:postcode": "44092", "name": "Biggby Coffee STORE 1015", "brand": "Biggby Coffee", "brand:wikidata": "Q4906876", "nsi_id": "biggbycoffee-243cad"}, "geometry": {"type": "Point", "coordinates": [-81.4787552, 41.6017465]}},
{"type": "Feature", "id": "anwFkV731rI5s-6zO1al8wr350E=", "properties": {"ref": "STORE 802", "@spider": "biggby", "amenity": "cafe", "cuisine": "coffee_shop", "takeaway": "yes", "addr:full": "3150 W. 95th St.", "addr:city": "Evergreen Park", "addr:state": "IL", "addr:postcode": "60805", "name": "Biggby Coffee STORE 802", "brand": "Biggby Coffee", "brand:wikidata": "Q4906876", "nsi_id": "biggbycoffee-243cad"}, "geometry": {"type": "Point", "coordinates": [-87.7012471, 41.7210964]}},
{"type": "Feature", "id": "1pjmMAON3D-zoOxIKlcufPd61jw=", "properties": {"ref": "STORE 768", "@spider": "biggby", "amenity": "cafe", "cuisine": "coffee_shop", "takeaway": "yes", "addr:full": "8359 Indianapolis Blvd", "addr:city": "Highland", "addr:state": "IN", "addr:postcode": "46322", "name": "Biggby Coffee STORE 768", "brand": "Biggby Coffee", "brand:wikidata": "Q4906876", "nsi_id": "biggbycoffee-243cad"}, "geometry": {"type": "Point", "coordinates": [-87.4708833, 41.5597753]}},
{"type": "Feature", "id": "5bM14aHv_DLKIrnAe4Gyfy0GMWM=", "properties": {"ref": "STORE 896", "@spider": "biggby", "amenity": "cafe", "cuisine": "coffee_shop", "takeaway": "yes", "addr:full": "327 W Main St", "addr:city": "Manchester", "addr:state": "MI", "addr:postcode": "48158", "name": "Biggby Coffee STORE 896", "brand": "Biggby Coffee", "brand:wikidata": "Q4906876", "nsi_id": "biggbycoffee-243cad"}, "geometry": {"type": "Point", "coordinates": [-84.0433195, 42.1477019]}},
{"type": "Feature", "id": "oide4EWVekk_ZXtqyFkGrDI7Mi8=", "properties": {"ref": "STORE 693", "@spider": "biggby", "amenity": "cafe", "cuisine": "coffee_shop", "takeaway": "yes", "addr:full": "15 Caberfae Hwy", "addr:city": "Manistee", "addr:state": "MI", "addr:postcode": "49660", "name": "Biggby Coffee STORE 693", "brand": "Biggby Coffee", "brand:wikidata": "Q4906876", "nsi_id": "biggbycoffee-243cad"}, "geometry": {"type": "Point", "coordinates": [-86.2940474, 44.2683993]}},
{"type": "Feature", "id": "kj_QYFYyYHraQ2G1xe3KDfghW98=", "properties": {"ref": "STORE 886", "@spider": "biggby", "amenity": "cafe", "cuisine": "coffee_shop", "takeaway": "yes", "addr:full": "15000 Gratiot Rd", "addr:city": "Hemlock", "addr:state": "MI", "addr:postcode": "48626", "name": "Biggby Coffee STORE 886", "brand": "Biggby Coffee", "brand:wikidata": "Q4906876", "nsi_id": "biggbycoffee-243cad"}, "geometry": {"type": "Point", "coordinates": [-84.2257184, 43.4133468]}},
{"type": "Feature", "id": "_22u2fDzZ1K8JOZXs-fFB_dJKuU=", "properties": {"ref": "STORE 764", "@spider": "biggby", "amenity": "cafe", "cuisine": "coffee_shop", "takeaway": "yes", "addr:full": "N162 Eisenhower Drive", "addr:city": "Appleton", "addr:state": "WI", "addr:postcode": "54915", "name": "Biggby Coffee STORE 764", "brand": "Biggby Coffee", "brand:wikidata": "Q4906876", "nsi_id": "biggbycoffee-243cad"}, "geometry": {"type": "Point", "coordinates": [-88.3458665, 44.2461072]}},
{"type": "Feature", "id": "O77BaUobCyUe808YXJJtsJbixbA=", "properties": {"ref": "STORE 874", "@spider": "biggby", "amenity": "cafe", "cuisine": "coffee_shop", "takeaway": "yes", "addr:full": "4628 Brandt Pike", "addr:city": "Huber Heights", "addr:state": "OH", "addr:postcode": "45424", "name": "Biggby Coffee STORE 874", "brand": "Biggby Coffee", "brand:wikidata": "Q4906876", "nsi_id": "biggbycoffee-243cad"}, "geometry": {"type": "Point", "coordinates": [-84.1253314, 39.8198995]}},
{"type": "Feature", "id": "mpOB84AAfRl8gRmXl4PY2zZqtJ8=", "properties": {"ref": "STORE 782", "@spider": "biggby", "amenity": "cafe", "cuisine": "coffee_shop", "takeaway": "yes", "addr:full": "644 St Joseph Avenue", "addr:city": "Berrien  Springs", "addr:state": "MI", "addr:postcode": "49103", "name": "Biggby Coffee STORE 782", "brand": "Biggby Coffee", "brand:wikidata": "Q4906876", "nsi_id": "biggbycoffee-243cad"}, "geometry": {"type": "Point", "coordinates": [-86.3468052, 41.9517628]}},
{"type": "Feature", "id": "HNHsX2h1H4rR5XLP6cnh_gEmj2Y=", "properties": {"ref": "STORE 734", "@spider": "biggby", "amenity": "cafe", "cuisine": "coffee_shop", "takeaway": "yes", "addr:full": "30800 Little Mack Ave", "addr:city": "Roseville", "addr:state": "MI", "addr:postcode": "48066", "name": "Biggby Coffee STORE 734", "brand": "Biggby Coffee", "brand:wikidata": "Q4906876", "nsi_id": "biggbycoffee-243cad"}, "geometry": {"type": "Point", "coordinates": [-82.908258, 42.5244288]}},
{"type": "Feature", "id": "CGAgY-0QAZf06raRGmrKBv33sTY=", "properties": {"ref": "STORE 781", "@spider": "biggby", "amenity": "cafe", "cuisine": "coffee_shop", "takeaway": "yes", "addr:full": "556 S Cedar St", "addr:city": "Kalkaska", "addr:state": "MI", "addr:postcode": "49646", "name": "Biggby Coffee STORE 781", "brand": "Biggby Coffee", "brand:wikidata": "Q4906876", "nsi_id": "biggbycoffee-243cad"}, "geometry": {"type": "Point", "coordinates": [-85.1816721, 44.7271633]}},
{"type": "Feature", "id": "PNc6igyawjZt_DcIyk7B8ncq8ew=", "properties": {"ref": "STORE 808", "@spider": "biggby", "amenity": "cafe", "cuisine": "coffee_shop", "takeaway": "yes", "addr:full": "1418 Bridge St", "addr:city": "Charlevoix", "addr:state": "MI", "addr:postcode": "49720", "name": "Biggby Coffee STORE 808", "brand": "Biggby Coffee", "brand:wikidata": "Q4906876", "nsi_id": "biggbycoffee-243cad"}, "geometry": {"type": "Point", "coordinates": [-85.2590004, 45.3050465]}},
{"type": "Feature", "id": "Xy7i9qPo7X-5G3SnVIsHFGkOhNU=", "properties": {"ref": "STORE 822", "@spider": "biggby", "amenity": "cafe", "cuisine": "coffee_shop", "takeaway": "yes", "addr:full": "10520 W Bluemound Rd,", "addr:city": "Wauwatosa", "addr:state": "WI", "addr:postcode": "53226", "name": "Biggby Coffee STORE 822", "brand": "Biggby Coffee", "brand:wikidata": "Q4906876", "nsi_id": "biggbycoffee-243cad"}, "geometry": {"type": "Point", "coordinates": [-88.0441411, 43.0351236]}},
{"type": "Feature", "id": "KLce6BxdTjFzisNAT_qGHkFNmdE=", "properties": {"ref": "STORE 824", "@spider": "biggby", "amenity": "cafe", "cuisine": "coffee_shop", "takeaway": "yes", "addr:full": "3516 Division Ave S", "addr:city": "Grand Rapids", "addr:state": "MI", "addr:postcode": "49519", "name": "Biggby Coffee STORE 824", "brand": "Biggby Coffee", "brand:wikidata": "Q4906876", "nsi_id": "biggbycoffee-243cad"}, "geometry": {"type": "Point", "coordinates": [-85.6649978, 42.9002998]}},
{"type": "Feature", "id": "4X-rXhrLfmIVGwuZl307k-2U7Gc=", "properties": {"ref": "STORE 748", "@spider": "biggby", "amenity": "cafe", "cuisine": "coffee_shop", "takeaway": "yes", "addr:full": "888 Eastgate N Dr Rd", "addr:city": "Cincinnati", "addr:state": "OH", "addr:postcode": "45245", "name": "Biggby Coffee STORE 748", "brand": "Biggby Coffee", "brand:wikidata": "Q4906876", "nsi_id": "biggbycoffee-243cad"}, "geometry": {"type": "Point", "coordinates": [-84.2637847, 39.0979071]}}]}