{"type":"FeatureCollection","features":[{"type": "Feature", "id": "k98E3gRElFqWQHTyFww7vg0w7ew=", "properties": {"ref": "485", "@spider": "bj-restaurant", "amenity": "restaurant", "cuisine": "american", "official_name": "BJ's Restaurant & Brewhouse", "addr:full": "4502 S. Steele St. Suite 1500", "addr:city": "Tacoma", "addr:state": "WA", "addr:postcode": "98409", "name": "BJ's Restaurants and Brewhouse Tacoma", "phone": "253-472-1220", "website": "https://www.bjsrestaurants.com/locations/wa/tacoma", "opening_hours": "Su 11:00 - 23:00;Mo 11:00 - 23:00;Tu 11:00 - 23:00;We 11:00 - 23:00;Th 11:00 - 23:00;Fr 11:00 - 00:00;Sa 11:00 - 00:00", "brand": "BJ's Restaurant & Brewery", "brand:wikidata": "Q4835755", "nsi_id": "bjs-96af40"}, "geometry": {"type": "Point", "coordinates": [-122.467766, 47.217872]}},
{"type": "Feature", "id": "cIT5oKPd0iMmBSXUTuPhnAHztDk=", "properties": {"ref": "563", "@spider": "bj-restaurant", "amenity": "restaurant", "cuisine": "american", "official_name": "BJ's Restaurant & Brewhouse", "addr:full": "12090 Jefferson Ave. Suite 1400", "addr:city": "Newport News", "addr:state": "VA", "addr:postcode": "23606", "name": "BJ's Restaurants and Brewhouse Newport News", "phone": "757-269-3380", "website": "https://www.bjsrestaurants.com/locations/va/newport-news", "opening_hours": "Su 11:00 - 23:00;Mo 11:00 - 23:00;Tu 11:00 - 23:00;We 11:00 - 23:00;Th 11:00 - 23:00;Fr 11:00 - 00:00;Sa 11:00 - 00:00", "brand": "BJ's Restaurant & Brewery", "brand:wikidata": "Q4835755", "nsi_id": "bjs-96af40"}, "geometry": {"type": "Point", "coordinates": [-76.492112, 37.104163]}},
{"type": "Feature", "id": "Od9wqhRp_MeML9s2c4zr1r-UrsM=", "properties": {"ref": "457", "@spider": "bj-restaurant", "amenity": "restaurant", "cuisine": "american", "official_name": "BJ's Restaurant & Brewhouse", "addr:full": "11905 Gateway Blvd. West", "addr:city": "El Paso", "addr:state": "TX", "addr:postcode": "79936", "name": "BJ's Restaurants and Brewhouse El Paso", "phone": "915-633-8300", "website": "https://www.bjsrestaurants.com/locations/tx/el-paso", "opening_hours": "Su 11:00 - 23:00;Mo 11:00 - 23:00;Tu 11:00 - 23:00;We 11:00 - 23:00;Th 11:00 - 23:00;Fr 11:00 - 00:00;Sa 11:00 - 00:00", "brand": "BJ's Restaurant & Brewery", "brand:wikidata": "Q4835755", "nsi_id": "bjs-96af40"}, "geometry": {"type": "Point", "coordinates": [-106.307534, 31.724236]}},
{"type": "Feature", "id": "5ESb_25iDaf3ilYD0Jc8DGUOjy4=", "properties": {"ref": "574", "@spider": "bj-restaurant", "amenity": "restaurant", "cuisine": "american", "official_name": "BJ's Restaurant & Brewhouse", "addr:full": "2455 Medical Center Pkwy", "addr:city": "Murfreesboro", "addr:state": "TN", "addr:postcode": "37129", "name": "BJ's Restaurants and Brewhouse Murfreesboro", "phone": "615-956-2560", "website": "https://www.bjsrestaurants.com/locations/tn/murfreesboro", "opening_hours": "Su 11:00 - 23:00;Mo 11:00 - 23:00;Tu 11:00 - 23:00;We 11:00 - 23:00;Th 11:00 - 23:00;Fr 11:00 - 00:00;Sa 11:00 - 00:00", "brand": "BJ's Restaurant & Brewery", "brand:wikidata": "Q4835755", "nsi_id": "bjs-96af40"}, "geometry": {"type": "Point", "coordinates": [-86.440804, 35.858383]}},
{"type": "Feature", "id": "rgYoyH1qYASnFMYqMzIKBn1LFII=", "properties": {"ref": "604", "@spider": "bj-restaurant", "amenity": "restaurant", "cuisine": "american", "official_name": "BJ's Restaurant & Brewhouse", "addr:full": "148 Harbison Blvd", "addr:city": "Columbia", "addr:state": "SC", "addr:postcode": "29212", "name": "BJ's Restaurants and Brewhouse Columbiana Station", "phone": "803-828-5850", "website": "https://www.bjsrestaurants.com/locations/sc/columbiana-station", "opening_hours": "Su 11:00 - 23:00;Mo 11:00 - 23:00;Tu 11:00 - 23:00;We 11:00 - 23:00;Th 11:00 - 23:00;Fr 11:00 - 00:00;Sa 11:00 - 00:00", "brand": "BJ's Restaurant & Brewery", "brand:wikidata": "Q4835755", "nsi_id": "bjs-96af40"}, "geometry": {"type": "Point", "coordinates": [-81.16377, 34.06882]}},
{"type": "Feature", "id": "aFg1ZD-H2yohNFhdI9GyIwkOgzM=", "properties": {"ref": "609", "@spider": "bj-restaurant", "amenity": "restaurant", "cuisine": "american", "official_name": "BJ's Restaurant & Brewhouse", "addr:full": "650 Bald Hill Road, Suite C", "addr:city": "Warwick", "addr:state": "RI", "addr:postcode": "02886", "name": "BJ's Restaurants and Brewhouse Warwick", "phone": "401-262-4550", "website": "https://www.bjsrestaurants.com/locations/ri/warwick", "opening_hours": "Su 11:00 - 23:00;Mo 11:00 - 23:00;Tu 11:00 - 23:00;We 11:00 - 23:00;Th 11:00 - 23:00;Fr 11:00 - 00:00;Sa 11:00 - 00:00", "brand": "BJ's Restaurant & Brewery", "brand:wikidata": "Q4835755", "nsi_id": "bjs-96af40"}, "geometry": {"type": "Point", "coordinates": [-71.483672, 41.719744]}},
{"type": "Feature", "id": "89I2ZZhAiS6JmFm9k8sSEQgXiP0=", "properties": {"ref": "572", "@spider": "bj-restaurant", "amenity": "restaurant", "cuisine": "american", "official_name": "BJ's Restaurant & Brewhouse", "addr:full": "8970 Covenant Ave", "addr:city": "Pittsburgh", "addr:state": "PA", "addr:postcode": "15237", "name": "BJ's Restaurants and Brewhouse McCandless", "phone": "412-748-1470", "website": "https://www.bjsrestaurants.com/locations/pa/mccandless", "opening_hours": "Su 11:00 - 23:00;Mo 11:00 - 23:00;Tu 11:00 - 23:00;We 11:00 - 23:00;Th 11:00 - 23:00;Fr 11:00 - 00:00;Sa 11:00 - 00:00", "brand": "BJ's Restaurant & Brewery", "brand:wikidata": "Q4835755", "nsi_id": "bjs-96af40"}, "geometry": {"type": "Point", "coordinates": [-80.021789, 40.569914]}},
{"type": "Feature", "id": "pBK7phbsiGJ_q857lWJsKbNm7lQ=", "properties": {"ref": "540", "@spider": "bj-restaurant", "amenity": "restaurant", "cuisine": "american", "official_name": "BJ's Restaurant & Brewhouse", "addr:full": "1080 Valley River Way", "addr:city": "Eugene", "addr:state": "OR", "addr:postcode": "97401", "name": "BJ's Restaurants and Brewhouse Valley River", "phone": "541-344-2200", "website": "https://www.bjsrestaurants.com/locations/or/valley-river", "opening_hours": "Su 11:00 - 23:00;Mo 11:00 - 23:00;Tu 11:00 - 23:00;We 11:00 - 23:00;Th 11:00 - 23:00;Fr 11:00 - 00:00;Sa 11:00 - 00:00", "brand": "BJ's Restaurant & Brewery", "brand:wikidata": "Q4835755", "nsi_id": "bjs-96af40"}, "geometry": {"type": "Point", "coordinates": [-123.10387, 44.06966]}},
{"type": "Feature", "id": "tszXQKIYqh-pPzw9-BWju_YWbIM=", "properties": {"ref": "538", "@spider": "bj-restaurant", "amenity": "restaurant", "cuisine": "american", "official_name": "BJ's Restaurant & Brewhouse", "addr:full": "325 Outlet Shoppes Drive", "addr:city": "Oklahoma City", "addr:state": "OK", "addr:postcode": "73128", "name": "BJ's Restaurants and Brewhouse OKC Outlets", "phone": "405-787-9900", "website": "https://www.bjsrestaurants.com/locations/ok/okc-outlets", "opening_hours": "Su 11:00 - 23:00;Mo 11:00 - 23:00;Tu 11:00 - 23:00;We 11:00 - 23:00;Th 11:00 - 23:00;Fr 11:00 - 00:00;Sa 11:00 - 00:00", "brand": "BJ's Restaurant & Brewery", "brand:wikidata": "Q4835755", "nsi_id": "bjs-96af40"}, "geometry": {"type": "Point", "coordinates": [-97.652234, 35.461492]}},
{"type": "Feature", "id": "qVObXDe3H-4swmLpJelS-1VCIzw=", "properties": {"ref": "469", "@spider": "bj-restaurant", "amenity": "restaurant", "cuisine": "american", "official_name": "BJ's Restaurant & Brewhouse", "addr:full": "11700 Princeton Pike", "addr:city": "Cincinnati", "addr:state": "OH", "addr:postcode": "45246", "name": "BJ's Restaurants and Brewhouse Tri-County Mall", "phone": "513-671-1805", "website": "https://www.bjsrestaurants.com/locations/oh/tri-county-mall", "opening_hours": "Su 11:00 - 22:00;Mo 11:00 - 23:00;Tu 11:00 - 23:00;We 11:00 - 23:00;Th 11:00 - 23:00;Fr 11:00 - 00:00;Sa 11:00 - 00:00", "brand": "BJ's Restaurant & Brewery", "brand:wikidata": "Q4835755", "nsi_id": "bjs-96af40"}, "geometry": {"type": "Point", "coordinates": [-84.465056, 39.290622]}},
{"type": "Feature", "id": "b9qx9O5cAmlJRkdP713lI8RGXxk=", "properties": {"ref": "621", "@spider": "bj-restaurant", "amenity": "restaurant", "cuisine": "american", "official_name": "BJ's Restaurant & Brewhouse", "addr:full": "8435 Concord Mills Blvd.", "addr:city": "Concord", "addr:state": "NC", "addr:postcode": "28027", "name": "BJ's Restaurants and Brewhouse Concord Mills", "phone": "980-777-7030", "website": "https://www.bjsrestaurants.com/locations/nc/concord-mills", "opening_hours": "Su 11:00 - 23:00;Mo 11:00 - 23:00;Tu 11:00 - 23:00;We 11:00 - 23:00;Th 11:00 - 23:00;Fr 11:00 - 00:00;Sa 11:00 - 00:00", "brand": "BJ's Restaurant & Brewery", "brand:wikidata": "Q4835755", "nsi_id": "bjs-96af40"}, "geometry": {"type": "Point", "coordinates": [-80.718537, 35.371383]}},
{"type": "Feature", "id": "MIf1k2GylYm-f9lBpFzdwPxFkEg=", "properties": {"ref": "610", "@spider": "bj-restaurant", "amenity": "restaurant", "cuisine": "american", "official_name": "BJ's Restaurant & Brewhouse", "addr:full": "3 Wolf Rd, Suite 101", "addr:city": "Colonie", "addr:state": "NY", "addr:postcode": "12205", "name": "BJ's Restaurants and Brewhouse Albany", "phone": "518-375-3570", "website": "https://www.bjsrestaurants.com/locations/ny/albany", "opening_hours": "Su 11:00 - 23:00;Mo 11:00 - 23:00;Tu 11:00 - 23:00;We 11:00 - 23:00;Th 11:00 - 23:00;Fr 11:00 - 00:00;Sa 11:00 - 00:00", "brand": "BJ's Restaurant & Brewery", "brand:wikidata": "Q4835755", "nsi_id": "bjs-96af40"}, "geometry": {"type": "Point", "coordinates": [-73.821461, 42.708532]}},
{"type": "Feature", "id": "MioqQkUsIFANqeWHwb5YATnWTkg=", "properties": {"ref": "570", "@spider": "bj-restaurant", "amenity": "restaurant", "cuisine": "american", "official_name": "BJ's Restaurant & Brewhouse", "addr:full": "10000 Coors Blvd.", "addr:city": "Albuquerque", "addr:state": "NM", "addr:postcode": "87114", "name": "BJ's Restaurants and Brewhouse Cottonwood Mall", "phone": "505-545-6040", "website": "https://www.bjsrestaurants.com/locations/nm/cottonwood-mall", "opening_hours": "Su 11:00 - 23:00;Mo 11:00 - 23:00;Tu 11:00 - 23:00;We 11:00 - 23:00;Th 11:00 - 23:00;Fr 11:00 - 00:00;Sa 11:00 - 00:00", "brand": "BJ's Restaurant & Brewery", "brand:wikidata": "Q4835755", "nsi_id": "bjs-96af40"}, "geometry": {"type": "Point", "coordinates": [-106.655908, 35.194785]}},
{"type": "Feature", "id": "e18BbkQOBkazFexqEa_WOfETEgY=", "properties": {"ref": "591", "@spider": "bj-restaurant", "amenity": "restaurant", "cuisine": "american", "official_name": "BJ's Restaurant & Brewhouse", "addr:full": "21 Teterboro Landing Drive", "addr:city": "Teterboro", "addr:state": "NJ", "addr:postcode": "07608", "name": "BJ's Restaurants and Brewhouse Teterboro", "phone": "551-313-7450", "website": "https://www.bjsrestaurants.com/locations/nj/teterboro", "opening_hours": "Su 11:00 - 00:00;Mo 11:00 - 00:00;Tu 11:00 - 00:00;We 11:00 - 00:00;Th 11:00 - 00:00;Fr 11:00 - 01:00;Sa 11:00 - 01:00", "brand": "BJ's Restaurant & Brewery", "brand:wikidata": "Q4835755", "nsi_id": "bjs-96af40"}, "geometry": {"type": "Point", "coordinates": [-74.05862, 40.860596]}},
{"type": "Feature", "id": "ct2wW8KeUZf0ZtX0GOnzE3xqm7I=", "properties": {"ref": "454", "@spider": "bj-restaurant", "amenity": "restaurant", "cuisine": "american", "official_name": "BJ's Restaurant & Brewhouse", "addr:full": "13999 S. Virginia", "addr:city": "Reno", "addr:state": "NV", "addr:postcode": "89511", "name": "BJ's Restaurants and Brewhouse Reno", "phone": "775-853-7575", "website": "https://www.bjsrestaurants.com/locations/nv/reno", "opening_hours": "Su 10:00 - 00:00;Mo 11:00 - 00:00;Tu 11:00 - 00:00;We 11:00 - 00:00;Th 11:00 - 00:00;Fr 11:00 - 00:00;Sa 11:00 - 00:00", "brand": "BJ's Restaurant & Brewery", "brand:wikidata": "Q4835755", "nsi_id": "bjs-96af40"}, "geometry": {"type": "Point", "coordinates": [-119.748711, 39.40579]}},
{"type": "Feature", "id": "aq2pT6vVF7EqNkKR60WFJpdokXE=", "properties": {"ref": "624", "@spider": "bj-restaurant", "amenity": "restaurant", "cuisine": "american", "official_name": "BJ's Restaurant & Brewhouse", "addr:full": "2515 Lake Lansing Rd", "addr:city": "Lansing", "addr:state": "MI", "addr:postcode": "48912", "name": "BJ's Restaurants and Brewhouse Lansing", "phone": "517-246-0010", "website": "https://www.bjsrestaurants.com/locations/mi/lansing", "opening_hours": "Su 11:00 - 23:00;Mo 11:00 - 23:00;Tu 11:00 - 23:00;We 11:00 - 23:00;Th 11:00 - 23:00;Fr 11:00 - 00:00;Sa 11:00 - 00:00", "brand": "BJ's Restaurant & Brewery", "brand:wikidata": "Q4835755", "nsi_id": "bjs-96af40"}, "geometry": {"type": "Point", "coordinates": [-84.51502, 42.76147]}},
{"type": "Feature", "id": "ugLjIMyGnFl8ndB-Bu-MF41mFps=", "properties": {"ref": "625", "@spider": "bj-restaurant", "amenity": "restaurant", "cuisine": "american", "official_name": "BJ's Restaurant & Brewhouse", "addr:full": "124 Worcester Rd", "addr:city": "Framingham", "addr:state": "MA", "addr:postcode": "01702", "name": "BJ's Restaurants and Brewhouse Framingham", "phone": "774-427-0020", "website": "https://www.bjsrestaurants.com/locations/ma/framingham", "opening_hours": "Su 11:00 - 23:00;Mo 11:00 - 23:00;Tu 11:00 - 23:00;We 11:00 - 23:00;Th 11:00 - 23:00;Fr 11:00 - 00:00;Sa 11:00 - 00:00", "brand": "BJ's Restaurant & Brewery", "brand:wikidata": "Q4835755", "nsi_id": "bjs-96af40"}, "geometry": {"type": "Point", "coordinates": [-71.399072, 42.297747]}},
{"type": "Feature", "id": "87nSycXmSMCThHIqgbxytdulRl8=", "properties": {"ref": "612", "@spider": "bj-restaurant", "amenity": "restaurant", "cuisine": "american", "official_name": "BJ's Restaurant & Brewhouse", "addr:full": "1174 S Washington St", "addr:city": "North Attleboro", "addr:state": "MA", "addr:postcode": "02760", "name": "BJ's Restaurants and Brewhouse North Attleboro", "phone": "774-331-0250", "website": "https://www.bjsrestaurants.com/locations/ma/north-attleboro", "opening_hours": "Su 11:00 - 23:00;Mo 11:00 - 23:00;Tu 11:00 - 23:00;We 11:00 - 23:00;Th 11:00 - 23:00;Fr 11:00 - 00:00;Sa 11:00 - 00:00", "brand": "BJ's Restaurant & Brewery", "brand:wikidata": "Q4835755", "nsi_id": "bjs-96af40"}, "geometry": {"type": "Point", "coordinates": [-71.347438, 41.944121]}},
{"type": "Feature", "id": "lZ8GH7dGw4QP57OJeJ48JVx4zPI=", "properties": {"ref": "611", "@spider": "bj-restaurant", "amenity": "restaurant", "cuisine": "american", "official_name": "BJ's Restaurant & Brewhouse", "addr:full": "19470 Haggerty Road", "addr:city": "Livonia", "addr:state": "MI", "addr:postcode": "48152", "name": "BJ's Restaurants and Brewhouse Livonia", "phone": "734-357-8530", "website": "https://www.bjsrestaurants.com/locations/mi/livonia", "opening_hours": "Su 11:00 - 23:00;Mo 11:00 - 23:00;Tu 11:00 - 23:00;We 11:00 - 23:00;Th 11:00 - 23:00;Fr 11:00 - 00:00;Sa 11:00 - 00:00", "brand": "BJ's Restaurant & Brewery", "brand:wikidata": "Q4835755", "nsi_id": "bjs-96af40"}, "geometry": {"type": "Point", "coordinates": [-83.432699, 42.427845]}},
{"type": "Feature", "id": "YVI2lZpSTcnVw_H3I40e6u-Flhw=", "properties": {"ref": "613", "@spider": "bj-restaurant", "amenity": "restaurant", "cuisine": "american", "official_name": "BJ's Restaurant & Brewhouse", "addr:full": "14455 Lakeside Circle", "addr:city": "Sterling Heights", "addr:state": "MI", "addr:postcode": "48313", "name": "BJ's Restaurants and Brewhouse Sterling Heights", "phone": "586-519-6250", "website": "https://www.bjsrestaurants.com/locations/mi/sterling-heights", "opening_hours": "Su 11:00 - 23:00;Mo 11:00 - 23:00;Tu 11:00 - 23:00;We 11:00 - 23:00;Th 11:00 - 23:00;Fr 11:00 - 00:00;Sa 11:00 - 00:00", "brand": "BJ's Restaurant & Brewery", "brand:wikidata": "Q4835755", "nsi_id": "bjs-96af40"}, "geometry": {"type": "Point", "coordinates": [-82.983977, 42.626166]}},
{"type": "Feature", "id": "19mJ3DOFQyFXhehmDjLGuRJ9Spk=", "properties": {"ref": "606", "@spider": "bj-restaurant", "amenity": "restaurant", "cuisine": "american", "official_name": "BJ's Restaurant & Brewhouse", "addr:full": "23002 Eureka Rd", "addr:city": "Taylor", "addr:state": "MI", "addr:postcode": "48180", "name": "BJ's Restaurants and Brewhouse Taylor", "phone": "734-720-8800", "website": "https://www.bjsrestaurants.com/locations/mi/taylor", "opening_hours": "Su 11:00 - 23:00;Mo 11:00 - 23:00;Tu 11:00 - 23:00;We 11:00 - 23:00;Th 11:00 - 23:00;Fr 11:00 - 00:00;Sa 11:00 - 00:00", "brand": "BJ's Restaurant & Brewery", "brand:wikidata": "Q4835755", "nsi_id": "bjs-96af40"}, "geometry": {"type": "Point", "coordinates": [-83.257381, 42.198922]}},
{"type": "Feature", "id": "ANnHGjuFvqlNeTI8g3GWH8OnAYw=", "properties": {"ref": "503", "@spider": "bj-restaurant", "amenity": "restaurant", "cuisine": "american", "official_name": "BJ's Restaurant & Brewhouse", "addr:full": "425 Sparks Blvd", "addr:city": "Sparks", "addr:state": "NV", "addr:postcode": "89434", "name": "BJ's Restaurants and Brewhouse Sparks", "phone": "775-398-3550", "website": "https://www.bjsrestaurants.com/locations/nv/sparks", "opening_hours": "Su 10:00 - 00:00;Mo 11:00 - 00:00;Tu 11:00 - 00:00;We 11:00 - 00:00;Th 11:00 - 00:00;Fr 11:00 - 00:00;Sa 11:00 - 00:00", "brand": "BJ's Restaurant & Brewery", "brand:wikidata": "Q4835755", "nsi_id": "bjs-96af40"}, "geometry": {"type": "Point", "coordinates": [-119.716173, 39.534101]}},
{"type": "Feature", "id": "8-Ow3m7xLdzxaOuWzwaKv5URJKA=", "properties": {"ref": "432", "@spider": "bj-restaurant", "amenity": "restaurant", "cuisine": "american", "official_name": "BJ's Restaurant & Brewhouse", "addr:full": "10840 West Charleston", "addr:city": "Las Vegas", "addr:state": "NV", "addr:postcode": "89135", "name": "BJ's Restaurants and Brewhouse Summerlin", "phone": "702-853-2300", "website": "https://www.bjsrestaurants.com/locations/nv/summerlin", "opening_hours": "Su 10:00 - 23:00;Mo 11:00 - 23:00;Tu 11:00 - 23:00;We 11:00 - 23:00;Th 11:00 - 23:00;Fr 11:00 - 00:00;Sa 11:00 - 00:00", "brand": "BJ's Restaurant & Brewery", "brand:wikidata": "Q4835755", "nsi_id": "bjs-96af40"}, "geometry": {"type": "Point", "coordinates": [-115.331914, 36.159552]}},
{"type": "Feature", "id": "O8sxeCbq6w4ZS9dVEnMORqKZgnk=", "properties": {"ref": "630", "@spider": "bj-restaurant", "amenity": "restaurant", "cuisine": "american", "official_name": "BJ's Restaurant & Brewhouse", "addr:full": "7190 S Rainbow Blvd", "addr:city": "Las Vegas", "addr:state": "NV", "addr:postcode": "89118", "name": "BJ's Restaurants and Brewhouse Las Vegas", "phone": "725-239-0690", "website": "https://www.bjsrestaurants.com/locations/nv/las-vegas", "opening_hours": "Su 10:00 - 23:00;Mo 11:00 - 23:00;Tu 11:00 - 23:00;We 11:00 - 23:00;Th 11:00 - 23:00;Fr 11:00 - 00:00;Sa 11:00 - 00:00", "brand": "BJ's Restaurant & Brewery", "brand:wikidata": "Q4835755", "nsi_id": "bjs-96af40"}, "geometry": {"type": "Point", "coordinates": [-115.242706, 36.057911]}},
{"type": "Feature", "id": "3SNHBb3JgvIEd1lOkomDZsJ6H2U=", "properties": {"ref": "509", "@spider": "bj-restaurant", "amenity": "restaurant", "cuisine": "american", "official_name": "BJ's Restaurant & Brewhouse", "addr:full": "5881 Centennial Center Blvd.", "addr:city": "Las Vegas", "addr:state": "NV", "addr:postcode": "89149", "name": "BJ's Restaurants and Brewhouse Centennial", "phone": "702-851-8050", "website": "https://www.bjsrestaurants.com/locations/nv/centennial", "opening_hours": "Su 10:00 - 23:00;Mo 11:00 - 23:00;Tu 11:00 - 23:00;We 11:00 - 23:00;Th 11:00 - 23:00;Fr 11:00 - 00:00;Sa 11:00 - 00:00", "brand": "BJ's Restaurant & Brewery", "brand:wikidata": "Q4835755", "nsi_id": "bjs-96af40"}, "geometry": {"type": "Point", "coordinates": [-115.261465, 36.269812]}},
{"type": "Feature", "id": "ea2xTyGFd1tUh5iCFoPbmb9cAYY=", "properties": {"ref": "487", "@spider": "bj-restaurant", "amenity": "restaurant", "cuisine": "american", "official_name": "BJ's Restaurant & Brewhouse", "addr:full": "9520 S Eastern Ave", "addr:city": "Henderson", "addr:state": "NV", "addr:postcode": "89123", "name": "BJ's Restaurants and Brewhouse Henderson", "phone": "702-473-2980", "website": "https://www.bjsrestaurants.com/locations/nv/henderson", "opening_hours": "Su 10:00 - 23:00;Mo 11:00 - 23:00;Tu 11:00 - 23:00;We 11:00 - 23:00;Th 11:00 - 23:00;Fr 11:00 - 00:00;Sa 11:00 - 00:00", "brand": "BJ's Restaurant & Brewery", "brand:wikidata": "Q4835755", "nsi_id": "bjs-96af40"}, "geometry": {"type": "Point", "coordinates": [-115.118118, 36.015687]}},
{"type": "Feature", "id": "LBELA8HLeXI9SRL5JEsOpHpk4cU=", "properties": {"ref": "637", "@spider": "bj-restaurant", "amenity": "restaurant", "cuisine": "american", "official_name": "BJ's Restaurant & Brewhouse", "addr:full": "985 E. Craig Rd.", "addr:city": "North Las Vegas", "addr:state": "NV", "addr:postcode": "89030", "name": "BJ's Restaurants and Brewhouse Craig Road", "phone": "725-433-3100", "website": "https://www.bjsrestaurants.com/locations/nv/craig-road", "opening_hours": "Su 11:00 - 23:00;Mo 11:00 - 23:00;Tu 11:00 - 23:00;We 11:00 - 23:00;Th 11:00 - 23:00;Fr 11:00 - 00:00;Sa 11:00 - 00:00", "brand": "BJ's Restaurant & Brewery", "brand:wikidata": "Q4835755", "nsi_id": "bjs-96af40"}, "geometry": {"type": "Point", "coordinates": [-115.12949, 36.23955]}},
{"type": "Feature", "id": "7mwUBNl37xM5nL-1q0ZlxpUuFf8=", "properties": {"ref": "615", "@spider": "bj-restaurant", "amenity": "restaurant", "cuisine": "american", "official_name": "BJ's Restaurant & Brewhouse", "addr:full": "1275 Hooper Avenue", "addr:city": "Toms River", "addr:state": "NJ", "addr:postcode": "08753", "name": "BJ's Restaurants and Brewhouse Toms River", "phone": "732-506-2780", "website": "https://www.bjsrestaurants.com/locations/nj/toms-river", "opening_hours": "Su 11:00 - 23:00;Mo 11:00 - 23:00;Tu 11:00 - 23:00;We 11:00 - 23:00;Th 11:00 - 23:00;Fr 11:00 - 00:00;Sa 11:00 - 00:00", "brand": "BJ's Restaurant & Brewery", "brand:wikidata": "Q4835755", "nsi_id": "bjs-96af40"}, "geometry": {"type": "Point", "coordinates": [-74.179022, 39.984207]}},
{"type": "Feature", "id": "gnFlUYUdtaWkOJL98f3QBFrAv8c=", "properties": {"ref": "527", "@spider": "bj-restaurant", "amenity": "restaurant", "cuisine": "american", "official_name": "BJ's Restaurant & Brewhouse", "addr:full": "2100 Louisiana Blvd. NE Building 213", "addr:city": "Albuquerque", "addr:state": "NM", "addr:postcode": "87110", "name": "BJ's Restaurants and Brewhouse Albuquerque", "phone": "505-872-8600", "website": "https://www.bjsrestaurants.com/locations/nm/albuquerque", "opening_hours": "Su 11:00 - 23:00;Mo 11:00 - 23:00;Tu 11:00 - 23:00;We 11:00 - 23:00;Th 11:00 - 23:00;Fr 11:00 - 00:00;Sa 11:00 - 00:00", "brand": "BJ's Restaurant & Brewery", "brand:wikidata": "Q4835755", "nsi_id": "bjs-96af40"}, "geometry": {"type": "Point", "coordinates": [-106.565138, 35.098644]}},
{"type": "Feature", "id": "uaOIkk-FiGYD4k1eJd7TWNV54kg=", "properties": {"ref": "559", "@spider": "bj-restaurant", "amenity": "restaurant", "cuisine": "american", "official_name": "BJ's Restaurant & Brewhouse", "addr:full": "1119 Fashion Drive", "addr:city": "Nanuet", "addr:state": "NY", "addr:postcode": "10954", "name": "BJ's Restaurants and Brewhouse Nanuet", "phone": "845-536-5480", "website": "https://www.bjsrestaurants.com/locations/ny/nanuet", "opening_hours": "Su 11:00 - 23:00;Mo 11:00 - 23:00;Tu 11:00 - 23:00;We 11:00 - 23:00;Th 11:00 - 23:00;Fr 11:00 - 00:00;Sa 11:00 - 00:00", "brand": "BJ's Restaurant & Brewery", "brand:wikidata": "Q4835755", "nsi_id": "bjs-96af40"}, "geometry": {"type": "Point", "coordinates": [-74.015072, 41.097081]}},
{"type": "Feature", "id": "E_UmEwcXMQbmt-Abas5WJySAwXQ=", "properties": {"ref": "581", "@spider": "bj-restaurant", "amenity": "restaurant", "cuisine": "american", "official_name": "BJ's Restaurant & Brewhouse", "addr:full": "750 Sunrise Hwy 5 Green Acres Common", "addr:city": "Valley Stream", "addr:state": "NY", "addr:postcode": "11581", "name": "BJ's Restaurants and Brewhouse Valley Stream", "phone": "516-256-8800", "website": "https://www.bjsrestaurants.com/locations/ny/valley-stream", "opening_hours": "Su 11:00 - 23:00;Mo 11:00 - 23:00;Tu 11:00 - 23:00;We 11:00 - 23:00;Th 11:00 - 23:00;Fr 11:00 - 00:00;Sa 11:00 - 00:00", "brand": "BJ's Restaurant & Brewery", "brand:wikidata": "Q4835755", "nsi_id": "bjs-96af40"}, "geometry": {"type": "Point", "coordinates": [-73.724665, 40.6635]}},
{"type": "Feature", "id": "dDqtYwvlqaA_sFIO6KRdG_Ymo30=", "properties": {"ref": "585", "@spider": "bj-restaurant", "amenity": "restaurant", "cuisine": "american", "official_name": "BJ's Restaurant & Brewhouse", "addr:full": "192 Hanes Mall Circle", "addr:city": "Salem", "addr:state": "NC", "addr:postcode": "27103", "name": "BJ's Restaurants and Brewhouse Winston Salem", "phone": "336-793-2230", "website": "https://www.bjsrestaurants.com/locations/nc/winston-salem", "opening_hours": "Su 11:00 - 23:00;Mo 11:00 - 23:00;Tu 11:00 - 23:00;We 11:00 - 23:00;Th 11:00 - 23:00;Fr 11:00 - 23:00;Sa 11:00 - 23:00", "brand": "BJ's Restaurant & Brewery", "brand:wikidata": "Q4835755", "nsi_id": "bjs-96af40"}, "geometry": {"type": "Point", "coordinates": [-80.294976, 36.068156]}},
{"type": "Feature", "id": "ojSmhCDSSBBKgZUD3VfdnJfTrRM=", "properties": {"ref": "592", "@spider": "bj-restaurant", "amenity": "restaurant", "cuisine": "american", "official_name": "BJ's Restaurant & Brewhouse", "addr:full": "5707 Dillard Dr.", "addr:city": "Cary", "addr:state": "NC", "addr:postcode": "27511", "name": "BJ's Restaurants and Brewhouse Cary", "phone": "919-710-8170", "website": "https://www.bjsrestaurants.com/locations/nc/cary", "opening_hours": "Su 11:00 - 23:00;Mo 11:00 - 23:00;Tu 11:00 - 23:00;We 11:00 - 23:00;Th 11:00 - 23:00;Fr 11:00 - 00:00;Sa 11:00 - 00:00", "brand": "BJ's Restaurant & Brewery", "brand:wikidata": "Q4835755", "nsi_id": "bjs-96af40"}, "geometry": {"type": "Point", "coordinates": [-78.743533, 35.755676]}},
{"type": "Feature", "id": "PAlt5M_ifsBC3Rh8bCJbovgmYAM=", "properties": {"ref": "614", "@spider": "bj-restaurant", "amenity": "restaurant", "cuisine": "american", "official_name": "BJ's Restaurant & Brewhouse", "addr:full": "2631 Edmondson Road", "addr:city": "Norwood", "addr:state": "OH", "addr:postcode": "45209", "name": "BJ's Restaurants and Brewhouse Rookwood", "phone": "513-964-1440", "website": "https://www.bjsrestaurants.com/locations/oh/rookwood", "opening_hours": "Su 11:00 - 23:00;Mo 11:00 - 23:00;Tu 11:00 - 23:00;We 11:00 - 23:00;Th 11:00 - 23:00;Fr 11:00 - 00:00;Sa 11:00 - 00:00", "brand": "BJ's Restaurant & Brewery", "brand:wikidata": "Q4835755", "nsi_id": "bjs-96af40"}, "geometry": {"type": "Point", "coordinates": [-84.445792, 39.148891]}},
{"type": "Feature", "id": "9pBK0a5WTP6LTudCRfQGyC6_d8E=", "properties": {"ref": "607", "@spider": "bj-restaurant", "amenity": "restaurant", "cuisine": "american", "official_name": "BJ's Restaurant & Brewhouse", "addr:full": "4905 Monroe Street", "addr:city": "Toledo", "addr:state": "OH", "addr:postcode": "43623", "name": "BJ's Restaurants and Brewhouse Toledo", "phone": "419-930-9240", "website": "https://www.bjsrestaurants.com/locations/oh/toledo", "opening_hours": "Su 11:00 - 23:00;Mo 11:00 - 23:00;Tu 11:00 - 23:00;We 11:00 - 23:00;Th 11:00 - 23:00;Fr 11:00 - 00:00;Sa 11:00 - 00:00", "brand": "BJ's Restaurant & Brewery", "brand:wikidata": "Q4835755", "nsi_id": "bjs-96af40"}, "geometry": {"type": "Point", "coordinates": [-83.640513, 41.696823]}},
{"type": "Feature", "id": "mXnl6ljC0nFuamJnO90Z2b8A0UQ=", "properties": {"ref": "547", "@spider": "bj-restaurant", "amenity": "restaurant", "cuisine": "american", "official_name": "BJ's Restaurant & Brewhouse", "addr:full": "10563 Innovation Drive", "addr:city": "Miamisburg", "addr:state": "OH", "addr:postcode": "45342", "name": "BJ's Restaurants and Brewhouse Dayton", "phone": "937-859-6000", "website": "https://www.bjsrestaurants.com/locations/oh/dayton", "opening_hours": "Su 11:00 - 23:00;Mo 11:00 - 23:00;Tu 11:00 - 23:00;We 11:00 - 23:00;Th 11:00 - 23:00;Fr 11:00 - 00:00;Sa 11:00 - 00:00", "brand": "BJ's Restaurant & Brewery", "brand:wikidata": "Q4835755", "nsi_id": "bjs-96af40"}, "geometry": {"type": "Point", "coordinates": [-84.232606, 39.597328]}},
{"type": "Feature", "id": "czUuF7i1lLIAVlXE1y7nqyNiUNk=", "properties": {"ref": "580", "@spider": "bj-restaurant", "amenity": "restaurant", "cuisine": "american", "official_name": "BJ's Restaurant & Brewhouse", "addr:full": "2715 Fairfield Commons Dr.", "addr:city": "Beavercreek", "addr:state": "OH", "addr:postcode": "45431", "name": "BJ's Restaurants and Brewhouse Beavercreek", "phone": "937-956-0500", "website": "https://www.bjsrestaurants.com/locations/oh/beavercreek", "opening_hours": "Su 11:00 - 23:00;Mo 11:00 - 23:00;Tu 11:00 - 23:00;We 11:00 - 23:00;Th 11:00 - 23:00;Fr 11:00 - 00:00;Sa 11:00 - 00:00", "brand": "BJ's Restaurant & Brewery", "brand:wikidata": "Q4835755", "nsi_id": "bjs-96af40"}, "geometry": {"type": "Point", "coordinates": [-84.053848, 39.767191]}},
{"type": "Feature", "id": "1oJfuNN6_-2GXi-oEFepBhJGKdc=", "properties": {"ref": "516", "@spider": "bj-restaurant", "amenity": "restaurant", "cuisine": "american", "official_name": "BJ's Restaurant & Brewhouse", "addr:full": "5141 Tuttle Crossing", "addr:city": "Dublin", "addr:state": "OH", "addr:postcode": "43016", "name": "BJ's Restaurants and Brewhouse Tuttle Crossing", "phone": "614-659-9400", "website": "https://www.bjsrestaurants.com/locations/oh/tuttle-crossing", "opening_hours": "Su 11:00 - 23:00;Mo 11:00 - 23:00;Tu 11:00 - 23:00;We 11:00 - 23:00;Th 11:00 - 23:00;Fr 11:00 - 00:00;Sa 11:00 - 00:00", "brand": "BJ's Restaurant & Brewery", "brand:wikidata": "Q4835755", "nsi_id": "bjs-96af40"}, "geometry": {"type": "Point", "coordinates": [-83.132891, 40.075379]}},
{"type": "Feature", "id": "kAZqxWmEdflQ2Q3XCL-acHF-hHo=", "properties": {"ref": "459", "@spider": "bj-restaurant", "amenity": "restaurant", "cuisine": "american", "official_name": "BJ's Restaurant & Brewhouse", "addr:full": "1414 Polaris Parkway", "addr:city": "Columbus", "addr:state": "OH", "addr:postcode": "43240", "name": "BJ's Restaurants and Brewhouse Polaris", "phone": "614-885-1800", "website": "https://www.bjsrestaurants.com/locations/oh/polaris", "opening_hours": "Su 11:00 - 23:00;Mo 11:00 - 23:00;Tu 11:00 - 23:00;We 11:00 - 23:00;Th 11:00 - 23:00;Fr 11:00 - 00:00;Sa 11:00 - 00:00", "brand": "BJ's Restaurant & Brewery", "brand:wikidata": "Q4835755", "nsi_id": "bjs-96af40"}, "geometry": {"type": "Point", "coordinates": [-82.979426, 40.142261]}},
{"type": "Feature", "id": "YwVP-H1wQmhCAwfWiyeRrItZBJw=", "properties": {"ref": "569", "@spider": "bj-restaurant", "amenity": "restaurant", "cuisine": "american", "official_name": "BJ's Restaurant & Brewhouse", "addr:full": "4020 Stelzer Rd.", "addr:city": "Columbus", "addr:state": "OH", "addr:postcode": "43219", "name": "BJ's Restaurants and Brewhouse Easton Town Center", "phone": "614-532-9560", "website": "https://www.bjsrestaurants.com/locations/oh/easton-town-center", "opening_hours": "Su 11:00 - 23:00;Mo 11:00 - 23:00;Tu 11:00 - 23:00;We 11:00 - 23:00;Th 11:00 - 23:00;Fr 11:00 - 00:00;Sa 11:00 - 00:00", "brand": "BJ's Restaurant & Brewery", "brand:wikidata": "Q4835755", "nsi_id": "bjs-96af40"}, "geometry": {"type": "Point", "coordinates": [-82.9077, 40.0555]}},
{"type": "Feature", "id": "uM2o6eDPK3-2jXUZ50UPZioLhQQ=", "properties": {"ref": "598", "@spider": "bj-restaurant", "amenity": "restaurant", "cuisine": "american", "official_name": "BJ's Restaurant & Brewhouse", "addr:full": "25779 Brookpark Road", "addr:city": "North Olmsted", "addr:state": "OH", "addr:postcode": "44070", "name": "BJ's Restaurants and Brewhouse North Olmsted", "phone": "440-471-9140", "website": "https://www.bjsrestaurants.com/locations/oh/north-olmsted", "opening_hours": "Su 11:00 - 23:00;Mo 11:00 - 23:00;Tu 11:00 - 23:00;We 11:00 - 23:00;Th 11:00 - 23:00;Fr 11:00 - 00:00;Sa 11:00 - 00:00", "brand": "BJ's Restaurant & Brewery", "brand:wikidata": "Q4835755", "nsi_id": "bjs-96af40"}, "geometry": {"type": "Point", "coordinates": [-81.907303, 41.418829]}},
{"type": "Feature", "id": "eT5DLjdnBeF8scvTDZxLc4V3944=", "properties": {"ref": "595", "@spider": "bj-restaurant", "amenity": "restaurant", "cuisine": "american", "official_name": "BJ's Restaurant & Brewhouse", "addr:full": "7880 Mentor Ave.", "addr:city": "Mentor", "addr:state": "OH", "addr:postcode": "44060", "name": "BJ's Restaurants and Brewhouse Mentor", "phone": "440-276-1360", "website": "https://www.bjsrestaurants.com/locations/oh/mentor", "opening_hours": "Su 11:00 - 23:00;Mo 11:00 - 23:00;Tu 11:00 - 23:00;We 11:00 - 23:00;Th 11:00 - 23:00;Fr 11:00 - 00:00;Sa 11:00 - 00:00", "brand": "BJ's Restaurant & Brewery", "brand:wikidata": "Q4835755", "nsi_id": "bjs-96af40"}, "geometry": {"type": "Point", "coordinates": [-81.359707, 41.660069]}},
{"type": "Feature", "id": "DuXDHJG3Omb5yrwSf2sAfYgXOWU=", "properties": {"ref": "623", "@spider": "bj-restaurant", "amenity": "restaurant", "cuisine": "american", "official_name": "BJ's Restaurant & Brewhouse", "addr:full": "27100 Harvard Rd", "addr:city": "Orange Village", "addr:state": "OH", "addr:postcode": "44122", "name": "BJ's Restaurants and Brewhouse Orange Village", "phone": "440-514-0090", "website": "https://www.bjsrestaurants.com/locations/oh/orange-village", "opening_hours": "Su 11:00 - 23:00;Mo 11:00 - 23:00;Tu 11:00 - 23:00;We 11:00 - 23:00;Th 11:00 - 23:00;Fr 11:00 - 00:00;Sa 11:00 - 00:00", "brand": "BJ's Restaurant & Brewery", "brand:wikidata": "Q4835755", "nsi_id": "bjs-96af40"}, "geometry": {"type": "Point", "coordinates": [-81.488627, 41.448934]}},
{"type": "Feature", "id": "qMfTf9guoYHod8odE42YRwUdZeM=", "properties": {"ref": "578", "@spider": "bj-restaurant", "amenity": "restaurant", "cuisine": "american", "official_name": "BJ's Restaurant & Brewhouse", "addr:full": "3265 West Market St. Suite 85", "addr:city": "Fairlawn", "addr:state": "OH", "addr:postcode": "44333", "name": "BJ's Restaurants and Brewhouse Fairlawn Summit Mall", "phone": "330-576-9480", "website": "https://www.bjsrestaurants.com/locations/oh/fairlawn-summit-mall", "opening_hours": "Su 11:00 - 23:00;Mo 11:00 - 23:00;Tu 11:00 - 23:00;We 11:00 - 23:00;Th 11:00 - 23:00;Fr 11:00 - 00:00;Sa 11:00 - 00:00", "brand": "BJ's Restaurant & Brewery", "brand:wikidata": "Q4835755", "nsi_id": "bjs-96af40"}, "geometry": {"type": "Point", "coordinates": [-81.617866, 41.133811]}},
{"type": "Feature", "id": "zPrO5ap92AZeWf2KUD51j8ivRPM=", "properties": {"ref": "576", "@spider": "bj-restaurant", "amenity": "restaurant", "cuisine": "american", "official_name": "BJ's Restaurant & Brewhouse", "addr:full": "6476 Strip Ave. NW", "addr:city": "North Canton", "addr:state": "OH", "addr:postcode": "44720", "name": "BJ's Restaurants and Brewhouse Canton", "phone": "234-401-0220", "website": "https://www.bjsrestaurants.com/locations/oh/canton", "opening_hours": "Su 11:00 - 23:00;Mo 11:00 - 23:00;Tu 11:00 - 23:00;We 11:00 - 23:00;Th 11:00 - 23:00;Fr 11:00 - 00:00;Sa 11:00 - 00:00", "brand": "BJ's Restaurant & Brewery", "brand:wikidata": "Q4835755", "nsi_id": "bjs-96af40"}, "geometry": {"type": "Point", "coordinates": [-81.432765, 40.875024]}},
{"type": "Feature", "id": "cE84VKdQx0fZQmZg4Cvc8N3Jsh0=", "properties": {"ref": "603", "@spider": "bj-restaurant", "amenity": "restaurant", "cuisine": "american", "official_name": "BJ's Restaurant & Brewhouse", "addr:full": "7327 Market Street", "addr:city": "Boardman", "addr:state": "OH", "addr:postcode": "44512", "name": "BJ's Restaurants and Brewhouse Youngstown", "phone": "234-719-5010", "website": "https://www.bjsrestaurants.com/locations/oh/youngstown", "opening_hours": "Su 11:00 - 23:00;Mo 11:00 - 23:00;Tu 11:00 - 23:00;We 11:00 - 23:00;Th 11:00 - 23:00;Fr 11:00 - 00:00;Sa 11:00 - 00:00", "brand": "BJ's Restaurant & Brewery", "brand:wikidata": "Q4835755", "nsi_id": "bjs-96af40"}, "geometry": {"type": "Point", "coordinates": [-80.662683, 41.023609]}},
{"type": "Feature", "id": "FKAC-jiksDJZ191VWaaAUmKk4iw=", "properties": {"ref": "461", "@spider": "bj-restaurant", "amenity": "restaurant", "cuisine": "american", "official_name": "BJ's Restaurant & Brewhouse", "addr:full": "330 Ed Noble Parkway", "addr:city": "Norman", "addr:state": "OK", "addr:postcode": "73072", "name": "BJ's Restaurants and Brewhouse Norman", "phone": "405-360-4400", "website": "https://www.bjsrestaurants.com/locations/ok/norman", "opening_hours": "Su 11:00 - 23:00;Mo 11:00 - 23:00;Tu 11:00 - 23:00;We 11:00 - 23:00;Th 11:00 - 23:00;Fr 11:00 - 00:00;Sa 11:00 - 00:00", "brand": "BJ's Restaurant & Brewery", "brand:wikidata": "Q4835755", "nsi_id": "bjs-96af40"}, "geometry": {"type": "Point", "coordinates": [-97.487532, 35.216547]}},
{"type": "Feature", "id": "JDKmXnpzAPtr-fTOBoRofLoqS_k=", "properties": {"ref": "466", "@spider": "bj-restaurant", "amenity": "restaurant", "cuisine": "american", "official_name": "BJ's Restaurant & Brewhouse", "addr:full": "2425 W. Memorial Road", "addr:city": "Oklahoma City", "addr:state": "OK", "addr:postcode": "73134", "name": "BJ's Restaurants and Brewhouse Oklahoma City", "phone": "405-748-6770", "website": "https://www.bjsrestaurants.com/locations/ok/oklahoma-city", "opening_hours": "Su 11:00 - 23:00;Mo 11:00 - 23:00;Tu 11:00 - 23:00;We 11:00 - 23:00;Th 11:00 - 23:00;Fr 11:00 - 00:00;Sa 11:00 - 00:00", "brand": "BJ's Restaurant & Brewery", "brand:wikidata": "Q4835755", "nsi_id": "bjs-96af40"}, "geometry": {"type": "Point", "coordinates": [-97.558016, 35.610319]}},
{"type": "Feature", "id": "DZ8IM1nnFAn5jbKJH53Tyh6PQaQ=", "properties": {"ref": "616", "@spider": "bj-restaurant", "amenity": "restaurant", "cuisine": "american", "official_name": "BJ's Restaurant & Brewhouse", "addr:full": "9009 E 71st Street", "addr:city": "Tulsa", "addr:state": "OK", "addr:postcode": "74133", "name": "BJ's Restaurants and Brewhouse Tulsa", "phone": "539-215-9040", "website": "https://www.bjsrestaurants.com/locations/ok/tulsa", "opening_hours": "Su 11:00 - 23:00;Mo 11:00 - 23:00;Tu 11:00 - 23:00;We 11:00 - 23:00;Th 11:00 - 23:00;Fr 11:00 - 00:00;Sa 11:00 - 00:00", "brand": "BJ's Restaurant & Brewery", "brand:wikidata": "Q4835755", "nsi_id": "bjs-96af40"}, "geometry": {"type": "Point", "coordinates": [-95.877142, 36.061509]}},
{"type": "Feature", "id": "KSjub2LbxgSXMUJesy9CohUY3K8=", "properties": {"ref": "533", "@spider": "bj-restaurant", "amenity": "restaurant", "cuisine": "american", "official_name": "BJ's Restaurant & Brewhouse", "addr:full": "7390 NE Cornell Rd", "addr:city": "Hillsboro", "addr:state": "OR", "addr:postcode": "97124", "name": "BJ's Restaurants and Brewhouse Hillsboro", "phone": "503-615-2300", "website": "https://www.bjsrestaurants.com/locations/or/hillsboro", "opening_hours": "Su 11:00 - 23:00;Mo 11:00 - 23:00;Tu 11:00 - 23:00;We 11:00 - 23:00;Th 11:00 - 23:00;Fr 11:00 - 00:00;Sa 11:00 - 00:00", "brand": "BJ's Restaurant & Brewery", "brand:wikidata": "Q4835755", "nsi_id": "bjs-96af40"}, "geometry": {"type": "Point", "coordinates": [-122.901205, 45.539044]}},
{"type": "Feature", "id": "pJbbkjTAsLIGQf9FOFU_IhB0mdE=", "properties": {"ref": "407", "@spider": "bj-restaurant", "amenity": "restaurant", "cuisine": "american", "official_name": "BJ's Restaurant & Brewhouse", "addr:full": "12105 N. Center", "addr:city": "Portland", "addr:state": "OR", "addr:postcode": "97217", "name": "BJ's Restaurants and Brewhouse Jantzen Beach", "phone": "503-289-5566", "website": "https://www.bjsrestaurants.com/locations/or/jantzen-beach", "opening_hours": "Su 11:00 - 22:00;Mo 11:00 - 22:00;Tu 11:00 - 22:00;We 11:00 - 22:00;Th 11:00 - 22:00;Fr 11:00 - 23:00;Sa 11:00 - 23:00", "brand": "BJ's Restaurant & Brewery", "brand:wikidata": "Q4835755", "nsi_id": "bjs-96af40"}, "geometry": {"type": "Point", "coordinates": [-122.680467, 45.610679]}},
{"type": "Feature", "id": "d0dvhrEDH9MlX-Q99zVqMUYEDvA=", "properties": {"ref": "590", "@spider": "bj-restaurant", "amenity": "restaurant", "cuisine": "american", "official_name": "BJ's Restaurant & Brewhouse", "addr:full": "1819 Washington Rd.", "addr:city": "Upper St. Clair", "addr:state": "PA", "addr:postcode": "15241", "name": "BJ's Restaurants and Brewhouse South Hills", "phone": "412-347-4790", "website": "https://www.bjsrestaurants.com/locations/pa/south-hills", "opening_hours": "Su 11:00 - 00:00;Mo 11:00 - 00:00;Tu 11:00 - 00:00;We 11:00 - 00:00;Th 11:00 - 00:00;Fr 11:00 - 00:00;Sa 11:00 - 00:00", "brand": "BJ's Restaurant & Brewery", "brand:wikidata": "Q4835755", "nsi_id": "bjs-96af40"}, "geometry": {"type": "Point", "coordinates": [-80.056165, 40.346413]}},
{"type": "Feature", "id": "BF8L7fJutCq0k2BgBsZzXqO_sQI=", "properties": {"ref": "594", "@spider": "bj-restaurant", "amenity": "restaurant", "cuisine": "american", "official_name": "BJ's Restaurant & Brewhouse", "addr:full": "665 N Krocks Rd.", "addr:city": "Allentown", "addr:state": "PA", "addr:postcode": "18106", "name": "BJ's Restaurants and Brewhouse Allentown", "phone": "484-268-2340", "website": "https://www.bjsrestaurants.com/locations/pa/allentown", "opening_hours": "Su 11:00 - 23:00;Mo 11:00 - 23:00;Tu 11:00 - 23:00;We 11:00 - 23:00;Th 11:00 - 23:00;Fr 11:00 - 00:00;Sa 11:00 - 00:00", "brand": "BJ's Restaurant & Brewery", "brand:wikidata": "Q4835755", "nsi_id": "bjs-96af40"}, "geometry": {"type": "Point", "coordinates": [-75.564093, 40.565596]}},
{"type": "Feature", "id": "lGxNej9Se5wHf2V7TPIHbhi1vPw=", "properties": {"ref": "582", "@spider": "bj-restaurant", "amenity": "restaurant", "cuisine": "american", "official_name": "BJ's Restaurant & Brewhouse", "addr:full": "925 Plaza Blvd", "addr:city": "Lancaster", "addr:state": "PA", "addr:postcode": "17601", "name": "BJ's Restaurants and Brewhouse Lancaster", "phone": "717-320-8840", "website": "https://www.bjsrestaurants.com/locations/pa/lancaster", "opening_hours": "Su 11:00 - 23:00;Mo 11:00 - 23:00;Tu 11:00 - 23:00;We 11:00 - 23:00;Th 11:00 - 23:00;Fr 11:00 - 00:00;Sa 11:00 - 00:00", "brand": "BJ's Restaurant & Brewery", "brand:wikidata": "Q4835755", "nsi_id": "bjs-96af40"}, "geometry": {"type": "Point", "coordinates": [-76.343033, 40.066462]}},
{"type": "Feature", "id": "xnTv0SQ3TpmFhXz51KkAUsX8q-w=", "properties": {"ref": "465", "@spider": "bj-restaurant", "amenity": "restaurant", "cuisine": "american", "official_name": "BJ's Restaurant & Brewhouse", "addr:full": "3200 Expressway 83", "addr:city": "McAllen", "addr:state": "TX", "addr:postcode": "78501", "name": "BJ's Restaurants and Brewhouse McAllen", "phone": "956-687-2005", "website": "https://www.bjsrestaurants.com/locations/tx/mcallen", "opening_hours": "Su 11:00 - 23:00;Mo 11:00 - 23:00;Tu 11:00 - 23:00;We 11:00 - 23:00;Th 11:00 - 23:00;Fr 11:00 - 00:00;Sa 11:00 - 00:00", "brand": "BJ's Restaurant & Brewery", "brand:wikidata": "Q4835755", "nsi_id": "bjs-96af40"}, "geometry": {"type": "Point", "coordinates": [-98.259391, 26.194997]}},
{"type": "Feature", "id": "dvYb4j0tCVyUIcwc8rH9L7cNBbQ=", "properties": {"ref": "534", "@spider": "bj-restaurant", "amenity": "restaurant", "cuisine": "american", "official_name": "BJ's Restaurant & Brewhouse", "addr:full": "4805 South Loop 289 Bldg #100", "addr:city": "Lubbock", "addr:state": "TX", "addr:postcode": "79424", "name": "BJ's Restaurants and Brewhouse Lubbock", "phone": "806-783-8600", "website": "https://www.bjsrestaurants.com/locations/tx/lubbock", "opening_hours": "Su 11:00 - 23:00;Mo 11:00 - 23:00;Tu 11:00 - 23:00;We 11:00 - 23:00;Th 11:00 - 23:00;Fr 11:00 - 00:00;Sa 11:00 - 00:00", "brand": "BJ's Restaurant & Brewery", "brand:wikidata": "Q4835755", "nsi_id": "bjs-96af40"}, "geometry": {"type": "Point", "coordinates": [-101.914461, 33.531828]}},
{"type": "Feature", "id": "jsC7dmillFiWXJmgSaiSr3RZqVc=", "properties": {"ref": "551", "@spider": "bj-restaurant", "amenity": "restaurant", "cuisine": "american", "official_name": "BJ's Restaurant & Brewhouse", "addr:full": "5037 S Padre Island Drive", "addr:city": "Corpus Christi", "addr:state": "TX", "addr:postcode": "78411", "name": "BJ's Restaurants and Brewhouse Corpus Christi", "phone": "361-985-1600", "website": "https://www.bjsrestaurants.com/locations/tx/corpus-christi", "opening_hours": "Su 11:00 - 23:00;Mo 11:00 - 23:00;Tu 11:00 - 23:00;We 11:00 - 23:00;Th 11:00 - 23:00;Fr 11:00 - 00:00;Sa 11:00 - 00:00", "brand": "BJ's Restaurant & Brewery", "brand:wikidata": "Q4835755", "nsi_id": "bjs-96af40"}, "geometry": {"type": "Point", "coordinates": [-97.380111, 27.712592]}},
{"type": "Feature", "id": "UPhdgY_WqvfMirpAFewQ51nP7UM=", "properties": {"ref": "498", "@spider": "bj-restaurant", "amenity": "restaurant", "cuisine": "american", "official_name": "BJ's Restaurant & Brewhouse", "addr:full": "5447 W. Loop 1604 North", "addr:city": "San Antonio", "addr:state": "TX", "addr:postcode": "78253", "name": "BJ's Restaurants and Brewhouse Alamo Ranch", "phone": "210-523-5700", "website": "https://www.bjsrestaurants.com/locations/tx/alamo-ranch", "opening_hours": "Su 11:00 - 23:00;Mo 11:00 - 23:00;Tu 11:00 - 23:00;We 11:00 - 23:00;Th 11:00 - 23:00;Fr 11:00 - 00:00;Sa 11:00 - 00:00", "brand": "BJ's Restaurant & Brewery", "brand:wikidata": "Q4835755", "nsi_id": "bjs-96af40"}, "geometry": {"type": "Point", "coordinates": [-98.707801, 29.490112]}},
{"type": "Feature", "id": "8dKXUJmHDv2Xx7OGa6E7q8X0x9s=", "properties": {"ref": "499", "@spider": "bj-restaurant", "amenity": "restaurant", "cuisine": "american", "official_name": "BJ's Restaurant & Brewhouse", "addr:full": "17503 IH 10 W", "addr:city": "San Antonio", "addr:state": "TX", "addr:postcode": "78257", "name": "BJ's Restaurants and Brewhouse San Antonio - The Rim", "phone": "210-690-2600", "website": "https://www.bjsrestaurants.com/locations/tx/san-antonio---the-rim", "opening_hours": "Su 11:00 - 23:00;Mo 11:00 - 23:00;Tu 11:00 - 23:00;We 11:00 - 23:00;Th 11:00 - 23:00;Fr 11:00 - 00:00;Sa 11:00 - 00:00", "brand": "BJ's Restaurant & Brewery", "brand:wikidata": "Q4835755", "nsi_id": "bjs-96af40"}, "geometry": {"type": "Point", "coordinates": [-98.601247, 29.607736]}},
{"type": "Feature", "id": "Ft5DKxmaaudNC-rAlT3h4oxi5rY=", "properties": {"ref": "480", "@spider": "bj-restaurant", "amenity": "restaurant", "cuisine": "american", "official_name": "BJ's Restaurant & Brewhouse", "addr:full": "22410 US Highway 281 North", "addr:city": "San Antonio", "addr:state": "TX", "addr:postcode": "78259", "name": "BJ's Restaurants and Brewhouse San Antonio", "phone": "210-497-6070", "website": "https://www.bjsrestaurants.com/locations/tx/san-antonio", "opening_hours": "Su 11:00 - 23:00;Mo 11:00 - 23:00;Tu 11:00 - 23:00;We 11:00 - 23:00;Th 11:00 - 23:00;Fr 11:00 - 00:00;Sa 11:00 - 00:00", "brand": "BJ's Restaurant & Brewery", "brand:wikidata": "Q4835755", "nsi_id": "bjs-96af40"}, "geometry": {"type": "Point", "coordinates": [-98.448534, 29.649666]}},
{"type": "Feature", "id": "w9xclxXxNQU6sme6otxjhWgGKAo=", "properties": {"ref": "628", "@spider": "bj-restaurant", "amenity": "restaurant", "cuisine": "american", "official_name": "BJ's Restaurant & Brewhouse", "addr:full": "2050 IKEA RBFCU Parkway", "addr:city": "Live Oak", "addr:state": "TX", "addr:postcode": "78233", "name": "BJ's Restaurants and Brewhouse Live Oak", "phone": "726-262-0390", "website": "https://www.bjsrestaurants.com/locations/tx/live-oak", "opening_hours": "Su 11:00 - 23:00;Mo 11:00 - 23:00;Tu 11:00 - 23:00;We 11:00 - 23:00;Th 11:00 - 23:00;Fr 11:00 - 00:00;Sa 11:00 - 00:00", "brand": "BJ's Restaurant & Brewery", "brand:wikidata": "Q4835755", "nsi_id": "bjs-96af40"}, "geometry": {"type": "Point", "coordinates": [-98.341685, 29.563697]}},
{"type": "Feature", "id": "PNt7vV-me75U_JrnXGnbvxWj1pg=", "properties": {"ref": "525", "@spider": "bj-restaurant", "amenity": "restaurant", "cuisine": "american", "official_name": "BJ's Restaurant & Brewhouse", "addr:full": "2951 Cold Spring Drive", "addr:city": "New Braunfels", "addr:state": "TX", "addr:postcode": "78130", "name": "BJ's Restaurants and Brewhouse New Braunfels", "phone": "830-620-1400", "website": "https://www.bjsrestaurants.com/locations/tx/new-braunfels", "opening_hours": "Su 11:00 - 23:00;Mo 11:00 - 23:00;Tu 11:00 - 23:00;We 11:00 - 23:00;Th 11:00 - 23:00;Fr 11:00 - 00:00;Sa 11:00 - 00:00", "brand": "BJ's Restaurant & Brewery", "brand:wikidata": "Q4835755", "nsi_id": "bjs-96af40"}, "geometry": {"type": "Point", "coordinates": [-98.07583, 29.729797]}},
{"type": "Feature", "id": "yZnprf2kAkqT4QCYVfnA3TQVUJU=", "properties": {"ref": "471", "@spider": "bj-restaurant", "amenity": "restaurant", "cuisine": "american", "official_name": "BJ's Restaurant & Brewhouse", "addr:full": "5207 Brodie Lane #300", "addr:city": "Sunset Valley", "addr:state": "TX", "addr:postcode": "78745", "name": "BJ's Restaurants and Brewhouse Sunset Valley", "phone": "512-892-3800", "website": "https://www.bjsrestaurants.com/locations/tx/sunset-valley", "opening_hours": "Su 11:00 - 22:00;Mo 11:00 - 23:00;Tu 11:00 - 23:00;We 11:00 - 23:00;Th 11:00 - 23:00;Fr 11:00 - 00:00;Sa 11:00 - 00:00", "brand": "BJ's Restaurant & Brewery", "brand:wikidata": "Q4835755", "nsi_id": "bjs-96af40"}, "geometry": {"type": "Point", "coordinates": [-97.816851, 30.231834]}},
{"type": "Feature", "id": "J6Y0uo_v7evdhsMoQu6ji-KeVeA=", "properties": {"ref": "506", "@spider": "bj-restaurant", "amenity": "restaurant", "cuisine": "american", "official_name": "BJ's Restaurant & Brewhouse", "addr:full": "10515 Mopac Expressway", "addr:city": "Austin", "addr:state": "TX", "addr:postcode": "78759", "name": "BJ's Restaurants and Brewhouse Arbor Walk", "phone": "512-349-9000", "website": "https://www.bjsrestaurants.com/locations/tx/arbor-walk", "opening_hours": "Su 11:00 - 23:00;Mo 11:00 - 23:00;Tu 11:00 - 23:00;We 11:00 - 23:00;Th 11:00 - 23:00;Fr 11:00 - 00:00;Sa 11:00 - 00:00", "brand": "BJ's Restaurant & Brewery", "brand:wikidata": "Q4835755", "nsi_id": "bjs-96af40"}, "geometry": {"type": "Point", "coordinates": [-97.732388, 30.392105]}},
{"type": "Feature", "id": "bkdNWnhRPuGlDZFrbDNZLmQBi1c=", "properties": {"ref": "560", "@spider": "bj-restaurant", "amenity": "restaurant", "cuisine": "american", "official_name": "BJ's Restaurant & Brewhouse", "addr:full": "1001 E. Whitestone Blvd", "addr:city": "Cedar Park", "addr:state": "TX", "addr:postcode": "78613", "name": "BJ's Restaurants and Brewhouse Cedar Park", "phone": "512-379-2180", "website": "https://www.bjsrestaurants.com/locations/tx/cedar-park", "opening_hours": "Su 11:00 - 23:00;Mo 11:00 - 23:00;Tu 11:00 - 23:00;We 11:00 - 23:00;Th 11:00 - 23:00;Fr 11:00 - 00:00;Sa 11:00 - 00:00", "brand": "BJ's Restaurant & Brewery", "brand:wikidata": "Q4835755", "nsi_id": "bjs-96af40"}, "geometry": {"type": "Point", "coordinates": [-97.817848, 30.525107]}},
{"type": "Feature", "id": "f8qSTU-bNvqhFGf_cxK7brYm-dk=", "properties": {"ref": "522", "@spider": "bj-restaurant", "amenity": "restaurant", "cuisine": "american", "official_name": "BJ's Restaurant & Brewhouse", "addr:full": "4201 North IH 35", "addr:city": "Round Rock", "addr:state": "TX", "addr:postcode": "78664", "name": "BJ's Restaurants and Brewhouse Round Rock", "phone": "512-868-5705", "website": "https://www.bjsrestaurants.com/locations/tx/round-rock", "opening_hours": "Su 11:00 - 23:00;Mo 11:00 - 23:00;Tu 11:00 - 23:00;We 11:00 - 23:00;Th 11:00 - 23:00;Fr 11:00 - 00:00;Sa 11:00 - 00:00", "brand": "BJ's Restaurant & Brewery", "brand:wikidata": "Q4835755", "nsi_id": "bjs-96af40"}, "geometry": {"type": "Point", "coordinates": [-97.691746, 30.561081]}},
{"type": "Feature", "id": "GDbGNu_4bcVe_PbXGqQup07mWJo=", "properties": {"ref": "470", "@spider": "bj-restaurant", "amenity": "restaurant", "cuisine": "american", "official_name": "BJ's Restaurant & Brewhouse", "addr:full": "3550 S. General Bruce Dr. Building G", "addr:city": "Temple", "addr:state": "TX", "addr:postcode": "76504", "name": "BJ's Restaurants and Brewhouse Temple", "phone": "254-778-3300", "website": "https://www.bjsrestaurants.com/locations/tx/temple", "opening_hours": "Su 11:00 - 23:00;Mo 11:00 - 23:00;Tu 11:00 - 23:00;We 11:00 - 23:00;Th 11:00 - 23:00;Fr 11:00 - 00:00;Sa 11:00 - 00:00", "brand": "BJ's Restaurant & Brewery", "brand:wikidata": "Q4835755", "nsi_id": "bjs-96af40"}, "geometry": {"type": "Point", "coordinates": [-97.385774, 31.091767]}},
{"type": "Feature", "id": "clZcCu9oNTlmaMgF92aLo3sAJpk=", "properties": {"ref": "519", "@spider": "bj-restaurant", "amenity": "restaurant", "cuisine": "american", "official_name": "BJ's Restaurant & Brewhouse", "addr:full": "5929 West Waco Drive", "addr:city": "Waco", "addr:state": "TX", "addr:postcode": "76710", "name": "BJ's Restaurants and Brewhouse Waco", "phone": "254-776-0200", "website": "https://www.bjsrestaurants.com/locations/tx/waco", "opening_hours": "Su 11:00 - 23:00;Mo 11:00 - 23:00;Tu 11:00 - 23:00;We 11:00 - 23:00;Th 11:00 - 23:00;Fr 11:00 - 00:00;Sa 11:00 - 00:00", "brand": "BJ's Restaurant & Brewery", "brand:wikidata": "Q4835755", "nsi_id": "bjs-96af40"}, "geometry": {"type": "Point", "coordinates": [-97.188868, 31.513761]}},
{"type": "Feature", "id": "5nPRiR9_YK6rKq8Zns7FFvinnak=", "properties": {"ref": "442", "@spider": "bj-restaurant", "amenity": "restaurant", "cuisine": "american", "official_name": "BJ's Restaurant & Brewhouse", "addr:full": "2231 Highway 6", "addr:city": "Sugarland", "addr:state": "TX", "addr:postcode": "77478", "name": "BJ's Restaurants and Brewhouse Sugar Land", "phone": "281-242-0400", "website": "https://www.bjsrestaurants.com/locations/tx/sugar-land", "opening_hours": "Su 11:00 - 00:00;Mo 11:00 - 00:00;Tu 11:00 - 00:00;We 11:00 - 00:00;Th 11:00 - 00:00;Fr 11:00 - 01:00;Sa 11:00 - 01:00", "brand": "BJ's Restaurant & Brewery", "brand:wikidata": "Q4835755", "nsi_id": "bjs-96af40"}, "geometry": {"type": "Point", "coordinates": [-95.620159, 29.598085]}},
{"type": "Feature", "id": "9mfYuXXBW9JcKMECHOtE0TBQONA=", "properties": {"ref": "555", "@spider": "bj-restaurant", "amenity": "restaurant", "cuisine": "american", "official_name": "BJ's Restaurant & Brewhouse", "addr:full": "20536 Katy Freeway", "addr:city": "Katy", "addr:state": "TX", "addr:postcode": "77449", "name": "BJ's Restaurants and Brewhouse Katy", "phone": "281-769-1850", "website": "https://www.bjsrestaurants.com/locations/tx/katy", "opening_hours": "Su 11:00 - 00:00;Mo 11:00 - 00:00;Tu 11:00 - 00:00;We 11:00 - 00:00;Th 11:00 - 00:00;Fr 11:00 - 01:00;Sa 11:00 - 01:00", "brand": "BJ's Restaurant & Brewery", "brand:wikidata": "Q4835755", "nsi_id": "bjs-96af40"}, "geometry": {"type": "Point", "coordinates": [-95.728024, 29.785618]}},
{"type": "Feature", "id": "jtyaFKzIOWNPM-HghQxtPqtgMlo=", "properties": {"ref": "513", "@spider": "bj-restaurant", "amenity": "restaurant", "cuisine": "american", "official_name": "BJ's Restaurant & Brewhouse", "addr:full": "1520 Harvey Road", "addr:city": "College Station", "addr:state": "TX", "addr:postcode": "77845", "name": "BJ's Restaurants and Brewhouse College Station", "phone": "979-696-5700", "website": "https://www.bjsrestaurants.com/locations/tx/college-station", "opening_hours": "Su 11:00 - 23:00;Mo 11:00 - 23:00;Tu 11:00 - 23:00;We 11:00 - 23:00;Th 11:00 - 23:00;Fr 11:00 - 00:00;Sa 11:00 - 00:00", "brand": "BJ's Restaurant & Brewery", "brand:wikidata": "Q4835755", "nsi_id": "bjs-96af40"}, "geometry": {"type": "Point", "coordinates": [-96.302404, 30.626983]}},
{"type": "Feature", "id": "raaX-muyrocC0Fm0x1GhKu-eTFY=", "properties": {"ref": "481", "@spider": "bj-restaurant", "amenity": "restaurant", "cuisine": "american", "official_name": "BJ's Restaurant & Brewhouse", "addr:full": "11200 Broadway Suite 1700", "addr:city": "Pearland", "addr:state": "TX", "addr:postcode": "77584", "name": "BJ's Restaurants and Brewhouse Pearland", "phone": "713-436-7805", "website": "https://www.bjsrestaurants.com/locations/tx/pearland", "opening_hours": "Su 11:00 - 00:00;Mo 11:00 - 00:00;Tu 11:00 - 00:00;We 11:00 - 00:00;Th 11:00 - 00:00;Fr 11:00 - 01:00;Sa 11:00 - 01:00", "brand": "BJ's Restaurant & Brewery", "brand:wikidata": "Q4835755", "nsi_id": "bjs-96af40"}, "geometry": {"type": "Point", "coordinates": [-95.39354, 29.55471]}},
{"type": "Feature", "id": "wfunIPb7xjWGDm0R1WV51yW67QE=", "properties": {"ref": "431", "@spider": "bj-restaurant", "amenity": "restaurant", "cuisine": "american", "official_name": "BJ's Restaurant & Brewhouse", "addr:full": "7637 FM 1960 West", "addr:city": "Houston", "addr:state": "TX", "addr:postcode": "77070", "name": "BJ's Restaurants and Brewhouse Willowbrook", "phone": "281-477-8777", "website": "https://www.bjsrestaurants.com/locations/tx/willowbrook", "opening_hours": "Su 11:00 - 00:00;Mo 11:00 - 00:00;Tu 11:00 - 00:00;We 11:00 - 00:00;Th 11:00 - 00:00;Fr 11:00 - 01:00;Sa 11:00 - 01:00", "brand": "BJ's Restaurant & Brewery", "brand:wikidata": "Q4835755", "nsi_id": "bjs-96af40"}, "geometry": {"type": "Point", "coordinates": [-95.544606, 29.962532]}},
{"type": "Feature", "id": "kC_YIcPTKd8RbgDbPfGM4qj8iBM=", "properties": {"ref": "428", "@spider": "bj-restaurant", "amenity": "restaurant", "cuisine": "american", "official_name": "BJ's Restaurant & Brewhouse", "addr:full": "515 W. Bay Area Boulevard", "addr:city": "Webster", "addr:state": "TX", "addr:postcode": "77598", "name": "BJ's Restaurants and Brewhouse Clear Lake", "phone": "281-316-3037", "website": "https://www.bjsrestaurants.com/locations/tx/clear-lake", "opening_hours": "Su 11:00 - 00:00;Mo 11:00 - 00:00;Tu 11:00 - 00:00;We 11:00 - 00:00;Th 11:00 - 00:00;Fr 11:00 - 01:00;Sa 11:00 - 01:00", "brand": "BJ's Restaurant & Brewery", "brand:wikidata": "Q4835755", "nsi_id": "bjs-96af40"}, "geometry": {"type": "Point", "coordinates": [-95.132557, 29.545214]}},
{"type": "Feature", "id": "xJovZ1_eQfzJd49ANr6xQLXkoRI=", "properties": {"ref": "515", "@spider": "bj-restaurant", "amenity": "restaurant", "cuisine": "american", "official_name": "BJ's Restaurant & Brewhouse", "addr:full": "4720 South Hulen Street", "addr:city": "Fort Worth", "addr:state": "TX", "addr:postcode": "76132", "name": "BJ's Restaurants and Brewhouse Hulen Mall", "phone": "817-292-9200", "website": "https://www.bjsrestaurants.com/locations/tx/hulen-mall", "opening_hours": "Su 11:00 - 23:00;Mo 11:00 - 23:00;Tu 11:00 - 23:00;We 11:00 - 23:00;Th 11:00 - 23:00;Fr 11:00 - 00:00;Sa 11:00 - 00:00", "brand": "BJ's Restaurant & Brewery", "brand:wikidata": "Q4835755", "nsi_id": "bjs-96af40"}, "geometry": {"type": "Point", "coordinates": [-97.39702, 32.677913]}},
{"type": "Feature", "id": "uS5I5oOfjg9ry3dfYSItZtE59KI=", "properties": {"ref": "505", "@spider": "bj-restaurant", "amenity": "restaurant", "cuisine": "american", "official_name": "BJ's Restaurant & Brewhouse", "addr:full": "19075 Interstate 45 South Suite 600", "addr:city": "Shenandoah", "addr:state": "TX", "addr:postcode": "77385", "name": "BJ's Restaurants and Brewhouse Shenandoah", "phone": "936-273-7100", "website": "https://www.bjsrestaurants.com/locations/tx/shenandoah", "opening_hours": "Su 11:00 - 23:00;Mo 11:00 - 23:00;Tu 11:00 - 23:00;We 11:00 - 23:00;Th 11:00 - 23:00;Fr 11:00 - 00:00;Sa 11:00 - 00:00", "brand": "BJ's Restaurant & Brewery", "brand:wikidata": "Q4835755", "nsi_id": "bjs-96af40"}, "geometry": {"type": "Point", "coordinates": [-95.451435, 30.18519]}},
{"type": "Feature", "id": "Jiw1yviAPZvG76i8RBuTibOHS3Q=", "properties": {"ref": "496", "@spider": "bj-restaurant", "amenity": "restaurant", "cuisine": "american", "official_name": "BJ's Restaurant & Brewhouse", "addr:full": "9401 Sage Meadow Trail", "addr:city": "Fort Worth", "addr:state": "TX", "addr:postcode": "76177", "name": "BJ's Restaurants and Brewhouse Alliance", "phone": "817-750-0005", "website": "https://www.bjsrestaurants.com/locations/tx/alliance", "opening_hours": "Su 11:00 - 23:00;Mo 11:00 - 23:00;Tu 11:00 - 23:00;We 11:00 - 23:00;Th 11:00 - 23:00;Fr 11:00 - 00:00;Sa 11:00 - 00:00", "brand": "BJ's Restaurant & Brewery", "brand:wikidata": "Q4835755", "nsi_id": "bjs-96af40"}, "geometry": {"type": "Point", "coordinates": [-97.316108, 32.910064]}},
{"type": "Feature", "id": "05eBI3nCjBWJmy7jnv2Md--loT0=", "properties": {"ref": "494", "@spider": "bj-restaurant", "amenity": "restaurant", "cuisine": "american", "official_name": "BJ's Restaurant & Brewhouse", "addr:full": "952 North East Loop 820", "addr:city": "Hurst", "addr:state": "TX", "addr:postcode": "76053", "name": "BJ's Restaurants and Brewhouse Hurst", "phone": "817-595-3705", "website": "https://www.bjsrestaurants.com/locations/tx/hurst", "opening_hours": "Su 11:00 - 23:00;Mo 11:00 - 23:00;Tu 11:00 - 23:00;We 11:00 - 23:00;Th 11:00 - 23:00;Fr 11:00 - 00:00;Sa 11:00 - 00:00", "brand": "BJ's Restaurant & Brewery", "brand:wikidata": "Q4835755", "nsi_id": "bjs-96af40"}, "geometry": {"type": "Point", "coordinates": [-97.203786, 32.828285]}},
{"type": "Feature", "id": "dxBK3xzlCjkU5d2pfDswuNTC7Ig=", "properties": {"ref": "455", "@spider": "bj-restaurant", "amenity": "restaurant", "cuisine": "american", "official_name": "BJ's Restaurant & Brewhouse", "addr:full": "201 E. Interstate 20", "addr:city": "Arlington", "addr:state": "TX", "addr:postcode": "76018", "name": "BJ's Restaurants and Brewhouse Arlington", "phone": "817-465-5225", "website": "https://www.bjsrestaurants.com/locations/tx/arlington", "opening_hours": "Su 11:00 - 00:00;Mo 11:00 - 00:00;Tu 11:00 - 00:00;We 11:00 - 00:00;Th 11:00 - 00:00;Fr 11:00 - 01:00;Sa 11:00 - 01:00", "brand": "BJ's Restaurant & Brewery", "brand:wikidata": "Q4835755", "nsi_id": "bjs-96af40"}, "geometry": {"type": "Point", "coordinates": [-97.110775, 32.679071]}},
{"type": "Feature", "id": "oBNC7LfHrZgCiCkA77lXBO4Tdjo=", "properties": {"ref": "567", "@spider": "bj-restaurant", "amenity": "restaurant", "cuisine": "american", "official_name": "BJ's Restaurant & Brewhouse", "addr:full": "2201 E. Southlake Blvd.", "addr:city": "Southlake", "addr:state": "TX", "addr:postcode": "76092", "name": "BJ's Restaurants and Brewhouse Southlake", "phone": "817-796-9990", "website": "https://www.bjsrestaurants.com/locations/tx/southlake", "opening_hours": "Su 11:00 - 22:00;Mo 11:00 - 22:00;Tu 11:00 - 22:00;We 11:00 - 22:00;Th 11:00 - 22:00;Fr 11:00 - 23:00;Sa 11:00 - 23:00", "brand": "BJ's Restaurant & Brewery", "brand:wikidata": "Q4835755", "nsi_id": "bjs-96af40"}, "geometry": {"type": "Point", "coordinates": [-97.118, 32.94064]}},
{"type": "Feature", "id": "dMjBOsqTCd0UzGfZ2uvGmPIlfSo=", "properties": {"ref": "556", "@spider": "bj-restaurant", "amenity": "restaurant", "cuisine": "american", "official_name": "BJ's Restaurant & Brewhouse", "addr:full": "3250 South I-35E", "addr:city": "Denton", "addr:state": "TX", "addr:postcode": "76210", "name": "BJ's Restaurants and Brewhouse Denton", "phone": "940-222-4020", "website": "https://www.bjsrestaurants.com/locations/tx/denton", "opening_hours": "Su 11:00 - 00:00;Mo 11:00 - 00:00;Tu 11:00 - 00:00;We 11:00 - 00:00;Th 11:00 - 00:00;Fr 11:00 - 01:00;Sa 11:00 - 01:00", "brand": "BJ's Restaurant & Brewery", "brand:wikidata": "Q4835755", "nsi_id": "bjs-96af40"}, "geometry": {"type": "Point", "coordinates": [-97.098341, 33.174932]}},
{"type": "Feature", "id": "6560uYxGjE-KV5MUROtZkIZuYNk=", "properties": {"ref": "424", "@spider": "bj-restaurant", "amenity": "restaurant", "cuisine": "american", "official_name": "BJ's Restaurant & Brewhouse", "addr:full": "2609 S. Stemmons", "addr:city": "Lewisville", "addr:state": "TX", "addr:postcode": "75067", "name": "BJ's Restaurants and Brewhouse Lewisville", "phone": "972-459-9700", "website": "https://www.bjsrestaurants.com/locations/tx/lewisville", "opening_hours": "Su 11:00 - 00:00;Mo 11:00 - 00:00;Tu 11:00 - 00:00;We 11:00 - 00:00;Th 11:00 - 00:00;Fr 11:00 - 01:00;Sa 11:00 - 01:00", "brand": "BJ's Restaurant & Brewery", "brand:wikidata": "Q4835755", "nsi_id": "bjs-96af40"}, "geometry": {"type": "Point", "coordinates": [-96.962032, 33.000238]}},
{"type": "Feature", "id": "ugzSJAC3hqGkoqLdIDfhd39FQ1Q=", "properties": {"ref": "427", "@spider": "bj-restaurant", "amenity": "restaurant", "cuisine": "american", "official_name": "BJ's Restaurant & Brewhouse", "addr:full": "4901 Belt Line Road", "addr:city": "Dallas", "addr:state": "TX", "addr:postcode": "75254", "name": "BJ's Restaurants and Brewhouse Addison", "phone": "972-392-4600", "website": "https://www.bjsrestaurants.com/locations/tx/addison", "opening_hours": "Su 11:00 - 23:00;Mo 11:00 - 23:00;Tu 11:00 - 23:00;We 11:00 - 23:00;Th 11:00 - 23:00;Fr 11:00 - 00:00;Sa 11:00 - 00:00", "brand": "BJ's Restaurant & Brewery", "brand:wikidata": "Q4835755", "nsi_id": "bjs-96af40"}, "geometry": {"type": "Point", "coordinates": [-96.82809, 32.954507]}},
{"type": "Feature", "id": "7L5vPQTiM7KlxnOdS5Cs0OQLszI=", "properties": {"ref": "488", "@spider": "bj-restaurant", "amenity": "restaurant", "cuisine": "american", "official_name": "BJ's Restaurant & Brewhouse", "addr:full": "1106 Town East Mall", "addr:city": "Mesquite", "addr:state": "TX", "addr:postcode": "75150", "name": "BJ's Restaurants and Brewhouse Mesquite", "phone": "972-682-5800", "website": "https://www.bjsrestaurants.com/locations/tx/mesquite", "opening_hours": "Su 11:00 - 22:00;Mo 11:00 - 22:00;Tu 11:00 - 22:00;We 11:00 - 22:00;Th 11:00 - 22:00;Fr 11:00 - 23:00;Sa 11:00 - 23:00", "brand": "BJ's Restaurant & Brewery", "brand:wikidata": "Q4835755", "nsi_id": "bjs-96af40"}, "geometry": {"type": "Point", "coordinates": [-96.623153, 32.808328]}},
{"type": "Feature", "id": "KHUFa6_S82sesQK-Tyilqa-2VTo=", "properties": {"ref": "439", "@spider": "bj-restaurant", "amenity": "restaurant", "cuisine": "american", "official_name": "BJ's Restaurant & Brewhouse", "addr:full": "1101 North Central Expressway", "addr:city": "Plano", "addr:state": "TX", "addr:postcode": "75075", "name": "BJ's Restaurants and Brewhouse Plano", "phone": "972-424-4262", "website": "https://www.bjsrestaurants.com/locations/tx/plano", "opening_hours": "Su 11:00 - 23:00;Mo 11:00 - 23:00;Tu 11:00 - 23:00;We 11:00 - 23:00;Th 11:00 - 23:00;Fr 11:00 - 00:00;Sa 11:00 - 00:00", "brand": "BJ's Restaurant & Brewery", "brand:wikidata": "Q4835755", "nsi_id": "bjs-96af40"}, "geometry": {"type": "Point", "coordinates": [-96.709573, 33.017399]}},
{"type": "Feature", "id": "6SV-wujPuBo6DCVLpftEkpJuUik=", "properties": {"ref": "491", "@spider": "bj-restaurant", "amenity": "restaurant", "cuisine": "american", "official_name": "BJ's Restaurant & Brewhouse", "addr:full": "190 E Stacy Road Suite 3300", "addr:city": "Allen", "addr:state": "TX", "addr:postcode": "75002", "name": "BJ's Restaurants and Brewhouse Allen", "phone": "972-678-4050", "website": "https://www.bjsrestaurants.com/locations/tx/allen", "opening_hours": "Su 11:00 - 23:00;Mo 11:00 - 23:00;Tu 11:00 - 23:00;We 11:00 - 23:00;Th 11:00 - 23:00;Fr 11:00 - 00:00;Sa 11:00 - 00:00", "brand": "BJ's Restaurant & Brewery", "brand:wikidata": "Q4835755", "nsi_id": "bjs-96af40"}, "geometry": {"type": "Point", "coordinates": [-96.660208, 33.127312]}},
{"type": "Feature", "id": "7q8JT7GuiDOKd33CN1CjYYuWTXY=", "properties": {"ref": "507", "@spider": "bj-restaurant", "amenity": "restaurant", "cuisine": "american", "official_name": "BJ's Restaurant & Brewhouse", "addr:full": "210 Loop 323 WSW", "addr:city": "Tyler", "addr:state": "TX", "addr:postcode": "75703", "name": "BJ's Restaurants and Brewhouse Tyler", "phone": "903-939-2840", "website": "https://www.bjsrestaurants.com/locations/tx/tyler", "opening_hours": "Su 11:00 - 23:00;Mo 11:00 - 23:00;Tu 11:00 - 23:00;We 11:00 - 23:00;Th 11:00 - 23:00;Fr 11:00 - 00:00;Sa 11:00 - 00:00", "brand": "BJ's Restaurant & Brewery", "brand:wikidata": "Q4835755", "nsi_id": "bjs-96af40"}, "geometry": {"type": "Point", "coordinates": [-95.303228, 32.302685]}},
{"type": "Feature", "id": "Iczp8iOzrKNhgqp-OB9hR1sFwoQ=", "properties": {"ref": "579", "@spider": "bj-restaurant", "amenity": "restaurant", "cuisine": "american", "official_name": "BJ's Restaurant & Brewhouse", "addr:full": "314 West Loop 281", "addr:city": "Longview", "addr:state": "TX", "addr:postcode": "75605", "name": "BJ's Restaurants and Brewhouse Longview", "phone": "903-686-2190", "website": "https://www.bjsrestaurants.com/locations/tx/longview", "opening_hours": "Su 11:00 - 23:00;Mo 11:00 - 23:00;Tu 11:00 - 23:00;We 11:00 - 23:00;Th 11:00 - 23:00;Fr 11:00 - 00:00;Sa 11:00 - 00:00", "brand": "BJ's Restaurant & Brewery", "brand:wikidata": "Q4835755", "nsi_id": "bjs-96af40"}, "geometry": {"type": "Point", "coordinates": [-94.753234, 32.540828]}},
{"type": "Feature", "id": "I3ex2PVguMYOAnyBma97uUqxBM8=", "properties": {"ref": "564", "@spider": "bj-restaurant", "amenity": "restaurant", "cuisine": "american", "official_name": "BJ's Restaurant & Brewhouse", "addr:full": "12010 West Broad St", "addr:city": "Henrico", "addr:state": "VA", "addr:postcode": "23233", "name": "BJ's Restaurants and Brewhouse Richmond", "phone": "804-298-2950", "website": "https://www.bjsrestaurants.com/locations/va/richmond", "opening_hours": "Su 11:00 - 23:00;Mo 11:00 - 23:00;Tu 11:00 - 23:00;We 11:00 - 23:00;Th 11:00 - 23:00;Fr 11:00 - 00:00;Sa 11:00 - 00:00", "brand": "BJ's Restaurant & Brewery", "brand:wikidata": "Q4835755", "nsi_id": "bjs-96af40"}, "geometry": {"type": "Point", "coordinates": [-77.629433, 37.657459]}},
{"type": "Feature", "id": "Bnx65VqubG3NZ4rexZpiWk8AbDo=", "properties": {"ref": "593", "@spider": "bj-restaurant", "amenity": "restaurant", "cuisine": "american", "official_name": "BJ's Restaurant & Brewhouse", "addr:full": "3924 Lenox Avenue", "addr:city": "Charlottesville", "addr:state": "VA", "addr:postcode": "22901", "name": "BJ's Restaurants and Brewhouse Charlottesville", "phone": "434-422-5170", "website": "https://www.bjsrestaurants.com/locations/va/charlottesville", "opening_hours": "Su 11:00 - 23:00;Mo 11:00 - 23:00;Tu 11:00 - 23:00;We 11:00 - 23:00;Th 11:00 - 23:00;Fr 11:00 - 00:00;Sa 11:00 - 00:00", "brand": "BJ's Restaurant & Brewery", "brand:wikidata": "Q4835755", "nsi_id": "bjs-96af40"}, "geometry": {"type": "Point", "coordinates": [-78.487877, 38.067038]}},
{"type": "Feature", "id": "vCun_atFLQeOot2xiLtbisim-x8=", "properties": {"ref": "600", "@spider": "bj-restaurant", "amenity": "restaurant", "cuisine": "american", "official_name": "BJ's Restaurant & Brewhouse", "addr:full": "1861 Carl D Silver Pkwy", "addr:city": "Fredericksburg", "addr:state": "VA", "addr:postcode": "22401", "name": "BJ's Restaurants and Brewhouse Fredericksburg", "phone": "540-736-4710", "website": "https://www.bjsrestaurants.com/locations/va/fredericksburg", "opening_hours": "Su 11:00 - 23:00;Mo 11:00 - 23:00;Tu 11:00 - 23:00;We 11:00 - 23:00;Th 11:00 - 23:00;Fr 11:00 - 00:00;Sa 11:00 - 00:00", "brand": "BJ's Restaurant & Brewery", "brand:wikidata": "Q4835755", "nsi_id": "bjs-96af40"}, "geometry": {"type": "Point", "coordinates": [-77.510935, 38.307795]}},
{"type": "Feature", "id": "z4ol5zGdTFp-oAV02S8cHROoImY=", "properties": {"ref": "552", "@spider": "bj-restaurant", "amenity": "restaurant", "cuisine": "american", "official_name": "BJ's Restaurant & Brewhouse", "addr:full": "13930 Promenade Commons St.", "addr:city": "Gainesville", "addr:state": "VA", "addr:postcode": "20155", "name": "BJ's Restaurants and Brewhouse Virginia Gateway", "phone": "571-222-6950", "website": "https://www.bjsrestaurants.com/locations/va/virginia-gateway", "opening_hours": "Su 11:00 - 23:00;Mo 11:00 - 23:00;Tu 11:00 - 23:00;We 11:00 - 23:00;Th 11:00 - 23:00;Fr 11:00 - 00:00;Sa 11:00 - 00:00", "brand": "BJ's Restaurant & Brewery", "brand:wikidata": "Q4835755", "nsi_id": "bjs-96af40"}, "geometry": {"type": "Point", "coordinates": [-77.607474, 38.789628]}},
{"type": "Feature", "id": "XXcP-rHs-TIt1I-xEYc7YPLFn7k=", "properties": {"ref": "537", "@spider": "bj-restaurant", "amenity": "restaurant", "cuisine": "american", "official_name": "BJ's Restaurant & Brewhouse", "addr:full": "8027 Leesburg Pike Suite 100", "addr:city": "Vienna", "addr:state": "VA", "addr:postcode": "22182", "name": "BJ's Restaurants and Brewhouse Vienna", "phone": "703-356-7305", "website": "https://www.bjsrestaurants.com/locations/va/vienna", "opening_hours": "Su 11:00 - 23:00;Mo 11:00 - 23:00;Tu 11:00 - 23:00;We 11:00 - 23:00;Th 11:00 - 23:00;Fr 11:00 - 00:00;Sa 11:00 - 00:00", "brand": "BJ's Restaurant & Brewery", "brand:wikidata": "Q4835755", "nsi_id": "bjs-96af40"}, "geometry": {"type": "Point", "coordinates": [-77.222576, 38.913199]}},
{"type": "Feature", "id": "JhV89nxhJW1YVv0Y_4HsBkeoDxY=", "properties": {"ref": "536", "@spider": "bj-restaurant", "amenity": "restaurant", "cuisine": "american", "official_name": "BJ's Restaurant & Brewhouse", "addr:full": "3703 9th St.", "addr:city": "Puyallup", "addr:state": "WA", "addr:postcode": "98373", "name": "BJ's Restaurants and Brewhouse Puyallup", "phone": "253-848-4000", "website": "https://www.bjsrestaurants.com/locations/wa/puyallup", "opening_hours": "Su 11:00 - 23:00;Mo 11:00 - 23:00;Tu 11:00 - 23:00;We 11:00 - 23:00;Th 11:00 - 23:00;Fr 11:00 - 00:00;Sa 11:00 - 00:00", "brand": "BJ's Restaurant & Brewery", "brand:wikidata": "Q4835755", "nsi_id": "bjs-96af40"}, "geometry": {"type": "Point", "coordinates": [-122.30293, 47.156968]}},
{"type": "Feature", "id": "qNhww5jvmRKHvlE7UqdlVIjHgMY=", "properties": {"ref": "479", "@spider": "bj-restaurant", "amenity": "restaurant", "cuisine": "american", "official_name": "BJ's Restaurant & Brewhouse", "addr:full": "1159 Southcenter Mall", "addr:city": "Tukwila", "addr:state": "WA", "addr:postcode": "98188", "name": "BJ's Restaurants and Brewhouse Southcenter Mall", "phone": "206-439-7500", "website": "https://www.bjsrestaurants.com/locations/wa/southcenter-mall", "opening_hours": "Su 11:00 - 23:00;Mo 11:00 - 23:00;Tu 11:00 - 23:00;We 11:00 - 23:00;Th 11:00 - 23:00;Fr 11:00 - 00:00;Sa 11:00 - 00:00", "brand": "BJ's Restaurant & Brewery", "brand:wikidata": "Q4835755", "nsi_id": "bjs-96af40"}, "geometry": {"type": "Point", "coordinates": [-122.261114, 47.459814]}},
{"type": "Feature", "id": "F9sL7O6JNXCyslDNqeeCKH8lANc=", "properties": {"ref": "535", "@spider": "bj-restaurant", "amenity": "restaurant", "cuisine": "american", "official_name": "BJ's Restaurant & Brewhouse", "addr:full": "7211 166th Ave. NE", "addr:city": "Redmond", "addr:state": "WA", "addr:postcode": "98052", "name": "BJ's Restaurants and Brewhouse Redmond", "phone": "425-376-1560", "website": "https://www.bjsrestaurants.com/locations/wa/redmond", "opening_hours": "Su 11:00 - 22:00;Mo 11:00 - 22:00;Tu 11:00 - 22:00;We 11:00 - 22:00;Th 11:00 - 22:00;Fr 11:00 - 23:00;Sa 11:00 - 23:00", "brand": "BJ's Restaurant & Brewery", "brand:wikidata": "Q4835755", "nsi_id": "bjs-96af40"}, "geometry": {"type": "Point", "coordinates": [-122.119592, 47.668776]}},
{"type": "Feature", "id": "q9H_SPqkLbK0BO7_zEiJC8HxO60=", "properties": {"ref": "553", "@spider": "bj-restaurant", "amenity": "restaurant", "cuisine": "american", "official_name": "BJ's Restaurant & Brewhouse", "addr:full": "101 East Joppa RD", "addr:city": "Baltimore", "addr:state": "MD", "addr:postcode": "21286", "name": "BJ's Restaurants and Brewhouse Towson", "phone": "443-470-6200", "website": "https://www.bjsrestaurants.com/locations/md/towson", "opening_hours": "Su 11:00 - 23:00;Mo 11:00 - 23:00;Tu 11:00 - 23:00;We 11:00 - 23:00;Th 11:00 - 23:00;Fr 11:00 - 00:00;Sa 11:00 - 00:00", "brand": "BJ's Restaurant & Brewery", "brand:wikidata": "Q4835755", "nsi_id": "bjs-96af40"}, "geometry": {"type": "Point", "coordinates": [-76.6001, 39.4016]}},
{"type": "Feature", "id": "BbLv11abAO9L2vCC83h7aSv916U=", "properties": {"ref": "608", "@spider": "bj-restaurant", "amenity": "restaurant", "cuisine": "american", "official_name": "BJ's Restaurant & Brewhouse", "addr:full": "17318 Valley Mall Rd, Suite C", "addr:city": "Hagerstown", "addr:state": "MD", "addr:postcode": "21740", "name": "BJ's Restaurants and Brewhouse Hagerstown", "phone": "240-513-4040", "website": "https://www.bjsrestaurants.com/locations/md/hagerstown", "opening_hours": "Su 11:00 - 23:00;Mo 11:00 - 23:00;Tu 11:00 - 23:00;We 11:00 - 23:00;Th 11:00 - 23:00;Fr 11:00 - 00:00;Sa 11:00 - 00:00", "brand": "BJ's Restaurant & Brewery", "brand:wikidata": "Q4835755", "nsi_id": "bjs-96af40"}, "geometry": {"type": "Point", "coordinates": [-77.770562, 39.626773]}},
{"type": "Feature", "id": "zlJQvy5OVtOC4hLcVg7W3BqMTCI=", "properties": {"ref": "605", "@spider": "bj-restaurant", "amenity": "restaurant", "cuisine": "american", "official_name": "BJ's Restaurant & Brewhouse", "addr:full": "15701 Emerald Way", "addr:city": "Bowie", "addr:state": "MD", "addr:postcode": "20716", "name": "BJ's Restaurants and Brewhouse Bowie", "phone": "301-850-2300", "website": "https://www.bjsrestaurants.com/locations/md/bowie", "opening_hours": "Su 11:00 - 00:00;Mo 11:00 - 00:00;Tu 11:00 - 00:00;We 11:00 - 00:00;Th 11:00 - 00:00;Fr 11:00 - 00:00;Sa 11:00 - 00:00", "brand": "BJ's Restaurant & Brewery", "brand:wikidata": "Q4835755", "nsi_id": "bjs-96af40"}, "geometry": {"type": "Point", "coordinates": [-76.731683, 38.945165]}},
{"type": "Feature", "id": "hTc-S3tXxmwyexS-Zzf0iCvVNIM=", "properties": {"ref": "588", "@spider": "bj-restaurant", "amenity": "restaurant", "cuisine": "american", "official_name": "BJ's Restaurant & Brewhouse", "addr:full": "6181 Columbia Crossing Circle", "addr:city": "Columbia", "addr:state": "MD", "addr:postcode": "21045", "name": "BJ's Restaurants and Brewhouse Columbia", "phone": "443-393-8600", "website": "https://www.bjsrestaurants.com/locations/md/columbia", "opening_hours": "Su 11:00 - 23:00;Mo 11:00 - 23:00;Tu 11:00 - 23:00;We 11:00 - 23:00;Th 11:00 - 23:00;Fr 11:00 - 00:00;Sa 11:00 - 00:00", "brand": "BJ's Restaurant & Brewery", "brand:wikidata": "Q4835755", "nsi_id": "bjs-96af40"}, "geometry": {"type": "Point", "coordinates": [-76.814238, 39.195316]}},
{"type": "Feature", "id": "N8dbxSWwjFYgYjbJs7MjtfH4c2M=", "properties": {"ref": "562", "@spider": "bj-restaurant", "amenity": "restaurant", "cuisine": "american", "official_name": "BJ's Restaurant & Brewhouse", "addr:full": "14714 Baltimore Ave.", "addr:city": "Laurel", "addr:state": "MD", "addr:postcode": "20707", "name": "BJ's Restaurants and Brewhouse Laurel", "phone": "240-547-2680", "website": "https://www.bjsrestaurants.com/locations/md/laurel", "opening_hours": "Su 11:00 - 00:00;Mo 11:00 - 00:00;Tu 11:00 - 00:00;We 11:00 - 00:00;Th 11:00 - 00:00;Fr 11:00 - 00:00;Sa 11:00 - 00:00", "brand": "BJ's Restaurant & Brewery", "brand:wikidata": "Q4835755", "nsi_id": "bjs-96af40"}, "geometry": {"type": "Point", "coordinates": [-76.856409, 39.09251]}},
{"type": "Feature", "id": "2ODucKF23IlrozBiHCUZkre-emU=", "properties": {"ref": "548", "@spider": "bj-restaurant", "amenity": "restaurant", "cuisine": "american", "official_name": "BJ's Restaurant & Brewhouse", "addr:full": "5616 Spectrum Drive", "addr:city": "Frederick", "addr:state": "MD", "addr:postcode": "21703", "name": "BJ's Restaurants and Brewhouse Frederick", "phone": "301-695-0470", "website": "https://www.bjsrestaurants.com/locations/md/frederick", "opening_hours": "Su 11:00 - 23:00;Mo 11:00 - 23:00;Tu 11:00 - 23:00;We 11:00 - 23:00;Th 11:00 - 23:00;Fr 11:00 - 00:00;Sa 11:00 - 00:00", "brand": "BJ's Restaurant & Brewery", "brand:wikidata": "Q4835755", "nsi_id": "bjs-96af40"}, "geometry": {"type": "Point", "coordinates": [-77.40408, 39.382908]}},
{"type": "Feature", "id": "0yrr9Z2Stcye_RpfGjZ4bB_Tbqc=", "properties": {"ref": "577", "@spider": "bj-restaurant", "amenity": "restaurant", "cuisine": "american", "official_name": "BJ's Restaurant & Brewhouse", "addr:full": "4511 Ambassador Caffery Pkwy", "addr:city": "Lafayette", "addr:state": "LA", "addr:postcode": "70508", "name": "BJ's Restaurants and Brewhouse Lafayette", "phone": "337-761-6300", "website": "https://www.bjsrestaurants.com/locations/la/lafayette", "opening_hours": "Su 11:00 - 23:00;Mo 11:00 - 23:00;Tu 11:00 - 23:00;We 11:00 - 23:00;Th 11:00 - 23:00;Fr 11:00 - 23:00;Sa 11:00 - 23:00", "brand": "BJ's Restaurant & Brewery", "brand:wikidata": "Q4835755", "nsi_id": "bjs-96af40"}, "geometry": {"type": "Point", "coordinates": [-92.045545, 30.154192]}},
{"type": "Feature", "id": "pIPJJasv4fccZttKo8YlJXao5oI=", "properties": {"ref": "472", "@spider": "bj-restaurant", "amenity": "restaurant", "cuisine": "american", "official_name": "BJ's Restaurant & Brewhouse", "addr:full": "7900 Shelbyville Rd.", "addr:city": "Louisville", "addr:state": "KY", "addr:postcode": "40222", "name": "BJ's Restaurants and Brewhouse Oxmoor Center Mall", "phone": "502-326-3850", "website": "https://www.bjsrestaurants.com/locations/ky/oxmoor-center-mall", "opening_hours": "Su 11:00 - 22:00;Mo 11:00 - 23:00;Tu 11:00 - 23:00;We 11:00 - 23:00;Th 11:00 - 23:00;Fr 11:00 - 00:00;Sa 11:00 - 00:00", "brand": "BJ's Restaurant & Brewery", "brand:wikidata": "Q4835755", "nsi_id": "bjs-96af40"}, "geometry": {"type": "Point", "coordinates": [-85.607355, 38.248463]}},
{"type": "Feature", "id": "qmwfq9z0tPNWDFPL6aq5HeNiTys=", "properties": {"ref": "526", "@spider": "bj-restaurant", "amenity": "restaurant", "cuisine": "american", "official_name": "BJ's Restaurant & Brewhouse", "addr:full": "7960 East Kellogg", "addr:city": "Wichita", "addr:state": "KS", "addr:postcode": "67207", "name": "BJ's Restaurants and Brewhouse Wichita", "phone": "316-687-0250", "website": "https://www.bjsrestaurants.com/locations/ks/wichita", "opening_hours": "Su 11:00 - 23:00;Mo 11:00 - 23:00;Tu 11:00 - 23:00;We 11:00 - 23:00;Th 11:00 - 23:00;Fr 11:00 - 00:00;Sa 11:00 - 00:00", "brand": "BJ's Restaurant & Brewery", "brand:wikidata": "Q4835755", "nsi_id": "bjs-96af40"}, "geometry": {"type": "Point", "coordinates": [-97.245147, 37.680121]}}]}