{"type":"FeatureCollection","features":[{"type": "Feature", "id": "0NwTDcDa280iIGTyF7iz4pwlxuQ=", "properties": {"ref": "0361", "@spider": "bjswholesale", "addr:full": "1800 Dunlawton Ave.", "addr:city": "Port Orange", "addr:state": "FL", "addr:postcode": "32127", "addr:country": "US", "name": "Port Orange", "phone": "386-767-0886", "website": "https://www.bjs.com/mapDetail;city=0361", "opening_hours": "Mo-Sa 08:00-21:00", "brand": "BJ's Wholesale", "brand:wikidata": "Q4835754"}, "geometry": {"type": "Point", "coordinates": [-81.02509, 29.10892]}},
{"type": "Feature", "id": "zdMIUvUXmMU-SeIbEAZ80BR50lE=", "properties": {"ref": "0223", "@spider": "bjswholesale", "addr:full": "19150 Quesada Ave", "addr:city": "Port Charlotte", "addr:state": "FL", "addr:postcode": "33948", "addr:country": "US", "name": "Port Charlotte", "phone": "941-740-8945", "website": "https://www.bjs.com/mapDetail;city=0223", "opening_hours": "Mo-Sa 08:00-21:00", "brand": "BJ's Wholesale", "brand:wikidata": "Q4835754"}, "geometry": {"type": "Point", "coordinates": [-82.13439, 27.01079]}},
{"type": "Feature", "id": "Mbf0I78glHlrv4DksAOiw2MuOT8=", "properties": {"ref": "0382", "@spider": "bjswholesale", "addr:full": "7005 North Davis Highway", "addr:city": "Pensacola", "addr:state": "FL", "addr:postcode": "32504", "addr:country": "US", "name": "Pensacola", "phone": "850-798-2228", "website": "https://www.bjs.com/mapDetail;city=0382", "opening_hours": "Mo-Sa 08:00-21:00", "brand": "BJ's Wholesale", "brand:wikidata": "Q4835754"}, "geometry": {"type": "Point", "coordinates": [-87.22338, 30.49725]}},
{"type": "Feature", "id": "EzoitF2Dp0RtfRdYe_s99BZEy-0=", "properties": {"ref": "0054", "@spider": "bjswholesale", "addr:full": "13700 Pines Blvd.", "addr:city": "Pembroke Pines", "addr:state": "FL", "addr:postcode": "33027", "addr:country": "US", "name": "Pembroke Pines", "phone": "954-436-7600", "website": "https://www.bjs.com/mapDetail;city=0054", "opening_hours": "Mo-Sa 08:00-22:00", "brand": "BJ's Wholesale", "brand:wikidata": "Q4835754"}, "geometry": {"type": "Point", "coordinates": [-80.3297, 26.00747]}},
{"type": "Feature", "id": "Ty5PIXqZoIDJXojf8kUgXGtkwPU=", "properties": {"ref": "0106", "@spider": "bjswholesale", "addr:full": "5901 W Hillsboro Blvd.", "addr:city": "Parkland", "addr:state": "FL", "addr:postcode": "33067", "addr:country": "US", "name": "Parkland", "phone": "954-340-2300", "website": "https://www.bjs.com/mapDetail;city=0106", "opening_hours": "Mo-Sa 08:00-22:00", "brand": "BJ's Wholesale", "brand:wikidata": "Q4835754"}, "geometry": {"type": "Point", "coordinates": [-80.20634, 26.31837]}},
{"type": "Feature", "id": "YiUsdmFQ3ngzPjGxrTmo1svnE38=", "properties": {"ref": "0135", "@spider": "bjswholesale", "addr:full": "12190 Lake Underhill Rd.", "addr:city": "Orlando", "addr:state": "FL", "addr:postcode": "32825", "addr:country": "US", "name": "Orlando - Waterford Lakes area", "phone": "407-381-7724", "website": "https://www.bjs.com/mapDetail;city=0135", "opening_hours": "Mo-Sa 08:00-21:00", "brand": "BJ's Wholesale", "brand:wikidata": "Q4835754"}, "geometry": {"type": "Point", "coordinates": [-81.20689, 28.54652]}},
{"type": "Feature", "id": "gwMctedYVLaSjPyvGELUzNWK-lc=", "properties": {"ref": "0130", "@spider": "bjswholesale", "addr:full": "4697 Millenia Plaza Way", "addr:city": "Orlando", "addr:state": "FL", "addr:postcode": "32839", "addr:country": "US", "name": "Orlando - I-4 at Conroy Rd.", "phone": "407-370-2667", "website": "https://www.bjs.com/mapDetail;city=0130", "opening_hours": "Mo-Sa 08:00-21:00", "brand": "BJ's Wholesale", "brand:wikidata": "Q4835754"}, "geometry": {"type": "Point", "coordinates": [-81.42884, 28.49503]}},
{"type": "Feature", "id": "uyB11M9IZSu6jPi2vI5DjKrXoL4=", "properties": {"ref": "0125", "@spider": "bjswholesale", "addr:full": "560 Blanding Blvd.", "addr:city": "Orange Park", "addr:state": "FL", "addr:postcode": "32073", "addr:country": "US", "name": "Orange Park", "phone": "904-272-4900", "website": "https://www.bjs.com/mapDetail;city=0125", "opening_hours": "Mo-Sa 08:00-21:00", "brand": "BJ's Wholesale", "brand:wikidata": "Q4835754"}, "geometry": {"type": "Point", "coordinates": [-81.74905, 30.15358]}},
{"type": "Feature", "id": "LcYQa39G0r2ss7HexZpV2NuDEJs=", "properties": {"ref": "0174", "@spider": "bjswholesale", "addr:full": "17250 NW 57th Ave.", "addr:city": "Hialeah", "addr:state": "FL", "addr:postcode": "33015", "addr:country": "US", "name": "Miami Lakes", "phone": "305-557-6330", "website": "https://www.bjs.com/mapDetail;city=0174", "opening_hours": "Mo-Sa 08:00-22:00", "brand": "BJ's Wholesale", "brand:wikidata": "Q4835754"}, "geometry": {"type": "Point", "coordinates": [-80.29363, 25.93008]}},
{"type": "Feature", "id": "ODTLigwUB-kx5TRuKiFSjgpsXiI=", "properties": {"ref": "0120", "@spider": "bjswholesale", "addr:full": "415 East Merritt Ave.", "addr:city": "Merritt Island", "addr:state": "FL", "addr:postcode": "32953", "addr:country": "US", "name": "Merritt Island", "phone": "321-453-1255", "website": "https://www.bjs.com/mapDetail;city=0120", "opening_hours": "Mo-Sa 08:00-21:00", "brand": "BJ's Wholesale", "brand:wikidata": "Q4835754"}, "geometry": {"type": "Point", "coordinates": [-80.6925, 28.36127]}},
{"type": "Feature", "id": "SHljx9zWjFNRWU8CfXViyIQoBew=", "properties": {"ref": "0126", "@spider": "bjswholesale", "addr:full": "1155 Palm Bay Rd. NE", "addr:city": "Melbourne", "addr:state": "FL", "addr:postcode": "32905", "addr:country": "US", "name": "Melbourne", "phone": "321-956-8660", "website": "https://www.bjs.com/mapDetail;city=0126", "opening_hours": "Mo-Sa 08:00-21:00", "brand": "BJ's Wholesale", "brand:wikidata": "Q4835754"}, "geometry": {"type": "Point", "coordinates": [-80.64067, 28.03544]}},
{"type": "Feature", "id": "ayyn7oNuOmeJRHGNEvdGlwTl4VM=", "properties": {"ref": "0390", "@spider": "bjswholesale", "addr:full": "13585 NE 86th Path", "addr:city": "Lady Lake", "addr:state": "FL", "addr:postcode": "32159", "addr:country": "US", "name": "Lady Lake", "phone": "352-829-4535", "website": "https://www.bjs.com/mapDetail;city=0390", "opening_hours": "Mo-Sa 08:00-21:00", "brand": "BJ's Wholesale", "brand:wikidata": "Q4835754"}, "geometry": {"type": "Point", "coordinates": [-81.96049, 28.95919]}},
{"type": "Feature", "id": "QvbMLX7QJj0cp3iGWIpt6k-2G7Q=", "properties": {"ref": "0154", "@spider": "bjswholesale", "addr:full": "1100 W Osceola Pkwy.", "addr:city": "Kissimmee", "addr:state": "FL", "addr:postcode": "34741", "addr:country": "US", "name": "Kissimmee", "phone": "407-944-9615", "website": "https://www.bjs.com/mapDetail;city=0154", "opening_hours": "Mo-Sa 08:00-21:00", "brand": "BJ's Wholesale", "brand:wikidata": "Q4835754"}, "geometry": {"type": "Point", "coordinates": [-81.41533, 28.34165]}},
{"type": "Feature", "id": "Cjh7lTGOHgGJ9Wlj1JRGPICXP3k=", "properties": {"ref": "0051", "@spider": "bjswholesale", "addr:full": "7007 SW 117th Ave.", "addr:city": "Kendall", "addr:state": "FL", "addr:postcode": "33183", "addr:country": "US", "name": "Kendall", "phone": "305-270-9673", "website": "https://www.bjs.com/mapDetail;city=0051", "opening_hours": "Mo-Sa 08:00-22:00", "brand": "BJ's Wholesale", "brand:wikidata": "Q4835754"}, "geometry": {"type": "Point", "coordinates": [-80.38209, 25.70298]}},
{"type": "Feature", "id": "9xI_Zt9FZ3tBa8sdxu9P45qiYUo=", "properties": {"ref": "0107", "@spider": "bjswholesale", "addr:full": "4150 NW Federal Hwy.", "addr:city": "Jensen Beach", "addr:state": "FL", "addr:postcode": "34957", "addr:country": "US", "name": "Jensen Beach", "phone": "772-692-7833", "website": "https://www.bjs.com/mapDetail;city=0107", "opening_hours": "Mo-Sa 08:00-21:00", "brand": "BJ's Wholesale", "brand:wikidata": "Q4835754"}, "geometry": {"type": "Point", "coordinates": [-80.27867, 27.25483]}},
{"type": "Feature", "id": "YonbHwitMpeNbVcVcEaPeK6bDuY=", "properties": {"ref": "0171", "@spider": "bjswholesale", "addr:full": "8046 Philips Hwy.", "addr:city": "Jacksonville", "addr:state": "FL", "addr:postcode": "32256", "addr:country": "US", "name": "Jacksonville - Phillips Highway", "phone": "904-485-1180", "website": "https://www.bjs.com/mapDetail;city=0171", "opening_hours": "Mo-Sa 08:00-21:00", "brand": "BJ's Wholesale", "brand:wikidata": "Q4835754"}, "geometry": {"type": "Point", "coordinates": [-81.58878, 30.2256]}},
{"type": "Feature", "id": "vgze8Ca1mNyoFJ0RTZfex4bwjH8=", "properties": {"ref": "0041", "@spider": "bjswholesale", "addr:full": "14123 Noblewood Plaza", "addr:city": "Woodbridge", "addr:state": "VA", "addr:postcode": "22193", "addr:country": "US", "name": "Woodbridge", "phone": "703-730-0100", "website": "https://www.bjs.com/mapDetail;city=0041", "opening_hours": "Mo-Sa 08:00-22:00", "brand": "BJ's Wholesale", "brand:wikidata": "Q4835754"}, "geometry": {"type": "Point", "coordinates": [-77.3136, 38.64985]}},
{"type": "Feature", "id": "xKXscdUisKQH02B7-kdT29c2424=", "properties": {"ref": "0036", "@spider": "bjswholesale", "addr:full": "3712 Virginia Beach Blvd.", "addr:city": "Virginia Beach", "addr:state": "VA", "addr:postcode": "23452", "addr:country": "US", "name": "Virginia Beach", "phone": "757-486-0700", "website": "https://www.bjs.com/mapDetail;city=0036", "opening_hours": "Mo-Sa 08:00-21:00", "brand": "BJ's Wholesale", "brand:wikidata": "Q4835754"}, "geometry": {"type": "Point", "coordinates": [-76.10107, 36.84025]}},
{"type": "Feature", "id": "L4EDtX8Mw-XxwyWF1MA1PFn1-eo=", "properties": {"ref": "0219", "@spider": "bjswholesale", "addr:full": "1419 Hershberger Road, N.W.", "addr:city": "Roanoke", "addr:state": "VA", "addr:postcode": "24012", "addr:country": "US", "name": "Roanoke", "phone": "540-597-1994", "website": "https://www.bjs.com/mapDetail;city=0219", "opening_hours": "Mo-Sa 08:00-21:00", "brand": "BJ's Wholesale", "brand:wikidata": "Q4835754"}, "geometry": {"type": "Point", "coordinates": [-79.95993, 37.31664]}},
{"type": "Feature", "id": "Zfc7Nv88SirtmTC7mw3ENrSPA0Y=", "properties": {"ref": "0198", "@spider": "bjswholesale", "addr:full": "1320 Starling Dr.", "addr:city": "Richmond", "addr:state": "VA", "addr:postcode": "23229", "addr:country": "US", "name": "Richmond", "phone": "804-727-3500", "website": "https://www.bjs.com/mapDetail;city=0198", "opening_hours": "Mo-Sa 08:00-21:00", "brand": "BJ's Wholesale", "brand:wikidata": "Q4835754"}, "geometry": {"type": "Point", "coordinates": [-77.57053, 37.60139]}},
{"type": "Feature", "id": "CeXpXA-qCWvIeCuIzVaLWJJCFcw=", "properties": {"ref": "0180", "@spider": "bjswholesale", "addr:full": "5820 E. Virginia Beach Blvd.", "addr:city": "Norfolk", "addr:state": "VA", "addr:postcode": "23502", "addr:country": "US", "name": "Norfolk", "phone": "757-448-1500", "website": "https://www.bjs.com/mapDetail;city=0180", "opening_hours": "Mo-Sa 08:00-21:00", "brand": "BJ's Wholesale", "brand:wikidata": "Q4835754"}, "geometry": {"type": "Point", "coordinates": [-76.20492, 36.85572]}},
{"type": "Feature", "id": "kDfvCJkpxJDn1hL6C7F0mHD3MEY=", "properties": {"ref": "0391", "@spider": "bjswholesale", "addr:full": "12201 Bridgewood Crossing Drive", "addr:city": "Midlothian", "addr:state": "VA", "addr:postcode": "23112", "addr:country": "US", "name": "Midlothian", "phone": "804-763-2674", "website": "https://www.bjs.com/mapDetail;city=0391", "brand": "BJ's Wholesale", "brand:wikidata": "Q4835754"}, "geometry": {"type": "Point", "coordinates": [-77.70649, 37.50116]}},
{"type": "Feature", "id": "Q4dsYde-OUSc78RS0dwph1iWs1Q=", "properties": {"ref": "0139", "@spider": "bjswholesale", "addr:full": "7260 Bell Creek Rd.", "addr:city": "Mechanicsville", "addr:state": "VA", "addr:postcode": "23111", "addr:country": "US", "name": "Mechanicsville", "phone": "804-559-9554", "website": "https://www.bjs.com/mapDetail;city=0139", "opening_hours": "Mo-Sa 08:00-21:00", "brand": "BJ's Wholesale", "brand:wikidata": "Q4835754"}, "geometry": {"type": "Point", "coordinates": [-77.35168, 37.60096]}},
{"type": "Feature", "id": "oNyPfpjs8gnp-4xAjt-9e9JHSIU=", "properties": {"ref": "0186", "@spider": "bjswholesale", "addr:full": "2000 Power Plant Parkway", "addr:city": "Hampton", "addr:state": "VA", "addr:postcode": "23666", "addr:country": "US", "name": "Hampton", "phone": "757-846-2020", "website": "https://www.bjs.com/mapDetail;city=0186", "opening_hours": "Mo-Sa 08:00-21:00", "brand": "BJ's Wholesale", "brand:wikidata": "Q4835754"}, "geometry": {"type": "Point", "coordinates": [-76.39569, 37.03614]}},
{"type": "Feature", "id": "07rvB3Yswrh3UAF-0sWeIBZrUow=", "properties": {"ref": "0360", "@spider": "bjswholesale", "addr:full": "5100 Wellington Rd.", "addr:city": "Gainesville", "addr:state": "VA", "addr:postcode": "20155", "addr:country": "US", "name": "Gainesville", "phone": "703-468-6110", "website": "https://www.bjs.com/mapDetail;city=0360", "opening_hours": "Mo-Sa 08:00-22:00", "brand": "BJ's Wholesale", "brand:wikidata": "Q4835754"}, "geometry": {"type": "Point", "coordinates": [-77.60647, 38.79116]}},
{"type": "Feature", "id": "H3Hy0g0hPEWJ5fcQCDzvGmH1DYE=", "properties": {"ref": "0898", "@spider": "bjswholesale", "addr:full": "3303 Plank Road", "addr:city": "Fredericksburg", "addr:state": "VA", "addr:postcode": "22407", "addr:country": "US", "name": "Fredericksburg Gas Station", "phone": "540-548-4508", "website": "https://www.bjs.com/mapDetail;city=0898", "brand": "BJ's Wholesale", "brand:wikidata": "Q4835754"}, "geometry": {"type": "Point", "coordinates": [-77.51697, 38.29525]}},
{"type": "Feature", "id": "mR9sU0k8DXH0ku0KsAuDZsgu2-w=", "properties": {"ref": "0069", "@spider": "bjswholesale", "addr:full": "3985 Plank Rd.", "addr:city": "Fredericksburg", "addr:state": "VA", "addr:postcode": "22407", "addr:country": "US", "name": "Fredericksburg", "phone": "540-785-9221", "website": "https://www.bjs.com/mapDetail;city=0069", "opening_hours": "Mo-Sa 08:00-22:00", "brand": "BJ's Wholesale", "brand:wikidata": "Q4835754"}, "geometry": {"type": "Point", "coordinates": [-77.52662, 38.29143]}},
{"type": "Feature", "id": "8sMaGZklD2ynMpyXT_lOQ5cjQyk=", "properties": {"ref": "0351", "@spider": "bjswholesale", "addr:full": "6607 Wilson Blvd.", "addr:city": "Falls Church", "addr:state": "VA", "addr:postcode": "22044", "addr:country": "US", "name": "Falls Church", "phone": "703-286-3380", "website": "https://www.bjs.com/mapDetail;city=0351", "opening_hours": "Mo-Sa 08:00-22:00", "brand": "BJ's Wholesale", "brand:wikidata": "Q4835754"}, "geometry": {"type": "Point", "coordinates": [-77.15064, 38.87461]}},
{"type": "Feature", "id": "XSThyMV4rEUVwOoVDLXih-kWF_s=", "properties": {"ref": "0033", "@spider": "bjswholesale", "addr:full": "13053 Fair Lakes Shopping Ctr", "addr:city": "Fairfax", "addr:state": "VA", "addr:postcode": "22033", "addr:country": "US", "name": "Fairfax", "phone": "703-803-0200", "website": "https://www.bjs.com/mapDetail;city=0033", "opening_hours": "Mo-Sa 08:00-22:00", "brand": "BJ's Wholesale", "brand:wikidata": "Q4835754"}, "geometry": {"type": "Point", "coordinates": [-77.39649, 38.85601]}},
{"type": "Feature", "id": "jsD8YLdeFJUYPJ-3XdkoY5V5D7U=", "properties": {"ref": "0070", "@spider": "bjswholesale", "addr:full": "2301 Taylor Rd.", "addr:city": "Chesapeake", "addr:state": "VA", "addr:postcode": "23321", "addr:country": "US", "name": "Chesapeake", "phone": "757-465-2700", "website": "https://www.bjs.com/mapDetail;city=0070", "opening_hours": "Mo-Sa 08:00-21:00", "brand": "BJ's Wholesale", "brand:wikidata": "Q4835754"}, "geometry": {"type": "Point", "coordinates": [-76.40594, 36.8254]}},
{"type": "Feature", "id": "323efraI_tQCo9P1cxZtqCAmafw=", "properties": {"ref": "0046", "@spider": "bjswholesale", "addr:full": "101 S. Van Dorn St.", "addr:city": "Alexandria", "addr:state": "VA", "addr:postcode": "22304", "addr:country": "US", "name": "Alexandria", "phone": "703-212-8700", "website": "https://www.bjs.com/mapDetail;city=0046", "opening_hours": "Mo-Sa 08:00-22:00", "brand": "BJ's Wholesale", "brand:wikidata": "Q4835754"}, "geometry": {"type": "Point", "coordinates": [-77.13167, 38.81211]}},
{"type": "Feature", "id": "dw563AdYRnSwhQk-VpSxDMNgrR8=", "properties": {"ref": "0378", "@spider": "bjswholesale", "addr:full": "1035 Jockey Court", "addr:city": "Summerville", "addr:state": "SC", "addr:postcode": "29483", "addr:country": "US", "name": "Summerville", "phone": "843-285-3910", "website": "https://www.bjs.com/mapDetail;city=0378", "opening_hours": "Mo-Sa 08:00-21:00", "brand": "BJ's Wholesale", "brand:wikidata": "Q4835754"}, "geometry": {"type": "Point", "coordinates": [-80.1482, 33.03555]}},
{"type": "Feature", "id": "2gQgrNfc-nnTxPku65z0l-nCRcE=", "properties": {"ref": "0393", "@spider": "bjswholesale", "addr:full": "375 East Avenue", "addr:city": "Warwick", "addr:state": "RI", "addr:postcode": "02886", "addr:country": "US", "name": "Warwick", "phone": "401-262-8560", "website": "https://www.bjs.com/mapDetail;city=0393", "opening_hours": "Mo-Sa 08:00-21:00", "brand": "BJ's Wholesale", "brand:wikidata": "Q4835754"}, "geometry": {"type": "Point", "coordinates": [-71.47697, 41.7174]}},
{"type": "Feature", "id": "qVX2ppsEP7xYSM1BHw54HQ8Rpv4=", "properties": {"ref": "0306", "@spider": "bjswholesale", "addr:full": "173 E. Main Rd.", "addr:city": "Middletown", "addr:state": "RI", "addr:postcode": "02842", "addr:country": "US", "name": "Middletown", "phone": "401-848-9242", "website": "https://www.bjs.com/mapDetail;city=0306", "opening_hours": "Mo-Sa 08:00-21:00", "brand": "BJ's Wholesale", "brand:wikidata": "Q4835754"}, "geometry": {"type": "Point", "coordinates": [-71.29489, 41.51828]}},
{"type": "Feature", "id": "rTUfL1YzRHK_ju1HtAbOmDOHIOE=", "properties": {"ref": "0900", "@spider": "bjswholesale", "addr:full": "1450 Hartford Ave.", "addr:city": "Johnston", "addr:state": "RI", "addr:postcode": "02919", "addr:country": "US", "name": "Johnston Gas Station", "phone": "401-274-1561", "website": "https://www.bjs.com/mapDetail;city=0900", "brand": "BJ's Wholesale", "brand:wikidata": "Q4835754"}, "geometry": {"type": "Point", "coordinates": [-71.50108, 41.82433]}},
{"type": "Feature", "id": "PgzzyC4GOWTRH6HwsjBeopVv8zQ=", "properties": {"ref": "0208", "@spider": "bjswholesale", "addr:full": "200 Stonehill Dr.", "addr:city": "Johnston", "addr:state": "RI", "addr:postcode": "02919", "addr:country": "US", "name": "Johnston", "phone": "401-215-1441", "website": "https://www.bjs.com/mapDetail;city=0208", "opening_hours": "Mo-Sa 08:00-21:00", "brand": "BJ's Wholesale", "brand:wikidata": "Q4835754"}, "geometry": {"type": "Point", "coordinates": [-71.50215, 41.81623]}},
{"type": "Feature", "id": "Kvn49OyGpi0eR9QexI79oTmbux4=", "properties": {"ref": "0119", "@spider": "bjswholesale", "addr:full": "790 Ctr of New England Blvd", "addr:city": "Coventry", "addr:state": "RI", "addr:postcode": "02816", "addr:country": "US", "name": "Coventry", "phone": "401-823-9500", "website": "https://www.bjs.com/mapDetail;city=0119", "opening_hours": "Mo-Sa 08:00-21:00", "brand": "BJ's Wholesale", "brand:wikidata": "Q4835754"}, "geometry": {"type": "Point", "coordinates": [-71.55095, 41.66165]}},
{"type": "Feature", "id": "lgobUWzp27kG7hy2ITi1AHvlRSA=", "properties": {"ref": "0063", "@spider": "bjswholesale", "addr:full": "02250 York Crossing Dr.", "addr:city": "York", "addr:state": "PA", "addr:postcode": "17404", "addr:country": "US", "name": "York", "phone": "717-767-2600", "website": "https://www.bjs.com/mapDetail;city=0063", "opening_hours": "Mo-Sa 08:00-21:00", "brand": "BJ's Wholesale", "brand:wikidata": "Q4835754"}, "geometry": {"type": "Point", "coordinates": [-76.77654, 39.96487]}},
{"type": "Feature", "id": "04TUuPBM9KC9Dy8g-SqGr3XHJiA=", "properties": {"ref": "0167", "@spider": "bjswholesale", "addr:full": "200 Easton Rd.", "addr:city": "Warrington", "addr:state": "PA", "addr:postcode": "18976", "addr:country": "US", "name": "Warrington", "phone": "215-488-4050", "website": "https://www.bjs.com/mapDetail;city=0167", "opening_hours": "Mo-Sa 08:00-21:00", "brand": "BJ's Wholesale", "brand:wikidata": "Q4835754"}, "geometry": {"type": "Point", "coordinates": [-75.13987, 40.21791]}},
{"type": "Feature", "id": "62uewOw_aCbnk5gTYucQpNhkzGs=", "properties": {"ref": "0319", "@spider": "bjswholesale", "addr:full": "159 Pocono Commons Dr.", "addr:city": "Stroudsburg", "addr:state": "PA", "addr:postcode": "18360", "addr:country": "US", "name": "Stroudsburg", "phone": "570-476-4500", "website": "https://www.bjs.com/mapDetail;city=0319", "opening_hours": "Mo-Sa 08:00-21:00", "brand": "BJ's Wholesale", "brand:wikidata": "Q4835754"}, "geometry": {"type": "Point", "coordinates": [-75.24421, 40.99671]}},
{"type": "Feature", "id": "AmJSYRWgraUqJ-Y4LLlurnPdBgI=", "properties": {"ref": "0056", "@spider": "bjswholesale", "addr:full": "1260 E. Woodland Ave.", "addr:city": "Springfield", "addr:state": "PA", "addr:postcode": "19064", "addr:country": "US", "name": "Springfield", "phone": "610-544-9677", "website": "https://www.bjs.com/mapDetail;city=0056", "opening_hours": "Mo-Sa 08:00-22:00", "brand": "BJ's Wholesale", "brand:wikidata": "Q4835754"}, "geometry": {"type": "Point", "coordinates": [-75.33003, 39.91023]}},
{"type": "Feature", "id": "ZZlVpskRRbb-IKNgJxLqZRfnI9Q=", "properties": {"ref": "0162", "@spider": "bjswholesale", "addr:full": "2300 W. Oregon Ave.", "addr:city": "Philadelphia", "addr:state": "PA", "addr:postcode": "19145", "addr:country": "US", "name": "South Philadelphia", "phone": "215-982-5440", "website": "https://www.bjs.com/mapDetail;city=0162", "opening_hours": "Mo-Sa 08:00-22:00", "brand": "BJ's Wholesale", "brand:wikidata": "Q4835754"}, "geometry": {"type": "Point", "coordinates": [-75.1868, 39.91861]}},
{"type": "Feature", "id": "FYwMjB0olofqN3aGjgJTWTsczXQ=", "properties": {"ref": "0388", "@spider": "bjswholesale", "addr:full": "4000 Victoria St.", "addr:city": "Bridgeville", "addr:state": "PA", "addr:postcode": "15017", "addr:country": "US", "name": "South Fayette", "phone": "412-861-2089", "website": "https://www.bjs.com/mapDetail;city=0388", "opening_hours": "Mo-Su 08:00-21:00", "brand": "BJ's Wholesale", "brand:wikidata": "Q4835754"}, "geometry": {"type": "Point", "coordinates": [-80.12458, 40.36086]}},
{"type": "Feature", "id": "vH8-D8b6jwA5tDd6b9TWksYoj8k=", "properties": {"ref": "0387", "@spider": "bjswholesale", "addr:full": "6720 Northway Drive", "addr:city": "Pittsburgh", "addr:state": "PA", "addr:postcode": "15237", "addr:country": "US", "name": "Ross Township", "phone": "412-981-4946", "website": "https://www.bjs.com/mapDetail;city=0387", "opening_hours": "Mo-Su 08:00-21:00", "brand": "BJ's Wholesale", "brand:wikidata": "Q4835754"}, "geometry": {"type": "Point", "coordinates": [-80.01999, 40.54972]}},
{"type": "Feature", "id": "qbQZAow7Kb1Z2uR520pGJYwJBVA=", "properties": {"ref": "0057", "@spider": "bjswholesale", "addr:full": "550 Madison Ave.", "addr:city": "Reading", "addr:state": "PA", "addr:postcode": "19605", "addr:country": "US", "name": "Reading", "phone": "610-939-9300", "website": "https://www.bjs.com/mapDetail;city=0057", "opening_hours": "Mo-Sa 08:00-21:00", "brand": "BJ's Wholesale", "brand:wikidata": "Q4835754"}, "geometry": {"type": "Point", "coordinates": [-75.93, 40.37434]}},
{"type": "Feature", "id": "tB8RhIQOz1WobD5kx9SkSKa5g9E=", "properties": {"ref": "0350", "@spider": "bjswholesale", "addr:full": "616 N. West End Blvd.", "addr:city": "Quakertown", "addr:state": "PA", "addr:postcode": "18951", "addr:country": "US", "name": "Quakertown", "phone": "267-424-7000", "website": "https://www.bjs.com/mapDetail;city=0350", "opening_hours": "Mo-Sa 08:00-21:00", "brand": "BJ's Wholesale", "brand:wikidata": "Q4835754"}, "geometry": {"type": "Point", "coordinates": [-75.36824, 40.45956]}},
{"type": "Feature", "id": "K8kKb9m7bELa4ievKEO2wVzibP4=", "properties": {"ref": "0092", "@spider": "bjswholesale", "addr:full": "300 Alan Wood Rd.", "addr:city": "Conshohocken", "addr:state": "PA", "addr:postcode": "19428", "addr:country": "US", "name": "Plymouth Meeting", "phone": "610-940-4141", "website": "https://www.bjs.com/mapDetail;city=0092", "opening_hours": "Mo-Sa 08:00-22:00", "brand": "BJ's Wholesale", "brand:wikidata": "Q4835754"}, "geometry": {"type": "Point", "coordinates": [-75.30745, 40.09583]}},
{"type": "Feature", "id": "GxA54zxICP4hm23RHHEgF2jlvA4=", "properties": {"ref": "0022", "@spider": "bjswholesale", "addr:full": "2044 Red Lion Rd.", "addr:city": "Philadelphia", "addr:state": "PA", "addr:postcode": "19115", "addr:country": "US", "name": "Philadelphia", "phone": "215-676-2402", "website": "https://www.bjs.com/mapDetail;city=0022", "opening_hours": "Mo-Sa 08:00-22:00", "brand": "BJ's Wholesale", "brand:wikidata": "Q4835754"}, "geometry": {"type": "Point", "coordinates": [-75.02049, 40.09885]}},
{"type": "Feature", "id": "KGXZuAMkkCSyyhsXCyHGJyCIW0I=", "properties": {"ref": "0200", "@spider": "bjswholesale", "addr:full": "200-C Mill Rd.", "addr:city": "Oaks", "addr:state": "PA", "addr:postcode": "19456", "addr:country": "US", "name": "Oaks", "phone": "610-271-2060", "website": "https://www.bjs.com/mapDetail;city=0200", "opening_hours": "Mo-Sa 08:00-21:00", "brand": "BJ's Wholesale", "brand:wikidata": "Q4835754"}, "geometry": {"type": "Point", "coordinates": [-75.45223, 40.13065]}},
{"type": "Feature", "id": "5jMFYhaa4pD6KbJh_v-bPyVjzKQ=", "properties": {"ref": "0369", "@spider": "bjswholesale", "addr:full": "640 Cowpath Rd.", "addr:city": "Lansdale", "addr:state": "PA", "addr:postcode": "19446", "addr:country": "US", "name": "Montgomeryville", "phone": "215-362-2919", "website": "https://www.bjs.com/mapDetail;city=0369", "opening_hours": "Mo-Sa 08:00-21:00", "brand": "BJ's Wholesale", "brand:wikidata": "Q4835754"}, "geometry": {"type": "Point", "coordinates": [-75.24809, 40.24925]}},
{"type": "Feature", "id": "bAwbOerfzht_wivD_bcopRxYzXg=", "properties": {"ref": "0052", "@spider": "bjswholesale", "addr:full": "350 Commerce Blvd.", "addr:city": "Fairless Hills", "addr:state": "PA", "addr:postcode": "19030", "addr:country": "US", "name": "Langhorne", "phone": "215-945-4400", "website": "https://www.bjs.com/mapDetail;city=0052", "opening_hours": "Mo-Sa 08:00-21:00", "brand": "BJ's Wholesale", "brand:wikidata": "Q4835754"}, "geometry": {"type": "Point", "coordinates": [-74.8672, 40.18572]}},
{"type": "Feature", "id": "4hnkNPsH1eMiu9uHpTOrhgeBGn8=", "properties": {"ref": "0019", "@spider": "bjswholesale", "addr:full": "110 Centerville Rd.", "addr:city": "Lancaster", "addr:state": "PA", "addr:postcode": "17603", "addr:country": "US", "name": "Lancaster", "phone": "717-290-1500", "website": "https://www.bjs.com/mapDetail;city=0019", "opening_hours": "Mo-Sa 08:00-21:00", "brand": "BJ's Wholesale", "brand:wikidata": "Q4835754"}, "geometry": {"type": "Point", "coordinates": [-76.39162, 40.04422]}},
{"type": "Feature", "id": "yY7MLPL_U_MDOiKx7DhArmQ8m5U=", "properties": {"ref": "0086", "@spider": "bjswholesale", "addr:full": "1008 E. Lancaster Ave.", "addr:city": "Downingtown", "addr:state": "PA", "addr:postcode": "19335", "addr:country": "US", "name": "Downingtown", "phone": "610-518-5000", "website": "https://www.bjs.com/mapDetail;city=0086", "opening_hours": "Mo-Sa 08:00-21:00", "brand": "BJ's Wholesale", "brand:wikidata": "Q4835754"}, "geometry": {"type": "Point", "coordinates": [-75.68357, 40.01656]}},
{"type": "Feature", "id": "cEipV0swlO-nE3mpzl4QLl0ed7A=", "properties": {"ref": "0368", "@spider": "bjswholesale", "addr:full": "540 Gateway Ave.,", "addr:city": "Chambersburg", "addr:state": "PA", "addr:postcode": "17201", "addr:country": "US", "name": "Chambersburg", "phone": "717-264-5026", "website": "https://www.bjs.com/mapDetail;city=0368", "opening_hours": "Mo-Sa 08:00-21:00", "brand": "BJ's Wholesale", "brand:wikidata": "Q4835754"}, "geometry": {"type": "Point", "coordinates": [-77.63316, 39.93898]}},
{"type": "Feature", "id": "UjRqjFI9hoWL5wOI05BGJtnPRLI=", "properties": {"ref": "0025", "@spider": "bjswholesale", "addr:full": "3805 Hartzdale Dr.", "addr:city": "Camp Hill", "addr:state": "PA", "addr:postcode": "17011", "addr:country": "US", "name": "Camp Hill", "phone": "717-763-9550", "website": "https://www.bjs.com/mapDetail;city=0025", "opening_hours": "Mo-Sa 08:00-21:00", "brand": "BJ's Wholesale", "brand:wikidata": "Q4835754"}, "geometry": {"type": "Point", "coordinates": [-76.93712, 40.21801]}},
{"type": "Feature", "id": "qpkAl_PdOjVBL_HCPcFght484xM=", "properties": {"ref": "0021", "@spider": "bjswholesale", "addr:full": "1785 Airport Rd. South", "addr:city": "Allentown", "addr:state": "PA", "addr:postcode": "18109", "addr:country": "US", "name": "Allentown", "phone": "610-264-1195", "website": "https://www.bjs.com/mapDetail;city=0021", "opening_hours": "Mo-Sa 08:00-21:00", "brand": "BJ's Wholesale", "brand:wikidata": "Q4835754"}, "geometry": {"type": "Point", "coordinates": [-75.43481, 40.63772]}},
{"type": "Feature", "id": "0VMpAetr48A-PCabl1TlTnInJEY=", "properties": {"ref": "0096", "@spider": "bjswholesale", "addr:full": "36595 Euclid Ave.", "addr:city": "Willoughby", "addr:state": "OH", "addr:postcode": "44094", "addr:country": "US", "name": "Willoughby", "phone": "440-954-9900", "website": "https://www.bjs.com/mapDetail;city=0096", "opening_hours": "Mo-Sa 08:00-21:00", "brand": "BJ's Wholesale", "brand:wikidata": "Q4835754"}, "geometry": {"type": "Point", "coordinates": [-81.42648, 41.6279]}},
{"type": "Feature", "id": "BYIiXIkkEaLTgVBFLidEpD9dpGE=", "properties": {"ref": "0122", "@spider": "bjswholesale", "addr:full": "4365 Richmond Rd.", "addr:city": "Warrensville Height", "addr:state": "OH", "addr:postcode": "44122", "addr:country": "US", "name": "Warrensville Heights", "phone": "216-360-0700", "website": "https://www.bjs.com/mapDetail;city=0122", "opening_hours": "Mo-Sa 08:00-21:00", "brand": "BJ's Wholesale", "brand:wikidata": "Q4835754"}, "geometry": {"type": "Point", "coordinates": [-81.49764, 41.44185]}},
{"type": "Feature", "id": "EcUyMfx6NRSf1VGXoXUDC3tfzyQ=", "properties": {"ref": "0010", "@spider": "bjswholesale", "addr:full": "6924 Frank Ave. NW", "addr:city": "North Canton", "addr:state": "OH", "addr:postcode": "44720", "addr:country": "US", "name": "North Canton", "phone": "330-498-1200", "website": "https://www.bjs.com/mapDetail;city=0010", "opening_hours": "Mo-Sa 08:00-21:00", "brand": "BJ's Wholesale", "brand:wikidata": "Q4835754"}, "geometry": {"type": "Point", "coordinates": [-81.44093, 40.88133]}},
{"type": "Feature", "id": "4iWFUm_6OnrEbAMlQJdiMNa-oTg=", "properties": {"ref": "0392", "@spider": "bjswholesale", "addr:full": "5900 N. Hamilton Rd.", "addr:city": "New Albany", "addr:state": "OH", "addr:postcode": "43054", "addr:country": "US", "name": "New Albany", "phone": "380-666-3896", "website": "https://www.bjs.com/mapDetail;city=0392", "opening_hours": "Mo-Su 08:00-21:00", "brand": "BJ's Wholesale", "brand:wikidata": "Q4835754"}, "geometry": {"type": "Point", "coordinates": [-82.85167, 40.07946]}},
{"type": "Feature", "id": "WAfZ8m9Vrg_94Pq2OQbFhzjntR0=", "properties": {"ref": "0124", "@spider": "bjswholesale", "addr:full": "6944 W. 130th St.", "addr:city": "Middleburg Heights", "addr:state": "OH", "addr:postcode": "44130", "addr:country": "US", "name": "Middleburg Heights", "phone": "440-842-3400", "website": "https://www.bjs.com/mapDetail;city=0124", "opening_hours": "Mo-Sa 08:00-21:00", "brand": "BJ's Wholesale", "brand:wikidata": "Q4835754"}, "geometry": {"type": "Point", "coordinates": [-81.78495, 41.37513]}},
{"type": "Feature", "id": "B7YjC2ffQZmodESN0SpfXAXtfRQ=", "properties": {"ref": "0115", "@spider": "bjswholesale", "addr:full": "38292 Colorado Ave.", "addr:city": "Avon", "addr:state": "OH", "addr:postcode": "44011", "addr:country": "US", "name": "Avon", "phone": "440-934-7900", "website": "https://www.bjs.com/mapDetail;city=0115", "opening_hours": "Mo-Sa 08:00-21:00", "brand": "BJ's Wholesale", "brand:wikidata": "Q4835754"}, "geometry": {"type": "Point", "coordinates": [-82.05157, 41.46236]}},
{"type": "Feature", "id": "snElp_cLb8fDQqt4nwtDvxFaNCc=", "properties": {"ref": "0102", "@spider": "bjswholesale", "addr:full": "1677 Home Ave.", "addr:city": "Akron", "addr:state": "OH", "addr:postcode": "44310", "addr:country": "US", "name": "Akron", "phone": "330-926-6000", "website": "https://www.bjs.com/mapDetail;city=0102", "opening_hours": "Mo-Sa 08:00-21:00", "brand": "BJ's Wholesale", "brand:wikidata": "Q4835754"}, "geometry": {"type": "Point", "coordinates": [-81.48507, 41.11642]}},
{"type": "Feature", "id": "yTsl-C_p7SS5wZQrbp31szToBUw=", "properties": {"ref": "0177", "@spider": "bjswholesale", "addr:full": "6301 Triangle Plantation Dr.", "addr:city": "Raleigh", "addr:state": "NC", "addr:postcode": "27616", "addr:country": "US", "name": "Raleigh - Capital Boulevard", "phone": "919-278-1000", "website": "https://www.bjs.com/mapDetail;city=0177", "opening_hours": "Mo-Sa 08:00-21:00", "brand": "BJ's Wholesale", "brand:wikidata": "Q4835754"}, "geometry": {"type": "Point", "coordinates": [-78.58364, 35.87367]}},
{"type": "Feature", "id": "fmD-IlNbhrYiNbOITOmPDlj5FMs=", "properties": {"ref": "0123", "@spider": "bjswholesale", "addr:full": "8811 Brier Creek Pkwy.", "addr:city": "Raleigh", "addr:state": "NC", "addr:postcode": "27617", "addr:country": "US", "name": "Raleigh", "phone": "919-806-5000", "website": "https://www.bjs.com/mapDetail;city=0123", "opening_hours": "Mo-Sa 08:00-21:00", "brand": "BJ's Wholesale", "brand:wikidata": "Q4835754"}, "geometry": {"type": "Point", "coordinates": [-78.78943, 35.90234]}},
{"type": "Feature", "id": "tmaNxk9gnngp2beY2qpR8zU96KY=", "properties": {"ref": "0114", "@spider": "bjswholesale", "addr:full": "11715 Carolina Place Pkwy.", "addr:city": "Pineville", "addr:state": "NC", "addr:postcode": "28134", "addr:country": "US", "name": "Pineville", "phone": "704-540-8351", "website": "https://www.bjs.com/mapDetail;city=0114", "opening_hours": "Mo-Sa 08:00-21:00", "brand": "BJ's Wholesale", "brand:wikidata": "Q4835754"}, "geometry": {"type": "Point", "coordinates": [-80.87926, 35.07436]}},
{"type": "Feature", "id": "vof7zMd_8SyBlylzQAUN7SkyTFE=", "properties": {"ref": "0118", "@spider": "bjswholesale", "addr:full": "141 Gallery Center Dr.", "addr:city": "Mooresville", "addr:state": "NC", "addr:postcode": "28117", "addr:country": "US", "name": "Mooresville", "phone": "704-799-6532", "website": "https://www.bjs.com/mapDetail;city=0118", "opening_hours": "Mo-Sa 08:00-21:00", "brand": "BJ's Wholesale", "brand:wikidata": "Q4835754"}, "geometry": {"type": "Point", "coordinates": [-80.8615, 35.59928]}},
{"type": "Feature", "id": "IswbYsg3UeW_spbBrlkdFGj-7TU=", "properties": {"ref": "0151", "@spider": "bjswholesale", "addr:full": "255 Shenstone Blvd.", "addr:city": "Garner", "addr:state": "NC", "addr:postcode": "27529", "addr:country": "US", "name": "Garner", "phone": "919-661-3781", "website": "https://www.bjs.com/mapDetail;city=0151", "opening_hours": "Mo-Sa 08:00-21:00", "brand": "BJ's Wholesale", "brand:wikidata": "Q4835754"}, "geometry": {"type": "Point", "coordinates": [-78.58085, 35.69222]}},
{"type": "Feature", "id": "RuQH6yH_V8HX5hLhEl8_t3FEFLg=", "properties": {"ref": "0215", "@spider": "bjswholesale", "addr:full": "5200 Red Tip Rd.", "addr:city": "Fayetteville", "addr:state": "NC", "addr:postcode": "28314", "addr:country": "US", "name": "Fayetteville", "phone": "910-764-1680", "website": "https://www.bjs.com/mapDetail;city=0215", "opening_hours": "Mo-Sa 08:00-21:00", "brand": "BJ's Wholesale", "brand:wikidata": "Q4835754"}, "geometry": {"type": "Point", "coordinates": [-78.9661, 35.06196]}},
{"type": "Feature", "id": "K3lysQik-wFVGxpQBhnCueW5U4I=", "properties": {"ref": "0134", "@spider": "bjswholesale", "addr:full": "7905 Lyles Ln.", "addr:city": "Concord", "addr:state": "NC", "addr:postcode": "28027", "addr:country": "US", "name": "Concord", "phone": "704-979-3900", "website": "https://www.bjs.com/mapDetail;city=0134", "opening_hours": "Mo-Sa 08:00-21:00", "brand": "BJ's Wholesale", "brand:wikidata": "Q4835754"}, "geometry": {"type": "Point", "coordinates": [-80.71408, 35.36569]}},
{"type": "Feature", "id": "4manQVRPfuWLye_1V-1ssniBLBM=", "properties": {"ref": "0110", "@spider": "bjswholesale", "addr:full": "2370 Walnut St.", "addr:city": "Cary", "addr:state": "NC", "addr:postcode": "27511", "addr:country": "US", "name": "Cary", "phone": "919-854-2777", "website": "https://www.bjs.com/mapDetail;city=0110", "opening_hours": "Mo-Sa 08:00-21:00", "brand": "BJ's Wholesale", "brand:wikidata": "Q4835754"}, "geometry": {"type": "Point", "coordinates": [-78.74154, 35.75341]}},
{"type": "Feature", "id": "c6EE1U4z5ugRaja-eTEY9XNElZY=", "properties": {"ref": "0357", "@spider": "bjswholesale", "addr:full": "1433 Boone Station Dr.", "addr:city": "Burlington", "addr:state": "NC", "addr:postcode": "27215", "addr:country": "US", "name": "Burlington", "phone": "336-290-0912", "website": "https://www.bjs.com/mapDetail;city=0357", "opening_hours": "Mo-Sa 08:00-21:00", "brand": "BJ's Wholesale", "brand:wikidata": "Q4835754"}, "geometry": {"type": "Point", "coordinates": [-79.51614, 36.06905]}},
{"type": "Feature", "id": "yhSOSMcslzxISQ6BJgh6j46TPyE=", "properties": {"ref": "0076", "@spider": "bjswholesale", "addr:full": "3303 Crompond Rd.", "addr:city": "Yorktown Heights", "addr:state": "NY", "addr:postcode": "10598", "addr:country": "US", "name": "Yorktown Heights", "phone": "914-734-9700", "website": "https://www.bjs.com/mapDetail;city=0076", "opening_hours": "Mo-Sa 08:00-22:00", "brand": "BJ's Wholesale", "brand:wikidata": "Q4835754"}, "geometry": {"type": "Point", "coordinates": [-73.82718, 41.29069]}},
{"type": "Feature", "id": "NzmwIPqFGRMbTOgCCPVFNHSs2fg=", "properties": {"ref": "0112", "@spider": "bjswholesale", "addr:full": "6000 Brush Hollow Rd.", "addr:city": "Westbury", "addr:state": "NY", "addr:postcode": "11590", "addr:country": "US", "name": "Westbury", "phone": "516-997-8200", "website": "https://www.bjs.com/mapDetail;city=0112", "opening_hours": "Mo-Sa 08:00-22:00", "brand": "BJ's Wholesale", "brand:wikidata": "Q4835754"}, "geometry": {"type": "Point", "coordinates": [-73.55884, 40.77809]}},
{"type": "Feature", "id": "6St4Dgf9VssG2fBlSwrk9KUjYco=", "properties": {"ref": "0077", "@spider": "bjswholesale", "addr:full": "1050 Palisades Center Dr.", "addr:city": "West Nyack", "addr:state": "NY", "addr:postcode": "10994", "addr:country": "US", "name": "West Nyack", "phone": "845-353-9312", "website": "https://www.bjs.com/mapDetail;city=0077", "opening_hours": "Mo-Sa 08:00-22:00", "brand": "BJ's Wholesale", "brand:wikidata": "Q4835754"}, "geometry": {"type": "Point", "coordinates": [-73.95635, 41.09933]}},
{"type": "Feature", "id": "J8ezdiBozZQnamrtPr-2vvwDyuU=", "properties": {"ref": "0075", "@spider": "bjswholesale", "addr:full": "950 Ridge Rd.", "addr:city": "Webster", "addr:state": "NY", "addr:postcode": "14580", "addr:country": "US", "name": "Webster", "phone": "585-787-2400", "website": "https://www.bjs.com/mapDetail;city=0075", "opening_hours": "Mo-Sa 08:00-21:00", "brand": "BJ's Wholesale", "brand:wikidata": "Q4835754"}, "geometry": {"type": "Point", "coordinates": [-77.46296, 43.20835]}},
{"type": "Feature", "id": "mM6dW9WhfJnJWb9srGImNIRyUTI=", "properties": {"ref": "0053", "@spider": "bjswholesale", "addr:full": "1404 US Route 9", "addr:city": "Wappingers Falls", "addr:state": "NY", "addr:postcode": "12590", "addr:country": "US", "name": "Wappingers Falls", "phone": "845-297-7800", "website": "https://www.bjs.com/mapDetail;city=0053", "opening_hours": "Mo-Sa 08:00-21:00", "brand": "BJ's Wholesale", "brand:wikidata": "Q4835754"}, "geometry": {"type": "Point", "coordinates": [-73.90776, 41.56723]}},
{"type": "Feature", "id": "v8RwHyowFP3rN-okKzITk71dl-c=", "properties": {"ref": "0116", "@spider": "bjswholesale", "addr:full": "50 Eastview Mall Dr.", "addr:city": "Victor", "addr:state": "NY", "addr:postcode": "14564", "addr:country": "US", "name": "Victor", "phone": "585-421-3460", "website": "https://www.bjs.com/mapDetail;city=0116", "opening_hours": "Mo-Sa 08:00-21:00", "brand": "BJ's Wholesale", "brand:wikidata": "Q4835754"}, "geometry": {"type": "Point", "coordinates": [-77.43946, 43.02614]}},
{"type": "Feature", "id": "a0iAIMKTJsajC7yos9aoAyxvHlU=", "properties": {"ref": "0165", "@spider": "bjswholesale", "addr:full": "125 Green Acres Rd.", "addr:city": "Valley Stream", "addr:state": "NY", "addr:postcode": "11581", "addr:country": "US", "name": "Valley Stream", "phone": "516-837-4106", "website": "https://www.bjs.com/mapDetail;city=0165", "opening_hours": "Mo-Sa 08:00-22:00", "brand": "BJ's Wholesale", "brand:wikidata": "Q4835754"}, "geometry": {"type": "Point", "coordinates": [-73.71457, 40.66203]}},
{"type": "Feature", "id": "EG-YNo_EpSeg9wQwlSPosYJJQGg=", "properties": {"ref": "0064", "@spider": "bjswholesale", "addr:full": "400 River Rd.", "addr:city": "Utica", "addr:state": "NY", "addr:postcode": "13502", "addr:country": "US", "name": "Utica", "phone": "315-797-3300", "website": "https://www.bjs.com/mapDetail;city=0064", "opening_hours": "Mo-Sa 08:00-21:00", "brand": "BJ's Wholesale", "brand:wikidata": "Q4835754"}, "geometry": {"type": "Point", "coordinates": [-75.21459, 43.11665]}},
{"type": "Feature", "id": "D1dVdOlEBLaf_Qfv1WSbDBxO0f4=", "properties": {"ref": "0066", "@spider": "bjswholesale", "addr:full": "3067 Route 50", "addr:city": "Saratoga Springs", "addr:state": "NY", "addr:postcode": "12866", "addr:country": "US", "name": "Saratoga Springs", "phone": "518-583-2500", "website": "https://www.bjs.com/mapDetail;city=0066", "opening_hours": "Mo-Sa 08:00-21:00", "brand": "BJ's Wholesale", "brand:wikidata": "Q4835754"}, "geometry": {"type": "Point", "coordinates": [-73.74108, 43.1049]}},
{"type": "Feature", "id": "y6aIpdZujk2uu8fGj7qaaNTnjfc=", "properties": {"ref": "0079", "@spider": "bjswholesale", "addr:full": "70 W Campbell Rd.", "addr:city": "Rotterdam", "addr:state": "NY", "addr:postcode": "12306", "addr:country": "US", "name": "Rotterdam", "phone": "518-382-1900", "website": "https://www.bjs.com/mapDetail;city=0079", "opening_hours": "Mo-Sa 08:00-21:00", "brand": "BJ's Wholesale", "brand:wikidata": "Q4835754"}, "geometry": {"type": "Point", "coordinates": [-73.99238, 42.80723]}},
{"type": "Feature", "id": "HkAoOj4sfQIOXSVfuacN0GLVqAk=", "properties": {"ref": "0312", "@spider": "bjswholesale", "addr:full": "607 Old Country Rd.", "addr:city": "Riverhead", "addr:state": "NY", "addr:postcode": "11901", "addr:country": "US", "name": "Riverhead", "phone": "631-727-6700", "website": "https://www.bjs.com/mapDetail;city=0312", "opening_hours": "Mo-Sa 08:00-22:00", "brand": "BJ's Wholesale", "brand:wikidata": "Q4835754"}, "geometry": {"type": "Point", "coordinates": [-72.66321, 40.935]}},
{"type": "Feature", "id": "UDAV7pfpS7GMB3XMKXwz_Jv-yjw=", "properties": {"ref": "0201", "@spider": "bjswholesale", "addr:full": "825 Pelham Pkwy.", "addr:city": "Pelham", "addr:state": "NY", "addr:postcode": "10803", "addr:country": "US", "name": "Pelham Manor", "phone": "914-632-1547", "website": "https://www.bjs.com/mapDetail;city=0201", "opening_hours": "Mo-Sa 08:00-22:00", "brand": "BJ's Wholesale", "brand:wikidata": "Q4835754"}, "geometry": {"type": "Point", "coordinates": [-73.82022, 40.89286]}},
{"type": "Feature", "id": "wlZnyb80FyeQvRKEyvccDB4ldPI=", "properties": {"ref": "0303", "@spider": "bjswholesale", "addr:full": "756 State Highway 28", "addr:city": "Oneonta", "addr:state": "NY", "addr:postcode": "13820", "addr:country": "US", "name": "Oneonta", "phone": "607-431-1111", "website": "https://www.bjs.com/mapDetail;city=0303", "opening_hours": "Mo-Sa 08:00-21:00", "brand": "BJ's Wholesale", "brand:wikidata": "Q4835754"}, "geometry": {"type": "Point", "coordinates": [-75.05546, 42.44616]}},
{"type": "Feature", "id": "KCHizwP0vF3uLMzgRrnB_ySr-9E=", "properties": {"ref": "0372", "@spider": "bjswholesale", "addr:full": "401 Auto Park Place", "addr:city": "Newburgh", "addr:state": "NY", "addr:postcode": "12550", "addr:country": "US", "name": "Newburgh", "phone": "845-375-3558", "website": "https://www.bjs.com/mapDetail;city=0372", "opening_hours": "Mo-Sa 08:00-21:00", "brand": "BJ's Wholesale", "brand:wikidata": "Q4835754"}, "geometry": {"type": "Point", "coordinates": [-74.0634, 41.50324]}},
{"type": "Feature", "id": "YXhsGsGtQVfZlQvsq8OSMg_Ud_o=", "properties": {"ref": "0148", "@spider": "bjswholesale", "addr:full": "232 Larkin Dr.", "addr:city": "Monroe", "addr:state": "NY", "addr:postcode": "10950", "addr:country": "US", "name": "Monroe", "phone": "845-783-8338", "website": "https://www.bjs.com/mapDetail;city=0148", "opening_hours": "Mo-Sa 08:00-22:00", "brand": "BJ's Wholesale", "brand:wikidata": "Q4835754"}, "geometry": {"type": "Point", "coordinates": [-74.1453, 41.31886]}},
{"type": "Feature", "id": "xNSNH557PKSRfj4o9o8fgvnOHP0=", "properties": {"ref": "0143", "@spider": "bjswholesale", "addr:full": "66-26 Metropolitan Ave.", "addr:city": "Queens", "addr:state": "NY", "addr:postcode": "11379", "addr:country": "US", "name": "Middle Village, Queens", "phone": "718-326-9080", "website": "https://www.bjs.com/mapDetail;city=0143", "opening_hours": "Mo-Sa 08:00-22:00", "brand": "BJ's Wholesale", "brand:wikidata": "Q4835754"}, "geometry": {"type": "Point", "coordinates": [-73.89621, 40.71253]}},
{"type": "Feature", "id": "_qs5bcgMSDiWfLZ7BQdigx8hyac=", "properties": {"ref": "0301", "@spider": "bjswholesale", "addr:full": "6100 St. Lawrence Centre", "addr:city": "Massena", "addr:state": "NY", "addr:postcode": "13662", "addr:country": "US", "name": "Massena", "phone": "315-764-1000", "website": "https://www.bjs.com/mapDetail;city=0301", "opening_hours": "Mo-Sa 08:00-21:00", "brand": "BJ's Wholesale", "brand:wikidata": "Q4835754"}, "geometry": {"type": "Point", "coordinates": [-74.84379, 44.94564]}},
{"type": "Feature", "id": "dkuQ_zcfRiNCqNSicdh3GnIZQJ8=", "properties": {"ref": "0364", "@spider": "bjswholesale", "addr:full": "34-60 48th Street", "addr:city": "Long Island City", "addr:state": "NY", "addr:postcode": "11101", "addr:country": "US", "name": "Long Island City", "phone": "516-862-2146", "website": "https://www.bjs.com/mapDetail;city=0364", "opening_hours": "Mo-Sa 08:00-22:00", "brand": "BJ's Wholesale", "brand:wikidata": "Q4835754"}, "geometry": {"type": "Point", "coordinates": [-73.9159, 40.75199]}},
{"type": "Feature", "id": "ypUsdzjJER_xrRyBl3EcQGitTL0=", "properties": {"ref": "0160", "@spider": "bjswholesale", "addr:full": "3635 Hempstead Tpke.", "addr:city": "Levittown", "addr:state": "NY", "addr:postcode": "11756", "addr:country": "US", "name": "Levittown", "phone": "516-860-1371", "website": "https://www.bjs.com/mapDetail;city=0160", "opening_hours": "Mo-Sa 08:00-22:00", "brand": "BJ's Wholesale", "brand:wikidata": "Q4835754"}, "geometry": {"type": "Point", "coordinates": [-73.50235, 40.7258]}},
{"type": "Feature", "id": "AB7BkJetnX37qkkTzAsq0eD9Qak=", "properties": {"ref": "0352", "@spider": "bjswholesale", "addr:full": "40 Graham Rd. West", "addr:city": "Ithaca", "addr:state": "NY", "addr:postcode": "14850", "addr:country": "US", "name": "Ithaca", "phone": "607-241-4762", "website": "https://www.bjs.com/mapDetail;city=0352", "opening_hours": "Mo-Sa 08:00-21:00", "brand": "BJ's Wholesale", "brand:wikidata": "Q4835754"}, "geometry": {"type": "Point", "coordinates": [-76.48882, 42.48593]}},
{"type": "Feature", "id": "JtxVwJ0APQ_iYdELJWs97MTp1ZM=", "properties": {"ref": "0049", "@spider": "bjswholesale", "addr:full": "1000 Old Nichols Rd.", "addr:city": "Islandia", "addr:state": "NY", "addr:postcode": "11749", "addr:country": "US", "name": "Islandia", "phone": "631-851-0200", "website": "https://www.bjs.com/mapDetail;city=0049", "opening_hours": "Mo-Sa 08:00-22:00", "brand": "BJ's Wholesale", "brand:wikidata": "Q4835754"}, "geometry": {"type": "Point", "coordinates": [-73.15781, 40.81191]}},
{"type": "Feature", "id": "DpgyQWtnzMfhN8yLOYqXpAcv3ew=", "properties": {"ref": "0168", "@spider": "bjswholesale", "addr:full": "400 Jay Scutti Blvd.", "addr:city": "Rochester", "addr:state": "NY", "addr:postcode": "14623", "addr:country": "US", "name": "Henrietta", "phone": "585-475-1180", "website": "https://www.bjs.com/mapDetail;city=0168", "opening_hours": "Mo-Sa 08:00-21:00", "brand": "BJ's Wholesale", "brand:wikidata": "Q4835754"}, "geometry": {"type": "Point", "coordinates": [-77.6297, 43.08908]}},
{"type": "Feature", "id": "8P7z5Zlu1FcuYFzqfyajoJK3Bdw=", "properties": {"ref": "0035", "@spider": "bjswholesale", "addr:full": "4408 Milestrip Rd.", "addr:city": "Blasdell", "addr:state": "NY", "addr:postcode": "14219", "addr:country": "US", "name": "Hamburg", "phone": "716-824-1800", "website": "https://www.bjs.com/mapDetail;city=0035", "opening_hours": "Mo-Sa 08:00-21:00", "brand": "BJ's Wholesale", "brand:wikidata": "Q4835754"}, "geometry": {"type": "Point", "coordinates": [-78.81521, 42.78992]}},
{"type": "Feature", "id": "2HMpAOqiephpzPSY38b0Qmp5Yhg=", "properties": {"ref": "0395", "@spider": "bjswholesale", "addr:full": "399 Tarrytown Road", "addr:city": "White Plains", "addr:state": "NY", "addr:postcode": "10607", "addr:country": "US", "name": "Greenburgh", "phone": "914-421-2551", "website": "https://www.bjs.com/mapDetail;city=0395", "opening_hours": "Mo-Su 08:00-21:00", "brand": "BJ's Wholesale", "brand:wikidata": "Q4835754"}, "geometry": {"type": "Point", "coordinates": [-73.79867, 41.04187]}},
{"type": "Feature", "id": "E-eBa1UaDKEkzjLJsruvvZjOtMw=", "properties": {"ref": "0185", "@spider": "bjswholesale", "addr:full": "300 Bellwood Dr.", "addr:city": "Rochester", "addr:state": "NY", "addr:postcode": "14606", "addr:country": "US", "name": "Greece", "phone": "585-723-2010", "website": "https://www.bjs.com/mapDetail;city=0185", "opening_hours": "Mo-Sa 08:00-21:00", "brand": "BJ's Wholesale", "brand:wikidata": "Q4835754"}, "geometry": {"type": "Point", "coordinates": [-77.68627, 43.1812]}},
{"type": "Feature", "id": "193HXyitT-7xnChLDlXggJcau5c=", "properties": {"ref": "0212", "@spider": "bjswholesale", "addr:full": "711 Stewart Ave.", "addr:city": "Garden City", "addr:state": "NY", "addr:postcode": "11530", "addr:country": "US", "name": "Garden City", "phone": "516-357-3679", "website": "https://www.bjs.com/mapDetail;city=0212", "opening_hours": "Mo-Sa 08:00-22:00", "brand": "BJ's Wholesale", "brand:wikidata": "Q4835754"}, "geometry": {"type": "Point", "coordinates": [-73.60797, 40.73354]}},
{"type": "Feature", "id": "DzyejlEzEJEqnHKaNLYr-CtzuRM=", "properties": {"ref": "0136", "@spider": "bjswholesale", "addr:full": "100 Mill Rd.", "addr:city": "Freeport", "addr:state": "NY", "addr:postcode": "11520", "addr:country": "US", "name": "Freeport", "phone": "516-867-9200", "website": "https://www.bjs.com/mapDetail;city=0136", "opening_hours": "Mo-Sa 08:00-22:00", "brand": "BJ's Wholesale", "brand:wikidata": "Q4835754"}, "geometry": {"type": "Point", "coordinates": [-73.57137, 40.65227]}},
{"type": "Feature", "id": "rIdmoHiHz39Z8w_xOEunWHPfS6c=", "properties": {"ref": "0206", "@spider": "bjswholesale", "addr:full": "131-07 40th Rd., Ste. A100", "addr:city": "Flushing", "addr:state": "NY", "addr:postcode": "11354", "addr:country": "US", "name": "Flushing", "phone": "347-625-2959", "website": "https://www.bjs.com/mapDetail;city=0206", "opening_hours": "Mo-Sa 08:00-22:00", "brand": "BJ's Wholesale", "brand:wikidata": "Q4835754"}, "geometry": {"type": "Point", "coordinates": [-73.83435, 40.75693]}},
{"type": "Feature", "id": "tMm1ZRBhzPaTCUSNalQAnGcfkGo=", "properties": {"ref": "0127", "@spider": "bjswholesale", "addr:full": "50 Daniel St.", "addr:city": "Farmingdale", "addr:state": "NY", "addr:postcode": "11735", "addr:country": "US", "name": "Farmingdale", "phone": "631-755-9200", "website": "https://www.bjs.com/mapDetail;city=0127", "opening_hours": "Mo-Sa 08:00-22:00", "brand": "BJ's Wholesale", "brand:wikidata": "Q4835754"}, "geometry": {"type": "Point", "coordinates": [-73.42353, 40.74705]}},
{"type": "Feature", "id": "7M4fjNvuQ4xemtdhfSiOp8uCkVM=", "properties": {"ref": "0045", "@spider": "bjswholesale", "addr:full": "Two Chevy Dr.", "addr:city": "East Syracuse", "addr:state": "NY", "addr:postcode": "13057", "addr:country": "US", "name": "E. Syracuse", "phone": "315-434-9100", "website": "https://www.bjs.com/mapDetail;city=0045", "opening_hours": "Mo-Sa 08:00-21:00", "brand": "BJ's Wholesale", "brand:wikidata": "Q4835754"}, "geometry": {"type": "Point", "coordinates": [-76.06612, 43.06108]}},
{"type": "Feature", "id": "MwuMGMnD2jqERrm3LdcfxpcRbBA=", "properties": {"ref": "0011", "@spider": "bjswholesale", "addr:full": "4000 Nesconset Hwy. Rte. 347", "addr:city": "East Setauket", "addr:state": "NY", "addr:postcode": "11733", "addr:country": "US", "name": "E. Setauket", "phone": "631-642-1012", "website": "https://www.bjs.com/mapDetail;city=0011", "opening_hours": "Mo-Sa 08:00-22:00", "brand": "BJ's Wholesale", "brand:wikidata": "Q4835754"}, "geometry": {"type": "Point", "coordinates": [-73.08021, 40.89981]}},
{"type": "Feature", "id": "vcc1TeoDPKTPIgrcwWXnikrEK0o=", "properties": {"ref": "0359", "@spider": "bjswholesale", "addr:full": "1900 The Arches Cir.", "addr:city": "Deer Park", "addr:state": "NY", "addr:postcode": "11729", "addr:country": "US", "name": "Deer Park", "phone": "631-242-4375", "website": "https://www.bjs.com/mapDetail;city=0359", "opening_hours": "Mo-Sa 08:00-22:00", "brand": "BJ's Wholesale", "brand:wikidata": "Q4835754"}, "geometry": {"type": "Point", "coordinates": [-73.3066, 40.76341]}},
{"type": "Feature", "id": "LD-s2F7LzhC4nb8c1gp2xztY6FI=", "properties": {"ref": "0386", "@spider": "bjswholesale", "addr:full": "2 Veteran's Memorial Highway", "addr:city": "Commack", "addr:state": "NY", "addr:postcode": "11725", "addr:country": "US", "name": "Commack", "phone": "631-850-8260", "website": "https://www.bjs.com/mapDetail;city=0386", "opening_hours": "Mo-Sa 08:00-22:00", "brand": "BJ's Wholesale", "brand:wikidata": "Q4835754"}, "geometry": {"type": "Point", "coordinates": [-73.29011, 40.84095]}},
{"type": "Feature", "id": "4xZI2YWUf38gxdLwzmdi9_jwx5w=", "properties": {"ref": "0097", "@spider": "bjswholesale", "addr:full": "13705 20th Ave.", "addr:city": "College Point", "addr:state": "NY", "addr:postcode": "11356", "addr:country": "US", "name": "College Point", "phone": "718-359-9703", "website": "https://www.bjs.com/mapDetail;city=0097", "opening_hours": "Mo-Sa 08:00-22:00", "brand": "BJ's Wholesale", "brand:wikidata": "Q4835754"}, "geometry": {"type": "Point", "coordinates": [-73.83219, 40.78169]}},
{"type": "Feature", "id": "7DGZvNxbM-3K27mF86s-BigPQt0=", "properties": {"ref": "0068", "@spider": "bjswholesale", "addr:full": "4145 State Route 31", "addr:city": "Clay", "addr:state": "NY", "addr:postcode": "13041", "addr:country": "US", "name": "Clay", "phone": "315-622-2600", "website": "https://www.bjs.com/mapDetail;city=0068", "opening_hours": "Mo-Sa 08:00-21:00", "brand": "BJ's Wholesale", "brand:wikidata": "Q4835754"}, "geometry": {"type": "Point", "coordinates": [-76.22243, 43.186]}},
{"type": "Feature", "id": "a0IQ3iTh2obBBlsFmTgcyv6yMH4=", "properties": {"ref": "0142", "@spider": "bjswholesale", "addr:full": "5183 Transit Rd.", "addr:city": "Williamsville", "addr:state": "NY", "addr:postcode": "14221", "addr:country": "US", "name": "Clarence", "phone": "716-565-3700", "website": "https://www.bjs.com/mapDetail;city=0142", "opening_hours": "Mo-Sa 08:00-21:00", "brand": "BJ's Wholesale", "brand:wikidata": "Q4835754"}, "geometry": {"type": "Point", "coordinates": [-78.69677, 42.98702]}},
{"type": "Feature", "id": "XX4WadaYrrMMoIAV2Jn7qn1JAqw=", "properties": {"ref": "0204", "@spider": "bjswholesale", "addr:full": "900 Remsen Ave.", "addr:city": "Brooklyn", "addr:state": "NY", "addr:postcode": "11236", "addr:country": "US", "name": "Canarsie", "phone": "718-249-1311", "website": "https://www.bjs.com/mapDetail;city=0204", "opening_hours": "Mo-Sa 08:00-22:00", "brand": "BJ's Wholesale", "brand:wikidata": "Q4835754"}, "geometry": {"type": "Point", "coordinates": [-73.913, 40.6453]}},
{"type": "Feature", "id": "lmOnJ1VvugsqvwvJCyYCwPycNzQ=", "properties": {"ref": "0195", "@spider": "bjswholesale", "addr:full": "1752 Shore Parkway", "addr:city": "Brooklyn", "addr:state": "NY", "addr:postcode": "11214", "addr:country": "US", "name": "Brooklyn - Bensonhurst", "phone": "718-372-6951", "website": "https://www.bjs.com/mapDetail;city=0195", "opening_hours": "Mo-Sa 08:00-22:00", "brand": "BJ's Wholesale", "brand:wikidata": "Q4835754"}, "geometry": {"type": "Point", "coordinates": [-73.99683, 40.59277]}},
{"type": "Feature", "id": "nMdCci5HRBsWy31AvBAJsgcWRPc=", "properties": {"ref": "0138", "@spider": "bjswholesale", "addr:full": "339 Gateway Dr.", "addr:city": "Brooklyn", "addr:state": "NY", "addr:postcode": "11239", "addr:country": "US", "name": "Brooklyn", "phone": "718-942-2090", "website": "https://www.bjs.com/mapDetail;city=0138", "opening_hours": "Mo-Sa 08:00-22:00", "brand": "BJ's Wholesale", "brand:wikidata": "Q4835754"}, "geometry": {"type": "Point", "coordinates": [-73.87352, 40.65082]}},
{"type": "Feature", "id": "j2vjt68KF_c8mwSkksHrhY9aZ2k=", "properties": {"ref": "0363", "@spider": "bjswholesale", "addr:full": "184 West 237th St.", "addr:city": "Bronx", "addr:state": "NY", "addr:postcode": "10463", "addr:country": "US", "name": "Bronx - Riverdale", "phone": "718-548-0176", "website": "https://www.bjs.com/mapDetail;city=0363", "opening_hours": "Mo-Sa 08:00-22:00", "brand": "BJ's Wholesale", "brand:wikidata": "Q4835754"}, "geometry": {"type": "Point", "coordinates": [-73.90027, 40.88408]}},
{"type": "Feature", "id": "dnDBZQFxfVzLw8IWDNTrtpOP-XA=", "properties": {"ref": "0176", "@spider": "bjswholesale", "addr:full": "610 Exterior St.", "addr:city": "Bronx", "addr:state": "NY", "addr:postcode": "10451", "addr:country": "US", "name": "Bronx", "phone": "718-292-5410", "website": "https://www.bjs.com/mapDetail;city=0176", "opening_hours": "Mo-Sa 08:00-22:00", "brand": "BJ's Wholesale", "brand:wikidata": "Q4835754"}, "geometry": {"type": "Point", "coordinates": [-73.9309, 40.81647]}},
{"type": "Feature", "id": "k30w8yXQ0EY5vzZZfF_Lo7YaAFs=", "properties": {"ref": "0366", "@spider": "bjswholesale", "addr:full": "790 Sunrise Hwy S Service Rd", "addr:city": "Bellport", "addr:state": "NY", "addr:postcode": "11713", "addr:country": "US", "name": "Bellport - Brookhaven", "phone": "631-286-0189", "website": "https://www.bjs.com/mapDetail;city=0366", "opening_hours": "Mo-Sa 08:00-22:00", "brand": "BJ's Wholesale", "brand:wikidata": "Q4835754"}, "geometry": {"type": "Point", "coordinates": [-72.95027, 40.78733]}},
{"type": "Feature", "id": "yIQdTsORPPn_idd2662_EBvy_yc=", "properties": {"ref": "0311", "@spider": "bjswholesale", "addr:full": "8330 Lewiston Rd.", "addr:city": "Batavia", "addr:state": "NY", "addr:postcode": "14020", "addr:country": "US", "name": "Batavia", "phone": "585-343-1200", "website": "https://www.bjs.com/mapDetail;city=0311", "opening_hours": "Mo-Sa 08:00-21:00", "brand": "BJ's Wholesale", "brand:wikidata": "Q4835754"}, "geometry": {"type": "Point", "coordinates": [-78.21024, 43.01038]}},
{"type": "Feature", "id": "8Y5ym08uWUgHL6VLXj-7UQeh1vw=", "properties": {"ref": "0314", "@spider": "bjswholesale", "addr:full": "11 Plaza Dr.", "addr:city": "Auburn", "addr:state": "NY", "addr:postcode": "13021", "addr:country": "US", "name": "Auburn - Sennett", "phone": "315-252-5300", "website": "https://www.bjs.com/mapDetail;city=0314", "opening_hours": "Mo-Sa 08:00-21:00", "brand": "BJ's Wholesale", "brand:wikidata": "Q4835754"}, "geometry": {"type": "Point", "coordinates": [-76.54197, 42.95685]}},
{"type": "Feature", "id": "t__r6zamkgvcpzb9tVMxSeyUc3k=", "properties": {"ref": "0213", "@spider": "bjswholesale", "addr:full": "3056 Sheridan Dr.", "addr:city": "Amherst", "addr:state": "NY", "addr:postcode": "14226", "addr:country": "US", "name": "Amherst", "phone": "716-833-3130", "website": "https://www.bjs.com/mapDetail;city=0213", "opening_hours": "Mo-Sa 08:00-21:00", "brand": "BJ's Wholesale", "brand:wikidata": "Q4835754"}, "geometry": {"type": "Point", "coordinates": [-78.8207, 42.98074]}},
{"type": "Feature", "id": "Bbq6bXMa5AkphM91cStxGn0-kIQ=", "properties": {"ref": "0302", "@spider": "bjswholesale", "addr:full": "1899 Cinema Dr.", "addr:city": "Olean", "addr:state": "NY", "addr:postcode": "14760", "addr:country": "US", "name": "Allegany", "phone": "716-373-7100", "website": "https://www.bjs.com/mapDetail;city=0302", "opening_hours": "Mo-Sa 08:00-21:00", "brand": "BJ's Wholesale", "brand:wikidata": "Q4835754"}, "geometry": {"type": "Point", "coordinates": [-78.4659, 42.07995]}},
{"type": "Feature", "id": "UXxgrQ4Rsu9KH_A7LLIJDFzrwHM=", "properties": {"ref": "0007", "@spider": "bjswholesale", "addr:full": "01440 Central Ave.", "addr:city": "Albany", "addr:state": "NY", "addr:postcode": "12205", "addr:country": "US", "name": "Albany", "phone": "518-438-1400", "website": "https://www.bjs.com/mapDetail;city=0007", "opening_hours": "Mo-Sa 08:00-21:00", "brand": "BJ's Wholesale", "brand:wikidata": "Q4835754"}, "geometry": {"type": "Point", "coordinates": [-73.82149, 42.70746]}},
{"type": "Feature", "id": "jdA9bpHVjZyO4_c9KkeNT7AyEP0=", "properties": {"ref": "0222", "@spider": "bjswholesale", "addr:full": "300 Willowbrook Mall", "addr:city": "Wayne", "addr:state": "NJ", "addr:postcode": "07470", "addr:country": "US", "name": "Wayne", "website": "https://www.bjs.com/mapDetail;city=0222", "brand": "BJ's Wholesale", "brand:wikidata": "Q4835754"}, "geometry": {"type": "Point", "coordinates": [-74.25459, 40.88907]}},
{"type": "Feature", "id": "8EWDLEDQq0Lm9NxnN9f8-_7mC-M=", "properties": {"ref": "0073", "@spider": "bjswholesale", "addr:full": "1601 US Highway 22", "addr:city": "Watchung", "addr:state": "NJ", "addr:postcode": "07069", "addr:country": "US", "name": "Watchung", "phone": "908-322-2110", "website": "https://www.bjs.com/mapDetail;city=0073", "opening_hours": "Mo-Sa 08:00-22:00", "brand": "BJ's Wholesale", "brand:wikidata": "Q4835754"}, "geometry": {"type": "Point", "coordinates": [-74.41348, 40.64278]}},
{"type": "Feature", "id": "4VCeqp4--ppUq4zMQSpVkufkTb8=", "properties": {"ref": "0153", "@spider": "bjswholesale", "addr:full": "152 Route 73", "addr:city": "Voorhees", "addr:state": "NJ", "addr:postcode": "08043", "addr:country": "US", "name": "Voorhees", "phone": "856-768-9015", "website": "https://www.bjs.com/mapDetail;city=0153", "opening_hours": "Mo-Sa 08:00-21:00", "brand": "BJ's Wholesale", "brand:wikidata": "Q4835754"}, "geometry": {"type": "Point", "coordinates": [-74.92527, 39.83658]}},
{"type": "Feature", "id": "9t4Xb6LazbPJRAc5Nt5fnVZ72zc=", "properties": {"ref": "0156", "@spider": "bjswholesale", "addr:full": "3849 S. Delsea Drive", "addr:city": "Vineland", "addr:state": "NJ", "addr:postcode": "08360", "addr:country": "US", "name": "Vineland", "phone": "856-293-8900", "website": "https://www.bjs.com/mapDetail;city=0156", "opening_hours": "Mo-Sa 08:00-21:00", "brand": "BJ's Wholesale", "brand:wikidata": "Q4835754"}, "geometry": {"type": "Point", "coordinates": [-75.0402, 39.43123]}},
{"type": "Feature", "id": "WAedJAkECSW7GjqSooKokuIlALg=", "properties": {"ref": "0100", "@spider": "bjswholesale", "addr:full": "941 Route 37 W", "addr:city": "Toms River", "addr:state": "NJ", "addr:postcode": "08755", "addr:country": "US", "name": "Toms River", "phone": "732-736-0532", "website": "https://www.bjs.com/mapDetail;city=0100", "opening_hours": "Mo-Sa 08:00-22:00", "brand": "BJ's Wholesale", "brand:wikidata": "Q4835754"}, "geometry": {"type": "Point", "coordinates": [-74.2406, 39.97376]}},
{"type": "Feature", "id": "vzqvkExv3oYs4dIpoF8hpIzqyGw=", "properties": {"ref": "0048", "@spider": "bjswholesale", "addr:full": "One Howard Blvd.", "addr:city": "Ledgewood", "addr:state": "NJ", "addr:postcode": "07852", "addr:country": "US", "name": "Roxbury", "phone": "973-252-0500", "website": "https://www.bjs.com/mapDetail;city=0048", "opening_hours": "Mo-Sa 08:00-21:00", "brand": "BJ's Wholesale", "brand:wikidata": "Q4835754"}, "geometry": {"type": "Point", "coordinates": [-74.64278, 40.8794]}},
{"type": "Feature", "id": "pFO02DaFDjjAEo2ChAAZAdADf2M=", "properties": {"ref": "0094", "@spider": "bjswholesale", "addr:full": "110 State Rte. 23", "addr:city": "Riverdale", "addr:state": "NJ", "addr:postcode": "07457", "addr:country": "US", "name": "Riverdale", "phone": "973-248-1116", "website": "https://www.bjs.com/mapDetail;city=0094", "opening_hours": "Mo-Sa 08:00-22:00", "brand": "BJ's Wholesale", "brand:wikidata": "Q4835754"}, "geometry": {"type": "Point", "coordinates": [-74.32181, 40.98907]}},
{"type": "Feature", "id": "YuFwlEEUkblCjSJNHjJFimCq0cM=", "properties": {"ref": "0117", "@spider": "bjswholesale", "addr:full": "30 S State Rte. 17", "addr:city": "Paramus", "addr:state": "NJ", "addr:postcode": "07652", "addr:country": "US", "name": "Paramus", "phone": "201-909-9800", "website": "https://www.bjs.com/mapDetail;city=0117", "opening_hours": "Mo-Sa 08:00-22:00", "brand": "BJ's Wholesale", "brand:wikidata": "Q4835754"}, "geometry": {"type": "Point", "coordinates": [-74.07235, 40.91694]}},
{"type": "Feature", "id": "ao0UR9i-kV0G6hWgyI1_m7rrWtw=", "properties": {"ref": "0172", "@spider": "bjswholesale", "addr:full": "1007 U.S. Highway 9", "addr:city": "Old Bridge", "addr:state": "NJ", "addr:postcode": "08857", "addr:country": "US", "name": "Old Bridge", "phone": "732-553-4030", "website": "https://www.bjs.com/mapDetail;city=0172", "opening_hours": "Mo-Sa 08:00-22:00", "brand": "BJ's Wholesale", "brand:wikidata": "Q4835754"}, "geometry": {"type": "Point", "coordinates": [-74.29966, 40.44585]}},
{"type": "Feature", "id": "JJ5q0xDAZsDKiwUinT-vqDdVSSk=", "properties": {"ref": "0027", "@spider": "bjswholesale", "addr:full": "1904 State Route 35", "addr:city": "Oakhurst", "addr:state": "NJ", "addr:postcode": "07755", "addr:country": "US", "name": "Ocean Township", "phone": "732-493-8999", "website": "https://www.bjs.com/mapDetail;city=0027", "opening_hours": "Mo-Sa 08:00-22:00", "brand": "BJ's Wholesale", "brand:wikidata": "Q4835754"}, "geometry": {"type": "Point", "coordinates": [-74.04152, 40.26146]}},
{"type": "Feature", "id": "P56mOx2hKq0oqI1LxGuzWN0VM60=", "properties": {"ref": "0210", "@spider": "bjswholesale", "addr:full": "2451 U.S. Highway 1 South", "addr:city": "North Brunswick", "addr:state": "NJ", "addr:postcode": "08902", "addr:country": "US", "name": "North Brunswick", "phone": "732-348-6040", "website": "https://www.bjs.com/mapDetail;city=0210", "opening_hours": "Mo-Sa 08:00-22:00", "brand": "BJ's Wholesale", "brand:wikidata": "Q4835754"}, "geometry": {"type": "Point", "coordinates": [-74.51591, 40.43162]}},
{"type": "Feature", "id": "xIXz524X37ZK5IqOtQyoomCpLsA=", "properties": {"ref": "0190", "@spider": "bjswholesale", "addr:full": "2100 88th St.", "addr:city": "North Bergen", "addr:state": "NJ", "addr:postcode": "07047", "addr:country": "US", "name": "North Bergen", "phone": "201-442-3471", "website": "https://www.bjs.com/mapDetail;city=0190", "opening_hours": "Mo-Sa 08:00-22:00", "brand": "BJ's Wholesale", "brand:wikidata": "Q4835754"}, "geometry": {"type": "Point", "coordinates": [-74.01488, 40.8125]}},
{"type": "Feature", "id": "G5OqHehXRAPGkC1YkegxCN0eFKs=", "properties": {"ref": "0074", "@spider": "bjswholesale", "addr:full": "200 Wrangleboro Rd.", "addr:city": "Mays Landing", "addr:state": "NJ", "addr:postcode": "08330", "addr:country": "US", "name": "Mays Landing", "phone": "609-485-0088", "website": "https://www.bjs.com/mapDetail;city=0074", "opening_hours": "Mo-Sa 08:00-21:00", "brand": "BJ's Wholesale", "brand:wikidata": "Q4835754"}, "geometry": {"type": "Point", "coordinates": [-74.63161, 39.45404]}},
{"type": "Feature", "id": "pVhnS6wfU2KK671xhSVd82puuwY=", "properties": {"ref": "0013", "@spider": "bjswholesale", "addr:full": "131 East Kings Highway", "addr:city": "Maple Shade", "addr:state": "NJ", "addr:postcode": "08052", "addr:country": "US", "name": "Maple Shade", "phone": "856-234-9311", "website": "https://www.bjs.com/mapDetail;city=0013", "opening_hours": "Mo-Sa 08:00-22:00", "brand": "BJ's Wholesale", "brand:wikidata": "Q4835754"}, "geometry": {"type": "Point", "coordinates": [-74.97329, 39.94828]}},
{"type": "Feature", "id": "e1LtuRpRWSvP6MXYqYt8no4QSYY=", "properties": {"ref": "0192", "@spider": "bjswholesale", "addr:full": "321 Martin Truex Jr. Blvd.", "addr:city": "Manahawkin", "addr:state": "NJ", "addr:postcode": "08050", "addr:country": "US", "name": "Manahawkin", "phone": "609-597-0981", "website": "https://www.bjs.com/mapDetail;city=0192", "opening_hours": "Mo-Sa 08:00-21:00", "brand": "BJ's Wholesale", "brand:wikidata": "Q4835754"}, "geometry": {"type": "Point", "coordinates": [-74.27729, 39.70175]}},
{"type": "Feature", "id": "QztYvljxHocqSlO4p9HUvfp-IAA=", "properties": {"ref": "0067", "@spider": "bjswholesale", "addr:full": "1001 E. Edgar Rd.", "addr:city": "Linden", "addr:state": "NJ", "addr:postcode": "07036", "addr:country": "US", "name": "Linden", "phone": "908-862-9400", "website": "https://www.bjs.com/mapDetail;city=0067", "opening_hours": "Mo-Sa 08:00-22:00", "brand": "BJ's Wholesale", "brand:wikidata": "Q4835754"}, "geometry": {"type": "Point", "coordinates": [-74.23433, 40.63681]}},
{"type": "Feature", "id": "c-VSYaWu8d7EBUrRKDWwCp2d0QQ=", "properties": {"ref": "0370", "@spider": "bjswholesale", "addr:full": "180 Passaic Ave.", "addr:city": "Kearny", "addr:state": "NJ", "addr:postcode": "07032", "addr:country": "US", "name": "Kearny", "phone": "201-246-7570", "website": "https://www.bjs.com/mapDetail;city=0370", "opening_hours": "Mo-Sa 08:00-22:00", "brand": "BJ's Wholesale", "brand:wikidata": "Q4835754"}, "geometry": {"type": "Point", "coordinates": [-74.16028, 40.76018]}},
{"type": "Feature", "id": "GkzKKA5gXg94aSqrjn1lDvAe9oY=", "properties": {"ref": "0044", "@spider": "bjswholesale", "addr:full": "396 Luis Munoz Marin Blvd.", "addr:city": "Jersey City", "addr:state": "NJ", "addr:postcode": "07302", "addr:country": "US", "name": "Jersey City", "phone": "201-798-0500", "website": "https://www.bjs.com/mapDetail;city=0044", "opening_hours": "Mo-Sa 08:00-22:00", "brand": "BJ's Wholesale", "brand:wikidata": "Q4835754"}, "geometry": {"type": "Point", "coordinates": [-74.04058, 40.72296]}},
{"type": "Feature", "id": "WBK1BAnnv3mJ6k4px5jUXsM9VPk=", "properties": {"ref": "0371", "@spider": "bjswholesale", "addr:full": "5371 Route 9 North", "addr:city": "Howell", "addr:state": "NJ", "addr:postcode": "07731", "addr:country": "US", "name": "Howell", "phone": "732-886-3240", "website": "https://www.bjs.com/mapDetail;city=0371", "opening_hours": "Mo-Fr 08:00-21:00", "brand": "BJ's Wholesale", "brand:wikidata": "Q4835754"}, "geometry": {"type": "Point", "coordinates": [-74.21805, 40.12902]}},
{"type": "Feature", "id": "fPeHLDJCiCSW2CSdcGXsoM19mTw=", "properties": {"ref": "0141", "@spider": "bjswholesale", "addr:full": "900 Marketplace Blvd.", "addr:city": "Hamilton", "addr:state": "NJ", "addr:postcode": "08691", "addr:country": "US", "name": "Hamilton Township", "phone": "609-581-4501", "website": "https://www.bjs.com/mapDetail;city=0141", "opening_hours": "Mo-Sa 08:00-22:00", "brand": "BJ's Wholesale", "brand:wikidata": "Q4835754"}, "geometry": {"type": "Point", "coordinates": [-74.63692, 40.19924]}},
{"type": "Feature", "id": "SJHAcLRCnRehHR03RaFS78CncIc=", "properties": {"ref": "0308", "@spider": "bjswholesale", "addr:full": "186 State Route 31", "addr:city": "Flemington", "addr:state": "NJ", "addr:postcode": "08822", "addr:country": "US", "name": "Flemington", "phone": "908-806-4700", "website": "https://www.bjs.com/mapDetail;city=0308", "opening_hours": "Mo-Sa 08:00-21:00", "brand": "BJ's Wholesale", "brand:wikidata": "Q4835754"}, "geometry": {"type": "Point", "coordinates": [-74.85707, 40.53109]}},
{"type": "Feature", "id": "cgHCuXW-2goHUmbpaISkapYhXTs=", "properties": {"ref": "0026", "@spider": "bjswholesale", "addr:full": "1000 US Highway 1", "addr:city": "Edison", "addr:state": "NJ", "addr:postcode": "08817", "addr:country": "US", "name": "Edison", "phone": "732-632-1800", "website": "https://www.bjs.com/mapDetail;city=0026", "opening_hours": "Mo-Sa 08:00-22:00", "brand": "BJ's Wholesale", "brand:wikidata": "Q4835754"}, "geometry": {"type": "Point", "coordinates": [-74.36876, 40.51775]}},
{"type": "Feature", "id": "LOjnPPfCfNNc1flLI_SEMYYe9ls=", "properties": {"ref": "0008", "@spider": "bjswholesale", "addr:full": "300 Route 17 North", "addr:city": "East Rutherford", "addr:state": "NJ", "addr:postcode": "07073", "addr:country": "US", "name": "East Rutherford", "phone": "201-438-7499", "website": "https://www.bjs.com/mapDetail;city=0008", "opening_hours": "Mo-Sa 08:00-22:00", "brand": "BJ's Wholesale", "brand:wikidata": "Q4835754"}, "geometry": {"type": "Point", "coordinates": [-74.09606, 40.82532]}},
{"type": "Feature", "id": "UQQfvJ3fy7_zQZ1ksY1i-JsdU6k=", "properties": {"ref": "0085", "@spider": "bjswholesale", "addr:full": "1910 Deptford Center Rd.", "addr:city": "Deptford", "addr:state": "NJ", "addr:postcode": "08096", "addr:country": "US", "name": "Deptford", "phone": "856-232-8880", "website": "https://www.bjs.com/mapDetail;city=0085", "opening_hours": "Mo-Sa 08:00-22:00", "brand": "BJ's Wholesale", "brand:wikidata": "Q4835754"}, "geometry": {"type": "Point", "coordinates": [-75.09253, 39.82872]}},
{"type": "Feature", "id": "D9n4uGVcYk5bIj3qreCmbfpGYf0=", "properties": {"ref": "0320", "@spider": "bjswholesale", "addr:full": "262 Plainfield Rd.", "addr:city": "West Lebanon", "addr:state": "NH", "addr:postcode": "03784", "addr:country": "US", "name": "W. Lebanon", "phone": "603-298-9418", "website": "https://www.bjs.com/mapDetail;city=0320", "opening_hours": "Mo-Sa 08:00-21:00", "brand": "BJ's Wholesale", "brand:wikidata": "Q4835754"}, "geometry": {"type": "Point", "coordinates": [-72.32424, 43.62668]}},
{"type": "Feature", "id": "oOZG2T1rnBL2svBngnFNegh2AY0=", "properties": {"ref": "0309", "@spider": "bjswholesale", "addr:full": "119 Laconia Rd.", "addr:city": "Tilton", "addr:state": "NH", "addr:postcode": "03276", "addr:country": "US", "name": "Tilton", "phone": "603-286-3700", "website": "https://www.bjs.com/mapDetail;city=0309", "opening_hours": "Mo-Sa 08:00-21:00", "brand": "BJ's Wholesale", "brand:wikidata": "Q4835754"}, "geometry": {"type": "Point", "coordinates": [-71.55866, 43.4588]}},
{"type": "Feature", "id": "3B5K5o2uJof6IbwVMUocBYpX75g=", "properties": {"ref": "0381", "@spider": "bjswholesale", "addr:full": "30 Perkins Ave", "addr:city": "Seabrook", "addr:state": "NH", "addr:postcode": "03874", "addr:country": "US", "name": "Seabrook", "phone": "603-474-4701", "website": "https://www.bjs.com/mapDetail;city=0381", "opening_hours": "Mo-Sa 08:00-21:00", "brand": "BJ's Wholesale", "brand:wikidata": "Q4835754"}, "geometry": {"type": "Point", "coordinates": [-70.87537, 42.89174]}},
{"type": "Feature", "id": "oJ_LnObp8Fve9BNTUt_eUnPthzM=", "properties": {"ref": "0017", "@spider": "bjswholesale", "addr:full": "70 Cluff Rd.", "addr:city": "Salem", "addr:state": "NH", "addr:postcode": "03079", "addr:country": "US", "name": "Salem", "phone": "603-898-6741", "website": "https://www.bjs.com/mapDetail;city=0017", "opening_hours": "Mo-Sa 08:00-21:00", "brand": "BJ's Wholesale", "brand:wikidata": "Q4835754"}, "geometry": {"type": "Point", "coordinates": [-71.21263, 42.76506]}},
{"type": "Feature", "id": "Y268Bqhw0GK2ho1ZmecgcWd_AhM=", "properties": {"ref": "0062", "@spider": "bjswholesale", "addr:full": "1801 Woodbury Ave.", "addr:city": "Portsmouth", "addr:state": "NH", "addr:postcode": "03801", "addr:country": "US", "name": "Portsmouth", "phone": "603-427-0400", "website": "https://www.bjs.com/mapDetail;city=0062", "opening_hours": "Mo-Sa 08:00-21:00", "brand": "BJ's Wholesale", "brand:wikidata": "Q4835754"}, "geometry": {"type": "Point", "coordinates": [-70.79136, 43.09033]}},
{"type": "Feature", "id": "LYXHy9VqeJz1hgKrkuJtZCP3zeI=", "properties": {"ref": "0039", "@spider": "bjswholesale", "addr:full": "8 Sexton Ave.", "addr:city": "Nashua", "addr:state": "NH", "addr:postcode": "03060", "addr:country": "US", "name": "Nashua", "phone": "603-888-9900", "website": "https://www.bjs.com/mapDetail;city=0039", "opening_hours": "Mo-Sa 08:00-21:00", "brand": "BJ's Wholesale", "brand:wikidata": "Q4835754"}, "geometry": {"type": "Point", "coordinates": [-71.44974, 42.72804]}},
{"type": "Feature", "id": "vKaMNGJr1xWUL5I-eZkBAzPjizc=", "properties": {"ref": "0220", "@spider": "bjswholesale", "addr:full": "200 John E. Devine Drive", "addr:city": "Manchester", "addr:state": "NH", "addr:postcode": "03103", "addr:country": "US", "name": "Manchester", "phone": "603-413-7356", "website": "https://www.bjs.com/mapDetail;city=0220", "opening_hours": "Mo-Sa 08:00-21:00", "brand": "BJ's Wholesale", "brand:wikidata": "Q4835754"}, "geometry": {"type": "Point", "coordinates": [-71.44245, 42.9601]}},
{"type": "Feature", "id": "p6UXW2a4FAYxJiGt9bFHwjFhqAo=", "properties": {"ref": "0384", "@spider": "bjswholesale", "addr:full": "15523 Racho Road", "addr:city": "Taylor", "addr:state": "MI", "addr:postcode": "48180", "addr:country": "US", "name": "Taylor", "phone": "734-767-0124", "website": "https://www.bjs.com/mapDetail;city=0384", "opening_hours": "Mo-Sa 08:00-21:00", "brand": "BJ's Wholesale", "brand:wikidata": "Q4835754"}, "geometry": {"type": "Point", "coordinates": [-83.24643, 42.19465]}},
{"type": "Feature", "id": "iNziVJNzll9A2T5H8pM_VIl-lLQ=", "properties": {"ref": "0383", "@spider": "bjswholesale", "addr:full": "29101 John R Road", "addr:city": "Madison Heights", "addr:state": "MI", "addr:postcode": "48071", "addr:country": "US", "name": "Madison Heights", "phone": "248-548-3073", "website": "https://www.bjs.com/mapDetail;city=0383", "opening_hours": "Mo-Sa 08:00-21:00", "brand": "BJ's Wholesale", "brand:wikidata": "Q4835754"}, "geometry": {"type": "Point", "coordinates": [-83.10751, 42.50609]}},
{"type": "Feature", "id": "7yVeQzfQoV__E3OPuhiVMXS8Yi4=", "properties": {"ref": "0389", "@spider": "bjswholesale", "addr:full": "825 N. Marketplace Blvd.", "addr:city": "Lansing", "addr:state": "MI", "addr:postcode": "48917", "addr:country": "US", "name": "Lansing", "phone": "517-666-5182", "website": "https://www.bjs.com/mapDetail;city=0389", "opening_hours": "Mo-Su 08:00-21:00", "brand": "BJ's Wholesale", "brand:wikidata": "Q4835754"}, "geometry": {"type": "Point", "coordinates": [-84.65203, 42.72241]}},
{"type": "Feature", "id": "_BSd8H8ev1HJtwQyAvceJh94--E=", "properties": {"ref": "0385", "@spider": "bjswholesale", "addr:full": "45101 Towne Center Blvd", "addr:city": "Chesterfield", "addr:state": "MI", "addr:postcode": "48047", "addr:country": "US", "name": "Chesterfield", "phone": "586-210-8925", "website": "https://www.bjs.com/mapDetail;city=0385", "opening_hours": "Mo-Sa 08:00-21:00", "brand": "BJ's Wholesale", "brand:wikidata": "Q4835754"}, "geometry": {"type": "Point", "coordinates": [-82.84436, 42.63142]}},
{"type": "Feature", "id": "RCIcgzWZPxy7pP2TH71PowMuD8E=", "properties": {"ref": "0225", "@spider": "bjswholesale", "addr:full": "43690 Ford Rd.", "addr:city": "Canton", "addr:state": "MI", "addr:postcode": "48187", "addr:country": "US", "name": "Canton - Michigan", "phone": "734-463-3221", "website": "https://www.bjs.com/mapDetail;city=0225", "opening_hours": "Mo-Su 08:00-21:00", "brand": "BJ's Wholesale", "brand:wikidata": "Q4835754"}, "geometry": {"type": "Point", "coordinates": [-83.4725, 42.32486]}},
{"type": "Feature", "id": "kfgF3Y1JKVZPtS89QUp4WkWM21A=", "properties": {"ref": "0018", "@spider": "bjswholesale", "addr:full": "622 Washington St., Rte. 53", "addr:city": "Weymouth", "addr:state": "MA", "addr:postcode": "02188", "addr:country": "US", "name": "Weymouth", "phone": "781-335-8500", "website": "https://www.bjs.com/mapDetail;city=0018", "opening_hours": "Mo-Sa 08:00-21:00", "brand": "BJ's Wholesale", "brand:wikidata": "Q4835754"}, "geometry": {"type": "Point", "coordinates": [-70.95157, 42.20441]}},
{"type": "Feature", "id": "2julHCW4CDBG_f85VNjIMKHRSBc=", "properties": {"ref": "0205", "@spider": "bjswholesale", "addr:full": "66 Seyon St.", "addr:city": "Waltham", "addr:state": "MA", "addr:postcode": "02453", "addr:country": "US", "name": "Waltham", "phone": "781-472-3501", "website": "https://www.bjs.com/mapDetail;city=0205", "opening_hours": "Mo-Sa 08:00-22:00", "brand": "BJ's Wholesale", "brand:wikidata": "Q4835754"}, "geometry": {"type": "Point", "coordinates": [-71.21608, 42.36883]}},
{"type": "Feature", "id": "vreJI2do5Xc3zIY-i_5DLQeVsps=", "properties": {"ref": "0159", "@spider": "bjswholesale", "addr:full": "2085 Bay St.", "addr:city": "Taunton", "addr:state": "MA", "addr:postcode": "02780", "addr:country": "US", "name": "Taunton", "phone": "508-823-6481", "website": "https://www.bjs.com/mapDetail;city=0159", "opening_hours": "Mo-Sa 08:00-21:00", "brand": "BJ's Wholesale", "brand:wikidata": "Q4835754"}, "geometry": {"type": "Point", "coordinates": [-71.11901, 41.95872]}},
{"type": "Feature", "id": "gvb20yR-AlIIWFtUNxpRLafR4wI=", "properties": {"ref": "0034", "@spider": "bjswholesale", "addr:full": "901 Technology Center Dr.", "addr:city": "Stoughton", "addr:state": "MA", "addr:postcode": "02072", "addr:country": "US", "name": "Stoughton", "phone": "781-341-3300", "website": "https://www.bjs.com/mapDetail;city=0034", "opening_hours": "Mo-Sa 08:00-22:00", "brand": "BJ's Wholesale", "brand:wikidata": "Q4835754"}, "geometry": {"type": "Point", "coordinates": [-71.06591, 42.15093]}},
{"type": "Feature", "id": "eIG4fdns5hgGPQRe8gQeM52ekv0=", "properties": {"ref": "0050", "@spider": "bjswholesale", "addr:full": "85 Cedar St.", "addr:city": "Stoneham", "addr:state": "MA", "addr:postcode": "02180", "addr:country": "US", "name": "Stoneham", "phone": "781-279-1499", "website": "https://www.bjs.com/mapDetail;city=0050", "opening_hours": "Mo-Sa 08:00-22:00", "brand": "BJ's Wholesale", "brand:wikidata": "Q4835754"}, "geometry": {"type": "Point", "coordinates": [-71.12032, 42.49966]}},
{"type": "Feature", "id": "izZBapfok8BETHMh7tlMUENxzTc=", "properties": {"ref": "0055", "@spider": "bjswholesale", "addr:full": "287 Washington St.", "addr:city": "South Attleboro", "addr:state": "MA", "addr:postcode": "02703", "addr:country": "US", "name": "South Attleboro", "phone": "508-761-4400", "website": "https://www.bjs.com/mapDetail;city=0055", "opening_hours": "Mo-Sa 08:00-22:00", "brand": "BJ's Wholesale", "brand:wikidata": "Q4835754"}, "geometry": {"type": "Point", "coordinates": [-71.35845, 41.92055]}},
{"type": "Feature", "id": "e1NjrUFSQuER21p8oyGeRWVgEe8=", "properties": {"ref": "0216", "@spider": "bjswholesale", "addr:full": "175 Highland Ave.", "addr:city": "Seekonk", "addr:state": "MA", "addr:postcode": "02771", "addr:country": "US", "name": "Seekonk", "phone": "508-343-4030", "website": "https://www.bjs.com/mapDetail;city=0216", "opening_hours": "Mo-Sa 08:00-21:00", "brand": "BJ's Wholesale", "brand:wikidata": "Q4835754"}, "geometry": {"type": "Point", "coordinates": [-71.33743, 41.79817]}},
{"type": "Feature", "id": "27fNNggdlm3Vt0jg68x4j5V_cn0=", "properties": {"ref": "0175", "@spider": "bjswholesale", "addr:full": "5 Ward St.", "addr:city": "Revere", "addr:state": "MA", "addr:postcode": "02151", "addr:country": "US", "name": "Revere", "phone": "781-808-0040", "website": "https://www.bjs.com/mapDetail;city=0175", "opening_hours": "Mo-Sa 08:00-22:00", "brand": "BJ's Wholesale", "brand:wikidata": "Q4835754"}, "geometry": {"type": "Point", "coordinates": [-71.00425, 42.42265]}},
{"type": "Feature", "id": "rGoxWyVDGz-sKCsp_3gHoju3G6Q=", "properties": {"ref": "0899", "@spider": "bjswholesale", "addr:full": "30 Liberty St.", "addr:city": "Quincy", "addr:state": "MA", "addr:postcode": "02169", "addr:country": "US", "name": "Quincy Gas Station", "phone": "617-479-0351", "website": "https://www.bjs.com/mapDetail;city=0899", "brand": "BJ's Wholesale", "brand:wikidata": "Q4835754"}, "geometry": {"type": "Point", "coordinates": [-71.00596, 42.23971]}},
{"type": "Feature", "id": "wsuFPVwOmffQzib61wTejqooHrQ=", "properties": {"ref": "0353", "@spider": "bjswholesale", "addr:full": "200 Crown Colony Dr.", "addr:city": "Quincy", "addr:state": "MA", "addr:postcode": "02169", "addr:country": "US", "name": "Quincy", "phone": "857-403-2002", "website": "https://www.bjs.com/mapDetail;city=0353", "opening_hours": "Mo-Sa 08:00-21:00", "brand": "BJ's Wholesale", "brand:wikidata": "Q4835754"}, "geometry": {"type": "Point", "coordinates": [-71.01209, 42.2323]}},
{"type": "Feature", "id": "C8RFN1LW_9maKHGeOfJB5UaaljY=", "properties": {"ref": "0113", "@spider": "bjswholesale", "addr:full": "105 Shops at 5 Way", "addr:city": "Plymouth", "addr:state": "MA", "addr:postcode": "02360", "addr:country": "US", "name": "Plymouth", "phone": "508-591-1009", "website": "https://www.bjs.com/mapDetail;city=0113", "opening_hours": "Mo-Sa 08:00-21:00", "brand": "BJ's Wholesale", "brand:wikidata": "Q4835754"}, "geometry": {"type": "Point", "coordinates": [-70.65356, 41.92877]}},
{"type": "Feature", "id": "1aYEcGIsFN8PBNRqAYWkUgeQWNY=", "properties": {"ref": "0355", "@spider": "bjswholesale", "addr:full": "495 Hubbard Ave.", "addr:city": "Pittsfield", "addr:state": "MA", "addr:postcode": "01201", "addr:country": "US", "name": "Pittsfield", "phone": "413-499-1601", "website": "https://www.bjs.com/mapDetail;city=0355", "opening_hours": "Mo-Sa 08:00-21:00", "brand": "BJ's Wholesale", "brand:wikidata": "Q4835754"}, "geometry": {"type": "Point", "coordinates": [-73.19393, 42.46709]}},
{"type": "Feature", "id": "UeanhPpBlyUAkpWjs2GpyiQNSyE=", "properties": {"ref": "0904", "@spider": "bjswholesale", "addr:full": "1412-1420 Boston Providence Turnpike", "addr:city": "Norwood", "addr:state": "MA", "addr:postcode": "02062", "addr:country": "US", "name": "Norwood Gas Station", "phone": "781-619-1250", "website": "https://www.bjs.com/mapDetail;city=0904", "brand": "BJ's Wholesale", "brand:wikidata": "Q4835754"}, "geometry": {"type": "Point", "coordinates": [-71.19856, 42.16305]}},
{"type": "Feature", "id": "4vGlXz5Ou_E5In9jWxOby8eLTjo=", "properties": {"ref": "0211", "@spider": "bjswholesale", "addr:full": "6102 Shops Way", "addr:city": "Northborough", "addr:state": "MA", "addr:postcode": "01532", "addr:country": "US", "name": "Northborough", "phone": "508-351-6901", "website": "https://www.bjs.com/mapDetail;city=0211", "opening_hours": "Mo-Sa 08:00-22:00", "brand": "BJ's Wholesale", "brand:wikidata": "Q4835754"}, "geometry": {"type": "Point", "coordinates": [-71.67279, 42.29022]}},
{"type": "Feature", "id": "KW4GLtaXYZOkRQ8p3rBHvk8ElBg=", "properties": {"ref": "0023", "@spider": "bjswholesale", "addr:full": "460 State Rd.", "addr:city": "North Dartmouth", "addr:state": "MA", "addr:postcode": "02747", "addr:country": "US", "name": "North Dartmouth", "phone": "508-990-8741", "website": "https://www.bjs.com/mapDetail;city=0023", "opening_hours": "Mo-Sa 08:00-21:00", "brand": "BJ's Wholesale", "brand:wikidata": "Q4835754"}, "geometry": {"type": "Point", "coordinates": [-71.00291, 41.64083]}},
{"type": "Feature", "id": "0elXsb_A65AXU-PyEFedOqnNHXU=", "properties": {"ref": "0001", "@spider": "bjswholesale", "addr:full": "278 Middlesex Ave.", "addr:city": "Medford", "addr:state": "MA", "addr:postcode": "02155", "addr:country": "US", "name": "Medford", "phone": "781-396-0235", "website": "https://www.bjs.com/mapDetail;city=0001", "opening_hours": "Mo-Sa 08:00-22:00", "brand": "BJ's Wholesale", "brand:wikidata": "Q4835754"}, "geometry": {"type": "Point", "coordinates": [-71.07937, 42.41266]}},
{"type": "Feature", "id": "fMppCLy6YPsGnnQowy4yBp0EJ-4=", "properties": {"ref": "0058", "@spider": "bjswholesale", "addr:full": "115 Erdman Way", "addr:city": "Leominster", "addr:state": "MA", "addr:postcode": "01453", "addr:country": "US", "name": "Leominster", "phone": "978-840-0900", "website": "https://www.bjs.com/mapDetail;city=0058", "opening_hours": "Mo-Sa 08:00-21:00", "brand": "BJ's Wholesale", "brand:wikidata": "Q4835754"}, "geometry": {"type": "Point", "coordinates": [-71.75595, 42.54726]}},
{"type": "Feature", "id": "0yJlVjmMtGziKz5udy1IV5QkCkM=", "properties": {"ref": "0902", "@spider": "bjswholesale", "addr:full": "590 Iyannough Road (Route 132)", "addr:city": "Hyannis", "addr:state": "MA", "addr:postcode": "02601", "addr:country": "US", "name": "Hyannis Gas Station", "phone": "508-568-4035 x149", "website": "https://www.bjs.com/mapDetail;city=0902", "brand": "BJ's Wholesale", "brand:wikidata": "Q4835754"}, "geometry": {"type": "Point", "coordinates": [-70.28962, 41.66625]}},
{"type": "Feature", "id": "qhGb9gbtMaWkzLJ09VHDk5sFeb4=", "properties": {"ref": "0321", "@spider": "bjswholesale", "addr:full": "420 Attucks Ln.", "addr:city": "Hyannis", "addr:state": "MA", "addr:postcode": "02601", "addr:country": "US", "name": "Hyannis", "phone": "508-568-4035", "website": "https://www.bjs.com/mapDetail;city=0321", "opening_hours": "Mo-Sa 08:00-21:00", "brand": "BJ's Wholesale", "brand:wikidata": "Q4835754"}, "geometry": {"type": "Point", "coordinates": [-70.30646, 41.67712]}},
{"type": "Feature", "id": "xBdQdgx_fSnBCy8hVzKHRaRjITk=", "properties": {"ref": "0209", "@spider": "bjswholesale", "addr:full": "1 Highland Commons West", "addr:city": "Hudson", "addr:state": "MA", "addr:postcode": "01749", "addr:country": "US", "name": "Hudson", "phone": "978-562-6090", "website": "https://www.bjs.com/mapDetail;city=0209", "opening_hours": "Mo-Sa 08:00-22:00", "brand": "BJ's Wholesale", "brand:wikidata": "Q4835754"}, "geometry": {"type": "Point", "coordinates": [-71.60093, 42.39627]}},
{"type": "Feature", "id": "OyIb5SMu_NFZXKlI2lwsbzJEEyw=", "properties": {"ref": "0189", "@spider": "bjswholesale", "addr:full": "25 Shelley Rd.", "addr:city": "Haverhill", "addr:state": "MA", "addr:postcode": "01835", "addr:country": "US", "name": "Haverhill", "phone": "978-241-1050", "website": "https://www.bjs.com/mapDetail;city=0189", "opening_hours": "Mo-Sa 08:00-21:00", "brand": "BJ's Wholesale", "brand:wikidata": "Q4835754"}, "geometry": {"type": "Point", "coordinates": [-71.11847, 42.75717]}},
{"type": "Feature", "id": "DQVT0qe_h2cIhtS9wBCAp15_78M=", "properties": {"ref": "0307", "@spider": "bjswholesale", "addr:full": "42 Colrain Rd.", "addr:city": "Greenfield", "addr:state": "MA", "addr:postcode": "01301", "addr:country": "US", "name": "Greenfield", "phone": "413-774-3000", "website": "https://www.bjs.com/mapDetail;city=0307", "opening_hours": "Mo-Sa 08:00-21:00", "brand": "BJ's Wholesale", "brand:wikidata": "Q4835754"}, "geometry": {"type": "Point", "coordinates": [-72.62243, 42.58835]}},
{"type": "Feature", "id": "lvOtxIbnx4hkSBMxlJ5m_izCQM0=", "properties": {"ref": "0105", "@spider": "bjswholesale", "addr:full": "100 Corporate Dr.", "addr:city": "Franklin", "addr:state": "MA", "addr:postcode": "02038", "addr:country": "US", "name": "Franklin", "phone": "508-553-9889", "website": "https://www.bjs.com/mapDetail;city=0105", "opening_hours": "Mo-Sa 08:00-22:00", "brand": "BJ's Wholesale", "brand:wikidata": "Q4835754"}, "geometry": {"type": "Point", "coordinates": [-71.43403, 42.09177]}},
{"type": "Feature", "id": "BFneSEu9Ke-aNk4T3vmsD0Z6qJA=", "properties": {"ref": "0047", "@spider": "bjswholesale", "addr:full": "26 Whittier St.", "addr:city": "Framingham", "addr:state": "MA", "addr:postcode": "01701", "addr:country": "US", "name": "Framingham", "phone": "508-872-2100", "website": "https://www.bjs.com/mapDetail;city=0047", "opening_hours": "Mo-Sa 08:00-22:00", "brand": "BJ's Wholesale", "brand:wikidata": "Q4835754"}, "geometry": {"type": "Point", "coordinates": [-71.39899, 42.30708]}},
{"type": "Feature", "id": "CKgP-pFQTp12zPCpD7FELhb-oX8=", "properties": {"ref": "0101", "@spider": "bjswholesale", "addr:full": "688 Providence Hwy.", "addr:city": "Dedham", "addr:state": "MA", "addr:postcode": "02026", "addr:country": "US", "name": "Dedham", "phone": "781-326-2697", "website": "https://www.bjs.com/mapDetail;city=0101", "opening_hours": "Mo-Sa 08:00-22:00", "brand": "BJ's Wholesale", "brand:wikidata": "Q4835754"}, "geometry": {"type": "Point", "coordinates": [-71.17642, 42.24083]}},
{"type": "Feature", "id": "JOl__XSOnb8ORJitKueQuMA2o34=", "properties": {"ref": "0030", "@spider": "bjswholesale", "addr:full": "6 Hutchinson Dr.", "addr:city": "Danvers", "addr:state": "MA", "addr:postcode": "01923", "addr:country": "US", "name": "Danvers", "phone": "978-774-7300", "website": "https://www.bjs.com/mapDetail;city=0030", "opening_hours": "Mo-Sa 08:00-22:00", "brand": "BJ's Wholesale", "brand:wikidata": "Q4835754"}, "geometry": {"type": "Point", "coordinates": [-70.92918, 42.55015]}},
{"type": "Feature", "id": "-AJgAj_Yo-I3Ypd64gqR4LGoRX8=", "properties": {"ref": "0020", "@spider": "bjswholesale", "addr:full": "650 Memorial Dr.", "addr:city": "Chicopee", "addr:state": "MA", "addr:postcode": "01020", "addr:country": "US", "name": "Chicopee", "phone": "413-593-6474", "website": "https://www.bjs.com/mapDetail;city=0020", "opening_hours": "Mo-Sa 08:00-21:00", "brand": "BJ's Wholesale", "brand:wikidata": "Q4835754"}, "geometry": {"type": "Point", "coordinates": [-72.57666, 42.17617]}},
{"type": "Feature", "id": "a_RA6wV66ioDl1_sNH-5Zjx3Spo=", "properties": {"ref": "0901", "@spider": "bjswholesale", "addr:full": "782 Washington St.", "addr:city": "Auburn", "addr:state": "MA", "addr:postcode": "01501", "addr:country": "US", "name": "Auburn Gas Station", "phone": "508-832-6500 x149", "website": "https://www.bjs.com/mapDetail;city=0901", "brand": "BJ's Wholesale", "brand:wikidata": "Q4835754"}, "geometry": {"type": "Point", "coordinates": [-71.85436, 42.18273]}},
{"type": "Feature", "id": "0TSbA36kYRKr_LJ2FO94QJDzi4Y=", "properties": {"ref": "0038", "@spider": "bjswholesale", "addr:full": "777 Washington St.", "addr:city": "Auburn", "addr:state": "MA", "addr:postcode": "01501", "addr:country": "US", "name": "Auburn", "phone": "508-832-6500", "website": "https://www.bjs.com/mapDetail;city=0038", "opening_hours": "Mo-Sa 08:00-22:00", "brand": "BJ's Wholesale", "brand:wikidata": "Q4835754"}, "geometry": {"type": "Point", "coordinates": [-71.85254, 42.1829]}},
{"type": "Feature", "id": "sYlQGIZzHDCHyXiHHKEAG7EBSTk=", "properties": {"ref": "0905", "@spider": "bjswholesale", "addr:full": "463 Washington St.", "addr:city": "Attleboro", "addr:state": "MA", "addr:postcode": "02703", "addr:country": "US", "name": "Attleboro Gas Station", "phone": "508-761-4400", "website": "https://www.bjs.com/mapDetail;city=0905", "brand": "BJ's Wholesale", "brand:wikidata": "Q4835754"}, "geometry": {"type": "Point", "coordinates": [-71.36034, 41.91656]}},
{"type": "Feature", "id": "OILw0P1kfzcDbIPiB0anwIwPxU4=", "properties": {"ref": "0131", "@spider": "bjswholesale", "addr:full": "820 Market St.", "addr:city": "Westminster", "addr:state": "MD", "addr:postcode": "21157", "addr:country": "US", "name": "Westminster", "phone": "410-857-4569", "website": "https://www.bjs.com/mapDetail;city=0131", "opening_hours": "Mo-Sa 08:00-21:00", "brand": "BJ's Wholesale", "brand:wikidata": "Q4835754"}, "geometry": {"type": "Point", "coordinates": [-76.96636, 39.5645]}},
{"type": "Feature", "id": "ePuAhJw4je0t9iY5IMchgPdVMbQ=", "properties": {"ref": "0072", "@spider": "bjswholesale", "addr:full": "1000 St. Nicholas Dr.", "addr:city": "Waldorf", "addr:state": "MD", "addr:postcode": "20603", "addr:country": "US", "name": "Waldorf", "phone": "301-705-5100", "website": "https://www.bjs.com/mapDetail;city=0072", "opening_hours": "Mo-Sa 08:00-22:00", "brand": "BJ's Wholesale", "brand:wikidata": "Q4835754"}, "geometry": {"type": "Point", "coordinates": [-76.93186, 38.6139]}},
{"type": "Feature", "id": "kmhcI_pOcDNV47W5Q6zC3tmzEfE=", "properties": {"ref": "0059", "@spider": "bjswholesale", "addr:full": "8139 Ritchie Highway", "addr:city": "Pasadena", "addr:state": "MD", "addr:postcode": "21122", "addr:country": "US", "name": "Pasadena", "phone": "410-647-6600", "website": "https://www.bjs.com/mapDetail;city=0059", "opening_hours": "Mo-Sa 08:00-21:00", "brand": "BJ's Wholesale", "brand:wikidata": "Q4835754"}, "geometry": {"type": "Point", "coordinates": [-76.58702, 39.12351]}},
{"type": "Feature", "id": "rQb1fgow98KNINx_kAYL1zJtCWE=", "properties": {"ref": "0061", "@spider": "bjswholesale", "addr:full": "55 Music Fair Rd.", "addr:city": "Owings Mills", "addr:state": "MD", "addr:postcode": "21117", "addr:country": "US", "name": "Owings Mills", "phone": "410-363-0005", "website": "https://www.bjs.com/mapDetail;city=0061", "opening_hours": "Mo-Sa 08:00-21:00", "brand": "BJ's Wholesale", "brand:wikidata": "Q4835754"}, "geometry": {"type": "Point", "coordinates": [-76.77482, 39.41036]}},
{"type": "Feature", "id": "oGu7l7XD4Tb_8x_-jCtjRPuoInY=", "properties": {"ref": "0317", "@spider": "bjswholesale", "addr:full": "44950 Worth Ln.", "addr:city": "California", "addr:state": "MD", "addr:postcode": "20619", "addr:country": "US", "name": "Lexington Park", "phone": "301-862-0100", "website": "https://www.bjs.com/mapDetail;city=0317", "opening_hours": "Mo-Sa 08:00-21:00", "brand": "BJ's Wholesale", "brand:wikidata": "Q4835754"}, "geometry": {"type": "Point", "coordinates": [-76.51167, 38.29795]}},
{"type": "Feature", "id": "oo6j0C7YZ2VNZG3AdFCab3UW0ec=", "properties": {"ref": "0322", "@spider": "bjswholesale", "addr:full": "28410 Marlboro Ave.", "addr:city": "Easton", "addr:state": "MD", "addr:postcode": "21601", "addr:country": "US", "name": "Easton", "phone": "410-770-4886", "website": "https://www.bjs.com/mapDetail;city=0322", "opening_hours": "Mo-Sa 08:00-21:00", "brand": "BJ's Wholesale", "brand:wikidata": "Q4835754"}, "geometry": {"type": "Point", "coordinates": [-76.08868, 38.78293]}},
{"type": "Feature", "id": "v8Hv2-Ale44vPeR2oXjtgnjpfwA=", "properties": {"ref": "0903", "@spider": "bjswholesale", "addr:full": "6345 Dobbin Road", "addr:city": "Columbia", "addr:state": "MD", "addr:postcode": "21045", "addr:country": "US", "name": "Columbia Gas Station", "phone": "410-730-0584", "website": "https://www.bjs.com/mapDetail;city=0903", "brand": "BJ's Wholesale", "brand:wikidata": "Q4835754"}, "geometry": {"type": "Point", "coordinates": [-76.8203, 39.1966]}},
{"type": "Feature", "id": "8US9ywUn2Drt4d0eJd6Bxbo_ORU=", "properties": {"ref": "0060", "@spider": "bjswholesale", "addr:full": "9011 Snowden River Pkwy.", "addr:city": "Columbia", "addr:state": "MD", "addr:postcode": "21046", "addr:country": "US", "name": "Columbia", "phone": "410-312-2700", "website": "https://www.bjs.com/mapDetail;city=0060", "opening_hours": "Mo-Sa 08:00-22:00", "brand": "BJ's Wholesale", "brand:wikidata": "Q4835754"}, "geometry": {"type": "Point", "coordinates": [-76.8179, 39.18523]}},
{"type": "Feature", "id": "YFuaWOVBtBb8YYgVHWb6X6Vfmu4=", "properties": {"ref": "0207", "@spider": "bjswholesale", "addr:full": "1781 Ritchie Station Ct.", "addr:city": "Capitol Heights", "addr:state": "MD", "addr:postcode": "20743", "addr:country": "US", "name": "Capitol Heights", "phone": "301-278-4050", "website": "https://www.bjs.com/mapDetail;city=0207", "opening_hours": "Mo-Sa 08:00-22:00", "brand": "BJ's Wholesale", "brand:wikidata": "Q4835754"}, "geometry": {"type": "Point", "coordinates": [-76.85085, 38.86643]}},
{"type": "Feature", "id": "edgMGEPXO1EJP-B_idO1K_FaDp8=", "properties": {"ref": "0377", "@spider": "bjswholesale", "addr:full": "4701 O'Donnell St.", "addr:city": "Baltimore", "addr:state": "MD", "addr:postcode": "21224", "addr:country": "US", "name": "Canton - Baltimore", "phone": "410-342-0219", "website": "https://www.bjs.com/mapDetail;city=0377", "opening_hours": "Mo-Sa 08:00-22:00", "brand": "BJ's Wholesale", "brand:wikidata": "Q4835754"}, "geometry": {"type": "Point", "coordinates": [-76.55636, 39.28084]}},
{"type": "Feature", "id": "T3RjpLKpQZlSu57T72lrf8q3VOk=", "properties": {"ref": "0132", "@spider": "bjswholesale", "addr:full": "16520 Ball Park Rd.", "addr:city": "Bowie", "addr:state": "MD", "addr:postcode": "20716", "addr:country": "US", "name": "Bowie", "phone": "301-262-0627", "website": "https://www.bjs.com/mapDetail;city=0132", "opening_hours": "Mo-Sa 08:00-22:00", "brand": "BJ's Wholesale", "brand:wikidata": "Q4835754"}, "geometry": {"type": "Point", "coordinates": [-76.71171, 38.94349]}},
{"type": "Feature", "id": "ocBS_wEZLl8n3F9D3Agy0ZmJlV4=", "properties": {"ref": "0071", "@spider": "bjswholesale", "addr:full": "413 Constant Friendship Blvd.", "addr:city": "Abingdon", "addr:state": "MD", "addr:postcode": "21009", "addr:country": "US", "name": "Bel Air", "phone": "410-569-0800", "website": "https://www.bjs.com/mapDetail;city=0071", "opening_hours": "Mo-Sa 08:00-22:00", "brand": "BJ's Wholesale", "brand:wikidata": "Q4835754"}, "geometry": {"type": "Point", "coordinates": [-76.31753, 39.46098]}},
{"type": "Feature", "id": "gk1mD5g03UJvmodwJs7dZzllqTU=", "properties": {"ref": "0040", "@spider": "bjswholesale", "addr:full": "4201 Wholesale Club Dr.", "addr:city": "Baltimore", "addr:state": "MD", "addr:postcode": "21236", "addr:country": "US", "name": "Baltimore", "phone": "410-882-1100", "website": "https://www.bjs.com/mapDetail;city=0040", "opening_hours": "Mo-Sa 08:00-22:00", "brand": "BJ's Wholesale", "brand:wikidata": "Q4835754"}, "geometry": {"type": "Point", "coordinates": [-76.50091, 39.37965]}},
{"type": "Feature", "id": "NVb-hhyEeFo5bx-85GRgE5E-edI=", "properties": {"ref": "0029", "@spider": "bjswholesale", "addr:full": "513 Warren Ave.", "addr:city": "Portland", "addr:state": "ME", "addr:postcode": "04103", "addr:country": "US", "name": "Portland", "phone": "207-797-8400", "website": "https://www.bjs.com/mapDetail;city=0029", "opening_hours": "Mo-Sa 08:00-21:00", "brand": "BJ's Wholesale", "brand:wikidata": "Q4835754"}, "geometry": {"type": "Point", "coordinates": [-70.32057, 43.68692]}},
{"type": "Feature", "id": "k4k9lacHUcNzlVg5izhRoGP6vwc=", "properties": {"ref": "0374", "@spider": "bjswholesale", "addr:full": "110 Longview Dr.", "addr:city": "Bangor", "addr:state": "ME", "addr:postcode": "04401", "addr:country": "US", "name": "Bangor", "phone": "207-262-1049", "website": "https://www.bjs.com/mapDetail;city=0374", "opening_hours": "Mo-Sa 08:00-21:00", "brand": "BJ's Wholesale", "brand:wikidata": "Q4835754"}, "geometry": {"type": "Point", "coordinates": [-68.74096, 44.84361]}},
{"type": "Feature", "id": "XpFx3TZ4TaHxCT6FB3wCmF9hhfI=", "properties": {"ref": "0310", "@spider": "bjswholesale", "addr:full": "110 Mt. Auburn Ave.", "addr:city": "Auburn", "addr:state": "ME", "addr:postcode": "04210", "addr:country": "US", "name": "Auburn", "phone": "207-753-1300", "website": "https://www.bjs.com/mapDetail;city=0310", "opening_hours": "Mo-Sa 08:00-21:00", "brand": "BJ's Wholesale", "brand:wikidata": "Q4835754"}, "geometry": {"type": "Point", "coordinates": [-70.23416, 44.12]}},
{"type": "Feature", "id": "OUHCAIY_9wdOBPMQ4XqUjTYWSvs=", "properties": {"ref": "0224", "@spider": "bjswholesale", "addr:full": "13210 Tegler Drive", "addr:city": "Noblesville", "addr:state": "IN", "addr:postcode": "46060", "addr:country": "US", "name": "Noblesville", "phone": "463-243-1252", "website": "https://www.bjs.com/mapDetail;city=0224", "opening_hours": "Mo-Su 08:00-21:00", "brand": "BJ's Wholesale", "brand:wikidata": "Q4835754"}, "geometry": {"type": "Point", "coordinates": [-86.02081, 40.04809]}},
{"type": "Feature", "id": "44Y3kyfXyD9DuthKMIb4ISbLwOk=", "properties": {"ref": "0146", "@spider": "bjswholesale", "addr:full": "105 Long Dr.", "addr:city": "Woodstock", "addr:state": "GA", "addr:postcode": "30189", "addr:country": "US", "name": "Woodstock", "phone": "770-591-4634", "website": "https://www.bjs.com/mapDetail;city=0146", "opening_hours": "Mo-Sa 08:00-21:00", "brand": "BJ's Wholesale", "brand:wikidata": "Q4835754"}, "geometry": {"type": "Point", "coordinates": [-84.54145, 34.08135]}},
{"type": "Feature", "id": "L53-MypNvD7jiUeoyMIu1G1U-Hg=", "properties": {"ref": "0147", "@spider": "bjswholesale", "addr:full": "331 Newnan Crossing Bypass", "addr:city": "Newnan", "addr:state": "GA", "addr:postcode": "30265", "addr:country": "US", "name": "Newnan", "phone": "678-423-1713", "website": "https://www.bjs.com/mapDetail;city=0147", "opening_hours": "Mo-Sa 08:00-21:00", "brand": "BJ's Wholesale", "brand:wikidata": "Q4835754"}, "geometry": {"type": "Point", "coordinates": [-84.76233, 33.38874]}},
{"type": "Feature", "id": "BbWo3aGmKMRO8WlTk5mPaFAtMek=", "properties": {"ref": "0235", "@spider": "bjswholesale", "addr:full": "245 Hwy 81 West", "addr:city": "McDonough", "addr:state": "GA", "addr:postcode": "30253", "addr:country": "US", "name": "McDonough", "website": "https://www.bjs.com/mapDetail;city=0235", "brand": "BJ's Wholesale", "brand:wikidata": "Q4835754"}, "geometry": {"type": "Point", "coordinates": [-84.1399, 33.4475]}},
{"type": "Feature", "id": "y01-T6q_oqFohZmTdweYb4L8Xlo=", "properties": {"ref": "0152", "@spider": "bjswholesale", "addr:full": "3585 N. Commerce Dr.", "addr:city": "East Point", "addr:state": "GA", "addr:postcode": "30344", "addr:country": "US", "name": "East Point", "phone": "404-346-1557", "website": "https://www.bjs.com/mapDetail;city=0152", "opening_hours": "Mo-Sa 08:00-21:00", "brand": "BJ's Wholesale", "brand:wikidata": "Q4835754"}, "geometry": {"type": "Point", "coordinates": [-84.5042, 33.65574]}},
{"type": "Feature", "id": "6bZDAzrGL2CixWSXlZZeTzc4VGQ=", "properties": {"ref": "0144", "@spider": "bjswholesale", "addr:full": "1725 Marketplace Blvd.", "addr:city": "Cumming", "addr:state": "GA", "addr:postcode": "30041", "addr:country": "US", "name": "Cumming", "phone": "770-781-8735", "website": "https://www.bjs.com/mapDetail;city=0144", "opening_hours": "Mo-Sa 08:00-21:00", "brand": "BJ's Wholesale", "brand:wikidata": "Q4835754"}, "geometry": {"type": "Point", "coordinates": [-84.13293, 34.18759]}},
{"type": "Feature", "id": "K5ctq43yTfv2T9kRMpWE-_JfXvs=", "properties": {"ref": "0150", "@spider": "bjswholesale", "addr:full": "1800 Dogwood Dr. SE", "addr:city": "Conyers", "addr:state": "GA", "addr:postcode": "30013", "addr:country": "US", "name": "Conyers", "phone": "770-761-2358", "website": "https://www.bjs.com/mapDetail;city=0150", "opening_hours": "Mo-Sa 08:00-21:00", "brand": "BJ's Wholesale", "brand:wikidata": "Q4835754"}, "geometry": {"type": "Point", "coordinates": [-83.98371, 33.6401]}},
{"type": "Feature", "id": "b4tFgyDowVlB7_LdBrsMzB2KGng=", "properties": {"ref": "0179", "@spider": "bjswholesale", "addr:full": "16200 SW 88th St.", "addr:city": "Miami", "addr:state": "FL", "addr:postcode": "33196", "addr:country": "US", "name": "West Kendall", "phone": "305-420-1100", "website": "https://www.bjs.com/mapDetail;city=0179", "opening_hours": "Mo-Sa 08:00-22:00", "brand": "BJ's Wholesale", "brand:wikidata": "Q4835754"}, "geometry": {"type": "Point", "coordinates": [-80.45766, 25.6838]}},
{"type": "Feature", "id": "WIUVTsBoOyf3hh8zrQTwYz-zDJQ=", "properties": {"ref": "0188", "@spider": "bjswholesale", "addr:full": "7651 W. Waters Ave.", "addr:city": "Tampa", "addr:state": "FL", "addr:postcode": "33615", "addr:country": "US", "name": "Tampa - Waters Ave.", "phone": "813-313-5370", "website": "https://www.bjs.com/mapDetail;city=0188", "opening_hours": "Mo-Sa 08:00-21:00", "brand": "BJ's Wholesale", "brand:wikidata": "Q4835754"}, "geometry": {"type": "Point", "coordinates": [-82.56516, 28.02609]}},
{"type": "Feature", "id": "Uhcqt8aHNDQ4I2n1hc_fHWMQs20=", "properties": {"ref": "0183", "@spider": "bjswholesale", "addr:full": "6290 Commerce Palms Blvd.", "addr:city": "Tampa", "addr:state": "FL", "addr:postcode": "33647", "addr:country": "US", "name": "Tampa", "phone": "813-313-1404", "website": "https://www.bjs.com/mapDetail;city=0183", "opening_hours": "Mo-Sa 08:00-21:00", "brand": "BJ's Wholesale", "brand:wikidata": "Q4835754"}, "geometry": {"type": "Point", "coordinates": [-82.37809, 28.11461]}},
{"type": "Feature", "id": "MKilry985Q0qdJjxMPRgDEuUwSY=", "properties": {"ref": "0128", "@spider": "bjswholesale", "addr:full": "8085 Cooper Creek Blvd.", "addr:city": "University Park", "addr:state": "FL", "addr:postcode": "34201", "addr:country": "US", "name": "Sarasota", "phone": "941-360-1363", "website": "https://www.bjs.com/mapDetail;city=0128", "opening_hours": "Mo-Sa 08:00-21:00", "brand": "BJ's Wholesale", "brand:wikidata": "Q4835754"}, "geometry": {"type": "Point", "coordinates": [-82.45238, 27.39641]}},
{"type": "Feature", "id": "2HxcalLB150hfsOULvHBWMW9VAY=", "properties": {"ref": "0133", "@spider": "bjswholesale", "addr:full": "W State Rd. 46 and Upsala Rd.", "addr:city": "Sanford", "addr:state": "FL", "addr:postcode": "32771", "addr:country": "US", "name": "Sanford", "phone": "407-302-8000", "website": "https://www.bjs.com/mapDetail;city=0133", "opening_hours": "Mo-Sa 08:00-21:00", "brand": "BJ's Wholesale", "brand:wikidata": "Q4835754"}, "geometry": {"type": "Point", "coordinates": [-81.32617, 28.81188]}},
{"type": "Feature", "id": "rQILTfQQZhqb6X_bE2lO7HJ13L0=", "properties": {"ref": "0032", "@spider": "bjswholesale", "addr:full": "500 N State Road 7", "addr:city": "Royal Palm Beach", "addr:state": "FL", "addr:postcode": "33411", "addr:country": "US", "name": "Royal Palm Beach", "phone": "561-333-5055", "website": "https://www.bjs.com/mapDetail;city=0032", "opening_hours": "Mo-Sa 08:00-21:00", "brand": "BJ's Wholesale", "brand:wikidata": "Q4835754"}, "geometry": {"type": "Point", "coordinates": [-80.20205, 26.68649]}},
{"type": "Feature", "id": "L85XZfiK81kftjOKEswbaSHUhzs=", "properties": {"ref": "0108", "@spider": "bjswholesale", "addr:full": "12200 Atlantic Blvd.", "addr:city": "Jacksonville", "addr:state": "FL", "addr:postcode": "32225", "addr:country": "US", "name": "Jacksonville - Atlantic Blvd ", "phone": "904-221-2444", "website": "https://www.bjs.com/mapDetail;city=0108", "opening_hours": "Mo-Sa 08:00-21:00", "brand": "BJ's Wholesale", "brand:wikidata": "Q4835754"}, "geometry": {"type": "Point", "coordinates": [-81.48853, 30.31899]}},
{"type": "Feature", "id": "O2EtS5jw6k9m6QhCggTXRfQ73Ac=", "properties": {"ref": "0170", "@spider": "bjswholesale", "addr:full": "650 SE 8th St.", "addr:city": "Homestead", "addr:state": "FL", "addr:postcode": "33034", "addr:country": "US", "name": "Homestead", "phone": "305-508-3000", "website": "https://www.bjs.com/mapDetail;city=0170", "opening_hours": "Mo-Sa 08:00-22:00", "brand": "BJ's Wholesale", "brand:wikidata": "Q4835754"}, "geometry": {"type": "Point", "coordinates": [-80.47628, 25.46234]}},
{"type": "Feature", "id": "uGomW8wT40Hyp37bRqTXIwRF_HA=", "properties": {"ref": "0109", "@spider": "bjswholesale", "addr:full": "4000 Oakwood Blvd.", "addr:city": "Hollywood", "addr:state": "FL", "addr:postcode": "33020", "addr:country": "US", "name": "Hollywood", "phone": "954-927-8700", "website": "https://www.bjs.com/mapDetail;city=0109", "opening_hours": "Mo-Sa 08:00-22:00", "brand": "BJ's Wholesale", "brand:wikidata": "Q4835754"}, "geometry": {"type": "Point", "coordinates": [-80.16009, 26.0448]}},
{"type": "Feature", "id": "6SAGbAHg7g9TWaq9c1gsnBR_AZY=", "properties": {"ref": "0111", "@spider": "bjswholesale", "addr:full": "8005 NW 95th St.", "addr:city": "Hialeah", "addr:state": "FL", "addr:postcode": "33016", "addr:country": "US", "name": "Hialeah", "phone": "305-825-0770", "website": "https://www.bjs.com/mapDetail;city=0111", "opening_hours": "Mo-Sa 08:00-22:00", "brand": "BJ's Wholesale", "brand:wikidata": "Q4835754"}, "geometry": {"type": "Point", "coordinates": [-80.32751, 25.85991]}},
{"type": "Feature", "id": "2qJtRLJ_6JiAhGtTaAkMC_55tv4=", "properties": {"ref": "0191", "@spider": "bjswholesale", "addr:full": "9372 6 Mile Cypress Parkway", "addr:city": "Fort Myers", "addr:state": "FL", "addr:postcode": "33912", "addr:country": "US", "name": "Fort Myers", "phone": "239-896-1071", "website": "https://www.bjs.com/mapDetail;city=0191", "opening_hours": "Mo-Sa 08:00-21:00", "brand": "BJ's Wholesale", "brand:wikidata": "Q4835754"}, "geometry": {"type": "Point", "coordinates": [-81.81145, 26.60792]}},
{"type": "Feature", "id": "UkQbHvmOWiUPWhAALHCcHxios8s=", "properties": {"ref": "0181", "@spider": "bjswholesale", "addr:full": "5100 NW. 9th Ave.", "addr:city": "Fort Lauderdale", "addr:state": "FL", "addr:postcode": "33309", "addr:country": "US", "name": "Fort Lauderdale", "phone": "954-626-1200", "website": "https://www.bjs.com/mapDetail;city=0181", "opening_hours": "Mo-Sa 08:00-22:00", "brand": "BJ's Wholesale", "brand:wikidata": "Q4835754"}, "geometry": {"type": "Point", "coordinates": [-80.15505, 26.1896]}},
{"type": "Feature", "id": "LVilFM7PGvqGPrAeKDJFVJ6Hx_Q=", "properties": {"ref": "0226", "@spider": "bjswholesale", "addr:full": "6360 Grandview Parkway", "addr:city": "Davenport", "addr:state": "FL", "addr:postcode": "33837", "addr:country": "US", "name": "Davenport", "website": "https://www.bjs.com/mapDetail;city=0226", "brand": "BJ's Wholesale", "brand:wikidata": "Q4835754"}, "geometry": {"type": "Point", "coordinates": [-81.6393, 28.23723]}},
{"type": "Feature", "id": "Jx44iFPTjEFIPBZVQ2IqWg6e_Rs=", "properties": {"ref": "0091", "@spider": "bjswholesale", "addr:full": "10425 Marlin Rd.", "addr:city": "Cutler Ridge", "addr:state": "FL", "addr:postcode": "33157", "addr:country": "US", "name": "Cutler Ridge", "phone": "305-259-4900", "website": "https://www.bjs.com/mapDetail;city=0091", "opening_hours": "Mo-Sa 08:00-22:00", "brand": "BJ's Wholesale", "brand:wikidata": "Q4835754"}, "geometry": {"type": "Point", "coordinates": [-80.35973, 25.58939]}},
{"type": "Feature", "id": "W2g8AEdB7Nv8MK1IwZb5C0ybFC0=", "properties": {"ref": "0367", "@spider": "bjswholesale", "addr:full": "7050 Coral Way", "addr:city": "Miami", "addr:state": "FL", "addr:postcode": "33155", "addr:country": "US", "name": "Coral Way", "phone": "305-262-0243", "website": "https://www.bjs.com/mapDetail;city=0367", "opening_hours": "Mo-Sa 08:00-22:00", "brand": "BJ's Wholesale", "brand:wikidata": "Q4835754"}, "geometry": {"type": "Point", "coordinates": [-80.30852, 25.74799]}},
{"type": "Feature", "id": "jTzB3_mCg-3OdpAvAuSyXmMdUnw=", "properties": {"ref": "0365", "@spider": "bjswholesale", "addr:full": "620 Riverside Dr.", "addr:city": "Coral Springs", "addr:state": "FL", "addr:postcode": "33071", "addr:country": "US", "name": "Coral Springs", "phone": "954-227-1289", "website": "https://www.bjs.com/mapDetail;city=0365", "opening_hours": "Mo-Sa 08:00-22:00", "brand": "BJ's Wholesale", "brand:wikidata": "Q4835754"}, "geometry": {"type": "Point", "coordinates": [-80.24457, 26.24039]}},
{"type": "Feature", "id": "gMm7Hi--vqZLf0Jyt0hqpk9UMuY=", "properties": {"ref": "0199", "@spider": "bjswholesale", "addr:full": "2577 S. Hwy. 27", "addr:city": "Clermont", "addr:state": "FL", "addr:postcode": "34711", "addr:country": "US", "name": "Clermont", "phone": "352-241-0556", "website": "https://www.bjs.com/mapDetail;city=0199", "opening_hours": "Mo-Sa 08:00-21:00", "brand": "BJ's Wholesale", "brand:wikidata": "Q4835754"}, "geometry": {"type": "Point", "coordinates": [-81.73667, 28.53602]}},
{"type": "Feature", "id": "ZasnFGdFQLTjWO2pvueCwCrC2TM=", "properties": {"ref": "0221", "@spider": "bjswholesale", "addr:full": "26996 US Highway 19 N Clearwater", "addr:city": "Clearwater", "addr:state": "FL", "addr:postcode": "33761", "addr:country": "US", "name": "Clearwater", "phone": "727-286-4625", "website": "https://www.bjs.com/mapDetail;city=0221", "opening_hours": "Mo-Sa 08:00-21:00", "brand": "BJ's Wholesale", "brand:wikidata": "Q4835754"}, "geometry": {"type": "Point", "coordinates": [-82.73878, 28.01906]}},
{"type": "Feature", "id": "hceQPmaSsqGTiW-Z6JbRibbWSDo=", "properties": {"ref": "0169", "@spider": "bjswholesale", "addr:full": "1929 NE Pine Island Rd.", "addr:city": "Cape Coral", "addr:state": "FL", "addr:postcode": "33909", "addr:country": "US", "name": "Cape Coral", "phone": "239-829-3300", "website": "https://www.bjs.com/mapDetail;city=0169", "opening_hours": "Mo-Sa 08:00-21:00", "brand": "BJ's Wholesale", "brand:wikidata": "Q4835754"}, "geometry": {"type": "Point", "coordinates": [-81.93379, 26.67152]}},
{"type": "Feature", "id": "k_o55LXczsUZP0mAgNbJYp-WOfo=", "properties": {"ref": "0129", "@spider": "bjswholesale", "addr:full": "1540 W Boynton Beach Blvd.", "addr:city": "Boynton Beach", "addr:state": "FL", "addr:postcode": "33436", "addr:country": "US", "name": "Boynton Beach", "phone": "561-369-3409", "website": "https://www.bjs.com/mapDetail;city=0129", "opening_hours": "Mo-Sa 08:00-21:00", "brand": "BJ's Wholesale", "brand:wikidata": "Q4835754"}, "geometry": {"type": "Point", "coordinates": [-80.09385, 26.52737]}},
{"type": "Feature", "id": "rnDtY4RSgCANaLG6KfPsrMf42nQ=", "properties": {"ref": "0178", "@spider": "bjswholesale", "addr:full": "100 Pencader Plaza", "addr:city": "Newark", "addr:state": "DE", "addr:postcode": "19713", "addr:country": "US", "name": "Newark", "phone": "302-252-4300", "website": "https://www.bjs.com/mapDetail;city=0178", "opening_hours": "Mo-Sa 08:00-22:00", "brand": "BJ's Wholesale", "brand:wikidata": "Q4835754"}, "geometry": {"type": "Point", "coordinates": [-75.73577, 39.6584]}},
{"type": "Feature", "id": "E6iMYmZj5Cbo946C2_xAKICNPUo=", "properties": {"ref": "0015", "@spider": "bjswholesale", "addr:full": "124 Sunset Blvd.", "addr:city": "New Castle", "addr:state": "DE", "addr:postcode": "19720", "addr:country": "US", "name": "New Castle", "phone": "302-324-8080", "website": "https://www.bjs.com/mapDetail;city=0015", "opening_hours": "Mo-Sa 08:00-22:00", "brand": "BJ's Wholesale", "brand:wikidata": "Q4835754"}, "geometry": {"type": "Point", "coordinates": [-75.59948, 39.66866]}},
{"type": "Feature", "id": "Ju8piM7hLeAa9zMJtUoqEK6aQG0=", "properties": {"ref": "0197", "@spider": "bjswholesale", "addr:full": "26676 Centerview Dr.", "addr:city": "Millsboro", "addr:state": "DE", "addr:postcode": "19966", "addr:country": "US", "name": "Millsboro", "phone": "302-934-1637", "website": "https://www.bjs.com/mapDetail;city=0197", "opening_hours": "Mo-Sa 08:00-21:00", "brand": "BJ's Wholesale", "brand:wikidata": "Q4835754"}, "geometry": {"type": "Point", "coordinates": [-75.28621, 38.57257]}},
{"type": "Feature", "id": "TUJEJIm2m3DYSOEu00GpF6h5oxc=", "properties": {"ref": "0354", "@spider": "bjswholesale", "addr:full": "2131 Kirkwood Hwy.", "addr:city": "Wilmington", "addr:state": "DE", "addr:postcode": "19805", "addr:country": "US", "name": "Elsmere", "phone": "302-468-3750", "website": "https://www.bjs.com/mapDetail;city=0354", "opening_hours": "Mo-Sa 08:00-22:00", "brand": "BJ's Wholesale", "brand:wikidata": "Q4835754"}, "geometry": {"type": "Point", "coordinates": [-75.60947, 39.73836]}},
{"type": "Feature", "id": "-GUIrkiWTcdZkoC6RnqmC3kWkPU=", "properties": {"ref": "0316", "@spider": "bjswholesale", "addr:full": "1589 Main St.", "addr:city": "Willimantic", "addr:state": "CT", "addr:postcode": "06226", "addr:country": "US", "name": "Willimantic", "phone": "860-423-2796", "website": "https://www.bjs.com/mapDetail;city=0316", "opening_hours": "Mo-Sa 08:00-21:00", "brand": "BJ's Wholesale", "brand:wikidata": "Q4835754"}, "geometry": {"type": "Point", "coordinates": [-72.23855, 41.7223]}},
{"type": "Feature", "id": "0pQ6IYaZQ-m4wC_MFQTSGzzSMp8=", "properties": {"ref": "0078", "@spider": "bjswholesale", "addr:full": "507 New Park Ave.", "addr:city": "West Hartford", "addr:state": "CT", "addr:postcode": "06110", "addr:country": "US", "name": "West Hartford", "phone": "860-232-9200", "website": "https://www.bjs.com/mapDetail;city=0078", "opening_hours": "Mo-Sa 08:00-21:00", "brand": "BJ's Wholesale", "brand:wikidata": "Q4835754"}, "geometry": {"type": "Point", "coordinates": [-72.71932, 41.73949]}},
{"type": "Feature", "id": "qaAke9K69YFmnxfe825pv1YVVGg=", "properties": {"ref": "0084", "@spider": "bjswholesale", "addr:full": "125 Cross Rd.", "addr:city": "Waterford", "addr:state": "CT", "addr:postcode": "06385", "addr:country": "US", "name": "Waterford", "phone": "860-437-3100", "website": "https://www.bjs.com/mapDetail;city=0084", "opening_hours": "Mo-Sa 08:00-21:00", "brand": "BJ's Wholesale", "brand:wikidata": "Q4835754"}, "geometry": {"type": "Point", "coordinates": [-72.16115, 41.37475]}},
{"type": "Feature", "id": "ogQhPtDZeFgk1BJ0t34AeqCseM4=", "properties": {"ref": "0037", "@spider": "bjswholesale", "addr:full": "344 Reidville Dr.", "addr:city": "Waterbury", "addr:state": "CT", "addr:postcode": "06705", "addr:country": "US", "name": "Waterbury", "phone": "203-753-9997", "website": "https://www.bjs.com/mapDetail;city=0037", "opening_hours": "Mo-Sa 08:00-21:00", "brand": "BJ's Wholesale", "brand:wikidata": "Q4835754"}, "geometry": {"type": "Point", "coordinates": [-72.99871, 41.53874]}},
{"type": "Feature", "id": "hHQo41n5TuZqDQ13E6Pq3g-2Uwk=", "properties": {"ref": "0173", "@spider": "bjswholesale", "addr:full": "1046 N. Colony Rd.", "addr:city": "Wallingford", "addr:state": "CT", "addr:postcode": "06492", "addr:country": "US", "name": "Wallingford", "phone": "203-626-4412", "website": "https://www.bjs.com/mapDetail;city=0173", "opening_hours": "Mo-Sa 08:00-21:00", "brand": "BJ's Wholesale", "brand:wikidata": "Q4835754"}, "geometry": {"type": "Point", "coordinates": [-72.80925, 41.49366]}},
{"type": "Feature", "id": "Cg78CS1luHsSuZONUaXuCkV8lWU=", "properties": {"ref": "0315", "@spider": "bjswholesale", "addr:full": "1280 East Main St.", "addr:city": "Torrington", "addr:state": "CT", "addr:postcode": "06790", "addr:country": "US", "name": "Torrington", "phone": "860-496-8810", "website": "https://www.bjs.com/mapDetail;city=0315", "opening_hours": "Mo-Sa 08:00-21:00", "brand": "BJ's Wholesale", "brand:wikidata": "Q4835754"}, "geometry": {"type": "Point", "coordinates": [-73.09207, 41.81671]}},
{"type": "Feature", "id": "_CGGw80lwXoA26vYqw99iQQlod0=", "properties": {"ref": "0193", "@spider": "bjswholesale", "addr:full": "955 Ferry Blvd.", "addr:city": "Stratford", "addr:state": "CT", "addr:postcode": "06614", "addr:country": "US", "name": "Stratford", "phone": "203-673-0071", "website": "https://www.bjs.com/mapDetail;city=0193", "opening_hours": "Mo-Sa 08:00-21:00", "brand": "BJ's Wholesale", "brand:wikidata": "Q4835754"}, "geometry": {"type": "Point", "coordinates": [-73.11443, 41.20037]}},
{"type": "Feature", "id": "QhV0dXmuFC9ibcuRsVuBLY5Mb3Q=", "properties": {"ref": "0203", "@spider": "bjswholesale", "addr:full": "75 Spring St.", "addr:city": "Southington", "addr:state": "CT", "addr:postcode": "06489", "addr:country": "US", "name": "Southington", "phone": "860-609-4757", "website": "https://www.bjs.com/mapDetail;city=0203", "opening_hours": "Mo-Sa 08:00-21:00", "brand": "BJ's Wholesale", "brand:wikidata": "Q4835754"}, "geometry": {"type": "Point", "coordinates": [-72.87492, 41.63437]}},
{"type": "Feature", "id": "zsj8ldq8soWPwJo-Hn_SHTjaBz8=", "properties": {"ref": "0093", "@spider": "bjswholesale", "addr:full": "555 Universal Dr. N", "addr:city": "North Haven", "addr:state": "CT", "addr:postcode": "06473", "addr:country": "US", "name": "North Haven", "phone": "203-234-6000", "website": "https://www.bjs.com/mapDetail;city=0093", "opening_hours": "Mo-Sa 08:00-21:00", "brand": "BJ's Wholesale", "brand:wikidata": "Q4835754"}, "geometry": {"type": "Point", "coordinates": [-72.87178, 41.35798]}},
{"type": "Feature", "id": "fRTXx8XbyXvcqf2EMNQwBivksPI=", "properties": {"ref": "0184", "@spider": "bjswholesale", "addr:full": "1046 Tolland Turnpike", "addr:city": "Manchester", "addr:state": "CT", "addr:postcode": "06042", "addr:country": "US", "name": "Manchester", "phone": "860-512-2004", "website": "https://www.bjs.com/mapDetail;city=0184", "opening_hours": "Mo-Sa 08:00-21:00", "brand": "BJ's Wholesale", "brand:wikidata": "Q4835754"}, "geometry": {"type": "Point", "coordinates": [-72.54753, 41.79579]}},
{"type": "Feature", "id": "dZk6W6lUNtYCwPGHqdx97GcvZRE=", "properties": {"ref": "0031", "@spider": "bjswholesale", "addr:full": "40 Black Rock Tpke.", "addr:city": "Fairfield", "addr:state": "CT", "addr:postcode": "06825", "addr:country": "US", "name": "Fairfield", "phone": "203-384-9113", "website": "https://www.bjs.com/mapDetail;city=0031", "opening_hours": "Mo-Sa 08:00-22:00", "brand": "BJ's Wholesale", "brand:wikidata": "Q4835754"}, "geometry": {"type": "Point", "coordinates": [-73.23057, 41.16143]}},
{"type": "Feature", "id": "zesUlplr1BKM80KcQ7784QbpR1A=", "properties": {"ref": "0318", "@spider": "bjswholesale", "addr:full": "20 Division St.", "addr:city": "Derby", "addr:state": "CT", "addr:postcode": "06418", "addr:country": "US", "name": "Derby", "phone": "203-732-8700", "website": "https://www.bjs.com/mapDetail;city=0318", "opening_hours": "Mo-Sa 08:00-21:00", "brand": "BJ's Wholesale", "brand:wikidata": "Q4835754"}, "geometry": {"type": "Point", "coordinates": [-73.0807, 41.33115]}},
{"type": "Feature", "id": "6IZ1urCfYb718wsJwKHatNtPiK4=", "properties": {"ref": "0214", "@spider": "bjswholesale", "addr:full": "106 Federal Rd.", "addr:city": "Brookfield", "addr:state": "CT", "addr:postcode": "06804", "addr:country": "US", "name": "Brookfield", "phone": "203-460-5000", "website": "https://www.bjs.com/mapDetail;city=0214", "opening_hours": "Mo-Sa 08:00-21:00", "brand": "BJ's Wholesale", "brand:wikidata": "Q4835754"}, "geometry": {"type": "Point", "coordinates": [-73.41115, 41.4353]}}]}