{"type":"FeatureCollection","features":[{"type": "Feature", "id": "DoLup-rmfpmzE-GS_g-tl7dswwI=", "properties": {"ref": "stanford", "@spider": "bloomingdales", "shop": "department_store", "addr:full": "1 Stanford Shopping Center", "addr:city": "Palo Alto", "addr:state": "CA", "addr:postcode": "94304", "addr:country": "US", "name": "Bloomingdale's Stanford", "phone": "(650) 463-2000", "website": "https://locations.bloomingdales.com/stanford", "opening_hours": "Mo-Sa 11:00-20:00; Su 11:00-18:00", "brand": "Bloomingdale's", "brand:wikidata": "Q283383", "nsi_id": "bloomingdales-592fe0"}, "geometry": {"type": "Point", "coordinates": [-122.17040737991056, 37.443383845075395]}},
{"type": "Feature", "id": "4oP2Mc4b0THQM7WN4i0mt2eM-FM=", "properties": {"ref": "soho", "@spider": "bloomingdales", "shop": "department_store", "addr:full": "504 Broadway", "addr:city": "New York", "addr:state": "NY", "addr:postcode": "10012", "addr:country": "US", "name": "Bloomingdale's SoHo", "phone": "(212) 729-5900", "website": "https://locations.bloomingdales.com/soho", "opening_hours": "Mo-Sa 11:00-20:00; Su 11:00-19:00", "brand": "Bloomingdale's", "brand:wikidata": "Q283383", "nsi_id": "bloomingdales-592fe0"}, "geometry": {"type": "Point", "coordinates": [-73.9992178, 40.7221565]}},
{"type": "Feature", "id": "TNv6YpxdmYpqyG1ROuYpA2s-hBw=", "properties": {"ref": "huntington-walt-whitman", "@spider": "bloomingdales", "shop": "department_store", "addr:full": "270 Walt Whitman Road", "addr:city": "Huntington Station", "addr:state": "NY", "addr:postcode": "11746", "addr:country": "US", "name": "Bloomingdale's Huntington Walt Whitman", "phone": "(631) 425-6700", "website": "https://locations.bloomingdales.com/huntington-walt-whitman", "opening_hours": "Mo-Sa 11:00-20:00; Su 11:00-19:00", "brand": "Bloomingdale's", "brand:wikidata": "Q283383", "nsi_id": "bloomingdales-592fe0"}, "geometry": {"type": "Point", "coordinates": [-73.40936, 40.82097]}},
{"type": "Feature", "id": "hQ122kBduLMEf3yOUM_EL0Xi-TM=", "properties": {"ref": "upper-west-side-outlet", "@spider": "bloomingdales", "shop": "department_store", "addr:full": "2085 Broadway", "addr:city": "New York", "addr:state": "NY", "addr:postcode": "10023", "addr:country": "US", "name": "Bloomingdale's Outlet Upper West Side Outlet", "phone": "(212) 634-3190", "website": "https://locations.bloomingdales.com/upper-west-side-outlet", "opening_hours": "Mo-Sa 11:00-20:00; Su 11:00-18:00", "brand": "Bloomingdale's", "brand:wikidata": "Q283383", "nsi_id": "bloomingdales-592fe0"}, "geometry": {"type": "Point", "coordinates": [-73.9822195, 40.7791294]}},
{"type": "Feature", "id": "OveSJmyYYGBVgxtUb2KUNXa4xL0=", "properties": {"ref": "white-plains", "@spider": "bloomingdales", "shop": "department_store", "addr:full": "175 Bloomingdale Road", "addr:city": "White Plains", "addr:state": "NY", "addr:postcode": "10605", "addr:country": "US", "name": "Bloomingdale's White Plains", "phone": "(914) 684-6300", "website": "https://locations.bloomingdales.com/white-plains", "opening_hours": "Mo-Sa 11:00-20:00; Su 11:00-19:00", "brand": "Bloomingdale's", "brand:wikidata": "Q283383", "nsi_id": "bloomingdales-592fe0"}, "geometry": {"type": "Point", "coordinates": [-73.7559692, 41.0251523]}},
{"type": "Feature", "id": "T5sMTQ-Thbmz5dSPOhT5elLwVdA=", "properties": {"ref": "furniture-mattress-rug-outlet-clearance-center", "@spider": "bloomingdales", "shop": "department_store", "addr:full": "1504 Old Country Road", "addr:city": "Westbury", "addr:state": "NY", "addr:postcode": "11590", "addr:country": "US", "name": "Bloomingdale's Outlet Furniture, Mattress & Rug Outlet Clearance Center", "phone": "(516) 493-4960", "website": "https://locations.bloomingdales.com/furniture-mattress-rug-outlet-clearance-center", "opening_hours": "Mo-Su 11:00-19:00", "brand": "Bloomingdale's", "brand:wikidata": "Q283383", "nsi_id": "bloomingdales-592fe0"}, "geometry": {"type": "Point", "coordinates": [-73.5939552, 40.745896]}},
{"type": "Feature", "id": "GntVts1xhQSmIgXdpIhDubvwSiY=", "properties": {"ref": "the-gallery-at-westbury-plaza-outlet", "@spider": "bloomingdales", "shop": "department_store", "addr:full": "1050 Old Country Road", "addr:city": "Garden City", "addr:state": "NY", "addr:postcode": "11530", "addr:country": "US", "name": "Bloomingdale's Outlet The Gallery at Westbury Plaza Outlet", "phone": "(516) 743-4301", "website": "https://locations.bloomingdales.com/the-gallery-at-westbury-plaza-outlet", "opening_hours": "Mo-Sa 11:00-20:00; Su 11:00-19:00", "brand": "Bloomingdale's", "brand:wikidata": "Q283383", "nsi_id": "bloomingdales-592fe0"}, "geometry": {"type": "Point", "coordinates": [-73.6052414, 40.7427114]}},
{"type": "Feature", "id": "AMM87HbU_xeVUc5G-hoPlMF7BXQ=", "properties": {"ref": "59th-street", "@spider": "bloomingdales", "shop": "department_store", "addr:full": "1000 Third Avenue", "addr:city": "New York", "addr:state": "NY", "addr:postcode": "10022", "addr:country": "US", "name": "Bloomingdale's 59th Street", "phone": "(212) 705-2000", "website": "https://locations.bloomingdales.com/59th-street", "opening_hours": "Mo-Sa 10:00-20:00; Su 11:00-19:00", "brand": "Bloomingdale's", "brand:wikidata": "Q283383", "nsi_id": "bloomingdales-592fe0"}, "geometry": {"type": "Point", "coordinates": [-73.967247, 40.762268]}},
{"type": "Feature", "id": "_gfe31ropbQFNCtBWKYyTo6ynLU=", "properties": {"ref": "the-mills-at-jersey-gardens", "@spider": "bloomingdales", "shop": "department_store", "addr:full": "651 Kapkowski Road, UNIT 60", "addr:city": "Elizabeth", "addr:state": "NJ", "addr:postcode": "07201", "addr:country": "US", "name": "Bloomingdale's Outlet The Mills at Jersey Gardens", "phone": "(908) 662-6440", "website": "https://locations.bloomingdales.com/the-mills-at-jersey-gardens", "opening_hours": "Mo-Th 10:00-20:00; Fr-Sa 10:00-21:00; Su 11:00-18:00", "brand": "Bloomingdale's", "brand:wikidata": "Q283383", "nsi_id": "bloomingdales-592fe0"}, "geometry": {"type": "Point", "coordinates": [-74.1713372, 40.6601883]}},
{"type": "Feature", "id": "UEwE80-_U5X5n46GzQ0T5C8I7sY=", "properties": {"ref": "bridgewater-commons", "@spider": "bloomingdales", "shop": "department_store", "addr:full": "410 Commons Way", "addr:city": "Bridgewater", "addr:state": "NJ", "addr:postcode": "08807", "addr:country": "US", "name": "Bloomingdale's Bridgewater Commons", "phone": "(908) 762-2400", "website": "https://locations.bloomingdales.com/bridgewater-commons", "opening_hours": "Mo-Sa 11:00-20:00; Su 11:00-18:00", "brand": "Bloomingdale's", "brand:wikidata": "Q283383", "nsi_id": "bloomingdales-592fe0"}, "geometry": {"type": "Point", "coordinates": [-74.6204276, 40.5874285]}},
{"type": "Feature", "id": "vliz_PxI_Suknpfb_XZ-bLjbD5Y=", "properties": {"ref": "bergen-shops-at-riverside", "@spider": "bloomingdales", "shop": "department_store", "addr:full": "400 Hackensack Avenue", "addr:city": "Hackensack", "addr:state": "NJ", "addr:postcode": "07601", "addr:country": "US", "name": "Bloomingdale's Bergen Shops at Riverside", "phone": "(201) 457-2000", "website": "https://locations.bloomingdales.com/bergen-shops-at-riverside", "opening_hours": "Mo-Sa 11:00-20:00", "brand": "Bloomingdale's", "brand:wikidata": "Q283383", "nsi_id": "bloomingdales-592fe0"}, "geometry": {"type": "Point", "coordinates": [-74.03113603591919, 40.9065233080773]}},
{"type": "Feature", "id": "N9CHjwikLz4uxF0DxXMImmfGKbQ=", "properties": {"ref": "willowbrook", "@spider": "bloomingdales", "shop": "department_store", "addr:full": "3 Willowbrook Blvd", "addr:city": "Wayne", "addr:state": "NJ", "addr:postcode": "07470", "addr:country": "US", "name": "Bloomingdale's Willowbrook", "phone": "(973) 582-2400", "website": "https://locations.bloomingdales.com/willowbrook", "opening_hours": "Mo-Sa 11:00-20:00; Su 12:00-18:00", "brand": "Bloomingdale's", "brand:wikidata": "Q283383", "nsi_id": "bloomingdales-592fe0"}, "geometry": {"type": "Point", "coordinates": [-74.2577158, 40.8873624]}},
{"type": "Feature", "id": "Inshm1qDjds2fLMdXxNN6sV7MIA=", "properties": {"ref": "bergen-town-center-outlet", "@spider": "bloomingdales", "shop": "department_store", "addr:full": "260 Bergen Town Center", "addr:city": "Paramus", "addr:state": "NJ", "addr:postcode": "07652", "addr:country": "US", "name": "Bloomingdale's Outlet Bergen Town Center Outlet", "phone": "(201) 490-6840", "website": "https://locations.bloomingdales.com/bergen-town-center-outlet", "opening_hours": "Mo-Th 11:00-20:00; Fr-Sa 10:00-21:00", "brand": "Bloomingdale's", "brand:wikidata": "Q283383", "nsi_id": "bloomingdales-592fe0"}, "geometry": {"type": "Point", "coordinates": [-74.0575293, 40.9155136]}},
{"type": "Feature", "id": "__w_bMvOXmi6UfJjbU8ThrLMpPs=", "properties": {"ref": "short-hills", "@spider": "bloomingdales", "shop": "department_store", "addr:full": "1200 Morris Turnpike", "addr:city": "Short Hills", "addr:state": "NJ", "addr:postcode": "07078", "addr:country": "US", "name": "Bloomingdale's Short Hills", "phone": "(973) 548-2200", "website": "https://locations.bloomingdales.com/short-hills", "opening_hours": "Mo-Fr 11:00-21:00; Sa 11:00-20:00; Su 11:00-18:00", "brand": "Bloomingdale's", "brand:wikidata": "Q283383", "nsi_id": "bloomingdales-592fe0"}, "geometry": {"type": "Point", "coordinates": [-74.3616246, 40.740437]}},
{"type": "Feature", "id": "ogFksARdIEpmiBkwWzGcEpb0ff4=", "properties": {"ref": "merrimack-premium-outlets", "@spider": "bloomingdales", "shop": "department_store", "addr:full": "80 Premium Outlets Blvd.", "addr:city": "Merrimack", "addr:state": "NH", "addr:postcode": "03054", "addr:country": "US", "name": "Bloomingdale's Outlet Merrimack Premium Outlets", "phone": "(603) 420-9080", "website": "https://locations.bloomingdales.com/merrimack-premium-outlets", "opening_hours": "Mo-Sa 11:00-20:00; Su 11:00-18:00", "brand": "Bloomingdale's", "brand:wikidata": "Q283383", "nsi_id": "bloomingdales-592fe0"}, "geometry": {"type": "Point", "coordinates": [-71.4989523589611, 42.826669813417816]}},
{"type": "Feature", "id": "ac4QGDOBLW8alcGIbADynbdSl8k=", "properties": {"ref": "chestnut-hill", "@spider": "bloomingdales", "shop": "department_store", "addr:full": "225 Boylston Street", "addr:city": "Chestnut Hill", "addr:state": "MA", "addr:postcode": "02467", "addr:country": "US", "name": "Bloomingdale's Chestnut Hill", "phone": "(617) 630-6000", "website": "https://locations.bloomingdales.com/chestnut-hill", "opening_hours": "Mo-Sa 11:00-20:00; Su 11:00-19:00", "brand": "Bloomingdale's", "brand:wikidata": "Q283383", "nsi_id": "bloomingdales-592fe0"}, "geometry": {"type": "Point", "coordinates": [-71.1769866, 42.3214302]}},
{"type": "Feature", "id": "XnD0mQEhaqlERVTKDxshVcKXnq0=", "properties": {"ref": "forty-carrots-roosevelt-field-ny", "@spider": "bloomingdales", "shop": "department_store", "addr:full": "630 Old Country Road", "addr:city": "Garden City", "addr:state": "NY", "addr:postcode": "11530", "addr:country": "US", "name": "Bloomingdale's Forty Carrots Roosevelt Field", "phone": "(516) 873-2755", "website": "https://locations.bloomingdales.com/forty-carrots-roosevelt-field-ny", "opening_hours": "Mo-Sa 11:00-20:00; Su 11:00-18:00", "brand": "Bloomingdale's", "brand:wikidata": "Q283383", "nsi_id": "bloomingdales-592fe0"}, "geometry": {"type": "Point", "coordinates": [-73.61248018792159, 40.73833872779228]}},
{"type": "Feature", "id": "xaXN3waSpgo2Isn3qS-eG53jpS0=", "properties": {"ref": "forty-carrots-soho-ny", "@spider": "bloomingdales", "shop": "department_store", "addr:full": "504 Broadway", "addr:city": "New York", "addr:state": "NY", "addr:postcode": "10012", "addr:country": "US", "name": "Bloomingdale's Forty Carrots - CLOSED Soho", "phone": "(212) 729-5155", "website": "https://locations.bloomingdales.com/forty-carrots-soho-ny", "brand": "Bloomingdale's", "brand:wikidata": "Q283383", "nsi_id": "bloomingdales-592fe0"}, "geometry": {"type": "Point", "coordinates": [-73.99890405841558, 40.72202170478139]}},
{"type": "Feature", "id": "KwP3KshGJu55e16nIwatg1usDnE=", "properties": {"ref": "59th-lex-huntington-ny", "@spider": "bloomingdales", "shop": "department_store", "addr:full": "270 Walt Whitman Road", "addr:city": "Huntington Station", "addr:state": "NY", "addr:postcode": "11746", "addr:country": "US", "name": "Bloomingdale's 59th & Lex - Closed - Closed Huntington", "phone": "(631) 425-6783", "website": "https://locations.bloomingdales.com/59th-lex-huntington-ny", "brand": "Bloomingdale's", "brand:wikidata": "Q283383", "nsi_id": "bloomingdales-592fe0"}, "geometry": {"type": "Point", "coordinates": [-73.40971122373496, 40.82162646258784]}},
{"type": "Feature", "id": "vkH8uFuIeVS7KhV7s6lunRa06UE=", "properties": {"ref": "forty-carrots-upper-west-side-ny", "@spider": "bloomingdales", "shop": "department_store", "addr:full": "2085 Broadway", "addr:city": "New York", "addr:state": "NY", "addr:postcode": "10023", "addr:country": "US", "name": "Bloomingdale's Forty Carrots - Closed Upper West Side", "phone": "(212) 634-3179", "website": "https://locations.bloomingdales.com/forty-carrots-upper-west-side-ny", "brand": "Bloomingdale's", "brand:wikidata": "Q283383", "nsi_id": "bloomingdales-592fe0"}, "geometry": {"type": "Point", "coordinates": [-73.98231442497791, 40.77930452311446]}},
{"type": "Feature", "id": "pY4GmMz8xcd3vvuwMdOw2Vorjbs=", "properties": {"ref": "la-provence-white-plains-ny", "@spider": "bloomingdales", "shop": "department_store", "addr:full": "175 Bloomingdale Road", "addr:city": "White Plains", "addr:state": "NY", "addr:postcode": "10605", "addr:country": "US", "name": "Bloomingdale's La Provence - CLOSED White Plains", "phone": "(914) 684-6241", "website": "https://locations.bloomingdales.com/la-provence-white-plains-ny", "brand": "Bloomingdale's", "brand:wikidata": "Q283383", "nsi_id": "bloomingdales-592fe0"}, "geometry": {"type": "Point", "coordinates": [-73.75598687341855, 41.0250019687956]}},
{"type": "Feature", "id": "lCNTAGWZ46Fsfie4SZYl5a-U3gg=", "properties": {"ref": "forty-carrots-white-plains-ny", "@spider": "bloomingdales", "shop": "department_store", "addr:full": "175 Bloomingdale Road", "addr:city": "White Plains", "addr:state": "NY", "addr:postcode": "10605", "addr:country": "US", "name": "Bloomingdale's Forty Carrots White Plains", "phone": "(914) 684-6241", "website": "https://locations.bloomingdales.com/forty-carrots-white-plains-ny", "opening_hours": "Mo-Su 11:00-18:00", "brand": "Bloomingdale's", "brand:wikidata": "Q283383", "nsi_id": "bloomingdales-592fe0"}, "geometry": {"type": "Point", "coordinates": [-73.75601168425698, 41.02501056377406]}},
{"type": "Feature", "id": "ZG1RDUsA44nKgS5T-SDi7lT-NWg=", "properties": {"ref": "studio-59-ny", "@spider": "bloomingdales", "shop": "department_store", "addr:full": "1000 Third Avenue", "addr:city": "New York", "addr:state": "NY", "addr:postcode": "10022", "addr:country": "US", "name": "Bloomingdale's Bloomingdale's Studio 59", "phone": "(212) 705-2991", "website": "https://locations.bloomingdales.com/studio-59-ny", "opening_hours": "Mo-Su 11:00-18:00", "brand": "Bloomingdale's", "brand:wikidata": "Q283383", "nsi_id": "bloomingdales-592fe0"}, "geometry": {"type": "Point", "coordinates": [-73.96741025214959, 40.76256060977715]}},
{"type": "Feature", "id": "MlS1pQee_exm6ke-_97BmEvcqFg=", "properties": {"ref": "magnolia-59th-street-ny", "@spider": "bloomingdales", "shop": "department_store", "addr:full": "1000 Third Avenue", "addr:city": "New York", "addr:state": "NY", "addr:postcode": "10022", "addr:country": "US", "name": "Bloomingdale's Magnolia Bakery 59th Street", "phone": "(212) 265-5320", "website": "https://locations.bloomingdales.com/magnolia-59th-street-ny", "opening_hours": "Mo-Su 11:00-18:00", "brand": "Bloomingdale's", "brand:wikidata": "Q283383", "nsi_id": "bloomingdales-592fe0"}, "geometry": {"type": "Point", "coordinates": [-73.96654671412085, 40.761978752577576]}},
{"type": "Feature", "id": "OlBb1649FmIluScE0pr2g4VN-7g=", "properties": {"ref": "forty-carrots-59th-street-ny", "@spider": "bloomingdales", "shop": "department_store", "addr:full": "1000 Third Avenue", "addr:city": "New York", "addr:state": "NY", "addr:postcode": "10022", "addr:country": "US", "name": "Bloomingdale's Forty Carrots 59th Street", "phone": "(212) 705-3085", "website": "https://locations.bloomingdales.com/forty-carrots-59th-street-ny", "opening_hours": "Mo-Sa 11:00-19:00; Su 11:00-18:00", "brand": "Bloomingdale's", "brand:wikidata": "Q283383", "nsi_id": "bloomingdales-592fe0"}, "geometry": {"type": "Point", "coordinates": [-73.9673955, 40.7625491]}},
{"type": "Feature", "id": "1hAbXCCa8bEWVisAXunWcaetrJI=", "properties": {"ref": "flip-59th-st-ny", "@spider": "bloomingdales", "shop": "department_store", "addr:full": "1000 Third Avenue", "addr:city": "New York", "addr:state": "NY", "addr:postcode": "10022", "addr:country": "US", "name": "Bloomingdale's Flip 59th St", "phone": "(212) 705-2993", "website": "https://locations.bloomingdales.com/flip-59th-st-ny", "opening_hours": "Mo-Su 11:00-18:00", "brand": "Bloomingdale's", "brand:wikidata": "Q283383", "nsi_id": "bloomingdales-592fe0"}, "geometry": {"type": "Point", "coordinates": [-73.96682779999999, 40.7619047]}},
{"type": "Feature", "id": "b52fOTiEto-BBBfZ9ffNI71azMY=", "properties": {"ref": "b-caf%C3%A9-willowbrook-nj", "@spider": "bloomingdales", "shop": "department_store", "addr:full": "3 Willowbrook Boulevard", "addr:city": "Wayne", "addr:state": "NJ", "addr:postcode": "07470", "addr:country": "US", "name": "Bloomingdale's B Caf\u00e9 - Closed Willowbrook", "phone": "(973) 582-2694", "website": "https://locations.bloomingdales.com/b-caf%C3%A9-willowbrook-nj", "brand": "Bloomingdale's", "brand:wikidata": "Q283383", "nsi_id": "bloomingdales-592fe0"}, "geometry": {"type": "Point", "coordinates": [-74.25757122318132, 40.88742177676359]}},
{"type": "Feature", "id": "RLxmw0fsstIkH-DKefDUldq4Jfk=", "properties": {"ref": "forty-carrots-short-hills-nj", "@spider": "bloomingdales", "shop": "department_store", "addr:full": "1200 Morris Turnpike", "addr:city": "Short Hills", "addr:state": "NJ", "addr:postcode": "07078", "addr:country": "US", "name": "Bloomingdale's Forty Carrots Short Hills", "phone": "(973) 548-2403", "website": "https://locations.bloomingdales.com/forty-carrots-short-hills-nj", "opening_hours": "Mo-Su 11:00-18:00", "brand": "Bloomingdale's", "brand:wikidata": "Q283383", "nsi_id": "bloomingdales-592fe0"}, "geometry": {"type": "Point", "coordinates": [-74.36375255406844, 40.739672533281784]}},
{"type": "Feature", "id": "Ph3WCbEoGjOlB5W7C0VgQPpfSyc=", "properties": {"ref": "b-caf%C3%A9-short-hills-nj", "@spider": "bloomingdales", "shop": "department_store", "addr:full": "1200 Morris Turnpike", "addr:city": "Short Hills", "addr:state": "NJ", "addr:postcode": "07078", "addr:country": "US", "name": "Bloomingdale's B Caf\u00e9 Short Hills", "phone": "(973) 548-2403", "website": "https://locations.bloomingdales.com/b-caf%C3%A9-short-hills-nj", "opening_hours": "Mo-Su 11:00-18:00", "brand": "Bloomingdale's", "brand:wikidata": "Q283383", "nsi_id": "bloomingdales-592fe0"}, "geometry": {"type": "Point", "coordinates": [-74.36381149145208, 40.74005671274035]}},
{"type": "Feature", "id": "rmFyvUpQmAmyUoMyjlJMEw2Hjb0=", "properties": {"ref": "forty-carrots-chestnut-hill-ma", "@spider": "bloomingdales", "shop": "department_store", "addr:full": "225 Boylston Street", "addr:city": "Chestnut Hill", "addr:state": "MA", "addr:postcode": "02467", "addr:country": "US", "name": "Bloomingdale's Forty Carrots Chestnut Hill", "phone": "(617) 630-6747", "website": "https://locations.bloomingdales.com/forty-carrots-chestnut-hill-ma", "opening_hours": "Mo-Su 11:00-18:00", "brand": "Bloomingdale's", "brand:wikidata": "Q283383", "nsi_id": "bloomingdales-592fe0"}, "geometry": {"type": "Point", "coordinates": [-71.17699107471061, 42.32134967855127]}},
{"type": "Feature", "id": "pCBw_VGZ0Oc1jcK5Mdynsgn4tzg=", "properties": {"ref": "forty-carrots-chicago-il", "@spider": "bloomingdales", "shop": "department_store", "addr:full": "900 North Michigan Avenue", "addr:city": "Chicago", "addr:state": "IL", "addr:postcode": "60611", "addr:country": "US", "name": "Bloomingdale's Forty Carrots Chicago", "phone": "(312) 440-4861", "website": "https://locations.bloomingdales.com/forty-carrots-chicago-il", "opening_hours": "Mo-Su 11:00-18:00", "brand": "Bloomingdale's", "brand:wikidata": "Q283383", "nsi_id": "bloomingdales-592fe0"}, "geometry": {"type": "Point", "coordinates": [-87.62500930059431, 41.899588381488414]}},
{"type": "Feature", "id": "FDZM9MGC7i-8DnKzu8qjBsL0hOg=", "properties": {"ref": "forty-carrots-ala-moana-hi", "@spider": "bloomingdales", "shop": "department_store", "addr:full": "1450 Ala Moana Boulevard", "addr:city": "Honolulu", "addr:state": "HI", "addr:postcode": "96814", "addr:country": "US", "name": "Bloomingdale's Forty Carrots - Closed Ala Moana", "phone": "(808) 664-7434", "website": "https://locations.bloomingdales.com/forty-carrots-ala-moana-hi", "brand": "Bloomingdale's", "brand:wikidata": "Q283383", "nsi_id": "bloomingdales-592fe0"}, "geometry": {"type": "Point", "coordinates": [-157.84487795485938, 21.290309594502283]}},
{"type": "Feature", "id": "-ObZBnWUETXyP7jGHEgvay_T5IM=", "properties": {"ref": "petrossian-boca-raton-fl", "@spider": "bloomingdales", "shop": "department_store", "addr:full": "5840 Glades Road", "addr:city": "Boca Raton", "addr:state": "FL", "addr:postcode": "33431", "addr:country": "US", "name": "Bloomingdale's Petrossian Boca Raton", "phone": "(561) 394-2237", "website": "https://locations.bloomingdales.com/petrossian-boca-raton-fl", "opening_hours": "Mo-Su 11:00-18:00", "brand": "Bloomingdale's", "brand:wikidata": "Q283383", "nsi_id": "bloomingdales-592fe0"}, "geometry": {"type": "Point", "coordinates": [-80.13364142878225, 26.36386659645363]}},
{"type": "Feature", "id": "3RHVSnZBlD1MD4_ZzcyeC5PAURU=", "properties": {"ref": "forty-carrots-boca-raton-fl", "@spider": "bloomingdales", "shop": "department_store", "addr:full": "5840 Glades Road", "addr:city": "Boca Raton", "addr:state": "FL", "addr:postcode": "33431", "addr:country": "US", "name": "Bloomingdale's Forty Carrots Boca Raton", "phone": "(561) 394-2237", "website": "https://locations.bloomingdales.com/forty-carrots-boca-raton-fl", "opening_hours": "Mo-Su 11:00-18:00", "brand": "Bloomingdale's", "brand:wikidata": "Q283383", "nsi_id": "bloomingdales-592fe0"}, "geometry": {"type": "Point", "coordinates": [-80.1343910255724, 26.36309039695408]}},
{"type": "Feature", "id": "F2OVdNzzZzDyuEqNV68p8IhF57M=", "properties": {"ref": "forty-carrots-orlando-fl", "@spider": "bloomingdales", "shop": "department_store", "addr:full": "4152 Conroy Road", "addr:city": "Orlando", "addr:state": "FL", "addr:postcode": "32839", "addr:country": "US", "name": "Bloomingdale's Forty Carrots Orlando", "phone": "(407) 264-2684", "website": "https://locations.bloomingdales.com/forty-carrots-orlando-fl", "opening_hours": "Mo-Su 11:00-18:00", "brand": "Bloomingdale's", "brand:wikidata": "Q283383", "nsi_id": "bloomingdales-592fe0"}, "geometry": {"type": "Point", "coordinates": [-81.430067, 28.484099]}},
{"type": "Feature", "id": "dsm6xdepEIHpt29Sp91IVPwEMiQ=", "properties": {"ref": "petrossian-palm-beach-fl", "@spider": "bloomingdales", "shop": "department_store", "addr:full": "3105 PGA Boulevard", "addr:city": "Palm Beach Gardens", "addr:state": "FL", "addr:postcode": "33410", "addr:country": "US", "name": "Bloomingdale's Petrossian - Closed Palm Beach", "phone": "(561) 625-2164", "website": "https://locations.bloomingdales.com/petrossian-palm-beach-fl", "brand": "Bloomingdale's", "brand:wikidata": "Q283383", "nsi_id": "bloomingdales-592fe0"}, "geometry": {"type": "Point", "coordinates": [-80.08474, 26.848406]}},
{"type": "Feature", "id": "JDwRXfTXV76XrR3wimGIIhITSas=", "properties": {"ref": "59th-lex-aventura-fl", "@spider": "bloomingdales", "shop": "department_store", "addr:full": "19555 Biscayne Boulevard", "addr:city": "Aventura", "addr:state": "FL", "addr:postcode": "33180", "addr:country": "US", "name": "Bloomingdale's 59th & Lex Aventura", "phone": "(305) 792-1188", "website": "https://locations.bloomingdales.com/59th-lex-aventura-fl", "opening_hours": "Mo-Su 11:00-19:00", "brand": "Bloomingdale's", "brand:wikidata": "Q283383", "nsi_id": "bloomingdales-592fe0"}, "geometry": {"type": "Point", "coordinates": [-80.1430350975706, 25.95729172395398]}},
{"type": "Feature", "id": "0lYOaO1z8phKT-zbuoojbdllvlY=", "properties": {"ref": "59th-lex-newport-beach-ca", "@spider": "bloomingdales", "shop": "department_store", "addr:full": "701 Newport Center Drive", "addr:city": "Newport Beach", "addr:state": "CA", "addr:postcode": "92660", "addr:country": "US", "name": "Bloomingdale's 59th & Lex Newport Beach", "phone": "(949) 729-6709", "website": "https://locations.bloomingdales.com/59th-lex-newport-beach-ca", "opening_hours": "Mo-Su 11:00-18:00", "brand": "Bloomingdale's", "brand:wikidata": "Q283383", "nsi_id": "bloomingdales-592fe0"}, "geometry": {"type": "Point", "coordinates": [-117.87583451327836, 33.61745546980205]}},
{"type": "Feature", "id": "4p6aTg7n5wpINTxaz8yA8vhGFT0=", "properties": {"ref": "forty-carrots-santa-monica-ca", "@spider": "bloomingdales", "shop": "department_store", "addr:full": "315 Colorado Avenue", "addr:city": "Santa Monica", "addr:state": "CA", "addr:postcode": "90401", "addr:country": "US", "name": "Bloomingdale's Forty Carrots - Closed Santa Monica", "phone": "(310) 985-6427", "website": "https://locations.bloomingdales.com/forty-carrots-santa-monica-ca", "brand": "Bloomingdale's", "brand:wikidata": "Q283383", "nsi_id": "bloomingdales-592fe0"}, "geometry": {"type": "Point", "coordinates": [-118.49282229036105, 34.013719132512435]}},
{"type": "Feature", "id": "femHAbcWIc9cMy2jKgcuD04IjLQ=", "properties": {"ref": "59th-lex-sherman-oaks-ca", "@spider": "bloomingdales", "shop": "department_store", "addr:full": "14060 Riverside Drive", "addr:city": "Sherman Oaks", "addr:state": "CA", "addr:postcode": "91423", "addr:country": "US", "name": "Bloomingdale's 59th & Lex Sherman Oaks", "phone": "(818) 325-2451", "website": "https://locations.bloomingdales.com/59th-lex-sherman-oaks-ca", "opening_hours": "Mo-Su 11:00-18:00", "brand": "Bloomingdale's", "brand:wikidata": "Q283383", "nsi_id": "bloomingdales-592fe0"}, "geometry": {"type": "Point", "coordinates": [-118.43920343004207, 34.15704470428185]}},
{"type": "Feature", "id": "pysPCKZxi025DZHZi3qk2ZG1DBU=", "properties": {"ref": "forty-carrots-century-city-ca", "@spider": "bloomingdales", "shop": "department_store", "addr:full": "10250 Santa Monica Boulevard", "addr:city": "Los Angeles", "addr:state": "CA", "addr:postcode": "90067", "addr:country": "US", "name": "Bloomingdale's Forty Carrots Century City", "phone": "(310) 772-7162", "website": "https://locations.bloomingdales.com/forty-carrots-century-city-ca", "opening_hours": "Mo-Su 11:00-18:00", "brand": "Bloomingdale's", "brand:wikidata": "Q283383", "nsi_id": "bloomingdales-592fe0"}, "geometry": {"type": "Point", "coordinates": [-118.41937115265145, 34.05990040626589]}},
{"type": "Feature", "id": "a4-7OvCflCRsDABmoXVy_8dxooE=", "properties": {"ref": "tysons-corner-center", "@spider": "bloomingdales", "shop": "department_store", "addr:full": "8100 Tysons Corner Center", "addr:city": "McLean", "addr:state": "VA", "addr:postcode": "22102", "addr:country": "US", "name": "Bloomingdale's Tysons Corner Center", "phone": "(703) 556-4600", "website": "https://locations.bloomingdales.com/tysons-corner-center", "opening_hours": "Mo-We 11:00-20:00; Th-Sa 11:00-21:00; Su 11:00-19:00", "brand": "Bloomingdale's", "brand:wikidata": "Q283383", "nsi_id": "bloomingdales-592fe0"}, "geometry": {"type": "Point", "coordinates": [-77.223772, 38.915953]}},
{"type": "Feature", "id": "uMTuM6I1Vq4KsJLoTWySxpXuevo=", "properties": {"ref": "bloomies-mosaic-va", "@spider": "bloomingdales", "shop": "department_store", "addr:full": "2920 District Ave.", "addr:city": "Fairfax", "addr:state": "VA", "addr:postcode": "22031", "addr:country": "US", "name": "Bloomie's Mosaic", "phone": "(703) 962-3000", "website": "https://locations.bloomingdales.com/bloomies-mosaic-va", "opening_hours": "Mo-We 11:00-20:00; Th-Sa 11:00-21:00; Su 11:00-19:00", "brand": "Bloomingdale's", "brand:wikidata": "Q283383", "nsi_id": "bloomingdales-592fe0"}, "geometry": {"type": "Point", "coordinates": [-77.2306828250872, 38.87083927060565]}},
{"type": "Feature", "id": "4sSaAlJqXHC-RYMK8avunPvjMY0=", "properties": {"ref": "potomac-mills-outlet", "@spider": "bloomingdales", "shop": "department_store", "addr:full": "2700 Potomac Mills Circle", "addr:city": "Woodbridge", "addr:state": "VA", "addr:postcode": "22192", "addr:country": "US", "name": "Bloomingdale's Outlet Potomac Mills Outlet", "phone": "(703) 843-2160", "website": "https://locations.bloomingdales.com/potomac-mills-outlet", "opening_hours": "Mo-Sa 11:00-20:00; Su 11:00-18:00", "brand": "Bloomingdale's", "brand:wikidata": "Q283383", "nsi_id": "bloomingdales-592fe0"}, "geometry": {"type": "Point", "coordinates": [-77.299674, 38.643062]}},
{"type": "Feature", "id": "8UTH1WmhuBQcg3WhF3J_5kMvzUQ=", "properties": {"ref": "the-shops-at-park-lane-outlet", "@spider": "bloomingdales", "shop": "department_store", "addr:full": "8180 Park Lane", "addr:city": "Dallas", "addr:state": "TX", "addr:postcode": "75231", "addr:country": "US", "name": "Bloomingdale's Outlet The Shops at Park Lane Outlet", "phone": "(972) 707-6850", "website": "https://locations.bloomingdales.com/the-shops-at-park-lane-outlet", "opening_hours": "Mo-Sa 11:00-20:00; Su 11:00-18:00", "brand": "Bloomingdale's", "brand:wikidata": "Q283383", "nsi_id": "bloomingdales-592fe0"}, "geometry": {"type": "Point", "coordinates": [-96.7682203, 32.8688197]}},
{"type": "Feature", "id": "WapvcULTdXPiJrhNhRV6DRHFXpM=", "properties": {"ref": "grand-prairie-premium-outlets", "@spider": "bloomingdales", "shop": "department_store", "addr:full": "2950 W. Interstate 20", "addr:city": "Grand Prairie", "addr:state": "TX", "addr:postcode": "75052", "addr:country": "US", "name": "Bloomingdale's Outlet Grand Prairie Premium Outlets", "phone": "(214) 516-6900", "website": "https://locations.bloomingdales.com/grand-prairie-premium-outlets", "opening_hours": "Mo-Sa 11:00-20:00; Su 11:00-18:00", "brand": "Bloomingdale's", "brand:wikidata": "Q283383", "nsi_id": "bloomingdales-592fe0"}, "geometry": {"type": "Point", "coordinates": [-97.0553097, 32.6788564]}},
{"type": "Feature", "id": "xwHUiYdkSP-gBRG6mOOG4CbjI5Y=", "properties": {"ref": "willow-grove-park", "@spider": "bloomingdales", "shop": "department_store", "addr:full": "2400 West Moreland Park Road", "addr:city": "Willow Grove", "addr:state": "PA", "addr:postcode": "19090", "addr:country": "US", "name": "Bloomingdale's Willow Grove Park", "phone": "(215) 706-3300", "website": "https://locations.bloomingdales.com/willow-grove-park", "opening_hours": "Mo-Sa 11:00-20:00; Su 11:00-18:00", "brand": "Bloomingdale's", "brand:wikidata": "Q283383", "nsi_id": "bloomingdales-592fe0"}, "geometry": {"type": "Point", "coordinates": [-75.1219728, 40.1398904]}},
{"type": "Feature", "id": "SUknOy-ys9bshFgUX0Du5m-qIaQ=", "properties": {"ref": "king-of-prussia--the-court-", "@spider": "bloomingdales", "shop": "department_store", "addr:full": "2 Rt. 202 North 660 West DeKalb Pike", "addr:city": "King of Prussia", "addr:state": "PA", "addr:postcode": "19406", "addr:country": "US", "name": "Bloomingdale's King of Prussia (The Court)", "phone": "(610) 337-6300", "website": "https://locations.bloomingdales.com/king-of-prussia--the-court-", "opening_hours": "Mo-Sa 11:00-20:00; Su 11:00-18:00", "brand": "Bloomingdale's", "brand:wikidata": "Q283383", "nsi_id": "bloomingdales-592fe0"}, "geometry": {"type": "Point", "coordinates": [-75.38586844047546, 40.08915647994297]}},
{"type": "Feature", "id": "V5d7LeXhyywCQBS_DBHD52JrIng=", "properties": {"ref": "liberty-place-outlet", "@spider": "bloomingdales", "shop": "department_store", "addr:full": "1625 Chestnut St", "addr:city": "Philadelphia", "addr:state": "PA", "addr:postcode": "19103", "addr:country": "US", "name": "Bloomingdale's Outlet Liberty Place Outlet", "phone": "(267) 858-3200", "website": "https://locations.bloomingdales.com/liberty-place-outlet", "opening_hours": "Mo-Sa 11:00-19:00; Su 11:00-18:00", "brand": "Bloomingdale's", "brand:wikidata": "Q283383", "nsi_id": "bloomingdales-592fe0"}, "geometry": {"type": "Point", "coordinates": [-75.1680038, 39.9515705]}},
{"type": "Feature", "id": "yCKVqiYYn3wYm4xCfaFap2AHsNw=", "properties": {"ref": "riverhead-popup-ny", "@spider": "bloomingdales", "shop": "department_store", "addr:full": "912 Tanger Mall Drive", "addr:city": "Riverhead", "addr:state": "NY", "addr:postcode": "11901", "addr:country": "US", "name": "Bloomingdale's Outlet Riverhead", "phone": "(631) 834-4928", "website": "https://locations.bloomingdales.com/riverhead-popup-ny", "opening_hours": "Mo-Sa 11:00-20:00; Su 11:00-19:00", "brand": "Bloomingdale's", "brand:wikidata": "Q283383", "nsi_id": "bloomingdales-592fe0"}, "geometry": {"type": "Point", "coordinates": [-72.7130086960459, 40.91926362594607]}},
{"type": "Feature", "id": "kovBUK-K2R1u7T_wmwmM7dkRVzw=", "properties": {"ref": "roosevelt-field", "@spider": "bloomingdales", "shop": "department_store", "addr:full": "630 Old Country Rd.", "addr:city": "Garden City", "addr:state": "NY", "addr:postcode": "11530", "addr:country": "US", "name": "Bloomingdale's Roosevelt Field", "phone": "(516) 873-2700", "website": "https://locations.bloomingdales.com/roosevelt-field", "opening_hours": "Mo-Sa 11:00-21:00; Su 11:00-19:00", "brand": "Bloomingdale's", "brand:wikidata": "Q283383", "nsi_id": "bloomingdales-592fe0"}, "geometry": {"type": "Point", "coordinates": [-73.61295185839361, 40.738270837338]}},
{"type": "Feature", "id": "SF_oqvjZXI6U2PrABpSerWg0OQQ=", "properties": {"ref": "wrentham-village-premium-outlets", "@spider": "bloomingdales", "shop": "department_store", "addr:full": "1 Premium Outlets Blvd", "addr:city": "Wrentham", "addr:state": "MA", "addr:postcode": "02093", "addr:country": "US", "name": "Bloomingdale's Outlet Wrentham Village Premium Outlets", "phone": "(774) 847-3300", "website": "https://locations.bloomingdales.com/wrentham-village-premium-outlets", "opening_hours": "Mo-Sa 11:00-20:00; Su 11:00-18:00", "brand": "Bloomingdale's", "brand:wikidata": "Q283383", "nsi_id": "bloomingdales-592fe0"}, "geometry": {"type": "Point", "coordinates": [-71.3485429, 42.0381654]}},
{"type": "Feature", "id": "QkEYQmEZO0P_MSQqG2Zg1ih7eig=", "properties": {"ref": "wisconsin-place--chevy-chase", "@spider": "bloomingdales", "shop": "department_store", "addr:full": "5300 Western Avenue", "addr:city": "Chevy Chase", "addr:state": "MD", "addr:postcode": "20815", "addr:country": "US", "name": "Bloomingdale's Wisconsin Place, Chevy Chase", "phone": "(240) 744-3700", "website": "https://locations.bloomingdales.com/wisconsin-place--chevy-chase", "opening_hours": "Mo-Sa 11:00-20:00; Su 12:00-19:00", "brand": "Bloomingdale's", "brand:wikidata": "Q283383", "nsi_id": "bloomingdales-592fe0"}, "geometry": {"type": "Point", "coordinates": [-77.0873573, 38.9599225]}},
{"type": "Feature", "id": "fqVdzBPcWMrDq40NEPSPx-RNdG4=", "properties": {"ref": "north-michigan-avenue", "@spider": "bloomingdales", "shop": "department_store", "addr:full": "900 North Michigan Avenue", "addr:city": "Chicago", "addr:state": "IL", "addr:postcode": "60611", "addr:country": "US", "name": "Bloomingdale's North Michigan Avenue", "phone": "(312) 440-4460", "website": "https://locations.bloomingdales.com/north-michigan-avenue", "opening_hours": "Mo-Sa 11:00-20:00; Su 11:00-19:00", "brand": "Bloomingdale's", "brand:wikidata": "Q283383", "nsi_id": "bloomingdales-592fe0"}, "geometry": {"type": "Point", "coordinates": [-87.624521, 41.89961]}},
{"type": "Feature", "id": "IloMw2VEzXzSjlKneTr6XpvF_zU=", "properties": {"ref": "medinah-home--chicago", "@spider": "bloomingdales", "shop": "department_store", "addr:full": "600 North Wabash Avenue", "addr:city": "Chicago", "addr:state": "IL", "addr:postcode": "60611", "addr:country": "US", "name": "Bloomingdale's - Closed Medinah Home, Chicago", "phone": "(312) 324-7500", "website": "https://locations.bloomingdales.com/medinah-home--chicago", "brand": "Bloomingdale's", "brand:wikidata": "Q283383", "nsi_id": "bloomingdales-592fe0"}, "geometry": {"type": "Point", "coordinates": [-87.6271458, 41.892946]}},
{"type": "Feature", "id": "95Hj1u4rtqOFG7qp9AVKM9lqu6c=", "properties": {"ref": "fashion-outlets-of-chicago", "@spider": "bloomingdales", "shop": "department_store", "addr:full": "5220 Fashion Outlets Way", "addr:city": "Rosemont", "addr:state": "IL", "addr:postcode": "60018", "addr:country": "US", "name": "Bloomingdale's Outlet Fashion Outlets of Chicago", "phone": "(847) 447-1160", "website": "https://locations.bloomingdales.com/fashion-outlets-of-chicago", "opening_hours": "Mo-Sa 11:00-20:00; Su 11:00-19:00", "brand": "Bloomingdale's", "brand:wikidata": "Q283383", "nsi_id": "bloomingdales-592fe0"}, "geometry": {"type": "Point", "coordinates": [-87.86614447832113, 41.974245978170025]}},
{"type": "Feature", "id": "9fcxyviGgHDxnTs4NlWwUvwhoE8=", "properties": {"ref": "bloomie's-old-orchard-il", "@spider": "bloomingdales", "shop": "department_store", "addr:full": "4999 Old Orchard Rd, Suite B10", "addr:city": "Skokie", "addr:state": "IL", "addr:postcode": "60077", "addr:country": "US", "name": "Bloomie's Old Orchard", "phone": "(847) 423-3784", "website": "https://locations.bloomingdales.com/bloomie's-old-orchard-il", "opening_hours": "Th 10:00-21:00", "brand": "Bloomingdale's", "brand:wikidata": "Q283383", "nsi_id": "bloomingdales-592fe0"}, "geometry": {"type": "Point", "coordinates": [-87.75075249766451, 42.06125587241257]}},
{"type": "Feature", "id": "Gu9tDbRlpMIfeicHcSR3GvMitbM=", "properties": {"ref": "old-orchard", "@spider": "bloomingdales", "shop": "department_store", "addr:full": "4963 Old Orchard Center", "addr:city": "Skokie", "addr:state": "IL", "addr:postcode": "60077", "addr:country": "US", "name": "Bloomingdale's Old Orchard", "phone": "(847) 675-5200", "website": "https://locations.bloomingdales.com/old-orchard", "brand": "Bloomingdale's", "brand:wikidata": "Q283383", "nsi_id": "bloomingdales-592fe0"}, "geometry": {"type": "Point", "coordinates": [-87.7507404, 42.0612606]}},
{"type": "Feature", "id": "Y4L1VaXKLvYm7N5cHiWxCYWXn04=", "properties": {"ref": "woodfield-village-green-outlet", "@spider": "bloomingdales", "shop": "department_store", "addr:full": "1450 East Golf Road", "addr:city": "Schaumburg", "addr:state": "IL", "addr:postcode": "60173", "addr:country": "US", "name": "Bloomingdale's Outlet Woodfield Village Green Outlet", "phone": "(847) 598-3990", "website": "https://locations.bloomingdales.com/woodfield-village-green-outlet", "opening_hours": "Mo-Sa 11:00-20:00; Su 11:00-18:00", "brand": "Bloomingdale's", "brand:wikidata": "Q283383", "nsi_id": "bloomingdales-592fe0"}, "geometry": {"type": "Point", "coordinates": [-88.0428039, 42.0526605]}},
{"type": "Feature", "id": "E6DNTySENunFWEMB1ycyka56y7g=", "properties": {"ref": "northbrook-outlet", "@spider": "bloomingdales", "shop": "department_store", "addr:full": "145 Skokie Boulevard", "addr:city": "Northbrook", "addr:state": "IL", "addr:postcode": "60062", "addr:country": "US", "name": "Bloomingdale's Outlet Northbrook Outlet", "phone": "(847) 400-3000", "website": "https://locations.bloomingdales.com/northbrook-outlet", "opening_hours": "Mo-Sa 11:00-20:00; Su 11:00-18:00", "brand": "Bloomingdale's", "brand:wikidata": "Q283383", "nsi_id": "bloomingdales-592fe0"}, "geometry": {"type": "Point", "coordinates": [-87.7982329, 42.15054749999999]}},
{"type": "Feature", "id": "SPfaVBf6ugTl4OYauMAFrSZA8lE=", "properties": {"ref": "ala-moana-center", "@spider": "bloomingdales", "shop": "department_store", "addr:full": "1450 Ala Moana Blvd.", "addr:city": "Honolulu", "addr:state": "HI", "addr:postcode": "96814", "addr:country": "US", "name": "Bloomingdale's Ala Moana Center", "phone": "(808) 664-7511", "website": "https://locations.bloomingdales.com/ala-moana-center", "opening_hours": "Mo-Sa 11:00-20:00; Su 12:00-18:00", "brand": "Bloomingdale's", "brand:wikidata": "Q283383", "nsi_id": "bloomingdales-592fe0"}, "geometry": {"type": "Point", "coordinates": [-157.8458092, 21.2915586]}},
{"type": "Feature", "id": "wS6Zgn9q7Es-d9DFJH-InMti3l0=", "properties": {"ref": "lenox-square", "@spider": "bloomingdales", "shop": "department_store", "addr:full": "3393 Peachtree Road NE", "addr:city": "Atlanta", "addr:state": "GA", "addr:postcode": "30326", "addr:country": "US", "name": "Bloomingdale's Lenox Square", "phone": "(404) 495-2800", "website": "https://locations.bloomingdales.com/lenox-square", "opening_hours": "Mo-Th 11:00-19:00; Fr-Sa 11:00-20:00; Su 12:00-18:00", "brand": "Bloomingdale's", "brand:wikidata": "Q283383", "nsi_id": "bloomingdales-592fe0"}, "geometry": {"type": "Point", "coordinates": [-84.362273, 33.8452846]}},
{"type": "Feature", "id": "dQ100gamaZ-AgDsI3wO9dOwtnWw=", "properties": {"ref": "the-falls--miami", "@spider": "bloomingdales", "shop": "department_store", "addr:full": "8778 SW 136th Street", "addr:city": "Miami", "addr:state": "FL", "addr:postcode": "33176", "addr:country": "US", "name": "Bloomingdale's - Closed The Falls, Miami", "phone": "(305) 252-6300", "website": "https://locations.bloomingdales.com/the-falls--miami", "brand": "Bloomingdale's", "brand:wikidata": "Q283383", "nsi_id": "bloomingdales-592fe0"}, "geometry": {"type": "Point", "coordinates": [-80.3361513, 25.643098]}},
{"type": "Feature", "id": "dAJpGuCytJFkTdmh5v4cKInz6bA=", "properties": {"ref": "boca-raton-town-center", "@spider": "bloomingdales", "shop": "department_store", "addr:full": "5840 Glades Road", "addr:city": "Boca Raton", "addr:state": "FL", "addr:postcode": "33431", "addr:country": "US", "name": "Bloomingdale's Boca Raton Town Center", "phone": "(561) 394-2000", "website": "https://locations.bloomingdales.com/boca-raton-town-center", "opening_hours": "Mo-Sa 11:00-20:00; Su 12:00-19:00", "brand": "Bloomingdale's", "brand:wikidata": "Q283383", "nsi_id": "bloomingdales-592fe0"}, "geometry": {"type": "Point", "coordinates": [-80.1336922, 26.3639622]}},
{"type": "Feature", "id": "u3rIo3u65NSMGIFXd4AIvcuIp9I=", "properties": {"ref": "orlando--the-mall-at-millenia", "@spider": "bloomingdales", "shop": "department_store", "addr:full": "4152 Conroy Road", "addr:city": "Orlando", "addr:state": "FL", "addr:postcode": "32839", "addr:country": "US", "name": "Bloomingdale's Orlando, The Mall at Millenia", "phone": "(407) 264-2400", "website": "https://locations.bloomingdales.com/orlando--the-mall-at-millenia", "opening_hours": "Mo-Sa 11:00-20:00; Su 11:00-19:00", "brand": "Bloomingdale's", "brand:wikidata": "Q283383", "nsi_id": "bloomingdales-592fe0"}, "geometry": {"type": "Point", "coordinates": [-81.4300741, 28.4840338]}},
{"type": "Feature", "id": "Yi0GV5siKOSBCwNzq2TsNx7isyA=", "properties": {"ref": "palm-beach-gardens", "@spider": "bloomingdales", "shop": "department_store", "addr:full": "3105 PGA Boulevard", "addr:city": "Palm Beach Gardens", "addr:state": "FL", "addr:postcode": "33410", "addr:country": "US", "name": "Bloomingdale's Palm Beach Gardens", "phone": "(561) 625-2000", "website": "https://locations.bloomingdales.com/palm-beach-gardens", "opening_hours": "Mo-Sa 10:00-20:00; Su 12:00-18:00", "brand": "Bloomingdale's", "brand:wikidata": "Q283383", "nsi_id": "bloomingdales-592fe0"}, "geometry": {"type": "Point", "coordinates": [-80.08445581421256, 26.84928089135817]}},
{"type": "Feature", "id": "sYyvuOdE6roWAgnvdMXh3oBRpCw=", "properties": {"ref": "aventura", "@spider": "bloomingdales", "shop": "department_store", "addr:full": "19555 Biscayne Boulevard", "addr:city": "Aventura", "addr:state": "FL", "addr:postcode": "33180", "addr:country": "US", "name": "Bloomingdale's Aventura", "phone": "(305) 792-1000", "website": "https://locations.bloomingdales.com/aventura", "opening_hours": "Mo-Sa 11:00-21:00; Su 11:00-20:00", "brand": "Bloomingdale's", "brand:wikidata": "Q283383", "nsi_id": "bloomingdales-592fe0"}, "geometry": {"type": "Point", "coordinates": [-80.1409909, 25.954949]}},
{"type": "Feature", "id": "zPMwUgUcELEJf6Ml6gmCx-OcUNU=", "properties": {"ref": "the-colonnade-outlet-at-sawgrass-mills", "@spider": "bloomingdales", "shop": "department_store", "addr:full": "12801 W. Sunrise Blvd.", "addr:city": "Sunrise", "addr:state": "FL", "addr:postcode": "33323", "addr:country": "US", "name": "Bloomingdale's Outlet The Colonnade Outlet at Sawgrass Mills", "phone": "(954) 835-2800", "website": "https://locations.bloomingdales.com/the-colonnade-outlet-at-sawgrass-mills", "opening_hours": "Mo-Sa 11:00-20:00; Su 11:00-19:00", "brand": "Bloomingdale's", "brand:wikidata": "Q283383", "nsi_id": "bloomingdales-592fe0"}, "geometry": {"type": "Point", "coordinates": [-80.32296806573868, 26.15018215824525]}},
{"type": "Feature", "id": "1C2KGAMLG-4J3gvciBpUGWezvI4=", "properties": {"ref": "dolphin-mall-outlet", "@spider": "bloomingdales", "shop": "department_store", "addr:full": "11401 NW 12th Street", "addr:city": "Miami", "addr:state": "FL", "addr:postcode": "33172", "addr:country": "US", "name": "Bloomingdale's Outlet Dolphin Mall Outlet", "phone": "(305) 597-2080", "website": "https://locations.bloomingdales.com/dolphin-mall-outlet", "opening_hours": "Mo-Sa 11:00-20:00; Su 11:00-18:00", "brand": "Bloomingdale's", "brand:wikidata": "Q283383", "nsi_id": "bloomingdales-592fe0"}, "geometry": {"type": "Point", "coordinates": [-80.379106, 25.786683]}},
{"type": "Feature", "id": "OxYzwVFUxtAFONJoau2yvH5vYI8=", "properties": {"ref": "miromar-outlets", "@spider": "bloomingdales", "shop": "department_store", "addr:full": "10801 Corkscrew Road", "addr:city": "Estero", "addr:state": "FL", "addr:postcode": "33928", "addr:country": "US", "name": "Bloomingdale's Outlet - Closed Miromar Outlets", "phone": "(239) 271-3455", "website": "https://locations.bloomingdales.com/miromar-outlets", "brand": "Bloomingdale's", "brand:wikidata": "Q283383", "nsi_id": "bloomingdales-592fe0"}, "geometry": {"type": "Point", "coordinates": [-81.7758982, 26.4342624]}},
{"type": "Feature", "id": "1bVULM1T3p_Cv2AAtImctsmLat0=", "properties": {"ref": "norwalk", "@spider": "bloomingdales", "shop": "department_store", "addr:full": "100 North Water Street", "addr:city": "Norwalk", "addr:state": "CT", "addr:postcode": "06854", "addr:country": "US", "name": "Bloomingdale's Norwalk", "phone": "(203) 295-6000", "website": "https://locations.bloomingdales.com/norwalk", "opening_hours": "Mo-Th 11:00-19:00; Fr-Sa 11:00-20:00; Su 11:00-18:00", "brand": "Bloomingdale's", "brand:wikidata": "Q283383", "nsi_id": "bloomingdales-592fe0"}, "geometry": {"type": "Point", "coordinates": [-73.4192096, 41.1037996]}},
{"type": "Feature", "id": "u7jkROCj1aR8_6fpeXAr4Lq0xAk=", "properties": {"ref": "metro-pointe-outlet", "@spider": "bloomingdales", "shop": "department_store", "addr:full": "901 B South Coast Drive", "addr:city": "Costa Mesa", "addr:state": "CA", "addr:postcode": "92626", "addr:country": "US", "name": "Bloomingdale's Outlet Metro Pointe Outlet", "phone": "(657) 205-4800", "website": "https://locations.bloomingdales.com/metro-pointe-outlet", "opening_hours": "Mo-Sa 11:00-20:00; Su 11:00-18:00", "brand": "Bloomingdale's", "brand:wikidata": "Q283383", "nsi_id": "bloomingdales-592fe0"}, "geometry": {"type": "Point", "coordinates": [-117.8956136, 33.6892039]}},
{"type": "Feature", "id": "y0XmIcZ8Av-J8pxiIZIKXPX5DO4=", "properties": {"ref": "beverly-center", "@spider": "bloomingdales", "shop": "department_store", "addr:full": "8500 Beverly Boulevard", "addr:city": "Los Angeles", "addr:state": "CA", "addr:postcode": "90048", "addr:country": "US", "name": "Bloomingdale's Beverly Center", "phone": "(310) 360-2700", "website": "https://locations.bloomingdales.com/beverly-center", "opening_hours": "Mo-Sa 11:00-20:00; Su 11:00-18:00", "brand": "Bloomingdale's", "brand:wikidata": "Q283383", "nsi_id": "bloomingdales-592fe0"}, "geometry": {"type": "Point", "coordinates": [-118.377147, 34.073883]}},
{"type": "Feature", "id": "-7bjQDe0QZ3Vs-VW1XVPSYvfPQQ=", "properties": {"ref": "san-francisco-centre", "@spider": "bloomingdales", "shop": "department_store", "addr:full": "845 Market Street", "addr:city": "San Francisco", "addr:state": "CA", "addr:postcode": "94103", "addr:country": "US", "name": "Bloomingdale's San Francisco Centre", "phone": "(415) 856-5300", "website": "https://locations.bloomingdales.com/san-francisco-centre", "opening_hours": "Mo-Th 11:00-19:00; Fr-Sa 11:00-20:00; Su 11:00-18:00", "brand": "Bloomingdale's", "brand:wikidata": "Q283383", "nsi_id": "bloomingdales-592fe0"}, "geometry": {"type": "Point", "coordinates": [-122.4057398, 37.7837826]}},
{"type": "Feature", "id": "JKSTUFylH3RLA9_UVz0-myENMSE=", "properties": {"ref": "fashion-valley--san-diego", "@spider": "bloomingdales", "shop": "department_store", "addr:full": "7057 Friars Road", "addr:city": "San Diego", "addr:state": "CA", "addr:postcode": "92108", "addr:country": "US", "name": "Bloomingdale's Fashion Valley, San Diego", "phone": "(619) 610-6400", "website": "https://locations.bloomingdales.com/fashion-valley--san-diego", "opening_hours": "Mo-Sa 11:00-20:00; Su 11:00-19:00", "brand": "Bloomingdale's", "brand:wikidata": "Q283383", "nsi_id": "bloomingdales-592fe0"}, "geometry": {"type": "Point", "coordinates": [-117.1645058, 32.768953]}},
{"type": "Feature", "id": "NPxxtfS5bI3ibftjDQv-KuU1Lfw=", "properties": {"ref": "newport-fashion-island", "@spider": "bloomingdales", "shop": "department_store", "addr:full": "701 Newport Center Drive", "addr:city": "Newport Beach", "addr:state": "CA", "addr:postcode": "92660", "addr:country": "US", "name": "Bloomingdale's Newport Fashion Island", "phone": "(949) 729-6600", "website": "https://locations.bloomingdales.com/newport-fashion-island", "opening_hours": "Mo-Sa 11:00-20:00; Su 11:00-18:00", "brand": "Bloomingdale's", "brand:wikidata": "Q283383", "nsi_id": "bloomingdales-592fe0"}, "geometry": {"type": "Point", "coordinates": [-117.8757824, 33.6173986]}},
{"type": "Feature", "id": "o7yr63-dPCqWa3dt8121nJmktGE=", "properties": {"ref": "south-coast-plaza", "@spider": "bloomingdales", "shop": "department_store", "addr:full": "3333 South Bristol Street", "addr:city": "Costa Mesa", "addr:state": "CA", "addr:postcode": "92626", "addr:country": "US", "name": "Bloomingdale's South Coast Plaza", "phone": "(714) 824-4600", "website": "https://locations.bloomingdales.com/south-coast-plaza", "opening_hours": "Mo-Sa 10:00-21:00; Su 11:00-19:00", "brand": "Bloomingdale's", "brand:wikidata": "Q283383", "nsi_id": "bloomingdales-592fe0"}, "geometry": {"type": "Point", "coordinates": [-117.88821071409882, 33.68920339828414]}},
{"type": "Feature", "id": "1v9x-DzcDJLaRiqdM5m0rtZ5EcY=", "properties": {"ref": "santa-monica-place", "@spider": "bloomingdales", "shop": "department_store", "addr:full": "315 Colorado Avenue", "addr:city": "Santa Monica", "addr:state": "CA", "addr:postcode": "90401", "addr:country": "US", "name": "Bloomingdale's - Closed Santa Monica Place", "phone": "(310) 985-6400", "website": "https://locations.bloomingdales.com/santa-monica-place", "brand": "Bloomingdale's", "brand:wikidata": "Q283383", "nsi_id": "bloomingdales-592fe0"}, "geometry": {"type": "Point", "coordinates": [-118.4927829, 34.0137147]}},
{"type": "Feature", "id": "cq9DyqldVnuydR-uZ24BeDDMx7E=", "properties": {"ref": "livermore-premium-outlets", "@spider": "bloomingdales", "shop": "department_store", "addr:full": "3130 Livermore Outlets Drive", "addr:city": "Livermore", "addr:state": "CA", "addr:postcode": "94551", "addr:country": "US", "name": "Bloomingdale's Outlet San Francisco Premium Outlets", "phone": "(925) 273-6190", "website": "https://locations.bloomingdales.com/livermore-premium-outlets", "opening_hours": "Mo-Sa 11:00-20:00; Su 11:00-18:00", "brand": "Bloomingdale's", "brand:wikidata": "Q283383", "nsi_id": "bloomingdales-592fe0"}, "geometry": {"type": "Point", "coordinates": [-121.8430012, 37.6993067]}},
{"type": "Feature", "id": "HeqHCsJwkks7TyU9uAsdxSYHQMg=", "properties": {"ref": "valley-fair", "@spider": "bloomingdales", "shop": "department_store", "addr:full": "2847 Stevens Creek Blvd", "addr:city": "Santa Clara", "addr:state": "CA", "addr:postcode": "95050", "addr:country": "US", "name": "Bloomingdale's Valley Fair", "phone": "(408) 878-6200", "website": "https://locations.bloomingdales.com/valley-fair", "opening_hours": "Mo-Sa 11:00-21:00; Su 11:00-19:00", "brand": "Bloomingdale's", "brand:wikidata": "Q283383", "nsi_id": "bloomingdales-592fe0"}, "geometry": {"type": "Point", "coordinates": [-121.9450654, 37.3243263]}},
{"type": "Feature", "id": "GhW2MntnqwoNCpla5QVr_9dTarM=", "properties": {"ref": "woodland-hills-outlet", "@spider": "bloomingdales", "shop": "department_store", "addr:full": "21494 VICTORY BLVD", "addr:city": "Woodland Hills", "addr:state": "CA", "addr:postcode": "91367", "addr:country": "US", "name": "Bloomingdale's Woodland Hills Outlet", "phone": "(818) 431-6100", "website": "https://locations.bloomingdales.com/woodland-hills-outlet", "opening_hours": "Mo-Sa 10:00-20:00; Su 11:00-19:00", "brand": "Bloomingdale's", "brand:wikidata": "Q283383", "nsi_id": "bloomingdales-592fe0"}, "geometry": {"type": "Point", "coordinates": [-118.59957501226845, 34.18647997186208]}},
{"type": "Feature", "id": "abj0cmSIPsI8TkZjJlFTUQT39-I=", "properties": {"ref": "outlets-at-orange", "@spider": "bloomingdales", "shop": "department_store", "addr:full": "20 City Boulevard West", "addr:city": "Orange", "addr:state": "CA", "addr:postcode": "92868", "addr:country": "US", "name": "Bloomingdale's Outlet Outlets at Orange", "phone": "(714) 923-4050", "website": "https://locations.bloomingdales.com/outlets-at-orange", "opening_hours": "Mo-Sa 11:00-20:00; Su 11:00-18:00", "brand": "Bloomingdale's", "brand:wikidata": "Q283383", "nsi_id": "bloomingdales-592fe0"}, "geometry": {"type": "Point", "coordinates": [-117.891516, 33.7835453]}},
{"type": "Feature", "id": "duoKxv6PUWFkVJVGYn1XGgQjJ4Q=", "properties": {"ref": "mission-valley-outlet", "@spider": "bloomingdales", "shop": "department_store", "addr:full": "1646 Camino del Rio North", "addr:city": "San Diego", "addr:state": "CA", "addr:postcode": "92108", "addr:country": "US", "name": "Bloomingdale's Outlet Mission Valley Outlet", "phone": "(619) 881-2050", "website": "https://locations.bloomingdales.com/mission-valley-outlet", "opening_hours": "Mo-Sa 11:00-20:00; Su 11:00-18:00", "brand": "Bloomingdale's", "brand:wikidata": "Q283383", "nsi_id": "bloomingdales-592fe0"}, "geometry": {"type": "Point", "coordinates": [-117.146788, 32.7694312]}},
{"type": "Feature", "id": "tcIJ9xex_fpE4pimjpmXGTDg4p4=", "properties": {"ref": "sherman-oaks-fashion-square", "@spider": "bloomingdales", "shop": "department_store", "addr:full": "14060 Riverside Drive", "addr:city": "Sherman Oaks", "addr:state": "CA", "addr:postcode": "91423", "addr:country": "US", "name": "Bloomingdale's Sherman Oaks Fashion Square", "phone": "(818) 325-2200", "website": "https://locations.bloomingdales.com/sherman-oaks-fashion-square", "opening_hours": "Mo-Th 11:00-20:00; Fr-Sa 11:00-21:00; Su 11:00-19:00", "brand": "Bloomingdale's", "brand:wikidata": "Q283383", "nsi_id": "bloomingdales-592fe0"}, "geometry": {"type": "Point", "coordinates": [-118.4393248, 34.1571124]}},
{"type": "Feature", "id": "q7JY8HHiEP1geO1CDkpWqmqDAKQ=", "properties": {"ref": "glendale-galleria", "@spider": "bloomingdales", "shop": "department_store", "addr:full": "103 South Brand Blvd.", "addr:city": "Glendale", "addr:state": "CA", "addr:postcode": "91210", "addr:country": "US", "name": "Bloomingdale's Glendale Galleria", "phone": "(818) 638-4100", "website": "https://locations.bloomingdales.com/glendale-galleria", "opening_hours": "Mo-Th 11:00-20:00; Fr-Sa 11:00-21:00; Su 11:00-19:00", "brand": "Bloomingdale's", "brand:wikidata": "Q283383", "nsi_id": "bloomingdales-592fe0"}, "geometry": {"type": "Point", "coordinates": [-118.255531, 34.145967]}},
{"type": "Feature", "id": "_S4rh_3fl3t9uRSlrGCpdWakQQA=", "properties": {"ref": "century-city", "@spider": "bloomingdales", "shop": "department_store", "addr:full": "10250 Santa Monica Boulevard", "addr:city": "Los Angeles", "addr:state": "CA", "addr:postcode": "90067", "addr:country": "US", "name": "Bloomingdale's Century City", "phone": "(310) 772-2100", "website": "https://locations.bloomingdales.com/century-city", "opening_hours": "Mo-Sa 11:00-21:00; Su 11:00-19:00", "brand": "Bloomingdale's", "brand:wikidata": "Q283383", "nsi_id": "bloomingdales-592fe0"}, "geometry": {"type": "Point", "coordinates": [-118.4191428, 34.0589814]}}]}