{"type":"FeatureCollection","features":[{"type": "Feature", "id": "I7Q1v_lJUM8xRxLd1Ed5DQAwKS0=", "properties": {"ref": "phoenix-az", "@spider": "blue_pearl_pet_hospital", "addr:full": "3110 E. Indian School Rd.", "addr:city": "Phoenix", "addr:state": "AZ", "addr:postcode": "85016", "addr:country": "US", "name": "BluePearl Pet Hospital Phoenix, AZ", "phone": "6029953757", "website": "https://bluepearlvet.com/hospital/phoenix-az/"}},
{"type": "Feature", "id": "tSw4QgbFy2NAgHFdLf5DD-EV9LI=", "properties": {"ref": "animal-critical-care-and-emergency-services-lakewood-co", "@spider": "blue_pearl_pet_hospital", "addr:full": "2201 Wadsworth Blvd.", "addr:city": "Lakewood", "addr:state": "CO", "addr:postcode": "80214", "addr:country": "US", "name": "Animal Critical Care and Emergency Services<br>Lakewood, CO<br>Emergency Vet", "phone": "3032391200", "website": "https://bluepearlvet.com/hospital/animal-critical-care-and-emergency-services-lakewood-co/"}},
{"type": "Feature", "id": "4iHAYytV2fnB6lXaOzJ7EKSLtl0=", "properties": {"ref": "chesapeake-va", "@spider": "blue_pearl_pet_hospital", "addr:full": "1100 Eden Way N", "addr:city": "Chesapeake", "addr:state": "VA", "addr:postcode": "23320", "addr:country": "US", "name": "BluePearl Pet Hospital Chesapeake, VA", "phone": "7573669000", "website": "https://bluepearlvet.com/hospital/chesapeake-va/"}},
{"type": "Feature", "id": "TQT1gAI6WsMfXPFutgVOCcI5ZxY=", "properties": {"ref": "fox-valley-wi", "@spider": "blue_pearl_pet_hospital", "addr:full": "4706 New Horizons Blvd.", "addr:city": "Appleton", "addr:state": "WI", "addr:postcode": "54914", "addr:country": "US", "name": "BluePearl Pet Hospital Fox Valley Appleton, WI", "phone": "9209939193", "website": "https://bluepearlvet.com/hospital/fox-valley-wi/"}},
{"type": "Feature", "id": "HsOtMw99Tf-4cmACsY30eg71MOQ=", "properties": {"ref": "greenway-houston-tx", "@spider": "blue_pearl_pet_hospital", "addr:full": "3800 Southwest Frwy.,", "addr:city": "Houston", "addr:state": "TX", "addr:postcode": "77027", "addr:country": "US", "name": "BluePearl Specialty Pet Hospital - Houston, TX", "phone": "7139999538", "website": "https://bluepearlvet.com/hospital/greenway-houston-tx/"}},
{"type": "Feature", "id": "720-BQ6y05N_FTY03qX9b2OmyYI=", "properties": {"ref": "gainesville-fl", "@spider": "blue_pearl_pet_hospital", "addr:full": "7314 W University Ave.", "addr:city": "Gainesville", "addr:state": "FL", "addr:postcode": "32607", "addr:country": "US", "name": "BluePearl Pet Hospital Gainesville, FL", "phone": "3526726718", "website": "https://bluepearlvet.com/hospital/gainesville-fl/"}},
{"type": "Feature", "id": "Q7H0Il-HOzLdV7ygV96QPbR8roU=", "properties": {"ref": "jacksonville-fl", "@spider": "blue_pearl_pet_hospital", "addr:full": "3444 Southside Blvd.,", "addr:city": "Jacksonville", "addr:state": "FL", "addr:postcode": "32216", "addr:country": "US", "name": "BluePearl Pet Hospital Jacksonville, FL", "phone": "9046461287", "website": "https://bluepearlvet.com/hospital/jacksonville-fl/"}},
{"type": "Feature", "id": "wzUy3KzvajDHNnNAEX-2rvOk5m0=", "properties": {"ref": "kansas-city-northland-mo", "@spider": "blue_pearl_pet_hospital", "addr:full": "139 NE 91st St.", "addr:city": "Kansas City", "addr:state": "MO", "addr:postcode": "64155", "addr:country": "US", "name": "BluePearl Pet Hospital Kansas City, MO", "phone": "8167595016", "website": "https://bluepearlvet.com/hospital/kansas-city-northland-mo/"}},
{"type": "Feature", "id": "jdCWz54FwFTZJdOFGK56B57v9gU=", "properties": {"ref": "southwest-portland-or", "@spider": "blue_pearl_pet_hospital", "addr:full": "10245 SW Park Way", "addr:city": "Portland", "addr:state": "OR", "addr:postcode": "97225", "addr:country": "US", "name": "Veterinary Surgical Center of Portland, OR - Specialty Animal Hospital", "phone": "5032920931", "website": "https://bluepearlvet.com/hospital/southwest-portland-or/"}},
{"type": "Feature", "id": "xcYKOg_IOEBnkaAzceWFPkl9Sac=", "properties": {"ref": "scottsdale-az", "@spider": "blue_pearl_pet_hospital", "addr:full": "22595 N Scottsdale Rd.,", "addr:city": "Scottsdale", "addr:state": "AZ", "addr:postcode": "85255", "addr:country": "US", "name": "BluePearl Pet Hospital Scottsdale, AZ", "phone": "4809498001", "website": "https://bluepearlvet.com/hospital/scottsdale-az/"}},
{"type": "Feature", "id": "x6QpkJX0mi30QgfYkm2PhYuEzSQ=", "properties": {"ref": "philadelphia-pa", "@spider": "blue_pearl_pet_hospital", "addr:full": "1114 S Front St.", "addr:city": "Philadelphia", "addr:state": "PA", "addr:postcode": "19147", "addr:country": "US", "name": "Veterinary Specialty & Emergency Center Philadelphia, PA", "phone": "2678001950", "website": "https://bluepearlvet.com/hospital/philadelphia-pa/"}},
{"type": "Feature", "id": "Hl4y-kP4HlOoggs6J_6jq-nog18=", "properties": {"ref": "northeast-portland-or", "@spider": "blue_pearl_pet_hospital", "addr:full": "2030 NE 42nd Ave.", "addr:city": "Portland", "addr:state": "OR", "addr:postcode": "97213", "addr:country": "US", "name": "BluePearl Pet Hospital<br>Northeast Portland<br>Portland, OR<br>Emergency Vet", "phone": "5035012375", "website": "https://bluepearlvet.com/hospital/northeast-portland-or/"}},
{"type": "Feature", "id": "5X7sC8Fx__rTTi38Z_L-XQzEd4k=", "properties": {"ref": "columbia-sc", "@spider": "blue_pearl_pet_hospital", "addr:full": "3912 Fernandina Rd.", "addr:city": "Columbia", "addr:state": "SC", "addr:postcode": "29210", "addr:country": "US", "name": "BluePearl Pet Hospital | Columbia, SC | Veterinary Surgery & Neurology", "phone": "8037980803", "website": "https://bluepearlvet.com/hospital/columbia-sc/"}},
{"type": "Feature", "id": "RoImNI2Bpu5bLBX71Yl6Ud9vDj4=", "properties": {"ref": "southfield-mi", "@spider": "blue_pearl_pet_hospital", "addr:full": "29080 Inkster Rd.", "addr:city": "Southfield", "addr:state": "MI", "addr:postcode": "48034", "addr:country": "US", "name": "BluePearl Pet Hospital Southfield, MI", "phone": "2483546640", "website": "https://bluepearlvet.com/hospital/southfield-mi/"}},
{"type": "Feature", "id": "vw8r87QQxIoJYHQM5D4__AGiEOk=", "properties": {"ref": "fort-lauderdale-fl", "@spider": "blue_pearl_pet_hospital", "addr:full": "3217 NW 10th Terr.", "addr:city": "Ft. Lauderdale", "addr:state": "FL", "addr:postcode": "33309", "addr:country": "US", "name": "BluePearl Pet Hospital Fort Lauderdale, FL", "phone": "9546411100", "website": "https://bluepearlvet.com/hospital/fort-lauderdale-fl/"}},
{"type": "Feature", "id": "W8aTO1vrDgx8eoBqChGJ3A-3UlA=", "properties": {"ref": "auburn-hills-mi", "@spider": "blue_pearl_pet_hospital", "addr:full": "3412 E Walton Blvd.", "addr:city": "Auburn Hills", "addr:state": "MI", "addr:postcode": "48326", "addr:country": "US", "name": "BluePearl Pet Hospital Auburn Hills, MI", "phone": "2483713713", "website": "https://bluepearlvet.com/hospital/auburn-hills-mi/"}},
{"type": "Feature", "id": "-7bU8bQKUo5UMLW7NLBL8-ab-E8=", "properties": {"ref": "green-bay-wi", "@spider": "blue_pearl_pet_hospital", "addr:full": "2141 Lime Kiln Rd.", "addr:city": "Green Bay", "addr:state": "WI", "addr:postcode": "54311", "addr:country": "US", "name": "BluePearl Pet Hospital, Green Bay WI", "phone": "9204949400", "website": "https://bluepearlvet.com/hospital/green-bay-wi/"}},
{"type": "Feature", "id": "ivK3IBojhWrMVLmwwxLvrZ_4XCc=", "properties": {"ref": "stone-oak-tx", "@spider": "blue_pearl_pet_hospital", "addr:full": "503 E Sonterra Blvd.", "addr:city": "San Antonio", "addr:state": "TX", "addr:postcode": "78258", "addr:country": "US", "name": "BluePearl Pet Hospital Stone Oak, TX", "phone": "2109308383", "website": "https://bluepearlvet.com/hospital/stone-oak-tx/"}},
{"type": "Feature", "id": "1aLo1A6J6kpuApHCSNRlM6kI8tE=", "properties": {"ref": "augusta-ga", "@spider": "blue_pearl_pet_hospital", "addr:full": "410 Topgolf Way ", "addr:city": "Augusta", "addr:state": "GA", "addr:postcode": "30909", "addr:country": "US", "name": "BluePearl Pet Hospital, Augusta, GA", "phone": "7067337458", "website": "https://bluepearlvet.com/hospital/augusta-ga/"}},
{"type": "Feature", "id": "m21D56bH_TdusE5k0X-ANXt8p0k=", "properties": {"ref": "virginia-beach-va", "@spider": "blue_pearl_pet_hospital", "addr:full": "364 S Independence Blvd.", "addr:city": "Virginia Beach", "addr:state": "VA", "addr:postcode": "23452", "addr:country": "US", "name": "BluePearl Pet Hospital Virginia Beach, VA", "phone": "7574995463", "website": "https://bluepearlvet.com/hospital/virginia-beach-va/"}},
{"type": "Feature", "id": "_oTOsNA88thjatLdIngR6A1pnPo=", "properties": {"ref": "overland-park-ks", "@spider": "blue_pearl_pet_hospital", "addr:full": "11950 W 110th St.", "addr:city": "Overland Park", "addr:state": "KS", "addr:postcode": "66210", "addr:country": "US", "name": "BluePearl Pet Hospital Overland Park, KS", "phone": "9136429563", "website": "https://bluepearlvet.com/hospital/overland-park-ks/"}},
{"type": "Feature", "id": "fhQO-XgZA4vRej0pqWP5zFj5HJI=", "properties": {"ref": "port-washington-wi", "@spider": "blue_pearl_pet_hospital", "addr:full": "207 W Seven Hills Rd.", "addr:city": "Port Washington", "addr:state": "WI", "addr:postcode": "53074", "addr:country": "US", "name": "BluePearl Pet Hospital <br>Port Washington, WI <br>Emergency Vet", "phone": "2622687800", "website": "https://bluepearlvet.com/hospital/port-washington-wi/"}},
{"type": "Feature", "id": "UC0UkyCpTPmsntqmBzaLUmse694=", "properties": {"ref": "oak-creek-wi", "@spider": "blue_pearl_pet_hospital", "addr:full": "9472 S 27th St.", "addr:city": "Oak Creek", "addr:state": "WI", "addr:postcode": "53154", "addr:country": "US", "name": "BluePearl Pet Hospital <br>Oak Creek, WI <br>Emergency Vet", "phone": "4147616333", "website": "https://bluepearlvet.com/hospital/oak-creek-wi/"}},
{"type": "Feature", "id": "frsDJDnxBjpUHx53mypfTTYOpVU=", "properties": {"ref": "glendale-wi", "@spider": "blue_pearl_pet_hospital", "addr:full": "2100 W Silver Spring Dr.", "addr:city": "Glendale", "addr:state": "WI", "addr:postcode": "53209", "addr:country": "US", "name": "BluePearl Pet Hospital <br>Glendale, WI <br>Emergency Vet", "phone": "4145406710", "website": "https://bluepearlvet.com/hospital/glendale-wi/"}},
{"type": "Feature", "id": "mi2hlkxFGq-JWPTU27CCdV1oJRc=", "properties": {"ref": "franklin-tn", "@spider": "blue_pearl_pet_hospital", "addr:full": "3020 Mallory Ln.", "addr:city": "Franklin", "addr:state": "TN", "addr:postcode": "37067", "addr:country": "US", "name": "BluePearl Pet Hospital Franklin, TN", "phone": "6153331212", "website": "https://bluepearlvet.com/hospital/franklin-tn/"}},
{"type": "Feature", "id": "coMaHEjZEhqIIXVgR2hfC-BtQD8=", "properties": {"ref": "rockville-md", "@spider": "blue_pearl_pet_hospital", "addr:full": "1 Taft Ct.", "addr:city": "Rockville", "addr:state": "MD", "addr:postcode": "20850", "addr:country": "US", "name": "BluePearl Pet Hospital Rockville, MD", "phone": "3016373228", "website": "https://bluepearlvet.com/hospital/rockville-md/"}},
{"type": "Feature", "id": "8fDF-QXL4p-_npx8A0qs10nEGTo=", "properties": {"ref": "mount-pleasant-sc", "@spider": "blue_pearl_pet_hospital", "addr:full": "985 Johnnie Dodds Blvd.", "addr:city": "Mount Pleasant", "addr:state": "SC", "addr:postcode": "29464", "addr:country": "US", "name": "Veterinary Specialty Care | Mount Pleasant, SC | 24/7 Emergency Vet ", "phone": "8432167554", "website": "https://bluepearlvet.com/hospital/mount-pleasant-sc/"}},
{"type": "Feature", "id": "A6KgXnFhgGJTQ8PfAQL13A5opyo=", "properties": {"ref": "orange-park-fl", "@spider": "blue_pearl_pet_hospital", "addr:full": "275 Corporate Way,", "addr:city": "Orange Park", "addr:state": "FL", "addr:postcode": "32073", "addr:country": "US", "name": "BluePearl Pet Hospital Orange Park, FL", "phone": "9042780287", "website": "https://bluepearlvet.com/hospital/orange-park-fl/"}},
{"type": "Feature", "id": "Pgbivw7O78xvD3LRBSDMJRpakZg=", "properties": {"ref": "summerville-sc", "@spider": "blue_pearl_pet_hospital", "addr:full": "319 E. 3rd N. St", "addr:city": "Summerville", "addr:state": "SC", "addr:postcode": "29483", "addr:country": "US", "name": "Veterinary Specialty Care | Summerville, SC | 24/7 Emergency Vet", "phone": "8432167554", "website": "https://bluepearlvet.com/hospital/summerville-sc/"}},
{"type": "Feature", "id": "O7MqkRsT3Mz8SNLLj1Z9xE29YQA=", "properties": {"ref": "maitland-fl", "@spider": "blue_pearl_pet_hospital", "addr:full": "9905 S U.S. Hwy. 17-92", "addr:city": "Maitland", "addr:state": "FL", "addr:postcode": "32751", "addr:country": "US", "name": "BluePearl Pet Hospital - Orlando Maitland, FL", "phone": "4076441287", "website": "https://bluepearlvet.com/hospital/maitland-fl/"}},
{"type": "Feature", "id": "aTgxzE_zfDBLJczF8aGzZThizYc=", "properties": {"ref": "sandy-springs-ga", "@spider": "blue_pearl_pet_hospital", "addr:full": "455 Abernathy Rd. NE", "addr:city": "Sandy Springs", "addr:state": "GA", "addr:postcode": "30328", "addr:country": "US", "name": "BluePearl Pet Hospital Sandy Springs, GA", "phone": "4044590903", "website": "https://bluepearlvet.com/hospital/sandy-springs-ga/"}},
{"type": "Feature", "id": "kqZIkn0s56maO0EysbnoZnTqIw8=", "properties": {"ref": "lewisville-tx", "@spider": "blue_pearl_pet_hospital", "addr:full": "2700 Lake Vista Dr.", "addr:city": "Lewisville", "addr:state": "TX", "addr:postcode": "75067", "addr:country": "US", "name": "BluePearl Pet Hospital, North Dallas, Lewisville, TX", "phone": "9728207099", "website": "https://bluepearlvet.com/hospital/lewisville-tx/"}},
{"type": "Feature", "id": "6LIMOgw7ftMVBFh-7imjF6p_N-g=", "properties": {"ref": "durham-nc", "@spider": "blue_pearl_pet_hospital", "addr:full": "7015 NC Hwy. 751", "addr:city": "Durham", "addr:state": "NC", "addr:postcode": "27707", "addr:country": "US", "name": "BluePearl Pet Hospital - Durham, NC", "phone": "9196006600", "website": "https://bluepearlvet.com/hospital/durham-nc/"}},
{"type": "Feature", "id": "Prv20Tb9PJDssjiP2D_k-OIwzqQ=", "properties": {"ref": "grand-rapids-mi", "@spider": "blue_pearl_pet_hospital", "addr:full": "1425 Michigan St. NE", "addr:city": "Grand Rapids", "addr:state": "MI", "addr:postcode": "49503", "addr:country": "US", "name": "BluePearl Pet Hospital Grand Rapids, MI", "phone": "6162845300", "website": "https://bluepearlvet.com/hospital/grand-rapids-mi/"}},
{"type": "Feature", "id": "3QkHor07mbELgJe5ZMtrQAS1SJQ=", "properties": {"ref": "duluth-mn", "@spider": "blue_pearl_pet_hospital", "addr:full": "2314 W Michigan St.", "addr:city": "Duluth", "addr:state": "MN", "addr:postcode": "55806", "addr:country": "US", "name": "BluePearl Pet Hospital Duluth, MN", "phone": "2183028000", "website": "https://bluepearlvet.com/hospital/duluth-mn/"}},
{"type": "Feature", "id": "V9E3OB4afbesxGdotZFWAJ8MJww=", "properties": {"ref": "tacoma-wa", "@spider": "blue_pearl_pet_hospital", "addr:full": "2510 84th St. S,   ", "addr:city": "Lakewood", "addr:state": "WA", "addr:postcode": "98499", "addr:country": "US", "name": "BluePearl Pet Hospital Tacoma, WA", "phone": "2534740791", "website": "https://bluepearlvet.com/hospital/tacoma-wa/"}},
{"type": "Feature", "id": "cLss-hrNA0WDQ_GXxpV4IO009eg=", "properties": {"ref": "oklahoma-city-ok", "@spider": "blue_pearl_pet_hospital", "addr:full": "1401 W Memorial Rd.", "addr:city": "Oklahoma City", "addr:state": "OK", "addr:postcode": "73134", "addr:country": "US", "name": "BluePearl Pet Hospital Oklahoma City, OK", "phone": "4057496989", "website": "https://bluepearlvet.com/hospital/oklahoma-city-ok/"}},
{"type": "Feature", "id": "N6PxYCvC9LHWXxv0cykUjCX0OKU=", "properties": {"ref": "midtown-nyc", "@spider": "blue_pearl_pet_hospital", "addr:full": "410 W 55th St.", "addr:city": "New York", "addr:state": "NY", "addr:postcode": "10019", "addr:country": "US", "name": "BluePearl Pet Hospital Midtown, NY", "phone": "2127670099", "website": "https://bluepearlvet.com/hospital/midtown-nyc/"}},
{"type": "Feature", "id": "K2r6woailgG272ncBYHcGLOxFRk=", "properties": {"ref": "downtown-nyc", "@spider": "blue_pearl_pet_hospital", "addr:full": "1 W 15th St.", "addr:city": "New York", "addr:state": "NY", "addr:postcode": "10011", "addr:country": "US", "name": "BluePearl Pet Hospital Downtown NYC", "phone": "2129243311", "website": "https://bluepearlvet.com/hospital/downtown-nyc/"}},
{"type": "Feature", "id": "IXCOb8qfLxPgca7XkWSapnN4ws0=", "properties": {"ref": "st-cloud-mn", "@spider": "blue_pearl_pet_hospital", "addr:full": "4180 Thielman Ln.", "addr:city": "St. Cloud", "addr:state": "MN", "addr:postcode": "56301", "addr:country": "US", "name": "BluePearl Pet Hospital St. Cloud, MN", "phone": "3202583481", "website": "https://bluepearlvet.com/hospital/st-cloud-mn/"}},
{"type": "Feature", "id": "Zi74_0C5j693Uxv-JZ7SY5F0PRI=", "properties": {"ref": "cedar-rapids-ia", "@spider": "blue_pearl_pet_hospital", "addr:full": "755 Capital Dr. SW", "addr:city": "Cedar Rapids", "addr:state": "IA", "addr:postcode": "52404", "addr:country": "US", "name": "BluePearl Pet Hospital Cedar Rapids, IA", "phone": "3198415161", "website": "https://bluepearlvet.com/hospital/cedar-rapids-ia/"}},
{"type": "Feature", "id": "iRKXtI8pfBVJU3eLANMW5WiyrGs=", "properties": {"ref": "reno-nv", "@spider": "blue_pearl_pet_hospital", "addr:full": "555 Morrill Ave.", "addr:city": "Reno", "addr:state": "NV", "addr:postcode": "89512", "addr:country": "US", "name": "BluePearl Pet Hospital in Reno, NV", "phone": "7753588555", "website": "https://bluepearlvet.com/hospital/reno-nv/"}},
{"type": "Feature", "id": "vPHBv_-yMlp-3H4Yi0jtK9PGFsc=", "properties": {"ref": "englewood-co", "@spider": "blue_pearl_pet_hospital", "addr:full": "3550 South Inca Street", "addr:city": "Englewood", "addr:state": "CO", "addr:postcode": "80110", "addr:country": "US", "name": "Rocky Mountain<br>Veterinary Neurology<br>Englewood, CO", "phone": "3038742081", "website": "https://bluepearlvet.com/hospital/englewood-co/"}},
{"type": "Feature", "id": "zMGYPqvbVWERJK6K1ltrjNt_EdY=", "properties": {"ref": "monterey-ca", "@spider": "blue_pearl_pet_hospital", "addr:full": "451 Canyon Del Rey Blvd.", "addr:city": "Del Rey Oaks", "addr:state": "CA", "addr:postcode": "93940", "addr:country": "US", "name": "Pet Specialists of Monterey", "phone": "8318994838", "website": "https://bluepearlvet.com/hospital/monterey-ca/"}},
{"type": "Feature", "id": "ok8KQ4Cmt05q08FbDIiJdGNal-M=", "properties": {"ref": "marietta-ga", "@spider": "blue_pearl_pet_hospital", "addr:full": "1230 Johnson Ferry Pl.", "addr:city": "Marietta", "addr:state": "GA", "addr:postcode": "30068", "addr:country": "US", "name": "Georgia Veterinary Rehabilitation", "phone": "6788032626", "website": "https://bluepearlvet.com/hospital/marietta-ga/"}},
{"type": "Feature", "id": "lb8SJIckP2fdCAgZ4V4eV5cWMcA=", "properties": {"ref": "marietta-ga-2", "@spider": "blue_pearl_pet_hospital", "addr:full": "630 Cobb Pkwy. N", "addr:city": "Marietta", "addr:state": "GA", "addr:postcode": "30062", "addr:country": "US", "name": "Cobb Emergency Veterinary Clinic - Marietta, GA", "phone": "7704249157", "website": "https://bluepearlvet.com/hospital/marietta-ga-2/"}},
{"type": "Feature", "id": "f5I5QE7hYMWBPQf_xh4NQqYWKEs=", "properties": {"ref": "shillington-pa", "@spider": "blue_pearl_pet_hospital", "addr:full": "400 W. Lancaster Ave", "addr:city": "Shillington", "addr:state": "PA", "addr:postcode": "19607", "addr:country": "US", "name": "BluePearl Pet Hospital Berks Shillington, PA", "phone": "6107757535", "website": "https://bluepearlvet.com/hospital/shillington-pa/"}},
{"type": "Feature", "id": "5XNTxSr2KjGdFNwhDi350DKS08M=", "properties": {"ref": "des-moines", "@spider": "blue_pearl_pet_hospital", "addr:full": "4631 Merle Hay Rd.", "addr:city": "Des Moines", "addr:state": "IA", "addr:postcode": "50322", "addr:country": "US", "name": "BluePearl Pet Hospital Des Moines, IA", "phone": "5157274872", "website": "https://bluepearlvet.com/hospital/des-moines/"}},
{"type": "Feature", "id": "juFE5ZqitgKjmgZSYV08N0AzwIg=", "properties": {"ref": "cary-nc", "@spider": "blue_pearl_pet_hospital", "addr:full": "6405-100 Tryon Rd.", "addr:city": "Cary", "addr:state": "NC", "addr:postcode": "27518", "addr:country": "US", "name": "BluePearl Pet Hospital - Cary, NC", "phone": "9192334911", "website": "https://bluepearlvet.com/hospital/cary-nc/"}},
{"type": "Feature", "id": "EnZMzmMoMce6ogCWKox0b4Gv5jw=", "properties": {"ref": "malvern-pa", "@spider": "blue_pearl_pet_hospital", "addr:full": "40 Three Tun Rd.", "addr:city": " Malvern", "addr:state": "PA", "addr:postcode": "19355", "addr:country": "US", "name": "BluePearl Pet Hospital Malvern, PA", "phone": "6102962099", "website": "https://bluepearlvet.com/hospital/malvern-pa/"}},
{"type": "Feature", "id": "DDoFX_g1phN76i42Gy2yTXvRgDA=", "properties": {"ref": "pittsburgh-north-hills-pa", "@spider": "blue_pearl_pet_hospital", "addr:full": "807 Camp Horne Rd.", "addr:city": "Pittsburgh", "addr:state": "PA", "addr:postcode": "15237", "addr:country": "US", "name": "Pittsburgh Veterinary Specialty & Emergency Center - North Hills", "phone": "4123663400", "website": "https://bluepearlvet.com/hospital/pittsburgh-north-hills-pa/"}},
{"type": "Feature", "id": "MKUwhxlHgG5MALV1y5guwfnTJrA=", "properties": {"ref": "conshohocken-pa", "@spider": "blue_pearl_pet_hospital", "addr:full": "625 Ridge Pike", "addr:city": "Conshohocken", "addr:state": "PA", "addr:postcode": "19428", "addr:country": "US", "name": "Veterinary Specialty and Emergency Center Conshohocken, PA", "phone": "4845677999", "website": "https://bluepearlvet.com/hospital/conshohocken-pa/"}},
{"type": "Feature", "id": "zIfzGQin9ysgXuPpl5NEtpyrhPE=", "properties": {"ref": "clearwater-fl", "@spider": "blue_pearl_pet_hospital", "addr:full": "4701 Ulmerton Rd.,", "addr:city": "Clearwater", "addr:state": "FL", "addr:postcode": "33762", "addr:country": "US", "name": "BluePearl Pet Hospital Clearwater, FL", "phone": "7275720132", "website": "https://bluepearlvet.com/hospital/clearwater-fl/"}},
{"type": "Feature", "id": "GBUdIzpqwv68TeN4z_oijbEIv2U=", "properties": {"ref": "tampa-fl", "@spider": "blue_pearl_pet_hospital", "addr:full": "3000 Busch Lake Blvd.", "addr:city": "Tampa", "addr:state": "FL", "addr:postcode": "33614", "addr:country": "US", "name": "BluePearl Pet Hospital Tampa, FL", "phone": "8139338944", "website": "https://bluepearlvet.com/hospital/tampa-fl/"}},
{"type": "Feature", "id": "WGOPhSMbprMTHACIaRV99GbvkGA=", "properties": {"ref": "christiana-de", "@spider": "blue_pearl_pet_hospital", "addr:full": "106 Geoffrey Dr.", "addr:city": "Newark ", "addr:state": "DE", "addr:postcode": "19713", "addr:country": "US", "name": "BluePearl Pet Hospital Christiana Newark, DE", "phone": "3023226933", "website": "https://bluepearlvet.com/hospital/christiana-de/"}},
{"type": "Feature", "id": "zw8p6cMfxmH0sof3VHS2Cld40U0=", "properties": {"ref": "sarasota-fl", "@spider": "blue_pearl_pet_hospital", "addr:full": "7414 South Tamiami Trail", "addr:city": "Sarasota", "addr:state": "FL", "addr:postcode": "34231", "addr:country": "US", "name": "BluePearl Pet Hospital Sarasota, FL", "phone": "9419237260", "website": "https://bluepearlvet.com/hospital/sarasota-fl/"}},
{"type": "Feature", "id": "BljiYC8C4kbyeO_mZrPm_bfonhA=", "properties": {"ref": "charlestown-ma", "@spider": "blue_pearl_pet_hospital", "addr:full": "56 Roland St.", "addr:city": "Boston", "addr:state": "MA", "addr:postcode": "02129", "addr:country": "US", "name": "BluePearl Pet Hospital Charlestown, MA", "phone": "6172849777", "website": "https://bluepearlvet.com/hospital/charlestown-ma/"}},
{"type": "Feature", "id": "4hbVRQKy0h2mwUZqnsR9kxpGlks=", "properties": {"ref": "daly-city-ca", "@spider": "blue_pearl_pet_hospital", "addr:full": "2201 Junipero Serra Blvd.,", "addr:city": "Daly City", "addr:state": "CA", "addr:postcode": "94014", "addr:country": "US", "name": "BluePearl Pet Hospital in Daly City, CA", "phone": "4154137363", "website": "https://bluepearlvet.com/hospital/daly-city-ca/"}},
{"type": "Feature", "id": "sDok3NyfHdFrQCj-mgcNO7A5ER4=", "properties": {"ref": "irvine-ca", "@spider": "blue_pearl_pet_hospital", "addr:full": "1371 Reynolds Ave.", "addr:city": "Irvine", "addr:state": "CA", "addr:postcode": "92614", "addr:country": "US", "name": "BluePearl Pet Hospital \u2013 serving Irvine and the Los Angeles area 24/7", "phone": "9498339020", "website": "https://bluepearlvet.com/hospital/irvine-ca/"}},
{"type": "Feature", "id": "sIISxTh6kbIT6V94Z3JhqJ3P8R8=", "properties": {"ref": "langhorne-pa", "@spider": "blue_pearl_pet_hospital", "addr:full": "2010 Cabot Blvd. W", "addr:city": "Langhorne", "addr:state": "PA", "addr:postcode": "19047", "addr:country": "US", "name": "BluePearl Pet Hospital <br> Langhorne, PA", "phone": "2157502774", "website": "https://bluepearlvet.com/hospital/langhorne-pa/"}},
{"type": "Feature", "id": "CpkOmLtX9RI2XlzzHoBxisyxEIU=", "properties": {"ref": "eden-prairie-mn", "@spider": "blue_pearl_pet_hospital", "addr:full": "7717 Flying Cloud Dr.", "addr:city": "Eden Prairie", "addr:state": "MN", "addr:postcode": "55344", "addr:country": "US", "name": "BluePearl Pet Hospital Eden Prairie, MN", "phone": "9529428272", "website": "https://bluepearlvet.com/hospital/eden-prairie-mn/"}},
{"type": "Feature", "id": "PBqmzsry0DnRVdN2UNYjPwVXKUo=", "properties": {"ref": "arden-hills-mn", "@spider": "blue_pearl_pet_hospital", "addr:full": "1285 Grey Fox Rd.", "addr:city": "Arden Hills", "addr:state": "MN", "addr:postcode": "55112", "addr:country": "US", "name": "BluePearl Pet Hospital<br>Arden Hills, MN<br>Emergency Vet", "phone": "7637545000", "website": "https://bluepearlvet.com/hospital/arden-hills-mn/"}},
{"type": "Feature", "id": "4NIEgwoKIkLeQ3nGQqul2vhf_3E=", "properties": {"ref": "blaine-mn", "@spider": "blue_pearl_pet_hospital", "addr:full": "11850 Aberdeen St. NE", "addr:city": "Blaine", "addr:state": "MN", "addr:postcode": "55449", "addr:country": "US", "name": "BluePearl Pet Hospital Blaine, MN", "phone": "7637549434", "website": "https://bluepearlvet.com/hospital/blaine-mn/"}},
{"type": "Feature", "id": "IbIMZhWU4V7JvzMNKSjJ4QQXF84=", "properties": {"ref": "rochester-mn", "@spider": "blue_pearl_pet_hospital", "addr:full": "121 23rd Ave. SW", "addr:city": "Rochester", "addr:state": "MN", "addr:postcode": "55902", "addr:country": "US", "name": "BluePearl Pet Hospital Rochester, MN", "phone": "5074243976", "website": "https://bluepearlvet.com/hospital/rochester-mn/"}},
{"type": "Feature", "id": "iWKuNGfrPFRySADu3QbUmLvRNZs=", "properties": {"ref": "lafayette-co", "@spider": "blue_pearl_pet_hospital", "addr:full": "2000 W South Boulder Rd.", "addr:city": "Lafayette", "addr:state": "CO", "addr:postcode": "80026", "addr:country": "US", "name": "Boulder Road Veterinary Specialists | Lafayette Boulder, CO | ER Specialty Pet Hospital ", "phone": "7206997766", "website": "https://bluepearlvet.com/hospital/lafayette-co/"}},
{"type": "Feature", "id": "Xlb2sdpFZ6IPmHRp4kCUrFdD8Ds=", "properties": {"ref": "vsec-levittown-pa", "@spider": "blue_pearl_pet_hospital", "addr:full": "301 Veterans Hwy.", "addr:city": "Levittown", "addr:state": "PA", "addr:postcode": "19056", "addr:country": "US", "name": "BluePearl Pet Hospital Levittown, PA", "phone": "2157507884", "website": "https://bluepearlvet.com/hospital/vsec-levittown-pa/"}},
{"type": "Feature", "id": "euEi1VXICeHr8bFHcFXqPv-XlcY=", "properties": {"ref": "richmond-va", "@spider": "blue_pearl_pet_hospital", "addr:full": "5918 W Broad St.", "addr:city": "Richmond", "addr:state": "VA", "addr:postcode": "23230", "addr:country": "US", "name": "Dogwood Veterinary Center Richmond, VA", "phone": "8047164700", "website": "https://bluepearlvet.com/hospital/richmond-va/"}},
{"type": "Feature", "id": "-slXmG1HpnwKGeOOe_wQOBt6CKQ=", "properties": {"ref": "bluepearl-sports-medicine-rehabilitation", "@spider": "blue_pearl_pet_hospital", "addr:full": "6426 Tryon Rd.", "addr:city": "Cary", "addr:state": "NC", "addr:postcode": "27518", "addr:country": "US", "name": "BluePearl Pet Sports Medicine & Rehabilitation<br>Cary, NC<br>Specialty Vet", "phone": "9196006699", "website": "https://bluepearlvet.com/hospital/bluepearl-sports-medicine-rehabilitation/"}},
{"type": "Feature", "id": "nD7pOZMOo_DfGwzqdwNitBVjADw=", "properties": {"ref": "north-florida-neurology", "@spider": "blue_pearl_pet_hospital", "addr:full": "280 Corporate Way", "addr:city": "Orange Park", "addr:state": "FL", "addr:postcode": "32073", "addr:country": "US", "name": "BluePearl Pet Neurology", "phone": "9042697070", "website": "https://bluepearlvet.com/hospital/north-florida-neurology/"}},
{"type": "Feature", "id": "e9eEMjy2qD7Oty92GcS9nsyFQyc=", "properties": {"ref": "johns-creek-ga", "@spider": "blue_pearl_pet_hospital", "addr:full": "7350 McGinnis Ferry Rd", "addr:city": "Johns Creek", "addr:state": "GA", "addr:postcode": "30024", "addr:country": "US", "name": "Atlanta Veterinary Specialists <br>Johns Creek, GA <br>Specialty Animal Hospital", "phone": "7704073000", "website": "https://bluepearlvet.com/hospital/johns-creek-ga/"}},
{"type": "Feature", "id": "wNGnh18rSYWDQ2WcA-bUyg6RR-I=", "properties": {"ref": "brandon-fl", "@spider": "blue_pearl_pet_hospital", "addr:full": "607 Lumsden Professional Ct.", "addr:city": "Brandon", "addr:state": "FL", "addr:postcode": "33511", "addr:country": "US", "name": "BluePearl Pet Hospital Brandon, FL", "phone": "8135713303", "website": "https://bluepearlvet.com/hospital/brandon-fl/"}},
{"type": "Feature", "id": "WkWsMUOXCb8920-YNXvh9jCrPoE=", "properties": {"ref": "downtown-seattle-wa", "@spider": "blue_pearl_pet_hospital", "addr:full": "805 Madison St.", "addr:city": "Seattle", "addr:state": "WA", "addr:postcode": "98104", "addr:country": "US", "name": "Seattle Veterinary Specialists Downtown Seattle, WA", "phone": "2066249111", "website": "https://bluepearlvet.com/hospital/downtown-seattle-wa/"}},
{"type": "Feature", "id": "G-I961PpScf1Az_ZxXTCIsyKWMg=", "properties": {"ref": "avondale-az", "@spider": "blue_pearl_pet_hospital", "addr:full": "13034 W Rancho Santa Fe Blvd.,", "addr:city": "Avondale", "addr:state": "AZ", "addr:postcode": "85392", "addr:country": "US", "name": "BluePearl Pet Hospital Avondale, AZ", "phone": "6233854555", "website": "https://bluepearlvet.com/hospital/avondale-az/"}},
{"type": "Feature", "id": "lLm8hQi_xXUL872V62JQzn6dMqU=", "properties": {"ref": "fresno-ca", "@spider": "blue_pearl_pet_hospital", "addr:full": "7375 N Palm Bluffs Ave.", "addr:city": "Fresno", "addr:state": "CA", "addr:postcode": "93711", "addr:country": "US", "name": "Fresno Pet Emergency & Referral Center<br>Fresno, CA<br>Emergency Vet", "phone": "5594373766", "website": "https://bluepearlvet.com/hospital/fresno-ca/"}},
{"type": "Feature", "id": "Rm_sUGVl5_kEgw1NTDNnFjN_rQs=", "properties": {"ref": "skokie-il", "@spider": "blue_pearl_pet_hospital", "addr:full": "3735 W Dempster St.", "addr:city": "Skokie", "addr:state": "IL", "addr:postcode": "60076", "addr:country": "US", "name": "BluePearl Pet Hospital Skokie, IL", "phone": "8476739110", "website": "https://bluepearlvet.com/hospital/skokie-il/"}},
{"type": "Feature", "id": "WTil6nuC-ztX4qlbINFTKWVaw44=", "properties": {"ref": "louisville-ky", "@spider": "blue_pearl_pet_hospital", "addr:full": "13160 Magisterial Dr.", "addr:city": "Louisville", "addr:state": "KY", "addr:postcode": "40223", "addr:country": "US", "name": "BluePearl Pet Hospital Louisville, KY", "phone": "5022443036", "website": "https://bluepearlvet.com/hospital/louisville-ky/"}},
{"type": "Feature", "id": "Zyd6mVSSx4unYlHvCbuc0O0RjxE=", "properties": {"ref": "queens-ny", "@spider": "blue_pearl_pet_hospital", "addr:full": "107-28 71st Rd.", "addr:city": "Forest Hills", "addr:state": "NY", "addr:postcode": "11375", "addr:country": "US", "name": "BluePearl Pet Hospital Queens, NY", "phone": "7182630099", "website": "https://bluepearlvet.com/hospital/queens-ny/"}},
{"type": "Feature", "id": "qsllRwmqhy6_erf6WgHnbk1q31I=", "properties": {"ref": "ann-arbor-mi", "@spider": "blue_pearl_pet_hospital", "addr:full": "4126 Packard Rd.", "addr:city": "Ann Arbor", "addr:state": "MI", "addr:postcode": "48108", "addr:country": "US", "name": "BluePearl Pet Hospital Ann Arbor, MI", "phone": "7349718774", "website": "https://bluepearlvet.com/hospital/ann-arbor-mi/"}},
{"type": "Feature", "id": "cRTWDJIgzbol_mblVBMrV6cSZQY=", "properties": {"ref": "birmingham-veterinary-internal-medicine", "@spider": "blue_pearl_pet_hospital", "addr:full": "4506 Lake Valley Dr.", "addr:city": "Birmingham", "addr:state": "AL", "addr:postcode": "35244", "addr:country": "US", "name": "Birmingham Veterinary Internal Medicine", "phone": "2059676422", "website": "https://bluepearlvet.com/hospital/birmingham-veterinary-internal-medicine/"}},
{"type": "Feature", "id": "tVs0vu1eRozRcqL1MHs8jk2Ncf0=", "properties": {"ref": "houston-tx", "@spider": "blue_pearl_pet_hospital", "addr:full": "19450 Katy Fwy.,", "addr:city": "Houston", "addr:state": "TX", "addr:postcode": "77094", "addr:country": "US", "name": "BluePearl Animal Emergency and Specialty - Houston, TX", "phone": "2816756000", "website": "https://bluepearlvet.com/hospital/houston-tx/"}},
{"type": "Feature", "id": "bD2regRnwwqy9dTL1Ak0iPj89V8=", "properties": {"ref": "lees-summit-mo", "@spider": "blue_pearl_pet_hospital", "addr:full": "3495 NE Ralph Powell Rd.", "addr:city": "Lee's Summit", "addr:state": "MO", "addr:postcode": "64064", "addr:country": "US", "name": "BluePearl Pet Hospital Lee\u2019s Summit, MO", "phone": "8165544990", "website": "https://bluepearlvet.com/hospital/lees-summit-mo/"}},
{"type": "Feature", "id": "tQFpBwzcgKuNzU6S2QgvwAI_aeA=", "properties": {"ref": "lawrenceville-ga", "@spider": "blue_pearl_pet_hospital", "addr:full": "1956 Lawrenceville Suwanee Rd.", "addr:city": "Lawrenceville", "addr:state": "GA", "addr:postcode": "30043", "addr:country": "US", "name": "BluePearl Pet Hospital Lawrenceville, GA", "phone": "7702778600", "website": "https://bluepearlvet.com/hospital/lawrenceville-ga/"}},
{"type": "Feature", "id": "PvmBQ2w9VWUjvrzQu-sGzMYH7Mc=", "properties": {"ref": "kirkland-wa", "@spider": "blue_pearl_pet_hospital", "addr:full": "11814 115th Ave. NE", "addr:city": "Kirkland", "addr:state": "WA", "addr:postcode": "98034", "addr:country": "US", "name": "Seattle Veterinary Specialists Kirkland, WA", "phone": "4258239111", "website": "https://bluepearlvet.com/hospital/kirkland-wa/"}},
{"type": "Feature", "id": "wiBcFCbwYIwCVBHaHFssl6UPIrM=", "properties": {"ref": "renton-wa", "@spider": "blue_pearl_pet_hospital", "addr:full": "4208 Lind Ave. SW", "addr:city": "Renton", "addr:state": "WA", "addr:postcode": "98057", "addr:country": "US", "name": "BluePearl Pet Hospital Renton, WA", "phone": "4254961000", "website": "https://bluepearlvet.com/hospital/renton-wa/"}},
{"type": "Feature", "id": "x6SfCGazAQvZtGdnrPBLbhuPykU=", "properties": {"ref": "midvale-ut", "@spider": "blue_pearl_pet_hospital", "addr:full": "308 W 7200 S", "addr:city": "Midvale", "addr:state": "UT", "addr:postcode": "84047", "addr:country": "US", "name": "BluePearl Hospital Midvale, UT", "phone": "8018710600", "website": "https://bluepearlvet.com/hospital/midvale-ut/"}},
{"type": "Feature", "id": "5Y9EtMQo-NNyV74Zcel_68FpZPM=", "properties": {"ref": "nashville-tn", "@spider": "blue_pearl_pet_hospital", "addr:full": "2000 12th Ave. S", "addr:city": "Nashville", "addr:state": "TN", "addr:postcode": "37204", "addr:country": "US", "name": "BluePearl Pet Hospital Nashville, TN", "phone": "6153832600", "website": "https://bluepearlvet.com/hospital/nashville-tn/"}},
{"type": "Feature", "id": "3xTuJXtEVZd-0o6Xq8cmqIGkTyA=", "properties": {"ref": "murfreesboro-tn", "@spider": "blue_pearl_pet_hospital", "addr:full": "2223 NW Broad St.", "addr:city": "Murfreesboro", "addr:state": "TN", "addr:postcode": "37129", "addr:country": "US", "name": "BluePearl Pet Hospital Murfreesboro, TN", "phone": "6158901259", "website": "https://bluepearlvet.com/hospital/murfreesboro-tn/"}},
{"type": "Feature", "id": "yv44yGBpqLWpR5L2PvJ4WmmsQ70=", "properties": {"ref": "raleigh-nc", "@spider": "blue_pearl_pet_hospital", "addr:full": "4640 Paragon Park Rd.", "addr:city": "Raleigh", "addr:state": "NC", "addr:postcode": "27616", "addr:country": "US", "name": "Veterinary Specialty Hospital of the Carolinas - Raleigh, NC", "phone": "9198610109", "website": "https://bluepearlvet.com/hospital/raleigh-nc/"}},
{"type": "Feature", "id": "oYGPkged-SCIulBqMi7PKcdgf7Q=", "properties": {"ref": "northfield-il", "@spider": "blue_pearl_pet_hospital", "addr:full": "820 W Frontage Rd.", "addr:city": "Northfield", "addr:state": "IL", "addr:postcode": "60093", "addr:country": "US", "name": "BluePearl Pet Hospital Northfield, IL", "phone": "8475645775", "website": "https://bluepearlvet.com/hospital/northfield-il/"}},
{"type": "Feature", "id": "efyP62TTbmTDuj78sBJjG2kHSBk=", "properties": {"ref": "spring-tx", "@spider": "blue_pearl_pet_hospital", "addr:full": "1646 Spring Cypress Rd.", "addr:city": "Spring", "addr:state": "TX", "addr:postcode": "77388", "addr:country": "US", "name": "BluePearl Pet Hospital - Spring, TX", "phone": "8326165000", "website": "https://bluepearlvet.com/hospital/spring-tx/"}},
{"type": "Feature", "id": "3a3Qi6jDTXTFJHBVsArMmTGWpuA=", "properties": {"ref": "washington-pa", "@spider": "blue_pearl_pet_hospital", "addr:full": "1535 Washington Rd.", "addr:city": "Washington", "addr:state": "PA", "addr:postcode": "15301", "addr:country": "US", "name": "Pittsburgh Veterinary Specialty and Emergency Center Washington, PA", "phone": "7248092000", "website": "https://bluepearlvet.com/hospital/washington-pa/"}},
{"type": "Feature", "id": "7I26sOhtse3UlgXTp2BgRjfsh24=", "properties": {"ref": "fort-myers-fl", "@spider": "blue_pearl_pet_hospital", "addr:full": "9500 Marketplace Rd.", "addr:city": "Fort Myers", "addr:state": "FL", "addr:postcode": "33912", "addr:country": "US", "name": "BluePearl Pet Hospital Fort Myers, FL", "phone": "2399470588", "website": "https://bluepearlvet.com/hospital/fort-myers-fl/"}},
{"type": "Feature", "id": "Ati78tSqq9X0VElQU71ljOimap0=", "properties": {"ref": "westside-atlanta-ga", "@spider": "blue_pearl_pet_hospital", "addr:full": "1071 Howell Mill Rd.", "addr:city": "Atlanta", "addr:state": "GA", "addr:postcode": "30318", "addr:country": "US", "name": "BluePearl Pet Hospital Westside Atlanta, GA", "phone": "4046496333", "website": "https://bluepearlvet.com/hospital/westside-atlanta-ga/"}},
{"type": "Feature", "id": "_PvPYO3bZ9_Gj_yOf1jBgMUk7qs=", "properties": {"ref": "brooklyn-ny", "@spider": "blue_pearl_pet_hospital", "addr:full": "190 Third Ave.", "addr:city": "Brooklyn", "addr:state": "NY", "addr:postcode": "11217", "addr:country": "US", "name": "BluePearl Pet Hospital Brooklyn, NY", "phone": "7185960099", "website": "https://bluepearlvet.com/hospital/brooklyn-ny/"}},
{"type": "Feature", "id": "7ufOg-yCxlPy84Zei03VV9mFVmg=", "properties": {"ref": "orlando-fl", "@spider": "blue_pearl_pet_hospital", "addr:full": "11011 Lake Underhill Rd.", "addr:city": "Orlando", "addr:state": "FL", "addr:postcode": "32825", "addr:country": "US", "name": "BluePearl Pet Hospital - East Orlando", "phone": "4076441287", "website": "https://bluepearlvet.com/hospital/orlando-fl/"}},
{"type": "Feature", "id": "Wf30Kc9vDBAwP_JsBm7XFS_3DOU=", "properties": {"ref": "bluepearl-veterinary-cyberknife-cancer-center", "@spider": "blue_pearl_pet_hospital", "addr:full": "50 Three Tun Rd.", "addr:city": "Malvern", "addr:state": "PA", "addr:postcode": "19355", "addr:country": "US", "name": "BluePearl Veterinary CyberKnife Cancer Center<br>Malvern, PA", "phone": "8447382927", "website": "https://bluepearlvet.com/hospital/bluepearl-veterinary-cyberknife-cancer-center/"}},
{"type": "Feature", "id": "tmsS2pUhlF0RrZb8_8ylW_QEi4Q=", "properties": {"ref": "birmingham-al-veterinary-eye-care", "@spider": "blue_pearl_pet_hospital", "addr:full": "3783 Pine Ln.", "addr:city": "Bessemer", "addr:state": "AL", "addr:postcode": "35022", "addr:country": "US", "name": "Veterinary Eye Care - Birmingham, AL", "phone": "2054285256", "website": "https://bluepearlvet.com/hospital/birmingham-al-veterinary-eye-care/"}},
{"type": "Feature", "id": "1ulJrU7Mle4_df7tkW9-bwRSbMg=", "properties": {"ref": "paramus-nj", "@spider": "blue_pearl_pet_hospital", "addr:full": "545 Route 17 S", "addr:city": "Paramus", "addr:state": "NJ", "addr:postcode": "07652", "addr:country": "US", "name": "BluePearl Pet Hospital Paramus, NJ", "phone": "2015276699", "website": "https://bluepearlvet.com/hospital/paramus-nj/"}},
{"type": "Feature", "id": "sTSP2TVGB7mI4epANTcsNXl50rE=", "properties": {"ref": "waltham-ma", "@spider": "blue_pearl_pet_hospital", "addr:full": "180 Bear Hill Rd.", "addr:city": "Waltham", "addr:state": "MA", "addr:postcode": "02451", "addr:country": "US", "name": "BluePearl Pet Hospital Waltham, MA", "phone": "7816848387", "website": "https://bluepearlvet.com/hospital/waltham-ma/"}},
{"type": "Feature", "id": "o5Vy4LFRNMaJNtxPiDnXd_M-Y1Q=", "properties": {"ref": "peoria-az", "@spider": "blue_pearl_pet_hospital", "addr:full": "9875 W Peoria Ave.", "addr:city": "Peoria", "addr:state": "AZ", "addr:postcode": "85345", "addr:country": "US", "name": "BluePearl Pet Hospital Peoria, AZ", "phone": "6239741520", "website": "https://bluepearlvet.com/hospital/peoria-az/"}}]}