{"type":"FeatureCollection","features":[{"type": "Feature", "id": "zLLBapCr5k3D_g5fS4ph_r7Xur0=", "properties": {"ref": "https://locations.bonefishgrill.com/#15502831", "@spider": "bonefishgrill", "amenity": "restaurant", "cuisine": "seafood", "addr:street_address": "12906 Cortez Rd.", "addr:city": "Brooksville", "addr:state": "FL", "addr:postcode": "34613", "addr:country": "US", "name": "Bonefish Grill Brooksville, FL", "phone": "(352) 596-7352", "website": "https://locations.bonefishgrill.com/florida/brooksville/12906-cortez-rd.", "opening_hours": "Mo-Th 11:00-22:00; Fr-Sa 11:00-23:00; Su 11:00-21:00", "image": "https://locations.bonefishgrill.com/permanent-b0b701/assets/images/logo_bonefish.cb933808.png", "brand": "Bonefish Grill", "brand:wikidata": "Q4941599", "nsi_id": "bonefishgrill-96af40"}, "geometry": {"type": "Point", "coordinates": [-82.51515479877662, 28.53287791088927]}},
{"type": "Feature", "id": "0_cr8MsJyjfxbMmI77Sxv74kLv4=", "properties": {"ref": "https://locations.bonefishgrill.com/#15502675", "@spider": "bonefishgrill", "amenity": "restaurant", "cuisine": "seafood", "addr:street_address": "1015 Providence Road", "addr:city": "Brandon", "addr:state": "FL", "addr:postcode": "33511", "addr:country": "US", "name": "Bonefish Grill Brandon, FL", "phone": "(813) 571-5553", "website": "https://locations.bonefishgrill.com/florida/brandon/1015-providence-road", "opening_hours": "Mo-Th 11:00-22:00; Fr-Sa 11:00-23:00; Su 11:00-21:00", "image": "https://locations.bonefishgrill.com/permanent-b0b701/assets/images/logo_bonefish.cb933808.png", "brand": "Bonefish Grill", "brand:wikidata": "Q4941599", "nsi_id": "bonefishgrill-96af40"}, "geometry": {"type": "Point", "coordinates": [-82.3179405, 27.9220038]}},
{"type": "Feature", "id": "Byh3RSnnvJItHXR0LTlILws-610=", "properties": {"ref": "https://locations.bonefishgrill.com/#15502763", "@spider": "bonefishgrill", "amenity": "restaurant", "cuisine": "seafood", "addr:street_address": "7456 Cortez Road W", "addr:city": "Bradenton", "addr:state": "FL", "addr:postcode": "34210", "addr:country": "US", "name": "Bonefish Grill Bradenton, FL", "phone": "(941) 795-8020", "website": "https://locations.bonefishgrill.com/florida/bradenton/7456-cortez-road-w", "opening_hours": "Mo-Th 11:00-22:00; Fr-Sa 11:00-22:30; Su 11:00-21:00", "image": "https://locations.bonefishgrill.com/permanent-b0b701/assets/images/logo_bonefish.cb933808.png", "brand": "Bonefish Grill", "brand:wikidata": "Q4941599", "nsi_id": "bonefishgrill-96af40"}, "geometry": {"type": "Point", "coordinates": [-82.6364441982967, 27.463633771899968]}},
{"type": "Feature", "id": "txhnFke_VkfSQNsR2VQpd1MeKxs=", "properties": {"ref": "https://locations.bonefishgrill.com/#15502683", "@spider": "bonefishgrill", "amenity": "restaurant", "cuisine": "seafood", "addr:street_address": "1880 N. Congress Avenue", "addr:city": "Boynton Beach", "addr:state": "FL", "addr:postcode": "33426", "addr:country": "US", "name": "Bonefish Grill Boynton Beach, FL", "phone": "(561) 732-1310", "website": "https://locations.bonefishgrill.com/florida/boynton-beach/1880-n.-congress-avenue", "opening_hours": "Mo-Th 11:00-22:00; Fr-Sa 11:00-23:00; Su 11:00-21:00", "image": "https://locations.bonefishgrill.com/permanent-b0b701/assets/images/logo_bonefish.cb933808.png", "brand": "Bonefish Grill", "brand:wikidata": "Q4941599", "nsi_id": "bonefishgrill-96af40"}, "geometry": {"type": "Point", "coordinates": [-80.08966276380677, 26.545649619247815]}},
{"type": "Feature", "id": "Zc9qeqbwotx_wGvVRzAxynw9-ew=", "properties": {"ref": "https://locations.bonefishgrill.com/#15502809", "@spider": "bonefishgrill", "amenity": "restaurant", "cuisine": "seafood", "addr:street_address": "26381 South Tamiami Trail", "addr:city": "Bonita Springs", "addr:state": "FL", "addr:postcode": "34134", "addr:country": "US", "name": "Bonefish Grill Bonita Springs, FL", "phone": "(239) 390-9208", "website": "https://locations.bonefishgrill.com/florida/bonita-springs/26381-south-tamiami-trail", "opening_hours": "Mo-Th 11:00-22:00; Fr-Su 12:00-21:00", "image": "https://locations.bonefishgrill.com/permanent-b0b701/assets/images/logo_bonefish.cb933808.png", "brand": "Bonefish Grill", "brand:wikidata": "Q4941599", "nsi_id": "bonefishgrill-96af40"}, "geometry": {"type": "Point", "coordinates": [-81.8071562, 26.3571179]}},
{"type": "Feature", "id": "g3bq5m99YNGLzjQPMNhX890Gv50=", "properties": {"ref": "https://locations.bonefishgrill.com/#15502718", "@spider": "bonefishgrill", "amenity": "restaurant", "cuisine": "seafood", "addr:street_address": "9598 Glades Road", "addr:city": "Boca Raton", "addr:state": "FL", "addr:postcode": "33434", "addr:country": "US", "name": "Bonefish Grill Boca Raton, FL", "phone": "(561) 483-4949", "website": "https://locations.bonefishgrill.com/florida/boca-raton/9598-glades-road", "opening_hours": "Mo-Th 11:00-22:00; Fr-Sa 11:00-23:00; Su 11:00-21:00", "image": "https://locations.bonefishgrill.com/permanent-b0b701/assets/images/logo_bonefish.cb933808.png", "brand": "Bonefish Grill", "brand:wikidata": "Q4941599", "nsi_id": "bonefishgrill-96af40"}, "geometry": {"type": "Point", "coordinates": [-80.1964483, 26.3675576]}},
{"type": "Feature", "id": "vYij0MW4gdcPQzZ5GCSmyK9V2gE=", "properties": {"ref": "https://locations.bonefishgrill.com/#15502812", "@spider": "bonefishgrill", "amenity": "restaurant", "cuisine": "seafood", "addr:street_address": "2939 West Bay Drive", "addr:city": "Belleair Bluffs", "addr:state": "FL", "addr:postcode": "33770", "addr:country": "US", "name": "Bonefish Grill Belleair Bluffs, FL", "phone": "(727) 518-1230", "website": "https://locations.bonefishgrill.com/florida/belleair-bluffs/2939-west-bay-drive", "opening_hours": "Mo-Th 11:00-22:00; Fr-Sa 11:00-23:00; Su 11:00-21:00", "image": "https://locations.bonefishgrill.com/permanent-b0b701/assets/images/logo_bonefish.cb933808.png", "brand": "Bonefish Grill", "brand:wikidata": "Q4941599", "nsi_id": "bonefishgrill-96af40"}, "geometry": {"type": "Point", "coordinates": [-82.819542, 27.9174042]}},
{"type": "Feature", "id": "O2xFjBfXxiZm-_bwPQs0DsPguS0=", "properties": {"ref": "https://locations.bonefishgrill.com/#15502839", "@spider": "bonefishgrill", "amenity": "restaurant", "cuisine": "seafood", "addr:street_address": "18713 Biscayne Blvd.", "addr:city": "Aventura", "addr:state": "FL", "addr:postcode": "33180", "addr:country": "US", "name": "Bonefish Grill Aventura, FL", "phone": "(305) 682-2340", "website": "https://locations.bonefishgrill.com/florida/aventura/18713-biscayne-blvd.", "contact:email": "KristenEdelman@BonefishGrill.com", "opening_hours": "Mo-Th 11:00-22:00; Fr-Sa 11:00-23:00; Su 11:00-21:00", "image": "https://locations.bonefishgrill.com/permanent-b0b701/assets/images/logo_bonefish.cb933808.png", "brand": "Bonefish Grill", "brand:wikidata": "Q4941599", "nsi_id": "bonefishgrill-96af40"}, "geometry": {"type": "Point", "coordinates": [-80.14558746682386, 25.949320924212397]}},
{"type": "Feature", "id": "WG5qDBTwyJ7BMgfG9r9oyEIjEqs=", "properties": {"ref": "https://locations.bonefishgrill.com/#15502849", "@spider": "bonefishgrill", "amenity": "restaurant", "cuisine": "seafood", "addr:street_address": "4737 Concord Pike Street Ste. 455", "addr:city": "Wilmington", "addr:state": "DE", "addr:postcode": "19803", "addr:country": "US", "name": "Bonefish Grill Wilmington, DE", "phone": "(302) 478-1835", "website": "https://locations.bonefishgrill.com/delaware/wilmington/4737-concord-pike-street", "opening_hours": "Mo-Sa 11:00-22:00; Su 11:00-21:00", "image": "https://locations.bonefishgrill.com/permanent-b0b701/assets/images/logo_bonefish.cb933808.png", "brand": "Bonefish Grill", "brand:wikidata": "Q4941599", "nsi_id": "bonefishgrill-96af40"}, "geometry": {"type": "Point", "coordinates": [-75.54482815485659, 39.8219008311772]}},
{"type": "Feature", "id": "esSsKKOeCg5F_XhfRgI681-1vbA=", "properties": {"ref": "https://locations.bonefishgrill.com/#15502674", "@spider": "bonefishgrill", "amenity": "restaurant", "cuisine": "seafood", "addr:street_address": "10438 Town Center Drive", "addr:city": "Westminster", "addr:state": "CO", "addr:postcode": "80021", "addr:country": "US", "name": "Bonefish Grill Westminster, CO", "phone": "(303) 423-3474", "website": "https://locations.bonefishgrill.com/colorado/westminster/10438-town-center-drive", "opening_hours": "Mo-Sa 11:00-22:00; Su 11:00-21:00", "image": "https://locations.bonefishgrill.com/permanent-b0b701/assets/images/logo_bonefish.cb933808.png", "brand": "Bonefish Grill", "brand:wikidata": "Q4941599", "nsi_id": "bonefishgrill-96af40"}, "geometry": {"type": "Point", "coordinates": [-105.07398479253054, 39.88793763779619]}},
{"type": "Feature", "id": "tWMJRyfFhm48ve-1Q3_9XrmfgAQ=", "properties": {"ref": "https://locations.bonefishgrill.com/#15502834", "@spider": "bonefishgrill", "amenity": "restaurant", "cuisine": "seafood", "addr:street_address": "14770 W. Colfax Ave.", "addr:city": "Lakewood", "addr:state": "CO", "addr:postcode": "80401", "addr:country": "US", "name": "Bonefish Grill Denver West, CO", "phone": "(303) 279-6078", "website": "https://locations.bonefishgrill.com/colorado/lakewood/14770-w.-colfax-ave.", "opening_hours": "Mo-Sa 11:00-22:00; Su 11:00-21:00", "image": "https://locations.bonefishgrill.com/permanent-b0b701/assets/images/logo_bonefish.cb933808.png", "brand": "Bonefish Grill", "brand:wikidata": "Q4941599", "nsi_id": "bonefishgrill-96af40"}, "geometry": {"type": "Point", "coordinates": [-105.1647763, 39.7318696]}},
{"type": "Feature", "id": "_c0PZyxsVs5ZYT5VB0tORRM443s=", "properties": {"ref": "https://locations.bonefishgrill.com/#15502754", "@spider": "bonefishgrill", "amenity": "restaurant", "cuisine": "seafood", "addr:street_address": "4920 Thompson Parkway", "addr:city": "Johnstown", "addr:state": "CO", "addr:postcode": "80534", "addr:country": "US", "name": "Bonefish Grill Loveland, CO", "phone": "(970) 663-3474", "website": "https://locations.bonefishgrill.com/colorado/johnstown/4920-thompson-parkway", "opening_hours": "Mo-Sa 11:00-22:00; Su 11:00-21:00", "image": "https://locations.bonefishgrill.com/permanent-b0b701/assets/images/logo_bonefish.cb933808.png", "brand": "Bonefish Grill", "brand:wikidata": "Q4941599", "nsi_id": "bonefishgrill-96af40"}, "geometry": {"type": "Point", "coordinates": [-104.98191865596884, 40.406638466442075]}},
{"type": "Feature", "id": "A3bkNpM2jvRgIxP4px2YSi4kNLc=", "properties": {"ref": "https://locations.bonefishgrill.com/#15502787", "@spider": "bonefishgrill", "amenity": "restaurant", "cuisine": "seafood", "addr:street_address": "4948 S. Yosemite Street", "addr:city": "Greenwood", "addr:state": "CO", "addr:postcode": "80111", "addr:country": "US", "name": "Bonefish Grill Greenwood Village, CO", "phone": "(303) 741-3474", "website": "https://locations.bonefishgrill.com/colorado/greenwood/4948-s.-yosemite-street", "opening_hours": "Mo-Sa 11:00-22:00; Su 11:00-21:00", "image": "https://locations.bonefishgrill.com/permanent-b0b701/assets/images/logo_bonefish.cb933808.png", "brand": "Bonefish Grill", "brand:wikidata": "Q4941599", "nsi_id": "bonefishgrill-96af40"}, "geometry": {"type": "Point", "coordinates": [-104.88466749570084, 39.624993186061126]}},
{"type": "Feature", "id": "yWEXV6rVr45nRUwb2YqWrWFYnKQ=", "properties": {"ref": "https://locations.bonefishgrill.com/#15502825", "@spider": "bonefishgrill", "amenity": "restaurant", "cuisine": "seafood", "addr:street_address": "8100 W. Crestline Avenue", "addr:city": "Denver", "addr:state": "CO", "addr:postcode": "80123", "addr:country": "US", "name": "Bonefish Grill Littleton, CO", "phone": "(303) 948-3474", "website": "https://locations.bonefishgrill.com/colorado/denver/8100-w.-crestline-avenue", "opening_hours": "Mo-Sa 11:00-22:00; Su 11:00-21:00", "image": "https://locations.bonefishgrill.com/permanent-b0b701/assets/images/logo_bonefish.cb933808.png", "brand": "Bonefish Grill", "brand:wikidata": "Q4941599", "nsi_id": "bonefishgrill-96af40"}, "geometry": {"type": "Point", "coordinates": [-105.08834744047545, 39.61669520585292]}},
{"type": "Feature", "id": "er0jt2Gib6yB7bgBRNaVUF6iAEw=", "properties": {"ref": "https://locations.bonefishgrill.com/#15502852", "@spider": "bonefishgrill", "amenity": "restaurant", "cuisine": "seafood", "addr:street_address": "5102 North Nevada Avenue", "addr:city": "Colorado Springs", "addr:state": "CO", "addr:postcode": "80918", "addr:country": "US", "name": "Bonefish Grill Colorado Springs, CO", "phone": "(719) 598-0826", "website": "https://locations.bonefishgrill.com/colorado/colorado-springs/5102-north-nevada-avenue", "opening_hours": "Mo-Sa 11:00-22:00; Su 11:00-21:00", "image": "https://locations.bonefishgrill.com/permanent-b0b701/assets/images/logo_bonefish.cb933808.png", "brand": "Bonefish Grill", "brand:wikidata": "Q4941599", "nsi_id": "bonefishgrill-96af40"}, "geometry": {"type": "Point", "coordinates": [-104.8182206859508, 38.90233747270763]}},
{"type": "Feature", "id": "GLyYCnl1H2wiLJpXqmitRju3VHs=", "properties": {"ref": "https://locations.bonefishgrill.com/#15502721", "@spider": "bonefishgrill", "amenity": "restaurant", "cuisine": "seafood", "addr:street_address": "3201 Market Street", "addr:city": "Rogers", "addr:state": "AR", "addr:postcode": "72758", "addr:country": "US", "name": "Bonefish Grill Rogers, AR", "phone": "(479) 273-0916", "website": "https://locations.bonefishgrill.com/arkansas/rogers/3201-market-street", "opening_hours": "Mo-Th 11:00-22:00; Fr-Sa 11:00-23:00; Su 11:00-21:00", "image": "https://locations.bonefishgrill.com/permanent-b0b701/assets/images/logo_bonefish.cb933808.png", "brand": "Bonefish Grill", "brand:wikidata": "Q4941599", "nsi_id": "bonefishgrill-96af40"}, "geometry": {"type": "Point", "coordinates": [-94.18821028831967, 36.30719437583763]}},
{"type": "Feature", "id": "lssIk6kiaH5VN7vUNqJThJFhK24=", "properties": {"ref": "https://locations.bonefishgrill.com/#15502856", "@spider": "bonefishgrill", "amenity": "restaurant", "cuisine": "seafood", "addr:street_address": "7345 Mineral Point Road", "addr:city": "Madison", "addr:state": "WI", "addr:postcode": "53711", "addr:country": "US", "name": "Bonefish Grill Madison, WI", "phone": "(608) 827-5720", "website": "https://locations.bonefishgrill.com/wisconsin/madison/7345-mineral-point-road", "contact:email": "RobertHughes@BonefishGrill.com", "opening_hours": "Mo-Th 11:00-21:00; Fr-Sa 11:00-22:00; Su 11:00-21:00", "image": "https://locations.bonefishgrill.com/permanent-b0b701/assets/images/logo_bonefish.cb933808.png", "brand": "Bonefish Grill", "brand:wikidata": "Q4941599", "nsi_id": "bonefishgrill-96af40"}, "geometry": {"type": "Point", "coordinates": [-89.50855761794011, 43.06002439589763]}},
{"type": "Feature", "id": "SjOLFNO8D-w8pxjH4XiDy3E6Zig=", "properties": {"ref": "https://locations.bonefishgrill.com/#15502776", "@spider": "bonefishgrill", "amenity": "restaurant", "cuisine": "seafood", "addr:street_address": "18355 West Bluemound Road", "addr:city": "Brookfield", "addr:state": "WI", "addr:postcode": "53045", "addr:country": "US", "name": "Bonefish Grill Brookfield, WI", "phone": "(262) 797-0166", "website": "https://locations.bonefishgrill.com/wisconsin/brookfield/18355-west-bluemound-road", "opening_hours": "Mo-Th 11:00-22:00; Fr-Sa 11:00-23:00; Su 11:00-21:00", "image": "https://locations.bonefishgrill.com/permanent-b0b701/assets/images/logo_bonefish.cb933808.png", "brand": "Bonefish Grill", "brand:wikidata": "Q4941599", "nsi_id": "bonefishgrill-96af40"}, "geometry": {"type": "Point", "coordinates": [-88.14118603695447, 43.03575345167705]}},
{"type": "Feature", "id": "nCCyj_z3oll7K-Z-6_CBwXyDYsA=", "properties": {"ref": "https://locations.bonefishgrill.com/#15502850", "@spider": "bonefishgrill", "amenity": "restaurant", "cuisine": "seafood", "addr:street_address": "4750 N Division Street", "addr:city": "Spokane", "addr:state": "WA", "addr:postcode": "99207", "addr:country": "US", "name": "Bonefish Grill Spokane, WA", "phone": "(509) 960-8978", "website": "https://locations.bonefishgrill.com/washington/spokane/4750-n-division-street", "opening_hours": "Mo-Th 15:00-20:00; Fr 15:00-21:00; Sa 12:00-21:00; Su 12:00-20:00", "image": "https://locations.bonefishgrill.com/permanent-b0b701/assets/images/logo_bonefish.cb933808.png", "brand": "Bonefish Grill", "brand:wikidata": "Q4941599", "nsi_id": "bonefishgrill-96af40"}, "geometry": {"type": "Point", "coordinates": [-117.40844679679597, 47.70364944609454]}},
{"type": "Feature", "id": "F75dbNuN8Id96J3lReGU_t-gTv8=", "properties": {"ref": "https://locations.bonefishgrill.com/#15502802", "@spider": "bonefishgrill", "amenity": "restaurant", "cuisine": "seafood", "addr:street_address": "133 W. Gage Boulevard", "addr:city": "Richland", "addr:state": "WA", "addr:postcode": "99352", "addr:country": "US", "name": "Bonefish Grill Richland, WA", "phone": "(509) 628-9296", "website": "https://locations.bonefishgrill.com/washington/richland/133-w.-gage-boulevard", "opening_hours": "Mo-Th 15:00-21:00; Fr-Sa 15:00-22:30; Su 15:00-22:00", "image": "https://locations.bonefishgrill.com/permanent-b0b701/assets/images/logo_bonefish.cb933808.png", "brand": "Bonefish Grill", "brand:wikidata": "Q4941599", "nsi_id": "bonefishgrill-96af40"}, "geometry": {"type": "Point", "coordinates": [-119.2492493, 46.2267601]}},
{"type": "Feature", "id": "G2iMLFDXnxG3VnBrlTJNDJwXQFU=", "properties": {"ref": "https://locations.bonefishgrill.com/#15502843", "@spider": "bonefishgrill", "amenity": "restaurant", "cuisine": "seafood", "addr:street_address": "2537 172nd Street NE", "addr:city": "Marysville", "addr:state": "WA", "addr:postcode": "98271", "addr:country": "US", "name": "Bonefish Grill Marysville, WA", "phone": "(360) 657-5629", "website": "https://locations.bonefishgrill.com/washington/marysville/2537-172nd-street-ne", "opening_hours": "Mo-Th 15:30-21:00; Fr-Sa 15:30-22:00; Su 15:30-21:00", "image": "https://locations.bonefishgrill.com/permanent-b0b701/assets/images/logo_bonefish.cb933808.png", "brand": "Bonefish Grill", "brand:wikidata": "Q4941599", "nsi_id": "bonefishgrill-96af40"}, "geometry": {"type": "Point", "coordinates": [-122.196083, 48.1525077]}},
{"type": "Feature", "id": "pz0c-vyQ8fQS5HLyi_lc5bSjU24=", "properties": {"ref": "https://locations.bonefishgrill.com/#15502686", "@spider": "bonefishgrill", "amenity": "restaurant", "cuisine": "seafood", "addr:street_address": "22616 Bothell Everett Highway", "addr:city": "Bothell", "addr:state": "WA", "addr:postcode": "98021", "addr:country": "US", "name": "Bonefish Grill Bothell, WA", "phone": "(425) 485-0305", "website": "https://locations.bonefishgrill.com/washington/bothell/22616-bothell-everett-highway", "opening_hours": "Mo-Th 15:00-21:00; Fr-Sa 15:00-22:00; Su 15:00-20:30", "image": "https://locations.bonefishgrill.com/permanent-b0b701/assets/images/logo_bonefish.cb933808.png", "brand": "Bonefish Grill", "brand:wikidata": "Q4941599", "nsi_id": "bonefishgrill-96af40"}, "geometry": {"type": "Point", "coordinates": [-122.2160337, 47.7933089]}},
{"type": "Feature", "id": "oRguNeOgQHSef0y2xMzFwCJsp80=", "properties": {"ref": "https://locations.bonefishgrill.com/#15502695", "@spider": "bonefishgrill", "amenity": "restaurant", "cuisine": "seafood", "addr:street_address": "5212 Monticello Avenue", "addr:city": "Williamsburg", "addr:state": "VA", "addr:postcode": "23188", "addr:country": "US", "name": "Bonefish Grill Williamsburg, VA", "phone": "(757) 229-3474", "website": "https://locations.bonefishgrill.com/virginia/williamsburg/5212-monticello-avenue", "opening_hours": "Mo-Th 11:00-22:00; Fr-Sa 11:00-23:00; Su 11:00-21:00", "image": "https://locations.bonefishgrill.com/permanent-b0b701/assets/images/logo_bonefish.cb933808.png", "brand": "Bonefish Grill", "brand:wikidata": "Q4941599", "nsi_id": "bonefishgrill-96af40"}, "geometry": {"type": "Point", "coordinates": [-76.7409503, 37.2766421]}},
{"type": "Feature", "id": "iOSpZdeNfN2ZXoK_19MG_AcKjpI=", "properties": {"ref": "https://locations.bonefishgrill.com/#15502688", "@spider": "bonefishgrill", "amenity": "restaurant", "cuisine": "seafood", "addr:street_address": "3333 Virginia Beach Boulevard", "addr:city": "Virginia Beach", "addr:state": "VA", "addr:postcode": "23452", "addr:country": "US", "name": "Bonefish Grill Virginia Beach, VA", "phone": "(757) 306-3323", "website": "https://locations.bonefishgrill.com/virginia/virginia-beach/3333-virginia-beach-boulevard", "contact:email": "bg0753@bonefishgrill.com", "opening_hours": "Mo-Th 11:00-22:00; Fr-Sa 11:00-23:00; Su 11:00-21:00", "image": "https://locations.bonefishgrill.com/permanent-b0b701/assets/images/logo_bonefish.cb933808.png", "brand": "Bonefish Grill", "brand:wikidata": "Q4941599", "nsi_id": "bonefishgrill-96af40"}, "geometry": {"type": "Point", "coordinates": [-76.0873368, 36.8402685]}},
{"type": "Feature", "id": "qIgho_e9EITbTNoDZ1HzRFPpt44=", "properties": {"ref": "https://locations.bonefishgrill.com/#15502723", "@spider": "bonefishgrill", "amenity": "restaurant", "cuisine": "seafood", "addr:street_address": "340 Oyster Point Road", "addr:city": "Newport News", "addr:state": "VA", "addr:postcode": "23602", "addr:country": "US", "name": "Bonefish Grill Newport News, VA", "phone": "(757) 269-0002", "website": "https://locations.bonefishgrill.com/virginia/newport-news/340-oyster-point-road", "opening_hours": "Mo-Th 11:00-22:00; Fr-Sa 11:00-23:00; Su 11:00-21:00", "image": "https://locations.bonefishgrill.com/permanent-b0b701/assets/images/logo_bonefish.cb933808.png", "brand": "Bonefish Grill", "brand:wikidata": "Q4941599", "nsi_id": "bonefishgrill-96af40"}, "geometry": {"type": "Point", "coordinates": [-76.5086658, 37.1048702]}},
{"type": "Feature", "id": "4R_4C5-om0HpXbhsHIKTEAykTDk=", "properties": {"ref": "https://locations.bonefishgrill.com/#15502793", "@spider": "bonefishgrill", "amenity": "restaurant", "cuisine": "seafood", "addr:street_address": "6081 Harbour Park Drive", "addr:city": "Midlothian", "addr:state": "VA", "addr:postcode": "23112", "addr:country": "US", "name": "Bonefish Grill Richmond, VA", "phone": "(804) 639-2747", "website": "https://locations.bonefishgrill.com/virginia/midlothian/6081-harbour-park-drive", "opening_hours": "Mo-Th 11:00-22:00; Fr-Sa 11:00-23:00; Su 11:00-21:00", "image": "https://locations.bonefishgrill.com/permanent-b0b701/assets/images/logo_bonefish.cb933808.png", "brand": "Bonefish Grill", "brand:wikidata": "Q4941599", "nsi_id": "bonefishgrill-96af40"}, "geometry": {"type": "Point", "coordinates": [-77.64665810630193, 37.41330820464296]}},
{"type": "Feature", "id": "VbIJbIm19yql1yAyRwFJjazrsJY=", "properties": {"ref": "https://locations.bonefishgrill.com/#15502829", "@spider": "bonefishgrill", "amenity": "restaurant", "cuisine": "seafood", "addr:street_address": "11251 West Broad Street", "addr:city": "Glen Allen", "addr:state": "VA", "addr:postcode": "23060", "addr:country": "US", "name": "Bonefish Grill Short Pump, VA", "phone": "(804) 360-3740", "website": "https://locations.bonefishgrill.com/virginia/glen-allen/11251-west-broad-street", "opening_hours": "Mo-Th 11:00-22:00; Fr-Sa 11:00-22:30; Su 11:00-21:00", "image": "https://locations.bonefishgrill.com/permanent-b0b701/assets/images/logo_bonefish.cb933808.png", "brand": "Bonefish Grill", "brand:wikidata": "Q4941599", "nsi_id": "bonefishgrill-96af40"}, "geometry": {"type": "Point", "coordinates": [-77.60251589939242, 37.649027388813465]}},
{"type": "Feature", "id": "f6PgovgCFDW-QvYqp58zypH-GMU=", "properties": {"ref": "https://locations.bonefishgrill.com/#15502764", "@spider": "bonefishgrill", "amenity": "restaurant", "cuisine": "seafood", "addr:street_address": "7611 Somerset Crossing Dr.", "addr:city": "Gainesville", "addr:state": "VA", "addr:postcode": "20155", "addr:country": "US", "name": "Bonefish Grill Gainesville, VA", "phone": "(703) 753-2597", "website": "https://locations.bonefishgrill.com/virginia/gainesville/7611-somerset-crossing-dr.", "opening_hours": "Mo-Th 12:00-22:00; Fr-Sa 11:00-22:30; Su 11:00-21:00", "image": "https://locations.bonefishgrill.com/permanent-b0b701/assets/images/logo_bonefish.cb933808.png", "brand": "Bonefish Grill", "brand:wikidata": "Q4941599", "nsi_id": "bonefishgrill-96af40"}, "geometry": {"type": "Point", "coordinates": [-77.63029416992322, 38.79278856923986]}},
{"type": "Feature", "id": "Tf5uEhhTUxecAvFM4TMZmiyvqEI=", "properties": {"ref": "https://locations.bonefishgrill.com/#15502805", "@spider": "bonefishgrill", "amenity": "restaurant", "cuisine": "seafood", "addr:street_address": "1779 Carl D. Silver Parkway", "addr:city": "Fredericksburg", "addr:state": "VA", "addr:postcode": "22401", "addr:country": "US", "name": "Bonefish Grill Fredericksburg, VA", "phone": "(540) 548-1984", "website": "https://locations.bonefishgrill.com/virginia/fredericksburg/1779-carl-d.-silver-parkway", "opening_hours": "Mo-Th 15:00-22:00; Fr-Sa 11:00-22:30; Su 11:00-21:00", "image": "https://locations.bonefishgrill.com/permanent-b0b701/assets/images/logo_bonefish.cb933808.png", "brand": "Bonefish Grill", "brand:wikidata": "Q4941599", "nsi_id": "bonefishgrill-96af40"}, "geometry": {"type": "Point", "coordinates": [-77.50893462881871, 38.30762357552414]}},
{"type": "Feature", "id": "rlqt7zUfh4uKPNe4RdhSPYDFlOs=", "properties": {"ref": "https://locations.bonefishgrill.com/#15502774", "@spider": "bonefishgrill", "amenity": "restaurant", "cuisine": "seafood", "addr:street_address": "13005 Lee Jackson Hwy", "addr:city": "Fairfax", "addr:state": "VA", "addr:postcode": "22033", "addr:country": "US", "name": "Bonefish Grill Fairfax Greenbriar, VA", "phone": "(703) 378-4970", "website": "https://locations.bonefishgrill.com/virginia/fairfax/13005-lee-jackson-hwy", "opening_hours": "Mo-Th 15:00-22:00; Fr-Sa 11:00-22:30; Su 11:00-21:00", "image": "https://locations.bonefishgrill.com/permanent-b0b701/assets/images/logo_bonefish.cb933808.png", "brand": "Bonefish Grill", "brand:wikidata": "Q4941599", "nsi_id": "bonefishgrill-96af40"}, "geometry": {"type": "Point", "coordinates": [-77.39584047701614, 38.8790707679999]}},
{"type": "Feature", "id": "Pa8FfUb7hsW-8e-fRQRG75wi9HU=", "properties": {"ref": "https://locations.bonefishgrill.com/#15502783", "@spider": "bonefishgrill", "amenity": "restaurant", "cuisine": "seafood", "addr:street_address": "269 Connor Drive", "addr:city": "Charlottesville", "addr:state": "VA", "addr:postcode": "22911", "addr:country": "US", "name": "Bonefish Grill Charlottesville, VA", "phone": "(434) 975-3474", "website": "https://locations.bonefishgrill.com/virginia/charlottesville/269-connor-drive", "opening_hours": "Mo-Th 11:00-21:00; Fr-Sa 11:00-22:00; Su 11:00-21:00", "image": "https://locations.bonefishgrill.com/permanent-b0b701/assets/images/logo_bonefish.cb933808.png", "brand": "Bonefish Grill", "brand:wikidata": "Q4941599", "nsi_id": "bonefishgrill-96af40"}, "geometry": {"type": "Point", "coordinates": [-78.44236960136915, 38.129256289373764]}},
{"type": "Feature", "id": "Doh0NgHfTTpDHAUbd2URe-vjphE=", "properties": {"ref": "https://locations.bonefishgrill.com/#15502724", "@spider": "bonefishgrill", "amenity": "restaurant", "cuisine": "seafood", "addr:street_address": "43135 Broadlands Center Plaza Ste 137", "addr:city": "Ashburn", "addr:state": "VA", "addr:postcode": "20148", "addr:country": "US", "name": "Bonefish Grill Ashburn, VA", "phone": "(703) 723-8246", "website": "https://locations.bonefishgrill.com/virginia/ashburn/43135-broadlands-center-plaza", "opening_hours": "Mo-Th 15:00-21:00; Fr-Sa 11:00-22:00; Su 11:00-21:00", "image": "https://locations.bonefishgrill.com/permanent-b0b701/assets/images/logo_bonefish.cb933808.png", "brand": "Bonefish Grill", "brand:wikidata": "Q4941599", "nsi_id": "bonefishgrill-96af40"}, "geometry": {"type": "Point", "coordinates": [-77.51034061956776, 39.02698481760481]}},
{"type": "Feature", "id": "unZGligE9tPpAjUx1FJ-3R62_JY=", "properties": {"ref": "https://locations.bonefishgrill.com/#15502799", "@spider": "bonefishgrill", "amenity": "restaurant", "cuisine": "seafood", "addr:street_address": "1101 S. Joyce Street", "addr:city": "Arlington", "addr:state": "VA", "addr:postcode": "22202", "addr:country": "US", "name": "Bonefish Grill Arlington, VA", "phone": "(703) 412-2837", "website": "https://locations.bonefishgrill.com/virginia/arlington/1101-s.-joyce-street", "opening_hours": "Mo-Th 11:00-22:00; Fr-Sa 11:00-22:30; Su 11:00-21:00", "image": "https://locations.bonefishgrill.com/permanent-b0b701/assets/images/logo_bonefish.cb933808.png", "brand": "Bonefish Grill", "brand:wikidata": "Q4941599", "nsi_id": "bonefishgrill-96af40"}, "geometry": {"type": "Point", "coordinates": [-77.06256861165677, 38.86482644622294]}},
{"type": "Feature", "id": "WjKiWOvNkTbeshiuJYGcpUDs7uU=", "properties": {"ref": "https://locations.bonefishgrill.com/#15502730", "@spider": "bonefishgrill", "amenity": "restaurant", "cuisine": "seafood", "addr:street_address": "5920 Kingstowne Town Center", "addr:city": "Alexandria", "addr:state": "VA", "addr:postcode": "22315", "addr:country": "US", "name": "Bonefish Grill Alexandria, VA", "phone": "(703) 971-3202", "website": "https://locations.bonefishgrill.com/virginia/alexandria/5920-kingstowne-town-center", "opening_hours": "Mo-Th 11:00-22:00; Fr-Sa 11:00-23:00; Su 11:00-21:00", "image": "https://locations.bonefishgrill.com/permanent-b0b701/assets/images/logo_bonefish.cb933808.png", "brand": "Bonefish Grill", "brand:wikidata": "Q4941599", "nsi_id": "bonefishgrill-96af40"}, "geometry": {"type": "Point", "coordinates": [-77.1388249, 38.7722562]}},
{"type": "Feature", "id": "VPU6C272Zgw9bIpzsZ2wvTUiLjs=", "properties": {"ref": "https://locations.bonefishgrill.com/#15502832", "@spider": "bonefishgrill", "amenity": "restaurant", "cuisine": "seafood", "addr:street_address": "1201 E. Southlake Blvd", "addr:city": "Southlake", "addr:state": "TX", "addr:postcode": "76092", "addr:country": "US", "name": "Bonefish Grill Southlake, TX", "phone": "(817) 421-3263", "website": "https://locations.bonefishgrill.com/texas/southlake/1201-e.-southlake-blvd", "contact:email": "bg0904@bonefishgrill.com", "opening_hours": "Mo-Th 16:00-22:00; Fr 16:00-22:30; Sa 11:00-22:30; Su 11:00-21:00", "image": "https://locations.bonefishgrill.com/permanent-b0b701/assets/images/logo_bonefish.cb933808.png", "brand": "Bonefish Grill", "brand:wikidata": "Q4941599", "nsi_id": "bonefishgrill-96af40"}, "geometry": {"type": "Point", "coordinates": [-97.13327373493092, 32.9405440146704]}},
{"type": "Feature", "id": "ERX2AuJx9eNqzHZaR3D8GS7qG7c=", "properties": {"ref": "https://locations.bonefishgrill.com/#15502862", "@spider": "bonefishgrill", "amenity": "restaurant", "cuisine": "seafood", "addr:street_address": "190 E Stacy Rd Ste 100", "addr:city": "Allen", "addr:state": "TX", "addr:postcode": "75002", "addr:country": "US", "name": "Bonefish Grill Allen, TX", "phone": "(972) 737-3018", "website": "https://locations.bonefishgrill.com/texas/allen/190-e-stacy-rd", "contact:email": "bg0912@bonefishgrill.com", "opening_hours": "Mo-Th 11:00-22:00; Fr-Sa 11:00-23:00; Su 11:00-21:00", "image": "https://locations.bonefishgrill.com/permanent-b0b701/assets/images/logo_bonefish.cb933808.png", "brand": "Bonefish Grill", "brand:wikidata": "Q4941599", "nsi_id": "bonefishgrill-96af40"}, "geometry": {"type": "Point", "coordinates": [-96.6585346, 33.1290587]}},
{"type": "Feature", "id": "elwyaZdwswNdNHwJNx76FPx_JrQ=", "properties": {"ref": "https://locations.bonefishgrill.com/#15502755", "@spider": "bonefishgrill", "amenity": "restaurant", "cuisine": "seafood", "addr:street_address": "505 N. Thompson Lane", "addr:city": "Murfreesboro", "addr:state": "TN", "addr:postcode": "37129", "addr:country": "US", "name": "Bonefish Grill Murfreesboro, TN", "phone": "(615) 217-1883", "website": "https://locations.bonefishgrill.com/tennessee/murfreesboro/505-n.-thompson-lane", "opening_hours": "Mo-Th 11:00-22:00; Fr-Sa 11:00-23:00; Su 11:00-21:00", "image": "https://locations.bonefishgrill.com/permanent-b0b701/assets/images/logo_bonefish.cb933808.png", "brand": "Bonefish Grill", "brand:wikidata": "Q4941599", "nsi_id": "bonefishgrill-96af40"}, "geometry": {"type": "Point", "coordinates": [-86.4310295, 35.8561654]}},
{"type": "Feature", "id": "TRwQllYa5C07pJnmXwQUBdNhHQI=", "properties": {"ref": "https://locations.bonefishgrill.com/#15502732", "@spider": "bonefishgrill", "amenity": "restaurant", "cuisine": "seafood", "addr:street_address": "6610 Kingston Pike", "addr:city": "Knoxville", "addr:state": "TN", "addr:postcode": "37919", "addr:country": "US", "name": "Bonefish Grill Knoxville, TN", "phone": "(865) 558-5743", "website": "https://locations.bonefishgrill.com/tennessee/knoxville/6610-kingston-pike", "opening_hours": "Mo-Sa 11:00-22:00; Su 11:00-21:00", "image": "https://locations.bonefishgrill.com/permanent-b0b701/assets/images/logo_bonefish.cb933808.png", "brand": "Bonefish Grill", "brand:wikidata": "Q4941599", "nsi_id": "bonefishgrill-96af40"}, "geometry": {"type": "Point", "coordinates": [-84.01255260061168, 35.93106502018476]}},
{"type": "Feature", "id": "MCD3Vq3EiF11NtRZCb_2bF8DS3g=", "properties": {"ref": "https://locations.bonefishgrill.com/#15502769", "@spider": "bonefishgrill", "amenity": "restaurant", "cuisine": "seafood", "addr:street_address": "11395 Parkside Drive", "addr:city": "Knoxville", "addr:state": "TN", "addr:postcode": "37934", "addr:country": "US", "name": "Bonefish Grill Turkey Creek, TN", "phone": "(865) 966-9777", "website": "https://locations.bonefishgrill.com/tennessee/knoxville/11395-parkside-drive", "opening_hours": "Mo-Th 11:00-22:00; Fr-Sa 11:00-23:00; Su 11:00-21:00", "image": "https://locations.bonefishgrill.com/permanent-b0b701/assets/images/logo_bonefish.cb933808.png", "brand": "Bonefish Grill", "brand:wikidata": "Q4941599", "nsi_id": "bonefishgrill-96af40"}, "geometry": {"type": "Point", "coordinates": [-84.159252, 35.9008822]}},
{"type": "Feature", "id": "PVfUa3b-vOUb5CiZT5bdqQy1Z3I=", "properties": {"ref": "https://locations.bonefishgrill.com/#15502779", "@spider": "bonefishgrill", "amenity": "restaurant", "cuisine": "seafood", "addr:street_address": "1902 North Roan Street", "addr:city": "Johnson City", "addr:state": "TN", "addr:postcode": "37601", "addr:country": "US", "name": "Bonefish Grill Johnson City, TN", "phone": "(423) 434-0247", "website": "https://locations.bonefishgrill.com/tennessee/johnson-city/1902-north-roan-street", "contact:email": "bg0808@bonefishgrill.com", "opening_hours": "Mo-Th 16:00-22:00; Fr-Sa 11:00-22:00; Su 11:00-21:00", "image": "https://locations.bonefishgrill.com/permanent-b0b701/assets/images/logo_bonefish.cb933808.png", "brand": "Bonefish Grill", "brand:wikidata": "Q4941599", "nsi_id": "bonefishgrill-96af40"}, "geometry": {"type": "Point", "coordinates": [-82.37215429517842, 36.33607583798731]}},
{"type": "Feature", "id": "wOtlxQe-ZALzt4Zo9Xe0MYgy4A4=", "properties": {"ref": "https://locations.bonefishgrill.com/#15502747", "@spider": "bonefishgrill", "amenity": "restaurant", "cuisine": "seafood", "addr:street_address": "3010 A. Mallory Lane", "addr:city": "Franklin", "addr:state": "TN", "addr:postcode": "37067", "addr:country": "US", "name": "Bonefish Grill Cool Springs, TN", "phone": "(615) 771-1025", "website": "https://locations.bonefishgrill.com/tennessee/franklin/3010-a.-mallory-lane", "opening_hours": "Mo-Th 11:00-22:00; Fr-Sa 11:00-23:00; Su 11:00-21:00", "image": "https://locations.bonefishgrill.com/permanent-b0b701/assets/images/logo_bonefish.cb933808.png", "brand": "Bonefish Grill", "brand:wikidata": "Q4941599", "nsi_id": "bonefishgrill-96af40"}, "geometry": {"type": "Point", "coordinates": [-86.81807052881872, 35.94692224789342]}},
{"type": "Feature", "id": "g86ppZ53Dyjb2ZA2Yr_9njYA3bc=", "properties": {"ref": "https://locations.bonefishgrill.com/#15502798", "@spider": "bonefishgrill", "amenity": "restaurant", "cuisine": "seafood", "addr:street_address": "1250 N. Germantown Parkway", "addr:city": "Cordova", "addr:state": "TN", "addr:postcode": "38016", "addr:country": "US", "name": "Bonefish Grill Memphis, TN", "phone": "(901) 753-2220", "website": "https://locations.bonefishgrill.com/tennessee/cordova/1250-n.-germantown-parkway", "opening_hours": "Mo-Sa 16:00-22:00; Su 11:00-21:00", "image": "https://locations.bonefishgrill.com/permanent-b0b701/assets/images/logo_bonefish.cb933808.png", "brand": "Bonefish Grill", "brand:wikidata": "Q4941599", "nsi_id": "bonefishgrill-96af40"}, "geometry": {"type": "Point", "coordinates": [-89.79351499290767, 35.160005506510224]}},
{"type": "Feature", "id": "BTYYR8QKjLlgpvRFZ83S-G7oxGk=", "properties": {"ref": "https://locations.bonefishgrill.com/#15502726", "@spider": "bonefishgrill", "amenity": "restaurant", "cuisine": "seafood", "addr:street_address": "4680 Merchants Park Circle", "addr:city": "Collierville", "addr:state": "TN", "addr:postcode": "38017", "addr:country": "US", "name": "Bonefish Grill Collierville, TN", "phone": "(901) 854-5822", "website": "https://locations.bonefishgrill.com/tennessee/collierville/4680-merchants-park-circle", "contact:email": "bg0805@bonefishgrill.com", "opening_hours": "Mo-Fr 16:00-22:00; Sa 11:00-22:00; Su 11:00-21:00", "image": "https://locations.bonefishgrill.com/permanent-b0b701/assets/images/logo_bonefish.cb933808.png", "brand": "Bonefish Grill", "brand:wikidata": "Q4941599", "nsi_id": "bonefishgrill-96af40"}, "geometry": {"type": "Point", "coordinates": [-89.7203073, 35.0246597]}},
{"type": "Feature", "id": "JoHaHGvoiZeCUaDqZ3GvV62-PtE=", "properties": {"ref": "https://locations.bonefishgrill.com/#15502737", "@spider": "bonefishgrill", "amenity": "restaurant", "cuisine": "seafood", "addr:street_address": "2115 Gunbarrel Road", "addr:city": "Chattanooga", "addr:state": "TN", "addr:postcode": "37421", "addr:country": "US", "name": "Bonefish Grill Chattanooga, TN", "phone": "(423) 892-3175", "website": "https://locations.bonefishgrill.com/tennessee/chattanooga/2115-gunbarrel-road", "opening_hours": "Mo-Th 11:00-22:00; Fr-Sa 11:00-23:00; Su 11:00-21:00", "image": "https://locations.bonefishgrill.com/permanent-b0b701/assets/images/logo_bonefish.cb933808.png", "brand": "Bonefish Grill", "brand:wikidata": "Q4941599", "nsi_id": "bonefishgrill-96af40"}, "geometry": {"type": "Point", "coordinates": [-85.15414139504215, 35.03422641112323]}},
{"type": "Feature", "id": "C3pBP9N5vj3ogFI6Kk6xpMK_fug=", "properties": {"ref": "https://locations.bonefishgrill.com/#15502734", "@spider": "bonefishgrill", "amenity": "restaurant", "cuisine": "seafood", "addr:street_address": "8703 Highway 17 Bypass S.", "addr:city": "Surfside Beach", "addr:state": "SC", "addr:postcode": "29575", "addr:country": "US", "name": "Bonefish Grill Surfside, SC", "phone": "(843) 215-4374", "website": "https://locations.bonefishgrill.com/south-carolina/surfside-beach/8703-highway-17-bypass-s.", "opening_hours": "Mo-Sa 11:00-22:00; Su 11:00-21:00", "image": "https://locations.bonefishgrill.com/permanent-b0b701/assets/images/logo_bonefish.cb933808.png", "brand": "Bonefish Grill", "brand:wikidata": "Q4941599", "nsi_id": "bonefishgrill-96af40"}, "geometry": {"type": "Point", "coordinates": [-78.98734532819051, 33.64084917015532]}},
{"type": "Feature", "id": "2egYBIlr2VboQgx97Jzit8bJvCo=", "properties": {"ref": "https://locations.bonefishgrill.com/#15502817", "@spider": "bonefishgrill", "amenity": "restaurant", "cuisine": "seafood", "addr:street_address": "5041 International Blvd.", "addr:city": "North Charleston", "addr:state": "SC", "addr:postcode": "29418", "addr:country": "US", "name": "Bonefish Grill North Charleston, SC", "phone": "(843) 747-7735", "website": "https://locations.bonefishgrill.com/south-carolina/north-charleston/5041-international-blvd.", "opening_hours": "Mo-Th 11:00-22:30; Fr-Sa 11:00-23:00; Su 11:00-21:00", "image": "https://locations.bonefishgrill.com/permanent-b0b701/assets/images/logo_bonefish.cb933808.png", "brand": "Bonefish Grill", "brand:wikidata": "Q4941599", "nsi_id": "bonefishgrill-96af40"}, "geometry": {"type": "Point", "coordinates": [-80.0162437, 32.8663724]}},
{"type": "Feature", "id": "XWkg4vYvoB3zKk8y5L-LHI5H1oQ=", "properties": {"ref": "https://locations.bonefishgrill.com/#15502677", "@spider": "bonefishgrill", "amenity": "restaurant", "cuisine": "seafood", "addr:street_address": "103 Highway 17 S", "addr:city": "N. Myrtle Beach", "addr:state": "SC", "addr:postcode": "29582", "addr:country": "US", "name": "Bonefish Grill North Myrtle Beach, SC", "phone": "(843) 280-6638", "website": "https://locations.bonefishgrill.com/south-carolina/n.-myrtle-beach/103-highway-17-s", "opening_hours": "Mo-Fr 16:00-22:00; Sa 11:00-22:00; Su 11:00-21:00", "image": "https://locations.bonefishgrill.com/permanent-b0b701/assets/images/logo_bonefish.cb933808.png", "brand": "Bonefish Grill", "brand:wikidata": "Q4941599", "nsi_id": "bonefishgrill-96af40"}, "geometry": {"type": "Point", "coordinates": [-78.68180101165675, 33.82616065771129]}},
{"type": "Feature", "id": "qpmusrfJCs65kuKDm0ahMgBaOnQ=", "properties": {"ref": "https://locations.bonefishgrill.com/#15502701", "@spider": "bonefishgrill", "amenity": "restaurant", "cuisine": "seafood", "addr:street_address": "7401 N. Kings Highway", "addr:city": "Myrtle Beach", "addr:state": "SC", "addr:postcode": "29572", "addr:country": "US", "name": "Bonefish Grill Myrtle Beach, SC", "phone": "(843) 497-5294", "website": "https://locations.bonefishgrill.com/south-carolina/myrtle-beach/7401-n.-kings-highway", "opening_hours": "Mo-Th 15:00-22:00; Fr-Sa 11:00-22:00; Su 11:00-21:00", "image": "https://locations.bonefishgrill.com/permanent-b0b701/assets/images/logo_bonefish.cb933808.png", "brand": "Bonefish Grill", "brand:wikidata": "Q4941599", "nsi_id": "bonefishgrill-96af40"}, "geometry": {"type": "Point", "coordinates": [-78.82104585706041, 33.74567484856187]}},
{"type": "Feature", "id": "guterS5AEPBgxlGHZUW_z4NRoPs=", "properties": {"ref": "https://locations.bonefishgrill.com/#15502803", "@spider": "bonefishgrill", "amenity": "restaurant", "cuisine": "seafood", "addr:street_address": "1515 Woodruff Road", "addr:city": "Greenville", "addr:state": "SC", "addr:postcode": "29607", "addr:country": "US", "name": "Bonefish Grill Greenville, SC", "phone": "(864) 297-5142", "website": "https://locations.bonefishgrill.com/south-carolina/greenville/1515-woodruff-road", "opening_hours": "Mo-Th 11:00-22:00; Fr-Sa 11:00-23:00; Su 11:00-21:00", "image": "https://locations.bonefishgrill.com/permanent-b0b701/assets/images/logo_bonefish.cb933808.png", "brand": "Bonefish Grill", "brand:wikidata": "Q4941599", "nsi_id": "bonefishgrill-96af40"}, "geometry": {"type": "Point", "coordinates": [-82.27780797375982, 34.820760302908575]}},
{"type": "Feature", "id": "CpPw_mnTsRceytbo_jfELYWAN4w=", "properties": {"ref": "https://locations.bonefishgrill.com/#15502751", "@spider": "bonefishgrill", "amenity": "restaurant", "cuisine": "seafood", "addr:street_address": "4708 Forest Drive", "addr:city": "Columbia", "addr:state": "SC", "addr:postcode": "29206", "addr:country": "US", "name": "Bonefish Grill Columbia, SC", "phone": "(803) 787-6200", "website": "https://locations.bonefishgrill.com/south-carolina/columbia/4708-forest-drive", "opening_hours": "Mo-Th 11:00-22:00; Fr-Sa 11:00-23:00; Su 11:00-21:00", "image": "https://locations.bonefishgrill.com/permanent-b0b701/assets/images/logo_bonefish.cb933808.png", "brand": "Bonefish Grill", "brand:wikidata": "Q4941599", "nsi_id": "bonefishgrill-96af40"}, "geometry": {"type": "Point", "coordinates": [-80.96974226575581, 34.01907609483916]}},
{"type": "Feature", "id": "SnIG_LB3zL8C-VGA5KEn8gDqyJE=", "properties": {"ref": "https://locations.bonefishgrill.com/#15502767", "@spider": "bonefishgrill", "amenity": "restaurant", "cuisine": "seafood", "addr:street_address": "1260 Bower Parkway", "addr:city": "Columbia", "addr:state": "SC", "addr:postcode": "29212", "addr:country": "US", "name": "Bonefish Grill Harbison, SC", "phone": "(803) 407-1599", "website": "https://locations.bonefishgrill.com/south-carolina/columbia/1260-bower-parkway", "opening_hours": "Mo-Th 11:00-22:00; Fr-Sa 11:00-23:00; Su 11:00-21:00", "image": "https://locations.bonefishgrill.com/permanent-b0b701/assets/images/logo_bonefish.cb933808.png", "brand": "Bonefish Grill", "brand:wikidata": "Q4941599", "nsi_id": "bonefishgrill-96af40"}, "geometry": {"type": "Point", "coordinates": [-81.15414450263485, 34.069047618453254]}},
{"type": "Feature", "id": "14HJk6efNWNN8hMc6OjWzx5xOuA=", "properties": {"ref": "https://locations.bonefishgrill.com/#15502676", "@spider": "bonefishgrill", "amenity": "restaurant", "cuisine": "seafood", "addr:street_address": "1015 Easton Road", "addr:city": "Willow Grove", "addr:state": "PA", "addr:postcode": "19090", "addr:country": "US", "name": "Bonefish Grill Willow Grove, PA", "phone": "(215) 659-5854", "website": "https://locations.bonefishgrill.com/pennsylvania/willow-grove/1015-easton-road", "opening_hours": "Mo-Th 16:00-22:00; Fr-Sa 11:00-23:00; Su 11:00-21:00", "image": "https://locations.bonefishgrill.com/permanent-b0b701/assets/images/logo_bonefish.cb933808.png", "brand": "Bonefish Grill", "brand:wikidata": "Q4941599", "nsi_id": "bonefishgrill-96af40"}, "geometry": {"type": "Point", "coordinates": [-75.1202965, 40.1550998]}},
{"type": "Feature", "id": "HkpBuQV5dN9X4Yu8g71wWh7sYgw=", "properties": {"ref": "https://locations.bonefishgrill.com/#15502766", "@spider": "bonefishgrill", "amenity": "restaurant", "cuisine": "seafood", "addr:street_address": "901 Lehigh Lifestyle Center", "addr:city": "Whitehall", "addr:state": "PA", "addr:postcode": "18052", "addr:country": "US", "name": "Bonefish Grill Whitehall, PA", "phone": "(610) 264-3476", "website": "https://locations.bonefishgrill.com/pennsylvania/whitehall/901-lehigh-lifestyle-center", "opening_hours": "Mo-Th 11:00-22:00; Fr-Sa 11:00-23:00; Su 11:00-21:00", "image": "https://locations.bonefishgrill.com/permanent-b0b701/assets/images/logo_bonefish.cb933808.png", "brand": "Bonefish Grill", "brand:wikidata": "Q4941599", "nsi_id": "bonefishgrill-96af40"}, "geometry": {"type": "Point", "coordinates": [-75.48222675210866, 40.629499321150526]}},
{"type": "Feature", "id": "jYlvQ7JBx7VDBzhOIM-0NQja9OQ=", "properties": {"ref": "https://locations.bonefishgrill.com/#15502838", "@spider": "bonefishgrill", "amenity": "restaurant", "cuisine": "seafood", "addr:street_address": "1835 Washington Road", "addr:city": "Upper St. Clair", "addr:state": "PA", "addr:postcode": "15241", "addr:country": "US", "name": "Bonefish Grill South Hills, PA", "phone": "(412) 835-3239", "website": "https://locations.bonefishgrill.com/pennsylvania/upper-st.-clair/1835-washington-road", "opening_hours": "Mo-Th 11:00-22:00; Fr-Sa 11:00-23:00; Su 11:00-21:00", "image": "https://locations.bonefishgrill.com/permanent-b0b701/assets/images/logo_bonefish.cb933808.png", "brand": "Bonefish Grill", "brand:wikidata": "Q4941599", "nsi_id": "bonefishgrill-96af40"}, "geometry": {"type": "Point", "coordinates": [-80.056343, 40.3452186]}},
{"type": "Feature", "id": "hjTokVpLpVFo7WtDPV8JulFbS7o=", "properties": {"ref": "https://locations.bonefishgrill.com/#15502844", "@spider": "bonefishgrill", "amenity": "restaurant", "cuisine": "seafood", "addr:street_address": "27 Airport Square", "addr:city": "North Wales", "addr:state": "PA", "addr:postcode": "19454", "addr:country": "US", "name": "Bonefish Grill Montgomeryville, PA", "phone": "(215) 361-2932", "website": "https://locations.bonefishgrill.com/pennsylvania/north-wales/27-airport-square", "opening_hours": "Mo-Th 11:00-22:00; Fr-Sa 11:00-23:00; Su 11:00-21:00", "image": "https://locations.bonefishgrill.com/permanent-b0b701/assets/images/logo_bonefish.cb933808.png", "brand": "Bonefish Grill", "brand:wikidata": "Q4941599", "nsi_id": "bonefishgrill-96af40"}, "geometry": {"type": "Point", "coordinates": [-75.24083898309708, 40.23719451055601]}},
{"type": "Feature", "id": "pY8WZO8YtNof136hSmG6qzp4AoI=", "properties": {"ref": "https://locations.bonefishgrill.com/#15502851", "@spider": "bonefishgrill", "amenity": "restaurant", "cuisine": "seafood", "addr:street_address": "4889 W. Chester Pike", "addr:city": "Newtown Square", "addr:state": "PA", "addr:postcode": "19073", "addr:country": "US", "name": "Bonefish Grill Edgmont, PA", "phone": "(610) 355-1784", "website": "https://locations.bonefishgrill.com/pennsylvania/newtown-square/4889-w.-chester-pike", "contact:email": "bg0304@bonefishgrill.com", "opening_hours": "Mo-Th 16:00-22:00; Fr 16:00-23:00; Sa 11:00-23:00; Su 11:00-21:00", "image": "https://locations.bonefishgrill.com/permanent-b0b701/assets/images/logo_bonefish.cb933808.png", "brand": "Bonefish Grill", "brand:wikidata": "Q4941599", "nsi_id": "bonefishgrill-96af40"}, "geometry": {"type": "Point", "coordinates": [-75.44182892713276, 39.97581105541904]}},
{"type": "Feature", "id": "ofrqnG5o2nvyjXzGs0TG935ZdXM=", "properties": {"ref": "https://locations.bonefishgrill.com/#15502827", "@spider": "bonefishgrill", "amenity": "restaurant", "cuisine": "seafood", "addr:street_address": "8950 Covenant Ave", "addr:city": "McCandless", "addr:state": "PA", "addr:postcode": "15237", "addr:country": "US", "name": "Bonefish Grill Mccandless, PA", "phone": "(412) 536-1881", "website": "https://locations.bonefishgrill.com/pennsylvania/mccandless/8950-covenant-ave", "opening_hours": "Mo-Th 11:00-22:00; Fr-Sa 11:00-23:00; Su 11:00-21:00", "image": "https://locations.bonefishgrill.com/permanent-b0b701/assets/images/logo_bonefish.cb933808.png", "brand": "Bonefish Grill", "brand:wikidata": "Q4941599", "nsi_id": "bonefishgrill-96af40"}, "geometry": {"type": "Point", "coordinates": [-80.0231198337469, 40.56962353935552]}},
{"type": "Feature", "id": "NSmnJq2axHPIhrBlgNywK8KvTOw=", "properties": {"ref": "https://locations.bonefishgrill.com/#15502693", "@spider": "bonefishgrill", "amenity": "restaurant", "cuisine": "seafood", "addr:street_address": "500 Oxford Valley Road", "addr:city": "Langhorne", "addr:state": "PA", "addr:postcode": "19047", "addr:country": "US", "name": "Bonefish Grill Langhorne, PA", "phone": "(215) 702-1312", "website": "https://locations.bonefishgrill.com/pennsylvania/langhorne/500-oxford-valley-road", "contact:email": "bg0306@bonefishgrill.com", "opening_hours": "Mo-Th 11:00-22:00; Fr-Sa 11:00-23:00; Su 11:00-21:00", "image": "https://locations.bonefishgrill.com/permanent-b0b701/assets/images/logo_bonefish.cb933808.png", "brand": "Bonefish Grill", "brand:wikidata": "Q4941599", "nsi_id": "bonefishgrill-96af40"}, "geometry": {"type": "Point", "coordinates": [-74.8693334, 40.1877663]}},
{"type": "Feature", "id": "Mx-zerdJRFmJpjdiKk2r4vWtlJg=", "properties": {"ref": "https://locations.bonefishgrill.com/#15502828", "@spider": "bonefishgrill", "amenity": "restaurant", "cuisine": "seafood", "addr:street_address": "970 Plaza Blvd", "addr:city": "Lancaster", "addr:state": "PA", "addr:postcode": "17601", "addr:country": "US", "name": "Bonefish Grill Lancaster, PA", "phone": "(717) 394-8414", "website": "https://locations.bonefishgrill.com/pennsylvania/lancaster/970-plaza-blvd", "opening_hours": "Mo-Th 11:00-22:00; Fr-Sa 11:00-23:00; Su 11:00-21:00", "image": "https://locations.bonefishgrill.com/permanent-b0b701/assets/images/logo_bonefish.cb933808.png", "brand": "Bonefish Grill", "brand:wikidata": "Q4941599", "nsi_id": "bonefishgrill-96af40"}, "geometry": {"type": "Point", "coordinates": [-76.3447364, 40.0660357]}},
{"type": "Feature", "id": "BQYhM4QKekILLkrSMIcb5iMeo0A=", "properties": {"ref": "https://locations.bonefishgrill.com/#15502836", "@spider": "bonefishgrill", "amenity": "restaurant", "cuisine": "seafood", "addr:street_address": "160 N Gulph Rd", "addr:city": "King Of Prussia", "addr:state": "PA", "addr:postcode": "19406", "addr:country": "US", "name": "Bonefish Grill King of Prussia, PA", "phone": "(610) 265-3415", "website": "https://locations.bonefishgrill.com/pennsylvania/king-of-prussia/160-n-gulph-rd", "contact:email": "RobertHughes@BonefishGrill.com", "opening_hours": "Mo-Sa 11:00-22:00; Su 11:00-21:00", "image": "https://locations.bonefishgrill.com/permanent-b0b701/assets/images/logo_bonefish.cb933808.png", "brand": "Bonefish Grill", "brand:wikidata": "Q4941599", "nsi_id": "bonefishgrill-96af40"}, "geometry": {"type": "Point", "coordinates": [-75.392073, 40.088783]}},
{"type": "Feature", "id": "N02AluUBsktjL9gBhpw3qAdhkRo=", "properties": {"ref": "https://locations.bonefishgrill.com/#15502727", "@spider": "bonefishgrill", "amenity": "restaurant", "cuisine": "seafood", "addr:street_address": "460 W. Lincoln Highway", "addr:city": "Exton", "addr:state": "PA", "addr:postcode": "19341", "addr:country": "US", "name": "Bonefish Grill Exton, PA", "phone": "(610) 524-1010", "website": "https://locations.bonefishgrill.com/pennsylvania/exton/460-w.-lincoln-highway", "opening_hours": "Mo-Th 11:00-22:00; Fr-Sa 11:00-23:00; Su 11:00-21:00", "image": "https://locations.bonefishgrill.com/permanent-b0b701/assets/images/logo_bonefish.cb933808.png", "brand": "Bonefish Grill", "brand:wikidata": "Q4941599", "nsi_id": "bonefishgrill-96af40"}, "geometry": {"type": "Point", "coordinates": [-75.64831162392521, 40.02355386504424]}},
{"type": "Feature", "id": "Jp7X8kM22aT_HDKiQCNtW3Qttd4=", "properties": {"ref": "https://locations.bonefishgrill.com/#15502847", "@spider": "bonefishgrill", "amenity": "restaurant", "cuisine": "seafood", "addr:street_address": "3505 Gettysburg Road", "addr:city": "Camp Hill", "addr:state": "PA", "addr:postcode": "17011", "addr:country": "US", "name": "Bonefish Grill Camp Hill, PA", "phone": "(717) 737-6541", "website": "https://locations.bonefishgrill.com/pennsylvania/camp-hill/3505-gettysburg-road", "opening_hours": "Mo-Th 11:00-22:00; Fr-Sa 11:00-23:00; Su 11:00-21:00", "image": "https://locations.bonefishgrill.com/permanent-b0b701/assets/images/logo_bonefish.cb933808.png", "brand": "Bonefish Grill", "brand:wikidata": "Q4941599", "nsi_id": "bonefishgrill-96af40"}, "geometry": {"type": "Point", "coordinates": [-76.9342686519453, 40.22524916599502]}},
{"type": "Feature", "id": "SZK1GgP8o_yP6fc-MrCjyvJ6YDs=", "properties": {"ref": "https://locations.bonefishgrill.com/#15502692", "@spider": "bonefishgrill", "amenity": "restaurant", "cuisine": "seafood", "addr:street_address": "4651 W. Kenosha Street", "addr:city": "Broken Arrow", "addr:state": "OK", "addr:postcode": "74012", "addr:country": "US", "name": "Bonefish Grill Tulsa, OK", "phone": "(918) 252-3474", "website": "https://locations.bonefishgrill.com/oklahoma/broken-arrow/4651-w.-kenosha-street", "opening_hours": "Mo-Th 11:00-22:00; Fr-Sa 11:00-23:00; Su 11:00-21:00", "image": "https://locations.bonefishgrill.com/permanent-b0b701/assets/images/logo_bonefish.cb933808.png", "brand": "Bonefish Grill", "brand:wikidata": "Q4941599", "nsi_id": "bonefishgrill-96af40"}, "geometry": {"type": "Point", "coordinates": [-95.84786415322844, 36.05998195669792]}},
{"type": "Feature", "id": "wWM9USyC9YZvzjAMsW1bHn_QbNE=", "properties": {"ref": "https://locations.bonefishgrill.com/#15502806", "@spider": "bonefishgrill", "amenity": "restaurant", "cuisine": "seafood", "addr:street_address": "1900 Crocker Road", "addr:city": "Westlake", "addr:state": "OH", "addr:postcode": "44145", "addr:country": "US", "name": "Bonefish Grill Crocker Park, OH", "phone": "(440) 414-0657", "website": "https://locations.bonefishgrill.com/ohio/westlake/1900-crocker-road", "contact:email": "WestLake@BonefishGrill.com", "opening_hours": "Mo-Th 11:00-22:00; Fr-Sa 11:00-23:00; Su 11:00-21:00", "image": "https://locations.bonefishgrill.com/permanent-b0b701/assets/images/logo_bonefish.cb933808.png", "brand": "Bonefish Grill", "brand:wikidata": "Q4941599", "nsi_id": "bonefishgrill-96af40"}, "geometry": {"type": "Point", "coordinates": [-81.95141088157293, 41.46247329562879]}},
{"type": "Feature", "id": "IKhlXK3lyy-AXns8g6XFtA050y4=", "properties": {"ref": "https://locations.bonefishgrill.com/#15502702", "@spider": "bonefishgrill", "amenity": "restaurant", "cuisine": "seafood", "addr:street_address": "7710 Voice Of America Centre Drive", "addr:city": "West Chester", "addr:state": "OH", "addr:postcode": "45069", "addr:country": "US", "name": "Bonefish Grill West Chester, OH", "phone": "(513) 755-2303", "website": "https://locations.bonefishgrill.com/ohio/west-chester/7710-voice-of-america-centre-drive", "opening_hours": "Mo-Fr 16:00-22:00; Sa 11:00-22:00; Su 11:00-21:00", "image": "https://locations.bonefishgrill.com/permanent-b0b701/assets/images/logo_bonefish.cb933808.png", "brand": "Bonefish Grill", "brand:wikidata": "Q4941599", "nsi_id": "bonefishgrill-96af40"}, "geometry": {"type": "Point", "coordinates": [-84.36125291051351, 39.3541095112716]}},
{"type": "Feature", "id": "1TJX4bsB2I9ZVmtHemFnU-nrgP0=", "properties": {"ref": "https://locations.bonefishgrill.com/#15502867", "@spider": "bonefishgrill", "amenity": "restaurant", "cuisine": "seafood", "addr:street_address": "6341 Strip Ave. Nw", "addr:city": "North Canton", "addr:state": "OH", "addr:postcode": "44720", "addr:country": "US", "name": "Bonefish Grill Canton, OH", "phone": "(330) 966-4876", "website": "https://locations.bonefishgrill.com/ohio/north-canton/6341-strip-ave.-nw", "opening_hours": "Mo-Th 11:00-21:00; Fr-Sa 11:00-22:00; Su 11:00-21:00", "image": "https://locations.bonefishgrill.com/permanent-b0b701/assets/images/logo_bonefish.cb933808.png", "brand": "Bonefish Grill", "brand:wikidata": "Q4941599", "nsi_id": "bonefishgrill-96af40"}, "geometry": {"type": "Point", "coordinates": [-81.4314609, 40.87247]}},
{"type": "Feature", "id": "YapBp701-EDD0QFxR_XWH_H6kVw=", "properties": {"ref": "https://locations.bonefishgrill.com/#15502731", "@spider": "bonefishgrill", "amenity": "restaurant", "cuisine": "seafood", "addr:street_address": "6150 Rockside Place", "addr:city": "Independence", "addr:state": "OH", "addr:postcode": "44131", "addr:country": "US", "name": "Bonefish Grill Cleveland, OH", "phone": "(216) 520-2606", "website": "https://locations.bonefishgrill.com/ohio/independence/6150-rockside-place", "opening_hours": "Mo-Th 16:00-21:00; Fr-Sa 12:00-22:00; Su 12:00-21:00", "image": "https://locations.bonefishgrill.com/permanent-b0b701/assets/images/logo_bonefish.cb933808.png", "brand": "Bonefish Grill", "brand:wikidata": "Q4941599", "nsi_id": "bonefishgrill-96af40"}, "geometry": {"type": "Point", "coordinates": [-81.65067351268071, 41.397157053391695]}},
{"type": "Feature", "id": "zrdGHGoP1Hou9TyobFS6EGBY5aQ=", "properties": {"ref": "https://locations.bonefishgrill.com/#15502790", "@spider": "bonefishgrill", "amenity": "restaurant", "cuisine": "seafood", "addr:street_address": "5712 Frantz Road", "addr:city": "Dublin", "addr:state": "OH", "addr:postcode": "43016", "addr:country": "US", "name": "Bonefish Grill Columbus, OH", "phone": "(614) 789-3474", "website": "https://locations.bonefishgrill.com/ohio/dublin/5712-frantz-road", "opening_hours": "Mo-Fr 16:00-22:00; Sa-Su 11:00-21:00", "image": "https://locations.bonefishgrill.com/permanent-b0b701/assets/images/logo_bonefish.cb933808.png", "brand": "Bonefish Grill", "brand:wikidata": "Q4941599", "nsi_id": "bonefishgrill-96af40"}, "geometry": {"type": "Point", "coordinates": [-83.11838877990442, 40.07032469931009]}},
{"type": "Feature", "id": "cNIm6ThFjBRT_UB1rvj0M4ZJ8To=", "properties": {"ref": "https://locations.bonefishgrill.com/#15502745", "@spider": "bonefishgrill", "amenity": "restaurant", "cuisine": "seafood", "addr:street_address": "2818 Miamisburg Centerville Road", "addr:city": "Dayton", "addr:state": "OH", "addr:postcode": "45459", "addr:country": "US", "name": "Bonefish Grill Dayton, OH", "phone": "(937) 428-0082", "website": "https://locations.bonefishgrill.com/ohio/dayton/2818-miamisburg-centerville-road", "opening_hours": "Mo-Sa 11:00-22:00; Su 11:00-21:00", "image": "https://locations.bonefishgrill.com/permanent-b0b701/assets/images/logo_bonefish.cb933808.png", "brand": "Bonefish Grill", "brand:wikidata": "Q4941599", "nsi_id": "bonefishgrill-96af40"}, "geometry": {"type": "Point", "coordinates": [-84.22243273143192, 39.636440703230996]}},
{"type": "Feature", "id": "32xOkVDRF7qy5L3n4URxU2M_lWI=", "properties": {"ref": "https://locations.bonefishgrill.com/#15502778", "@spider": "bonefishgrill", "amenity": "restaurant", "cuisine": "seafood", "addr:street_address": "1930 Polaris Parkway", "addr:city": "Columbus", "addr:state": "OH", "addr:postcode": "43240", "addr:country": "US", "name": "Bonefish Grill Polaris, OH", "phone": "(614) 436-0286", "website": "https://locations.bonefishgrill.com/ohio/columbus/1930-polaris-parkway", "opening_hours": "Mo-Fr 16:00-22:00; Sa 11:00-22:00; Su 11:00-21:00", "image": "https://locations.bonefishgrill.com/permanent-b0b701/assets/images/logo_bonefish.cb933808.png", "brand": "Bonefish Grill", "brand:wikidata": "Q4941599", "nsi_id": "bonefishgrill-96af40"}, "geometry": {"type": "Point", "coordinates": [-82.9670839, 40.14311]}},
{"type": "Feature", "id": "B7uPkbtw2LU-rTEvl0uXYFcrNN8=", "properties": {"ref": "https://locations.bonefishgrill.com/#15502810", "@spider": "bonefishgrill", "amenity": "restaurant", "cuisine": "seafood", "addr:street_address": "2737 Madison Road", "addr:city": "Cincinnati", "addr:state": "OH", "addr:postcode": "45209", "addr:country": "US", "name": "Bonefish Grill Cincinnati Hyde Park, OH", "phone": "(513) 321-5222", "website": "https://locations.bonefishgrill.com/ohio/cincinnati/2737-madison-road", "opening_hours": "Mo-Fr 16:00-22:00; Sa 11:00-22:00; Su 11:00-21:00", "image": "https://locations.bonefishgrill.com/permanent-b0b701/assets/images/logo_bonefish.cb933808.png", "brand": "Bonefish Grill", "brand:wikidata": "Q4941599", "nsi_id": "bonefishgrill-96af40"}, "geometry": {"type": "Point", "coordinates": [-84.44135, 39.1453203]}},
{"type": "Feature", "id": "EWuAfJ6e8vHItH-fSOmzV79ENPY=", "properties": {"ref": "https://locations.bonefishgrill.com/#15502728", "@spider": "bonefishgrill", "amenity": "restaurant", "cuisine": "seafood", "addr:street_address": "4719 New Centre Drive", "addr:city": "Wilmington", "addr:state": "NC", "addr:postcode": "28405", "addr:country": "US", "name": "Bonefish Grill Wilmington, NC", "phone": "(910) 313-1885", "website": "https://locations.bonefishgrill.com/north-carolina/wilmington/4719-new-centre-drive", "opening_hours": "Mo-Th 11:00-22:00; Fr-Sa 11:00-23:00; Su 11:00-21:00", "image": "https://locations.bonefishgrill.com/permanent-b0b701/assets/images/logo_bonefish.cb933808.png", "brand": "Bonefish Grill", "brand:wikidata": "Q4941599", "nsi_id": "bonefishgrill-96af40"}, "geometry": {"type": "Point", "coordinates": [-77.87797069151608, 34.245243197368666]}},
{"type": "Feature", "id": "-ONu88i4LJlC0bUDOkHaFlAhG0o=", "properties": {"ref": "https://locations.bonefishgrill.com/#15502777", "@spider": "bonefishgrill", "amenity": "restaurant", "cuisine": "seafood", "addr:street_address": "190 Partner Circle", "addr:city": "Southern Pines", "addr:state": "NC", "addr:postcode": "28387", "addr:country": "US", "name": "Bonefish Grill Southern Pines, NC", "phone": "(910) 692-1131", "website": "https://locations.bonefishgrill.com/north-carolina/southern-pines/190-partner-circle", "opening_hours": "Mo-Th 16:00-22:00; Fr 16:00-23:00; Sa 11:00-23:00; Su 11:00-21:00", "image": "https://locations.bonefishgrill.com/permanent-b0b701/assets/images/logo_bonefish.cb933808.png", "brand": "Bonefish Grill", "brand:wikidata": "Q4941599", "nsi_id": "bonefishgrill-96af40"}, "geometry": {"type": "Point", "coordinates": [-79.42427663252354, 35.16812090369334]}},
{"type": "Feature", "id": "Rou4NGVqIBxg4KwtuML60AO1GqU=", "properties": {"ref": "https://locations.bonefishgrill.com/#15502814", "@spider": "bonefishgrill", "amenity": "restaurant", "cuisine": "seafood", "addr:street_address": "4421 Six Forks Road", "addr:city": "Raleigh", "addr:state": "NC", "addr:postcode": "27609", "addr:country": "US", "name": "Bonefish Grill Raleigh, NC", "phone": "(919) 782-5127", "website": "https://locations.bonefishgrill.com/north-carolina/raleigh/4421-six-forks-road", "opening_hours": "Mo-Th 11:00-22:00; Fr-Sa 11:00-23:00; Su 11:00-21:00", "image": "https://locations.bonefishgrill.com/permanent-b0b701/assets/images/logo_bonefish.cb933808.png", "brand": "Bonefish Grill", "brand:wikidata": "Q4941599", "nsi_id": "bonefishgrill-96af40"}, "geometry": {"type": "Point", "coordinates": [-78.6433695, 35.8404341]}},
{"type": "Feature", "id": "YH2t4TUQeymr5RZ2fCZAZsohaBM=", "properties": {"ref": "https://locations.bonefishgrill.com/#15502744", "@spider": "bonefishgrill", "amenity": "restaurant", "cuisine": "seafood", "addr:street_address": "10430 E. Independence Boulevard", "addr:city": "Matthews", "addr:state": "NC", "addr:postcode": "28105", "addr:country": "US", "name": "Bonefish Grill Matthews Charlotte, NC", "phone": "(704) 845-8001", "website": "https://locations.bonefishgrill.com/north-carolina/matthews/10430-e.-independence-boulevard", "opening_hours": "Mo-Th 11:00-22:00; Fr-Sa 11:00-23:00; Su 11:00-21:00", "image": "https://locations.bonefishgrill.com/permanent-b0b701/assets/images/logo_bonefish.cb933808.png", "brand": "Bonefish Grill", "brand:wikidata": "Q4941599", "nsi_id": "bonefishgrill-96af40"}, "geometry": {"type": "Point", "coordinates": [-80.7064915, 35.1262874]}},
{"type": "Feature", "id": "OIgJ8sWBULeTlL8RvmRK9OMnqcY=", "properties": {"ref": "https://locations.bonefishgrill.com/#15502826", "@spider": "bonefishgrill", "amenity": "restaurant", "cuisine": "seafood", "addr:street_address": "8805 Townley Road Ste. B", "addr:city": "Huntersville", "addr:state": "NC", "addr:postcode": "28078", "addr:country": "US", "name": "Bonefish Grill Huntersville, NC", "phone": "(704) 892-3385", "website": "https://locations.bonefishgrill.com/north-carolina/huntersville/8805-townley-road", "opening_hours": "Mo-Th 11:00-22:00; Fr-Sa 11:00-23:00; Su 11:00-21:00", "image": "https://locations.bonefishgrill.com/permanent-b0b701/assets/images/logo_bonefish.cb933808.png", "brand": "Bonefish Grill", "brand:wikidata": "Q4941599", "nsi_id": "bonefishgrill-96af40"}, "geometry": {"type": "Point", "coordinates": [-80.8784048337413, 35.4449102554874]}},
{"type": "Feature", "id": "RHJM0aDcZ0UBg3xwwN6seVU7FGE=", "properties": {"ref": "https://locations.bonefishgrill.com/#15502780", "@spider": "bonefishgrill", "amenity": "restaurant", "cuisine": "seafood", "addr:street_address": "2100 Koury Boulevard", "addr:city": "Greensboro", "addr:state": "NC", "addr:postcode": "27407", "addr:country": "US", "name": "Bonefish Grill Greensboro, NC", "phone": "(336) 851-8900", "website": "https://locations.bonefishgrill.com/north-carolina/greensboro/2100-koury-boulevard", "opening_hours": "Mo-Th 16:00-22:00; Fr-Sa 11:00-23:00; Su 11:00-21:00", "image": "https://locations.bonefishgrill.com/permanent-b0b701/assets/images/logo_bonefish.cb933808.png", "brand": "Bonefish Grill", "brand:wikidata": "Q4941599", "nsi_id": "bonefishgrill-96af40"}, "geometry": {"type": "Point", "coordinates": [-79.83776894171618, 36.042138493622495]}},
{"type": "Feature", "id": "CZpR-CR8XiGoHqzImmvMBDav-wY=", "properties": {"ref": "https://locations.bonefishgrill.com/#15502840", "@spider": "bonefishgrill", "amenity": "restaurant", "cuisine": "seafood", "addr:street_address": "210 Glensford Drive", "addr:city": "Fayetteville", "addr:state": "NC", "addr:postcode": "28314", "addr:country": "US", "name": "Bonefish Grill Fayetteville, NC", "phone": "(910) 867-6847", "website": "https://locations.bonefishgrill.com/north-carolina/fayetteville/210-glensford-drive", "opening_hours": "Mo-Th 11:00-22:00; Fr-Sa 11:00-23:00; Su 11:00-21:00", "image": "https://locations.bonefishgrill.com/permanent-b0b701/assets/images/logo_bonefish.cb933808.png", "brand": "Bonefish Grill", "brand:wikidata": "Q4941599", "nsi_id": "bonefishgrill-96af40"}, "geometry": {"type": "Point", "coordinates": [-78.9614811, 35.0664933]}},
{"type": "Feature", "id": "cwGkaaSyX8UIMlnSCo0aQhAvo_s=", "properties": {"ref": "https://locations.bonefishgrill.com/#15502857", "@spider": "bonefishgrill", "amenity": "restaurant", "cuisine": "seafood", "addr:street_address": "7820 NC 751 Highway", "addr:city": "Durham", "addr:state": "NC", "addr:postcode": "27713", "addr:country": "US", "name": "Bonefish Grill Durham, NC", "phone": "(919) 248-2906", "website": "https://locations.bonefishgrill.com/north-carolina/durham/7820-nc-751-highway", "opening_hours": "Mo-Th 11:00-22:00; Fr-Sa 11:00-23:00; Su 11:00-21:00", "image": "https://locations.bonefishgrill.com/permanent-b0b701/assets/images/logo_bonefish.cb933808.png", "brand": "Bonefish Grill", "brand:wikidata": "Q4941599", "nsi_id": "bonefishgrill-96af40"}, "geometry": {"type": "Point", "coordinates": [-78.96027393886729, 35.901214435039854]}},
{"type": "Feature", "id": "ewlS1laghAdkGD2ippNKj1xx6N4=", "properties": {"ref": "https://locations.bonefishgrill.com/#15502859", "@spider": "bonefishgrill", "amenity": "restaurant", "cuisine": "seafood", "addr:street_address": "8503 Concord Mills Blvd", "addr:city": "Concord Mills", "addr:state": "NC", "addr:postcode": "28027", "addr:country": "US", "name": "Bonefish Grill Concord Mills NC, NC", "phone": "(704) 208-3618", "website": "https://locations.bonefishgrill.com/north-carolina/concord-mills/8503-concord-mills-blvd", "opening_hours": "Mo-Th 11:00-22:00; Fr-Sa 11:00-23:00; Su 11:00-21:00", "image": "https://locations.bonefishgrill.com/permanent-b0b701/assets/images/logo_bonefish.cb933808.png", "brand": "Bonefish Grill", "brand:wikidata": "Q4941599", "nsi_id": "bonefishgrill-96af40"}, "geometry": {"type": "Point", "coordinates": [-80.72190713124188, 35.37062047707144]}},
{"type": "Feature", "id": "o5DCh_SEdWh-E7DI7AeT8j9oJ2I=", "properties": {"ref": "https://locations.bonefishgrill.com/#15502703", "@spider": "bonefishgrill", "amenity": "restaurant", "cuisine": "seafood", "addr:street_address": "7520 Pineville Matthews Road", "addr:city": "Charlotte", "addr:state": "NC", "addr:postcode": "28226", "addr:country": "US", "name": "Bonefish Grill Charlotte, NC", "phone": "(704) 541-6659", "website": "https://locations.bonefishgrill.com/north-carolina/charlotte/7520-pineville-matthews-road", "opening_hours": "Mo-Th 16:00-22:00; Fr-Sa 11:00-23:00; Su 11:00-21:00", "image": "https://locations.bonefishgrill.com/permanent-b0b701/assets/images/logo_bonefish.cb933808.png", "brand": "Bonefish Grill", "brand:wikidata": "Q4941599", "nsi_id": "bonefishgrill-96af40"}, "geometry": {"type": "Point", "coordinates": [-80.8451741, 35.0887595]}},
{"type": "Feature", "id": "eyUIayV5j-J0kljzwCUMcFeh98s=", "properties": {"ref": "https://locations.bonefishgrill.com/#15502717", "@spider": "bonefishgrill", "amenity": "restaurant", "cuisine": "seafood", "addr:street_address": "2060 Renaissance Park Place", "addr:city": "Cary", "addr:state": "NC", "addr:postcode": "27513", "addr:country": "US", "name": "Bonefish Grill Cary, NC", "phone": "(919) 677-1347", "website": "https://locations.bonefishgrill.com/north-carolina/cary/2060-renaissance-park-place", "opening_hours": "Mo-Th 11:00-22:00; Fr-Sa 11:00-23:00; Su 11:00-21:00", "image": "https://locations.bonefishgrill.com/permanent-b0b701/assets/images/logo_bonefish.cb933808.png", "brand": "Bonefish Grill", "brand:wikidata": "Q4941599", "nsi_id": "bonefishgrill-96af40"}, "geometry": {"type": "Point", "coordinates": [-78.771359, 35.827487]}},
{"type": "Feature", "id": "ozXAO_5zaRwccjJtFBvmj91CsX0=", "properties": {"ref": "https://locations.bonefishgrill.com/#15502861", "@spider": "bonefishgrill", "amenity": "restaurant", "cuisine": "seafood", "addr:street_address": "340 Sunrise Hwy", "addr:city": "Rockville Centre", "addr:state": "NY", "addr:postcode": "11570", "addr:country": "US", "name": "Bonefish Grill Rockville Centre, NY", "phone": "(516) 766-1238", "website": "https://locations.bonefishgrill.com/new-york/rockville-centre/340-sunrise-hwy", "opening_hours": "Mo-Th 16:00-22:00; Fr 16:00-23:00; Sa 11:00-23:00; Su 11:00-21:00", "image": "https://locations.bonefishgrill.com/permanent-b0b701/assets/images/logo_bonefish.cb933808.png", "brand": "Bonefish Grill", "brand:wikidata": "Q4941599", "nsi_id": "bonefishgrill-96af40"}, "geometry": {"type": "Point", "coordinates": [-73.64167973656465, 40.65687622740824]}},
{"type": "Feature", "id": "Wb8ee-AMt8YM2Ho9EHtGHjhRPS8=", "properties": {"ref": "https://locations.bonefishgrill.com/#15502696", "@spider": "bonefishgrill", "amenity": "restaurant", "cuisine": "seafood", "addr:street_address": "600 Towne Drive", "addr:city": "Fayetteville", "addr:state": "NY", "addr:postcode": "13066", "addr:country": "US", "name": "Bonefish Grill Fayetteville, NY", "phone": "(315) 637-0491", "website": "https://locations.bonefishgrill.com/new-york/fayetteville/600-towne-drive", "opening_hours": "Mo-Fr 11:00-21:00; Sa 11:00-22:00; Su 11:00-21:00", "image": "https://locations.bonefishgrill.com/permanent-b0b701/assets/images/logo_bonefish.cb933808.png", "brand": "Bonefish Grill", "brand:wikidata": "Q4941599", "nsi_id": "bonefishgrill-96af40"}, "geometry": {"type": "Point", "coordinates": [-76.01906618627467, 43.034014017458084]}},
{"type": "Feature", "id": "-6Oe0Qefux7gWjCPkk9P-GBQi-Q=", "properties": {"ref": "https://locations.bonefishgrill.com/#15502685", "@spider": "bonefishgrill", "amenity": "restaurant", "cuisine": "seafood", "addr:street_address": "200 Mill Creek Drive", "addr:city": "Secaucus", "addr:state": "NJ", "addr:postcode": "07094", "addr:country": "US", "name": "Bonefish Grill Secaucus, NJ", "phone": "(201) 864-3004", "website": "https://locations.bonefishgrill.com/new-jersey/secaucus/200-mill-creek-drive", "contact:email": "bg9151@bonefishgrill.com", "opening_hours": "Mo-Th 11:00-22:00; Fr-Sa 11:00-23:00; Su 11:00-21:00", "image": "https://locations.bonefishgrill.com/permanent-b0b701/assets/images/logo_bonefish.cb933808.png", "brand": "Bonefish Grill", "brand:wikidata": "Q4941599", "nsi_id": "bonefishgrill-96af40"}, "geometry": {"type": "Point", "coordinates": [-74.04974685603827, 40.79132842278932]}},
{"type": "Feature", "id": "U_LKjc2HLcRYRg0RXkV8zZNzeQc=", "properties": {"ref": "https://locations.bonefishgrill.com/#15502687", "@spider": "bonefishgrill", "amenity": "restaurant", "cuisine": "seafood", "addr:street_address": "28 Route 46", "addr:city": "Pine Brook", "addr:state": "NJ", "addr:postcode": "07058", "addr:country": "US", "name": "Bonefish Grill Pinebrook, NJ", "phone": "(973) 227-2443", "website": "https://locations.bonefishgrill.com/new-jersey/pine-brook/28-route-46", "opening_hours": "Mo-Th 15:00-22:00; Fr-Sa 11:00-23:00; Su 11:00-21:00", "image": "https://locations.bonefishgrill.com/permanent-b0b701/assets/images/logo_bonefish.cb933808.png", "brand": "Bonefish Grill", "brand:wikidata": "Q4941599", "nsi_id": "bonefishgrill-96af40"}, "geometry": {"type": "Point", "coordinates": [-74.3390045, 40.8590736]}},
{"type": "Feature", "id": "JbND48ESDc7eeoqqJVmpQHW0IyY=", "properties": {"ref": "https://locations.bonefishgrill.com/#15502759", "@spider": "bonefishgrill", "amenity": "restaurant", "cuisine": "seafood", "addr:street_address": "601 From Road", "addr:city": "Paramus", "addr:state": "NJ", "addr:postcode": "07652", "addr:country": "US", "name": "Bonefish Grill Paramus, NJ", "phone": "(201) 261-2355", "website": "https://locations.bonefishgrill.com/new-jersey/paramus/601-from-road", "contact:email": "bg9154@bonefishgrill.com", "opening_hours": "Mo-Th 11:00-22:30; Fr-Sa 11:00-23:30; Su 11:00-21:00", "image": "https://locations.bonefishgrill.com/permanent-b0b701/assets/images/logo_bonefish.cb933808.png", "brand": "Bonefish Grill", "brand:wikidata": "Q4941599", "nsi_id": "bonefishgrill-96af40"}, "geometry": {"type": "Point", "coordinates": [-74.06718362838653, 40.960032064290104]}},
{"type": "Feature", "id": "_o6Tq0hYarrY_zyFGktBYjETaMY=", "properties": {"ref": "https://locations.bonefishgrill.com/#15502866", "@spider": "bonefishgrill", "amenity": "restaurant", "cuisine": "seafood", "addr:street_address": "500 Rt 73 North", "addr:city": "Marlton", "addr:state": "NJ", "addr:postcode": "08053", "addr:country": "US", "name": "Bonefish Grill Marlton, NJ", "phone": "(856) 396-3122", "website": "https://locations.bonefishgrill.com/new-jersey/marlton/500-rt-73-north", "opening_hours": "Mo-Th 16:00-22:00; Fr-Sa 11:00-23:00; Su 11:00-21:00", "image": "https://locations.bonefishgrill.com/permanent-b0b701/assets/images/logo_bonefish.cb933808.png", "brand": "Bonefish Grill", "brand:wikidata": "Q4941599", "nsi_id": "bonefishgrill-96af40"}, "geometry": {"type": "Point", "coordinates": [-74.9319412, 39.9002437]}},
{"type": "Feature", "id": "JyBj_Jik7EPD1ae-jZtXh_jfkYI=", "properties": {"ref": "https://locations.bonefishgrill.com/#15502818", "@spider": "bonefishgrill", "amenity": "restaurant", "cuisine": "seafood", "addr:street_address": "55 US Route 9", "addr:city": "Manalapan", "addr:state": "NJ", "addr:postcode": "07726", "addr:country": "US", "name": "Bonefish Grill Manalapan, NJ", "phone": "(732) 431-7608", "website": "https://locations.bonefishgrill.com/new-jersey/manalapan/55-us-route-9", "contact:email": "bg9112@bonefishgrill.com", "opening_hours": "Mo-Th 11:00-22:00; Fr-Sa 11:00-23:00; Su 11:00-21:00", "image": "https://locations.bonefishgrill.com/permanent-b0b701/assets/images/logo_bonefish.cb933808.png", "brand": "Bonefish Grill", "brand:wikidata": "Q4941599", "nsi_id": "bonefishgrill-96af40"}, "geometry": {"type": "Point", "coordinates": [-74.30157215115428, 40.29011785353978]}},
{"type": "Feature", "id": "MWnzVBJiL72uOa0sp7_GoAL1kDg=", "properties": {"ref": "https://locations.bonefishgrill.com/#15502846", "@spider": "bonefishgrill", "amenity": "restaurant", "cuisine": "seafood", "addr:street_address": "3371 Brunswick Pike Ste. 250A", "addr:city": "Lawrenceville", "addr:state": "NJ", "addr:postcode": "08648", "addr:country": "US", "name": "Bonefish Grill Lawrenceville, NJ", "phone": "(609) 799-3413", "website": "https://locations.bonefishgrill.com/new-jersey/lawrenceville/3371-brunswick-pike", "opening_hours": "Mo-Th 11:00-22:00; Fr-Sa 11:00-23:00; Su 11:00-21:00", "image": "https://locations.bonefishgrill.com/permanent-b0b701/assets/images/logo_bonefish.cb933808.png", "brand": "Bonefish Grill", "brand:wikidata": "Q4941599", "nsi_id": "bonefishgrill-96af40"}, "geometry": {"type": "Point", "coordinates": [-74.6827303, 40.2974091]}},
{"type": "Feature", "id": "d2mhHUSNA1ws4zotzQhUrIkvRpw=", "properties": {"ref": "https://locations.bonefishgrill.com/#15502758", "@spider": "bonefishgrill", "amenity": "restaurant", "cuisine": "seafood", "addr:street_address": "625 US 1", "addr:city": "Iselin", "addr:state": "NJ", "addr:postcode": "08830", "addr:country": "US", "name": "Bonefish Grill Iselin, NJ", "phone": "(732) 634-7379", "website": "https://locations.bonefishgrill.com/new-jersey/iselin/625-us-1", "opening_hours": "Mo-Th 11:00-22:00; Fr-Sa 11:00-23:00; Su 11:00-21:00", "image": "https://locations.bonefishgrill.com/permanent-b0b701/assets/images/logo_bonefish.cb933808.png", "brand": "Bonefish Grill", "brand:wikidata": "Q4941599", "nsi_id": "bonefishgrill-96af40"}, "geometry": {"type": "Point", "coordinates": [-74.3079085711813, 40.55791988484206]}},
{"type": "Feature", "id": "rMXLREINkFBZQG1YgATP2cTZt6o=", "properties": {"ref": "https://locations.bonefishgrill.com/#15502784", "@spider": "bonefishgrill", "amenity": "restaurant", "cuisine": "seafood", "addr:street_address": "3121 Fire Road", "addr:city": "Egg Harbor Township", "addr:state": "NJ", "addr:postcode": "08234", "addr:country": "US", "name": "Bonefish Grill Egg Harbor Township, NJ", "phone": "(609) 646-2828", "website": "https://locations.bonefishgrill.com/new-jersey/egg-harbor-township/3121-fire-road", "opening_hours": "Mo-Th 16:00-22:00; Fr 16:00-23:00; Sa 11:00-23:00; Su 11:00-21:00", "image": "https://locations.bonefishgrill.com/permanent-b0b701/assets/images/logo_bonefish.cb933808.png", "brand": "Bonefish Grill", "brand:wikidata": "Q4941599", "nsi_id": "bonefishgrill-96af40"}, "geometry": {"type": "Point", "coordinates": [-74.5620711282796, 39.39404831074273]}},
{"type": "Feature", "id": "05P473Li2VGNjDd1bdr0Sjt48vI=", "properties": {"ref": "https://locations.bonefishgrill.com/#15502689", "@spider": "bonefishgrill", "amenity": "restaurant", "cuisine": "seafood", "addr:street_address": "335 Route 18", "addr:city": "E. Brunswick", "addr:state": "NJ", "addr:postcode": "08816", "addr:country": "US", "name": "Bonefish Grill East Brunswick, NJ", "phone": "(732) 390-0838", "website": "https://locations.bonefishgrill.com/new-jersey/e.-brunswick/335-route-18", "opening_hours": "Mo-Th 11:00-22:00; Fr-Sa 11:00-23:00; Su 11:00-21:00", "image": "https://locations.bonefishgrill.com/permanent-b0b701/assets/images/logo_bonefish.cb933808.png", "brand": "Bonefish Grill", "brand:wikidata": "Q4941599", "nsi_id": "bonefishgrill-96af40"}, "geometry": {"type": "Point", "coordinates": [-74.40053659751234, 40.453607845947154]}},
{"type": "Feature", "id": "tLbCefHMDc6H7twPwBdKy794LwI=", "properties": {"ref": "https://locations.bonefishgrill.com/#15502713", "@spider": "bonefishgrill", "amenity": "restaurant", "cuisine": "seafood", "addr:street_address": "1709 Deptford Center Road", "addr:city": "Deptford", "addr:state": "NJ", "addr:postcode": "08096", "addr:country": "US", "name": "Bonefish Grill Deptford, NJ", "phone": "(856) 848-6261", "website": "https://locations.bonefishgrill.com/new-jersey/deptford/1709-deptford-center-road", "opening_hours": "Mo-Th 16:00-22:00; Fr-Sa 11:00-23:00; Su 11:00-21:00", "image": "https://locations.bonefishgrill.com/permanent-b0b701/assets/images/logo_bonefish.cb933808.png", "brand": "Bonefish Grill", "brand:wikidata": "Q4941599", "nsi_id": "bonefishgrill-96af40"}, "geometry": {"type": "Point", "coordinates": [-75.09969593450772, 39.82783226331216]}},
{"type": "Feature", "id": "kwIuiYC9r7eTDJPZcm5W78gYFgc=", "properties": {"ref": "https://locations.bonefishgrill.com/#15502714", "@spider": "bonefishgrill", "amenity": "restaurant", "cuisine": "seafood", "addr:street_address": "179 Van Zile Road", "addr:city": "Brick", "addr:state": "NJ", "addr:postcode": "08724", "addr:country": "US", "name": "Bonefish Grill Brick, NJ", "phone": "(732) 785-2725", "website": "https://locations.bonefishgrill.com/new-jersey/brick/179-van-zile-road", "opening_hours": "Mo-Th 16:00-22:00; Fr-Sa 11:00-23:00; Su 11:00-21:00", "image": "https://locations.bonefishgrill.com/permanent-b0b701/assets/images/logo_bonefish.cb933808.png", "brand": "Bonefish Grill", "brand:wikidata": "Q4941599", "nsi_id": "bonefishgrill-96af40"}, "geometry": {"type": "Point", "coordinates": [-74.11854429210993, 40.076343497260105]}},
{"type": "Feature", "id": "la_NrMe5dDYJgraGwTIgpPAqsqk=", "properties": {"ref": "https://locations.bonefishgrill.com/#15502870", "@spider": "bonefishgrill", "amenity": "restaurant", "cuisine": "seafood", "addr:street_address": "8701 W Charleston Blvd", "addr:city": "Las Vegas", "addr:state": "NV", "addr:postcode": "89117", "addr:country": "US", "name": "Bonefish Grill Summerlin, NV", "phone": "(702) 240-0532", "website": "https://locations.bonefishgrill.com/nevada/las-vegas/8701-w-charleston-blvd", "contact:email": "LasVegas@BonefishGrill.com", "opening_hours": "Mo-Th 16:00-22:00; Fr-Sa 11:00-22:30; Su 11:00-21:00", "image": "https://locations.bonefishgrill.com/permanent-b0b701/assets/images/logo_bonefish.cb933808.png", "brand": "Bonefish Grill", "brand:wikidata": "Q4941599", "nsi_id": "bonefishgrill-96af40"}, "geometry": {"type": "Point", "coordinates": [-115.28520746823726, 36.15856385162813]}},
{"type": "Feature", "id": "b-QO-jy6xI0gVANTVE1t0wToWa4=", "properties": {"ref": "https://locations.bonefishgrill.com/#15502853", "@spider": "bonefishgrill", "amenity": "restaurant", "cuisine": "seafood", "addr:street_address": "6527 S. Las Vegas Blvd.", "addr:city": "Las Vegas", "addr:state": "NV", "addr:postcode": "89119", "addr:country": "US", "name": "Bonefish Grill Las Vegas, NV", "phone": "(702) 407-0980", "website": "https://locations.bonefishgrill.com/nevada/las-vegas/6527-s.-las-vegas-blvd.", "contact:email": "LasVegas@BonefishGrill.com", "opening_hours": "Mo-Th 11:00-22:00; Fr-Sa 11:00-23:00; Su 11:00-21:00", "image": "https://locations.bonefishgrill.com/permanent-b0b701/assets/images/logo_bonefish.cb933808.png", "brand": "Bonefish Grill", "brand:wikidata": "Q4941599", "nsi_id": "bonefishgrill-96af40"}, "geometry": {"type": "Point", "coordinates": [-115.17460113740158, 36.070059688700084]}},
{"type": "Feature", "id": "vQTM0GniETtpzjwgQKT679dK51c=", "properties": {"ref": "https://locations.bonefishgrill.com/#15502771", "@spider": "bonefishgrill", "amenity": "restaurant", "cuisine": "seafood", "addr:street_address": "120 Regency Parkway", "addr:city": "Omaha", "addr:state": "NE", "addr:postcode": "68114", "addr:country": "US", "name": "Bonefish Grill Omaha, NE", "phone": "(402) 391-3474", "website": "https://locations.bonefishgrill.com/nebraska/omaha/120-regency-parkway", "opening_hours": "Mo-Th 11:00-22:00; Fr-Sa 11:00-23:00; Su 11:00-21:00", "image": "https://locations.bonefishgrill.com/permanent-b0b701/assets/images/logo_bonefish.cb933808.png", "brand": "Bonefish Grill", "brand:wikidata": "Q4941599", "nsi_id": "bonefishgrill-96af40"}, "geometry": {"type": "Point", "coordinates": [-96.0711169, 41.2598143]}},
{"type": "Feature", "id": "2uPtenVHy8Caevbthab6dZy5nlc=", "properties": {"ref": "https://locations.bonefishgrill.com/#15502821", "@spider": "bonefishgrill", "amenity": "restaurant", "cuisine": "seafood", "addr:street_address": "6334 N. Lucerne Avenue", "addr:city": "Kansas City", "addr:state": "MO", "addr:postcode": "64151", "addr:country": "US", "name": "Bonefish Grill Kansas City North, MO", "phone": "(816) 746-8179", "website": "https://locations.bonefishgrill.com/missouri/kansas-city/6334-n.-lucerne-avenue", "contact:email": "bg8601@bonefishgrill.com", "opening_hours": "Mo-Th 16:00-21:00; Fr-Sa 16:00-22:00; Su 16:00-21:00", "image": "https://locations.bonefishgrill.com/permanent-b0b701/assets/images/logo_bonefish.cb933808.png", "brand": "Bonefish Grill", "brand:wikidata": "Q4941599", "nsi_id": "bonefishgrill-96af40"}, "geometry": {"type": "Point", "coordinates": [-94.65334827786891, 39.2093382132805]}},
{"type": "Feature", "id": "4Psc3-9XGNb1dqFCKB45JwwpYPM=", "properties": {"ref": "https://locations.bonefishgrill.com/#15502860", "@spider": "bonefishgrill", "amenity": "restaurant", "cuisine": "seafood", "addr:street_address": "8780 Eager Road", "addr:city": "Brentwood", "addr:state": "MO", "addr:postcode": "63144", "addr:country": "US", "name": "Bonefish Grill Brentwood, MO", "phone": "(314) 918-1649", "website": "https://locations.bonefishgrill.com/missouri/brentwood/8780-eager-road", "contact:email": "bg8611@bonefishgrill.com", "opening_hours": "Mo-Th 11:00-21:00; Fr-Sa 11:00-22:00; Su 11:00-21:00", "image": "https://locations.bonefishgrill.com/permanent-b0b701/assets/images/logo_bonefish.cb933808.png", "brand": "Bonefish Grill", "brand:wikidata": "Q4941599", "nsi_id": "bonefishgrill-96af40"}, "geometry": {"type": "Point", "coordinates": [-90.3459804740873, 38.627719129428684]}},
{"type": "Feature", "id": "Z5TysIcSQvIk3L3VxyeUHwoCzlQ=", "properties": {"ref": "https://locations.bonefishgrill.com/#15502684", "@spider": "bonefishgrill", "amenity": "restaurant", "cuisine": "seafood", "addr:street_address": "201 Colony Way", "addr:city": "Madison", "addr:state": "MS", "addr:postcode": "39110", "addr:country": "US", "name": "Bonefish Grill Madison, MS", "phone": "(601) 607-3334", "website": "https://locations.bonefishgrill.com/mississippi/madison/201-colony-way", "opening_hours": "Mo-Th 16:00-22:00; Fr-Sa 16:00-23:00; Su 16:00-21:00", "image": "https://locations.bonefishgrill.com/permanent-b0b701/assets/images/logo_bonefish.cb933808.png", "brand": "Bonefish Grill", "brand:wikidata": "Q4941599", "nsi_id": "bonefishgrill-96af40"}, "geometry": {"type": "Point", "coordinates": [-90.14428801608769, 32.47411342655991]}},
{"type": "Feature", "id": "Bpnu9LR1CVMF05nR6Cn2ojmpM10=", "properties": {"ref": "https://locations.bonefishgrill.com/#15502854", "@spider": "bonefishgrill", "amenity": "restaurant", "cuisine": "seafood", "addr:street_address": "660 W. Big Beaver Road", "addr:city": "Troy", "addr:state": "MI", "addr:postcode": "48084", "addr:country": "US", "name": "Bonefish Grill Troy, MI", "phone": "(248) 269-0276", "website": "https://locations.bonefishgrill.com/michigan/troy/660-w.-big-beaver-road", "opening_hours": "Mo-Th 11:00-22:00; Fr-Sa 11:00-23:00; Su 11:00-21:00", "image": "https://locations.bonefishgrill.com/permanent-b0b701/assets/images/logo_bonefish.cb933808.png", "brand": "Bonefish Grill", "brand:wikidata": "Q4941599", "nsi_id": "bonefishgrill-96af40"}, "geometry": {"type": "Point", "coordinates": [-83.1624295, 42.5624686]}},
{"type": "Feature", "id": "8lMyHiLdfqkDk2_UoYISLp9-iU0=", "properties": {"ref": "https://locations.bonefishgrill.com/#15502749", "@spider": "bonefishgrill", "amenity": "restaurant", "cuisine": "seafood", "addr:street_address": "43304 Eleven Mile Road", "addr:city": "Novi", "addr:state": "MI", "addr:postcode": "48375", "addr:country": "US", "name": "Bonefish Grill Novi, MI", "phone": "(248) 347-1635", "website": "https://locations.bonefishgrill.com/michigan/novi/43304-eleven-mile-road", "opening_hours": "Mo-Th 11:00-22:00; Fr-Sa 11:00-23:00; Su 11:00-21:00", "image": "https://locations.bonefishgrill.com/permanent-b0b701/assets/images/logo_bonefish.cb933808.png", "brand": "Bonefish Grill", "brand:wikidata": "Q4941599", "nsi_id": "bonefishgrill-96af40"}, "geometry": {"type": "Point", "coordinates": [-83.47328532346266, 42.481284890619314]}},
{"type": "Feature", "id": "yEykLvAWnt6yx5tY5X6kaTRxrys=", "properties": {"ref": "https://locations.bonefishgrill.com/#15502681", "@spider": "bonefishgrill", "amenity": "restaurant", "cuisine": "seafood", "addr:street_address": "1100 East Paris", "addr:city": "Grand Rapids", "addr:state": "MI", "addr:postcode": "49546", "addr:country": "US", "name": "Bonefish Grill Grand Rapids, MI", "phone": "(616) 949-7861", "website": "https://locations.bonefishgrill.com/michigan/grand-rapids/1100-east-paris", "opening_hours": "Mo-Th 15:00-22:00; Fr-Sa 11:00-22:00; Su 11:00-21:00", "image": "https://locations.bonefishgrill.com/permanent-b0b701/assets/images/logo_bonefish.cb933808.png", "brand": "Bonefish Grill", "brand:wikidata": "Q4941599", "nsi_id": "bonefishgrill-96af40"}, "geometry": {"type": "Point", "coordinates": [-85.56778691286544, 42.943008276192565]}},
{"type": "Feature", "id": "ml93EUSs7Cc2CQ5qdjoD38R7eIE=", "properties": {"ref": "https://locations.bonefishgrill.com/#15502833", "@spider": "bonefishgrill", "amenity": "restaurant", "cuisine": "seafood", "addr:street_address": "127 Joppa Road", "addr:city": "Towson", "addr:state": "MD", "addr:postcode": "21288", "addr:country": "US", "name": "Bonefish Grill Towson, MD", "phone": "(410) 832-2519", "website": "https://locations.bonefishgrill.com/maryland/towson/127-joppa-road", "opening_hours": "Mo-Sa 11:00-22:00; Su 11:00-21:00", "image": "https://locations.bonefishgrill.com/permanent-b0b701/assets/images/logo_bonefish.cb933808.png", "brand": "Bonefish Grill", "brand:wikidata": "Q4941599", "nsi_id": "bonefishgrill-96af40"}, "geometry": {"type": "Point", "coordinates": [-76.60006386697849, 39.401744045819726]}},
{"type": "Feature", "id": "Scp8NfMcUisi3LMXLwlA1m0Xx-Q=", "properties": {"ref": "https://locations.bonefishgrill.com/#15502707", "@spider": "bonefishgrill", "amenity": "restaurant", "cuisine": "seafood", "addr:street_address": "10906 Boulevard Circle", "addr:city": "Owings Mills", "addr:state": "MD", "addr:postcode": "21117", "addr:country": "US", "name": "Bonefish Grill Owings Mills, MD", "phone": "(410) 654-5500", "website": "https://locations.bonefishgrill.com/maryland/owings-mills/10906-boulevard-circle", "opening_hours": "Mo-Th 16:00-22:00; Fr-Sa 11:00-23:00; Su 11:00-21:00", "image": "https://locations.bonefishgrill.com/permanent-b0b701/assets/images/logo_bonefish.cb933808.png", "brand": "Bonefish Grill", "brand:wikidata": "Q4941599", "nsi_id": "bonefishgrill-96af40"}, "geometry": {"type": "Point", "coordinates": [-76.7793657, 39.4248518]}},
{"type": "Feature", "id": "MXg2uL606NUG6CRqS6pspci71nw=", "properties": {"ref": "https://locations.bonefishgrill.com/#15502761", "@spider": "bonefishgrill", "amenity": "restaurant", "cuisine": "seafood", "addr:street_address": "6711 Governor Ritchie Hwy", "addr:city": "Glen Burnie", "addr:state": "MD", "addr:postcode": "21061", "addr:country": "US", "name": "Bonefish Grill Glen Burnie, MD", "phone": "(410) 553-0299", "website": "https://locations.bonefishgrill.com/maryland/glen-burnie/6711-governor-ritchie-hwy", "opening_hours": "Mo-Th 11:00-22:00; Fr-Sa 11:00-23:00; Su 11:00-21:00", "image": "https://locations.bonefishgrill.com/permanent-b0b701/assets/images/logo_bonefish.cb933808.png", "brand": "Bonefish Grill", "brand:wikidata": "Q4941599", "nsi_id": "bonefishgrill-96af40"}, "geometry": {"type": "Point", "coordinates": [-76.6100427065318, 39.19153806753939]}},
{"type": "Feature", "id": "PckKsitkg5f8SnD-Sp4pREDqqTI=", "properties": {"ref": "https://locations.bonefishgrill.com/#15502842", "@spider": "bonefishgrill", "amenity": "restaurant", "cuisine": "seafood", "addr:street_address": "2381 Brandermill Blvd", "addr:city": "Gambrills", "addr:state": "MD", "addr:postcode": "21054", "addr:country": "US", "name": "Bonefish Grill Crofton, MD", "phone": "(410) 451-5890", "website": "https://locations.bonefishgrill.com/maryland/gambrills/2381-brandermill-blvd", "opening_hours": "Mo-Th 11:00-22:00; Fr-Sa 11:00-23:00; Su 11:00-21:00", "image": "https://locations.bonefishgrill.com/permanent-b0b701/assets/images/logo_bonefish.cb933808.png", "brand": "Bonefish Grill", "brand:wikidata": "Q4941599", "nsi_id": "bonefishgrill-96af40"}, "geometry": {"type": "Point", "coordinates": [-76.684947, 39.0316391]}},
{"type": "Feature", "id": "YaH7JrA97-HevIeY1nu8R-lq3R4=", "properties": {"ref": "https://locations.bonefishgrill.com/#15502794", "@spider": "bonefishgrill", "amenity": "restaurant", "cuisine": "seafood", "addr:street_address": "82 Market Street", "addr:city": "Gaithersburg", "addr:state": "MD", "addr:postcode": "20878", "addr:country": "US", "name": "Bonefish Grill Gaithersburg, MD", "phone": "(240) 631-2401", "website": "https://locations.bonefishgrill.com/maryland/gaithersburg/82-market-street", "opening_hours": "Mo-Th 12:00-21:00,16:00-21:00; Fr-Sa 11:00-22:00; Su 11:00-21:00", "image": "https://locations.bonefishgrill.com/permanent-b0b701/assets/images/logo_bonefish.cb933808.png", "brand": "Bonefish Grill", "brand:wikidata": "Q4941599", "nsi_id": "bonefishgrill-96af40"}, "geometry": {"type": "Point", "coordinates": [-77.23415223804606, 39.12440163569793]}},
{"type": "Feature", "id": "9ZOTk17yUyw8mG3IsUPpUwv4CT4=", "properties": {"ref": "https://locations.bonefishgrill.com/#15502772", "@spider": "bonefishgrill", "amenity": "restaurant", "cuisine": "seafood", "addr:street_address": "1305 W. 7th Street", "addr:city": "Frederick", "addr:state": "MD", "addr:postcode": "21702", "addr:country": "US", "name": "Bonefish Grill Frederick, MD", "phone": "(301) 668-1522", "website": "https://locations.bonefishgrill.com/maryland/frederick/1305-w.-7th-street", "opening_hours": "Mo-Th 11:00-22:00; Fr-Sa 11:00-23:00; Su 11:00-21:00", "image": "https://locations.bonefishgrill.com/permanent-b0b701/assets/images/logo_bonefish.cb933808.png", "brand": "Bonefish Grill", "brand:wikidata": "Q4941599", "nsi_id": "bonefishgrill-96af40"}, "geometry": {"type": "Point", "coordinates": [-77.4165326, 39.4313884]}},
{"type": "Feature", "id": "vveqefKAle1zQZvw6gSn9By_N_U=", "properties": {"ref": "https://locations.bonefishgrill.com/#15502712", "@spider": "bonefishgrill", "amenity": "restaurant", "cuisine": "seafood", "addr:street_address": "15910 Crain Highway", "addr:city": "Brandywine", "addr:state": "MD", "addr:postcode": "20613", "addr:country": "US", "name": "Bonefish Grill Brandywine, MD", "phone": "(301) 782-7604", "website": "https://locations.bonefishgrill.com/maryland/brandywine/15910-crain-highway", "opening_hours": "Mo-Sa 11:00-22:00; Su 11:00-21:00", "image": "https://locations.bonefishgrill.com/permanent-b0b701/assets/images/logo_bonefish.cb933808.png", "brand": "Bonefish Grill", "brand:wikidata": "Q4941599", "nsi_id": "bonefishgrill-96af40"}, "geometry": {"type": "Point", "coordinates": [-76.8752162, 38.6733795]}},
{"type": "Feature", "id": "wKucm1ftfbewkKW3QYxfNyd-xqY=", "properties": {"ref": "https://locations.bonefishgrill.com/#15502700", "@spider": "bonefishgrill", "amenity": "restaurant", "cuisine": "seafood", "addr:street_address": "696 J Bel Air Road", "addr:city": "Bel Air", "addr:state": "MD", "addr:postcode": "21014", "addr:country": "US", "name": "Bonefish Grill Bel Air, MD", "phone": "(410) 420-9113", "website": "https://locations.bonefishgrill.com/maryland/bel-air/696-j-bel-air-road", "opening_hours": "Mo-Th 11:00-22:00; Fr-Sa 11:00-23:00; Su 11:00-21:00", "image": "https://locations.bonefishgrill.com/permanent-b0b701/assets/images/logo_bonefish.cb933808.png", "brand": "Bonefish Grill", "brand:wikidata": "Q4941599", "nsi_id": "bonefishgrill-96af40"}, "geometry": {"type": "Point", "coordinates": [-76.35690117386035, 39.524903926904685]}},
{"type": "Feature", "id": "ZsnPwVk5pAFO4cAPRMBOhKhL4aY=", "properties": {"ref": "https://locations.bonefishgrill.com/#15502815", "@spider": "bonefishgrill", "amenity": "restaurant", "cuisine": "seafood", "addr:street_address": "4848 Veteran's Memorial Blvd Suite B", "addr:city": "Metairie", "addr:state": "LA", "addr:postcode": "70006", "addr:country": "US", "name": "Bonefish Grill Metairie, LA", "phone": "(504) 780-9964", "website": "https://locations.bonefishgrill.com/louisiana/metairie/4848-veteran's-memorial-blvd", "opening_hours": "Mo-Th 11:00-22:00; Fr-Sa 11:00-23:00; Su 11:00-21:00", "image": "https://locations.bonefishgrill.com/permanent-b0b701/assets/images/logo_bonefish.cb933808.png", "brand": "Bonefish Grill", "brand:wikidata": "Q4941599", "nsi_id": "bonefishgrill-96af40"}, "geometry": {"type": "Point", "coordinates": [-90.19072468988254, 30.00487068096033]}},
{"type": "Feature", "id": "36Z0FIwqv3W2nGwSsHhx6d9A_I4=", "properties": {"ref": "https://locations.bonefishgrill.com/#15502716", "@spider": "bonefishgrill", "amenity": "restaurant", "cuisine": "seafood", "addr:street_address": "1912 Kaliste Saloom Road", "addr:city": "Lafayette", "addr:state": "LA", "addr:postcode": "70508", "addr:country": "US", "name": "Bonefish Grill Lafayette, LA", "phone": "(337) 981-0714", "website": "https://locations.bonefishgrill.com/louisiana/lafayette/1912-kaliste-saloom-road", "opening_hours": "Mo-Th 11:00-22:00; Fr-Sa 11:00-23:00; Su 11:00-21:00", "image": "https://locations.bonefishgrill.com/permanent-b0b701/assets/images/logo_bonefish.cb933808.png", "brand": "Bonefish Grill", "brand:wikidata": "Q4941599", "nsi_id": "bonefishgrill-96af40"}, "geometry": {"type": "Point", "coordinates": [-92.0356844, 30.1690661]}},
{"type": "Feature", "id": "kcf8xgwAQvTZHKpxvengjLasjbk=", "properties": {"ref": "https://locations.bonefishgrill.com/#15502698", "@spider": "bonefishgrill", "amenity": "restaurant", "cuisine": "seafood", "addr:street_address": "657 S. Hurstbourne Parkway", "addr:city": "Louisville", "addr:state": "KY", "addr:postcode": "40222", "addr:country": "US", "name": "Bonefish Grill Louisville, KY", "phone": "(502) 412-4666", "website": "https://locations.bonefishgrill.com/kentucky/louisville/657-s.-hurstbourne-parkway", "opening_hours": "Mo-Sa 11:00-22:00; Su 11:00-21:00", "image": "https://locations.bonefishgrill.com/permanent-b0b701/assets/images/logo_bonefish.cb933808.png", "brand": "Bonefish Grill", "brand:wikidata": "Q4941599", "nsi_id": "bonefishgrill-96af40"}, "geometry": {"type": "Point", "coordinates": [-85.57511225715747, 38.237892143391974]}},
{"type": "Feature", "id": "7UKo_US32CBt3Mm0RLgA6eAOtwE=", "properties": {"ref": "https://locations.bonefishgrill.com/#15502781", "@spider": "bonefishgrill", "amenity": "restaurant", "cuisine": "seafood", "addr:street_address": "2341 Sir Barton Way", "addr:city": "Lexington", "addr:state": "KY", "addr:postcode": "40509", "addr:country": "US", "name": "Bonefish Grill Lexington, KY", "phone": "(859) 233-3474", "website": "https://locations.bonefishgrill.com/kentucky/lexington/2341-sir-barton-way", "opening_hours": "Mo-Sa 11:00-22:00; Su 11:00-21:00", "image": "https://locations.bonefishgrill.com/permanent-b0b701/assets/images/logo_bonefish.cb933808.png", "brand": "Bonefish Grill", "brand:wikidata": "Q4941599", "nsi_id": "bonefishgrill-96af40"}, "geometry": {"type": "Point", "coordinates": [-84.42388826259975, 38.02408959529008]}},
{"type": "Feature", "id": "3dxoUyfTGQw7THfoZ7mIJEq-s40=", "properties": {"ref": "https://locations.bonefishgrill.com/#15502757", "@spider": "bonefishgrill", "amenity": "restaurant", "cuisine": "seafood", "addr:street_address": "588 Buttermilk Pike", "addr:city": "Crescent Springs", "addr:state": "KY", "addr:postcode": "41017", "addr:country": "US", "name": "Bonefish Grill Crescent Springs, KY", "phone": "(859) 426-8666", "website": "https://locations.bonefishgrill.com/kentucky/crescent-springs/588-buttermilk-pike", "opening_hours": "Mo-Th 16:00-22:00; Fr-Sa 11:00-22:00; Su 11:00-21:00", "image": "https://locations.bonefishgrill.com/permanent-b0b701/assets/images/logo_bonefish.cb933808.png", "brand": "Bonefish Grill", "brand:wikidata": "Q4941599", "nsi_id": "bonefishgrill-96af40"}, "geometry": {"type": "Point", "coordinates": [-84.57560467852154, 39.05130317644331]}},
{"type": "Feature", "id": "owv7gQGZsUh-Ka4rMjqI8HZrQJs=", "properties": {"ref": "https://locations.bonefishgrill.com/#15502708", "@spider": "bonefishgrill", "amenity": "restaurant", "cuisine": "seafood", "addr:street_address": "10250 E. 13th Street N.", "addr:city": "Wichita", "addr:state": "KS", "addr:postcode": "67206", "addr:country": "US", "name": "Bonefish Grill Wichita, KS", "phone": "(316) 315-0299", "website": "https://locations.bonefishgrill.com/kansas/wichita/10250-e.-13th-street-n.", "opening_hours": "Mo-Th 11:00-22:00; Fr-Sa 11:00-23:00; Su 11:00-21:00", "image": "https://locations.bonefishgrill.com/permanent-b0b701/assets/images/logo_bonefish.cb933808.png", "brand": "Bonefish Grill", "brand:wikidata": "Q4941599", "nsi_id": "bonefishgrill-96af40"}, "geometry": {"type": "Point", "coordinates": [-97.22011784846211, 37.70951878045939]}},
{"type": "Feature", "id": "DLA2Ib9qPAat24UhuD0BYGvnY-Q=", "properties": {"ref": "https://locations.bonefishgrill.com/#15502816", "@spider": "bonefishgrill", "amenity": "restaurant", "cuisine": "seafood", "addr:street_address": "5021 West 135th Street", "addr:city": "Leawood", "addr:state": "KS", "addr:postcode": "66224", "addr:country": "US", "name": "Bonefish Grill Leawood, KS", "phone": "(913) 239-8856", "website": "https://locations.bonefishgrill.com/kansas/leawood/5021-west-135th-street", "opening_hours": "Mo-Th 16:00-22:00; Fr-Sa 11:00-23:00; Su 11:00-21:00", "image": "https://locations.bonefishgrill.com/permanent-b0b701/assets/images/logo_bonefish.cb933808.png", "brand": "Bonefish Grill", "brand:wikidata": "Q4941599", "nsi_id": "bonefishgrill-96af40"}, "geometry": {"type": "Point", "coordinates": [-94.64523478834325, 38.882274692239186]}},
{"type": "Feature", "id": "YgxuQF1KfVLfic19AxARrmIJrVo=", "properties": {"ref": "https://locations.bonefishgrill.com/#15502819", "@spider": "bonefishgrill", "amenity": "restaurant", "cuisine": "seafood", "addr:street_address": "620 W. Edison Road", "addr:city": "Mishawaka", "addr:state": "IN", "addr:postcode": "46545", "addr:country": "US", "name": "Bonefish Grill Mishawaka, IN", "phone": "(574) 259-2663", "website": "https://locations.bonefishgrill.com/indiana/mishawaka/620-w.-edison-road", "opening_hours": "Mo-Th 11:00-22:00; Fr-Sa 11:00-23:00; Su 11:00-21:00", "image": "https://locations.bonefishgrill.com/permanent-b0b701/assets/images/logo_bonefish.cb933808.png", "brand": "Bonefish Grill", "brand:wikidata": "Q4941599", "nsi_id": "bonefishgrill-96af40"}, "geometry": {"type": "Point", "coordinates": [-86.19193326227662, 41.695617029151514]}},
{"type": "Feature", "id": "HrdxtUdffoM4cjkuvvV-Cq7sNXE=", "properties": {"ref": "https://locations.bonefishgrill.com/#15502725", "@spider": "bonefishgrill", "amenity": "restaurant", "cuisine": "seafood", "addr:street_address": "4501 E. 82nd Street", "addr:city": "Indianapolis", "addr:state": "IN", "addr:postcode": "46250", "addr:country": "US", "name": "Bonefish Grill Indianapolis, IN", "phone": "(317) 863-3474", "website": "https://locations.bonefishgrill.com/indiana/indianapolis/4501-e.-82nd-street", "opening_hours": "Mo-Th 11:00-22:00; Fr-Sa 11:00-23:00; Su 11:00-21:00", "image": "https://locations.bonefishgrill.com/permanent-b0b701/assets/images/logo_bonefish.cb933808.png", "brand": "Bonefish Grill", "brand:wikidata": "Q4941599", "nsi_id": "bonefishgrill-96af40"}, "geometry": {"type": "Point", "coordinates": [-86.09296930881982, 39.906073227683905]}},
{"type": "Feature", "id": "dyc34UuRXN9gZMo2ztC3jaFqVJI=", "properties": {"ref": "https://locations.bonefishgrill.com/#15502678", "@spider": "bonefishgrill", "amenity": "restaurant", "cuisine": "seafood", "addr:street_address": "1001 N. State Road 135", "addr:city": "Greenwood", "addr:state": "IN", "addr:postcode": "46142", "addr:country": "US", "name": "Bonefish Grill Greenwood, IN", "phone": "(317) 884-3992", "website": "https://locations.bonefishgrill.com/indiana/greenwood/1001-n.-state-road-135", "opening_hours": "Mo-Th 16:00-22:00; Fr-Sa 11:00-23:00; Su 11:00-21:00", "image": "https://locations.bonefishgrill.com/permanent-b0b701/assets/images/logo_bonefish.cb933808.png", "brand": "Bonefish Grill", "brand:wikidata": "Q4941599", "nsi_id": "bonefishgrill-96af40"}, "geometry": {"type": "Point", "coordinates": [-86.15765271818151, 39.63014660783491]}},
{"type": "Feature", "id": "Q74Mudrek2mkb08iURS1Lk26VWs=", "properties": {"ref": "https://locations.bonefishgrill.com/#15502760", "@spider": "bonefishgrill", "amenity": "restaurant", "cuisine": "seafood", "addr:street_address": "6401 East Lloyd Expressway", "addr:city": "Evansville", "addr:state": "IN", "addr:postcode": "47715", "addr:country": "US", "name": "Bonefish Grill Evansville, IN", "phone": "(812) 401-3474", "website": "https://locations.bonefishgrill.com/indiana/evansville/6401-east-lloyd-expressway", "opening_hours": "Mo-Th 11:00-22:00; Fr-Sa 11:00-23:00; Su 11:00-21:00", "image": "https://locations.bonefishgrill.com/permanent-b0b701/assets/images/logo_bonefish.cb933808.png", "brand": "Bonefish Grill", "brand:wikidata": "Q4941599", "nsi_id": "bonefishgrill-96af40"}, "geometry": {"type": "Point", "coordinates": [-87.4730235, 37.9757886]}},
{"type": "Feature", "id": "hdKuZdxuydmBnA4oriSO2TBiONY=", "properties": {"ref": "https://locations.bonefishgrill.com/#15502715", "@spider": "bonefishgrill", "amenity": "restaurant", "cuisine": "seafood", "addr:street_address": "180 S. Roselle Road", "addr:city": "Schaumburg", "addr:state": "IL", "addr:postcode": "60193", "addr:country": "US", "name": "Bonefish Grill Schaumburg, IL", "phone": "(847) 534-0679", "website": "https://locations.bonefishgrill.com/illinois/schaumburg/180-s.-roselle-road", "opening_hours": "Mo-Th 15:00-22:00; Fr-Sa 11:00-22:00; Su 11:00-21:00", "image": "https://locations.bonefishgrill.com/permanent-b0b701/assets/images/logo_bonefish.cb933808.png", "brand": "Bonefish Grill", "brand:wikidata": "Q4941599", "nsi_id": "bonefishgrill-96af40"}, "geometry": {"type": "Point", "coordinates": [-88.0814121, 42.0250486]}},
{"type": "Feature", "id": "3aFwR0Eaflu1ekskTOTO61Hsa_o=", "properties": {"ref": "https://locations.bonefishgrill.com/#15502804", "@spider": "bonefishgrill", "amenity": "restaurant", "cuisine": "seafood", "addr:street_address": "15537 S. Lagrange Rd", "addr:city": "Orland Park", "addr:state": "IL", "addr:postcode": "60462", "addr:country": "US", "name": "Bonefish Grill Orland Park, IL", "phone": "(708) 873-5170", "website": "https://locations.bonefishgrill.com/illinois/orland-park/15537-s.-lagrange-rd", "opening_hours": "Mo-Th 11:00-22:00; Fr-Sa 11:00-23:00; Su 11:00-21:00", "image": "https://locations.bonefishgrill.com/permanent-b0b701/assets/images/logo_bonefish.cb933808.png", "brand": "Bonefish Grill", "brand:wikidata": "Q4941599", "nsi_id": "bonefishgrill-96af40"}, "geometry": {"type": "Point", "coordinates": [-87.85250668220903, 41.60731607733339]}},
{"type": "Feature", "id": "gBe9EWFuB98BAZdksdoIOihcwbQ=", "properties": {"ref": "https://locations.bonefishgrill.com/#15502775", "@spider": "bonefishgrill", "amenity": "restaurant", "cuisine": "seafood", "addr:street_address": "1604 Randall Road", "addr:city": "Algonquin", "addr:state": "IL", "addr:postcode": "60102", "addr:country": "US", "name": "Bonefish Grill Algonquin, IL", "phone": "(847) 658-9268", "website": "https://locations.bonefishgrill.com/illinois/algonquin/1604-randall-road", "opening_hours": "Mo-Th 11:00-22:00; Fr-Sa 11:00-23:00; Su 11:00-21:00", "image": "https://locations.bonefishgrill.com/permanent-b0b701/assets/images/logo_bonefish.cb933808.png", "brand": "Bonefish Grill", "brand:wikidata": "Q4941599", "nsi_id": "bonefishgrill-96af40"}, "geometry": {"type": "Point", "coordinates": [-88.33796872875504, 42.14967574329012]}},
{"type": "Feature", "id": "N5dhTPYzqaWovVC0z1KEMVGridU=", "properties": {"ref": "https://locations.bonefishgrill.com/#15502733", "@spider": "bonefishgrill", "amenity": "restaurant", "cuisine": "seafood", "addr:street_address": "855 W. Broad Street", "addr:city": "Boise", "addr:state": "ID", "addr:postcode": "83702", "addr:country": "US", "name": "Bonefish Grill Boise, ID", "phone": "(208) 433-1234", "website": "https://locations.bonefishgrill.com/idaho/boise/855-w.-broad-street", "opening_hours": "Mo-Th 11:30-21:00; Fr-Sa 11:30-22:00; Su 14:00-21:00", "image": "https://locations.bonefishgrill.com/permanent-b0b701/assets/images/logo_bonefish.cb933808.png", "brand": "Bonefish Grill", "brand:wikidata": "Q4941599", "nsi_id": "bonefishgrill-96af40"}, "geometry": {"type": "Point", "coordinates": [-116.20687763252354, 43.61355632942577]}},
{"type": "Feature", "id": "Hj14lfd-pX0Ew7PGvCB1-QebPq0=", "properties": {"ref": "https://locations.bonefishgrill.com/#15502800", "@spider": "bonefishgrill", "amenity": "restaurant", "cuisine": "seafood", "addr:street_address": "1350 Scenic Hwy. 124", "addr:city": "Snellville", "addr:state": "GA", "addr:postcode": "30078", "addr:country": "US", "name": "Bonefish Grill Webb Gin, GA", "phone": "(678) 344-8945", "website": "https://locations.bonefishgrill.com/georgia/snellville/1350-scenic-hwy.-124", "opening_hours": "Mo-Th 11:00-22:00; Fr-Sa 11:00-23:00; Su 11:00-21:00", "image": "https://locations.bonefishgrill.com/permanent-b0b701/assets/images/logo_bonefish.cb933808.png", "brand": "Bonefish Grill", "brand:wikidata": "Q4941599", "nsi_id": "bonefishgrill-96af40"}, "geometry": {"type": "Point", "coordinates": [-84.00524839952008, 33.897053037092725]}},
{"type": "Feature", "id": "yYO9v-92_530RnwDQCMI40dMETQ=", "properties": {"ref": "https://locations.bonefishgrill.com/#15502729", "@spider": "bonefishgrill", "amenity": "restaurant", "cuisine": "seafood", "addr:street_address": "5500 Abercorn St #44", "addr:city": "Savannah", "addr:state": "GA", "addr:postcode": "31405", "addr:country": "US", "name": "Bonefish Grill Savannah, GA", "phone": "(912) 691-2575", "website": "https://locations.bonefishgrill.com/georgia/savannah/5500-abercorn-st", "opening_hours": "Mo-Th 11:00-22:00; Fr-Sa 11:00-23:00; Su 11:00-21:00", "image": "https://locations.bonefishgrill.com/permanent-b0b701/assets/images/logo_bonefish.cb933808.png", "brand": "Bonefish Grill", "brand:wikidata": "Q4941599", "nsi_id": "bonefishgrill-96af40"}, "geometry": {"type": "Point", "coordinates": [-81.10944486534936, 32.02291950089569]}},
{"type": "Feature", "id": "G3Il9daQq_JeiPeaRZ12VRFrTbI=", "properties": {"ref": "https://locations.bonefishgrill.com/#15502791", "@spider": "bonefishgrill", "amenity": "restaurant", "cuisine": "seafood", "addr:street_address": "5080 Riverside Drive", "addr:city": "Macon", "addr:state": "GA", "addr:postcode": "31210", "addr:country": "US", "name": "Bonefish Grill Macon, GA", "phone": "(478) 477-5256", "website": "https://locations.bonefishgrill.com/georgia/macon/5080-riverside-drive", "opening_hours": "Mo-Th 11:00-22:00; Fr-Sa 11:00-23:00; Su 11:00-21:00", "image": "https://locations.bonefishgrill.com/permanent-b0b701/assets/images/logo_bonefish.cb933808.png", "brand": "Bonefish Grill", "brand:wikidata": "Q4941599", "nsi_id": "bonefishgrill-96af40"}, "geometry": {"type": "Point", "coordinates": [-83.71461513004209, 32.92818353875561]}},
{"type": "Feature", "id": "ZmFH3mPoqp-z7RJmAUeCWOj2K3o=", "properties": {"ref": "https://locations.bonefishgrill.com/#15502855", "@spider": "bonefishgrill", "amenity": "restaurant", "cuisine": "seafood", "addr:street_address": "6763 Veterans Parkway", "addr:city": "Columbus", "addr:state": "GA", "addr:postcode": "31909", "addr:country": "US", "name": "Bonefish Grill Columbus, GA", "phone": "(706) 321-2015", "website": "https://locations.bonefishgrill.com/georgia/columbus/6763-veterans-parkway", "opening_hours": "Mo-Th 11:00-22:00; Fr-Sa 11:00-23:00; Su 11:00-21:00", "image": "https://locations.bonefishgrill.com/permanent-b0b701/assets/images/logo_bonefish.cb933808.png", "brand": "Bonefish Grill", "brand:wikidata": "Q4941599", "nsi_id": "bonefishgrill-96af40"}, "geometry": {"type": "Point", "coordinates": [-84.95324911469784, 32.54550112825873]}},
{"type": "Feature", "id": "6NXcMASrjwUBF8HhSSbxfa659VM=", "properties": {"ref": "https://locations.bonefishgrill.com/#15502690", "@spider": "bonefishgrill", "amenity": "restaurant", "cuisine": "seafood", "addr:street_address": "3420 Buford Drive", "addr:city": "Buford", "addr:state": "GA", "addr:postcode": "30519", "addr:country": "US", "name": "Bonefish Grill Buford, GA", "phone": "(678) 546-8240", "website": "https://locations.bonefishgrill.com/georgia/buford/3420-buford-drive", "opening_hours": "Mo-Th 11:00-22:00; Fr-Sa 11:00-23:00; Su 11:00-21:00", "image": "https://locations.bonefishgrill.com/permanent-b0b701/assets/images/logo_bonefish.cb933808.png", "brand": "Bonefish Grill", "brand:wikidata": "Q4941599", "nsi_id": "bonefishgrill-96af40"}, "geometry": {"type": "Point", "coordinates": [-83.98479744978252, 34.07686948353309]}},
{"type": "Feature", "id": "sIoTgg3_q-frB2qlvyQnCvq5rl8=", "properties": {"ref": "https://locations.bonefishgrill.com/#15502722", "@spider": "bonefishgrill", "amenity": "restaurant", "cuisine": "seafood", "addr:street_address": "2911 Washington Road", "addr:city": "Augusta", "addr:state": "GA", "addr:postcode": "30909", "addr:country": "US", "name": "Bonefish Grill Augusta, GA", "phone": "(706) 737-2929", "website": "https://locations.bonefishgrill.com/georgia/augusta/2911-washington-road", "contact:email": "RobertHughes@BonefishGrill.com", "opening_hours": "Mo-Th 16:00-22:00; Fr-Sa 11:00-23:00; Su 11:00-21:00", "image": "https://locations.bonefishgrill.com/permanent-b0b701/assets/images/logo_bonefish.cb933808.png", "brand": "Bonefish Grill", "brand:wikidata": "Q4941599", "nsi_id": "bonefishgrill-96af40"}, "geometry": {"type": "Point", "coordinates": [-82.03928448793042, 33.51334425131167]}},
{"type": "Feature", "id": "0E49WmR3RXwH0BlKJ6XD5P4txY4=", "properties": {"ref": "https://locations.bonefishgrill.com/#15502864", "@spider": "bonefishgrill", "amenity": "restaurant", "cuisine": "seafood", "addr:street_address": "2997 Cobb Parkway", "addr:city": "Atlanta", "addr:state": "GA", "addr:postcode": "30339", "addr:country": "US", "name": "Bonefish Grill Akers Mill GA, GA", "phone": "(678) 202-3394", "website": "https://locations.bonefishgrill.com/georgia/atlanta/2997-cobb-parkway", "contact:email": "roberthughes@bonefishgrill.com", "opening_hours": "Mo-Th 11:00-22:00; Fr-Sa 11:00-23:00; Su 11:00-21:00", "image": "https://locations.bonefishgrill.com/permanent-b0b701/assets/images/logo_bonefish.cb933808.png", "brand": "Bonefish Grill", "brand:wikidata": "Q4941599", "nsi_id": "bonefishgrill-96af40"}, "geometry": {"type": "Point", "coordinates": [-84.45895856824774, 33.880107015574715]}},
{"type": "Feature", "id": "2o232BIvVEJLNff06i2ia9DP3_A=", "properties": {"ref": "https://locations.bonefishgrill.com/#15502845", "@spider": "bonefishgrill", "amenity": "restaurant", "cuisine": "seafood", "addr:street_address": "3279 Daniels Road", "addr:city": "Winter Garden", "addr:state": "FL", "addr:postcode": "34787", "addr:country": "US", "name": "Bonefish Grill Winter Garden, FL", "phone": "(407) 654-6093", "website": "https://locations.bonefishgrill.com/florida/winter-garden/3279-daniels-road", "opening_hours": "Mo-Th 11:00-22:00; Fr-Sa 11:00-23:00; Su 11:00-21:00", "image": "https://locations.bonefishgrill.com/permanent-b0b701/assets/images/logo_bonefish.cb933808.png", "brand": "Bonefish Grill", "brand:wikidata": "Q4941599", "nsi_id": "bonefishgrill-96af40"}, "geometry": {"type": "Point", "coordinates": [-81.5828897, 28.5234967]}},
{"type": "Feature", "id": "RItMU0ixRTWu-1ilTXr2KWdqybM=", "properties": {"ref": "https://locations.bonefishgrill.com/#15502788", "@spider": "bonefishgrill", "amenity": "restaurant", "cuisine": "seafood", "addr:street_address": "4545 Weston Road", "addr:city": "Weston", "addr:state": "FL", "addr:postcode": "33331", "addr:country": "US", "name": "Bonefish Grill Weston, FL", "phone": "(954) 389-9273", "website": "https://locations.bonefishgrill.com/florida/weston/4545-weston-road", "opening_hours": "Mo-Th 11:00-22:00; Fr-Sa 11:00-23:00; Su 11:00-21:00", "image": "https://locations.bonefishgrill.com/permanent-b0b701/assets/images/logo_bonefish.cb933808.png", "brand": "Bonefish Grill", "brand:wikidata": "Q4941599", "nsi_id": "bonefishgrill-96af40"}, "geometry": {"type": "Point", "coordinates": [-80.3644295, 26.0638101]}},
{"type": "Feature", "id": "FskJ3Lf2fVTCdlqSG9HbZbGrkg0=", "properties": {"ref": "https://locations.bonefishgrill.com/#15502808", "@spider": "bonefishgrill", "amenity": "restaurant", "cuisine": "seafood", "addr:street_address": "2251 Town Center Ave Suite 129", "addr:city": "Viera", "addr:state": "FL", "addr:postcode": "32940", "addr:country": "US", "name": "Bonefish Grill Viera, FL", "phone": "(321) 636-1619", "website": "https://locations.bonefishgrill.com/florida/viera/2251-town-center-ave", "opening_hours": "Mo-Th 11:00-22:00; Fr-Sa 11:00-23:00; Su 11:00-21:00", "image": "https://locations.bonefishgrill.com/permanent-b0b701/assets/images/logo_bonefish.cb933808.png", "brand": "Bonefish Grill", "brand:wikidata": "Q4941599", "nsi_id": "bonefishgrill-96af40"}, "geometry": {"type": "Point", "coordinates": [-80.72542631167411, 28.242562493676513]}},
{"type": "Feature", "id": "EYb-4J5Sa2pHrHzSLYH2f1Qq0Xo=", "properties": {"ref": "https://locations.bonefishgrill.com/#15502865", "@spider": "bonefishgrill", "amenity": "restaurant", "cuisine": "seafood", "addr:street_address": "2075 Indian River Blvd.", "addr:city": "Vero Beach", "addr:state": "FL", "addr:postcode": "32960", "addr:country": "US", "name": "Bonefish Grill Vero Beach, FL", "phone": "(772) 562-6956", "website": "https://locations.bonefishgrill.com/florida/vero-beach/2075-indian-river-blvd.", "opening_hours": "Mo-Th 15:00-22:00; Fr-Sa 15:00-22:30; Su 11:00-21:00", "image": "https://locations.bonefishgrill.com/permanent-b0b701/assets/images/logo_bonefish.cb933808.png", "brand": "Bonefish Grill", "brand:wikidata": "Q4941599", "nsi_id": "bonefishgrill-96af40"}, "geometry": {"type": "Point", "coordinates": [-80.38126967055226, 27.63838661465073]}},
{"type": "Feature", "id": "JMA2aiskXuFKzkJJ8b5rOQAzypw=", "properties": {"ref": "https://locations.bonefishgrill.com/#15502738", "@spider": "bonefishgrill", "amenity": "restaurant", "cuisine": "seafood", "addr:street_address": "1681 US Highway 41 Bypass South", "addr:city": "Venice", "addr:state": "FL", "addr:postcode": "34293", "addr:country": "US", "name": "Bonefish Grill Venice, FL", "phone": "(941) 493-4180", "website": "https://locations.bonefishgrill.com/florida/venice/1681-us-highway-41-bypass-south", "opening_hours": "Mo-We 11:00-22:00; Th-Su 11:00-21:00", "image": "https://locations.bonefishgrill.com/permanent-b0b701/assets/images/logo_bonefish.cb933808.png", "brand": "Bonefish Grill", "brand:wikidata": "Q4941599", "nsi_id": "bonefishgrill-96af40"}, "geometry": {"type": "Point", "coordinates": [-82.42379055142835, 27.075471804341745]}},
{"type": "Feature", "id": "l-0IzVfTayCH_88B3L8vGgXYkmI=", "properties": {"ref": "https://locations.bonefishgrill.com/#15502709", "@spider": "bonefishgrill", "amenity": "restaurant", "cuisine": "seafood", "addr:street_address": "10750 SR 54", "addr:city": "Trinity", "addr:state": "FL", "addr:postcode": "34655", "addr:country": "US", "name": "Bonefish Grill Trinity, FL", "phone": "(727) 372-7540", "website": "https://locations.bonefishgrill.com/florida/trinity/10750-sr-54", "opening_hours": "Mo-Th 11:00-22:00; Fr-Sa 11:00-23:00; Su 11:00-21:00", "image": "https://locations.bonefishgrill.com/permanent-b0b701/assets/images/logo_bonefish.cb933808.png", "brand": "Bonefish Grill", "brand:wikidata": "Q4941599", "nsi_id": "bonefishgrill-96af40"}, "geometry": {"type": "Point", "coordinates": [-82.63656417498316, 28.19283972401616]}},
{"type": "Feature", "id": "wfXfjVcmAfz7Ynld8JtRHiK_sdA=", "properties": {"ref": "https://locations.bonefishgrill.com/#15502848", "@spider": "bonefishgrill", "amenity": "restaurant", "cuisine": "seafood", "addr:street_address": "3580 Wedgewood Lane", "addr:city": "The Villages", "addr:state": "FL", "addr:postcode": "32162", "addr:country": "US", "name": "Bonefish Grill The Villages, FL", "phone": "(352) 674-9292", "website": "https://locations.bonefishgrill.com/florida/the-villages/3580-wedgewood-lane", "opening_hours": "Mo-Th 11:00-22:00; Fr-Sa 11:00-23:00; Su 11:00-21:00", "image": "https://locations.bonefishgrill.com/permanent-b0b701/assets/images/logo_bonefish.cb933808.png", "brand": "Bonefish Grill", "brand:wikidata": "Q4941599", "nsi_id": "bonefishgrill-96af40"}, "geometry": {"type": "Point", "coordinates": [-82.017433842477, 28.927904162914817]}},
{"type": "Feature", "id": "hn_HgvgQzy_HaKyguh24xz4b5MQ=", "properties": {"ref": "https://locations.bonefishgrill.com/#15502691", "@spider": "bonefishgrill", "amenity": "restaurant", "cuisine": "seafood", "addr:street_address": "3665 Henderson Boulevard", "addr:city": "Tampa", "addr:state": "FL", "addr:postcode": "33609", "addr:country": "US", "name": "Bonefish Grill South Tampa, FL", "phone": "(813) 876-3535", "website": "https://locations.bonefishgrill.com/florida/tampa/3665-henderson-boulevard", "contact:email": "bg7004@bonefishgrill.com", "opening_hours": "Mo-Th 11:00-22:00; Fr-Sa 11:00-23:00; Su 11:00-21:00", "image": "https://locations.bonefishgrill.com/permanent-b0b701/assets/images/logo_bonefish.cb933808.png", "brand": "Bonefish Grill", "brand:wikidata": "Q4941599", "nsi_id": "bonefishgrill-96af40"}, "geometry": {"type": "Point", "coordinates": [-82.5039441, 27.9359837]}},
{"type": "Feature", "id": "jrXqhPaMSx7ncV59sPA2lJ3ismk=", "properties": {"ref": "https://locations.bonefishgrill.com/#15502710", "@spider": "bonefishgrill", "amenity": "restaurant", "cuisine": "seafood", "addr:street_address": "13262 N. Dale Mabry", "addr:city": "Tampa", "addr:state": "FL", "addr:postcode": "33618", "addr:country": "US", "name": "Bonefish Grill Carrollwood, FL", "phone": "(813) 969-1619", "website": "https://locations.bonefishgrill.com/florida/tampa/13262-n.-dale-mabry", "opening_hours": "Mo-Th 11:00-22:00; Fr-Sa 11:00-23:00; Su 11:00-21:00", "image": "https://locations.bonefishgrill.com/permanent-b0b701/assets/images/logo_bonefish.cb933808.png", "brand": "Bonefish Grill", "brand:wikidata": "Q4941599", "nsi_id": "bonefishgrill-96af40"}, "geometry": {"type": "Point", "coordinates": [-82.50681356271474, 28.06933616637856]}},
{"type": "Feature", "id": "FSYCZm7Eyxj1Slqe0Wbg2ptJBE4=", "properties": {"ref": "https://locations.bonefishgrill.com/#15502786", "@spider": "bonefishgrill", "amenity": "restaurant", "cuisine": "seafood", "addr:street_address": "3491 Thomasville Road", "addr:city": "Tallahassee", "addr:state": "FL", "addr:postcode": "32309", "addr:country": "US", "name": "Bonefish Grill Tallahassee, FL", "phone": "(850) 297-0460", "website": "https://locations.bonefishgrill.com/florida/tallahassee/3491-thomasville-road", "opening_hours": "Mo-Th 11:00-22:00; Fr-Sa 11:00-23:00; Su 11:00-21:00", "image": "https://locations.bonefishgrill.com/permanent-b0b701/assets/images/logo_bonefish.cb933808.png", "brand": "Bonefish Grill", "brand:wikidata": "Q4941599", "nsi_id": "bonefishgrill-96af40"}, "geometry": {"type": "Point", "coordinates": [-84.24817174804092, 30.507072596372637]}},
{"type": "Feature", "id": "hqtcPK5NFc-or2dd-8rpK3gcSCQ=", "properties": {"ref": "https://locations.bonefishgrill.com/#15502742", "@spider": "bonefishgrill", "amenity": "restaurant", "cuisine": "seafood", "addr:street_address": "2283 S. Federal Highway", "addr:city": "Stuart", "addr:state": "FL", "addr:postcode": "34994", "addr:country": "US", "name": "Bonefish Grill Stuart, FL", "phone": "(772) 288-4388", "website": "https://locations.bonefishgrill.com/florida/stuart/2283-s.-federal-highway", "opening_hours": "Mo-Th 16:00-22:00; Fr-Sa 11:00-23:00; Su 11:00-21:00", "image": "https://locations.bonefishgrill.com/permanent-b0b701/assets/images/logo_bonefish.cb933808.png", "brand": "Bonefish Grill", "brand:wikidata": "Q4941599", "nsi_id": "bonefishgrill-96af40"}, "geometry": {"type": "Point", "coordinates": [-80.235374, 27.177951]}},
{"type": "Feature", "id": "7Rs_9GnGQZUiPl7E5INEzSRpmhs=", "properties": {"ref": "https://locations.bonefishgrill.com/#15502756", "@spider": "bonefishgrill", "amenity": "restaurant", "cuisine": "seafood", "addr:street_address": "5062 4th Street North", "addr:city": "St. Petersburg", "addr:state": "FL", "addr:postcode": "33703", "addr:country": "US", "name": "Bonefish Grill St. Petersburg, FL", "phone": "(727) 521-3434", "website": "https://locations.bonefishgrill.com/florida/st.-petersburg/5062-4th-street-north", "contact:email": "bg7001@bonefishgrill.com", "opening_hours": "Mo-Th 11:00-22:00; Fr-Sa 11:00-23:00; Su 11:00-21:00", "image": "https://locations.bonefishgrill.com/permanent-b0b701/assets/images/logo_bonefish.cb933808.png", "brand": "Bonefish Grill", "brand:wikidata": "Q4941599", "nsi_id": "bonefishgrill-96af40"}, "geometry": {"type": "Point", "coordinates": [-82.63914874903287, 27.818770798673285]}},
{"type": "Feature", "id": "YLWenBWby1WBICubSG3KoAGta2w=", "properties": {"ref": "https://locations.bonefishgrill.com/#15502782", "@spider": "bonefishgrill", "amenity": "restaurant", "cuisine": "seafood", "addr:street_address": "2408 Tyrone Boulevard", "addr:city": "St. Petersburg", "addr:state": "FL", "addr:postcode": "33710", "addr:country": "US", "name": "Bonefish Grill St. Petersburg Tyrone, FL", "phone": "(727) 344-8600", "website": "https://locations.bonefishgrill.com/florida/st.-petersburg/2408-tyrone-boulevard", "opening_hours": "Mo-Th 11:00-22:00; Fr-Sa 11:00-23:00; Su 11:00-21:00", "image": "https://locations.bonefishgrill.com/permanent-b0b701/assets/images/logo_bonefish.cb933808.png", "brand": "Bonefish Grill", "brand:wikidata": "Q4941599", "nsi_id": "bonefishgrill-96af40"}, "geometry": {"type": "Point", "coordinates": [-82.7312333, 27.793162]}},
{"type": "Feature", "id": "Z9DNHQ11msg-7W515QFSN_QVnzw=", "properties": {"ref": "https://locations.bonefishgrill.com/#15502792", "@spider": "bonefishgrill", "amenity": "restaurant", "cuisine": "seafood", "addr:street_address": "8101 Cooper Creek Boulevard", "addr:city": "Sarasota", "addr:state": "FL", "addr:postcode": "34201", "addr:country": "US", "name": "Bonefish Grill Sarasota University Parkway, FL", "phone": "(941) 360-3171", "website": "https://locations.bonefishgrill.com/florida/sarasota/8101-cooper-creek-boulevard", "opening_hours": "Mo-Th 11:00-22:00; Fr-Sa 11:00-22:30; Su 11:00-21:00", "image": "https://locations.bonefishgrill.com/permanent-b0b701/assets/images/logo_bonefish.cb933808.png", "brand": "Bonefish Grill", "brand:wikidata": "Q4941599", "nsi_id": "bonefishgrill-96af40"}, "geometry": {"type": "Point", "coordinates": [-82.4529418, 27.3899387]}},
{"type": "Feature", "id": "pAqdkHt5-drCnTUzPmp0urVOD-I=", "properties": {"ref": "https://locations.bonefishgrill.com/#15502813", "@spider": "bonefishgrill", "amenity": "restaurant", "cuisine": "seafood", "addr:street_address": "3971 South Tamiami Trail", "addr:city": "Sarasota", "addr:state": "FL", "addr:postcode": "34231", "addr:country": "US", "name": "Bonefish Grill Sarasota, FL", "phone": "(941) 924-9090", "website": "https://locations.bonefishgrill.com/florida/sarasota/3971-south-tamiami-trail", "opening_hours": "Mo-Th 11:00-22:00; Fr-Sa 11:00-22:30; Su 11:00-21:00", "image": "https://locations.bonefishgrill.com/permanent-b0b701/assets/images/logo_bonefish.cb933808.png", "brand": "Bonefish Grill", "brand:wikidata": "Q4941599", "nsi_id": "bonefishgrill-96af40"}, "geometry": {"type": "Point", "coordinates": [-82.5300617, 27.2975388]}},
{"type": "Feature", "id": "C7BNzmloOpG_H6cQwILyWSmzRJQ=", "properties": {"ref": "https://locations.bonefishgrill.com/#15502739", "@spider": "bonefishgrill", "amenity": "restaurant", "cuisine": "seafood", "addr:street_address": "10197 West Sunrise Blvd.", "addr:city": "Plantation", "addr:state": "FL", "addr:postcode": "33322", "addr:country": "US", "name": "Bonefish Grill Plantation, FL", "phone": "(954) 472-3592", "website": "https://locations.bonefishgrill.com/florida/plantation/10197-west-sunrise-blvd.", "opening_hours": "Mo-Th 16:00-22:00; Fr-Sa 11:00-23:00; Su 11:00-21:00", "image": "https://locations.bonefishgrill.com/permanent-b0b701/assets/images/logo_bonefish.cb933808.png", "brand": "Bonefish Grill", "brand:wikidata": "Q4941599", "nsi_id": "bonefishgrill-96af40"}, "geometry": {"type": "Point", "coordinates": [-80.2865735, 26.147595]}},
{"type": "Feature", "id": "N9cwFszRCPeUkg10MyZW_wvHzGs=", "properties": {"ref": "https://locations.bonefishgrill.com/#15502694", "@spider": "bonefishgrill", "amenity": "restaurant", "cuisine": "seafood", "addr:street_address": "5025 N. 12th Avenue", "addr:city": "Pensacola", "addr:state": "FL", "addr:postcode": "32504", "addr:country": "US", "name": "Bonefish Grill Pensacola, FL", "phone": "(850) 471-2324", "website": "https://locations.bonefishgrill.com/florida/pensacola/5025-n.-12th-avenue", "contact:email": "bg7090@bonefishgrill.com", "opening_hours": "Mo-Th 11:00-22:00; Fr-Sa 11:00-23:00; Su 11:00-21:00", "image": "https://locations.bonefishgrill.com/permanent-b0b701/assets/images/logo_bonefish.cb933808.png", "brand": "Bonefish Grill", "brand:wikidata": "Q4941599", "nsi_id": "bonefishgrill-96af40"}, "geometry": {"type": "Point", "coordinates": [-87.20127406989964, 30.472028690895424]}},
{"type": "Feature", "id": "QbE6M9EatB2L3fFdBQBjHSLVlD8=", "properties": {"ref": "https://locations.bonefishgrill.com/#15502789", "@spider": "bonefishgrill", "amenity": "restaurant", "cuisine": "seafood", "addr:street_address": "4635 Pga Blvd", "addr:city": "Palm Beach Gardens", "addr:state": "FL", "addr:postcode": "33418", "addr:country": "US", "name": "Bonefish Grill Palm Beach Gardens, FL", "phone": "(561) 799-2965", "website": "https://locations.bonefishgrill.com/florida/palm-beach-gardens/4635-pga-blvd", "opening_hours": "Mo-Th 11:00-22:00; Fr-Sa 11:00-23:00; Su 11:00-21:00", "image": "https://locations.bonefishgrill.com/permanent-b0b701/assets/images/logo_bonefish.cb933808.png", "brand": "Bonefish Grill", "brand:wikidata": "Q4941599", "nsi_id": "bonefishgrill-96af40"}, "geometry": {"type": "Point", "coordinates": [-80.10778616548733, 26.838754960685367]}},
{"type": "Feature", "id": "NEA0X4r7hploWr51WfXaiJuqUxQ=", "properties": {"ref": "https://locations.bonefishgrill.com/#15502868", "@spider": "bonefishgrill", "amenity": "restaurant", "cuisine": "seafood", "addr:street_address": "6730 Central Florida Parkway", "addr:city": "Orlando", "addr:state": "FL", "addr:postcode": "32821", "addr:country": "US", "name": "Bonefish Grill Orlando Central FL Parkway, FL", "phone": "(321) 677-0025", "website": "https://locations.bonefishgrill.com/florida/orlando/6730-central-florida-parkway", "opening_hours": "Mo-Th 11:00-22:00; Fr-Sa 11:00-23:00; Su 11:00-21:00", "image": "https://locations.bonefishgrill.com/permanent-b0b701/assets/images/logo_bonefish.cb933808.png", "brand": "Bonefish Grill", "brand:wikidata": "Q4941599", "nsi_id": "bonefishgrill-96af40"}, "geometry": {"type": "Point", "coordinates": [-81.4705088, 28.4081828]}},
{"type": "Feature", "id": "JeIRE-T3K1Mld8JVrr8GO1oYrXs=", "properties": {"ref": "https://locations.bonefishgrill.com/#15502869", "@spider": "bonefishgrill", "amenity": "restaurant", "cuisine": "seafood", "addr:street_address": "5463 Gateway Village Circle", "addr:city": "Orlando", "addr:state": "FL", "addr:postcode": "32812", "addr:country": "US", "name": "Bonefish Grill Orlando Gateway, FL", "phone": "(407) 816-6355", "website": "https://locations.bonefishgrill.com/florida/orlando/5463-gateway-village-circle", "opening_hours": "Mo-Th 11:00-22:30; Fr-Sa 11:00-23:30; Su 11:00-21:00", "image": "https://locations.bonefishgrill.com/permanent-b0b701/assets/images/logo_bonefish.cb933808.png", "brand": "Bonefish Grill", "brand:wikidata": "Q4941599", "nsi_id": "bonefishgrill-96af40"}, "geometry": {"type": "Point", "coordinates": [-81.31090146440069, 28.456925374783705]}},
{"type": "Feature", "id": "ZqjR8-Qx1u_H08dVkLG-Fpu4S7I=", "properties": {"ref": "https://locations.bonefishgrill.com/#15502841", "@spider": "bonefishgrill", "amenity": "restaurant", "cuisine": "seafood", "addr:street_address": "12301 Lake Underhill Road Suite 101", "addr:city": "Orlando", "addr:state": "FL", "addr:postcode": "32828", "addr:country": "US", "name": "Bonefish Grill Orlando Lake Underhill, FL", "phone": "(407) 275-2397", "website": "https://locations.bonefishgrill.com/florida/orlando/12301-lake-underhill-road", "opening_hours": "Mo-Th 11:00-22:00; Fr-Sa 11:00-23:00; Su 11:00-21:00", "image": "https://locations.bonefishgrill.com/permanent-b0b701/assets/images/logo_bonefish.cb933808.png", "brand": "Bonefish Grill", "brand:wikidata": "Q4941599", "nsi_id": "bonefishgrill-96af40"}, "geometry": {"type": "Point", "coordinates": [-81.20312419999999, 28.5477139]}},
{"type": "Feature", "id": "DtRrms_dmgV0IGmJlaJ5rVvkuDQ=", "properties": {"ref": "https://locations.bonefishgrill.com/#15502750", "@spider": "bonefishgrill", "amenity": "restaurant", "cuisine": "seafood", "addr:street_address": "4701 SW College Road", "addr:city": "Ocala", "addr:state": "FL", "addr:postcode": "34474", "addr:country": "US", "name": "Bonefish Grill Ocala, FL", "phone": "(352) 873-3846", "website": "https://locations.bonefishgrill.com/florida/ocala/4701-sw-college-road", "opening_hours": "Mo-Th 11:00-22:00; Fr-Sa 11:00-23:00; Su 11:00-21:00", "image": "https://locations.bonefishgrill.com/permanent-b0b701/assets/images/logo_bonefish.cb933808.png", "brand": "Bonefish Grill", "brand:wikidata": "Q4941599", "nsi_id": "bonefishgrill-96af40"}, "geometry": {"type": "Point", "coordinates": [-82.19974767928235, 29.13781320110863]}},
{"type": "Feature", "id": "XB8L2BQ6cBCgO-FYD22Yd1hmi7w=", "properties": {"ref": "https://locations.bonefishgrill.com/#15502835", "@spider": "bonefishgrill", "amenity": "restaurant", "cuisine": "seafood", "addr:street_address": "1500 5th Avenue South", "addr:city": "Naples", "addr:state": "FL", "addr:postcode": "34102", "addr:country": "US", "name": "Bonefish Grill Naples, FL", "phone": "(239) 417-1212", "website": "https://locations.bonefishgrill.com/florida/naples/1500-5th-avenue-south", "image": "https://locations.bonefishgrill.com/permanent-b0b701/assets/images/logo_bonefish.cb933808.png", "brand": "Bonefish Grill", "brand:wikidata": "Q4941599", "nsi_id": "bonefishgrill-96af40"}, "geometry": {"type": "Point", "coordinates": [-81.7859267, 26.139313]}},
{"type": "Feature", "id": "8Y22g9euKit4Av1Wn_J2LRKUQHQ=", "properties": {"ref": "https://locations.bonefishgrill.com/#15502680", "@spider": "bonefishgrill", "amenity": "restaurant", "cuisine": "seafood", "addr:street_address": "14218 SW 8th Street", "addr:city": "Miami", "addr:state": "FL", "addr:postcode": "33184", "addr:country": "US", "name": "Bonefish Grill Miami West, FL", "phone": "(305) 487-6430", "website": "https://locations.bonefishgrill.com/florida/miami/14218-sw-8th-street", "opening_hours": "Mo-Th 16:00-22:00; Fr 16:00-23:00; Sa 11:00-23:00; Su 11:00-21:00", "image": "https://locations.bonefishgrill.com/permanent-b0b701/assets/images/logo_bonefish.cb933808.png", "brand": "Bonefish Grill", "brand:wikidata": "Q4941599", "nsi_id": "bonefishgrill-96af40"}, "geometry": {"type": "Point", "coordinates": [-80.42526591069628, 25.759811460865418]}},
{"type": "Feature", "id": "3Fk5Lt8yARJ0iDN9F7uARWrPjjo=", "properties": {"ref": "https://locations.bonefishgrill.com/#15502768", "@spider": "bonefishgrill", "amenity": "restaurant", "cuisine": "seafood", "addr:street_address": "12520 SW 120th Street", "addr:city": "Miami", "addr:state": "FL", "addr:postcode": "33186", "addr:country": "US", "name": "Bonefish Grill Kendall, FL", "phone": "(786) 293-5713", "website": "https://locations.bonefishgrill.com/florida/miami/12520-sw-120th-street", "opening_hours": "Mo-Th 11:00-22:00; Fr-Sa 11:00-23:00; Su 11:00-21:00", "image": "https://locations.bonefishgrill.com/permanent-b0b701/assets/images/logo_bonefish.cb933808.png", "brand": "Bonefish Grill", "brand:wikidata": "Q4941599", "nsi_id": "bonefishgrill-96af40"}, "geometry": {"type": "Point", "coordinates": [-80.39643219447746, 25.655504797755952]}},
{"type": "Feature", "id": "2Bebsa-fTmuuXtr-b0R5MhQD44w=", "properties": {"ref": "https://locations.bonefishgrill.com/#15502711", "@spider": "bonefishgrill", "amenity": "restaurant", "cuisine": "seafood", "addr:street_address": "25264 Sierra Center Blvd", "addr:city": "Lutz", "addr:state": "FL", "addr:postcode": "33559", "addr:country": "US", "name": "Bonefish Grill Wesley Chapel, FL", "phone": "(813) 907-8202", "website": "https://locations.bonefishgrill.com/florida/lutz/25264-sierra-center-blvd", "opening_hours": "Mo-Th 11:00-22:00; Fr-Sa 11:00-23:00; Su 11:00-21:00", "image": "https://locations.bonefishgrill.com/permanent-b0b701/assets/images/logo_bonefish.cb933808.png", "brand": "Bonefish Grill", "brand:wikidata": "Q4941599", "nsi_id": "bonefishgrill-96af40"}, "geometry": {"type": "Point", "coordinates": [-82.3939061196434, 28.19502596966451]}},
{"type": "Feature", "id": "6eS4WSUaBa0zChcQJEwLHcaP2VI=", "properties": {"ref": "https://locations.bonefishgrill.com/#15502736", "@spider": "bonefishgrill", "amenity": "restaurant", "cuisine": "seafood", "addr:street_address": "1761 W. State Road 434", "addr:city": "Longwood", "addr:state": "FL", "addr:postcode": "32750", "addr:country": "US", "name": "Bonefish Grill Longwood, FL", "phone": "(407) 331-0131", "website": "https://locations.bonefishgrill.com/florida/longwood/1761-w.-state-road-434", "opening_hours": "Mo-Th 16:00-22:00; Fr-Sa 11:00-23:00; Su 11:00-21:00", "image": "https://locations.bonefishgrill.com/permanent-b0b701/assets/images/logo_bonefish.cb933808.png", "brand": "Bonefish Grill", "brand:wikidata": "Q4941599", "nsi_id": "bonefishgrill-96af40"}, "geometry": {"type": "Point", "coordinates": [-81.38516926823728, 28.69318088294516]}},
{"type": "Feature", "id": "bPhwQGshHF_6V-zhcX8RBuD6Hkc=", "properties": {"ref": "https://locations.bonefishgrill.com/#15502719", "@spider": "bonefishgrill", "amenity": "restaurant", "cuisine": "seafood", "addr:street_address": "225 W. Pipkin Road", "addr:city": "Lakeland", "addr:state": "FL", "addr:postcode": "33813", "addr:country": "US", "name": "Bonefish Grill Lakeland, FL", "phone": "(863) 701-9480", "website": "https://locations.bonefishgrill.com/florida/lakeland/225-w.-pipkin-road", "opening_hours": "Mo-Th 11:00-22:00; Fr-Sa 11:00-23:00; Su 11:00-21:00", "image": "https://locations.bonefishgrill.com/permanent-b0b701/assets/images/logo_bonefish.cb933808.png", "brand": "Bonefish Grill", "brand:wikidata": "Q4941599", "nsi_id": "bonefishgrill-96af40"}, "geometry": {"type": "Point", "coordinates": [-81.96136762759534, 27.975257919895178]}},
{"type": "Feature", "id": "fs-FwPGekonTnfET60MUmxpqY_E=", "properties": {"ref": "https://locations.bonefishgrill.com/#15502797", "@spider": "bonefishgrill", "amenity": "restaurant", "cuisine": "seafood", "addr:street_address": "9897 Lake Worth Road", "addr:city": "Lake Worth", "addr:state": "FL", "addr:postcode": "33467", "addr:country": "US", "name": "Bonefish Grill Wellington, FL", "phone": "(561) 965-2663", "website": "https://locations.bonefishgrill.com/florida/lake-worth/9897-lake-worth-road", "opening_hours": "Mo-Th 16:00-22:00; Fr-Sa 11:00-23:00; Su 11:00-21:00", "image": "https://locations.bonefishgrill.com/permanent-b0b701/assets/images/logo_bonefish.cb933808.png", "brand": "Bonefish Grill", "brand:wikidata": "Q4941599", "nsi_id": "bonefishgrill-96af40"}, "geometry": {"type": "Point", "coordinates": [-80.20321837534833, 26.619312132806453]}},
{"type": "Feature", "id": "YyEqBeFJ22LWlnzfy_OsS5DaLYk=", "properties": {"ref": "https://locations.bonefishgrill.com/#15502824", "@spider": "bonefishgrill", "amenity": "restaurant", "cuisine": "seafood", "addr:street_address": "7801 Irlo Bronson Memorial Highway", "addr:city": "Kissimmee", "addr:state": "FL", "addr:postcode": "34747", "addr:country": "US", "name": "Bonefish Grill Kissimmee at Main Gate 192, FL", "phone": "(321) 677-0103", "website": "https://locations.bonefishgrill.com/florida/kissimmee/7801-irlo-bronson-memorial-highway", "opening_hours": "Mo-Th 11:00-22:00; Fr 15:00-23:00; Sa 11:00-23:00; Su 11:00-21:00", "image": "https://locations.bonefishgrill.com/permanent-b0b701/assets/images/logo_bonefish.cb933808.png", "brand": "Bonefish Grill", "brand:wikidata": "Q4941599", "nsi_id": "bonefishgrill-96af40"}, "geometry": {"type": "Point", "coordinates": [-81.598996, 28.342792]}},
{"type": "Feature", "id": "gKKP9fJ4ek03rBWHL97IDPcKekM=", "properties": {"ref": "https://locations.bonefishgrill.com/#15502811", "@spider": "bonefishgrill", "amenity": "restaurant", "cuisine": "seafood", "addr:street_address": "2699 W. Osceola Parkway", "addr:city": "Kissimmee", "addr:state": "FL", "addr:postcode": "34741", "addr:country": "US", "name": "Bonefish Grill Hunters Creek, FL", "phone": "(407) 931-1790", "website": "https://locations.bonefishgrill.com/florida/kissimmee/2699-w.-osceola-parkway", "opening_hours": "Mo-Th 11:00-22:00; Fr-Sa 11:00-23:00; Su 11:00-21:00", "image": "https://locations.bonefishgrill.com/permanent-b0b701/assets/images/logo_bonefish.cb933808.png", "brand": "Bonefish Grill", "brand:wikidata": "Q4941599", "nsi_id": "bonefishgrill-96af40"}, "geometry": {"type": "Point", "coordinates": [-81.42965176271473, 28.343640098362503]}},
{"type": "Feature", "id": "OFOfDDFtnvm8xxapZ3rTX1Qh67w=", "properties": {"ref": "https://locations.bonefishgrill.com/#15502706", "@spider": "bonefishgrill", "amenity": "restaurant", "cuisine": "seafood", "addr:street_address": "10950 San Jose Boulevard", "addr:city": "Jacksonville", "addr:state": "FL", "addr:postcode": "32223", "addr:country": "US", "name": "Bonefish Grill Mandarin, FL", "phone": "(904) 370-1070", "website": "https://locations.bonefishgrill.com/florida/jacksonville/10950-san-jose-boulevard", "contact:email": "AmyDrafts@BonefishGrill.com", "opening_hours": "Mo-Th 16:00-22:00; Fr-Sa 11:00-23:00; Su 11:00-21:00", "image": "https://locations.bonefishgrill.com/permanent-b0b701/assets/images/logo_bonefish.cb933808.png", "brand": "Bonefish Grill", "brand:wikidata": "Q4941599", "nsi_id": "bonefishgrill-96af40"}, "geometry": {"type": "Point", "coordinates": [-81.62966931122891, 30.175674880328963]}},
{"type": "Feature", "id": "1FE-NwSDK9ueYBy-FPg06A3aE-k=", "properties": {"ref": "https://locations.bonefishgrill.com/#15502743", "@spider": "bonefishgrill", "amenity": "restaurant", "cuisine": "seafood", "addr:street_address": "2400 S. 3rd Street", "addr:city": "Jacksonville Beach", "addr:state": "FL", "addr:postcode": "32250", "addr:country": "US", "name": "Bonefish Grill Jacksonville Beach, FL", "phone": "(904) 247-4234", "website": "https://locations.bonefishgrill.com/florida/jacksonville-beach/2400-s.-3rd-street", "opening_hours": "Mo-Th 11:00-22:00; Fr-Sa 11:00-23:00; Su 11:00-21:00", "image": "https://locations.bonefishgrill.com/permanent-b0b701/assets/images/logo_bonefish.cb933808.png", "brand": "Bonefish Grill", "brand:wikidata": "Q4941599", "nsi_id": "bonefishgrill-96af40"}, "geometry": {"type": "Point", "coordinates": [-81.38887412713277, 30.268126541720132]}},
{"type": "Feature", "id": "hy66x8byOjB2yWzTCPOZ5S4QPbk=", "properties": {"ref": "https://locations.bonefishgrill.com/#15502785", "@spider": "bonefishgrill", "amenity": "restaurant", "cuisine": "seafood", "addr:street_address": "3237 SW 35th Boulevard", "addr:city": "Gainesville", "addr:state": "FL", "addr:postcode": "32608", "addr:country": "US", "name": "Bonefish Grill Gainesville, FL", "phone": "(352) 377-8383", "website": "https://locations.bonefishgrill.com/florida/gainesville/3237-sw-35th-boulevard", "opening_hours": "Mo-Th 11:00-22:00; Fr-Sa 11:00-23:00; Su 11:00-21:00", "image": "https://locations.bonefishgrill.com/permanent-b0b701/assets/images/logo_bonefish.cb933808.png", "brand": "Bonefish Grill", "brand:wikidata": "Q4941599", "nsi_id": "bonefishgrill-96af40"}, "geometry": {"type": "Point", "coordinates": [-82.37767540878538, 29.625212650735623]}},
{"type": "Feature", "id": "YgeF_vwNswUa7AjbO2JRR9cRt80=", "properties": {"ref": "https://locations.bonefishgrill.com/#15502773", "@spider": "bonefishgrill", "amenity": "restaurant", "cuisine": "seafood", "addr:street_address": "14261 S. Tamiami Trail", "addr:city": "Ft. Myers", "addr:state": "FL", "addr:postcode": "33912", "addr:country": "US", "name": "Bonefish Grill Ft. Myers, FL", "phone": "(239) 489-1240", "website": "https://locations.bonefishgrill.com/florida/ft.-myers/14261-s.-tamiami-trail", "opening_hours": "Mo-Th 11:00-22:00; Fr-Su 11:00-21:00", "image": "https://locations.bonefishgrill.com/permanent-b0b701/assets/images/logo_bonefish.cb933808.png", "brand": "Bonefish Grill", "brand:wikidata": "Q4941599", "nsi_id": "bonefishgrill-96af40"}, "geometry": {"type": "Point", "coordinates": [-81.8704867, 26.5353951]}},
{"type": "Feature", "id": "S6AizHJJhROVuvwehWv-jNYMz44=", "properties": {"ref": "https://locations.bonefishgrill.com/#15502820", "@spider": "bonefishgrill", "amenity": "restaurant", "cuisine": "seafood", "addr:street_address": "6282 North Federal Highway", "addr:city": "Ft. Lauderdale", "addr:state": "FL", "addr:postcode": "33308", "addr:country": "US", "name": "Bonefish Grill Ft. Lauderdale, FL", "phone": "(954) 492-3266", "website": "https://locations.bonefishgrill.com/florida/ft.-lauderdale/6282-north-federal-highway", "opening_hours": "Mo-Th 16:00-22:00; Fr 16:00-23:00; Sa 11:00-23:00; Su 11:00-21:00", "image": "https://locations.bonefishgrill.com/permanent-b0b701/assets/images/logo_bonefish.cb933808.png", "brand": "Bonefish Grill", "brand:wikidata": "Q4941599", "nsi_id": "bonefishgrill-96af40"}, "geometry": {"type": "Point", "coordinates": [-80.1074129, 26.2058856]}},
{"type": "Feature", "id": "cN02WhM4ZkKrPeeO7cuntSoyA1w=", "properties": {"ref": "https://locations.bonefishgrill.com/#15502753", "@spider": "bonefishgrill", "amenity": "restaurant", "cuisine": "seafood", "addr:street_address": "4447 Commons Drive E", "addr:city": "Destin", "addr:state": "FL", "addr:postcode": "32541", "addr:country": "US", "name": "Bonefish Grill Destin, FL", "phone": "(850) 650-3161", "website": "https://locations.bonefishgrill.com/florida/destin/4447-commons-drive-e", "opening_hours": "Mo-Th 11:00-22:00; Fr-Sa 11:00-23:00; Su 11:00-21:00", "image": "https://locations.bonefishgrill.com/permanent-b0b701/assets/images/logo_bonefish.cb933808.png", "brand": "Bonefish Grill", "brand:wikidata": "Q4941599", "nsi_id": "bonefishgrill-96af40"}, "geometry": {"type": "Point", "coordinates": [-86.42757506380634, 30.392100038120425]}},
{"type": "Feature", "id": "IIgBCWyUxJ6B-m2YHi1brs9JQgc=", "properties": {"ref": "https://locations.bonefishgrill.com/#15502837", "@spider": "bonefishgrill", "amenity": "restaurant", "cuisine": "seafood", "addr:street_address": "1702 W. International Speedway Blvd.", "addr:city": "Daytona Beach", "addr:state": "FL", "addr:postcode": "32114", "addr:country": "US", "name": "Bonefish Grill Daytona Beach FL, FL", "phone": "(386) 233-3335", "website": "https://locations.bonefishgrill.com/florida/daytona-beach/1702-w.-international-speedway-blvd.", "opening_hours": "Mo-Th 11:00-22:00; Fr-Sa 11:00-23:00; Su 11:00-21:00", "image": "https://locations.bonefishgrill.com/permanent-b0b701/assets/images/logo_bonefish.cb933808.png", "brand": "Bonefish Grill", "brand:wikidata": "Q4941599", "nsi_id": "bonefishgrill-96af40"}, "geometry": {"type": "Point", "coordinates": [-81.06143508465576, 29.196092318497474]}},
{"type": "Feature", "id": "2gbJInxnfLMK1db1u2U-yT6DOkI=", "properties": {"ref": "https://locations.bonefishgrill.com/#15502682", "@spider": "bonefishgrill", "amenity": "restaurant", "cuisine": "seafood", "addr:street_address": "1455 N. University Drive", "addr:city": "Coral Springs", "addr:state": "FL", "addr:postcode": "33071", "addr:country": "US", "name": "Bonefish Grill Coral Springs, FL", "phone": "(954) 509-0405", "website": "https://locations.bonefishgrill.com/florida/coral-springs/1455-n.-university-drive", "opening_hours": "Mo-Th 16:00-22:00; Fr-Sa 11:00-23:00; Su 11:00-21:00", "image": "https://locations.bonefishgrill.com/permanent-b0b701/assets/images/logo_bonefish.cb933808.png", "brand": "Bonefish Grill", "brand:wikidata": "Q4941599", "nsi_id": "bonefishgrill-96af40"}, "geometry": {"type": "Point", "coordinates": [-80.25248733556461, 26.249001146604325]}},
{"type": "Feature", "id": "0oY_X4jV8WanlahygyoeDtBFnpo=", "properties": {"ref": "https://locations.bonefishgrill.com/#15502720", "@spider": "bonefishgrill", "amenity": "restaurant", "cuisine": "seafood", "addr:street_address": "2519 McMullen Booth Road", "addr:city": "Clearwater", "addr:state": "FL", "addr:postcode": "33761", "addr:country": "US", "name": "Bonefish Grill Clearwater, FL", "phone": "(727) 726-1315", "website": "https://locations.bonefishgrill.com/florida/clearwater/2519-mcmullen-booth-road", "opening_hours": "Mo-Th 11:00-22:00; Fr 15:00-23:00; Sa 11:00-23:00; Su 11:00-21:00", "image": "https://locations.bonefishgrill.com/permanent-b0b701/assets/images/logo_bonefish.cb933808.png", "brand": "Bonefish Grill", "brand:wikidata": "Q4941599", "nsi_id": "bonefishgrill-96af40"}, "geometry": {"type": "Point", "coordinates": [-82.70807045403672, 28.013999406234795]}},
{"type": "Feature", "id": "QULOkLPAtz-_ohtxhuuGDFmluAY=", "properties": {"ref": "https://locations.bonefishgrill.com/#15502796", "@spider": "bonefishgrill", "amenity": "restaurant", "cuisine": "seafood", "addr:street_address": "900 SW Pine Island Rd.", "addr:city": "Cape Coral", "addr:state": "FL", "addr:postcode": "33991", "addr:country": "US", "name": "Bonefish Grill Cape Coral, FL", "phone": "(239) 574-1018", "website": "https://locations.bonefishgrill.com/florida/cape-coral/900-sw-pine-island-rd.", "opening_hours": "Mo-Th 11:00-22:00; Fr-Sa 11:00-23:00; Su 11:00-21:00", "image": "https://locations.bonefishgrill.com/permanent-b0b701/assets/images/logo_bonefish.cb933808.png", "brand": "Bonefish Grill", "brand:wikidata": "Q4941599", "nsi_id": "bonefishgrill-96af40"}, "geometry": {"type": "Point", "coordinates": [-81.99798412581215, 26.64102392270947]}},
{"type": "Feature", "id": "rEjQLb0YCQXAKWR22d9Gc1GzokE=", "properties": {"ref": "https://locations.bonefishgrill.com/#15502705", "@spider": "bonefishgrill", "amenity": "restaurant", "cuisine": "seafood", "addr:street_address": "11525 Cantrell Road", "addr:city": "Little Rock", "addr:state": "AR", "addr:postcode": "72212", "addr:country": "US", "name": "Bonefish Grill Little Rock, AR", "phone": "(501) 228-0356", "website": "https://locations.bonefishgrill.com/arkansas/little-rock/11525-cantrell-road", "contact:email": "bg6402@bonefishgrill.com", "opening_hours": "Mo-Th 16:00-22:00; Fr 16:00-23:00; Sa 11:00-23:00; Su 11:00-21:00", "image": "https://locations.bonefishgrill.com/permanent-b0b701/assets/images/logo_bonefish.cb933808.png", "brand": "Bonefish Grill", "brand:wikidata": "Q4941599", "nsi_id": "bonefishgrill-96af40"}, "geometry": {"type": "Point", "coordinates": [-92.40122176482863, 34.79309645099502]}},
{"type": "Feature", "id": "tTEQCyLhEJ78T_yu8OmbSX3onT4=", "properties": {"ref": "https://locations.bonefishgrill.com/#15502823", "@spider": "bonefishgrill", "amenity": "restaurant", "cuisine": "seafood", "addr:street_address": "7020 Eastchase Parkway", "addr:city": "Montgomery", "addr:state": "AL", "addr:postcode": "36117", "addr:country": "US", "name": "Bonefish Grill Montgomery, AL", "phone": "(334) 396-1770", "website": "https://locations.bonefishgrill.com/alabama/montgomery/7020-eastchase-parkway", "opening_hours": "Mo-Th 11:00-22:00; Fr-Sa 11:00-23:00; Su 11:00-21:00", "image": "https://locations.bonefishgrill.com/permanent-b0b701/assets/images/logo_bonefish.cb933808.png", "brand": "Bonefish Grill", "brand:wikidata": "Q4941599", "nsi_id": "bonefishgrill-96af40"}, "geometry": {"type": "Point", "coordinates": [-86.16788524780948, 32.35909125612558]}},
{"type": "Feature", "id": "58Vh-zibEApUNx42VP1e-xxENKI=", "properties": {"ref": "https://locations.bonefishgrill.com/#15502699", "@spider": "bonefishgrill", "amenity": "restaurant", "cuisine": "seafood", "addr:street_address": "6955 Airport Boulevard", "addr:city": "Mobile", "addr:state": "AL", "addr:postcode": "36608", "addr:country": "US", "name": "Bonefish Grill Mobile, AL", "phone": "(251) 633-7196", "website": "https://locations.bonefishgrill.com/alabama/mobile/6955-airport-boulevard", "opening_hours": "Mo-Th 11:00-22:00; Fr-Sa 11:00-23:00; Su 11:00-21:00", "image": "https://locations.bonefishgrill.com/permanent-b0b701/assets/images/logo_bonefish.cb933808.png", "brand": "Bonefish Grill", "brand:wikidata": "Q4941599", "nsi_id": "bonefishgrill-96af40"}, "geometry": {"type": "Point", "coordinates": [-88.20474530491084, 30.68336646624227]}},
{"type": "Feature", "id": "mx3PFIf6-d--0c5v-kskQ2cKw7Q=", "properties": {"ref": "https://locations.bonefishgrill.com/#15502752", "@spider": "bonefishgrill", "amenity": "restaurant", "cuisine": "seafood", "addr:street_address": "4800 Whitesburg Drive S.", "addr:city": "Huntsville", "addr:state": "AL", "addr:postcode": "35802", "addr:country": "US", "name": "Bonefish Grill Huntsville, AL", "phone": "(256) 883-0643", "website": "https://locations.bonefishgrill.com/alabama/huntsville/4800-whitesburg-drive-s.", "opening_hours": "Mo-Th 11:00-22:00; Fr-Sa 11:00-23:00; Su 11:00-21:00", "image": "https://locations.bonefishgrill.com/permanent-b0b701/assets/images/logo_bonefish.cb933808.png", "brand": "Bonefish Grill", "brand:wikidata": "Q4941599", "nsi_id": "bonefishgrill-96af40"}, "geometry": {"type": "Point", "coordinates": [-86.570239, 34.692088]}},
{"type": "Feature", "id": "oWBf0OtwbHZ4WlmcWlsjxnuYwrk=", "properties": {"ref": "https://locations.bonefishgrill.com/#15502748", "@spider": "bonefishgrill", "amenity": "restaurant", "cuisine": "seafood", "addr:street_address": "3430 Galleria Circle", "addr:city": "Hoover", "addr:state": "AL", "addr:postcode": "35244", "addr:country": "US", "name": "Bonefish Grill Hoover, AL", "phone": "(205) 985-9545", "website": "https://locations.bonefishgrill.com/alabama/hoover/3430-galleria-circle", "opening_hours": "Mo-Th 12:00-20:00,16:00-21:00; Fr 12:00-21:00,16:00-22:00; Sa 12:00-21:00,15:00-22:00; Su 12:00-20:00,11:00-21:00", "image": "https://locations.bonefishgrill.com/permanent-b0b701/assets/images/logo_bonefish.cb933808.png", "brand": "Bonefish Grill", "brand:wikidata": "Q4941599", "nsi_id": "bonefishgrill-96af40"}, "geometry": {"type": "Point", "coordinates": [-86.80496363265532, 33.377720496094526]}}]}