{"type":"FeatureCollection","features":[{"type": "Feature", "id": "LyNht3mv7YvuEAh2zAt_sOkgLy0=", "properties": {"ref": "880937", "@spider": "boots_no", "addr:full": "Torggata  81-83 2317 Hamar", "addr:country": "NO", "name": "Boots apotek L\u00f8ven Hamar", "phone": "\n\n                \n                ", "website": "https://apotek.boots.no/Boots+apotek+L%C3%B8ven+Hamar/880937", "brand": "Boots", "brand:wikidata": "Q6123139"}, "geometry": {"type": "Point", "coordinates": [11.0686228, 60.7953626]}},
{"type": "Feature", "id": "eAI_d4gWdJE3uHOP_IqarbFWK3U=", "properties": {"ref": "708537", "@spider": "boots_no", "addr:full": "Storgata  64B 2609 Lillehammer", "addr:country": "NO", "name": "Boots apotek Lillehammer", "phone": "\n\n                \n                ", "website": "https://apotek.boots.no/Boots+apotek+Lillehammer/708537", "brand": "Boots", "brand:wikidata": "Q6123139"}, "geometry": {"type": "Point", "coordinates": [10.465998, 61.1154588]}},
{"type": "Feature", "id": "xdNIihho-wk5OaTNtOvbxMu7V0E=", "properties": {"ref": "990376", "@spider": "boots_no", "addr:full": "Kirkevegen  4 2406 Elverum", "addr:country": "NO", "name": "Boots apotek Kremmertorget", "phone": "\n\n                \n                ", "website": "https://apotek.boots.no/Boots+apotek+Kremmertorget/990376", "brand": "Boots", "brand:wikidata": "Q6123139"}, "geometry": {"type": "Point", "coordinates": [11.5666426, 60.8789307]}},
{"type": "Feature", "id": "jg4kez4MbXNhHglTWzulavxO_Ck=", "properties": {"ref": "909593", "@spider": "boots_no", "addr:full": "Kjemsj\u00f8veien  2 2480 Koppang", "addr:country": "NO", "name": "Boots apotek Koppang", "phone": "\n\n                \n                ", "website": "https://apotek.boots.no/Boots+apotek+Koppang/909593", "brand": "Boots", "brand:wikidata": "Q6123139"}, "geometry": {"type": "Point", "coordinates": [11.0506916, 61.5705191]}},
{"type": "Feature", "id": "e8ni8--7WBRtY33LregaGXdhyME=", "properties": {"ref": "893986", "@spider": "boots_no", "addr:full": "Aslak Bolts Gate  48 2316 Hamar", "addr:country": "NO", "name": "Boots apotek Hamar", "phone": "\n\n                \n                ", "website": "https://apotek.boots.no/Boots+apotek+Hamar/893986", "brand": "Boots", "brand:wikidata": "Q6123139"}, "geometry": {"type": "Point", "coordinates": [11.0467783, 60.798663]}},
{"type": "Feature", "id": "2z_zlbCgyedQKvnzCLp3iH5eKus=", "properties": {"ref": "1956512", "@spider": "boots_no", "addr:full": "Kaffegata  23 2270 Flisa", "addr:country": "NO", "name": "Boots apotek Flisa", "phone": "\n\n                \n                ", "website": "https://apotek.boots.no/Boots+apotek+Flisa/1956512", "brand": "Boots", "brand:wikidata": "Q6123139"}, "geometry": {"type": "Point", "coordinates": [12.010322367, 60.611290457]}},
{"type": "Feature", "id": "jfc2CRu_hmpoK-Rm9eOx7FsvmAY=", "properties": {"ref": "2016518", "@spider": "boots_no", "addr:full": "Torggata  3 2408 Elverum", "addr:country": "NO", "name": "Boots apotek Elverum", "phone": "\n\n                \n                ", "website": "https://apotek.boots.no/Boots+apotek+Elverum/2016518", "brand": "Boots", "brand:wikidata": "Q6123139"}, "geometry": {"type": "Point", "coordinates": [11.5622608, 60.8852106]}},
{"type": "Feature", "id": "nZxbo1_MJ02iHE5K5MnpmReSUvA=", "properties": {"ref": "949640", "@spider": "boots_no", "addr:full": "Sentrumsvegen  41 4700 Vennesla", "addr:country": "NO", "name": "Boots apotek Vennesla", "phone": "\n\n                \n                ", "website": "https://apotek.boots.no/Boots+apotek+Vennesla/949640", "brand": "Boots", "brand:wikidata": "Q6123139"}, "geometry": {"type": "Point", "coordinates": [7.9734953, 58.2672398]}},
{"type": "Feature", "id": "aIbNWHq0kM_GZfrpqmnQ5sHZiho=", "properties": {"ref": "1217921", "@spider": "boots_no", "addr:full": "Tollbodgata  6 4611 Kristiansand", "addr:country": "NO", "name": "Boots apotek Kristiansand", "phone": "\n\n                \n                ", "website": "https://apotek.boots.no/Boots+apotek+Kristiansand/1217921", "brand": "Boots", "brand:wikidata": "Q6123139"}, "geometry": {"type": "Point", "coordinates": [7.9943827, 58.1443547]}},
{"type": "Feature", "id": "kuvcVlH0vk0Mne57wSIY9GYWoxw=", "properties": {"ref": "1016570", "@spider": "boots_no", "addr:full": "Langs\u00e6v.5, Harebakken senter 4846 Arendal", "addr:country": "NO", "name": "Boots apotek Harebakken", "phone": "\n\n                \n                ", "website": "https://apotek.boots.no/Boots+apotek+Harebakken/1016570", "brand": "Boots", "brand:wikidata": "Q6123139"}, "geometry": {"type": "Point", "coordinates": [8.7470992, 58.4743201]}},
{"type": "Feature", "id": "79Ftj6d1lprN5KReT8h5u06OC34=", "properties": {"ref": "1956532", "@spider": "boots_no", "addr:full": "Friholmsgaten  4 4836 Arendal", "addr:country": "NO", "name": "Boots apotek Arendal", "phone": "\n\n                \n                ", "website": "https://apotek.boots.no/Boots+apotek+Arendal/1956532", "brand": "Boots", "brand:wikidata": "Q6123139"}, "geometry": {"type": "Point", "coordinates": [8.766339735, 58.460424137]}},
{"type": "Feature", "id": "et7d5b4LJkS0Z7FopB-AhJxumxE=", "properties": {"ref": "1956533", "@spider": "boots_no", "addr:full": "Skippergaten 11 5527 Haugesund", "addr:country": "NO", "name": "Boots apotek \u00d8rnen, Haugesund", "phone": "\n\n                \n                ", "website": "https://apotek.boots.no/Boots+apotek+%C3%98rnen%2C+Haugesund/1956533", "brand": "Boots", "brand:wikidata": "Q6123139"}, "geometry": {"type": "Point", "coordinates": [5.2718456, 59.4123764]}},
{"type": "Feature", "id": "-oDJD0KVphFu3YDkWDU5EqBxwsM=", "properties": {"ref": "913570", "@spider": "boots_no", "addr:full": "Skibmannsvegen 3 4056 Tananger", "addr:country": "NO", "name": "Boots apotek Tananger", "phone": "\n\n                \n                ", "website": "https://apotek.boots.no/Boots+apotek+Tananger/913570", "brand": "Boots", "brand:wikidata": "Q6123139"}, "geometry": {"type": "Point", "coordinates": [5.5872231, 58.936153]}},
{"type": "Feature", "id": "xLF7dlp15AcGTQa26aiZ8rOxPDk=", "properties": {"ref": "1956545", "@spider": "boots_no", "addr:full": "Lars Hertervigs gate  3 4005 Stavanger", "addr:country": "NO", "name": "Boots apotek Stavanger Helsehus", "phone": "\n\n                \n                ", "website": "https://apotek.boots.no/Boots+apotek+Stavanger+Helsehus/1956545", "brand": "Boots", "brand:wikidata": "Q6123139"}, "geometry": {"type": "Point", "coordinates": [5.728984, 58.9698466]}},
{"type": "Feature", "id": "_OGU_fLRs6NuGFvs52Wutoi6jSA=", "properties": {"ref": "880947", "@spider": "boots_no", "addr:full": "Solakrossen 13 4097 Sola", "addr:country": "NO", "name": "Boots apotek Sola", "phone": "\n\n                \n                ", "website": "https://apotek.boots.no/Boots+apotek+Sola/880947", "brand": "Boots", "brand:wikidata": "Q6123139"}, "geometry": {"type": "Point", "coordinates": [5.646928, 58.8856812]}},
{"type": "Feature", "id": "5wKyOVeQxBd0vFLiDV9hL9r4Xjs=", "properties": {"ref": "115586", "@spider": "boots_no", "addr:full": "Sandsvegen 2 4230 Sand", "addr:country": "NO", "name": "Boots apotek Sand", "phone": "\n\n                \n                ", "website": "https://apotek.boots.no/Boots+apotek+Sand/115586", "brand": "Boots", "brand:wikidata": "Q6123139"}, "geometry": {"type": "Point", "coordinates": [6.251198245, 59.484858447]}},
{"type": "Feature", "id": "Y38-V_6rtwdUFsctB-fDiv22mY4=", "properties": {"ref": "2088918", "@spider": "boots_no", "addr:full": "Bj\u00f8rneparken Kj\u00f8pesenter 3539 Fl\u00e5", "addr:country": "NO", "name": "Boots medisinutsalg Fl\u00e5", "phone": "\n\n                \n                ", "website": "https://apotek.boots.no/Boots+medisinutsalg+Fl%C3%A5/2088918", "brand": "Boots", "brand:wikidata": "Q6123139"}, "geometry": {"type": "Point", "coordinates": [9.4579838, 60.4312679]}},
{"type": "Feature", "id": "-ir_XV9Gp5w2agnifZPYRusxtrQ=", "properties": {"ref": "796608", "@spider": "boots_no", "addr:full": "R\u00e5dhusplassen  29-30 1430 \u00c5s", "addr:country": "NO", "name": "Boots apotek \u00c5s", "phone": "\n\n                \n                ", "website": "https://apotek.boots.no/Boots+apotek+%C3%85s/796608", "brand": "Boots", "brand:wikidata": "Q6123139"}, "geometry": {"type": "Point", "coordinates": [10.788932731, 59.664951233]}},
{"type": "Feature", "id": "VpfQmRrwEPfLgWyKahQozmAwU7o=", "properties": {"ref": "328758", "@spider": "boots_no", "addr:full": "\u00c5lingen kj\u00f8pesenter, Myren  19 3570 \u00c5l", "addr:country": "NO", "name": "Boots apotek \u00c5l", "phone": "\n\n                \n                ", "website": "https://apotek.boots.no/Boots+apotek+%C3%85l/328758", "brand": "Boots", "brand:wikidata": "Q6123139"}, "geometry": {"type": "Point", "coordinates": [8.563998, 60.630507]}},
{"type": "Feature", "id": "WYl66iWzQn4eEkBcQcyJT5SJucM=", "properties": {"ref": "104246", "@spider": "boots_no", "addr:full": "Vestheimveien  31 1540 Vestby", "addr:country": "NO", "name": "Boots apotek Vestby", "phone": "\n\n                \n                ", "website": "https://apotek.boots.no/Boots+apotek+Vestby/104246", "brand": "Boots", "brand:wikidata": "Q6123139"}, "geometry": {"type": "Point", "coordinates": [10.751639553, 59.603507232]}},
{"type": "Feature", "id": "R_jEJsPVImvY3sKjRLMbe2oF7B8=", "properties": {"ref": "604639", "@spider": "boots_no", "addr:full": "Jessheim Storsenter 2050 Jessheim", "addr:country": "NO", "name": "Boots apotek Ullensaker", "phone": "\n\n                \n                ", "website": "https://apotek.boots.no/Boots+apotek+Ullensaker/604639", "brand": "Boots", "brand:wikidata": "Q6123139"}, "geometry": {"type": "Point", "coordinates": [11.1731291, 60.1430993]}},
{"type": "Feature", "id": "GHV-_tcHU6Dlrndp-VNEImuZFAg=", "properties": {"ref": "1956557", "@spider": "boots_no", "addr:full": "Triaden L\u00f8renskog Storsenter, Gamleveien 88 1476 Rasta", "addr:country": "NO", "name": "Boots Apotek Triaden", "phone": "\n\n                \n                ", "website": "https://apotek.boots.no/Boots+Apotek+Triaden/1956557", "brand": "Boots", "brand:wikidata": "Q6123139"}, "geometry": {"type": "Point", "coordinates": [10.9531419, 59.9194686]}},
{"type": "Feature", "id": "H39DdQQBkdZdlDluhTVHTHSMjEA=", "properties": {"ref": "456972", "@spider": "boots_no", "addr:full": "Villavn. 2 1920 S\u00f8rumsand", "addr:country": "NO", "name": "Boots apotek S\u00f8rumsand", "phone": "\n\n                \n                ", "website": "https://apotek.boots.no/Boots+apotek+S%C3%B8rumsand/456972", "brand": "Boots", "brand:wikidata": "Q6123139"}, "geometry": {"type": "Point", "coordinates": [11.2430702, 59.9869909]}},
{"type": "Feature", "id": "ovIYBdgEZi8XwdlUxs7UNLow_Sc=", "properties": {"ref": "880940", "@spider": "boots_no", "addr:full": "Storgata  30 3611 Kongsberg", "addr:country": "NO", "name": "Boots apotek S\u00f8lvkronen", "phone": "\n\n                \n                ", "website": "https://apotek.boots.no/Boots+apotek+S%C3%B8lvkronen/880940", "brand": "Boots", "brand:wikidata": "Q6123139"}, "geometry": {"type": "Point", "coordinates": [9.6517459, 59.6706841]}},
{"type": "Feature", "id": "OHRPiP0puR1EhOl6dSf1eo6AIrU=", "properties": {"ref": "1956556", "@spider": "boots_no", "addr:full": "Frans\u00e5sveien  2 3475 S\u00e6tre", "addr:country": "NO", "name": "Boots apotek S\u00e6tre", "phone": "\n\n                \n                ", "website": "https://apotek.boots.no/Boots+apotek+S%C3%A6tre/1956556", "brand": "Boots", "brand:wikidata": "Q6123139"}, "geometry": {"type": "Point", "coordinates": [10.5259105, 59.6815239]}},
{"type": "Feature", "id": "4HS8zJamvorvEMR2exAqzHVS0Cw=", "properties": {"ref": "1333098", "@spider": "boots_no", "addr:full": "Storgaten  92 3060 Svelvik", "addr:country": "NO", "name": "Boots apotek Svelvik", "phone": "\n\n                \n                ", "website": "https://apotek.boots.no/Boots+apotek+Svelvik/1333098", "brand": "Boots", "brand:wikidata": "Q6123139"}, "geometry": {"type": "Point", "coordinates": [10.407594128, 59.611296382]}},
{"type": "Feature", "id": "L1CQZY2j-i6Opmjhp6X6ZCQ5XWg=", "properties": {"ref": "499463", "@spider": "boots_no", "addr:full": "Prinsens gate  6 1530 Moss", "addr:country": "NO", "name": "Boots apotek Svanen Moss", "phone": "\n\n                \n                ", "website": "https://apotek.boots.no/Boots+apotek+Svanen+Moss/499463", "brand": "Boots", "brand:wikidata": "Q6123139"}, "geometry": {"type": "Point", "coordinates": [10.6629113, 59.4369029]}},
{"type": "Feature", "id": "jgVU0aYatNlLs92GB-HN22IKD9M=", "properties": {"ref": "2014200", "@spider": "boots_no", "addr:full": "Bj\u00f8rnstjerne Bj\u00f8rnsons gate  60 3044 Drammen", "addr:country": "NO", "name": "Boots apotek Str\u00f8ms\u00f8 Senter", "phone": "\n\n                \n                ", "website": "https://apotek.boots.no/Boots+apotek+Str%C3%B8ms%C3%B8+Senter/2014200", "brand": "Boots", "brand:wikidata": "Q6123139"}, "geometry": {"type": "Point", "coordinates": [10.2066367, 59.734416]}},
{"type": "Feature", "id": "T76U4WqrCNzNuziQXa2zg03jjbk=", "properties": {"ref": "1956514", "@spider": "boots_no", "addr:full": "Str\u00f8ms\u00f8 torg  9 3044 Drammen", "addr:country": "NO", "name": "Boots apotek Str\u00f8ms\u00f8", "phone": "\n\n                \n                ", "website": "https://apotek.boots.no/Boots+apotek+Str%C3%B8ms%C3%B8/1956514", "brand": "Boots", "brand:wikidata": "Q6123139"}, "geometry": {"type": "Point", "coordinates": [10.2017274, 59.7403939]}},
{"type": "Feature", "id": "CbxZZ4NbQtz7CeO7B9I83JbAyEQ=", "properties": {"ref": "2092175", "@spider": "boots_no", "addr:full": "Str\u00f8msveien  50 2010 Str\u00f8mmen", "addr:country": "NO", "name": "Boots apotek Str\u00f8msveien", "phone": "\n\n                \n                ", "website": "https://apotek.boots.no/Boots+apotek+Str%C3%B8msveien/2092175", "brand": "Boots", "brand:wikidata": "Q6123139"}, "geometry": {"type": "Point", "coordinates": [11.0072247, 59.9453408]}},
{"type": "Feature", "id": "sYGCKYnR1HmPwt5P9oDfNp2H6ng=", "properties": {"ref": "1336180", "@spider": "boots_no", "addr:full": "Str\u00f8mmen storsenter, St\u00f8periveien  5 2010 Str\u00f8mmen", "addr:country": "NO", "name": "Boots apotek Str\u00f8mmen", "phone": "\n\n                \n                ", "website": "https://apotek.boots.no/Boots+apotek+Str%C3%B8mmen/1336180", "brand": "Boots", "brand:wikidata": "Q6123139"}, "geometry": {"type": "Point", "coordinates": [11.0091302, 59.9484167]}},
{"type": "Feature", "id": "_wsrkxOdW1XD4DcQmqio-CC0fYo=", "properties": {"ref": "1956516", "@spider": "boots_no", "addr:full": "Rortunet Senter 3470 Slemmestad", "addr:country": "NO", "name": "Boots apotek Slemmestad", "phone": "\n\n                \n                ", "website": "https://apotek.boots.no/Boots+apotek+Slemmestad/1956516", "brand": "Boots", "brand:wikidata": "Q6123139"}, "geometry": {"type": "Point", "coordinates": [10.485060049, 59.777358578]}},
{"type": "Feature", "id": "OQVV_eHi4XCM3RScdklbmkag1ME=", "properties": {"ref": "1336181", "@spider": "boots_no", "addr:full": "Nordens vei  15 2013 Skjetten", "addr:country": "NO", "name": "Boots apotek Skjetten", "phone": "\n\n                \n                ", "website": "https://apotek.boots.no/Boots+apotek+Skjetten/1336181", "brand": "Boots", "brand:wikidata": "Q6123139"}, "geometry": {"type": "Point", "coordinates": [10.9992592, 59.9671366]}},
{"type": "Feature", "id": "DdIXdZzSxzX-tq9ITzyECyoaX4E=", "properties": {"ref": "1333421", "@spider": "boots_no", "addr:full": "Furuvn. 1 2020 Skedsmokorset", "addr:country": "NO", "name": "Boots apotek Skedsmokorset", "phone": "\n\n                \n                ", "website": "https://apotek.boots.no/Boots+apotek+Skedsmokorset/1333421", "brand": "Boots", "brand:wikidata": "Q6123139"}, "geometry": {"type": "Point", "coordinates": [11.0405722, 60.0008314]}},
{"type": "Feature", "id": "tfAas1x19XlvnBblrtYbApsCceI=", "properties": {"ref": "1554718", "@spider": "boots_no", "addr:full": "Gladbakkvegen  2b 2070 R\u00e5holt", "addr:country": "NO", "name": "Boots apotek R\u00e5holt", "phone": "\n\n                \n                ", "website": "https://apotek.boots.no/Boots+apotek+R%C3%A5holt/1554718", "brand": "Boots", "brand:wikidata": "Q6123139"}, "geometry": {"type": "Point", "coordinates": [11.1756229, 60.2799438]}},
{"type": "Feature", "id": "ardWQjQG5ZN59iI4oXhBfYDuH94=", "properties": {"ref": "1460285", "@spider": "boots_no", "addr:full": "Carlbergveien  2 1526 Moss", "addr:country": "NO", "name": "Boots apotek Rygge Storsenter", "phone": "\n\n                \n                ", "website": "https://apotek.boots.no/Boots+apotek+Rygge+Storsenter/1460285", "brand": "Boots", "brand:wikidata": "Q6123139"}, "geometry": {"type": "Point", "coordinates": [10.683197478, 59.41608528]}},
{"type": "Feature", "id": "ehjA7vskWVOBi8U8DO2D-hWmt6Q=", "properties": {"ref": "1554723", "@spider": "boots_no", "addr:full": "R\u00e5dhusveien  4 1890 Rakkestad", "addr:country": "NO", "name": "Boots apotek Rakkestad", "phone": "\n\n                \n                ", "website": "https://apotek.boots.no/Boots+apotek+Rakkestad/1554723", "brand": "Boots", "brand:wikidata": "Q6123139"}, "geometry": {"type": "Point", "coordinates": [11.342450787, 59.427622071]}},
{"type": "Feature", "id": "oZuc7j8Gtcb_qtdywbRAJd5I0tQ=", "properties": {"ref": "607896", "@spider": "boots_no", "addr:full": "Jordeshagen  3 3540 Nesbyen", "addr:country": "NO", "name": "Boots apotek Nesbyen", "phone": "\n\n                \n                ", "website": "https://apotek.boots.no/Boots+apotek+Nesbyen/607896", "brand": "Boots", "brand:wikidata": "Q6123139"}, "geometry": {"type": "Point", "coordinates": [9.102597889, 60.56892172]}},
{"type": "Feature", "id": "1D-nP-HeD6fTn9Ktz29xycjqTdE=", "properties": {"ref": "893541", "@spider": "boots_no", "addr:full": "Metro senter, Bibliotekgt 30 1473 L\u00f8renskog", "addr:country": "NO", "name": "Boots apotek L\u00f8renskog", "phone": "\n\n                \n                ", "website": "https://apotek.boots.no/Boots+apotek+L%C3%B8renskog/893541", "brand": "Boots", "brand:wikidata": "Q6123139"}, "geometry": {"type": "Point", "coordinates": [10.9577227, 59.9276735]}},
{"type": "Feature", "id": "VaMs9qAB0bU-YljJz4gYo1IvqN0=", "properties": {"ref": "1333440", "@spider": "boots_no", "addr:full": "Stortorget  11 2000 Lillestr\u00f8m", "addr:country": "NO", "name": "Boots apotek Lillestr\u00f8m", "phone": "\n\n                \n                ", "website": "https://apotek.boots.no/Boots+apotek+Lillestr%C3%B8m/1333440", "brand": "Boots", "brand:wikidata": "Q6123139"}, "geometry": {"type": "Point", "coordinates": [11.0503369, 59.9580657]}},
{"type": "Feature", "id": "c8PS8ghmCw9rZnaICyzVfNcKznA=", "properties": {"ref": "2088921", "@spider": "boots_no", "addr:full": "Lilleengveien  8 1523 Moss", "addr:country": "NO", "name": "Boots apotek Lilleeng Helsepark", "phone": "\n\n                \n                ", "website": "https://apotek.boots.no/Boots+apotek+Lilleeng+Helsepark/2088921", "brand": "Boots", "brand:wikidata": "Q6123139"}, "geometry": {"type": "Point", "coordinates": [10.677160854, 59.418589455]}},
{"type": "Feature", "id": "V3vEXLHMyE9Xj3h6GVM78F7g4Hg=", "properties": {"ref": "1339005", "@spider": "boots_no", "addr:full": "Vestrevei  4 1710 Sarpsborg", "addr:country": "NO", "name": "Boots apotek Lande", "phone": "\n\n                \n                ", "website": "https://apotek.boots.no/Boots+apotek+Lande/1339005", "brand": "Boots", "brand:wikidata": "Q6123139"}, "geometry": {"type": "Point", "coordinates": [11.096885413, 59.28971574]}},
{"type": "Feature", "id": "4t0ZwyDGIcSr6oukxbQKX9SNGYU=", "properties": {"ref": "949733", "@spider": "boots_no", "addr:full": "Kr\u00e5ker\u00f8yveien  2A 1671 Kr\u00e5ker\u00f8y", "addr:country": "NO", "name": "Boots apotek Kr\u00e5ker\u00f8y", "phone": "\n\n                \n                ", "website": "https://apotek.boots.no/Boots+apotek+Kr%C3%A5ker%C3%B8y/949733", "brand": "Boots", "brand:wikidata": "Q6123139"}, "geometry": {"type": "Point", "coordinates": [10.9384794, 59.205568]}},
{"type": "Feature", "id": "gLCWzSAd1RpbDbsbOyccXoTuT6Q=", "properties": {"ref": "1323303", "@spider": "boots_no", "addr:full": "Pettersvollen  3 3032 Drammen", "addr:country": "NO", "name": "Boots apotek Konnerud", "phone": "\n\n                \n                ", "website": "https://apotek.boots.no/Boots+apotek+Konnerud/1323303", "brand": "Boots", "brand:wikidata": "Q6123139"}, "geometry": {"type": "Point", "coordinates": [10.150306342, 59.71789778]}},
{"type": "Feature", "id": "ceaggpZkHGPChCCx8NmN6Z6FTuE=", "properties": {"ref": "990419", "@spider": "boots_no", "addr:full": "Brochs gate  7-11 1607 Fredrikstad", "addr:country": "NO", "name": "Boots apotek Kong Salomo", "phone": "\n\n                \n                ", "website": "https://apotek.boots.no/Boots+apotek+Kong+Salomo/990419", "brand": "Boots", "brand:wikidata": "Q6123139"}, "geometry": {"type": "Point", "coordinates": [10.9398865, 59.2145896]}},
{"type": "Feature", "id": "4Bl6vNnla0mH-pz-3gkVd8OEjGo=", "properties": {"ref": "1956544", "@spider": "boots_no", "addr:full": "R\u00f8dskiferveien  1 1352 Kols\u00e5s", "addr:country": "NO", "name": "Boots apotek Kols\u00e5s", "phone": "\n\n                \n                ", "website": "https://apotek.boots.no/Boots+apotek+Kols%C3%A5s/1956544", "brand": "Boots", "brand:wikidata": "Q6123139"}, "geometry": {"type": "Point", "coordinates": [10.5007071, 59.9166558]}},
{"type": "Feature", "id": "jpbSD8DMTU5yvJuMNRmwHsuQIJA=", "properties": {"ref": "893237", "@spider": "boots_no", "addr:full": "Strandliveien  4 1410 Kolbotn", "addr:country": "NO", "name": "Boots apotek Kolbotn Torg", "phone": "\n\n                \n                ", "website": "https://apotek.boots.no/Boots+apotek+Kolbotn+Torg/893237", "brand": "Boots", "brand:wikidata": "Q6123139"}, "geometry": {"type": "Point", "coordinates": [10.7992785, 59.8106754]}},
{"type": "Feature", "id": "Ui023_l75_o5sLMym9gFbiPFOmI=", "properties": {"ref": "1336119", "@spider": "boots_no", "addr:full": "Trondheimsvegen - Kl\u00f8fta  86 2040 Kl\u00f8fta", "addr:country": "NO", "name": "Boots apotek Kl\u00f8fta", "phone": "\n\n                \n                ", "website": "https://apotek.boots.no/Boots+apotek+Kl%C3%B8fta/1336119", "brand": "Boots", "brand:wikidata": "Q6123139"}, "geometry": {"type": "Point", "coordinates": [11.1359645, 60.0762038]}},
{"type": "Feature", "id": "z9TbIaUYlBbu0WPcRBj4xgkQ_q8=", "properties": {"ref": "1320915", "@spider": "boots_no", "addr:full": "Helger\u00f8dgata  36 1515 Moss", "addr:country": "NO", "name": "Boots apotek Jel\u00f8y", "phone": "\n\n                \n                ", "website": "https://apotek.boots.no/Boots+apotek+Jel%C3%B8y/1320915", "brand": "Boots", "brand:wikidata": "Q6123139"}, "geometry": {"type": "Point", "coordinates": [10.6434623, 59.4331365]}},
{"type": "Feature", "id": "UVwU9j075ON_A_mtwDuB4v65UXo=", "properties": {"ref": "949883", "@spider": "boots_no", "addr:full": "O. H. Bangs vei  17 1363 H\u00f8vik", "addr:country": "NO", "name": "Boots apotek H\u00f8vik", "phone": "\n\n                \n                ", "website": "https://apotek.boots.no/Boots+apotek+H%C3%B8vik/949883", "brand": "Boots", "brand:wikidata": "Q6123139"}, "geometry": {"type": "Point", "coordinates": [10.5804561, 59.8996948]}},
{"type": "Feature", "id": "zPUotKBXOS592eUWFejFzHcvAEI=", "properties": {"ref": "1037634", "@spider": "boots_no", "addr:full": "Sentrumsveien  28 3647 Hvittingfoss", "addr:country": "NO", "name": "Boots apotek Hvittingfoss", "phone": "\n\n                \n                ", "website": "https://apotek.boots.no/Boots+apotek+Hvittingfoss/1037634", "brand": "Boots", "brand:wikidata": "Q6123139"}, "geometry": {"type": "Point", "coordinates": [10.0101358, 59.4830812]}},
{"type": "Feature", "id": "jmI0qXFU49gk90fZUT-YhDX7wAk=", "properties": {"ref": "1319524", "@spider": "boots_no", "addr:full": "\u00d8stre Strandvei  36 3482 Tofte", "addr:country": "NO", "name": "Boots apotek Hurum", "phone": "\n\n                \n                ", "website": "https://apotek.boots.no/Boots+apotek+Hurum/1319524", "brand": "Boots", "brand:wikidata": "Q6123139"}, "geometry": {"type": "Point", "coordinates": [10.5612071, 59.5424908]}},
{"type": "Feature", "id": "RinPfdP0yDVExSzY6bgKGKaRa0o=", "properties": {"ref": "2095452", "@spider": "boots_no", "addr:full": "Snipetjernveien  10 1405 Langhus", "addr:country": "NO", "name": "Boots apotek HomeCare", "phone": "\n\n                \n                ", "website": "https://apotek.boots.no/Boots+apotek+HomeCare/2095452", "brand": "Boots", "brand:wikidata": "Q6123139"}, "geometry": {"type": "Point", "coordinates": [10.843269, 59.776232]}},
{"type": "Feature", "id": "2PoaETkX7ILmPFmKCMxb3A7fPdc=", "properties": {"ref": "1322007", "@spider": "boots_no", "addr:full": "Vik Torg 3530 R\u00f8yse", "addr:country": "NO", "name": "Boots apotek Hole", "phone": "\n\n                \n                ", "website": "https://apotek.boots.no/Boots+apotek+Hole/1322007", "brand": "Boots", "brand:wikidata": "Q6123139"}, "geometry": {"type": "Point", "coordinates": [10.281886616, 60.077735638]}},
{"type": "Feature", "id": "sPtUTHgNGA6jtafrOwlorGjvIsA=", "properties": {"ref": "953849", "@spider": "boots_no", "addr:full": "Stasjonsgata  85 3300 Hokksund", "addr:country": "NO", "name": "Boots apotek Hokksund", "phone": "\n\n                \n                ", "website": "https://apotek.boots.no/Boots+apotek+Hokksund/953849", "brand": "Boots", "brand:wikidata": "Q6123139"}, "geometry": {"type": "Point", "coordinates": [9.9109742, 59.7680739]}},
{"type": "Feature", "id": "a1UJvSdyWNPtFcYTwCr1caxM3sw=", "properties": {"ref": "2095378", "@spider": "boots_no", "addr:full": "Helgebyveien  8 1734 Hafslunds\u00f8y", "addr:country": "NO", "name": "Boots Apotek Hafslunds\u00f8y", "phone": "\n\n                \n                ", "website": "https://apotek.boots.no/Boots+Apotek+Hafslunds%C3%B8y/2095378", "brand": "Boots", "brand:wikidata": "Q6123139"}, "geometry": {"type": "Point", "coordinates": [11.150142, 59.291637]}},
{"type": "Feature", "id": "aP84HIWdrMRkNax0dIJe12C69vM=", "properties": {"ref": "1956521", "@spider": "boots_no", "addr:full": "Kremmartunet, Sentrumsvegen 116 3550 Gol", "addr:country": "NO", "name": "Boots apotek Gol", "phone": "\n\n                \n                ", "website": "https://apotek.boots.no/Boots+apotek+Gol/1956521", "brand": "Boots", "brand:wikidata": "Q6123139"}, "geometry": {"type": "Point", "coordinates": [8.9391902, 60.7016126]}},
{"type": "Feature", "id": "WIIQCQ9SZ-mhT7TjmxmMNLKoUuU=", "properties": {"ref": "1956515", "@spider": "boots_no", "addr:full": "Vestvang  6 2022 Gjerdrum", "addr:country": "NO", "name": "Boots apotek Gjerdrum", "phone": "\n\n                \n                ", "website": "https://apotek.boots.no/Boots+apotek+Gjerdrum/1956515", "brand": "Boots", "brand:wikidata": "Q6123139"}, "geometry": {"type": "Point", "coordinates": [11.034135779, 60.071202]}},
{"type": "Feature", "id": "zh_JJlNGyzE_oPc2lOcknEZsdu4=", "properties": {"ref": "1956522", "@spider": "boots_no", "addr:full": "Kyrkjevegen  2 3581 Geilo", "addr:country": "NO", "name": "Boots apotek Geilo", "phone": "\n\n                \n                ", "website": "https://apotek.boots.no/Boots+apotek+Geilo/1956522", "brand": "Boots", "brand:wikidata": "Q6123139"}, "geometry": {"type": "Point", "coordinates": [8.2080934, 60.5341511]}},
{"type": "Feature", "id": "bzODoX4r_YQpLukGGcz8qEtlp34=", "properties": {"ref": "991514", "@spider": "boots_no", "addr:full": "Mosseveien  16 1610 Fredrikstad", "addr:country": "NO", "name": "Boots apotek Fredrikstad", "phone": "\n\n                \n                ", "website": "https://apotek.boots.no/Boots+apotek+Fredrikstad/991514", "brand": "Boots", "brand:wikidata": "Q6123139"}, "geometry": {"type": "Point", "coordinates": [10.9222862, 59.2190125]}},
{"type": "Feature", "id": "v5Df8MQSR7tmFwMFG21yfZXVqI0=", "properties": {"ref": "1956536", "@spider": "boots_no", "addr:full": "Garderbakken  6 1900 Fetsund", "addr:country": "NO", "name": "Boots apotek Fetsund", "phone": "\n\n                \n                ", "website": "https://apotek.boots.no/Boots+apotek+Fetsund/1956536", "brand": "Boots", "brand:wikidata": "Q6123139"}, "geometry": {"type": "Point", "coordinates": [11.1632522, 59.9283396]}},
{"type": "Feature", "id": "OHoGzwmK6YXVF_7ZsxVI-aj23_o=", "properties": {"ref": "1966418", "@spider": "boots_no", "addr:full": "Rosenkrantzgata  17 3018 Drammen", "addr:country": "NO", "name": "Boots Apotek Drammen Legevakt", "phone": "\n\n                \n                ", "website": "https://apotek.boots.no/Boots+Apotek+Drammen+Legevakt/1966418", "brand": "Boots", "brand:wikidata": "Q6123139"}, "geometry": {"type": "Point", "coordinates": [10.189433918, 59.747627187]}},
{"type": "Feature", "id": "xjzeqyvGvx_2_jFRHjNLC9tUi3o=", "properties": {"ref": "1956528", "@spider": "boots_no", "addr:full": "R\u00e5dhusveien  5 1940 Bj\u00f8rkelangen", "addr:country": "NO", "name": "Boots apotek Bj\u00f8rkelangen", "phone": "\n\n                \n                ", "website": "https://apotek.boots.no/Boots+apotek+Bj%C3%B8rkelangen/1956528", "brand": "Boots", "brand:wikidata": "Q6123139"}, "geometry": {"type": "Point", "coordinates": [11.5677098, 59.8831888]}},
{"type": "Feature", "id": "pwWnE3YXcfvuhSdP_uTXDlz5vE8=", "properties": {"ref": "1031513", "@spider": "boots_no", "addr:full": "Gamle Ringeriksvei  34 1357 Bekkestua", "addr:country": "NO", "name": "Boots apotek Bekkestua", "phone": "\n\n                \n                ", "website": "https://apotek.boots.no/Boots+apotek+Bekkestua/1031513", "brand": "Boots", "brand:wikidata": "Q6123139"}, "geometry": {"type": "Point", "coordinates": [10.5882129, 59.9162626]}},
{"type": "Feature", "id": "cMkcSNIoVYkvRan-OSc863Fg7Tg=", "properties": {"ref": "1956542", "@spider": "boots_no", "addr:full": "Skolegata  11 1830 Askim", "addr:country": "NO", "name": "Boots apotek Askim", "phone": "\n\n                \n                ", "website": "https://apotek.boots.no/Boots+apotek+Askim/1956542", "brand": "Boots", "brand:wikidata": "Q6123139"}, "geometry": {"type": "Point", "coordinates": [11.159466007, 59.583623382]}},
{"type": "Feature", "id": "9eWLzQiuH7w-NmKThks_1_XA8UI=", "properties": {"ref": "2065343", "@spider": "boots_no", "addr:full": "\u00c5sane Storsenter, \u00c5sane Senter 42 5116 Ulset", "addr:country": "NO", "name": "Boots apotek \u00c5sane", "phone": "\n\n                \n                ", "website": "https://apotek.boots.no/Boots+apotek+%C3%85sane/2065343", "brand": "Boots", "brand:wikidata": "Q6123139"}, "geometry": {"type": "Point", "coordinates": [5.322633, 60.465512]}},
{"type": "Feature", "id": "YuZWIlH64BcsMo92JZ410Kbh61s=", "properties": {"ref": "1535542", "@spider": "boots_no", "addr:full": "Krokatj\u00f8nnveien  11A 5147 Fyllingsdalen", "addr:country": "NO", "name": "Boots apotek Spelhaugen", "phone": "\n\n                \n                ", "website": "https://apotek.boots.no/Boots+apotek+Spelhaugen/1535542", "brand": "Boots", "brand:wikidata": "Q6123139"}, "geometry": {"type": "Point", "coordinates": [5.276672, 60.3498155]}},
{"type": "Feature", "id": "leC6U39s5zEJapE8tAUzAWQsP9Q=", "properties": {"ref": "990543", "@spider": "boots_no", "addr:full": "Sartor Storsenter, Sartorvegen 12 5353 Straume", "addr:country": "NO", "name": "Boots apotek Sotra", "phone": "\n\n                \n                ", "website": "https://apotek.boots.no/Boots+apotek+Sotra/990543", "brand": "Boots", "brand:wikidata": "Q6123139"}, "geometry": {"type": "Point", "coordinates": [5.126246, 60.358372]}},
{"type": "Feature", "id": "quY_VY_0FOEq1tGqn_yR3UUqVZ0=", "properties": {"ref": "1520022", "@spider": "boots_no", "addr:full": "Sartor Storsenter,inngang ved Bunnpris 5353 Straume", "addr:country": "NO", "name": "Boots apotek Sartor Storsenter", "phone": "\n\n                \n                ", "website": "https://apotek.boots.no/Boots+apotek+Sartor+Storsenter/1520022", "brand": "Boots", "brand:wikidata": "Q6123139"}, "geometry": {"type": "Point", "coordinates": [5.1263942, 60.3577251]}},
{"type": "Feature", "id": "0bcSnLr_ADl3Voasl_Uhz8u9N9U=", "properties": {"ref": "1323690", "@spider": "boots_no", "addr:full": "Aurdalslia  14 5253 Sandsli", "addr:country": "NO", "name": "Boots apotek Sandsli", "phone": "\n\n                \n                ", "website": "https://apotek.boots.no/Boots+apotek+Sandsli/1323690", "brand": "Boots", "brand:wikidata": "Q6123139"}, "geometry": {"type": "Point", "coordinates": [5.2818022, 60.3055949]}},
{"type": "Feature", "id": "3J79D9qDdB7kQUsPH7lwThozv2I=", "properties": {"ref": "924857", "@spider": "boots_no", "addr:full": "Smelteverket  8 5750 Odda", "addr:country": "NO", "name": "Boots apotek Odda", "phone": "\n\n                \n                ", "website": "https://apotek.boots.no/Boots+apotek+Odda/924857", "brand": "Boots", "brand:wikidata": "Q6123139"}, "geometry": {"type": "Point", "coordinates": [6.5469832, 60.0659245]}},
{"type": "Feature", "id": "0FwzwW9D2ORj381lsvyUMmvv2s4=", "properties": {"ref": "2088920", "@spider": "boots_no", "addr:full": "Kaien  9 5600 Norheimsund", "addr:country": "NO", "name": "Boots apotek Norheimsund", "phone": "\n\n                \n                ", "website": "https://apotek.boots.no/Boots+apotek+Norheimsund/2088920", "brand": "Boots", "brand:wikidata": "Q6123139"}, "geometry": {"type": "Point", "coordinates": [6.1461786, 60.372369]}},
{"type": "Feature", "id": "vct8sjPlkbXHYdKI04_DcDqx5T8=", "properties": {"ref": "1956535", "@spider": "boots_no", "addr:full": "\u00d8stre Nesttunvegen  16 5221 Nesttun", "addr:country": "NO", "name": "Boots apotek Nesttun", "phone": "\n\n                \n                ", "website": "https://apotek.boots.no/Boots+apotek+Nesttun/1956535", "brand": "Boots", "brand:wikidata": "Q6123139"}, "geometry": {"type": "Point", "coordinates": [5.3544786, 60.3171271]}},
{"type": "Feature", "id": "NTtiIO3ZjeAV_Lk47kDIkfgz8dE=", "properties": {"ref": "913116", "@spider": "boots_no", "addr:full": "Vestkanten Loddefjordvn. 2 5171 Loddefjord", "addr:country": "NO", "name": "Boots apotek Loddefjord", "phone": "\n\n                \n                ", "website": "https://apotek.boots.no/Boots+apotek+Loddefjord/913116", "brand": "Boots", "brand:wikidata": "Q6123139"}, "geometry": {"type": "Point", "coordinates": [5.2336822, 60.363121]}},
{"type": "Feature", "id": "2JsQ5QY_fSFo8iSQ2s1fgma0IKs=", "properties": {"ref": "1329566", "@spider": "boots_no", "addr:full": "Hardangerfjordvegen  615 5610 \u00d8ystese", "addr:country": "NO", "name": "Boots apotek Linnea", "phone": "\n\n                \n                ", "website": "https://apotek.boots.no/Boots+apotek+Linnea/1329566", "brand": "Boots", "brand:wikidata": "Q6123139"}, "geometry": {"type": "Point", "coordinates": [6.2017833, 60.3863855]}},
{"type": "Feature", "id": "OKTBe4bFaiwpLkKZiQYZsGRQz98=", "properties": {"ref": "924759", "@spider": "boots_no", "addr:full": "Kringsj\u00e5veien  83-89 5163 Laksev\u00e5g", "addr:country": "NO", "name": "Boots apotek Laksev\u00e5g", "phone": "\n\n                \n                ", "website": "https://apotek.boots.no/Boots+apotek+Laksev%C3%A5g/924759", "brand": "Boots", "brand:wikidata": "Q6123139"}, "geometry": {"type": "Point", "coordinates": [5.2869851, 60.389514]}},
{"type": "Feature", "id": "g4HITfyw7vITLfk6veVmUPnoVgk=", "properties": {"ref": "1084705", "@spider": "boots_no", "addr:full": "Kilden senter, S\u00f8r\u00e5sh\u00f8gda 9 5235 R\u00e5dal", "addr:country": "NO", "name": "Boots apotek Kilden", "phone": "\n\n                \n                ", "website": "https://apotek.boots.no/Boots+apotek+Kilden/1084705", "brand": "Boots", "brand:wikidata": "Q6123139"}, "geometry": {"type": "Point", "coordinates": [5.3226687, 60.3063014]}},
{"type": "Feature", "id": "a0QVHA8zNxPBcwvy20B4dvwHLZo=", "properties": {"ref": "1956519", "@spider": "boots_no", "addr:full": "Folke Bernadottes vei  52 5147 Fyllingsdalen", "addr:country": "NO", "name": "Boots apotek Fyllingsdalen", "phone": "\n\n                \n                ", "website": "https://apotek.boots.no/Boots+apotek+Fyllingsdalen/1956519", "brand": "Boots", "brand:wikidata": "Q6123139"}, "geometry": {"type": "Point", "coordinates": [5.2925957, 60.348346]}},
{"type": "Feature", "id": "UIF6t7Ztl-oNggu8RXYYE_WEK3U=", "properties": {"ref": "1956534", "@spider": "boots_no", "addr:full": "Kleppest\u00f8 senter, Gamle Kleppest\u00f8vegen 2 5300 Kleppest\u00f8", "addr:country": "NO", "name": "Boots apotek Ask\u00f8y", "phone": "\n\n                \n                ", "website": "https://apotek.boots.no/Boots+apotek+Ask%C3%B8y/1956534", "brand": "Boots", "brand:wikidata": "Q6123139"}, "geometry": {"type": "Point", "coordinates": [5.2268809, 60.4103774]}},
{"type": "Feature", "id": "qmCLm-p_eLFBXCKLLylowcsB2Xc=", "properties": {"ref": "1956518", "@spider": "boots_no", "addr:full": "\u00d8yrane Torg, \u00c5dnavegen 63 5260 Indre Arna", "addr:country": "NO", "name": "Boots apotek Arna", "phone": "\n\n                \n                ", "website": "https://apotek.boots.no/Boots+apotek+Arna/1956518", "brand": "Boots", "brand:wikidata": "Q6123139"}, "geometry": {"type": "Point", "coordinates": [5.4651545, 60.4211702]}},
{"type": "Feature", "id": "fkc0kj0JUxLrg3b4WLNQ0_1v_EE=", "properties": {"ref": "893464", "@spider": "boots_no", "addr:full": "Tolvsr\u00f8dsenteret, Vall\u00f8vn. 56b 3152 Tolvsr\u00f8d", "addr:country": "NO", "name": "Boots apotek Tolvsr\u00f8d", "phone": "\n\n                \n                ", "website": "https://apotek.boots.no/Boots+apotek+Tolvsr%C3%B8d/893464", "brand": "Boots", "brand:wikidata": "Q6123139"}, "geometry": {"type": "Point", "coordinates": [10.4705681, 59.2727362]}},
{"type": "Feature", "id": "V1ODTepL735sL76Vo0be6hBGYfo=", "properties": {"ref": "1285573", "@spider": "boots_no", "addr:full": "Kj\u00f8lebr\u00f8ndsveien  1 3766 Sannidal", "addr:country": "NO", "name": "Boots apotek Sannidal", "phone": "\n\n                \n                ", "website": "https://apotek.boots.no/Boots+apotek+Sannidal/1285573", "brand": "Boots", "brand:wikidata": "Q6123139"}, "geometry": {"type": "Point", "coordinates": [9.2850267, 58.895063]}},
{"type": "Feature", "id": "qZguJ289mc2nVO-ENVQYVVnqgvw=", "properties": {"ref": "1322506", "@spider": "boots_no", "addr:full": "Kostegata  1 3070 Sande i Vestfold", "addr:country": "NO", "name": "Boots apotek Sande", "phone": "\n\n                \n                ", "website": "https://apotek.boots.no/Boots+apotek+Sande/1322506", "brand": "Boots", "brand:wikidata": "Q6123139"}, "geometry": {"type": "Point", "coordinates": [10.206828612, 59.587071333]}},
{"type": "Feature", "id": "GXZj8Jfut42jGGns1vnPf34-th4=", "properties": {"ref": "1015174", "@spider": "boots_no", "addr:country": "NO", "name": "Boots apotek Revetal", "phone": "\n\n                \n                ", "website": "https://apotek.boots.no/Boots+apotek+Revetal/1015174", "brand": "Boots", "brand:wikidata": "Q6123139"}, "geometry": {"type": "Point", "coordinates": [10.264888298, 59.371923259]}},
{"type": "Feature", "id": "r1ltsLN2KNS6tsLTjuI9n9KOjPQ=", "properties": {"ref": "1342161", "@spider": "boots_no", "addr:full": "Gauter\u00f8dveien  6B 3154 Tolvsr\u00f8d", "addr:country": "NO", "name": "Boots apotek Olsr\u00f8d", "phone": "\n\n                \n                ", "website": "https://apotek.boots.no/Boots+apotek+Olsr%C3%B8d/1342161", "brand": "Boots", "brand:wikidata": "Q6123139"}, "geometry": {"type": "Point", "coordinates": [10.4517259, 59.2755474]}},
{"type": "Feature", "id": "IjLPZWFUb_O7QH8Ju9aqErRJzS8=", "properties": {"ref": "1956546", "@spider": "boots_no", "addr:full": "Cappelens gate  15 3722 Skien", "addr:country": "NO", "name": "Boots apotek Medicus Skien", "phone": "\n\n                \n                ", "website": "https://apotek.boots.no/Boots+apotek+Medicus+Skien/1956546", "brand": "Boots", "brand:wikidata": "Q6123139"}, "geometry": {"type": "Point", "coordinates": [9.6031631, 59.2099864]}},
{"type": "Feature", "id": "eJwO1QpHoB0MTI2Cg5yFTE90D18=", "properties": {"ref": "1234101", "@spider": "boots_no", "addr:full": "Nansetgata  8 3256 Larvik", "addr:country": "NO", "name": "Boots apotek Larvik", "phone": "\n\n                \n                ", "website": "https://apotek.boots.no/Boots+apotek+Larvik/1234101", "brand": "Boots", "brand:wikidata": "Q6123139"}, "geometry": {"type": "Point", "coordinates": [10.029422, 59.0540894]}},
{"type": "Feature", "id": "zVxO7IpviLSMHJZgErioTZCNhP4=", "properties": {"ref": "2094212", "@spider": "boots_no", "addr:full": "Trimveien  41 3188 Horten", "addr:country": "NO", "name": "Boots apotek Horten Handelspark", "phone": "\n\n                \n                ", "website": "https://apotek.boots.no/Boots+apotek+Horten+Handelspark/2094212", "brand": "Boots", "brand:wikidata": "Q6123139"}, "geometry": {"type": "Point", "coordinates": [10.461935, 59.401245]}},
{"type": "Feature", "id": "52dEX9fQ63taA9GvBXgPb0AhaSM=", "properties": {"ref": "1956540", "@spider": "boots_no", "addr:full": "Langgaten  35 3080 Holmestrand", "addr:country": "NO", "name": "Boots apotek Holmestrand", "phone": "\n\n                \n                ", "website": "https://apotek.boots.no/Boots+apotek+Holmestrand/1956540", "brand": "Boots", "brand:wikidata": "Q6123139"}, "geometry": {"type": "Point", "coordinates": [10.3188016, 59.4875842]}},
{"type": "Feature", "id": "zME7y4QNTs63yaV0oOSuT4BC2aY=", "properties": {"ref": "990435", "@spider": "boots_no", "addr:full": "Brotorvet senter, Gangveien 10 3960 Stathelle", "addr:country": "NO", "name": "Boots apotek Brotorvet", "phone": "\n\n                \n                ", "website": "https://apotek.boots.no/Boots+apotek+Brotorvet/990435", "brand": "Boots", "brand:wikidata": "Q6123139"}, "geometry": {"type": "Point", "coordinates": [9.6938645, 59.0458676]}},
{"type": "Feature", "id": "81qrtJBDKO5c7rHfEPqMHe2uBtg=", "properties": {"ref": "1956523", "@spider": "boots_no", "addr:full": "Nordgata 12 - 16 - MEGA 7650 Verdal", "addr:country": "NO", "name": "Boots apotek Verdal", "phone": "\n\n                \n                ", "website": "https://apotek.boots.no/Boots+apotek+Verdal/1956523", "brand": "Boots", "brand:wikidata": "Q6123139"}, "geometry": {"type": "Point", "coordinates": [11.481892624, 63.793475883]}},
{"type": "Feature", "id": "ruVL5BRkA9j94Nf_OZr7v9R79N8=", "properties": {"ref": "1329581", "@spider": "boots_no", "addr:full": "Anders Estenstads veg  18 7046 Trondheim", "addr:country": "NO", "name": "Boots apotek Valentinlyst", "phone": "\n\n                \n                ", "website": "https://apotek.boots.no/Boots+apotek+Valentinlyst/1329581", "brand": "Boots", "brand:wikidata": "Q6123139"}, "geometry": {"type": "Point", "coordinates": [10.4420121, 63.4249897]}},
{"type": "Feature", "id": "3gD9b44AytMHf0SuJADvEhoswGs=", "properties": {"ref": "1956531", "@spider": "boots_no", "addr:full": "Stokmovegen  2 7500 Stj\u00f8rdal", "addr:country": "NO", "name": "Boots apotek Torgkvartalet", "phone": "\n\n                \n                ", "website": "https://apotek.boots.no/Boots+apotek+Torgkvartalet/1956531", "brand": "Boots", "brand:wikidata": "Q6123139"}, "geometry": {"type": "Point", "coordinates": [10.9244935, 63.4690646]}},
{"type": "Feature", "id": "KUdg5OEyMBHjfOPv4mqjmuwHdoo=", "properties": {"ref": "2092380", "@spider": "boots_no", "addr:full": "Ivar Lykkes veg  1 7075 Tiller", "addr:country": "NO", "name": "Boots apotek Tiller", "phone": "\n\n                \n                ", "website": "https://apotek.boots.no/Boots+apotek+Tiller/2092380", "brand": "Boots", "brand:wikidata": "Q6123139"}, "geometry": {"type": "Point", "coordinates": [10.3749504, 63.3593604]}},
{"type": "Feature", "id": "O6SctYT5ooR2GGe2YjzOA7O7rKs=", "properties": {"ref": "893242", "@spider": "boots_no", "addr:full": "Kj\u00f8pmannsgata  28 7500 Stj\u00f8rdal", "addr:country": "NO", "name": "Boots apotek Stj\u00f8rdal", "phone": "\n\n                \n                ", "website": "https://apotek.boots.no/Boots+apotek+Stj%C3%B8rdal/893242", "brand": "Boots", "brand:wikidata": "Q6123139"}, "geometry": {"type": "Point", "coordinates": [10.9229544, 63.4679697]}},
{"type": "Feature", "id": "RbiyyZcmWuBFwTdcVaj0KPTw-PI=", "properties": {"ref": "815010", "@spider": "boots_no", "addr:full": "R\u00e5dhusvegen  14 7353 B\u00f8rsa", "addr:country": "NO", "name": "Boots apotek Skaun", "phone": "\n\n                \n                ", "website": "https://apotek.boots.no/Boots+apotek+Skaun/815010", "brand": "Boots", "brand:wikidata": "Q6123139"}, "geometry": {"type": "Point", "coordinates": [10.0673008, 63.3239864]}},
{"type": "Feature", "id": "boshdFIu7E43cITYfzHdJGrPMf4=", "properties": {"ref": "1235548", "@spider": "boots_no", "addr:full": "Nestansringen  10 7580 Selbu", "addr:country": "NO", "name": "Boots apotek Selbu", "phone": "\n\n                \n                ", "website": "https://apotek.boots.no/Boots+apotek+Selbu/1235548", "brand": "Boots", "brand:wikidata": "Q6123139"}, "geometry": {"type": "Point", "coordinates": [11.038973233, 63.218858676]}},
{"type": "Feature", "id": "qWs-zuXEmRFIXUsp1AsfH2mEIDQ=", "properties": {"ref": "1090992", "@spider": "boots_no", "addr:full": "Reier S\u00f8bstads veg  3 7078 Saupstad", "addr:country": "NO", "name": "Boots apotek Saupstad", "phone": "\n\n                \n                ", "website": "https://apotek.boots.no/Boots+apotek+Saupstad/1090992", "brand": "Boots", "brand:wikidata": "Q6123139"}, "geometry": {"type": "Point", "coordinates": [10.345159142, 63.366265179]}},
{"type": "Feature", "id": "1s97lMm6udQTh0SNScyZrNZ3u8A=", "properties": {"ref": "1326704", "@spider": "boots_no", "addr:full": "Ingeborg Aas' veg  2 7036 Trondheim", "addr:country": "NO", "name": "Boots apotek Risvollan", "phone": "\n\n                \n                ", "website": "https://apotek.boots.no/Boots+apotek+Risvollan/1326704", "brand": "Boots", "brand:wikidata": "Q6123139"}, "geometry": {"type": "Point", "coordinates": [10.4302292, 63.3912729]}},
{"type": "Feature", "id": "vnNp5xWpJ2WEt1llMLzD7CIE5T8=", "properties": {"ref": "1070075", "@spider": "boots_no", "addr:full": "Orkdalsveien  58 7300 Orkanger", "addr:country": "NO", "name": "Boots apotek Orkla", "phone": "\n\n                \n                ", "website": "https://apotek.boots.no/Boots+apotek+Orkla/1070075", "brand": "Boots", "brand:wikidata": "Q6123139"}, "geometry": {"type": "Point", "coordinates": [9.849503308, 63.305086298]}},
{"type": "Feature", "id": "1y26-fqIU370KTjJ-VZiizZajMQ=", "properties": {"ref": "1285677", "@spider": "boots_no", "addr:full": "Nordre gate  5 7011 Trondheim", "addr:country": "NO", "name": "Boots apotek Nordre", "phone": "\n\n                \n                ", "website": "https://apotek.boots.no/Boots+apotek+Nordre/1285677", "brand": "Boots", "brand:wikidata": "Q6123139"}, "geometry": {"type": "Point", "coordinates": [10.397913894, 63.43132499]}},
{"type": "Feature", "id": "MbppahEet4DWSA9Htun24uphydM=", "properties": {"ref": "1234078", "@spider": "boots_no", "addr:full": "Nardo senteret  Hans Baucks vei 1 7033 Trondheim", "addr:country": "NO", "name": "Boots apotek Nardo", "phone": "\n\n                \n                ", "website": "https://apotek.boots.no/Boots+apotek+Nardo/1234078", "brand": "Boots", "brand:wikidata": "Q6123139"}, "geometry": {"type": "Point", "coordinates": [10.4277779, 63.4030556]}},
{"type": "Feature", "id": "P52t6p6X_ClULjHTVw2xORVjgQU=", "properties": {"ref": "1554725", "@spider": "boots_no", "addr:full": "Svebergvegen  3 7550 Hommelvik", "addr:country": "NO", "name": "Boots apotek Malvik Senter", "phone": "\n\n                \n                ", "website": "https://apotek.boots.no/Boots+apotek+Malvik+Senter/1554725", "brand": "Boots", "brand:wikidata": "Q6123139"}, "geometry": {"type": "Point", "coordinates": [10.7540988, 63.4204669]}},
{"type": "Feature", "id": "kEa4Nc3HJWpRZd-gX2D6Mhwd2i0=", "properties": {"ref": "1554720", "@spider": "boots_no", "addr:full": "Magneten Kj\u00f8pesenter 7606 Levanger", "addr:country": "NO", "name": "Boots apotek Magneten", "phone": "\n\n                \n                ", "website": "https://apotek.boots.no/Boots+apotek+Magneten/1554720", "brand": "Boots", "brand:wikidata": "Q6123139"}, "geometry": {"type": "Point", "coordinates": [11.2817529, 63.7326637]}},
{"type": "Feature", "id": "9Zy2QgUYkutXe3N3lnzcD4-5EtI=", "properties": {"ref": "1956529", "@spider": "boots_no", "addr:full": "\u00d8stmarkveien  2 7040 Trondheim", "addr:country": "NO", "name": "Boots apotek LadeTorget", "phone": "\n\n                \n                ", "website": "https://apotek.boots.no/Boots+apotek+LadeTorget/1956529", "brand": "Boots", "brand:wikidata": "Q6123139"}, "geometry": {"type": "Point", "coordinates": [10.444798921, 63.447077958]}},
{"type": "Feature", "id": "zZdoFMMpxGB2UQC0qp2zI9j6JBY=", "properties": {"ref": "1324437", "@spider": "boots_no", "addr:full": "Nessjordet  3 7670 Inder\u00f8y", "addr:country": "NO", "name": "Boots apotek Inder\u00f8y", "phone": "\n\n                \n                ", "website": "https://apotek.boots.no/Boots+apotek+Inder%C3%B8y/1324437", "brand": "Boots", "brand:wikidata": "Q6123139"}, "geometry": {"type": "Point", "coordinates": [11.297105, 63.873532]}},
{"type": "Feature", "id": "khveV9EP3wCcKNP83sS4P0MFZzc=", "properties": {"ref": "483906", "@spider": "boots_no", "addr:full": "Ringv\u00e5lvegen  3-7 7080 Heimdal", "addr:country": "NO", "name": "Boots apotek Heimdal", "phone": "\n\n                \n                ", "website": "https://apotek.boots.no/Boots+apotek+Heimdal/483906", "brand": "Boots", "brand:wikidata": "Q6123139"}, "geometry": {"type": "Point", "coordinates": [10.3543905, 63.3516395]}},
{"type": "Feature", "id": "02mC1URjoDui_AJ_VrVuIOWkitc=", "properties": {"ref": "1189298", "@spider": "boots_no", "addr:full": "Verkstedveien  7 9406 Harstad", "addr:country": "NO", "name": "Boots apotek Sj\u00f8kanten", "phone": "\n\n                \n                ", "website": "https://apotek.boots.no/Boots+apotek+Sj%C3%B8kanten/1189298", "brand": "Boots", "brand:wikidata": "Q6123139"}, "geometry": {"type": "Point", "coordinates": [16.542786, 68.789981]}},
{"type": "Feature", "id": "GXCizcgR-qd0ehjG_5LgsUoRjDE=", "properties": {"ref": "1554726", "@spider": "boots_no", "addr:full": "Manetv  2 9100 Kval\u00f8ysletta", "addr:country": "NO", "name": "Boots apotek Kval\u00f8ysletta", "phone": "\n\n                \n                ", "website": "https://apotek.boots.no/Boots+apotek+Kval%C3%B8ysletta/1554726", "brand": "Boots", "brand:wikidata": "Q6123139"}, "geometry": {"type": "Point", "coordinates": [18.8634831, 69.6908169]}},
{"type": "Feature", "id": "EGa-8CxgUTqQQiGNLs5mE1ylS_8=", "properties": {"ref": "1956552", "@spider": "boots_no", "addr:full": "Heilovegen  19 9015 Troms\u00f8", "addr:country": "NO", "name": "Boots apotek Jekta", "phone": "\n\n                \n                ", "website": "https://apotek.boots.no/Boots+apotek+Jekta/1956552", "brand": "Boots", "brand:wikidata": "Q6123139"}, "geometry": {"type": "Point", "coordinates": [18.928445, 69.6744991]}},
{"type": "Feature", "id": "z4b09GwZSOIKB9yAxQDBO5CF1F4=", "properties": {"ref": "2013587", "@spider": "boots_no", "addr:full": "Altaveien  281 9515 Alta", "addr:country": "NO", "name": "Boots apotek Elvebakken, Alta", "phone": "\n\n                \n                ", "website": "https://apotek.boots.no/Boots+apotek+Elvebakken%2C+Alta/2013587", "brand": "Boots", "brand:wikidata": "Q6123139"}, "geometry": {"type": "Point", "coordinates": [23.3704666, 69.9728313]}},
{"type": "Feature", "id": "ky9p1Anx-CRAGCpqvYAuRMH2iQw=", "properties": {"ref": "1350746", "@spider": "boots_no", "addr:full": "Sorenskriverveien  13 9511 Alta", "addr:country": "NO", "name": "Boots apotek Alta", "phone": "\n\n                \n                ", "website": "https://apotek.boots.no/Boots+apotek+Alta/1350746", "brand": "Boots", "brand:wikidata": "Q6123139"}, "geometry": {"type": "Point", "coordinates": [23.2304507, 69.960723]}},
{"type": "Feature", "id": "CiYGqTvKpjfkhDK3h2bYLZuALqg=", "properties": {"ref": "1348855", "@spider": "boots_no", "addr:full": "Holbergsgaten 15 4306 Sandnes", "addr:country": "NO", "name": "Boots apotek Samarit", "phone": "\n\n                \n                ", "website": "https://apotek.boots.no/Boots+apotek+Samarit/1348855", "brand": "Boots", "brand:wikidata": "Q6123139"}, "geometry": {"type": "Point", "coordinates": [5.7396225, 58.8494084]}},
{"type": "Feature", "id": "DueasvoH0rVgxt34SfMqnx6bRP4=", "properties": {"ref": "2088919", "@spider": "boots_no", "addr:full": "Austrheimvegen  10 5516 Haugesund", "addr:country": "NO", "name": "Boots apotek Kvalasenteret (Haugesund)", "phone": "\n\n                \n                ", "website": "https://apotek.boots.no/Boots+apotek+Kvalasenteret+%28Haugesund%29/2088919", "brand": "Boots", "brand:wikidata": "Q6123139"}, "geometry": {"type": "Point", "coordinates": [5.2685853, 59.4377043]}},
{"type": "Feature", "id": "C9V6Zo2-y2SPx8c1hlJW9L2X7Xs=", "properties": {"ref": "1504255", "@spider": "boots_no", "addr:full": "Austre Karm\u00f8yveg 130 4250 Kopervik", "addr:country": "NO", "name": "Boots apotek Kopervik", "phone": "\n\n                \n                ", "website": "https://apotek.boots.no/Boots+apotek+Kopervik/1504255", "brand": "Boots", "brand:wikidata": "Q6123139"}, "geometry": {"type": "Point", "coordinates": [5.304155758, 59.280411945]}},
{"type": "Feature", "id": "5dQSKZST-svi2sayKMoIMKjisx4=", "properties": {"ref": "894053", "@spider": "boots_no", "addr:full": "Hundv\u00e5g senteret, Hundv\u00e5gveien 47 4085 Hundv\u00e5g", "addr:country": "NO", "name": "Boots apotek Hundv\u00e5g", "phone": "\n\n                \n                ", "website": "https://apotek.boots.no/Boots+apotek+Hundv%C3%A5g/894053", "brand": "Boots", "brand:wikidata": "Q6123139"}, "geometry": {"type": "Point", "coordinates": [5.7308694, 58.9937043]}},
{"type": "Feature", "id": "Adm8qnDGS0FLgzZr95PBBhVqbxI=", "properties": {"ref": "893301", "@spider": "boots_no", "addr:full": "Hillev\u00e5gsveien  24 4016 Stavanger", "addr:country": "NO", "name": "Boots apotek Hillev\u00e5g", "phone": "\n\n                \n                ", "website": "https://apotek.boots.no/Boots+apotek+Hillev%C3%A5g/893301", "brand": "Boots", "brand:wikidata": "Q6123139"}, "geometry": {"type": "Point", "coordinates": [5.743647752, 58.950198419]}},
{"type": "Feature", "id": "KJQFP0AjByih8koNcVyfNGB3MG4=", "properties": {"ref": "1329980", "@spider": "boots_no", "addr:full": "Oasen Storsenter Austb\u00f8vegen 16 5542 Karmsund", "addr:country": "NO", "name": "Boots apotek Havfruen", "phone": "\n\n                \n                ", "website": "https://apotek.boots.no/Boots+apotek+Havfruen/1329980", "brand": "Boots", "brand:wikidata": "Q6123139"}, "geometry": {"type": "Point", "coordinates": [5.3059794, 59.3778627]}},
{"type": "Feature", "id": "vgX_4GPgTIjRyxvCvdWzgEIAfZY=", "properties": {"ref": "1956543", "@spider": "boots_no", "addr:full": "Jupitervegen 2 4340 Bryne", "addr:country": "NO", "name": "Boots apotek Bryne", "phone": "\n\n                \n                ", "website": "https://apotek.boots.no/Boots+apotek+Bryne/1956543", "brand": "Boots", "brand:wikidata": "Q6123139"}, "geometry": {"type": "Point", "coordinates": [5.6401267, 58.7355955]}},
{"type": "Feature", "id": "53U0em36mcz3a3O0hrCCi5MACmE=", "properties": {"ref": "1965617", "@spider": "boots_no", "addr:full": "\u00c5rvollvn. 17-21 0590 Oslo", "addr:country": "NO", "name": "Boots Apotek \u00c5rvoll", "phone": "\n\n                \n                ", "website": "https://apotek.boots.no/Boots+Apotek+%C3%85rvoll/1965617", "brand": "Boots", "brand:wikidata": "Q6123139"}, "geometry": {"type": "Point", "coordinates": [10.8091271, 59.9449953]}},
{"type": "Feature", "id": "v_y9ZGfPNwutCppESnm44DfP1wM=", "properties": {"ref": "2094509", "@spider": "boots_no", "addr:full": "Rusel\u00f8kkveien  26 0251 Oslo", "addr:country": "NO", "name": "Boots Apotek Via Vika", "phone": "\n\n                \n                ", "website": "https://apotek.boots.no/Boots+Apotek+Via+Vika/2094509", "brand": "Boots", "brand:wikidata": "Q6123139"}, "geometry": {"type": "Point", "coordinates": [10.726543, 59.912445]}},
{"type": "Feature", "id": "aaDE65tt-jAilL5-ToY31ipgOsU=", "properties": {"ref": "1956525", "@spider": "boots_no", "addr:full": "Hagegata 28 0653 Oslo", "addr:country": "NO", "name": "Boots apotek T\u00f8yen ", "phone": "\n\n                \n                ", "website": "https://apotek.boots.no/Boots+apotek+T%C3%B8yen+/1956525", "brand": "Boots", "brand:wikidata": "Q6123139"}, "geometry": {"type": "Point", "coordinates": [10.775739, 59.914259]}},
{"type": "Feature", "id": "beiI3AW4ia2AWsNuegJfN1kvuuw=", "properties": {"ref": "1554722", "@spider": "boots_no", "addr:full": "Vitaminveien 7-9 0485 Oslo", "addr:country": "NO", "name": "Boots apotek Storo", "phone": "\n\n                \n                ", "website": "https://apotek.boots.no/Boots+apotek+Storo/1554722", "brand": "Boots", "brand:wikidata": "Q6123139"}, "geometry": {"type": "Point", "coordinates": [10.773812005, 59.947301696]}},
{"type": "Feature", "id": "MMOwzakxdXpfGzWuQGf3O64dk2c=", "properties": {"ref": "1338699", "@spider": "boots_no", "addr:full": "Henrik Ibsens gate 90 0255 Oslo", "addr:country": "NO", "name": "Boots apotek Solli", "phone": "\n\n                \n                ", "website": "https://apotek.boots.no/Boots+apotek+Solli/1338699", "brand": "Boots", "brand:wikidata": "Q6123139"}, "geometry": {"type": "Point", "coordinates": [10.7193284, 59.9146281]}},
{"type": "Feature", "id": "q94aC3OyWEhVBXfLyIt1AyWfI7Y=", "properties": {"ref": "1387843", "@spider": "boots_no", "addr:full": "Slemdal senter Stasjonsveien 2-4 0776 Oslo", "addr:country": "NO", "name": "Boots apotek Slemdal", "phone": "\n\n                \n                ", "website": "https://apotek.boots.no/Boots+apotek+Slemdal/1387843", "brand": "Boots", "brand:wikidata": "Q6123139"}, "geometry": {"type": "Point", "coordinates": [10.693443314, 59.950570125]}},
{"type": "Feature", "id": "tNyABY6__AC4LRXo7E9opEbO5Wo=", "properties": {"ref": "1322979", "@spider": "boots_no", "addr:full": "Karenslyst all\u00e9 9 0278 Oslo", "addr:country": "NO", "name": "Boots apotek Sk\u00f8yen", "phone": "\n\n                \n                ", "website": "https://apotek.boots.no/Boots+apotek+Sk%C3%B8yen/1322979", "brand": "Boots", "brand:wikidata": "Q6123139"}, "geometry": {"type": "Point", "coordinates": [10.683624606, 59.920520912]}},
{"type": "Feature", "id": "sj0ycRInfruDl7jxAlJI9jU5YlI=", "properties": {"ref": "1532444", "@spider": "boots_no", "addr:full": "Sentralhallen   Oslo S 0154 Oslo", "addr:country": "NO", "name": "Boots apotek Oslo S", "phone": "\n\n                \n                ", "website": "https://apotek.boots.no/Boots+apotek+Oslo+S/1532444", "brand": "Boots", "brand:wikidata": "Q6123139"}, "geometry": {"type": "Point", "coordinates": [10.750734702, 59.910871199]}},
{"type": "Feature", "id": "myNcPYQR4POSfmmSulWnv5dw1Eg=", "properties": {"ref": "115581", "@spider": "boots_no", "addr:full": "Haakon Tveters vei 88 0686 Oslo", "addr:country": "NO", "name": "Boots apotek Oppsal", "phone": "\n\n                \n                ", "website": "https://apotek.boots.no/Boots+apotek+Oppsal/115581", "brand": "Boots", "brand:wikidata": "Q6123139"}, "geometry": {"type": "Point", "coordinates": [10.8404855, 59.8936067]}},
{"type": "Feature", "id": "lH8nK9y4-TB4PkR-iCBjLPqEx4U=", "properties": {"ref": "1956551", "@spider": "boots_no", "addr:full": "Helga Vaneksvei 1 F 1281 Oslo", "addr:country": "NO", "name": "Boots apotek Mortensrud Torg", "phone": "\n\n                \n                ", "website": "https://apotek.boots.no/Boots+apotek+Mortensrud+Torg/1956551", "brand": "Boots", "brand:wikidata": "Q6123139"}, "geometry": {"type": "Point", "coordinates": [10.831349556, 59.849101135]}},
{"type": "Feature", "id": "J-D_E-Ed5QQIUcP6Bc3VZgXZHLE=", "properties": {"ref": "1329307", "@spider": "boots_no", "addr:full": "Linderud Senter 0594 Oslo", "addr:country": "NO", "name": "Boots apotek Linderud", "phone": "\n\n                \n                ", "website": "https://apotek.boots.no/Boots+apotek+Linderud/1329307", "brand": "Boots", "brand:wikidata": "Q6123139"}, "geometry": {"type": "Point", "coordinates": [10.83546039, 59.943241107]}},
{"type": "Feature", "id": "qpOPnA6clE_9aoBVXbS35wuM4IQ=", "properties": {"ref": "913114", "@spider": "boots_no", "addr:full": "Lambertseterveien  35 1150 Oslo", "addr:country": "NO", "name": "Boots apotek Lambertseter", "phone": "\n\n                \n                ", "website": "https://apotek.boots.no/Boots+apotek+Lambertseter/913114", "brand": "Boots", "brand:wikidata": "Q6123139"}, "geometry": {"type": "Point", "coordinates": [10.811371, 59.873444]}},
{"type": "Feature", "id": "Xy8sAQ9-Vcbsf5KmoASciBzJ1Fk=", "properties": {"ref": "1956530", "@spider": "boots_no", "addr:full": "Trondheimsv. 391 0953 Oslo", "addr:country": "NO", "name": "Boots apotek Kalbakken", "phone": "\n\n                \n                ", "website": "https://apotek.boots.no/Boots+apotek+Kalbakken/1956530", "brand": "Boots", "brand:wikidata": "Q6123139"}, "geometry": {"type": "Point", "coordinates": [10.8673707, 59.952356]}},
{"type": "Feature", "id": "4-QPk2HxliTVx2KNIo4dVHJ03_s=", "properties": {"ref": "1554721", "@spider": "boots_no", "addr:full": "Sofienberggt. 6 0551 Oslo", "addr:country": "NO", "name": "Boots apotek Gr\u00fcnerl\u00f8kka", "phone": "\n\n                \n                ", "website": "https://apotek.boots.no/Boots+apotek+Gr%C3%BCnerl%C3%B8kka/1554721", "brand": "Boots", "brand:wikidata": "Q6123139"}, "geometry": {"type": "Point", "coordinates": [10.757011, 59.922421]}},
{"type": "Feature", "id": "Y19d_W0TAsY7XoRrkegWRiZDhTY=", "properties": {"ref": "794960", "@spider": "boots_no", "addr:full": "Bergensveien 2 0963 Oslo", "addr:country": "NO", "name": "Boots apotek Grorud", "phone": "\n\n                \n                ", "website": "https://apotek.boots.no/Boots+apotek+Grorud/794960", "brand": "Boots", "brand:wikidata": "Q6123139"}, "geometry": {"type": "Point", "coordinates": [10.8819957, 59.9605751]}},
{"type": "Feature", "id": "okIsn0WloZh8aHsnnsMsmi9_LWI=", "properties": {"ref": "1956520", "@spider": "boots_no", "addr:full": "Utmarkv  1 0691 Oslo", "addr:country": "NO", "name": "Boots apotek B\u00f8ler", "phone": "\n\n                \n                ", "website": "https://apotek.boots.no/Boots+apotek+B%C3%B8ler/1956520", "brand": "Boots", "brand:wikidata": "Q6123139"}, "geometry": {"type": "Point", "coordinates": [10.8445311, 59.8831967]}},
{"type": "Feature", "id": "GS48-3tgxi73TmSg51iAKK1GEtI=", "properties": {"ref": "2007077", "@spider": "boots_no", "addr:full": "Bogstadveien 34 0366 Oslo", "addr:country": "NO", "name": "Boots apotek Bogstadveien", "phone": "\n\n                \n                ", "website": "https://apotek.boots.no/Boots+apotek+Bogstadveien/2007077", "brand": "Boots", "brand:wikidata": "Q6123139"}, "geometry": {"type": "Point", "coordinates": [10.7205054, 59.9266076]}},
{"type": "Feature", "id": "EtdxcRVdmhC5ObfIij9ilDYE46Y=", "properties": {"ref": "1956539", "@spider": "boots_no", "addr:full": "Theresesgt. 36 0168 Oslo", "addr:country": "NO", "name": "Boots apotek Bislett", "phone": "\n\n                \n                ", "website": "https://apotek.boots.no/Boots+apotek+Bislett/1956539", "brand": "Boots", "brand:wikidata": "Q6123139"}, "geometry": {"type": "Point", "coordinates": [10.7321953, 59.9277636]}},
{"type": "Feature", "id": "hROmzT5eqxRIZrngKX3qepuJRLc=", "properties": {"ref": "1495790", "@spider": "boots_no", "addr:full": "Skibsg\u00e5rden,Strandgt.12 8400 Sortland", "addr:country": "NO", "name": "Boots apotek Sortland", "phone": "\n\n                \n                ", "website": "https://apotek.boots.no/Boots+apotek+Sortland/1495790", "brand": "Boots", "brand:wikidata": "Q6123139"}, "geometry": {"type": "Point", "coordinates": [15.4051116, 68.6958845]}},
{"type": "Feature", "id": "zS0VMF0B0bnP0HzuyrqTGRZ7QfE=", "properties": {"ref": "1459212", "@spider": "boots_no", "addr:full": "Sj\u00f8gata 6 8006 Bod\u00f8", "addr:country": "NO", "name": "Boots apotek Sentrumsg\u00e5rden", "phone": "\n\n                \n                ", "website": "https://apotek.boots.no/Boots+apotek+Sentrumsg%C3%A5rden/1459212", "brand": "Boots", "brand:wikidata": "Q6123139"}, "geometry": {"type": "Point", "coordinates": [14.376929, 67.283804]}},
{"type": "Feature", "id": "peyWDlX7hjCRmuTd11avMnO-lqI=", "properties": {"ref": "1956550", "@spider": "boots_no", "addr:full": "Havnesenteret, Storgata 58 8900 Br\u00f8nn\u00f8ysund", "addr:country": "NO", "name": "Boots apotek Br\u00f8nn\u00f8ysund", "phone": "\n\n                \n                ", "website": "https://apotek.boots.no/Boots+apotek+Br%C3%B8nn%C3%B8ysund/1956550", "brand": "Boots", "brand:wikidata": "Q6123139"}, "geometry": {"type": "Point", "coordinates": [12.208283, 65.472826]}},
{"type": "Feature", "id": "sf-k_7szBUSUTSiBj9wfm1ZPjnQ=", "properties": {"ref": "939633", "@spider": "boots_no", "addr:full": "AMFI Surnadal \u00d8ravegen 4 6650 Surnadal", "addr:country": "NO", "name": "Boots apotek Surnadal", "phone": "\n\n                \n                ", "website": "https://apotek.boots.no/Boots+apotek+Surnadal/939633", "brand": "Boots", "brand:wikidata": "Q6123139"}, "geometry": {"type": "Point", "coordinates": [8.712879926, 62.97002458]}},
{"type": "Feature", "id": "u-Afj0W_0SqVyhVHaPEpG1cUqx8=", "properties": {"ref": "1014979", "@spider": "boots_no", "addr:full": "Storgata 23 6413 Molde", "addr:country": "NO", "name": "Boots apotek Molde", "phone": "\n\n                \n                ", "website": "https://apotek.boots.no/Boots+apotek+Molde/1014979", "brand": "Boots", "brand:wikidata": "Q6123139"}, "geometry": {"type": "Point", "coordinates": [7.1570897, 62.7369762]}},
{"type": "Feature", "id": "kmWcolWuA_15qFbfh88eAntlSco=", "properties": {"ref": "1554719", "@spider": "boots_no", "addr:full": "Langelandsveien 13 6010 \u00c5lesund", "addr:country": "NO", "name": "Boots apotek Moa", "phone": "\n\n                \n                ", "website": "https://apotek.boots.no/Boots+apotek+Moa/1554719", "brand": "Boots", "brand:wikidata": "Q6123139"}, "geometry": {"type": "Point", "coordinates": [6.347530104, 62.464747476]}},
{"type": "Feature", "id": "8N6sY4d6lA6aZK9ByExU94tusgg=", "properties": {"ref": "1956541", "@spider": "boots_no", "addr:full": "Strandgata 40 6270 Brattv\u00e5g", "addr:country": "NO", "name": "Boots apotek Haram", "phone": "\n\n                \n                ", "website": "https://apotek.boots.no/Boots+apotek+Haram/1956541", "brand": "Boots", "brand:wikidata": "Q6123139"}, "geometry": {"type": "Point", "coordinates": [6.4467049, 62.5975459]}},
{"type": "Feature", "id": "FOnHXMlvSJAao8Ur5_UAgVO0PT0=", "properties": {"ref": "1080654", "@spider": "boots_no", "addr:full": "Torget 10 6440 Elnesv\u00e5gen", "addr:country": "NO", "name": "Boots apotek Fr\u00e6na", "phone": "\n\n                \n                ", "website": "https://apotek.boots.no/Boots+apotek+Fr%C3%A6na/1080654", "brand": "Boots", "brand:wikidata": "Q6123139"}, "geometry": {"type": "Point", "coordinates": [7.162458, 62.854091]}},
{"type": "Feature", "id": "knDVhBE-paIgPlqFrRoRbO7r75c=", "properties": {"ref": "1332130", "@spider": "boots_no", "addr:full": "Hundervegen  17 2636 \u00d8yer", "addr:country": "NO", "name": "Boots apotek \u00d8yer", "phone": "\n\n                \n                ", "website": "https://apotek.boots.no/Boots+apotek+%C3%98yer/1332130", "brand": "Boots", "brand:wikidata": "Q6123139"}, "geometry": {"type": "Point", "coordinates": [10.438382, 61.2407315]}},
{"type": "Feature", "id": "CdLsTdnOXQ5CX7SVKYBAm4nCE_g=", "properties": {"ref": "1956513", "@spider": "boots_no", "addr:full": "V\u00e5lgutua  204 2436 V\u00e5ler i Sol\u00f8r", "addr:country": "NO", "name": "Boots apotek V\u00e5ler", "phone": "\n\n                \n                ", "website": "https://apotek.boots.no/Boots+apotek+V%C3%A5ler/1956513", "brand": "Boots", "brand:wikidata": "Q6123139"}, "geometry": {"type": "Point", "coordinates": [11.832319, 60.6743085]}},
{"type": "Feature", "id": "XmCcMtjmGOS8EKPJ4m0grEr0pBU=", "properties": {"ref": "1359066", "@spider": "boots_no", "addr:full": "Vikavegen  15A 2312 Ottestad", "addr:country": "NO", "name": "Boots apotek Vikasenteret", "phone": "\n\n                \n                ", "website": "https://apotek.boots.no/Boots+apotek+Vikasenteret/1359066", "brand": "Boots", "brand:wikidata": "Q6123139"}, "geometry": {"type": "Point", "coordinates": [11.108443021, 60.784036613]}},
{"type": "Feature", "id": "GqBVeM00MAFwEsQ3rc4Y6SqESmU=", "properties": {"ref": "880941", "@spider": "boots_no", "addr:full": "Brugata  20 2500 Tynset", "addr:country": "NO", "name": "Boots apotek Tynset", "phone": "\n\n                \n                ", "website": "https://apotek.boots.no/Boots+apotek+Tynset/880941", "brand": "Boots", "brand:wikidata": "Q6123139"}, "geometry": {"type": "Point", "coordinates": [10.7725224, 62.2788354]}},
{"type": "Feature", "id": "GCLifbty71PKnoI9Z7rrAia3HvE=", "properties": {"ref": "1233406", "@spider": "boots_no", "addr:full": "Stange Bruk Romedalvn. 4 2335 Stange", "addr:country": "NO", "name": "Boots apotek Stange Bruk", "phone": "\n\n                \n                ", "website": "https://apotek.boots.no/Boots+apotek+Stange+Bruk/1233406", "brand": "Boots", "brand:wikidata": "Q6123139"}, "geometry": {"type": "Point", "coordinates": [11.1952399, 60.7202716]}},
{"type": "Feature", "id": "FUaCbTj5z9qy8UcEWbY0ZlVE5WA=", "properties": {"ref": "1956526", "@spider": "boots_no", "addr:full": "Torget  5 2450 Rena", "addr:country": "NO", "name": "Boots apotek Rena", "phone": "\n\n                \n                ", "website": "https://apotek.boots.no/Boots+apotek+Rena/1956526", "brand": "Boots", "brand:wikidata": "Q6123139"}, "geometry": {"type": "Point", "coordinates": [11.372972, 61.1327027]}}]}