{"type":"FeatureCollection","features":[{"type": "Feature", "id": "PBzawgAjmMK9KXhbQ7i8MXx2eG8=", "properties": {"ref": "0233", "@spider": "bootbarn", "clothes": "western", "shop": "clothes", "addr:full": "5456 Highway 90 W", "addr:city": "Mobile,", "addr:state": "Alabama", "addr:postcode": "36619", "name": "Slidell", "phone": "(251) 662-2293", "website": "https://www.bootbarn.com/stores?StoreID=0233", "opening_hours": "Mo-Sa 09:00-09:00,09:00-09:00; Su 12:00-06:00,12:00-06:00", "brand": "Boot Barn", "brand:wikidata": "Q109825187", "nsi_id": "bootbarn-0a21d9"}, "geometry": {"type": "Point", "coordinates": [-88.170527, 30.585872]}},
{"type": "Feature", "id": "g9TYd5DnBnQH17SVvcYvx8aBgGQ=", "properties": {"ref": "0018", "@spider": "bootbarn", "clothes": "western", "shop": "clothes", "addr:full": "3462 Katella Ave", "addr:city": "Los Alamitos,", "addr:state": "California", "addr:postcode": "90720", "name": "Orange", "phone": "(562) 430-7752", "website": "https://www.bootbarn.com/stores?StoreID=0018", "opening_hours": "Mo-Fr 10:00-08:00,10:00-08:00; Sa 10:00-06:00,10:00-06:00; Su 11:00-06:00,11:00-06:00", "brand": "Boot Barn", "brand:wikidata": "Q109825187", "nsi_id": "bootbarn-0a21d9"}, "geometry": {"type": "Point", "coordinates": [-118.073336, 33.802377]}},
{"type": "Feature", "id": "XYoLwoi8-WOCgwiNgEJA8kC3H90=", "properties": {"ref": "0317", "@spider": "bootbarn", "clothes": "western", "shop": "clothes", "addr:full": "721 N H St", "addr:city": "Lompoc,", "addr:state": "California", "addr:postcode": "93436", "name": "Santa Maria", "phone": "(805) 291-8181", "website": "https://www.bootbarn.com/stores?StoreID=0317", "opening_hours": "Mo-Sa 10:00-08:00,10:00-08:00; Su 10:00-06:00,10:00-06:00", "brand": "Boot Barn", "brand:wikidata": "Q109825187", "nsi_id": "bootbarn-0a21d9"}, "geometry": {"type": "Point", "coordinates": [-120.45844, 34.64848]}},
{"type": "Feature", "id": "ETmAuSgC3Yusuebw4sCv-bBpDns=", "properties": {"ref": "0219", "@spider": "bootbarn", "clothes": "western", "shop": "clothes", "addr:full": "2770 Reynolds Ranch Pkwy", "addr:city": "Lodi,", "addr:state": "California", "addr:postcode": "95240", "name": "Stockton", "phone": "(209) 294-4103", "website": "https://www.bootbarn.com/stores?StoreID=0219", "opening_hours": "Mo-Fr 10:00-08:00,10:00-08:00; Sa 10:00-07:00,10:00-07:00; Su 11:00-06:00,11:00-06:00", "brand": "Boot Barn", "brand:wikidata": "Q109825187", "nsi_id": "bootbarn-0a21d9"}, "geometry": {"type": "Point", "coordinates": [-121.261614, 38.098872]}},
{"type": "Feature", "id": "THAU8zPfuQufZMEdgDy2fEm8kYs=", "properties": {"ref": "0270", "@spider": "bootbarn", "clothes": "western", "shop": "clothes", "addr:full": "4454 Las Positas Drive", "addr:city": "Livermore,", "addr:state": "California", "addr:postcode": "94551", "name": "Tracy", "phone": "(925) 495-2311", "website": "https://www.bootbarn.com/stores?StoreID=0270", "opening_hours": "Mo-Fr 10:00-08:00,10:00-08:00; Sa-Su 10:00-06:00,10:00-06:00", "brand": "Boot Barn", "brand:wikidata": "Q109825187", "nsi_id": "bootbarn-0a21d9"}, "geometry": {"type": "Point", "coordinates": [-121.744078, 37.700961]}},
{"type": "Feature", "id": "tmw3TRA_vO0c3f-N_C7UhT7AxvA=", "properties": {"ref": "0015", "@spider": "bootbarn", "clothes": "western", "shop": "clothes", "addr:full": "43517 13th St W", "addr:city": "Lancaster,", "addr:state": "California", "addr:postcode": "93534", "name": "Canyon Country", "phone": "(661) 726-5420", "website": "https://www.bootbarn.com/stores?StoreID=0015", "opening_hours": "Mo-Fr 10:00-08:00,10:00-08:00; Sa 10:00-06:00,10:00-06:00; Su 11:00-06:00,11:00-06:00", "brand": "Boot Barn", "brand:wikidata": "Q109825187", "nsi_id": "bootbarn-0a21d9"}, "geometry": {"type": "Point", "coordinates": [-118.154737, 34.673108]}},
{"type": "Feature", "id": "M2e9gAV004Cv77dTTFRCgRKwEp4=", "properties": {"ref": "0008", "@spider": "bootbarn", "clothes": "western", "shop": "clothes", "addr:full": "23762 Mercury Rd", "addr:city": "Lake Forest,", "addr:state": "California", "addr:postcode": "92630", "name": "Orange", "phone": "(949) 455-0211", "website": "https://www.bootbarn.com/stores?StoreID=0008", "opening_hours": "Mo-Fr 10:00-08:00,10:00-08:00; Sa 10:00-07:00,10:00-07:00; Su 10:00-06:00,10:00-06:00", "brand": "Boot Barn", "brand:wikidata": "Q109825187", "nsi_id": "bootbarn-0a21d9"}, "geometry": {"type": "Point", "coordinates": [-117.715758, 33.623981]}},
{"type": "Feature", "id": "TxjQz9PpzQo-6miewWRRU4GfRQQ=", "properties": {"ref": "0012", "@spider": "bootbarn", "clothes": "western", "shop": "clothes", "addr:full": "4411 Mercury St", "addr:city": "San Diego,", "addr:state": "California", "addr:postcode": "92111", "name": "El Cajon", "phone": "(858) 571-5741", "website": "https://www.bootbarn.com/stores?StoreID=0012", "opening_hours": "Mo-Fr 10:00-08:00,10:00-08:00; Sa 10:00-07:00,10:00-07:00; Su 10:00-06:00,10:00-06:00", "brand": "Boot Barn", "brand:wikidata": "Q109825187", "nsi_id": "bootbarn-0a21d9"}, "geometry": {"type": "Point", "coordinates": [-117.14826, 32.820867]}},
{"type": "Feature", "id": "rVy6SHtxIWA4nlOPBtPifoaY2EE=", "properties": {"ref": "0333", "@spider": "bootbarn", "clothes": "western", "shop": "clothes", "addr:full": "1220 E Park Street", "addr:city": "Hollister,", "addr:state": "California", "addr:postcode": "95023", "name": "Salinas", "phone": "(831) 245-4288", "website": "https://www.bootbarn.com/stores?StoreID=0333", "opening_hours": "Mo-Th 10:00-08:00,10:00-08:00; Fr-Sa 10:00-07:00,10:00-07:00; Su 10:00-06:00,10:00-06:00", "brand": "Boot Barn", "brand:wikidata": "Q109825187", "nsi_id": "bootbarn-0a21d9"}, "geometry": {"type": "Point", "coordinates": [-121.39134, 36.843525]}},
{"type": "Feature", "id": "CnzOQGgBtTODeA4Edcbqix3TQlY=", "properties": {"ref": "0259", "@spider": "bootbarn", "clothes": "western", "shop": "clothes", "addr:full": "1673 W Lacey Blvd", "addr:city": "Hanford,", "addr:state": "California", "addr:postcode": "93230", "name": "Selma", "phone": "(559) 796-0690", "website": "https://www.bootbarn.com/stores?StoreID=0259", "opening_hours": "Mo-Fr 09:00-08:00,09:00-08:00; Sa 09:00-06:00,09:00-06:00; Su 10:00-06:00,10:00-06:00", "brand": "Boot Barn", "brand:wikidata": "Q109825187", "nsi_id": "bootbarn-0a21d9"}, "geometry": {"type": "Point", "coordinates": [-119.67124, 36.32534]}},
{"type": "Feature", "id": "Ci9bbnQQzM_k8KuU28-wsnOUuWc=", "properties": {"ref": "0185", "@spider": "bootbarn", "clothes": "western", "shop": "clothes", "addr:full": "3324 W Shaw Ave", "addr:city": "Fresno,", "addr:state": "California", "addr:postcode": "93711", "name": "Clovis", "phone": "(559) 276-0107", "website": "https://www.bootbarn.com/stores?StoreID=0185", "opening_hours": "Mo-Fr 09:00-08:00,09:00-08:00; Sa 09:00-07:00,09:00-07:00; Su 10:00-06:00,10:00-06:00", "brand": "Boot Barn", "brand:wikidata": "Q109825187", "nsi_id": "bootbarn-0a21d9"}, "geometry": {"type": "Point", "coordinates": [-119.851581, 36.809805]}},
{"type": "Feature", "id": "S5PODnW5ip1Q48E0SyJU-lxS9ho=", "properties": {"ref": "0032", "@spider": "bootbarn", "clothes": "western", "shop": "clothes", "addr:full": "4670 Central Way", "addr:city": "Fairfield,", "addr:state": "California", "addr:postcode": "94534", "name": "Brentwood", "phone": "(707) 863-8155", "website": "https://www.bootbarn.com/stores?StoreID=0032", "opening_hours": "Mo-Sa 09:00-08:00,09:00-08:00; Su 10:00-06:00,10:00-06:00", "brand": "Boot Barn", "brand:wikidata": "Q109825187", "nsi_id": "bootbarn-0a21d9"}, "geometry": {"type": "Point", "coordinates": [-122.132396, 38.219695]}},
{"type": "Feature", "id": "umq_tJbpQ5PdPYBcDPlSWGaPY8s=", "properties": {"ref": "0041", "@spider": "bootbarn", "clothes": "western", "shop": "clothes", "addr:full": "3300 Broadway", "addr:city": "Eureka,", "addr:state": "California", "addr:postcode": "95501", "name": "Anderson", "phone": "(707) 444-0949", "website": "https://www.bootbarn.com/stores?StoreID=0041", "opening_hours": "Mo-Sa 09:00-08:00,09:00-08:00; Su 11:00-06:00,11:00-06:00", "brand": "Boot Barn", "brand:wikidata": "Q109825187", "nsi_id": "bootbarn-0a21d9"}, "geometry": {"type": "Point", "coordinates": [-124.189493, 40.78035]}},
{"type": "Feature", "id": "5eVIjhqDhmR4aKNe09u-obIEgtY=", "properties": {"ref": "0244", "@spider": "bootbarn", "clothes": "western", "shop": "clothes", "addr:full": "1106 W Valley Pkwy", "addr:city": "Escondido,", "addr:state": "California", "addr:postcode": "92025", "name": "Oceanside", "phone": "(760) 781-1124", "website": "https://www.bootbarn.com/stores?StoreID=0244", "opening_hours": "Mo-Fr 10:00-08:00,10:00-08:00; Sa 10:00-07:00,10:00-07:00; Su 10:00-06:00,10:00-06:00", "brand": "Boot Barn", "brand:wikidata": "Q109825187", "nsi_id": "bootbarn-0a21d9"}, "geometry": {"type": "Point", "coordinates": [-117.097825, 33.117386]}},
{"type": "Feature", "id": "6mju9MDDVJgAyDkkK-upbp82dl0=", "properties": {"ref": "0038", "@spider": "bootbarn", "clothes": "western", "shop": "clothes", "addr:full": "10299 E Stockton Blvd", "addr:city": "Elk Grove,", "addr:state": "California", "addr:postcode": "95624", "name": "Rancho Cordova", "phone": "(916) 714-1144", "website": "https://www.bootbarn.com/stores?StoreID=0038", "opening_hours": "Mo-Fr 09:00-08:00,09:00-08:00; Sa-Su 10:00-06:00,10:00-06:00", "brand": "Boot Barn", "brand:wikidata": "Q109825187", "nsi_id": "bootbarn-0a21d9"}, "geometry": {"type": "Point", "coordinates": [-121.367875, 38.383788]}},
{"type": "Feature", "id": "3THH9mqQmDQtBJXj5_BYjyUGc4s=", "properties": {"ref": "0325", "@spider": "bootbarn", "clothes": "western", "shop": "clothes", "addr:full": "1730 N Imperial Ave", "addr:city": "El Centro,", "addr:state": "California", "addr:postcode": "92243", "name": "Yuma", "phone": "(760) 675-1221", "website": "https://www.bootbarn.com/stores?StoreID=0325", "opening_hours": "Mo-Fr 10:00-08:00,10:00-08:00; Sa 10:00-07:00,10:00-07:00; Su 10:00-06:00,10:00-06:00", "brand": "Boot Barn", "brand:wikidata": "Q109825187", "nsi_id": "bootbarn-0a21d9"}, "geometry": {"type": "Point", "coordinates": [-115.57157673379896, 32.80854494880505]}},
{"type": "Feature", "id": "dXAfFQC51lgFwgLTlezC01kun2M=", "properties": {"ref": "0074", "@spider": "bootbarn", "clothes": "western", "shop": "clothes", "addr:full": "1683 Sunset Dr", "addr:city": "Rock Springs,", "addr:state": "Wyoming", "addr:postcode": "82901", "name": "Vernal", "phone": "(307) 382-9155", "website": "https://www.bootbarn.com/stores?StoreID=0074", "opening_hours": "Mo-Sa 09:00-08:00,09:00-08:00; Su 11:00-06:00,11:00-06:00", "brand": "Boot Barn", "brand:wikidata": "Q109825187", "nsi_id": "bootbarn-0a21d9"}, "geometry": {"type": "Point", "coordinates": [-109.255287, 41.576811]}},
{"type": "Feature", "id": "3y1630vFVXsxa7qsjDmEnLWJHrY=", "properties": {"ref": "0078", "@spider": "bootbarn", "clothes": "western", "shop": "clothes", "addr:full": "727 N Federal Blvd", "addr:city": "Riverton,", "addr:state": "Wyoming", "addr:postcode": "82501", "name": "Casper", "phone": "(307) 856-6156", "website": "https://www.bootbarn.com/stores?StoreID=0078", "opening_hours": "Mo-Sa 09:00-08:00,09:00-08:00; Su 11:00-06:00,11:00-06:00", "brand": "Boot Barn", "brand:wikidata": "Q109825187", "nsi_id": "bootbarn-0a21d9"}, "geometry": {"type": "Point", "coordinates": [-108.379805, 43.031318]}},
{"type": "Feature", "id": "FayPBNu7sP6978MbTSQrRfUDNkg=", "properties": {"ref": "0080", "@spider": "bootbarn", "clothes": "western", "shop": "clothes", "addr:full": "840 W Broadway Ave", "addr:city": "Jackson,", "addr:state": "Wyoming", "addr:postcode": "83001", "name": "Ammon", "phone": "(307) 733-0247", "website": "https://www.bootbarn.com/stores?StoreID=0080", "opening_hours": "Mo-Sa 10:00-07:00,10:00-07:00; Su 12:00-05:00,12:00-05:00", "brand": "Boot Barn", "brand:wikidata": "Q109825187", "nsi_id": "bootbarn-0a21d9"}, "geometry": {"type": "Point", "coordinates": [-110.78064, 43.473577]}},
{"type": "Feature", "id": "jI3lvuoBQZM8W0CDzx7BYZGYib8=", "properties": {"ref": "0077", "@spider": "bootbarn", "clothes": "western", "shop": "clothes", "addr:full": "2610 S Douglas Hwy", "addr:city": "Gillette,", "addr:state": "Wyoming", "addr:postcode": "82718", "name": "Casper", "phone": "(307) 682-6200", "website": "https://www.bootbarn.com/stores?StoreID=0077", "opening_hours": "Mo-Sa 09:00-08:00,09:00-08:00; Su 11:00-06:00,11:00-06:00", "brand": "Boot Barn", "brand:wikidata": "Q109825187", "nsi_id": "bootbarn-0a21d9"}, "geometry": {"type": "Point", "coordinates": [-105.496336, 44.270605]}},
{"type": "Feature", "id": "kuWuoQSXaWenWmWzqsLOekJ_zr8=", "properties": {"ref": "0079", "@spider": "bootbarn", "clothes": "western", "shop": "clothes", "addr:full": "1850 Harrison Dr", "addr:city": "Evanston,", "addr:state": "Wyoming", "addr:postcode": "82930", "name": "Riverdale", "phone": "(307) 789-4778", "website": "https://www.bootbarn.com/stores?StoreID=0079", "opening_hours": "Mo-Sa 09:00-08:00,09:00-08:00; Su 11:00-06:00,11:00-06:00", "brand": "Boot Barn", "brand:wikidata": "Q109825187", "nsi_id": "bootbarn-0a21d9"}, "geometry": {"type": "Point", "coordinates": [-110.97603, 41.264277]}},
{"type": "Feature", "id": "N6bXKtb0-SSnBdZYFusw6zLt0Vs=", "properties": {"ref": "0073", "@spider": "bootbarn", "clothes": "western", "shop": "clothes", "addr:full": "1625 Stampede Ave", "addr:city": "Cody,", "addr:state": "Wyoming", "addr:postcode": "82414", "name": "Billings", "phone": "(307) 587-4493", "website": "https://www.bootbarn.com/stores?StoreID=0073", "opening_hours": "Mo-Sa 10:00-07:00,10:00-07:00; Su 11:00-06:00,11:00-06:00", "brand": "Boot Barn", "brand:wikidata": "Q109825187", "nsi_id": "bootbarn-0a21d9"}, "geometry": {"type": "Point", "coordinates": [-109.0553, 44.519179]}},
{"type": "Feature", "id": "WiKAlTz_6LoleHtN0HQxVGskpaI=", "properties": {"ref": "0069", "@spider": "bootbarn", "clothes": "western", "shop": "clothes", "addr:full": "1518 Capitol Ave", "addr:city": "Cheyenne,", "addr:state": "Wyoming", "addr:postcode": "82001", "name": "Cheyenne - Frontier Mall Dr", "phone": "(307) 634-3048", "website": "https://www.bootbarn.com/stores?StoreID=0069", "opening_hours": "Mo-Sa 10:00-07:00,10:00-07:00; Su 11:00-07:00,11:00-07:00", "brand": "Boot Barn", "brand:wikidata": "Q109825187", "nsi_id": "bootbarn-0a21d9"}, "geometry": {"type": "Point", "coordinates": [-104.81539, 41.132548]}},
{"type": "Feature", "id": "G1Mn5xtk_BfLzC21DKduM7o9hb0=", "properties": {"ref": "0070", "@spider": "bootbarn", "clothes": "western", "shop": "clothes", "addr:full": "4519 Frontier Mall Dr", "addr:city": "Cheyenne,", "addr:state": "Wyoming", "addr:postcode": "82009", "name": "Cheyenne - The Wrangler", "phone": "(307) 635-5810", "website": "https://www.bootbarn.com/stores?StoreID=0070", "opening_hours": "Mo-Sa 09:00-08:00,09:00-08:00; Su 11:00-06:00,11:00-06:00", "brand": "Boot Barn", "brand:wikidata": "Q109825187", "nsi_id": "bootbarn-0a21d9"}, "geometry": {"type": "Point", "coordinates": [-104.800654, 41.159956]}},
{"type": "Feature", "id": "Z64AqXU6SVxPBSaJhWo-Xzz0exA=", "properties": {"ref": "0076", "@spider": "bootbarn", "clothes": "western", "shop": "clothes", "addr:full": "3510 E 2nd St", "addr:city": "Casper,", "addr:state": "Wyoming", "addr:postcode": "82609", "name": "Gillette", "phone": "(307) 235-6020", "website": "https://www.bootbarn.com/stores?StoreID=0076", "opening_hours": "Mo-Sa 09:00-08:00,09:00-08:00; Su 11:00-06:00,11:00-06:00", "brand": "Boot Barn", "brand:wikidata": "Q109825187", "nsi_id": "bootbarn-0a21d9"}, "geometry": {"type": "Point", "coordinates": [-106.2801, 42.84909]}},
{"type": "Feature", "id": "oGyXRoj-ZqiUBme9OrXo4E9EmCs=", "properties": {"ref": "0341", "@spider": "bootbarn", "clothes": "western", "shop": "clothes", "addr:full": "1235 Crossing Meadows Drive", "addr:city": "Onalaska,", "addr:state": "Wisconsin", "addr:postcode": "54650", "name": "Eau Claire", "phone": "(608) 399-2217", "website": "https://www.bootbarn.com/stores?StoreID=0341", "opening_hours": "Mo-Sa 09:00-09:00,09:00-09:00; Su 11:00-06:00,11:00-06:00", "brand": "Boot Barn", "brand:wikidata": "Q109825187", "nsi_id": "bootbarn-0a21d9"}, "geometry": {"type": "Point", "coordinates": [-91.211044, 43.870888]}},
{"type": "Feature", "id": "VUPStghAVIYU-0YWeRt5MxoEZ1Y=", "properties": {"ref": "0120", "@spider": "bootbarn", "clothes": "western", "shop": "clothes", "addr:full": "4057 Commonwealth Ave", "addr:city": "Eau Claire,", "addr:state": "Wisconsin", "addr:postcode": "54701", "name": "Onalaska, WI", "phone": "(715) 831-0253", "website": "https://www.bootbarn.com/stores?StoreID=0120", "opening_hours": "Mo-Sa 09:00-09:00,09:00-09:00; Su 11:00-06:00,11:00-06:00", "brand": "Boot Barn", "brand:wikidata": "Q109825187", "nsi_id": "bootbarn-0a21d9"}, "geometry": {"type": "Point", "coordinates": [-91.434978, 44.77572]}},
{"type": "Feature", "id": "DWN07Z1zQYrQO-QuKvJc9Ob4SF0=", "properties": {"ref": "0369", "@spider": "bootbarn", "clothes": "western", "shop": "clothes", "addr:full": "629 N Westhill Blvd", "addr:city": "Appleton,", "addr:state": "Wisconsin", "addr:postcode": "54914", "name": "Gurnee", "phone": "(920) 404-2088", "website": "https://www.bootbarn.com/stores?StoreID=0369", "opening_hours": "Mo-Sa 09:00-09:00,09:00-09:00; Su 11:00-06:00,11:00-06:00", "brand": "Boot Barn", "brand:wikidata": "Q109825187", "nsi_id": "bootbarn-0a21d9"}, "geometry": {"type": "Point", "coordinates": [-88.46194, 44.26917]}},
{"type": "Feature", "id": "QaUkWkVConFd0BH0eVoQBzbBnSI=", "properties": {"ref": "0376", "@spider": "bootbarn", "clothes": "western", "shop": "clothes", "addr:full": "400 Grand Central Mall", "addr:city": "Vienna,", "addr:state": "West Virginia", "addr:postcode": "26105", "name": "Uniontown", "phone": "(304) 699-2099", "website": "https://www.bootbarn.com/stores?StoreID=0376", "opening_hours": "Mo-Sa 09:00-09:00,09:00-09:00; Su 11:00-07:00,11:00-07:00", "brand": "Boot Barn", "brand:wikidata": "Q109825187", "nsi_id": "bootbarn-0a21d9"}, "geometry": {"type": "Point", "coordinates": [-81.55269801488085, 39.3024890141458]}},
{"type": "Feature", "id": "88kkg9-KcaUpmL5owq_JKefL-Yc=", "properties": {"ref": "0234", "@spider": "bootbarn", "clothes": "western", "shop": "clothes", "addr:full": "1837 S 1st St", "addr:city": "Yakima,", "addr:state": "Washington", "addr:postcode": "98903", "name": "Fife", "phone": "(509) 452-2049", "website": "https://www.bootbarn.com/stores?StoreID=0234", "opening_hours": "Mo-Sa 09:00-08:00,09:00-08:00; Su 11:00-06:00,11:00-06:00", "brand": "Boot Barn", "brand:wikidata": "Q109825187", "nsi_id": "bootbarn-0a21d9"}, "geometry": {"type": "Point", "coordinates": [-120.49015, 46.57565]}},
{"type": "Feature", "id": "u6i5xEv3vxgEgQ8XLu3EJIL-ikE=", "properties": {"ref": "0230", "@spider": "bootbarn", "clothes": "western", "shop": "clothes", "addr:full": "5605 E Sprague Ave", "addr:city": "Spokane Valley,", "addr:state": "Washington", "addr:postcode": "99212", "name": "Kalispell", "phone": "(509) 535-3154", "website": "https://www.bootbarn.com/stores?StoreID=0230", "opening_hours": "Mo-Sa 09:00-08:00,09:00-08:00; Su 11:00-06:00,11:00-06:00", "brand": "Boot Barn", "brand:wikidata": "Q109825187", "nsi_id": "bootbarn-0a21d9"}, "geometry": {"type": "Point", "coordinates": [-117.329696, 47.65838]}},
{"type": "Feature", "id": "w6WtoJAYxZQT44eAmFeEdlQdRYE=", "properties": {"ref": "0258", "@spider": "bootbarn", "clothes": "western", "shop": "clothes", "addr:full": "1214 Marvin Road NE", "addr:city": "Lacey,", "addr:state": "Washington", "addr:postcode": "98516", "name": "Fife", "phone": "(360) 968-7620", "website": "https://www.bootbarn.com/stores?StoreID=0258", "opening_hours": "Mo-Sa 09:00-08:00,09:00-08:00; Su 11:00-06:00,11:00-06:00", "brand": "Boot Barn", "brand:wikidata": "Q109825187", "nsi_id": "bootbarn-0a21d9"}, "geometry": {"type": "Point", "coordinates": [-122.76327, 47.05812]}},
{"type": "Feature", "id": "NhQljp6jRiQ-IKwxZbIRc9vWd6E=", "properties": {"ref": "0267", "@spider": "bootbarn", "clothes": "western", "shop": "clothes", "addr:full": "5108 Pacific Highway East", "addr:city": "Fife,", "addr:state": "Washington", "addr:postcode": "98424", "name": "Lacey", "phone": "(253) 393-9029", "website": "https://www.bootbarn.com/stores?StoreID=0267", "opening_hours": "Mo-Sa 09:00-08:00,09:00-08:00; Su 11:00-06:00,11:00-06:00", "brand": "Boot Barn", "brand:wikidata": "Q109825187", "nsi_id": "bootbarn-0a21d9"}, "geometry": {"type": "Point", "coordinates": [-122.36019, 47.24221]}},
{"type": "Feature", "id": "i50CAq69rTi-UIBAfjhrSPnBnt8=", "properties": {"ref": "0266", "@spider": "bootbarn", "clothes": "western", "shop": "clothes", "addr:full": "664 Phoenix Drive", "addr:city": "Virginia Beach,", "addr:state": "Virginia", "addr:postcode": "23452", "name": "Newport News", "phone": "(757) 909-0725", "website": "https://www.bootbarn.com/stores?StoreID=0266", "opening_hours": "Mo-Sa 09:00-09:00,09:00-09:00; Su 11:00-07:00,11:00-07:00", "brand": "Boot Barn", "brand:wikidata": "Q109825187", "nsi_id": "bootbarn-0a21d9"}, "geometry": {"type": "Point", "coordinates": [-76.067751, 36.82402]}},
{"type": "Feature", "id": "XWtcsLY8p8Sztu65O_kToz5oEFg=", "properties": {"ref": "0279", "@spider": "bootbarn", "clothes": "western", "shop": "clothes", "addr:full": "4873 Valley View Blvd", "addr:city": "Roanoke,", "addr:state": "Virginia", "addr:postcode": "24012", "name": "Greensboro", "phone": "(540) 981-5003", "website": "https://www.bootbarn.com/stores?StoreID=0279", "opening_hours": "Mo-Sa 10:00-09:00,10:00-09:00; Su 11:00-07:00,11:00-07:00", "brand": "Boot Barn", "brand:wikidata": "Q109825187", "nsi_id": "bootbarn-0a21d9"}, "geometry": {"type": "Point", "coordinates": [-79.968269, 37.305888]}},
{"type": "Feature", "id": "n75JtC8naWIYrxmmqDMJXG-wCA0=", "properties": {"ref": "0397", "@spider": "bootbarn", "clothes": "western", "shop": "clothes", "addr:full": "315 Chatham Drive", "addr:city": "Newport News,", "addr:state": "Virginia", "addr:postcode": "23602", "name": "Virginia Beach", "phone": "(757) 527-8899", "website": "https://www.bootbarn.com/stores?StoreID=0397", "opening_hours": "Mo-Sa 09:00-09:00,09:00-09:00; Su 10:00-07:00,10:00-07:00", "brand": "Boot Barn", "brand:wikidata": "Q109825187", "nsi_id": "bootbarn-0a21d9"}, "geometry": {"type": "Point", "coordinates": [-76.51025, 37.121395]}},
{"type": "Feature", "id": "2eqfUZSS4SSH5H20ZImdI4bI3x0=", "properties": {"ref": "0260", "@spider": "bootbarn", "clothes": "western", "shop": "clothes", "addr:full": "2604 Conduit Road", "addr:city": "Colonial Heights,", "addr:state": "Virginia", "addr:postcode": "23834", "name": "Ashland", "phone": "(804) 373-9029", "website": "https://www.bootbarn.com/stores?StoreID=0260", "opening_hours": "Mo-Sa 09:00-08:00,09:00-08:00; Su 11:00-07:00,11:00-07:00", "brand": "Boot Barn", "brand:wikidata": "Q109825187", "nsi_id": "bootbarn-0a21d9"}, "geometry": {"type": "Point", "coordinates": [-77.39657, 37.257908]}},
{"type": "Feature", "id": "FCWw3bTKsJ8S6pTyhHJv-regUeI=", "properties": {"ref": "0281", "@spider": "bootbarn", "clothes": "western", "shop": "clothes", "addr:full": "11700 Lakeridge Parkway", "addr:city": "Ashland,", "addr:state": "Virginia", "addr:postcode": "23005", "name": "Colonial Heights", "phone": "(804) 406-5055", "website": "https://www.bootbarn.com/stores?StoreID=0281", "opening_hours": "Mo-Sa 09:00-08:00,09:00-08:00; Su 11:00-07:00,11:00-07:00", "brand": "Boot Barn", "brand:wikidata": "Q109825187", "nsi_id": "bootbarn-0a21d9"}, "geometry": {"type": "Point", "coordinates": [-77.457825, 37.72963]}},
{"type": "Feature", "id": "ntBC4cmdkysx0YDf9_6INL8_4Vc=", "properties": {"ref": "0194", "@spider": "bootbarn", "clothes": "western", "shop": "clothes", "addr:full": "1991 W Highway 40", "addr:city": "Vernal,", "addr:state": "Utah", "addr:postcode": "84078", "name": "Rock Springs", "phone": "(435) 789-6106", "website": "https://www.bootbarn.com/stores?StoreID=0194", "opening_hours": "Mo-Sa 09:00-08:00,09:00-08:00; Su 11:00-06:00,11:00-06:00", "brand": "Boot Barn", "brand:wikidata": "Q109825187", "nsi_id": "bootbarn-0a21d9"}, "geometry": {"type": "Point", "coordinates": [-109.564804, 40.436867]}},
{"type": "Feature", "id": "u80rWJkKjSqVwegkb0fap0AfMds=", "properties": {"ref": "0093", "@spider": "bootbarn", "clothes": "western", "shop": "clothes", "addr:full": "5320 Freeway Park Dr", "addr:city": "Riverdale,", "addr:state": "Utah", "addr:postcode": "84405", "name": "Evanston", "phone": "(801) 776-1903", "website": "https://www.bootbarn.com/stores?StoreID=0093", "opening_hours": "Mo-Sa 09:00-08:00,09:00-08:00; Su 11:00-06:00,11:00-06:00", "brand": "Boot Barn", "brand:wikidata": "Q109825187", "nsi_id": "bootbarn-0a21d9"}, "geometry": {"type": "Point", "coordinates": [-112.020582, 41.165505]}},
{"type": "Feature", "id": "dCXRSnNQ4slMftk-ZFNHFK63XGU=", "properties": {"ref": "0176", "@spider": "bootbarn", "clothes": "western", "shop": "clothes", "addr:full": "3111 Midwestern Pkwy", "addr:city": "Wichita Falls,", "addr:state": "Texas", "addr:postcode": "76308", "name": "Lawton", "phone": "(940) 692-0257", "website": "https://www.bootbarn.com/stores?StoreID=0176", "opening_hours": "Mo-Sa 10:00-08:00,10:00-08:00; Su 12:00-06:00,12:00-06:00", "brand": "Boot Barn", "brand:wikidata": "Q109825187", "nsi_id": "bootbarn-0a21d9"}, "geometry": {"type": "Point", "coordinates": [-98.532551, 33.869511]}},
{"type": "Feature", "id": "8TN_EdigIXPPF4CQ2ZRUimhnhII=", "properties": {"ref": "0242", "@spider": "bootbarn", "clothes": "western", "shop": "clothes", "addr:full": "2962 NW Loop 338 State Rte W", "addr:city": "Odessa,", "addr:state": "Texas", "addr:postcode": "79764", "name": "Odessa", "phone": "(432) 332-5551", "website": "https://www.bootbarn.com/stores?StoreID=0242", "opening_hours": "Mo-Sa 09:00-08:00,09:00-08:00; Su 11:00-06:00,11:00-06:00", "brand": "Boot Barn", "brand:wikidata": "Q109825187", "nsi_id": "bootbarn-0a21d9"}, "geometry": {"type": "Point", "coordinates": [-102.415997, 31.865844]}},
{"type": "Feature", "id": "1iuPcLO7-MqWjFGN-xkm3pYgM1U=", "properties": {"ref": "0319", "@spider": "bootbarn", "clothes": "western", "shop": "clothes", "addr:full": "138 East Interstate 20", "addr:city": "Weatherford,", "addr:state": "Texas", "addr:postcode": "76087", "name": "Granbury", "phone": "(682) 332-1001", "website": "https://www.bootbarn.com/stores?StoreID=0319", "opening_hours": "Mo-Sa 09:00-09:00,09:00-09:00; Su 11:00-07:00,11:00-07:00", "brand": "Boot Barn", "brand:wikidata": "Q109825187", "nsi_id": "bootbarn-0a21d9"}, "geometry": {"type": "Point", "coordinates": [-97.78475, 32.727917]}},
{"type": "Feature", "id": "UElXjWxi5fj7gPi0n0Mf2r0TLWo=", "properties": {"ref": "0251", "@spider": "bootbarn", "clothes": "western", "shop": "clothes", "addr:full": "1568 N Highway 77", "addr:city": "Waxahachie,", "addr:state": "Texas", "addr:postcode": "75165", "name": "Mansfield", "phone": "(972) 937-5552", "website": "https://www.bootbarn.com/stores?StoreID=0251", "opening_hours": "Mo-Sa 09:00-09:00,09:00-09:00; Su 11:00-07:00,11:00-07:00", "brand": "Boot Barn", "brand:wikidata": "Q109825187", "nsi_id": "bootbarn-0a21d9"}, "geometry": {"type": "Point", "coordinates": [-96.838594, 32.426544]}},
{"type": "Feature", "id": "VzI_UxtE0NK3fEO2W1R9QTWEC8s=", "properties": {"ref": "0171", "@spider": "bootbarn", "clothes": "western", "shop": "clothes", "addr:full": "240 N New Rd", "addr:city": "Waco,", "addr:state": "Texas", "addr:postcode": "76710", "name": "Temple", "phone": "(254) 751-0029", "website": "https://www.bootbarn.com/stores?StoreID=0171", "opening_hours": "Mo-Sa 10:00-09:00,10:00-09:00; Su 12:00-06:00,12:00-06:00", "brand": "Boot Barn", "brand:wikidata": "Q109825187", "nsi_id": "bootbarn-0a21d9"}, "geometry": {"type": "Point", "coordinates": [-97.17234, 31.523688]}},
{"type": "Feature", "id": "rlrrPZVCCE3z3ijVP1VvETDFwMg=", "properties": {"ref": "0241", "@spider": "bootbarn", "clothes": "western", "shop": "clothes", "addr:full": "4803 Andrews Hwy", "addr:city": "Midland,", "addr:state": "Texas", "addr:postcode": "79703", "name": "S Midland TX", "phone": "(432) 689-4774", "website": "https://www.bootbarn.com/stores?StoreID=0241", "opening_hours": "Mo-Sa 09:00-08:00,09:00-08:00; Su 11:00-06:00,11:00-06:00", "brand": "Boot Barn", "brand:wikidata": "Q109825187", "nsi_id": "bootbarn-0a21d9"}, "geometry": {"type": "Point", "coordinates": [-102.145983, 31.999272]}},
{"type": "Feature", "id": "ZfsBo1X0L1YUrSQrcaE60_u3AXE=", "properties": {"ref": "0156", "@spider": "bootbarn", "clothes": "western", "shop": "clothes", "addr:full": "4530 S Broadway Ave", "addr:city": "Tyler,", "addr:state": "Texas", "addr:postcode": "75703", "name": "Henderson", "phone": "(903) 534-0093", "website": "https://www.bootbarn.com/stores?StoreID=0156", "opening_hours": "Mo-Sa 09:00-09:00,09:00-09:00; Su 12:00-06:00,12:00-06:00", "brand": "Boot Barn", "brand:wikidata": "Q109825187", "nsi_id": "bootbarn-0a21d9"}, "geometry": {"type": "Point", "coordinates": [-95.299056, 32.300909]}},
{"type": "Feature", "id": "_HIwCbbLS3w37HftL1fy7NA1QFw=", "properties": {"ref": "0170", "@spider": "bootbarn", "clothes": "western", "shop": "clothes", "addr:full": "28593 State Highway 249", "addr:city": "Tomball,", "addr:state": "Texas", "addr:postcode": "77375", "name": "Cypress", "phone": "(281) 516-0039", "website": "https://www.bootbarn.com/stores?StoreID=0170", "opening_hours": "Mo-Sa 09:00-09:00,09:00-09:00; Su 12:00-06:00,12:00-06:00", "brand": "Boot Barn", "brand:wikidata": "Q109825187", "nsi_id": "bootbarn-0a21d9"}, "geometry": {"type": "Point", "coordinates": [-95.634622, 30.088318]}},
{"type": "Feature", "id": "4JE7Cp7sg8HqVvj6geDbbwqH_sA=", "properties": {"ref": "0172", "@spider": "bootbarn", "clothes": "western", "shop": "clothes", "addr:full": "4123 Gibson Ln", "addr:city": "Texarkana,", "addr:state": "Texas", "addr:postcode": "75503", "name": "Marshall", "phone": "(430) 200-2769", "website": "https://www.bootbarn.com/stores?StoreID=0172", "opening_hours": "Mo-Sa 09:00-08:00,09:00-08:00; Su 12:00-06:00,12:00-06:00", "brand": "Boot Barn", "brand:wikidata": "Q109825187", "nsi_id": "bootbarn-0a21d9"}, "geometry": {"type": "Point", "coordinates": [-94.094835, 33.457928]}},
{"type": "Feature", "id": "ivVf8326GSi2WnGo6-ceDMQ-hHM=", "properties": {"ref": "0271", "@spider": "bootbarn", "clothes": "western", "shop": "clothes", "addr:full": "3550 South General Bruce Drive", "addr:city": "Temple,", "addr:state": "Texas", "addr:postcode": "76504", "name": "Waco", "phone": "(254) 791-8048", "website": "https://www.bootbarn.com/stores?StoreID=0271", "opening_hours": "Mo-Sa 10:00-09:00,10:00-09:00; Su 12:00-06:00,12:00-06:00", "brand": "Boot Barn", "brand:wikidata": "Q109825187", "nsi_id": "bootbarn-0a21d9"}, "geometry": {"type": "Point", "coordinates": [-97.38545, 31.09368]}},
{"type": "Feature", "id": "Y5ZdO1fBQ2LdBghUb-m26X6YyDw=", "properties": {"ref": "0347", "@spider": "bootbarn", "clothes": "western", "shop": "clothes", "addr:full": "2900 W Washington St", "addr:city": "Stephenville,", "addr:state": "Texas", "addr:postcode": "76401", "name": "Granbury", "phone": "(254) 693-2711", "website": "https://www.bootbarn.com/stores?StoreID=0347", "opening_hours": "Mo-Sa 09:00-09:00,09:00-09:00; Su 11:00-07:00,11:00-07:00", "brand": "Boot Barn", "brand:wikidata": "Q109825187", "nsi_id": "bootbarn-0a21d9"}, "geometry": {"type": "Point", "coordinates": [-98.2442, 32.200745]}},
{"type": "Feature", "id": "l067fzRbBA8de_4OyhLDGf0bahU=", "properties": {"ref": "0211", "@spider": "bootbarn", "clothes": "western", "shop": "clothes", "addr:full": "19380 Interstate 45", "addr:city": "Spring,", "addr:state": "Texas", "addr:postcode": "77373", "name": "Humble", "phone": "(281) 288-0103", "website": "https://www.bootbarn.com/stores?StoreID=0211", "opening_hours": "Mo-Sa 09:00-09:00,09:00-09:00; Su 12:00-06:00,12:00-06:00", "brand": "Boot Barn", "brand:wikidata": "Q109825187", "nsi_id": "bootbarn-0a21d9"}, "geometry": {"type": "Point", "coordinates": [-95.428931, 30.048838]}},
{"type": "Feature", "id": "NbFQmVwPkEQ53MYfJT9AVdwLUJE=", "properties": {"ref": "0168", "@spider": "bootbarn", "clothes": "western", "shop": "clothes", "addr:full": "3201 N US Highway 75", "addr:city": "Sherman,", "addr:state": "Texas", "addr:postcode": "75090", "name": "Durant", "phone": "(903) 892-4100", "website": "https://www.bootbarn.com/stores?StoreID=0168", "opening_hours": "Mo-Sa 09:00-09:00,09:00-09:00; Su 12:00-06:00,12:00-06:00", "brand": "Boot Barn", "brand:wikidata": "Q109825187", "nsi_id": "bootbarn-0a21d9"}, "geometry": {"type": "Point", "coordinates": [-96.607445, 33.671639]}},
{"type": "Feature", "id": "LGQ6Awp-7MqxowMNQhBKf6gzzL0=", "properties": {"ref": "0380", "@spider": "bootbarn", "clothes": "western", "shop": "clothes", "addr:full": "1050 McKinley Place Dr", "addr:city": "San Marcos,", "addr:state": "Texas", "addr:postcode": "78666", "name": "Austin - Southpark", "phone": "(737) 266-4099", "website": "https://www.bootbarn.com/stores?StoreID=0380", "opening_hours": "Mo-Sa 09:00-09:00,09:00-09:00; Su 11:00-06:00,11:00-06:00", "brand": "Boot Barn", "brand:wikidata": "Q109825187", "nsi_id": "bootbarn-0a21d9"}, "geometry": {"type": "Point", "coordinates": [-97.95297470456889, 29.853175547416395]}},
{"type": "Feature", "id": "lBE27npB5vIJ7wLKuXcJtCHsTJw=", "properties": {"ref": "0147", "@spider": "bootbarn", "clothes": "western", "shop": "clothes", "addr:full": "17815 La Cantera Pkwy", "addr:city": "San Antonio,", "addr:state": "Texas", "addr:postcode": "78257", "name": "San Antonio", "phone": "(210) 641-0006", "website": "https://www.bootbarn.com/stores?StoreID=0147", "opening_hours": "Mo-Sa 10:00-09:00,10:00-09:00; Su 12:00-06:00,12:00-06:00", "brand": "Boot Barn", "brand:wikidata": "Q109825187", "nsi_id": "bootbarn-0a21d9"}, "geometry": {"type": "Point", "coordinates": [-98.596775, 29.610155]}},
{"type": "Feature", "id": "D2BnuPTFuKIbzAuZ0kQQ9F0bFas=", "properties": {"ref": "0309", "@spider": "bootbarn", "clothes": "western", "shop": "clothes", "addr:full": "6201 NW Loop 410", "addr:city": "San Antonio,", "addr:state": "Texas", "addr:postcode": "78238", "name": "San Antonio - Dove Creek", "phone": "(210) 681-8230", "website": "https://www.bootbarn.com/stores?StoreID=0309", "opening_hours": "Mo-Sa 09:00-09:00,09:00-09:00; Su 11:00-06:00,11:00-06:00", "brand": "Boot Barn", "brand:wikidata": "Q109825187", "nsi_id": "bootbarn-0a21d9"}, "geometry": {"type": "Point", "coordinates": [-98.617232, 29.47082]}},
{"type": "Feature", "id": "-RPGAHeKNIOdaewTBQsu4nnVW8s=", "properties": {"ref": "0329", "@spider": "bootbarn", "clothes": "western", "shop": "clothes", "addr:full": "120 Empresario Drive", "addr:city": "San Antonio,", "addr:state": "Texas", "addr:postcode": "78245", "name": "San Antonio - Ingram Mall", "phone": "(726) 201-9191", "website": "https://www.bootbarn.com/stores?StoreID=0329", "opening_hours": "Mo-Sa 09:00-09:00,09:00-09:00; Su 11:00-06:00,11:00-06:00", "brand": "Boot Barn", "brand:wikidata": "Q109825187", "nsi_id": "bootbarn-0a21d9"}, "geometry": {"type": "Point", "coordinates": [-98.713234, 29.42669]}},
{"type": "Feature", "id": "oWg8Dcea-9Y83XcGTNPEgYXfesw=", "properties": {"ref": "0357", "@spider": "bootbarn", "clothes": "western", "shop": "clothes", "addr:full": "3127 SE Military Dr", "addr:city": "San Antonio,", "addr:state": "Texas", "addr:postcode": "78223", "name": "San Antonio - Ingram Mall", "phone": "(210) 338-8907", "website": "https://www.bootbarn.com/stores?StoreID=0357", "opening_hours": "Mo-Sa 09:00-09:00,09:00-09:00; Su 11:00-06:00,11:00-06:00", "brand": "Boot Barn", "brand:wikidata": "Q109825187", "nsi_id": "bootbarn-0a21d9"}, "geometry": {"type": "Point", "coordinates": [-98.440381, 29.35375]}},
{"type": "Feature", "id": "vKFH5ZvX4fETRMXfs6zPL0y5v6A=", "properties": {"ref": "0381", "@spider": "bootbarn", "clothes": "western", "shop": "clothes", "addr:full": "13415 San Pedro Ave", "addr:city": "San Antonio,", "addr:state": "Texas", "addr:postcode": "78216", "name": "San Antonio - The Rim", "phone": "(726) 600-2992", "website": "https://www.bootbarn.com/stores?StoreID=0381", "opening_hours": "Mo-Sa 09:00-09:00,09:00-09:00; Su 11:00-06:00,11:00-06:00", "brand": "Boot Barn", "brand:wikidata": "Q109825187", "nsi_id": "bootbarn-0a21d9"}, "geometry": {"type": "Point", "coordinates": [-98.48381, 29.564522]}},
{"type": "Feature", "id": "caOOCxkNIH9kUtjxan0tC-7Aa9Q=", "properties": {"ref": "0240", "@spider": "bootbarn", "clothes": "western", "shop": "clothes", "addr:full": "812 W Interstate 20", "addr:city": "Midland,", "addr:state": "Texas", "addr:postcode": "79701", "name": "W Midland TX", "phone": "(432) 684-9337", "website": "https://www.bootbarn.com/stores?StoreID=0240", "opening_hours": "Mo-Sa 09:00-08:00,09:00-08:00; Su 11:00-06:00,11:00-06:00", "brand": "Boot Barn", "brand:wikidata": "Q109825187", "nsi_id": "bootbarn-0a21d9"}, "geometry": {"type": "Point", "coordinates": [-102.07556, 31.973347]}},
{"type": "Feature", "id": "vVOoZHsXBKIvD-5bJmllLPvRNUc=", "properties": {"ref": "0399", "@spider": "bootbarn", "clothes": "western", "shop": "clothes", "addr:full": "120 Sundance Parkway", "addr:city": "Round Rock,", "addr:state": "Texas", "addr:postcode": "78681", "name": "Georgetown, TX", "phone": "(737) 309-4114", "website": "https://www.bootbarn.com/stores?StoreID=0399", "opening_hours": "Mo-Sa 09:00-09:00,09:00-09:00; Su 11:00-06:00,11:00-06:00", "brand": "Boot Barn", "brand:wikidata": "Q109825187", "nsi_id": "bootbarn-0a21d9"}, "geometry": {"type": "Point", "coordinates": [-97.6788, 30.485252]}},
{"type": "Feature", "id": "HboztAf7fJe25k04_VtylpIRNdY=", "properties": {"ref": "0167", "@spider": "bootbarn", "clothes": "western", "shop": "clothes", "addr:full": "28000 Southwest Fwy", "addr:city": "Rosenberg,", "addr:state": "Texas", "addr:postcode": "77471", "name": "Katy", "phone": "(281) 232-9119", "website": "https://www.bootbarn.com/stores?StoreID=0167", "opening_hours": "Mo-Sa 09:00-09:00,09:00-09:00; Su 12:00-06:00,12:00-06:00", "brand": "Boot Barn", "brand:wikidata": "Q109825187", "nsi_id": "bootbarn-0a21d9"}, "geometry": {"type": "Point", "coordinates": [-95.80641, 29.534376]}},
{"type": "Feature", "id": "3Y-8y29UB0c726nt7Z-2V8lP8NY=", "properties": {"ref": "0184", "@spider": "bootbarn", "clothes": "western", "shop": "clothes", "addr:full": "7745 Memorial Blvd", "addr:city": "Port Arthur,", "addr:state": "Texas", "addr:postcode": "77640", "name": "Beaumont", "phone": "(409) 724-0025", "website": "https://www.bootbarn.com/stores?StoreID=0184", "opening_hours": "Mo-Sa 09:00-09:00,09:00-09:00; Su 11:00-07:00,11:00-07:00", "brand": "Boot Barn", "brand:wikidata": "Q109825187", "nsi_id": "bootbarn-0a21d9"}, "geometry": {"type": "Point", "coordinates": [-93.985088, 29.936917]}},
{"type": "Feature", "id": "pbl2BWk3bcRWaUFO_Ycr1Mo3P2M=", "properties": {"ref": "0298", "@spider": "bootbarn", "clothes": "western", "shop": "clothes", "addr:full": "10412 Broadway St.", "addr:city": "Pearland,", "addr:state": "Texas", "addr:postcode": "77584", "name": "Houston", "phone": "(346) 342-4141", "website": "https://www.bootbarn.com/stores?StoreID=0298", "opening_hours": "Mo-Sa 09:00-09:00,09:00-09:00; Su 11:00-07:00,11:00-07:00", "brand": "Boot Barn", "brand:wikidata": "Q109825187", "nsi_id": "bootbarn-0a21d9"}, "geometry": {"type": "Point", "coordinates": [-95.38182, 29.55442]}},
{"type": "Feature", "id": "S9m3EEgH4QNifCVfqW5KDZ1Q0S8=", "properties": {"ref": "0360", "@spider": "bootbarn", "clothes": "western", "shop": "clothes", "addr:full": "5125 E 42nd St", "addr:city": "Odessa,", "addr:state": "Texas", "addr:postcode": "79762", "name": "West Odessa", "phone": "(432) 257-3706", "website": "https://www.bootbarn.com/stores?StoreID=0360", "opening_hours": "Mo-Sa 09:00-09:00,09:00-09:00; Su 11:00-07:00,11:00-07:00", "brand": "Boot Barn", "brand:wikidata": "Q109825187", "nsi_id": "bootbarn-0a21d9"}, "geometry": {"type": "Point", "coordinates": [-102.329597, 31.895239]}},
{"type": "Feature", "id": "Yoz64xVEIibGry0JA4qLmlOFync=", "properties": {"ref": "0155", "@spider": "bootbarn", "clothes": "western", "shop": "clothes", "addr:full": "3801 North St", "addr:city": "Nacogdoches,", "addr:state": "Texas", "addr:postcode": "75965", "name": "Lufkin", "phone": "(936) 560-2246", "website": "https://www.bootbarn.com/stores?StoreID=0155", "opening_hours": "Mo-Sa 09:00-08:00,09:00-08:00; Su 12:00-06:00,12:00-06:00", "brand": "Boot Barn", "brand:wikidata": "Q109825187", "nsi_id": "bootbarn-0a21d9"}, "geometry": {"type": "Point", "coordinates": [-94.65458, 31.638384]}},
{"type": "Feature", "id": "SSTAAV8_8jm5OdbfRk0wXrMKbX4=", "properties": {"ref": "0311", "@spider": "bootbarn", "clothes": "western", "shop": "clothes", "addr:full": "18500 Lyndon B Johnson Fwy", "addr:city": "Mesquite,", "addr:state": "Texas", "addr:postcode": "75150", "name": "Dallas - Preston", "phone": "(972) 270-8811", "website": "https://www.bootbarn.com/stores?StoreID=0311", "opening_hours": "Mo-Sa 09:00-09:00,09:00-09:00; Su 11:00-07:00,11:00-07:00", "brand": "Boot Barn", "brand:wikidata": "Q109825187", "nsi_id": "bootbarn-0a21d9"}, "geometry": {"type": "Point", "coordinates": [-96.625648, 32.804847]}},
{"type": "Feature", "id": "FttyEKqcM2uPWd4fDbY1qSQwL-Y=", "properties": {"ref": "0366", "@spider": "bootbarn", "clothes": "western", "shop": "clothes", "addr:full": "3190 S Central Expy", "addr:city": "McKinney,", "addr:state": "Texas", "addr:postcode": "75070", "name": "Frisco", "phone": "(469) 793-6030", "website": "https://www.bootbarn.com/stores?StoreID=0366", "opening_hours": "Mo-Sa 09:00-09:00,09:00-09:00; Su 11:00-07:00,11:00-07:00", "brand": "Boot Barn", "brand:wikidata": "Q109825187", "nsi_id": "bootbarn-0a21d9"}, "geometry": {"type": "Point", "coordinates": [-96.64297, 33.17005]}},
{"type": "Feature", "id": "Fs1CRqj6eWhP94XvuNlv9WOSMIg=", "properties": {"ref": "0355", "@spider": "bootbarn", "clothes": "western", "shop": "clothes", "addr:full": "507 W Expressway 83", "addr:city": "McAllen,", "addr:state": "Texas", "addr:postcode": "78503", "name": "Brownsville", "phone": "(956) 467-1995", "website": "https://www.bootbarn.com/stores?StoreID=0355", "opening_hours": "Mo-Sa 09:00-09:00,09:00-09:00; Su 12:00-06:00,12:00-06:00", "brand": "Boot Barn", "brand:wikidata": "Q109825187", "nsi_id": "bootbarn-0a21d9"}, "geometry": {"type": "Point", "coordinates": [-98.227883, 26.187408]}},
{"type": "Feature", "id": "JfGLXYYXSvet_kmYxiPMTrP8C-k=", "properties": {"ref": "0159", "@spider": "bootbarn", "clothes": "western", "shop": "clothes", "addr:full": "1300 E Pinecrest Dr", "addr:city": "Marshall,", "addr:state": "Texas", "addr:postcode": "75670", "name": "Longview", "phone": "(903) 927-1535", "website": "https://www.bootbarn.com/stores?StoreID=0159", "opening_hours": "Mo-Sa 09:00-08:00,09:00-08:00; Su 12:00-05:00,12:00-05:00", "brand": "Boot Barn", "brand:wikidata": "Q109825187", "nsi_id": "bootbarn-0a21d9"}, "geometry": {"type": "Point", "coordinates": [-94.35438, 32.52562]}},
{"type": "Feature", "id": "9xVVDgwT0gMIVkdwi0XSN-Ypovk=", "properties": {"ref": "0326", "@spider": "bootbarn", "clothes": "western", "shop": "clothes", "addr:full": "120 W Debbie Lane", "addr:city": "Mansfield,", "addr:state": "Texas", "addr:postcode": "76063", "name": "Burleson", "phone": "(682) 341-9595", "website": "https://www.bootbarn.com/stores?StoreID=0326", "opening_hours": "Mo-Sa 09:00-09:00,09:00-09:00; Su 12:00-07:00,12:00-07:00", "brand": "Boot Barn", "brand:wikidata": "Q109825187", "nsi_id": "bootbarn-0a21d9"}, "geometry": {"type": "Point", "coordinates": [-97.14599, 32.591293]}},
{"type": "Feature", "id": "OizWdjsgAqftSEXQJuxoYeM-ipY=", "properties": {"ref": "0152", "@spider": "bootbarn", "clothes": "western", "shop": "clothes", "addr:full": "4600 S Medford Dr", "addr:city": "Lufkin,", "addr:state": "Texas", "addr:postcode": "75901", "name": "Nacogdoches", "phone": "(936) 632-3700", "website": "https://www.bootbarn.com/stores?StoreID=0152", "opening_hours": "Mo-Sa 09:00-09:00,09:00-09:00; Su 12:00-06:00,12:00-06:00", "brand": "Boot Barn", "brand:wikidata": "Q109825187", "nsi_id": "bootbarn-0a21d9"}, "geometry": {"type": "Point", "coordinates": [-94.724534, 31.312364]}},
{"type": "Feature", "id": "UjD9PVAsI6u1BdCw86L6KpfbV4o=", "properties": {"ref": "0359", "@spider": "bootbarn", "clothes": "western", "shop": "clothes", "addr:full": "6002 Slide Rd", "addr:city": "Lubbock,", "addr:state": "Texas", "addr:postcode": "79414", "name": "Big Spring", "phone": "(806) 500-2825", "website": "https://www.bootbarn.com/stores?StoreID=0359", "opening_hours": "Mo-Sa 10:00-09:00,10:00-09:00; Su 11:00-06:00,11:00-06:00", "brand": "Boot Barn", "brand:wikidata": "Q109825187", "nsi_id": "bootbarn-0a21d9"}, "geometry": {"type": "Point", "coordinates": [-101.924701, 33.540261]}},
{"type": "Feature", "id": "2WYElMYfIJuDDNnxSk5yijjeAC8=", "properties": {"ref": "0166", "@spider": "bootbarn", "clothes": "western", "shop": "clothes", "addr:full": "2419 Gilmer Rd", "addr:city": "Longview,", "addr:state": "Texas", "addr:postcode": "75604", "name": "Marshall", "phone": "(903) 297-5900", "website": "https://www.bootbarn.com/stores?StoreID=0166", "opening_hours": "Mo-Sa 09:00-08:00,09:00-08:00; Su 12:00-06:00,12:00-06:00", "brand": "Boot Barn", "brand:wikidata": "Q109825187", "nsi_id": "bootbarn-0a21d9"}, "geometry": {"type": "Point", "coordinates": [-94.790053, 32.532566]}},
{"type": "Feature", "id": "xfzpH13xmlKSA9uZHp5d6oFP4FI=", "properties": {"ref": "0154", "@spider": "bootbarn", "clothes": "western", "shop": "clothes", "addr:full": "620 Pan American Dr", "addr:city": "Livingston,", "addr:state": "Texas", "addr:postcode": "77351", "name": "Huntsville", "phone": "(936) 327-2405", "website": "https://www.bootbarn.com/stores?StoreID=0154", "opening_hours": "Mo-Sa 09:00-08:00,09:00-08:00; Su 12:00-05:00,12:00-05:00", "brand": "Boot Barn", "brand:wikidata": "Q109825187", "nsi_id": "bootbarn-0a21d9"}, "geometry": {"type": "Point", "coordinates": [-94.949108, 30.689203]}},
{"type": "Feature", "id": "PZrqjkFqxAEbk_WECbfF-j1rCXk=", "properties": {"ref": "0173", "@spider": "bootbarn", "clothes": "western", "shop": "clothes", "addr:full": "8154 Agora Pkwy", "addr:city": "Live Oak,", "addr:state": "Texas", "addr:postcode": "78154", "name": "San Antonio", "phone": "(210) 659-1748", "website": "https://www.bootbarn.com/stores?StoreID=0173", "opening_hours": "Mo-Sa 09:00-09:00,09:00-09:00; Su 11:00-06:00,11:00-06:00", "brand": "Boot Barn", "brand:wikidata": "Q109825187", "nsi_id": "bootbarn-0a21d9"}, "geometry": {"type": "Point", "coordinates": [-98.328903, 29.566662]}},
{"type": "Feature", "id": "VxURCxI_SiDvmwOYHzBp94fBiHA=", "properties": {"ref": "0157", "@spider": "bootbarn", "clothes": "western", "shop": "clothes", "addr:full": "1001 Main St", "addr:city": "Liberty,", "addr:state": "Texas", "addr:postcode": "77575", "name": "Baytown", "phone": "(936) 336-7381", "website": "https://www.bootbarn.com/stores?StoreID=0157", "opening_hours": "Mo-Sa 09:00-08:00,09:00-08:00; Su 12:00-05:00,12:00-05:00", "brand": "Boot Barn", "brand:wikidata": "Q109825187", "nsi_id": "bootbarn-0a21d9"}, "geometry": {"type": "Point", "coordinates": [-94.796289, 30.065338]}},
{"type": "Feature", "id": "1nOb5crjAH_7JDa66XcAbB0EBRY=", "properties": {"ref": "0331", "@spider": "bootbarn", "clothes": "western", "shop": "clothes", "addr:full": "7607 San Dario Ave", "addr:city": "Laredo,", "addr:state": "Texas", "addr:postcode": "78045", "name": "McAllen", "phone": "(956) 528-4804", "website": "https://www.bootbarn.com/stores?StoreID=0331", "opening_hours": "Mo-Sa 09:00-09:00,09:00-09:00; Su 11:00-06:00,11:00-06:00", "brand": "Boot Barn", "brand:wikidata": "Q109825187", "nsi_id": "bootbarn-0a21d9"}, "geometry": {"type": "Point", "coordinates": [-99.49944, 27.571707]}},
{"type": "Feature", "id": "WDsd2g5wuyPc5UHBcFbYuWK0gP0=", "properties": {"ref": "0164", "@spider": "bootbarn", "clothes": "western", "shop": "clothes", "addr:full": "120 Highway 332 W", "addr:city": "Lake Jackson,", "addr:state": "Texas", "addr:postcode": "77566", "name": "Pearland", "phone": "(979) 297-3164", "website": "https://www.bootbarn.com/stores?StoreID=0164", "opening_hours": "Mo-Sa 09:00-09:00,09:00-09:00; Su 11:00-07:00,11:00-07:00", "brand": "Boot Barn", "brand:wikidata": "Q109825187", "nsi_id": "bootbarn-0a21d9"}, "geometry": {"type": "Point", "coordinates": [-95.462982, 29.050659]}},
{"type": "Feature", "id": "uWW4Aon6ILLGxOYixmJu2san0OM=", "properties": {"ref": "0180", "@spider": "bootbarn", "clothes": "western", "shop": "clothes", "addr:full": "24421 Katy Fwy", "addr:city": "Katy,", "addr:state": "Texas", "addr:postcode": "77494", "name": "Cypress", "phone": "(281) 394-5245", "website": "https://www.bootbarn.com/stores?StoreID=0180", "opening_hours": "Mo-Sa 09:00-09:00,09:00-09:00; Su 11:00-07:00,11:00-07:00", "brand": "Boot Barn", "brand:wikidata": "Q109825187", "nsi_id": "bootbarn-0a21d9"}, "geometry": {"type": "Point", "coordinates": [-95.793731, 29.783492]}},
{"type": "Feature", "id": "tNDmXnC9uxBgCsr-3AebWP0fA1s=", "properties": {"ref": "0160", "@spider": "bootbarn", "clothes": "western", "shop": "clothes", "addr:full": "327 S Wheeler St", "addr:city": "Jasper,", "addr:state": "Texas", "addr:postcode": "75951", "name": "Lufkin", "phone": "(409) 384-5436", "website": "https://www.bootbarn.com/stores?StoreID=0160", "opening_hours": "Mo-Sa 09:00-08:00,09:00-08:00; Su 12:00-05:00,12:00-05:00", "brand": "Boot Barn", "brand:wikidata": "Q109825187", "nsi_id": "bootbarn-0a21d9"}, "geometry": {"type": "Point", "coordinates": [-93.996194, 30.918173]}},
{"type": "Feature", "id": "Y8gPhADuxEPF4_F-LYMjsHWGd-0=", "properties": {"ref": "0158", "@spider": "bootbarn", "clothes": "western", "shop": "clothes", "addr:full": "118 Col Etheredge Blvd", "addr:city": "Huntsville,", "addr:state": "Texas", "addr:postcode": "77340", "name": "Conroe", "phone": "(936) 291-1030", "website": "https://www.bootbarn.com/stores?StoreID=0158", "opening_hours": "Mo-Sa 09:00-08:00,09:00-08:00; Su 12:00-06:00,12:00-06:00", "brand": "Boot Barn", "brand:wikidata": "Q109825187", "nsi_id": "bootbarn-0a21d9"}, "geometry": {"type": "Point", "coordinates": [-95.570367, 30.715797]}},
{"type": "Feature", "id": "iU1ds-WnrEao8p_8In_UJZVrbkM=", "properties": {"ref": "0181", "@spider": "bootbarn", "clothes": "western", "shop": "clothes", "addr:full": "9795 Fm1960", "addr:city": "Humble,", "addr:state": "Texas", "addr:postcode": "77338", "name": "Spring", "phone": "(281) 540-3005", "website": "https://www.bootbarn.com/stores?StoreID=0181", "opening_hours": "Mo-Sa 09:00-09:00,09:00-09:00; Su 11:00-07:00,11:00-07:00", "brand": "Boot Barn", "brand:wikidata": "Q109825187", "nsi_id": "bootbarn-0a21d9"}, "geometry": {"type": "Point", "coordinates": [-95.273936, 30.006154]}},
{"type": "Feature", "id": "epM7pd4N_RPvpYZwnQZsVF725bQ=", "properties": {"ref": "0206", "@spider": "bootbarn", "clothes": "western", "shop": "clothes", "addr:full": "10515 Katy Fwy", "addr:city": "Houston,", "addr:state": "Texas", "addr:postcode": "77024", "name": "Katy", "phone": "(713) 984-8887", "website": "https://www.bootbarn.com/stores?StoreID=0206", "opening_hours": "Mo-Sa 10:00-09:00,10:00-09:00; Su 12:00-07:00,12:00-07:00", "brand": "Boot Barn", "brand:wikidata": "Q109825187", "nsi_id": "bootbarn-0a21d9"}, "geometry": {"type": "Point", "coordinates": [-95.557782, 29.78302]}},
{"type": "Feature", "id": "1T_6aTXqNnIQXFzkHqMJDHkwA6k=", "properties": {"ref": "0231", "@spider": "bootbarn", "clothes": "western", "shop": "clothes", "addr:full": "12030 East Fwy", "addr:city": "Houston,", "addr:state": "Texas", "addr:postcode": "77029", "name": "Baytown", "phone": "(713) 451-5617", "website": "https://www.bootbarn.com/stores?StoreID=0231", "opening_hours": "Mo-Sa 10:00-09:00,10:00-09:00; Su 11:00-07:00,11:00-07:00", "brand": "Boot Barn", "brand:wikidata": "Q109825187", "nsi_id": "bootbarn-0a21d9"}, "geometry": {"type": "Point", "coordinates": [-95.224524, 29.769742]}},
{"type": "Feature", "id": "mMp58CDOYZkhaRaPfK7Z7hEImYU=", "properties": {"ref": "0153", "@spider": "bootbarn", "clothes": "western", "shop": "clothes", "addr:full": "2309 US 79 S", "addr:city": "Henderson,", "addr:state": "Texas", "addr:postcode": "75654", "name": "Longview", "phone": "(903) 657-3699", "website": "https://www.bootbarn.com/stores?StoreID=0153", "opening_hours": "Mo-Sa 09:00-08:00,09:00-08:00; Su 12:00-06:00,12:00-06:00", "brand": "Boot Barn", "brand:wikidata": "Q109825187", "nsi_id": "bootbarn-0a21d9"}, "geometry": {"type": "Point", "coordinates": [-94.806324, 32.130072]}},
{"type": "Feature", "id": "PfG8fr3ZLXgfeiC4NuOrRT1q8lI=", "properties": {"ref": "0273", "@spider": "bootbarn", "clothes": "western", "shop": "clothes", "addr:full": "301 East U.S. Hwy 377", "addr:city": "Granbury,", "addr:state": "Texas", "addr:postcode": "76048", "name": "Weatherford", "phone": "(682) 719-8608", "website": "https://www.bootbarn.com/stores?StoreID=0273", "opening_hours": "Mo-Sa 09:00-09:00,09:00-09:00; Su 11:00-07:00,11:00-07:00", "brand": "Boot Barn", "brand:wikidata": "Q109825187", "nsi_id": "bootbarn-0a21d9"}, "geometry": {"type": "Point", "coordinates": [-97.785483, 32.432175]}},
{"type": "Feature", "id": "7CxxbHaVtJhHE7OJKbBmWBKZY00=", "properties": {"ref": "0371", "@spider": "bootbarn", "clothes": "western", "shop": "clothes", "addr:full": "1015 W University Ave", "addr:city": "Georgetown,", "addr:state": "Texas", "addr:postcode": "78628", "name": "Round Rock", "phone": "(737) 240-4343", "website": "https://www.bootbarn.com/stores?StoreID=0371", "opening_hours": "Mo-Sa 09:00-09:00,09:00-09:00; Su 11:00-06:00,11:00-06:00", "brand": "Boot Barn", "brand:wikidata": "Q109825187", "nsi_id": "bootbarn-0a21d9"}, "geometry": {"type": "Point", "coordinates": [-97.693634, 30.630276]}},
{"type": "Feature", "id": "ThjRd5T5dNfLqXtxkcbuPmsoj7A=", "properties": {"ref": "0306", "@spider": "bootbarn", "clothes": "western", "shop": "clothes", "addr:full": "8549 Gaylord Pkwy", "addr:city": "Frisco,", "addr:state": "Texas", "addr:postcode": "75034", "name": "McKinney", "phone": "(214) 705-9065", "website": "https://www.bootbarn.com/stores?StoreID=0306", "opening_hours": "Mo-Sa 09:00-09:00,09:00-09:00; Su 11:00-07:00,11:00-07:00", "brand": "Boot Barn", "brand:wikidata": "Q109825187", "nsi_id": "bootbarn-0a21d9"}, "geometry": {"type": "Point", "coordinates": [-96.810482, 33.102613]}},
{"type": "Feature", "id": "28mJ4sddvOFqBfDl6xG1ng45zEI=", "properties": {"ref": "0358", "@spider": "bootbarn", "clothes": "western", "shop": "clothes", "addr:full": "9320 Sage Meadow Trl", "addr:city": "Fort Worth,", "addr:state": "Texas", "addr:postcode": "76177", "name": "Euless", "phone": "(817) 886-4337", "website": "https://www.bootbarn.com/stores?StoreID=0358", "opening_hours": "Mo-Sa 09:00-09:00,09:00-09:00; Su 11:00-07:00,11:00-07:00", "brand": "Boot Barn", "brand:wikidata": "Q109825187", "nsi_id": "bootbarn-0a21d9"}, "geometry": {"type": "Point", "coordinates": [-97.31417, 32.90802]}},
{"type": "Feature", "id": "JBeBnbHZhgY6n6NplUXMTmfcqyk=", "properties": {"ref": "0150", "@spider": "bootbarn", "clothes": "western", "shop": "clothes", "addr:full": "2911 Rio Grande Blvd", "addr:city": "Euless,", "addr:state": "Texas", "addr:postcode": "76039", "name": "Arlington", "phone": "(817) 685-9488", "website": "https://www.bootbarn.com/stores?StoreID=0150", "opening_hours": "Mo-Sa 09:00-09:00,09:00-09:00; Su 12:00-06:00,12:00-06:00", "brand": "Boot Barn", "brand:wikidata": "Q109825187", "nsi_id": "bootbarn-0a21d9"}, "geometry": {"type": "Point", "coordinates": [-97.104068, 32.878582]}},
{"type": "Feature", "id": "9W_0aS0NBXmSwculZ8yhEgzIB4Y=", "properties": {"ref": "0370", "@spider": "bootbarn", "clothes": "western", "shop": "clothes", "addr:full": "1327 George Dieter Drive", "addr:city": "El Paso,", "addr:state": "Texas", "addr:postcode": "79936", "name": "Las Cruces - Mesilla Valley Mall", "phone": "(915) 266-0699", "website": "https://www.bootbarn.com/stores?StoreID=0370", "opening_hours": "Mo-Th 10:00-09:00,10:00-09:00; Fr-Sa 09:00-09:00,09:00-09:00; Su 11:00-06:00,11:00-06:00", "brand": "Boot Barn", "brand:wikidata": "Q109825187", "nsi_id": "bootbarn-0a21d9"}, "geometry": {"type": "Point", "coordinates": [-106.30435, 31.724602]}},
{"type": "Feature", "id": "z3BrK9aal4HqmBkyBW54fWJSuUY=", "properties": {"ref": "0165", "@spider": "bootbarn", "clothes": "western", "shop": "clothes", "addr:full": "3445 Gulf Fwy", "addr:city": "Dickinson,", "addr:state": "Texas", "addr:postcode": "77539", "name": "Pearland", "phone": "(281) 337-1211", "website": "https://www.bootbarn.com/stores?StoreID=0165", "opening_hours": "Mo-Sa 09:00-08:00,09:00-08:00; Su 12:00-06:00,12:00-06:00", "brand": "Boot Barn", "brand:wikidata": "Q109825187", "nsi_id": "bootbarn-0a21d9"}, "geometry": {"type": "Point", "coordinates": [-95.077519, 29.451337]}},
{"type": "Feature", "id": "vuGhOiIG6m6R8YTV1JTso5Fl0TM=", "properties": {"ref": "0140", "@spider": "bootbarn", "clothes": "western", "shop": "clothes", "addr:full": "2640 W University Dr", "addr:city": "Denton,", "addr:state": "Texas", "addr:postcode": "76201", "name": "Frisco", "phone": "(940) 383-2526", "website": "https://www.bootbarn.com/stores?StoreID=0140", "opening_hours": "Mo-Sa 09:00-09:00,09:00-09:00; Su 11:00-06:00,11:00-06:00", "brand": "Boot Barn", "brand:wikidata": "Q109825187", "nsi_id": "bootbarn-0a21d9"}, "geometry": {"type": "Point", "coordinates": [-97.16562, 33.23208]}},
{"type": "Feature", "id": "5GzcHkXqIWe_F7nA4lc0CCOxxuE=", "properties": {"ref": "0362", "@spider": "bootbarn", "clothes": "western", "shop": "clothes", "addr:full": "5850 Lbj Fwy", "addr:city": "Dallas,", "addr:state": "Texas", "addr:postcode": "75230", "name": "Frisco", "phone": "(469) 804-5353", "website": "https://www.bootbarn.com/stores?StoreID=0362", "opening_hours": "Mo-Sa 09:00-09:00,09:00-09:00; Su 12:00-06:00,12:00-06:00", "brand": "Boot Barn", "brand:wikidata": "Q109825187", "nsi_id": "bootbarn-0a21d9"}, "geometry": {"type": "Point", "coordinates": [-96.806145, 32.924957]}},
{"type": "Feature", "id": "UqEy1j1rS7xuaj3u8zeJZlKoXa0=", "properties": {"ref": "0189", "@spider": "bootbarn", "clothes": "western", "shop": "clothes", "addr:full": "25855 Highway 290", "addr:city": "Cypress,", "addr:state": "Texas", "addr:postcode": "77429", "name": "Tomball", "phone": "(281) 758-4020", "website": "https://www.bootbarn.com/stores?StoreID=0189", "opening_hours": "Mo-Sa 09:00-09:00,09:00-09:00; Su 12:00-06:00,12:00-06:00", "brand": "Boot Barn", "brand:wikidata": "Q109825187", "nsi_id": "bootbarn-0a21d9"}, "geometry": {"type": "Point", "coordinates": [-95.695262, 29.969043]}},
{"type": "Feature", "id": "cV1oq7_21shAzrmylBCeY3TBm-8=", "properties": {"ref": "0252", "@spider": "bootbarn", "clothes": "western", "shop": "clothes", "addr:full": "1734 W 7th Ave", "addr:city": "Corsicana,", "addr:state": "Texas", "addr:postcode": "75110", "name": "Waxahachie", "phone": "(903) 874-4492", "website": "https://www.bootbarn.com/stores?StoreID=0252", "opening_hours": "Mo-Sa 09:00-08:00,09:00-08:00; Su 12:00-07:00,12:00-07:00", "brand": "Boot Barn", "brand:wikidata": "Q109825187", "nsi_id": "bootbarn-0a21d9"}, "geometry": {"type": "Point", "coordinates": [-96.481397, 32.083219]}},
{"type": "Feature", "id": "SjH6AVGw14K8TRlHLa9Kpe2iZLA=", "properties": {"ref": "0169", "@spider": "bootbarn", "clothes": "western", "shop": "clothes", "addr:full": "1220 Airline Rd", "addr:city": "Corpus Christi,", "addr:state": "Texas", "addr:postcode": "78412", "name": "McAllen", "phone": "(361) 992-3960", "website": "https://www.bootbarn.com/stores?StoreID=0169", "opening_hours": "Mo-Sa 09:00-09:00,09:00-09:00; Su 12:00-06:00,12:00-06:00", "brand": "Boot Barn", "brand:wikidata": "Q109825187", "nsi_id": "bootbarn-0a21d9"}, "geometry": {"type": "Point", "coordinates": [-97.361622, 27.708273]}},
{"type": "Feature", "id": "5sZwiGhDkczuyUwY_LJ1McKYIcs=", "properties": {"ref": "0163", "@spider": "bootbarn", "clothes": "western", "shop": "clothes", "addr:full": "1908 N Frazier St", "addr:city": "Conroe,", "addr:state": "Texas", "addr:postcode": "77301", "name": "Tomball", "phone": "(936) 788-1193", "website": "https://www.bootbarn.com/stores?StoreID=0163", "opening_hours": "Mo-Sa 09:00-08:00,09:00-08:00; Su 12:00-06:00,12:00-06:00", "brand": "Boot Barn", "brand:wikidata": "Q109825187", "nsi_id": "bootbarn-0a21d9"}, "geometry": {"type": "Point", "coordinates": [-95.465411, 30.331752]}},
{"type": "Feature", "id": "7Wz5RyNC-kgH11Rn-Bl76TeIyBU=", "properties": {"ref": "0161", "@spider": "bootbarn", "clothes": "western", "shop": "clothes", "addr:full": "1424 Texas Ave. S", "addr:city": "College Station,", "addr:state": "Texas", "addr:postcode": "77840", "name": "Huntsville", "phone": "(979) 823-7100", "website": "https://www.bootbarn.com/stores?StoreID=0161", "opening_hours": "Mo-Sa 09:00-09:00,09:00-09:00; Su 12:00-06:00,12:00-06:00", "brand": "Boot Barn", "brand:wikidata": "Q109825187", "nsi_id": "bootbarn-0a21d9"}, "geometry": {"type": "Point", "coordinates": [-96.32349138471984, 30.61738211565538]}},
{"type": "Feature", "id": "FDmtR6wCm12MfN-Y_OoHJgH9esk=", "properties": {"ref": "0174", "@spider": "bootbarn", "clothes": "western", "shop": "clothes", "addr:full": "1131 N Burleson Blvd", "addr:city": "Burleson,", "addr:state": "Texas", "addr:postcode": "76028", "name": "Mansfield", "phone": "(817) 426-2137", "website": "https://www.bootbarn.com/stores?StoreID=0174", "opening_hours": "Mo-Sa 09:00-09:00,09:00-09:00; Su 12:00-06:00,12:00-06:00", "brand": "Boot Barn", "brand:wikidata": "Q109825187", "nsi_id": "bootbarn-0a21d9"}, "geometry": {"type": "Point", "coordinates": [-97.321633, 32.566804]}},
{"type": "Feature", "id": "Kr8GHR5DWl7v1uIxW8PPRrDaD48=", "properties": {"ref": "0385", "@spider": "bootbarn", "clothes": "western", "shop": "clothes", "addr:full": "527A W. Commerce St", "addr:city": "Brownwood,", "addr:state": "Texas", "addr:postcode": "76801", "name": "Stephenville", "phone": "(325) 510-2015", "website": "https://www.bootbarn.com/stores?StoreID=0385", "opening_hours": "Mo-Sa 09:00-09:00,09:00-09:00; Su 11:00-06:00,11:00-06:00", "brand": "Boot Barn", "brand:wikidata": "Q109825187", "nsi_id": "bootbarn-0a21d9"}, "geometry": {"type": "Point", "coordinates": [-98.98585, 31.73083]}},
{"type": "Feature", "id": "G0qHksKZ1vcOcxQdlcrAZLfrDkA=", "properties": {"ref": "0361", "@spider": "bootbarn", "clothes": "western", "shop": "clothes", "addr:full": "421 Morrison Road", "addr:city": "Brownsville,", "addr:state": "Texas", "addr:postcode": "78526", "name": "McAllen", "phone": "(956) 556-8001", "website": "https://www.bootbarn.com/stores?StoreID=0361", "opening_hours": "Mo-Sa 09:00-09:00,09:00-09:00; Su 11:00-06:00,11:00-06:00", "brand": "Boot Barn", "brand:wikidata": "Q109825187", "nsi_id": "bootbarn-0a21d9"}, "geometry": {"type": "Point", "coordinates": [-97.5092, 25.968895]}},
{"type": "Feature", "id": "GEn1Bsp6IbzJfd5eDZGJUYtnvFs=", "properties": {"ref": "0276", "@spider": "bootbarn", "clothes": "western", "shop": "clothes", "addr:full": "2602 S Gregg St", "addr:city": "Big Spring,", "addr:state": "Texas", "addr:postcode": "79720", "name": "S Midland TX", "phone": "(432) 271-5200", "website": "https://www.bootbarn.com/stores?StoreID=0276", "opening_hours": "Mo-Sa 09:00-08:00,09:00-08:00; Su 11:00-06:00,11:00-06:00", "brand": "Boot Barn", "brand:wikidata": "Q109825187", "nsi_id": "bootbarn-0a21d9"}, "geometry": {"type": "Point", "coordinates": [-101.470911, 32.227601]}},
{"type": "Feature", "id": "-l38dOdhIT_r5eOUdm2KojTuSJY=", "properties": {"ref": "0212", "@spider": "bootbarn", "clothes": "western", "shop": "clothes", "addr:full": "6420 Eastex Fwy", "addr:city": "Beaumont,", "addr:state": "Texas", "addr:postcode": "77708", "name": "Port Arthur", "phone": "(409) 898-0031", "website": "https://www.bootbarn.com/stores?StoreID=0212", "opening_hours": "Mo-Sa 09:00-09:00,09:00-09:00; Su 11:00-07:00,11:00-07:00", "brand": "Boot Barn", "brand:wikidata": "Q109825187", "nsi_id": "bootbarn-0a21d9"}, "geometry": {"type": "Point", "coordinates": [-94.16135, 30.129627]}},
{"type": "Feature", "id": "vdUV9AgHzsEqaPmAH_rtEbu_2ac=", "properties": {"ref": "0182", "@spider": "bootbarn", "clothes": "western", "shop": "clothes", "addr:full": "6550 Garth Rd", "addr:city": "Baytown,", "addr:state": "Texas", "addr:postcode": "77521", "name": "Houston", "phone": "(281) 838-8340", "website": "https://www.bootbarn.com/stores?StoreID=0182", "opening_hours": "Mo-Sa 09:00-09:00,09:00-09:00; Su 12:00-06:00,12:00-06:00", "brand": "Boot Barn", "brand:wikidata": "Q109825187", "nsi_id": "bootbarn-0a21d9"}, "geometry": {"type": "Point", "coordinates": [-94.979079, 29.797881]}},
{"type": "Feature", "id": "WRbfOY3AyllhPSRUMb1WD_ZB2TM=", "properties": {"ref": "0354", "@spider": "bootbarn", "clothes": "western", "shop": "clothes", "addr:full": "9900 S Interstate 35", "addr:city": "Austin,", "addr:state": "Texas", "addr:postcode": "78748", "name": "Austin - Capital Plaza", "phone": "(512) 501-2791", "website": "https://www.bootbarn.com/stores?StoreID=0354", "opening_hours": "Mo-Sa 10:00-09:00,10:00-09:00; Su 12:00-06:00,12:00-06:00", "brand": "Boot Barn", "brand:wikidata": "Q109825187", "nsi_id": "bootbarn-0a21d9"}, "geometry": {"type": "Point", "coordinates": [-97.791943, 30.158129]}},
{"type": "Feature", "id": "sM4G_SXGVJYyUun_-cxVBYU36HY=", "properties": {"ref": "0353", "@spider": "bootbarn", "clothes": "western", "shop": "clothes", "addr:full": "5451B N Interstate 35", "addr:city": "Austin,", "addr:state": "Texas", "addr:postcode": "78723", "name": "Round Rock", "phone": "(512) 582-2521", "website": "https://www.bootbarn.com/stores?StoreID=0353", "opening_hours": "Mo-Sa 10:00-09:00,10:00-09:00; Su 11:00-06:00,11:00-06:00", "brand": "Boot Barn", "brand:wikidata": "Q109825187", "nsi_id": "bootbarn-0a21d9"}, "geometry": {"type": "Point", "coordinates": [-97.70504, 30.314762]}},
{"type": "Feature", "id": "Q0FO8l8LU5Zke8iQsr9jexxP4eg=", "properties": {"ref": "0253", "@spider": "bootbarn", "clothes": "western", "shop": "clothes", "addr:full": "1113 E Tyler St", "addr:city": "Athens,", "addr:state": "Texas", "addr:postcode": "75751", "name": "Tyler", "phone": "(903) 677-5775", "website": "https://www.bootbarn.com/stores?StoreID=0253", "opening_hours": "Mo-Sa 09:00-08:00,09:00-08:00; Su 12:00-07:00,12:00-07:00", "brand": "Boot Barn", "brand:wikidata": "Q109825187", "nsi_id": "bootbarn-0a21d9"}, "geometry": {"type": "Point", "coordinates": [-95.835601, 32.206262]}},
{"type": "Feature", "id": "b9TTd3azbZYMoSRTJJ99IAfVh-g=", "properties": {"ref": "0305", "@spider": "bootbarn", "clothes": "western", "shop": "clothes", "addr:full": "2500 Centennial Dr", "addr:city": "Arlington,", "addr:state": "Texas", "addr:postcode": "76011", "name": "Euless", "phone": "(817) 640-5055", "website": "https://www.bootbarn.com/stores?StoreID=0305", "opening_hours": "Mo-Sa 09:00-09:00,09:00-09:00; Su 11:00-06:00,11:00-06:00", "brand": "Boot Barn", "brand:wikidata": "Q109825187", "nsi_id": "bootbarn-0a21d9"}, "geometry": {"type": "Point", "coordinates": [-97.065103, 32.745409]}},
{"type": "Feature", "id": "PwvDhazdi7Inq7G8I1e10oReKLU=", "properties": {"ref": "0293", "@spider": "bootbarn", "clothes": "western", "shop": "clothes", "addr:full": "2403 S Soncy Rd", "addr:city": "Amarillo,", "addr:state": "Texas", "addr:postcode": "79124", "name": "Lubbock", "phone": "(806) 310-9320", "website": "https://www.bootbarn.com/stores?StoreID=0293", "opening_hours": "Mo-Sa 09:00-09:00,09:00-09:00; Su 11:00-07:00,11:00-07:00", "brand": "Boot Barn", "brand:wikidata": "Q109825187", "nsi_id": "bootbarn-0a21d9"}, "geometry": {"type": "Point", "coordinates": [-101.93579, 35.185715]}},
{"type": "Feature", "id": "z3VPGIrX0ocswa0us2qKzEPutzc=", "properties": {"ref": "0125", "@spider": "bootbarn", "clothes": "western", "shop": "clothes", "addr:full": "405 Opry Mills Dr", "addr:city": "Nashville,", "addr:state": "Tennessee", "addr:postcode": "37214", "name": "Nashville", "phone": "(615) 316-2209", "website": "https://www.bootbarn.com/stores?StoreID=0125", "opening_hours": "Mo-Sa 10:00-08:00,10:00-08:00; Su 11:00-06:00,11:00-06:00", "brand": "Boot Barn", "brand:wikidata": "Q109825187", "nsi_id": "bootbarn-0a21d9"}, "geometry": {"type": "Point", "coordinates": [-86.692539, 36.201686]}},
{"type": "Feature", "id": "ouRbdF6qDClTzCHKKFqDXlsoX0k=", "properties": {"ref": "0149", "@spider": "bootbarn", "clothes": "western", "shop": "clothes", "addr:full": "318 Broadway", "addr:city": "Nashville,", "addr:state": "Tennessee", "addr:postcode": "37201", "name": "Nashville - Opry Mills", "phone": "(615) 742-9780", "website": "https://www.bootbarn.com/stores?StoreID=0149", "opening_hours": "Mo-Th 10:00-09:00,10:00-09:00; Fr-Sa 10:00-10:00,10:00-10:00; Su 11:00-07:00,11:00-07:00", "brand": "Boot Barn", "brand:wikidata": "Q109825187", "nsi_id": "bootbarn-0a21d9"}, "geometry": {"type": "Point", "coordinates": [-86.776926, 36.16134]}},
{"type": "Feature", "id": "cl7BDNs7ueOOW2Ri80C5ncWKTD8=", "properties": {"ref": "0379", "@spider": "bootbarn", "clothes": "western", "shop": "clothes", "addr:full": "7726 Polo Grounds Boulevard", "addr:city": "Memphis,", "addr:state": "Tennessee", "addr:postcode": "38125", "name": "Jackson", "phone": "(901) 203-8068", "website": "https://www.bootbarn.com/stores?StoreID=0379", "opening_hours": "Mo-Th 10:00-08:00,10:00-08:00; Fr-Sa 10:00-09:00,10:00-09:00; Su 11:00-06:00,11:00-06:00", "brand": "Boot Barn", "brand:wikidata": "Q109825187", "nsi_id": "bootbarn-0a21d9"}, "geometry": {"type": "Point", "coordinates": [-89.80553, 35.052013]}},
{"type": "Feature", "id": "ylKGGr4Goj6mFuXkJWFVac5BoUY=", "properties": {"ref": "0129", "@spider": "bootbarn", "clothes": "western", "shop": "clothes", "addr:full": "1008 S Cumberland Center Blvd", "addr:city": "Lebanon,", "addr:state": "Tennessee", "addr:postcode": "37087", "name": "Nashville - Opry Mills", "phone": "(615) 449-9636", "website": "https://www.bootbarn.com/stores?StoreID=0129", "opening_hours": "Mo-Fr 09:00-08:00,09:00-08:00; Sa 10:00-08:00,10:00-08:00; Su 11:00-06:00,11:00-06:00", "brand": "Boot Barn", "brand:wikidata": "Q109825187", "nsi_id": "bootbarn-0a21d9"}, "geometry": {"type": "Point", "coordinates": [-86.294396, 36.183304]}},
{"type": "Feature", "id": "hJ_M0bdxoZq5CXfyo1sa72qWJXc=", "properties": {"ref": "0222", "@spider": "bootbarn", "clothes": "western", "shop": "clothes", "addr:full": "3406 Adventure Ln", "addr:city": "Kodak,", "addr:state": "Tennessee", "addr:postcode": "37764", "name": "Knoxville", "phone": "(865) 932-1052", "website": "https://www.bootbarn.com/stores?StoreID=0222", "opening_hours": "Mo-Sa 10:00-08:00,10:00-08:00; Su 11:00-06:00,11:00-06:00", "brand": "Boot Barn", "brand:wikidata": "Q109825187", "nsi_id": "bootbarn-0a21d9"}, "geometry": {"type": "Point", "coordinates": [-83.611053, 35.982001]}},
{"type": "Feature", "id": "i4zxwLv9hK0gVPSEaVQJKW1GQy4=", "properties": {"ref": "0275", "@spider": "bootbarn", "clothes": "western", "shop": "clothes", "addr:full": "112 Walker Springs Rd", "addr:city": "Knoxville,", "addr:state": "Tennessee", "addr:postcode": "37923", "name": "Kodak", "phone": "(865) 470-6699", "website": "https://www.bootbarn.com/stores?StoreID=0275", "opening_hours": "Mo-Sa 09:00-09:00,09:00-09:00; Su 11:00-06:00,11:00-06:00", "brand": "Boot Barn", "brand:wikidata": "Q109825187", "nsi_id": "bootbarn-0a21d9"}, "geometry": {"type": "Point", "coordinates": [-84.06484, 35.922718]}},
{"type": "Feature", "id": "XmmrRFwxyKTnYu4LRAZStyOTSq4=", "properties": {"ref": "0223", "@spider": "bootbarn", "clothes": "western", "shop": "clothes", "addr:full": "1775 Vann Dr", "addr:city": "Jackson,", "addr:state": "Tennessee", "addr:postcode": "38305", "name": "Memphis", "phone": "(731) 668-0360", "website": "https://www.bootbarn.com/stores?StoreID=0223", "opening_hours": "Mo-Sa 09:00-09:00,09:00-09:00; Su 11:00-06:00,11:00-06:00", "brand": "Boot Barn", "brand:wikidata": "Q109825187", "nsi_id": "bootbarn-0a21d9"}, "geometry": {"type": "Point", "coordinates": [-88.87386, 35.65905]}},
{"type": "Feature", "id": "maoHbqv0_JSdDjGN8Aomvk2T6Lk=", "properties": {"ref": "0106", "@spider": "bootbarn", "clothes": "western", "shop": "clothes", "addr:full": "240 Long Hollow Pike", "addr:city": "Goodlettsville,", "addr:state": "Tennessee", "addr:postcode": "37072", "name": "Nashville - Opry Mills", "phone": "(615) 859-4600", "website": "https://www.bootbarn.com/stores?StoreID=0106", "opening_hours": "Mo-Sa 09:00-08:00,09:00-08:00; Su 11:00-06:00,11:00-06:00", "brand": "Boot Barn", "brand:wikidata": "Q109825187", "nsi_id": "bootbarn-0a21d9"}, "geometry": {"type": "Point", "coordinates": [-86.702963, 36.326199]}},
{"type": "Feature", "id": "Vcvv88e98TX53QqTfwxdl0e9bp4=", "properties": {"ref": "0315", "@spider": "bootbarn", "clothes": "western", "shop": "clothes", "addr:full": "2825 Wilma Rudolph Blvd, Suite 930", "addr:city": "Clarksville,", "addr:state": "Tennessee", "addr:postcode": "37040", "name": "Goodlettsville", "phone": "(931) 291-6191", "website": "https://www.bootbarn.com/stores?StoreID=0315", "opening_hours": "Mo-Sa 09:00-09:00,09:00-09:00; Su 12:00-06:00,12:00-06:00", "brand": "Boot Barn", "brand:wikidata": "Q109825187", "nsi_id": "bootbarn-0a21d9"}, "geometry": {"type": "Point", "coordinates": [-87.29319769634962, 36.586462282278525]}},
{"type": "Feature", "id": "Ywa10r-lYskjdumY_RqLKlEbB0E=", "properties": {"ref": "0136", "@spider": "bootbarn", "clothes": "western", "shop": "clothes", "addr:full": "2020 Gunbarrel Road Space 178", "addr:city": "Chattanooga,", "addr:state": "Tennessee", "addr:postcode": "37421", "name": "Knoxville", "phone": "(423) 855-7340", "website": "https://www.bootbarn.com/stores?StoreID=0136", "opening_hours": "Mo-Sa 10:00-09:00,10:00-09:00; Su 11:00-06:00,11:00-06:00", "brand": "Boot Barn", "brand:wikidata": "Q109825187", "nsi_id": "bootbarn-0a21d9"}, "geometry": {"type": "Point", "coordinates": [-85.15064, 35.03215]}},
{"type": "Feature", "id": "Q6iq44GbUaig08tkNej7s3Gtb2k=", "properties": {"ref": "0190", "@spider": "bootbarn", "clothes": "western", "shop": "clothes", "addr:full": "416 Pinnacle Pkwy", "addr:city": "Bristol,", "addr:state": "Tennessee", "addr:postcode": "37620", "name": "Kodak", "phone": "(423) 652-0310", "website": "https://www.bootbarn.com/stores?StoreID=0190", "opening_hours": "Mo-Sa 10:00-09:00,10:00-09:00; Su 11:00-07:00,11:00-07:00", "brand": "Boot Barn", "brand:wikidata": "Q109825187", "nsi_id": "bootbarn-0a21d9"}, "geometry": {"type": "Point", "coordinates": [-82.260837, 36.592102]}},
{"type": "Feature", "id": "3KZUa6-zl-STrH4gYhWxXyxQakg=", "properties": {"ref": "0122", "@spider": "bootbarn", "clothes": "western", "shop": "clothes", "addr:full": "8105 Moores Ln", "addr:city": "Brentwood,", "addr:state": "Tennessee", "addr:postcode": "37027", "name": "Nashville", "phone": "(615) 373-6988", "website": "https://www.bootbarn.com/stores?StoreID=0122", "opening_hours": "Mo-Sa 10:00-08:00,10:00-08:00; Su 11:00-06:00,11:00-06:00", "brand": "Boot Barn", "brand:wikidata": "Q109825187", "nsi_id": "bootbarn-0a21d9"}, "geometry": {"type": "Point", "coordinates": [-86.801297, 35.964065]}},
{"type": "Feature", "id": "Y0i5pROdaKV6v4yFhpiC-8xFcME=", "properties": {"ref": "0124", "@spider": "bootbarn", "clothes": "western", "shop": "clothes", "addr:full": "2805 W 41st St", "addr:city": "Sioux Falls,", "addr:state": "South Dakota", "addr:postcode": "57105", "name": "Sioux City", "phone": "(605) 271-7640", "website": "https://www.bootbarn.com/stores?StoreID=0124", "opening_hours": "Mo-Sa 09:00-09:00,09:00-09:00; Su 11:00-06:00,11:00-06:00", "brand": "Boot Barn", "brand:wikidata": "Q109825187", "nsi_id": "bootbarn-0a21d9"}, "geometry": {"type": "Point", "coordinates": [-96.76018, 43.51394]}},
{"type": "Feature", "id": "3GAqgsrQSd82lLN1s4ddPPWRJH8=", "properties": {"ref": "0137", "@spider": "bootbarn", "clothes": "western", "shop": "clothes", "addr:full": "1183 Eglin St", "addr:city": "Rapid City,", "addr:state": "South Dakota", "addr:postcode": "57701", "name": "Gillette", "phone": "(605) 348-2294", "website": "https://www.bootbarn.com/stores?StoreID=0137", "opening_hours": "Mo-Sa 09:00-09:00,09:00-09:00; Su 10:00-06:00,10:00-06:00", "brand": "Boot Barn", "brand:wikidata": "Q109825187", "nsi_id": "bootbarn-0a21d9"}, "geometry": {"type": "Point", "coordinates": [-103.192092, 44.099814]}},
{"type": "Feature", "id": "vtoeyQWG-CQ9_5_VA0Y0vl8maxk=", "properties": {"ref": "0214", "@spider": "bootbarn", "clothes": "western", "shop": "clothes", "addr:full": "7800 Rivers Ave", "addr:city": "North Charleston,", "addr:state": "South Carolina", "addr:postcode": "29406", "name": "Monroe", "phone": "(843) 572-7555", "website": "https://www.bootbarn.com/stores?StoreID=0214", "opening_hours": "Mo-Sa 10:00-09:00,10:00-09:00; Su 11:00-07:00,11:00-07:00", "brand": "Boot Barn", "brand:wikidata": "Q109825187", "nsi_id": "bootbarn-0a21d9"}, "geometry": {"type": "Point", "coordinates": [-80.03986, 32.94958]}},
{"type": "Feature", "id": "XMeLRTqhD0VeQ5yN_1giEnBgSIQ=", "properties": {"ref": "0209", "@spider": "bootbarn", "clothes": "western", "shop": "clothes", "addr:full": "420 Congaree Road", "addr:city": "Greenville,", "addr:state": "South Carolina", "addr:postcode": "29607", "name": "Easley", "phone": "(864) 234-8454", "website": "https://www.bootbarn.com/stores?StoreID=0209", "opening_hours": "Mo-Sa 10:00-09:00,10:00-09:00; Su 11:00-07:00,11:00-07:00", "brand": "Boot Barn", "brand:wikidata": "Q109825187", "nsi_id": "bootbarn-0a21d9"}, "geometry": {"type": "Point", "coordinates": [-82.333847, 34.853051]}},
{"type": "Feature", "id": "v6VXJ9iB-EzQkGBVJr2WcABDKsU=", "properties": {"ref": "0195", "@spider": "bootbarn", "clothes": "western", "shop": "clothes", "addr:full": "211 Rolling Hills Cir", "addr:city": "Easley,", "addr:state": "South Carolina", "addr:postcode": "29640", "name": "Greenville", "phone": "(864) 859-8377", "website": "https://www.bootbarn.com/stores?StoreID=0195", "opening_hours": "Mo-Sa 09:00-09:00,09:00-09:00; Su 11:00-07:00,11:00-07:00", "brand": "Boot Barn", "brand:wikidata": "Q109825187", "nsi_id": "bootbarn-0a21d9"}, "geometry": {"type": "Point", "coordinates": [-82.544773, 34.828935]}},
{"type": "Feature", "id": "TRi7J3JieibN1HGMl5M7y627SFY=", "properties": {"ref": "0345", "@spider": "bootbarn", "clothes": "western", "shop": "clothes", "addr:full": "2975 Concord Road", "addr:city": "York,", "addr:state": "Pennsylvania", "addr:postcode": "17402", "name": "Harrisburg, PA", "phone": "(223) 232-5005", "website": "https://www.bootbarn.com/stores?StoreID=0345", "opening_hours": "Mo-Sa 09:00-08:00,09:00-08:00; Su 11:00-07:00,11:00-07:00", "brand": "Boot Barn", "brand:wikidata": "Q109825187", "nsi_id": "bootbarn-0a21d9"}, "geometry": {"type": "Point", "coordinates": [-76.668976, 39.98527]}},
{"type": "Feature", "id": "OLCPWjLut0aRsleYz0Hw7Cx6QQY=", "properties": {"ref": "0328", "@spider": "bootbarn", "clothes": "western", "shop": "clothes", "addr:full": "1101 Woodland Road Suite 4500", "addr:city": "Wyomissing,", "addr:state": "Pennsylvania", "addr:postcode": "19610", "name": "Whitehall", "phone": "(484) 709-8262", "website": "https://www.bootbarn.com/stores?StoreID=0328", "opening_hours": "Mo-Sa 09:00-09:00,09:00-09:00; Su 11:00-07:00,11:00-07:00", "brand": "Boot Barn", "brand:wikidata": "Q109825187", "nsi_id": "bootbarn-0a21d9"}, "geometry": {"type": "Point", "coordinates": [-75.97372, 40.341717]}},
{"type": "Feature", "id": "gVDN6k5FhONVMJR9pl5QJd0y4n8=", "properties": {"ref": "0285", "@spider": "bootbarn", "clothes": "western", "shop": "clothes", "addr:full": "2641 MacArthur Road", "addr:city": "Whitehall,", "addr:state": "Pennsylvania", "addr:postcode": "18052", "name": "Wyomissing", "phone": "(610) 266-1283", "website": "https://www.bootbarn.com/stores?StoreID=0285", "opening_hours": "Mo-Sa 09:00-09:00,09:00-09:00; Su 11:00-07:00,11:00-07:00", "brand": "Boot Barn", "brand:wikidata": "Q109825187", "nsi_id": "bootbarn-0a21d9"}, "geometry": {"type": "Point", "coordinates": [-75.49065, 40.64669]}},
{"type": "Feature", "id": "bXUSusDQvxb0W8eIfJhszL8N5Vc=", "properties": {"ref": "0291", "@spider": "bootbarn", "clothes": "western", "shop": "clothes", "addr:full": "40 Matthew Drive", "addr:city": "Uniontown,", "addr:state": "Pennsylvania", "addr:postcode": "15401", "name": "Monaca", "phone": "(724) 430-1467", "website": "https://www.bootbarn.com/stores?StoreID=0291", "opening_hours": "Mo-Sa 09:00-09:00,09:00-09:00; Su 11:00-07:00,11:00-07:00", "brand": "Boot Barn", "brand:wikidata": "Q109825187", "nsi_id": "bootbarn-0a21d9"}, "geometry": {"type": "Point", "coordinates": [-79.7553777063444, 39.90443194130564]}},
{"type": "Feature", "id": "ztysJtL40fiiC9tE1JZOd5bwOb4=", "properties": {"ref": "0316", "@spider": "bootbarn", "clothes": "western", "shop": "clothes", "addr:full": "135 Wagner Rd", "addr:city": "Monaca,", "addr:state": "Pennsylvania", "addr:postcode": "15061", "name": "Uniontown", "phone": "(412) 790-0020", "website": "https://www.bootbarn.com/stores?StoreID=0316", "opening_hours": "Mo-Sa 09:00-09:00,09:00-09:00; Su 11:00-07:00,11:00-07:00", "brand": "Boot Barn", "brand:wikidata": "Q109825187", "nsi_id": "bootbarn-0a21d9"}, "geometry": {"type": "Point", "coordinates": [-80.30307, 40.68182]}},
{"type": "Feature", "id": "gwERFf8az9_CRnbM5jTtxCiVlf8=", "properties": {"ref": "0382", "@spider": "bootbarn", "clothes": "western", "shop": "clothes", "addr:full": "5083 Jonestown Rd", "addr:city": "Harrisburg,", "addr:state": "Pennsylvania", "addr:postcode": "17112", "name": "York", "phone": "(223) 237-9099", "website": "https://www.bootbarn.com/stores?StoreID=0382", "opening_hours": "Mo-Sa 09:00-08:00,09:00-08:00; Su 10:00-07:00,10:00-07:00", "brand": "Boot Barn", "brand:wikidata": "Q109825187", "nsi_id": "bootbarn-0a21d9"}, "geometry": {"type": "Point", "coordinates": [-76.80276, 40.30807]}},
{"type": "Feature", "id": "XeK9ZUbEXI2_BGyup6zNUoNCG5w=", "properties": {"ref": "0299", "@spider": "bootbarn", "clothes": "western", "shop": "clothes", "addr:full": "7451 Peach St", "addr:city": "Erie,", "addr:state": "Pennsylvania", "addr:postcode": "16509", "name": "Monaca", "phone": "(814) 806-2675", "website": "https://www.bootbarn.com/stores?StoreID=0299", "opening_hours": "Mo-Sa 09:00-09:00,09:00-09:00; Su 11:00-07:00,11:00-07:00", "brand": "Boot Barn", "brand:wikidata": "Q109825187", "nsi_id": "bootbarn-0a21d9"}, "geometry": {"type": "Point", "coordinates": [-80.08286, 42.054462]}},
{"type": "Feature", "id": "Vgak9MvTN5feZIGnEX3-9ENNScw=", "properties": {"ref": "0263", "@spider": "bootbarn", "clothes": "western", "shop": "clothes", "addr:full": "7061 SW Nyberg Street", "addr:city": "Tualatin,", "addr:state": "Oregon", "addr:postcode": "97062", "name": "Troutdale", "phone": "(971) 256-6486", "website": "https://www.bootbarn.com/stores?StoreID=0263", "opening_hours": "Mo-Sa 09:00-08:00,09:00-08:00; Su 11:00-06:00,11:00-06:00", "brand": "Boot Barn", "brand:wikidata": "Q109825187", "nsi_id": "bootbarn-0a21d9"}, "geometry": {"type": "Point", "coordinates": [-122.750443, 45.385337]}},
{"type": "Feature", "id": "2GnHObNuoVseAGuta7cNsIqZ2TY=", "properties": {"ref": "0092", "@spider": "bootbarn", "clothes": "western", "shop": "clothes", "addr:full": "1108 NW Frontage Rd", "addr:city": "Troutdale,", "addr:state": "Oregon", "addr:postcode": "97060", "name": "Tualatin", "phone": "(503) 491-4825", "website": "https://www.bootbarn.com/stores?StoreID=0092", "opening_hours": "Mo-Sa 09:00-08:00,09:00-08:00; Su 11:00-06:00,11:00-06:00", "brand": "Boot Barn", "brand:wikidata": "Q109825187", "nsi_id": "bootbarn-0a21d9"}, "geometry": {"type": "Point", "coordinates": [-122.398259, 45.543676]}},
{"type": "Feature", "id": "JX4wRRFSFkTAf5lph65jCuDIQo8=", "properties": {"ref": "0091", "@spider": "bootbarn", "clothes": "western", "shop": "clothes", "addr:full": "840 Biddle Rd", "addr:city": "Medford,", "addr:state": "Oregon", "addr:postcode": "97504", "name": "Eureka", "phone": "(541) 773-1648", "website": "https://www.bootbarn.com/stores?StoreID=0091", "opening_hours": "Mo-Sa 09:00-08:00,09:00-08:00; Su 11:00-06:00,11:00-06:00", "brand": "Boot Barn", "brand:wikidata": "Q109825187", "nsi_id": "bootbarn-0a21d9"}, "geometry": {"type": "Point", "coordinates": [-122.871272, 42.338609]}},
{"type": "Feature", "id": "tfZaN6y88B-Ptfw7-GuSlim1ud0=", "properties": {"ref": "0089", "@spider": "bootbarn", "clothes": "western", "shop": "clothes", "addr:full": "2221 NE 3rd St", "addr:city": "Bend,", "addr:state": "Oregon", "addr:postcode": "97701", "name": "Troutdale", "phone": "(541) 382-3795", "website": "https://www.bootbarn.com/stores?StoreID=0089", "opening_hours": "Mo-Sa 09:00-08:00,09:00-08:00; Su 11:00-06:00,11:00-06:00", "brand": "Boot Barn", "brand:wikidata": "Q109825187", "nsi_id": "bootbarn-0a21d9"}, "geometry": {"type": "Point", "coordinates": [-121.30275, 44.071903]}},
{"type": "Feature", "id": "k2fOfTL1QW2rEYX-CX9NOENYZhY=", "properties": {"ref": "0255", "@spider": "bootbarn", "clothes": "western", "shop": "clothes", "addr:full": "3220 S Memorial Dr", "addr:city": "Tulsa,", "addr:state": "Oklahoma", "addr:postcode": "74145", "name": "Tulsa - 71st", "phone": "(918) 664-6481", "website": "https://www.bootbarn.com/stores?StoreID=0255", "opening_hours": "Mo-Sa 09:00-09:00,09:00-09:00; Su 11:00-07:00,11:00-07:00", "brand": "Boot Barn", "brand:wikidata": "Q109825187", "nsi_id": "bootbarn-0a21d9"}, "geometry": {"type": "Point", "coordinates": [-95.88742, 36.115757]}},
{"type": "Feature", "id": "J929PFHvbNsGMV-TarqKujZSvPw=", "properties": {"ref": "0254", "@spider": "bootbarn", "clothes": "western", "shop": "clothes", "addr:full": "10127 E 71st St", "addr:city": "Tulsa,", "addr:state": "Oklahoma", "addr:postcode": "74133", "name": "Tulsa - Memorial", "phone": "(918) 252-7917", "website": "https://www.bootbarn.com/stores?StoreID=0254", "opening_hours": "Mo-Sa 09:00-09:00,09:00-09:00; Su 11:00-07:00,11:00-07:00", "brand": "Boot Barn", "brand:wikidata": "Q109825187", "nsi_id": "bootbarn-0a21d9"}, "geometry": {"type": "Point", "coordinates": [-95.863497, 36.063878]}},
{"type": "Feature", "id": "ErXnfEfOANKGxCKbcl27uTMDE18=", "properties": {"ref": "0248", "@spider": "bootbarn", "clothes": "western", "shop": "clothes", "addr:full": "2358 West Memorial Road", "addr:city": "Oklahoma City,", "addr:state": "Oklahoma", "addr:postcode": "73134", "name": "Oklahoma City", "phone": "(405) 548-1690", "website": "https://www.bootbarn.com/stores?StoreID=0248", "opening_hours": "Mo-Sa 09:00-08:00,09:00-08:00; Su 12:00-06:00,12:00-06:00", "brand": "Boot Barn", "brand:wikidata": "Q109825187", "nsi_id": "bootbarn-0a21d9"}, "geometry": {"type": "Point", "coordinates": [-97.554011, 35.607129]}},
{"type": "Feature", "id": "HWbKZtevNh5RxG7ue_SOr9WRVyI=", "properties": {"ref": "0302", "@spider": "bootbarn", "clothes": "western", "shop": "clothes", "addr:full": "812 S Meridian Ave", "addr:city": "Oklahoma City,", "addr:state": "Oklahoma", "addr:postcode": "73108", "name": "Oklahoma City", "phone": "(405) 947-6831", "website": "https://www.bootbarn.com/stores?StoreID=0302", "opening_hours": "Mo-Sa 09:00-09:00,09:00-09:00; Su 11:00-07:00,11:00-07:00", "brand": "Boot Barn", "brand:wikidata": "Q109825187", "nsi_id": "bootbarn-0a21d9"}, "geometry": {"type": "Point", "coordinates": [-97.600193, 35.456127]}},
{"type": "Feature", "id": "pa3aQeXOWWuOODl6eXS3YdH1OpQ=", "properties": {"ref": "0205", "@spider": "bootbarn", "clothes": "western", "shop": "clothes", "addr:full": "600 Ed Noble Pkwy", "addr:city": "Norman,", "addr:state": "Oklahoma", "addr:postcode": "73072", "name": "Oklahoma City", "phone": "(405) 329-1602", "website": "https://www.bootbarn.com/stores?StoreID=0205", "opening_hours": "Mo-Sa 09:00-08:00,09:00-08:00; Su 12:00-06:00,12:00-06:00", "brand": "Boot Barn", "brand:wikidata": "Q109825187", "nsi_id": "bootbarn-0a21d9"}, "geometry": {"type": "Point", "coordinates": [-97.48559, 35.210915]}},
{"type": "Feature", "id": "iUxgMsLLz-o_NwUVqOExSihCmaw=", "properties": {"ref": "0269", "@spider": "bootbarn", "clothes": "western", "shop": "clothes", "addr:full": "4009 Northwest Cache Rd", "addr:city": "Lawton,", "addr:state": "Oklahoma", "addr:postcode": "73505", "name": "Wichita Falls", "phone": "(580) 730-8005", "website": "https://www.bootbarn.com/stores?StoreID=0269", "opening_hours": "Mo-Sa 09:00-08:00,09:00-08:00; Su 12:00-06:00,12:00-06:00", "brand": "Boot Barn", "brand:wikidata": "Q109825187", "nsi_id": "bootbarn-0a21d9"}, "geometry": {"type": "Point", "coordinates": [-98.444329, 34.624102]}},
{"type": "Feature", "id": "C5o6RcxE4UpFWGkJK3QEhGyHVKo=", "properties": {"ref": "0280", "@spider": "bootbarn", "clothes": "western", "shop": "clothes", "addr:full": "495 Radio Rd", "addr:city": "Durant,", "addr:state": "Oklahoma", "addr:postcode": "74701", "name": "Sherman", "phone": "(580) 916-9911", "website": "https://www.bootbarn.com/stores?StoreID=0280", "opening_hours": "Mo-Sa 09:00-08:00,09:00-08:00; Su 12:00-06:00,12:00-06:00", "brand": "Boot Barn", "brand:wikidata": "Q109825187", "nsi_id": "bootbarn-0a21d9"}, "geometry": {"type": "Point", "coordinates": [-96.408709, 34.000668]}},
{"type": "Feature", "id": "zjBmBR1NmQfpFzOQWZs69LXYouY=", "properties": {"ref": "0272", "@spider": "bootbarn", "clothes": "western", "shop": "clothes", "addr:full": "1101 Lonnie Abbott Blvd", "addr:city": "Ada,", "addr:state": "Oklahoma", "addr:postcode": "74820", "name": "Norman", "phone": "(580) 967-8248", "website": "https://www.bootbarn.com/stores?StoreID=0272", "opening_hours": "Mo-Sa 09:00-08:00,09:00-08:00; Su 12:00-06:00,12:00-06:00", "brand": "Boot Barn", "brand:wikidata": "Q109825187", "nsi_id": "bootbarn-0a21d9"}, "geometry": {"type": "Point", "coordinates": [-96.663424, 34.789673]}},
{"type": "Feature", "id": "ssTb3pX4X071ePoB9VMG8xGL804=", "properties": {"ref": "0346", "@spider": "bootbarn", "clothes": "western", "shop": "clothes", "addr:full": "10017-A Fremont Pike", "addr:city": "Perrysburg,", "addr:state": "Ohio", "addr:postcode": "43551", "name": "Ontario", "phone": "(567) 368-9131", "website": "https://www.bootbarn.com/stores?StoreID=0346", "opening_hours": "Mo-Sa 09:00-09:00,09:00-09:00; Su 11:00-07:00,11:00-07:00", "brand": "Boot Barn", "brand:wikidata": "Q109825187", "nsi_id": "bootbarn-0a21d9"}, "geometry": {"type": "Point", "coordinates": [-83.58985, 41.541855]}},
{"type": "Feature", "id": "8Gia7qTUIxzwJsmCSwmHMNhQYWQ=", "properties": {"ref": "0296", "@spider": "bootbarn", "clothes": "western", "shop": "clothes", "addr:full": "833 N Lexington-Springmill Road", "addr:city": "Ontario,", "addr:state": "Ohio", "addr:postcode": "44906", "name": "Copley", "phone": "(419) 747-1055", "website": "https://www.bootbarn.com/stores?StoreID=0296", "opening_hours": "Mo-Sa 09:00-08:00,09:00-08:00; Su 11:00-06:00,11:00-06:00", "brand": "Boot Barn", "brand:wikidata": "Q109825187", "nsi_id": "bootbarn-0a21d9"}, "geometry": {"type": "Point", "coordinates": [-82.590959, 40.775085]}},
{"type": "Feature", "id": "X2gGckxLd8r2MfX4WRiOGBljbys=", "properties": {"ref": "0292", "@spider": "bootbarn", "clothes": "western", "shop": "clothes", "addr:full": "9376 Mason Montgomery Road", "addr:city": "Mason,", "addr:state": "Ohio", "addr:postcode": "45040", "name": "Lexington", "phone": "(513) 336-0028", "website": "https://www.bootbarn.com/stores?StoreID=0292", "opening_hours": "Mo-Sa 09:00-08:00,09:00-08:00; Su 11:00-06:00,11:00-06:00", "brand": "Boot Barn", "brand:wikidata": "Q109825187", "nsi_id": "bootbarn-0a21d9"}, "geometry": {"type": "Point", "coordinates": [-84.312938, 39.302586]}},
{"type": "Feature", "id": "GdMrPfrtWVTHeTOVWzm3EtlMboQ=", "properties": {"ref": "0372", "@spider": "bootbarn", "clothes": "western", "shop": "clothes", "addr:full": "143 Rothrock Rd", "addr:city": "Copley,", "addr:state": "Ohio", "addr:postcode": "44321", "name": "Ontario", "phone": "(234) 226-1144", "website": "https://www.bootbarn.com/stores?StoreID=0372", "opening_hours": "Mo-Sa 09:00-09:00,09:00-09:00; Su 10:00-07:00,10:00-07:00", "brand": "Boot Barn", "brand:wikidata": "Q109825187", "nsi_id": "bootbarn-0a21d9"}, "geometry": {"type": "Point", "coordinates": [-81.64786862, 41.13206099]}},
{"type": "Feature", "id": "45chqDXiAkd_Z1KYnKF7D2OLR0c=", "properties": {"ref": "0257", "@spider": "bootbarn", "clothes": "western", "shop": "clothes", "addr:full": "2308 11th Ave W", "addr:city": "Williston,", "addr:state": "North Dakota", "addr:postcode": "58801", "name": "Dickinson - Prairie Hills Mall", "phone": "(701) 575-9696", "website": "https://www.bootbarn.com/stores?StoreID=0257", "opening_hours": "Mo-Sa 09:00-09:00,09:00-09:00; Su 12:00-07:00,12:00-07:00", "brand": "Boot Barn", "brand:wikidata": "Q109825187", "nsi_id": "bootbarn-0a21d9"}, "geometry": {"type": "Point", "coordinates": [-103.63826, 48.16535]}},
{"type": "Feature", "id": "MoehO6E4Uxrh0gz0F168eJ1DLRw=", "properties": {"ref": "0119", "@spider": "bootbarn", "clothes": "western", "shop": "clothes", "addr:full": "1208 20th Ave SW", "addr:city": "Minot,", "addr:state": "North Dakota", "addr:postcode": "58701", "name": "Bismarck", "phone": "(701) 852-5052", "website": "https://www.bootbarn.com/stores?StoreID=0119", "opening_hours": "Mo-Sa 09:00-09:00,09:00-09:00; Su 12:00-06:00,12:00-06:00", "brand": "Boot Barn", "brand:wikidata": "Q109825187", "nsi_id": "bootbarn-0a21d9"}, "geometry": {"type": "Point", "coordinates": [-101.311429, 48.211529]}},
{"type": "Feature", "id": "lxKZSuloo0eynIpy1slEtCp-ejM=", "properties": {"ref": "0116", "@spider": "bootbarn", "clothes": "western", "shop": "clothes", "addr:full": "3841 32nd Ave S", "addr:city": "Grand Forks,", "addr:state": "North Dakota", "addr:postcode": "58201", "name": "Fargo", "phone": "(701) 772-7875", "website": "https://www.bootbarn.com/stores?StoreID=0116", "opening_hours": "Mo-Sa 09:00-09:00,09:00-09:00; Su 12:00-06:00,12:00-06:00", "brand": "Boot Barn", "brand:wikidata": "Q109825187", "nsi_id": "bootbarn-0a21d9"}, "geometry": {"type": "Point", "coordinates": [-97.07239, 47.892821]}},
{"type": "Feature", "id": "14XAWyH9iq6LODAnYHNujkECEnM=", "properties": {"ref": "0114", "@spider": "bootbarn", "clothes": "western", "shop": "clothes", "addr:full": "1615 38th Street South", "addr:city": "Fargo,", "addr:state": "North Dakota", "addr:postcode": "58103", "name": "Grand Forks", "phone": "(701) 282-6717", "website": "https://www.bootbarn.com/stores?StoreID=0114", "opening_hours": "Mo-Sa 09:00-09:00,09:00-09:00; Su 12:00-06:00,12:00-06:00", "brand": "Boot Barn", "brand:wikidata": "Q109825187", "nsi_id": "bootbarn-0a21d9"}, "geometry": {"type": "Point", "coordinates": [-96.8428008359375, 46.857530499030474]}},
{"type": "Feature", "id": "yYGk6SVlQkajwV-ICG7tmiGqU4Y=", "properties": {"ref": "0130", "@spider": "bootbarn", "clothes": "western", "shop": "clothes", "addr:full": "1681 3rd Ave W", "addr:city": "Dickinson,", "addr:state": "North Dakota", "addr:postcode": "58601", "name": "Bismarck", "phone": "(701) 225-6587", "website": "https://www.bootbarn.com/stores?StoreID=0130", "opening_hours": "Mo-Fr 10:00-08:00,10:00-08:00; Sa 10:00-06:00,10:00-06:00; Su 12:00-05:00,12:00-05:00", "brand": "Boot Barn", "brand:wikidata": "Q109825187", "nsi_id": "bootbarn-0a21d9"}, "geometry": {"type": "Point", "coordinates": [-102.792026, 46.900296]}},
{"type": "Feature", "id": "Xeh7tb1RQPL8j2zsqB3SiLK_upg=", "properties": {"ref": "0123", "@spider": "bootbarn", "clothes": "western", "shop": "clothes", "addr:full": "3134 N 11th St", "addr:city": "Bismarck,", "addr:state": "North Dakota", "addr:postcode": "58503", "name": "Dickinson - Prairie Hills Mall", "phone": "(701) 751-2424", "website": "https://www.bootbarn.com/stores?StoreID=0123", "opening_hours": "Mo-Sa 09:00-09:00,09:00-09:00; Su 12:00-06:00,12:00-06:00", "brand": "Boot Barn", "brand:wikidata": "Q109825187", "nsi_id": "bootbarn-0a21d9"}, "geometry": {"type": "Point", "coordinates": [-100.776188, 46.840725]}},
{"type": "Feature", "id": "6Yb_t9i6G4qlATzY2GPivUkR-6s=", "properties": {"ref": "0148", "@spider": "bootbarn", "clothes": "western", "shop": "clothes", "addr:full": "152 Stratford Commons Ct, # 5", "addr:city": "Winston-Salem,", "addr:state": "North Carolina", "addr:postcode": "27103", "name": "Greensboro", "phone": "(336) 768-6512", "website": "https://www.bootbarn.com/stores?StoreID=0148", "opening_hours": "Mo-Sa 09:00-09:00,09:00-09:00; Su 11:00-07:00,11:00-07:00", "brand": "Boot Barn", "brand:wikidata": "Q109825187", "nsi_id": "bootbarn-0a21d9"}, "geometry": {"type": "Point", "coordinates": [-80.30609, 36.06671]}},
{"type": "Feature", "id": "E_KjOgcdycEjCmq5ZtyBT5bEtMU=", "properties": {"ref": "0303", "@spider": "bootbarn", "clothes": "western", "shop": "clothes", "addr:full": "6204 Glenwood Ave.", "addr:city": "Raleigh,", "addr:state": "North Carolina", "addr:postcode": "27612", "name": "Burlington", "phone": "(984) 238-1099", "website": "https://www.bootbarn.com/stores?StoreID=0303", "opening_hours": "Mo-Sa 09:00-09:00,09:00-09:00; Su 11:00-07:00,11:00-07:00", "brand": "Boot Barn", "brand:wikidata": "Q109825187", "nsi_id": "bootbarn-0a21d9"}, "geometry": {"type": "Point", "coordinates": [-78.701515, 35.856693]}},
{"type": "Feature", "id": "qihCnw0tNMQv4pqMgkEGR6o_VvQ=", "properties": {"ref": "0392", "@spider": "bootbarn", "clothes": "western", "shop": "clothes", "addr:full": "10412 Centrum Parkway", "addr:city": "Pineville,", "addr:state": "North Carolina", "addr:postcode": "28134", "name": "Monroe", "phone": "(980) 274-2099", "website": "https://www.bootbarn.com/stores?StoreID=0392", "opening_hours": "Mo-Sa 09:00-09:00,09:00-09:00; Su 11:00-07:00,11:00-07:00", "brand": "Boot Barn", "brand:wikidata": "Q109825187", "nsi_id": "bootbarn-0a21d9"}, "geometry": {"type": "Point", "coordinates": [-80.87837828686555, 35.09188114437359]}},
{"type": "Feature", "id": "SPSQ-lII3TDvJLCNxIBqK30ftIA=", "properties": {"ref": "0192", "@spider": "bootbarn", "clothes": "western", "shop": "clothes", "addr:full": "3109 W Highway 74", "addr:city": "Monroe,", "addr:state": "North Carolina", "addr:postcode": "28110", "name": "Pineville", "phone": "(704) 282-1397", "website": "https://www.bootbarn.com/stores?StoreID=0192", "opening_hours": "Mo-Sa 10:00-09:00,10:00-09:00; Su 11:00-07:00,11:00-07:00", "brand": "Boot Barn", "brand:wikidata": "Q109825187", "nsi_id": "bootbarn-0a21d9"}, "geometry": {"type": "Point", "coordinates": [-80.583021, 35.02205]}},
{"type": "Feature", "id": "PeuF29eABZ2VNUI203gqLMOGoWg=", "properties": {"ref": "0278", "@spider": "bootbarn", "clothes": "western", "shop": "clothes", "addr:full": "380 Western Blvd.", "addr:city": "Jacksonville,", "addr:state": "North Carolina", "addr:postcode": "28546", "name": "Fayetteville", "phone": "(910) 353-0892", "website": "https://www.bootbarn.com/stores?StoreID=0278", "opening_hours": "Mo-Sa 09:00-09:00,09:00-09:00; Su 11:00-07:00,11:00-07:00", "brand": "Boot Barn", "brand:wikidata": "Q109825187", "nsi_id": "bootbarn-0a21d9"}, "geometry": {"type": "Point", "coordinates": [-77.38342006839129, 34.76711602620955]}},
{"type": "Feature", "id": "wOHx5PoJl5DXvvHM_CxPjA5E1SU=", "properties": {"ref": "0284", "@spider": "bootbarn", "clothes": "western", "shop": "clothes", "addr:full": "5417-B Sapp Rd", "addr:city": "Greensboro,", "addr:state": "North Carolina", "addr:postcode": "27409", "name": "Burlington", "phone": "(336) 632-4275", "website": "https://www.bootbarn.com/stores?StoreID=0284", "opening_hours": "Mo-Sa 09:00-09:00,09:00-09:00; Su 11:00-07:00,11:00-07:00", "brand": "Boot Barn", "brand:wikidata": "Q109825187", "nsi_id": "bootbarn-0a21d9"}, "geometry": {"type": "Point", "coordinates": [-79.905966, 36.054875]}},
{"type": "Feature", "id": "5EWmwHY49iTpqhPboaxAKQpnlRw=", "properties": {"ref": "0322", "@spider": "bootbarn", "clothes": "western", "shop": "clothes", "addr:full": "1800 Skibo Road", "addr:city": "Fayetteville,", "addr:state": "North Carolina", "addr:postcode": "28303", "name": "Raleigh", "phone": "(910) 621-8181", "website": "https://www.bootbarn.com/stores?StoreID=0322", "opening_hours": "Mo-Sa 09:00-09:00,09:00-09:00; Su 11:00-07:00,11:00-07:00", "brand": "Boot Barn", "brand:wikidata": "Q109825187", "nsi_id": "bootbarn-0a21d9"}, "geometry": {"type": "Point", "coordinates": [-78.96305, 35.07498]}},
{"type": "Feature", "id": "yFi1N0zKfBmyHkePu0TYB6M6088=", "properties": {"ref": "0226", "@spider": "bootbarn", "clothes": "western", "shop": "clothes", "addr:full": "7940 Lyles Ln NW", "addr:city": "Concord,", "addr:state": "North Carolina", "addr:postcode": "28027", "name": "Pineville", "phone": "(704) 688-0066", "website": "https://www.bootbarn.com/stores?StoreID=0226", "opening_hours": "Mo-Sa 09:00-09:00,09:00-09:00; Su 11:00-07:00,11:00-07:00", "brand": "Boot Barn", "brand:wikidata": "Q109825187", "nsi_id": "bootbarn-0a21d9"}, "geometry": {"type": "Point", "coordinates": [-80.715883, 35.365279]}},
{"type": "Feature", "id": "teiDpw6zH7d8PODnsakAaa0SORw=", "properties": {"ref": "0188", "@spider": "bootbarn", "clothes": "western", "shop": "clothes", "addr:full": "1485 Boone Station Dr", "addr:city": "Burlington,", "addr:state": "North Carolina", "addr:postcode": "27215", "name": "Greensboro", "phone": "(336) 538-2033", "website": "https://www.bootbarn.com/stores?StoreID=0188", "opening_hours": "Mo-Sa 09:00-09:00,09:00-09:00; Su 11:00-07:00,11:00-07:00", "brand": "Boot Barn", "brand:wikidata": "Q109825187", "nsi_id": "bootbarn-0a21d9"}, "geometry": {"type": "Point", "coordinates": [-79.515601, 36.069733]}},
{"type": "Feature", "id": "LXMeFMcBHyxsj06bW_S6MtP28Zw=", "properties": {"ref": "0066", "@spider": "bootbarn", "clothes": "western", "shop": "clothes", "addr:full": "4250 Cerrillos Road", "addr:city": "Santa Fe,", "addr:state": "New Mexico", "addr:postcode": "87507", "name": "Albuquerque - San Mateo", "phone": "(505) 471-8775", "website": "https://www.bootbarn.com/stores?StoreID=0066", "opening_hours": "Mo-Sa 10:00-08:00,10:00-08:00; Su 12:00-06:00,12:00-06:00", "brand": "Boot Barn", "brand:wikidata": "Q109825187", "nsi_id": "bootbarn-0a21d9"}, "geometry": {"type": "Point", "coordinates": [-106.016424, 35.635824]}},
{"type": "Feature", "id": "0Bxb_HtD_yF-HCtVJ_uICRF3CPQ=", "properties": {"ref": "0059", "@spider": "bootbarn", "clothes": "western", "shop": "clothes", "addr:full": "700 S Telshor Blvd", "addr:city": "Las Cruces,", "addr:state": "New Mexico", "addr:postcode": "88011", "name": "El Paso", "phone": "(575) 532-1096", "website": "https://www.bootbarn.com/stores?StoreID=0059", "opening_hours": "Mo-Sa 10:00-08:00,10:00-08:00; Su 11:00-06:00,11:00-06:00", "brand": "Boot Barn", "brand:wikidata": "Q109825187", "nsi_id": "bootbarn-0a21d9"}, "geometry": {"type": "Point", "coordinates": [-106.744486, 32.310911]}},
{"type": "Feature", "id": "h0B9mP0N683WVgDi3Oj83D25JbA=", "properties": {"ref": "0064", "@spider": "bootbarn", "clothes": "western", "shop": "clothes", "addr:full": "804 US Highway 491", "addr:city": "Gallup,", "addr:state": "New Mexico", "addr:postcode": "87301", "name": "Farmington", "phone": "(505) 863-4944", "website": "https://www.bootbarn.com/stores?StoreID=0064", "opening_hours": "Mo-Th 09:00-07:00,09:00-07:00; Fr-Sa 09:00-08:00,09:00-08:00; Su 11:00-06:00,11:00-06:00", "brand": "Boot Barn", "brand:wikidata": "Q109825187", "nsi_id": "bootbarn-0a21d9"}, "geometry": {"type": "Point", "coordinates": [-108.7575, 35.53365]}},
{"type": "Feature", "id": "xEAi3fStXCWHBvJcH85wTTA9tsM=", "properties": {"ref": "0067", "@spider": "bootbarn", "clothes": "western", "shop": "clothes", "addr:full": "4601 E Main St", "addr:city": "Farmington,", "addr:state": "New Mexico", "addr:postcode": "87402", "name": "Durango", "phone": "(505) 327-5314", "website": "https://www.bootbarn.com/stores?StoreID=0067", "opening_hours": "Mo-Sa 09:00-08:00,09:00-08:00; Su 11:00-06:00,11:00-06:00", "brand": "Boot Barn", "brand:wikidata": "Q109825187", "nsi_id": "bootbarn-0a21d9"}, "geometry": {"type": "Point", "coordinates": [-108.154005, 36.763003]}},
{"type": "Feature", "id": "t_T4HQhKvIjprwMfuMj3ubIl46E=", "properties": {"ref": "0065", "@spider": "bootbarn", "clothes": "western", "shop": "clothes", "addr:full": "10020 Coors Byp NW", "addr:city": "Albuquerque,", "addr:state": "New Mexico", "addr:postcode": "87114", "name": "Albuquerque - San Mateo", "phone": "(505) 792-0411", "website": "https://www.bootbarn.com/stores?StoreID=0065", "opening_hours": "Mo-Sa 09:00-08:00,09:00-08:00; Su 11:00-06:00,11:00-06:00", "brand": "Boot Barn", "brand:wikidata": "Q109825187", "nsi_id": "bootbarn-0a21d9"}, "geometry": {"type": "Point", "coordinates": [-106.659317, 35.196994]}},
{"type": "Feature", "id": "jJ5uK5QGLk7V59fXQTN-DrI1R-Q=", "properties": {"ref": "0068", "@spider": "bootbarn", "clothes": "western", "shop": "clothes", "addr:full": "6210 San Mateo Blvd NE", "addr:city": "Albuquerque,", "addr:state": "New Mexico", "addr:postcode": "87109", "name": "Albuquerque - Menaul", "phone": "(505) 883-7161", "website": "https://www.bootbarn.com/stores?StoreID=0068", "opening_hours": "Mo-Sa 09:00-08:00,09:00-08:00; Su 11:00-06:00,11:00-06:00", "brand": "Boot Barn", "brand:wikidata": "Q109825187", "nsi_id": "bootbarn-0a21d9"}, "geometry": {"type": "Point", "coordinates": [-106.585989, 35.14686]}},
{"type": "Feature", "id": "CxRZpEWD5H-RiFS9SHx3nGxUXuM=", "properties": {"ref": "0021", "@spider": "bootbarn", "clothes": "western", "shop": "clothes", "addr:full": "6600 Menaul Blvd NE", "addr:city": "Albuquerque,", "addr:state": "New Mexico", "addr:postcode": "87110", "name": "Albuquerque - San Mateo", "phone": "(505) 883-6909", "website": "https://www.bootbarn.com/stores?StoreID=0021", "opening_hours": "Mo-Sa 10:00-08:00,10:00-08:00; Su 11:00-07:00,11:00-07:00", "brand": "Boot Barn", "brand:wikidata": "Q109825187", "nsi_id": "bootbarn-0a21d9"}, "geometry": {"type": "Point", "coordinates": [-106.571655, 35.106359]}},
{"type": "Feature", "id": "ryh2srAWO5zDGDiU4Rcv8zfOkR0=", "properties": {"ref": "0398", "@spider": "bootbarn", "clothes": "western", "shop": "clothes", "addr:full": "2150 N. 2nd Street", "addr:city": "Millville,", "addr:state": "New Jersey", "addr:postcode": "08332", "name": "Dover", "phone": "(856) 391-8600", "website": "https://www.bootbarn.com/stores?StoreID=0398", "opening_hours": "Mo-Sa 09:00-09:00,09:00-09:00; Su 10:00-07:00,10:00-07:00", "brand": "Boot Barn", "brand:wikidata": "Q109825187", "nsi_id": "bootbarn-0a21d9"}, "geometry": {"type": "Point", "coordinates": [-75.04465699195862, 39.421310557228274]}},
{"type": "Feature", "id": "5zskCSuNeqxTEmeNgLitS1SRevo=", "properties": {"ref": "0393", "@spider": "bootbarn", "clothes": "western", "shop": "clothes", "addr:full": "2232 Route 70 W", "addr:city": "Cherry Hill,", "addr:state": "New Jersey", "addr:postcode": "08002", "name": "Millville", "phone": "(856) 528-1500", "website": "https://www.bootbarn.com/stores?StoreID=0393", "opening_hours": "Mo-Sa 09:00-08:00,09:00-08:00; Su 10:00-07:00,10:00-07:00", "brand": "Boot Barn", "brand:wikidata": "Q109825187", "nsi_id": "bootbarn-0a21d9"}, "geometry": {"type": "Point", "coordinates": [-75.04305, 39.92546]}},
{"type": "Feature", "id": "_AYMdmN9F7xCIsV9r4Yi5tjmIQs=", "properties": {"ref": "0082", "@spider": "bootbarn", "clothes": "western", "shop": "clothes", "addr:full": "1460 W Winnemucca Blvd", "addr:city": "Winnemucca,", "addr:state": "Nevada", "addr:postcode": "89445", "name": "Elko", "phone": "(775) 625-2622", "website": "https://www.bootbarn.com/stores?StoreID=0082", "opening_hours": "Mo-Sa 09:00-08:00,09:00-08:00; Su 11:00-05:00,11:00-05:00", "brand": "Boot Barn", "brand:wikidata": "Q109825187", "nsi_id": "bootbarn-0a21d9"}, "geometry": {"type": "Point", "coordinates": [-117.744827, 40.963791]}},
{"type": "Feature", "id": "FpTxcQpmMiIhCyJ7daAVnK3UPtY=", "properties": {"ref": "0186", "@spider": "bootbarn", "clothes": "western", "shop": "clothes", "addr:full": "2315 Summa Dr", "addr:city": "Las Vegas,", "addr:state": "Nevada", "addr:postcode": "89135", "name": "American Worker - W. Sahara", "phone": "(702) 228-2306", "website": "https://www.bootbarn.com/stores?StoreID=0186", "opening_hours": "Mo-Sa 10:00-08:00,10:00-08:00; Su 10:00-06:00,10:00-06:00", "brand": "Boot Barn", "brand:wikidata": "Q109825187", "nsi_id": "bootbarn-0a21d9"}, "geometry": {"type": "Point", "coordinates": [-115.335264, 36.146572]}},
{"type": "Feature", "id": "3LKCIkkYHQRV8zLj5wRODr0mSIw=", "properties": {"ref": "0264", "@spider": "bootbarn", "clothes": "western", "shop": "clothes", "addr:full": "129 Los Altos, Suite 103", "addr:city": "Sparks,", "addr:state": "Nevada", "addr:postcode": "89436", "name": "Reno", "phone": "(775) 419-1007", "website": "https://www.bootbarn.com/stores?StoreID=0264", "opening_hours": "Mo-Sa 09:00-08:00,09:00-08:00; Su 11:00-05:00,11:00-05:00", "brand": "Boot Barn", "brand:wikidata": "Q109825187", "nsi_id": "bootbarn-0a21d9"}, "geometry": {"type": "Point", "coordinates": [-119.742244, 39.58194]}},
{"type": "Feature", "id": "hmYMyNoWe0sgb_Pot62hef1TBkQ=", "properties": {"ref": "0048", "@spider": "bootbarn", "clothes": "western", "shop": "clothes", "addr:full": "3345 Kietzke Ln", "addr:city": "Reno,", "addr:state": "Nevada", "addr:postcode": "89502", "name": "Sparks", "phone": "(775) 825-0666", "website": "https://www.bootbarn.com/stores?StoreID=0048", "opening_hours": "Mo-Sa 09:00-08:00,09:00-08:00; Su 11:00-05:00,11:00-05:00", "brand": "Boot Barn", "brand:wikidata": "Q109825187", "nsi_id": "bootbarn-0a21d9"}, "geometry": {"type": "Point", "coordinates": [-119.789773, 39.491809]}},
{"type": "Feature", "id": "0nulWrS34rR7Lj9ewCjUnfJ7I9k=", "properties": {"ref": "0062", "@spider": "bootbarn", "clothes": "western", "shop": "clothes", "addr:full": "1955 S Casino Dr", "addr:city": "Laughlin,", "addr:state": "Nevada", "addr:postcode": "89029", "name": "Kingman", "phone": "(702) 298-9296", "website": "https://www.bootbarn.com/stores?StoreID=0062", "opening_hours": "Mo-Su 10:00-06:00,10:00-06:00", "brand": "Boot Barn", "brand:wikidata": "Q109825187", "nsi_id": "bootbarn-0a21d9"}, "geometry": {"type": "Point", "coordinates": [-114.576722, 35.162995]}},
{"type": "Feature", "id": "zMlVRxrojVlcqPdQLjgYEt1DEtU=", "properties": {"ref": "0221", "@spider": "bootbarn", "clothes": "western", "shop": "clothes", "addr:full": "7265 Las Vegas Blvd S", "addr:city": "Las Vegas,", "addr:state": "Nevada", "addr:postcode": "89119", "name": "Las Vegas - Western Super Store", "phone": "(702) 260-1888", "website": "https://www.bootbarn.com/stores?StoreID=0221", "opening_hours": "Mo-Fr 09:00-09:00,09:00-09:00; Sa 09:00-08:00,09:00-08:00; Su 09:30-06:00,09:30-06:00", "brand": "Boot Barn", "brand:wikidata": "Q109825187", "nsi_id": "bootbarn-0a21d9"}, "geometry": {"type": "Point", "coordinates": [-115.172958, 36.057709]}},
{"type": "Feature", "id": "nPN6MSdmh6guxtBJFyoM49w1NI4=", "properties": {"ref": "0220", "@spider": "bootbarn", "clothes": "western", "shop": "clothes", "addr:full": "2280 W Warm Springs Rd", "addr:city": "Las Vegas,", "addr:state": "Nevada", "addr:postcode": "89119", "name": "Las Vegas - Work Super Store", "phone": "(702) 471-0101", "website": "https://www.bootbarn.com/stores?StoreID=0220", "opening_hours": "Mo-Fr 09:00-09:00,09:00-09:00; Sa 09:00-08:00,09:00-08:00; Su 09:30-06:00,09:30-06:00", "brand": "Boot Barn", "brand:wikidata": "Q109825187", "nsi_id": "bootbarn-0a21d9"}, "geometry": {"type": "Point", "coordinates": [-115.174188, 36.057391]}},
{"type": "Feature", "id": "tjp2Iso3uhONa_pVDqEItCkeZs8=", "properties": {"ref": "0338", "@spider": "bootbarn", "clothes": "western", "shop": "clothes", "addr:full": "2105 W Williams Ave", "addr:city": "Fallon,", "addr:state": "Nevada", "addr:postcode": "89406", "name": "Sparks", "phone": "(775) 666-4688", "website": "https://www.bootbarn.com/stores?StoreID=0338", "opening_hours": "Mo-Sa 09:00-08:00,09:00-08:00; Su 11:00-05:00,11:00-05:00", "brand": "Boot Barn", "brand:wikidata": "Q109825187", "nsi_id": "bootbarn-0a21d9"}, "geometry": {"type": "Point", "coordinates": [-118.80332, 39.475628]}},
{"type": "Feature", "id": "QnZKy-5OV5x-LVmssVbZOCfMoUQ=", "properties": {"ref": "0081", "@spider": "bootbarn", "clothes": "western", "shop": "clothes", "addr:full": "1920 Idaho St", "addr:city": "Elko,", "addr:state": "Nevada", "addr:postcode": "89801", "name": "Winnemucca", "phone": "(775) 738-6865", "website": "https://www.bootbarn.com/stores?StoreID=0081", "opening_hours": "Mo-Sa 09:00-08:00,09:00-08:00; Su 11:00-05:00,11:00-05:00", "brand": "Boot Barn", "brand:wikidata": "Q109825187", "nsi_id": "bootbarn-0a21d9"}, "geometry": {"type": "Point", "coordinates": [-115.748643, 40.844837]}},
{"type": "Feature", "id": "7CmwU3vyNc5XR1bU6D3ntIjubtk=", "properties": {"ref": "0047", "@spider": "bootbarn", "clothes": "western", "shop": "clothes", "addr:full": "935 Topsy Ln", "addr:city": "Carson City,", "addr:state": "Nevada", "addr:postcode": "89705", "name": "Reno", "phone": "(775) 267-6867", "website": "https://www.bootbarn.com/stores?StoreID=0047", "opening_hours": "Mo-Sa 09:00-08:00,09:00-08:00; Su 11:00-05:00,11:00-05:00", "brand": "Boot Barn", "brand:wikidata": "Q109825187", "nsi_id": "bootbarn-0a21d9"}, "geometry": {"type": "Point", "coordinates": [-119.776955, 39.108485]}},
{"type": "Feature", "id": "PPNmrKFBfZgWtpbefmHF5ozxECI=", "properties": {"ref": "0023", "@spider": "bootbarn", "clothes": "western", "shop": "clothes", "addr:full": "6322 W Sahara Ave", "addr:city": "Las Vegas,", "addr:state": "Nevada", "addr:postcode": "89146", "name": "Summerlin", "phone": "(702) 365-5691", "website": "https://www.bootbarn.com/stores?StoreID=0023", "opening_hours": "Mo-Fr 09:00-08:00,09:00-08:00; Sa 09:00-07:00,09:00-07:00; Su 11:00-06:00,11:00-06:00", "brand": "Boot Barn", "brand:wikidata": "Q109825187", "nsi_id": "bootbarn-0a21d9"}, "geometry": {"type": "Point", "coordinates": [-115.231999, 36.144416]}},
{"type": "Feature", "id": "fywfqy6BHK4DO6HdYxXnJrETY7k=", "properties": {"ref": "0024", "@spider": "bootbarn", "clothes": "western", "shop": "clothes", "addr:full": "4250 E Bonanza Rd", "addr:city": "Las Vegas,", "addr:state": "Nevada", "addr:postcode": "89110", "name": "American Worker - W. Sahara", "phone": "(702) 437-7400", "website": "https://www.bootbarn.com/stores?StoreID=0024", "opening_hours": "Mo-Fr 09:00-08:00,09:00-08:00; Sa 09:00-07:00,09:00-07:00; Su 11:00-06:00,11:00-06:00", "brand": "Boot Barn", "brand:wikidata": "Q109825187", "nsi_id": "bootbarn-0a21d9"}, "geometry": {"type": "Point", "coordinates": [-115.083678, 36.173858]}},
{"type": "Feature", "id": "bCA0Xkd3OahNji0M0zgNFp0kUDg=", "properties": {"ref": "0207", "@spider": "bootbarn", "clothes": "western", "shop": "clothes", "addr:full": "12720 Westport Pkwy", "addr:city": "Omaha,", "addr:state": "Nebraska", "addr:postcode": "68138", "name": "Omaha", "phone": "(402) 905-3608", "website": "https://www.bootbarn.com/stores?StoreID=0207", "opening_hours": "Mo-Fr 10:00-09:00,10:00-09:00; Sa 09:00-09:00,09:00-09:00; Su 11:00-06:00,11:00-06:00", "brand": "Boot Barn", "brand:wikidata": "Q109825187", "nsi_id": "bootbarn-0a21d9"}, "geometry": {"type": "Point", "coordinates": [-96.114294, 41.180316]}},
{"type": "Feature", "id": "rlyhl-wU0hGRcey0AIsItdDruCQ=", "properties": {"ref": "0356", "@spider": "bootbarn", "clothes": "western", "shop": "clothes", "addr:full": "970 S 72nd St", "addr:city": "Omaha,", "addr:state": "Nebraska", "addr:postcode": "68114", "name": "Omaha/La Vista", "phone": "(402) 819-5704", "website": "https://www.bootbarn.com/stores?StoreID=0356", "opening_hours": "Mo-Fr 10:00-09:00,10:00-09:00; Sa 09:00-09:00,09:00-09:00; Su 11:00-06:00,11:00-06:00", "brand": "Boot Barn", "brand:wikidata": "Q109825187", "nsi_id": "bootbarn-0a21d9"}, "geometry": {"type": "Point", "coordinates": [-96.024637, 41.250324]}},
{"type": "Feature", "id": "BYOzYsaeMufeNtX1RW5Eb5_jZEI=", "properties": {"ref": "0132", "@spider": "bootbarn", "clothes": "western", "shop": "clothes", "addr:full": "3666 Brooks St", "addr:city": "Missoula,", "addr:state": "Montana", "addr:postcode": "59801", "name": "Kalispell", "phone": "(406) 251-9853", "website": "https://www.bootbarn.com/stores?StoreID=0132", "opening_hours": "Mo-Sa 09:00-08:00,09:00-08:00; Su 11:00-06:00,11:00-06:00", "brand": "Boot Barn", "brand:wikidata": "Q109825187", "nsi_id": "bootbarn-0a21d9"}, "geometry": {"type": "Point", "coordinates": [-114.038202, 46.835926]}},
{"type": "Feature", "id": "dNe2b4rLOsKjud92IxkA5dMdBy4=", "properties": {"ref": "0146", "@spider": "bootbarn", "clothes": "western", "shop": "clothes", "addr:full": "75 Treeline Rd", "addr:city": "Kalispell,", "addr:state": "Montana", "addr:postcode": "59901", "name": "Missoula", "phone": "(406) 755-1577", "website": "https://www.bootbarn.com/stores?StoreID=0146", "opening_hours": "Mo-Sa 09:00-08:00,09:00-08:00; Su 11:00-06:00,11:00-06:00", "brand": "Boot Barn", "brand:wikidata": "Q109825187", "nsi_id": "bootbarn-0a21d9"}, "geometry": {"type": "Point", "coordinates": [-114.332561, 48.23917]}},
{"type": "Feature", "id": "Lf1tODRVqvWIGLpBxbQt8cEz0yU=", "properties": {"ref": "0141", "@spider": "bootbarn", "clothes": "western", "shop": "clothes", "addr:full": "915 W Main St", "addr:city": "Bozeman,", "addr:state": "Montana", "addr:postcode": "59715", "name": "Billings", "phone": "(406) 585-1110", "website": "https://www.bootbarn.com/stores?StoreID=0141", "opening_hours": "Mo-Sa 09:00-08:00,09:00-08:00; Su 11:00-06:00,11:00-06:00", "brand": "Boot Barn", "brand:wikidata": "Q109825187", "nsi_id": "bootbarn-0a21d9"}, "geometry": {"type": "Point", "coordinates": [-111.050029, 45.679896]}},
{"type": "Feature", "id": "9cgptRIqi6Fk1bQe3wC0ORg3sqs=", "properties": {"ref": "0083", "@spider": "bootbarn", "clothes": "western", "shop": "clothes", "addr:full": "327 S 24th St W", "addr:city": "Billings,", "addr:state": "Montana", "addr:postcode": "59102", "name": "Cody", "phone": "(406) 652-3121", "website": "https://www.bootbarn.com/stores?StoreID=0083", "opening_hours": "Mo-Sa 09:00-08:00,09:00-08:00; Su 11:00-06:00,11:00-06:00", "brand": "Boot Barn", "brand:wikidata": "Q109825187", "nsi_id": "bootbarn-0a21d9"}, "geometry": {"type": "Point", "coordinates": [-108.575802, 45.763703]}},
{"type": "Feature", "id": "Zkkjx2whxGb6oX7BofxneAEjM8c=", "properties": {"ref": "0210", "@spider": "bootbarn", "clothes": "western", "shop": "clothes", "addr:full": "8353 N Booth Ave", "addr:city": "Kansas City,", "addr:state": "Missouri", "addr:postcode": "64158", "name": "Blue Springs", "phone": "(816) 415-3177", "website": "https://www.bootbarn.com/stores?StoreID=0210", "opening_hours": "Mo-Fr 10:00-09:00,10:00-09:00; Sa 09:00-09:00,09:00-09:00; Su 11:00-06:00,11:00-06:00", "brand": "Boot Barn", "brand:wikidata": "Q109825187", "nsi_id": "bootbarn-0a21d9"}, "geometry": {"type": "Point", "coordinates": [-94.475795, 39.24369]}},
{"type": "Feature", "id": "vwqMGuTKgOLOA4Lps5CZeqauARY=", "properties": {"ref": "0343", "@spider": "bootbarn", "clothes": "western", "shop": "clothes", "addr:full": "6922 S Lindbergh Blvd.", "addr:city": "St. Louis,", "addr:state": "Missouri", "addr:postcode": "63125", "phone": "(314) 934-1088", "website": "https://www.bootbarn.com/stores?StoreID=0343", "opening_hours": "Mo-Sa 09:00-08:00,09:00-08:00; Su 12:00-07:00,12:00-07:00", "brand": "Boot Barn", "brand:wikidata": "Q109825187", "nsi_id": "bootbarn-0a21d9"}, "geometry": {"type": "Point", "coordinates": [-90.334816, 38.509747]}},
{"type": "Feature", "id": "kG_9vd1V5Kt7bsuIwjznRORWaNU=", "properties": {"ref": "0142", "@spider": "bootbarn", "clothes": "western", "shop": "clothes", "addr:full": "1010 NE Coronado Dr", "addr:city": "Blue Springs,", "addr:state": "Missouri", "addr:postcode": "64014", "name": "Shoal Creek - Liberty", "phone": "(816) 220-0001", "website": "https://www.bootbarn.com/stores?StoreID=0142", "opening_hours": "Mo-Fr 10:00-09:00,10:00-09:00; Sa 09:00-09:00,09:00-09:00; Su 11:00-06:00,11:00-06:00", "brand": "Boot Barn", "brand:wikidata": "Q109825187", "nsi_id": "bootbarn-0a21d9"}, "geometry": {"type": "Point", "coordinates": [-94.25037, 39.023763]}},
{"type": "Feature", "id": "PeKDeDzO1cB92e7QJ9GY25r5fGc=", "properties": {"ref": "0247", "@spider": "bootbarn", "clothes": "western", "shop": "clothes", "addr:full": "6036 Interstate 55 North Frontage Road", "addr:city": "Jackson,", "addr:state": "Mississippi", "addr:postcode": "39211", "name": "Slidell", "phone": "(601) 724-0020", "website": "https://www.bootbarn.com/stores?StoreID=0247", "opening_hours": "Mo-Sa 09:00-08:00,09:00-08:00; Su 12:00-06:00,12:00-06:00", "brand": "Boot Barn", "brand:wikidata": "Q109825187", "nsi_id": "bootbarn-0a21d9"}, "geometry": {"type": "Point", "coordinates": [-90.14494, 32.39063]}},
{"type": "Feature", "id": "tqZNS_I5lX94mdAtAt4oWRDS_ng=", "properties": {"ref": "0117", "@spider": "bootbarn", "clothes": "western", "shop": "clothes", "addr:full": "4101 Division Street Suite E0030", "addr:city": "St. Cloud,", "addr:state": "Minnesota", "addr:postcode": "56301", "name": "Fridley", "phone": "(320) 252-6120", "website": "https://www.bootbarn.com/stores?StoreID=0117", "opening_hours": "Mo-Th 11:00-07:00,11:00-07:00; Fr-Sa 10:00-07:00,10:00-07:00; Su 12:00-06:00,12:00-06:00", "brand": "Boot Barn", "brand:wikidata": "Q109825187", "nsi_id": "bootbarn-0a21d9"}, "geometry": {"type": "Point", "coordinates": [-94.210599, 45.556587]}},
{"type": "Feature", "id": "uuRLgxTeVts2d8Roh_8afiqjjVc=", "properties": {"ref": "0107", "@spider": "bootbarn", "clothes": "western", "shop": "clothes", "addr:full": "386 N Garden", "addr:city": "Bloomington,", "addr:state": "Minnesota", "addr:postcode": "55425", "name": "Fridley", "phone": "(952) 854-1063", "website": "https://www.bootbarn.com/stores?StoreID=0107", "opening_hours": "Mo-Th 11:00-08:00,11:00-08:00; Fr-Sa 10:00-09:00,10:00-09:00; Su 11:00-07:00,11:00-07:00", "brand": "Boot Barn", "brand:wikidata": "Q109825187", "nsi_id": "bootbarn-0a21d9"}, "geometry": {"type": "Point", "coordinates": [-93.242788, 44.855454]}},
{"type": "Feature", "id": "2tmizbaf2nfdVu66dcxgbGXZ5tA=", "properties": {"ref": "0268", "@spider": "bootbarn", "clothes": "western", "shop": "clothes", "addr:full": "254 57th Ave NE", "addr:city": "Fridley,", "addr:state": "Minnesota", "addr:postcode": "55432", "name": "Mall of America", "phone": "(763) 572-9467", "website": "https://www.bootbarn.com/stores?StoreID=0268", "opening_hours": "Mo-Sa 09:00-09:00,09:00-09:00; Su 11:00-06:00,11:00-06:00", "brand": "Boot Barn", "brand:wikidata": "Q109825187", "nsi_id": "bootbarn-0a21d9"}, "geometry": {"type": "Point", "coordinates": [-93.266778, 45.070104]}},
{"type": "Feature", "id": "aXk7QzWvws0zTb6uoxqRwea21l4=", "properties": {"ref": "0365", "@spider": "bootbarn", "clothes": "western", "shop": "clothes", "addr:full": "430 N. Marketplace Blvd", "addr:city": "Lansing,", "addr:state": "Michigan", "addr:postcode": "48917", "name": "Grandville", "phone": "(517) 246-0044", "website": "https://www.bootbarn.com/stores?StoreID=0365", "opening_hours": "Mo-Sa 09:00-09:00,09:00-09:00; Su 11:00-06:00,11:00-06:00", "brand": "Boot Barn", "brand:wikidata": "Q109825187", "nsi_id": "bootbarn-0a21d9"}, "geometry": {"type": "Point", "coordinates": [-84.67064, 42.73872]}},
{"type": "Feature", "id": "BqJ7hw-Sr-4wf1Tp5b7yoM8crE8=", "properties": {"ref": "0339", "@spider": "bootbarn", "clothes": "western", "shop": "clothes", "addr:full": "4545 Canal Ave SW", "addr:city": "Grandville,", "addr:state": "Michigan", "addr:postcode": "49418", "name": "Lansing", "phone": "(616) 691-0101", "website": "https://www.bootbarn.com/stores?StoreID=0339", "opening_hours": "Mo-Th 09:00-08:00,09:00-08:00; Fr-Sa 09:00-09:00,09:00-09:00; Su 11:00-07:00,11:00-07:00", "brand": "Boot Barn", "brand:wikidata": "Q109825187", "nsi_id": "bootbarn-0a21d9"}, "geometry": {"type": "Point", "coordinates": [-85.7757, 42.88212]}},
{"type": "Feature", "id": "gle6qfBcPRp3KZnpMcC1eD5B1Y0=", "properties": {"ref": "0183", "@spider": "bootbarn", "clothes": "western", "shop": "clothes", "addr:full": "127 Northshore Blvd", "addr:city": "Slidell,", "addr:state": "Louisiana", "addr:postcode": "70460", "name": "Baton Rouge", "phone": "(985) 641-1441", "website": "https://www.bootbarn.com/stores?StoreID=0183", "opening_hours": "Mo-Sa 09:00-08:00,09:00-08:00; Su 12:00-06:00,12:00-06:00", "brand": "Boot Barn", "brand:wikidata": "Q109825187", "nsi_id": "bootbarn-0a21d9"}, "geometry": {"type": "Point", "coordinates": [-89.82701, 30.304088]}},
{"type": "Feature", "id": "TQNc44MYqXiqpzM3T1shQg_Wudc=", "properties": {"ref": "0213", "@spider": "bootbarn", "clothes": "western", "shop": "clothes", "addr:full": "6590 Youree Dr", "addr:city": "Shreveport,", "addr:state": "Louisiana", "addr:postcode": "71105", "name": "Marshall", "phone": "(318) 798-8099", "website": "https://www.bootbarn.com/stores?StoreID=0213", "opening_hours": "Mo-Sa 10:00-09:00,10:00-09:00; Su 12:00-06:00,12:00-06:00", "brand": "Boot Barn", "brand:wikidata": "Q109825187", "nsi_id": "bootbarn-0a21d9"}, "geometry": {"type": "Point", "coordinates": [-93.721683, 32.446511]}},
{"type": "Feature", "id": "xKQ9vN3hd1OUTfqvQGhIvq0AMoc=", "properties": {"ref": "0175", "@spider": "bootbarn", "clothes": "western", "shop": "clothes", "addr:full": "2990 E Prien Lake Rd", "addr:city": "Lake Charles,", "addr:state": "Louisiana", "addr:postcode": "70615", "name": "Port Arthur", "phone": "(337) 480-3899", "website": "https://www.bootbarn.com/stores?StoreID=0175", "opening_hours": "Mo-Sa 09:00-08:00,09:00-08:00; Su 12:00-06:00,12:00-06:00", "brand": "Boot Barn", "brand:wikidata": "Q109825187", "nsi_id": "bootbarn-0a21d9"}, "geometry": {"type": "Point", "coordinates": [-93.174933, 30.196398]}},
{"type": "Feature", "id": "gr847EAqrD9cz9tY5AUm1WZLXuc=", "properties": {"ref": "0178", "@spider": "bootbarn", "clothes": "western", "shop": "clothes", "addr:full": "3320 Ambassador Caffery Pkwy", "addr:city": "Lafayette,", "addr:state": "Louisiana", "addr:postcode": "70506", "name": "Baton Rouge", "phone": "(337) 989-2379", "website": "https://www.bootbarn.com/stores?StoreID=0178", "opening_hours": "Mo-Sa 09:00-08:00,09:00-08:00; Su 12:00-06:00,12:00-06:00", "brand": "Boot Barn", "brand:wikidata": "Q109825187", "nsi_id": "bootbarn-0a21d9"}, "geometry": {"type": "Point", "coordinates": [-92.077585, 30.179935]}},
{"type": "Feature", "id": "ihpbabSgMunydf3peXhwcGwN-LQ=", "properties": {"ref": "0179", "@spider": "bootbarn", "clothes": "western", "shop": "clothes", "addr:full": "10533 S Mall Dr", "addr:city": "Baton Rouge,", "addr:state": "Louisiana", "addr:postcode": "70809", "name": "Lafayette", "phone": "(225) 293-0421", "website": "https://www.bootbarn.com/stores?StoreID=0179", "opening_hours": "Mo-Sa 09:00-09:00,09:00-09:00; Su 12:00-06:00,12:00-06:00", "brand": "Boot Barn", "brand:wikidata": "Q109825187", "nsi_id": "bootbarn-0a21d9"}, "geometry": {"type": "Point", "coordinates": [-91.062276, 30.374152]}},
{"type": "Feature", "id": "DMAXHlnALyrvkNn6QJ-K_myprDk=", "properties": {"ref": "0177", "@spider": "bootbarn", "clothes": "western", "shop": "clothes", "addr:full": "2201 Memorial Dr", "addr:city": "Alexandria,", "addr:state": "Louisiana", "addr:postcode": "71301", "name": "Lafayette", "phone": "(318) 443-5521", "website": "https://www.bootbarn.com/stores?StoreID=0177", "opening_hours": "Mo-Sa 09:00-08:00,09:00-08:00; Su 12:00-06:00,12:00-06:00", "brand": "Boot Barn", "brand:wikidata": "Q109825187", "nsi_id": "bootbarn-0a21d9"}, "geometry": {"type": "Point", "coordinates": [-92.458637, 31.279273]}},
{"type": "Feature", "id": "GU0qdr8xASORfe2IZqLE3ueqYE4=", "properties": {"ref": "0197", "@spider": "bootbarn", "clothes": "western", "shop": "clothes", "addr:full": "4511 Outer Loop", "addr:city": "Louisville,", "addr:state": "Kentucky", "addr:postcode": "40219", "name": "Clarksville", "phone": "(502) 961-8468", "website": "https://www.bootbarn.com/stores?StoreID=0197", "opening_hours": "Mo-Sa 09:00-08:00,09:00-08:00; Su 12:00-06:00,12:00-06:00", "brand": "Boot Barn", "brand:wikidata": "Q109825187", "nsi_id": "bootbarn-0a21d9"}, "geometry": {"type": "Point", "coordinates": [-85.678834, 38.139643]}},
{"type": "Feature", "id": "-FchcezbODpz-JtoePA1Qao9ojc=", "properties": {"ref": "0145", "@spider": "bootbarn", "clothes": "western", "shop": "clothes", "addr:full": "2200 War Admiral Way", "addr:city": "Lexington,", "addr:state": "Kentucky", "addr:postcode": "40509", "name": "Louisville", "phone": "(859) 264-7388", "website": "https://www.bootbarn.com/stores?StoreID=0145", "opening_hours": "Mo-Sa 09:00-09:00,09:00-09:00; Su 11:00-06:00,11:00-06:00", "brand": "Boot Barn", "brand:wikidata": "Q109825187", "nsi_id": "bootbarn-0a21d9"}, "geometry": {"type": "Point", "coordinates": [-84.42639, 38.040285]}},
{"type": "Feature", "id": "NU2-g41OTGgjcd46jrN-EZ_mYHA=", "properties": {"ref": "0196", "@spider": "bootbarn", "clothes": "western", "shop": "clothes", "addr:full": "2625 Scottsville Rd", "addr:city": "Bowling Green,", "addr:state": "Kentucky", "addr:postcode": "42104", "name": "Goodlettsville", "phone": "(270) 783-0712", "website": "https://www.bootbarn.com/stores?StoreID=0196", "opening_hours": "Mo-Th 10:00-07:00,10:00-07:00; Fr-Sa 10:00-08:00,10:00-08:00; Su 12:00-06:00,12:00-06:00", "brand": "Boot Barn", "brand:wikidata": "Q109825187", "nsi_id": "bootbarn-0a21d9"}, "geometry": {"type": "Point", "coordinates": [-86.42653, 36.947353]}},
{"type": "Feature", "id": "vfwC0lqwIwvM3C0SdMg2-9Y_J9U=", "properties": {"ref": "0301", "@spider": "bootbarn", "clothes": "western", "shop": "clothes", "addr:full": "6501 W Kellogg Dr", "addr:city": "Wichita,", "addr:state": "Kansas", "addr:postcode": "67209", "name": "Topeka", "phone": "(316) 946-3600", "website": "https://www.bootbarn.com/stores?StoreID=0301", "opening_hours": "Mo-Sa 09:00-09:00,09:00-09:00; Su 11:00-07:00,11:00-07:00", "brand": "Boot Barn", "brand:wikidata": "Q109825187", "nsi_id": "bootbarn-0a21d9"}, "geometry": {"type": "Point", "coordinates": [-97.417421, 37.672035]}},
{"type": "Feature", "id": "68_aZozqvzzSOe7jghDLUWTwtmE=", "properties": {"ref": "0218", "@spider": "bootbarn", "clothes": "western", "shop": "clothes", "addr:full": "5920 SW Huntoon St", "addr:city": "Topeka,", "addr:state": "Kansas", "addr:postcode": "66604", "name": "Lawrence", "phone": "(785) 272-2632", "website": "https://www.bootbarn.com/stores?StoreID=0218", "opening_hours": "Mo-Sa 09:00-09:00,09:00-09:00; Su 10:00-06:00,10:00-06:00", "brand": "Boot Barn", "brand:wikidata": "Q109825187", "nsi_id": "bootbarn-0a21d9"}, "geometry": {"type": "Point", "coordinates": [-95.759532, 39.044148]}},
{"type": "Feature", "id": "UcRFwrVkH8XOBCrcJlwshpP2RHc=", "properties": {"ref": "0191", "@spider": "bootbarn", "clothes": "western", "shop": "clothes", "addr:full": "15185 W 119th St", "addr:city": "Olathe,", "addr:state": "Kansas", "addr:postcode": "66062", "name": "Lawrence", "phone": "(913) 829-1959", "website": "https://www.bootbarn.com/stores?StoreID=0191", "opening_hours": "Mo-Fr 10:00-09:00,10:00-09:00; Sa 09:00-09:00,09:00-09:00; Su 11:00-06:00,11:00-06:00", "brand": "Boot Barn", "brand:wikidata": "Q109825187", "nsi_id": "bootbarn-0a21d9"}, "geometry": {"type": "Point", "coordinates": [-94.762128, 38.911602]}},
{"type": "Feature", "id": "DslWKQ3pnrTABnhSaKRwQnt37qc=", "properties": {"ref": "0208", "@spider": "bootbarn", "clothes": "western", "shop": "clothes", "addr:full": "2727 Iowa St", "addr:city": "Lawrence,", "addr:state": "Kansas", "addr:postcode": "66046", "name": "Olathe", "phone": "(785) 832-1050", "website": "https://www.bootbarn.com/stores?StoreID=0208", "opening_hours": "Mo-Fr 10:00-09:00,10:00-09:00; Sa 09:00-09:00,09:00-09:00; Su 11:00-06:00,11:00-06:00", "brand": "Boot Barn", "brand:wikidata": "Q109825187", "nsi_id": "bootbarn-0a21d9"}, "geometry": {"type": "Point", "coordinates": [-95.26228, 38.933975]}},
{"type": "Feature", "id": "8uSF1PUqVq7aiV4jOJDB10YKPzw=", "properties": {"ref": "0118", "@spider": "bootbarn", "clothes": "western", "shop": "clothes", "addr:full": "5001 Sergeant Rd", "addr:city": "Sioux City,", "addr:state": "Iowa", "addr:postcode": "51106", "name": "Sioux Falls", "phone": "(712) 276-2101", "website": "https://www.bootbarn.com/stores?StoreID=0118", "opening_hours": "Mo-Sa 10:00-09:00,10:00-09:00; Su 11:00-07:00,11:00-07:00", "brand": "Boot Barn", "brand:wikidata": "Q109825187", "nsi_id": "bootbarn-0a21d9"}, "geometry": {"type": "Point", "coordinates": [-96.34140931472778, 42.44780674656133]}},
{"type": "Feature", "id": "TrQZZQdiZFV7lrShslyosaKSsnU=", "properties": {"ref": "0112", "@spider": "bootbarn", "clothes": "western", "shop": "clothes", "addr:full": "1550 22nd St.", "addr:city": "West Des Moines,", "addr:state": "Iowa", "addr:postcode": "50266", "name": "Des Moines", "phone": "(515) 224-1392", "website": "https://www.bootbarn.com/stores?StoreID=0112", "opening_hours": "Mo-Fr 10:00-09:00,10:00-09:00; Sa 09:00-09:00,09:00-09:00; Su 11:00-06:00,11:00-06:00", "brand": "Boot Barn", "brand:wikidata": "Q109825187", "nsi_id": "bootbarn-0a21d9"}, "geometry": {"type": "Point", "coordinates": [-93.749178, 41.598592]}},
{"type": "Feature", "id": "Jqu16R3zHQZMvL9Mid8wV-I0F50=", "properties": {"ref": "0282", "@spider": "bootbarn", "clothes": "western", "shop": "clothes", "addr:full": "1801 Ingersoll Ave", "addr:city": "Des Moines,", "addr:state": "Iowa", "addr:postcode": "50309", "name": "Des Moines", "phone": "(515) 243-7431", "website": "https://www.bootbarn.com/stores?StoreID=0282", "opening_hours": "Mo-Sa 09:00-07:00,09:00-07:00; Su 11:00-06:00,11:00-06:00", "brand": "Boot Barn", "brand:wikidata": "Q109825187", "nsi_id": "bootbarn-0a21d9"}, "geometry": {"type": "Point", "coordinates": [-93.64148, 41.58626]}},
{"type": "Feature", "id": "D2GoYwzH7yDW28V_5pIldFjDA1I=", "properties": {"ref": "0111", "@spider": "bootbarn", "clothes": "western", "shop": "clothes", "addr:full": "4231 Elmore Avenue", "addr:city": "Davenport,", "addr:state": "Iowa", "addr:postcode": "52807", "name": "Cedar Rapids", "phone": "(563) 386-5722", "website": "https://www.bootbarn.com/stores?StoreID=0111", "opening_hours": "Mo-Sa 09:00-08:00,09:00-08:00; Su 11:00-06:00,11:00-06:00", "brand": "Boot Barn", "brand:wikidata": "Q109825187", "nsi_id": "bootbarn-0a21d9"}, "geometry": {"type": "Point", "coordinates": [-90.52354633427429, 41.5640032374632]}},
{"type": "Feature", "id": "FLz_VqBUbY-f0SC8h6_VPZudQZA=", "properties": {"ref": "0201", "@spider": "bootbarn", "clothes": "western", "shop": "clothes", "addr:full": "3271 Market Place Dr", "addr:city": "Council Bluffs,", "addr:state": "Iowa", "addr:postcode": "51501", "name": "Omaha", "phone": "(712) 366-8039", "website": "https://www.bootbarn.com/stores?StoreID=0201", "opening_hours": "Mo-Sa 09:00-09:00,09:00-09:00; Su 11:00-06:00,11:00-06:00", "brand": "Boot Barn", "brand:wikidata": "Q109825187", "nsi_id": "bootbarn-0a21d9"}, "geometry": {"type": "Point", "coordinates": [-95.875992, 41.229678]}},
{"type": "Feature", "id": "Ge9dpLjPImRCRTOL63hBBV0t5V4=", "properties": {"ref": "0290", "@spider": "bootbarn", "clothes": "western", "shop": "clothes", "addr:full": "4601 1st Avenue", "addr:city": "Cedar Rapids,", "addr:state": "Iowa", "addr:postcode": "52402", "name": "Davenport", "phone": "(319) 393-3341", "website": "https://www.bootbarn.com/stores?StoreID=0290", "opening_hours": "Mo-Sa 09:00-08:00,09:00-08:00; Su 11:00-06:00,11:00-06:00", "brand": "Boot Barn", "brand:wikidata": "Q109825187", "nsi_id": "bootbarn-0a21d9"}, "geometry": {"type": "Point", "coordinates": [-91.622755, 42.022402]}},
{"type": "Feature", "id": "j4UFbND-J-Feh7SCx73yDaLWnwI=", "properties": {"ref": "0286", "@spider": "bootbarn", "clothes": "western", "shop": "clothes", "addr:full": "4650 East Southport Road", "addr:city": "Indianapolis,", "addr:state": "Indiana", "addr:postcode": "46237", "name": "Indianapolis", "phone": "(317) 781-1180", "website": "https://www.bootbarn.com/stores?StoreID=0286", "opening_hours": "Mo-Sa 09:00-09:00,09:00-09:00; Su 11:00-06:00,11:00-06:00", "brand": "Boot Barn", "brand:wikidata": "Q109825187", "nsi_id": "bootbarn-0a21d9"}, "geometry": {"type": "Point", "coordinates": [-86.090766, 39.667625]}},
{"type": "Feature", "id": "1CUMQ-ZOhNvDSKdNrAQ_BdnOVCY=", "properties": {"ref": "0274", "@spider": "bootbarn", "clothes": "western", "shop": "clothes", "addr:full": "8366 Castleton Corner Drive", "addr:city": "Indianapolis,", "addr:state": "Indiana", "addr:postcode": "46250", "name": "Southport", "phone": "(317) 559-0042", "website": "https://www.bootbarn.com/stores?StoreID=0274", "opening_hours": "Mo-Sa 09:00-09:00,09:00-09:00; Su 11:00-06:00,11:00-06:00", "brand": "Boot Barn", "brand:wikidata": "Q109825187", "nsi_id": "bootbarn-0a21d9"}, "geometry": {"type": "Point", "coordinates": [-86.073061, 39.908652]}},
{"type": "Feature", "id": "woXfOIgX0X483cyyHWlYXh5zg74=", "properties": {"ref": "0342", "@spider": "bootbarn", "clothes": "western", "shop": "clothes", "addr:full": "335 E University Drive", "addr:city": "Granger,", "addr:state": "Indiana", "addr:postcode": "46530", "name": "Fort Wayne", "phone": "(574) 203-6226", "website": "https://www.bootbarn.com/stores?StoreID=0342", "opening_hours": "Mo-Th 09:00-08:00,09:00-08:00; Fr-Sa 09:00-09:00,09:00-09:00; Su 11:00-07:00,11:00-07:00", "brand": "Boot Barn", "brand:wikidata": "Q109825187", "nsi_id": "bootbarn-0a21d9"}, "geometry": {"type": "Point", "coordinates": [-86.17479, 41.717865]}},
{"type": "Feature", "id": "WT3-iJx1oLVg7Ma51IUd0wNX2R8=", "properties": {"ref": "0364", "@spider": "bootbarn", "clothes": "western", "shop": "clothes", "addr:full": "155 Coliseum Blvd W", "addr:city": "Fort Wayne,", "addr:state": "Indiana", "addr:postcode": "46805", "name": "Granger", "phone": "(260) 800-2828", "website": "https://www.bootbarn.com/stores?StoreID=0364", "opening_hours": "Mo-Sa 09:00-09:00,09:00-09:00; Su 11:00-07:00,11:00-07:00", "brand": "Boot Barn", "brand:wikidata": "Q109825187", "nsi_id": "bootbarn-0a21d9"}, "geometry": {"type": "Point", "coordinates": [-85.14196157455444, 41.11801371460516]}},
{"type": "Feature", "id": "HaGmmlJLq4AsO_FMYO2ZuEoermg=", "properties": {"ref": "0121", "@spider": "bootbarn", "clothes": "western", "shop": "clothes", "addr:full": "701 N Green River Rd", "addr:city": "Evansville,", "addr:state": "Indiana", "addr:postcode": "47715", "name": "Bowling Green", "phone": "(812) 475-0780", "website": "https://www.bootbarn.com/stores?StoreID=0121", "opening_hours": "Mo-Sa 09:00-08:00,09:00-08:00; Su 11:00-06:00,11:00-06:00", "brand": "Boot Barn", "brand:wikidata": "Q109825187", "nsi_id": "bootbarn-0a21d9"}, "geometry": {"type": "Point", "coordinates": [-87.49232, 37.983029]}},
{"type": "Feature", "id": "t0SJCiXVXYeAxax2ipd-nxKAQqo=", "properties": {"ref": "0232", "@spider": "bootbarn", "clothes": "western", "shop": "clothes", "addr:full": "1200 E Lewis And Clark Pkwy", "addr:city": "Clarksville,", "addr:state": "Indiana", "addr:postcode": "47129", "name": "Louisville", "phone": "(812) 283-1345", "website": "https://www.bootbarn.com/stores?StoreID=0232", "opening_hours": "Mo-Sa 09:00-08:00,09:00-08:00; Su 11:00-06:00,11:00-06:00", "brand": "Boot Barn", "brand:wikidata": "Q109825187", "nsi_id": "bootbarn-0a21d9"}, "geometry": {"type": "Point", "coordinates": [-85.754233, 38.317013]}},
{"type": "Feature", "id": "2OTQ7dnbrcCCrI3IzsJkdxCCxwo=", "properties": {"ref": "0109", "@spider": "bootbarn", "clothes": "western", "shop": "clothes", "addr:full": "6170 Grand Ave", "addr:city": "Gurnee,", "addr:state": "Illinois", "addr:postcode": "60031", "name": "Granger", "phone": "(847) 855-2652", "website": "https://www.bootbarn.com/stores?StoreID=0109", "opening_hours": "Mo-Th 10:00-08:00,10:00-08:00; Fr-Sa 10:00-09:00,10:00-09:00; Su 11:00-07:00,11:00-07:00", "brand": "Boot Barn", "brand:wikidata": "Q109825187", "nsi_id": "bootbarn-0a21d9"}, "geometry": {"type": "Point", "coordinates": [-87.954975, 42.388898]}},
{"type": "Feature", "id": "-4eOH_F8N6tXbAVBt_DLgRHnxWw=", "properties": {"ref": "0094", "@spider": "bootbarn", "clothes": "western", "shop": "clothes", "addr:full": "1175 Addison Ave E", "addr:city": "Twin Falls,", "addr:state": "Idaho", "addr:postcode": "83301", "name": "Boise", "phone": "(208) 736-5053", "website": "https://www.bootbarn.com/stores?StoreID=0094", "opening_hours": "Mo-Sa 09:00-08:00,09:00-08:00; Su 11:00-06:00,11:00-06:00", "brand": "Boot Barn", "brand:wikidata": "Q109825187", "nsi_id": "bootbarn-0a21d9"}, "geometry": {"type": "Point", "coordinates": [-114.459229, 42.563886]}},
{"type": "Feature", "id": "iPcVlyEbtr3kDwRD7zFyiPytrHU=", "properties": {"ref": "0095", "@spider": "bootbarn", "clothes": "western", "shop": "clothes", "addr:full": "8525 W Franklin Rd", "addr:city": "Boise,", "addr:state": "Idaho", "addr:postcode": "83709", "name": "Twin Falls", "phone": "(208) 322-3513", "website": "https://www.bootbarn.com/stores?StoreID=0095", "opening_hours": "Mo-Sa 09:00-08:00,09:00-08:00; Su 11:00-06:00,11:00-06:00", "brand": "Boot Barn", "brand:wikidata": "Q109825187", "nsi_id": "bootbarn-0a21d9"}, "geometry": {"type": "Point", "coordinates": [-116.287688, 43.60376]}},
{"type": "Feature", "id": "mYX_ghKveRphCGl7TnvALL5C2MU=", "properties": {"ref": "0131", "@spider": "bootbarn", "clothes": "western", "shop": "clothes", "addr:full": "1951 S 25th E", "addr:city": "Ammon,", "addr:state": "Idaho", "addr:postcode": "83406", "name": "Jackson Hole", "phone": "(208) 522-0842", "website": "https://www.bootbarn.com/stores?StoreID=0131", "opening_hours": "Mo-Sa 09:00-08:00,09:00-08:00; Su 11:00-06:00,11:00-06:00", "brand": "Boot Barn", "brand:wikidata": "Q109825187", "nsi_id": "bootbarn-0a21d9"}, "geometry": {"type": "Point", "coordinates": [-111.982636, 43.479849]}},
{"type": "Feature", "id": "HR605TuiapEMg_IjXBbRHLmEn8A=", "properties": {"ref": "0115", "@spider": "bootbarn", "clothes": "western", "shop": "clothes", "addr:full": "3120 N Oak Street Ext", "addr:city": "Valdosta,", "addr:state": "Georgia", "addr:postcode": "31602", "name": "Tallahassee", "phone": "(229) 242-0337", "website": "https://www.bootbarn.com/stores?StoreID=0115", "opening_hours": "Mo-Sa 09:00-09:00,09:00-09:00; Su 12:00-06:00,12:00-06:00", "brand": "Boot Barn", "brand:wikidata": "Q109825187", "nsi_id": "bootbarn-0a21d9"}, "geometry": {"type": "Point", "coordinates": [-83.292426, 30.880265]}},
{"type": "Feature", "id": "ti8VNCT50YmRcg7C87sJY4R9fXo=", "properties": {"ref": "0225", "@spider": "bootbarn", "clothes": "western", "shop": "clothes", "addr:full": "858 Dawsonville Hwy", "addr:city": "Gainesville,", "addr:state": "Georgia", "addr:postcode": "30501", "name": "Easley", "phone": "(770) 535-1752", "website": "https://www.bootbarn.com/stores?StoreID=0225", "opening_hours": "Mo-Sa 09:00-09:00,09:00-09:00; Su 11:00-07:00,11:00-07:00", "brand": "Boot Barn", "brand:wikidata": "Q109825187", "nsi_id": "bootbarn-0a21d9"}, "geometry": {"type": "Point", "coordinates": [-83.854974, 34.298915]}},
{"type": "Feature", "id": "mKML_k1efIyRxjUEajR3gzsnCtc=", "properties": {"ref": "0308", "@spider": "bootbarn", "clothes": "western", "shop": "clothes", "addr:full": "5555 Whittlesey Blvd", "addr:city": "Columbus,", "addr:state": "Georgia", "addr:postcode": "31909", "name": "Trussville", "phone": "(706) 604-1299", "website": "https://www.bootbarn.com/stores?StoreID=0308", "opening_hours": "Mo-Sa 09:00-09:00,09:00-09:00; Su 12:00-06:00,12:00-06:00", "brand": "Boot Barn", "brand:wikidata": "Q109825187", "nsi_id": "bootbarn-0a21d9"}, "geometry": {"type": "Point", "coordinates": [-84.94712, 32.544884]}},
{"type": "Feature", "id": "K6XQGyatrQCRr2JjSzDXsI69vJ4=", "properties": {"ref": "0389", "@spider": "bootbarn", "clothes": "western", "shop": "clothes", "addr:full": "8515 W Hillsborough Ave", "addr:city": "Tampa,", "addr:state": "Florida", "addr:postcode": "33615", "name": "Tampa", "phone": "(813) 869-3500", "website": "https://www.bootbarn.com/stores?StoreID=0389", "opening_hours": "Mo-Sa 09:00-09:00,09:00-09:00; Su 10:00-07:00,10:00-07:00", "brand": "Boot Barn", "brand:wikidata": "Q109825187", "nsi_id": "bootbarn-0a21d9"}, "geometry": {"type": "Point", "coordinates": [-82.58002817630768, 27.99802902421006]}},
{"type": "Feature", "id": "CFvs23yEAejXe2AQgqm8xtah6A0=", "properties": {"ref": "0249", "@spider": "bootbarn", "clothes": "western", "shop": "clothes", "addr:full": "9931 East Adamo Dr", "addr:city": "Tampa,", "addr:state": "Florida", "addr:postcode": "33619", "name": "Tampa", "phone": "(813) 444-5655", "website": "https://www.bootbarn.com/stores?StoreID=0249", "opening_hours": "Mo-Sa 09:00-09:00,09:00-09:00; Su 12:00-06:00,12:00-06:00", "brand": "Boot Barn", "brand:wikidata": "Q109825187", "nsi_id": "bootbarn-0a21d9"}, "geometry": {"type": "Point", "coordinates": [-82.340018, 27.945138]}},
{"type": "Feature", "id": "3ztfTtC_nlPX5ew-rJE7o-7FN0s=", "properties": {"ref": "0138", "@spider": "bootbarn", "clothes": "western", "shop": "clothes", "addr:full": "4051 Lagniappe Way", "addr:city": "Tallahassee,", "addr:state": "Florida", "addr:postcode": "32317", "name": "Valdosta", "phone": "(850) 402-1669", "website": "https://www.bootbarn.com/stores?StoreID=0138", "opening_hours": "Mo-Sa 10:00-09:00,10:00-09:00; Su 12:00-06:00,12:00-06:00", "brand": "Boot Barn", "brand:wikidata": "Q109825187", "nsi_id": "bootbarn-0a21d9"}, "geometry": {"type": "Point", "coordinates": [-84.215024, 30.460962]}},
{"type": "Feature", "id": "E4UUSkHiSSLlYDd5FZ2-QvByBUk=", "properties": {"ref": "0334", "@spider": "bootbarn", "clothes": "western", "shop": "clothes", "addr:full": "5716 International Dr", "addr:city": "Orlando,", "addr:state": "Florida", "addr:postcode": "32819", "name": "Kissimmee", "phone": "(407) 563-1063", "website": "https://www.bootbarn.com/stores?StoreID=0334", "opening_hours": "Mo-Sa 09:00-09:00,09:00-09:00; Su 11:00-06:00,11:00-06:00", "brand": "Boot Barn", "brand:wikidata": "Q109825187", "nsi_id": "bootbarn-0a21d9"}, "geometry": {"type": "Point", "coordinates": [-81.4577, 28.461738]}},
{"type": "Feature", "id": "f-7D1wvNqSHAB105CidMdLjcvTo=", "properties": {"ref": "0113", "@spider": "bootbarn", "clothes": "western", "shop": "clothes", "addr:full": "249 Blanding Blvd", "addr:city": "Orange Park,", "addr:state": "Florida", "addr:postcode": "32073", "name": "Gainesville", "phone": "(904) 264-3838", "website": "https://www.bootbarn.com/stores?StoreID=0113", "opening_hours": "Mo-Sa 09:00-09:00,09:00-09:00; Su 11:00-06:00,11:00-06:00", "brand": "Boot Barn", "brand:wikidata": "Q109825187", "nsi_id": "bootbarn-0a21d9"}, "geometry": {"type": "Point", "coordinates": [-81.744857, 30.173929]}},
{"type": "Feature", "id": "7tst3oCACfydJpcS609ifAR2VF8=", "properties": {"ref": "0101", "@spider": "bootbarn", "clothes": "western", "shop": "clothes", "addr:full": "2230 NW 10th St", "addr:city": "Ocala,", "addr:state": "Florida", "addr:postcode": "34475", "name": "Lady Lake", "phone": "(352) 629-7676", "website": "https://www.bootbarn.com/stores?StoreID=0101", "opening_hours": "Mo-Sa 09:00-09:00,09:00-09:00; Su 12:00-06:00,12:00-06:00", "brand": "Boot Barn", "brand:wikidata": "Q109825187", "nsi_id": "bootbarn-0a21d9"}, "geometry": {"type": "Point", "coordinates": [-82.160059, 29.19658]}},
{"type": "Feature", "id": "6WQ7cNeidyPaD-spW1ywUMfFtVI=", "properties": {"ref": "0105", "@spider": "bootbarn", "clothes": "western", "shop": "clothes", "addr:full": "464 N Highway 27/441", "addr:city": "Lady Lake,", "addr:state": "Florida", "addr:postcode": "32159", "name": "Ocala", "phone": "(352) 259-8005", "website": "https://www.bootbarn.com/stores?StoreID=0105", "opening_hours": "Mo-Sa 09:00-09:00,09:00-09:00; Su 11:00-06:00,11:00-06:00", "brand": "Boot Barn", "brand:wikidata": "Q109825187", "nsi_id": "bootbarn-0a21d9"}, "geometry": {"type": "Point", "coordinates": [-81.93004, 28.929121]}},
{"type": "Feature", "id": "t4q1liNgC7k-8sczA-ukREqFxDs=", "properties": {"ref": "0198", "@spider": "bootbarn", "clothes": "western", "shop": "clothes", "addr:full": "640 Centerview Blvd", "addr:city": "Kissimmee,", "addr:state": "Florida", "addr:postcode": "34741", "name": "Orlando", "phone": "(407) 343-8148", "website": "https://www.bootbarn.com/stores?StoreID=0198", "opening_hours": "Mo-Sa 10:00-09:00,10:00-09:00; Su 12:00-06:00,12:00-06:00", "brand": "Boot Barn", "brand:wikidata": "Q109825187", "nsi_id": "bootbarn-0a21d9"}, "geometry": {"type": "Point", "coordinates": [-81.407255, 28.339249]}},
{"type": "Feature", "id": "dfIatPj7eSI29gYaoSQHcwgcnJk=", "properties": {"ref": "0108", "@spider": "bootbarn", "clothes": "western", "shop": "clothes", "addr:full": "3638 SW Archer Road", "addr:city": "Gainesville,", "addr:state": "Florida", "addr:postcode": "32608", "name": "Ocala", "phone": "(352) 372-8776", "website": "https://www.bootbarn.com/stores?StoreID=0108", "opening_hours": "Mo-Sa 09:00-09:00,09:00-09:00; Su 12:00-06:00,12:00-06:00", "brand": "Boot Barn", "brand:wikidata": "Q109825187", "nsi_id": "bootbarn-0a21d9"}, "geometry": {"type": "Point", "coordinates": [-82.37820268164634, 29.622882227293772]}},
{"type": "Feature", "id": "IchdNnM6XhjXS3i5Xx9GUhrxPEs=", "properties": {"ref": "0375", "@spider": "bootbarn", "clothes": "western", "shop": "clothes", "addr:full": "1315 Churchmans Road", "addr:city": "Newark,", "addr:state": "Delaware", "addr:postcode": "19713", "name": "Dover", "phone": "(302) 444-0699", "website": "https://www.bootbarn.com/stores?StoreID=0375", "opening_hours": "Mo-Sa 09:00-09:00,09:00-09:00; Su 10:00-07:00,10:00-07:00", "brand": "Boot Barn", "brand:wikidata": "Q109825187", "nsi_id": "bootbarn-0a21d9"}, "geometry": {"type": "Point", "coordinates": [-75.66527, 39.693947]}},
{"type": "Feature", "id": "c9lgYWG5fiYizaV_mpSj8rGJhbU=", "properties": {"ref": "0378", "@spider": "bootbarn", "clothes": "western", "shop": "clothes", "addr:full": "1231 N Dupont Highway", "addr:city": "Dover,", "addr:state": "Delaware", "addr:postcode": "19901", "name": "Millville", "phone": "(302) 608-6060", "website": "https://www.bootbarn.com/stores?StoreID=0378", "opening_hours": "Mo-Sa 09:00-09:00,09:00-09:00; Su 10:00-07:00,10:00-07:00", "brand": "Boot Barn", "brand:wikidata": "Q109825187", "nsi_id": "bootbarn-0a21d9"}, "geometry": {"type": "Point", "coordinates": [-75.54054, 39.18994]}},
{"type": "Feature", "id": "FOnS7wseQ2nw4xKXeY1jodYIJ3Y=", "properties": {"ref": "0143", "@spider": "bootbarn", "clothes": "western", "shop": "clothes", "addr:full": "14384 Lincoln St", "addr:city": "Thornton,", "addr:state": "Colorado", "addr:postcode": "80023", "name": "Denver - Northglenn", "phone": "(303) 255-7399", "website": "https://www.bootbarn.com/stores?StoreID=0143", "opening_hours": "Mo-Sa 09:00-08:00,09:00-08:00; Su 10:00-06:00,10:00-06:00", "brand": "Boot Barn", "brand:wikidata": "Q109825187", "nsi_id": "bootbarn-0a21d9"}, "geometry": {"type": "Point", "coordinates": [-104.983048, 39.956287]}},
{"type": "Feature", "id": "QljcEfOievI-21XS6sNwAa0pOpc=", "properties": {"ref": "0090", "@spider": "bootbarn", "clothes": "western", "shop": "clothes", "addr:full": "3429 Dillon Dr", "addr:city": "Pueblo,", "addr:state": "Colorado", "addr:postcode": "81008", "name": "Colorado Springs", "phone": "(719) 542-9274", "website": "https://www.bootbarn.com/stores?StoreID=0090", "opening_hours": "Mo-Fr 10:00-08:00,10:00-08:00; Sa 10:00-07:00,10:00-07:00; Su 12:00-06:00,12:00-06:00", "brand": "Boot Barn", "brand:wikidata": "Q109825187", "nsi_id": "bootbarn-0a21d9"}, "geometry": {"type": "Point", "coordinates": [-104.608833, 38.302204]}},
{"type": "Feature", "id": "33mzGiKOU8gHdCrvpHpYXW_bV2Y=", "properties": {"ref": "0368", "@spider": "bootbarn", "clothes": "western", "shop": "clothes", "addr:full": "3511 N. Salida Court Suite 30", "addr:city": "Aurora,", "addr:state": "Colorado", "addr:postcode": "80011", "name": "Aurora", "phone": "(720) 673-0717", "website": "https://www.bootbarn.com/stores?StoreID=0368", "opening_hours": "Mo-Sa 09:00-08:00,09:00-08:00; Su 10:00-06:00,10:00-06:00", "brand": "Boot Barn", "brand:wikidata": "Q109825187", "nsi_id": "bootbarn-0a21d9"}, "geometry": {"type": "Point", "coordinates": [-104.779945, 39.763172]}},
{"type": "Feature", "id": "UqDfsVCMTv86wjmNYhm8Dq76U9c=", "properties": {"ref": "0204", "@spider": "bootbarn", "clothes": "western", "shop": "clothes", "addr:full": "1268 S Hover St", "addr:city": "Longmont,", "addr:state": "Colorado", "addr:postcode": "80501", "name": "Thornton", "phone": "(303) 682-3273", "website": "https://www.bootbarn.com/stores?StoreID=0204", "opening_hours": "Mo-Sa 09:00-08:00,09:00-08:00; Su 11:00-06:00,11:00-06:00", "brand": "Boot Barn", "brand:wikidata": "Q109825187", "nsi_id": "bootbarn-0a21d9"}, "geometry": {"type": "Point", "coordinates": [-105.129076, 40.143484]}},
{"type": "Feature", "id": "1XPqUu9AMK1AnA6XWxSVlX5_Mto=", "properties": {"ref": "0386", "@spider": "bootbarn", "clothes": "western", "shop": "clothes", "addr:full": "5396 S. Wadsworth Blvd.", "addr:city": "Lakewood,", "addr:state": "Colorado", "addr:postcode": "80123", "name": "Denver - Greenwood Village", "phone": "(720) 673-0636", "website": "https://www.bootbarn.com/stores?StoreID=0386", "opening_hours": "Mo-Sa 09:00-08:00,09:00-08:00; Su 10:00-06:00,10:00-06:00", "brand": "Boot Barn", "brand:wikidata": "Q109825187", "nsi_id": "bootbarn-0a21d9"}, "geometry": {"type": "Point", "coordinates": [-105.08807, 39.618763]}},
{"type": "Feature", "id": "uNnyu8ByXJY_b9dR2_jBaEF1cuY=", "properties": {"ref": "0134", "@spider": "bootbarn", "clothes": "western", "shop": "clothes", "addr:full": "2651 W 29th St", "addr:city": "Greeley,", "addr:state": "Colorado", "addr:postcode": "80631", "name": "Fort Collins", "phone": "(970) 506-2793", "website": "https://www.bootbarn.com/stores?StoreID=0134", "opening_hours": "Mo-Sa 09:00-08:00,09:00-08:00; Su 11:00-06:00,11:00-06:00", "brand": "Boot Barn", "brand:wikidata": "Q109825187", "nsi_id": "bootbarn-0a21d9"}, "geometry": {"type": "Point", "coordinates": [-104.724564, 40.391551]}},
{"type": "Feature", "id": "X9sN83K51wgJ-4gfAyt3mxPSTRQ=", "properties": {"ref": "0086", "@spider": "bootbarn", "clothes": "western", "shop": "clothes", "addr:full": "2424 US 6", "addr:city": "Grand Junction,", "addr:state": "Colorado", "addr:postcode": "81505", "name": "Glenwood Springs", "phone": "(970) 241-4310", "website": "https://www.bootbarn.com/stores?StoreID=0086", "opening_hours": "Mo-Sa 10:00-08:00,10:00-08:00; Su 11:00-06:00,11:00-06:00", "brand": "Boot Barn", "brand:wikidata": "Q109825187", "nsi_id": "bootbarn-0a21d9"}, "geometry": {"type": "Point", "coordinates": [-108.604017, 39.091995]}},
{"type": "Feature", "id": "NDlNMPahcfv0hXZdjlkGRgnTqX4=", "properties": {"ref": "0100", "@spider": "bootbarn", "clothes": "western", "shop": "clothes", "addr:full": "51027 Highway 6", "addr:city": "Glenwood Springs,", "addr:state": "Colorado", "addr:postcode": "81601", "name": "Grand Junction - Mesa Mall", "phone": "(970) 945-9513", "website": "https://www.bootbarn.com/stores?StoreID=0100", "opening_hours": "Mo-Sa 10:00-07:00,10:00-07:00; Su 11:00-05:00,11:00-05:00", "brand": "Boot Barn", "brand:wikidata": "Q109825187", "nsi_id": "bootbarn-0a21d9"}, "geometry": {"type": "Point", "coordinates": [-107.365691, 39.563082]}},
{"type": "Feature", "id": "9ecXdRoNjM6NMeXho3VrxL6LRPc=", "properties": {"ref": "0088", "@spider": "bootbarn", "clothes": "western", "shop": "clothes", "addr:full": "4414 S College Ave", "addr:city": "Fort Collins,", "addr:state": "Colorado", "addr:postcode": "80525", "name": "Greeley", "phone": "(970) 206-0705", "website": "https://www.bootbarn.com/stores?StoreID=0088", "opening_hours": "Mo-Sa 09:00-09:00,09:00-09:00; Su 10:00-06:00,10:00-06:00", "brand": "Boot Barn", "brand:wikidata": "Q109825187", "nsi_id": "bootbarn-0a21d9"}, "geometry": {"type": "Point", "coordinates": [-105.075978, 40.525485]}},
{"type": "Feature", "id": "ol29CQtTD4kwX9FdW7FWoYmKjbc=", "properties": {"ref": "0084", "@spider": "bootbarn", "clothes": "western", "shop": "clothes", "addr:full": "830 S Camino Del Rio", "addr:city": "Durango,", "addr:state": "Colorado", "addr:postcode": "81301", "name": "Farmington", "phone": "(970) 385-1054", "website": "https://www.bootbarn.com/stores?StoreID=0084", "opening_hours": "Mo-Sa 09:00-08:00,09:00-08:00; Su 11:00-06:00,11:00-06:00", "brand": "Boot Barn", "brand:wikidata": "Q109825187", "nsi_id": "bootbarn-0a21d9"}, "geometry": {"type": "Point", "coordinates": [-107.870918, 37.240939]}},
{"type": "Feature", "id": "IGfIiZu4rAg-uKn0Hi3PQq0V8YM=", "properties": {"ref": "0310", "@spider": "bootbarn", "clothes": "western", "shop": "clothes", "addr:full": "10300 Bannock St", "addr:city": "Northglenn,", "addr:state": "Colorado", "addr:postcode": "80260", "name": "Thornton", "phone": "(303) 450-9999", "website": "https://www.bootbarn.com/stores?StoreID=0310", "opening_hours": "Mo-Sa 09:00-09:00,09:00-09:00; Su 11:00-06:00,11:00-06:00", "brand": "Boot Barn", "brand:wikidata": "Q109825187", "nsi_id": "bootbarn-0a21d9"}, "geometry": {"type": "Point", "coordinates": [-104.98882, 39.882894]}},
{"type": "Feature", "id": "Sttio4dLHjcibrYehHZ6TUra698=", "properties": {"ref": "0304", "@spider": "bootbarn", "clothes": "western", "shop": "clothes", "addr:full": "8500 E Orchard Rd", "addr:city": "Englewood,", "addr:state": "Colorado", "addr:postcode": "80111", "name": "Aurora", "phone": "(303) 773-3311", "website": "https://www.bootbarn.com/stores?StoreID=0304", "opening_hours": "Mo-Sa 09:00-08:00,09:00-08:00; Su 11:00-06:00,11:00-06:00", "brand": "Boot Barn", "brand:wikidata": "Q109825187", "nsi_id": "bootbarn-0a21d9"}, "geometry": {"type": "Point", "coordinates": [-104.890181, 39.606948]}},
{"type": "Feature", "id": "WTaV80CxXK6EjbYIWXTRFV39wQI=", "properties": {"ref": "0202", "@spider": "bootbarn", "clothes": "western", "shop": "clothes", "addr:full": "13271 Bass Pro Dr", "addr:city": "Colorado Springs,", "addr:state": "Colorado", "addr:postcode": "80921", "name": "Colorado Springs", "phone": "(719) 481-0297", "website": "https://www.bootbarn.com/stores?StoreID=0202", "opening_hours": "Mo-Sa 09:00-08:00,09:00-08:00; Su 11:00-06:00,11:00-06:00", "brand": "Boot Barn", "brand:wikidata": "Q109825187", "nsi_id": "bootbarn-0a21d9"}, "geometry": {"type": "Point", "coordinates": [-104.823602, 39.025302]}},
{"type": "Feature", "id": "ARuxC6G7HbGe15z8Tr4fAyF-0qE=", "properties": {"ref": "0085", "@spider": "bootbarn", "clothes": "western", "shop": "clothes", "addr:full": "5625 N Academy Blvd", "addr:city": "Colorado Springs,", "addr:state": "Colorado", "addr:postcode": "80918", "name": "Copper Ridge", "phone": "(719) 593-7875", "website": "https://www.bootbarn.com/stores?StoreID=0085", "opening_hours": "Mo-Sa 09:00-08:00,09:00-08:00; Su 10:00-06:00,10:00-06:00", "brand": "Boot Barn", "brand:wikidata": "Q109825187", "nsi_id": "bootbarn-0a21d9"}, "geometry": {"type": "Point", "coordinates": [-104.787496, 38.912079]}},
{"type": "Feature", "id": "d4gFf891MwCkZoSBgkuJkjArnW8=", "properties": {"ref": "0199", "@spider": "bootbarn", "clothes": "western", "shop": "clothes", "addr:full": "6360 S Parker Rd", "addr:city": "Aurora,", "addr:state": "Colorado", "addr:postcode": "80016", "name": "Denver - Greenwood Village", "phone": "(303) 617-9128", "website": "https://www.bootbarn.com/stores?StoreID=0199", "opening_hours": "Mo-Sa 09:00-08:00,09:00-08:00; Su 10:00-06:00,10:00-06:00", "brand": "Boot Barn", "brand:wikidata": "Q109825187", "nsi_id": "bootbarn-0a21d9"}, "geometry": {"type": "Point", "coordinates": [-104.803599, 39.600847]}},
{"type": "Feature", "id": "X-pJTL8oRFDmwxa7gm0tpMV3JvQ=", "properties": {"ref": "0035", "@spider": "bootbarn", "clothes": "western", "shop": "clothes", "addr:full": "603 Colusa Ave", "addr:city": "Yuba City,", "addr:state": "California", "addr:postcode": "95991", "name": "Rocklin", "phone": "(530) 671-3245", "website": "https://www.bootbarn.com/stores?StoreID=0035", "opening_hours": "Mo-Sa 09:00-08:00,09:00-08:00; Su 10:00-06:00,10:00-06:00", "brand": "Boot Barn", "brand:wikidata": "Q109825187", "nsi_id": "bootbarn-0a21d9"}, "geometry": {"type": "Point", "coordinates": [-121.621709, 39.141773]}},
{"type": "Feature", "id": "0Ol0V_0wxHJ41yB36g5l6p7-NA4=", "properties": {"ref": "0294", "@spider": "bootbarn", "clothes": "western", "shop": "clothes", "addr:full": "4018 S Mooney Blvd", "addr:city": "Visalia,", "addr:state": "California", "addr:postcode": "93277", "name": "Tulare", "phone": "(559) 623-9451", "website": "https://www.bootbarn.com/stores?StoreID=0294", "opening_hours": "Mo-Sa 10:00-08:00,10:00-08:00; Su 10:00-06:00,10:00-06:00", "brand": "Boot Barn", "brand:wikidata": "Q109825187", "nsi_id": "bootbarn-0a21d9"}, "geometry": {"type": "Point", "coordinates": [-119.31272186900482, 36.2938666556528]}},
{"type": "Feature", "id": "WaWT_PK27tP600XqRoBHhUQRlTA=", "properties": {"ref": "0014", "@spider": "bootbarn", "clothes": "western", "shop": "clothes", "addr:full": "13785 Park Ave", "addr:city": "Victorville,", "addr:state": "California", "addr:postcode": "92392", "name": "San Bernardino", "phone": "(760) 241-3361", "website": "https://www.bootbarn.com/stores?StoreID=0014", "opening_hours": "Mo-Fr 10:00-08:00,10:00-08:00; Sa 10:00-07:00,10:00-07:00; Su 10:00-06:00,10:00-06:00", "brand": "Boot Barn", "brand:wikidata": "Q109825187", "nsi_id": "bootbarn-0a21d9"}, "geometry": {"type": "Point", "coordinates": [-117.326596, 34.500678]}},
{"type": "Feature", "id": "Z66Zfad-U6VWO1_PEXOLzBb7-nU=", "properties": {"ref": "0003", "@spider": "bootbarn", "clothes": "western", "shop": "clothes", "addr:full": "1414 W 7th St", "addr:city": "Upland,", "addr:state": "California", "addr:postcode": "91786", "name": "Chino Hills", "phone": "(909) 920-3222", "website": "https://www.bootbarn.com/stores?StoreID=0003", "opening_hours": "Mo-Fr 10:00-08:00,10:00-08:00; Sa 10:00-06:00,10:00-06:00; Su 11:00-06:00,11:00-06:00", "brand": "Boot Barn", "brand:wikidata": "Q109825187", "nsi_id": "bootbarn-0a21d9"}, "geometry": {"type": "Point", "coordinates": [-117.676437, 34.087754]}},
{"type": "Feature", "id": "Vqr_PxZrFqFUBAVm0jAQO0Mu3ms=", "properties": {"ref": "0245", "@spider": "bootbarn", "clothes": "western", "shop": "clothes", "addr:full": "1375 North State Street", "addr:city": "Ukiah,", "addr:state": "California", "addr:postcode": "95482", "name": "Santa Rosa", "phone": "(707) 380-2100", "website": "https://www.bootbarn.com/stores?StoreID=0245", "opening_hours": "Mo-Sa 10:00-08:00,10:00-08:00; Su 11:00-07:00,11:00-07:00", "brand": "Boot Barn", "brand:wikidata": "Q109825187", "nsi_id": "bootbarn-0a21d9"}, "geometry": {"type": "Point", "coordinates": [-123.209162, 39.168867]}},
{"type": "Feature", "id": "o0JZvDqyL39oBDqTq05yK04C6Hs=", "properties": {"ref": "0028", "@spider": "bootbarn", "clothes": "western", "shop": "clothes", "addr:full": "3214 Countryside Dr", "addr:city": "Turlock,", "addr:state": "California", "addr:postcode": "95380", "name": "Modesto", "phone": "(209) 667-0141", "website": "https://www.bootbarn.com/stores?StoreID=0028", "opening_hours": "Mo-Fr 10:00-08:00,10:00-08:00; Sa-Su 10:00-06:00,10:00-06:00", "brand": "Boot Barn", "brand:wikidata": "Q109825187", "nsi_id": "bootbarn-0a21d9"}, "geometry": {"type": "Point", "coordinates": [-120.88009417834988, 37.52277876580556]}},
{"type": "Feature", "id": "3ELBe8JstHTySfey7fCJhPRvb_0=", "properties": {"ref": "0039", "@spider": "bootbarn", "clothes": "western", "shop": "clothes", "addr:full": "1799 Retherford St", "addr:city": "Tulare,", "addr:state": "California", "addr:postcode": "93274", "name": "Visalia", "phone": "(559) 688-7456", "website": "https://www.bootbarn.com/stores?StoreID=0039", "opening_hours": "Mo-Sa 09:00-08:00,09:00-08:00; Su 10:00-07:00,10:00-07:00", "brand": "Boot Barn", "brand:wikidata": "Q109825187", "nsi_id": "bootbarn-0a21d9"}, "geometry": {"type": "Point", "coordinates": [-119.338054, 36.23088]}},
{"type": "Feature", "id": "7JJ9NHrxoSA4Ot7Irva_X-0EIiA=", "properties": {"ref": "0237", "@spider": "bootbarn", "clothes": "western", "shop": "clothes", "addr:full": "2473 Naglee Rd", "addr:city": "Tracy,", "addr:state": "California", "addr:postcode": "95304", "name": "Manteca", "phone": "(209) 830-4573", "website": "https://www.bootbarn.com/stores?StoreID=0237", "opening_hours": "Mo-Fr 10:00-08:00,10:00-08:00; Sa 09:00-07:00,09:00-07:00; Su 10:00-06:00,10:00-06:00", "brand": "Boot Barn", "brand:wikidata": "Q109825187", "nsi_id": "bootbarn-0a21d9"}, "geometry": {"type": "Point", "coordinates": [-121.466548, 37.757648]}},
{"type": "Feature", "id": "2z5E2Q9QbPIhdw2MCFknxJchjJM=", "properties": {"ref": "0007", "@spider": "bootbarn", "clothes": "western", "shop": "clothes", "addr:full": "19800 Hawthorne Blvd", "addr:city": "Torrance,", "addr:state": "California", "addr:postcode": "90503", "name": "Los Alamitos", "phone": "(310) 214-8555", "website": "https://www.bootbarn.com/stores?StoreID=0007", "opening_hours": "Mo-Fr 10:00-08:00,10:00-08:00; Sa 10:00-06:00,10:00-06:00; Su 11:00-06:00,11:00-06:00", "brand": "Boot Barn", "brand:wikidata": "Q109825187", "nsi_id": "bootbarn-0a21d9"}, "geometry": {"type": "Point", "coordinates": [-118.35225267361069, 33.8519966841121]}},
{"type": "Feature", "id": "vmN8VHZ2R83loksMDJEbcK2C3BM=", "properties": {"ref": "0013", "@spider": "bootbarn", "clothes": "western", "shop": "clothes", "addr:full": "27250 Madison Ave", "addr:city": "Temecula,", "addr:state": "California", "addr:postcode": "92590", "name": "Menifee", "phone": "(951) 296-6500", "website": "https://www.bootbarn.com/stores?StoreID=0013", "opening_hours": "Mo-Fr 10:00-08:00,10:00-08:00; Sa 10:00-07:00,10:00-07:00; Su 10:00-06:00,10:00-06:00", "brand": "Boot Barn", "brand:wikidata": "Q109825187", "nsi_id": "bootbarn-0a21d9"}, "geometry": {"type": "Point", "coordinates": [-117.167147, 33.526672]}},
{"type": "Feature", "id": "Jco3OuST0QRWgOHqFPTWr90uUrk=", "properties": {"ref": "0283", "@spider": "bootbarn", "clothes": "western", "shop": "clothes", "addr:full": "913 West March Lane", "addr:city": "Stockton,", "addr:state": "California", "addr:postcode": "95207", "name": "Lodi", "phone": "(209) 474-9550", "website": "https://www.bootbarn.com/stores?StoreID=0283", "opening_hours": "Mo-Fr 10:00-08:00,10:00-08:00; Sa 10:00-07:00,10:00-07:00; Su 10:00-06:00,10:00-06:00", "brand": "Boot Barn", "brand:wikidata": "Q109825187", "nsi_id": "bootbarn-0a21d9"}, "geometry": {"type": "Point", "coordinates": [-121.317194, 37.991448]}},
{"type": "Feature", "id": "lnphUGVVmoIMTQxji0dYPqgPRVc=", "properties": {"ref": "0261", "@spider": "bootbarn", "clothes": "western", "shop": "clothes", "addr:full": "425 Cochran Street", "addr:city": "Simi Valley,", "addr:state": "California", "addr:postcode": "93065", "name": "Canyon Country", "phone": "(805) 433-6025", "website": "https://www.bootbarn.com/stores?StoreID=0261", "opening_hours": "Mo-Fr 10:00-08:00,10:00-08:00; Sa 10:00-06:00,10:00-06:00; Su 11:00-06:00,11:00-06:00", "brand": "Boot Barn", "brand:wikidata": "Q109825187", "nsi_id": "bootbarn-0a21d9"}, "geometry": {"type": "Point", "coordinates": [-118.789382, 34.281793]}},
{"type": "Feature", "id": "E4zrhViNrV-Qh2HKizPAACJRljU=", "properties": {"ref": "0235", "@spider": "bootbarn", "clothes": "western", "shop": "clothes", "addr:full": "3390 Floral Ave", "addr:city": "Selma,", "addr:state": "California", "addr:postcode": "93662", "name": "Clovis", "phone": "(559) 896-1641", "website": "https://www.bootbarn.com/stores?StoreID=0235", "opening_hours": "Mo-Fr 09:00-09:00,09:00-09:00; Sa 09:00-07:00,09:00-07:00; Su 10:00-07:00,10:00-07:00", "brand": "Boot Barn", "brand:wikidata": "Q109825187", "nsi_id": "bootbarn-0a21d9"}, "geometry": {"type": "Point", "coordinates": [-119.634417, 36.579937]}},
{"type": "Feature", "id": "T5RPcV1l6KhuPNjrdeH-XuFl-iw=", "properties": {"ref": "0045", "@spider": "bootbarn", "clothes": "western", "shop": "clothes", "addr:full": "1445 Santa Rosa Avenue", "addr:city": "Santa Rosa,", "addr:state": "California", "addr:postcode": "95404", "name": "Fairfield", "phone": "(707) 528-1554", "website": "https://www.bootbarn.com/stores?StoreID=0045", "opening_hours": "Mo-Sa 09:00-08:00,09:00-08:00; Su 11:00-06:00,11:00-06:00", "brand": "Boot Barn", "brand:wikidata": "Q109825187", "nsi_id": "bootbarn-0a21d9"}, "geometry": {"type": "Point", "coordinates": [-122.714347, 38.423707]}},
{"type": "Feature", "id": "Le0JzkHHj5UzoZuw7rY3TcN4hIg=", "properties": {"ref": "0029", "@spider": "bootbarn", "clothes": "western", "shop": "clothes", "addr:full": "101 S Broadway", "addr:city": "Santa Maria,", "addr:state": "California", "addr:postcode": "93454", "name": "Santa Maria", "phone": "(805) 614-9222", "website": "https://www.bootbarn.com/stores?StoreID=0029", "opening_hours": "Mo-Fr 10:00-08:00,10:00-08:00; Sa-Su 10:00-06:00,10:00-06:00", "brand": "Boot Barn", "brand:wikidata": "Q109825187", "nsi_id": "bootbarn-0a21d9"}, "geometry": {"type": "Point", "coordinates": [-120.436191, 34.952892]}},
{"type": "Feature", "id": "vh5uwYz6-Byy0B1kXNkxq5sz_7k=", "properties": {"ref": "0337", "@spider": "bootbarn", "clothes": "western", "shop": "clothes", "addr:full": "435 East Betteravia Road", "addr:city": "Santa Maria,", "addr:state": "California", "addr:postcode": "93454", "name": "Santa Maria", "phone": "(805) 608-4141", "website": "https://www.bootbarn.com/stores?StoreID=0337", "opening_hours": "Mo-Fr 10:00-08:00,10:00-08:00; Sa 10:00-07:00,10:00-07:00; Su 10:00-06:00,10:00-06:00", "brand": "Boot Barn", "brand:wikidata": "Q109825187", "nsi_id": "bootbarn-0a21d9"}, "geometry": {"type": "Point", "coordinates": [-120.42643, 34.92384]}},
{"type": "Feature", "id": "EYoaJZa5XdGbRo8W9ToIQEuBQC8=", "properties": {"ref": "0027", "@spider": "bootbarn", "clothes": "western", "shop": "clothes", "addr:full": "12915 Monterey Hwy", "addr:city": "San Martin,", "addr:state": "California", "addr:postcode": "95046", "name": "Hollister", "phone": "(408) 683-2686", "website": "https://www.bootbarn.com/stores?StoreID=0027", "opening_hours": "Mo-Fr 09:00-07:00,09:00-07:00; Sa 09:00-06:00,09:00-06:00; Su 10:00-06:00,10:00-06:00", "brand": "Boot Barn", "brand:wikidata": "Q109825187", "nsi_id": "bootbarn-0a21d9"}, "geometry": {"type": "Point", "coordinates": [-121.607416, 37.078987]}},
{"type": "Feature", "id": "D4Qqylhh4nkCaoomIzA176vVfF8=", "properties": {"ref": "0009", "@spider": "bootbarn", "clothes": "western", "shop": "clothes", "addr:full": "659 W Arrow Hwy", "addr:city": "San Dimas,", "addr:state": "California", "addr:postcode": "91773", "name": "Upland", "phone": "(909) 599-1955", "website": "https://www.bootbarn.com/stores?StoreID=0009", "opening_hours": "Mo-Fr 10:00-08:00,10:00-08:00; Sa 10:00-06:00,10:00-06:00; Su 11:00-06:00,11:00-06:00", "brand": "Boot Barn", "brand:wikidata": "Q109825187", "nsi_id": "bootbarn-0a21d9"}, "geometry": {"type": "Point", "coordinates": [-117.81771, 34.10595]}},
{"type": "Feature", "id": "1AByhOTzD3rHxJvNDPexP0ftznw=", "properties": {"ref": "0004", "@spider": "bootbarn", "clothes": "western", "shop": "clothes", "addr:full": "464 E Redlands Blvd", "addr:city": "San Bernardino,", "addr:state": "California", "addr:postcode": "92408", "name": "Riverside", "phone": "(909) 890-1124", "website": "https://www.bootbarn.com/stores?StoreID=0004", "opening_hours": "Mo-Sa 09:00-08:00,09:00-08:00; Su 10:00-07:00,10:00-07:00", "brand": "Boot Barn", "brand:wikidata": "Q109825187", "nsi_id": "bootbarn-0a21d9"}, "geometry": {"type": "Point", "coordinates": [-117.275369, 34.063283]}},
{"type": "Feature", "id": "gh6WE-S3ZyZQYP62sXeFGqWKazM=", "properties": {"ref": "0046", "@spider": "bootbarn", "clothes": "western", "shop": "clothes", "addr:full": "1475 N Davis Rd", "addr:city": "Salinas,", "addr:state": "California", "addr:postcode": "93907", "name": "Hollister", "phone": "(831) 449-7724", "website": "https://www.bootbarn.com/stores?StoreID=0046", "opening_hours": "Mo-Sa 09:00-08:00,09:00-08:00; Su 10:00-06:00,10:00-06:00", "brand": "Boot Barn", "brand:wikidata": "Q109825187", "nsi_id": "bootbarn-0a21d9"}, "geometry": {"type": "Point", "coordinates": [-121.665463, 36.708677]}},
{"type": "Feature", "id": "ekGjDWxg3_8a6YmZPvHf7zsMIaA=", "properties": {"ref": "0236", "@spider": "bootbarn", "clothes": "western", "shop": "clothes", "addr:full": "3684 N Freeway Blvd", "addr:city": "Sacramento,", "addr:state": "California", "addr:postcode": "95834", "name": "Rancho Cordova", "phone": "(916) 620-9690", "website": "https://www.bootbarn.com/stores?StoreID=0236", "opening_hours": "Mo-Sa 09:00-08:00,09:00-08:00; Su 11:00-06:00,11:00-06:00", "brand": "Boot Barn", "brand:wikidata": "Q109825187", "nsi_id": "bootbarn-0a21d9"}, "geometry": {"type": "Point", "coordinates": [-121.496373, 38.637708]}},
{"type": "Feature", "id": "rEqLp_FtqDEi4ViK7cYeBZpVyso=", "properties": {"ref": "0036", "@spider": "bootbarn", "clothes": "western", "shop": "clothes", "addr:full": "4401 Granite Dr", "addr:city": "Rocklin,", "addr:state": "California", "addr:postcode": "95677", "name": "Rancho Cordova", "phone": "(916) 415-1929", "website": "https://www.bootbarn.com/stores?StoreID=0036", "opening_hours": "Mo-Sa 09:00-08:00,09:00-08:00; Su 11:00-06:00,11:00-06:00", "brand": "Boot Barn", "brand:wikidata": "Q109825187", "nsi_id": "bootbarn-0a21d9"}, "geometry": {"type": "Point", "coordinates": [-121.212342, 38.798028]}},
{"type": "Feature", "id": "5T70mjbJqhttOB2r6m460dq0GLY=", "properties": {"ref": "0006", "@spider": "bootbarn", "clothes": "western", "shop": "clothes", "addr:full": "3396 Tyler St", "addr:city": "Riverside,", "addr:state": "California", "addr:postcode": "92503", "name": "Norco", "phone": "(951) 354-9200", "website": "https://www.bootbarn.com/stores?StoreID=0006", "opening_hours": "Mo-Fr 09:00-08:00,09:00-08:00; Sa 09:00-07:00,09:00-07:00; Su 10:00-06:00,10:00-06:00", "brand": "Boot Barn", "brand:wikidata": "Q109825187", "nsi_id": "bootbarn-0a21d9"}, "geometry": {"type": "Point", "coordinates": [-117.459278, 33.904105]}},
{"type": "Feature", "id": "EKsi88eH-WplNt2cPY5QVR0A4wA=", "properties": {"ref": "0087", "@spider": "bootbarn", "clothes": "western", "shop": "clothes", "addr:full": "10910 Olson Dr", "addr:city": "Rancho Cordova,", "addr:state": "California", "addr:postcode": "95670", "name": "Sacramento", "phone": "(916) 858-2358", "website": "https://www.bootbarn.com/stores?StoreID=0087", "opening_hours": "Mo-Sa 10:00-08:00,10:00-08:00; Su 11:00-06:00,11:00-06:00", "brand": "Boot Barn", "brand:wikidata": "Q109825187", "nsi_id": "bootbarn-0a21d9"}, "geometry": {"type": "Point", "coordinates": [-121.283157, 38.594252]}},
{"type": "Feature", "id": "RDaqkUxBR6mD-01-zzdSox0Mgbg=", "properties": {"ref": "0277", "@spider": "bootbarn", "clothes": "western", "shop": "clothes", "addr:full": "675 W. Vandalia Ave.", "addr:city": "Porterville,", "addr:state": "California", "addr:postcode": "93257", "name": "Tulare", "phone": "(559) 854-9009", "website": "https://www.bootbarn.com/stores?StoreID=0277", "opening_hours": "Mo-Sa 10:00-08:00,10:00-08:00; Su 10:00-06:00,10:00-06:00", "brand": "Boot Barn", "brand:wikidata": "Q109825187", "nsi_id": "bootbarn-0a21d9"}, "geometry": {"type": "Point", "coordinates": [-119.03516, 36.052265]}},
{"type": "Feature", "id": "p6io3VXi56XfEE-L_P_Yw03YYlA=", "properties": {"ref": "0016", "@spider": "bootbarn", "clothes": "western", "shop": "clothes", "addr:full": "1340 Spring St", "addr:city": "Paso Robles,", "addr:state": "California", "addr:postcode": "93446", "name": "Santa Maria", "phone": "(805) 238-3453", "website": "https://www.bootbarn.com/stores?StoreID=0016", "opening_hours": "Mo-Fr 09:00-08:00,09:00-08:00; Sa-Su 10:00-06:00,10:00-06:00", "brand": "Boot Barn", "brand:wikidata": "Q109825187", "nsi_id": "bootbarn-0a21d9"}, "geometry": {"type": "Point", "coordinates": [-120.691214, 35.628313]}},
{"type": "Feature", "id": "gbPHy1gGszyWCOfDVmSI2cem0cU=", "properties": {"ref": "0002", "@spider": "bootbarn", "clothes": "western", "shop": "clothes", "addr:full": "431 W Esplanade Dr", "addr:city": "Oxnard,", "addr:state": "California", "addr:postcode": "93036", "name": "Simi Valley", "phone": "(805) 485-4572", "website": "https://www.bootbarn.com/stores?StoreID=0002", "opening_hours": "Mo-Fr 10:00-08:00,10:00-08:00; Sa 09:00-07:00,09:00-07:00; Su 10:00-06:00,10:00-06:00", "brand": "Boot Barn", "brand:wikidata": "Q109825187", "nsi_id": "bootbarn-0a21d9"}, "geometry": {"type": "Point", "coordinates": [-119.17933, 34.237165]}},
{"type": "Feature", "id": "rf0z-Cq5p6qrW6G5u92FiitAhgM=", "properties": {"ref": "0001", "@spider": "bootbarn", "clothes": "western", "shop": "clothes", "addr:full": "606 West Katella Ave", "addr:city": "Orange,", "addr:state": "California", "addr:postcode": "92867", "name": "Los Alamitos", "phone": "(714) 538-2668", "website": "https://www.bootbarn.com/stores?StoreID=0001", "opening_hours": "Mo-Fr 10:00-08:00,10:00-08:00; Sa-Su 10:00-07:00,10:00-07:00", "brand": "Boot Barn", "brand:wikidata": "Q109825187", "nsi_id": "bootbarn-0a21d9"}, "geometry": {"type": "Point", "coordinates": [-117.8585343, 33.80870734]}},
{"type": "Feature", "id": "_DZ6MAdlav03y-8S9wD9NqnzVCY=", "properties": {"ref": "0010", "@spider": "bootbarn", "clothes": "western", "shop": "clothes", "addr:full": "2305 Vista Way", "addr:city": "Oceanside,", "addr:state": "California", "addr:postcode": "92054", "name": "Escondido", "phone": "(760) 757-1392", "website": "https://www.bootbarn.com/stores?StoreID=0010", "opening_hours": "Mo-Fr 10:00-08:00,10:00-08:00; Sa 10:00-07:00,10:00-07:00; Su 10:00-06:00,10:00-06:00", "brand": "Boot Barn", "brand:wikidata": "Q109825187", "nsi_id": "bootbarn-0a21d9"}, "geometry": {"type": "Point", "coordinates": [-117.337783, 33.182123]}},
{"type": "Feature", "id": "mEp1HPaGpOe2oC7987CX2BznoYw=", "properties": {"ref": "0037", "@spider": "bootbarn", "clothes": "western", "shop": "clothes", "addr:full": "960 6th St", "addr:city": "Norco,", "addr:state": "California", "addr:postcode": "92860", "name": "Riverside", "phone": "(951) 520-9255", "website": "https://www.bootbarn.com/stores?StoreID=0037", "opening_hours": "Mo-Fr 09:00-08:00,09:00-08:00; Sa 09:00-07:00,09:00-07:00; Su 10:00-06:00,10:00-06:00", "brand": "Boot Barn", "brand:wikidata": "Q109825187", "nsi_id": "bootbarn-0a21d9"}, "geometry": {"type": "Point", "coordinates": [-117.542758, 33.937709]}},
{"type": "Feature", "id": "SNC07MjZREj1SzYB27ZPsD0zyAg=", "properties": {"ref": "0044", "@spider": "bootbarn", "clothes": "western", "shop": "clothes", "addr:full": "2225 Plaza Pkwy", "addr:city": "Modesto,", "addr:state": "California", "addr:postcode": "95350", "name": "Manteca", "phone": "(209) 523-5391", "website": "https://www.bootbarn.com/stores?StoreID=0044", "opening_hours": "Mo-Fr 09:00-09:00,09:00-09:00; Sa 10:00-07:00,10:00-07:00; Su 10:00-06:00,10:00-06:00", "brand": "Boot Barn", "brand:wikidata": "Q109825187", "nsi_id": "bootbarn-0a21d9"}, "geometry": {"type": "Point", "coordinates": [-121.039536, 37.673124]}},
{"type": "Feature", "id": "4mqhs-Lmfty6BYi0ZJKTGKuZ1w8=", "properties": {"ref": "0262", "@spider": "bootbarn", "clothes": "western", "shop": "clothes", "addr:full": "30428 Haun Road", "addr:city": "Menifee,", "addr:state": "California", "addr:postcode": "92584", "name": "Temecula", "phone": "(951) 566-3388", "website": "https://www.bootbarn.com/stores?StoreID=0262", "opening_hours": "Mo-Fr 10:00-08:00,10:00-08:00; Sa 10:00-07:00,10:00-07:00; Su 10:00-06:00,10:00-06:00", "brand": "Boot Barn", "brand:wikidata": "Q109825187", "nsi_id": "bootbarn-0a21d9"}, "geometry": {"type": "Point", "coordinates": [-117.175198, 33.678321]}},
{"type": "Feature", "id": "MRCetY_OHov6z72gqpPLP0OBHWE=", "properties": {"ref": "0307", "@spider": "bootbarn", "clothes": "western", "shop": "clothes", "addr:full": "285 Commerce Ave", "addr:city": "Manteca,", "addr:state": "California", "addr:postcode": "95336", "name": "Modesto", "phone": "(209) 624-7799", "website": "https://www.bootbarn.com/stores?StoreID=0307", "opening_hours": "Mo-Fr 10:00-08:00,10:00-08:00; Sa-Su 10:00-06:00,10:00-06:00", "brand": "Boot Barn", "brand:wikidata": "Q109825187", "nsi_id": "bootbarn-0a21d9"}, "geometry": {"type": "Point", "coordinates": [-121.19529774705241, 37.79462056097187]}},
{"type": "Feature", "id": "s-u61q_8ECbbPHJN0WuoOYCmJ-8=", "properties": {"ref": "0374", "@spider": "bootbarn", "clothes": "western", "shop": "clothes", "addr:full": "2220 W. Cleveland Ave.", "addr:city": "Madera,", "addr:state": "California", "addr:postcode": "93637", "name": "Fresno", "phone": "(559) 330-2112", "website": "https://www.bootbarn.com/stores?StoreID=0374", "opening_hours": "Mo-Fr 10:00-08:00,10:00-08:00; Sa 09:00-07:00,09:00-07:00; Su 10:00-06:00,10:00-06:00", "brand": "Boot Barn", "brand:wikidata": "Q109825187", "nsi_id": "bootbarn-0a21d9"}, "geometry": {"type": "Point", "coordinates": [-120.08359, 36.973583]}},
{"type": "Feature", "id": "IcHmFTIhGxQ_IkuyH7VVnspBcc0=", "properties": {"ref": "0256", "@spider": "bootbarn", "clothes": "western", "shop": "clothes", "addr:full": "1989 E. Pacheco Blvd", "addr:city": "Los Banos,", "addr:state": "California", "addr:postcode": "93635", "name": "Atwater", "phone": "(209) 837-9410", "website": "https://www.bootbarn.com/stores?StoreID=0256", "opening_hours": "Mo-Fr 10:00-08:00,10:00-08:00; Sa 09:00-06:00,09:00-06:00; Su 10:00-06:00,10:00-06:00", "brand": "Boot Barn", "brand:wikidata": "Q109825187", "nsi_id": "bootbarn-0a21d9"}, "geometry": {"type": "Point", "coordinates": [-120.824018, 37.056438]}},
{"type": "Feature", "id": "nBsp9S_ah_WFSNGt2340SBdBh3g=", "properties": {"ref": "0011", "@spider": "bootbarn", "clothes": "western", "shop": "clothes", "addr:full": "853 Arnele Ave", "addr:city": "El Cajon,", "addr:state": "California", "addr:postcode": "92020", "name": "Kearny Mesa", "phone": "(619) 441-8111", "website": "https://www.bootbarn.com/stores?StoreID=0011", "opening_hours": "Mo-Fr 09:00-08:00,09:00-08:00; Sa 09:00-07:00,09:00-07:00; Su 10:00-07:00,10:00-07:00", "brand": "Boot Barn", "brand:wikidata": "Q109825187", "nsi_id": "bootbarn-0a21d9"}, "geometry": {"type": "Point", "coordinates": [-116.972514, 32.803742]}},
{"type": "Feature", "id": "0wbYUWQ4KwZ-RJy375BfR3P852o=", "properties": {"ref": "0320", "@spider": "bootbarn", "clothes": "western", "shop": "clothes", "addr:full": "1643 Glenwood Street", "addr:city": "Delano,", "addr:state": "California", "addr:postcode": "93215", "name": "Porterville", "phone": "(661) 534-8399", "website": "https://www.bootbarn.com/stores?StoreID=0320", "opening_hours": "Mo-Fr 10:00-08:00,10:00-08:00; Sa 10:00-07:00,10:00-07:00; Su 10:00-06:00,10:00-06:00", "brand": "Boot Barn", "brand:wikidata": "Q109825187", "nsi_id": "bootbarn-0a21d9"}, "geometry": {"type": "Point", "coordinates": [-119.25165, 35.777527]}},
{"type": "Feature", "id": "G6Uu7wtFARYqp5MtQAtD9W6Ln6A=", "properties": {"ref": "0043", "@spider": "bootbarn", "clothes": "western", "shop": "clothes", "addr:full": "285 W Shaw Ave", "addr:city": "Clovis,", "addr:state": "California", "addr:postcode": "93612", "name": "Fresno", "phone": "(559) 323-4895", "website": "https://www.bootbarn.com/stores?StoreID=0043", "opening_hours": "Mo-Fr 09:00-09:00,09:00-09:00; Sa 09:00-07:00,09:00-07:00; Su 10:00-06:00,10:00-06:00", "brand": "Boot Barn", "brand:wikidata": "Q109825187", "nsi_id": "bootbarn-0a21d9"}, "geometry": {"type": "Point", "coordinates": [-119.715496, 36.808836]}},
{"type": "Feature", "id": "eQRi7H-aUEBbqvEhGY0K2Rh8QOk=", "properties": {"ref": "0246", "@spider": "bootbarn", "clothes": "western", "shop": "clothes", "addr:full": "4200 Chino Hills Parkway Ste.", "addr:city": "Chino Hills,", "addr:state": "California", "addr:postcode": "91709", "name": "Upland", "phone": "(909) 316-6940", "website": "https://www.bootbarn.com/stores?StoreID=0246", "opening_hours": "Mo-Fr 10:00-08:00,10:00-08:00; Sa 10:00-06:00,10:00-06:00; Su 11:00-06:00,11:00-06:00", "brand": "Boot Barn", "brand:wikidata": "Q109825187", "nsi_id": "bootbarn-0a21d9"}, "geometry": {"type": "Point", "coordinates": [-117.712637, 33.985112]}},
{"type": "Feature", "id": "r-RtSKt5HH6VICWdbxneRi58ujk=", "properties": {"ref": "0049", "@spider": "bootbarn", "clothes": "western", "shop": "clothes", "addr:full": "2539 Esplanade", "addr:city": "Chico,", "addr:state": "California", "addr:postcode": "95973", "name": "Yuba City", "phone": "(530) 899-0879", "website": "https://www.bootbarn.com/stores?StoreID=0049", "opening_hours": "Mo-Sa 09:00-08:00,09:00-08:00; Su 11:00-06:00,11:00-06:00", "brand": "Boot Barn", "brand:wikidata": "Q109825187", "nsi_id": "bootbarn-0a21d9"}, "geometry": {"type": "Point", "coordinates": [-121.861847, 39.756893]}},
{"type": "Feature", "id": "54ez-F0GqaIS5TvBky7TsuQTQhI=", "properties": {"ref": "0005", "@spider": "bootbarn", "clothes": "western", "shop": "clothes", "addr:full": "27564 Sierra Hwy", "addr:city": "Canyon Country,", "addr:state": "California", "addr:postcode": "91351", "name": "Simi Valley", "phone": "(661) 251-0888", "website": "https://www.bootbarn.com/stores?StoreID=0005", "opening_hours": "Mo-Fr 10:00-08:00,10:00-08:00; Sa 10:00-06:00,10:00-06:00; Su 11:00-06:00,11:00-06:00", "brand": "Boot Barn", "brand:wikidata": "Q109825187", "nsi_id": "bootbarn-0a21d9"}, "geometry": {"type": "Point", "coordinates": [-118.45481, 34.4156]}},
{"type": "Feature", "id": "RMAa6ox6ZZOG3IY91LtxJ0P2xJM=", "properties": {"ref": "0215", "@spider": "bootbarn", "clothes": "western", "shop": "clothes", "addr:full": "5641 Lone Tree Way", "addr:city": "Brentwood,", "addr:state": "California", "addr:postcode": "94513", "name": "Livermore", "phone": "(925) 240-1460", "website": "https://www.bootbarn.com/stores?StoreID=0215", "opening_hours": "Mo-Sa 10:00-08:00,10:00-08:00; Su 11:00-06:00,11:00-06:00", "brand": "Boot Barn", "brand:wikidata": "Q109825187", "nsi_id": "bootbarn-0a21d9"}, "geometry": {"type": "Point", "coordinates": [-121.74609, 37.958213]}},
{"type": "Feature", "id": "PE663PWix1GdTBpeWt18OxdZ4m8=", "properties": {"ref": "0350", "@spider": "bootbarn", "clothes": "western", "shop": "clothes", "addr:full": "5467 Gosford Rd", "addr:city": "Bakersfield,", "addr:state": "California", "addr:postcode": "93313", "name": "Bakersfield", "phone": "(661) 404-1991", "website": "https://www.bootbarn.com/stores?StoreID=0350", "opening_hours": "Mo-Fr 10:00-08:00,10:00-08:00; Sa 10:00-07:00,10:00-07:00; Su 10:00-06:00,10:00-06:00", "brand": "Boot Barn", "brand:wikidata": "Q109825187", "nsi_id": "bootbarn-0a21d9"}, "geometry": {"type": "Point", "coordinates": [-119.092255, 35.30553]}},
{"type": "Feature", "id": "1YDPwp-xhPAW3MPdHUJhGd4J4hY=", "properties": {"ref": "0026", "@spider": "bootbarn", "clothes": "western", "shop": "clothes", "addr:full": "3913 Buck Owens Blvd", "addr:city": "Bakersfield,", "addr:state": "California", "addr:postcode": "93308", "name": "Bakersfield, CA", "phone": "(661) 327-6770", "website": "https://www.bootbarn.com/stores?StoreID=0026", "opening_hours": "Mo-Fr 09:00-08:00,09:00-08:00; Sa 09:00-07:00,09:00-07:00; Su 10:00-06:00,10:00-06:00", "brand": "Boot Barn", "brand:wikidata": "Q109825187", "nsi_id": "bootbarn-0a21d9"}, "geometry": {"type": "Point", "coordinates": [-119.043824, 35.395679]}},
{"type": "Feature", "id": "WtuoztmSxMBO2EL5NAPJ2R1XeEQ=", "properties": {"ref": "0193", "@spider": "bootbarn", "clothes": "western", "shop": "clothes", "addr:full": "1269 Commerce Ave", "addr:city": "Atwater,", "addr:state": "California", "addr:postcode": "95301", "name": "Turlock", "phone": "(209) 356-0104", "website": "https://www.bootbarn.com/stores?StoreID=0193", "opening_hours": "Mo-Fr 09:00-09:00,09:00-09:00; Sa 10:00-07:00,10:00-07:00; Su 10:00-06:00,10:00-06:00", "brand": "Boot Barn", "brand:wikidata": "Q109825187", "nsi_id": "bootbarn-0a21d9"}, "geometry": {"type": "Point", "coordinates": [-120.613025, 37.343774]}},
{"type": "Feature", "id": "D0s2d9iSkfccIb1tBe53DVcLBCw=", "properties": {"ref": "0042", "@spider": "bootbarn", "clothes": "western", "shop": "clothes", "addr:full": "1705 State Highway 273", "addr:city": "Anderson,", "addr:state": "California", "addr:postcode": "96007", "name": "Chico", "phone": "(530) 365-6185", "website": "https://www.bootbarn.com/stores?StoreID=0042", "opening_hours": "Mo-Sa 09:00-08:00,09:00-08:00; Su 11:00-06:00,11:00-06:00", "brand": "Boot Barn", "brand:wikidata": "Q109825187", "nsi_id": "bootbarn-0a21d9"}, "geometry": {"type": "Point", "coordinates": [-122.28661, 40.43335]}},
{"type": "Feature", "id": "7xzFdvPo1FomTXGxPpy8ZF9TOsI=", "properties": {"ref": "0295", "@spider": "bootbarn", "clothes": "western", "shop": "clothes", "addr:full": "104 N Hampton Avenue", "addr:city": "Russellville,", "addr:state": "Arkansas", "addr:postcode": "72802", "name": "Texarkana", "phone": "(479) 498-8090", "website": "https://www.bootbarn.com/stores?StoreID=0295", "opening_hours": "Mo-Sa 09:00-08:00,09:00-08:00; Su 12:00-06:00,12:00-06:00", "brand": "Boot Barn", "brand:wikidata": "Q109825187", "nsi_id": "bootbarn-0a21d9"}, "geometry": {"type": "Point", "coordinates": [-93.098764, 35.278725]}},
{"type": "Feature", "id": "GO1VwUpnyvpwMboK9eMuPOK-Ckk=", "properties": {"ref": "0056", "@spider": "bootbarn", "clothes": "western", "shop": "clothes", "addr:full": "242 W 32nd St", "addr:city": "Yuma,", "addr:state": "Arizona", "addr:postcode": "85364", "name": "El Centro", "phone": "(928) 341-0123", "website": "https://www.bootbarn.com/stores?StoreID=0056", "opening_hours": "Mo-Fr 09:00-07:00,09:00-07:00; Sa 09:00-06:00,09:00-06:00; Su 10:00-06:00,10:00-06:00", "brand": "Boot Barn", "brand:wikidata": "Q109825187", "nsi_id": "bootbarn-0a21d9"}, "geometry": {"type": "Point", "coordinates": [-114.620722, 32.671016]}},
{"type": "Feature", "id": "K20r8LxcuDTnEv23SwBMtl5EvNs=", "properties": {"ref": "0051", "@spider": "bootbarn", "clothes": "western", "shop": "clothes", "addr:full": "3719 N Oracle Rd", "addr:city": "Tucson,", "addr:state": "Arizona", "addr:postcode": "85705", "name": "Tucson - 16th Ave", "phone": "(520) 888-1161", "website": "https://www.bootbarn.com/stores?StoreID=0051", "opening_hours": "Mo-Fr 09:00-08:00,09:00-08:00; Sa 09:00-07:00,09:00-07:00; Su 10:00-06:00,10:00-06:00", "brand": "Boot Barn", "brand:wikidata": "Q109825187", "nsi_id": "bootbarn-0a21d9"}, "geometry": {"type": "Point", "coordinates": [-110.979157, 32.273922]}},
{"type": "Feature", "id": "4R12oWgWiNtNpUkpCtzMRjV0ZaA=", "properties": {"ref": "0053", "@spider": "bootbarn", "clothes": "western", "shop": "clothes", "addr:full": "6701 E Broadway Blvd", "addr:city": "Tucson,", "addr:state": "Arizona", "addr:postcode": "85710", "name": "Tucson - 16th Ave", "phone": "(520) 731-3422", "website": "https://www.bootbarn.com/stores?StoreID=0053", "opening_hours": "Mo-Fr 09:00-08:00,09:00-08:00; Sa 09:00-07:00,09:00-07:00; Su 10:00-06:00,10:00-06:00", "brand": "Boot Barn", "brand:wikidata": "Q109825187", "nsi_id": "bootbarn-0a21d9"}, "geometry": {"type": "Point", "coordinates": [-110.84924, 32.221613]}},
{"type": "Feature", "id": "O6FZT2WruvMiT_8djjGZL0miI7w=", "properties": {"ref": "0050", "@spider": "bootbarn", "clothes": "western", "shop": "clothes", "addr:full": "3776 S 16th Ave", "addr:city": "Tucson,", "addr:state": "Arizona", "addr:postcode": "85713", "name": "Tucson - N. Oracle", "phone": "(520) 622-4500", "website": "https://www.bootbarn.com/stores?StoreID=0050", "opening_hours": "Mo-Fr 09:00-08:00,09:00-08:00; Sa 09:00-07:00,09:00-07:00; Su 10:00-06:00,10:00-06:00", "brand": "Boot Barn", "brand:wikidata": "Q109825187", "nsi_id": "bootbarn-0a21d9"}, "geometry": {"type": "Point", "coordinates": [-110.982495, 32.178576]}},
{"type": "Feature", "id": "T-QbfrUbT1rz5g2l6yB6m7CKphA=", "properties": {"ref": "0063", "@spider": "bootbarn", "clothes": "western", "shop": "clothes", "addr:full": "4481 S White Mountain Rd", "addr:city": "Show Low,", "addr:state": "Arizona", "addr:postcode": "85901", "name": "Queen Creek", "phone": "(928) 537-0600", "website": "https://www.bootbarn.com/stores?StoreID=0063", "opening_hours": "Mo-Sa 09:00-07:00,09:00-07:00; Su 10:00-06:00,10:00-06:00", "brand": "Boot Barn", "brand:wikidata": "Q109825187", "nsi_id": "bootbarn-0a21d9"}, "geometry": {"type": "Point", "coordinates": [-110.021838, 34.209264]}},
{"type": "Feature", "id": "HXRq2lpj06abSmD1kpYZ1xIM_bU=", "properties": {"ref": "0133", "@spider": "bootbarn", "clothes": "western", "shop": "clothes", "addr:full": "8698 E Raintree Dr", "addr:city": "Scottsdale,", "addr:state": "Arizona", "addr:postcode": "85260", "name": "Phoenix", "phone": "(480) 998-1326", "website": "https://www.bootbarn.com/stores?StoreID=0133", "opening_hours": "Mo-Fr 10:00-08:00,10:00-08:00; Sa 10:00-06:00,10:00-06:00; Su 11:00-05:00,11:00-05:00", "brand": "Boot Barn", "brand:wikidata": "Q109825187", "nsi_id": "bootbarn-0a21d9"}, "geometry": {"type": "Point", "coordinates": [-111.893299, 33.620899]}},
{"type": "Feature", "id": "mDmexybv4ajePLpgtT08WhXO1Bw=", "properties": {"ref": "0323", "@spider": "bootbarn", "clothes": "western", "shop": "clothes", "addr:full": "21102 South Ellsworth Loop Road", "addr:city": "Queen Creek,", "addr:state": "Arizona", "addr:postcode": "85142", "name": "Mesa", "phone": "(480) 762-0322", "website": "https://www.bootbarn.com/stores?StoreID=0323", "opening_hours": "Mo-Sa 09:00-09:00,09:00-09:00; Su 10:00-07:00,10:00-07:00", "brand": "Boot Barn", "brand:wikidata": "Q109825187", "nsi_id": "bootbarn-0a21d9"}, "geometry": {"type": "Point", "coordinates": [-111.63927, 33.256596]}},
{"type": "Feature", "id": "hG2NJW4rwvZNC45g8aoMgIuwSSE=", "properties": {"ref": "0057", "@spider": "bootbarn", "clothes": "western", "shop": "clothes", "addr:full": "7321 Pav Way", "addr:city": "Prescott Valley,", "addr:state": "Arizona", "addr:postcode": "86314", "name": "Flagstaff - Village Center", "phone": "(928) 772-6665", "website": "https://www.bootbarn.com/stores?StoreID=0057", "opening_hours": "Mo-Fr 09:00-07:00,09:00-07:00; Sa 09:00-06:00,09:00-06:00; Su 11:00-06:00,11:00-06:00", "brand": "Boot Barn", "brand:wikidata": "Q109825187", "nsi_id": "bootbarn-0a21d9"}, "geometry": {"type": "Point", "coordinates": [-112.337186, 34.584653]}},
{"type": "Feature", "id": "OJpoaLjFOsmqE5L6vE0qCbMFmlg=", "properties": {"ref": "0324", "@spider": "bootbarn", "clothes": "western", "shop": "clothes", "addr:full": "2501 West Happy Valley Road", "addr:city": "Phoenix,", "addr:state": "Arizona", "addr:postcode": "85085", "name": "Glendale", "phone": "(480) 591-8333", "website": "https://www.bootbarn.com/stores?StoreID=0324", "opening_hours": "Mo-Sa 10:00-08:00,10:00-08:00; Su 11:00-07:00,11:00-07:00", "brand": "Boot Barn", "brand:wikidata": "Q109825187", "nsi_id": "bootbarn-0a21d9"}, "geometry": {"type": "Point", "coordinates": [-112.077225, 33.712955]}},
{"type": "Feature", "id": "tBTBTxVyLARuS4Fjpqb-nDFO4pk=", "properties": {"ref": "0055", "@spider": "bootbarn", "clothes": "western", "shop": "clothes", "addr:full": "284 W Mariposa Rd", "addr:city": "Nogales,", "addr:state": "Arizona", "addr:postcode": "85621", "name": "Tucson - 16th Ave", "phone": "(520) 761-1850", "website": "https://www.bootbarn.com/stores?StoreID=0055", "opening_hours": "Mo-Sa 10:00-07:00,10:00-07:00; Su 11:00-05:00,11:00-05:00", "brand": "Boot Barn", "brand:wikidata": "Q109825187", "nsi_id": "bootbarn-0a21d9"}, "geometry": {"type": "Point", "coordinates": [-110.935264, 31.368869]}},
{"type": "Feature", "id": "WnK6qd0J1jItv0SsksquK6-3xfk=", "properties": {"ref": "0336", "@spider": "bootbarn", "clothes": "western", "shop": "clothes", "addr:full": "829 N Dobson Rd", "addr:city": "Mesa,", "addr:state": "Arizona", "addr:postcode": "85201", "name": "Mesa", "phone": "(480) 668-1211", "website": "https://www.bootbarn.com/stores?StoreID=0336", "opening_hours": "Mo-Sa 09:00-09:00,09:00-09:00; Su 11:00-07:00,11:00-07:00", "brand": "Boot Barn", "brand:wikidata": "Q109825187", "nsi_id": "bootbarn-0a21d9"}, "geometry": {"type": "Point", "coordinates": [-111.870472, 33.431861]}},
{"type": "Feature", "id": "GMRj5hW5B1e-O6QZhrtcvNDVniw=", "properties": {"ref": "0034", "@spider": "bootbarn", "clothes": "western", "shop": "clothes", "addr:full": "1710 S Alma School Rd", "addr:city": "Mesa,", "addr:state": "Arizona", "addr:postcode": "85210", "name": "Mesa - Riverview", "phone": "(480) 345-6791", "website": "https://www.bootbarn.com/stores?StoreID=0034", "opening_hours": "Mo-Sa 09:00-08:00,09:00-08:00; Su 11:00-06:00,11:00-06:00", "brand": "Boot Barn", "brand:wikidata": "Q109825187", "nsi_id": "bootbarn-0a21d9"}, "geometry": {"type": "Point", "coordinates": [-111.858051, 33.383883]}},
{"type": "Feature", "id": "Uze7zH2nlFhGf41C8tqJ5wmjKzU=", "properties": {"ref": "0030", "@spider": "bootbarn", "clothes": "western", "shop": "clothes", "addr:full": "3320 N Stockton Hill Rd", "addr:city": "Kingman,", "addr:state": "Arizona", "addr:postcode": "86409", "name": "Laughlin", "phone": "(928) 757-5500", "website": "https://www.bootbarn.com/stores?StoreID=0030", "opening_hours": "Mo-Sa 09:00-08:00,09:00-08:00; Su 11:00-06:00,11:00-06:00", "brand": "Boot Barn", "brand:wikidata": "Q109825187", "nsi_id": "bootbarn-0a21d9"}, "geometry": {"type": "Point", "coordinates": [-114.032707, 35.220454]}},
{"type": "Feature", "id": "yJm9abjkwH1pW3SfBG-UDPccugw=", "properties": {"ref": "0033", "@spider": "bootbarn", "clothes": "western", "shop": "clothes", "addr:full": "8038 W Bell Road", "addr:city": "Glendale,", "addr:state": "Arizona", "addr:postcode": "85308", "name": "Phoenix", "phone": "(623) 334-2322", "website": "https://www.bootbarn.com/stores?StoreID=0033", "opening_hours": "Mo-Fr 10:00-08:00,10:00-08:00; Sa-Su 10:00-07:00,10:00-07:00", "brand": "Boot Barn", "brand:wikidata": "Q109825187", "nsi_id": "bootbarn-0a21d9"}, "geometry": {"type": "Point", "coordinates": [-112.23056522320938, 33.63835457759372]}},
{"type": "Feature", "id": "ZUAZp7zKmNCG7fS56V1iscwvtu0=", "properties": {"ref": "0060", "@spider": "bootbarn", "clothes": "western", "shop": "clothes", "addr:full": "2700 S Woodlands Village Blvd", "addr:city": "Flagstaff,", "addr:state": "Arizona", "addr:postcode": "86001", "name": "Prescott Valley", "phone": "(928) 773-9016", "website": "https://www.bootbarn.com/stores?StoreID=0060", "opening_hours": "Mo-Fr 09:00-08:00,09:00-08:00; Sa 09:00-07:00,09:00-07:00; Su 11:00-06:00,11:00-06:00", "brand": "Boot Barn", "brand:wikidata": "Q109825187", "nsi_id": "bootbarn-0a21d9"}, "geometry": {"type": "Point", "coordinates": [-111.666265, 35.176554]}},
{"type": "Feature", "id": "sA3fAWlUrjLhJFMmzentzE-2C2E=", "properties": {"ref": "0373", "@spider": "bootbarn", "clothes": "western", "shop": "clothes", "addr:full": "850 S. Watson Rd", "addr:city": "Buckeye,", "addr:state": "Arizona", "addr:postcode": "85326", "name": "Avondale", "phone": "(623) 624-4141", "website": "https://www.bootbarn.com/stores?StoreID=0373", "opening_hours": "Mo-Sa 10:00-08:00,10:00-08:00; Su 11:00-07:00,11:00-07:00", "brand": "Boot Barn", "brand:wikidata": "Q109825187", "nsi_id": "bootbarn-0a21d9"}, "geometry": {"type": "Point", "coordinates": [-112.55891, 33.439037]}},
{"type": "Feature", "id": "MY1NdeIp2LmWx5JAA7-qNk5Qi4I=", "properties": {"ref": "0227", "@spider": "bootbarn", "clothes": "western", "shop": "clothes", "addr:full": "10105 W McDowell Rd", "addr:city": "Avondale,", "addr:state": "Arizona", "addr:postcode": "85392", "name": "Glendale", "phone": "(623) 936-3126", "website": "https://www.bootbarn.com/stores?StoreID=0227", "opening_hours": "Mo-Sa 09:30-09:00,09:30-09:00; Su 10:00-07:00,10:00-07:00", "brand": "Boot Barn", "brand:wikidata": "Q109825187", "nsi_id": "bootbarn-0a21d9"}, "geometry": {"type": "Point", "coordinates": [-112.277195, 33.463279]}},
{"type": "Feature", "id": "p1aDnvZwO63xd7LUPf4SloTwRJI=", "properties": {"ref": "0229", "@spider": "bootbarn", "clothes": "western", "shop": "clothes", "addr:full": "1905B Edwards Lake Rd", "addr:city": "Birmingham,", "addr:state": "Alabama", "addr:postcode": "35235", "name": "Columbus", "phone": "(205) 661-0310", "website": "https://www.bootbarn.com/stores?StoreID=0229", "opening_hours": "Mo-Sa 09:00-09:00,09:00-09:00; Su 12:00-06:00,12:00-06:00", "brand": "Boot Barn", "brand:wikidata": "Q109825187", "nsi_id": "bootbarn-0a21d9"}, "geometry": {"type": "Point", "coordinates": [-86.648912, 33.595624]}}]}