{"type":"FeatureCollection","features":[{"type": "Feature", "id": "PQWx8JT5mlE85iwANf26LaoRyTM=", "properties": {"ref": "1037", "@spider": "bq", "shop": "doityourself", "addr:full": "524 Old Kent Road, London, LONDON", "addr:street_address": "524 Old Kent Road", "addr:postcode": "SE1 5BA", "addr:country": "GB", "name": "B&Q Peckham", "phone": "020 7252 0657", "website": "https://www.diy.com/store/1037", "opening_hours": "Mo-Sa 07:00-20:00; Su 10:00-16:00", "brand": "B&Q", "brand:wikidata": "Q707602", "nsi_id": "bandq-092aaf"}, "geometry": {"type": "Point", "coordinates": [-0.066948, 51.4835]}},
{"type": "Feature", "id": "yPRE5Rfz0iOYD-2EJ2G0_E4VTVQ=", "properties": {"ref": "1398", "@spider": "bq", "shop": "doityourself", "addr:full": "482 Holloway Road, Holloway, London, LONDON", "addr:street_address": "482 Holloway Road, Holloway", "addr:postcode": "N7 6HY", "addr:country": "GB", "name": "B&Q Holloway Road", "phone": "02072 722102", "website": "https://www.diy.com/store/1398", "opening_hours": "Mo-Fr 08:00-20:00; Sa 08:00-19:00; Su 11:00-17:00", "brand": "B&Q", "brand:wikidata": "Q707602", "nsi_id": "bandq-092aaf"}, "geometry": {"type": "Point", "coordinates": [-0.11997, 51.558525]}},
{"type": "Feature", "id": "cOwlpf98xTuRs0vnKYHY0axXQmg=", "properties": {"ref": "1263", "@spider": "bq", "shop": "doityourself", "addr:full": "Units A&B Leyton Mills, Marshall Road, Leyton, London, LONDON", "addr:street_address": "Units A&B Leyton Mills, Marshall Road, Leyton", "addr:postcode": "E10 5NH", "addr:country": "GB", "name": "B&Q Leyton", "phone": "020 8988 1010", "website": "https://www.diy.com/store/1263", "opening_hours": "Mo-Sa 07:00-20:00; Su 11:00-17:00", "brand": "B&Q", "brand:wikidata": "Q707602", "nsi_id": "bandq-092aaf"}, "geometry": {"type": "Point", "coordinates": [-0.008841, 51.5546]}},
{"type": "Feature", "id": "VEeqyKHPjOPgFxYiA8yIQJ9igbg=", "properties": {"ref": "1233", "@spider": "bq", "shop": "doityourself", "addr:full": "59 Bugsby Way, Greenwich Peninsula, Greenwich, London, LONDON", "addr:street_address": "59 Bugsby Way, Greenwich Peninsula, Greenwich", "addr:postcode": "SE10 0QJ", "addr:country": "GB", "name": "B&Q Greenwich", "phone": "020 8312 8000", "website": "https://www.diy.com/store/1233", "opening_hours": "Mo-Sa 07:00-20:00; Su 11:00-17:00", "brand": "B&Q", "brand:wikidata": "Q707602", "nsi_id": "bandq-092aaf"}, "geometry": {"type": "Point", "coordinates": [0.014933, 51.4904]}},
{"type": "Feature", "id": "k_0KmpKP5oQvFpQbCP6ZqbTMb1c=", "properties": {"ref": "1154", "@spider": "bq", "shop": "doityourself", "addr:full": "Unit 7 Tottenham Hale Retail Park, Broad Lane, Tottenham, LONDON", "addr:street_address": "Unit 7 Tottenham Hale Retail Park, Broad Lane", "addr:postcode": "N15 4QD", "addr:country": "GB", "name": "B&Q Tottenham", "phone": "0330 123 9243", "website": "https://www.diy.com/store/1154", "opening_hours": "Mo-Sa 07:00-20:00; Su 11:00-17:00", "brand": "B&Q", "brand:wikidata": "Q707602", "nsi_id": "bandq-092aaf"}, "geometry": {"type": "Point", "coordinates": [-0.063591, 51.5865]}},
{"type": "Feature", "id": "BX6eZ7Ir8UmGwbfowxHRpf3AzFs=", "properties": {"ref": "2719", "@spider": "bq", "shop": "doityourself", "addr:full": "48-50 High Road, Wood Green, London", "addr:street_address": "48-50 High Road, Wood Green", "addr:postcode": "N22 6BX", "addr:country": "GB", "name": "B&Q Wood Green", "phone": "02088 818417", "website": "https://www.diy.com/store/2719", "contact:email": "WoodGreen.DutyManager@b-and-q.co.uk", "opening_hours": "Mo-Sa 07:00-20:00; Su 11:00-17:00", "brand": "B&Q", "brand:wikidata": "Q707602", "nsi_id": "bandq-092aaf"}, "geometry": {"type": "Point", "coordinates": [-0.10459, 51.5916]}},
{"type": "Feature", "id": "cyxzoXesT18rs4hIOurha4987ro=", "properties": {"ref": "1009", "@spider": "bq", "shop": "doityourself", "addr:full": "304-322 Norwood Road, London, LONDON", "addr:street_address": "304-322 Norwood Road", "addr:postcode": "SE27 9AF", "addr:country": "GB", "name": "B&Q West Norwood", "phone": "020 8761 1236", "website": "https://www.diy.com/store/1009", "opening_hours": "Mo-Sa 08:00-20:00; Su 10:00-16:00", "brand": "B&Q", "brand:wikidata": "Q707602", "nsi_id": "bandq-092aaf"}, "geometry": {"type": "Point", "coordinates": [-0.104748, 51.4354]}},
{"type": "Feature", "id": "nDFX_eBU9WMDIrQ1K-I6eNJrej4=", "properties": {"ref": "2641", "@spider": "bq", "shop": "doityourself", "addr:full": "25 Garratt Lane, Wandsworth, Wandsworth, London", "addr:street_address": "25 Garratt Lane, Wandsworth", "addr:postcode": "SW18 4AQ", "addr:country": "GB", "name": "B&Q Wandsworth", "phone": "0208 874 3044", "website": "https://www.diy.com/store/2641", "contact:email": "Wandsworth.DutyManager@b-and-q.co.uk", "opening_hours": "Mo-Sa 07:00-20:00; Su 10:00-16:00", "brand": "B&Q", "brand:wikidata": "Q707602", "nsi_id": "bandq-092aaf"}, "geometry": {"type": "Point", "coordinates": [-0.1924995337, 51.45576905]}},
{"type": "Feature", "id": "aTHHSyBaNnBy03V1JOpggQeFLrw=", "properties": {"ref": "1051", "@spider": "bq", "shop": "doityourself", "addr:full": "Unit 1, Broadway Retail Park, Cricklewood Lane, Cricklewood, London, LONDON", "addr:street_address": "Unit 1, Broadway Retail Park, Cricklewood Lane, Cricklewood", "addr:postcode": "NW2 1ES", "addr:country": "GB", "name": "B&Q Cricklewood", "phone": "020 8438 3200", "website": "https://www.diy.com/store/1051", "opening_hours": "Mo-Sa 07:00-20:00; Su 11:00-17:00", "brand": "B&Q", "brand:wikidata": "Q707602", "nsi_id": "bandq-092aaf"}, "geometry": {"type": "Point", "coordinates": [-0.215294, 51.5574]}},
{"type": "Feature", "id": "XW2YeLMVMyN8NPelR9FjHjUQ5M0=", "properties": {"ref": "1346", "@spider": "bq", "shop": "doityourself", "addr:full": "Unit 6, Bell Green Retail Park, Bell Green, Sydenham, LONDON", "addr:street_address": "Unit 6, Bell Green Retail Park, Bell Green", "addr:postcode": "SE26 4PU", "addr:country": "GB", "name": "B&Q Sydenham", "phone": "0203 7473700", "website": "https://www.diy.com/store/1346", "opening_hours": "Mo-Sa 07:00-20:00; Su 10:00-16:00", "brand": "B&Q", "brand:wikidata": "Q707602", "nsi_id": "bandq-092aaf"}, "geometry": {"type": "Point", "coordinates": [-0.03436, 51.4315]}},
{"type": "Feature", "id": "tAesiewt9lfPt0nsyxZTcz5oQiQ=", "properties": {"ref": "2695", "@spider": "bq", "shop": "doityourself", "addr:full": "14 Tooting High Street, Tooting, Tooting, London", "addr:street_address": "14 Tooting High Street, Tooting", "addr:postcode": "SW17 0RG", "addr:country": "GB", "name": "B&Q Tooting", "phone": "0208 672 4327", "website": "https://www.diy.com/store/2695", "contact:email": "Tooting.DutyManager@b-and-q.co.uk", "opening_hours": "Mo-Sa 07:00-20:00; Su 11:00-17:00", "brand": "B&Q", "brand:wikidata": "Q707602", "nsi_id": "bandq-092aaf"}, "geometry": {"type": "Point", "coordinates": [-0.167093818, 51.4290806]}},
{"type": "Feature", "id": "9V-G3WC1YqyNRg9nfMpTbybLfho=", "properties": {"ref": "1067", "@spider": "bq", "shop": "doityourself", "addr:full": "Unit 11 Friern Bridge Retail Park, Pegasus Way, Friern Barnet, London, LONDON", "addr:street_address": "Unit 11 Friern Bridge Retail Park, Pegasus Way, Friern Barnet", "addr:postcode": "N11 3PW", "addr:country": "GB", "name": "B&Q Friern Barnet", "phone": "02083 680706", "website": "https://www.diy.com/store/1067", "opening_hours": "Mo-Fr 07:00-20:00; Sa 07:00-19:00; Su 10:00-16:00", "brand": "B&Q", "brand:wikidata": "Q707602", "nsi_id": "bandq-092aaf"}, "geometry": {"type": "Point", "coordinates": [-0.142972, 51.6108]}},
{"type": "Feature", "id": "AVeRZX60vUpdKxnMpTGbSzv1scQ=", "properties": {"ref": "1003", "@spider": "bq", "shop": "doityourself", "addr:full": "Unit 9, Deacon Industrial Estate, Cabinet Way, Chingford, London, LONDON", "addr:street_address": "Unit 9, Deacon Industrial Estate, Cabinet Way, Chingford", "addr:postcode": "E4 8QF", "addr:country": "GB", "name": "B&Q Chingford", "phone": "020 8523 0333", "website": "https://www.diy.com/store/1003", "opening_hours": "Mo-Sa 07:00-20:00; Su 10:00-16:00", "brand": "B&Q", "brand:wikidata": "Q707602", "nsi_id": "bandq-092aaf"}, "geometry": {"type": "Point", "coordinates": [-0.029032, 51.6085]}},
{"type": "Feature", "id": "CKGfnFutc1o4eyj0Oh7x0O9dOI8=", "properties": {"ref": "1271", "@spider": "bq", "shop": "doityourself", "addr:full": "Unit 3, Gateway Retail Park, 8 Clapsgate Lane, Beckton Triangle, Beckton, London, LONDON", "addr:street_address": "Unit 3, Gateway Retail Park, 8 Clapsgate Lane, Beckton Triangle, Beckton", "addr:postcode": "E6 6LG", "addr:country": "GB", "name": "B&Q Beckton", "phone": "0208 709 1100", "website": "https://www.diy.com/store/1271", "opening_hours": "Mo-Sa 07:00-20:00; Su 10:00-16:00", "brand": "B&Q", "brand:wikidata": "Q707602", "nsi_id": "bandq-092aaf"}, "geometry": {"type": "Point", "coordinates": [0.071325, 51.5195]}},
{"type": "Feature", "id": "xNzaoun-uSuTKgR2nXzvGcYmz18=", "properties": {"ref": "2673", "@spider": "bq", "shop": "doityourself", "addr:full": "Asda, 1 West Mall, Edmonton, Enfield, London", "addr:street_address": "Asda, 1 West Mall, Edmonton", "addr:postcode": "N9 0AL", "addr:country": "GB", "name": "B&Q Edmonton (Located inside Asda)", "phone": "020 8807 3956", "website": "https://www.diy.com/store/2673", "opening_hours": "Mo-Sa 08:00-20:00; Su 11:00-17:00", "brand": "B&Q", "brand:wikidata": "Q707602", "nsi_id": "bandq-092aaf"}, "geometry": {"type": "Point", "coordinates": [-0.0621359, 51.6223937]}},
{"type": "Feature", "id": "I84QL48y2NB76JkZ0AyfhjK2p8o=", "properties": {"ref": "1294", "@spider": "bq", "shop": "doityourself", "addr:full": "West 5 Centre, Western Avenue / Alliance Road, Acton, London, LONDON", "addr:street_address": "West 5 Centre, Western Avenue / Alliance Road, Acton", "addr:postcode": "W3 0RZ", "addr:country": "GB", "name": "B&Q Acton", "phone": "02089 924005", "website": "https://www.diy.com/store/1294", "opening_hours": "Mo-Sa 07:00-20:00; Su 10:00-16:00", "brand": "B&Q", "brand:wikidata": "Q707602", "nsi_id": "bandq-092aaf"}, "geometry": {"type": "Point", "coordinates": [-0.275044, 51.5252]}},
{"type": "Feature", "id": "K1lVzuDpgT12hdoW9LNXt7hqrVw=", "properties": {"ref": "1125", "@spider": "bq", "shop": "doityourself", "addr:full": "Footscray Road, Eltham, Eltham, LONDON", "addr:street_address": "Footscray Road, Eltham", "addr:postcode": "SE9 2TD", "addr:country": "GB", "name": "B&Q Eltham", "phone": "020 8850 4411", "website": "https://www.diy.com/store/1125", "opening_hours": "Mo-Sa 08:00-20:00; Su 10:00-16:00", "brand": "B&Q", "brand:wikidata": "Q707602", "nsi_id": "bandq-092aaf"}, "geometry": {"type": "Point", "coordinates": [0.061919, 51.4456]}},
{"type": "Feature", "id": "uowJR25Cu6GbsdM46ERnN19gRL0=", "properties": {"ref": "2567", "@spider": "bq", "shop": "doityourself", "addr:full": "Nelson Industrial Estate, 1 The Path, Morden Road, South Wimbledon, LONDON", "addr:street_address": "Nelson Industrial Estate, 1 The Path, Morden Road", "addr:postcode": "SW19 3BL", "addr:country": "GB", "name": "B&Q Merton", "phone": "0208 540 9328", "website": "https://www.diy.com/store/2567", "opening_hours": "Mo-Sa 07:00-20:00; Su 10:00-16:00", "brand": "B&Q", "brand:wikidata": "Q707602", "nsi_id": "bandq-092aaf"}, "geometry": {"type": "Point", "coordinates": [-0.193105, 51.41304]}},
{"type": "Feature", "id": "G5tzBMe_wD7pRlaZc0_RJ5DuEjY=", "properties": {"ref": "1226", "@spider": "bq", "shop": "doityourself", "addr:full": "2 Larch Drive, Gunnersbury Avenue, Chiswick, London, LONDON", "addr:street_address": "2 Larch Drive, Gunnersbury Avenue, Chiswick", "addr:postcode": "W4 5QL", "addr:country": "GB", "name": "B&Q Chiswick", "phone": "020 8995 8028", "website": "https://www.diy.com/store/1226", "opening_hours": "Mo-Sa 07:00-20:00; Su 10:00-16:00", "brand": "B&Q", "brand:wikidata": "Q707602", "nsi_id": "bandq-092aaf"}, "geometry": {"type": "Point", "coordinates": [-0.283312, 51.4931]}},
{"type": "Feature", "id": "YYMTSlwu5GEcxTRQ0ZmXvrmywy4=", "properties": {"ref": "1056", "@spider": "bq", "shop": "doityourself", "addr:full": "2 Springfield Drive, Ilford, LONDON", "addr:street_address": "2 Springfield Drive", "addr:postcode": "IG2 6QG", "addr:country": "GB", "name": "B&Q Ilford", "phone": "020 8554 6653", "website": "https://www.diy.com/store/1056", "opening_hours": "Mo-Sa 07:00-20:00; Su 10:00-16:00", "brand": "B&Q", "brand:wikidata": "Q707602", "nsi_id": "bandq-092aaf"}, "geometry": {"type": "Point", "coordinates": [0.082256, 51.5742]}},
{"type": "Feature", "id": "svRagWdcRBlF-Z6LnniKZ8gGu6A=", "properties": {"ref": "2674", "@spider": "bq", "shop": "doityourself", "addr:full": "Asda, 31 Roehampton Vale, Roehampton, London", "addr:street_address": "Asda, 31 Roehampton Vale", "addr:postcode": "SW15 3DT", "addr:country": "GB", "name": "B&Q Roehampton (Located inside Asda)", "phone": "02087803445", "website": "https://www.diy.com/store/2674", "opening_hours": "Mo-Sa 09:00-18:00; Su 11:00-17:00", "brand": "B&Q", "brand:wikidata": "Q707602", "nsi_id": "bandq-092aaf"}, "geometry": {"type": "Point", "coordinates": [-0.2487353, 51.4395328]}},
{"type": "Feature", "id": "AXrR5pldq7RNcAzrQwOeFh_6PRU=", "properties": {"ref": "1274", "@spider": "bq", "shop": "doityourself", "addr:full": "1 Dearsley Road, Enfield, London, LONDON", "addr:street_address": "1 Dearsley Road, Enfield", "addr:postcode": "EN1 3RR", "addr:country": "GB", "name": "B&Q Enfield", "phone": "0208 3624700", "website": "https://www.diy.com/store/1274", "opening_hours": "Mo-Sa 07:00-20:00; Su 10:00-16:00", "brand": "B&Q", "brand:wikidata": "Q707602", "nsi_id": "bandq-092aaf"}, "geometry": {"type": "Point", "coordinates": [-0.059174, 51.6501]}},
{"type": "Feature", "id": "oDPIKRLsBbMJfbhlShK7owmRuOM=", "properties": {"ref": "1256", "@spider": "bq", "shop": "doityourself", "addr:full": "Hesterman Way, Valley Park, Croydon, LONDON", "addr:street_address": "Hesterman Way, Valley Park", "addr:postcode": "CR0 4YA", "addr:country": "GB", "name": "B&Q Croydon", "phone": "0330 123 9243", "website": "https://www.diy.com/store/1256", "opening_hours": "Mo-Sa 07:00-20:00; Su 10:00-16:00", "brand": "B&Q", "brand:wikidata": "Q707602", "nsi_id": "bandq-092aaf"}, "geometry": {"type": "Point", "coordinates": [-0.127244, 51.3811]}},
{"type": "Feature", "id": "HXNAE4LfrZUb8QhmKPNPTy6xG0c=", "properties": {"ref": "1066", "@spider": "bq", "shop": "doityourself", "addr:full": "Honeypot Lane, Stanmore, Harrow, LONDON", "addr:street_address": "Honeypot Lane, Stanmore", "addr:postcode": "HA7 1QL", "addr:country": "GB", "name": "B&Q Stanmore", "phone": "020 8204 8181", "website": "https://www.diy.com/store/1066", "opening_hours": "Mo-Sa 07:00-20:00; Su 10:00-16:00", "brand": "B&Q", "brand:wikidata": "Q707602", "nsi_id": "bandq-092aaf"}, "geometry": {"type": "Point", "coordinates": [-0.28506, 51.5919]}},
{"type": "Feature", "id": "3gINsgnlwasxnrZ4ywt9_KE28og=", "properties": {"ref": "2671", "@spider": "bq", "shop": "doityourself", "addr:full": "Asda Store, Merrielands Crescent, Dagenham", "addr:street_address": "Asda Store, Merrielands Crescent", "addr:postcode": "RM9 6SJ", "addr:country": "GB", "name": "B&Q Dagenham (Located inside Asda)", "phone": "0208 5938020", "website": "https://www.diy.com/store/2671", "opening_hours": "Mo-Sa 08:00-20:00; Su 11:00-17:00", "brand": "B&Q", "brand:wikidata": "Q707602", "nsi_id": "bandq-092aaf"}, "geometry": {"type": "Point", "coordinates": [0.1417745, 51.5305057]}},
{"type": "Feature", "id": "og76aTqVVxUV_uxN3jUSUeTEQzM=", "properties": {"ref": "1076", "@spider": "bq", "shop": "doityourself", "addr:full": "Shannon Commercial Centre, Beverley Way, New Malden, Surrey", "addr:street_address": "Shannon Commercial Centre, Beverley Way", "addr:postcode": "KT3 4PT", "addr:country": "GB", "name": "B&Q New Malden", "phone": "0330 123 9243", "website": "https://www.diy.com/store/1076", "opening_hours": "Mo-Sa 07:00-20:00; Su 10:00-16:00", "brand": "B&Q", "brand:wikidata": "Q707602", "nsi_id": "bandq-092aaf"}, "geometry": {"type": "Point", "coordinates": [-0.24557, 51.4004]}},
{"type": "Feature", "id": "_5OpGNOBW7NJjDO9IMtUZPC_a1E=", "properties": {"ref": "1139", "@spider": "bq", "shop": "doityourself", "addr:full": "Station Road, off Lower Road, London, LONDON", "addr:street_address": "Station Road, off Lower Road", "addr:postcode": "DA17 6DF", "addr:country": "GB", "name": "B&Q Belvedere", "phone": "020 8311 5010", "website": "https://www.diy.com/store/1139", "opening_hours": "Mo-Sa 07:00-20:00; Su 10:00-16:00", "brand": "B&Q", "brand:wikidata": "Q707602", "nsi_id": "bandq-092aaf"}, "geometry": {"type": "Point", "coordinates": [0.153864, 51.4914]}},
{"type": "Feature", "id": "luqTBVlf-50H4c655b1oYp5aAl0=", "properties": {"ref": "1228", "@spider": "bq", "shop": "doityourself", "addr:full": "Crittalls Corner, Sidcup Bypass Passage, Sidcup, LONDON", "addr:street_address": "Crittalls Corner, Sidcup Bypass Passage", "addr:postcode": "DA14 6LX", "addr:country": "GB", "name": "B&Q Sidcup", "phone": "020 8308 1844", "website": "https://www.diy.com/store/1228", "opening_hours": "Mo-Sa 07:00-20:00; Su 10:00-16:00", "brand": "B&Q", "brand:wikidata": "Q707602", "nsi_id": "bandq-092aaf"}, "geometry": {"type": "Point", "coordinates": [0.111838, 51.414]}},
{"type": "Feature", "id": "gk4rUbXFlWWWkJxbL4IvfXKjP-8=", "properties": {"ref": "1191", "@spider": "bq", "shop": "doityourself", "addr:full": "Sutton Court Road, Sutton, LONDON", "addr:street_address": "Sutton Court Road", "addr:postcode": "SM1 4RQ", "addr:country": "GB", "name": "B&Q Sutton", "phone": "020 87702500", "website": "https://www.diy.com/store/1191", "opening_hours": "Mo-Sa 07:00-20:00; Su 10:00-16:00", "brand": "B&Q", "brand:wikidata": "Q707602", "nsi_id": "bandq-092aaf"}, "geometry": {"type": "Point", "coordinates": [-0.188828, 51.3613]}},
{"type": "Feature", "id": "TGGXLFygNkj63x3xDAjDk-F6xM8=", "properties": {"ref": "2640", "@spider": "bq", "shop": "doityourself", "addr:full": "50 South Road, Twickenham, London", "addr:street_address": "50 South Road, Twickenham", "addr:postcode": "TW2 5NT", "addr:country": "GB", "name": "B&Q Twickenham", "phone": "02089 772854", "website": "https://www.diy.com/store/2640", "opening_hours": "Mo-Sa 07:00-20:00; Su 10:00-16:00", "brand": "B&Q", "brand:wikidata": "Q707602", "nsi_id": "bandq-092aaf"}, "geometry": {"type": "Point", "coordinates": [-0.3505194579760535, 51.43557120855744]}},
{"type": "Feature", "id": "Q1hiPQ74DeZyxN2HQNAsQHApBdI=", "properties": {"ref": "1181", "@spider": "bq", "shop": "doityourself", "addr:full": "Roneo Corner, Hornchurch Road, Hornchurch, LONDON", "addr:street_address": "Roneo Corner, Hornchurch Road", "addr:postcode": "RM11 1PY", "addr:country": "GB", "name": "B&Q Romford - Roneo Corner", "phone": "01708 734210", "website": "https://www.diy.com/store/1181", "opening_hours": "Mo-Sa 07:00-20:00; Su 10:00-16:00", "brand": "B&Q", "brand:wikidata": "Q707602", "nsi_id": "bandq-092aaf"}, "geometry": {"type": "Point", "coordinates": [0.187761, 51.5662]}},
{"type": "Feature", "id": "QicrDo4r819WuEOJPqHwGsPnkoI=", "properties": {"ref": "1358", "@spider": "bq", "shop": "doityourself", "addr:full": "Glencoe Road, Yeading, Hayes, LONDON", "addr:street_address": "Glencoe Road, Yeading", "addr:postcode": "UB4 9SN", "addr:country": "GB", "name": "B&Q Yeading", "phone": "020 8845 1600", "website": "https://www.diy.com/store/1358", "opening_hours": "Mo-Sa 07:00-20:00; Su 10:00-16:00", "brand": "B&Q", "brand:wikidata": "Q707602", "nsi_id": "bandq-092aaf"}, "geometry": {"type": "Point", "coordinates": [-0.387654, 51.5226]}},
{"type": "Feature", "id": "qz3fP8fYODCbiPD22KYgfduLd7k=", "properties": {"ref": "1324", "@spider": "bq", "shop": "doityourself", "addr:full": "Prospect Place Retail Park, Westgate Road, Dartford, KENT", "addr:street_address": "Prospect Place Retail Park, Westgate Road", "addr:postcode": "DA1 1DY", "addr:country": "GB", "name": "B&Q Dartford", "phone": "01322 228383", "website": "https://www.diy.com/store/1324", "opening_hours": "Mo-Sa 07:00-20:00; Su 10:00-16:00", "brand": "B&Q", "brand:wikidata": "Q707602", "nsi_id": "bandq-092aaf"}, "geometry": {"type": "Point", "coordinates": [0.21495, 51.4487]}},
{"type": "Feature", "id": "YtMcYPBw0h_8H_Q-DTMmot37iU0=", "properties": {"ref": "1257", "@spider": "bq", "shop": "doityourself", "addr:full": "Tangent Link, Harold Hill, Romford, LONDON", "addr:street_address": "Tangent Link, Harold Hill", "addr:postcode": "RM3 8GZ", "addr:country": "GB", "name": "B&Q Romford - Tangent Link", "phone": "01708 336600", "website": "https://www.diy.com/store/1257", "opening_hours": "Mo-Sa 07:00-20:00; Su 10:00-16:00", "brand": "B&Q", "brand:wikidata": "Q707602", "nsi_id": "bandq-092aaf"}, "geometry": {"type": "Point", "coordinates": [0.219046, 51.595]}},
{"type": "Feature", "id": "U98ngJaTgWoGKLzu-uHarJgN2k4=", "properties": {"ref": "1245", "@spider": "bq", "shop": "doityourself", "addr:full": "Arches Retail Park, Lower High Street, Watford, HERTFORDSHIRE", "addr:street_address": "Arches Retail Park, Lower High Street", "addr:postcode": "WD17 2SD", "addr:country": "GB", "name": "B&Q Watford", "phone": "01923 211868", "website": "https://www.diy.com/store/1245", "opening_hours": "Mo-Sa 07:00-20:00; Su 10:00-16:00", "brand": "B&Q", "brand:wikidata": "Q707602", "nsi_id": "bandq-092aaf"}, "geometry": {"type": "Point", "coordinates": [-0.387352, 51.6479]}},
{"type": "Feature", "id": "xhVBOsKQIbEXCaSlNRDAyoNCeew=", "properties": {"ref": "1255", "@spider": "bq", "shop": "doityourself", "addr:full": "Heron Way, Lakeside Retail Park, West Thurrock, Grays, ESSEX", "addr:street_address": "Heron Way, Lakeside Retail Park, West Thurrock", "addr:postcode": "RM20 3WJ", "addr:country": "GB", "name": "B&Q West Thurrock", "phone": "01708 682700", "website": "https://www.diy.com/store/1255", "opening_hours": "Mo-Sa 07:00-20:00; Su 10:00-16:00", "brand": "B&Q", "brand:wikidata": "Q707602", "nsi_id": "bandq-092aaf"}, "geometry": {"type": "Point", "coordinates": [0.282061, 51.4809]}},
{"type": "Feature", "id": "2n37GwSRGoAtjriF-oLaToDTrOc=", "properties": {"ref": "1018", "@spider": "bq", "shop": "doityourself", "addr:full": "Kingston Road, Leatherhead, Leatherhead, SURREY", "addr:street_address": "Kingston Road, Leatherhead", "addr:postcode": "KT22 7QB", "addr:country": "GB", "name": "B&Q Leatherhead", "phone": "01372 373793", "website": "https://www.diy.com/store/1018", "opening_hours": "Mo-Sa 07:00-20:00; Su 10:00-16:00", "brand": "B&Q", "brand:wikidata": "Q707602", "nsi_id": "bandq-092aaf"}, "geometry": {"type": "Point", "coordinates": [-0.334225, 51.3128]}},
{"type": "Feature", "id": "KhgxqdLMoV6AVRuXqidFJpWgetc=", "properties": {"ref": "2639", "@spider": "bq", "shop": "doityourself", "addr:full": "Unit B, 4 Graham Close, St Albans, Hertfordshire", "addr:street_address": "Unit B, 4 Graham Close, St Albans", "addr:postcode": "AL1 2DF", "addr:country": "GB", "name": "B&Q St Albans", "phone": "01727 732400", "website": "https://www.diy.com/store/2639", "opening_hours": "Mo-Sa 07:00-20:00; Su 10:00-16:00", "brand": "B&Q", "brand:wikidata": "Q707602", "nsi_id": "bandq-092aaf"}, "geometry": {"type": "Point", "coordinates": [-0.339869, 51.74172]}},
{"type": "Feature", "id": "VP4dlK6CGGDQHl8uIQh7hH_g0n0=", "properties": {"ref": "2663", "@spider": "bq", "shop": "doityourself", "addr:full": "Brighton Road Retail Park, 12 Brighton Road, Redhill, Surrey", "addr:street_address": "Brighton Road Retail Park, 12 Brighton Road, Redhill", "addr:postcode": "RH1 6QL", "addr:country": "GB", "name": "B&Q Redhill", "phone": "01737 763569", "website": "https://www.diy.com/store/2663", "contact:email": "Redhill.DutyManager@b-and-q.co.uk", "opening_hours": "Mo-Sa 07:00-20:00; Su 10:00-16:00", "brand": "B&Q", "brand:wikidata": "Q707602", "nsi_id": "bandq-092aaf"}, "geometry": {"type": "Point", "coordinates": [-0.169569, 51.235022]}},
{"type": "Feature", "id": "5oacFWFe5VbHSxC8s-6E140JhbI=", "properties": {"ref": "1194", "@spider": "bq", "shop": "doityourself", "addr:full": "Imperial Business Estate, Clifton Marine Parade, Gravesend, KENT", "addr:street_address": "Imperial Business Estate, Clifton Marine Parade", "addr:postcode": "DA11 0DY", "addr:country": "GB", "name": "B&Q Gravesend", "phone": "01474 536534", "website": "https://www.diy.com/store/1194", "opening_hours": "Mo-Sa 07:00-20:00; Su 10:00-16:00", "brand": "B&Q", "brand:wikidata": "Q707602", "nsi_id": "bandq-092aaf"}, "geometry": {"type": "Point", "coordinates": [0.360746, 51.4448]}},
{"type": "Feature", "id": "y9MRwzEj6AAhnJkRkSRetT2qm0c=", "properties": {"ref": "1058", "@spider": "bq", "shop": "doityourself", "addr:full": "Swallowfields, Welwyn Garden City, HERTFORDSHIRE", "addr:street_address": "Swallowfields", "addr:postcode": "AL7 1JD", "addr:country": "GB", "name": "B&Q Welwyn Garden City", "phone": "01707 371543", "website": "https://www.diy.com/store/1058", "opening_hours": "Mo-Sa 07:00-20:00; Su 10:00-16:00", "brand": "B&Q", "brand:wikidata": "Q707602", "nsi_id": "bandq-092aaf"}, "geometry": {"type": "Point", "coordinates": [-0.192977, 51.8008]}},
{"type": "Feature", "id": "lUzyPbswjwYm6t_FuOFC10rRu6w=", "properties": {"ref": "1045", "@spider": "bq", "shop": "doityourself", "addr:full": "6 The Oaks Retail Park, Howard Way, Harlow, ESSEX", "addr:street_address": "6 The Oaks Retail Park, Howard Way", "addr:postcode": "CM20 2AB", "addr:country": "GB", "name": "B&Q Harlow", "phone": "01279 626634", "website": "https://www.diy.com/store/1045", "opening_hours": "Mo-Sa 08:00-20:00; Su 10:00-16:00", "brand": "B&Q", "brand:wikidata": "Q707602", "nsi_id": "bandq-092aaf"}, "geometry": {"type": "Point", "coordinates": [0.109993, 51.7817]}},
{"type": "Feature", "id": "8HET3zJIE2uFBfonUp6VZj3vPwc=", "properties": {"ref": "1071", "@spider": "bq", "shop": "doityourself", "addr:full": "Two Waters Road, Hemel Hempstead, HERTFORDSHIRE", "addr:street_address": "Two Waters Road", "addr:postcode": "HP3 9BX", "addr:country": "GB", "name": "B&Q Hemel Hempstead", "phone": "01442 216644", "website": "https://www.diy.com/store/1071", "opening_hours": "Mo-Sa 07:00-20:00; Su 10:00-16:00", "brand": "B&Q", "brand:wikidata": "Q707602", "nsi_id": "bandq-092aaf"}, "geometry": {"type": "Point", "coordinates": [-0.473334, 51.7432]}},
{"type": "Feature", "id": "pdU9TKf36yHJIrSMylfIkyOxAGo=", "properties": {"ref": "1262", "@spider": "bq", "shop": "doityourself", "addr:full": "Bath Road Retail Park, 280 Bath Road, Slough, BERKSHIRE", "addr:street_address": "Bath Road Retail Park, 280 Bath Road", "addr:postcode": "SL1 4DX", "addr:country": "GB", "name": "B&Q Slough", "phone": "01753 505700", "website": "https://www.diy.com/store/1262", "opening_hours": "Mo-Sa 07:00-20:00; Su 10:00-16:00", "brand": "B&Q", "brand:wikidata": "Q707602", "nsi_id": "bandq-092aaf"}, "geometry": {"type": "Point", "coordinates": [-0.634263, 51.5208]}},
{"type": "Feature", "id": "mHwToLh7_j1MGS4OkR5GcReEnIU=", "properties": {"ref": "1199", "@spider": "bq", "shop": "doityourself", "addr:full": "Pipps Hill Retail Park, Miles Gray Road, Upper Mayne, Basildon, ESSEX", "addr:street_address": "Pipps Hill Retail Park, Miles Gray Road, Upper Mayne", "addr:postcode": "SS14 3AF", "addr:country": "GB", "name": "B&Q Basildon", "phone": "01268 534884", "website": "https://www.diy.com/store/1199", "opening_hours": "Mo-Fr 07:00-20:00; Sa 08:00-20:00; Su 10:00-16:00", "brand": "B&Q", "brand:wikidata": "Q707602", "nsi_id": "bandq-092aaf"}, "geometry": {"type": "Point", "coordinates": [0.444408, 51.5799]}},
{"type": "Feature", "id": "VxLIDiinPTqGT-iQSOpIIvVIJ7k=", "properties": {"ref": "1322", "@spider": "bq", "shop": "doityourself", "addr:full": "London Road, Stevenage, HERTFORDSHIRE", "addr:street_address": "London Road", "addr:postcode": "SG1 1XW", "addr:country": "GB", "name": "B&Q Stevenage", "phone": "0330 1239243", "website": "https://www.diy.com/store/1322", "opening_hours": "Mo-Sa 07:00-20:00; Su 10:00-16:00", "brand": "B&Q", "brand:wikidata": "Q707602", "nsi_id": "bandq-092aaf"}, "geometry": {"type": "Point", "coordinates": [-0.202302, 51.8945]}},
{"type": "Feature", "id": "7Ml0KXV3GlaXSwTegStSdoZAobQ=", "properties": {"ref": "1016", "@spider": "bq", "shop": "doityourself", "addr:full": "London Road, Larkfield, Aylesford, KENT", "addr:street_address": "London Road, Larkfield", "addr:postcode": "ME20 6NY", "addr:country": "GB", "name": "B&Q Aylesford (Larkfield)", "phone": "01732 870470", "website": "https://www.diy.com/store/1016", "opening_hours": "Mo-Sa 07:00-20:00; Su 10:00-16:00", "brand": "B&Q", "brand:wikidata": "Q707602", "nsi_id": "bandq-092aaf"}, "geometry": {"type": "Point", "coordinates": [0.438335, 51.299]}},
{"type": "Feature", "id": "LSi6WPH6VLU9GSCAnMMsyqlQGH0=", "properties": {"ref": "1155", "@spider": "bq", "shop": "doityourself", "addr:full": "London Road, Crawley, WEST SUSSEX", "addr:street_address": "London Road", "addr:postcode": "RH10 8JD", "addr:country": "GB", "name": "B&Q Crawley", "phone": "01293 611651", "website": "https://www.diy.com/store/1155", "opening_hours": "Mo-Sa 07:00-20:00; Su 10:00-16:00", "brand": "B&Q", "brand:wikidata": "Q707602", "nsi_id": "bandq-092aaf"}, "geometry": {"type": "Point", "coordinates": [-0.190084, 51.1213]}},
{"type": "Feature", "id": "-pJhaRsHRTEjY9R3XscF415V8bk=", "properties": {"ref": "1124", "@spider": "bq", "shop": "doityourself", "addr:full": "London Road, High Wycombe, BUCKINGHAMSHIRE", "addr:street_address": "London Road", "addr:postcode": "HP11 1EZ", "addr:country": "GB", "name": "B&Q High Wycombe", "phone": "01494 463400", "website": "https://www.diy.com/store/1124", "opening_hours": "Mo-Sa 07:00-20:00; Su 10:00-16:00", "brand": "B&Q", "brand:wikidata": "Q707602", "nsi_id": "bandq-092aaf"}, "geometry": {"type": "Point", "coordinates": [-0.715751, 51.6179]}},
{"type": "Feature", "id": "vVNRpn67iRiNCpZgq9VkZUwKQzE=", "properties": {"ref": "1029", "@spider": "bq", "shop": "doityourself", "addr:full": "Ladymeade Retail Centre, Ladymeade, Woodbridge Road, Guildford, SURREY", "addr:street_address": "Ladymeade Retail Centre, Ladymeade, Woodbridge Road", "addr:postcode": "GU1 1AJ", "addr:country": "GB", "name": "B&Q Guildford", "phone": "01483 304881", "website": "https://www.diy.com/store/1029", "opening_hours": "Mo-Sa 07:00-20:00; Su 10:00-16:00", "brand": "B&Q", "brand:wikidata": "Q707602", "nsi_id": "bandq-092aaf"}, "geometry": {"type": "Point", "coordinates": [-0.580946, 51.2486]}},
{"type": "Feature", "id": "xRF5Z3dLOguknVQDb9e_ECzE3yY=", "properties": {"ref": "1150", "@spider": "bq", "shop": "doityourself", "addr:full": "Longfield Retail Park, Longfield Road, Southborough, Tunbridge Wells, KENT", "addr:street_address": "Longfield Retail Park, Longfield Road, Southborough", "addr:postcode": "TN2 3EW", "addr:country": "GB", "name": "B&Q Tunbridge Wells", "phone": "01892 557556", "website": "https://www.diy.com/store/1150", "opening_hours": "Mo-Sa 07:00-20:00; Su 10:00-16:00", "brand": "B&Q", "brand:wikidata": "Q707602", "nsi_id": "bandq-092aaf"}, "geometry": {"type": "Point", "coordinates": [0.292241, 51.1594]}},
{"type": "Feature", "id": "lD67qEAjMUxLJ33kZfIJ2b_Gahs=", "properties": {"ref": "1368", "@spider": "bq", "shop": "doityourself", "addr:full": "Laporte Retail Park, Dallow Road, Luton, BEDFORDSHIRE", "addr:street_address": "Laporte Retail Park, Dallow Road", "addr:postcode": "LU1 1HJ", "addr:country": "GB", "name": "B&Q Luton", "phone": "01582 402300", "website": "https://www.diy.com/store/1368", "opening_hours": "Mo-Sa 07:00-20:00; Su 10:00-16:00", "brand": "B&Q", "brand:wikidata": "Q707602", "nsi_id": "bandq-092aaf"}, "geometry": {"type": "Point", "coordinates": [-0.453971, 51.8864]}},
{"type": "Feature", "id": "CLDeOCTRH9JBPAguMhBDDL90Zuw=", "properties": {"ref": "1373", "@spider": "bq", "shop": "doityourself", "addr:full": "Will Adams Way, Gillingham, KENT", "addr:street_address": "Will Adams Way", "addr:postcode": "ME8 6BY", "addr:country": "GB", "name": "B&Q Gillingham", "phone": "01634 386050", "website": "https://www.diy.com/store/1373", "opening_hours": "Mo-Sa 07:00-20:00; Su 10:00-16:00", "brand": "B&Q", "brand:wikidata": "Q707602", "nsi_id": "bandq-092aaf"}, "geometry": {"type": "Point", "coordinates": [0.57116, 51.3687]}},
{"type": "Feature", "id": "iY-ER_mZyrTmIF2a6scyTHouvE4=", "properties": {"ref": "1188", "@spider": "bq", "shop": "doityourself", "addr:full": "Homelands Retail Park, Cuton Hall Lane, Springfield, Chelmsford, ESSEX", "addr:street_address": "Homelands Retail Park, Cuton Hall Lane, Springfield", "addr:postcode": "CM2 5PX", "addr:country": "GB", "name": "B&Q Chelmsford", "phone": "01245 235300", "website": "https://www.diy.com/store/1188", "opening_hours": "Mo-Sa 07:00-20:00; Su 10:00-16:00", "brand": "B&Q", "brand:wikidata": "Q707602", "nsi_id": "bandq-092aaf"}, "geometry": {"type": "Point", "coordinates": [0.51177, 51.7447]}},
{"type": "Feature", "id": "0gS88yM4bpjMO4ljlVY1pWMa09I=", "properties": {"ref": "1015", "@spider": "bq", "shop": "doityourself", "addr:full": "Barker Road, Maidstone, KENT", "addr:street_address": "Barker Road", "addr:postcode": "ME16 8DW", "addr:country": "GB", "name": "B&Q Maidstone", "phone": "01622 672488", "website": "https://www.diy.com/store/1015", "opening_hours": "Mo-Sa 07:00-20:00; Su 10:00-16:00", "brand": "B&Q", "brand:wikidata": "Q707602", "nsi_id": "bandq-092aaf"}, "geometry": {"type": "Point", "coordinates": [0.517402, 51.2703]}},
{"type": "Feature", "id": "ykIoaWf3O9Yt0Z0ye8Cbb1jedVY=", "properties": {"ref": "1266", "@spider": "bq", "shop": "doityourself", "addr:full": "Invincible Road, Farnborough, HAMPSHIRE", "addr:street_address": "Invincible Road", "addr:postcode": "GU14 7ST", "addr:country": "GB", "name": "B&Q Farnborough", "phone": "01252 379600", "website": "https://www.diy.com/store/1266", "opening_hours": "Mo-Sa 07:00-20:00; Su 10:00-16:00", "brand": "B&Q", "brand:wikidata": "Q707602", "nsi_id": "bandq-092aaf"}, "geometry": {"type": "Point", "coordinates": [-0.761456, 51.2896]}},
{"type": "Feature", "id": "LuwY5y_8YIBrc9uXqRCNu5U5Wy0=", "properties": {"ref": "1372", "@spider": "bq", "shop": "doityourself", "addr:full": "Fossetts Way, Eastern Avenue, Southend On Sea, ESSEX", "addr:street_address": "Fossetts Way, Eastern Avenue", "addr:postcode": "SS2 4DQ", "addr:country": "GB", "name": "B&Q Southend", "phone": "01702 616819", "website": "https://www.diy.com/store/1372", "opening_hours": "Mo-Sa 07:00-20:00; Su 10:00-16:00", "brand": "B&Q", "brand:wikidata": "Q707602", "nsi_id": "bandq-092aaf"}, "geometry": {"type": "Point", "coordinates": [0.72866, 51.5571]}},
{"type": "Feature", "id": "x9UMaTx0pl7I8BjG8YgM7hh0ET0=", "properties": {"ref": "1305", "@spider": "bq", "shop": "doityourself", "addr:full": "The Vale Hundreds Retail Park, Vale Park Drive, Aylesbury, BUCKINGHAMSHIRE", "addr:street_address": "The Vale Hundreds Retail Park, Vale Park Drive", "addr:postcode": "HP20 1EA", "addr:country": "GB", "name": "B&Q Aylesbury", "phone": "0330 123 9243", "website": "https://www.diy.com/store/1305", "opening_hours": "Mo-Sa 07:00-20:00; Su 10:00-16:00", "brand": "B&Q", "brand:wikidata": "Q707602", "nsi_id": "bandq-092aaf"}, "geometry": {"type": "Point", "coordinates": [-0.807023, 51.8182]}},
{"type": "Feature", "id": "anm2pm6euzanwW6jwkThDWLDFac=", "properties": {"ref": "1198", "@spider": "bq", "shop": "doityourself", "addr:full": "Unit 9, Chapel Hill Retail Park, Charter Way, Braintree, ESSEX", "addr:street_address": "Unit 9, Chapel Hill Retail Park, Charter Way", "addr:postcode": "CM77 8YJ", "addr:country": "GB", "name": "B&Q Braintree", "phone": "01376 347313", "website": "https://www.diy.com/store/1198", "opening_hours": "Mo-Sa 07:00-20:00; Su 10:00-16:00", "brand": "B&Q", "brand:wikidata": "Q707602", "nsi_id": "bandq-092aaf"}, "geometry": {"type": "Point", "coordinates": [0.573717, 51.8686]}},
{"type": "Feature", "id": "4gxM8nb6gsDq7UnNGNVhqePqDmE=", "properties": {"ref": "1354", "@spider": "bq", "shop": "doityourself", "addr:full": "Reading Gate Retail Park, Acre Road, Reading, BERKSHIRE", "addr:street_address": "Reading Gate Retail Park, Acre Road", "addr:postcode": "RG2 0QG", "addr:country": "GB", "name": "B&Q Reading", "phone": "0118 923 0000", "website": "https://www.diy.com/store/1354", "opening_hours": "Mo-Sa 07:00-20:00; Su 10:00-16:00", "brand": "B&Q", "brand:wikidata": "Q707602", "nsi_id": "bandq-092aaf"}, "geometry": {"type": "Point", "coordinates": [-0.982102, 51.4241]}},
{"type": "Feature", "id": "Hh9uFvIQEkfEcekMJtRwrXxGRE8=", "properties": {"ref": "1212", "@spider": "bq", "shop": "doityourself", "addr:full": "Unit 1, Jane Murray Way, Burgess Hill, WEST SUSSEX", "addr:street_address": "Unit 1, Jane Murray Way", "addr:postcode": "RH15 9UG", "addr:country": "GB", "name": "B&Q Burgess Hill", "phone": "01444 237840", "website": "https://www.diy.com/store/1212", "opening_hours": "Mo-Sa 07:00-20:00; Su 10:00-16:00", "brand": "B&Q", "brand:wikidata": "Q707602", "nsi_id": "bandq-092aaf"}, "geometry": {"type": "Point", "coordinates": [-0.152216, 50.9504]}},
{"type": "Feature", "id": "15zY50jgl_-4syhUaqba0TAasCc=", "properties": {"ref": "1142", "@spider": "bq", "shop": "doityourself", "addr:full": "Interchange Retail Park, Ampthill Road, Bedford, BEDFORDSHIRE", "addr:street_address": "Interchange Retail Park, Ampthill Road", "addr:postcode": "MK42 7GA", "addr:country": "GB", "name": "B&Q Bedford", "phone": "0330 1239243", "website": "https://www.diy.com/store/1142", "opening_hours": "Mo-Sa 07:00-20:00; Su 10:00-16:00", "brand": "B&Q", "brand:wikidata": "Q707602", "nsi_id": "bandq-092aaf"}, "geometry": {"type": "Point", "coordinates": [-0.48336, 52.1107]}},
{"type": "Feature", "id": "Ze4fPoSS0hWgRLfQN-NaaN2ejtQ=", "properties": {"ref": "1390", "@spider": "bq", "shop": "doityourself", "addr:full": "Interchange Retail Park, Sam Clark Way, Bedford, BEDFORDSHIRE", "addr:street_address": "Interchange Retail Park, Sam Clark Way", "addr:postcode": "MK42 7GA", "addr:country": "GB", "name": "B&Q Bedford", "phone": "0330 1239243", "website": "https://www.diy.com/store/1390", "opening_hours": "Mo-Sa 07:00-20:00; Su 10:00-16:00", "brand": "B&Q", "brand:wikidata": "Q707602", "nsi_id": "bandq-092aaf"}, "geometry": {"type": "Point", "coordinates": [-0.48336, 52.1107]}},
{"type": "Feature", "id": "EyY7a-ljDGqqMwoKeA3r7i0UH-k=", "properties": {"ref": "1184", "@spider": "bq", "shop": "doityourself", "addr:full": "Cambridge Rd Retail Park, Park Road, Haverhill, Suffolk", "addr:street_address": "Cambridge Rd Retail Park, Park Road", "addr:postcode": "CB9 7GS", "addr:country": "GB", "name": "B&Q Haverhill", "phone": "01440 711000", "website": "https://www.diy.com/store/1184", "opening_hours": "Mo-Fr 07:00-20:00; Sa 08:00-20:00; Su 10:00-16:00", "brand": "B&Q", "brand:wikidata": "Q707602", "nsi_id": "bandq-092aaf"}, "geometry": {"type": "Point", "coordinates": [0.415506, 52.0918]}},
{"type": "Feature", "id": "_s83WWDWk366iRUm4aMt4dHxXSA=", "properties": {"ref": "1135", "@spider": "bq", "shop": "doityourself", "addr:full": "Lewes Road, Pavilion Retail Park, Brighton, EAST SUSSEX", "addr:street_address": "Lewes Road, Pavilion Retail Park", "addr:postcode": "BN2 3QA", "addr:country": "GB", "name": "B&Q Brighton", "phone": "01273 679926", "website": "https://www.diy.com/store/1135", "opening_hours": "Mo-Sa 07:00-20:00; Su 10:00-16:00", "brand": "B&Q", "brand:wikidata": "Q707602", "nsi_id": "bandq-092aaf"}, "geometry": {"type": "Point", "coordinates": [-0.122333, 50.8414]}},
{"type": "Feature", "id": "Y3v_GFNdAT6Egm4Em48jzv1sgog=", "properties": {"ref": "1345", "@spider": "bq", "shop": "doityourself", "addr:full": "Patriot Drive, Rooksley, Milton Keynes, BUCKINGHAMSHIRE", "addr:street_address": "Patriot Drive, Rooksley", "addr:postcode": "MK13 8PU", "addr:country": "GB", "name": "B&Q Milton Keynes", "phone": "01908 698400", "website": "https://www.diy.com/store/1345", "opening_hours": "Mo-Sa 07:00-20:00; Su 10:00-16:00", "brand": "B&Q", "brand:wikidata": "Q707602", "nsi_id": "bandq-092aaf"}, "geometry": {"type": "Point", "coordinates": [-0.78018, 52.0401]}},
{"type": "Feature", "id": "TSmZRKOR7I0WZZxjzvbeVcax9wc=", "properties": {"ref": "2722", "@spider": "bq", "shop": "doityourself", "addr:full": "Unit B, Stane Retail Park, Western Approach, Stanway, Colchester", "addr:street_address": "Unit B, Stane Retail Park, Western Approach", "addr:postcode": "CO3 8DW", "addr:country": "GB", "name": "B&Q Colchester Tollgate", "phone": "01206 363000", "website": "https://www.diy.com/store/2722", "contact:email": "ColchesterTollgate.DutyManager@b-and-q.co.uk", "opening_hours": "Mo-Sa 07:00-20:00; Su 10:00-16:00", "brand": "B&Q", "brand:wikidata": "Q707602", "nsi_id": "bandq-092aaf"}, "geometry": {"type": "Point", "coordinates": [0.82706, 51.88621]}},
{"type": "Feature", "id": "8AWlgz7MO91ET3mxsVbEiEciy2A=", "properties": {"ref": "1017", "@spider": "bq", "shop": "doityourself", "addr:full": "Lister Road, Basingstoke, HAMPSHIRE", "addr:street_address": "Lister Road", "addr:postcode": "RG22 4LA", "addr:country": "GB", "name": "B&Q Basingstoke", "phone": "01256 460876", "website": "https://www.diy.com/store/1017", "opening_hours": "Mo-Sa 07:00-20:00; Su 10:00-16:00", "brand": "B&Q", "brand:wikidata": "Q707602", "nsi_id": "bandq-092aaf"}, "geometry": {"type": "Point", "coordinates": [-1.10539, 51.2529]}},
{"type": "Feature", "id": "tTrDwNQBmrSmNYkrIb6iaqNH71Q=", "properties": {"ref": "1136", "@spider": "bq", "shop": "doityourself", "addr:full": "43-61 Brighton Road, Shoreham-by-Sea, WEST SUSSEX", "addr:street_address": "43-61 Brighton Road", "addr:postcode": "BN43 6RJ", "addr:country": "GB", "name": "B&Q Shoreham-by-Sea", "phone": "01273 463423", "website": "https://www.diy.com/store/1136", "opening_hours": "Mo-Fr 07:00-20:00; Sa 08:00-20:00; Su 10:00-16:00", "brand": "B&Q", "brand:wikidata": "Q707602", "nsi_id": "bandq-092aaf"}, "geometry": {"type": "Point", "coordinates": [-0.263671, 50.8332]}},
{"type": "Feature", "id": "_KByu-VJy-ndHWC4iSAWxAeS7kA=", "properties": {"ref": "1026", "@spider": "bq", "shop": "doityourself", "addr:full": "Downlands Business Park, Lyons Way, Worthing, WEST SUSSEX", "addr:street_address": "Downlands Business Park, Lyons Way", "addr:postcode": "BN14 9LA", "addr:country": "GB", "name": "B&Q Worthing", "phone": "01903 821104", "website": "https://www.diy.com/store/1026", "opening_hours": "Mo-Sa 08:00-20:00; Su 10:00-16:00", "brand": "B&Q", "brand:wikidata": "Q707602", "nsi_id": "bandq-092aaf"}, "geometry": {"type": "Point", "coordinates": [-0.364142, 50.8361]}},
{"type": "Feature", "id": "k5x3Yk6Pvj-GUBme3mjH0uhu8TA=", "properties": {"ref": "1216", "@spider": "bq", "shop": "doityourself", "addr:full": "Priors gate, Eaton Socon, St Neots, CAMBRIDGESHIRE", "addr:street_address": "Priors gate, Eaton Socon", "addr:postcode": "PE19 8EL", "addr:country": "GB", "name": "B&Q St Neots", "phone": "01480 212500", "website": "https://www.diy.com/store/1216", "opening_hours": "Mo-Sa 07:00-20:00; Su 10:00-16:00", "brand": "B&Q", "brand:wikidata": "Q707602", "nsi_id": "bandq-092aaf"}, "geometry": {"type": "Point", "coordinates": [-0.292052, 52.2087]}},
{"type": "Feature", "id": "19YyqjzA2VxG1FmIYBxiLrL30a4=", "properties": {"ref": "1239", "@spider": "bq", "shop": "doityourself", "addr:full": "400 Newmarket Road, Cambridge, CAMBRIDGESHIRE", "addr:street_address": "400 Newmarket Road", "addr:postcode": "CB5 8JH", "addr:country": "GB", "name": "B&Q Cambridge", "phone": "01223 323432", "website": "https://www.diy.com/store/1239", "opening_hours": "Mo-Sa 07:00-20:00; Su 10:00-16:00", "brand": "B&Q", "brand:wikidata": "Q707602", "nsi_id": "bandq-092aaf"}, "geometry": {"type": "Point", "coordinates": [0.148938, 52.2114]}},
{"type": "Feature", "id": "2gXZ02SEzOK3zDnVIAyt5sjAtto=", "properties": {"ref": "1192", "@spider": "bq", "shop": "doityourself", "addr:full": "Norman Road, Ashford, KENT", "addr:street_address": "Norman Road", "addr:postcode": "TN23 7DG", "addr:country": "GB", "name": "B&Q Ashford", "phone": "01233 625001", "website": "https://www.diy.com/store/1192", "opening_hours": "Mo-Sa 07:00-20:00; Su 10:00-16:00", "brand": "B&Q", "brand:wikidata": "Q707602", "nsi_id": "bandq-092aaf"}, "geometry": {"type": "Point", "coordinates": [0.871941, 51.1371]}},
{"type": "Feature", "id": "GC1wzlE7G6pv5Dkc8lRyBWs9fKE=", "properties": {"ref": "1137", "@spider": "bq", "shop": "doityourself", "addr:full": "The Drove, Newhaven, EAST SUSSEX", "addr:street_address": "The Drove", "addr:postcode": "BN9 0AG", "addr:country": "GB", "name": "B&Q Newhaven", "phone": "01273 611844", "website": "https://www.diy.com/store/1137", "opening_hours": "Mo-Sa 07:00-20:00; Su 10:00-16:00", "brand": "B&Q", "brand:wikidata": "Q707602", "nsi_id": "bandq-092aaf"}, "geometry": {"type": "Point", "coordinates": [0.057464, 50.7948]}},
{"type": "Feature", "id": "gcTIiAh2cG7298kIcLEfV1D2YUs=", "properties": {"ref": "1024", "@spider": "bq", "shop": "doityourself", "addr:full": "Thanet Way, Chestfield, Whitstable, KENT", "addr:street_address": "Thanet Way, Chestfield", "addr:postcode": "CT5 3QS", "addr:country": "GB", "name": "B&Q Whitstable", "phone": "01227 793663", "website": "https://www.diy.com/store/1024", "opening_hours": "Mo-Sa 07:00-20:00; Su 10:00-16:00", "brand": "B&Q", "brand:wikidata": "Q707602", "nsi_id": "bandq-092aaf"}, "geometry": {"type": "Point", "coordinates": [1.05826, 51.3582]}},
{"type": "Feature", "id": "w9kuov0--1_oFpHc-RtUYHaHgpA=", "properties": {"ref": "1296", "@spider": "bq", "shop": "doityourself", "addr:full": "Woodhall Business Park, Eastern Bypass, Sudbury, Suffolk", "addr:street_address": "Woodhall Business Park, Eastern Bypass", "addr:postcode": "CO10 1WH", "addr:country": "GB", "name": "B&Q Sudbury", "phone": "01787 242900", "website": "https://www.diy.com/store/1296", "opening_hours": "Mo-Sa 07:00-20:00; Su 10:00-16:00", "brand": "B&Q", "brand:wikidata": "Q707602", "nsi_id": "bandq-092aaf"}, "geometry": {"type": "Point", "coordinates": [0.736449, 52.051]}},
{"type": "Feature", "id": "9K8zB6l9yOMrcAKaNwYNXERH8xg=", "properties": {"ref": "1028", "@spider": "bq", "shop": "doityourself", "addr:full": "Marshall Road, Eastbourne, EAST SUSSEX", "addr:street_address": "Marshall Road", "addr:postcode": "BN23 6QU", "addr:country": "GB", "name": "B&Q Eastbourne", "phone": "01323 509466", "website": "https://www.diy.com/store/1028", "opening_hours": "Mo-Sa 08:00-20:00; Su 10:00-16:00", "brand": "B&Q", "brand:wikidata": "Q707602", "nsi_id": "bandq-092aaf"}, "geometry": {"type": "Point", "coordinates": [0.283448, 50.796]}},
{"type": "Feature", "id": "sf6fCnv-WMmuEpT1adoDCqaNjU4=", "properties": {"ref": "1036", "@spider": "bq", "shop": "doityourself", "addr:full": "London Road, Newbury, BERKSHIRE", "addr:street_address": "London Road", "addr:postcode": "RG14 2BP", "addr:country": "GB", "name": "B&Q Newbury", "phone": "01635 528515", "website": "https://www.diy.com/store/1036", "opening_hours": "Mo-Fr 07:00-20:00; Sa 08:00-20:00; Su 10:00-16:00", "brand": "B&Q", "brand:wikidata": "Q707602", "nsi_id": "bandq-092aaf"}, "geometry": {"type": "Point", "coordinates": [-1.30348, 51.4031]}},
{"type": "Feature", "id": "Aa6hKds1YE-LtEEPt37g1x1Li3M=", "properties": {"ref": "1032", "@spider": "bq", "shop": "doityourself", "addr:full": "Unit 1, Ravenside Retail & Leisure Park, Hastings Road, Bexhill, EAST SUSSEX", "addr:street_address": "Unit 1, Ravenside Retail & Leisure Park, Hastings Road", "addr:postcode": "TN40 2JS", "addr:country": "GB", "name": "B&Q Bexhill", "phone": "01424 730977", "website": "https://www.diy.com/store/1032", "opening_hours": "Mo-Sa 07:00-20:00; Su 10:00-16:00", "brand": "B&Q", "brand:wikidata": "Q707602", "nsi_id": "bandq-092aaf"}, "geometry": {"type": "Point", "coordinates": [0.501411, 50.8437]}},
{"type": "Feature", "id": "tg6uShvdPlJHIcDJLS3jriTg_RQ=", "properties": {"ref": "1156", "@spider": "bq", "shop": "doityourself", "addr:full": "11 Nuffield Way, Abingdon, OXFORDSHIRE", "addr:street_address": "11 Nuffield Way", "addr:postcode": "OX14 1RL", "addr:country": "GB", "name": "B&Q Abingdon", "phone": "01235 550022", "website": "https://www.diy.com/store/1156", "opening_hours": "Mo-Sa 08:00-20:00; Su 10:00-16:00", "brand": "B&Q", "brand:wikidata": "Q707602", "nsi_id": "bandq-092aaf"}, "geometry": {"type": "Point", "coordinates": [-1.30391, 51.6699]}},
{"type": "Feature", "id": "fkbWQfTPqXmkWEFG5Iufs-tsM_c=", "properties": {"ref": "1303", "@spider": "bq", "shop": "doityourself", "addr:full": "Sturry Road, Canterbury, KENT", "addr:street_address": "Sturry Road", "addr:postcode": "CT1 1FX", "addr:country": "GB", "name": "B&Q Canterbury", "phone": "01227 865500", "website": "https://www.diy.com/store/1303", "opening_hours": "Mo-Sa 07:00-20:00; Su 10:00-16:00", "brand": "B&Q", "brand:wikidata": "Q707602", "nsi_id": "bandq-092aaf"}, "geometry": {"type": "Point", "coordinates": [1.09866, 51.2883]}},
{"type": "Feature", "id": "DZnzL8LTJt75i13mGq5f2Rwf8kY=", "properties": {"ref": "2605", "@spider": "bq", "shop": "doityourself", "addr:full": "Unit 5, Seacourt Retail Park, Botley, Oxford", "addr:street_address": "Unit 5, Seacourt Retail Park", "addr:postcode": "OX2 0JJ", "addr:country": "GB", "name": "B&Q Oxford", "phone": "01865 879100", "website": "https://www.diy.com/store/2605", "opening_hours": "Mo-Sa 07:00-20:00; Su 10:00-16:00", "brand": "B&Q", "brand:wikidata": "Q707602", "nsi_id": "bandq-092aaf"}, "geometry": {"type": "Point", "coordinates": [-1.294865, 51.754875]}},
{"type": "Feature", "id": "CTT9LnulGgjpTynWcXlLuE4EYK4=", "properties": {"ref": "1138", "@spider": "bq", "shop": "doityourself", "addr:full": "Shripney Road, Bognor Regis, WEST SUSSEX", "addr:street_address": "Shripney Road", "addr:postcode": "PO22 9NF", "addr:country": "GB", "name": "B&Q Bognor Regis", "phone": "01243 867111", "website": "https://www.diy.com/store/1138", "opening_hours": "Mo-Sa 07:00-20:00; Su 10:00-16:00", "brand": "B&Q", "brand:wikidata": "Q707602", "nsi_id": "bandq-092aaf"}, "geometry": {"type": "Point", "coordinates": [-0.667655, 50.7992]}},
{"type": "Feature", "id": "HIK1EB2S3sM9AQXIE7zrk0_wJ3Y=", "properties": {"ref": "1336", "@spider": "bq", "shop": "doityourself", "addr:full": "Brook Retail Park, London road, Clacton-on-Sea, ESSEX", "addr:street_address": "Brook Retail Park, London road", "addr:postcode": "CO15 3TP", "addr:country": "GB", "name": "B&Q Clacton-on-Sea", "phone": "01255 426516", "website": "https://www.diy.com/store/1336", "opening_hours": "Mo-Sa 07:00-20:00; Su 10:00-16:00", "brand": "B&Q", "brand:wikidata": "Q707602", "nsi_id": "bandq-092aaf"}, "geometry": {"type": "Point", "coordinates": [1.14393, 51.814]}},
{"type": "Feature", "id": "XeeiPw-3rPH-tnDtjs7fTfCuwM0=", "properties": {"ref": "1352", "@spider": "bq", "shop": "doityourself", "addr:full": "Unit A, Huntingdon Retail Park, St. Peters Road, Huntingdon, Cambridgeshire", "addr:street_address": "Unit A, Huntingdon Retail Park, St. Peters Road", "addr:postcode": "PE29 7DZ", "addr:country": "GB", "name": "B&Q Huntingdon", "phone": "01480 445000", "website": "https://www.diy.com/store/1352", "opening_hours": "Mo-Sa 08:00-20:00; Su 10:00-16:00", "brand": "B&Q", "brand:wikidata": "Q707602", "nsi_id": "bandq-092aaf"}, "geometry": {"type": "Point", "coordinates": [-0.184064, 52.3527]}},
{"type": "Feature", "id": "sBBwwKx63q2oIizbxAV8RaIfhgs=", "properties": {"ref": "1329", "@spider": "bq", "shop": "doityourself", "addr:full": "Castlefields Retail Park, London Road, Wellingborough, NORTHAMPTONSHIRE", "addr:street_address": "Castlefields Retail Park, London Road", "addr:postcode": "NN8 2DP", "addr:country": "GB", "name": "B&Q Wellingborough", "phone": "01933 275611", "website": "https://www.diy.com/store/1329", "opening_hours": "Mo-Sa 07:00-20:00; Su 10:00-16:00", "brand": "B&Q", "brand:wikidata": "Q707602", "nsi_id": "bandq-092aaf"}, "geometry": {"type": "Point", "coordinates": [-0.685959, 52.2936]}},
{"type": "Feature", "id": "5vy_DkxVa_Uwmt8VWbEBkk_-S38=", "properties": {"ref": "1238", "@spider": "bq", "shop": "doityourself", "addr:full": "Purbrook Way, Havant, HAMPSHIRE", "addr:street_address": "Purbrook Way", "addr:postcode": "PO9 3QJ", "addr:country": "GB", "name": "B&Q Havant", "phone": "023 924 89700", "website": "https://www.diy.com/store/1238", "opening_hours": "Mo-Sa 07:00-20:00; Su 10:00-16:00", "brand": "B&Q", "brand:wikidata": "Q707602", "nsi_id": "bandq-092aaf"}, "geometry": {"type": "Point", "coordinates": [-1.013, 50.866]}},
{"type": "Feature", "id": "SanHIXbuz-cFaocglYn4Xnt3yTY=", "properties": {"ref": "1293", "@spider": "bq", "shop": "doityourself", "addr:full": "Nene Valley Retail Park, Towcester Road, Northampton, NORTHAMPTONSHIRE", "addr:street_address": "Nene Valley Retail Park, Towcester Road", "addr:postcode": "NN1 1BQ", "addr:country": "GB", "name": "B&Q Northampton", "phone": "01604 823100", "website": "https://www.diy.com/store/1293", "opening_hours": "Mo-Sa 07:00-20:00; Su 10:00-16:00", "brand": "B&Q", "brand:wikidata": "Q707602", "nsi_id": "bandq-092aaf"}, "geometry": {"type": "Point", "coordinates": [-0.903252, 52.2319]}},
{"type": "Feature", "id": "RieRaSPMhe7UHyKLXuqUIb15ces=", "properties": {"ref": "1152", "@spider": "bq", "shop": "doityourself", "addr:full": "43-45 Risbygate Street, Bury St.Edmunds, SUFFOLK", "addr:street_address": "43-45 Risbygate Street", "addr:postcode": "IP33 3AA", "addr:country": "GB", "name": "B&Q Bury St Edmunds", "phone": "0330 123 9243", "website": "https://www.diy.com/store/1152", "opening_hours": "Mo-Sa 07:00-20:00; Su 10:00-16:00", "brand": "B&Q", "brand:wikidata": "Q707602", "nsi_id": "bandq-092aaf"}, "geometry": {"type": "Point", "coordinates": [0.706155, 52.2468]}},
{"type": "Feature", "id": "ifuaR8xH-hMLLwttf82Wk-unSno=", "properties": {"ref": "1176", "@spider": "bq", "shop": "doityourself", "addr:full": "Thorney Leys Park, Ducklington, Witney, Oxfordshire", "addr:street_address": "Thorney Leys Park, Ducklington", "addr:postcode": "OX28 4GF", "addr:country": "GB", "name": "B&Q Witney", "phone": "01993 701800", "website": "https://www.diy.com/store/1176", "opening_hours": "Mo-Fr 07:00-20:00; Sa 08:00-20:00; Su 10:00-16:00", "brand": "B&Q", "brand:wikidata": "Q707602", "nsi_id": "bandq-092aaf"}, "geometry": {"type": "Point", "coordinates": [-1.493454, 51.7764]}},
{"type": "Feature", "id": "LKao6fok7Pz4P3GwYFEW7rlXdLE=", "properties": {"ref": "1035", "@spider": "bq", "shop": "doityourself", "addr:full": "Enterprise Road, Westwood Industrial Estate, Ramsgate Road, Margate, KENT", "addr:street_address": "Enterprise Road, Westwood Industrial Estate, Ramsgate Road", "addr:postcode": "CT9 4JP", "addr:country": "GB", "name": "B&Q Margate", "phone": "01843 298833", "website": "https://www.diy.com/store/1035", "opening_hours": "Mo-Sa 07:00-20:00; Su 10:00-16:00", "brand": "B&Q", "brand:wikidata": "Q707602", "nsi_id": "bandq-092aaf"}, "geometry": {"type": "Point", "coordinates": [1.39205, 51.3681]}},
{"type": "Feature", "id": "ezv1h4OvJe-cii2eWnPg-bUPJMc=", "properties": {"ref": "1260", "@spider": "bq", "shop": "doityourself", "addr:full": "Unit 4, The Pompey Centre, Fratton Way, Southsea, Portsmouth, HAMPSHIRE", "addr:street_address": "Unit 4, The Pompey Centre, Fratton Way, Southsea", "addr:postcode": "PO4 8SL", "addr:country": "GB", "name": "B&Q Portsmouth", "phone": "023 928 90100", "website": "https://www.diy.com/store/1260", "opening_hours": "Mo-Sa 07:00-20:00; Su 10:00-16:00", "brand": "B&Q", "brand:wikidata": "Q707602", "nsi_id": "bandq-092aaf"}, "geometry": {"type": "Point", "coordinates": [-1.069493, 50.7968]}},
{"type": "Feature", "id": "TM6PFr4fahdWqKAwXwAY2arz-w4=", "properties": {"ref": "1339", "@spider": "bq", "shop": "doityourself", "addr:full": "Honeywood Park Industrial Estate, Whitfield, Dover, KENT", "addr:street_address": "Honeywood Park Industrial Estate, Whitfield", "addr:postcode": "CT16 3FH", "addr:country": "GB", "name": "B&Q Dover", "phone": "01304 873500", "website": "https://www.diy.com/store/1339", "opening_hours": "Mo-Sa 07:00-20:00; Su 10:00-16:00", "brand": "B&Q", "brand:wikidata": "Q707602", "nsi_id": "bandq-092aaf"}, "geometry": {"type": "Point", "coordinates": [1.31027, 51.1519]}},
{"type": "Feature", "id": "CCshZG_scNWmLUm2fhxJ44R9q4Y=", "properties": {"ref": "1062", "@spider": "bq", "shop": "doityourself", "addr:full": "Marley Way Industrial Estate, Southam Road, Banbury, OXFORDSHIRE", "addr:street_address": "Marley Way Industrial Estate, Southam Road", "addr:postcode": "OX16 2RL", "addr:country": "GB", "name": "B&Q Banbury", "phone": "01295 676600", "website": "https://www.diy.com/store/1062", "opening_hours": "Mo-Sa 08:00-20:00; Su 10:00-16:00", "brand": "B&Q", "brand:wikidata": "Q707602", "nsi_id": "bandq-092aaf"}, "geometry": {"type": "Point", "coordinates": [-1.3369, 52.0712]}},
{"type": "Feature", "id": "UXkatKZvKtRXJSLZqq7cJGa6F38=", "properties": {"ref": "1315", "@spider": "bq", "shop": "doityourself", "addr:full": "4 The Sandlings, Euro Retail Park,  off Ransomes Way, Warren Heath, Ipswich, SUFFOLK", "addr:street_address": "4 The Sandlings, Euro Retail Park,  off Ransomes Way, Warren Heath", "addr:postcode": "IP3 9SN", "addr:country": "GB", "name": "B&Q Ipswich", "phone": "01473 237400", "website": "https://www.diy.com/store/1315", "opening_hours": "Mo-Sa 07:00-20:00; Su 10:00-16:00", "brand": "B&Q", "brand:wikidata": "Q707602", "nsi_id": "bandq-092aaf"}, "geometry": {"type": "Point", "coordinates": [1.20595, 52.0324]}},
{"type": "Feature", "id": "GO1ZOvIJwoXYo04-uUjHWTTN5HY=", "properties": {"ref": "1031", "@spider": "bq", "shop": "doityourself", "addr:full": "Shakespeare Road, Eastleigh, HAMPSHIRE", "addr:street_address": "Shakespeare Road", "addr:postcode": "SO50 4SF", "addr:country": "GB", "name": "B&Q Eastleigh", "phone": "023 8062 0212", "website": "https://www.diy.com/store/1031", "opening_hours": "Mo-Sa 07:00-20:00; Su 10:00-16:00", "brand": "B&Q", "brand:wikidata": "Q707602", "nsi_id": "bandq-092aaf"}, "geometry": {"type": "Point", "coordinates": [-1.362927, 50.9775]}},
{"type": "Feature", "id": "kPQn2VqiIx99iRwuYT22NT14wrQ=", "properties": {"ref": "1048", "@spider": "bq", "shop": "doityourself", "addr:full": "Charles Watts Way, Hedge End, Southampton, HAMPSHIRE", "addr:street_address": "Charles Watts Way, Hedge End", "addr:postcode": "SO30 4HW", "addr:country": "GB", "name": "B&Q Southampton - Hedge End", "phone": "01489 779100", "website": "https://www.diy.com/store/1048", "opening_hours": "Mo-Sa 07:00-20:00; Su 10:00-16:00", "brand": "B&Q", "brand:wikidata": "Q707602", "nsi_id": "bandq-092aaf"}, "geometry": {"type": "Point", "coordinates": [-1.30641, 50.9208]}},
{"type": "Feature", "id": "_LNgQSozGwYgIXxgZ_vMm1Gy3N8=", "properties": {"ref": "1063", "@spider": "bq", "shop": "doityourself", "addr:full": "Meadow Road, Kettering, NORTHAMPTONSHIRE", "addr:street_address": "Meadow Road", "addr:postcode": "NN16 8TL", "addr:country": "GB", "name": "B&Q Kettering", "phone": "01536 482431", "website": "https://www.diy.com/store/1063", "opening_hours": "Mo-Sa 08:00-20:00; Su 10:00-16:00", "brand": "B&Q", "brand:wikidata": "Q707602", "nsi_id": "bandq-092aaf"}, "geometry": {"type": "Point", "coordinates": [-0.733724, 52.3985]}},
{"type": "Feature", "id": "pKnr8n0xen89uJumXpt4Fg7RtWU=", "properties": {"ref": "1002", "@spider": "bq", "shop": "doityourself", "addr:full": "150-158 Southampton Road, Titchfield, Fareham, HAMPSHIRE", "addr:street_address": "150-158 Southampton Road, Titchfield", "addr:postcode": "PO14 4PH", "addr:country": "GB", "name": "B&Q Fareham", "phone": "01489 582855", "website": "https://www.diy.com/store/1002", "opening_hours": "Mo-Sa 07:00-20:00; Su 10:00-16:00", "brand": "B&Q", "brand:wikidata": "Q707602", "nsi_id": "bandq-092aaf"}, "geometry": {"type": "Point", "coordinates": [-1.255274, 50.8633]}},
{"type": "Feature", "id": "SR02M9u6WygMJ7E4BVeC8T7jGpI=", "properties": {"ref": "1177", "@spider": "bq", "shop": "doityourself", "addr:full": "Forest Retail Park, London Road, Thetford, NORFOLK", "addr:street_address": "Forest Retail Park, London Road", "addr:postcode": "IP24 3QL", "addr:country": "GB", "name": "B&Q Thetford", "phone": "01842 756320", "website": "https://www.diy.com/store/1177", "opening_hours": "Mo-Sa 07:00-20:00; Su 10:00-16:00", "brand": "B&Q", "brand:wikidata": "Q707602", "nsi_id": "bandq-092aaf"}, "geometry": {"type": "Point", "coordinates": [0.724819, 52.4053]}},
{"type": "Feature", "id": "KxkuITXB13XLtt51vbfi9AwkeuM=", "properties": {"ref": "1242", "@spider": "bq", "shop": "doityourself", "addr:full": "Franconia Drive, Nursling Industrial Estate, Nursling, Southampton, HAMPSHIRE", "addr:street_address": "Franconia Drive, Nursling Industrial Estate, Nursling", "addr:postcode": "SO16 0YW", "addr:country": "GB", "name": "B&Q Southampton - Nursling", "phone": "023 8074 7100", "website": "https://www.diy.com/store/1242", "opening_hours": "Mo-Sa 07:00-20:00; Su 10:00-16:00", "brand": "B&Q", "brand:wikidata": "Q707602", "nsi_id": "bandq-092aaf"}, "geometry": {"type": "Point", "coordinates": [-1.4754, 50.9356]}},
{"type": "Feature", "id": "IeBin1tqvFISwzjHtRcPlJSSXec=", "properties": {"ref": "1321", "@spider": "bq", "shop": "doityourself", "addr:full": "Great Western Way, Swindon, WILTSHIRE", "addr:street_address": "Great Western Way", "addr:postcode": "SN2 2DJ", "addr:country": "GB", "name": "B&Q Swindon", "phone": "01793 642900", "website": "https://www.diy.com/store/1321", "opening_hours": "Mo-Sa 07:00-20:00; Su 10:00-16:00", "brand": "B&Q", "brand:wikidata": "Q707602", "nsi_id": "bandq-092aaf"}, "geometry": {"type": "Point", "coordinates": [-1.80953, 51.5664]}},
{"type": "Feature", "id": "49YVtGMlC2pL-Y4eExHHxYDZKaU=", "properties": {"ref": "1061", "@spider": "bq", "shop": "doityourself", "addr:full": "Maskew Avenue, Peterborough, CAMBRIDGESHIRE", "addr:street_address": "Maskew Avenue", "addr:postcode": "PE1 2HS", "addr:country": "GB", "name": "B&Q Peterborough", "phone": "01733 891166", "website": "https://www.diy.com/store/1061", "opening_hours": "Mo-Sa 07:00-20:00; Su 10:00-16:00", "brand": "B&Q", "brand:wikidata": "Q707602", "nsi_id": "bandq-092aaf"}, "geometry": {"type": "Point", "coordinates": [-0.257986, 52.5921]}},
{"type": "Feature", "id": "bFmJ4-FbrXm0JAphhvDZTRGspKU=", "properties": {"ref": "1163", "@spider": "bq", "shop": "doityourself", "addr:full": "Dodnor Lane, Newport, ISLE OF WIGHT", "addr:street_address": "Dodnor Lane", "addr:postcode": "PO30 5AW", "addr:country": "GB", "name": "B&Q Isle Of Wight", "phone": "01983 532290", "website": "https://www.diy.com/store/1163", "opening_hours": "Mo-Sa 07:00-20:00; Su 10:00-16:00", "brand": "B&Q", "brand:wikidata": "Q707602", "nsi_id": "bandq-092aaf"}, "geometry": {"type": "Point", "coordinates": [-1.29865, 50.708]}},
{"type": "Feature", "id": "E-MigKMHmCtE25QFqGHAwcZdi9w=", "properties": {"ref": "1140", "@spider": "bq", "shop": "doityourself", "addr:full": "Elm High Road, Wisbech, NORFOLK", "addr:street_address": "Elm High Road", "addr:postcode": "PE13 2SJ", "addr:country": "GB", "name": "B&Q Wisbech", "phone": "01945 589881", "website": "https://www.diy.com/store/1140", "opening_hours": "Mo-Sa 07:00-20:00; Su 10:00-16:00", "brand": "B&Q", "brand:wikidata": "Q707602", "nsi_id": "bandq-092aaf"}, "geometry": {"type": "Point", "coordinates": [0.172777, 52.6504]}},
{"type": "Feature", "id": "lFR07qgodsRKUTGd9MZBGers_YA=", "properties": {"ref": "1021", "@spider": "bq", "shop": "doityourself", "addr:full": "Southampton Road, Salisbury, WILTSHIRE", "addr:street_address": "Southampton Road", "addr:postcode": "SP1 2LE", "addr:country": "GB", "name": "B&Q Salisbury", "phone": "01722 332299", "website": "https://www.diy.com/store/1021", "opening_hours": "Mo-Sa 07:00-20:00; Su 10:00-16:00", "brand": "B&Q", "brand:wikidata": "Q707602", "nsi_id": "bandq-092aaf"}, "geometry": {"type": "Point", "coordinates": [-1.78092, 51.062]}},
{"type": "Feature", "id": "Ag_rZS2teUsdakMkLV2E0AYTesI=", "properties": {"ref": "1338", "@spider": "bq", "shop": "doityourself", "addr:full": "Hambleton Avenue, Devizes, Wiltshire", "addr:street_address": "Hambleton Avenue", "addr:postcode": "SN10 2SD", "addr:country": "GB", "name": "B&Q Devizes", "phone": "01380 829100", "website": "https://www.diy.com/store/1338", "opening_hours": "Mo-Sa 08:00-20:00; Su 10:00-16:00", "brand": "B&Q", "brand:wikidata": "Q707602", "nsi_id": "bandq-092aaf"}, "geometry": {"type": "Point", "coordinates": [-1.971703, 51.3641]}},
{"type": "Feature", "id": "LEMztRwAy9HVMc5E1g9OibG5JqY=", "properties": {"ref": "1258", "@spider": "bq", "shop": "doityourself", "addr:full": "Brandon Road, Binley Woods, Coventry, WEST MIDLANDS", "addr:street_address": "Brandon Road, Binley Woods", "addr:postcode": "CV3 2JD", "addr:country": "GB", "name": "B&Q Coventry - Brandon Road", "phone": "024 7660 8100", "website": "https://www.diy.com/store/1258", "opening_hours": "Mo-Sa 07:00-20:00; Su 10:00-16:00", "brand": "B&Q", "brand:wikidata": "Q707602", "nsi_id": "bandq-092aaf"}, "geometry": {"type": "Point", "coordinates": [-1.43488, 52.3953]}},
{"type": "Feature", "id": "57yh_JMi_EUzzV7ZN4b-5DgrXjw=", "properties": {"ref": "1141", "@spider": "bq", "shop": "doityourself", "addr:full": "Unit A,  The Maybird Centre, Birmingham Road, Stratford-upon-Avon, WARWICKSHIRE", "addr:street_address": "Unit A,  The Maybird Centre, Birmingham Road", "addr:postcode": "CV37 0HZ", "addr:country": "GB", "name": "B&Q Stratford-upon-Avon", "phone": "01789 415446", "website": "https://www.diy.com/store/1141", "opening_hours": "Mo-Sa 08:00-20:00; Su 10:00-16:00", "brand": "B&Q", "brand:wikidata": "Q707602", "nsi_id": "bandq-092aaf"}, "geometry": {"type": "Point", "coordinates": [-1.71372, 52.2016]}},
{"type": "Feature", "id": "-bQLgyKF951fbzM6MeMwMZIep-Y=", "properties": {"ref": "1043", "@spider": "bq", "shop": "doityourself", "addr:full": "Bull Head Street, Wigston, Leicester, LEICESTERSHIRE", "addr:street_address": "Bull Head Street, Wigston", "addr:postcode": "LE18 1PA", "addr:country": "GB", "name": "B&Q Wigston", "phone": "01162 881360", "website": "https://www.diy.com/store/1043", "opening_hours": "Mo-Sa 07:00-20:00; Su 10:00-16:00", "brand": "B&Q", "brand:wikidata": "Q707602", "nsi_id": "bandq-092aaf"}, "geometry": {"type": "Point", "coordinates": [-1.10473, 52.5838]}},
{"type": "Feature", "id": "IITAJEalLbYc76yeAqEvFkHbMpo=", "properties": {"ref": "1231", "@spider": "bq", "shop": "doityourself", "addr:full": "Alvis Retail Park, Holyhead Road, Coventry, WEST MIDLANDS", "addr:street_address": "Alvis Retail Park, Holyhead Road", "addr:postcode": "CV5 8BW", "addr:country": "GB", "name": "B&Q Coventry - Alvis Retail Park", "phone": "0330 123 9243", "website": "https://www.diy.com/store/1231", "opening_hours": "Mo-Sa 07:00-20:00; Su 10:00-16:00", "brand": "B&Q", "brand:wikidata": "Q707602", "nsi_id": "bandq-092aaf"}, "geometry": {"type": "Point", "coordinates": [-1.529846, 52.4117]}},
{"type": "Feature", "id": "q3DfMoLQMUFspRBW_bpEx5utRrU=", "properties": {"ref": "1160", "@spider": "bq", "shop": "doityourself", "addr:full": "Hansa Road, Hardwick Industrial Estate, King's Lynn, NORFOLK", "addr:street_address": "Hansa Road, Hardwick Industrial Estate", "addr:postcode": "PE30 4HX", "addr:country": "GB", "name": "B&Q King's Lynn", "phone": "01553 775400", "website": "https://www.diy.com/store/1160", "opening_hours": "Mo-Sa 07:00-20:00; Su 10:00-16:00", "brand": "B&Q", "brand:wikidata": "Q707602", "nsi_id": "bandq-092aaf"}, "geometry": {"type": "Point", "coordinates": [0.40866, 52.7405]}},
{"type": "Feature", "id": "a9K7PbBMyjY6ZYo4ubMLZmVh4Jo=", "properties": {"ref": "1170", "@spider": "bq", "shop": "doityourself", "addr:full": "Unit 1, Holland Markets, Winfrey Avenue, Spalding, Lincolnshire", "addr:street_address": "Unit 1, Holland Markets, Winfrey Avenue", "addr:postcode": "PE11 1RQ", "addr:country": "GB", "name": "B&Q Spalding", "phone": "01775 715300", "website": "https://www.diy.com/store/1170", "opening_hours": "Mo-Sa 08:00-20:00; Su 10:00-16:00", "brand": "B&Q", "brand:wikidata": "Q707602", "nsi_id": "bandq-092aaf"}, "geometry": {"type": "Point", "coordinates": [-0.151792, 52.7891]}},
{"type": "Feature", "id": "4ql3XrAkwboBh0pfp1ZxybOOKwA=", "properties": {"ref": "1091", "@spider": "bq", "shop": "doityourself", "addr:full": "Four Pools Retail Park, Four Pools Lane, Evesham, WORCESTERSHIRE", "addr:street_address": "Four Pools Retail Park, Four Pools Lane", "addr:postcode": "WR11 1DJ", "addr:country": "GB", "name": "B&Q Evesham", "phone": "01386 422300", "website": "https://www.diy.com/store/1091", "opening_hours": "Mo-Sa 07:00-20:00; Su 10:00-16:00", "brand": "B&Q", "brand:wikidata": "Q707602", "nsi_id": "bandq-092aaf"}, "geometry": {"type": "Point", "coordinates": [-1.93843, 52.0782]}},
{"type": "Feature", "id": "Ng-8JHMZt1a-nJ_FSKe2BluqpDs=", "properties": {"ref": "1330", "@spider": "bq", "shop": "doityourself", "addr:full": "Bath Road, Chippenham, WILTSHIRE", "addr:street_address": "Bath Road", "addr:postcode": "SN14 0AT", "addr:country": "GB", "name": "B&Q Chippenham", "phone": "01249 651144", "website": "https://www.diy.com/store/1330", "opening_hours": "Mo-Sa 07:00-20:00; Su 10:00-16:00", "brand": "B&Q", "brand:wikidata": "Q707602", "nsi_id": "bandq-092aaf"}, "geometry": {"type": "Point", "coordinates": [-2.13715, 51.4496]}},
{"type": "Feature", "id": "gbPcSbBxMuLC4t0XaviBwmz1B-k=", "properties": {"ref": "1157", "@spider": "bq", "shop": "doityourself", "addr:full": "25 New Buildings, Hinckley, LEICESTERSHIRE", "addr:street_address": "25 New Buildings", "addr:postcode": "LE10 1HN", "addr:country": "GB", "name": "B&Q Hinckley", "phone": "01455 250000", "website": "https://www.diy.com/store/1157", "opening_hours": "Mo-Sa 08:00-20:00; Su 10:00-16:00", "brand": "B&Q", "brand:wikidata": "Q707602", "nsi_id": "bandq-092aaf"}, "geometry": {"type": "Point", "coordinates": [-1.36788, 52.5435]}},
{"type": "Feature", "id": "Q7zxfn2A2en_6vuVavxIzvmiw_4=", "properties": {"ref": "1012", "@spider": "bq", "shop": "doityourself", "addr:full": "35 Devonshire Road, Leicester, LEICESTERSHIRE", "addr:street_address": "35 Devonshire Road", "addr:postcode": "LE4 0BG", "addr:country": "GB", "name": "B&Q Leicester", "phone": "0116 253 3100", "website": "https://www.diy.com/store/1012", "opening_hours": "Mo-Sa 07:00-20:00; Su 10:00-16:00", "brand": "B&Q", "brand:wikidata": "Q707602", "nsi_id": "bandq-092aaf"}, "geometry": {"type": "Point", "coordinates": [-1.14033, 52.6498]}},
{"type": "Feature", "id": "bcmI6o8Stvm9T3svXAY6x7rpP1M=", "properties": {"ref": "1034", "@spider": "bq", "shop": "doityourself", "addr:full": "Orchid Way, off Stony Lane, Christchurch, DORSET", "addr:street_address": "Orchid Way, off Stony Lane", "addr:postcode": "BH23 7LQ", "addr:country": "GB", "name": "B&Q Christchurch", "phone": "01202 476748", "website": "https://www.diy.com/store/1034", "opening_hours": "Mo-Sa 08:00-20:00; Su 10:00-16:00", "brand": "B&Q", "brand:wikidata": "Q707602", "nsi_id": "bandq-092aaf"}, "geometry": {"type": "Point", "coordinates": [-1.76812, 50.7382]}},
{"type": "Feature", "id": "mNqQIOVVnvC1RL7Y62oU7YenUzM=", "properties": {"ref": "2755", "@spider": "bq", "shop": "doityourself", "addr:full": "Asda, Barkby Thorpe Lane, Leicester", "addr:street_address": "Asda, Barkby Thorpe Lane", "addr:postcode": "LE4 8GN", "addr:country": "GB", "name": "B&Q Thurmaston (Located inside Asda)", "phone": "01162 609935", "website": "https://www.diy.com/store/2755", "contact:email": "Thurmaston.DutyManager@b-and-q.co.uk", "opening_hours": "Mo-Sa 09:00-18:00; Su 10:00-16:00", "brand": "B&Q", "brand:wikidata": "Q707602", "nsi_id": "bandq-092aaf"}, "geometry": {"type": "Point", "coordinates": [-1.08986, 52.68578]}},
{"type": "Feature", "id": "KY225RJkOQhTHc68TWjQ83umQNM=", "properties": {"ref": "1298", "@spider": "bq", "shop": "doityourself", "addr:full": "Golden Valley Retail Park, Hatherley Lane, Cheltenham, GLOUCESTERSHIRE", "addr:street_address": "Golden Valley Retail Park, Hatherley Lane", "addr:postcode": "GL51 6TA", "addr:country": "GB", "name": "B&Q Cheltenham", "phone": "01242 518400", "website": "https://www.diy.com/store/1298", "opening_hours": "Mo-Sa 07:00-20:00; Su 10:00-16:00", "brand": "B&Q", "brand:wikidata": "Q707602", "nsi_id": "bandq-092aaf"}, "geometry": {"type": "Point", "coordinates": [-2.13133, 51.8923]}},
{"type": "Feature", "id": "uw38nrYuPjb-cRATi9z1IkGSIvc=", "properties": {"ref": "1299", "@spider": "bq", "shop": "doityourself", "addr:full": "Leicester Road, Melton Mowbray, Leicestershire", "addr:street_address": "Leicester Road", "addr:postcode": "LE13 0DB", "addr:country": "GB", "name": "B&Q Melton Mowbray", "phone": "01664 484200", "website": "https://www.diy.com/store/1299", "opening_hours": "Mo-Sa 08:00-20:00; Su 10:00-16:00", "brand": "B&Q", "brand:wikidata": "Q707602", "nsi_id": "bandq-092aaf"}, "geometry": {"type": "Point", "coordinates": [-0.900793, 52.7586]}},
{"type": "Feature", "id": "0J20Xx598tCF3QrDZz9uugufBkc=", "properties": {"ref": "1288", "@spider": "bq", "shop": "doityourself", "addr:full": "Castlepoint Centre, Yeomans Way, Bournemouth, DORSET", "addr:street_address": "Castlepoint Centre, Yeomans Way", "addr:postcode": "BH8 9UB", "addr:country": "GB", "name": "B&Q Bournemouth", "phone": "01202 859899", "website": "https://www.diy.com/store/1288", "opening_hours": "Mo-Sa 07:00-20:00; Su 10:00-16:00", "brand": "B&Q", "brand:wikidata": "Q707602", "nsi_id": "bandq-092aaf"}, "geometry": {"type": "Point", "coordinates": [-1.84191, 50.7527]}},
{"type": "Feature", "id": "yWF_rVQUWIn1WU3S9ez5gRBcI68=", "properties": {"ref": "1146", "@spider": "bq", "shop": "doityourself", "addr:full": "171 Bradley Road, Trowbridge, WILTSHIRE", "addr:street_address": "171 Bradley Road", "addr:postcode": "BA14 0RQ", "addr:country": "GB", "name": "B&Q Trowbridge", "phone": "01225 777891", "website": "https://www.diy.com/store/1146", "opening_hours": "Mo-Sa 08:00-20:00; Su 10:00-16:00", "brand": "B&Q", "brand:wikidata": "Q707602", "nsi_id": "bandq-092aaf"}, "geometry": {"type": "Point", "coordinates": [-2.20968, 51.3018]}},
{"type": "Feature", "id": "eHvuWMgDUjHMUQEw0fQAR9-0ozo=", "properties": {"ref": "1174", "@spider": "bq", "shop": "doityourself", "addr:full": "Dudbridge Hill, Stroud, Gloucestershire", "addr:street_address": "Dudbridge Hill", "addr:postcode": "GL5 3HX", "addr:country": "GB", "name": "B&Q Stroud", "phone": "01453 769600", "website": "https://www.diy.com/store/1174", "opening_hours": "Mo-Sa 08:00-20:00; Su 10:00-16:00", "brand": "B&Q", "brand:wikidata": "Q707602", "nsi_id": "bandq-092aaf"}, "geometry": {"type": "Point", "coordinates": [-2.232918, 51.7383]}},
{"type": "Feature", "id": "_PI0idd92kdXoPEW6HlQk1GRT9w=", "properties": {"ref": "1167", "@spider": "bq", "shop": "doityourself", "addr:full": "5 Neatmarket, Norwich, NORFOLK", "addr:street_address": "5 Neatmarket", "addr:postcode": "NR4 6FB", "addr:country": "GB", "name": "B&Q Norwich - South", "phone": "01603 455378", "website": "https://www.diy.com/store/1167", "opening_hours": "Mo-Sa 07:00-20:00; Su 10:00-16:00", "brand": "B&Q", "brand:wikidata": "Q707602", "nsi_id": "bandq-092aaf"}, "geometry": {"type": "Point", "coordinates": [1.28347, 52.6008]}},
{"type": "Feature", "id": "jAWZ2TWJYUdRf98bUtLGj3hZ9z4=", "properties": {"ref": "1027", "@spider": "bq", "shop": "doityourself", "addr:full": "Jinnah Road, off Tunnel Drive, Smallwood, Redditch, WORCESTERSHIRE", "addr:street_address": "Jinnah Road, off Tunnel Drive, Smallwood", "addr:postcode": "B98 7ER", "addr:country": "GB", "name": "B&Q Redditch", "phone": "01527 591306", "website": "https://www.diy.com/store/1027", "opening_hours": "Mo-Sa 07:00-20:00; Su 10:00-16:00", "brand": "B&Q", "brand:wikidata": "Q707602", "nsi_id": "bandq-092aaf"}, "geometry": {"type": "Point", "coordinates": [-1.93379, 52.3004]}},
{"type": "Feature", "id": "V5Yebr6aXVDDk9jcSk_uRoLWhX8=", "properties": {"ref": "1047", "@spider": "bq", "shop": "doityourself", "addr:full": "Chalford Way, Solihull Retail Park, Marshall Lake Road, Solihull, WEST MIDLANDS", "addr:street_address": "Chalford Way, Solihull Retail Park, Marshall Lake Road", "addr:postcode": "B90 4RB", "addr:country": "GB", "name": "B&Q Solihull", "phone": "0121 745 7799", "website": "https://www.diy.com/store/1047", "opening_hours": "Mo-Sa 07:00-20:00; Su 10:00-16:00", "brand": "B&Q", "brand:wikidata": "Q707602", "nsi_id": "bandq-092aaf"}, "geometry": {"type": "Point", "coordinates": [-1.81772, 52.3989]}},
{"type": "Feature", "id": "85vaouzeMu-4jSX4wSxAwJRuJW0=", "properties": {"ref": "1179", "@spider": "bq", "shop": "doityourself", "addr:full": "St Oswalds Park, Gloucester, GLOUCESTERSHIRE", "addr:street_address": "St Oswalds Park", "addr:postcode": "GL1 2UE", "addr:country": "GB", "name": "B&Q Gloucester", "phone": "01452 313 900", "website": "https://www.diy.com/store/1179", "opening_hours": "Mo-Sa 07:00-20:00; Su 10:00-16:00", "brand": "B&Q", "brand:wikidata": "Q707602", "nsi_id": "bandq-092aaf"}, "geometry": {"type": "Point", "coordinates": [-2.248871, 51.8741]}},
{"type": "Feature", "id": "BEiDRd9O8I3bcJsrYBgWZZSp2-4=", "properties": {"ref": "1277", "@spider": "bq", "shop": "doityourself", "addr:full": "Boundary Road, Hellesdon, Norwich, NORFOLK", "addr:street_address": "Boundary Road, Hellesdon", "addr:postcode": "NR6 5JS", "addr:country": "GB", "name": "B&Q Norwich - Boundary Road", "phone": "01603 269000", "website": "https://www.diy.com/store/1277", "opening_hours": "Mo-Sa 07:00-20:00; Su 10:00-16:00", "brand": "B&Q", "brand:wikidata": "Q707602", "nsi_id": "bandq-092aaf"}, "geometry": {"type": "Point", "coordinates": [1.27159, 52.6567]}},
{"type": "Feature", "id": "fz-MYpjlx8v9F0cVI3NHdOll6fY=", "properties": {"ref": "2737", "@spider": "bq", "shop": "doityourself", "addr:full": "Station Approach, Frome, Somerset", "addr:street_address": "Station Approach, Frome", "addr:postcode": "BA11 1RE", "addr:country": "GB", "name": "B&Q Frome", "phone": "01373 451176", "website": "https://www.diy.com/store/2737", "contact:email": "Frome.DutyManager@b-and-q.co.uk", "opening_hours": "Mo-Sa 07:00-20:00; Su 10:00-16:00", "brand": "B&Q", "brand:wikidata": "Q707602", "nsi_id": "bandq-092aaf"}, "geometry": {"type": "Point", "coordinates": [-2.3106, 51.22848]}},
{"type": "Feature", "id": "ylwjLS-Sk6m9VE3By-jQdrCWlZY=", "properties": {"ref": "1278", "@spider": "bq", "shop": "doityourself", "addr:full": "Fleets Lane, Fleetsbridge, Poole, DORSET", "addr:street_address": "Fleets Lane, Fleetsbridge", "addr:postcode": "BH15 3BN", "addr:country": "GB", "name": "B&Q Poole", "phone": "01202 689300", "website": "https://www.diy.com/store/1278", "opening_hours": "Mo-Sa 07:00-20:00; Su 10:00-16:00", "brand": "B&Q", "brand:wikidata": "Q707602", "nsi_id": "bandq-092aaf"}, "geometry": {"type": "Point", "coordinates": [-1.9875, 50.7361]}},
{"type": "Feature", "id": "zCv2Uj-kq6vdfnfjA-B5xEQRFPw=", "properties": {"ref": "1102", "@spider": "bq", "shop": "doityourself", "addr:full": "Grantham Retail Park, London Road, Grantham, LINCOLNSHIRE", "addr:street_address": "Grantham Retail Park, London Road", "addr:postcode": "NG31 6EN", "addr:country": "GB", "name": "B&Q Grantham", "phone": "01476 591112", "website": "https://www.diy.com/store/1102", "opening_hours": "Mo-Sa 08:00-20:00; Su 10:00-16:00", "brand": "B&Q", "brand:wikidata": "Q707602", "nsi_id": "bandq-092aaf"}, "geometry": {"type": "Point", "coordinates": [-0.63829, 52.9053]}},
{"type": "Feature", "id": "p4-Bxl9v2F887zv6fpFEHaLU2yM=", "properties": {"ref": "1052", "@spider": "bq", "shop": "doityourself", "addr:full": "Jubilee Drive, Belton Road, Loughborough, LEICESTERSHIRE", "addr:street_address": "Jubilee Drive, Belton Road", "addr:postcode": "LE11 5XS", "addr:country": "GB", "name": "B&Q Loughborough", "phone": "01509 631600", "website": "https://www.diy.com/store/1052", "opening_hours": "Mo-Sa 07:00-20:00; Su 10:00-16:00", "brand": "B&Q", "brand:wikidata": "Q707602", "nsi_id": "bandq-092aaf"}, "geometry": {"type": "Point", "coordinates": [-1.207831, 52.7799]}},
{"type": "Feature", "id": "K8mOT9WJ9ZhzM-P-INVg3BTGUhs=", "properties": {"ref": "1327", "@spider": "bq", "shop": "doityourself", "addr:full": "Enterprise Way, Fakenham, NORFOLK", "addr:street_address": "Enterprise Way", "addr:postcode": "NR21 8SN", "addr:country": "GB", "name": "B&Q Fakenham", "phone": "01328 852340", "website": "https://www.diy.com/store/1327", "opening_hours": "Mo-Sa 07:00-20:00; Su 10:00-16:00", "brand": "B&Q", "brand:wikidata": "Q707602", "nsi_id": "bandq-092aaf"}, "geometry": {"type": "Point", "coordinates": [0.869937, 52.8363]}},
{"type": "Feature", "id": "_z4eB17sg5NFwRKmOVhBy18f1sY=", "properties": {"ref": "1302", "@spider": "bq", "shop": "doityourself", "addr:full": "Dunlop Way, off Chester Road, Castle Vale, Erdington, Birmingham, WEST MIDLANDS", "addr:street_address": "Dunlop Way, off Chester Road, Castle Vale, Erdington", "addr:postcode": "B35 7RD", "addr:country": "GB", "name": "B&Q Birmingham - Erdington", "phone": "0121 377 4100", "website": "https://www.diy.com/store/1302", "opening_hours": "Mo-Sa 07:00-20:00; Su 10:00-16:00", "brand": "B&Q", "brand:wikidata": "Q707602", "nsi_id": "bandq-092aaf"}, "geometry": {"type": "Point", "coordinates": [-1.80098, 52.5123]}},
{"type": "Feature", "id": "z4rQJBSJ0pVaJiT9nmIB1t0COIM=", "properties": {"ref": "1022", "@spider": "bq", "shop": "doityourself", "addr:full": "Station Road, Yate, GLOUCESTERSHIRE", "addr:street_address": "Station Road", "addr:postcode": "BS37 5PQ", "addr:country": "GB", "name": "B&Q Yate", "phone": "01454 311074", "website": "https://www.diy.com/store/1022", "opening_hours": "Mo-Sa 07:00-20:00; Su 10:00-16:00", "brand": "B&Q", "brand:wikidata": "Q707602", "nsi_id": "bandq-092aaf"}, "geometry": {"type": "Point", "coordinates": [-2.421069, 51.5412]}},
{"type": "Feature", "id": "-P69K6yZAqhwy3mLk9wYWWQekKA=", "properties": {"ref": "1306", "@spider": "bq", "shop": "doityourself", "addr:full": "The Westbridge Centre, New Hammond Road, Boston, LINCOLNSHIRE", "addr:street_address": "The Westbridge Centre, New Hammond Road", "addr:postcode": "PE21 7JD", "addr:country": "GB", "name": "B&Q Boston", "phone": "01205 355877", "website": "https://www.diy.com/store/1306", "opening_hours": "Mo-Sa 07:00-20:00; Su 10:00-16:00", "brand": "B&Q", "brand:wikidata": "Q707602", "nsi_id": "bandq-092aaf"}, "geometry": {"type": "Point", "coordinates": [-0.064424, 52.9708]}},
{"type": "Feature", "id": "DUeGbs88QLQP1yqZdx0l6iNF-FY=", "properties": {"ref": "1363", "@spider": "bq", "shop": "doityourself", "addr:full": "Cardinal Point Retail Park, Ventura Park Road, Tamworth, STAFFORDSHIRE", "addr:street_address": "Cardinal Point Retail Park, Ventura Park Road", "addr:postcode": "B78 3HL", "addr:country": "GB", "name": "B&Q Tamworth", "phone": "01827 308500", "website": "https://www.diy.com/store/1363", "opening_hours": "Mo-Sa 07:00-20:00; Su 10:00-16:00", "brand": "B&Q", "brand:wikidata": "Q707602", "nsi_id": "bandq-092aaf"}, "geometry": {"type": "Point", "coordinates": [-1.708632, 52.628]}},
{"type": "Feature", "id": "-Rnr630cWo-R7ci-ZK1Quw2JBzQ=", "properties": {"ref": "1280", "@spider": "bq", "shop": "doityourself", "addr:full": "Gallagher Retail Park, Aldermoor Way, Longwell Green, SOUTH GLOUCESTERSHIRE", "addr:street_address": "Gallagher Retail Park, Aldermoor Way", "addr:postcode": "BS30 7DA", "addr:country": "GB", "name": "B&Q Bristol - Longwell Green", "phone": "0117 301 2000", "website": "https://www.diy.com/store/1280", "opening_hours": "Mo-Sa 07:00-20:00; Su 10:00-16:00", "brand": "B&Q", "brand:wikidata": "Q707602", "nsi_id": "bandq-092aaf"}, "geometry": {"type": "Point", "coordinates": [-2.49781, 51.4432]}},
{"type": "Feature", "id": "PpUy_sjylEvGhIiXD3U4CNRAqYs=", "properties": {"ref": "1349", "@spider": "bq", "shop": "doityourself", "addr:full": "Spring Lane, Malvern, Worcestershire", "addr:street_address": "Spring Lane", "addr:postcode": "WR14 1AL", "addr:country": "GB", "name": "B&Q Malvern", "phone": "01684 585500", "website": "https://www.diy.com/store/1349", "opening_hours": "Mo-Sa 08:00-20:00; Su 10:00-16:00", "brand": "B&Q", "brand:wikidata": "Q707602", "nsi_id": "bandq-092aaf"}, "geometry": {"type": "Point", "coordinates": [-2.308695, 52.1301]}},
{"type": "Feature", "id": "6CTC5zpeNVFUuiuBqcyqA1BlDNk=", "properties": {"ref": "1357", "@spider": "bq", "shop": "doityourself", "addr:full": "Mucklow Hill, Halesowen, Dudley, WEST MIDLANDS", "addr:street_address": "Mucklow Hill, Halesowen", "addr:postcode": "B62 8EP", "addr:country": "GB", "name": "B&Q Halesowen", "phone": "0121 504 9100", "website": "https://www.diy.com/store/1357", "opening_hours": "Mo-Sa 07:00-20:00; Su 10:00-16:00", "brand": "B&Q", "brand:wikidata": "Q707602", "nsi_id": "bandq-092aaf"}, "geometry": {"type": "Point", "coordinates": [-2.037363, 52.4578]}},
{"type": "Feature", "id": "BaQenPMc4Ylk3HtohlZNdRh9nC0=", "properties": {"ref": "1319", "@spider": "bq", "shop": "doityourself", "addr:full": "Unit 1, Pasteur Retail Park, Thamesfield way, Great Yarmouth, NORFOLK", "addr:street_address": "Unit 1, Pasteur Retail Park, Thamesfield way", "addr:postcode": "NR31 0DH", "addr:country": "GB", "name": "B&Q Great Yarmouth", "phone": "01493 440611", "website": "https://www.diy.com/store/1319", "opening_hours": "Mo-Sa 07:00-20:00; Su 10:00-16:00", "brand": "B&Q", "brand:wikidata": "Q707602", "nsi_id": "bandq-092aaf"}, "geometry": {"type": "Point", "coordinates": [1.71662, 52.6001]}},
{"type": "Feature", "id": "yLMCBeDPJ5dYRHrYIFNiKmREIvY=", "properties": {"ref": "1241", "@spider": "bq", "shop": "doityourself", "addr:full": "Riverside Retail Park, Queens Drive, Wilford, Nottingham, NOTTINGHAMSHIRE", "addr:street_address": "Riverside Retail Park, Queens Drive, Wilford", "addr:postcode": "NG2 1RU", "addr:country": "GB", "name": "B&Q Nottingham - Riverside", "phone": "0115 968 2100", "website": "https://www.diy.com/store/1241", "opening_hours": "Mo-Sa 07:00-20:00; Su 10:00-16:00", "brand": "B&Q", "brand:wikidata": "Q707602", "nsi_id": "bandq-092aaf"}, "geometry": {"type": "Point", "coordinates": [-1.16685, 52.9316]}},
{"type": "Feature", "id": "CesuNHDvFOle1Pxm6G1rvOmNEJc=", "properties": {"ref": "1310", "@spider": "bq", "shop": "doityourself", "addr:full": "Victoria Retail Park, Netherfield, Nottingham, NOTTINGHAMSHIRE", "addr:street_address": "Victoria Retail Park, Netherfield", "addr:postcode": "NG4 2PA", "addr:country": "GB", "name": "B&Q Nottingham - Netherfield", "phone": "0115 987 4833", "website": "https://www.diy.com/store/1310", "opening_hours": "Mo-Sa 07:00-20:00; Su 10:00-16:00", "brand": "B&Q", "brand:wikidata": "Q707602", "nsi_id": "bandq-092aaf"}, "geometry": {"type": "Point", "coordinates": [-1.06804, 52.9599]}},
{"type": "Feature", "id": "OmdI_AT7KH_HlwsUUqTWDbKuqbw=", "properties": {"ref": "1081", "@spider": "bq", "shop": "doityourself", "addr:full": "Cribbs Causeway, Lysander Road, Bristol, GLOUCESTERSHIRE", "addr:street_address": "Cribbs Causeway, Lysander Road", "addr:postcode": "BS10 7TX", "addr:country": "GB", "name": "B&Q Cribbs Causeway", "phone": "0117 950 6366", "website": "https://www.diy.com/store/1081", "opening_hours": "Mo-Sa 07:00-20:00; Su 10:00-16:00", "brand": "B&Q", "brand:wikidata": "Q707602", "nsi_id": "bandq-092aaf"}, "geometry": {"type": "Point", "coordinates": [-2.600799, 51.5256]}},
{"type": "Feature", "id": "Ngv3cOrwrvGRoK88zwRhS3KYEwg=", "properties": {"ref": "2758", "@spider": "bq", "shop": "doityourself", "addr:full": "Asda, Brickhouse Lane South, Tipton", "addr:street_address": "Asda, Brickhouse Lane South", "addr:postcode": "DY4 7HW", "addr:country": "GB", "name": "B&Q Great Bridge (Located in Asda)", "phone": "0121 520 2759", "website": "https://www.diy.com/store/2758", "contact:email": "GreatBridge.DutyManager@b-and-q.co.uk", "opening_hours": "Mo-Sa 08:00-20:00; Su 10:00-16:00", "brand": "B&Q", "brand:wikidata": "Q707602", "nsi_id": "bandq-092aaf"}, "geometry": {"type": "Point", "coordinates": [-2.02782, 52.53054]}},
{"type": "Feature", "id": "3qZjiH_LbbQHEOFgGNXRs3149lg=", "properties": {"ref": "1130", "@spider": "bq", "shop": "doityourself", "addr:full": "Unit 1,  Imperial Retail Park, Wills Way, Bishopsworth, BRISTOL", "addr:street_address": "Unit 1,  Imperial Retail Park, Wills Way", "addr:postcode": "BS13 7TJ", "addr:country": "GB", "name": "B&Q Bristol - Hartcliffe", "phone": "0117 947 3600", "website": "https://www.diy.com/store/1130", "opening_hours": "Mo-Sa 07:00-20:00; Su 10:00-16:00", "brand": "B&Q", "brand:wikidata": "Q707602", "nsi_id": "bandq-092aaf"}, "geometry": {"type": "Point", "coordinates": [-2.5987, 51.4164]}},
{"type": "Feature", "id": "gVi6pYtM-bR7t1Q_gIw0lMUm-cY=", "properties": {"ref": "1276", "@spider": "bq", "shop": "doityourself", "addr:full": "Axletree Way, Park Lane, Wednesbury, WEST MIDLANDS", "addr:street_address": "Axletree Way, Park Lane", "addr:postcode": "WS10 9QY", "addr:country": "GB", "name": "B&Q Wednesbury", "phone": "0121 568 2700", "website": "https://www.diy.com/store/1276", "opening_hours": "Mo-Sa 07:00-20:00; Su 10:00-16:00", "brand": "B&Q", "brand:wikidata": "Q707602", "nsi_id": "bandq-092aaf"}, "geometry": {"type": "Point", "coordinates": [-2.015541, 52.5698]}},
{"type": "Feature", "id": "-tZfsouSoZcnC7v2wxrVv32bdpY=", "properties": {"ref": "1059", "@spider": "bq", "shop": "doityourself", "addr:full": "Green Street, Kidderminster, WORCESTERSHIRE", "addr:street_address": "Green Street", "addr:postcode": "DY10 1AX", "addr:country": "GB", "name": "B&Q Kidderminster", "phone": "01562 825045", "website": "https://www.diy.com/store/1059", "opening_hours": "Mo-Sa 07:00-20:00; Su 10:00-16:00", "brand": "B&Q", "brand:wikidata": "Q707602", "nsi_id": "bandq-092aaf"}, "geometry": {"type": "Point", "coordinates": [-2.2478, 52.381]}},
{"type": "Feature", "id": "8Bg2xQeLZ43C3AgQPamJzEHJZKo=", "properties": {"ref": "1369", "@spider": "bq", "shop": "doityourself", "addr:full": "Wellington Road, Burton Upon Trent, Derby, STAFFORDSHIRE", "addr:street_address": "Wellington Road, Burton Upon Trent", "addr:postcode": "DE14 2AP", "addr:country": "GB", "name": "B&Q Burton upon Trent", "phone": "01283 546545", "website": "https://www.diy.com/store/1369", "opening_hours": "Mo-Sa 07:00-20:00; Su 10:00-16:00", "brand": "B&Q", "brand:wikidata": "Q707602", "nsi_id": "bandq-092aaf"}, "geometry": {"type": "Point", "coordinates": [-1.649108, 52.8032]}},
{"type": "Feature", "id": "sUe6oKOxIKzz-QQxHnOd17V7w2Y=", "properties": {"ref": "1243", "@spider": "bq", "shop": "doityourself", "addr:full": "Spring Vale Business Park, Black Country Route, Wolverhampton, WEST MIDLANDS", "addr:street_address": "Spring Vale Business Park, Black Country Route", "addr:postcode": "WV14 0QL", "addr:country": "GB", "name": "B&Q Wolverhampton", "phone": "01902 407300", "website": "https://www.diy.com/store/1243", "opening_hours": "Mo-Sa 07:00-20:00; Su 10:00-16:00", "brand": "B&Q", "brand:wikidata": "Q707602", "nsi_id": "bandq-092aaf"}, "geometry": {"type": "Point", "coordinates": [-2.08534, 52.5612]}},
{"type": "Feature", "id": "hm81X_1H3k3zfWIzvLJutyD_9EU=", "properties": {"ref": "1328", "@spider": "bq", "shop": "doityourself", "addr:full": "Osmaston Park Road, Derby, DERBYSHIRE", "addr:street_address": "Osmaston Park Road", "addr:postcode": "DE24 8EB", "addr:country": "GB", "name": "B&Q Derby", "phone": "01332 775077", "website": "https://www.diy.com/store/1328", "opening_hours": "Mo-Sa 07:00-20:00; Su 10:00-16:00", "brand": "B&Q", "brand:wikidata": "Q707602", "nsi_id": "bandq-092aaf"}, "geometry": {"type": "Point", "coordinates": [-1.47375, 52.896]}},
{"type": "Feature", "id": "dXmCyKMFMuBrDb-uVRnB7k0FGCg=", "properties": {"ref": "1301", "@spider": "bq", "shop": "doityourself", "addr:full": "Wainfleet Road, Skegness, Lincolnshire", "addr:street_address": "Wainfleet Road", "addr:postcode": "PE25 2EP", "addr:country": "GB", "name": "B&Q Skegness", "phone": "01754 897540", "website": "https://www.diy.com/store/1301", "opening_hours": "Mo-Sa 08:00-20:00; Su 10:00-16:00", "brand": "B&Q", "brand:wikidata": "Q707602", "nsi_id": "bandq-092aaf"}, "geometry": {"type": "Point", "coordinates": [0.318518, 53.143]}},
{"type": "Feature", "id": "vRq1Gxyu79p4r5dQZbg6irolFWY=", "properties": {"ref": "1193", "@spider": "bq", "shop": "doityourself", "addr:full": "Wyrley Brook, Vine Lane, Cannock, STAFFORDSHIRE", "addr:street_address": "Wyrley Brook, Vine Lane", "addr:postcode": "WS11 0XF", "addr:country": "GB", "name": "B&Q Cannock", "phone": "01543 468839", "website": "https://www.diy.com/store/1193", "opening_hours": "Mo-Sa 07:00-20:00; Su 10:00-16:00", "brand": "B&Q", "brand:wikidata": "Q707602", "nsi_id": "bandq-092aaf"}, "geometry": {"type": "Point", "coordinates": [-2.034488, 52.6752]}},
{"type": "Feature", "id": "Yi4DVN3L6pTZ8uxiLwIPcex23sA=", "properties": {"ref": "1039", "@spider": "bq", "shop": "doityourself", "addr:full": "Derby Road, Eastwood, Nottingham, NOTTINGHAMSHIRE", "addr:street_address": "Derby Road, Eastwood", "addr:postcode": "NG16 3NZ", "addr:country": "GB", "name": "B&Q Eastwood", "phone": "01773 530290", "website": "https://www.diy.com/store/1039", "opening_hours": "Mo-Sa 08:00-20:00; Su 10:00-16:00", "brand": "B&Q", "brand:wikidata": "Q707602", "nsi_id": "bandq-092aaf"}, "geometry": {"type": "Point", "coordinates": [-1.31744, 53.0177]}},
{"type": "Feature", "id": "d9zqK7_we3qi8C5ZxM7ieHQboxI=", "properties": {"ref": "1195", "@spider": "bq", "shop": "doityourself", "addr:full": "Wirral Park, Street Road, Glastonbury, Glastonbury, SOMERSET", "addr:street_address": "Wirral Park, Street Road, Glastonbury", "addr:postcode": "BA6 9XE", "addr:country": "GB", "name": "B&Q Glastonbury", "phone": "01458 834248", "website": "https://www.diy.com/store/1195", "opening_hours": "Mo-Sa 08:00-20:00; Su 10:00-16:00", "brand": "B&Q", "brand:wikidata": "Q707602", "nsi_id": "bandq-092aaf"}, "geometry": {"type": "Point", "coordinates": [-2.73029, 51.1419]}},
{"type": "Feature", "id": "9CrZl8wqjHSGPUlk54mCrguDpzQ=", "properties": {"ref": "1290", "@spider": "bq", "shop": "doityourself", "addr:full": "Lysander Road, Yeovil, SOMERSET", "addr:street_address": "Lysander Road", "addr:postcode": "BA20 2BU", "addr:country": "GB", "name": "B&Q Yeovil", "phone": "01935 429147", "website": "https://www.diy.com/store/1290", "opening_hours": "Mo-Sa 07:00-20:00; Su 10:00-16:00", "brand": "B&Q", "brand:wikidata": "Q707602", "nsi_id": "bandq-092aaf"}, "geometry": {"type": "Point", "coordinates": [-2.653649, 50.9344]}},
{"type": "Feature", "id": "QHZlSLfKaM-EAuIOL_tq3rGJhR0=", "properties": {"ref": "1166", "@spider": "bq", "shop": "doityourself", "addr:full": "Holmer Road, Hereford, HEREFORDSHIRE", "addr:street_address": "Holmer Road", "addr:postcode": "HR4 9SH", "addr:country": "GB", "name": "B&Q Hereford", "phone": "01432 277630", "website": "https://www.diy.com/store/1166", "opening_hours": "Mo-Sa 07:00-20:00; Su 10:00-16:00", "brand": "B&Q", "brand:wikidata": "Q707602", "nsi_id": "bandq-092aaf"}, "geometry": {"type": "Point", "coordinates": [-2.71921, 52.0696]}},
{"type": "Feature", "id": "GCGGUxdWvZxM6cnoxjQBMuECqlM=", "properties": {"ref": "1133", "@spider": "bq", "shop": "doityourself", "addr:full": "Beevor Street, off Tritton Road, Lincoln, LINCOLNSHIRE", "addr:street_address": "Beevor Street, off Tritton Road", "addr:postcode": "LN6 7DJ", "addr:country": "GB", "name": "B&Q Lincoln", "phone": "01522 510009", "website": "https://www.diy.com/store/1133", "opening_hours": "Mo-Sa 07:00-20:00; Su 10:00-16:00", "brand": "B&Q", "brand:wikidata": "Q707602", "nsi_id": "bandq-092aaf"}, "geometry": {"type": "Point", "coordinates": [-0.556376, 53.2257]}},
{"type": "Feature", "id": "oTAuQClH3390v5Nc-7IN6YRR7KA=", "properties": {"ref": "1025", "@spider": "bq", "shop": "doityourself", "addr:full": "2 Jubilee Retail Park, Jubilee Close, Weymouth, DORSET", "addr:street_address": "2 Jubilee Retail Park, Jubilee Close", "addr:postcode": "DT4 7BG", "addr:country": "GB", "name": "B&Q Weymouth", "phone": "01305 768400", "website": "https://www.diy.com/store/1025", "opening_hours": "Mo-Sa 07:00-20:00; Su 10:00-16:00", "brand": "B&Q", "brand:wikidata": "Q707602", "nsi_id": "bandq-092aaf"}, "geometry": {"type": "Point", "coordinates": [-2.45608, 50.6158]}},
{"type": "Feature", "id": "2unTPk24DLSsfGGaTli8DmaaWuc=", "properties": {"ref": "1254", "@spider": "bq", "shop": "doityourself", "addr:full": "Uttoxeter Retail Park, Towns Meadow Way, Uttoxeter, Staffordshire", "addr:street_address": "Uttoxeter Retail Park, Towns Meadow Way", "addr:postcode": "ST14 8AZ", "addr:country": "GB", "name": "B&Q Uttoxeter", "phone": "01889 561640", "website": "https://www.diy.com/store/1254", "opening_hours": "Mo-Sa 08:00-20:00; Su 10:00-16:00", "brand": "B&Q", "brand:wikidata": "Q707602", "nsi_id": "bandq-092aaf"}, "geometry": {"type": "Point", "coordinates": [-1.859779, 52.9006]}},
{"type": "Feature", "id": "KnznRDzs2rtkJ2UPrD787fZh7aQ=", "properties": {"ref": "1261", "@spider": "bq", "shop": "doityourself", "addr:full": "Ashfield Gateway, Mansfield Road, Sutton-in-Ashfield, NOTTINGHAMSHIRE", "addr:street_address": "Ashfield Gateway, Mansfield Road", "addr:postcode": "NG17 4HW", "addr:country": "GB", "name": "B&Q Sutton-in-Ashfield", "phone": "01623 442244", "website": "https://www.diy.com/store/1261", "opening_hours": "Mo-Sa 07:00-20:00; Su 10:00-16:00", "brand": "B&Q", "brand:wikidata": "Q707602", "nsi_id": "bandq-092aaf"}, "geometry": {"type": "Point", "coordinates": [-1.237796, 53.1324]}},
{"type": "Feature", "id": "zxMoohKsXaJGWFf-tFMUEY_XMxQ=", "properties": {"ref": "1169", "@spider": "bq", "shop": "doityourself", "addr:full": "Lichfield Road, Stafford, STAFFORDSHIRE", "addr:street_address": "Lichfield Road", "addr:postcode": "ST17 4LL", "addr:country": "GB", "name": "B&Q Stafford", "phone": "01785 247718", "website": "https://www.diy.com/store/1169", "opening_hours": "Mo-Sa 07:00-20:00; Su 10:00-16:00", "brand": "B&Q", "brand:wikidata": "Q707602", "nsi_id": "bandq-092aaf"}, "geometry": {"type": "Point", "coordinates": [-2.10557, 52.7987]}},
{"type": "Feature", "id": "boOXJ4gPz9m-Kzeelrpv09XsCwU=", "properties": {"ref": "1202", "@spider": "bq", "shop": "doityourself", "addr:full": "Mill Street, Leominster, Herefordshire", "addr:street_address": "Mill Street", "addr:postcode": "HR6 8EF", "addr:country": "GB", "name": "B&Q Leominster", "phone": "0330 123 9243", "website": "https://www.diy.com/store/1202", "opening_hours": "Mo-Sa 08:00-20:00; Su 10:00-16:00", "brand": "B&Q", "brand:wikidata": "Q707602", "nsi_id": "bandq-092aaf"}, "geometry": {"type": "Point", "coordinates": [-2.737119, 52.2314]}},
{"type": "Feature", "id": "NbdsWP4B3W3wBPwyMk-OrYYBd_g=", "properties": {"ref": "1320", "@spider": "bq", "shop": "doityourself", "addr:full": "Flower Down Retail Park, Weston-Super-Mare, SOMERSET", "addr:street_address": "Flower Down Retail Park", "addr:postcode": "BS22 8NA", "addr:country": "GB", "name": "B&Q Weston-Super-Mare", "phone": "01934 424343", "website": "https://www.diy.com/store/1320", "opening_hours": "Mo-Sa 07:00-20:00; Su 10:00-16:00", "brand": "B&Q", "brand:wikidata": "Q707602", "nsi_id": "bandq-092aaf"}, "geometry": {"type": "Point", "coordinates": [-2.939744, 51.3449]}},
{"type": "Feature", "id": "KbwbMmz7mpd5XyPhP3TLzTRFCGY=", "properties": {"ref": "1300", "@spider": "bq", "shop": "doityourself", "addr:full": "Corporation Road, Newport, GWENT", "addr:street_address": "Corporation Road", "addr:postcode": "NP19 0XB", "addr:country": "GB", "name": "B&Q Newport", "phone": "01633 282982", "website": "https://www.diy.com/store/1300", "opening_hours": "Mo-Sa 07:00-20:00; Su 10:00-16:00", "brand": "B&Q", "brand:wikidata": "Q707602", "nsi_id": "bandq-092aaf"}, "geometry": {"type": "Point", "coordinates": [-2.967583, 51.5782]}},
{"type": "Feature", "id": "9CAVoqyrsw-cEAmV6FFz7gDZmQM=", "properties": {"ref": "1046", "@spider": "bq", "shop": "doityourself", "addr:full": "Unit 1, Lockgate Retail Park, Cwmbran Drive, Cwmbran, GWENT", "addr:street_address": "Unit 1, Lockgate Retail Park, Cwmbran Drive", "addr:postcode": "NP44 3JQ", "addr:country": "GB", "name": "B&Q Cwmbran", "phone": "01633 877323", "website": "https://www.diy.com/store/1046", "opening_hours": "Mo-Sa 07:00-20:00; Su 10:00-16:00", "brand": "B&Q", "brand:wikidata": "Q707602", "nsi_id": "bandq-092aaf"}, "geometry": {"type": "Point", "coordinates": [-3.02764, 51.6529]}},
{"type": "Feature", "id": "RDqfxyveslGWuTM_ICBzl3hU0w4=", "properties": {"ref": "1333", "@spider": "bq", "shop": "doityourself", "addr:full": "Belvoir Road, Louth, Lincolnshire", "addr:street_address": "Belvoir Road", "addr:postcode": "LN11 0LQ", "addr:country": "GB", "name": "B&Q Louth", "phone": "01507 353140", "website": "https://www.diy.com/store/1333", "opening_hours": "Mo-Sa 08:00-20:00; Su 10:00-16:00", "brand": "B&Q", "brand:wikidata": "Q707602", "nsi_id": "bandq-092aaf"}, "geometry": {"type": "Point", "coordinates": [-0.00648, 53.3764]}},
{"type": "Feature", "id": "j18obSJ_qRwIZkfIlioSmYFBB5k=", "properties": {"ref": "1122", "@spider": "bq", "shop": "doityourself", "addr:full": "Unit 2,  Telford Bridge Retail Park, Old Park, Telford, SHROPSHIRE", "addr:street_address": "Unit 2,  Telford Bridge Retail Park, Old Park", "addr:postcode": "TF3 4PB", "addr:country": "GB", "name": "B&Q Telford", "phone": "01952 230070", "website": "https://www.diy.com/store/1122", "opening_hours": "Mo-Sa 07:00-20:00; Su 10:00-16:00", "brand": "B&Q", "brand:wikidata": "Q707602", "nsi_id": "bandq-092aaf"}, "geometry": {"type": "Point", "coordinates": [-2.45437, 52.6805]}},
{"type": "Feature", "id": "ijRPJ_w5iSpRfMcv0PNd3JgyS2c=", "properties": {"ref": "1247", "@spider": "bq", "shop": "doityourself", "addr:full": "7 Dering Road, Cardiff Gate Retail Park, Pontyprenau, Cardiff, SOUTH GLAMORGAN", "addr:street_address": "7 Dering Road, Cardiff Gate Retail Park, Pontyprenau", "addr:postcode": "CF23 8NL", "addr:country": "GB", "name": "B&Q Cardiff Gate", "phone": "029 2073 0400", "website": "https://www.diy.com/store/1247", "opening_hours": "Mo-Sa 07:00-20:00; Su 10:00-16:00", "brand": "B&Q", "brand:wikidata": "Q707602", "nsi_id": "bandq-092aaf"}, "geometry": {"type": "Point", "coordinates": [-3.13033, 51.5362]}},
{"type": "Feature", "id": "j8ErGiAx5HiwbYqxtPShSyoXqdw=", "properties": {"ref": "1335", "@spider": "bq", "shop": "doityourself", "addr:full": "Spire Walk Business Park, Derby Road, Chesterfield, DERBYSHIRE", "addr:street_address": "Spire Walk Business Park, Derby Road", "addr:postcode": "S40 2WG", "addr:country": "GB", "name": "B&Q Chesterfield", "phone": "01246 555867", "website": "https://www.diy.com/store/1335", "opening_hours": "Mo-Sa 07:00-20:00; Su 10:00-16:00", "brand": "B&Q", "brand:wikidata": "Q707602", "nsi_id": "bandq-092aaf"}, "geometry": {"type": "Point", "coordinates": [-1.423684, 53.2308]}},
{"type": "Feature", "id": "lGBNssjQRQToVyME_86MxDsJdfw=", "properties": {"ref": "1098", "@spider": "bq", "shop": "doityourself", "addr:full": "Sandy Lane Retail Park, Babbage Way, Worksop, NOTTINGHAMSHIRE", "addr:street_address": "Sandy Lane Retail Park, Babbage Way", "addr:postcode": "S80 1UQ", "addr:country": "GB", "name": "B&Q Worksop", "phone": "01909 500630", "website": "https://www.diy.com/store/1098", "opening_hours": "Mo-Sa 08:00-20:00; Su 10:00-16:00", "brand": "B&Q", "brand:wikidata": "Q707602", "nsi_id": "bandq-092aaf"}, "geometry": {"type": "Point", "coordinates": [-1.12933, 53.3126]}},
{"type": "Feature", "id": "KxS6BElLDR8dZnwAUGCG1twKs7I=", "properties": {"ref": "1249", "@spider": "bq", "shop": "doityourself", "addr:full": "Meir Park, Whittle Road, Stoke-on-Trent, STAFFORDSHIRE", "addr:street_address": "Meir Park, Whittle Road", "addr:postcode": "ST3 7TU", "addr:country": "GB", "name": "B&Q Stoke-on-Trent - Meir Park", "phone": "01782 323616", "website": "https://www.diy.com/store/1249", "opening_hours": "Mo-Sa 07:00-20:00; Su 10:00-16:00", "brand": "B&Q", "brand:wikidata": "Q707602", "nsi_id": "bandq-092aaf"}, "geometry": {"type": "Point", "coordinates": [-2.09687, 52.974]}},
{"type": "Feature", "id": "laPf56m9gKk1nuqlgfMOOXmuOkQ=", "properties": {"ref": "1185", "@spider": "bq", "shop": "doityourself", "addr:full": "Furnham Road, Chard, SOMERSET", "addr:street_address": "Furnham Road", "addr:postcode": "TA20 1AX", "addr:country": "GB", "name": "B&Q Chard", "phone": "01460 238600", "website": "https://www.diy.com/store/1185", "opening_hours": "Mo-Sa 08:00-20:00; Su 10:00-16:00", "brand": "B&Q", "brand:wikidata": "Q707602", "nsi_id": "bandq-092aaf"}, "geometry": {"type": "Point", "coordinates": [-2.955687, 50.8786]}},
{"type": "Feature", "id": "nsP1mDQmljpLj6q3fLFjJbo0GPk=", "properties": {"ref": "1252", "@spider": "bq", "shop": "doityourself", "addr:full": "Lea Road, Gainsborough, Lincolnshire", "addr:street_address": "Lea Road", "addr:postcode": "DN21 1AF", "addr:country": "GB", "name": "B&Q Gainsborough", "phone": "01427 676000", "website": "https://www.diy.com/store/1252", "opening_hours": "Mo-Sa 08:00-20:00; Su 10:00-16:00", "brand": "B&Q", "brand:wikidata": "Q707602", "nsi_id": "bandq-092aaf"}, "geometry": {"type": "Point", "coordinates": [-0.771747, 53.3882]}},
{"type": "Feature", "id": "RQatHw0W0GUSR1DH75q4jjwLXSA=", "properties": {"ref": "1312", "@spider": "bq", "shop": "doityourself", "addr:full": "Heron Gate, Riverside, Taunton, SOMERSET", "addr:street_address": "Heron Gate, Riverside", "addr:postcode": "TA1 2LP", "addr:country": "GB", "name": "B&Q Taunton", "phone": "01823 444429", "website": "https://www.diy.com/store/1312", "opening_hours": "Mo-Sa 07:00-20:00; Su 10:00-16:00", "brand": "B&Q", "brand:wikidata": "Q707602", "nsi_id": "bandq-092aaf"}, "geometry": {"type": "Point", "coordinates": [-3.06486, 51.023]}},
{"type": "Feature", "id": "69VRYzhWDWROP6ZjWLxr14O6AYc=", "properties": {"ref": "1251", "@spider": "bq", "shop": "doityourself", "addr:full": "Gallagher Retail Park, Caerphilly, SOUTH GLAMORGAN", "addr:street_address": "Gallagher Retail Park", "addr:postcode": "CF83 3NL", "addr:country": "GB", "name": "B&Q Caerphilly", "phone": "029 2085 0110", "website": "https://www.diy.com/store/1251", "opening_hours": "Mo-Sa 07:00-20:00; Su 10:00-16:00", "brand": "B&Q", "brand:wikidata": "Q707602", "nsi_id": "bandq-092aaf"}, "geometry": {"type": "Point", "coordinates": [-3.213716, 51.5908]}},
{"type": "Feature", "id": "_hOli3pVBkQuLAOwkzjV_gdpKSE=", "properties": {"ref": "1147", "@spider": "bq", "shop": "doityourself", "addr:full": "499 Cowbridge Road West, Culverhouse Cross, Caerau, Cardiff, SOUTH GLAMORGAN", "addr:street_address": "499 Cowbridge Road West, Culverhouse Cross, Caerau", "addr:postcode": "CF5 5TG", "addr:country": "GB", "name": "B&Q Culverhouse Cross", "phone": "029 2067 5000", "website": "https://www.diy.com/store/1147", "opening_hours": "Mo-Sa 07:00-20:00; Su 10:00-16:00", "brand": "B&Q", "brand:wikidata": "Q707602", "nsi_id": "bandq-092aaf"}, "geometry": {"type": "Point", "coordinates": [-3.2662, 51.4677]}},
{"type": "Feature", "id": "0ul5IzbtlvzT33d8pkwOs-Ox3eM=", "properties": {"ref": "1145", "@spider": "bq", "shop": "doityourself", "addr:full": "Unit 6, Festival Park, Cobridge Road, Hanley, Stoke-on-Trent, STAFFORDSHIRE", "addr:street_address": "Unit 6, Festival Park, Cobridge Road, Hanley", "addr:postcode": "ST1 5SF", "addr:country": "GB", "name": "B&Q Stoke-on-Trent - Etruria", "phone": "01782 284381", "website": "https://www.diy.com/store/1145", "opening_hours": "Mo-Sa 08:00-20:00; Su 10:00-16:00", "brand": "B&Q", "brand:wikidata": "Q707602", "nsi_id": "bandq-092aaf"}, "geometry": {"type": "Point", "coordinates": [-2.19082, 53.0273]}},
{"type": "Feature", "id": "HKCByiFMTI7pWyG7p4TcMrFAnMU=", "properties": {"ref": "2672", "@spider": "bq", "shop": "doityourself", "addr:full": "Asda Store, Beighton Road East, Sheffield, South Yorks", "addr:street_address": "Asda Store, Beighton Road East", "addr:postcode": "S20 7AB", "addr:country": "GB", "name": "B&Q Sheffield Drakehouse - Asda", "phone": "01142 487134", "website": "https://www.diy.com/store/2672", "opening_hours": "Mo-Sa 08:00-20:00; Su 10:00-16:00", "brand": "B&Q", "brand:wikidata": "Q707602", "nsi_id": "bandq-092aaf"}, "geometry": {"type": "Point", "coordinates": [-1.3629167, 53.3442582]}},
{"type": "Feature", "id": "gCvDWlrwwWDQZDf3d3hwX95_WQw=", "properties": {"ref": "1073", "@spider": "bq", "shop": "doityourself", "addr:full": "Ynysangharad Road, Pontypridd, MID GLAMORGAN", "addr:street_address": "Ynysangharad Road", "addr:postcode": "CF37 4DA", "addr:country": "GB", "name": "B&Q Pontypridd", "phone": "01443 480851", "website": "https://www.diy.com/store/1073", "opening_hours": "Mo-Sa 07:00-20:00; Su 10:00-16:00", "brand": "B&Q", "brand:wikidata": "Q707602", "nsi_id": "bandq-092aaf"}, "geometry": {"type": "Point", "coordinates": [-3.33127, 51.6024]}},
{"type": "Feature", "id": "ExQdlHO8yhUcxNSkNaKHsJIXOMk=", "properties": {"ref": "1069", "@spider": "bq", "shop": "doityourself", "addr:full": "Featherbed Lane, Shrewsbury, SHROPSHIRE", "addr:street_address": "Featherbed Lane", "addr:postcode": "SY1 4PP", "addr:country": "GB", "name": "B&Q Shrewsbury", "phone": "01743 469100", "website": "https://www.diy.com/store/1069", "opening_hours": "Mo-Sa 07:00-20:00; Su 10:00-16:00", "brand": "B&Q", "brand:wikidata": "Q707602", "nsi_id": "bandq-092aaf"}, "geometry": {"type": "Point", "coordinates": [-2.72247, 52.7365]}},
{"type": "Feature", "id": "-QjXrLtpuzrJqLRNoY6jFwwbRzY=", "properties": {"ref": "1248", "@spider": "bq", "shop": "doityourself", "addr:full": "Queens Road, Sheffield, SOUTH YORKSHIRE", "addr:street_address": "Queens Road", "addr:postcode": "S2 4DR", "addr:country": "GB", "name": "B&Q Sheffield - Queens Road", "phone": "0114 278 0303", "website": "https://www.diy.com/store/1248", "opening_hours": "Mo-Sa 07:00-20:00; Su 10:00-16:00", "brand": "B&Q", "brand:wikidata": "Q707602", "nsi_id": "bandq-092aaf"}, "geometry": {"type": "Point", "coordinates": [-1.47066, 53.3639]}},
{"type": "Feature", "id": "8-nzdCjPDlDWpb7rMxiDynJBJZ8=", "properties": {"ref": "1075", "@spider": "bq", "shop": "doityourself", "addr:full": "Pit Lane, Jamage Road Industrial Estate, Talke Pits, Stoke-on-Trent, STAFFORDSHIRE", "addr:street_address": "Pit Lane, Jamage Road Industrial Estate, Talke Pits", "addr:postcode": "ST7 1TT", "addr:country": "GB", "name": "B&Q Stoke-on-Trent - Talke Pits", "phone": "01782 771323", "website": "https://www.diy.com/store/1075", "opening_hours": "Mo-Sa 08:00-20:00; Su 10:00-16:00", "brand": "B&Q", "brand:wikidata": "Q707602", "nsi_id": "bandq-092aaf"}, "geometry": {"type": "Point", "coordinates": [-2.26509, 53.0687]}},
{"type": "Feature", "id": "xN0Cg3rFMqjPM1pjlOBMMegdfKk=", "properties": {"ref": "1204", "@spider": "bq", "shop": "doityourself", "addr:full": "Peakes Parkway, Robinson Street West, Grimsby, LINCOLNSHIRE", "addr:street_address": "Peakes Parkway, Robinson Street West", "addr:postcode": "DN32 9AW", "addr:country": "GB", "name": "B&Q Grimsby", "phone": "01472 359694", "website": "https://www.diy.com/store/1204", "opening_hours": "Mo-Sa 07:00-20:00; Su 10:00-16:00", "brand": "B&Q", "brand:wikidata": "Q707602", "nsi_id": "bandq-092aaf"}, "geometry": {"type": "Point", "coordinates": [-0.07817, 53.5636]}},
{"type": "Feature", "id": "wjinJuyEpx6P_ohV1qag_WNd--Q=", "properties": {"ref": "1314", "@spider": "bq", "shop": "doityourself", "addr:full": "Staden Business Park, Staden Lane, Buxton, DERBYSHIRE", "addr:street_address": "Staden Business Park, Staden Lane", "addr:postcode": "SK17 9RZ", "addr:country": "GB", "name": "B&Q Buxton", "phone": "01298 767200", "website": "https://www.diy.com/store/1314", "opening_hours": "Mo-Sa 08:00-20:00; Su 10:00-16:00", "brand": "B&Q", "brand:wikidata": "Q707602", "nsi_id": "bandq-092aaf"}, "geometry": {"type": "Point", "coordinates": [-1.894283, 53.2453]}},
{"type": "Feature", "id": "miqyYFXPMicGT4rqZUj2zzPHihM=", "properties": {"ref": "1348", "@spider": "bq", "shop": "doityourself", "addr:full": "Cyfarthfa Retail Park, Swansea Road, Merthyr Tydfil, MID GLAMORGAN", "addr:street_address": "Cyfarthfa Retail Park, Swansea Road", "addr:postcode": "CF48 1HY", "addr:country": "GB", "name": "B&Q Merthyr Tydfil", "phone": "01685 358500", "website": "https://www.diy.com/store/1348", "opening_hours": "Mo-Sa 07:00-20:00; Su 10:00-16:00", "brand": "B&Q", "brand:wikidata": "Q707602", "nsi_id": "bandq-092aaf"}, "geometry": {"type": "Point", "coordinates": [-3.390302, 51.7485]}},
{"type": "Feature", "id": "r1RnVIEDxEeZ7uooEm3FLSorwHM=", "properties": {"ref": "1224", "@spider": "bq", "shop": "doityourself", "addr:full": "701 Penistone Road, Hillsborough, Sheffield, SOUTH YORKSHIRE", "addr:street_address": "701 Penistone Road, Hillsborough", "addr:postcode": "S6 2GF", "addr:country": "GB", "name": "B&Q Sheffield - Penistone Road", "phone": "01142 336330", "website": "https://www.diy.com/store/1224", "opening_hours": "Mo-Sa 07:00-20:00; Su 10:00-16:00", "brand": "B&Q", "brand:wikidata": "Q707602", "nsi_id": "bandq-092aaf"}, "geometry": {"type": "Point", "coordinates": [-1.49488, 53.4031]}},
{"type": "Feature", "id": "TnyhR1n0dAUUw9N2m8n7hDS0tkk=", "properties": {"ref": "1264", "@spider": "bq", "shop": "doityourself", "addr:full": "Catesby Business Park, White Rose Way, Doncaster, SOUTH YORKSHIRE", "addr:street_address": "Catesby Business Park, White Rose Way", "addr:postcode": "DN4 8SJ", "addr:country": "GB", "name": "B&Q Doncaster", "phone": "01302 554300", "website": "https://www.diy.com/store/1264", "opening_hours": "Mo-Sa 07:00-20:00; Su 10:00-16:00", "brand": "B&Q", "brand:wikidata": "Q707602", "nsi_id": "bandq-092aaf"}, "geometry": {"type": "Point", "coordinates": [-1.118331, 53.4976]}},
{"type": "Feature", "id": "jnp98QSmRlpbJz5tn0BmEhZwCQ4=", "properties": {"ref": "1218", "@spider": "bq", "shop": "doityourself", "addr:full": "Gallagher Retail Park, 2 Doncaster Road, Gunness, Scunthorpe, LINCOLNSHIRE", "addr:street_address": "Gallagher Retail Park, 2 Doncaster Road, Gunness", "addr:postcode": "DN15 8GR", "addr:country": "GB", "name": "B&Q Scunthorpe", "phone": "01724 281008", "website": "https://www.diy.com/store/1218", "opening_hours": "Mo-Sa 07:00-20:00; Su 10:00-16:00", "brand": "B&Q", "brand:wikidata": "Q707602", "nsi_id": "bandq-092aaf"}, "geometry": {"type": "Point", "coordinates": [-0.695458, 53.5903]}},
{"type": "Feature", "id": "tbcgtAnXUa-XnnitymOVOUzsCZI=", "properties": {"ref": "1172", "@spider": "bq", "shop": "doityourself", "addr:full": "Weston Road, Crewe, CHESHIRE", "addr:street_address": "Weston Road", "addr:postcode": "CW1 6BA", "addr:country": "GB", "name": "B&Q Crewe", "phone": "01270 214911", "website": "https://www.diy.com/store/1172", "opening_hours": "Mo-Sa 07:00-20:00; Su 10:00-16:00", "brand": "B&Q", "brand:wikidata": "Q707602", "nsi_id": "bandq-092aaf"}, "geometry": {"type": "Point", "coordinates": [-2.428515, 53.0894]}},
{"type": "Feature", "id": "UHrwQHVQOhgr29VYBEtQqMWkR3w=", "properties": {"ref": "1379", "@spider": "bq", "shop": "doityourself", "addr:full": "Statham Street, Macclesfield, CHESHIRE", "addr:street_address": "Statham Street", "addr:postcode": "SK11 6XF", "addr:country": "GB", "name": "B&Q Macclesfield", "phone": "01625 616729", "website": "https://www.diy.com/store/1379", "opening_hours": "Mo-Sa 08:00-20:00; Su 10:00-16:00", "brand": "B&Q", "brand:wikidata": "Q707602", "nsi_id": "bandq-092aaf"}, "geometry": {"type": "Point", "coordinates": [-2.12779, 53.2552]}},
{"type": "Feature", "id": "Sl5deRNnYFm6oL5TzknPKszCJDE=", "properties": {"ref": "1189", "@spider": "bq", "shop": "doityourself", "addr:full": "Unit A, Corton Wood Retail Park, Brampton, Wath upon Dearne, Barnsley, SOUTH YORKSHIRE", "addr:street_address": "Unit A, Corton Wood Retail Park, Brampton, Wath upon Dearne", "addr:postcode": "S73 0TB", "addr:country": "GB", "name": "B&Q Dearne Valley", "phone": "01226 270024", "website": "https://www.diy.com/store/1189", "opening_hours": "Mo-Sa 07:00-20:00; Su 10:00-16:00", "brand": "B&Q", "brand:wikidata": "Q707602", "nsi_id": "bandq-092aaf"}, "geometry": {"type": "Point", "coordinates": [-1.387002, 53.5065]}},
{"type": "Feature", "id": "Jw9Z1McMDDHvCBD7AfQVnjfj4TA=", "properties": {"ref": "1042", "@spider": "bq", "shop": "doityourself", "addr:full": "Royal London Park, Waterton retail park., Bridgend, VALE OF GLAMORGAN", "addr:street_address": "Royal London Park, Waterton retail park.", "addr:postcode": "CF31 3TN", "addr:country": "GB", "name": "B&Q Bridgend", "phone": "01656 768611", "website": "https://www.diy.com/store/1042", "opening_hours": "Mo-Sa 07:00-20:00; Su 10:00-16:00", "brand": "B&Q", "brand:wikidata": "Q707602", "nsi_id": "bandq-092aaf"}, "geometry": {"type": "Point", "coordinates": [-3.53436, 51.4979]}},
{"type": "Feature", "id": "6aZIrziuQHyJ_RA3sEmNxDIoHlo=", "properties": {"ref": "1168", "@spider": "bq", "shop": "doityourself", "addr:full": "St Andrews Quay, Clive Sullivan Way, Kingston upon Hull, EAST RIDING", "addr:street_address": "St Andrews Quay, Clive Sullivan Way", "addr:postcode": "HU3 4SA", "addr:country": "GB", "name": "B&Q Hull - St Andrews Quay", "phone": "01482 620664", "website": "https://www.diy.com/store/1168", "opening_hours": "Mo-Sa 07:00-20:00; Su 10:00-16:00", "brand": "B&Q", "brand:wikidata": "Q707602", "nsi_id": "bandq-092aaf"}, "geometry": {"type": "Point", "coordinates": [-0.376943, 53.727]}},
{"type": "Feature", "id": "Sba1pnQ7HGV0bpM3kkWzbrsTgu4=", "properties": {"ref": "1282", "@spider": "bq", "shop": "doityourself", "addr:full": "Rawcliffe Road, Goole, YORKSHIRE", "addr:street_address": "Rawcliffe Road", "addr:postcode": "DN14 8JN", "addr:country": "GB", "name": "B&Q Goole", "phone": "01405 752500", "website": "https://www.diy.com/store/1282", "opening_hours": "Mo-Sa 08:00-20:00; Su 10:00-16:00", "brand": "B&Q", "brand:wikidata": "Q707602", "nsi_id": "bandq-092aaf"}, "geometry": {"type": "Point", "coordinates": [-0.895257, 53.7049]}},
{"type": "Feature", "id": "xD8jbs1XbNGTda5LpED1KGdK568=", "properties": {"ref": "1205", "@spider": "bq", "shop": "doityourself", "addr:full": "Unit 5, Stanley Green Retail Park, Earl Road, Handforth, Cheadle, GREATER MANCHESTER", "addr:street_address": "Unit 5, Stanley Green Retail Park, Earl Road, Handforth", "addr:postcode": "SK8 6PT", "addr:country": "GB", "name": "B&Q Handforth", "phone": "0161 485 8807", "website": "https://www.diy.com/store/1205", "opening_hours": "Mo-Sa 07:00-20:00; Su 10:00-16:00", "brand": "B&Q", "brand:wikidata": "Q707602", "nsi_id": "bandq-092aaf"}, "geometry": {"type": "Point", "coordinates": [-2.20119, 53.3579]}},
{"type": "Feature", "id": "BFI8ekXEbYh-gJQtobyJPsmKIEM=", "properties": {"ref": "1235", "@spider": "bq", "shop": "doityourself", "addr:full": "Ferry Lane, Stoneferry Road, Kingston upon Hull, EAST RIDING", "addr:street_address": "Ferry Lane, Stoneferry Road", "addr:postcode": "HU7 0DJ", "addr:country": "GB", "name": "B&Q Hull - Ferry Lane", "phone": "01482 371600", "website": "https://www.diy.com/store/1235", "opening_hours": "Mo-Sa 07:00-20:00; Su 10:00-16:00", "brand": "B&Q", "brand:wikidata": "Q707602", "nsi_id": "bandq-092aaf"}, "geometry": {"type": "Point", "coordinates": [-0.32888, 53.7687]}},
{"type": "Feature", "id": "qS9DFECmA11qHYW6IELfi9b0O7s=", "properties": {"ref": "1049", "@spider": "bq", "shop": "doityourself", "addr:full": "Avocet Road, Sowton Industrial Estate, Exeter, DEVON", "addr:street_address": "Avocet Road, Sowton Industrial Estate", "addr:postcode": "EX2 7ST", "addr:country": "GB", "name": "B&Q Exeter", "phone": "01392 261700", "website": "https://www.diy.com/store/1049", "opening_hours": "Mo-Sa 07:00-20:00; Su 10:00-16:00", "brand": "B&Q", "brand:wikidata": "Q707602", "nsi_id": "bandq-092aaf"}, "geometry": {"type": "Point", "coordinates": [-3.46415, 50.7276]}},
{"type": "Feature", "id": "jg3B10z7i24J2nwOLe4NB6kP5yw=", "properties": {"ref": "1279", "@spider": "bq", "shop": "doityourself", "addr:full": "Georges Road, Heaton Norris, Stockport, GREATER MANCHESTER", "addr:street_address": "Georges Road, Heaton Norris", "addr:postcode": "SK4 1DR", "addr:country": "GB", "name": "B&Q Stockport", "phone": "0161 429 4000", "website": "https://www.diy.com/store/1279", "opening_hours": "Mo-Sa 07:00-20:00; Su 10:00-16:00", "brand": "B&Q", "brand:wikidata": "Q707602", "nsi_id": "bandq-092aaf"}, "geometry": {"type": "Point", "coordinates": [-2.16894, 53.4117]}},
{"type": "Feature", "id": "WH6j6bnYmzMD99aIWuj19jkMtxY=", "properties": {"ref": "1144", "@spider": "bq", "shop": "doityourself", "addr:full": "Northwich Retail Park, Manchester Road, Northwich, CHESHIRE", "addr:street_address": "Northwich Retail Park, Manchester Road", "addr:postcode": "CW9 5LY", "addr:country": "GB", "name": "B&Q Northwich", "phone": "01606 352312", "website": "https://www.diy.com/store/1144", "opening_hours": "Mo-Sa 07:00-20:00; Su 10:00-16:00", "brand": "B&Q", "brand:wikidata": "Q707602", "nsi_id": "bandq-092aaf"}, "geometry": {"type": "Point", "coordinates": [-2.49167, 53.2642]}},
{"type": "Feature", "id": "JtH1UgSaL8KbB1eqwn2zHgpYkZI=", "properties": {"ref": "1341", "@spider": "bq", "shop": "doityourself", "addr:full": "Aspen Way, Glass Houghton, Castleford, WEST YORKSHIRE", "addr:street_address": "Aspen Way, Glass Houghton", "addr:postcode": "WF10 4TA", "addr:country": "GB", "name": "B&Q Castleford", "phone": "01977 667800", "website": "https://www.diy.com/store/1341", "opening_hours": "Mo-Sa 07:00-20:00; Su 10:00-16:00", "brand": "B&Q", "brand:wikidata": "Q707602", "nsi_id": "bandq-092aaf"}, "geometry": {"type": "Point", "coordinates": [-1.3363, 53.7082]}},
{"type": "Feature", "id": "XpM6PSwlPzqPWL0aiEM2F7FgXIE=", "properties": {"ref": "1229", "@spider": "bq", "shop": "doityourself", "addr:full": "Snipe Retail Park, Snipe Way, Audenshaw, Ashton-under-Lyne, LANCASHIRE", "addr:street_address": "Snipe Retail Park, Snipe Way, Audenshaw", "addr:postcode": "OL7 0DN", "addr:country": "GB", "name": "B&Q Ashton-under-Lyne", "phone": "0161 371 0082", "website": "https://www.diy.com/store/1229", "opening_hours": "Mo-Sa 07:00-20:00; Su 10:00-16:00", "brand": "B&Q", "brand:wikidata": "Q707602", "nsi_id": "bandq-092aaf"}, "geometry": {"type": "Point", "coordinates": [-2.12513, 53.4778]}},
{"type": "Feature", "id": "iMiqQLrnWliGGEJfWt0NUZu21D0=", "properties": {"ref": "1270", "@spider": "bq", "shop": "doityourself", "addr:full": "Cathedral Retail Park, Charlesworth Way, Wakefield, WEST YORKSHIRE", "addr:street_address": "Cathedral Retail Park, Charlesworth Way", "addr:postcode": "WF2 9SE", "addr:country": "GB", "name": "B&Q Wakefield", "phone": "01924 377988", "website": "https://www.diy.com/store/1270", "opening_hours": "Mo-Sa 07:00-20:00; Su 10:00-16:00", "brand": "B&Q", "brand:wikidata": "Q707602", "nsi_id": "bandq-092aaf"}, "geometry": {"type": "Point", "coordinates": [-1.50259, 53.678]}},
{"type": "Feature", "id": "KkgAyHNJkBlF6mkS0Qg2jgjAplQ=", "properties": {"ref": "1090", "@spider": "bq", "shop": "doityourself", "addr:full": "Berse Road, Wrexham, CLWYD", "addr:street_address": "Berse Road", "addr:postcode": "LL11 2BL", "addr:country": "GB", "name": "B&Q Wrexham", "phone": "01978 362777", "website": "https://www.diy.com/store/1090", "opening_hours": "Mo-Sa 08:00-20:00; Su 10:00-16:00", "brand": "B&Q", "brand:wikidata": "Q707602", "nsi_id": "bandq-092aaf"}, "geometry": {"type": "Point", "coordinates": [-3.01046, 53.0535]}},
{"type": "Feature", "id": "y5J1D_cF2Up-OZ_AQ7GZbxMgHMw=", "properties": {"ref": "1093", "@spider": "bq", "shop": "doityourself", "addr:full": "Wilton Street, Dewsbury, WEST YORKSHIRE", "addr:street_address": "Wilton Street", "addr:postcode": "WF12 8AB", "addr:country": "GB", "name": "B&Q Dewsbury", "phone": "01924 457435", "website": "https://www.diy.com/store/1093", "opening_hours": "Mo-Sa 08:00-20:00; Su 10:00-16:00", "brand": "B&Q", "brand:wikidata": "Q707602", "nsi_id": "bandq-092aaf"}, "geometry": {"type": "Point", "coordinates": [-1.63085, 53.6889]}},
{"type": "Feature", "id": "9nRgx5ZS-NsXW0XnIT_ecOTp24o=", "properties": {"ref": "1240", "@spider": "bq", "shop": "doityourself", "addr:full": "Leeds Road Retail Park, Bradley Mills, Huddersfield, WEST YORKSHIRE", "addr:street_address": "Leeds Road Retail Park, Bradley Mills", "addr:postcode": "HD1 6PF", "addr:country": "GB", "name": "B&Q Huddersfield", "phone": "01484 411700", "website": "https://www.diy.com/store/1240", "opening_hours": "Mo-Sa 07:00-20:00; Su 10:00-16:00", "brand": "B&Q", "brand:wikidata": "Q707602", "nsi_id": "bandq-092aaf"}, "geometry": {"type": "Point", "coordinates": [-1.765966, 53.6572]}},
{"type": "Feature", "id": "8MCT2SdKfS7FY26R4L3yPcmrudc=", "properties": {"ref": "1311", "@spider": "bq", "shop": "doityourself", "addr:full": "Unit 1,  Manchester Fort Shopping Park, Cheetham Hill Road, Manchester, GREATER MANCHESTER", "addr:street_address": "Unit 1,  Manchester Fort Shopping Park, Cheetham Hill Road", "addr:postcode": "M8 8EP", "addr:country": "GB", "name": "B&Q Cheetham Hill", "phone": "0161 832 4200", "website": "https://www.diy.com/store/1311", "opening_hours": "Mo-Sa 07:00-20:00; Su 11:00-17:00", "brand": "B&Q", "brand:wikidata": "Q707602", "nsi_id": "bandq-092aaf"}, "geometry": {"type": "Point", "coordinates": [-2.23569, 53.4976]}},
{"type": "Feature", "id": "Y6SSW9rcY_LIGUljyTVqad5B3is=", "properties": {"ref": "1304", "@spider": "bq", "shop": "doityourself", "addr:full": "Westhulme Way, Oldham, GREATER MANCHESTER", "addr:street_address": "Westhulme Way", "addr:postcode": "OL1 2QL", "addr:country": "GB", "name": "B&Q Oldham", "phone": "0330 123 9243", "website": "https://www.diy.com/store/1304", "opening_hours": "Mo-Sa 07:00-20:00; Su 10:00-16:00", "brand": "B&Q", "brand:wikidata": "Q707602", "nsi_id": "bandq-092aaf"}, "geometry": {"type": "Point", "coordinates": [-2.128172, 53.5525]}},
{"type": "Feature", "id": "DL6iuBhINA9gvefNFidh9U72G9U=", "properties": {"ref": "1360", "@spider": "bq", "shop": "doityourself", "addr:full": "Redclyffe Road, Trafford Park, GREATER MANCHESTER", "addr:street_address": "Redclyffe Road", "addr:postcode": "M41 7LG", "addr:country": "GB", "name": "B&Q Manchester - Trafford Park", "phone": "0161 746 8443", "website": "https://www.diy.com/store/1360", "opening_hours": "Mo-Sa 07:00-20:00; Su 11:00-17:00", "brand": "B&Q", "brand:wikidata": "Q707602", "nsi_id": "bandq-092aaf"}, "geometry": {"type": "Point", "coordinates": [-2.34933, 53.4709]}},
{"type": "Feature", "id": "mDHKe2zDUKyzPZ15hnjrO_W4lrI=", "properties": {"ref": "1213", "@spider": "bq", "shop": "doityourself", "addr:full": "Morfa Retail and Leisure Park, Landore, Swansea, WEST GLAMORGAN", "addr:street_address": "Morfa Retail and Leisure Park, Landore", "addr:postcode": "SA1 7DF", "addr:country": "GB", "name": "B&Q Swansea", "phone": "01792 659600", "website": "https://www.diy.com/store/1213", "opening_hours": "Mo-Sa 07:00-20:00; Su 10:00-16:00", "brand": "B&Q", "brand:wikidata": "Q707602", "nsi_id": "bandq-092aaf"}, "geometry": {"type": "Point", "coordinates": [-3.9323, 51.6441]}},
{"type": "Feature", "id": "MW-DH1k6cEEj8SrsoPdwY2p7paI=", "properties": {"ref": "1250", "@spider": "bq", "shop": "doityourself", "addr:full": "Sealand Road, Chester, CHESHIRE", "addr:street_address": "Sealand Road", "addr:postcode": "CH1 4LD", "addr:country": "GB", "name": "B&Q Chester", "phone": "01244 380228", "website": "https://www.diy.com/store/1250", "opening_hours": "Mo-Sa 07:00-20:00; Su 10:00-16:00", "brand": "B&Q", "brand:wikidata": "Q707602", "nsi_id": "bandq-092aaf"}, "geometry": {"type": "Point", "coordinates": [-2.91902, 53.1947]}},
{"type": "Feature", "id": "eO8nRDdTrSklLfQVk0c0XN53CO8=", "properties": {"ref": "1334", "@spider": "bq", "shop": "doityourself", "addr:full": "Woodland Business Park, Woodland Road, Torquay, Torbay, DEVON", "addr:street_address": "Woodland Business Park, Woodland Road, Torquay", "addr:postcode": "TQ2 7AT", "addr:country": "GB", "name": "B&Q Torquay", "phone": "0180 361 4500", "website": "https://www.diy.com/store/1334", "opening_hours": "Mo-Sa 07:00-20:00; Su 10:00-16:00", "brand": "B&Q", "brand:wikidata": "Q707602", "nsi_id": "bandq-092aaf"}, "geometry": {"type": "Point", "coordinates": [-3.548648, 50.4804]}},
{"type": "Feature", "id": "kQ2hLsDQaIKleu0E0q8uW2LIbKo=", "properties": {"ref": "1033", "@spider": "bq", "shop": "doityourself", "addr:full": "Jetty Marsh Road, Newton Abbot, DEVON", "addr:street_address": "Jetty Marsh Road", "addr:postcode": "TQ12 2SL", "addr:country": "GB", "name": "B&Q Newton Abbot", "phone": "01626 356171", "website": "https://www.diy.com/store/1033", "opening_hours": "Mo-Sa 08:00-20:00; Su 10:00-16:00", "brand": "B&Q", "brand:wikidata": "Q707602", "nsi_id": "bandq-092aaf"}, "geometry": {"type": "Point", "coordinates": [-3.60681, 50.5362]}},
{"type": "Feature", "id": "Ft3yeqHg38wfiFchRrlVwdsdptk=", "properties": {"ref": "1237", "@spider": "bq", "shop": "doityourself", "addr:full": "Junction One Retail Park, Beeston Ring Road, Beeston, Leeds, WEST YORKSHIRE", "addr:street_address": "Junction One Retail Park, Beeston Ring Road, Beeston", "addr:postcode": "LS11 0BD", "addr:country": "GB", "name": "B&Q Leeds - Beeston Ring Road", "phone": "0113 3858100", "website": "https://www.diy.com/store/1237", "opening_hours": "Mo-Sa 07:00-20:00; Su 10:00-16:00", "brand": "B&Q", "brand:wikidata": "Q707602", "nsi_id": "bandq-092aaf"}, "geometry": {"type": "Point", "coordinates": [-1.58169, 53.7729]}},
{"type": "Feature", "id": "6J-4Q5gXh-dv6YIxy1f8ldRJGBk=", "properties": {"ref": "1210", "@spider": "bq", "shop": "doityourself", "addr:full": "Unit 9, killingbeck retail park, killingbeck drive, York Road, Leeds, WEST YORKSHIRE", "addr:street_address": "Unit 9, killingbeck retail park, killingbeck drive, York Road", "addr:postcode": "LS14 6UF", "addr:country": "GB", "name": "B&Q Leeds - Killingbeck", "phone": "0113 249 4554", "website": "https://www.diy.com/store/1210", "opening_hours": "Mo-Sa 07:00-20:00; Su 10:00-16:00", "brand": "B&Q", "brand:wikidata": "Q707602", "nsi_id": "bandq-092aaf"}, "geometry": {"type": "Point", "coordinates": [-1.47927, 53.8062]}},
{"type": "Feature", "id": "QCozVRqS6Sxy0CxfyNSAONeeRHM=", "properties": {"ref": "1269", "@spider": "bq", "shop": "doityourself", "addr:full": "Delph Lane, Newton Road, Winwick, Warrington, CHESHIRE", "addr:street_address": "Delph Lane, Newton Road, Winwick", "addr:postcode": "WA2 8RD", "addr:country": "GB", "name": "B&Q Warrington", "phone": "01925 245522", "website": "https://www.diy.com/store/1269", "opening_hours": "Mo-Sa 07:00-20:00; Su 10:00-16:00", "brand": "B&Q", "brand:wikidata": "Q707602", "nsi_id": "bandq-092aaf"}, "geometry": {"type": "Point", "coordinates": [-2.59981, 53.4242]}},
{"type": "Feature", "id": "DpmOMzCmt8JypR0tk5aHP3hWMss=", "properties": {"ref": "1086", "@spider": "bq", "shop": "doityourself", "addr:full": "Mountleigh Close, Euroway Trading Estate, Bradford, WEST YORKSHIRE", "addr:street_address": "Mountleigh Close, Euroway Trading Estate", "addr:postcode": "BD4 6SP", "addr:country": "GB", "name": "B&Q Bradford - Euroway", "phone": "01274 688327", "website": "https://www.diy.com/store/1086", "opening_hours": "Mo-Sa 08:00-20:00; Su 10:00-16:00", "brand": "B&Q", "brand:wikidata": "Q707602", "nsi_id": "bandq-092aaf"}, "geometry": {"type": "Point", "coordinates": [-1.73892, 53.757]}},
{"type": "Feature", "id": "GsQR7VbEpWZ6aJHjzfdPE5druyE=", "properties": {"ref": "1371", "@spider": "bq", "shop": "doityourself", "addr:full": "Shroggs Road, Halifax, West Yorkshire", "addr:street_address": "Shroggs Road", "addr:postcode": "HX3 5HZ", "addr:country": "GB", "name": "B&Q Halifax", "phone": "01422 397800", "website": "https://www.diy.com/store/1371", "opening_hours": "Mo-Sa 07:00-20:00; Su 10:00-16:00", "brand": "B&Q", "brand:wikidata": "Q707602", "nsi_id": "bandq-092aaf"}, "geometry": {"type": "Point", "coordinates": [-1.872954, 53.7286]}},
{"type": "Feature", "id": "PzaeEX3p3wEixIxHqoo4kAJl3qY=", "properties": {"ref": "1190", "@spider": "bq", "shop": "doityourself", "addr:full": "Bridgehall Industrial Park, Bridgehall Lane, Heapbridge, Bury, GREATER MANCHESTER", "addr:street_address": "Bridgehall Industrial Park, Bridgehall Lane, Heapbridge", "addr:postcode": "BL9 7PJ", "addr:country": "GB", "name": "B&Q Bury", "phone": "0161 764 8844", "website": "https://www.diy.com/store/1190", "opening_hours": "Mo-Sa 07:00-20:00; Su 10:00-16:00", "brand": "B&Q", "brand:wikidata": "Q707602", "nsi_id": "bandq-092aaf"}, "geometry": {"type": "Point", "coordinates": [-2.26904, 53.593]}},
{"type": "Feature", "id": "QCMY7i8mkGPKiujWRD1eUVL8WGY=", "properties": {"ref": "1104", "@spider": "bq", "shop": "doityourself", "addr:full": "Kirkhall Lane, Leigh, GREATER MANCHESTER", "addr:street_address": "Kirkhall Lane", "addr:postcode": "WN7 1RD", "addr:country": "GB", "name": "B&Q Leigh", "phone": "01942 608521", "website": "https://www.diy.com/store/1104", "opening_hours": "Mo-Sa 07:00-20:00; Su 10:00-16:00", "brand": "B&Q", "brand:wikidata": "Q707602", "nsi_id": "bandq-092aaf"}, "geometry": {"type": "Point", "coordinates": [-2.52233, 53.5036]}},
{"type": "Feature", "id": "S9rw9knGuI4-G7N_JCGW52qv3lM=", "properties": {"ref": "1096", "@spider": "bq", "shop": "doityourself", "addr:full": "99 Leeds Old Road, Thornbury, Bradford, WEST YORKSHIRE", "addr:street_address": "99 Leeds Old Road, Thornbury", "addr:postcode": "BD3 7BQ", "addr:country": "GB", "name": "B&Q Bradford - Thornbury Road", "phone": "01274 668309", "website": "https://www.diy.com/store/1096", "opening_hours": "Mo-Sa 07:00-20:00; Su 10:00-16:00", "brand": "B&Q", "brand:wikidata": "Q707602", "nsi_id": "bandq-092aaf"}, "geometry": {"type": "Point", "coordinates": [-1.709962, 53.8011]}},
{"type": "Feature", "id": "mcAAgzlzocgMD6G4ceUNcHk1Ujo=", "properties": {"ref": "1297", "@spider": "bq", "shop": "doityourself", "addr:full": "New Mersey Retail Park, 12 Speke Road, Speke, MERSEYSIDE", "addr:street_address": "New Mersey Retail Park, 12 Speke Road", "addr:postcode": "L24 8QB", "addr:country": "GB", "name": "B&Q Speke", "phone": "0151 427 4488", "website": "https://www.diy.com/store/1297", "opening_hours": "Mo-Sa 07:00-20:00; Su 10:00-16:00", "brand": "B&Q", "brand:wikidata": "Q707602", "nsi_id": "bandq-092aaf"}, "geometry": {"type": "Point", "coordinates": [-2.876186, 53.3509]}},
{"type": "Feature", "id": "rZ6w1lRG3ESajW3c8hZOK-90wvU=", "properties": {"ref": "1356", "@spider": "bq", "shop": "doityourself", "addr:full": "Hull Road, York, NORTH YORKSHIRE", "addr:street_address": "Hull Road", "addr:postcode": "YO10 3JA", "addr:country": "GB", "name": "B&Q York - Hull Road", "phone": "01904 717700", "website": "https://www.diy.com/store/1356", "opening_hours": "Mo-Sa 07:00-20:00; Su 10:00-16:00", "brand": "B&Q", "brand:wikidata": "Q707602", "nsi_id": "bandq-092aaf"}, "geometry": {"type": "Point", "coordinates": [-1.02618, 53.9547]}},
{"type": "Feature", "id": "N5KJdQXRTfKQBJi7Fg3nLcu8748=", "properties": {"ref": "1057", "@spider": "bq", "shop": "doityourself", "addr:full": "Bolton Gate Retail Park, Roundhill Way, Bolton, GREATER MANCHESTER", "addr:street_address": "Bolton Gate Retail Park, Roundhill Way", "addr:postcode": "BL1 2SL", "addr:country": "GB", "name": "B&Q Bolton", "phone": "01204 365676", "website": "https://www.diy.com/store/1057", "opening_hours": "Mo-Sa 07:00-20:00; Su 10:00-16:00", "brand": "B&Q", "brand:wikidata": "Q707602", "nsi_id": "bandq-092aaf"}, "geometry": {"type": "Point", "coordinates": [-2.42568, 53.5856]}},
{"type": "Feature", "id": "wxrgz4DP3MNM81eiw9TfRnJPNAY=", "properties": {"ref": "1054", "@spider": "bq", "shop": "doityourself", "addr:full": "Unit 1,  Milverny Way, Ravenhead Retail Park, St Helens Linkway, St Helens, MERSEYSIDE", "addr:street_address": "Unit 1,  Milverny Way, Ravenhead Retail Park, St Helens Linkway", "addr:postcode": "WA9 1JF", "addr:country": "GB", "name": "B&Q St Helens", "phone": "01744 454220", "website": "https://www.diy.com/store/1054", "opening_hours": "Mo-Sa 07:00-20:00; Su 10:00-16:00", "brand": "B&Q", "brand:wikidata": "Q707602", "nsi_id": "bandq-092aaf"}, "geometry": {"type": "Point", "coordinates": [-2.735424, 53.4457]}},
{"type": "Feature", "id": "tTaw81hg2HsFn7h_vxa98RUp4NY=", "properties": {"ref": "1127", "@spider": "bq", "shop": "doityourself", "addr:full": "Parc Trostre Retail Park, Trostre Road, Llanelli, CARMARTHENSHIRE", "addr:street_address": "Parc Trostre Retail Park, Trostre Road", "addr:postcode": "SA14 9US", "addr:country": "GB", "name": "B&Q Llanelli", "phone": "01554 744999", "website": "https://www.diy.com/store/1127", "opening_hours": "Mo-Sa 07:00-20:00; Su 10:00-16:00", "brand": "B&Q", "brand:wikidata": "Q707602", "nsi_id": "bandq-092aaf"}, "geometry": {"type": "Point", "coordinates": [-4.1361, 51.6748]}},
{"type": "Feature", "id": "FS3FaQ8Mphmtc4-y1JzT25cu0VA=", "properties": {"ref": "1121", "@spider": "bq", "shop": "doityourself", "addr:full": "Barnstaple Retail Park, Station Road, Sticklepath, Barnstaple, DEVON", "addr:street_address": "Barnstaple Retail Park, Station Road, Sticklepath", "addr:postcode": "EX31 2AU", "addr:country": "GB", "name": "B&Q Barnstaple", "phone": "01271 314400", "website": "https://www.diy.com/store/1121", "opening_hours": "Mo-Sa 08:00-20:00; Su 10:00-16:00", "brand": "B&Q", "brand:wikidata": "Q707602", "nsi_id": "bandq-092aaf"}, "geometry": {"type": "Point", "coordinates": [-4.063386, 51.0745]}},
{"type": "Feature", "id": "5G6lV-fgZ0WIlmX4mdeEesphxzw=", "properties": {"ref": "1232", "@spider": "bq", "shop": "doityourself", "addr:full": "Clifton Moor Retail Park, Rawcliffe, York, NORTH YORKSHIRE", "addr:street_address": "Clifton Moor Retail Park, Rawcliffe", "addr:postcode": "YO30 4XU", "addr:country": "GB", "name": "B&Q York - Clifton Moor", "phone": "01904 693030", "website": "https://www.diy.com/store/1232", "opening_hours": "Mo-Sa 07:00-20:00; Su 10:00-16:00", "brand": "B&Q", "brand:wikidata": "Q707602", "nsi_id": "bandq-092aaf"}, "geometry": {"type": "Point", "coordinates": [-1.10775, 53.9911]}},
{"type": "Feature", "id": "dHLlNmKWVn3w1aco27PXRcPLyYU=", "properties": {"ref": "1207", "@spider": "bq", "shop": "doityourself", "addr:full": "Frith Street, Wigan, GREATER MANCHESTER", "addr:street_address": "Frith Street", "addr:postcode": "WN5 0XN", "addr:country": "GB", "name": "B&Q Wigan", "phone": "01942 821567", "website": "https://www.diy.com/store/1207", "opening_hours": "Mo-Sa 07:00-20:00; Su 10:00-16:00", "brand": "B&Q", "brand:wikidata": "Q707602", "nsi_id": "bandq-092aaf"}, "geometry": {"type": "Point", "coordinates": [-2.647727, 53.5428]}},
{"type": "Feature", "id": "Ddy2SitvnhyG7xr2nXMRnKMSDA4=", "properties": {"ref": "1514", "@spider": "bq", "shop": "doityourself", "addr:full": "Edge Lane Drive, Liverpool, Merseyside", "addr:street_address": "Edge Lane Drive", "addr:postcode": "L13 4DL", "addr:country": "GB", "name": "B&Q Liverpool Shopping Pk", "phone": "0151 254 7900", "website": "https://www.diy.com/store/1514", "opening_hours": "Mo-Sa 07:00-20:00; Su 10:00-16:00", "brand": "B&Q", "brand:wikidata": "Q707602", "nsi_id": "bandq-092aaf"}, "geometry": {"type": "Point", "coordinates": [-2.925531, 53.409865]}},
{"type": "Feature", "id": "_Tq9W2gW47d2n_VAS0gIGzWXP68=", "properties": {"ref": "1106", "@spider": "bq", "shop": "doityourself", "addr:full": "Bessingby Road, Bridlington, EAST RIDING OF YORKSHIRE", "addr:street_address": "Bessingby Road", "addr:postcode": "YO15 3PE", "addr:country": "GB", "name": "B&Q Bridlington", "phone": "01262 400061", "website": "https://www.diy.com/store/1106", "opening_hours": "Mo-Sa 08:00-20:00; Su 10:00-16:00", "brand": "B&Q", "brand:wikidata": "Q707602", "nsi_id": "bandq-092aaf"}, "geometry": {"type": "Point", "coordinates": [-0.203698, 54.0832]}},
{"type": "Feature", "id": "Ipx88WkLBvXHOPCOGv0OlTRjNpU=", "properties": {"ref": "1289", "@spider": "bq", "shop": "doityourself", "addr:full": "Admiral Park, St Peter Port, Guernsey, CHANNEL ISLANDS", "addr:street_address": "Admiral Park, St Peter Port", "addr:postcode": "GY1 2AS", "addr:country": "GG", "name": "B&Q St Peter Port - Guernsey", "phone": "01481 713005", "website": "https://www.diy.com/store/1289", "opening_hours": "Mo-Fr 07:00-20:00; Sa 08:00-19:00; Su 10:00-16:00", "brand": "B&Q", "brand:wikidata": "Q707602", "nsi_id": "bandq-092aaf"}, "geometry": {"type": "Point", "coordinates": [-2.53816, 49.4665]}},
{"type": "Feature", "id": "Lub0f8-HZtkC82n-YJwhhn7BXVA=", "properties": {"ref": "1151", "@spider": "bq", "shop": "doityourself", "addr:full": "Alston Road, Keighley, WEST YORKSHIRE", "addr:street_address": "Alston Road", "addr:postcode": "BD21 4AG", "addr:country": "GB", "name": "B&Q Keighley", "phone": "01535 611057", "website": "https://www.diy.com/store/1151", "opening_hours": "Mo-Sa 07:00-20:00; Su 10:00-16:00", "brand": "B&Q", "brand:wikidata": "Q707602", "nsi_id": "bandq-092aaf"}, "geometry": {"type": "Point", "coordinates": [-1.89556, 53.875]}},
{"type": "Feature", "id": "HDycaZ9QxM2S24eMl9jkJGdexho=", "properties": {"ref": "1273", "@spider": "bq", "shop": "doityourself", "addr:full": "Bidston Link Road, Wallasey, MERSEYSIDE", "addr:street_address": "Bidston Link Road", "addr:postcode": "CH44 2HE", "addr:country": "GB", "name": "B&Q Wallasey", "phone": "0151 637 0123", "website": "https://www.diy.com/store/1273", "opening_hours": "Mo-Sa 07:00-20:00; Su 10:00-16:00", "brand": "B&Q", "brand:wikidata": "Q707602", "nsi_id": "bandq-092aaf"}, "geometry": {"type": "Point", "coordinates": [-3.07255, 53.4125]}},
{"type": "Feature", "id": "ygxCwy7sSpQ15V3-b8C-rjykA14=", "properties": {"ref": "1132", "@spider": "bq", "shop": "doityourself", "addr:full": "Racecourse Retail Park, 1 Ormskirk Road, Aintree, MERSEYSIDE", "addr:street_address": "Racecourse Retail Park, 1 Ormskirk Road", "addr:postcode": "L9 5AN", "addr:country": "GB", "name": "B&Q Aintree", "phone": "0151 524 1001", "website": "https://www.diy.com/store/1132", "opening_hours": "Mo-Sa 07:00-20:00; Su 10:00-16:00", "brand": "B&Q", "brand:wikidata": "Q707602", "nsi_id": "bandq-092aaf"}, "geometry": {"type": "Point", "coordinates": [-2.94993, 53.4832]}},
{"type": "Feature", "id": "diB_6WOqJ9FnPUjd4R_JKnun8JU=", "properties": {"ref": "1097", "@spider": "bq", "shop": "doityourself", "addr:full": "Highfield Industrial Estate, North Street, Chorley, LANCASHIRE", "addr:street_address": "Highfield Industrial Estate, North Street", "addr:postcode": "PR7 1QD", "addr:country": "GB", "name": "B&Q Chorley", "phone": "01257 260361", "website": "https://www.diy.com/store/1097", "opening_hours": "Mo-Sa 07:00-20:00; Su 10:00-16:00", "brand": "B&Q", "brand:wikidata": "Q707602", "nsi_id": "bandq-092aaf"}, "geometry": {"type": "Point", "coordinates": [-2.629294, 53.6618]}},
{"type": "Feature", "id": "m9VCKpKmK0jKveC0T0X6Rw9lohs=", "properties": {"ref": "1367", "@spider": "bq", "shop": "doityourself", "addr:full": "Oak Beck Road, Skipton Road, Harrogate, NORTH YORKSHIRE", "addr:street_address": "Oak Beck Road, Skipton Road", "addr:postcode": "HG1 3HT", "addr:country": "GB", "name": "B&Q Harrogate", "phone": "01423 706900", "website": "https://www.diy.com/store/1367", "opening_hours": "Mo-Sa 07:00-20:00; Su 10:00-16:00", "brand": "B&Q", "brand:wikidata": "Q707602", "nsi_id": "bandq-092aaf"}, "geometry": {"type": "Point", "coordinates": [-1.55493, 54.0077]}},
{"type": "Feature", "id": "JvjR57i7LXiG6_jtPgdWUyvF8nI=", "properties": {"ref": "1197", "@spider": "bq", "shop": "doityourself", "addr:full": "Old Towy Sawmills, Glanyrafon Road, Carmarthen, CARMARTHENSHIRE", "addr:street_address": "Old Towy Sawmills, Glanyrafon Road", "addr:postcode": "SA31 3AS", "addr:country": "GB", "name": "B&Q Carmarthen", "phone": "01267 220420", "website": "https://www.diy.com/store/1197", "opening_hours": "Mo-Sa 08:00-20:00; Su 10:00-16:00", "brand": "B&Q", "brand:wikidata": "Q707602", "nsi_id": "bandq-092aaf"}, "geometry": {"type": "Point", "coordinates": [-4.31667, 51.8515]}},
{"type": "Feature", "id": "4yfH7iHmaNvouNVrrhAWlKCV1Ak=", "properties": {"ref": "1060", "@spider": "bq", "shop": "doityourself", "addr:full": "JEC Retail Park, Queens Road, St Helier, Jersey, CHANNEL ISLANDS", "addr:street_address": "JEC Retail Park, Queens Road, St Helier", "addr:postcode": "JE1 1BQ", "addr:country": "JE", "name": "B&Q St Helier - Jersey", "phone": "01534 763599", "website": "https://www.diy.com/store/1060", "opening_hours": "Mo-Sa 08:00-20:00; Su 10:00-16:00", "brand": "B&Q", "brand:wikidata": "Q707602", "nsi_id": "bandq-092aaf"}, "geometry": {"type": "Point", "coordinates": [-2.114992, 49.2007]}},
{"type": "Feature", "id": "B8HGcXOnqpTTd9l8MFQj3ttbDRc=", "properties": {"ref": "1116", "@spider": "bq", "shop": "doityourself", "addr:full": "Churchill Way, Nelson, LANCASHIRE", "addr:street_address": "Churchill Way", "addr:postcode": "BB9 5NF", "addr:country": "GB", "name": "B&Q Nelson", "phone": "01282 698008", "website": "https://www.diy.com/store/1116", "opening_hours": "Mo-Sa 07:00-20:00; Su 10:00-16:00", "brand": "B&Q", "brand:wikidata": "Q707602", "nsi_id": "bandq-092aaf"}, "geometry": {"type": "Point", "coordinates": [-2.23438, 53.8288]}},
{"type": "Feature", "id": "PvPEFAbnL51rP3HoTWjPbvRL7MA=", "properties": {"ref": "1173", "@spider": "bq", "shop": "doityourself", "addr:full": "Nova Scotia Retail Park, Bolton Road, Blackburn, LANCASHIRE", "addr:street_address": "Nova Scotia Retail Park, Bolton Road", "addr:postcode": "BB2 3QP", "addr:country": "GB", "name": "B&Q Blackburn", "phone": "01254 678100", "website": "https://www.diy.com/store/1173", "opening_hours": "Mo-Sa 07:00-20:00; Su 10:00-16:00", "brand": "B&Q", "brand:wikidata": "Q707602", "nsi_id": "bandq-092aaf"}, "geometry": {"type": "Point", "coordinates": [-2.48248, 53.7403]}},
{"type": "Feature", "id": "MxAs-P2exhKr7u4PKXGJUDq7eKw=", "properties": {"ref": "1291", "@spider": "bq", "shop": "doityourself", "addr:full": "Unit 1, Craven Drive, Southrings Business Park, Bamber Bridge, Preston, LANCASHIRE", "addr:street_address": "Unit 1, Craven Drive, Southrings Business Park, Bamber Bridge", "addr:postcode": "PR5 6BZ", "addr:country": "GB", "name": "B&Q Preston", "website": "https://www.diy.com/store/1291", "opening_hours": "Mo-Sa 07:00-20:00; Su 10:00-16:00", "brand": "B&Q", "brand:wikidata": "Q707602", "nsi_id": "bandq-092aaf"}, "geometry": {"type": "Point", "coordinates": [-2.66837, 53.7204]}},
{"type": "Feature", "id": "eWHCisN0_ZPbblVYz91kkvASd80=", "properties": {"ref": "1220", "@spider": "bq", "shop": "doityourself", "addr:full": "Unit 1,  Clwyd Retail Park, Rhyl, DENBIGHSHIRE", "addr:street_address": "Unit 1,  Clwyd Retail Park", "addr:postcode": "LL18 2TJ", "addr:country": "GB", "name": "B&Q Rhyl", "phone": "01745 342422", "website": "https://www.diy.com/store/1220", "opening_hours": "Mo-Sa 08:00-20:00; Su 10:00-16:00", "brand": "B&Q", "brand:wikidata": "Q707602", "nsi_id": "bandq-092aaf"}, "geometry": {"type": "Point", "coordinates": [-3.46926, 53.3035]}},
{"type": "Feature", "id": "QKP55Ka7WnlEQEnMdk9JXE3e5_A=", "properties": {"ref": "1101", "@spider": "bq", "shop": "doityourself", "addr:full": "Meols Cop Road, Southport, MERSEYSIDE", "addr:street_address": "Meols Cop Road", "addr:postcode": "PR8 6JU", "addr:country": "GB", "name": "B&Q Southport", "phone": "0330 123 9243", "website": "https://www.diy.com/store/1101", "opening_hours": "Mo-Sa 07:00-20:00; Su 10:00-16:00", "brand": "B&Q", "brand:wikidata": "Q707602", "nsi_id": "bandq-092aaf"}, "geometry": {"type": "Point", "coordinates": [-2.968712, 53.633]}},
{"type": "Feature", "id": "kJVj6mbkB0xf_oWX0Avs3lUYGsk=", "properties": {"ref": "1103", "@spider": "bq", "shop": "doityourself", "addr:full": "Seamer Road, Scarborough, NORTH YORKSHIRE", "addr:street_address": "Seamer Road", "addr:postcode": "YO12 4DJ", "addr:country": "GB", "name": "B&Q Scarborough", "phone": "01723 500477", "website": "https://www.diy.com/store/1103", "opening_hours": "Mo-Sa 08:00-20:00; Su 10:00-16:00", "brand": "B&Q", "brand:wikidata": "Q707602", "nsi_id": "bandq-092aaf"}, "geometry": {"type": "Point", "coordinates": [-0.415728, 54.2619]}},
{"type": "Feature", "id": "wxb-el3WCjCDyWzYDv6DkFehmvw=", "properties": {"ref": "1292", "@spider": "bq", "shop": "doityourself", "addr:full": "Unit 1, Crownhill Retail Park, 231 Tavistock Road, Crownhill, Plymouth, DEVON", "addr:street_address": "Unit 1, Crownhill Retail Park, 231 Tavistock Road, Crownhill", "addr:postcode": "PL6 5US", "addr:country": "GB", "name": "B&Q Plymouth - Crownhill", "phone": "01752 702444", "website": "https://www.diy.com/store/1292", "opening_hours": "Mo-Sa 07:00-20:00; Su 10:00-16:00", "brand": "B&Q", "brand:wikidata": "Q707602", "nsi_id": "bandq-092aaf"}, "geometry": {"type": "Point", "coordinates": [-4.125516, 50.4176]}},
{"type": "Feature", "id": "ynhiJtdA2boOsLv7xWQMez_6BUk=", "properties": {"ref": "1313", "@spider": "bq", "shop": "doityourself", "addr:full": "Whitehills Retail Park, Preston New Road, Blackpool, LANCASHIRE", "addr:street_address": "Whitehills Retail Park, Preston New Road", "addr:postcode": "FY4 5LU", "addr:country": "GB", "name": "B&Q Blackpool - Whitehills", "phone": "01253 798111", "website": "https://www.diy.com/store/1313", "opening_hours": "Mo-Sa 07:00-20:00; Su 10:00-16:00", "brand": "B&Q", "brand:wikidata": "Q707602", "nsi_id": "bandq-092aaf"}, "geometry": {"type": "Point", "coordinates": [-2.9845, 53.7916]}},
{"type": "Feature", "id": "950JvXt_Q3FIJXYwrsTsp-wVhJE=", "properties": {"ref": "1092", "@spider": "bq", "shop": "doityourself", "addr:full": "Mostyn Broadway, Llandudno, CLWYD", "addr:street_address": "Mostyn Broadway", "addr:postcode": "LL30 1RT", "addr:country": "GB", "name": "B&Q Llandudno", "phone": "01492 878181", "website": "https://www.diy.com/store/1092", "opening_hours": "Mo-Sa 08:00-20:00; Su 10:00-16:00", "brand": "B&Q", "brand:wikidata": "Q707602", "nsi_id": "bandq-092aaf"}, "geometry": {"type": "Point", "coordinates": [-3.81919, 53.3207]}},
{"type": "Feature", "id": "aFpz3vnMuAu5w7VoQINLMkgtMXw=", "properties": {"ref": "1112", "@spider": "bq", "shop": "doityourself", "addr:full": "Caernarfon Road, Bangor, GWYNEDD", "addr:street_address": "Caernarfon Road", "addr:postcode": "LL57 4SU", "addr:country": "GB", "name": "B&Q Bangor \u2013 Wales", "phone": "01248 370258", "website": "https://www.diy.com/store/1112", "opening_hours": "Mo-Sa 07:00-20:00; Su 10:00-16:00", "brand": "B&Q", "brand:wikidata": "Q707602", "nsi_id": "bandq-092aaf"}, "geometry": {"type": "Point", "coordinates": [-4.151287, 53.2096]}},
{"type": "Feature", "id": "b7qvv9r6IOM1m2BnUEEjFfCVt2Q=", "properties": {"ref": "2756", "@spider": "bq", "shop": "doityourself", "addr:full": "Asda, Ovangle Road, Lancaster", "addr:street_address": "Asda, Ovangle Road", "addr:postcode": "LA1 5JR", "addr:country": "GB", "name": "B&Q Lancaster (Located in Asda)", "phone": "01524 596205", "website": "https://www.diy.com/store/2756", "contact:email": "Lancaster.DutyManager@b-and-q.co.uk", "opening_hours": "Mo-Sa 08:00-20:00; Su 10:00-16:00", "brand": "B&Q", "brand:wikidata": "Q707602", "nsi_id": "bandq-092aaf"}, "geometry": {"type": "Point", "coordinates": [-2.82694, 54.05636]}},
{"type": "Feature", "id": "5Qx3PmncLjWFnGWnes3cylT_JuU=", "properties": {"ref": "1006", "@spider": "bq", "shop": "doityourself", "addr:full": "Morton Park, Morton Park Way, Darlington, DURHAM", "addr:street_address": "Morton Park, Morton Park Way", "addr:postcode": "DL1 4PJ", "addr:country": "GB", "name": "B&Q Darlington", "phone": "01325 285341", "website": "https://www.diy.com/store/1006", "opening_hours": "Mo-Sa 07:00-20:00; Su 10:00-16:00", "brand": "B&Q", "brand:wikidata": "Q707602", "nsi_id": "bandq-092aaf"}, "geometry": {"type": "Point", "coordinates": [-1.500921, 54.5215]}},
{"type": "Feature", "id": "KdqMHKKRrOkAFFfK12jaw_ExHss=", "properties": {"ref": "1286", "@spider": "bq", "shop": "doityourself", "addr:full": "Cleveland Retail Park, Skippers Lane, Middlesbrough, TEESSIDE", "addr:street_address": "Cleveland Retail Park, Skippers Lane", "addr:postcode": "TS6 6UX", "addr:country": "GB", "name": "B&Q Middlesbrough", "phone": "01642 430043", "website": "https://www.diy.com/store/1286", "opening_hours": "Mo-Sa 07:00-20:00; Su 10:00-16:00", "brand": "B&Q", "brand:wikidata": "Q707602", "nsi_id": "bandq-092aaf"}, "geometry": {"type": "Point", "coordinates": [-1.17927, 54.5704]}},
{"type": "Feature", "id": "E3JWds-Imw-AOx6FxPgfeKFdAdk=", "properties": {"ref": "1221", "@spider": "bq", "shop": "doityourself", "addr:full": "Cheltenham Road, Portrack Lane, Stockton-on-Tees, DURHAM", "addr:street_address": "Cheltenham Road, Portrack Lane", "addr:postcode": "TS18 2SA", "addr:country": "GB", "name": "B&Q Stockton-on-Tees", "phone": "01642 667800", "website": "https://www.diy.com/store/1221", "opening_hours": "Mo-Sa 07:00-20:00; Su 10:00-16:00", "brand": "B&Q", "brand:wikidata": "Q707602", "nsi_id": "bandq-092aaf"}, "geometry": {"type": "Point", "coordinates": [-1.28248, 54.5752]}},
{"type": "Feature", "id": "9dBPGALeGEgb_mdLBhoYYXdVFJ4=", "properties": {"ref": "1118", "@spider": "bq", "shop": "doityourself", "addr:full": "Pentewan Road, St Austell, CORNWALL", "addr:street_address": "Pentewan Road", "addr:postcode": "PL25 5BU", "addr:country": "GB", "name": "B&Q St Austell", "phone": "01726 871100", "website": "https://www.diy.com/store/1118", "opening_hours": "Mo-Sa 07:00-20:00; Su 10:00-16:00", "brand": "B&Q", "brand:wikidata": "Q707602", "nsi_id": "bandq-092aaf"}, "geometry": {"type": "Point", "coordinates": [-4.794266, 50.3333]}},
{"type": "Feature", "id": "bAkDQisXF9sLhW_EtcesUcU-B28=", "properties": {"ref": "1070", "@spider": "bq", "shop": "doityourself", "addr:full": "Cornmill Park, Cornmill Crossing, Barrow-in-Furness, CUMBRIA", "addr:street_address": "Cornmill Park, Cornmill Crossing", "addr:postcode": "LA14 2GN", "addr:country": "GB", "name": "B&Q Barrow", "phone": "01229 871157", "website": "https://www.diy.com/store/1070", "opening_hours": "Mo-Sa 07:00-20:00; Su 10:00-16:00", "brand": "B&Q", "brand:wikidata": "Q707602", "nsi_id": "bandq-092aaf"}, "geometry": {"type": "Point", "coordinates": [-3.232706, 54.1112]}},
{"type": "Feature", "id": "l8pfMafYTeV87oe9HDZc_rQiyYY=", "properties": {"ref": "1234", "@spider": "bq", "shop": "doityourself", "addr:full": "Burton Road, Kendal, Cumbria", "addr:street_address": "Burton Road", "addr:postcode": "LA9 7JU", "addr:country": "GB", "name": "B&Q Kendal", "phone": "01539 817000", "website": "https://www.diy.com/store/1234", "opening_hours": "Mo-Sa 08:00-20:00; Su 10:00-16:00", "brand": "B&Q", "brand:wikidata": "Q707602", "nsi_id": "bandq-092aaf"}, "geometry": {"type": "Point", "coordinates": [-2.734437, 54.31]}},
{"type": "Feature", "id": "pK8LU_kEXlz8oez-OTdeZZbpIJo=", "properties": {"ref": "2757", "@spider": "bq", "shop": "doityourself", "addr:full": "Asda, Anchor Retail Park, Marina Way, Hartlepool", "addr:street_address": "Asda, Anchor Retail Park, Marina Way", "addr:postcode": "TS24 0XR", "addr:country": "GB", "name": "B&Q Hartlepool (Located in Asda)", "phone": "01429 867424", "website": "https://www.diy.com/store/2757", "contact:email": "Hartlepool.DutyManager@b-and-q.co.uk", "opening_hours": "Mo-Sa 08:00-20:00; Su 10:00-16:00", "brand": "B&Q", "brand:wikidata": "Q707602", "nsi_id": "bandq-092aaf"}, "geometry": {"type": "Point", "coordinates": [-1.2102, 54.68965]}},
{"type": "Feature", "id": "E5UEG_8QuAwWb75rl4hVBY7mCM4=", "properties": {"ref": "1120", "@spider": "bq", "shop": "doityourself", "addr:full": "Bob Hardisty Drive, Newgate Park, Bishop Auckland, DURHAM", "addr:street_address": "Bob Hardisty Drive, Newgate Park", "addr:postcode": "DL14 7TW", "addr:country": "GB", "name": "B&Q Bishop Auckland", "phone": "01388 601577", "website": "https://www.diy.com/store/1120", "opening_hours": "Mo-Sa 07:00-20:00; Su 10:00-16:00", "brand": "B&Q", "brand:wikidata": "Q707602", "nsi_id": "bandq-092aaf"}, "geometry": {"type": "Point", "coordinates": [-1.679664, 54.6572]}},
{"type": "Feature", "id": "4o33blNmPHiRO6WPXdc7zoSW31c=", "properties": {"ref": "1343", "@spider": "bq", "shop": "doityourself", "addr:full": "Unit 1,  Durham City Retail Park, Sunderland Road, Rennys Lane, Durham, DURHAM", "addr:street_address": "Unit 1,  Durham City Retail Park, Sunderland Road, Rennys Lane", "addr:postcode": "DH1 2HJ", "addr:country": "GB", "name": "B&Q Durham", "phone": "0191 386 3899", "website": "https://www.diy.com/store/1343", "opening_hours": "Mo-Sa 07:00-20:00; Su 10:00-16:00", "brand": "B&Q", "brand:wikidata": "Q707602", "nsi_id": "bandq-092aaf"}, "geometry": {"type": "Point", "coordinates": [-1.53506, 54.7828]}},
{"type": "Feature", "id": "8_njAYV0EXNmEaHcQEv0DqtI4zA=", "properties": {"ref": "1365", "@spider": "bq", "shop": "doityourself", "addr:full": "56 Kernick Road, Penryn, Falmouth, CORNWALL", "addr:street_address": "56 Kernick Road, Penryn", "addr:postcode": "TR10 9DQ", "addr:country": "GB", "name": "B&Q Penryn", "phone": "01326 373688", "website": "https://www.diy.com/store/1365", "opening_hours": "Mo-Sa 07:00-20:00; Su 10:00-16:00", "brand": "B&Q", "brand:wikidata": "Q707602", "nsi_id": "bandq-092aaf"}, "geometry": {"type": "Point", "coordinates": [-5.12377, 50.1648]}},
{"type": "Feature", "id": "GbR9Uraz7Wg1mgwCIg7evhMWTyE=", "properties": {"ref": "1050", "@spider": "bq", "shop": "doityourself", "addr:full": "Trimdon Street, Deptford, Sunderland, TYNE AND WEAR", "addr:street_address": "Trimdon Street, Deptford", "addr:postcode": "SR4 6DW", "addr:country": "GB", "name": "B&Q Sunderland", "phone": "0191 567 1444", "website": "https://www.diy.com/store/1050", "opening_hours": "Mo-Sa 07:00-20:00; Su 10:00-16:00", "brand": "B&Q", "brand:wikidata": "Q707602", "nsi_id": "bandq-092aaf"}, "geometry": {"type": "Point", "coordinates": [-1.39472, 54.9103]}},
{"type": "Feature", "id": "H-ZFeL1V6fOhYZ8-L9sF7dGJ6SA=", "properties": {"ref": "1332", "@spider": "bq", "shop": "doityourself", "addr:full": "Hermiston Retail Park, Consett, COUNTY DURHAM", "addr:street_address": "Hermiston Retail Park", "addr:postcode": "DH8 5RE", "addr:country": "GB", "name": "B&Q Consett", "phone": "01207 586820", "website": "https://www.diy.com/store/1332", "opening_hours": "Mo-Sa 08:00-20:00; Su 10:00-16:00", "brand": "B&Q", "brand:wikidata": "Q707602", "nsi_id": "bandq-092aaf"}, "geometry": {"type": "Point", "coordinates": [-1.8354, 54.8481]}},
{"type": "Feature", "id": "tB4tRkQtmOM8sGV0vWNgdnTCXGY=", "properties": {"ref": "1203", "@spider": "bq", "shop": "doityourself", "addr:full": "Armstrong Industrial Estate, Washington, TYNE AND WEAR", "addr:street_address": "Armstrong Industrial Estate", "addr:postcode": "NE37 1LH", "addr:country": "GB", "name": "B&Q Washington", "phone": "0191 415 7029", "website": "https://www.diy.com/store/1203", "opening_hours": "Mo-Sa 07:00-20:00; Su 10:00-16:00", "brand": "B&Q", "brand:wikidata": "Q707602", "nsi_id": "bandq-092aaf"}, "geometry": {"type": "Point", "coordinates": [-1.546111, 54.9113]}},
{"type": "Feature", "id": "9Qh5KGryi_pwoNk4Rw-ZKFreyEs=", "properties": {"ref": "1219", "@spider": "bq", "shop": "doityourself", "addr:full": "Camborne Retail Park, 83-96 Trevenson Road, Pool, Redruth, CORNWALL", "addr:street_address": "Camborne Retail Park, 83-96 Trevenson Road, Pool", "addr:postcode": "TR15 3PS", "addr:country": "GB", "name": "B&Q Camborne", "phone": "01209 720089", "website": "https://www.diy.com/store/1219", "opening_hours": "Mo-Sa 07:00-20:00; Su 10:00-16:00", "brand": "B&Q", "brand:wikidata": "Q707602", "nsi_id": "bandq-092aaf"}, "geometry": {"type": "Point", "coordinates": [-5.276173, 50.2251]}},
{"type": "Feature", "id": "xg3USfhLdLttHYW2JNGSFWFgwtk=", "properties": {"ref": "1316", "@spider": "bq", "shop": "doityourself", "addr:full": "Unit 5, Castle Retail Park, Cavendish Way, Penrith, CUMBRIA", "addr:street_address": "Unit 5, Castle Retail Park, Cavendish Way", "addr:postcode": "CA11 7EH", "addr:country": "GB", "name": "B&Q Penrith", "phone": "01768-861300", "website": "https://www.diy.com/store/1316", "opening_hours": "Mo-Sa 07:00-20:00; Su 10:00-16:00", "brand": "B&Q", "brand:wikidata": "Q707602", "nsi_id": "bandq-092aaf"}, "geometry": {"type": "Point", "coordinates": [-2.762, 54.658]}},
{"type": "Feature", "id": "4xhwjKQRlde3vLWPYZK5zEONVSs=", "properties": {"ref": "1007", "@spider": "bq", "shop": "doityourself", "addr:full": "Scotswood Road, Scotswood, Newcastle upon Tyne, TYNE AND WEAR", "addr:street_address": "Scotswood Road, Scotswood", "addr:postcode": "NE15 6UU", "addr:country": "GB", "name": "B&Q Newcastle - Scotswood", "phone": "0191 274 3344", "website": "https://www.diy.com/store/1007", "opening_hours": "Mo-Sa 07:00-20:00; Su 10:00-16:00", "brand": "B&Q", "brand:wikidata": "Q707602", "nsi_id": "bandq-092aaf"}, "geometry": {"type": "Point", "coordinates": [-1.69594, 54.9719]}},
{"type": "Feature", "id": "pPnXdslSSkqWT3oXEAhxNiaAXR8=", "properties": {"ref": "1014", "@spider": "bq", "shop": "doityourself", "addr:full": "Middle Engine Lane, Wallsend, TYNE AND WEAR", "addr:street_address": "Middle Engine Lane", "addr:postcode": "NE28 9NT", "addr:country": "GB", "name": "B&Q North Shields", "phone": "0191 295 0022", "website": "https://www.diy.com/store/1014", "opening_hours": "Mo-Sa 07:00-20:00; Su 10:00-16:00", "brand": "B&Q", "brand:wikidata": "Q707602", "nsi_id": "bandq-092aaf"}, "geometry": {"type": "Point", "coordinates": [-1.50241, 55.0098]}},
{"type": "Feature", "id": "9ijgKYDgMZZuZ4w-jXKx08i-BfY=", "properties": {"ref": "1117", "@spider": "bq", "shop": "doityourself", "addr:full": "Derwent Drive, Derwent Howe Retail Park, Workington, CUMBRIA", "addr:street_address": "Derwent Drive, Derwent Howe Retail Park", "addr:postcode": "CA14 3YW", "addr:country": "GB", "name": "B&Q Workington", "phone": "01900 873477", "website": "https://www.diy.com/store/1117", "opening_hours": "Mo-Sa 08:00-20:00; Su 10:00-16:00", "brand": "B&Q", "brand:wikidata": "Q707602", "nsi_id": "bandq-092aaf"}, "geometry": {"type": "Point", "coordinates": [-3.56346, 54.6439]}},
{"type": "Feature", "id": "7lBNHB8KzJMgfBZqk7W29uf51OE=", "properties": {"ref": "1095", "@spider": "bq", "shop": "doityourself", "addr:full": "Spring Valley Industrial Estate, Cooil Road, Douglas, ISLE OF MAN", "addr:street_address": "Spring Valley Industrial Estate, Cooil Road", "addr:postcode": "IM2 2QT", "addr:country": "IM", "name": "B&Q Isle Of Man", "phone": "01624 619292", "website": "https://www.diy.com/store/1095", "opening_hours": "Mo-Fr 08:00-20:00; Sa 08:00-19:00; Su 09:00-17:00", "brand": "B&Q", "brand:wikidata": "Q707602", "nsi_id": "bandq-092aaf"}, "geometry": {"type": "Point", "coordinates": [-4.52832, 54.1507]}},
{"type": "Feature", "id": "TaGlfXd7RPP2s_QToMoQrwkb3os=", "properties": {"ref": "1182", "@spider": "bq", "shop": "doityourself", "addr:full": "London Road, Carlisle, CUMBRIA", "addr:street_address": "London Road", "addr:postcode": "CA1 2PW", "addr:country": "GB", "name": "B&Q Carlisle", "phone": "01228 818100", "website": "https://www.diy.com/store/1182", "opening_hours": "Mo-Sa 07:00-20:00; Su 10:00-16:00", "brand": "B&Q", "brand:wikidata": "Q707602", "nsi_id": "bandq-092aaf"}, "geometry": {"type": "Point", "coordinates": [-2.924166, 54.8865]}},
{"type": "Feature", "id": "vIrM8_TdzIKLlgmVGkx7h8AAgmQ=", "properties": {"ref": "1337", "@spider": "bq", "shop": "doityourself", "addr:full": "Airside Retail Park, Swords, Dublin, COUNTY DUBLIN", "addr:street_address": "Airside Retail Park, Swords", "addr:country": "IE", "name": "B&Q Dublin - Swords", "phone": "+353 1 8708 599", "website": "https://www.diy.com/store/1337", "opening_hours": "Mo-Sa 08:00-20:00; Su 10:00-18:00", "brand": "B&Q", "brand:wikidata": "Q707602", "nsi_id": "bandq-092aaf"}, "geometry": {"type": "Point", "coordinates": [-6.222108, 53.4477]}},
{"type": "Feature", "id": "JIwrXOSpMMfNv3xGo9VzvayERLQ=", "properties": {"ref": "1331", "@spider": "bq", "shop": "doityourself", "addr:full": "Belgard retail park, Belgard Road, Tallaght, Dublin 24, COUNTY DUBLIN", "addr:street_address": "Belgard retail park, Belgard Road, Tallaght", "addr:country": "IE", "name": "B&Q Dublin - Tallaght", "phone": "+353 1 6804 650", "website": "https://www.diy.com/store/1331", "opening_hours": "Mo-Sa 08:00-20:00; Su 10:00-18:00", "brand": "B&Q", "brand:wikidata": "Q707602", "nsi_id": "bandq-092aaf"}, "geometry": {"type": "Point", "coordinates": [-6.372215, 53.2935]}},
{"type": "Feature", "id": "b9CDF9wmyKuR_VQcG85teeBDdgk=", "properties": {"ref": "1259", "@spider": "bq", "shop": "doityourself", "addr:full": "Liffey Valley Retail Park East, Coldcut Road, Clondalkin, Dublin, COUNTY DUBLIN", "addr:street_address": "Liffey Valley Retail Park East, Coldcut Road, Clondalkin", "addr:country": "IE", "name": "B&Q Dublin - Liffey Valley", "phone": "+353 16 299 499", "website": "https://www.diy.com/store/1259", "opening_hours": "Mo-Sa 07:00-20:00; Su 10:00-18:00", "brand": "B&Q", "brand:wikidata": "Q707602", "nsi_id": "bandq-092aaf"}, "geometry": {"type": "Point", "coordinates": [-6.38797, 53.3482]}},
{"type": "Feature", "id": "85kVHMz9VtHNebGR6TEnBOnFBdo=", "properties": {"ref": "1115", "@spider": "bq", "shop": "doityourself", "addr:full": "Naas Retail Park, Jigginstown, Naas, COUNTY KILDAIRE", "addr:street_address": "Naas Retail Park, Jigginstown", "addr:country": "IE", "name": "B&Q Naas", "phone": "+353 45 906 399", "website": "https://www.diy.com/store/1115", "opening_hours": "Mo-Sa 08:00-20:00; Su 10:00-18:00", "brand": "B&Q", "brand:wikidata": "Q707602", "nsi_id": "bandq-092aaf"}, "geometry": {"type": "Point", "coordinates": [-6.70107, 53.2106]}},
{"type": "Feature", "id": "fZ8ZS621LlESAIJXShWCJm1S16M=", "properties": {"ref": "1159", "@spider": "bq", "shop": "doityourself", "addr:full": "Low Buckholmside, Wilder Haugh, Galashiels, BORDERS", "addr:street_address": "Low Buckholmside, Wilder Haugh", "addr:postcode": "TD1 1PD", "addr:country": "GB", "name": "B&Q Galashiels", "phone": "01896 754044", "website": "https://www.diy.com/store/1159", "opening_hours": "Mo-Sa 08:00-20:00; Su 09:00-18:00", "brand": "B&Q", "brand:wikidata": "Q707602", "nsi_id": "bandq-092aaf"}, "geometry": {"type": "Point", "coordinates": [-2.81465, 55.6212]}},
{"type": "Feature", "id": "bfkNAxbYSOOVGOejpt3RMUbaov0=", "properties": {"ref": "1353", "@spider": "bq", "shop": "doityourself", "addr:full": "Damolly Retail Park, Armagh Road, Newry, COUNTY ARMAGH", "addr:street_address": "Damolly Retail Park, Armagh Road", "addr:postcode": "BT35 6PR", "addr:country": "GB", "name": "B&Q Newry", "phone": "028 3025 7722", "website": "https://www.diy.com/store/1353", "opening_hours": "Mo-Sa 08:00-20:00; Su 13:00-18:00", "brand": "B&Q", "brand:wikidata": "Q707602", "nsi_id": "bandq-092aaf"}, "geometry": {"type": "Point", "coordinates": [-6.35009, 54.1893]}},
{"type": "Feature", "id": "WSIJPDM05CM2HqW5Jh9xm3IaIsk=", "properties": {"ref": "1355", "@spider": "bq", "shop": "doityourself", "addr:full": "Harbour Exchange, Airport Road West, Holywood, Belfast, COUNTY DOWN", "addr:street_address": "Harbour Exchange, Airport Road West, Holywood", "addr:postcode": "BT3 9EJ", "addr:country": "GB", "name": "B&Q Belfast - Holywood", "phone": "028 9039 7744", "website": "https://www.diy.com/store/1355", "opening_hours": "Mo-Sa 07:00-20:00; Su 13:00-18:00", "brand": "B&Q", "brand:wikidata": "Q707602", "nsi_id": "bandq-092aaf"}, "geometry": {"type": "Point", "coordinates": [-5.84647, 54.6295]}},
{"type": "Feature", "id": "Z6PQt7U9M5Zj1R2fmfgMAWhQhDQ=", "properties": {"ref": "1318", "@spider": "bq", "shop": "doityourself", "addr:full": "Unit 1, Sprucefield Park, Lisburn, COUNTY DOWN", "addr:street_address": "Unit 1, Sprucefield Park", "addr:postcode": "BT27 5UJ", "addr:country": "GB", "name": "B&Q Lisburn", "phone": "028 9267 8989", "website": "https://www.diy.com/store/1318", "opening_hours": "Mo-Sa 08:00-20:00; Su 13:00-18:00", "brand": "B&Q", "brand:wikidata": "Q707602", "nsi_id": "bandq-092aaf"}, "geometry": {"type": "Point", "coordinates": [-6.07359, 54.4913]}},
{"type": "Feature", "id": "0mIp7j4QvQ-C8h4Mox2576TiDK4=", "properties": {"ref": "1209", "@spider": "bq", "shop": "doityourself", "addr:full": "Abbey Retail Park, Church Road, Newtownabbey, COUNTY ANTRIM", "addr:street_address": "Abbey Retail Park, Church Road", "addr:postcode": "BT36 7GU", "addr:country": "GB", "name": "B&Q Newtownabbey", "phone": "028 9036 9102", "website": "https://www.diy.com/store/1209", "opening_hours": "Mo-Sa 07:00-20:00; Su 13:00-18:00", "brand": "B&Q", "brand:wikidata": "Q707602", "nsi_id": "bandq-092aaf"}, "geometry": {"type": "Point", "coordinates": [-5.92096, 54.6526]}},
{"type": "Feature", "id": "z0-H-j_CorVsZSB9mhJOD-qrOqk=", "properties": {"ref": "1308", "@spider": "bq", "shop": "doityourself", "addr:full": "New Craighall Retail Park, off New Craighall Road, Newcraighall, LOTHIAN", "addr:street_address": "New Craighall Retail Park, off New Craighall Road", "addr:postcode": "EH15 3HS", "addr:country": "GB", "name": "B&Q Edinburgh - Newcraighall", "phone": "0131 454 4900", "website": "https://www.diy.com/store/1308", "opening_hours": "Mo-Sa 07:00-20:00; Su 09:00-18:00", "brand": "B&Q", "brand:wikidata": "Q707602", "nsi_id": "bandq-092aaf"}, "geometry": {"type": "Point", "coordinates": [-3.09718, 55.9322]}},
{"type": "Feature", "id": "rpJvN15ICIGx_MYrC9EVurTpPCU=", "properties": {"ref": "1272", "@spider": "bq", "shop": "doityourself", "addr:full": "Sanquhar Farm Road, Heathfield, Ayr, SOUTH AYRSHIRE", "addr:street_address": "Sanquhar Farm Road, Heathfield", "addr:postcode": "KA8 9TB", "addr:country": "GB", "name": "B&Q Ayr", "phone": "01292 886644", "website": "https://www.diy.com/store/1272", "opening_hours": "Mo-Sa 07:00-20:00; Su 09:00-18:00", "brand": "B&Q", "brand:wikidata": "Q707602", "nsi_id": "bandq-092aaf"}, "geometry": {"type": "Point", "coordinates": [-4.601126, 55.4779]}},
{"type": "Feature", "id": "wyw7zbfxGMvVBRVwXLYsf0rWLG8=", "properties": {"ref": "1350", "@spider": "bq", "shop": "doityourself", "addr:full": "1 Hermiston Gait Retail Park, Edinburgh, LOTHIAN", "addr:street_address": "1 Hermiston Gait Retail Park", "addr:postcode": "EH11 4DG", "addr:country": "GB", "name": "B&Q Edinburgh - Hermiston Gait", "phone": "0131 458 3300", "website": "https://www.diy.com/store/1350", "opening_hours": "Mo-Sa 07:00-20:00; Su 09:00-18:00", "brand": "B&Q", "brand:wikidata": "Q707602", "nsi_id": "bandq-092aaf"}, "geometry": {"type": "Point", "coordinates": [-3.30805, 55.9242]}},
{"type": "Feature", "id": "v0XNGDAZ1644jucc8YTVAY5ZLHw=", "properties": {"ref": "2738", "@spider": "bq", "shop": "doityourself", "addr:full": "6 Retail Park South, Almondvale Road, Livingston, Edinburgh", "addr:street_address": "6 Retail Park South, Almondvale Road, Livingston", "addr:postcode": "EH54 6GH", "addr:country": "GB", "name": "B&Q Livingston", "phone": "01506 407000", "website": "https://www.diy.com/store/2738", "contact:email": "Livingston.DutyManager@b-and-q.co.uk", "opening_hours": "Mo-Sa 07:00-20:00; Su 09:00-18:00", "brand": "B&Q", "brand:wikidata": "Q707602", "nsi_id": "bandq-092aaf"}, "geometry": {"type": "Point", "coordinates": [-3.52208, 55.879959]}},
{"type": "Feature", "id": "f5LiF0n49hr0AMLMtFX1faOzkyA=", "properties": {"ref": "1307", "@spider": "bq", "shop": "doityourself", "addr:full": "8 Queens Drive, Kilmarnock, AYRSHIRE", "addr:street_address": "8 Queens Drive", "addr:postcode": "KA1 3XB", "addr:country": "GB", "name": "B&Q Kilmarnock", "phone": "01563 570222", "website": "https://www.diy.com/store/1307", "opening_hours": "Mo-Sa 07:00-20:00; Su 09:00-18:00", "brand": "B&Q", "brand:wikidata": "Q707602", "nsi_id": "bandq-092aaf"}, "geometry": {"type": "Point", "coordinates": [-4.489889, 55.5988]}},
{"type": "Feature", "id": "gEDP1km636lI_1lKncNdvsyBxQk=", "properties": {"ref": "1215", "@spider": "bq", "shop": "doityourself", "addr:full": "Mavor Avenue, Nerston Industrial Estate, East Kilbride, SOUTH LANARKSHIRE", "addr:street_address": "Mavor Avenue, Nerston Industrial Estate", "addr:postcode": "G74 4QX", "addr:country": "GB", "name": "B&Q East Kilbride", "phone": "0330 123 9243", "website": "https://www.diy.com/store/1215", "opening_hours": "Mo-Sa 07:00-20:00; Su 09:00-18:00", "brand": "B&Q", "brand:wikidata": "Q707602", "nsi_id": "bandq-092aaf"}, "geometry": {"type": "Point", "coordinates": [-4.168196, 55.7813]}},
{"type": "Feature", "id": "XroG6qD8DCAkzrO3UUnBJcCVDEY=", "properties": {"ref": "1284", "@spider": "bq", "shop": "doityourself", "addr:full": "Tennent Street, Coatbridge, NORTH LANARKSHIRE", "addr:street_address": "Tennent Street", "addr:postcode": "ML5 4AN", "addr:country": "GB", "name": "B&Q Coatbridge", "phone": "01236 449876", "website": "https://www.diy.com/store/1284", "opening_hours": "Mo-Sa 07:00-20:00; Su 09:00-18:00", "brand": "B&Q", "brand:wikidata": "Q707602", "nsi_id": "bandq-092aaf"}, "geometry": {"type": "Point", "coordinates": [-4.017155, 55.8548]}},
{"type": "Feature", "id": "eI6Tgz0O31DyxOqbNTpKHQ8h2o4=", "properties": {"ref": "1275", "@spider": "bq", "shop": "doityourself", "addr:full": "1 Hawkhill Retail Park, Kilwinning Road, Stevenston, NORTH AYRSHIRE", "addr:street_address": "1 Hawkhill Retail Park, Kilwinning Road", "addr:postcode": "KA20 3DE", "addr:country": "GB", "name": "B&Q Stevenston", "phone": "01294 471909", "website": "https://www.diy.com/store/1275", "opening_hours": "Mo-Sa 08:00-20:00; Su 09:00-18:00", "brand": "B&Q", "brand:wikidata": "Q707602", "nsi_id": "bandq-092aaf"}, "geometry": {"type": "Point", "coordinates": [-4.73806, 55.647]}},
{"type": "Feature", "id": "54Jgk9KHIAPs3Gd_RYVWr0REbII=", "properties": {"ref": "1377", "@spider": "bq", "shop": "doityourself", "addr:full": "Fife Central Retail Park, Kirkcaldy, FIFE", "addr:street_address": "Fife Central Retail Park", "addr:postcode": "KY2 6QL", "addr:country": "GB", "name": "B&Q Kirkcaldy", "phone": "01592 646000", "website": "https://www.diy.com/store/1377", "opening_hours": "Mo-Sa 07:00-20:00; Su 09:00-18:00", "brand": "B&Q", "brand:wikidata": "Q707602", "nsi_id": "bandq-092aaf"}, "geometry": {"type": "Point", "coordinates": [-3.196528, 56.1349]}},
{"type": "Feature", "id": "UaPcX1LiDfHd-9sHFg69W_HcOXk=", "properties": {"ref": "1246", "@spider": "bq", "shop": "doityourself", "addr:full": "21 Leggatston Road, off Darnley Mains, Darnley, Glasgow, LANARKSHIRE", "addr:street_address": "21 Leggatston Road, off Darnley Mains, Darnley", "addr:postcode": "G53 7RJ", "addr:country": "GB", "name": "B&Q Darnley", "phone": "0141 621 2244", "website": "https://www.diy.com/store/1246", "opening_hours": "Mo-Sa 07:00-20:00; Su 09:00-18:00", "brand": "B&Q", "brand:wikidata": "Q707602", "nsi_id": "bandq-092aaf"}, "geometry": {"type": "Point", "coordinates": [-4.33934, 55.8028]}},
{"type": "Feature", "id": "PjBG0P-nWTb9hR2Ag4vYDaGkmZc=", "properties": {"ref": "1134", "@spider": "bq", "shop": "doityourself", "addr:full": "Carnegie Drive Retail Park, Dunfermline, FIFE", "addr:street_address": "Carnegie Drive Retail Park", "addr:postcode": "KY12 7AU", "addr:country": "GB", "name": "B&Q Dunfermline", "phone": "01383 621058", "website": "https://www.diy.com/store/1134", "opening_hours": "Mo-Sa 08:00-20:00; Su 09:00-18:00", "brand": "B&Q", "brand:wikidata": "Q707602", "nsi_id": "bandq-092aaf"}, "geometry": {"type": "Point", "coordinates": [-3.45835, 56.0738]}},
{"type": "Feature", "id": "Bi78_OAiyvEOV_GYTIGXB7qed6U=", "properties": {"ref": "1180", "@spider": "bq", "shop": "doityourself", "addr:full": "Forge Retail Park, Millerston Street, Parkhead, Glasgow, LANARKSHIRE", "addr:street_address": "Forge Retail Park, Millerston Street, Parkhead", "addr:postcode": "G31 4BG", "addr:country": "GB", "name": "B&Q Glasgow - Parkhead", "phone": "0141 550 5300", "website": "https://www.diy.com/store/1180", "opening_hours": "Mo-Sa 07:00-20:00; Su 09:00-18:00", "brand": "B&Q", "brand:wikidata": "Q707602", "nsi_id": "bandq-092aaf"}, "geometry": {"type": "Point", "coordinates": [-4.20992, 55.8562]}},
{"type": "Feature", "id": "1I19RfwiQdE0fe7sXyNBNBZrxQY=", "properties": {"ref": "1287", "@spider": "bq", "shop": "doityourself", "addr:full": "Riverside Retail Park, Units 1-4 Riverside Road, Leven, FYFE", "addr:street_address": "Riverside Retail Park, Units 1-4 Riverside Road", "addr:postcode": "KY8 4LT", "addr:country": "GB", "name": "B&Q Leven", "phone": "01333 432000", "website": "https://www.diy.com/store/1287", "opening_hours": "Mo-Sa 08:00-20:00; Su 09:00-18:00", "brand": "B&Q", "brand:wikidata": "Q707602", "nsi_id": "bandq-092aaf"}, "geometry": {"type": "Point", "coordinates": [-3.002293, 56.1949]}},
{"type": "Feature", "id": "Y-2ekBFAfgLQPhPA8Bo8Q498pu0=", "properties": {"ref": "1114", "@spider": "bq", "shop": "doityourself", "addr:full": "Unit 10, Middlefield Industrial Estate, Middlefield Road, Falkirk, FALKIRK", "addr:street_address": "Unit 10, Middlefield Industrial Estate, Middlefield Road", "addr:postcode": "FK2 9HR", "addr:country": "GB", "name": "B&Q Falkirk", "phone": "01324 636152", "website": "https://www.diy.com/store/1114", "opening_hours": "Mo-Sa 07:00-20:00; Su 09:00-18:00", "brand": "B&Q", "brand:wikidata": "Q707602", "nsi_id": "bandq-092aaf"}, "geometry": {"type": "Point", "coordinates": [-3.76485, 56.0093]}},
{"type": "Feature", "id": "FyIb3wXnjANpOMj9cHuQCK3kNK0=", "properties": {"ref": "1119", "@spider": "bq", "shop": "doityourself", "addr:full": "Westway Retail Park, Castlecary Rd, Cumbernauld, NORTH LANARKSHIRE", "addr:street_address": "Westway Retail Park, Castlecary Rd", "addr:postcode": "G68 0DA", "addr:country": "GB", "name": "B&Q Cumbernauld", "phone": "01236 862900", "website": "https://www.diy.com/store/1119", "opening_hours": "Mo-Sa 07:00-20:00; Su 09:00-18:00", "brand": "B&Q", "brand:wikidata": "Q707602", "nsi_id": "bandq-092aaf"}, "geometry": {"type": "Point", "coordinates": [-3.95936, 55.9732]}},
{"type": "Feature", "id": "Tgb_46wbCbjFFiM-ek5fIC_vwq0=", "properties": {"ref": "1171", "@spider": "bq", "shop": "doityourself", "addr:full": "Strathkelvin Retail Park, Kirkintilloch Road, Low Moss, Bishopbriggs, EAST DUNBARTONSHIRE", "addr:street_address": "Strathkelvin Retail Park, Kirkintilloch Road, Low Moss", "addr:postcode": "G64 2TS", "addr:country": "GB", "name": "B&Q Bishopbriggs", "phone": "0141 762 1600", "website": "https://www.diy.com/store/1171", "opening_hours": "Mo-Sa 07:00-20:00; Su 09:00-18:00", "brand": "B&Q", "brand:wikidata": "Q707602", "nsi_id": "bandq-092aaf"}, "geometry": {"type": "Point", "coordinates": [-4.20359, 55.9224]}},
{"type": "Feature", "id": "SFkeeltv1AtD9O3Vu7MifDIn0uk=", "properties": {"ref": "1281", "@spider": "bq", "shop": "doityourself", "addr:full": "Abbotsinch Retail Park, 1 Washington Road, off Renfrew Road, Paisley, RENFREWSHIRE", "addr:street_address": "Abbotsinch Retail Park, 1 Washington Road, off Renfrew Road", "addr:postcode": "PA3 4EP", "addr:country": "GB", "name": "B&Q Paisley", "phone": "0141 889 5500", "website": "https://www.diy.com/store/1281", "opening_hours": "Mo-Sa 07:00-20:00; Su 09:00-18:00", "brand": "B&Q", "brand:wikidata": "Q707602", "nsi_id": "bandq-092aaf"}, "geometry": {"type": "Point", "coordinates": [-4.41873, 55.8607]}},
{"type": "Feature", "id": "uJBPSnfycJ2nOdHUspsmjjNheM8=", "properties": {"ref": "1268", "@spider": "bq", "shop": "doityourself", "addr:full": "Great Western Retail Park, 307 Duntreath Avenue, Drumchapel, Glasgow, LANARKSHIRE", "addr:street_address": "Great Western Retail Park, 307 Duntreath Avenue, Drumchapel", "addr:postcode": "G15 8TB", "addr:country": "GB", "name": "B&Q Glasgow - Great Western Road", "phone": "0141 949 1122", "website": "https://www.diy.com/store/1268", "opening_hours": "Mo-Sa 07:00-20:00; Su 09:00-18:00", "brand": "B&Q", "brand:wikidata": "Q707602", "nsi_id": "bandq-092aaf"}, "geometry": {"type": "Point", "coordinates": [-4.38038, 55.905]}},
{"type": "Feature", "id": "eId40cc51eS-OdugKpci1R110zU=", "properties": {"ref": "1253", "@spider": "bq", "shop": "doityourself", "addr:full": "Units 1-3, Springkerse Retail Park, Murton Road, Stirling, STIRLING", "addr:street_address": "Units 1-3, Springkerse Retail Park, Murton Road", "addr:postcode": "FK7 7TL", "addr:country": "GB", "name": "B&Q Stirling", "phone": "01786 449559", "website": "https://www.diy.com/store/1253", "opening_hours": "Mo-Sa 07:00-20:00; Su 09:00-18:00", "brand": "B&Q", "brand:wikidata": "Q707602", "nsi_id": "bandq-092aaf"}, "geometry": {"type": "Point", "coordinates": [-3.910725, 56.112]}},
{"type": "Feature", "id": "M_d7G12VlS4BV0ELYZ16tE9RLwE=", "properties": {"ref": "1374", "@spider": "bq", "shop": "doityourself", "addr:full": "Unit 1, Arcadia Retail Centre, One Mile Round Road, Athlone, COUNTY WESTMEATH", "addr:street_address": "Unit 1, Arcadia Retail Centre, One Mile Round Road", "addr:country": "IE", "name": "B&Q Athlone", "phone": "+353 906 449 199", "website": "https://www.diy.com/store/1374", "opening_hours": "Mo-Sa 08:00-20:00; Su 10:00-18:00", "brand": "B&Q", "brand:wikidata": "Q707602", "nsi_id": "bandq-092aaf"}, "geometry": {"type": "Point", "coordinates": [-7.938834, 53.4339]}},
{"type": "Feature", "id": "78AMuyyCOp-cDq-w8wDfxBcNUI4=", "properties": {"ref": "1128", "@spider": "bq", "shop": "doityourself", "addr:full": "Mahon Point Retail Park, Mahon Point, Cork, COUNTY CORK", "addr:street_address": "Mahon Point Retail Park, Mahon Point", "addr:country": "IE", "name": "B&Q Cork", "phone": "+353 21 441 08 00", "website": "https://www.diy.com/store/1128", "opening_hours": "Mo-Sa 08:00-20:00; Su 10:00-18:00", "brand": "B&Q", "brand:wikidata": "Q707602", "nsi_id": "bandq-092aaf"}, "geometry": {"type": "Point", "coordinates": [-8.404123, 51.8845]}},
{"type": "Feature", "id": "JqOi9esELjckOZujpJjCmNopByo=", "properties": {"ref": "1186", "@spider": "bq", "shop": "doityourself", "addr:full": "Unit A, Gallagher Shopping Park, Russell Way, Port Glasgow, RENFREWSHIRE", "addr:street_address": "Unit A, Gallagher Shopping Park, Russell Way", "addr:postcode": "PA14 5DX", "addr:country": "GB", "name": "B&Q Port Glasgow", "phone": "01475 747900", "website": "https://www.diy.com/store/1186", "opening_hours": "Mo-Sa 07:00-20:00; Su 09:00-18:00", "brand": "B&Q", "brand:wikidata": "Q707602", "nsi_id": "bandq-092aaf"}, "geometry": {"type": "Point", "coordinates": [-4.700252, 55.9373]}},
{"type": "Feature", "id": "0zPjD3aMvEKGpnGxt8hb4Qk26Fk=", "properties": {"ref": "1323", "@spider": "bq", "shop": "doityourself", "addr:full": "Westway Retail Park, Dundee Road, Arbroath, ANGUS", "addr:street_address": "Westway Retail Park, Dundee Road", "addr:postcode": "DD11 2NQ", "addr:country": "GB", "name": "B&Q Arbroath", "phone": "01241 433501", "website": "https://www.diy.com/store/1323", "opening_hours": "Mo-Sa 08:00-20:00; Su 09:00-18:00", "brand": "B&Q", "brand:wikidata": "Q707602", "nsi_id": "bandq-092aaf"}, "geometry": {"type": "Point", "coordinates": [-2.611485, 56.5498]}},
{"type": "Feature", "id": "Gt6uDcgVzmNyvh_ns7PK12UFDkg=", "properties": {"ref": "1223", "@spider": "bq", "shop": "doityourself", "addr:full": "25 Kings Cross Road, Kingsway West, Dundee, TAYSIDE", "addr:street_address": "25 Kings Cross Road, Kingsway West", "addr:postcode": "DD2 3PT", "addr:country": "GB", "name": "B&Q Dundee", "phone": "0330 123 9243", "website": "https://www.diy.com/store/1223", "opening_hours": "Mo-Sa 07:00-20:00; Su 09:00-18:00", "brand": "B&Q", "brand:wikidata": "Q707602", "nsi_id": "bandq-092aaf"}, "geometry": {"type": "Point", "coordinates": [-2.999504, 56.4805]}},
{"type": "Feature", "id": "3G3Th5uphgOA5qZBdkraNPgyKQY=", "properties": {"ref": "1361", "@spider": "bq", "shop": "doityourself", "addr:full": "Crieff Road, Perth, PERTHSHIRE", "addr:street_address": "Crieff Road", "addr:postcode": "PH1 3NZ", "addr:country": "GB", "name": "B&Q Perth", "phone": "01738 624101", "website": "https://www.diy.com/store/1361", "opening_hours": "Mo-Sa 07:00-20:00; Su 09:00-18:00", "brand": "B&Q", "brand:wikidata": "Q707602", "nsi_id": "bandq-092aaf"}, "geometry": {"type": "Point", "coordinates": [-3.47948, 56.4067]}},
{"type": "Feature", "id": "YST8FWfkD0JBQydlSGJ3nWm9680=", "properties": {"ref": "1211", "@spider": "bq", "shop": "doityourself", "addr:full": "Unit 11, Riverside Retail Park, Coleraine, COUNTY LONDONDERRY", "addr:street_address": "Unit 11, Riverside Retail Park", "addr:postcode": "BT51 3QQ", "addr:country": "GB", "name": "B&Q Coleraine", "phone": "028 7032 9575", "website": "https://www.diy.com/store/1211", "opening_hours": "Mo-Sa 08:00-20:00; Su 13:00-18:00", "brand": "B&Q", "brand:wikidata": "Q707602", "nsi_id": "bandq-092aaf"}, "geometry": {"type": "Point", "coordinates": [-6.67314, 55.1224]}},
{"type": "Feature", "id": "hpSPaE68nG6oKI8PAsaPZZkcX78=", "properties": {"ref": "1375", "@spider": "bq", "shop": "doityourself", "addr:full": "City East Retail Park, Tipperary Road, Ballysimon, Limerick, COUNTY LIMERICK", "addr:street_address": "City East Retail Park, Tipperary Road, Ballysimon", "addr:country": "IE", "name": "B&Q Limerick", "phone": "+353 61 422 499", "website": "https://www.diy.com/store/1375", "opening_hours": "Mo-Sa 08:00-20:00; Su 10:00-18:00", "brand": "B&Q", "brand:wikidata": "Q707602", "nsi_id": "bandq-092aaf"}, "geometry": {"type": "Point", "coordinates": [-8.573783, 52.6495]}},
{"type": "Feature", "id": "eyB2la6sp0t9dfqsrUiUzW8myDw=", "properties": {"ref": "1265", "@spider": "bq", "shop": "doityourself", "addr:full": "Garthdee Road, Garthdee, Aberdeen, ABERDEENSHIRE", "addr:street_address": "Garthdee Road, Garthdee", "addr:postcode": "AB10 7AY", "addr:country": "GB", "name": "B&Q Aberdeen - Garthdee Road", "phone": "01224 326262", "website": "https://www.diy.com/store/1265", "opening_hours": "Mo-Sa 07:00-20:00; Su 09:00-18:00", "brand": "B&Q", "brand:wikidata": "Q707602", "nsi_id": "bandq-092aaf"}, "geometry": {"type": "Point", "coordinates": [-2.12277, 57.1216]}},
{"type": "Feature", "id": "Cv6mx2WYCC1fB_IIC79O2gQ_kdc=", "properties": {"ref": "1326", "@spider": "bq", "shop": "doityourself", "addr:full": "Gateway Shopping Park, Western Distributor Road, Rahoon, Galway, COUNTY GALWAY", "addr:street_address": "Gateway Shopping Park, Western Distributor Road, Rahoon", "addr:country": "IE", "name": "B&Q Galway", "phone": "+ 353 91 573 400", "website": "https://www.diy.com/store/1326", "opening_hours": "Mo-Sa 08:00-20:00; Su 10:00-18:00", "brand": "B&Q", "brand:wikidata": "Q707602", "nsi_id": "bandq-092aaf"}, "geometry": {"type": "Point", "coordinates": [-9.099, 53.272]}},
{"type": "Feature", "id": "CLA1ezYrS2jpt-Z6a_8B0M90Ck4=", "properties": {"ref": "1227", "@spider": "bq", "shop": "doityourself", "addr:full": "Unit 1, Newton of Murcar Ind. Est., Denmore Road, Bridge of Don, Aberdeen, ABERDEENSHIRE", "addr:street_address": "Unit 1, Newton of Murcar Ind. Est., Denmore Road, Bridge of Don", "addr:postcode": "AB23 8JW", "addr:country": "GB", "name": "B&Q Aberdeen - Bridge Of Don", "phone": "01224 822079", "website": "https://www.diy.com/store/1227", "opening_hours": "Mo-Sa 07:00-20:00; Su 09:00-18:00", "brand": "B&Q", "brand:wikidata": "Q707602", "nsi_id": "bandq-092aaf"}, "geometry": {"type": "Point", "coordinates": [-2.09138, 57.2017]}},
{"type": "Feature", "id": "0rfatM9v0vabgPeSEYpke8pWU2E=", "properties": {"ref": "1376", "@spider": "bq", "shop": "doityourself", "addr:full": "Buchan Way, Peterhead, ABERDEENSHIRE", "addr:street_address": "Buchan Way", "addr:postcode": "AB42 3GT", "addr:country": "GB", "name": "B&Q Peterhead", "phone": "01779 491360", "website": "https://www.diy.com/store/1376", "opening_hours": "Mo-Sa 07:00-20:00; Su 09:00-18:00", "brand": "B&Q", "brand:wikidata": "Q707602", "nsi_id": "bandq-092aaf"}, "geometry": {"type": "Point", "coordinates": [-1.807337, 57.4861]}},
{"type": "Feature", "id": "rS9VdduCFKH504c2pCtctRkqTBU=", "properties": {"ref": "1217", "@spider": "bq", "shop": "doityourself", "addr:full": "Edgar Road Retail Park, Edgar Road, Elgin, MORAY", "addr:street_address": "Edgar Road Retail Park, Edgar Road", "addr:postcode": "IV30 6YQ", "addr:country": "GB", "name": "B&Q Elgin", "phone": "01343 550105", "website": "https://www.diy.com/store/1217", "opening_hours": "Mo-Sa 07:00-20:00; Su 09:00-18:00", "brand": "B&Q", "brand:wikidata": "Q707602", "nsi_id": "bandq-092aaf"}, "geometry": {"type": "Point", "coordinates": [-3.31064, 57.6421]}},
{"type": "Feature", "id": "PHMZBKLWnZ6zxbYG1EPwtmAoGIw=", "properties": {"ref": "1364", "@spider": "bq", "shop": "doityourself", "addr:full": "Longman Road, Inverness, HIGHLANDS", "addr:street_address": "Longman Road", "addr:postcode": "IV1 1RY", "addr:country": "GB", "name": "B&Q Inverness", "phone": "01463 238800", "website": "https://www.diy.com/store/1364", "opening_hours": "Mo-Sa 07:00-20:00; Su 09:00-18:00", "brand": "B&Q", "brand:wikidata": "Q707602", "nsi_id": "bandq-092aaf"}, "geometry": {"type": "Point", "coordinates": [-4.222441, 57.4873]}},
{"type": "Feature", "id": "jKtuS8wTQErI-9xMoQvRcnCiVMw=", "properties": {"ref": "2839", "@spider": "bq", "shop": "doityourself", "addr:full": "40-44 St Anns Road, Harrow, Middlesex", "addr:street_address": "40-44 St Anns Road, Harrow", "addr:postcode": "HA1 1LA", "addr:country": "GB", "name": "B&Q Harrow", "phone": "0208 861 4144", "website": "https://www.diy.com/store/2839", "contact:email": "Harrow.DutyManager@b-and-q.co.uk", "opening_hours": "Mo-Sa 09:00-19:00; Su 11:00-17:00", "brand": "B&Q", "brand:wikidata": "Q707602", "nsi_id": "bandq-092aaf"}}]}