{"type":"FeatureCollection","features":[{"type": "Feature", "id": "7KC7WDlsmMjlhl3n1yhu5kdajQg=", "properties": {"ref": "litchfield", "@spider": "brandywine_living", "addr:full": "19 Constitution Way", "addr:city": " Litchfield", "addr:state": " Connecticut ", "addr:postcode": "06759", "addr:country": "US", "name": " Litchfield ", "phone": "(860) 567-9500", "website": "https://www.brandycare.com/our-communities/litchfield/"}},
{"type": "Feature", "id": "iDmx0hflx3nX6jh6Jgtf2Ib5sNs=", "properties": {"ref": "upper-providence", "@spider": "brandywine_living", "addr:full": "1133 Black Rock Road", "addr:city": " Phoenixville", "addr:state": " Pennsylvania ", "addr:postcode": "19460", "addr:country": "US", "name": " Upper Providence ", "phone": "(610) 933-3250", "website": "https://www.brandycare.com/our-communities/upper-providence/"}},
{"type": "Feature", "id": "Rhoe0O5V8AVNiyM1GNOaprhm0L8=", "properties": {"ref": "senior-suites", "@spider": "brandywine_living", "addr:full": "2101 New Hope Street", "addr:city": " East Norriton", "addr:state": " Pennsylvania ", "addr:postcode": "19401", "addr:country": "US", "name": " Senior Suites ", "phone": "(610) 272-6200", "website": "https://www.brandycare.com/our-communities/senior-suites/"}},
{"type": "Feature", "id": "-vrxd-OdfWkBa3EAonvtkSQ4xtQ=", "properties": {"ref": "longwood", "@spider": "brandywine_living", "addr:full": "301 Victoria Gardens Drive ", "addr:city": " Kennett Square", "addr:state": " Pennsylvania ", "addr:postcode": "19348", "addr:country": "US", "name": " Longwood ", "phone": "(484) 734-6200", "website": "https://www.brandycare.com/our-communities/longwood/"}},
{"type": "Feature", "id": "eyKCW2ag02NhHm5lRsYYiuCMcE8=", "properties": {"ref": "haverford-estates", "@spider": "brandywine_living", "addr:full": "731 Old Buck Lane", "addr:city": " Haverford", "addr:state": " Pennsylvania ", "addr:postcode": "19041", "addr:country": "US", "name": " Haverford Estates ", "phone": "(610) 527-1800 ", "website": "https://www.brandycare.com/our-communities/haverford-estates/"}},
{"type": "Feature", "id": "mHjtBRcxJNQba_g2NNLD4OcjH8c=", "properties": {"ref": "dresher-estates", "@spider": "brandywine_living", "addr:full": "1405 North Limekiln Pike", "addr:city": " Dresher", "addr:state": " Pennsylvania ", "addr:postcode": "19025", "addr:country": "US", "name": " Dresher Estates ", "phone": "(215) 591-4000", "website": "https://www.brandycare.com/our-communities/dresher-estates/"}},
{"type": "Feature", "id": "PWrfyypuWJzem2WmVDL_jYpQxDM=", "properties": {"ref": "summit", "@spider": "brandywine_living", "addr:full": "41 Springfield Ave", "addr:city": " Summit", "addr:state": " NJ ", "addr:postcode": "07901", "addr:country": "US", "name": " Summit ", "phone": "(908) 522-8852", "website": "https://www.brandycare.com/our-communities/summit/"}},
{"type": "Feature", "id": "19XTz7vk5svhd5w16qK9w8tLPd4=", "properties": {"ref": "serenade-at-princeton", "@spider": "brandywine_living", "addr:full": "775 Mt Lucas Rd", "addr:city": " Princeton", "addr:state": " NJ ", "addr:postcode": "08540", "addr:country": "US", "name": " Serenade at Princeton ", "phone": "609-430-4000", "website": "https://www.brandycare.com/our-communities/serenade-at-princeton/"}},
{"type": "Feature", "id": "K5migeri4YjM2D42ScKzW0bLCS0=", "properties": {"ref": "the-savoy", "@spider": "brandywine_living", "addr:full": "55-15 Little Neck Parkway", "addr:city": " Little Neck", "addr:state": " New York ", "addr:postcode": "11362", "addr:country": "US", "name": " The Savoy ", "phone": "(718) 423-7900", "website": "https://www.brandycare.com/our-communities/the-savoy/"}},
{"type": "Feature", "id": "8WZheJEU2GxzSFMvSnM5T28Bn0s=", "properties": {"ref": "huntington-terrace", "@spider": "brandywine_living", "addr:full": "70 Pinelawn Road ", "addr:city": " Melville", "addr:state": " New York ", "addr:postcode": "11747", "addr:country": "US", "name": " Huntington Terrace ", "phone": "(631) 531-0000 ", "website": "https://www.brandycare.com/our-communities/huntington-terrace/"}},
{"type": "Feature", "id": "MCqz79tPRx7y46_I1gaNJWO5bSM=", "properties": {"ref": "wall", "@spider": "brandywine_living", "addr:full": "2021 Highway 35", "addr:city": " Wall", "addr:state": " New Jersey ", "addr:postcode": "07719", "addr:country": "US", "name": " Wall ", "phone": "(732) 282-1910", "website": "https://www.brandycare.com/our-communities/wall/"}},
{"type": "Feature", "id": "14ZGL4m92SmhWiw11y2_CPqOQx8=", "properties": {"ref": "voorhees", "@spider": "brandywine_living", "addr:full": "311 Route 73", "addr:city": " Voorhees", "addr:state": " New Jersey ", "addr:postcode": "08043", "addr:country": "US", "name": " Voorhees ", "phone": "(856) 424-0004", "website": "https://www.brandycare.com/our-communities/voorhees/"}},
{"type": "Feature", "id": "HwTRgi_d4BfJIWPdw6h8objIJVM=", "properties": {"ref": "toms-river", "@spider": "brandywine_living", "addr:full": "1587 Old Freehold Road", "addr:city": " Toms River", "addr:state": " New Jersey ", "addr:postcode": "08755", "addr:country": "US", "name": " Toms River ", "phone": "(732) 240-0043", "website": "https://www.brandycare.com/our-communities/toms-river/"}},
{"type": "Feature", "id": "wIlBkhcCy606L5wBNrVP9qfyHYA=", "properties": {"ref": "the-sycamore", "@spider": "brandywine_living", "addr:full": "5 Meridian Way ", "addr:city": " Shrewsbury", "addr:state": " New Jersey ", "addr:postcode": "07702", "addr:country": "US", "name": " The Sycamore ", "phone": "(732) 212-2600", "website": "https://www.brandycare.com/our-communities/the-sycamore/"}},
{"type": "Feature", "id": "MD5kGpakqDzSYBxQOLYMR9IyFOw=", "properties": {"ref": "the-gables", "@spider": "brandywine_living", "addr:full": "515 Jack Martin Blvd.", "addr:city": " Brick", "addr:state": " New Jersey ", "addr:postcode": "08724", "addr:country": "US", "name": " The Gables ", "phone": "(732) 836-1400", "website": "https://www.brandycare.com/our-communities/the-gables/"}},
{"type": "Feature", "id": "it-ZjnqifJuayYIWsExDHHkDU40=", "properties": {"ref": "colts-neck", "@spider": "brandywine_living", "addr:full": "3 Meridian Circle", "addr:city": " Colts Neck", "addr:state": " New Jersey ", "addr:postcode": "07722", "addr:country": "US", "name": " Reflections at Colts Neck ", "phone": "(732) 303-3100", "website": "https://www.brandycare.com/our-communities/colts-neck/"}},
{"type": "Feature", "id": "Eke9kdAjHDbCNusYfx3Rena8ZRw=", "properties": {"ref": "alexandria", "@spider": "brandywine_living", "addr:full": "5550 Cardinal Place", "addr:city": " Alexandria", "addr:state": " Virginia ", "addr:postcode": "22304", "addr:country": "US", "name": " Alexandria ", "phone": "(703) 940-3300", "website": "https://www.brandycare.com/our-communities/alexandria/"}},
{"type": "Feature", "id": "fwGpx-uW678RTk-xWN9SBScUgmE=", "properties": {"ref": "reflections", "@spider": "brandywine_living", "addr:full": "1594 New Jersey 88", "addr:city": " Brick", "addr:state": " New Jersey ", "addr:postcode": "08724", "addr:country": "US", "name": " Reflections at Brick ", "phone": "(732) 785-3370", "website": "https://www.brandycare.com/our-communities/reflections/"}},
{"type": "Feature", "id": "NEa9Si7_kfydZCrB6ZuL7IEugRo=", "properties": {"ref": "princeton", "@spider": "brandywine_living", "addr:full": "155 Raymond Road", "addr:city": " Princeton", "addr:state": " New Jersey ", "addr:postcode": "08540", "addr:country": "US", "name": " Princeton ", "phone": "(732) 329-8888", "website": "https://www.brandycare.com/our-communities/princeton/"}},
{"type": "Feature", "id": "NzqtajCtqayWRQA9M5GcJ7Ug_UE=", "properties": {"ref": "pennington", "@spider": "brandywine_living", "addr:full": "143 West Franklin Avenue", "addr:city": " Pennington", "addr:state": " New Jersey ", "addr:postcode": "08534", "addr:country": "US", "name": " Pennington ", "phone": "(609) 730-9922", "website": "https://www.brandycare.com/our-communities/pennington/"}},
{"type": "Feature", "id": "0anw2ncAO-LUxhjF81Vnpvddey4=", "properties": {"ref": "mountain-ridge", "@spider": "brandywine_living", "addr:full": "680 Mountain Blvd.", "addr:city": " Watchung", "addr:state": " New Jersey ", "addr:postcode": "07069", "addr:country": "US", "name": " Mountain Ridge ", "phone": "(908) 754-8180", "website": "https://www.brandycare.com/our-communities/mountain-ridge/"}},
{"type": "Feature", "id": "Dc12ZL46YwFPMtbb3C2tJCjeaH0=", "properties": {"ref": "moorestown-estates", "@spider": "brandywine_living", "addr:full": "1205 North Church Street", "addr:city": " Moorestown", "addr:state": " New Jersey ", "addr:postcode": "08057", "addr:country": "US", "name": " Moorestown Estates ", "phone": "(856) 778-0600", "website": "https://www.brandycare.com/our-communities/moorestown-estates/"}},
{"type": "Feature", "id": "e3tyn0-Z9Gv67zvQ2k0jBZHzPos=", "properties": {"ref": "middlebrook-crossing", "@spider": "brandywine_living", "addr:full": "2005 Route 22 West", "addr:city": " Bridgewater", "addr:state": " New Jersey ", "addr:postcode": "08807", "addr:country": "US", "name": " Middlebrook Crossing ", "phone": "(732) 868-8181", "website": "https://www.brandycare.com/our-communities/middlebrook-crossing/"}},
{"type": "Feature", "id": "LgC-qWewwcTKJQ57l-q-UZYlNxw=", "properties": {"ref": "mahwah", "@spider": "brandywine_living", "addr:full": "814 Wyckoff Avenue", "addr:city": " Mahwah", "addr:state": " New Jersey ", "addr:postcode": "07430", "addr:country": "US", "name": " Mahwah ", "phone": "(201) 800-8070", "website": "https://www.brandycare.com/our-communities/mahwah/"}},
{"type": "Feature", "id": "HhbO3HKhP-AHu3iJL9lcIm5wsuk=", "properties": {"ref": "livingston", "@spider": "brandywine_living", "addr:full": "369 East Mount Pleasant Avenue ", "addr:city": " Livingston", "addr:state": " New Jersey ", "addr:postcode": "07039", "addr:country": "US", "name": " Livingston ", "phone": "(973) 251-0600", "website": "https://www.brandycare.com/our-communities/livingston/"}},
{"type": "Feature", "id": "fJ2Zo4AdoOooD9D6ExOjhpu277E=", "properties": {"ref": "howell", "@spider": "brandywine_living", "addr:full": "100 Meridian Place", "addr:city": " Howell", "addr:state": " New Jersey ", "addr:postcode": "07731", "addr:country": "US", "name": " Howell ", "phone": "(732) 719-0100", "website": "https://www.brandycare.com/our-communities/howell/"}},
{"type": "Feature", "id": "2gPxU_K-x4VrtGiOStOy5bHgpkw=", "properties": {"ref": "haddonfield", "@spider": "brandywine_living", "addr:full": "132 Warwick Road ", "addr:city": " Haddonfield", "addr:state": " New Jersey ", "addr:postcode": "08033", "addr:country": "US", "name": " Haddonfield ", "phone": "(856) 429-5500", "website": "https://www.brandycare.com/our-communities/haddonfield/"}},
{"type": "Feature", "id": "Cd_5xuYjN8CWQd2RM3YIoJmE93Y=", "properties": {"ref": "governors-crossing", "@spider": "brandywine_living", "addr:full": "49 LaSatta Avenue", "addr:city": " Englishtown", "addr:state": " New Jersey ", "addr:postcode": "07726", "addr:country": "US", "name": " Governor\u2019s Crossing ", "phone": "(732) 786-1000", "website": "https://www.brandycare.com/our-communities/governors-crossing/"}},
{"type": "Feature", "id": "g-l53etjofdCpT6yaqa--7lcdnM=", "properties": {"ref": "brandall-estates", "@spider": "brandywine_living", "addr:full": "432 Central Avenue", "addr:city": " Linwood", "addr:state": " New Jersey ", "addr:postcode": "08221", "addr:country": "US", "name": " Brandall Estates ", "phone": "(609) 926-4663", "website": "https://www.brandycare.com/our-communities/brandall-estates/"}},
{"type": "Feature", "id": "NM4dKi0uSx5tN0BJEJxzfp41RaA=", "properties": {"ref": "potomac", "@spider": "brandywine_living", "addr:full": "10800 Potomac Tennis Lane", "addr:city": " Potomac", "addr:state": " Maryland ", "addr:postcode": "20854", "addr:country": "US", "name": " Potomac ", "phone": "(301) 417-3000", "website": "https://www.brandycare.com/our-communities/potomac/"}},
{"type": "Feature", "id": "azO5kawEp6rZK-EM7O9w2pRCGgo=", "properties": {"ref": "seaside-pointe", "@spider": "brandywine_living", "addr:full": "36101 Seaside Blvd", "addr:city": " Rehoboth Beach", "addr:state": " Delaware ", "addr:postcode": "19971", "addr:country": "US", "name": " Seaside Pointe ", "phone": "(302) 226-8750", "website": "https://www.brandycare.com/our-communities/seaside-pointe/"}},
{"type": "Feature", "id": "DMebCW1U0F0Uv2N-9Mr92fsHfFQ=", "properties": {"ref": "fenwick-island", "@spider": "brandywine_living", "addr:full": "21111 Arrington Drive", "addr:city": " Selbyville", "addr:state": " Delaware ", "addr:postcode": "19975", "addr:country": "US", "name": " Fenwick Island ", "phone": "(302) 436-0808", "website": "https://www.brandycare.com/our-communities/fenwick-island/"}}]}