{"type":"FeatureCollection","features":[{"type": "Feature", "id": "mrEqXdH5mszTnS4ePRbzPaCUxMM=", "properties": {"ref": "2598", "@spider": "bre_wingz", "addr:full": "6954 Garth Road Baytown, TX 77521", "addr:city": "Baytown", "addr:country": "US", "name": "Baytown", "phone": "281-421-7600", "contact:email": "Baytown@BreWingZ.com", "brand": "BreWingz"}, "geometry": {"type": "Point", "coordinates": [-94.980679, 29.802898]}},
{"type": "Feature", "id": "3cUWZnlfrGs25xasISXG2l5EjnM=", "properties": {"ref": "14190", "@spider": "bre_wingz", "addr:full": "6954 Garth Road Baytown, TX 77521", "addr:city": "Baytown", "addr:country": "US", "name": "Baytown", "brand": "BreWingz"}, "geometry": {"type": "Point", "coordinates": [-94.980679, 29.802898]}},
{"type": "Feature", "id": "D3io5mdR_qt3MN5biNb_UUmrCSE=", "properties": {"ref": "3128", "@spider": "bre_wingz", "addr:full": "8740 Spencer Highway, La Porte, TX 77571", "addr:city": "La Porte", "addr:country": "US", "name": "La Porte", "brand": "BreWingz"}, "geometry": {"type": "Point", "coordinates": [-95.10266, 29.663404]}},
{"type": "Feature", "id": "xGhNKlGLDTQtO8gmA-uxPfjFlJ4=", "properties": {"ref": "14182", "@spider": "bre_wingz", "addr:full": "8740 Spencer Highway, La Porte, TX 77571", "addr:city": "La Porte", "addr:country": "US", "name": "La Porte", "brand": "BreWingz"}, "geometry": {"type": "Point", "coordinates": [-95.10266, 29.663404]}},
{"type": "Feature", "id": "6ki4Sf-Ihsra45RcS4I1WPmXlvw=", "properties": {"ref": "3132", "@spider": "bre_wingz", "addr:full": "5007 Fairmont Parkway Pasadena, TX 77505 United States", "addr:city": "Pasadena", "addr:country": "US", "name": "Fairmont Parkway", "brand": "BreWingz"}, "geometry": {"type": "Point", "coordinates": [-95.167119, 29.650267]}},
{"type": "Feature", "id": "_vDU9KZshc4TkfEgiBDFb032ln4=", "properties": {"ref": "14178", "@spider": "bre_wingz", "addr:full": "5007 Fairmont Parkway Pasadena, TX 77505 United States", "addr:city": "Pasadena", "addr:country": "US", "name": "Fairmont Parkway", "brand": "BreWingz"}, "geometry": {"type": "Point", "coordinates": [-95.167119, 29.650267]}},
{"type": "Feature", "id": "FilwE9RUznyLoXcUl2-W4uGtckg=", "properties": {"ref": "14154", "@spider": "bre_wingz", "addr:full": "13516 I-10 East, Houston, TX 77015", "addr:city": "Houston", "addr:country": "US", "name": "Uvalde @ I-10", "brand": "BreWingz"}, "geometry": {"type": "Point", "coordinates": [-95.20541, 29.771243]}},
{"type": "Feature", "id": "hBo7dJoTm0AQawEFs7snu8Okois=", "properties": {"ref": "3152", "@spider": "bre_wingz", "addr:full": "13516 I-10 East, Houston, TX 77015", "addr:city": "Houston", "addr:country": "US", "name": "Uvalde @ I-10", "brand": "BreWingz"}, "geometry": {"type": "Point", "coordinates": [-95.20541, 29.771243]}},
{"type": "Feature", "id": "vbmAburtd_oAy2kwW2MFgzNCMaQ=", "properties": {"ref": "3138", "@spider": "bre_wingz", "addr:full": "12001 East Fwy Bldg C, Houston, TX 77029", "addr:city": "Houston", "addr:country": "US", "name": "Federal", "brand": "BreWingz"}, "geometry": {"type": "Point", "coordinates": [-95.223243, 29.771793]}},
{"type": "Feature", "id": "qqYhXt-O0t3Sesna4jRMeF59-_I=", "properties": {"ref": "14172", "@spider": "bre_wingz", "addr:full": "12001 East Fwy Bldg C, Houston, TX 77029", "addr:city": "Houston", "addr:country": "US", "name": "Federal", "brand": "BreWingz"}, "geometry": {"type": "Point", "coordinates": [-95.223243, 29.771793]}},
{"type": "Feature", "id": "mYX38SCMaz4iG1jf23qkvCfZuiY=", "properties": {"ref": "3130", "@spider": "bre_wingz", "addr:full": "25629 Highway 59N Kingwood, TX 77339 United States", "addr:city": "Kingwood", "addr:country": "US", "name": "Northpark", "brand": "BreWingz"}, "geometry": {"type": "Point", "coordinates": [-95.244982, 30.072927]}},
{"type": "Feature", "id": "gWH4SCFcMJIxTMgg0WtE062D2x4=", "properties": {"ref": "14180", "@spider": "bre_wingz", "addr:full": "25629 Highway 59N Kingwood, TX 77339 United States", "addr:city": "Kingwood", "addr:country": "US", "name": "Northpark", "brand": "BreWingz"}, "geometry": {"type": "Point", "coordinates": [-95.244982, 30.072927]}},
{"type": "Feature", "id": "cwlDWPs9zG8XvjrPb1NuofXfwb8=", "properties": {"ref": "3142", "@spider": "bre_wingz", "addr:full": "12250 Gulf Freeway, Houston, TX 77034", "addr:city": "Houston", "addr:country": "US", "name": "Fuqua @ I-45", "brand": "BreWingz"}, "geometry": {"type": "Point", "coordinates": [-95.222957, 29.621561]}},
{"type": "Feature", "id": "R7sLoFs0RFG9KpCeaKgnImdtPhk=", "properties": {"ref": "14168", "@spider": "bre_wingz", "addr:full": "12250 Gulf Freeway, Houston, TX 77034", "addr:city": "Houston", "addr:country": "US", "name": "Fuqua @ I-45", "brand": "BreWingz"}, "geometry": {"type": "Point", "coordinates": [-95.222957, 29.621561]}},
{"type": "Feature", "id": "nWnw1wkHHz8ZkSB_0Dycy1bvxsM=", "properties": {"ref": "3124", "@spider": "bre_wingz", "addr:full": "9717 FM 1960 Bypass Road W, Humble, TX 77338", "addr:city": "Humble", "addr:country": "US", "name": "Humble", "brand": "BreWingz"}, "geometry": {"type": "Point", "coordinates": [-95.276824, 30.005572]}},
{"type": "Feature", "id": "uYmZWcgAu63kSBcPDFjUi0tCRkQ=", "properties": {"ref": "14186", "@spider": "bre_wingz", "addr:full": "9717 FM 1960 Bypass Road W, Humble, TX 77338", "addr:city": "Humble", "addr:country": "US", "name": "Humble", "brand": "BreWingz"}, "geometry": {"type": "Point", "coordinates": [-95.276824, 30.005572]}},
{"type": "Feature", "id": "BT3DHIVjw7OKD1lUNFM45yHQG2g=", "properties": {"ref": "3134", "@spider": "bre_wingz", "addr:full": "8490 South Sam Houston Pkwy East Pearland, TX 77075 United States", "addr:city": "Pearland", "addr:country": "US", "name": "Pearland", "brand": "BreWingz"}, "geometry": {"type": "Point", "coordinates": [-95.269072, 29.597912]}},
{"type": "Feature", "id": "tzOHsDglxgb9NbC48JB2Fllf0dk=", "properties": {"ref": "14176", "@spider": "bre_wingz", "addr:full": "8490 South Sam Houston Pkwy East Pearland, TX 77075 United States", "addr:city": "Pearland", "addr:country": "US", "name": "Pearland", "brand": "BreWingz"}, "geometry": {"type": "Point", "coordinates": [-95.269072, 29.597912]}},
{"type": "Feature", "id": "eSH5l6NNmQmiVEBstB7FshqBuN8=", "properties": {"ref": "14152", "@spider": "bre_wingz", "addr:full": "6006 Gulf Freeway, Houston, TX 77023", "addr:city": "Houston", "addr:country": "US", "name": "Wayside @ I-45", "brand": "BreWingz"}, "geometry": {"type": "Point", "coordinates": [-95.313069, 29.712864]}},
{"type": "Feature", "id": "Pc8Qz_9uaIBu7jvufR3ky4F5hRU=", "properties": {"ref": "3154", "@spider": "bre_wingz", "addr:full": "6006 Gulf Freeway, Houston, TX 77023", "addr:city": "Houston", "addr:country": "US", "name": "Wayside @ I-45", "phone": "713-921-9464", "brand": "BreWingz"}, "geometry": {"type": "Point", "coordinates": [-95.313069, 29.712864]}},
{"type": "Feature", "id": "Vn2EHdqO1v0mFZujRVdOnlbkFx0=", "properties": {"ref": "14156", "@spider": "bre_wingz", "addr:full": "5598B North Freeway, Houston, TX 77076", "addr:city": "Houston", "addr:country": "US", "name": "Tidwell @ I-45", "brand": "BreWingz"}, "geometry": {"type": "Point", "coordinates": [-95.393757, 29.84807]}},
{"type": "Feature", "id": "h6Oy7GH5H0QXGWRSrLhLzSJiyhk=", "properties": {"ref": "3150", "@spider": "bre_wingz", "addr:full": "5598B North Freeway, Houston, TX 77076", "addr:city": "Houston", "addr:country": "US", "name": "Tidwell @ I-45", "brand": "BreWingz"}, "geometry": {"type": "Point", "coordinates": [-95.393757, 29.84807]}},
{"type": "Feature", "id": "vOCeT176BH5JzhW-nYXYpx0Pn9g=", "properties": {"ref": "14148", "@spider": "bre_wingz", "addr:full": "3541 Business Center Drive Pearland, TX 77578", "addr:city": "Pearland", "addr:country": "US", "name": "CR59 at 288", "brand": "BreWingz"}, "geometry": {"type": "Point", "coordinates": [-95.388558, 29.543564]}},
{"type": "Feature", "id": "6QuxbCibPZQcSiQH3XIm4j6B3jY=", "properties": {"ref": "3163", "@spider": "bre_wingz", "addr:full": "3541 Business Center Drive Pearland, TX 77578", "addr:city": "Pearland", "addr:country": "US", "name": "CR59 at 288", "brand": "BreWingz"}, "geometry": {"type": "Point", "coordinates": [-95.388558, 29.543564]}},
{"type": "Feature", "id": "dlh4YAuv_ucDpaJ33kxMdU7jjBc=", "properties": {"ref": "14150", "@spider": "bre_wingz", "addr:full": "9410 North Freeway, Houston, TX 77037", "addr:city": "Houston", "addr:country": "US", "name": "West Mount Houston", "brand": "BreWingz"}, "geometry": {"type": "Point", "coordinates": [-95.411607, 29.899073]}},
{"type": "Feature", "id": "j7OI8LJ97PbUE9lqfr9EcaaulXg=", "properties": {"ref": "3156", "@spider": "bre_wingz", "addr:full": "9410 North Freeway, Houston, TX 77037", "addr:city": "Houston", "addr:country": "US", "name": "West Mount Houston", "brand": "BreWingz"}, "geometry": {"type": "Point", "coordinates": [-95.411607, 29.899073]}},
{"type": "Feature", "id": "S3PMtPwS7uF_Bj1OOfTtJouB9RA=", "properties": {"ref": "14192", "@spider": "bre_wingz", "addr:full": "2360 S. Loop W. Houston, TX 77054", "addr:city": "Houston", "addr:country": "US", "name": "Kirby", "brand": "BreWingz"}, "geometry": {"type": "Point", "coordinates": [-95.414368, 29.678629]}},
{"type": "Feature", "id": "GDg6AZO_KBG_vogbkUsINlpdCmg=", "properties": {"ref": "3146", "@spider": "bre_wingz", "addr:full": "1126 Silber Houston, TX 77024", "addr:city": "Houston", "addr:country": "US", "name": "Silber", "brand": "BreWingz"}, "geometry": {"type": "Point", "coordinates": [-95.46809, 29.790377]}},
{"type": "Feature", "id": "-prqQO6x6P3NwGFzZuil5ywGHiw=", "properties": {"ref": "14162", "@spider": "bre_wingz", "addr:full": "1126 Silber Houston, TX 77024", "addr:city": "Houston", "addr:country": "US", "name": "Silber", "brand": "BreWingz"}, "geometry": {"type": "Point", "coordinates": [-95.46809, 29.790377]}},
{"type": "Feature", "id": "xJIrTyxWR4B3QLVA0u75qzegtsI=", "properties": {"ref": "3122", "@spider": "bre_wingz", "addr:full": "13816A Northwest Freeway, Houston, TX 7704", "addr:city": "Houston", "addr:country": "US", "name": "290/Tidwell (Marketplace)", "brand": "BreWingz"}, "geometry": {"type": "Point", "coordinates": [-95.514101, 29.85464]}},
{"type": "Feature", "id": "i5GrTJJEPWNkiF0SoTIXC3ag53o=", "properties": {"ref": "14188", "@spider": "bre_wingz", "addr:full": "13816A Northwest Freeway, Houston, TX 77040", "addr:city": "Houston", "addr:country": "US", "name": "290/Tidwell (Marketplace)", "brand": "BreWingz"}, "geometry": {"type": "Point", "coordinates": [-95.514101, 29.85464]}},
{"type": "Feature", "id": "Y_aNrSVseL5xmrHK41lEp8Zms4E=", "properties": {"ref": "3140", "@spider": "bre_wingz", "addr:full": "8150 Southwest Freeway, Houston, TX 77074", "addr:city": "Houston", "addr:country": "US", "name": "Beechnut @ I-59", "brand": "BreWingz"}, "geometry": {"type": "Point", "coordinates": [-95.530017, 29.691405]}},
{"type": "Feature", "id": "U76Wxw0fVEzqi30YE3va_DF5T-0=", "properties": {"ref": "14170", "@spider": "bre_wingz", "addr:full": "8150 Southwest Freeway, Houston, TX 77074", "addr:city": "Houston", "addr:country": "US", "name": "Beechnut @ I-59", "brand": "BreWingz"}, "geometry": {"type": "Point", "coordinates": [-95.530017, 29.691405]}},
{"type": "Feature", "id": "IRAMQLaz6DXDN2UPL6neIKKSDc0=", "properties": {"ref": "3148", "@spider": "bre_wingz", "addr:full": "22503 State Highway 249 Suite 400, Houston, TX 77070", "addr:city": "Houston", "addr:country": "US", "name": "Spring Cypress @ 249", "brand": "BreWingz"}, "geometry": {"type": "Point", "coordinates": [-95.589617, 30.009527]}},
{"type": "Feature", "id": "_Fq2v1M-pXG_9eSFQOE-4otAapk=", "properties": {"ref": "14160", "@spider": "bre_wingz", "addr:full": "22503 State Highway 249 Suite 400, Houston, TX 77070", "addr:city": "Houston", "addr:country": "US", "name": "Spring Cypress @ 249", "brand": "BreWingz"}, "geometry": {"type": "Point", "coordinates": [-95.589617, 30.009527]}},
{"type": "Feature", "id": "wHo3C-lCoVT3tqm-PG5HfrOE2_Q=", "properties": {"ref": "14137", "@spider": "bre_wingz", "addr:full": "11388 Fountain Lake Drive, Stafford, TX 77477", "addr:city": "Stafford", "addr:country": "US", "name": "Fountains", "brand": "BreWingz"}, "geometry": {"type": "Point", "coordinates": [-95.585059, 29.638553]}},
{"type": "Feature", "id": "J7JG7jFVQIAGKwlOG7-ZIfyg_p8=", "properties": {"ref": "3169", "@spider": "bre_wingz", "addr:full": "11388 Fountain Lake Drive, Stafford, TX 77477", "addr:city": "Stafford", "addr:country": "US", "name": "Fountains", "brand": "BreWingz"}, "geometry": {"type": "Point", "coordinates": [-95.585059, 29.638553]}},
{"type": "Feature", "id": "NAGKTssqSLqERxmAVVzECsKY9QM=", "properties": {"ref": "3144", "@spider": "bre_wingz", "addr:full": "28320 US-290, Cypress, TX 77433", "addr:city": "Houston", "addr:country": "US", "name": "Mason @ 290", "brand": "BreWingz"}, "geometry": {"type": "Point", "coordinates": [-95.743599, 29.990488]}},
{"type": "Feature", "id": "mgCzTuSNN4WBy6roxLrVbUgrxtk=", "properties": {"ref": "14146", "@spider": "bre_wingz", "addr:full": "24103 Southwest Fwy, Rosenberg, TX 77471", "addr:city": "Rosenberg", "addr:country": "US", "name": "Rosenberg", "brand": "BreWingz"}, "geometry": {"type": "Point", "coordinates": [-95.749607, 29.544489]}},
{"type": "Feature", "id": "b5hrtnQwX0kUsdCMAKcA8ZVyEXM=", "properties": {"ref": "3165", "@spider": "bre_wingz", "addr:full": "24103 Southwest Fwy, Rosenberg, TX 77471", "addr:city": "Rosenberg", "addr:country": "US", "name": "Rosenberg", "brand": "BreWingz"}, "geometry": {"type": "Point", "coordinates": [-95.749609, 29.544505]}},
{"type": "Feature", "id": "BrnOqVtJWMT6Y4l6E6YIgnaJMBg=", "properties": {"ref": "3126", "@spider": "bre_wingz", "addr:full": "24445 Katy Freeway, Suite 500, Katy, TX 77949", "addr:city": "Katy", "addr:country": "US", "name": "Katy Ranch Crossing", "brand": "BreWingz"}, "geometry": {"type": "Point", "coordinates": [-95.793448, 29.784421]}},
{"type": "Feature", "id": "FHKZcH3KUEYjsFMvkTptqvxPxxw=", "properties": {"ref": "14184", "@spider": "bre_wingz", "addr:full": "24445 Katy Freeway, Suite 500, Katy, TX 77494", "addr:city": "Katy", "addr:country": "US", "name": "Katy Ranch Crossing", "brand": "BreWingz"}, "geometry": {"type": "Point", "coordinates": [-95.793448, 29.784421]}}]}