{"type":"FeatureCollection","features":[{"type": "Feature", "id": "gfx9cQruCiDFeN8DUukYxr0E7dg=", "properties": {"ref": "brooklyn-center", "@spider": "bremer_bank", "addr:street_address": "5540 Brooklyn Boulevard", "addr:city": "Brooklyn Center", "addr:state": "Minnesota", "addr:postcode": "55429", "phone": "(763) 566-1000", "brand": "Bremer Bank", "brand:wikidata": "Q907603"}, "geometry": {"type": "Point", "coordinates": [-93.3243567, 45.0571947]}},
{"type": "Feature", "id": "bf1uR2ursFpKCvW62lNPtzt_HAY=", "properties": {"ref": "breckenridge", "@spider": "bremer_bank", "addr:street_address": "225 5th Street North", "addr:city": "Breckenridge", "addr:state": "Minnesota", "addr:postcode": "56520", "phone": "(218) 643-8721", "brand": "Bremer Bank", "brand:wikidata": "Q907603"}, "geometry": {"type": "Point", "coordinates": [-96.5880547, 46.265079]}},
{"type": "Feature", "id": "tzM3V-5ygBT83aEBLcosIh2-eqc=", "properties": {"ref": "brandon", "@spider": "bremer_bank", "addr:street_address": "113 East Front Street", "addr:city": "Brandon", "addr:state": "Minnesota", "addr:postcode": "56315", "phone": "(320) 834-2249", "brand": "Bremer Bank", "brand:wikidata": "Q907603"}, "geometry": {"type": "Point", "coordinates": [-95.5990642, 45.9642066]}},
{"type": "Feature", "id": "7M8Nj3LhTP9RTFBwLOcFXFqmhU8=", "properties": {"ref": "brainerd", "@spider": "bremer_bank", "addr:street_address": "321 South 7th Street", "addr:city": "Brainerd", "addr:state": "Minnesota", "addr:postcode": "56401", "phone": "(218) 829-8781", "brand": "Bremer Bank", "brand:wikidata": "Q907603"}, "geometry": {"type": "Point", "coordinates": [-94.2172498, 46.3516881]}},
{"type": "Feature", "id": "0-_nvstbnmU2lrQqwC4R3mxvfio=", "properties": {"ref": "bismarck", "@spider": "bremer_bank", "addr:street_address": "710 South Washington Street", "addr:city": "Bismarck", "addr:state": "North Dakota", "addr:postcode": "58504", "phone": "(701) 258-8005", "brand": "Bremer Bank", "brand:wikidata": "Q907603"}, "geometry": {"type": "Point", "coordinates": [-100.795093, 46.798015]}},
{"type": "Feature", "id": "feGWFnTZzzezLqil41DrKyM6SJg=", "properties": {"ref": "bayfield", "@spider": "bremer_bank", "addr:street_address": "129 South Broad Street", "addr:city": "Bayfield", "addr:state": "Wisconsin", "addr:postcode": "54814", "phone": "(715) 779-5894", "brand": "Bremer Bank", "brand:wikidata": "Q907603"}, "geometry": {"type": "Point", "coordinates": [-90.817153, 46.8088646]}},
{"type": "Feature", "id": "71Caolj1dXKuyYSCdT3yqJpRYKE=", "properties": {"ref": "baxter", "@spider": "bremer_bank", "addr:street_address": "7558 Design Road", "addr:city": "Baxter", "addr:state": "Minnesota", "addr:postcode": "56425", "phone": "(218) 828-5191", "brand": "Bremer Bank", "brand:wikidata": "Q907603"}, "geometry": {"type": "Point", "coordinates": [-94.2432819, 46.357571]}},
{"type": "Feature", "id": "x2bT6y5yYlZagYub721k0geS3KY=", "properties": {"ref": "austin", "@spider": "bremer_bank", "addr:street_address": "805 North Main Street", "addr:city": "Austin", "addr:state": "Minnesota", "addr:postcode": "55912", "phone": "(507) 433-8822", "brand": "Bremer Bank", "brand:wikidata": "Q907603"}, "geometry": {"type": "Point", "coordinates": [-92.975228, 43.673635]}},
{"type": "Feature", "id": "qnj0vtglle5J2XgZV8RqI6q0URg=", "properties": {"ref": "amery", "@spider": "bremer_bank", "addr:street_address": "102 Keller Ave South", "addr:city": "Amery", "addr:state": "Wisconsin", "addr:postcode": "54001", "phone": "(715) 268-7161", "brand": "Bremer Bank", "brand:wikidata": "Q907603"}, "geometry": {"type": "Point", "coordinates": [-92.3624268, 45.3137017]}},
{"type": "Feature", "id": "D7wLOUqU6G4a9_ubBIijHpFJhGo=", "properties": {"ref": "alexandria-south", "@spider": "bremer_bank", "addr:street_address": "2210 Highway 29 South", "addr:city": "Alexandria", "addr:state": "Minnesota", "addr:postcode": "56308", "phone": "(320) 763-6622", "brand": "Bremer Bank", "brand:wikidata": "Q907603"}, "geometry": {"type": "Point", "coordinates": [-95.3790931, 45.8672976]}},
{"type": "Feature", "id": "YUOUwTmnO02FJKg-5AZ_fmjzfP0=", "properties": {"ref": "alexandria", "@spider": "bremer_bank", "addr:street_address": "720 Broadway Street", "addr:city": "Alexandria", "addr:state": "Minnesota", "addr:postcode": "56308", "phone": "(320) 763-6622", "brand": "Bremer Bank", "brand:wikidata": "Q907603"}, "geometry": {"type": "Point", "coordinates": [-95.377696, 45.8845159]}},
{"type": "Feature", "id": "FYqROfvXDhVQIJHbIwlH0UfsiWU=", "properties": {"ref": "aitkin", "@spider": "bremer_bank", "addr:street_address": "101 Minnesota Avenue North", "addr:city": "Aitkin", "addr:state": "Minnesota", "addr:postcode": "56431", "phone": "(218) 927-3794", "brand": "Bremer Bank", "brand:wikidata": "Q907603"}, "geometry": {"type": "Point", "coordinates": [-93.7067569, 46.5325609]}},
{"type": "Feature", "id": "0g0Rr846YMFzBqXBUKYYBeGlnpw=", "properties": {"ref": "eau-claire", "@spider": "bremer_bank", "addr:street_address": "3947 Oakwood Hills Parkway", "addr:city": "Eau Claire", "addr:state": "Wisconsin", "addr:postcode": "54701", "phone": "(715) 552-5557", "brand": "Bremer Bank", "brand:wikidata": "Q907603"}, "geometry": {"type": "Point", "coordinates": [-91.4734081, 44.7991293]}},
{"type": "Feature", "id": "evIugtoXZ5qwEc1jWpi0rYXjp88=", "properties": {"ref": "eagan", "@spider": "bremer_bank", "addr:street_address": "1995 RahnCliff Court", "addr:city": "Eagan", "addr:state": "Minnesota", "addr:postcode": "55122", "phone": "(651) 452-2265", "brand": "Bremer Bank", "brand:wikidata": "Q907603"}, "geometry": {"type": "Point", "coordinates": [-93.20775, 44.7891274]}},
{"type": "Feature", "id": "KWXVvxLu1PVZhfLLBaLap_4ugEc=", "properties": {"ref": "duluth", "@spider": "bremer_bank", "addr:street_address": "225 West Superior Street Suite 120", "addr:city": "Duluth", "addr:state": "Minnesota", "addr:postcode": "55802", "phone": "(218) 221-7474", "brand": "Bremer Bank", "brand:wikidata": "Q907603"}, "geometry": {"type": "Point", "coordinates": [-92.101059, 46.784931]}},
{"type": "Feature", "id": "WrqZxFnGWS_jpHy_oD06K2trL8E=", "properties": {"ref": "devils-lake", "@spider": "bremer_bank", "addr:street_address": "424 5th Street Northeast", "addr:city": "Devils Lake", "addr:state": "North Dakota", "addr:postcode": "58301", "phone": "(701) 662-4074", "brand": "Bremer Bank", "brand:wikidata": "Q907603"}, "geometry": {"type": "Point", "coordinates": [-98.8599866, 48.1128071]}},
{"type": "Feature", "id": "DymwF325Uxj9H_IZBTMkOciGZdU=", "properties": {"ref": "woodbury", "@spider": "bremer_bank", "addr:street_address": "10040 City Walk Drive", "addr:city": "Woodbury", "addr:state": "Minnesota", "addr:postcode": "55129", "phone": "(651) 734-9002", "brand": "Bremer Bank", "brand:wikidata": "Q907603"}, "geometry": {"type": "Point", "coordinates": [-92.902625, 44.942077]}},
{"type": "Feature", "id": "czGg0tJzABf65pSL_GJ9M3Q7V7I=", "properties": {"ref": "winona", "@spider": "bremer_bank", "addr:street_address": "225 Lafayette Street", "addr:city": "Winona", "addr:state": "Minnesota", "addr:postcode": "55987", "phone": "(507) 452-5202", "brand": "Bremer Bank", "brand:wikidata": "Q907603"}, "geometry": {"type": "Point", "coordinates": [-91.636384, 44.050455]}},
{"type": "Feature", "id": "0tCANzN9pUzTbM9ruGda4x2HwE4=", "properties": {"ref": "willmar", "@spider": "bremer_bank", "addr:street_address": "500 Willmar Avenue Southeast", "addr:city": "Willmar", "addr:state": "Minnesota", "addr:postcode": "56201", "phone": "(320) 235-1111", "brand": "Bremer Bank", "brand:wikidata": "Q907603"}, "geometry": {"type": "Point", "coordinates": [-95.0367534, 45.110554]}},
{"type": "Feature", "id": "KkJ5OkkUkhJGD5EAih_94XLmvjw=", "properties": {"ref": "white-bear-lake", "@spider": "bremer_bank", "addr:street_address": "4600 White Bear Parkway", "addr:city": "White Bear Lake", "addr:state": "Minnesota", "addr:postcode": "55110", "phone": "(651) 762-2400", "brand": "Bremer Bank", "brand:wikidata": "Q907603"}, "geometry": {"type": "Point", "coordinates": [-93.048085, 45.080291]}},
{"type": "Feature", "id": "Zx0vM1cNikqmUbC0PioI_7f7MjE=", "properties": {"ref": "watertown", "@spider": "bremer_bank", "addr:street_address": "301 Territorial Street East", "addr:city": "Watertown", "addr:state": "Minnesota", "addr:postcode": "55388", "phone": "(952) 955-1916", "brand": "Bremer Bank", "brand:wikidata": "Q907603"}, "geometry": {"type": "Point", "coordinates": [-93.843807, 44.962851]}},
{"type": "Feature", "id": "wo8HlU-QQcRNhf4XRDaFQ2_RiGE=", "properties": {"ref": "washburn", "@spider": "bremer_bank", "addr:street_address": "31 West Bayfield Street", "addr:city": "Washburn", "addr:state": "Wisconsin", "addr:postcode": "54891", "phone": "(715) 373-5601", "brand": "Bremer Bank", "brand:wikidata": "Q907603"}, "geometry": {"type": "Point", "coordinates": [-90.8930362, 46.6720168]}},
{"type": "Feature", "id": "h7itqOyBO5vwDEoBxFRS5ydL0xY=", "properties": {"ref": "warren", "@spider": "bremer_bank", "addr:street_address": "202 West Johnson Avenue", "addr:city": "Warren", "addr:state": "Minnesota", "addr:postcode": "56762", "phone": "(218) 745-4411", "brand": "Bremer Bank", "brand:wikidata": "Q907603"}, "geometry": {"type": "Point", "coordinates": [-96.774534, 48.1963142]}},
{"type": "Feature", "id": "vTMD9wydzJNN-iy3owIgZoZ6CYE=", "properties": {"ref": "wahpeton", "@spider": "bremer_bank", "addr:street_address": "1618 Commerce Street", "addr:city": "Wahpeton", "addr:state": "North Dakota", "addr:postcode": "58075", "phone": "(701) 642-6403", "brand": "Bremer Bank", "brand:wikidata": "Q907603"}, "geometry": {"type": "Point", "coordinates": [-96.6272318, 46.2840293]}},
{"type": "Feature", "id": "CObQxAJE-TU6FTq5VT65XPoyhZw=", "properties": {"ref": "stillwater", "@spider": "bremer_bank", "addr:street_address": "5990 Nova Scotia Avenue North", "addr:city": "Stillwater", "addr:state": "Minnesota", "addr:postcode": "55082", "phone": "(651) 967-5640", "brand": "Bremer Bank", "brand:wikidata": "Q907603"}, "geometry": {"type": "Point", "coordinates": [-92.8266279, 45.0338827]}},
{"type": "Feature", "id": "IpjSClJCQm3or4qM3SLZ4PzY3x8=", "properties": {"ref": "stewartville", "@spider": "bremer_bank", "addr:street_address": "119 1st Street East", "addr:city": "Stewartville", "addr:state": "Minnesota", "addr:postcode": "55976", "phone": "(507) 533-6400", "brand": "Bremer Bank", "brand:wikidata": "Q907603"}, "geometry": {"type": "Point", "coordinates": [-92.486613, 43.85587]}},
{"type": "Feature", "id": "PSRoe_pCX6fBGSlAos2JQzxZf0U=", "properties": {"ref": "south-saint-paul", "@spider": "bremer_bank", "addr:street_address": "633 Concord Street South", "addr:city": "South Saint Paul", "addr:state": "Minnesota", "addr:postcode": "55075", "phone": "(651) 451-6822", "brand": "Bremer Bank", "brand:wikidata": "Q907603"}, "geometry": {"type": "Point", "coordinates": [-93.031161, 44.880659]}},
{"type": "Feature", "id": "ONNucH6omQIJkdViL-vjgQvI2CM=", "properties": {"ref": "siren", "@spider": "bremer_bank", "addr:street_address": "24449 State Road 35 70", "addr:city": "Siren", "addr:state": "Wisconsin", "addr:postcode": "54872", "phone": "(715) 349-2191", "brand": "Bremer Bank", "brand:wikidata": "Q907603"}, "geometry": {"type": "Point", "coordinates": [-92.3789106, 45.8020583]}},
{"type": "Feature", "id": "TmfAMGX9dFkfh5rn7J0UP0DsD3Y=", "properties": {"ref": "saint-paul-midway", "@spider": "bremer_bank", "addr:street_address": "423 Snelling Ave N", "addr:city": "Saint Paul", "addr:state": "Minnesota", "addr:postcode": "55104", "phone": "(651) 659-0465", "brand": "Bremer Bank", "brand:wikidata": "Q907603"}, "geometry": {"type": "Point", "coordinates": [-93.16737, 44.95372]}},
{"type": "Feature", "id": "1_DzkbdSxI7KKMPeczJqBO1wE4c=", "properties": {"ref": "saint-paul-lawson", "@spider": "bremer_bank", "addr:street_address": "372 St. Peter Street", "addr:city": "Saint Paul", "addr:state": "Minnesota", "addr:postcode": "55102", "phone": "(651) 288-3751", "brand": "Bremer Bank", "brand:wikidata": "Q907603"}, "geometry": {"type": "Point", "coordinates": [-93.0958317, 44.9453742]}},
{"type": "Feature", "id": "O8lwu64SPIfYU794SqsstMWaB1g=", "properties": {"ref": "saint-louis-park", "@spider": "bremer_bank", "addr:street_address": "8800 Highway 7", "addr:city": "Saint Louis Park", "addr:state": "Minnesota", "addr:postcode": "55426", "phone": "(952) 935-5145", "brand": "Bremer Bank", "brand:wikidata": "Q907603"}, "geometry": {"type": "Point", "coordinates": [-93.3913721, 44.9380017]}},
{"type": "Feature", "id": "zqvsmS6GMKNhRUTCPmf4qD1J0iY=", "properties": {"ref": "saint-cloud-west", "@spider": "bremer_bank", "addr:street_address": "4150 2nd Street South, Suite 180", "addr:city": "Saint Cloud", "addr:state": "Minnesota", "addr:postcode": "56301", "phone": "(320) 656-3300", "brand": "Bremer Bank", "brand:wikidata": "Q907603"}, "geometry": {"type": "Point", "coordinates": [-94.21198, 45.549107]}},
{"type": "Feature", "id": "tQ4Zd7Z-r6-uPiV-GEShuaG5xQw=", "properties": {"ref": "saint-cloud", "@spider": "bremer_bank", "addr:street_address": "1100 West St. Germain Street", "addr:city": "Saint Cloud", "addr:state": "Minnesota", "addr:postcode": "56301", "phone": "(320) 251-3300", "brand": "Bremer Bank", "brand:wikidata": "Q907603"}, "geometry": {"type": "Point", "coordinates": [-94.1815557, 45.5511746]}},
{"type": "Feature", "id": "JVB8ZVw-mSL0aR9y-Jm15svvHdc=", "properties": {"ref": "saint-charles", "@spider": "bremer_bank", "addr:street_address": "748 Whitewater Avenue", "addr:city": "St. Charles", "addr:state": "Minnesota", "addr:postcode": "55972", "phone": "(507) 932-5001", "brand": "Bremer Bank", "brand:wikidata": "Q907603"}, "geometry": {"type": "Point", "coordinates": [-92.065254, 43.97007]}},
{"type": "Feature", "id": "lBlTiC4WLNBNTSYpNnehTjUW4Dc=", "properties": {"ref": "saint-anthony", "@spider": "bremer_bank", "addr:street_address": "2401 Lowry Avenue Northeast", "addr:city": "Saint Anthony", "addr:state": "Minnesota", "addr:postcode": "55418", "phone": "(612) 781-6991", "brand": "Bremer Bank", "brand:wikidata": "Q907603"}, "geometry": {"type": "Point", "coordinates": [-93.225936, 45.013848]}},
{"type": "Feature", "id": "Yl8xs6Y9_FZgfj7zqZA1IBTxA_o=", "properties": {"ref": "rugby", "@spider": "bremer_bank", "addr:street_address": "105 3rd Street Southwest", "addr:city": "Rugby", "addr:state": "North Dakota", "addr:postcode": "58368", "phone": "(701) 776-5228", "brand": "Bremer Bank", "brand:wikidata": "Q907603"}, "geometry": {"type": "Point", "coordinates": [-99.9961754, 48.3676677]}},
{"type": "Feature", "id": "V0hx6oxpkVfnoSHh5RfNhqFZHSI=", "properties": {"ref": "roseville", "@spider": "bremer_bank", "addr:street_address": "1715 County Road B2 West", "addr:city": "Roseville", "addr:state": "Minnesota", "addr:postcode": "55113", "phone": "(651) 288-3880", "brand": "Bremer Bank", "brand:wikidata": "Q907603"}, "geometry": {"type": "Point", "coordinates": [-93.1712135, 45.0152221]}},
{"type": "Feature", "id": "se3C1TswDjyoCXCoKRWnllPClWE=", "properties": {"ref": "rochester-south", "@spider": "bremer_bank", "addr:street_address": "45 28th Street Southeast", "addr:city": "Rochester", "addr:state": "Minnesota", "addr:postcode": "55904", "phone": "(507) 529-1515", "brand": "Bremer Bank", "brand:wikidata": "Q907603"}, "geometry": {"type": "Point", "coordinates": [-92.460872, 43.981613]}},
{"type": "Feature", "id": "chElNzKtMUsy8rUQGb-dTIpXkl4=", "properties": {"ref": "rochester-north", "@spider": "bremer_bank", "addr:street_address": "5125 Highway 52 North", "addr:city": "Rochester", "addr:state": "Minnesota", "addr:postcode": "55901", "phone": "(507) 285-3318", "brand": "Bremer Bank", "brand:wikidata": "Q907603"}, "geometry": {"type": "Point", "coordinates": [-92.507986, 44.076955]}},
{"type": "Feature", "id": "mckOYD7W6uGleL_M0aK1L2MzMvg=", "properties": {"ref": "rice", "@spider": "bremer_bank", "addr:street_address": "100 Main Street East", "addr:city": "Rice", "addr:state": "Minnesota", "addr:postcode": "56367", "phone": "(320) 393-2600", "brand": "Bremer Bank", "brand:wikidata": "Q907603"}, "geometry": {"type": "Point", "coordinates": [-94.217851, 45.752778]}},
{"type": "Feature", "id": "jElU813T6zWqCZdgnWjgDBxdkp0=", "properties": {"ref": "redwood-falls", "@spider": "bremer_bank", "addr:street_address": "101 East 4th Street", "addr:city": "Redwood Falls", "addr:state": "Minnesota", "addr:postcode": "56283", "phone": "(507) 637-2961", "brand": "Bremer Bank", "brand:wikidata": "Q907603"}, "geometry": {"type": "Point", "coordinates": [-95.1195, 44.5387082]}},
{"type": "Feature", "id": "DtIOz3e9a3QZnOk1VMjMGW1LO70=", "properties": {"ref": "private-banking", "@spider": "bremer_bank", "addr:street_address": "372 St. Peter Street", "addr:city": "Saint Paul", "addr:state": "Minnesota", "addr:postcode": "55102", "phone": "(651) 726-6043", "brand": "Bremer Bank", "brand:wikidata": "Q907603"}, "geometry": {"type": "Point", "coordinates": [-93.095722, 44.945423]}},
{"type": "Feature", "id": "G3w0uxGgPDFek9elxMMSe3ntYBw=", "properties": {"ref": "princeton", "@spider": "bremer_bank", "addr:street_address": "202 South Rum River Drive", "addr:city": "Princeton", "addr:state": "Minnesota", "addr:postcode": "55371", "phone": "(763) 389-2020", "brand": "Bremer Bank", "brand:wikidata": "Q907603"}, "geometry": {"type": "Point", "coordinates": [-93.5797179, 45.5681433]}},
{"type": "Feature", "id": "AIJLnXv0HOoZz1OuPHZH85v6GKY=", "properties": {"ref": "plymouth", "@spider": "bremer_bank", "addr:street_address": "3415 Vicksburg Lane North", "addr:city": "Plymouth", "addr:state": "Minnesota", "addr:postcode": "55447", "phone": "(763) 577-3717", "brand": "Bremer Bank", "brand:wikidata": "Q907603"}, "geometry": {"type": "Point", "coordinates": [-93.48271, 45.020075]}},
{"type": "Feature", "id": "eQ044D8EsAGQJt5cigzPJdr3tak=", "properties": {"ref": "perham", "@spider": "bremer_bank", "addr:street_address": "801 Market Street", "addr:city": "Perham", "addr:state": "Minnesota", "addr:postcode": "56573", "phone": "(218) 346-2900", "brand": "Bremer Bank", "brand:wikidata": "Q907603"}, "geometry": {"type": "Point", "coordinates": [-95.5731341, 46.5846616]}},
{"type": "Feature", "id": "Y25FNB__0rGzVbSw328JuW7IWW4=", "properties": {"ref": "owatonna", "@spider": "bremer_bank", "addr:street_address": "730 West Bridge Street", "addr:city": "Owatonna", "addr:state": "Minnesota", "addr:postcode": "55060", "phone": "(507) 451-0950", "brand": "Bremer Bank", "brand:wikidata": "Q907603"}, "geometry": {"type": "Point", "coordinates": [-93.2436039, 44.0844119]}},
{"type": "Feature", "id": "K6AlKp0zsMIYUvCgpuTexgaI8Xg=", "properties": {"ref": "new-richmond", "@spider": "bremer_bank", "addr:street_address": "532 South Knowles Avenue", "addr:city": "New Richmond", "addr:state": "Wisconsin", "addr:postcode": "54017", "phone": "(715) 246-5711", "brand": "Bremer Bank", "brand:wikidata": "Q907603"}, "geometry": {"type": "Point", "coordinates": [-92.5373741, 45.1177193]}},
{"type": "Feature", "id": "VoEI9UJ5CPQv-fGx5UGOhwmOu4I=", "properties": {"ref": "morris", "@spider": "bremer_bank", "addr:street_address": "701 Atlantic Avenue", "addr:city": "Morris", "addr:state": "Minnesota", "addr:postcode": "56267", "phone": "(320) 589-1424", "brand": "Bremer Bank", "brand:wikidata": "Q907603"}, "geometry": {"type": "Point", "coordinates": [-95.9158482, 45.5877077]}},
{"type": "Feature", "id": "RF0CXQvBTLJiPjT_ip59ed1xIrI=", "properties": {"ref": "moorhead", "@spider": "bremer_bank", "addr:street_address": "3131 South Frontage Road", "addr:city": "Moorhead", "addr:state": "Minnesota", "addr:postcode": "56560", "phone": "(218) 299-7600", "brand": "Bremer Bank", "brand:wikidata": "Q907603"}, "geometry": {"type": "Point", "coordinates": [-96.7301042, 46.875465]}},
{"type": "Feature", "id": "5tEi2uT-jKbgRKOVMs0yfxaWsds=", "properties": {"ref": "minot-dakota-square", "@spider": "bremer_bank", "addr:street_address": "15 South Broadway", "addr:city": "Minot", "addr:state": "North Dakota", "addr:postcode": "58701", "phone": "(701) 857-6260", "brand": "Bremer Bank", "brand:wikidata": "Q907603"}, "geometry": {"type": "Point", "coordinates": [-101.305966, 48.2028989]}},
{"type": "Feature", "id": "HIk3Crccka7laSpt82Og4Vl6D9Q=", "properties": {"ref": "minot", "@spider": "bremer_bank", "addr:street_address": "1615 36th Avenue SW", "addr:city": "Minot", "addr:state": "North Dakota", "addr:postcode": "58701", "phone": "(701) 852-3361", "brand": "Bremer Bank", "brand:wikidata": "Q907603"}, "geometry": {"type": "Point", "coordinates": [-101.294954, 48.23605]}},
{"type": "Feature", "id": "JbpsiZcW4C2UDAE4I5EWIOM5WFU=", "properties": {"ref": "minneapolis-lake-st", "@spider": "bremer_bank", "addr:street_address": "2130 E Lake Street, Unit C", "addr:city": "Minneapolis", "addr:state": "Minnesota", "addr:postcode": "55407", "phone": "(612) 782-1961", "brand": "Bremer Bank", "brand:wikidata": "Q907603"}, "geometry": {"type": "Point", "coordinates": [-93.24174, 44.94837]}},
{"type": "Feature", "id": "PxwZjAOHn7HHaUYB16DtwqEVaak=", "properties": {"ref": "minneapolis-ids", "@spider": "bremer_bank", "addr:street_address": "80 South 8th Street, Suite 240", "addr:city": "Minneapolis", "addr:state": "Minnesota", "addr:postcode": "55402", "phone": "(612) 371-0788", "brand": "Bremer Bank", "brand:wikidata": "Q907603"}, "geometry": {"type": "Point", "coordinates": [-93.2723899, 44.9758073]}},
{"type": "Feature", "id": "lycYyfV8nDSMYHhl8MKWIRMtefQ=", "properties": {"ref": "minneapolis-6th-street", "@spider": "bremer_bank", "addr:street_address": "225 South 6th Street, Suite 200", "addr:city": "Minneapolis", "addr:state": "Minnesota", "addr:postcode": "55402", "brand": "Bremer Bank", "brand:wikidata": "Q907603"}, "geometry": {"type": "Point", "coordinates": [-93.2686769, 44.9765704]}},
{"type": "Feature", "id": "muZBztvoIRTTqvmat3D7NoIx7cA=", "properties": {"ref": "menomonie", "@spider": "bremer_bank", "addr:street_address": "1500 Broadway Street North", "addr:city": "Menomonie", "addr:state": "Wisconsin", "addr:postcode": "54751", "phone": "(715) 235-3422", "brand": "Bremer Bank", "brand:wikidata": "Q907603"}, "geometry": {"type": "Point", "coordinates": [-91.931583, 44.900063]}},
{"type": "Feature", "id": "uA4jqtwiejHtHTYUGAK_-qejLR0=", "properties": {"ref": "marshall", "@spider": "bremer_bank", "addr:street_address": "208 East College Drive", "addr:city": "Marshall", "addr:state": "Minnesota", "addr:postcode": "56258", "phone": "(507) 537-0222", "brand": "Bremer Bank", "brand:wikidata": "Q907603"}, "geometry": {"type": "Point", "coordinates": [-95.786484, 44.447789]}},
{"type": "Feature", "id": "ShjIwGULJZzSmgT3ufDm9jCe3YU=", "properties": {"ref": "mankato", "@spider": "bremer_bank", "addr:street_address": "1290 Raintree Road", "addr:city": "Mankato", "addr:state": "Minnesota", "addr:postcode": "56001", "phone": "(507) 386-2200", "brand": "Bremer Bank", "brand:wikidata": "Q907603"}, "geometry": {"type": "Point", "coordinates": [-93.9673132, 44.1772051]}},
{"type": "Feature", "id": "QKM7-iu3JQaJzE8c9yc0PcSg2yg=", "properties": {"ref": "lisbon", "@spider": "bremer_bank", "addr:street_address": "622 Main Street", "addr:city": "Lisbon", "addr:state": "North Dakota", "addr:postcode": "58054", "phone": "(701) 683-5233", "brand": "Bremer Bank", "brand:wikidata": "Q907603"}, "geometry": {"type": "Point", "coordinates": [-97.6814237, 46.4401273]}},
{"type": "Feature", "id": "ZFkcySFIMBV3EBOskOffTV_8eAA=", "properties": {"ref": "linden-hills", "@spider": "bremer_bank", "addr:street_address": "4278 Sheridan Avenue South", "addr:city": "Minneapolis", "addr:state": "Minnesota", "addr:postcode": "55410", "phone": "(612) 782-2860", "brand": "Bremer Bank", "brand:wikidata": "Q907603"}, "geometry": {"type": "Point", "coordinates": [-93.314576, 44.924571]}},
{"type": "Feature", "id": "SxdEJGSbkPfq2mHUmFUpie65k9U=", "properties": {"ref": "larimore", "@spider": "bremer_bank", "addr:street_address": "119 Towner Avenue", "addr:city": "Larimore", "addr:state": "North Dakota", "addr:postcode": "58251", "phone": "(701) 343-2324", "brand": "Bremer Bank", "brand:wikidata": "Q907603"}, "geometry": {"type": "Point", "coordinates": [-97.6237243, 47.9040022]}},
{"type": "Feature", "id": "eUOanjVtcdLZRDvFiXezagauH-I=", "properties": {"ref": "la-crosse", "@spider": "bremer_bank", "addr:street_address": "2570 Midwest Drive", "addr:city": "Onalaska", "addr:state": "Wisconsin", "addr:postcode": "54650", "phone": "(608) 782-6711", "brand": "Bremer Bank", "brand:wikidata": "Q907603"}, "geometry": {"type": "Point", "coordinates": [-91.195137, 43.8791239]}},
{"type": "Feature", "id": "vAOMuWcQ0_uAUNSXXIdkH2C4BhQ=", "properties": {"ref": "kasson", "@spider": "bremer_bank", "addr:street_address": "109 South Mantorville Avenue", "addr:city": "Kasson", "addr:state": "Minnesota", "addr:postcode": "55944", "phone": "(507) 634-4444", "brand": "Bremer Bank", "brand:wikidata": "Q907603"}, "geometry": {"type": "Point", "coordinates": [-92.748651, 44.027855]}},
{"type": "Feature", "id": "-sfXd94p9RCa2L5-A9iSA_LFZKs=", "properties": {"ref": "international-falls", "@spider": "bremer_bank", "addr:street_address": "345 4th Avenue", "addr:city": "International Falls", "addr:state": "Minnesota", "addr:postcode": "56649", "phone": "(218) 283-9411", "brand": "Bremer Bank", "brand:wikidata": "Q907603"}, "geometry": {"type": "Point", "coordinates": [-93.404782, 48.601957]}},
{"type": "Feature", "id": "Z2gDMZoZGy4iUnG2g0pMaAqnP_Q=", "properties": {"ref": "grand-forks", "@spider": "bremer_bank", "addr:street_address": "3100 South Columbia Road", "addr:city": "Grand Forks", "addr:state": "North Dakota", "addr:postcode": "58201", "phone": "(701) 795-4500", "brand": "Bremer Bank", "brand:wikidata": "Q907603"}, "geometry": {"type": "Point", "coordinates": [-97.067877, 47.890467]}},
{"type": "Feature", "id": "NkBPgf1epTSXOk_I2V6iKnS2dfs=", "properties": {"ref": "grafton", "@spider": "bremer_bank", "addr:street_address": "910 Hill Avenue", "addr:city": "Grafton", "addr:state": "North Dakota", "addr:postcode": "58237", "phone": "(701) 352-2410", "brand": "Bremer Bank", "brand:wikidata": "Q907603"}, "geometry": {"type": "Point", "coordinates": [-97.4110837, 48.4154449]}},
{"type": "Feature", "id": "KwgKp4j-Hc2vNQq-SeEUnu8b_Js=", "properties": {"ref": "fordville", "@spider": "bremer_bank", "addr:street_address": "113 Main Street North", "addr:city": "Fordville", "addr:state": "North Dakota", "addr:postcode": "58231", "phone": "(701) 229-3291", "brand": "Bremer Bank", "brand:wikidata": "Q907603"}, "geometry": {"type": "Point", "coordinates": [-97.790782, 48.2165298]}},
{"type": "Feature", "id": "Idru1ZrcJryQksgKo7H-WjHK2VI=", "properties": {"ref": "fergus-falls", "@spider": "bremer_bank", "addr:street_address": "2330 College Way", "addr:city": "Fergus Falls", "addr:state": "Minnesota", "addr:postcode": "56537", "phone": "(218) 736-0110", "brand": "Bremer Bank", "brand:wikidata": "Q907603"}, "geometry": {"type": "Point", "coordinates": [-96.1135053, 46.2897231]}},
{"type": "Feature", "id": "YEMcQqQc4rHyPd8aXj8b2d6UYqE=", "properties": {"ref": "fargo", "@spider": "bremer_bank", "addr:street_address": "1444 45th Street South", "addr:city": "Fargo", "addr:state": "North Dakota", "addr:postcode": "58103", "phone": "(701) 492-2600", "brand": "Bremer Bank", "brand:wikidata": "Q907603"}, "geometry": {"type": "Point", "coordinates": [-96.860612, 46.8587149]}},
{"type": "Feature", "id": "MQIf5TBSo-2mdWsxYW-WqISeeK8=", "properties": {"ref": "eyota", "@spider": "bremer_bank", "addr:street_address": "27 2nd Street Southwest", "addr:city": "Eyota", "addr:state": "Minnesota", "addr:postcode": "55934", "phone": "(507) 545-2111", "brand": "Bremer Bank", "brand:wikidata": "Q907603"}, "geometry": {"type": "Point", "coordinates": [-92.230416, 43.987919]}},
{"type": "Feature", "id": "UI6itsy-BYxNpv0c8vvGJEvzoxo=", "properties": {"ref": "edina", "@spider": "bremer_bank", "addr:street_address": "6900 France Avenue South", "addr:city": "Edina", "addr:state": "Minnesota", "addr:postcode": "55435", "phone": "(952) 925-9500", "brand": "Bremer Bank", "brand:wikidata": "Q907603"}, "geometry": {"type": "Point", "coordinates": [-93.3294117, 44.8778535]}},
{"type": "Feature", "id": "hrK0f_nQEnf70i2IIj2iyF9W2Ug=", "properties": {"ref": "eden-prairie", "@spider": "bremer_bank", "addr:street_address": "11800 Singletree Lane", "addr:city": "Eden Prairie", "addr:state": "Minnesota", "addr:postcode": "55344", "phone": "(952) 944-6262", "brand": "Bremer Bank", "brand:wikidata": "Q907603"}, "geometry": {"type": "Point", "coordinates": [-93.427076, 44.8576059]}},
{"type": "Feature", "id": "RZBiGQwfmEIqCeCOevD7mjZKlNE=", "properties": {"ref": "detroit-lakes", "@spider": "bremer_bank", "addr:street_address": "115 Holmes Street East", "addr:city": "Detroit Lakes", "addr:state": "Minnesota", "addr:postcode": "56501", "phone": "(218) 847-9292", "brand": "Bremer Bank", "brand:wikidata": "Q907603"}, "geometry": {"type": "Point", "coordinates": [-95.844037, 46.816909]}},
{"type": "Feature", "id": "iN0YNVoW0_1C1Sj95d0ZEjC6dqY=", "properties": {"ref": "crookston", "@spider": "bremer_bank", "addr:street_address": "201 North Broadway", "addr:city": "Crookston", "addr:state": "Minnesota", "addr:postcode": "56716", "phone": "(218) 281-4182", "brand": "Bremer Bank", "brand:wikidata": "Q907603"}, "geometry": {"type": "Point", "coordinates": [-96.6061722, 47.7746906]}},
{"type": "Feature", "id": "aQYHZdBjl9jJ6EQHRgpsFvp9-Ec=", "properties": {"ref": "casselton", "@spider": "bremer_bank", "addr:street_address": "11 Langer Avenue North", "addr:city": "Casselton", "addr:state": "North Dakota", "addr:postcode": "58012", "phone": "(701) 347-4483", "brand": "Bremer Bank", "brand:wikidata": "Q907603"}, "geometry": {"type": "Point", "coordinates": [-97.2111826, 46.9006351]}},
{"type": "Feature", "id": "ATYiA7fRUql8uBS3EIUPkDrEi5g=", "properties": {"ref": "carrington", "@spider": "bremer_bank", "addr:street_address": "807 Main Street", "addr:city": "Carrington", "addr:state": "North Dakota", "addr:postcode": "58421", "phone": "(701) 652-3127", "brand": "Bremer Bank", "brand:wikidata": "Q907603"}, "geometry": {"type": "Point", "coordinates": [-99.1234676, 47.4495462]}}]}