{"type":"FeatureCollection","features":[{"type": "Feature", "id": "oNTcY38PIOArMXt3GOx9-7sjKf4=", "properties": {"ref": "489-canal-street", "@spider": "brueggers", "amenity": "fast_food", "cuisine": "bagel", "short_name": "Bruegger's", "takeaway": "yes", "addr:full": "489 Canal Street Suite 4", "addr:city": "Brattleboro", "addr:state": "Vermont", "addr:postcode": "05301", "addr:country": "US", "name": "Bruegger's Bagels Brattleboro", "phone": "(802) 254-2763", "website": "https://locations.brueggers.com/us/vt/brattleboro/489-canal-street", "opening_hours": "Mo-Su 06:00-02:00", "brand": "Bruegger's", "brand:wikidata": "Q4978656", "nsi_id": "brueggersbagels-4d2ff4"}, "geometry": {"type": "Point", "coordinates": [-72.5660944, 42.8397278]}},
{"type": "Feature", "id": "l0W6IVo84UJVpEv29LOiYghvLRA=", "properties": {"ref": "600-main-street", "@spider": "brueggers", "amenity": "fast_food", "cuisine": "bagel", "short_name": "Bruegger's", "takeaway": "yes", "addr:full": "600 Main Street", "addr:city": "Winchester", "addr:state": "Massachusetts", "addr:postcode": "01890", "addr:country": "US", "name": "Bruegger's Bagels Winchester", "phone": "(781) 721-2204", "website": "https://locations.brueggers.com/us/ma/winchester/600-main-street", "opening_hours": "Mo-Su 06:00-01:00", "brand": "Bruegger's", "brand:wikidata": "Q4978656", "nsi_id": "brueggersbagels-4d2ff4"}, "geometry": {"type": "Point", "coordinates": [-71.13770171999931, 42.45369891106039]}},
{"type": "Feature", "id": "Kq6p0pGO43pN-CouaMqNs-ZItSM=", "properties": {"ref": "119-breckenridge-lane", "@spider": "brueggers", "amenity": "fast_food", "cuisine": "bagel", "short_name": "Bruegger's", "takeaway": "yes", "addr:full": "119 Breckenridge Lane", "addr:city": "Louisville", "addr:state": "Kentucky", "addr:postcode": "40207", "addr:country": "US", "name": "Bruegger's Bagels St. Matthews", "phone": "(502) 618-1158", "website": "https://locations.brueggers.com/us/ky/louisville/119-breckenridge-lane", "opening_hours": "Mo-Fr 06:00-04:00; Sa-Su 07:00-04:00", "brand": "Bruegger's", "brand:wikidata": "Q4978656", "nsi_id": "brueggersbagels-4d2ff4"}, "geometry": {"type": "Point", "coordinates": [-85.65444165889551, 38.25216914943168]}},
{"type": "Feature", "id": "8DfwugnIEWI5dv6Vqx6D8E5jJis=", "properties": {"ref": "501-east-kennedy-blvd", "@spider": "brueggers", "amenity": "fast_food", "cuisine": "bagel", "short_name": "Bruegger's", "takeaway": "yes", "addr:full": "501 East Kennedy Blvd", "addr:city": "Tampa", "addr:state": "Florida", "addr:postcode": "33602", "addr:country": "US", "name": "Bruegger's Bagels M&I Plaza", "phone": "(813) 402-2989", "website": "https://locations.brueggers.com/us/fl/tampa/501-east-kennedy-blvd", "opening_hours": "Mo-Fr 06:30-12:00", "brand": "Bruegger's", "brand:wikidata": "Q4978656", "nsi_id": "brueggersbagels-4d2ff4"}, "geometry": {"type": "Point", "coordinates": [-82.4558486, 27.9477347]}},
{"type": "Feature", "id": "-klGCeWgcSzrZAX3Q0QvWrI3Y_I=", "properties": {"ref": "970-n-colony-rd", "@spider": "brueggers", "amenity": "fast_food", "cuisine": "bagel", "short_name": "Bruegger's", "takeaway": "yes", "addr:full": "970 N Colony Rd Building G", "addr:city": "Wallingford", "addr:state": "Connecticut", "addr:postcode": "06492", "addr:country": "US", "name": "Bruegger's Bagels Wallingford", "phone": "(203) 269-5666", "website": "https://locations.brueggers.com/us/ct/wallingford/970-n-colony-rd", "opening_hours": "Mo-Su 06:00-02:00", "brand": "Bruegger's", "brand:wikidata": "Q4978656", "nsi_id": "brueggersbagels-4d2ff4"}, "geometry": {"type": "Point", "coordinates": [-72.80914843082428, 41.48691706124118]}},
{"type": "Feature", "id": "kA6qkQN9rQFoMBEOwdoyT-bKN4c=", "properties": {"ref": "817-17th-street", "@spider": "brueggers", "amenity": "fast_food", "cuisine": "bagel", "short_name": "Bruegger's", "takeaway": "yes", "addr:full": "817 17th Street Bank Lofts Building", "addr:city": "Denver", "addr:state": "Colorado", "addr:postcode": "80202", "addr:country": "US", "name": "Bruegger's Bagels 17th & Stout", "phone": "(303) 675-0606", "website": "https://locations.brueggers.com/us/co/denver/817-17th-street", "brand": "Bruegger's", "brand:wikidata": "Q4978656", "nsi_id": "brueggersbagels-4d2ff4"}, "geometry": {"type": "Point", "coordinates": [-104.9918532371521, 39.74705798323694]}},
{"type": "Feature", "id": "o-lOdI9zrZWoMqahO-4zNs4ui20=", "properties": {"ref": "39584-winchester-road", "@spider": "brueggers", "amenity": "fast_food", "cuisine": "bagel", "short_name": "Bruegger's", "takeaway": "yes", "addr:full": "39584 Winchester Road E110", "addr:city": "Temecula", "addr:state": "California", "addr:postcode": "92590", "addr:country": "US", "name": "Bruegger's Bagels Temecula", "phone": "(951) 506-5860", "website": "https://locations.brueggers.com/us/ca/temecula/39584-winchester-road", "opening_hours": "Mo-Fr 05:30-03:00; Sa 06:00-03:00; Su 06:30-03:00", "brand": "Bruegger's", "brand:wikidata": "Q4978656", "nsi_id": "brueggersbagels-4d2ff4"}, "geometry": {"type": "Point", "coordinates": [-117.14290160672022, 33.54135209762402]}},
{"type": "Feature", "id": "tnUI1vPS5mOHOxgSIivSyt-li74=", "properties": {"ref": "88-west-river-rd", "@spider": "brueggers", "amenity": "fast_food", "cuisine": "bagel", "short_name": "Bruegger's", "takeaway": "yes", "addr:full": "88 West River Rd Suite 161", "addr:city": "Tucson", "addr:state": "Arizona", "addr:postcode": "85704", "addr:country": "US", "name": "Bruegger's Bagels River Road & Stone", "phone": "(520) 292-2111", "website": "https://locations.brueggers.com/us/az/tucson/88-west-river-rd", "opening_hours": "Mo-Su 05:30-03:00", "brand": "Bruegger's", "brand:wikidata": "Q4978656", "nsi_id": "brueggersbagels-4d2ff4"}, "geometry": {"type": "Point", "coordinates": [-110.97325712442398, 32.297260947955984]}},
{"type": "Feature", "id": "ooqbtN2PR4_ZIc5pArmGQNHnU8E=", "properties": {"ref": "347-hughes-road", "@spider": "brueggers", "amenity": "fast_food", "cuisine": "bagel", "short_name": "Bruegger's", "takeaway": "yes", "addr:full": "347 Hughes Road Unit C", "addr:city": "Madison", "addr:state": "Alabama", "addr:postcode": "35758", "addr:country": "US", "name": "Bruegger's Bagels Hughes Road", "phone": "(256) 258-0880", "website": "https://locations.brueggers.com/us/al/madison/347-hughes-road", "opening_hours": "Mo-Fr 06:00-02:00; Sa 06:30-02:00; Su 07:00-02:00", "brand": "Bruegger's", "brand:wikidata": "Q4978656", "nsi_id": "brueggersbagels-4d2ff4"}, "geometry": {"type": "Point", "coordinates": [-86.7415691, 34.7076589]}},
{"type": "Feature", "id": "EKhpHqKkGUNCTwYvFiQUH7kVeus=", "properties": {"ref": "601-e-silver-spring-drive", "@spider": "brueggers", "amenity": "fast_food", "cuisine": "bagel", "short_name": "Bruegger's", "takeaway": "yes", "addr:full": "601 E Silver Spring Drive", "addr:city": "Whitefish Bay", "addr:state": "Wisconsin", "addr:postcode": "53217", "addr:country": "US", "name": "Bruegger's Bagels Whitefish Bay", "phone": "(414) 964-4600", "website": "https://locations.brueggers.com/us/wi/whitefish-bay/601-e-silver-spring-drive", "opening_hours": "Mo-Su 06:00-02:00", "brand": "Bruegger's", "brand:wikidata": "Q4978656", "nsi_id": "brueggersbagels-4d2ff4"}, "geometry": {"type": "Point", "coordinates": [-87.90282368659979, 43.11822038852109]}},
{"type": "Feature", "id": "mGIv8quXa_s_tk9K_VZXSHocazg=", "properties": {"ref": "8340-west-bluemound-road", "@spider": "brueggers", "amenity": "fast_food", "cuisine": "bagel", "short_name": "Bruegger's", "takeaway": "yes", "addr:full": "8340 West Bluemound Road", "addr:city": "Wauwatosa", "addr:state": "Wisconsin", "addr:postcode": "53213", "addr:country": "US", "name": "Bruegger's Bagels Wauwatosa", "phone": "(414) 443-1303", "website": "https://locations.brueggers.com/us/wi/wauwatosa/8340-west-bluemound-road", "opening_hours": "Mo-Su 06:00-02:00", "brand": "Bruegger's", "brand:wikidata": "Q4978656", "nsi_id": "brueggersbagels-4d2ff4"}, "geometry": {"type": "Point", "coordinates": [-88.0172383, 43.03621]}},
{"type": "Feature", "id": "Xry9vwEHqM1VibWVmHiBputWQeY=", "properties": {"ref": "430-old-turner-street", "@spider": "brueggers", "amenity": "fast_food", "cuisine": "bagel", "short_name": "Bruegger's", "takeaway": "yes", "addr:full": "430 Old Turner Street", "addr:city": "Blacksburg", "addr:state": "Virginia", "addr:postcode": "24061", "addr:country": "US", "name": "Bruegger's Bagels Virginia Tech - Turner Place at Lavery Hall", "phone": "(540) 231-2985", "website": "https://locations.brueggers.com/us/va/blacksburg/430-old-turner-street", "brand": "Bruegger's", "brand:wikidata": "Q4978656", "nsi_id": "brueggersbagels-4d2ff4"}, "geometry": {"type": "Point", "coordinates": [-80.4226943, 37.230948]}},
{"type": "Feature", "id": "0LRb992Qcbj25E6gBf4MlXwJ5I8=", "properties": {"ref": "8008-cedar-springs-road", "@spider": "brueggers", "amenity": "fast_food", "cuisine": "bagel", "short_name": "Bruegger's", "takeaway": "yes", "addr:full": "8008 Cedar Springs Road LB 16", "addr:city": "Dallas", "addr:state": "Texas", "addr:postcode": "75235", "addr:country": "US", "name": "Bruegger's Bagels Dallas Love Field Airport - Pre Security", "phone": "(972) 629-9255", "website": "https://locations.brueggers.com/us/tx/dallas/8008-cedar-springs-road", "opening_hours": "Mo-Su 05:00-08:00", "brand": "Bruegger's", "brand:wikidata": "Q4978656", "nsi_id": "brueggersbagels-4d2ff4"}, "geometry": {"type": "Point", "coordinates": [-96.84996113988115, 32.84413800000002]}},
{"type": "Feature", "id": "k6yExeCEEhwOqr7AeUulT0rfn2Q=", "properties": {"ref": "5311-harding-rd", "@spider": "brueggers", "amenity": "fast_food", "cuisine": "bagel", "short_name": "Bruegger's", "takeaway": "yes", "addr:full": "5311 Harding Rd", "addr:city": "Nashville", "addr:state": "Tennessee", "addr:postcode": "37205", "addr:country": "US", "name": "Bruegger's Bagels Harding Road", "phone": "(615) 352-1128", "website": "https://locations.brueggers.com/us/tn/nashville/5311-harding-rd", "opening_hours": "Mo-Su 06:00-02:00", "brand": "Bruegger's", "brand:wikidata": "Q4978656", "nsi_id": "brueggersbagels-4d2ff4"}, "geometry": {"type": "Point", "coordinates": [-86.87038443435853, 36.10091508966106]}},
{"type": "Feature", "id": "sCmo1xzPJODJRRp9uj69Wn0A_dc=", "properties": {"ref": "945-lake-murray-blvd", "@spider": "brueggers", "amenity": "fast_food", "cuisine": "bagel", "short_name": "Bruegger's", "takeaway": "yes", "addr:full": "945 Lake Murray Blvd", "addr:city": "Irmo", "addr:state": "South Carolina", "addr:postcode": "29063", "addr:country": "US", "name": "Bruegger's Bagels Lake Murray Boulevard", "phone": "(803) 749-3000", "website": "https://locations.brueggers.com/us/sc/irmo/945-lake-murray-blvd", "opening_hours": "Mo-Su 07:30-02:00", "brand": "Bruegger's", "brand:wikidata": "Q4978656", "nsi_id": "brueggersbagels-4d2ff4"}, "geometry": {"type": "Point", "coordinates": [-81.17249391534426, 34.08978256987219]}},
{"type": "Feature", "id": "dyLloxk8AiRfAvhUfO8lk5quE6Q=", "properties": {"ref": "422-beaver-st", "@spider": "brueggers", "amenity": "fast_food", "cuisine": "bagel", "short_name": "Bruegger's", "takeaway": "yes", "addr:full": "422 Beaver St Space SE, 10A/B", "addr:city": "Sewickley", "addr:state": "Pennsylvania", "addr:postcode": "15143", "addr:country": "US", "name": "Bruegger's Bagels Sewickley", "phone": "(412) 741-3069", "website": "https://locations.brueggers.com/us/pa/sewickley/422-beaver-st", "opening_hours": "Mo-Su 06:00-02:00", "brand": "Bruegger's", "brand:wikidata": "Q4978656", "nsi_id": "brueggersbagels-4d2ff4"}, "geometry": {"type": "Point", "coordinates": [-80.18116906285292, 40.54063814692046]}},
{"type": "Feature", "id": "Z_cGM1oushY15-_FLrhR8Mvi3IU=", "properties": {"ref": "5900-som-center-road", "@spider": "brueggers", "amenity": "fast_food", "cuisine": "bagel", "short_name": "Bruegger's", "takeaway": "yes", "addr:full": "5900 Som Center Road", "addr:city": "Willoughby", "addr:state": "Ohio", "addr:postcode": "44094", "addr:country": "US", "name": "Bruegger's Bagels Pine Ridge Plaza/Willoughby", "phone": "(440) 944-8865", "website": "https://locations.brueggers.com/us/oh/willoughby/5900-som-center-road", "opening_hours": "Mo-Su 06:00-02:00", "brand": "Bruegger's", "brand:wikidata": "Q4978656", "nsi_id": "brueggersbagels-4d2ff4"}, "geometry": {"type": "Point", "coordinates": [-81.44071222453692, 41.607957895446184]}},
{"type": "Feature", "id": "SaghwkrzDTZSvD2W_2P-7bJRuJQ=", "properties": {"ref": "30155-detroit-rd", "@spider": "brueggers", "amenity": "fast_food", "cuisine": "bagel", "short_name": "Bruegger's", "takeaway": "yes", "addr:full": "30155 Detroit Rd Main Terminal Food Court", "addr:city": "Westlake", "addr:state": "Ohio", "addr:postcode": "44145", "addr:country": "US", "name": "Bruegger's Bagels Westlake", "phone": "(440) 892-1250", "website": "https://locations.brueggers.com/us/oh/westlake/30155-detroit-rd", "opening_hours": "Mo-Su 06:00-02:00", "brand": "Bruegger's", "brand:wikidata": "Q4978656", "nsi_id": "brueggersbagels-4d2ff4"}, "geometry": {"type": "Point", "coordinates": [-81.95294345767206, 41.4611008993836]}},
{"type": "Feature", "id": "PFQLKEqmf0v6cZmeyp2rxLQnvrE=", "properties": {"ref": "1621-lane-avenue", "@spider": "brueggers", "amenity": "fast_food", "cuisine": "bagel", "short_name": "Bruegger's", "takeaway": "yes", "addr:full": "1621 Lane Avenue", "addr:city": "Upper Arlington", "addr:state": "Ohio", "addr:postcode": "43221", "addr:country": "US", "name": "Bruegger's Bagels The Shops on Lane Avenue", "phone": "(614) 486-7500", "website": "https://locations.brueggers.com/us/oh/upper-arlington/1621-lane-avenue", "opening_hours": "Mo-Fr 06:30-01:00; Sa-Su 07:00-01:00", "brand": "Bruegger's", "brand:wikidata": "Q4978656", "nsi_id": "brueggersbagels-4d2ff4"}, "geometry": {"type": "Point", "coordinates": [-83.05375691534425, 40.00667883652929]}},
{"type": "Feature", "id": "f7LxiahKOJLUQcmqV_aPUENYFj8=", "properties": {"ref": "708-s-riverside-drive", "@spider": "brueggers", "amenity": "fast_food", "cuisine": "bagel", "short_name": "Bruegger's", "takeaway": "yes", "addr:full": "708 S Riverside Drive", "addr:city": "Iowa City", "addr:state": "Iowa", "addr:postcode": "52246", "addr:country": "US", "name": "Bruegger's Bagels and Jamba Juice South Riverside", "phone": "(319) 333-0019", "website": "https://locations.brueggers.com/us/ia/iowa-city/708-s-riverside-drive", "opening_hours": "Mo-Su 06:00-02:00", "brand": "Bruegger's", "brand:wikidata": "Q4978656", "nsi_id": "brueggersbagels-4d2ff4"}, "geometry": {"type": "Point", "coordinates": [-91.53990986011883, 41.650746020864645]}},
{"type": "Feature", "id": "m_SQijC1rLb3mA_bSjYZpUEYOVQ=", "properties": {"ref": "708-s-riverside-dr", "@spider": "brueggers", "amenity": "fast_food", "cuisine": "bagel", "short_name": "Bruegger's", "takeaway": "yes", "addr:full": "708 S Riverside Dr", "addr:city": "Iowa City", "addr:state": "Iowa", "addr:postcode": "52246", "addr:country": "US", "name": "Bruegger's Bagels ", "phone": "(319) 333-0019", "website": "https://locations.brueggers.com/us/ia/iowa-city/708-s-riverside-dr", "brand": "Bruegger's", "brand:wikidata": "Q4978656", "nsi_id": "brueggersbagels-4d2ff4"}, "geometry": {"type": "Point", "coordinates": [-91.53988669241058, 41.65077693043612]}},
{"type": "Feature", "id": "k54I5ND1e_AkwKd4SISRYb9PZD8=", "properties": {"ref": "245-iowa-ave", "@spider": "brueggers", "amenity": "fast_food", "cuisine": "bagel", "short_name": "Bruegger's", "takeaway": "yes", "addr:full": "245 Iowa Ave", "addr:city": "Iowa City", "addr:state": "Iowa", "addr:postcode": "52240", "addr:country": "US", "name": "Bruegger's Bagels and Caribou Coffee Iowa City", "phone": "(319) 354-2278", "website": "https://locations.brueggers.com/us/ia/iowa-city/245-iowa-ave", "opening_hours": "Mo-Su 06:00-02:00", "brand": "Bruegger's", "brand:wikidata": "Q4978656", "nsi_id": "brueggersbagels-4d2ff4"}, "geometry": {"type": "Point", "coordinates": [-91.53202682733536, 41.66101403812128]}},
{"type": "Feature", "id": "Oj5xlbezGaUu6qmEek5cBn8MPXQ=", "properties": {"ref": "15035-pearl-rd", "@spider": "brueggers", "amenity": "fast_food", "cuisine": "bagel", "short_name": "Bruegger's", "takeaway": "yes", "addr:full": "15035 Pearl Rd Main Terminal Food Court", "addr:city": "Strongsville", "addr:state": "Ohio", "addr:postcode": "44136", "addr:country": "US", "name": "Bruegger's Bagels Strongsville", "phone": "(440) 572-4646", "website": "https://locations.brueggers.com/us/oh/strongsville/15035-pearl-rd", "opening_hours": "Mo-Su 06:00-01:00", "brand": "Bruegger's", "brand:wikidata": "Q4978656", "nsi_id": "brueggersbagels-4d2ff4"}, "geometry": {"type": "Point", "coordinates": [-81.83451354503632, 41.30609920781276]}},
{"type": "Feature", "id": "C_ae0V3Vv9i3mAsAtpCntq79X98=", "properties": {"ref": "4963-darrow-road", "@spider": "brueggers", "amenity": "fast_food", "cuisine": "bagel", "short_name": "Bruegger's", "takeaway": "yes", "addr:full": "4963 Darrow Road Unit C", "addr:city": "Stow", "addr:state": "Ohio", "addr:postcode": "44224", "addr:country": "US", "name": "Bruegger's Bagels Stow", "phone": "(330) 342-4333", "website": "https://locations.brueggers.com/us/oh/stow/4963-darrow-road", "opening_hours": "Mo-Su 06:00-02:00", "brand": "Bruegger's", "brand:wikidata": "Q4978656", "nsi_id": "brueggersbagels-4d2ff4"}, "geometry": {"type": "Point", "coordinates": [-81.43960000000004, 41.19972040132569]}},
{"type": "Feature", "id": "nxJ4DSSx_hIUTnVdKJ-nwUQZ1Jo=", "properties": {"ref": "9210-mentor-ave", "@spider": "brueggers", "amenity": "fast_food", "cuisine": "bagel", "short_name": "Bruegger's", "takeaway": "yes", "addr:full": "9210 Mentor Ave", "addr:city": "Mentor", "addr:state": "Ohio", "addr:postcode": "44060", "addr:country": "US", "name": "Bruegger's Bagels Mentor", "phone": "(440) 974-9350", "website": "https://locations.brueggers.com/us/oh/mentor/9210-mentor-ave", "opening_hours": "Mo-Su 06:00-02:00", "brand": "Bruegger's", "brand:wikidata": "Q4978656", "nsi_id": "brueggersbagels-4d2ff4"}, "geometry": {"type": "Point", "coordinates": [-81.308923959732, 41.676898627319936]}},
{"type": "Feature", "id": "ZUAdOOEWniiJ_BZCF-95qBATqoo=", "properties": {"ref": "6075-mayfield-road", "@spider": "brueggers", "amenity": "fast_food", "cuisine": "bagel", "short_name": "Bruegger's", "takeaway": "yes", "addr:full": "6075 Mayfield Road", "addr:city": "Mayfield Heights", "addr:state": "Ohio", "addr:postcode": "44124", "addr:country": "US", "name": "Bruegger's Bagels Mayfield Heights", "phone": "(440) 473-1976", "website": "https://locations.brueggers.com/us/oh/mayfield-heights/6075-mayfield-road", "brand": "Bruegger's", "brand:wikidata": "Q4978656", "nsi_id": "brueggersbagels-4d2ff4"}, "geometry": {"type": "Point", "coordinates": [-81.45990468220896, 41.520478975339046]}},
{"type": "Feature", "id": "0Dw-AMwOUOqb0qTwVad_ac9Db-g=", "properties": {"ref": "84-west-streetsboro-street", "@spider": "brueggers", "amenity": "fast_food", "cuisine": "bagel", "short_name": "Bruegger's", "takeaway": "yes", "addr:full": "84 West Streetsboro Street Unit C", "addr:city": "Hudson", "addr:state": "Ohio", "addr:postcode": "44236", "addr:country": "US", "name": "Bruegger's Bagels Hudson/Acme Plaza", "phone": "(330) 342-4708", "website": "https://locations.brueggers.com/us/oh/hudson/84-west-streetsboro-street", "opening_hours": "Mo-Su 06:00-02:00", "brand": "Bruegger's", "brand:wikidata": "Q4978656", "nsi_id": "brueggersbagels-4d2ff4"}, "geometry": {"type": "Point", "coordinates": [-81.44532501697535, 41.23960925180694]}},
{"type": "Feature", "id": "HqpjD2mlacVAZwEBeUgb3jEJmfg=", "properties": {"ref": "3737-w-market-st", "@spider": "brueggers", "amenity": "fast_food", "cuisine": "bagel", "short_name": "Bruegger's", "takeaway": "yes", "addr:full": "3737 W Market St Unit C", "addr:city": "Fairlawn", "addr:state": "Ohio", "addr:postcode": "44333", "addr:country": "US", "name": "Bruegger's Bagels Fairlawn", "phone": "(330) 665-1050", "website": "https://locations.brueggers.com/us/oh/fairlawn/3737-w-market-st", "opening_hours": "Mo-Su 06:00-02:00", "brand": "Bruegger's", "brand:wikidata": "Q4978656", "nsi_id": "brueggersbagels-4d2ff4"}, "geometry": {"type": "Point", "coordinates": [-81.634366, 41.136728]}},
{"type": "Feature", "id": "vGo6plQPN96N2xPYn7unA5pempw=", "properties": {"ref": "4425-w-dublin-granville-rd", "@spider": "brueggers", "amenity": "fast_food", "cuisine": "bagel", "short_name": "Bruegger's", "takeaway": "yes", "addr:full": "4425 W Dublin Granville Rd", "addr:city": "Dublin", "addr:state": "Ohio", "addr:postcode": "43017", "addr:country": "US", "name": "Bruegger's Bagels River Ridge", "phone": "(614) 761-3730", "website": "https://locations.brueggers.com/us/oh/dublin/4425-w-dublin-granville-rd", "opening_hours": "Mo-Fr 06:30-01:00; Sa-Su 07:00-01:00", "brand": "Bruegger's", "brand:wikidata": "Q4978656", "nsi_id": "brueggersbagels-4d2ff4"}, "geometry": {"type": "Point", "coordinates": [-83.1064453730163, 40.09882500000001]}},
{"type": "Feature", "id": "q9diZ1LSeX6xeeYYy485pAv-0EY=", "properties": {"ref": "1630-neil-avenue", "@spider": "brueggers", "amenity": "fast_food", "cuisine": "bagel", "short_name": "Bruegger's", "takeaway": "yes", "addr:full": "1630 Neil Avenue", "addr:city": "Columbus", "addr:state": "Ohio", "addr:postcode": "43201", "addr:country": "US", "name": "Bruegger's Bagels Ohio State Campus", "phone": "(614) 429-6042", "website": "https://locations.brueggers.com/us/oh/columbus/1630-neil-avenue", "opening_hours": "Mo-Su 07:00-01:00", "brand": "Bruegger's", "brand:wikidata": "Q4978656", "nsi_id": "brueggersbagels-4d2ff4"}, "geometry": {"type": "Point", "coordinates": [-83.01424026489258, 39.99463174390326]}},
{"type": "Feature", "id": "zL0H3voOYxdwkIBFExhz6ZVSt0k=", "properties": {"ref": "12443-cedar-road", "@spider": "brueggers", "amenity": "fast_food", "cuisine": "bagel", "short_name": "Bruegger's", "takeaway": "yes", "addr:full": "12443 Cedar Road", "addr:city": "Cleveland Heights", "addr:state": "Ohio", "addr:postcode": "44106", "addr:country": "US", "name": "Bruegger's Bagels Cedar Hill/Cleveland Heights", "phone": "(216) 321-8933", "website": "https://locations.brueggers.com/us/oh/cleveland-heights/12443-cedar-road", "opening_hours": "Mo-Su 06:00-02:00", "brand": "Bruegger's", "brand:wikidata": "Q4978656", "nsi_id": "brueggersbagels-4d2ff4"}, "geometry": {"type": "Point", "coordinates": [-81.5928562, 41.5012333]}},
{"type": "Feature", "id": "DTYlNoYf99UV9lm4HE_XL6SLlQg=", "properties": {"ref": "5300-riverside-drive", "@spider": "brueggers", "amenity": "fast_food", "cuisine": "bagel", "short_name": "Bruegger's", "takeaway": "yes", "addr:full": "5300 Riverside Drive Main Terminal Food Court", "addr:city": "Cleveland", "addr:state": "Ohio", "addr:postcode": "44135", "addr:country": "US", "name": "Bruegger's Bagels Cleveland Hopkins International Airport - Main Terminal Food Court", "phone": "(216) 265-8459", "website": "https://locations.brueggers.com/us/oh/cleveland/5300-riverside-drive", "brand": "Bruegger's", "brand:wikidata": "Q4978656", "nsi_id": "brueggersbagels-4d2ff4"}, "geometry": {"type": "Point", "coordinates": [-81.838827, 41.410579]}},
{"type": "Feature", "id": "aZ6QQt_mT-v28WNGI04v7Q-vB24=", "properties": {"ref": "7322-chippewa-road", "@spider": "brueggers", "amenity": "fast_food", "cuisine": "bagel", "short_name": "Bruegger's", "takeaway": "yes", "addr:full": "7322 Chippewa Road Unit C", "addr:city": "Brecksville", "addr:state": "Ohio", "addr:postcode": "44141", "addr:country": "US", "name": "Bruegger's Bagels Brecksville", "phone": "(440) 717-0028", "website": "https://locations.brueggers.com/us/oh/brecksville/7322-chippewa-road", "opening_hours": "Mo-Su 06:00-02:00", "brand": "Bruegger's", "brand:wikidata": "Q4978656", "nsi_id": "brueggersbagels-4d2ff4"}, "geometry": {"type": "Point", "coordinates": [-81.62584332638932, 41.31965117701247]}},
{"type": "Feature", "id": "Hl36S1pIzvfQHd7B40gibYhT410=", "properties": {"ref": "9590-kenwood-rd", "@spider": "brueggers", "amenity": "fast_food", "cuisine": "bagel", "short_name": "Bruegger's", "takeaway": "yes", "addr:full": "9590 Kenwood Rd", "addr:city": "Blue Ash", "addr:state": "Ohio", "addr:postcode": "45242", "addr:country": "US", "name": "Bruegger's Bagels City Centre/Blue Ash", "phone": "(513) 984-5111", "website": "https://locations.brueggers.com/us/oh/blue-ash/9590-kenwood-rd", "opening_hours": "Mo-Su 06:00-02:00", "brand": "Bruegger's", "brand:wikidata": "Q4978656", "nsi_id": "brueggersbagels-4d2ff4"}, "geometry": {"type": "Point", "coordinates": [-84.37628209590912, 39.23193942213361]}},
{"type": "Feature", "id": "rapq_9ilPGIY414tH-NMnyHmOto=", "properties": {"ref": "24215-chagrin-blvd", "@spider": "brueggers", "amenity": "fast_food", "cuisine": "bagel", "short_name": "Bruegger's", "takeaway": "yes", "addr:full": "24215 Chagrin Blvd", "addr:city": "Beachwood", "addr:state": "Ohio", "addr:postcode": "44122", "addr:country": "US", "name": "Bruegger's Bagels Pavilion/Beechwood", "phone": "(216) 595-9915", "website": "https://locations.brueggers.com/us/oh/beachwood/24215-chagrin-blvd", "opening_hours": "Mo-Su 06:00-02:00", "brand": "Bruegger's", "brand:wikidata": "Q4978656", "nsi_id": "brueggersbagels-4d2ff4"}, "geometry": {"type": "Point", "coordinates": [-81.50744049570085, 41.46594748574922]}},
{"type": "Feature", "id": "pDD0WrtUhOoDVT6dKsOwWWC5NCw=", "properties": {"ref": "8000-essington-ave-w", "@spider": "brueggers", "amenity": "fast_food", "cuisine": "bagel", "short_name": "Bruegger's", "takeaway": "yes", "addr:full": "8000 Essington Ave W Terminal A", "addr:city": "Philadelphia", "addr:state": "Pennsylvania", "addr:postcode": "19153", "addr:country": "US", "name": "Bruegger's Bagels Philadelphia International Airport - Gate A24", "phone": "(215) 365-4819", "website": "https://locations.brueggers.com/us/pa/philadelphia/8000-essington-ave-w", "opening_hours": "Mo-Su 07:00-08:00", "brand": "Bruegger's", "brand:wikidata": "Q4978656", "nsi_id": "brueggersbagels-4d2ff4"}, "geometry": {"type": "Point", "coordinates": [-75.2510777288361, 39.874516584626186]}},
{"type": "Feature", "id": "nrdCASJOCtmOniuV2le3u8P3tSA=", "properties": {"ref": "1134-thorn-run-rd-extension", "@spider": "brueggers", "amenity": "fast_food", "cuisine": "bagel", "short_name": "Bruegger's", "takeaway": "yes", "addr:full": "1134 Thorn Run Rd Extension Space SE, 10A/B", "addr:city": "Coraopolis", "addr:state": "Pennsylvania", "addr:postcode": "15108", "addr:country": "US", "name": "Bruegger's Bagels Thorn Run/Moon Township", "phone": "(412) 264-2243", "website": "https://locations.brueggers.com/us/pa/coraopolis/1134-thorn-run-rd-extension", "opening_hours": "Mo-Su 06:00-02:00", "brand": "Bruegger's", "brand:wikidata": "Q4978656", "nsi_id": "brueggersbagels-4d2ff4"}, "geometry": {"type": "Point", "coordinates": [-80.20857041104512, 40.50525]}},
{"type": "Feature", "id": "OL7fqhTLz1vKTwBj9VjHQ2sv8-E=", "properties": {"ref": "968-county-line-road", "@spider": "brueggers", "amenity": "fast_food", "cuisine": "bagel", "short_name": "Bruegger's", "takeaway": "yes", "addr:full": "968 County Line Road Terminal A", "addr:city": "Bryn Mawr", "addr:state": "Pennsylvania", "addr:postcode": "19010", "addr:country": "US", "name": "Bruegger's Bagels Bruegger's Bagels - Bryn Mawr", "phone": "(610) 520-2221", "website": "https://locations.brueggers.com/us/pa/bryn-mawr/968-county-line-road", "opening_hours": "Mo-Su 06:00-02:00", "brand": "Bruegger's", "brand:wikidata": "Q4978656", "nsi_id": "brueggersbagels-4d2ff4"}, "geometry": {"type": "Point", "coordinates": [-75.3254231, 40.0214451]}},
{"type": "Feature", "id": "EJGnwZSFxPWrjfFhnwA76NVXVq0=", "properties": {"ref": "5213-library-road", "@spider": "brueggers", "amenity": "fast_food", "cuisine": "bagel", "short_name": "Bruegger's", "takeaway": "yes", "addr:full": "5213 Library Road", "addr:city": "Bethel Park", "addr:state": "Pennsylvania", "addr:postcode": "15102", "addr:country": "US", "name": "Bruegger's Bagels South Park", "phone": "(412) 833-9381", "website": "https://locations.brueggers.com/us/pa/bethel-park/5213-library-road", "opening_hours": "Mo-Su 06:00-02:00", "brand": "Bruegger's", "brand:wikidata": "Q4978656", "nsi_id": "brueggersbagels-4d2ff4"}, "geometry": {"type": "Point", "coordinates": [-80.0233831, 40.3332042]}},
{"type": "Feature", "id": "cMzYVn4LWHAPzdsmc41MGrY1H8I=", "properties": {"ref": "4601-forest-drive", "@spider": "brueggers", "amenity": "fast_food", "cuisine": "bagel", "short_name": "Bruegger's", "takeaway": "yes", "addr:full": "4601 Forest Drive", "addr:city": "Columbia", "addr:state": "South Carolina", "addr:postcode": "29206", "addr:country": "US", "name": "Bruegger's Bagels Forest Drive", "phone": "(803) 738-8112", "website": "https://locations.brueggers.com/us/sc/columbia/4601-forest-drive", "opening_hours": "Mo-Su 07:30-02:00", "brand": "Bruegger's", "brand:wikidata": "Q4978656", "nsi_id": "brueggersbagels-4d2ff4"}, "geometry": {"type": "Point", "coordinates": [-80.97125638773161, 34.02046400402353]}},
{"type": "Feature", "id": "tCpylX0shNxu7hi9r3nPEGcmMvI=", "properties": {"ref": "330-franklin-road", "@spider": "brueggers", "amenity": "fast_food", "cuisine": "bagel", "short_name": "Bruegger's", "takeaway": "yes", "addr:full": "330 Franklin Road", "addr:city": "Brentwood", "addr:state": "Tennessee", "addr:postcode": "37027", "addr:country": "US", "name": "Bruegger's Bagels Franklin Road/Brentwood", "phone": "(615) 661-5668", "website": "https://locations.brueggers.com/us/tn/brentwood/330-franklin-road", "opening_hours": "Mo-Su 06:00-02:00", "brand": "Bruegger's", "brand:wikidata": "Q4978656", "nsi_id": "brueggersbagels-4d2ff4"}, "geometry": {"type": "Point", "coordinates": [-86.7919648, 36.0254984]}},
{"type": "Feature", "id": "yjzVogzOOLXs9rwQ_pqr-PxU6qc=", "properties": {"ref": "3267-bee-cave-road", "@spider": "brueggers", "amenity": "fast_food", "cuisine": "bagel", "short_name": "Bruegger's", "takeaway": "yes", "addr:full": "3267 Bee Cave Road", "addr:city": "Austin", "addr:state": "Texas", "addr:postcode": "78746", "addr:country": "US", "name": "Bruegger's Bagels West Woods Shopping Center", "phone": "(512) 394-7174", "website": "https://locations.brueggers.com/us/tx/austin/3267-bee-cave-road", "opening_hours": "Mo-Su 07:00-03:00", "brand": "Bruegger's", "brand:wikidata": "Q4978656", "nsi_id": "brueggersbagels-4d2ff4"}, "geometry": {"type": "Point", "coordinates": [-97.80155904662706, 30.27465251953979]}},
{"type": "Feature", "id": "EmJDMCtiDyvqNzUKJjCAEGWopLw=", "properties": {"ref": "818-n-quincy-street", "@spider": "brueggers", "amenity": "fast_food", "cuisine": "bagel", "short_name": "Bruegger's", "takeaway": "yes", "addr:full": "818 N Quincy Street", "addr:city": "Arlington", "addr:state": "Virginia", "addr:postcode": "22203", "addr:country": "US", "name": "Bruegger's Bagels Liberty Center", "phone": "(703) 248-0980", "website": "https://locations.brueggers.com/us/va/arlington/818-n-quincy-street", "opening_hours": "Mo-Su 06:00-02:00", "brand": "Bruegger's", "brand:wikidata": "Q4978656", "nsi_id": "brueggersbagels-4d2ff4"}, "geometry": {"type": "Point", "coordinates": [-77.1077504754067, 38.88011136236991]}},
{"type": "Feature", "id": "50J241g-GmyGVALCuQp7j0i610w=", "properties": {"ref": "1043-east-summit-avenue", "@spider": "brueggers", "amenity": "fast_food", "cuisine": "bagel", "short_name": "Bruegger's", "takeaway": "yes", "addr:full": "1043 East Summit Avenue", "addr:city": "Oconomowoc", "addr:state": "Wisconsin", "addr:postcode": "53066", "addr:country": "US", "name": "Bruegger's Bagels Oconomowoc", "phone": "(262) 569-8043", "website": "https://locations.brueggers.com/us/wi/oconomowoc/1043-east-summit-avenue", "opening_hours": "Mo-Su 06:00-02:00", "brand": "Bruegger's", "brand:wikidata": "Q4978656", "nsi_id": "brueggersbagels-4d2ff4"}, "geometry": {"type": "Point", "coordinates": [-88.48182889814757, 43.09555573927564]}},
{"type": "Feature", "id": "TAFoo5v7LPmqJMdHBeRQ18rmKwc=", "properties": {"ref": "2000-cecil-ashburn-drive-se", "@spider": "brueggers", "amenity": "fast_food", "cuisine": "bagel", "short_name": "Bruegger's", "takeaway": "yes", "addr:full": "2000 Cecil Ashburn Drive SE Suite 101", "addr:city": "Huntsville", "addr:state": "Alabama", "addr:postcode": "35802", "addr:country": "US", "name": "Bruegger's Bagels Bailey Cove", "phone": "(256) 650-3755", "website": "https://locations.brueggers.com/us/al/huntsville/2000-cecil-ashburn-drive-se", "opening_hours": "Mo-Sa 06:00-02:00; Su 07:00-02:00", "brand": "Bruegger's", "brand:wikidata": "Q4978656", "nsi_id": "brueggersbagels-4d2ff4"}, "geometry": {"type": "Point", "coordinates": [-86.53860658407211, 34.671374784997376]}},
{"type": "Feature", "id": "yZeNpVlZPVIrknKJ581P0AXg04o=", "properties": {"ref": "8140-s-houghton-road", "@spider": "brueggers", "amenity": "fast_food", "cuisine": "bagel", "short_name": "Bruegger's", "takeaway": "yes", "addr:full": "8140 S Houghton Road Concourse B", "addr:city": "Tucson", "addr:state": "Arizona", "addr:postcode": "85747", "addr:country": "US", "name": "Bruegger's Bagels The Shoppes at Rita Ranch", "phone": "(520) 664-1600", "website": "https://locations.brueggers.com/us/az/tucson/8140-s-houghton-road", "opening_hours": "Mo-Su 05:30-03:00", "brand": "Bruegger's", "brand:wikidata": "Q4978656", "nsi_id": "brueggersbagels-4d2ff4"}, "geometry": {"type": "Point", "coordinates": [-110.77468916773796, 32.103901477376084]}},
{"type": "Feature", "id": "2izW0qfofjM58QMLTcLwtL4vOnk=", "properties": {"ref": "7250-s-tucson-blvd", "@spider": "brueggers", "amenity": "fast_food", "cuisine": "bagel", "short_name": "Bruegger's", "takeaway": "yes", "addr:full": "7250 S Tucson Blvd Concourse B", "addr:city": "Tucson", "addr:state": "Arizona", "addr:postcode": "85756", "addr:country": "US", "name": "Bruegger's Bagels Tucson Airport - Concourse B", "phone": "(888) 822-5379", "website": "https://locations.brueggers.com/us/az/tucson/7250-s-tucson-blvd", "opening_hours": "Mo-Su 04:00-04:00", "brand": "Bruegger's", "brand:wikidata": "Q4978656", "nsi_id": "brueggersbagels-4d2ff4"}, "geometry": {"type": "Point", "coordinates": [-110.937326, 32.120306]}},
{"type": "Feature", "id": "qUpkp3OKkIOEUTtyj8Bjzmv_pxQ=", "properties": {"ref": "7005-miami-ave", "@spider": "brueggers", "amenity": "fast_food", "cuisine": "bagel", "short_name": "Bruegger's", "takeaway": "yes", "addr:full": "7005 Miami Ave", "addr:city": "Cincinnati", "addr:state": "Ohio", "addr:postcode": "45243", "addr:country": "US", "name": "Bruegger's Bagels Madeira Crossing", "phone": "(513) 272-1101", "website": "https://locations.brueggers.com/us/oh/cincinnati/7005-miami-ave", "opening_hours": "Mo-Su 06:00-02:00", "brand": "Bruegger's", "brand:wikidata": "Q4978656", "nsi_id": "brueggersbagels-4d2ff4"}, "geometry": {"type": "Point", "coordinates": [-84.3635499, 39.1883414]}},
{"type": "Feature", "id": "9n-J0r0DMh2F5i1JW4SI9iVDGLc=", "properties": {"ref": "3842-paxton-rd", "@spider": "brueggers", "amenity": "fast_food", "cuisine": "bagel", "short_name": "Bruegger's", "takeaway": "yes", "addr:full": "3842 Paxton Rd", "addr:city": "Cincinnati", "addr:state": "Ohio", "addr:postcode": "45209", "addr:country": "US", "name": "Bruegger's Bagels Hyde Park", "phone": "(513) 533-0900", "website": "https://locations.brueggers.com/us/oh/cincinnati/3842-paxton-rd", "opening_hours": "Mo-Su 06:00-02:00", "brand": "Bruegger's", "brand:wikidata": "Q4978656", "nsi_id": "brueggersbagels-4d2ff4"}, "geometry": {"type": "Point", "coordinates": [-84.42725168220903, 39.14609375562471]}},
{"type": "Feature", "id": "5tq8G5m8jt7L3N-jAz3WqGHzX9k=", "properties": {"ref": "3515-columbia-parkway", "@spider": "brueggers", "amenity": "fast_food", "cuisine": "bagel", "short_name": "Bruegger's", "takeaway": "yes", "addr:full": "3515 Columbia Parkway", "addr:city": "Cincinnati", "addr:state": "Ohio", "addr:postcode": "45226", "addr:country": "US", "name": "Bruegger's Bagels Columbia Square", "phone": "(513) 321-4400", "website": "https://locations.brueggers.com/us/oh/cincinnati/3515-columbia-parkway", "opening_hours": "Mo-Su 07:00-01:00", "brand": "Bruegger's", "brand:wikidata": "Q4978656", "nsi_id": "brueggersbagels-4d2ff4"}, "geometry": {"type": "Point", "coordinates": [-84.43827781349182, 39.116482025818364]}},
{"type": "Feature", "id": "SDMYD7Lg-prJDC-hvPpM2QoWzBM=", "properties": {"ref": "3317-clifton-ave", "@spider": "brueggers", "amenity": "fast_food", "cuisine": "bagel", "short_name": "Bruegger's", "takeaway": "yes", "addr:full": "3317 Clifton Ave Concourse B", "addr:city": "Cincinnati", "addr:state": "Ohio", "addr:postcode": "45220", "addr:country": "US", "name": "Bruegger's Bagels Clifton", "phone": "(513) 221-2243", "website": "https://locations.brueggers.com/us/oh/cincinnati/3317-clifton-ave", "opening_hours": "Mo-Su 06:00-02:00", "brand": "Bruegger's", "brand:wikidata": "Q4978656", "nsi_id": "brueggersbagels-4d2ff4"}, "geometry": {"type": "Point", "coordinates": [-84.5196179, 39.1419051]}},
{"type": "Feature", "id": "DROVoC6CT92G2x1zA59zyIN9Rz4=", "properties": {"ref": "806-south-aiken-ave", "@spider": "brueggers", "amenity": "fast_food", "cuisine": "bagel", "short_name": "Bruegger's", "takeaway": "yes", "addr:full": "806 South Aiken Ave", "addr:city": "Pittsburgh", "addr:state": "Pennsylvania", "addr:postcode": "15232", "addr:country": "US", "name": "Bruegger's Bagels Shadyside", "phone": "(412) 621-2335", "website": "https://locations.brueggers.com/us/pa/pittsburgh/806-south-aiken-ave", "opening_hours": "Mo-Su 06:00-02:00", "brand": "Bruegger's", "brand:wikidata": "Q4978656", "nsi_id": "brueggersbagels-4d2ff4"}, "geometry": {"type": "Point", "coordinates": [-79.9357315, 40.4507495]}},
{"type": "Feature", "id": "ssOfX0RrBkjSibuH-bK2hQ2GF-Q=", "properties": {"ref": "531-grant-st", "@spider": "brueggers", "amenity": "fast_food", "cuisine": "bagel", "short_name": "Bruegger's", "takeaway": "yes", "addr:full": "531 Grant St", "addr:city": "Pittsburgh", "addr:state": "Pennsylvania", "addr:postcode": "15219", "addr:country": "US", "name": "Bruegger's Bagels and Jamba Juice Grant Street", "phone": "(412) 471-9249", "website": "https://locations.brueggers.com/us/pa/pittsburgh/531-grant-st", "opening_hours": "Mo-Su 06:00-02:00", "brand": "Bruegger's", "brand:wikidata": "Q4978656", "nsi_id": "brueggersbagels-4d2ff4"}, "geometry": {"type": "Point", "coordinates": [-79.9964758, 40.4402542]}},
{"type": "Feature", "id": "wZ2ROWwXSAUNL0tUSFvl21wux3A=", "properties": {"ref": "4885-mcknight-rd", "@spider": "brueggers", "amenity": "fast_food", "cuisine": "bagel", "short_name": "Bruegger's", "takeaway": "yes", "addr:full": "4885 McKnight Rd", "addr:city": "Pittsburgh", "addr:state": "Pennsylvania", "addr:postcode": "15237", "addr:country": "US", "name": "Bruegger's Bagels McKnight/Siebert", "phone": "(412) 369-7138", "website": "https://locations.brueggers.com/us/pa/pittsburgh/4885-mcknight-rd", "opening_hours": "Mo-Su 06:00-02:00", "brand": "Bruegger's", "brand:wikidata": "Q4978656", "nsi_id": "brueggersbagels-4d2ff4"}, "geometry": {"type": "Point", "coordinates": [-80.01041991170882, 40.529948484622054]}},
{"type": "Feature", "id": "YI7V63QW8WNLOZG27-QgZr4sibU=", "properties": {"ref": "429-4th-ave", "@spider": "brueggers", "amenity": "fast_food", "cuisine": "bagel", "short_name": "Bruegger's", "takeaway": "yes", "addr:full": "429 4th Ave", "addr:city": "Pittsburgh", "addr:state": "Pennsylvania", "addr:postcode": "15219", "addr:country": "US", "name": "Bruegger's Bagels 4th Ave", "phone": "(412) 434-0188", "website": "https://locations.brueggers.com/us/pa/pittsburgh/429-4th-ave", "opening_hours": "Mo-Fr 06:00-02:00", "brand": "Bruegger's", "brand:wikidata": "Q4978656", "nsi_id": "brueggersbagels-4d2ff4"}, "geometry": {"type": "Point", "coordinates": [-79.99847173690796, 40.43849706461744]}},
{"type": "Feature", "id": "sxXxOdla8cd244AJMrmThwUGfzs=", "properties": {"ref": "1801-east-carson-street", "@spider": "brueggers", "amenity": "fast_food", "cuisine": "bagel", "short_name": "Bruegger's", "takeaway": "yes", "addr:full": "1801 East Carson Street", "addr:city": "Pittsburgh", "addr:state": "Pennsylvania", "addr:postcode": "15203", "addr:country": "US", "name": "Bruegger's Bagels Southside", "phone": "(412) 381-2833", "website": "https://locations.brueggers.com/us/pa/pittsburgh/1801-east-carson-street", "opening_hours": "Mo-Su 06:00-02:00", "brand": "Bruegger's", "brand:wikidata": "Q4978656", "nsi_id": "brueggersbagels-4d2ff4"}, "geometry": {"type": "Point", "coordinates": [-79.98034939169884, 40.42895981799445]}},
{"type": "Feature", "id": "z3ZVfNc5g_CdiCP4CRIrGkNfr2Q=", "properties": {"ref": "1719-murray-ave", "@spider": "brueggers", "amenity": "fast_food", "cuisine": "bagel", "short_name": "Bruegger's", "takeaway": "yes", "addr:full": "1719 Murray Ave", "addr:city": "Pittsburgh", "addr:state": "Pennsylvania", "addr:postcode": "15217", "addr:country": "US", "name": "Bruegger's Bagels Murray Avenue/Squirrel Hill", "phone": "(412) 422-2814", "website": "https://locations.brueggers.com/us/pa/pittsburgh/1719-murray-ave", "opening_hours": "Mo-Su 06:00-02:00", "brand": "Bruegger's", "brand:wikidata": "Q4978656", "nsi_id": "brueggersbagels-4d2ff4"}, "geometry": {"type": "Point", "coordinates": [-79.9227207899093, 40.43742530195143]}},
{"type": "Feature", "id": "NM2Q5Tp8QJ6co9UM4tU1vROKYXM=", "properties": {"ref": "1644-cochran-rd", "@spider": "brueggers", "amenity": "fast_food", "cuisine": "bagel", "short_name": "Bruegger's", "takeaway": "yes", "addr:full": "1644 Cochran Rd", "addr:city": "Pittsburgh", "addr:state": "Pennsylvania", "addr:postcode": "15220", "addr:country": "US", "name": "Bruegger's Bagels Cochran Rd", "phone": "(412) 561-5560", "website": "https://locations.brueggers.com/us/pa/pittsburgh/1644-cochran-rd", "opening_hours": "Mo-Su 06:00-02:00", "brand": "Bruegger's", "brand:wikidata": "Q4978656", "nsi_id": "brueggersbagels-4d2ff4"}, "geometry": {"type": "Point", "coordinates": [-80.06158411502832, 40.39252760609029]}},
{"type": "Feature", "id": "iS6MMlcyr99sIepNRWtKBHYViN0=", "properties": {"ref": "1000-airport-blvd", "@spider": "brueggers", "amenity": "fast_food", "cuisine": "bagel", "short_name": "Bruegger's", "takeaway": "yes", "addr:full": "1000 Airport Blvd Space SE, 10A/B", "addr:city": "Pittsburgh", "addr:state": "Pennsylvania", "addr:postcode": "15231", "addr:country": "US", "name": "Bruegger's Bagels Pittsburgh Airport - Concourse B", "phone": "(412) 472-0693", "website": "https://locations.brueggers.com/us/pa/pittsburgh/1000-airport-blvd", "opening_hours": "Mo-Su 05:00-08:00", "brand": "Bruegger's", "brand:wikidata": "Q4978656", "nsi_id": "brueggersbagels-4d2ff4"}, "geometry": {"type": "Point", "coordinates": [-80.2448517, 40.4945048]}},
{"type": "Feature", "id": "SSgnr40Gdex0DLDqdkGgtPvF-es=", "properties": {"ref": "7127-east-tanque-verde", "@spider": "brueggers", "amenity": "fast_food", "cuisine": "bagel", "short_name": "Bruegger's", "takeaway": "yes", "addr:full": "7127 East Tanque Verde", "addr:city": "Tucson", "addr:state": "Arizona", "addr:postcode": "85715", "addr:country": "US", "name": "Bruegger's Bagels Tanque Verde", "phone": "(520) 885-0123", "website": "https://locations.brueggers.com/us/az/tucson/7127-east-tanque-verde", "opening_hours": "Mo-Su 05:30-03:00", "brand": "Bruegger's", "brand:wikidata": "Q4978656", "nsi_id": "brueggersbagels-4d2ff4"}, "geometry": {"type": "Point", "coordinates": [-110.83987623453146, 32.252372143540896]}},
{"type": "Feature", "id": "lZjid1e1CpSU6RHhtzActtAakb0=", "properties": {"ref": "6165-east-broadway-blvd", "@spider": "brueggers", "amenity": "fast_food", "cuisine": "bagel", "short_name": "Bruegger's", "takeaway": "yes", "addr:full": "6165 East Broadway Blvd", "addr:city": "Tucson", "addr:state": "Arizona", "addr:postcode": "85711", "addr:country": "US", "name": "Bruegger's Bagels East Broadway Boulevard", "phone": "(520) 745-0800", "website": "https://locations.brueggers.com/us/az/tucson/6165-east-broadway-blvd", "opening_hours": "Mo-Su 05:30-03:00", "brand": "Bruegger's", "brand:wikidata": "Q4978656", "nsi_id": "brueggersbagels-4d2ff4"}, "geometry": {"type": "Point", "coordinates": [-110.86048230528837, 32.22196053953856]}},
{"type": "Feature", "id": "Mbl38HDONYrXA-n1GknGgMZBT9M=", "properties": {"ref": "5665-north-swan-rd", "@spider": "brueggers", "amenity": "fast_food", "cuisine": "bagel", "short_name": "Bruegger's", "takeaway": "yes", "addr:full": "5665 North Swan Rd", "addr:city": "Tucson", "addr:state": "Arizona", "addr:postcode": "85718", "addr:country": "US", "name": "Bruegger's Bagels Swan & Sunrise", "phone": "(520) 529-7424", "website": "https://locations.brueggers.com/us/az/tucson/5665-north-swan-rd", "opening_hours": "Mo-Su 05:30-03:00", "brand": "Bruegger's", "brand:wikidata": "Q4978656", "nsi_id": "brueggersbagels-4d2ff4"}, "geometry": {"type": "Point", "coordinates": [-110.89318111538893, 32.30948620116492]}},
{"type": "Feature", "id": "IlgjFcz7YWUhMe8VbXzVGOen9qA=", "properties": {"ref": "3843-east-broadway-blvd", "@spider": "brueggers", "amenity": "fast_food", "cuisine": "bagel", "short_name": "Bruegger's", "takeaway": "yes", "addr:full": "3843 East Broadway Blvd", "addr:city": "Tucson", "addr:state": "Arizona", "addr:postcode": "85716", "addr:country": "US", "name": "Bruegger's Bagels San Clemente", "phone": "(520) 323-0033", "website": "https://locations.brueggers.com/us/az/tucson/3843-east-broadway-blvd", "opening_hours": "Mo-Su 05:30-03:00", "brand": "Bruegger's", "brand:wikidata": "Q4978656", "nsi_id": "brueggersbagels-4d2ff4"}, "geometry": {"type": "Point", "coordinates": [-110.91008439660072, 32.22190750371469]}},
{"type": "Feature", "id": "qHJx4N3JikG5LdKnVW1kuy3uBKs=", "properties": {"ref": "11165-north-la-canada", "@spider": "brueggers", "amenity": "fast_food", "cuisine": "bagel", "short_name": "Bruegger's", "takeaway": "yes", "addr:full": "11165 North La Canada Suite 161", "addr:city": "Tucson", "addr:state": "Arizona", "addr:postcode": "85737", "addr:country": "US", "name": "Bruegger's Bagels La Canada", "phone": "(520) 575-0651", "website": "https://locations.brueggers.com/us/az/tucson/11165-north-la-canada", "opening_hours": "Mo-Sa 05:30-04:00; Su 05:30-03:00", "brand": "Bruegger's", "brand:wikidata": "Q4978656", "nsi_id": "brueggersbagels-4d2ff4"}, "geometry": {"type": "Point", "coordinates": [-110.9962886, 32.4093023]}},
{"type": "Feature", "id": "wlCPTcBjL7SMtz2fs26XhiWkfow=", "properties": {"ref": "1064-n-campbell-avenue", "@spider": "brueggers", "amenity": "fast_food", "cuisine": "bagel", "short_name": "Bruegger's", "takeaway": "yes", "addr:full": "1064 N Campbell Avenue", "addr:city": "Tucson", "addr:state": "Arizona", "addr:postcode": "85719", "addr:country": "US", "name": "Bruegger's Bagels Campbell", "phone": "(520) 325-4567", "website": "https://locations.brueggers.com/us/az/tucson/1064-n-campbell-avenue", "opening_hours": "Mo-Fr 05:30-03:00; Sa 05:30-04:00; Su 05:30-03:00", "brand": "Bruegger's", "brand:wikidata": "Q4978656", "nsi_id": "brueggersbagels-4d2ff4"}, "geometry": {"type": "Point", "coordinates": [-110.94360262155533, 32.23526710201354]}},
{"type": "Feature", "id": "FxeWvIQru1uIayq95xBxumOffpg=", "properties": {"ref": "22361-antonio-parkway", "@spider": "brueggers", "amenity": "fast_food", "cuisine": "bagel", "short_name": "Bruegger's", "takeaway": "yes", "addr:full": "22361 Antonio Parkway E110", "addr:city": "Rancho Santa Margarita", "addr:state": "California", "addr:postcode": "92688", "addr:country": "US", "name": "Bruegger's Bagels Ranch Santa Margarita", "phone": "(949) 589-1790", "website": "https://locations.brueggers.com/us/ca/rancho-santa-margarita/22361-antonio-parkway", "opening_hours": "Mo-Fr 05:30-02:30; Sa 06:00-03:00; Su 07:00-03:00", "brand": "Bruegger's", "brand:wikidata": "Q4978656", "nsi_id": "brueggersbagels-4d2ff4"}, "geometry": {"type": "Point", "coordinates": [-117.59059265255928, 33.63806203069287]}},
{"type": "Feature", "id": "fUh2hWeG6oGDtSjq7evVOK4Ax5A=", "properties": {"ref": "4678-campus-drive", "@spider": "brueggers", "amenity": "fast_food", "cuisine": "bagel", "short_name": "Bruegger's", "takeaway": "yes", "addr:full": "4678 Campus Drive Suite 3E", "addr:city": "Newport Beach", "addr:state": "California", "addr:postcode": "92660", "addr:country": "US", "name": "Bruegger's Bagels Newport Beach", "phone": "(949) 852-9480", "website": "https://locations.brueggers.com/us/ca/newport-beach/4678-campus-drive", "opening_hours": "Mo-Fr 05:30-03:00; Sa 06:00-02:00; Su 07:00-02:00", "brand": "Bruegger's", "brand:wikidata": "Q4978656", "nsi_id": "brueggersbagels-4d2ff4"}, "geometry": {"type": "Point", "coordinates": [-117.86468625068665, 33.67124705217729]}},
{"type": "Feature", "id": "5Tj-QVfHt1Q4XioLbB3Hsuh2q5s=", "properties": {"ref": "27702-crown-valley-parkway", "@spider": "brueggers", "amenity": "fast_food", "cuisine": "bagel", "short_name": "Bruegger's", "takeaway": "yes", "addr:full": "27702 Crown Valley Parkway F3", "addr:city": "Ladera Ranch", "addr:state": "California", "addr:postcode": "92694", "addr:country": "US", "name": "Bruegger's Bagels Ladera Ranch", "phone": "(949) 347-2470", "website": "https://locations.brueggers.com/us/ca/ladera-ranch/27702-crown-valley-parkway", "opening_hours": "Mo-Fr 05:30-02:30; Sa 06:00-03:00; Su 06:30-03:00", "brand": "Bruegger's", "brand:wikidata": "Q4978656", "nsi_id": "brueggersbagels-4d2ff4"}, "geometry": {"type": "Point", "coordinates": [-117.646995, 33.56328947003899]}},
{"type": "Feature", "id": "p8TsDxF-HgKaOr1sEPgqk56Xpug=", "properties": {"ref": "2743-e-pacific-coast-highway", "@spider": "brueggers", "amenity": "fast_food", "cuisine": "bagel", "short_name": "Bruegger's", "takeaway": "yes", "addr:full": "2743 E Pacific Coast Highway Suite 3E", "addr:city": "Corona Del Mar", "addr:state": "California", "addr:postcode": "92625", "addr:country": "US", "name": "Bruegger's Bagels Corona Del Mar", "phone": "(949) 723-4485", "website": "https://locations.brueggers.com/us/ca/corona-del-mar/2743-e-pacific-coast-highway", "opening_hours": "Mo-Fr 06:00-03:00; Sa 06:30-02:30; Su 07:00-02:30", "brand": "Bruegger's", "brand:wikidata": "Q4978656", "nsi_id": "brueggersbagels-4d2ff4"}, "geometry": {"type": "Point", "coordinates": [-117.8729085624218, 33.60097595070793]}},
{"type": "Feature", "id": "f22uaYM_GLg4P73nEAypoOrHsmg=", "properties": {"ref": "7680-el-camino-real", "@spider": "brueggers", "amenity": "fast_food", "cuisine": "bagel", "short_name": "Bruegger's", "takeaway": "yes", "addr:full": "7680 El Camino Real 102", "addr:city": "Carlsbad", "addr:state": "California", "addr:postcode": "92009", "addr:country": "US", "name": "Bruegger's Bagels La Costa", "phone": "(760) 652-5075", "website": "https://locations.brueggers.com/us/ca/carlsbad/7680-el-camino-real", "opening_hours": "Mo-Th 05:30-03:00; Fr 06:00-03:00; Sa-Su 06:00-03:30", "brand": "Bruegger's", "brand:wikidata": "Q4978656", "nsi_id": "brueggersbagels-4d2ff4"}, "geometry": {"type": "Point", "coordinates": [-117.26825684309006, 33.08591786866291]}},
{"type": "Feature", "id": "nPVPuGfvH-FJdnwpXKBwA7wKzME=", "properties": {"ref": "2435-e-imperial-hwy", "@spider": "brueggers", "amenity": "fast_food", "cuisine": "bagel", "short_name": "Bruegger's", "takeaway": "yes", "addr:full": "2435 E Imperial Hwy Suite 3E", "addr:city": "Brea", "addr:state": "California", "addr:postcode": "92821", "addr:country": "US", "name": "Bruegger's Bagels Imperial", "phone": "(714) 529-6492", "website": "https://locations.brueggers.com/us/ca/brea/2435-e-imperial-hwy", "opening_hours": "Mo-Fr 05:30-02:30; Sa 06:00-03:00; Su 07:00-03:00", "brand": "Bruegger's", "brand:wikidata": "Q4978656", "nsi_id": "brueggersbagels-4d2ff4"}, "geometry": {"type": "Point", "coordinates": [-117.8675555, 33.9114487]}},
{"type": "Feature", "id": "-eZJzVL4RsN3M33IjOX_SYJws_8=", "properties": {"ref": "26921-aliso-creek-road", "@spider": "brueggers", "amenity": "fast_food", "cuisine": "bagel", "short_name": "Bruegger's", "takeaway": "yes", "addr:full": "26921 Aliso Creek Road F3", "addr:city": "Aliso Viejo", "addr:state": "California", "addr:postcode": "92656", "addr:country": "US", "name": "Bruegger's Bagels Aliso Viejo", "phone": "(949) 360-8217", "website": "https://locations.brueggers.com/us/ca/aliso-viejo/26921-aliso-creek-road", "opening_hours": "Mo-Fr 05:30-03:00; Sa 06:00-03:00; Su 06:30-03:00", "brand": "Bruegger's", "brand:wikidata": "Q4978656", "nsi_id": "brueggersbagels-4d2ff4"}, "geometry": {"type": "Point", "coordinates": [-117.7248634, 33.5710835]}},
{"type": "Feature", "id": "XBb_cIae-8_gDtYpIl3mYLxWM8w=", "properties": {"ref": "2000-s-university-boulevard", "@spider": "brueggers", "amenity": "fast_food", "cuisine": "bagel", "short_name": "Bruegger's", "takeaway": "yes", "addr:full": "2000 S University Boulevard Bank Lofts Building", "addr:city": "Denver", "addr:state": "Colorado", "addr:postcode": "80210", "addr:country": "US", "name": "Bruegger's Bagels Denver University", "phone": "(303) 777-7600", "website": "https://locations.brueggers.com/us/co/denver/2000-s-university-boulevard", "opening_hours": "Mo-Fr 05:30-03:00; Sa 05:30-04:00; Su 05:30-03:00", "brand": "Bruegger's", "brand:wikidata": "Q4978656", "nsi_id": "brueggersbagels-4d2ff4"}, "geometry": {"type": "Point", "coordinates": [-104.95886309325402, 39.679976]}},
{"type": "Feature", "id": "_Esul1Kgzxs6UzYRnW4YwkOhmmE=", "properties": {"ref": "1-s-main-st", "@spider": "brueggers", "amenity": "fast_food", "cuisine": "bagel", "short_name": "Bruegger's", "takeaway": "yes", "addr:full": "1 S Main St Building G", "addr:city": "W Hartford", "addr:state": "Connecticut", "addr:postcode": "06107", "addr:country": "US", "name": "Bruegger's Bagels South Main/W. Hartford", "phone": "(860) 236-9565", "website": "https://locations.brueggers.com/us/ct/w-hartford/1-s-main-st", "opening_hours": "Mo-Su 06:00-02:00", "brand": "Bruegger's", "brand:wikidata": "Q4978656", "nsi_id": "brueggersbagels-4d2ff4"}, "geometry": {"type": "Point", "coordinates": [-72.7424495, 41.7617053]}},
{"type": "Feature", "id": "OZBCNgzCTtHfxM0J57273-hY32o=", "properties": {"ref": "900-c-white-plains-road", "@spider": "brueggers", "amenity": "fast_food", "cuisine": "bagel", "short_name": "Bruegger's", "takeaway": "yes", "addr:full": "900 C White Plains Road Building G", "addr:city": "Trumbull", "addr:state": "Connecticut", "addr:postcode": "06611", "addr:country": "US", "name": "Bruegger's Bagels Trumbull", "phone": "(203) 459-9156", "website": "https://locations.brueggers.com/us/ct/trumbull/900-c-white-plains-road", "opening_hours": "Mo-Su 06:00-02:00", "brand": "Bruegger's", "brand:wikidata": "Q4978656", "nsi_id": "brueggersbagels-4d2ff4"}, "geometry": {"type": "Point", "coordinates": [-73.1961051, 41.2451794]}},
{"type": "Feature", "id": "72NgeQMXbsYEyBDccemWBRwMlkE=", "properties": {"ref": "817-bridgeport-ave", "@spider": "brueggers", "amenity": "fast_food", "cuisine": "bagel", "short_name": "Bruegger's", "takeaway": "yes", "addr:full": "817 Bridgeport Ave Building G", "addr:city": "Shelton", "addr:state": "Connecticut", "addr:postcode": "06484", "addr:country": "US", "name": "Bruegger's Bagels Bridgeport CT/Shelton", "phone": "(203) 925-9377", "website": "https://locations.brueggers.com/us/ct/shelton/817-bridgeport-ave", "opening_hours": "Mo-Su 06:00-02:00", "brand": "Bruegger's", "brand:wikidata": "Q4978656", "nsi_id": "brueggersbagels-4d2ff4"}, "geometry": {"type": "Point", "coordinates": [-73.12913864851004, 41.27004946594558]}},
{"type": "Feature", "id": "D8nJFeAxAYEdE0Y3AUzJbJVuV_g=", "properties": {"ref": "263-275-boston-post-road", "@spider": "brueggers", "amenity": "fast_food", "cuisine": "bagel", "short_name": "Bruegger's", "takeaway": "yes", "addr:full": "263 275 Boston Post Road Building G", "addr:city": "Orange", "addr:state": "Connecticut", "addr:postcode": "06477", "addr:country": "US", "name": "Bruegger's Bagels Crossroads Plaza", "phone": "(475) 209-9170", "website": "https://locations.brueggers.com/us/ct/orange/263-275-boston-post-road", "opening_hours": "Mo-Su 06:00-02:00", "brand": "Bruegger's", "brand:wikidata": "Q4978656", "nsi_id": "brueggersbagels-4d2ff4"}, "geometry": {"type": "Point", "coordinates": [-73.00100606127893, 41.267589207464816]}},
{"type": "Feature", "id": "xtb-4ZDw7zyJwqHhR9izjvdjeN8=", "properties": {"ref": "1-whitney-avenue", "@spider": "brueggers", "amenity": "fast_food", "cuisine": "bagel", "short_name": "Bruegger's", "takeaway": "yes", "addr:full": "1 Whitney Avenue Building G", "addr:city": "New Haven", "addr:state": "Connecticut", "addr:postcode": "06510", "addr:country": "US", "name": "Bruegger's Bagels Whitney Grove/New Haven", "phone": "(203) 773-3199", "website": "https://locations.brueggers.com/us/ct/new-haven/1-whitney-avenue", "opening_hours": "Mo-Su 06:00-02:00", "brand": "Bruegger's", "brand:wikidata": "Q4978656", "nsi_id": "brueggersbagels-4d2ff4"}, "geometry": {"type": "Point", "coordinates": [-72.922367, 41.310519]}},
{"type": "Feature", "id": "P7o6nE4oGI6Qy-6104qPrlIEfKA=", "properties": {"ref": "2801-main-st", "@spider": "brueggers", "amenity": "fast_food", "cuisine": "bagel", "short_name": "Bruegger's", "takeaway": "yes", "addr:full": "2801 Main St Building G", "addr:city": "Glastonbury", "addr:state": "Connecticut", "addr:postcode": "06033", "addr:country": "US", "name": "Bruegger's Bagels Glastonbury", "phone": "(860) 659-4540", "website": "https://locations.brueggers.com/us/ct/glastonbury/2801-main-st", "opening_hours": "Mo-Su 06:00-02:00", "brand": "Bruegger's", "brand:wikidata": "Q4978656", "nsi_id": "brueggersbagels-4d2ff4"}, "geometry": {"type": "Point", "coordinates": [-72.61428930245984, 41.71909597194124]}},
{"type": "Feature", "id": "JlIZt9uKT7atkPjbYJPcd4A95T8=", "properties": {"ref": "2841-west-macarthur-blvd", "@spider": "brueggers", "amenity": "fast_food", "cuisine": "bagel", "short_name": "Bruegger's", "takeaway": "yes", "addr:full": "2841 West Macarthur Blvd Suite 3E", "addr:city": "Santa Ana", "addr:state": "California", "addr:postcode": "92704", "addr:country": "US", "name": "Bruegger's Bagels Macarthur & Fairview", "phone": "(714) 557-3855", "website": "https://locations.brueggers.com/us/ca/santa-ana/2841-west-macarthur-blvd", "opening_hours": "Mo-Fr 05:30-03:00; Sa 06:00-03:00; Su 07:00-03:00", "brand": "Bruegger's", "brand:wikidata": "Q4978656", "nsi_id": "brueggersbagels-4d2ff4"}, "geometry": {"type": "Point", "coordinates": [-117.90736556053162, 33.70094162910661]}},
{"type": "Feature", "id": "ARFAPJ-zfXweoP3pdFeNdaTPc2Y=", "properties": {"ref": "655-west-broadway", "@spider": "brueggers", "amenity": "fast_food", "cuisine": "bagel", "short_name": "Bruegger's", "takeaway": "yes", "addr:full": "655 West Broadway Building 3405", "addr:city": "San Diego", "addr:state": "California", "addr:postcode": "92101", "addr:country": "US", "name": "Bruegger's Bagels Broadway", "phone": "(619) 696-9390", "website": "https://locations.brueggers.com/us/ca/san-diego/655-west-broadway", "opening_hours": "Mo-Fr 06:00-03:00; Sa-Su 06:00-02:30", "brand": "Bruegger's", "brand:wikidata": "Q4978656", "nsi_id": "brueggersbagels-4d2ff4"}, "geometry": {"type": "Point", "coordinates": [-117.1685772, 32.715485]}},
{"type": "Feature", "id": "quUG8VURgCbTKZ81WKq5YB-Cneo=", "properties": {"ref": "3705-norman-scott-rd", "@spider": "brueggers", "amenity": "fast_food", "cuisine": "bagel", "short_name": "Bruegger's", "takeaway": "yes", "addr:full": "3705 Norman Scott Rd Building 3631", "addr:city": "San Diego", "addr:state": "California", "addr:postcode": "92136", "addr:country": "US", "name": "Bruegger's Bagels San Diego Naval Base (Kiosk)", "phone": "(619) 232-2700", "website": "https://locations.brueggers.com/us/ca/san-diego/3705-norman-scott-rd", "opening_hours": "Mo-Fr 05:00-01:30; Sa-Su 05:00-01:00", "brand": "Bruegger's", "brand:wikidata": "Q4978656", "nsi_id": "brueggersbagels-4d2ff4"}, "geometry": {"type": "Point", "coordinates": [-117.12084106994052, 32.68702499999999]}},
{"type": "Feature", "id": "8hGiBprqRDhdSsiyEkVAWJ99J-E=", "properties": {"ref": "2850-robertson-st", "@spider": "brueggers", "amenity": "fast_food", "cuisine": "bagel", "short_name": "Bruegger's", "takeaway": "yes", "addr:full": "2850 Robertson St Building 3405", "addr:city": "San Diego", "addr:state": "California", "addr:postcode": "92136", "addr:country": "US", "name": "Bruegger's Bagels San Diego Naval Base", "phone": "(619) 232-1500", "website": "https://locations.brueggers.com/us/ca/san-diego/2850-robertson-st", "opening_hours": "Mo-Fr 05:00-01:30; Sa-Su 05:00-01:00", "brand": "Bruegger's", "brand:wikidata": "Q4978656", "nsi_id": "brueggersbagels-4d2ff4"}, "geometry": {"type": "Point", "coordinates": [-117.12554655969143, 32.68297857310517]}},
{"type": "Feature", "id": "QrVSqs7azAxfJ44dOW8fWzFRI84=", "properties": {"ref": "1886-garnet-avenue", "@spider": "brueggers", "amenity": "fast_food", "cuisine": "bagel", "short_name": "Bruegger's", "takeaway": "yes", "addr:full": "1886 Garnet Avenue Building 3631", "addr:city": "San Diego", "addr:state": "California", "addr:postcode": "92109", "addr:country": "US", "name": "Bruegger's Bagels Pacific Beach", "phone": "(858) 273-3836", "website": "https://locations.brueggers.com/us/ca/san-diego/1886-garnet-avenue", "opening_hours": "Mo-Th 05:30-04:00; Fr-Su 06:00-04:00", "brand": "Bruegger's", "brand:wikidata": "Q4978656", "nsi_id": "brueggersbagels-4d2ff4"}, "geometry": {"type": "Point", "coordinates": [-117.23570555448532, 32.80117263204003]}},
{"type": "Feature", "id": "KLluEDjaCGYr5ESIv0y5MtlnPPI=", "properties": {"ref": "3991-irvine-blvd", "@spider": "brueggers", "amenity": "fast_food", "cuisine": "bagel", "short_name": "Bruegger's", "takeaway": "yes", "addr:full": "3991 Irvine Blvd Suite 3E", "addr:city": "Irvine", "addr:state": "California", "addr:postcode": "92602", "addr:country": "US", "name": "Bruegger's Bagels Irvine Northpark", "phone": "(714) 669-1308", "website": "https://locations.brueggers.com/us/ca/irvine/3991-irvine-blvd", "opening_hours": "Mo-Fr 06:30-03:00; Sa 06:30-02:00; Su 08:00-02:00", "brand": "Bruegger's", "brand:wikidata": "Q4978656", "nsi_id": "brueggersbagels-4d2ff4"}, "geometry": {"type": "Point", "coordinates": [-117.77115148917915, 33.72202576062266]}},
{"type": "Feature", "id": "_Ygx2Wc0g_nTTsFQnUC8G3PmxUU=", "properties": {"ref": "15346-alton-parkway", "@spider": "brueggers", "amenity": "fast_food", "cuisine": "bagel", "short_name": "Bruegger's", "takeaway": "yes", "addr:full": "15346 Alton Parkway F3", "addr:city": "Irvine", "addr:state": "California", "addr:postcode": "92612", "addr:country": "US", "name": "Bruegger's Bagels Irvine", "phone": "(949) 788-0800", "website": "https://locations.brueggers.com/us/ca/irvine/15346-alton-parkway", "opening_hours": "Mo-Fr 05:30-02:30; Sa 06:30-02:00; Su 06:30-01:00", "brand": "Bruegger's", "brand:wikidata": "Q4978656", "nsi_id": "brueggersbagels-4d2ff4"}, "geometry": {"type": "Point", "coordinates": [-117.7385562, 33.6543713]}},
{"type": "Feature", "id": "rWf5JfGrxf4FI-ar8Mu3SilO8KA=", "properties": {"ref": "1080-b-street", "@spider": "brueggers", "amenity": "fast_food", "cuisine": "bagel", "short_name": "Bruegger's", "takeaway": "yes", "addr:full": "1080 B Street Building 3631", "addr:city": "San Diego", "addr:state": "California", "addr:postcode": "92101", "addr:country": "US", "name": "Bruegger's Bagels B Street", "phone": "(619) 546-8060", "website": "https://locations.brueggers.com/us/ca/san-diego/1080-b-street", "opening_hours": "Mo-Su 06:00-02:00", "brand": "Bruegger's", "brand:wikidata": "Q4978656", "nsi_id": "brueggersbagels-4d2ff4"}, "geometry": {"type": "Point", "coordinates": [-117.15506091713905, 32.71797484170451]}},
{"type": "Feature", "id": "YuX42bovvJSQf9lzfg-eFzFZiV4=", "properties": {"ref": "10625-scripps-poway-parkway", "@spider": "brueggers", "amenity": "fast_food", "cuisine": "bagel", "short_name": "Bruegger's", "takeaway": "yes", "addr:full": "10625 Scripps Poway Parkway Suite B", "addr:city": "San Diego", "addr:state": "California", "addr:postcode": "92131", "addr:country": "US", "name": "Bruegger's Bagels Scripps Ranch", "phone": "(858) 577-0300", "website": "https://locations.brueggers.com/us/ca/san-diego/10625-scripps-poway-parkway", "opening_hours": "Mo-Su 06:00-02:00", "brand": "Bruegger's", "brand:wikidata": "Q4978656", "nsi_id": "brueggersbagels-4d2ff4"}, "geometry": {"type": "Point", "coordinates": [-117.09922805428505, 32.935651284442926]}},
{"type": "Feature", "id": "P-J_-gND26oGfn5fQjt57ELt6Ng=", "properties": {"ref": "2262-17th-street-e", "@spider": "brueggers", "amenity": "fast_food", "cuisine": "bagel", "short_name": "Bruegger's", "takeaway": "yes", "addr:full": "2262 17th Street E Suite 3E", "addr:city": "Santa Ana", "addr:state": "California", "addr:postcode": "92705", "addr:country": "US", "name": "Bruegger's Bagels 17th & Tustin", "phone": "(714) 547-5369", "website": "https://locations.brueggers.com/us/ca/santa-ana/2262-17th-street-e", "opening_hours": "Mo-Fr 06:00-02:30; Sa-Su 07:00-02:30", "brand": "Bruegger's", "brand:wikidata": "Q4978656", "nsi_id": "brueggersbagels-4d2ff4"}, "geometry": {"type": "Point", "coordinates": [-117.83463478088379, 33.75841124467026]}},
{"type": "Feature", "id": "6a9lYnX5CW-6q0_SH_LMX-eUdF8=", "properties": {"ref": "45-e-main-st", "@spider": "brueggers", "amenity": "fast_food", "cuisine": "bagel", "short_name": "Bruegger's", "takeaway": "yes", "addr:full": "45 E Main St Building G", "addr:city": "Avon", "addr:state": "Connecticut", "addr:postcode": "06001", "addr:country": "US", "name": "Bruegger's Bagels Avon", "phone": "(860) 674-1755", "website": "https://locations.brueggers.com/us/ct/avon/45-e-main-st", "opening_hours": "Mo-Su 06:00-02:00", "brand": "Bruegger's", "brand:wikidata": "Q4978656", "nsi_id": "brueggersbagels-4d2ff4"}, "geometry": {"type": "Point", "coordinates": [-72.82739818096167, 41.807357068484286]}},
{"type": "Feature", "id": "h__JzPnk65KlrwVVeRnpJb051ec=", "properties": {"ref": "3730-ingersoll-ave", "@spider": "brueggers", "amenity": "fast_food", "cuisine": "bagel", "short_name": "Bruegger's", "takeaway": "yes", "addr:full": "3730 Ingersoll Ave", "addr:city": "Des Moines", "addr:state": "Iowa", "addr:postcode": "50312", "addr:country": "US", "name": "Bruegger's Bagels Ingersoll", "phone": "(515) 277-4030", "website": "https://locations.brueggers.com/us/ia/des-moines/3730-ingersoll-ave", "opening_hours": "Mo-Su 06:00-02:00", "brand": "Bruegger's", "brand:wikidata": "Q4978656", "nsi_id": "brueggersbagels-4d2ff4"}, "geometry": {"type": "Point", "coordinates": [-93.66808712482447, 41.58609452956147]}},
{"type": "Feature", "id": "bZZUnpErxIEoVGOqcYFS7yxC4MI=", "properties": {"ref": "404-1st-avenue", "@spider": "brueggers", "amenity": "fast_food", "cuisine": "bagel", "short_name": "Bruegger's", "takeaway": "yes", "addr:full": "404 1st Avenue", "addr:city": "Coralville", "addr:state": "Iowa", "addr:postcode": "52241", "addr:country": "US", "name": "Bruegger's Bagels Coralville", "phone": "(319) 337-2243", "website": "https://locations.brueggers.com/us/ia/coralville/404-1st-avenue", "opening_hours": "Mo-Su 06:00-02:00", "brand": "Bruegger's", "brand:wikidata": "Q4978656", "nsi_id": "brueggersbagels-4d2ff4"}, "geometry": {"type": "Point", "coordinates": [-91.56581461429602, 41.672747533785554]}},
{"type": "Feature", "id": "EKmZ893M5m2KphAbiPkd-Gf_EBE=", "properties": {"ref": "1650-86th-st-nw", "@spider": "brueggers", "amenity": "fast_food", "cuisine": "bagel", "short_name": "Bruegger's", "takeaway": "yes", "addr:full": "1650 86th St, NW", "addr:city": "Clive", "addr:state": "Iowa", "addr:postcode": "50325", "addr:country": "US", "name": "Bruegger's Bagels Clive", "phone": "(515) 225-4444", "website": "https://locations.brueggers.com/us/ia/clive/1650-86th-st-nw", "opening_hours": "Mo-Su 06:00-02:00", "brand": "Bruegger's", "brand:wikidata": "Q4978656", "nsi_id": "brueggersbagels-4d2ff4"}, "geometry": {"type": "Point", "coordinates": [-93.73671144247055, 41.606291625227506]}},
{"type": "Feature", "id": "qd4uKJWdvTa_yEJ61IOpjgH0p9s=", "properties": {"ref": "1503-kimberly-road", "@spider": "brueggers", "amenity": "fast_food", "cuisine": "bagel", "short_name": "Bruegger's", "takeaway": "yes", "addr:full": "1503 Kimberly Road", "addr:city": "Bettendorf", "addr:state": "Iowa", "addr:postcode": "52722", "addr:country": "US", "name": "Bruegger's Bagels Duck Creek", "phone": "(563) 359-4540", "website": "https://locations.brueggers.com/us/ia/bettendorf/1503-kimberly-road", "opening_hours": "Mo-Su 06:00-02:00", "brand": "Bruegger's", "brand:wikidata": "Q4978656", "nsi_id": "brueggersbagels-4d2ff4"}, "geometry": {"type": "Point", "coordinates": [-90.52184253931046, 41.53816308601708]}},
{"type": "Feature", "id": "wvusUmWTIodLD0zAk-E5B7gTqzw=", "properties": {"ref": "3087-terminal-drive", "@spider": "brueggers", "amenity": "fast_food", "cuisine": "bagel", "short_name": "Bruegger's", "takeaway": "yes", "addr:full": "3087 Terminal Drive Concourse B", "addr:city": "Hebron", "addr:state": "Kentucky", "addr:postcode": "41048", "addr:country": "US", "name": "Bruegger's Bagels Cincinnati/Northern Kentucky Airport - Concourse B Food Court", "phone": "(859) 767-5812", "website": "https://locations.brueggers.com/us/ky/hebron/3087-terminal-drive", "opening_hours": "Mo-Su 05:00-01:00", "brand": "Bruegger's", "brand:wikidata": "Q4978656", "nsi_id": "brueggersbagels-4d2ff4"}, "geometry": {"type": "Point", "coordinates": [-84.65592435980227, 39.050039321708546]}},
{"type": "Feature", "id": "Y-qzS-ohIytWf51GYbVIWSROnrs=", "properties": {"ref": "31-center-st", "@spider": "brueggers", "amenity": "fast_food", "cuisine": "bagel", "short_name": "Bruegger's", "takeaway": "yes", "addr:full": "31 Center St", "addr:city": "Weston", "addr:state": "Massachusetts", "addr:postcode": "02493", "addr:country": "US", "name": "Bruegger's Bagels Weston", "phone": "(781) 642-0308", "website": "https://locations.brueggers.com/us/ma/weston/31-center-st", "brand": "Bruegger's", "brand:wikidata": "Q4978656", "nsi_id": "brueggersbagels-4d2ff4"}, "geometry": {"type": "Point", "coordinates": [-71.30084842443466, 42.366701298592375]}},
{"type": "Feature", "id": "UOKycvYGgvGGfsxeb8Mq1zcwUIQ=", "properties": {"ref": "360-granite-avenue", "@spider": "brueggers", "amenity": "fast_food", "cuisine": "bagel", "short_name": "Bruegger's", "takeaway": "yes", "addr:full": "360 Granite Avenue", "addr:city": "Milton", "addr:state": "Massachusetts", "addr:postcode": "02186", "addr:country": "US", "name": "Bruegger's Bagels Milton/Granite Avenue", "phone": "(617) 698-6154", "website": "https://locations.brueggers.com/us/ma/milton/360-granite-avenue", "opening_hours": "Mo-Su 06:00-02:00", "brand": "Bruegger's", "brand:wikidata": "Q4978656", "nsi_id": "brueggersbagels-4d2ff4"}, "geometry": {"type": "Point", "coordinates": [-71.04153648018837, 42.259104754191945]}},
{"type": "Feature", "id": "aed445fXYOi_1oAPgVGatdVFhck=", "properties": {"ref": "496-main-street", "@spider": "brueggers", "amenity": "fast_food", "cuisine": "bagel", "short_name": "Bruegger's", "takeaway": "yes", "addr:full": "496 Main Street", "addr:city": "Melrose", "addr:state": "Massachusetts", "addr:postcode": "02176", "addr:country": "US", "name": "Bruegger's Bagels and Jamba Juice Melrose", "phone": "(781) 665-1913", "website": "https://locations.brueggers.com/us/ma/melrose/496-main-street", "opening_hours": "Mo-Su 06:00-02:00", "brand": "Bruegger's", "brand:wikidata": "Q4978656", "nsi_id": "brueggersbagels-4d2ff4"}, "geometry": {"type": "Point", "coordinates": [-71.06549128890043, 42.455259329668785]}},
{"type": "Feature", "id": "Sm0TY0X-_K8ahGvjme9rYPC9Uxc=", "properties": {"ref": "413-waltham-st", "@spider": "brueggers", "amenity": "fast_food", "cuisine": "bagel", "short_name": "Bruegger's", "takeaway": "yes", "addr:full": "413 Waltham St", "addr:city": "Lexington", "addr:state": "Massachusetts", "addr:postcode": "02421", "addr:country": "US", "name": "Bruegger's Bagels Lexington", "phone": "(781) 674-2040", "website": "https://locations.brueggers.com/us/ma/lexington/413-waltham-st", "opening_hours": "Mo-Su 06:00-02:00", "brand": "Bruegger's", "brand:wikidata": "Q4978656", "nsi_id": "brueggersbagels-4d2ff4"}, "geometry": {"type": "Point", "coordinates": [-71.2348473072052, 42.434974814403574]}},
{"type": "Feature", "id": "4iC6UYry8rQkkM_eweJIGm-zstU=", "properties": {"ref": "211-lincoln-street", "@spider": "brueggers", "amenity": "fast_food", "cuisine": "bagel", "short_name": "Bruegger's", "takeaway": "yes", "addr:full": "211 Lincoln Street", "addr:city": "Hingham", "addr:state": "Massachusetts", "addr:postcode": "02043", "addr:country": "US", "name": "Bruegger's Bagels Anchor Plaza/Hingham", "phone": "(781) 740-4871", "website": "https://locations.brueggers.com/us/ma/hingham/211-lincoln-street", "opening_hours": "Mo-Su 06:00-02:00", "brand": "Bruegger's", "brand:wikidata": "Q4978656", "nsi_id": "brueggersbagels-4d2ff4"}, "geometry": {"type": "Point", "coordinates": [-70.9074993, 42.2495968]}},
{"type": "Feature", "id": "NvGwAR5eNnzB5pXJhG85dl8_hfg=", "properties": {"ref": "667-vfw-parkway", "@spider": "brueggers", "amenity": "fast_food", "cuisine": "bagel", "short_name": "Bruegger's", "takeaway": "yes", "addr:full": "667 Vfw Parkway", "addr:city": "Chestnut Hill", "addr:state": "Massachusetts", "addr:postcode": "02467", "addr:country": "US", "name": "Bruegger's Bagels West Roxbury", "phone": "(617) 327-6465", "website": "https://locations.brueggers.com/us/ma/chestnut-hill/667-vfw-parkway", "opening_hours": "Mo-Su 06:00-02:00", "brand": "Bruegger's", "brand:wikidata": "Q4978656", "nsi_id": "brueggersbagels-4d2ff4"}, "geometry": {"type": "Point", "coordinates": [-71.15700960159296, 42.29643504411245]}},
{"type": "Feature", "id": "nIkGiqCgVrVLj6eKUwdhxtZ2FDA=", "properties": {"ref": "253-harvard-st", "@spider": "brueggers", "amenity": "fast_food", "cuisine": "bagel", "short_name": "Bruegger's", "takeaway": "yes", "addr:full": "253 Harvard St", "addr:city": "Brookline", "addr:state": "Massachusetts", "addr:postcode": "02446", "addr:country": "US", "name": "Bruegger's Bagels Brookline", "phone": "(617) 566-3983", "website": "https://locations.brueggers.com/us/ma/brookline/253-harvard-st", "opening_hours": "Mo-Su 06:00-02:00", "brand": "Bruegger's", "brand:wikidata": "Q4978656", "nsi_id": "brueggersbagels-4d2ff4"}, "geometry": {"type": "Point", "coordinates": [-71.12079307436943, 42.341333840295945]}},
{"type": "Feature", "id": "lOR8u31tbsnbHGKKcgUZlFT4k78=", "properties": {"ref": "41-leonard-st", "@spider": "brueggers", "amenity": "fast_food", "cuisine": "bagel", "short_name": "Bruegger's", "takeaway": "yes", "addr:full": "41 Leonard St", "addr:city": "Belmont", "addr:state": "Massachusetts", "addr:postcode": "02478", "addr:country": "US", "name": "Bruegger's Bagels Belmont", "phone": "(617) 484-4655", "website": "https://locations.brueggers.com/us/ma/belmont/41-leonard-st", "opening_hours": "Mo-Su 06:00-02:00", "brand": "Bruegger's", "brand:wikidata": "Q4978656", "nsi_id": "brueggersbagels-4d2ff4"}, "geometry": {"type": "Point", "coordinates": [-71.17536664009094, 42.39706812034727]}},
{"type": "Feature", "id": "X9e3icpwia31H2sftM2lH_sqJck=", "properties": {"ref": "158-k-great-rd", "@spider": "brueggers", "amenity": "fast_food", "cuisine": "bagel", "short_name": "Bruegger's", "takeaway": "yes", "addr:full": "158-K Great Rd", "addr:city": "Bedford", "addr:state": "Massachusetts", "addr:postcode": "01730", "addr:country": "US", "name": "Bruegger's Bagels and Jamba Juice Bedford", "phone": "(781) 778-2927", "website": "https://locations.brueggers.com/us/ma/bedford/158-k-great-rd", "opening_hours": "Mo-Su 06:00-02:00", "brand": "Bruegger's", "brand:wikidata": "Q4978656", "nsi_id": "brueggersbagels-4d2ff4"}, "geometry": {"type": "Point", "coordinates": [-71.27481758594513, 42.49089495517919]}},
{"type": "Feature", "id": "dTJLhiWvhYkSOL_tUTxDcyMXy0w=", "properties": {"ref": "3122-mahan-drive", "@spider": "brueggers", "amenity": "fast_food", "cuisine": "bagel", "short_name": "Bruegger's", "takeaway": "yes", "addr:full": "3122 Mahan Drive", "addr:city": "Tallahassee", "addr:state": "Florida", "addr:postcode": "32308", "addr:country": "US", "name": "Bruegger's Bagels Mahan Village", "phone": "(850) 309-0044", "website": "https://locations.brueggers.com/us/fl/tallahassee/3122-mahan-drive", "opening_hours": "Mo-Su 06:00-02:00", "brand": "Bruegger's", "brand:wikidata": "Q4978656", "nsi_id": "brueggersbagels-4d2ff4"}, "geometry": {"type": "Point", "coordinates": [-84.225376, 30.4615355]}},
{"type": "Feature", "id": "T0H_m9bpZsRLntAWXyWof38RkhU=", "properties": {"ref": "1216-north-monroe-street", "@spider": "brueggers", "amenity": "fast_food", "cuisine": "bagel", "short_name": "Bruegger's", "takeaway": "yes", "addr:full": "1216 North Monroe Street", "addr:city": "Tallahassee", "addr:state": "Florida", "addr:postcode": "32303", "addr:country": "US", "name": "Bruegger's Bagels North Monroe", "phone": "(850) 224-1409", "website": "https://locations.brueggers.com/us/fl/tallahassee/1216-north-monroe-street", "opening_hours": "Mo-Sa 06:00-02:00; Su 07:00-02:00", "brand": "Bruegger's", "brand:wikidata": "Q4978656", "nsi_id": "brueggersbagels-4d2ff4"}, "geometry": {"type": "Point", "coordinates": [-84.2809745079345, 30.455334815091167]}},
{"type": "Feature", "id": "U9M-orvv_VDWM4gRXpo9JyPfXc0=", "properties": {"ref": "2050-commonwealth-ave", "@spider": "brueggers", "amenity": "fast_food", "cuisine": "bagel", "short_name": "Bruegger's", "takeaway": "yes", "addr:full": "2050 Commonwealth Ave", "addr:city": "Auburndale", "addr:state": "Massachusetts", "addr:postcode": "02466", "addr:country": "US", "name": "Bruegger's Bagels Auburndale", "phone": "(617) 964-9508", "website": "https://locations.brueggers.com/us/ma/auburndale/2050-commonwealth-ave", "opening_hours": "Mo-Su 06:00-02:00", "brand": "Bruegger's", "brand:wikidata": "Q4978656", "nsi_id": "brueggersbagels-4d2ff4"}, "geometry": {"type": "Point", "coordinates": [-71.24606430530548, 42.34700762065754]}},
{"type": "Feature", "id": "1bFJSjSuTRciYeaj0yHPh0OzubQ=", "properties": {"ref": "170-n-pleasant-st", "@spider": "brueggers", "amenity": "fast_food", "cuisine": "bagel", "short_name": "Bruegger's", "takeaway": "yes", "addr:full": "170 N Pleasant St Suite 4", "addr:city": "Amherst", "addr:state": "Massachusetts", "addr:postcode": "01002", "addr:country": "US", "name": "Bruegger's Bagels Amherst/Tuscan's", "phone": "(413) 253-5713", "website": "https://locations.brueggers.com/us/ma/amherst/170-n-pleasant-st", "opening_hours": "Mo-Su 06:30-02:00", "brand": "Bruegger's", "brand:wikidata": "Q4978656", "nsi_id": "brueggersbagels-4d2ff4"}, "geometry": {"type": "Point", "coordinates": [-72.52027720212942, 42.378111134712626]}},
{"type": "Feature", "id": "jmg08rJ7FSSPgwduZVU6ydJwfx4=", "properties": {"ref": "4870-1st-avenue-ne", "@spider": "brueggers", "amenity": "fast_food", "cuisine": "bagel", "short_name": "Bruegger's", "takeaway": "yes", "addr:full": "4870 1st Avenue NE", "addr:city": "Cedar Rapids", "addr:state": "Iowa", "addr:postcode": "52402", "addr:country": "US", "name": "Bruegger's Bagels Lindale Crossing", "phone": "(319) 447-1029", "website": "https://locations.brueggers.com/us/ia/cedar-rapids/4870-1st-avenue-ne", "opening_hours": "Mo-Su 06:00-02:00", "brand": "Bruegger's", "brand:wikidata": "Q4978656", "nsi_id": "brueggersbagels-4d2ff4"}, "geometry": {"type": "Point", "coordinates": [-91.6196358203888, 42.02734003784916]}},
{"type": "Feature", "id": "OLIp3BY1ttRvqpeZe6UwbcXEIeo=", "properties": {"ref": "3310-mt-vernon-rd-se", "@spider": "brueggers", "amenity": "fast_food", "cuisine": "bagel", "short_name": "Bruegger's", "takeaway": "yes", "addr:full": "3310 Mt Vernon Rd SE", "addr:city": "Cedar Rapids", "addr:state": "Iowa", "addr:postcode": "52403", "addr:country": "US", "name": "Bruegger's Bagels Mt Vernon", "phone": "(319) 364-6964", "website": "https://locations.brueggers.com/us/ia/cedar-rapids/3310-mt-vernon-rd-se", "opening_hours": "Mo-Su 06:00-02:00", "brand": "Bruegger's", "brand:wikidata": "Q4978656", "nsi_id": "brueggersbagels-4d2ff4"}, "geometry": {"type": "Point", "coordinates": [-91.6202312707901, 41.97710541935668]}},
{"type": "Feature", "id": "2AT7hJi3mjdHHEwmkhcz_R6A2FM=", "properties": {"ref": "7-school-street", "@spider": "brueggers", "amenity": "fast_food", "cuisine": "bagel", "short_name": "Bruegger's", "takeaway": "yes", "addr:full": "7 School Street", "addr:city": "Boston", "addr:state": "Massachusetts", "addr:postcode": "02108", "addr:country": "US", "name": "Bruegger's Bagels School Street", "phone": "(617) 843-9781", "website": "https://locations.brueggers.com/us/ma/boston/7-school-street", "opening_hours": "Mo-Su 07:00-02:00", "brand": "Bruegger's", "brand:wikidata": "Q4978656", "nsi_id": "brueggersbagels-4d2ff4"}, "geometry": {"type": "Point", "coordinates": [-71.05856582522387, 42.35759849654192]}},
{"type": "Feature", "id": "gnmgCeKpZOfWdTY0ILyGR0DU2to=", "properties": {"ref": "375-longwood-ave", "@spider": "brueggers", "amenity": "fast_food", "cuisine": "bagel", "short_name": "Bruegger's", "takeaway": "yes", "addr:full": "375 Longwood Ave", "addr:city": "Boston", "addr:state": "Massachusetts", "addr:postcode": "02215", "addr:country": "US", "name": "Bruegger's Bagels Longwood Medical", "phone": "(617) 731-8993", "website": "https://locations.brueggers.com/us/ma/boston/375-longwood-ave", "opening_hours": "Mo-Fr 06:00-02:00; Sa-Su 07:00-02:00", "brand": "Bruegger's", "brand:wikidata": "Q4978656", "nsi_id": "brueggersbagels-4d2ff4"}, "geometry": {"type": "Point", "coordinates": [-71.10836505889893, 42.339753734140494]}},
{"type": "Feature", "id": "E9qzc6jK2Doyz4I-jeZ3qjpBjWI=", "properties": {"ref": "1950-empire-blvd", "@spider": "brueggers", "amenity": "fast_food", "cuisine": "bagel", "short_name": "Bruegger's", "takeaway": "yes", "addr:full": "1950 Empire Blvd", "addr:city": "Webster", "addr:state": "New York", "addr:postcode": "14580", "addr:country": "US", "name": "Bruegger's Bagels Empire Boulevard", "phone": "(585) 671-0720", "website": "https://locations.brueggers.com/us/ny/webster/1950-empire-blvd", "opening_hours": "Mo-Su 06:00-02:00", "brand": "Bruegger's", "brand:wikidata": "Q4978656", "nsi_id": "brueggersbagels-4d2ff4"}, "geometry": {"type": "Point", "coordinates": [-77.50352382659912, 43.19167644918724]}},
{"type": "Feature", "id": "sVptsk83sSTXUN6uedvUgGW0dxg=", "properties": {"ref": "55-congress-st", "@spider": "brueggers", "amenity": "fast_food", "cuisine": "bagel", "short_name": "Bruegger's", "takeaway": "yes", "addr:full": "55 Congress St", "addr:city": "Troy", "addr:state": "New York", "addr:postcode": "12180", "addr:country": "US", "name": "Bruegger's Bagels Troy", "phone": "(518) 274-4469", "website": "https://locations.brueggers.com/us/ny/troy/55-congress-st", "brand": "Bruegger's", "brand:wikidata": "Q4978656", "nsi_id": "brueggersbagels-4d2ff4"}, "geometry": {"type": "Point", "coordinates": [-73.69148238773153, 42.729045836497974]}},
{"type": "Feature", "id": "ZVZ6UBjTyEoIzmNhE3LCXJf2xDE=", "properties": {"ref": "1634-union-st", "@spider": "brueggers", "amenity": "fast_food", "cuisine": "bagel", "short_name": "Bruegger's", "takeaway": "yes", "addr:full": "1634 Union St", "addr:city": "Schenectady", "addr:state": "New York", "addr:postcode": "12309", "addr:country": "US", "name": "Bruegger's Bagels Union Street", "phone": "(518) 355-7522", "website": "https://locations.brueggers.com/us/ny/schenectady/1634-union-st", "opening_hours": "Mo 06:00-02:00; Tu 06:00-06:00; We-Su 06:00-02:00", "brand": "Bruegger's", "brand:wikidata": "Q4978656", "nsi_id": "brueggersbagels-4d2ff4"}, "geometry": {"type": "Point", "coordinates": [-73.9038300932541, 42.804185316819705]}},
{"type": "Feature", "id": "1VD_d2g5lpcmceeo-Zf143FUi-A=", "properties": {"ref": "707-709-pittsford-victor-road", "@spider": "brueggers", "amenity": "fast_food", "cuisine": "bagel", "short_name": "Bruegger's", "takeaway": "yes", "addr:full": "707-709 Pittsford Victor Road", "addr:city": "Pittsford", "addr:state": "New York", "addr:postcode": "14534", "addr:country": "US", "name": "Bruegger's Bagels Bushnell Basin", "phone": "(585) 264-0060", "website": "https://locations.brueggers.com/us/ny/pittsford/707-709-pittsford-victor-road", "opening_hours": "Tu-Fr 06:00-02:00", "brand": "Bruegger's", "brand:wikidata": "Q4978656", "nsi_id": "brueggersbagels-4d2ff4"}, "geometry": {"type": "Point", "coordinates": [-77.47593462467199, 43.060596811368896]}},
{"type": "Feature", "id": "beCuEnjbC9MA7q-Oot0Ny1SniUE=", "properties": {"ref": "1601-penfield-road", "@spider": "brueggers", "amenity": "fast_food", "cuisine": "bagel", "short_name": "Bruegger's", "takeaway": "yes", "addr:full": "1601 Penfield Road", "addr:city": "Penfield", "addr:state": "New York", "addr:postcode": "14625", "addr:country": "US", "name": "Bruegger's Bagels Panorama Trail", "phone": "(585) 264-0550", "website": "https://locations.brueggers.com/us/ny/penfield/1601-penfield-road", "opening_hours": "Mo-Su 06:00-02:00", "brand": "Bruegger's", "brand:wikidata": "Q4978656", "nsi_id": "brueggersbagels-4d2ff4"}, "geometry": {"type": "Point", "coordinates": [-77.4938571453095, 43.131800590249306]}},
{"type": "Feature", "id": "39zotHxS8JnEsPYsf-mx_MFV5s4=", "properties": {"ref": "112-e-seneca-st", "@spider": "brueggers", "amenity": "fast_food", "cuisine": "bagel", "short_name": "Bruegger's", "takeaway": "yes", "addr:full": "112 E Seneca St", "addr:city": "Manlius", "addr:state": "New York", "addr:postcode": "13104", "addr:country": "US", "name": "Bruegger's Bagels Manlius", "phone": "(315) 682-2575", "website": "https://locations.brueggers.com/us/ny/manlius/112-e-seneca-st", "opening_hours": "Mo-Su 06:00-02:00", "brand": "Bruegger's", "brand:wikidata": "Q4978656", "nsi_id": "brueggersbagels-4d2ff4"}, "geometry": {"type": "Point", "coordinates": [-75.97841575741762, 43.0010790645624]}},
{"type": "Feature", "id": "8tWFe-6xQsKuMZXqAi0JX29v-dc=", "properties": {"ref": "594-new-loudon-rd", "@spider": "brueggers", "amenity": "fast_food", "cuisine": "bagel", "short_name": "Bruegger's", "takeaway": "yes", "addr:full": "594 New Loudon Rd", "addr:city": "Latham", "addr:state": "New York", "addr:postcode": "12110", "addr:country": "US", "name": "Bruegger's Bagels Latham", "phone": "(518) 785-4961", "website": "https://locations.brueggers.com/us/ny/latham/594-new-loudon-rd", "brand": "Bruegger's", "brand:wikidata": "Q4978656", "nsi_id": "brueggersbagels-4d2ff4"}, "geometry": {"type": "Point", "coordinates": [-73.76109422453692, 42.72723735604898]}},
{"type": "Feature", "id": "TYqNjr4w1dL7oh7ktkhkssCIFtY=", "properties": {"ref": "585-mosley-rd", "@spider": "brueggers", "amenity": "fast_food", "cuisine": "bagel", "short_name": "Bruegger's", "takeaway": "yes", "addr:full": "585 Mosley Rd", "addr:city": "Fairport", "addr:state": "New York", "addr:postcode": "14450", "addr:country": "US", "name": "Bruegger's Bagels Perinton", "phone": "(585) 223-0450", "website": "https://locations.brueggers.com/us/ny/fairport/585-mosley-rd", "opening_hours": "Mo-Su 06:00-02:00", "brand": "Bruegger's", "brand:wikidata": "Q4978656", "nsi_id": "brueggersbagels-4d2ff4"}, "geometry": {"type": "Point", "coordinates": [-77.4435486, 43.0708962]}},
{"type": "Feature", "id": "M1SzGhWLEdn-xPFlxsFk6wqtaQU=", "properties": {"ref": "279-troy-road", "@spider": "brueggers", "amenity": "fast_food", "cuisine": "bagel", "short_name": "Bruegger's", "takeaway": "yes", "addr:full": "279 Troy Road", "addr:city": "East Greenbush", "addr:state": "New York", "addr:postcode": "12144", "addr:country": "US", "name": "Bruegger's Bagels East Greenbush - DT", "phone": "(518) 283-2219", "website": "https://locations.brueggers.com/us/ny/east-greenbush/279-troy-road", "opening_hours": "Mo-Su 06:00-02:00", "brand": "Bruegger's", "brand:wikidata": "Q4978656", "nsi_id": "brueggersbagels-4d2ff4"}, "geometry": {"type": "Point", "coordinates": [-73.7010493, 42.6437526]}},
{"type": "Feature", "id": "AI-NvpEBykG80NCfAAZF6Yx9U3c=", "properties": {"ref": "8320-city-centre-dr", "@spider": "brueggers", "amenity": "fast_food", "cuisine": "bagel", "short_name": "Bruegger's", "takeaway": "yes", "addr:full": "8320 City Centre Dr Suite A", "addr:city": "Woodbury", "addr:state": "Minnesota", "addr:postcode": "55125", "addr:country": "US", "name": "Bruegger's Bagels City Center/Woodbury", "phone": "(651) 735-7711", "website": "https://locations.brueggers.com/us/mn/woodbury/8320-city-centre-dr", "opening_hours": "Mo-Su 06:00-02:00", "brand": "Bruegger's", "brand:wikidata": "Q4978656", "nsi_id": "brueggersbagels-4d2ff4"}, "geometry": {"type": "Point", "coordinates": [-92.938481, 44.9206877]}},
{"type": "Feature", "id": "z0LrAPgrT6lq9-jzWMN3cmGwyms=", "properties": {"ref": "201-south-main-street", "@spider": "brueggers", "amenity": "fast_food", "cuisine": "bagel", "short_name": "Bruegger's", "takeaway": "yes", "addr:full": "201 South Main Street", "addr:city": "Royal Oak", "addr:state": "Michigan", "addr:postcode": "48067", "addr:country": "US", "name": "Bruegger's Bagels Royal Oak", "phone": "(248) 541-9899", "website": "https://locations.brueggers.com/us/mi/royal-oak/201-south-main-street", "opening_hours": "Mo-Su 06:00-02:00", "brand": "Bruegger's", "brand:wikidata": "Q4978656", "nsi_id": "brueggersbagels-4d2ff4"}, "geometry": {"type": "Point", "coordinates": [-83.1439097, 42.4888486]}},
{"type": "Feature", "id": "POJVRszvYwVUZZXMJNoiuWB42yw=", "properties": {"ref": "1398-walton-boulevard", "@spider": "brueggers", "amenity": "fast_food", "cuisine": "bagel", "short_name": "Bruegger's", "takeaway": "yes", "addr:full": "1398 Walton Boulevard", "addr:city": "Rochester Hills", "addr:state": "Michigan", "addr:postcode": "48309", "addr:country": "US", "name": "Bruegger's Bagels Rochester Hills Plaza/Walton", "phone": "(248) 650-5166", "website": "https://locations.brueggers.com/us/mi/rochester-hills/1398-walton-boulevard", "opening_hours": "Mo-Fr 06:00-01:00; Sa-Su 06:00-02:00", "brand": "Bruegger's", "brand:wikidata": "Q4978656", "nsi_id": "brueggersbagels-4d2ff4"}, "geometry": {"type": "Point", "coordinates": [-83.15759629011154, 42.68263257328154]}},
{"type": "Feature", "id": "Vx5AH3OaSbwAw5MLk46CDXaOLZk=", "properties": {"ref": "505-east-grand-river-avenue", "@spider": "brueggers", "amenity": "fast_food", "cuisine": "bagel", "short_name": "Bruegger's", "takeaway": "yes", "addr:full": "505 East Grand River Avenue", "addr:city": "East Lansing", "addr:state": "Michigan", "addr:postcode": "48823", "addr:country": "US", "name": "Bruegger's Bagels East Lansing", "phone": "(517) 332-9940", "website": "https://locations.brueggers.com/us/mi/east-lansing/505-east-grand-river-avenue", "opening_hours": "Mo-Su 08:00-02:00", "brand": "Bruegger's", "brand:wikidata": "Q4978656", "nsi_id": "brueggersbagels-4d2ff4"}, "geometry": {"type": "Point", "coordinates": [-84.47819799184799, 42.73397137852383]}},
{"type": "Feature", "id": "A2yEl6yJWapWpJYiaFMnfgFG50U=", "properties": {"ref": "39568-n-woodward-avenue", "@spider": "brueggers", "amenity": "fast_food", "cuisine": "bagel", "short_name": "Bruegger's", "takeaway": "yes", "addr:full": "39568 N Woodward Avenue", "addr:city": "Bloomfield Hills", "addr:state": "Michigan", "addr:postcode": "48304", "addr:country": "US", "name": "Bruegger's Bagels Bloomfield Hills", "phone": "(248) 847-0924", "website": "https://locations.brueggers.com/us/mi/bloomfield-hills/39568-n-woodward-avenue", "opening_hours": "Mo-Su 06:00-02:00", "brand": "Bruegger's", "brand:wikidata": "Q4978656", "nsi_id": "brueggersbagels-4d2ff4"}, "geometry": {"type": "Point", "coordinates": [-83.24422895908356, 42.58353259514755]}},
{"type": "Feature", "id": "x0LiMnsXuWpGbUFQXgKF942busc=", "properties": {"ref": "5198-w-taft-rd", "@spider": "brueggers", "amenity": "fast_food", "cuisine": "bagel", "short_name": "Bruegger's", "takeaway": "yes", "addr:full": "5198 W Taft Rd", "addr:city": "Syracuse", "addr:state": "New York", "addr:postcode": "13212", "addr:country": "US", "name": "Bruegger's Bagels West Taft Road", "phone": "(315) 396-0371", "website": "https://locations.brueggers.com/us/ny/syracuse/5198-w-taft-rd", "opening_hours": "Mo-Su 06:00-02:00", "brand": "Bruegger's", "brand:wikidata": "Q4978656", "nsi_id": "brueggersbagels-4d2ff4"}, "geometry": {"type": "Point", "coordinates": [-76.1572614312172, 43.121673964803186]}},
{"type": "Feature", "id": "eRW8_PpwZ5MNvCpxd-HbHneRhTg=", "properties": {"ref": "333-nottingham-road", "@spider": "brueggers", "amenity": "fast_food", "cuisine": "bagel", "short_name": "Bruegger's", "takeaway": "yes", "addr:full": "333 Nottingham Road", "addr:city": "Syracuse", "addr:state": "New York", "addr:postcode": "13214", "addr:country": "US", "name": "Bruegger's Bagels Nottingham", "phone": "(315) 446-3934", "website": "https://locations.brueggers.com/us/ny/syracuse/333-nottingham-road", "opening_hours": "Mo-Su 06:00-02:00", "brand": "Bruegger's", "brand:wikidata": "Q4978656", "nsi_id": "brueggersbagels-4d2ff4"}, "geometry": {"type": "Point", "coordinates": [-76.110477998786, 43.02803293300832]}},
{"type": "Feature", "id": "95TImP1j3HrFeypiL9QCzE9hdzM=", "properties": {"ref": "548-monroe-ave", "@spider": "brueggers", "amenity": "fast_food", "cuisine": "bagel", "short_name": "Bruegger's", "takeaway": "yes", "addr:full": "548 Monroe Ave", "addr:city": "Rochester", "addr:state": "New York", "addr:postcode": "14607", "addr:country": "US", "name": "Bruegger's Bagels Monroe-Goodman", "phone": "(585) 256-3410", "website": "https://locations.brueggers.com/us/ny/rochester/548-monroe-ave", "opening_hours": "Mo-Su 06:00-02:00", "brand": "Bruegger's", "brand:wikidata": "Q4978656", "nsi_id": "brueggersbagels-4d2ff4"}, "geometry": {"type": "Point", "coordinates": [-77.59255170822144, 43.146118495629835]}},
{"type": "Feature", "id": "unpcV_IrBVmVXC39GiBfdtu30g0=", "properties": {"ref": "3333-w-henrietta-rd", "@spider": "brueggers", "amenity": "fast_food", "cuisine": "bagel", "short_name": "Bruegger's", "takeaway": "yes", "addr:full": "3333 W Henrietta Rd", "addr:city": "Rochester", "addr:state": "New York", "addr:postcode": "14623", "addr:country": "US", "name": "Bruegger's Bagels Southtown Plaza - DT", "phone": "(585) 424-6110", "website": "https://locations.brueggers.com/us/ny/rochester/3333-w-henrietta-rd", "opening_hours": "Mo-Su 06:00-02:00", "brand": "Bruegger's", "brand:wikidata": "Q4978656", "nsi_id": "brueggersbagels-4d2ff4"}, "geometry": {"type": "Point", "coordinates": [-77.6424407958985, 43.08908042301102]}},
{"type": "Feature", "id": "5k8GxEPoOUF6sXmjxW71y3Kgvx8=", "properties": {"ref": "3177-latta-rd", "@spider": "brueggers", "amenity": "fast_food", "cuisine": "bagel", "short_name": "Bruegger's", "takeaway": "yes", "addr:full": "3177 Latta Rd", "addr:city": "Rochester", "addr:state": "New York", "addr:postcode": "14612", "addr:country": "US", "name": "Bruegger's Bagels Latta Pond", "phone": "(585) 227-8030", "website": "https://locations.brueggers.com/us/ny/rochester/3177-latta-rd", "opening_hours": "Mo-Su 06:00-02:00", "brand": "Bruegger's", "brand:wikidata": "Q4978656", "nsi_id": "brueggersbagels-4d2ff4"}, "geometry": {"type": "Point", "coordinates": [-77.6989289, 43.2517341]}},
{"type": "Feature", "id": "rAsJHlqpezSWsgvfch6LUl8JGvE=", "properties": {"ref": "2951-monroe-avenue", "@spider": "brueggers", "amenity": "fast_food", "cuisine": "bagel", "short_name": "Bruegger's", "takeaway": "yes", "addr:full": "2951 Monroe Avenue", "addr:city": "Rochester", "addr:state": "New York", "addr:postcode": "14618", "addr:country": "US", "name": "Bruegger's Bagels Monroe-Clover", "phone": "(585) 697-0158", "website": "https://locations.brueggers.com/us/ny/rochester/2951-monroe-avenue", "opening_hours": "Mo-Su 06:00-02:00", "brand": "Bruegger's", "brand:wikidata": "Q4978656", "nsi_id": "brueggersbagels-4d2ff4"}, "geometry": {"type": "Point", "coordinates": [-77.54731625318527, 43.11025331748263]}},
{"type": "Feature", "id": "guQheKeMZ6u1kaadOqfTITBGXoY=", "properties": {"ref": "1179a-e-wayzata-blvd", "@spider": "brueggers", "amenity": "fast_food", "cuisine": "bagel", "short_name": "Bruegger's", "takeaway": "yes", "addr:full": "1179A E Wayzata Blvd Suite 109", "addr:city": "Wayzata", "addr:state": "Minnesota", "addr:postcode": "55391", "addr:country": "US", "name": "Bruegger's Bagels Wayzata", "phone": "(952) 395-3601", "website": "https://locations.brueggers.com/us/mn/wayzata/1179a-e-wayzata-blvd", "opening_hours": "Mo-Su 06:00-02:00", "brand": "Bruegger's", "brand:wikidata": "Q4978656", "nsi_id": "brueggersbagels-4d2ff4"}, "geometry": {"type": "Point", "coordinates": [-93.50062223313529, 44.97139889755473]}},
{"type": "Feature", "id": "ZhlfqxZgX2fKRmyhs-52SRgx8Eo=", "properties": {"ref": "1970-market-dr", "@spider": "brueggers", "amenity": "fast_food", "cuisine": "bagel", "short_name": "Bruegger's", "takeaway": "yes", "addr:full": "1970 Market Dr Suite A", "addr:city": "Stillwater", "addr:state": "Minnesota", "addr:postcode": "55082", "addr:country": "US", "name": "Bruegger's Bagels Stillwater", "phone": "(651) 439-3090", "website": "https://locations.brueggers.com/us/mn/stillwater/1970-market-dr", "opening_hours": "Mo-Su 06:00-02:00", "brand": "Bruegger's", "brand:wikidata": "Q4978656", "nsi_id": "brueggersbagels-4d2ff4"}, "geometry": {"type": "Point", "coordinates": [-92.84173339605331, 45.038035525984476]}},
{"type": "Feature", "id": "7ekdUuve1Bd3efJrtQGQCGhGX8A=", "properties": {"ref": "1650-park-place-blvd", "@spider": "brueggers", "amenity": "fast_food", "cuisine": "bagel", "short_name": "Bruegger's", "takeaway": "yes", "addr:full": "1650 Park Place Blvd Suite 100", "addr:city": "St. Louis Park", "addr:state": "Minnesota", "addr:postcode": "55416", "addr:country": "US", "name": "Bruegger's Bagels Park Place Plaza", "phone": "(952) 545-0398", "website": "https://locations.brueggers.com/us/mn/st-louis-park/1650-park-place-blvd", "opening_hours": "Mo-Su 06:00-02:00", "brand": "Bruegger's", "brand:wikidata": "Q4978656", "nsi_id": "brueggersbagels-4d2ff4"}, "geometry": {"type": "Point", "coordinates": [-93.34990203380585, 44.96612445838049]}},
{"type": "Feature", "id": "BiK_969tmVbFYbQSGMnQyb-AmL0=", "properties": {"ref": "4015-dodge-st", "@spider": "brueggers", "amenity": "fast_food", "cuisine": "bagel", "short_name": "Bruegger's", "takeaway": "yes", "addr:full": "4015 Dodge St", "addr:city": "Omaha", "addr:state": "Nebraska", "addr:postcode": "68131", "addr:country": "US", "name": "Bruegger's Bagels Dodge St", "phone": "(402) 558-0800", "website": "https://locations.brueggers.com/us/ne/omaha/4015-dodge-st", "opening_hours": "Mo-Su 06:00-02:00", "brand": "Bruegger's", "brand:wikidata": "Q4978656", "nsi_id": "brueggersbagels-4d2ff4"}, "geometry": {"type": "Point", "coordinates": [-95.9740698981476, 41.259267195669764]}},
{"type": "Feature", "id": "9QOzbEZf6eBPAIUsLVP8NB_tHh4=", "properties": {"ref": "9704-strickland-road", "@spider": "brueggers", "amenity": "fast_food", "cuisine": "bagel", "short_name": "Bruegger's", "takeaway": "yes", "addr:full": "9704 Strickland Road Suite 106", "addr:city": "Raleigh", "addr:state": "North Carolina", "addr:postcode": "27615", "addr:country": "US", "name": "Bruegger's Bagels Harvest Plaza", "phone": "(919) 846-0183", "website": "https://locations.brueggers.com/us/nc/raleigh/9704-strickland-road", "opening_hours": "Mo-Su 06:00-02:00", "brand": "Bruegger's", "brand:wikidata": "Q4978656", "nsi_id": "brueggersbagels-4d2ff4"}, "geometry": {"type": "Point", "coordinates": [-78.65734308958048, 35.90238901196732]}},
{"type": "Feature", "id": "YhKwD16vZxtKU_46_KAEttoPDMU=", "properties": {"ref": "8211-103-brier-creek-parkway", "@spider": "brueggers", "amenity": "fast_food", "cuisine": "bagel", "short_name": "Bruegger's", "takeaway": "yes", "addr:full": "8211 103 Brier Creek Parkway Terminal 2", "addr:city": "Raleigh", "addr:state": "North Carolina", "addr:postcode": "27617", "addr:country": "US", "name": "Bruegger's Bagels Brier Creek", "phone": "(919) 484-8262", "website": "https://locations.brueggers.com/us/nc/raleigh/8211-103-brier-creek-parkway", "opening_hours": "Mo-Fr 06:30-03:00; Sa-Su 07:00-04:00", "brand": "Bruegger's", "brand:wikidata": "Q4978656", "nsi_id": "brueggersbagels-4d2ff4"}, "geometry": {"type": "Point", "coordinates": [-78.7839597, 35.9087479]}},
{"type": "Feature", "id": "s85ODVwEjfrWkD4HgONfe4_QzSc=", "properties": {"ref": "7550-creedmoor-road", "@spider": "brueggers", "amenity": "fast_food", "cuisine": "bagel", "short_name": "Bruegger's", "takeaway": "yes", "addr:full": "7550 Creedmoor Road Suite 106", "addr:city": "Raleigh", "addr:state": "North Carolina", "addr:postcode": "27613", "addr:country": "US", "name": "Bruegger's Bagels Stonehenge", "phone": "(919) 848-4902", "website": "https://locations.brueggers.com/us/nc/raleigh/7550-creedmoor-road", "opening_hours": "Mo-Su 06:00-02:00", "brand": "Bruegger's", "brand:wikidata": "Q4978656", "nsi_id": "brueggersbagels-4d2ff4"}, "geometry": {"type": "Point", "coordinates": [-78.6788407, 35.8893952]}},
{"type": "Feature", "id": "n5hAQVQsqpPdy6x77mKLJUc5MTI=", "properties": {"ref": "3510-wade-avenue", "@spider": "brueggers", "amenity": "fast_food", "cuisine": "bagel", "short_name": "Bruegger's", "takeaway": "yes", "addr:full": "3510 Wade Avenue Suite 113", "addr:city": "Raleigh", "addr:state": "North Carolina", "addr:postcode": "27607", "addr:country": "US", "name": "Bruegger's Bagels Ridgewood", "phone": "(919) 828-1301", "website": "https://locations.brueggers.com/us/nc/raleigh/3510-wade-avenue", "opening_hours": "Mo-Su 06:00-02:00", "brand": "Bruegger's", "brand:wikidata": "Q4978656", "nsi_id": "brueggersbagels-4d2ff4"}, "geometry": {"type": "Point", "coordinates": [-78.68468284606934, 35.80154391779702]}},
{"type": "Feature", "id": "RuI7IalnNQRaP99tzzYci93mFH8=", "properties": {"ref": "2302-hillsborough-st", "@spider": "brueggers", "amenity": "fast_food", "cuisine": "bagel", "short_name": "Bruegger's", "takeaway": "yes", "addr:full": "2302 Hillsborough St Suite 113", "addr:city": "Raleigh", "addr:state": "North Carolina", "addr:postcode": "27607", "addr:country": "US", "name": "Bruegger's Bagels Hillsborough", "phone": "(919) 828-7103", "website": "https://locations.brueggers.com/us/nc/raleigh/2302-hillsborough-st", "opening_hours": "Mo-Su 06:00-02:00", "brand": "Bruegger's", "brand:wikidata": "Q4978656", "nsi_id": "brueggersbagels-4d2ff4"}, "geometry": {"type": "Point", "coordinates": [-78.66594474355122, 35.78744332835205]}},
{"type": "Feature", "id": "8BCUD78coA8x5R2UaL4v9GAVbR4=", "properties": {"ref": "2231-avent-ferry-rd", "@spider": "brueggers", "amenity": "fast_food", "cuisine": "bagel", "short_name": "Bruegger's", "takeaway": "yes", "addr:full": "2231 Avent Ferry Rd Suite 113", "addr:city": "Raleigh", "addr:state": "North Carolina", "addr:postcode": "27606", "addr:country": "US", "name": "Bruegger's Bagels Mission Valley", "phone": "(919) 828-1416", "website": "https://locations.brueggers.com/us/nc/raleigh/2231-avent-ferry-rd", "opening_hours": "Mo-Su 06:00-02:00", "brand": "Bruegger's", "brand:wikidata": "Q4978656", "nsi_id": "brueggersbagels-4d2ff4"}, "geometry": {"type": "Point", "coordinates": [-78.67699295282358, 35.778266987538615]}},
{"type": "Feature", "id": "KAnBHFLTCmQbeGlnvb7PlzOLgmo=", "properties": {"ref": "709-n-university-ave", "@spider": "brueggers", "amenity": "fast_food", "cuisine": "bagel", "short_name": "Bruegger's", "takeaway": "yes", "addr:full": "709 N University Ave", "addr:city": "Ann Arbor", "addr:state": "Michigan", "addr:postcode": "48105", "addr:country": "US", "name": "Bruegger's Bagels North University/Campus", "phone": "(734) 747-8561", "website": "https://locations.brueggers.com/us/mi/ann-arbor/709-n-university-ave", "opening_hours": "Mo-Su 08:00-12:00", "brand": "Bruegger's", "brand:wikidata": "Q4978656", "nsi_id": "brueggersbagels-4d2ff4"}, "geometry": {"type": "Point", "coordinates": [-83.7402665, 42.278881]}},
{"type": "Feature", "id": "VaMQoG_tyFKsK7elHimqQiJiMwk=", "properties": {"ref": "2260-s-main-st", "@spider": "brueggers", "amenity": "fast_food", "cuisine": "bagel", "short_name": "Bruegger's", "takeaway": "yes", "addr:full": "2260 S Main St", "addr:city": "Ann Arbor", "addr:state": "Michigan", "addr:postcode": "48103", "addr:country": "US", "name": "Bruegger's Bagels Ann Arbor/Woodland/South Main Street", "phone": "(734) 213-2560", "website": "https://locations.brueggers.com/us/mi/ann-arbor/2260-s-main-st", "opening_hours": "Mo-Su 06:00-02:00", "brand": "Bruegger's", "brand:wikidata": "Q4978656", "nsi_id": "brueggersbagels-4d2ff4"}, "geometry": {"type": "Point", "coordinates": [-83.75198721885681, 42.253759556711]}},
{"type": "Feature", "id": "--yKLbZAnPjN7JJXYSMt-KRgOfE=", "properties": {"ref": "10750-wakefield-commons-dr", "@spider": "brueggers", "amenity": "fast_food", "cuisine": "bagel", "short_name": "Bruegger's", "takeaway": "yes", "addr:full": "10750 Wakefield Commons Dr Suite 111", "addr:city": "Raleigh", "addr:state": "North Carolina", "addr:postcode": "27614", "addr:country": "US", "name": "Bruegger's Bagels Wakefield Commons", "phone": "(919) 435-0046", "website": "https://locations.brueggers.com/us/nc/raleigh/10750-wakefield-commons-dr", "opening_hours": "Mo-Fr 06:30-02:00; Sa-Su 07:00-02:00", "brand": "Bruegger's", "brand:wikidata": "Q4978656", "nsi_id": "brueggersbagels-4d2ff4"}, "geometry": {"type": "Point", "coordinates": [-78.54122462698365, 35.9421536650811]}},
{"type": "Feature", "id": "HZzXHtGUAQeg5eOtd0AGwXaBPWY=", "properties": {"ref": "228-n-114th-st", "@spider": "brueggers", "amenity": "fast_food", "cuisine": "bagel", "short_name": "Bruegger's", "takeaway": "yes", "addr:full": "228 N 114th St", "addr:city": "Omaha", "addr:state": "Nebraska", "addr:postcode": "68154", "addr:country": "US", "name": "Bruegger's Bagels Davenport", "phone": "(402) 697-7888", "website": "https://locations.brueggers.com/us/ne/omaha/228-n-114th-st", "opening_hours": "Mo-Su 06:00-02:00", "brand": "Bruegger's", "brand:wikidata": "Q4978656", "nsi_id": "brueggersbagels-4d2ff4"}, "geometry": {"type": "Point", "coordinates": [-96.09162227116394, 41.25956974968644]}},
{"type": "Feature", "id": "d-u7mf9p6CproLgaxj4VOrRcukg=", "properties": {"ref": "12989-w-center-rd", "@spider": "brueggers", "amenity": "fast_food", "cuisine": "bagel", "short_name": "Bruegger's", "takeaway": "yes", "addr:full": "12989 W Center Rd", "addr:city": "Omaha", "addr:state": "Nebraska", "addr:postcode": "68144", "addr:country": "US", "name": "Bruegger's Bagels 132nd & W. Center", "phone": "(402) 333-8886", "website": "https://locations.brueggers.com/us/ne/omaha/12989-w-center-rd", "opening_hours": "Mo-Su 06:00-02:00", "brand": "Bruegger's", "brand:wikidata": "Q4978656", "nsi_id": "brueggersbagels-4d2ff4"}, "geometry": {"type": "Point", "coordinates": [-96.116266, 41.23351]}},
{"type": "Feature", "id": "nmuRVcugs3yshbKhp3UqQUffwJk=", "properties": {"ref": "2712-lincoln-drive", "@spider": "brueggers", "amenity": "fast_food", "cuisine": "bagel", "short_name": "Bruegger's", "takeaway": "yes", "addr:full": "2712 Lincoln Drive #139", "addr:city": "Roseville", "addr:state": "Minnesota", "addr:postcode": "55113", "addr:country": "US", "name": "Bruegger's Bagels Roseville Crossings", "phone": "(651) 635-0185", "website": "https://locations.brueggers.com/us/mn/roseville/2712-lincoln-drive", "opening_hours": "Mo-Su 06:00-02:00", "brand": "Bruegger's", "brand:wikidata": "Q4978656", "nsi_id": "brueggersbagels-4d2ff4"}, "geometry": {"type": "Point", "coordinates": [-93.1686283, 45.0225134]}},
{"type": "Feature", "id": "71ZGCsYyIZLywZ2YNOfZ4mHFnXc=", "properties": {"ref": "155-1st-avenue-sw", "@spider": "brueggers", "amenity": "fast_food", "cuisine": "bagel", "short_name": "Bruegger's", "takeaway": "yes", "addr:full": "155 1st Avenue SW Suite 140", "addr:city": "Rochester", "addr:state": "Minnesota", "addr:postcode": "55901", "addr:country": "US", "name": "Bruegger's Bagels Rochester - Mayo Clinic", "phone": "(507) 424-4777", "website": "https://locations.brueggers.com/us/mn/rochester/155-1st-avenue-sw", "opening_hours": "Mo-Fr 06:00-02:00", "brand": "Bruegger's", "brand:wikidata": "Q4978656", "nsi_id": "brueggersbagels-4d2ff4"}, "geometry": {"type": "Point", "coordinates": [-92.46512192708451, 44.02192810686725]}},
{"type": "Feature", "id": "l9TfPlxnyntH0pNpL1bxrLMzHjM=", "properties": {"ref": "4000-annapolis-lane", "@spider": "brueggers", "amenity": "fast_food", "cuisine": "bagel", "short_name": "Bruegger's", "takeaway": "yes", "addr:full": "4000 Annapolis Lane Suite 109", "addr:city": "Plymouth", "addr:state": "Minnesota", "addr:postcode": "55447", "addr:country": "US", "name": "Bruegger's Bagels Rockford/Rock Rd", "phone": "(763) 553-9893", "website": "https://locations.brueggers.com/us/mn/plymouth/4000-annapolis-lane", "opening_hours": "Mo-Su 06:00-02:00", "brand": "Bruegger's", "brand:wikidata": "Q4978656", "nsi_id": "brueggersbagels-4d2ff4"}, "geometry": {"type": "Point", "coordinates": [-93.45580351901441, 45.02862580009846]}},
{"type": "Feature", "id": "DkBhUhJ__l1xPRm96-Ckc1-6p3Y=", "properties": {"ref": "111-village-center-drive", "@spider": "brueggers", "amenity": "fast_food", "cuisine": "bagel", "short_name": "Bruegger's", "takeaway": "yes", "addr:full": "111 Village Center Drive", "addr:city": "North Oaks", "addr:state": "Minnesota", "addr:postcode": "55127", "addr:country": "US", "name": "Bruegger's Bagels North Oaks/Village Center", "phone": "(651) 486-7135", "website": "https://locations.brueggers.com/us/mn/north-oaks/111-village-center-drive", "opening_hours": "Mo-Su 06:00-02:00", "brand": "Bruegger's", "brand:wikidata": "Q4978656", "nsi_id": "brueggersbagels-4d2ff4"}, "geometry": {"type": "Point", "coordinates": [-93.1146240234375, 45.080146039553114]}},
{"type": "Feature", "id": "Av37oeQ_fuoI6D2rOa9SS6RRGlg=", "properties": {"ref": "3558-winnetka-ave-n", "@spider": "brueggers", "amenity": "fast_food", "cuisine": "bagel", "short_name": "Bruegger's", "takeaway": "yes", "addr:full": "3558 Winnetka Ave N Suite 109", "addr:city": "New Hope", "addr:state": "Minnesota", "addr:postcode": "55427", "addr:country": "US", "name": "Bruegger's Bagels New Hope", "phone": "(763) 545-6783", "website": "https://locations.brueggers.com/us/mn/new-hope/3558-winnetka-ave-n", "opening_hours": "Mo-Su 06:00-02:00", "brand": "Bruegger's", "brand:wikidata": "Q4978656", "nsi_id": "brueggersbagels-4d2ff4"}, "geometry": {"type": "Point", "coordinates": [-93.37820470333105, 45.0210867037326]}},
{"type": "Feature", "id": "ZU9y73T6nr-5e2AzxNFx7f3EoVQ=", "properties": {"ref": "4781-county-road-101", "@spider": "brueggers", "amenity": "fast_food", "cuisine": "bagel", "short_name": "Bruegger's", "takeaway": "yes", "addr:full": "4781 County Road 101 Suite 109", "addr:city": "Minnetonka", "addr:state": "Minnesota", "addr:postcode": "55345", "addr:country": "US", "name": "Bruegger's Bagels Westwind Plaza", "phone": "(952) 238-1388", "website": "https://locations.brueggers.com/us/mn/minnetonka/4781-county-road-101", "opening_hours": "Mo-Fr 06:00-02:00; Sa-Su 06:30-02:00", "brand": "Bruegger's", "brand:wikidata": "Q4978656", "nsi_id": "brueggersbagels-4d2ff4"}, "geometry": {"type": "Point", "coordinates": [-93.5012718, 44.9173881]}},
{"type": "Feature", "id": "m5MgmiwZpUGbish9YZXYQuAZPJQ=", "properties": {"ref": "13384-bass-lake-rd", "@spider": "brueggers", "amenity": "fast_food", "cuisine": "bagel", "short_name": "Bruegger's", "takeaway": "yes", "addr:full": "13384 Bass Lake Rd Suite 104", "addr:city": "Maple Grove", "addr:state": "Minnesota", "addr:postcode": "55311", "addr:country": "US", "name": "Bruegger's Bagels Bass Lake & 494 with Caribou Coffee", "phone": "(763) 559-6968", "website": "https://locations.brueggers.com/us/mn/maple-grove/13384-bass-lake-rd", "opening_hours": "Mo-Su 06:00-03:00", "brand": "Bruegger's", "brand:wikidata": "Q4978656", "nsi_id": "brueggersbagels-4d2ff4"}, "geometry": {"type": "Point", "coordinates": [-93.44981399140164, 45.06878521908627]}},
{"type": "Feature", "id": "htyclYYVBUbfnpSwFAFRo9dVuvY=", "properties": {"ref": "7801-southtown-center", "@spider": "brueggers", "amenity": "fast_food", "cuisine": "bagel", "short_name": "Bruegger's", "takeaway": "yes", "addr:full": "7801 Southtown Center", "addr:city": "Bloomington", "addr:state": "Minnesota", "addr:postcode": "55431", "addr:country": "US", "name": "Bruegger's Bagels Southtown", "phone": "(952) 703-0443", "website": "https://locations.brueggers.com/us/mn/bloomington/7801-southtown-center", "opening_hours": "Mo-Su 06:00-02:00", "brand": "Bruegger's", "brand:wikidata": "Q4978656", "nsi_id": "brueggersbagels-4d2ff4"}, "geometry": {"type": "Point", "coordinates": [-93.30824100000001, 44.86106388918748]}},
{"type": "Feature", "id": "q5YsaLLaatkVz7wdlB1rHqO7ueE=", "properties": {"ref": "12525-ulysses-st", "@spider": "brueggers", "amenity": "fast_food", "cuisine": "bagel", "short_name": "Bruegger's", "takeaway": "yes", "addr:full": "12525 Ulysses St Suite 100", "addr:city": "Blaine", "addr:state": "Minnesota", "addr:postcode": "55434", "addr:country": "US", "name": "Bruegger's Bagels Blaine", "phone": "(763) 862-7830", "website": "https://locations.brueggers.com/us/mn/blaine/12525-ulysses-st", "opening_hours": "Mo-Su 06:00-02:00", "brand": "Bruegger's", "brand:wikidata": "Q4978656", "nsi_id": "brueggersbagels-4d2ff4"}, "geometry": {"type": "Point", "coordinates": [-93.23732435703272, 45.19759412523571]}},
{"type": "Feature", "id": "4853QEb-3Vcduwcwstz0_1Uf-vI=", "properties": {"ref": "7745-150th-st-w", "@spider": "brueggers", "amenity": "fast_food", "cuisine": "bagel", "short_name": "Bruegger's", "takeaway": "yes", "addr:full": "7745 150th St W", "addr:city": "Apple Valley", "addr:state": "Minnesota", "addr:postcode": "55124", "addr:country": "US", "name": "Bruegger's Bagels Apple Valley", "phone": "(952) 891-2422", "website": "https://locations.brueggers.com/us/mn/apple-valley/7745-150th-st-w", "opening_hours": "Mo-Su 06:00-02:00", "brand": "Bruegger's", "brand:wikidata": "Q4978656", "nsi_id": "brueggersbagels-4d2ff4"}, "geometry": {"type": "Point", "coordinates": [-93.222503364418, 44.73246258165977]}},
{"type": "Feature", "id": "VXusjOuLGRnYE_Q_zUp1OtZ7odA=", "properties": {"ref": "8706-pineville-matthews-road", "@spider": "brueggers", "amenity": "fast_food", "cuisine": "bagel", "short_name": "Bruegger's", "takeaway": "yes", "addr:full": "8706 Pineville Matthews Road Suite 100", "addr:city": "Pineville", "addr:state": "North Carolina", "addr:postcode": "28226", "addr:country": "US", "name": "Bruegger's Bagels Pineville 2", "phone": "(704) 543-4785", "website": "https://locations.brueggers.com/us/nc/pineville/8706-pineville-matthews-road", "opening_hours": "Mo-Su 06:00-02:00", "brand": "Bruegger's", "brand:wikidata": "Q4978656", "nsi_id": "brueggersbagels-4d2ff4"}, "geometry": {"type": "Point", "coordinates": [-80.86714655092618, 35.08885888865407]}},
{"type": "Feature", "id": "QXSZ_03D0KGi5IALOKaRZwmfJRE=", "properties": {"ref": "2600-w-terminal-boulevard", "@spider": "brueggers", "amenity": "fast_food", "cuisine": "bagel", "short_name": "Bruegger's", "takeaway": "yes", "addr:full": "2600 W Terminal Boulevard Terminal 2", "addr:city": "Morrisville", "addr:state": "North Carolina", "addr:postcode": "27623", "addr:country": "US", "name": "Bruegger's Bagels Raleigh-Durham International Airport - Terminal 2 Gate C18", "phone": "(919) 384-3410", "website": "https://locations.brueggers.com/us/nc/morrisville/2600-w-terminal-boulevard", "opening_hours": "Mo-Su 04:30-07:00", "brand": "Bruegger's", "brand:wikidata": "Q4978656", "nsi_id": "brueggersbagels-4d2ff4"}, "geometry": {"type": "Point", "coordinates": [-78.7913206, 35.8791072]}},
{"type": "Feature", "id": "sXaEkcaW_miMWxGp6gnDKTCEAUQ=", "properties": {"ref": "800-grand-ave", "@spider": "brueggers", "amenity": "fast_food", "cuisine": "bagel", "short_name": "Bruegger's", "takeaway": "yes", "addr:full": "800 Grand Ave Suite 3", "addr:city": "Saint Paul", "addr:state": "Minnesota", "addr:postcode": "55105", "addr:country": "US", "name": "Bruegger's Bagels Grand Avenue", "phone": "(651) 221-1909", "website": "https://locations.brueggers.com/us/mn/saint-paul/800-grand-ave", "opening_hours": "Mo-Su 06:00-02:00", "brand": "Bruegger's", "brand:wikidata": "Q4978656", "nsi_id": "brueggersbagels-4d2ff4"}, "geometry": {"type": "Point", "coordinates": [-93.13366502523422, 44.93974945047463]}},
{"type": "Feature", "id": "q-d_mBaAR3_M7fDASV5jmOEoB7c=", "properties": {"ref": "2136-ford-parkway", "@spider": "brueggers", "amenity": "fast_food", "cuisine": "bagel", "short_name": "Bruegger's", "takeaway": "yes", "addr:full": "2136 Ford Parkway #139", "addr:city": "Saint Paul", "addr:state": "Minnesota", "addr:postcode": "55116", "addr:country": "US", "name": "Bruegger's Bagels Highland", "phone": "(651) 699-8011", "website": "https://locations.brueggers.com/us/mn/saint-paul/2136-ford-parkway", "brand": "Bruegger's", "brand:wikidata": "Q4978656", "nsi_id": "brueggersbagels-4d2ff4"}, "geometry": {"type": "Point", "coordinates": [-93.1910057, 44.9173206]}},
{"type": "Feature", "id": "Ii5qaAUBGd0GbiwlPhahiYuiFbM=", "properties": {"ref": "2133-hudson-road", "@spider": "brueggers", "amenity": "fast_food", "cuisine": "bagel", "short_name": "Bruegger's", "takeaway": "yes", "addr:full": "2133 Hudson Road Suite 3", "addr:city": "Saint Paul", "addr:state": "Minnesota", "addr:postcode": "55119", "addr:country": "US", "name": "Bruegger's Bagels and Caribou Coffee Sun Ray", "phone": "(651) 578-0580", "website": "https://locations.brueggers.com/us/mn/saint-paul/2133-hudson-road", "opening_hours": "Mo-Su 06:00-02:00", "brand": "Bruegger's", "brand:wikidata": "Q4978656", "nsi_id": "brueggersbagels-4d2ff4"}, "geometry": {"type": "Point", "coordinates": [-93.01041752099991, 44.951722681788326]}},
{"type": "Feature", "id": "TxW-kN3bQmYGuU9xZr4R1HJxg64=", "properties": {"ref": "1905-matthews-township-parkway", "@spider": "brueggers", "amenity": "fast_food", "cuisine": "bagel", "short_name": "Bruegger's", "takeaway": "yes", "addr:full": "1905 Matthews Township Parkway Building 25", "addr:city": "Matthews", "addr:state": "North Carolina", "addr:postcode": "28105", "addr:country": "US", "name": "Bruegger's Bagels Festival/Matthews", "phone": "(704) 849-7222", "website": "https://locations.brueggers.com/us/nc/matthews/1905-matthews-township-parkway", "opening_hours": "Mo-Su 06:00-02:00", "brand": "Bruegger's", "brand:wikidata": "Q4978656", "nsi_id": "brueggersbagels-4d2ff4"}, "geometry": {"type": "Point", "coordinates": [-80.70851093005945, 35.124546387575336]}},
{"type": "Feature", "id": "-H2eQjuJi2G95daJdijfz1ke058=", "properties": {"ref": "20619-torrence-chapel-road", "@spider": "brueggers", "amenity": "fast_food", "cuisine": "bagel", "short_name": "Bruegger's", "takeaway": "yes", "addr:full": "20619 Torrence Chapel Road Building 25", "addr:city": "Cornelius", "addr:state": "North Carolina", "addr:postcode": "28031", "addr:country": "US", "name": "Bruegger's Bagels South Lake", "phone": "(704) 896-3199", "website": "https://locations.brueggers.com/us/nc/cornelius/20619-torrence-chapel-road", "opening_hours": "Mo-Su 06:00-02:00", "brand": "Bruegger's", "brand:wikidata": "Q4978656", "nsi_id": "brueggersbagels-4d2ff4"}, "geometry": {"type": "Point", "coordinates": [-80.878346, 35.4856343]}},
{"type": "Feature", "id": "oT_ipeYLZtgtTNPJpLhXbKLU174=", "properties": {"ref": "720-washington-avenue-se", "@spider": "brueggers", "amenity": "fast_food", "cuisine": "bagel", "short_name": "Bruegger's", "takeaway": "yes", "addr:full": "720 Washington Avenue SE #139", "addr:city": "Minneapolis", "addr:state": "Minnesota", "addr:postcode": "55414", "addr:country": "US", "name": "Bruegger's Bagels Stadium Village II", "phone": "(612) 378-2145", "website": "https://locations.brueggers.com/us/mn/minneapolis/720-washington-avenue-se", "opening_hours": "Mo-Su 07:00-03:00", "brand": "Bruegger's", "brand:wikidata": "Q4978656", "nsi_id": "brueggersbagels-4d2ff4"}, "geometry": {"type": "Point", "coordinates": [-93.22738945484161, 44.9734112756383]}},
{"type": "Feature", "id": "yoZA2fPN5hWVttWesokYutsP5qs=", "properties": {"ref": "651-nicollet-mall", "@spider": "brueggers", "amenity": "fast_food", "cuisine": "bagel", "short_name": "Bruegger's", "takeaway": "yes", "addr:full": "651 Nicollet Mall #139", "addr:city": "Minneapolis", "addr:state": "Minnesota", "addr:postcode": "55402", "addr:country": "US", "name": "Bruegger's Bagels Gaviidae", "phone": "(612) 339-3311", "website": "https://locations.brueggers.com/us/mn/minneapolis/651-nicollet-mall", "opening_hours": "Mo-Fr 06:00-02:00", "brand": "Bruegger's", "brand:wikidata": "Q4978656", "nsi_id": "brueggersbagels-4d2ff4"}, "geometry": {"type": "Point", "coordinates": [-93.271051, 44.977477]}},
{"type": "Feature", "id": "4beBpsQ_NMUEL3lfEVtk-8-K9AY=", "properties": {"ref": "7101-france-avenue", "@spider": "brueggers", "amenity": "fast_food", "cuisine": "bagel", "short_name": "Bruegger's", "takeaway": "yes", "addr:full": "7101 France Avenue", "addr:city": "Edina", "addr:state": "Minnesota", "addr:postcode": "55435", "addr:country": "US", "name": "Bruegger's Bagels Leisure Lane", "phone": "(952) 926-2696", "website": "https://locations.brueggers.com/us/mn/edina/7101-france-avenue", "opening_hours": "Mo-Su 06:00-01:00", "brand": "Bruegger's", "brand:wikidata": "Q4978656", "nsi_id": "brueggersbagels-4d2ff4"}, "geometry": {"type": "Point", "coordinates": [-93.32821905612946, 44.87441941824569]}},
{"type": "Feature", "id": "tQHWe1lzZOlouk4xSvPR7nm0Cv8=", "properties": {"ref": "9641-anderson-lakes-parkway", "@spider": "brueggers", "amenity": "fast_food", "cuisine": "bagel", "short_name": "Bruegger's", "takeaway": "yes", "addr:full": "9641 Anderson Lakes Parkway", "addr:city": "Eden Prairie", "addr:state": "Minnesota", "addr:postcode": "55344", "addr:country": "US", "name": "Bruegger's Bagels Preserve Village/Eden Prairie", "phone": "(952) 829-9532", "website": "https://locations.brueggers.com/us/mn/eden-prairie/9641-anderson-lakes-parkway", "opening_hours": "Mo-Su 06:00-02:00", "brand": "Bruegger's", "brand:wikidata": "Q4978656", "nsi_id": "brueggersbagels-4d2ff4"}, "geometry": {"type": "Point", "coordinates": [-93.40063601732254, 44.836087326674296]}},
{"type": "Feature", "id": "B_Cgy2zyYH3qaUGVoeh2NGid-yc=", "properties": {"ref": "3450-pilot-knob-road", "@spider": "brueggers", "amenity": "fast_food", "cuisine": "bagel", "short_name": "Bruegger's", "takeaway": "yes", "addr:full": "3450 Pilot Knob Road", "addr:city": "Eagan", "addr:state": "Minnesota", "addr:postcode": "55122", "addr:country": "US", "name": "Bruegger's Bagels Eagan Transit Station", "phone": "(651) 688-0400", "website": "https://locations.brueggers.com/us/mn/eagan/3450-pilot-knob-road", "opening_hours": "Mo-Fr 06:30-04:00; Sa-Su 06:30-03:00", "brand": "Bruegger's", "brand:wikidata": "Q4978656", "nsi_id": "brueggersbagels-4d2ff4"}, "geometry": {"type": "Point", "coordinates": [-93.1666106, 44.8325271]}},
{"type": "Feature", "id": "17zoukoWQyYh46EUug0taA3zLVE=", "properties": {"ref": "2149a-cliff-road", "@spider": "brueggers", "amenity": "fast_food", "cuisine": "bagel", "short_name": "Bruegger's", "takeaway": "yes", "addr:full": "2149A Cliff Road", "addr:city": "Eagan", "addr:state": "Minnesota", "addr:postcode": "55122", "addr:country": "US", "name": "Bruegger's Bagels Cliff Road", "phone": "(651) 405-8895", "website": "https://locations.brueggers.com/us/mn/eagan/2149a-cliff-road", "opening_hours": "Mo-Su 06:00-02:00", "brand": "Bruegger's", "brand:wikidata": "Q4978656", "nsi_id": "brueggersbagels-4d2ff4"}, "geometry": {"type": "Point", "coordinates": [-93.21730971336365, 44.791128725579014]}},
{"type": "Feature", "id": "b9tZKwmQws9o663tKQJ5yCl3n5U=", "properties": {"ref": "16528-west-78th-street", "@spider": "brueggers", "amenity": "fast_food", "cuisine": "bagel", "short_name": "Bruegger's", "takeaway": "yes", "addr:full": "16528 West 78th Street", "addr:city": "Eden Prairie", "addr:state": "Minnesota", "addr:postcode": "55346", "addr:country": "US", "name": "Bruegger's Bagels Prairie Village", "phone": "(952) 974-9777", "website": "https://locations.brueggers.com/us/mn/eden-prairie/16528-west-78th-street", "opening_hours": "Mo-Fr 06:00-02:00; Sa-Su 06:30-02:00", "brand": "Bruegger's", "brand:wikidata": "Q4978656", "nsi_id": "brueggersbagels-4d2ff4"}, "geometry": {"type": "Point", "coordinates": [-93.48774377546317, 44.863586307830204]}},
{"type": "Feature", "id": "E08BxAWlHygVPPmynMa1qGs2kVg=", "properties": {"ref": "4412-france-ave-s", "@spider": "brueggers", "amenity": "fast_food", "cuisine": "bagel", "short_name": "Bruegger's", "takeaway": "yes", "addr:full": "4412 France Ave S Suite 100", "addr:city": "Edina", "addr:state": "Minnesota", "addr:postcode": "55410", "addr:country": "US", "name": "Bruegger's Bagels Edina/44th France", "phone": "(952) 927-9446", "website": "https://locations.brueggers.com/us/mn/edina/4412-france-ave-s", "opening_hours": "Mo-Su 06:00-02:00", "brand": "Bruegger's", "brand:wikidata": "Q4978656", "nsi_id": "brueggersbagels-4d2ff4"}, "geometry": {"type": "Point", "coordinates": [-93.32932680845255, 44.92202137034885]}},
{"type": "Feature", "id": "F1mg7clWiu8dKM4Z3o6phTx3Unc=", "properties": {"ref": "4554-nicollet-avenue-south", "@spider": "brueggers", "amenity": "fast_food", "cuisine": "bagel", "short_name": "Bruegger's", "takeaway": "yes", "addr:full": "4554 Nicollet Avenue South #139", "addr:city": "Minneapolis", "addr:state": "Minnesota", "addr:postcode": "55409", "addr:country": "US", "name": "Bruegger's Bagels Station 27", "phone": "(612) 822-5401", "website": "https://locations.brueggers.com/us/mn/minneapolis/4554-nicollet-avenue-south", "opening_hours": "Mo-Su 06:00-02:00", "brand": "Bruegger's", "brand:wikidata": "Q4978656", "nsi_id": "brueggersbagels-4d2ff4"}, "geometry": {"type": "Point", "coordinates": [-93.27840234299543, 44.91982325326148]}},
{"type": "Feature", "id": "HQcwOabXceyVk4lWl5eHkqkXpec=", "properties": {"ref": "228-east-hennepin-avenue", "@spider": "brueggers", "amenity": "fast_food", "cuisine": "bagel", "short_name": "Bruegger's", "takeaway": "yes", "addr:full": "228 East Hennepin Avenue #139", "addr:city": "Minneapolis", "addr:state": "Minnesota", "addr:postcode": "55414", "addr:country": "US", "name": "Bruegger's Bagels East Hennepin", "phone": "(612) 617-9617", "website": "https://locations.brueggers.com/us/mn/minneapolis/228-east-hennepin-avenue", "opening_hours": "Mo-Su 06:00-02:00", "brand": "Bruegger's", "brand:wikidata": "Q4978656", "nsi_id": "brueggersbagels-4d2ff4"}, "geometry": {"type": "Point", "coordinates": [-93.25636772883604, 44.987734235834594]}},
{"type": "Feature", "id": "UUCX5zVpegmW71iZFIJru4ZSJOk=", "properties": {"ref": "1800-east-franklin-street", "@spider": "brueggers", "amenity": "fast_food", "cuisine": "bagel", "short_name": "Bruegger's", "takeaway": "yes", "addr:full": "1800 East Franklin Street", "addr:city": "Chapel Hill", "addr:state": "North Carolina", "addr:postcode": "27514", "addr:country": "US", "name": "Bruegger's Bagels Eastgate", "phone": "(919) 929-5524", "website": "https://locations.brueggers.com/us/nc/chapel-hill/1800-east-franklin-street", "opening_hours": "Mo-Su 06:00-02:00", "brand": "Bruegger's", "brand:wikidata": "Q4978656", "nsi_id": "brueggersbagels-4d2ff4"}, "geometry": {"type": "Point", "coordinates": [-79.0253716707229, 35.936526783488766]}},
{"type": "Feature", "id": "46fuBJ9yPFj8OeTilJkFOEY2IAw=", "properties": {"ref": "3211-battleground-avenue", "@spider": "brueggers", "amenity": "fast_food", "cuisine": "bagel", "short_name": "Bruegger's", "takeaway": "yes", "addr:full": "3211 Battleground Avenue", "addr:city": "Greensboro", "addr:state": "North Carolina", "addr:postcode": "27408", "addr:country": "US", "name": "Bruegger's Bagels Battleground", "phone": "(336) 288-1030", "website": "https://locations.brueggers.com/us/nc/greensboro/3211-battleground-avenue", "opening_hours": "Mo-Su 06:00-02:00", "brand": "Bruegger's", "brand:wikidata": "Q4978656", "nsi_id": "brueggersbagels-4d2ff4"}, "geometry": {"type": "Point", "coordinates": [-79.84132647514343, 36.118990094254336]}},
{"type": "Feature", "id": "oI2UOUkS9CGkDX4icfHnvOv8UGg=", "properties": {"ref": "626-ninth-st", "@spider": "brueggers", "amenity": "fast_food", "cuisine": "bagel", "short_name": "Bruegger's", "takeaway": "yes", "addr:full": "626 Ninth St", "addr:city": "Durham", "addr:state": "North Carolina", "addr:postcode": "27705", "addr:country": "US", "name": "Bruegger's Bagels Durham", "phone": "(919) 286-4900", "website": "https://locations.brueggers.com/us/nc/durham/626-ninth-st", "opening_hours": "Mo-Fr 06:00-02:00; Sa 06:00-11:00; Su 06:00-02:00", "brand": "Bruegger's", "brand:wikidata": "Q4978656", "nsi_id": "brueggersbagels-4d2ff4"}, "geometry": {"type": "Point", "coordinates": [-78.9219819009304, 36.007534347836774]}},
{"type": "Feature", "id": "6WWJxv97dlXkxyfIn8eXZArZxdY=", "properties": {"ref": "4104-surles-court", "@spider": "brueggers", "amenity": "fast_food", "cuisine": "bagel", "short_name": "Bruegger's", "takeaway": "yes", "addr:full": "4104 Surles Court Terminal 2", "addr:city": "Durham", "addr:state": "North Carolina", "addr:postcode": "27703", "addr:country": "US", "name": "Bruegger's Bagels Shiloh Crossing", "phone": "(919) 941-6306", "website": "https://locations.brueggers.com/us/nc/durham/4104-surles-court", "opening_hours": "Mo-Sa 06:30-02:00; Su 07:00-02:00", "brand": "Bruegger's", "brand:wikidata": "Q4978656", "nsi_id": "brueggersbagels-4d2ff4"}, "geometry": {"type": "Point", "coordinates": [-78.84932756423956, 35.86769963496262]}},
{"type": "Feature", "id": "g9c7r_seoFFuNTqeF1z6OlRPcHI=", "properties": {"ref": "1831-martin-luther-king-parkway", "@spider": "brueggers", "amenity": "fast_food", "cuisine": "bagel", "short_name": "Bruegger's", "takeaway": "yes", "addr:full": "1831 Martin Luther King Parkway", "addr:city": "Durham", "addr:state": "North Carolina", "addr:postcode": "27707", "addr:country": "US", "name": "Bruegger's Bagels Commons", "phone": "(919) 401-3700", "website": "https://locations.brueggers.com/us/nc/durham/1831-martin-luther-king-parkway", "opening_hours": "Mo-Su 06:00-02:00", "brand": "Bruegger's", "brand:wikidata": "Q4978656", "nsi_id": "brueggersbagels-4d2ff4"}, "geometry": {"type": "Point", "coordinates": [-78.959893, 35.959818]}},
{"type": "Feature", "id": "FmveibSkPjJZ8Zecp8M5Eicjvxo=", "properties": {"ref": "3116-west-friendly-avenue", "@spider": "brueggers", "amenity": "fast_food", "cuisine": "bagel", "short_name": "Bruegger's", "takeaway": "yes", "addr:full": "3116 West Friendly Avenue", "addr:city": "Greensboro", "addr:state": "North Carolina", "addr:postcode": "27401", "addr:country": "US", "name": "Bruegger's Bagels Friendly Shopping Center", "phone": "(336) 547-0510", "website": "https://locations.brueggers.com/us/nc/greensboro/3116-west-friendly-avenue", "opening_hours": "Mo-Su 06:00-02:00", "brand": "Bruegger's", "brand:wikidata": "Q4978656", "nsi_id": "brueggersbagels-4d2ff4"}, "geometry": {"type": "Point", "coordinates": [-79.83211406741202, 36.08427950926848]}},
{"type": "Feature", "id": "o_AAF_xu_DXDcmJ4zZOEi357TR0=", "properties": {"ref": "1209-q-street", "@spider": "brueggers", "amenity": "fast_food", "cuisine": "bagel", "short_name": "Bruegger's", "takeaway": "yes", "addr:full": "1209 Q Street", "addr:city": "Lincoln", "addr:state": "Nebraska", "addr:postcode": "68508", "addr:country": "US", "name": "Bruegger's Bagels Lincoln Q Street", "phone": "(402) 474-6001", "website": "https://locations.brueggers.com/us/ne/lincoln/1209-q-street", "opening_hours": "Mo-Su 07:00-11:00", "brand": "Bruegger's", "brand:wikidata": "Q4978656", "nsi_id": "brueggersbagels-4d2ff4"}, "geometry": {"type": "Point", "coordinates": [-96.7036034, 40.815622]}},
{"type": "Feature", "id": "jrxrp7f6VP3xdmfNYSiILV3YXCU=", "properties": {"ref": "3065-erie-boulevard-east", "@spider": "brueggers", "amenity": "fast_food", "cuisine": "bagel", "short_name": "Bruegger's", "takeaway": "yes", "addr:full": "3065 Erie Boulevard East", "addr:city": "Dewitt", "addr:state": "New York", "addr:postcode": "13224", "addr:country": "US", "name": "Bruegger's Bagels Erie Boulevard", "phone": "(315) 517-3160", "website": "https://locations.brueggers.com/us/ny/dewitt/3065-erie-boulevard-east", "opening_hours": "Mo-Su 06:00-02:00", "brand": "Bruegger's", "brand:wikidata": "Q4978656", "nsi_id": "brueggersbagels-4d2ff4"}, "geometry": {"type": "Point", "coordinates": [-76.0840435, 43.0558505]}},
{"type": "Feature", "id": "oYw0J2jLkMycmFJ9KYnXRDR1nls=", "properties": {"ref": "180-delaware-ave", "@spider": "brueggers", "amenity": "fast_food", "cuisine": "bagel", "short_name": "Bruegger's", "takeaway": "yes", "addr:full": "180 Delaware Ave", "addr:city": "Delmar", "addr:state": "New York", "addr:postcode": "12054", "addr:country": "US", "name": "Bruegger's Bagels Delmar", "phone": "(518) 439-0662", "website": "https://locations.brueggers.com/us/ny/delmar/180-delaware-ave", "opening_hours": "Mo-Su 06:00-02:00", "brand": "Bruegger's", "brand:wikidata": "Q4978656", "nsi_id": "brueggersbagels-4d2ff4"}, "geometry": {"type": "Point", "coordinates": [-73.81252599999993, 42.62854615923236]}},
{"type": "Feature", "id": "0U0I4QXIlV2CIDOMSDlIT2mACKA=", "properties": {"ref": "19-clifton-country-rd", "@spider": "brueggers", "amenity": "fast_food", "cuisine": "bagel", "short_name": "Bruegger's", "takeaway": "yes", "addr:full": "19 Clifton Country Rd", "addr:city": "Clifton Park", "addr:state": "New York", "addr:postcode": "12065", "addr:country": "US", "name": "Bruegger's Bagels Clifton Park", "phone": "(518) 383-5814", "website": "https://locations.brueggers.com/us/ny/clifton-park/19-clifton-country-rd", "opening_hours": "Mo-Su 06:00-02:00", "brand": "Bruegger's", "brand:wikidata": "Q4978656", "nsi_id": "brueggersbagels-4d2ff4"}, "geometry": {"type": "Point", "coordinates": [-73.78363251686096, 42.85963567790786]}},
{"type": "Feature", "id": "Us8EcY0wLqscRKWU_-bjhttty_Y=", "properties": {"ref": "4327-park-road", "@spider": "brueggers", "amenity": "fast_food", "cuisine": "bagel", "short_name": "Bruegger's", "takeaway": "yes", "addr:full": "4327 Park Road Building 25", "addr:city": "Charlotte", "addr:state": "North Carolina", "addr:postcode": "28209", "addr:country": "US", "name": "Bruegger's Bagels Park Road", "phone": "(704) 525-5295", "website": "https://locations.brueggers.com/us/nc/charlotte/4327-park-road", "opening_hours": "Mo-Su 06:00-02:00", "brand": "Bruegger's", "brand:wikidata": "Q4978656", "nsi_id": "brueggersbagels-4d2ff4"}, "geometry": {"type": "Point", "coordinates": [-80.84771594477468, 35.17323500438094]}},
{"type": "Feature", "id": "oTwnXMFpCGPC5pOMc7FhpAx99Oo=", "properties": {"ref": "106-south-sharon-amity-rd", "@spider": "brueggers", "amenity": "fast_food", "cuisine": "bagel", "short_name": "Bruegger's", "takeaway": "yes", "addr:full": "106 South Sharon Amity Rd Building 25", "addr:city": "Charlotte", "addr:state": "North Carolina", "addr:postcode": "28211", "addr:country": "US", "name": "Bruegger's Bagels Cotswold", "phone": "(704) 367-0737", "website": "https://locations.brueggers.com/us/nc/charlotte/106-south-sharon-amity-rd", "opening_hours": "Mo-Su 06:00-02:00", "brand": "Bruegger's", "brand:wikidata": "Q4978656", "nsi_id": "brueggersbagels-4d2ff4"}, "geometry": {"type": "Point", "coordinates": [-80.7995164, 35.1760244]}},
{"type": "Feature", "id": "2s3cASKhvAjVPhCCT1uiWyuRaUA=", "properties": {"ref": "8204-tryon-woods-rd", "@spider": "brueggers", "amenity": "fast_food", "cuisine": "bagel", "short_name": "Bruegger's", "takeaway": "yes", "addr:full": "8204 Tryon Woods Rd Suite 113", "addr:city": "Cary", "addr:state": "North Carolina", "addr:postcode": "27511", "addr:country": "US", "name": "Bruegger's Bagels Cary", "phone": "(919) 851-0906", "website": "https://locations.brueggers.com/us/nc/cary/8204-tryon-woods-rd", "opening_hours": "Mo-Fr 06:30-04:00; Sa-Su 07:00-04:00", "brand": "Bruegger's", "brand:wikidata": "Q4978656", "nsi_id": "brueggersbagels-4d2ff4"}, "geometry": {"type": "Point", "coordinates": [-78.7412946, 35.7461866]}},
{"type": "Feature", "id": "3aIAWKZtpCrLIYpoDt4xKvHUPm4=", "properties": {"ref": "4212-nw-cary-parkway", "@spider": "brueggers", "amenity": "fast_food", "cuisine": "bagel", "short_name": "Bruegger's", "takeaway": "yes", "addr:full": "4212 NW Cary Parkway Suite 113", "addr:city": "Cary", "addr:state": "North Carolina", "addr:postcode": "27513", "addr:country": "US", "name": "Bruegger's Bagels Preston Corner", "phone": "(919) 463-5563", "website": "https://locations.brueggers.com/us/nc/cary/4212-nw-cary-parkway", "opening_hours": "Mo-Su 06:00-02:00", "brand": "Bruegger's", "brand:wikidata": "Q4978656", "nsi_id": "brueggersbagels-4d2ff4"}, "geometry": {"type": "Point", "coordinates": [-78.82689625024796, 35.79085219310949]}},
{"type": "Feature", "id": "OO2XuRD9IoGIZikKhoWJ_4vTFmQ=", "properties": {"ref": "671-merrimon-avenue", "@spider": "brueggers", "amenity": "fast_food", "cuisine": "bagel", "short_name": "Bruegger's", "takeaway": "yes", "addr:full": "671 Merrimon Avenue", "addr:city": "Asheville", "addr:state": "North Carolina", "addr:postcode": "28804", "addr:country": "US", "name": "Bruegger's Bagels Merrimon", "phone": "(828) 254-1560", "website": "https://locations.brueggers.com/us/nc/asheville/671-merrimon-avenue", "opening_hours": "Mo-Sa 06:00-02:00; Su 07:00-02:00", "brand": "Bruegger's", "brand:wikidata": "Q4978656", "nsi_id": "brueggersbagels-4d2ff4"}, "geometry": {"type": "Point", "coordinates": [-82.55424054232788, 35.62226573790665]}},
{"type": "Feature", "id": "1W3bp6ZA4V-JIgJOjCnlOSHOPro=", "properties": {"ref": "160-hendersonville-road", "@spider": "brueggers", "amenity": "fast_food", "cuisine": "bagel", "short_name": "Bruegger's", "takeaway": "yes", "addr:full": "160 Hendersonville Road", "addr:city": "Asheville", "addr:state": "North Carolina", "addr:postcode": "28803", "addr:country": "US", "name": "Bruegger's Bagels Biltmore", "phone": "(828) 277-1070", "website": "https://locations.brueggers.com/us/nc/asheville/160-hendersonville-road", "opening_hours": "Mo-Su 06:00-02:00", "brand": "Bruegger's", "brand:wikidata": "Q4978656", "nsi_id": "brueggersbagels-4d2ff4"}, "geometry": {"type": "Point", "coordinates": [-82.5418509542942, 35.56421789278944]}},
{"type": "Feature", "id": "Qvs5to21JTgJe7_HvO-id9e1gac=", "properties": {"ref": "98-wolf-rd", "@spider": "brueggers", "amenity": "fast_food", "cuisine": "bagel", "short_name": "Bruegger's", "takeaway": "yes", "addr:full": "98 Wolf Rd", "addr:city": "Albany", "addr:state": "New York", "addr:postcode": "12205", "addr:country": "US", "name": "Bruegger's Bagels Wolf Road", "phone": "(518) 438-5014", "website": "https://locations.brueggers.com/us/ny/albany/98-wolf-rd", "opening_hours": "Mo-Su 06:00-02:00", "brand": "Bruegger's", "brand:wikidata": "Q4978656", "nsi_id": "brueggersbagels-4d2ff4"}, "geometry": {"type": "Point", "coordinates": [-73.81290078163147, 42.717313783784675]}},
{"type": "Feature", "id": "U6QO4Yk4CMymAn4vGdFMSoUVxlM=", "properties": {"ref": "1770-central-ave", "@spider": "brueggers", "amenity": "fast_food", "cuisine": "bagel", "short_name": "Bruegger's", "takeaway": "yes", "addr:full": "1770 Central Ave", "addr:city": "Albany", "addr:state": "New York", "addr:postcode": "12205", "addr:country": "US", "name": "Bruegger's Bagels Village Square", "phone": "(518) 464-0363", "website": "https://locations.brueggers.com/us/ny/albany/1770-central-ave", "opening_hours": "Mo-Sa 06:00-02:00; Su 07:00-02:00", "brand": "Bruegger's", "brand:wikidata": "Q4978656", "nsi_id": "brueggersbagels-4d2ff4"}, "geometry": {"type": "Point", "coordinates": [-73.84547782209012, 42.727779653142335]}},
{"type": "Feature", "id": "4ilBtIir-Ln7MpIDVDiYJMSwEUo=", "properties": {"ref": "1475-westen-ave", "@spider": "brueggers", "amenity": "fast_food", "cuisine": "bagel", "short_name": "Bruegger's", "takeaway": "yes", "addr:full": "1475 Westen Ave", "addr:city": "Albany", "addr:state": "New York", "addr:postcode": "12203", "addr:country": "US", "name": "Bruegger's Bagels - CLOSED Stuyvesant Plaza", "phone": "(518) 482-3579", "website": "https://locations.brueggers.com/us/ny/albany/1475-westen-ave", "brand": "Bruegger's", "brand:wikidata": "Q4978656", "nsi_id": "brueggersbagels-4d2ff4"}, "geometry": {"type": "Point", "coordinates": [-73.838648, 42.683636]}}]}