{"type":"FeatureCollection","features":[{"type": "Feature", "id": "RD1ebV7NgLmz37HfAJW2djaVfLQ=", "properties": {"ref": "222", "amenity:fuel": true, "fuel:diesel": true, "car_wash": false, "@spider": "buc-ees", "shop": "convenience", "addr:full": "1700 Highway 71 East", "addr:city": "Bastrop", "addr:state": "Texas", "addr:postcode": "78602", "addr:country": "US", "name": "Buc-ee's #28 &#8211; Bastrop, TX", "opening_hours": "Mo-Fr 09:00-17:00", "brand": "Buc-ee's", "brand:wikidata": "Q4982335", "nsi_id": "bucees-f1e40b"}, "geometry": {"type": "Point", "coordinates": [-97.305824, 30.107047]}},
{"type": "Feature", "id": "RO36tmBXqIpmRKOwgnTdFUopeV4=", "properties": {"ref": "218", "amenity:fuel": true, "fuel:diesel": true, "car_wash": false, "@spider": "buc-ees", "shop": "convenience", "addr:full": "2760 IH 35 North", "addr:city": "New Braunfels", "addr:state": "Texas", "addr:postcode": "78130", "addr:country": "US", "name": "Buc-ee's #22 &#8211; New Braunfels, TX", "opening_hours": "Mo-Fr 09:00-17:00", "brand": "Buc-ee's", "brand:wikidata": "Q4982335", "nsi_id": "bucees-f1e40b"}, "geometry": {"type": "Point", "coordinates": [-98.078917, 29.726987]}},
{"type": "Feature", "id": "9Um2a9WtsfAYGYp6KiEUStHkEDI=", "properties": {"ref": "213", "amenity:fuel": true, "fuel:diesel": true, "car_wash": false, "@spider": "buc-ees", "shop": "convenience", "addr:full": "10070 West IH 10", "addr:city": "Luling", "addr:state": "Texas", "addr:postcode": "78658", "addr:country": "US", "name": "Buc-ee's #17 &#8211; Luling, TX", "opening_hours": "Mo-Fr 09:00-17:00", "brand": "Buc-ee's", "brand:wikidata": "Q4982335", "nsi_id": "bucees-f1e40b"}, "geometry": {"type": "Point", "coordinates": [-97.592193, 29.650666]}},
{"type": "Feature", "id": "vfvNZyU_2b14_qvA4q68XJl-uH0=", "properties": {"ref": "212", "amenity:fuel": true, "fuel:diesel": true, "car_wash": false, "@spider": "buc-ees", "shop": "convenience", "addr:full": "2375 E Austin St", "addr:city": "Giddings", "addr:state": "Texas", "addr:postcode": "78942", "addr:country": "US", "name": "Buc-ee's #16 &#8211; Giddings, TX", "opening_hours": "Mo-Fr 09:00-17:00", "brand": "Buc-ee's", "brand:wikidata": "Q4982335", "nsi_id": "bucees-f1e40b"}, "geometry": {"type": "Point", "coordinates": [-96.913816, 30.179754]}},
{"type": "Feature", "id": "W92QzPUvwK67Uug-V5Fr3SP9jno=", "properties": {"ref": "228", "amenity:fuel": true, "fuel:diesel": true, "car_wash": false, "@spider": "buc-ees", "shop": "convenience", "addr:full": "4155 N General Bruce Dr.", "addr:city": "Temple", "addr:state": "Texas", "addr:postcode": "76501", "addr:country": "US", "name": "Buc-ee's #35 &#8211; Temple, TX", "opening_hours": "Mo-Fr 09:00-17:00", "brand": "Buc-ee's", "brand:wikidata": "Q4982335", "nsi_id": "bucees-f1e40b"}, "geometry": {"type": "Point", "coordinates": [-97.329041, 31.1368]}},
{"type": "Feature", "id": "ZVK6uqiKeAqNGmhlI4I-MVk_OiA=", "properties": {"ref": "220", "amenity:fuel": true, "fuel:diesel": true, "car_wash": false, "@spider": "buc-ees", "shop": "convenience", "addr:full": "505 E Main St", "addr:city": "Eagle Lake", "addr:state": "Texas", "addr:postcode": "77434", "addr:country": "Unites States", "name": "Buc-ee's #24 &#8211; Eagle Lake, TX", "opening_hours": "Mo-Fr 09:00-17:00", "brand": "Buc-ee's", "brand:wikidata": "Q4982335", "nsi_id": "bucees-f1e40b"}, "geometry": {"type": "Point", "coordinates": [-96.331896, 29.58579]}},
{"type": "Feature", "id": "stkk5c7g295p_El4os4JV_SDME4=", "properties": {"ref": "214", "amenity:fuel": true, "fuel:diesel": true, "car_wash": false, "@spider": "buc-ees", "shop": "convenience", "addr:full": "40900 US Hwy 290 Bypass", "addr:city": "Waller", "addr:state": "Texas", "addr:postcode": "77484", "addr:country": "US", "name": "Buc-ee's #18 &#8211; Waller, TX", "opening_hours": "Mo-Fr 09:00-17:00", "brand": "Buc-ee's", "brand:wikidata": "Q4982335", "nsi_id": "bucees-f1e40b"}, "geometry": {"type": "Point", "coordinates": [-95.93184, 30.072076]}},
{"type": "Feature", "id": "_qg66_YyT2boTEC57MQM2F7Ckyg=", "properties": {"ref": "224", "amenity:fuel": true, "fuel:diesel": true, "car_wash": false, "@spider": "buc-ees", "shop": "convenience", "addr:full": "10484 US 59 Road", "addr:city": "Wharton", "addr:state": "Texas", "addr:postcode": "77488", "addr:country": "US", "name": "Buc-ee's #30 &#8211; Wharton, TX", "opening_hours": "Mo-Fr 09:00-17:00", "brand": "Buc-ee's", "brand:wikidata": "Q4982335", "nsi_id": "bucees-f1e40b"}, "geometry": {"type": "Point", "coordinates": [-96.123459, 29.325439]}},
{"type": "Feature", "id": "NNl5EMTOlxn32ziUkJ9ao_oBMK0=", "properties": {"ref": "233", "amenity:fuel": true, "fuel:diesel": true, "car_wash": true, "@spider": "buc-ees", "shop": "convenience", "addr:full": "27700 Katy Fwy", "addr:city": "Katy", "addr:state": "Texas", "addr:postcode": "77494", "addr:country": "US", "name": "Buc-ee's #40 &#8211; Katy, TX", "opening_hours": "Mo-Fr 09:00-17:00", "brand": "Buc-ee's", "brand:wikidata": "Q4982335", "nsi_id": "bucees-f1e40b"}, "geometry": {"type": "Point", "coordinates": [-95.847537, 29.778722]}},
{"type": "Feature", "id": "UkVnK_zzxQx2TqgjedS0TrTjr-A=", "properties": {"ref": "236", "amenity:fuel": true, "fuel:diesel": true, "car_wash": false, "@spider": "buc-ees", "shop": "convenience", "addr:full": "205 IH-45 South", "addr:city": "Madisonville", "addr:state": "Texas", "addr:postcode": "77864", "addr:country": "US", "name": "Buc-ee's #26 &#8211; Madisonville, TX", "opening_hours": "Mo-Fr 09:00-17:00", "brand": "Buc-ee's", "brand:wikidata": "Q4982335", "nsi_id": "bucees-f1e40b"}, "geometry": {"type": "Point", "coordinates": [-95.880359, 30.965454]}},
{"type": "Feature", "id": "ZbO4fRRMQW2mO5BCuAyFLsBM4iQ=", "properties": {"ref": "225", "amenity:fuel": true, "fuel:diesel": true, "car_wash": true, "@spider": "buc-ees", "shop": "convenience", "addr:full": "27106 US-290", "addr:city": "Cypress", "addr:state": "Texas", "addr:postcode": "77433", "addr:country": "US", "name": "Buc-ee's #32 &#8211; Cypress, TX", "opening_hours": "Mo-Fr 09:00-17:00", "brand": "Buc-ee's", "brand:wikidata": "Q4982335", "nsi_id": "bucees-f1e40b"}, "geometry": {"type": "Point", "coordinates": [-95.718225, 29.980893]}},
{"type": "Feature", "id": "MyHX-XV7ynrAqZEutdm3PF-zX1M=", "properties": {"ref": "209", "amenity:fuel": true, "fuel:diesel": true, "car_wash": false, "@spider": "buc-ees", "shop": "convenience", "addr:full": "2318 W Main", "addr:city": "Port Lavaca", "addr:state": "Texas", "addr:postcode": "77979", "addr:country": "US", "name": "Buc-ee's #12 &#8211; Port Lavaca, TX", "opening_hours": "Mo-Fr 09:00-17:00", "brand": "Buc-ee's", "brand:wikidata": "Q4982335", "nsi_id": "bucees-f1e40b"}, "geometry": {"type": "Point", "coordinates": [-96.648904, 28.610024]}},
{"type": "Feature", "id": "N6yio3PkmElxBHj95Mdm3qdzIjk=", "properties": {"ref": "135", "amenity:fuel": true, "fuel:diesel": true, "car_wash": true, "@spider": "buc-ees", "shop": "convenience", "addr:full": "1243 Crabb River Rd", "addr:city": "Richmond", "addr:state": "Texas", "addr:postcode": "77469", "addr:country": "US", "name": "Buc-ee's #31 &#8211; Richmond, TX", "opening_hours": "Mo-Fr 09:00-17:00", "brand": "Buc-ee's", "brand:wikidata": "Q4982335", "nsi_id": "bucees-f1e40b"}, "geometry": {"type": "Point", "coordinates": [-95.696633, 29.552377]}},
{"type": "Feature", "id": "yY0s-sGWROi4SfVbiCGfamKt1V4=", "properties": {"ref": "216", "amenity:fuel": true, "fuel:diesel": true, "car_wash": false, "@spider": "buc-ees", "shop": "convenience", "addr:full": "11151 Shadow Creek Pky", "addr:city": "Pearland", "addr:state": "Texas", "addr:postcode": "77584", "addr:country": "US", "name": "Buc-ee's #20 &#8211; Pearland, TX", "opening_hours": "Mo-Fr 09:00-17:00", "brand": "Buc-ee's", "brand:wikidata": "Q4982335", "nsi_id": "bucees-f1e40b"}, "geometry": {"type": "Point", "coordinates": [-95.391969, 29.580479]}},
{"type": "Feature", "id": "uDL3_GW1aY0ba7JMjNJ4AmC5s8c=", "properties": {"ref": "205", "amenity:fuel": true, "fuel:diesel": true, "car_wash": false, "@spider": "buc-ees", "shop": "convenience", "addr:full": "801 N Brooks", "addr:city": "Brazoria", "addr:state": "Texas", "addr:postcode": "77422", "addr:country": "US", "name": "Buc-ee's #3 &#8211; Brazoria, TX", "opening_hours": "Mo-Fr 09:00-17:00", "brand": "Buc-ee's", "brand:wikidata": "Q4982335", "nsi_id": "bucees-f1e40b"}, "geometry": {"type": "Point", "coordinates": [-95.571861, 29.055565]}},
{"type": "Feature", "id": "-mPJqMBg19u6PBUhCgnYOIC-o4M=", "properties": {"ref": "215", "amenity:fuel": true, "fuel:diesel": true, "car_wash": false, "@spider": "buc-ees", "shop": "convenience", "addr:full": "2541 S Main St", "addr:city": "Pearland", "addr:state": "Texas", "addr:postcode": "77584", "addr:country": "US", "name": "Buc-ee's #19 &#8211; Pearland, TX", "opening_hours": "Mo-Fr 09:00-17:00", "brand": "Buc-ee's", "brand:wikidata": "Q4982335", "nsi_id": "bucees-f1e40b"}, "geometry": {"type": "Point", "coordinates": [-95.285547, 29.56038]}},
{"type": "Feature", "id": "eDBaqjMMtkbfanmUp155DcAocY8=", "properties": {"ref": "221", "amenity:fuel": true, "fuel:diesel": true, "car_wash": false, "@spider": "buc-ees", "shop": "convenience", "addr:full": "2304 W Mulberry St", "addr:city": "Angleton", "addr:state": "Texas", "addr:postcode": "77515", "addr:country": "US", "name": "Buc-ee's #25 &#8211; Angleton, TX", "opening_hours": "Mo-Fr 09:00-17:00", "brand": "Buc-ee's", "brand:wikidata": "Q4982335", "nsi_id": "bucees-f1e40b"}, "geometry": {"type": "Point", "coordinates": [-95.454971, 29.163996]}},
{"type": "Feature", "id": "5istvbEZGzv9W5CncnS11HhbNo8=", "properties": {"ref": "844", "amenity:fuel": true, "fuel:diesel": true, "car_wash": false, "@spider": "buc-ees", "shop": "convenience", "addr:full": "1402 South IH- 45", "addr:city": "Ennis", "addr:state": "Texas", "addr:postcode": "75119", "addr:country": "US", "name": "Buc-ee's #48 &#8211; Ennis, TX", "opening_hours": "Mo-Fr 09:00-17:00", "brand": "Buc-ee's", "brand:wikidata": "Q4982335", "nsi_id": "bucees-f1e40b"}, "geometry": {"type": "Point", "coordinates": [-96.615663, 32.33407]}},
{"type": "Feature", "id": "4q7hgfpCezaAHVL1UsGM_KaJuDY=", "properties": {"ref": "217", "amenity:fuel": true, "fuel:diesel": true, "car_wash": false, "@spider": "buc-ees", "shop": "convenience", "addr:full": "931 Loop 274", "addr:city": "Angleton", "addr:state": "Texas", "addr:postcode": "77515", "addr:country": "US", "name": "Buc-ee's #21 &#8211; Angleton, TX", "opening_hours": "Mo-Fr 09:00-17:00", "brand": "Buc-ee's", "brand:wikidata": "Q4982335", "nsi_id": "bucees-f1e40b"}, "geometry": {"type": "Point", "coordinates": [-95.432375, 29.158399]}},
{"type": "Feature", "id": "zqcxdWlsZIuuK7LglrYcVPNSh-E=", "properties": {"ref": "210", "amenity:fuel": true, "fuel:diesel": true, "car_wash": false, "@spider": "buc-ees", "shop": "convenience", "addr:full": "2299 E Mulberry St", "addr:city": "Angleton", "addr:state": "Texas", "addr:postcode": "77515", "addr:country": "US", "name": "Buc-ee's #13 &#8211; Angleton, TX", "opening_hours": "Mo-Fr 09:00-17:00", "brand": "Buc-ee's", "brand:wikidata": "Q4982335", "nsi_id": "bucees-f1e40b"}, "geometry": {"type": "Point", "coordinates": [-95.408825, 29.184814]}},
{"type": "Feature", "id": "NpFS-P_2ifuFOhQvZTX1h9NSafY=", "properties": {"ref": "211", "amenity:fuel": true, "fuel:diesel": true, "car_wash": false, "@spider": "buc-ees", "shop": "convenience", "addr:full": "780 Hwy-35 N Byp", "addr:city": "Alvin", "addr:state": "Texas", "addr:postcode": "77511", "addr:country": "US", "name": "Buc-ee's #14 &#8211; Alvin, TX", "opening_hours": "Mo-Fr 09:00-17:00", "brand": "Buc-ee's", "brand:wikidata": "Q4982335", "nsi_id": "bucees-f1e40b"}, "geometry": {"type": "Point", "coordinates": [-95.226369, 29.430206]}},
{"type": "Feature", "id": "T8dwrpEAxE_3Ep5MyFEcbenZoA4=", "properties": {"ref": "204", "amenity:fuel": true, "fuel:diesel": true, "car_wash": false, "@spider": "buc-ees", "shop": "convenience", "addr:full": "101 N Hwy 2004", "addr:city": "Lake Jackson", "addr:state": "Texas", "addr:postcode": "77566", "addr:country": "US", "name": "Buc-ee's #2 &#8211; Lake Jackson, TX", "opening_hours": "Mo-Fr 09:00-17:00", "brand": "Buc-ee's", "brand:wikidata": "Q4982335", "nsi_id": "bucees-f1e40b"}, "geometry": {"type": "Point", "coordinates": [-95.427278, 29.063866]}},
{"type": "Feature", "id": "0I5aq1sPAHQKvkUdSQ_r5cHo8fo=", "properties": {"ref": "223", "amenity:fuel": true, "fuel:diesel": true, "car_wash": true, "@spider": "buc-ees", "shop": "convenience", "addr:full": "598 Hwy 332", "addr:city": "Lake Jackson", "addr:state": "Texas", "addr:postcode": "77566", "addr:country": "US", "name": "Buc-ee's #29 &#8211; Lake Jackson, TX", "opening_hours": "Mo-Fr 09:00-17:00", "brand": "Buc-ee's", "brand:wikidata": "Q4982335", "nsi_id": "bucees-f1e40b"}, "geometry": {"type": "Point", "coordinates": [-95.438199, 29.022165]}},
{"type": "Feature", "id": "r-HktYAVn-v93E9OXjVlZuDxvjQ=", "properties": {"ref": "203", "amenity:fuel": true, "fuel:diesel": true, "car_wash": false, "@spider": "buc-ees", "shop": "convenience", "addr:full": "899 Oyster Creek Drive", "addr:city": "Lake Jackson", "addr:state": "Texas", "addr:postcode": "77566", "addr:country": "US", "name": "Buc-ee's #1 &#8211; Lake Jackson, TX", "opening_hours": "Mo-Fr 09:00-17:00", "brand": "Buc-ee's", "brand:wikidata": "Q4982335", "nsi_id": "bucees-f1e40b"}, "geometry": {"type": "Point", "coordinates": [-95.413212, 29.040639]}},
{"type": "Feature", "id": "_fbM2SqDVMAWQby5hbuRZ28aLZo=", "properties": {"ref": "227", "amenity:fuel": true, "fuel:diesel": true, "car_wash": false, "@spider": "buc-ees", "shop": "convenience", "addr:full": "4080 East Freeway", "addr:city": "Baytown", "addr:state": "Texas", "addr:postcode": "77521", "addr:country": "US", "name": "Buc-ee's #34 &#8211; Baytown, TX", "opening_hours": "Mo-Fr 09:00-17:00", "brand": "Buc-ee's", "brand:wikidata": "Q4982335", "nsi_id": "bucees-f1e40b"}, "geometry": {"type": "Point", "coordinates": [-94.998305, 29.799148]}},
{"type": "Feature", "id": "NbSRczmipHgTWpkJyTpj7M7XDkw=", "properties": {"ref": "208", "amenity:fuel": true, "fuel:diesel": true, "car_wash": false, "@spider": "buc-ees", "shop": "convenience", "addr:full": "1002 N Brazosport Blvd.", "addr:city": "Freeport", "addr:state": "Texas", "addr:postcode": "77541", "addr:country": "US", "name": "Buc-ee's #8 &#8211; Freeport, TX", "opening_hours": "Mo-Fr 09:00-17:00", "brand": "Buc-ee's", "brand:wikidata": "Q4982335", "nsi_id": "bucees-f1e40b"}, "geometry": {"type": "Point", "coordinates": [-95.369951, 28.969488]}},
{"type": "Feature", "id": "0ygThsQKCivUiN5xLJy8j6ew69U=", "properties": {"ref": "219", "amenity:fuel": true, "fuel:diesel": true, "car_wash": false, "@spider": "buc-ees", "shop": "convenience", "addr:full": "1702 League City Pkwy", "addr:city": "League City", "addr:state": "Texas", "addr:postcode": "77573", "addr:country": "Unites States", "name": "Buc-ee's #23 &#8211; League City, TX", "opening_hours": "Mo-Fr 09:00-17:00", "brand": "Buc-ee's", "brand:wikidata": "Q4982335", "nsi_id": "bucees-f1e40b"}, "geometry": {"type": "Point", "coordinates": [-95.056575, 29.498598]}},
{"type": "Feature", "id": "QUXRVYiG22ppFHvT-CHEBEyg_kM=", "properties": {"ref": "207", "amenity:fuel": true, "fuel:diesel": true, "car_wash": false, "@spider": "buc-ees", "shop": "convenience", "addr:full": "4231 E. Hwy 332", "addr:city": "Freeport", "addr:state": "Texas", "addr:postcode": "77541", "addr:country": "US", "name": "Buc-ee's #7 &#8211; Freeport, TX", "opening_hours": "Mo-Fr 09:00-17:00", "brand": "Buc-ee's", "brand:wikidata": "Q4982335", "nsi_id": "bucees-f1e40b"}, "geometry": {"type": "Point", "coordinates": [-95.337008, 28.980863]}},
{"type": "Feature", "id": "IgAqkDMLX0RZB96zxsg_zAei--k=", "properties": {"ref": "226", "amenity:fuel": true, "fuel:diesel": true, "car_wash": false, "@spider": "buc-ees", "shop": "convenience", "addr:full": "6201 Gulf Fwy (IH 45)", "addr:city": "Texas City", "addr:state": "Texas", "addr:postcode": "77591", "addr:country": "US", "name": "Buc-ee's #33 &#8211; Texas City, TX", "opening_hours": "Mo-Fr 09:00-17:00", "brand": "Buc-ee's", "brand:wikidata": "Q4982335", "nsi_id": "bucees-f1e40b"}, "geometry": {"type": "Point", "coordinates": [-95.062994, 29.429015]}},
{"type": "Feature", "id": "en97qAHhnc2sPTZ-cP0i-xh6kY0=", "properties": {"ref": "229", "amenity:fuel": true, "fuel:diesel": true, "car_wash": false, "@spider": "buc-ees", "shop": "convenience", "addr:full": "506 W. IH 20", "addr:city": "Terrell", "addr:state": "Texas", "addr:postcode": "75160", "addr:country": "US", "name": "Buc-ee's #36 &#8211; Terrell, TX", "opening_hours": "Mo-Fr 09:00-17:00", "brand": "Buc-ee's", "brand:wikidata": "Q4982335", "nsi_id": "bucees-f1e40b"}, "geometry": {"type": "Point", "coordinates": [-96.322619, 32.716676]}},
{"type": "Feature", "id": "iN_kKMKgRQ-N1amLg7gEL1E_HwU=", "properties": {"ref": "230", "amenity:fuel": true, "fuel:diesel": true, "car_wash": false, "@spider": "buc-ees", "shop": "convenience", "addr:full": "15901 N Freeway", "addr:city": "Fort Worth", "addr:state": "Texas", "addr:postcode": "76177", "addr:country": "US", "name": "Buc-ee's #37 &#8211; Fort Worth, TX", "opening_hours": "Mo-Fr 09:00-17:00", "brand": "Buc-ee's", "brand:wikidata": "Q4982335", "nsi_id": "bucees-f1e40b"}, "geometry": {"type": "Point", "coordinates": [-97.278257, 33.024766]}},
{"type": "Feature", "id": "NWSH84zCkIGlt83RWffnVdTD_BQ=", "properties": {"ref": "231", "amenity:fuel": true, "fuel:diesel": true, "car_wash": false, "@spider": "buc-ees", "shop": "convenience", "addr:full": "5005 E Interstate 30", "addr:city": "Royse City", "addr:state": "Texas", "addr:postcode": "75189", "addr:country": "US", "name": "Buc-ee's #38 &#8211; Royse City, TX", "opening_hours": "Mo-Fr 09:00-17:00", "brand": "Buc-ee's", "brand:wikidata": "Q4982335", "nsi_id": "bucees-f1e40b"}, "geometry": {"type": "Point", "coordinates": [-96.329704, 32.970428]}},
{"type": "Feature", "id": "26VsLEBOf1nSomTcXAXuowgcoaU=", "properties": {"ref": "232", "amenity:fuel": true, "fuel:diesel": true, "car_wash": true, "@spider": "buc-ees", "shop": "convenience", "addr:full": "2800 S Interstate 35 E", "addr:city": "Denton", "addr:state": "Texas", "addr:postcode": "76210", "addr:country": "US", "name": "Buc-ee's #39 &#8211; Denton, TX", "opening_hours": "Mo-Fr 09:00-17:00", "brand": "Buc-ee's", "brand:wikidata": "Q4982335", "nsi_id": "bucees-f1e40b"}, "geometry": {"type": "Point", "coordinates": [-97.101967, 33.179976]}},
{"type": "Feature", "id": "FVLIVqnLPKyk4WYggX6JZBNTDb0=", "properties": {"ref": "235", "amenity:fuel": true, "fuel:diesel": true, "car_wash": false, "@spider": "buc-ees", "shop": "convenience", "addr:full": "1550 Central Texas Expressway", "addr:city": "Melissa", "addr:state": "Texas", "addr:postcode": "75454", "addr:country": "US", "name": "Buc-ee's #44 &#8211; Melissa, TX", "opening_hours": "Mo-Fr 09:00-17:00", "brand": "Buc-ee's", "brand:wikidata": "Q4982335", "nsi_id": "bucees-f1e40b"}, "geometry": {"type": "Point", "coordinates": [-96.591722, 33.27149]}},
{"type": "Feature", "id": "jHTPljI0XeKVRNTWbYORFSWQe9s=", "properties": {"ref": "234", "amenity:fuel": true, "fuel:diesel": true, "car_wash": false, "@spider": "buc-ees", "shop": "convenience", "addr:full": "20403 County Rd. 68", "addr:city": "Robertsdale", "addr:state": "Alabama", "addr:postcode": "36567", "addr:country": "US", "name": "Buc-ee's #42 &#8211; Loxley, AL", "opening_hours": "Mo-Fr 09:00-17:00", "brand": "Buc-ee's", "brand:wikidata": "Q4982335", "nsi_id": "bucees-f1e40b"}, "geometry": {"type": "Point", "coordinates": [-87.675004, 30.633196]}},
{"type": "Feature", "id": "g3rsPJE2XIo5Do8E8LBHjtvH9VE=", "properties": {"ref": "1187", "amenity:fuel": true, "fuel:diesel": true, "car_wash": false, "@spider": "buc-ees", "shop": "convenience", "addr:full": "6900 Buc-ee\u2019s Blvd.", "addr:city": "Leeds", "addr:state": "Alabama", "addr:postcode": "35094", "addr:country": "US", "name": "Buc-ee's #43 &#8211; Leeds, AL", "opening_hours": "Mo-Tu 06:00-06:00; We 06:00-06:30; Th 06:00-06:00; Fr 06:30-06:00; Sa-Su 06:00-06:00", "brand": "Buc-ee's", "brand:wikidata": "Q4982335", "nsi_id": "bucees-f1e40b"}, "geometry": {"type": "Point", "coordinates": [-86.586234, 33.544573]}},
{"type": "Feature", "id": "xHuW8IaPgY1cyWJUBx5PYT0VJA8=", "properties": {"ref": "1367", "amenity:fuel": true, "fuel:diesel": true, "car_wash": false, "@spider": "buc-ees", "shop": "convenience", "addr:full": "601 Union Grove Rd. SE", "addr:city": "Adairsville", "addr:state": "GA", "addr:postcode": "30103", "addr:country": "US", "name": "Buc-ee's #52 &#8211; Calhoun, GA", "opening_hours": "Mo-Fr 09:00-17:00", "brand": "Buc-ee's", "brand:wikidata": "Q4982335", "nsi_id": "bucees-f1e40b"}, "geometry": {"type": "Point", "coordinates": [-84.916995, 34.440719]}},
{"type": "Feature", "id": "w60ofAf8dPwwdSGGcFKn-HCzr58=", "properties": {"ref": "1602", "amenity:fuel": true, "fuel:diesel": true, "car_wash": false, "@spider": "buc-ees", "shop": "convenience", "addr:full": "2045 Genesis Road", "addr:city": "Crossville", "addr:state": "Tennessee", "addr:postcode": "38555", "addr:country": "US", "name": "Buc-ee's #50 Crossville, TN", "opening_hours": "Mo-Fr 09:00-17:00", "brand": "Buc-ee's", "brand:wikidata": "Q4982335", "nsi_id": "bucees-f1e40b"}, "geometry": {"type": "Point", "coordinates": [-85.015003, 35.980139]}},
{"type": "Feature", "id": "4U6VyKeAExuBtEMv-XHgJg1zCt8=", "properties": {"ref": "1163", "amenity:fuel": true, "fuel:diesel": true, "car_wash": false, "@spider": "buc-ees", "shop": "convenience", "addr:full": "7001 Russell Parkway", "addr:city": "Fort Valley", "addr:state": "Georgia", "addr:postcode": "31030", "addr:country": "US", "name": "Buc-ee's #51 &#8211; Warner Robins, GA", "opening_hours": "Mo-Fr 09:00-17:00", "brand": "Buc-ee's", "brand:wikidata": "Q4982335", "nsi_id": "bucees-f1e40b"}, "geometry": {"type": "Point", "coordinates": [-83.740351, 32.585031]}},
{"type": "Feature", "id": "srBKQRjKQ3jQw-u4yaaZIqw0IGI=", "properties": {"ref": "1530", "amenity:fuel": true, "fuel:diesel": true, "car_wash": false, "@spider": "buc-ees", "shop": "convenience", "addr:full": "1013 Buc-ee's Boulevard", "addr:city": "Richmond", "addr:state": "Kentucky", "addr:postcode": "40475", "addr:country": "US", "name": "Buc-ee's #55 &#8211; Richmond, KY", "opening_hours": "Mo-Su 09:00-21:00", "brand": "Buc-ee's", "brand:wikidata": "Q4982335", "nsi_id": "bucees-f1e40b"}, "geometry": {"type": "Point", "coordinates": [-84.314518, 37.67203]}},
{"type": "Feature", "id": "6Hm580aREJU5h1eT9FKUN17uQIQ=", "properties": {"ref": "1262", "amenity:fuel": true, "fuel:diesel": true, "car_wash": false, "@spider": "buc-ees", "shop": "convenience", "addr:full": "200 World Commerce Pkwy", "addr:city": "Saint Augustine", "addr:state": "Florida", "addr:postcode": "32092", "addr:country": "US", "name": "Buc-ee's #46 &#8211; Saint Augustine, FL", "opening_hours": "Mo-Fr 09:00-17:00", "brand": "Buc-ee's", "brand:wikidata": "Q4982335", "nsi_id": "bucees-f1e40b"}, "geometry": {"type": "Point", "coordinates": [-81.464239, 29.983505]}},
{"type": "Feature", "id": "EPieXCu94KK6ptw1q0EUZpH8Jko=", "properties": {"ref": "1308", "amenity:fuel": true, "fuel:diesel": true, "car_wash": false, "@spider": "buc-ees", "shop": "convenience", "addr:full": "2330 Gateway North Drive", "addr:city": "Daytona Beach", "addr:state": "FL", "addr:postcode": "32117", "addr:country": "US", "name": "Buc-ee's #47 &#8211; Daytona Beach, FL", "opening_hours": "Mo-Fr 09:00-17:00", "brand": "Buc-ee's", "brand:wikidata": "Q4982335", "nsi_id": "bucees-f1e40b"}, "geometry": {"type": "Point", "coordinates": [-81.100615, 29.22305]}},
{"type": "Feature", "id": "MUeu5xr1roNWNERVKZQwvjJd3XE=", "properties": {"ref": "1589", "amenity:fuel": true, "fuel:diesel": true, "car_wash": false, "@spider": "buc-ees", "shop": "convenience", "addr:full": "3390 North Williston Road", "addr:city": "Florence", "addr:state": "South Carolina", "addr:postcode": "29506", "addr:country": "US", "name": "Buc-ee's #53 &#8211; Florence, SC", "opening_hours": "Mo-Su 09:00-09:00", "brand": "Buc-ee's", "brand:wikidata": "Q4982335", "nsi_id": "bucees-f1e40b"}, "geometry": {"type": "Point", "coordinates": [-79.702652, 34.271906]}}]}