{"type":"FeatureCollection","features":[{"type": "Feature", "id": "v9ZFP5lPijbSoTfsk7IeEPB0pcE=", "properties": {"ref": "8037", "@spider": "bueno", "amenity": "fast_food", "cuisine": "mexican", "takeaway": "yes", "addr:full": "5701 Rogers Ave. Fort Smith, AR ", "addr:street_address": "5701 Rogers Ave.", "addr:city": "Fort Smith", "addr:state": "AR", "addr:country": "US", "name": "Taco Bueno - 8037", "phone": "(479) 452-2866", "opening_hours": "off", "brand": "Taco Bueno", "brand:wikidata": "Q7673958", "nsi_id": "tacobueno-4d2ff4"}, "geometry": {"type": "Point", "coordinates": [-94.3695411, 35.3619235]}},
{"type": "Feature", "id": "R1ZQLzxE9gbe6qaWBjXsuYajPsQ=", "properties": {"ref": "8035", "@spider": "bueno", "amenity": "fast_food", "cuisine": "mexican", "takeaway": "yes", "addr:full": "20742 I-30 North Benton, AR 72019", "addr:street_address": "20742 I-30 North", "addr:city": "Benton", "addr:state": "AR", "addr:postcode": "72019", "addr:country": "US", "name": "Taco Bueno - 8035", "phone": "(501) 794-2121", "opening_hours": "10:30 - 22:00", "brand": "Taco Bueno", "brand:wikidata": "Q7673958", "nsi_id": "tacobueno-4d2ff4"}, "geometry": {"type": "Point", "coordinates": [-92.5325457, 34.6072054]}},
{"type": "Feature", "id": "rxZYx4hxqt5FPJ7BIQiwpaMH1AM=", "properties": {"ref": "8028", "@spider": "bueno", "amenity": "fast_food", "cuisine": "mexican", "takeaway": "yes", "addr:full": "1155 Dave Ward Drive Conway, AR 72034", "addr:street_address": "1155 Dave Ward Drive", "addr:city": "Conway", "addr:state": "AR", "addr:postcode": "72034", "addr:country": "US", "name": "Taco Bueno - 8028", "phone": "(501) 450-3999", "opening_hours": "10:00 - 21:00", "brand": "Taco Bueno", "brand:wikidata": "Q7673958", "nsi_id": "tacobueno-4d2ff4"}, "geometry": {"type": "Point", "coordinates": [-92.4414585, 35.0670134]}},
{"type": "Feature", "id": "ghpG5bi4-wAssVwvZTvK4BS7kBE=", "properties": {"ref": "8021", "@spider": "bueno", "amenity": "fast_food", "cuisine": "mexican", "takeaway": "yes", "addr:full": "102 Savana Drive Maumelle, AR 72113", "addr:street_address": "102 Savana Drive", "addr:city": "Maumelle", "addr:state": "AR", "addr:postcode": "72113", "addr:country": "US", "name": "Taco Bueno - 8021", "phone": "(501) 851-4464", "opening_hours": "off", "brand": "Taco Bueno", "brand:wikidata": "Q7673958", "nsi_id": "tacobueno-4d2ff4"}, "geometry": {"type": "Point", "coordinates": [-92.4038519, 34.8538881]}},
{"type": "Feature", "id": "xi4m_AGbFc5uXQvQ0BDmlLZZD58=", "properties": {"ref": "8047", "@spider": "bueno", "amenity": "fast_food", "cuisine": "mexican", "takeaway": "yes", "addr:full": "111 W. Pershing Blvd. N. Little Rock, AR 72114", "addr:street_address": "111 W. Pershing Blvd.", "addr:city": "N. Little Rock", "addr:state": "AR", "addr:postcode": "72114", "addr:country": "US", "name": "Taco Bueno - 8047", "phone": "() -", "opening_hours": "10:30 - 22:00", "brand": "Taco Bueno", "brand:wikidata": "Q7673958", "nsi_id": "tacobueno-4d2ff4"}, "geometry": {"type": "Point", "coordinates": [-92.2675828092, 34.7793022889]}},
{"type": "Feature", "id": "1Y70cKiuOLGRUqYp2G4zKURcD5s=", "properties": {"ref": "8046", "@spider": "bueno", "amenity": "fast_food", "cuisine": "mexican", "takeaway": "yes", "addr:full": "9109 W Markam St Little Rock, AR 72205", "addr:street_address": "9109 W Markam St", "addr:city": "Little Rock", "addr:state": "AR", "addr:postcode": "72205", "addr:country": "US", "name": "Taco Bueno - 8046", "phone": "(501) 812-3907", "opening_hours": "10:30 - 22:00", "brand": "Taco Bueno", "brand:wikidata": "Q7673958", "nsi_id": "tacobueno-4d2ff4"}, "geometry": {"type": "Point", "coordinates": [-92.3753722466, 34.7526130813]}},
{"type": "Feature", "id": "iFjeZ90WOC5KP9aaxmjwXVpXV5Q=", "properties": {"ref": "8002", "@spider": "bueno", "amenity": "fast_food", "cuisine": "mexican", "takeaway": "yes", "addr:full": "10114 Mablevale Plaza Drive  Little Rock, AR 72209", "addr:street_address": "10114 Mablevale Plaza Drive ", "addr:city": "Little Rock", "addr:state": "AR", "addr:postcode": "72209", "addr:country": "US", "name": "Taco Bueno - 8002", "phone": "(501) 562-0390", "opening_hours": "10:00 - 21:30", "brand": "Taco Bueno", "brand:wikidata": "Q7673958", "nsi_id": "tacobueno-4d2ff4"}, "geometry": {"type": "Point", "coordinates": [-92.3791831, 34.6697663]}},
{"type": "Feature", "id": "v2BdfRp-ZoMKFnKMN7-y7PtRMCk=", "properties": {"ref": "8036", "@spider": "bueno", "amenity": "fast_food", "cuisine": "mexican", "takeaway": "yes", "addr:full": "1634 W. Martin Luther King Blvd. Fayetteville, AR 72701", "addr:street_address": "1634 W. Martin Luther King Blvd.", "addr:city": "Fayetteville", "addr:state": "AR", "addr:postcode": "72701", "addr:country": "US", "name": "Taco Bueno - 8036", "phone": "(479) 527-6356", "opening_hours": "10:30 - 22:00", "brand": "Taco Bueno", "brand:wikidata": "Q7673958", "nsi_id": "tacobueno-4d2ff4"}, "geometry": {"type": "Point", "coordinates": [-94.184305, 36.056577]}},
{"type": "Feature", "id": "5tVo7LSWojBnHoza720P7HJGDZs=", "properties": {"ref": "8001", "@spider": "bueno", "amenity": "fast_food", "cuisine": "mexican", "takeaway": "yes", "addr:full": "272 E. Joyce Blvd. Fayetteville, AR 72703", "addr:street_address": "272 E. Joyce Blvd.", "addr:city": "Fayetteville", "addr:state": "AR", "addr:postcode": "72703", "addr:country": "US", "name": "Taco Bueno - 8001", "phone": "(479) 442-7724", "opening_hours": "10:30 - 22:00", "brand": "Taco Bueno", "brand:wikidata": "Q7673958", "nsi_id": "tacobueno-4d2ff4"}, "geometry": {"type": "Point", "coordinates": [-94.155321, 36.124507]}},
{"type": "Feature", "id": "nAX7MrQ8fKSFxHwGNvyewuuUc-E=", "properties": {"ref": "8009", "@spider": "bueno", "amenity": "fast_food", "cuisine": "mexican", "takeaway": "yes", "addr:full": "1302 SE Walton Blvd Bentonville, AR 72712", "addr:street_address": "1302 SE Walton Blvd", "addr:city": "Bentonville", "addr:state": "AR", "addr:postcode": "72712", "addr:country": "US", "name": "Taco Bueno - 8009", "phone": "(479) 273-6694", "opening_hours": "10:30 - 22:00", "brand": "Taco Bueno", "brand:wikidata": "Q7673958", "nsi_id": "tacobueno-4d2ff4"}, "geometry": {"type": "Point", "coordinates": [-94.193931, 36.33524]}},
{"type": "Feature", "id": "zyP_v1IoHkm8ovZIeIr_22qXI2k=", "properties": {"ref": "8006", "@spider": "bueno", "amenity": "fast_food", "cuisine": "mexican", "takeaway": "yes", "addr:full": "4303 Pleasant Crossing Blvd Rogers, AR 72758", "addr:street_address": "4303 Pleasant Crossing Blvd", "addr:city": "Rogers", "addr:state": "AR", "addr:postcode": "72758", "addr:country": "US", "name": "Taco Bueno - 8006", "phone": "(479) 636-3501", "opening_hours": "10:30 - 22:00", "brand": "Taco Bueno", "brand:wikidata": "Q7673958", "nsi_id": "tacobueno-4d2ff4"}, "geometry": {"type": "Point", "coordinates": [-94.149459, 36.27909]}},
{"type": "Feature", "id": "bkyRPye5u1mE71zi5hY3QR0FXJk=", "properties": {"ref": "8031", "@spider": "bueno", "amenity": "fast_food", "cuisine": "mexican", "takeaway": "yes", "addr:full": "7420 W. Sunset Ave. Springdale, AR 72762", "addr:street_address": "7420 W. Sunset Ave.", "addr:city": "Springdale", "addr:state": "AR", "addr:postcode": "72762", "addr:country": "US", "name": "Taco Bueno - 8031", "phone": "(479) 361-9115", "opening_hours": "10:30 - 22:00", "brand": "Taco Bueno", "brand:wikidata": "Q7673958", "nsi_id": "tacobueno-4d2ff4"}, "geometry": {"type": "Point", "coordinates": [-94.180383, 36.177035]}},
{"type": "Feature", "id": "0yUfi6ADWX3vcWIxDwUEVEELRZs=", "properties": {"ref": "8043", "@spider": "bueno", "amenity": "fast_food", "cuisine": "mexican", "takeaway": "yes", "addr:full": "440 E. Bert Kouns Industrial Loop  Shreveport, LA 71106 ", "addr:street_address": "440 E. Bert Kouns Industrial Loop ", "addr:city": "Shreveport", "addr:state": "LA", "addr:postcode": "71106 ", "addr:country": "US", "name": "Shreveport #1 ", "phone": "(318) 219-4888", "opening_hours": "off", "brand": "Taco Bueno", "brand:wikidata": "Q7673958", "nsi_id": "tacobueno-4d2ff4"}, "geometry": {"type": "Point", "coordinates": [-93.7441635, 32.3985086]}},
{"type": "Feature", "id": "iAGCl1kdTXkjaHRYK7wmLJ2Md8Q=", "properties": {"ref": "8032", "@spider": "bueno", "amenity": "fast_food", "cuisine": "mexican", "takeaway": "yes", "addr:full": "755 MacArthur Drive Alexandria, LA 71303", "addr:street_address": "755 MacArthur Drive", "addr:city": "Alexandria", "addr:state": "LA", "addr:postcode": "71303", "addr:country": "US", "name": "Taco Bueno - 8032", "phone": "(318) 445-9025", "opening_hours": "10:30 - 22:00", "brand": "Taco Bueno", "brand:wikidata": "Q7673958", "nsi_id": "tacobueno-4d2ff4"}, "geometry": {"type": "Point", "coordinates": [-92.477663, 31.294212]}},
{"type": "Feature", "id": "B10Qs1CVy62Z1agNxMx7uq55W9M=", "properties": {"ref": "3049", "@spider": "bueno", "amenity": "fast_food", "cuisine": "mexican", "takeaway": "yes", "addr:full": "125 E 2nd Edmond, OK 73034", "addr:street_address": "125 E 2nd", "addr:city": "Edmond", "addr:state": "OK", "addr:postcode": "73034", "addr:country": "US", "name": "Taco Bueno - 3049", "phone": "(405) 340-7490", "opening_hours": "10:30 - 22:00", "brand": "Taco Bueno", "brand:wikidata": "Q7673958", "nsi_id": "tacobueno-4d2ff4"}, "geometry": {"type": "Point", "coordinates": [-97.479083, 35.653269]}},
{"type": "Feature", "id": "s42nM21bLJtmy9Pu9PhedTDJK38=", "properties": {"ref": "3219", "@spider": "bueno", "amenity": "fast_food", "cuisine": "mexican", "takeaway": "yes", "addr:full": "1021 E. State Highway 152 Mustang, OK 73064", "addr:street_address": "1021 E. State Highway 152", "addr:city": "Mustang", "addr:state": "OK", "addr:postcode": "73064", "addr:country": "US", "name": "Taco Bueno - 3219", "phone": "(405) 294-4756", "opening_hours": "10:30 - 22:00", "brand": "Taco Bueno", "brand:wikidata": "Q7673958", "nsi_id": "tacobueno-4d2ff4"}, "geometry": {"type": "Point", "coordinates": [-97.7032785, 35.3916726]}},
{"type": "Feature", "id": "y1C3boHuZWZ5-qxBqogFqdzNxoE=", "properties": {"ref": "3064", "@spider": "bueno", "amenity": "fast_food", "cuisine": "mexican", "takeaway": "yes", "addr:full": "251 S E 12th Ave Norman, OK 73071", "addr:street_address": "251 S E 12th Ave", "addr:city": "Norman", "addr:state": "OK", "addr:postcode": "73071", "addr:country": "US", "name": "Taco Bueno - 3064", "phone": "(405) 366-0180", "opening_hours": "10:30 - 22:00", "brand": "Taco Bueno", "brand:wikidata": "Q7673958", "nsi_id": "tacobueno-4d2ff4"}, "geometry": {"type": "Point", "coordinates": [-97.42309, 35.21577]}},
{"type": "Feature", "id": "-bbuU0quXI_P3WD3vZzwIJOYTvc=", "properties": {"ref": "3144", "@spider": "bueno", "amenity": "fast_food", "cuisine": "mexican", "takeaway": "yes", "addr:full": "1601 Garth Brooks Blvd. Yukon, OK 73099", "addr:street_address": "1601 Garth Brooks Blvd.", "addr:city": "Yukon", "addr:state": "OK", "addr:postcode": "73099", "addr:country": "US", "name": "Taco Bueno - 3144", "phone": "(405) 294-4733", "opening_hours": "10:30 - 22:00", "brand": "Taco Bueno", "brand:wikidata": "Q7673958", "nsi_id": "tacobueno-4d2ff4"}, "geometry": {"type": "Point", "coordinates": [-97.759836, 35.483414]}},
{"type": "Feature", "id": "BYLFV09BD7CuQH_EgQLETnaGJqw=", "properties": {"ref": "3048", "@spider": "bueno", "amenity": "fast_food", "cuisine": "mexican", "takeaway": "yes", "addr:full": "1440 S Air Depot Midwest City, OK 73110", "addr:street_address": "1440 S Air Depot", "addr:city": "Midwest City", "addr:state": "OK", "addr:postcode": "73110", "addr:country": "US", "name": "Taco Bueno - 3048", "phone": "(405) 733-2301", "opening_hours": "10:30 - 22:00", "brand": "Taco Bueno", "brand:wikidata": "Q7673958", "nsi_id": "tacobueno-4d2ff4"}, "geometry": {"type": "Point", "coordinates": [-97.405645, 35.450017]}},
{"type": "Feature", "id": "mSkVXUNLVbs1XPjsowHweJKIXOw=", "properties": {"ref": "3046", "@spider": "bueno", "amenity": "fast_food", "cuisine": "mexican", "takeaway": "yes", "addr:full": "4421 N W 39th Expwy OKC, OK 73112", "addr:street_address": "4421 N W 39th Expwy", "addr:city": "OKC", "addr:state": "OK", "addr:postcode": "73112", "addr:country": "US", "name": "Taco Bueno - 3046", "phone": "(405) 947-4789", "opening_hours": "10:30 - 22:00", "brand": "Taco Bueno", "brand:wikidata": "Q7673958", "nsi_id": "tacobueno-4d2ff4"}, "geometry": {"type": "Point", "coordinates": [-97.600771, 35.511662]}},
{"type": "Feature", "id": "rnhHsrcvQHWp64fQMGf0Zm5K6Wo=", "properties": {"ref": "3120", "@spider": "bueno", "amenity": "fast_food", "cuisine": "mexican", "takeaway": "yes", "addr:full": "945 West Memorial Road Oklahoma City, OK 73114", "addr:street_address": "945 West Memorial Road", "addr:city": "Oklahoma City", "addr:state": "OK", "addr:postcode": "73114", "addr:country": "US", "name": "Taco Bueno - 3120", "phone": "(405) 751-1997", "opening_hours": "10:30 - 22:00", "brand": "Taco Bueno", "brand:wikidata": "Q7673958", "nsi_id": "tacobueno-4d2ff4"}, "geometry": {"type": "Point", "coordinates": [-97.529864, 35.609284]}},
{"type": "Feature", "id": "FldXQk9QRFXq0XdOh2zT5Viv0ZY=", "properties": {"ref": "3010", "@spider": "bueno", "amenity": "fast_food", "cuisine": "mexican", "takeaway": "yes", "addr:full": "6615 N May Ave OKC, OK 73116", "addr:street_address": "6615 N May Ave", "addr:city": "OKC", "addr:state": "OK", "addr:postcode": "73116", "addr:country": "US", "name": "Taco Bueno - 3010", "phone": "(405) 294-4675", "opening_hours": "10:30 - 22:00", "brand": "Taco Bueno", "brand:wikidata": "Q7673958", "nsi_id": "tacobueno-4d2ff4"}, "geometry": {"type": "Point", "coordinates": [-97.566164, 35.539023]}},
{"type": "Feature", "id": "erk_M98rQs5GpFwms4gPxPbqz8U=", "properties": {"ref": "3180", "@spider": "bueno", "amenity": "fast_food", "cuisine": "mexican", "takeaway": "yes", "addr:full": "6001 W Reno Ave OKC, OK 73127", "addr:street_address": "6001 W Reno Ave", "addr:city": "OKC", "addr:state": "OK", "addr:postcode": "73127", "addr:country": "US", "name": "Taco Bueno - 3180", "phone": "(405) 787-7383", "opening_hours": "10:30 - 22:00", "brand": "Taco Bueno", "brand:wikidata": "Q7673958", "nsi_id": "tacobueno-4d2ff4"}, "geometry": {"type": "Point", "coordinates": [-97.620265, 35.464795]}},
{"type": "Feature", "id": "shNE8fzqFkJf6y8iDDh_NVupBcQ=", "properties": {"ref": "3035", "@spider": "bueno", "amenity": "fast_food", "cuisine": "mexican", "takeaway": "yes", "addr:full": "7104 N W Hwy OKC, OK 73132", "addr:street_address": "7104 N W Hwy", "addr:city": "OKC", "addr:state": "OK", "addr:postcode": "73132", "addr:country": "US", "name": "Taco Bueno - 3035", "phone": "(405) 721-3936", "opening_hours": "10:30 - 22:00", "brand": "Taco Bueno", "brand:wikidata": "Q7673958", "nsi_id": "tacobueno-4d2ff4"}, "geometry": {"type": "Point", "coordinates": [-97.640017, 35.558109]}},
{"type": "Feature", "id": "O3DP4yEhf3cDt6VnuahQayiE5v4=", "properties": {"ref": "3027", "@spider": "bueno", "amenity": "fast_food", "cuisine": "mexican", "takeaway": "yes", "addr:full": "1400 S W 74th Expwy OKC, OK 73159", "addr:street_address": "1400 S W 74th Expwy", "addr:city": "OKC", "addr:state": "OK", "addr:postcode": "73159", "addr:country": "US", "name": "Taco Bueno - 3027", "phone": "(405) 685-0562", "opening_hours": "10:30 - 22:00", "brand": "Taco Bueno", "brand:wikidata": "Q7673958", "nsi_id": "tacobueno-4d2ff4"}, "geometry": {"type": "Point", "coordinates": [-97.542962, 35.390771]}},
{"type": "Feature", "id": "FWJnHoZpuf-rMHHwt-zbiuY1Cis=", "properties": {"ref": "3053", "@spider": "bueno", "amenity": "fast_food", "cuisine": "mexican", "takeaway": "yes", "addr:full": "1109 N Sante Fe Moore, OK 73160", "addr:street_address": "1109 N Sante Fe", "addr:city": "Moore", "addr:state": "OK", "addr:postcode": "73160", "addr:country": "US", "name": "Taco Bueno - 3053", "phone": "(405) 799-7095", "opening_hours": "10:30 - 22:00", "brand": "Taco Bueno", "brand:wikidata": "Q7673958", "nsi_id": "tacobueno-4d2ff4"}, "geometry": {"type": "Point", "coordinates": [-97.512182, 35.346994]}},
{"type": "Feature", "id": "s9pIgFay2o1_vGsExTharoTasko=", "properties": {"ref": "3210", "@spider": "bueno", "amenity": "fast_food", "cuisine": "mexican", "takeaway": "yes", "addr:full": "2004 S Service Rd Moore, OK 73160", "addr:street_address": "2004 S Service Rd", "addr:city": "Moore", "addr:state": "OK", "addr:postcode": "73160", "addr:country": "US", "name": "Taco Bueno - 3210", "phone": "(405) 294-4755", "opening_hours": "10:30 - 22:00", "brand": "Taco Bueno", "brand:wikidata": "Q7673958", "nsi_id": "tacobueno-4d2ff4"}, "geometry": {"type": "Point", "coordinates": [-97.4885001, 35.3192595]}},
{"type": "Feature", "id": "QmYjEH1JoN-yhEEv057zOkL5yVs=", "properties": {"ref": "3038", "@spider": "bueno", "amenity": "fast_food", "cuisine": "mexican", "takeaway": "yes", "addr:full": "905 N Commerce Ardmore, OK 73401", "addr:street_address": "905 N Commerce", "addr:city": "Ardmore", "addr:state": "OK", "addr:postcode": "73401", "addr:country": "US", "name": "Taco Bueno - 3038", "phone": "(580) 319-5940", "opening_hours": "10:30 - 22:00", "brand": "Taco Bueno", "brand:wikidata": "Q7673958", "nsi_id": "tacobueno-4d2ff4"}, "geometry": {"type": "Point", "coordinates": [-97.143787, 34.18503]}},
{"type": "Feature", "id": "z5GOMbJTff1wBeKfgdRGVCtUuI8=", "properties": {"ref": "3220", "@spider": "bueno", "amenity": "fast_food", "cuisine": "mexican", "takeaway": "yes", "addr:full": "2144 NW 82nd St. Lawton, OK 73505", "addr:street_address": "2144 NW 82nd St.", "addr:city": "Lawton", "addr:state": "OK", "addr:postcode": "73505", "addr:country": "US", "name": "Taco Bueno - 3220", "phone": "(580) 928-0658", "opening_hours": "10:30 - 22:00", "brand": "Taco Bueno", "brand:wikidata": "Q7673958", "nsi_id": "tacobueno-4d2ff4"}, "geometry": {"type": "Point", "coordinates": [-98.4923045, 34.63195725]}},
{"type": "Feature", "id": "ZloWckrhYr9WsBFBKtVjaCD-ik8=", "properties": {"ref": "3081", "@spider": "bueno", "amenity": "fast_food", "cuisine": "mexican", "takeaway": "yes", "addr:full": "15040 S Memorial Bixby, OK 74008", "addr:street_address": "15040 S Memorial", "addr:city": "Bixby", "addr:state": "OK", "addr:postcode": "74008", "addr:country": "US", "name": "Taco Bueno - 3081", "phone": "(918) 268-6875", "opening_hours": "10:30 - 22:00", "brand": "Taco Bueno", "brand:wikidata": "Q7673958", "nsi_id": "tacobueno-4d2ff4"}, "geometry": {"type": "Point", "coordinates": [-95.887118, 35.945875]}},
{"type": "Feature", "id": "HKGx163loOSnBJvkpeibnGpBKo0=", "properties": {"ref": "3208", "@spider": "bueno", "amenity": "fast_food", "cuisine": "mexican", "takeaway": "yes", "addr:full": "6414 S Elm Place Broken Arrow, OK 74011", "addr:street_address": "6414 S Elm Place", "addr:city": "Broken Arrow", "addr:state": "OK", "addr:postcode": "74011", "addr:country": "US", "name": "Taco Bueno - 3208", "phone": "(918) 956-1129", "opening_hours": "10:30 - 22:00", "brand": "Taco Bueno", "brand:wikidata": "Q7673958", "nsi_id": "tacobueno-4d2ff4"}, "geometry": {"type": "Point", "coordinates": [-95.7973967, 35.9978884]}},
{"type": "Feature", "id": "SKcE9v1I9bo2O5epTuS96juW1_4=", "properties": {"ref": "3124", "@spider": "bueno", "amenity": "fast_food", "cuisine": "mexican", "takeaway": "yes", "addr:full": "1001 West New Orleans St. Broken Arrow, OK 74011", "addr:street_address": "1001 West New Orleans St.", "addr:city": "Broken Arrow", "addr:state": "OK", "addr:postcode": "74011", "addr:country": "US", "name": "Taco Bueno - 3124", "phone": "(918) 268-6866", "opening_hours": "10:30 - 22:00", "brand": "Taco Bueno", "brand:wikidata": "Q7673958", "nsi_id": "tacobueno-4d2ff4"}, "geometry": {"type": "Point", "coordinates": [-95.801834, 36.017344]}},
{"type": "Feature", "id": "R_h34EBzSWP3Ehtv5267i7eNPT4=", "properties": {"ref": "3052", "@spider": "bueno", "amenity": "fast_food", "cuisine": "mexican", "takeaway": "yes", "addr:full": "1810 N Elm Place Broken Arrow, OK 74012", "addr:street_address": "1810 N Elm Place", "addr:city": "Broken Arrow", "addr:state": "OK", "addr:postcode": "74012", "addr:country": "US", "name": "Taco Bueno - 3052", "phone": "(918) 268-6841", "opening_hours": "10:30 - 22:00", "brand": "Taco Bueno", "brand:wikidata": "Q7673958", "nsi_id": "tacobueno-4d2ff4"}, "geometry": {"type": "Point", "coordinates": [-95.797854, 36.070114]}},
{"type": "Feature", "id": "9CrB6PzKB7aLP2CTFCgyeRmVruU=", "properties": {"ref": "3082", "@spider": "bueno", "amenity": "fast_food", "cuisine": "mexican", "takeaway": "yes", "addr:full": "6112 S Garnett Broken Arrow, OK 74012", "addr:street_address": "6112 S Garnett", "addr:city": "Broken Arrow", "addr:state": "OK", "addr:postcode": "74012", "addr:country": "US", "name": "Taco Bueno - 3082", "phone": "(918) 398-8212", "opening_hours": "10:30 - 22:00", "brand": "Taco Bueno", "brand:wikidata": "Q7673958", "nsi_id": "tacobueno-4d2ff4"}, "geometry": {"type": "Point", "coordinates": [-95.851198, 36.075092]}},
{"type": "Feature", "id": "8Mu_DXNjUDgrQnU4VEd471O-CTw=", "properties": {"ref": "3200", "@spider": "bueno", "amenity": "fast_food", "cuisine": "mexican", "takeaway": "yes", "addr:full": "2030 South Cherokee Catoosa, OK 74015", "addr:street_address": "2030 South Cherokee", "addr:city": "Catoosa", "addr:state": "OK", "addr:postcode": "74015", "addr:country": "US", "name": "Taco Bueno - 3200", "phone": "(918) 266-4494", "opening_hours": "10:30 - 22:00", "brand": "Taco Bueno", "brand:wikidata": "Q7673958", "nsi_id": "tacobueno-4d2ff4"}, "geometry": {"type": "Point", "coordinates": [-95.759908, 36.167279]}},
{"type": "Feature", "id": "J9HPJp-vVHzNBwwJjAjSWdWMdz0=", "properties": {"ref": "3074", "@spider": "bueno", "amenity": "fast_food", "cuisine": "mexican", "takeaway": "yes", "addr:full": "1210 W Will Rogers Blvd Claremore, OK 74017", "addr:street_address": "1210 W Will Rogers Blvd", "addr:city": "Claremore", "addr:state": "OK", "addr:postcode": "74017", "addr:country": "US", "name": "Taco Bueno - 3074", "phone": "(918) 343-0971", "opening_hours": "10:30 - 22:00", "brand": "Taco Bueno", "brand:wikidata": "Q7673958", "nsi_id": "tacobueno-4d2ff4"}, "geometry": {"type": "Point", "coordinates": [-95.624058, 36.316076]}},
{"type": "Feature", "id": "OEoA7AKk2snXJwtTNsd6bMcOwgE=", "properties": {"ref": "3071", "@spider": "bueno", "amenity": "fast_food", "cuisine": "mexican", "takeaway": "yes", "addr:full": "11925 E 86th St Owasso, OK 74055", "addr:street_address": "11925 E 86th St", "addr:city": "Owasso", "addr:state": "OK", "addr:postcode": "74055", "addr:country": "US", "name": "Taco Bueno - 3071", "phone": "(918) 272-6657", "opening_hours": "11:00 - 19:00", "brand": "Taco Bueno", "brand:wikidata": "Q7673958", "nsi_id": "tacobueno-4d2ff4"}, "geometry": {"type": "Point", "coordinates": [-95.84196, 36.278574]}},
{"type": "Feature", "id": "z_Q4IeRVpl2-avJrrqVA2WaQOfQ=", "properties": {"ref": "3203", "@spider": "bueno", "amenity": "fast_food", "cuisine": "mexican", "takeaway": "yes", "addr:full": "13502 E 116 St N Owasso, OK 74055", "addr:street_address": "13502 E 116 St N", "addr:city": "Owasso", "addr:state": "OK", "addr:postcode": "74055", "addr:country": "US", "name": "Taco Bueno - 3203", "phone": "(918) 371-3933", "opening_hours": "10:30 - 20:00", "brand": "Taco Bueno", "brand:wikidata": "Q7673958", "nsi_id": "tacobueno-4d2ff4"}, "geometry": {"type": "Point", "coordinates": [-95.833124, 36.322062]}},
{"type": "Feature", "id": "1vERkItBIyvRuzETBV8nffFmWQQ=", "properties": {"ref": "3067", "@spider": "bueno", "amenity": "fast_food", "cuisine": "mexican", "takeaway": "yes", "addr:full": "546 Plaza Court Sand Springs, OK 74063", "addr:street_address": "546 Plaza Court", "addr:city": "Sand Springs", "addr:state": "OK", "addr:postcode": "74063", "addr:country": "US", "name": "Taco Bueno - 3067", "phone": "(918) 245-6740", "opening_hours": "10:30 - 22:00", "brand": "Taco Bueno", "brand:wikidata": "Q7673958", "nsi_id": "tacobueno-4d2ff4"}, "geometry": {"type": "Point", "coordinates": [-96.101635, 36.138689]}},
{"type": "Feature", "id": "Ri4xyvNsE_QZF4V5urfIOIaJ8mI=", "properties": {"ref": "3090", "@spider": "bueno", "amenity": "fast_food", "cuisine": "mexican", "takeaway": "yes", "addr:full": "722 S Main St Sapulpa, OK 74066", "addr:street_address": "722 S Main St", "addr:city": "Sapulpa", "addr:state": "OK", "addr:postcode": "74066", "addr:country": "US", "name": "Taco Bueno - 3090", "phone": "(918) 528-4860", "opening_hours": "10:30 - 20:00", "brand": "Taco Bueno", "brand:wikidata": "Q7673958", "nsi_id": "tacobueno-4d2ff4"}, "geometry": {"type": "Point", "coordinates": [-96.114022, 35.989483]}},
{"type": "Feature", "id": "_jZt6z9NysnHEcka_xIdQHQ1Vcg=", "properties": {"ref": "3202", "@spider": "bueno", "amenity": "fast_food", "cuisine": "mexican", "takeaway": "yes", "addr:full": "12130 S. Vancouver Ave. Sapulpa, OK 74066", "addr:street_address": "12130 S. Vancouver Ave.", "addr:city": "Sapulpa", "addr:state": "OK", "addr:postcode": "74066", "addr:country": "US", "name": "Taco Bueno - 3202", "phone": "(918) 528-4876", "opening_hours": "10:30 - 22:00", "brand": "Taco Bueno", "brand:wikidata": "Q7673958", "nsi_id": "tacobueno-4d2ff4"}, "geometry": {"type": "Point", "coordinates": [-96.014449, 35.987231]}},
{"type": "Feature", "id": "pI9iupINH_esWGJLdc8wl-Q7b-E=", "properties": {"ref": "8038", "@spider": "bueno", "amenity": "fast_food", "cuisine": "mexican", "takeaway": "yes", "addr:full": "808 W Rogers Blvd Skiatook, OK 74070", "addr:street_address": "808 W Rogers Blvd", "addr:city": "Skiatook", "addr:state": "OK", "addr:postcode": "74070", "addr:country": "US", "name": "Taco Bueno - 8038", "phone": "(918) 396-8022", "opening_hours": "10:30 - 22:00", "brand": "Taco Bueno", "brand:wikidata": "Q7673958", "nsi_id": "tacobueno-4d2ff4"}, "geometry": {"type": "Point", "coordinates": [-96.0109374, 36.3685772]}},
{"type": "Feature", "id": "cKUrFD5CvE2zru5t9q7rlds2YuM=", "properties": {"ref": "3058", "@spider": "bueno", "amenity": "fast_food", "cuisine": "mexican", "takeaway": "yes", "addr:full": "727 N Perkins Rd Stillwater, OK 74075", "addr:street_address": "727 N Perkins Rd", "addr:city": "Stillwater", "addr:state": "OK", "addr:postcode": "74075", "addr:country": "US", "name": "Taco Bueno - 3058", "phone": "(405) 372-2627", "opening_hours": "10:30 - 22:00", "brand": "Taco Bueno", "brand:wikidata": "Q7673958", "nsi_id": "tacobueno-4d2ff4"}, "geometry": {"type": "Point", "coordinates": [-97.051325, 36.130475]}},
{"type": "Feature", "id": "t7yRoeNIXtTdA8Su871Q0CnKiA8=", "properties": {"ref": "8048", "@spider": "bueno", "amenity": "fast_food", "cuisine": "mexican", "takeaway": "yes", "addr:full": "324 S. Main St.  Tulsa, OK 74103 ", "addr:street_address": "324 S. Main St. ", "addr:city": "Tulsa", "addr:state": "OK", "addr:postcode": "74103 ", "addr:country": "US", "name": "Taco Bueno #8048 ", "phone": "(539) 664-5769", "opening_hours": "off", "brand": "Taco Bueno", "brand:wikidata": "Q7673958", "nsi_id": "tacobueno-4d2ff4"}, "geometry": {"type": "Point", "coordinates": [-95.9911615841, 36.1531087522]}},
{"type": "Feature", "id": "h6XLh1mE9YmWjXig6re_Dpbbjtc=", "properties": {"ref": "3085", "@spider": "bueno", "amenity": "fast_food", "cuisine": "mexican", "takeaway": "yes", "addr:full": "2814 E 11th St Tulsa, OK 74104", "addr:street_address": "2814 E 11th St", "addr:city": "Tulsa", "addr:state": "OK", "addr:postcode": "74104", "addr:country": "US", "name": "Taco Bueno - 3085", "phone": "(918) 583-6447", "opening_hours": "10:30 - 22:00", "brand": "Taco Bueno", "brand:wikidata": "Q7673958", "nsi_id": "tacobueno-4d2ff4"}, "geometry": {"type": "Point", "coordinates": [-95.948498, 36.147786]}},
{"type": "Feature", "id": "MXgxc__cbPEnB95hKwA0gE6ITeg=", "properties": {"ref": "3084", "@spider": "bueno", "amenity": "fast_food", "cuisine": "mexican", "takeaway": "yes", "addr:full": "4608 S Peoria Tulsa, OK 74105", "addr:street_address": "4608 S Peoria", "addr:city": "Tulsa", "addr:state": "OK", "addr:postcode": "74105", "addr:country": "US", "name": "Taco Bueno - 3084", "phone": "(918) 743-1349", "opening_hours": "10:30 - 22:00", "brand": "Taco Bueno", "brand:wikidata": "Q7673958", "nsi_id": "tacobueno-4d2ff4"}, "geometry": {"type": "Point", "coordinates": [-95.975844, 36.096256]}},
{"type": "Feature", "id": "X501_z2xOOPLgLNh8hI3pf1T8M8=", "properties": {"ref": "3191", "@spider": "bueno", "amenity": "fast_food", "cuisine": "mexican", "takeaway": "yes", "addr:full": "5847 S 49th West Ave Tulsa, OK 74107", "addr:street_address": "5847 S 49th West Ave", "addr:city": "Tulsa", "addr:state": "OK", "addr:postcode": "74107", "addr:country": "US", "name": "Taco Bueno - 3191", "phone": "(918) 528-4863", "opening_hours": "10:30 - 22:00", "brand": "Taco Bueno", "brand:wikidata": "Q7673958", "nsi_id": "tacobueno-4d2ff4"}, "geometry": {"type": "Point", "coordinates": [-96.047257, 36.078083]}},
{"type": "Feature", "id": "oCVGATYEXSxR0Dh6_7XEKr-lS6c=", "properties": {"ref": "3019", "@spider": "bueno", "amenity": "fast_food", "cuisine": "mexican", "takeaway": "yes", "addr:full": "7436 E Admiral Place Tulsa, OK 74115", "addr:street_address": "7436 E Admiral Place", "addr:city": "Tulsa", "addr:state": "OK", "addr:postcode": "74115", "addr:country": "US", "name": "Taco Bueno - 3019", "phone": "(918) 836-0842", "opening_hours": "10:30 - 22:00", "brand": "Taco Bueno", "brand:wikidata": "Q7673958", "nsi_id": "tacobueno-4d2ff4"}, "geometry": {"type": "Point", "coordinates": [-95.893018, 36.160501]}},
{"type": "Feature", "id": "rk4DOxytYr4sCD-sAg5Rbh5QlcU=", "properties": {"ref": "3070", "@spider": "bueno", "amenity": "fast_food", "cuisine": "mexican", "takeaway": "yes", "addr:full": "6519 E 91st St Tulsa, OK 74133", "addr:street_address": "6519 E 91st St", "addr:city": "Tulsa", "addr:state": "OK", "addr:postcode": "74133", "addr:country": "US", "name": "Taco Bueno - 3070", "phone": "(918) 481-6985", "opening_hours": "10:30 - 22:00", "brand": "Taco Bueno", "brand:wikidata": "Q7673958", "nsi_id": "tacobueno-4d2ff4"}, "geometry": {"type": "Point", "coordinates": [-95.889359, 36.025913]}},
{"type": "Feature", "id": "Rh5cGxPpp3Doi9HLHIqSDzGm4Ro=", "properties": {"ref": "3137", "@spider": "bueno", "amenity": "fast_food", "cuisine": "mexican", "takeaway": "yes", "addr:full": "10323 S. Memorial Dr. Tulsa, OK 74133", "addr:street_address": "10323 S. Memorial Dr.", "addr:city": "Tulsa", "addr:state": "OK", "addr:postcode": "74133", "addr:country": "US", "name": "Taco Bueno - 3137", "phone": "(918) 398-8224", "opening_hours": "10:30 - 22:00", "brand": "Taco Bueno", "brand:wikidata": "Q7673958", "nsi_id": "tacobueno-4d2ff4"}, "geometry": {"type": "Point", "coordinates": [-95.88627, 36.012806]}},
{"type": "Feature", "id": "ZIO92AOgecKhTO2r8pjwjb0ATSc=", "properties": {"ref": "3209", "@spider": "bueno", "amenity": "fast_food", "cuisine": "mexican", "takeaway": "yes", "addr:full": "7007 S Peoria Avenue Tulsa, OK 74136", "addr:street_address": "7007 S Peoria Avenue", "addr:city": "Tulsa", "addr:state": "OK", "addr:postcode": "74136", "addr:country": "US", "name": "Taco Bueno - 3209", "phone": "(918) 268-6894", "opening_hours": "10:30 - 22:00", "brand": "Taco Bueno", "brand:wikidata": "Q7673958", "nsi_id": "tacobueno-4d2ff4"}, "geometry": {"type": "Point", "coordinates": [-95.9761498, 36.0461393]}},
{"type": "Feature", "id": "cLiWpdWTGpMWvjWpD6usyLylyGs=", "properties": {"ref": "3040", "@spider": "bueno", "amenity": "fast_food", "cuisine": "mexican", "takeaway": "yes", "addr:full": "5032 S Sheridan Tulsa, OK 74145", "addr:street_address": "5032 S Sheridan", "addr:city": "Tulsa", "addr:state": "OK", "addr:postcode": "74145", "addr:country": "US", "name": "Taco Bueno - 3040", "phone": "(918) 663-1499", "opening_hours": "10:30 - 22:00", "brand": "Taco Bueno", "brand:wikidata": "Q7673958", "nsi_id": "tacobueno-4d2ff4"}, "geometry": {"type": "Point", "coordinates": [-95.904787, 36.090625]}},
{"type": "Feature", "id": "2vOKyyMxkY84ALtw2tbDZuA15pc=", "properties": {"ref": "3003", "@spider": "bueno", "amenity": "fast_food", "cuisine": "mexican", "takeaway": "yes", "addr:full": "9760 E 31st St Tulsa, OK 74146", "addr:street_address": "9760 E 31st St", "addr:city": "Tulsa", "addr:state": "OK", "addr:postcode": "74146", "addr:country": "US", "name": "Taco Bueno - 3003", "phone": "(918) 622-9512", "opening_hours": "10:30 - 22:00", "brand": "Taco Bueno", "brand:wikidata": "Q7673958", "nsi_id": "tacobueno-4d2ff4"}, "geometry": {"type": "Point", "coordinates": [-95.865796, 36.118845]}},
{"type": "Feature", "id": "uKSMOUwrQmovTsJtsRcKxLn5D4E=", "properties": {"ref": "3062", "@spider": "bueno", "amenity": "fast_food", "cuisine": "mexican", "takeaway": "yes", "addr:full": "301 W Shawnee Muskogee, OK 74401", "addr:street_address": "301 W Shawnee", "addr:city": "Muskogee", "addr:state": "OK", "addr:postcode": "74401", "addr:country": "US", "name": "Taco Bueno - 3062", "phone": "(918) 683-0460", "opening_hours": "10:30 - 22:00", "brand": "Taco Bueno", "brand:wikidata": "Q7673958", "nsi_id": "tacobueno-4d2ff4"}, "geometry": {"type": "Point", "coordinates": [-95.362371, 35.769723]}},
{"type": "Feature", "id": "GNes2fY7CT0QsiS72cODVKQq1MY=", "properties": {"ref": "8041", "@spider": "bueno", "amenity": "fast_food", "cuisine": "mexican", "takeaway": "yes", "addr:full": "902 E. Trudgeon Rd Henryetta, OK 74438", "addr:street_address": "902 E. Trudgeon Rd", "addr:city": "Henryetta", "addr:state": "OK", "addr:postcode": "74438", "addr:country": "US", "name": "Henryetta #1", "phone": "(918) 319-5025", "opening_hours": "10:30 - 22:00", "brand": "Taco Bueno", "brand:wikidata": "Q7673958", "nsi_id": "tacobueno-4d2ff4"}, "geometry": {"type": "Point", "coordinates": [-95.9697016, 35.4409129]}},
{"type": "Feature", "id": "fdvNfzxo4uFwEVCxThvQeiUe1YY=", "properties": {"ref": "8040", "@spider": "bueno", "amenity": "fast_food", "cuisine": "mexican", "takeaway": "yes", "addr:full": "3432 Cherokee Springs Road Tahlequah, OK 74464", "addr:street_address": "3432 Cherokee Springs Road", "addr:city": "Tahlequah", "addr:state": "OK", "addr:postcode": "74464", "addr:country": "US", "name": "Tahlequah #1", "phone": "(918) 414-8226", "opening_hours": "10:30 - 22:00", "brand": "Taco Bueno", "brand:wikidata": "Q7673958", "nsi_id": "tacobueno-4d2ff4"}, "geometry": {"type": "Point", "coordinates": [-94.975371, 35.875817]}},
{"type": "Feature", "id": "qU9oDqTlk49tP5cZEtZBUN4091k=", "properties": {"ref": "8049", "@spider": "bueno", "amenity": "fast_food", "cuisine": "mexican", "takeaway": "yes", "addr:full": "109 N. Blake Drive  Wagoner, OK 74467 ", "addr:street_address": "109 N. Blake Drive ", "addr:city": "Wagoner", "addr:state": "OK", "addr:postcode": "74467 ", "addr:country": "US", "name": "Taco Bueno #8049 ", "phone": "(918) 485-7044", "opening_hours": "off", "brand": "Taco Bueno", "brand:wikidata": "Q7673958", "nsi_id": "tacobueno-4d2ff4"}, "geometry": {"type": "Point", "coordinates": [-95.3922396, 35.963268]}},
{"type": "Feature", "id": "RUJ4LjbndwRZwWVLSeJvPrWxxQs=", "properties": {"ref": "3111", "@spider": "bueno", "amenity": "fast_food", "cuisine": "mexican", "takeaway": "yes", "addr:full": "500 Shawnee Mall Dr Shawnee, OK 74804", "addr:street_address": "500 Shawnee Mall Dr", "addr:city": "Shawnee", "addr:state": "OK", "addr:postcode": "74804", "addr:country": "US", "name": "Taco Bueno - 3111", "phone": "(405) 294-4757", "opening_hours": "10:30 - 22:00", "brand": "Taco Bueno", "brand:wikidata": "Q7673958", "nsi_id": "tacobueno-4d2ff4"}, "geometry": {"type": "Point", "coordinates": [-96.927729, 35.385621]}},
{"type": "Feature", "id": "nZS3VtIQqHkCbTzv5vEXMcw1eVY=", "properties": {"ref": "8042", "@spider": "bueno", "amenity": "fast_food", "cuisine": "mexican", "takeaway": "yes", "addr:full": "1201 W. Ruth Ave. Sallisaw, OK 74955", "addr:street_address": "1201 W. Ruth Ave.", "addr:city": "Sallisaw", "addr:state": "OK", "addr:postcode": "74955", "addr:country": "US", "name": "Sallisaw #1 - 8042", "phone": "() -", "opening_hours": "off", "brand": "Taco Bueno", "brand:wikidata": "Q7673958", "nsi_id": "tacobueno-4d2ff4"}, "geometry": {"type": "Point", "coordinates": [-94.8014542, 35.4492357]}},
{"type": "Feature", "id": "nSFK3qquCWwLG7oqURHuP0iLHBk=", "properties": {"ref": "3157", "@spider": "bueno", "amenity": "fast_food", "cuisine": "mexican", "takeaway": "yes", "addr:full": "15000 Marsh Lane Addison, TX 75001", "addr:street_address": "15000 Marsh Lane", "addr:city": "Addison", "addr:state": "TX", "addr:postcode": "75001", "addr:country": "US", "name": "Taco Bueno - 3157", "phone": "(972) 805-5538", "opening_hours": "10:30 - 22:00", "brand": "Taco Bueno", "brand:wikidata": "Q7673958", "nsi_id": "tacobueno-4d2ff4"}, "geometry": {"type": "Point", "coordinates": [-96.855159, 32.951784]}},
{"type": "Feature", "id": "AanJin68S9wrOG1EVJMj8RuHgK4=", "properties": {"ref": "3201", "@spider": "bueno", "amenity": "fast_food", "cuisine": "mexican", "takeaway": "yes", "addr:full": "1709 N. Greenville Ave. Allen, TX 75002", "addr:street_address": "1709 N. Greenville Ave.", "addr:city": "Allen", "addr:state": "TX", "addr:postcode": "75002", "addr:country": "US", "name": "Taco Bueno - 3201", "phone": "(214) 206-1994", "opening_hours": "10:30 - 22:00", "brand": "Taco Bueno", "brand:wikidata": "Q7673958", "nsi_id": "tacobueno-4d2ff4"}, "geometry": {"type": "Point", "coordinates": [-96.646761, 33.127671]}},
{"type": "Feature", "id": "dVjdoO3noAKIyIjbgvzNGWDx1t8=", "properties": {"ref": "3112", "@spider": "bueno", "amenity": "fast_food", "cuisine": "mexican", "takeaway": "yes", "addr:full": "2612 Midway Rd Carrollton, TX 75006", "addr:street_address": "2612 Midway Rd", "addr:city": "Carrollton", "addr:state": "TX", "addr:postcode": "75006", "addr:country": "US", "name": "Taco Bueno - 3112", "phone": "(972) 850-0418", "opening_hours": "10:30 - 22:00", "brand": "Taco Bueno", "brand:wikidata": "Q7673958", "nsi_id": "tacobueno-4d2ff4"}, "geometry": {"type": "Point", "coordinates": [-96.841781, 32.983891]}},
{"type": "Feature", "id": "LKwOLHJ_AcgdBff9E61-G1MtcTM=", "properties": {"ref": "3060", "@spider": "bueno", "amenity": "fast_food", "cuisine": "mexican", "takeaway": "yes", "addr:full": "1945 Frankford Rd Carrollton, TX 75007", "addr:street_address": "1945 Frankford Rd", "addr:city": "Carrollton", "addr:state": "TX", "addr:postcode": "75007", "addr:country": "US", "name": "Taco Bueno - 3060", "phone": "(972) 805-8487", "opening_hours": "10:30 - 22:00", "brand": "Taco Bueno", "brand:wikidata": "Q7673958", "nsi_id": "tacobueno-4d2ff4"}, "geometry": {"type": "Point", "coordinates": [-96.884063, 33.000575]}},
{"type": "Feature", "id": "NJMnGQaSD3dClA_PHGTjIctlA7o=", "properties": {"ref": "3132", "@spider": "bueno", "amenity": "fast_food", "cuisine": "mexican", "takeaway": "yes", "addr:full": "1533 West Hebron Pkwy Carrollton, TX 75010", "addr:street_address": "1533 West Hebron Pkwy", "addr:city": "Carrollton", "addr:state": "TX", "addr:postcode": "75010", "addr:country": "US", "name": "Taco Bueno - 3132", "phone": "(972) 587-9809", "opening_hours": "10:30 - 21:00", "brand": "Taco Bueno", "brand:wikidata": "Q7673958", "nsi_id": "tacobueno-4d2ff4"}, "geometry": {"type": "Point", "coordinates": [-96.933051, 33.021034]}},
{"type": "Feature", "id": "P7UaCvXQVLCTd1NoTuXLCT-4kko=", "properties": {"ref": "3239", "@spider": "bueno", "amenity": "fast_food", "cuisine": "mexican", "takeaway": "yes", "addr:full": "6530 South Highway McKinney, TX 75013", "addr:street_address": "6530 South Highway", "addr:city": "McKinney", "addr:state": "TX", "addr:postcode": "75013", "addr:country": "US", "name": "Taco Bueno - 3239", "phone": "(469) 793-8900", "opening_hours": "10:30 - 22:00", "brand": "Taco Bueno", "brand:wikidata": "Q7673958", "nsi_id": "tacobueno-4d2ff4"}, "geometry": {"type": "Point", "coordinates": [-96.7040244, 33.199391]}},
{"type": "Feature", "id": "x8Z_R8o0eHeLiUw1VDjvM2kp99c=", "properties": {"ref": "3215", "@spider": "bueno", "amenity": "fast_food", "cuisine": "mexican", "takeaway": "yes", "addr:full": "4500 Long Prairie Rd. Flower Mound, TX 75028", "addr:street_address": "4500 Long Prairie Rd.", "addr:city": "Flower Mound", "addr:state": "TX", "addr:postcode": "75028", "addr:country": "US", "name": "Taco Bueno - 3215", "phone": "(469) 607-7408", "opening_hours": "10:30 - 22:00", "brand": "Taco Bueno", "brand:wikidata": "Q7673958", "nsi_id": "tacobueno-4d2ff4"}, "geometry": {"type": "Point", "coordinates": [-97.0692743922, 33.0451586408]}},
{"type": "Feature", "id": "QnuZczA_m6USJ-E-TupQ16Z_XzA=", "properties": {"ref": "3156", "@spider": "bueno", "amenity": "fast_food", "cuisine": "mexican", "takeaway": "yes", "addr:full": "9191 Rolater Drive Frisco, TX 75035", "addr:street_address": "9191 Rolater Drive", "addr:city": "Frisco", "addr:state": "TX", "addr:postcode": "75035", "addr:country": "US", "name": "Taco Bueno - 3156", "phone": "(972) 805-8489", "opening_hours": "10:30 - 22:00", "brand": "Taco Bueno", "brand:wikidata": "Q7673958", "nsi_id": "tacobueno-4d2ff4"}, "geometry": {"type": "Point", "coordinates": [-96.802942, 33.138593]}},
{"type": "Feature", "id": "jgtwX56Pg23Os-VIpK_Uv5c89Rs=", "properties": {"ref": "3095", "@spider": "bueno", "amenity": "fast_food", "cuisine": "mexican", "takeaway": "yes", "addr:full": "1936 S 1st St Garland, TX 75040", "addr:street_address": "1936 S 1st St", "addr:city": "Garland", "addr:state": "TX", "addr:postcode": "75040", "addr:country": "US", "name": "Taco Bueno - 3095", "phone": "(972) 850-0188", "opening_hours": "10:30 - 22:00", "brand": "Taco Bueno", "brand:wikidata": "Q7673958", "nsi_id": "tacobueno-4d2ff4"}, "geometry": {"type": "Point", "coordinates": [-96.630444, 32.894615]}},
{"type": "Feature", "id": "pHgbG1TDx14SCIiOhDhO4Ajvicw=", "properties": {"ref": "3075", "@spider": "bueno", "amenity": "fast_food", "cuisine": "mexican", "takeaway": "yes", "addr:full": "850 W Buckingham Garland, TX 75040", "addr:street_address": "850 W Buckingham", "addr:city": "Garland", "addr:state": "TX", "addr:postcode": "75040", "addr:country": "US", "name": "Taco Bueno - 3075", "phone": "(214) 703-3660", "opening_hours": "10:30 - 22:00", "brand": "Taco Bueno", "brand:wikidata": "Q7673958", "nsi_id": "tacobueno-4d2ff4"}, "geometry": {"type": "Point", "coordinates": [-96.640497, 32.930705]}},
{"type": "Feature", "id": "0dUNnRJQ-T34aF1SsW53nm-xlVk=", "properties": {"ref": "3193", "@spider": "bueno", "amenity": "fast_food", "cuisine": "mexican", "takeaway": "yes", "addr:full": "5320 State Hwy 78 Sachse, TX 75048", "addr:street_address": "5320 State Hwy 78", "addr:city": "Sachse", "addr:state": "TX", "addr:postcode": "75048", "addr:country": "US", "name": "Taco Bueno - 3193", "phone": "(972) 597-0016", "opening_hours": "10:30 - 22:00", "brand": "Taco Bueno", "brand:wikidata": "Q7673958", "nsi_id": "tacobueno-4d2ff4"}, "geometry": {"type": "Point", "coordinates": [-96.602581, 32.971174]}},
{"type": "Feature", "id": "jdJLmuGdg-NXzjhsZAHTerA203E=", "properties": {"ref": "3138", "@spider": "bueno", "amenity": "fast_food", "cuisine": "mexican", "takeaway": "yes", "addr:full": "2630 N. Hwy 360 Grand Prairie, TX 75050", "addr:street_address": "2630 N. Hwy 360", "addr:city": "Grand Prairie", "addr:state": "TX", "addr:postcode": "75050", "addr:country": "US", "name": "Taco Bueno - 3138", "phone": "(972) 623-3080", "opening_hours": "10:30 - 22:00", "brand": "Taco Bueno", "brand:wikidata": "Q7673958", "nsi_id": "tacobueno-4d2ff4"}, "geometry": {"type": "Point", "coordinates": [-97.056035, 32.794463]}},
{"type": "Feature", "id": "ZAUPJNQcFT5veCLJzA1fEmvWRa0=", "properties": {"ref": "3133", "@spider": "bueno", "amenity": "fast_food", "cuisine": "mexican", "takeaway": "yes", "addr:full": "2546 West Interstate 20 Grand Prairie, TX 75052", "addr:street_address": "2546 West Interstate 20", "addr:city": "Grand Prairie", "addr:state": "TX", "addr:postcode": "75052", "addr:country": "US", "name": "Taco Bueno - 3133", "phone": "(972) 805-8471", "opening_hours": "10:30 - 22:00", "brand": "Taco Bueno", "brand:wikidata": "Q7673958", "nsi_id": "tacobueno-4d2ff4"}, "geometry": {"type": "Point", "coordinates": [-97.042496, 32.677818]}},
{"type": "Feature", "id": "7P8CABD-flpnQ9L1uJxV6NPJ-Gk=", "properties": {"ref": "3151", "@spider": "bueno", "amenity": "fast_food", "cuisine": "mexican", "takeaway": "yes", "addr:full": "707 W Lyndon B Johnson Fwy Irving Irving, TX 75063", "addr:street_address": "707 W Lyndon B Johnson Fwy Irving", "addr:city": "Irving", "addr:state": "TX", "addr:postcode": "75063", "addr:country": "US", "name": "Taco Bueno - 3151", "phone": "(972) 805-8484", "opening_hours": "10:30 - 22:00", "brand": "Taco Bueno", "brand:wikidata": "Q7673958", "nsi_id": "tacobueno-4d2ff4"}, "geometry": {"type": "Point", "coordinates": [-96.956846, 32.916271]}},
{"type": "Feature", "id": "JOez95tef6rNzuBK9pi55rHLpD0=", "properties": {"ref": "3163", "@spider": "bueno", "amenity": "fast_food", "cuisine": "mexican", "takeaway": "yes", "addr:full": "320 East FM 3040 Lewisville, TX 75067", "addr:street_address": "320 East FM 3040", "addr:city": "Lewisville", "addr:state": "TX", "addr:postcode": "75067", "addr:country": "US", "name": "Taco Bueno - 3163", "phone": "(972) 752-7970", "opening_hours": "10:30 - 22:00", "brand": "Taco Bueno", "brand:wikidata": "Q7673958", "nsi_id": "tacobueno-4d2ff4"}, "geometry": {"type": "Point", "coordinates": [-96.983888, 33.004534]}},
{"type": "Feature", "id": "djxHRm0Y2CcROR0kpQxfo8xETQ0=", "properties": {"ref": "3100", "@spider": "bueno", "amenity": "fast_food", "cuisine": "mexican", "takeaway": "yes", "addr:full": "302 N Central Expwy McKinney, TX 75069", "addr:street_address": "302 N Central Expwy", "addr:city": "McKinney", "addr:state": "TX", "addr:postcode": "75069", "addr:country": "US", "name": "Taco Bueno - 3100", "phone": "(972) 587-6012", "opening_hours": "10:30 - 22:00", "brand": "Taco Bueno", "brand:wikidata": "Q7673958", "nsi_id": "tacobueno-4d2ff4"}, "geometry": {"type": "Point", "coordinates": [-96.63876, 33.197765]}},
{"type": "Feature", "id": "QqLG32g-7pp37YMuz7A1CZWIGTg=", "properties": {"ref": "3136", "@spider": "bueno", "amenity": "fast_food", "cuisine": "mexican", "takeaway": "yes", "addr:full": "3700 Eldorado Pkwy McKinney, TX 75070", "addr:street_address": "3700 Eldorado Pkwy", "addr:city": "McKinney", "addr:state": "TX", "addr:postcode": "75070", "addr:country": "US", "name": "Taco Bueno - 3136", "phone": "(972) 587-9806", "opening_hours": "10:30 - 22:00", "brand": "Taco Bueno", "brand:wikidata": "Q7673958", "nsi_id": "tacobueno-4d2ff4"}, "geometry": {"type": "Point", "coordinates": [-96.668252, 33.167938]}},
{"type": "Feature", "id": "h30UK0BWxZJ_iqEI8FzL0OaNN6U=", "properties": {"ref": "3147", "@spider": "bueno", "amenity": "fast_food", "cuisine": "mexican", "takeaway": "yes", "addr:full": "609 Jupiter Road Plano, TX 75074", "addr:street_address": "609 Jupiter Road", "addr:city": "Plano", "addr:state": "TX", "addr:postcode": "75074", "addr:country": "US", "name": "Taco Bueno - 3147", "phone": "(972) 850-0396", "opening_hours": "10:30 - 22:00", "brand": "Taco Bueno", "brand:wikidata": "Q7673958", "nsi_id": "tacobueno-4d2ff4"}, "geometry": {"type": "Point", "coordinates": [-96.682929, 33.00591]}},
{"type": "Feature", "id": "YpbMSIzzNA2GVdxxVzZFiAoS56E=", "properties": {"ref": "3102", "@spider": "bueno", "amenity": "fast_food", "cuisine": "mexican", "takeaway": "yes", "addr:full": "3287 Independence Pkwy Plano, TX 75075", "addr:street_address": "3287 Independence Pkwy", "addr:city": "Plano", "addr:state": "TX", "addr:postcode": "75075", "addr:country": "US", "name": "Taco Bueno - 3102", "phone": "(972) 805-5562", "opening_hours": "10:30 - 22:00", "brand": "Taco Bueno", "brand:wikidata": "Q7673958", "nsi_id": "tacobueno-4d2ff4"}, "geometry": {"type": "Point", "coordinates": [-96.75359, 33.04075]}},
{"type": "Feature", "id": "dCo3U8FCB3eE5yefLw1eKKIiDDM=", "properties": {"ref": "3207", "@spider": "bueno", "amenity": "fast_food", "cuisine": "mexican", "takeaway": "yes", "addr:full": "4385 E University Dr Prosper, TX 75078", "addr:street_address": "4385 E University Dr", "addr:city": "Prosper", "addr:state": "TX", "addr:postcode": "75078", "addr:country": "US", "name": "Taco Bueno - 3207", "phone": "(972) 752-7968", "opening_hours": "11:00 - 19:00", "brand": "Taco Bueno", "brand:wikidata": "Q7673958", "nsi_id": "tacobueno-4d2ff4"}, "geometry": {"type": "Point", "coordinates": [-96.733506, 33.219063]}},
{"type": "Feature", "id": "6ED-E4szebUX6dgd-oYdmyWHaEE=", "properties": {"ref": "3021", "@spider": "bueno", "amenity": "fast_food", "cuisine": "mexican", "takeaway": "yes", "addr:full": "2113 E Beltline Richardson, TX 75081", "addr:street_address": "2113 E Beltline", "addr:city": "Richardson", "addr:state": "TX", "addr:postcode": "75081", "addr:country": "US", "name": "Taco Bueno - 3021", "phone": "(972) 850-0395", "opening_hours": "10:30 - 22:00", "brand": "Taco Bueno", "brand:wikidata": "Q7673958", "nsi_id": "tacobueno-4d2ff4"}, "geometry": {"type": "Point", "coordinates": [-96.684367, 32.945679]}},
{"type": "Feature", "id": "v2DVhGv_R7x6Nc92BLji4s7sDvk=", "properties": {"ref": "3134", "@spider": "bueno", "amenity": "fast_food", "cuisine": "mexican", "takeaway": "yes", "addr:full": "609 Whitehills Drive Rockwall, TX 75087", "addr:street_address": "609 Whitehills Drive", "addr:city": "Rockwall", "addr:state": "TX", "addr:postcode": "75087", "addr:country": "US", "name": "Taco Bueno - 3134", "phone": "(972) 587-9821", "opening_hours": "10:30 - 22:00", "brand": "Taco Bueno", "brand:wikidata": "Q7673958", "nsi_id": "tacobueno-4d2ff4"}, "geometry": {"type": "Point", "coordinates": [-96.463353, 32.900317]}},
{"type": "Feature", "id": "w69JKi8C_HMsF69BWrkypEa8xrA=", "properties": {"ref": "3125", "@spider": "bueno", "amenity": "fast_food", "cuisine": "mexican", "takeaway": "yes", "addr:full": "8300 Lakeview Pkwy Rowlett, TX 75088", "addr:street_address": "8300 Lakeview Pkwy", "addr:city": "Rowlett", "addr:state": "TX", "addr:postcode": "75088", "addr:country": "US", "name": "Taco Bueno - 3125", "phone": "(972) 805-5559", "opening_hours": "10:30 - 22:00", "brand": "Taco Bueno", "brand:wikidata": "Q7673958", "nsi_id": "tacobueno-4d2ff4"}, "geometry": {"type": "Point", "coordinates": [-96.520838, 32.91581]}},
{"type": "Feature", "id": "F8XaKU6qKaaKfCMbU5dfiLhhIdA=", "properties": {"ref": "3063", "@spider": "bueno", "amenity": "fast_food", "cuisine": "mexican", "takeaway": "yes", "addr:full": "2204 Texoma Pkwy. Sherman, TX 75090", "addr:street_address": "2204 Texoma Pkwy.", "addr:city": "Sherman", "addr:state": "TX", "addr:postcode": "75090", "addr:country": "US", "name": "Taco Bueno - 3063", "phone": "(903) 401-8896", "opening_hours": "10:30 - 22:00", "brand": "Taco Bueno", "brand:wikidata": "Q7673958", "nsi_id": "tacobueno-4d2ff4"}, "geometry": {"type": "Point", "coordinates": [-96.599083, 33.662161]}},
{"type": "Feature", "id": "P-j2RwkZLYYwAz8o3xDek9BT1IU=", "properties": {"ref": "3158", "@spider": "bueno", "amenity": "fast_food", "cuisine": "mexican", "takeaway": "yes", "addr:full": "445 N. Clark Road Cedar Hill, TX 75104", "addr:street_address": "445 N. Clark Road", "addr:city": "Cedar Hill", "addr:state": "TX", "addr:postcode": "75104", "addr:country": "US", "name": "Taco Bueno - 3158", "phone": "(469) 789-5117", "opening_hours": "10:30 - 22:00", "brand": "Taco Bueno", "brand:wikidata": "Q7673958", "nsi_id": "tacobueno-4d2ff4"}, "geometry": {"type": "Point", "coordinates": [-96.94241, 32.594731]}},
{"type": "Feature", "id": "xf0lysmBf5tzszwb6mIydzTcdko=", "properties": {"ref": "3054", "@spider": "bueno", "amenity": "fast_food", "cuisine": "mexican", "takeaway": "yes", "addr:full": "1235 E Pleasant Run Rd Desoto, TX 75115", "addr:street_address": "1235 E Pleasant Run Rd", "addr:city": "Desoto", "addr:state": "TX", "addr:postcode": "75115", "addr:country": "US", "name": "Taco Bueno - 3054", "phone": "(972) 597-0012", "opening_hours": "10:30 - 22:00", "brand": "Taco Bueno", "brand:wikidata": "Q7673958", "nsi_id": "tacobueno-4d2ff4"}, "geometry": {"type": "Point", "coordinates": [-96.82647, 32.604486]}},
{"type": "Feature", "id": "97o6wEESAWANLey16GbDEcWu-Rc=", "properties": {"ref": "3130", "@spider": "bueno", "amenity": "fast_food", "cuisine": "mexican", "takeaway": "yes", "addr:full": "1723 W. Scyene Road Mesquite, TX 75149", "addr:street_address": "1723 W. Scyene Road", "addr:city": "Mesquite", "addr:state": "TX", "addr:postcode": "75149", "addr:country": "US", "name": "Taco Bueno - 3130", "phone": "(972) 850-0370", "opening_hours": "10:30 - 22:00", "brand": "Taco Bueno", "brand:wikidata": "Q7673958", "nsi_id": "tacobueno-4d2ff4"}, "geometry": {"type": "Point", "coordinates": [-96.624511, 32.7688]}},
{"type": "Feature", "id": "YgBuLf04hnjCnjsnqCn3dCJpQLs=", "properties": {"ref": "3055", "@spider": "bueno", "amenity": "fast_food", "cuisine": "mexican", "takeaway": "yes", "addr:full": "1336 N Town E Blvd Mesquite, TX 75150", "addr:street_address": "1336 N Town E Blvd", "addr:city": "Mesquite", "addr:state": "TX", "addr:postcode": "75150", "addr:country": "US", "name": "Taco Bueno - 3055", "phone": "(972) 597-0010", "opening_hours": "10:30 - 22:00", "brand": "Taco Bueno", "brand:wikidata": "Q7673958", "nsi_id": "tacobueno-4d2ff4"}, "geometry": {"type": "Point", "coordinates": [-96.61626, 32.810605]}},
{"type": "Feature", "id": "67bM5KYhE_dQfW5DyazO84XqfRo=", "properties": {"ref": "3218", "@spider": "bueno", "amenity": "fast_food", "cuisine": "mexican", "takeaway": "yes", "addr:full": "1380 FM 148 Terrell, TX 75160", "addr:street_address": "1380 FM 148", "addr:city": "Terrell", "addr:state": "TX", "addr:postcode": "75160", "addr:country": "US", "name": "Taco Bueno - 3218", "phone": "(972) 551-0141", "opening_hours": "10:30 - 22:00", "brand": "Taco Bueno", "brand:wikidata": "Q7673958", "nsi_id": "tacobueno-4d2ff4"}, "geometry": {"type": "Point", "coordinates": [-96.3029701, 32.7359527]}},
{"type": "Feature", "id": "2_z2cPgXebvF-rKp6CPquXq8AuE=", "properties": {"ref": "3129", "@spider": "bueno", "amenity": "fast_food", "cuisine": "mexican", "takeaway": "yes", "addr:full": "1080 West Hwy 287 By Pass Waxahachie, TX 75165", "addr:street_address": "1080 West Hwy 287 By Pass", "addr:city": "Waxahachie", "addr:state": "TX", "addr:postcode": "75165", "addr:country": "US", "name": "Taco Bueno - 3129", "phone": "(972) 752-7981", "opening_hours": "10:30 - 22:00", "brand": "Taco Bueno", "brand:wikidata": "Q7673958", "nsi_id": "tacobueno-4d2ff4"}, "geometry": {"type": "Point", "coordinates": [-96.842135, 32.421078]}},
{"type": "Feature", "id": "Mrdd1j2AO30EKzkGLv2oQgZyMeA=", "properties": {"ref": "3235", "@spider": "bueno", "amenity": "fast_food", "cuisine": "mexican", "takeaway": "yes", "addr:full": "744 W interstate 30  Royse City, TX 75189", "addr:street_address": "744 W interstate 30 ", "addr:city": "Royse City", "addr:state": "TX", "addr:postcode": "75189", "addr:country": "US", "name": "Taco Bueno - Royce City", "phone": "(469) 981-5980", "opening_hours": "10:30 - 22:00", "brand": "Taco Bueno", "brand:wikidata": "Q7673958", "nsi_id": "tacobueno-4d2ff4"}, "geometry": {"type": "Point", "coordinates": [-96.3246686, 32.9726627]}},
{"type": "Feature", "id": "9E2ZjMycvvSLjj2yZbESiLHK14M=", "properties": {"ref": "3177", "@spider": "bueno", "amenity": "fast_food", "cuisine": "mexican", "takeaway": "yes", "addr:full": "7940 N Central Expwy Dallas, TX 75206", "addr:street_address": "7940 N Central Expwy", "addr:city": "Dallas", "addr:state": "TX", "addr:postcode": "75206", "addr:country": "US", "name": "Taco Bueno - 3177", "phone": "(214) 206-1767", "opening_hours": "05:30 - 01:50", "brand": "Taco Bueno", "brand:wikidata": "Q7673958", "nsi_id": "tacobueno-4d2ff4"}, "geometry": {"type": "Point", "coordinates": [-96.76979, 32.859474]}},
{"type": "Feature", "id": "zWH49rdMrUX4RNOAG6Fx9NQgD1Q=", "properties": {"ref": "3240", "@spider": "bueno", "amenity": "fast_food", "cuisine": "mexican", "takeaway": "yes", "addr:full": "8120 E R L Thornton Fly Dallas, TX 75228", "addr:street_address": "8120 E R L Thornton Fly", "addr:city": "Dallas", "addr:state": "TX", "addr:postcode": "75228", "addr:country": "US", "name": "Taco Bueno - 3240", "phone": "() -", "opening_hours": "10:30 - 22:00", "brand": "Taco Bueno", "brand:wikidata": "Q7673958", "nsi_id": "tacobueno-4d2ff4"}, "geometry": {"type": "Point", "coordinates": [-96.7011319, 32.793147]}},
{"type": "Feature", "id": "rAz6NWDxFUft5jfGeQwGY8y4q-E=", "properties": {"ref": "3026", "@spider": "bueno", "amenity": "fast_food", "cuisine": "mexican", "takeaway": "yes", "addr:full": "7940 Forest Ln Dallas, TX 75230", "addr:street_address": "7940 Forest Ln", "addr:city": "Dallas", "addr:state": "TX", "addr:postcode": "75230", "addr:country": "US", "name": "Taco Bueno - 3026", "phone": "(214) 692-6832", "opening_hours": "10:30 - 22:00", "brand": "Taco Bueno", "brand:wikidata": "Q7673958", "nsi_id": "tacobueno-4d2ff4"}, "geometry": {"type": "Point", "coordinates": [-96.770604, 32.909163]}},
{"type": "Feature", "id": "msBTRiq6skSaq0xHf9LShozsGM4=", "properties": {"ref": "99993", "@spider": "bueno", "amenity": "fast_food", "cuisine": "mexican", "takeaway": "yes", "addr:full": "1605 Lyndon B Johnson Fwy Farmers Branch, TX 75234", "addr:street_address": "1605 Lyndon B Johnson Fwy", "addr:city": "Farmers Branch", "addr:state": "TX", "addr:postcode": "75234", "addr:country": "US", "name": "Taco Bueno - Rosenburg", "phone": "(111) 111-1111", "opening_hours": "10:30 - 22:00", "brand": "Taco Bueno", "brand:wikidata": "Q7673958", "nsi_id": "tacobueno-4d2ff4"}, "geometry": {"type": "Point", "coordinates": [-96.9180549, 32.9089963]}},
{"type": "Feature", "id": "sIHbwF7go8w9wee4eRdBmF3RkN8=", "properties": {"ref": "3057", "@spider": "bueno", "amenity": "fast_food", "cuisine": "mexican", "takeaway": "yes", "addr:full": "2363 Valwood Pkwy Farmers Branch, TX 75234", "addr:street_address": "2363 Valwood Pkwy", "addr:city": "Farmers Branch", "addr:state": "TX", "addr:postcode": "75234", "addr:country": "US", "name": "Taco Bueno - 3057", "phone": "(972) 805-5551", "opening_hours": "10:30 - 22:00", "brand": "Taco Bueno", "brand:wikidata": "Q7673958", "nsi_id": "tacobueno-4d2ff4"}, "geometry": {"type": "Point", "coordinates": [-96.901025, 32.939206]}},
{"type": "Feature", "id": "IoRRUNY0_cenbVry7u7Rdcs4qR0=", "properties": {"ref": "3230", "@spider": "bueno", "amenity": "fast_food", "cuisine": "mexican", "takeaway": "yes", "addr:full": "1605 Lyndon B Johnson Fwy Farmers Branch, TX 75234", "addr:street_address": "1605 Lyndon B Johnson Fwy", "addr:city": "Farmers Branch", "addr:state": "TX", "addr:postcode": "75234", "addr:country": "US", "name": "Taco Bueno - 3230", "phone": "(111) 111-1111", "opening_hours": "10:30 - 22:00", "brand": "Taco Bueno", "brand:wikidata": "Q7673958", "nsi_id": "tacobueno-4d2ff4"}, "geometry": {"type": "Point", "coordinates": [-96.9180549, 32.9089963]}},
{"type": "Feature", "id": "0-GHeooLxggAV7tPI1QWvAT2geo=", "properties": {"ref": "99997", "@spider": "bueno", "amenity": "fast_food", "cuisine": "mexican", "takeaway": "yes", "addr:full": "1605 Lyndon B Johnson Fwy Farmers Branch, TX 75234", "addr:street_address": "1605 Lyndon B Johnson Fwy", "addr:city": "Farmers Branch", "addr:state": "TX", "addr:postcode": "75234", "addr:country": "US", "name": "Taco Bueno - Forney", "phone": "(111) 111-1111", "opening_hours": "10:30 - 22:00", "brand": "Taco Bueno", "brand:wikidata": "Q7673958", "nsi_id": "tacobueno-4d2ff4"}, "geometry": {"type": "Point", "coordinates": [-96.9180549, 32.9089963]}},
{"type": "Feature", "id": "uIoZ74y_uO4y-vsiNxCQE1qo-74=", "properties": {"ref": "99998", "@spider": "bueno", "amenity": "fast_food", "cuisine": "mexican", "takeaway": "yes", "addr:full": "1605 Lyndon B Johnson Fwy Farmers Branch, TX 75234", "addr:street_address": "1605 Lyndon B Johnson Fwy", "addr:city": "Farmers Branch", "addr:state": "TX", "addr:postcode": "75234", "addr:country": "US", "name": "Taco Bueno - Humble", "phone": "(111) 111-1111", "opening_hours": "10:30 - 22:00", "brand": "Taco Bueno", "brand:wikidata": "Q7673958", "nsi_id": "tacobueno-4d2ff4"}, "geometry": {"type": "Point", "coordinates": [-96.9180549, 32.9089963]}},
{"type": "Feature", "id": "UgGBi9iBINn8ecYcDH2QKaXFya8=", "properties": {"ref": "99994", "@spider": "bueno", "amenity": "fast_food", "cuisine": "mexican", "takeaway": "yes", "addr:full": "1605 Lyndon B Johnson Fwy Farmers Branch, TX 75234", "addr:street_address": "1605 Lyndon B Johnson Fwy", "addr:city": "Farmers Branch", "addr:state": "TX", "addr:postcode": "75234", "addr:country": "US", "name": "Taco Bueno - Benbrook", "phone": "(111) 111-1111", "opening_hours": "10:30 - 22:00", "brand": "Taco Bueno", "brand:wikidata": "Q7673958", "nsi_id": "tacobueno-4d2ff4"}, "geometry": {"type": "Point", "coordinates": [-96.9180549, 32.9089963]}},
{"type": "Feature", "id": "BAH5rM4jCiH2b1Kpj4suO8uoPzU=", "properties": {"ref": "99995", "@spider": "bueno", "amenity": "fast_food", "cuisine": "mexican", "takeaway": "yes", "addr:full": "1605 Lyndon B Johnson Fwy Farmers Branch, TX 75234", "addr:street_address": "1605 Lyndon B Johnson Fwy", "addr:city": "Farmers Branch", "addr:state": "TX", "addr:postcode": "75234", "addr:country": "US", "name": "Taco Bueno - Victoria", "phone": "(111) 111-1111", "opening_hours": "10:30 - 22:00", "brand": "Taco Bueno", "brand:wikidata": "Q7673958", "nsi_id": "tacobueno-4d2ff4"}, "geometry": {"type": "Point", "coordinates": [-96.9180549, 32.9089963]}},
{"type": "Feature", "id": "FjaZjOlzwITvYSZzkuQtlPAEoNM=", "properties": {"ref": "99992", "@spider": "bueno", "amenity": "fast_food", "cuisine": "mexican", "takeaway": "yes", "addr:full": "1605 Lyndon B Johnson Fwy Farmers Branch, TX 75234", "addr:street_address": "1605 Lyndon B Johnson Fwy", "addr:city": "Farmers Branch", "addr:state": "TX", "addr:postcode": "75234", "addr:country": "US", "name": "Taco Bueno - Denton", "phone": "(111) 111-1111", "opening_hours": "10:30 - 22:00", "brand": "Taco Bueno", "brand:wikidata": "Q7673958", "nsi_id": "tacobueno-4d2ff4"}, "geometry": {"type": "Point", "coordinates": [-96.9180549, 32.9089963]}},
{"type": "Feature", "id": "TZblwxq7Fsk3WaMv4-xSr9bk4Mc=", "properties": {"ref": "99991", "@spider": "bueno", "amenity": "fast_food", "cuisine": "mexican", "takeaway": "yes", "addr:full": "1605 Lyndon B Johnson Fwy Farmers Branch, TX 75234", "addr:street_address": "1605 Lyndon B Johnson Fwy", "addr:city": "Farmers Branch", "addr:state": "TX", "addr:postcode": "75234", "addr:country": "US", "name": "Taco Bueno - Plainview", "phone": "(111) 111-1111", "opening_hours": "10:30 - 22:00", "brand": "Taco Bueno", "brand:wikidata": "Q7673958", "nsi_id": "tacobueno-4d2ff4"}, "geometry": {"type": "Point", "coordinates": [-96.9180549, 32.9089963]}},
{"type": "Feature", "id": "KcbKA2QFCEf160t6ab7QQseHMvA=", "properties": {"ref": "99996", "@spider": "bueno", "amenity": "fast_food", "cuisine": "mexican", "takeaway": "yes", "addr:full": "1605 Lyndon B Johnson Fwy Farmers Branch, TX 75234", "addr:street_address": "1605 Lyndon B Johnson Fwy", "addr:city": "Farmers Branch", "addr:state": "TX", "addr:postcode": "75234", "addr:country": "US", "name": "Taco Bueno - Shreveport", "phone": "() -", "opening_hours": "10:30 - 22:00", "brand": "Taco Bueno", "brand:wikidata": "Q7673958", "nsi_id": "tacobueno-4d2ff4"}, "geometry": {"type": "Point", "coordinates": [-96.9180549, 32.9089963]}},
{"type": "Feature", "id": "81IReLGFH76sITsMISw-ExswOTc=", "properties": {"ref": "3092", "@spider": "bueno", "amenity": "fast_food", "cuisine": "mexican", "takeaway": "yes", "addr:full": "13443 Montfort Rd Dallas, TX 75240", "addr:street_address": "13443 Montfort Rd", "addr:city": "Dallas", "addr:state": "TX", "addr:postcode": "75240", "addr:country": "US", "name": "Taco Bueno - 3092", "phone": "(972) 805-5556", "opening_hours": "10:30 - 22:00", "brand": "Taco Bueno", "brand:wikidata": "Q7673958", "nsi_id": "tacobueno-4d2ff4"}, "geometry": {"type": "Point", "coordinates": [-96.811997, 32.931318]}},
{"type": "Feature", "id": "BVsQiDF2h7p_dlsL6ZG81Y8d_bA=", "properties": {"ref": "3148", "@spider": "bueno", "amenity": "fast_food", "cuisine": "mexican", "takeaway": "yes", "addr:full": "14221 Coit Road Dallas, TX 75254", "addr:street_address": "14221 Coit Road", "addr:city": "Dallas", "addr:state": "TX", "addr:postcode": "75254", "addr:country": "US", "name": "Taco Bueno - 3148", "phone": "(972) 805-5535", "opening_hours": "10:30 - 22:00", "brand": "Taco Bueno", "brand:wikidata": "Q7673958", "nsi_id": "tacobueno-4d2ff4"}, "geometry": {"type": "Point", "coordinates": [-96.769091, 32.940869]}},
{"type": "Feature", "id": "Q8JB2cLhUvex-hbcNzgnpmJWgPA=", "properties": {"ref": "3088", "@spider": "bueno", "amenity": "fast_food", "cuisine": "mexican", "takeaway": "yes", "addr:full": "6834 Wesley St Greenville, TX 75401", "addr:street_address": "6834 Wesley St", "addr:city": "Greenville", "addr:state": "TX", "addr:postcode": "75401", "addr:country": "US", "name": "Taco Bueno - 3088", "phone": "(903) 401-8597", "opening_hours": "10:30 - 22:00", "brand": "Taco Bueno", "brand:wikidata": "Q7673958", "nsi_id": "tacobueno-4d2ff4"}, "geometry": {"type": "Point", "coordinates": [-96.110085, 33.101213]}},
{"type": "Feature", "id": "Xnh6UWtswUwKLf_e7MQsbhLai0I=", "properties": {"ref": "3244", "@spider": "bueno", "amenity": "fast_food", "cuisine": "mexican", "takeaway": "yes", "addr:full": "640 W Princeton Dr. Princeton, TX 75407", "addr:street_address": "640 W Princeton Dr.", "addr:city": "Princeton", "addr:state": "TX", "addr:postcode": "75407", "addr:country": "US", "name": "Taco Bueno - 3244", "phone": "(972) 736-8090", "opening_hours": "10:30 - 22:00", "brand": "Taco Bueno", "brand:wikidata": "Q7673958", "nsi_id": "tacobueno-4d2ff4"}, "geometry": {"type": "Point", "coordinates": [-96.5102335, 33.1756018]}},
{"type": "Feature", "id": "rFCBJXCTkmYrdItdzKX0ZlGJkHk=", "properties": {"ref": "3099", "@spider": "bueno", "amenity": "fast_food", "cuisine": "mexican", "takeaway": "yes", "addr:full": "500 E Marshall Longview, TX 75601", "addr:street_address": "500 E Marshall", "addr:city": "Longview", "addr:state": "TX", "addr:postcode": "75601", "addr:country": "US", "name": "Taco Bueno - 3099", "phone": "(903) 401-8591", "opening_hours": "10:30 - 22:00", "brand": "Taco Bueno", "brand:wikidata": "Q7673958", "nsi_id": "tacobueno-4d2ff4"}, "geometry": {"type": "Point", "coordinates": [-94.733328, 32.500424]}},
{"type": "Feature", "id": "Bvi9y8ccg-VnFBtFDvvuJgjSNqI=", "properties": {"ref": "3119", "@spider": "bueno", "amenity": "fast_food", "cuisine": "mexican", "takeaway": "yes", "addr:full": "3314 North Fourth St Longview, TX 75605", "addr:street_address": "3314 North Fourth St", "addr:city": "Longview", "addr:state": "TX", "addr:postcode": "75605", "addr:country": "US", "name": "Taco Bueno - 3119", "phone": "(903) 741-1124", "opening_hours": "10:30 - 22:00", "brand": "Taco Bueno", "brand:wikidata": "Q7673958", "nsi_id": "tacobueno-4d2ff4"}, "geometry": {"type": "Point", "coordinates": [-94.730378, 32.544172]}},
{"type": "Feature", "id": "flb5gKDpUTwJ2hkFJbpncvsZY2k=", "properties": {"ref": "3098", "@spider": "bueno", "amenity": "fast_food", "cuisine": "mexican", "takeaway": "yes", "addr:full": "1217 N Kilgore Kilgore, TX 75662", "addr:street_address": "1217 N Kilgore", "addr:city": "Kilgore", "addr:state": "TX", "addr:postcode": "75662", "addr:country": "US", "name": "Taco Bueno - 3098", "phone": "(903) 218-8978", "opening_hours": "10:30 - 22:00", "brand": "Taco Bueno", "brand:wikidata": "Q7673958", "nsi_id": "tacobueno-4d2ff4"}, "geometry": {"type": "Point", "coordinates": [-94.864252, 32.391848]}},
{"type": "Feature", "id": "2ymEavTCClFYT6AkCSenVUXF9CU=", "properties": {"ref": "3024", "@spider": "bueno", "amenity": "fast_food", "cuisine": "mexican", "takeaway": "yes", "addr:full": "1419 N Collins Arlington, TX 76011", "addr:street_address": "1419 N Collins", "addr:city": "Arlington", "addr:state": "TX", "addr:postcode": "76011", "addr:country": "US", "name": "Taco Bueno - 3024", "phone": "(817) 756-5442", "opening_hours": "10:30 - 22:00", "brand": "Taco Bueno", "brand:wikidata": "Q7673958", "nsi_id": "tacobueno-4d2ff4"}, "geometry": {"type": "Point", "coordinates": [-97.096672, 32.757065]}},
{"type": "Feature", "id": "r5lKgxeIjosZpRUZbYzmQK3OVR8=", "properties": {"ref": "3068", "@spider": "bueno", "amenity": "fast_food", "cuisine": "mexican", "takeaway": "yes", "addr:full": "2353 W Pioneer Pkwy Pantego, TX 76013", "addr:street_address": "2353 W Pioneer Pkwy", "addr:city": "Pantego", "addr:state": "TX", "addr:postcode": "76013", "addr:country": "US", "name": "Taco Bueno - 3068", "phone": "(817) 803-6693", "opening_hours": "10:30 - 22:00", "brand": "Taco Bueno", "brand:wikidata": "Q7673958", "nsi_id": "tacobueno-4d2ff4"}, "geometry": {"type": "Point", "coordinates": [-97.145739, 32.710024]}},
{"type": "Feature", "id": "naF_vs5sRMGmBfwCqVLwjBrpbYg=", "properties": {"ref": "3036", "@spider": "bueno", "amenity": "fast_food", "cuisine": "mexican", "takeaway": "yes", "addr:full": "5748 S W Green Oaks Blvd Arlington, TX 76017", "addr:street_address": "5748 S W Green Oaks Blvd", "addr:city": "Arlington", "addr:state": "TX", "addr:postcode": "76017", "addr:country": "US", "name": "Taco Bueno - 3036", "phone": "(817) 402-3221", "opening_hours": "10:30 - 22:00", "brand": "Taco Bueno", "brand:wikidata": "Q7673958", "nsi_id": "tacobueno-4d2ff4"}, "geometry": {"type": "Point", "coordinates": [-97.193922, 32.673907]}},
{"type": "Feature", "id": "wxbZzL3tigPYEtAHeV-Bgn19bKk=", "properties": {"ref": "3243", "@spider": "bueno", "amenity": "fast_food", "cuisine": "mexican", "takeaway": "yes", "addr:full": "5701 S. Cooper Arlington, TX 76017", "addr:street_address": "5701 S. Cooper", "addr:city": "Arlington", "addr:state": "TX", "addr:postcode": "76017", "addr:country": "US", "name": "Taco Bueno - 3243", "phone": "(817) 719-3070", "opening_hours": "10:30 - 22:00", "brand": "Taco Bueno", "brand:wikidata": "Q7673958", "nsi_id": "tacobueno-4d2ff4"}, "geometry": {"type": "Point", "coordinates": [-97.134192, 32.6540574]}},
{"type": "Feature", "id": "T7JXP22dZwmwLc5z1g6kahHixss=", "properties": {"ref": "3166", "@spider": "bueno", "amenity": "fast_food", "cuisine": "mexican", "takeaway": "yes", "addr:full": "4401 South Collins Arlington, TX 76018", "addr:street_address": "4401 South Collins", "addr:city": "Arlington", "addr:state": "TX", "addr:postcode": "76018", "addr:country": "US", "name": "Taco Bueno - 3166", "phone": "(817) 756-5569", "opening_hours": "10:30 - 22:00", "brand": "Taco Bueno", "brand:wikidata": "Q7673958", "nsi_id": "tacobueno-4d2ff4"}, "geometry": {"type": "Point", "coordinates": [-97.09188, 32.67407]}},
{"type": "Feature", "id": "dbOlerKA40niC06_85bGYRVH7CA=", "properties": {"ref": "3018", "@spider": "bueno", "amenity": "fast_food", "cuisine": "mexican", "takeaway": "yes", "addr:full": "1528 Brown Trail Bedford, TX 76021", "addr:street_address": "1528 Brown Trail", "addr:city": "Bedford", "addr:state": "TX", "addr:postcode": "76021", "addr:country": "US", "name": "Taco Bueno - 3018", "phone": "(817) 554-8113", "opening_hours": "10:30 - 22:00", "brand": "Taco Bueno", "brand:wikidata": "Q7673958", "nsi_id": "tacobueno-4d2ff4"}, "geometry": {"type": "Point", "coordinates": [-97.15916, 32.841256]}},
{"type": "Feature", "id": "T8qWLH3eBSeoW0RkHZqg0vK7N10=", "properties": {"ref": "3248", "@spider": "bueno", "amenity": "fast_food", "cuisine": "mexican", "takeaway": "yes", "addr:full": "1724 S Loop 288 Denton, TX 76025", "addr:street_address": "1724 S Loop 288", "addr:city": "Denton", "addr:state": "TX", "addr:postcode": "76025", "addr:country": "US", "name": "Taco Bueno - 3248", "phone": "(940) 277-0070", "opening_hours": "10:30 - 22:00", "brand": "Taco Bueno", "brand:wikidata": "Q7673958", "nsi_id": "tacobueno-4d2ff4"}, "geometry": {"type": "Point", "coordinates": [-97.0983857, 33.1925065]}},
{"type": "Feature", "id": "WZ-eJWWIfl0hPAzLcI6jfBSZtXQ=", "properties": {"ref": "3118", "@spider": "bueno", "amenity": "fast_food", "cuisine": "mexican", "takeaway": "yes", "addr:full": "901 SW Wilshire Blvd Burleson, TX 76028", "addr:street_address": "901 SW Wilshire Blvd", "addr:city": "Burleson", "addr:state": "TX", "addr:postcode": "76028", "addr:country": "US", "name": "Taco Bueno - 3118", "phone": "(817) 435-8493", "opening_hours": "10:30 - 22:00", "brand": "Taco Bueno", "brand:wikidata": "Q7673958", "nsi_id": "tacobueno-4d2ff4"}, "geometry": {"type": "Point", "coordinates": [-97.338547, 32.529972]}},
{"type": "Feature", "id": "bMWXfXBb-gfS-F-XD2dZiGhNqvU=", "properties": {"ref": "3123", "@spider": "bueno", "amenity": "fast_food", "cuisine": "mexican", "takeaway": "yes", "addr:full": "5341 William D. Tate Ave Grapevine, TX 76051", "addr:street_address": "5341 William D. Tate Ave", "addr:city": "Grapevine", "addr:state": "TX", "addr:postcode": "76051", "addr:country": "US", "name": "Taco Bueno - 3123", "phone": "(817) 898-8480", "opening_hours": "10:30 - 22:00", "brand": "Taco Bueno", "brand:wikidata": "Q7673958", "nsi_id": "tacobueno-4d2ff4"}, "geometry": {"type": "Point", "coordinates": [-97.098404, 32.882651]}},
{"type": "Feature", "id": "7GGhQTXcmHdLe6R11JygSAXEokg=", "properties": {"ref": "3160", "@spider": "bueno", "amenity": "fast_food", "cuisine": "mexican", "takeaway": "yes", "addr:full": "1120 Hwy 287 N Mansfield, TX 76063", "addr:street_address": "1120 Hwy 287 N", "addr:city": "Mansfield", "addr:state": "TX", "addr:postcode": "76063", "addr:country": "US", "name": "Taco Bueno - 3160", "phone": "(682) 250-1699", "opening_hours": "10:30 - 22:00", "brand": "Taco Bueno", "brand:wikidata": "Q7673958", "nsi_id": "tacobueno-4d2ff4"}, "geometry": {"type": "Point", "coordinates": [-97.133251, 32.583542]}},
{"type": "Feature", "id": "I1t-7dpDNjYwl1oVNF81xqEct2I=", "properties": {"ref": "3121", "@spider": "bueno", "amenity": "fast_food", "cuisine": "mexican", "takeaway": "yes", "addr:full": "1901 S. Main St Weatherford, TX 76086", "addr:street_address": "1901 S. Main St", "addr:city": "Weatherford", "addr:state": "TX", "addr:postcode": "76086", "addr:country": "US", "name": "Taco Bueno - 3121", "phone": "(817) 898-0203", "opening_hours": "10:30 - 22:00", "brand": "Taco Bueno", "brand:wikidata": "Q7673958", "nsi_id": "tacobueno-4d2ff4"}, "geometry": {"type": "Point", "coordinates": [-97.792012, 32.733177]}},
{"type": "Feature", "id": "ZYEV0JcunOt9jHU0d8VkEzxntdk=", "properties": {"ref": "3189", "@spider": "bueno", "amenity": "fast_food", "cuisine": "mexican", "takeaway": "yes", "addr:full": "9523 White Settlement Road Fort Worth, TX 76108", "addr:street_address": "9523 White Settlement Road", "addr:city": "Fort Worth", "addr:state": "TX", "addr:postcode": "76108", "addr:country": "US", "name": "Taco Bueno - 3189", "phone": "(817) 803-6699", "opening_hours": "10:30 - 22:00", "brand": "Taco Bueno", "brand:wikidata": "Q7673958", "nsi_id": "tacobueno-4d2ff4"}, "geometry": {"type": "Point", "coordinates": [-97.480714, 32.760893]}},
{"type": "Feature", "id": "XmMqfcuqQHcIuABQmgFIVx31bps=", "properties": {"ref": "8045", "@spider": "bueno", "amenity": "fast_food", "cuisine": "mexican", "takeaway": "yes", "addr:full": "1301 Markum Ranch Road Fort Worth, TX 76126", "addr:street_address": "1301 Markum Ranch Road", "addr:city": "Fort Worth", "addr:state": "TX", "addr:postcode": "76126", "addr:country": "US", "name": "Big Horn Travel Center", "phone": "(817) 560-0000", "opening_hours": "off", "brand": "Taco Bueno", "brand:wikidata": "Q7673958", "nsi_id": "tacobueno-4d2ff4"}, "geometry": {"type": "Point", "coordinates": [-97.5209772, 32.6929484]}},
{"type": "Feature", "id": "mGjk3CIQ8qGc9i57BHWa33Xb-cE=", "properties": {"ref": "3033", "@spider": "bueno", "amenity": "fast_food", "cuisine": "mexican", "takeaway": "yes", "addr:full": "6429 McCart Fort Worth, TX 76133", "addr:street_address": "6429 McCart", "addr:city": "Fort Worth", "addr:state": "TX", "addr:postcode": "76133", "addr:country": "US", "name": "Taco Bueno - 3033", "phone": "(817) 554-1695", "opening_hours": "10:30 - 22:00", "brand": "Taco Bueno", "brand:wikidata": "Q7673958", "nsi_id": "tacobueno-4d2ff4"}, "geometry": {"type": "Point", "coordinates": [-97.365755, 32.650884]}},
{"type": "Feature", "id": "NbnQawfFHHtaiU890XAx07KoGq4=", "properties": {"ref": "3045", "@spider": "bueno", "amenity": "fast_food", "cuisine": "mexican", "takeaway": "yes", "addr:full": "6350 Lake Worth Blvd Lake Worth, TX 76135", "addr:street_address": "6350 Lake Worth Blvd", "addr:city": "Lake Worth", "addr:state": "TX", "addr:postcode": "76135", "addr:country": "US", "name": "Taco Bueno - 3045", "phone": "(817) 237-1639", "opening_hours": "10:30 - 22:00", "brand": "Taco Bueno", "brand:wikidata": "Q7673958", "nsi_id": "tacobueno-4d2ff4"}, "geometry": {"type": "Point", "coordinates": [-97.423412, 32.810488]}},
{"type": "Feature", "id": "pu5lM3-3FdEokWNuz2ty5jrpQ_Y=", "properties": {"ref": "3122", "@spider": "bueno", "amenity": "fast_food", "cuisine": "mexican", "takeaway": "yes", "addr:full": "5380 N. Beach St Haltom City, TX 76137", "addr:street_address": "5380 N. Beach St", "addr:city": "Haltom City", "addr:state": "TX", "addr:postcode": "76137", "addr:country": "US", "name": "Taco Bueno - 3122", "phone": "(817) 898-8482", "opening_hours": "10:30 - 22:00", "brand": "Taco Bueno", "brand:wikidata": "Q7673958", "nsi_id": "tacobueno-4d2ff4"}, "geometry": {"type": "Point", "coordinates": [-97.290042, 32.843611]}},
{"type": "Feature", "id": "jJj5qweLp3nqSgjUNRmTZq1mjYI=", "properties": {"ref": "3234", "@spider": "bueno", "amenity": "fast_food", "cuisine": "mexican", "takeaway": "yes", "addr:full": "10700 South Freeway Fort Worth, TX 76140", "addr:street_address": "10700 South Freeway", "addr:city": "Fort Worth", "addr:state": "TX", "addr:postcode": "76140", "addr:country": "US", "name": "Taco Bueno - 3234", "phone": "(682) 250-8185", "opening_hours": "10:30 - 22:00", "brand": "Taco Bueno", "brand:wikidata": "Q7673958", "nsi_id": "tacobueno-4d2ff4"}, "geometry": {"type": "Point", "coordinates": [-97.320715, 32.6001004]}},
{"type": "Feature", "id": "-rJnY0TE1EsZMY_0FykJuFrpliA=", "properties": {"ref": "3236", "@spider": "bueno", "amenity": "fast_food", "cuisine": "mexican", "takeaway": "yes", "addr:full": " 7428 Denton Hwy, Watauga, TX  76148", "addr:street_address": " 7428 Denton Hwy,", "addr:city": "Watauga", "addr:state": "TX", "addr:postcode": " 76148", "addr:country": "US", "name": " Watauga  - 3236", "phone": "(817) 886-0707", "opening_hours": "10:30 - 22:00", "brand": "Taco Bueno", "brand:wikidata": "Q7673958", "nsi_id": "tacobueno-4d2ff4"}, "geometry": {"type": "Point", "coordinates": [-97.2607553, 32.8787754]}},
{"type": "Feature", "id": "YsNzyvyTNAZHHrXASgJuNJf5_fU=", "properties": {"ref": "3128", "@spider": "bueno", "amenity": "fast_food", "cuisine": "mexican", "takeaway": "yes", "addr:full": "2404 Westport Pkwy Fort Worth, TX 76177", "addr:street_address": "2404 Westport Pkwy", "addr:city": "Fort Worth", "addr:state": "TX", "addr:postcode": "76177", "addr:country": "US", "name": "Taco Bueno - 3128", "phone": "(817) 756-5451", "opening_hours": "10:30 - 22:00", "brand": "Taco Bueno", "brand:wikidata": "Q7673958", "nsi_id": "tacobueno-4d2ff4"}, "geometry": {"type": "Point", "coordinates": [-97.311972, 32.971939]}},
{"type": "Feature", "id": "wUi0SLhPdMJp2mpdj3Rg1uGM640=", "properties": {"ref": "3154", "@spider": "bueno", "amenity": "fast_food", "cuisine": "mexican", "takeaway": "yes", "addr:full": "6221 Precinct Line Rd NRH, TX 76180", "addr:street_address": "6221 Precinct Line Rd", "addr:city": "NRH", "addr:state": "TX", "addr:postcode": "76180", "addr:country": "US", "name": "Taco Bueno - 3154", "phone": "(817) 541-7818", "opening_hours": "10:30 - 22:00", "brand": "Taco Bueno", "brand:wikidata": "Q7673958", "nsi_id": "tacobueno-4d2ff4"}, "geometry": {"type": "Point", "coordinates": [-97.186691, 32.860483]}},
{"type": "Feature", "id": "IXeabG9nFjkX0K7akWvv4ORrA8Q=", "properties": {"ref": "3044", "@spider": "bueno", "amenity": "fast_food", "cuisine": "mexican", "takeaway": "yes", "addr:full": "5165 Rufe Snow Dr N.Richland Hills, TX 76180", "addr:street_address": "5165 Rufe Snow Dr", "addr:city": "N.Richland Hills", "addr:state": "TX", "addr:postcode": "76180", "addr:country": "US", "name": "Taco Bueno - 3044", "phone": "(817) 677-6076", "opening_hours": "10:30 - 22:00", "brand": "Taco Bueno", "brand:wikidata": "Q7673958", "nsi_id": "tacobueno-4d2ff4"}, "geometry": {"type": "Point", "coordinates": [-97.239251, 32.843431]}},
{"type": "Feature", "id": "F3NShfoxS0peDuuld2yniC5fxy8=", "properties": {"ref": "3037", "@spider": "bueno", "amenity": "fast_food", "cuisine": "mexican", "takeaway": "yes", "addr:full": "1550 W University  Denton, TX 76201", "addr:street_address": "1550 W University ", "addr:city": "Denton", "addr:state": "TX", "addr:postcode": "76201", "addr:country": "US", "name": "Taco Bueno - 3037", "phone": "(940) 539-4244", "opening_hours": "10:30 - 22:00", "brand": "Taco Bueno", "brand:wikidata": "Q7673958", "nsi_id": "tacobueno-4d2ff4"}, "geometry": {"type": "Point", "coordinates": [-97.146619, 33.229776]}},
{"type": "Feature", "id": "Ulv95LG3IQAQPz-L5oAq6h1ozMc=", "properties": {"ref": "3228", "@spider": "bueno", "amenity": "fast_food", "cuisine": "mexican", "takeaway": "yes", "addr:full": "11301 US Hwy. 380 Crossroads, TX 76227", "addr:street_address": "11301 US Hwy. 380", "addr:city": "Crossroads", "addr:state": "TX", "addr:postcode": "76227", "addr:country": "US", "name": "Taco Bueno - 3228", "phone": "(940) 539-4234", "opening_hours": "10:30 - 22:00", "brand": "Taco Bueno", "brand:wikidata": "Q7673958", "nsi_id": "tacobueno-4d2ff4"}, "geometry": {"type": "Point", "coordinates": [-96.9872129, 33.2257231]}},
{"type": "Feature", "id": "oO7wVyHcSO6amU35ZtQ9Rc56eKU=", "properties": {"ref": "3229", "@spider": "bueno", "amenity": "fast_food", "cuisine": "mexican", "takeaway": "yes", "addr:full": "1321 North Hwy 337 Roanoke, TX 76262", "addr:street_address": "1321 North Hwy 337", "addr:city": "Roanoke", "addr:state": "TX", "addr:postcode": "76262", "addr:country": "US", "name": "Taco Bueno - 3229", "phone": "(817) 854-9955", "opening_hours": "10:30 - 22:00", "brand": "Taco Bueno", "brand:wikidata": "Q7673958", "nsi_id": "tacobueno-4d2ff4"}, "geometry": {"type": "Point", "coordinates": [-97.2173552, 33.0204175]}},
{"type": "Feature", "id": "IEBkOmccYj3kODGGrIfi7Fi3BBc=", "properties": {"ref": "3073", "@spider": "bueno", "amenity": "fast_food", "cuisine": "mexican", "takeaway": "yes", "addr:full": "4417 Kemp Blvd Wichita Falls, TX 76308", "addr:street_address": "4417 Kemp Blvd", "addr:city": "Wichita Falls", "addr:state": "TX", "addr:postcode": "76308", "addr:country": "US", "name": "Taco Bueno - 3073", "phone": "(940) 228-1550", "opening_hours": "10:30 - 22:00", "brand": "Taco Bueno", "brand:wikidata": "Q7673958", "nsi_id": "tacobueno-4d2ff4"}, "geometry": {"type": "Point", "coordinates": [-98.535806, 33.863133]}},
{"type": "Feature", "id": "gr3WXVBk26meLmS6a4vg3LhQyd0=", "properties": {"ref": "3087", "@spider": "bueno", "amenity": "fast_food", "cuisine": "mexican", "takeaway": "yes", "addr:full": "815 N Valley Mills Waco, TX 76710", "addr:street_address": "815 N Valley Mills", "addr:city": "Waco", "addr:state": "TX", "addr:postcode": "76710", "addr:country": "US", "name": "Taco Bueno - 3087", "phone": "(254) 342-0684", "opening_hours": "10:30 - 22:00", "brand": "Taco Bueno", "brand:wikidata": "Q7673958", "nsi_id": "tacobueno-4d2ff4"}, "geometry": {"type": "Point", "coordinates": [-97.179771, 31.529979]}},
{"type": "Feature", "id": "1rKxXw4D94nxzaUbIu82pz41WeU=", "properties": {"ref": "8044", "@spider": "bueno", "amenity": "fast_food", "cuisine": "mexican", "takeaway": "yes", "addr:full": "914 N. Bryant Road  San Angelo, TX 76903", "addr:street_address": "914 N. Bryant Road ", "addr:city": "San Angelo", "addr:state": "TX", "addr:postcode": "76903", "addr:country": "US", "name": "Taco Bueno - 8044", "phone": "(325) 481-0783", "opening_hours": "10:30 - 21:30", "brand": "Taco Bueno", "brand:wikidata": "Q7673958", "nsi_id": "tacobueno-4d2ff4"}, "geometry": {"type": "Point", "coordinates": [-100.447833, 31.468809]}},
{"type": "Feature", "id": "bFkKpw2huPLf-2hurhODKNeN7Dc=", "properties": {"ref": "8052", "@spider": "bueno", "amenity": "fast_food", "cuisine": "mexican", "takeaway": "yes", "addr:full": "2026 I-45 North Conroe, TX 77303", "addr:street_address": "2026 I-45 North", "addr:city": "Conroe", "addr:state": "TX", "addr:postcode": "77303", "addr:country": "US", "name": "Taco Bueno", "phone": "(936) 494-2749", "opening_hours": "10:30 - 22:00", "brand": "Taco Bueno", "brand:wikidata": "Q7673958", "nsi_id": "tacobueno-4d2ff4"}, "geometry": {"type": "Point", "coordinates": [-95.4793978, 30.3381914]}},
{"type": "Feature", "id": "JI81YF53rYCyWdcS32_3XYxJrXY=", "properties": {"ref": "3253", "@spider": "bueno", "amenity": "fast_food", "cuisine": "mexican", "takeaway": "yes", "addr:full": "1915 US Hwy 190 W Livingston, TX 77351", "addr:street_address": "1915 US Hwy 190 W", "addr:city": "Livingston", "addr:state": "TX", "addr:postcode": "77351", "addr:country": "US", "name": "Taco Bueno - 3253", "phone": "(936) 513-1035", "opening_hours": "10:30 - 22:00", "brand": "Taco Bueno", "brand:wikidata": "Q7673958", "nsi_id": "tacobueno-4d2ff4"}, "geometry": {"type": "Point", "coordinates": [-94.9857447, 30.7342751]}},
{"type": "Feature", "id": "Y_MH4hLQWpAkYrlmmk7XRl-psc4=", "properties": {"ref": "3241", "@spider": "bueno", "amenity": "fast_food", "cuisine": "mexican", "takeaway": "yes", "addr:full": "6860 Fry Rd Katy, TX 77449", "addr:street_address": "6860 Fry Rd", "addr:city": "Katy", "addr:state": "TX", "addr:postcode": "77449", "addr:country": "US", "name": "Taco Bueno - 3241", "phone": "(281) 769-8585", "opening_hours": "off", "brand": "Taco Bueno", "brand:wikidata": "Q7673958", "nsi_id": "tacobueno-4d2ff4"}, "geometry": {"type": "Point", "coordinates": [-95.7369881, 29.7844287]}},
{"type": "Feature", "id": "VoDnjFhc6ZR1c3TEXXXheuYXMsg=", "properties": {"ref": "3251", "@spider": "bueno", "amenity": "fast_food", "cuisine": "mexican", "takeaway": "yes", "addr:full": "28225 Southwest Fwy Rosenberg, TX 77471", "addr:street_address": "28225 Southwest Fwy", "addr:city": "Rosenberg", "addr:state": "TX", "addr:postcode": "77471", "addr:country": "US", "name": "Rosenberg - 3251", "phone": "(281) 394-3364", "opening_hours": "10:30 - 22:00", "brand": "Taco Bueno", "brand:wikidata": "Q7673958", "nsi_id": "tacobueno-4d2ff4"}, "geometry": {"type": "Point", "coordinates": [-95.8087207, 29.531178]}},
{"type": "Feature", "id": "tz4-DNZfbv6KgNtiBIlvZARX7bQ=", "properties": {"ref": "3231", "@spider": "bueno", "amenity": "fast_food", "cuisine": "mexican", "takeaway": "yes", "addr:full": "3422 Garth Rd Baytown, TX 77521", "addr:street_address": "3422 Garth Rd", "addr:city": "Baytown", "addr:state": "TX", "addr:postcode": "77521", "addr:country": "US", "name": "Taco Bueno - 3231", "phone": "(281) 628-2680", "opening_hours": "off", "brand": "Taco Bueno", "brand:wikidata": "Q7673958", "nsi_id": "tacobueno-4d2ff4"}, "geometry": {"type": "Point", "coordinates": [-94.9769179, 29.7596718]}},
{"type": "Feature", "id": "oRDm0oP4kGX7-TKLNwTN05356Lo=", "properties": {"ref": "3252", "@spider": "bueno", "amenity": "fast_food", "cuisine": "mexican", "takeaway": "yes", "addr:full": "310 This Way Lake Jackson, TX  77566 ", "addr:street_address": "310 This Way", "addr:city": "Lake Jackson", "addr:state": "TX", "addr:postcode": " 77566 ", "addr:country": "US", "name": "Taco Bueno - 3252", "phone": "(903) 601-4055", "opening_hours": "10:30 - 22:00", "brand": "Taco Bueno", "brand:wikidata": "Q7673958", "nsi_id": "tacobueno-4d2ff4"}, "geometry": {"type": "Point", "coordinates": [-95.4531897, 29.0406923]}},
{"type": "Feature", "id": "dalRrPPj7WM_-5Sc12K6mWlwaSI=", "properties": {"ref": "3250", "@spider": "bueno", "amenity": "fast_food", "cuisine": "mexican", "takeaway": "yes", "addr:full": "8507 N. Navarro Street Victoria, TX 77904", "addr:street_address": "8507 N. Navarro Street", "addr:city": "Victoria", "addr:state": "TX", "addr:postcode": "77904", "addr:country": "US", "name": "Taco Bueno - 3250", "phone": "(361) 541-5837", "opening_hours": "10:30 - 22:00", "brand": "Taco Bueno", "brand:wikidata": "Q7673958", "nsi_id": "tacobueno-4d2ff4"}, "geometry": {"type": "Point", "coordinates": [-96.9983327, 28.8733529]}},
{"type": "Feature", "id": "d6zvkXnl8gdJqQAvcZuKyxV6A8Q=", "properties": {"ref": "3246", "@spider": "bueno", "amenity": "fast_food", "cuisine": "mexican", "takeaway": "yes", "addr:full": "4385 Frontage rd Brownsville, TX 78520", "addr:street_address": "4385 Frontage rd", "addr:city": "Brownsville", "addr:state": "TX", "addr:postcode": "78520", "addr:country": "US", "name": "Taco Bueno - 3246", "phone": "(956) 338-0321", "opening_hours": "off", "brand": "Taco Bueno", "brand:wikidata": "Q7673958", "nsi_id": "tacobueno-4d2ff4"}, "geometry": {"type": "Point", "coordinates": [-97.5166518, 25.9688959]}},
{"type": "Feature", "id": "bYQL1tScvK5QJjJJJ8EH3SrCRGo=", "properties": {"ref": "3232", "@spider": "bueno", "amenity": "fast_food", "cuisine": "mexican", "takeaway": "yes", "addr:full": "700 E. William Cannon Austin, TX 78745", "addr:street_address": "700 E. William Cannon", "addr:city": "Austin", "addr:state": "TX", "addr:postcode": "78745", "addr:country": "US", "name": "Taco Bueno - 3232", "phone": "(737) 273-8181", "opening_hours": "10:30 - 22:00", "brand": "Taco Bueno", "brand:wikidata": "Q7673958", "nsi_id": "tacobueno-4d2ff4"}, "geometry": {"type": "Point", "coordinates": [-97.7726143, 30.191731]}},
{"type": "Feature", "id": "cwH6_f8xMi9JS3UNSPcTmmq9b_k=", "properties": {"ref": "3254", "@spider": "bueno", "amenity": "fast_food", "cuisine": "mexican", "takeaway": "yes", "addr:full": "1920 S. Dumas Ave Dumas, TX 79029", "addr:street_address": "1920 S. Dumas Ave", "addr:city": "Dumas", "addr:state": "TX", "addr:postcode": "79029", "addr:country": "US", "name": "Taco Bueno", "phone": "(806) 717-2292", "opening_hours": "10:30 - 22:00", "brand": "Taco Bueno", "brand:wikidata": "Q7673958", "nsi_id": "tacobueno-4d2ff4"}, "geometry": {"type": "Point", "coordinates": [-101.9734853, 35.8413116]}},
{"type": "Feature", "id": "2WdrH8m9WxLK9EydVTimvg_r5Y4=", "properties": {"ref": "3007", "@spider": "bueno", "amenity": "fast_food", "cuisine": "mexican", "takeaway": "yes", "addr:full": "825 Judge Ely Rd Abilene, TX 79601", "addr:street_address": "825 Judge Ely Rd", "addr:city": "Abilene", "addr:state": "TX", "addr:postcode": "79601", "addr:country": "US", "name": "Taco Bueno - 3007", "phone": "(325) 399-0577", "opening_hours": "10:30 - 22:00", "brand": "Taco Bueno", "brand:wikidata": "Q7673958", "nsi_id": "tacobueno-4d2ff4"}, "geometry": {"type": "Point", "coordinates": [-99.705436, 32.458076]}},
{"type": "Feature", "id": "tgnRjHDM8U-z4rtq1d4BmQXrEMI=", "properties": {"ref": "3001", "@spider": "bueno", "amenity": "fast_food", "cuisine": "mexican", "takeaway": "yes", "addr:full": "3650 North 1st St Abilene, TX 79603", "addr:street_address": "3650 North 1st St", "addr:city": "Abilene", "addr:state": "TX", "addr:postcode": "79603", "addr:country": "US", "name": "Taco Bueno - 3001", "phone": "(325) 672-4604", "opening_hours": "10:30 - 22:00", "brand": "Taco Bueno", "brand:wikidata": "Q7673958", "nsi_id": "tacobueno-4d2ff4"}, "geometry": {"type": "Point", "coordinates": [-99.768564, 32.45278]}},
{"type": "Feature", "id": "ngAWGcq5aniShy-cgiqd-_z25Fk=", "properties": {"ref": "3029", "@spider": "bueno", "amenity": "fast_food", "cuisine": "mexican", "takeaway": "yes", "addr:full": "4117 Buffalo Gap Rd Abilene, TX 79605", "addr:street_address": "4117 Buffalo Gap Rd", "addr:city": "Abilene", "addr:state": "TX", "addr:postcode": "79605", "addr:country": "US", "name": "Taco Bueno - 3029", "phone": "(325) 399-0573", "opening_hours": "10:30 - 22:00", "brand": "Taco Bueno", "brand:wikidata": "Q7673958", "nsi_id": "tacobueno-4d2ff4"}, "geometry": {"type": "Point", "coordinates": [-99.757342, 32.403045]}},
{"type": "Feature", "id": "FLAqlSBXEQQcE5erk1XD-6FQ0cI=", "properties": {"ref": "3116", "@spider": "bueno", "amenity": "fast_food", "cuisine": "mexican", "takeaway": "yes", "addr:full": "5010 South US Hwy 277 Abilene, TX 79605", "addr:street_address": "5010 South US Hwy 277", "addr:city": "Abilene", "addr:state": "TX", "addr:postcode": "79605", "addr:country": "US", "name": "Taco Bueno - 3116", "phone": "(325) 399-0671", "opening_hours": "10:30 - 22:00", "brand": "Taco Bueno", "brand:wikidata": "Q7673958", "nsi_id": "tacobueno-4d2ff4"}, "geometry": {"type": "Point", "coordinates": [-99.787586, 32.425652]}}]}