{"type":"FeatureCollection","features":[{"type": "Feature", "id": "y6hR-7PwhOpKqhs6dg2zFE-aOpA=", "properties": {"ref": "9750", "@spider": "burger_fi", "amenity": "fast_food", "cuisine": "burger", "takeaway": "yes", "addr:street_address": "5475 Windward Parkway West", "addr:city": "Alpharetta", "addr:state": "GA", "addr:postcode": "30004", "addr:country": "US", "name": "Alpharetta", "phone": "(770) 817-4658", "website": "https://order.burgerfi.com/locations/burgerfi-alpharetta", "brand": "Burger Fi", "brand:wikidata": "Q39045496", "nsi_id": "burgerfi-4d2ff4"}, "geometry": {"type": "Point", "coordinates": [-84.2701413, 34.0874205]}},
{"type": "Feature", "id": "lfiw_aCtcYRhvPPCzkjoIrgZ-bE=", "properties": {"ref": "13983", "@spider": "burger_fi", "amenity": "fast_food", "cuisine": "burger", "takeaway": "yes", "addr:street_address": "600 East Northern Lights Blvd.", "addr:city": "Anchorage", "addr:state": "AK", "addr:postcode": "99503", "addr:country": "US", "name": "Anchorage - Midtown", "phone": "(907) 277-3630", "website": "https://order.burgerfi.com/locations/burgerfi-anchorage", "brand": "Burger Fi", "brand:wikidata": "Q39045496", "nsi_id": "burgerfi-4d2ff4"}, "geometry": {"type": "Point", "coordinates": [-149.8722757, 61.1942601]}},
{"type": "Feature", "id": "K1qlfcmGLMXMXaOnHM-xT1n7CGY=", "properties": {"ref": "9782", "@spider": "burger_fi", "amenity": "fast_food", "cuisine": "burger", "takeaway": "yes", "addr:street_address": "339 S College St., Ste. C", "addr:city": "Auburn", "addr:state": "AL", "addr:postcode": "36830", "addr:country": "US", "name": "Auburn", "phone": "(334) 521-5030", "website": "https://order.burgerfi.com/locations/burgerfi-auburn", "brand": "Burger Fi", "brand:wikidata": "Q39045496", "nsi_id": "burgerfi-4d2ff4"}, "geometry": {"type": "Point", "coordinates": [-85.481464, 32.5998001]}},
{"type": "Feature", "id": "Jyo3RTqJO1oJ0r4wg5mU-KMfbLk=", "properties": {"ref": "9738", "@spider": "burger_fi", "amenity": "fast_food", "cuisine": "burger", "takeaway": "yes", "addr:street_address": "18139 BISCAYNE BLVD", "addr:city": "AVENTURA", "addr:state": "FL", "addr:postcode": "33160", "addr:country": "US", "name": "Aventura", "phone": "(305) 466-0350", "website": "https://order.burgerfi.com/locations/burgerfi-aventura", "brand": "Burger Fi", "brand:wikidata": "Q39045496", "nsi_id": "burgerfi-4d2ff4"}, "geometry": {"type": "Point", "coordinates": [-80.1471865, 25.9427769]}},
{"type": "Feature", "id": "0iNbnR-pjGQiWUouBIgpivHgG3g=", "properties": {"ref": "62208", "@spider": "burger_fi", "amenity": "fast_food", "cuisine": "burger", "takeaway": "yes", "addr:street_address": "6919 SW 18th St.", "addr:city": "Boca Raton", "addr:state": "FL", "addr:postcode": "33433", "addr:country": "US", "name": "Boca Raton - Boca Pointe", "phone": "(561) 757-3181", "website": "https://order.burgerfi.com/locations/boca-raton-boca-pointe", "brand": "Burger Fi", "brand:wikidata": "Q39045496", "nsi_id": "burgerfi-4d2ff4"}, "geometry": {"type": "Point", "coordinates": [-80.151609, 26.332634]}},
{"type": "Feature", "id": "b0pwp3A0VIURZWDVoJ5eZK_0LKU=", "properties": {"ref": "96104", "@spider": "burger_fi", "amenity": "fast_food", "cuisine": "burger", "takeaway": "yes", "addr:street_address": "8773 Boynton Beach Boulevard", "addr:city": "Boynton Beach", "addr:state": "FL", "addr:postcode": "33472", "addr:country": "US", "name": "Boynton Beach - Cobblestone (W. Boynton Bch Blvd. & Turnpike)", "phone": "(561) 877-2252", "website": "https://order.burgerfi.com/locations/burgerfi-west-boynton-beach", "brand": "Burger Fi", "brand:wikidata": "Q39045496", "nsi_id": "burgerfi-4d2ff4"}, "geometry": {"type": "Point", "coordinates": [-80.1850327, 26.5283257]}},
{"type": "Feature", "id": "JpNClfQrOaMYFjaqORyjv1JNI90=", "properties": {"ref": "35685", "@spider": "burger_fi", "amenity": "fast_food", "cuisine": "burger", "takeaway": "yes", "addr:street_address": "1500 Gateway Blvd Unit 112", "addr:city": "Boynton Beach", "addr:state": "FL", "addr:postcode": "33426", "addr:country": "US", "name": "Boynton Beach - Renaissance Commons(Corner of Gateway&Congress)", "phone": "(561) 810-6718", "website": "https://order.burgerfi.com/locations/burgerfi-boynton-beach", "brand": "Burger Fi", "brand:wikidata": "Q39045496", "nsi_id": "burgerfi-4d2ff4"}, "geometry": {"type": "Point", "coordinates": [-80.0878883, 26.5458937]}},
{"type": "Feature", "id": "8BPkH8oh3H2rNglBzGFRaW32KPA=", "properties": {"ref": "16860", "@spider": "burger_fi", "amenity": "fast_food", "cuisine": "burger", "takeaway": "yes", "addr:street_address": "7100 Executive Centr DR Bldg A", "addr:city": "Brentwood", "addr:state": "TN", "addr:postcode": "37027", "addr:country": "US", "name": "Brentwood", "phone": "(629) 888-4528", "website": "https://order.burgerfi.com/locations/burgerfi-brentwood", "brand": "Burger Fi", "brand:wikidata": "Q39045496", "nsi_id": "burgerfi-4d2ff4"}, "geometry": {"type": "Point", "coordinates": [-86.7882507, 36.0293718]}},
{"type": "Feature", "id": "olPws1Ui9mfRZ65bWBT_OECzziU=", "properties": {"ref": "27201", "@spider": "burger_fi", "amenity": "fast_food", "cuisine": "burger", "takeaway": "yes", "addr:street_address": "719 86th street", "addr:city": "Brooklyn", "addr:state": "NY", "addr:postcode": "11228", "addr:country": "US", "name": "Brooklyn", "phone": "(718) 836-0836", "website": "https://order.burgerfi.com/locations/brooklyn", "brand": "Burger Fi", "brand:wikidata": "Q39045496", "nsi_id": "burgerfi-4d2ff4"}, "geometry": {"type": "Point", "coordinates": [-74.0213366, 40.6188341]}},
{"type": "Feature", "id": "ch9Q1yXNk6qWKKB7tH737rW43Qw=", "properties": {"ref": "9737", "@spider": "burger_fi", "amenity": "fast_food", "cuisine": "burger", "takeaway": "yes", "addr:street_address": "2052 Renaissance Place", "addr:city": "Cary", "addr:state": "NC", "addr:postcode": "27513", "addr:country": "US", "name": "Cary - Arboretum", "phone": "(919) 659-8700", "website": "https://order.burgerfi.com/locations/burgerfi-cary", "brand": "Burger Fi", "brand:wikidata": "Q39045496", "nsi_id": "burgerfi-4d2ff4"}, "geometry": {"type": "Point", "coordinates": [-78.7811169, 35.79154]}},
{"type": "Feature", "id": "2_Ue3ANIaLNVxKXqjOEaFI_ixEI=", "properties": {"ref": "78838", "@spider": "burger_fi", "amenity": "fast_food", "cuisine": "burger", "takeaway": "yes", "addr:street_address": "2001 Walnut St, Suite 101", "addr:city": "Cary", "addr:state": "NC", "addr:postcode": "27518", "addr:country": "US", "name": "Cary- Crossroads", "phone": "(919) 647-4785", "website": "https://order.burgerfi.com/locations/burgerfi-cary-crossroads", "brand": "Burger Fi", "brand:wikidata": "Q39045496", "nsi_id": "burgerfi-4d2ff4"}, "geometry": {"type": "Point", "coordinates": [-78.7415557, 35.7588522]}},
{"type": "Feature", "id": "PpeLdBXR2pfnIRLzk1wZjHRsPfk=", "properties": {"ref": "169011", "@spider": "burger_fi", "amenity": "fast_food", "cuisine": "burger", "takeaway": "yes", "addr:street_address": "385 Merchant Walk Square", "addr:city": "Charlottesville", "addr:state": "VA", "addr:postcode": "22902", "addr:country": "US", "name": "Charlottesville - 5th Street Station", "phone": "(434) 956-4422", "website": "https://order.burgerfi.com/locations/burgerfi-charlottesville-5th-street-station", "brand": "Burger Fi", "brand:wikidata": "Q39045496", "nsi_id": "burgerfi-4d2ff4"}, "geometry": {"type": "Point", "coordinates": [-78.4993008, 38.0117747]}},
{"type": "Feature", "id": "r4E4IklBoAzJI1Kqm6roE_snBt0=", "properties": {"ref": "192698", "@spider": "burger_fi", "amenity": "fast_food", "cuisine": "burger", "takeaway": "yes", "addr:street_address": "1584 Kings Highway North", "addr:city": "Cherry Hill", "addr:state": "NJ", "addr:postcode": "08034", "addr:country": "US", "name": "Cherry Hill", "phone": "(856) 281-7523", "website": "https://order.burgerfi.com/locations/cherry-hill", "brand": "Burger Fi", "brand:wikidata": "Q39045496", "nsi_id": "burgerfi-4d2ff4"}, "geometry": {"type": "Point", "coordinates": [-75.0085325, 39.916096]}},
{"type": "Feature", "id": "WlwNf3XzRwf_G8mVuW6oBF_kodE=", "properties": {"ref": "32812", "@spider": "burger_fi", "amenity": "fast_food", "cuisine": "burger", "takeaway": "yes", "addr:street_address": "161 East Freedom Way Space 180", "addr:city": "Cincinnati", "addr:state": "OH", "addr:postcode": "45202", "addr:country": "US", "name": "Cincinnati", "phone": "(513) 832-2817", "website": "https://order.burgerfi.com/locations/burgerfi-cincinnati", "brand": "Burger Fi", "brand:wikidata": "Q39045496", "nsi_id": "burgerfi-4d2ff4"}, "geometry": {"type": "Point", "coordinates": [-84.5095133, 39.0971191]}},
{"type": "Feature", "id": "WmZ6BN7qN3a7Lh3nVV0_Z89xA24=", "properties": {"ref": "137416", "@spider": "burger_fi", "amenity": "fast_food", "cuisine": "burger", "takeaway": "yes", "addr:street_address": "6181 Old Dobbin Ln Ste 200", "addr:city": "Columbia", "addr:state": "MD", "addr:postcode": "21045", "addr:country": "US", "name": "Columbia", "phone": "(443) 542-9191", "website": "https://order.burgerfi.com/locations/burgerfi-columbia", "brand": "Burger Fi", "brand:wikidata": "Q39045496", "nsi_id": "burgerfi-4d2ff4"}, "geometry": {"type": "Point", "coordinates": [-76.8125119, 39.2006311]}},
{"type": "Feature", "id": "oC1_KOexYzrY3ciVryQ7nIYZ2os=", "properties": {"ref": "25058", "@spider": "burger_fi", "amenity": "fast_food", "cuisine": "burger", "takeaway": "yes", "addr:street_address": "6234 Jericho Tpke", "addr:city": "Commack", "addr:state": "NY", "addr:postcode": "11725", "addr:country": "US", "name": "Commack", "phone": "(631) 462-1824", "website": "https://order.burgerfi.com/locations/commack", "brand": "Burger Fi", "brand:wikidata": "Q39045496", "nsi_id": "burgerfi-4d2ff4"}, "geometry": {"type": "Point", "coordinates": [-73.2986261, 40.8423067]}},
{"type": "Feature", "id": "IhEd_tFPpCBLGlwpd1bl6NggGq4=", "properties": {"ref": "9734", "@spider": "burger_fi", "amenity": "fast_food", "cuisine": "burger", "takeaway": "yes", "addr:street_address": "2700 University Dr, Suite 2716", "addr:city": "Coral Springs", "addr:state": "FL", "addr:postcode": "33065", "addr:country": "US", "name": "Coral Springs", "phone": "(954) 510-8300", "website": "https://order.burgerfi.com/locations/burgerfi-coral-springs-4", "brand": "Burger Fi", "brand:wikidata": "Q39045496", "nsi_id": "burgerfi-4d2ff4"}, "geometry": {"type": "Point", "coordinates": [-80.2509585, 26.263545]}},
{"type": "Feature", "id": "yR6U6r0tXfNw0IDHbMPnc3m90s0=", "properties": {"ref": "153945", "@spider": "burger_fi", "amenity": "fast_food", "cuisine": "burger", "takeaway": "yes", "addr:street_address": "2002 Portage Trail", "addr:city": "Cuyahoga Falls", "addr:state": "OH", "addr:postcode": "44223", "addr:country": "US", "name": "Cuyahoga Falls", "phone": "(330) 217-1471", "website": "https://order.burgerfi.com/locations/cuyahoga-falls", "brand": "Burger Fi", "brand:wikidata": "Q39045496", "nsi_id": "burgerfi-4d2ff4"}, "geometry": {"type": "Point", "coordinates": [-81.5072856, 41.148122]}},
{"type": "Feature", "id": "CX9HNjLXqWLKvHSW3YcDzpGlOAU=", "properties": {"ref": "96522", "@spider": "burger_fi", "amenity": "fast_food", "cuisine": "burger", "takeaway": "yes", "addr:street_address": "11 S. Pointe Drive", "addr:city": "Dania Beach", "addr:state": "FL", "addr:postcode": "33004", "addr:country": "US", "name": "Dania Beach - Dania Point", "phone": "(754) 256-5937", "website": "https://order.burgerfi.com/locations/dania-beach-dania-point", "brand": "Burger Fi", "brand:wikidata": "Q39045496", "nsi_id": "burgerfi-4d2ff4"}, "geometry": {"type": "Point", "coordinates": [-80.1600195, 26.0517122]}},
{"type": "Feature", "id": "J6506OiaA9qKoHfkwLf54_3JUgs=", "properties": {"ref": "9744", "@spider": "burger_fi", "amenity": "fast_food", "cuisine": "burger", "takeaway": "yes", "addr:street_address": "1902 S. University Dr", "addr:city": "Davie", "addr:state": "FL", "addr:postcode": "33324", "addr:country": "US", "name": "Davie", "phone": "(954) 900-5203", "website": "https://order.burgerfi.com/locations/burgerfi-davie", "brand": "Burger Fi", "brand:wikidata": "Q39045496", "nsi_id": "burgerfi-4d2ff4"}, "geometry": {"type": "Point", "coordinates": [-80.2492734, 26.0959684]}},
{"type": "Feature", "id": "jiI-8HZOaFcHhrMhl1PCgy_1DtM=", "properties": {"ref": "118078", "@spider": "burger_fi", "amenity": "fast_food", "cuisine": "burger", "takeaway": "yes", "addr:street_address": "660 Linton Blvd.", "addr:city": "Delray Beach", "addr:state": "FL", "addr:postcode": "33444", "addr:country": "US", "name": "Delray Beach - Linton Blvd", "phone": "(561) 473-2210", "website": "https://order.burgerfi.com/locations/delray-beach-linton-blvd", "brand": "Burger Fi", "brand:wikidata": "Q39045496", "nsi_id": "burgerfi-4d2ff4"}, "geometry": {"type": "Point", "coordinates": [-80.0796191, 26.4388875]}},
{"type": "Feature", "id": "6-cdL8fv6eYjG7J_2a5uk4DAq2U=", "properties": {"ref": "9733", "@spider": "burger_fi", "amenity": "fast_food", "cuisine": "burger", "takeaway": "yes", "addr:street_address": "6 S. Ocean Blvd", "addr:city": "Delray Beach", "addr:state": "FL", "addr:postcode": "33483", "addr:country": "US", "name": "Delray Beach - Ocean Blvd.", "phone": "(561) 278-9590", "website": "https://order.burgerfi.com/locations/burgerfi-delray-beach", "brand": "Burger Fi", "brand:wikidata": "Q39045496", "nsi_id": "burgerfi-4d2ff4"}, "geometry": {"type": "Point", "coordinates": [-80.058622, 26.4614149]}},
{"type": "Feature", "id": "HmFCOk-n6afUIQs2x4Q1k_bxQmM=", "properties": {"ref": "31238", "@spider": "burger_fi", "amenity": "fast_food", "cuisine": "burger", "takeaway": "yes", "addr:street_address": "7959 Atlantic Ave, Suite 201", "addr:city": "Delray", "addr:state": "FL", "addr:postcode": "33446", "addr:country": "US", "name": "Delray Beach - West Atlantic Ave", "phone": "(561) 562-8039", "website": "https://order.burgerfi.com/locations/west-delray", "brand": "Burger Fi", "brand:wikidata": "Q39045496", "nsi_id": "burgerfi-4d2ff4"}, "geometry": {"type": "Point", "coordinates": [-80.1709842, 26.454376]}},
{"type": "Feature", "id": "YTzWd92QQuVUUnKQx44ZgxxK6Lg=", "properties": {"ref": "9783", "@spider": "burger_fi", "amenity": "fast_food", "cuisine": "burger", "takeaway": "yes", "addr:street_address": "1147 N Broadway. Ste. 101", "addr:city": "Denver", "addr:state": "CO", "addr:postcode": "80203", "addr:country": "US", "name": "Denver", "phone": "(720) 390-5046", "website": "https://order.burgerfi.com/locations/burgerfi-denver", "brand": "Burger Fi", "brand:wikidata": "Q39045496", "nsi_id": "burgerfi-4d2ff4"}, "geometry": {"type": "Point", "coordinates": [-104.9876918, 39.7349405]}},
{"type": "Feature", "id": "oXTY5sducP5q5B-tFLBJXbSKGqc=", "properties": {"ref": "31259", "@spider": "burger_fi", "amenity": "fast_food", "cuisine": "burger", "takeaway": "yes", "addr:street_address": "3530 NW 83 Avenue Suite 104", "addr:city": "Doral", "addr:state": "FL", "addr:postcode": "33122", "addr:country": "US", "name": "Doral - City Place", "phone": "(305) 856-9918", "website": "https://order.burgerfi.com/locations/doral", "brand": "Burger Fi", "brand:wikidata": "Q39045496", "nsi_id": "burgerfi-4d2ff4"}, "geometry": {"type": "Point", "coordinates": [-80.3315336, 25.8057844]}},
{"type": "Feature", "id": "p4oLZmZTP01-PV_YeRggdbFxs8A=", "properties": {"ref": "9763", "@spider": "burger_fi", "amenity": "fast_food", "cuisine": "burger", "takeaway": "yes", "addr:street_address": "1465 SE 17th St", "addr:city": "Fort Lauderdale", "addr:state": "FL", "addr:postcode": "33316", "addr:country": "US", "name": "Fort Lauderdale - 17th Street", "phone": "(954) 306-3096", "website": "https://order.burgerfi.com/locations/17th-street", "brand": "Burger Fi", "brand:wikidata": "Q39045496", "nsi_id": "burgerfi-4d2ff4"}, "geometry": {"type": "Point", "coordinates": [-80.1290397, 26.1015084]}},
{"type": "Feature", "id": "6AhTQ79kzR4Cffu6Z6Qcgs87AY4=", "properties": {"ref": "9735", "@spider": "burger_fi", "amenity": "fast_food", "cuisine": "burger", "takeaway": "yes", "addr:street_address": "2477 E. Sunrise Blvd", "addr:city": "Ft. Lauderdale", "addr:state": "FL", "addr:postcode": "33304", "addr:country": "US", "name": "Fort Lauderdale - Sunrise Blvd", "phone": "(954) 835-5514", "website": "https://order.burgerfi.com/locations/sunrise-blvd", "brand": "Burger Fi", "brand:wikidata": "Q39045496", "nsi_id": "burgerfi-4d2ff4"}, "geometry": {"type": "Point", "coordinates": [-80.1130027, 26.1384064]}},
{"type": "Feature", "id": "fwpfklffDbwIaT9Xq7SwlR32zvk=", "properties": {"ref": "109982", "@spider": "burger_fi", "amenity": "fast_food", "cuisine": "burger", "takeaway": "yes", "addr:street_address": "6881 Daniels Parkway Suite 110", "addr:city": "Fort Myers", "addr:state": "FL", "addr:postcode": "33912", "addr:country": "US", "name": "Fort Myers - Daniels Pkwy", "phone": "(239) 215-9870", "website": "https://order.burgerfi.com/locations/fort-myers-daniels-pkwy", "brand": "Burger Fi", "brand:wikidata": "Q39045496", "nsi_id": "burgerfi-4d2ff4"}, "geometry": {"type": "Point", "coordinates": [-81.8410679, 26.5471657]}},
{"type": "Feature", "id": "AoO45lj4cMfpzulrSiOmeqIhGww=", "properties": {"ref": "167777", "@spider": "burger_fi", "amenity": "fast_food", "cuisine": "burger", "takeaway": "yes", "addr:street_address": "4220 West Jefferson Blvd #0-10", "addr:city": "Fort Wayne", "addr:state": "IN", "addr:postcode": "46804", "addr:country": "US", "name": "Fort Wayne - Jefferson Pointe", "phone": "(260) 387-6788", "website": "https://order.burgerfi.com/locations/fort-wayne-jefferson-blvd", "brand": "Burger Fi", "brand:wikidata": "Q39045496", "nsi_id": "burgerfi-4d2ff4"}, "geometry": {"type": "Point", "coordinates": [-85.198294, 41.071343]}},
{"type": "Feature", "id": "CO75fkLPJ7BcFIQ1qgUSR2Ao2aU=", "properties": {"ref": "49536", "@spider": "burger_fi", "amenity": "fast_food", "cuisine": "burger", "takeaway": "yes", "addr:street_address": "7777 Coldwater Rd", "addr:city": "Fort Wayne", "addr:state": "IN", "addr:postcode": "46825", "addr:country": "US", "name": "Fort Wayne-Coldwater Rd", "phone": "(260) 444-4201", "website": "https://order.burgerfi.com/locations/fort-wayne", "brand": "Burger Fi", "brand:wikidata": "Q39045496", "nsi_id": "burgerfi-4d2ff4"}, "geometry": {"type": "Point", "coordinates": [-85.1375637, 41.1508606]}},
{"type": "Feature", "id": "Guk8mbeDrd-MrDAglUIsVMjuwEg=", "properties": {"ref": "9773", "@spider": "burger_fi", "amenity": "fast_food", "cuisine": "burger", "takeaway": "yes", "addr:street_address": "3524 SW Archer Road", "addr:city": "Gainesville", "addr:state": "FL", "addr:postcode": "32608", "addr:country": "US", "name": "Gainesville", "phone": "(352) 337-6001", "website": "https://order.burgerfi.com/locations/burgerfi-gainesville", "brand": "Burger Fi", "brand:wikidata": "Q39045496", "nsi_id": "burgerfi-4d2ff4"}, "geometry": {"type": "Point", "coordinates": [-82.3758906, 29.6243293]}},
{"type": "Feature", "id": "76_OwbpMwmt_UvCk_Z_MwwLljJ0=", "properties": {"ref": "174199", "@spider": "burger_fi", "amenity": "fast_food", "cuisine": "burger", "takeaway": "yes", "addr:street_address": "5 Grand Corner Ave", "addr:city": "Gaithersburg", "addr:state": "MD", "addr:postcode": "20878", "addr:country": "US", "name": "Gaithersburg\u2013Rio Lakefront", "phone": "(301) 605-7209", "website": "https://order.burgerfi.com/locations/gaithersburg-rio-lakefront", "brand": "Burger Fi", "brand:wikidata": "Q39045496", "nsi_id": "burgerfi-4d2ff4"}, "geometry": {"type": "Point", "coordinates": [-77.2008585, 39.1183764]}},
{"type": "Feature", "id": "hwJIVOXa__WGjKboalcM_tyceEU=", "properties": {"ref": "9757", "@spider": "burger_fi", "amenity": "fast_food", "cuisine": "burger", "takeaway": "yes", "addr:street_address": "1735 Milwaukee Ave", "addr:city": "Glenview", "addr:state": "IL", "addr:postcode": "60025", "addr:country": "US", "name": "Glenview", "phone": "(847) 376-8014", "website": "https://order.burgerfi.com/locations/burgerfi-glenview", "brand": "Burger Fi", "brand:wikidata": "Q39045496", "nsi_id": "burgerfi-4d2ff4"}, "geometry": {"type": "Point", "coordinates": [-87.8690995, 42.0866401]}},
{"type": "Feature", "id": "wxqBGOWtF9arXZETnmuNSb1ANlw=", "properties": {"ref": "9741", "@spider": "burger_fi", "amenity": "fast_food", "cuisine": "burger", "takeaway": "yes", "addr:street_address": "1955 E. Hallandale Blvd", "addr:city": "Hallandale Beach", "addr:state": "FL", "addr:postcode": "33009", "addr:country": "US", "name": "Hallandale", "phone": "(954) 455-0536", "website": "https://order.burgerfi.com/locations/burgerfi-hallandale-beach", "brand": "Burger Fi", "brand:wikidata": "Q39045496", "nsi_id": "burgerfi-4d2ff4"}, "geometry": {"type": "Point", "coordinates": [-80.128546, 25.98669]}},
{"type": "Feature", "id": "JnIfTL33rFt03lRMcKVWFYhi-pA=", "properties": {"ref": "142111", "@spider": "burger_fi", "amenity": "fast_food", "cuisine": "burger", "takeaway": "yes", "addr:street_address": "2645 St. Rose Parkway ", "addr:city": "Henderson", "addr:state": "NV", "addr:postcode": "89052", "addr:country": "US", "name": "Henderson - Green Valley Ranch", "phone": "(702) 444-0319", "website": "https://order.burgerfi.com/locations/burgerfi-henderson-green-valley", "brand": "Burger Fi", "brand:wikidata": "Q39045496", "nsi_id": "burgerfi-4d2ff4"}, "geometry": {"type": "Point", "coordinates": [-115.1036233, 36.0139926]}},
{"type": "Feature", "id": "HsQu3QiHMXRisnqOfDNitjLg3Oo=", "properties": {"ref": "173394", "@spider": "burger_fi", "amenity": "fast_food", "cuisine": "burger", "takeaway": "yes", "addr:street_address": "271 Indian Lake Blvd", "addr:city": "Hendersonville", "addr:state": "TN", "addr:postcode": "37075", "addr:country": "US", "name": "Hendersonville\u2013Indian Lake Blvd", "phone": "(615) 912-0593", "website": "https://order.burgerfi.com/locations/hendersonville-indian-lake-blvd", "brand": "Burger Fi", "brand:wikidata": "Q39045496", "nsi_id": "burgerfi-4d2ff4"}, "geometry": {"type": "Point", "coordinates": [-86.5948326, 36.3280069]}},
{"type": "Feature", "id": "KxsKiYLrVdO9rRMKpjsB8fyBoI4=", "properties": {"ref": "17221", "@spider": "burger_fi", "amenity": "fast_food", "cuisine": "burger", "takeaway": "yes", "addr:street_address": "1854 Catawba Valley Blvd SE", "addr:city": "Hickory ", "addr:state": "NC", "addr:postcode": "28602", "addr:country": "US", "name": "Hickory", "phone": "(828) 324-9583", "website": "https://order.burgerfi.com/locations/hickory", "brand": "Burger Fi", "brand:wikidata": "Q39045496", "nsi_id": "burgerfi-4d2ff4"}, "geometry": {"type": "Point", "coordinates": [-81.3084146, 35.7020544]}},
{"type": "Feature", "id": "YSLdV9f40dAhc5s7VJC87JqwMRw=", "properties": {"ref": "16856", "@spider": "burger_fi", "amenity": "fast_food", "cuisine": "burger", "takeaway": "yes", "addr:street_address": "108 Riverside Ave 501", "addr:city": "Jacksonville", "addr:state": "FL", "addr:postcode": "32202", "addr:country": "US", "name": "Jacksonville - Riverside", "phone": "(904) 355-3066", "website": "https://order.burgerfi.com/locations/jacksonville-riverside", "brand": "Burger Fi", "brand:wikidata": "Q39045496", "nsi_id": "burgerfi-4d2ff4"}, "geometry": {"type": "Point", "coordinates": [-81.671215, 30.323617]}},
{"type": "Feature", "id": "38O2pFAFlCvmMzbKcQyOJ2Ql-1E=", "properties": {"ref": "13980", "@spider": "burger_fi", "amenity": "fast_food", "cuisine": "burger", "takeaway": "yes", "addr:street_address": "4890 Big Island Drive", "addr:city": "Jacksonville", "addr:state": "FL", "addr:postcode": "32246", "addr:country": "US", "name": "Jacksonville - St. Johns Town Center", "phone": "(904) 998-9060", "website": "https://order.burgerfi.com/locations/burgerfi-jacksonville", "brand": "Burger Fi", "brand:wikidata": "Q39045496", "nsi_id": "burgerfi-4d2ff4"}, "geometry": {"type": "Point", "coordinates": [-81.5299431, 30.2533928]}},
{"type": "Feature", "id": "xse5fGmUoGNMOdKsN9lA0B-R0YY=", "properties": {"ref": "13982", "@spider": "burger_fi", "amenity": "fast_food", "cuisine": "burger", "takeaway": "yes", "addr:street_address": "147 Soundings Avenue", "addr:city": "Jupiter", "addr:state": "FL", "addr:postcode": "33477", "addr:country": "US", "name": "Jupiter - Harbourside", "phone": "(561) 203-7438", "website": "https://order.burgerfi.com/locations/burgerfi-jupiter", "brand": "Burger Fi", "brand:wikidata": "Q39045496", "nsi_id": "burgerfi-4d2ff4"}, "geometry": {"type": "Point", "coordinates": [-80.08306, 26.93652]}},
{"type": "Feature", "id": "WPGDH36GfBrkw9Bporpy3FiK6YI=", "properties": {"ref": "152877", "@spider": "burger_fi", "amenity": "fast_food", "cuisine": "burger", "takeaway": "yes", "addr:street_address": "6230 W. Indiantown Rd.", "addr:city": "Jupiter", "addr:state": "FL", "addr:postcode": "33458", "addr:country": "US", "name": "Jupiter - Indiantown Rd.", "phone": "(561) 658-9738", "website": "https://order.burgerfi.com/locations/burgerfi-jupiter-indiantown-rd", "brand": "Burger Fi", "brand:wikidata": "Q39045496", "nsi_id": "burgerfi-4d2ff4"}, "geometry": {"type": "Point", "coordinates": [-80.1299071, 26.934025]}},
{"type": "Feature", "id": "q4XhLjJ_ksUz_oK0P3nJOvIyjhI=", "properties": {"ref": "9755", "@spider": "burger_fi", "amenity": "fast_food", "cuisine": "burger", "takeaway": "yes", "addr:street_address": "2844 South Main Street", "addr:city": "Kennesaw", "addr:state": "GA", "addr:postcode": "30144", "addr:country": "US", "name": "Kennesaw", "phone": "(770) 635-2800", "website": "https://order.burgerfi.com/locations/burgerfi-kennesaw", "brand": "Burger Fi", "brand:wikidata": "Q39045496", "nsi_id": "burgerfi-4d2ff4"}, "geometry": {"type": "Point", "coordinates": [-84.6150015, 34.0229234]}},
{"type": "Feature", "id": "C7wdse8w4lhbNMWPjRyVCNPCWwE=", "properties": {"ref": "72290", "@spider": "burger_fi", "amenity": "fast_food", "cuisine": "burger", "takeaway": "yes", "addr:street_address": "3298 Margaritaville Blvd", "addr:city": "Kissimmee ", "addr:state": "FL", "addr:postcode": "34747", "addr:country": "US", "name": "Kissimmee - Margaritaville Blvd", "phone": "(321) 888-3434", "website": "https://order.burgerfi.com/locations/kissimmee-bronson-hwy", "brand": "Burger Fi", "brand:wikidata": "Q39045496", "nsi_id": "burgerfi-4d2ff4"}, "geometry": {"type": "Point", "coordinates": [-81.6086404, 28.3463689]}},
{"type": "Feature", "id": "eorC_KwUdjDs1Lz1sfBTjBtmobk=", "properties": {"ref": "20693", "@spider": "burger_fi", "amenity": "fast_food", "cuisine": "burger", "takeaway": "yes", "addr:street_address": "765 West Osceola Parkway", "addr:city": "Kissimmee", "addr:state": "FL", "addr:postcode": "34741", "addr:country": "US", "name": "Kissimmee- The Crosslands (Osceola Parkway)", "phone": "(407) 933-5557", "website": "https://order.burgerfi.com/locations/kissimmee", "brand": "Burger Fi", "brand:wikidata": "Q39045496", "nsi_id": "burgerfi-4d2ff4"}, "geometry": {"type": "Point", "coordinates": [-81.4091602, 28.3395674]}},
{"type": "Feature", "id": "PaKiy_VWdbPuJzGg4AeICARDpbo=", "properties": {"ref": "9742", "@spider": "burger_fi", "amenity": "fast_food", "cuisine": "burger", "takeaway": "yes", "addr:street_address": "3801 W. Lake Mary Blvd", "addr:city": "Lake Mary", "addr:state": "FL", "addr:postcode": "32746", "addr:country": "US", "name": "Lake Mary", "phone": "(407) 545-6488", "website": "https://order.burgerfi.com/locations/burgerfi-lake-mary", "brand": "Burger Fi", "brand:wikidata": "Q39045496", "nsi_id": "burgerfi-4d2ff4"}, "geometry": {"type": "Point", "coordinates": [-81.346473, 28.7550325]}},
{"type": "Feature", "id": "BUMycALOaWbSNGmtgNHKuQOKX-Y=", "properties": {"ref": "173632", "@spider": "burger_fi", "amenity": "fast_food", "cuisine": "burger", "takeaway": "yes", "addr:street_address": "11563 SR 70E", "addr:city": "Bradenton", "addr:state": "FL", "addr:postcode": "34202", "addr:country": "US", "name": "Lakewood Ranch", "phone": "(941) 281-3631", "website": "https://order.burgerfi.com/locations/bradenton-lakewood-ranch", "brand": "Burger Fi", "brand:wikidata": "Q39045496", "nsi_id": "burgerfi-4d2ff4"}, "geometry": {"type": "Point", "coordinates": [-82.4262106, 27.4339467]}},
{"type": "Feature", "id": "AoWAyc52PrCoRdFtRxKmDUMUjq8=", "properties": {"ref": "16859", "@spider": "burger_fi", "amenity": "fast_food", "cuisine": "burger", "takeaway": "yes", "addr:street_address": "860 New Loudon Rd", "addr:city": "Latham", "addr:state": "NY", "addr:postcode": "12110", "addr:country": "US", "name": "Latham", "phone": "(518) 785-4745", "website": "https://order.burgerfi.com/locations/burgerfi-latham", "brand": "Burger Fi", "brand:wikidata": "Q39045496", "nsi_id": "burgerfi-4d2ff4"}, "geometry": {"type": "Point", "coordinates": [-73.7600129, 42.7533489]}},
{"type": "Feature", "id": "mCzhDwa0vIDpXXSpa301fqz29Z8=", "properties": {"ref": "9732", "@spider": "burger_fi", "amenity": "fast_food", "cuisine": "burger", "takeaway": "yes", "addr:street_address": "4343 N. Ocean Dr", "addr:city": "Lauderdale-by-the-Sea", "addr:state": "FL", "addr:postcode": "33308", "addr:country": "US", "name": "Lauderdale-by-the-Sea", "phone": "(954) 489-0110", "website": "https://order.burgerfi.com/locations/burgerfi-lauderdale-by-sea", "brand": "Burger Fi", "brand:wikidata": "Q39045496", "nsi_id": "burgerfi-4d2ff4"}, "geometry": {"type": "Point", "coordinates": [-80.0970088, 26.1891686]}},
{"type": "Feature", "id": "od5W1tqXoe7Ua84vvvdEhy3R_1E=", "properties": {"ref": "31258", "@spider": "burger_fi", "amenity": "fast_food", "cuisine": "burger", "takeaway": "yes", "addr:street_address": "938 Duluth Hwy, Suite D", "addr:city": "Lawrenceville", "addr:state": "GA", "addr:postcode": "30043", "addr:country": "US", "name": "Lawrenceville", "phone": "(678) 878-3224", "website": "https://order.burgerfi.com/locations/lawrenceville", "brand": "Burger Fi", "brand:wikidata": "Q39045496", "nsi_id": "burgerfi-4d2ff4"}, "geometry": {"type": "Point", "coordinates": [-84.0256206, 33.9679079]}},
{"type": "Feature", "id": "xYdP43YJo9QxCuqwwQrLlv-E6NU=", "properties": {"ref": "9778", "@spider": "burger_fi", "amenity": "fast_food", "cuisine": "burger", "takeaway": "yes", "addr:street_address": "11635 Ash Street", "addr:city": "Leawood", "addr:state": "KS", "addr:postcode": "66211", "addr:country": "US", "name": "Leawood", "phone": "(913) 499-6294", "website": "https://order.burgerfi.com/locations/burgerfi-leawood", "brand": "Burger Fi", "brand:wikidata": "Q39045496", "nsi_id": "burgerfi-4d2ff4"}, "geometry": {"type": "Point", "coordinates": [-94.647523, 38.9171668]}},
{"type": "Feature", "id": "XmG-B2gpTnUptj9SvH495rZfrTc=", "properties": {"ref": "9745", "@spider": "burger_fi", "amenity": "fast_food", "cuisine": "burger", "takeaway": "yes", "addr:street_address": "1608 Village Market Blvd SE", "addr:city": "Leesburg", "addr:state": "VA", "addr:postcode": "20175", "addr:country": "US", "name": "Leesburg", "phone": "(703) 669-3300", "website": "https://order.burgerfi.com/locations/burgerfi-leesburg", "brand": "Burger Fi", "brand:wikidata": "Q39045496", "nsi_id": "burgerfi-4d2ff4"}, "geometry": {"type": "Point", "coordinates": [-77.5231117, 39.0892009]}},
{"type": "Feature", "id": "vdGsLdGsOAez-RJSS71dZzsjrJ0=", "properties": {"ref": "20700", "@spider": "burger_fi", "amenity": "fast_food", "cuisine": "burger", "takeaway": "yes", "addr:street_address": "141 Rojay Dr. #110", "addr:city": "Lexington", "addr:state": "KY", "addr:postcode": "40503", "addr:country": "US", "name": "Lexington - Fayette Mall Plaza", "phone": "(859) 271-2747", "website": "https://order.burgerfi.com/locations/lexington", "brand": "Burger Fi", "brand:wikidata": "Q39045496", "nsi_id": "burgerfi-4d2ff4"}, "geometry": {"type": "Point", "coordinates": [-84.5301237, 37.9849338]}},
{"type": "Feature", "id": "Bi4BvqNVNXeipQNNAsBNXEdc7F0=", "properties": {"ref": "124423", "@spider": "burger_fi", "amenity": "fast_food", "cuisine": "burger", "takeaway": "yes", "addr:street_address": "1816 Alysheba Way", "addr:city": "Lexington", "addr:state": "KY", "addr:postcode": "40509", "addr:country": "US", "name": "Lexington - Hamburg", "phone": "(859) 368-7091", "website": "https://order.burgerfi.com/locations/lexington-hamburg", "brand": "Burger Fi", "brand:wikidata": "Q39045496", "nsi_id": "burgerfi-4d2ff4"}, "geometry": {"type": "Point", "coordinates": [-84.4199132, 38.0173916]}},
{"type": "Feature", "id": "eQjcgQsY2ZhZ6rlY_KuAlqyz2Y0=", "properties": {"ref": "16858", "@spider": "burger_fi", "amenity": "fast_food", "cuisine": "burger", "takeaway": "yes", "addr:street_address": "3150 N. Federal Hwy", "addr:city": "Lighthouse Point", "addr:state": "FL", "addr:postcode": "33064", "addr:country": "US", "name": "Lighthouse Point", "phone": "(954) 960-5173", "website": "https://order.burgerfi.com/locations/burgerfi-lighthouse-point", "brand": "Burger Fi", "brand:wikidata": "Q39045496", "nsi_id": "burgerfi-4d2ff4"}, "geometry": {"type": "Point", "coordinates": [-80.0978815, 26.2700474]}},
{"type": "Feature", "id": "bCx8vbq99r0oWrZaNcM8jiZ3w8g=", "properties": {"ref": "31260", "@spider": "burger_fi", "amenity": "fast_food", "cuisine": "burger", "takeaway": "yes", "addr:street_address": "4210 82nd Street", "addr:city": "Lubbock", "addr:state": "TX", "addr:postcode": "79423", "addr:country": "US", "name": "Lubbock", "phone": "(806) 283-9555", "website": "https://order.burgerfi.com/locations/lubbock", "brand": "Burger Fi", "brand:wikidata": "Q39045496", "nsi_id": "burgerfi-4d2ff4"}, "geometry": {"type": "Point", "coordinates": [-101.902807, 33.5206622]}},
{"type": "Feature", "id": "M47tSoYCoouU4ZqPrgz8Y2NcJXk=", "properties": {"ref": "9776", "@spider": "burger_fi", "amenity": "fast_food", "cuisine": "burger", "takeaway": "yes", "addr:street_address": "1939 S. Val Vista Drive, Suite 105", "addr:city": "Mesa", "addr:state": "AZ", "addr:postcode": "85204", "addr:country": "US", "name": "Mesa", "phone": "(480) 545-9720", "website": "https://order.burgerfi.com/locations/burgerfi-mesa", "brand": "Burger Fi", "brand:wikidata": "Q39045496", "nsi_id": "burgerfi-4d2ff4"}, "geometry": {"type": "Point", "coordinates": [-111.7534308, 33.3805178]}},
{"type": "Feature", "id": "Eg0lax0LT63p-naTOPbzbLZoeVs=", "properties": {"ref": "84341", "@spider": "burger_fi", "amenity": "fast_food", "cuisine": "burger", "takeaway": "yes", "addr:street_address": "7890 SW 104th St, B107", "addr:city": "Miami", "addr:state": "FL", "addr:postcode": "33133", "addr:country": "US", "name": "Miami - Pinecrest Place", "phone": "(786) 633-4991", "website": "https://order.burgerfi.com/locations/miami", "brand": "Burger Fi", "brand:wikidata": "Q39045496", "nsi_id": "burgerfi-4d2ff4"}, "geometry": {"type": "Point", "coordinates": [-80.3219806, 25.6716964]}},
{"type": "Feature", "id": "RycuIwpdi-jvu3Kt89aRyXR2CdQ=", "properties": {"ref": "9775", "@spider": "burger_fi", "amenity": "fast_food", "cuisine": "burger", "takeaway": "yes", "addr:street_address": "6812 Collins Ave", "addr:city": "Miami Beach", "addr:state": "FL", "addr:postcode": "33140", "addr:country": "US", "name": "Miami-Collins", "phone": "(786) 803-8179", "website": "https://order.burgerfi.com/locations/miami-north-beach", "brand": "Burger Fi", "brand:wikidata": "Q39045496", "nsi_id": "burgerfi-4d2ff4"}, "geometry": {"type": "Point", "coordinates": [-80.1205692, 25.8526217]}},
{"type": "Feature", "id": "JIlgOMSo6lG22VmenfP3_e-iaAk=", "properties": {"ref": "170026", "@spider": "burger_fi", "amenity": "fast_food", "cuisine": "burger", "takeaway": "yes", "addr:street_address": "12601 Miramar Parkway", "addr:city": "Miramar", "addr:state": "FL", "addr:postcode": "33027", "addr:country": "US", "name": "Miramar\u2013Monarch Town Center", "phone": "(754) 270-5710", "website": "https://order.burgerfi.com/locations/miramar-monarch-town-center", "brand": "Burger Fi", "brand:wikidata": "Q39045496", "nsi_id": "burgerfi-4d2ff4"}, "geometry": {"type": "Point", "coordinates": [-80.3147386, 25.9795502]}},
{"type": "Feature", "id": "v2s9k5LEEegExDiu52oxVhwymnE=", "properties": {"ref": "82708", "@spider": "burger_fi", "amenity": "fast_food", "cuisine": "burger", "takeaway": "yes", "addr:street_address": "7413 EASTCHASE PKWY", "addr:city": "MONTGOMERY", "addr:state": "AL", "addr:postcode": "36117", "addr:country": "US", "name": "Montgomery - Eastchase", "phone": "(334) 356-8645", "website": "https://order.burgerfi.com/locations/montgomery-eastchase", "brand": "Burger Fi", "brand:wikidata": "Q39045496", "nsi_id": "burgerfi-4d2ff4"}, "geometry": {"type": "Point", "coordinates": [-86.1626805, 32.3617886]}},
{"type": "Feature", "id": "NE6GIqGtBRfqWC4nwFlcoziIz5w=", "properties": {"ref": "16854", "@spider": "burger_fi", "amenity": "fast_food", "cuisine": "burger", "takeaway": "yes", "addr:street_address": "106 SayeBrook Parkway", "addr:city": "Myrtle Beach", "addr:state": "SC", "addr:postcode": "29588", "addr:country": "US", "name": "Myrtle Beach - Surfside", "phone": "(843) 293-8800", "website": "https://order.burgerfi.com/locations/burgerfi-myrtle-beach", "brand": "Burger Fi", "brand:wikidata": "Q39045496", "nsi_id": "burgerfi-4d2ff4"}, "geometry": {"type": "Point", "coordinates": [-78.9834819, 33.6520868]}},
{"type": "Feature", "id": "o2uZWJrBZBUolEQSKhOvyKbdGCE=", "properties": {"ref": "155679", "@spider": "burger_fi", "amenity": "fast_food", "cuisine": "burger", "takeaway": "yes", "addr:street_address": "628 Atlantic Blvd.", "addr:city": "Neptune Beach", "addr:state": "FL", "addr:postcode": "32266", "addr:country": "US", "name": "Neptune Beach", "phone": "(904) 544-7610", "website": "https://order.burgerfi.com/locations/burgerfi-neptune-beach-seminole-shoppes", "brand": "Burger Fi", "brand:wikidata": "Q39045496", "nsi_id": "burgerfi-4d2ff4"}, "geometry": {"type": "Point", "coordinates": [-81.4045662, 30.3240646]}},
{"type": "Feature", "id": "aZVSiZuTFXIffuDOPWEuNPYjzmQ=", "properties": {"ref": "75426", "@spider": "burger_fi", "amenity": "fast_food", "cuisine": "burger", "takeaway": "yes", "addr:street_address": "11881 GRAND PARK AV", "addr:city": "NORTH BETHESDA", "addr:state": "MD", "addr:postcode": "20852", "addr:country": "US", "name": "North Bethesda", "phone": "(240) 669-7244", "website": "https://order.burgerfi.com/locations/north-bethesda", "brand": "Burger Fi", "brand:wikidata": "Q39045496", "nsi_id": "burgerfi-4d2ff4"}, "geometry": {"type": "Point", "coordinates": [-77.1173037, 39.0506768]}},
{"type": "Feature", "id": "P8YwEvvhSeo9Fx6DCBMCUoe_bFU=", "properties": {"ref": "13974", "@spider": "burger_fi", "amenity": "fast_food", "cuisine": "burger", "takeaway": "yes", "addr:street_address": "801 Main Street", "addr:city": "North Myrtle Beach", "addr:state": "SC", "addr:postcode": "29582", "addr:country": "US", "name": "North Myrtle Beach", "phone": "(843) 491-6492", "website": "https://order.burgerfi.com/locations/burgerfi-north-myrtle-beach", "brand": "Burger Fi", "brand:wikidata": "Q39045496", "nsi_id": "burgerfi-4d2ff4"}, "geometry": {"type": "Point", "coordinates": [-78.6798937, 33.827603]}},
{"type": "Feature", "id": "o-QeehjKJPnV4xURHM2r6bhVvSk=", "properties": {"ref": "75970", "@spider": "burger_fi", "amenity": "fast_food", "cuisine": "burger", "takeaway": "yes", "addr:street_address": "1514 Immokalee Rd Unit 101", "addr:city": "Naples", "addr:state": "FL", "addr:postcode": "34110", "addr:country": "US", "name": "North Naples - Immokalee", "phone": "(239) 631-5647", "website": "https://order.burgerfi.com/locations/creekside-naples", "brand": "Burger Fi", "brand:wikidata": "Q39045496", "nsi_id": "burgerfi-4d2ff4"}, "geometry": {"type": "Point", "coordinates": [-81.7892074, 26.2714444]}},
{"type": "Feature", "id": "1IinrpDiigS5zmU5WvAjzAZHlWY=", "properties": {"ref": "16857", "@spider": "burger_fi", "amenity": "fast_food", "cuisine": "burger", "takeaway": "yes", "addr:street_address": "18801 Traditions Dr", "addr:city": "Northville", "addr:state": "MI", "addr:postcode": "46168", "addr:country": "US", "name": "Northville", "phone": "(248) 308-3532", "website": "https://order.burgerfi.com/locations/burgerfi-northville", "brand": "Burger Fi", "brand:wikidata": "Q39045496", "nsi_id": "burgerfi-4d2ff4"}, "geometry": {"type": "Point", "coordinates": [-83.4337344, 42.4234753]}},
{"type": "Feature", "id": "3_11yOfNHLiVpteYX4k8A8z5AkI=", "properties": {"ref": "124855", "@spider": "burger_fi", "amenity": "fast_food", "cuisine": "burger", "takeaway": "yes", "addr:street_address": "8145 Honeygo Boulevard", "addr:city": "Nottingham", "addr:state": "MD", "addr:postcode": "21236", "addr:country": "US", "name": "Nottingham-The Avenue at White Marsh", "phone": "(410) 870-1294", "website": "https://order.burgerfi.com/locations/nottingham-avenue-at-white-marsh", "brand": "Burger Fi", "brand:wikidata": "Q39045496", "nsi_id": "burgerfi-4d2ff4"}, "geometry": {"type": "Point", "coordinates": [-76.4645076, 39.3706594]}},
{"type": "Feature", "id": "zmajjxtqliesFzQr1poqbxNPN6s=", "properties": {"ref": "171517", "@spider": "burger_fi", "amenity": "fast_food", "cuisine": "burger", "takeaway": "yes", "addr:street_address": "16120 Preserve Marketplace Blvd", "addr:city": "Odessa", "addr:state": "FL", "addr:postcode": "33556", "addr:country": "US", "name": "Odessa\u2013The Preserve Marketplace", "phone": "(813) 328-2379", "website": "https://order.burgerfi.com/locations/burgerfi-odessa-preserve-marketplace", "brand": "Burger Fi", "brand:wikidata": "Q39045496", "nsi_id": "burgerfi-4d2ff4"}, "geometry": {"type": "Point", "coordinates": [-82.5497032, 28.1880925]}},
{"type": "Feature", "id": "4C0hBkxauLIldd0dAvErN6VHVxw=", "properties": {"ref": "20694", "@spider": "burger_fi", "amenity": "fast_food", "cuisine": "burger", "takeaway": "yes", "addr:street_address": "2175 Interstate Dr. Bay D-3", "addr:city": "Opelika", "addr:state": "AL", "addr:postcode": "36801", "addr:country": "US", "name": "Opelika", "phone": "(334) 759-7040", "website": "https://order.burgerfi.com/locations/opelika", "brand": "Burger Fi", "brand:wikidata": "Q39045496", "nsi_id": "burgerfi-4d2ff4"}, "geometry": {"type": "Point", "coordinates": [-85.4053821, 32.6164073]}},
{"type": "Feature", "id": "5fPLxuCU067OvLn6gjiQ3QEgDkQ=", "properties": {"ref": "127414", "@spider": "burger_fi", "amenity": "fast_food", "cuisine": "burger", "takeaway": "yes", "addr:street_address": "13048 Narcoossee Rd Suite 1", "addr:city": "Orlando", "addr:state": "FL", "addr:postcode": "32832", "addr:country": "US", "name": "Orlando - Lake Nona", "phone": "(407) 286-0242", "website": "https://order.burgerfi.com/locations/orlando-lake-nona", "brand": "Burger Fi", "brand:wikidata": "Q39045496", "nsi_id": "burgerfi-4d2ff4"}, "geometry": {"type": "Point", "coordinates": [-81.245021, 28.3767961]}},
{"type": "Feature", "id": "qwIwW9AchBL6gZZf-JwPmQTLzzs=", "properties": {"ref": "163705", "@spider": "burger_fi", "amenity": "fast_food", "cuisine": "burger", "takeaway": "yes", "addr:street_address": "7548 West Sand Lake Rd", "addr:city": "Orlando", "addr:state": "FL", "addr:postcode": "32836", "addr:country": "US", "name": "Orlando - Sand Lake Rd", "phone": "(407) 318-9227", "website": "https://order.burgerfi.com/locations/orlando-sand-lake-rd", "brand": "Burger Fi", "brand:wikidata": "Q39045496", "nsi_id": "burgerfi-4d2ff4"}, "geometry": {"type": "Point", "coordinates": [-81.4853289, 28.4488519]}},
{"type": "Feature", "id": "tV3pVFf4TMAGrQwJc_H24eGztMg=", "properties": {"ref": "17223", "@spider": "burger_fi", "amenity": "fast_food", "cuisine": "burger", "takeaway": "yes", "addr:street_address": "4100 North Alafaya Trail, Suite 125", "addr:city": "Orlando", "addr:state": "FL", "addr:postcode": "32816", "addr:country": "US", "name": "Orlando - UCF", "phone": "(407) 282-4010", "website": "https://order.burgerfi.com/locations/orlando", "brand": "Burger Fi", "brand:wikidata": "Q39045496", "nsi_id": "burgerfi-4d2ff4"}, "geometry": {"type": "Point", "coordinates": [-81.2084621, 28.5987129]}},
{"type": "Feature", "id": "S8SEzyUUiUIJp_zorLBjaGifOWo=", "properties": {"ref": "65667", "@spider": "burger_fi", "amenity": "fast_food", "cuisine": "burger", "takeaway": "yes", "addr:street_address": "23 W Mitchell Hammock Rd #1101", "addr:city": "Oviedo", "addr:state": "FL", "addr:postcode": "32765", "addr:country": "US", "name": "Oviedo", "phone": "(407) 604-5001", "website": "https://order.burgerfi.com/locations/burgerfi-oviedo", "brand": "Burger Fi", "brand:wikidata": "Q39045496", "nsi_id": "burgerfi-4d2ff4"}, "geometry": {"type": "Point", "coordinates": [-81.2086054, 28.6561231]}},
{"type": "Feature", "id": "qmbCQUidEoEcm3l7vN6WPnMSYYE=", "properties": {"ref": "168123", "@spider": "burger_fi", "amenity": "fast_food", "cuisine": "burger", "takeaway": "yes", "addr:street_address": "161 Fleet St Suite K1-9", "addr:city": "Oxon Hill", "addr:state": "MD", "addr:postcode": "20745", "addr:country": "US", "name": "Oxon Hill-National Harbor", "phone": "(301) 485-1497", "website": "https://order.burgerfi.com/locations/national-harbor", "brand": "Burger Fi", "brand:wikidata": "Q39045496", "nsi_id": "burgerfi-4d2ff4"}, "geometry": {"type": "Point", "coordinates": [-77.015364, 38.783745]}},
{"type": "Feature", "id": "uuzleZsT3zhYpS9fIKSAAPLOi3w=", "properties": {"ref": "142110", "@spider": "burger_fi", "amenity": "fast_food", "cuisine": "burger", "takeaway": "yes", "addr:street_address": "2466 PGA Blvd.", "addr:city": "Palm Beach Gardens", "addr:state": "FL", "addr:postcode": "33410", "addr:country": "US", "name": "Palm Beach Gardens - PGA Blvd.", "phone": "(561) 508-5422", "website": "https://order.burgerfi.com/locations/burgerfi-palm-beach-gardens-pga-blvd", "brand": "Burger Fi", "brand:wikidata": "Q39045496", "nsi_id": "burgerfi-4d2ff4"}, "geometry": {"type": "Point", "coordinates": [-80.0713626, 26.8439612]}},
{"type": "Feature", "id": "3-E6m5CL7GZIxDi-_HYQpWQClxc=", "properties": {"ref": "35689", "@spider": "burger_fi", "amenity": "fast_food", "cuisine": "burger", "takeaway": "yes", "addr:street_address": "6141 Peachtree Pkwy, Suite B", "addr:city": "Norcross", "addr:state": "GA", "addr:postcode": "30092", "addr:country": "US", "name": "Peachtree Corners", "phone": "(770) 609-8310", "website": "https://order.burgerfi.com/locations/burgerfi-norcross", "brand": "Burger Fi", "brand:wikidata": "Q39045496", "nsi_id": "burgerfi-4d2ff4"}, "geometry": {"type": "Point", "coordinates": [-84.23533, 33.9513181]}},
{"type": "Feature", "id": "IpIEfOPsGUlzC2sKmc-TVVTRIBM=", "properties": {"ref": "35693", "@spider": "burger_fi", "amenity": "fast_food", "cuisine": "burger", "takeaway": "yes", "addr:street_address": "10590 Pines Boulevard Suite P1A", "addr:city": "Pembroke Pines", "addr:state": "FL", "addr:postcode": "33025", "addr:country": "US", "name": "Pembroke Pines - City Center", "phone": "(954) 686-2100", "website": "https://order.burgerfi.com/locations/burgerfi-pines-boulevard", "brand": "Burger Fi", "brand:wikidata": "Q39045496", "nsi_id": "burgerfi-4d2ff4"}, "geometry": {"type": "Point", "coordinates": [-80.286939, 26.007612]}},
{"type": "Feature", "id": "zY4MJRqt20P6GFx1jFTbOLKPSkA=", "properties": {"ref": "20212", "@spider": "burger_fi", "amenity": "fast_food", "cuisine": "burger", "takeaway": "yes", "addr:street_address": "15910 Pines Blvd.", "addr:city": "Pembroke Pines", "addr:state": "FL", "addr:postcode": "33027", "addr:country": "US", "name": "Pembroke Pines - Towngate", "phone": "(954) 589-1612", "website": "https://order.burgerfi.com/locations/pembroke-pines", "brand": "Burger Fi", "brand:wikidata": "Q39045496", "nsi_id": "burgerfi-4d2ff4"}, "geometry": {"type": "Point", "coordinates": [-80.3567265, 26.0067963]}},
{"type": "Feature", "id": "k5hET7-G5UzwWi7KwGQnKRNLiwY=", "properties": {"ref": "9769", "@spider": "burger_fi", "amenity": "fast_food", "cuisine": "burger", "takeaway": "yes", "addr:street_address": "44 North 12th Street", "addr:city": "Philadelphia", "addr:state": "PA", "addr:postcode": "19107", "addr:country": "US", "name": "Philadelphia - Center City", "phone": "(267) 928-3882", "website": "https://order.burgerfi.com/locations/burgerfi-philadelphia", "brand": "Burger Fi", "brand:wikidata": "Q39045496", "nsi_id": "burgerfi-4d2ff4"}, "geometry": {"type": "Point", "coordinates": [-75.1597197, 39.953716]}},
{"type": "Feature", "id": "5HfbAXWikeCTbPO3P2PJTObs64I=", "properties": {"ref": "176352", "@spider": "burger_fi", "amenity": "fast_food", "cuisine": "burger", "takeaway": "yes", "addr:street_address": "1001 Market St", "addr:city": " Philadelphia", "addr:state": "PA", "addr:postcode": "19107", "addr:country": "US", "name": "Philadelphia PRIET Fashion Center", "phone": "(445) 201-3753", "website": "https://order.burgerfi.com/locations/burgerfi-priet-fashion-center", "brand": "Burger Fi", "brand:wikidata": "Q39045496", "nsi_id": "burgerfi-4d2ff4"}, "geometry": {"type": "Point", "coordinates": [-75.1578638, 39.9518304]}},
{"type": "Feature", "id": "nIwtUB8B2KpeD1Eh06Boa5xopvA=", "properties": {"ref": "146787", "@spider": "burger_fi", "amenity": "fast_food", "cuisine": "burger", "takeaway": "yes", "addr:street_address": "245 North Pompano Beach Blvd", "addr:city": "Pompano Beach", "addr:state": "FL", "addr:postcode": "33062", "addr:country": "US", "name": "Pompano Beach Pier", "phone": "(954) 247-9149", "website": "https://order.burgerfi.com/locations/pompano-beach-pier", "brand": "Burger Fi", "brand:wikidata": "Q39045496", "nsi_id": "burgerfi-4d2ff4"}, "geometry": {"type": "Point", "coordinates": [-80.089215, 26.2358987]}},
{"type": "Feature", "id": "dXJNWtHquCbr-I0z_-J6EORGmLk=", "properties": {"ref": "70265", "@spider": "burger_fi", "amenity": "fast_food", "cuisine": "burger", "takeaway": "yes", "addr:street_address": "1473 NW St Lucie West Blvd", "addr:city": "Port St Lucie", "addr:state": "FL", "addr:postcode": "34986", "addr:country": "US", "name": "Port St Lucie", "phone": "(772) 500-0102", "website": "https://order.burgerfi.com/locations/burgerfi-port-st-lucie", "brand": "Burger Fi", "brand:wikidata": "Q39045496", "nsi_id": "burgerfi-4d2ff4"}, "geometry": {"type": "Point", "coordinates": [-80.392016, 27.315402]}},
{"type": "Feature", "id": "SKNy3v5dIZ89_AfzKt4z_ceAEWY=", "properties": {"ref": "9740", "@spider": "burger_fi", "amenity": "fast_food", "cuisine": "burger", "takeaway": "yes", "addr:street_address": "3004 Wake Forest, Suite 100", "addr:city": "Raleigh", "addr:state": "NC", "addr:postcode": "27609", "addr:country": "US", "name": "Raleigh - Midtown", "phone": "(919) 999-3700", "website": "https://order.burgerfi.com/locations/burgerfi-raleigh", "brand": "Burger Fi", "brand:wikidata": "Q39045496", "nsi_id": "burgerfi-4d2ff4"}, "geometry": {"type": "Point", "coordinates": [-78.6205634, 35.8225584]}},
{"type": "Feature", "id": "Bt69xS4-8DRjMY_AjDRD77HpL0s=", "properties": {"ref": "31257", "@spider": "burger_fi", "amenity": "fast_food", "cuisine": "burger", "takeaway": "yes", "addr:street_address": "460 Broadway", "addr:city": "Saratoga Springs", "addr:state": "NY", "addr:postcode": "12866", "addr:country": "US", "name": "Saratoga Springs", "phone": "(518) 450-7652", "website": "https://order.burgerfi.com/locations/saratoga-springs", "brand": "Burger Fi", "brand:wikidata": "Q39045496", "nsi_id": "burgerfi-4d2ff4"}, "geometry": {"type": "Point", "coordinates": [-73.7846598, 43.0828186]}},
{"type": "Feature", "id": "BUdO7MJC2SzOejn1NWUyG1ppAf0=", "properties": {"ref": "9765", "@spider": "burger_fi", "amenity": "fast_food", "cuisine": "burger", "takeaway": "yes", "addr:street_address": "8504 Fenton Street", "addr:city": "Silver Spring", "addr:state": "MD", "addr:postcode": "20910", "addr:country": "US", "name": "Silver Spring", "phone": "(301) 565-2100", "website": "https://order.burgerfi.com/locations/burgerfi-silver-spring", "brand": "Burger Fi", "brand:wikidata": "Q39045496", "nsi_id": "burgerfi-4d2ff4"}, "geometry": {"type": "Point", "coordinates": [-77.0248485, 38.9957451]}},
{"type": "Feature", "id": "zwNvNvsSh8Cjuj8-SwwxUmYdpMI=", "properties": {"ref": "77739", "@spider": "burger_fi", "amenity": "fast_food", "cuisine": "burger", "takeaway": "yes", "addr:street_address": "12712 Tamiami Trail East", "addr:city": "Naples", "addr:state": "FL", "addr:postcode": "34113", "addr:country": "US", "name": "South Naples - Tamiami", "phone": "(239) 331-3606", "website": "https://order.burgerfi.com/locations/naples-eagle-creek", "brand": "Burger Fi", "brand:wikidata": "Q39045496", "nsi_id": "burgerfi-4d2ff4"}, "geometry": {"type": "Point", "coordinates": [-81.7025967, 26.0632214]}},
{"type": "Feature", "id": "kREpoA1Y2DSksXw8MBDusXXbeU0=", "properties": {"ref": "131725", "@spider": "burger_fi", "amenity": "fast_food", "cuisine": "burger", "takeaway": "yes", "addr:street_address": "875 Central Avenue", "addr:city": "ST. Petersburg", "addr:state": "FL", "addr:postcode": "33701", "addr:country": "US", "name": "St. Petersburg- Downtown", "phone": "(727) 502-3411", "website": "https://order.burgerfi.com/locations/st-pete", "brand": "Burger Fi", "brand:wikidata": "Q39045496", "nsi_id": "burgerfi-4d2ff4"}, "geometry": {"type": "Point", "coordinates": [-82.646225, 27.7711406]}},
{"type": "Feature", "id": "jJTdiwFfqohTDTRu4sk-MDCNwSY=", "properties": {"ref": "13978", "@spider": "burger_fi", "amenity": "fast_food", "cuisine": "burger", "takeaway": "yes", "addr:street_address": "714 South Howard Avenue", "addr:city": "Tampa", "addr:state": "FL", "addr:postcode": "33606", "addr:country": "US", "name": "Tampa - SOHO", "phone": "(813) 440-2283", "website": "https://order.burgerfi.com/locations/burgerfi-tampa", "brand": "Burger Fi", "brand:wikidata": "Q39045496", "nsi_id": "burgerfi-4d2ff4"}, "geometry": {"type": "Point", "coordinates": [-82.4829012, 27.9364285]}},
{"type": "Feature", "id": "lUcZh8PCghCNDvF23nupagSggus=", "properties": {"ref": "168085", "@spider": "burger_fi", "amenity": "fast_food", "cuisine": "burger", "takeaway": "yes", "addr:street_address": "615 Channelside Drive Suite 115A", "addr:city": "Tampa", "addr:state": "FL", "addr:postcode": "33602", "addr:country": "US", "name": "Tampa-Sparkman Wharf", "phone": "(813) 515-0706", "website": "https://order.burgerfi.com/locations/tampa-channelside-drive", "brand": "Burger Fi", "brand:wikidata": "Q39045496", "nsi_id": "burgerfi-4d2ff4"}, "geometry": {"type": "Point", "coordinates": [-82.4461237, 27.943512]}},
{"type": "Feature", "id": "vqErFXKJeAiOfkJSSfoslj5ePG4=", "properties": {"ref": "173633", "@spider": "burger_fi", "amenity": "fast_food", "cuisine": "burger", "takeaway": "yes", "addr:street_address": "10647 Sheldon Road", "addr:city": "Tampa", "addr:state": "FL", "addr:postcode": "33626", "addr:country": "US", "name": "Tampa-Westchase", "phone": "(813) 336-1208", "website": "https://order.burgerfi.com/locations/tampa-sheldon-rd", "brand": "Burger Fi", "brand:wikidata": "Q39045496", "nsi_id": "burgerfi-4d2ff4"}, "geometry": {"type": "Point", "coordinates": [-82.5823215, 28.0457121]}},
{"type": "Feature", "id": "DVgVEuClB0_bJJfaZxrQDRUlykA=", "properties": {"ref": "124753", "@spider": "burger_fi", "amenity": "fast_food", "cuisine": "burger", "takeaway": "yes", "addr:street_address": "20 W Susquehanna Ave", "addr:city": "Towson", "addr:state": "MD", "addr:postcode": "21204", "addr:country": "US", "name": "Towson", "phone": "(443) 895-4595", "website": "https://order.burgerfi.com/locations/towson", "brand": "Burger Fi", "brand:wikidata": "Q39045496", "nsi_id": "burgerfi-4d2ff4"}, "geometry": {"type": "Point", "coordinates": [-76.6041124, 39.3986464]}},
{"type": "Feature", "id": "DGR1E6J4cfb1BW7pyH-Whf5qHJo=", "properties": {"ref": "20696", "@spider": "burger_fi", "amenity": "fast_food", "cuisine": "burger", "takeaway": "yes", "addr:street_address": "2910 Little Road", "addr:city": "Trinity", "addr:state": "FL", "addr:postcode": "34655", "addr:country": "US", "name": "Trinity", "phone": "(727) 375-7111", "website": "https://order.burgerfi.com/locations/trinity", "brand": "Burger Fi", "brand:wikidata": "Q39045496", "nsi_id": "burgerfi-4d2ff4"}, "geometry": {"type": "Point", "coordinates": [-82.6657704, 28.2019821]}},
{"type": "Feature", "id": "0_r94UO3NFW6VCYfClCB6kaGi4k=", "properties": {"ref": "20692", "@spider": "burger_fi", "amenity": "fast_food", "cuisine": "burger", "takeaway": "yes", "addr:street_address": "1320 McFarland Boulevard East, Suite 101-B,", "addr:city": "Tuscaloosa", "addr:state": "AL", "addr:postcode": "36830", "addr:country": "US", "name": "Tuscaloosa", "phone": "(205) 759-2510", "website": "https://order.burgerfi.com/locations/tuscaloosa", "brand": "Burger Fi", "brand:wikidata": "Q39045496", "nsi_id": "burgerfi-4d2ff4"}, "geometry": {"type": "Point", "coordinates": [-87.5259382, 33.1999861]}},
{"type": "Feature", "id": "1-Yyk7JDyGjTo42jJka1SsiVjxs=", "properties": {"ref": "16855", "@spider": "burger_fi", "amenity": "fast_food", "cuisine": "burger", "takeaway": "yes", "addr:street_address": "12836 West Forrest Hill Blvd Space #18-A", "addr:city": "Wellington", "addr:state": "FL", "addr:postcode": "33414", "addr:country": "US", "name": "Wellington", "phone": "(561) 612-7853", "website": "https://order.burgerfi.com/locations/burgerfi-wellington", "brand": "Burger Fi", "brand:wikidata": "Q39045496", "nsi_id": "burgerfi-4d2ff4"}, "geometry": {"type": "Point", "coordinates": [-80.2481674, 26.6729247]}},
{"type": "Feature", "id": "JPn7IpMfUjJd5D_0xyQMUWHMl6Q=", "properties": {"ref": "130855", "@spider": "burger_fi", "amenity": "fast_food", "cuisine": "burger", "takeaway": "yes", "addr:street_address": "9674 Glades Rd.", "addr:city": "Boca Raton", "addr:state": "FL", "addr:postcode": "33434", "addr:country": "US", "name": "West Boca Raton - Uptown", "phone": "(561) 453-4300", "website": "https://order.burgerfi.com/locations/west-boca-raton-uptown", "brand": "Burger Fi", "brand:wikidata": "Q39045496", "nsi_id": "burgerfi-4d2ff4"}, "geometry": {"type": "Point", "coordinates": [-80.1980755, 26.3676227]}},
{"type": "Feature", "id": "NTLci-1jfQOl9j_EJDezwMNP0AY=", "properties": {"ref": "129888", "@spider": "burger_fi", "amenity": "fast_food", "cuisine": "burger", "takeaway": "yes", "addr:street_address": "1850 NW 117th Place", "addr:city": "Doral", "addr:state": "FL", "addr:postcode": "33182", "addr:country": "US", "name": "West Doral", "phone": "(786) 628-3200", "website": "https://order.burgerfi.com/locations/west-doral-fl", "brand": "Burger Fi", "brand:wikidata": "Q39045496", "nsi_id": "burgerfi-4d2ff4"}, "geometry": {"type": "Point", "coordinates": [-80.3872818, 25.7913217]}},
{"type": "Feature", "id": "7kREgHtInMXVI_LY6uI34soLR9c=", "properties": {"ref": "9767", "@spider": "burger_fi", "amenity": "fast_food", "cuisine": "burger", "takeaway": "yes", "addr:street_address": "700 S. Rosemary Ave Ste. 102", "addr:city": "West Palm Beach", "addr:state": "FL", "addr:postcode": "33401", "addr:country": "US", "name": "West Palm Beach-The Square", "phone": "(561) 557-9144", "website": "https://order.burgerfi.com/locations/burgerfi-west-palm-beach", "brand": "Burger Fi", "brand:wikidata": "Q39045496", "nsi_id": "burgerfi-4d2ff4"}, "geometry": {"type": "Point", "coordinates": [-80.057023, 26.706688]}},
{"type": "Feature", "id": "5gJffVknk7iWHfwCGf3Zx9Iygcg=", "properties": {"ref": "9754", "@spider": "burger_fi", "amenity": "fast_food", "cuisine": "burger", "takeaway": "yes", "addr:street_address": "2810 Weston Rd", "addr:city": "Weston", "addr:state": "FL", "addr:postcode": "33331", "addr:country": "US", "name": "Weston", "phone": "(954) 306-0077", "website": "https://order.burgerfi.com/locations/burgerfi-weston", "brand": "Burger Fi", "brand:wikidata": "Q39045496", "nsi_id": "burgerfi-4d2ff4"}, "geometry": {"type": "Point", "coordinates": [-80.3706128, 26.0839494]}},
{"type": "Feature", "id": "o27cxVUMpPBiv3hKWizynuNOqN8=", "properties": {"ref": "158187", "@spider": "burger_fi", "amenity": "fast_food", "cuisine": "burger", "takeaway": "yes", "addr:street_address": "6610 Mooretown Rd.", "addr:city": "Williamsburg", "addr:state": "VA", "addr:postcode": "23188", "addr:country": "US", "name": "Williamsburg-Mooretown Road", "phone": "(757) 378-9003", "website": "https://order.burgerfi.com/locations/burgerfi-williamsburg-mooretown-road", "brand": "Burger Fi", "brand:wikidata": "Q39045496", "nsi_id": "burgerfi-4d2ff4"}, "geometry": {"type": "Point", "coordinates": [-76.7348245, 37.3375641]}},
{"type": "Feature", "id": "rsEEVk22n7UBOiEtfga-OyBAKBg=", "properties": {"ref": "9784", "@spider": "burger_fi", "amenity": "fast_food", "cuisine": "burger", "takeaway": "yes", "addr:street_address": "4750 The Grove Drive, Suite 104", "addr:city": "Windermere", "addr:state": "FL", "addr:postcode": "34786", "addr:country": "US", "name": "Windermere at The Grove (corner of Conroy & Apopka Vineland Rd)", "phone": "(407) 217-7612", "website": "https://order.burgerfi.com/locations/burgerfi-windermere", "brand": "Burger Fi", "brand:wikidata": "Q39045496", "nsi_id": "burgerfi-4d2ff4"}, "geometry": {"type": "Point", "coordinates": [-81.5112517, 28.4926062]}},
{"type": "Feature", "id": "bBQtZACKr3-8Q_po5esKFl7YdVo=", "properties": {"ref": "88073", "@spider": "burger_fi", "amenity": "fast_food", "cuisine": "burger", "takeaway": "yes", "addr:street_address": "5845 Winter Garden Vineland Road ", "addr:city": "Windermere", "addr:state": "FL", "addr:postcode": "34786", "addr:country": "US", "name": "Windermere Village (next to Wind HS at Ficquette & WG Vine Rd)", "phone": "(407) 614-3476", "website": "https://order.burgerfi.com/locations/sb-windermere-2-llc", "brand": "Burger Fi", "brand:wikidata": "Q39045496", "nsi_id": "burgerfi-4d2ff4"}, "geometry": {"type": "Point", "coordinates": [-81.582006, 28.4790393]}},
{"type": "Feature", "id": "npqyIAVGniYw96w6xlBOUxLSEDc=", "properties": {"ref": "64784", "@spider": "burger_fi", "amenity": "fast_food", "cuisine": "burger", "takeaway": "yes", "addr:street_address": "360 W Plant St #101", "addr:city": "Winter Garden", "addr:state": "FL", "addr:postcode": "34787", "addr:country": "US", "name": "Winter Garden", "phone": "(407) 554-3210", "website": "https://order.burgerfi.com/locations/winter-garden", "brand": "Burger Fi", "brand:wikidata": "Q39045496", "nsi_id": "burgerfi-4d2ff4"}, "geometry": {"type": "Point", "coordinates": [-81.590306, 28.564427]}},
{"type": "Feature", "id": "9ubvWj87K2I4YRazJGYqrQ0Yih8=", "properties": {"ref": "9736", "@spider": "burger_fi", "amenity": "fast_food", "cuisine": "burger", "takeaway": "yes", "addr:street_address": "538 South Park Ave", "addr:city": "Winter Park", "addr:state": "FL", "addr:postcode": "32789", "addr:country": "US", "name": "Winter Park", "phone": "(407) 622-2010", "website": "https://order.burgerfi.com/locations/burgerfi-winter-park", "brand": "Burger Fi", "brand:wikidata": "Q39045496", "nsi_id": "burgerfi-4d2ff4"}, "geometry": {"type": "Point", "coordinates": [-81.3504367, 28.5936302]}},
{"type": "Feature", "id": "n051XT_KZHxv520p0cglCyFNOD4=", "properties": {"ref": "23225", "@spider": "burger_fi", "amenity": "fast_food", "cuisine": "burger", "takeaway": "yes", "addr:street_address": "15201 Potomac Town Place, Unit 105", "addr:city": "Woodbridge", "addr:state": "VA", "addr:postcode": "22191", "addr:country": "US", "name": "Woodbridge", "phone": "(571) 402-6789", "website": "https://order.burgerfi.com/locations/woodbridge", "brand": "Burger Fi", "brand:wikidata": "Q39045496", "nsi_id": "burgerfi-4d2ff4"}, "geometry": {"type": "Point", "coordinates": [-77.2871415, 38.6275858]}}]}