{"type":"FeatureCollection","features":[{"type": "Feature", "id": "rvylBq3A8JnBHCZziFm2YgD4_-s=", "properties": {"ref": "39", "@spider": "busy_beaver", "addr:full": "712 Industrial Blvd", "addr:city": "Latrobe", "addr:state": "PA", "addr:postcode": "15650", "name": "True Value of Latrobe", "phone": "(724) 539-1222", "website": "https://busybeaver.com/stores/latrobe/", "opening_hours": "Mo-Sa 08:00-20:00; Su 09:00-17:00", "brand": "Busy Beaver", "brand:wikidata": "Q108394482"}, "geometry": {"type": "Point", "coordinates": [-79.377839, 40.322618]}},
{"type": "Feature", "id": "h6Kjy5-hx_MJoIfW4QB6kTs0eAo=", "properties": {"ref": "45", "@spider": "busy_beaver", "addr:full": "396 Country Side Plz", "addr:city": "Mt Pleasant", "addr:state": "PA", "addr:postcode": "15666", "name": "Busy Beaver of Mount Pleasant", "phone": "(724) 547-3395", "website": "https://busybeaver.com/stores/mt-pleasant/", "opening_hours": "Mo-Sa 07:30-21:00; Su 08:00-18:00", "brand": "Busy Beaver", "brand:wikidata": "Q108394482"}, "geometry": {"type": "Point", "coordinates": [-79.550024, 40.129267]}},
{"type": "Feature", "id": "LGIXhAUd5qUkUcqSkpKtJmN6UqI=", "properties": {"ref": "1225", "@spider": "busy_beaver", "addr:full": "401 Vine St", "addr:city": "Delmont", "addr:state": "PA", "addr:postcode": "15626", "name": "Busy Beaver of Delmont", "phone": "724-461-1037", "website": "https://busybeaver.com/stores/delmont/", "opening_hours": "Mo-Sa 07:30-21:00; Su 08:00-18:00", "brand": "Busy Beaver", "brand:wikidata": "Q108394482"}, "geometry": {"type": "Point", "coordinates": [-79.585452, 40.398488]}},
{"type": "Feature", "id": "zEfrvis0I7AYU0OHK_wDGrZAChs=", "properties": {"ref": "49", "@spider": "busy_beaver", "addr:full": "8800 Norwin Ave", "addr:city": "Irwin", "addr:state": "PA", "addr:postcode": "15642", "name": "Busy Beaver of Irwin", "phone": "(724) 864-7354", "website": "https://busybeaver.com/stores/irwin/", "opening_hours": "Mo-Sa 07:30-21:00; Su 08:00-18:00", "brand": "Busy Beaver", "brand:wikidata": "Q108394482"}, "geometry": {"type": "Point", "coordinates": [-79.692725, 40.317172]}},
{"type": "Feature", "id": "8_kq8SUOBg8y-AzKEPPRhK1J4IY=", "properties": {"ref": "40", "@spider": "busy_beaver", "addr:full": "2001 Lincoln Way STE 1", "addr:city": "White Oak", "addr:state": "PA", "addr:postcode": "15131", "name": "Busy Beaver of White Oak", "phone": "(412) 672-6033", "website": "https://busybeaver.com/stores/white-oak/", "opening_hours": "Mo-Sa 07:30-21:00; Su 08:00-18:00", "brand": "Busy Beaver", "brand:wikidata": "Q108394482"}, "geometry": {"type": "Point", "coordinates": [-79.805396, 40.337364]}},
{"type": "Feature", "id": "jzxVzgonJEjg7bFC5z3j3U10YIU=", "properties": {"ref": "44", "@spider": "busy_beaver", "addr:full": "101 Tarentum Bridge Rd", "addr:city": "New Kensington", "addr:state": "PA", "addr:postcode": "15068", "name": "Busy Beaver of New Kensington", "phone": "(724) 335-9966", "website": "https://busybeaver.com/stores/new-kensington/", "opening_hours": "Mo-Sa 07:30-21:00; Su 08:00-18:00", "brand": "Busy Beaver", "brand:wikidata": "Q108394482"}, "geometry": {"type": "Point", "coordinates": [-79.752171, 40.588889]}},
{"type": "Feature", "id": "_1V8vBucOQFBkpsdx4Z01MTuKdo=", "properties": {"ref": "53", "@spider": "busy_beaver", "addr:full": "2940 Library Rd", "addr:city": "Pittsburgh", "addr:state": "PA", "addr:postcode": "15234", "name": "Busy Beaver of Castle Shannon", "phone": "(412) 882-6633", "website": "https://busybeaver.com/stores/castle-shannon/", "opening_hours": "Mo-Sa 07:30-21:00; Su 08:00-18:00", "brand": "Busy Beaver", "brand:wikidata": "Q108394482"}, "geometry": {"type": "Point", "coordinates": [-80.00591, 40.37528]}},
{"type": "Feature", "id": "MvEIJ-UTrmXQfCHE-5o7SXgF1Co=", "properties": {"ref": "47", "@spider": "busy_beaver", "addr:full": "4743 Plummer St", "addr:city": "Pittsburgh", "addr:state": "PA", "addr:postcode": "15201", "name": "Busy Beaver of Lawrenceville", "phone": "(412) 904-1444", "website": "https://busybeaver.com/stores/lawrenceville/", "opening_hours": "Mo-Sa 07:30-21:00; Su 08:00-18:00", "brand": "Busy Beaver", "brand:wikidata": "Q108394482"}, "geometry": {"type": "Point", "coordinates": [-79.958818, 40.475418]}},
{"type": "Feature", "id": "KMLjcd7-MbbNFfS4KrfhQDKYCow=", "properties": {"ref": "48", "@spider": "busy_beaver", "addr:full": "17 Hilltop Plz", "addr:city": "Kittanning", "addr:state": "PA", "addr:postcode": "16201", "name": "Busy Beaver of Kittanning", "phone": "(724) 548-2999", "website": "https://busybeaver.com/stores/kittanning/", "opening_hours": "Mo-Sa 07:30-21:00; Su 08:00-18:00", "brand": "Busy Beaver", "brand:wikidata": "Q108394482"}, "geometry": {"type": "Point", "coordinates": [-79.546337, 40.814593]}},
{"type": "Feature", "id": "ja3PvxHK1kBxWgreiDEPhfnFgGA=", "properties": {"ref": "52", "@spider": "busy_beaver", "addr:full": "88 W Steuben St", "addr:city": "Pittsburgh", "addr:state": "PA", "addr:postcode": "15205", "name": "Busy Beaver of Crafton", "phone": "(412) 922-6040", "website": "https://busybeaver.com/stores/crafton/", "opening_hours": "Mo-Sa 07:30-21:00; Su 08:00-18:00", "brand": "Busy Beaver", "brand:wikidata": "Q108394482"}, "geometry": {"type": "Point", "coordinates": [-80.07052, 40.439503]}},
{"type": "Feature", "id": "34zzYvUNRable4Vdm6nNMa8eOoY=", "properties": {"ref": "42", "@spider": "busy_beaver", "addr:full": "1281 W Chestnut St", "addr:city": "Washington", "addr:state": "PA", "addr:postcode": "15301", "name": "Busy Beaver of Washington", "phone": "(724) 228-2660", "website": "https://busybeaver.com/stores/washington/", "opening_hours": "Mo-Sa 07:30-21:00; Su 08:00-18:00", "brand": "Busy Beaver", "brand:wikidata": "Q108394482"}, "geometry": {"type": "Point", "coordinates": [-80.272181, 40.166259]}},
{"type": "Feature", "id": "d0X8Edt3Y3Jih2C3hYiGSBwJgLM=", "properties": {"ref": "50", "@spider": "busy_beaver", "addr:full": "215 Marion Sq", "addr:city": "Fairmont", "addr:state": "WV", "addr:postcode": "26554", "name": "Busy Beaver of Fairmont", "phone": "(681) 404-3263", "website": "https://busybeaver.com/stores/fairmont/", "opening_hours": "Mo-Sa 07:30-21:00; Su 08:00-18:00", "brand": "Busy Beaver", "brand:wikidata": "Q108394482"}, "geometry": {"type": "Point", "coordinates": [-80.176156, 39.473773]}},
{"type": "Feature", "id": "LLBOtguvZSKoD6hMhdmkQP9qxZs=", "properties": {"ref": "38", "@spider": "busy_beaver", "addr:full": "1011 Beaver Grade Rd", "addr:city": "Moon Township", "addr:state": "PA", "addr:postcode": "15108", "name": "True Value of Moon Township", "phone": "(412) 832-1324", "website": "https://busybeaver.com/stores/moon-township/", "opening_hours": "Mo-Sa 08:00-20:00; Su 09:00-17:00", "brand": "Busy Beaver", "brand:wikidata": "Q108394482"}, "geometry": {"type": "Point", "coordinates": [-80.204956, 40.503852]}},
{"type": "Feature", "id": "7iSP2yoi3n5IPnu3s_RmRRIZqII=", "properties": {"ref": "41", "@spider": "busy_beaver", "addr:full": "290 Three Springs Dr", "addr:city": "Weirton", "addr:state": "WV", "addr:postcode": "26062", "name": "Busy Beaver of Weirton", "phone": "(304) 723-7222", "website": "https://busybeaver.com/stores/weirton/", "opening_hours": "Mo-Sa 07:30-21:00; Su 08:00-18:00", "brand": "Busy Beaver", "brand:wikidata": "Q108394482"}, "geometry": {"type": "Point", "coordinates": [-80.552988, 40.398401]}},
{"type": "Feature", "id": "-AzjQIHHJtFeuSl8c-hHllYiegk=", "properties": {"ref": "51", "@spider": "busy_beaver", "addr:full": "265 State Route 288", "addr:city": "Ellwood City", "addr:state": "PA", "addr:postcode": "16117", "name": "Busy Beaver of Ellwood City", "phone": "(724) 758-0662", "website": "https://busybeaver.com/stores/ellwood-city/", "opening_hours": "Mo-Sa 07:30-21:00; Su 08:00-18:00", "brand": "Busy Beaver", "brand:wikidata": "Q108394482"}, "geometry": {"type": "Point", "coordinates": [-80.260727, 40.84638]}},
{"type": "Feature", "id": "FoJrFPcpSqzK3T5CbHn5FLJb8eo=", "properties": {"ref": "34", "@spider": "busy_beaver", "addr:full": "731 Beverly Pike", "addr:city": "Elkins", "addr:state": "WV", "addr:postcode": "26241", "name": "Busy Beaver of Elkins", "phone": "(304) 606-2968", "website": "https://busybeaver.com/stores/elkins/", "opening_hours": "Mo-Sa 07:30-21:00; Su 08:00-18:00", "brand": "Busy Beaver", "brand:wikidata": "Q108394482"}, "geometry": {"type": "Point", "coordinates": [-79.843155, 38.89078]}},
{"type": "Feature", "id": "-ZMW475JtqjKg0NhmMlgZKJfT1A=", "properties": {"ref": "46", "@spider": "busy_beaver", "addr:full": "303 Lafayette Ave", "addr:city": "Moundsville", "addr:state": "WV", "addr:postcode": "26041", "name": "Busy Beaver of Moundsville", "phone": "(304) 843-2331", "website": "https://busybeaver.com/stores/moundsville/", "opening_hours": "Mo-Sa 07:30-21:00; Su 08:00-18:00", "brand": "Busy Beaver", "brand:wikidata": "Q108394482"}, "geometry": {"type": "Point", "coordinates": [-80.750641, 39.926271]}},
{"type": "Feature", "id": "YfFiX6t4myABgpL_QUxH5VbX8fc=", "properties": {"ref": "33", "@spider": "busy_beaver", "addr:full": "15891 State Route 170", "addr:city": "Calcutta", "addr:state": "OH", "addr:postcode": "43920", "name": "Busy Beaver of Calcutta", "phone": "(330) 476-2299", "website": "https://busybeaver.com/stores/calcutta/", "opening_hours": "Mo-Sa 07:30-21:00; Su 08:00-18:00", "brand": "Busy Beaver", "brand:wikidata": "Q108394482"}, "geometry": {"type": "Point", "coordinates": [-80.5846, 40.671875]}},
{"type": "Feature", "id": "HCgnm-v1TQrLVpYKxGQD7Fbcl6w=", "properties": {"ref": "35", "@spider": "busy_beaver", "addr:full": "2640 Ellwood Rd", "addr:city": "New Castle", "addr:state": "PA", "addr:postcode": "16101", "name": "Busy Beaver of New Castle", "phone": "(724) 923-4469", "website": "https://busybeaver.com/stores/newcastle/", "opening_hours": "Mo-Sa 07:30-21:00; Su 08:00-18:00", "brand": "Busy Beaver", "brand:wikidata": "Q108394482"}, "geometry": {"type": "Point", "coordinates": [-80.310965, 40.965202]}},
{"type": "Feature", "id": "xBY5JVbUpxE1xaKSIT6-JQtPHmc=", "properties": {"ref": "37", "@spider": "busy_beaver", "addr:full": "11 Pine Grove Sq", "addr:city": "Grove City", "addr:state": "PA", "addr:postcode": "16127", "name": "Busy Beaver of Grove City", "phone": "(724) 300-8033", "website": "https://busybeaver.com/stores/grove-city/", "opening_hours": "Mo-Sa 07:30-21:00; Su 08:00-18:00", "brand": "Busy Beaver", "brand:wikidata": "Q108394482"}, "geometry": {"type": "Point", "coordinates": [-80.112841, 41.167436]}},
{"type": "Feature", "id": "c3EVf76CFxsD1mND1NaJYK2Rfag=", "properties": {"ref": "43", "@spider": "busy_beaver", "addr:full": "2340 E State St", "addr:city": "Salem", "addr:state": "OH", "addr:postcode": "44460", "name": "True Value of Salem", "phone": "330-337-5350", "website": "https://busybeaver.com/stores/salem/", "opening_hours": "Mo-Sa 08:00-20:00; Su 09:00-17:00", "brand": "Busy Beaver", "brand:wikidata": "Q108394482"}, "geometry": {"type": "Point", "coordinates": [-80.829244, 40.902509]}},
{"type": "Feature", "id": "MC12A0D_gLTyhyXeq4A7pjCqJU8=", "properties": {"ref": "36", "@spider": "busy_beaver", "addr:full": "100 Hadley Rd", "addr:city": "Greenville", "addr:state": "PA", "addr:postcode": "16125", "name": "Busy Beaver of Greenville", "phone": "(724) 638-9539", "website": "https://busybeaver.com/stores/greenville/", "opening_hours": "Mo-Sa 07:30-21:00; Su 08:00-18:00", "brand": "Busy Beaver", "brand:wikidata": "Q108394482"}, "geometry": {"type": "Point", "coordinates": [-80.352814, 41.415616]}},
{"type": "Feature", "id": "jKj2WqMIG-TZeQcVwEzzOMqvcZI=", "properties": {"ref": "32", "@spider": "busy_beaver", "addr:full": "16400 Bayard Rd", "addr:city": "Minerva", "addr:state": "OH", "addr:postcode": "44657", "name": "True Value of Minerva", "phone": "(330) 868-7709", "website": "https://busybeaver.com/stores/minerva/", "opening_hours": "Mo-Sa 08:00-20:00; Su 09:00-17:00", "brand": "Busy Beaver", "brand:wikidata": "Q108394482"}, "geometry": {"type": "Point", "coordinates": [-81.089863, 40.748689]}},
{"type": "Feature", "id": "71XPSDSUyjvBzDFMLn34pC2mrlo=", "properties": {"ref": "54", "@spider": "busy_beaver", "addr:full": "843 30th St NW", "addr:city": "Canton", "addr:state": "OH", "addr:postcode": "44709", "name": "True Value of Canton", "phone": "(330) 477-8569", "website": "https://busybeaver.com/stores/canton/", "opening_hours": "Mo-Sa 07:30-20:00; Su 09:00-17:00", "brand": "Busy Beaver", "brand:wikidata": "Q108394482"}, "geometry": {"type": "Point", "coordinates": [-81.380325, 40.831889]}},
{"type": "Feature", "id": "aAGrIRIPoUksuEAodL_tI277-Ao=", "properties": {"ref": "55", "@spider": "busy_beaver", "addr:full": "1144 W Prospect Rd", "addr:city": "Ashtabula", "addr:state": "OH", "addr:postcode": "44004", "name": "Busy Beaver of Ashtabula", "phone": "(440) 998-1818", "website": "https://busybeaver.com/stores/ashtabula/", "opening_hours": "Mo-Sa 07:30-21:00; Su 08:00-18:00", "brand": "Busy Beaver", "brand:wikidata": "Q108394482"}, "geometry": {"type": "Point", "coordinates": [-80.797047, 41.861416]}}]}