{"type":"FeatureCollection","features":[{"type": "Feature", "id": "h9QlrYewsg3PcJBsAz7dxVKdalE=", "properties": {"ref": "blv", "brand": "Caesars Entertainment", "@spider": "caesars", "addr:full": "3645 Las Vegas Boulevard South", "addr:city": "Las Vegas", "addr:state": "NV", "addr:postcode": "89109", "addr:country": "US", "name": "Bally's Las Vegas", "phone": "(877) 603-4390", "website": "https://www.caesars.com/ballys-las-vegas", "brand:wikidata": "Q18636524"}, "geometry": {"type": "Point", "coordinates": [-115.168408, 36.113534]}},
{"type": "Feature", "id": "1CNiFA4FFf0pYE5kx6KZDDcJc3s=", "properties": {"ref": "cac", "brand": "Caesars Entertainment", "@spider": "caesars", "addr:full": "2100 Pacific Avenue", "addr:city": "Atlantic City", "addr:state": "NJ", "addr:postcode": "08401", "addr:country": "US", "name": "Caesars Atlantic City", "phone": "(609) 348-4411", "website": "https://www.caesars.com/caesars-ac", "brand:wikidata": "Q18636524"}, "geometry": {"type": "Point", "coordinates": [-74.435772, 39.35687]}},
{"type": "Feature", "id": "O_o7vIHD_26iqzlEY4vXkNYGTl0=", "properties": {"ref": "clv", "brand": "Caesars Entertainment", "@spider": "caesars", "addr:full": "3570 Las Vegas Boulevard South", "addr:city": "Las Vegas", "addr:state": "NV", "addr:postcode": "89109", "addr:country": "US", "name": "Caesars Palace ", "phone": "(866) 227-5938", "website": "https://www.caesars.com/caesars-palace", "brand:wikidata": "Q18636524"}, "geometry": {"type": "Point", "coordinates": [-115.173969, 36.11517]}},
{"type": "Feature", "id": "l5Ns1rx4oxPbj6lIIoJnsAO9GGQ=", "properties": {"ref": "dbw", "brand": "Caesars Entertainment", "@spider": "caesars", "addr:country": "US", "name": "Caesars Palace Dubai", "website": "https://www.caesars.com/dubai/", "brand:wikidata": "Q18636524"}, "geometry": {"type": "Point", "coordinates": [55.12162, 25.082089]}},
{"type": "Feature", "id": "ftPR1YynejNrrKZXWrJpRsfjC8k=", "properties": {"ref": "uel", "brand": "Caesars Entertainment", "@spider": "caesars", "addr:full": "11999 Casino Center Drive", "addr:city": "Elizabeth", "addr:state": "IN", "addr:postcode": "47117", "addr:country": "US", "name": "Caesars Southern Indiana", "phone": "(866) 676-7463", "website": "https://www.caesars.com/caesars-southern-indiana", "brand:wikidata": "Q18636524"}, "geometry": {"type": "Point", "coordinates": [-85.903924, 38.180003]}},
{"type": "Feature", "id": "IyTmvz5upqGwaNoqP-FK2n_cEts=", "properties": {"ref": "wcl", "brand": "Caesars Entertainment", "@spider": "caesars", "addr:full": "377 Riverside Drive East (Hotel, Casino and Valet Entrance: McDougall Ave. and Pitt St.)", "addr:city": "Windsor, ON", "addr:state": "CA", "addr:postcode": "N9A 7H7", "addr:country": "US", "name": "Caesars Windsor", "phone": "(800) 991-7777", "website": "https://www.caesars.com/caesars-windsor", "brand:wikidata": "Q18636524"}, "geometry": {"type": "Point", "coordinates": [-83.034227, 42.320895]}},
{"type": "Feature", "id": "OAUUpktu8dMua_zDf7nCVquupvI=", "properties": {"ref": "cce", "brand": "Caesars Entertainment", "@spider": "caesars", "addr:full": "500 N Sierra St", "addr:city": "Reno", "addr:state": "NV", "addr:postcode": "89503", "addr:country": "US", "name": "Circus Circus Reno", "phone": "(775) 329-0711", "website": "https://www.caesars.com//circus-circus-reno", "brand:wikidata": "Q18636524"}, "geometry": {"type": "Point", "coordinates": [-119.81536, 39.5322]}},
{"type": "Feature", "id": "f0Bke85U62xap-BeD64DIQ9S9io=", "properties": {"ref": "esd", "brand": "Caesars Entertainment", "@spider": "caesars", "addr:full": "6000 S High St, Columbus, OH 43207", "addr:city": "Columbus", "addr:state": "OH", "addr:postcode": "43207", "addr:country": "US", "name": "Eldorado Gaming Scioto Downs", "website": "https://www.sciotodowns.com/", "brand:wikidata": "Q18636524"}, "geometry": {"type": "Point", "coordinates": [-82.99734, 39.83948]}},
{"type": "Feature", "id": "qJLvLrh6LMPeKLwJ_1HVujjn2BU=", "properties": {"ref": "elr", "brand": "Caesars Entertainment", "@spider": "caesars", "addr:full": "345 N Virginia Street", "addr:city": "Reno", "addr:state": "NV", "addr:postcode": "89501", "addr:country": "US", "name": "Eldorado Reno Resort Casino", "phone": "(775) 786-5700", "website": "https://www.caesars.com/eldorado-reno", "brand:wikidata": "Q18636524"}, "geometry": {"type": "Point", "coordinates": [-119.81464, 39.52916]}},
{"type": "Feature", "id": "k0wbjT5TOj1Cfv3U-fQC-uuk3Fs=", "properties": {"ref": "flv", "brand": "Caesars Entertainment", "@spider": "caesars", "addr:full": "3555 Las Vegas Boulevard South", "addr:city": "Las Vegas", "addr:state": "NV", "addr:postcode": "89109", "addr:country": "US", "name": "Flamingo Las Vegas", "phone": "(702) 733-3111", "website": "https://www.caesars.com/flamingo-las-vegas", "brand:wikidata": "Q18636524"}, "geometry": {"type": "Point", "coordinates": [-115.171394, 36.11569]}},
{"type": "Feature", "id": "GTMyg-peeHQgLYyXfwqrqwM2cY0=", "properties": {"ref": "gvc", "brand": "Caesars Entertainment", "@spider": "caesars", "addr:full": "250 S Grove Ave, Elgin, IL 60120", "addr:city": "Elgin", "addr:state": "IL", "addr:postcode": "60120", "addr:country": "US", "name": "Grand Victoria Casino", "website": "https://www.grandvictoriacasino.com/", "brand:wikidata": "Q18636524"}, "geometry": {"type": "Point", "coordinates": [-88.27964, 42.03138]}},
{"type": "Feature", "id": "pWPzI5uYvfSh6Aq2ye-JCBN_qak=", "properties": {"ref": "akc", "brand": "Caesars Entertainment", "@spider": "caesars", "addr:full": "15406 Maricopa Road", "addr:city": "Maricopa", "addr:state": "AZ", "addr:postcode": "85139", "addr:country": "US", "name": "Harrah's Ak-Chin Hotel And Casino", "phone": "(480) 802-5000", "website": "https://www.caesars.com/harrahs-ak-chin", "brand:wikidata": "Q18636524"}, "geometry": {"type": "Point", "coordinates": [-112.050548, 33.024111]}},
{"type": "Feature", "id": "OhOPBMlQg9aJhtf8pBxi5fupDKc=", "properties": {"ref": "che", "brand": "Caesars Entertainment", "@spider": "caesars", "addr:full": "777 Casino Drive", "addr:city": "Cherokee", "addr:state": "NC", "addr:postcode": "28719", "addr:country": "US", "name": "Harrah's Cherokee Casino Resort", "phone": "(828) 497-7777", "website": "https://www.caesars.com/harrahs-cherokee", "brand:wikidata": "Q18636524"}, "geometry": {"type": "Point", "coordinates": [-83.299504, 35.469878]}},
{"type": "Feature", "id": "DQJphdRDhQtX7Q21-xAwWv_WaBQ=", "properties": {"ref": "cvr", "brand": "Caesars Entertainment", "@spider": "caesars", "addr:full": "777 Casino Parkway", "addr:city": "Murphy", "addr:state": "NC", "addr:postcode": "28906", "addr:country": "US", "name": "Harrah's Cherokee Valley River", "phone": "(828) 422-7777", "website": "https://www.caesars.com/harrahs-cherokee-valley-river", "brand:wikidata": "Q18636524"}, "geometry": {"type": "Point", "coordinates": [-83.981209, 35.110879]}},
{"type": "Feature", "id": "CFhrfL_aR8T-NtKQ9ltoQc8cCo8=", "properties": {"ref": "gbi", "brand": "Caesars Entertainment", "@spider": "caesars", "addr:full": "280 Beach Boulevard", "addr:city": "Biloxi", "addr:state": "MS", "addr:postcode": "39530", "addr:country": "US", "name": "Harrah's Gulf Coast", "phone": "(800) 946-2946", "website": "https://www.caesars.com/harrahs-gulf-coast", "brand:wikidata": "Q18636524"}, "geometry": {"type": "Point", "coordinates": [-88.866022, 30.392499]}},
{"type": "Feature", "id": "g4RErQ15qcg1U8ldN302MP32hiM=", "properties": {"ref": "hhp", "brand": "Caesars Entertainment", "@spider": "caesars", "addr:full": "4500 Dan Patch Circle", "addr:city": "Anderson", "addr:state": "IN", "addr:postcode": "46013", "addr:country": "US", "name": "Harrah's Hoosier Park", "phone": "(800) 526-7223", "website": "https://www.caesars.com/harrahs-hoosier-park", "brand:wikidata": "Q18636524"}, "geometry": {"type": "Point", "coordinates": [-85.64414, 40.06821]}},
{"type": "Feature", "id": "5ER_cy_ItUG0RDJRfN_LXvGSC8o=", "properties": {"ref": "jol", "brand": "Caesars Entertainment", "@spider": "caesars", "addr:full": "151 N. Joliet Street", "addr:city": "Joliet", "addr:state": "IL", "addr:postcode": "60432", "addr:country": "US", "name": "Harrah's Joliet", "phone": "(815) 740-7800", "website": "https://www.caesars.com/harrahs-joliet", "brand:wikidata": "Q18636524"}, "geometry": {"type": "Point", "coordinates": [-88.084538, 41.525618]}},
{"type": "Feature", "id": "et5ZuivTtE8hK6hro4iRSISs3zA=", "properties": {"ref": "nkc", "brand": "Caesars Entertainment", "@spider": "caesars", "addr:full": "One Riverboat Drive", "addr:city": "North Kansas City", "addr:state": "MO", "addr:postcode": "64116", "addr:country": "US", "name": "Harrah's Kansas City", "phone": "(816) 472-7777", "website": "https://www.caesars.com/harrahs-kansas-city", "brand:wikidata": "Q18636524"}, "geometry": {"type": "Point", "coordinates": [-94.545871, 39.142498]}},
{"type": "Feature", "id": "qzcvJXtWKURGjpIC1ZhGAxDNBlI=", "properties": {"ref": "tah", "brand": "Caesars Entertainment", "@spider": "caesars", "addr:full": "15 Highway 50", "addr:city": "Lake Tahoe", "addr:state": "NV", "addr:postcode": "89449", "addr:country": "US", "name": "Harrah's Lake Tahoe", "phone": "(800) 427-7247", "website": "https://www.caesars.com/harrahs-tahoe", "brand:wikidata": "Q18636524"}, "geometry": {"type": "Point", "coordinates": [-119.941279, 38.959538]}},
{"type": "Feature", "id": "7M1ihlQgDJbTnliEgKf8WF7h_7Y=", "properties": {"ref": "las", "brand": "Caesars Entertainment", "@spider": "caesars", "addr:full": "3475 Las Vegas Boulevard South", "addr:city": "Las Vegas", "addr:state": "NV", "addr:postcode": "89109", "addr:country": "US", "name": "Harrah's Las Vegas", "phone": "(800) 214-9110", "website": "https://www.caesars.com/harrahs-las-vegas", "brand:wikidata": "Q18636524"}, "geometry": {"type": "Point", "coordinates": [-115.1705, 36.1193]}},
{"type": "Feature", "id": "e2QOVVCquDGsgPcbJvigTUPUINk=", "properties": {"ref": "lau", "brand": "Caesars Entertainment", "@spider": "caesars", "addr:full": "2900 South Casino Drive", "addr:city": "Laughlin", "addr:state": "NV", "addr:postcode": "89029", "addr:country": "US", "name": "Harrah's Laughlin", "phone": "(702) 298-4600", "website": "https://www.caesars.com/harrahs-laughlin", "brand:wikidata": "Q18636524"}, "geometry": {"type": "Point", "coordinates": [-114.579537, 35.143908]}},
{"type": "Feature", "id": "YGwynoZgH63dmgaqfjJR5ihh4ak=", "properties": {"ref": "met", "brand": "Caesars Entertainment", "@spider": "caesars", "addr:full": "100 East Front Street", "addr:city": "Metropolis", "addr:state": "IL", "addr:postcode": "62960", "addr:country": "US", "name": "Harrah's Metropolis ", "phone": "(618) 524-2628", "website": "https://www.caesars.com/harrahs-metropolis", "brand:wikidata": "Q18636524"}, "geometry": {"type": "Point", "coordinates": [-88.734317, 37.148429]}},
{"type": "Feature", "id": "2rk_aFxX0rmjug5Ep8WvXbZx33c=", "properties": {"ref": "nor", "brand": "Caesars Entertainment", "@spider": "caesars", "addr:full": "228 Poydras Street", "addr:city": "New Orleans", "addr:state": "LA", "addr:postcode": "70130", "addr:country": "US", "name": "Harrah's New Orleans", "phone": "(800) 427-7247", "website": "https://www.caesars.com/harrahs-new-orleans", "brand:wikidata": "Q18636524"}, "geometry": {"type": "Point", "coordinates": [-90.065565, 29.948744]}},
{"type": "Feature", "id": "3Xo6Mxv-aSytnFn58my8Pcm8cEo=", "properties": {"ref": "hbv", "brand": "Caesars Entertainment", "@spider": "caesars", "addr:full": "4640 Coal Mine Road", "addr:city": "Ione", "addr:state": "CA", "addr:postcode": "95640", "addr:country": "US", "name": "Harrah's Northern California", "phone": "866-915-0777", "website": "https://www.caesars.com/harrahs-northern-california", "brand:wikidata": "Q18636524"}, "geometry": {"type": "Point", "coordinates": [-120.917446, 38.274115]}},
{"type": "Feature", "id": "C0EWporZQtBQ4PrKZ9Y23yanocY=", "properties": {"ref": "ccr", "brand": "Caesars Entertainment", "@spider": "caesars", "addr:full": "777 Harrah's Blvd", "addr:city": "Chester", "addr:state": "PA", "addr:postcode": "19013", "addr:country": "US", "name": "Harrah's Philadelphia Casino and Racetrack", "phone": "(800) 480-8020", "website": "https://www.caesars.com/harrahs-philly", "brand:wikidata": "Q18636524"}, "geometry": {"type": "Point", "coordinates": [-75.348298, 39.851083]}},
{"type": "Feature", "id": "EJFeX31jv-XbcP_qUNWmQg9Sfkc=", "properties": {"ref": "atl", "brand": "Caesars Entertainment", "@spider": "caesars", "addr:full": "777 Harrah's Blvd", "addr:city": "Atlantic City", "addr:state": "NJ", "addr:postcode": "08401", "addr:country": "US", "name": "Harrah's Resort Atlantic City", "phone": "(609) 441-5000", "website": "https://www.caesars.com/harrahs-ac", "brand:wikidata": "Q18636524"}, "geometry": {"type": "Point", "coordinates": [-74.426749, 39.384016]}},
{"type": "Feature", "id": "fLlD_tLzi-FqZSr6WcT6ANlpQ0g=", "properties": {"ref": "rin", "brand": "Caesars Entertainment", "@spider": "caesars", "addr:full": "777 Harrah's Rincon Way", "addr:city": "Funner", "addr:state": "CA", "addr:postcode": "92082", "addr:country": "US", "name": "Harrah's Resort Southern California", "phone": "(760) 751-3100", "website": "https://www.caesars.com/harrahs-socal", "brand:wikidata": "Q18636524"}, "geometry": {"type": "Point", "coordinates": [-116.954178, 33.266788]}},
{"type": "Feature", "id": "eJ2Si_Hv2FyiF6S8jVdsQdYyPGU=", "properties": {"ref": "cou", "brand": "Caesars Entertainment", "@spider": "caesars", "addr:full": "One Harrahs Blvd", "addr:city": "Council Bluffs", "addr:state": "IA", "addr:postcode": "51501", "addr:country": "US", "name": "Harrah\u2019s Council Bluffs Hotel and Casino", "phone": "(712) 329-6000", "website": "https://www.caesars.com/harrahs-council-bluffs", "brand:wikidata": "Q18636524"}, "geometry": {"type": "Point", "coordinates": [-95.910599, 41.251309]}},
{"type": "Feature", "id": "-b9cC7k5TqHjHrt78-vdGWbRrpk=", "properties": {"ref": "hlt", "brand": "Caesars Entertainment", "@spider": "caesars", "addr:full": "Highway 50 at Stateline Avenue", "addr:city": "Lake Tahoe", "addr:state": "NV", "addr:postcode": "89449", "addr:country": "US", "name": "Harveys Lake Tahoe", "phone": "(775) 588-6611", "website": "https://www.caesars.com/harveys-tahoe", "brand:wikidata": "Q18636524"}, "geometry": {"type": "Point", "coordinates": [-119.942068, 38.959191]}},
{"type": "Feature", "id": "IdekD6CeK8It1U30aFC3bbyLyLU=", "properties": {"ref": "uba", "brand": "Caesars Entertainment", "@spider": "caesars", "addr:full": "1525 Russell Street", "addr:city": "Baltimore", "addr:state": "MD", "addr:postcode": "21230", "addr:country": "US", "name": "Horseshoe Baltimore", "phone": "(844) 777-SHOE", "website": "https://www.caesars.com/horseshoe-baltimore", "brand:wikidata": "Q18636524"}, "geometry": {"type": "Point", "coordinates": [-76.612189, 39.290385]}},
{"type": "Feature", "id": "4SJOcZa94EhKUMcO5CEyUgBV3a4=", "properties": {"ref": "ibh", "brand": "Caesars Entertainment", "@spider": "caesars", "addr:full": "401 Main St", "addr:city": "Black Hawk", "addr:state": "CO", "addr:postcode": "80422", "addr:country": "US", "name": "Horseshoe Black Hawk", "phone": "(800) 843-4753", "website": "https://www.caesars.com/horseshoe-black-hawk", "brand:wikidata": "Q18636524"}, "geometry": {"type": "Point", "coordinates": [-105.48345, 39.79802]}},
{"type": "Feature", "id": "WS_MZJ8vW6Dnt01uG2jxysItgew=", "properties": {"ref": "ubc", "brand": "Caesars Entertainment", "@spider": "caesars", "addr:full": "711 Horseshoe Boulevard", "addr:city": "Bossier City", "addr:state": "LA", "addr:postcode": "71111", "addr:country": "US", "name": "Horseshoe Bossier City", "phone": "(800) 895-0711", "website": "https://www.caesars.com/horseshoe-bossier-city", "brand:wikidata": "Q18636524"}, "geometry": {"type": "Point", "coordinates": [-93.737341, 32.515291]}},
{"type": "Feature", "id": "66fccoK9dZOgRutz33IJJIyg_DI=", "properties": {"ref": "hbr", "brand": "Caesars Entertainment", "@spider": "caesars", "addr:full": "2701 23rd Avenue", "addr:city": "Council Bluffs", "addr:state": "IA", "addr:postcode": "51501", "addr:country": "US", "name": "Horseshoe Council Bluffs Casino", "phone": "(712) 323-2500", "website": "https://www.caesars.com/horseshoe-council-bluffs", "brand:wikidata": "Q18636524"}, "geometry": {"type": "Point", "coordinates": [-95.886848, 41.237721]}},
{"type": "Feature", "id": "vmAXtoiy1Eh7r_Tb6hXHtMtRCBA=", "properties": {"ref": "uha", "brand": "Caesars Entertainment", "@spider": "caesars", "addr:full": "777 Casino Center Drive", "addr:city": "Hammond", "addr:state": "IN", "addr:postcode": "46320", "addr:country": "US", "name": "Horseshoe Hammond", "phone": "(866) 711-SHOE/7463", "website": "https://www.caesars.com/horseshoe-hammond", "brand:wikidata": "Q18636524"}, "geometry": {"type": "Point", "coordinates": [-87.508083, 41.693536]}},
{"type": "Feature", "id": "1EA2pA6_bAtqy2tktuKJoVZql88=", "properties": {"ref": "uin", "brand": "Caesars Entertainment", "@spider": "caesars", "addr:full": "4300 N. Michigan Road", "addr:city": "Shelbyville", "addr:state": "IN", "addr:postcode": "46176", "addr:country": "US", "name": "Horseshoe Indianapolis, Shelbyville", "phone": "(877) 386-4463", "website": "https://www.caesars.com/horseshoe-indianapolis", "brand:wikidata": "Q18636524"}, "geometry": {"type": "Point", "coordinates": [-85.825245, 39.58903]}},
{"type": "Feature", "id": "Wv74xwZJqL7ei8q4451Txho0nqk=", "properties": {"ref": "ilc", "brand": "Caesars Entertainment", "@spider": "caesars", "addr:full": "100 Westlake Ave", "addr:city": "Westlake", "addr:state": "LA", "addr:postcode": "70669", "addr:country": "US", "name": "Horseshoe Lake Charles", "phone": "(337) 430-2300", "website": "https://www.islelakecharles.com/", "brand:wikidata": "Q18636524"}, "geometry": {"type": "Point", "coordinates": [-93.25007, 30.23542]}},
{"type": "Feature", "id": "PqEYQp3DRMDRKu1B3Wyxkjyomkw=", "properties": {"ref": "lus", "brand": "Caesars Entertainment", "@spider": "caesars", "addr:full": "999 N 2nd St", "addr:city": "St. Louis", "addr:state": "MO", "addr:postcode": "63102", "addr:country": "US", "name": "Horseshoe St. Louis", "phone": "(314) 881-7777", "website": "https://www.caesars.com/horseshoe-st-louis", "brand:wikidata": "Q18636524"}, "geometry": {"type": "Point", "coordinates": [-90.18469, 38.63273]}},
{"type": "Feature", "id": "2Scl6w6q-t6QHwamqTjV3VM_NxE=", "properties": {"ref": "utu", "brand": "Caesars Entertainment", "@spider": "caesars", "addr:full": "1021 Casino Center Drive", "addr:city": "Robinsonville", "addr:state": "MS", "addr:postcode": "38664", "addr:country": "US", "name": "Horseshoe Tunica", "phone": "(800) 303-7463", "website": "https://www.caesars.com/horseshoe-tunica", "brand:wikidata": "Q18636524"}, "geometry": {"type": "Point", "coordinates": [-90.330534, 34.847216]}},
{"type": "Feature", "id": "tVCu2_LuQ2EAbT699TeYi13feis=", "properties": {"ref": "ibe", "brand": "Caesars Entertainment", "@spider": "caesars", "addr:full": "1777 Isle Pkwy", "addr:city": "Bettendorf", "addr:state": "IA", "addr:postcode": "52722", "addr:country": "US", "name": "Isle Casino Hotel Bettendorf", "phone": "(563) 441-7000", "website": "https://www.islebettendorf.com/", "brand:wikidata": "Q18636524"}, "geometry": {"type": "Point", "coordinates": [-90.50715, 41.52322]}},
{"type": "Feature", "id": "h9xMWZqRdw3Dg-oRhfCPoB5Kv8U=", "properties": {"ref": "iwa", "brand": "Caesars Entertainment", "@spider": "caesars", "addr:full": "777 Isle of Capri Blvd", "addr:city": "Waterloo", "addr:state": "IA", "addr:postcode": "50701", "addr:country": "US", "name": "Isle Casino Hotel Waterloo", "phone": "(877) 475-3946", "website": "https://islewaterloo.com/", "brand:wikidata": "Q18636524"}, "geometry": {"type": "Point", "coordinates": [-92.31044, 42.44865]}},
{"type": "Feature", "id": "lEvMCqh4lG85NC5AFJnPfJ3ES00=", "properties": {"ref": "ipb", "brand": "Caesars Entertainment", "@spider": "caesars", "addr:full": "777 Isle of Capri Circle, Pompano Beach, FL 33069", "addr:city": "Pompano Beach", "addr:state": "FL", "addr:postcode": "33069", "addr:country": "US", "name": "Isle Casino Pompano Park", "website": "https://www.islepompanopark.com/", "brand:wikidata": "Q18636524"}, "geometry": {"type": "Point", "coordinates": [-80.15136, 26.22135]}},
{"type": "Feature", "id": "pMixzMPLDogKDSGaK6NhjZeadME=", "properties": {"ref": "ibv", "brand": "Caesars Entertainment", "@spider": "caesars", "addr:full": "100 Isle of Capri Blvd", "addr:city": "Boonville", "addr:state": "MO", "addr:postcode": "65233", "addr:country": "US", "name": "Isle of Capri Casino Hotel Boonville", "phone": "(660) 882-1489", "website": "https://isleofcapriboonville.com/", "brand:wikidata": "Q18636524"}, "geometry": {"type": "Point", "coordinates": [-92.75, 38.97738]}},
{"type": "Feature", "id": "1Bs7FnM1k2WCJgnt1vXxIeZTqjY=", "properties": {"ref": "ilu", "brand": "Caesars Entertainment", "@spider": "caesars", "addr:full": "777 Isle of Capri Pkwy", "addr:city": "Lula", "addr:state": "MS", "addr:postcode": "38644", "addr:country": "US", "name": "Isle of Capri Casino Hotel Lula", "phone": "(610) 241-1627", "website": "https://isleofcaprilula.com/", "brand:wikidata": "Q18636524"}, "geometry": {"type": "Point", "coordinates": [-90.58059, 34.49833]}},
{"type": "Feature", "id": "oyIBnAkJ_uw2TUjU53V4LqvFLaY=", "properties": {"ref": "llb", "brand": "Caesars Entertainment", "@spider": "caesars", "addr:full": "340 Main St", "addr:city": "Black Hawk", "addr:state": "CO", "addr:postcode": "80422", "addr:country": "US", "name": "Lady Luck Casino Black Hawk", "phone": "(303) 998-7777", "website": "https://ladyluckblackhawk.com/", "brand:wikidata": "Q18636524"}, "geometry": {"type": "Point", "coordinates": [-105.48652, 39.79876]}},
{"type": "Feature", "id": "JaV3qSlqBgMX0kJ_yMNLUKLucL4=", "properties": {"ref": "xmc", "brand": "Caesars Entertainment", "@spider": "caesars", "addr:full": "One Arena Way", "addr:city": "Council Bluffs", "addr:state": "IA", "addr:postcode": "51501", "addr:country": "US", "name": "Mid-America Center", "phone": "712.323.0536", "website": "https://www.caesars.com/mid-america-center", "brand:wikidata": "Q18636524"}, "geometry": {"type": "Point", "coordinates": [95.8901, 41.2373]}},
{"type": "Feature", "id": "DItNkwKudUDwzdU-d5oC3Q80_tg=", "properties": {"ref": "cl1", "brand": "Caesars Entertainment", "@spider": "caesars", "addr:full": "3570 Las Vegas Boulevard South", "addr:city": "Las Vegas", "addr:state": "NV", "addr:postcode": "89109", "addr:country": "US", "name": "NOBU Hotel Las Vegas", "phone": "(800) 727-4923", "website": "https://www.caesars.com/nobu-caesars-palace/", "brand:wikidata": "Q18636524"}, "geometry": {"type": "Point", "coordinates": [-115.173969, 36.11517]}},
{"type": "Feature", "id": "PMQGOZ73ukewbLeQo3Qp3EUx4m0=", "properties": {"ref": "plv", "brand": "Caesars Entertainment", "@spider": "caesars", "addr:full": "3655 Las Vegas Boulevard South", "addr:city": "Las Vegas", "addr:state": "NV", "addr:postcode": "89109", "addr:country": "US", "name": "Paris Las Vegas", "phone": "(877) 796-2096", "website": "https://www.caesars.com/paris-las-vegas", "brand:wikidata": "Q18636524"}, "geometry": {"type": "Point", "coordinates": [-115.17129, 36.111957]}},
{"type": "Feature", "id": "umjhhf5WjI5IV8xvziJHXs846UI=", "properties": {"ref": "phv", "brand": "Caesars Entertainment", "@spider": "caesars", "addr:full": "3667 Las Vegas Boulevard South", "addr:city": "Las Vegas", "addr:state": "NV", "addr:postcode": "89109", "addr:country": "US", "name": "Planet Hollywood", "phone": "(866) 919-7472", "website": "https://www.caesars.com/planet-hollywood", "brand:wikidata": "Q18636524"}, "geometry": {"type": "Point", "coordinates": [-115.172414, 36.109747]}},
{"type": "Feature", "id": "A9EH7QSjrMZofG9ZTWqSQ0qaGvI=", "properties": {"ref": "rlv", "brand": "Caesars Entertainment", "@spider": "caesars", "addr:full": "3700 W. Flamingo Road", "addr:city": "Las Vegas", "addr:state": "NV", "addr:postcode": "89103", "addr:country": "US", "name": "Rio All-Suite Hotel & Casino", "phone": "(866) 746-7671", "website": "https://www.caesars.com/rio-las-vegas", "brand:wikidata": "Q18636524"}, "geometry": {"type": "Point", "coordinates": [-115.18723, 36.116384]}},
{"type": "Feature", "id": "ykcIamz7vfk3HZCk0IN4sAEd7Ic=", "properties": {"ref": "sil", "brand": "Caesars Entertainment", "@spider": "caesars", "addr:full": "407 N Virginia St", "addr:city": "Reno", "addr:state": "NV", "addr:postcode": "89501", "addr:country": "US", "name": "Silver Legacy Resort Casino", "phone": "(775) 329-4777", "website": "https://www.caesars.com/silver-legacy-reno", "brand:wikidata": "Q18636524"}, "geometry": {"type": "Point", "coordinates": [-119.81566, 39.53031]}},
{"type": "Feature", "id": "GDWC-CwwrG7B5SCvnrFf-AY1uCU=", "properties": {"ref": "dlv", "brand": "Caesars Entertainment", "@spider": "caesars", "addr:full": "3595 Las Vegas Blvd South", "addr:city": "Las Vegas", "addr:state": "NV", "addr:postcode": "89109", "addr:country": "US", "name": "The Cromwell", "phone": "(702) 777-3777", "website": "https://www.caesars.com/cromwell", "brand:wikidata": "Q18636524"}, "geometry": {"type": "Point", "coordinates": [-115.17185, 36.115105]}},
{"type": "Feature", "id": "pmTppWgi-9E4AaX3P8aDg5jnkFQ=", "properties": {"ref": "ilv", "brand": "Caesars Entertainment", "@spider": "caesars", "addr:full": "3535 Las Vegas Blvd South", "addr:city": "Las Vegas", "addr:state": "NV", "addr:postcode": "89109", "addr:country": "US", "name": "The LINQ Hotel + Experience", "phone": "1-800-634-6441", "website": "https://www.caesars.com/linq", "brand:wikidata": "Q18636524"}, "geometry": {"type": "Point", "coordinates": [-115.171894, 36.118045]}},
{"type": "Feature", "id": "cvPoI6MLm-4Kun278oeVadxew2s=", "properties": {"ref": "trw", "brand": "Caesars Entertainment", "@spider": "caesars", "addr:country": "US", "name": "The ROW", "website": "https://www.therowreno.com/", "brand:wikidata": "Q18636524"}, "geometry": {"type": "Point", "coordinates": [-119.814972, 39.530895]}},
{"type": "Feature", "id": "5agCmGVhkkCYEqx5YpKKEKfaMMU=", "properties": {"ref": "rcd", "brand": "Caesars Entertainment", "@spider": "caesars", "addr:country": "US", "name": "The Residences at Caesars Palace Dubai", "website": "https://www.caesars.com/dubai", "brand:wikidata": "Q18636524"}, "geometry": {"type": "Point", "coordinates": [55.12162, 25.082089]}},
{"type": "Feature", "id": "shWXKnwk71PS937_OA8ncGqQgNk=", "properties": {"ref": "tac", "brand": "Caesars Entertainment", "@spider": "caesars", "addr:full": "2831 Boardwalk", "addr:city": "Atlantic City", "addr:state": "NJ", "addr:postcode": "08401", "addr:country": "US", "name": "Tropicana Atlantic City", "phone": "(609) 340-4000", "website": "https://www.tropicana.net/", "brand:wikidata": "Q18636524"}, "geometry": {"type": "Point", "coordinates": [-74.44526, 39.35253]}},
{"type": "Feature", "id": "hfWJoBfhaYyyKESjsBE8Laj7lCQ=", "properties": {"ref": "tgv", "brand": "Caesars Entertainment", "@spider": "caesars", "addr:full": "199 N Lakefront Rd, Greenville, MS 38701", "addr:city": "Greenville", "addr:state": "MS", "addr:postcode": "38701", "addr:country": "US", "name": "Tropicana Greenville", "website": "https://www.tropgreenville.com/", "brand:wikidata": "Q18636524"}, "geometry": {"type": "Point", "coordinates": [-91.06402, 33.41539]}},
{"type": "Feature", "id": "YSm5DiWQlAN5BywHOCmXJRQSHw8=", "properties": {"ref": "tla", "brand": "Caesars Entertainment", "@spider": "caesars", "addr:full": "2121 S Casino Dr", "addr:city": "Laughlin", "addr:state": "NV", "addr:postcode": "89029", "addr:country": "US", "name": "Tropicana Laughlin", "phone": "(702) 298-4200", "website": "https://www.caesars.com/tropicana-laughlin", "brand:wikidata": "Q18636524"}, "geometry": {"type": "Point", "coordinates": [-114.57748, 35.15827]}}]}