{"type":"FeatureCollection","features":[{"type": "Feature", "id": "250ctSdTqjifW_U434Lqcl3olaE=", "properties": {"ref": "44", "@spider": "cafe_zupas", "addr:full": "7480 W Bell Rd", "addr:city": "Glendale ", "addr:state": "AZ", "addr:postcode": "85308", "name": "Arrowhead", "phone": "623-215-1495", "website": "https://cafezupas.com/locationcopy/info/arrowhead", "contact:facebook": "https://www.facebook.com/Cafe-Zupas-176133319797742", "opening_hours": "Mo-Th 11:00-21:00; Fr-Sa 11:00-22:00", "image": "https://cafezupas.com/Locations/44/location-44.webp", "brand": "Cafe Zupas"}, "geometry": {"type": "Point", "coordinates": [-112.2196334, 33.6400134]}},
{"type": "Feature", "id": "_clWEgRhGzokryzHJVUf_Wzu-PE=", "properties": {"ref": "62", "@spider": "cafe_zupas", "addr:full": "10265 West McDowell Rd.", "addr:city": "Avondale", "addr:state": "AZ", "addr:postcode": "85392", "name": "Avondale", "phone": "623-696-3894", "website": "https://cafezupas.com/locationcopy/info/avondale", "contact:facebook": "https://www.facebook.com/Cafe-Zupas-1605381316175362", "opening_hours": "Mo-Th 11:00-21:00; Fr-Sa 11:00-22:00", "image": "https://cafezupas.com/Locations/62/location-62.webp", "brand": "Cafe Zupas"}, "geometry": {"type": "Point", "coordinates": [-112.2799893, 33.4643227]}},
{"type": "Feature", "id": "4VRd-YjF_RyYMC6xJ6vA-Xhqzh4=", "properties": {"ref": "26", "@spider": "cafe_zupas", "addr:full": "1935 East Camelback Road", "addr:city": "Phoenix", "addr:state": "AZ", "addr:postcode": "85016", "name": "Camelback", "phone": "602-889-7866", "website": "https://cafezupas.com/locationcopy/info/camelback", "contact:facebook": "https://www.facebook.com/Cafe-Zupas-367037493724401", "opening_hours": "Mo-Th 11:00-21:00; Fr-Sa 11:00-22:00", "image": "https://cafezupas.com/Locations/26/location-26.webp", "brand": "Cafe Zupas"}, "geometry": {"type": "Point", "coordinates": [-112.0414425, 33.5089481]}},
{"type": "Feature", "id": "adfpFG5olecs0aPKybwIWu15yCQ=", "properties": {"ref": "50", "@spider": "cafe_zupas", "addr:full": "3305 W. Chandler Blvd #8", "addr:city": "Chandler", "addr:state": "AZ", "addr:postcode": "85226", "name": "Chandler", "phone": "602-283-7006", "website": "https://cafezupas.com/locationcopy/info/chandler", "contact:facebook": "https://www.facebook.com/Cafe-Zupas-1752956341404939", "opening_hours": "Mo-Th 11:00-21:00; Fr-Sa 11:00-22:00", "image": "https://cafezupas.com/Locations/50/location-50.webp", "brand": "Cafe Zupas"}, "geometry": {"type": "Point", "coordinates": [-111.8983593, 33.3047757]}},
{"type": "Feature", "id": "4-vIzX6rhCvdAewxkZmGK4uUqSw=", "properties": {"ref": "30", "@spider": "cafe_zupas", "addr:full": "3420 East Baseline Road #107", "addr:city": "Mesa", "addr:state": "AZ", "addr:postcode": "85204", "name": "Dana Park", "phone": "623-455-5630", "website": "https://cafezupas.com/locationcopy/info/dana-park", "opening_hours": "Mo-Th 11:00-21:00; Fr-Sa 11:00-22:00", "image": "https://cafezupas.com/Locations/30/location-30.webp", "brand": "Cafe Zupas"}, "geometry": {"type": "Point", "coordinates": [-111.7571343, 33.3796537]}},
{"type": "Feature", "id": "c_oMGNQtSKhHk2hfpk93tQymY2k=", "properties": {"ref": "27", "@spider": "cafe_zupas", "addr:full": "21001 North Tatum Boulevard", "addr:city": "Phoenix", "addr:state": "AZ", "addr:postcode": "85050", "name": "Desert Ridge", "phone": "480-339-8038", "website": "https://cafezupas.com/locationcopy/info/desert-ridge", "contact:facebook": "https://www.facebook.com/Cafe-Zupas-101237844005037", "opening_hours": "Mo-Th 11:00-21:00; Fr-Sa 11:00-22:00", "image": "https://cafezupas.com/Locations/27/location-27.webp", "brand": "Cafe Zupas"}, "geometry": {"type": "Point", "coordinates": [-111.97447, 33.6742826]}},
{"type": "Feature", "id": "xcltlzuD5m9kpFOz-bVj1wQZmp0=", "properties": {"ref": "53", "@spider": "cafe_zupas", "addr:full": "3877 S. Gilbert Rd.", "addr:city": "Gilbert", "addr:state": "AZ", "addr:postcode": "85297", "name": "Gilbert", "phone": "480-465-5004", "website": "https://cafezupas.com/locationcopy/info/gilbert", "contact:facebook": "https://www.facebook.com/Cafe-Zupas-1552878088095374", "opening_hours": "Mo-Th 11:00-21:00; Fr-Sa 11:00-22:00", "image": "https://cafezupas.com/Locations/53/location-53.webp", "brand": "Cafe Zupas"}, "geometry": {"type": "Point", "coordinates": [-111.7884351, 33.2796572]}},
{"type": "Feature", "id": "oixFGUB4uCFFlhip-KJW73xQy58=", "properties": {"ref": "37", "@spider": "cafe_zupas", "addr:full": "2510 W. Happy Valley Rd.", "addr:city": "Phoenix", "addr:state": "AZ", "addr:postcode": "85085", "name": "Norterra", "phone": "480-447-9375", "website": "https://cafezupas.com/locationcopy/info/norterra", "contact:facebook": "https://www.facebook.com/Cafe-Zupas-1999963803617221", "opening_hours": "Mo-Th 11:00-21:00; Fr-Sa 11:00-22:00", "image": "https://cafezupas.com/Locations/37/location-37.webp", "brand": "Cafe Zupas"}, "geometry": {"type": "Point", "coordinates": [-112.1136975, 33.7150946]}},
{"type": "Feature", "id": "x5T0HInDSu5xL1spukNH0AGwYWw=", "properties": {"ref": "55", "@spider": "cafe_zupas", "addr:full": "129 Broadway St.", "addr:city": "Boise", "addr:state": "ID", "addr:postcode": "83702", "name": "Boise Downtown", "phone": "208-401-1414", "website": "https://cafezupas.com/locationcopy/info/boise-downtown", "contact:facebook": "https://www.facebook.com/Cafe-Zupas-1786101221413975", "opening_hours": "Mo-Th 11:00-21:00; Fr-Sa 11:00-22:00", "image": "https://cafezupas.com/Locations/55/location-55.webp", "brand": "Cafe Zupas"}, "geometry": {"type": "Point", "coordinates": [-116.1939154, 43.6099011]}},
{"type": "Feature", "id": "x8K1ytC4LUJ_ZkoaQ8WDF3ay2Hw=", "properties": {"ref": "52", "@spider": "cafe_zupas", "addr:full": "600 N. Milwaukee St.", "addr:city": "Boise", "addr:state": "ID", "addr:postcode": "83704", "name": "Boise Mall", "phone": "208-319-1295", "website": "https://cafezupas.com/locationcopy/info/boise-mall", "contact:facebook": "https://www.facebook.com/Cafe-Zupas-205785669966105", "opening_hours": "Mo-Th 11:00-21:00; Fr-Sa 11:00-22:00", "image": "https://cafezupas.com/Locations/52/location-52.webp", "brand": "Cafe Zupas"}, "geometry": {"type": "Point", "coordinates": [-116.2838307, 43.6105313]}},
{"type": "Feature", "id": "APEixOtgecSK2wfNCyNqkExqAko=", "properties": {"ref": "48", "@spider": "cafe_zupas", "addr:full": "2148 N. Eagle Road", "addr:city": "Meridian", "addr:state": "ID", "addr:postcode": "83646", "name": "Meridian", "phone": "208-401-2155", "website": "https://cafezupas.com/locationcopy/info/meridian", "contact:facebook": "https://www.facebook.com/Cafe-Zupas-397684384000089", "opening_hours": "Mo-Th 11:00-21:00; Fr-Sa 11:00-22:00", "image": "https://cafezupas.com/Locations/48/location-48.webp", "brand": "Cafe Zupas"}, "geometry": {"type": "Point", "coordinates": [-116.3537043, 43.6246145]}},
{"type": "Feature", "id": "gRut5M0GLoBY9hLO1ol9uKMdxXo=", "properties": {"ref": "61", "@spider": "cafe_zupas", "addr:full": "1709 Caldwell Blvd.", "addr:city": "Nampa", "addr:state": "ID", "addr:postcode": "83651", "name": "Nampa", "phone": "208-318-0115", "website": "https://cafezupas.com/locationcopy/info/nampa", "contact:facebook": "https://www.facebook.com/Cafe-Zupas-905143526320362", "opening_hours": "Mo-Th 11:00-21:00; Fr-Sa 11:00-22:00", "image": "https://cafezupas.com/Locations/61/location-61.webp", "brand": "Cafe Zupas"}, "geometry": {"type": "Point", "coordinates": [-116.6021681, 43.6045482]}},
{"type": "Feature", "id": "z7XNegHWKZ1CqhO5CGy6Hk1eLEA=", "properties": {"ref": "69", "@spider": "cafe_zupas", "addr:full": "148 S. Gary Ave.", "addr:city": "Bloomingdale", "addr:state": "IL", "addr:postcode": "60108", "name": "Bloomingdale", "phone": "630-259-4131", "website": "https://cafezupas.com/locationcopy/info/bloomingdale", "contact:facebook": "https://www.facebook.com/Cafe-Zupas-714291728779821", "opening_hours": "Mo-Th 11:00-21:00; Fr-Sa 11:00-22:00", "image": "https://cafezupas.com/Locations/69/location-69.webp", "brand": "Cafe Zupas"}, "geometry": {"type": "Point", "coordinates": [-88.1211688, 41.9510156]}},
{"type": "Feature", "id": "sh2G4pjVwd_Fy2cuovpT-yHHe98=", "properties": {"ref": "84", "@spider": "cafe_zupas", "addr:full": "711 Deerfield Road, Unit C", "addr:city": "Deerfield", "addr:state": "IL", "addr:postcode": "60015", "name": "Deerfield", "phone": "224-551-6001", "website": "https://cafezupas.com/locationcopy/info/deerfield", "contact:facebook": "https://www.facebook.com/pages/Cafe-Zupas/2097768593675021?_fb_noscript=1", "opening_hours": "Mo-Th 11:00-21:00; Fr-Sa 11:00-22:00", "image": "https://cafezupas.com/Locations/84/location-84.webp", "brand": "Cafe Zupas"}, "geometry": {"type": "Point", "coordinates": [-87.8464958, 42.1671042]}},
{"type": "Feature", "id": "zvn0Fz8f366AWZDYpzgJf27A94I=", "properties": {"ref": "73", "@spider": "cafe_zupas", "addr:full": "20413 N. Rand Rd, Suite 101", "addr:city": "Killdeer", "addr:state": "IL", "addr:postcode": "60074", "name": "Kildeer", "phone": "847-719-9019", "website": "https://cafezupas.com/locationcopy/info/kildeer", "contact:facebook": "https://www.facebook.com/Cafe-Zupas-133752493984494", "opening_hours": "Mo-Th 11:00-21:00; Fr-Sa 11:00-22:00", "image": "https://cafezupas.com/Locations/73/location-73.webp", "brand": "Cafe Zupas"}, "geometry": {"type": "Point", "coordinates": [-88.0462804, 42.1595605]}},
{"type": "Feature", "id": "W3eL3FGcma6o29lGgO-jLhnVzZI=", "properties": {"ref": "65", "@spider": "cafe_zupas", "addr:full": "1422 E. Golf Rd.", "addr:city": "Schaumburg", "addr:state": "IL", "addr:postcode": "60173", "name": "Schaumburg", "phone": "630-259-4062", "website": "https://cafezupas.com/locationcopy/info/schaumburg", "contact:facebook": "https://www.facebook.com/Cafe-Zupas-137602746953515", "opening_hours": "Mo-Th 11:00-21:00; Fr-Sa 11:00-22:00", "image": "https://cafezupas.com/Locations/65/location-65.webp", "brand": "Cafe Zupas"}, "geometry": {"type": "Point", "coordinates": [-88.0429218, 42.0509032]}},
{"type": "Feature", "id": "cZgicWzHdpiAhiG6l4l715ANPDM=", "properties": {"ref": "85", "@spider": "cafe_zupas", "addr:full": "887 N. Milwaukee Ave.", "addr:city": "Vernon Hills", "addr:state": "IL", "addr:postcode": "60061", "name": "Vernon Hills", "phone": "847-281-5608", "website": "https://cafezupas.com/locationcopy/info/vernon-hills", "contact:facebook": "https://www.facebook.com/Cafe-Zupas-450566235483553", "opening_hours": "Mo-Th 11:00-21:00; Fr-Sa 11:00-22:00", "image": "https://cafezupas.com/Locations/85/location-85.webp", "brand": "Cafe Zupas"}, "geometry": {"type": "Point", "coordinates": [-87.9443175, 42.2424252]}},
{"type": "Feature", "id": "RXsYDxDsQVthvLlN1Az-FTMVI-8=", "properties": {"ref": "67", "@spider": "cafe_zupas", "addr:full": "1590 E. Lake Cook Rd.", "addr:city": "Wheeling", "addr:state": "IL", "addr:postcode": "60089", "name": "Wheeling", "phone": "847-777-0526", "website": "https://cafezupas.com/locationcopy/info/wheeling", "contact:facebook": "https://www.facebook.com/Cafe-Zupas-733042343559892", "opening_hours": "Mo-Th 11:00-21:00; Fr-Sa 11:00-22:00", "image": "https://cafezupas.com/Locations/67/location-67.webp", "brand": "Cafe Zupas"}, "geometry": {"type": "Point", "coordinates": [-87.9542717, 42.1545675]}},
{"type": "Feature", "id": "uwKAO1gZjZMSVzQS-_8vSwSutNE=", "properties": {"ref": "99", "@spider": "cafe_zupas", "addr:full": "3582 Main Street Northwest, Coon Rapids, MN, USA", "addr:city": "Coon Rapids", "addr:state": "MN", "addr:postcode": "55448", "name": "Coon Rapids", "phone": "801-878-4536", "website": "https://cafezupas.com/locationcopy/info/coon-rapids", "opening_hours": "Mo-Th 10:30-21:00; Fr-Sa 10:30-22:00", "image": "https://cafezupas.com/Locations/99/location-99.webp", "brand": "Cafe Zupas"}, "geometry": {"type": "Point", "coordinates": [-93.3187953, 45.197591]}},
{"type": "Feature", "id": "ZDBUvmF5RS-zPdzfCmsziKy1ybY=", "properties": {"ref": "68", "@spider": "cafe_zupas", "addr:full": "3340 Central Park Village Dr.", "addr:city": "Eagan", "addr:state": "MN", "addr:postcode": "55121", "name": "Eagan", "phone": "763-412-1514", "website": "https://cafezupas.com/locationcopy/info/eagan", "contact:facebook": "https://www.facebook.com/Cafe-Zupas-969948763155113", "opening_hours": "Mo-Th 11:00-21:00; Fr-Sa 11:00-22:00", "image": "https://cafezupas.com/Locations/68/location-68.webp", "brand": "Cafe Zupas"}, "geometry": {"type": "Point", "coordinates": [-93.1697688, 44.836463]}},
{"type": "Feature", "id": "SHpwKlSA-xsgrisaOmmoA00W9c4=", "properties": {"ref": "66", "@spider": "cafe_zupas", "addr:full": "13000 Technology Dr.", "addr:city": "Eden Prairie", "addr:state": "MN", "addr:postcode": "55344", "name": "Eden Prairie", "phone": "651-468-0340", "website": "https://cafezupas.com/locationcopy/info/eden-prairie", "contact:facebook": "https://www.facebook.com/Cafe-Zupas-517212751985284", "opening_hours": "Mo-Th 11:00-21:00; Fr-Sa 11:00-22:00", "image": "https://cafezupas.com/Locations/66/location-66.webp", "brand": "Cafe Zupas"}, "geometry": {"type": "Point", "coordinates": [-93.441868, 44.8592367]}},
{"type": "Feature", "id": "kRxJFKochgQXdlJiNxCBFywzyAc=", "properties": {"ref": "77", "@spider": "cafe_zupas", "addr:full": "2950 W. 66th St", "addr:city": "Edina", "addr:state": "MN", "addr:postcode": "55423", "name": "Edina", "phone": "612-568-1407", "website": "https://cafezupas.com/locationcopy/info/edina", "contact:facebook": "https://www.facebook.com/Cafe-Zupas-125237671638612", "opening_hours": "Mo-Th 11:00-21:00; Fr-Sa 11:00-22:00", "image": "https://cafezupas.com/Locations/77/location-77.webp", "brand": "Cafe Zupas"}, "geometry": {"type": "Point", "coordinates": [-93.3183676, 44.8848898]}},
{"type": "Feature", "id": "B329e8VZRNoYTuHMlHqI89MH1nw=", "properties": {"ref": "74", "@spider": "cafe_zupas", "addr:full": "1858 E 66th Street", "addr:city": "Richfield", "addr:state": "MN", "addr:postcode": "55423", "name": "Richfield", "phone": "612-568-1400", "website": "https://cafezupas.com/locationcopy/info/richfield", "contact:facebook": "https://www.facebook.com/Cafe-Zupas-856049747902881", "opening_hours": "Mo-Th 11:00-21:00; Fr-Sa 11:00-22:00", "image": "https://cafezupas.com/Locations/74/location-74.webp", "brand": "Cafe Zupas"}, "geometry": {"type": "Point", "coordinates": [-93.2479523, 44.883988]}},
{"type": "Feature", "id": "8mhx5t9Iz4gv0dh8yG3dAEQwzC8=", "properties": {"ref": "79", "@spider": "cafe_zupas", "addr:full": "12415 Wayzata Blvd. Suite #14", "addr:city": "Minnetonka", "addr:state": "MN", "addr:postcode": "55305", "name": "Ridgedale", "phone": "651-435-8470", "website": "https://cafezupas.com/locationcopy/info/ridgedale", "opening_hours": "Mo-Th 11:00-21:00; Fr-Sa 11:00-22:00", "image": "https://cafezupas.com/Locations/79/location-79.webp", "brand": "Cafe Zupas"}, "geometry": {"type": "Point", "coordinates": [-93.4413873, 44.9698243]}},
{"type": "Feature", "id": "4tW3Caab4w8TAOCkGAaHuMC7-mY=", "properties": {"ref": "51", "@spider": "cafe_zupas", "addr:full": "365 Radio Drive Suite E", "addr:city": "Woodbury", "addr:state": "MN", "addr:postcode": "55125", "name": "Woodbury", "phone": "763-277-4521", "website": "https://cafezupas.com/locationcopy/info/woodbury", "contact:facebook": "https://www.facebook.com/pages/Cafe-Zupas/166598330608022?_fb_noscript=1", "opening_hours": "Mo-Th 11:00-21:00; Fr-Sa 11:00-22:00", "image": "https://cafezupas.com/Locations/51/location-51.webp", "brand": "Cafe Zupas"}, "geometry": {"type": "Point", "coordinates": [-92.9321492, 44.9423211]}},
{"type": "Feature", "id": "Wk61VtIq-TBQRjD5OAXpq_9rRMI=", "properties": {"ref": "115", "@spider": "cafe_zupas", "addr:full": "4790 Blue Diamond Rd, Las Vegas, NV, USA", "addr:city": "Las Vegas", "addr:state": "NV", "addr:postcode": "89139", "name": "Blue Diamond", "phone": "702-936-8500", "website": "https://cafezupas.com/locationcopy/info/blue-diamond", "opening_hours": "Mo-Th 11:00-21:00; Fr-Sa 11:00-22:00", "image": "https://cafezupas.com/Locations/115/location-115.webp", "brand": "Cafe Zupas"}, "geometry": {"type": "Point", "coordinates": [-115.206118, 36.0334672]}},
{"type": "Feature", "id": "DbO8ddVGLtZuvgizR36pSvQHUHs=", "properties": {"ref": "64", "@spider": "cafe_zupas", "addr:full": "8850 W. Charleston Blvd", "addr:city": "Las Vegas", "addr:state": "NV", "addr:postcode": "89117", "name": "Boca Park", "phone": "702-570-4185", "website": "https://cafezupas.com/locationcopy/info/boca-park", "contact:facebook": "https://www.facebook.com/pages/Cafe-Zupas/1460602913993925?_fb_noscript=1", "opening_hours": "Mo-Th 11:00-21:00; Fr-Sa 11:00-22:00", "image": "https://cafezupas.com/Locations/64/location-64.webp", "brand": "Cafe Zupas"}, "geometry": {"type": "Point", "coordinates": [-115.2886202, 36.1594764]}},
{"type": "Feature", "id": "rQEyVdCMO51ikr4jIrjxBboHy8A=", "properties": {"ref": "81", "@spider": "cafe_zupas", "addr:full": "5758 Centennial Blvd.", "addr:city": "Las Vegas", "addr:state": "NV", "addr:postcode": "89149", "name": "Centennial", "phone": "702-560-6806", "website": "https://cafezupas.com/locationcopy/info/centennial", "contact:facebook": "https://www.facebook.com/Cafe-Zupas-179566956304303", "opening_hours": "Mo-Th 11:00-21:00; Fr-Sa 11:00-22:00", "image": "https://cafezupas.com/Locations/81/location-81.webp", "brand": "Cafe Zupas"}, "geometry": {"type": "Point", "coordinates": [-115.2591755, 36.2656632]}},
{"type": "Feature", "id": "6wqWCp9jqFFSiO3_HZItOGKtjK0=", "properties": {"ref": "34", "@spider": "cafe_zupas", "addr:full": "9460 South Eastern Avenue", "addr:city": "Henderson", "addr:state": "NV", "addr:postcode": "89123", "name": "Eastern", "phone": "702-763-6415", "website": "https://cafezupas.com/locationcopy/info/eastern", "contact:facebook": "https://www.facebook.com/Cafe-Zupas-199763653931155", "opening_hours": "Mo-Th 11:00-21:00; Fr-Sa 11:00-22:00", "image": "https://cafezupas.com/Locations/34/location-34.webp", "brand": "Cafe Zupas"}, "geometry": {"type": "Point", "coordinates": [-115.118275, 36.0176457]}},
{"type": "Feature", "id": "uZxk5VGaSRJVVauDtUSpqPltYu4=", "properties": {"ref": "36", "@spider": "cafe_zupas", "addr:full": "7521 West Lake Mead Blvd.", "addr:city": "Las Vegas", "addr:state": "NV", "addr:postcode": "89128", "name": "Lake Mead", "phone": "702-763-6550", "website": "https://cafezupas.com/locationcopy/info/lake-mead", "contact:facebook": "https://www.facebook.com/Cafe-Zupas-152642855506432", "opening_hours": "Mo-Th 11:00-21:00; Fr-Sa 11:00-22:00", "image": "https://cafezupas.com/Locations/36/location-36.webp", "brand": "Cafe Zupas"}, "geometry": {"type": "Point", "coordinates": [-115.2577815, 36.195653]}},
{"type": "Feature", "id": "NO1q1BYZLhSAT9ENdkqmgy-s8PY=", "properties": {"ref": "56", "@spider": "cafe_zupas", "addr:full": "7060 S Rainbow Blvd.", "addr:city": "Las Vegas", "addr:state": "NV", "addr:postcode": "89118", "name": "Rainbow", "phone": "702-936-7200", "website": "https://cafezupas.com/locationcopy/info/rainbow", "contact:facebook": "https://www.facebook.com/Cafe-Zupas-137088570339531", "opening_hours": "Mo-Th 11:00-21:00; Fr-Sa 11:00-22:00", "image": "https://cafezupas.com/Locations/56/location-56.webp", "brand": "Cafe Zupas"}, "geometry": {"type": "Point", "coordinates": [-115.2416664, 36.0602826]}},
{"type": "Feature", "id": "I7vDD7dU-6-6rYUNFpyHgGz6Bf0=", "properties": {"ref": "45", "@spider": "cafe_zupas", "addr:full": "1381 West Sunset Road", "addr:city": "Las Vegas", "addr:state": "NV", "addr:postcode": "89014", "name": "Stephanie", "phone": "702-978-4444", "website": "https://cafezupas.com/locationcopy/info/stephanie", "opening_hours": "Mo-Th 11:00-21:00; Fr-Sa 11:00-22:00", "image": "https://cafezupas.com/Locations/45/location-45.webp", "brand": "Cafe Zupas"}, "geometry": {"type": "Point", "coordinates": [-115.1731257, 36.0710314]}},
{"type": "Feature", "id": "suYu14K-4fI0UsF4Q4TW_8GBunY=", "properties": {"ref": "76", "@spider": "cafe_zupas", "addr:full": "4226 Easton Loop W", "addr:city": "Easton", "addr:state": "OH", "addr:postcode": "43219", "name": "Easton", "phone": "614-405-9703", "website": "https://cafezupas.com/locationcopy/info/easton", "contact:facebook": "https://www.facebook.com/Cafe-Zupas-176610749593722", "opening_hours": "Mo-Th 11:00-21:00; Fr-Sa 11:00-22:00", "image": "https://cafezupas.com/Locations/76/location-76.webp", "brand": "Cafe Zupas"}, "geometry": {"type": "Point", "coordinates": [-82.916711, 40.0542619]}},
{"type": "Feature", "id": "3hpAmOwa4aEPC1xjCo6kEek4NDk=", "properties": {"ref": "20", "@spider": "cafe_zupas", "addr:full": "599 West Main Street", "addr:city": "American Fork", "addr:state": "UT", "addr:postcode": "84003", "name": "American Fork", "phone": "801-216-8148", "website": "https://cafezupas.com/locationcopy/info/american-fork", "contact:facebook": "https://www.facebook.com/Cafe-Zupas-161572197927242", "opening_hours": "Mo-Th 11:00-21:00; Fr-Sa 11:00-22:00", "image": "https://cafezupas.com/Locations/20/location-20.webp", "brand": "Cafe Zupas"}, "geometry": {"type": "Point", "coordinates": [-111.8142632, 40.3766922]}},
{"type": "Feature", "id": "aw9SVtb4YwzFlUUWetFAa6gpkSw=", "properties": {"ref": "72", "@spider": "cafe_zupas", "addr:full": "2600 South Wild Cat Way", "addr:city": "Woods Cross", "addr:state": "UT", "addr:postcode": "84087", "name": "Bountiful", "phone": "385-489-8996", "website": "https://cafezupas.com/locationcopy/info/bountiful", "opening_hours": "Mo-Th 11:00-21:00; Fr-Sa 11:00-22:00", "image": "https://cafezupas.com/Locations/72/location-72.webp", "brand": "Cafe Zupas"}, "geometry": {"type": "Point", "coordinates": [-111.8993609, 40.861427]}},
{"type": "Feature", "id": "LyopV3GZ4H6Pjdzr30YhJddCxYY=", "properties": {"ref": "39", "@spider": "cafe_zupas", "addr:full": "11463 South District Main Dr. #500", "addr:city": "South Jordan", "addr:state": "UT", "addr:postcode": "84095", "name": "District", "phone": "801-727-7860", "website": "https://cafezupas.com/locationcopy/info/district", "contact:facebook": "https://www.facebook.com/Cafe-Zupas-154896898480135", "opening_hours": "Mo-Th 11:00-21:00; Fr-Sa 11:00-22:00", "image": "https://cafezupas.com/Locations/39/location-39.webp", "brand": "Cafe Zupas"}, "geometry": {"type": "Point", "coordinates": [-111.9803922, 40.542309]}},
{"type": "Feature", "id": "2DGjAxyyHei3M1ljXtJTrsaw0Sk=", "properties": {"ref": "31", "@spider": "cafe_zupas", "addr:full": "613 East 400 South", "addr:city": "Salt Lake City", "addr:state": "UT", "addr:postcode": "84102", "name": "Downtown", "phone": "801-746-0138", "website": "https://cafezupas.com/locationcopy/info/downtown", "opening_hours": "Mo-Th 11:00-21:00; Fr-Sa 11:00-22:00", "image": "https://cafezupas.com/Locations/31/location-31.webp", "brand": "Cafe Zupas"}, "geometry": {"type": "Point", "coordinates": [-111.8733471, 40.7616341]}},
{"type": "Feature", "id": "5fIdTXvZxWgKhYLZLVoGeLBtEi0=", "properties": {"ref": "15", "@spider": "cafe_zupas", "addr:full": "75 East 12300 South", "addr:city": "Draper", "addr:state": "UT", "addr:postcode": "84020", "name": "Draper", "phone": "801-542-7020", "website": "https://cafezupas.com/locationcopy/info/draper", "contact:facebook": "https://www.facebook.com/Cafe-Zupas-541289439563834", "opening_hours": "Mo-Th 11:00-21:00; Fr-Sa 11:00-22:00", "image": "https://cafezupas.com/Locations/15/location-15.webp", "brand": "Cafe Zupas"}, "geometry": {"type": "Point", "coordinates": [-111.889137, 40.5294664]}},
{"type": "Feature", "id": "hDnibyCjb_DUZB_8ahkgw2LGfK0=", "properties": {"ref": "17", "@spider": "cafe_zupas", "addr:full": "262 North Central Avenue", "addr:city": "Farmington", "addr:state": "UT", "addr:postcode": "84025", "name": "Farmington", "phone": "801-451-1276", "website": "https://cafezupas.com/locationcopy/info/farmington", "contact:facebook": "https://www.facebook.com/Cafe-Zupas-392256647892794", "opening_hours": "Mo-Th 11:00-21:00; Fr-Sa 11:00-22:00", "image": "https://cafezupas.com/Locations/17/location-17.webp", "brand": "Cafe Zupas"}, "geometry": {"type": "Point", "coordinates": [-111.9062542, 40.985316]}},
{"type": "Feature", "id": "TZyHxKq20qbN2A5g30X29DbUERo=", "properties": {"ref": "19", "@spider": "cafe_zupas", "addr:full": "1400 East Fort Union Blvd.", "addr:city": "Cottonwood Heights", "addr:state": "UT", "addr:postcode": "84121", "name": "Fort Union", "phone": "801-944-0500", "website": "https://cafezupas.com/locationcopy/info/fort-union", "opening_hours": "Mo-Th 11:00-21:00; Fr-Sa 11:00-22:00", "image": "https://cafezupas.com/Locations/19/location-19.webp", "brand": "Cafe Zupas"}, "geometry": {"type": "Point", "coordinates": [-111.8524251, 40.6254878]}},
{"type": "Feature", "id": "dpfan_ytsnczQTjdzHVl4W0YuNA=", "properties": {"ref": "92", "@spider": "cafe_zupas", "addr:full": "1270 E 3500 N Lehi", "addr:city": "Utah County", "addr:state": "UT", "addr:postcode": "84043", "name": "Highland", "phone": "385-352-8333", "website": "https://cafezupas.com/locationcopy/info/highland", "opening_hours": "Mo-Th 11:00-21:00; Fr-Sa 11:00-22:00", "image": "https://cafezupas.com/Locations/92/location-92.webp", "brand": "Cafe Zupas"}, "geometry": {"type": "Point", "coordinates": [-111.82927, 40.43114]}},
{"type": "Feature", "id": "jyVc4bQ0SXE8GL8sodS70bw9-mE=", "properties": {"ref": "25", "@spider": "cafe_zupas", "addr:full": "7632 South Campus View Drive", "addr:city": "West Jordan", "addr:state": "UT", "addr:postcode": "84084", "name": "Jordan Landing", "phone": "801-282-2233", "website": "https://cafezupas.com/locationcopy/info/jordan-landing", "contact:facebook": "https://www.facebook.com/Cafe-Zupas-156308238429454", "opening_hours": "Mo-Th 11:00-21:00; Fr-Sa 11:00-22:00", "image": "https://cafezupas.com/Locations/25/location-25.webp", "brand": "Cafe Zupas"}, "geometry": {"type": "Point", "coordinates": [-111.9805377, 40.6123039]}},
{"type": "Feature", "id": "x4-TxNkhggF985XdUfPgD_fusD8=", "properties": {"ref": "38", "@spider": "cafe_zupas", "addr:full": "1626 Uinta Way, Suite A1", "addr:city": "Kimball Junction", "addr:state": "UT", "addr:postcode": "84098", "name": "Kimball Junction", "phone": "435-649-9510", "website": "https://cafezupas.com/locationcopy/info/kimball-junction", "contact:facebook": "https://www.facebook.com/Cafe-Zupas-1385369151573184", "opening_hours": "Mo-Th 11:00-21:00; Fr-Sa 11:00-22:00", "image": "https://cafezupas.com/Locations/38/location-38.webp", "brand": "Cafe Zupas"}, "geometry": {"type": "Point", "coordinates": [-111.5418928, 40.722006]}},
{"type": "Feature", "id": "KcGQ0iET213Flgd1GZRd0q2Iz-g=", "properties": {"ref": "43", "@spider": "cafe_zupas", "addr:full": "3750 N Thanksgiving Way #100", "addr:city": "Lehi", "addr:state": "UT", "addr:postcode": "84043", "name": "Lehi", "phone": "801-753-5200", "website": "https://cafezupas.com/locationcopy/info/lehi", "contact:facebook": "https://www.facebook.com/Cafe-Zupas-1079971408772414", "opening_hours": "Mo-Th 11:00-21:00; Fr-Sa 11:00-22:00", "image": "https://cafezupas.com/Locations/43/location-43.webp", "brand": "Cafe Zupas"}, "geometry": {"type": "Point", "coordinates": [-111.8947263, 40.4340978]}},
{"type": "Feature", "id": "S4AI8WcDpSDVpKCCvaYaZWwjEjM=", "properties": {"ref": "89", "@spider": "cafe_zupas", "addr:full": "3215 East 3300 South, Millcreek, UT, USA", "addr:city": "Salt Lake County", "addr:state": "UT", "addr:postcode": "84109", "name": "Millcreek", "phone": "385-297-9730", "website": "https://cafezupas.com/locationcopy/info/millcreek", "opening_hours": "Mo-Th 11:00-21:00; Fr-Sa 11:00-22:00", "image": "https://cafezupas.com/Locations/89/location-89.webp", "brand": "Cafe Zupas"}, "geometry": {"type": "Point", "coordinates": [-111.8640131, 40.6998809]}},
{"type": "Feature", "id": "z-hScjuCcW0j_WvAl_A7X9yUq4I=", "properties": {"ref": "60", "@spider": "cafe_zupas", "addr:full": "5157 South State St.", "addr:city": "Murray", "addr:state": "UT", "addr:postcode": "84107", "name": "Murray", "phone": "801-713-0387", "website": "https://cafezupas.com/locationcopy/info/murray", "contact:facebook": "https://www.facebook.com/Cafe-Zupas-1985118021801240", "opening_hours": "Mo-Th 11:00-21:00; Fr-Sa 11:00-22:00", "image": "https://cafezupas.com/Locations/60/location-60.webp", "brand": "Cafe Zupas"}, "geometry": {"type": "Point", "coordinates": [-111.8882136, 40.6650988]}},
{"type": "Feature", "id": "Leej65oBzrB3H9ngFKDKSIwOt_Q=", "properties": {"ref": "80", "@spider": "cafe_zupas", "addr:full": "1293 Wall Ave.", "addr:city": "Ogden", "addr:state": "UT", "addr:postcode": "84404", "name": "Ogden", "phone": "801-823-8500", "website": "https://cafezupas.com/locationcopy/info/ogden", "opening_hours": "Mo-Th 11:00-21:00; Fr-Sa 11:00-22:00", "image": "https://cafezupas.com/Locations/80/location-80.webp", "brand": "Cafe Zupas"}, "geometry": {"type": "Point", "coordinates": [-111.9788444, 41.2429391]}},
{"type": "Feature", "id": "_XfZW_1EkqQRW5CPpHOPFRyVvAo=", "properties": {"ref": "23", "@spider": "cafe_zupas", "addr:full": "55 South State Street", "addr:city": "Orem", "addr:state": "UT", "addr:postcode": "84057", "name": "Orem", "phone": "801-221-7648", "website": "https://cafezupas.com/locationcopy/info/orem", "opening_hours": "Mo-Th 11:00-21:00; Fr-Sa 11:00-22:00", "image": "https://cafezupas.com/Locations/23/location-23.webp", "brand": "Cafe Zupas"}, "geometry": {"type": "Point", "coordinates": [-111.6943437, 40.2958841]}},
{"type": "Feature", "id": "-Q9qYvIB8p1xWsUqYa-G8astekM=", "properties": {"ref": "18", "@spider": "cafe_zupas", "addr:full": "408 West 2230 North", "addr:city": "Sandy", "addr:state": "UT", "addr:postcode": "84094", "name": "Provo", "phone": "801-377-7687", "website": "https://cafezupas.com/locationcopy/info/provo", "contact:facebook": "https://www.facebook.com/Cafe-Zupas-195915417648574", "opening_hours": "Mo-Th 11:00-21:00; Fr-Sa 11:00-22:00", "image": "https://cafezupas.com/Locations/18/location-18.webp", "brand": "Cafe Zupas"}, "geometry": {"type": "Point", "coordinates": [-111.6667588, 40.2639016]}},
{"type": "Feature", "id": "4fJsPG61-EK2aAD2_7WC5IPIaJ4=", "properties": {"ref": "12", "@spider": "cafe_zupas", "addr:full": "9242 South Village Shop Drive", "addr:city": "Sandy", "addr:state": "UT", "addr:postcode": "84094", "name": "Quarry Bend", "phone": "385-212-2612", "website": "https://cafezupas.com/locationcopy/info/quarry-bend", "contact:facebook": "https://www.facebook.com/Cafe-Zupas-195915417648574", "opening_hours": "Mo-Th 11:00-21:00; Fr-Sa 11:00-22:00", "image": "https://cafezupas.com/Locations/12/location-12.webp", "brand": "Cafe Zupas"}, "geometry": {"type": "Point", "coordinates": [-111.8631348, 40.5835148]}},
{"type": "Feature", "id": "Rdjjuj9KbmCSLawvPuz4C7krDjI=", "properties": {"ref": "9", "@spider": "cafe_zupas", "addr:full": "4245 South Riverdale Road", "addr:city": "Riverdale", "addr:state": "UT", "addr:postcode": "84405", "name": "Riverdale", "phone": "801-605-8760", "website": "https://cafezupas.com/locationcopy/info/riverdale", "contact:facebook": "https://www.facebook.com/Cafe-Zupas-311244325946483", "opening_hours": "Mo-Th 11:00-21:00; Fr-Sa 11:00-22:00", "image": "https://cafezupas.com/Locations/9/location-9.webp", "brand": "Cafe Zupas"}, "geometry": {"type": "Point", "coordinates": [-111.9872281, 41.1853462]}},
{"type": "Feature", "id": "DeLHUXeSNbxCqfljTn_3lx6MTRc=", "properties": {"ref": "83", "@spider": "cafe_zupas", "addr:full": "4539 W. Partridge Hill Lane", "addr:city": "Riverton", "addr:state": "UT", "addr:postcode": "84096", "name": "Riverton", "phone": "801-853-8244", "website": "https://cafezupas.com/locationcopy/info/riverton", "contact:facebook": "https://www.facebook.com/Cafe-Zupas-554647954956977", "opening_hours": "Mo-Th 11:00-21:00; Fr-Sa 11:00-22:00", "image": "https://cafezupas.com/Locations/83/location-83.webp", "brand": "Cafe Zupas"}, "geometry": {"type": "Point", "coordinates": [-111.9992914, 40.508191]}},
{"type": "Feature", "id": "QOt1Y508rc_0KjHPppzEV-o8GkU=", "properties": {"ref": "114", "@spider": "cafe_zupas", "addr:full": "879 N Redwood Rd, Saratoga Springs, UT, USA", "addr:city": "Utah County", "addr:state": "UT", "addr:postcode": "84045", "name": "Saratoga Springs", "phone": "801-997-7799", "website": "https://cafezupas.com/locationcopy/info/saratoga-springs", "opening_hours": "Mo-Th 11:00-21:00; Fr-Sa 11:00-22:00", "image": "https://cafezupas.com/Locations/97/location-97.webp", "brand": "Cafe Zupas"}, "geometry": {"type": "Point", "coordinates": [-111.9170376, 40.375243]}},
{"type": "Feature", "id": "rfee6B7tW_f8Mx7tLw-n1zwO1tE=", "properties": {"ref": "16", "@spider": "cafe_zupas", "addr:full": "10680 South River Front Parkway", "addr:city": "South Jordan", "addr:state": "UT", "addr:postcode": "84095", "name": "South Jordan", "phone": "801-253-8881", "website": "https://cafezupas.com/locationcopy/info/south-jordan", "contact:facebook": "https://www.facebook.com/Cafe-Zupas-154896898480135", "opening_hours": "Mo-Th 11:00-21:00; Fr-Sa 11:00-22:00", "image": "https://cafezupas.com/Locations/16/location-16.webp", "brand": "Cafe Zupas"}, "geometry": {"type": "Point", "coordinates": [-111.9119814, 40.5573466]}},
{"type": "Feature", "id": "D_mDWwSTuvuY_qZWOV75oxAwvCI=", "properties": {"ref": "49", "@spider": "cafe_zupas", "addr:full": "507 East 1000 North", "addr:city": "Spanish Fork", "addr:state": "UT", "addr:postcode": "84660", "name": "Spanish Fork", "phone": "801-210-5162", "website": "https://cafezupas.com/locationcopy/info/spanish-fork", "contact:facebook": "https://www.facebook.com/Cafe-Zupas-303667236792553", "opening_hours": "Mo-Th 11:00-21:00; Fr-Sa 11:00-22:00", "image": "https://cafezupas.com/Locations/49/location-49.webp", "brand": "Cafe Zupas"}, "geometry": {"type": "Point", "coordinates": [-111.6456476, 40.1242261]}},
{"type": "Feature", "id": "9eWoIJSGOxHxsdKa3TRSdg3bdE0=", "properties": {"ref": "28", "@spider": "cafe_zupas", "addr:full": "2236 South 1300 East", "addr:city": "Sugar House", "addr:state": "UT", "addr:postcode": "84106", "name": "Sugar House", "phone": "385-212-2855", "website": "https://cafezupas.com/locationcopy/info/sugar-house", "contact:facebook": "https://www.facebook.com/pages/Cafe-Zupas/205817876652624?_fb_noscript=1", "opening_hours": "Mo-Th 11:00-21:00; Fr-Sa 11:00-22:00", "image": "https://cafezupas.com/Locations/28/location-28.webp", "brand": "Cafe Zupas"}, "geometry": {"type": "Point", "coordinates": [-111.8555544, 40.722805]}},
{"type": "Feature", "id": "tS62HViBW60nQ6ncV1aYKpAo8nI=", "properties": {"ref": "24", "@spider": "cafe_zupas", "addr:full": "3599 South 2700 West #400", "addr:city": "West Valley", "addr:state": "UT", "addr:postcode": "84119", "name": "Valley Fair", "phone": "801-613-3380", "website": "https://cafezupas.com/locationcopy/info/valley-fair", "contact:facebook": "https://www.facebook.com/Cafe-Zupas-134167353933114", "opening_hours": "Mo-Th 11:00-21:00; Fr-Sa 11:00-22:00", "image": "https://cafezupas.com/Locations/24/location-24.webp", "brand": "Cafe Zupas"}, "geometry": {"type": "Point", "coordinates": [-111.957899, 40.6944498]}},
{"type": "Feature", "id": "9C0jgvNbGWQ8JWdnjzg64A8Us_k=", "properties": {"ref": "35", "@spider": "cafe_zupas", "addr:full": "2927 South 5600 West", "addr:city": "West Valley", "addr:state": "UT", "addr:postcode": "84120", "name": "West Valley-5600 West", "phone": "385-275-9800", "website": "https://cafezupas.com/locationcopy/info/west-valley-5600-west", "opening_hours": "Mo-Th 11:00-21:00; Fr-Sa 11:00-22:00", "image": "https://cafezupas.com/Locations/35/location-35.webp", "brand": "Cafe Zupas"}, "geometry": {"type": "Point", "coordinates": [-112.0240698, 40.7069911]}},
{"type": "Feature", "id": "AjVjZRLpRSmiBp9kce3tN57zBls=", "properties": {"ref": "78", "@spider": "cafe_zupas", "addr:full": "8775 W Sura Ln, Suite 108", "addr:city": "Greenfield", "addr:state": "WI", "addr:postcode": "53228", "name": "Greenfield", "phone": "414-209-1558", "website": "https://cafezupas.com/locationcopy/info/greenfield", "contact:facebook": "https://www.facebook.com/Cafe-Zupas-2170091939891178", "opening_hours": "Mo-Th 11:00-21:00; Fr-Sa 11:00-22:00", "image": "https://cafezupas.com/Locations/78/location-78.webp", "brand": "Cafe Zupas"}, "geometry": {"type": "Point", "coordinates": [-88.0230477, 42.9596064]}},
{"type": "Feature", "id": "b_MfG_1DiiUgKf-ZED6UbMpJsn0=", "properties": {"ref": "75", "@spider": "cafe_zupas", "addr:full": "N 91 W 15909 Falls Parkway", "addr:city": "Menomonee Falls WI", "addr:state": "WI", "addr:postcode": "53051", "name": "Menomonee Falls", "phone": "262-415-9051", "website": "https://cafezupas.com/locationcopy/info/menomonee-falls", "contact:facebook": "https://www.facebook.com/Cafe-Zupas-1168494309962147", "opening_hours": "Mo-Th 11:00-21:00; Fr-Sa 11:00-22:00", "image": "https://cafezupas.com/Locations/75/location-75.webp", "brand": "Cafe Zupas"}, "geometry": {"type": "Point", "coordinates": [-88.1077899, 43.1844698]}},
{"type": "Feature", "id": "Sd9_sSb9HriCJ1C3Yy2uT-UHia0=", "properties": {"ref": "70", "@spider": "cafe_zupas", "addr:full": "8310 Greenway Blvd.", "addr:city": "Middleton", "addr:state": "WI", "addr:postcode": "53562", "name": "Middleton", "phone": "608-416-8148", "website": "https://cafezupas.com/locationcopy/info/middleton", "contact:facebook": "https://www.facebook.com/Cafe-Zupas-201329823761573", "opening_hours": "Mo-Th 11:00-21:00; Fr-Sa 11:00-22:00", "image": "https://cafezupas.com/Locations/70/location-70.webp", "brand": "Cafe Zupas"}, "geometry": {"type": "Point", "coordinates": [-89.5255967, 43.0906225]}}]}