{"type":"FeatureCollection","features":[{"type": "Feature", "id": "O7X4K1LdG4ZlzzcfDewP87IG9Xs=", "properties": {"ref": "2185074", "@spider": "caliber_home_loans", "addr:full": "2550 Denali St.  Ste. 500", "addr:city": "Anchorage", "addr:state": "AK", "addr:postcode": "99503", "addr:country": "US", "name": "19623 - Anchorage - 2550 Denali St", "website": "https://www.caliberhomeloans.com/Home/BranchList?stateCode=AK&LCSpeciality=all&SpanishSpeaking=no", "brand": "Caliber Home Loans", "brand:wikidata": "Q25055134"}, "geometry": {"type": "Point", "coordinates": [-149.8777282, 61.1971611]}},
{"type": "Feature", "id": "FSxCAgQ0JJNxE3mndNnN2hHHfnE=", "properties": {"ref": "1739513", "@spider": "caliber_home_loans", "addr:full": "400 W. Capitol Ave Suite 1702", "addr:city": "Little Rock", "addr:state": "AR", "addr:postcode": "72201", "addr:country": "US", "name": "19273 - Little Rock - 400 W. Capitol Avenue", "website": "https://www.caliberhomeloans.com/Home/BranchList?stateCode=AR&LCSpeciality=all&SpanishSpeaking=no", "brand": "Caliber Home Loans", "brand:wikidata": "Q25055134"}, "geometry": {"type": "Point", "coordinates": [-92.2749654, 34.7454105]}},
{"type": "Feature", "id": "VaIvzyeQoM8SHmcoch71xyum6Fs=", "properties": {"ref": "1235038", "@spider": "caliber_home_loans", "addr:full": "1616 N. Litchfield Road  Suite A215", "addr:city": "Goodyear", "addr:state": "AZ", "addr:postcode": "85395", "addr:country": "US", "name": "18347 - Litchfield - 1616 N. Litchfield Road  Suite 215", "website": "https://www.caliberhomeloans.com/Home/BranchList?stateCode=AZ&LCSpeciality=all&SpanishSpeaking=no", "brand": "Caliber Home Loans", "brand:wikidata": "Q25055134"}, "geometry": {"type": "Point", "coordinates": [-112.3586444, 33.4649786]}},
{"type": "Feature", "id": "VYRNUWJWXsuAa1pSwVu5gxY7dGk=", "properties": {"ref": "1235532", "@spider": "caliber_home_loans", "addr:full": "16430 N. Scottsdale Rd. Suite 170", "addr:city": "Scottsdale", "addr:state": "AZ", "addr:postcode": "85254", "addr:country": "US", "name": "19264 - Scottsdale - 16430 N. Scottsdale Rd.", "website": "https://www.caliberhomeloans.com/Home/BranchList?stateCode=AZ&LCSpeciality=all&SpanishSpeaking=no", "brand": "Caliber Home Loans", "brand:wikidata": "Q25055134"}, "geometry": {"type": "Point", "coordinates": [-111.9268199, 33.6355621]}},
{"type": "Feature", "id": "xIxojLfFijGfvvk83O4qRG7deVs=", "properties": {"ref": "1613055", "@spider": "caliber_home_loans", "addr:full": "1403 N. Tustin Ave. Suite 250", "addr:city": "Santa Ana", "addr:state": "CA", "addr:postcode": "92705", "addr:country": "US", "name": "(IA)19103 - DR - Mulhearn Realtors - 1403 N. Tustin Ave.", "website": "https://www.caliberhomeloans.com/Home/BranchList?stateCode=CA&LCSpeciality=all&SpanishSpeaking=no", "brand": "Caliber Home Loans", "brand:wikidata": "Q25055134"}, "geometry": {"type": "Point", "coordinates": [-117.8321155, 33.7574537]}},
{"type": "Feature", "id": "ZT0jsD9AFubg7KZrLWKg83Ua90A=", "properties": {"ref": "1043253", "@spider": "caliber_home_loans", "addr:full": "222 E Carrillo St. Ste. 107", "addr:city": "Santa Barbara", "addr:state": "CA", "addr:postcode": "93101", "addr:country": "US", "name": "19510 - Santa Barbara - 222 E. Carrillo St.", "website": "https://www.caliberhomeloans.com/Home/BranchList?stateCode=CA&LCSpeciality=all&SpanishSpeaking=no", "brand": "Caliber Home Loans", "brand:wikidata": "Q25055134"}, "geometry": {"type": "Point", "coordinates": [-119.6985758, 34.4242441]}},
{"type": "Feature", "id": "8CneIJM-hfaSKLgOs2h7WBXUfHE=", "properties": {"ref": "2405311", "@spider": "caliber_home_loans", "addr:full": "1902 Wright Place  2nd Floor  Office 203", "addr:city": "Carlsbad", "addr:state": "CA", "addr:postcode": "92008", "addr:country": "US", "name": "19665 - Carlsbad - 1902 Wright Place  2nd Fl", "website": "https://www.caliberhomeloans.com/Home/BranchList?stateCode=CA&LCSpeciality=all&SpanishSpeaking=no", "brand": "Caliber Home Loans", "brand:wikidata": "Q25055134"}, "geometry": {"type": "Point", "coordinates": [-117.2875856, 33.1211264]}},
{"type": "Feature", "id": "fJVMf6Fd3gI-GiieImnQKukrUg0=", "properties": {"ref": "1612881", "@spider": "caliber_home_loans", "addr:full": "1403 N. Tustin Ave.  Ste. 250", "addr:city": "Santa Ana", "addr:state": "CA", "addr:postcode": "92705", "addr:country": "US", "name": "19103 - Santa Ana BHL - 1403 N. Tustin Ave.", "website": "https://www.caliberhomeloans.com/Home/BranchList?stateCode=CA&LCSpeciality=all&SpanishSpeaking=no", "brand": "Caliber Home Loans", "brand:wikidata": "Q25055134"}, "geometry": {"type": "Point", "coordinates": [-117.8321155, 33.7574537]}},
{"type": "Feature", "id": "zx4NtioeJuxYe_J8EHxR6Oz-Zt0=", "properties": {"ref": "2228679", "@spider": "caliber_home_loans", "addr:full": "200 E Santa Clara St. Suite 200", "addr:city": "Ventura", "addr:state": "CA", "addr:postcode": "93001", "addr:country": "US", "name": "19576 - Ventura - 200 E Santa Clara St.", "website": "https://www.caliberhomeloans.com/Home/BranchList?stateCode=CA&LCSpeciality=all&SpanishSpeaking=no", "brand": "Caliber Home Loans", "brand:wikidata": "Q25055134"}, "geometry": {"type": "Point", "coordinates": [-119.2974812, 34.2793207]}},
{"type": "Feature", "id": "7KLGW45uhIpwk_ZIaCLWEd7a8GQ=", "properties": {"ref": "1612981", "@spider": "caliber_home_loans", "addr:full": "209 E. Caldwell", "addr:city": "Visalia", "addr:state": "CA", "addr:postcode": "93277", "addr:country": "US", "name": "19133 - Visalia BHL - 209 E. Caldwell", "website": "https://www.caliberhomeloans.com/Home/BranchList?stateCode=CA&LCSpeciality=all&SpanishSpeaking=no", "brand": "Caliber Home Loans", "brand:wikidata": "Q25055134"}, "geometry": {"type": "Point", "coordinates": [-119.2901187, 36.2977649]}},
{"type": "Feature", "id": "bu5B3UAorz-hY8xMKj8vM3Da7Do=", "properties": {"ref": "2122617", "@spider": "caliber_home_loans", "addr:full": "1000 Town Center Dr. Ste. 300   Office 49", "addr:city": "Oxnard", "addr:state": "CA", "addr:postcode": "93036", "addr:country": "US", "name": "19560 - Oxnard - 1000 Town Center Dr", "website": "https://www.caliberhomeloans.com/Home/BranchList?stateCode=CA&LCSpeciality=all&SpanishSpeaking=no", "brand": "Caliber Home Loans", "brand:wikidata": "Q25055134"}, "geometry": {"type": "Point", "coordinates": [-119.1820447, 34.243193]}},
{"type": "Feature", "id": "09gtxDwC-HMTVHgoGh0I3xC6CwE=", "properties": {"ref": "2147413", "@spider": "caliber_home_loans", "addr:full": "1701 Lombard St.  Suite 104", "addr:city": "Oxnard", "addr:state": "CA", "addr:postcode": "93030", "addr:country": "US", "name": "90338 - Oxnard - 1701 Lombard St.", "website": "https://www.caliberhomeloans.com/Home/BranchList?stateCode=CA&LCSpeciality=all&SpanishSpeaking=no", "brand": "Caliber Home Loans", "brand:wikidata": "Q25055134"}, "geometry": {"type": "Point", "coordinates": [-119.1496713, 34.2170048]}},
{"type": "Feature", "id": "r0_ZxfgXbARuKr4fxw_6e6TobDU=", "properties": {"ref": "1612902", "@spider": "caliber_home_loans", "addr:full": "1420 Rocky Ridge Dr.  Ste. 230", "addr:city": "Roseville", "addr:state": "CA", "addr:postcode": "95661", "addr:country": "US", "name": "19118 - Roseville BHL - 1420 Rocky Ridge Dr.", "website": "https://www.caliberhomeloans.com/Home/BranchList?stateCode=CA&LCSpeciality=all&SpanishSpeaking=no", "brand": "Caliber Home Loans", "brand:wikidata": "Q25055134"}, "geometry": {"type": "Point", "coordinates": [-121.2464039, 38.7541482]}},
{"type": "Feature", "id": "oi1T-qe66Ncnu8B0TktFqozrD9Q=", "properties": {"ref": "1225079", "@spider": "caliber_home_loans", "addr:full": "101 N Westlake Blvd Suite 200", "addr:city": "Westlake Village", "addr:state": "CA", "addr:postcode": "91362", "addr:country": "US", "name": "19512 - 101 N Westlake Blvd", "website": "https://www.caliberhomeloans.com/Home/BranchList?stateCode=CA&LCSpeciality=all&SpanishSpeaking=no", "brand": "Caliber Home Loans", "brand:wikidata": "Q25055134"}, "geometry": {"type": "Point", "coordinates": [-118.8230834, 34.1620928]}},
{"type": "Feature", "id": "d7IrZD96T214c5AHHGfgPRFhdGI=", "properties": {"ref": "1185925", "@spider": "caliber_home_loans", "addr:full": "877 Anchorage Place", "addr:city": "Chula Vista", "addr:state": "CA", "addr:postcode": "91914", "addr:country": "US", "name": "19168 - Chula Vista - 877 Anchorage Place", "website": "https://www.caliberhomeloans.com/Home/BranchList?stateCode=CA&LCSpeciality=all&SpanishSpeaking=no", "brand": "Caliber Home Loans", "brand:wikidata": "Q25055134"}, "geometry": {"type": "Point", "coordinates": [-116.9577468, 32.6552324]}},
{"type": "Feature", "id": "zsPEMMFXXXgYNoxD5aMnEl13IMA=", "properties": {"ref": "1239342", "@spider": "caliber_home_loans", "addr:full": "760 Garden View Court Suite 220", "addr:city": "Encinitas", "addr:state": "CA", "addr:postcode": "92024", "addr:country": "US", "name": "18630 - Encinitas - 760 Garden View Court", "website": "https://www.caliberhomeloans.com/Home/BranchList?stateCode=CA&LCSpeciality=all&SpanishSpeaking=no", "brand": "Caliber Home Loans", "brand:wikidata": "Q25055134"}, "geometry": {"type": "Point", "coordinates": [-117.2613609, 33.0602992]}},
{"type": "Feature", "id": "D725NgrDAYN3LTkwCtMjz__NWfQ=", "properties": {"ref": "1495492", "@spider": "caliber_home_loans", "addr:full": "790 Mason Street Ste 202", "addr:city": "Vacaville", "addr:state": "CA", "addr:postcode": "95688", "addr:country": "US", "name": "19581 Vacaville - 790 Mason Street", "website": "https://www.caliberhomeloans.com/Home/BranchList?stateCode=CA&LCSpeciality=all&SpanishSpeaking=no", "brand": "Caliber Home Loans", "brand:wikidata": "Q25055134"}, "geometry": {"type": "Point", "coordinates": [-121.983323, 38.354634]}},
{"type": "Feature", "id": "Yan_4_Fn9yxDmMHIc6YMlvhXX1M=", "properties": {"ref": "1495785", "@spider": "caliber_home_loans", "addr:full": "3510 Unocal Pl.  Suite 103", "addr:city": "Santa Rosa", "addr:state": "CA", "addr:postcode": "95403", "addr:country": "US", "name": "19126 - Santa Rosa BHL - 3510 Unocal Pl.", "website": "https://www.caliberhomeloans.com/Home/BranchList?stateCode=CA&LCSpeciality=all&SpanishSpeaking=no", "brand": "Caliber Home Loans", "brand:wikidata": "Q25055134"}, "geometry": {"type": "Point", "coordinates": [-122.7218913, 38.4792616]}},
{"type": "Feature", "id": "3pdvWV1juOb-hnDjhEOs7Jnt0DI=", "properties": {"ref": "1043262", "@spider": "caliber_home_loans", "addr:full": "155 East Clark Avenue Suite 120", "addr:city": "Orcutt", "addr:state": "CA", "addr:postcode": "93455", "addr:country": "US", "name": "19612 - Orcutt - 155 East Clark Ave.", "website": "https://www.caliberhomeloans.com/Home/BranchList?stateCode=CA&LCSpeciality=all&SpanishSpeaking=no", "brand": "Caliber Home Loans", "brand:wikidata": "Q25055134"}, "geometry": {"type": "Point", "coordinates": [-120.4461374, 34.8653604]}},
{"type": "Feature", "id": "p5quQo8Kj4gNKDSZS_cZSfRFaww=", "properties": {"ref": "1491549", "@spider": "caliber_home_loans", "addr:full": "7702 Meany Avenue  Suite 101", "addr:city": "Bakersfield", "addr:state": "CA", "addr:postcode": "93308", "addr:country": "US", "name": "18922 - Bakersfield - 7702 Meany Avenue", "website": "https://www.caliberhomeloans.com/Home/BranchList?stateCode=CA&LCSpeciality=all&SpanishSpeaking=no", "brand": "Caliber Home Loans", "brand:wikidata": "Q25055134"}, "geometry": {"type": "Point", "coordinates": [-119.0879499, 35.3946596]}},
{"type": "Feature", "id": "3x3zj6Om6RearbfNUUwX-_SIHWg=", "properties": {"ref": "1612853", "@spider": "caliber_home_loans", "addr:full": "3510 Unocal Pl.  Suite 103", "addr:city": "Santa Rosa", "addr:state": "CA", "addr:postcode": "95403", "addr:country": "US", "name": "19126 - Santa Rosa BHL - 3510 Unocal Pl.", "website": "https://www.caliberhomeloans.com/Home/BranchList?stateCode=CA&LCSpeciality=all&SpanishSpeaking=no", "brand": "Caliber Home Loans", "brand:wikidata": "Q25055134"}, "geometry": {"type": "Point", "coordinates": [-122.7218913, 38.4792616]}},
{"type": "Feature", "id": "rPZ5olyygBbWLsteYppH_nczoPI=", "properties": {"ref": "1423396", "@spider": "caliber_home_loans", "addr:full": "101 N Westlake Blvd Suite 200", "addr:city": "Westlake Village", "addr:state": "CA", "addr:postcode": "91362", "addr:country": "US", "name": "19512 - 101 N Westlake Blvd", "website": "https://www.caliberhomeloans.com/Home/BranchList?stateCode=CA&LCSpeciality=all&SpanishSpeaking=no", "brand": "Caliber Home Loans", "brand:wikidata": "Q25055134"}, "geometry": {"type": "Point", "coordinates": [-118.8230834, 34.1620928]}},
{"type": "Feature", "id": "yH6IcYhDR3ucib5RktNAe1pxFUU=", "properties": {"ref": "1612872", "@spider": "caliber_home_loans", "addr:full": "1301 Redwood Way  Ste. 230", "addr:city": "Petaluma", "addr:state": "CA", "addr:postcode": "94954", "addr:country": "US", "name": "19109 - Petaluma BHL - 1301 Redwood Way", "website": "https://www.caliberhomeloans.com/Home/BranchList?stateCode=CA&LCSpeciality=all&SpanishSpeaking=no", "brand": "Caliber Home Loans", "brand:wikidata": "Q25055134"}, "geometry": {"type": "Point", "coordinates": [-122.667037, 38.2751587]}},
{"type": "Feature", "id": "Y9k92OIItblCrwi-V95cbaZfY5E=", "properties": {"ref": "1495491", "@spider": "caliber_home_loans", "addr:full": "850 Merchant Street  Suite A", "addr:city": "Vacaville", "addr:state": "CA", "addr:postcode": "95688", "addr:country": "US", "name": "18969 - Vacaville - 850 Merchant Street", "website": "https://www.caliberhomeloans.com/Home/BranchList?stateCode=CA&LCSpeciality=all&SpanishSpeaking=no", "brand": "Caliber Home Loans", "brand:wikidata": "Q25055134"}, "geometry": {"type": "Point", "coordinates": [-121.996334, 38.3489209]}},
{"type": "Feature", "id": "9KbkqIEAyvEvGcOjZbvklVE2ufU=", "properties": {"ref": "1491556", "@spider": "caliber_home_loans", "addr:full": "2580 Sierra Sunrise  Ste. 200", "addr:city": "Chico", "addr:state": "CA", "addr:postcode": "95928", "addr:country": "US", "name": "19086 - Chico BHL - 2580 Sierra Sunrise", "website": "https://www.caliberhomeloans.com/Home/BranchList?stateCode=CA&LCSpeciality=all&SpanishSpeaking=no", "brand": "Caliber Home Loans", "brand:wikidata": "Q25055134"}, "geometry": {"type": "Point", "coordinates": [-121.7901606, 39.7438208]}},
{"type": "Feature", "id": "n3ECERy6CCZxRlqz1oVLVSFnpkE=", "properties": {"ref": "1615376", "@spider": "caliber_home_loans", "addr:full": "209 E. Caldwell", "addr:city": "Visalia", "addr:state": "CA", "addr:postcode": "93277", "addr:country": "US", "name": "19133 - Visalia BHL - 209 E. Caldwell", "website": "https://www.caliberhomeloans.com/Home/BranchList?stateCode=CA&LCSpeciality=all&SpanishSpeaking=no", "brand": "Caliber Home Loans", "brand:wikidata": "Q25055134"}, "geometry": {"type": "Point", "coordinates": [-119.2901187, 36.2977649]}},
{"type": "Feature", "id": "Gh11PmraoQOxKvDB3-kjZtHzssY=", "properties": {"ref": "1612980", "@spider": "caliber_home_loans", "addr:full": "3510 Unocal Pl.  Suite 103", "addr:city": "Santa Rosa", "addr:state": "CA", "addr:postcode": "95403", "addr:country": "US", "name": "19126 - Santa Rosa BHL - 3510 Unocal Pl.", "website": "https://www.caliberhomeloans.com/Home/BranchList?stateCode=CA&LCSpeciality=all&SpanishSpeaking=no", "brand": "Caliber Home Loans", "brand:wikidata": "Q25055134"}, "geometry": {"type": "Point", "coordinates": [-122.7218913, 38.4792616]}},
{"type": "Feature", "id": "MQRPYDlpcgMSHXwazJmVK0MGIJ4=", "properties": {"ref": "1613085", "@spider": "caliber_home_loans", "addr:full": "2580 Sierra Sunrise  Ste. 200", "addr:city": "Chico", "addr:state": "CA", "addr:postcode": "95928", "addr:country": "US", "name": "19086 - Chico BHL - 2580 Sierra Sunrise", "website": "https://www.caliberhomeloans.com/Home/BranchList?stateCode=CA&LCSpeciality=all&SpanishSpeaking=no", "brand": "Caliber Home Loans", "brand:wikidata": "Q25055134"}, "geometry": {"type": "Point", "coordinates": [-121.7901606, 39.7438208]}},
{"type": "Feature", "id": "j56Qd1eO6-QJuJtAZEigqNze04s=", "properties": {"ref": "1612929", "@spider": "caliber_home_loans", "addr:full": "101 N Westlake Blvd Suite 200", "addr:city": "Westlake Village", "addr:state": "CA", "addr:postcode": "91362", "addr:country": "US", "name": "19512 - 101 N Westlake Blvd", "website": "https://www.caliberhomeloans.com/Home/BranchList?stateCode=CA&LCSpeciality=all&SpanishSpeaking=no", "brand": "Caliber Home Loans", "brand:wikidata": "Q25055134"}, "geometry": {"type": "Point", "coordinates": [-118.8230834, 34.1620928]}},
{"type": "Feature", "id": "AHt4vh6Yn7d8UBzM5w3w_fkyXFU=", "properties": {"ref": "1686077", "@spider": "caliber_home_loans", "addr:full": "25350 Magic Mountain Prkwy.  Ste. 300  Office 347", "addr:city": "Valencia", "addr:state": "CA", "addr:postcode": "91355", "addr:country": "US", "name": "19561 - Valencia - 25350 Magic Mountain Pkwy", "website": "https://www.caliberhomeloans.com/Home/BranchList?stateCode=CA&LCSpeciality=all&SpanishSpeaking=no", "brand": "Caliber Home Loans", "brand:wikidata": "Q25055134"}, "geometry": {"type": "Point", "coordinates": [-118.5777136, 34.4234098]}},
{"type": "Feature", "id": "DMk7El82asRAxz0XdLg3GqinyxE=", "properties": {"ref": "1235768", "@spider": "caliber_home_loans", "addr:full": "5460 South Quebec Street  Suite 100", "addr:city": "Greenwood Village", "addr:state": "CO", "addr:postcode": "80111", "addr:country": "US", "name": "18379 - Denver - 5460 S. Quebec Street", "website": "https://www.caliberhomeloans.com/Home/BranchList?stateCode=CO&LCSpeciality=all&SpanishSpeaking=no", "brand": "Caliber Home Loans", "brand:wikidata": "Q25055134"}, "geometry": {"type": "Point", "coordinates": [-104.9035714, 39.6172361]}},
{"type": "Feature", "id": "NbDNoIE_5GJN8qGmcMQftFIJQMc=", "properties": {"ref": "15622-1044103", "@spider": "caliber_home_loans", "addr:full": "1975 Research Parkway  Suite 300", "addr:city": "Colorado Springs", "addr:state": "CO", "addr:postcode": "80920", "addr:country": "US", "name": "16328 - Colorado Springs - 1975 Research Parkway", "website": "https://www.caliberhomeloans.com/Home/BranchList?stateCode=CO&LCSpeciality=all&SpanishSpeaking=no", "brand": "Caliber Home Loans", "brand:wikidata": "Q25055134"}, "geometry": {"type": "Point", "coordinates": [-104.7948276, 38.9576928]}},
{"type": "Feature", "id": "5LS23M01hfZ_OT8DihXYLCRqQtY=", "properties": {"ref": "1044103", "@spider": "caliber_home_loans", "addr:full": "1975 Research Parkway  Suite 300", "addr:city": "Colorado Springs", "addr:state": "CO", "addr:postcode": "80920", "addr:country": "US", "name": "16328 - Colorado Springs - 1975 Research Parkway", "website": "https://www.caliberhomeloans.com/Home/BranchList?stateCode=CO&LCSpeciality=all&SpanishSpeaking=no", "brand": "Caliber Home Loans", "brand:wikidata": "Q25055134"}, "geometry": {"type": "Point", "coordinates": [-104.7948276, 38.9576928]}},
{"type": "Feature", "id": "5mNywJbPkUC-zU4pOEU_eHnd_-o=", "properties": {"ref": "1235759", "@spider": "caliber_home_loans", "addr:full": "2900 South College Avenue  Suite 1A", "addr:city": "Fort Collins", "addr:state": "CO", "addr:postcode": "80525", "addr:country": "US", "name": "18381 - Fort Collins - 2900 S. College Avenue", "website": "https://www.caliberhomeloans.com/Home/BranchList?stateCode=CO&LCSpeciality=all&SpanishSpeaking=no", "brand": "Caliber Home Loans", "brand:wikidata": "Q25055134"}, "geometry": {"type": "Point", "coordinates": [-105.0765196, 40.5475299]}},
{"type": "Feature", "id": "4oHBf8AHMwNNV6WqBGcq-dVp4bE=", "properties": {"ref": "1742605", "@spider": "caliber_home_loans", "addr:full": "55 Madison Street  Suite 525", "addr:city": "Denver", "addr:state": "CO", "addr:postcode": "80206", "addr:country": "US", "name": "18427 - Denver - 55 Madison Street", "website": "https://www.caliberhomeloans.com/Home/BranchList?stateCode=CO&LCSpeciality=all&SpanishSpeaking=no", "brand": "Caliber Home Loans", "brand:wikidata": "Q25055134"}, "geometry": {"type": "Point", "coordinates": [-104.9465058, 39.7174108]}},
{"type": "Feature", "id": "pUidWFuQfzW30I5PthxQvhMzkSU=", "properties": {"ref": "1459805", "@spider": "caliber_home_loans", "addr:full": "8400 E. Prentice Avenue  Suite 1002  1005  670", "addr:city": "Greenwood Village", "addr:state": "CO", "addr:postcode": "80111", "addr:country": "US", "name": "Greenwood Village - 8400 E. Prentice Avenue  Suite 1002  1005  670", "website": "https://www.caliberhomeloans.com/Home/BranchList?stateCode=CO&LCSpeciality=all&SpanishSpeaking=no", "brand": "Caliber Home Loans", "brand:wikidata": "Q25055134"}, "geometry": {"type": "Point", "coordinates": [-104.8911176, 39.6194555]}},
{"type": "Feature", "id": "nabFIH8Qv7M5bcFL7HPJUe2jqeM=", "properties": {"ref": "1213813", "@spider": "caliber_home_loans", "addr:full": "1327 14th Street NW  Suite 101", "addr:city": "Washington", "addr:state": "DC", "addr:postcode": "20005", "addr:country": "US", "name": "18254 - DC - 1327 14th Street NW", "website": "https://www.caliberhomeloans.com/Home/BranchList?stateCode=DC&LCSpeciality=all&SpanishSpeaking=no", "brand": "Caliber Home Loans", "brand:wikidata": "Q25055134"}, "geometry": {"type": "Point", "coordinates": [-77.0315185, 38.9081439]}},
{"type": "Feature", "id": "UjvJXHVcOV_GzHKerGo0uoKgH78=", "properties": {"ref": "1568151", "@spider": "caliber_home_loans", "addr:full": "74 Batterson Park Road 2nd Fl.", "addr:city": "Farmington", "addr:state": "CT", "addr:postcode": "06032", "addr:country": "US", "name": "19188 - Farmington - 74 Batterson Park Road", "website": "https://www.caliberhomeloans.com/Home/BranchList?stateCode=CT&LCSpeciality=all&SpanishSpeaking=no", "brand": "Caliber Home Loans", "brand:wikidata": "Q25055134"}, "geometry": {"type": "Point", "coordinates": [-72.7955082, 41.7144137]}},
{"type": "Feature", "id": "JrMrxDEGe0R2tCXfrlXpyJUtzow=", "properties": {"ref": "1423691", "@spider": "caliber_home_loans", "addr:full": "2 Enterprise Drive  Suite 509", "addr:city": "Shelton", "addr:state": "CT", "addr:postcode": "06484", "addr:country": "US", "name": "18976 - Shelton -2 Enterprise Drive", "website": "https://www.caliberhomeloans.com/Home/BranchList?stateCode=CT&LCSpeciality=all&SpanishSpeaking=no", "brand": "Caliber Home Loans", "brand:wikidata": "Q25055134"}, "geometry": {"type": "Point", "coordinates": [-73.1249088, 41.2781066]}},
{"type": "Feature", "id": "0NqeBlWUaXLq1zSMvdN8zNLmYnA=", "properties": {"ref": "1711741", "@spider": "caliber_home_loans", "addr:full": "32183 DuPont Blvd Suite D8", "addr:city": "Dagsboro", "addr:state": "DE", "addr:postcode": "19939", "addr:country": "US", "name": "19244 - Dagsboro - 32183 DuPont Blvd", "website": "https://www.caliberhomeloans.com/Home/BranchList?stateCode=DE&LCSpeciality=all&SpanishSpeaking=no", "brand": "Caliber Home Loans", "brand:wikidata": "Q25055134"}, "geometry": {"type": "Point", "coordinates": [-75.2592489, 38.5459942]}},
{"type": "Feature", "id": "8xGYM-c5MaR9PeTyZU4ngkmZTe4=", "properties": {"ref": "1112400", "@spider": "caliber_home_loans", "addr:full": "17252 N. Village Main Blvd. Suite 16", "addr:city": "Lewes", "addr:state": "DE", "addr:postcode": "19958", "addr:country": "US", "name": "19477 - Lewes - 17252 N. Village Main Blvd.", "website": "https://www.caliberhomeloans.com/Home/BranchList?stateCode=DE&LCSpeciality=all&SpanishSpeaking=no", "brand": "Caliber Home Loans", "brand:wikidata": "Q25055134"}, "geometry": {"type": "Point", "coordinates": [-75.1678343, 38.7523808]}},
{"type": "Feature", "id": "0gwl1GNGNpC9JjltsS_2NMyz17g=", "properties": {"ref": "1043527", "@spider": "caliber_home_loans", "addr:full": "200 Continental Drive  Suite 201", "addr:city": "Newark", "addr:state": "DE", "addr:postcode": "19713", "addr:country": "US", "name": "16327 - Newark - 200 Continental Drive", "website": "https://www.caliberhomeloans.com/Home/BranchList?stateCode=DE&LCSpeciality=all&SpanishSpeaking=no", "brand": "Caliber Home Loans", "brand:wikidata": "Q25055134"}, "geometry": {"type": "Point", "coordinates": [-75.6584497, 39.6870363]}},
{"type": "Feature", "id": "8eo7apc7phTC7nculSwlsV1xT3I=", "properties": {"ref": "1536743", "@spider": "caliber_home_loans", "addr:full": "2750 SW 145th Ave Suite 309", "addr:city": "Miramar", "addr:state": "FL", "addr:postcode": "33027", "addr:country": "US", "name": "19260 - Miramar - 2750 SW 145th Ave", "website": "https://www.caliberhomeloans.com/Home/BranchList?stateCode=FL&LCSpeciality=all&SpanishSpeaking=no", "brand": "Caliber Home Loans", "brand:wikidata": "Q25055134"}, "geometry": {"type": "Point", "coordinates": [-80.3422854, 25.9838224]}},
{"type": "Feature", "id": "VJxsJHEZkrrsglS_x57lYiFvcXs=", "properties": {"ref": "2156329", "@spider": "caliber_home_loans", "addr:full": "1102 S. Florida Ave. Suite 118 & 119", "addr:city": "Lakeland", "addr:state": "FL", "addr:postcode": "33803", "addr:country": "US", "name": "Lakeland - 1102 S. Florida Ave.", "website": "https://www.caliberhomeloans.com/Home/BranchList?stateCode=FL&LCSpeciality=all&SpanishSpeaking=no", "brand": "Caliber Home Loans", "brand:wikidata": "Q25055134"}, "geometry": {"type": "Point", "coordinates": [-81.9569123, 28.0283805]}},
{"type": "Feature", "id": "51EYoHbjAxJf-ADn1q1jTTWHkNM=", "properties": {"ref": "1176265", "@spider": "caliber_home_loans", "addr:full": "2 Alhambra Plaza Suite 1220", "addr:city": "Coral Gables", "addr:state": "FL", "addr:postcode": "33134", "addr:country": "US", "name": "19466 - Coral Gables - 2 Alhambra Plaza", "website": "https://www.caliberhomeloans.com/Home/BranchList?stateCode=FL&LCSpeciality=all&SpanishSpeaking=no", "brand": "Caliber Home Loans", "brand:wikidata": "Q25055134"}, "geometry": {"type": "Point", "coordinates": [-80.2558084, 25.7518672]}},
{"type": "Feature", "id": "8Q3ItjWNz7JbySy65FiugkuoBNQ=", "properties": {"ref": "1968264", "@spider": "caliber_home_loans", "addr:full": "7190 SW 87th Avenue Suite 405 406", "addr:city": "Miami", "addr:state": "FL", "addr:postcode": "33173", "addr:country": "US", "name": "19496 - Miami - 7190 SW 87th Avenue", "website": "https://www.caliberhomeloans.com/Home/BranchList?stateCode=FL&LCSpeciality=all&SpanishSpeaking=no", "brand": "Caliber Home Loans", "brand:wikidata": "Q25055134"}, "geometry": {"type": "Point", "coordinates": [-80.3346272, 25.7029509]}},
{"type": "Feature", "id": "-QG6J3uHJKwSdWMYf8wCXSTRg_w=", "properties": {"ref": "1864179", "@spider": "caliber_home_loans", "addr:full": "811 Douglas Ave Suite B", "addr:city": "Dunedin", "addr:state": "FL", "addr:postcode": "34698", "addr:country": "US", "name": "19206 - Dunedin - 811 Douglas Ave", "website": "https://www.caliberhomeloans.com/Home/BranchList?stateCode=FL&LCSpeciality=all&SpanishSpeaking=no", "brand": "Caliber Home Loans", "brand:wikidata": "Q25055134"}, "geometry": {"type": "Point", "coordinates": [-82.7875935, 28.012487]}},
{"type": "Feature", "id": "qZ5KD1C140YjStaooiV-Eq_O8qc=", "properties": {"ref": "1277982", "@spider": "caliber_home_loans", "addr:full": "5182 Oceanshore Blvd. Suite Unit 4", "addr:city": "Palm Coast", "addr:state": "FL", "addr:postcode": "32137", "addr:country": "US", "name": "19474 - Palm Coast - 5182 Oceanshore Blvd.", "website": "https://www.caliberhomeloans.com/Home/BranchList?stateCode=FL&LCSpeciality=all&SpanishSpeaking=no", "brand": "Caliber Home Loans", "brand:wikidata": "Q25055134"}, "geometry": {"type": "Point", "coordinates": [-81.1943418, 29.5927598]}},
{"type": "Feature", "id": "k8slW4T7k5h-gzG4KahfqBgfK3U=", "properties": {"ref": "1205706", "@spider": "caliber_home_loans", "addr:full": "8151 Peters Road  Suite 3100", "addr:city": "Plantation", "addr:state": "FL", "addr:postcode": "33324", "addr:country": "US", "name": "18315 - Plantation - 8151 Peters Road", "website": "https://www.caliberhomeloans.com/Home/BranchList?stateCode=FL&LCSpeciality=all&SpanishSpeaking=no", "brand": "Caliber Home Loans", "brand:wikidata": "Q25055134"}, "geometry": {"type": "Point", "coordinates": [-80.2565021, 26.1076801]}},
{"type": "Feature", "id": "_4tY9LOwsqNBi5rWvISxLxeBLeM=", "properties": {"ref": "1492176", "@spider": "caliber_home_loans", "addr:full": "811 Douglas Ave Suite B", "addr:city": "Dunedin", "addr:state": "FL", "addr:postcode": "34698", "addr:country": "US", "name": "19206 - Dunedin - 811 Douglas Ave", "website": "https://www.caliberhomeloans.com/Home/BranchList?stateCode=FL&LCSpeciality=all&SpanishSpeaking=no", "brand": "Caliber Home Loans", "brand:wikidata": "Q25055134"}, "geometry": {"type": "Point", "coordinates": [-82.7875935, 28.012487]}},
{"type": "Feature", "id": "Cx5s5lzatzXfsmfZUnoWp4WLOVk=", "properties": {"ref": "1973489", "@spider": "caliber_home_loans", "addr:full": "5182 Oceanshore Blvd. Suite Unit 4", "addr:city": "Palm Coast", "addr:state": "FL", "addr:postcode": "32137", "addr:country": "US", "name": "19474 - Palm Coast - 5182 Oceanshore Blvd.", "website": "https://www.caliberhomeloans.com/Home/BranchList?stateCode=FL&LCSpeciality=all&SpanishSpeaking=no", "brand": "Caliber Home Loans", "brand:wikidata": "Q25055134"}, "geometry": {"type": "Point", "coordinates": [-81.1943418, 29.5927598]}},
{"type": "Feature", "id": "cvIf0FTAOp4l-O1FGJpHh9t2UFs=", "properties": {"ref": "1416833", "@spider": "caliber_home_loans", "addr:full": "15310 Amberly Dr.  Ste. 250  Office 60", "addr:city": "Tampa", "addr:state": "FL", "addr:postcode": "33647", "addr:country": "US", "name": "19548 - Tampa - 15310 Amberly Dr.", "website": "https://www.caliberhomeloans.com/Home/BranchList?stateCode=FL&LCSpeciality=all&SpanishSpeaking=no", "brand": "Caliber Home Loans", "brand:wikidata": "Q25055134"}, "geometry": {"type": "Point", "coordinates": [-82.4036589, 28.091158]}},
{"type": "Feature", "id": "YKL3FtGqsyrTwO0UCrnaO-fDilM=", "properties": {"ref": "1658309", "@spider": "caliber_home_loans", "addr:full": "7208 W Sand Lake Road Suite 300", "addr:city": "Orlando", "addr:state": "FL", "addr:postcode": "32819", "addr:country": "US", "name": "19300 - Orlando - 7208 W Sand Lake Road", "website": "https://www.caliberhomeloans.com/Home/BranchList?stateCode=FL&LCSpeciality=all&SpanishSpeaking=no", "brand": "Caliber Home Loans", "brand:wikidata": "Q25055134"}, "geometry": {"type": "Point", "coordinates": [-81.4786163, 28.4494043]}},
{"type": "Feature", "id": "j5pdNynOJe6fAlenYuKsD_DEsWM=", "properties": {"ref": "1456328", "@spider": "caliber_home_loans", "addr:full": "2875 NE 191 Street  5th Floor", "addr:city": "Aventura", "addr:state": "FL", "addr:postcode": "33180", "addr:country": "US", "name": "19026 - Miami Downtown - 2875 NE 191 Street", "website": "https://www.caliberhomeloans.com/Home/BranchList?stateCode=FL&LCSpeciality=all&SpanishSpeaking=no", "brand": "Caliber Home Loans", "brand:wikidata": "Q25055134"}, "geometry": {"type": "Point", "coordinates": [-80.1433937, 25.9528158]}},
{"type": "Feature", "id": "aKxBTIruFq62n0N5T9biFrxCxTA=", "properties": {"ref": "1197362", "@spider": "caliber_home_loans", "addr:full": "2909 W Bay to Bay Blvd.  Suite 200A", "addr:city": "Tampa", "addr:state": "FL", "addr:postcode": "33629", "addr:country": "US", "name": "19602 - Tampa - 2909 W Bay to Bay Blvd.", "website": "https://www.caliberhomeloans.com/Home/BranchList?stateCode=FL&LCSpeciality=all&SpanishSpeaking=no", "brand": "Caliber Home Loans", "brand:wikidata": "Q25055134"}, "geometry": {"type": "Point", "coordinates": [-82.4917969, 27.9198352]}},
{"type": "Feature", "id": "vvBukiVPH2X1Gws9-mCcBWeNGas=", "properties": {"ref": "1718751", "@spider": "caliber_home_loans", "addr:full": "2095 Indian River Blvd", "addr:city": "Vero Beach", "addr:state": "FL", "addr:postcode": "32960", "addr:country": "US", "name": "18694 - Vero Beach - 2095 Indian River Blvd", "website": "https://www.caliberhomeloans.com/Home/BranchList?stateCode=FL&LCSpeciality=all&SpanishSpeaking=no", "brand": "Caliber Home Loans", "brand:wikidata": "Q25055134"}, "geometry": {"type": "Point", "coordinates": [-80.3809576, 27.6386257]}},
{"type": "Feature", "id": "JZ4bRDV96P1nsCBNvuyNbM8TDao=", "properties": {"ref": "1101960", "@spider": "caliber_home_loans", "addr:full": "550 W. Cypress Creek Road Suite 100", "addr:city": "Ft. Lauderdale", "addr:state": "FL", "addr:postcode": "33309", "addr:country": "US", "name": "17965 - Ft. Lauderdale - 550 W. Cypress Creek Road", "website": "https://www.caliberhomeloans.com/Home/BranchList?stateCode=FL&LCSpeciality=all&SpanishSpeaking=no", "brand": "Caliber Home Loans", "brand:wikidata": "Q25055134"}, "geometry": {"type": "Point", "coordinates": [-80.1515026, 26.2018829]}},
{"type": "Feature", "id": "6cuV77a3KvRuMYJtht9TxWuWCkk=", "properties": {"ref": "1054955", "@spider": "caliber_home_loans", "addr:full": "2609 SW 33rd St.  Unit 101  Ste. 3", "addr:city": "Ocala", "addr:state": "FL", "addr:postcode": "34471", "addr:country": "US", "name": "19648 - Ocala -  2609 SW 33rd St", "website": "https://www.caliberhomeloans.com/Home/BranchList?stateCode=FL&LCSpeciality=all&SpanishSpeaking=no", "brand": "Caliber Home Loans", "brand:wikidata": "Q25055134"}, "geometry": {"type": "Point", "coordinates": [-82.168531, 29.155165]}},
{"type": "Feature", "id": "s2ztOgG1Qa52Z46AsERbxeO6ozs=", "properties": {"ref": "1043530", "@spider": "caliber_home_loans", "addr:full": "151 Southhall Lane  Suite 170", "addr:city": "Maitland", "addr:state": "FL", "addr:postcode": "32751", "addr:country": "US", "name": "18906 - Maitland - 151 Southhall Lane", "website": "https://www.caliberhomeloans.com/Home/BranchList?stateCode=FL&LCSpeciality=all&SpanishSpeaking=no", "brand": "Caliber Home Loans", "brand:wikidata": "Q25055134"}, "geometry": {"type": "Point", "coordinates": [-81.3970735, 28.6281628]}},
{"type": "Feature", "id": "GtMsLWFutlgM3QWHTI2Pmj9HTTw=", "properties": {"ref": "1397167", "@spider": "caliber_home_loans", "addr:full": "2612 West 15th St.  Unit A", "addr:city": "Panama City", "addr:state": "FL", "addr:postcode": "32401", "addr:country": "US", "name": "18635 - Panama City - 2612 W. 15th Street", "website": "https://www.caliberhomeloans.com/Home/BranchList?stateCode=FL&LCSpeciality=all&SpanishSpeaking=no", "brand": "Caliber Home Loans", "brand:wikidata": "Q25055134"}, "geometry": {"type": "Point", "coordinates": [-85.6979337, 30.1757916]}},
{"type": "Feature", "id": "JNg8gq0Pfr-tahwsNfXaZK5Eemo=", "properties": {"ref": "1473316", "@spider": "caliber_home_loans", "addr:full": "3903 Northdale Boulevard  Suites 210E and 270E", "addr:city": "Tampa", "addr:state": "FL", "addr:postcode": "33624", "addr:country": "US", "name": "18871 - Northdale - 3903 Northdale Boulevard", "website": "https://www.caliberhomeloans.com/Home/BranchList?stateCode=FL&LCSpeciality=all&SpanishSpeaking=no", "brand": "Caliber Home Loans", "brand:wikidata": "Q25055134"}, "geometry": {"type": "Point", "coordinates": [-82.516564, 28.103146]}},
{"type": "Feature", "id": "RROCEzKHO0EMpu030ZbdiMY_YNM=", "properties": {"ref": "1606696", "@spider": "caliber_home_loans", "addr:full": "2 Alhambra Plaza Suite 1220", "addr:city": "Coral Gables", "addr:state": "FL", "addr:postcode": "33134", "addr:country": "US", "name": "19466 - Coral Gables - 2 Alhambra Plaza", "website": "https://www.caliberhomeloans.com/Home/BranchList?stateCode=FL&LCSpeciality=all&SpanishSpeaking=no", "brand": "Caliber Home Loans", "brand:wikidata": "Q25055134"}, "geometry": {"type": "Point", "coordinates": [-80.2558084, 25.7518672]}},
{"type": "Feature", "id": "SeVtiHBrkWPaGTA585ftVOWTJUQ=", "properties": {"ref": "1393005", "@spider": "caliber_home_loans", "addr:full": "3903 Northdale Boulevard  Suites 210E and 270E", "addr:city": "Tampa", "addr:state": "FL", "addr:postcode": "33624", "addr:country": "US", "name": "18871 - Northdale - 3903 Northdale Boulevard", "website": "https://www.caliberhomeloans.com/Home/BranchList?stateCode=FL&LCSpeciality=all&SpanishSpeaking=no", "brand": "Caliber Home Loans", "brand:wikidata": "Q25055134"}, "geometry": {"type": "Point", "coordinates": [-82.5069347, 28.0946997]}},
{"type": "Feature", "id": "SIBwC9uUjYoASMUC2nWd8S2nr4I=", "properties": {"ref": "1514904", "@spider": "caliber_home_loans", "addr:full": "9145 Narcoossee Road  Suite A-209", "addr:city": "Orlando", "addr:state": "FL", "addr:postcode": "32827", "addr:country": "US", "name": "19078 - Orlando - 9145 Narcoossee Road", "website": "https://www.caliberhomeloans.com/Home/BranchList?stateCode=FL&LCSpeciality=all&SpanishSpeaking=no", "brand": "Caliber Home Loans", "brand:wikidata": "Q25055134"}, "geometry": {"type": "Point", "coordinates": [-81.2563144, 28.4349538]}},
{"type": "Feature", "id": "hY60pIbMAzDFdpDILkhUgZe0QpE=", "properties": {"ref": "1263124", "@spider": "caliber_home_loans", "addr:full": "1819 Main Street  Suite 201", "addr:city": "Sarasota", "addr:state": "FL", "addr:postcode": "34236", "addr:country": "US", "name": "18543 - Sarasota - 1819 Main Street", "website": "https://www.caliberhomeloans.com/Home/BranchList?stateCode=FL&LCSpeciality=all&SpanishSpeaking=no", "brand": "Caliber Home Loans", "brand:wikidata": "Q25055134"}, "geometry": {"type": "Point", "coordinates": [-82.5337182, 27.3367828]}},
{"type": "Feature", "id": "R2jxxGKLa90l8UIAi2JDZejN504=", "properties": {"ref": "2155539", "@spider": "caliber_home_loans", "addr:full": "4397 Highway 53", "addr:city": "Hoschton", "addr:state": "GA", "addr:postcode": "30548", "addr:country": "US", "name": "90345 - 4397 Highway 53  Hoschton  GA", "website": "https://www.caliberhomeloans.com/Home/BranchList?stateCode=GA&LCSpeciality=all&SpanishSpeaking=no", "brand": "Caliber Home Loans", "brand:wikidata": "Q25055134"}, "geometry": {"type": "Point", "coordinates": [-83.7628409, 34.0988123]}},
{"type": "Feature", "id": "v5zl1TC81-jAONtvv2Mi7S9l7Js=", "properties": {"ref": "2352419", "@spider": "caliber_home_loans", "addr:full": "23 Chatham Center South Dr.  Ste. A", "addr:city": "Savannah", "addr:state": "GA", "addr:postcode": "31405", "addr:country": "US", "name": "19649 - Savannah - 23 Chatham Center South Dr.", "website": "https://www.caliberhomeloans.com/Home/BranchList?stateCode=GA&LCSpeciality=all&SpanishSpeaking=no", "brand": "Caliber Home Loans", "brand:wikidata": "Q25055134"}, "geometry": {"type": "Point", "coordinates": [-81.1568263, 32.0637435]}},
{"type": "Feature", "id": "tPHUjvE3pBxn_zQ_aIkDYX0k2C8=", "properties": {"ref": "1328582", "@spider": "caliber_home_loans", "addr:full": "900 North Point Pkwy.  Ste. 120", "addr:city": "Alpharetta", "addr:state": "GA", "addr:postcode": "30005", "addr:country": "US", "name": "19578 - Alpharetta - 900 North Point Parkway", "website": "https://www.caliberhomeloans.com/Home/BranchList?stateCode=GA&LCSpeciality=all&SpanishSpeaking=no", "brand": "Caliber Home Loans", "brand:wikidata": "Q25055134"}, "geometry": {"type": "Point", "coordinates": [-84.2553265, 34.0806093]}},
{"type": "Feature", "id": "klHuuEHMhOwY4emNfNCyVZnsQtY=", "properties": {"ref": "2155483", "@spider": "caliber_home_loans", "addr:full": "1700 Frederica Road Suite 106", "addr:city": "St Simons Island", "addr:state": "GA", "addr:postcode": "31522", "addr:country": "US", "name": "19555 - St Simons Island - 1700 Frederica Rd", "website": "https://www.caliberhomeloans.com/Home/BranchList?stateCode=GA&LCSpeciality=all&SpanishSpeaking=no", "brand": "Caliber Home Loans", "brand:wikidata": "Q25055134"}, "geometry": {"type": "Point", "coordinates": [-81.3866341, 31.1632425]}},
{"type": "Feature", "id": "ISFUWBgBqmZPIokVci_jkvOT4DA=", "properties": {"ref": "1281684", "@spider": "caliber_home_loans", "addr:full": "900 North Point Pkwy.  Ste. 120", "addr:city": "Alpharetta", "addr:state": "GA", "addr:postcode": "30005", "addr:country": "US", "name": "19578 - Alpharetta - 900 North Point Parkway", "website": "https://www.caliberhomeloans.com/Home/BranchList?stateCode=GA&LCSpeciality=all&SpanishSpeaking=no", "brand": "Caliber Home Loans", "brand:wikidata": "Q25055134"}, "geometry": {"type": "Point", "coordinates": [-84.2553221, 34.0805513]}},
{"type": "Feature", "id": "k09a_7lQqlepOp7YiyVKOU0ftVo=", "properties": {"ref": "1043585", "@spider": "caliber_home_loans", "addr:full": "1900 State St, Unit 2", "addr:city": "Bettendorf", "addr:state": "IA", "addr:postcode": "52722", "addr:country": "US", "name": "Bettendorf-1900 State St Unit 2", "website": "https://www.caliberhomeloans.com/Home/BranchList?stateCode=IA&LCSpeciality=all&SpanishSpeaking=no", "brand": "Caliber Home Loans", "brand:wikidata": "Q25055134"}, "geometry": {"type": "Point", "coordinates": [-90.5054915, 41.5255622]}},
{"type": "Feature", "id": "-Fr-RMgfzw4SgWkmykl4YhpCuIE=", "properties": {"ref": "1833578", "@spider": "caliber_home_loans", "addr:full": "310 East 2nd North", "addr:city": "Mountain Home", "addr:state": "ID", "addr:postcode": "83647", "addr:country": "US", "name": "19343 - Mountain Home - 310 East 2nd North", "website": "https://www.caliberhomeloans.com/Home/BranchList?stateCode=ID&LCSpeciality=all&SpanishSpeaking=no", "brand": "Caliber Home Loans", "brand:wikidata": "Q25055134"}, "geometry": {"type": "Point", "coordinates": [-115.6927697, 43.1326278]}},
{"type": "Feature", "id": "zuvyjGs8gGe2lERHYLQaadgj5GQ=", "properties": {"ref": "1235774", "@spider": "caliber_home_loans", "addr:full": "123 S. Third Avenue, Suite 6A", "addr:city": "Sandpoint", "addr:state": "ID", "addr:postcode": "83864", "addr:country": "US", "name": "Sandpoint Third Avenue", "website": "https://www.caliberhomeloans.com/Home/BranchList?stateCode=ID&LCSpeciality=all&SpanishSpeaking=no", "brand": "Caliber Home Loans", "brand:wikidata": "Q25055134"}, "geometry": {"type": "Point", "coordinates": [-116.5499514, 48.2724125]}},
{"type": "Feature", "id": "ceUndzUpFCjaz4lrgP7IB0aTat8=", "properties": {"ref": "1720876", "@spider": "caliber_home_loans", "addr:full": "10-B Schaumburg Rd.", "addr:city": "Schaumburg", "addr:state": "IL", "addr:postcode": "60194", "addr:country": "US", "name": "19242 - Schaumburg - 10-B Schaumburg Rd.", "website": "https://www.caliberhomeloans.com/Home/BranchList?stateCode=IL&LCSpeciality=all&SpanishSpeaking=no", "brand": "Caliber Home Loans", "brand:wikidata": "Q25055134"}, "geometry": {"type": "Point", "coordinates": [-88.0808013, 42.0275907]}},
{"type": "Feature", "id": "ScZBlHR2u7EKcjFVMg49r_Y5PFQ=", "properties": {"ref": "1737952", "@spider": "caliber_home_loans", "addr:full": "1431 Opus Place  Suite 135 and 603", "addr:city": "Downers Grove", "addr:state": "IL", "addr:postcode": "60515", "addr:country": "US", "name": "18891 - Downers Grove - 1431 Opus Place", "website": "https://www.caliberhomeloans.com/Home/BranchList?stateCode=IL&LCSpeciality=all&SpanishSpeaking=no", "brand": "Caliber Home Loans", "brand:wikidata": "Q25055134"}, "geometry": {"type": "Point", "coordinates": [-88.0230679, 41.8282565]}},
{"type": "Feature", "id": "bgzBU3GPPJ6DJbkM_FYgM6KvTQs=", "properties": {"ref": "1814137", "@spider": "caliber_home_loans", "addr:full": "503 East Church St.", "addr:city": "Sandwich", "addr:state": "IL", "addr:postcode": "60548", "addr:country": "US", "name": "DR - Swanson Real Estate", "website": "https://www.caliberhomeloans.com/Home/BranchList?stateCode=IL&LCSpeciality=all&SpanishSpeaking=no", "brand": "Caliber Home Loans", "brand:wikidata": "Q25055134"}, "geometry": {"type": "Point", "coordinates": [-88.61537, 41.6450341]}},
{"type": "Feature", "id": "v02NE377OBp92YgKaInsaP_MJsc=", "properties": {"ref": "1176846", "@spider": "caliber_home_loans", "addr:full": "343 W Erie St. Office 325", "addr:city": "Chicago", "addr:state": "IL", "addr:postcode": "60654", "addr:country": "US", "name": "19641 - Chicago - 343 W Erie St.", "website": "https://www.caliberhomeloans.com/Home/BranchList?stateCode=IL&LCSpeciality=all&SpanishSpeaking=no", "brand": "Caliber Home Loans", "brand:wikidata": "Q25055134"}, "geometry": {"type": "Point", "coordinates": [-87.637485, 41.893684]}},
{"type": "Feature", "id": "Yspll4s86eCZT9i1ukzYtrwuQTA=", "properties": {"ref": "90126", "@spider": "caliber_home_loans", "addr:full": "226 W. Adams St. Suite B", "addr:city": "Morton", "addr:state": "IL", "addr:postcode": "61550", "addr:country": "US", "name": "90126 - DR - Sandy Glover- 226 W Adams St", "website": "https://www.caliberhomeloans.com/Home/BranchList?stateCode=IL&LCSpeciality=all&SpanishSpeaking=no", "brand": "Caliber Home Loans", "brand:wikidata": "Q25055134"}, "geometry": {"type": "Point", "coordinates": [-89.4651706, 40.6104032]}},
{"type": "Feature", "id": "A40m2JYJiHc7xHhpRegOve5uYgA=", "properties": {"ref": "1468472", "@spider": "caliber_home_loans", "addr:full": "34121 N. Hwy 45  Unit 7", "addr:city": "Grayslake", "addr:state": "IL", "addr:postcode": "60030", "addr:country": "US", "name": "18884 - Grayslake - 34121 N. Hwy 45", "website": "https://www.caliberhomeloans.com/Home/BranchList?stateCode=IL&LCSpeciality=all&SpanishSpeaking=no", "brand": "Caliber Home Loans", "brand:wikidata": "Q25055134"}, "geometry": {"type": "Point", "coordinates": [-88.000763, 42.3586533]}},
{"type": "Feature", "id": "7Q9PajmHYrrSfBk0b7QMk4Rj6xU=", "properties": {"ref": "1043622", "@spider": "caliber_home_loans", "addr:full": "2886 W. Willow Knolls Road", "addr:city": "Peoria", "addr:state": "IL", "addr:postcode": "61614", "addr:country": "US", "name": "18166 - Peoria - 2886 W. Willow Knolls Road", "website": "https://www.caliberhomeloans.com/Home/BranchList?stateCode=IL&LCSpeciality=all&SpanishSpeaking=no", "brand": "Caliber Home Loans", "brand:wikidata": "Q25055134"}, "geometry": {"type": "Point", "coordinates": [-89.636455, 40.7758929]}},
{"type": "Feature", "id": "oGYqKmsKCDNf7FJFArRiI9aNFcU=", "properties": {"ref": "1529614", "@spider": "caliber_home_loans", "addr:full": "3514 46th Avenue", "addr:city": "Rock Island", "addr:state": "IL", "addr:postcode": "61201", "addr:country": "US", "name": "19006 - Moline - 3514 46th Avenue", "website": "https://www.caliberhomeloans.com/Home/BranchList?stateCode=IL&LCSpeciality=all&SpanishSpeaking=no", "brand": "Caliber Home Loans", "brand:wikidata": "Q25055134"}, "geometry": {"type": "Point", "coordinates": [-90.5505466, 41.4658767]}},
{"type": "Feature", "id": "fzJeJR5P6Z1mQATERMdc5bAKEOs=", "properties": {"ref": "1642669", "@spider": "caliber_home_loans", "addr:full": "Naperville - 55 S. Main St. Suite 330", "addr:city": "Naperville", "addr:state": "IL", "addr:postcode": "60540", "addr:country": "US", "name": "19645 - Naperville - 55 S. Main St.", "website": "https://www.caliberhomeloans.com/Home/BranchList?stateCode=IL&LCSpeciality=all&SpanishSpeaking=no", "brand": "Caliber Home Loans", "brand:wikidata": "Q25055134"}, "geometry": {"type": "Point", "coordinates": [-88.149995, 41.774236]}},
{"type": "Feature", "id": "y3YcazBN5tc18bMxIsjDpwScZGw=", "properties": {"ref": "1456922", "@spider": "caliber_home_loans", "addr:full": "1431 Opus Place  Suite 135 and 603", "addr:city": "Downers Grove", "addr:state": "IL", "addr:postcode": "60515", "addr:country": "US", "name": "18891 - Downers Grove - 1431 Opus Place", "website": "https://www.caliberhomeloans.com/Home/BranchList?stateCode=IL&LCSpeciality=all&SpanishSpeaking=no", "brand": "Caliber Home Loans", "brand:wikidata": "Q25055134"}, "geometry": {"type": "Point", "coordinates": [-88.0230679, 41.8282565]}},
{"type": "Feature", "id": "dydo2qInsSokZTEDyVEhpprGFx4=", "properties": {"ref": "2320269", "@spider": "caliber_home_loans", "addr:full": "10401 N. Meridian Street Suite 160", "addr:city": "Carmel", "addr:state": "IN", "addr:postcode": "46290", "addr:country": "US", "name": "19310 - Carmel - 10401 N. Meridian Street", "website": "https://www.caliberhomeloans.com/Home/BranchList?stateCode=IN&LCSpeciality=all&SpanishSpeaking=no", "brand": "Caliber Home Loans", "brand:wikidata": "Q25055134"}, "geometry": {"type": "Point", "coordinates": [-86.1564964, 39.9389714]}},
{"type": "Feature", "id": "JCNTAUyN0qo17WjckDqx_tiwpLU=", "properties": {"ref": "15622-314263", "@spider": "caliber_home_loans", "addr:full": "123 E. 113th Ave.", "addr:city": "Crown Point", "addr:state": "IN", "addr:postcode": "46307", "addr:country": "US", "name": "19423 - Crown Point - 123 E. 113th Ave.", "website": "https://www.caliberhomeloans.com/Home/BranchList?stateCode=IN&LCSpeciality=all&SpanishSpeaking=no", "brand": "Caliber Home Loans", "brand:wikidata": "Q25055134"}, "geometry": {"type": "Point", "coordinates": [-87.3349958, 41.4128012]}},
{"type": "Feature", "id": "Xw2VkwC0VVTPIvzsRG5tcFNqe9Y=", "properties": {"ref": "1836283", "@spider": "caliber_home_loans", "addr:full": "10401 N. Meridian Street Suite 160", "addr:city": "Carmel", "addr:state": "IN", "addr:postcode": "46290", "addr:country": "US", "name": "19310 - Carmel - 10401 N. Meridian Street", "website": "https://www.caliberhomeloans.com/Home/BranchList?stateCode=IN&LCSpeciality=all&SpanishSpeaking=no", "brand": "Caliber Home Loans", "brand:wikidata": "Q25055134"}, "geometry": {"type": "Point", "coordinates": [-86.1564964, 39.9389714]}},
{"type": "Feature", "id": "5AB-NIQm-Djb5l5n5GlT_2ywXrI=", "properties": {"ref": "15622-47906", "@spider": "caliber_home_loans", "addr:full": "500 Sagamore Parkway W.  Suite 4W", "addr:city": "West Lafayette", "addr:state": "IN", "addr:postcode": "47906", "addr:country": "US", "name": "18638 - Lafayette- 500 Sagamore Parkway W", "website": "https://www.caliberhomeloans.com/Home/BranchList?stateCode=IN&LCSpeciality=all&SpanishSpeaking=no", "brand": "Caliber Home Loans", "brand:wikidata": "Q25055134"}, "geometry": {"type": "Point", "coordinates": [-86.9122434, 40.4542]}},
{"type": "Feature", "id": "jFInaVldorujIisX-moXaUU9wLw=", "properties": {"ref": "15622-47304", "@spider": "caliber_home_loans", "addr:full": "3621 N. Everbrook Lane suite 3", "addr:city": "Muncie", "addr:state": "IN", "addr:postcode": "47304", "addr:country": "US", "name": "Muncie - 3621 N. Everbrook Lane suite 3", "website": "https://www.caliberhomeloans.com/Home/BranchList?stateCode=IN&LCSpeciality=all&SpanishSpeaking=no", "brand": "Caliber Home Loans", "brand:wikidata": "Q25055134"}, "geometry": {"type": "Point", "coordinates": [-85.427165, 40.222612]}},
{"type": "Feature", "id": "XgTW_bVtSWoi9rMUt0ht4xW30Ls=", "properties": {"ref": "1499556", "@spider": "caliber_home_loans", "addr:full": "10022 Lantern Road  Suite 600", "addr:city": "Fishers", "addr:state": "IN", "addr:postcode": "46038", "addr:country": "US", "name": "17853 - Indy North - 10022 Lantern Road", "website": "https://www.caliberhomeloans.com/Home/BranchList?stateCode=IN&LCSpeciality=all&SpanishSpeaking=no", "brand": "Caliber Home Loans", "brand:wikidata": "Q25055134"}, "geometry": {"type": "Point", "coordinates": [-86.0143462, 39.9333794]}},
{"type": "Feature", "id": "3XzInfWngYYK-98YJU85AabXK6k=", "properties": {"ref": "15622-525374", "@spider": "caliber_home_loans", "addr:full": "10106 Brooks School Rd. Ste. 200A", "addr:city": "Fishers", "addr:state": "IN", "addr:postcode": "46037", "addr:country": "US", "name": "19372 - Fishers(Geist)  IN - 10106 Brooks School Rd.", "website": "https://www.caliberhomeloans.com/Home/BranchList?stateCode=IN&LCSpeciality=all&SpanishSpeaking=no", "brand": "Caliber Home Loans", "brand:wikidata": "Q25055134"}, "geometry": {"type": "Point", "coordinates": [-85.9481672, 39.9348672]}},
{"type": "Feature", "id": "qnqRQDyOZF5cf0oBi22BazzEi1g=", "properties": {"ref": "15622-525367", "@spider": "caliber_home_loans", "addr:full": "2907 Enterprise Drive", "addr:city": "Anderson", "addr:state": "IN", "addr:postcode": "46013", "addr:country": "US", "name": "18284 - Anderson - 2907 Enterprise Drive", "website": "https://www.caliberhomeloans.com/Home/BranchList?stateCode=IN&LCSpeciality=all&SpanishSpeaking=no", "brand": "Caliber Home Loans", "brand:wikidata": "Q25055134"}, "geometry": {"type": "Point", "coordinates": [-85.727337, 40.037116]}},
{"type": "Feature", "id": "lcIxpox7Yf2VCB795e-R_bIw_AU=", "properties": {"ref": "18193", "@spider": "caliber_home_loans", "addr:full": "549 E. County Line Road  Suite B", "addr:city": "Greenwood", "addr:state": "IN", "addr:postcode": "46143", "addr:country": "US", "name": "18193 - Greenwood - 549 E. County Line Road", "website": "https://www.caliberhomeloans.com/Home/BranchList?stateCode=IN&LCSpeciality=all&SpanishSpeaking=no", "brand": "Caliber Home Loans", "brand:wikidata": "Q25055134"}, "geometry": {"type": "Point", "coordinates": [-86.0938251, 39.6352756]}},
{"type": "Feature", "id": "R_ZTlkTtxFpJ4Ys8Qnh-fjFdShk=", "properties": {"ref": "15622-525366", "@spider": "caliber_home_loans", "addr:full": "1260 N. Post Road  Suite B", "addr:city": "Indianapolis", "addr:state": "IN", "addr:postcode": "46219", "addr:country": "US", "name": "18267 - Indy East - 1260 N. Post Road", "website": "https://www.caliberhomeloans.com/Home/BranchList?stateCode=IN&LCSpeciality=all&SpanishSpeaking=no", "brand": "Caliber Home Loans", "brand:wikidata": "Q25055134"}, "geometry": {"type": "Point", "coordinates": [-86.0097256, 39.7862598]}},
{"type": "Feature", "id": "6AwQc1QY2P_lzO__zZS7A-wHZP0=", "properties": {"ref": "1777645", "@spider": "caliber_home_loans", "addr:full": "8190 Windfall Lane  Suite D", "addr:city": "Camby", "addr:state": "IN", "addr:postcode": "46113", "addr:country": "US", "name": "16784 - Mooresville - 8190 Windfall Lane", "website": "https://www.caliberhomeloans.com/Home/BranchList?stateCode=IN&LCSpeciality=all&SpanishSpeaking=no", "brand": "Caliber Home Loans", "brand:wikidata": "Q25055134"}, "geometry": {"type": "Point", "coordinates": [-86.3309024, 39.6443893]}},
{"type": "Feature", "id": "sE99C4TBiyXL812riw_-qQG6T3M=", "properties": {"ref": "15622-525365", "@spider": "caliber_home_loans", "addr:full": "10080 E. US Hwy 36  Suite C", "addr:city": "Avon", "addr:state": "IN", "addr:postcode": "46123", "addr:country": "US", "name": "16548 - Avon - 10080 E. US Hwy 36", "website": "https://www.caliberhomeloans.com/Home/BranchList?stateCode=IN&LCSpeciality=all&SpanishSpeaking=no", "brand": "Caliber Home Loans", "brand:wikidata": "Q25055134"}, "geometry": {"type": "Point", "coordinates": [-86.3441502, 39.7641964]}},
{"type": "Feature", "id": "x62s4oeO0vmNDgHX7ei5XYC1puI=", "properties": {"ref": "1161654", "@spider": "caliber_home_loans", "addr:full": "3427 N. Green River Road", "addr:city": "Evansville", "addr:state": "IN", "addr:postcode": "47715", "addr:country": "US", "name": "19072 - Evansville - 3427 N. Green River", "website": "https://www.caliberhomeloans.com/Home/BranchList?stateCode=IN&LCSpeciality=all&SpanishSpeaking=no", "brand": "Caliber Home Loans", "brand:wikidata": "Q25055134"}, "geometry": {"type": "Point", "coordinates": [-87.4915395, 38.0094181]}},
{"type": "Feature", "id": "L6R4ljFzbLINiy14JwdQW942Iu0=", "properties": {"ref": "167066", "@spider": "caliber_home_loans", "addr:full": "116 W Second St. Suite A", "addr:city": "Ottawa", "addr:state": "KS", "addr:postcode": "66067", "addr:country": "US", "name": "19592 - Ottawa - 116 W Second St.", "website": "https://www.caliberhomeloans.com/Home/BranchList?stateCode=KS&LCSpeciality=all&SpanishSpeaking=no", "brand": "Caliber Home Loans", "brand:wikidata": "Q25055134"}, "geometry": {"type": "Point", "coordinates": [-95.26967, 38.6148537]}},
{"type": "Feature", "id": "4PmFskoGlut-ZFBYHxIIy9Xx6qk=", "properties": {"ref": "1670665", "@spider": "caliber_home_loans", "addr:full": "10975 Grandview St. Suite 175", "addr:city": "Overland Park", "addr:state": "KS", "addr:postcode": "66210", "addr:country": "US", "name": "19243 - Overland Park - 10975 Grandview St.", "website": "https://www.caliberhomeloans.com/Home/BranchList?stateCode=KS&LCSpeciality=all&SpanishSpeaking=no", "brand": "Caliber Home Loans", "brand:wikidata": "Q25055134"}, "geometry": {"type": "Point", "coordinates": [-94.6902843, 38.928769]}},
{"type": "Feature", "id": "t5L0u6KOnMYyXqwiCFa38RyKQHQ=", "properties": {"ref": "15622", "@spider": "caliber_home_loans", "addr:full": "10975 Grandview St. Suite 175", "addr:city": "Overland Park", "addr:state": "KS", "addr:postcode": "66210", "addr:country": "US", "name": "19243 - Overland Park - 10975 Grandview St.", "website": "https://www.caliberhomeloans.com/Home/BranchList?stateCode=KS&LCSpeciality=all&SpanishSpeaking=no", "brand": "Caliber Home Loans", "brand:wikidata": "Q25055134"}, "geometry": {"type": "Point", "coordinates": [-94.70189, 38.9193108]}},
{"type": "Feature", "id": "o61PrsNj-JbF1Beah3SNBMLxSp4=", "properties": {"ref": "18140", "@spider": "caliber_home_loans", "addr:full": "1650 UPS Drive  Suite 103", "addr:city": "Louisville", "addr:state": "KY", "addr:postcode": "40223", "addr:country": "US", "name": "17891 - Louisville - 1650 UPS Drive", "website": "https://www.caliberhomeloans.com/Home/BranchList?stateCode=KY&LCSpeciality=all&SpanishSpeaking=no", "brand": "Caliber Home Loans", "brand:wikidata": "Q25055134"}, "geometry": {"type": "Point", "coordinates": [-85.5697677, 38.2692395]}},
{"type": "Feature", "id": "Hl3q9-KwO5712mPvrzoj1OQmf3k=", "properties": {"ref": "1394719", "@spider": "caliber_home_loans", "addr:full": "4979 Bluebonnet Blvd.  Suite B", "addr:city": "Baton Rouge", "addr:state": "LA", "addr:postcode": "70809", "addr:country": "US", "name": "18752 - Baton Rouge - 4979 Bluebonnet Blvd", "website": "https://www.caliberhomeloans.com/Home/BranchList?stateCode=LA&LCSpeciality=all&SpanishSpeaking=no", "brand": "Caliber Home Loans", "brand:wikidata": "Q25055134"}, "geometry": {"type": "Point", "coordinates": [-91.08175, 30.403199]}},
{"type": "Feature", "id": "WBHHX1_9oepmcwKBZY5NLf53xhE=", "properties": {"ref": "2035764", "@spider": "caliber_home_loans", "addr:full": "3140 W. Ward Rd. Suite 101", "addr:city": "Dunkirk", "addr:state": "MD", "addr:postcode": "20754", "addr:country": "US", "name": "19499 - Dunkirk - 3140 W. Ward Rd.", "website": "https://www.caliberhomeloans.com/Home/BranchList?stateCode=MD&LCSpeciality=all&SpanishSpeaking=no", "brand": "Caliber Home Loans", "brand:wikidata": "Q25055134"}, "geometry": {"type": "Point", "coordinates": [-76.6626583, 38.7177103]}},
{"type": "Feature", "id": "8r2BbtsKU0gzI5z3qXxgREhEBq8=", "properties": {"ref": "1439777", "@spider": "caliber_home_loans", "addr:full": "225 Schilling Circle  Suites 190-195", "addr:city": "Hunt Valley", "addr:state": "MD", "addr:postcode": "21031", "addr:country": "US", "name": "18791 - Hunt Valley - 225 Schilling Circle", "website": "https://www.caliberhomeloans.com/Home/BranchList?stateCode=MD&LCSpeciality=all&SpanishSpeaking=no", "brand": "Caliber Home Loans", "brand:wikidata": "Q25055134"}, "geometry": {"type": "Point", "coordinates": [-76.6634704, 39.4907953]}},
{"type": "Feature", "id": "XEca7y08rT2s9jX6QRx_ory5Y6s=", "properties": {"ref": "1043781", "@spider": "caliber_home_loans", "addr:full": "2600 Tower Oaks Blvd. Suite 100", "addr:city": "Rockville", "addr:state": "MD", "addr:postcode": "20852", "addr:country": "US", "name": "19402 - Rockville - 2600 Tower Oaks Blvd.", "website": "https://www.caliberhomeloans.com/Home/BranchList?stateCode=MD&LCSpeciality=all&SpanishSpeaking=no", "brand": "Caliber Home Loans", "brand:wikidata": "Q25055134"}, "geometry": {"type": "Point", "coordinates": [-77.1541477, 39.0624503]}},
{"type": "Feature", "id": "TM-0kNXPFIm9TkVvt68T_CAFVac=", "properties": {"ref": "1043512", "@spider": "caliber_home_loans", "addr:full": "185 Admiral Cochrane Drive  Suite 205", "addr:city": "Annapolis", "addr:state": "MD", "addr:postcode": "21401", "addr:country": "US", "name": "18562 - Annapolis - 185 Admiral Cochrane Drive", "website": "https://www.caliberhomeloans.com/Home/BranchList?stateCode=MD&LCSpeciality=all&SpanishSpeaking=no", "brand": "Caliber Home Loans", "brand:wikidata": "Q25055134"}, "geometry": {"type": "Point", "coordinates": [-76.548554, 38.973439]}},
{"type": "Feature", "id": "H4YUFV3hetg1FpzYD8Kft1MQU7I=", "properties": {"ref": "1186447", "@spider": "caliber_home_loans", "addr:full": "1829 Reisterstown Road  Suite 150", "addr:city": "Pikesville", "addr:state": "MD", "addr:postcode": "21208", "addr:country": "US", "name": "18282 - Pikesville - 1829 Reisterstown Road", "website": "https://www.caliberhomeloans.com/Home/BranchList?stateCode=MD&LCSpeciality=all&SpanishSpeaking=no", "brand": "Caliber Home Loans", "brand:wikidata": "Q25055134"}, "geometry": {"type": "Point", "coordinates": [-76.7376209, 39.3893813]}},
{"type": "Feature", "id": "v2lqmZnbx3-55NOwJczwnMCe1yA=", "properties": {"ref": "1043758", "@spider": "caliber_home_loans", "addr:full": "2600 Tower Oaks Blvd. Suite 100", "addr:city": "Rockville", "addr:state": "MD", "addr:postcode": "20852", "addr:country": "US", "name": "19402 - Rockville - 2600 Tower Oaks Blvd.", "website": "https://www.caliberhomeloans.com/Home/BranchList?stateCode=MD&LCSpeciality=all&SpanishSpeaking=no", "brand": "Caliber Home Loans", "brand:wikidata": "Q25055134"}, "geometry": {"type": "Point", "coordinates": [-77.1541785, 39.0624614]}},
{"type": "Feature", "id": "UIv0r0L6Oso_XfTqsmEgWp5xfb0=", "properties": {"ref": "1043764", "@spider": "caliber_home_loans", "addr:full": "10500 Little Patuxent Parkway  Suite 750", "addr:city": "Columbia", "addr:state": "MD", "addr:postcode": "21044", "addr:country": "US", "name": "18515 - Columbia - 10500 Little Patuxent Parkway", "website": "https://www.caliberhomeloans.com/Home/BranchList?stateCode=MD&LCSpeciality=all&SpanishSpeaking=no", "brand": "Caliber Home Loans", "brand:wikidata": "Q25055134"}, "geometry": {"type": "Point", "coordinates": [-76.864358, 39.211909]}},
{"type": "Feature", "id": "379MSvlUFoUN1G_-4T2bA2UQDa0=", "properties": {"ref": "1480386", "@spider": "caliber_home_loans", "addr:full": "75 Market Street Suite 401  404 and 403", "addr:city": "Portland", "addr:state": "ME", "addr:postcode": "04101", "addr:country": "US", "name": "19047 - Portland - 75 Market St.", "website": "https://www.caliberhomeloans.com/Home/BranchList?stateCode=ME&LCSpeciality=all&SpanishSpeaking=no", "brand": "Caliber Home Loans", "brand:wikidata": "Q25055134"}, "geometry": {"type": "Point", "coordinates": [-70.2568775, 43.6629964]}},
{"type": "Feature", "id": "Ouaw4X-BL0XehllFPHfIrKZMk1w=", "properties": {"ref": "1754735", "@spider": "caliber_home_loans", "addr:full": "113 W. Main Street", "addr:city": "Manton", "addr:state": "MI", "addr:postcode": "49663", "addr:country": "US", "name": "90136 - DR - Jaimie Fellows - Garno Real Estate Inc - Manton - 113 W. Main Street", "website": "https://www.caliberhomeloans.com/Home/BranchList?stateCode=MI&LCSpeciality=all&SpanishSpeaking=no", "brand": "Caliber Home Loans", "brand:wikidata": "Q25055134"}, "geometry": {"type": "Point", "coordinates": [-85.398878, 44.4106505]}},
{"type": "Feature", "id": "PNkRdUrBXnbH5PUxzrZ81xJOUv4=", "properties": {"ref": "30079", "@spider": "caliber_home_loans", "addr:full": "16440 26 Mile Rd.", "addr:city": "Macomb", "addr:state": "MI", "addr:postcode": "48042", "addr:country": "US", "name": "19655 - Macomb - 16440 26 Mile Rd.", "website": "https://www.caliberhomeloans.com/Home/BranchList?stateCode=MI&LCSpeciality=all&SpanishSpeaking=no", "brand": "Caliber Home Loans", "brand:wikidata": "Q25055134"}, "geometry": {"type": "Point", "coordinates": [-82.9622746, 42.7143471]}},
{"type": "Feature", "id": "UVklAAkU7UcQYBLNkc6v4ivLXLM=", "properties": {"ref": "23270", "@spider": "caliber_home_loans", "addr:full": "16440 26 Mile Rd.", "addr:city": "Macomb", "addr:state": "MI", "addr:postcode": "48042", "addr:country": "US", "name": "19655 - Macomb - 16440 26 Mile Rd.", "website": "https://www.caliberhomeloans.com/Home/BranchList?stateCode=MI&LCSpeciality=all&SpanishSpeaking=no", "brand": "Caliber Home Loans", "brand:wikidata": "Q25055134"}, "geometry": {"type": "Point", "coordinates": [-82.9622746, 42.7143471]}},
{"type": "Feature", "id": "tZs3q75Eb0pRdRAsQiSs74mS9bU=", "properties": {"ref": "159345", "@spider": "caliber_home_loans", "addr:full": "16440 26 Mile Rd.", "addr:city": "Macomb", "addr:state": "MI", "addr:postcode": "48042", "addr:country": "US", "name": "19655 - Macomb - 16440 26 Mile Rd.", "website": "https://www.caliberhomeloans.com/Home/BranchList?stateCode=MI&LCSpeciality=all&SpanishSpeaking=no", "brand": "Caliber Home Loans", "brand:wikidata": "Q25055134"}, "geometry": {"type": "Point", "coordinates": [-82.9622746, 42.7143471]}},
{"type": "Feature", "id": "m3jrMm86n1f1xYTNITsYpZIKpcQ=", "properties": {"ref": "2383065", "@spider": "caliber_home_loans", "addr:full": "42536 Hayes Road Suite 500", "addr:city": "Clinton Twp", "addr:state": "MI", "addr:postcode": "48038", "addr:country": "US", "name": "19656 - Clinton Township - 42536 Hayes Rd.", "website": "https://www.caliberhomeloans.com/Home/BranchList?stateCode=MI&LCSpeciality=all&SpanishSpeaking=no", "brand": "Caliber Home Loans", "brand:wikidata": "Q25055134"}, "geometry": {"type": "Point", "coordinates": [-82.9719137, 42.6087239]}},
{"type": "Feature", "id": "RRaXRCXl8ZVwsQS7M77j-faxjJU=", "properties": {"ref": "19229", "@spider": "caliber_home_loans", "addr:full": "134 Main Centre", "addr:city": "Northville", "addr:state": "MI", "addr:postcode": "48167", "addr:country": "US", "name": "19037 - Northville - 134 Main Centre", "website": "https://www.caliberhomeloans.com/Home/BranchList?stateCode=MI&LCSpeciality=all&SpanishSpeaking=no", "brand": "Caliber Home Loans", "brand:wikidata": "Q25055134"}, "geometry": {"type": "Point", "coordinates": [-83.4835115, 42.4305308]}},
{"type": "Feature", "id": "3287zsn3bXmgehNHa0Vp7-2i78o=", "properties": {"ref": "1933625", "@spider": "caliber_home_loans", "addr:full": "12900 Hall Rd Suite 455", "addr:city": "Sterling Heights", "addr:state": "MI", "addr:postcode": "48313", "addr:country": "US", "name": "19241 - Sterling Heights - 12900 Hall Rd", "website": "https://www.caliberhomeloans.com/Home/BranchList?stateCode=MI&LCSpeciality=all&SpanishSpeaking=no", "brand": "Caliber Home Loans", "brand:wikidata": "Q25055134"}, "geometry": {"type": "Point", "coordinates": [-83.0004654, 42.6253986]}},
{"type": "Feature", "id": "ffbh9Dfa6KVCWOeNLzX8JlmPAc0=", "properties": {"ref": "1621899", "@spider": "caliber_home_loans", "addr:full": "134 Main Centre", "addr:city": "Northville", "addr:state": "MI", "addr:postcode": "48167", "addr:country": "US", "name": "19037 - Northville - 134 Main Centre", "website": "https://www.caliberhomeloans.com/Home/BranchList?stateCode=MI&LCSpeciality=all&SpanishSpeaking=no", "brand": "Caliber Home Loans", "brand:wikidata": "Q25055134"}, "geometry": {"type": "Point", "coordinates": [-83.4835115, 42.4305308]}},
{"type": "Feature", "id": "KrfTCvYm5G5ds6vLXccA-kDDygk=", "properties": {"ref": "1623151", "@spider": "caliber_home_loans", "addr:full": "300 E. Front Street  Suite 240", "addr:city": "Traverse City", "addr:state": "MI", "addr:postcode": "49684", "addr:country": "US", "name": "19030 - Traverse City-300 E. Front Street", "website": "https://www.caliberhomeloans.com/Home/BranchList?stateCode=MI&LCSpeciality=all&SpanishSpeaking=no", "brand": "Caliber Home Loans", "brand:wikidata": "Q25055134"}, "geometry": {"type": "Point", "coordinates": [-85.6179095, 44.7638678]}},
{"type": "Feature", "id": "jC0ZorMHMM_4ASnkkQQ1xVwtXrA=", "properties": {"ref": "1610902", "@spider": "caliber_home_loans", "addr:full": "92 Mill Street", "addr:city": "Rochester", "addr:state": "MI", "addr:postcode": "48307", "addr:country": "US", "name": "18793 - Rochester - 92 Mill Street", "website": "https://www.caliberhomeloans.com/Home/BranchList?stateCode=MI&LCSpeciality=all&SpanishSpeaking=no", "brand": "Caliber Home Loans", "brand:wikidata": "Q25055134"}, "geometry": {"type": "Point", "coordinates": [-83.132892, 42.6769942]}},
{"type": "Feature", "id": "y9LP0oW7Qf9UtSjufC-o9aFf15E=", "properties": {"ref": "1614503", "@spider": "caliber_home_loans", "addr:full": "51315 Mound Road", "addr:city": "Shelby Township", "addr:state": "MI", "addr:postcode": "48316", "addr:country": "US", "name": "18903 - Detroit East - 51315 Mound Road", "website": "https://www.caliberhomeloans.com/Home/BranchList?stateCode=MI&LCSpeciality=all&SpanishSpeaking=no", "brand": "Caliber Home Loans", "brand:wikidata": "Q25055134"}, "geometry": {"type": "Point", "coordinates": [-83.0543129, 42.671562]}},
{"type": "Feature", "id": "27TvBX5yutNkyiEXxso5Kls0sXY=", "properties": {"ref": "2128633", "@spider": "caliber_home_loans", "addr:full": "1265 Highway 10 West Suite 8", "addr:city": "Detroit Lakes", "addr:state": "MN", "addr:postcode": "56501", "addr:country": "US", "name": "19536 - Detroit Lakes - 1265 Highway 10 West", "website": "https://www.caliberhomeloans.com/Home/BranchList?stateCode=MN&LCSpeciality=all&SpanishSpeaking=no", "brand": "Caliber Home Loans", "brand:wikidata": "Q25055134"}, "geometry": {"type": "Point", "coordinates": [-95.867389, 46.8259249]}},
{"type": "Feature", "id": "7QHtEWTVtTVlk5AONVR9_yVZc6A=", "properties": {"ref": "2009151", "@spider": "caliber_home_loans", "addr:full": "10400 Baltimore St. NE Suite 120", "addr:city": "Blaine", "addr:state": "MN", "addr:postcode": "55449", "addr:country": "US", "name": "19480 - Blaine - 10400 Baltimore St. NE", "website": "https://www.caliberhomeloans.com/Home/BranchList?stateCode=MN&LCSpeciality=all&SpanishSpeaking=no", "brand": "Caliber Home Loans", "brand:wikidata": "Q25055134"}, "geometry": {"type": "Point", "coordinates": [-93.234251, 45.1600274]}},
{"type": "Feature", "id": "h-FxOc6o2DpkypBtnfBzaesZmCM=", "properties": {"ref": "1811793", "@spider": "caliber_home_loans", "addr:full": "1551 Southcross Drive W  Suite 200", "addr:city": "Burnsville", "addr:state": "MN", "addr:postcode": "55306", "addr:country": "US", "name": "19377 - Burnsville - 1559 Southcross Drive W.", "website": "https://www.caliberhomeloans.com/Home/BranchList?stateCode=MN&LCSpeciality=all&SpanishSpeaking=no", "brand": "Caliber Home Loans", "brand:wikidata": "Q25055134"}, "geometry": {"type": "Point", "coordinates": [-93.29937, 44.736426]}},
{"type": "Feature", "id": "MbDiHQWXKOah_GHEfKgk8aJleQQ=", "properties": {"ref": "1161867", "@spider": "caliber_home_loans", "addr:full": "615 Babcock Blvd. E.  Ste. 300", "addr:city": "Delano", "addr:state": "MN", "addr:postcode": "55328", "addr:country": "US", "name": "19522 - Delano - 615 Babcock Blvd. E.  Ste. 300", "website": "https://www.caliberhomeloans.com/Home/BranchList?stateCode=MN&LCSpeciality=all&SpanishSpeaking=no", "brand": "Caliber Home Loans", "brand:wikidata": "Q25055134"}, "geometry": {"type": "Point", "coordinates": [-93.780028, 45.0352447]}},
{"type": "Feature", "id": "ntVwnf_eXFFcAYo80IzyxGjd2Hw=", "properties": {"ref": "1043806", "@spider": "caliber_home_loans", "addr:full": "7280 NW 87th Terrace  Suite C-227", "addr:city": "Kansas City", "addr:state": "MO", "addr:postcode": "64153", "addr:country": "US", "name": "17031 - Kansas City - 7280 NW 87th Terrace", "website": "https://www.caliberhomeloans.com/Home/BranchList?stateCode=MO&LCSpeciality=all&SpanishSpeaking=no", "brand": "Caliber Home Loans", "brand:wikidata": "Q25055134"}, "geometry": {"type": "Point", "coordinates": [-94.6641281, 39.2532092]}},
{"type": "Feature", "id": "eC3cmrgGzz_Fmt6TVlo2qsHXjXQ=", "properties": {"ref": "2013951", "@spider": "caliber_home_loans", "addr:full": "314 N Last Chance Gulch Suite 220", "addr:city": "Helena", "addr:state": "MT", "addr:postcode": "59601", "addr:country": "US", "name": "19501 - Helena - 314 N Last Chance Gulch", "website": "https://www.caliberhomeloans.com/Home/BranchList?stateCode=MT&LCSpeciality=all&SpanishSpeaking=no", "brand": "Caliber Home Loans", "brand:wikidata": "Q25055134"}, "geometry": {"type": "Point", "coordinates": [-112.0386675, 46.5894217]}},
{"type": "Feature", "id": "s8NPoJ2uf5p1nUg4RAKZVEUhoHs=", "properties": {"ref": "2365133", "@spider": "caliber_home_loans", "addr:full": "6752 Rock Spring Rd.  Ste. 300 A", "addr:city": "Wilmington", "addr:state": "NC", "addr:postcode": "28405", "addr:country": "US", "name": "19660 - Wilmington - 6752 Rock Spring Rd.", "website": "https://www.caliberhomeloans.com/Home/BranchList?stateCode=NC&LCSpeciality=all&SpanishSpeaking=no", "brand": "Caliber Home Loans", "brand:wikidata": "Q25055134"}, "geometry": {"type": "Point", "coordinates": [-77.8324845, 34.2367146]}},
{"type": "Feature", "id": "CrcpZEHX9gGbKxNv933y3mS4dQA=", "properties": {"ref": "2365226", "@spider": "caliber_home_loans", "addr:full": "19109 West Catawba Ave.  Suite 200", "addr:city": "Cornelius", "addr:state": "NC", "addr:postcode": "28031", "addr:country": "US", "name": "19657 - Cornelius - 19109 West Catawba Ave.", "website": "https://www.caliberhomeloans.com/Home/BranchList?stateCode=NC&LCSpeciality=all&SpanishSpeaking=no", "brand": "Caliber Home Loans", "brand:wikidata": "Q25055134"}, "geometry": {"type": "Point", "coordinates": [-80.8922607, 35.4742183]}},
{"type": "Feature", "id": "9UqSs8V1PbW0v9TKiwh9nNs3gmc=", "properties": {"ref": "1939959", "@spider": "caliber_home_loans", "addr:full": "3118 N. Croatan Hwy. Suite 202 208", "addr:city": "Kill Devil Hills", "addr:state": "NC", "addr:postcode": "27948", "addr:country": "US", "name": "19444 Outer Banks - 3118 N. Croatan Hwy.", "website": "https://www.caliberhomeloans.com/Home/BranchList?stateCode=NC&LCSpeciality=all&SpanishSpeaking=no", "brand": "Caliber Home Loans", "brand:wikidata": "Q25055134"}, "geometry": {"type": "Point", "coordinates": [-75.684116, 36.0510436]}},
{"type": "Feature", "id": "-2X5SwOTeWSOdF-6nb3RBfc_S3U=", "properties": {"ref": "1162155", "@spider": "caliber_home_loans", "addr:full": "4236 University Dr.  Ste. 100", "addr:city": "Durham", "addr:state": "NC", "addr:postcode": "27707", "addr:country": "US", "name": "19557 - Durham - 4236 University Dr", "website": "https://www.caliberhomeloans.com/Home/BranchList?stateCode=NC&LCSpeciality=all&SpanishSpeaking=no", "brand": "Caliber Home Loans", "brand:wikidata": "Q25055134"}, "geometry": {"type": "Point", "coordinates": [-78.96133, 35.96278]}},
{"type": "Feature", "id": "7SQUoZpKcv7gXguCi7dia-HhS_o=", "properties": {"ref": "1423717", "@spider": "caliber_home_loans", "addr:full": "1403 Eastchester Drive  Suite 103", "addr:city": "High Point", "addr:state": "NC", "addr:postcode": "27265", "addr:country": "US", "name": "18737 - High Point - 1403 Eastchester Drive", "website": "https://www.caliberhomeloans.com/Home/BranchList?stateCode=NC&LCSpeciality=all&SpanishSpeaking=no", "brand": "Caliber Home Loans", "brand:wikidata": "Q25055134"}, "geometry": {"type": "Point", "coordinates": [-79.9950789, 35.997845]}},
{"type": "Feature", "id": "hsOEaL-o0w1hSeNuIsV2IkOrEqE=", "properties": {"ref": "1423730", "@spider": "caliber_home_loans", "addr:full": "1403 Eastchester Drive  Suite 103", "addr:city": "High Point", "addr:state": "NC", "addr:postcode": "27265", "addr:country": "US", "name": "18737 - High Point - 1403 Eastchester Drive", "website": "https://www.caliberhomeloans.com/Home/BranchList?stateCode=NC&LCSpeciality=all&SpanishSpeaking=no", "brand": "Caliber Home Loans", "brand:wikidata": "Q25055134"}, "geometry": {"type": "Point", "coordinates": [-79.9950789, 35.997845]}},
{"type": "Feature", "id": "mjGMBkq4VGHL3hDmLorzle41Kb0=", "properties": {"ref": "2150732", "@spider": "caliber_home_loans", "addr:full": "4150 19th Avenue S. Suite 302", "addr:city": "Fargo", "addr:state": "ND", "addr:postcode": "58103", "addr:country": "US", "name": "Fargo", "website": "https://www.caliberhomeloans.com/Home/BranchList?stateCode=ND&LCSpeciality=all&SpanishSpeaking=no", "brand": "Caliber Home Loans", "brand:wikidata": "Q25055134"}, "geometry": {"type": "Point", "coordinates": [-96.8499731, 46.8484586]}},
{"type": "Feature", "id": "QDHL_lemGUZloFTC7_Ge5e-cKJo=", "properties": {"ref": "1850082", "@spider": "caliber_home_loans", "addr:full": "13625 California Street Suite 110", "addr:city": "Omaha", "addr:state": "NE", "addr:postcode": "68154", "addr:country": "US", "name": "19387 - Omaha - 13625 California Street", "website": "https://www.caliberhomeloans.com/Home/BranchList?stateCode=NE&LCSpeciality=all&SpanishSpeaking=no", "brand": "Caliber Home Loans", "brand:wikidata": "Q25055134"}, "geometry": {"type": "Point", "coordinates": [-96.1278917, 41.2649496]}},
{"type": "Feature", "id": "2epUjkchMOOsEXHv6ULibkh17ag=", "properties": {"ref": "207171", "@spider": "caliber_home_loans", "addr:full": "25A Vreeland Road  Suite 104", "addr:city": "Florham Park", "addr:state": "NJ", "addr:postcode": "07932", "addr:country": "US", "name": "18486 - Florham Park - 25A Vreeland Road", "website": "https://www.caliberhomeloans.com/Home/BranchList?stateCode=NJ&LCSpeciality=all&SpanishSpeaking=no", "brand": "Caliber Home Loans", "brand:wikidata": "Q25055134"}, "geometry": {"type": "Point", "coordinates": [-74.3694838, 40.7845063]}},
{"type": "Feature", "id": "p--uCquuHYIrfLGbqDIdZysVhGY=", "properties": {"ref": "1180942", "@spider": "caliber_home_loans", "addr:full": "200 Somerset Corporate Blvd.  Suite 1003", "addr:city": "Bridgewater", "addr:state": "NJ", "addr:postcode": "08807", "addr:country": "US", "name": "18087 - Bridgewater - 200 Somerset Corporate Blvd.", "website": "https://www.caliberhomeloans.com/Home/BranchList?stateCode=NJ&LCSpeciality=all&SpanishSpeaking=no", "brand": "Caliber Home Loans", "brand:wikidata": "Q25055134"}, "geometry": {"type": "Point", "coordinates": [-74.6265169, 40.5862717]}},
{"type": "Feature", "id": "sbQo-Mp-6KYtn0cEYo1v9jJUVJQ=", "properties": {"ref": "1487297", "@spider": "caliber_home_loans", "addr:full": "2275 Route 33  Suite 308", "addr:city": "Hamilton Square", "addr:state": "NJ", "addr:postcode": "08690", "addr:country": "US", "name": "90028 - DR RE/MAX Tri County - 2275 Route 33", "website": "https://www.caliberhomeloans.com/Home/BranchList?stateCode=NJ&LCSpeciality=all&SpanishSpeaking=no", "brand": "Caliber Home Loans", "brand:wikidata": "Q25055134"}, "geometry": {"type": "Point", "coordinates": [-74.6398145, 40.2212553]}},
{"type": "Feature", "id": "BTRvZ8BMxI8lieKzGmI3Q3M6xXE=", "properties": {"ref": "1121188", "@spider": "caliber_home_loans", "addr:full": "25A Vreeland Road  Suite 104", "addr:city": "Florham Park", "addr:state": "NJ", "addr:postcode": "07932", "addr:country": "US", "name": "18486 - Florham Park - 25A Vreeland Road", "website": "https://www.caliberhomeloans.com/Home/BranchList?stateCode=NJ&LCSpeciality=all&SpanishSpeaking=no", "brand": "Caliber Home Loans", "brand:wikidata": "Q25055134"}, "geometry": {"type": "Point", "coordinates": [-74.3694838, 40.7845063]}},
{"type": "Feature", "id": "A1CPEyEOZIV91sXTBnMCcv6ypWw=", "properties": {"ref": "1124909", "@spider": "caliber_home_loans", "addr:full": "343 Thornall Street  Suite 550", "addr:city": "Edison", "addr:state": "NJ", "addr:postcode": "08837", "addr:country": "US", "name": "17967 - Edison - 343 Thornall Street", "website": "https://www.caliberhomeloans.com/Home/BranchList?stateCode=NJ&LCSpeciality=all&SpanishSpeaking=no", "brand": "Caliber Home Loans", "brand:wikidata": "Q25055134"}, "geometry": {"type": "Point", "coordinates": [-74.3357441, 40.560655]}},
{"type": "Feature", "id": "qrvL5YvkHA_xVujnb4y37AVqspI=", "properties": {"ref": "1045621", "@spider": "caliber_home_loans", "addr:full": "1630 New Road  Suite 2A & 2D", "addr:city": "Northfield", "addr:state": "NJ", "addr:postcode": "08225", "addr:country": "US", "name": "18886 - Northfield-1630 New Road", "website": "https://www.caliberhomeloans.com/Home/BranchList?stateCode=NJ&LCSpeciality=all&SpanishSpeaking=no", "brand": "Caliber Home Loans", "brand:wikidata": "Q25055134"}, "geometry": {"type": "Point", "coordinates": [-74.5571758, 39.3710128]}},
{"type": "Feature", "id": "71sPDTfNpvivsIazRDpxi4rm5O0=", "properties": {"ref": "1045576", "@spider": "caliber_home_loans", "addr:full": "525 Route 73 North  Suite 309", "addr:city": "Marlton", "addr:state": "NJ", "addr:postcode": "08053", "addr:country": "US", "name": "17105 - Marlton - 525 Route 73 North", "website": "https://www.caliberhomeloans.com/Home/BranchList?stateCode=NJ&LCSpeciality=all&SpanishSpeaking=no", "brand": "Caliber Home Loans", "brand:wikidata": "Q25055134"}, "geometry": {"type": "Point", "coordinates": [-74.9230446, 39.8758292]}},
{"type": "Feature", "id": "8vO6UyuP5GoPvVwgUGbCLA_erFI=", "properties": {"ref": "1968403", "@spider": "caliber_home_loans", "addr:full": "7450 Arroyo Crossing Pkwy. Suite 190", "addr:city": "Las Vegas", "addr:state": "NV", "addr:postcode": "89113", "addr:country": "US", "name": "19575 - Las Vegas - 7450 Arroyo Crossing Pkwy.", "website": "https://www.caliberhomeloans.com/Home/BranchList?stateCode=NV&LCSpeciality=all&SpanishSpeaking=no", "brand": "Caliber Home Loans", "brand:wikidata": "Q25055134"}, "geometry": {"type": "Point", "coordinates": [-115.253475, 36.0640388]}},
{"type": "Feature", "id": "FtR1RKDtp6ZeB65gBBy9DuqyMw0=", "properties": {"ref": "1235789", "@spider": "caliber_home_loans", "addr:full": "6530 South McCarran Blvd.", "addr:city": "Reno", "addr:state": "NV", "addr:postcode": "89509", "addr:country": "US", "name": "18342 - Reno -  6530 S. McCarran Blvd.", "website": "https://www.caliberhomeloans.com/Home/BranchList?stateCode=NV&LCSpeciality=all&SpanishSpeaking=no", "brand": "Caliber Home Loans", "brand:wikidata": "Q25055134"}, "geometry": {"type": "Point", "coordinates": [-119.8002765, 39.4756924]}},
{"type": "Feature", "id": "7YAgVDNxaUi3VIyptPAXIOhXvSE=", "properties": {"ref": "1973414", "@spider": "caliber_home_loans", "addr:full": "4250 Veterans Memorial Highway  Suite 170 East", "addr:city": "Holbrook", "addr:state": "NY", "addr:postcode": "11741", "addr:country": "US", "name": "19394 - Holbrook - 4250 Veterans Highway", "website": "https://www.caliberhomeloans.com/Home/BranchList?stateCode=NY&LCSpeciality=all&SpanishSpeaking=no", "brand": "Caliber Home Loans", "brand:wikidata": "Q25055134"}, "geometry": {"type": "Point", "coordinates": [-73.0954031, 40.781896]}},
{"type": "Feature", "id": "v2Eeg-eGpFdFngcn-robqqBjmdY=", "properties": {"ref": "1629737", "@spider": "caliber_home_loans", "addr:full": "330 South Service Road Suite 130", "addr:city": "Melville", "addr:state": "NY", "addr:postcode": "11747", "addr:country": "US", "name": "19290 - Melville - 330 South Service Road", "website": "https://www.caliberhomeloans.com/Home/BranchList?stateCode=NY&LCSpeciality=all&SpanishSpeaking=no", "brand": "Caliber Home Loans", "brand:wikidata": "Q25055134"}, "geometry": {"type": "Point", "coordinates": [-73.4126802, 40.7794665]}},
{"type": "Feature", "id": "Ac1mS_JXoS1Gg2_4OXnX4fe6HxY=", "properties": {"ref": "2031644", "@spider": "caliber_home_loans", "addr:full": "1229 Route 300 Suite 3", "addr:city": "Newburgh", "addr:state": "NY", "addr:postcode": "12550", "addr:country": "US", "name": "19504 - Newburgh - 1229 Route 300", "website": "https://www.caliberhomeloans.com/Home/BranchList?stateCode=NY&LCSpeciality=all&SpanishSpeaking=no", "brand": "Caliber Home Loans", "brand:wikidata": "Q25055134"}, "geometry": {"type": "Point", "coordinates": [-74.070852, 41.5014167]}},
{"type": "Feature", "id": "qOP3rxLHjMNieRjI5zwLDFAN6aw=", "properties": {"ref": "1972965", "@spider": "caliber_home_loans", "addr:full": "2001 Crocker Rd. suite 325", "addr:city": "Cleveland", "addr:state": "OH", "addr:postcode": "44145", "addr:country": "US", "name": "19461 - Cleveland - 2001 Crocker Rd.", "website": "https://www.caliberhomeloans.com/Home/BranchList?stateCode=OH&LCSpeciality=all&SpanishSpeaking=no", "brand": "Caliber Home Loans", "brand:wikidata": "Q25055134"}, "geometry": {"type": "Point", "coordinates": [-81.9495431, 41.4620156]}},
{"type": "Feature", "id": "_MDwJzVVbC7xyAVTDSgQ8RfdcqY=", "properties": {"ref": "1422641", "@spider": "caliber_home_loans", "addr:full": "101 S. Fountain Ave. Ste. SC7 - SC12", "addr:city": "Springfield", "addr:state": "OH", "addr:postcode": "45502", "addr:country": "US", "name": "19439 - Springfield - 101 S. Fountain Ave.", "website": "https://www.caliberhomeloans.com/Home/BranchList?stateCode=OH&LCSpeciality=all&SpanishSpeaking=no", "brand": "Caliber Home Loans", "brand:wikidata": "Q25055134"}, "geometry": {"type": "Point", "coordinates": [-83.8109199, 39.9231318]}},
{"type": "Feature", "id": "-gCBkjP6Fd6FPU8rJcjO8ji0qLE=", "properties": {"ref": "1903770", "@spider": "caliber_home_loans", "addr:full": "2001 Crocker Rd. suite 325", "addr:city": "Cleveland", "addr:state": "OH", "addr:postcode": "44145", "addr:country": "US", "name": "19461 - Cleveland - 2001 Crocker Rd.", "website": "https://www.caliberhomeloans.com/Home/BranchList?stateCode=OH&LCSpeciality=all&SpanishSpeaking=no", "brand": "Caliber Home Loans", "brand:wikidata": "Q25055134"}, "geometry": {"type": "Point", "coordinates": [-81.9494752, 41.4620398]}},
{"type": "Feature", "id": "4p_wiPAOilvrPbHgR7_wLmY4hJ8=", "properties": {"ref": "1043906", "@spider": "caliber_home_loans", "addr:full": "526 Wards Corner Rd Suite A", "addr:city": "Loveland", "addr:state": "OH", "addr:postcode": "45140", "addr:country": "US", "name": "19594 - Loveland - 526 Wards Corner Rd.", "website": "https://www.caliberhomeloans.com/Home/BranchList?stateCode=OH&LCSpeciality=all&SpanishSpeaking=no", "brand": "Caliber Home Loans", "brand:wikidata": "Q25055134"}, "geometry": {"type": "Point", "coordinates": [-84.2779035, 39.2280526]}},
{"type": "Feature", "id": "6sEl_EshKFZihpgfysHLjdxarLo=", "properties": {"ref": "1510232", "@spider": "caliber_home_loans", "addr:full": "545 Metro Place South  Office 115", "addr:city": "Dublin", "addr:state": "OH", "addr:postcode": "43017", "addr:country": "US", "name": "18983 - Sat-Columbus West-545 Metro Place South", "website": "https://www.caliberhomeloans.com/Home/BranchList?stateCode=OH&LCSpeciality=all&SpanishSpeaking=no", "brand": "Caliber Home Loans", "brand:wikidata": "Q25055134"}, "geometry": {"type": "Point", "coordinates": [-83.1326494, 40.0929621]}},
{"type": "Feature", "id": "DN7e-8V3Ai8fGA6qDc7DMmlrPbk=", "properties": {"ref": "1459463", "@spider": "caliber_home_loans", "addr:full": "1000 South Cleveland-Massillon Rd. Suite 119", "addr:city": "Akron", "addr:state": "OH", "addr:postcode": "44333", "addr:country": "US", "name": "18989 - Akron - 1000 South Cleveland-Massillon Rd.", "website": "https://www.caliberhomeloans.com/Home/BranchList?stateCode=OH&LCSpeciality=all&SpanishSpeaking=no", "brand": "Caliber Home Loans", "brand:wikidata": "Q25055134"}, "geometry": {"type": "Point", "coordinates": [-81.6455464, 41.110762]}},
{"type": "Feature", "id": "A0WDJ1Fb_l51r_ibZFyY4e2T_Dg=", "properties": {"ref": "2368656", "@spider": "caliber_home_loans", "addr:full": "2327 East 13th Street", "addr:city": "Tulsa", "addr:state": "OK", "addr:postcode": "74104", "addr:country": "US", "name": "19654 - Tulsa - 2327 East 13th St.", "website": "https://www.caliberhomeloans.com/Home/BranchList?stateCode=OK&LCSpeciality=all&SpanishSpeaking=no", "brand": "Caliber Home Loans", "brand:wikidata": "Q25055134"}, "geometry": {"type": "Point", "coordinates": [-95.9585245, 36.1445539]}},
{"type": "Feature", "id": "X7xYLabXpqZSVCkQ9V3_kOqxm1w=", "properties": {"ref": "418921", "@spider": "caliber_home_loans", "addr:full": "4900 Meadows Road Suite 200", "addr:city": "Lake Oswego", "addr:state": "OR", "addr:postcode": "97035", "addr:country": "US", "name": "18392 - C Lake Oswego - 4900 Meadows Road", "website": "https://www.caliberhomeloans.com/Home/BranchList?stateCode=OR&LCSpeciality=all&SpanishSpeaking=no", "brand": "Caliber Home Loans", "brand:wikidata": "Q25055134"}, "geometry": {"type": "Point", "coordinates": [-122.727079, 45.4170117]}},
{"type": "Feature", "id": "9orq7eJL5ZOuc0hnLaeTZ_8IngI=", "properties": {"ref": "1235883", "@spider": "caliber_home_loans", "addr:full": "900 NW Mt. Washington Dr  Suite 200 210", "addr:city": "Bend", "addr:state": "OR", "addr:postcode": "97703", "addr:country": "US", "name": "18984 - Bend Market - 900 NW Mt. Washington", "website": "https://www.caliberhomeloans.com/Home/BranchList?stateCode=OR&LCSpeciality=all&SpanishSpeaking=no", "brand": "Caliber Home Loans", "brand:wikidata": "Q25055134"}, "geometry": {"type": "Point", "coordinates": [-121.3564588, 44.0594483]}},
{"type": "Feature", "id": "KegPPAnPF2dUnmBIqtLjrb2HjE4=", "properties": {"ref": "2253855", "@spider": "caliber_home_loans", "addr:full": "4780 Village Plaza Loop Suite 120", "addr:city": "Eugene", "addr:state": "OR", "addr:postcode": "97401", "addr:country": "US", "name": "19591 - Eugene - 4780 Village Loop", "website": "https://www.caliberhomeloans.com/Home/BranchList?stateCode=OR&LCSpeciality=all&SpanishSpeaking=no", "brand": "Caliber Home Loans", "brand:wikidata": "Q25055134"}, "geometry": {"type": "Point", "coordinates": [-123.1066223, 44.0871613]}},
{"type": "Feature", "id": "rE1-bpWFJnR2shBSW9a1neSgO2U=", "properties": {"ref": "2362576", "@spider": "caliber_home_loans", "addr:full": "901 N. Brutscher St. Suite 211", "addr:city": "Newberg", "addr:state": "OR", "addr:postcode": "97132", "addr:country": "US", "name": "19622 - Newberg - 901 N. Brutscher St.", "website": "https://www.caliberhomeloans.com/Home/BranchList?stateCode=OR&LCSpeciality=all&SpanishSpeaking=no", "brand": "Caliber Home Loans", "brand:wikidata": "Q25055134"}, "geometry": {"type": "Point", "coordinates": [-122.9416737, 45.3062838]}},
{"type": "Feature", "id": "_HzpXF6sWz_2PMm35i8AHmJkD4M=", "properties": {"ref": "1235816", "@spider": "caliber_home_loans", "addr:full": "4900 Meadows Road Suite 200", "addr:city": "Lake Oswego", "addr:state": "OR", "addr:postcode": "97035", "addr:country": "US", "name": "18392 - C Lake Oswego - 4900 Meadows Road", "website": "https://www.caliberhomeloans.com/Home/BranchList?stateCode=OR&LCSpeciality=all&SpanishSpeaking=no", "brand": "Caliber Home Loans", "brand:wikidata": "Q25055134"}, "geometry": {"type": "Point", "coordinates": [-122.727079, 45.4170117]}},
{"type": "Feature", "id": "JncWWFcJSUcS88QSGZytMxHqPro=", "properties": {"ref": "1738514", "@spider": "caliber_home_loans", "addr:full": "250 Church Street SE Suite 100", "addr:city": "Salem", "addr:state": "OR", "addr:postcode": "97301", "addr:country": "US", "name": "19269 - Salem - 250 Church Street SE", "website": "https://www.caliberhomeloans.com/Home/BranchList?stateCode=OR&LCSpeciality=all&SpanishSpeaking=no", "brand": "Caliber Home Loans", "brand:wikidata": "Q25055134"}, "geometry": {"type": "Point", "coordinates": [-123.035628, 44.9372755]}},
{"type": "Feature", "id": "sz2kd8W3boq1EoHx-YY8lST0Rz0=", "properties": {"ref": "1235899", "@spider": "caliber_home_loans", "addr:full": "4900 Meadows Road Suite 200", "addr:city": "Lake Oswego", "addr:state": "OR", "addr:postcode": "97035", "addr:country": "US", "name": "18392 - C Lake Oswego - 4900 Meadows Road", "website": "https://www.caliberhomeloans.com/Home/BranchList?stateCode=OR&LCSpeciality=all&SpanishSpeaking=no", "brand": "Caliber Home Loans", "brand:wikidata": "Q25055134"}, "geometry": {"type": "Point", "coordinates": [-122.727079, 45.4170117]}},
{"type": "Feature", "id": "31-XB3GNCcr5ItGFRzNAeqhGKFI=", "properties": {"ref": "1617052", "@spider": "caliber_home_loans", "addr:full": "1393 Clay St. SE", "addr:city": "Albany", "addr:state": "OR", "addr:postcode": "97322", "addr:country": "US", "name": "19079 - Albany - 1393 Clay St. SE", "website": "https://www.caliberhomeloans.com/Home/BranchList?stateCode=OR&LCSpeciality=all&SpanishSpeaking=no", "brand": "Caliber Home Loans", "brand:wikidata": "Q25055134"}, "geometry": {"type": "Point", "coordinates": [-123.07655, 44.6291445]}},
{"type": "Feature", "id": "UQ84QYIshiOQY5ReIU-c693cmK8=", "properties": {"ref": "1612931", "@spider": "caliber_home_loans", "addr:full": "3815 South 6th St.  Ste. 140", "addr:city": "Klamath Falls", "addr:state": "OR", "addr:postcode": "97603", "addr:country": "US", "name": "19096 - Klamath Falls BHL - 3815 South 6th St.", "website": "https://www.caliberhomeloans.com/Home/BranchList?stateCode=OR&LCSpeciality=all&SpanishSpeaking=no", "brand": "Caliber Home Loans", "brand:wikidata": "Q25055134"}, "geometry": {"type": "Point", "coordinates": [-121.741794, 42.2069829]}},
{"type": "Feature", "id": "_y1NRLfJk9SJZj10CmoKbJxuqts=", "properties": {"ref": "1652753", "@spider": "caliber_home_loans", "addr:full": "180 Clear Creek Suite 101", "addr:city": "Ashland", "addr:state": "OR", "addr:postcode": "97520", "addr:country": "US", "name": "19349 - Ashland - 180 Clear Creek", "website": "https://www.caliberhomeloans.com/Home/BranchList?stateCode=OR&LCSpeciality=all&SpanishSpeaking=no", "brand": "Caliber Home Loans", "brand:wikidata": "Q25055134"}, "geometry": {"type": "Point", "coordinates": [-122.708887, 42.1995127]}},
{"type": "Feature", "id": "vrGlMy33UelJDvjZmOjmfBokH54=", "properties": {"ref": "1453338", "@spider": "caliber_home_loans", "addr:full": "16 Oak Street  Suite 202", "addr:city": "Hood River", "addr:state": "OR", "addr:postcode": "97031", "addr:country": "US", "name": "18827 - Hood River-- 16 Oak Street", "website": "https://www.caliberhomeloans.com/Home/BranchList?stateCode=OR&LCSpeciality=all&SpanishSpeaking=no", "brand": "Caliber Home Loans", "brand:wikidata": "Q25055134"}, "geometry": {"type": "Point", "coordinates": [-121.5110771, 45.7089747]}},
{"type": "Feature", "id": "hjrOy751Dsbs8SzXQFDKXv9qoyU=", "properties": {"ref": "2250014", "@spider": "caliber_home_loans", "addr:full": "119 Springwood Dr. Suite 700", "addr:city": "Lebanon", "addr:state": "PA", "addr:postcode": "17042", "addr:country": "US", "name": "19597 - Lebanon - 119 Springwood Dr.", "website": "https://www.caliberhomeloans.com/Home/BranchList?stateCode=PA&LCSpeciality=all&SpanishSpeaking=no", "brand": "Caliber Home Loans", "brand:wikidata": "Q25055134"}, "geometry": {"type": "Point", "coordinates": [-76.4139821, 40.3072983]}},
{"type": "Feature", "id": "yoGdAuVxhzaPvzzHGGcZ1Rost7c=", "properties": {"ref": "2377821", "@spider": "caliber_home_loans", "addr:full": "1510 Rt 61 Hwy South  Suite #2", "addr:city": "Pottsville", "addr:state": "PA", "addr:postcode": "17901", "addr:country": "US", "name": "19658 - Pottsville  - 1510 State Route 61 South  Ste. 2", "website": "https://www.caliberhomeloans.com/Home/BranchList?stateCode=PA&LCSpeciality=all&SpanishSpeaking=no", "brand": "Caliber Home Loans", "brand:wikidata": "Q25055134"}, "geometry": {"type": "Point", "coordinates": [-76.1869096, 40.6607832]}},
{"type": "Feature", "id": "I6TgRfCL4YJJ-ytekR8vUy3dyqc=", "properties": {"ref": "1043918", "@spider": "caliber_home_loans", "addr:full": "300 Granite Run Drive  Suite 130", "addr:city": "Lancaster", "addr:state": "PA", "addr:postcode": "17601", "addr:country": "US", "name": "17320 - Lancaster - 300 Granite Run Dr.", "website": "https://www.caliberhomeloans.com/Home/BranchList?stateCode=PA&LCSpeciality=all&SpanishSpeaking=no", "brand": "Caliber Home Loans", "brand:wikidata": "Q25055134"}, "geometry": {"type": "Point", "coordinates": [-76.3309175, 40.0761868]}},
{"type": "Feature", "id": "NxyAvJ0_wRYoLNaILUw68MC_Mms=", "properties": {"ref": "1043913", "@spider": "caliber_home_loans", "addr:full": "3101 Emerick Blvd. Suite 210", "addr:city": "Bethlehem", "addr:state": "PA", "addr:postcode": "18020", "addr:country": "US", "name": "16564 - Bethlehem - 3101 Emerick Blvd.", "website": "https://www.caliberhomeloans.com/Home/BranchList?stateCode=PA&LCSpeciality=all&SpanishSpeaking=no", "brand": "Caliber Home Loans", "brand:wikidata": "Q25055134"}, "geometry": {"type": "Point", "coordinates": [-75.2965494, 40.6652124]}},
{"type": "Feature", "id": "7qs3-94Wz-5GVdlsGPMtR9zxjrM=", "properties": {"ref": "1908480", "@spider": "caliber_home_loans", "addr:full": "1620 Farrow Pkwy Suite A-2", "addr:city": "Myrtle Beach", "addr:state": "SC", "addr:postcode": "29577", "addr:country": "US", "name": "19525 - Myrtle Beach - 1620 Farrow Pkwy", "website": "https://www.caliberhomeloans.com/Home/BranchList?stateCode=SC&LCSpeciality=all&SpanishSpeaking=no", "brand": "Caliber Home Loans", "brand:wikidata": "Q25055134"}, "geometry": {"type": "Point", "coordinates": [-78.9515836, 33.6731251]}},
{"type": "Feature", "id": "izBg9Pr3bnqrI-pLg0Sh0XktsOY=", "properties": {"ref": "2013223", "@spider": "caliber_home_loans", "addr:full": "807 Gervais St.  Suite 302", "addr:city": "Columbia", "addr:state": "SC", "addr:postcode": "29201", "addr:country": "US", "name": "19516 - Columbia - 807 Gervais St.", "website": "https://www.caliberhomeloans.com/Home/BranchList?stateCode=SC&LCSpeciality=all&SpanishSpeaking=no", "brand": "Caliber Home Loans", "brand:wikidata": "Q25055134"}, "geometry": {"type": "Point", "coordinates": [-81.0396899, 33.9999208]}},
{"type": "Feature", "id": "suMrXAQQM4nXmwMkLUAV1lTFdRU=", "properties": {"ref": "1860702", "@spider": "caliber_home_loans", "addr:full": "912 Harpeth Valley Place", "addr:city": "Nashville", "addr:state": "TN", "addr:postcode": "37221", "addr:country": "US", "name": "19457 - Nashville - 912 Harpeth Valley Place", "website": "https://www.caliberhomeloans.com/Home/BranchList?stateCode=TN&LCSpeciality=all&SpanishSpeaking=no", "brand": "Caliber Home Loans", "brand:wikidata": "Q25055134"}, "geometry": {"type": "Point", "coordinates": [-86.9570614, 36.082742]}},
{"type": "Feature", "id": "Ul9p2ha7ZwZ_BFkmhB7ELJMT0JU=", "properties": {"ref": "1264686", "@spider": "caliber_home_loans", "addr:full": "1290 Premier Dr. Suite 120", "addr:city": "Chattanooga", "addr:state": "TN", "addr:postcode": "37421", "addr:country": "US", "name": "19239 - Chattanooga - 1290 Premier Dr.", "website": "https://www.caliberhomeloans.com/Home/BranchList?stateCode=TN&LCSpeciality=all&SpanishSpeaking=no", "brand": "Caliber Home Loans", "brand:wikidata": "Q25055134"}, "geometry": {"type": "Point", "coordinates": [-85.1906996, 35.0148366]}},
{"type": "Feature", "id": "pqQnEj46MSnV3-OqgdXmu1M7ws4=", "properties": {"ref": "1943909", "@spider": "caliber_home_loans", "addr:full": "109 Parkway Suite 3B", "addr:city": "Sevierville", "addr:state": "TN", "addr:postcode": "37862", "addr:country": "US", "name": "19450 - Sevierville - 109 Parkway", "website": "https://www.caliberhomeloans.com/Home/BranchList?stateCode=TN&LCSpeciality=all&SpanishSpeaking=no", "brand": "Caliber Home Loans", "brand:wikidata": "Q25055134"}, "geometry": {"type": "Point", "coordinates": [-83.5635061, 35.8679257]}},
{"type": "Feature", "id": "3YILRAoec-mZrip_fZsqNxoza-o=", "properties": {"ref": "1410465", "@spider": "caliber_home_loans", "addr:full": "1290 Premier Dr. Suite 120", "addr:city": "Chattanooga", "addr:state": "TN", "addr:postcode": "37421", "addr:country": "US", "name": "19239 - Chattanooga - 1290 Premier Dr.", "website": "https://www.caliberhomeloans.com/Home/BranchList?stateCode=TN&LCSpeciality=all&SpanishSpeaking=no", "brand": "Caliber Home Loans", "brand:wikidata": "Q25055134"}, "geometry": {"type": "Point", "coordinates": [-85.1906996, 35.0148366]}},
{"type": "Feature", "id": "aNFgiEn-DkgjyospBSEucLJNeZY=", "properties": {"ref": "1289107", "@spider": "caliber_home_loans", "addr:full": "6620 Cypresswood Drive Suite 150", "addr:city": "Spring", "addr:state": "TX", "addr:postcode": "77379", "addr:country": "US", "name": "19186 - Spring - 6620 Cypresswood Drive", "website": "https://www.caliberhomeloans.com/Home/BranchList?stateCode=TX&LCSpeciality=all&SpanishSpeaking=no", "brand": "Caliber Home Loans", "brand:wikidata": "Q25055134"}, "geometry": {"type": "Point", "coordinates": [-95.5074849, 30.0153222]}},
{"type": "Feature", "id": "i7Rc9cq3laJHzj1bCKKKw9omgyY=", "properties": {"ref": "2184418", "@spider": "caliber_home_loans", "addr:full": "129 S. Main St. Suite. 235", "addr:city": "Grapevine", "addr:state": "TX", "addr:postcode": "76051", "addr:country": "US", "name": "Grapevine - 129 S. Main St.", "website": "https://www.caliberhomeloans.com/Home/BranchList?stateCode=TX&LCSpeciality=all&SpanishSpeaking=no", "brand": "Caliber Home Loans", "brand:wikidata": "Q25055134"}, "geometry": {"type": "Point", "coordinates": [-97.0779915, 32.9401349]}},
{"type": "Feature", "id": "yMTOxRIiF7h7pSaVZeaVjFVddA8=", "properties": {"ref": "1656502", "@spider": "caliber_home_loans", "addr:full": "6620 Cypresswood Drive Suite 150", "addr:city": "Spring", "addr:state": "TX", "addr:postcode": "77379", "addr:country": "US", "name": "19186 - Spring - 6620 Cypresswood Drive", "website": "https://www.caliberhomeloans.com/Home/BranchList?stateCode=TX&LCSpeciality=all&SpanishSpeaking=no", "brand": "Caliber Home Loans", "brand:wikidata": "Q25055134"}, "geometry": {"type": "Point", "coordinates": [-95.5074849, 30.0153222]}},
{"type": "Feature", "id": "R8atoOfBD2Oaettyqc4ua3heUQA=", "properties": {"ref": "1236037", "@spider": "caliber_home_loans", "addr:full": "6115 Camp Bowie Blvd Suite 144", "addr:city": "Fort Worth", "addr:state": "TX", "addr:postcode": "76116", "addr:country": "US", "name": "19567 - Forth Worth - 6115 Camp Bowie Blvd", "website": "https://www.caliberhomeloans.com/Home/BranchList?stateCode=TX&LCSpeciality=all&SpanishSpeaking=no", "brand": "Caliber Home Loans", "brand:wikidata": "Q25055134"}, "geometry": {"type": "Point", "coordinates": [-97.4152528, 32.7276868]}},
{"type": "Feature", "id": "923cDaPeJz5mymmjBcCXC0z09yk=", "properties": {"ref": "1645570", "@spider": "caliber_home_loans", "addr:full": "3701 Regent Blvd. Suite 200", "addr:city": "Irving", "addr:state": "TX", "addr:postcode": "75063", "addr:country": "US", "name": "RET-CD-NCA", "website": "https://www.caliberhomeloans.com/Home/BranchList?stateCode=TX&LCSpeciality=all&SpanishSpeaking=no", "brand": "Caliber Home Loans", "brand:wikidata": "Q25055134"}, "geometry": {"type": "Point", "coordinates": [-96.997016, 32.9223171]}},
{"type": "Feature", "id": "r1_5LRfabS05v1GxdakkGgkY2bg=", "properties": {"ref": "19485", "@spider": "caliber_home_loans", "addr:full": "3701 Regent Blvd. Suite 200", "addr:city": "Irving", "addr:state": "TX", "addr:postcode": "75063", "addr:country": "US", "name": "RET-CD-CC1-ILG", "website": "https://www.caliberhomeloans.com/Home/BranchList?stateCode=TX&LCSpeciality=all&SpanishSpeaking=no", "brand": "Caliber Home Loans", "brand:wikidata": "Q25055134"}, "geometry": {"type": "Point", "coordinates": [-96.997016, 32.9223171]}},
{"type": "Feature", "id": "jJwkUjZg28fFaYPpZ9YywKneiFU=", "properties": {"ref": "1123611", "@spider": "caliber_home_loans", "addr:full": "602 Strada Suite 106", "addr:city": "Mansfield", "addr:state": "TX", "addr:postcode": "76063", "addr:country": "US", "name": "19476 - Mansfield - 602 Strada", "website": "https://www.caliberhomeloans.com/Home/BranchList?stateCode=TX&LCSpeciality=all&SpanishSpeaking=no", "brand": "Caliber Home Loans", "brand:wikidata": "Q25055134"}, "geometry": {"type": "Point", "coordinates": [-97.1327409, 32.5722019]}},
{"type": "Feature", "id": "8wBHZayJSFlGrhBEAs2Hw3rI31U=", "properties": {"ref": "1044411", "@spider": "caliber_home_loans", "addr:full": "15600 San Pedro Avenue Suite 207", "addr:city": "San Antonio", "addr:state": "TX", "addr:postcode": "78232", "addr:country": "US", "name": "19361 - San Antonio - 15600 San Pedro Avenue", "website": "https://www.caliberhomeloans.com/Home/BranchList?stateCode=TX&LCSpeciality=all&SpanishSpeaking=no", "brand": "Caliber Home Loans", "brand:wikidata": "Q25055134"}, "geometry": {"type": "Point", "coordinates": [-98.4751085, 29.5831114]}},
{"type": "Feature", "id": "ajfzF3RFeJYZdKsELJhJopTjMaU=", "properties": {"ref": "1858960", "@spider": "caliber_home_loans", "addr:full": "6001 W. William Cannon Drive Suite 202", "addr:city": "Austin", "addr:state": "TX", "addr:postcode": "78749", "addr:country": "US", "name": "19486 - Austin - 6001 W. William Canon", "website": "https://www.caliberhomeloans.com/Home/BranchList?stateCode=TX&LCSpeciality=all&SpanishSpeaking=no", "brand": "Caliber Home Loans", "brand:wikidata": "Q25055134"}, "geometry": {"type": "Point", "coordinates": [-97.8631472, 30.2283944]}},
{"type": "Feature", "id": "7dvslV2-TL-BkucHMrpw-1-O1p4=", "properties": {"ref": "1108778", "@spider": "caliber_home_loans", "addr:full": "5950 Sherry Lane Suite 415", "addr:city": "Dallas", "addr:state": "TX", "addr:postcode": "75225", "addr:country": "US", "name": "(RET-SE-NTX-Dal)", "website": "https://www.caliberhomeloans.com/Home/BranchList?stateCode=TX&LCSpeciality=all&SpanishSpeaking=no", "brand": "Caliber Home Loans", "brand:wikidata": "Q25055134"}, "geometry": {"type": "Point", "coordinates": [-96.811054, 32.8620414]}},
{"type": "Feature", "id": "BOuGKnFDxYgJljsrUO7n4ejkBUM=", "properties": {"ref": "1707938", "@spider": "caliber_home_loans", "addr:full": "150 Civic Center Dr.  Ste. 101", "addr:city": "Sandy", "addr:state": "UT", "addr:postcode": "84070", "addr:country": "US", "name": "19571 - Sandy - 150 Civic Center Dr.", "website": "https://www.caliberhomeloans.com/Home/BranchList?stateCode=UT&LCSpeciality=all&SpanishSpeaking=no", "brand": "Caliber Home Loans", "brand:wikidata": "Q25055134"}, "geometry": {"type": "Point", "coordinates": [-111.8952426, 40.5730345]}},
{"type": "Feature", "id": "6VPyqRXJRNBpKhIfwd-S2EkGCV4=", "properties": {"ref": "1735529", "@spider": "caliber_home_loans", "addr:full": "6500 Harbour View Court Suite 101", "addr:city": "Midlothian", "addr:state": "VA", "addr:postcode": "23112", "addr:country": "US", "name": "19268 - Midlothian - 6500 Harbour View Court", "website": "https://www.caliberhomeloans.com/Home/BranchList?stateCode=VA&LCSpeciality=all&SpanishSpeaking=no", "brand": "Caliber Home Loans", "brand:wikidata": "Q25055134"}, "geometry": {"type": "Point", "coordinates": [-77.6587329, 37.4093578]}},
{"type": "Feature", "id": "-rFSNzi3c5xL6hyyXjo2q9qF3Ac=", "properties": {"ref": "1968238", "@spider": "caliber_home_loans", "addr:full": "111 Walt Whitman Ave.", "addr:city": "Newport News", "addr:state": "VA", "addr:postcode": "23606", "addr:country": "US", "name": "19449  - Newport News - 111 Walt Whitman Ave.", "website": "https://www.caliberhomeloans.com/Home/BranchList?stateCode=VA&LCSpeciality=all&SpanishSpeaking=no", "brand": "Caliber Home Loans", "brand:wikidata": "Q25055134"}, "geometry": {"type": "Point", "coordinates": [-76.4872045, 37.0832414]}},
{"type": "Feature", "id": "juSNcMGbQG5weTlG27zEDiGmgMo=", "properties": {"ref": "15622-457827", "@spider": "caliber_home_loans", "addr:full": "308 Granite Avenue", "addr:city": "Richmond", "addr:state": "VA", "addr:postcode": "23226", "addr:country": "US", "name": "19436 - Richmond - 308 Granite Avenue", "website": "https://www.caliberhomeloans.com/Home/BranchList?stateCode=VA&LCSpeciality=all&SpanishSpeaking=no", "brand": "Caliber Home Loans", "brand:wikidata": "Q25055134"}, "geometry": {"type": "Point", "coordinates": [-77.5168484, 37.5738937]}},
{"type": "Feature", "id": "4E8sn9472CAlYYQPb5nV_5j7nnM=", "properties": {"ref": "1725142", "@spider": "caliber_home_loans", "addr:full": "1933 Landstown Centre Way Suite 330", "addr:city": "Virginia Beach", "addr:state": "VA", "addr:postcode": "23456", "addr:country": "US", "name": "19247 - Virginia Beach - 1933 Landstown Centre Way", "website": "https://www.caliberhomeloans.com/Home/BranchList?stateCode=VA&LCSpeciality=all&SpanishSpeaking=no", "brand": "Caliber Home Loans", "brand:wikidata": "Q25055134"}, "geometry": {"type": "Point", "coordinates": [-76.0893507, 36.7726772]}},
{"type": "Feature", "id": "tkn0zIKSYsvyJcczYYiAjGTXoSI=", "properties": {"ref": "1582690", "@spider": "caliber_home_loans", "addr:full": "12010 Sunset Hills Rd. Suite 200", "addr:city": "Reston", "addr:state": "VA", "addr:postcode": "20190", "addr:country": "US", "name": "19173 - Reston - 12010 Sunset Hills", "website": "https://www.caliberhomeloans.com/Home/BranchList?stateCode=VA&LCSpeciality=all&SpanishSpeaking=no", "brand": "Caliber Home Loans", "brand:wikidata": "Q25055134"}, "geometry": {"type": "Point", "coordinates": [-77.3563771, 38.9560074]}},
{"type": "Feature", "id": "j0sx2FAWHCTI27ql0k6LxASJq80=", "properties": {"ref": "1692357", "@spider": "caliber_home_loans", "addr:full": "638 Independence Pkwy  Suite 220", "addr:city": "Chesapeake", "addr:state": "VA", "addr:postcode": "23320", "addr:country": "US", "name": "19249 - Chesapeake - 638 Independence Parkway", "website": "https://www.caliberhomeloans.com/Home/BranchList?stateCode=VA&LCSpeciality=all&SpanishSpeaking=no", "brand": "Caliber Home Loans", "brand:wikidata": "Q25055134"}, "geometry": {"type": "Point", "coordinates": [-76.2624492, 36.7660198]}},
{"type": "Feature", "id": "xguUoj2qJ-CwEgGlvSNVaNAnEVY=", "properties": {"ref": "1044084", "@spider": "caliber_home_loans", "addr:full": "4050 Legato Road  Suite 100", "addr:city": "Fairfax", "addr:state": "VA", "addr:postcode": "22033", "addr:country": "US", "name": "18568 - Fairfax - 4050 Legato Road", "website": "https://www.caliberhomeloans.com/Home/BranchList?stateCode=VA&LCSpeciality=all&SpanishSpeaking=no", "brand": "Caliber Home Loans", "brand:wikidata": "Q25055134"}, "geometry": {"type": "Point", "coordinates": [-77.3644743, 38.8657204]}},
{"type": "Feature", "id": "uvW-CK_H8NvbKwd02S2JCPTBTj8=", "properties": {"ref": "1489291", "@spider": "caliber_home_loans", "addr:full": "1933 Landstown Centre Way Suite 330", "addr:city": "Virginia Beach", "addr:state": "VA", "addr:postcode": "23456", "addr:country": "US", "name": "19247 - Virginia Beach - 1933 Landstown Centre Way", "website": "https://www.caliberhomeloans.com/Home/BranchList?stateCode=VA&LCSpeciality=all&SpanishSpeaking=no", "brand": "Caliber Home Loans", "brand:wikidata": "Q25055134"}, "geometry": {"type": "Point", "coordinates": [-76.0893507, 36.7726772]}},
{"type": "Feature", "id": "nEuyQM9tl9nRoJ1sOOg5Cka_uEc=", "properties": {"ref": "1598059", "@spider": "caliber_home_loans", "addr:full": "1835 Riverside Dr. Suite 101", "addr:city": "Mt. Vernon", "addr:state": "WA", "addr:postcode": "98273", "addr:country": "US", "name": "19606 - Mt. Vernon - 1835 Riverside Dr.", "website": "https://www.caliberhomeloans.com/Home/BranchList?stateCode=WA&LCSpeciality=all&SpanishSpeaking=no", "brand": "Caliber Home Loans", "brand:wikidata": "Q25055134"}, "geometry": {"type": "Point", "coordinates": [-122.3374542, 48.4201105]}},
{"type": "Feature", "id": "ohdwHfXUFa82bKTf7vP3Ti8SvGE=", "properties": {"ref": "1866847", "@spider": "caliber_home_loans", "addr:full": "1835 Riverside Dr. Suite 101", "addr:city": "Mt. Vernon", "addr:state": "WA", "addr:postcode": "98273", "addr:country": "US", "name": "19606 - Mt. Vernon - 1835 Riverside Dr.", "website": "https://www.caliberhomeloans.com/Home/BranchList?stateCode=WA&LCSpeciality=all&SpanishSpeaking=no", "brand": "Caliber Home Loans", "brand:wikidata": "Q25055134"}, "geometry": {"type": "Point", "coordinates": [-122.3374542, 48.4201105]}},
{"type": "Feature", "id": "8s7WUorV3h2uT_9ZsTtbEWvgxHs=", "properties": {"ref": "2034253", "@spider": "caliber_home_loans", "addr:full": "201 NE Park Plaza Dr. Suite 250", "addr:city": "Vancouver", "addr:state": "WA", "addr:postcode": "98684", "addr:country": "US", "name": "19489 - Vancouver - 201 NE Park Plaza Dr.", "website": "https://www.caliberhomeloans.com/Home/BranchList?stateCode=WA&LCSpeciality=all&SpanishSpeaking=no", "brand": "Caliber Home Loans", "brand:wikidata": "Q25055134"}, "geometry": {"type": "Point", "coordinates": [-122.5397728, 45.6225178]}},
{"type": "Feature", "id": "twvC-FNUXvhhMd83Z7NmjxzqS_U=", "properties": {"ref": "2022748", "@spider": "caliber_home_loans", "addr:full": "2727 Hollycroft St. Suite 260", "addr:city": "Gig Harbor", "addr:state": "WA", "addr:postcode": "98335", "addr:country": "US", "name": "19488 - Gig Harbor - 2727 Hollycroft St.", "website": "https://www.caliberhomeloans.com/Home/BranchList?stateCode=WA&LCSpeciality=all&SpanishSpeaking=no", "brand": "Caliber Home Loans", "brand:wikidata": "Q25055134"}, "geometry": {"type": "Point", "coordinates": [-122.5752776, 47.3092113]}},
{"type": "Feature", "id": "aFZ2UEIZbbDyV75bMLyJd3y4jz4=", "properties": {"ref": "1760099", "@spider": "caliber_home_loans", "addr:full": "3400 188th St. SW Suite 316", "addr:city": "Lynnwood", "addr:state": "WA", "addr:postcode": "98037", "addr:country": "US", "name": "19487 - Lynnwood - 3400 188th St. SW", "website": "https://www.caliberhomeloans.com/Home/BranchList?stateCode=WA&LCSpeciality=all&SpanishSpeaking=no", "brand": "Caliber Home Loans", "brand:wikidata": "Q25055134"}, "geometry": {"type": "Point", "coordinates": [-122.2795249, 47.8276939]}},
{"type": "Feature", "id": "9xGtCxTgFmikPGJAv-j3Cc3fpIU=", "properties": {"ref": "2029284", "@spider": "caliber_home_loans", "addr:full": "201 NE Park Plaza Dr. Suite 250", "addr:city": "Vancouver", "addr:state": "WA", "addr:postcode": "98684", "addr:country": "US", "name": "19489 - Vancouver - 201 NE Park Plaza Dr.", "website": "https://www.caliberhomeloans.com/Home/BranchList?stateCode=WA&LCSpeciality=all&SpanishSpeaking=no", "brand": "Caliber Home Loans", "brand:wikidata": "Q25055134"}, "geometry": {"type": "Point", "coordinates": [-122.5391056, 45.6227063]}},
{"type": "Feature", "id": "lStcxwVKsz_5AyTuOwsbozB7XXA=", "properties": {"ref": "2033651", "@spider": "caliber_home_loans", "addr:full": "3400 188th St. SW Suite 316", "addr:city": "Lynnwood", "addr:state": "WA", "addr:postcode": "98037", "addr:country": "US", "name": "19487 - Lynnwood - 3400 188th St. SW", "website": "https://www.caliberhomeloans.com/Home/BranchList?stateCode=WA&LCSpeciality=all&SpanishSpeaking=no", "brand": "Caliber Home Loans", "brand:wikidata": "Q25055134"}, "geometry": {"type": "Point", "coordinates": [-122.2795249, 47.8276939]}},
{"type": "Feature", "id": "VF9R4m_6atZu189BexwH0TZGDXM=", "properties": {"ref": "2031249", "@spider": "caliber_home_loans", "addr:full": "106 Plaza Drive SE Bldg. B2 Suite B-2", "addr:city": "Yelm", "addr:state": "WA", "addr:postcode": "98597", "addr:country": "US", "name": "19493 - Yelm - 106 Plaza Dr.", "website": "https://www.caliberhomeloans.com/Home/BranchList?stateCode=WA&LCSpeciality=all&SpanishSpeaking=no", "brand": "Caliber Home Loans", "brand:wikidata": "Q25055134"}, "geometry": {"type": "Point", "coordinates": [-122.5917652, 46.9353904]}},
{"type": "Feature", "id": "JP0uwqN6UWwbcR8RCwlKDob5KjM=", "properties": {"ref": "1236069", "@spider": "caliber_home_loans", "addr:full": "6625 Wagner Way  Suites 204 & 208", "addr:city": "Gig Harbor", "addr:state": "WA", "addr:postcode": "98335", "addr:country": "US", "name": "18340 - Gig Harbor -  6625 Wagner Way", "website": "https://www.caliberhomeloans.com/Home/BranchList?stateCode=WA&LCSpeciality=all&SpanishSpeaking=no", "brand": "Caliber Home Loans", "brand:wikidata": "Q25055134"}, "geometry": {"type": "Point", "coordinates": [-122.5929664, 47.3191398]}},
{"type": "Feature", "id": "NsngVJpwSZyJJ4NEWg7m7PnJM7k=", "properties": {"ref": "1996339", "@spider": "caliber_home_loans", "addr:full": "15221 Maple Valley Hwy Suite 400", "addr:city": "Renton", "addr:state": "WA", "addr:postcode": "98058", "addr:country": "US", "name": "19475 - Renton - 15221 Maple Valley Hwy", "website": "https://www.caliberhomeloans.com/Home/BranchList?stateCode=WA&LCSpeciality=all&SpanishSpeaking=no", "brand": "Caliber Home Loans", "brand:wikidata": "Q25055134"}, "geometry": {"type": "Point", "coordinates": [-122.137248, 47.4647759]}},
{"type": "Feature", "id": "lq-UHRCL62Q4udmDqyrWYw5nHUI=", "properties": {"ref": "1978457", "@spider": "caliber_home_loans", "addr:full": "1943 Main Street Suite 301", "addr:city": "Ferndale", "addr:state": "WA", "addr:postcode": "98248", "addr:country": "US", "name": "19465 - Ferndale - 1943 Main Street", "website": "https://www.caliberhomeloans.com/Home/BranchList?stateCode=WA&LCSpeciality=all&SpanishSpeaking=no", "brand": "Caliber Home Loans", "brand:wikidata": "Q25055134"}, "geometry": {"type": "Point", "coordinates": [-122.5870848, 48.84435]}},
{"type": "Feature", "id": "vOpJd-Lx3lC9c2EPh7LQ9fhwUFI=", "properties": {"ref": "1953076", "@spider": "caliber_home_loans", "addr:full": "719 Griffin Avenue", "addr:city": "Enumclaw", "addr:state": "WA", "addr:postcode": "98022", "addr:country": "US", "name": "19518 - Enumclaw - 719 Griffin Avenue", "website": "https://www.caliberhomeloans.com/Home/BranchList?stateCode=WA&LCSpeciality=all&SpanishSpeaking=no", "brand": "Caliber Home Loans", "brand:wikidata": "Q25055134"}, "geometry": {"type": "Point", "coordinates": [-121.985502, 47.2017612]}},
{"type": "Feature", "id": "q4yuuQmONbejshN2Gi0WccU9pjE=", "properties": {"ref": "2105476", "@spider": "caliber_home_loans", "addr:full": "33801 1st Way South Suite 261", "addr:city": "Federal Way", "addr:state": "WA", "addr:postcode": "98003", "addr:country": "US", "name": "19495 - Federal Way - 33801 1st Way South", "website": "https://www.caliberhomeloans.com/Home/BranchList?stateCode=WA&LCSpeciality=all&SpanishSpeaking=no", "brand": "Caliber Home Loans", "brand:wikidata": "Q25055134"}, "geometry": {"type": "Point", "coordinates": [-122.3295471, 47.2985474]}},
{"type": "Feature", "id": "dzlqlG5Y3OTjAmo_Srv-v4NtW10=", "properties": {"ref": "1235542", "@spider": "caliber_home_loans", "addr:full": "777 108th Avenue NE Suite 1700", "addr:city": "Bellevue", "addr:state": "WA", "addr:postcode": "98004", "addr:country": "US", "name": "19400 - Bellevue - 777 108th Avenue NE", "website": "https://www.caliberhomeloans.com/Home/BranchList?stateCode=WA&LCSpeciality=all&SpanishSpeaking=no", "brand": "Caliber Home Loans", "brand:wikidata": "Q25055134"}, "geometry": {"type": "Point", "coordinates": [-122.1969421, 47.6167175]}},
{"type": "Feature", "id": "NV4-ae-LvicSf86tdRHnlO0BRmQ=", "properties": {"ref": "1855109", "@spider": "caliber_home_loans", "addr:full": "601 S. Race Street  Suite A", "addr:city": "Port Angeles", "addr:state": "WA", "addr:postcode": "98362", "addr:country": "US", "name": "19562 - Port Angeles - 601 S. Race St. Suite A", "website": "https://www.caliberhomeloans.com/Home/BranchList?stateCode=WA&LCSpeciality=all&SpanishSpeaking=no", "brand": "Caliber Home Loans", "brand:wikidata": "Q25055134"}, "geometry": {"type": "Point", "coordinates": [-123.4227753, 48.1082744]}},
{"type": "Feature", "id": "vRGMJBOZiXV4M7ndbYSu3s-enGk=", "properties": {"ref": "2152327", "@spider": "caliber_home_loans", "addr:full": "1116 First Street", "addr:city": "Snohomish", "addr:state": "WA", "addr:postcode": "98290", "addr:country": "US", "name": "19530 - Snohomish - 1116 First St.", "website": "https://www.caliberhomeloans.com/Home/BranchList?stateCode=WA&LCSpeciality=all&SpanishSpeaking=no", "brand": "Caliber Home Loans", "brand:wikidata": "Q25055134"}, "geometry": {"type": "Point", "coordinates": [-122.0967541, 47.9116427]}},
{"type": "Feature", "id": "Z3P-yPwzfzpj1CmWOXZVBJlA4GA=", "properties": {"ref": "1805371", "@spider": "caliber_home_loans", "addr:full": "2411 Pacific Ave. SE Suite B", "addr:city": "Olympia", "addr:state": "WA", "addr:postcode": "98501", "addr:country": "US", "name": "19360 - Olympia - 2411 Pacific Ave. SE", "website": "https://www.caliberhomeloans.com/Home/BranchList?stateCode=WA&LCSpeciality=all&SpanishSpeaking=no", "brand": "Caliber Home Loans", "brand:wikidata": "Q25055134"}, "geometry": {"type": "Point", "coordinates": [-122.8687564, 47.0444125]}},
{"type": "Feature", "id": "ge9Zg9ueFjDE5t7UeTN-8r9QBjE=", "properties": {"ref": "1505026", "@spider": "caliber_home_loans", "addr:full": "155 3rd Avenue South  Suite 2", "addr:city": "Edmonds", "addr:state": "WA", "addr:postcode": "98020", "addr:country": "US", "name": "18975 - Edmonds - 155 3rd Avenue South", "website": "https://www.caliberhomeloans.com/Home/BranchList?stateCode=WA&LCSpeciality=all&SpanishSpeaking=no", "brand": "Caliber Home Loans", "brand:wikidata": "Q25055134"}, "geometry": {"type": "Point", "coordinates": [-122.379986, 47.8098867]}},
{"type": "Feature", "id": "rB69NIj4ZeS4M4Tudre19tcDa7E=", "properties": {"ref": "1668788", "@spider": "caliber_home_loans", "addr:full": "6100 219th Street SW Suite 545", "addr:city": "Mountlake Terrace", "addr:state": "WA", "addr:postcode": "98043", "addr:country": "US", "name": "19187 - Mountlake Terrace - 6100 219th Street SW", "website": "https://www.caliberhomeloans.com/Home/BranchList?stateCode=WA&LCSpeciality=all&SpanishSpeaking=no", "brand": "Caliber Home Loans", "brand:wikidata": "Q25055134"}, "geometry": {"type": "Point", "coordinates": [-122.3166766, 47.8002155]}},
{"type": "Feature", "id": "pOO80xYQNQz5JueBeupOYqZ4UBY=", "properties": {"ref": "1842026", "@spider": "caliber_home_loans", "addr:full": "914 15th St.", "addr:city": "Anacortes", "addr:state": "WA", "addr:postcode": "98221", "addr:country": "US", "name": "Anacortes", "website": "https://www.caliberhomeloans.com/Home/BranchList?stateCode=WA&LCSpeciality=all&SpanishSpeaking=no", "brand": "Caliber Home Loans", "brand:wikidata": "Q25055134"}, "geometry": {"type": "Point", "coordinates": [-122.6120252, 48.5105501]}},
{"type": "Feature", "id": "TMr86-r9ZFnzyHr4OiTOXI3Mc-0=", "properties": {"ref": "1235387", "@spider": "caliber_home_loans", "addr:full": "803 E. Saddleback Lane", "addr:city": "Spokane", "addr:state": "WA", "addr:postcode": "99208", "addr:country": "US", "name": "Spokane", "website": "https://www.caliberhomeloans.com/Home/BranchList?stateCode=WA&LCSpeciality=all&SpanishSpeaking=no", "brand": "Caliber Home Loans", "brand:wikidata": "Q25055134"}, "geometry": {"type": "Point", "coordinates": [-117.398663, 47.775221]}},
{"type": "Feature", "id": "slluh48tAniFxfFc5zVmyEKpVJ4=", "properties": {"ref": "1985818", "@spider": "caliber_home_loans", "addr:full": "777 108th Avenue NE Suite 1700", "addr:city": "Bellevue", "addr:state": "WA", "addr:postcode": "98004", "addr:country": "US", "name": "19400 - Bellevue - 777 108th Avenue NE", "website": "https://www.caliberhomeloans.com/Home/BranchList?stateCode=WA&LCSpeciality=all&SpanishSpeaking=no", "brand": "Caliber Home Loans", "brand:wikidata": "Q25055134"}, "geometry": {"type": "Point", "coordinates": [-122.1969421, 47.6167175]}},
{"type": "Feature", "id": "HH21MGhaURvmKOdYRZ6tmz5VeN0=", "properties": {"ref": "1235305", "@spider": "caliber_home_loans", "addr:full": "17717 132nd Avenue North East", "addr:city": "Woodinville", "addr:state": "WA", "addr:postcode": "98072", "addr:country": "US", "name": "90005 - Woodinville - 17717 132nd Avenue NE", "website": "https://www.caliberhomeloans.com/Home/BranchList?stateCode=WA&LCSpeciality=all&SpanishSpeaking=no", "brand": "Caliber Home Loans", "brand:wikidata": "Q25055134"}, "geometry": {"type": "Point", "coordinates": [-122.1637191, 47.7564363]}},
{"type": "Feature", "id": "5JHfNbsi8_V8TzKLUjUbpsyD6Tc=", "properties": {"ref": "1622759", "@spider": "caliber_home_loans", "addr:full": "818 W. Riverside Ave. Suite 520", "addr:city": "Spokane", "addr:state": "WA", "addr:postcode": "99201", "addr:country": "US", "name": "19433 - Spokane - 818 W. Riverside Ave.", "website": "https://www.caliberhomeloans.com/Home/BranchList?stateCode=WA&LCSpeciality=all&SpanishSpeaking=no", "brand": "Caliber Home Loans", "brand:wikidata": "Q25055134"}, "geometry": {"type": "Point", "coordinates": [-117.4243803, 47.65825]}},
{"type": "Feature", "id": "V0fjWrg75azWdmPP-CwPXDmP2do=", "properties": {"ref": "1236086", "@spider": "caliber_home_loans", "addr:full": "18704 Bothell Way NE  Suite 200", "addr:city": "Bothell", "addr:state": "WA", "addr:postcode": "98011", "addr:country": "US", "name": "19000 - Canyon Park - 18704 Bothell Way NE", "website": "https://www.caliberhomeloans.com/Home/BranchList?stateCode=WA&LCSpeciality=all&SpanishSpeaking=no", "brand": "Caliber Home Loans", "brand:wikidata": "Q25055134"}, "geometry": {"type": "Point", "coordinates": [-122.2073252, 47.7636011]}},
{"type": "Feature", "id": "bGJzUHLsmsi7tV4TIZO2kdtvUBo=", "properties": {"ref": "1235591", "@spider": "caliber_home_loans", "addr:full": "6050 Tacoma Mall Boulevard  Suite 200", "addr:city": "Tacoma", "addr:state": "WA", "addr:postcode": "98409", "addr:country": "US", "name": "18337 - Tacoma - 6050 Tacoma Mall Boulevard", "website": "https://www.caliberhomeloans.com/Home/BranchList?stateCode=WA&LCSpeciality=all&SpanishSpeaking=no", "brand": "Caliber Home Loans", "brand:wikidata": "Q25055134"}, "geometry": {"type": "Point", "coordinates": [-122.4635688, 47.201176]}},
{"type": "Feature", "id": "cea4QSek84XhtH_1eHIcoSI2XEg=", "properties": {"ref": "1235334", "@spider": "caliber_home_loans", "addr:full": "6050 Tacoma Mall Boulevard  Suite 200", "addr:city": "Tacoma", "addr:state": "WA", "addr:postcode": "98409", "addr:country": "US", "name": "18337 - Tacoma - 6050 Tacoma Mall Boulevard", "website": "https://www.caliberhomeloans.com/Home/BranchList?stateCode=WA&LCSpeciality=all&SpanishSpeaking=no", "brand": "Caliber Home Loans", "brand:wikidata": "Q25055134"}, "geometry": {"type": "Point", "coordinates": [-122.4635688, 47.201176]}},
{"type": "Feature", "id": "T5lAlbkF1J0eUuCLoNlb-6ehnUM=", "properties": {"ref": "1236104", "@spider": "caliber_home_loans", "addr:full": "2701 Eastlake Ave E Suite 105", "addr:city": "Seattle", "addr:state": "WA", "addr:postcode": "98102", "addr:country": "US", "name": "19230 - Seattle - 2701 Eastlake Ave E", "website": "https://www.caliberhomeloans.com/Home/BranchList?stateCode=WA&LCSpeciality=all&SpanishSpeaking=no", "brand": "Caliber Home Loans", "brand:wikidata": "Q25055134"}, "geometry": {"type": "Point", "coordinates": [-122.3262054, 47.6447827]}},
{"type": "Feature", "id": "zy7OB6voCo080m5VNpadUGFw2vc=", "properties": {"ref": "1708917", "@spider": "caliber_home_loans", "addr:full": "2701 Eastlake Ave E Suite 105", "addr:city": "Seattle", "addr:state": "WA", "addr:postcode": "98102", "addr:country": "US", "name": "19230 - Seattle - 2701 Eastlake Ave E", "website": "https://www.caliberhomeloans.com/Home/BranchList?stateCode=WA&LCSpeciality=all&SpanishSpeaking=no", "brand": "Caliber Home Loans", "brand:wikidata": "Q25055134"}, "geometry": {"type": "Point", "coordinates": [-122.3262054, 47.6447827]}},
{"type": "Feature", "id": "zz_GtqZaacIqj5uz0JM80v2sjJY=", "properties": {"ref": "1235513", "@spider": "caliber_home_loans", "addr:full": "175 West Washington", "addr:city": "Sequim", "addr:state": "WA", "addr:postcode": "98382", "addr:country": "US", "name": "18377 - Sequim - 175 West Washington", "website": "https://www.caliberhomeloans.com/Home/BranchList?stateCode=WA&LCSpeciality=all&SpanishSpeaking=no", "brand": "Caliber Home Loans", "brand:wikidata": "Q25055134"}, "geometry": {"type": "Point", "coordinates": [-123.1043102, 48.0794107]}},
{"type": "Feature", "id": "zKpoXMvUkmOCmg8b7CzkD1HmsSY=", "properties": {"ref": "1235595", "@spider": "caliber_home_loans", "addr:full": "10712 Rhody Drive Suite 103", "addr:city": "Port Hadlock", "addr:state": "WA", "addr:postcode": "98339", "addr:country": "US", "name": "Port Hadlock", "website": "https://www.caliberhomeloans.com/Home/BranchList?stateCode=WA&LCSpeciality=all&SpanishSpeaking=no", "brand": "Caliber Home Loans", "brand:wikidata": "Q25055134"}, "geometry": {"type": "Point", "coordinates": [-122.7806459, 48.0303733]}},
{"type": "Feature", "id": "ZysW5xwejzJdXgsn9f1yhwCFvys=", "properties": {"ref": "1235506", "@spider": "caliber_home_loans", "addr:full": "9226 Bayshore Drive NW Suites 200 & 224", "addr:city": "Silverdale", "addr:state": "WA", "addr:postcode": "98383", "addr:country": "US", "name": "Silverdale", "website": "https://www.caliberhomeloans.com/Home/BranchList?stateCode=WA&LCSpeciality=all&SpanishSpeaking=no", "brand": "Caliber Home Loans", "brand:wikidata": "Q25055134"}, "geometry": {"type": "Point", "coordinates": [-122.6934937, 47.6464033]}},
{"type": "Feature", "id": "u9fvTm3jM3oMZIjtLxCWgoxR_js=", "properties": {"ref": "1236090", "@spider": "caliber_home_loans", "addr:full": "2704 171st Place NE  Ste. 103", "addr:city": "Marysville", "addr:state": "WA", "addr:postcode": "98271", "addr:country": "US", "name": "19583 - Marysville - 2704 171st Place NE", "website": "https://www.caliberhomeloans.com/Home/BranchList?stateCode=WA&LCSpeciality=all&SpanishSpeaking=no", "brand": "Caliber Home Loans", "brand:wikidata": "Q25055134"}, "geometry": {"type": "Point", "coordinates": [-122.1933914, 48.1506959]}},
{"type": "Feature", "id": "75rib-pARoJ8fXho3-gl_SpYqX0=", "properties": {"ref": "1235311", "@spider": "caliber_home_loans", "addr:full": "7720 North East Vancouver Mall Drive  Suite 120", "addr:city": "Vancouver", "addr:state": "WA", "addr:postcode": "98662", "addr:country": "US", "name": "18359 - Vancouver - 7720 NE Vancouver Mall Drive", "website": "https://www.caliberhomeloans.com/Home/BranchList?stateCode=WA&LCSpeciality=all&SpanishSpeaking=no", "brand": "Caliber Home Loans", "brand:wikidata": "Q25055134"}, "geometry": {"type": "Point", "coordinates": [-122.5933079, 45.6584472]}},
{"type": "Feature", "id": "m9B9nR-tfkVdHp9aXeZu1PiY_iA=", "properties": {"ref": "1236010", "@spider": "caliber_home_loans", "addr:full": "11255 Kirkland Way  Suites 100  110 & 200", "addr:city": "Kirkland", "addr:state": "WA", "addr:postcode": "98033", "addr:country": "US", "name": "18325 - Kirkland - 11255 Kirkland Way", "website": "https://www.caliberhomeloans.com/Home/BranchList?stateCode=WA&LCSpeciality=all&SpanishSpeaking=no", "brand": "Caliber Home Loans", "brand:wikidata": "Q25055134"}, "geometry": {"type": "Point", "coordinates": [-122.1876498, 47.6783934]}},
{"type": "Feature", "id": "2Q-Sh1LZA5U68Y_UVwOPHCd9hBw=", "properties": {"ref": "1558906", "@spider": "caliber_home_loans", "addr:full": "484 W. Johnson St. Suite 200", "addr:city": "Fond du Lac", "addr:state": "WI", "addr:postcode": "54935", "addr:country": "US", "name": "19183 - Fond du Lac - 484 W. Johnson St.", "website": "https://www.caliberhomeloans.com/Home/BranchList?stateCode=WI&LCSpeciality=all&SpanishSpeaking=no", "brand": "Caliber Home Loans", "brand:wikidata": "Q25055134"}, "geometry": {"type": "Point", "coordinates": [-88.4654809, 43.7841289]}},
{"type": "Feature", "id": "ZkcB7cnJJiyCk3x-AgsjZkeb6JU=", "properties": {"ref": "2276311", "@spider": "caliber_home_loans", "addr:full": "4702 42nd Ave. SW  Flr 3  Suite 12", "addr:city": "Seattle", "addr:state": "WA", "addr:postcode": "98116", "addr:country": "US", "name": "19582 - Seattle - 4702 42Nd Ave. SW", "website": "https://www.caliberhomeloans.com/Home/BranchList?stateCode=WA&LCSpeciality=all&SpanishSpeaking=no", "brand": "Caliber Home Loans", "brand:wikidata": "Q25055134"}, "geometry": {"type": "Point", "coordinates": [-122.3850529, 47.5608835]}},
{"type": "Feature", "id": "yziDIFa7MsK2mCNxSpiH9eYJAe8=", "properties": {"ref": "1236068", "@spider": "caliber_home_loans", "addr:full": "371 NE Gilman Blvd Suite 340", "addr:city": "Issaquah", "addr:state": "WA", "addr:postcode": "98027", "addr:country": "US", "name": "18388  Issaquah 371 NE Gilman Blvd.", "website": "https://www.caliberhomeloans.com/Home/BranchList?stateCode=WA&LCSpeciality=all&SpanishSpeaking=no", "brand": "Caliber Home Loans", "brand:wikidata": "Q25055134"}, "geometry": {"type": "Point", "coordinates": [-122.0294034, 47.53254]}},
{"type": "Feature", "id": "8pNH_4eoEsLegvG2m5-lrDQwpNw=", "properties": {"ref": "1874713", "@spider": "caliber_home_loans", "addr:full": "700 Front Street  Suite B and C", "addr:city": "Lynden", "addr:state": "WA", "addr:postcode": "98264", "addr:country": "US", "name": "19381 - Lynden - 700 Front Street", "website": "https://www.caliberhomeloans.com/Home/BranchList?stateCode=WA&LCSpeciality=all&SpanishSpeaking=no", "brand": "Caliber Home Loans", "brand:wikidata": "Q25055134"}, "geometry": {"type": "Point", "coordinates": [-122.4529469, 48.9428018]}},
{"type": "Feature", "id": "YVY57OAJMllGglxBplSdkaqTANQ=", "properties": {"ref": "1236072", "@spider": "caliber_home_loans", "addr:full": "2200 Rimland Drive Suite 110", "addr:city": "Bellingham", "addr:state": "WA", "addr:postcode": "98226", "addr:country": "US", "name": "Bellingham Branch", "website": "https://www.caliberhomeloans.com/Home/BranchList?stateCode=WA&LCSpeciality=all&SpanishSpeaking=no", "brand": "Caliber Home Loans", "brand:wikidata": "Q25055134"}, "geometry": {"type": "Point", "coordinates": [-122.4448515, 48.7729382]}},
{"type": "Feature", "id": "kU9AfnyVIquwpEUd-FkmcT2_jtE=", "properties": {"ref": "1235380", "@spider": "caliber_home_loans", "addr:full": "6050 Tacoma Mall Boulevard  Suite 200", "addr:city": "Tacoma", "addr:state": "WA", "addr:postcode": "98409", "addr:country": "US", "name": "18337 - Tacoma - 6050 Tacoma Mall Boulevard", "website": "https://www.caliberhomeloans.com/Home/BranchList?stateCode=WA&LCSpeciality=all&SpanishSpeaking=no", "brand": "Caliber Home Loans", "brand:wikidata": "Q25055134"}, "geometry": {"type": "Point", "coordinates": [-122.4635688, 47.201176]}},
{"type": "Feature", "id": "BNmxVewqbu2Lwya_3szi461jWHM=", "properties": {"ref": "1044097", "@spider": "caliber_home_loans", "addr:full": "4341 US Route 60  Suite 177", "addr:city": "E. Huntington", "addr:state": "WV", "addr:postcode": "25705", "addr:country": "US", "name": "16499 - Huntington - 4341 US Route 60", "website": "https://www.caliberhomeloans.com/Home/BranchList?stateCode=WV&LCSpeciality=all&SpanishSpeaking=no", "brand": "Caliber Home Loans", "brand:wikidata": "Q25055134"}, "geometry": {"type": "Point", "coordinates": [-82.3658701, 38.4106277]}}]}