{"type":"FeatureCollection","features":[{"type": "Feature", "id": "3-Gr4Y48df6zaGJrransqyOrkiI=", "properties": {"ref": "CKGB0002", "@spider": "calvin_klein", "shop": "clothes", "addr:full": "68 King's Road", "addr:city": "London", "addr:state": "Europe", "addr:postcode": "SW3 4UD", "addr:country": "GB", "name": "Calvin Klein", "brand": "Calvin Klein", "brand:wikidata": "Q1068628", "nsi_id": "calvinklein-3937bd"}, "geometry": {"type": "Point", "coordinates": [-0.16054, 51.49137]}},
{"type": "Feature", "id": "psZ_57fixYsl4gqyZQWUHbWX_eE=", "properties": {"ref": "CKGB0007", "@spider": "calvin_klein", "shop": "clothes", "addr:full": "Clarks Village, Farm Road", "addr:city": "Street", "addr:state": "Europe", "addr:postcode": "BA16 0BB", "addr:country": "GB", "name": "Calvin Klein", "brand": "Calvin Klein", "brand:wikidata": "Q1068628", "nsi_id": "calvinklein-3937bd"}, "geometry": {"type": "Point", "coordinates": [-2.74018, 51.1282]}},
{"type": "Feature", "id": "2pjkI3W9vZwRF_U32yV7d_xzbqw=", "properties": {"ref": "CKGB0008", "@spider": "calvin_klein", "shop": "clothes", "addr:full": "Bicester Village, 50 Pringle Drive", "addr:city": "Bicester", "addr:state": "Europe", "addr:postcode": "OX26 6WD", "addr:country": "GB", "name": "Calvin Klein", "brand": "Calvin Klein", "brand:wikidata": "Q1068628", "nsi_id": "calvinklein-3937bd"}, "geometry": {"type": "Point", "coordinates": [-1.15584, 51.89225]}},
{"type": "Feature", "id": "kDiEUss9vcV59tdbyB0iKjgo4EM=", "properties": {"ref": "CKGB0014", "@spider": "calvin_klein", "shop": "clothes", "addr:full": "Covent Garden, 120 Long Acre", "addr:city": "London", "addr:state": "Europe", "addr:postcode": "WC2E 9PA", "addr:country": "GB", "name": "Calvin Klein", "brand": "Calvin Klein", "brand:wikidata": "Q1068628", "nsi_id": "calvinklein-3937bd"}, "geometry": {"type": "Point", "coordinates": [-0.12524, 51.51274]}},
{"type": "Feature", "id": "Ttwlxvh2Lbs9SvM1Bo9gjadUZpo=", "properties": {"ref": "CKGB0017", "@spider": "calvin_klein", "shop": "clothes", "addr:full": "170 Regent Street.", "addr:city": "London", "addr:state": "Europe", "addr:postcode": "W1B 5TB", "addr:country": "GB", "name": "Calvin Klein", "brand": "Calvin Klein", "brand:wikidata": "Q1068628", "nsi_id": "calvinklein-3937bd"}, "geometry": {"type": "Point", "coordinates": [-0.13988, 51.51215]}},
{"type": "Feature", "id": "KyRUrFQl9-8PFNYZhXLebvCznbk=", "properties": {"ref": "CKGB0019", "@spider": "calvin_klein", "shop": "clothes", "addr:full": "The Trafford Centre, Unit L35, 6 Peel Avenue", "addr:city": "Manchester", "addr:state": "Europe", "addr:postcode": "M17 8BL", "addr:country": "GB", "name": "Calvin Klein", "brand": "Calvin Klein", "brand:wikidata": "Q1068628", "nsi_id": "calvinklein-3937bd"}, "geometry": {"type": "Point", "coordinates": [-2.34799, 53.46594]}},
{"type": "Feature", "id": "E6WFoAJ57rptpOE1qKBlTRlNrgM=", "properties": {"ref": "CKGB0020", "@spider": "calvin_klein", "shop": "clothes", "addr:full": "Victoria Square Shopping Centre, Unit 19, 1 Victoria Square", "addr:city": "Belfast", "addr:state": "Europe", "addr:postcode": "BT1 4QG", "addr:country": "GB", "name": "Calvin Klein", "brand": "Calvin Klein", "brand:wikidata": "Q1068628", "nsi_id": "calvinklein-3937bd"}, "geometry": {"type": "Point", "coordinates": [-5.92415, 54.59854]}},
{"type": "Feature", "id": "EIUJhpQgXEe2iQ1nP6aS9Xrxbg4=", "properties": {"ref": "CKGB0033", "@spider": "calvin_klein", "shop": "clothes", "addr:full": "Westfield Stratford City, Unit SU1072A, Leyton Road", "addr:city": "London", "addr:state": "Europe", "addr:postcode": "E20 1EP", "addr:country": "GB", "name": "Calvin Klein", "brand": "Calvin Klein", "brand:wikidata": "Q1068628", "nsi_id": "calvinklein-3937bd"}, "geometry": {"type": "Point", "coordinates": [-0.00226, 51.54795]}},
{"type": "Feature", "id": "gNwQw4o01CZkUN0ljwAVzJQQus0=", "properties": {"ref": "CKGB0039", "@spider": "calvin_klein", "shop": "clothes", "addr:full": "Gloucester Quays Designer Outlet, Unit 38, 69 St Ann Way", "addr:city": "Gloucester", "addr:state": "Europe", "addr:postcode": "GL1 5SH", "addr:country": "GB", "name": "Calvin Klein", "brand": "Calvin Klein", "brand:wikidata": "Q1068628", "nsi_id": "calvinklein-3937bd"}, "geometry": {"type": "Point", "coordinates": [-2.25257, 51.85988]}},
{"type": "Feature", "id": "wCnqsVjGk7reKhIWnfctMJ0--7g=", "properties": {"ref": "CKGB0040", "@spider": "calvin_klein", "shop": "clothes", "addr:full": "McArthurGlen Designer Outlet, Unit 66 & 67, Mansfield Road", "addr:city": "Alfrenton, Derbyshire", "addr:state": "Europe", "addr:postcode": "DE55 2JW", "addr:country": "GB", "name": "Calvin Klein", "brand": "Calvin Klein", "brand:wikidata": "Q1068628", "nsi_id": "calvinklein-3937bd"}, "geometry": {"type": "Point", "coordinates": [-1.31113, 53.10713]}},
{"type": "Feature", "id": "ki4LVJBGgW0po-WwACN09ngZWfI=", "properties": {"ref": "CKGB0041", "@spider": "calvin_klein", "shop": "clothes", "addr:full": "Designer Outlet Bridgend, Unit 34-35, The Derwen", "addr:city": "Bridgend", "addr:state": "Europe", "addr:postcode": "CF32 9SU", "addr:country": "GB", "name": "Calvin Klein", "brand": "Calvin Klein", "brand:wikidata": "Q1068628", "nsi_id": "calvinklein-3937bd"}, "geometry": {"type": "Point", "coordinates": [-3.57771, 51.53221]}},
{"type": "Feature", "id": "ry3YgJmavHhC7QEwmFnWcTkmpmk=", "properties": {"ref": "CKGB0042", "@spider": "calvin_klein", "shop": "clothes", "addr:full": "McArthurGlen Designer Outlet Centre, Unit 25, St. Nicholas Avenue", "addr:city": "York", "addr:state": "Europe", "addr:postcode": "YO19 4TA", "addr:country": "GB", "name": "Calvin Klein", "brand": "Calvin Klein", "brand:wikidata": "Q1068628", "nsi_id": "calvinklein-3937bd"}, "geometry": {"type": "Point", "coordinates": [-1.07024, 53.92387]}},
{"type": "Feature", "id": "D57fHiun_EXD_UEko0N9e6GojYg=", "properties": {"ref": "CKGB0043", "@spider": "calvin_klein", "shop": "clothes", "addr:full": "McArthurGlen Designer Outlet, Unit 19-20, Kimberley Way", "addr:city": "Ashford", "addr:state": "Europe", "addr:postcode": "TN24 0SD", "addr:country": "GB", "name": "Calvin Klein", "brand": "Calvin Klein", "brand:wikidata": "Q1068628", "nsi_id": "calvinklein-3937bd"}, "geometry": {"type": "Point", "coordinates": [0.87766, 51.13583]}},
{"type": "Feature", "id": "GKjEgMF_0_h5dDcKSdYvyQU6u1M=", "properties": {"ref": "CKGB0044", "@spider": "calvin_klein", "shop": "clothes", "addr:full": "McArtherglen Designer Outlet, Unit 19 Kemble Drive", "addr:city": "Swindon", "addr:state": "Europe", "addr:postcode": "SN2 2DY", "addr:country": "GB", "name": "Calvin Klein", "brand": "Calvin Klein", "brand:wikidata": "Q1068628", "nsi_id": "calvinklein-3937bd"}, "geometry": {"type": "Point", "coordinates": [-1.79826, 51.5634]}},
{"type": "Feature", "id": "vICaknO1qzKAR-S2nN_y2qYHzms=", "properties": {"ref": "CKGB0045", "@spider": "calvin_klein", "shop": "clothes", "addr:full": "Unit 40A, Wharfside Street", "addr:city": "Birmingham", "addr:state": "Europe", "addr:postcode": "B1 1RE", "addr:country": "GB", "name": "Calvin Klein", "brand": "Calvin Klein", "brand:wikidata": "Q1068628", "nsi_id": "calvinklein-3937bd"}, "geometry": {"type": "Point", "coordinates": [-1.90366, 52.47682]}},
{"type": "Feature", "id": "4wtUavgtCxNDkq-BPr_ikzUlE1Q=", "properties": {"ref": "CKGB0046", "@spider": "calvin_klein", "shop": "clothes", "addr:full": "Victoria Gate Mall, Unit S29, 28 Harewood St", "addr:city": "Leeds", "addr:state": "Europe", "addr:postcode": "LS1 7AD", "addr:country": "GB", "name": "Calvin Klein", "brand": "Calvin Klein", "brand:wikidata": "Q1068628", "nsi_id": "calvinklein-3937bd"}, "geometry": {"type": "Point", "coordinates": [-1.53909, 53.79822]}},
{"type": "Feature", "id": "jSW6Mu5JEkL0scCRVyOHqvxM870=", "properties": {"ref": "CKGB0047", "@spider": "calvin_klein", "shop": "clothes", "addr:full": "Unit 7 Cabot Square", "addr:city": "London", "addr:state": "Europe", "addr:postcode": "E14 4QT", "addr:country": "GB", "name": "Calvin Klein", "brand": "Calvin Klein", "brand:wikidata": "Q1068628", "nsi_id": "calvinklein-3937bd"}, "geometry": {"type": "Point", "coordinates": [-0.02227, 51.50524]}},
{"type": "Feature", "id": "H0Z_ikY2IGxeUs2jBXnaczzDoCU=", "properties": {"ref": "CKGB0048", "@spider": "calvin_klein", "shop": "clothes", "addr:full": "Westgate Shopping Centre, Albion House, Littlegate Street, L15", "addr:city": "Oxford", "addr:state": "Europe", "addr:postcode": "OX1 1AN", "addr:country": "GB", "name": "Calvin Klein", "brand": "Calvin Klein", "brand:wikidata": "Q1068628", "nsi_id": "calvinklein-3937bd"}, "geometry": {"type": "Point", "coordinates": [-1.26205, 51.74938]}},
{"type": "Feature", "id": "1_Jf_1R_GdQHFcq7bgLDsm-DwMM=", "properties": {"ref": "CKGB0052", "@spider": "calvin_klein", "shop": "clothes", "addr:full": "St Pancras station, Unit 12, Kings Cross", "addr:city": "London", "addr:state": "Europe", "addr:postcode": "N1C 4QP", "addr:country": "GB", "name": "Calvin Klein", "brand": "Calvin Klein", "brand:wikidata": "Q1068628", "nsi_id": "calvinklein-3937bd"}, "geometry": {"type": "Point", "coordinates": [-0.12578, 51.53087]}},
{"type": "Feature", "id": "ebWxAoaziybPf9bMV3IG1K8m-pU=", "properties": {"ref": "CKGB0053", "@spider": "calvin_klein", "shop": "clothes", "addr:full": "Unit 223, Lakeside Retail Park,", "addr:city": "Grays", "addr:state": "Europe", "addr:postcode": "RM20 2ZR", "addr:country": "GB", "name": "Calvin Klein", "brand": "Calvin Klein", "brand:wikidata": "Q1068628", "nsi_id": "calvinklein-3937bd"}, "geometry": {"type": "Point", "coordinates": [0.27686, 51.4864]}},
{"type": "Feature", "id": "CaMvBIaV_1r3CqM_y1AH7J3EIL8=", "properties": {"ref": "CKGB0054", "@spider": "calvin_klein", "shop": "clothes", "addr:full": "Bluewater Shopping Center, Unit U036", "addr:city": "Greenhithe", "addr:state": "Europe", "addr:postcode": "DA9 9ST", "addr:country": "GB", "name": "Calvin Klein", "brand": "Calvin Klein", "brand:wikidata": "Q1068628", "nsi_id": "calvinklein-3937bd"}, "geometry": {"type": "Point", "coordinates": [0.271, 51.43873]}},
{"type": "Feature", "id": "NXzjH_RbL4n4LHE1qDiBKrfNRh0=", "properties": {"ref": "CKGB0059", "@spider": "calvin_klein", "shop": "clothes", "addr:full": "Grand Arcade Mall, Unit SU6, St Andrew's St", "addr:city": "Cambridge", "addr:state": "Europe", "addr:postcode": "CB2 3BJ", "addr:country": "GB", "name": "Calvin Klein", "brand": "Calvin Klein", "brand:wikidata": "Q1068628", "nsi_id": "calvinklein-3937bd"}, "geometry": {"type": "Point", "coordinates": [0.12161, 52.2034]}},
{"type": "Feature", "id": "qD1RRPEkL1T7Ck0hecp28uOlHvA=", "properties": {"ref": "CKGB0060", "@spider": "calvin_klein", "shop": "clothes", "addr:full": "London O2 Arena, Peninsula Square", "addr:city": "London", "addr:state": "Europe", "addr:postcode": "SE10 0DX", "addr:country": "GB", "name": "Calvin Klein", "brand": "Calvin Klein", "brand:wikidata": "Q1068628", "nsi_id": "calvinklein-3937bd"}, "geometry": {"type": "Point", "coordinates": [0.00315, 51.50303]}},
{"type": "Feature", "id": "uJF-sdsbrceayBcRsFflFu8K5iU=", "properties": {"ref": "CKGB0061", "@spider": "calvin_klein", "shop": "clothes", "addr:full": "Livingston Designer Outlet, Almondvale Avenue", "addr:city": "Livingston", "addr:state": "Europe", "addr:postcode": "EH54 6QX", "addr:country": "GB", "name": "Calvin Klein", "brand": "Calvin Klein", "brand:wikidata": "Q1068628", "nsi_id": "calvinklein-3937bd"}, "geometry": {"type": "Point", "coordinates": [-3.52041, 55.88301]}},
{"type": "Feature", "id": "11F-ixjs03-Fp4ydFBDZSTnGoXU=", "properties": {"ref": "CKGB0062", "@spider": "calvin_klein", "shop": "clothes", "addr:full": "Bicester Village, 50 Pingle Drive", "addr:city": "Bicester", "addr:state": "Europe", "addr:postcode": "OX26 6WD", "addr:country": "GB", "name": "Calvin Klein", "brand": "Calvin Klein", "brand:wikidata": "Q1068628", "nsi_id": "calvinklein-3937bd"}, "geometry": {"type": "Point", "coordinates": [-1.15428, 51.89143]}},
{"type": "Feature", "id": "CTh2xOPB5byA_Yf9tAwMgT8tm2E=", "properties": {"ref": "CKGB0063", "@spider": "calvin_klein", "shop": "clothes", "addr:full": "Bullring Shopping Centre SU514, B54BE, Birmingham, GB", "addr:city": "Birmingham", "addr:state": "Europe", "addr:postcode": "B54BE", "addr:country": "GB", "name": "Calvin Klein", "brand": "Calvin Klein", "brand:wikidata": "Q1068628", "nsi_id": "calvinklein-3937bd"}, "geometry": {"type": "Point", "coordinates": [-1.89435, 52.47762]}},
{"type": "Feature", "id": "GAIDQNIxfNml23TaxV1yLbJLZXM=", "properties": {"ref": "CKGB0064", "@spider": "calvin_klein", "shop": "clothes", "addr:full": "83-84 Kinsey Road,  Cheshire Oaks, GB", "addr:city": "CHESHIRE", "addr:state": "Europe", "addr:postcode": "CH65-9JJ", "addr:country": "GB", "name": "Calvin Klein", "brand": "Calvin Klein", "brand:wikidata": "Q1068628", "nsi_id": "calvinklein-3937bd"}, "geometry": {"type": "Point", "coordinates": [-2.88096, 53.26221]}},
{"type": "Feature", "id": "BgniX2ms9dp0HL1vZhp32vDEZkY=", "properties": {"ref": "CKGB0066", "@spider": "calvin_klein", "shop": "clothes", "addr:full": "Gunwharf Quays 30, PO13TZ, Portsmouth, UK", "addr:city": "Portsmouth", "addr:state": "Europe", "addr:postcode": "PO13TZ", "addr:country": "GB", "name": "Calvin Klein", "brand": "Calvin Klein", "brand:wikidata": "Q1068628", "nsi_id": "calvinklein-3937bd"}, "geometry": {"type": "Point", "coordinates": [-1.10394, 50.79494]}},
{"type": "Feature", "id": "fNR8ayJAJvd27CppfnLclbygkkM=", "properties": {"ref": "CKGB0071", "@spider": "calvin_klein", "shop": "clothes", "addr:full": "Cannock Outlet Village 21-22, WS11 7JU, Cannock, GB", "addr:city": "Cannock", "addr:state": "Europe", "addr:postcode": "WS11 7JU", "addr:country": "GB", "name": "Calvin Klein", "brand": "Calvin Klein", "brand:wikidata": "Q1068628", "nsi_id": "calvinklein-3937bd"}, "geometry": {"type": "Point", "coordinates": [-2.01437, 52.68862]}},
{"type": "Feature", "id": "JV_mhCtgas_qHD1wTSdzZ0pF4ww=", "properties": {"ref": "CKGB0072", "@spider": "calvin_klein", "shop": "clothes", "addr:full": "1 Leith Street, Unit SU3 18, EH1 3SS, Edinburgh, UK", "addr:city": "Edinburgh", "addr:state": "Europe", "addr:postcode": "EH1 3SS", "addr:country": "GB", "name": "Calvin Klein", "brand": "Calvin Klein", "brand:wikidata": "Q1068628", "nsi_id": "calvinklein-3937bd"}, "geometry": {"type": "Point", "coordinates": [-3.18848, 55.95521]}},
{"type": "Feature", "id": "BHn1H_TQQAFr5wxn2OTZOkh6vfQ=", "properties": {"ref": "CKGB0073", "@spider": "calvin_klein", "shop": "clothes", "addr:full": "Chapel Hill Unit D9-D10b,CM77 8YH,Braintree, UK", "addr:city": "Braintree", "addr:state": "Europe", "addr:postcode": "CM77 8YH", "addr:country": "GB", "name": "Calvin Klein", "brand": "Calvin Klein", "brand:wikidata": "Q1068628", "nsi_id": "calvinklein-3937bd"}, "geometry": {"type": "Point", "coordinates": [0.56723, 51.87613]}},
{"type": "Feature", "id": "-sV7VU8FwToTEdsZovTADglYrOU=", "properties": {"ref": "CKGB0074", "@spider": "calvin_klein", "shop": "clothes", "addr:full": "Farm Road 26, BA16 0BB, Street, UK", "addr:city": "Street", "addr:state": "Europe", "addr:postcode": "BA16 0BB", "addr:country": "GB", "name": "Calvin Klein", "brand": "Calvin Klein", "brand:wikidata": "Q1068628", "nsi_id": "calvinklein-3937bd"}, "geometry": {"type": "Point", "coordinates": [-2.74164, 51.1279]}},
{"type": "Feature", "id": "aI-3OZbzdyFGiheosbzHtjh2sZQ=", "properties": {"ref": "CKGB0075", "@spider": "calvin_klein", "shop": "clothes", "addr:full": "Wembley Park Boulevard  77, HA9 0FD, London, UK", "addr:city": "London", "addr:state": "Europe", "addr:postcode": "HA9 0FD", "addr:country": "GB", "name": "Calvin Klein", "brand": "Calvin Klein", "brand:wikidata": "Q1068628", "nsi_id": "calvinklein-3937bd"}, "geometry": {"type": "Point", "coordinates": [-0.28403, 51.5571]}},
{"type": "Feature", "id": "JvAAoka0ASFn2EhROi0Jkj9L-ao=", "properties": {"ref": "CKGB0078", "@spider": "calvin_klein", "shop": "clothes", "addr:full": "Battersea Power Station G - 012A,", "addr:city": "London", "addr:state": "Europe", "addr:postcode": "SW11 8AH", "addr:country": "GB", "name": "Calvin Klein", "brand": "Calvin Klein", "brand:wikidata": "Q1068628", "nsi_id": "calvinklein-3937bd"}, "geometry": {"type": "Point", "coordinates": [-0.14449, 51.48202]}},
{"type": "Feature", "id": "Sxik5JocPiHVT7gizIVdHgSTIM0=", "properties": {"ref": "CKGB0079", "@spider": "calvin_klein", "shop": "clothes", "addr:full": "Unit 83 London Designer Outlet", "addr:city": "London", "addr:state": "Europe", "addr:postcode": "HA9 0FD", "addr:country": "GB", "name": "Calvin Klein", "brand": "Calvin Klein", "brand:wikidata": "Q1068628", "nsi_id": "calvinklein-3937bd"}, "geometry": {"type": "Point", "coordinates": [-0.28332, 51.55633]}},
{"type": "Feature", "id": "04pAtYfUMQA-OUN6ZOsFSYM1zn4=", "properties": {"ref": "CKGB0080", "@spider": "calvin_klein", "shop": "clothes", "addr:full": "UNIT 9-11 BRAINTREE VILLAGE CHARTER WAY", "addr:city": "CHAPEL HILL", "addr:state": "Europe", "addr:postcode": "CM77 8YH", "addr:country": "GB", "name": "Calvin Klein", "brand": "Calvin Klein", "brand:wikidata": "Q1068628", "nsi_id": "calvinklein-3937bd"}, "geometry": {"type": "Point", "coordinates": [0.57118, 51.8696]}},
{"type": "Feature", "id": "VuwiR8JDNlsnpq_aF-FMizJB0D8=", "properties": {"ref": "CKGB0081", "@spider": "calvin_klein", "shop": "clothes", "addr:full": "13, Farm Road, Clarkes Village", "addr:city": "Street", "addr:state": "Europe", "addr:postcode": "BA16 0BB", "addr:country": "GB", "name": "Calvin Klein", "brand": "Calvin Klein", "brand:wikidata": "Q1068628", "nsi_id": "calvinklein-3937bd"}, "geometry": {"type": "Point", "coordinates": [-2.74118, 51.12766]}},
{"type": "Feature", "id": "Hxe-5Rrx1fJEzDuDxCXJvkr9qMg=", "properties": {"ref": "CKGB0082", "@spider": "calvin_klein", "shop": "clothes", "addr:full": "L107 Calvin Klein Greenhithe Bluewater", "addr:city": "Greenhithe", "addr:state": "Europe", "addr:postcode": "DA9 9ST", "addr:country": "GB", "name": "Calvin Klein", "brand": "Calvin Klein", "brand:wikidata": "Q1068628", "nsi_id": "calvinklein-3937bd"}, "geometry": {"type": "Point", "coordinates": [0.27111, 51.43894]}},
{"type": "Feature", "id": "07cG26qu-hU-BqOUoS-jz0OAexw=", "properties": {"ref": "CKFR0003", "@spider": "calvin_klein", "shop": "clothes", "addr:full": "McArthurGlen Roubaix, 68 Mail de Lannoy,", "addr:city": "Roubaix", "addr:state": "Europe", "addr:postcode": "59100", "addr:country": "FR", "name": "Calvin Klein", "brand": "Calvin Klein", "brand:wikidata": "Q1068628", "nsi_id": "calvinklein-3937bd"}, "geometry": {"type": "Point", "coordinates": [3.18145, 50.68949]}},
{"type": "Feature", "id": "OWpockmkYC9vEyXGLHGQvUR9jT8=", "properties": {"ref": "CKFR0011", "@spider": "calvin_klein", "shop": "clothes", "addr:full": "Roppenheim The Style Outlets, 1 Route de L\u2019Europe", "addr:city": "Roppenheim", "addr:state": "Europe", "addr:postcode": "67480", "addr:country": "FR", "name": "Calvin Klein", "brand": "Calvin Klein", "brand:wikidata": "Q1068628", "nsi_id": "calvinklein-3937bd"}, "geometry": {"type": "Point", "coordinates": [8.08847, 48.83679]}},
{"type": "Feature", "id": "3flPmJyyGWAc5aWwOQcb_JM0U-U=", "properties": {"ref": "CKFR0014", "@spider": "calvin_klein", "shop": "clothes", "addr:full": "McArthurGlen Troyes, Voie du Bois", "addr:city": "Pont-Sainte Marie", "addr:state": "Europe", "addr:postcode": "10150", "addr:country": "FR", "name": "Calvin Klein", "brand": "Calvin Klein", "brand:wikidata": "Q1068628", "nsi_id": "calvinklein-3937bd"}, "geometry": {"type": "Point", "coordinates": [4.10557, 48.3297]}},
{"type": "Feature", "id": "zUVvWFgpiTCZqU41tL3WFOP2La0=", "properties": {"ref": "CKFR0018", "@spider": "calvin_klein", "shop": "clothes", "addr:full": "Forum des Halles, 101 Rue Berger", "addr:city": "Paris", "addr:state": "Europe", "addr:postcode": "75001", "addr:country": "FR", "name": "Calvin Klein", "brand": "Calvin Klein", "brand:wikidata": "Q1068628", "nsi_id": "calvinklein-3937bd"}, "geometry": {"type": "Point", "coordinates": [2.34714, 48.86193]}},
{"type": "Feature", "id": "5Bw_aB6EbxkuAzfVYqtjuiHB94E=", "properties": {"ref": "CKFR0019", "@spider": "calvin_klein", "shop": "clothes", "addr:full": "Centre Commercial Polygone Riviera, 119 Avenue des Alpes", "addr:city": "Cagnes sur Mer", "addr:state": "Europe", "addr:postcode": "06800", "addr:country": "FR", "name": "Calvin Klein", "brand": "Calvin Klein", "brand:wikidata": "Q1068628", "nsi_id": "calvinklein-3937bd"}, "geometry": {"type": "Point", "coordinates": [7.12841, 43.66406]}},
{"type": "Feature", "id": "_NdeqNfTotRKLkOlQGeKITS3G50=", "properties": {"ref": "CKFR0020", "@spider": "calvin_klein", "shop": "clothes", "addr:full": "Channel Outlet Store, 1, Boulevard du Parc", "addr:city": "Coquelles", "addr:state": "Europe", "addr:postcode": "62231", "addr:country": "FR", "name": "Calvin Klein", "brand": "Calvin Klein", "brand:wikidata": "Q1068628", "nsi_id": "calvinklein-3937bd"}, "geometry": {"type": "Point", "coordinates": [1.80588, 50.92813]}},
{"type": "Feature", "id": "J6dLGyc8ydAcX-r3astPZ6247uQ=", "properties": {"ref": "CKFR0022", "@spider": "calvin_klein", "shop": "clothes", "addr:full": "McArthurGlen Designer Outlet, Rue de la Quenouille, Unit 1-2-3", "addr:city": "Miramas", "addr:state": "Europe", "addr:postcode": "13140", "addr:country": "FR", "name": "Calvin Klein", "brand": "Calvin Klein", "brand:wikidata": "Q1068628", "nsi_id": "calvinklein-3937bd"}, "geometry": {"type": "Point", "coordinates": [4.99252, 43.59379]}},
{"type": "Feature", "id": "X4ukB7tTtg-bIyFd1rnF0z2kBWA=", "properties": {"ref": "CKFR0029", "@spider": "calvin_klein", "shop": "clothes", "addr:full": "Rue de la Motte Fablet 2", "addr:city": "Rennes", "addr:state": "Europe", "addr:postcode": "35000", "addr:country": "FR", "name": "Calvin Klein", "brand": "Calvin Klein", "brand:wikidata": "Q1068628", "nsi_id": "calvinklein-3937bd"}, "geometry": {"type": "Point", "coordinates": [-1.67926, 48.11402]}},
{"type": "Feature", "id": "HAVh7a92MH5DMdaPod2zc2kzbEw=", "properties": {"ref": "CKFR0032", "@spider": "calvin_klein", "shop": "clothes", "addr:full": "Place de Lisbonne 2, 34000, Montpellier", "addr:city": "Montpellier", "addr:state": "Europe", "addr:postcode": "34000", "addr:country": "FR", "name": "Calvin Klein", "brand": "Calvin Klein", "brand:wikidata": "Q1068628", "nsi_id": "calvinklein-3937bd"}, "geometry": {"type": "Point", "coordinates": [3.92075, 43.60363]}},
{"type": "Feature", "id": "_gHSVR_fBKbBwLv46-bx_HScZIc=", "properties": {"ref": "CKFR0033", "@spider": "calvin_klein", "shop": "clothes", "addr:full": "Rue des Francs Bourgeois 42, 75004, Paris, FR", "addr:city": "Paris", "addr:state": "Europe", "addr:postcode": "75004", "addr:country": "FR", "name": "Calvin Klein", "brand": "Calvin Klein", "brand:wikidata": "Q1068628", "nsi_id": "calvinklein-3937bd"}, "geometry": {"type": "Point", "coordinates": [2.36174, 48.85725]}},
{"type": "Feature", "id": "wyqSfoSgHjDTT3ruESWAAsMDo6k=", "properties": {"ref": "CKFR0035", "@spider": "calvin_klein", "shop": "clothes", "addr:full": "3 Cour De La Garonne", "addr:city": "Serris", "addr:state": "Europe", "addr:postcode": "77700", "addr:country": "FR", "name": "Calvin Klein", "brand": "Calvin Klein", "brand:wikidata": "Q1068628", "nsi_id": "calvinklein-3937bd"}, "geometry": {"type": "Point", "coordinates": [2.78332, 48.85284]}},
{"type": "Feature", "id": "uV1bPDcv9HXrdmN7adqgZth-MGo=", "properties": {"ref": "CKDE0002", "@spider": "calvin_klein", "shop": "clothes", "addr:full": "Wertheim Village, Almosenberg 1", "addr:city": "Wertheim", "addr:state": "Europe", "addr:postcode": "97877", "addr:country": "DE", "name": "Calvin Klein", "brand": "Calvin Klein", "brand:wikidata": "Q1068628", "nsi_id": "calvinklein-3937bd"}, "geometry": {"type": "Point", "coordinates": [9.57634, 49.77547]}},
{"type": "Feature", "id": "m_fT7rs3FZdN6Ly5O2GKEH8mlbI=", "properties": {"ref": "CKDE0003", "@spider": "calvin_klein", "shop": "clothes", "addr:full": "Otto-Hahn-Stra\u00dfe 1", "addr:city": "Ingolstadt", "addr:state": "Europe", "addr:postcode": "85055", "addr:country": "DE", "name": "Calvin Klein", "brand": "Calvin Klein", "brand:wikidata": "Q1068628", "nsi_id": "calvinklein-3937bd"}, "geometry": {"type": "Point", "coordinates": [11.47901, 48.78401]}},
{"type": "Feature", "id": "CqYALO3fwwGcu2PQsl_ruOtvSks=", "properties": {"ref": "CKDE0005", "@spider": "calvin_klein", "shop": "clothes", "addr:full": "Otto-Hahn-Stra\u00dfe 1", "addr:city": "Ingolstadt", "addr:state": "Europe", "addr:postcode": "85055", "addr:country": "DE", "name": "Calvin Klein", "brand": "Calvin Klein", "brand:wikidata": "Q1068628", "nsi_id": "calvinklein-3937bd"}, "geometry": {"type": "Point", "coordinates": [11.47901, 48.78401]}},
{"type": "Feature", "id": "_UWaSN5gir63RqaVDzZNPzOOnx4=", "properties": {"ref": "CKDE0006", "@spider": "calvin_klein", "shop": "clothes", "addr:full": "Almosenberg 1", "addr:city": "Wertheim", "addr:state": "Europe", "addr:postcode": "97877", "addr:country": "DE", "name": "Calvin Klein", "brand": "Calvin Klein", "brand:wikidata": "Q1068628", "nsi_id": "calvinklein-3937bd"}, "geometry": {"type": "Point", "coordinates": [9.57634, 49.77547]}},
{"type": "Feature", "id": "OOwPvhJXcFFt4h_-32G6NFEqnQ0=", "properties": {"ref": "CKDE0009", "@spider": "calvin_klein", "shop": "clothes", "addr:full": "Rosenstrasse 6", "addr:city": "Munich", "addr:state": "Europe", "addr:postcode": "80331", "addr:country": "DE", "name": "Calvin Klein", "brand": "Calvin Klein", "brand:wikidata": "Q1068628", "nsi_id": "calvinklein-3937bd"}, "geometry": {"type": "Point", "coordinates": [11.574, 48.13651]}},
{"type": "Feature", "id": "F7aZv0Ji_EAV7fGIeVSm3rNWGS4=", "properties": {"ref": "CKDE0020", "@spider": "calvin_klein", "shop": "clothes", "addr:full": "Kanalstra\u00dfe 8", "addr:city": "Metzingen", "addr:state": "Europe", "addr:postcode": "72555", "addr:country": "DE", "name": "Calvin Klein", "brand": "Calvin Klein", "brand:wikidata": "Q1068628", "nsi_id": "calvinklein-3937bd"}, "geometry": {"type": "Point", "coordinates": [9.28087, 48.53584]}},
{"type": "Feature", "id": "87CZ7BxWWvlefAzHODIfdp96wtE=", "properties": {"ref": "CKDE0021", "@spider": "calvin_klein", "shop": "clothes", "addr:full": "Outletcity Metzingen, Reutlinger Stra\u00dfe 63", "addr:city": "Metzingen", "addr:state": "Europe", "addr:postcode": "72555", "addr:country": "DE", "name": "Calvin Klein", "brand": "Calvin Klein", "brand:wikidata": "Q1068628", "nsi_id": "calvinklein-3937bd"}, "geometry": {"type": "Point", "coordinates": [9.28061, 48.53575]}},
{"type": "Feature", "id": "Ps3tLrKC1HEM16vl3llJkoRDnKc=", "properties": {"ref": "CKDE0024", "@spider": "calvin_klein", "shop": "clothes", "addr:full": "An der Vorburg 1", "addr:city": "Wolfsburg", "addr:state": "Europe", "addr:postcode": "38440", "addr:country": "DE", "name": "Calvin Klein", "brand": "Calvin Klein", "brand:wikidata": "Q1068628", "nsi_id": "calvinklein-3937bd"}, "geometry": {"type": "Point", "coordinates": [10.79296, 52.42916]}},
{"type": "Feature", "id": "_HYRjPc_szOfJT4Pse0XeVk2dYo=", "properties": {"ref": "CKDE0027", "@spider": "calvin_klein", "shop": "clothes", "addr:full": "Oderstra\u00dfe 10", "addr:city": "Neum\u00fcnster", "addr:state": "Europe", "addr:postcode": "24539", "addr:country": "DE", "name": "Calvin Klein", "brand": "Calvin Klein", "brand:wikidata": "Q1068628", "nsi_id": "calvinklein-3937bd"}, "geometry": {"type": "Point", "coordinates": [9.97816, 54.04344]}},
{"type": "Feature", "id": "aUAH4bjaPBWOu74zLs-WMA985b8=", "properties": {"ref": "CKDE0028", "@spider": "calvin_klein", "shop": "clothes", "addr:full": "Ballindamm 40", "addr:city": "Hamburg", "addr:state": "Europe", "addr:postcode": "20095", "addr:country": "DE", "name": "Calvin Klein", "brand": "Calvin Klein", "brand:wikidata": "Q1068628", "nsi_id": "calvinklein-3937bd"}, "geometry": {"type": "Point", "coordinates": [9.99763, 53.55095]}},
{"type": "Feature", "id": "Aoz847-fBJXkdubeztWRLW5_38Q=", "properties": {"ref": "CKDE0030", "@spider": "calvin_klein", "shop": "clothes", "addr:full": "Am Main-Taunus-Zentrum", "addr:city": "Sulzbach", "addr:state": "Europe", "addr:postcode": "65843", "addr:country": "DE", "name": "Calvin Klein", "brand": "Calvin Klein", "brand:wikidata": "Q1068628", "nsi_id": "calvinklein-3937bd"}, "geometry": {"type": "Point", "coordinates": [8.52514, 50.12076]}},
{"type": "Feature", "id": "qRWTQ4XjTxzM1b9eVyA49n67Olw=", "properties": {"ref": "CKDE0035", "@spider": "calvin_klein", "shop": "clothes", "addr:full": "Grunerstrasse 20", "addr:city": "Berlin", "addr:state": "Europe", "addr:postcode": "10179", "addr:country": "DE", "name": "Calvin Klein", "brand": "Calvin Klein", "brand:wikidata": "Q1068628", "nsi_id": "calvinklein-3937bd"}, "geometry": {"type": "Point", "coordinates": [13.41478, 52.52017]}},
{"type": "Feature", "id": "bMOYJSIolj8ylunNKSfcRr_-Qsg=", "properties": {"ref": "CKDE0037", "@spider": "calvin_klein", "shop": "clothes", "addr:full": "Ernst-August-Platz 2", "addr:city": "Hannover", "addr:state": "Europe", "addr:postcode": "30159", "addr:country": "DE", "name": "Calvin Klein", "brand": "Calvin Klein", "brand:wikidata": "Q1068628", "nsi_id": "calvinklein-3937bd"}, "geometry": {"type": "Point", "coordinates": [9.738, 52.37786]}},
{"type": "Feature", "id": "5IRI8MIVPkRt5LjuK6QaUmwF7Iw=", "properties": {"ref": "CKDE0038", "@spider": "calvin_klein", "shop": "clothes", "addr:full": "Heegbarg 31", "addr:city": "Hamburg", "addr:state": "Europe", "addr:postcode": "22391", "addr:country": "DE", "name": "Calvin Klein", "brand": "Calvin Klein", "brand:wikidata": "Q1068628", "nsi_id": "calvinklein-3937bd"}, "geometry": {"type": "Point", "coordinates": [10.09097, 53.65429]}},
{"type": "Feature", "id": "Fm5zT5d4leEuBhXGdHhjDFPN4ug=", "properties": {"ref": "CKDE0042", "@spider": "calvin_klein", "shop": "clothes", "addr:full": "Centroallee 244", "addr:city": "Oberhausen", "addr:state": "Europe", "addr:postcode": "46047", "addr:country": "DE", "name": "Calvin Klein", "brand": "Calvin Klein", "brand:wikidata": "Q1068628", "nsi_id": "calvinklein-3937bd"}, "geometry": {"type": "Point", "coordinates": [6.88152, 51.48878]}},
{"type": "Feature", "id": "y0mL-ShmqnbYedWWfA-HtV9Vxy0=", "properties": {"ref": "CKDE0046", "@spider": "calvin_klein", "shop": "clothes", "addr:full": "Friedrichstrasse 32", "addr:city": "Westerland", "addr:state": "Europe", "addr:postcode": "25980", "addr:country": "DE", "name": "Calvin Klein", "brand": "Calvin Klein", "brand:wikidata": "Q1068628", "nsi_id": "calvinklein-3937bd"}, "geometry": {"type": "Point", "coordinates": [8.30157, 54.90773]}},
{"type": "Feature", "id": "ZisDSQZ7JvG7eQxayumfY3A-9Z8=", "properties": {"ref": "CKDE0048", "@spider": "calvin_klein", "shop": "clothes", "addr:full": "Mail\u00e4nder Platz 7", "addr:city": "Stuttgart", "addr:state": "Europe", "addr:postcode": "70173", "addr:country": "DE", "name": "Calvin Klein", "brand": "Calvin Klein", "brand:wikidata": "Q1068628", "nsi_id": "calvinklein-3937bd"}, "geometry": {"type": "Point", "coordinates": [9.18207, 48.7913]}},
{"type": "Feature", "id": "4MATHVjSRv7JJJcIbLCe0OXwZFs=", "properties": {"ref": "CKDE0050", "@spider": "calvin_klein", "shop": "clothes", "addr:full": "Bremer Stra\u00dfe 103-117C", "addr:city": "Stuhr Brinkum", "addr:state": "Europe", "addr:postcode": "28816", "addr:country": "DE", "name": "Calvin Klein", "brand": "Calvin Klein", "brand:wikidata": "Q1068628", "nsi_id": "calvinklein-3937bd"}, "geometry": {"type": "Point", "coordinates": [8.80474, 53.02861]}},
{"type": "Feature", "id": "a1ivBE-dCo_nm3jZhu5wEDpf2Gk=", "properties": {"ref": "CKDE0051", "@spider": "calvin_klein", "shop": "clothes", "addr:full": "K\u00f6nigsallee 14-16", "addr:city": "Duesseldorf", "addr:state": "Europe", "addr:postcode": "40212", "addr:country": "DE", "name": "Calvin Klein", "brand": "Calvin Klein", "brand:wikidata": "Q1068628", "nsi_id": "calvinklein-3937bd"}, "geometry": {"type": "Point", "coordinates": [6.77962, 51.22572]}},
{"type": "Feature", "id": "LhmX06zZ8gHSO2poJ6vGUO9Q4CI=", "properties": {"ref": "CKDE0053", "@spider": "calvin_klein", "shop": "clothes", "addr:full": "Centroallee 129e", "addr:city": "Oberhausen", "addr:state": "Europe", "addr:postcode": "46047", "addr:country": "DE", "name": "Calvin Klein", "brand": "Calvin Klein", "brand:wikidata": "Q1068628", "nsi_id": "calvinklein-3937bd"}, "geometry": {"type": "Point", "coordinates": [6.88106, 51.49037]}},
{"type": "Feature", "id": "PJY13TKSVH-vnQXkkJwWKEopAhM=", "properties": {"ref": "CKDE0058", "@spider": "calvin_klein", "shop": "clothes", "addr:full": "Limbecker Platz 1a", "addr:city": "Essen", "addr:state": "Europe", "addr:postcode": "45127", "addr:country": "DE", "name": "Calvin Klein", "brand": "Calvin Klein", "brand:wikidata": "Q1068628", "nsi_id": "calvinklein-3937bd"}, "geometry": {"type": "Point", "coordinates": [7.00676, 51.45914]}},
{"type": "Feature", "id": "WET3F2u0GwoAtLGLmhRHpHvS2CI=", "properties": {"ref": "CKDE0059", "@spider": "calvin_klein", "shop": "clothes", "addr:full": "Leipziger Platz 12", "addr:city": "Berlin", "addr:state": "Europe", "addr:postcode": "10117", "addr:country": "DE", "name": "Calvin Klein", "brand": "Calvin Klein", "brand:wikidata": "Q1068628", "nsi_id": "calvinklein-3937bd"}, "geometry": {"type": "Point", "coordinates": [13.38106, 52.51042]}},
{"type": "Feature", "id": "iL_aHizAwQ8oxBv3uV_G667mj88=", "properties": {"ref": "CKDE0060", "@spider": "calvin_klein", "shop": "clothes", "addr:full": "Ernst-August-Platz 2", "addr:city": "Hannover", "addr:state": "Europe", "addr:postcode": "30159", "addr:country": "DE", "name": "Calvin Klein", "brand": "Calvin Klein", "brand:wikidata": "Q1068628", "nsi_id": "calvinklein-3937bd"}, "geometry": {"type": "Point", "coordinates": [9.738, 52.37786]}},
{"type": "Feature", "id": "5ow1d_vq2lLEecaKqJi0LegA0aU=", "properties": {"ref": "CKDE0062", "@spider": "calvin_klein", "shop": "clothes", "addr:full": "Ludgeristra\u00dfe 114", "addr:city": "Muenster", "addr:state": "Europe", "addr:postcode": "48143", "addr:country": "DE", "name": "Calvin Klein", "brand": "Calvin Klein", "brand:wikidata": "Q1068628", "nsi_id": "calvinklein-3937bd"}, "geometry": {"type": "Point", "coordinates": [7.62761, 51.96081]}},
{"type": "Feature", "id": "I6kp6WpcZ8k8xeURzuQdfeUszNw=", "properties": {"ref": "CKDE0063", "@spider": "calvin_klein", "shop": "clothes", "addr:full": "Adalbertstrasse 70", "addr:city": "Aachen", "addr:state": "Europe", "addr:postcode": "52062", "addr:country": "DE", "name": "Calvin Klein", "brand": "Calvin Klein", "brand:wikidata": "Q1068628", "nsi_id": "calvinklein-3937bd"}, "geometry": {"type": "Point", "coordinates": [6.09195, 50.77522]}},
{"type": "Feature", "id": "rAN3zSnJ6yo5CnHCRJ1E7DA4DeM=", "properties": {"ref": "CKDE0064", "@spider": "calvin_klein", "shop": "clothes", "addr:full": "Ritterbrunnen 1", "addr:city": "Braunschweig", "addr:state": "Europe", "addr:postcode": "38100", "addr:country": "DE", "name": "Calvin Klein", "brand": "Calvin Klein", "brand:wikidata": "Q1068628", "nsi_id": "calvinklein-3937bd"}, "geometry": {"type": "Point", "coordinates": [10.52846, 52.26339]}},
{"type": "Feature", "id": "XtSaE9seOkMoqcOiQnEG1sErplg=", "properties": {"ref": "CKDE0065", "@spider": "calvin_klein", "shop": "clothes", "addr:full": "Galerie Rostocker Hof, Kr\u00f6peliner Stra\u00dfe 26", "addr:city": "Rostock", "addr:state": "Europe", "addr:postcode": "18055", "addr:country": "DE", "name": "Calvin Klein", "brand": "Calvin Klein", "brand:wikidata": "Q1068628", "nsi_id": "calvinklein-3937bd"}, "geometry": {"type": "Point", "coordinates": [12.13551, 54.08812]}},
{"type": "Feature", "id": "zK7pwMLAq6CBdNFSPJQ_JqI7cE8=", "properties": {"ref": "CKDE0066", "@spider": "calvin_klein", "shop": "clothes", "addr:full": "Ballindamm 40", "addr:city": "Hamburg", "addr:state": "Europe", "addr:postcode": "20095", "addr:country": "DE", "name": "Calvin Klein", "brand": "Calvin Klein", "brand:wikidata": "Q1068628", "nsi_id": "calvinklein-3937bd"}, "geometry": {"type": "Point", "coordinates": [9.99694, 53.55136]}},
{"type": "Feature", "id": "r7rWnUJFlNd1YaQdXXHyCgiLCxU=", "properties": {"ref": "CKDE0067", "@spider": "calvin_klein", "shop": "clothes", "addr:full": "Ernst-Reuter-Allee 11", "addr:city": "Magdeburg", "addr:state": "Europe", "addr:postcode": "39104", "addr:country": "DE", "name": "Calvin Klein", "brand": "Calvin Klein", "brand:wikidata": "Q1068628", "nsi_id": "calvinklein-3937bd"}, "geometry": {"type": "Point", "coordinates": [11.63808, 52.13005]}},
{"type": "Feature", "id": "y8L7ZK1sjVL1D6xSmZj5o9z-pJ8=", "properties": {"ref": "CKDE0068", "@spider": "calvin_klein", "shop": "clothes", "addr:full": "Bodanstrabe 1", "addr:city": "Konstanz", "addr:state": "Europe", "addr:postcode": "78462", "addr:country": "DE", "name": "Calvin Klein", "brand": "Calvin Klein", "brand:wikidata": "Q1068628", "nsi_id": "calvinklein-3937bd"}, "geometry": {"type": "Point", "coordinates": [9.17649, 47.65757]}},
{"type": "Feature", "id": "L1Sc9cqe0iYNmpffdEhQ854CKOk=", "properties": {"ref": "CKDE0070", "@spider": "calvin_klein", "shop": "clothes", "addr:full": "Altmarkt-Galerie Dresden, Webergasse 1", "addr:city": "Dresden", "addr:state": "Europe", "addr:postcode": "01067", "addr:country": "DE", "name": "Calvin Klein", "brand": "Calvin Klein", "brand:wikidata": "Q1068628", "nsi_id": "calvinklein-3937bd"}, "geometry": {"type": "Point", "coordinates": [13.73495, 51.04851]}},
{"type": "Feature", "id": "gSzO7bGSL4pHJs80A-h6Mhuh8xc=", "properties": {"ref": "CKDE0074", "@spider": "calvin_klein", "shop": "clothes", "addr:full": "Stern Center Potsdam", "addr:city": "Potsdam", "addr:state": "Europe", "addr:postcode": "14480", "addr:country": "DE", "name": "Calvin Klein", "brand": "Calvin Klein", "brand:wikidata": "Q1068628", "nsi_id": "calvinklein-3937bd"}, "geometry": {"type": "Point", "coordinates": [13.13465, 52.37101]}},
{"type": "Feature", "id": "b6GdzUriysRLDyCBheJYimLBK7Q=", "properties": {"ref": "CKDE0077", "@spider": "calvin_klein", "shop": "clothes", "addr:full": "Gruner Str. 20", "addr:city": "Berlin", "addr:state": "Europe", "addr:postcode": "10179", "addr:country": "DE", "name": "Calvin Klein", "brand": "Calvin Klein", "brand:wikidata": "Q1068628", "nsi_id": "calvinklein-3937bd"}, "geometry": {"type": "Point", "coordinates": [13.41479, 52.5199]}},
{"type": "Feature", "id": "OMY2WMMz3HSUCXVPoHsxuA0SJ4o=", "properties": {"ref": "CKDE0078", "@spider": "calvin_klein", "shop": "clothes", "addr:full": "Schildergasse 55", "addr:city": "K\u00f6ln", "addr:state": "Europe", "addr:postcode": "50667", "addr:country": "DE", "name": "Calvin Klein", "brand": "Calvin Klein", "brand:wikidata": "Q1068628", "nsi_id": "calvinklein-3937bd"}, "geometry": {"type": "Point", "coordinates": [6.95359, 50.93646]}},
{"type": "Feature", "id": "d9O4t6st7-bDW9A8kUUqwQWB8_c=", "properties": {"ref": "CKDE0079", "@spider": "calvin_klein", "shop": "clothes", "addr:full": "Laurenzstra\u00dfe 51-55", "addr:city": "Ochtrup", "addr:state": "Europe", "addr:postcode": "48607", "addr:country": "DE", "name": "Calvin Klein", "brand": "Calvin Klein", "brand:wikidata": "Q1068628", "nsi_id": "calvinklein-3937bd"}, "geometry": {"type": "Point", "coordinates": [7.19863, 52.21071]}},
{"type": "Feature", "id": "cIxYWPE40ZAQKE-tgBPSMURiBsw=", "properties": {"ref": "CKDE0080", "@spider": "calvin_klein", "shop": "clothes", "addr:full": "Alter Spandauer Weg 1", "addr:city": "Wustermark", "addr:state": "Europe", "addr:postcode": "14641", "addr:country": "DE", "name": "Calvin Klein", "brand": "Calvin Klein", "brand:wikidata": "Q1068628", "nsi_id": "calvinklein-3937bd"}, "geometry": {"type": "Point", "coordinates": [12.97826, 52.54084]}},
{"type": "Feature", "id": "d2dEVmrU7LmEhHfeVrO0_diyhIs=", "properties": {"ref": "CKDE0082", "@spider": "calvin_klein", "shop": "clothes", "addr:full": "Londoner Bogen 10 - 90", "addr:city": "Zweibr\u00fccken", "addr:state": "Europe", "addr:postcode": "66482", "addr:country": "DE", "name": "Calvin Klein", "brand": "Calvin Klein", "brand:wikidata": "Q1068628", "nsi_id": "calvinklein-3937bd"}, "geometry": {"type": "Point", "coordinates": [7.40303, 49.23068]}},
{"type": "Feature", "id": "mnLMJ14AtDg1HsxpZtoybs8entg=", "properties": {"ref": "CKDE0084", "@spider": "calvin_klein", "shop": "clothes", "addr:full": "Am Fashion Outlet 72", "addr:city": "Montabaur", "addr:state": "Europe", "addr:postcode": "56410", "addr:country": "DE", "name": "Calvin Klein", "brand": "Calvin Klein", "brand:wikidata": "Q1068628", "nsi_id": "calvinklein-3937bd"}, "geometry": {"type": "Point", "coordinates": [7.82849, 50.44391]}},
{"type": "Feature", "id": "Pc9z0EcCMPXsm15T6nZfepaWrNg=", "properties": {"ref": "CKDE0086", "@spider": "calvin_klein", "shop": "clothes", "addr:full": "N\u00fcrnberger Str. 7, 91052, Erlangen, DE", "addr:city": "Erlangen", "addr:state": "Europe", "addr:postcode": "91052", "addr:country": "DE", "name": "Calvin Klein", "brand": "Calvin Klein", "brand:wikidata": "Q1068628", "nsi_id": "calvinklein-3937bd"}, "geometry": {"type": "Point", "coordinates": [11.00429, 49.59311]}},
{"type": "Feature", "id": "Rqz1n1cftR067A_MY4Ta35JCTyo=", "properties": {"ref": "CKDE0089", "@spider": "calvin_klein", "shop": "clothes", "addr:full": "Pasinger Bahnhofspl. 5", "addr:city": "Munich", "addr:state": "Europe", "addr:postcode": "81241", "addr:country": "DE", "name": "Calvin Klein", "brand": "Calvin Klein", "brand:wikidata": "Q1068628", "nsi_id": "calvinklein-3937bd"}, "geometry": {"type": "Point", "coordinates": [11.46098, 48.14916]}},
{"type": "Feature", "id": "I11Uz9-X-f4-_0hLVqA9jnvKRQA=", "properties": {"ref": "CKNL0002", "@spider": "calvin_klein", "shop": "clothes", "addr:full": "McArthurGlen Roermond, Stadsweide 76", "addr:city": "Roermond", "addr:state": "Europe", "addr:postcode": "6041 TD", "addr:country": "NL", "name": "Calvin Klein", "brand": "Calvin Klein", "brand:wikidata": "Q1068628", "nsi_id": "calvinklein-3937bd"}, "geometry": {"type": "Point", "coordinates": [5.9881, 51.19823]}},
{"type": "Feature", "id": "lBiUrB4rhKRMpbunZoUyvUWOXBc=", "properties": {"ref": "CKNL0004", "@spider": "calvin_klein", "shop": "clothes", "addr:full": "McArthurGlen Roermond, Stadsweide 348+350", "addr:city": "Roermond", "addr:state": "Europe", "addr:postcode": "6041 TD", "addr:country": "NL", "name": "Calvin Klein", "brand": "Calvin Klein", "brand:wikidata": "Q1068628", "nsi_id": "calvinklein-3937bd"}, "geometry": {"type": "Point", "coordinates": [5.98732, 51.19931]}},
{"type": "Feature", "id": "1h3PHqhlRkCcFHr5DvQkNxsSAJQ=", "properties": {"ref": "CKNL0005", "@spider": "calvin_klein", "shop": "clothes", "addr:full": "Batavia Stad, Bataviaplein 200-202", "addr:city": "Lelystad", "addr:state": "Europe", "addr:postcode": "8242 PN", "addr:country": "NL", "name": "Calvin Klein", "brand": "Calvin Klein", "brand:wikidata": "Q1068628", "nsi_id": "calvinklein-3937bd"}, "geometry": {"type": "Point", "coordinates": [5.4379, 52.52295]}},
{"type": "Feature", "id": "2Q7cmXk4OxLaqByskVvH0XOuHk4=", "properties": {"ref": "CKNL0013", "@spider": "calvin_klein", "shop": "clothes", "addr:full": "Rosada 115-116", "addr:city": "Roosendaal", "addr:state": "Europe", "addr:postcode": "4703 TB", "addr:country": "NL", "name": "Calvin Klein", "brand": "Calvin Klein", "brand:wikidata": "Q1068628", "nsi_id": "calvinklein-3937bd"}, "geometry": {"type": "Point", "coordinates": [4.42986, 51.53184]}},
{"type": "Feature", "id": "FhBnfltUSCEasE78Z3DUMbYVGGg=", "properties": {"ref": "CKNL0016", "@spider": "calvin_klein", "shop": "clothes", "addr:full": "Leidsestraat 9", "addr:city": "Amsterdam", "addr:state": "Europe", "addr:postcode": "1017 NS", "addr:country": "NL", "name": "Calvin Klein", "brand": "Calvin Klein", "brand:wikidata": "Q1068628", "nsi_id": "calvinklein-3937bd"}, "geometry": {"type": "Point", "coordinates": [4.88762, 52.3664]}},
{"type": "Feature", "id": "QaV87TeC7t4cXC9yTBC1KFdSRxw=", "properties": {"ref": "CKNL0018", "@spider": "calvin_klein", "shop": "clothes", "addr:full": "Maastrichter Brugstraat 17,", "addr:city": "Maastricht", "addr:state": "Europe", "addr:postcode": "6211ES", "addr:country": "NL", "name": "Calvin Klein", "brand": "Calvin Klein", "brand:wikidata": "Q1068628", "nsi_id": "calvinklein-3937bd"}, "geometry": {"type": "Point", "coordinates": [5.69361, 50.84925]}},
{"type": "Feature", "id": "p2pvRV3mNGin25Kghs8arCXZICE=", "properties": {"ref": "CKNL0019", "@spider": "calvin_klein", "shop": "clothes", "addr:full": "Weigelia 22", "addr:city": "Leidschendam", "addr:state": "Europe", "addr:postcode": "2262 AC", "addr:country": "NL", "name": "Calvin Klein", "brand": "Calvin Klein", "brand:wikidata": "Q1068628", "nsi_id": "calvinklein-3937bd"}, "geometry": {"type": "Point", "coordinates": [4.3816, 52.08873]}},
{"type": "Feature", "id": "RRIX2gUBOtbh0FPe0Vb0TZdrxYk=", "properties": {"ref": "CKES0001", "@spider": "calvin_klein", "shop": "clothes", "addr:full": "La Roca Village, Santa Agn\u00e8s de Malanyanes", "addr:city": "Barcelona", "addr:state": "Europe", "addr:postcode": "08430", "addr:country": "ES", "name": "Calvin Klein", "brand": "Calvin Klein", "brand:wikidata": "Q1068628", "nsi_id": "calvinklein-3937bd"}, "geometry": {"type": "Point", "coordinates": [2.34339, 41.61061]}},
{"type": "Feature", "id": "54Kw7XYzQLgJkvJeFPENIWKPI4Y=", "properties": {"ref": "CKES0002", "@spider": "calvin_klein", "shop": "clothes", "addr:full": "Las Rozas Village, Calle Juan Ram\u00f3n Jim\u00e9nez, 3", "addr:city": "Madrid", "addr:state": "Europe", "addr:postcode": "28230", "addr:country": "ES", "name": "Calvin Klein", "brand": "Calvin Klein", "brand:wikidata": "Q1068628", "nsi_id": "calvinklein-3937bd"}, "geometry": {"type": "Point", "coordinates": [-3.9003, 40.51831]}},
{"type": "Feature", "id": "VkXvXERcGBzvGl1TSg4YNRd_IlM=", "properties": {"ref": "CKES0004", "@spider": "calvin_klein", "shop": "clothes", "addr:full": "Las Rozas Village, Calle Juan Ram\u00f3n Jim\u00e9nez, 3", "addr:city": "Madrid", "addr:state": "Europe", "addr:postcode": "28232", "addr:country": "ES", "name": "Calvin Klein", "brand": "Calvin Klein", "brand:wikidata": "Q1068628", "nsi_id": "calvinklein-3937bd"}, "geometry": {"type": "Point", "coordinates": [-3.90011, 40.51817]}},
{"type": "Feature", "id": "1g0yj8NktKn7YK7SJP4-nQKOIWI=", "properties": {"ref": "CKES0006", "@spider": "calvin_klein", "shop": "clothes", "addr:full": "La Roca Village, Santa Agn\u00e8s de Malanyanes", "addr:city": "Barcelona", "addr:state": "Europe", "addr:postcode": "08430", "addr:country": "ES", "name": "Calvin Klein", "brand": "Calvin Klein", "brand:wikidata": "Q1068628", "nsi_id": "calvinklein-3937bd"}, "geometry": {"type": "Point", "coordinates": [2.34344, 41.61066]}},
{"type": "Feature", "id": "P5WtGAhokQ_Ny02jl4xsDk_JGYM=", "properties": {"ref": "CKES0007", "@spider": "calvin_klein", "shop": "clothes", "addr:full": "Centro Comercial Megapark Barakaldo, Avda. de la Ribera", "addr:city": "Barakaldo", "addr:state": "Europe", "addr:postcode": "48903", "addr:country": "ES", "name": "Calvin Klein", "brand": "Calvin Klein", "brand:wikidata": "Q1068628", "nsi_id": "calvinklein-3937bd"}, "geometry": {"type": "Point", "coordinates": [-3.00414, 43.29508]}},
{"type": "Feature", "id": "nuW8WGNh1bjuoyJQxy19ECA67Dw=", "properties": {"ref": "CKES0009", "@spider": "calvin_klein", "shop": "clothes", "addr:full": "Centro Comercial Las Terrazas, Autov\u00eda GC-1, km 5,5,  Salida El Cortijo", "addr:city": "Telde", "addr:state": "Europe", "addr:postcode": "35220", "addr:country": "ES", "name": "Calvin Klein", "brand": "Calvin Klein", "brand:wikidata": "Q1068628", "nsi_id": "calvinklein-3937bd"}, "geometry": {"type": "Point", "coordinates": [-15.39398, 28.02936]}},
{"type": "Feature", "id": "UCHR7h1G5FBU5J8EpQd8IsAM0Ko=", "properties": {"ref": "CKES0010", "@spider": "calvin_klein", "shop": "clothes", "addr:full": "Centro Comercial Megapark Barakaldo, Avda. de la Ribera", "addr:city": "Barakaldo", "addr:state": "Europe", "addr:postcode": "48903", "addr:country": "ES", "name": "Calvin Klein", "brand": "Calvin Klein", "brand:wikidata": "Q1068628", "nsi_id": "calvinklein-3937bd"}, "geometry": {"type": "Point", "coordinates": [-3.0037, 43.29493]}},
{"type": "Feature", "id": "aecXonVKVllnbNXrf0pvuOIoXLA=", "properties": {"ref": "CKES0012", "@spider": "calvin_klein", "shop": "clothes", "addr:full": "C.C Sevilla Fashion Outlet , Pol\u00edgono Los Espartales, Autov\u00eda A4, Km 528", "addr:city": "Seville", "addr:state": "Europe", "addr:postcode": "41300", "addr:country": "ES", "name": "Calvin Klein", "brand": "Calvin Klein", "brand:wikidata": "Q1068628", "nsi_id": "calvinklein-3937bd"}, "geometry": {"type": "Point", "coordinates": [-5.88573, 37.4392]}},
{"type": "Feature", "id": "xMT8O4Jha4cE-lh3Rovnrbp0AQM=", "properties": {"ref": "CKES0015", "@spider": "calvin_klein", "shop": "clothes", "addr:full": "Coru\u00f1a The Style Outlets, N-550, km 9.5", "addr:city": "Culleredo", "addr:state": "Europe", "addr:postcode": "15180", "addr:country": "ES", "name": "Calvin Klein", "brand": "Calvin Klein", "brand:wikidata": "Q1068628", "nsi_id": "calvinklein-3937bd"}, "geometry": {"type": "Point", "coordinates": [-8.37101, 43.29081]}},
{"type": "Feature", "id": "pj9o2DhNpp1ykUysMAGiSjjq0V4=", "properties": {"ref": "CKES0021", "@spider": "calvin_klein", "shop": "clothes", "addr:full": "Calle de Fuencarral, 18", "addr:city": "Madrid", "addr:state": "Europe", "addr:postcode": "28004", "addr:country": "ES", "name": "Calvin Klein", "brand": "Calvin Klein", "brand:wikidata": "Q1068628", "nsi_id": "calvinklein-3937bd"}, "geometry": {"type": "Point", "coordinates": [-3.70094, 40.42167]}},
{"type": "Feature", "id": "n3SWATfLmKVsueYbLbryXJ8jl9U=", "properties": {"ref": "CKES0022", "@spider": "calvin_klein", "shop": "clothes", "addr:full": "C.C Mallorca Fashion Outlet, Autopista Palma-Inca, Km 7,1", "addr:city": "Palma de Mallorca", "addr:state": "Europe", "addr:postcode": "07141", "addr:country": "ES", "name": "Calvin Klein", "brand": "Calvin Klein", "brand:wikidata": "Q1068628", "nsi_id": "calvinklein-3937bd"}, "geometry": {"type": "Point", "coordinates": [2.73297, 39.63218]}},
{"type": "Feature", "id": "6IxaBjXMCy779DyI7K4Yeb4neCU=", "properties": {"ref": "CKES0031", "@spider": "calvin_klein", "shop": "clothes", "addr:full": "The Duke Shops Adeje, Avenida Bruselas 19", "addr:city": "Adeje", "addr:state": "Europe", "addr:postcode": "38660", "addr:country": "ES", "name": "Calvin Klein", "brand": "Calvin Klein", "brand:wikidata": "Q1068628", "nsi_id": "calvinklein-3937bd"}, "geometry": {"type": "Point", "coordinates": [-16.73636, 28.09354]}},
{"type": "Feature", "id": "Js6B8LA-kXqwmov1ZMcYe1qjuHk=", "properties": {"ref": "CKTR0001", "@spider": "calvin_klein", "shop": "clothes", "addr:full": "Forum Bornova Shopping Center, Kazim Dirik Mah. 372 Sok. No:10", "addr:city": "Izmir", "addr:state": "Europe", "addr:postcode": "35040", "addr:country": "TR", "name": "Calvin Klein", "brand": "Calvin Klein", "brand:wikidata": "Q1068628", "nsi_id": "calvinklein-3937bd"}, "geometry": {"type": "Point", "coordinates": [27.20944, 38.45032]}},
{"type": "Feature", "id": "wful1va7zUak5ZazG-r1_7o_Tu0=", "properties": {"ref": "CKTR0002", "@spider": "calvin_klein", "shop": "clothes", "addr:full": "Istinye Park Mall, Istinye Bayiri Caddesi 73, Sariyer", "addr:city": "Istanbul", "addr:state": "Europe", "addr:postcode": "34460", "addr:country": "TR", "name": "Calvin Klein", "brand": "Calvin Klein", "brand:wikidata": "Q1068628", "nsi_id": "calvinklein-3937bd"}, "geometry": {"type": "Point", "coordinates": [29.03243, 41.11004]}},
{"type": "Feature", "id": "gu5j0zrxQqd477aJ6_RgILbtW8E=", "properties": {"ref": "CKTR0003", "@spider": "calvin_klein", "shop": "clothes", "addr:full": "Cepa Shopping Mall, Eskisehir Yolu 7.Km , Mustafa Kemal Mah. 2123 Sokak", "addr:city": "Ankara", "addr:state": "Europe", "addr:postcode": "06520", "addr:country": "TR", "name": "Calvin Klein", "brand": "Calvin Klein", "brand:wikidata": "Q1068628", "nsi_id": "calvinklein-3937bd"}, "geometry": {"type": "Point", "coordinates": [32.77847, 39.91043]}},
{"type": "Feature", "id": "kWRCwUgQcG_zpRHKXe8XEKrEnN8=", "properties": {"ref": "CKTR0004", "@spider": "calvin_klein", "shop": "clothes", "addr:full": "City's Shopping Mall", "addr:city": "Istanbul", "addr:state": "Europe", "addr:postcode": "34365", "addr:country": "TR", "name": "Calvin Klein", "brand": "Calvin Klein", "brand:wikidata": "Q1068628", "nsi_id": "calvinklein-3937bd"}, "geometry": {"type": "Point", "coordinates": [28.99266, 41.05166]}},
{"type": "Feature", "id": "2FYu_Gd2nCYg1ndBV9KjjgbgIKU=", "properties": {"ref": "CKTR0007", "@spider": "calvin_klein", "shop": "clothes", "addr:full": "Zorlu Center,Levazim Mah. Koru Sok. No:2", "addr:city": "Istanbul", "addr:state": "Europe", "addr:postcode": "34340", "addr:country": "TR", "name": "Calvin Klein", "brand": "Calvin Klein", "brand:wikidata": "Q1068628", "nsi_id": "calvinklein-3937bd"}, "geometry": {"type": "Point", "coordinates": [29.01754, 41.06486]}},
{"type": "Feature", "id": "2a2b8pN2gdYBQIUGt1MKqV0tVm0=", "properties": {"ref": "CKTR0008", "@spider": "calvin_klein", "shop": "clothes", "addr:full": "Yeni\u015fehir Mah., Dedepa\u015fa Cad. No:19", "addr:city": "Istanbul", "addr:state": "Europe", "addr:postcode": "34912", "addr:country": "TR", "name": "Calvin Klein", "brand": "Calvin Klein", "brand:wikidata": "Q1068628", "nsi_id": "calvinklein-3937bd"}, "geometry": {"type": "Point", "coordinates": [29.32601, 40.9371]}},
{"type": "Feature", "id": "DcS9GC-dS0m1p0OWBS2WcKwF5Xs=", "properties": {"ref": "CKTR0009", "@spider": "calvin_klein", "shop": "clothes", "addr:full": "B\u00fcy\u00fckdere Caddesi 185", "addr:city": "Istanbul", "addr:state": "Europe", "addr:postcode": "34394", "addr:country": "TR", "name": "Calvin Klein", "brand": "Calvin Klein", "brand:wikidata": "Q1068628", "nsi_id": "calvinklein-3937bd"}, "geometry": {"type": "Point", "coordinates": [29.01164, 41.07826]}},
{"type": "Feature", "id": "19217mG2XDOi0YO1a0TvH3TRmPU=", "properties": {"ref": "CKTR0010", "@spider": "calvin_klein", "shop": "clothes", "addr:full": "Macun Mahallesi, Fatih Sultan Mehmet Sk. No:244", "addr:city": "Ankara", "addr:state": "Europe", "addr:postcode": "06374", "addr:country": "TR", "name": "Calvin Klein", "brand": "Calvin Klein", "brand:wikidata": "Q1068628", "nsi_id": "calvinklein-3937bd"}, "geometry": {"type": "Point", "coordinates": [32.76207, 39.94643]}},
{"type": "Feature", "id": "zQ1YTAoo9pXmno8KCIfOAKOcmxA=", "properties": {"ref": "CKTR0012", "@spider": "calvin_klein", "shop": "clothes", "addr:full": "SANAYI MAHALLESI 8, 41040, ISTANBUL, TR", "addr:city": "IZMIT", "addr:state": "Europe", "addr:postcode": "41040", "addr:country": "TR", "name": "Calvin Klein", "brand": "Calvin Klein", "brand:wikidata": "Q1068628", "nsi_id": "calvinklein-3937bd"}, "geometry": {"type": "Point", "coordinates": [29.94701, 40.75392]}},
{"type": "Feature", "id": "8npEQ2o3p4UgiTHmEG2TiqFF8MI=", "properties": {"ref": "CKTR0013", "@spider": "calvin_klein", "shop": "clothes", "addr:full": "Istiklal Caddesi Yenisahra Mahallesi Z27 & Z33,34335,  ISTANBUL, TR", "addr:city": "ISTANBUL", "addr:state": "Europe", "addr:postcode": "34335", "addr:country": "TR", "name": "Calvin Klein", "brand": "Calvin Klein", "brand:wikidata": "Q1068628", "nsi_id": "calvinklein-3937bd"}, "geometry": {"type": "Point", "coordinates": [29.08549, 40.98864]}},
{"type": "Feature", "id": "9kqjy1HjZNewsxT4z5YVx1hjQt4=", "properties": {"ref": "CKTR0014", "@spider": "calvin_klein", "shop": "clothes", "addr:full": "3 KUYULAR MEVKII, 14.SOKAK, 35140, BALCOVA / IZMIR, ISTANBUL", "addr:city": "IZMIR", "addr:state": "Europe", "addr:postcode": "35140", "addr:country": "TR", "name": "Calvin Klein", "brand": "Calvin Klein", "brand:wikidata": "Q1068628", "nsi_id": "calvinklein-3937bd"}, "geometry": {"type": "Point", "coordinates": [27.06676, 38.39835]}},
{"type": "Feature", "id": "UnXryjao1ydnToX7L_F7NNVwayg=", "properties": {"ref": "CKRS0001", "@spider": "calvin_klein", "shop": "clothes", "addr:full": "Boulevard Mihajla Pupina 4", "addr:city": "Belgrade", "addr:state": "Europe", "addr:postcode": "11070", "addr:country": "RS", "name": "Calvin Klein", "brand": "Calvin Klein", "brand:wikidata": "Q1068628", "nsi_id": "calvinklein-3937bd"}, "geometry": {"type": "Point", "coordinates": [20.43721, 44.81554]}},
{"type": "Feature", "id": "C9UAiQEAp-reYE226lHO5cd4CJA=", "properties": {"ref": "CKRS0002", "@spider": "calvin_klein", "shop": "clothes", "addr:full": "Rajiceva Shopping Center, Kneza Mihaila 54", "addr:city": "Belgrade", "addr:state": "Europe", "addr:postcode": "11000", "addr:country": "RS", "name": "Calvin Klein", "brand": "Calvin Klein", "brand:wikidata": "Q1068628", "nsi_id": "calvinklein-3937bd"}, "geometry": {"type": "Point", "coordinates": [20.45382, 44.81984]}},
{"type": "Feature", "id": "0PfpmDq2WLX6k3n2K_JQ5-sU8I8=", "properties": {"ref": "CKRS0003", "@spider": "calvin_klein", "shop": "clothes", "addr:full": "Bulevar Oslobodenja 119", "addr:city": "Novi Sad", "addr:state": "Europe", "addr:postcode": "21000", "addr:country": "RS", "name": "Calvin Klein", "brand": "Calvin Klein", "brand:wikidata": "Q1068628", "nsi_id": "calvinklein-3937bd"}, "geometry": {"type": "Point", "coordinates": [19.83984, 45.24696]}},
{"type": "Feature", "id": "RjnCjJrNaev_XqnS-h-Vbca1sdQ=", "properties": {"ref": "CKRS0004", "@spider": "calvin_klein", "shop": "clothes", "addr:full": "Jurija Gagarina 16, 11000, Beograd, RS", "addr:city": "Beograd", "addr:state": "Europe", "addr:postcode": "11000", "addr:country": "RS", "name": "Calvin Klein", "brand": "Calvin Klein", "brand:wikidata": "Q1068628", "nsi_id": "calvinklein-3937bd"}, "geometry": {"type": "Point", "coordinates": [20.40525, 44.80542]}},
{"type": "Feature", "id": "9m2nTuoxd-4CDIJB1MP6Oj0Eg0A=", "properties": {"ref": "CKXK0001", "@spider": "calvin_klein", "shop": "clothes", "addr:full": "Albi Mall, M2 Veternik", "addr:city": "Pristina", "addr:state": "Europe", "addr:postcode": "10000", "addr:country": "XK", "name": "Calvin Klein", "brand": "Calvin Klein", "brand:wikidata": "Q1068628", "nsi_id": "calvinklein-3937bd"}, "geometry": {"type": "Point", "coordinates": [21.15716, 42.63147]}},
{"type": "Feature", "id": "vkg8W0yqjyjSrA4Z31lVblPSSjQ=", "properties": {"ref": "CKAM0001", "@spider": "calvin_klein", "shop": "clothes", "addr:full": "10 North Avenue", "addr:city": "Yerevan", "addr:state": "Europe", "addr:postcode": "0010", "addr:country": "AM", "name": "Calvin Klein", "brand": "Calvin Klein", "brand:wikidata": "Q1068628", "nsi_id": "calvinklein-3937bd"}, "geometry": {"type": "Point", "coordinates": [44.51426, 40.1805]}},
{"type": "Feature", "id": "YakbeoJ-9DEYPHPnj4mvsR03M0Q=", "properties": {"ref": "CKBY0002", "@spider": "calvin_klein", "shop": "clothes", "addr:full": "Zamok Shopping Mal, Prospekt Pobediteley 65", "addr:city": "Minsk", "addr:state": "Europe", "addr:postcode": "220035", "addr:country": "BY", "name": "Calvin Klein", "brand": "Calvin Klein", "brand:wikidata": "Q1068628", "nsi_id": "calvinklein-3937bd"}, "geometry": {"type": "Point", "coordinates": [27.51783, 53.92652]}},
{"type": "Feature", "id": "rBl83RXOTOK3AX19_hqknbne7CY=", "properties": {"ref": "CKGE0001", "@spider": "calvin_klein", "shop": "clothes", "addr:full": "Galleria Tbilisi, 2/4 Shota Rustaveli Ave", "addr:city": "Tbilisi", "addr:state": "Europe", "addr:postcode": "0179", "addr:country": "GE", "name": "Calvin Klein", "brand": "Calvin Klein", "brand:wikidata": "Q1068628", "nsi_id": "calvinklein-3937bd"}, "geometry": {"type": "Point", "coordinates": [44.80009, 41.69447]}},
{"type": "Feature", "id": "ohGMLtPGGqhg_o5RQw0AcoVc-vY=", "properties": {"ref": "30", "@spider": "calvin_klein", "shop": "clothes", "addr:full": "Shop DG41, Canberra Centre 148 Bunda Street", "addr:city": "Canberra", "addr:state": "ACT", "addr:postcode": "2601", "addr:country": "AU", "name": "Calvin Klein", "phone": "(02) 8336 6301", "brand": "Calvin Klein", "brand:wikidata": "Q1068628", "nsi_id": "calvinklein-3937bd"}, "geometry": {"type": "Point", "coordinates": [149.1328984, -35.2773679]}},
{"type": "Feature", "id": "Oh1CEELVCXMsa0VFW_msFdVZ1hI=", "properties": {"ref": "31", "@spider": "calvin_klein", "shop": "clothes", "addr:full": "Shop B-016, DFO South Wharf, 20 Convention Centre Place", "addr:city": "South Wharf", "addr:state": "VIC", "addr:postcode": "3006", "addr:country": "AU", "name": "Calvin Klein", "phone": "(03) 9977 2203", "brand": "Calvin Klein", "brand:wikidata": "Q1068628", "nsi_id": "calvinklein-3937bd"}, "geometry": {"type": "Point", "coordinates": [144.9503296, -37.8250607]}},
{"type": "Feature", "id": "RX83qCDOe-f-dQzOiPRC6Rnhd68=", "properties": {"ref": "32", "@spider": "calvin_klein", "shop": "clothes", "addr:full": "Shop G85, Chadstone Shopping Centre, 1341 Dandenong Rd", "addr:city": "Chadstone", "addr:state": "VIC", "addr:postcode": "3148", "addr:country": "AU", "name": "Calvin Klein", "phone": "03 9977 2204", "brand": "Calvin Klein", "brand:wikidata": "Q1068628", "nsi_id": "calvinklein-3937bd"}, "geometry": {"type": "Point", "coordinates": [145.0834315, -37.8872948]}},
{"type": "Feature", "id": "Xq0hR92Kw7r6uKp0PfRELbkSVBo=", "properties": {"ref": "33", "@spider": "calvin_klein", "shop": "clothes", "addr:full": "Shop T82, 100 Bulla Rd", "addr:city": "Essendon Fields", "addr:state": "VIC", "addr:postcode": "3040", "addr:country": "AU", "name": "Calvin Klein", "phone": "03 9977 2201", "brand": "Calvin Klein", "brand:wikidata": "Q1068628", "nsi_id": "calvinklein-3937bd"}, "geometry": {"type": "Point", "coordinates": [144.9095574, -37.7325426]}},
{"type": "Feature", "id": "0PXamV6HoT_UzUyBmrRScpfZTNU=", "properties": {"ref": "34", "@spider": "calvin_klein", "shop": "clothes", "addr:full": "Shop 045, Level 1, Emporium Melbourne, 295 Lonsdale Street", "addr:city": "Melbourne", "addr:state": "VIC", "addr:postcode": "3000", "addr:country": "AU", "name": "Calvin Klein", "phone": "(03) 9977 2205", "brand": "Calvin Klein", "brand:wikidata": "Q1068628", "nsi_id": "calvinklein-3937bd"}, "geometry": {"type": "Point", "coordinates": [144.9637881, -37.8124377]}},
{"type": "Feature", "id": "9UxUHQirUgewJ-8KxQPSCKD2YmE=", "properties": {"ref": "35", "@spider": "calvin_klein", "shop": "clothes", "addr:full": "Shop 04A, Melbourne Central, Floor G 211 Latrobe St", "addr:city": "Melbourne", "addr:state": "VIC", "addr:postcode": "3000", "addr:country": "AU", "name": "Calvin Klein", "phone": "(03) 9977 2206", "brand": "Calvin Klein", "brand:wikidata": "Q1068628", "nsi_id": "calvinklein-3937bd"}, "geometry": {"type": "Point", "coordinates": [144.963235, -37.8103595]}},
{"type": "Feature", "id": "u48sU2DFdGo9_iRUE-c6cIB2A5Y=", "properties": {"ref": "36", "@spider": "calvin_klein", "shop": "clothes", "addr:full": "Shop G124, DFO Moorabbin, 250 Centre Dandenong Road Moorabbin Airport", "addr:city": "Moorabbin", "addr:state": "VIC", "addr:postcode": "3194", "addr:country": "AU", "name": "Calvin Klein", "phone": "(03) 9977 2202", "brand": "Calvin Klein", "brand:wikidata": "Q1068628", "nsi_id": "calvinklein-3937bd"}, "geometry": {"type": "Point", "coordinates": [145.0883952, -37.9709556]}},
{"type": "Feature", "id": "9Pqm-UFgUcYiU71BrUhtQkfx59o=", "properties": {"ref": "37", "@spider": "calvin_klein", "shop": "clothes", "addr:full": "Shop 211, Level 2, 322 Moggill Road", "addr:city": "Indooroopilly", "addr:state": "QLD", "addr:postcode": "4068", "addr:country": "AU", "name": "Calvin Klein", "phone": "07 3532 5003", "brand": "Calvin Klein", "brand:wikidata": "Q1068628", "nsi_id": "calvinklein-3937bd"}, "geometry": {"type": "Point", "coordinates": [152.9726438, -27.4996106]}},
{"type": "Feature", "id": "uKr_4UlFcKs9vFw6lvSWboAARhY=", "properties": {"ref": "38", "@spider": "calvin_klein", "shop": "clothes", "addr:full": "Shop C17, Harbourtown Shopping Centre, 147-189 Brisbane Rd", "addr:city": "Biggera Waters", "addr:state": "QLD", "addr:postcode": "4216", "addr:country": "AU", "name": "Calvin Klein", "phone": "(07) 3532 5001", "brand": "Calvin Klein", "brand:wikidata": "Q1068628", "nsi_id": "calvinklein-3937bd"}, "geometry": {"type": "Point", "coordinates": [153.3877877, -27.9314311]}},
{"type": "Feature", "id": "CRLQ5ubaq0Sb3vuop2qsJtQa8SU=", "properties": {"ref": "41", "@spider": "calvin_klein", "shop": "clothes", "addr:full": "Shop T137, DFO Centre Ninth Avenue Skygate", "addr:city": "Brisbane Airport", "addr:state": "QLD", "addr:postcode": "4007", "addr:country": "AU", "name": "Calvin Klein", "phone": "(07) 3115 2676", "brand": "Calvin Klein", "brand:wikidata": "Q1068628", "nsi_id": "calvinklein-3937bd"}, "geometry": {"type": "Point", "coordinates": [153.0784898, -27.4139802]}},
{"type": "Feature", "id": "9c7oXuXHYYosXafnwnx7K0FdJnM=", "properties": {"ref": "42", "@spider": "calvin_klein", "shop": "clothes", "addr:full": "Shop 1560, 1561 Hooker Blvd, Floor G, Pacific Fair Shopping Centre", "addr:city": "Broadbeach", "addr:state": "QLD", "addr:postcode": "4218", "addr:country": "AU", "name": "Calvin Klein", "phone": "(07) 3532 5005", "brand": "Calvin Klein", "brand:wikidata": "Q1068628", "nsi_id": "calvinklein-3937bd"}, "geometry": {"type": "Point", "coordinates": [153.4276477, -28.0348224]}},
{"type": "Feature", "id": "qNh2v-C782tduV_i-uCanZ1e8wo=", "properties": {"ref": "43", "@spider": "calvin_klein", "shop": "clothes", "addr:full": "Shop A50, Watertown Brand Outlet, 840 Wellington St", "addr:city": "West Perth", "addr:state": "WA", "addr:postcode": "6005", "addr:country": "AU", "name": "Calvin Klein", "phone": "(08) 6350 7906", "brand": "Calvin Klein", "brand:wikidata": "Q1068628", "nsi_id": "calvinklein-3937bd"}, "geometry": {"type": "Point", "coordinates": [115.8474036, -31.9468414]}},
{"type": "Feature", "id": "Z5_9OHVFDmTjDLLK6YiE1TppKjU=", "properties": {"ref": "46", "@spider": "calvin_klein", "shop": "clothes", "addr:full": "Broadway Shopping Centre, Shop 234, 1 Bay Street", "addr:city": "Ultimo", "addr:state": "NSW", "addr:postcode": "2007", "addr:country": "AU", "name": "Calvin Klein", "phone": "(02) 8336 6307", "brand": "Calvin Klein", "brand:wikidata": "Q1068628", "nsi_id": "calvinklein-3937bd"}, "geometry": {"type": "Point", "coordinates": [151.1943272, -33.883534]}},
{"type": "Feature", "id": "ftbxoEr8BjdFQaTBSt6_kgd8dlY=", "properties": {"ref": "47", "@spider": "calvin_klein", "shop": "clothes", "addr:full": "Shop 1545, Westfield Warringah Mall, Condamine St & Old Pittwater Road", "addr:city": "Brookvale", "addr:state": "NSW", "addr:postcode": "2100", "addr:country": "AU", "name": "Calvin Klein", "phone": "(02) 8336 6315", "brand": "Calvin Klein", "brand:wikidata": "Q1068628", "nsi_id": "calvinklein-3937bd"}, "geometry": {"type": "Point", "coordinates": [151.2660306, -33.7675875]}},
{"type": "Feature", "id": "JtBN8mgW0SyC-lyQwOcmPYPR2HA=", "properties": {"ref": "48", "@spider": "calvin_klein", "shop": "clothes", "addr:full": "Shop 1-4059, Westfield Bondi Junction, 500 Oxford St", "addr:city": "Bondi Junction", "addr:state": "NSW", "addr:postcode": "2022", "addr:country": "AU", "name": "Calvin Klein", "phone": "(02) 8336 6306", "brand": "Calvin Klein", "brand:wikidata": "Q1068628", "nsi_id": "calvinklein-3937bd"}, "geometry": {"type": "Point", "coordinates": [151.2507563, -33.8914158]}},
{"type": "Feature", "id": "Znsg1z1cFMLuBo03ICK3_43ZsGE=", "properties": {"ref": "50", "@spider": "calvin_klein", "shop": "clothes", "addr:full": "Shop 421, Level 4, Westfield Chatswood, 1 Anderson St", "addr:city": "Chatswood", "addr:state": "NSW", "addr:postcode": "2067", "addr:country": "AU", "name": "Calvin Klein", "phone": "(02) 8336 6308", "brand": "Calvin Klein", "brand:wikidata": "Q1068628", "nsi_id": "calvinklein-3937bd"}, "geometry": {"type": "Point", "coordinates": [151.1834953, -33.7968014]}},
{"type": "Feature", "id": "gdD2i5ZzhmEK5uLwHLZa-H1iA3o=", "properties": {"ref": "51", "@spider": "calvin_klein", "shop": "clothes", "addr:full": "DFO Homebush, Shop 3-015, 3-5 Underwood Rd", "addr:city": "Homebush", "addr:state": "NSW", "addr:postcode": "2140", "addr:country": "AU", "name": "Calvin Klein", "phone": "(02) 8336 6304", "brand": "Calvin Klein", "brand:wikidata": "Q1068628", "nsi_id": "calvinklein-3937bd"}, "geometry": {"type": "Point", "coordinates": [151.0768819, -33.8554529]}},
{"type": "Feature", "id": "fhGfRu34DisOhlEGznN46PVXV3c=", "properties": {"ref": "53", "@spider": "calvin_klein", "shop": "clothes", "addr:full": "Shop 2178, Level 2, Miranda Westfield, 600 Kingsway", "addr:city": "Miranda", "addr:state": "NSW", "addr:postcode": "2228", "addr:country": "AU", "name": "Calvin Klein", "phone": "(02) 8336 6311", "brand": "Calvin Klein", "brand:wikidata": "Q1068628", "nsi_id": "calvinklein-3937bd"}, "geometry": {"type": "Point", "coordinates": [151.099886, -34.0347011]}},
{"type": "Feature", "id": "-JLohoZ7RVf_13lF1i2gP9iu_ic=", "properties": {"ref": "54", "@spider": "calvin_klein", "shop": "clothes", "addr:full": "Shop LG2, Shop 27 455 George Street", "addr:city": "Sydney", "addr:state": "NSW", "addr:postcode": "2000", "addr:country": "AU", "name": "Calvin Klein", "phone": "(02) 8336 6312", "brand": "Calvin Klein", "brand:wikidata": "Q1068628", "nsi_id": "calvinklein-3937bd"}, "geometry": {"type": "Point", "coordinates": [151.2070281, -33.8745191]}},
{"type": "Feature", "id": "PJROjog7bQOuAicLtrjfMOTmptM=", "properties": {"ref": "55", "@spider": "calvin_klein", "shop": "clothes", "addr:full": "Shop 16, Level 1, 19 Roseby St", "addr:city": "Drummoyne", "addr:state": "NSW", "addr:postcode": "2047", "addr:country": "AU", "name": "Calvin Klein", "phone": "(02) 8336 6303", "brand": "Calvin Klein", "brand:wikidata": "Q1068628", "nsi_id": "calvinklein-3937bd"}, "geometry": {"type": "Point", "coordinates": [151.1618537, -33.8555226]}},
{"type": "Feature", "id": "Qj6JfFWC3q9O9koBPg3r2kLFVIM=", "properties": {"ref": "57", "@spider": "calvin_klein", "shop": "clothes", "addr:full": "204/188 Pitt St", "addr:city": "Sydney", "addr:state": "NSW", "addr:postcode": "2000", "addr:country": "AU", "name": "Calvin Klein", "phone": "(02) 8336 6314", "brand": "Calvin Klein", "brand:wikidata": "Q1068628", "nsi_id": "calvinklein-3937bd"}, "geometry": {"type": "Point", "coordinates": [151.207955, -33.870294]}},
{"type": "Feature", "id": "TomiSf9NwJRdyfAZ1jUeZf1rCCc=", "properties": {"ref": "58", "@spider": "calvin_klein", "shop": "clothes", "addr:full": "Harbourtown Outlet Cente, Shop T121, Harbourtown Outlet, Tapleys Hill Road", "addr:city": "West Beach", "addr:state": "SA", "addr:postcode": "5024", "addr:country": "AU", "name": "Calvin Klein", "phone": "(08) 6350 7904", "brand": "Calvin Klein", "brand:wikidata": "Q1068628", "nsi_id": "calvinklein-3937bd"}, "geometry": {"type": "Point", "coordinates": [138.5201296, -34.9460563]}},
{"type": "Feature", "id": "AcnQhjV7WeZvVlUBUy1HD_9mflo=", "properties": {"ref": "59", "@spider": "calvin_klein", "shop": "clothes", "addr:full": "Shop 116, Burnside Villiage, 447 Portrush Rd", "addr:city": "Glenside", "addr:state": "SA", "addr:postcode": "5065", "addr:country": "AU", "name": "Calvin Klein", "phone": "(08) 6350 7901", "brand": "Calvin Klein", "brand:wikidata": "Q1068628", "nsi_id": "calvinklein-3937bd"}, "geometry": {"type": "Point", "coordinates": [138.6430059, -34.9492916]}},
{"type": "Feature", "id": "Y_JX4o-183j_agQoYap09AFf_X8=", "properties": {"ref": "61", "@spider": "calvin_klein", "shop": "clothes", "addr:full": "Shop G005, Perth DFO, Dunreath Drive", "addr:city": "Perth Airport", "addr:state": "WA", "addr:postcode": "6105", "addr:country": "AU", "name": "Calvin Klein", "phone": "(08) 6155 9205", "brand": "Calvin Klein", "brand:wikidata": "Q1068628", "nsi_id": "calvinklein-3937bd"}, "geometry": {"type": "Point", "coordinates": [115.950378, -31.936168]}},
{"type": "Feature", "id": "U9Hfgzh2c_Zrkj1x8lKKugp5r-Q=", "properties": {"ref": "64", "@spider": "calvin_klein", "shop": "clothes", "addr:full": "Shop 64, 3-5 Underwood Road", "addr:city": "Homebush", "addr:state": "NSW", "addr:postcode": "2140", "addr:country": "AU", "name": "Calvin Klein", "phone": "(02) 8336 6328", "brand": "Calvin Klein", "brand:wikidata": "Q1068628", "nsi_id": "calvinklein-3937bd"}, "geometry": {"type": "Point", "coordinates": [151.076633, -33.855473]}},
{"type": "Feature", "id": "UVNjgGNu0DJIZJ_uSQryPwOItyc=", "properties": {"ref": "65", "@spider": "calvin_klein", "shop": "clothes", "addr:full": "Shop 653/652, 154-164 Horton Parade", "addr:city": "Maroochydore", "addr:state": "QLD", "addr:postcode": "4558", "addr:country": "AU", "name": "Calvin Klein", "phone": "07 3532 5013", "brand": "Calvin Klein", "brand:wikidata": "Q1068628", "nsi_id": "calvinklein-3937bd"}, "geometry": {"type": "Point", "coordinates": [153.089228, -26.653609]}},
{"type": "Feature", "id": "DWvrSW9Nl2WxmLtBd01g-WLQRhw=", "properties": {"ref": "71", "@spider": "calvin_klein", "shop": "clothes", "addr:full": "Shop 3A, Liverpool Fashion Spree, 5 Viscount Place", "addr:city": "Liverpool", "addr:state": "NSW", "addr:postcode": "2170", "addr:country": "AU", "name": "Calvin Klein", "phone": "(02) 8336 6331", "brand": "Calvin Klein", "brand:wikidata": "Q1068628", "nsi_id": "calvinklein-3937bd"}, "geometry": {"type": "Point", "coordinates": [150.921815, -33.90794]}},
{"type": "Feature", "id": "5uGIXBcRmq8de-jjlsw00Egk8Tc=", "properties": {"ref": "72", "@spider": "calvin_klein", "shop": "clothes", "addr:full": "Shop 198, 337 Canberra Ave", "addr:city": "Fyshwick", "addr:state": "ACT", "addr:postcode": "2609", "addr:country": "AU", "name": "Calvin Klein", "phone": "283366333", "brand": "Calvin Klein", "brand:wikidata": "Q1068628", "nsi_id": "calvinklein-3937bd"}, "geometry": {"type": "Point", "coordinates": [149.178704, -35.336497]}},
{"type": "Feature", "id": "fyWOGAqbm0_jcF0XfUdGGCkTdZo=", "properties": {"ref": "78", "@spider": "calvin_klein", "shop": "clothes", "addr:full": "Shop 202, Canberra Outlet Centre, Canberra Avenue", "addr:city": "Fyshwick", "addr:state": "ACT", "addr:postcode": "2609", "addr:country": "AU", "name": "Calvin Klein", "phone": "283366334", "brand": "Calvin Klein", "brand:wikidata": "Q1068628", "nsi_id": "calvinklein-3937bd"}, "geometry": {"type": "Point", "coordinates": [149.178704, -35.336497]}},
{"type": "Feature", "id": "SXnOAetKR31ouAvGWyqCfy9DcTc=", "properties": {"ref": "112", "@spider": "calvin_klein", "shop": "clothes", "addr:full": "Shop G082, Westfield Doncaster, 619 Doncaster Road", "addr:city": "Doncaster", "addr:state": "VIC", "addr:postcode": "3108", "addr:country": "AU", "name": "Calvin Klein", "phone": "(03) 9977 2221", "brand": "Calvin Klein", "brand:wikidata": "Q1068628", "nsi_id": "calvinklein-3937bd"}, "geometry": {"type": "Point", "coordinates": [145.1261993, -37.7851124]}},
{"type": "Feature", "id": "-FcN477leviw3CTeCGC8s-im_Aw=", "properties": {"ref": "116", "@spider": "calvin_klein", "shop": "clothes", "addr:full": "Level 3, Shop 3038, Highpoint Shopping Centre, 120-200 Rosamond Road", "addr:city": "Maribyrnong", "addr:state": "VIC", "addr:postcode": "3032", "addr:country": "AU", "name": "Calvin Klein", "phone": "(03) 9977 2222", "brand": "Calvin Klein", "brand:wikidata": "Q1068628", "nsi_id": "calvinklein-3937bd"}, "geometry": {"type": "Point", "coordinates": [144.8893046, -37.7732279]}},
{"type": "Feature", "id": "DWTsT1uEc5fcLqpxSjJAtY5E6C8=", "properties": {"ref": "117", "@spider": "calvin_klein", "shop": "clothes", "addr:full": "Shop SP1203A, Karrinyup Shopping Centre, 200 Karrinyup Road", "addr:city": "Karrinyup", "addr:state": "WA", "addr:postcode": "6018", "addr:country": "AU", "name": "Calvin Klein", "phone": "(08) 6350 7910", "brand": "Calvin Klein", "brand:wikidata": "Q1068628", "nsi_id": "calvinklein-3937bd"}, "geometry": {"type": "Point", "coordinates": [115.7781686, -31.8773477]}},
{"type": "Feature", "id": "Hn7sFs1JC8QYPWL74VFXvocDIRg=", "properties": {"ref": "120", "@spider": "calvin_klein", "shop": "clothes", "addr:full": "Shop T-014, DFO Uni Hill Outlet Centre, 2 Janefield Drive", "addr:city": "BUNDOORA,", "addr:state": "VIC", "addr:postcode": "3083", "addr:country": "AU", "name": "Calvin Klein", "phone": "03 9977 2223", "brand": "Calvin Klein", "brand:wikidata": "Q1068628", "nsi_id": "calvinklein-3937bd"}, "geometry": {"type": "Point", "coordinates": [145.071292, -37.6818842]}},
{"type": "Feature", "id": "J8TNmT6M7Zcta4aLzymcLTbwSkI=", "properties": {"ref": "125", "@spider": "calvin_klein", "shop": "clothes", "addr:full": "Shop 2609C, Westfield Chermside, Gympie Road", "addr:city": "Chermside", "addr:state": "QLD", "addr:postcode": "4032", "addr:country": "AU", "name": "Calvin Klein", "phone": "(07) 3532 5016", "brand": "Calvin Klein", "brand:wikidata": "Q1068628", "nsi_id": "calvinklein-3937bd"}, "geometry": {"type": "Point", "coordinates": [153.03438675, -27.38183124]}},
{"type": "Feature", "id": "fMiF2xYyvsVvTXqTKt2fPM2re-w=", "properties": {"ref": "CKUA0001", "@spider": "calvin_klein", "shop": "clothes", "addr:full": "Most Citi Mall, Hlinky St, 2", "addr:city": "Dnepropetrovsk", "addr:state": "Europe", "addr:postcode": "49000", "addr:country": "UA", "name": "Calvin Klein", "brand": "Calvin Klein", "brand:wikidata": "Q1068628", "nsi_id": "calvinklein-3937bd"}, "geometry": {"type": "Point", "coordinates": [35.05081, 48.46681]}},
{"type": "Feature", "id": "9z-JzZUOlfpBqyYSkfpnyOq6FKQ=", "properties": {"ref": "CKUA0004", "@spider": "calvin_klein", "shop": "clothes", "addr:full": "Karavan Mall, Heroiv Pratsi Street 7", "addr:city": "Kharkov", "addr:state": "Europe", "addr:postcode": "61000", "addr:country": "UA", "name": "Calvin Klein", "brand": "Calvin Klein", "brand:wikidata": "Q1068628", "nsi_id": "calvinklein-3937bd"}, "geometry": {"type": "Point", "coordinates": [36.32835, 50.029]}},
{"type": "Feature", "id": "3Sq4mFC2KY8yD7jrO58EJ-zoOfI=", "properties": {"ref": "CKUA0005", "@spider": "calvin_klein", "shop": "clothes", "addr:full": "Sky Mall, General Vatutin Avenue 2T", "addr:city": "Kiev", "addr:state": "Europe", "addr:postcode": "02218", "addr:country": "UA", "name": "Calvin Klein", "brand": "Calvin Klein", "brand:wikidata": "Q1068628", "nsi_id": "calvinklein-3937bd"}, "geometry": {"type": "Point", "coordinates": [30.56128, 50.49374]}},
{"type": "Feature", "id": "wGTofMZ4ViICp7U7Ey-ONVaC9wU=", "properties": {"ref": "CKUA0007", "@spider": "calvin_klein", "shop": "clothes", "addr:full": "Ocean Plaza Mall, Horkiy Street 176", "addr:city": "Kiev", "addr:state": "Europe", "addr:postcode": "84529", "addr:country": "UA", "name": "Calvin Klein", "brand": "Calvin Klein", "brand:wikidata": "Q1068628", "nsi_id": "calvinklein-3937bd"}, "geometry": {"type": "Point", "coordinates": [30.52263, 50.41179]}},
{"type": "Feature", "id": "lGw2mVz6iIajeoih9XMDaI7laYw=", "properties": {"ref": "CKUA0008", "@spider": "calvin_klein", "shop": "clothes", "addr:full": "SEC Lavina Mall, Vulytsya Berkovets'ka 6D", "addr:city": "Kiev", "addr:state": "Europe", "addr:postcode": "04128", "addr:country": "UA", "name": "Calvin Klein", "brand": "Calvin Klein", "brand:wikidata": "Q1068628", "nsi_id": "calvinklein-3937bd"}, "geometry": {"type": "Point", "coordinates": [30.35932, 50.49543]}},
{"type": "Feature", "id": "7SdrmIwNLdBnK-dhuTtrQyoYF1k=", "properties": {"ref": "CKUA0009", "@spider": "calvin_klein", "shop": "clothes", "addr:full": "Lavina Mall, Vulytsya Berkovets'ka 6D", "addr:city": "Kiev", "addr:state": "Europe", "addr:postcode": "04128", "addr:country": "UA", "name": "Calvin Klein", "brand": "Calvin Klein", "brand:wikidata": "Q1068628", "nsi_id": "calvinklein-3937bd"}, "geometry": {"type": "Point", "coordinates": [30.35932, 50.49543]}},
{"type": "Feature", "id": "PKKi5Nxm1nIL035ZNhoVI0Bmy0U=", "properties": {"ref": "CKUA0010", "@spider": "calvin_klein", "shop": "clothes", "addr:full": "Ocean Plaza Mall, Antonovycha St, 176", "addr:city": "Kiev", "addr:state": "Europe", "addr:postcode": "03150", "addr:country": "UA", "name": "Calvin Klein", "brand": "Calvin Klein", "brand:wikidata": "Q1068628", "nsi_id": "calvinklein-3937bd"}, "geometry": {"type": "Point", "coordinates": [30.52259, 50.41202]}},
{"type": "Feature", "id": "Cxnhvp51Da0AaSFtweR2dOucrvU=", "properties": {"ref": "CKLB0001", "@spider": "calvin_klein", "shop": "clothes", "addr:full": "ABC Mall Achrafieh, Sassin Square", "addr:city": "Beirut", "addr:state": "MEA+", "addr:postcode": "tbc", "addr:country": "LB", "name": "Calvin Klein", "brand": "Calvin Klein", "brand:wikidata": "Q1068628", "nsi_id": "calvinklein-3937bd"}, "geometry": {"type": "Point", "coordinates": [35.52012, 33.88862]}},
{"type": "Feature", "id": "ABX-gvFw6NweiyCzSKVNgUXHCgg=", "properties": {"ref": "CKLB0002", "@spider": "calvin_klein", "shop": "clothes", "addr:full": "Souks Mall,", "addr:city": "Beirut", "addr:state": "MEA+", "addr:country": "LB", "name": "Calvin Klein", "brand": "Calvin Klein", "brand:wikidata": "Q1068628", "nsi_id": "calvinklein-3937bd"}, "geometry": {"type": "Point", "coordinates": [35.50392, 33.89871]}},
{"type": "Feature", "id": "OuNazSEnVz6-RzuxKDXGfLWbmMI=", "properties": {"ref": "CKLB0004", "@spider": "calvin_klein", "shop": "clothes", "addr:full": "ABC Verdun Mall", "addr:city": "Beirut", "addr:state": "MEA+", "addr:postcode": "590", "addr:country": "LB", "name": "Calvin Klein", "brand": "Calvin Klein", "brand:wikidata": "Q1068628", "nsi_id": "calvinklein-3937bd"}, "geometry": {"type": "Point", "coordinates": [35.48455, 33.88427]}},
{"type": "Feature", "id": "ikbteBOz2MVShyGvB1jw5JyQpUU=", "properties": {"ref": "CKEG0001", "@spider": "calvin_klein", "shop": "clothes", "addr:full": "CityStars, Phase 2, Nasr City", "addr:city": "Cairo", "addr:state": "MEA+", "addr:postcode": "11771", "addr:country": "EG", "name": "Calvin Klein", "brand": "Calvin Klein", "brand:wikidata": "Q1068628", "nsi_id": "calvinklein-3937bd"}, "geometry": {"type": "Point", "coordinates": [31.34602, 30.07307]}},
{"type": "Feature", "id": "QI9S5fSSR56B2lTUxWVGeDjAQQM=", "properties": {"ref": "CKEG0002", "@spider": "calvin_klein", "shop": "clothes", "addr:full": "90 Fifth Settlement Road, New Cairo", "addr:city": "Cairo", "addr:state": "MEA+", "addr:postcode": "11835", "addr:country": "EG", "name": "Calvin Klein", "brand": "Calvin Klein", "brand:wikidata": "Q1068628", "nsi_id": "calvinklein-3937bd"}, "geometry": {"type": "Point", "coordinates": [31.40863, 30.02949]}},
{"type": "Feature", "id": "knDuPVFhGW1pFA8zpHTqzSclyFE=", "properties": {"ref": "CKEG0003", "@spider": "calvin_klein", "shop": "clothes", "addr:full": "Muharran Bek, Suez Canal Street, Next to Police Hospital", "addr:city": "Alexandria", "addr:state": "MEA+", "addr:country": "EG", "name": "Calvin Klein", "brand": "Calvin Klein", "brand:wikidata": "Q1068628", "nsi_id": "calvinklein-3937bd"}, "geometry": {"type": "Point", "coordinates": [29.93049, 31.17315]}},
{"type": "Feature", "id": "-UuOqN17XnCpcmLkUeko36MPNCk=", "properties": {"ref": "CKIL0001", "@spider": "calvin_klein", "shop": "clothes", "addr:full": "Hahashmonaim st. 96, Tel Aviv", "addr:city": "Tel Aviv", "addr:state": "MEA+", "addr:country": "IL", "name": "Calvin Klein", "brand": "Calvin Klein", "brand:wikidata": "Q1068628", "nsi_id": "calvinklein-3937bd"}, "geometry": {"type": "Point", "coordinates": [34.78594, 32.06934]}},
{"type": "Feature", "id": "NyxJ7-kbjlcA9cSkjtfsQPSsQeQ=", "properties": {"ref": "CKIL0002", "@spider": "calvin_klein", "shop": "clothes", "addr:full": "Einshtein st. 40, Tel Aviv", "addr:city": "Tel Aviv", "addr:state": "MEA+", "addr:postcode": "69101", "addr:country": "IL", "name": "Calvin Klein", "brand": "Calvin Klein", "brand:wikidata": "Q1068628", "nsi_id": "calvinklein-3937bd"}, "geometry": {"type": "Point", "coordinates": [34.79591, 32.11225]}},
{"type": "Feature", "id": "45QQbnp8O3qEW3-czrWT4jrOFag=", "properties": {"ref": "CKJO0001", "@spider": "calvin_klein", "shop": "clothes", "addr:full": "Taj Mall, Prince Hashim Bin Al Hussein 693", "addr:city": "Amman", "addr:state": "MEA+", "addr:postcode": "11183", "addr:country": "JO", "name": "Calvin Klein", "brand": "Calvin Klein", "brand:wikidata": "Q1068628", "nsi_id": "calvinklein-3937bd"}, "geometry": {"type": "Point", "coordinates": [35.88823, 31.94182]}},
{"type": "Feature", "id": "Y9EpIK7g94y5dA46FnIRXcZPDOo=", "properties": {"ref": "CKJO0002", "@spider": "calvin_klein", "shop": "clothes", "addr:full": "Nile Projects & Commercial Centers, Amman City Mall Shopping Center, Kind Abdulla II Street", "addr:city": "Amman", "addr:state": "MEA+", "addr:country": "JO", "name": "Calvin Klein", "brand": "Calvin Klein", "brand:wikidata": "Q1068628", "nsi_id": "calvinklein-3937bd"}, "geometry": {"type": "Point", "coordinates": [35.83675, 31.98001]}},
{"type": "Feature", "id": "h85-nj-F15CFvt6-g2dTOJvkfpY=", "properties": {"ref": "CKRU0001", "@spider": "calvin_klein", "shop": "clothes", "addr:full": "Okhotny Ryad Shopping Mall, Manezhnaya square 1-2", "addr:city": "Moscow", "addr:state": "Europe", "addr:postcode": "109012", "addr:country": "RU", "name": "Calvin Klein", "brand": "Calvin Klein", "brand:wikidata": "Q1068628", "nsi_id": "calvinklein-3937bd"}, "geometry": {"type": "Point", "coordinates": [37.61493, 55.75591]}},
{"type": "Feature", "id": "SM2X4rCxpli3kl57jyvzyM3Idbo=", "properties": {"ref": "CKRU0003", "@spider": "calvin_klein", "shop": "clothes", "addr:full": "Gum Shopping Mall, Red Square 3", "addr:city": "Moscow", "addr:state": "Europe", "addr:postcode": "101000", "addr:country": "RU", "name": "Calvin Klein", "brand": "Calvin Klein", "brand:wikidata": "Q1068628", "nsi_id": "calvinklein-3937bd"}, "geometry": {"type": "Point", "coordinates": [37.62152, 55.75469]}},
{"type": "Feature", "id": "yzinAuC2jjuipCarMKREUAMZXNA=", "properties": {"ref": "CKRU0005", "@spider": "calvin_klein", "shop": "clothes", "addr:full": "Mega Khimki Mall, 8th Mikrorayon, 1", "addr:city": "Khimki", "addr:state": "Europe", "addr:postcode": "125080", "addr:country": "RU", "name": "Calvin Klein", "brand": "Calvin Klein", "brand:wikidata": "Q1068628", "nsi_id": "calvinklein-3937bd"}, "geometry": {"type": "Point", "coordinates": [37.39881, 55.91038]}},
{"type": "Feature", "id": "Bs1WINy1BZ_e2wWxqWXlwEgAtzE=", "properties": {"ref": "CKRU0008", "@spider": "calvin_klein", "shop": "clothes", "addr:full": "IKEA Mikrorayon, 2, Khimki", "addr:city": "Moscow", "addr:state": "Europe", "addr:postcode": "141407", "addr:country": "RU", "name": "Calvin Klein", "brand": "Calvin Klein", "brand:wikidata": "Q1068628", "nsi_id": "calvinklein-3937bd"}, "geometry": {"type": "Point", "coordinates": [37.39881, 55.91038]}},
{"type": "Feature", "id": "SATHdhB_DLGZUGISVBTM2whfQiI=", "properties": {"ref": "CKRU0011", "@spider": "calvin_klein", "shop": "clothes", "addr:full": "Mega Kalningrad Shopping Centre, Uralskaya street 18", "addr:city": "Kaliningrad", "addr:state": "Europe", "addr:postcode": "236022", "addr:country": "RU", "name": "Calvin Klein", "brand": "Calvin Klein", "brand:wikidata": "Q1068628", "nsi_id": "calvinklein-3937bd"}, "geometry": {"type": "Point", "coordinates": [20.5014, 54.7259]}},
{"type": "Feature", "id": "0nywSlRFQ4-bF3AnaopjJKdiyso=", "properties": {"ref": "CKRU0015", "@spider": "calvin_klein", "shop": "clothes", "addr:full": "Horizont Mall, Mikhaila Nagibina street 32-2", "addr:city": "Rostov-on-Don", "addr:state": "Europe", "addr:postcode": "344068", "addr:country": "RU", "name": "Calvin Klein", "brand": "Calvin Klein", "brand:wikidata": "Q1068628", "nsi_id": "calvinklein-3937bd"}, "geometry": {"type": "Point", "coordinates": [39.71997, 47.25983]}},
{"type": "Feature", "id": "2ZOv2QTjmkvKgBlIcIMECXrt8yA=", "properties": {"ref": "CKRU0016", "@spider": "calvin_klein", "shop": "clothes", "addr:full": "Evropeisky Mall", "addr:city": "Moscow", "addr:state": "Europe", "addr:postcode": "121059", "addr:country": "RU", "name": "Calvin Klein", "brand": "Calvin Klein", "brand:wikidata": "Q1068628", "nsi_id": "calvinklein-3937bd"}, "geometry": {"type": "Point", "coordinates": [37.56579, 55.74433]}},
{"type": "Feature", "id": "1whp5cClb-Lxek6yTT_D3nIMeuQ=", "properties": {"ref": "CKRU0017", "@spider": "calvin_klein", "shop": "clothes", "addr:full": "Mega Dybenko Mall, Murmanskoye Shosse, 12 km", "addr:city": "Saint Petersburg", "addr:state": "Europe", "addr:postcode": "193315", "addr:country": "RU", "name": "Calvin Klein", "brand": "Calvin Klein", "brand:wikidata": "Q1068628", "nsi_id": "calvinklein-3937bd"}, "geometry": {"type": "Point", "coordinates": [30.51464, 59.89377]}},
{"type": "Feature", "id": "lXi2e-bhqSLTsEttXNCN6Ri04cY=", "properties": {"ref": "CKRU0021", "@spider": "calvin_klein", "shop": "clothes", "addr:full": "Mega Parnas Mall, Kad 117 Kilometr Vneshn", "addr:city": "Saint Petersburg", "addr:state": "Europe", "addr:postcode": "188660", "addr:country": "RU", "name": "Calvin Klein", "brand": "Calvin Klein", "brand:wikidata": "Q1068628", "nsi_id": "calvinklein-3937bd"}, "geometry": {"type": "Point", "coordinates": [30.3806, 60.0915]}},
{"type": "Feature", "id": "x3sbQswjQeyfrvJkmvnJZxFg-AY=", "properties": {"ref": "CKRU0022", "@spider": "calvin_klein", "shop": "clothes", "addr:full": "Mega Belaya Dacha Mall, Kotelniki (City) 1. Pokrovsky proezd 5", "addr:city": "Moscow", "addr:state": "Europe", "addr:postcode": "140055", "addr:country": "RU", "name": "Calvin Klein", "brand": "Calvin Klein", "brand:wikidata": "Q1068628", "nsi_id": "calvinklein-3937bd"}, "geometry": {"type": "Point", "coordinates": [37.84509, 55.65844]}},
{"type": "Feature", "id": "TyKeeI-rrOMEwo0HDpNeOTof2is=", "properties": {"ref": "CKRU0023", "@spider": "calvin_klein", "shop": "clothes", "addr:full": "Krasnoarmeyskiy prospekt 47a", "addr:city": "Barnaul", "addr:state": "Europe", "addr:postcode": "656907", "addr:country": "RU", "name": "Calvin Klein", "brand": "Calvin Klein", "brand:wikidata": "Q1068628", "nsi_id": "calvinklein-3937bd"}, "geometry": {"type": "Point", "coordinates": [83.77696, 53.33474]}},
{"type": "Feature", "id": "UtupbAaXShuOnBoi1zD6coD6p9k=", "properties": {"ref": "CKRU0024", "@spider": "calvin_klein", "shop": "clothes", "addr:full": "Kapitoly Mall, Vernadskogo prospect 6", "addr:city": "Moscow", "addr:state": "Europe", "addr:postcode": "119334", "addr:country": "RU", "name": "Calvin Klein", "brand": "Calvin Klein", "brand:wikidata": "Q1068628", "nsi_id": "calvinklein-3937bd"}, "geometry": {"type": "Point", "coordinates": [37.5281, 55.69196]}},
{"type": "Feature", "id": "4DiFKw0v8UJ03bwIhphdl-11G04=", "properties": {"ref": "CKRU0029", "@spider": "calvin_klein", "shop": "clothes", "addr:full": "Cosmoport Mall, Dybenko 30", "addr:city": "Samara", "addr:state": "Europe", "addr:postcode": "445240", "addr:country": "RU", "name": "Calvin Klein", "brand": "Calvin Klein", "brand:wikidata": "Q1068628", "nsi_id": "calvinklein-3937bd"}, "geometry": {"type": "Point", "coordinates": [50.19798, 53.20747]}},
{"type": "Feature", "id": "U0IDVc-fO3bHa0xcndCnqKeMsOU=", "properties": {"ref": "CKRU0030", "@spider": "calvin_klein", "shop": "clothes", "addr:full": "Metropolis Shopping Mall, Leningradskoye shosse 16 A", "addr:city": "Moscow", "addr:state": "Europe", "addr:postcode": "125171", "addr:country": "RU", "name": "Calvin Klein", "brand": "Calvin Klein", "brand:wikidata": "Q1068628", "nsi_id": "calvinklein-3937bd"}, "geometry": {"type": "Point", "coordinates": [37.49715, 55.82338]}},
{"type": "Feature", "id": "95dDYh-wxZ4XH0JYkl2_WA_qQkE=", "properties": {"ref": "CKRU0032", "@spider": "calvin_klein", "shop": "clothes", "addr:full": "Semya Mall, Revolutsii street 13", "addr:city": "Perm", "addr:state": "Europe", "addr:postcode": "614990", "addr:country": "RU", "name": "Calvin Klein", "brand": "Calvin Klein", "brand:wikidata": "Q1068628", "nsi_id": "calvinklein-3937bd"}, "geometry": {"type": "Point", "coordinates": [56.26187, 58.00747]}},
{"type": "Feature", "id": "8aIc37220P0IpvwhleMsBENKGVs=", "properties": {"ref": "CKRU0033", "@spider": "calvin_klein", "shop": "clothes", "addr:full": "Krasnaya Ploshad Mall, Ulitsa Dzerzhinskogo, 100", "addr:city": "Krasnodar", "addr:state": "Europe", "addr:postcode": "3500019", "addr:country": "RU", "name": "Calvin Klein", "brand": "Calvin Klein", "brand:wikidata": "Q1068628", "nsi_id": "calvinklein-3937bd"}, "geometry": {"type": "Point", "coordinates": [38.98377, 45.10192]}},
{"type": "Feature", "id": "vcvs3j9ssuhiuqqJvaWLHvli-_E=", "properties": {"ref": "CKRU0034", "@spider": "calvin_klein", "shop": "clothes", "addr:full": "Planeta Mall, 9 Maya street 77", "addr:city": "Krasnoyarsk", "addr:state": "Europe", "addr:postcode": "660125", "addr:country": "RU", "name": "Calvin Klein", "brand": "Calvin Klein", "brand:wikidata": "Q1068628", "nsi_id": "calvinklein-3937bd"}, "geometry": {"type": "Point", "coordinates": [92.90335, 56.05048]}},
{"type": "Feature", "id": "gRK2UQH6RnwqUtXl1N1OrP6SloQ=", "properties": {"ref": "CKRU0035", "@spider": "calvin_klein", "shop": "clothes", "addr:full": "Kolizey Atrium Mall, Ulitsa Lenina, 60,", "addr:city": "Perm", "addr:state": "Europe", "addr:postcode": "614000", "addr:country": "RU", "name": "Calvin Klein", "brand": "Calvin Klein", "brand:wikidata": "Q1068628", "nsi_id": "calvinklein-3937bd"}, "geometry": {"type": "Point", "coordinates": [56.23376, 58.00935]}},
{"type": "Feature", "id": "CdeVV-sKA2TKrZx5Ch6bnxNZybs=", "properties": {"ref": "CKRU0037", "@spider": "calvin_klein", "shop": "clothes", "addr:full": "Fantastika Mall, Rodionova street 187", "addr:city": "Nizhny Novgorod", "addr:state": "Europe", "addr:postcode": "603005", "addr:country": "RU", "name": "Calvin Klein", "brand": "Calvin Klein", "brand:wikidata": "Q1068628", "nsi_id": "calvinklein-3937bd"}, "geometry": {"type": "Point", "coordinates": [44.0751, 56.30704]}},
{"type": "Feature", "id": "h76ej8-l5Asd-eyNFI0gOYiBVM8=", "properties": {"ref": "CKRU0041", "@spider": "calvin_klein", "shop": "clothes", "addr:full": "Vegas Kashirskoye Mall, Mkad 24 Kilometr (Vneshn.), 24", "addr:city": "Moscow", "addr:state": "Europe", "addr:postcode": "115582", "addr:country": "RU", "name": "Calvin Klein", "brand": "Calvin Klein", "brand:wikidata": "Q1068628", "nsi_id": "calvinklein-3937bd"}, "geometry": {"type": "Point", "coordinates": [37.72503, 55.58569]}},
{"type": "Feature", "id": "e5vOro8Ocdj03xaczL3KguOUr8w=", "properties": {"ref": "CKRU0042", "@spider": "calvin_klein", "shop": "clothes", "addr:full": "Galeria Mall, Ligovsky prospekt 30A", "addr:city": "Saint Petersburg", "addr:state": "Europe", "addr:postcode": "191040", "addr:country": "RU", "name": "Calvin Klein", "brand": "Calvin Klein", "brand:wikidata": "Q1068628", "nsi_id": "calvinklein-3937bd"}, "geometry": {"type": "Point", "coordinates": [30.36057, 59.92718]}},
{"type": "Feature", "id": "7S5Gjfk4AmbLzVO2-W4lY4JdtQ8=", "properties": {"ref": "CKRU0043", "@spider": "calvin_klein", "shop": "clothes", "addr:full": "Grad City Mall, Parkovaya Street 3", "addr:city": "Voronezh", "addr:state": "Europe", "addr:postcode": "396005", "addr:country": "RU", "name": "Calvin Klein", "brand": "Calvin Klein", "brand:wikidata": "Q1068628", "nsi_id": "calvinklein-3937bd"}, "geometry": {"type": "Point", "coordinates": [39.20564, 51.7891]}},
{"type": "Feature", "id": "6eQzG2wgN9g0YM9Dm2jfOydFzj8=", "properties": {"ref": "CKRU0045", "@spider": "calvin_klein", "shop": "clothes", "addr:full": "Gorki Mall, Ulitsa Artilleriyskaya, 136", "addr:city": "Chelyabinsk", "addr:state": "Europe", "addr:postcode": "454007", "addr:country": "RU", "name": "Calvin Klein", "brand": "Calvin Klein", "brand:wikidata": "Q1068628", "nsi_id": "calvinklein-3937bd"}, "geometry": {"type": "Point", "coordinates": [61.43098, 55.16442]}},
{"type": "Feature", "id": "PhqC4jwb-elvdRuQ_VbV1N6Nnq8=", "properties": {"ref": "CKRU0046", "@spider": "calvin_klein", "shop": "clothes", "addr:full": "Krasnaya Ploshad Mall, Astrakhanskaya street 99", "addr:city": "Anapa", "addr:state": "Europe", "addr:postcode": "353440", "addr:country": "RU", "name": "Calvin Klein", "brand": "Calvin Klein", "brand:wikidata": "Q1068628", "nsi_id": "calvinklein-3937bd"}, "geometry": {"type": "Point", "coordinates": [37.33922, 44.8801]}},
{"type": "Feature", "id": "nA_-uJhVkcYw4L8U8cY3_fLQ5-k=", "properties": {"ref": "CKRU0048", "@spider": "calvin_klein", "shop": "clothes", "addr:full": "Galereya Chizhova, Koltsovskaya street 35A", "addr:city": "Voronezh", "addr:state": "Europe", "addr:postcode": "394000", "addr:country": "RU", "name": "Calvin Klein", "brand": "Calvin Klein", "brand:wikidata": "Q1068628", "nsi_id": "calvinklein-3937bd"}, "geometry": {"type": "Point", "coordinates": [39.19196, 51.66569]}},
{"type": "Feature", "id": "SlfFnQCIF89RgM8ySj3gwi3koBo=", "properties": {"ref": "CKRU0050", "@spider": "calvin_klein", "shop": "clothes", "addr:full": "Piterland Mall, Primorskiy Prospekt 72", "addr:city": "Saint Petersburg", "addr:state": "Europe", "addr:postcode": "197000", "addr:country": "RU", "name": "Calvin Klein", "brand": "Calvin Klein", "brand:wikidata": "Q1068628", "nsi_id": "calvinklein-3937bd"}, "geometry": {"type": "Point", "coordinates": [30.21073, 59.98162]}},
{"type": "Feature", "id": "jEXzKvgfXu37MStx7jCVfYqRCd4=", "properties": {"ref": "CKRU0051", "@spider": "calvin_klein", "shop": "clothes", "addr:full": "More Mall, Novaya Zarya Street 7", "addr:city": "Sochi", "addr:state": "Europe", "addr:postcode": "354068", "addr:country": "RU", "name": "Calvin Klein", "brand": "Calvin Klein", "brand:wikidata": "Q1068628", "nsi_id": "calvinklein-3937bd"}, "geometry": {"type": "Point", "coordinates": [39.73225, 43.60606]}},
{"type": "Feature", "id": "3JyTUWXDWiO-_R_cInjUPnlEyic=", "properties": {"ref": "CKRU0052", "@spider": "calvin_klein", "shop": "clothes", "addr:full": "Rodnik Mall, Ulitsa Truda, 203", "addr:city": "Chelyabinsk", "addr:state": "Europe", "addr:postcode": "454000", "addr:country": "RU", "name": "Calvin Klein", "brand": "Calvin Klein", "brand:wikidata": "Q1068628", "nsi_id": "calvinklein-3937bd"}, "geometry": {"type": "Point", "coordinates": [61.35505, 55.1705]}},
{"type": "Feature", "id": "L0lzggHhUXlk5W0rKuJFOJWJtGY=", "properties": {"ref": "CKRU0054", "@spider": "calvin_klein", "shop": "clothes", "addr:full": "Rio Leninsky Mall, Leninsky Prospekt 109A", "addr:city": "Moscow", "addr:state": "Europe", "addr:postcode": "121059", "addr:country": "RU", "name": "Calvin Klein", "brand": "Calvin Klein", "brand:wikidata": "Q1068628", "nsi_id": "calvinklein-3937bd"}, "geometry": {"type": "Point", "coordinates": [37.51117, 55.66358]}},
{"type": "Feature", "id": "fGCX3sxnmWuLQmV1lScnRSS1eCI=", "properties": {"ref": "CKRU0055", "@spider": "calvin_klein", "shop": "clothes", "addr:full": "Aura Mall, Nefteyuganskoye Shosse, 1,", "addr:city": "Surgut", "addr:state": "Europe", "addr:postcode": "628415", "addr:country": "RU", "name": "Calvin Klein", "brand": "Calvin Klein", "brand:wikidata": "Q1068628", "nsi_id": "calvinklein-3937bd"}, "geometry": {"type": "Point", "coordinates": [73.36558, 61.27745]}},
{"type": "Feature", "id": "XqHLws-10V3CyusB4IqeWmiz0xE=", "properties": {"ref": "CKRU0056", "@spider": "calvin_klein", "shop": "clothes", "addr:full": "Modnuy Kvartal Mall, Sedova Street 25", "addr:city": "Irkutsk", "addr:state": "Europe", "addr:postcode": "664003", "addr:country": "RU", "name": "Calvin Klein", "brand": "Calvin Klein", "brand:wikidata": "Q1068628", "nsi_id": "calvinklein-3937bd"}, "geometry": {"type": "Point", "coordinates": [104.29107, 52.27306]}},
{"type": "Feature", "id": "UtWuoQj1502da4qihG2utoClRps=", "properties": {"ref": "CKRU0057", "@spider": "calvin_klein", "shop": "clothes", "addr:full": "Modnuy Kvartal Mall, Sedova Street 25", "addr:city": "Irkutsk", "addr:state": "Europe", "addr:postcode": "664003", "addr:country": "RU", "name": "Calvin Klein", "brand": "Calvin Klein", "brand:wikidata": "Q1068628", "nsi_id": "calvinklein-3937bd"}, "geometry": {"type": "Point", "coordinates": [104.29109, 52.27307]}},
{"type": "Feature", "id": "Q5tvuE7kVMCKiG7arPRPMRUlUFs=", "properties": {"ref": "CKRU0059", "@spider": "calvin_klein", "shop": "clothes", "addr:full": "Planeta Mall, Entusiastov street 20", "addr:city": "Ufa", "addr:state": "Europe", "addr:postcode": "450000", "addr:country": "RU", "name": "Calvin Klein", "brand": "Calvin Klein", "brand:wikidata": "Q1068628", "nsi_id": "calvinklein-3937bd"}, "geometry": {"type": "Point", "coordinates": [56.03576, 54.75728]}},
{"type": "Feature", "id": "UZHikhby9esjsFL5B36iQfdhUZo=", "properties": {"ref": "CKRU0061", "@spider": "calvin_klein", "shop": "clothes", "addr:full": "Aura Shopping Mall, Pobedy 41,", "addr:city": "Yaroslavl", "addr:state": "Europe", "addr:postcode": "150000", "addr:country": "RU", "name": "Calvin Klein", "brand": "Calvin Klein", "brand:wikidata": "Q1068628", "nsi_id": "calvinklein-3937bd"}, "geometry": {"type": "Point", "coordinates": [39.87148, 57.62768]}},
{"type": "Feature", "id": "2_OVQw_nFBiC169ZVAEEb0Ru3Yw=", "properties": {"ref": "CKRU0062", "@spider": "calvin_klein", "shop": "clothes", "addr:full": "Parkhouse Mall, Avtozavodskoye sh. 6", "addr:city": "Tolyatti", "addr:state": "Europe", "addr:postcode": "445044", "addr:country": "RU", "name": "Calvin Klein", "brand": "Calvin Klein", "brand:wikidata": "Q1068628", "nsi_id": "calvinklein-3937bd"}, "geometry": {"type": "Point", "coordinates": [49.39052, 53.54189]}},
{"type": "Feature", "id": "d55DWtH5g9issvrQcDQU55siUAM=", "properties": {"ref": "CKRU0064", "@spider": "calvin_klein", "shop": "clothes", "addr:full": "Greenwich Mall, Ulitsa 8 Marta, 46", "addr:city": "Yekaterinburg", "addr:state": "Europe", "addr:postcode": "620014", "addr:country": "RU", "name": "Calvin Klein", "brand": "Calvin Klein", "brand:wikidata": "Q1068628", "nsi_id": "calvinklein-3937bd"}, "geometry": {"type": "Point", "coordinates": [60.59896, 56.82908]}},
{"type": "Feature", "id": "sfN2T2Gqn6OqqTosc-eNSA8nU5I=", "properties": {"ref": "CKRU0065", "@spider": "calvin_klein", "shop": "clothes", "addr:full": "Mega Teply Stan Mall, Kaluzhskoye Shosse, 21-\u0439 \u043a\u043c, \u0441\u0442\u0440. 1,", "addr:city": "Moscow", "addr:state": "Europe", "addr:postcode": "117465", "addr:country": "RU", "name": "Calvin Klein", "brand": "Calvin Klein", "brand:wikidata": "Q1068628", "nsi_id": "calvinklein-3937bd"}, "geometry": {"type": "Point", "coordinates": [37.49181, 55.60429]}},
{"type": "Feature", "id": "cc67i375AM-qzbO1L0gODQxMQX4=", "properties": {"ref": "CKRU0066", "@spider": "calvin_klein", "shop": "clothes", "addr:full": "Crocus City Mall, Moscow, 66 km of Moscow Ring Road", "addr:city": "Moscow", "addr:state": "Europe", "addr:postcode": "105082", "addr:country": "RU", "name": "Calvin Klein", "brand": "Calvin Klein", "brand:wikidata": "Q1068628", "nsi_id": "calvinklein-3937bd"}, "geometry": {"type": "Point", "coordinates": [37.3874, 55.81941]}},
{"type": "Feature", "id": "3BOCYoowTRAmG50mm5ssRky414I=", "properties": {"ref": "CKRU0067", "@spider": "calvin_klein", "shop": "clothes", "addr:full": "Lapshinka village, building 8", "addr:city": "Moscow", "addr:state": "Europe", "addr:postcode": "142782", "addr:country": "RU", "name": "Calvin Klein", "brand": "Calvin Klein", "brand:wikidata": "Q1068628", "nsi_id": "calvinklein-3937bd"}, "geometry": {"type": "Point", "coordinates": [37.33421, 55.61021]}},
{"type": "Feature", "id": "2PerYqsd29AafuZtxHX1mrOFN6A=", "properties": {"ref": "CKRU0068", "@spider": "calvin_klein", "shop": "clothes", "addr:full": "Aurora Mall, Aerodromnaya street 47a", "addr:city": "Samara", "addr:state": "Europe", "addr:postcode": "443070", "addr:country": "RU", "name": "Calvin Klein", "brand": "Calvin Klein", "brand:wikidata": "Q1068628", "nsi_id": "calvinklein-3937bd"}, "geometry": {"type": "Point", "coordinates": [50.18892, 53.19117]}},
{"type": "Feature", "id": "1L0dLCM2pcpqsNDZCwYnH4-K3TY=", "properties": {"ref": "CKRU0069", "@spider": "calvin_klein", "shop": "clothes", "addr:full": "Avia Park Mall, Khodynsky Boulevard 4", "addr:city": "Moscow", "addr:state": "Europe", "addr:postcode": "123007", "addr:country": "RU", "name": "Calvin Klein", "brand": "Calvin Klein", "brand:wikidata": "Q1068628", "nsi_id": "calvinklein-3937bd"}, "geometry": {"type": "Point", "coordinates": [37.53088, 55.79004]}},
{"type": "Feature", "id": "z0C2DXIFRZPDUsZQ5WzO9d-GsLw=", "properties": {"ref": "CKRU0071", "@spider": "calvin_klein", "shop": "clothes", "addr:full": "Moscow region, Kotelniki vilage, Novoryazanskoye highway,8, Belaya Dacha Outlet Village,", "addr:city": "Moscow", "addr:state": "Europe", "addr:postcode": "140053", "addr:country": "RU", "name": "Calvin Klein", "brand": "Calvin Klein", "brand:wikidata": "Q1068628", "nsi_id": "calvinklein-3937bd"}, "geometry": {"type": "Point", "coordinates": [37.88019, 55.66123]}},
{"type": "Feature", "id": "csVkCqEqTEKayZX3q3wb22XIjIU=", "properties": {"ref": "CKRU0072", "@spider": "calvin_klein", "shop": "clothes", "addr:full": "Kuntsevo Plaza, Yartsevskaya Street 19", "addr:city": "Moscow", "addr:state": "Europe", "addr:postcode": "121351", "addr:country": "RU", "name": "Calvin Klein", "brand": "Calvin Klein", "brand:wikidata": "Q1068628", "nsi_id": "calvinklein-3937bd"}, "geometry": {"type": "Point", "coordinates": [37.41073, 55.73849]}},
{"type": "Feature", "id": "RhFaYGZ4Yhe0aMCnJqzVwtWQXOw=", "properties": {"ref": "CKRU0073", "@spider": "calvin_klein", "shop": "clothes", "addr:full": "Pulkovskoe highway, 60 bld 1", "addr:city": "Saint Petersburg", "addr:state": "Europe", "addr:postcode": "196140", "addr:country": "RU", "name": "Calvin Klein", "brand": "Calvin Klein", "brand:wikidata": "Q1068628", "nsi_id": "calvinklein-3937bd"}, "geometry": {"type": "Point", "coordinates": [30.33157, 59.79322]}},
{"type": "Feature", "id": "mvy_Xxr728GsgBV0Gp7rV5yuuNM=", "properties": {"ref": "CKRU0074", "@spider": "calvin_klein", "shop": "clothes", "addr:full": "Chernaya Gryaz village, Leningradskoye highway, 14 km", "addr:city": "Moscow", "addr:state": "Europe", "addr:postcode": "141421", "addr:country": "RU", "name": "Calvin Klein", "brand": "Calvin Klein", "brand:wikidata": "Q1068628", "nsi_id": "calvinklein-3937bd"}, "geometry": {"type": "Point", "coordinates": [37.30285, 55.98084]}},
{"type": "Feature", "id": "lM7XFy9-KkoBOypyTsZEd9wjbO8=", "properties": {"ref": "CKRU0076", "@spider": "calvin_klein", "shop": "clothes", "addr:full": "Aura Mall, Voyennaya ul., 5", "addr:city": "Novosibirsk", "addr:state": "Europe", "addr:postcode": "630099", "addr:country": "RU", "name": "Calvin Klein", "brand": "Calvin Klein", "brand:wikidata": "Q1068628", "nsi_id": "calvinklein-3937bd"}, "geometry": {"type": "Point", "coordinates": [82.93538, 55.03081]}},
{"type": "Feature", "id": "dbVvtXdzDFVcM-q2vS1bII0vq0Q=", "properties": {"ref": "CKRU0077", "@spider": "calvin_klein", "shop": "clothes", "addr:full": "Mega Belaya Dacha Mall, Kotelniki (City) 1. Pokrovsky proezd 5", "addr:city": "Moscow", "addr:state": "Europe", "addr:postcode": "140055", "addr:country": "RU", "name": "Calvin Klein", "brand": "Calvin Klein", "brand:wikidata": "Q1068628", "nsi_id": "calvinklein-3937bd"}, "geometry": {"type": "Point", "coordinates": [37.84509, 55.65844]}},
{"type": "Feature", "id": "x1d0yQA46fcowy06A25L_duYVe0=", "properties": {"ref": "CKRU0078", "@spider": "calvin_klein", "shop": "clothes", "addr:full": "Mega Teply Stan Mall, Kaluzhskoye Shosse, 21-\u0439 \u043a\u043c, \u0441\u0442\u0440. 1,", "addr:city": "Moscow", "addr:state": "Europe", "addr:postcode": "117465", "addr:country": "RU", "name": "Calvin Klein", "brand": "Calvin Klein", "brand:wikidata": "Q1068628", "nsi_id": "calvinklein-3937bd"}, "geometry": {"type": "Point", "coordinates": [37.49199, 55.60422]}},
{"type": "Feature", "id": "cVAja7no2iWjkyzaAxZfeuMI95o=", "properties": {"ref": "CKRU0081", "@spider": "calvin_klein", "shop": "clothes", "addr:full": "Prospekt Engelsa 154", "addr:city": "Saint Petersburg", "addr:state": "Europe", "addr:postcode": "194358", "addr:country": "RU", "name": "Calvin Klein", "brand": "Calvin Klein", "brand:wikidata": "Q1068628", "nsi_id": "calvinklein-3937bd"}, "geometry": {"type": "Point", "coordinates": [30.33438, 60.05896]}},
{"type": "Feature", "id": "p_t7PPDOhb6JPYqVdyHW6rFn1aE=", "properties": {"ref": "CKRU0082", "@spider": "calvin_klein", "shop": "clothes", "addr:full": "Neskuchnaya 3, Yekaterinburg, RU", "addr:city": "Yekaterinburg", "addr:state": "Europe", "addr:postcode": "620016", "addr:country": "RU", "name": "Calvin Klein", "brand": "Calvin Klein", "brand:wikidata": "Q1068628", "nsi_id": "calvinklein-3937bd"}, "geometry": {"type": "Point", "coordinates": [60.54479, 56.73935]}},
{"type": "Feature", "id": "2L6BJdyy1ZLenGCick73cmllggw=", "properties": {"ref": "CKRU0090", "@spider": "calvin_klein", "shop": "clothes", "addr:full": "Pokrovskoe, Centralnaya st., 33", "addr:city": "Moscow", "addr:state": "Europe", "addr:postcode": "143582", "addr:country": "RU", "name": "Calvin Klein", "brand": "Calvin Klein", "brand:wikidata": "Q1068628", "nsi_id": "calvinklein-3937bd"}, "geometry": {"type": "Point", "coordinates": [37.0222, 55.80941]}},
{"type": "Feature", "id": "0uAJrRLv4L97qJ97yeXT3XjvHj8=", "properties": {"ref": "CKRU0094", "@spider": "calvin_klein", "shop": "clothes", "addr:full": "Vasi Alekseeva, 6, 198188, Saint Petersburg, Russia", "addr:city": "Saint Petersburg", "addr:state": "Europe", "addr:country": "RU", "name": "Calvin Klein", "brand": "Calvin Klein", "brand:wikidata": "Q1068628", "nsi_id": "calvinklein-3937bd"}, "geometry": {"type": "Point", "coordinates": [30.26557, 59.87991]}},
{"type": "Feature", "id": "dWTAkhF_RPutj9hd0SPr-L9wp9I=", "properties": {"ref": "CKRU0096", "@spider": "calvin_klein", "shop": "clothes", "addr:full": "Voronki village, 1, Arkhangelskoe Outlet", "addr:city": "Moscow", "addr:state": "Europe", "addr:postcode": "143082", "addr:country": "RU", "name": "Calvin Klein", "brand": "Calvin Klein", "brand:wikidata": "Q1068628", "nsi_id": "calvinklein-3937bd"}, "geometry": {"type": "Point", "coordinates": [37.28261, 55.80173]}},
{"type": "Feature", "id": "9LnkEPhQH_4fh5sM13FsxhjNNBI=", "properties": {"ref": "CKRU0097", "@spider": "calvin_klein", "shop": "clothes", "addr:full": "Krasnoselskoye Highway, 59, Novogorelovo village, 188508, Saint Petersburg, Russia", "addr:city": "Saint Petersburg", "addr:state": "Europe", "addr:postcode": "188508", "addr:country": "RU", "name": "Calvin Klein", "brand": "Calvin Klein", "brand:wikidata": "Q1068628", "nsi_id": "calvinklein-3937bd"}, "geometry": {"type": "Point", "coordinates": [30.14438, 59.79239]}},
{"type": "Feature", "id": "G2kr2fykz3A8OVN_rL8RagGWEtk=", "properties": {"ref": "CKZA0002", "@spider": "calvin_klein", "shop": "clothes", "addr:full": "Sandton City, 163 5th Street", "addr:city": "Sandton", "addr:state": "MEA+", "addr:postcode": "2031", "addr:country": "ZA", "name": "Calvin Klein", "brand": "Calvin Klein", "brand:wikidata": "Q1068628", "nsi_id": "calvinklein-3937bd"}, "geometry": {"type": "Point", "coordinates": [28.05313, -26.10825]}}]}