{"type":"FeatureCollection","features":[{"type": "Feature", "id": "2IDAUN1fNI_S9zkKlShJS77QwWg=", "properties": {"ref": "5914", "@spider": "camp_bow_wow", "addr:full": "65 E Border Circle", "addr:city": "Mobile", "addr:state": "AL", "addr:postcode": "36695", "addr:country": "US", "name": "Camp Bow Wow West Mobile", "phone": "2514147445"}, "geometry": {"type": "Point", "coordinates": [-88.2132874, 30.6892172]}},
{"type": "Feature", "id": "gFHDc37wR61tO3oVLbZrTv2Ej9Y=", "properties": {"ref": "8216", "@spider": "camp_bow_wow", "addr:full": "3712 Malcolm Drive", "addr:city": "Montgomery", "addr:state": "AL", "addr:postcode": "36116", "addr:country": "US", "name": "Camp Bow Wow Montgomery", "phone": "3344012267"}, "geometry": {"type": "Point", "coordinates": [-86.1802848, 32.327856]}},
{"type": "Feature", "id": "GRwyg9PDYeDdhikvL9FVq39fwtk=", "properties": {"ref": "16974", "@spider": "camp_bow_wow", "addr:full": "2153 Clearbrook Road", "addr:city": "Hoover", "addr:state": "AL", "addr:postcode": "35226", "addr:country": "US", "name": "Camp Bow Wow Hoover", "phone": "2058482236"}, "geometry": {"type": "Point", "coordinates": [-86.8443354, 33.4154219]}},
{"type": "Feature", "id": "Q_1GEbSJJaAVEMrMDqUVvGJ8txo=", "properties": {"ref": "5768", "@spider": "camp_bow_wow", "addr:full": "1403 SW 14th St", "addr:city": "Bentonville", "addr:state": "AR", "addr:postcode": "72712", "addr:country": "US", "name": "Camp Bow Wow Bentonville", "phone": "4792684120"}, "geometry": {"type": "Point", "coordinates": [-94.2307323, 36.3563132]}},
{"type": "Feature", "id": "sCu73hw6aVDqUIy1AKyK4xAIyfY=", "properties": {"ref": "16465", "@spider": "camp_bow_wow", "addr:full": "3600 Boone Road", "addr:city": "Benton", "addr:state": "AR", "addr:postcode": "72015", "addr:country": "US", "name": "Camp Bow Wow Benton-Bryant", "phone": "501-712-7773"}, "geometry": {"type": "Point", "coordinates": [-92.5420794, 34.5986582]}},
{"type": "Feature", "id": "vdaEmVtaSes9R5sKerHkEeYFWDw=", "properties": {"ref": "5764", "@spider": "camp_bow_wow", "addr:full": "1050 Fairway Drive", "addr:city": "Avondale", "addr:state": "AZ", "addr:postcode": "85323", "addr:country": "US", "name": "Camp Bow Wow Avondale", "phone": "6239258998"}, "geometry": {"type": "Point", "coordinates": [-112.3262394, 33.4537213]}},
{"type": "Feature", "id": "bO2o3vNHHhFnpxO9n3HWenK0hrY=", "properties": {"ref": "5869", "@spider": "camp_bow_wow", "addr:full": "2136 East Indian School Road", "addr:city": "Phoenix", "addr:state": "AZ", "addr:postcode": "85016", "addr:country": "US", "name": "Camp Bow Wow Phoenix", "phone": "4806810555"}, "geometry": {"type": "Point", "coordinates": [-112.0351315, 33.4952033]}},
{"type": "Feature", "id": "57txWZv9lE2mUseLfaDoHZlq3HY=", "properties": {"ref": "5911", "@spider": "camp_bow_wow", "addr:full": "16725 N Oracle Rd.", "addr:city": "Tucson", "addr:state": "AZ", "addr:postcode": "85739", "addr:country": "US", "name": "Camp Bow Wow Tucson", "phone": "5207426476"}, "geometry": {"type": "Point", "coordinates": [-110.926401, 32.5098802]}},
{"type": "Feature", "id": "1LiWCUtDoShh-V4nk3mg6yUzwJc=", "properties": {"ref": "6086", "@spider": "camp_bow_wow", "addr:full": "2647 W Baseline Rd", "addr:city": "Mesa", "addr:state": "AZ", "addr:postcode": "85202", "addr:country": "US", "name": "Camp Bow Wow Dobson Ranch Mesa", "phone": "(602) 584-9663"}, "geometry": {"type": "Point", "coordinates": [-111.8916082, 33.3778994]}},
{"type": "Feature", "id": "c_5-G3i2vfwER3NeS2WW6ulyksY=", "properties": {"ref": "6492", "@spider": "camp_bow_wow", "addr:full": "7000 E. Mayo Blvd Suite 1096", "addr:city": "Phoenix", "addr:state": "AZ", "addr:postcode": "85054", "addr:country": "US", "name": "Camp Bow Wow Scottsdale North", "phone": "480-758-4012"}, "geometry": {"type": "Point", "coordinates": [-111.9322843, 33.6565776]}},
{"type": "Feature", "id": "RsznkN9vgorktL2IU7vIMkYzLqk=", "properties": {"ref": "17018", "@spider": "camp_bow_wow", "addr:full": "7810 E Broadway Blvd", "addr:city": "Tucson", "addr:state": "AZ", "addr:postcode": "85710", "addr:country": "US", "name": "Camp Bow Wow Tucson East", "phone": "5206553647"}, "geometry": {"type": "Point", "coordinates": [-110.8258155, 32.220361]}},
{"type": "Feature", "id": "hlAdoNV82CJED6C0S8Vitj4Gctw=", "properties": {"ref": "5759", "@spider": "camp_bow_wow", "addr:full": "1431 N Daly St", "addr:city": "Anaheim", "addr:state": "CA", "addr:postcode": "92806", "addr:country": "US", "name": "Camp Bow Wow Anaheim", "phone": "7145332267"}, "geometry": {"type": "Point", "coordinates": [-117.8867713, 33.8544662]}},
{"type": "Feature", "id": "_6UjVB4Ajf9gblHULyGyNEuTJ_k=", "properties": {"ref": "5802", "@spider": "camp_bow_wow", "addr:full": "1395 Galindo St. Suite C", "addr:city": "Concord", "addr:state": "CA", "addr:postcode": "94520", "addr:country": "US", "name": "Camp Bow Wow Diablo Valley", "phone": "9254464724"}, "geometry": {"type": "Point", "coordinates": [-122.0330016, 37.9715534]}},
{"type": "Feature", "id": "BU90cRmjngNq0oxYkjGZv5xkjXo=", "properties": {"ref": "5808", "@spider": "camp_bow_wow", "addr:full": "1677 N. Marshall Avenue", "addr:city": "El Cajon", "addr:state": "CA", "addr:postcode": "92020", "addr:country": "US", "name": "Camp Bow Wow El Cajon", "phone": "6194489663"}, "geometry": {"type": "Point", "coordinates": [-116.9750782, 32.817901]}},
{"type": "Feature", "id": "fcyWWZspmfK_PNMIjAOboSJFb0s=", "properties": {"ref": "5809", "@spider": "camp_bow_wow", "addr:full": "9263 Bendel Place", "addr:city": "Elk Grove", "addr:state": "CA", "addr:postcode": "95624", "addr:country": "US", "name": "Camp Bow Wow Elk Grove", "phone": "9166854590"}, "geometry": {"type": "Point", "coordinates": [-121.3547886, 38.3999671]}},
{"type": "Feature", "id": "lSndN_SBxAqtHmwSqE6Wtl3KEko=", "properties": {"ref": "5812", "@spider": "camp_bow_wow", "addr:full": "8311 Greenback Ln", "addr:city": "Fair Oaks", "addr:state": "CA", "addr:postcode": "95628", "addr:country": "US", "name": "Camp Bow Wow Fair Oaks", "phone": "9167263400"}, "geometry": {"type": "Point", "coordinates": [-121.2531134, 38.6789584]}},
{"type": "Feature", "id": "EQh4XMJFvptQklttORjiR8z6ctg=", "properties": {"ref": "5886", "@spider": "camp_bow_wow", "addr:full": "220 Calle Pintoresco", "addr:city": "San Clemente", "addr:state": "CA", "addr:postcode": "92672", "addr:country": "US", "name": "Camp Bow Wow San Clemente", "phone": "9492187387"}, "geometry": {"type": "Point", "coordinates": [-117.5911758, 33.4494095]}},
{"type": "Feature", "id": "P0JTK3AVNjqkCGg8_iPCMegu9bQ=", "properties": {"ref": "5907", "@spider": "camp_bow_wow", "addr:full": "42192 Sarah Way", "addr:city": "Temecula", "addr:state": "CA", "addr:postcode": "92590", "addr:country": "US", "name": "Camp Bow Wow Temecula", "phone": "9515872267"}, "geometry": {"type": "Point", "coordinates": [-117.1664095, 33.5097488]}},
{"type": "Feature", "id": "x2MFKIqkCxY1zP_vJ1W4pvInq6M=", "properties": {"ref": "5909", "@spider": "camp_bow_wow", "addr:full": "6430 Preston Ave", "addr:city": "Livermore", "addr:state": "CA", "addr:postcode": "94550", "addr:country": "US", "name": "Camp Bow Wow Tri Valley / Livermore", "phone": "9254563294"}, "geometry": {"type": "Point", "coordinates": [-121.7170076, 37.7091173]}},
{"type": "Feature", "id": "B1G6ee122-FU19VTn7P-Znqxk7E=", "properties": {"ref": "12973", "@spider": "camp_bow_wow", "addr:full": "103 Technology Court, Suite F", "addr:city": "Brentwood", "addr:state": "CA", "addr:postcode": "94513", "addr:country": "US", "name": "Camp Bow Wow Brentwood", "phone": "(925) 666-9663"}, "geometry": {"type": "Point", "coordinates": [-121.6973141, 37.9450117]}},
{"type": "Feature", "id": "x4yuEwoQaW_kUcIxhIaYXQdq2aY=", "properties": {"ref": "17157", "@spider": "camp_bow_wow", "addr:full": "2040 Faria Preserve Parkway", "addr:city": "San Ramon", "addr:state": "CA", "addr:postcode": "94583", "addr:country": "US", "name": "Camp Bow Wow San Ramon", "phone": "9252222267"}, "geometry": {"type": "Point", "coordinates": [-121.9819739, 37.7816702]}},
{"type": "Feature", "id": "wmRJAGXyEQLi-pP5Fkji4oganQs=", "properties": {"ref": "18349", "@spider": "camp_bow_wow", "addr:full": "3146 Sports Arena Blvd, #21", "addr:city": "San Diego", "addr:state": "CA", "addr:postcode": "92110", "addr:country": "US", "name": "Camp Bow Wow San Diego Midway", "phone": "6199156807"}, "geometry": {"type": "Point", "coordinates": [-117.206282, 32.753098]}},
{"type": "Feature", "id": "G7e0HFR13v8k4El9efeg-pZPHWk=", "properties": {"ref": "18445", "@spider": "camp_bow_wow", "addr:full": "3708 Shamrock Way, Unit 103", "addr:city": "Tracy", "addr:state": "CA", "addr:postcode": "95377", "addr:country": "US", "name": "Camp Bow Wow Tracy", "phone": "2096993647"}, "geometry": {"type": "Point", "coordinates": [-121.428392, 37.70451]}},
{"type": "Feature", "id": "A6Sv4Dca-m_OY04i5llTWJlQAJg=", "properties": {"ref": "5761", "@spider": "camp_bow_wow", "addr:full": "1620 S. Abilene St", "addr:city": "Aurora", "addr:state": "CO", "addr:postcode": "80012", "addr:country": "US", "name": "Camp Bow Wow Aurora", "phone": "3033539913"}, "geometry": {"type": "Point", "coordinates": [-104.83, 39.69]}},
{"type": "Feature", "id": "msj8Oswhg094WD3VXxuJqnSoyGI=", "properties": {"ref": "5771", "@spider": "camp_bow_wow", "addr:full": "3631 Pearl Street", "addr:city": "Boulder", "addr:state": "CO", "addr:postcode": "80301", "addr:country": "US", "name": "Camp Bow Wow Boulder", "phone": "3034422261"}, "geometry": {"type": "Point", "coordinates": [-105.2473157, 40.0244971]}},
{"type": "Feature", "id": "aze05l0ZqdXum7NEY7ZDecxUXbQ=", "properties": {"ref": "5777", "@spider": "camp_bow_wow", "addr:full": "500 1st St", "addr:city": "Castle Rock", "addr:state": "CO", "addr:postcode": "80104", "addr:country": "US", "name": "Camp Bow Wow Castle Rock", "phone": "3038148108"}, "geometry": {"type": "Point", "coordinates": [-104.8570748, 39.3699828]}},
{"type": "Feature", "id": "zVuXgNF-NUzpcpRZ7cBvXjLDjlY=", "properties": {"ref": "5779", "@spider": "camp_bow_wow", "addr:full": "7009 S Kenton St", "addr:city": "Centennial", "addr:state": "CO", "addr:postcode": "80112", "addr:country": "US", "name": "Camp Bow Wow Centennial", "phone": "7206977491"}, "geometry": {"type": "Point", "coordinates": [-104.860375, 39.5894358]}},
{"type": "Feature", "id": "v8Lfo729YD2klwHNFAbCKTAP9YI=", "properties": {"ref": "5786", "@spider": "camp_bow_wow", "addr:full": "4295 Northpark Drive", "addr:city": "Colorado Springs", "addr:state": "CO", "addr:postcode": "80907", "addr:country": "US", "name": "Camp Bow Wow Colorado Springs Central", "phone": "7192609247"}, "geometry": {"type": "Point", "coordinates": [-104.8284528, 38.8936544]}},
{"type": "Feature", "id": "KwLjN-_5r4Q0MWu9zchHVyDXKmk=", "properties": {"ref": "5787", "@spider": "camp_bow_wow", "addr:full": "1075 Ford Street", "addr:city": "Colorado Springs", "addr:state": "CO", "addr:postcode": "80915", "addr:country": "US", "name": "Camp Bow Wow Colorado Springs East", "phone": "7195739247"}, "geometry": {"type": "Point", "coordinates": [-104.7112175, 38.8473139]}},
{"type": "Feature", "id": "02UqQuCG-7XlH0YzZoJf9q8i5n4=", "properties": {"ref": "5799", "@spider": "camp_bow_wow", "addr:full": "1221 S. Cherokee St.", "addr:city": "Denver", "addr:state": "CO", "addr:postcode": "80223", "addr:country": "US", "name": "Camp Bow Wow Denver Central", "phone": "3032825484"}, "geometry": {"type": "Point", "coordinates": [-104.9917796, 39.694597]}},
{"type": "Feature", "id": "a2cE0KfJCWVlrNJGw_sHg3WKM3Q=", "properties": {"ref": "5800", "@spider": "camp_bow_wow", "addr:full": "3645 Brighton Blvd", "addr:city": "Denver", "addr:state": "CO", "addr:postcode": "80216", "addr:country": "US", "name": "Camp Bow Wow Denver LoDo", "phone": "3039960411"}, "geometry": {"type": "Point", "coordinates": [-104.9770825, 39.7720685]}},
{"type": "Feature", "id": "KttIRiGw9TtqdAIlwH6gddbwnDk=", "properties": {"ref": "5801", "@spider": "camp_bow_wow", "addr:full": "2125 South Jasmine", "addr:city": "Denver", "addr:state": "CO", "addr:postcode": "80222", "addr:country": "US", "name": "Camp Bow Wow Denver SE", "phone": "3033008284"}, "geometry": {"type": "Point", "coordinates": [-104.9192199, 39.6776334]}},
{"type": "Feature", "id": "WtRChzcbJRCyqPaSrV9nVt8MYg4=", "properties": {"ref": "5814", "@spider": "camp_bow_wow", "addr:full": "4103 S Mason Street", "addr:city": "Fort Collins", "addr:state": "CO", "addr:postcode": "80525", "addr:country": "US", "name": "Camp Bow Wow Fort Collins", "phone": "9702669247"}, "geometry": {"type": "Point", "coordinates": [-105.0803102, 40.5302039]}},
{"type": "Feature", "id": "hQqfC0mfmrioEHOWN9WSEdB8Fxo=", "properties": {"ref": "5817", "@spider": "camp_bow_wow", "addr:full": "13101 West 43rd Dr", "addr:city": "Golden", "addr:state": "CO", "addr:postcode": "80403", "addr:country": "US", "name": "Camp Bow Wow Golden", "phone": "3032719663"}, "geometry": {"type": "Point", "coordinates": [-105.1470024, 39.7772459]}},
{"type": "Feature", "id": "PH3d78NxBNWFWGNZDpsHvlwXtaw=", "properties": {"ref": "5841", "@spider": "camp_bow_wow", "addr:full": "8121 S Grant Way", "addr:city": "Littleton", "addr:state": "CO", "addr:postcode": "80122", "addr:country": "US", "name": "Camp Bow Wow Littleton", "phone": "3037972267"}, "geometry": {"type": "Point", "coordinates": [-104.9850465, 39.5694404]}},
{"type": "Feature", "id": "supfR8tssf2NcJRoXyuCrMO2ow4=", "properties": {"ref": "5842", "@spider": "camp_bow_wow", "addr:full": "801 South Sherman Street", "addr:city": "Longmont", "addr:state": "CO", "addr:postcode": "80501", "addr:country": "US", "name": "Camp Bow Wow Longmont", "phone": "720-204-4503"}, "geometry": {"type": "Point", "coordinates": [-105.1161653, 40.1505883]}},
{"type": "Feature", "id": "FTQjf1b54adSVeT3BFWfe8CC5bw=", "properties": {"ref": "5853", "@spider": "camp_bow_wow", "addr:full": "18985 Base Camp Road", "addr:city": "Monument", "addr:state": "CO", "addr:postcode": "80132", "addr:country": "US", "name": "Camp Bow Wow Monument", "phone": "7196329247"}, "geometry": {"type": "Point", "coordinates": [-104.8617853, 39.1072808]}},
{"type": "Feature", "id": "E7gBYMKY1ut_GgFJn90bfYQnVro=", "properties": {"ref": "5864", "@spider": "camp_bow_wow", "addr:full": "10325 S Progress Way", "addr:city": "Parker", "addr:state": "CO", "addr:postcode": "80134", "addr:country": "US", "name": "Camp Bow Wow Parker", "phone": "3038059739"}, "geometry": {"type": "Point", "coordinates": [-104.7698697, 39.528918]}},
{"type": "Feature", "id": "Ogf5j5fLFFgm3xSAPJ5uv-xgg9Y=", "properties": {"ref": "5918", "@spider": "camp_bow_wow", "addr:full": "7577 W 103rd Ave", "addr:city": "Westminster", "addr:state": "CO", "addr:postcode": "80021", "addr:country": "US", "name": "Camp Bow Wow Westminster", "phone": "3034661913"}, "geometry": {"type": "Point", "coordinates": [-105.0787118, 39.8843861]}},
{"type": "Feature", "id": "DJ_ApzoyTViXOQ5LgtzFLNhfuMc=", "properties": {"ref": "8520", "@spider": "camp_bow_wow", "addr:full": "1227 Des Moines Ave.", "addr:city": "Loveland", "addr:state": "CO", "addr:postcode": "80537", "addr:country": "US", "name": "Camp Bow Wow Loveland", "phone": "970-534-3323"}, "geometry": {"type": "Point", "coordinates": [-105.0432758, 40.4041542]}},
{"type": "Feature", "id": "yrxmS6J06gInqmVq1De9wMNzME4=", "properties": {"ref": "15690", "@spider": "camp_bow_wow", "addr:full": "3214 S Wadsworth Blvd", "addr:city": "Lakewood", "addr:state": "CO", "addr:postcode": "80227", "addr:country": "US", "name": "Camp Bow Wow Bear Creek", "phone": "3039978564"}, "geometry": {"type": "Point", "coordinates": [-105.0812365, 39.6578546]}},
{"type": "Feature", "id": "AuVE44CRFk9ZiIJb0tR3wMSBQJk=", "properties": {"ref": "5895", "@spider": "camp_bow_wow", "addr:full": "1145 John Fitch Blvd", "addr:city": "South Windsor", "addr:state": "CT", "addr:postcode": "06074", "addr:country": "US", "name": "Camp Bow Wow South Windsor", "phone": "8603724787"}, "geometry": {"type": "Point", "coordinates": [-72.6037487, 41.8364554]}},
{"type": "Feature", "id": "i3yYN8Sv2adR25aw23LF-Ww4vAU=", "properties": {"ref": "5900", "@spider": "camp_bow_wow", "addr:full": "581 Hope St", "addr:city": "Stamford", "addr:state": "CT", "addr:postcode": "06907", "addr:country": "US", "name": "Camp Bow Wow Stamford", "phone": "2035042288"}, "geometry": {"type": "Point", "coordinates": [-73.52, 41.08]}},
{"type": "Feature", "id": "pC4QL_KnExJqREnctr-6pUHD2Ko=", "properties": {"ref": "12370", "@spider": "camp_bow_wow", "addr:full": "122 West Dudley Town Road", "addr:city": "Bloomfield", "addr:state": "CT", "addr:postcode": "06002", "addr:country": "US", "name": "Camp Bow Wow Bloomfield", "phone": "(860) 580-9395"}, "geometry": {"type": "Point", "coordinates": [-72.7167819, 41.8606679]}},
{"type": "Feature", "id": "Onj5gapvHgoISHF2UbhEoCpikdc=", "properties": {"ref": "16721", "@spider": "camp_bow_wow", "addr:full": "105 Island Brook Ave", "addr:city": "Bridgeport", "addr:state": "CT", "addr:postcode": "06606", "addr:country": "US", "name": "Camp Bow Wow Bridgeport", "phone": "4759992691"}, "geometry": {"type": "Point", "coordinates": [-73.1892141, 41.1990153]}},
{"type": "Feature", "id": "gONwnVWvwTzmD73rrEFs5mKigV4=", "properties": {"ref": "5798", "@spider": "camp_bow_wow", "addr:full": "301 Ruthar Drive", "addr:city": "Newark", "addr:state": "DE", "addr:postcode": "19711", "addr:country": "US", "name": "Camp Bow Wow Delaware North", "phone": "3027382267"}, "geometry": {"type": "Point", "coordinates": [-75.6979855, 39.6904489]}},
{"type": "Feature", "id": "HFucu1bSnG17mBWkdMyS01mnVRc=", "properties": {"ref": "5828", "@spider": "camp_bow_wow", "addr:full": "8505 Baymeadows Rd", "addr:city": "Jacksonville", "addr:state": "FL", "addr:postcode": "32256", "addr:country": "US", "name": "Camp Bow Wow Jacksonville", "phone": "9047329663"}, "geometry": {"type": "Point", "coordinates": [-81.58, 30.22]}},
{"type": "Feature", "id": "FIDsfszwKIvL1HH-1ERAvkp9Zow=", "properties": {"ref": "5857", "@spider": "camp_bow_wow", "addr:full": "3382 Mercantile Ave", "addr:city": "Naples", "addr:state": "FL", "addr:postcode": "34104", "addr:country": "US", "name": "Camp Bow Wow Naples", "phone": "2393522275"}, "geometry": {"type": "Point", "coordinates": [-81.7658417, 26.1652669]}},
{"type": "Feature", "id": "7jBNchwdS0JNlevStdQhha3DPDk=", "properties": {"ref": "5865", "@spider": "camp_bow_wow", "addr:full": "2410 Langley Avenue", "addr:city": "Pensacola", "addr:state": "FL", "addr:postcode": "32504", "addr:country": "US", "name": "Camp Bow Wow Pensacola", "phone": "8507643886"}, "geometry": {"type": "Point", "coordinates": [-87.1950551, 30.4886496]}},
{"type": "Feature", "id": "xaR6cjgS_kOscGQJG76XABy1lRs=", "properties": {"ref": "5877", "@spider": "camp_bow_wow", "addr:full": "17266 Toledo Blade Blvd.", "addr:city": "Port Charlotte", "addr:state": "FL", "addr:postcode": "33954", "addr:country": "US", "name": "Camp Bow Wow Port Charlotte", "phone": "9418759410"}, "geometry": {"type": "Point", "coordinates": [-82.1631622, 27.0196181]}},
{"type": "Feature", "id": "iIe-7yZ43uB2C8SBVgxU3IaDidI=", "properties": {"ref": "5887", "@spider": "camp_bow_wow", "addr:full": "2101 17th Street", "addr:city": "Sarasota", "addr:state": "FL", "addr:postcode": "34234", "addr:country": "US", "name": "Camp Bow Wow Sarasota", "phone": "9413662267"}, "geometry": {"type": "Point", "coordinates": [-82.5279442, 27.3524895]}},
{"type": "Feature", "id": "0Liw-8rV3OWk4FdCJtmOWF2w7Ds=", "properties": {"ref": "5905", "@spider": "camp_bow_wow", "addr:full": "4624 N Grady Ave", "addr:city": "Tampa", "addr:state": "FL", "addr:postcode": "33614", "addr:country": "US", "name": "Camp Bow Wow Tampa Airport", "phone": "8138702267"}, "geometry": {"type": "Point", "coordinates": [-82.51, 27.99]}},
{"type": "Feature", "id": "Yp-diHIgaC9sNInbCmpfRR6bSlk=", "properties": {"ref": "5906", "@spider": "camp_bow_wow", "addr:full": "12218 Balm Riverview Rd", "addr:city": "Riverview", "addr:state": "FL", "addr:postcode": "33579", "addr:country": "US", "name": "Camp Bow Wow Tampa South Shore", "phone": "8136722267"}, "geometry": {"type": "Point", "coordinates": [-82.2957501, 27.8199935]}},
{"type": "Feature", "id": "YuTRN1PmB990izvNOAJZD7Mc8DU=", "properties": {"ref": "9295", "@spider": "camp_bow_wow", "addr:full": "3483 SE Lionel Terrace", "addr:city": "Stuart", "addr:state": "FL", "addr:postcode": "34997", "addr:country": "US", "name": "Camp Bow Wow Stuart", "phone": "772-291-6545"}, "geometry": {"type": "Point", "coordinates": [-80.2061355, 27.1483805]}},
{"type": "Feature", "id": "G2MHqi9f-7hp2twmEW70y3NGanY=", "properties": {"ref": "15226", "@spider": "camp_bow_wow", "addr:full": "850 North Dixie Highway", "addr:city": "Boca Raton", "addr:state": "FL", "addr:postcode": "33432", "addr:country": "US", "name": "Camp Bow Wow Boca Raton", "phone": "561-709-7300"}, "geometry": {"type": "Point", "coordinates": [-80.086099, 26.3585092]}},
{"type": "Feature", "id": "gE1DN8c7Ig47zK_66ZsauodBHeU=", "properties": {"ref": "5758", "@spider": "camp_bow_wow", "addr:full": "1755 Grassland Pkwy", "addr:city": "Alpharetta", "addr:state": "GA", "addr:postcode": "30004", "addr:country": "US", "name": "Camp Bow Wow Alpharetta", "phone": "6788078505"}, "geometry": {"type": "Point", "coordinates": [-84.25, 34.14]}},
{"type": "Feature", "id": "OFZWDYlJi_q0XXgXVMZ8RQUaVrE=", "properties": {"ref": "5803", "@spider": "camp_bow_wow", "addr:full": "1795 Buford Hwy", "addr:city": "Duluth", "addr:state": "GA", "addr:postcode": "30097", "addr:country": "US", "name": "Camp Bow Wow Duluth", "phone": "6782653436"}, "geometry": {"type": "Point", "coordinates": [-84.10438, 34.025913]}},
{"type": "Feature", "id": "1ba3Zmy0wfBdJABUGtrAIatgpjU=", "properties": {"ref": "5837", "@spider": "camp_bow_wow", "addr:full": "585 Old Norcross Rd", "addr:city": "Lawrenceville", "addr:state": "GA", "addr:postcode": "30046", "addr:country": "US", "name": "Camp Bow Wow Lawrenceville GA", "phone": "7709953500"}, "geometry": {"type": "Point", "coordinates": [-84.009033, 33.9607825]}},
{"type": "Feature", "id": "ryF3_PF08GOkRxq_QDk2zw1UUYo=", "properties": {"ref": "5920", "@spider": "camp_bow_wow", "addr:full": "12916 Hwy 92", "addr:city": "Woodstock", "addr:state": "GA", "addr:postcode": "30188", "addr:country": "US", "name": "Camp Bow Wow Woodstock", "phone": "7706753445"}, "geometry": {"type": "Point", "coordinates": [-84.4719801, 34.0870731]}},
{"type": "Feature", "id": "IzgaEVWaFWx0WPTEBYljkUmfuRw=", "properties": {"ref": "14881", "@spider": "camp_bow_wow", "addr:full": "925 Lake Joy Road", "addr:city": "Warner Robins", "addr:state": "GA", "addr:postcode": "31088", "addr:country": "US", "name": "Camp Bow Wow Warner Robins", "phone": "(478) 800-2275"}, "geometry": {"type": "Point", "coordinates": [-83.691401, 32.5726823]}},
{"type": "Feature", "id": "4bJ1tp0U1R7YMzdR2bN6CFQdKv4=", "properties": {"ref": "18147", "@spider": "camp_bow_wow", "addr:full": "1807 Memorial Drive Suite B", "addr:city": "Atlanta", "addr:state": "GA", "addr:postcode": "30317", "addr:country": "US", "name": "Camp Bow Wow East Atlanta", "phone": "4708163559"}, "geometry": {"type": "Point", "coordinates": [-84.327485, 33.7461709]}},
{"type": "Feature", "id": "Uuzm0OCaZ0cmMoWy0beY9a2j9Bg=", "properties": {"ref": "15121", "@spider": "camp_bow_wow", "addr:full": "2900 University Ave", "addr:city": "West Des Moines", "addr:state": "IA", "addr:postcode": "50266", "addr:country": "US", "name": "Camp Bow Wow West Des Moines", "phone": "515-526-2267"}, "geometry": {"type": "Point", "coordinates": [-93.7443025, 41.5991517]}},
{"type": "Feature", "id": "JtwHRn01uXNMJDR4iI9ABtvrNFE=", "properties": {"ref": "5770", "@spider": "camp_bow_wow", "addr:full": "3430 South T.K. Ave", "addr:city": "Boise", "addr:state": "ID", "addr:postcode": "83705", "addr:country": "US", "name": "Camp Bow Wow Boise", "phone": "2083315091"}, "geometry": {"type": "Point", "coordinates": [-116.1914343, 43.5713324]}},
{"type": "Feature", "id": "NgsdnrVcOeI8wgl3Uv39y3Dp47Y=", "properties": {"ref": "5848", "@spider": "camp_bow_wow", "addr:full": "2134 E. Franklin Road", "addr:city": "Meridian", "addr:state": "ID", "addr:postcode": "83642", "addr:country": "US", "name": "Camp Bow Wow Meridian", "phone": "2088870010"}, "geometry": {"type": "Point", "coordinates": [-116.3676542, 43.6053583]}},
{"type": "Feature", "id": "MYSr2F5BQ021kaA11axDJgDDJpM=", "properties": {"ref": "5810", "@spider": "camp_bow_wow", "addr:full": "641 S IL-83", "addr:city": "Elmhurst", "addr:state": "IL", "addr:postcode": "60126", "addr:country": "US", "name": "Camp Bow Wow Elmhurst", "phone": "6306012267"}, "geometry": {"type": "Point", "coordinates": [-87.9606259, 41.8774493]}},
{"type": "Feature", "id": "TkycaGhWtidvcZ_wQ71ewW_E7WY=", "properties": {"ref": "5844", "@spider": "camp_bow_wow", "addr:full": "3107 West Route 120", "addr:city": "McHenry", "addr:state": "IL", "addr:postcode": "60051", "addr:country": "US", "name": "Camp Bow Wow McHenry", "phone": "8153857297"}, "geometry": {"type": "Point", "coordinates": [-88.2585518, 42.3436504]}},
{"type": "Feature", "id": "t9sSXoDIWmnIsyuBwZjcGNe5AOE=", "properties": {"ref": "5862", "@spider": "camp_bow_wow", "addr:full": "6046 Roosevelt Road", "addr:city": "Oak Park", "addr:state": "IL", "addr:postcode": "60304", "addr:country": "US", "name": "Camp Bow Wow Oak Park", "phone": "7088482267"}, "geometry": {"type": "Point", "coordinates": [-87.7763717, 41.8656647]}},
{"type": "Feature", "id": "vCFKgFFVvpVBYoV-yQjjReNHrNM=", "properties": {"ref": "5867", "@spider": "camp_bow_wow", "addr:full": "1623 W Pioneer Pkwy", "addr:city": "Peoria", "addr:state": "IL", "addr:postcode": "61615", "addr:country": "US", "name": "Camp Bow Wow Peoria IL", "phone": "3096922267"}, "geometry": {"type": "Point", "coordinates": [-89.62, 40.78]}},
{"type": "Feature", "id": "XW1_xFZ1yQUWajuK23kmUyaJnHA=", "properties": {"ref": "9518", "@spider": "camp_bow_wow", "addr:full": "22032 Howell Drive", "addr:city": "New Lenox", "addr:state": "IL", "addr:postcode": "60451", "addr:country": "US", "name": "Camp Bow Wow New Lenox", "phone": "815-717-6755"}, "geometry": {"type": "Point", "coordinates": [-87.9294062, 41.4875772]}},
{"type": "Feature", "id": "c29C8ifcPNZwmBiNVzBDUxLTERA=", "properties": {"ref": "15614", "@spider": "camp_bow_wow", "addr:full": "2230 Illinois Rte 59", "addr:city": "Plainfield", "addr:state": "IL", "addr:postcode": "60586", "addr:country": "US", "name": "Camp Bow Wow Joliet", "phone": "8152422267"}, "geometry": {"type": "Point", "coordinates": [-88.1673566, 42.3798409]}},
{"type": "Feature", "id": "mJ8UvhHm_OJp0pE4-nqoHY-S-eo=", "properties": {"ref": "16839", "@spider": "camp_bow_wow", "addr:full": "2975 Sand Lake Rd", "addr:city": "Lindenhurst", "addr:state": "IL", "addr:postcode": "60046", "addr:country": "US", "name": "Camp Bow Wow Lindenhurst", "phone": "(847) 596-3232"}, "geometry": {"type": "Point", "coordinates": [-88.0094768, 42.4074179]}},
{"type": "Feature", "id": "37kgMBHVp7F2F8d6AjV6fjFFbmM=", "properties": {"ref": "16976", "@spider": "camp_bow_wow", "addr:full": "1090 N Main Street", "addr:city": "East Peoria", "addr:state": "IL", "addr:postcode": "61611", "addr:country": "US", "name": "Camp Bow Wow East Peoria", "phone": "(309) 839-9663"}, "geometry": {"type": "Point", "coordinates": [-89.5618857, 40.6765579]}},
{"type": "Feature", "id": "JMf2HZbEyoPckQz0PsDrotfZPWk=", "properties": {"ref": "5775", "@spider": "camp_bow_wow", "addr:full": "489 Gradle Drive", "addr:city": "Carmel", "addr:state": "IN", "addr:postcode": "46032", "addr:country": "US", "name": "Camp Bow Wow Carmel", "phone": "3175800446"}, "geometry": {"type": "Point", "coordinates": [-86.1334388, 39.9642119]}},
{"type": "Feature", "id": "MmVUL_9yRN7KypWLO4flLPNiFH0=", "properties": {"ref": "5835", "@spider": "camp_bow_wow", "addr:full": "10830 Pendleton Pike", "addr:city": "Indianapolis", "addr:state": "IN", "addr:postcode": "46236", "addr:country": "US", "name": "Camp Bow Wow Lawrence", "phone": "3177943647"}, "geometry": {"type": "Point", "coordinates": [-85.9755496, 39.8626024]}},
{"type": "Feature", "id": "keufS8nLzki2mkZeOSsLQ10WCRE=", "properties": {"ref": "5896", "@spider": "camp_bow_wow", "addr:full": "5311 Commerce Circle", "addr:city": "Indianapolis", "addr:state": "IN", "addr:postcode": "46237", "addr:country": "US", "name": "Camp Bow Wow Southport", "phone": "3178011123"}, "geometry": {"type": "Point", "coordinates": [-86.0776796, 39.6546449]}},
{"type": "Feature", "id": "NKeI4khE78q0KXeBF-gsOuppg64=", "properties": {"ref": "17477", "@spider": "camp_bow_wow", "addr:full": "17661 Cumberland Rd.", "addr:city": "Noblesville", "addr:state": "IN", "addr:postcode": "46060", "addr:country": "US", "name": "Camp Bow Wow Noblesville", "phone": "3177219298"}, "geometry": {"type": "Point", "coordinates": [-85.9961404, 40.044751]}},
{"type": "Feature", "id": "kqeB_H4k85Wx0f8WdMLUJYPgcBY=", "properties": {"ref": "5863", "@spider": "camp_bow_wow", "addr:full": "1150 W. 151st Street", "addr:city": "Olathe", "addr:state": "KS", "addr:postcode": "66061", "addr:country": "US", "name": "Camp Bow Wow Olathe", "phone": "9133222267"}, "geometry": {"type": "Point", "coordinates": [-94.8359424, 38.8556132]}},
{"type": "Feature", "id": "mt9kdeL1YLDkbGBTuqeJDey0SGU=", "properties": {"ref": "15556", "@spider": "camp_bow_wow", "addr:full": "2171 Christian Road", "addr:city": "Lexington", "addr:state": "KY", "addr:postcode": "40509", "addr:country": "US", "name": "Camp Bow Wow Lexington East", "phone": "859-407-2653"}, "geometry": {"type": "Point", "coordinates": [-84.4495512, 38.0304795]}},
{"type": "Feature", "id": "18pgMGP94zwMGIJXOKho5kZHWSo=", "properties": {"ref": "5765", "@spider": "camp_bow_wow", "addr:full": "7195 Pecue Lane", "addr:city": "Baton Rouge", "addr:state": "LA", "addr:postcode": "70817", "addr:country": "US", "name": "Camp Bow Wow Baton Rouge", "phone": "2258103647"}, "geometry": {"type": "Point", "coordinates": [-91.0404579, 30.3866339]}},
{"type": "Feature", "id": "ixdxQ6eFr7mlWxXdL3IIR650P-E=", "properties": {"ref": "5794", "@spider": "camp_bow_wow", "addr:full": "14279 Highway 1085", "addr:city": "Covington", "addr:state": "LA", "addr:postcode": "70433", "addr:country": "US", "name": "Camp Bow Wow Covington", "phone": "9858929364"}, "geometry": {"type": "Point", "coordinates": [-90.1675829, 30.467809]}},
{"type": "Feature", "id": "820OlmC1Fo0mqvvUWWTm_GfEsBo=", "properties": {"ref": "5833", "@spider": "camp_bow_wow", "addr:full": "114 Eunice Street", "addr:city": "Lafayette", "addr:state": "LA", "addr:postcode": "70508", "addr:country": "US", "name": "Camp Bow Wow Lafayette", "phone": "3372373647"}, "geometry": {"type": "Point", "coordinates": [-92.0055515, 30.1839423]}},
{"type": "Feature", "id": "MjfVrF53EJq7B1KgWYkcF9X_FPA=", "properties": {"ref": "5849", "@spider": "camp_bow_wow", "addr:full": "3301 Conti Street", "addr:city": "New Orleans", "addr:state": "LA", "addr:postcode": "70119", "addr:country": "US", "name": "Camp Bow Wow Mid-City New Orleans", "phone": "5043099939"}, "geometry": {"type": "Point", "coordinates": [-90.0909768, 29.9721929]}},
{"type": "Feature", "id": "xxVLwLNdVpy3ZGgEQxKohj8bhQI=", "properties": {"ref": "5860", "@spider": "camp_bow_wow", "addr:full": "2731 Tchoupitoulas St", "addr:city": "New Orleans", "addr:state": "LA", "addr:postcode": "70130", "addr:country": "US", "name": "Camp Bow Wow New Orleans", "phone": "5048913647"}, "geometry": {"type": "Point", "coordinates": [-90.0782172, 29.9209489]}},
{"type": "Feature", "id": "5ForDbBwNT-ALdpGYTtBYKAAtiU=", "properties": {"ref": "5880", "@spider": "camp_bow_wow", "addr:full": "17545 Old Jefferson Hwy", "addr:city": "Prairieville", "addr:state": "LA", "addr:postcode": "70769", "addr:country": "US", "name": "Camp Bow Wow Prairieville", "phone": "2257494900"}, "geometry": {"type": "Point", "coordinates": [-90.9778474, 30.3231122]}},
{"type": "Feature", "id": "NK9WTxRyoNJMGUp32UOgKl7PcBU=", "properties": {"ref": "5890", "@spider": "camp_bow_wow", "addr:full": "701 E Kings Hwy", "addr:city": "Shreveport", "addr:state": "LA", "addr:postcode": "71105", "addr:country": "US", "name": "Camp Bow Wow Shreveport", "phone": "3186267397"}, "geometry": {"type": "Point", "coordinates": [-93.7187278, 32.4793146]}},
{"type": "Feature", "id": "Lv2faOmeWM9BYu8ipf4xh3BfNVU=", "properties": {"ref": "17151", "@spider": "camp_bow_wow", "addr:full": "2401 Hickory Avenue", "addr:city": "Metairie", "addr:state": "LA", "addr:postcode": "70003", "addr:country": "US", "name": "Camp Bow Wow New Orleans Airport", "phone": "5042693294"}, "geometry": {"type": "Point", "coordinates": [-90.2150873, 30.0085623]}},
{"type": "Feature", "id": "YV6tSX9_bBv85XWGkJdGlAxFT1Y=", "properties": {"ref": "5767", "@spider": "camp_bow_wow", "addr:full": "244 Maple Street", "addr:city": "Bellingham", "addr:state": "MA", "addr:postcode": "02019", "addr:country": "US", "name": "Camp Bow Wow Bellingham", "phone": "5089664111"}, "geometry": {"type": "Point", "coordinates": [-71.4474222, 42.1010036]}},
{"type": "Feature", "id": "8H0xkjjAyft3al2eZJvPpB6zz0g=", "properties": {"ref": "12371", "@spider": "camp_bow_wow", "addr:full": "222 Grand Army of the Republic (G.A.R.) Highway", "addr:city": "Swansea", "addr:state": "MA", "addr:postcode": "02777", "addr:country": "US", "name": "Camp Bow Wow Swansea MA", "phone": "508-812-9663"}, "geometry": {"type": "Point", "coordinates": [-71.1950269, 41.7434973]}},
{"type": "Feature", "id": "Tm1M6GlcdGoQQkSZbnY8VEEdpnY=", "properties": {"ref": "5788", "@spider": "camp_bow_wow", "addr:full": "7165 Oakland Mills Rd", "addr:city": "Columbia", "addr:state": "MD", "addr:postcode": "21046", "addr:country": "US", "name": "Camp Bow Wow Columbia MD", "phone": "4109642275"}, "geometry": {"type": "Point", "coordinates": [-76.83, 39.17]}},
{"type": "Feature", "id": "ydDXtl9AUEgTHYHynbBKLdPpXI0=", "properties": {"ref": "8388", "@spider": "camp_bow_wow", "addr:full": "1341 Hughes Ford Road", "addr:city": "Frederick", "addr:state": "MD", "addr:postcode": "21701", "addr:country": "US", "name": "Camp Bow Wow Frederick", "phone": "(240) 285-9551"}, "geometry": {"type": "Point", "coordinates": [-77.3807784, 39.4169763]}},
{"type": "Feature", "id": "UFz5XPBLfnXfBg_Itoed2nBzXpw=", "properties": {"ref": "18339", "@spider": "camp_bow_wow", "addr:full": "1913 Greenspring Drive", "addr:city": "Timonium", "addr:state": "MD", "addr:postcode": "21093", "addr:country": "US", "name": "Camp Bow Wow Towson", "phone": "4103644000"}, "geometry": {"type": "Point", "coordinates": [-76.6283569, 39.4317817]}},
{"type": "Feature", "id": "K1KpIS88rmmMmf4lM817wXyH_yc=", "properties": {"ref": "5878", "@spider": "camp_bow_wow", "addr:full": "49 Blueberry Road", "addr:city": "Portland", "addr:state": "ME", "addr:postcode": "04102", "addr:country": "US", "name": "Camp Bow Wow Portland", "phone": "2075419247"}, "geometry": {"type": "Point", "coordinates": [-70.3323701, 43.6528319]}},
{"type": "Feature", "id": "MP6uIBhJ0h0QoBcV8971Z9rCC7U=", "properties": {"ref": "5773", "@spider": "camp_bow_wow", "addr:full": "3829 South Old US Highway 23", "addr:city": "Brighton Township", "addr:state": "MI", "addr:postcode": "48114", "addr:country": "US", "name": "Camp Bow Wow Brighton Township", "phone": "8102275487"}, "geometry": {"type": "Point", "coordinates": [-83.7502085, 42.5460539]}},
{"type": "Feature", "id": "8BagFpMzwkcdesPtFNojj88zADI=", "properties": {"ref": "5785", "@spider": "camp_bow_wow", "addr:full": "6374 Sashabaw Rd", "addr:city": "Clarkston", "addr:state": "MI", "addr:postcode": "48346", "addr:country": "US", "name": "Camp Bow Wow Clarkston", "phone": "2486209663"}, "geometry": {"type": "Point", "coordinates": [-83.378655, 42.731663]}},
{"type": "Feature", "id": "tjIvBbG7KBL60klwn6yMWAEDARA=", "properties": {"ref": "5791", "@spider": "camp_bow_wow", "addr:full": "4373 Plant Drive", "addr:city": "Commerce Township", "addr:state": "MI", "addr:postcode": "48390", "addr:country": "US", "name": "Camp Bow Wow Commerce Township", "phone": "2482428000"}, "geometry": {"type": "Point", "coordinates": [-83.4419695, 42.5724183]}},
{"type": "Feature", "id": "nFPcEL-Z3AYZzIgoGh5uET_KTLk=", "properties": {"ref": "5818", "@spider": "camp_bow_wow", "addr:full": "1310 60th St SW", "addr:city": "Byron Center", "addr:state": "MI", "addr:postcode": "49315", "addr:country": "US", "name": "Camp Bow Wow Byron Center", "phone": "6163699663"}, "geometry": {"type": "Point", "coordinates": [-85.6957597, 42.8552136]}},
{"type": "Feature", "id": "AHP6j3TlMy7_DnlD3mzcAyYOB94=", "properties": {"ref": "5826", "@spider": "camp_bow_wow", "addr:full": "3625 Quincy St", "addr:city": "Hudsonville", "addr:state": "MI", "addr:postcode": "49426", "addr:country": "US", "name": "Camp Bow Wow Hudsonville", "phone": "6168969663"}, "geometry": {"type": "Point", "coordinates": [-85.8720112, 42.8408311]}},
{"type": "Feature", "id": "mTWsQcrb2WSq_XpjJozGQ3wdt6s=", "properties": {"ref": "5832", "@spider": "camp_bow_wow", "addr:full": "4150 40th Street SE", "addr:city": "Kentwood", "addr:state": "MI", "addr:postcode": "49512", "addr:country": "US", "name": "Camp Bow Wow Grand Rapids Airport", "phone": "6169779247"}, "geometry": {"type": "Point", "coordinates": [-85.5637532, 42.8912004]}},
{"type": "Feature", "id": "n5jVX0bnnDQWe4nZmUqyxfxjzlo=", "properties": {"ref": "5889", "@spider": "camp_bow_wow", "addr:full": "50600 Central Industrial Drive", "addr:city": "Shelby Township", "addr:state": "MI", "addr:postcode": "48315", "addr:country": "US", "name": "Camp Bow Wow Shelby Township", "phone": "5864881193"}, "geometry": {"type": "Point", "coordinates": [-83.0002555, 42.6672046]}},
{"type": "Feature", "id": "4v1XBzJG4a-_-B9O8jED09x4JYI=", "properties": {"ref": "5899", "@spider": "camp_bow_wow", "addr:full": "19795 E. 9 Mile Rd", "addr:city": "St. Clair Shores", "addr:state": "MI", "addr:postcode": "48080", "addr:country": "US", "name": "Camp Bow Wow St. Clair Shores", "phone": "5864459663"}, "geometry": {"type": "Point", "coordinates": [-82.918262, 42.4659801]}},
{"type": "Feature", "id": "BtEOPRvhR3imdD6F_sLxov0AuJ4=", "properties": {"ref": "5910", "@spider": "camp_bow_wow", "addr:full": "801 Stephenson Hwy", "addr:city": "Troy", "addr:state": "MI", "addr:postcode": "48083", "addr:country": "US", "name": "Camp Bow Wow Troy", "phone": "2485839247"}, "geometry": {"type": "Point", "coordinates": [-83.1213067, 42.5413817]}},
{"type": "Feature", "id": "08bVf06acgaWUKomLe5Nf9i4MMs=", "properties": {"ref": "6088", "@spider": "camp_bow_wow", "addr:full": "23720 Greater Mack Ave", "addr:city": "Saint Clair Shores", "addr:state": "MI", "addr:postcode": "48080", "addr:country": "US", "name": "Camp Bow Wow Lil' Campers St. Clair Shores", "phone": "5864459663"}, "geometry": {"type": "Point", "coordinates": [-82.8969289, 42.4675921]}},
{"type": "Feature", "id": "iXsSIWvV_5QKG-X82Apteg8rQoo=", "properties": {"ref": "5774", "@spider": "camp_bow_wow", "addr:full": "14305 Ewing Avenue S.", "addr:city": "Burnsville", "addr:state": "MN", "addr:postcode": "55306", "addr:country": "US", "name": "Camp Bow Wow Burnsville", "phone": "9527369919"}, "geometry": {"type": "Point", "coordinates": [-93.3263396, 44.7442837]}},
{"type": "Feature", "id": "vuViQvE4wBqvKwFhPipENPKUwNM=", "properties": {"ref": "5876", "@spider": "camp_bow_wow", "addr:full": "2067 East Center Circle", "addr:city": "Plymouth", "addr:state": "MN", "addr:postcode": "55441", "addr:country": "US", "name": "Camp Bow Wow Plymouth", "phone": "7633839585"}, "geometry": {"type": "Point", "coordinates": [-93.4480544, 45.0005254]}},
{"type": "Feature", "id": "xxfFPvMd13fWDXC9kiXWxfvFcMc=", "properties": {"ref": "8298", "@spider": "camp_bow_wow", "addr:full": "10100 Viking Drive", "addr:city": "Eden Prairie", "addr:state": "MN", "addr:postcode": "55344", "addr:country": "US", "name": "Camp Bow Wow Eden Prairie", "phone": "952-828-9663"}, "geometry": {"type": "Point", "coordinates": [-93.4051829, 44.8602957]}},
{"type": "Feature", "id": "1ageNaR8c5LhUcuFmFaUdz7Ho-s=", "properties": {"ref": "5829", "@spider": "camp_bow_wow", "addr:full": "104 Westport Road", "addr:city": "Kansas City", "addr:state": "MO", "addr:postcode": "64111", "addr:country": "US", "name": "Camp Bow Wow Kansas City Westport", "phone": "8166731826"}, "geometry": {"type": "Point", "coordinates": [-94.5877957, 39.0548218]}},
{"type": "Feature", "id": "V61d-_RzG4hLjoOuiofeXbcQ3R0=", "properties": {"ref": "5838", "@spider": "camp_bow_wow", "addr:full": "1010 SE Hamblen Rd", "addr:city": "Lee's Summit", "addr:state": "MO", "addr:postcode": "64081", "addr:country": "US", "name": "Camp Bow Wow Lee's Summit", "phone": "8162467833"}, "geometry": {"type": "Point", "coordinates": [-94.36, 38.9]}},
{"type": "Feature", "id": "3-Gb3oZX4HVQoY3EVljll9tvDcA=", "properties": {"ref": "5839", "@spider": "camp_bow_wow", "addr:full": "1071 Brown Street", "addr:city": "Liberty", "addr:state": "MO", "addr:postcode": "64068", "addr:country": "US", "name": "Camp Bow Wow Liberty", "phone": "8167922275"}, "geometry": {"type": "Point", "coordinates": [-94.432237, 39.2325979]}},
{"type": "Feature", "id": "4loIeza8W-H9nDZDp1sVjU8xtew=", "properties": {"ref": "5897", "@spider": "camp_bow_wow", "addr:full": "1900 W Sunset St.", "addr:city": "Springfield", "addr:state": "MO", "addr:postcode": "65807", "addr:country": "US", "name": "Camp Bow Wow Springfield West", "phone": "4178829247"}, "geometry": {"type": "Point", "coordinates": [-93.3178816, 37.1662186]}},
{"type": "Feature", "id": "YpHbflBCOasQgdvBvGEe6uveXVU=", "properties": {"ref": "5898", "@spider": "camp_bow_wow", "addr:full": "2814 S Fremont Ave", "addr:city": "Springfield", "addr:state": "MO", "addr:postcode": "65804", "addr:country": "US", "name": "Camp Bow Wow Springfield East", "phone": "4178829247"}, "geometry": {"type": "Point", "coordinates": [-93.270858, 37.163173]}},
{"type": "Feature", "id": "COi8rvw8R13GRrWWyOrmEucsWkU=", "properties": {"ref": "15122", "@spider": "camp_bow_wow", "addr:full": "1751 Scherer Parkway", "addr:city": "St. Charles", "addr:state": "MO", "addr:postcode": "63303", "addr:country": "US", "name": "Camp Bow Wow St. Charles", "phone": "6369252275"}, "geometry": {"type": "Point", "coordinates": [-90.5234563, 38.7654668]}},
{"type": "Feature", "id": "c2ZWNtG2NofLxP-Dcm2eCGN3R7w=", "properties": {"ref": "15587", "@spider": "camp_bow_wow", "addr:full": "8570 N Green Hills Road", "addr:city": "Kansas City", "addr:state": "MO", "addr:postcode": "64154", "addr:country": "US", "name": "Camp Bow Wow Kansas City Northland", "phone": "(816) 343-9663"}, "geometry": {"type": "Point", "coordinates": [-94.6325154, 39.2495813]}},
{"type": "Feature", "id": "D5c69da-nUhmKPcVClxS6At5v7g=", "properties": {"ref": "5881", "@spider": "camp_bow_wow", "addr:full": "381 Highway 51", "addr:city": "Ridgeland", "addr:state": "MS", "addr:postcode": "39157", "addr:country": "US", "name": "Camp Bow Wow Ridgeland", "phone": "6017075710"}, "geometry": {"type": "Point", "coordinates": [-90.1354221, 32.4201524]}},
{"type": "Feature", "id": "Ux6vXnZCDBpbapdH-q95orboa7s=", "properties": {"ref": "5776", "@spider": "camp_bow_wow", "addr:full": "107 Woodwinds Industrial Court", "addr:city": "Cary", "addr:state": "NC", "addr:postcode": "27511", "addr:country": "US", "name": "Camp Bow Wow Cary", "phone": "9194654235"}, "geometry": {"type": "Point", "coordinates": [-78.8195262, 35.7620995]}},
{"type": "Feature", "id": "ANYWsvrlpIIjif8FGOwshmyx_j4=", "properties": {"ref": "5780", "@spider": "camp_bow_wow", "addr:full": "4310 Bennett Memorial Road", "addr:city": "Durham", "addr:state": "NC", "addr:postcode": "27705", "addr:country": "US", "name": "Camp Bow Wow North Durham", "phone": "9193094959"}, "geometry": {"type": "Point", "coordinates": [-78.9712356, 36.0302887]}},
{"type": "Feature", "id": "heJXvYn7an8w9QZCT1S8iVGA5R4=", "properties": {"ref": "5782", "@spider": "camp_bow_wow", "addr:full": "4900 Chastain Ave", "addr:city": "Charlotte", "addr:state": "NC", "addr:postcode": "28217", "addr:country": "US", "name": "Camp Bow Wow Charlotte Metro", "phone": "7045273647"}, "geometry": {"type": "Point", "coordinates": [-80.8830477, 35.1757438]}},
{"type": "Feature", "id": "WO_I1Vy2rJWq7g_HMFBBX3SA2tQ=", "properties": {"ref": "5792", "@spider": "camp_bow_wow", "addr:full": "8010 Myint Ln", "addr:city": "Concord", "addr:state": "NC", "addr:postcode": "28027", "addr:country": "US", "name": "Camp Bow Wow Concord", "phone": "7042600055"}, "geometry": {"type": "Point", "coordinates": [-80.7143953, 35.4012286]}},
{"type": "Feature", "id": "1DhNgrqpTgcwr8oBRAlhRo--s0Q=", "properties": {"ref": "5805", "@spider": "camp_bow_wow", "addr:full": "2612 South Miami Blvd", "addr:city": "Durham", "addr:state": "NC", "addr:postcode": "27703", "addr:country": "US", "name": "Camp Bow Wow Durham", "phone": "9193218971"}, "geometry": {"type": "Point", "coordinates": [-78.843971, 35.9314966]}},
{"type": "Feature", "id": "PFHfmVqXNQSY49wBgDyZwXrJRTg=", "properties": {"ref": "5819", "@spider": "camp_bow_wow", "addr:full": "6207 Chimney Center Boulevard", "addr:city": "Greensboro", "addr:state": "NC", "addr:postcode": "27409", "addr:country": "US", "name": "Camp Bow Wow Greensboro", "phone": "3363233133"}, "geometry": {"type": "Point", "coordinates": [-79.9222438, 36.0616663]}},
{"type": "Feature", "id": "ILLCZWP7g2jX_kQJBJ4fPsVHYN0=", "properties": {"ref": "5843", "@spider": "camp_bow_wow", "addr:full": "8635 Crown Crescent Ct", "addr:city": "Charlotte", "addr:state": "NC", "addr:postcode": "28227", "addr:country": "US", "name": "Camp Bow Wow Matthews", "phone": "7047089663"}, "geometry": {"type": "Point", "coordinates": [-80.7288168, 35.1422135]}},
{"type": "Feature", "id": "JcMyoSoNucGN6jSV2EOCdAC9yKQ=", "properties": {"ref": "5893", "@spider": "camp_bow_wow", "addr:full": "5 Airport Rd", "addr:city": "Arden", "addr:state": "NC", "addr:postcode": "28704", "addr:country": "US", "name": "Camp Bow Wow South Asheville", "phone": "8286760444"}, "geometry": {"type": "Point", "coordinates": [-82.5139539, 35.458293]}},
{"type": "Feature", "id": "WKk41v8N467nhhvr7ClFHou73K0=", "properties": {"ref": "15192", "@spider": "camp_bow_wow", "addr:full": "1839 S Main Street", "addr:city": "Wake Forest", "addr:state": "NC", "addr:postcode": "27587", "addr:country": "US", "name": "Camp Bow Wow Wake Forest", "phone": "919-435-2161"}, "geometry": {"type": "Point", "coordinates": [-78.5272907, 35.9516655]}},
{"type": "Feature", "id": "h-Nx2lG5XOvYr3nleK-TQlJVc_c=", "properties": {"ref": "5840", "@spider": "camp_bow_wow", "addr:full": "5930 South 57th Street", "addr:city": "Lincoln", "addr:state": "NE", "addr:postcode": "68516", "addr:country": "US", "name": "Camp Bow Wow Lincoln", "phone": "4024749663"}, "geometry": {"type": "Point", "coordinates": [-96.6434231, 40.7523525]}},
{"type": "Feature", "id": "ZT20fbst2ME0HQfBSJEYUV-GL04=", "properties": {"ref": "5772", "@spider": "camp_bow_wow", "addr:full": "10W Chimney Rock Rd", "addr:city": "Bound Brook", "addr:state": "NJ", "addr:postcode": "08805", "addr:country": "US", "name": "Camp Bow Wow Bridgewater", "phone": "7328050888"}, "geometry": {"type": "Point", "coordinates": [-74.5641783, 40.5704985]}},
{"type": "Feature", "id": "HmApd8e5ObRQhKKrHaxaIGsVr4Q=", "properties": {"ref": "5783", "@spider": "camp_bow_wow", "addr:full": "3 Esterbrook Ln.", "addr:city": "Cherry Hill", "addr:state": "NJ", "addr:postcode": "08003", "addr:country": "US", "name": "Camp Bow Wow Cherry Hill", "phone": "8566519663"}, "geometry": {"type": "Point", "coordinates": [-74.9677278, 39.9139768]}},
{"type": "Feature", "id": "RksvXkFfMi6uMGqGFgyBouI5jVM=", "properties": {"ref": "5806", "@spider": "camp_bow_wow", "addr:full": "284 Old Deal Road", "addr:city": "Eatontown", "addr:state": "NJ", "addr:postcode": "07724", "addr:country": "US", "name": "Camp Bow Wow Eatontown", "phone": "7327289663"}, "geometry": {"type": "Point", "coordinates": [-74.0396514, 40.2811018]}},
{"type": "Feature", "id": "9yZYwlkG6kffEtdp21yGLrCiD6c=", "properties": {"ref": "5811", "@spider": "camp_bow_wow", "addr:full": "53 Midland Ave", "addr:city": "Elmwood Park", "addr:state": "NJ", "addr:postcode": "07407", "addr:country": "US", "name": "Camp Bow Wow Elmwood Park", "phone": "2017973647"}, "geometry": {"type": "Point", "coordinates": [-74.1036013, 40.8964939]}},
{"type": "Feature", "id": "DJeFDMQosP73-iGD5-DNyHmM7DQ=", "properties": {"ref": "5836", "@spider": "camp_bow_wow", "addr:full": "231 Bakers Basin Road", "addr:city": "Lawrenceville", "addr:state": "NJ", "addr:postcode": "08648", "addr:country": "US", "name": "Camp Bow Wow Lawrenceville NJ", "phone": "6096893647"}, "geometry": {"type": "Point", "coordinates": [-74.7006012, 40.2729699]}},
{"type": "Feature", "id": "ZWei69GUMNo7KkpEPmwl5lMYtUE=", "properties": {"ref": "5850", "@spider": "camp_bow_wow", "addr:full": "288 Lincoln Blvd", "addr:city": "Middlesex", "addr:state": "NJ", "addr:postcode": "08846", "addr:country": "US", "name": "Camp Bow Wow Middlesex", "phone": "7325603647"}, "geometry": {"type": "Point", "coordinates": [-74.5061713, 40.5643428]}},
{"type": "Feature", "id": "EbZhbJwUM9OwCXRkv1ql0wqZAG0=", "properties": {"ref": "5851", "@spider": "camp_bow_wow", "addr:full": "95 Greenwood Ave", "addr:city": "Midland Park", "addr:state": "NJ", "addr:postcode": "07432", "addr:country": "US", "name": "Camp Bow Wow Midland Park", "phone": "2018820186"}, "geometry": {"type": "Point", "coordinates": [-74.1497094, 40.9946312]}},
{"type": "Feature", "id": "MohMzZhxXozLqBcnZKT1lR8gawA=", "properties": {"ref": "5854", "@spider": "camp_bow_wow", "addr:full": "73 E Hanover Ave", "addr:city": "Morristown", "addr:state": "NJ", "addr:postcode": "07960", "addr:country": "US", "name": "Camp Bow Wow Morris", "phone": "9739332828"}, "geometry": {"type": "Point", "coordinates": [-74.4750472, 40.8197004]}},
{"type": "Feature", "id": "Ju0yTspUkihvb3U5S6UKR2kYuhE=", "properties": {"ref": "8041", "@spider": "camp_bow_wow", "addr:full": "428 Route 46", "addr:city": "Rockaway", "addr:state": "NJ", "addr:postcode": "07866", "addr:country": "US", "name": "Camp Bow Wow Rockaway", "phone": "862-397-3825"}, "geometry": {"type": "Point", "coordinates": [-74.4973, 40.897795]}},
{"type": "Feature", "id": "OJT3ajg9a8wj4Ns6j_jtgeOO9k8=", "properties": {"ref": "15093", "@spider": "camp_bow_wow", "addr:full": "1414 Grand St.", "addr:city": "Hoboken", "addr:state": "NJ", "addr:postcode": "07030", "addr:country": "US", "name": "Camp Bow Wow Hoboken", "phone": "201-503-4622"}, "geometry": {"type": "Point", "coordinates": [-74.0316236, 40.7549261]}},
{"type": "Feature", "id": "tLNu6Ag-FcVXbP2NgU4xVg5B7Wg=", "properties": {"ref": "5756", "@spider": "camp_bow_wow", "addr:full": "3228 Los Arboles Ave NE", "addr:city": "Albuquerque", "addr:state": "NM", "addr:postcode": "87107", "addr:country": "US", "name": "Camp Bow Wow Albuquerque", "phone": "5058813647"}, "geometry": {"type": "Point", "coordinates": [-106.6089148, 35.1136627]}},
{"type": "Feature", "id": "r8sS1MxzQPZrX3vFCHve0_0KtNM=", "properties": {"ref": "5821", "@spider": "camp_bow_wow", "addr:full": "650 Portland St", "addr:city": "Dartmouth", "addr:state": "NS", "addr:postcode": "B2W 6A3", "addr:country": "CA", "name": "Camp Bow Wow Halifax", "phone": "9024313647"}, "geometry": {"type": "Point", "coordinates": [-63.5256022, 44.6715719]}},
{"type": "Feature", "id": "RRKBdR_PGGNtqgNHOioNYv4sAt0=", "properties": {"ref": "5822", "@spider": "camp_bow_wow", "addr:full": "910 Wigwam", "addr:city": "Henderson", "addr:state": "NV", "addr:postcode": "89014", "addr:country": "US", "name": "Camp Bow Wow Henderson", "phone": "7024763647"}, "geometry": {"type": "Point", "coordinates": [-115.0242688, 36.0361185]}},
{"type": "Feature", "id": "k0Fhl3sJavoZ1f2VLyKXQLMndro=", "properties": {"ref": "5834", "@spider": "camp_bow_wow", "addr:full": "5175 S Valley View Blvd", "addr:city": "Las Vegas", "addr:state": "NV", "addr:postcode": "89118", "addr:country": "US", "name": "Camp Bow Wow Las Vegas", "phone": "7022552267"}, "geometry": {"type": "Point", "coordinates": [-115.1903518, 36.095816]}},
{"type": "Feature", "id": "agUew7iJaoWM5RdqnMYMVKPZ_Ww=", "properties": {"ref": "5904", "@spider": "camp_bow_wow", "addr:full": "210 S Rainbow Blvd", "addr:city": "Las Vegas", "addr:state": "NV", "addr:postcode": "89145", "addr:country": "US", "name": "Camp Bow Wow Summerlin", "phone": "7024729663"}, "geometry": {"type": "Point", "coordinates": [-115.245811, 36.1716259]}},
{"type": "Feature", "id": "dfNZnid0_ThBQskjE4cFVrZ7FRo=", "properties": {"ref": "13302", "@spider": "camp_bow_wow", "addr:full": "7111 S. Virginia Street", "addr:city": "Reno", "addr:state": "NV", "addr:postcode": "89511", "addr:country": "US", "name": "Camp Bow Wow Reno South", "phone": "(775) 855-9663"}, "geometry": {"type": "Point", "coordinates": [-119.7839693, 39.4621431]}},
{"type": "Feature", "id": "T7-MmP6qh6ufZruHg9RIdb1UW3Q=", "properties": {"ref": "5755", "@spider": "camp_bow_wow", "addr:full": "136 Railroad Ave", "addr:city": "Albany", "addr:state": "NY", "addr:postcode": "12205", "addr:country": "US", "name": "Camp Bow Wow Albany", "phone": "5183912777"}, "geometry": {"type": "Point", "coordinates": [-73.8286274, 42.7045377]}},
{"type": "Feature", "id": "DjH-3Wb86nyZrdxNEcInA5nEes8=", "properties": {"ref": "5823", "@spider": "camp_bow_wow", "addr:full": "174 Miller Place", "addr:city": "Hicksville", "addr:state": "NY", "addr:postcode": "11801", "addr:country": "US", "name": "Camp Bow Wow Hicksville", "phone": "5165957297"}, "geometry": {"type": "Point", "coordinates": [-73.5158824, 40.784839]}},
{"type": "Feature", "id": "KHWzwZYLbDHunkngAerdtnJWJxg=", "properties": {"ref": "5882", "@spider": "camp_bow_wow", "addr:full": "85 Mushroom Blvd", "addr:city": "Rochester", "addr:state": "NY", "addr:postcode": "14623", "addr:country": "US", "name": "Camp Bow Wow Rochester", "phone": "5856139247"}, "geometry": {"type": "Point", "coordinates": [-77.617902, 43.0900478]}},
{"type": "Feature", "id": "oGiIVoBeEZhMzM6on8Qo9M0_CAU=", "properties": {"ref": "5883", "@spider": "camp_bow_wow", "addr:full": "101 Route 304", "addr:city": "Nanuet", "addr:state": "NY", "addr:postcode": "10954", "addr:country": "US", "name": "Camp Bow Wow Rockland", "phone": "8455070068"}, "geometry": {"type": "Point", "coordinates": [-73.9981341, 41.1018059]}},
{"type": "Feature", "id": "TJDXdZg_UTTPNBGggVCDHgFo7n4=", "properties": {"ref": "5908", "@spider": "camp_bow_wow", "addr:full": "231 Grand Island Blvd", "addr:city": "Tonawanda", "addr:state": "NY", "addr:postcode": "14150", "addr:country": "US", "name": "Camp Bow Wow Tonawanda", "phone": "7168779247"}, "geometry": {"type": "Point", "coordinates": [-78.910958, 42.9812546]}},
{"type": "Feature", "id": "bx15FYSCzUxRONXhWW7IfECqaOo=", "properties": {"ref": "5915", "@spider": "camp_bow_wow", "addr:full": "31 North America Drive", "addr:city": "West Seneca", "addr:state": "NY", "addr:postcode": "14224", "addr:country": "US", "name": "Camp Bow Wow West Seneca", "phone": "7166779247"}, "geometry": {"type": "Point", "coordinates": [-78.7512915, 42.8471103]}},
{"type": "Feature", "id": "USrRx6Iq4des_z3lj4ZSGsUENnE=", "properties": {"ref": "5766", "@spider": "camp_bow_wow", "addr:full": "23380 Aurora Rd", "addr:city": "Bedford Heights", "addr:state": "OH", "addr:postcode": "44146", "addr:country": "US", "name": "Camp Bow Wow Bedford Heights", "phone": "4407863647"}, "geometry": {"type": "Point", "coordinates": [-81.5149174, 41.416979]}},
{"type": "Feature", "id": "dDA9lILotVt_3c_ShiffMfmDRRQ=", "properties": {"ref": "5784", "@spider": "camp_bow_wow", "addr:full": "4955 Creek Rd", "addr:city": "Cincinnati", "addr:state": "OH", "addr:postcode": "45242", "addr:country": "US", "name": "Camp Bow Wow Cincinnati", "phone": "5137459850"}, "geometry": {"type": "Point", "coordinates": [-84.3725557, 39.2579237]}},
{"type": "Feature", "id": "MTIAUv_HtYaMmTwM4q84pbI9CRU=", "properties": {"ref": "5790", "@spider": "camp_bow_wow", "addr:full": "1006 Dublin Rd", "addr:city": "Columbus", "addr:state": "OH", "addr:postcode": "43215", "addr:country": "US", "name": "Camp Bow Wow Columbus - Grandview Heights", "phone": "6148877871"}, "geometry": {"type": "Point", "coordinates": [-83.0398716, 39.9713248]}},
{"type": "Feature", "id": "vzriKDUn6_lL9iPZOoHbY79MEMA=", "properties": {"ref": "5795", "@spider": "camp_bow_wow", "addr:full": "1403 Main Street", "addr:city": "Cuyahoga Falls", "addr:state": "OH", "addr:postcode": "44221", "addr:country": "US", "name": "Camp Bow Wow Cuyahoga Falls", "phone": "3309239663"}, "geometry": {"type": "Point", "coordinates": [-81.4832916, 41.123252]}},
{"type": "Feature", "id": "Q7Mt4LgTF-dXEqpAH3qyPDWyhOU=", "properties": {"ref": "5824", "@spider": "camp_bow_wow", "addr:full": "31 Alpha Park", "addr:city": "Highland Heights", "addr:state": "OH", "addr:postcode": "44143", "addr:country": "US", "name": "Camp Bow Wow Highland Heights", "phone": "4404491364"}, "geometry": {"type": "Point", "coordinates": [-81.4518015, 41.5475704]}},
{"type": "Feature", "id": "vYCfkWW192jpdnXDKih6qTOjVKk=", "properties": {"ref": "5825", "@spider": "camp_bow_wow", "addr:full": "5100 Nike Dr", "addr:city": "Hilliard", "addr:state": "OH", "addr:postcode": "43026", "addr:country": "US", "name": "Camp Bow Wow Hilliard", "phone": "6145272267"}, "geometry": {"type": "Point", "coordinates": [-83.1449996, 39.9944394]}},
{"type": "Feature", "id": "uvKqJLr2k8624QNEg7a8FcIJLNg=", "properties": {"ref": "5902", "@spider": "camp_bow_wow", "addr:full": "14411 Foltz Parkway", "addr:city": "Strongsville", "addr:state": "OH", "addr:postcode": "44149", "addr:country": "US", "name": "Camp Bow Wow Strongsville", "phone": "4405723200"}, "geometry": {"type": "Point", "coordinates": [-81.8704965, 41.3096127]}},
{"type": "Feature", "id": "cDARiH44tCuz_EU7CYb2u57ZgIw=", "properties": {"ref": "5917", "@spider": "camp_bow_wow", "addr:full": "863 Bradley Rd", "addr:city": "Westlake", "addr:state": "OH", "addr:postcode": "44145", "addr:country": "US", "name": "Camp Bow Wow Westlake", "phone": "4408999100"}, "geometry": {"type": "Point", "coordinates": [-81.9594054, 41.4749701]}},
{"type": "Feature", "id": "-uIN8lirkSFKj0ih5F8K7uylmy0=", "properties": {"ref": "5769", "@spider": "camp_bow_wow", "addr:full": "14992 S. Grant St", "addr:city": "Bixby", "addr:state": "OK", "addr:postcode": "74008", "addr:country": "US", "name": "Camp Bow Wow Bixby", "phone": "9189436400"}, "geometry": {"type": "Point", "coordinates": [-95.89, 35.95]}},
{"type": "Feature", "id": "-Liyd4tTSA5WiwWFujhdlKhJlIA=", "properties": {"ref": "5807", "@spider": "camp_bow_wow", "addr:full": "801 Centennial Blvd", "addr:city": "Edmond", "addr:state": "OK", "addr:postcode": "73013", "addr:country": "US", "name": "Camp Bow Wow Edmond", "phone": "4053597297"}, "geometry": {"type": "Point", "coordinates": [-97.49464, 35.6286998]}},
{"type": "Feature", "id": "I4MvCy26xDYjIBiUlpNANr9BVAY=", "properties": {"ref": "5912", "@spider": "camp_bow_wow", "addr:full": "142 S 147th East Ave", "addr:city": "Tulsa", "addr:state": "OK", "addr:postcode": "74116", "addr:country": "US", "name": "Camp Bow Wow Tulsa", "phone": "9184373647"}, "geometry": {"type": "Point", "coordinates": [-95.81, 36.16]}},
{"type": "Feature", "id": "1y5clcJVxXfVRFEPqFFRSe7vl20=", "properties": {"ref": "8821", "@spider": "camp_bow_wow", "addr:full": "2900 SE Cornelius Pass Rd", "addr:city": "Hillsboro", "addr:state": "OR", "addr:postcode": "97123", "addr:country": "US", "name": "Camp Bow Wow Hillsboro", "phone": "9717703647"}, "geometry": {"type": "Point", "coordinates": [-122.9011099, 45.4991951]}},
{"type": "Feature", "id": "LgJje8LFagrLF7ww7w3me29lt2U=", "properties": {"ref": "9730", "@spider": "camp_bow_wow", "addr:full": "21655 SW Pacific Hwy", "addr:city": "Sherwood", "addr:state": "OR", "addr:postcode": "97140", "addr:country": "US", "name": "Camp Bow Wow Sherwood", "phone": "(503) 610-3191"}, "geometry": {"type": "Point", "coordinates": [-122.8522966, 45.3650345]}},
{"type": "Feature", "id": "OzAbX44yBwCPUgiAGQUdxUQ7RLM=", "properties": {"ref": "5757", "@spider": "camp_bow_wow", "addr:full": "470 Business Park Lane", "addr:city": "Allentown", "addr:state": "PA", "addr:postcode": "18109", "addr:country": "US", "name": "Camp Bow Wow Allentown", "phone": "6104352267"}, "geometry": {"type": "Point", "coordinates": [-75.4568217, 40.6284681]}},
{"type": "Feature", "id": "rgnTi2Xqophi6TU8F2nAu-IcYCU=", "properties": {"ref": "5868", "@spider": "camp_bow_wow", "addr:full": "2850 Comly Road", "addr:city": "Philadelphia", "addr:state": "PA", "addr:postcode": "19154", "addr:country": "US", "name": "Camp Bow Wow Philadelphia Northeast", "phone": "2156138223"}, "geometry": {"type": "Point", "coordinates": [-74.9969912, 40.099553]}},
{"type": "Feature", "id": "TZoH6RsCbW0GYxRuFqXrUBlEayA=", "properties": {"ref": "5870", "@spider": "camp_bow_wow", "addr:full": "1610 McClure Road", "addr:city": "Monroeville", "addr:state": "PA", "addr:postcode": "15146", "addr:country": "US", "name": "Camp Bow Wow Pittsburgh East", "phone": "7247332267"}, "geometry": {"type": "Point", "coordinates": [-79.710416, 40.4316983]}},
{"type": "Feature", "id": "fMFeLGpFbdj5WLHgs9mDJZpEmQA=", "properties": {"ref": "5871", "@spider": "camp_bow_wow", "addr:full": "1325 Washington Blvd", "addr:city": "Pittsburgh", "addr:state": "PA", "addr:postcode": "15206", "addr:country": "US", "name": "Camp Bow Wow Pittsburgh Highland Park", "phone": "4123627529"}, "geometry": {"type": "Point", "coordinates": [-79.9090734, 40.4684613]}},
{"type": "Feature", "id": "3in_fuQM-OVN6m_c3hNAFno1rPw=", "properties": {"ref": "5872", "@spider": "camp_bow_wow", "addr:full": "2327 Babcock Blvd", "addr:city": "Pittsburgh", "addr:state": "PA", "addr:postcode": "15237", "addr:country": "US", "name": "Camp Bow Wow Pittsburgh North", "phone": "4129319247"}, "geometry": {"type": "Point", "coordinates": [-80.0024407, 40.5134868]}},
{"type": "Feature", "id": "_133coqRABDC-9F3y5GyV5ewN-U=", "properties": {"ref": "5873", "@spider": "camp_bow_wow", "addr:full": "971 Killarney Dr", "addr:city": "Pittsburgh", "addr:state": "PA", "addr:postcode": "15234", "addr:country": "US", "name": "Camp Bow Wow Pittsburgh South", "phone": "4128852267"}, "geometry": {"type": "Point", "coordinates": [-80.0066342, 40.3745951]}},
{"type": "Feature", "id": "RfzsL2Ge2L5FW5A3xG0YUzWsELo=", "properties": {"ref": "5874", "@spider": "camp_bow_wow", "addr:full": "710 Trumbull Dr", "addr:city": "Pittsburgh", "addr:state": "PA", "addr:postcode": "15205", "addr:country": "US", "name": "Camp Bow Wow Pittsburgh SW", "phone": "4122769247"}, "geometry": {"type": "Point", "coordinates": [-80.0637078, 40.4144489]}},
{"type": "Feature", "id": "TFHKzOpaVkA03FCMtNWgs8bqs1Q=", "properties": {"ref": "6495", "@spider": "camp_bow_wow", "addr:full": "7 London Way", "addr:city": "Avondale", "addr:state": "PA", "addr:postcode": "19311", "addr:country": "US", "name": "Camp Bow Wow Avondale PA", "phone": "610-268-3647"}, "geometry": {"type": "Point", "coordinates": [-75.7931951, 39.835701]}},
{"type": "Feature", "id": "oR3Vh5E5B61BShZIoHNsLvK2WNk=", "properties": {"ref": "14901", "@spider": "camp_bow_wow", "addr:full": "41 Progress Ave", "addr:city": "Cranberry", "addr:state": "PA", "addr:postcode": "16066", "addr:country": "US", "name": "Camp Bow Wow Cranberry", "phone": "(724) 765-7297"}, "geometry": {"type": "Point", "coordinates": [-80.1086656, 40.7084111]}},
{"type": "Feature", "id": "XLLIod2S177wM7Qtrt3P96FuxvQ=", "properties": {"ref": "16473", "@spider": "camp_bow_wow", "addr:full": "532 Main Street", "addr:city": "Moosic", "addr:state": "PA", "addr:postcode": "18507", "addr:country": "US", "name": "Camp Bow Wow Scranton-Wilkes Barre", "phone": "5704717577"}, "geometry": {"type": "Point", "coordinates": [-75.7325154, 41.3555052]}},
{"type": "Feature", "id": "G0WZtNDYkU6JLXo9SfjDoo1YOLM=", "properties": {"ref": "5916", "@spider": "camp_bow_wow", "addr:full": "3 Keyes Way", "addr:city": "West Warwick", "addr:state": "RI", "addr:postcode": "02893", "addr:country": "US", "name": "Camp Bow Wow West Warwick", "phone": "4012503595"}, "geometry": {"type": "Point", "coordinates": [-71.506784, 41.6709213]}},
{"type": "Feature", "id": "Dy8M2Y15cUzePbFCKHhcwraLQ3o=", "properties": {"ref": "5781", "@spider": "camp_bow_wow", "addr:full": "1745 Clements Ferry Rd", "addr:city": "Charleston", "addr:state": "SC", "addr:postcode": "29492", "addr:country": "US", "name": "Camp Bow Wow Charleston", "phone": "8432162278"}, "geometry": {"type": "Point", "coordinates": [-79.8731908, 32.9221091]}},
{"type": "Feature", "id": "FSMOWkfyOUIlLnYgWY10DPBx0Ss=", "properties": {"ref": "5789", "@spider": "camp_bow_wow", "addr:full": "655 Superior St.", "addr:city": "Columbia", "addr:state": "SC", "addr:postcode": "29205", "addr:country": "US", "name": "Camp Bow Wow Columbia SC", "phone": "8037484544"}, "geometry": {"type": "Point", "coordinates": [-81.0140405, 33.9807831]}},
{"type": "Feature", "id": "GFV0QXgXSNzB3BbahXEEpMQvjXk=", "properties": {"ref": "5815", "@spider": "camp_bow_wow", "addr:full": "3536 Centre Circle", "addr:city": "Fort Mill", "addr:state": "SC", "addr:postcode": "29715", "addr:country": "US", "name": "Camp Bow Wow Fort Mill", "phone": "8035472267"}, "geometry": {"type": "Point", "coordinates": [-80.9239276, 35.0924863]}},
{"type": "Feature", "id": "96bQ6ZFQQ4TYrWEu3INGnb2XjdQ=", "properties": {"ref": "5820", "@spider": "camp_bow_wow", "addr:full": "602 Airport Road", "addr:city": "Greenville", "addr:state": "SC", "addr:postcode": "29607", "addr:country": "US", "name": "Camp Bow Wow Greenville", "phone": "8642201223"}, "geometry": {"type": "Point", "coordinates": [-82.3444683, 34.8441429]}},
{"type": "Feature", "id": "cdJOqwtklgKozOd-I3V-tfZkDbM=", "properties": {"ref": "5856", "@spider": "camp_bow_wow", "addr:full": "305 Bush Dr", "addr:city": "Myrtle Beach", "addr:state": "SC", "addr:postcode": "29579", "addr:country": "US", "name": "Camp Bow Wow Myrtle Beach", "phone": "8437969499"}, "geometry": {"type": "Point", "coordinates": [-78.9365586, 33.7180992]}},
{"type": "Feature", "id": "S9JX8HQbcx-BvF55zXsFdPqlCD8=", "properties": {"ref": "5879", "@spider": "camp_bow_wow", "addr:full": "110 Cooper Lane", "addr:city": "Powdersville", "addr:state": "SC", "addr:postcode": "29642", "addr:country": "US", "name": "Camp Bow Wow Powdersville", "phone": "8645685855"}, "geometry": {"type": "Point", "coordinates": [-82.4856771, 34.7846399]}},
{"type": "Feature", "id": "FhDXXQlRTa9BXLUAZRw44m-mwuQ=", "properties": {"ref": "5846", "@spider": "camp_bow_wow", "addr:full": "6108 Quince Road", "addr:city": "Memphis", "addr:state": "TN", "addr:postcode": "38119", "addr:country": "US", "name": "Camp Bow Wow Memphis Balmoral", "phone": "9018789663"}, "geometry": {"type": "Point", "coordinates": [-89.8594812, 35.0865257]}},
{"type": "Feature", "id": "Oe32bnjhUnIEHipBnWfgO8euRc4=", "properties": {"ref": "5847", "@spider": "camp_bow_wow", "addr:full": "2121 Whitten Road", "addr:city": "Memphis", "addr:state": "TN", "addr:postcode": "38133", "addr:country": "US", "name": "Camp Bow Wow Memphis East", "phone": "9013738757"}, "geometry": {"type": "Point", "coordinates": [-89.836506, 35.1834354]}},
{"type": "Feature", "id": "q9x1njYHq4uCWw56WvGUd8Fy_ho=", "properties": {"ref": "5855", "@spider": "camp_bow_wow", "addr:full": "3085 N. Mt Juliet Rd", "addr:city": "Mt. Juliet", "addr:state": "TN", "addr:postcode": "37122", "addr:country": "US", "name": "Camp Bow Wow Mt Juliet", "phone": "6157545787"}, "geometry": {"type": "Point", "coordinates": [-86.5153658, 36.2127841]}},
{"type": "Feature", "id": "0oMgt_Ni3E6kFbTV1EYYeGoJEhs=", "properties": {"ref": "5858", "@spider": "camp_bow_wow", "addr:full": "470 Craighead Street", "addr:city": "Nashville", "addr:state": "TN", "addr:postcode": "37204", "addr:country": "US", "name": "Camp Bow Wow Nashville - Downtown", "phone": "6153852275"}, "geometry": {"type": "Point", "coordinates": [-86.7690138, 36.1264403]}},
{"type": "Feature", "id": "RWvbBeme2smFaesDz4n-qNeJHM0=", "properties": {"ref": "5892", "@spider": "camp_bow_wow", "addr:full": "200 Weakley Lane", "addr:city": "Smyrna", "addr:state": "TN", "addr:postcode": "37167", "addr:country": "US", "name": "Camp Bow Wow Smyrna", "phone": "6156256230"}, "geometry": {"type": "Point", "coordinates": [-86.4956503, 36.0017155]}},
{"type": "Feature", "id": "_JynYAaZv8N78_ng0h9rE9TftnE=", "properties": {"ref": "5762", "@spider": "camp_bow_wow", "addr:full": "13900 IH-35", "addr:city": "Austin", "addr:state": "TX", "addr:postcode": "78728", "addr:country": "US", "name": "Camp Bow Wow Austin", "phone": "5126702275"}, "geometry": {"type": "Point", "coordinates": [-97.672276, 30.4281131]}},
{"type": "Feature", "id": "1nHJtEJgCKvW7pwQeHSV749uCt0=", "properties": {"ref": "5763", "@spider": "camp_bow_wow", "addr:full": "5200 Electric Ave", "addr:city": "Spicewood", "addr:state": "TX", "addr:postcode": "78669", "addr:country": "US", "name": "Camp Bow Wow Austin SW", "phone": "5122649663"}, "geometry": {"type": "Point", "coordinates": [-98.04, 30.34]}},
{"type": "Feature", "id": "tJySuXzc7OVjebqJ6XEKbqADSzA=", "properties": {"ref": "5793", "@spider": "camp_bow_wow", "addr:full": "769 S MacArthur Blvd", "addr:city": "Coppell", "addr:state": "TX", "addr:postcode": "75019", "addr:country": "US", "name": "Camp Bow Wow Coppell", "phone": "9723932267"}, "geometry": {"type": "Point", "coordinates": [-96.9592474, 32.9543876]}},
{"type": "Feature", "id": "TdeYruFflZZJCsfuSykURBhZ1ik=", "properties": {"ref": "5797", "@spider": "camp_bow_wow", "addr:full": "13730 Floyd Circle", "addr:city": "Dallas", "addr:state": "TX", "addr:postcode": "75243", "addr:country": "US", "name": "Camp Bow Wow Dallas High Five", "phone": "2145759663"}, "geometry": {"type": "Point", "coordinates": [-96.747852, 32.9330832]}},
{"type": "Feature", "id": "dMFUsvqYWOwuV8ekySED4rSa9IU=", "properties": {"ref": "5804", "@spider": "camp_bow_wow", "addr:full": "1104 S. Highway 67", "addr:city": "Cedar Hill", "addr:state": "TX", "addr:postcode": "75104", "addr:country": "US", "name": "Camp Bow Wow Cedar Hill", "phone": "9722969663"}, "geometry": {"type": "Point", "coordinates": [-96.9658367, 32.5688434]}},
{"type": "Feature", "id": "TG3kPuGnFv3DKHROTt1KKE53vFI=", "properties": {"ref": "5813", "@spider": "camp_bow_wow", "addr:full": "3434 Long Prairie Road", "addr:city": "Flower Mound", "addr:state": "TX", "addr:postcode": "75022", "addr:country": "US", "name": "Camp Bow Wow Flower Mound", "phone": "9724103647"}, "geometry": {"type": "Point", "coordinates": [-97.0690114, 33.0325579]}},
{"type": "Feature", "id": "zesq3oviAEyrOPRQNgakM2ebBAA=", "properties": {"ref": "5816", "@spider": "camp_bow_wow", "addr:full": "6411 Camp Bowie Blvd", "addr:city": "Fort Worth", "addr:state": "TX", "addr:postcode": "76116", "addr:country": "US", "name": "Camp Bow Wow Fort Worth West", "phone": "8177359663"}, "geometry": {"type": "Point", "coordinates": [-97.4233732, 32.7248509]}},
{"type": "Feature", "id": "SjNUT1SgSPe8901xV-HXOHbhsrM=", "properties": {"ref": "5827", "@spider": "camp_bow_wow", "addr:full": "600 Lemens Ave", "addr:city": "Hutto", "addr:state": "TX", "addr:postcode": "78634", "addr:country": "US", "name": "Camp Bow Wow Hutto", "phone": "8333645433"}, "geometry": {"type": "Point", "coordinates": [-97.5877095, 30.5644419]}},
{"type": "Feature", "id": "xI2LNVg9TMwkWh5iE3CYUP2WHQc=", "properties": {"ref": "5830", "@spider": "camp_bow_wow", "addr:full": "1515 Vander Wilt Lane", "addr:city": "Katy", "addr:state": "TX", "addr:postcode": "77449", "addr:country": "US", "name": "Camp Bow Wow Katy", "phone": "2818493647"}, "geometry": {"type": "Point", "coordinates": [-95.7404727, 29.7908295]}},
{"type": "Feature", "id": "V43oXghnVmowTOSzi6kyRPqKs9g=", "properties": {"ref": "5831", "@spider": "camp_bow_wow", "addr:full": "300 Anders Lane", "addr:city": "Kemah", "addr:state": "TX", "addr:postcode": "77565", "addr:country": "US", "name": "Camp Bow Wow Kemah", "phone": "2813342267"}, "geometry": {"type": "Point", "coordinates": [-95.0275516, 29.5304291]}},
{"type": "Feature", "id": "WFGtyedQk-RGbl8YHaQ8UO8VRTY=", "properties": {"ref": "5845", "@spider": "camp_bow_wow", "addr:full": "448 N Custer Rd", "addr:city": "McKinney", "addr:state": "TX", "addr:postcode": "75071", "addr:country": "US", "name": "Camp Bow Wow McKinney", "phone": "2145920440"}, "geometry": {"type": "Point", "coordinates": [-96.7305837, 33.2061578]}},
{"type": "Feature", "id": "Sgy7xT2CboOQh4JD7BrQ5ALFXHg=", "properties": {"ref": "5859", "@spider": "camp_bow_wow", "addr:full": "27616 Commerce Oaks Drive", "addr:city": "Oak Ridge North", "addr:state": "TX", "addr:postcode": "77385", "addr:country": "US", "name": "Camp Bow Wow Near The Woodlands Area", "phone": "8324822299"}, "geometry": {"type": "Point", "coordinates": [-95.4346251, 30.1576798]}},
{"type": "Feature", "id": "akd8dGt6hylnNWM7q6c5skv1OxI=", "properties": {"ref": "5875", "@spider": "camp_bow_wow", "addr:full": "2060 West Spring Creek Parkway", "addr:city": "Plano", "addr:state": "TX", "addr:postcode": "75023", "addr:country": "US", "name": "Camp Bow Wow Plano", "phone": "4693316223"}, "geometry": {"type": "Point", "coordinates": [-96.7321275, 33.0572475]}},
{"type": "Feature", "id": "2hoa-VXRj6s22UqN3uHBmclNcVg=", "properties": {"ref": "5884", "@spider": "camp_bow_wow", "addr:full": "11931 Jones Maltsberger Rd", "addr:city": "San Antonio", "addr:state": "TX", "addr:postcode": "78216", "addr:country": "US", "name": "Camp Bow Wow San Antonio Airport", "phone": "2108269969"}, "geometry": {"type": "Point", "coordinates": [-98.470657, 29.5507823]}},
{"type": "Feature", "id": "JL2IBxKhunFzsBwH4uCOh5-WjoE=", "properties": {"ref": "5885", "@spider": "camp_bow_wow", "addr:full": "5811 Rocky Point", "addr:city": "San Antonio", "addr:state": "TX", "addr:postcode": "78249", "addr:country": "US", "name": "Camp Bow Wow San Antonio Northwest", "phone": "2104959969"}, "geometry": {"type": "Point", "coordinates": [-98.6, 29.56]}},
{"type": "Feature", "id": "BkMUw2hZkjwgm5q-c8K5xP33o-8=", "properties": {"ref": "5901", "@spider": "camp_bow_wow", "addr:full": "20750 Stone Oak Parkway", "addr:city": "San Antonio", "addr:state": "TX", "addr:postcode": "78258", "addr:country": "US", "name": "Camp Bow Wow Stone Oak", "phone": "2104969969"}, "geometry": {"type": "Point", "coordinates": [-98.4579699, 29.6497646]}},
{"type": "Feature", "id": "9LJEoeZ2UoV8whzse2MPiGV8rJk=", "properties": {"ref": "5903", "@spider": "camp_bow_wow", "addr:full": "744 Crab River Rd", "addr:city": "Sugar Land", "addr:state": "TX", "addr:postcode": "77469", "addr:country": "US", "name": "Camp Bow Wow Sugar Land", "phone": "2815452275"}, "geometry": {"type": "Point", "coordinates": [-95.7, 29.54]}},
{"type": "Feature", "id": "M74aVGTQ1KNsnMIfj1-0ltyeiG4=", "properties": {"ref": "6085", "@spider": "camp_bow_wow", "addr:full": "7232 Wynnwood Ln", "addr:city": "Houston", "addr:state": "TX", "addr:postcode": "77008", "addr:country": "US", "name": "Camp Bow Wow Houston Greater Heights", "phone": "(713) 357-0070"}, "geometry": {"type": "Point", "coordinates": [-95.4458539, 29.7938882]}},
{"type": "Feature", "id": "e91Fj4wHQo8jdblbB7BzT5_hP2A=", "properties": {"ref": "6089", "@spider": "camp_bow_wow", "addr:full": "1840 Norwood Plaza", "addr:city": "Hurst", "addr:state": "TX", "addr:postcode": "76054", "addr:country": "US", "name": "Camp Bow Wow Colleyville", "phone": "817-330-9355"}, "geometry": {"type": "Point", "coordinates": [-97.1675359, 32.8495141]}},
{"type": "Feature", "id": "tN3oJqJRt-KveCvm5HUnEK7avsY=", "properties": {"ref": "6090", "@spider": "camp_bow_wow", "addr:full": "4604 Industrial St", "addr:city": "Rowlett", "addr:state": "TX", "addr:postcode": "75088", "addr:country": "US", "name": "Camp Bow Wow Rowlett", "phone": "4695436130"}, "geometry": {"type": "Point", "coordinates": [-96.5592813, 32.9063006]}},
{"type": "Feature", "id": "rDvKcahBAcSmK3bp5eOcfrIKL2o=", "properties": {"ref": "6091", "@spider": "camp_bow_wow", "addr:full": "13588 North Interstate 35", "addr:city": "Live Oak", "addr:state": "TX", "addr:postcode": "78233", "addr:country": "US", "name": "Camp Bow Wow Live Oak", "phone": "2105589969"}, "geometry": {"type": "Point", "coordinates": [-98.3939259, 29.5235642]}},
{"type": "Feature", "id": "Sf4D-M3hF26wTnymTIFW-7-BtXU=", "properties": {"ref": "6227", "@spider": "camp_bow_wow", "addr:full": "1200 Texan Trail", "addr:city": "Grapevine", "addr:state": "TX", "addr:postcode": "76051", "addr:country": "US", "name": "Camp Bow Wow Grapevine Airport", "phone": "8173297667"}, "geometry": {"type": "Point", "coordinates": [-97.0623646, 32.9307306]}},
{"type": "Feature", "id": "pTxT0LVhzg5xFvY6DHUDDzjfCes=", "properties": {"ref": "8280", "@spider": "camp_bow_wow", "addr:full": "2849 Old Chocolate Bayou Rd.", "addr:city": "Pearland", "addr:state": "TX", "addr:postcode": "77584", "addr:country": "US", "name": "Camp Bow Wow Pearland", "phone": "8326191095"}, "geometry": {"type": "Point", "coordinates": [-95.347491, 29.5464695]}},
{"type": "Feature", "id": "kqvei7Y42OXCqefRrN8SQWsM694=", "properties": {"ref": "9064", "@spider": "camp_bow_wow", "addr:full": "117 N Belt Line Road", "addr:city": "Grand Prairie", "addr:state": "TX", "addr:postcode": "75050", "addr:country": "US", "name": "Camp Bow Wow Grand Prairie", "phone": "972-264-3647"}, "geometry": {"type": "Point", "coordinates": [-96.9949664, 32.7467863]}},
{"type": "Feature", "id": "saNLouDz8P7TUcTgQ-gMLcsoOYw=", "properties": {"ref": "9287", "@spider": "camp_bow_wow", "addr:full": "16641 Telge Road", "addr:city": "Cypress", "addr:state": "TX", "addr:postcode": "77429", "addr:country": "US", "name": "Camp Bow Wow Cypress", "phone": "281-826-9981"}, "geometry": {"type": "Point", "coordinates": [-95.6553507, 30.0161443]}},
{"type": "Feature", "id": "jLtFhE4k6LFtsNtB_c_SSC2bsvY=", "properties": {"ref": "9567", "@spider": "camp_bow_wow", "addr:full": "207 Colonnade Parkway", "addr:city": "Woodway", "addr:state": "TX", "addr:postcode": "76712", "addr:country": "US", "name": "Camp Bow Wow Waco", "phone": "254-300-1491"}, "geometry": {"type": "Point", "coordinates": [-97.1998235, 31.5034493]}},
{"type": "Feature", "id": "FKav6OrGf4Qu76cqXgtI0_StqGQ=", "properties": {"ref": "14765", "@spider": "camp_bow_wow", "addr:full": "1751 Eastchase Parkway", "addr:city": "Fort Worth", "addr:state": "TX", "addr:postcode": "76120", "addr:country": "US", "name": "Camp Bow Wow Fort Worth East", "phone": "(682) 207-2296"}, "geometry": {"type": "Point", "coordinates": [-97.170061, 32.7535136]}},
{"type": "Feature", "id": "JemDfg7L7ZO_N4nzBm4riw3LHXc=", "properties": {"ref": "14882", "@spider": "camp_bow_wow", "addr:full": "11310 West County Road 100", "addr:city": "Odessa", "addr:state": "TX", "addr:postcode": "79765", "addr:country": "US", "name": "Camp Bow Wow Petroplex", "phone": "(432) 254-4411"}, "geometry": {"type": "Point", "coordinates": [-102.246049, 31.943579]}},
{"type": "Feature", "id": "xTOK4tYZHwpTD3MFX5Gl9nSVtJc=", "properties": {"ref": "14996", "@spider": "camp_bow_wow", "addr:full": "7803 Hansen Rd", "addr:city": "Houston", "addr:state": "TX", "addr:postcode": "77061", "addr:country": "US", "name": "Camp Bow Wow Houston-Hobby", "phone": "2816728617"}, "geometry": {"type": "Point", "coordinates": [-95.2578744, 29.6558505]}},
{"type": "Feature", "id": "H-wzopzPJ9TMpNfK1JPghKPAQ2U=", "properties": {"ref": "15068", "@spider": "camp_bow_wow", "addr:full": "11321 N Sam Houston Parkway E", "addr:city": "Humble", "addr:state": "TX", "addr:postcode": "77396", "addr:country": "US", "name": "Camp Bow Wow Humble", "phone": "8323043641"}, "geometry": {"type": "Point", "coordinates": [-95.2185113, 29.9353035]}},
{"type": "Feature", "id": "oKXsdLPgHNh--_wH8sbHkHr8qTo=", "properties": {"ref": "5894", "@spider": "camp_bow_wow", "addr:full": "475 W 3600 South", "addr:city": "Salt Lake City", "addr:state": "UT", "addr:postcode": "84115", "addr:country": "US", "name": "Camp Bow Wow South Salt Lake", "phone": "8012882275"}, "geometry": {"type": "Point", "coordinates": [-111.9046473, 40.693189]}},
{"type": "Feature", "id": "3eBtZyp0yvrjfLPAd1nSOp7FaAw=", "properties": {"ref": "14883", "@spider": "camp_bow_wow", "addr:full": "9495 South 700 East", "addr:city": "Sandy", "addr:state": "UT", "addr:postcode": "84070", "addr:country": "US", "name": "Camp Bow Wow Sandy", "phone": "(801) 896-4221"}, "geometry": {"type": "Point", "coordinates": [-111.8706463, 40.5787121]}},
{"type": "Feature", "id": "8p96n2ZjumQk_bdJRhwsaw89REY=", "properties": {"ref": "5852", "@spider": "camp_bow_wow", "addr:full": "16642 146th St SE", "addr:city": "Monroe", "addr:state": "WA", "addr:postcode": "98272", "addr:country": "US", "name": "Camp Bow Wow Monroe", "phone": "3608623040"}, "geometry": {"type": "Point", "coordinates": [-122.0076812, 47.8641487]}},
{"type": "Feature", "id": "98dU1DAOh7SXz90xjofRfHV9WbA=", "properties": {"ref": "5891", "@spider": "camp_bow_wow", "addr:full": "11762 Clear Creek Road NW", "addr:city": "Silverdale", "addr:state": "WA", "addr:postcode": "98383", "addr:country": "US", "name": "Camp Bow Wow Silverdale", "phone": "3608133130"}, "geometry": {"type": "Point", "coordinates": [-122.6906056, 47.6706335]}},
{"type": "Feature", "id": "wOXJ-baqH_-SdbL64Xy4nwWJrQo=", "properties": {"ref": "13037", "@spider": "camp_bow_wow", "addr:full": "5810 S 11th St", "addr:city": "Ridgefield", "addr:state": "WA", "addr:postcode": "98642", "addr:country": "US", "name": "Camp Bow Wow Ridgefield", "phone": "(360) 883-5730"}, "geometry": {"type": "Point", "coordinates": [-122.6874316, 45.8078194]}},
{"type": "Feature", "id": "8SCCGtdxATJMTfoV7Ar8Q2B32-w=", "properties": {"ref": "5913", "@spider": "camp_bow_wow", "addr:full": "1707 Paramount Ct", "addr:city": "Waukesha", "addr:state": "WI", "addr:postcode": "53186", "addr:country": "US", "name": "Camp Bow Wow Waukesha", "phone": "2625479663"}, "geometry": {"type": "Point", "coordinates": [-88.1975246, 43.0236709]}},
{"type": "Feature", "id": "zQL6ocqqO0rXq6FIYftDsr9ucFo=", "properties": {"ref": "6172", "@spider": "camp_bow_wow", "addr:full": "8411 S. Liberty Lane", "addr:city": "Oak Creek", "addr:state": "WI", "addr:postcode": "53154", "addr:country": "US", "name": "Camp Bow Wow Oak Creek", "phone": "4148082275"}, "geometry": {"type": "Point", "coordinates": [-87.9201311, 42.891632]}}]}