{"type":"FeatureCollection","features":[{"type": "Feature", "id": "hNrcDEn-Jbj6ZgVs6iofmV9uicA=", "properties": {"ref": "65164", "location_type": "cafe", "@spider": "capital_one", "addr:full": "625 SW Broadway", "addr:city": "Portland", "addr:state": "OR", "addr:postcode": "97205", "name": "Pioneer Courthouse Square", "phone": "(503) 821-0254", "website": "https://locations.capitalone.com/bank/OR/Portland-Pioneer-Courthouse-Square-cafe-65164", "opening_hours": "Mo-Fr 07:00-07:00; Sa-Su 09:00-09:00", "brand": "Capital One", "brand:wikidata": "Q1034654"}, "geometry": {"type": "Point", "coordinates": [-122.679771, 45.51947]}},
{"type": "Feature", "id": "12AvbnQDDwGlr7yVyOtNfIctb8g=", "properties": {"ref": "65160", "location_type": "cafe", "@spider": "capital_one", "addr:full": "333 Westlake Avenue N.", "addr:city": "Seattle", "addr:state": "WA", "addr:postcode": "98109", "name": "South Lake Union", "phone": "(206) 701-1335", "website": "https://locations.capitalone.com/bank/WA/Seattle-South-Lake-Union-cafe-65160", "opening_hours": "Mo-Fr 07:00-07:00; Sa 09:00-09:00", "brand": "Capital One", "brand:wikidata": "Q1034654"}, "geometry": {"type": "Point", "coordinates": [-122.338879, 47.621874]}},
{"type": "Feature", "id": "GgfulVwur0GVn5AQFggK7BWUm90=", "properties": {"ref": "65161", "location_type": "cafe", "@spider": "capital_one", "addr:full": "400 Bellevue Way NE", "addr:city": "Bellevue", "addr:state": "WA", "addr:postcode": "98004", "name": "Bellevue", "phone": "(425) 372-0250", "website": "https://locations.capitalone.com/bank/WA/-Bellevue-cafe-65161", "opening_hours": "Mo-Sa 08:00-08:00; Su 10:00-10:00", "brand": "Capital One", "brand:wikidata": "Q1034654"}, "geometry": {"type": "Point", "coordinates": [-122.201378, 47.614072]}},
{"type": "Feature", "id": "iFZPMzjqCGi97pUhqtVbFs7F28M=", "properties": {"ref": "27255", "location_type": "cafe", "@spider": "capital_one", "addr:full": "101 Post St.", "addr:city": "San Francisco", "addr:state": "CA", "addr:postcode": "94108", "name": "Union Square", "phone": "(415) 248-4920", "website": "https://locations.capitalone.com/bank/CA/San-Francisco-Union-Square-cafe-27255", "opening_hours": "Mo-Fr 07:00-07:00", "brand": "Capital One", "brand:wikidata": "Q1034654"}, "geometry": {"type": "Point", "coordinates": [-122.403901, 37.788756]}},
{"type": "Feature", "id": "FKwX0ychQUBjQ59Zh_WS1NfN5gY=", "properties": {"ref": "65125", "location_type": "cafe", "@spider": "capital_one", "addr:full": "1139 S Main St.", "addr:city": "Walnut Creek", "addr:state": "CA", "addr:postcode": "94596", "name": "Walnut Creek", "phone": "(925) 298-8375", "website": "https://locations.capitalone.com/bank/CA/-Walnut-Creek-cafe-65125", "opening_hours": "Mo-Sa 08:00-08:00; Su 09:00-09:00", "brand": "Capital One", "brand:wikidata": "Q1034654"}, "geometry": {"type": "Point", "coordinates": [-122.060268, 37.896861]}},
{"type": "Feature", "id": "ldZLb9kHUqDcUSgnceBaZE09ALs=", "properties": {"ref": "65128", "location_type": "cafe", "@spider": "capital_one", "addr:full": "2855 Stevens Creek Boulevard, Suite #1155", "addr:city": "Santa Clara", "addr:state": "CA", "addr:postcode": "95050", "name": "Westfield Valley Fair", "phone": "(408) 367-1717", "website": "https://locations.capitalone.com/bank/CA/Santa-Clara-Westfield-Valley-Fair-cafe-65128", "opening_hours": "Mo-Sa 10:00-10:00; Su 11:00-11:00", "brand": "Capital One", "brand:wikidata": "Q1034654"}, "geometry": {"type": "Point", "coordinates": [-121.947074, 37.325028]}},
{"type": "Feature", "id": "tdBYby9TGytZ--ZB4iyMxnQesg4=", "properties": {"ref": "65226", "location_type": "cafe", "@spider": "capital_one", "addr:full": "1151 Galleria Blvd Ste 145", "addr:city": "Roseville", "addr:state": "CA", "addr:postcode": "95678", "name": "Westfield Galleria at Roseville", "phone": "(916) 839-5099", "website": "https://locations.capitalone.com/bank/CA/-Westfield-Galleria-at-Roseville-cafe-65226", "opening_hours": "Mo-Th 10:00-10:00; Fr-Sa 09:00-09:00; Su 10:00-10:00", "brand": "Capital One", "brand:wikidata": "Q1034654"}, "geometry": {"type": "Point", "coordinates": [-121.269544, 38.772961]}},
{"type": "Feature", "id": "i5XJ0MEkkWx8316hy5xs2To7fdU=", "properties": {"ref": "65123", "location_type": "cafe", "@spider": "capital_one", "addr:full": "6801 Hollywood Blvd Suite #155", "addr:city": "Los Angeles", "addr:state": "CA", "addr:postcode": "90028", "name": "Hollywood", "phone": "(323) 603-0123", "website": "https://locations.capitalone.com/bank/CA/Los-Angeles-Hollywood-cafe-65123", "opening_hours": "Mo-Sa 08:00-08:00; Su 10:00-10:00", "brand": "Capital One", "brand:wikidata": "Q1034654"}, "geometry": {"type": "Point", "coordinates": [-118.339601, 34.101744]}},
{"type": "Feature", "id": "cFoCOizemrtW2eyW-cH96NCBwUM=", "properties": {"ref": "65120", "location_type": "cafe", "@spider": "capital_one", "addr:full": "401 Broadway", "addr:city": "Santa Monica", "addr:state": "CA", "addr:postcode": "90401", "name": "Santa Monica", "phone": "(818) 539-2384", "website": "https://locations.capitalone.com/bank/CA/-Santa-Monica-cafe-65120", "opening_hours": "Mo-Fr 08:00-08:00; Sa-Su 09:00-09:00", "brand": "Capital One", "brand:wikidata": "Q1034654"}, "geometry": {"type": "Point", "coordinates": [-118.493462, 34.015422]}},
{"type": "Feature", "id": "U-xq9jAbkF5zUKDHy6w1r6rl1A8=", "properties": {"ref": "65121", "location_type": "cafe", "@spider": "capital_one", "addr:full": "801 S Grand Ave. Suite 101", "addr:city": "Los Angeles", "addr:state": "CA", "addr:postcode": "90017", "name": "Downtown LA", "phone": "(818) 539-2385", "website": "https://locations.capitalone.com/bank/CA/Los-Angeles-Downtown-LA-cafe-65121", "opening_hours": "Mo-Fr 07:00-07:00; Sa-Su 10:00-10:00", "brand": "Capital One", "brand:wikidata": "Q1034654"}, "geometry": {"type": "Point", "coordinates": [-118.258487, 34.045585]}},
{"type": "Feature", "id": "5FSLyvczaBz7DEpjUXqBkspB1XM=", "properties": {"ref": "65122", "location_type": "cafe", "@spider": "capital_one", "addr:full": "821 Americana Way", "addr:city": "Glendale", "addr:state": "CA", "addr:postcode": "91210", "name": "Glendale", "phone": "(818) 539-2383", "website": "https://locations.capitalone.com/bank/CA/-Glendale-cafe-65122", "opening_hours": "Mo-Su 10:00-10:00", "brand": "Capital One", "brand:wikidata": "Q1034654"}, "geometry": {"type": "Point", "coordinates": [-118.255299, 34.144579]}},
{"type": "Feature", "id": "mdrlsTcaSjmJPkzA4YrByXklajE=", "properties": {"ref": "65135", "location_type": "cafe", "@spider": "capital_one", "addr:full": "6600 Topanga Canyon Blvd Suite 1038", "addr:city": "Canoga Park", "addr:state": "CA", "addr:postcode": "91303", "name": "Westfield Topanga", "phone": "(818) 737-7839", "website": "https://locations.capitalone.com/bank/CA/Canoga-Park-Westfield-Topanga-cafe-65135", "opening_hours": "Mo-Sa 10:00-10:00; Su 11:00-11:00", "brand": "Capital One", "brand:wikidata": "Q1034654"}, "geometry": {"type": "Point", "coordinates": [-118.602567, 34.189707]}},
{"type": "Feature", "id": "WIPVjK4kzPoInPKk4wpvWUBsKBk=", "properties": {"ref": "65117", "location_type": "cafe", "@spider": "capital_one", "addr:full": "757 Spectrum Center Drive", "addr:city": "Irvine", "addr:state": "CA", "addr:postcode": "92618", "name": "Irvine Spectrum", "phone": "(949) 656-2449", "website": "https://locations.capitalone.com/bank/CA/-Irvine-Spectrum-cafe-65117", "opening_hours": "Mo-Su 09:00-09:00", "brand": "Capital One", "brand:wikidata": "Q1034654"}, "geometry": {"type": "Point", "coordinates": [-117.743685, 33.650042]}},
{"type": "Feature", "id": "m8kknT5SXjgMrwz-DaCcE4NCPWM=", "properties": {"ref": "65200", "location_type": "cafe", "@spider": "capital_one", "addr:full": "4311 La Jolla Village Dr. Suite #M2235", "addr:city": "San Diego", "addr:state": "CA", "addr:postcode": "92122", "name": "Westfield UTC", "phone": "(619) 403-5761", "website": "https://locations.capitalone.com/bank/CA/San-Diego-Westfield-UTC-cafe-65200", "opening_hours": "Mo-Sa 09:00-09:00; Su 10:00-10:00", "brand": "Capital One", "brand:wikidata": "Q1034654"}, "geometry": {"type": "Point", "coordinates": [-117.212927, 32.870224]}},
{"type": "Feature", "id": "F3PLjfafu6qHy6VyMDL__ST5FUE=", "properties": {"ref": "65118", "location_type": "cafe", "@spider": "capital_one", "addr:full": "12520 South Mainstreet, Suite 1720", "addr:city": "Rancho Cucamonga", "addr:state": "CA", "addr:postcode": "91739", "name": "Victoria Gardens", "phone": "(909) 689-4945", "website": "https://locations.capitalone.com/bank/CA/Rancho-Cucamonga-Victoria-Gardens-cafe-65118", "opening_hours": "Mo-Sa 09:00-09:00; Su 10:00-10:00", "brand": "Capital One", "brand:wikidata": "Q1034654"}, "geometry": {"type": "Point", "coordinates": [-117.532161, 34.111038]}},
{"type": "Feature", "id": "55VJvaQbnByfNRq24jywMy21uZ4=", "properties": {"ref": "65225", "location_type": "cafe", "@spider": "capital_one", "addr:full": "3200 Las Vegas Blvd South #1110", "addr:city": "Las Vegas", "addr:state": "NV", "addr:postcode": "89109", "name": "Fashion Show", "phone": "(725) 240-9166", "website": "https://locations.capitalone.com/bank/NV/Las-Vegas-Fashion-Show-cafe-65225", "opening_hours": "Mo-Th 11:00-11:00; Fr-Sa 10:00-10:00; Su 11:00-11:00", "brand": "Capital One", "brand:wikidata": "Q1034654"}, "geometry": {"type": "Point", "coordinates": [-115.16977, 36.127788]}},
{"type": "Feature", "id": "UnbrWi2RV-VazO69omLofJVCrqM=", "properties": {"ref": "65127", "location_type": "cafe", "@spider": "capital_one", "addr:full": "7014 E Camelback Road, Suite 1459", "addr:city": "Scottsdale", "addr:state": "AZ", "addr:postcode": "85251", "name": "Scottsdale Fashion Square", "phone": "(480) 573-4433", "website": "https://locations.capitalone.com/bank/AZ/-Scottsdale-Fashion-Square-cafe-65127", "opening_hours": "Mo-Sa 09:00-09:00; Su 11:00-11:00", "brand": "Capital One", "brand:wikidata": "Q1034654"}, "geometry": {"type": "Point", "coordinates": [-111.926986, 33.503399]}},
{"type": "Feature", "id": "O2wuBBp9GeB_kTi8ndyzkXPxoR8=", "properties": {"ref": "65141", "location_type": "cafe", "@spider": "capital_one", "addr:full": "1247 Pearl St.", "addr:city": "Boulder", "addr:state": "CO", "addr:postcode": "80302", "name": "Boulder", "phone": "(303) 209-0017", "website": "https://locations.capitalone.com/bank/CO/-Boulder-cafe-65141", "opening_hours": "Mo-Fr 07:00-07:00; Sa-Su 09:00-09:00", "brand": "Capital One", "brand:wikidata": "Q1034654"}, "geometry": {"type": "Point", "coordinates": [-105.278949, 40.018287]}},
{"type": "Feature", "id": "aupa2qw8sg4DfRdlgkbPsKNDOz0=", "properties": {"ref": "65140", "location_type": "cafe", "@spider": "capital_one", "addr:full": "1550 Wewatta St.", "addr:city": "Denver", "addr:state": "CO", "addr:postcode": "80202", "name": "Union Station LoDo", "phone": "(720) 808-5241", "website": "https://locations.capitalone.com/bank/CO/Denver-Union-Station-LoDo-cafe-65140", "opening_hours": "Mo-Fr 07:00-07:00", "brand": "Capital One", "brand:wikidata": "Q1034654"}, "geometry": {"type": "Point", "coordinates": [-105.002518, 39.752903]}},
{"type": "Feature", "id": "sPbEybTvxhV_8xrG7VfjjB7yYEI=", "properties": {"ref": "65228", "location_type": "cafe", "@spider": "capital_one", "addr:full": "15900 La Cantera Pkwy, Ste 6560", "addr:city": "San Antonio", "addr:state": "TX", "addr:postcode": "78256", "name": "La Cantera", "phone": "(210) 390-3617", "website": "https://locations.capitalone.com/bank/TX/San-Antonio-La-Cantera-cafe-65228", "opening_hours": "Mo-Sa 10:00-10:00; Su 11:00-11:00", "brand": "Capital One", "brand:wikidata": "Q1034654"}, "geometry": {"type": "Point", "coordinates": [-98.615144, 29.593297]}},
{"type": "Feature", "id": "uX9DY2u46yEy78W8-kAI5cd_cS4=", "properties": {"ref": "41619", "location_type": "branch", "@spider": "capital_one", "addr:full": "2910 S Lakeline Blvd.", "addr:city": "Cedar Park", "addr:state": "TX", "addr:postcode": "78613", "name": "Lakeline Blvd", "phone": "(737) 703-3799", "website": "https://locations.capitalone.com/bank/TX/Cedar-Park-Lakeline-Blvd-branch-41619", "opening_hours": "Mo-Sa 09:00-09:00", "brand": "Capital One", "brand:wikidata": "Q1034654"}, "geometry": {"type": "Point", "coordinates": [-97.805322, 30.478787]}},
{"type": "Feature", "id": "EcgLpEZy5Lo_UJMUMqC3D6OSvUo=", "properties": {"ref": "65185", "location_type": "cafe", "@spider": "capital_one", "addr:full": "11801 Domain Blvd. Suite 160", "addr:city": "Austin", "addr:state": "TX", "addr:postcode": "78758", "name": "Domain", "phone": "(512) 362-7194", "website": "https://locations.capitalone.com/bank/TX/Austin-Domain-cafe-65185", "opening_hours": "Mo-Sa 09:00-09:00; Su 10:00-10:00", "brand": "Capital One", "brand:wikidata": "Q1034654"}, "geometry": {"type": "Point", "coordinates": [-97.721278, 30.405161]}},
{"type": "Feature", "id": "-U3hvR6vsTpcIxgS_o8TA9cjx_Q=", "properties": {"ref": "65186", "location_type": "cafe", "@spider": "capital_one", "addr:full": "106 E 6th St. Suite 100", "addr:city": "Austin", "addr:state": "TX", "addr:postcode": "78701", "name": "Downtown Austin", "phone": "(512) 362-7195", "website": "https://locations.capitalone.com/bank/TX/-Downtown-Austin-cafe-65186", "opening_hours": "Mo-Fr 07:00-07:00; Sa 08:00-08:00", "brand": "Capital One", "brand:wikidata": "Q1034654"}, "geometry": {"type": "Point", "coordinates": [-97.742379, 30.268073]}},
{"type": "Feature", "id": "nWxayPbvWEbvIx3x4JZnbP6BCaM=", "properties": {"ref": "41875", "location_type": "branch", "@spider": "capital_one", "addr:full": "2301 East Riverside Drive", "addr:city": "Austin", "addr:state": "TX", "addr:postcode": "78741", "name": "Willowcreek", "phone": "(512) 342-4600", "website": "https://locations.capitalone.com/bank/TX/Austin-Willowcreek-branch-41875", "opening_hours": "Mo-Sa 09:00-09:00", "brand": "Capital One", "brand:wikidata": "Q1034654"}, "geometry": {"type": "Point", "coordinates": [-97.726108, 30.236505]}},
{"type": "Feature", "id": "hViF2zLCwxqUoRgWbuP537mWrD4=", "properties": {"ref": "41962", "location_type": "branch", "@spider": "capital_one", "addr:full": "4000 Waller Creek", "addr:city": "Highland Village", "addr:state": "TX", "addr:postcode": "75077", "name": "Highland Village", "phone": "(469) 702-3703", "website": "https://locations.capitalone.com/bank/TX/Denton-County-Highland-Village-branch-41962", "opening_hours": "Mo-Fr 09:00-09:00", "brand": "Capital One", "brand:wikidata": "Q1034654"}, "geometry": {"type": "Point", "coordinates": [-97.084035, 33.073488]}},
{"type": "Feature", "id": "R66g_TPbfXeXhhOEQU7kbnwt0Pk=", "properties": {"ref": "41998", "location_type": "branch", "@spider": "capital_one", "addr:full": "105 S. Denton Tap Road", "addr:city": "Coppell", "addr:state": "TX", "addr:postcode": "75019", "name": "Coppell", "phone": "(469) 496-3630", "website": "https://locations.capitalone.com/bank/TX/Dallas-County-Coppell-branch-41998", "opening_hours": "Mo-Fr 09:00-09:00", "brand": "Capital One", "brand:wikidata": "Q1034654"}, "geometry": {"type": "Point", "coordinates": [-96.994122, 32.969021]}},
{"type": "Feature", "id": "b8QElnkScqX8BP1-6KcRhApjJxI=", "properties": {"ref": "41990", "location_type": "branch", "@spider": "capital_one", "addr:full": "4111 Gaston Ave.", "addr:city": "Dallas", "addr:state": "TX", "addr:postcode": "75246", "name": "Gaston & Haskell", "phone": "(972) 364-6735", "website": "https://locations.capitalone.com/bank/TX/Dallas-Gaston-and-Haskell-branch-41990", "opening_hours": "Mo-Fr 09:00-09:00", "brand": "Capital One", "brand:wikidata": "Q1034654"}, "geometry": {"type": "Point", "coordinates": [-96.776845, 32.794352]}},
{"type": "Feature", "id": "BPftC4OHp6suUljIQAUCSqATj5g=", "properties": {"ref": "41955", "location_type": "branch", "@spider": "capital_one", "addr:full": "4975 North O' Connor Rd", "addr:city": "Irving", "addr:state": "TX", "addr:postcode": "75062", "name": "O'Connor Rd", "phone": "(972) 364-5420", "website": "https://locations.capitalone.com/bank/TX/Irving-OConnor-Rd-branch-41955", "opening_hours": "Mo-Sa 09:00-09:00", "brand": "Capital One", "brand:wikidata": "Q1034654"}, "geometry": {"type": "Point", "coordinates": [-96.946017, 32.86714]}},
{"type": "Feature", "id": "203Lra3ZawXtWPBi0au8L-i-3ns=", "properties": {"ref": "41997", "location_type": "branch", "@spider": "capital_one", "addr:full": "3647 W. Northwest Highway", "addr:city": "Dallas", "addr:state": "TX", "addr:postcode": "75220", "name": "NW Hwy & Webb Chapel", "phone": "(972) 729-2969", "website": "https://locations.capitalone.com/bank/TX/Dallas-NW-Hwy-and-Webb-Chapel-branch-41997", "opening_hours": "Mo-Fr 09:00-09:00", "brand": "Capital One", "brand:wikidata": "Q1034654"}, "geometry": {"type": "Point", "coordinates": [-96.858309, 32.860661]}},
{"type": "Feature", "id": "yunvHPR0599rDlMY_jXVhghnBHM=", "properties": {"ref": "41904", "location_type": "branch", "@spider": "capital_one", "addr:full": "6161 Retail Road", "addr:city": "Dallas", "addr:state": "TX", "addr:postcode": "75231", "name": "Timbercreek", "phone": "(214) 414-3882", "website": "https://locations.capitalone.com/bank/TX/Dallas-Timbercreek-branch-41904", "opening_hours": "Mo-Fr 09:00-09:00", "brand": "Capital One", "brand:wikidata": "Q1034654"}, "geometry": {"type": "Point", "coordinates": [-96.756147, 32.862095]}},
{"type": "Feature", "id": "q0p1MaiKtMc4erAsFoc3tKHc3z8=", "properties": {"ref": "41992", "location_type": "branch", "@spider": "capital_one", "addr:full": "2903 Forest Lane", "addr:city": "Dallas", "addr:state": "TX", "addr:postcode": "75234", "name": "Forest & Josey", "phone": "(972) 364-5400", "website": "https://locations.capitalone.com/bank/TX/Dallas-Forest-and-Josey-branch-41992", "opening_hours": "Mo-Sa 09:00-09:00", "brand": "Capital One", "brand:wikidata": "Q1034654"}, "geometry": {"type": "Point", "coordinates": [-96.880902, 32.909838]}},
{"type": "Feature", "id": "XbUhe0_L8lIV_bh1mDdhZfTYRDA=", "properties": {"ref": "41956", "location_type": "branch", "@spider": "capital_one", "addr:full": "2015 Northwest Hwy", "addr:city": "Garland", "addr:state": "TX", "addr:postcode": "75041", "name": "South Garland", "phone": "(972) 364-6795", "website": "https://locations.capitalone.com/bank/TX/Dallas-County-South-Garland-branch-41956", "opening_hours": "Mo-Sa 09:00-09:00", "brand": "Capital One", "brand:wikidata": "Q1034654"}, "geometry": {"type": "Point", "coordinates": [-96.658481, 32.864498]}},
{"type": "Feature", "id": "ZR-oQZXpn33DZsIKVhqa-5oMmLQ=", "properties": {"ref": "41616", "location_type": "branch", "@spider": "capital_one", "addr:full": "101 East Stacy Road", "addr:city": "Fairview", "addr:state": "TX", "addr:postcode": "75069", "name": "Stacy Road", "phone": "(972) 515-2025", "website": "https://locations.capitalone.com/bank/TX/Fairview-Stacy-Road-branch-41616", "opening_hours": "Mo-Fr 09:00-09:00", "brand": "Capital One", "brand:wikidata": "Q1034654"}, "geometry": {"type": "Point", "coordinates": [-96.656909, 33.130488]}},
{"type": "Feature", "id": "d6mhVXnFfA-kloj3u3nhqbAlrdY=", "properties": {"ref": "41916", "location_type": "branch", "@spider": "capital_one", "addr:full": "1221 East Spring Creek Pkwy", "addr:city": "Plano", "addr:state": "TX", "addr:postcode": "75074", "name": "East Plano", "phone": "(972) 364-6400", "website": "https://locations.capitalone.com/bank/TX/Collin-County-East-Plano-branch-41916", "opening_hours": "Mo-Sa 09:00-09:00", "brand": "Capital One", "brand:wikidata": "Q1034654"}, "geometry": {"type": "Point", "coordinates": [-96.690344, 33.057645]}},
{"type": "Feature", "id": "3BIhuEnZsLuOFImYnnjtFpE6YIg=", "properties": {"ref": "41930", "location_type": "branch", "@spider": "capital_one", "addr:full": "8989 Preston Rd", "addr:city": "Frisco", "addr:state": "TX", "addr:postcode": "75034", "name": "Frisco Main", "phone": "(972) 364-6445", "website": "https://locations.capitalone.com/bank/TX/Collin-County-Frisco-Main-branch-41930", "opening_hours": "Mo-Sa 09:00-09:00", "brand": "Capital One", "brand:wikidata": "Q1034654"}, "geometry": {"type": "Point", "coordinates": [-96.804079, 33.152016]}},
{"type": "Feature", "id": "SfCySIVi7q17hN9FPe4di-nvNBc=", "properties": {"ref": "41999", "location_type": "branch", "@spider": "capital_one", "addr:full": "2000 Preston Road", "addr:city": "Plano", "addr:state": "TX", "addr:postcode": "75093", "name": "Park and Preston", "phone": "(469) 782-3886", "website": "https://locations.capitalone.com/bank/TX/Plano-Park-and-Preston-branch-41999", "opening_hours": "Mo-Fr 09:00-09:00", "brand": "Capital One", "brand:wikidata": "Q1034654"}, "geometry": {"type": "Point", "coordinates": [-96.794034, 33.027894]}},
{"type": "Feature", "id": "MBXd8XjSE6xE835Dib2hKNVtVTg=", "properties": {"ref": "41770", "location_type": "branch", "@spider": "capital_one", "addr:full": "23910 Westheimer Pkwy", "addr:city": "Katy", "addr:state": "TX", "addr:postcode": "77494", "name": "Cinco Ranch", "phone": "(281) 392-5550", "website": "https://locations.capitalone.com/bank/TX/Katy-Cinco-Ranch-branch-41770", "opening_hours": "Mo-Sa 09:00-09:00", "brand": "Capital One", "brand:wikidata": "Q1034654"}, "geometry": {"type": "Point", "coordinates": [-95.778664, 29.736425]}},
{"type": "Feature", "id": "12L8-xo-CSyK45arHRyfPofbSeE=", "properties": {"ref": "41864", "location_type": "branch", "@spider": "capital_one", "addr:full": "7601 South Broadway", "addr:city": "Tyler", "addr:state": "TX", "addr:postcode": "75703", "name": "Tyler TX", "phone": "(903) 579-9790", "website": "https://locations.capitalone.com/bank/TX/Smith-County-Tyler-TX-branch-41864", "opening_hours": "Mo-Sa 09:00-09:00", "brand": "Capital One", "brand:wikidata": "Q1034654"}, "geometry": {"type": "Point", "coordinates": [-95.308182, 32.266061]}},
{"type": "Feature", "id": "C53TryCFVMtfXRiqdiE1z06waKs=", "properties": {"ref": "41709", "location_type": "branch", "@spider": "capital_one", "addr:full": "2404 Research Forest Dr", "addr:city": "Spring", "addr:state": "TX", "addr:postcode": "77381", "name": "Woodlands-Research Forest", "phone": "(281) 367-4927", "website": "https://locations.capitalone.com/bank/TX/Spring-WoodlandsResearch-Forest-branch-41709", "opening_hours": "Mo-Sa 09:00-09:00", "brand": "Capital One", "brand:wikidata": "Q1034654"}, "geometry": {"type": "Point", "coordinates": [-95.474407, 30.177305]}},
{"type": "Feature", "id": "_-TxdeQ1-qyd41gzraJuHgvfwl0=", "properties": {"ref": "41706", "location_type": "branch", "@spider": "capital_one", "addr:full": "21210 Kuykendahl Road", "addr:city": "Spring", "addr:state": "TX", "addr:postcode": "77379", "name": "Kuykendahl", "phone": "(281) 350-1793", "website": "https://locations.capitalone.com/bank/TX/Spring-Kuykendahl-branch-41706", "opening_hours": "Mo-Sa 09:00-09:00", "brand": "Capital One", "brand:wikidata": "Q1034654"}, "geometry": {"type": "Point", "coordinates": [-95.51554, 30.07672]}},
{"type": "Feature", "id": "-mG0bmPPUnRV3NsLye_38w7QFao=", "properties": {"ref": "41702", "location_type": "branch", "@spider": "capital_one", "addr:full": "25907 Hempstead Hwy", "addr:city": "Cypress", "addr:state": "TX", "addr:postcode": "77429", "name": "Cy-Fair", "phone": "(281) 373-9322", "website": "https://locations.capitalone.com/bank/TX/Cypress-CyFair-branch-41702", "opening_hours": "Mo-Sa 09:00-09:00", "brand": "Capital One", "brand:wikidata": "Q1034654"}, "geometry": {"type": "Point", "coordinates": [-95.694879, 29.971024]}},
{"type": "Feature", "id": "Z02K5uNIdjkXIYepKxBPDyvt-Kw=", "properties": {"ref": "41720", "location_type": "branch", "@spider": "capital_one", "addr:full": "3037 Fm 1960 Road E.", "addr:city": "Houston", "addr:state": "TX", "addr:postcode": "77073", "name": "Aldine Westfield", "phone": "(713) 878-5100", "website": "https://locations.capitalone.com/bank/TX/Houston-Aldine-Westfield-branch-41720", "opening_hours": "Mo-Sa 09:00-09:00", "brand": "Capital One", "brand:wikidata": "Q1034654"}, "geometry": {"type": "Point", "coordinates": [-95.380754, 30.020959]}},
{"type": "Feature", "id": "gKSrHbYpmU8VtmfkKgG_XSXYQHo=", "properties": {"ref": "41714", "location_type": "branch", "@spider": "capital_one", "addr:full": "9461 Fm 1960 By-Pass", "addr:city": "Humble", "addr:state": "TX", "addr:postcode": "77338", "name": "Humble", "phone": "(713) 435-7125", "website": "https://locations.capitalone.com/bank/TX/Harris-County-Humble-branch-41714", "opening_hours": "Mo-Sa 09:00-09:00", "brand": "Capital One", "brand:wikidata": "Q1034654"}, "geometry": {"type": "Point", "coordinates": [-95.283519, 30.005634]}},
{"type": "Feature", "id": "UixjJUlxtRLmbyAu-uvnH6_4XbQ=", "properties": {"ref": "41740", "location_type": "branch", "@spider": "capital_one", "addr:full": "1260 Blalock, Suite 100", "addr:city": "Houston", "addr:state": "TX", "addr:postcode": "77055", "name": "Blalock", "phone": "(713) 735-4420", "website": "https://locations.capitalone.com/bank/TX/Houston-Blalock-branch-41740", "opening_hours": "Mo-Sa 09:00-09:00", "brand": "Capital One", "brand:wikidata": "Q1034654"}, "geometry": {"type": "Point", "coordinates": [-95.521435, 29.791167]}},
{"type": "Feature", "id": "05EN0Gph8IS6zQIcvxnnhvsrH9U=", "properties": {"ref": "41750", "location_type": "branch", "@spider": "capital_one", "addr:full": "1855 West Bay Area Blvd", "addr:city": "Webster", "addr:state": "TX", "addr:postcode": "77598", "name": "Baybrook", "phone": "(713) 435-5775", "website": "https://locations.capitalone.com/bank/TX/Webster-Baybrook-branch-41750", "opening_hours": "Mo-Sa 09:00-09:00", "brand": "Capital One", "brand:wikidata": "Q1034654"}, "geometry": {"type": "Point", "coordinates": [-95.153407, 29.537205]}},
{"type": "Feature", "id": "VFbmUbcIRKg82zsDqcEqhPwjk3E=", "properties": {"ref": "41573", "location_type": "branch", "@spider": "capital_one", "addr:full": "10515 Broadway", "addr:city": "Pearland", "addr:state": "TX", "addr:postcode": "77584", "name": "Pearland", "phone": "(281) 606-4005", "website": "https://locations.capitalone.com/bank/TX/Brazoria-County-Pearland-branch-41573", "opening_hours": "Mo-Sa 09:00-09:00", "brand": "Capital One", "brand:wikidata": "Q1034654"}, "geometry": {"type": "Point", "coordinates": [-95.382941, 29.556416]}},
{"type": "Feature", "id": "GnVh_2YOlATDMZybADa44X_pVLs=", "properties": {"ref": "41795", "location_type": "branch", "@spider": "capital_one", "addr:full": "11408 Gulf Freeway", "addr:city": "Houston", "addr:state": "TX", "addr:postcode": "77034", "name": "Almeda", "phone": "(713) 435-7474", "website": "https://locations.capitalone.com/bank/TX/Houston-Almeda-branch-41795", "opening_hours": "Mo-Sa 09:00-09:00", "brand": "Capital One", "brand:wikidata": "Q1034654"}, "geometry": {"type": "Point", "coordinates": [-95.233963, 29.631272]}},
{"type": "Feature", "id": "T-GLP_7DL4iMTkDOP-VFD1IoAq0=", "properties": {"ref": "41755", "location_type": "branch", "@spider": "capital_one", "addr:full": "7919 Kirby Dr.", "addr:city": "Houston", "addr:state": "TX", "addr:postcode": "77054", "name": "Stadium", "phone": "(713) 435-7600", "website": "https://locations.capitalone.com/bank/TX/Houston-Stadium-branch-41755", "opening_hours": "Mo-Sa 09:00-09:00", "brand": "Capital One", "brand:wikidata": "Q1034654"}, "geometry": {"type": "Point", "coordinates": [-95.413122, 29.693807]}},
{"type": "Feature", "id": "zoi9_0eBEyn3M2H1H3ndM11Nfp8=", "properties": {"ref": "41745", "location_type": "branch", "@spider": "capital_one", "addr:full": "3207 Westpark", "addr:city": "Houston", "addr:state": "TX", "addr:postcode": "77005", "name": "West University", "phone": "(713) 592-6337", "website": "https://locations.capitalone.com/bank/TX/Houston-West-University-branch-41745", "opening_hours": "Mo-Sa 09:00-09:00", "brand": "Capital One", "brand:wikidata": "Q1034654"}, "geometry": {"type": "Point", "coordinates": [-95.428299, 29.72797]}},
{"type": "Feature", "id": "0ftNFMx5WPc8yGA62r53IRDq0iM=", "properties": {"ref": "41756", "location_type": "branch", "@spider": "capital_one", "addr:full": "408 Webster St.", "addr:city": "Houston", "addr:state": "TX", "addr:postcode": "77002", "name": "Houston Midtown", "phone": "(713) 435-7700", "website": "https://locations.capitalone.com/bank/TX/Harris-County-Houston-Midtown-branch-41756", "opening_hours": "Mo-Sa 09:00-09:00", "brand": "Capital One", "brand:wikidata": "Q1034654"}, "geometry": {"type": "Point", "coordinates": [-95.377166, 29.750742]}},
{"type": "Feature", "id": "Xf-3AwR95OU2vNBoJZVKF0doGmc=", "properties": {"ref": "41784", "location_type": "branch", "@spider": "capital_one", "addr:full": "5431 Bissonnet", "addr:city": "Houston", "addr:state": "TX", "addr:postcode": "77081", "name": "Bellaire", "phone": "(713) 878-5600", "website": "https://locations.capitalone.com/bank/TX/Houston-Bellaire-branch-41784", "opening_hours": "Mo-Sa 09:00-09:00", "brand": "Capital One", "brand:wikidata": "Q1034654"}, "geometry": {"type": "Point", "coordinates": [-95.475727, 29.703286]}},
{"type": "Feature", "id": "-k9jtdrXyUjnW7LuWvOfZiuiXqo=", "properties": {"ref": "65222", "location_type": "cafe", "@spider": "capital_one", "addr:full": "5085 Westheimer Rd, Suite B3726", "addr:city": "Houston", "addr:state": "TX", "addr:postcode": "77056", "name": "Cafe at Houston Galleria", "phone": "(713) 346-0335", "website": "https://locations.capitalone.com/bank/TX/-Cafe-at-Houston-Galleria-cafe-65222", "opening_hours": "Mo-Th 10:00-10:00; Fr-Sa 09:00-09:00; Su 11:00-11:00", "brand": "Capital One", "brand:wikidata": "Q1034654"}, "geometry": {"type": "Point", "coordinates": [-95.464663, 29.7386792]}},
{"type": "Feature", "id": "8dyIhakvz6PdwvB7j3EBZE546Jk=", "properties": {"ref": "41774", "location_type": "branch", "@spider": "capital_one", "addr:full": "2353 Town Center Blvd.", "addr:city": "Sugar Land", "addr:state": "TX", "addr:postcode": "77478", "name": "First Colony", "phone": "(281) 494-1200", "website": "https://locations.capitalone.com/bank/TX/Sugar-Land-First-Colony-branch-41774", "opening_hours": "Mo-Sa 09:00-09:00", "brand": "Capital One", "brand:wikidata": "Q1034654"}, "geometry": {"type": "Point", "coordinates": [-95.617407, 29.599005]}},
{"type": "Feature", "id": "4gkAZ9ST6WdKJoy4o1XWu-e9Hqw=", "properties": {"ref": "41744", "location_type": "branch", "@spider": "capital_one", "addr:full": "1629 S Voss Rd.", "addr:city": "Houston", "addr:state": "TX", "addr:postcode": "77057", "name": "Voss", "phone": "(713) 735-4840", "website": "https://locations.capitalone.com/bank/TX/Houston-Voss-branch-41744", "opening_hours": "Mo-Sa 09:00-09:00", "brand": "Capital One", "brand:wikidata": "Q1034654"}, "geometry": {"type": "Point", "coordinates": [-95.500607, 29.750005]}},
{"type": "Feature", "id": "TeLiUZ003pibQwvftj3Jiyv-CPc=", "properties": {"ref": "41732", "location_type": "branch", "@spider": "capital_one", "addr:full": "4414 North Freeway Suite 1000", "addr:city": "Houston", "addr:state": "TX", "addr:postcode": "77022", "name": "Northline", "phone": "(713) 878-5700", "website": "https://locations.capitalone.com/bank/TX/Houston-Northline-branch-41732", "opening_hours": "Mo-Sa 09:00-09:00", "brand": "Capital One", "brand:wikidata": "Q1034654"}, "geometry": {"type": "Point", "coordinates": [-95.379574, 29.830347]}},
{"type": "Feature", "id": "xzZ-aBRY6BcpSL0WV7cEcgIQ_Nk=", "properties": {"ref": "41771", "location_type": "branch", "@spider": "capital_one", "addr:full": "11697 Westheimer", "addr:city": "Houston", "addr:state": "TX", "addr:postcode": "77077", "name": "Royal Oaks", "phone": "(713) 706-5490", "website": "https://locations.capitalone.com/bank/TX/Houston-Royal-Oaks-branch-41771", "opening_hours": "Mo-Sa 09:00-09:00", "brand": "Capital One", "brand:wikidata": "Q1034654"}, "geometry": {"type": "Point", "coordinates": [-95.584217, 29.73614]}},
{"type": "Feature", "id": "S7cHen8H4yRzj3itjdbrlL8iTB8=", "properties": {"ref": "27256", "location_type": "cafe", "@spider": "capital_one", "addr:full": "30 7th Avenue South", "addr:city": "St. Cloud", "addr:state": "MN", "addr:postcode": "56301", "name": "Downtown St. Cloud", "phone": "(320) 534-4640", "website": "https://locations.capitalone.com/bank/MN/-Downtown-St-Cloud-cafe-27256", "opening_hours": "Mo-Fr 07:30-07:30", "brand": "Capital One", "brand:wikidata": "Q1034654"}, "geometry": {"type": "Point", "coordinates": [-94.159476, 45.559593]}},
{"type": "Feature", "id": "HOAyFfbj6QdOm4vSfUYBVY3wjgU=", "properties": {"ref": "41354", "location_type": "branch", "@spider": "capital_one", "addr:full": "9181 Mansfield Road", "addr:city": "Shreveport", "addr:state": "LA", "addr:postcode": "71118", "name": "S Shreveport", "phone": "(318) 674-3907", "website": "https://locations.capitalone.com/bank/LA/Caddo-Parish-S-Shreveport-branch-41354", "opening_hours": "Mo-Sa 09:00-09:00", "brand": "Capital One", "brand:wikidata": "Q1034654"}, "geometry": {"type": "Point", "coordinates": [-93.80283, 32.402487]}},
{"type": "Feature", "id": "ciLx6dRp4yAOq3o-P_9fKn_KPpg=", "properties": {"ref": "41607", "location_type": "branch", "@spider": "capital_one", "addr:full": "3775 Stagg Drive", "addr:city": "Beaumont", "addr:state": "TX", "addr:postcode": "77701", "name": "Gateway", "phone": "(409) 654-7523", "website": "https://locations.capitalone.com/bank/TX/Beaumont-Gateway-branch-41607", "opening_hours": "Mo-Sa 09:00-09:00", "brand": "Capital One", "brand:wikidata": "Q1034654"}, "geometry": {"type": "Point", "coordinates": [-94.131902, 30.06961]}},
{"type": "Feature", "id": "4PTgwK7NXYEyUzehb0mBNXd3TM0=", "properties": {"ref": "65256", "location_type": "cafe", "@spider": "capital_one", "addr:full": "132 South Ave", "addr:city": "Bloomington", "addr:state": "MN", "addr:postcode": "55425", "name": "Mall of America", "phone": "(952) 219-4800", "website": "https://locations.capitalone.com/bank/MN/Bloomington-Mall-of-America-cafe-65256", "opening_hours": "Mo-Th 11:00-11:00; Fr-Sa 10:00-10:00; Su 11:00-11:00", "brand": "Capital One", "brand:wikidata": "Q1034654"}, "geometry": {"type": "Point", "coordinates": [-93.242616, 44.853518]}},
{"type": "Feature", "id": "714i6FZeibpPx79LTA1iSI8Ax30=", "properties": {"ref": "41801", "location_type": "branch", "@spider": "capital_one", "addr:full": "2318 Richmond Road", "addr:city": "Texarkana", "addr:state": "TX", "addr:postcode": "75503", "name": "Texarkana", "phone": "(903) 838-2000", "website": "https://locations.capitalone.com/bank/TX/Bowie-County-Texarkana-branch-41801", "opening_hours": "Mo-Sa 09:00-09:00", "brand": "Capital One", "brand:wikidata": "Q1034654"}, "geometry": {"type": "Point", "coordinates": [-94.084174, 33.455162]}},
{"type": "Feature", "id": "W2z_PzjZgiMDorzbpyaacFCMC9A=", "properties": {"ref": "41351", "location_type": "branch", "@spider": "capital_one", "addr:full": "2045 Airline Drive", "addr:city": "Bossier City", "addr:state": "LA", "addr:postcode": "71111", "name": "Airline Shed", "phone": "(318) 674-3820", "website": "https://locations.capitalone.com/bank/LA/Bossier-City-Airline-Shed-branch-41351", "opening_hours": "Mo-Sa 09:00-09:00", "brand": "Capital One", "brand:wikidata": "Q1034654"}, "geometry": {"type": "Point", "coordinates": [-93.705698, 32.531997]}},
{"type": "Feature", "id": "cqEWjX-QcjCWHcmfFZD0q5wYMlA=", "properties": {"ref": "41689", "location_type": "branch", "@spider": "capital_one", "addr:full": "2950 Hwy 365", "addr:city": "Port Arthur", "addr:state": "TX", "addr:postcode": "77642", "name": "Midcounty", "phone": "(409) 736-2813", "website": "https://locations.capitalone.com/bank/TX/Port-Arthur-Midcounty-branch-41689", "opening_hours": "Mo-Sa 09:00-09:00", "brand": "Capital One", "brand:wikidata": "Q1034654"}, "geometry": {"type": "Point", "coordinates": [-93.992695, 29.946796]}},
{"type": "Feature", "id": "BPgEtGxudWQjqkuG_NsEkuC7VvQ=", "properties": {"ref": "41353", "location_type": "branch", "@spider": "capital_one", "addr:full": "5750 Youree Drive", "addr:city": "Shreveport", "addr:state": "LA", "addr:postcode": "71105", "name": "Southfield", "phone": "(318) 674-3906", "website": "https://locations.capitalone.com/bank/LA/Shreveport-Southfield-branch-41353", "opening_hours": "Mo-Sa 09:00-09:00", "brand": "Capital One", "brand:wikidata": "Q1034654"}, "geometry": {"type": "Point", "coordinates": [-93.722373, 32.455077]}},
{"type": "Feature", "id": "XnBuXvWTbuR4fuOVEhvzCOEZ40Y=", "properties": {"ref": "41360", "location_type": "branch", "@spider": "capital_one", "addr:full": "618 Main Street", "addr:city": "Minden", "addr:state": "LA", "addr:postcode": "71055", "name": "Minden Main Office", "phone": "(318) 382-7007", "website": "https://locations.capitalone.com/bank/LA/Webster-Parish-Minden-Main-Office-branch-41360", "opening_hours": "Mo-Fr 09:00-09:00", "brand": "Capital One", "brand:wikidata": "Q1034654"}, "geometry": {"type": "Point", "coordinates": [-93.286518, 32.615232]}},
{"type": "Feature", "id": "nn46wIryrnSRRJsOaHakkmsN7bA=", "properties": {"ref": "40367", "location_type": "branch", "@spider": "capital_one", "addr:full": "301 Homer Rd", "addr:city": "Minden", "addr:state": "LA", "addr:postcode": "71055", "name": "Minden DU", "phone": "(318) 382-7050", "website": "https://locations.capitalone.com/bank/LA/Webster-Parish-Minden-DU-branch-40367", "brand": "Capital One", "brand:wikidata": "Q1034654"}, "geometry": {"type": "Point", "coordinates": [-93.275591, 32.621959]}},
{"type": "Feature", "id": "QYCT7ehn4kjgbxI9h7QaYz8ZvwQ=", "properties": {"ref": "41382", "location_type": "branch", "@spider": "capital_one", "addr:full": "3715 Greenwood Road", "addr:city": "Shreveport", "addr:state": "LA", "addr:postcode": "71109", "name": "Greenwood", "phone": "(318) 677-5155", "website": "https://locations.capitalone.com/bank/LA/Shreveport-Greenwood-branch-41382", "opening_hours": "Mo-Sa 09:00-09:00", "brand": "Capital One", "brand:wikidata": "Q1034654"}, "geometry": {"type": "Point", "coordinates": [-93.799434, 32.473417]}},
{"type": "Feature", "id": "vOrVZFoi9-tdIthdtqnSJNayp2w=", "properties": {"ref": "41206", "location_type": "branch", "@spider": "capital_one", "addr:full": "1300 South Ruth Street", "addr:city": "Sulphur", "addr:state": "LA", "addr:postcode": "70663", "name": "Sulphur", "phone": "(337) 494-7724", "website": "https://locations.capitalone.com/bank/LA/Calcasieu-Parish-Sulphur-branch-41206", "opening_hours": "Mo-Sa 09:00-09:00", "brand": "Capital One", "brand:wikidata": "Q1034654"}, "geometry": {"type": "Point", "coordinates": [-93.375703, 30.228339]}},
{"type": "Feature", "id": "zT5R155biOVxoTG84VM8U7pQ4E4=", "properties": {"ref": "43204", "location_type": "branch", "@spider": "capital_one", "addr:full": "323 E. Prien Lake Rd", "addr:city": "Lake Charles", "addr:state": "LA", "addr:postcode": "70601", "name": "Ryan St DU", "phone": "(337) 494-3351", "website": "https://locations.capitalone.com/bank/LA/Lake-Charles-Ryan-St-DU-branch-43204", "brand": "Capital One", "brand:wikidata": "Q1034654"}, "geometry": {"type": "Point", "coordinates": [-93.223606, 30.198205]}},
{"type": "Feature", "id": "DJ1ml3rHxdNZ2_ICbtpV9W4FY2Q=", "properties": {"ref": "41204", "location_type": "branch", "@spider": "capital_one", "addr:full": "3225 Ryan Street", "addr:city": "Lake Charles", "addr:state": "LA", "addr:postcode": "70601", "name": "Ryan St", "phone": "(337) 494-3351", "website": "https://locations.capitalone.com/bank/LA/Lake-Charles-Ryan-St-branch-41204", "opening_hours": "Mo-Sa 09:00-09:00", "brand": "Capital One", "brand:wikidata": "Q1034654"}, "geometry": {"type": "Point", "coordinates": [-93.218297, 30.198508]}},
{"type": "Feature", "id": "pEB6ultxD_gXJgOB794hpMKJP30=", "properties": {"ref": "41220", "location_type": "branch", "@spider": "capital_one", "addr:full": "409 North Cary Avenue", "addr:city": "Jennings", "addr:state": "LA", "addr:postcode": "70546", "name": "Jennings", "phone": "(337) 824-0623", "website": "https://locations.capitalone.com/bank/LA/Jefferson-Davis-Parish-Jennings-branch-41220", "opening_hours": "Mo-Sa 09:00-09:00", "brand": "Capital One", "brand:wikidata": "Q1034654"}, "geometry": {"type": "Point", "coordinates": [-92.659415, 30.223937]}},
{"type": "Feature", "id": "fKDA2VtvnKHNbqVojXMFlLqPXIA=", "properties": {"ref": "41305", "location_type": "branch", "@spider": "capital_one", "addr:full": "3701 Jackson Street", "addr:city": "Alexandria", "addr:state": "LA", "addr:postcode": "71303", "name": "MacArthur", "phone": "(318) 487-2120", "website": "https://locations.capitalone.com/bank/LA/Alexandria-MacArthur-branch-41305", "opening_hours": "Mo-Sa 09:00-09:00", "brand": "Capital One", "brand:wikidata": "Q1034654"}, "geometry": {"type": "Point", "coordinates": [-92.47586, 31.284505]}},
{"type": "Feature", "id": "cZw734rT4U0jC_BMbJyst2ODWvM=", "properties": {"ref": "43302", "location_type": "branch", "@spider": "capital_one", "addr:full": "1000 N. Shirley Rd", "addr:city": "Bunkie", "addr:state": "LA", "addr:postcode": "71322", "name": "Shirley Rd DU", "phone": "(318) 487-2142", "website": "https://locations.capitalone.com/bank/LA/Bunkie-Shirley-Rd-DU-branch-43302", "brand": "Capital One", "brand:wikidata": "Q1034654"}, "geometry": {"type": "Point", "coordinates": [-92.192487, 30.959893]}},
{"type": "Feature", "id": "CnU-bhZKt53ehtNcVqySGl9auWg=", "properties": {"ref": "41302", "location_type": "branch", "@spider": "capital_one", "addr:full": "122 West Church Street", "addr:city": "Bunkie", "addr:state": "LA", "addr:postcode": "71322", "name": "Bunkie (Main Office)", "phone": "(318) 346-7254", "website": "https://locations.capitalone.com/bank/LA/Avoyelles-Parish-Bunkie-Main-Office-branch-41302", "opening_hours": "Mo-Fr 09:00-09:00", "brand": "Capital One", "brand:wikidata": "Q1034654"}, "geometry": {"type": "Point", "coordinates": [-92.183929, 30.953053]}},
{"type": "Feature", "id": "qqnC-4yQLcH-3TmAL8eSc1G63oU=", "properties": {"ref": "41304", "location_type": "branch", "@spider": "capital_one", "addr:full": "345 East Tunica", "addr:city": "Marksville", "addr:state": "LA", "addr:postcode": "71351", "name": "Marksville", "phone": "(318) 253-1758", "website": "https://locations.capitalone.com/bank/LA/Avoyelles-Parish-Marksville-branch-41304", "opening_hours": "Mo-Sa 09:00-09:00", "brand": "Capital One", "brand:wikidata": "Q1034654"}, "geometry": {"type": "Point", "coordinates": [-92.066762, 31.120167]}},
{"type": "Feature", "id": "NV5o5GwzMQdvWXgvCaZLygqIKTk=", "properties": {"ref": "41323", "location_type": "branch", "@spider": "capital_one", "addr:full": "1808 North 18th Street", "addr:city": "Monroe", "addr:state": "LA", "addr:postcode": "71201", "name": "Main Office-Monroe", "phone": "(318) 329-2700", "website": "https://locations.capitalone.com/bank/LA/Ouachita-Parish-Main-OfficeMonroe-branch-41323", "opening_hours": "Mo-Sa 09:00-09:00", "brand": "Capital One", "brand:wikidata": "Q1034654"}, "geometry": {"type": "Point", "coordinates": [-92.115338, 32.527164]}},
{"type": "Feature", "id": "n9dH5cnYLEpv5ZsseYx-1XaDCZk=", "properties": {"ref": "43327", "location_type": "branch", "@spider": "capital_one", "addr:full": "101 South Franklin Street", "addr:city": "Bastrop", "addr:state": "LA", "addr:postcode": "71220", "name": "Bastrop Main Remote DU", "phone": "(318) 329-2765", "website": "https://locations.capitalone.com/bank/LA/Morehouse-Parish-Bastrop-Main-Remote-DU-branch-43327", "brand": "Capital One", "brand:wikidata": "Q1034654"}, "geometry": {"type": "Point", "coordinates": [-91.912351, 32.77783]}},
{"type": "Feature", "id": "qzELD0c30pOP8_a74vTKLjKkXDg=", "properties": {"ref": "41327", "location_type": "branch", "@spider": "capital_one", "addr:full": "101 South Franklin Street", "addr:city": "Bastrop", "addr:state": "LA", "addr:postcode": "71220", "name": "Bastrop Main", "phone": "(318) 281-5911", "website": "https://locations.capitalone.com/bank/LA/Morehouse-Parish-Bastrop-Main-branch-41327", "opening_hours": "Mo-Fr 09:00-09:00", "brand": "Capital One", "brand:wikidata": "Q1034654"}, "geometry": {"type": "Point", "coordinates": [-91.913075, 32.778136]}},
{"type": "Feature", "id": "ILWqVSBUNgj8jwK06qCCnf457oM=", "properties": {"ref": "41243", "location_type": "branch", "@spider": "capital_one", "addr:full": "3838 West Congress Street", "addr:city": "Lafayette", "addr:state": "LA", "addr:postcode": "70506", "name": "W Congress", "phone": "(337) 268-4510", "website": "https://locations.capitalone.com/bank/LA/Lafayette-W-Congress-branch-41243", "opening_hours": "Mo-Fr 09:00-09:00", "brand": "Capital One", "brand:wikidata": "Q1034654"}, "geometry": {"type": "Point", "coordinates": [-92.066578, 30.201139]}},
{"type": "Feature", "id": "Y7La4Ard-I8rHtltCCKdZVJI39Y=", "properties": {"ref": "41244", "location_type": "branch", "@spider": "capital_one", "addr:full": "4416 Ambassador Caff. Pkwy", "addr:city": "Lafayette", "addr:state": "LA", "addr:postcode": "70508", "name": "Ambassador Caff", "phone": "(337) 268-4513", "website": "https://locations.capitalone.com/bank/LA/Lafayette-Ambassador-Caff-branch-41244", "opening_hours": "Mo-Sa 09:00-09:00", "brand": "Capital One", "brand:wikidata": "Q1034654"}, "geometry": {"type": "Point", "coordinates": [-92.04918, 30.156493]}},
{"type": "Feature", "id": "ktVMQ65_l61VKWfFg8pGBgH3wiU=", "properties": {"ref": "41248", "location_type": "branch", "@spider": "capital_one", "addr:full": "2425 Veterans Memorial Blvd.", "addr:city": "Abbeville", "addr:state": "LA", "addr:postcode": "70510", "name": "By-Pass-Oaklawn", "phone": "(337) 892-3000", "website": "https://locations.capitalone.com/bank/LA/Abbeville-ByPassOaklawn-branch-41248", "opening_hours": "Mo-Fr 09:00-09:00", "brand": "Capital One", "brand:wikidata": "Q1034654"}, "geometry": {"type": "Point", "coordinates": [-92.108513, 29.977675]}},
{"type": "Feature", "id": "w8SFtBVeqyQMqwdWkSaBPsxLGmc=", "properties": {"ref": "41250", "location_type": "branch", "@spider": "capital_one", "addr:full": "1123 Admiral Doyle Dr.", "addr:city": "New Iberia", "addr:state": "LA", "addr:postcode": "70560", "name": "New Iberia", "phone": "(337) 365-6261", "website": "https://locations.capitalone.com/bank/LA/Iberia-Parish-New-Iberia-branch-41250", "opening_hours": "Mo-Fr 09:00-09:00", "brand": "Capital One", "brand:wikidata": "Q1034654"}, "geometry": {"type": "Point", "coordinates": [-91.817881, 29.984657]}},
{"type": "Feature", "id": "Dnh563sWiOrElQO_Y4SwtMOUQk8=", "properties": {"ref": "41189", "location_type": "branch", "@spider": "capital_one", "addr:full": "3510 Highway 70 South", "addr:city": "Pierre Part", "addr:state": "LA", "addr:postcode": "70339", "name": "Pierre Part", "phone": "(985) 252-8013", "website": "https://locations.capitalone.com/bank/LA/Assumption-Parish-Pierre-Part-branch-41189", "opening_hours": "Mo-Fr 09:00-09:00", "brand": "Capital One", "brand:wikidata": "Q1034654"}, "geometry": {"type": "Point", "coordinates": [-91.213185, 29.953974]}},
{"type": "Feature", "id": "ZXUAz3FOywCmRrhU_fY_rTd7nH4=", "properties": {"ref": "41188", "location_type": "branch", "@spider": "capital_one", "addr:full": "110 Franklin Street", "addr:city": "Napoleonville", "addr:state": "LA", "addr:postcode": "70390", "name": "Napoleonville", "phone": "(985) 369-7260", "website": "https://locations.capitalone.com/bank/LA/Assumption-Parish-Napoleonville-branch-41188", "opening_hours": "Mo-Fr 09:00-09:00", "brand": "Capital One", "brand:wikidata": "Q1034654"}, "geometry": {"type": "Point", "coordinates": [-91.024401, 29.940796]}},
{"type": "Feature", "id": "rvXqVZ0FL3LaikomzTs6nfCpFtA=", "properties": {"ref": "43188", "location_type": "branch", "@spider": "capital_one", "addr:full": "4804 Hwy 308", "addr:city": "Napoleonville", "addr:state": "LA", "addr:postcode": "70390", "name": "Napoleonville DU", "phone": "(985) 369-7260", "website": "https://locations.capitalone.com/bank/LA/Assumption-Parish-Napoleonville-DU-branch-43188", "brand": "Capital One", "brand:wikidata": "Q1034654"}, "geometry": {"type": "Point", "coordinates": [-91.022655, 29.942741]}},
{"type": "Feature", "id": "JweuhzYBsw1aqFdQCl5Ks_GkkDs=", "properties": {"ref": "41177", "location_type": "branch", "@spider": "capital_one", "addr:full": "2201 Martin Luther King Boulevard", "addr:city": "Houma", "addr:state": "LA", "addr:postcode": "70360", "name": "Savanne Rd", "phone": "(985) 868-0315", "website": "https://locations.capitalone.com/bank/LA/Houma-Savanne-Rd-branch-41177", "opening_hours": "Mo-Sa 09:00-09:00", "brand": "Capital One", "brand:wikidata": "Q1034654"}, "geometry": {"type": "Point", "coordinates": [-90.762485, 29.633979]}},
{"type": "Feature", "id": "EvIn1-AD4erbAjQXmcxZ037-LIc=", "properties": {"ref": "41175", "location_type": "branch", "@spider": "capital_one", "addr:full": "1047 West Tunnel Boulevard", "addr:city": "Houma", "addr:state": "LA", "addr:postcode": "70360", "name": "Houma Main Office", "phone": "(985) 857-2600", "website": "https://locations.capitalone.com/bank/LA/Terrebonne-Parish-Houma-Main-Office-branch-41175", "opening_hours": "Mo-Fr 09:00-09:00", "brand": "Capital One", "brand:wikidata": "Q1034654"}, "geometry": {"type": "Point", "coordinates": [-90.73681, 29.592578]}},
{"type": "Feature", "id": "fD2SbSA1-cdctwUmgj1Gj0oTdeQ=", "properties": {"ref": "41193", "location_type": "branch", "@spider": "capital_one", "addr:full": "401 North Canal Boulevard", "addr:city": "Thibodaux", "addr:state": "LA", "addr:postcode": "70301", "name": "Rienzi & Canal", "phone": "(985) 447-0126", "website": "https://locations.capitalone.com/bank/LA/Thibodaux-Rienzi-and-Canal-branch-41193", "opening_hours": "Mo-Sa 09:00-09:00", "brand": "Capital One", "brand:wikidata": "Q1034654"}, "geometry": {"type": "Point", "coordinates": [-90.816145, 29.805227]}},
{"type": "Feature", "id": "eDLdLMIQhc1WoLQHIGczANIulFc=", "properties": {"ref": "41324", "location_type": "branch", "@spider": "capital_one", "addr:full": "500 East Askew Street", "addr:city": "Tallulah", "addr:state": "LA", "addr:postcode": "71282", "name": "Tallulah", "phone": "(318) 574-1512", "website": "https://locations.capitalone.com/bank/LA/Madison-Parish-Tallulah-branch-41324", "opening_hours": "Mo-Fr 09:00-09:00", "brand": "Capital One", "brand:wikidata": "Q1034654"}, "geometry": {"type": "Point", "coordinates": [-91.186036, 32.409396]}},
{"type": "Feature", "id": "lYSOjfF1gEvIytO7XsQDtM9debM=", "properties": {"ref": "41143", "location_type": "branch", "@spider": "capital_one", "addr:full": "7995 Vincent Road", "addr:city": "Denham Springs", "addr:state": "LA", "addr:postcode": "70726", "name": "Plantation", "phone": "(225) 381-2853", "website": "https://locations.capitalone.com/bank/LA/Denham-Springs-Plantation-branch-41143", "opening_hours": "Mo-Fr 09:00-09:00", "brand": "Capital One", "brand:wikidata": "Q1034654"}, "geometry": {"type": "Point", "coordinates": [-90.956146, 30.446105]}},
{"type": "Feature", "id": "HfsPINhep5ti3NFsnFh0kK9tdfI=", "properties": {"ref": "41140", "location_type": "branch", "@spider": "capital_one", "addr:full": "29741 Walker South Road", "addr:city": "Walker", "addr:state": "LA", "addr:postcode": "70785", "name": "Walker", "phone": "(225) 381-2854", "website": "https://locations.capitalone.com/bank/LA/Livingston-Parish-Walker-branch-41140", "opening_hours": "Mo-Sa 09:00-09:00", "brand": "Capital One", "brand:wikidata": "Q1034654"}, "geometry": {"type": "Point", "coordinates": [-90.862656, 30.486345]}},
{"type": "Feature", "id": "q1243DfZnKDAIXiG0UOdniDOCzw=", "properties": {"ref": "41136", "location_type": "branch", "@spider": "capital_one", "addr:full": "6040 Jones Creek Road", "addr:city": "Baton Rouge", "addr:state": "LA", "addr:postcode": "70817", "name": "Shenandoah", "phone": "(225) 381-2053", "website": "https://locations.capitalone.com/bank/LA/Baton-Rouge-Shenandoah-branch-41136", "opening_hours": "Mo-Fr 09:00-09:00", "brand": "Capital One", "brand:wikidata": "Q1034654"}, "geometry": {"type": "Point", "coordinates": [-91.017776, 30.398005]}},
{"type": "Feature", "id": "jFAkzcBYKddx-KW8UpEXrHR81q4=", "properties": {"ref": "41141", "location_type": "branch", "@spider": "capital_one", "addr:full": "29963 South Magnolia Street", "addr:city": "Livingston", "addr:state": "LA", "addr:postcode": "70754", "name": "Livingston LA", "phone": "(225) 381-2852", "website": "https://locations.capitalone.com/bank/LA/Livingston-Parish-Livingston-LA-branch-41141", "opening_hours": "Mo-Fr 09:00-09:00", "brand": "Capital One", "brand:wikidata": "Q1034654"}, "geometry": {"type": "Point", "coordinates": [-90.750036, 30.502586]}},
{"type": "Feature", "id": "QyTdV3HZ97voxMLGeFBeiGGU3Ws=", "properties": {"ref": "43132", "location_type": "branch", "@spider": "capital_one", "addr:full": "11221 Coursey Blvd", "addr:city": "Baton Rouge", "addr:state": "LA", "addr:postcode": "70816", "name": "Sherwood Forest DU", "phone": "(225) 381-7575", "website": "https://locations.capitalone.com/bank/LA/Baton-Rouge-Sherwood-Forest-DU-branch-43132", "brand": "Capital One", "brand:wikidata": "Q1034654"}, "geometry": {"type": "Point", "coordinates": [-91.055748, 30.413672]}},
{"type": "Feature", "id": "6Hc4fDWzmq6SP063QC0p6Mme6rM=", "properties": {"ref": "41104", "location_type": "branch", "@spider": "capital_one", "addr:full": "6581 Siegen Lane", "addr:city": "Baton Rouge", "addr:state": "LA", "addr:postcode": "70809", "name": "Industriplex", "phone": "(225) 381-2048", "website": "https://locations.capitalone.com/bank/LA/Baton-Rouge-Industriplex-branch-41104", "opening_hours": "Mo-Sa 09:00-09:00", "brand": "Capital One", "brand:wikidata": "Q1034654"}, "geometry": {"type": "Point", "coordinates": [-91.061027, 30.389413]}},
{"type": "Feature", "id": "BlkMjJp_I7sN3QOfW9J2lPqMGz0=", "properties": {"ref": "41103", "location_type": "branch", "@spider": "capital_one", "addr:full": "9638 Florida Boulevard", "addr:city": "Baton Rouge", "addr:state": "LA", "addr:postcode": "70815", "name": "Broadmoor", "phone": "(225) 381-2042", "website": "https://locations.capitalone.com/bank/LA/Baton-Rouge-Broadmoor-branch-41103", "opening_hours": "Mo-Sa 09:00-09:00", "brand": "Capital One", "brand:wikidata": "Q1034654"}, "geometry": {"type": "Point", "coordinates": [-91.079526, 30.454905]}},
{"type": "Feature", "id": "aPPpMj7EPNOjWp7wqFKc1IL1mlk=", "properties": {"ref": "41133", "location_type": "branch", "@spider": "capital_one", "addr:full": "8009 Jefferson Highway", "addr:city": "Baton Rouge", "addr:state": "LA", "addr:postcode": "70809", "name": "Jefferson Hwy", "phone": "(225) 381-2049", "website": "https://locations.capitalone.com/bank/LA/Baton-Rouge-Jefferson-Hwy-branch-41133", "opening_hours": "Mo-Fr 09:00-09:00", "brand": "Capital One", "brand:wikidata": "Q1034654"}, "geometry": {"type": "Point", "coordinates": [-91.10503, 30.425606]}},
{"type": "Feature", "id": "SsZUeZAAbRsixCMrJKf_2Hj9yYk=", "properties": {"ref": "41106", "location_type": "branch", "@spider": "capital_one", "addr:full": "1312 South Burnside Avenue", "addr:city": "Gonzales", "addr:state": "LA", "addr:postcode": "70737", "name": "Burnside", "phone": "(225) 647-8661", "website": "https://locations.capitalone.com/bank/LA/Gonzales-Burnside-branch-41106", "opening_hours": "Mo-Sa 09:00-09:00", "brand": "Capital One", "brand:wikidata": "Q1034654"}, "geometry": {"type": "Point", "coordinates": [-90.920087, 30.222641]}},
{"type": "Feature", "id": "Hhgc5TCGcShuQOt4_62e6sJAvuA=", "properties": {"ref": "41131", "location_type": "branch", "@spider": "capital_one", "addr:full": "3110 College Drive", "addr:city": "Baton Rouge", "addr:state": "LA", "addr:postcode": "70808", "name": "College Dr", "phone": "(225) 381-2052", "website": "https://locations.capitalone.com/bank/LA/Baton-Rouge-College-Dr-branch-41131", "opening_hours": "Mo-Sa 09:00-09:00", "brand": "Capital One", "brand:wikidata": "Q1034654"}, "geometry": {"type": "Point", "coordinates": [-91.141656, 30.419385]}},
{"type": "Feature", "id": "TGcz91yga4zz5gYFlssJb4v9wEM=", "properties": {"ref": "41108", "location_type": "branch", "@spider": "capital_one", "addr:full": "5175 Plank Road", "addr:city": "Baton Rouge", "addr:state": "LA", "addr:postcode": "70805", "name": "Delmont", "phone": "(225) 381-2044", "website": "https://locations.capitalone.com/bank/LA/Baton-Rouge-Delmont-branch-41108", "opening_hours": "Mo-Sa 09:00-09:00", "brand": "Capital One", "brand:wikidata": "Q1034654"}, "geometry": {"type": "Point", "coordinates": [-91.15548, 30.496413]}},
{"type": "Feature", "id": "EZ8FMOkmsoKGvUqLCBEYcm2KAHo=", "properties": {"ref": "41144", "location_type": "branch", "@spider": "capital_one", "addr:full": "1506 South Morrison Boulevard", "addr:city": "Hammond", "addr:state": "LA", "addr:postcode": "70403", "name": "South Morrison", "phone": "(985) 902-1500", "website": "https://locations.capitalone.com/bank/LA/Hammond-South-Morrison-branch-41144", "opening_hours": "Mo-Sa 09:00-09:00", "brand": "Capital One", "brand:wikidata": "Q1034654"}, "geometry": {"type": "Point", "coordinates": [-90.483158, 30.485002]}},
{"type": "Feature", "id": "EvSU2nqODNObtXkI-84l1yNlzsk=", "properties": {"ref": "41130", "location_type": "branch", "@spider": "capital_one", "addr:full": "1200 Southwest Railroad Ave", "addr:city": "Hammond", "addr:state": "LA", "addr:postcode": "70403", "name": "Railroad", "phone": "(985) 902-1560", "website": "https://locations.capitalone.com/bank/LA/Hammond-Railroad-branch-41130", "opening_hours": "Mo-Fr 09:00-09:00", "brand": "Capital One", "brand:wikidata": "Q1034654"}, "geometry": {"type": "Point", "coordinates": [-90.458647, 30.493186]}},
{"type": "Feature", "id": "WoGNcEwnpG4820Ifv95D5NJNoUk=", "properties": {"ref": "41168", "location_type": "branch", "@spider": "capital_one", "addr:full": "2447 Highway 18 River Road", "addr:city": "Edgard", "addr:state": "LA", "addr:postcode": "70049", "name": "Edgard", "phone": "(504) 533-3890", "website": "https://locations.capitalone.com/bank/LA/St-John-the-Baptist-Parish-Edgard-branch-41168", "opening_hours": "Mo-Fr 09:00-09:00", "brand": "Capital One", "brand:wikidata": "Q1034654"}, "geometry": {"type": "Point", "coordinates": [-90.56156, 30.04619]}},
{"type": "Feature", "id": "lEOlQjXrU6TiGDKHZqhY6eWiu5o=", "properties": {"ref": "41165", "location_type": "branch", "@spider": "capital_one", "addr:full": "1200 West Airline Highway", "addr:city": "Laplace", "addr:state": "LA", "addr:postcode": "70068", "name": "W Airline", "phone": "(985) 652-6384", "website": "https://locations.capitalone.com/bank/LA/Laplace-W-Airline-branch-41165", "opening_hours": "Mo-Sa 09:00-09:00", "brand": "Capital One", "brand:wikidata": "Q1034654"}, "geometry": {"type": "Point", "coordinates": [-90.491489, 30.072211]}},
{"type": "Feature", "id": "2zVMDkpDFmfNQknRFPZDI0UHc0E=", "properties": {"ref": "41460", "location_type": "branch", "@spider": "capital_one", "addr:full": "1000 West Esplanade Avenue", "addr:city": "Kenner", "addr:state": "LA", "addr:postcode": "70065", "name": "Chateau", "phone": "(504) 533-5140", "website": "https://locations.capitalone.com/bank/LA/Kenner-Chateau-branch-41460", "opening_hours": "Mo-Sa 09:00-09:00", "brand": "Capital One", "brand:wikidata": "Q1034654"}, "geometry": {"type": "Point", "coordinates": [-90.253372, 30.021213]}},
{"type": "Feature", "id": "0kZlNoV_mEdrAKn9i87J1NaDVJc=", "properties": {"ref": "41475", "location_type": "branch", "@spider": "capital_one", "addr:full": "3840 Emerald Road (Highway 22)", "addr:city": "Mandeville", "addr:state": "LA", "addr:postcode": "70471", "name": "Mandeville", "phone": "(985) 624-4212", "website": "https://locations.capitalone.com/bank/LA/St-Tammany-Parish-Mandeville-branch-41475", "opening_hours": "Mo-Sa 09:00-09:00", "brand": "Capital One", "brand:wikidata": "Q1034654"}, "geometry": {"type": "Point", "coordinates": [-90.093304, 30.39454]}},
{"type": "Feature", "id": "K-FaW7_DHi97v5FefKE4lXTbovU=", "properties": {"ref": "41476", "location_type": "branch", "@spider": "capital_one", "addr:full": "1040 Collins Blvd", "addr:city": "Covington", "addr:state": "LA", "addr:postcode": "70433", "name": "Collins Blvd", "phone": "(985) 624-4300", "website": "https://locations.capitalone.com/bank/LA/Covington-Collins-Blvd-branch-41476", "opening_hours": "Mo-Sa 09:00-09:00", "brand": "Capital One", "brand:wikidata": "Q1034654"}, "geometry": {"type": "Point", "coordinates": [-90.093418, 30.4873]}},
{"type": "Feature", "id": "3tM2jADuHTdrkqsIN-NubBPkBFw=", "properties": {"ref": "41164", "location_type": "branch", "@spider": "capital_one", "addr:full": "12269 U.S. Highway 90", "addr:city": "Luling", "addr:state": "LA", "addr:postcode": "70070", "name": "Boutte", "phone": "(985) 785-1091", "website": "https://locations.capitalone.com/bank/LA/Luling-Boutte-branch-41164", "opening_hours": "Mo-Sa 09:00-09:00", "brand": "Capital One", "brand:wikidata": "Q1034654"}, "geometry": {"type": "Point", "coordinates": [-90.34913, 29.911538]}},
{"type": "Feature", "id": "9-_0UENSiuRPj2T0SUZBfq5UiQE=", "properties": {"ref": "41459", "location_type": "branch", "@spider": "capital_one", "addr:full": "2510 Williams Boulevard", "addr:city": "Kenner", "addr:state": "LA", "addr:postcode": "70062", "name": "Kenner", "phone": "(504) 533-2450", "website": "https://locations.capitalone.com/bank/LA/Jefferson-Parish-Kenner-branch-41459", "opening_hours": "Mo-Sa 09:00-09:00", "brand": "Capital One", "brand:wikidata": "Q1034654"}, "geometry": {"type": "Point", "coordinates": [-90.240464, 30.001718]}},
{"type": "Feature", "id": "O6eyftttMBeOORqB8TNwMLGxVt4=", "properties": {"ref": "41451", "location_type": "branch", "@spider": "capital_one", "addr:full": "4949 West Esplanade Avenue", "addr:city": "Metairie", "addr:state": "LA", "addr:postcode": "70006", "name": "West Esplanade", "phone": "(504) 533-2480", "website": "https://locations.capitalone.com/bank/LA/Metairie-West-Esplanade-branch-41451", "opening_hours": "Mo-Fr 09:00-09:00", "brand": "Capital One", "brand:wikidata": "Q1034654"}, "geometry": {"type": "Point", "coordinates": [-90.197856, 30.017506]}},
{"type": "Feature", "id": "MZZoluCLhcWwZH-fT2HlwcXImTs=", "properties": {"ref": "41488", "location_type": "branch", "@spider": "capital_one", "addr:full": "400 Austin Street", "addr:city": "Bogalusa", "addr:state": "LA", "addr:postcode": "70427", "name": "Northside", "phone": "(985) 674-8620", "website": "https://locations.capitalone.com/bank/LA/Bogalusa-Northside-branch-41488", "opening_hours": "Mo-Sa 09:00-09:00", "brand": "Capital One", "brand:wikidata": "Q1034654"}, "geometry": {"type": "Point", "coordinates": [-89.860396, 30.790036]}},
{"type": "Feature", "id": "ot6ucV1JxFdsdspM6PO0i-ZNoHc=", "properties": {"ref": "41186", "location_type": "branch", "@spider": "capital_one", "addr:full": "14008 West Main Street", "addr:city": "Cutoff", "addr:state": "LA", "addr:postcode": "70345", "name": "Larose Cutoff", "phone": "(985) 693-8612", "website": "https://locations.capitalone.com/bank/LA/Lafourche-Parish-Larose-Cutoff-branch-41186", "opening_hours": "Mo-Fr 09:00-09:00", "brand": "Capital One", "brand:wikidata": "Q1034654"}, "geometry": {"type": "Point", "coordinates": [-90.344831, 29.548725]}},
{"type": "Feature", "id": "q5TKjWMlrLOOY5s8-qvjs6TpDpQ=", "properties": {"ref": "41190", "location_type": "branch", "@spider": "capital_one", "addr:full": "3908 Highway 1", "addr:city": "Raceland", "addr:state": "LA", "addr:postcode": "70394", "name": "Raceland", "phone": "(985) 537-4153", "website": "https://locations.capitalone.com/bank/LA/Lafourche-Parish-Raceland-branch-41190", "opening_hours": "Mo-Fr 09:00-09:00", "brand": "Capital One", "brand:wikidata": "Q1034654"}, "geometry": {"type": "Point", "coordinates": [-90.602387, 29.72815724]}},
{"type": "Feature", "id": "vCU4pLZq0vMScnXZW2AIqoWB1Ig=", "properties": {"ref": "41467", "location_type": "branch", "@spider": "capital_one", "addr:full": "1867 Barataria Boulevard", "addr:city": "Marrero", "addr:state": "LA", "addr:postcode": "70072", "name": "Belle Promenade", "phone": "(504) 533-2470", "website": "https://locations.capitalone.com/bank/LA/Marrero-Belle-Promenade-branch-41467", "opening_hours": "Mo-Sa 09:00-09:00", "brand": "Capital One", "brand:wikidata": "Q1034654"}, "geometry": {"type": "Point", "coordinates": [-90.097931, 29.876707]}},
{"type": "Feature", "id": "TTsxaBrucK4JW9gq_3mxtJ-px0o=", "properties": {"ref": "41472", "location_type": "branch", "@spider": "capital_one", "addr:full": "1996 Segnette Blvd.", "addr:city": "Westwego", "addr:state": "LA", "addr:postcode": "70094", "name": "Bayou Segnette", "phone": "(504) 533-6339", "website": "https://locations.capitalone.com/bank/LA/Westwego-Bayou-Segnette-branch-41472", "opening_hours": "Mo-Fr 09:00-09:00", "brand": "Capital One", "brand:wikidata": "Q1034654"}, "geometry": {"type": "Point", "coordinates": [-90.162503, 29.907049]}},
{"type": "Feature", "id": "sU0XcMl_3r2xewrzDLNtHJZ8bpM=", "properties": {"ref": "41471", "location_type": "branch", "@spider": "capital_one", "addr:full": "2412 Manhattan Blvd", "addr:city": "Harvey", "addr:state": "LA", "addr:postcode": "70058", "name": "Manhattan", "phone": "(504) 533-7125", "website": "https://locations.capitalone.com/bank/LA/Harvey-Manhattan-branch-41471", "opening_hours": "Mo-Sa 09:00-09:00", "brand": "Capital One", "brand:wikidata": "Q1034654"}, "geometry": {"type": "Point", "coordinates": [-90.050512, 29.877861]}},
{"type": "Feature", "id": "VwObyhZaC6py4NsG0u3yF2_Pan4=", "properties": {"ref": "41405", "location_type": "branch", "@spider": "capital_one", "addr:full": "3540 Saint Charles Avenue", "addr:city": "New Orleans", "addr:state": "LA", "addr:postcode": "70115", "name": "St. Charles", "phone": "(504) 533-5304", "website": "https://locations.capitalone.com/bank/LA/New-Orleans-St-Charles-branch-41405", "opening_hours": "Mo-Sa 09:00-09:00", "brand": "Capital One", "brand:wikidata": "Q1034654"}, "geometry": {"type": "Point", "coordinates": [-90.093232, 29.927223]}},
{"type": "Feature", "id": "wXO0s_ExSqCMA4P4XTgy80eykS0=", "properties": {"ref": "41454", "location_type": "branch", "@spider": "capital_one", "addr:full": "5400 Mounes Street", "addr:city": "Harahan", "addr:state": "LA", "addr:postcode": "70123", "name": "Elmwood", "phone": "(504) 533-3785", "website": "https://locations.capitalone.com/bank/LA/Harahan-Elmwood-branch-41454", "opening_hours": "Mo-Sa 09:00-09:00", "brand": "Capital One", "brand:wikidata": "Q1034654"}, "geometry": {"type": "Point", "coordinates": [-90.187583, 29.956606]}},
{"type": "Feature", "id": "efPNTuQQv5tDNexU_upIMK0C7k4=", "properties": {"ref": "41994", "location_type": "branch", "@spider": "capital_one", "addr:full": "2700 S Claiborne Ave, Suite 100", "addr:city": "New Orleans", "addr:state": "LA", "addr:postcode": "70125", "name": "Claiborne Avenue", "phone": "(504) 533-3360", "website": "https://locations.capitalone.com/bank/LA/New-Orleans-Claiborne-Avenue-branch-41994", "opening_hours": "Mo-Fr 09:00-09:00", "brand": "Capital One", "brand:wikidata": "Q1034654"}, "geometry": {"type": "Point", "coordinates": [-90.093701, 29.942536]}},
{"type": "Feature", "id": "nrO4okhlui5zeDuhUBuoh6NwDfU=", "properties": {"ref": "41470", "location_type": "branch", "@spider": "capital_one", "addr:full": "3800 General Degaulle Drive", "addr:city": "New Orleans", "addr:state": "LA", "addr:postcode": "70114", "name": "Gen DeGaulle", "phone": "(504) 533-5313", "website": "https://locations.capitalone.com/bank/LA/New-Orleans-Gen-DeGaulle-branch-41470", "opening_hours": "Mo-Sa 09:00-09:00", "brand": "Capital One", "brand:wikidata": "Q1034654"}, "geometry": {"type": "Point", "coordinates": [-90.01728, 29.923694]}},
{"type": "Feature", "id": "Ts4k0N_BeBjFZ_ItCaaYZPDq_Eg=", "properties": {"ref": "41401", "location_type": "branch", "@spider": "capital_one", "addr:full": "313 Carondelet Street", "addr:city": "New Orleans", "addr:state": "LA", "addr:postcode": "70130", "name": "Carondelet", "phone": "(504) 533-5712", "website": "https://locations.capitalone.com/bank/LA/New-Orleans-Carondelet-branch-41401", "opening_hours": "Mo-Fr 09:00-09:00", "brand": "Capital One", "brand:wikidata": "Q1034654"}, "geometry": {"type": "Point", "coordinates": [-90.071538, 29.951717]}},
{"type": "Feature", "id": "TiYMsNkMSstWTNijeYPye5NaDy4=", "properties": {"ref": "41404", "location_type": "branch", "@spider": "capital_one", "addr:full": "137 Royal Street", "addr:city": "New Orleans", "addr:state": "LA", "addr:postcode": "70130", "name": "French Quarter", "phone": "(504) 533-3586", "website": "https://locations.capitalone.com/bank/LA/New-Orleans-French-Quarter-branch-41404", "opening_hours": "Mo-Fr 09:00-09:00", "brand": "Capital One", "brand:wikidata": "Q1034654"}, "geometry": {"type": "Point", "coordinates": [-90.068401, 29.954091]}},
{"type": "Feature", "id": "fdbOFOqHLY5ojNZjeE7Jl_L4XNM=", "properties": {"ref": "41422", "location_type": "branch", "@spider": "capital_one", "addr:full": "4121 Canal Street", "addr:city": "New Orleans", "addr:state": "LA", "addr:postcode": "70119", "name": "Mid City", "phone": "(504) 533-5303", "website": "https://locations.capitalone.com/bank/LA/New-Orleans-Mid-City-branch-41422", "opening_hours": "Mo-Sa 09:00-09:00", "brand": "Capital One", "brand:wikidata": "Q1034654"}, "geometry": {"type": "Point", "coordinates": [-90.100874, 29.975165]}},
{"type": "Feature", "id": "3WOAeutKKpIrSSPguv_8cnFSZJU=", "properties": {"ref": "41430", "location_type": "branch", "@spider": "capital_one", "addr:full": "8117 West Judge Perez Drive", "addr:city": "Chalmette", "addr:state": "LA", "addr:postcode": "70043", "name": "Civic Center", "phone": "(504) 533-6220", "website": "https://locations.capitalone.com/bank/LA/Chalmette-Civic-Center-branch-41430", "opening_hours": "Mo-Sa 09:00-09:00", "brand": "Capital One", "brand:wikidata": "Q1034654"}, "geometry": {"type": "Point", "coordinates": [-89.983896, 29.955935]}},
{"type": "Feature", "id": "1tXGq2SjZ1u04qrh_2_tUTaIIsE=", "properties": {"ref": "41453", "location_type": "branch", "@spider": "capital_one", "addr:full": "1501 Veterans Boulevard", "addr:city": "Metairie", "addr:state": "LA", "addr:postcode": "70005", "name": "Bonnabel", "phone": "(504) 533-3727", "website": "https://locations.capitalone.com/bank/LA/Metairie-Bonnabel-branch-41453", "opening_hours": "Mo-Fr 09:00-09:00", "brand": "Capital One", "brand:wikidata": "Q1034654"}, "geometry": {"type": "Point", "coordinates": [-90.139383, 30.002381]}},
{"type": "Feature", "id": "t0c02ZYJR_hrIrU2ZnWQGjYMWTQ=", "properties": {"ref": "43450", "location_type": "branch", "@spider": "capital_one", "addr:full": "3050 Severn Avenue", "addr:city": "Metairie", "addr:state": "LA", "addr:postcode": "70002", "name": "Severn DU", "phone": "(504) 533-3782", "website": "https://locations.capitalone.com/bank/LA/Metairie-Severn-DU-branch-43450", "brand": "Capital One", "brand:wikidata": "Q1034654"}, "geometry": {"type": "Point", "coordinates": [-90.160319, 30.006394]}},
{"type": "Feature", "id": "CbK3wIVKBt_mboJRq55ab7m7M7o=", "properties": {"ref": "41450", "location_type": "branch", "@spider": "capital_one", "addr:full": "3050 Severn Avenue", "addr:city": "Metairie", "addr:state": "LA", "addr:postcode": "70002", "name": "Severn", "phone": "(504) 533-3782", "website": "https://locations.capitalone.com/bank/LA/Metairie-Severn-branch-41450", "opening_hours": "Mo-Sa 09:00-09:00", "brand": "Capital One", "brand:wikidata": "Q1034654"}, "geometry": {"type": "Point", "coordinates": [-90.159981, 30.006835]}},
{"type": "Feature", "id": "Hz9r5fD89YJwytQCmdkZcND1SG8=", "properties": {"ref": "43427", "location_type": "branch", "@spider": "capital_one", "addr:full": "4201 Elysian Fields Ave", "addr:city": "New Orleans", "addr:state": "LA", "addr:postcode": "70122", "name": "Gentilly DU", "phone": "(504) 533-5647", "website": "https://locations.capitalone.com/bank/LA/New-Orleans-Gentilly-DU-branch-43427", "brand": "Capital One", "brand:wikidata": "Q1034654"}, "geometry": {"type": "Point", "coordinates": [-90.059018, 30.001301]}},
{"type": "Feature", "id": "ZBFFOwEpHZfVMKJ70Zrft16CU2g=", "properties": {"ref": "43424", "location_type": "branch", "@spider": "capital_one", "addr:full": "5696 Bullard Avenue", "addr:city": "New Orleans", "addr:state": "LA", "addr:postcode": "70128", "name": "Eastover DU", "phone": "(504) 533-5307", "website": "https://locations.capitalone.com/bank/LA/New-Orleans-Eastover-DU-branch-43424", "brand": "Capital One", "brand:wikidata": "Q1034654"}, "geometry": {"type": "Point", "coordinates": [-89.955148, 30.037612]}},
{"type": "Feature", "id": "1lEOwy4tzgKeMvEmAXKhJiO2MMA=", "properties": {"ref": "41424", "location_type": "branch", "@spider": "capital_one", "addr:full": "5696 Bullard Avenue", "addr:city": "New Orleans", "addr:state": "LA", "addr:postcode": "70128", "name": "Eastover", "phone": "(504) 533-5307", "website": "https://locations.capitalone.com/bank/LA/New-Orleans-Eastover-branch-41424", "opening_hours": "Mo-Sa 09:00-09:00", "brand": "Capital One", "brand:wikidata": "Q1034654"}, "geometry": {"type": "Point", "coordinates": [-89.955371, 30.03819]}},
{"type": "Feature", "id": "sEeaTlDvZ2c_-857v8Un-6QVI-c=", "properties": {"ref": "41481", "location_type": "branch", "@spider": "capital_one", "addr:full": "333 Gause Boulevard", "addr:city": "Slidell", "addr:state": "LA", "addr:postcode": "70458", "name": "Gause", "phone": "(985) 726-4700", "website": "https://locations.capitalone.com/bank/LA/Slidell-Gause-branch-41481", "opening_hours": "Mo-Sa 09:00-09:00", "brand": "Capital One", "brand:wikidata": "Q1034654"}, "geometry": {"type": "Point", "coordinates": [-89.776353, 30.284368]}},
{"type": "Feature", "id": "I_yfbFT6opObQXZM131cq0xtSn0=", "properties": {"ref": "41147", "location_type": "branch", "@spider": "capital_one", "addr:full": "500 Town Center Parkway", "addr:city": "Slidell", "addr:state": "LA", "addr:postcode": "70458", "name": "Fremaux Town Center", "phone": "(985) 718-3698", "website": "https://locations.capitalone.com/bank/LA/Slidell-Fremaux-Town-Center-branch-41147", "opening_hours": "Mo-Sa 09:00-09:00", "brand": "Capital One", "brand:wikidata": "Q1034654"}, "geometry": {"type": "Point", "coordinates": [-89.760254, 30.266045]}},
{"type": "Feature", "id": "XBZ6DqsnP6dA7YMgLtkEE4Ns6Rk=", "properties": {"ref": "65134", "location_type": "cafe", "@spider": "capital_one", "addr:full": "1465 E 53rd St", "addr:city": "Chicago", "addr:state": "IL", "addr:postcode": "60615", "name": "Hyde Park", "phone": "(773) 358-4129", "website": "https://locations.capitalone.com/bank/IL/Chicago-Hyde-Park-cafe-65134", "opening_hours": "Mo-Fr 07:00-07:00; Sa-Su 08:00-08:00", "brand": "Capital One", "brand:wikidata": "Q1034654"}, "geometry": {"type": "Point", "coordinates": [-87.589266, 41.799421]}},
{"type": "Feature", "id": "JeGgcspgkgN6VyV37JwVU8flNZ4=", "properties": {"ref": "65133", "location_type": "cafe", "@spider": "capital_one", "addr:full": "100 S State Street", "addr:city": "Chicago", "addr:state": "IL", "addr:postcode": "60603", "name": "State Street", "phone": "(312) 279-1047", "website": "https://locations.capitalone.com/bank/IL/Chicago-State-Street-cafe-65133", "opening_hours": "Mo-Fr 07:00-07:00; Sa-Su 09:00-09:00", "brand": "Capital One", "brand:wikidata": "Q1034654"}, "geometry": {"type": "Point", "coordinates": [-87.627961, 41.880592]}},
{"type": "Feature", "id": "c6uMhw4NGx6GXXUdVLuQY9B_ciU=", "properties": {"ref": "65130", "location_type": "cafe", "@spider": "capital_one", "addr:full": "1538 N Clybourn Ave.", "addr:city": "Chicago", "addr:state": "IL", "addr:postcode": "60610", "name": "Lincoln Park", "phone": "(312) 279-8060", "website": "https://locations.capitalone.com/bank/IL/Chicago-Lincoln-Park-cafe-65130", "opening_hours": "Mo-Fr 08:00-08:00", "brand": "Capital One", "brand:wikidata": "Q1034654"}, "geometry": {"type": "Point", "coordinates": [-87.647765, 41.909476]}},
{"type": "Feature", "id": "genakSXE7as7PZ5zJQ58S1GdYWo=", "properties": {"ref": "65131", "location_type": "cafe", "@spider": "capital_one", "addr:full": "3435 N Southport Ave", "addr:city": "Chicago", "addr:state": "IL", "addr:postcode": "60657", "name": "Southport", "phone": "(312) 279-8061", "website": "https://locations.capitalone.com/bank/IL/Chicago-Southport-cafe-65131", "opening_hours": "Mo-Fr 07:00-07:00; Sa-Su 09:00-09:00", "brand": "Capital One", "brand:wikidata": "Q1034654"}, "geometry": {"type": "Point", "coordinates": [-87.663645, 41.944498]}},
{"type": "Feature", "id": "SsCOXoWEsmCoGkWFZ45ge0vkLzQ=", "properties": {"ref": "65223", "location_type": "cafe", "@spider": "capital_one", "addr:full": "7875 Montgomery Rd Suite 2435", "addr:city": "Cincinnati", "addr:state": "OH", "addr:postcode": "45236", "name": "Kenwood Towne Centre", "phone": "(513) 699-0659", "website": "https://locations.capitalone.com/bank/OH/Cincinnati-Kenwood-Towne-Centre-cafe-65223", "opening_hours": "Mo-Su 11:00-11:00", "brand": "Capital One", "brand:wikidata": "Q1034654"}, "geometry": {"type": "Point", "coordinates": [-84.377993, 39.201947]}},
{"type": "Feature", "id": "AUIq94BfhWSE34QInOrmqnIowa0=", "properties": {"ref": "65205", "location_type": "cafe", "@spider": "capital_one", "addr:full": "3393 Peachtree Rd NE, Space # 3078A", "addr:city": "Atlanta", "addr:state": "GA", "addr:postcode": "30326", "name": "Lenox Square", "phone": "(470) 408-7957", "website": "https://locations.capitalone.com/bank/GA/Atlanta-Lenox-Square-cafe-65205", "opening_hours": "Mo-Sa 10:00-10:00; Su 12:00-12:00", "brand": "Capital One", "brand:wikidata": "Q1034654"}, "geometry": {"type": "Point", "coordinates": [-84.362143, 33.846297]}},
{"type": "Feature", "id": "yybazMd6Y-rg1OSz0GxkexydTGs=", "properties": {"ref": "65218", "location_type": "cafe", "@spider": "capital_one", "addr:full": "511 Woodward Ave", "addr:city": "Detroit", "addr:state": "MI", "addr:postcode": "48226", "name": "Downtown Detroit", "phone": "(313) 771-6034", "website": "https://locations.capitalone.com/bank/MI/-Downtown-Detroit-cafe-65218", "opening_hours": "Mo-Fr 07:00-07:00; Sa 09:00-09:00", "brand": "Capital One", "brand:wikidata": "Q1034654"}, "geometry": {"type": "Point", "coordinates": [-83.046082, 42.329562]}},
{"type": "Feature", "id": "8fvvNlfzuh3AJ54YKb4IFI-b19o=", "properties": {"ref": "65220", "location_type": "cafe", "@spider": "capital_one", "addr:full": "167 Easton Town Center,  Space A-103", "addr:city": "Columbus", "addr:state": "OH", "addr:postcode": "43219", "name": "Easton Town Center", "phone": "(614) 269-3000", "website": "https://locations.capitalone.com/bank/OH/Columbus-Easton-Town-Center-cafe-65220", "opening_hours": "Mo-Sa 09:00-09:00; Su 11:00-11:00", "brand": "Capital One", "brand:wikidata": "Q1034654"}, "geometry": {"type": "Point", "coordinates": [-82.91558, 40.050875]}},
{"type": "Feature", "id": "v4eNy0UqMDNZ5o7wjsKhlMzOJIY=", "properties": {"ref": "65116", "location_type": "cafe", "@spider": "capital_one", "addr:full": "700 S. Village Circle Suite #150", "addr:city": "Tampa", "addr:state": "FL", "addr:postcode": "33606", "name": "Tampa", "phone": "(813) 829-0133", "website": "https://locations.capitalone.com/bank/FL/-Tampa-cafe-65116", "opening_hours": "Mo-Sa 08:00-08:00; Su 09:00-09:00", "brand": "Capital One", "brand:wikidata": "Q1034654"}, "geometry": {"type": "Point", "coordinates": [-82.475358, 27.936728]}},
{"type": "Feature", "id": "OIX4vX_XDCISh0J5Hnx5jXkEZoY=", "properties": {"ref": "65111", "location_type": "cafe", "@spider": "capital_one", "addr:full": "50 Miracle Mile", "addr:city": "Coral Gables", "addr:state": "FL", "addr:postcode": "33134", "name": "Miracle Mile", "phone": "(305) 506-9000", "website": "https://locations.capitalone.com/bank/FL/Coral-Gables-Miracle-Mile-cafe-65111", "opening_hours": "Mo-Fr 08:00-08:00; Sa 09:00-09:00", "brand": "Capital One", "brand:wikidata": "Q1034654"}, "geometry": {"type": "Point", "coordinates": [-80.255767, 25.749465]}},
{"type": "Feature", "id": "Ro_BJQZv02Nt3BEdtwozIhtUQtk=", "properties": {"ref": "65114", "location_type": "cafe", "@spider": "capital_one", "addr:full": "850 South Miami Ave", "addr:city": "Miami", "addr:state": "FL", "addr:postcode": "33130", "name": "Brickell", "phone": "(786) 857-5756", "website": "https://locations.capitalone.com/bank/FL/Miami-Brickell-cafe-65114", "opening_hours": "Mo-Fr 07:00-07:00; Sa 08:00-08:00; Su 09:00-09:00", "brand": "Capital One", "brand:wikidata": "Q1034654"}, "geometry": {"type": "Point", "coordinates": [-80.193491, 25.765598]}},
{"type": "Feature", "id": "aNqhaJAOC96hTs8sM7zOHHqs0eA=", "properties": {"ref": "65110", "location_type": "cafe", "@spider": "capital_one", "addr:full": "1029 Lincoln Rd", "addr:city": "Miami Beach", "addr:state": "FL", "addr:postcode": "33139", "name": "Miami Beach", "phone": "(305) 506-9004", "website": "https://locations.capitalone.com/bank/FL/-Miami-Beach-cafe-65110", "opening_hours": "Mo-Sa 09:00-09:00; Su 11:00-11:00", "brand": "Capital One", "brand:wikidata": "Q1034654"}, "geometry": {"type": "Point", "coordinates": [-80.139454, 25.790941]}},
{"type": "Feature", "id": "EIOvdwhGJY79xUmcGEqmhuHWBFQ=", "properties": {"ref": "65112", "location_type": "cafe", "@spider": "capital_one", "addr:full": "801 E. Las Olas Blvd", "addr:city": "Fort Lauderdale", "addr:state": "FL", "addr:postcode": "33301", "name": "Ft. Lauderdale", "phone": "(954) 283-1670", "website": "https://locations.capitalone.com/bank/FL/Fort-Lauderdale-Ft-Lauderdale-cafe-65112", "opening_hours": "Mo-Fr 08:00-08:00; Sa-Su 09:00-09:00", "brand": "Capital One", "brand:wikidata": "Q1034654"}, "geometry": {"type": "Point", "coordinates": [-80.13527, 26.119469]}},
{"type": "Feature", "id": "jMRoOYzwWq0gzHZHIEnbZlqZZ6o=", "properties": {"ref": "65115", "location_type": "cafe", "@spider": "capital_one", "addr:full": "330 E Atlantic Ave.", "addr:city": "Delray Beach", "addr:state": "FL", "addr:postcode": "33483", "name": "Delray Beach", "phone": "(561) 273-8279", "website": "https://locations.capitalone.com/bank/FL/-Delray-Beach-cafe-65115", "opening_hours": "Mo-Sa 08:00-08:00; Su 10:00-10:00", "brand": "Capital One", "brand:wikidata": "Q1034654"}, "geometry": {"type": "Point", "coordinates": [-80.069187, 26.461477]}},
{"type": "Feature", "id": "v_ViWRJs9st4zbNSNUnxYtdv4XI=", "properties": {"ref": "61405", "location_type": "branch", "@spider": "capital_one", "addr:full": "401 East Market St", "addr:city": "Leesburg", "addr:state": "VA", "addr:postcode": "20176", "name": "Leesburg", "phone": "(703) 669-3061", "website": "https://locations.capitalone.com/bank/VA/Loudoun-County-Leesburg-branch-61405", "opening_hours": "Mo-Sa 09:00-09:00", "brand": "Capital One", "brand:wikidata": "Q1034654"}, "geometry": {"type": "Point", "coordinates": [-77.555492, 39.11012]}},
{"type": "Feature", "id": "clQFJalQIXsESYVPPUh0ky3N_DU=", "properties": {"ref": "61421", "location_type": "branch", "@spider": "capital_one", "addr:full": "19301 Promenade Drive", "addr:city": "Leesburg", "addr:state": "VA", "addr:postcode": "20176", "name": "Lansdowne", "phone": "(571) 333-2438", "website": "https://locations.capitalone.com/bank/VA/Leesburg-Lansdowne-branch-61421", "opening_hours": "Mo-Sa 09:00-09:00", "brand": "Capital One", "brand:wikidata": "Q1034654"}, "geometry": {"type": "Point", "coordinates": [-77.495943, 39.082373]}},
{"type": "Feature", "id": "hcvNrEUofV0eQsScCYlAsFqBN4g=", "properties": {"ref": "61530", "location_type": "branch", "@spider": "capital_one", "addr:full": "521 Fletcher Drive", "addr:city": "Warrenton", "addr:state": "VA", "addr:postcode": "20186", "name": "Warrenton", "phone": "(540) 341-8050", "website": "https://locations.capitalone.com/bank/VA/Fauquier-County-Warrenton-branch-61530", "opening_hours": "Mo-Sa 09:00-09:00", "brand": "Capital One", "brand:wikidata": "Q1034654"}, "geometry": {"type": "Point", "coordinates": [-77.793813, 38.727778]}},
{"type": "Feature", "id": "vgA4OaZtqI7p_oHr--OTrRykJSI=", "properties": {"ref": "65148", "location_type": "cafe", "@spider": "capital_one", "addr:full": "11800 W. Broad St. #1052", "addr:city": "Richmond", "addr:state": "VA", "addr:postcode": "23233", "name": "Short Pump", "phone": "(804) 655-4541", "website": "https://locations.capitalone.com/bank/VA/Richmond-Short-Pump-cafe-65148", "opening_hours": "Mo-Th 11:00-11:00; Fr-Sa 10:00-10:00; Su 11:00-11:00", "brand": "Capital One", "brand:wikidata": "Q1034654"}, "geometry": {"type": "Point", "coordinates": [-77.619728, 37.656302]}},
{"type": "Feature", "id": "2pMAD8jERZctvREXJKzdZ22z80A=", "properties": {"ref": "65150", "location_type": "cafe", "@spider": "capital_one", "addr:full": "2933 West Cary Street", "addr:city": "Richmond", "addr:state": "VA", "addr:postcode": "23221", "name": "Carytown", "phone": "(804) 655-4542", "website": "https://locations.capitalone.com/bank/VA/Richmond-Carytown-cafe-65150", "opening_hours": "Mo-Sa 08:00-08:00; Su 09:00-09:00", "brand": "Capital One", "brand:wikidata": "Q1034654"}, "geometry": {"type": "Point", "coordinates": [-77.478768, 37.55232]}},
{"type": "Feature", "id": "JME4c8nBaLyDeWJe9u9TBJpT8Xc=", "properties": {"ref": "61527", "location_type": "branch", "@spider": "capital_one", "addr:full": "5575 Ashland Community Square", "addr:city": "Manassas", "addr:state": "VA", "addr:postcode": "20112", "name": "Ashland Square", "phone": "(703) 580-8030", "website": "https://locations.capitalone.com/bank/VA/Manassas-Ashland-Square-branch-61527", "opening_hours": "Mo-Sa 09:00-09:00", "brand": "Capital One", "brand:wikidata": "Q1034654"}, "geometry": {"type": "Point", "coordinates": [-77.37339, 38.612526]}},
{"type": "Feature", "id": "-oNhDRu2q8eUk8-P04xTar8AyRo=", "properties": {"ref": "61524", "location_type": "branch", "@spider": "capital_one", "addr:full": "8092 Crescent Park Drive", "addr:city": "Gainesville", "addr:state": "VA", "addr:postcode": "20155", "name": "Madison Crescent", "phone": "(703) 753-6468", "website": "https://locations.capitalone.com/bank/VA/Gainesville-Madison-Crescent-branch-61524", "opening_hours": "Mo-Sa 09:00-09:00", "brand": "Capital One", "brand:wikidata": "Q1034654"}, "geometry": {"type": "Point", "coordinates": [-77.665022, 38.783448]}},
{"type": "Feature", "id": "2QapF64qw5V90zLEnhCKMWGjsc8=", "properties": {"ref": "61523", "location_type": "branch", "@spider": "capital_one", "addr:full": "13236 Gateway Center Dr", "addr:city": "Gainesville", "addr:state": "VA", "addr:postcode": "20155", "name": "Virginia Gateway", "phone": "(703) 753-3664", "website": "https://locations.capitalone.com/bank/VA/Gainesville-Virginia-Gateway-branch-61523", "opening_hours": "Mo-Sa 09:00-09:00", "brand": "Capital One", "brand:wikidata": "Q1034654"}, "geometry": {"type": "Point", "coordinates": [-77.605552, 38.797058]}},
{"type": "Feature", "id": "JeBVKnOAIwZOPmzHsMEQWmeI2dc=", "properties": {"ref": "61525", "location_type": "branch", "@spider": "capital_one", "addr:full": "12891 Galveston Court", "addr:city": "Manassas", "addr:state": "VA", "addr:postcode": "20112", "name": "Shops at County Center", "phone": "(703) 897-6800", "website": "https://locations.capitalone.com/bank/VA/Manassas-Shops-at-County-Center-branch-61525", "opening_hours": "Mo-Sa 09:00-09:00", "brand": "Capital One", "brand:wikidata": "Q1034654"}, "geometry": {"type": "Point", "coordinates": [-77.363855, 38.678807]}},
{"type": "Feature", "id": "Fw1cHuKDZOVyNcZWqCnFKwyBh2s=", "properties": {"ref": "61507", "location_type": "branch", "@spider": "capital_one", "addr:full": "14901 Potomac Town Place", "addr:city": "Woodbridge", "addr:state": "VA", "addr:postcode": "22191", "name": "Potomac Town Center-Woodbridge", "phone": "(703) 492-2860", "website": "https://locations.capitalone.com/bank/VA/Prince-William-County-Potomac-Town-CenterWoodbridge-branch-61507", "opening_hours": "Mo-Sa 09:00-09:00", "brand": "Capital One", "brand:wikidata": "Q1034654"}, "geometry": {"type": "Point", "coordinates": [-77.288302, 38.630598]}},
{"type": "Feature", "id": "ml4UN4Glbq8ViBv1lks4WJUaerI=", "properties": {"ref": "61424", "location_type": "branch", "@spider": "capital_one", "addr:full": "14001 Lee Jackson Memorial Highway", "addr:city": "Chantilly", "addr:state": "VA", "addr:postcode": "20151", "name": "Chantilly", "phone": "(703) 263-1415", "website": "https://locations.capitalone.com/bank/VA/Fairfax-County-Chantilly-branch-61424", "opening_hours": "Mo-Sa 09:00-09:00", "brand": "Capital One", "brand:wikidata": "Q1034654"}, "geometry": {"type": "Point", "coordinates": [-77.431843, 38.893877]}},
{"type": "Feature", "id": "c9xX5vI5YWaNQPz-zBWW7IZ005s=", "properties": {"ref": "61481", "location_type": "branch", "@spider": "capital_one", "addr:full": "10670 Fairfax Boulevard", "addr:city": "Fairfax", "addr:state": "VA", "addr:postcode": "22030", "name": "Blvd Shopping Center", "phone": "(703) 267-7460", "website": "https://locations.capitalone.com/bank/VA/Fairfax-Blvd-Shopping-Center-branch-61481", "opening_hours": "Mo-Sa 09:00-09:00", "brand": "Capital One", "brand:wikidata": "Q1034654"}, "geometry": {"type": "Point", "coordinates": [-77.31306, 38.856618]}},
{"type": "Feature", "id": "jQVCGY_Hgwfh9tOZy1dfw2OXmqA=", "properties": {"ref": "61454", "location_type": "branch", "@spider": "capital_one", "addr:full": "3941 Pickett Road", "addr:city": "Fairfax", "addr:state": "VA", "addr:postcode": "22031", "name": "Fair City Mall", "phone": "(703) 425-0687", "website": "https://locations.capitalone.com/bank/VA/Fairfax-Fair-City-Mall-branch-61454", "opening_hours": "Mo-Sa 09:00-09:00", "brand": "Capital One", "brand:wikidata": "Q1034654"}, "geometry": {"type": "Point", "coordinates": [-77.272323, 38.844275]}},
{"type": "Feature", "id": "-pvMhMYi0ppbUw6zzpyotq3X_Eg=", "properties": {"ref": "61512", "location_type": "branch", "@spider": "capital_one", "addr:full": "6949 Commerce St", "addr:city": "Springfield", "addr:state": "VA", "addr:postcode": "22150", "name": "Springfield", "phone": "(703) 455-2380", "website": "https://locations.capitalone.com/bank/VA/Fairfax-County-Springfield-branch-61512", "opening_hours": "Mo-Sa 09:00-09:00", "brand": "Capital One", "brand:wikidata": "Q1034654"}, "geometry": {"type": "Point", "coordinates": [-77.185906, 38.78186]}},
{"type": "Feature", "id": "bRoAhB7lV5bgB72mSTmT78S81IQ=", "properties": {"ref": "61425", "location_type": "branch", "@spider": "capital_one", "addr:full": "2938 Chain Bridge Rd", "addr:city": "Oakton", "addr:state": "VA", "addr:postcode": "22124", "name": "Oakton", "phone": "(703) 255-6485", "website": "https://locations.capitalone.com/bank/VA/Fairfax-County-Oakton-branch-61425", "opening_hours": "Mo-Sa 09:00-09:00", "brand": "Capital One", "brand:wikidata": "Q1034654"}, "geometry": {"type": "Point", "coordinates": [-77.300481, 38.881652]}},
{"type": "Feature", "id": "ZaDdgo9ty5-CpM-p80Gedo8_-jU=", "properties": {"ref": "61458", "location_type": "branch", "@spider": "capital_one", "addr:full": "7030 Little River Turnpike", "addr:city": "Annandale", "addr:state": "VA", "addr:postcode": "22003", "name": "Annandale", "phone": "(703) 941-5770", "website": "https://locations.capitalone.com/bank/VA/Fairfax-County-Annandale-branch-61458", "opening_hours": "Mo-Sa 09:00-09:00", "brand": "Capital One", "brand:wikidata": "Q1034654"}, "geometry": {"type": "Point", "coordinates": [-77.188912, 38.829688]}},
{"type": "Feature", "id": "mNCll5SMp4WVxLK26OZL-8ZJlFg=", "properties": {"ref": "61412", "location_type": "branch", "@spider": "capital_one", "addr:full": "1201 Elden St", "addr:city": "Herndon", "addr:state": "VA", "addr:postcode": "20170", "name": "Herndon", "phone": "(703) 467-8770", "website": "https://locations.capitalone.com/bank/VA/Fairfax-County-Herndon-branch-61412", "opening_hours": "Mo-Sa 09:00-09:00", "brand": "Capital One", "brand:wikidata": "Q1034654"}, "geometry": {"type": "Point", "coordinates": [-77.39887, 38.962241]}},
{"type": "Feature", "id": "chTdgKjlm_XUDL5_kjIgHMZoLmw=", "properties": {"ref": "61403", "location_type": "branch", "@spider": "capital_one", "addr:full": "246 Maple Ave East", "addr:city": "Vienna", "addr:state": "VA", "addr:postcode": "22180", "name": "Vienna", "phone": "(703) 242-5810", "website": "https://locations.capitalone.com/bank/VA/Fairfax-County-Vienna-branch-61403", "opening_hours": "Mo-Sa 09:00-09:00", "brand": "Capital One", "brand:wikidata": "Q1034654"}, "geometry": {"type": "Point", "coordinates": [-77.261602, 38.904658]}},
{"type": "Feature", "id": "r6_DNsg5am2njL3TM0JY2gPbxrY=", "properties": {"ref": "61478", "location_type": "branch", "@spider": "capital_one", "addr:full": "6790 Richmond Highway", "addr:city": "Alexandria", "addr:state": "VA", "addr:postcode": "22306", "name": "Beacon Mall", "phone": "(703) 660-7170", "website": "https://locations.capitalone.com/bank/VA/Alexandria-Beacon-Mall-branch-61478", "opening_hours": "Mo-Sa 09:00-09:00", "brand": "Capital One", "brand:wikidata": "Q1034654"}, "geometry": {"type": "Point", "coordinates": [-77.082406, 38.770001]}},
{"type": "Feature", "id": "Xv4JmKt7v3jSX1_HpiCGhLAClFE=", "properties": {"ref": "61413", "location_type": "branch", "@spider": "capital_one", "addr:full": "8110 Fletcher St", "addr:city": "Mclean", "addr:state": "VA", "addr:postcode": "22102", "name": "Tyson's International Drive", "phone": "(703) 288-6460", "website": "https://locations.capitalone.com/bank/VA/Mclean-Tysons-International-Drive-branch-61413", "opening_hours": "Mo-Sa 09:00-09:00", "brand": "Capital One", "brand:wikidata": "Q1034654"}, "geometry": {"type": "Point", "coordinates": [-77.225853, 38.917549]}},
{"type": "Feature", "id": "fdzp_FZY6FpAacNpBRrbrYllFOg=", "properties": {"ref": "61470", "location_type": "branch", "@spider": "capital_one", "addr:full": "7501 Leesburg Pike", "addr:city": "Falls Church", "addr:state": "VA", "addr:postcode": "22043", "name": "Idylwood Plaza", "phone": "(703) 448-4290", "website": "https://locations.capitalone.com/bank/VA/Falls-Church-Idylwood-Plaza-branch-61470", "opening_hours": "Mo-Sa 09:00-09:00", "brand": "Capital One", "brand:wikidata": "Q1034654"}, "geometry": {"type": "Point", "coordinates": [-77.203982, 38.902447]}},
{"type": "Feature", "id": "vvqxa46uVfr0aO8iiLPxf-O40Ec=", "properties": {"ref": "61406", "location_type": "branch", "@spider": "capital_one", "addr:full": "44151 Ashburn Shopping Plaza", "addr:city": "Ashburn", "addr:state": "VA", "addr:postcode": "20147", "name": "Ashburn Village", "phone": "(703) 729-1500", "website": "https://locations.capitalone.com/bank/VA/Loudoun-County-Ashburn-Village-branch-61406", "opening_hours": "Mo-Sa 09:00-09:00", "brand": "Capital One", "brand:wikidata": "Q1034654"}, "geometry": {"type": "Point", "coordinates": [-77.473703, 39.043122]}},
{"type": "Feature", "id": "GwPdxZ7-hfSGrR1cN7nVB4DbjQY=", "properties": {"ref": "61452", "location_type": "branch", "@spider": "capital_one", "addr:full": "3499 S. Jefferson St", "addr:city": "Bailey'S Crossroads", "addr:state": "VA", "addr:postcode": "22041", "name": "Bailey's Crossroads", "phone": "(703) 820-4205", "website": "https://locations.capitalone.com/bank/VA/Fairfax-County-Baileys-Crossroads-branch-61452", "opening_hours": "Mo-Sa 09:00-09:00", "brand": "Capital One", "brand:wikidata": "Q1034654"}, "geometry": {"type": "Point", "coordinates": [-77.117291, 38.849137]}},
{"type": "Feature", "id": "3Pm8zKiVJ4hZun-BAV0YbiRQWRY=", "properties": {"ref": "61422", "location_type": "branch", "@spider": "capital_one", "addr:full": "21700 Town Center Plaza", "addr:city": "Sterling", "addr:state": "VA", "addr:postcode": "20164", "name": "Sterling Town Center", "phone": "(703) 948-1140", "website": "https://locations.capitalone.com/bank/VA/Loudoun-County-Sterling-Town-Center-branch-61422", "opening_hours": "Mo-Sa 09:00-09:00", "brand": "Capital One", "brand:wikidata": "Q1034654"}, "geometry": {"type": "Point", "coordinates": [-77.372102, 39.014188]}},
{"type": "Feature", "id": "uY4FSg48qM2QlIipUS9o0nYp9K8=", "properties": {"ref": "61457", "location_type": "branch", "@spider": "capital_one", "addr:full": "500 S. Washington St", "addr:city": "Alexandria", "addr:state": "VA", "addr:postcode": "22314", "name": "Old Towne", "phone": "(703) 838-3655", "website": "https://locations.capitalone.com/bank/VA/Alexandria-Old-Towne-branch-61457", "opening_hours": "Mo-Sa 09:00-09:00", "brand": "Capital One", "brand:wikidata": "Q1034654"}, "geometry": {"type": "Point", "coordinates": [-77.047742, 38.800098]}},
{"type": "Feature", "id": "vlDyzkH1sRlXrop3JMya0v6Ruus=", "properties": {"ref": "61402", "location_type": "branch", "@spider": "capital_one", "addr:full": "1439 Chain Bridge Road", "addr:city": "Mclean", "addr:state": "VA", "addr:postcode": "22101", "name": "Mclean", "phone": "(703) 893-1501", "website": "https://locations.capitalone.com/bank/VA/Fairfax-County-Mclean-branch-61402", "opening_hours": "Mo-Sa 09:00-09:00", "brand": "Capital One", "brand:wikidata": "Q1034654"}, "geometry": {"type": "Point", "coordinates": [-77.178335, 38.932895]}},
{"type": "Feature", "id": "fCKm5YQf9fQt27Xnd3Pd2r29mY8=", "properties": {"ref": "61472", "location_type": "branch", "@spider": "capital_one", "addr:full": "4238 Wilson Boulevard, Suite 1145", "addr:city": "Arlington", "addr:state": "VA", "addr:postcode": "22203", "name": "Ballston Quarter", "phone": "(703) 558-2230", "website": "https://locations.capitalone.com/bank/VA/Arlington-Ballston-Quarter-branch-61472", "opening_hours": "Mo-Sa 09:00-09:00", "brand": "Capital One", "brand:wikidata": "Q1034654"}, "geometry": {"type": "Point", "coordinates": [-77.111039, 38.879721]}},
{"type": "Feature", "id": "N9GTVvuc4swpa-18zZZ8qTeIF3A=", "properties": {"ref": "61459", "location_type": "branch", "@spider": "capital_one", "addr:full": "4700 Lee Highway", "addr:city": "Arlington", "addr:state": "VA", "addr:postcode": "22207", "name": "Arlington", "phone": "(703) 812-8550", "website": "https://locations.capitalone.com/bank/VA/Arlington-County-Arlington-branch-61459", "opening_hours": "Mo-Sa 09:00-09:00", "brand": "Capital One", "brand:wikidata": "Q1034654"}, "geometry": {"type": "Point", "coordinates": [-77.121123, 38.898191]}},
{"type": "Feature", "id": "qEnC5-zP99ujwRB05yZqtd7jcDE=", "properties": {"ref": "61476", "location_type": "branch", "@spider": "capital_one", "addr:full": "2100 F Crystal Drive", "addr:city": "Arlington", "addr:state": "VA", "addr:postcode": "22202", "name": "Crystal City", "phone": "(703) 418-3804", "website": "https://locations.capitalone.com/bank/VA/Arlington-Crystal-City-branch-61476", "opening_hours": "Mo-Fr 09:00-09:00", "brand": "Capital One", "brand:wikidata": "Q1034654"}, "geometry": {"type": "Point", "coordinates": [-77.04962, 38.855403]}},
{"type": "Feature", "id": "s-ADGz7-q7UxUgHJS-OZTmqP1wc=", "properties": {"ref": "65191", "location_type": "cafe", "@spider": "capital_one", "addr:full": "3150 M St NW", "addr:city": "Washington", "addr:state": "DC", "addr:postcode": "20007", "name": "Georgetown", "phone": "(202) 730-3840", "website": "https://locations.capitalone.com/bank/DC/Washington-Georgetown-cafe-65191", "opening_hours": "Mo-Fr 07:00-07:00; Sa 08:00-08:00; Su 09:00-09:00", "brand": "Capital One", "brand:wikidata": "Q1034654"}, "geometry": {"type": "Point", "coordinates": [-77.062639, 38.905041]}},
{"type": "Feature", "id": "HpkLccL-sZk4gKoQLV4UQAsuT5E=", "properties": {"ref": "61160", "location_type": "branch", "@spider": "capital_one", "addr:full": "10211 River Road", "addr:city": "Potomac", "addr:state": "MD", "addr:postcode": "20854", "name": "Potomac", "phone": "(301) 983-2900", "website": "https://locations.capitalone.com/bank/MD/Montgomery-County-Potomac-branch-61160", "opening_hours": "Mo-Sa 09:00-09:00", "brand": "Capital One", "brand:wikidata": "Q1034654"}, "geometry": {"type": "Point", "coordinates": [-77.209214, 39.018459]}},
{"type": "Feature", "id": "uN0_2zjqlcjPPpoty2mxB16sBWQ=", "properties": {"ref": "61351", "location_type": "branch", "@spider": "capital_one", "addr:full": "4860 Massachusetts Ave, Nw", "addr:city": "Washington", "addr:state": "DC", "addr:postcode": "20016", "name": "Spring Valley", "phone": "(202) 363-2253", "website": "https://locations.capitalone.com/bank/DC/Washington-Spring-Valley-branch-61351", "opening_hours": "Mo-Sa 09:00-09:00", "brand": "Capital One", "brand:wikidata": "Q1034654"}, "geometry": {"type": "Point", "coordinates": [-77.096147, 38.944949]}},
{"type": "Feature", "id": "H22rhqXfoIglOo3bzk7m2MreRok=", "properties": {"ref": "61369", "location_type": "branch", "@spider": "capital_one", "addr:full": "1700 K St", "addr:city": "Washington", "addr:state": "DC", "addr:postcode": "20006", "name": "17th & K NW", "phone": "(202) 296-7601", "website": "https://locations.capitalone.com/bank/DC/Washington-17th-and-K-NW-branch-61369", "opening_hours": "Mo-Fr 09:00-09:00", "brand": "Capital One", "brand:wikidata": "Q1034654"}, "geometry": {"type": "Point", "coordinates": [-77.039652, 38.902268]}},
{"type": "Feature", "id": "OznUVOwZRDWokAaReciWERu9Fyw=", "properties": {"ref": "61373", "location_type": "branch", "@spider": "capital_one", "addr:full": "1200 F St, Nw", "addr:city": "Washington", "addr:state": "DC", "addr:postcode": "20004", "name": "Metro Center-12th & F NW", "phone": "(202) 347-4393", "website": "https://locations.capitalone.com/bank/DC/Washington-Metro-Center12th-and-F-NW-branch-61373", "opening_hours": "Mo-Fr 09:00-09:00", "brand": "Capital One", "brand:wikidata": "Q1034654"}, "geometry": {"type": "Point", "coordinates": [-77.028196, 38.897152]}},
{"type": "Feature", "id": "9VwJVi9I9Ir4kb8lTWWKsUTt7-Q=", "properties": {"ref": "65190", "location_type": "cafe", "@spider": "capital_one", "addr:full": "732 7th St NW", "addr:city": "Washington", "addr:state": "DC", "addr:postcode": "20001", "name": "Chinatown", "phone": "(202) 313-7005", "website": "https://locations.capitalone.com/bank/DC/Washington-Chinatown-cafe-65190", "opening_hours": "Mo-Fr 07:00-07:00; Sa-Su 11:00-11:00", "brand": "Capital One", "brand:wikidata": "Q1034654"}, "geometry": {"type": "Point", "coordinates": [-77.022094, 38.899593]}},
{"type": "Feature", "id": "wXqT74e_1b2PvwqPdUVEhYhELHM=", "properties": {"ref": "65192", "location_type": "cafe", "@spider": "capital_one", "addr:full": "1203 Good Hope Road SE", "addr:city": "Washington", "addr:state": "DC", "addr:postcode": "20020", "name": "Anacostia Cafe", "phone": "(202) 481-6197", "website": "https://locations.capitalone.com/bank/DC/Washington-Anacostia-Cafe-cafe-65192", "opening_hours": "Mo-Fr 08:00-08:00; Sa-Su 09:00-09:00", "brand": "Capital One", "brand:wikidata": "Q1034654"}, "geometry": {"type": "Point", "coordinates": [-76.988455, 38.867263]}},
{"type": "Feature", "id": "2VvM3cBMpjCQyVu4g4zxOYt3t8s=", "properties": {"ref": "61152", "location_type": "branch", "@spider": "capital_one", "addr:full": "5459 Wisconsin Ave", "addr:city": "Chevy Chase", "addr:state": "MD", "addr:postcode": "20815", "name": "Friendship Heights", "phone": "(301) 654-8900", "website": "https://locations.capitalone.com/bank/MD/Chevy-Chase-Friendship-Heights-branch-61152", "opening_hours": "Mo-Fr 09:00-09:00", "brand": "Capital One", "brand:wikidata": "Q1034654"}, "geometry": {"type": "Point", "coordinates": [-77.084952, 38.962238]}},
{"type": "Feature", "id": "6SgcfamEmbYa0jbC1jCLbt0Eg6w=", "properties": {"ref": "61340", "location_type": "branch", "@spider": "capital_one", "addr:full": "1947 14Th St Nw", "addr:city": "Washington", "addr:state": "DC", "addr:postcode": "20009", "name": "14th & U", "phone": "(202) 890-4518", "website": "https://locations.capitalone.com/bank/DC/Washington-14th-and-U-branch-61340", "opening_hours": "Mo-Sa 09:00-09:00", "brand": "Capital One", "brand:wikidata": "Q1034654"}, "geometry": {"type": "Point", "coordinates": [-77.031654, 38.916826]}},
{"type": "Feature", "id": "rMy60Etk-66_35zfLO7vWHOzjDY=", "properties": {"ref": "61372", "location_type": "branch", "@spider": "capital_one", "addr:full": "336 Pennsylvania Ave, Se", "addr:city": "Washington", "addr:state": "DC", "addr:postcode": "20003", "name": "Capitol Hill", "phone": "(202) 543-2510", "website": "https://locations.capitalone.com/bank/DC/Washington-Capitol-Hill-branch-61372", "opening_hours": "Mo-Sa 09:00-09:00", "brand": "Capital One", "brand:wikidata": "Q1034654"}, "geometry": {"type": "Point", "coordinates": [-77.000652, 38.886838]}},
{"type": "Feature", "id": "PVe_gLro_d7dejkEwMdjZi6hKzk=", "properties": {"ref": "61114", "location_type": "branch", "@spider": "capital_one", "addr:full": "21117 Frederick Road", "addr:city": "Germantown", "addr:state": "MD", "addr:postcode": "20876", "name": "Neelsville", "phone": "(301) 528-3654", "website": "https://locations.capitalone.com/bank/MD/Germantown-Neelsville-branch-61114", "opening_hours": "Mo-Sa 09:00-09:00", "brand": "Capital One", "brand:wikidata": "Q1034654"}, "geometry": {"type": "Point", "coordinates": [-77.245277, 39.204317]}},
{"type": "Feature", "id": "2bc_ssAL6FkUedD_qK9aYcP8iLU=", "properties": {"ref": "61209", "location_type": "branch", "@spider": "capital_one", "addr:full": "18104 Town Center Drive", "addr:city": "Olney", "addr:state": "MD", "addr:postcode": "20832", "name": "Olney Town Center", "phone": "(301) 924-5690", "website": "https://locations.capitalone.com/bank/MD/Montgomery-County-Olney-Town-Center-branch-61209", "opening_hours": "Mo-Sa 09:00-09:00", "brand": "Capital One", "brand:wikidata": "Q1034654"}, "geometry": {"type": "Point", "coordinates": [-77.06271, 39.151691]}},
{"type": "Feature", "id": "GdSnL5a7hP8drifaAB2zwprlCps=", "properties": {"ref": "61220", "location_type": "branch", "@spider": "capital_one", "addr:full": "6090 Daybreak Circle", "addr:city": "Clarksville", "addr:state": "MD", "addr:postcode": "21029", "name": "Clarksville", "phone": "(410) 531-1788", "website": "https://locations.capitalone.com/bank/MD/Howard-County-Clarksville-branch-61220", "opening_hours": "Mo-Sa 09:00-09:00", "brand": "Capital One", "brand:wikidata": "Q1034654"}, "geometry": {"type": "Point", "coordinates": [-76.938158, 39.21051]}},
{"type": "Feature", "id": "ZY5ssqK_gELkYTAxv3mqxRydQ2s=", "properties": {"ref": "61102", "location_type": "branch", "@spider": "capital_one", "addr:full": "509 N. Frederick Ave", "addr:city": "Gaithersburg", "addr:state": "MD", "addr:postcode": "20877", "name": "Gaithersburg", "phone": "(301) 947-3696", "website": "https://locations.capitalone.com/bank/MD/Montgomery-County-Gaithersburg-branch-61102", "opening_hours": "Mo-Sa 09:00-09:00", "brand": "Capital One", "brand:wikidata": "Q1034654"}, "geometry": {"type": "Point", "coordinates": [-77.210728, 39.151848]}},
{"type": "Feature", "id": "L9ZIAyNNtslgrtp-DV3N030uzms=", "properties": {"ref": "61115", "location_type": "branch", "@spider": "capital_one", "addr:full": "19801 Century Boulevard", "addr:city": "Germantown", "addr:state": "MD", "addr:postcode": "20874", "name": "Germantown Town Center", "phone": "(301) 916-8550", "website": "https://locations.capitalone.com/bank/MD/Montgomery-County-Germantown-Town-Center-branch-61115", "opening_hours": "Mo-Sa 09:00-09:00", "brand": "Capital One", "brand:wikidata": "Q1034654"}, "geometry": {"type": "Point", "coordinates": [-77.268051, 39.18028]}},
{"type": "Feature", "id": "bP2WDY_5DKIsEiW_oMVlHbBY7SU=", "properties": {"ref": "61101", "location_type": "branch", "@spider": "capital_one", "addr:full": "12 Bureau Drive", "addr:city": "Gaithersburg", "addr:state": "MD", "addr:postcode": "20878", "name": "Diamond Square", "phone": "(301) 963-3030", "website": "https://locations.capitalone.com/bank/MD/Gaithersburg-Diamond-Square-branch-61101", "opening_hours": "Mo-Sa 09:00-09:00", "brand": "Capital One", "brand:wikidata": "Q1034654"}, "geometry": {"type": "Point", "coordinates": [-77.217744, 39.142872]}},
{"type": "Feature", "id": "bbSTWzmiHxLp1fNtE7bHzWWMmGg=", "properties": {"ref": "61110", "location_type": "branch", "@spider": "capital_one", "addr:full": "317 Kentlands Boulevard", "addr:city": "Gaithersburg", "addr:state": "MD", "addr:postcode": "20878", "name": "Kentlands", "phone": "(301) 212-4085", "website": "https://locations.capitalone.com/bank/MD/Gaithersburg-Kentlands-branch-61110", "opening_hours": "Mo-Sa 09:00-09:00", "brand": "Capital One", "brand:wikidata": "Q1034654"}, "geometry": {"type": "Point", "coordinates": [-77.238241, 39.123843]}},
{"type": "Feature", "id": "4xSUoSuDY-p4AKb-v-sk2vRMC2U=", "properties": {"ref": "61117", "location_type": "branch", "@spider": "capital_one", "addr:full": "14943 Shady Grove Road", "addr:city": "Rockville", "addr:state": "MD", "addr:postcode": "20850", "name": "Falls Grove", "phone": "(301) 315-2471", "website": "https://locations.capitalone.com/bank/MD/Rockville-Falls-Grove-branch-61117", "opening_hours": "Mo-Sa 09:00-09:00", "brand": "Capital One", "brand:wikidata": "Q1034654"}, "geometry": {"type": "Point", "coordinates": [-77.193472, 39.097628]}},
{"type": "Feature", "id": "H57McOKE_i8t117DiW4jjnESBVs=", "properties": {"ref": "61124", "location_type": "branch", "@spider": "capital_one", "addr:full": "12201 Darnestown Road", "addr:city": "Gaithersburg", "addr:state": "MD", "addr:postcode": "20878", "name": "Darnestown", "phone": "(301) 926-4411", "website": "https://locations.capitalone.com/bank/MD/Gaithersburg-Darnestown-branch-61124", "opening_hours": "Mo-Sa 09:00-09:00", "brand": "Capital One", "brand:wikidata": "Q1034654"}, "geometry": {"type": "Point", "coordinates": [-77.253026, 39.118353]}},
{"type": "Feature", "id": "sI9rmCCEKBiyoidf_HRisHlUyPw=", "properties": {"ref": "61172", "location_type": "branch", "@spider": "capital_one", "addr:full": "387 Hungerford Drive", "addr:city": "Rockville", "addr:state": "MD", "addr:postcode": "20850", "name": "Hungerford", "phone": "(301) 251-1434", "website": "https://locations.capitalone.com/bank/MD/Rockville-Hungerford-branch-61172", "opening_hours": "Mo-Sa 09:00-09:00", "brand": "Capital One", "brand:wikidata": "Q1034654"}, "geometry": {"type": "Point", "coordinates": [-77.150247, 39.08834]}},
{"type": "Feature", "id": "6pKdol-LoQmUzCDoVomeM6_Lquo=", "properties": {"ref": "61201", "location_type": "branch", "@spider": "capital_one", "addr:full": "13641 Connecticut Ave", "addr:city": "Wheaton", "addr:state": "MD", "addr:postcode": "20906", "name": "Aspen Hill", "phone": "(301) 460-0900", "website": "https://locations.capitalone.com/bank/MD/Wheaton-Aspen-Hill-branch-61201", "opening_hours": "Mo-Sa 09:00-09:00", "brand": "Capital One", "brand:wikidata": "Q1034654"}, "geometry": {"type": "Point", "coordinates": [-77.079782, 39.078128]}},
{"type": "Feature", "id": "W1WLE2rXFMvhdc0U0N8sKRjibVI=", "properties": {"ref": "61214", "location_type": "branch", "@spider": "capital_one", "addr:full": "15664 Old Columbia Pike", "addr:city": "Burtonsville", "addr:state": "MD", "addr:postcode": "20866", "name": "Burtonsville Town Square", "phone": "(301) 476-8789", "website": "https://locations.capitalone.com/bank/MD/Montgomery-County-Burtonsville-Town-Square-branch-61214", "opening_hours": "Mo-Sa 09:00-09:00", "brand": "Capital One", "brand:wikidata": "Q1034654"}, "geometry": {"type": "Point", "coordinates": [-76.933809, 39.111315]}},
{"type": "Feature", "id": "iDVJCSNUZTW1kvTv2hSWFVBnkto=", "properties": {"ref": "61154", "location_type": "branch", "@spider": "capital_one", "addr:full": "101 Halpine Road", "addr:city": "Rockville", "addr:state": "MD", "addr:postcode": "20852", "name": "Congressional Plaza", "phone": "(301) 984-4850", "website": "https://locations.capitalone.com/bank/MD/Rockville-Congressional-Plaza-branch-61154", "opening_hours": "Mo-Sa 09:00-09:00", "brand": "Capital One", "brand:wikidata": "Q1034654"}, "geometry": {"type": "Point", "coordinates": [-77.124688, 39.061786]}},
{"type": "Feature", "id": "6YSamRXtwf7wiKwEk7d481A_MVI=", "properties": {"ref": "61222", "location_type": "branch", "@spider": "capital_one", "addr:full": "13301 New Hampshire Ave", "addr:city": "Silver Spring", "addr:state": "MD", "addr:postcode": "20904", "name": "Colesville", "phone": "(301) 680-8660", "website": "https://locations.capitalone.com/bank/MD/Silver-Spring-Colesville-branch-61222", "opening_hours": "Mo-Sa 09:00-09:00", "brand": "Capital One", "brand:wikidata": "Q1034654"}, "geometry": {"type": "Point", "coordinates": [-77.002139, 39.073359]}},
{"type": "Feature", "id": "SiOsR4eYyUMTGpDvv148k8WBGss=", "properties": {"ref": "61125", "location_type": "branch", "@spider": "capital_one", "addr:full": "5903 Buckeystown Pike", "addr:city": "Frederick", "addr:state": "MD", "addr:postcode": "21704", "name": "Urbana Pike", "phone": "(301) 698-3030", "website": "https://locations.capitalone.com/bank/MD/Frederick-Urbana-Pike-branch-61125", "opening_hours": "Mo-Sa 09:00-09:00", "brand": "Capital One", "brand:wikidata": "Q1034654"}, "geometry": {"type": "Point", "coordinates": [-77.408383, 39.39711]}},
{"type": "Feature", "id": "V06e6tVWVlDiX51TprRTPSloiP8=", "properties": {"ref": "61173", "location_type": "branch", "@spider": "capital_one", "addr:full": "5041 Nicholson Lane", "addr:city": "Rockville", "addr:state": "MD", "addr:postcode": "20852", "name": "Nicholson Lane", "phone": "(301) 255-6322", "website": "https://locations.capitalone.com/bank/MD/Rockville-Nicholson-Lane-branch-61173", "opening_hours": "Mo-Fr 09:00-09:00", "brand": "Capital One", "brand:wikidata": "Q1034654"}, "geometry": {"type": "Point", "coordinates": [-77.103984, 39.04657]}},
{"type": "Feature", "id": "lxIxoqBEHrxKNwRz6HsJfIfhzlY=", "properties": {"ref": "61159", "location_type": "branch", "@spider": "capital_one", "addr:full": "7941 Tuckerman Lane", "addr:city": "Potomac", "addr:state": "MD", "addr:postcode": "20854", "name": "Cabin John Village", "phone": "(301) 296-1492", "website": "https://locations.capitalone.com/bank/MD/Potomac-Cabin-John-Village-branch-61159", "opening_hours": "Mo-Sa 09:00-09:00", "brand": "Capital One", "brand:wikidata": "Q1034654"}, "geometry": {"type": "Point", "coordinates": [-77.157102, 39.040958]}},
{"type": "Feature", "id": "39umht9tvYdouRhpsXW_Td0bD1I=", "properties": {"ref": "61216", "location_type": "branch", "@spider": "capital_one", "addr:full": "11241 Georgia Ave", "addr:city": "Wheaton", "addr:state": "MD", "addr:postcode": "20902", "name": "Wheaton", "phone": "(301) 929-6870", "website": "https://locations.capitalone.com/bank/MD/Montgomery-County-Wheaton-branch-61216", "opening_hours": "Mo-Sa 09:00-09:00", "brand": "Capital One", "brand:wikidata": "Q1034654"}, "geometry": {"type": "Point", "coordinates": [-77.050971, 39.039958]}},
{"type": "Feature", "id": "aSld9eZLX0VfAAb7w4ifdo1nhL8=", "properties": {"ref": "61221", "location_type": "branch", "@spider": "capital_one", "addr:full": "12293 Tech Road", "addr:city": "Silver Spring", "addr:state": "MD", "addr:postcode": "20904", "name": "Westech Corner", "phone": "(301) 625-5803", "website": "https://locations.capitalone.com/bank/MD/Silver-Spring-Westech-Corner-branch-61221", "opening_hours": "Mo-Sa 09:00-09:00", "brand": "Capital One", "brand:wikidata": "Q1034654"}, "geometry": {"type": "Point", "coordinates": [-76.96706, 39.057556]}},
{"type": "Feature", "id": "Q0Zv-CmHxCThfrWCA80mOgT2AzU=", "properties": {"ref": "61278", "location_type": "branch", "@spider": "capital_one", "addr:full": "6690 Marie Curie Drive", "addr:city": "Elkridge", "addr:state": "MD", "addr:postcode": "21075", "name": "Gateway Overlook", "phone": "(410) 872-2770", "website": "https://locations.capitalone.com/bank/MD/Elkridge-Gateway-Overlook-branch-61278", "opening_hours": "Mo-Sa 09:00-09:00", "brand": "Capital One", "brand:wikidata": "Q1034654"}, "geometry": {"type": "Point", "coordinates": [-76.795629, 39.186892]}},
{"type": "Feature", "id": "Qps69gSs8X3kw8hO_J8q2wdOPsg=", "properties": {"ref": "61218", "location_type": "branch", "@spider": "capital_one", "addr:full": "10707 Connecticut Ave", "addr:city": "Kensington", "addr:state": "MD", "addr:postcode": "20895", "name": "Kensington", "phone": "(301) 949-4401", "website": "https://locations.capitalone.com/bank/MD/Montgomery-County-Kensington-branch-61218", "opening_hours": "Mo-Sa 09:00-09:00", "brand": "Capital One", "brand:wikidata": "Q1034654"}, "geometry": {"type": "Point", "coordinates": [-77.074692, 39.031258]}},
{"type": "Feature", "id": "t697lSgj9trYBgB4X_UHME8sOPY=", "properties": {"ref": "61120", "location_type": "branch", "@spider": "capital_one", "addr:full": "1305 W. 7th St, Suite #39", "addr:city": "Frederick", "addr:state": "MD", "addr:postcode": "21702", "name": "Frederick Shopping Center", "phone": "(301) 644-2260", "website": "https://locations.capitalone.com/bank/MD/Frederick-County-Frederick-Shopping-Center-branch-61120", "opening_hours": "Mo-Sa 09:00-09:00", "brand": "Capital One", "brand:wikidata": "Q1034654"}, "geometry": {"type": "Point", "coordinates": [-77.417309, 39.430902]}},
{"type": "Feature", "id": "OmIfz2s4_bh-4J6P1H0RyT9J2po=", "properties": {"ref": "61164", "location_type": "branch", "@spider": "capital_one", "addr:full": "10400 Old Georgetown Road", "addr:city": "Bethesda", "addr:state": "MD", "addr:postcode": "20814", "name": "Georgetown Square", "phone": "(301) 564-5322", "website": "https://locations.capitalone.com/bank/MD/Bethesda-Georgetown-Square-branch-61164", "opening_hours": "Mo-Sa 09:00-09:00", "brand": "Capital One", "brand:wikidata": "Q1034654"}, "geometry": {"type": "Point", "coordinates": [-77.126872, 39.026018]}},
{"type": "Feature", "id": "ZVewhYDIbJlBOTd7RWf5u_9VAEc=", "properties": {"ref": "61275", "location_type": "branch", "@spider": "capital_one", "addr:full": "1025 Washington Blvd", "addr:city": "Laurel", "addr:state": "MD", "addr:postcode": "20707", "name": "Laurel Shopping Center", "phone": "(301) 497-6923", "website": "https://locations.capitalone.com/bank/MD/Prince-Georges-County-Laurel-Shopping-Center-branch-61275", "opening_hours": "Mo-Sa 09:00-09:00", "brand": "Capital One", "brand:wikidata": "Q1034654"}, "geometry": {"type": "Point", "coordinates": [-76.853948, 39.095165]}},
{"type": "Feature", "id": "Qnh0AybvzjTQADbP4pGxNaEhRZM=", "properties": {"ref": "61151", "location_type": "branch", "@spider": "capital_one", "addr:full": "8401 Connecticut Ave", "addr:city": "Chevy Chase", "addr:state": "MD", "addr:postcode": "20815", "name": "Chevy Chase Lake", "phone": "(301) 986-7560", "website": "https://locations.capitalone.com/bank/MD/Montgomery-County-Chevy-Chase-Lake-branch-61151", "opening_hours": "Mo-Fr 09:00-09:00", "brand": "Capital One", "brand:wikidata": "Q1034654"}, "geometry": {"type": "Point", "coordinates": [-77.076675, 38.994176]}},
{"type": "Feature", "id": "veh1IgJQFvBfhKqJKgy7g0ySY7Q=", "properties": {"ref": "61166", "location_type": "branch", "@spider": "capital_one", "addr:full": "4825 Cordell Ave", "addr:city": "Bethesda", "addr:state": "MD", "addr:postcode": "20814", "name": "Cordell Avenue", "phone": "(301) 652-7060", "website": "https://locations.capitalone.com/bank/MD/Bethesda-Cordell-Avenue-branch-61166", "opening_hours": "Mo-Fr 09:00-09:00", "brand": "Capital One", "brand:wikidata": "Q1034654"}, "geometry": {"type": "Point", "coordinates": [-77.096864, 38.990946]}},
{"type": "Feature", "id": "eWrj2DOEg3jwFOWUA7EjtCUElEs=", "properties": {"ref": "61305", "location_type": "branch", "@spider": "capital_one", "addr:full": "10800 Baltimore Ave", "addr:city": "Beltsville", "addr:state": "MD", "addr:postcode": "20705", "name": "Beltsville", "phone": "(301) 595-1860", "website": "https://locations.capitalone.com/bank/MD/Prince-Georges-County-Beltsville-branch-61305", "opening_hours": "Mo-Fr 09:00-09:00", "brand": "Capital One", "brand:wikidata": "Q1034654"}, "geometry": {"type": "Point", "coordinates": [-76.912435, 39.031804]}},
{"type": "Feature", "id": "kH4WrFydtJVCLo9aY0hYy7cH8vQ=", "properties": {"ref": "61202", "location_type": "branch", "@spider": "capital_one", "addr:full": "8315 Georgia Ave", "addr:city": "Silver Spring", "addr:state": "MD", "addr:postcode": "20910", "name": "Silver Spring", "phone": "(301) 588-7000", "website": "https://locations.capitalone.com/bank/MD/Montgomery-County-Silver-Spring-branch-61202", "opening_hours": "Mo-Sa 09:00-09:00", "brand": "Capital One", "brand:wikidata": "Q1034654"}, "geometry": {"type": "Point", "coordinates": [-77.026304, 38.993305]}},
{"type": "Feature", "id": "ExD8PvczjZeGEIok79gM05ZbJYo=", "properties": {"ref": "61285", "location_type": "branch", "@spider": "capital_one", "addr:full": "6504 Reisterstown Rd", "addr:city": "Baltimore", "addr:state": "MD", "addr:postcode": "21215", "name": "Reisterstown", "phone": "(410) 622-3844", "website": "https://locations.capitalone.com/bank/MD/Baltimore-Reisterstown-branch-61285", "opening_hours": "Mo-Sa 09:00-09:00", "brand": "Capital One", "brand:wikidata": "Q1034654"}, "geometry": {"type": "Point", "coordinates": [-76.703857, 39.355654]}},
{"type": "Feature", "id": "o3T0pStC3OxtKnf023L4XfkFM9o=", "properties": {"ref": "61203", "location_type": "branch", "@spider": "capital_one", "addr:full": "1181 University Boulevard", "addr:city": "Takoma Park", "addr:state": "MD", "addr:postcode": "20912", "name": "Hampshire-Langley", "phone": "(301) 439-7900", "website": "https://locations.capitalone.com/bank/MD/Takoma-Park-HampshireLangley-branch-61203", "opening_hours": "Mo-Sa 09:00-09:00", "brand": "Capital One", "brand:wikidata": "Q1034654"}, "geometry": {"type": "Point", "coordinates": [-76.988407, 38.988323]}},
{"type": "Feature", "id": "HN2iFm7IuB0yXm_pXYwZk74LMIc=", "properties": {"ref": "61301", "location_type": "branch", "@spider": "capital_one", "addr:full": "6226 Greenbelt Road", "addr:city": "Greenbelt", "addr:state": "MD", "addr:postcode": "20770", "name": "Greenbelt Plaza Mall", "phone": "(301) 345-2424", "website": "https://locations.capitalone.com/bank/MD/Prince-Georges-County-Greenbelt-Plaza-Mall-branch-61301", "opening_hours": "Mo-Fr 09:00-09:00", "brand": "Capital One", "brand:wikidata": "Q1034654"}, "geometry": {"type": "Point", "coordinates": [-76.908724, 38.99789]}},
{"type": "Feature", "id": "m7_T8HFIrCX6Znoew3RZcatmHMA=", "properties": {"ref": "61309", "location_type": "branch", "@spider": "capital_one", "addr:full": "6400 Belcrest Road", "addr:city": "Hyattsville", "addr:state": "MD", "addr:postcode": "20782", "name": "Prince George's Plaza", "phone": "(301) 559-2080", "website": "https://locations.capitalone.com/bank/MD/Hyattsville-Prince-Georges-Plaza-branch-61309", "opening_hours": "Mo-Sa 09:00-09:00", "brand": "Capital One", "brand:wikidata": "Q1034654"}, "geometry": {"type": "Point", "coordinates": [-76.954637, 38.967083]}},
{"type": "Feature", "id": "uGJtTpm8JnkWlL5CAObHNtivK7c=", "properties": {"ref": "61331", "location_type": "branch", "@spider": "capital_one", "addr:full": "2401 Liberty Heights Ave (#2725)", "addr:city": "Baltimore", "addr:state": "MD", "addr:postcode": "21215", "name": "Mondawmin", "phone": "(443) 792-4347", "website": "https://locations.capitalone.com/bank/MD/Baltimore-Mondawmin-branch-61331", "opening_hours": "Mo-Fr 09:00-09:00", "brand": "Capital One", "brand:wikidata": "Q1034654"}, "geometry": {"type": "Point", "coordinates": [-76.653743, 39.316443]}},
{"type": "Feature", "id": "fAEpIQ4GYb3-xa-43j_pRSvTDPM=", "properties": {"ref": "61429", "location_type": "branch", "@spider": "capital_one", "addr:full": "1241 West Pratt Street", "addr:city": "Baltimore", "addr:state": "MD", "addr:postcode": "21223", "name": "Mt Clare Junction", "phone": "(410) 246-0180", "website": "https://locations.capitalone.com/bank/MD/Baltimore-Mt-Clare-Junction-branch-61429", "opening_hours": "Mo-Fr 09:00-09:00", "brand": "Capital One", "brand:wikidata": "Q1034654"}, "geometry": {"type": "Point", "coordinates": [-76.63758, 39.28425]}},
{"type": "Feature", "id": "h8hMKvUlaqQfHzlaVrvzDPKYsXA=", "properties": {"ref": "61323", "location_type": "branch", "@spider": "capital_one", "addr:full": "10651 Martin Luther King, Jr. Highway", "addr:city": "Bowie", "addr:state": "MD", "addr:postcode": "20720", "name": "Vista Gardens", "phone": "(301) 805-6063", "website": "https://locations.capitalone.com/bank/MD/Bowie-Vista-Gardens-branch-61323", "opening_hours": "Mo-Sa 09:00-09:00", "brand": "Capital One", "brand:wikidata": "Q1034654"}, "geometry": {"type": "Point", "coordinates": [-76.822648, 38.95543]}},
{"type": "Feature", "id": "gnr5XDRWHj93p83RBCyEmeGF580=", "properties": {"ref": "61261", "location_type": "branch", "@spider": "capital_one", "addr:full": "2611 Brandermill Boulevard", "addr:city": "Gambrills", "addr:state": "MD", "addr:postcode": "21054", "name": "Waugh Chapel", "phone": "(410) 451-5020", "website": "https://locations.capitalone.com/bank/MD/Gambrills-Waugh-Chapel-branch-61261", "opening_hours": "Mo-Sa 09:00-09:00", "brand": "Capital One", "brand:wikidata": "Q1034654"}, "geometry": {"type": "Point", "coordinates": [-76.679234, 39.036854]}},
{"type": "Feature", "id": "audFUnOys9D6Hu2sxT2IhOr6B_I=", "properties": {"ref": "61253", "location_type": "branch", "@spider": "capital_one", "addr:full": "7937 Ritchie Highway", "addr:city": "Glen Burnie", "addr:state": "MD", "addr:postcode": "21061", "name": "Glen Burnie", "phone": "(410) 766-4460", "website": "https://locations.capitalone.com/bank/MD/Anne-Arundel-County-Glen-Burnie-branch-61253", "opening_hours": "Mo-Fr 09:00-09:00", "brand": "Capital One", "brand:wikidata": "Q1034654"}, "geometry": {"type": "Point", "coordinates": [-76.598833, 39.137409]}},
{"type": "Feature", "id": "YQ7m5_raaqMo_EbJxu1XNdOPKNY=", "properties": {"ref": "61310", "location_type": "branch", "@spider": "capital_one", "addr:full": "1040 Largo Center Drive", "addr:city": "Largo", "addr:state": "MD", "addr:postcode": "20774", "name": "Largo Town Center", "phone": "(301) 808-1140", "website": "https://locations.capitalone.com/bank/MD/Prince-Georges-County-Largo-Town-Center-branch-61310", "opening_hours": "Mo-Sa 09:00-09:00", "brand": "Capital One", "brand:wikidata": "Q1034654"}, "geometry": {"type": "Point", "coordinates": [-76.837251, 38.902322]}},
{"type": "Feature", "id": "56nXC5K_wH0mOAP5vsh1SCoQPGc=", "properties": {"ref": "61354", "location_type": "branch", "@spider": "capital_one", "addr:full": "2831 Alabama Ave, Se", "addr:city": "Washington", "addr:state": "DC", "addr:postcode": "20020", "name": "Anacostia", "phone": "(202) 575-4058", "website": "https://locations.capitalone.com/bank/DC/Washington-Anacostia-branch-61354", "opening_hours": "Mo-Sa 09:00-09:00", "brand": "Capital One", "brand:wikidata": "Q1034654"}, "geometry": {"type": "Point", "coordinates": [-76.967582, 38.858598]}},
{"type": "Feature", "id": "w8WSAt5UnoAXsC5lxGja022dXP4=", "properties": {"ref": "61128", "location_type": "branch", "@spider": "capital_one", "addr:full": "1309 Merritt Blvd", "addr:city": "Dundalk", "addr:state": "MD", "addr:postcode": "21222", "name": "Dundalk", "phone": "(443) 696-4101", "website": "https://locations.capitalone.com/bank/MD/Baltimore-County-Dundalk-branch-61128", "opening_hours": "Mo-Sa 09:00-09:00", "brand": "Capital One", "brand:wikidata": "Q1034654"}, "geometry": {"type": "Point", "coordinates": [-76.504441, 39.279466]}},
{"type": "Feature", "id": "_KDXjMhL76G8_TEudXm8332jryI=", "properties": {"ref": "61266", "location_type": "branch", "@spider": "capital_one", "addr:full": "2063 West St", "addr:city": "Annapolis", "addr:state": "MD", "addr:postcode": "21401", "name": "Annapolis", "phone": "(410) 266-3421", "website": "https://locations.capitalone.com/bank/MD/Anne-Arundel-County-Annapolis-branch-61266", "opening_hours": "Mo-Sa 09:00-09:00", "brand": "Capital One", "brand:wikidata": "Q1034654"}, "geometry": {"type": "Point", "coordinates": [-76.538645, 38.983229]}},
{"type": "Feature", "id": "JA8dq_iYFJAe4pUKEyXj164JiGQ=", "properties": {"ref": "61313", "location_type": "branch", "@spider": "capital_one", "addr:full": "8845 Branch Ave", "addr:city": "Clinton", "addr:state": "MD", "addr:postcode": "20735", "name": "Clinton Crossing", "phone": "(301) 877-7002", "website": "https://locations.capitalone.com/bank/MD/Prince-Georges-County-Clinton-Crossing-branch-61313", "opening_hours": "Mo-Sa 09:00-09:00", "brand": "Capital One", "brand:wikidata": "Q1034654"}, "geometry": {"type": "Point", "coordinates": [-76.890019, 38.767774]}},
{"type": "Feature", "id": "VBZ38kDulDLITPVv8rRUif0vXfw=", "properties": {"ref": "65168", "location_type": "cafe", "@spider": "capital_one", "addr:full": "King of Prussia the Plaza Capital One Suite 1309A 160 N Gulph Rd", "addr:city": "King of Prussia", "addr:state": "PA", "addr:postcode": "19406", "name": "King of Prussia", "phone": "(610) 233-0137", "website": "https://locations.capitalone.com/bank/PA/-King-of-Prussia-cafe-65168", "opening_hours": "Mo-Sa 09:00-09:00; Su 10:00-10:00", "brand": "Capital One", "brand:wikidata": "Q1034654"}, "geometry": {"type": "Point", "coordinates": [-75.391057, 40.088658]}},
{"type": "Feature", "id": "osRwCHTeYl52qv2AAbpClwWXPtQ=", "properties": {"ref": "65170", "location_type": "cafe", "@spider": "capital_one", "addr:full": "135 S 17th St. Suite A", "addr:city": "Philadelphia", "addr:state": "PA", "addr:postcode": "19103", "name": "Rittenhouse", "phone": "(215) 239-2765", "website": "https://locations.capitalone.com/bank/PA/Philadelphia-Rittenhouse-cafe-65170", "opening_hours": "Mo-Fr 07:00-07:00; Sa 08:00-08:00; Su 09:00-09:00", "brand": "Capital One", "brand:wikidata": "Q1034654"}, "geometry": {"type": "Point", "coordinates": [-75.168858, 39.9501]}},
{"type": "Feature", "id": "4XmLD9ADOdVrKC2kXn5_WUCbhHk=", "properties": {"ref": "46870", "location_type": "branch", "@spider": "capital_one", "addr:full": "507 South Livingston Ave", "addr:city": "Livingston", "addr:state": "NJ", "addr:postcode": "07039", "name": "Livingston NJ", "phone": "(973) 597-1565", "website": "https://locations.capitalone.com/bank/NJ/Essex-County-Livingston-NJ-branch-46870", "opening_hours": "Mo-Sa 09:00-09:00", "brand": "Capital One", "brand:wikidata": "Q1034654"}, "geometry": {"type": "Point", "coordinates": [-74.322858, 40.774918]}},
{"type": "Feature", "id": "GnFIfPaPSQCgGrjGEWFoqsWQsGw=", "properties": {"ref": "46907", "location_type": "branch", "@spider": "capital_one", "addr:full": "287 Browertown Road", "addr:city": "Woodland Park", "addr:state": "NJ", "addr:postcode": "07424", "name": "Woodland Park", "phone": "(973) 890-1500", "website": "https://locations.capitalone.com/bank/NJ/Passaic-County-Woodland-Park-branch-46907", "opening_hours": "Mo-Sa 09:00-09:00", "brand": "Capital One", "brand:wikidata": "Q1034654"}, "geometry": {"type": "Point", "coordinates": [-74.208272, 40.883062]}},
{"type": "Feature", "id": "gwtLMmibgNlXWuv0AbITqsGaGSs=", "properties": {"ref": "46816", "location_type": "branch", "@spider": "capital_one", "addr:full": "690 Wyckoff Ave", "addr:city": "Wyckoff", "addr:state": "NJ", "addr:postcode": "07481", "name": "Wyckoff", "phone": "(201) 402-0507", "website": "https://locations.capitalone.com/bank/NJ/Bergen-County-Wyckoff-branch-46816", "opening_hours": "Mo-Sa 09:00-09:00", "brand": "Capital One", "brand:wikidata": "Q1034654"}, "geometry": {"type": "Point", "coordinates": [-74.1714, 41.0142]}},
{"type": "Feature", "id": "hG6JdpvYsKiphzx33AYHp5aBb3A=", "properties": {"ref": "46070", "location_type": "branch", "@spider": "capital_one", "addr:full": "815 Route 22 West", "addr:city": "North Plainfield", "addr:state": "NJ", "addr:postcode": "07060", "name": "North Plainfield", "phone": "(908) 444-9322", "website": "https://locations.capitalone.com/bank/NJ/Somerset-County-North-Plainfield-branch-46070", "opening_hours": "Mo-Sa 09:00-09:00", "brand": "Capital One", "brand:wikidata": "Q1034654"}, "geometry": {"type": "Point", "coordinates": [-74.442224, 40.624978]}},
{"type": "Feature", "id": "hjMaVCgDI24KSsqHES0bcZAAKAk=", "properties": {"ref": "46864", "location_type": "branch", "@spider": "capital_one", "addr:full": "474 Franklin Ave", "addr:city": "Nutley", "addr:state": "NJ", "addr:postcode": "07110", "name": "Nutley", "phone": "(973) 661-0300", "website": "https://locations.capitalone.com/bank/NJ/Essex-County-Nutley-branch-46864", "opening_hours": "Mo-Sa 09:00-09:00", "brand": "Capital One", "brand:wikidata": "Q1034654"}, "geometry": {"type": "Point", "coordinates": [-74.156225, 40.822677]}},
{"type": "Feature", "id": "i2iAc5IfW30E4zA118VUHNyGiug=", "properties": {"ref": "46903", "location_type": "branch", "@spider": "capital_one", "addr:full": "10 Godwin Ave", "addr:city": "Ridgewood", "addr:state": "NJ", "addr:postcode": "07450", "name": "Ridgewood-10 Godwin Avenue", "phone": "(201) 493-3900", "website": "https://locations.capitalone.com/bank/NJ/Bergen-County-Ridgewood10-Godwin-Avenue-branch-46903", "opening_hours": "Mo-Sa 09:00-09:00", "brand": "Capital One", "brand:wikidata": "Q1034654"}, "geometry": {"type": "Point", "coordinates": [-74.12217, 40.978935]}},
{"type": "Feature", "id": "Yb66dN9LikbH9ptGEvs_TCRI9N0=", "properties": {"ref": "46862", "location_type": "branch", "@spider": "capital_one", "addr:full": "1735 Morris Ave", "addr:city": "Union", "addr:state": "NJ", "addr:postcode": "07083", "name": "Union NJ", "phone": "(908) 624-1754", "website": "https://locations.capitalone.com/bank/NJ/Union-County-Union-NJ-branch-46862", "opening_hours": "Mo-Sa 09:00-09:00", "brand": "Capital One", "brand:wikidata": "Q1034654"}, "geometry": {"type": "Point", "coordinates": [-74.257379, 40.695142]}},
{"type": "Feature", "id": "xX2b1K-SleeJZH31lfV0iNYRYjc=", "properties": {"ref": "46332", "location_type": "branch", "@spider": "capital_one", "addr:full": "487 Springfield Ave", "addr:city": "Newark", "addr:state": "NJ", "addr:postcode": "07103", "name": "Springfield Ave", "phone": "(973) 735-0120", "website": "https://locations.capitalone.com/bank/NJ/Newark-Springfield-Ave-branch-46332", "opening_hours": "Mo-Sa 09:00-09:00", "brand": "Capital One", "brand:wikidata": "Q1034654"}, "geometry": {"type": "Point", "coordinates": [-74.202058, 40.731723]}},
{"type": "Feature", "id": "EhLHvpi_5lSo6OpawX2Omz3YH7E=", "properties": {"ref": "46908", "location_type": "branch", "@spider": "capital_one", "addr:full": "464 Route 17 North", "addr:city": "Paramus", "addr:state": "NJ", "addr:postcode": "07652", "name": "Paramus", "phone": "(201) 262-3470", "website": "https://locations.capitalone.com/bank/NJ/Bergen-County-Paramus-branch-46908", "opening_hours": "Mo-Sa 09:00-09:00", "brand": "Capital One", "brand:wikidata": "Q1034654"}, "geometry": {"type": "Point", "coordinates": [-74.072288, 40.952967]}},
{"type": "Feature", "id": "0H_gVzDx0Vh9f1M2j-8LivhNPu4=", "properties": {"ref": "46331", "location_type": "branch", "@spider": "capital_one", "addr:full": "537 Market Street", "addr:city": "Newark", "addr:state": "NJ", "addr:postcode": "07105", "name": "Market Street", "phone": "(973) 735-0016", "website": "https://locations.capitalone.com/bank/NJ/Newark-Market-Street-branch-46331", "opening_hours": "Mo-Sa 09:00-09:00", "brand": "Capital One", "brand:wikidata": "Q1034654"}, "geometry": {"type": "Point", "coordinates": [-74.155011, 40.732136]}},
{"type": "Feature", "id": "-Z1tM5jbHhhUHZRK0XI7E3az6Pk=", "properties": {"ref": "46050", "location_type": "branch", "@spider": "capital_one", "addr:full": "184 Essex St", "addr:city": "Lodi", "addr:state": "NJ", "addr:postcode": "07644", "name": "Lodi", "phone": "(201) 587-2035", "website": "https://locations.capitalone.com/bank/NJ/Bergen-County-Lodi-branch-46050", "opening_hours": "Mo-Sa 09:00-09:00", "brand": "Capital One", "brand:wikidata": "Q1034654"}, "geometry": {"type": "Point", "coordinates": [-74.06854, 40.888458]}},
{"type": "Feature", "id": "GD4C_XsPJpRxa7G8ekNv4e5zkxE=", "properties": {"ref": "46335", "location_type": "branch", "@spider": "capital_one", "addr:full": "911 S Elmora Avenue", "addr:city": "Elizabeth", "addr:state": "NJ", "addr:postcode": "07202", "name": "Elizabeth", "phone": "(908) 662-6266", "website": "https://locations.capitalone.com/bank/NJ/Union-County-Elizabeth-branch-46335", "opening_hours": "Mo-Sa 09:00-09:00", "brand": "Capital One", "brand:wikidata": "Q1034654"}, "geometry": {"type": "Point", "coordinates": [-74.221406, 40.65134]}},
{"type": "Feature", "id": "cDwK4XhrZtLD2zB2ncBe-b5VH3Y=", "properties": {"ref": "46810", "location_type": "branch", "@spider": "capital_one", "addr:full": "321 Route 440", "addr:city": "Jersey City", "addr:state": "NJ", "addr:postcode": "07305", "name": "Stadium Plaza", "phone": "(201) 420-2992", "website": "https://locations.capitalone.com/bank/NJ/Jersey-City-Stadium-Plaza-branch-46810", "opening_hours": "Mo-Sa 09:00-09:00", "brand": "Capital One", "brand:wikidata": "Q1034654"}, "geometry": {"type": "Point", "coordinates": [-74.100403, 40.708347]}},
{"type": "Feature", "id": "muhY6pd4XCgZJGIFlYfqSgCkW64=", "properties": {"ref": "46931", "location_type": "branch", "@spider": "capital_one", "addr:full": "755 Us Highway 1 South", "addr:city": "Iselin", "addr:state": "NJ", "addr:postcode": "08830", "name": "Woodbridge-Iselin", "phone": "(732) 283-4730", "website": "https://locations.capitalone.com/bank/NJ/Middlesex-County-WoodbridgeIselin-branch-46931", "opening_hours": "Mo-Sa 09:00-09:00", "brand": "Capital One", "brand:wikidata": "Q1034654"}, "geometry": {"type": "Point", "coordinates": [-74.301095, 40.562995]}},
{"type": "Feature", "id": "l3KJMV-FwAdJLIYMHgtoFEKahoM=", "properties": {"ref": "46811", "location_type": "branch", "@spider": "capital_one", "addr:full": "457 Westside Ave", "addr:city": "Jersey City", "addr:state": "NJ", "addr:postcode": "07304", "name": "West Bergen", "phone": "(201) 420-2918", "website": "https://locations.capitalone.com/bank/NJ/Jersey-City-West-Bergen-branch-46811", "opening_hours": "Mo-Sa 09:00-09:00", "brand": "Capital One", "brand:wikidata": "Q1034654"}, "geometry": {"type": "Point", "coordinates": [-74.08539, 40.716902]}},
{"type": "Feature", "id": "Vf8eTGiYl4TUVdDmw7jsDAOl6DM=", "properties": {"ref": "46814", "location_type": "branch", "@spider": "capital_one", "addr:full": "35 Journal Square", "addr:city": "Jersey City", "addr:state": "NJ", "addr:postcode": "07306", "name": "Journal Square", "phone": "(201) 420-2700", "website": "https://locations.capitalone.com/bank/NJ/Jersey-City-Journal-Square-branch-46814", "opening_hours": "Mo-Sa 09:00-09:00", "brand": "Capital One", "brand:wikidata": "Q1034654"}, "geometry": {"type": "Point", "coordinates": [-74.064587, 40.730835]}},
{"type": "Feature", "id": "VSEEQGLsetB-rEhg97jsVK6zaS8=", "properties": {"ref": "46913", "location_type": "branch", "@spider": "capital_one", "addr:full": "46 East Route 59", "addr:city": "Nanuet", "addr:state": "NY", "addr:postcode": "10954", "name": "Nanuet", "phone": "(845) 624-3766", "website": "https://locations.capitalone.com/bank/NY/Rockland-County-Nanuet-branch-46913", "opening_hours": "Mo-Sa 09:00-09:00", "brand": "Capital One", "brand:wikidata": "Q1034654"}, "geometry": {"type": "Point", "coordinates": [-74.009858, 41.096852]}},
{"type": "Feature", "id": "0ot5LJxpwsiAzQw7PudT5qqCnfA=", "properties": {"ref": "46932", "location_type": "branch", "@spider": "capital_one", "addr:full": "751 Route 1 South", "addr:city": "Edison", "addr:state": "NJ", "addr:postcode": "08817", "name": "Edison", "phone": "(732) 985-7173", "website": "https://locations.capitalone.com/bank/NJ/Middlesex-County-Edison-branch-46932", "opening_hours": "Mo-Sa 09:00-09:00", "brand": "Capital One", "brand:wikidata": "Q1034654"}, "geometry": {"type": "Point", "coordinates": [-74.383744, 40.512592]}},
{"type": "Feature", "id": "KG16qngmJErvCv6QZxMSEK90wjU=", "properties": {"ref": "46832", "location_type": "branch", "@spider": "capital_one", "addr:full": "5913 Bergenline Ave", "addr:city": "West New York", "addr:state": "NJ", "addr:postcode": "07093", "name": "West New York", "phone": "(201) 420-2850", "website": "https://locations.capitalone.com/bank/NJ/Hudson-County-West-New-York-branch-46832", "opening_hours": "Mo-Sa 09:00-09:00", "brand": "Capital One", "brand:wikidata": "Q1034654"}, "geometry": {"type": "Point", "coordinates": [-74.016707, 40.788656]}},
{"type": "Feature", "id": "x4Hb-aTZ8yzzd5loDARcq4521KI=", "properties": {"ref": "46844", "location_type": "branch", "@spider": "capital_one", "addr:full": "177 Main Street", "addr:city": "Fort Lee", "addr:state": "NJ", "addr:postcode": "07024", "name": "Hudson Lights", "phone": "(201) 585-7931", "website": "https://locations.capitalone.com/bank/NJ/Fort-Lee-Hudson-Lights-branch-46844", "opening_hours": "Mo-Sa 09:00-09:00", "brand": "Capital One", "brand:wikidata": "Q1034654"}, "geometry": {"type": "Point", "coordinates": [-73.9691, 40.8514]}},
{"type": "Feature", "id": "Mtt334Hs1TcF_9Trp9EVnsvTqkY=", "properties": {"ref": "46761", "location_type": "branch", "@spider": "capital_one", "addr:full": "175 West 72Nd St", "addr:city": "New York", "addr:state": "NY", "addr:postcode": "10023", "name": "72nd & Broadway", "phone": "(212) 712-2259", "website": "https://locations.capitalone.com/bank/NY/New-York-72nd-and-Broadway-branch-46761", "opening_hours": "Mo-Sa 09:00-09:00", "brand": "Capital One", "brand:wikidata": "Q1034654"}, "geometry": {"type": "Point", "coordinates": [-73.981421, 40.778668]}},
{"type": "Feature", "id": "O6VGzjczaF6fh6o4jFKlnm_EgfQ=", "properties": {"ref": "46799", "location_type": "branch", "@spider": "capital_one", "addr:full": "215 W. 34Th St.", "addr:city": "New York", "addr:state": "NY", "addr:postcode": "10001", "name": "34th & 7th", "phone": "(646) 582-7045", "website": "https://locations.capitalone.com/bank/NY/New-York-34th-and-7th-branch-46799", "opening_hours": "Mo-Fr 08:00-08:00", "brand": "Capital One", "brand:wikidata": "Q1034654"}, "geometry": {"type": "Point", "coordinates": [-73.991398, 40.751536]}},
{"type": "Feature", "id": "yMsX31fDAk0InyLQ326zHBaNHk0=", "properties": {"ref": "46771", "location_type": "branch", "@spider": "capital_one", "addr:full": "1745 Broadway", "addr:city": "New York", "addr:state": "NY", "addr:postcode": "10019", "name": "56th & Broadway", "phone": "(212) 582-6840", "website": "https://locations.capitalone.com/bank/NY/New-York-56th-and-Broadway-branch-46771", "opening_hours": "Mo-Fr 09:00-09:00", "brand": "Capital One", "brand:wikidata": "Q1034654"}, "geometry": {"type": "Point", "coordinates": [-73.982001, 40.765208]}},
{"type": "Feature", "id": "ZCR5FCErkAQUyYtFizB1qJBkQh8=", "properties": {"ref": "46712", "location_type": "branch", "@spider": "capital_one", "addr:full": "347 Sixth Ave", "addr:city": "New York", "addr:state": "NY", "addr:postcode": "10014", "name": "4th & 6th", "phone": "(212) 255-8492", "website": "https://locations.capitalone.com/bank/NY/New-York-4th-and-6th-branch-46712", "opening_hours": "Mo-Fr 09:00-09:00", "brand": "Capital One", "brand:wikidata": "Q1034654"}, "geometry": {"type": "Point", "coordinates": [-74.001104, 40.731908]}},
{"type": "Feature", "id": "vOxjRy6rIpeWi553nmlhvVJAZ0E=", "properties": {"ref": "46773", "location_type": "branch", "@spider": "capital_one", "addr:full": "1166 Avenue Of The Americas", "addr:city": "New York", "addr:state": "NY", "addr:postcode": "10036", "name": "45th & 6th", "phone": "(212) 278-8460", "website": "https://locations.capitalone.com/bank/NY/New-York-45th-and-6th-branch-46773", "opening_hours": "Mo-Fr 09:00-09:00", "brand": "Capital One", "brand:wikidata": "Q1034654"}, "geometry": {"type": "Point", "coordinates": [-73.982368, 40.75675]}},
{"type": "Feature", "id": "xgOn2JKiwqffyCROdh3kMbbKoOU=", "properties": {"ref": "46297", "location_type": "branch", "@spider": "capital_one", "addr:full": "277 Broadway", "addr:city": "New York", "addr:state": "NY", "addr:postcode": "10007", "name": "Broadway & Chambers", "phone": "(212) 267-0726", "website": "https://locations.capitalone.com/bank/NY/New-York-Broadway-and-Chambers-branch-46297", "opening_hours": "Mo-Fr 09:00-09:00", "brand": "Capital One", "brand:wikidata": "Q1034654"}, "geometry": {"type": "Point", "coordinates": [-74.006454, 40.714306]}},
{"type": "Feature", "id": "uZ44JNehKjZSncXXBi1Z3nY8saM=", "properties": {"ref": "46716", "location_type": "branch", "@spider": "capital_one", "addr:full": "501 Broadway", "addr:city": "New York", "addr:state": "NY", "addr:postcode": "10012", "name": "501 Broadway", "phone": "(212) 226-1479", "website": "https://locations.capitalone.com/bank/NY/New-York-501-Broadway-branch-46716", "opening_hours": "Mo-Fr 09:00-09:00", "brand": "Capital One", "brand:wikidata": "Q1034654"}, "geometry": {"type": "Point", "coordinates": [-73.999748, 40.722307]}},
{"type": "Feature", "id": "mwWR5PLI9hsvy_MvTQh6UGDD_hQ=", "properties": {"ref": "46795", "location_type": "branch", "@spider": "capital_one", "addr:full": "853 Broadway", "addr:city": "New York", "addr:state": "NY", "addr:postcode": "10003", "name": "Union Square Flagship", "phone": "(917) 438-2148", "website": "https://locations.capitalone.com/bank/NY/New-York-Union-Square-Flagship-branch-46795", "opening_hours": "Mo-Fr 09:00-09:00; Sa 10:00-10:00", "brand": "Capital One", "brand:wikidata": "Q1034654"}, "geometry": {"type": "Point", "coordinates": [-73.991, 40.7347]}},
{"type": "Feature", "id": "8KcBYBvaV-RePGmTOs4f4gRSjmw=", "properties": {"ref": "46775", "location_type": "branch", "@spider": "capital_one", "addr:full": "301 W 125Th St", "addr:city": "New York", "addr:state": "NY", "addr:postcode": "10027", "name": "Harlem", "phone": "(212) 280-1677", "website": "https://locations.capitalone.com/bank/NY/New-York-Harlem-branch-46775", "opening_hours": "Mo-Sa 09:00-09:00", "brand": "Capital One", "brand:wikidata": "Q1034654"}, "geometry": {"type": "Point", "coordinates": [-73.951489, 40.810475]}},
{"type": "Feature", "id": "CRp_eiYQku_D33KhetB7HUPbV0s=", "properties": {"ref": "46717", "location_type": "branch", "@spider": "capital_one", "addr:full": "470 Park Ave South", "addr:city": "New York", "addr:state": "NY", "addr:postcode": "10016", "name": "32nd & Park", "phone": "(212) 679-1140", "website": "https://locations.capitalone.com/bank/NY/New-York-32nd-and-Park-branch-46717", "opening_hours": "Mo-Fr 09:00-09:00", "brand": "Capital One", "brand:wikidata": "Q1034654"}, "geometry": {"type": "Point", "coordinates": [-73.982521, 40.745838]}},
{"type": "Feature", "id": "TWUyCrm1kSVfVHKU6xAPlfxHg9o=", "properties": {"ref": "46720", "location_type": "branch", "@spider": "capital_one", "addr:full": "299 Park Ave", "addr:city": "New York", "addr:state": "NY", "addr:postcode": "10171", "name": "299 Park", "phone": "(646) 346-6858", "website": "https://locations.capitalone.com/bank/NY/New-York-299-Park-branch-46720", "opening_hours": "Mo-Fr 09:00-09:00", "brand": "Capital One", "brand:wikidata": "Q1034654"}, "geometry": {"type": "Point", "coordinates": [-73.974458, 40.755962]}},
{"type": "Feature", "id": "QttvHlYSvBhuoitPCy7d-0M264o=", "properties": {"ref": "46296", "location_type": "branch", "@spider": "capital_one", "addr:full": "620 West 181 Street", "addr:city": "New York", "addr:state": "NY", "addr:postcode": "10033", "name": "West 181st Street", "phone": "(212) 568-1037", "website": "https://locations.capitalone.com/bank/NY/New-York-West-181st-Street-branch-46296", "opening_hours": "Mo-Sa 09:00-09:00", "brand": "Capital One", "brand:wikidata": "Q1034654"}, "geometry": {"type": "Point", "coordinates": [-73.934914, 40.849651]}},
{"type": "Feature", "id": "S02t2Qnkpmh7OCIrd6AWwQB-NEE=", "properties": {"ref": "46743", "location_type": "branch", "@spider": "capital_one", "addr:full": "845 Third Ave", "addr:city": "New York", "addr:state": "NY", "addr:postcode": "10022", "name": "52nd & 3rd", "phone": "(212) 935-7563", "website": "https://locations.capitalone.com/bank/NY/New-York-52nd-and-3rd-branch-46743", "opening_hours": "Mo-Fr 09:00-09:00", "brand": "Capital One", "brand:wikidata": "Q1034654"}, "geometry": {"type": "Point", "coordinates": [-73.96954, 40.756825]}},
{"type": "Feature", "id": "vfdgV3-VEBNw9a8OI0kHW9TaPek=", "properties": {"ref": "46780", "location_type": "branch", "@spider": "capital_one", "addr:full": "211 Dyckman Street", "addr:city": "New York", "addr:state": "NY", "addr:postcode": "10040", "name": "Dyckman St", "phone": "(646) 963-9728", "website": "https://locations.capitalone.com/bank/NY/New-York-Dyckman-St-branch-46780", "opening_hours": "Mo-Sa 09:00-09:00", "brand": "Capital One", "brand:wikidata": "Q1034654"}, "geometry": {"type": "Point", "coordinates": [-73.926838, 40.865305]}},
{"type": "Feature", "id": "1Ea263u0U_aqRQ5_pP5RncBoFPE=", "properties": {"ref": "46736", "location_type": "branch", "@spider": "capital_one", "addr:full": "991 Third Ave", "addr:city": "New York", "addr:state": "NY", "addr:postcode": "10022", "name": "59th & 3rd", "phone": "(212) 644-8840", "website": "https://locations.capitalone.com/bank/NY/New-York-59th-and-3rd-branch-46736", "opening_hours": "Mo-Fr 09:00-09:00", "brand": "Capital One", "brand:wikidata": "Q1034654"}, "geometry": {"type": "Point", "coordinates": [-73.966201, 40.761508]}},
{"type": "Feature", "id": "w4KnMHXK4YZ8kgL4v8l-nWmqRiI=", "properties": {"ref": "46738", "location_type": "branch", "@spider": "capital_one", "addr:full": "249 East 86Th Street", "addr:city": "New York", "addr:state": "NY", "addr:postcode": "10028", "name": "86th & 2nd", "phone": "(212) 534-7015", "website": "https://locations.capitalone.com/bank/NY/New-York-86th-and-2nd-branch-46738", "opening_hours": "Mo-Sa 09:00-09:00", "brand": "Capital One", "brand:wikidata": "Q1034654"}, "geometry": {"type": "Point", "coordinates": [-73.951984, 40.77827]}},
{"type": "Feature", "id": "x9X-ygeN5DdQvWxxlJ0GXx2Gi08=", "properties": {"ref": "46572", "location_type": "branch", "@spider": "capital_one", "addr:full": "3517 Johnson Ave", "addr:city": "Bronx", "addr:state": "NY", "addr:postcode": "10463", "name": "Riverdale-Johnson Ave", "phone": "(718) 581-2970", "website": "https://locations.capitalone.com/bank/NY/Bronx-RiverdaleJohnson-Ave-branch-46572", "opening_hours": "Mo-Fr 09:00-09:00", "brand": "Capital One", "brand:wikidata": "Q1034654"}, "geometry": {"type": "Point", "coordinates": [-73.910008, 40.886265]}},
{"type": "Feature", "id": "WkHDEvqadzzBOQ7Jrcl2nTyXMpY=", "properties": {"ref": "46781", "location_type": "branch", "@spider": "capital_one", "addr:full": "557 Melrose Avenue", "addr:city": "Bronx", "addr:state": "NY", "addr:postcode": "10455", "name": "The Hub", "phone": "(917) 645-9780", "website": "https://locations.capitalone.com/bank/NY/Bronx-The-Hub-branch-46781", "opening_hours": "Mo-Sa 09:00-09:00", "brand": "Capital One", "brand:wikidata": "Q1034654"}, "geometry": {"type": "Point", "coordinates": [-73.917858, 40.816443]}},
{"type": "Feature", "id": "AXjbtBPyj57e1w4mxOnVvNPk7EM=", "properties": {"ref": "46568", "location_type": "branch", "@spider": "capital_one", "addr:full": "151 E Fordham Rd", "addr:city": "Bronx", "addr:state": "NY", "addr:postcode": "10468", "name": "Fordham Road - Temporarily Closed", "phone": "(718) 220-3000", "website": "https://locations.capitalone.com/bank/NY/Bronx-Fordham-Road-Temporarily-Closed-branch-46568", "opening_hours": "Mo-Sa 09:00-09:00", "brand": "Capital One", "brand:wikidata": "Q1034654"}, "geometry": {"type": "Point", "coordinates": [-73.89788, 40.862615]}},
{"type": "Feature", "id": "kJCQxBtKxBhAMFYA1rhDoE_hpZk=", "properties": {"ref": "46218", "location_type": "branch", "@spider": "capital_one", "addr:full": "244 Bedford Ave.", "addr:city": "Brooklyn", "addr:state": "NY", "addr:postcode": "11249", "name": "244 Bedford Ave.", "phone": "(718) 210-4101", "website": "https://locations.capitalone.com/bank/NY/Brooklyn-244-Bedford-Ave-branch-46218", "opening_hours": "Mo-Sa 09:00-09:00", "brand": "Capital One", "brand:wikidata": "Q1034654"}, "geometry": {"type": "Point", "coordinates": [-73.959972, 40.715975]}},
{"type": "Feature", "id": "bRM3sVR3omE4ep3ttrjYWn9ZBlw=", "properties": {"ref": "46670", "location_type": "branch", "@spider": "capital_one", "addr:full": "7110 5Th Ave", "addr:city": "Brooklyn", "addr:state": "NY", "addr:postcode": "11209", "name": "Bay Ridge", "phone": "(718) 238-4901", "website": "https://locations.capitalone.com/bank/NY/Brooklyn-Bay-Ridge-branch-46670", "opening_hours": "Mo-Sa 09:00-09:00", "brand": "Capital One", "brand:wikidata": "Q1034654"}, "geometry": {"type": "Point", "coordinates": [-74.021639, 40.632415]}},
{"type": "Feature", "id": "hL4vyiDz_5GJfUenzyakIBgcW_0=", "properties": {"ref": "46645", "location_type": "branch", "@spider": "capital_one", "addr:full": "516 5Th Ave", "addr:city": "Brooklyn", "addr:state": "NY", "addr:postcode": "11215", "name": "Park Slope", "phone": "(718) 768-8798", "website": "https://locations.capitalone.com/bank/NY/Brooklyn-Park-Slope-branch-46645", "opening_hours": "Mo-Sa 09:00-09:00", "brand": "Capital One", "brand:wikidata": "Q1034654"}, "geometry": {"type": "Point", "coordinates": [-73.988372, 40.666912]}},
{"type": "Feature", "id": "RAEwLvVxS8e-bU_3LNL1SWvVO48=", "properties": {"ref": "46484", "location_type": "branch", "@spider": "capital_one", "addr:full": "31-17 Broadway", "addr:city": "Astoria", "addr:state": "NY", "addr:postcode": "11106", "name": "Astoria Broadway", "phone": "(718) 278-6518", "website": "https://locations.capitalone.com/bank/NY/Queens-County-Astoria-Broadway-branch-46484", "opening_hours": "Mo-Sa 09:00-09:00", "brand": "Capital One", "brand:wikidata": "Q1034654"}, "geometry": {"type": "Point", "coordinates": [-73.924698, 40.761858]}},
{"type": "Feature", "id": "rjDRbv37dmArRJsjaZjluv-5tBs=", "properties": {"ref": "46563", "location_type": "branch", "@spider": "capital_one", "addr:full": "3159 Bainbridge Ave", "addr:city": "Bronx", "addr:state": "NY", "addr:postcode": "10467", "name": "Bainbridge", "phone": "(718) 798-9300", "website": "https://locations.capitalone.com/bank/NY/Bronx-Bainbridge-branch-46563", "opening_hours": "Mo-Sa 09:00-09:00", "brand": "Capital One", "brand:wikidata": "Q1034654"}, "geometry": {"type": "Point", "coordinates": [-73.879654, 40.874762]}},
{"type": "Feature", "id": "DjinAxOf3SKb5zVL7Llc-3dDLDg=", "properties": {"ref": "46475", "location_type": "branch", "@spider": "capital_one", "addr:full": "40-20 Queens Blvd", "addr:city": "Sunnyside", "addr:state": "NY", "addr:postcode": "11104", "name": "Sunnyside", "phone": "(718) 392-9470", "website": "https://locations.capitalone.com/bank/NY/Queens-County-Sunnyside-branch-46475", "opening_hours": "Mo-Sa 09:00-09:00", "brand": "Capital One", "brand:wikidata": "Q1034654"}, "geometry": {"type": "Point", "coordinates": [-73.923588, 40.743399]}},
{"type": "Feature", "id": "nhYGC0VHFQ1_XCt7N-UV-XewfuQ=", "properties": {"ref": "46688", "location_type": "branch", "@spider": "capital_one", "addr:full": "4612 13Th Ave", "addr:city": "Brooklyn", "addr:state": "NY", "addr:postcode": "11219", "name": "Borough Park", "phone": "(718) 431-2980", "website": "https://locations.capitalone.com/bank/NY/Brooklyn-Borough-Park-branch-46688", "opening_hours": "Mo-Fr 09:00-09:00; Su 09:00-09:00", "brand": "Capital One", "brand:wikidata": "Q1034654"}, "geometry": {"type": "Point", "coordinates": [-73.990823, 40.636529]}},
{"type": "Feature", "id": "A-yj_mDNQ_bDSJTULcA8_rMHUbc=", "properties": {"ref": "46570", "location_type": "branch", "@spider": "capital_one", "addr:full": "2159 White Plains Rd", "addr:city": "Bronx", "addr:state": "NY", "addr:postcode": "10462", "name": "Pelham Parkway", "phone": "(718) 822-7502", "website": "https://locations.capitalone.com/bank/NY/Bronx-Pelham-Parkway-branch-46570", "opening_hours": "Mo-Sa 09:00-09:00", "brand": "Capital One", "brand:wikidata": "Q1034654"}, "geometry": {"type": "Point", "coordinates": [-73.867896, 40.855205]}},
{"type": "Feature", "id": "bAqnAjr4E6mIFoci2CEOQX3MFZQ=", "properties": {"ref": "46636", "location_type": "branch", "@spider": "capital_one", "addr:full": "341 Eastern Parkway", "addr:city": "Brooklyn", "addr:state": "NY", "addr:postcode": "11216", "name": "Crown Heights", "phone": "(718) 783-3401", "website": "https://locations.capitalone.com/bank/NY/Brooklyn-Crown-Heights-branch-46636", "opening_hours": "Mo-Sa 09:00-09:00", "brand": "Capital One", "brand:wikidata": "Q1034654"}, "geometry": {"type": "Point", "coordinates": [-73.957662, 40.670976]}},
{"type": "Feature", "id": "oI99BoH-39u2YB5GgMm0U82aNmE=", "properties": {"ref": "46561", "location_type": "branch", "@spider": "capital_one", "addr:full": "4201 White Plains Rd", "addr:city": "Bronx", "addr:state": "NY", "addr:postcode": "10466", "name": "Wakefield", "phone": "(718) 994-1900", "website": "https://locations.capitalone.com/bank/NY/Bronx-Wakefield-branch-46561", "opening_hours": "Mo-Sa 09:00-09:00", "brand": "Capital One", "brand:wikidata": "Q1034654"}, "geometry": {"type": "Point", "coordinates": [-73.857347, 40.893845]}},
{"type": "Feature", "id": "HV_01hmbAHYTW-gOFTw0SBJ7JW4=", "properties": {"ref": "46565", "location_type": "branch", "@spider": "capital_one", "addr:full": "1941 Williamsbridge Rd", "addr:city": "Bronx", "addr:state": "NY", "addr:postcode": "10461", "name": "Williamsbridge", "phone": "(718) 829-6600", "website": "https://locations.capitalone.com/bank/NY/Bronx-Williamsbridge-branch-46565", "opening_hours": "Mo-Sa 09:00-09:00", "brand": "Capital One", "brand:wikidata": "Q1034654"}, "geometry": {"type": "Point", "coordinates": [-73.85382, 40.853134]}},
{"type": "Feature", "id": "JmKrtLkZLoSgmB1TJYD8JRCXgow=", "properties": {"ref": "46634", "location_type": "branch", "@spider": "capital_one", "addr:full": "927 Flatbush Ave", "addr:city": "Brooklyn", "addr:state": "NY", "addr:postcode": "11226", "name": "Flatbush West", "phone": "(718) 287-4901", "website": "https://locations.capitalone.com/bank/NY/Brooklyn-Flatbush-West-branch-46634", "opening_hours": "Mo-Sa 09:00-09:00", "brand": "Capital One", "brand:wikidata": "Q1034654"}, "geometry": {"type": "Point", "coordinates": [-73.958164, 40.649138]}},
{"type": "Feature", "id": "mdqus2Bj54DdByO3S7cpnt85R-U=", "properties": {"ref": "46501", "location_type": "branch", "@spider": "capital_one", "addr:full": "510 Gramatan Ave", "addr:city": "Mount Vernon", "addr:state": "NY", "addr:postcode": "10552", "name": "Fleetwood", "phone": "(914) 668-5800", "website": "https://locations.capitalone.com/bank/NY/Mount-Vernon-Fleetwood-branch-46501", "opening_hours": "Mo-Sa 09:00-09:00", "brand": "Capital One", "brand:wikidata": "Q1034654"}, "geometry": {"type": "Point", "coordinates": [-73.836616, 40.924741]}},
{"type": "Feature", "id": "vdUJB3bqj49wUHlqHyVRzhJPbnw=", "properties": {"ref": "46676", "location_type": "branch", "@spider": "capital_one", "addr:full": "2150-54 86Th St", "addr:city": "Brooklyn", "addr:state": "NY", "addr:postcode": "11214", "name": "86th Street-Bensonhurst", "phone": "(718) 373-1919", "website": "https://locations.capitalone.com/bank/NY/Brooklyn-86th-StreetBensonhurst-branch-46676", "opening_hours": "Mo-Sa 09:00-09:00", "brand": "Capital One", "brand:wikidata": "Q1034654"}, "geometry": {"type": "Point", "coordinates": [-73.994911, 40.602407]}},
{"type": "Feature", "id": "qg2ojVYhOPpRuOlz66QFdJD0eDU=", "properties": {"ref": "46479", "location_type": "branch", "@spider": "capital_one", "addr:full": "37-02 82Nd Street", "addr:city": "Jackson Heights", "addr:state": "NY", "addr:postcode": "11372", "name": "Jackson Heights", "phone": "(718) 335-1500", "website": "https://locations.capitalone.com/bank/NY/Queens-County-Jackson-Heights-branch-46479", "opening_hours": "Mo-Sa 09:00-09:00", "brand": "Capital One", "brand:wikidata": "Q1034654"}, "geometry": {"type": "Point", "coordinates": [-73.884487, 40.749572]}},
{"type": "Feature", "id": "hQCsRN9jIdJSFwhHmpZ1RGwv8Yw=", "properties": {"ref": "46618", "location_type": "branch", "@spider": "capital_one", "addr:full": "315 Wyckoff Ave", "addr:city": "Brooklyn", "addr:state": "NY", "addr:postcode": "11237", "name": "Wyckoff Ave", "phone": "(718) 821-4600", "website": "https://locations.capitalone.com/bank/NY/Brooklyn-Wyckoff-Ave-branch-46618", "opening_hours": "Mo-Sa 09:00-09:00", "brand": "Capital One", "brand:wikidata": "Q1034654"}, "geometry": {"type": "Point", "coordinates": [-73.91183, 40.700127]}},
{"type": "Feature", "id": "-3eLf-Mq3I__rbFn0FakMVVCB-4=", "properties": {"ref": "46529", "location_type": "branch", "@spider": "capital_one", "addr:full": "1223 Avenue J", "addr:city": "Brooklyn", "addr:state": "NY", "addr:postcode": "11230", "name": "Avenue J", "phone": "(929) 437-5144", "website": "https://locations.capitalone.com/bank/NY/Brooklyn-Avenue-J-branch-46529", "opening_hours": "Mo-Fr 09:00-09:00; Su 09:00-09:00", "brand": "Capital One", "brand:wikidata": "Q1034654"}, "geometry": {"type": "Point", "coordinates": [-73.963412, 40.625151]}},
{"type": "Feature", "id": "sJgiwWqQ67_gH6GjY8IKrhK-bQw=", "properties": {"ref": "46630", "location_type": "branch", "@spider": "capital_one", "addr:full": "5102 Church Ave", "addr:city": "Brooklyn", "addr:state": "NY", "addr:postcode": "11203", "name": "Flatbush", "phone": "(718) 346-3801", "website": "https://locations.capitalone.com/bank/NY/Brooklyn-Flatbush-branch-46630", "opening_hours": "Mo-Sa 09:00-09:00", "brand": "Capital One", "brand:wikidata": "Q1034654"}, "geometry": {"type": "Point", "coordinates": [-73.929187, 40.651804]}},
{"type": "Feature", "id": "nLetIdoyEwLF4IA-WmJlwyF_JJQ=", "properties": {"ref": "46469", "location_type": "branch", "@spider": "capital_one", "addr:full": "95-25 Queens Blvd", "addr:city": "Rego Park", "addr:state": "NY", "addr:postcode": "11374", "name": "Rego Park", "phone": "(718) 897-6001", "website": "https://locations.capitalone.com/bank/NY/Queens-County-Rego-Park-branch-46469", "opening_hours": "Mo-Sa 09:00-09:00", "brand": "Capital One", "brand:wikidata": "Q1034654"}, "geometry": {"type": "Point", "coordinates": [-73.864144, 40.731165]}},
{"type": "Feature", "id": "ziBMJtEpy5jyro3esPhX1Avgn6k=", "properties": {"ref": "46505", "location_type": "branch", "@spider": "capital_one", "addr:full": "764 White Plains Rd (Rte 22)", "addr:city": "Scarsdale", "addr:state": "NY", "addr:postcode": "10583", "name": "South Eastchester", "phone": "(914) 725-1901", "website": "https://locations.capitalone.com/bank/NY/Scarsdale-South-Eastchester-branch-46505", "opening_hours": "Mo-Sa 09:00-09:00", "brand": "Capital One", "brand:wikidata": "Q1034654"}, "geometry": {"type": "Point", "coordinates": [-73.803206, 40.973784]}},
{"type": "Feature", "id": "iuu5WGGuEfwgPX6wSkLvNpE6FSs=", "properties": {"ref": "46698", "location_type": "branch", "@spider": "capital_one", "addr:full": "1523 Avenue U", "addr:city": "Brooklyn", "addr:state": "NY", "addr:postcode": "11229", "name": "Homecrest", "phone": "(929) 441-3043", "website": "https://locations.capitalone.com/bank/NY/Brooklyn-Homecrest-branch-46698", "opening_hours": "Mo-Sa 09:00-09:00", "brand": "Capital One", "brand:wikidata": "Q1034654"}, "geometry": {"type": "Point", "coordinates": [-73.955674, 40.599127]}},
{"type": "Feature", "id": "s79MD8nGSVB-KQ_EVS4tuhxMU3w=", "properties": {"ref": "46652", "location_type": "branch", "@spider": "capital_one", "addr:full": "1425 Rockaway Pkwy", "addr:city": "Brooklyn", "addr:state": "NY", "addr:postcode": "11236", "name": "Canarsie", "phone": "(718) 649-7701", "website": "https://locations.capitalone.com/bank/NY/Brooklyn-Canarsie-branch-46652", "opening_hours": "Mo-Sa 09:00-09:00", "brand": "Capital One", "brand:wikidata": "Q1034654"}, "geometry": {"type": "Point", "coordinates": [-73.902175, 40.645408]}},
{"type": "Feature", "id": "cIjcjY54JrrxiqRHaRRBecdgdgU=", "properties": {"ref": "46620", "location_type": "branch", "@spider": "capital_one", "addr:full": "3345 Fulton St", "addr:city": "Brooklyn", "addr:state": "NY", "addr:postcode": "11208", "name": "Cypress Hills", "phone": "(718) 827-3100", "website": "https://locations.capitalone.com/bank/NY/Brooklyn-Cypress-Hills-branch-46620", "opening_hours": "Mo-Sa 09:00-09:00", "brand": "Capital One", "brand:wikidata": "Q1034654"}, "geometry": {"type": "Point", "coordinates": [-73.871997, 40.683933]}},
{"type": "Feature", "id": "3O69EryPGRbe_s86BuZ-47SbxVA=", "properties": {"ref": "46435", "location_type": "branch", "@spider": "capital_one", "addr:full": "41-60 Main St", "addr:city": "Flushing", "addr:state": "NY", "addr:postcode": "11355", "name": "Flushing-Main", "phone": "(718) 762-1197", "website": "https://locations.capitalone.com/bank/NY/Queens-County-FlushingMain-branch-46435", "opening_hours": "Mo-Sa 09:00-09:00", "brand": "Capital One", "brand:wikidata": "Q1034654"}, "geometry": {"type": "Point", "coordinates": [-73.828938, 40.756407]}},
{"type": "Feature", "id": "Bo17qOeLXGyIW7UL6_nChgVCELs=", "properties": {"ref": "46642", "location_type": "branch", "@spider": "capital_one", "addr:full": "2530 Flatbush Ave", "addr:city": "Brooklyn", "addr:state": "NY", "addr:postcode": "11234", "name": "Kings Plaza", "phone": "(718) 252-3500", "website": "https://locations.capitalone.com/bank/NY/Brooklyn-Kings-Plaza-branch-46642", "opening_hours": "Mo-Sa 09:00-09:00", "brand": "Capital One", "brand:wikidata": "Q1034654"}, "geometry": {"type": "Point", "coordinates": [-73.921696, 40.608574]}},
{"type": "Feature", "id": "aIiHij5N36Hgdd-rNKqWwPYTVeE=", "properties": {"ref": "46432", "location_type": "branch", "@spider": "capital_one", "addr:full": "20-02 Francis Lewis Blvd", "addr:city": "Whitestone", "addr:state": "NY", "addr:postcode": "11357", "name": "Clearview", "phone": "(718) 746-9000", "website": "https://locations.capitalone.com/bank/NY/Whitestone-Clearview-branch-46432", "opening_hours": "Mo-Sa 09:00-09:00", "brand": "Capital One", "brand:wikidata": "Q1034654"}, "geometry": {"type": "Point", "coordinates": [-73.802958, 40.780271]}},
{"type": "Feature", "id": "Mr0kgKDco5GRfca5dYKjIV7iHa8=", "properties": {"ref": "46512", "location_type": "branch", "@spider": "capital_one", "addr:full": "530 North Broadway", "addr:city": "White Plains", "addr:state": "NY", "addr:postcode": "10603", "name": "North Broadway", "phone": "(914) 761-9700", "website": "https://locations.capitalone.com/bank/NY/White-Plains-North-Broadway-branch-46512", "opening_hours": "Mo-Sa 09:00-09:00", "brand": "Capital One", "brand:wikidata": "Q1034654"}, "geometry": {"type": "Point", "coordinates": [-73.770063, 41.051569]}},
{"type": "Feature", "id": "LWbE2m6-_FFx4GfgEv9aIwVfDoo=", "properties": {"ref": "46537", "location_type": "branch", "@spider": "capital_one", "addr:full": "75-21 Main St", "addr:city": "Kew Gardens Hills", "addr:state": "NY", "addr:postcode": "11367", "name": "Kew Garden Hills", "phone": "(718) 544-1414", "website": "https://locations.capitalone.com/bank/NY/Kew-Gardens-Hills-Kew-Garden-Hills-branch-46537", "opening_hours": "Mo-Fr 09:00-09:00; Su 09:00-09:00", "brand": "Capital One", "brand:wikidata": "Q1034654"}, "geometry": {"type": "Point", "coordinates": [-73.81984, 40.723577]}},
{"type": "Feature", "id": "uzjnM3XPxTJ4d4n411AzVdp-FnA=", "properties": {"ref": "46532", "location_type": "branch", "@spider": "capital_one", "addr:full": "114-19 Liberty Ave", "addr:city": "Richmond Hill", "addr:state": "NY", "addr:postcode": "11419", "name": "Liberty Avenue", "phone": "(718) 835-6686", "website": "https://locations.capitalone.com/bank/NY/Richmond-Hill-Liberty-Avenue-branch-46532", "opening_hours": "Mo-Sa 09:00-09:00", "brand": "Capital One", "brand:wikidata": "Q1034654"}, "geometry": {"type": "Point", "coordinates": [-73.827951, 40.685889]}},
{"type": "Feature", "id": "p7JNtgkIep0DBtrWyGJ88PCb_vo=", "properties": {"ref": "46606", "location_type": "branch", "@spider": "capital_one", "addr:full": "155-14 Cross Bay Blvd.", "addr:city": "Howard Beach", "addr:state": "NY", "addr:postcode": "11414", "name": "Howard Beach", "phone": "(718) 641-6510", "website": "https://locations.capitalone.com/bank/NY/Queens-County-Howard-Beach-branch-46606", "opening_hours": "Mo-Sa 09:00-09:00", "brand": "Capital One", "brand:wikidata": "Q1034654"}, "geometry": {"type": "Point", "coordinates": [-73.841662, 40.664552]}},
{"type": "Feature", "id": "3Co9V8P50dwpD87Hq2-JHdkgll4=", "properties": {"ref": "46545", "location_type": "branch", "@spider": "capital_one", "addr:full": "146-21 Jamaica Ave", "addr:city": "Jamaica", "addr:state": "NY", "addr:postcode": "11435", "name": "Sutphin", "phone": "(718) 657-1500", "website": "https://locations.capitalone.com/bank/NY/Jamaica-Sutphin-branch-46545", "opening_hours": "Mo-Sa 09:00-09:00", "brand": "Capital One", "brand:wikidata": "Q1034654"}, "geometry": {"type": "Point", "coordinates": [-73.80822, 40.702019]}},
{"type": "Feature", "id": "9t8dRRmBDf_F6EfWJ2jB-m4eRqI=", "properties": {"ref": "46544", "location_type": "branch", "@spider": "capital_one", "addr:full": "61-24 188th Street", "addr:city": "Flushing", "addr:state": "NY", "addr:postcode": "11365", "name": "Fresh Meadows", "phone": "(718) 454-7500", "website": "https://locations.capitalone.com/bank/NY/Flushing-Fresh-Meadows-branch-46544", "opening_hours": "Mo-Sa 09:00-09:00", "brand": "Capital One", "brand:wikidata": "Q1034654"}, "geometry": {"type": "Point", "coordinates": [-73.78642, 40.739676]}},
{"type": "Feature", "id": "GaWSJ5LABsJdf9Jg71UQM3_O7q8=", "properties": {"ref": "46012", "location_type": "branch", "@spider": "capital_one", "addr:full": "45-05 Bell Blvd", "addr:city": "Bayside", "addr:state": "NY", "addr:postcode": "11361", "name": "Northern & Bell", "phone": "(929) 267-5591", "website": "https://locations.capitalone.com/bank/NY/Bayside-Northern-and-Bell-branch-46012", "opening_hours": "Mo-Sa 09:00-09:00", "brand": "Capital One", "brand:wikidata": "Q1034654"}, "geometry": {"type": "Point", "coordinates": [-73.768772, 40.759992]}},
{"type": "Feature", "id": "pCtToBq-VHzHWLichS8oZ4o4fnU=", "properties": {"ref": "46343", "location_type": "branch", "@spider": "capital_one", "addr:full": "121 Middle Neck Road", "addr:city": "Great Neck", "addr:state": "NY", "addr:postcode": "11021", "name": "Great Neck Village", "phone": "(516) 466-6271", "website": "https://locations.capitalone.com/bank/NY/Nassau-County-Great-Neck-Village-branch-46343", "opening_hours": "Mo-Fr 09:00-09:00; Su 09:00-09:00", "brand": "Capital One", "brand:wikidata": "Q1034654"}, "geometry": {"type": "Point", "coordinates": [-73.730024, 40.790118]}},
{"type": "Feature", "id": "YxUlhBENPQd8EISxawYNJjSPBAU=", "properties": {"ref": "46547", "location_type": "branch", "@spider": "capital_one", "addr:full": "216-19 Jamaica Ave", "addr:city": "Queens Village", "addr:state": "NY", "addr:postcode": "11428", "name": "Queens Village", "phone": "(718) 468-1500", "website": "https://locations.capitalone.com/bank/NY/Queens-County-Queens-Village-branch-46547", "opening_hours": "Mo-Sa 09:00-09:00", "brand": "Capital One", "brand:wikidata": "Q1034654"}, "geometry": {"type": "Point", "coordinates": [-73.738218, 40.717894]}},
{"type": "Feature", "id": "xzNKtAcNAUJHdzv6L4x2JGzlIaQ=", "properties": {"ref": "46534", "location_type": "branch", "@spider": "capital_one", "addr:full": "257-03 Hillside Ave", "addr:city": "Floral Park", "addr:state": "NY", "addr:postcode": "11004", "name": "Hillside Avenue", "phone": "(718) 831-5590", "website": "https://locations.capitalone.com/bank/NY/Floral-Park-Hillside-Avenue-branch-46534", "opening_hours": "Mo-Sa 09:00-09:00", "brand": "Capital One", "brand:wikidata": "Q1034654"}, "geometry": {"type": "Point", "coordinates": [-73.710835, 40.737007]}},
{"type": "Feature", "id": "33o7AKhxdqKlrdXtYLw9TJcSf-Q=", "properties": {"ref": "46060", "location_type": "branch", "@spider": "capital_one", "addr:full": "11 East Park Ave", "addr:city": "Long Beach", "addr:state": "NY", "addr:postcode": "11561", "name": "Long Beach", "phone": "(516) 431-5390", "website": "https://locations.capitalone.com/bank/NY/Nassau-County-Long-Beach-branch-46060", "opening_hours": "Mo-Sa 09:00-09:00", "brand": "Capital One", "brand:wikidata": "Q1034654"}, "geometry": {"type": "Point", "coordinates": [-73.664105, 40.588897]}},
{"type": "Feature", "id": "xytdL2oCJe5POqH_2m16ny10AC4=", "properties": {"ref": "46305", "location_type": "branch", "@spider": "capital_one", "addr:full": "466 Central Ave", "addr:city": "Cedarhurst", "addr:state": "NY", "addr:postcode": "11516", "name": "Cedarhurst", "phone": "(516) 569-8822", "website": "https://locations.capitalone.com/bank/NY/Nassau-County-Cedarhurst-branch-46305", "opening_hours": "Mo-Fr 09:00-09:00; Su 09:00-09:00", "brand": "Capital One", "brand:wikidata": "Q1034654"}, "geometry": {"type": "Point", "coordinates": [-73.724958, 40.621052]}},
{"type": "Feature", "id": "5GBxanUUAZSLpETKPs7k7uztQvA=", "properties": {"ref": "46008", "location_type": "branch", "@spider": "capital_one", "addr:full": "750 W Sunrise Hwy", "addr:city": "Valley Stream", "addr:state": "NY", "addr:postcode": "11581", "name": "Green Acres Commons", "phone": "(516) 612-0782", "website": "https://locations.capitalone.com/bank/NY/Valley-Stream-Green-Acres-Commons-branch-46008", "opening_hours": "Mo-Sa 09:00-09:00", "brand": "Capital One", "brand:wikidata": "Q1034654"}, "geometry": {"type": "Point", "coordinates": [-73.726749, 40.665004]}},
{"type": "Feature", "id": "hBm7uK-x4ChXRFO8ZH7Wm-blDFw=", "properties": {"ref": "46401", "location_type": "branch", "@spider": "capital_one", "addr:full": "2303 Grand Ave", "addr:city": "Baldwin", "addr:state": "NY", "addr:postcode": "11510", "name": "Baldwin", "phone": "(516) 223-9576", "website": "https://locations.capitalone.com/bank/NY/Nassau-County-Baldwin-branch-46401", "opening_hours": "Mo-Sa 09:00-09:00", "brand": "Capital One", "brand:wikidata": "Q1034654"}, "geometry": {"type": "Point", "coordinates": [-73.610074, 40.654657]}},
{"type": "Feature", "id": "mrOJ_oOqX4ykEo8Ml7HN554mvEc=", "properties": {"ref": "46300", "location_type": "branch", "@spider": "capital_one", "addr:full": "611 Hempstead Tpke", "addr:city": "West Hempstead", "addr:state": "NY", "addr:postcode": "11552", "name": "West Hempstead", "phone": "(516) 485-3301", "website": "https://locations.capitalone.com/bank/NY/Nassau-County-West-Hempstead-branch-46300", "opening_hours": "Mo-Sa 09:00-09:00", "brand": "Capital One", "brand:wikidata": "Q1034654"}, "geometry": {"type": "Point", "coordinates": [-73.662496, 40.70603]}},
{"type": "Feature", "id": "EaszqtcaUF0TD5nzehduC-ms2i4=", "properties": {"ref": "46389", "location_type": "branch", "@spider": "capital_one", "addr:full": "118 7th Street", "addr:city": "Garden City", "addr:state": "NY", "addr:postcode": "11530", "name": "Garden City 7th St.", "phone": "(516) 741-2400", "website": "https://locations.capitalone.com/bank/NY/Nassau-County-Garden-City-7th-St-branch-46389", "opening_hours": "Mo-Sa 09:00-09:00", "brand": "Capital One", "brand:wikidata": "Q1034654"}, "geometry": {"type": "Point", "coordinates": [-73.636301, 40.724408]}},
{"type": "Feature", "id": "x3DjMhj4mrUQgyTpq_ThBGnXdWY=", "properties": {"ref": "46052", "location_type": "branch", "@spider": "capital_one", "addr:full": "3230 Sunrise Highway", "addr:city": "Wantagh", "addr:state": "NY", "addr:postcode": "11793", "name": "Wantagh", "phone": "(516) 882-4302", "website": "https://locations.capitalone.com/bank/NY/Nassau-County-Wantagh-branch-46052", "opening_hours": "Mo-Sa 09:00-09:00", "brand": "Capital One", "brand:wikidata": "Q1034654"}, "geometry": {"type": "Point", "coordinates": [-73.509944, 40.671377]}},
{"type": "Feature", "id": "mz_WENsoZMgRAE1CxOlFiYe0cS8=", "properties": {"ref": "46421", "location_type": "branch", "@spider": "capital_one", "addr:full": "369 Merrick Ave", "addr:city": "East Meadow", "addr:state": "NY", "addr:postcode": "11554", "name": "East Meadow", "phone": "(516) 483-2541", "website": "https://locations.capitalone.com/bank/NY/Nassau-County-East-Meadow-branch-46421", "opening_hours": "Mo-Sa 09:00-09:00", "brand": "Capital One", "brand:wikidata": "Q1034654"}, "geometry": {"type": "Point", "coordinates": [-73.572601, 40.713408]}},
{"type": "Feature", "id": "tEVrv4ajle6Ca0ukGfztHjgM5DY=", "properties": {"ref": "46355", "location_type": "branch", "@spider": "capital_one", "addr:full": "422 Hillside Ave", "addr:city": "Williston Park", "addr:state": "NY", "addr:postcode": "11596", "name": "Williston Park", "phone": "(516) 742-8900", "website": "https://locations.capitalone.com/bank/NY/Nassau-County-Williston-Park-branch-46355", "opening_hours": "Mo-Sa 09:00-09:00", "brand": "Capital One", "brand:wikidata": "Q1034654"}, "geometry": {"type": "Point", "coordinates": [-73.65695, 40.754245]}},
{"type": "Feature", "id": "0v-9HehO36QT-zIhwm9gVQ2Ejlw=", "properties": {"ref": "46359", "location_type": "branch", "@spider": "capital_one", "addr:full": "380 Hillside Ave", "addr:city": "Williston Park", "addr:state": "NY", "addr:postcode": "11596", "name": "Williston Park DU", "phone": "(516) 742-8900", "website": "https://locations.capitalone.com/bank/NY/Nassau-County-Williston-Park-DU-branch-46359", "brand": "Capital One", "brand:wikidata": "Q1034654"}, "geometry": {"type": "Point", "coordinates": [-73.654938, 40.754035]}},
{"type": "Feature", "id": "aF37eSf0t5OPImdcBhjG1MkYlcM=", "properties": {"ref": "46377", "location_type": "branch", "@spider": "capital_one", "addr:full": "225 Glen Cove Rd", "addr:city": "Carle Place", "addr:state": "NY", "addr:postcode": "11514", "name": "Carle Place", "phone": "(516) 741-5800", "website": "https://locations.capitalone.com/bank/NY/Nassau-County-Carle-Place-branch-46377", "opening_hours": "Mo-Sa 09:00-09:00", "brand": "Capital One", "brand:wikidata": "Q1034654"}, "geometry": {"type": "Point", "coordinates": [-73.617396, 40.748174]}},
{"type": "Feature", "id": "6_4ytJd2qelcPtMGM5K9lipoQpc=", "properties": {"ref": "46403", "location_type": "branch", "@spider": "capital_one", "addr:full": "3721 Hempstead Tpke", "addr:city": "Levittown", "addr:state": "NY", "addr:postcode": "11756", "name": "Levittown", "phone": "(516) 735-6801", "website": "https://locations.capitalone.com/bank/NY/Nassau-County-Levittown-branch-46403", "opening_hours": "Mo-Sa 09:00-09:00", "brand": "Capital One", "brand:wikidata": "Q1034654"}, "geometry": {"type": "Point", "coordinates": [-73.498434, 40.725869]}},
{"type": "Feature", "id": "M_h6T1ghT3QfL5WTBBaxoyrKQh0=", "properties": {"ref": "46358", "location_type": "branch", "@spider": "capital_one", "addr:full": "1085 Northern Blvd", "addr:city": "Roslyn", "addr:state": "NY", "addr:postcode": "11576", "name": "Roslyn", "phone": "(516) 365-5661", "website": "https://locations.capitalone.com/bank/NY/Nassau-County-Roslyn-branch-46358", "opening_hours": "Mo-Sa 09:00-09:00", "brand": "Capital One", "brand:wikidata": "Q1034654"}, "geometry": {"type": "Point", "coordinates": [-73.660062, 40.799495]}},
{"type": "Feature", "id": "eDspbLFmgbOiMxgvYHjVSIVlQ8k=", "properties": {"ref": "46255", "location_type": "branch", "@spider": "capital_one", "addr:full": "300 South Wellwood Ave", "addr:city": "Lindenhurst", "addr:state": "NY", "addr:postcode": "11757", "name": "Lindenhurst", "phone": "(631) 957-5000", "website": "https://locations.capitalone.com/bank/NY/Suffolk-County-Lindenhurst-branch-46255", "opening_hours": "Mo-Sa 09:00-09:00", "brand": "Capital One", "brand:wikidata": "Q1034654"}, "geometry": {"type": "Point", "coordinates": [-73.370106, 40.684237]}},
{"type": "Feature", "id": "QP1tLphL9YX6ZPHO37wJAo2D9No=", "properties": {"ref": "46375", "location_type": "branch", "@spider": "capital_one", "addr:full": "190 Broadway", "addr:city": "Hicksville", "addr:state": "NY", "addr:postcode": "11801", "name": "Hicksville Broadway", "phone": "(516) 938-4003", "website": "https://locations.capitalone.com/bank/NY/Nassau-County-Hicksville-Broadway-branch-46375", "opening_hours": "Mo-Sa 09:00-09:00", "brand": "Capital One", "brand:wikidata": "Q1034654"}, "geometry": {"type": "Point", "coordinates": [-73.520435, 40.76431]}},
{"type": "Feature", "id": "QPrQqNfA7BAJxqMpHo8FaSmsOEU=", "properties": {"ref": "46267", "location_type": "branch", "@spider": "capital_one", "addr:full": "2050 Jericho Tpke", "addr:city": "Commack", "addr:state": "NY", "addr:postcode": "11725", "name": "Commack", "phone": "(631) 864-7500", "website": "https://locations.capitalone.com/bank/NY/Suffolk-County-Commack-branch-46267", "opening_hours": "Mo-Sa 09:00-09:00", "brand": "Capital One", "brand:wikidata": "Q1034654"}, "geometry": {"type": "Point", "coordinates": [-73.273612, 40.844664]}},
{"type": "Feature", "id": "G9V9rGopjnsnjTDoEg2L-GSabzA=", "properties": {"ref": "46213", "location_type": "branch", "@spider": "capital_one", "addr:full": "19 West Jericho Turnpike", "addr:city": "Huntington Station", "addr:state": "NY", "addr:postcode": "11746", "name": "19 Jericho Turnpike", "phone": "(631) 350-1064", "website": "https://locations.capitalone.com/bank/NY/Huntington-Station-19-Jericho-Turnpike-branch-46213", "opening_hours": "Mo-Sa 09:00-09:00", "brand": "Capital One", "brand:wikidata": "Q1034654"}, "geometry": {"type": "Point", "coordinates": [-73.410228, 40.828775]}},
{"type": "Feature", "id": "7nRn37BXLNGWpeU8nRbIXkY1Jfs=", "properties": {"ref": "46285", "location_type": "branch", "@spider": "capital_one", "addr:full": "2003 Smith Haven Plaza", "addr:city": "Lake Grove", "addr:state": "NY", "addr:postcode": "11755", "name": "Smith Haven Plaza", "phone": "(631) 724-3400", "website": "https://locations.capitalone.com/bank/NY/Lake-Grove-Smith-Haven-Plaza-branch-46285", "opening_hours": "Mo-Sa 09:00-09:00", "brand": "Capital One", "brand:wikidata": "Q1034654"}, "geometry": {"type": "Point", "coordinates": [-73.130408, 40.8683]}},
{"type": "Feature", "id": "XNAarSg1kX0nLrLCLQCZbCGFcj4=", "properties": {"ref": "46381", "location_type": "branch", "@spider": "capital_one", "addr:full": "144 Manetto Hill Rd", "addr:city": "Plainview", "addr:state": "NY", "addr:postcode": "11803", "name": "Plainview Manetto Hill Rd", "phone": "(516) 681-2421", "website": "https://locations.capitalone.com/bank/NY/Nassau-County-Plainview-Manetto-Hill-Rd-branch-46381", "opening_hours": "Mo-Sa 09:00-09:00", "brand": "Capital One", "brand:wikidata": "Q1034654"}, "geometry": {"type": "Point", "coordinates": [-73.472882, 40.782283]}},
{"type": "Feature", "id": "eHPlWnLF-seUTKr-4tWxKBThdFw=", "properties": {"ref": "46089", "location_type": "branch", "@spider": "capital_one", "addr:full": "1995 New Highway", "addr:city": "Farmingdale", "addr:state": "NY", "addr:postcode": "11735", "name": "East Farmingdale", "phone": "(631) 756-2244", "website": "https://locations.capitalone.com/bank/NY/Suffolk-County-East-Farmingdale-branch-46089", "opening_hours": "Mo-Fr 09:00-09:00", "brand": "Capital One", "brand:wikidata": "Q1034654"}, "geometry": {"type": "Point", "coordinates": [-73.414201, 40.754408]}},
{"type": "Feature", "id": "Nmi71BJjjy6bSx0FVR9jJZCOrds=", "properties": {"ref": "46348", "location_type": "branch", "@spider": "capital_one", "addr:full": "115 Forest Ave", "addr:city": "Glen Cove", "addr:state": "NY", "addr:postcode": "11542", "name": "Glen Cove", "phone": "(516) 671-9700", "website": "https://locations.capitalone.com/bank/NY/Nassau-County-Glen-Cove-branch-46348", "opening_hours": "Mo-Sa 09:00-09:00", "brand": "Capital One", "brand:wikidata": "Q1034654"}, "geometry": {"type": "Point", "coordinates": [-73.620887, 40.873923]}},
{"type": "Feature", "id": "KmBSEHww4zGx6TpxQC5bPdAkGzk=", "properties": {"ref": "46286", "location_type": "branch", "@spider": "capital_one", "addr:full": "131 Portion Rd", "addr:city": "Ronkonkoma", "addr:state": "NY", "addr:postcode": "11779", "name": "Ronkonkoma", "phone": "(631) 588-0203", "website": "https://locations.capitalone.com/bank/NY/Suffolk-County-Ronkonkoma-branch-46286", "opening_hours": "Mo-Sa 09:00-09:00", "brand": "Capital One", "brand:wikidata": "Q1034654"}, "geometry": {"type": "Point", "coordinates": [-73.10865, 40.827206]}},
{"type": "Feature", "id": "ZsPXglJQxUD4qZRfOgtPvOv77YQ=", "properties": {"ref": "46249", "location_type": "branch", "@spider": "capital_one", "addr:full": "1701 Sunrise Hwy", "addr:city": "Bayshore", "addr:state": "NY", "addr:postcode": "11706", "name": "South Shore Mall", "phone": "(631) 665-3500", "website": "https://locations.capitalone.com/bank/NY/Bayshore-South-Shore-Mall-branch-46249", "opening_hours": "Mo-Sa 09:00-09:00", "brand": "Capital One", "brand:wikidata": "Q1034654"}, "geometry": {"type": "Point", "coordinates": [-73.24607, 40.738552]}},
{"type": "Feature", "id": "0iKxahPYB51T8UCtYZ5iFQ2gNis=", "properties": {"ref": "46240", "location_type": "branch", "@spider": "capital_one", "addr:full": "4625 Sunrise Hwy", "addr:city": "Bohemia", "addr:state": "NY", "addr:postcode": "11716", "name": "Bohemia", "phone": "(631) 244-2450", "website": "https://locations.capitalone.com/bank/NY/Suffolk-County-Bohemia-branch-46240", "opening_hours": "Mo-Sa 09:00-09:00", "brand": "Capital One", "brand:wikidata": "Q1034654"}, "geometry": {"type": "Point", "coordinates": [-73.114619, 40.755895]}},
{"type": "Feature", "id": "n0O9I9P4YX_WHWwtxIIJ8jJLveI=", "properties": {"ref": "46230", "location_type": "branch", "@spider": "capital_one", "addr:full": "116 East Main St", "addr:city": "Patchogue", "addr:state": "NY", "addr:postcode": "11772", "name": "Patchogue", "phone": "(631) 363-7700", "website": "https://locations.capitalone.com/bank/NY/Suffolk-County-Patchogue-branch-46230", "opening_hours": "Mo-Sa 09:00-09:00", "brand": "Capital One", "brand:wikidata": "Q1034654"}, "geometry": {"type": "Point", "coordinates": [-73.012553, 40.765366]}},
{"type": "Feature", "id": "XxCYoiWYOKzughDDOBb2g-b8HvA=", "properties": {"ref": "46235", "location_type": "branch", "@spider": "capital_one", "addr:full": "800 Montauk Hwy", "addr:city": "Shirley", "addr:state": "NY", "addr:postcode": "11967", "name": "Shirley", "phone": "(631) 281-2201", "website": "https://locations.capitalone.com/bank/NY/Suffolk-County-Shirley-branch-46235", "opening_hours": "Mo-Sa 09:00-09:00", "brand": "Capital One", "brand:wikidata": "Q1034654"}, "geometry": {"type": "Point", "coordinates": [-72.87032, 40.8005]}},
{"type": "Feature", "id": "e5z-Nixa5rA2Wr3PXVHCwimDMHc=", "properties": {"ref": "46206", "location_type": "branch", "@spider": "capital_one", "addr:full": "1080 Rd 58 Roanoke Plz", "addr:city": "Riverhead", "addr:state": "NY", "addr:postcode": "11901", "name": "Riverhead Rt. 58", "phone": "(631) 369-1333", "website": "https://locations.capitalone.com/bank/NY/Suffolk-County-Riverhead-Rt-58-branch-46206", "opening_hours": "Mo-Sa 09:00-09:00", "brand": "Capital One", "brand:wikidata": "Q1034654"}, "geometry": {"type": "Point", "coordinates": [-72.676087, 40.93334493]}},
{"type": "Feature", "id": "9xYw4K6K-eAkXRsz3cuxtlEA4iw=", "properties": {"ref": "46223", "location_type": "branch", "@spider": "capital_one", "addr:full": "172 Montauk Hwy", "addr:city": "Speonk", "addr:state": "NY", "addr:postcode": "11972", "name": "Speonk", "phone": "(631) 325-0500", "website": "https://locations.capitalone.com/bank/NY/Suffolk-County-Speonk-branch-46223", "opening_hours": "Mo-Sa 09:00-09:00", "brand": "Capital One", "brand:wikidata": "Q1034654"}, "geometry": {"type": "Point", "coordinates": [-72.693242, 40.818817]}},
{"type": "Feature", "id": "GeO-n2d4Fc5WRCAyqGA5LBC3yIg=", "properties": {"ref": "46010", "location_type": "branch", "@spider": "capital_one", "addr:full": "11700 Main Road", "addr:city": "Mattituck", "addr:state": "NY", "addr:postcode": "11952", "name": "Mattituck 11700 Main Road", "phone": "(631) 315-3155", "website": "https://locations.capitalone.com/bank/NY/Suffolk-County-Mattituck-11700-Main-Road-branch-46010", "opening_hours": "Mo-Sa 09:00-09:00", "brand": "Capital One", "brand:wikidata": "Q1034654"}, "geometry": {"type": "Point", "coordinates": [-72.534579, 40.988071]}},
{"type": "Feature", "id": "w7cUY4Q3TRVqRqOh9sB_yCDjLDc=", "properties": {"ref": "46227", "location_type": "branch", "@spider": "capital_one", "addr:full": "40 Newtown Ln", "addr:city": "East Hampton", "addr:state": "NY", "addr:postcode": "11937", "name": "East Hampton", "phone": "(631) 324-7230", "website": "https://locations.capitalone.com/bank/NY/Suffolk-County-East-Hampton-branch-46227", "opening_hours": "Mo-Sa 09:00-09:00", "brand": "Capital One", "brand:wikidata": "Q1034654"}, "geometry": {"type": "Point", "coordinates": [-72.186554, 40.964344]}},
{"type": "Feature", "id": "zcqBVoNoOW_i6hNbuOodFTmmgXc=", "properties": {"ref": "46220", "location_type": "branch", "@spider": "capital_one", "addr:full": "46 Windmill Ln", "addr:city": "Southampton", "addr:state": "NY", "addr:postcode": "11968", "name": "Southampton", "phone": "(631) 283-8300", "website": "https://locations.capitalone.com/bank/NY/Suffolk-County-Southampton-branch-46220", "opening_hours": "Mo-Sa 09:00-09:00", "brand": "Capital One", "brand:wikidata": "Q1034654"}, "geometry": {"type": "Point", "coordinates": [-72.392362, 40.884759]}},
{"type": "Feature", "id": "4BO6rtYwd7ryzquwKEUYLEIpXl0=", "properties": {"ref": "36342", "location_type": "cafe", "@spider": "capital_one", "addr:full": "799 Boylston St.", "addr:city": "Boston", "addr:state": "MA", "addr:postcode": "02116", "name": "Back Bay", "phone": "(617) 236-0585", "website": "https://locations.capitalone.com/bank/MA/Boston-Back-Bay-cafe-36342", "opening_hours": "Mo-Fr 07:00-07:00; Sa-Su 08:30-08:30", "brand": "Capital One", "brand:wikidata": "Q1034654"}, "geometry": {"type": "Point", "coordinates": [-71.081748, 42.349116]}},
{"type": "Feature", "id": "hrSgfVbU99Z059uKcR_DaCaRkyk=", "properties": {"ref": "36348", "location_type": "cafe", "@spider": "capital_one", "addr:full": "310 Harrison Ave.", "addr:city": "Boston", "addr:state": "MA", "addr:postcode": "02118", "name": "Ink Block", "phone": "(617) 832-0620", "website": "https://locations.capitalone.com/bank/MA/Boston-Ink-Block-cafe-36348", "opening_hours": "Mo-Fr 07:00-07:00; Sa-Su 08:00-08:00", "brand": "Capital One", "brand:wikidata": "Q1034654"}, "geometry": {"type": "Point", "coordinates": [-71.063068, 42.346006]}},
{"type": "Feature", "id": "9p535pNpI2Nd6Xke_WKgBr8cr0Q=", "properties": {"ref": "36352", "location_type": "cafe", "@spider": "capital_one", "addr:full": "24 JFK St.", "addr:city": "Cambridge", "addr:state": "MA", "addr:postcode": "02138", "name": "Harvard Square", "phone": "(617) 299-2669", "website": "https://locations.capitalone.com/bank/MA/Cambridge-Harvard-Square-cafe-36352", "opening_hours": "Mo-Sa 07:00-07:00; Su 08:00-08:00", "brand": "Capital One", "brand:wikidata": "Q1034654"}, "geometry": {"type": "Point", "coordinates": [-71.119729, 42.372888]}},
{"type": "Feature", "id": "X7JhhxYk9qdtsGLA5Bk0y9PZ2Ik=", "properties": {"ref": "36354", "location_type": "cafe", "@spider": "capital_one", "addr:full": "57 Seaport Boulevard", "addr:city": "Boston", "addr:state": "MA", "addr:postcode": "02210", "name": "Seaport", "phone": "(781) 374-7222", "website": "https://locations.capitalone.com/bank/MA/Boston-Seaport-cafe-36354", "opening_hours": "Mo-Fr 07:00-07:00; Sa-Su 08:00-08:00", "brand": "Capital One", "brand:wikidata": "Q1034654"}, "geometry": {"type": "Point", "coordinates": [-71.047802, 42.35261]}},
{"type": "Feature", "id": "HnoVfa2R0zt-_hdLx9OT_ohF4e0=", "properties": {"ref": "36357", "location_type": "cafe", "@spider": "capital_one", "addr:full": "425 Revolution Dr.", "addr:city": "Somerville", "addr:state": "MA", "addr:postcode": "02145", "name": "Assembly Row", "phone": "(617) 863-3275", "website": "https://locations.capitalone.com/bank/MA/Somerville-Assembly-Row-cafe-36357", "opening_hours": "Mo-Fr 06:30-06:30; Sa 08:00-08:00; Su 09:00-09:00", "brand": "Capital One", "brand:wikidata": "Q1034654"}, "geometry": {"type": "Point", "coordinates": [-71.078301, 42.391969]}}]}