{"type":"FeatureCollection","features":[{"type": "Feature", "id": "VhgxxajGSjl3-2L-6bi0TYf8iQs=", "properties": {"ref": "36ObZN", "@spider": "carhartt_wip", "addr:street_address": "2F Shinsegae Dpt. Centum City Mall, 15, Centum 4-ro, Haeundae-gu", "addr:city": "Busan", "addr:country": "KR", "name": "Carhartt WIP Corner Busan Centum City Mall", "phone": "+82517452961", "website": "https://www.carhartt-wip.com/stores/12067", "contact:email": "info@carhartt-wip.co.kr", "opening_hours": "Mo-Su 10:00-22:00", "brand": "Carhartt WIP"}, "geometry": {"type": "Point", "coordinates": [129.1296691057605, 35.168894389243796]}},
{"type": "Feature", "id": "I_NVrmbKclBrdBl5hIj-e5Ebors=", "properties": {"ref": "V7XmE5", "@spider": "carhartt_wip", "addr:street_address": "6F, 149, Dongbu-ro, Dong-gu", "addr:city": "Daegu", "addr:country": "KR", "name": "Carhartt WIP Corner Daegu Sinsegae", "phone": "+82536616593", "website": "https://www.carhartt-wip.com/stores/12177", "contact:email": "info@carhartt-wip.co.kr", "opening_hours": "Mo-Th 11:00-20:00; Fr-Su 11:00-20:30", "brand": "Carhartt WIP"}, "geometry": {"type": "Point", "coordinates": [128.6284768595965, 35.87783915617647]}},
{"type": "Feature", "id": "EmDXDHkfZZCDKCqGeOsLR-wUP8o=", "properties": {"ref": "DMVJxD", "@spider": "carhartt_wip", "addr:street_address": "4F, 14, Myeongdong-gil, Jung-gu", "addr:city": "Seoul", "addr:postcode": "04536", "addr:country": "KR", "name": "Carhartt WIP Corner Seoul Noon Square", "phone": "+82237835225", "website": "https://www.carhartt-wip.com/stores/12176", "contact:email": "info@carhartt-wip.co.kr", "opening_hours": "Mo-Su 11:00-22:00", "brand": "Carhartt WIP"}, "geometry": {"type": "Point", "coordinates": [126.9828862, 37.5633734]}},
{"type": "Feature", "id": "psQwuiCQC1a7hEk0AzS3wnwjzXE=", "properties": {"ref": "kGBWzO", "@spider": "carhartt_wip", "addr:street_address": "Hartenstraat 18", "addr:city": "Amsterdam", "addr:postcode": "1016 CB", "addr:country": "NL", "name": "Carhartt WIP Store Amsterdam Hartenstraat", "phone": "+31203305666", "website": "https://www.carhartt-wip.com/stores/5229", "contact:email": "amsterdam@carhartt-wip.com", "opening_hours": "Mo 12:00-18:00; Tu-Sa 10:00-18:00; Su 12:00-18:00", "brand": "Carhartt WIP"}, "geometry": {"type": "Point", "coordinates": [4.885931320717646, 52.37240284462989]}},
{"type": "Feature", "id": "C-GOhA1GtBILAnexiLDzk20NI_A=", "properties": {"ref": "jPA787", "@spider": "carhartt_wip", "addr:street_address": "Haarlemmerstraat 104", "addr:city": "Amsterdam", "addr:postcode": "1013 EW", "addr:country": "NL", "name": "Carhartt WIP Store Amsterdam HS", "phone": "+31203044567", "website": "https://www.carhartt-wip.com/stores/9577", "contact:email": "amsterdam_hs@carhartt-wip.com", "opening_hours": "Mo 12:00-18:00; Tu-Sa 10:00-18:00; Su 12:00-18:00", "brand": "Carhartt WIP"}, "geometry": {"type": "Point", "coordinates": [4.890841659443936, 52.380757731897404]}},
{"type": "Feature", "id": "CU9Di3w4Ahuk3hl-d0AQqDL6WIQ=", "properties": {"ref": "PorNDr", "@spider": "carhartt_wip", "addr:street_address": "Utrechtsestraat 99", "addr:city": "Amsterdam", "addr:postcode": "1017 VK", "addr:country": "NL", "name": "Carhartt WIP Store Amsterdam Utrechtsestraat", "phone": "+31206222017", "website": "https://www.carhartt-wip.com/stores/9572", "contact:email": "amsterdam_us@carhartt-wip.com", "opening_hours": "Mo 12:00-18:00; Tu-Sa 10:00-18:00; Su 12:00-18:00", "brand": "Carhartt WIP"}, "geometry": {"type": "Point", "coordinates": [4.898905583912324, 52.36271088959858]}},
{"type": "Feature", "id": "P-dV0b9qnlWKRn3duRYnCOA4kUU=", "properties": {"ref": "BmBypz", "@spider": "carhartt_wip", "addr:street_address": "6 Rue de la Paix", "addr:city": "Annecy", "addr:postcode": "74000", "addr:country": "FR", "name": "Carhartt WIP Store Annecy", "phone": "+33450012214", "website": "https://www.carhartt-wip.com/stores/4977", "contact:email": "annecy@carhartt-wip.com", "opening_hours": "Mo 14:00-19:00; Tu-We 10:30-19:00; Th 10:30-13:00,14:00-19:00; Fr-Sa 10:30-19:00", "brand": "Carhartt WIP"}, "geometry": {"type": "Point", "coordinates": [6.125805354188174, 45.90313103489118]}},
{"type": "Feature", "id": "E-95z2-1GFGxHJK8TrRC7qdmd48=", "properties": {"ref": "AMq2Qx", "@spider": "carhartt_wip", "addr:street_address": "Kammenstraat 70", "addr:city": "Antwerpen", "addr:postcode": "2000", "addr:country": "BE", "name": "Carhartt WIP Store Antwerp", "phone": "+3236695535", "website": "https://www.carhartt-wip.com/stores/9601", "contact:email": "antwerp@carhartt-wip.com", "opening_hours": "Mo-Fr 10:00-18:00; Sa 10:00-18:30; Su 13:00-18:00", "brand": "Carhartt WIP"}, "geometry": {"type": "Point", "coordinates": [4.4014248, 51.2163524]}},
{"type": "Feature", "id": "qKPTv1v8PzJrxVvrxq94V92rRI0=", "properties": {"ref": "dxdEQZ", "@spider": "carhartt_wip", "addr:street_address": "Carrer del Rec 71", "addr:city": "Barcelona", "addr:postcode": "08003", "addr:country": "ES", "name": "Carhartt WIP Store Barcelona El Born", "phone": "+34933105231", "website": "https://www.carhartt-wip.com/stores/4527", "contact:email": "elborn.barcelona@carhartt-wip.com", "opening_hours": "Mo-Sa 11:00-21:00", "brand": "Carhartt WIP"}, "geometry": {"type": "Point", "coordinates": [2.18370206200575, 41.384613892765685]}},
{"type": "Feature", "id": "szFQ2i_ZFN8M2qQXuZbbu6KkIC8=", "properties": {"ref": "qVM58p", "@spider": "carhartt_wip", "addr:street_address": "Carrer del Duc,12", "addr:city": "Barcelona", "addr:postcode": "08002", "addr:country": "ES", "name": "Carhartt WIP Store Barcelona Gothic Quarter", "phone": "+34936397739", "website": "https://www.carhartt-wip.com/stores/9565", "contact:email": "duc.barcelona@carhartt-wip.com", "opening_hours": "Mo-Sa 11:00-21:00", "brand": "Carhartt WIP"}, "geometry": {"type": "Point", "coordinates": [2.1731559080569696, 41.38456290359706]}},
{"type": "Feature", "id": "L-wfmA_uZwLZrUGcWBo1wfhk3uY=", "properties": {"ref": "96qV96", "@spider": "carhartt_wip", "addr:street_address": "Budapester Str. 38-50", "addr:city": "Berlin", "addr:postcode": "10787", "addr:country": "DE", "name": "Carhartt WIP Store Berlin Bikini", "phone": "+493026558650", "website": "https://www.carhartt-wip.com/stores/12152", "contact:email": "bikiniberlin@carhartt-wip.com", "opening_hours": "Mo-Sa 10:00-20:00", "brand": "Carhartt WIP"}, "geometry": {"type": "Point", "coordinates": [13.336653775463123, 52.505390918098286]}},
{"type": "Feature", "id": "Grcw8d1Nfktkr9ZtcBSNfMNDe_E=", "properties": {"ref": "8rm48l", "@spider": "carhartt_wip", "addr:street_address": "Rosenthalerstrasse 48", "addr:city": "Berlin", "addr:postcode": "10178", "addr:country": "DE", "name": "Carhartt WIP Store Berlin Mitte", "phone": "+493028097367", "website": "https://www.carhartt-wip.com/stores/4374", "contact:email": "berlin@carhartt-wip.com", "opening_hours": "Mo-Sa 11:00-20:00", "brand": "Carhartt WIP"}, "geometry": {"type": "Point", "coordinates": [13.40354547490972, 52.524939970313376]}},
{"type": "Feature", "id": "NGeqYnSWpJctT2SoEyKoGRNLmrE=", "properties": {"ref": "jPA747", "@spider": "carhartt_wip", "addr:street_address": "C. Licenciado Poza 23", "addr:city": "Bilbao", "addr:postcode": "48011", "addr:country": "ES", "name": "Carhartt WIP Store Bilbao", "phone": "+34944109834", "website": "https://www.carhartt-wip.com/stores/12059", "contact:email": "bilbao@carhartt-wip.com", "opening_hours": "Mo-Sa 10:30-20:30", "brand": "Carhartt WIP"}, "geometry": {"type": "Point", "coordinates": [-2.938007373016376, 43.261325911054726]}},
{"type": "Feature", "id": "vDvn7KFNBC95ti-Mzvj0Wfji2yM=", "properties": {"ref": "NdGlzZ", "@spider": "carhartt_wip", "addr:street_address": "70 Cours Alsace Lorraine", "addr:city": "Bordeaux", "addr:postcode": "33000", "addr:country": "FR", "name": "Carhartt WIP Store Bordeaux", "phone": "+33557875445", "website": "https://www.carhartt-wip.com/stores/5581", "contact:email": "bordeaux@carhartt-wip.com", "opening_hours": "Mo-Fr 11:00-19:00; Sa 10:30-19:00", "brand": "Carhartt WIP"}, "geometry": {"type": "Point", "coordinates": [-0.5716156127691647, 44.83759216452789]}},
{"type": "Feature", "id": "N08jAu8yW8UI9YF-l9YKqjNhiTQ=", "properties": {"ref": "XOowx9", "@spider": "carhartt_wip", "addr:street_address": "12-14 Park Street", "addr:city": "Bristol", "addr:postcode": "BS1 5HR", "addr:country": "GB", "name": "Carhartt WIP Store Bristol", "phone": "+441179254019", "website": "https://www.carhartt-wip.com/stores/12252", "contact:email": "bristol@carhartt-wip.com", "opening_hours": "Mo-Sa 11:00-18:00; Su 12:00-17:00", "brand": "Carhartt WIP"}, "geometry": {"type": "Point", "coordinates": [-2.6013886901373553, 51.453612174858286]}},
{"type": "Feature", "id": "4YarySfrw4o6DI4dWprdPnibhIo=", "properties": {"ref": "XOowb9", "@spider": "carhartt_wip", "addr:street_address": "10 Rue Jean Stas", "addr:city": "Bruxelles", "addr:postcode": "1060", "addr:country": "BE", "name": "Carhartt WIP Store Brussels", "phone": "+3223548562", "website": "https://www.carhartt-wip.com/stores/9578", "contact:email": "brussels@carhartt-wip.com", "opening_hours": "Mo-Fr 10:30-18:30; Sa 10:00-18:30", "brand": "Carhartt WIP"}, "geometry": {"type": "Point", "coordinates": [4.355993364418055, 50.83412073209038]}},
{"type": "Feature", "id": "WYgokr2NAAj0PPyN79xvIenSGV0=", "properties": {"ref": "0w9aZm", "@spider": "carhartt_wip", "addr:street_address": "32, Meokgeori 10-gil, Dongnam-gu, Cheonan-si", "addr:city": "Cheonan", "addr:postcode": "31123", "addr:country": "KR", "name": "Carhartt WIP Store Cheonan", "phone": "+82415520922", "website": "https://www.carhartt-wip.com/stores/11333", "contact:email": "info@carhartt-wip.co.kr", "opening_hours": "Mo-Su 12:00-21:00", "brand": "Carhartt WIP"}, "geometry": {"type": "Point", "coordinates": [127.1571886, 36.8177563]}},
{"type": "Feature", "id": "hfTkHVl__jXxIJ-BrQYSkjKZNiA=", "properties": {"ref": "m2VGRd", "@spider": "carhartt_wip", "addr:street_address": "Ehrenstrasse 66-68", "addr:city": "Cologne", "addr:postcode": "50672", "addr:country": "DE", "name": "Carhartt WIP Store Cologne", "phone": "+492212589529", "website": "https://www.carhartt-wip.com/stores/4379", "contact:email": "cologne@carhartt-wip.com", "opening_hours": "Mo-Sa 11:00-20:00", "brand": "Carhartt WIP"}, "geometry": {"type": "Point", "coordinates": [6.9419893, 50.9383706]}},
{"type": "Feature", "id": "fg7uYetLeZ9Jc8J4jFGX2mjMkJQ=", "properties": {"ref": "gxbMqL", "@spider": "carhartt_wip", "addr:street_address": "Elmegade 13 / (Birkegade 1)", "addr:city": "Copenhagen", "addr:postcode": "2200", "addr:country": "DK", "name": "Carhartt WIP Store Copenhagen", "phone": "+4535365370", "website": "https://www.carhartt-wip.com/stores/5611", "contact:email": "info@carhartt-wip.dk", "opening_hours": "Mo-Th 11:00-18:00; Fr 11:00-19:00; Sa 10:00-17:00", "brand": "Carhartt WIP"}, "geometry": {"type": "Point", "coordinates": [12.558159445376305, 55.68988406315021]}},
{"type": "Feature", "id": "KhyVwjPlddA44wmUBLGRjxF2U9o=", "properties": {"ref": "EvErMn", "@spider": "carhartt_wip", "addr:street_address": "Krystalgade 7", "addr:city": "Copenhagen", "addr:postcode": "1172", "addr:country": "DK", "name": "Carhartt WIP Store Copenhagen City", "phone": "+4535365380", "website": "https://www.carhartt-wip.com/stores/12058", "contact:email": "info@carhartt-wip.dk", "opening_hours": "Mo-Th 11:00-18:00; Fr 11:00-19:00; Sa 11:00-17:00", "brand": "Carhartt WIP"}, "geometry": {"type": "Point", "coordinates": [12.574199731762747, 55.68100378057317]}},
{"type": "Feature", "id": "cmufHaqzVclD-zbsG7HibMSUC6U=", "properties": {"ref": "2PNnpW", "@spider": "carhartt_wip", "addr:street_address": "Fisketorvet Shopping Mall, Kalvebod Brygge 59", "addr:city": "Copenhagen", "addr:postcode": "1560", "addr:country": "DK", "name": "Carhartt WIP Store Copenhagen Fisketorvet", "phone": "+4538425320", "website": "https://www.carhartt-wip.com/stores/9570", "contact:email": "info@carhartt-wip.dk", "opening_hours": "Mo-Fr 10:00-20:00; Sa-Su 10:00-18:00", "brand": "Carhartt WIP"}, "geometry": {"type": "Point", "coordinates": [12.561319743652575, 55.66182880678184]}},
{"type": "Feature", "id": "qG1cTQ2TD8Onk4mIfrlSmhRQdcE=", "properties": {"ref": "djxkqV", "@spider": "carhartt_wip", "addr:street_address": "29-31, Dongseong-no 1-gil, Jung-gu", "addr:city": "Daegu", "addr:postcode": "41942", "addr:country": "KR", "name": "Carhartt WIP Store Daegu Dongseongno", "phone": "+82534240922", "website": "https://www.carhartt-wip.com/stores/9597", "contact:email": "info@carhartt-wip.co.kr", "opening_hours": "Mo-Th 12:00-21:00; Fr-Su 12:00-22:00", "brand": "Carhartt WIP"}, "geometry": {"type": "Point", "coordinates": [128.59458283068847, 35.86688634721931]}},
{"type": "Feature", "id": "GKJkO_jMxM-0kDfAAF3dgowIP6g=", "properties": {"ref": "qVM5Rp", "@spider": "carhartt_wip", "addr:street_address": "Mittelstrasse 16", "addr:city": "Duesseldorf", "addr:postcode": "40213", "addr:country": "DE", "name": "Carhartt WIP Store D\u00fcsseldorf", "phone": "+492118368982", "website": "https://www.carhartt-wip.com/stores/4378", "contact:email": "duesseldorf@carhartt-wip.com", "opening_hours": "Mo-Fr 11:00-20:00; Sa 10:00-20:00", "brand": "Carhartt WIP"}, "geometry": {"type": "Point", "coordinates": [6.774457088939357, 51.22412481469605]}},
{"type": "Feature", "id": "L1MKNhGA9DUQDENXyPT3krzvGuw=", "properties": {"ref": "jmyOoZ", "@spider": "carhartt_wip", "addr:street_address": "Plaza commercial, 5", "addr:city": "Barcelona", "addr:postcode": "08003", "addr:country": "ES", "name": "Carhartt WIP Store El Born 2", "phone": "+34937715823", "website": "https://www.carhartt-wip.com/stores/9616", "contact:email": "cs_barcelona04@carhartt-wip.com", "opening_hours": "Mo-Sa 11:00-21:00", "brand": "Carhartt WIP"}, "geometry": {"type": "Point", "coordinates": [2.18293088, 41.38556940906588]}},
{"type": "Feature", "id": "5OlQ2q7Sliis4Pjim9OInuOwKZE=", "properties": {"ref": "dAXZrV", "@spider": "carhartt_wip", "addr:street_address": "Via De\u2019 Vecchietti 17/R", "addr:city": "Florence", "addr:postcode": "50123", "addr:country": "IT", "name": "Carhartt WIP Store Florence", "phone": "+390550490747", "website": "https://www.carhartt-wip.com/stores/9610", "contact:email": "florence@carhartt-wip.com", "opening_hours": "Mo-Sa 10:30-19:30; Su 11:00-19:00", "brand": "Carhartt WIP"}, "geometry": {"type": "Point", "coordinates": [11.252652214643986, 43.77286416322121]}},
{"type": "Feature", "id": "rMw8Zxh4INENOo6fRDdpc84AxUg=", "properties": {"ref": "m2VG8d", "@spider": "carhartt_wip", "addr:street_address": "Neue Kraeme 26", "addr:city": "Frankfurt am Main", "addr:postcode": "60311", "addr:country": "DE", "name": "Carhartt WIP Store Frankfurt", "phone": "+496921089894", "website": "https://www.carhartt-wip.com/stores/9569", "contact:email": "frankfurt2@carhartt-wip.com", "opening_hours": "Mo-Sa 11:00-20:00", "brand": "Carhartt WIP"}, "geometry": {"type": "Point", "coordinates": [8.681853393139704, 50.111928941072776]}},
{"type": "Feature", "id": "WC3fc4eqf9TrUilDJLV_AXCgaas=", "properties": {"ref": "nBEJ8z", "@spider": "carhartt_wip", "addr:street_address": "1-2-51 Daimyo Chuo-ku", "addr:city": "Fukuoka", "addr:postcode": "810-0041", "addr:country": "JP", "name": "Carhartt WIP Store Fukuoka", "phone": "+81927169810", "website": "https://www.carhartt-wip.com/stores/9001", "contact:email": "info@carhartt-wip.jp", "opening_hours": "Mo-Su 11:00-20:00", "brand": "Carhartt WIP"}, "geometry": {"type": "Point", "coordinates": [130.39536948502064, 33.58609335869781]}},
{"type": "Feature", "id": "fivUbHMPXEzd31MUeiw0WjMCd1k=", "properties": {"ref": "PorNJr", "@spider": "carhartt_wip", "addr:street_address": "38 Sint-Pietersnieuwstraat", "addr:city": "Ghent", "addr:postcode": "9000", "addr:country": "BE", "name": "Carhartt WIP Store Ghent", "phone": "+3292250993", "website": "https://www.carhartt-wip.com/stores/12151", "contact:email": "ghent@carhartt-wip.com", "opening_hours": "Mo-Fr 10:30-18:30; Sa 10:00-18:30; Su 12:00-17:00", "brand": "Carhartt WIP"}, "geometry": {"type": "Point", "coordinates": [3.7269884840441136, 51.048316510318514]}},
{"type": "Feature", "id": "wofY-6CF2sspr2i5hXMQq321CsQ=", "properties": {"ref": "aAvg8v", "@spider": "carhartt_wip", "addr:street_address": "74-1, Chungjang-ro, Dong-gu", "addr:city": "Gwangju", "addr:postcode": "61483", "addr:country": "KR", "name": "Carhartt WIP Store Gwangju", "phone": "+82624330926", "website": "https://www.carhartt-wip.com/stores/9596", "contact:email": "info@carhartt-wip.co.kr", "opening_hours": "Mo-Th 12:00-21:00; Fr-Su 12:00-22:00", "brand": "Carhartt WIP"}, "geometry": {"type": "Point", "coordinates": [126.9154754, 35.1485812]}},
{"type": "Feature", "id": "smU2zU9kCxvSZUsitDt-2DCvyd4=", "properties": {"ref": "M9yoMd", "@spider": "carhartt_wip", "addr:street_address": "Anegang 24", "addr:city": "Haarlem", "addr:postcode": "2011 HS", "addr:country": "NL", "name": "Carhartt WIP Store Haarlem", "phone": "+31235519939", "website": "https://www.carhartt-wip.com/stores/9581", "contact:email": "haarlem@carhartt-wip.com", "opening_hours": "Mo 12:00-18:00; Tu-We 10:00-18:00; Th 10:00-19:00; Fr-Sa 10:00-18:00; Su 12:00-17:00", "brand": "Carhartt WIP"}, "geometry": {"type": "Point", "coordinates": [4.6360697475479355, 52.37989157539059]}},
{"type": "Feature", "id": "Trg6e5MXijpZ6k7Q8DFTDjxqUpk=", "properties": {"ref": "zrl7b0", "@spider": "carhartt_wip", "addr:street_address": "Poststr. 20", "addr:city": "Hamburg", "addr:postcode": "20354", "addr:country": "DE", "name": "Carhartt WIP Store Hamburg Poststra\u00dfe", "website": "https://www.carhartt-wip.com/stores/9614", "contact:email": "cs_hamburg_ps@carhartt-wip.com", "opening_hours": "Mo-Sa 11:00-20:00", "brand": "Carhartt WIP"}, "geometry": {"type": "Point", "coordinates": [9.988423289959249, 53.55430850805998]}},
{"type": "Feature", "id": "vT3vuP94ZJ3w3YXZcFdtLqxF7dI=", "properties": {"ref": "8rm4jl", "@spider": "carhartt_wip", "addr:street_address": "Schanzenstrasse 27", "addr:city": "Hamburg", "addr:postcode": "20357", "addr:country": "DE", "name": "Carhartt WIP Store Hamburg Schanzenstra\u00dfe", "phone": "+494023518082", "website": "https://www.carhartt-wip.com/stores/12168", "contact:email": "hamburg@carhartt-wip.com", "opening_hours": "Mo-Sa 11:00-20:00", "brand": "Carhartt WIP"}, "geometry": {"type": "Point", "coordinates": [9.964624593858616, 53.56033022056967]}},
{"type": "Feature", "id": "IKjlp57k8bVyrhJMWM8iywe37iA=", "properties": {"ref": "bBq4Mz", "@spider": "carhartt_wip", "addr:street_address": "1F 3-13 Mikawacho Naka-Ku Hiroshima-Shi", "addr:city": "Hiroshima", "addr:postcode": "730-0029", "addr:country": "JP", "name": "Carhartt WIP Store Hiroshima", "phone": "+81822499810", "website": "https://www.carhartt-wip.com/stores/9592", "contact:email": "info@carhartt-wip.jp", "opening_hours": "Mo-Su 11:00-20:00", "brand": "Carhartt WIP"}, "geometry": {"type": "Point", "coordinates": [132.4470268441803, 34.36455275625627]}},
{"type": "Feature", "id": "V8k4aT-Ibu31CLXLyw7qQopPy00=", "properties": {"ref": "pwlz8V", "@spider": "carhartt_wip", "addr:street_address": "3 Avenida Bartolome Rosello", "addr:city": "Ibiza", "addr:postcode": "07800", "addr:country": "ES", "name": "Carhartt WIP Store Ibiza", "phone": "+34971314123", "website": "https://www.carhartt-wip.com/stores/12139", "contact:email": "ibiza@carhartt-wip.com", "opening_hours": "Mo-Sa 11:00-21:00", "brand": "Carhartt WIP"}, "geometry": {"type": "Point", "coordinates": [1.4342349, 38.9104238]}},
{"type": "Feature", "id": "vjyS5_RUpSXwyPokZn9WLjWhV04=", "properties": {"ref": "bBq4zz", "@spider": "carhartt_wip", "addr:street_address": "66, Jeonjugaeksa 4-gil, Wansan-gu", "addr:city": "Jeonju", "addr:postcode": "54999", "addr:country": "KR", "name": "Carhartt WIP Store Jeonju", "phone": "+82632843177", "website": "https://www.carhartt-wip.com/stores/11334", "contact:email": "info@carhartt-wip.co.kr", "opening_hours": "Mo-Su 12:00-21:00", "brand": "Carhartt WIP"}, "geometry": {"type": "Point", "coordinates": [127.1435803, 35.8201839]}},
{"type": "Feature", "id": "sIhbryVCKgUHK09b2SUWnFiTKOU=", "properties": {"ref": "lw4y5E", "@spider": "carhartt_wip", "addr:street_address": "496-1 Shinkyogokudori Takoyakushiagaru Nakasujicho Nakagyoku Kyoto-Shi", "addr:city": "Kyoto", "addr:postcode": "604-8047", "addr:country": "JP", "name": "Carhartt WIP Store Kyoto", "phone": "+81752569810", "website": "https://www.carhartt-wip.com/stores/9593", "contact:email": "info@carhartt-wip.jp", "opening_hours": "Mo-Su 11:00-20:00", "brand": "Carhartt WIP"}, "geometry": {"type": "Point", "coordinates": [135.76711641104507, 35.00639687117228]}},
{"type": "Feature", "id": "4vRNf-qq8BQf19qVRdB11JglGrY=", "properties": {"ref": "4yvDj7", "@spider": "carhartt_wip", "addr:street_address": "26 Rue Lepelletier", "addr:city": "Lille", "addr:postcode": "59000", "addr:country": "FR", "name": "Carhartt WIP Store Lille", "phone": "+33320557469", "website": "https://www.carhartt-wip.com/stores/12075", "contact:email": "lille@carhartt-wip.com", "opening_hours": "Mo 14:00-19:00; Tu-Sa 10:30-19:00", "brand": "Carhartt WIP"}, "geometry": {"type": "Point", "coordinates": [3.062860076431207, 50.63851181768226]}},
{"type": "Feature", "id": "1WrnMIKIsrnBWoPPjXMrFpxyagQ=", "properties": {"ref": "L3WZxA", "@spider": "carhartt_wip", "addr:street_address": "Rua \u00c1urea 224", "addr:city": "Lisbon", "addr:postcode": "1100-065", "addr:country": "PT", "name": "Carhartt WIP Store Lisboa", "phone": "+351213433168", "website": "https://www.carhartt-wip.com/stores/5393", "contact:email": "lisbon@carhartt-wip.com", "opening_hours": "Mo-Sa 12:00-18:00", "brand": "Carhartt WIP"}, "geometry": {"type": "Point", "coordinates": [-9.138853165155183, 38.71181150428098]}},
{"type": "Feature", "id": "gmmbftYk68T0YBSe25TUsJKYxyo=", "properties": {"ref": "L3WZJA", "@spider": "carhartt_wip", "addr:street_address": "15-17 Earlham Street", "addr:city": "London", "addr:postcode": "WC2H 9LL", "addr:country": "GB", "name": "Carhartt WIP Store London Earlham Street", "phone": "+442078361551", "website": "https://www.carhartt-wip.com/stores/5284", "contact:email": "coventgarden@carhartt-wip.com", "opening_hours": "Mo-Sa 11:00-19:00; Su 12:00-18:00", "brand": "Carhartt WIP"}, "geometry": {"type": "Point", "coordinates": [-0.12764055044635825, 51.513772834079425]}},
{"type": "Feature", "id": "SxiJYpd-Qkc5UWuJh-_olua2xrU=", "properties": {"ref": "ZQpakM", "@spider": "carhartt_wip", "addr:street_address": "Unit 3, 2 Pancras Square", "addr:city": "Kings Cross", "addr:postcode": "N1C4AG", "addr:country": "GB", "name": "Carhartt WIP Store London Kings Cross", "phone": "+442039576815", "website": "https://www.carhartt-wip.com/stores/9579", "contact:email": "kingscross@carhartt-wip.com", "opening_hours": "Mo-Sa 11:00-19:00; Su 11:00-17:00", "brand": "Carhartt WIP"}, "geometry": {"type": "Point", "coordinates": [-0.12481317790980029, 51.53369866847951]}},
{"type": "Feature", "id": "XWXSl0j_enLwhVVHFsfPogU5O4k=", "properties": {"ref": "vNyZ8Q", "@spider": "carhartt_wip", "addr:street_address": "140 Shoreditch High Street", "addr:city": "London", "addr:postcode": "E1 6JE", "addr:country": "GB", "name": "Carhartt WIP Store London Shoreditch", "phone": "+442077395854", "website": "https://www.carhartt-wip.com/stores/12062", "contact:email": "shoreditch@carhartt-wip.com", "opening_hours": "Mo-Sa 11:00-19:00; Su 11:00-17:00", "brand": "Carhartt WIP"}, "geometry": {"type": "Point", "coordinates": [-0.07823855442894212, 51.52613740477186]}},
{"type": "Feature", "id": "edYwtIOVApg8JjpKsbuJeXaRxrM=", "properties": {"ref": "OZJpbv", "@spider": "carhartt_wip", "addr:street_address": "72-74 Brewer Street", "addr:city": "London", "addr:postcode": "W1F 9TU", "addr:country": "GB", "name": "Carhartt WIP Store London Soho", "phone": "+442072874445", "website": "https://www.carhartt-wip.com/stores/9566", "contact:email": "soho@carhartt-wip.com", "opening_hours": "Mo-Sa 11:00-19:00; Su 11:00-17:00", "brand": "Carhartt WIP"}, "geometry": {"type": "Point", "coordinates": [-0.136613, 51.511033]}},
{"type": "Feature", "id": "rdh3Mbqns64RXnFBuAMPKxzU8iE=", "properties": {"ref": "rMPMl3", "@spider": "carhartt_wip", "addr:street_address": "136 South La Brea Ave", "addr:city": "Los Angeles", "addr:postcode": "90036", "addr:country": "US", "name": "Carhartt WIP Store Los Angeles", "phone": "+13239175150", "website": "https://www.carhartt-wip.com/stores/9600", "contact:email": "losangeles@carhartt-wip.com", "opening_hours": "Mo-Sa 11:00-19:00; Su 12:00-18:00", "brand": "Carhartt WIP"}, "geometry": {"type": "Point", "coordinates": [-118.34375070355094, 34.07248743651704]}},
{"type": "Feature", "id": "E5QS3gS4Xx5g3hK5wU8qv3j5GXo=", "properties": {"ref": "kGBW8O", "@spider": "carhartt_wip", "addr:street_address": "8 Rue Lanterne", "addr:city": "Lyon", "addr:postcode": "69001", "addr:country": "FR", "name": "Carhartt WIP Store Lyon", "phone": "+33478299513", "website": "https://www.carhartt-wip.com/stores/5895", "contact:email": "lyon@carhartt-wip.com", "opening_hours": "Mo-Sa 11:00-19:00", "brand": "Carhartt WIP"}, "geometry": {"type": "Point", "coordinates": [4.831600985730006, 45.766839747655126]}},
{"type": "Feature", "id": "QHakGp36ccRg8rJIXnjbsmtqZak=", "properties": {"ref": "avmBrk", "@spider": "carhartt_wip", "addr:street_address": "Calle Augusto Figueroa 11", "addr:city": "Madrid", "addr:postcode": "28004", "addr:country": "ES", "name": "Carhartt WIP Store Madrid Augusto Figueroa 11", "phone": "+34915329884", "website": "https://www.carhartt-wip.com/stores/9576", "contact:email": "madrid3@carhartt-wip.com", "opening_hours": "Mo-Sa 11:00-21:00; Su 12:00-20:00", "brand": "Carhartt WIP"}, "geometry": {"type": "Point", "coordinates": [-3.6997732, 40.4229934]}},
{"type": "Feature", "id": "x4qkW3toIn6WCWFeTi5QMlRoVRI=", "properties": {"ref": "96qVZ6", "@spider": "carhartt_wip", "addr:street_address": "59-61 Oldham Street", "addr:city": "Manchester", "addr:postcode": "M1 1JR", "addr:country": "GB", "name": "Carhartt WIP Store Manchester", "phone": "+441618319488", "website": "https://www.carhartt-wip.com/stores/6468", "contact:email": "manchester@carhartt-wip.com", "opening_hours": "Mo-Sa 10:00-18:00; Su 12:00-17:00", "brand": "Carhartt WIP"}, "geometry": {"type": "Point", "coordinates": [-2.235334741692668, 53.482984480783074]}},
{"type": "Feature", "id": "0b7wnjLr4K_9P17dLqSXaNKt2WQ=", "properties": {"ref": "0Pw3RL", "@spider": "carhartt_wip", "addr:street_address": "10-14 Hilton Street", "addr:city": "Manchester", "addr:postcode": "M1 1JF", "addr:country": "GB", "name": "Carhartt WIP Store Manchester 2", "phone": "+441616419582", "website": "https://www.carhartt-wip.com/stores/9595", "contact:email": "hilton.manchester@carhartt-wip.com", "opening_hours": "Mo-Sa 10:00-18:00; Su 12:00-17:00", "brand": "Carhartt WIP"}, "geometry": {"type": "Point", "coordinates": [-2.234882, 53.482908]}},
{"type": "Feature", "id": "77AfOtSrq-tOxGRuQS28grpzBeg=", "properties": {"ref": "x8J9an", "@spider": "carhartt_wip", "addr:street_address": "Level 2, Shop 242, 211 La Trobe St", "addr:city": "Melbourne VIC", "addr:postcode": "3000", "addr:country": "AU", "name": "Carhartt WIP Store Melbourne", "phone": "+61396628089", "website": "https://www.carhartt-wip.com/stores/5439", "contact:email": "melbourne@carhartt-wip.com.au", "opening_hours": "Mo-We 10:00-19:00; Th-Fr 10:00-21:00; Sa-Su 10:00-19:00", "brand": "Carhartt WIP"}, "geometry": {"type": "Point", "coordinates": [144.96348329451837, -37.811603088805704]}},
{"type": "Feature", "id": "2ffrX3bXsTHAQbpVYcfefhofnl8=", "properties": {"ref": "WoZqgw", "@spider": "carhartt_wip", "addr:street_address": "Corso di Porta Ticinese, 105", "addr:city": "Milano", "addr:postcode": "20123", "addr:country": "IT", "name": "Carhartt WIP Store Milano", "phone": "+390289421932", "website": "https://www.carhartt-wip.com/stores/4383", "contact:email": "milanCherubini@carhartt-wip.com", "opening_hours": "Mo 15:00-19:30; Tu-Fr 10:30-13:30,14:30-19:30; Sa 10:30-19:30; Su 15:00-19:30", "brand": "Carhartt WIP"}, "geometry": {"type": "Point", "coordinates": [9.180668634377133, 45.45451120384666]}},
{"type": "Feature", "id": "onCnIaSmmQjaflr-9_oxmJrirL4=", "properties": {"ref": "V7Xmz5", "@spider": "carhartt_wip", "addr:street_address": "Via Francesco Cherubini, 8", "addr:city": "Milano", "addr:postcode": "20145", "addr:country": "IT", "name": "Carhartt WIP Store Milano", "phone": "+390248029995", "website": "https://www.carhartt-wip.com/stores/8591", "contact:email": "milano@carhartt-wip.com", "opening_hours": "Mo 15:00-19:30; Tu-Fr 10:30-13:30,15:00-19:30; Sa 10:30-19:30", "brand": "Carhartt WIP"}, "geometry": {"type": "Point", "coordinates": [9.159941485458324, 45.46735103225932]}},
{"type": "Feature", "id": "bo89h8xrHbn2RxTqevhQb_jheVo=", "properties": {"ref": "nBEJRz", "@spider": "carhartt_wip", "addr:street_address": "Muenchner Freiheit 2", "addr:city": "Muenchen", "addr:postcode": "80802", "addr:country": "DE", "name": "Carhartt WIP Store Munich", "phone": "+498933038836", "website": "https://www.carhartt-wip.com/stores/8342", "contact:email": "muenchen@carhartt-wip.com", "opening_hours": "Mo-Sa 11:00-20:00", "brand": "Carhartt WIP"}, "geometry": {"type": "Point", "coordinates": [11.5869004, 48.1618853]}},
{"type": "Feature", "id": "ZhIbFxV7xAyxN7__8jJ6rt2lKiA=", "properties": {"ref": "wQGoON", "@spider": "carhartt_wip", "addr:street_address": "1F 5-16-1 Sakae Naka-ku Nagoya-shi", "addr:city": "Aichi", "addr:postcode": "460-0008", "addr:country": "JP", "name": "Carhartt WIP Store Nagoya", "phone": "+81522389810", "website": "https://www.carhartt-wip.com/stores/12174", "contact:email": "info@carhartt-wip.jp", "opening_hours": "Mo-Su 11:00-20:00", "brand": "Carhartt WIP"}, "geometry": {"type": "Point", "coordinates": [136.90973985507628, 35.163431879866366]}},
{"type": "Feature", "id": "gNGQ720cIBM-cTpU32K3O0NoUlM=", "properties": {"ref": "Rj5vAQ", "@spider": "carhartt_wip", "addr:street_address": "286 Lafayette Street", "addr:city": "New York", "addr:postcode": "10012", "addr:country": "US", "name": "Carhartt WIP Store New York City", "phone": "+12122192934", "website": "https://www.carhartt-wip.com/stores/9571", "contact:email": "newyork@carhartt-wip.com", "opening_hours": "Mo-Sa 11:00-18:00; Su 12:00-18:00", "brand": "Carhartt WIP"}, "geometry": {"type": "Point", "coordinates": [-73.99624988910404, 40.72432321275967]}},
{"type": "Feature", "id": "MS8k_R3xT4BWw6mVN0-eh9KJJB0=", "properties": {"ref": "dxdE8Z", "@spider": "carhartt_wip", "addr:street_address": "1-9-12 Minamihorie Nishi-ku Osaka-Shi", "addr:city": "Osaka", "addr:postcode": "550-0015", "addr:country": "JP", "name": "Carhartt WIP Store Osaka", "phone": "+81665329810", "website": "https://www.carhartt-wip.com/stores/12175", "contact:email": "info@carhartt-wip.jp", "opening_hours": "Mo-Su 11:00-20:00", "brand": "Carhartt WIP"}, "geometry": {"type": "Point", "coordinates": [135.49572074411662, 34.671275909828154]}},
{"type": "Feature", "id": "eOaT7TIqxLyG0pRxlC81iAiNVkY=", "properties": {"ref": "yVrpX8", "@spider": "carhartt_wip", "addr:street_address": "Carrer de Sant Nicolau, 22", "addr:city": "Palma de Mallorca", "addr:postcode": "07001", "addr:country": "ES", "name": "Carhartt WIP Store Palma", "phone": "+34971217991", "website": "https://www.carhartt-wip.com/stores/9582", "contact:email": "palma@carhartt-wip.com", "opening_hours": "Mo-Sa 10:30-20:00", "brand": "Carhartt WIP"}, "geometry": {"type": "Point", "coordinates": [2.6479362615523314, 39.570875789451975]}},
{"type": "Feature", "id": "wgOY8Gf7TA9Ywdh2rbJwRItLc9Q=", "properties": {"ref": "vNyZRQ", "@spider": "carhartt_wip", "addr:street_address": "38 bis Rue du Fbg. St Antoine", "addr:city": "Paris", "addr:postcode": "75012", "addr:country": "FR", "name": "Carhartt WIP Store Paris Bastille", "phone": "+33140020220", "website": "https://www.carhartt-wip.com/stores/4268", "contact:email": "parisbastille@carhartt-wip.com", "opening_hours": "Mo-Sa 10:30-19:30", "brand": "Carhartt WIP"}, "geometry": {"type": "Point", "coordinates": [2.3720972728672223, 48.852234526473794]}},
{"type": "Feature", "id": "0XTvhBakrh17cxDgO2NPdHUJxmk=", "properties": {"ref": "Rj5vyQ", "@spider": "carhartt_wip", "addr:street_address": "57 Rue du Temple", "addr:city": "Paris", "addr:postcode": "75004", "addr:country": "FR", "name": "Carhartt WIP Store Paris Le Marais", "phone": "+33144615589", "website": "https://www.carhartt-wip.com/stores/12087", "contact:email": "parislemarais@carhartt-wip.com", "opening_hours": "Mo-Sa 11:00-19:30; Su 14:00-19:00", "brand": "Carhartt WIP"}, "geometry": {"type": "Point", "coordinates": [2.354545, 48.86026]}},
{"type": "Feature", "id": "WtGSPaFOYlhkkxyj_CYwAO3k77Q=", "properties": {"ref": "JrQ2y6", "@spider": "carhartt_wip", "addr:street_address": "66 Rue Saint Honor\u00e9", "addr:city": "Paris", "addr:postcode": "75001", "addr:country": "FR", "name": "Carhartt WIP Store Paris St-Honore", "phone": "+33140139993", "website": "https://www.carhartt-wip.com/stores/5894", "contact:email": "parissthonore@carhartt-wip.com", "opening_hours": "Mo 14:00-19:30; Tu-Sa 11:00-19:30", "brand": "Carhartt WIP"}, "geometry": {"type": "Point", "coordinates": [2.343479272871491, 48.86138080636061]}},
{"type": "Feature", "id": "ywfN9ELDFDCF3FNF6yCwhN9RJ0A=", "properties": {"ref": "m48kz5", "@spider": "carhartt_wip", "addr:street_address": "23 rue du Four", "addr:city": "Paris", "addr:postcode": "75006", "addr:country": "FR", "name": "Carhartt WIP Store Paris St. Germain", "phone": "+33156818571", "website": "https://www.carhartt-wip.com/stores/9606", "contact:email": "parisstgermain@carhartt-wip.com", "opening_hours": "Mo-Sa 11:00-19:30; Su 14:00-19:00", "brand": "Carhartt WIP"}, "geometry": {"type": "Point", "coordinates": [2.334230405522524, 48.85265772074372]}},
{"type": "Feature", "id": "_EVT5GXCMaVXUdC6X0bxJvSEgug=", "properties": {"ref": "BmByEz", "@spider": "carhartt_wip", "addr:street_address": "Al Rashid Mall King Abdullah Rd.", "addr:city": "Al Khobar", "addr:postcode": "34448", "addr:country": "SA", "name": "Carhartt WIP Store Rashid Mall", "phone": "+966138977016", "website": "https://www.carhartt-wip.com/stores/9574", "contact:email": "ksa.rasch@besidegroup.com", "opening_hours": "Mo-Th 09:30-23:00; Fr 10:30-19:30", "brand": "Carhartt WIP"}, "geometry": {"type": "Point", "coordinates": [50.18052240244674, 26.29079492868238]}},
{"type": "Feature", "id": "oQZ6ueWTULFqDqHO3VpGCv55vV4=", "properties": {"ref": "4yvDZ7", "@spider": "carhartt_wip", "addr:street_address": "King Abdulaziz Branch Rd, Ash Shati", "addr:city": "Jeddah", "addr:postcode": "23612", "addr:country": "SA", "name": "Carhartt WIP Store Red Sea Mall", "phone": "+966122150343", "website": "https://www.carhartt-wip.com/stores/9573", "contact:email": "redch@besidegroup.com", "opening_hours": "Mo-Th 10:00-23:00; Fr 14:00-23:00", "brand": "Carhartt WIP"}, "geometry": {"type": "Point", "coordinates": [39.111019, 21.627479]}},
{"type": "Feature", "id": "UQEgB68_R568YsegZXwx5Fotm0s=", "properties": {"ref": "MPjlQv", "@spider": "carhartt_wip", "addr:street_address": "9 Rue Nationale", "addr:city": "Rennes", "addr:postcode": "35000", "addr:country": "FR", "name": "Carhartt WIP Store Rennes", "website": "https://www.carhartt-wip.comNone", "contact:email": "rennes@carhartt-wip.com", "brand": "Carhartt WIP"}, "geometry": {"type": "Point", "coordinates": [-1.6788082122802734, 48.112403869628906]}},
{"type": "Feature", "id": "-Um0YMZQCWgZlFGNLvrHlSSlIBY=", "properties": {"ref": "ppPd7r", "@spider": "carhartt_wip", "addr:street_address": "Via Del Gambero 8", "addr:city": "Roma", "addr:postcode": "00187", "addr:country": "IT", "name": "Carhartt WIP Store Roma", "phone": "+390686219376", "website": "https://www.carhartt-wip.com/stores/9613", "contact:email": "rome@carhartt-wip.com", "opening_hours": "Mo-Su 10:30-19:30", "brand": "Carhartt WIP"}, "geometry": {"type": "Point", "coordinates": [12.48028808746231, 41.90302491019034]}},
{"type": "Feature", "id": "s6_dXmyLKFt8uEUUfacoMaR6oKU=", "properties": {"ref": "VGWrRw", "@spider": "carhartt_wip", "addr:street_address": "Meent 24-26A", "addr:city": "Rotterdam", "addr:postcode": "3011JK", "addr:country": "NL", "name": "Carhartt WIP Store Rotterdam", "phone": "+31102306680", "website": "https://www.carhartt-wip.com/stores/9612", "contact:email": "rotterdam@carhartt-wip.com", "opening_hours": "Mo 12:00-18:00; Tu-Sa 10:00-18:00; Su 12:00-18:00", "brand": "Carhartt WIP"}, "geometry": {"type": "Point", "coordinates": [4.485627360602353, 51.923580514499]}},
{"type": "Feature", "id": "rnS4uZ5Xg4jNkJDsMuErmaKDMnc=", "properties": {"ref": "oWgr8a", "@spider": "carhartt_wip", "addr:street_address": "Garibai Kalea 11", "addr:city": "San Sebastian", "addr:postcode": "20004", "addr:country": "ES", "name": "Carhartt WIP Store San Sebastian", "phone": "+34943428493", "website": "https://www.carhartt-wip.com/stores/5892", "contact:email": "sansebastian@carhartt-wip.com", "opening_hours": "Mo-Sa 10:00-20:30", "brand": "Carhartt WIP"}, "geometry": {"type": "Point", "coordinates": [-1.9837306, 43.3213451]}},
{"type": "Feature", "id": "Uwu2DTNfPrS7ZaaCYTgOPdsuQu8=", "properties": {"ref": "ERvnq7", "@spider": "carhartt_wip", "addr:street_address": "Stellar Place Sapporo Center, 5F Kit A5 Jonishi 2", "addr:city": "Sapporo Chuo-ku, Hokkaido", "addr:postcode": "060-0005", "addr:country": "JP", "name": "Carhartt WIP Store Sapporo", "phone": "+81117779810", "website": "https://www.carhartt-wip.com/stores/9599", "contact:email": "info@carhartt-wip.jp", "opening_hours": "Mo-Su 10:00-21:00", "brand": "Carhartt WIP"}, "geometry": {"type": "Point", "coordinates": [141.351521, 43.0681382]}},
{"type": "Feature", "id": "huooOnu8w98egWmcZzS0m2LgSHw=", "properties": {"ref": "AkAWVG", "@spider": "carhartt_wip", "addr:street_address": "21, Apgujeong-ro 54-gil, Gangnam-gu, Apgujeong-dong", "addr:city": "Seoul", "addr:postcode": "06018", "addr:country": "KR", "name": "Carhartt WIP Store Seoul Apgujeong", "phone": "+8225410870", "website": "https://www.carhartt-wip.com/stores/11681", "contact:email": "info@carhartt-wip.co.kr", "opening_hours": "Mo-Su 12:00-21:00", "brand": "Carhartt WIP"}, "geometry": {"type": "Point", "coordinates": [127.03951921250484, 37.526398742887565]}},
{"type": "Feature", "id": "2RB7mlIczrwBdHJtS5iFHABDtng=", "properties": {"ref": "lw4y8E", "@spider": "carhartt_wip", "addr:street_address": "F101, Coex Mall, 513 Yeongdong-daero, Gangnam-gu", "addr:city": "Seoul", "addr:postcode": "06164", "addr:country": "KR", "name": "Carhartt WIP Store Seoul Coex Mall", "phone": "+8225515512", "website": "https://www.carhartt-wip.com/stores/9568", "contact:email": "info@carhartt-wip.co.kr", "opening_hours": "Mo-Su 10:30-22:00", "brand": "Carhartt WIP"}, "geometry": {"type": "Point", "coordinates": [127.05923803350927, 37.51140473653887]}},
{"type": "Feature", "id": "IJa6Q_zvyRue8naCRKxxufNzgy0=", "properties": {"ref": "0w9a6m", "@spider": "carhartt_wip", "addr:street_address": "52, Wausan-ro, Mapo-gu", "addr:city": "Seoul", "addr:postcode": "04068", "addr:country": "KR", "name": "Carhartt WIP Store Seoul Hongdae", "phone": "+8223378333", "website": "https://www.carhartt-wip.com/stores/12160", "contact:email": "info@carhartt-wip.co.kr", "opening_hours": "Mo-Su 12:00-21:00", "brand": "Carhartt WIP"}, "geometry": {"type": "Point", "coordinates": [126.9232188, 37.549008]}},
{"type": "Feature", "id": "QiVqsRP5q61MnpaFA5vaBWLto-0=", "properties": {"ref": "DMVJDD", "@spider": "carhartt_wip", "addr:street_address": "3F Times Square, 15, Yeongjung-ro, Yeongdeungpo-gu", "addr:city": "Seoul", "addr:postcode": "07305", "addr:country": "KR", "name": "Carhartt WIP Store Seoul Times Square", "phone": "+82226382701", "website": "https://www.carhartt-wip.com/stores/12161", "contact:email": "info@carhartt-wip.co.kr", "opening_hours": "Mo-Su 10:30-22:00", "brand": "Carhartt WIP"}, "geometry": {"type": "Point", "coordinates": [126.90391152418556, 37.51708184897976]}},
{"type": "Feature", "id": "7NFmNCHJT1eleO__5FiFguKcJME=", "properties": {"ref": "Oxv55v", "@spider": "carhartt_wip", "addr:street_address": "T\u00fcbinger Strasse 12-16", "addr:city": "Stuttgart", "addr:postcode": "70178", "addr:country": "DE", "name": "Carhartt WIP Store Stuttgart", "phone": "+4971122000870", "website": "https://www.carhartt-wip.com/stores/9603", "contact:email": "stuttgart@carhatt-wip.com", "opening_hours": "Mo-Sa 11:00-20:00", "brand": "Carhartt WIP"}, "geometry": {"type": "Point", "coordinates": [9.17432495018275, 48.77242058071511]}},
{"type": "Feature", "id": "Rls7TEGZk8SPjdCjGxuKAyz3ze0=", "properties": {"ref": "AkAWRG", "@spider": "carhartt_wip", "addr:street_address": "Ground Level, 20 Burton Street", "addr:city": "Sydney Darlinghurst NSW", "addr:postcode": "2010", "addr:country": "AU", "name": "Carhartt WIP Store Sydney Darlinghurst", "phone": "+61293610144", "website": "https://www.carhartt-wip.com/stores/5677", "contact:email": "burton@carhartt-wip.com.au", "opening_hours": "Mo-We 11:00-19:00; Th 11:00-20:00; Fr 11:00-19:00; Sa 11:00-18:00; Su 12:00-17:00", "brand": "Carhartt WIP"}, "geometry": {"type": "Point", "coordinates": [151.2146126, -33.8781336]}},
{"type": "Feature", "id": "8EkJ-GyFsPDcE7E8iCr6OIuMOXs=", "properties": {"ref": "M9yord", "@spider": "carhartt_wip", "addr:street_address": "Shop RG21 , 500 George Street", "addr:city": "Sydney NSW", "addr:postcode": "2000", "addr:country": "AU", "name": "Carhartt WIP Store Sydney The Galeries", "phone": "+61292676149", "website": "https://www.carhartt-wip.com/stores/8707", "contact:email": "galeries@carhartt-wip.com.au", "opening_hours": "Mo-We 10:00-19:00; Th 10:00-21:00; Fr-Sa 10:00-19:00; Su 11:00-17:00", "brand": "Carhartt WIP"}, "geometry": {"type": "Point", "coordinates": [151.2074226236109, -33.872159530406186]}},
{"type": "Feature", "id": "ZTzHtbhyTtJyj7yRjCLmA9dngzo=", "properties": {"ref": "6wRAZ9", "@spider": "carhartt_wip", "addr:street_address": "4-28-25 Jingumae", "addr:city": "Tokyo", "addr:postcode": "150-0001", "addr:country": "JP", "name": "Carhartt WIP Store Tokyo Shibuya", "phone": "+81334029810", "website": "https://www.carhartt-wip.com/stores/8233", "contact:email": "info@carhartt-wip.jp", "opening_hours": "Mo-Su 11:00-20:00", "brand": "Carhartt WIP"}, "geometry": {"type": "Point", "coordinates": [139.7071402724282, 35.669544964764675]}},
{"type": "Feature", "id": "fNLphzSLkjTRQD1JoiGwnW__1lY=", "properties": {"ref": "OZJpQv", "@spider": "carhartt_wip", "addr:street_address": "Lumine Est Shinjuku 6F 3-38-1 Shinjuku Shinjuku-Ku", "addr:city": "Tokyo", "addr:postcode": "160-0022", "addr:country": "JP", "name": "Carhartt WIP Store Tokyo Shinjuku", "phone": "+81333569810", "website": "https://www.carhartt-wip.com/stores/9594", "contact:email": "info@carhartt-wip.jp", "opening_hours": "Mo-Fr 11:00-21:30; Sa-Su 10:30-21:30", "brand": "Carhartt WIP"}, "geometry": {"type": "Point", "coordinates": [139.7011442, 35.6913237]}},
{"type": "Feature", "id": "XulNPjMYcCYqXTkYYjXgNCw9bhU=", "properties": {"ref": "7o8BZd", "@spider": "carhartt_wip", "addr:street_address": "56 Rue des Tourneurs", "addr:city": "Toulouse", "addr:postcode": "31000", "addr:country": "FR", "name": "Carhartt WIP Store Toulouse", "phone": "+33534306883", "website": "https://www.carhartt-wip.com/stores/4471", "contact:email": "toulouse@carhartt-wip.com", "opening_hours": "Mo 14:00-19:00; Tu-Sa 10:30-19:00", "brand": "Carhartt WIP"}, "geometry": {"type": "Point", "coordinates": [1.445165390532793, 43.601210761752064]}},
{"type": "Feature", "id": "2rYCWxUxYZhl-qz-qgQ-qbQ-7iA=", "properties": {"ref": "wQGoRN", "@spider": "carhartt_wip", "addr:street_address": "Calle Martinez Ferrando 3 (frente al mercado de Col+\u00a6n)", "addr:city": "Valencia", "addr:postcode": "46004", "addr:country": "ES", "name": "Carhartt WIP Store Valencia", "phone": "+34963943916", "website": "https://www.carhartt-wip.com/stores/4386", "contact:email": "valencia@carhartt-wip.com", "opening_hours": "Mo-Sa 10:00-21:00", "brand": "Carhartt WIP"}, "geometry": {"type": "Point", "coordinates": [-0.3684803848049114, 39.46930898801405]}},
{"type": "Feature", "id": "gzl-Io0wfUYcMX7euwIxkvhByuo=", "properties": {"ref": "2PNn6W", "@spider": "carhartt_wip", "addr:street_address": "Via 4 Spade 18A", "addr:city": "Verona", "addr:postcode": "37121", "addr:country": "IT", "name": "Carhartt WIP Store Verona", "phone": "+390458050080", "website": "https://www.carhartt-wip.com/stores/12050", "contact:email": "verona@carhartt-wip.com", "opening_hours": "Mo-Sa 10:00-19:00; Su 11:00-19:00", "brand": "Carhartt WIP"}, "geometry": {"type": "Point", "coordinates": [10.995346826328614, 45.442278995287516]}},
{"type": "Feature", "id": "MQvwcZT0XQjUGI_dUKhqdK2dvIM=", "properties": {"ref": "NdGlkZ", "@spider": "carhartt_wip", "addr:street_address": "Mariahilferstr. 1", "addr:city": "Wien", "addr:postcode": "1060", "addr:country": "AT", "name": "Carhartt WIP Store Vienna", "phone": "+4319530336", "website": "https://www.carhartt-wip.com/stores/12153", "contact:email": "vienna@carhartt-wip.com", "opening_hours": "Mo-Fr 11:00-19:00; Sa 11:00-18:00", "brand": "Carhartt WIP"}, "geometry": {"type": "Point", "coordinates": [16.361454202864707, 48.20222938059839]}},
{"type": "Feature", "id": "cKxuXzsTNz63v8CD0Kgyki6M4Aw=", "properties": {"ref": "gwxW2v", "@spider": "carhartt_wip", "addr:street_address": "Marine & Walk Yokohama, 1-3-1 Shinko Naka-ku", "addr:city": "Yokohama, Kanagawa", "addr:postcode": "231-0001", "addr:country": "JP", "name": "Carhartt WIP Store Yokohama", "phone": "+81455679810", "website": "https://www.carhartt-wip.com/stores/9598", "contact:email": "info@carhartt-wip.jp", "opening_hours": "Mo-Su 11:00-20:00", "brand": "Carhartt WIP"}, "geometry": {"type": "Point", "coordinates": [139.64207104662705, 35.45456796651775]}},
{"type": "Feature", "id": "zyI0hvhTuOPkI-vgmGaUYjQ9shE=", "properties": {"ref": "oWgrRa", "@spider": "carhartt_wip", "addr:street_address": "Lagerstrasse 1", "addr:city": "Zuerich", "addr:postcode": "8004", "addr:country": "CH", "name": "Carhartt WIP Store Z\u00fcrich Lagerstrasse", "phone": "+41445041020", "website": "https://www.carhartt-wip.com/stores/12122", "contact:email": "lagerstrasse@carhartt-wip.com", "opening_hours": "Mo-Fr 11:00-19:00; Sa 11:00-18:00", "brand": "Carhartt WIP"}, "geometry": {"type": "Point", "coordinates": [8.534313976932253, 47.3765481849576]}},
{"type": "Feature", "id": "zjM58CkTUyBobTFGMc_sWhH6f1U=", "properties": {"ref": "5qL06p", "@spider": "carhartt_wip", "addr:street_address": "Spitalgasse 2", "addr:city": "Zuerich", "addr:postcode": "8001", "addr:country": "CH", "name": "Carhartt WIP Store Z\u00fcrich Spitalgasse", "phone": "+41432437288", "website": "https://www.carhartt-wip.com/stores/11448", "contact:email": "zuerichhirschenplatz@carhartt-wip.com", "opening_hours": "Mo-Fr 11:00-19:00; Sa 11:00-18:00", "brand": "Carhartt WIP"}, "geometry": {"type": "Point", "coordinates": [8.544034483912355, 47.37335090822048]}}]}