{"type":"FeatureCollection","features":[{"type": "Feature", "id": "oKVwjfmaJQgVzYXzaYkhhOJultA=", "properties": {"ref": "https://stores.carhartt.com/mi/detroit/5800-cass-avenue-4211510.html", "@spider": "carhartt", "clothes": "workwear", "shop": "clothes", "addr:street_address": "5800 Cass Avenue", "addr:city": "Detroit", "addr:state": "MI", "addr:postcode": "48202", "addr:country": "US", "name": "Carhartt Detroit", "phone": "(313) 831-1274", "website": "https://stores.carhartt.com/mi/detroit/5800-cass-avenue-4211510.html", "opening_hours": "Mo-Sa 10:00-19:00; Su 11:00-17:00", "image": "https://dynl.mktgcdn.com/p/nhL85Y0OPt6DWuUfZV1E95hNy87i1ISZR7aPPjghD14/887x887.png", "brand": "Carhartt", "brand:wikidata": "Q527877", "nsi_id": "carhartt-65f908"}, "geometry": {"type": "Point", "coordinates": [-83.0698961019516, 42.36252562867848]}},
{"type": "Feature", "id": "h1_rKNOdZ7C4moX_S2XAcMFBSdQ=", "properties": {"ref": "https://stores.carhartt.com/mi/detroit/5800-cass-avenue-16503907.html", "@spider": "carhartt", "clothes": "workwear", "shop": "clothes", "addr:street_address": "5800 Cass Avenue 2nd Floor", "addr:city": "Detroit", "addr:state": "MI", "addr:postcode": "48202", "addr:country": "US", "name": "The Carhartt Workshop Tool Rental Service", "phone": "(313) 982-8901", "website": "https://stores.carhartt.com/mi/detroit/5800-cass-avenue-16503907.html", "opening_hours": "Tu-Sa 10:00-18:00", "image": "https://dynl.mktgcdn.com/p/P9ACjcl6sBqfjKPr_mM1Jfz3KdQFmm9CHMfGrZFxhGg/2030x2030.jpg", "brand": "Carhartt", "brand:wikidata": "Q527877", "nsi_id": "carhartt-65f908"}, "geometry": {"type": "Point", "coordinates": [-83.069854, 42.362494]}},
{"type": "Feature", "id": "uP0pOtGfbCE3TQEMFcJ9JF6k0Fs=", "properties": {"ref": "https://stores.carhartt.com/me/south-portland/364-maine-mall-road.html", "@spider": "carhartt", "clothes": "workwear", "shop": "clothes", "addr:street_address": "364 Maine Mall Road Space E-101", "addr:city": "South Portland", "addr:state": "ME", "addr:postcode": "04106", "addr:country": "US", "name": "Carhartt The Maine Mall", "phone": "(207) 956-5948", "website": "https://stores.carhartt.com/me/south-portland/364-maine-mall-road.html", "opening_hours": "Mo-Sa 10:00-19:00; Su 11:00-18:00", "image": "https://dynl.mktgcdn.com/p/nhL85Y0OPt6DWuUfZV1E95hNy87i1ISZR7aPPjghD14/887x887.png", "brand": "Carhartt", "brand:wikidata": "Q527877", "nsi_id": "carhartt-65f908"}, "geometry": {"type": "Point", "coordinates": [-70.33445119857788, 43.634250385896436]}},
{"type": "Feature", "id": "-x55D--xly-13Be6TMqXvySJl7Y=", "properties": {"ref": "https://stores.carhartt.com/md/oxon-hill/142-waterfront-street.html", "@spider": "carhartt", "clothes": "workwear", "shop": "clothes", "addr:street_address": "142 Waterfront Street", "addr:city": "Oxon Hill", "addr:state": "MD", "addr:postcode": "20745", "addr:country": "US", "name": "Carhartt National Harbor", "phone": "(301) 265-7040", "website": "https://stores.carhartt.com/md/oxon-hill/142-waterfront-street.html", "opening_hours": "Mo-Sa 10:00-19:00; Su 11:00-17:00", "image": "https://dynl.mktgcdn.com/p/nhL85Y0OPt6DWuUfZV1E95hNy87i1ISZR7aPPjghD14/887x887.png", "brand": "Carhartt", "brand:wikidata": "Q527877", "nsi_id": "carhartt-65f908"}, "geometry": {"type": "Point", "coordinates": [-77.0157927, 38.7849842]}},
{"type": "Feature", "id": "JE9Yfp50c9wkAjrh3S4D83dfcto=", "properties": {"ref": "https://stores.carhartt.com/ma/lynnfield/120-market-street.html", "@spider": "carhartt", "clothes": "workwear", "shop": "clothes", "addr:street_address": "120 Market Street", "addr:city": "Lynnfield", "addr:state": "MA", "addr:postcode": "01940", "addr:country": "US", "name": "Carhartt MarketStreet", "phone": "(781) 334-6240", "website": "https://stores.carhartt.com/ma/lynnfield/120-market-street.html", "opening_hours": "Mo-Sa 10:00-20:00; Su 11:00-18:00", "image": "https://dynl.mktgcdn.com/p/nhL85Y0OPt6DWuUfZV1E95hNy87i1ISZR7aPPjghD14/887x887.png", "brand": "Carhartt", "brand:wikidata": "Q527877", "nsi_id": "carhartt-65f908"}, "geometry": {"type": "Point", "coordinates": [-71.0328095, 42.5147732]}},
{"type": "Feature", "id": "QTFB6AQCZNRueHkrAtdxM1_6pUE=", "properties": {"ref": "https://stores.carhartt.com/ma/dedham/552-legacy-place.html", "@spider": "carhartt", "clothes": "workwear", "shop": "clothes", "addr:street_address": "552 Legacy Place", "addr:city": "Dedham", "addr:state": "MA", "addr:postcode": "02026", "addr:country": "US", "name": "Carhartt Legacy Place", "phone": "(339) 204-0260", "website": "https://stores.carhartt.com/ma/dedham/552-legacy-place.html", "opening_hours": "Mo-Th 10:00-20:00; Fr-Sa 10:00-21:00; Su 11:00-18:00", "image": "https://dynl.mktgcdn.com/p/nhL85Y0OPt6DWuUfZV1E95hNy87i1ISZR7aPPjghD14/887x887.png", "brand": "Carhartt", "brand:wikidata": "Q527877", "nsi_id": "carhartt-65f908"}, "geometry": {"type": "Point", "coordinates": [-71.1771859, 42.2296798]}},
{"type": "Feature", "id": "W76sIn9nUZ28-JXMthGNxf1jkPU=", "properties": {"ref": "https://stores.carhartt.com/ma/boston/1170-massachusetts-avenue.html", "@spider": "carhartt", "clothes": "workwear", "shop": "clothes", "addr:street_address": "1170 Massachusetts Avenue", "addr:city": "Boston", "addr:state": "MA", "addr:postcode": "02125", "addr:country": "US", "name": "Carhartt South Bay Center", "phone": "(857) 773-6001", "website": "https://stores.carhartt.com/ma/boston/1170-massachusetts-avenue.html", "opening_hours": "Mo-Th 09:00-18:00; Fr-Sa 09:00-19:00; Su 11:00-17:00", "image": "https://dynl.mktgcdn.com/p/EW4o8_JrTCU7fu86Kx73MyhsYXoOOf86sH-IsAj_P4M/150x150.png", "brand": "Carhartt", "brand:wikidata": "Q527877", "nsi_id": "carhartt-65f908"}, "geometry": {"type": "Point", "coordinates": [-71.06475, 42.324603]}},
{"type": "Feature", "id": "J89z9hf-83z4twpzivQpW0IhHUA=", "properties": {"ref": "https://stores.carhartt.com/wi/wauwatosa/11500-w-burleigh-st.html", "@spider": "carhartt", "clothes": "workwear", "shop": "clothes", "addr:street_address": "11500 W Burleigh St St. 184", "addr:city": "Wauwatosa", "addr:state": "WI", "addr:postcode": "53222", "addr:country": "US", "name": "Carhartt Mayfair Collection", "phone": "(414) 930-7052", "website": "https://stores.carhartt.com/wi/wauwatosa/11500-w-burleigh-st.html", "opening_hours": "Mo-Sa 10:00-21:00; Su 10:00-18:00", "image": "https://dynl.mktgcdn.com/p/nhL85Y0OPt6DWuUfZV1E95hNy87i1ISZR7aPPjghD14/887x887.png", "brand": "Carhartt", "brand:wikidata": "Q527877", "nsi_id": "carhartt-65f908"}, "geometry": {"type": "Point", "coordinates": [-88.05643916130066, 43.07940124197697]}},
{"type": "Feature", "id": "OIKUukJ-GqxZrs1c-99zeK7UHFI=", "properties": {"ref": "https://stores.carhartt.com/wa/spokane/530-w-main-avenue.html", "@spider": "carhartt", "clothes": "workwear", "shop": "clothes", "addr:street_address": "530 W Main Avenue", "addr:city": "Spokane", "addr:state": "WA", "addr:postcode": "99201", "addr:country": "US", "name": "Carhartt Bennett Block", "phone": "(509) 598-7200", "website": "https://stores.carhartt.com/wa/spokane/530-w-main-avenue.html", "opening_hours": "Mo-Sa 10:00-20:00; Su 11:00-18:00", "image": "https://dynl.mktgcdn.com/p/nhL85Y0OPt6DWuUfZV1E95hNy87i1ISZR7aPPjghD14/887x887.png", "brand": "Carhartt", "brand:wikidata": "Q527877", "nsi_id": "carhartt-65f908"}, "geometry": {"type": "Point", "coordinates": [-117.42088092394249, 47.65921111861631]}},
{"type": "Feature", "id": "Ail6uZrZvk4iocJ02x6fcxzudZY=", "properties": {"ref": "https://stores.carhartt.com/wa/seattle/409-pike-street.html", "@spider": "carhartt", "clothes": "workwear", "shop": "clothes", "addr:street_address": "409 Pike Street", "addr:city": "Seattle", "addr:state": "WA", "addr:postcode": "98101", "addr:country": "US", "name": "Carhartt - We've Moved Pike Street", "website": "https://stores.carhartt.com/wa/seattle/409-pike-street.html", "image": "https://dynl.mktgcdn.com/p/nhL85Y0OPt6DWuUfZV1E95hNy87i1ISZR7aPPjghD14/887x887.png", "brand": "Carhartt", "brand:wikidata": "Q527877", "nsi_id": "carhartt-65f908"}, "geometry": {"type": "Point", "coordinates": [-122.3362029914017, 47.61020910906689]}},
{"type": "Feature", "id": "WGH673uUv7N_5iSC6vvv4Vpu6Fs=", "properties": {"ref": "https://stores.carhartt.com/wa/renton/721-north-landing-way.html", "@spider": "carhartt", "clothes": "workwear", "shop": "clothes", "addr:street_address": "721 North Landing Way Suite B", "addr:city": "Renton", "addr:state": "WA", "addr:postcode": "98057", "addr:country": "US", "name": "Carhartt Renton", "phone": "(206) 470-2503", "website": "https://stores.carhartt.com/wa/renton/721-north-landing-way.html", "opening_hours": "Mo-Th 10:00-20:00; Fr-Sa 10:00-21:00; Su 10:00-18:00", "image": "https://stores.carhartt.com/wa/renton/721-north-landing-way.html", "brand": "Carhartt", "brand:wikidata": "Q527877", "nsi_id": "carhartt-65f908"}, "geometry": {"type": "Point", "coordinates": [-122.20556579999997, 47.49619458127676]}},
{"type": "Feature", "id": "gWca-t9KT-Jv50uHZmCkSCl35UM=", "properties": {"ref": "https://stores.carhartt.com/va/woodbridge/15200-potomac-town-place.html", "@spider": "carhartt", "clothes": "workwear", "shop": "clothes", "addr:street_address": "15200 Potomac Town Place", "addr:city": "Woodbridge", "addr:state": "VA", "addr:postcode": "22191", "addr:country": "US", "name": "Carhartt Potomac Town Center", "phone": "(571) 989-4800", "website": "https://stores.carhartt.com/va/woodbridge/15200-potomac-town-place.html", "opening_hours": "Mo-Th 10:00-20:00; Fr-Sa 10:00-21:00; Su 11:00-18:00", "image": "https://dynl.mktgcdn.com/p/nhL85Y0OPt6DWuUfZV1E95hNy87i1ISZR7aPPjghD14/887x887.png", "brand": "Carhartt", "brand:wikidata": "Q527877", "nsi_id": "carhartt-65f908"}, "geometry": {"type": "Point", "coordinates": [-77.2874945, 38.6271832]}},
{"type": "Feature", "id": "ZVbSgW6YBfebGSGk_lCTY9rVsLU=", "properties": {"ref": "https://stores.carhartt.com/ut/murray/116-e-winchester-street.html", "@spider": "carhartt", "clothes": "workwear", "shop": "clothes", "addr:street_address": "116 E Winchester Street", "addr:city": "Murray", "addr:state": "UT", "addr:postcode": "84107", "addr:country": "US", "name": "Carhartt Murray", "phone": "(801) 290-3314", "website": "https://stores.carhartt.com/ut/murray/116-e-winchester-street.html", "opening_hours": "Mo-Sa 10:00-20:00; Su 12:00-18:00", "image": "https://dynl.mktgcdn.com/p/nhL85Y0OPt6DWuUfZV1E95hNy87i1ISZR7aPPjghD14/887x887.png", "brand": "Carhartt", "brand:wikidata": "Q527877", "nsi_id": "carhartt-65f908"}, "geometry": {"type": "Point", "coordinates": [-111.8880739, 40.6326344]}},
{"type": "Feature", "id": "9Z7DfOf0E2T5mRGQWbp8PvqHiRs=", "properties": {"ref": "https://stores.carhartt.com/ut/farmington/825-w-east-promontory.html", "@spider": "carhartt", "clothes": "workwear", "shop": "clothes", "addr:street_address": "825 W East Promontory", "addr:city": "Farmington", "addr:state": "UT", "addr:postcode": "84025", "addr:country": "US", "name": "Carhartt Station Park", "phone": "(801) 451-3750", "website": "https://stores.carhartt.com/ut/farmington/825-w-east-promontory.html", "opening_hours": "Mo-Sa 10:00-21:00; Su 12:00-18:00", "image": "https://dynl.mktgcdn.com/p/nhL85Y0OPt6DWuUfZV1E95hNy87i1ISZR7aPPjghD14/887x887.png", "brand": "Carhartt", "brand:wikidata": "Q527877", "nsi_id": "carhartt-65f908"}, "geometry": {"type": "Point", "coordinates": [-111.9058216, 40.9827501]}},
{"type": "Feature", "id": "hFAqkCnkfNscHTOu2DmVJoWBXpg=", "properties": {"ref": "https://stores.carhartt.com/tn/nashville/5019-broadway-place.html", "@spider": "carhartt", "clothes": "workwear", "shop": "clothes", "addr:street_address": "5019 Broadway Place Space A-107", "addr:city": "Nashville", "addr:state": "TN", "addr:postcode": "37203", "addr:country": "US", "name": "Carhartt Nashville - Fifth & Broadway", "phone": "(629) 895-5440", "website": "https://stores.carhartt.com/tn/nashville/5019-broadway-place.html", "opening_hours": "Mo-Sa 10:00-21:00; Su 11:00-19:00", "image": "https://dynl.mktgcdn.com/p/ISEgyD10SnEysA_wmc6jfgiZWVDei-lC4QJ8a7g64FU/150x150.png", "brand": "Carhartt", "brand:wikidata": "Q527877", "nsi_id": "carhartt-65f908"}, "geometry": {"type": "Point", "coordinates": [-86.77916402346335, 36.16052315803217]}},
{"type": "Feature", "id": "4pdGf60kNejI99aii-2W_-y_-po=", "properties": {"ref": "https://stores.carhartt.com/pa/west-homestead/235-west-bridge-street.html", "@spider": "carhartt", "clothes": "workwear", "shop": "clothes", "addr:street_address": "235 West Bridge Street Space #5", "addr:city": "West Homestead", "addr:state": "PA", "addr:postcode": "15120", "addr:country": "US", "name": "Carhartt The Waterfront", "phone": "(412) 368-5608", "website": "https://stores.carhartt.com/pa/west-homestead/235-west-bridge-street.html", "opening_hours": "Mo-Sa 10:00-21:00; Su 11:00-18:00", "image": "https://dynl.mktgcdn.com/p/nhL85Y0OPt6DWuUfZV1E95hNy87i1ISZR7aPPjghD14/887x887.png", "brand": "Carhartt", "brand:wikidata": "Q527877", "nsi_id": "carhartt-65f908"}, "geometry": {"type": "Point", "coordinates": [-79.9174794, 40.4077328]}},
{"type": "Feature", "id": "6p7TIiQKW2xIcUwkzm4mAnmgD7I=", "properties": {"ref": "https://stores.carhartt.com/or/portland/10243-ne-cascades-parkway.html", "@spider": "carhartt", "clothes": "workwear", "shop": "clothes", "addr:street_address": "10243 NE Cascades Parkway", "addr:city": "Portland", "addr:state": "OR", "addr:postcode": "97220", "addr:country": "US", "name": "Carhartt Cascade Station", "phone": "(503) 546-4699", "website": "https://stores.carhartt.com/or/portland/10243-ne-cascades-parkway.html", "opening_hours": "Mo-Sa 10:00-21:00; Su 11:00-18:00", "image": "https://dynl.mktgcdn.com/p/nhL85Y0OPt6DWuUfZV1E95hNy87i1ISZR7aPPjghD14/887x887.png", "brand": "Carhartt", "brand:wikidata": "Q527877", "nsi_id": "carhartt-65f908"}, "geometry": {"type": "Point", "coordinates": [-122.5561658, 45.5723422]}},
{"type": "Feature", "id": "B93pzR5eCzOR78bbJVU03YZ-5SU=", "properties": {"ref": "https://stores.carhartt.com/or/medford/101-rossanley-drive.html", "@spider": "carhartt", "clothes": "workwear", "shop": "clothes", "addr:street_address": "101 Rossanley Drive Suite 101", "addr:city": "Medford", "addr:state": "OR", "addr:postcode": "97501", "addr:country": "US", "name": "Carhartt Medford", "phone": "(541) 227-6968", "website": "https://stores.carhartt.com/or/medford/101-rossanley-drive.html", "opening_hours": "Mo-Sa 09:00-20:00; Su 10:00-18:00", "image": "https://dynl.mktgcdn.com/p/nhL85Y0OPt6DWuUfZV1E95hNy87i1ISZR7aPPjghD14/887x887.png", "brand": "Carhartt", "brand:wikidata": "Q527877", "nsi_id": "carhartt-65f908"}, "geometry": {"type": "Point", "coordinates": [-122.8827135, 42.340565]}},
{"type": "Feature", "id": "KekTSdJpF72yFuUndN0Fo4n7ZF4=", "properties": {"ref": "https://stores.carhartt.com/or/keizer/6385-ulali-dr-ne.html", "@spider": "carhartt", "clothes": "workwear", "shop": "clothes", "addr:street_address": "6385 Ulali Dr NE Suite 101", "addr:city": "Keizer", "addr:state": "OR", "addr:postcode": "97303", "addr:country": "US", "name": "Carhartt Keizer Station", "phone": "(503) 576-2701", "website": "https://stores.carhartt.com/or/keizer/6385-ulali-dr-ne.html", "opening_hours": "Mo-Sa 10:00-21:00; Su 11:00-18:00", "image": "https://dynl.mktgcdn.com/p/nhL85Y0OPt6DWuUfZV1E95hNy87i1ISZR7aPPjghD14/887x887.png", "brand": "Carhartt", "brand:wikidata": "Q527877", "nsi_id": "carhartt-65f908"}, "geometry": {"type": "Point", "coordinates": [-122.9969265, 45.0113733]}},
{"type": "Feature", "id": "JszF2wlj4JHYfH3S9_YFFj00-Yg=", "properties": {"ref": "https://stores.carhartt.com/oh/westlake/30045-detroit-road.html", "@spider": "carhartt", "clothes": "workwear", "shop": "clothes", "addr:street_address": "30045 Detroit Road", "addr:city": "Westlake", "addr:state": "OH", "addr:postcode": "44145", "addr:country": "US", "name": "Carhartt Crocker Park Promenade", "phone": "(440) 455-7123", "website": "https://stores.carhartt.com/oh/westlake/30045-detroit-road.html", "opening_hours": "Mo-Sa 10:00-21:00; Su 11:00-18:00", "image": "https://dynl.mktgcdn.com/p/nhL85Y0OPt6DWuUfZV1E95hNy87i1ISZR7aPPjghD14/887x887.png", "brand": "Carhartt", "brand:wikidata": "Q527877", "nsi_id": "carhartt-65f908"}, "geometry": {"type": "Point", "coordinates": [-81.9526781, 41.4623913]}},
{"type": "Feature", "id": "hgBXKf2_ON9z2jTaV7cdpzM7Pgo=", "properties": {"ref": "https://stores.carhartt.com/oh/cincinnati/2685-edmondson-rd.html", "@spider": "carhartt", "clothes": "workwear", "shop": "clothes", "addr:street_address": "2685 Edmondson Rd", "addr:city": "Cincinnati", "addr:state": "OH", "addr:postcode": "45209", "addr:country": "US", "name": "Carhartt Rookwood Commons", "phone": "(513) 657-7130", "website": "https://stores.carhartt.com/oh/cincinnati/2685-edmondson-rd.html", "opening_hours": "Mo-Sa 10:00-21:00; Su 10:00-18:00", "image": "https://dynl.mktgcdn.com/p/nhL85Y0OPt6DWuUfZV1E95hNy87i1ISZR7aPPjghD14/887x887.png", "brand": "Carhartt", "brand:wikidata": "Q527877", "nsi_id": "carhartt-65f908"}, "geometry": {"type": "Point", "coordinates": [-84.4464536, 39.1460184]}},
{"type": "Feature", "id": "wswC6JdSzZQ0sagsU6rY15KvjYs=", "properties": {"ref": "https://stores.carhartt.com/ny/syracuse/1-destiny-usa-drive.html", "@spider": "carhartt", "clothes": "workwear", "shop": "clothes", "addr:street_address": "1 Destiny USA Drive", "addr:city": "Syracuse", "addr:state": "NY", "addr:postcode": "13204", "addr:country": "US", "name": "Carhartt Destiny USA", "phone": "(315) 849-0817", "website": "https://stores.carhartt.com/ny/syracuse/1-destiny-usa-drive.html", "opening_hours": "Mo-Th 11:00-19:00; Fr-Sa 10:00-20:00; Su 11:00-18:00", "image": "https://dynl.mktgcdn.com/p/nhL85Y0OPt6DWuUfZV1E95hNy87i1ISZR7aPPjghD14/887x887.png", "brand": "Carhartt", "brand:wikidata": "Q527877", "nsi_id": "carhartt-65f908"}, "geometry": {"type": "Point", "coordinates": [-76.173631, 43.0696899]}},
{"type": "Feature", "id": "7jr1FIkbJMSeLLZdMweu84vBbbQ=", "properties": {"ref": "https://stores.carhartt.com/ny/huntington-station/160-walt-whitman-road.html", "@spider": "carhartt", "clothes": "workwear", "shop": "clothes", "addr:street_address": "160 Walt Whitman Road Space #1160", "addr:city": "Huntington Station", "addr:state": "NY", "addr:postcode": "11746", "addr:country": "US", "name": "Carhartt Walt Whitman", "phone": "(631) 223-4613", "website": "https://stores.carhartt.com/ny/huntington-station/160-walt-whitman-road.html", "opening_hours": "Mo-Th 11:00-20:00; Fr-Sa 10:00-21:00; Su 12:00-18:00", "image": "https://dynl.mktgcdn.com/p/nhL85Y0OPt6DWuUfZV1E95hNy87i1ISZR7aPPjghD14/887x887.png", "brand": "Carhartt", "brand:wikidata": "Q527877", "nsi_id": "carhartt-65f908"}, "geometry": {"type": "Point", "coordinates": [-73.4108616, 40.821464]}},
{"type": "Feature", "id": "rzxY5QFIbIpkYQQVq6UcbJ8nwaY=", "properties": {"ref": "https://stores.carhartt.com/ny/amherst/1701-niagara-falls-blvd.html", "@spider": "carhartt", "clothes": "workwear", "shop": "clothes", "addr:street_address": "1701 Niagara Falls Blvd", "addr:city": "Amherst", "addr:state": "NY", "addr:postcode": "14228", "addr:country": "US", "name": "Carhartt The Boulevard", "phone": "(716) 398-7029", "website": "https://stores.carhartt.com/ny/amherst/1701-niagara-falls-blvd.html", "opening_hours": "Mo-Sa 10:00-19:00; Su 10:00-17:00", "image": "https://dynl.mktgcdn.com/p/nhL85Y0OPt6DWuUfZV1E95hNy87i1ISZR7aPPjghD14/887x887.png", "brand": "Carhartt", "brand:wikidata": "Q527877", "nsi_id": "carhartt-65f908"}, "geometry": {"type": "Point", "coordinates": [-78.8194077, 43.0005088]}},
{"type": "Feature", "id": "l_-l1Y-sZMs0dv9jCidEUuBAOb8=", "properties": {"ref": "https://stores.carhartt.com/ny/albany/1-crossgates-mall-road.html", "@spider": "carhartt", "clothes": "workwear", "shop": "clothes", "addr:street_address": "1 Crossgates Mall Road", "addr:city": "Albany", "addr:state": "NY", "addr:postcode": "12203", "addr:country": "US", "name": "Carhartt Crossgates", "phone": "(518) 213-4243", "website": "https://stores.carhartt.com/ny/albany/1-crossgates-mall-road.html", "opening_hours": "Mo-Th 10:00-19:00; Fr-Sa 10:00-21:00; Su 11:00-18:00", "image": "https://dynl.mktgcdn.com/p/nhL85Y0OPt6DWuUfZV1E95hNy87i1ISZR7aPPjghD14/887x887.png", "brand": "Carhartt", "brand:wikidata": "Q527877", "nsi_id": "carhartt-65f908"}, "geometry": {"type": "Point", "coordinates": [-73.85326165641402, 42.6903227318989]}},
{"type": "Feature", "id": "rePtNgXGV45QHDvHudis1XYJbRI=", "properties": {"ref": "https://stores.carhartt.com/nj/cherry-hill/2020-w-route-70.html", "@spider": "carhartt", "clothes": "workwear", "shop": "clothes", "addr:street_address": "2020 W Route 70 Suite A", "addr:city": "Cherry Hill", "addr:state": "NJ", "addr:postcode": "08002", "addr:country": "US", "name": "Carhartt Cherry Hill", "phone": "(856) 502-3928", "website": "https://stores.carhartt.com/nj/cherry-hill/2020-w-route-70.html", "opening_hours": "Mo-Sa 10:00-20:00; Su 10:00-18:00", "image": "https://dynl.mktgcdn.com/p/9X5YakJicZhHW20FfY4xGmVpIkvIBoIIVrFfE--LYJY/887x887.png", "brand": "Carhartt", "brand:wikidata": "Q527877", "nsi_id": "carhartt-65f908"}, "geometry": {"type": "Point", "coordinates": [-75.037035, 39.9213902]}},
{"type": "Feature", "id": "k6EHuRhXzvWsAgSVp1FM2GRcDYA=", "properties": {"ref": "https://stores.carhartt.com/ne/papillion/7640-towne-center-pkwy.html", "@spider": "carhartt", "clothes": "workwear", "shop": "clothes", "addr:street_address": "7640 Towne Center Pkwy", "addr:city": "Papillion", "addr:state": "NE", "addr:postcode": "68046", "addr:country": "US", "name": "Carhartt Shadow Lake Town Center", "phone": "(402) 378-7176", "website": "https://stores.carhartt.com/ne/papillion/7640-towne-center-pkwy.html", "opening_hours": "Mo-Sa 10:00-21:00; Su 11:00-18:00", "image": "https://dynl.mktgcdn.com/p/nhL85Y0OPt6DWuUfZV1E95hNy87i1ISZR7aPPjghD14/887x887.png", "brand": "Carhartt", "brand:wikidata": "Q527877", "nsi_id": "carhartt-65f908"}, "geometry": {"type": "Point", "coordinates": [-96.02835595607758, 41.13497698396008]}},
{"type": "Feature", "id": "SkiAZ5Nd3_iruzvlLPwUDc5vq-4=", "properties": {"ref": "https://stores.carhartt.com/mo/independence/18801-e-39th-st-so.html", "@spider": "carhartt", "clothes": "workwear", "shop": "clothes", "addr:street_address": "18801 E 39th St So LO29B", "addr:city": "Independence", "addr:state": "MO", "addr:postcode": "64057", "addr:country": "US", "name": "Carhartt Independence Center", "phone": "(816) 548-4961", "website": "https://stores.carhartt.com/mo/independence/18801-e-39th-st-so.html", "opening_hours": "Mo-Sa 10:00-20:00; Su 12:00-18:00", "image": "https://dynl.mktgcdn.com/p/nhL85Y0OPt6DWuUfZV1E95hNy87i1ISZR7aPPjghD14/887x887.png", "brand": "Carhartt", "brand:wikidata": "Q527877", "nsi_id": "carhartt-65f908"}, "geometry": {"type": "Point", "coordinates": [-94.3574119, 39.0461517]}},
{"type": "Feature", "id": "jpqRY2DQeygI678or0lcfjRELqg=", "properties": {"ref": "https://stores.carhartt.com/mn/coon-rapids/12680-riverdale-blvd.html", "@spider": "carhartt", "clothes": "workwear", "shop": "clothes", "addr:street_address": "12680 Riverdale Blvd", "addr:city": "Coon Rapids", "addr:state": "MN", "addr:postcode": "55448", "addr:country": "US", "name": "Carhartt Riverdale Village", "phone": "(952) 885-8000", "website": "https://stores.carhartt.com/mn/coon-rapids/12680-riverdale-blvd.html", "opening_hours": "Mo-Sa 10:00-21:00; Su 11:00-18:00", "image": "https://dynl.mktgcdn.com/p/nhL85Y0OPt6DWuUfZV1E95hNy87i1ISZR7aPPjghD14/887x887.png", "brand": "Carhartt", "brand:wikidata": "Q527877", "nsi_id": "carhartt-65f908"}, "geometry": {"type": "Point", "coordinates": [-93.3530261, 45.1996407]}},
{"type": "Feature", "id": "h2O5wROB9RlFZcfJqykDJbfaEso=", "properties": {"ref": "https://stores.carhartt.com/mn/bloomington/144-north-garden.html", "@spider": "carhartt", "clothes": "workwear", "shop": "clothes", "addr:street_address": "144 North Garden", "addr:city": "Bloomington", "addr:state": "MN", "addr:postcode": "55425", "addr:country": "US", "name": "Carhartt Mall of America", "phone": "(612) 318-6422", "website": "https://stores.carhartt.com/mn/bloomington/144-north-garden.html", "opening_hours": "Mo-Th 11:00-20:00; Fr-Sa 10:00-21:00; Su 11:00-19:00", "image": "https://dynl.mktgcdn.com/p/nhL85Y0OPt6DWuUfZV1E95hNy87i1ISZR7aPPjghD14/887x887.png", "brand": "Carhartt", "brand:wikidata": "Q527877", "nsi_id": "carhartt-65f908"}, "geometry": {"type": "Point", "coordinates": [-93.241, 44.8557911]}},
{"type": "Feature", "id": "k_eRkECViA8CUxkr2--Y1rzjRWM=", "properties": {"ref": "https://stores.carhartt.com/mi/grand-rapids/3529-28th-street-se.html", "@spider": "carhartt", "clothes": "workwear", "shop": "clothes", "addr:street_address": "3529 28th Street SE", "addr:city": "Grand Rapids", "addr:state": "MI", "addr:postcode": "49512", "addr:country": "US", "name": "Carhartt Grand Rapids", "phone": "(616) 222-0255", "website": "https://stores.carhartt.com/mi/grand-rapids/3529-28th-street-se.html", "opening_hours": "Mo-Sa 10:00-21:00; Su 11:00-18:00", "image": "https://dynl.mktgcdn.com/p/wqN1J_VnkG8HFl5gFVpnnVmypWxkpUl-oG5-9JfIw8c/887x887.png", "brand": "Carhartt", "brand:wikidata": "Q527877", "nsi_id": "carhartt-65f908"}, "geometry": {"type": "Point", "coordinates": [-85.5799262, 42.9146905]}},
{"type": "Feature", "id": "MYKwt2vzJrtuzEzpkbX7filcT8w=", "properties": {"ref": "https://stores.carhartt.com/in/greenwood/1251-us-31-n-p130.html", "@spider": "carhartt", "clothes": "workwear", "shop": "clothes", "addr:street_address": "1251 US 31 N P130", "addr:city": "Greenwood", "addr:state": "IN", "addr:postcode": "46142", "addr:country": "US", "name": "Carhartt Greenwood Park", "phone": "(317) 215-5157", "website": "https://stores.carhartt.com/in/greenwood/1251-us-31-n-p130.html", "opening_hours": "Mo-Sa 10:00-21:00; Su 11:00-18:00", "image": "https://dynl.mktgcdn.com/p/nhL85Y0OPt6DWuUfZV1E95hNy87i1ISZR7aPPjghD14/887x887.png", "brand": "Carhartt", "brand:wikidata": "Q527877", "nsi_id": "carhartt-65f908"}, "geometry": {"type": "Point", "coordinates": [-86.12234589716718, 39.63325751407639]}},
{"type": "Feature", "id": "Ai5tncJZjdqd2cL6HH4v_C4GCU4=", "properties": {"ref": "https://stores.carhartt.com/il/gurnee/7055-w-grand-ave.html", "@spider": "carhartt", "clothes": "workwear", "shop": "clothes", "addr:street_address": "7055 W Grand Ave", "addr:city": "Gurnee", "addr:state": "IL", "addr:postcode": "60031", "addr:country": "US", "name": "Carhartt Gurnee Town Center", "phone": "(224) 302-7056", "website": "https://stores.carhartt.com/il/gurnee/7055-w-grand-ave.html", "opening_hours": "Mo-Sa 10:00-21:00; Su 10:00-18:00", "image": "https://dynl.mktgcdn.com/p/nhL85Y0OPt6DWuUfZV1E95hNy87i1ISZR7aPPjghD14/887x887.png", "brand": "Carhartt", "brand:wikidata": "Q527877", "nsi_id": "carhartt-65f908"}, "geometry": {"type": "Point", "coordinates": [-87.9749748, 42.3854049]}},
{"type": "Feature", "id": "WWlKtfxkx9Qixh5NPTmd9RRA1-Q=", "properties": {"ref": "https://stores.carhartt.com/il/chicago/1518-n-milwaukee.html", "@spider": "carhartt", "clothes": "workwear", "shop": "clothes", "addr:street_address": "1518 N Milwaukee", "addr:city": "Chicago", "addr:state": "IL", "addr:postcode": "60622", "addr:country": "US", "name": "Carhartt Wicker Park", "phone": "(773) 278-5218", "website": "https://stores.carhartt.com/il/chicago/1518-n-milwaukee.html", "opening_hours": "Mo-Sa 10:00-19:00; Su 12:00-17:00", "image": "https://dynl.mktgcdn.com/p/nhL85Y0OPt6DWuUfZV1E95hNy87i1ISZR7aPPjghD14/887x887.png", "brand": "Carhartt", "brand:wikidata": "Q527877", "nsi_id": "carhartt-65f908"}, "geometry": {"type": "Point", "coordinates": [-87.6757245993883, 41.90900797354871]}},
{"type": "Feature", "id": "SeCIUzlgT9wcnbrVUKVcyV1k7l0=", "properties": {"ref": "https://stores.carhartt.com/id/meridian/3424-e-longwing-ln.html", "@spider": "carhartt", "clothes": "workwear", "shop": "clothes", "addr:street_address": "3424 E Longwing Ln", "addr:city": "Meridian", "addr:state": "ID", "addr:postcode": "83646", "addr:country": "US", "name": "Carhartt The Village at Meridian", "phone": "(208) 985-7696", "website": "https://stores.carhartt.com/id/meridian/3424-e-longwing-ln.html", "opening_hours": "Mo-Sa 10:00-21:00; Su 11:00-18:00", "image": "https://dynl.mktgcdn.com/p/nhL85Y0OPt6DWuUfZV1E95hNy87i1ISZR7aPPjghD14/887x887.png", "brand": "Carhartt", "brand:wikidata": "Q527877", "nsi_id": "carhartt-65f908"}, "geometry": {"type": "Point", "coordinates": [-116.35098105637934, 43.621907538160556]}},
{"type": "Feature", "id": "hbVjBtgPPVBBqgfqDeQdcwkLqoQ=", "properties": {"ref": "https://stores.carhartt.com/fl/orlando/4973-international-drive.html", "@spider": "carhartt", "clothes": "workwear", "shop": "clothes", "addr:street_address": "4973 International Drive Unit #3F21", "addr:city": "Orlando", "addr:state": "FL", "addr:postcode": "32819", "addr:country": "US", "name": "Carhartt Factory Store Orlando", "phone": "(407) 241-3327", "website": "https://stores.carhartt.com/fl/orlando/4973-international-drive.html", "opening_hours": "Mo-Su 10:00-21:00", "image": "https://dynl.mktgcdn.com/p/XmSqVuXsUqkN2kboj1MEzsMPuNJL6a7F-CZDLaeySCY/2726x2726.jpg", "brand": "Carhartt", "brand:wikidata": "Q527877", "nsi_id": "carhartt-65f908"}, "geometry": {"type": "Point", "coordinates": [-81.4500951165676, 28.476233270109752]}},
{"type": "Feature", "id": "k3Lxqdrv66DyJ-NtUc0dyujl5RE=", "properties": {"ref": "https://stores.carhartt.com/ct/south-windsor/74-evergreen-way.html", "@spider": "carhartt", "clothes": "workwear", "shop": "clothes", "addr:street_address": "74 Evergreen Way", "addr:city": "South Windsor", "addr:state": "CT", "addr:postcode": "06074", "addr:country": "US", "name": "Carhartt Evergreen Walk", "phone": "(860) 327-7002", "website": "https://stores.carhartt.com/ct/south-windsor/74-evergreen-way.html", "opening_hours": "Mo-Sa 10:00-20:00; Su 11:00-18:00", "image": "https://dynl.mktgcdn.com/p/nhL85Y0OPt6DWuUfZV1E95hNy87i1ISZR7aPPjghD14/887x887.png", "brand": "Carhartt", "brand:wikidata": "Q527877", "nsi_id": "carhartt-65f908"}, "geometry": {"type": "Point", "coordinates": [-72.556737, 41.8102807]}}]}