{"type":"FeatureCollection","features":[{"type": "Feature", "id": "ddqOHqkf1TqtkaPgFUhkHn8_x98=", "properties": {"ref": "https://locations.carrabbas.com/#15502974", "@spider": "carrabbasitaliangrill", "amenity": "restaurant", "cuisine": "italian", "addr:street_address": "8406 Blanding Blvd", "addr:city": "Jacksonville", "addr:state": "FL", "addr:postcode": "32073", "addr:country": "US", "name": "Carrabba's Jacksonville, FL", "phone": "(904) 777-2225", "website": "https://locations.carrabbas.com/florida/jacksonville/8406-blanding-blvd", "contact:email": "CA6009@carrabbas.com", "opening_hours": "Mo-Th 11:00-22:00; Fr-Sa 11:00-23:00; Su 11:00-21:00", "image": "https://locations.carrabbas.com/permanent-b0b701/assets/images/logo_carrabbas.217a7fd1.png", "brand": "Carrabba's Italian Grill", "brand:wikidata": "Q5045999", "nsi_id": "carrabbasitaliangrill-96af40"}, "geometry": {"type": "Point", "coordinates": [-81.7401997, 30.1951423]}},
{"type": "Feature", "id": "wOJV2vhB1ByiFazJEObomuxHGEY=", "properties": {"ref": "https://locations.carrabbas.com/#15502978", "@spider": "carrabbasitaliangrill", "amenity": "restaurant", "cuisine": "italian", "addr:street_address": "8137 Point Meadows Way", "addr:city": "Jacksonville", "addr:state": "FL", "addr:postcode": "32256", "addr:country": "US", "name": "Carrabba's Jacksonville, FL", "phone": "(904) 363-2254", "website": "https://locations.carrabbas.com/florida/jacksonville/8137-point-meadows-way", "contact:email": "CA6026@carrabbas.com", "opening_hours": "Mo-Th 11:00-22:00; Fr-Sa 11:00-23:00; Su 11:00-21:30", "image": "https://locations.carrabbas.com/permanent-b0b701/assets/images/logo_carrabbas.217a7fd1.png", "brand": "Carrabba's Italian Grill", "brand:wikidata": "Q5045999", "nsi_id": "carrabbasitaliangrill-96af40"}, "geometry": {"type": "Point", "coordinates": [-81.5157106, 30.2176602]}},
{"type": "Feature", "id": "YTMGrDCHmJlO9vk1iqeZSTymkfU=", "properties": {"ref": "https://locations.carrabbas.com/#15503052", "@spider": "carrabbasitaliangrill", "amenity": "restaurant", "cuisine": "italian", "addr:street_address": "791 Skymarks Drive", "addr:city": "Jacksonville", "addr:state": "FL", "addr:postcode": "32218", "addr:country": "US", "name": "Carrabba's Jacksonville, FL", "phone": "(904) 751-9976", "website": "https://locations.carrabbas.com/florida/jacksonville/791-skymarks-drive", "contact:email": "CA6070@carrabbas.com", "opening_hours": "Mo-Th 11:00-22:00; Fr-Sa 11:00-23:00; Su 11:00-21:00", "image": "https://locations.carrabbas.com/permanent-b0b701/assets/images/logo_carrabbas.217a7fd1.png", "brand": "Carrabba's Italian Grill", "brand:wikidata": "Q5045999", "nsi_id": "carrabbasitaliangrill-96af40"}, "geometry": {"type": "Point", "coordinates": [-81.6363256, 30.4821574]}},
{"type": "Feature", "id": "mCx_OBEgABBkkFmxDKpZoHrn9Ek=", "properties": {"ref": "https://locations.carrabbas.com/#15502906", "@spider": "carrabbasitaliangrill", "amenity": "restaurant", "cuisine": "italian", "addr:street_address": "9 North 3rd Street", "addr:city": "Jacksonville Beach", "addr:state": "FL", "addr:postcode": "32250", "addr:country": "US", "name": "Carrabba's Jacksonville Beach, FL", "phone": "(904) 249-5550", "website": "https://locations.carrabbas.com/florida/jacksonville-beach/9-north-3rd-street", "contact:email": "CA6016@carrabbas.com", "opening_hours": "Mo-Th 11:00-22:00; Fr-Sa 11:00-23:00; Su 11:00-21:30", "image": "https://locations.carrabbas.com/permanent-b0b701/assets/images/logo_carrabbas.217a7fd1.png", "brand": "Carrabba's Italian Grill", "brand:wikidata": "Q5045999", "nsi_id": "carrabbasitaliangrill-96af40"}, "geometry": {"type": "Point", "coordinates": [-81.391373, 30.2891476]}},
{"type": "Feature", "id": "R7YrO3FlLzLNybnkVifXFzlJdKI=", "properties": {"ref": "https://locations.carrabbas.com/#28130769", "@spider": "carrabbasitaliangrill", "amenity": "restaurant", "cuisine": "italian", "name": "Carrabba's Italian Grill", "website": "https://locations.carrabbas.com/florida/hallandale/2307-e.-hallandale-beach-blvd.", "image": "https://locations.carrabbas.com/permanent-b0b701/assets/images/logo_carrabbas.217a7fd1.png", "brand": "Carrabba's Italian Grill", "brand:wikidata": "Q5045999", "nsi_id": "carrabbasitaliangrill-96af40"}},
{"type": "Feature", "id": "BWJ_nNaD-ungHsGPdbYnFjrsT8U=", "properties": {"ref": "https://locations.carrabbas.com/#15502979", "@spider": "carrabbasitaliangrill", "amenity": "restaurant", "cuisine": "italian", "addr:street_address": "3021 SW 34th Street", "addr:city": "Gainesville", "addr:state": "FL", "addr:postcode": "32608", "addr:country": "US", "name": "Carrabba's Gainesville, FL", "phone": "(352) 692-0083", "website": "https://locations.carrabbas.com/florida/gainesville/3021-sw-34th-street", "contact:email": "CA6027@carrabbas.com", "opening_hours": "Mo-Th 11:00-22:00; Fr-Sa 11:00-23:00; Su 11:00-21:00", "image": "https://locations.carrabbas.com/permanent-b0b701/assets/images/logo_carrabbas.217a7fd1.png", "brand": "Carrabba's Italian Grill", "brand:wikidata": "Q5045999", "nsi_id": "carrabbasitaliangrill-96af40"}, "geometry": {"type": "Point", "coordinates": [-82.3715944, 29.6261194]}},
{"type": "Feature", "id": "2npccMGn3-_V_c322x5AaFFEAMc=", "properties": {"ref": "https://locations.carrabbas.com/#15503005", "@spider": "carrabbasitaliangrill", "amenity": "restaurant", "cuisine": "italian", "addr:street_address": "12990 Cleveland Ave", "addr:city": "Ft. Myers", "addr:state": "FL", "addr:postcode": "33907", "addr:country": "US", "name": "Carrabba's Ft. Myers, FL", "phone": "(239) 433-0877", "website": "https://locations.carrabbas.com/florida/ft.-myers/12990-cleveland-ave", "opening_hours": "Mo-Th 11:00-22:00; Fr-Sa 11:00-23:00; Su 11:00-21:00", "image": "https://locations.carrabbas.com/permanent-b0b701/assets/images/logo_carrabbas.217a7fd1.png", "brand": "Carrabba's Italian Grill", "brand:wikidata": "Q5045999", "nsi_id": "carrabbasitaliangrill-96af40"}, "geometry": {"type": "Point", "coordinates": [-81.8726725, 26.5526148]}},
{"type": "Feature", "id": "8ek2MCfIIJtEv5Os77ugpbXQiU4=", "properties": {"ref": "https://locations.carrabbas.com/#15503050", "@spider": "carrabbasitaliangrill", "amenity": "restaurant", "cuisine": "italian", "addr:street_address": "10075 Gulf Center Drive", "addr:city": "Ft. Myers", "addr:state": "FL", "addr:postcode": "33913", "addr:country": "US", "name": "Carrabba's Ft. Myers, FL", "phone": "(239) 690-2426", "website": "https://locations.carrabbas.com/florida/ft.-myers/10075-gulf-center-drive", "contact:email": "CA6059@carrabbas.com", "opening_hours": "Mo-Th 11:00-22:00; Fr-Sa 11:00-23:00; Su 11:00-21:00", "image": "https://locations.carrabbas.com/permanent-b0b701/assets/images/logo_carrabbas.217a7fd1.png", "brand": "Carrabba's Italian Grill", "brand:wikidata": "Q5045999", "nsi_id": "carrabbasitaliangrill-96af40"}, "geometry": {"type": "Point", "coordinates": [-81.7879341, 26.4879364]}},
{"type": "Feature", "id": "4Df07qsFtC4f7VxxpkyIqn0IPEU=", "properties": {"ref": "https://locations.carrabbas.com/#15502911", "@spider": "carrabbasitaliangrill", "amenity": "restaurant", "cuisine": "italian", "addr:street_address": "1430 SE 17th Street", "addr:city": "Fort Lauderdale", "addr:state": "FL", "addr:postcode": "33316", "addr:country": "US", "name": "Carrabba's Fort Lauderdale, FL", "phone": "(954) 760-4281", "website": "https://locations.carrabbas.com/florida/fort-lauderdale/1430-se-17th-street", "contact:email": "CA6063@carrabbas.com", "opening_hours": "Mo-Th 11:00-22:00; Fr-Sa 11:00-23:00; Su 11:00-22:00", "image": "https://locations.carrabbas.com/permanent-b0b701/assets/images/logo_carrabbas.217a7fd1.png", "brand": "Carrabba's Italian Grill", "brand:wikidata": "Q5045999", "nsi_id": "carrabbasitaliangrill-96af40"}, "geometry": {"type": "Point", "coordinates": [-80.1284989, 26.1001996]}},
{"type": "Feature", "id": "LewCBlrCjTP2rJJz4Dn392-LP_E=", "properties": {"ref": "https://locations.carrabbas.com/#15502939", "@spider": "carrabbasitaliangrill", "amenity": "restaurant", "cuisine": "italian", "addr:street_address": "335 East Linton Blvd", "addr:city": "Delray Beach", "addr:state": "FL", "addr:postcode": "33483", "addr:country": "US", "name": "Carrabba's Delray Beach, FL", "phone": "(561) 266-9393", "website": "https://locations.carrabbas.com/florida/delray-beach/335-east-linton-blvd", "contact:email": "CA6017@carrabbas.com", "opening_hours": "Mo-Th 11:00-22:00; Fr-Sa 11:00-23:00; Su 11:00-22:00", "image": "https://locations.carrabbas.com/permanent-b0b701/assets/images/logo_carrabbas.217a7fd1.png", "brand": "Carrabba's Italian Grill", "brand:wikidata": "Q5045999", "nsi_id": "carrabbasitaliangrill-96af40"}, "geometry": {"type": "Point", "coordinates": [-80.0697526, 26.4401438]}},
{"type": "Feature", "id": "WW_zqquODjSGzFcAsfOWGYORkaw=", "properties": {"ref": "https://locations.carrabbas.com/#15502903", "@spider": "carrabbasitaliangrill", "amenity": "restaurant", "cuisine": "italian", "addr:street_address": "2200 W Int'L Speedway Blvd", "addr:city": "Daytona Beach", "addr:state": "FL", "addr:postcode": "32114", "addr:country": "US", "name": "Carrabba's Daytona Beach, FL", "phone": "(386) 255-3344", "website": "https://locations.carrabbas.com/florida/daytona-beach/2200-w-int'l-speedway-blvd", "contact:email": "CA6005@carrabbas.com", "opening_hours": "Mo-Th 15:00-22:00; Fr-Sa 11:00-22:00; Su 11:00-21:00", "image": "https://locations.carrabbas.com/permanent-b0b701/assets/images/logo_carrabbas.217a7fd1.png", "brand": "Carrabba's Italian Grill", "brand:wikidata": "Q5045999", "nsi_id": "carrabbasitaliangrill-96af40"}, "geometry": {"type": "Point", "coordinates": [-81.0774491, 29.1873664]}},
{"type": "Feature", "id": "DgjAf-zx65OAmvqWXzbX3_he2CE=", "properties": {"ref": "https://locations.carrabbas.com/#15503081", "@spider": "carrabbasitaliangrill", "amenity": "restaurant", "cuisine": "italian", "addr:street_address": "2501 University Drive", "addr:city": "Coral Springs", "addr:state": "FL", "addr:postcode": "33065", "addr:country": "US", "name": "Carrabba's Coral Springs, FL", "phone": "(954) 345-4600", "website": "https://locations.carrabbas.com/florida/coral-springs/2501-university-drive", "contact:email": "CA6006@carrabbas.com", "opening_hours": "Mo-Th 16:00-22:00; Fr-Sa 11:00-23:00; Su 11:00-22:00", "image": "https://locations.carrabbas.com/permanent-b0b701/assets/images/logo_carrabbas.217a7fd1.png", "brand": "Carrabba's Italian Grill", "brand:wikidata": "Q5045999", "nsi_id": "carrabbasitaliangrill-96af40"}, "geometry": {"type": "Point", "coordinates": [-80.2492516, 26.2616397]}},
{"type": "Feature", "id": "_OQQ6IsyknCFC3ioxr_EgGaqa2Q=", "properties": {"ref": "https://locations.carrabbas.com/#15503110", "@spider": "carrabbasitaliangrill", "amenity": "restaurant", "cuisine": "italian", "addr:street_address": "2240 E Hwy 50", "addr:city": "Clermont", "addr:state": "FL", "addr:postcode": "34711", "addr:country": "US", "name": "Carrabba's Clermont, FL", "phone": "(352) 394-8602", "website": "https://locations.carrabbas.com/florida/clermont/2240-e-hwy-50", "opening_hours": "Mo-Th 11:00-22:00; Fr-Sa 11:00-23:00; Su 11:00-21:00", "image": "https://locations.carrabbas.com/permanent-b0b701/assets/images/logo_carrabbas.217a7fd1.png", "brand": "Carrabba's Italian Grill", "brand:wikidata": "Q5045999", "nsi_id": "carrabbasitaliangrill-96af40"}, "geometry": {"type": "Point", "coordinates": [-81.7139076, 28.547494]}},
{"type": "Feature", "id": "aPGwEew9B3FMOwkfTSJi8XXlfug=", "properties": {"ref": "https://locations.carrabbas.com/#15503083", "@spider": "carrabbasitaliangrill", "amenity": "restaurant", "cuisine": "italian", "addr:street_address": "2680 Gulf To Bay Blvd", "addr:city": "Clearwater", "addr:state": "FL", "addr:postcode": "33759", "addr:country": "US", "name": "Carrabba's Clearwater, FL", "phone": "(727) 712-0844", "website": "https://locations.carrabbas.com/florida/clearwater/2680-gulf-to-bay-blvd", "contact:email": "CA6018@carrabbas.com", "opening_hours": "Mo-Th 11:00-22:00; Fr-Sa 11:00-23:00; Su 11:00-22:00", "image": "https://locations.carrabbas.com/permanent-b0b701/assets/images/logo_carrabbas.217a7fd1.png", "brand": "Carrabba's Italian Grill", "brand:wikidata": "Q5045999", "nsi_id": "carrabbasitaliangrill-96af40"}, "geometry": {"type": "Point", "coordinates": [-82.7266638, 27.9611367]}},
{"type": "Feature", "id": "HPDgEdl_kaSR1WDqNelY-MwVvLk=", "properties": {"ref": "https://locations.carrabbas.com/#15503018", "@spider": "carrabbasitaliangrill", "amenity": "restaurant", "cuisine": "italian", "addr:street_address": "11902 Sheldon Road", "addr:city": "Citrus Park", "addr:state": "FL", "addr:postcode": "33626", "addr:country": "US", "name": "Carrabba's Citrus Park, FL", "phone": "(813) 920-3239", "website": "https://locations.carrabbas.com/florida/citrus-park/11902-sheldon-road", "contact:email": "CA6048@carrabbas.com", "opening_hours": "Mo-Th 16:00-22:00; Fr-Sa 11:00-23:00; Su 11:00-21:00", "image": "https://locations.carrabbas.com/permanent-b0b701/assets/images/logo_carrabbas.217a7fd1.png", "brand": "Carrabba's Italian Grill", "brand:wikidata": "Q5045999", "nsi_id": "carrabbasitaliangrill-96af40"}, "geometry": {"type": "Point", "coordinates": [-82.5832041, 28.0572828]}},
{"type": "Feature", "id": "u0jyQZfiVJv-mqBgXz_Y9yVg07g=", "properties": {"ref": "https://locations.carrabbas.com/#15503016", "@spider": "carrabbasitaliangrill", "amenity": "restaurant", "cuisine": "italian", "addr:street_address": "762 SW Pine Island Road", "addr:city": "Cape Coral", "addr:state": "FL", "addr:postcode": "33991", "addr:country": "US", "name": "Carrabba's Cape Coral, FL", "phone": "(239) 574-2797", "website": "https://locations.carrabbas.com/florida/cape-coral/762-sw-pine-island-road", "contact:email": "CA6038@carrabbas.com", "opening_hours": "Mo-Th 11:00-22:00; Fr-Sa 11:00-23:00; Su 11:00-21:00", "image": "https://locations.carrabbas.com/permanent-b0b701/assets/images/logo_carrabbas.217a7fd1.png", "brand": "Carrabba's Italian Grill", "brand:wikidata": "Q5045999", "nsi_id": "carrabbasitaliangrill-96af40"}, "geometry": {"type": "Point", "coordinates": [-81.9939162, 26.6430372]}},
{"type": "Feature", "id": "Fj4uYE9E-9TDxaLmoXcYHcbB5LU=", "properties": {"ref": "https://locations.carrabbas.com/#15503066", "@spider": "carrabbasitaliangrill", "amenity": "restaurant", "cuisine": "italian", "addr:street_address": "5805 Trinity Pkwy", "addr:city": "Centreville", "addr:state": "VA", "addr:postcode": "20120", "addr:country": "US", "name": "Carrabba's Centreville, VA", "phone": "(703) 266-9755", "website": "https://locations.carrabbas.com/virginia/centreville/5805-trinity-pkwy", "contact:email": "CA9704@carrabbas.com", "opening_hours": "Mo-Th 16:00-22:00; Fr-Sa 11:00-23:00; Su 11:00-21:00", "image": "https://locations.carrabbas.com/permanent-b0b701/assets/images/logo_carrabbas.217a7fd1.png", "brand": "Carrabba's Italian Grill", "brand:wikidata": "Q5045999", "nsi_id": "carrabbasitaliangrill-96af40"}, "geometry": {"type": "Point", "coordinates": [-77.4397636, 38.8392491]}},
{"type": "Feature", "id": "OX4J-oaAa9d8RSPq5Fhzivt_CTU=", "properties": {"ref": "https://locations.carrabbas.com/#15503034", "@spider": "carrabbasitaliangrill", "amenity": "restaurant", "cuisine": "italian", "addr:street_address": "4765 S 76th Street", "addr:city": "Greenfield", "addr:state": "WI", "addr:postcode": "53220", "addr:country": "US", "name": "Carrabba's Greenfield, WI", "phone": "(414) 282-4158", "website": "https://locations.carrabbas.com/wisconsin/greenfield/4765-s-76th-street", "contact:email": "CA9801@carrabbas.com", "opening_hours": "Mo-Th 11:00-21:00; Fr-Sa 11:00-22:00; Su 11:00-21:00", "image": "https://locations.carrabbas.com/permanent-b0b701/assets/images/logo_carrabbas.217a7fd1.png", "brand": "Carrabba's Italian Grill", "brand:wikidata": "Q5045999", "nsi_id": "carrabbasitaliangrill-96af40"}, "geometry": {"type": "Point", "coordinates": [-88.0088514, 42.9577608]}},
{"type": "Feature", "id": "1RwkCrujOiEIChKKdwAkiw4dOGk=", "properties": {"ref": "https://locations.carrabbas.com/#15502999", "@spider": "carrabbasitaliangrill", "amenity": "restaurant", "cuisine": "italian", "addr:street_address": "18375 W Bluemound Road", "addr:city": "Brookfield", "addr:state": "WI", "addr:postcode": "53045", "addr:country": "US", "name": "Carrabba's Brookfield, WI", "phone": "(262) 797-2548", "website": "https://locations.carrabbas.com/wisconsin/brookfield/18375-w-bluemound-road", "contact:email": "CA9802@carrabbas.com", "opening_hours": "Mo-Th 16:00-22:00; Fr-Sa 11:00-23:00; Su 11:00-21:00", "image": "https://locations.carrabbas.com/permanent-b0b701/assets/images/logo_carrabbas.217a7fd1.png", "brand": "Carrabba's Italian Grill", "brand:wikidata": "Q5045999", "nsi_id": "carrabbasitaliangrill-96af40"}, "geometry": {"type": "Point", "coordinates": [-88.1414558, 43.0357653]}},
{"type": "Feature", "id": "ty-0opZUli1S3ITOndJ3nBGQry4=", "properties": {"ref": "https://locations.carrabbas.com/#15502963", "@spider": "carrabbasitaliangrill", "amenity": "restaurant", "cuisine": "italian", "addr:street_address": "13870 Foulger Square", "addr:city": "Woodbridge", "addr:state": "VA", "addr:postcode": "22192", "addr:country": "US", "name": "Carrabba's Woodbridge, VA", "phone": "(703) 583-7300", "website": "https://locations.carrabbas.com/virginia/woodbridge/13870-foulger-square", "contact:email": "CA9701@carrabbas.com", "opening_hours": "Mo-Th 11:00-22:00; Fr-Sa 11:00-23:00; Su 11:00-21:00", "image": "https://locations.carrabbas.com/permanent-b0b701/assets/images/logo_carrabbas.217a7fd1.png", "brand": "Carrabba's Italian Grill", "brand:wikidata": "Q5045999", "nsi_id": "carrabbasitaliangrill-96af40"}, "geometry": {"type": "Point", "coordinates": [-77.3058323, 38.655267]}},
{"type": "Feature", "id": "fl6ko9KEfsg0z0beJ0oIgmJqeHU=", "properties": {"ref": "https://locations.carrabbas.com/#15503120", "@spider": "carrabbasitaliangrill", "amenity": "restaurant", "cuisine": "italian", "addr:street_address": "231 Kernstown Commons Blvd", "addr:city": "Winchester", "addr:state": "VA", "addr:postcode": "22602", "addr:country": "US", "name": "Carrabba's Winchester, VA", "phone": "(540) 868-7665", "website": "https://locations.carrabbas.com/virginia/winchester/231-kernstown-commons-blvd", "contact:email": "CA9711@carrabbas.com", "opening_hours": "Mo-Th 16:00-22:00; Fr-Sa 11:00-23:00; Su 11:00-21:00", "image": "https://locations.carrabbas.com/permanent-b0b701/assets/images/logo_carrabbas.217a7fd1.png", "brand": "Carrabba's Italian Grill", "brand:wikidata": "Q5045999", "nsi_id": "carrabbasitaliangrill-96af40"}, "geometry": {"type": "Point", "coordinates": [-78.1968301, 39.1190061]}},
{"type": "Feature", "id": "Nded3T7QcuPOlts2fPvR2SiJ4SU=", "properties": {"ref": "https://locations.carrabbas.com/#15503068", "@spider": "carrabbasitaliangrill", "amenity": "restaurant", "cuisine": "italian", "addr:street_address": "2500 Richmond Road", "addr:city": "Williamsburg", "addr:state": "VA", "addr:postcode": "23185", "addr:country": "US", "name": "Carrabba's Williamsburg, VA", "phone": "(757) 564-3696", "website": "https://locations.carrabbas.com/virginia/williamsburg/2500-richmond-road", "contact:email": "CA9710@carrabbas.com", "opening_hours": "Mo-Th 11:00-22:00; Fr-Sa 11:00-23:00; Su 11:00-21:00", "image": "https://locations.carrabbas.com/permanent-b0b701/assets/images/logo_carrabbas.217a7fd1.png", "brand": "Carrabba's Italian Grill", "brand:wikidata": "Q5045999", "nsi_id": "carrabbasitaliangrill-96af40"}, "geometry": {"type": "Point", "coordinates": [-76.7289849, 37.3013268]}},
{"type": "Feature", "id": "vuCRZJEzsQrADcAG4nCXDtR4Mig=", "properties": {"ref": "https://locations.carrabbas.com/#15502970", "@spider": "carrabbasitaliangrill", "amenity": "restaurant", "cuisine": "italian", "addr:street_address": "739 Lynnhaven Pwky Suite 100", "addr:city": "Virginia Beach", "addr:state": "VA", "addr:postcode": "23452", "addr:country": "US", "name": "Carrabba's Virginia Beach, VA", "phone": "(757) 631-0856", "website": "https://locations.carrabbas.com/virginia/virginia-beach/739-lynnhaven-pwky", "contact:email": "CA9708@carrabbas.com", "opening_hours": "Mo-Th 11:00-22:00; Fr-Sa 11:00-23:00; Su 11:00-21:00", "image": "https://locations.carrabbas.com/permanent-b0b701/assets/images/logo_carrabbas.217a7fd1.png", "brand": "Carrabba's Italian Grill", "brand:wikidata": "Q5045999", "nsi_id": "carrabbasitaliangrill-96af40"}, "geometry": {"type": "Point", "coordinates": [-76.0673646, 36.8174709]}},
{"type": "Feature", "id": "wBUeCCOw28kgHDdmcQgePWxGIdI=", "properties": {"ref": "https://locations.carrabbas.com/#15503067", "@spider": "carrabbasitaliangrill", "amenity": "restaurant", "cuisine": "italian", "addr:street_address": "4822-D Valley View Blvd NW", "addr:city": "Roanoke", "addr:state": "VA", "addr:postcode": "24012", "addr:country": "US", "name": "Carrabba's Roanoke, VA", "phone": "(540) 265-0961", "website": "https://locations.carrabbas.com/virginia/roanoke/4822-d-valley-view-blvd-nw", "contact:email": "CA9709@carrabbas.com", "opening_hours": "Mo-Th 11:00-22:00; Fr-Sa 11:00-23:00; Su 11:00-21:00", "image": "https://locations.carrabbas.com/permanent-b0b701/assets/images/logo_carrabbas.217a7fd1.png", "brand": "Carrabba's Italian Grill", "brand:wikidata": "Q5045999", "nsi_id": "carrabbasitaliangrill-96af40"}, "geometry": {"type": "Point", "coordinates": [-79.9619369, 37.3047332]}},
{"type": "Feature", "id": "PVZfY3FYiB1a4-MsfUleCIuQBmk=", "properties": {"ref": "https://locations.carrabbas.com/#15502964", "@spider": "carrabbasitaliangrill", "amenity": "restaurant", "cuisine": "italian", "addr:street_address": "11450 Midlothian Turnpike", "addr:city": "Richmond", "addr:state": "VA", "addr:postcode": "23235", "addr:country": "US", "name": "Carrabba's Richmond, VA", "phone": "(804) 794-1771", "website": "https://locations.carrabbas.com/virginia/richmond/11450-midlothian-turnpike", "contact:email": "CA9702@carrabbas.com", "opening_hours": "Mo-Th 11:00-22:00; Fr-Sa 11:00-23:00; Su 11:00-22:00", "image": "https://locations.carrabbas.com/permanent-b0b701/assets/images/logo_carrabbas.217a7fd1.png", "brand": "Carrabba's Italian Grill", "brand:wikidata": "Q5045999", "nsi_id": "carrabbasitaliangrill-96af40"}, "geometry": {"type": "Point", "coordinates": [-77.6081621, 37.5060491]}},
{"type": "Feature", "id": "8sG0-qmLc14SEePjoTn1lLNK9Is=", "properties": {"ref": "https://locations.carrabbas.com/#15502929", "@spider": "carrabbasitaliangrill", "amenity": "restaurant", "cuisine": "italian", "addr:street_address": "11237 West Broad Street", "addr:city": "Richmond", "addr:state": "VA", "addr:postcode": "23060", "addr:country": "US", "name": "Carrabba's Richmond, VA", "phone": "(804) 364-1912", "website": "https://locations.carrabbas.com/virginia/richmond/11237-west-broad-street", "opening_hours": "Mo-Th 16:00-22:00; Fr-Sa 11:00-23:00; Su 11:00-22:00", "image": "https://locations.carrabbas.com/permanent-b0b701/assets/images/logo_carrabbas.217a7fd1.png", "brand": "Carrabba's Italian Grill", "brand:wikidata": "Q5045999", "nsi_id": "carrabbasitaliangrill-96af40"}, "geometry": {"type": "Point", "coordinates": [-77.60191128282071, 37.648897628933305]}},
{"type": "Feature", "id": "dKPM4bZtzoKvSYngcAYQ560U_IA=", "properties": {"ref": "https://locations.carrabbas.com/#15502998", "@spider": "carrabbasitaliangrill", "amenity": "restaurant", "cuisine": "italian", "addr:street_address": "12363 Hornsby Lane", "addr:city": "Newport News", "addr:state": "VA", "addr:postcode": "23602", "addr:country": "US", "name": "Carrabba's Newport News, VA", "phone": "(757) 269-4917", "website": "https://locations.carrabbas.com/virginia/newport-news/12363-hornsby-lane", "contact:email": "CA9707@carrabbas.com", "opening_hours": "Mo-Th 16:00-22:00; Fr-Sa 11:00-23:00; Su 11:00-21:30", "image": "https://locations.carrabbas.com/permanent-b0b701/assets/images/logo_carrabbas.217a7fd1.png", "brand": "Carrabba's Italian Grill", "brand:wikidata": "Q5045999", "nsi_id": "carrabbasitaliangrill-96af40"}, "geometry": {"type": "Point", "coordinates": [-76.5034325, 37.1142296]}},
{"type": "Feature", "id": "YTJURe1v93ioNLjeYkbzGS5ZIg0=", "properties": {"ref": "https://locations.carrabbas.com/#15503032", "@spider": "carrabbasitaliangrill", "amenity": "restaurant", "cuisine": "italian", "addr:street_address": "12192 Sunset Hills Road", "addr:city": "Reston", "addr:state": "VA", "addr:postcode": "20190", "addr:country": "US", "name": "Carrabba's Reston, VA", "phone": "(703) 464-7909", "website": "https://locations.carrabbas.com/virginia/reston/12192-sunset-hills-road", "contact:email": "CA9703@carrabbas.com", "opening_hours": "Mo-Th 11:00-22:00; Fr-Sa 11:00-23:00; Su 11:00-21:00", "image": "https://locations.carrabbas.com/permanent-b0b701/assets/images/logo_carrabbas.217a7fd1.png", "brand": "Carrabba's Italian Grill", "brand:wikidata": "Q5045999", "nsi_id": "carrabbasitaliangrill-96af40"}, "geometry": {"type": "Point", "coordinates": [-77.3674796, 38.9553232]}},
{"type": "Feature", "id": "JflDRwMwf_qXs6vXoq31m_US66s=", "properties": {"ref": "https://locations.carrabbas.com/#15503104", "@spider": "carrabbasitaliangrill", "amenity": "restaurant", "cuisine": "italian", "addr:street_address": "1951 Carl D. Silver Pkwy", "addr:city": "Fredericksburg", "addr:state": "VA", "addr:postcode": "22401", "addr:country": "US", "name": "Carrabba's Fredericksburg, VA", "phone": "(540) 548-1122", "website": "https://locations.carrabbas.com/virginia/fredericksburg/1951-carl-d.-silver-pkwy", "contact:email": "CA9705@carrabbas.com", "opening_hours": "Mo-Th 11:00-22:00; Fr-Sa 11:00-23:00; Su 11:00-22:00", "image": "https://locations.carrabbas.com/permanent-b0b701/assets/images/logo_carrabbas.217a7fd1.png", "brand": "Carrabba's Italian Grill", "brand:wikidata": "Q5045999", "nsi_id": "carrabbasitaliangrill-96af40"}, "geometry": {"type": "Point", "coordinates": [-77.511375, 38.3099171]}},
{"type": "Feature", "id": "qbeiLvK6RMirog9TPftplo6o7-Y=", "properties": {"ref": "https://locations.carrabbas.com/#15502928", "@spider": "carrabbasitaliangrill", "amenity": "restaurant", "cuisine": "italian", "addr:street_address": "1217 N Battlefield Blvd", "addr:city": "Chesapeake", "addr:state": "VA", "addr:postcode": "23320", "addr:country": "US", "name": "Carrabba's Chesapeake, VA", "phone": "(757) 382-0337", "website": "https://locations.carrabbas.com/virginia/chesapeake/1217-n-battlefield-blvd", "contact:email": "CA9706@carrabbas.com", "opening_hours": "Mo-Th 11:00-22:00; Fr-Sa 11:00-23:00; Su 11:00-21:00", "image": "https://locations.carrabbas.com/permanent-b0b701/assets/images/logo_carrabbas.217a7fd1.png", "brand": "Carrabba's Italian Grill", "brand:wikidata": "Q5045999", "nsi_id": "carrabbasitaliangrill-96af40"}, "geometry": {"type": "Point", "coordinates": [-76.2504823729643, 36.76292039700457]}},
{"type": "Feature", "id": "pUbLKXao6PZiMOpXuxhYjeRBtCI=", "properties": {"ref": "https://locations.carrabbas.com/#37045727", "@spider": "carrabbasitaliangrill", "amenity": "restaurant", "cuisine": "italian", "addr:street_address": "1 Saarinen Circle", "addr:city": "Dulles", "addr:state": "VA", "addr:postcode": "20166", "addr:country": "US", "name": "Carrabba's Dulles, VA", "phone": "(703) 572-4688", "website": "https://locations.carrabbas.com/virginia/dulles/1-saarinen-circle", "opening_hours": "Mo-Su 13:30-19:00", "image": "https://locations.carrabbas.com/permanent-b0b701/assets/images/logo_carrabbas.217a7fd1.png", "brand": "Carrabba's Italian Grill", "brand:wikidata": "Q5045999", "nsi_id": "carrabbasitaliangrill-96af40"}, "geometry": {"type": "Point", "coordinates": [-77.447763, 38.952732]}},
{"type": "Feature", "id": "ZM0CYJzAe0PeEDr2jWi24cPaSp4=", "properties": {"ref": "https://locations.carrabbas.com/#15503072", "@spider": "carrabbasitaliangrill", "amenity": "restaurant", "cuisine": "italian", "addr:street_address": "683 University Pkwy University Mall", "addr:city": "Orem", "addr:state": "UT", "addr:postcode": "84097", "addr:country": "US", "name": "Carrabba's Orem, UT", "phone": "(801) 765-1222", "website": "https://locations.carrabbas.com/utah/orem/683-university-pkwy", "contact:email": "CA9501@carrabbas.com", "opening_hours": "Mo-Th 11:30-21:30; Fr-Sa 11:30-22:30; Su 12:00-20:00", "image": "https://locations.carrabbas.com/permanent-b0b701/assets/images/logo_carrabbas.217a7fd1.png", "brand": "Carrabba's Italian Grill", "brand:wikidata": "Q5045999", "nsi_id": "carrabbasitaliangrill-96af40"}, "geometry": {"type": "Point", "coordinates": [-111.67942321780598, 40.27362748284225]}},
{"type": "Feature", "id": "fDWuRavbcneJzfpLRj39CmUrSjA=", "properties": {"ref": "https://locations.carrabbas.com/#15502937", "@spider": "carrabbasitaliangrill", "amenity": "restaurant", "cuisine": "italian", "addr:street_address": "25665 I-45 North Hwy", "addr:city": "Woodlands", "addr:state": "TX", "addr:postcode": "77380", "addr:country": "US", "name": "Carrabba's Woodlands, TX", "phone": "(281) 367-9423", "website": "https://locations.carrabbas.com/texas/woodlands/25665-i-45-north-hwy", "contact:email": "CA4406@carrabbas.com", "opening_hours": "Mo-Th 11:00-22:00; Fr-Sa 11:00-23:00; Su 11:00-21:00", "image": "https://locations.carrabbas.com/permanent-b0b701/assets/images/logo_carrabbas.217a7fd1.png", "brand": "Carrabba's Italian Grill", "brand:wikidata": "Q5045999", "nsi_id": "carrabbasitaliangrill-96af40"}, "geometry": {"type": "Point", "coordinates": [-95.4457181, 30.1345109]}},
{"type": "Feature", "id": "WrUGFwO9SLAbvP3OLOatKMbLESs=", "properties": {"ref": "https://locations.carrabbas.com/#15503080", "@spider": "carrabbasitaliangrill", "amenity": "restaurant", "cuisine": "italian", "addr:street_address": "2335 Hwy 6", "addr:city": "Sugar Land", "addr:state": "TX", "addr:postcode": "77478", "addr:country": "US", "name": "Carrabba's Sugar Land, TX", "phone": "(281) 980-4433", "website": "https://locations.carrabbas.com/texas/sugar-land/2335-hwy-6", "contact:email": "CA4404@carrabbas.com", "opening_hours": "Mo-Th 11:00-22:00; Fr-Sa 11:00-23:00; Su 11:00-21:00", "image": "https://locations.carrabbas.com/permanent-b0b701/assets/images/logo_carrabbas.217a7fd1.png", "brand": "Carrabba's Italian Grill", "brand:wikidata": "Q5045999", "nsi_id": "carrabbasitaliangrill-96af40"}, "geometry": {"type": "Point", "coordinates": [-95.6174323, 29.5972568]}},
{"type": "Feature", "id": "Lhvx4K8NXfYjZ_s7OJII0wkj72Y=", "properties": {"ref": "https://locations.carrabbas.com/#15503010", "@spider": "carrabbasitaliangrill", "amenity": "restaurant", "cuisine": "italian", "addr:street_address": "502 West Bay Area Blvd", "addr:city": "Webster", "addr:state": "TX", "addr:postcode": "77598", "addr:country": "US", "name": "Carrabba's Webster, TX", "phone": "(281) 338-0574", "website": "https://locations.carrabbas.com/texas/webster/502-west-bay-area-blvd", "contact:email": "CA4407@carrabbas.com", "opening_hours": "Mo-Th 11:00-22:00; Fr-Sa 11:00-23:00; Su 11:00-21:00", "image": "https://locations.carrabbas.com/permanent-b0b701/assets/images/logo_carrabbas.217a7fd1.png", "brand": "Carrabba's Italian Grill", "brand:wikidata": "Q5045999", "nsi_id": "carrabbasitaliangrill-96af40"}, "geometry": {"type": "Point", "coordinates": [-95.13333575716156, 29.54612435882266]}},
{"type": "Feature", "id": "-Xs6JBtDlfbGDYYaYuRsDcYSBGU=", "properties": {"ref": "https://locations.carrabbas.com/#15503009", "@spider": "carrabbasitaliangrill", "amenity": "restaurant", "cuisine": "italian", "addr:street_address": "12507 I-10 West", "addr:city": "San Antonio", "addr:state": "TX", "addr:postcode": "78230", "addr:country": "US", "name": "Carrabba's San Antonio, TX", "phone": "(210) 694-4191", "website": "https://locations.carrabbas.com/texas/san-antonio/12507-i-10-west", "contact:email": "CA4405@carrabbas.com", "opening_hours": "Mo-Th 11:00-22:00; Fr-Sa 11:00-23:00; Su 11:00-22:00", "image": "https://locations.carrabbas.com/permanent-b0b701/assets/images/logo_carrabbas.217a7fd1.png", "brand": "Carrabba's Italian Grill", "brand:wikidata": "Q5045999", "nsi_id": "carrabbasitaliangrill-96af40"}, "geometry": {"type": "Point", "coordinates": [-98.5880277, 29.558156]}},
{"type": "Feature", "id": "JqwqpUtrynqpRvFrcED22AvAxDc=", "properties": {"ref": "https://locations.carrabbas.com/#15502927", "@spider": "carrabbasitaliangrill", "amenity": "restaurant", "cuisine": "italian", "addr:street_address": "3400 N Central Expressway", "addr:city": "Plano", "addr:state": "TX", "addr:postcode": "75074", "addr:country": "US", "name": "Carrabba's Plano, TX", "phone": "(972) 516-9900", "website": "https://locations.carrabbas.com/texas/plano/3400-n-central-expressway", "contact:email": "CA9414@carrabbas.com", "opening_hours": "Mo-Th 11:00-22:00; Fr-Sa 11:00-23:00; Su 11:00-21:00", "image": "https://locations.carrabbas.com/permanent-b0b701/assets/images/logo_carrabbas.217a7fd1.png", "brand": "Carrabba's Italian Grill", "brand:wikidata": "Q5045999", "nsi_id": "carrabbasitaliangrill-96af40"}, "geometry": {"type": "Point", "coordinates": [-96.7014514, 33.0411324]}},
{"type": "Feature", "id": "4sZGfkt4ZvyYACoo0pZvxVWp4PA=", "properties": {"ref": "https://locations.carrabbas.com/#15502961", "@spider": "carrabbasitaliangrill", "amenity": "restaurant", "cuisine": "italian", "addr:street_address": "6501 Fry Road", "addr:city": "Katy", "addr:state": "TX", "addr:postcode": "77494", "addr:country": "US", "name": "Carrabba's Katy, TX", "phone": "(281) 665-1320", "website": "https://locations.carrabbas.com/texas/katy/6501-fry-road", "contact:email": "CA9421@carrabbas.com", "opening_hours": "Mo-Th 11:00-22:00; Fr-Sa 11:00-23:00; Su 11:00-21:00", "image": "https://locations.carrabbas.com/permanent-b0b701/assets/images/logo_carrabbas.217a7fd1.png", "brand": "Carrabba's Italian Grill", "brand:wikidata": "Q5045999", "nsi_id": "carrabbasitaliangrill-96af40"}, "geometry": {"type": "Point", "coordinates": [-95.7705562, 29.712926]}},
{"type": "Feature", "id": "ILftyANVNzHOYrCYNfwmuQtwT30=", "properties": {"ref": "https://locations.carrabbas.com/#15503075", "@spider": "carrabbasitaliangrill", "amenity": "restaurant", "cuisine": "italian", "addr:street_address": "1101 Melbourne Rd Suite 6200", "addr:city": "Hurst", "addr:state": "TX", "addr:postcode": "76053", "addr:country": "US", "name": "Carrabba's Hurst, TX", "phone": "(817) 595-3345", "website": "https://locations.carrabbas.com/texas/hurst/1101-melbourne-rd", "contact:email": "CA9419@carrabbas.com", "opening_hours": "Mo-Th 11:00-22:00; Fr-Sa 11:00-23:00; Su 11:00-22:00", "image": "https://locations.carrabbas.com/permanent-b0b701/assets/images/logo_carrabbas.217a7fd1.png", "brand": "Carrabba's Italian Grill", "brand:wikidata": "Q5045999", "nsi_id": "carrabbasitaliangrill-96af40"}, "geometry": {"type": "Point", "coordinates": [-97.20026016149136, 32.8300206515212]}},
{"type": "Feature", "id": "tYIDsltoE3RVy5OZr8LhYyIwdOE=", "properties": {"ref": "https://locations.carrabbas.com/#15503033", "@spider": "carrabbasitaliangrill", "amenity": "restaurant", "cuisine": "italian", "addr:street_address": "7540 Hwy 6 N", "addr:city": "Houston", "addr:state": "TX", "addr:postcode": "77095", "addr:country": "US", "name": "Carrabba's Houston, TX", "phone": "(281) 859-9700", "website": "https://locations.carrabbas.com/texas/houston/7540-hwy-6-n", "contact:email": "CA9416@carrabbas.com", "opening_hours": "Mo-Th 11:00-22:00; Fr-Sa 11:00-23:00; Su 11:00-21:00", "image": "https://locations.carrabbas.com/permanent-b0b701/assets/images/logo_carrabbas.217a7fd1.png", "brand": "Carrabba's Italian Grill", "brand:wikidata": "Q5045999", "nsi_id": "carrabbasitaliangrill-96af40"}, "geometry": {"type": "Point", "coordinates": [-95.64255, 29.8879529]}},
{"type": "Feature", "id": "zsBFlcKMpk8NZ06MM6HodpOM5hw=", "properties": {"ref": "https://locations.carrabbas.com/#15502962", "@spider": "carrabbasitaliangrill", "amenity": "restaurant", "cuisine": "italian", "addr:street_address": "750 Kingwood Drive", "addr:city": "Houston", "addr:state": "TX", "addr:postcode": "77339", "addr:country": "US", "name": "Carrabba's Houston, TX", "phone": "(281) 358-5580", "website": "https://locations.carrabbas.com/texas/houston/750-kingwood-drive", "contact:email": "CA9415@carrabbas.com", "opening_hours": "Mo-Th 11:00-22:00; Fr-Sa 11:00-23:00; Su 11:00-21:00", "image": "https://locations.carrabbas.com/permanent-b0b701/assets/images/logo_carrabbas.217a7fd1.png", "brand": "Carrabba's Italian Grill", "brand:wikidata": "Q5045999", "nsi_id": "carrabbasitaliangrill-96af40"}, "geometry": {"type": "Point", "coordinates": [-95.2445183, 30.0504458]}},
{"type": "Feature", "id": "O-YO7qHd9aAZ7id0tCAlnD0Dmc4=", "properties": {"ref": "https://locations.carrabbas.com/#15502901", "@spider": "carrabbasitaliangrill", "amenity": "restaurant", "cuisine": "italian", "addr:street_address": "5440 FM 1960 West", "addr:city": "Houston", "addr:state": "TX", "addr:postcode": "77069", "addr:country": "US", "name": "Carrabba's Houston, TX", "phone": "(281) 397-8255", "website": "https://locations.carrabbas.com/texas/houston/5440-fm-1960-west", "contact:email": "CA4402@carrabbas.com", "opening_hours": "Mo-Th 11:00-22:00; Fr-Sa 11:00-23:00; Su 11:00-21:00", "image": "https://locations.carrabbas.com/permanent-b0b701/assets/images/logo_carrabbas.217a7fd1.png", "brand": "Carrabba's Italian Grill", "brand:wikidata": "Q5045999", "nsi_id": "carrabbasitaliangrill-96af40"}, "geometry": {"type": "Point", "coordinates": [-95.51164622449596, 29.980907902103997]}},
{"type": "Feature", "id": "4-6eSRhcutEvp1_CiT11qsagS3A=", "properties": {"ref": "https://locations.carrabbas.com/#15502972", "@spider": "carrabbasitaliangrill", "amenity": "restaurant", "cuisine": "italian", "addr:street_address": "11339 Katy Freeway", "addr:city": "Houston", "addr:state": "TX", "addr:postcode": "77079", "addr:country": "US", "name": "Carrabba's Houston, TX", "phone": "(713) 464-6595", "website": "https://locations.carrabbas.com/texas/houston/11339-katy-freeway", "contact:email": "CA4401@carrabbas.com", "opening_hours": "Mo-Th 11:00-22:00; Fr-Sa 11:00-23:00; Su 11:00-21:00", "image": "https://locations.carrabbas.com/permanent-b0b701/assets/images/logo_carrabbas.217a7fd1.png", "brand": "Carrabba's Italian Grill", "brand:wikidata": "Q5045999", "nsi_id": "carrabbasitaliangrill-96af40"}, "geometry": {"type": "Point", "coordinates": [-95.58352723619366, 29.783688360462094]}},
{"type": "Feature", "id": "L7VtsBGP6Giku-9olkKgjYzdyt8=", "properties": {"ref": "https://locations.carrabbas.com/#15503065", "@spider": "carrabbasitaliangrill", "amenity": "restaurant", "cuisine": "italian", "addr:street_address": "17548 Dallas Pkwy", "addr:city": "Dallas", "addr:state": "TX", "addr:postcode": "75287", "addr:country": "US", "name": "Carrabba's Dallas, TX", "phone": "(972) 732-7752", "website": "https://locations.carrabbas.com/texas/dallas/17548-dallas-pkwy", "contact:email": "CA9412@carrabbas.com", "opening_hours": "Mo-Th 11:00-22:00; Fr-Sa 11:00-23:00; Su 11:00-21:00", "image": "https://locations.carrabbas.com/permanent-b0b701/assets/images/logo_carrabbas.217a7fd1.png", "brand": "Carrabba's Italian Grill", "brand:wikidata": "Q5045999", "nsi_id": "carrabbasitaliangrill-96af40"}, "geometry": {"type": "Point", "coordinates": [-96.8280237, 32.9898778]}},
{"type": "Feature", "id": "zDhJ4t3pKdgdhx8Jw3NvLgPrgrU=", "properties": {"ref": "https://locations.carrabbas.com/#15502960", "@spider": "carrabbasitaliangrill", "amenity": "restaurant", "cuisine": "italian", "addr:street_address": "1550 I-10 South", "addr:city": "Beaumont", "addr:state": "TX", "addr:postcode": "77707", "addr:country": "US", "name": "Carrabba's Beaumont, TX", "phone": "(409) 842-5561", "website": "https://locations.carrabbas.com/texas/beaumont/1550-i-10-south", "contact:email": "CA9410@carrabbas.com", "opening_hours": "Mo-Th 11:00-22:00; Fr-Sa 11:00-23:00; Su 11:00-21:00", "image": "https://locations.carrabbas.com/permanent-b0b701/assets/images/logo_carrabbas.217a7fd1.png", "brand": "Carrabba's Italian Grill", "brand:wikidata": "Q5045999", "nsi_id": "carrabbasitaliangrill-96af40"}, "geometry": {"type": "Point", "coordinates": [-94.1353045, 30.0632761]}},
{"type": "Feature", "id": "ywR0nwJwKw-kPBPWQmswmkeS6oU=", "properties": {"ref": "https://locations.carrabbas.com/#15502936", "@spider": "carrabbasitaliangrill", "amenity": "restaurant", "cuisine": "italian", "addr:street_address": "11590 Research Blvd", "addr:city": "Austin", "addr:state": "TX", "addr:postcode": "78759", "addr:country": "US", "name": "Carrabba's Austin, TX", "phone": "(512) 345-8232", "website": "https://locations.carrabbas.com/texas/austin/11590-research-blvd", "contact:email": "CA4403@carrabbas.com", "opening_hours": "Mo-Th 11:00-22:00; Fr-Sa 11:00-23:00; Su 11:00-21:00", "image": "https://locations.carrabbas.com/permanent-b0b701/assets/images/logo_carrabbas.217a7fd1.png", "brand": "Carrabba's Italian Grill", "brand:wikidata": "Q5045999", "nsi_id": "carrabbasitaliangrill-96af40"}, "geometry": {"type": "Point", "coordinates": [-97.7470601, 30.4147898]}},
{"type": "Feature", "id": "p5NE2gPS55tKh9ZVozNQKzh_-vE=", "properties": {"ref": "https://locations.carrabbas.com/#15503064", "@spider": "carrabbasitaliangrill", "amenity": "restaurant", "cuisine": "italian", "addr:street_address": "2110 Greenhills Village Drive", "addr:city": "Nashville", "addr:state": "TN", "addr:postcode": "37215", "addr:country": "US", "name": "Carrabba's Nashville, TN", "phone": "(615) 463-3000", "website": "https://locations.carrabbas.com/tennessee/nashville/2110-greenhills-village-drive", "contact:email": "CA9302@carrabbas.com", "opening_hours": "Mo-Th 11:00-22:00; Fr-Sa 11:00-23:00; Su 11:00-21:00", "image": "https://locations.carrabbas.com/permanent-b0b701/assets/images/logo_carrabbas.217a7fd1.png", "brand": "Carrabba's Italian Grill", "brand:wikidata": "Q5045999", "nsi_id": "carrabbasitaliangrill-96af40"}, "geometry": {"type": "Point", "coordinates": [-86.8129597, 36.1085523]}},
{"type": "Feature", "id": "aVqiXCmjO2nyal4inj9RQAS1q70=", "properties": {"ref": "https://locations.carrabbas.com/#15503007", "@spider": "carrabbasitaliangrill", "amenity": "restaurant", "cuisine": "italian", "addr:street_address": "544 N. Thompson Lane Suite E", "addr:city": "Murfreesboro", "addr:state": "TN", "addr:postcode": "37129", "addr:country": "US", "name": "Carrabba's Murfreesboro, TN", "phone": "(615) 890-6693", "website": "https://locations.carrabbas.com/tennessee/murfreesboro/544-n.-thompson-lane", "contact:email": "CA9308@carrabbas.com", "opening_hours": "Mo-Th 11:00-22:00; Fr-Sa 11:00-23:00; Su 11:00-21:00", "image": "https://locations.carrabbas.com/permanent-b0b701/assets/images/logo_carrabbas.217a7fd1.png", "brand": "Carrabba's Italian Grill", "brand:wikidata": "Q5045999", "nsi_id": "carrabbasitaliangrill-96af40"}, "geometry": {"type": "Point", "coordinates": [-86.4289636, 35.8571824]}},
{"type": "Feature", "id": "pvqWT2vMbjG0awrrfsebD1ssRG0=", "properties": {"ref": "https://locations.carrabbas.com/#15503031", "@spider": "carrabbasitaliangrill", "amenity": "restaurant", "cuisine": "italian", "addr:street_address": "5110 Poplar Ave", "addr:city": "Memphis", "addr:state": "TN", "addr:postcode": "38117", "addr:country": "US", "name": "Carrabba's Memphis, TN", "phone": "(901) 685-9900", "website": "https://locations.carrabbas.com/tennessee/memphis/5110-poplar-ave", "contact:email": "CA9306@carrabbas.com", "opening_hours": "Mo-Th 11:00-22:00; Fr-Sa 11:00-23:00; Su 11:00-21:00", "image": "https://locations.carrabbas.com/permanent-b0b701/assets/images/logo_carrabbas.217a7fd1.png", "brand": "Carrabba's Italian Grill", "brand:wikidata": "Q5045999", "nsi_id": "carrabbasitaliangrill-96af40"}, "geometry": {"type": "Point", "coordinates": [-89.8915661, 35.1114396]}},
{"type": "Feature", "id": "bPlMp4JNXhkTiEQVCxjBbmMTf1k=", "properties": {"ref": "https://locations.carrabbas.com/#15502959", "@spider": "carrabbasitaliangrill", "amenity": "restaurant", "cuisine": "italian", "addr:street_address": "324 North Peters Road", "addr:city": "Knoxville", "addr:state": "TN", "addr:postcode": "37922", "addr:country": "US", "name": "Carrabba's Knoxville, TN", "phone": "(865) 692-2223", "website": "https://locations.carrabbas.com/tennessee/knoxville/324-north-peters-road", "opening_hours": "Mo-Th 11:00-21:00; Fr 11:00-22:00; Sa 11:00-23:00; Su 11:00-21:00", "image": "https://locations.carrabbas.com/permanent-b0b701/assets/images/logo_carrabbas.217a7fd1.png", "brand": "Carrabba's Italian Grill", "brand:wikidata": "Q5045999", "nsi_id": "carrabbasitaliangrill-96af40"}, "geometry": {"type": "Point", "coordinates": [-84.0936611, 35.9149817]}},
{"type": "Feature", "id": "wOqqLaKMEIW7MBZSwIZ9CedXVIw=", "properties": {"ref": "https://locations.carrabbas.com/#15502926", "@spider": "carrabbasitaliangrill", "amenity": "restaurant", "cuisine": "italian", "addr:street_address": "175 Market Place Blvd", "addr:city": "Johnson City", "addr:state": "TN", "addr:postcode": "37604", "addr:country": "US", "name": "Carrabba's Johnson City, TN", "phone": "(423) 232-2858", "website": "https://locations.carrabbas.com/tennessee/johnson-city/175-market-place-blvd", "contact:email": "CA9305@carrabbas.com", "opening_hours": "Mo-Th 11:00-22:00; Fr-Sa 11:00-23:00; Su 11:00-21:00", "image": "https://locations.carrabbas.com/permanent-b0b701/assets/images/logo_carrabbas.217a7fd1.png", "brand": "Carrabba's Italian Grill", "brand:wikidata": "Q5045999", "nsi_id": "carrabbasitaliangrill-96af40"}, "geometry": {"type": "Point", "coordinates": [-82.4048467, 36.3439611]}},
{"type": "Feature", "id": "Neucihefzlo7b8w7NZH6pB4bknU=", "properties": {"ref": "https://locations.carrabbas.com/#15503103", "@spider": "carrabbasitaliangrill", "amenity": "restaurant", "cuisine": "italian", "addr:street_address": "202 Anderson Lane N", "addr:city": "Hendersonville", "addr:state": "TN", "addr:postcode": "37075", "addr:country": "US", "name": "Carrabba's Hendersonville, TN", "phone": "(615) 822-7100", "website": "https://locations.carrabbas.com/tennessee/hendersonville/202-anderson-lane-n", "contact:email": "CA9309@carrabbas.com", "opening_hours": "Mo-Th 11:00-22:00; Fr-Sa 11:00-23:00; Su 11:00-21:00", "image": "https://locations.carrabbas.com/permanent-b0b701/assets/images/logo_carrabbas.217a7fd1.png", "brand": "Carrabba's Italian Grill", "brand:wikidata": "Q5045999", "nsi_id": "carrabbasitaliangrill-96af40"}, "geometry": {"type": "Point", "coordinates": [-86.5972443, 36.3207324]}},
{"type": "Feature", "id": "qa6Em_qjvFBLqIzwv93CEU2UQjU=", "properties": {"ref": "https://locations.carrabbas.com/#15503102", "@spider": "carrabbasitaliangrill", "amenity": "restaurant", "cuisine": "italian", "addr:street_address": "533 Cool Springs Blvd", "addr:city": "Franklin", "addr:state": "TN", "addr:postcode": "37067", "addr:country": "US", "name": "Carrabba's Franklin, TN", "phone": "(615) 778-9111", "website": "https://locations.carrabbas.com/tennessee/franklin/533-cool-springs-blvd", "contact:email": "CA9303@carrabbas.com", "opening_hours": "Mo-Th 11:00-22:00; Fr-Sa 11:00-23:00; Su 11:00-21:00", "image": "https://locations.carrabbas.com/permanent-b0b701/assets/images/logo_carrabbas.217a7fd1.png", "brand": "Carrabba's Italian Grill", "brand:wikidata": "Q5045999", "nsi_id": "carrabbasitaliangrill-96af40"}, "geometry": {"type": "Point", "coordinates": [-86.82119601664441, 35.947905716771984]}},
{"type": "Feature", "id": "8K3lYZjT1yddB40Rpf6n3l356G8=", "properties": {"ref": "https://locations.carrabbas.com/#15503042", "@spider": "carrabbasitaliangrill", "amenity": "restaurant", "cuisine": "italian", "addr:street_address": "4600 Merchants Park Circle Ste 141", "addr:city": "Collierville", "addr:state": "TN", "addr:postcode": "38017", "addr:country": "US", "name": "Carrabba's Collierville, TN", "phone": "(901) 854-0200", "website": "https://locations.carrabbas.com/tennessee/collierville/4600-merchants-park-circle", "contact:email": "CA9307@carrabbas.com", "opening_hours": "Mo-Th 11:00-22:00; Fr-Sa 11:00-23:00; Su 11:00-21:00", "image": "https://locations.carrabbas.com/permanent-b0b701/assets/images/logo_carrabbas.217a7fd1.png", "brand": "Carrabba's Italian Grill", "brand:wikidata": "Q5045999", "nsi_id": "carrabbasitaliangrill-96af40"}, "geometry": {"type": "Point", "coordinates": [-89.7209783, 35.0230589]}},
{"type": "Feature", "id": "bW9XEwI-ZoFTEim5cuZ8ceFfeXQ=", "properties": {"ref": "https://locations.carrabbas.com/#15503074", "@spider": "carrabbasitaliangrill", "amenity": "restaurant", "cuisine": "italian", "addr:street_address": "2040 Hamilton Place Blvd Suite 100", "addr:city": "Chattanooga", "addr:state": "TN", "addr:postcode": "37421", "addr:country": "US", "name": "Carrabba's Chattanooga, TN", "phone": "(423) 894-9970", "website": "https://locations.carrabbas.com/tennessee/chattanooga/2040-hamilton-place-blvd", "contact:email": "CA9304@carrabbas.com", "opening_hours": "Mo-Th 11:00-22:00; Fr-Sa 11:00-23:00; Su 11:00-22:00", "image": "https://locations.carrabbas.com/permanent-b0b701/assets/images/logo_carrabbas.217a7fd1.png", "brand": "Carrabba's Italian Grill", "brand:wikidata": "Q5045999", "nsi_id": "carrabbasitaliangrill-96af40"}, "geometry": {"type": "Point", "coordinates": [-85.1601439, 35.0317659]}},
{"type": "Feature", "id": "xbwDFjImtbkbXiiZX_JnA8WxAP0=", "properties": {"ref": "https://locations.carrabbas.com/#15503039", "@spider": "carrabbasitaliangrill", "amenity": "restaurant", "cuisine": "italian", "addr:street_address": "2150 Northwoods Blvd Bldg 100", "addr:city": "North Charleston", "addr:state": "SC", "addr:postcode": "29406", "addr:country": "US", "name": "Carrabba's North Charleston, SC", "phone": "(843) 824-0404", "website": "https://locations.carrabbas.com/south-carolina/north-charleston/2150-northwoods-blvd", "contact:email": "CA9106@carrabbas.com", "opening_hours": "Mo-Th 11:00-22:00; Fr-Sa 11:00-23:00; Su 11:00-22:00", "image": "https://locations.carrabbas.com/permanent-b0b701/assets/images/logo_carrabbas.217a7fd1.png", "brand": "Carrabba's Italian Grill", "brand:wikidata": "Q5045999", "nsi_id": "carrabbasitaliangrill-96af40"}, "geometry": {"type": "Point", "coordinates": [-80.044728, 32.944749]}},
{"type": "Feature", "id": "uem7nqNffopHlcuNhqT_Je85_-I=", "properties": {"ref": "https://locations.carrabbas.com/#15503119", "@spider": "carrabbasitaliangrill", "amenity": "restaurant", "cuisine": "italian", "addr:street_address": "1015 US Hwy 17 N", "addr:city": "N. Myrtle Beach", "addr:state": "SC", "addr:postcode": "29582", "addr:country": "US", "name": "Carrabba's N. Myrtle Beach, SC", "phone": "(843) 281-9222", "website": "https://locations.carrabbas.com/south-carolina/n.-myrtle-beach/1015-us-hwy-17-n", "contact:email": "CA9105@carrabbas.com", "opening_hours": "Mo-Su 11:00-22:00", "image": "https://locations.carrabbas.com/permanent-b0b701/assets/images/logo_carrabbas.217a7fd1.png", "brand": "Carrabba's Italian Grill", "brand:wikidata": "Q5045999", "nsi_id": "carrabbasitaliangrill-96af40"}, "geometry": {"type": "Point", "coordinates": [-78.66827429294875, 33.83856438629183]}},
{"type": "Feature", "id": "nUI9THNKRYr6XWPmpFYYWnwAgmY=", "properties": {"ref": "https://locations.carrabbas.com/#15502997", "@spider": "carrabbasitaliangrill", "amenity": "restaurant", "cuisine": "italian", "addr:street_address": "6803 North Kings Hwy", "addr:city": "Myrtle Beach", "addr:state": "SC", "addr:postcode": "29577", "addr:country": "US", "name": "Carrabba's Myrtle Beach, SC", "phone": "(843) 467-2600", "website": "https://locations.carrabbas.com/south-carolina/myrtle-beach/6803-north-kings-hwy", "contact:email": "CA9103@carrabbas.com", "opening_hours": "Mo-Su 11:00-22:00", "image": "https://locations.carrabbas.com/permanent-b0b701/assets/images/logo_carrabbas.217a7fd1.png", "brand": "Carrabba's Italian Grill", "brand:wikidata": "Q5045999", "nsi_id": "carrabbasitaliangrill-96af40"}, "geometry": {"type": "Point", "coordinates": [-78.8267172, 33.7410706]}},
{"type": "Feature", "id": "4b3EhSAzTMZ_Bh_9FWup3yki0RY=", "properties": {"ref": "https://locations.carrabbas.com/#15503030", "@spider": "carrabbasitaliangrill", "amenity": "restaurant", "cuisine": "italian", "addr:street_address": "1022A Woodruff Road", "addr:city": "Greenville", "addr:state": "SC", "addr:postcode": "29607", "addr:country": "US", "name": "Carrabba's Greenville, SC", "phone": "(864) 213-9494", "website": "https://locations.carrabbas.com/south-carolina/greenville/1022a-woodruff-road", "contact:email": "CA9107@carrabbas.com", "opening_hours": "Mo-Su 11:00-22:00", "image": "https://locations.carrabbas.com/permanent-b0b701/assets/images/logo_carrabbas.217a7fd1.png", "brand": "Carrabba's Italian Grill", "brand:wikidata": "Q5045999", "nsi_id": "carrabbasitaliangrill-96af40"}, "geometry": {"type": "Point", "coordinates": [-82.312076, 34.8349102]}},
{"type": "Feature", "id": "7KLWGQAQxX8mXVTiyym_-z4YsLw=", "properties": {"ref": "https://locations.carrabbas.com/#15502958", "@spider": "carrabbasitaliangrill", "amenity": "restaurant", "cuisine": "italian", "addr:street_address": "511 Courtfield Drive", "addr:city": "Murrell's Inlet", "addr:state": "SC", "addr:postcode": "29576", "addr:country": "US", "name": "Carrabba's Murrell's Inlet, SC", "phone": "(843) 652-3800", "website": "https://locations.carrabbas.com/south-carolina/murrell's-inlet/511-courtfield-drive", "contact:email": "CA9109@carrabbas.com", "opening_hours": "Mo-Su 11:00-22:00", "image": "https://locations.carrabbas.com/permanent-b0b701/assets/images/logo_carrabbas.217a7fd1.png", "brand": "Carrabba's Italian Grill", "brand:wikidata": "Q5045999", "nsi_id": "carrabbasitaliangrill-96af40"}, "geometry": {"type": "Point", "coordinates": [-79.03735710491084, 33.56517730060016]}},
{"type": "Feature", "id": "LW4nbDCWobpWH0dqk31pyY4x4QI=", "properties": {"ref": "https://locations.carrabbas.com/#15502924", "@spider": "carrabbasitaliangrill", "amenity": "restaurant", "cuisine": "italian", "addr:street_address": "370 Columbiana Drive", "addr:city": "Columbia", "addr:state": "SC", "addr:postcode": "29212", "addr:country": "US", "name": "Carrabba's Columbia, SC", "phone": "(803) 407-1811", "website": "https://locations.carrabbas.com/south-carolina/columbia/370-columbiana-drive", "contact:email": "CA9104@carrabbas.com", "opening_hours": "Mo-Th 11:00-22:00; Fr-Sa 11:00-23:00; Su 11:00-22:00", "image": "https://locations.carrabbas.com/permanent-b0b701/assets/images/logo_carrabbas.217a7fd1.png", "brand": "Carrabba's Italian Grill", "brand:wikidata": "Q5045999", "nsi_id": "carrabbasitaliangrill-96af40"}, "geometry": {"type": "Point", "coordinates": [-81.1610788, 34.085166]}},
{"type": "Feature", "id": "k5b5_B2qf4i-JxQ9DCobDoLyosk=", "properties": {"ref": "https://locations.carrabbas.com/#15503071", "@spider": "carrabbasitaliangrill", "amenity": "restaurant", "cuisine": "italian", "addr:street_address": "1350 Bald Hill Road Bldg C", "addr:city": "Warwick", "addr:state": "RI", "addr:postcode": "02886", "addr:country": "US", "name": "Carrabba's Warwick, RI", "phone": "(401) 827-8880", "website": "https://locations.carrabbas.com/rhode-island/warwick/1350-bald-hill-road", "contact:email": "CA9001@carrabbas.com", "opening_hours": "Mo-Th 11:00-22:00; Fr-Sa 11:00-23:00; Su 11:00-21:00", "image": "https://locations.carrabbas.com/permanent-b0b701/assets/images/logo_carrabbas.217a7fd1.png", "brand": "Carrabba's Italian Grill", "brand:wikidata": "Q5045999", "nsi_id": "carrabbasitaliangrill-96af40"}, "geometry": {"type": "Point", "coordinates": [-71.49203108198607, 41.70120677507053]}},
{"type": "Feature", "id": "4HYuxna6hANlE3LeQIwkKEa7P9I=", "properties": {"ref": "https://locations.carrabbas.com/#15502923", "@spider": "carrabbasitaliangrill", "amenity": "restaurant", "cuisine": "italian", "addr:street_address": "2575 Maryland Road", "addr:city": "Willow Grove", "addr:state": "PA", "addr:postcode": "19090", "addr:country": "US", "name": "Carrabba's Willow Grove, PA", "phone": "(215) 659-3950", "website": "https://locations.carrabbas.com/pennsylvania/willow-grove/2575-maryland-road", "contact:email": "CA8907@carrabbas.com", "opening_hours": "Mo-Th 11:00-22:00; Fr-Sa 11:00-23:00; Su 11:00-21:30", "image": "https://locations.carrabbas.com/permanent-b0b701/assets/images/logo_carrabbas.217a7fd1.png", "brand": "Carrabba's Italian Grill", "brand:wikidata": "Q5045999", "nsi_id": "carrabbasitaliangrill-96af40"}, "geometry": {"type": "Point", "coordinates": [-75.1253948, 40.1616732]}},
{"type": "Feature", "id": "dr4RvscileVwiAD4PyG1g7wFQII=", "properties": {"ref": "https://locations.carrabbas.com/#15503099", "@spider": "carrabbasitaliangrill", "amenity": "restaurant", "cuisine": "italian", "addr:street_address": "102 Painters Crossing, Painters Crossing Shopping Mall", "addr:city": "West Chester", "addr:state": "PA", "addr:postcode": "19382", "addr:country": "US", "name": "Carrabba's West Chester, PA", "phone": "(610) 358-0156", "website": "https://locations.carrabbas.com/pennsylvania/west-chester/102-painters-crossing-painters-crossing-shopping-mall", "contact:email": "CA8903@carrabbas.com", "opening_hours": "Mo-Th 16:00-22:00; Fr-Sa 11:00-23:00; Su 11:00-21:30", "image": "https://locations.carrabbas.com/permanent-b0b701/assets/images/logo_carrabbas.217a7fd1.png", "brand": "Carrabba's Italian Grill", "brand:wikidata": "Q5045999", "nsi_id": "carrabbasitaliangrill-96af40"}, "geometry": {"type": "Point", "coordinates": [-75.5491759300185, 39.88328799032703]}},
{"type": "Feature", "id": "tQt471XyLVM0fz2EXbKrtkJm25Q=", "properties": {"ref": "https://locations.carrabbas.com/#15503100", "@spider": "carrabbasitaliangrill", "amenity": "restaurant", "cuisine": "italian", "addr:street_address": "1250 Baltimore Pike, Springfield Mall", "addr:city": "Springfield", "addr:state": "PA", "addr:postcode": "19064", "addr:country": "US", "name": "Carrabba's Springfield, PA", "phone": "(610) 544-0517", "website": "https://locations.carrabbas.com/pennsylvania/springfield/1250-baltimore-pike-springfield-mall", "contact:email": "CA8904@carrabbas.com", "opening_hours": "Mo-Th 11:00-22:00; Fr-Sa 11:00-23:00; Su 11:00-21:00", "image": "https://locations.carrabbas.com/permanent-b0b701/assets/images/logo_carrabbas.217a7fd1.png", "brand": "Carrabba's Italian Grill", "brand:wikidata": "Q5045999", "nsi_id": "carrabbasitaliangrill-96af40"}, "geometry": {"type": "Point", "coordinates": [-75.3528616, 39.914685]}},
{"type": "Feature", "id": "i9BNlj3OsvsgVqxoi4XNmNHt8YM=", "properties": {"ref": "https://locations.carrabbas.com/#15503118", "@spider": "carrabbasitaliangrill", "amenity": "restaurant", "cuisine": "italian", "addr:street_address": "5250 Carlisle Pike", "addr:city": "Mechanicsburg", "addr:state": "PA", "addr:postcode": "17050", "addr:country": "US", "name": "Carrabba's Mechanicsburg, PA", "phone": "(717) 795-9200", "website": "https://locations.carrabbas.com/pennsylvania/mechanicsburg/5250-carlisle-pike", "contact:email": "CA8909@carrabbas.com", "opening_hours": "Mo-Th 11:00-21:00; Fr-Sa 11:00-22:00; Su 11:00-21:00", "image": "https://locations.carrabbas.com/permanent-b0b701/assets/images/logo_carrabbas.217a7fd1.png", "brand": "Carrabba's Italian Grill", "brand:wikidata": "Q5045999", "nsi_id": "carrabbasitaliangrill-96af40"}, "geometry": {"type": "Point", "coordinates": [-76.9795626, 40.2381262]}},
{"type": "Feature", "id": "oEof_6D6Y2wAGiW7hHPeaRQgnQw=", "properties": {"ref": "https://locations.carrabbas.com/#15502957", "@spider": "carrabbasitaliangrill", "amenity": "restaurant", "cuisine": "italian", "addr:street_address": "100 North Pointe Blvd", "addr:city": "Lancaster", "addr:state": "PA", "addr:postcode": "17601", "addr:country": "US", "name": "Carrabba's Lancaster, PA", "phone": "(717) 560-6756", "website": "https://locations.carrabbas.com/pennsylvania/lancaster/100-north-pointe-blvd", "contact:email": "CA8908@carrabbas.com", "opening_hours": "Mo-Th 11:00-22:00; Fr-Sa 11:00-23:00; Su 11:00-21:00", "image": "https://locations.carrabbas.com/permanent-b0b701/assets/images/logo_carrabbas.217a7fd1.png", "brand": "Carrabba's Italian Grill", "brand:wikidata": "Q5045999", "nsi_id": "carrabbasitaliangrill-96af40"}, "geometry": {"type": "Point", "coordinates": [-76.302792, 40.0697657]}},
{"type": "Feature", "id": "x1sKFsaIXo5f9mKZqj0hSpI_9SI=", "properties": {"ref": "https://locations.carrabbas.com/#15502902", "@spider": "carrabbasitaliangrill", "amenity": "restaurant", "cuisine": "italian", "addr:street_address": "3210 Tillman Drive", "addr:city": "Bensalem", "addr:state": "PA", "addr:postcode": "19020", "addr:country": "US", "name": "Carrabba's Bensalem, PA", "phone": "(215) 245-3555", "website": "https://locations.carrabbas.com/pennsylvania/bensalem/3210-tillman-drive", "contact:email": "CA3901@carrabbas.com", "opening_hours": "Mo-Th 11:00-22:00; Fr-Sa 11:00-23:00; Su 11:00-21:00", "image": "https://locations.carrabbas.com/permanent-b0b701/assets/images/logo_carrabbas.217a7fd1.png", "brand": "Carrabba's Italian Grill", "brand:wikidata": "Q5045999", "nsi_id": "carrabbasitaliangrill-96af40"}, "geometry": {"type": "Point", "coordinates": [-74.9590054642409, 40.1153418720801]}},
{"type": "Feature", "id": "EK7xQ9n88hzrI9E5dS1eLD4h-2s=", "properties": {"ref": "https://locations.carrabbas.com/#15503063", "@spider": "carrabbasitaliangrill", "amenity": "restaurant", "cuisine": "italian", "addr:street_address": "2471 Park Ave", "addr:city": "Easton", "addr:state": "PA", "addr:postcode": "18045", "addr:country": "US", "name": "Carrabba's Easton, PA", "phone": "(610) 258-5326", "website": "https://locations.carrabbas.com/pennsylvania/easton/2471-park-ave", "contact:email": "CA8905@carrabbas.com", "opening_hours": "Mo-Th 11:00-22:00; Fr-Sa 11:00-23:00; Su 11:00-21:30", "image": "https://locations.carrabbas.com/permanent-b0b701/assets/images/logo_carrabbas.217a7fd1.png", "brand": "Carrabba's Italian Grill", "brand:wikidata": "Q5045999", "nsi_id": "carrabbasitaliangrill-96af40"}, "geometry": {"type": "Point", "coordinates": [-75.2608416326553, 40.69482671710667]}},
{"type": "Feature", "id": "Q4dqcg5bqQJ3NSFyRXshPoNRpZo=", "properties": {"ref": "https://locations.carrabbas.com/#15502922", "@spider": "carrabbasitaliangrill", "amenity": "restaurant", "cuisine": "italian", "addr:street_address": "510 S Cedar Crest Blvd", "addr:city": "Allentown", "addr:state": "PA", "addr:postcode": "18103", "addr:country": "US", "name": "Carrabba's Allentown, PA", "phone": "(610) 439-6100", "website": "https://locations.carrabbas.com/pennsylvania/allentown/510-s-cedar-crest-blvd", "contact:email": "CA8902@carrabbas.com", "opening_hours": "Mo-Th 11:00-22:00; Fr-Sa 11:00-23:00; Su 11:00-21:30", "image": "https://locations.carrabbas.com/permanent-b0b701/assets/images/logo_carrabbas.217a7fd1.png", "brand": "Carrabba's Italian Grill", "brand:wikidata": "Q5045999", "nsi_id": "carrabbasitaliangrill-96af40"}, "geometry": {"type": "Point", "coordinates": [-75.5228842, 40.5807133]}},
{"type": "Feature", "id": "5uEXwq9XLvvSBJzM-hnxnPNcHCs=", "properties": {"ref": "https://locations.carrabbas.com/#15503117", "@spider": "carrabbasitaliangrill", "amenity": "restaurant", "cuisine": "italian", "addr:street_address": "25054 Sperry Drive", "addr:city": "Westlake", "addr:state": "OH", "addr:postcode": "44145", "addr:country": "US", "name": "Carrabba's Westlake, OH", "phone": "(440) 250-0880", "website": "https://locations.carrabbas.com/ohio/westlake/25054-sperry-drive", "contact:email": "CA8601@carrabbas.com", "opening_hours": "Mo-Th 16:00-22:00; Fr-Sa 11:00-22:00; Su 11:00-21:00", "image": "https://locations.carrabbas.com/permanent-b0b701/assets/images/logo_carrabbas.217a7fd1.png", "brand": "Carrabba's Italian Grill", "brand:wikidata": "Q5045999", "nsi_id": "carrabbasitaliangrill-96af40"}, "geometry": {"type": "Point", "coordinates": [-81.8983254, 41.4745386]}},
{"type": "Feature", "id": "8T-CGoZvUQWqqIwNeK0q0XfJ-_k=", "properties": {"ref": "https://locations.carrabbas.com/#15502956", "@spider": "carrabbasitaliangrill", "amenity": "restaurant", "cuisine": "italian", "addr:street_address": "11021 East 71st Street", "addr:city": "Tulsa", "addr:state": "OK", "addr:postcode": "74133", "addr:country": "US", "name": "Carrabba's Tulsa, OK", "phone": "(918) 254-8888", "website": "https://locations.carrabbas.com/oklahoma/tulsa/11021-east-71st-street", "contact:email": "CA8701@carrabbas.com", "opening_hours": "Mo-Th 11:00-22:00; Fr-Sa 11:00-23:00; Su 11:00-21:00", "image": "https://locations.carrabbas.com/permanent-b0b701/assets/images/logo_carrabbas.217a7fd1.png", "brand": "Carrabba's Italian Grill", "brand:wikidata": "Q5045999", "nsi_id": "carrabbasitaliangrill-96af40"}, "geometry": {"type": "Point", "coordinates": [-95.8537575, 36.0613832]}},
{"type": "Feature", "id": "ndNdb4SDnVz4suZTgTcdM24hO_M=", "properties": {"ref": "https://locations.carrabbas.com/#15502920", "@spider": "carrabbasitaliangrill", "amenity": "restaurant", "cuisine": "italian", "addr:street_address": "900 Miamisburg Centerville Road", "addr:city": "Washington Township", "addr:state": "OH", "addr:postcode": "45459", "addr:country": "US", "name": "Carrabba's Washington Township, OH", "phone": "(937) 438-9690", "website": "https://locations.carrabbas.com/ohio/washington-township/900-miamisburg-centerville-road", "contact:email": "CA8604@carrabbas.com", "opening_hours": "Mo-Th 16:00-22:00; Fr-Sa 11:00-22:00; Su 11:00-21:00", "image": "https://locations.carrabbas.com/permanent-b0b701/assets/images/logo_carrabbas.217a7fd1.png", "brand": "Carrabba's Italian Grill", "brand:wikidata": "Q5045999", "nsi_id": "carrabbasitaliangrill-96af40"}, "geometry": {"type": "Point", "coordinates": [-84.1848052, 39.6268131]}},
{"type": "Feature", "id": "UhmL52xnZX3f-KxzXFrxtgVV0LU=", "properties": {"ref": "https://locations.carrabbas.com/#15503028", "@spider": "carrabbasitaliangrill", "amenity": "restaurant", "cuisine": "italian", "addr:street_address": "3405 Briarsfield Blvd", "addr:city": "Maumee", "addr:state": "OH", "addr:postcode": "43537", "addr:country": "US", "name": "Carrabba's Maumee, OH", "phone": "(419) 861-2200", "website": "https://locations.carrabbas.com/ohio/maumee/3405-briarsfield-blvd", "contact:email": "CA8607@carrabbas.com", "opening_hours": "Mo-Th 16:00-22:00; Fr-Sa 11:00-23:00; Su 11:00-21:00", "image": "https://locations.carrabbas.com/permanent-b0b701/assets/images/logo_carrabbas.217a7fd1.png", "brand": "Carrabba's Italian Grill", "brand:wikidata": "Q5045999", "nsi_id": "carrabbasitaliangrill-96af40"}, "geometry": {"type": "Point", "coordinates": [-83.6928847, 41.5796195]}},
{"type": "Feature", "id": "VB2c0XcUoxWZQAKIbK6KR0fyBCA=", "properties": {"ref": "https://locations.carrabbas.com/#15503062", "@spider": "carrabbasitaliangrill", "amenity": "restaurant", "cuisine": "italian", "addr:street_address": "5152 Merten Drive", "addr:city": "Mason", "addr:state": "OH", "addr:postcode": "45040", "addr:country": "US", "name": "Carrabba's Mason, OH", "phone": "(513) 339-0900", "website": "https://locations.carrabbas.com/ohio/mason/5152-merten-drive", "contact:email": "CA8602@carrabbas.com", "opening_hours": "Mo-Sa 11:00-22:00; Su 11:00-21:00", "image": "https://locations.carrabbas.com/permanent-b0b701/assets/images/logo_carrabbas.217a7fd1.png", "brand": "Carrabba's Italian Grill", "brand:wikidata": "Q5045999", "nsi_id": "carrabbasitaliangrill-96af40"}, "geometry": {"type": "Point", "coordinates": [-84.3158457, 39.2995326]}},
{"type": "Feature", "id": "ZMMJ-kauK55zkB7ha0usBay11Fs=", "properties": {"ref": "https://locations.carrabbas.com/#15502921", "@spider": "carrabbasitaliangrill", "amenity": "restaurant", "cuisine": "italian", "addr:street_address": "3949 Trueman Blvd", "addr:city": "Hilliard", "addr:state": "OH", "addr:postcode": "43026", "addr:country": "US", "name": "Carrabba's Hilliard, OH", "phone": "(614) 771-1653", "website": "https://locations.carrabbas.com/ohio/hilliard/3949-trueman-blvd", "contact:email": "CA8610@carrabbas.com", "opening_hours": "Mo-Sa 11:00-22:00; Su 11:00-21:00", "image": "https://locations.carrabbas.com/permanent-b0b701/assets/images/logo_carrabbas.217a7fd1.png", "brand": "Carrabba's Italian Grill", "brand:wikidata": "Q5045999", "nsi_id": "carrabbasitaliangrill-96af40"}, "geometry": {"type": "Point", "coordinates": [-83.1186, 40.0343714]}},
{"type": "Feature", "id": "I_0os32q6a7XjUvkbfm0wKPorBE=", "properties": {"ref": "https://locations.carrabbas.com/#15502955", "@spider": "carrabbasitaliangrill", "amenity": "restaurant", "cuisine": "italian", "addr:street_address": "8460 Lyra Drive", "addr:city": "Columbus", "addr:state": "OH", "addr:postcode": "43240", "addr:country": "US", "name": "Carrabba's Columbus, OH", "phone": "(614) 880-2426", "website": "https://locations.carrabbas.com/ohio/columbus/8460-lyra-drive", "contact:email": "CA8605@carrabbas.com", "opening_hours": "Mo-Sa 11:00-22:00; Su 11:00-21:00", "image": "https://locations.carrabbas.com/permanent-b0b701/assets/images/logo_carrabbas.217a7fd1.png", "brand": "Carrabba's Italian Grill", "brand:wikidata": "Q5045999", "nsi_id": "carrabbasitaliangrill-96af40"}, "geometry": {"type": "Point", "coordinates": [-82.9733836, 40.1410251]}},
{"type": "Feature", "id": "JGhm4Gc-ixlEo9bGJBxflOzUB2g=", "properties": {"ref": "https://locations.carrabbas.com/#15502931", "@spider": "carrabbasitaliangrill", "amenity": "restaurant", "cuisine": "italian", "addr:street_address": "7500 Beechmont Ave Suite 104", "addr:city": "Cincinnati", "addr:state": "OH", "addr:postcode": "45255", "addr:country": "US", "name": "Carrabba's Cincinnati, OH", "phone": "(513) 233-0999", "website": "https://locations.carrabbas.com/ohio/cincinnati/7500-beechmont-ave", "contact:email": "CA8608@carrabbas.com", "opening_hours": "Mo-Th 16:00-22:00; Fr-Sa 11:00-22:00; Su 11:00-21:00", "image": "https://locations.carrabbas.com/permanent-b0b701/assets/images/logo_carrabbas.217a7fd1.png", "brand": "Carrabba's Italian Grill", "brand:wikidata": "Q5045999", "nsi_id": "carrabbasitaliangrill-96af40"}, "geometry": {"type": "Point", "coordinates": [-84.3511851, 39.0742155]}},
{"type": "Feature", "id": "UzFC97xTx6xakG1VsUWEwfpW-fA=", "properties": {"ref": "https://locations.carrabbas.com/#15502996", "@spider": "carrabbasitaliangrill", "amenity": "restaurant", "cuisine": "italian", "addr:street_address": "6560 Strip Avenue", "addr:city": "Canton", "addr:state": "OH", "addr:postcode": "44720", "addr:country": "US", "name": "Carrabba's Canton, OH", "phone": "(330) 966-2426", "website": "https://locations.carrabbas.com/ohio/canton/6560-strip-avenue", "contact:email": "test@test.com", "opening_hours": "Mo-Sa 11:00-22:00; Su 11:00-21:00", "image": "https://locations.carrabbas.com/permanent-b0b701/assets/images/logo_carrabbas.217a7fd1.png", "brand": "Carrabba's Italian Grill", "brand:wikidata": "Q5045999", "nsi_id": "carrabbasitaliangrill-96af40"}, "geometry": {"type": "Point", "coordinates": [-81.432512, 40.8763167]}},
{"type": "Feature", "id": "mTxIcNA3UdUj2YZqgIRyeVSUjNs=", "properties": {"ref": "https://locations.carrabbas.com/#15503098", "@spider": "carrabbasitaliangrill", "amenity": "restaurant", "cuisine": "italian", "addr:street_address": "5030 Tiedeman Road", "addr:city": "Brooklyn", "addr:state": "OH", "addr:postcode": "44144", "addr:country": "US", "name": "Carrabba's Brooklyn, OH", "phone": "(216) 898-5790", "website": "https://locations.carrabbas.com/ohio/brooklyn/5030-tiedeman-road", "contact:email": "CA8606@carrabbas.com", "opening_hours": "Mo-Sa 11:00-22:00; Su 11:00-21:00", "image": "https://locations.carrabbas.com/permanent-b0b701/assets/images/logo_carrabbas.217a7fd1.png", "brand": "Carrabba's Italian Grill", "brand:wikidata": "Q5045999", "nsi_id": "carrabbasitaliangrill-96af40"}, "geometry": {"type": "Point", "coordinates": [-81.76111846670977, 41.42417839255342]}},
{"type": "Feature", "id": "RFd6REyeIjrrt0ovSXRfpDdcLZo=", "properties": {"ref": "https://locations.carrabbas.com/#15502917", "@spider": "carrabbasitaliangrill", "amenity": "restaurant", "cuisine": "italian", "addr:street_address": "587 South Stratford Road", "addr:city": "Winston Salem", "addr:state": "NC", "addr:postcode": "27103", "addr:country": "US", "name": "Carrabba's Winston Salem, NC", "phone": "(336) 831-0580", "website": "https://locations.carrabbas.com/north-carolina/winston-salem/587-south-stratford-road", "contact:email": "CA8409@carrabbas.com", "opening_hours": "Mo-Th 16:00-21:30; Fr-Sa 11:00-22:30; Su 11:00-21:30", "image": "https://locations.carrabbas.com/permanent-b0b701/assets/images/logo_carrabbas.217a7fd1.png", "brand": "Carrabba's Italian Grill", "brand:wikidata": "Q5045999", "nsi_id": "carrabbasitaliangrill-96af40"}, "geometry": {"type": "Point", "coordinates": [-80.28888, 36.0864692]}},
{"type": "Feature", "id": "5cGs0YYAFTcbnOYEq_Xq6SvFGv0=", "properties": {"ref": "https://locations.carrabbas.com/#15502952", "@spider": "carrabbasitaliangrill", "amenity": "restaurant", "cuisine": "italian", "addr:street_address": "15 Van Campen Blvd", "addr:city": "Wilmington", "addr:state": "NC", "addr:postcode": "28403", "addr:country": "US", "name": "Carrabba's Wilmington, NC", "phone": "(910) 794-9094", "website": "https://locations.carrabbas.com/north-carolina/wilmington/15-van-campen-blvd", "contact:email": "CA8404@carrabbas.com", "opening_hours": "Mo-Th 11:00-22:00; Fr-Sa 11:00-23:00; Su 11:00-22:00", "image": "https://locations.carrabbas.com/permanent-b0b701/assets/images/logo_carrabbas.217a7fd1.png", "brand": "Carrabba's Italian Grill", "brand:wikidata": "Q5045999", "nsi_id": "carrabbasitaliangrill-96af40"}, "geometry": {"type": "Point", "coordinates": [-77.8731273, 34.2450609]}},
{"type": "Feature", "id": "m6JIvdgua7OxofkK_xF7roeNOR0=", "properties": {"ref": "https://locations.carrabbas.com/#15502935", "@spider": "carrabbasitaliangrill", "amenity": "restaurant", "cuisine": "italian", "addr:street_address": "4821 Capital Blvd", "addr:city": "Raleigh", "addr:state": "NC", "addr:postcode": "27616", "addr:country": "US", "name": "Carrabba's Raleigh, NC", "phone": "(919) 871-0001", "website": "https://locations.carrabbas.com/north-carolina/raleigh/4821-capital-blvd", "contact:email": "CA3420@carrabbas.com", "opening_hours": "Mo-Th 11:00-22:00; Fr-Sa 11:00-23:00; Su 11:00-22:00", "image": "https://locations.carrabbas.com/permanent-b0b701/assets/images/logo_carrabbas.217a7fd1.png", "brand": "Carrabba's Italian Grill", "brand:wikidata": "Q5045999", "nsi_id": "carrabbasitaliangrill-96af40"}, "geometry": {"type": "Point", "coordinates": [-78.581477, 35.8525631]}},
{"type": "Feature", "id": "kTW_G2HtbEuKMlkimL-FtL2oi3Q=", "properties": {"ref": "https://locations.carrabbas.com/#15503008", "@spider": "carrabbasitaliangrill", "amenity": "restaurant", "cuisine": "italian", "addr:street_address": "10400 East Independence Blvd", "addr:city": "Matthews", "addr:state": "NC", "addr:postcode": "28105", "addr:country": "US", "name": "Carrabba's Matthews, NC", "phone": "(704) 844-0464", "website": "https://locations.carrabbas.com/north-carolina/matthews/10400-east-independence-blvd", "contact:email": "CA3402@carrabbas.com", "opening_hours": "Mo-Th 11:00-22:00; Fr-Sa 11:00-23:00; Su 11:00-21:00", "image": "https://locations.carrabbas.com/permanent-b0b701/assets/images/logo_carrabbas.217a7fd1.png", "brand": "Carrabba's Italian Grill", "brand:wikidata": "Q5045999", "nsi_id": "carrabbasitaliangrill-96af40"}, "geometry": {"type": "Point", "coordinates": [-80.70794525600978, 35.127594118220664]}},
{"type": "Feature", "id": "LMu7IDw_BGUCBdihoahGXwdkoJc=", "properties": {"ref": "https://locations.carrabbas.com/#15502900", "@spider": "carrabbasitaliangrill", "amenity": "restaurant", "cuisine": "italian", "addr:street_address": "16408 North Cross Drive", "addr:city": "Huntersville", "addr:state": "NC", "addr:postcode": "28078", "addr:country": "US", "name": "Carrabba's Huntersville, NC", "phone": "(704) 895-3080", "website": "https://locations.carrabbas.com/north-carolina/huntersville/16408-north-cross-drive", "contact:email": "CA3403@carrabbas.com", "opening_hours": "Mo-Th 15:00-22:00; Fr-Sa 11:00-23:00; Su 11:00-22:00", "image": "https://locations.carrabbas.com/permanent-b0b701/assets/images/logo_carrabbas.217a7fd1.png", "brand": "Carrabba's Italian Grill", "brand:wikidata": "Q5045999", "nsi_id": "carrabbasitaliangrill-96af40"}, "geometry": {"type": "Point", "coordinates": [-80.87074486579053, 35.44037070550415]}},
{"type": "Feature", "id": "CeuNDBEPwWoRkXXCYnP5xOL9az8=", "properties": {"ref": "https://locations.carrabbas.com/#15502954", "@spider": "carrabbasitaliangrill", "amenity": "restaurant", "cuisine": "italian", "addr:street_address": "1954 13th Avenue Drive SE", "addr:city": "Hickory", "addr:state": "NC", "addr:postcode": "28602", "addr:country": "US", "name": "Carrabba's Hickory, NC", "phone": "(828) 322-9032", "website": "https://locations.carrabbas.com/north-carolina/hickory/1954-13th-avenue-drive-se", "contact:email": "CA8411@carrabbas.com", "opening_hours": "Mo-Th 11:00-22:00; Fr-Sa 11:00-23:00; Su 11:00-22:00", "image": "https://locations.carrabbas.com/permanent-b0b701/assets/images/logo_carrabbas.217a7fd1.png", "brand": "Carrabba's Italian Grill", "brand:wikidata": "Q5045999", "nsi_id": "carrabbasitaliangrill-96af40"}, "geometry": {"type": "Point", "coordinates": [-81.3061146, 35.7107599]}},
{"type": "Feature", "id": "B-cIKXM6o4Cig-zwXFy8e-e174o=", "properties": {"ref": "https://locations.carrabbas.com/#15503061", "@spider": "carrabbasitaliangrill", "amenity": "restaurant", "cuisine": "italian", "addr:street_address": "3200 West Gate City Blvd", "addr:city": "Greensboro", "addr:state": "NC", "addr:postcode": "27407", "addr:country": "US", "name": "Carrabba's Greensboro, NC", "phone": "(336) 323-6069", "website": "https://locations.carrabbas.com/north-carolina/greensboro/3200-west-gate-city-blvd", "contact:email": "CA8406@carrabbas.com", "opening_hours": "Mo-Th 16:00-21:00; Fr-Sa 11:00-22:00; Su 11:00-21:00", "image": "https://locations.carrabbas.com/permanent-b0b701/assets/images/logo_carrabbas.217a7fd1.png", "brand": "Carrabba's Italian Grill", "brand:wikidata": "Q5045999", "nsi_id": "carrabbasitaliangrill-96af40"}, "geometry": {"type": "Point", "coordinates": [-79.8434407, 36.0427299]}},
{"type": "Feature", "id": "4HGUbPp7vrrOSVfhqISLyAys5vI=", "properties": {"ref": "https://locations.carrabbas.com/#15502953", "@spider": "carrabbasitaliangrill", "amenity": "restaurant", "cuisine": "italian", "addr:street_address": "4209 Sycamore Dairy Road", "addr:city": "Fayetteville", "addr:state": "NC", "addr:postcode": "28303", "addr:country": "US", "name": "Carrabba's Fayetteville, NC", "phone": "(910) 486-9300", "website": "https://locations.carrabbas.com/north-carolina/fayetteville/4209-sycamore-dairy-road", "contact:email": "CA8410@carrabbas.com", "opening_hours": "Mo-Th 11:00-22:00; Fr-Sa 11:00-23:00; Su 11:00-21:30", "image": "https://locations.carrabbas.com/permanent-b0b701/assets/images/logo_carrabbas.217a7fd1.png", "brand": "Carrabba's Italian Grill", "brand:wikidata": "Q5045999", "nsi_id": "carrabbasitaliangrill-96af40"}, "geometry": {"type": "Point", "coordinates": [-78.95207835547671, 35.06806595301689]}},
{"type": "Feature", "id": "7ErSlyRccy6XZBvxGD_KGvdTC3A=", "properties": {"ref": "https://locations.carrabbas.com/#15503116", "@spider": "carrabbasitaliangrill", "amenity": "restaurant", "cuisine": "italian", "addr:street_address": "5312 New Hope Commons Drive", "addr:city": "Durham", "addr:state": "NC", "addr:postcode": "27707", "addr:country": "US", "name": "Carrabba's Durham, NC", "phone": "(919) 401-5950", "website": "https://locations.carrabbas.com/north-carolina/durham/5312-new-hope-commons-drive", "contact:email": "CA8414@carrabbas.com", "opening_hours": "Mo-Th 16:00-22:00; Fr-Sa 11:00-23:00; Su 11:00-21:30", "image": "https://locations.carrabbas.com/permanent-b0b701/assets/images/logo_carrabbas.217a7fd1.png", "brand": "Carrabba's Italian Grill", "brand:wikidata": "Q5045999", "nsi_id": "carrabbasitaliangrill-96af40"}, "geometry": {"type": "Point", "coordinates": [-78.9928096, 35.9558131]}},
{"type": "Feature", "id": "-yocqLmQ40CIXnJNBdtVFWsYIEo=", "properties": {"ref": "https://locations.carrabbas.com/#15503115", "@spider": "carrabbasitaliangrill", "amenity": "restaurant", "cuisine": "italian", "addr:street_address": "7900 Lyles Lane", "addr:city": "Concord", "addr:state": "NC", "addr:postcode": "28027", "addr:country": "US", "name": "Carrabba's Concord, NC", "phone": "(704) 979-3224", "website": "https://locations.carrabbas.com/north-carolina/concord/7900-lyles-lane", "contact:email": "CA8408@carrabbas.com", "opening_hours": "Mo-Th 11:00-22:00; Fr-Sa 11:00-23:00; Su 11:00-22:00", "image": "https://locations.carrabbas.com/permanent-b0b701/assets/images/logo_carrabbas.217a7fd1.png", "brand": "Carrabba's Italian Grill", "brand:wikidata": "Q5045999", "nsi_id": "carrabbasitaliangrill-96af40"}, "geometry": {"type": "Point", "coordinates": [-80.7154212, 35.3657594]}},
{"type": "Feature", "id": "BYh61YVz-GqHKmm-6l9NCxmbXXc=", "properties": {"ref": "https://locations.carrabbas.com/#15503043", "@spider": "carrabbasitaliangrill", "amenity": "restaurant", "cuisine": "italian", "addr:street_address": "10 Buckstone Place", "addr:city": "Asheville", "addr:state": "NC", "addr:postcode": "28805", "addr:country": "US", "name": "Carrabba's Asheville, NC", "phone": "(828) 281-2300", "website": "https://locations.carrabbas.com/north-carolina/asheville/10-buckstone-place", "contact:email": "CA3401@carrabbas.com", "opening_hours": "Mo-Th 16:00-22:00; Fr-Sa 11:00-23:00; Su 11:00-21:00", "image": "https://locations.carrabbas.com/permanent-b0b701/assets/images/logo_carrabbas.217a7fd1.png", "brand": "Carrabba's Italian Grill", "brand:wikidata": "Q5045999", "nsi_id": "carrabbasitaliangrill-96af40"}, "geometry": {"type": "Point", "coordinates": [-82.52558083387868, 35.58633987751975]}},
{"type": "Feature", "id": "MeovQmvVfsQ921sdB9a9lnE0vUE=", "properties": {"ref": "https://locations.carrabbas.com/#15502919", "@spider": "carrabbasitaliangrill", "amenity": "restaurant", "cuisine": "italian", "addr:street_address": "332 Rockwood Road", "addr:city": "Arden", "addr:state": "NC", "addr:postcode": "28704", "addr:country": "US", "name": "Carrabba's Arden, NC", "phone": "(828) 654-8411", "website": "https://locations.carrabbas.com/north-carolina/arden/332-rockwood-road", "contact:email": "CA8415@carrabbas.com", "opening_hours": "Mo-Th 16:00-22:00; Fr-Sa 11:00-23:00; Su 11:00-21:00", "image": "https://locations.carrabbas.com/permanent-b0b701/assets/images/logo_carrabbas.217a7fd1.png", "brand": "Carrabba's Italian Grill", "brand:wikidata": "Q5045999", "nsi_id": "carrabbasitaliangrill-96af40"}, "geometry": {"type": "Point", "coordinates": [-82.5377338, 35.4445492]}},
{"type": "Feature", "id": "AADcpiPajZQ3U7WKw9QTLn7kB34=", "properties": {"ref": "https://locations.carrabbas.com/#15503029", "@spider": "carrabbasitaliangrill", "amenity": "restaurant", "cuisine": "italian", "addr:street_address": "1201 Haddon Hall Drive", "addr:city": "Apex", "addr:state": "NC", "addr:postcode": "27502", "addr:country": "US", "name": "Carrabba's Apex, NC", "phone": "(919) 387-6336", "website": "https://locations.carrabbas.com/north-carolina/apex/1201-haddon-hall-drive", "contact:email": "CA8412@carrabbas.com", "opening_hours": "Mo-Th 16:00-22:00; Fr-Sa 11:00-23:00; Su 11:00-21:00", "image": "https://locations.carrabbas.com/permanent-b0b701/assets/images/logo_carrabbas.217a7fd1.png", "brand": "Carrabba's Italian Grill", "brand:wikidata": "Q5045999", "nsi_id": "carrabbasitaliangrill-96af40"}, "geometry": {"type": "Point", "coordinates": [-78.8702592, 35.742689]}},
{"type": "Feature", "id": "11DF7DNh1YtV1DYkWcTvHoPBWl8=", "properties": {"ref": "https://locations.carrabbas.com/#15502950", "@spider": "carrabbasitaliangrill", "amenity": "restaurant", "cuisine": "italian", "addr:street_address": "730 Smithtown Bypass", "addr:city": "Smithtown", "addr:state": "NY", "addr:postcode": "11787", "addr:country": "US", "name": "Carrabba's Smithtown, NY", "phone": "(631) 265-1304", "website": "https://locations.carrabbas.com/new-york/smithtown/730-smithtown-bypass", "contact:email": "CA8302@carrabbas.com", "opening_hours": "Mo-Th 11:00-22:00; Fr-Sa 11:00-23:00; Su 11:00-21:00", "image": "https://locations.carrabbas.com/permanent-b0b701/assets/images/logo_carrabbas.217a7fd1.png", "brand": "Carrabba's Italian Grill", "brand:wikidata": "Q5045999", "nsi_id": "carrabbasitaliangrill-96af40"}, "geometry": {"type": "Point", "coordinates": [-73.166998, 40.8498809]}},
{"type": "Feature", "id": "9EUZt2rAwxuUDPP0XyWQ-VZs880=", "properties": {"ref": "https://locations.carrabbas.com/#15503114", "@spider": "carrabbasitaliangrill", "amenity": "restaurant", "cuisine": "italian", "addr:street_address": "3340 West Henrietta Road", "addr:city": "Rochester", "addr:state": "NY", "addr:postcode": "14623", "addr:country": "US", "name": "Carrabba's Rochester, NY", "phone": "(585) 292-6120", "website": "https://locations.carrabbas.com/new-york/rochester/3340-west-henrietta-road", "contact:email": "CA8309@carrabbas.com", "opening_hours": "Mo-Th 11:00-21:00; Fr-Sa 11:00-22:00; Su 11:00-21:00", "image": "https://locations.carrabbas.com/permanent-b0b701/assets/images/logo_carrabbas.217a7fd1.png", "brand": "Carrabba's Italian Grill", "brand:wikidata": "Q5045999", "nsi_id": "carrabbasitaliangrill-96af40"}, "geometry": {"type": "Point", "coordinates": [-77.6362888, 43.0862965]}},
{"type": "Feature", "id": "Wgbf2s7S76V4tFJAlx7b-tiIeTQ=", "properties": {"ref": "https://locations.carrabbas.com/#15502898", "@spider": "carrabbasitaliangrill", "amenity": "restaurant", "cuisine": "italian", "addr:street_address": "675 Troy Schenectady Rd Ste 1", "addr:city": "Latham", "addr:state": "NY", "addr:postcode": "12110", "addr:country": "US", "name": "Carrabba's Latham, NY", "phone": "(518) 785-8886", "website": "https://locations.carrabbas.com/new-york/latham/675-troy-schenectady-rd", "contact:email": "CA8306@carrabbas.com", "opening_hours": "Mo-Th 11:00-21:00; Fr-Sa 11:00-22:00; Su 11:00-21:00", "image": "https://locations.carrabbas.com/permanent-b0b701/assets/images/logo_carrabbas.217a7fd1.png", "brand": "Carrabba's Italian Grill", "brand:wikidata": "Q5045999", "nsi_id": "carrabbasitaliangrill-96af40"}, "geometry": {"type": "Point", "coordinates": [-73.7721503, 42.7550904]}},
{"type": "Feature", "id": "ZJxMQBn_IZHZ38vbts9iLvh2t5A=", "properties": {"ref": "https://locations.carrabbas.com/#15503097", "@spider": "carrabbasitaliangrill", "amenity": "restaurant", "cuisine": "italian", "addr:street_address": "550 Towne Drive", "addr:city": "Fayetteville", "addr:state": "NY", "addr:postcode": "13066", "addr:country": "US", "name": "Carrabba's Fayetteville, NY", "phone": "(315) 637-7400", "website": "https://locations.carrabbas.com/new-york/fayetteville/550-towne-drive", "contact:email": "CA8304@carrabbas.com", "opening_hours": "Mo-Th 11:00-21:00; Fr-Sa 11:00-22:00; Su 11:00-21:00", "image": "https://locations.carrabbas.com/permanent-b0b701/assets/images/logo_carrabbas.217a7fd1.png", "brand": "Carrabba's Italian Grill", "brand:wikidata": "Q5045999", "nsi_id": "carrabbasitaliangrill-96af40"}, "geometry": {"type": "Point", "coordinates": [-76.01776067055225, 43.03418869586467]}},
{"type": "Feature", "id": "JR_2MLICORa6HmrVxv1wayeMEbs=", "properties": {"ref": "https://locations.carrabbas.com/#15502995", "@spider": "carrabbasitaliangrill", "amenity": "restaurant", "cuisine": "italian", "addr:street_address": "20 N Research Place", "addr:city": "Central Islip", "addr:state": "NY", "addr:postcode": "11722", "addr:country": "US", "name": "Carrabba's Central Islip, NY", "phone": "(631) 232-1070", "website": "https://locations.carrabbas.com/new-york/central-islip/20-n-research-place", "contact:email": "CA8307@carrabbas.com", "opening_hours": "Mo-Th 11:00-22:00; Fr-Sa 11:00-23:00; Su 11:00-21:00", "image": "https://locations.carrabbas.com/permanent-b0b701/assets/images/logo_carrabbas.217a7fd1.png", "brand": "Carrabba's Italian Grill", "brand:wikidata": "Q5045999", "nsi_id": "carrabbasitaliangrill-96af40"}, "geometry": {"type": "Point", "coordinates": [-73.1997222, 40.7720935]}},
{"type": "Feature", "id": "Tj_eAJVjJvZHA87QejUvJ7S4QZ0=", "properties": {"ref": "https://locations.carrabbas.com/#15502951", "@spider": "carrabbasitaliangrill", "amenity": "restaurant", "cuisine": "italian", "addr:street_address": "1645 Niagara Falls Blvd", "addr:city": "Amherst", "addr:state": "NY", "addr:postcode": "14228", "addr:country": "US", "name": "Carrabba's Amherst, NY", "phone": "(716) 833-5003", "website": "https://locations.carrabbas.com/new-york/amherst/1645-niagara-falls-blvd", "contact:email": "CA8305@carrabbas.com", "opening_hours": "Mo-Sa 11:00-22:00; Su 11:00-21:00", "image": "https://locations.carrabbas.com/permanent-b0b701/assets/images/logo_carrabbas.217a7fd1.png", "brand": "Carrabba's Italian Grill", "brand:wikidata": "Q5045999", "nsi_id": "carrabbasitaliangrill-96af40"}, "geometry": {"type": "Point", "coordinates": [-78.8152956, 42.9997537]}},
{"type": "Feature", "id": "HZDhs4iADkK0FFPt1clWNSONDB4=", "properties": {"ref": "https://locations.carrabbas.com/#15503079", "@spider": "carrabbasitaliangrill", "amenity": "restaurant", "cuisine": "italian", "addr:street_address": "4650 Route 42", "addr:city": "Turnersville", "addr:state": "NJ", "addr:postcode": "08012", "addr:country": "US", "name": "Carrabba's Turnersville, NJ", "phone": "(856) 629-0100", "website": "https://locations.carrabbas.com/new-jersey/turnersville/4650-route-42", "contact:email": "CA3101@carrabbas.com", "opening_hours": "Mo-Th 16:00-21:00; Fr-Sa 11:00-22:00; Su 11:00-21:00", "image": "https://locations.carrabbas.com/permanent-b0b701/assets/images/logo_carrabbas.217a7fd1.png", "brand": "Carrabba's Italian Grill", "brand:wikidata": "Q5045999", "nsi_id": "carrabbasitaliangrill-96af40"}, "geometry": {"type": "Point", "coordinates": [-75.04408146271473, 39.744823705272644]}},
{"type": "Feature", "id": "fGvx_3zU1i4vajjX5MdzZ2YSHic=", "properties": {"ref": "https://locations.carrabbas.com/#15503108", "@spider": "carrabbasitaliangrill", "amenity": "restaurant", "cuisine": "italian", "addr:street_address": "500 Route Nj-38 E", "addr:city": "Maple Shade", "addr:state": "NJ", "addr:postcode": "08052", "addr:country": "US", "name": "Carrabba's Maple Shade, NJ", "phone": "(856) 235-5525", "website": "https://locations.carrabbas.com/new-jersey/maple-shade/500-route-nj-38-e", "contact:email": "CA3102@carrabbas.com", "opening_hours": "Mo-Th 16:00-22:00; Fr-Sa 11:00-23:00; Su 11:00-21:30", "image": "https://locations.carrabbas.com/permanent-b0b701/assets/images/logo_carrabbas.217a7fd1.png", "brand": "Carrabba's Italian Grill", "brand:wikidata": "Q5045999", "nsi_id": "carrabbasitaliangrill-96af40"}, "geometry": {"type": "Point", "coordinates": [-74.9878613, 39.9417197]}},
{"type": "Feature", "id": "H0WrC5l7pz9UBOFmw1zXDwz9p5M=", "properties": {"ref": "https://locations.carrabbas.com/#15503059", "@spider": "carrabbasitaliangrill", "amenity": "restaurant", "cuisine": "italian", "addr:street_address": "200 US Hwy Route 22 West", "addr:city": "Greenbrook", "addr:state": "NJ", "addr:postcode": "08812", "addr:country": "US", "name": "Carrabba's Greenbrook, NJ", "phone": "(732) 424-1200", "website": "https://locations.carrabbas.com/new-jersey/greenbrook/200-us-hwy-route-22-west", "contact:email": "CA8104@carrabbas.com", "opening_hours": "Mo-Th 16:00-22:00; Fr-Sa 11:00-23:00; Su 11:00-21:00", "image": "https://locations.carrabbas.com/permanent-b0b701/assets/images/logo_carrabbas.217a7fd1.png", "brand": "Carrabba's Italian Grill", "brand:wikidata": "Q5045999", "nsi_id": "carrabbasitaliangrill-96af40"}, "geometry": {"type": "Point", "coordinates": [-74.48175104869658, 40.60148252460499]}},
{"type": "Feature", "id": "A9Gc0-76nWT_Kc_omFPK-wqYmmE=", "properties": {"ref": "https://locations.carrabbas.com/#15502994", "@spider": "carrabbasitaliangrill", "amenity": "restaurant", "cuisine": "italian", "addr:street_address": "335 Hwy Nj-18", "addr:city": "E. Brunswick", "addr:state": "NJ", "addr:postcode": "08816", "addr:country": "US", "name": "Carrabba's E. Brunswick, NJ", "phone": "(732) 432-8054", "website": "https://locations.carrabbas.com/new-jersey/e.-brunswick/335-hwy-nj-18", "contact:email": "CA8107@carrabbas.com", "opening_hours": "Mo-Th 11:00-22:00; Fr-Sa 11:00-23:00; Su 11:00-21:00", "image": "https://locations.carrabbas.com/permanent-b0b701/assets/images/logo_carrabbas.217a7fd1.png", "brand": "Carrabba's Italian Grill", "brand:wikidata": "Q5045999", "nsi_id": "carrabbasitaliangrill-96af40"}, "geometry": {"type": "Point", "coordinates": [-74.4001783, 40.4536559]}},
{"type": "Feature", "id": "qOglRqWvVZt9kGnvRzGVgFZxM1Y=", "properties": {"ref": "https://locations.carrabbas.com/#15503035", "@spider": "carrabbasitaliangrill", "amenity": "restaurant", "cuisine": "italian", "addr:street_address": "990 Cedar Bridge Ave Bldg B", "addr:city": "Brick", "addr:state": "NJ", "addr:postcode": "08723", "addr:country": "US", "name": "Carrabba's Brick, NJ", "phone": "(732) 262-3470", "website": "https://locations.carrabbas.com/new-jersey/brick/990-cedar-bridge-ave", "contact:email": "CA3103@carrabbas.com", "opening_hours": "Mo-Th 11:00-22:00; Fr-Sa 11:00-23:00; Su 11:00-21:00", "image": "https://locations.carrabbas.com/permanent-b0b701/assets/images/logo_carrabbas.217a7fd1.png", "brand": "Carrabba's Italian Grill", "brand:wikidata": "Q5045999", "nsi_id": "carrabbasitaliangrill-96af40"}, "geometry": {"type": "Point", "coordinates": [-74.1377485, 40.0542647]}},
{"type": "Feature", "id": "1h0UPj3gVnbPU9f1WNsHKp0OLkM=", "properties": {"ref": "https://locations.carrabbas.com/#15502993", "@spider": "carrabbasitaliangrill", "amenity": "restaurant", "cuisine": "italian", "addr:street_address": "2 Upjohn Street", "addr:city": "Bedford", "addr:state": "NH", "addr:postcode": "03110", "addr:country": "US", "name": "Carrabba's Bedford, NH", "phone": "(603) 641-0004", "website": "https://locations.carrabbas.com/new-hampshire/bedford/2-upjohn-street", "opening_hours": "Mo-Su 12:00-21:00", "image": "https://locations.carrabbas.com/permanent-b0b701/assets/images/logo_carrabbas.217a7fd1.png", "brand": "Carrabba's Italian Grill", "brand:wikidata": "Q5045999", "nsi_id": "carrabbasitaliangrill-96af40"}, "geometry": {"type": "Point", "coordinates": [-71.4769189, 42.9525761]}},
{"type": "Feature", "id": "IY5XHd0ArzrSgjXiptO9SvYz1R4=", "properties": {"ref": "https://locations.carrabbas.com/#15502969", "@spider": "carrabbasitaliangrill", "amenity": "restaurant", "cuisine": "italian", "addr:street_address": "8771 West Charleston Blvd", "addr:city": "Las Vegas", "addr:state": "NV", "addr:postcode": "89117", "addr:country": "US", "name": "Carrabba's Las Vegas, NV", "phone": "(702) 304-2345", "website": "https://locations.carrabbas.com/nevada/las-vegas/8771-west-charleston-blvd", "contact:email": "CA8202@carrabbas.com", "opening_hours": "Mo-Th 16:00-21:00; Fr-Sa 12:00-21:00; Su 11:30-20:00", "image": "https://locations.carrabbas.com/permanent-b0b701/assets/images/logo_carrabbas.217a7fd1.png", "brand": "Carrabba's Italian Grill", "brand:wikidata": "Q5045999", "nsi_id": "carrabbasitaliangrill-96af40"}, "geometry": {"type": "Point", "coordinates": [-115.2863977, 36.1584668]}},
{"type": "Feature", "id": "cgyCrlMNXJ0GlyZ_cN54u-hR0Ns=", "properties": {"ref": "https://locations.carrabbas.com/#15502938", "@spider": "carrabbasitaliangrill", "amenity": "restaurant", "cuisine": "italian", "addr:street_address": "14520 West Maple Road", "addr:city": "Omaha", "addr:state": "NE", "addr:postcode": "68116", "addr:country": "US", "name": "Carrabba's Omaha, NE", "phone": "(402) 492-9500", "website": "https://locations.carrabbas.com/nebraska/omaha/14520-west-maple-road", "contact:email": "CA7801@carrabbas.com", "opening_hours": "Mo-Th 16:00-21:00; Fr 11:30-21:30; Sa 12:00-21:30; Su 11:00-20:30", "image": "https://locations.carrabbas.com/permanent-b0b701/assets/images/logo_carrabbas.217a7fd1.png", "brand": "Carrabba's Italian Grill", "brand:wikidata": "Q5045999", "nsi_id": "carrabbasitaliangrill-96af40"}, "geometry": {"type": "Point", "coordinates": [-96.14077267055225, 41.292907793907354]}},
{"type": "Feature", "id": "AU4D2zzhiDd4MY6fjkMTVFwtD4I=", "properties": {"ref": "https://locations.carrabbas.com/#15503038", "@spider": "carrabbasitaliangrill", "amenity": "restaurant", "cuisine": "italian", "addr:street_address": "10160 South Eastern Ave", "addr:city": "Henderson", "addr:state": "NV", "addr:postcode": "89052", "addr:country": "US", "name": "Carrabba's Henderson, NV", "phone": "(702) 990-0650", "website": "https://locations.carrabbas.com/nevada/henderson/10160-south-eastern-ave", "contact:email": "CA8201@carrabbas.com", "opening_hours": "Mo-Th 11:30-21:00; Fr 11:30-22:00; Sa 12:00-22:00; Su 11:00-20:30", "image": "https://locations.carrabbas.com/permanent-b0b701/assets/images/logo_carrabbas.217a7fd1.png", "brand": "Carrabba's Italian Grill", "brand:wikidata": "Q5045999", "nsi_id": "carrabbasitaliangrill-96af40"}, "geometry": {"type": "Point", "coordinates": [-115.11110431486432, 36.00517923585492]}},
{"type": "Feature", "id": "BIOq1GucoHjBK_1-xTN4qve7qFw=", "properties": {"ref": "https://locations.carrabbas.com/#15503096", "@spider": "carrabbasitaliangrill", "amenity": "restaurant", "cuisine": "italian", "addr:street_address": "19900 Valley View Pkwy", "addr:city": "Independence", "addr:state": "MO", "addr:postcode": "64055", "addr:country": "US", "name": "Carrabba's Independence, MO", "phone": "(816) 795-9944", "website": "https://locations.carrabbas.com/missouri/independence/19900-valley-view-pkwy", "contact:email": "CA7601@carrabbas.com", "opening_hours": "Mo-Th 11:00-22:00; Fr-Sa 11:00-23:00; Su 11:00-21:00", "image": "https://locations.carrabbas.com/permanent-b0b701/assets/images/logo_carrabbas.217a7fd1.png", "brand": "Carrabba's Italian Grill", "brand:wikidata": "Q5045999", "nsi_id": "carrabbasitaliangrill-96af40"}, "geometry": {"type": "Point", "coordinates": [-94.3456352, 39.0387223]}},
{"type": "Feature", "id": "2HZ-iEOfAuyvyZCy-9mPbxESAtU=", "properties": {"ref": "https://locations.carrabbas.com/#15503094", "@spider": "carrabbasitaliangrill", "amenity": "restaurant", "cuisine": "italian", "addr:street_address": "600 West Big Beaver Road", "addr:city": "Troy", "addr:state": "MI", "addr:postcode": "48084", "addr:country": "US", "name": "Carrabba's Troy, MI", "phone": "(248) 269-0095", "website": "https://locations.carrabbas.com/michigan/troy/600-west-big-beaver-road", "contact:email": "CA7309@carrabbas.com", "opening_hours": "Mo-We 16:00-22:00; Th-Sa 11:00-22:00; Su 11:00-21:00", "image": "https://locations.carrabbas.com/permanent-b0b701/assets/images/logo_carrabbas.217a7fd1.png", "brand": "Carrabba's Italian Grill", "brand:wikidata": "Q5045999", "nsi_id": "carrabbasitaliangrill-96af40"}, "geometry": {"type": "Point", "coordinates": [-83.16149945510375, 42.56247991619481]}},
{"type": "Feature", "id": "wBKXg8EuDcSCR6WLKv_7UHqdEkY=", "properties": {"ref": "https://locations.carrabbas.com/#15502992", "@spider": "carrabbasitaliangrill", "amenity": "restaurant", "cuisine": "italian", "addr:street_address": "44695 Schoenherr Road", "addr:city": "Sterling Heights", "addr:state": "MI", "addr:postcode": "48313", "addr:country": "US", "name": "Carrabba's Sterling Heights, MI", "phone": "(586) 323-2652", "website": "https://locations.carrabbas.com/michigan/sterling-heights/44695-schoenherr-road", "contact:email": "CA7306@carrabbas.com", "opening_hours": "Mo-Th 11:00-21:00; Fr-Sa 11:00-22:00; Su 11:00-21:00", "image": "https://locations.carrabbas.com/permanent-b0b701/assets/images/logo_carrabbas.217a7fd1.png", "brand": "Carrabba's Italian Grill", "brand:wikidata": "Q5045999", "nsi_id": "carrabbasitaliangrill-96af40"}, "geometry": {"type": "Point", "coordinates": [-82.9937904, 42.6244952]}},
{"type": "Feature", "id": "V6WWM5Oa8W5XeI7_jhtMdVBeXDM=", "properties": {"ref": "https://locations.carrabbas.com/#15502916", "@spider": "carrabbasitaliangrill", "amenity": "restaurant", "cuisine": "italian", "addr:street_address": "14805 Dix Toledo Road", "addr:city": "Southgate", "addr:state": "MI", "addr:postcode": "48195", "addr:country": "US", "name": "Carrabba's Southgate, MI", "phone": "(734) 284-5339", "website": "https://locations.carrabbas.com/michigan/southgate/14805-dix-toledo-road", "contact:email": "CA7307@carrabbas.com", "opening_hours": "Mo-Th 11:00-22:00; Fr-Sa 11:00-23:00; Su 11:00-21:00", "image": "https://locations.carrabbas.com/permanent-b0b701/assets/images/logo_carrabbas.217a7fd1.png", "brand": "Carrabba's Italian Grill", "brand:wikidata": "Q5045999", "nsi_id": "carrabbasitaliangrill-96af40"}, "geometry": {"type": "Point", "coordinates": [-83.2084759, 42.2005698]}},
{"type": "Feature", "id": "dYetNLH7KwQqD4oHy9fB2yqJyRs=", "properties": {"ref": "https://locations.carrabbas.com/#15502949", "@spider": "carrabbasitaliangrill", "amenity": "restaurant", "cuisine": "italian", "addr:street_address": "5690 S Westnedge Ave", "addr:city": "Portage", "addr:state": "MI", "addr:postcode": "49002", "addr:country": "US", "name": "Carrabba's Portage, MI", "phone": "(269) 381-0607", "website": "https://locations.carrabbas.com/michigan/portage/5690-s-westnedge-ave", "contact:email": "CA7308@carrabbas.com", "opening_hours": "Mo-Th 11:00-22:00; Fr-Sa 11:00-23:00; Su 11:00-21:00", "image": "https://locations.carrabbas.com/permanent-b0b701/assets/images/logo_carrabbas.217a7fd1.png", "brand": "Carrabba's Italian Grill", "brand:wikidata": "Q5045999", "nsi_id": "carrabbasitaliangrill-96af40"}, "geometry": {"type": "Point", "coordinates": [-85.5902364, 42.2344013]}},
{"type": "Feature", "id": "34DLI2KRR8vVQoYFeqg3WWN-PhI=", "properties": {"ref": "https://locations.carrabbas.com/#15503113", "@spider": "carrabbasitaliangrill", "amenity": "restaurant", "cuisine": "italian", "addr:street_address": "43455 West Oaks Drive", "addr:city": "Novi", "addr:state": "MI", "addr:postcode": "48377", "addr:country": "US", "name": "Carrabba's Novi, MI", "phone": "(248) 735-0400", "website": "https://locations.carrabbas.com/michigan/novi/43455-west-oaks-drive", "contact:email": "CA7304@carrabbas.com", "opening_hours": "Mo-Th 11:00-22:00; Fr-Sa 11:00-23:00; Su 11:00-21:00", "image": "https://locations.carrabbas.com/permanent-b0b701/assets/images/logo_carrabbas.217a7fd1.png", "brand": "Carrabba's Italian Grill", "brand:wikidata": "Q5045999", "nsi_id": "carrabbasitaliangrill-96af40"}, "geometry": {"type": "Point", "coordinates": [-83.4771043, 42.4900879]}},
{"type": "Feature", "id": "J3eEZCPECsTwfC1IWVVSwSo4R8Q=", "properties": {"ref": "https://locations.carrabbas.com/#15502918", "@spider": "carrabbasitaliangrill", "amenity": "restaurant", "cuisine": "italian", "addr:street_address": "6540 West Saginaw Hwy", "addr:city": "Lansing", "addr:state": "MI", "addr:postcode": "48917", "addr:country": "US", "name": "Carrabba's Lansing, MI", "phone": "(517) 323-8055", "website": "https://locations.carrabbas.com/michigan/lansing/6540-west-saginaw-hwy", "contact:email": "CA7302@carrabbas.com", "opening_hours": "Mo-Th 16:00-22:00; Fr-Sa 11:00-23:00; Su 11:00-21:00", "image": "https://locations.carrabbas.com/permanent-b0b701/assets/images/logo_carrabbas.217a7fd1.png", "brand": "Carrabba's Italian Grill", "brand:wikidata": "Q5045999", "nsi_id": "carrabbasitaliangrill-96af40"}, "geometry": {"type": "Point", "coordinates": [-84.64661979873571, 42.74165213734931]}},
{"type": "Feature", "id": "wgyFO3cJ2E_cnWQuKmNRCo5Nmsw=", "properties": {"ref": "https://locations.carrabbas.com/#15502991", "@spider": "carrabbasitaliangrill", "amenity": "restaurant", "cuisine": "italian", "addr:street_address": "3441 Century Center Street SW", "addr:city": "Grandville", "addr:state": "MI", "addr:postcode": "49418", "addr:country": "US", "name": "Carrabba's Grandville, MI", "phone": "(616) 261-3020", "website": "https://locations.carrabbas.com/michigan/grandville/3441-century-center-street-sw", "opening_hours": "Mo-Th 16:00-21:00; Fr-Sa 15:00-22:00; Su 15:00-21:00", "image": "https://locations.carrabbas.com/permanent-b0b701/assets/images/logo_carrabbas.217a7fd1.png", "brand": "Carrabba's Italian Grill", "brand:wikidata": "Q5045999", "nsi_id": "carrabbasitaliangrill-96af40"}, "geometry": {"type": "Point", "coordinates": [-85.7492934, 42.8819195]}},
{"type": "Feature", "id": "DG5MNaVj_49hxU32ePYr2Ceh2_k=", "properties": {"ref": "https://locations.carrabbas.com/#15503058", "@spider": "carrabbasitaliangrill", "amenity": "restaurant", "cuisine": "italian", "addr:street_address": "1900 North Haggerty Road", "addr:city": "Canton", "addr:state": "MI", "addr:postcode": "48187", "addr:country": "US", "name": "Carrabba's Canton, MI", "phone": "(734) 844-7400", "website": "https://locations.carrabbas.com/michigan/canton/1900-north-haggerty-road", "contact:email": "CA7303@carrabbas.com", "opening_hours": "Mo-Th 11:00-22:00; Fr-Sa 11:00-23:00; Su 11:00-21:00", "image": "https://locations.carrabbas.com/permanent-b0b701/assets/images/logo_carrabbas.217a7fd1.png", "brand": "Carrabba's Italian Grill", "brand:wikidata": "Q5045999", "nsi_id": "carrabbasitaliangrill-96af40"}, "geometry": {"type": "Point", "coordinates": [-83.4462582, 42.3199686]}},
{"type": "Feature", "id": "I59feFnAZzt5UKrZgGvI8TNRMzI=", "properties": {"ref": "https://locations.carrabbas.com/#15503027", "@spider": "carrabbasitaliangrill", "amenity": "restaurant", "cuisine": "italian", "addr:street_address": "3754 Crain Hwy", "addr:city": "Waldorf", "addr:state": "MD", "addr:postcode": "20602", "addr:country": "US", "name": "Carrabba's Waldorf, MD", "phone": "(301) 645-0094", "website": "https://locations.carrabbas.com/maryland/waldorf/3754-crain-hwy", "opening_hours": "Mo-Th 11:00-22:00; Fr-Sa 11:00-23:00; Su 11:00-21:00", "image": "https://locations.carrabbas.com/permanent-b0b701/assets/images/logo_carrabbas.217a7fd1.png", "brand": "Carrabba's Italian Grill", "brand:wikidata": "Q5045999", "nsi_id": "carrabbasitaliangrill-96af40"}, "geometry": {"type": "Point", "coordinates": [-76.92789062879096, 38.60816762455676]}},
{"type": "Feature", "id": "5B4QyALp91VGl5A265Vq8ADXBIo=", "properties": {"ref": "https://locations.carrabbas.com/#15502989", "@spider": "carrabbasitaliangrill", "amenity": "restaurant", "cuisine": "italian", "addr:street_address": "8030 Ritchie Hwy", "addr:city": "Pasadena", "addr:state": "MD", "addr:postcode": "21122", "addr:country": "US", "name": "Carrabba's Pasadena, MD", "phone": "(410) 863-5960", "website": "https://locations.carrabbas.com/maryland/pasadena/8030-ritchie-hwy", "contact:email": "CA7108@carrabbas.com", "opening_hours": "Mo-Su 11:00-22:00", "image": "https://locations.carrabbas.com/permanent-b0b701/assets/images/logo_carrabbas.217a7fd1.png", "brand": "Carrabba's Italian Grill", "brand:wikidata": "Q5045999", "nsi_id": "carrabbasitaliangrill-96af40"}, "geometry": {"type": "Point", "coordinates": [-76.5924825, 39.1282111]}},
{"type": "Feature", "id": "wldp5YNsdBYTHs-VGz9Ih3zknwg=", "properties": {"ref": "https://locations.carrabbas.com/#15503057", "@spider": "carrabbasitaliangrill", "amenity": "restaurant", "cuisine": "italian", "addr:street_address": "12728 Ocean Gateway", "addr:city": "Ocean City", "addr:state": "MD", "addr:postcode": "21842", "addr:country": "US", "name": "Carrabba's Ocean City, MD", "phone": "(410) 213-0037", "website": "https://locations.carrabbas.com/maryland/ocean-city/12728-ocean-gateway", "contact:email": "CA7109@carrabbas.com", "opening_hours": "Mo-Th 16:00-21:00; Fr 16:00-22:00; Sa 11:00-22:00; Su 11:00-21:00", "image": "https://locations.carrabbas.com/permanent-b0b701/assets/images/logo_carrabbas.217a7fd1.png", "brand": "Carrabba's Italian Grill", "brand:wikidata": "Q5045999", "nsi_id": "carrabbasitaliangrill-96af40"}, "geometry": {"type": "Point", "coordinates": [-75.10880433445746, 38.3363829585311]}},
{"type": "Feature", "id": "Wp_bG2ZBCIpZXC9GT7oJyIupeZA=", "properties": {"ref": "https://locations.carrabbas.com/#15503024", "@spider": "carrabbasitaliangrill", "amenity": "restaurant", "cuisine": "italian", "addr:street_address": "130 Shawan Road", "addr:city": "Hunt Valley", "addr:state": "MD", "addr:postcode": "21031", "addr:country": "US", "name": "Carrabba's Hunt Valley, MD", "phone": "(410) 785-9400", "website": "https://locations.carrabbas.com/maryland/hunt-valley/130-shawan-road", "contact:email": "CA7104@carrabbas.com", "opening_hours": "Mo-Th 11:00-22:00; Fr-Sa 11:00-23:00; Su 11:00-21:00", "image": "https://locations.carrabbas.com/permanent-b0b701/assets/images/logo_carrabbas.217a7fd1.png", "brand": "Carrabba's Italian Grill", "brand:wikidata": "Q5045999", "nsi_id": "carrabbasitaliangrill-96af40"}, "geometry": {"type": "Point", "coordinates": [-76.6583722, 39.4959614]}},
{"type": "Feature", "id": "jDQRl_eL7K-pFu3FD7H_oiEjrzA=", "properties": {"ref": "https://locations.carrabbas.com/#15503093", "@spider": "carrabbasitaliangrill", "amenity": "restaurant", "cuisine": "italian", "addr:street_address": "19935 Century Blvd", "addr:city": "Germantown", "addr:state": "MD", "addr:postcode": "20874", "addr:country": "US", "name": "Carrabba's Germantown, MD", "phone": "(240) 686-1100", "website": "https://locations.carrabbas.com/maryland/germantown/19935-century-blvd", "contact:email": "CA7105@carrabbas.com", "opening_hours": "Mo-Th 11:00-22:00; Fr-Sa 11:00-23:00; Su 11:00-21:00", "image": "https://locations.carrabbas.com/permanent-b0b701/assets/images/logo_carrabbas.217a7fd1.png", "brand": "Carrabba's Italian Grill", "brand:wikidata": "Q5045999", "nsi_id": "carrabbasitaliangrill-96af40"}, "geometry": {"type": "Point", "coordinates": [-77.2616702, 39.1818484]}},
{"type": "Feature", "id": "E7IVj_VDTCRIl-_vCsiE_Ctmr38=", "properties": {"ref": "https://locations.carrabbas.com/#15502914", "@spider": "carrabbasitaliangrill", "amenity": "restaurant", "cuisine": "italian", "addr:street_address": "4430 Long Gate Pkwy", "addr:city": "Ellicott City", "addr:state": "MD", "addr:postcode": "21043", "addr:country": "US", "name": "Carrabba's Ellicott City, MD", "phone": "(410) 461-5200", "website": "https://locations.carrabbas.com/maryland/ellicott-city/4430-long-gate-pkwy", "contact:email": "CA7101@carrabbas.com", "opening_hours": "Mo-Th 11:00-22:00; Fr-Sa 11:00-23:00; Su 11:00-22:00", "image": "https://locations.carrabbas.com/permanent-b0b701/assets/images/logo_carrabbas.217a7fd1.png", "brand": "Carrabba's Italian Grill", "brand:wikidata": "Q5045999", "nsi_id": "carrabbasitaliangrill-96af40"}, "geometry": {"type": "Point", "coordinates": [-76.8151057, 39.2504155]}},
{"type": "Feature", "id": "WkxKeuTb_lEax7Oz1byCxhlLaAE=", "properties": {"ref": "https://locations.carrabbas.com/#15503095", "@spider": "carrabbasitaliangrill", "amenity": "restaurant", "cuisine": "italian", "addr:street_address": "16431 Governor Bridge Road", "addr:city": "Bowie", "addr:state": "MD", "addr:postcode": "20716", "addr:country": "US", "name": "Carrabba's Bowie, MD", "phone": "(301) 809-0500", "website": "https://locations.carrabbas.com/maryland/bowie/16431-governor-bridge-road", "contact:email": "CA7106@carrabbas.com", "opening_hours": "Mo-Th 11:00-22:00; Fr-Sa 11:00-23:00; Su 11:00-21:00", "image": "https://locations.carrabbas.com/permanent-b0b701/assets/images/logo_carrabbas.217a7fd1.png", "brand": "Carrabba's Italian Grill", "brand:wikidata": "Q5045999", "nsi_id": "carrabbasitaliangrill-96af40"}, "geometry": {"type": "Point", "coordinates": [-76.71672518646726, 38.94962933754479]}},
{"type": "Feature", "id": "SoOo7IaXD98tJUfEB0odNdQhBv4=", "properties": {"ref": "https://locations.carrabbas.com/#15502947", "@spider": "carrabbasitaliangrill", "amenity": "restaurant", "cuisine": "italian", "addr:street_address": "7600 Belair Road", "addr:city": "Baltimore", "addr:state": "MD", "addr:postcode": "21236", "addr:country": "US", "name": "Carrabba's Baltimore, MD", "phone": "(410) 661-5444", "website": "https://locations.carrabbas.com/maryland/baltimore/7600-belair-road", "contact:email": "CA7102@carrabbas.com", "opening_hours": "Mo-Th 16:00-22:00; Fr-Sa 11:00-23:00; Su 11:00-21:00", "image": "https://locations.carrabbas.com/permanent-b0b701/assets/images/logo_carrabbas.217a7fd1.png", "brand": "Carrabba's Italian Grill", "brand:wikidata": "Q5045999", "nsi_id": "carrabbasitaliangrill-96af40"}, "geometry": {"type": "Point", "coordinates": [-76.5186045, 39.3660028]}},
{"type": "Feature", "id": "Vy9UlaeTIPduOrxPqdBJ_n-jRvs=", "properties": {"ref": "https://locations.carrabbas.com/#15502988", "@spider": "carrabbasitaliangrill", "amenity": "restaurant", "cuisine": "italian", "addr:street_address": "1706 E 70th Street", "addr:city": "Shreveport", "addr:state": "LA", "addr:postcode": "71105", "addr:country": "US", "name": "Carrabba's Shreveport, LA", "phone": "(318) 798-6504", "website": "https://locations.carrabbas.com/louisiana/shreveport/1706-e-70th-street", "contact:email": "CA6902@carrabbas.com", "opening_hours": "Mo-Th 11:00-22:00; Fr-Sa 11:00-23:00; Su 11:00-21:00", "image": "https://locations.carrabbas.com/permanent-b0b701/assets/images/logo_carrabbas.217a7fd1.png", "brand": "Carrabba's Italian Grill", "brand:wikidata": "Q5045999", "nsi_id": "carrabbasitaliangrill-96af40"}, "geometry": {"type": "Point", "coordinates": [-93.717573, 32.4439525]}},
{"type": "Feature", "id": "LrDHyF-IVoU1OPy60zQUd9O_6Ms=", "properties": {"ref": "https://locations.carrabbas.com/#15502915", "@spider": "carrabbasitaliangrill", "amenity": "restaurant", "cuisine": "italian", "addr:street_address": "4641 Veterans Blvd", "addr:city": "Metairie", "addr:state": "LA", "addr:postcode": "70006", "addr:country": "US", "name": "Carrabba's Metairie, LA", "phone": "(504) 779-2252", "website": "https://locations.carrabbas.com/louisiana/metairie/4641-veterans-blvd", "contact:email": "CA6904@carrabbas.com", "opening_hours": "Mo-Th 11:00-22:00; Fr-Sa 11:00-23:00; Su 11:00-21:00", "image": "https://locations.carrabbas.com/permanent-b0b701/assets/images/logo_carrabbas.217a7fd1.png", "brand": "Carrabba's Italian Grill", "brand:wikidata": "Q5045999", "nsi_id": "carrabbasitaliangrill-96af40"}, "geometry": {"type": "Point", "coordinates": [-90.18765522161023, 30.00604648193088]}},
{"type": "Feature", "id": "tW7zBmnxKmY4Kl5JDyGGY0z4xUc=", "properties": {"ref": "https://locations.carrabbas.com/#15502948", "@spider": "carrabbasitaliangrill", "amenity": "restaurant", "cuisine": "italian", "addr:street_address": "2010 Kaliste Saloom Road", "addr:city": "Lafayette", "addr:state": "LA", "addr:postcode": "70508", "addr:country": "US", "name": "Carrabba's Lafayette, LA", "phone": "(337) 981-6669", "website": "https://locations.carrabbas.com/louisiana/lafayette/2010-kaliste-saloom-road", "contact:email": "CA6903@carrabbas.com", "opening_hours": "Mo-Th 11:00-22:00; Fr-Sa 11:00-23:00; Su 11:00-21:00", "image": "https://locations.carrabbas.com/permanent-b0b701/assets/images/logo_carrabbas.217a7fd1.png", "brand": "Carrabba's Italian Grill", "brand:wikidata": "Q5045999", "nsi_id": "carrabbasitaliangrill-96af40"}, "geometry": {"type": "Point", "coordinates": [-92.0377666, 30.1667686]}},
{"type": "Feature", "id": "DVmB5ZfPs9-jkxC5BWScgvwy8v0=", "properties": {"ref": "https://locations.carrabbas.com/#15503026", "@spider": "carrabbasitaliangrill", "amenity": "restaurant", "cuisine": "italian", "addr:street_address": "7275 Corporate Blvd", "addr:city": "Baton Rouge", "addr:state": "LA", "addr:postcode": "70809", "addr:country": "US", "name": "Carrabba's Baton Rouge, LA", "phone": "(225) 925-9999", "website": "https://locations.carrabbas.com/louisiana/baton-rouge/7275-corporate-blvd", "contact:email": "CA6901@carrabbas.com", "opening_hours": "Mo-Th 11:00-22:00; Fr-Sa 11:00-23:00; Su 11:00-21:00", "image": "https://locations.carrabbas.com/permanent-b0b701/assets/images/logo_carrabbas.217a7fd1.png", "brand": "Carrabba's Italian Grill", "brand:wikidata": "Q5045999", "nsi_id": "carrabbasitaliangrill-96af40"}, "geometry": {"type": "Point", "coordinates": [-91.1157795, 30.4304328]}},
{"type": "Feature", "id": "RgiEJA9PnjYSmAB5e2UBlbIcr-g=", "properties": {"ref": "https://locations.carrabbas.com/#15502912", "@spider": "carrabbasitaliangrill", "amenity": "restaurant", "cuisine": "italian", "addr:street_address": "617 South Hurstbourn Pkwy", "addr:city": "Louisville", "addr:state": "KY", "addr:postcode": "40222", "addr:country": "US", "name": "Carrabba's Louisville, KY", "phone": "(502) 412-2218", "website": "https://locations.carrabbas.com/kentucky/louisville/617-south-hurstbourn-pkwy", "contact:email": "CA6801@carrabbas.com", "opening_hours": "Mo-Fr 16:00-22:00; Sa 11:00-22:00; Su 11:00-21:30", "image": "https://locations.carrabbas.com/permanent-b0b701/assets/images/logo_carrabbas.217a7fd1.png", "brand": "Carrabba's Italian Grill", "brand:wikidata": "Q5045999", "nsi_id": "carrabbasitaliangrill-96af40"}, "geometry": {"type": "Point", "coordinates": [-85.5762739, 38.2378461]}},
{"type": "Feature", "id": "GJe77fLYX4Cdbbd-EYjhC6pVtJw=", "properties": {"ref": "https://locations.carrabbas.com/#15502986", "@spider": "carrabbasitaliangrill", "amenity": "restaurant", "cuisine": "italian", "addr:street_address": "1881 Plaudit Place", "addr:city": "Lexington", "addr:state": "KY", "addr:postcode": "40509", "addr:country": "US", "name": "Carrabba's Lexington, KY", "phone": "(859) 264-8395", "website": "https://locations.carrabbas.com/kentucky/lexington/1881-plaudit-place", "contact:email": "CA6802@carrabbas.com", "opening_hours": "Mo-Th 16:00-22:00; Fr-Sa 11:00-22:00; Su 11:00-21:00", "image": "https://locations.carrabbas.com/permanent-b0b701/assets/images/logo_carrabbas.217a7fd1.png", "brand": "Carrabba's Italian Grill", "brand:wikidata": "Q5045999", "nsi_id": "carrabbasitaliangrill-96af40"}, "geometry": {"type": "Point", "coordinates": [-84.4175468, 38.0180195]}},
{"type": "Feature", "id": "Uxd3ImK3GPcI4QZu2SvulRKGG5Y=", "properties": {"ref": "https://locations.carrabbas.com/#15502987", "@spider": "carrabbasitaliangrill", "amenity": "restaurant", "cuisine": "italian", "addr:street_address": "2899 Dixie Hwy", "addr:city": "Crestview Hills", "addr:state": "KY", "addr:postcode": "41017", "addr:country": "US", "name": "Carrabba's Crestview Hills, KY", "phone": "(859) 344-6163", "website": "https://locations.carrabbas.com/kentucky/crestview-hills/2899-dixie-hwy", "contact:email": "CA6803@carrabbas.com", "opening_hours": "Mo-Sa 11:00-22:00; Su 11:00-21:00", "image": "https://locations.carrabbas.com/permanent-b0b701/assets/images/logo_carrabbas.217a7fd1.png", "brand": "Carrabba's Italian Grill", "brand:wikidata": "Q5045999", "nsi_id": "carrabbasitaliangrill-96af40"}, "geometry": {"type": "Point", "coordinates": [-84.5791638, 39.0268703]}},
{"type": "Feature", "id": "LBdz6unVUNqnO73d_IX4QIeCb6c=", "properties": {"ref": "https://locations.carrabbas.com/#15503056", "@spider": "carrabbasitaliangrill", "amenity": "restaurant", "cuisine": "italian", "addr:street_address": "3409 North Rock Road", "addr:city": "Wichita", "addr:state": "KS", "addr:postcode": "67226", "addr:country": "US", "name": "Carrabba's Wichita, KS", "phone": "(316) 315-0777", "website": "https://locations.carrabbas.com/kansas/wichita/3409-north-rock-road", "contact:email": "CA6702@carrabbas.com", "opening_hours": "Mo-Th 11:00-22:00; Fr-Sa 11:00-23:00; Su 11:00-21:00", "image": "https://locations.carrabbas.com/permanent-b0b701/assets/images/logo_carrabbas.217a7fd1.png", "brand": "Carrabba's Italian Grill", "brand:wikidata": "Q5045999", "nsi_id": "carrabbasitaliangrill-96af40"}, "geometry": {"type": "Point", "coordinates": [-97.2472728, 37.7453909]}},
{"type": "Feature", "id": "m9d2pztcxup77vv-_S0klER0Nko=", "properties": {"ref": "https://locations.carrabbas.com/#15503112", "@spider": "carrabbasitaliangrill", "amenity": "restaurant", "cuisine": "italian", "addr:street_address": "10586 Metcalf Lane", "addr:city": "Overland", "addr:state": "KS", "addr:postcode": "66212", "addr:country": "US", "name": "Carrabba's Overland, KS", "phone": "(913) 385-7811", "website": "https://locations.carrabbas.com/kansas/overland/10586-metcalf-lane", "contact:email": "CA6701@carrabbas.com", "opening_hours": "Mo-Th 11:00-22:00; Fr-Sa 11:00-23:00; Su 11:00-21:00", "image": "https://locations.carrabbas.com/permanent-b0b701/assets/images/logo_carrabbas.217a7fd1.png", "brand": "Carrabba's Italian Grill", "brand:wikidata": "Q5045999", "nsi_id": "carrabbasitaliangrill-96af40"}, "geometry": {"type": "Point", "coordinates": [-94.66855341100414, 38.93649564849732]}},
{"type": "Feature", "id": "i3Y8VUHuxwnNXNg-PMpzqMktIfE=", "properties": {"ref": "https://locations.carrabbas.com/#15503092", "@spider": "carrabbasitaliangrill", "amenity": "restaurant", "cuisine": "italian", "addr:street_address": "4690 Southport Crossing Drive", "addr:city": "Southport", "addr:state": "IN", "addr:postcode": "46237", "addr:country": "US", "name": "Carrabba's Southport, IN", "phone": "(317) 881-4008", "website": "https://locations.carrabbas.com/indiana/southport/4690-southport-crossing-drive", "contact:email": "CA6502@carrabbas.com", "opening_hours": "Mo-Th 16:00-22:00; Fr-Sa 11:00-23:00; Su 11:00-21:00", "image": "https://locations.carrabbas.com/permanent-b0b701/assets/images/logo_carrabbas.217a7fd1.png", "brand": "Carrabba's Italian Grill", "brand:wikidata": "Q5045999", "nsi_id": "carrabbasitaliangrill-96af40"}, "geometry": {"type": "Point", "coordinates": [-86.088059, 39.6636432]}},
{"type": "Feature", "id": "IaWf6X2ntCZgyOzOyWev0gFj1GQ=", "properties": {"ref": "https://locations.carrabbas.com/#15503055", "@spider": "carrabbasitaliangrill", "amenity": "restaurant", "cuisine": "italian", "addr:street_address": "49 Us-41", "addr:city": "Schererville", "addr:state": "IN", "addr:postcode": "46375", "addr:country": "US", "name": "Carrabba's Schererville, IN", "phone": "(219) 322-6097", "website": "https://locations.carrabbas.com/indiana/schererville/49-us-41", "contact:email": "CA6507@carrabbas.com", "opening_hours": "Mo-Th 11:00-22:00; Fr-Sa 11:00-23:00; Su 11:00-21:00", "image": "https://locations.carrabbas.com/permanent-b0b701/assets/images/logo_carrabbas.217a7fd1.png", "brand": "Carrabba's Italian Grill", "brand:wikidata": "Q5045999", "nsi_id": "carrabbasitaliangrill-96af40"}, "geometry": {"type": "Point", "coordinates": [-87.4706899, 41.5218948]}},
{"type": "Feature", "id": "54VuHxE3gIbax2sl3iCOJnPGwCY=", "properties": {"ref": "https://locations.carrabbas.com/#15502913", "@spider": "carrabbasitaliangrill", "amenity": "restaurant", "cuisine": "italian", "addr:street_address": "210 West Day Road", "addr:city": "Mishawaka", "addr:state": "IN", "addr:postcode": "46545", "addr:country": "US", "name": "Carrabba's Mishawaka, IN", "phone": "(574) 247-9460", "website": "https://locations.carrabbas.com/indiana/mishawaka/210-west-day-road", "contact:email": "CA6503@carrabbas.com", "opening_hours": "Mo-Th 11:00-22:00; Fr-Sa 11:00-23:00; Su 11:00-21:00", "image": "https://locations.carrabbas.com/permanent-b0b701/assets/images/logo_carrabbas.217a7fd1.png", "brand": "Carrabba's Italian Grill", "brand:wikidata": "Q5045999", "nsi_id": "carrabbasitaliangrill-96af40"}, "geometry": {"type": "Point", "coordinates": [-86.1843144, 41.6989634]}},
{"type": "Feature", "id": "uu6_YBRGc0Hl7BmRVXQV49bMgb8=", "properties": {"ref": "https://locations.carrabbas.com/#15503025", "@spider": "carrabbasitaliangrill", "amenity": "restaurant", "cuisine": "italian", "addr:street_address": "1001 75th St.", "addr:city": "Woodridge", "addr:state": "IL", "addr:postcode": "60517", "addr:country": "US", "name": "Carrabba's Woodridge, IL", "phone": "(630) 427-0900", "website": "https://locations.carrabbas.com/illinois/woodridge/1001-75th-st.", "contact:email": "CA6401@carrabbas.com", "opening_hours": "Mo-Fr 11:30-22:00; Sa 12:00-22:00; Su 12:00-21:00", "image": "https://locations.carrabbas.com/permanent-b0b701/assets/images/logo_carrabbas.217a7fd1.png", "brand": "Carrabba's Italian Grill", "brand:wikidata": "Q5045999", "nsi_id": "carrabbasitaliangrill-96af40"}, "geometry": {"type": "Point", "coordinates": [-88.0151509, 41.7504502]}},
{"type": "Feature", "id": "qCcGC0WFYRwUxpZTxuDuFvQ5U14=", "properties": {"ref": "https://locations.carrabbas.com/#15502985", "@spider": "carrabbasitaliangrill", "amenity": "restaurant", "cuisine": "italian", "addr:street_address": "10408 Abercorn Street", "addr:city": "Savannah", "addr:state": "GA", "addr:postcode": "31419", "addr:country": "US", "name": "Carrabba's Savannah, GA", "phone": "(912) 961-7073", "website": "https://locations.carrabbas.com/georgia/savannah/10408-abercorn-street", "contact:email": "CA6110@carrabbas.com", "opening_hours": "Mo-Th 11:00-22:00; Fr-Sa 11:00-23:00; Su 11:00-22:00", "image": "https://locations.carrabbas.com/permanent-b0b701/assets/images/logo_carrabbas.217a7fd1.png", "brand": "Carrabba's Italian Grill", "brand:wikidata": "Q5045999", "nsi_id": "carrabbasitaliangrill-96af40"}, "geometry": {"type": "Point", "coordinates": [-81.1307999, 31.9874743]}},
{"type": "Feature", "id": "FGesbRBNugMHkPGdtpbfSoynfT8=", "properties": {"ref": "https://locations.carrabbas.com/#15502945", "@spider": "carrabbasitaliangrill", "amenity": "restaurant", "cuisine": "italian", "addr:street_address": "500 Commerce Drive", "addr:city": "Peachtree City", "addr:state": "GA", "addr:postcode": "30269", "addr:country": "US", "name": "Carrabba's Peachtree City, GA", "phone": "(770) 631-1057", "website": "https://locations.carrabbas.com/georgia/peachtree-city/500-commerce-drive", "contact:email": "CA6113@carrabbas.com", "opening_hours": "Mo-Th 11:00-22:00; Fr-Sa 11:00-23:00; Su 11:00-22:00", "image": "https://locations.carrabbas.com/permanent-b0b701/assets/images/logo_carrabbas.217a7fd1.png", "brand": "Carrabba's Italian Grill", "brand:wikidata": "Q5045999", "nsi_id": "carrabbasitaliangrill-96af40"}, "geometry": {"type": "Point", "coordinates": [-84.5920141, 33.3986691]}},
{"type": "Feature", "id": "N-RqYtk5r2ZtrSKGgiM28qpuKdk=", "properties": {"ref": "https://locations.carrabbas.com/#15503106", "@spider": "carrabbasitaliangrill", "amenity": "restaurant", "cuisine": "italian", "addr:street_address": "1887 Mt Zion Road", "addr:city": "Morrow", "addr:state": "GA", "addr:postcode": "30260", "addr:country": "US", "name": "Carrabba's Morrow, GA", "phone": "(770) 968-3233", "website": "https://locations.carrabbas.com/georgia/morrow/1887-mt-zion-road", "contact:email": "CA1108@carrabbas.com", "opening_hours": "Mo-Th 11:00-22:00; Fr-Sa 11:00-23:00; Su 11:00-22:00", "image": "https://locations.carrabbas.com/permanent-b0b701/assets/images/logo_carrabbas.217a7fd1.png", "brand": "Carrabba's Italian Grill", "brand:wikidata": "Q5045999", "nsi_id": "carrabbasitaliangrill-96af40"}, "geometry": {"type": "Point", "coordinates": [-84.3295121, 33.5674499]}},
{"type": "Feature", "id": "5NPrVuMNMqzV_iKELa-WXmoXnw8=", "properties": {"ref": "https://locations.carrabbas.com/#15502934", "@spider": "carrabbasitaliangrill", "amenity": "restaurant", "cuisine": "italian", "addr:street_address": "3913 River Place Drive", "addr:city": "Macon", "addr:state": "GA", "addr:postcode": "31210", "addr:country": "US", "name": "Carrabba's Macon, GA", "phone": "(478) 474-5115", "website": "https://locations.carrabbas.com/georgia/macon/3913-river-place-drive", "contact:email": "CA1101@carrabbas.com", "opening_hours": "Mo-Th 11:00-22:00; Fr-Sa 11:00-23:00; Su 11:00-22:00", "image": "https://locations.carrabbas.com/permanent-b0b701/assets/images/logo_carrabbas.217a7fd1.png", "brand": "Carrabba's Italian Grill", "brand:wikidata": "Q5045999", "nsi_id": "carrabbasitaliangrill-96af40"}, "geometry": {"type": "Point", "coordinates": [-83.6859075, 32.9056745]}},
{"type": "Feature", "id": "8bOc2rqJnI_DzvV_mnvHt-kJ_wo=", "properties": {"ref": "https://locations.carrabbas.com/#15503111", "@spider": "carrabbasitaliangrill", "amenity": "restaurant", "cuisine": "italian", "addr:street_address": "2030 Sugarloaf Circle", "addr:city": "Duluth", "addr:state": "GA", "addr:postcode": "30097", "addr:country": "US", "name": "Carrabba's Duluth, GA", "phone": "(770) 497-4959", "website": "https://locations.carrabbas.com/georgia/duluth/2030-sugarloaf-circle", "contact:email": "CA6112@carrabbas.com", "opening_hours": "Mo-Th 11:00-22:00; Fr-Sa 11:00-23:00; Su 11:00-22:00", "image": "https://locations.carrabbas.com/permanent-b0b701/assets/images/logo_carrabbas.217a7fd1.png", "brand": "Carrabba's Italian Grill", "brand:wikidata": "Q5045999", "nsi_id": "carrabbasitaliangrill-96af40"}, "geometry": {"type": "Point", "coordinates": [-84.0870524, 33.9878641]}},
{"type": "Feature", "id": "BAfC_0U6XHGTQl9OGo5sZSdfWHw=", "properties": {"ref": "https://locations.carrabbas.com/#15502896", "@spider": "carrabbasitaliangrill", "amenity": "restaurant", "cuisine": "italian", "addr:street_address": "1160 Ernest Barrett Pkwy", "addr:city": "Kennesaw", "addr:state": "GA", "addr:postcode": "30144", "addr:country": "US", "name": "Carrabba's Town Center, GA", "phone": "(770) 499-0338", "website": "https://locations.carrabbas.com/georgia/kennesaw/1160-ernest-barrett-pkwy", "contact:email": "CA1102@carrabbas.com", "opening_hours": "Mo-Th 11:00-22:00; Fr-Sa 11:00-23:00; Su 11:00-22:00", "image": "https://locations.carrabbas.com/permanent-b0b701/assets/images/logo_carrabbas.217a7fd1.png", "brand": "Carrabba's Italian Grill", "brand:wikidata": "Q5045999", "nsi_id": "carrabbasitaliangrill-96af40"}, "geometry": {"type": "Point", "coordinates": [-84.5834221, 34.0014012]}},
{"type": "Feature", "id": "TMkytyaqNTNEFY3Wg4GMnqhrUM4=", "properties": {"ref": "https://locations.carrabbas.com/#15503053", "@spider": "carrabbasitaliangrill", "amenity": "restaurant", "cuisine": "italian", "addr:street_address": "2700 Chapel Hill Road", "addr:city": "Douglasville", "addr:state": "GA", "addr:postcode": "30135", "addr:country": "US", "name": "Carrabba's Douglasville, GA", "phone": "(770) 947-0330", "website": "https://locations.carrabbas.com/georgia/douglasville/2700-chapel-hill-road", "contact:email": "CA6116@carrabbas.com", "opening_hours": "Mo-Th 16:00-22:00; Fr-Sa 11:00-23:00; Su 11:00-22:00", "image": "https://locations.carrabbas.com/permanent-b0b701/assets/images/logo_carrabbas.217a7fd1.png", "brand": "Carrabba's Italian Grill", "brand:wikidata": "Q5045999", "nsi_id": "carrabbasitaliangrill-96af40"}, "geometry": {"type": "Point", "coordinates": [-84.7358752, 33.7322245]}},
{"type": "Feature", "id": "iQW2kSeGeH697W8ArtVGLCKnJbY=", "properties": {"ref": "https://locations.carrabbas.com/#15503091", "@spider": "carrabbasitaliangrill", "amenity": "restaurant", "cuisine": "italian", "addr:street_address": "420 Peachtree Pkwy", "addr:city": "Cumming", "addr:state": "GA", "addr:postcode": "30041", "addr:country": "US", "name": "Carrabba's Cumming, GA", "phone": "(770) 292-9104", "website": "https://locations.carrabbas.com/georgia/cumming/420-peachtree-pkwy", "contact:email": "CA6117@carrabbas.com", "opening_hours": "Mo-Th 11:00-22:00; Fr-Sa 11:00-23:00; Su 11:00-22:00", "image": "https://locations.carrabbas.com/permanent-b0b701/assets/images/logo_carrabbas.217a7fd1.png", "brand": "Carrabba's Italian Grill", "brand:wikidata": "Q5045999", "nsi_id": "carrabbasitaliangrill-96af40"}, "geometry": {"type": "Point", "coordinates": [-84.174794, 34.153309]}},
{"type": "Feature", "id": "021N1Ay-GjB5LnScHpYbN-0Rh_I=", "properties": {"ref": "https://locations.carrabbas.com/#15503006", "@spider": "carrabbasitaliangrill", "amenity": "restaurant", "cuisine": "italian", "addr:street_address": "5555 Whittlesey Blvd Ste H", "addr:city": "Columbus", "addr:state": "GA", "addr:postcode": "31909", "addr:country": "US", "name": "Carrabba's Columbus, GA", "phone": "(706) 494-8144", "website": "https://locations.carrabbas.com/georgia/columbus/5555-whittlesey-blvd", "contact:email": "CA6111@carrabbas.com", "opening_hours": "Mo-Th 15:00-22:00; Fr-Sa 11:00-23:00; Su 11:00-22:00", "image": "https://locations.carrabbas.com/permanent-b0b701/assets/images/logo_carrabbas.217a7fd1.png", "brand": "Carrabba's Italian Grill", "brand:wikidata": "Q5045999", "nsi_id": "carrabbasitaliangrill-96af40"}, "geometry": {"type": "Point", "coordinates": [-84.94478378406141, 32.5463680826069]}},
{"type": "Feature", "id": "Yd-cJ6sA9ZzY66kbtbyKqlolvMI=", "properties": {"ref": "https://locations.carrabbas.com/#15502944", "@spider": "carrabbasitaliangrill", "amenity": "restaurant", "cuisine": "italian", "addr:street_address": "2832 Washington Road", "addr:city": "Augusta", "addr:state": "GA", "addr:postcode": "30909", "addr:country": "US", "name": "Carrabba's Augusta, GA", "phone": "(706) 733-0123", "website": "https://locations.carrabbas.com/georgia/augusta/2832-washington-road", "contact:email": "CA6109@carrabbas.com", "opening_hours": "Mo-Th 11:00-22:00; Fr-Sa 11:00-23:00; Su 11:00-22:00", "image": "https://locations.carrabbas.com/permanent-b0b701/assets/images/logo_carrabbas.217a7fd1.png", "brand": "Carrabba's Italian Grill", "brand:wikidata": "Q5045999", "nsi_id": "carrabbasitaliangrill-96af40"}, "geometry": {"type": "Point", "coordinates": [-82.0348772, 33.5104887]}},
{"type": "Feature", "id": "lz1vxvNSt4ZfWzbOMQBFLEzIYpo=", "properties": {"ref": "https://locations.carrabbas.com/#25897253", "@spider": "carrabbasitaliangrill", "amenity": "restaurant", "cuisine": "italian", "addr:street_address": "6000 N Terminal Pkwy Suite TS3-3", "addr:city": "Atlanta", "addr:state": "GA", "addr:postcode": "30320", "addr:country": "US", "name": "Carrabba's Atlanta, GA", "phone": "(470) 343-7570", "website": "https://locations.carrabbas.com/georgia/atlanta/6000-n-terminal-pkwy", "opening_hours": "Mo-Su 11:00-19:00", "image": "https://locations.carrabbas.com/permanent-b0b701/assets/images/logo_carrabbas.217a7fd1.png", "brand": "Carrabba's Italian Grill", "brand:wikidata": "Q5045999", "nsi_id": "carrabbasitaliangrill-96af40"}, "geometry": {"type": "Point", "coordinates": [-84.4331374, 33.6408667]}},
{"type": "Feature", "id": "2aZxpU0v9pGrcIFJnRgeVRB6Lko=", "properties": {"ref": "https://locations.carrabbas.com/#15502971", "@spider": "carrabbasitaliangrill", "amenity": "restaurant", "cuisine": "italian", "addr:street_address": "2999 Cumberland Blvd", "addr:city": "Atlanta", "addr:state": "GA", "addr:postcode": "30339", "addr:country": "US", "name": "Carrabba's Atlanta, GA", "phone": "(770) 437-1444", "website": "https://locations.carrabbas.com/georgia/atlanta/2999-cumberland-blvd", "contact:email": "CA1105@carrabbas.com", "opening_hours": "Mo-Th 11:00-22:00; Fr-Sa 11:00-23:00; Su 11:00-22:00", "image": "https://locations.carrabbas.com/permanent-b0b701/assets/images/logo_carrabbas.217a7fd1.png", "brand": "Carrabba's Italian Grill", "brand:wikidata": "Q5045999", "nsi_id": "carrabbasitaliangrill-96af40"}, "geometry": {"type": "Point", "coordinates": [-84.473819, 33.881125]}},
{"type": "Feature", "id": "8UgP2XhL-pIaYaB7ZFe40nTkjvg=", "properties": {"ref": "https://locations.carrabbas.com/#15502910", "@spider": "carrabbasitaliangrill", "amenity": "restaurant", "cuisine": "italian", "addr:street_address": "3194 Atlanta Hwy", "addr:city": "Athens", "addr:state": "GA", "addr:postcode": "30606", "addr:country": "US", "name": "Carrabba's Athens, GA", "phone": "(706) 546-9938", "website": "https://locations.carrabbas.com/georgia/athens/3194-atlanta-hwy", "contact:email": "CA6114@carrabbas.com", "opening_hours": "Mo-Th 11:00-22:00; Fr-Sa 11:00-23:00; Su 11:00-22:00", "image": "https://locations.carrabbas.com/permanent-b0b701/assets/images/logo_carrabbas.217a7fd1.png", "brand": "Carrabba's Italian Grill", "brand:wikidata": "Q5045999", "nsi_id": "carrabbasitaliangrill-96af40"}, "geometry": {"type": "Point", "coordinates": [-83.4493905, 33.9411111]}},
{"type": "Feature", "id": "sJb0H7J7u2j6fTe3OIDu7H5oezs=", "properties": {"ref": "https://locations.carrabbas.com/#15503013", "@spider": "carrabbasitaliangrill", "amenity": "restaurant", "cuisine": "italian", "addr:street_address": "5820 Red Bug Lake Road", "addr:city": "Winter Springs", "addr:state": "FL", "addr:postcode": "32708", "addr:country": "US", "name": "Carrabba's Winter Springs, FL", "phone": "(407) 696-6600", "website": "https://locations.carrabbas.com/florida/winter-springs/5820-red-bug-lake-road", "contact:email": "CA6025@carrabbas.com", "opening_hours": "Mo-Th 11:00-22:00; Fr-Sa 11:00-23:00; Su 11:00-21:00", "image": "https://locations.carrabbas.com/permanent-b0b701/assets/images/logo_carrabbas.217a7fd1.png", "brand": "Carrabba's Italian Grill", "brand:wikidata": "Q5045999", "nsi_id": "carrabbasitaliangrill-96af40"}, "geometry": {"type": "Point", "coordinates": [-81.2680148, 28.6487812]}},
{"type": "Feature", "id": "eTksFVPAGDekl8gGTADvAOj9Xi4=", "properties": {"ref": "https://locations.carrabbas.com/#15503047", "@spider": "carrabbasitaliangrill", "amenity": "restaurant", "cuisine": "italian", "addr:street_address": "910 3rd Street SW", "addr:city": "Winter Haven", "addr:state": "FL", "addr:postcode": "33880", "addr:country": "US", "name": "Carrabba's Winter Haven, FL", "phone": "(863) 293-6635", "website": "https://locations.carrabbas.com/florida/winter-haven/910-3rd-street-sw", "contact:email": "CA6035@carrabbas.com", "opening_hours": "Mo-Th 11:00-22:00; Fr-Sa 11:00-23:00; Su 11:00-21:00", "image": "https://locations.carrabbas.com/permanent-b0b701/assets/images/logo_carrabbas.217a7fd1.png", "brand": "Carrabba's Italian Grill", "brand:wikidata": "Q5045999", "nsi_id": "carrabbasitaliangrill-96af40"}, "geometry": {"type": "Point", "coordinates": [-81.7303851, 28.0138911]}},
{"type": "Feature", "id": "KkFhdFXZHtHZfznXjxDZcvO--sY=", "properties": {"ref": "https://locations.carrabbas.com/#15503084", "@spider": "carrabbasitaliangrill", "amenity": "restaurant", "cuisine": "italian", "addr:street_address": "1285 US Hwy 1", "addr:city": "Vero Beach", "addr:state": "FL", "addr:postcode": "32960", "addr:country": "US", "name": "Carrabba's Vero Beach, FL", "phone": "(772) 299-5999", "website": "https://locations.carrabbas.com/florida/vero-beach/1285-us-hwy-1", "contact:email": "CA6029@carrabbas.com", "opening_hours": "Mo-Th 11:00-22:00; Fr-Sa 11:00-23:00; Su 11:00-21:00", "image": "https://locations.carrabbas.com/permanent-b0b701/assets/images/logo_carrabbas.217a7fd1.png", "brand": "Carrabba's Italian Grill", "brand:wikidata": "Q5045999", "nsi_id": "carrabbasitaliangrill-96af40"}, "geometry": {"type": "Point", "coordinates": [-80.3896623, 27.625339]}},
{"type": "Feature", "id": "xUJVKpy1V4b8Yq4YHqXVx1Q4kvw=", "properties": {"ref": "https://locations.carrabbas.com/#15503022", "@spider": "carrabbasitaliangrill", "amenity": "restaurant", "cuisine": "italian", "addr:street_address": "1751 S Tamiami Trail", "addr:city": "Venice", "addr:state": "FL", "addr:postcode": "34293", "addr:country": "US", "name": "Carrabba's Venice, FL", "phone": "(941) 492-4390", "website": "https://locations.carrabbas.com/florida/venice/1751-s-tamiami-trail", "contact:email": "CA6071@carrabbas.com", "opening_hours": "Mo-Th 11:00-22:00; Fr-Sa 11:00-23:00; Su 11:00-21:00", "image": "https://locations.carrabbas.com/permanent-b0b701/assets/images/logo_carrabbas.217a7fd1.png", "brand": "Carrabba's Italian Grill", "brand:wikidata": "Q5045999", "nsi_id": "carrabbasitaliangrill-96af40"}, "geometry": {"type": "Point", "coordinates": [-82.42101605407834, 27.069483361445727]}},
{"type": "Feature", "id": "sUyDanW_5mQ-3i4bGsp9sSDdsEM=", "properties": {"ref": "https://locations.carrabbas.com/#15502940", "@spider": "carrabbasitaliangrill", "amenity": "restaurant", "cuisine": "italian", "addr:street_address": "5425 University Pkwy", "addr:city": "University Park", "addr:state": "FL", "addr:postcode": "34201", "addr:country": "US", "name": "Carrabba's North Sarasota, FL", "phone": "(941) 355-4116", "website": "https://locations.carrabbas.com/florida/university-park/5425-university-pkwy", "contact:email": "CA6023@carrabbas.com", "opening_hours": "Mo-Th 11:00-22:00; Fr-Sa 11:00-23:00; Su 11:00-21:00", "image": "https://locations.carrabbas.com/permanent-b0b701/assets/images/logo_carrabbas.217a7fd1.png", "brand": "Carrabba's Italian Grill", "brand:wikidata": "Q5045999", "nsi_id": "carrabbasitaliangrill-96af40"}, "geometry": {"type": "Point", "coordinates": [-82.4614402, 27.3889781]}},
{"type": "Feature", "id": "1LoVK9XZ2uFh54VLA4kr7dqKW3Q=", "properties": {"ref": "https://locations.carrabbas.com/#15502973", "@spider": "carrabbasitaliangrill", "amenity": "restaurant", "cuisine": "italian", "addr:street_address": "5515 E Fowler Ave", "addr:city": "Temple Terrace", "addr:state": "FL", "addr:postcode": "33617", "addr:country": "US", "name": "Carrabba's Temple Terrace, FL", "phone": "(813) 989-3898", "website": "https://locations.carrabbas.com/florida/temple-terrace/5515-e-fowler-ave", "contact:email": "CA6004@carrabbas.com", "opening_hours": "Mo-Th 11:00-22:00; Fr-Sa 11:00-23:00; Su 11:00-21:00", "image": "https://locations.carrabbas.com/permanent-b0b701/assets/images/logo_carrabbas.217a7fd1.png", "brand": "Carrabba's Italian Grill", "brand:wikidata": "Q5045999", "nsi_id": "carrabbasitaliangrill-96af40"}, "geometry": {"type": "Point", "coordinates": [-82.3942447, 28.0533279]}},
{"type": "Feature", "id": "FBW4KIY_OpuGd_lrl5Mu4F66Z_g=", "properties": {"ref": "https://locations.carrabbas.com/#15503049", "@spider": "carrabbasitaliangrill", "amenity": "restaurant", "cuisine": "italian", "addr:street_address": "650 US Hwy 441 N.", "addr:city": "The Villages", "addr:state": "FL", "addr:postcode": "32159", "addr:country": "US", "name": "Carrabba's The Villages, FL", "phone": "(352) 430-1304", "website": "https://locations.carrabbas.com/florida/the-villages/650-us-hwy-441-n.", "contact:email": "CA6042@carrabbas.com", "opening_hours": "Mo-Th 11:00-21:00; Fr-Sa 11:00-22:00; Su 11:00-21:00", "image": "https://locations.carrabbas.com/permanent-b0b701/assets/images/logo_carrabbas.217a7fd1.png", "brand": "Carrabba's Italian Grill", "brand:wikidata": "Q5045999", "nsi_id": "carrabbasitaliangrill-96af40"}, "geometry": {"type": "Point", "coordinates": [-81.93916070928397, 28.93501334750558]}},
{"type": "Feature", "id": "DqCfqbJ1ix0Zvf8cPN-GnqKq0P4=", "properties": {"ref": "https://locations.carrabbas.com/#15502899", "@spider": "carrabbasitaliangrill", "amenity": "restaurant", "cuisine": "italian", "addr:street_address": "700 N Dale Mabry Hwy", "addr:city": "Tampa", "addr:state": "FL", "addr:postcode": "33609", "addr:country": "US", "name": "Carrabba's South Tampa, FL", "phone": "(813) 875-4411", "website": "https://locations.carrabbas.com/florida/tampa/700-n-dale-mabry-hwy", "contact:email": "CA1004@carrabbas.com", "opening_hours": "Mo-Th 11:00-22:00; Fr-Sa 11:00-23:00; Su 11:00-21:00", "image": "https://locations.carrabbas.com/permanent-b0b701/assets/images/logo_carrabbas.217a7fd1.png", "brand": "Carrabba's Italian Grill", "brand:wikidata": "Q5045999", "nsi_id": "carrabbasitaliangrill-96af40"}, "geometry": {"type": "Point", "coordinates": [-82.5059981, 27.9502678]}},
{"type": "Feature", "id": "IHRMC6Y_Yk_yJsXdyD4E8CGHXtE=", "properties": {"ref": "https://locations.carrabbas.com/#15502930", "@spider": "carrabbasitaliangrill", "amenity": "restaurant", "cuisine": "italian", "addr:street_address": "11435 N Dale Mabry Hwy", "addr:city": "Tampa", "addr:state": "FL", "addr:postcode": "33618", "addr:country": "US", "name": "Carrabba's Carrollwood, FL", "phone": "(813) 265-9844", "website": "https://locations.carrabbas.com/florida/tampa/11435-n-dale-mabry-hwy", "contact:email": "CA1005@carrabbas.com", "opening_hours": "Mo-Th 11:00-22:00; Fr-Sa 11:00-23:00; Su 11:00-21:00", "image": "https://locations.carrabbas.com/permanent-b0b701/assets/images/logo_carrabbas.217a7fd1.png", "brand": "Carrabba's Italian Grill", "brand:wikidata": "Q5045999", "nsi_id": "carrabbasitaliangrill-96af40"}, "geometry": {"type": "Point", "coordinates": [-82.5034882, 28.0525753]}},
{"type": "Feature", "id": "xHF9ihjFTv7H_Nrgn9KFFITKd4Y=", "properties": {"ref": "https://locations.carrabbas.com/#15502977", "@spider": "carrabbasitaliangrill", "amenity": "restaurant", "cuisine": "italian", "addr:street_address": "2779 Capital Circle NE", "addr:city": "Tallahassee", "addr:state": "FL", "addr:postcode": "32308", "addr:country": "US", "name": "Carrabba's Tallahassee, FL", "phone": "(850) 297-1100", "website": "https://locations.carrabbas.com/florida/tallahassee/2779-capital-circle-ne", "contact:email": "CA6021@carrabbas.com", "opening_hours": "Mo-Th 11:00-22:00; Fr-Sa 11:00-23:00; Su 11:00-21:00", "image": "https://locations.carrabbas.com/permanent-b0b701/assets/images/logo_carrabbas.217a7fd1.png", "brand": "Carrabba's Italian Grill", "brand:wikidata": "Q5045999", "nsi_id": "carrabbasitaliangrill-96af40"}, "geometry": {"type": "Point", "coordinates": [-84.2403513, 30.4902143]}},
{"type": "Feature", "id": "I5ujoYxSvZS2IPJthQd6GSzSW_A=", "properties": {"ref": "https://locations.carrabbas.com/#15503041", "@spider": "carrabbasitaliangrill", "amenity": "restaurant", "cuisine": "italian", "addr:street_address": "2700 SE Federal Hwy", "addr:city": "Stuart", "addr:state": "FL", "addr:postcode": "34994", "addr:country": "US", "name": "Carrabba's Stuart, FL", "phone": "(772) 223-6377", "website": "https://locations.carrabbas.com/florida/stuart/2700-se-federal-hwy", "contact:email": "CA1008@carrabbas.com", "opening_hours": "Mo-Th 11:00-22:00; Fr-Sa 11:00-23:00; Su 11:00-21:00", "image": "https://locations.carrabbas.com/permanent-b0b701/assets/images/logo_carrabbas.217a7fd1.png", "brand": "Carrabba's Italian Grill", "brand:wikidata": "Q5045999", "nsi_id": "carrabbasitaliangrill-96af40"}, "geometry": {"type": "Point", "coordinates": [-80.2313036, 27.1712519]}},
{"type": "Feature", "id": "d4VkDEwUuG8hDFB_tj9hx85rVPw=", "properties": {"ref": "https://locations.carrabbas.com/#15503046", "@spider": "carrabbasitaliangrill", "amenity": "restaurant", "cuisine": "italian", "addr:street_address": "3530 Tyrone Blvd", "addr:city": "St. Petersburg", "addr:state": "FL", "addr:postcode": "33710", "addr:country": "US", "name": "Carrabba's St. Petersburg, FL", "phone": "(727) 384-1818", "website": "https://locations.carrabbas.com/florida/st.-petersburg/3530-tyrone-blvd", "contact:email": "CA6020@carrabbas.com", "opening_hours": "Mo-Th 11:00-22:00; Fr-Sa 11:00-23:00; Su 11:00-21:00", "image": "https://locations.carrabbas.com/permanent-b0b701/assets/images/logo_carrabbas.217a7fd1.png", "brand": "Carrabba's Italian Grill", "brand:wikidata": "Q5045999", "nsi_id": "carrabbasitaliangrill-96af40"}, "geometry": {"type": "Point", "coordinates": [-82.7463033, 27.8039301]}},
{"type": "Feature", "id": "91uIRkJ2ZOa9qFsvbF0u_AsnsSM=", "properties": {"ref": "https://locations.carrabbas.com/#15503015", "@spider": "carrabbasitaliangrill", "amenity": "restaurant", "cuisine": "italian", "addr:street_address": "155 Sr 312 West", "addr:city": "St. Augustine", "addr:state": "FL", "addr:postcode": "32086", "addr:country": "US", "name": "Carrabba's St. Augustine, FL", "phone": "(904) 819-9093", "website": "https://locations.carrabbas.com/florida/st.-augustine/155-sr-312-west", "contact:email": "CA6036@carrabbas.com", "opening_hours": "Mo-Th 11:00-22:00; Fr-Sa 11:00-23:00; Su 11:00-21:30", "image": "https://locations.carrabbas.com/permanent-b0b701/assets/images/logo_carrabbas.217a7fd1.png", "brand": "Carrabba's Italian Grill", "brand:wikidata": "Q5045999", "nsi_id": "carrabbasitaliangrill-96af40"}, "geometry": {"type": "Point", "coordinates": [-81.3247651, 29.8661456]}},
{"type": "Feature", "id": "-GbmZuIAerbz-vIbi2E9ifiz2Wc=", "properties": {"ref": "https://locations.carrabbas.com/#15502981", "@spider": "carrabbasitaliangrill", "amenity": "restaurant", "cuisine": "italian", "addr:street_address": "1951 4th Street North", "addr:city": "St. Petersburg", "addr:state": "FL", "addr:postcode": "33704", "addr:country": "US", "name": "Carrabba's St. Petersburg, FL", "phone": "(727) 897-9375", "website": "https://locations.carrabbas.com/florida/st.-petersburg/1951-4th-street-north", "contact:email": "CA6033@carrabbas.com", "opening_hours": "Mo-Th 11:00-22:00; Fr-Sa 11:00-23:00; Su 11:00-21:00", "image": "https://locations.carrabbas.com/permanent-b0b701/assets/images/logo_carrabbas.217a7fd1.png", "brand": "Carrabba's Italian Grill", "brand:wikidata": "Q5045999", "nsi_id": "carrabbasitaliangrill-96af40"}, "geometry": {"type": "Point", "coordinates": [-82.6382627, 27.7902096]}},
{"type": "Feature", "id": "ZHhp7VGdwRTp0Eue5zEkAWZ7blM=", "properties": {"ref": "https://locations.carrabbas.com/#15502975", "@spider": "carrabbasitaliangrill", "amenity": "restaurant", "cuisine": "italian", "addr:street_address": "1940 Stickney Point Road", "addr:city": "Sarasota", "addr:state": "FL", "addr:postcode": "34231", "addr:country": "US", "name": "Carrabba's Sarasota, FL", "phone": "(941) 925-7407", "website": "https://locations.carrabbas.com/florida/sarasota/1940-stickney-point-road", "contact:email": "CA6010@carrabbas.com", "opening_hours": "Mo-Th 15:00-22:00; Fr-Sa 11:00-23:00; Su 11:00-21:00", "image": "https://locations.carrabbas.com/permanent-b0b701/assets/images/logo_carrabbas.217a7fd1.png", "brand": "Carrabba's Italian Grill", "brand:wikidata": "Q5045999", "nsi_id": "carrabbasitaliangrill-96af40"}, "geometry": {"type": "Point", "coordinates": [-82.522951, 27.259048]}},
{"type": "Feature", "id": "e4ISbP99T1lyTmopNMl4O1XYJ7g=", "properties": {"ref": "https://locations.carrabbas.com/#15503089", "@spider": "carrabbasitaliangrill", "amenity": "restaurant", "cuisine": "italian", "addr:street_address": "4675 St. John's Pkwy", "addr:city": "Sanford", "addr:state": "FL", "addr:postcode": "32771", "addr:country": "US", "name": "Carrabba's Sanford, FL", "phone": "(407) 323-7868", "website": "https://locations.carrabbas.com/florida/sanford/4675-st.-john's-pkwy", "contact:email": "CA6069@carrabbas.com", "opening_hours": "Mo-Th 11:00-22:00; Fr-Sa 11:00-23:00; Su 11:00-21:00", "image": "https://locations.carrabbas.com/permanent-b0b701/assets/images/logo_carrabbas.217a7fd1.png", "brand": "Carrabba's Italian Grill", "brand:wikidata": "Q5045999", "nsi_id": "carrabbasitaliangrill-96af40"}, "geometry": {"type": "Point", "coordinates": [-81.3336242, 28.8052135]}},
{"type": "Feature", "id": "Fig6qweaa42_OueUEHn7vLXmTSo=", "properties": {"ref": "https://locations.carrabbas.com/#15503003", "@spider": "carrabbasitaliangrill", "amenity": "restaurant", "cuisine": "italian", "addr:street_address": "10562 US Hwy 98 W Ste 168", "addr:city": "Sandestin", "addr:state": "FL", "addr:postcode": "32550", "addr:country": "US", "name": "Carrabba's Sandestin, FL", "phone": "(850) 837-1140", "website": "https://locations.carrabbas.com/florida/sandestin/10562-us-hwy-98-w", "contact:email": "CA6055@carrabbas.com", "opening_hours": "Mo-Th 11:00-22:00; Fr-Sa 11:00-23:00; Su 11:00-21:00", "image": "https://locations.carrabbas.com/permanent-b0b701/assets/images/logo_carrabbas.217a7fd1.png", "brand": "Carrabba's Italian Grill", "brand:wikidata": "Q5045999", "nsi_id": "carrabbasitaliangrill-96af40"}, "geometry": {"type": "Point", "coordinates": [-86.35140881788296, 30.37881070750721]}},
{"type": "Feature", "id": "Ck-opkfWsok6szH9r5K2X-yd6E4=", "properties": {"ref": "https://locations.carrabbas.com/#15502983", "@spider": "carrabbasitaliangrill", "amenity": "restaurant", "cuisine": "italian", "addr:street_address": "11141 Southern Boulevard", "addr:city": "Royal Palm Beach", "addr:state": "FL", "addr:postcode": "33411", "addr:country": "US", "name": "Carrabba's Royal Palm Beach, FL", "phone": "(561) 793-9980", "website": "https://locations.carrabbas.com/florida/royal-palm-beach/11141-southern-boulevard", "opening_hours": "Mo-Th 11:00-22:00; Fr-Sa 11:00-23:00; Su 11:00-22:00", "image": "https://locations.carrabbas.com/permanent-b0b701/assets/images/logo_carrabbas.217a7fd1.png", "brand": "Carrabba's Italian Grill", "brand:wikidata": "Q5045999", "nsi_id": "carrabbasitaliangrill-96af40"}, "geometry": {"type": "Point", "coordinates": [-80.2241581, 26.6822487]}},
{"type": "Feature", "id": "0zPuVHLL3TX9yy111M7FTV7zCxM=", "properties": {"ref": "https://locations.carrabbas.com/#28130770", "@spider": "carrabbasitaliangrill", "amenity": "restaurant", "cuisine": "italian", "name": "Carrabba's Italian Grill", "website": "https://locations.carrabbas.com/florida/riverview/13025-s-us-301", "image": "https://locations.carrabbas.com/permanent-b0b701/assets/images/logo_carrabbas.217a7fd1.png", "brand": "Carrabba's Italian Grill", "brand:wikidata": "Q5045999", "nsi_id": "carrabbasitaliangrill-96af40"}},
{"type": "Feature", "id": "Z694zVmJGficiy0JHSXOJz5Um14=", "properties": {"ref": "https://locations.carrabbas.com/#15502980", "@spider": "carrabbasitaliangrill", "amenity": "restaurant", "cuisine": "italian", "addr:street_address": "1811 North Tamiami Trail", "addr:city": "Pt. Charlotte", "addr:state": "FL", "addr:postcode": "33948", "addr:country": "US", "name": "Carrabba's Pt. Charlotte, FL", "phone": "(941) 743-5299", "website": "https://locations.carrabbas.com/florida/pt.-charlotte/1811-north-tamiami-trail", "contact:email": "CA6032@carrabbas.com", "opening_hours": "Mo-Th 11:00-22:00; Fr-Sa 11:00-23:00; Su 11:00-21:00", "image": "https://locations.carrabbas.com/permanent-b0b701/assets/images/logo_carrabbas.217a7fd1.png", "brand": "Carrabba's Italian Grill", "brand:wikidata": "Q5045999", "nsi_id": "carrabbasitaliangrill-96af40"}, "geometry": {"type": "Point", "coordinates": [-82.1324227, 27.0055498]}},
{"type": "Feature", "id": "_UsxqfNUfKlk5dOp8wYRvmrZX-o=", "properties": {"ref": "https://locations.carrabbas.com/#15502982", "@spider": "carrabbasitaliangrill", "amenity": "restaurant", "cuisine": "italian", "addr:street_address": "1900 SW Fountainview Blvd", "addr:city": "Port St. Lucie", "addr:state": "FL", "addr:postcode": "34986", "addr:country": "US", "name": "Carrabba's Port St. Lucie, FL", "phone": "(772) 344-5897", "website": "https://locations.carrabbas.com/florida/port-st.-lucie/1900-sw-fountainview-blvd", "contact:email": "CA6044@carrabbas.com", "opening_hours": "Mo-Th 16:00-22:00; Fr-Sa 11:00-23:00; Su 11:00-21:00", "image": "https://locations.carrabbas.com/permanent-b0b701/assets/images/logo_carrabbas.217a7fd1.png", "brand": "Carrabba's Italian Grill", "brand:wikidata": "Q5045999", "nsi_id": "carrabbasitaliangrill-96af40"}, "geometry": {"type": "Point", "coordinates": [-80.4122496, 27.3078763]}},
{"type": "Feature", "id": "ZAEMkL4gb2rAvz2zEK8ljqb7KHg=", "properties": {"ref": "https://locations.carrabbas.com/#15503045", "@spider": "carrabbasitaliangrill", "amenity": "restaurant", "cuisine": "italian", "addr:street_address": "10110 US Hwy 19 N", "addr:city": "Port Richey", "addr:state": "FL", "addr:postcode": "34668", "addr:country": "US", "name": "Carrabba's Port Richey, FL", "phone": "(727) 869-4886", "website": "https://locations.carrabbas.com/florida/port-richey/10110-us-hwy-19-n", "contact:email": "CA6008@carrabbas.com", "opening_hours": "Mo-Th 15:00-22:00; Fr-Sa 11:00-23:00; Su 11:00-21:00", "image": "https://locations.carrabbas.com/permanent-b0b701/assets/images/logo_carrabbas.217a7fd1.png", "brand": "Carrabba's Italian Grill", "brand:wikidata": "Q5045999", "nsi_id": "carrabbasitaliangrill-96af40"}, "geometry": {"type": "Point", "coordinates": [-82.7020432, 28.3044046]}},
{"type": "Feature", "id": "_srHx0R7fCTKTveRDCqsE-8walg=", "properties": {"ref": "https://locations.carrabbas.com/#15503014", "@spider": "carrabbasitaliangrill", "amenity": "restaurant", "cuisine": "italian", "addr:street_address": "1299 South Federal Hwy", "addr:city": "Pompano Beach", "addr:state": "FL", "addr:postcode": "33062", "addr:country": "US", "name": "Carrabba's Pompano Beach, FL", "phone": "(954) 782-2688", "website": "https://locations.carrabbas.com/florida/pompano-beach/1299-south-federal-hwy", "contact:email": "CA6031@carrabbas.com", "opening_hours": "Mo-Th 16:00-22:00; Fr-Sa 11:00-23:00; Su 11:00-22:00", "image": "https://locations.carrabbas.com/permanent-b0b701/assets/images/logo_carrabbas.217a7fd1.png", "brand": "Carrabba's Italian Grill", "brand:wikidata": "Q5045999", "nsi_id": "carrabbasitaliangrill-96af40"}, "geometry": {"type": "Point", "coordinates": [-80.10657327421835, 26.214640516572025]}},
{"type": "Feature", "id": "QtalkHHx7aOY6T-eFOhT0WBfCpo=", "properties": {"ref": "https://locations.carrabbas.com/#15503087", "@spider": "carrabbasitaliangrill", "amenity": "restaurant", "cuisine": "italian", "addr:street_address": "1205 Townsgate Court", "addr:city": "Plant City", "addr:state": "FL", "addr:postcode": "33563", "addr:country": "US", "name": "Carrabba's Plant City, FL", "phone": "(813) 752-0760", "website": "https://locations.carrabbas.com/florida/plant-city/1205-townsgate-court", "contact:email": "CA6052@carrabbas.com", "opening_hours": "Mo-Th 11:00-22:00; Fr-Sa 11:00-23:00; Su 11:00-21:00", "image": "https://locations.carrabbas.com/permanent-b0b701/assets/images/logo_carrabbas.217a7fd1.png", "brand": "Carrabba's Italian Grill", "brand:wikidata": "Q5045999", "nsi_id": "carrabbasitaliangrill-96af40"}, "geometry": {"type": "Point", "coordinates": [-82.14802, 28.0268105]}},
{"type": "Feature", "id": "0-t94HbWIxvocbX7IhWbT-iyUxo=", "properties": {"ref": "https://locations.carrabbas.com/#15502942", "@spider": "carrabbasitaliangrill", "amenity": "restaurant", "cuisine": "italian", "addr:street_address": "311 North 9th Ave", "addr:city": "Pensacola", "addr:state": "FL", "addr:postcode": "32502", "addr:country": "US", "name": "Carrabba's Pensacola, FL", "phone": "(850) 438-0073", "website": "https://locations.carrabbas.com/florida/pensacola/311-north-9th-ave", "contact:email": "CA6034@carrabbas.com", "opening_hours": "Mo-Th 11:00-22:00; Fr-Sa 11:00-23:00; Su 11:00-21:00", "image": "https://locations.carrabbas.com/permanent-b0b701/assets/images/logo_carrabbas.217a7fd1.png", "brand": "Carrabba's Italian Grill", "brand:wikidata": "Q5045999", "nsi_id": "carrabbasitaliangrill-96af40"}, "geometry": {"type": "Point", "coordinates": [-87.2065739, 30.4174882]}},
{"type": "Feature", "id": "33zh4kR6eCy7tpW29U8h3HJy-ZY=", "properties": {"ref": "https://locations.carrabbas.com/#15502907", "@spider": "carrabbasitaliangrill", "amenity": "restaurant", "cuisine": "italian", "addr:street_address": "13820 Panama City Beach Pkwy", "addr:city": "Panama City", "addr:state": "FL", "addr:postcode": "32407", "addr:country": "US", "name": "Carrabba's Panama City, FL", "phone": "(850) 230-4522", "website": "https://locations.carrabbas.com/florida/panama-city/13820-panama-city-beach-pkwy", "contact:email": "CA6051@carrabbas.com", "opening_hours": "Mo-Th 16:00-22:00; Fr-Sa 11:00-23:00; Su 11:00-21:00", "image": "https://locations.carrabbas.com/permanent-b0b701/assets/images/logo_carrabbas.217a7fd1.png", "brand": "Carrabba's Italian Grill", "brand:wikidata": "Q5045999", "nsi_id": "carrabbasitaliangrill-96af40"}, "geometry": {"type": "Point", "coordinates": [-85.84721911835625, 30.210477991632178]}},
{"type": "Feature", "id": "5zQSzyejC1iKoKjZ_kD92F9-mHw=", "properties": {"ref": "https://locations.carrabbas.com/#15503077", "@spider": "carrabbasitaliangrill", "amenity": "restaurant", "cuisine": "italian", "addr:street_address": "33983 US Hwy 19 N", "addr:city": "Palm Harbor", "addr:state": "FL", "addr:postcode": "34684", "addr:country": "US", "name": "Carrabba's Palm Harbor, FL", "phone": "(727) 787-8910", "website": "https://locations.carrabbas.com/florida/palm-harbor/33983-us-hwy-19-n", "contact:email": "CA1003@carrabbas.com", "opening_hours": "Mo-Th 11:00-22:00; Fr-Sa 11:00-23:00; Su 11:00-21:00", "image": "https://locations.carrabbas.com/permanent-b0b701/assets/images/logo_carrabbas.217a7fd1.png", "brand": "Carrabba's Italian Grill", "brand:wikidata": "Q5045999", "nsi_id": "carrabbasitaliangrill-96af40"}, "geometry": {"type": "Point", "coordinates": [-82.738546, 28.0805032]}},
{"type": "Feature", "id": "u6SzyExip1mTvmjzCyWmv6iE9sk=", "properties": {"ref": "https://locations.carrabbas.com/#15503090", "@spider": "carrabbasitaliangrill", "amenity": "restaurant", "cuisine": "italian", "addr:street_address": "160 Cypress Edge Drive", "addr:city": "Palm Coast", "addr:state": "FL", "addr:postcode": "32164", "addr:country": "US", "name": "Carrabba's Palm Coast, FL", "phone": "(386) 246-9839", "website": "https://locations.carrabbas.com/florida/palm-coast/160-cypress-edge-drive", "contact:email": "CA6064@carrabbas.com", "opening_hours": "Mo-Th 11:00-21:00; Fr-Sa 11:00-22:00; Su 11:00-21:00", "image": "https://locations.carrabbas.com/permanent-b0b701/assets/images/logo_carrabbas.217a7fd1.png", "brand": "Carrabba's Italian Grill", "brand:wikidata": "Q5045999", "nsi_id": "carrabbasitaliangrill-96af40"}, "geometry": {"type": "Point", "coordinates": [-81.22334596502972, 29.552442217230873]}},
{"type": "Feature", "id": "RW64aE9dgbf3IGP36_W7aEw43us=", "properties": {"ref": "https://locations.carrabbas.com/#15502905", "@spider": "carrabbasitaliangrill", "amenity": "restaurant", "cuisine": "italian", "addr:street_address": "1575 Palm Bay Road", "addr:city": "Palm Bay", "addr:state": "FL", "addr:postcode": "32905", "addr:country": "US", "name": "Carrabba's Palm Bay, FL", "phone": "(321) 956-1900", "website": "https://locations.carrabbas.com/florida/palm-bay/1575-palm-bay-road", "contact:email": "CA6011@carrabbas.com", "opening_hours": "Mo-Th 11:00-22:00; Fr-Sa 11:00-23:00; Su 11:00-21:00", "image": "https://locations.carrabbas.com/permanent-b0b701/assets/images/logo_carrabbas.217a7fd1.png", "brand": "Carrabba's Italian Grill", "brand:wikidata": "Q5045999", "nsi_id": "carrabbasitaliangrill-96af40"}, "geometry": {"type": "Point", "coordinates": [-80.62402064890979, 28.03574797747487]}},
{"type": "Feature", "id": "59pQp69w3UaoDrKjfMUeHWA3w1I=", "properties": {"ref": "https://locations.carrabbas.com/#15503088", "@spider": "carrabbasitaliangrill", "amenity": "restaurant", "cuisine": "italian", "addr:street_address": "8702 Vineland Ave", "addr:city": "Orlando", "addr:state": "FL", "addr:postcode": "32821", "addr:country": "US", "name": "Carrabba's Orlando, FL", "phone": "(407) 938-0015", "website": "https://locations.carrabbas.com/florida/orlando/8702-vineland-ave", "contact:email": "CA6053@carrabbas.com", "opening_hours": "Mo-Th 11:00-22:00; Fr-Sa 11:00-23:00; Su 11:00-21:00", "image": "https://locations.carrabbas.com/permanent-b0b701/assets/images/logo_carrabbas.217a7fd1.png", "brand": "Carrabba's Italian Grill", "brand:wikidata": "Q5045999", "nsi_id": "carrabbasitaliangrill-96af40"}, "geometry": {"type": "Point", "coordinates": [-81.5006178, 28.3799914]}},
{"type": "Feature", "id": "oJgINDPfelFBxtQUJuUBXSYxQ4o=", "properties": {"ref": "https://locations.carrabbas.com/#15503109", "@spider": "carrabbasitaliangrill", "amenity": "restaurant", "cuisine": "italian", "addr:street_address": "5701 Vineland Road", "addr:city": "Orlando", "addr:state": "FL", "addr:postcode": "32819", "addr:country": "US", "name": "Carrabba's Orlando, FL", "phone": "(407) 355-7277", "website": "https://locations.carrabbas.com/florida/orlando/5701-vineland-road", "contact:email": "CA6030@carrabbas.com", "opening_hours": "Mo-Th 16:00-22:00; Fr 16:00-23:00; Sa 11:00-23:00; Su 11:00-22:00", "image": "https://locations.carrabbas.com/permanent-b0b701/assets/images/logo_carrabbas.217a7fd1.png", "brand": "Carrabba's Italian Grill", "brand:wikidata": "Q5045999", "nsi_id": "carrabbasitaliangrill-96af40"}, "geometry": {"type": "Point", "coordinates": [-81.4572706, 28.4833458]}},
{"type": "Feature", "id": "GbQpSw50r4TIFxt9AtW9QZaytUI=", "properties": {"ref": "https://locations.carrabbas.com/#15502909", "@spider": "carrabbasitaliangrill", "amenity": "restaurant", "cuisine": "italian", "addr:street_address": "8355 International Drive", "addr:city": "Orlando", "addr:state": "FL", "addr:postcode": "32819", "addr:country": "US", "name": "Carrabba's Orlando, FL", "phone": "(407) 351-5494", "website": "https://locations.carrabbas.com/florida/orlando/8355-international-drive", "contact:email": "CA6062@carrabbas.com", "opening_hours": "Mo-Th 11:00-22:00; Fr-Sa 11:00-23:00; Su 11:00-21:00", "image": "https://locations.carrabbas.com/permanent-b0b701/assets/images/logo_carrabbas.217a7fd1.png", "brand": "Carrabba's Italian Grill", "brand:wikidata": "Q5045999", "nsi_id": "carrabbasitaliangrill-96af40"}, "geometry": {"type": "Point", "coordinates": [-81.4699864, 28.4442844]}},
{"type": "Feature", "id": "1E055pLmFtUEXt9rXNFviLERLy8=", "properties": {"ref": "https://locations.carrabbas.com/#15502965", "@spider": "carrabbasitaliangrill", "amenity": "restaurant", "cuisine": "italian", "addr:street_address": "5475 Gateway Village Circle Suite 103", "addr:city": "Orlando", "addr:state": "FL", "addr:postcode": "32812", "addr:country": "US", "name": "Carrabba's Orlando, FL", "phone": "(407) 251-8479", "website": "https://locations.carrabbas.com/florida/orlando/5475-gateway-village-circle", "contact:email": "CA6067@carrabbas.com", "opening_hours": "Mo-Th 11:00-22:00; Fr-Sa 11:00-23:00; Su 11:00-22:00", "image": "https://locations.carrabbas.com/permanent-b0b701/assets/images/logo_carrabbas.217a7fd1.png", "brand": "Carrabba's Italian Grill", "brand:wikidata": "Q5045999", "nsi_id": "carrabbasitaliangrill-96af40"}, "geometry": {"type": "Point", "coordinates": [-81.3109725, 28.4563436]}},
{"type": "Feature", "id": "f_tDRxlXF3uWBBUyP0NW43D1A_0=", "properties": {"ref": "https://locations.carrabbas.com/#15502941", "@spider": "carrabbasitaliangrill", "amenity": "restaurant", "cuisine": "italian", "addr:street_address": "2370 SW College Rd", "addr:city": "Ocala", "addr:state": "FL", "addr:postcode": "34474", "addr:country": "US", "name": "Carrabba's Ocala, FL", "phone": "(352) 867-0240", "website": "https://locations.carrabbas.com/florida/ocala/2370-sw-college-rd", "contact:email": "CA6028@carrabbas.com", "opening_hours": "Mo-Th 11:00-22:00; Fr-Sa 11:00-23:00; Su 11:00-21:00", "image": "https://locations.carrabbas.com/permanent-b0b701/assets/images/logo_carrabbas.217a7fd1.png", "brand": "Carrabba's Italian Grill", "brand:wikidata": "Q5045999", "nsi_id": "carrabbasitaliangrill-96af40"}, "geometry": {"type": "Point", "coordinates": [-82.1630542, 29.170163]}},
{"type": "Feature", "id": "9-Zrjldw48LjB6PzJS_nihZK4bE=", "properties": {"ref": "https://locations.carrabbas.com/#15503017", "@spider": "carrabbasitaliangrill", "amenity": "restaurant", "cuisine": "italian", "addr:street_address": "11201 US Hwy 1", "addr:city": "North Palm Beach", "addr:state": "FL", "addr:postcode": "33408", "addr:country": "US", "name": "Carrabba's North Palm Beach, FL", "phone": "(561) 630-7386", "website": "https://locations.carrabbas.com/florida/north-palm-beach/11201-us-hwy-1", "contact:email": "CA6043@carrabbas.com", "opening_hours": "Mo-Th 15:00-22:00; Fr-Sa 11:00-23:00; Su 11:00-21:00", "image": "https://locations.carrabbas.com/permanent-b0b701/assets/images/logo_carrabbas.217a7fd1.png", "brand": "Carrabba's Italian Grill", "brand:wikidata": "Q5045999", "nsi_id": "carrabbasitaliangrill-96af40"}, "geometry": {"type": "Point", "coordinates": [-80.0628784, 26.839927]}},
{"type": "Feature", "id": "S-DQJ6c0K1OciaKGZg6u_YfGFlA=", "properties": {"ref": "https://locations.carrabbas.com/#15503040", "@spider": "carrabbasitaliangrill", "amenity": "restaurant", "cuisine": "italian", "addr:street_address": "4320 N Tamiami Trail", "addr:city": "Naples", "addr:state": "FL", "addr:postcode": "34103", "addr:country": "US", "name": "Carrabba's Naples, FL", "phone": "(239) 643-7727", "website": "https://locations.carrabbas.com/florida/naples/4320-n-tamiami-trail", "contact:email": "CA1002@carrabbas.com", "opening_hours": "Mo-Th 11:00-22:00; Fr-Sa 11:00-23:00; Su 11:00-21:00", "image": "https://locations.carrabbas.com/permanent-b0b701/assets/images/logo_carrabbas.217a7fd1.png", "brand": "Carrabba's Italian Grill", "brand:wikidata": "Q5045999", "nsi_id": "carrabbasitaliangrill-96af40"}, "geometry": {"type": "Point", "coordinates": [-81.7996834, 26.1999138]}},
{"type": "Feature", "id": "76yNbUQvgSEUDTiQezes6iAi8S8=", "properties": {"ref": "https://locations.carrabbas.com/#15503085", "@spider": "carrabbasitaliangrill", "amenity": "restaurant", "cuisine": "italian", "addr:street_address": "12631 Tamiami Trail E", "addr:city": "Naples", "addr:state": "FL", "addr:postcode": "34113", "addr:country": "US", "name": "Carrabba's Naples, FL", "phone": "(239) 774-2965", "website": "https://locations.carrabbas.com/florida/naples/12631-tamiami-trail-e", "contact:email": "CA6046@carrabbas.com", "opening_hours": "Mo-Th 11:00-22:00; Fr-Sa 11:00-23:00; Su 11:00-21:00", "image": "https://locations.carrabbas.com/permanent-b0b701/assets/images/logo_carrabbas.217a7fd1.png", "brand": "Carrabba's Italian Grill", "brand:wikidata": "Q5045999", "nsi_id": "carrabbasitaliangrill-96af40"}, "geometry": {"type": "Point", "coordinates": [-81.70147351313032, 26.06550203941423]}},
{"type": "Feature", "id": "iGtqg3WePI_SbuBqSWvo4RwTSK0=", "properties": {"ref": "https://locations.carrabbas.com/#15503021", "@spider": "carrabbasitaliangrill", "amenity": "restaurant", "cuisine": "italian", "addr:street_address": "9231 W Flagler Street", "addr:city": "Miami", "addr:state": "FL", "addr:postcode": "33172", "addr:country": "US", "name": "Carrabba's Miami, FL", "phone": "(305) 226-9430", "website": "https://locations.carrabbas.com/florida/miami/9231-w-flagler-street", "contact:email": "CA6066@carrabbas.com", "opening_hours": "Mo-Th 11:00-21:00; Fr-Sa 11:00-22:00; Su 11:00-21:00", "image": "https://locations.carrabbas.com/permanent-b0b701/assets/images/logo_carrabbas.217a7fd1.png", "brand": "Carrabba's Italian Grill", "brand:wikidata": "Q5045999", "nsi_id": "carrabbasitaliangrill-96af40"}, "geometry": {"type": "Point", "coordinates": [-80.3463318, 25.7695912]}},
{"type": "Feature", "id": "LOW4DQwRICFW44lJkzxicibyotU=", "properties": {"ref": "https://locations.carrabbas.com/#15503020", "@spider": "carrabbasitaliangrill", "amenity": "restaurant", "cuisine": "italian", "addr:street_address": "18600 NW 87th Ave", "addr:city": "Miami Lakes", "addr:state": "FL", "addr:postcode": "33018", "addr:country": "US", "name": "Carrabba's Miami Lakes, FL", "phone": "(305) 816-9131", "website": "https://locations.carrabbas.com/florida/miami-lakes/18600-nw-87th-ave", "contact:email": "CA6049@carrabbas.com", "opening_hours": "Mo-Th 11:00-21:00; Fr-Sa 11:00-23:00; Su 11:00-21:00", "image": "https://locations.carrabbas.com/permanent-b0b701/assets/images/logo_carrabbas.217a7fd1.png", "brand": "Carrabba's Italian Grill", "brand:wikidata": "Q5045999", "nsi_id": "carrabbasitaliangrill-96af40"}, "geometry": {"type": "Point", "coordinates": [-80.3443222, 25.943037]}},
{"type": "Feature", "id": "1Ln5CobpQDWlpkpZWN-CCvEqWOo=", "properties": {"ref": "https://locations.carrabbas.com/#15503107", "@spider": "carrabbasitaliangrill", "amenity": "restaurant", "cuisine": "italian", "addr:street_address": "60 Palmetto Avenue", "addr:city": "Merritt Island", "addr:state": "FL", "addr:postcode": "32953", "addr:country": "US", "name": "Carrabba's Merritt Island, FL", "phone": "(321) 453-7045", "website": "https://locations.carrabbas.com/florida/merritt-island/60-palmetto-avenue", "contact:email": "CA6007@carrabbas.com", "opening_hours": "Mo-Sa 11:00-22:00; Su 11:00-21:00", "image": "https://locations.carrabbas.com/permanent-b0b701/assets/images/logo_carrabbas.217a7fd1.png", "brand": "Carrabba's Italian Grill", "brand:wikidata": "Q5045999", "nsi_id": "carrabbasitaliangrill-96af40"}, "geometry": {"type": "Point", "coordinates": [-80.6995882, 28.3580823]}},
{"type": "Feature", "id": "1-KcUBNQbVZlhVDeBfhLJRRk-zk=", "properties": {"ref": "https://locations.carrabbas.com/#15503048", "@spider": "carrabbasitaliangrill", "amenity": "restaurant", "cuisine": "italian", "addr:street_address": "7620 North Wickham Road", "addr:city": "Melbourne", "addr:state": "FL", "addr:postcode": "32940", "addr:country": "US", "name": "Carrabba's Melbourne, FL", "phone": "(321) 253-0991", "website": "https://locations.carrabbas.com/florida/melbourne/7620-north-wickham-road", "contact:email": "CA6037@carrabbas.com", "opening_hours": "Mo-Th 11:00-22:00; Fr-Sa 11:00-23:00; Su 11:00-21:00", "image": "https://locations.carrabbas.com/permanent-b0b701/assets/images/logo_carrabbas.217a7fd1.png", "brand": "Carrabba's Italian Grill", "brand:wikidata": "Q5045999", "nsi_id": "carrabbasitaliangrill-96af40"}, "geometry": {"type": "Point", "coordinates": [-80.6936744, 28.2308484]}},
{"type": "Feature", "id": "-HXtiZKOfczdxDD_q_R3wnd3ohs=", "properties": {"ref": "https://locations.carrabbas.com/#32451822", "@spider": "carrabbasitaliangrill", "amenity": "restaurant", "cuisine": "italian", "name": "Carrabba's Wesley Chapel, FL", "phone": "+18132612691", "website": "https://locations.carrabbas.com/florida/lutz/25298-sierra-center-blvd.", "opening_hours": "Mo-Th 11:00-22:00; Fr-Sa 11:00-23:00; Su 11:00-21:00", "image": "https://locations.carrabbas.com/permanent-b0b701/assets/images/logo_carrabbas.217a7fd1.png", "brand": "Carrabba's Italian Grill", "brand:wikidata": "Q5045999", "nsi_id": "carrabbasitaliangrill-96af40"}, "geometry": {"type": "Point", "coordinates": [-82.39593965447324, 28.192158493209185]}},
{"type": "Feature", "id": "yhsJCkKneLAB5K7_hPzPWlAXr6E=", "properties": {"ref": "https://locations.carrabbas.com/#15503019", "@spider": "carrabbasitaliangrill", "amenity": "restaurant", "cuisine": "italian", "addr:street_address": "16525 Pointe Village Drive", "addr:city": "Lutz", "addr:state": "FL", "addr:postcode": "33558", "addr:country": "US", "name": "Carrabba's Lutz, FL", "phone": "(813) 926-8212", "website": "https://locations.carrabbas.com/florida/lutz/16525-pointe-village-drive", "contact:email": "CA6054@carrabbas.com", "opening_hours": "Mo-Th 11:00-22:00; Fr-Sa 11:00-23:00; Su 11:00-21:00", "image": "https://locations.carrabbas.com/permanent-b0b701/assets/images/logo_carrabbas.217a7fd1.png", "brand": "Carrabba's Italian Grill", "brand:wikidata": "Q5045999", "nsi_id": "carrabbasitaliangrill-96af40"}, "geometry": {"type": "Point", "coordinates": [-82.54155597664555, 28.189647762109836]}},
{"type": "Feature", "id": "3WK_leyIz0HoqQvUNHq_f9r-6UY=", "properties": {"ref": "https://locations.carrabbas.com/#15503082", "@spider": "carrabbasitaliangrill", "amenity": "restaurant", "cuisine": "italian", "addr:street_address": "4829 South Florida Avenue", "addr:city": "Lakeland", "addr:state": "FL", "addr:postcode": "33813", "addr:country": "US", "name": "Carrabba's Lakeland, FL", "phone": "(863) 646-2518", "website": "https://locations.carrabbas.com/florida/lakeland/4829-south-florida-avenue", "contact:email": "CA6013@carrabbas.com", "opening_hours": "Mo-Th 11:00-22:00; Fr-Sa 11:00-23:00; Su 11:00-21:00", "image": "https://locations.carrabbas.com/permanent-b0b701/assets/images/logo_carrabbas.217a7fd1.png", "brand": "Carrabba's Italian Grill", "brand:wikidata": "Q5045999", "nsi_id": "carrabbasitaliangrill-96af40"}, "geometry": {"type": "Point", "coordinates": [-81.9597463, 27.9771807]}},
{"type": "Feature", "id": "oZ2aaL1ik2eQxt7snap744twtss=", "properties": {"ref": "https://locations.carrabbas.com/#15503011", "@spider": "carrabbasitaliangrill", "amenity": "restaurant", "cuisine": "italian", "addr:street_address": "7890 West Irlo Bronson Hwy", "addr:city": "Kissimmee", "addr:state": "FL", "addr:postcode": "34747", "addr:country": "US", "name": "Carrabba's Kissimmee, FL", "phone": "(407) 390-9600", "website": "https://locations.carrabbas.com/florida/kissimmee/7890-west-irlo-bronson-hwy", "contact:email": "CA6019@carrabbas.com", "opening_hours": "Mo-Th 11:00-22:00; Fr-Sa 11:00-23:00; Su 11:00-22:00", "image": "https://locations.carrabbas.com/permanent-b0b701/assets/images/logo_carrabbas.217a7fd1.png", "brand": "Carrabba's Italian Grill", "brand:wikidata": "Q5045999", "nsi_id": "carrabbasitaliangrill-96af40"}, "geometry": {"type": "Point", "coordinates": [-81.6017504, 28.3430442]}},
{"type": "Feature", "id": "Sh5pS5DMJ-BMPCwlmfTFowBnyxE=", "properties": {"ref": "https://locations.carrabbas.com/#15503051", "@spider": "carrabbasitaliangrill", "amenity": "restaurant", "cuisine": "italian", "addr:street_address": "9965 San Jose Blvd Mandarin", "addr:city": "Jacksonville", "addr:state": "FL", "addr:postcode": "32258", "addr:country": "US", "name": "Carrabba's Jacksonville, FL", "phone": "(904) 262-8280", "website": "https://locations.carrabbas.com/florida/jacksonville/9965-san-jose-blvd-mandarin", "contact:email": "CA6060@carrabbas.com", "opening_hours": "Mo-Th 11:00-22:00; Fr-Sa 11:00-23:00; Su 11:00-21:00", "image": "https://locations.carrabbas.com/permanent-b0b701/assets/images/logo_carrabbas.217a7fd1.png", "brand": "Carrabba's Italian Grill", "brand:wikidata": "Q5045999", "nsi_id": "carrabbasitaliangrill-96af40"}, "geometry": {"type": "Point", "coordinates": [-81.6203613, 30.1966454]}},
{"type": "Feature", "id": "QsUGD9trsBNbG3vFfLtvL9Y1iTg=", "properties": {"ref": "https://locations.carrabbas.com/#15503086", "@spider": "carrabbasitaliangrill", "amenity": "restaurant", "cuisine": "italian", "addr:street_address": "12957 Cortez Blvd", "addr:city": "Brooksville", "addr:state": "FL", "addr:postcode": "34613", "addr:country": "US", "name": "Carrabba's Brooksville, FL", "phone": "(352) 597-9805", "website": "https://locations.carrabbas.com/florida/brooksville/12957-cortez-blvd", "contact:email": "CA6047@carrabbas.com", "opening_hours": "Mo-Th 11:00-22:00; Fr-Sa 11:00-23:00; Su 11:00-21:00", "image": "https://locations.carrabbas.com/permanent-b0b701/assets/images/logo_carrabbas.217a7fd1.png", "brand": "Carrabba's Italian Grill", "brand:wikidata": "Q5045999", "nsi_id": "carrabbasitaliangrill-96af40"}, "geometry": {"type": "Point", "coordinates": [-82.5136368, 28.5342097]}},
{"type": "Feature", "id": "LZ1axxhjcCGVVuzgFHVyuTeIhAU=", "properties": {"ref": "https://locations.carrabbas.com/#15502976", "@spider": "carrabbasitaliangrill", "amenity": "restaurant", "cuisine": "italian", "addr:street_address": "801 Providence Road", "addr:city": "Brandon", "addr:state": "FL", "addr:postcode": "33511", "addr:country": "US", "name": "Carrabba's Brandon, FL", "phone": "(813) 657-8166", "website": "https://locations.carrabbas.com/florida/brandon/801-providence-road", "contact:email": "CA6015@carrabbas.com", "opening_hours": "Mo-Th 11:00-22:00; Fr-Sa 11:00-23:00; Su 11:00-22:00", "image": "https://locations.carrabbas.com/permanent-b0b701/assets/images/logo_carrabbas.217a7fd1.png", "brand": "Carrabba's Italian Grill", "brand:wikidata": "Q5045999", "nsi_id": "carrabbasitaliangrill-96af40"}, "geometry": {"type": "Point", "coordinates": [-82.3149616, 27.9252961]}},
{"type": "Feature", "id": "iBJLKpmuE6acZ6vKkTM1BK3xC1U=", "properties": {"ref": "https://locations.carrabbas.com/#15503012", "@spider": "carrabbasitaliangrill", "amenity": "restaurant", "cuisine": "italian", "addr:street_address": "2106 Cortez West", "addr:city": "Bradenton", "addr:state": "FL", "addr:postcode": "34205", "addr:country": "US", "name": "Carrabba's Bradenton, FL", "phone": "(941) 755-7712", "website": "https://locations.carrabbas.com/florida/bradenton/2106-cortez-west", "contact:email": "CA6002@carrabbas.com", "opening_hours": "Mo-Th 11:00-22:00; Fr-Sa 11:00-23:00; Su 11:00-21:00", "image": "https://locations.carrabbas.com/permanent-b0b701/assets/images/logo_carrabbas.217a7fd1.png", "brand": "Carrabba's Italian Grill", "brand:wikidata": "Q5045999", "nsi_id": "carrabbasitaliangrill-96af40"}, "geometry": {"type": "Point", "coordinates": [-82.5832835, 27.4629405]}},
{"type": "Feature", "id": "YvY742evRreE4lK030ifLI_Z5ps=", "properties": {"ref": "https://locations.carrabbas.com/#15503078", "@spider": "carrabbasitaliangrill", "amenity": "restaurant", "cuisine": "italian", "addr:street_address": "1999 N Congress Ave", "addr:city": "Boynton Beach", "addr:state": "FL", "addr:postcode": "33426", "addr:country": "US", "name": "Carrabba's Boynton Beach, FL", "phone": "(561) 734-5152", "website": "https://locations.carrabbas.com/florida/boynton-beach/1999-n-congress-ave", "contact:email": "CA1009@carrabbas.com", "opening_hours": "Mo-Th 11:00-22:00; Fr-Sa 11:00-23:00; Su 11:00-22:00", "image": "https://locations.carrabbas.com/permanent-b0b701/assets/images/logo_carrabbas.217a7fd1.png", "brand": "Carrabba's Italian Grill", "brand:wikidata": "Q5045999", "nsi_id": "carrabbasitaliangrill-96af40"}, "geometry": {"type": "Point", "coordinates": [-80.0934305, 26.5460528]}},
{"type": "Feature", "id": "ZM9iynf2LoHur4UtS18cpdKi35I=", "properties": {"ref": "https://locations.carrabbas.com/#15503105", "@spider": "carrabbasitaliangrill", "amenity": "restaurant", "cuisine": "italian", "addr:street_address": "27220 Bay Landing Drive", "addr:city": "Bonita Springs", "addr:state": "FL", "addr:postcode": "34135", "addr:country": "US", "name": "Carrabba's Bonita Springs, FL", "phone": "(239) 949-0981", "website": "https://locations.carrabbas.com/florida/bonita-springs/27220-bay-landing-drive", "contact:email": "CA6024@carrabbas.com", "opening_hours": "Mo-Th 11:00-22:00; Fr-Sa 11:00-23:00; Su 11:00-21:00", "image": "https://locations.carrabbas.com/permanent-b0b701/assets/images/logo_carrabbas.217a7fd1.png", "brand": "Carrabba's Italian Grill", "brand:wikidata": "Q5045999", "nsi_id": "carrabbasitaliangrill-96af40"}, "geometry": {"type": "Point", "coordinates": [-81.8066881, 26.3455158]}},
{"type": "Feature", "id": "D-nOWXQ_qkqbO0AKlp_fOCHd4uA=", "properties": {"ref": "https://locations.carrabbas.com/#15503044", "@spider": "carrabbasitaliangrill", "amenity": "restaurant", "cuisine": "italian", "addr:street_address": "931 N State Road 434", "addr:city": "Altamonte Springs", "addr:state": "FL", "addr:postcode": "32714", "addr:country": "US", "name": "Carrabba's Altamonte Springs, FL", "phone": "(407) 788-4222", "website": "https://locations.carrabbas.com/florida/altamonte-springs/931-n-state-road-434", "contact:email": "CA6003@carrabbas.com", "opening_hours": "Mo-Th 11:00-22:00; Fr-Sa 11:00-23:00; Su 11:00-21:00", "image": "https://locations.carrabbas.com/permanent-b0b701/assets/images/logo_carrabbas.217a7fd1.png", "brand": "Carrabba's Italian Grill", "brand:wikidata": "Q5045999", "nsi_id": "carrabbasitaliangrill-96af40"}, "geometry": {"type": "Point", "coordinates": [-81.4182183, 28.68102]}},
{"type": "Feature", "id": "Nob15vOAm4WPrM4XF2Koe8S2QuI=", "properties": {"ref": "https://locations.carrabbas.com/#15502943", "@spider": "carrabbasitaliangrill", "amenity": "restaurant", "cuisine": "italian", "addr:street_address": "6909 SW 18th Street", "addr:city": "Boca Raton", "addr:state": "FL", "addr:postcode": "33433", "addr:country": "US", "name": "Carrabba's Boca Raton, FL", "phone": "(561) 544-8838", "website": "https://locations.carrabbas.com/florida/boca-raton/6909-sw-18th-street", "contact:email": "CA6045@carrabbas.com", "opening_hours": "Mo-Th 16:00-22:00; Fr-Sa 11:00-23:00; Su 11:00-22:00", "image": "https://locations.carrabbas.com/permanent-b0b701/assets/images/logo_carrabbas.217a7fd1.png", "brand": "Carrabba's Italian Grill", "brand:wikidata": "Q5045999", "nsi_id": "carrabbasitaliangrill-96af40"}, "geometry": {"type": "Point", "coordinates": [-80.1524352, 26.3334611]}},
{"type": "Feature", "id": "PfoMYdB2kTB8tDxANcxUWRdOdho=", "properties": {"ref": "https://locations.carrabbas.com/#15503004", "@spider": "carrabbasitaliangrill", "amenity": "restaurant", "cuisine": "italian", "addr:street_address": "7401 West 92nd Ave", "addr:city": "Westminster", "addr:state": "CO", "addr:postcode": "80021", "addr:country": "US", "name": "Carrabba's Westminster, CO", "phone": "(303) 940-5620", "website": "https://locations.carrabbas.com/colorado/westminster/7401-west-92nd-ave", "contact:email": "CA601@carrabbas.com", "opening_hours": "Mo-Th 16:00-21:00; Fr 11:30-22:00; Sa 12:00-22:00; Su 11:30-21:00", "image": "https://locations.carrabbas.com/permanent-b0b701/assets/images/logo_carrabbas.217a7fd1.png", "brand": "Carrabba's Italian Grill", "brand:wikidata": "Q5045999", "nsi_id": "carrabbasitaliangrill-96af40"}, "geometry": {"type": "Point", "coordinates": [-105.0811838856059, 39.864735952072465]}},
{"type": "Feature", "id": "H3hkf9v5jFudW1Xwf7zHNQdWMAM=", "properties": {"ref": "https://locations.carrabbas.com/#15502932", "@spider": "carrabbasitaliangrill", "amenity": "restaurant", "cuisine": "italian", "addr:street_address": "1212 Oakridge Drive", "addr:city": "Fort Collins", "addr:state": "CO", "addr:postcode": "80525", "addr:country": "US", "name": "Carrabba's Fort Collins, CO", "phone": "(970) 225-6800", "website": "https://locations.carrabbas.com/colorado/fort-collins/1212-oakridge-drive", "contact:email": "CA605@carrabbas.com", "opening_hours": "Mo-Th 16:00-21:00; Fr 16:00-22:00; Sa 12:00-22:00; Su 11:00-20:30", "image": "https://locations.carrabbas.com/permanent-b0b701/assets/images/logo_carrabbas.217a7fd1.png", "brand": "Carrabba's Italian Grill", "brand:wikidata": "Q5045999", "nsi_id": "carrabbasitaliangrill-96af40"}, "geometry": {"type": "Point", "coordinates": [-105.05489999707335, 40.52312254411019]}},
{"type": "Feature", "id": "hkweMbHsI9SB_iMXIDUwDirm0UE=", "properties": {"ref": "https://locations.carrabbas.com/#15502966", "@spider": "carrabbasitaliangrill", "amenity": "restaurant", "cuisine": "italian", "addr:street_address": "14760 W Colfax Ave", "addr:city": "Denver", "addr:state": "CO", "addr:postcode": "80401", "addr:country": "US", "name": "Carrabba's Denver, CO", "phone": "(303) 279-6151", "website": "https://locations.carrabbas.com/colorado/denver/14760-w-colfax-ave", "contact:email": "test@test.com", "opening_hours": "Mo-Th 11:30-20:30; Fr-Sa 11:30-21:30; Su 11:00-20:30", "image": "https://locations.carrabbas.com/permanent-b0b701/assets/images/logo_carrabbas.217a7fd1.png", "brand": "Carrabba's Italian Grill", "brand:wikidata": "Q5045999", "nsi_id": "carrabbasitaliangrill-96af40"}, "geometry": {"type": "Point", "coordinates": [-105.16502032514859, 39.73153985884666]}},
{"type": "Feature", "id": "S1saJu2AuBhq6IK5ipw-BUQ6Xc4=", "properties": {"ref": "https://locations.carrabbas.com/#15503037", "@spider": "carrabbasitaliangrill", "amenity": "restaurant", "cuisine": "italian", "addr:street_address": "7120 Campus Drive", "addr:city": "Colorado Springs", "addr:state": "CO", "addr:postcode": "80920", "addr:country": "US", "name": "Carrabba's Colorado Springs, CO", "phone": "(719) 264-0401", "website": "https://locations.carrabbas.com/colorado/colorado-springs/7120-campus-drive", "contact:email": "CA607@carrabbas.com", "opening_hours": "Mo-Th 11:30-21:00; Fr 11:30-22:00; Sa 12:00-22:00; Su 11:00-20:30", "image": "https://locations.carrabbas.com/permanent-b0b701/assets/images/logo_carrabbas.217a7fd1.png", "brand": "Carrabba's Italian Grill", "brand:wikidata": "Q5045999", "nsi_id": "carrabbasitaliangrill-96af40"}, "geometry": {"type": "Point", "coordinates": [-104.8109439, 38.9334407]}},
{"type": "Feature", "id": "8XVKHYB4D8hajnwmVdvXGGpKDNI=", "properties": {"ref": "https://locations.carrabbas.com/#15503076", "@spider": "carrabbasitaliangrill", "amenity": "restaurant", "cuisine": "italian", "addr:street_address": "2815 Geyser Drive", "addr:city": "Colorado Springs", "addr:state": "CO", "addr:postcode": "80906", "addr:country": "US", "name": "Carrabba's Colorado Springs, CO", "phone": "(719) 527-1126", "website": "https://locations.carrabbas.com/colorado/colorado-springs/2815-geyser-drive", "contact:email": "test@test.com", "opening_hours": "Mo-Th 11:30-21:00; Fr 11:30-22:00; Sa 12:00-22:00; Su 11:00-20:30", "image": "https://locations.carrabbas.com/permanent-b0b701/assets/images/logo_carrabbas.217a7fd1.png", "brand": "Carrabba's Italian Grill", "brand:wikidata": "Q5045999", "nsi_id": "carrabbasitaliangrill-96af40"}, "geometry": {"type": "Point", "coordinates": [-104.796642, 38.7919465]}},
{"type": "Feature", "id": "ZeZAek9_qMQqGh-SnEuw65KHbRY=", "properties": {"ref": "https://locations.carrabbas.com/#15503002", "@spider": "carrabbasitaliangrill", "amenity": "restaurant", "cuisine": "italian", "addr:street_address": "2088 S Abilene Street", "addr:city": "Aurora", "addr:state": "CO", "addr:postcode": "80014", "addr:country": "US", "name": "Carrabba's Aurora, CO", "phone": "(303) 338-8600", "website": "https://locations.carrabbas.com/colorado/aurora/2088-s-abilene-street", "contact:email": "test@test.com", "opening_hours": "Mo-Th 16:00-21:00; Fr 11:30-22:00; Sa 12:00-22:00; Su 11:30-20:30", "image": "https://locations.carrabbas.com/permanent-b0b701/assets/images/logo_carrabbas.217a7fd1.png", "brand": "Carrabba's Italian Grill", "brand:wikidata": "Q5045999", "nsi_id": "carrabbasitaliangrill-96af40"}, "geometry": {"type": "Point", "coordinates": [-104.8274311722944, 39.678324212276216]}},
{"type": "Feature", "id": "Qt7qmIKXBFIBsqFv7hnqTu1__VM=", "properties": {"ref": "https://locations.carrabbas.com/#15503036", "@spider": "carrabbasitaliangrill", "amenity": "restaurant", "cuisine": "italian", "addr:street_address": "14043 W. Bell Road", "addr:city": "Surprise", "addr:state": "AZ", "addr:postcode": "85374", "addr:country": "US", "name": "Carrabba's Surprise, AZ", "phone": "(623) 214-3299", "website": "https://locations.carrabbas.com/arizona/surprise/14043-w.-bell-road", "contact:email": "CA5306@carrabbas.com", "opening_hours": "Mo-Th 15:00-21:00; Fr 15:00-22:00; Sa 12:00-22:00; Su 11:00-21:00", "image": "https://locations.carrabbas.com/permanent-b0b701/assets/images/logo_carrabbas.217a7fd1.png", "brand": "Carrabba's Italian Grill", "brand:wikidata": "Q5045999", "nsi_id": "carrabbasitaliangrill-96af40"}, "geometry": {"type": "Point", "coordinates": [-112.36256578173028, 33.63817362173091]}},
{"type": "Feature", "id": "VzuKWbGptOvXKps0D5clakGLQm8=", "properties": {"ref": "https://locations.carrabbas.com/#15502968", "@spider": "carrabbasitaliangrill", "amenity": "restaurant", "cuisine": "italian", "addr:street_address": "7635 N Oracle Road", "addr:city": "Oro Valley", "addr:state": "AZ", "addr:postcode": "85737", "addr:country": "US", "name": "Carrabba's Oro Valley, AZ", "phone": "(520) 742-7442", "website": "https://locations.carrabbas.com/arizona/oro-valley/7635-n-oracle-road", "contact:email": "CA5307@carrabbas.com", "opening_hours": "Mo-Th 15:00-21:00; Fr-Sa 11:30-22:00; Su 11:00-21:00", "image": "https://locations.carrabbas.com/permanent-b0b701/assets/images/logo_carrabbas.217a7fd1.png", "brand": "Carrabba's Italian Grill", "brand:wikidata": "Q5045999", "nsi_id": "carrabbasitaliangrill-96af40"}, "geometry": {"type": "Point", "coordinates": [-110.97664881056515, 32.34656620696832]}},
{"type": "Feature", "id": "KajdSqEk51Qyqv--jPXPDqYr_gE=", "properties": {"ref": "https://locations.carrabbas.com/#15503000", "@spider": "carrabbasitaliangrill", "amenity": "restaurant", "cuisine": "italian", "addr:street_address": "1740 S Clearview Ave", "addr:city": "Mesa", "addr:state": "AZ", "addr:postcode": "85208", "addr:country": "US", "name": "Carrabba's Mesa, AZ", "phone": "(480) 654-9099", "website": "https://locations.carrabbas.com/arizona/mesa/1740-s-clearview-ave", "contact:email": "CA5301@carrabbas.com", "opening_hours": "Mo-Th 15:00-21:00; Fr-Sa 12:00-22:00; Su 11:00-21:00", "image": "https://locations.carrabbas.com/permanent-b0b701/assets/images/logo_carrabbas.217a7fd1.png", "brand": "Carrabba's Italian Grill", "brand:wikidata": "Q5045999", "nsi_id": "carrabbasitaliangrill-96af40"}, "geometry": {"type": "Point", "coordinates": [-111.67956059755325, 33.38473016592922]}},
{"type": "Feature", "id": "rjMEQHfa_qJn6rN2o4Rt9qsYJ4s=", "properties": {"ref": "https://locations.carrabbas.com/#15503001", "@spider": "carrabbasitaliangrill", "amenity": "restaurant", "cuisine": "italian", "addr:street_address": "5646 West Bell Road", "addr:city": "Glendale", "addr:state": "AZ", "addr:postcode": "85308", "addr:country": "US", "name": "Carrabba's Glendale, AZ", "phone": "(602) 863-6444", "website": "https://locations.carrabbas.com/arizona/glendale/5646-west-bell-road", "contact:email": "CA5302@carrabbas.com", "opening_hours": "Mo-Th 16:00-21:00; Fr-Sa 11:00-22:00; Su 11:00-21:00", "image": "https://locations.carrabbas.com/permanent-b0b701/assets/images/logo_carrabbas.217a7fd1.png", "brand": "Carrabba's Italian Grill", "brand:wikidata": "Q5045999", "nsi_id": "carrabbasitaliangrill-96af40"}, "geometry": {"type": "Point", "coordinates": [-112.1808854, 33.6392496]}},
{"type": "Feature", "id": "t9ED50XCe_2q3miu-Emnro2-IAg=", "properties": {"ref": "https://locations.carrabbas.com/#15502897", "@spider": "carrabbasitaliangrill", "amenity": "restaurant", "cuisine": "italian", "addr:street_address": "2709 S Market Street", "addr:city": "Gilbert", "addr:state": "AZ", "addr:postcode": "85296", "addr:country": "US", "name": "Carrabba's Gilbert, AZ", "phone": "(480) 726-7455", "website": "https://locations.carrabbas.com/arizona/gilbert/2709-s-market-street", "contact:email": "CA5310@carrabbas.com", "opening_hours": "Mo-Th 15:00-21:00; Fr-Sa 12:00-22:00; Su 11:00-21:00", "image": "https://locations.carrabbas.com/permanent-b0b701/assets/images/logo_carrabbas.217a7fd1.png", "brand": "Carrabba's Italian Grill", "brand:wikidata": "Q5045999", "nsi_id": "carrabbasitaliangrill-96af40"}, "geometry": {"type": "Point", "coordinates": [-111.7432538, 33.3011307]}},
{"type": "Feature", "id": "DlPcnC8bGS3NQOhpf3XaQsnAGOA=", "properties": {"ref": "https://locations.carrabbas.com/#15502933", "@spider": "carrabbasitaliangrill", "amenity": "restaurant", "cuisine": "italian", "addr:street_address": "1060 North 54th Street", "addr:city": "Chandler", "addr:state": "AZ", "addr:postcode": "85226", "addr:country": "US", "name": "Carrabba's Chandler, AZ", "phone": "(480) 785-8586", "website": "https://locations.carrabbas.com/arizona/chandler/1060-north-54th-street", "contact:email": "CA5303@carrabbas.com", "opening_hours": "Mo-Th 15:00-21:00; Fr-Sa 12:00-22:00; Su 11:00-21:00", "image": "https://locations.carrabbas.com/permanent-b0b701/assets/images/logo_carrabbas.217a7fd1.png", "brand": "Carrabba's Italian Grill", "brand:wikidata": "Q5045999", "nsi_id": "carrabbasitaliangrill-96af40"}, "geometry": {"type": "Point", "coordinates": [-111.9697599, 33.3211424]}},
{"type": "Feature", "id": "E9IOHwf1QUD0yOosSfdTPdH6hnk=", "properties": {"ref": "https://locations.carrabbas.com/#15503070", "@spider": "carrabbasitaliangrill", "amenity": "restaurant", "cuisine": "italian", "addr:street_address": "9920 W McDowell Road", "addr:city": "Avondale", "addr:state": "AZ", "addr:postcode": "85323", "addr:country": "US", "name": "Carrabba's Avondale, AZ", "phone": "(623) 936-0597", "website": "https://locations.carrabbas.com/arizona/avondale/9920-w-mcdowell-road", "contact:email": "CA5308@carrabbas.com", "opening_hours": "Mo-Th 11:30-21:00; Fr-Sa 11:30-22:00; Su 11:00-21:00", "image": "https://locations.carrabbas.com/permanent-b0b701/assets/images/logo_carrabbas.217a7fd1.png", "brand": "Carrabba's Italian Grill", "brand:wikidata": "Q5045999", "nsi_id": "carrabbasitaliangrill-96af40"}, "geometry": {"type": "Point", "coordinates": [-112.2739696, 33.4651745]}},
{"type": "Feature", "id": "AbHDhoXo22k67eRJvk2DUwcGJBQ=", "properties": {"ref": "https://locations.carrabbas.com/#15503023", "@spider": "carrabbasitaliangrill", "amenity": "restaurant", "cuisine": "italian", "addr:street_address": "3917 Airport Blvd", "addr:city": "Mobile", "addr:state": "AL", "addr:postcode": "36608", "addr:country": "US", "name": "Carrabba's Mobile, AL", "phone": "(251) 342-3662", "website": "https://locations.carrabbas.com/alabama/mobile/3917-airport-blvd", "contact:email": "CA6202@carrabbas.com", "opening_hours": "Mo-Th 11:00-22:00; Fr-Sa 11:00-23:00; Su 11:00-21:00", "image": "https://locations.carrabbas.com/permanent-b0b701/assets/images/logo_carrabbas.217a7fd1.png", "brand": "Carrabba's Italian Grill", "brand:wikidata": "Q5045999", "nsi_id": "carrabbasitaliangrill-96af40"}, "geometry": {"type": "Point", "coordinates": [-88.145341, 30.6754259]}},
{"type": "Feature", "id": "5CNfCvtLZPLaKK_zBkHz9Nbq8VU=", "properties": {"ref": "https://locations.carrabbas.com/#15502946", "@spider": "carrabbasitaliangrill", "amenity": "restaurant", "cuisine": "italian", "addr:street_address": "2801 S Memorial Pkwy", "addr:city": "Huntsville", "addr:state": "AL", "addr:postcode": "35801", "addr:country": "US", "name": "Carrabba's Huntsville, AL", "phone": "(256) 288-1333", "website": "https://locations.carrabbas.com/alabama/huntsville/2801-s-memorial-pkwy", "contact:email": "CA6204@carrabbas.com", "opening_hours": "Mo-Th 11:00-21:00; Fr-Sa 11:00-22:00; Su 11:00-21:00", "image": "https://locations.carrabbas.com/permanent-b0b701/assets/images/logo_carrabbas.217a7fd1.png", "brand": "Carrabba's Italian Grill", "brand:wikidata": "Q5045999", "nsi_id": "carrabbasitaliangrill-96af40"}, "geometry": {"type": "Point", "coordinates": [-86.58747349206541, 34.707141832246805]}},
{"type": "Feature", "id": "EvjPQ3sRCqFup919yv0PLiOFd64=", "properties": {"ref": "https://locations.carrabbas.com/#15503054", "@spider": "carrabbasitaliangrill", "amenity": "restaurant", "cuisine": "italian", "addr:street_address": "4503 Riverview Pkwy", "addr:city": "Birmingham", "addr:state": "AL", "addr:postcode": "35242", "addr:country": "US", "name": "Carrabba's Birmingham, AL", "phone": "(205) 980-1016", "website": "https://locations.carrabbas.com/alabama/birmingham/4503-riverview-pkwy", "contact:email": "https://www.carrabbas.com/careers", "opening_hours": "Mo-Th 11:00-22:00; Fr-Sa 11:00-23:00; Su 11:00-22:00", "image": "https://locations.carrabbas.com/permanent-b0b701/assets/images/logo_carrabbas.217a7fd1.png", "brand": "Carrabba's Italian Grill", "brand:wikidata": "Q5045999", "nsi_id": "carrabbasitaliangrill-96af40"}, "geometry": {"type": "Point", "coordinates": [-86.7109434, 33.428498]}}]}