{"type":"FeatureCollection","features":[{"type": "Feature", "id": "ypoBp3XM9pPgaUId26k09PdXc5A=", "properties": {"ref": "241 20th Street South, Birmingham", "@spider": "cava", "amenity": "restaurant", "cuisine": "mediterranean", "addr:street_address": "241 20th Street South, Birmingham", "addr:city": "20 Midtown", "addr:state": "AL", "addr:postcode": "35233", "name": "CAVA", "phone": "659-241-2841", "opening_hours": "Mo-Su 10:45-22:00", "brand": "Cava", "brand:wikidata": "Q85751038", "nsi_id": "cava-96af40"}},
{"type": "Feature", "id": "BRkebgI29hnubVvCkgcnhv9wZJ0=", "properties": {"ref": "5247 Highway 280, Birmingham", "@spider": "cava", "amenity": "restaurant", "cuisine": "mediterranean", "addr:street_address": "5247 Highway 280, Birmingham", "addr:city": "Brook Highlands", "addr:state": "AL", "addr:postcode": "35242", "name": "CAVA", "phone": "659-250-0657", "opening_hours": "Mo-Su 10:45-22:00", "brand": "Cava", "brand:wikidata": "Q85751038", "nsi_id": "cava-96af40"}},
{"type": "Feature", "id": "XHKd1Z12jZCQgS7EB9SeQvrVX9w=", "properties": {"ref": "1830 29th Ave S, Ste 115, Birmingham", "@spider": "cava", "amenity": "restaurant", "cuisine": "mediterranean", "addr:street_address": "1830 29th Ave S, Ste 115, Birmingham", "addr:city": "SoHo", "addr:state": "AL", "addr:postcode": "35209", "name": "CAVA", "phone": "659-599-8131", "opening_hours": "Mo-Su 10:45-22:00", "brand": "Cava", "brand:wikidata": "Q85751038", "nsi_id": "cava-96af40"}},
{"type": "Feature", "id": "oMLtwBOdevbBvnmB_wtg2MsNPgM=", "properties": {"ref": "4800 Whitesburg Drive, Ste 42, Huntsville", "@spider": "cava", "amenity": "restaurant", "cuisine": "mediterranean", "addr:street_address": "4800 Whitesburg Drive, Ste 42, Huntsville", "addr:city": "Whitesburg", "addr:state": "AL", "addr:postcode": "35802", "name": "CAVA", "phone": "256-696-5970", "opening_hours": "Mo-Su 10:45-22:00", "brand": "Cava", "brand:wikidata": "Q85751038", "nsi_id": "cava-96af40"}},
{"type": "Feature", "id": "fv0b35WcRdZvXFSmoPsD8D366Rg=", "properties": {"ref": "2960 Zelda Rd, Montgomery", "@spider": "cava", "amenity": "restaurant", "cuisine": "mediterranean", "addr:street_address": "2960 Zelda Rd, Montgomery", "addr:city": "Zelda", "addr:state": "AL", "addr:postcode": "36106", "name": "CAVA", "phone": "334-398-6652", "opening_hours": "Mo-Su 10:45-22:00", "brand": "Cava", "brand:wikidata": "Q85751038", "nsi_id": "cava-96af40"}},
{"type": "Feature", "id": "S7dZirvBMNjSknpQG8Q7z44Obfk=", "properties": {"ref": "3379 N. College Ave, Ste 8, Fayetteville", "@spider": "cava", "amenity": "restaurant", "cuisine": "mediterranean", "addr:street_address": "3379 N. College Ave, Ste 8, Fayetteville", "addr:city": "College Marketplace", "addr:state": "AR", "addr:postcode": "72703", "name": "CAVA", "phone": "479-396-4278", "opening_hours": "Mo-Su 10:45-22:00", "brand": "Cava", "brand:wikidata": "Q85751038", "nsi_id": "cava-96af40"}},
{"type": "Feature", "id": "sTtrymLBMSn90LKmYbTETcODEZc=", "properties": {"ref": " 4007 W. Walnut Street, Rogers", "@spider": "cava", "amenity": "restaurant", "cuisine": "mediterranean", "addr:street_address": " 4007 W. Walnut Street, Rogers", "addr:city": "Rogers", "addr:state": "AR", "addr:postcode": "72756", "name": "CAVA", "phone": "479-391-4336", "opening_hours": "Mo-Su 10:45-22:00", "brand": "Cava", "brand:wikidata": "Q85751038", "nsi_id": "cava-96af40"}},
{"type": "Feature", "id": "TMxx0hJRJQpgBgiyhlubWYxoWA4=", "properties": {"ref": "4355 East Indian School Rd, Phoenix", "@spider": "cava", "amenity": "restaurant", "cuisine": "mediterranean", "addr:street_address": "4355 East Indian School Rd, Phoenix", "addr:city": "Arcadia", "addr:state": "AZ", "addr:postcode": "85018", "name": "CAVA", "phone": "623-887-0695", "opening_hours": "Mo-Su 10:45-22:00", "brand": "Cava", "brand:wikidata": "Q85751038", "nsi_id": "cava-96af40"}},
{"type": "Feature", "id": "N82STrm-vxMGAGenG7Tz6xF4uRo=", "properties": {"ref": "1641 East Camelback Rd, Phoenix", "@spider": "cava", "amenity": "restaurant", "cuisine": "mediterranean", "addr:street_address": "1641 East Camelback Rd, Phoenix", "addr:city": "Camelback", "addr:state": "AZ", "addr:postcode": "85016", "name": "CAVA", "phone": "602-649-6020", "opening_hours": "Mo-Su 10:45-22:00", "brand": "Cava", "brand:wikidata": "Q85751038", "nsi_id": "cava-96af40"}},
{"type": "Feature", "id": "yD8ayVk-ewReimUCl5go9GFIM-A=", "properties": {"ref": "14601 North Scottsdale, Suite 107, Scottsdale", "@spider": "cava", "amenity": "restaurant", "cuisine": "mediterranean", "addr:street_address": "14601 North Scottsdale, Suite 107, Scottsdale", "addr:city": "North Scottsdale", "addr:state": "AZ", "addr:postcode": "85254", "name": "CAVA", "phone": " 602-805-7957", "opening_hours": "Mo-Su 10:45-22:00", "brand": "Cava", "brand:wikidata": "Q85751038", "nsi_id": "cava-96af40"}},
{"type": "Feature", "id": "XnuMZQL0hQwe11gKurDQIJIZzx8=", "properties": {"ref": "8162 East Santa Ana Canyon Rd, Anaheim", "@spider": "cava", "amenity": "restaurant", "cuisine": "mediterranean", "addr:street_address": "8162 East Santa Ana Canyon Rd, Anaheim", "addr:city": "Anaheim Hills", "addr:state": "CA", "addr:postcode": "92808", "name": "CAVA", "phone": "714-782-7478", "opening_hours": "Mo-Su 10:45-22:00", "brand": "Cava", "brand:wikidata": "Q85751038", "nsi_id": "cava-96af40"}},
{"type": "Feature", "id": "-Bt0vd5Nv5yhN7AiZ9UtZuCidbs=", "properties": {"ref": "350 East 17th Street, Costa Mesa", "@spider": "cava", "amenity": "restaurant", "cuisine": "mediterranean", "addr:street_address": "350 East 17th Street, Costa Mesa", "addr:city": "Costa Mesa", "addr:state": "CA", "addr:postcode": "92627", "name": "CAVA", "phone": "949-200-7637", "opening_hours": "Mo-Su 10:45-22:00", "brand": "Cava", "brand:wikidata": "Q85751038", "nsi_id": "cava-96af40"}},
{"type": "Feature", "id": "3y7sQUgexdRcV6EojfIqUVAq454=", "properties": {"ref": "9343 Culver Blvd, Culver City", "@spider": "cava", "amenity": "restaurant", "cuisine": "mediterranean", "addr:street_address": "9343 Culver Blvd, Culver City", "addr:city": "Culver City", "addr:state": "CA", "addr:postcode": "90232", "name": "CAVA", "phone": "323-230-5027", "opening_hours": "Mo-Su 10:45-22:00", "brand": "Cava", "brand:wikidata": "Q85751038", "nsi_id": "cava-96af40"}},
{"type": "Feature", "id": "EM6x0zCkR1DAMgiX_LdOnkI_jE8=", "properties": {"ref": "3722 Paseo Place, Suite 1440, San Diego", "@spider": "cava", "amenity": "restaurant", "cuisine": "mediterranean", "addr:street_address": "3722 Paseo Place, Suite 1440, San Diego", "addr:city": "Del Mar", "addr:state": "CA", "addr:postcode": "92130", "name": "CAVA", "phone": "619-407-7100", "opening_hours": "Mo-Su 10:45-22:00", "brand": "Cava", "brand:wikidata": "Q85751038", "nsi_id": "cava-96af40"}},
{"type": "Feature", "id": "JPn_aP7nP7FsEkZgv5ld_PZKla0=", "properties": {"ref": "860 S. Pacific Coast Highway, Suite 116, El Segundo", "@spider": "cava", "amenity": "restaurant", "cuisine": "mediterranean", "addr:street_address": "860 S. Pacific Coast Highway, Suite 116, El Segundo", "addr:city": "El Segundo", "addr:state": "CA", "addr:postcode": "90245", "name": "CAVA", "phone": "(424) 208-1089", "opening_hours": "Mo-Su 10:45-22:00", "brand": "Cava", "brand:wikidata": "Q85751038", "nsi_id": "cava-96af40"}},
{"type": "Feature", "id": "vK4v9-wMmedccTH7r2ynjN28yjQ=", "properties": {"ref": "1042 N. El Camino Real, Encinitas", "@spider": "cava", "amenity": "restaurant", "cuisine": "mediterranean", "addr:street_address": "1042 N. El Camino Real, Encinitas", "addr:city": "Encinitas", "addr:state": "CA", "addr:postcode": "92024", "name": "CAVA", "phone": "442-200-6002", "opening_hours": "Mo-Su 10:45-22:00", "brand": "Cava", "brand:wikidata": "Q85751038", "nsi_id": "cava-96af40"}},
{"type": "Feature", "id": "HhTSpcCpDH_DuTxEOysfTVtqmQU=", "properties": {"ref": "3972 Barranca Parkway, Irvine", "@spider": "cava", "amenity": "restaurant", "cuisine": "mediterranean", "addr:street_address": "3972 Barranca Parkway, Irvine", "addr:city": "Irvine", "addr:state": "CA", "addr:postcode": "92606", "name": "CAVA", "phone": "949-200-7998", "opening_hours": "Mo-Su 10:45-22:00", "brand": "Cava", "brand:wikidata": "Q85751038", "nsi_id": "cava-96af40"}},
{"type": "Feature", "id": "XrVnQMIoISyGgX6g-zO825xNknM=", "properties": {"ref": "8849 Villa La Jolla Drive, Unit 301, La Jolla", "@spider": "cava", "amenity": "restaurant", "cuisine": "mediterranean", "addr:street_address": "8849 Villa La Jolla Drive, Unit 301, La Jolla", "addr:city": "La Jolla", "addr:state": "CA", "addr:postcode": "92037", "name": "CAVA", "phone": "858-433-0346", "opening_hours": "Mo-Su 10:45-22:00", "brand": "Cava", "brand:wikidata": "Q85751038", "nsi_id": "cava-96af40"}},
{"type": "Feature", "id": "TnievXt5G8Kn43uDMwfMB6TQrm8=", "properties": {"ref": "1652 Camino Del Rio N, San Diego", "@spider": "cava", "amenity": "restaurant", "cuisine": "mediterranean", "addr:street_address": "1652 Camino Del Rio N, San Diego", "addr:city": "Mission Valley", "addr:state": "CA", "addr:postcode": "92108", "name": "CAVA", "phone": "619-320-6320", "opening_hours": "Mo-Su 10:45-22:00", "brand": "Cava", "brand:wikidata": "Q85751038", "nsi_id": "cava-96af40"}},
{"type": "Feature", "id": "fjh_mAvwSAQymuU3g1IBiOM9E6U=", "properties": {"ref": "27750 Crown Valley Parkway, Mission Viejo", "@spider": "cava", "amenity": "restaurant", "cuisine": "mediterranean", "addr:street_address": "27750 Crown Valley Parkway, Mission Viejo", "addr:city": "Mission Viejo", "addr:state": "CA", "addr:postcode": "92691", "name": "CAVA", "phone": "949-200-7662", "opening_hours": "Mo-Su 10:45-22:00", "brand": "Cava", "brand:wikidata": "Q85751038", "nsi_id": "cava-96af40"}},
{"type": "Feature", "id": "4tO58Rbk6ZL3fqPJ-WgoOUWcR2k=", "properties": {"ref": "345 South Lake Avenue, Pasadena", "@spider": "cava", "amenity": "restaurant", "cuisine": "mediterranean", "addr:street_address": "345 South Lake Avenue, Pasadena", "addr:city": "Pasadena", "addr:state": "CA", "addr:postcode": "91101", "name": "CAVA", "phone": "626-389-8775", "opening_hours": "Mo-Su 10:45-22:00", "brand": "Cava", "brand:wikidata": "Q85751038", "nsi_id": "cava-96af40"}},
{"type": "Feature", "id": "poSP1b9XrEApehI-utBtKvAjRpE=", "properties": {"ref": "20165 Rinaldi Street, Suite 106, Los Angeles", "@spider": "cava", "amenity": "restaurant", "cuisine": "mediterranean", "addr:street_address": "20165 Rinaldi Street, Suite 106, Los Angeles", "addr:city": "Porter Ranch", "addr:state": "CA", "addr:postcode": "91326", "name": "CAVA", "phone": "626-995-3178", "opening_hours": "Mo-Su 10:45-22:00", "brand": "Cava", "brand:wikidata": "Q85751038", "nsi_id": "cava-96af40"}},
{"type": "Feature", "id": "HIYfsZjK9gf5qtiXTVwqi-i3Ctg=", "properties": {"ref": "1318 Second Street, Suite A, Santa Monica", "@spider": "cava", "amenity": "restaurant", "cuisine": "mediterranean", "addr:street_address": "1318 Second Street, Suite A, Santa Monica", "addr:city": "Santa Monica", "addr:state": "CA", "addr:postcode": "90401", "name": "CAVA", "phone": "310-237-5591", "opening_hours": "Mo-Su 10:45-22:00", "brand": "Cava", "brand:wikidata": "Q85751038", "nsi_id": "cava-96af40"}},
{"type": "Feature", "id": "attCTyTUowqdtWB6jR1BsZng578=", "properties": {"ref": "3201 S. Hoover Street, Los Angeles", "@spider": "cava", "amenity": "restaurant", "cuisine": "mediterranean", "addr:street_address": "3201 S. Hoover Street, Los Angeles", "addr:city": "USC Village", "addr:state": "CA", "addr:postcode": "90089", "name": "CAVA", "phone": "213-212-9838", "opening_hours": "Mo-Su 10:45-22:00", "brand": "Cava", "brand:wikidata": "Q85751038", "nsi_id": "cava-96af40"}},
{"type": "Feature", "id": "zYj3B0vKaEK3p2pFkRikAWhd9NQ=", "properties": {"ref": "6256 Topanga Canyon Blvd, Suite 1280, Woodland Hills", "@spider": "cava", "amenity": "restaurant", "cuisine": "mediterranean", "addr:street_address": "6256 Topanga Canyon Blvd, Suite 1280, Woodland Hills", "addr:city": "Village at Topanga", "addr:state": "CA", "addr:postcode": "91367", "name": "CAVA", "phone": "818-860-7670", "opening_hours": "Mo-Su 10:45-22:00", "brand": "Cava", "brand:wikidata": "Q85751038", "nsi_id": "cava-96af40"}},
{"type": "Feature", "id": "_uvF36IyaBqkrnZuojE6j7gwJdw=", "properties": {"ref": "1073 Broxton Avenue, Los Angeles", "@spider": "cava", "amenity": "restaurant", "cuisine": "mediterranean", "addr:street_address": "1073 Broxton Avenue, Los Angeles", "addr:city": "Westwood Village", "addr:state": "CA", "addr:postcode": "90024", "name": "CAVA", "phone": "310-860-6288", "opening_hours": "Mo-Su 10:45-22:00", "brand": "Cava", "brand:wikidata": "Q85751038", "nsi_id": "cava-96af40"}},
{"type": "Feature", "id": "M-Oj7OQc_nNmYb3CkfbBLCFzx8g=", "properties": {"ref": "4084 E. 8th Pl, Denver", "@spider": "cava", "amenity": "restaurant", "cuisine": "mediterranean", "addr:street_address": "4084 E. 8th Pl, Denver", "addr:city": "9th & Colorado", "addr:state": "CO", "addr:postcode": "80230", "name": "CAVA", "phone": "970-713-2084", "opening_hours": "Mo-Su 10:45-22:00", "brand": "Cava", "brand:wikidata": "Q85751038", "nsi_id": "cava-96af40"}},
{"type": "Feature", "id": "jueQSzEP_yPvm575yfZoaMr85Fg=", "properties": {"ref": "1695 29th Street, Suite 1248, Boulder", "@spider": "cava", "amenity": "restaurant", "cuisine": "mediterranean", "addr:street_address": "1695 29th Street, Suite 1248, Boulder", "addr:city": "Boulder", "addr:state": "CO", "addr:postcode": "80301", "name": "CAVA", "phone": "720-414-5088", "opening_hours": "Mo-Su 10:45-22:00", "brand": "Cava", "brand:wikidata": "Q85751038", "nsi_id": "cava-96af40"}},
{"type": "Feature", "id": "lnLrgemWT-OioUKktXAaoKdz8Vk=", "properties": {"ref": "4987 Factory Shops Blvd, Unit 100, Castle Rock", "@spider": "cava", "amenity": "restaurant", "cuisine": "mediterranean", "addr:street_address": "4987 Factory Shops Blvd, Unit 100, Castle Rock", "addr:city": "Castle Rock", "addr:state": "CO", "addr:postcode": "80108", "name": "CAVA", "phone": "720-418-7218", "opening_hours": "Mo-Su 10:45-22:00", "brand": "Cava", "brand:wikidata": "Q85751038", "nsi_id": "cava-96af40"}},
{"type": "Feature", "id": "ALrum7707vxfQJtlwP5MNqkgQiU=", "properties": {"ref": "2023 S Colorado Blvd, Suite 101, Denver", "@spider": "cava", "amenity": "restaurant", "cuisine": "mediterranean", "addr:street_address": "2023 S Colorado Blvd, Suite 101, Denver", "addr:city": "Colorado Boulevard South", "addr:state": "CO", "addr:postcode": "80222", "name": "CAVA", "phone": "303-539-6937", "opening_hours": "Mo-Su 10:45-22:00", "brand": "Cava", "brand:wikidata": "Q85751038", "nsi_id": "cava-96af40"}},
{"type": "Feature", "id": "fiI2xbVMqH5JICy0_dFM5lzYwnY=", "properties": {"ref": "3100 S College Ave, Fort Collins", "@spider": "cava", "amenity": "restaurant", "cuisine": "mediterranean", "addr:street_address": "3100 S College Ave, Fort Collins", "addr:city": "Fort Collins", "addr:state": "CO", "addr:postcode": "80525", "name": "CAVA", "phone": "970-300-1485", "opening_hours": "Mo-Su 10:45-22:00", "brand": "Cava", "brand:wikidata": "Q85751038", "nsi_id": "cava-96af40"}},
{"type": "Feature", "id": "6yBLe9I2eq8Ir6pwMaFm7iWSvsw=", "properties": {"ref": "1515 Park Central Drive, Highlands Ranch", "@spider": "cava", "amenity": "restaurant", "cuisine": "mediterranean", "addr:street_address": "1515 Park Central Drive, Highlands Ranch", "addr:city": "Highlands Ranch", "addr:state": "CO", "addr:postcode": "80129", "name": "CAVA", "phone": "303-495-5045", "opening_hours": "Mo-Su 10:45-22:00", "brand": "Cava", "brand:wikidata": "Q85751038", "nsi_id": "cava-96af40"}},
{"type": "Feature", "id": "3UCm3NQICwqixfomHsqTdE6N_bg=", "properties": {"ref": "4550 Main Street, Westminster", "@spider": "cava", "amenity": "restaurant", "cuisine": "mediterranean", "addr:street_address": "4550 Main Street, Westminster", "addr:city": "Westminster", "addr:state": "CO", "addr:postcode": "80031", "name": "CAVA", "phone": "303-495-5750", "opening_hours": "Mo-Su 10:45-22:00", "brand": "Cava", "brand:wikidata": "Q85751038", "nsi_id": "cava-96af40"}},
{"type": "Feature", "id": "uNoLOiXQc9Pd457VHTHie7-5LD0=", "properties": {"ref": "129 West Putnam Avenue, Greenwich", "@spider": "cava", "amenity": "restaurant", "cuisine": "mediterranean", "addr:street_address": "129 West Putnam Avenue, Greenwich", "addr:city": "Greenwich", "addr:state": "CT", "addr:postcode": "06830", "name": "CAVA", "phone": "203-220-2262", "opening_hours": "Mo-Sa 10:45-21:00; Su 10:45-20:00", "brand": "Cava", "brand:wikidata": "Q85751038", "nsi_id": "cava-96af40"}},
{"type": "Feature", "id": "ZExzq_RKWiO7iKOx6KkUTqb_AJs=", "properties": {"ref": "707 H Street NW, Washington", "@spider": "cava", "amenity": "restaurant", "cuisine": "mediterranean", "addr:street_address": "707 H Street NW, Washington", "addr:city": "Chinatown", "addr:state": "DC", "addr:postcode": "20001", "name": "CAVA", "phone": "202-719-0111", "opening_hours": "Mo-Su 10:45-22:00", "brand": "Cava", "brand:wikidata": "Q85751038", "nsi_id": "cava-96af40"}},
{"type": "Feature", "id": "NX_bv4Vr8YM4AKhtkGP9ffTH7d0=", "properties": {"ref": "3105 14th Street NW, Washington", "@spider": "cava", "amenity": "restaurant", "cuisine": "mediterranean", "addr:street_address": "3105 14th Street NW, Washington", "addr:city": "Columbia Heights", "addr:state": "DC", "addr:postcode": "20010", "name": "CAVA", "phone": "202-695-8100", "opening_hours": "Mo-Su 10:45-22:00", "brand": "Cava", "brand:wikidata": "Q85751038", "nsi_id": "cava-96af40"}},
{"type": "Feature", "id": "vXmvbcY-2whMCJdbB16uEqyDc4w=", "properties": {"ref": "1222 Connecticut Avenue NW, Washington", "@spider": "cava", "amenity": "restaurant", "cuisine": "mediterranean", "addr:street_address": "1222 Connecticut Avenue NW, Washington", "addr:city": "Dupont", "addr:state": "DC", "addr:postcode": "20036", "name": "CAVA", "phone": "202-370-6636", "opening_hours": "Mo-Su 10:45-22:00", "brand": "Cava", "brand:wikidata": "Q85751038", "nsi_id": "cava-96af40"}},
{"type": "Feature", "id": "hoOUIAIAzAhxlVnLiC68Nu55jgs=", "properties": {"ref": "523 H Street NE, Washington", "@spider": "cava", "amenity": "restaurant", "cuisine": "mediterranean", "addr:street_address": "523 H Street NE, Washington", "addr:city": "H Street NE", "addr:state": "DC", "addr:postcode": "20002", "name": "CAVA", "phone": "202-459-4677", "opening_hours": "Mo-Su 10:00-22:00", "brand": "Cava", "brand:wikidata": "Q85751038", "nsi_id": "cava-96af40"}},
{"type": "Feature", "id": "JpHU78F_v0ltsE3NKqKPMvGybac=", "properties": {"ref": "52 M Street SE, Washington", "@spider": "cava", "amenity": "restaurant", "cuisine": "mediterranean", "addr:street_address": "52 M Street SE, Washington", "addr:city": "Navy Yard", "addr:state": "DC", "addr:postcode": "20003", "name": "CAVA", "phone": "202-536-2522", "opening_hours": "Mo-Su 10:45-22:00", "brand": "Cava", "brand:wikidata": "Q85751038", "nsi_id": "cava-96af40"}},
{"type": "Feature", "id": "hqkSbki-hKsCTaJwdEpebYM3V44=", "properties": {"ref": "The Shay, 1921 8th Street NW, Washington", "@spider": "cava", "amenity": "restaurant", "cuisine": "mediterranean", "addr:street_address": "The Shay, 1921 8th Street NW, Washington", "addr:city": "Shaw", "addr:state": "DC", "addr:postcode": "20001", "name": "CAVA", "phone": "202-864-4321", "opening_hours": "Mo-Su 10:45-22:00", "brand": "Cava", "brand:wikidata": "Q85751038", "nsi_id": "cava-96af40"}},
{"type": "Feature", "id": "vUbSFZljZeG5irzd1Dqs99caF4Y=", "properties": {"ref": "4237 Wisconsin Avenue NW, Washington", "@spider": "cava", "amenity": "restaurant", "cuisine": "mediterranean", "addr:street_address": "4237 Wisconsin Avenue NW, Washington", "addr:city": "Tenleytown", "addr:state": "DC", "addr:postcode": "20016", "name": "CAVA", "phone": "202-695-8115", "opening_hours": "Mo-Su 10:45-22:00", "brand": "Cava", "brand:wikidata": "Q85751038", "nsi_id": "cava-96af40"}},
{"type": "Feature", "id": "VeTkLJqAX63JAwmceYCyf0c8eqw=", "properties": {"ref": "50 Massachusetts Ave NE, Washington", "@spider": "cava", "amenity": "restaurant", "cuisine": "mediterranean", "addr:street_address": "50 Massachusetts Ave NE, Washington", "addr:city": "Union Station", "addr:state": "DC", "addr:postcode": "20002", "name": "CAVA", "phone": "202-536-2540", "opening_hours": "Mo-Su 10:45-21:00", "brand": "Cava", "brand:wikidata": "Q85751038", "nsi_id": "cava-96af40"}},
{"type": "Feature", "id": "rmNsVclVTthuR4N5ZoaV7D91Mqc=", "properties": {"ref": "2150 Fashion Center Blvd, Newark", "@spider": "cava", "amenity": "restaurant", "cuisine": "mediterranean", "addr:street_address": "2150 Fashion Center Blvd, Newark", "addr:city": "Christiana", "addr:state": "DE", "addr:postcode": "19702", "name": "CAVA", "phone": "862-339-7686", "opening_hours": "Mo-Su 10:45-22:00", "brand": "Cava", "brand:wikidata": "Q85751038", "nsi_id": "cava-96af40"}},
{"type": "Feature", "id": "ev6YihZGecLDY3_wxhwPV5q7T_Y=", "properties": {"ref": "13920 Old St. Augustine Rd, Jacksonville", "@spider": "cava", "amenity": "restaurant", "cuisine": "mediterranean", "addr:street_address": "13920 Old St. Augustine Rd, Jacksonville", "addr:city": "Bartram Village", "addr:state": "FL", "addr:postcode": "32258", "name": "CAVA", "phone": "904-902-4321 ", "opening_hours": "Mo-Su 10:45-22:00", "brand": "Cava", "brand:wikidata": "Q85751038", "nsi_id": "cava-96af40"}},
{"type": "Feature", "id": "7zH1U64Uv3utUT7YNxs9DE40RX0=", "properties": {"ref": "15620 Panama City Beach Pwky, Suite 200, Panama City Beach", "@spider": "cava", "amenity": "restaurant", "cuisine": "mediterranean", "addr:street_address": "15620 Panama City Beach Pwky, Suite 200, Panama City Beach", "addr:city": "Panama City Beach", "addr:state": "FL", "addr:postcode": "32413", "name": "CAVA", "phone": "850-919-3706", "opening_hours": "Mo-Su 10:45-22:00", "brand": "Cava", "brand:wikidata": "Q85751038", "nsi_id": "cava-96af40"}},
{"type": "Feature", "id": "N2qeT17r63DtoijoHdmeSXdf9w0=", "properties": {"ref": "90 Riverside Avenue, Suite 607, Jacksonville", "@spider": "cava", "amenity": "restaurant", "cuisine": "mediterranean", "addr:street_address": "90 Riverside Avenue, Suite 607, Jacksonville", "addr:city": "Riverside", "addr:state": "FL", "addr:postcode": "32202", "name": "CAVA", "phone": "904-902-5533", "opening_hours": "Mo-Su 10:45-22:00", "brand": "Cava", "brand:wikidata": "Q85751038", "nsi_id": "cava-96af40"}},
{"type": "Feature", "id": "0GGdOT_jA0IhemmEXAt3aGzYonA=", "properties": {"ref": "5248 University Parkway, Sarasota", "@spider": "cava", "amenity": "restaurant", "cuisine": "mediterranean", "addr:street_address": "5248 University Parkway, Sarasota", "addr:city": "Sarasota", "addr:state": "FL", "addr:postcode": "34243", "name": "CAVA", "phone": "941-259-0161", "opening_hours": "Mo-Su 10:45-22:00", "brand": "Cava", "brand:wikidata": "Q85751038", "nsi_id": "cava-96af40"}},
{"type": "Feature", "id": "UYhkZ9Ci3Z0CaGwVMMb_gIHD3HE=", "properties": {"ref": "236 E Michigan St, Suite B105, Orlando", "@spider": "cava", "amenity": "restaurant", "cuisine": "mediterranean", "addr:street_address": "236 E Michigan St, Suite B105, Orlando", "addr:city": "SoDo", "addr:state": "FL", "addr:postcode": "32806", "name": "CAVA", "phone": "689-698-4113", "opening_hours": "Mo-Su 10:45-22:00", "brand": "Cava", "brand:wikidata": "Q85751038", "nsi_id": "cava-96af40"}},
{"type": "Feature", "id": "1Wjoximw9BdIslnjilcZrz5EKYM=", "properties": {"ref": "942 S Howard Ave, Tampa", "@spider": "cava", "amenity": "restaurant", "cuisine": "mediterranean", "addr:street_address": "942 S Howard Ave, Tampa", "addr:city": "South Howard", "addr:state": "FL", "addr:postcode": "33606", "name": "CAVA", "phone": "813-587-0172", "opening_hours": "Mo-Su 10:45-22:00", "brand": "Cava", "brand:wikidata": "Q85751038", "nsi_id": "cava-96af40"}},
{"type": "Feature", "id": "GH093WWTe-42S-z8ZRvlNrzil0I=", "properties": {"ref": "1320 4th St N, St. Petersburg", "@spider": "cava", "amenity": "restaurant", "cuisine": "mediterranean", "addr:street_address": "1320 4th St N, St. Petersburg", "addr:city": "St Petersburg", "addr:state": "FL", "addr:postcode": "33701", "name": "CAVA", "phone": "727-371-0056", "opening_hours": "Mo-Su 10:45-22:00", "brand": "Cava", "brand:wikidata": "Q85751038", "nsi_id": "cava-96af40"}},
{"type": "Feature", "id": "GMwck9bZRtNk8WIfLqrrLA-il7M=", "properties": {"ref": "501 N Orlando Ave, Suite 323, Winter Park", "@spider": "cava", "amenity": "restaurant", "cuisine": "mediterranean", "addr:street_address": "501 N Orlando Ave, Suite 323, Winter Park", "addr:city": "Winter Park", "addr:state": "FL", "addr:postcode": "32789", "name": "CAVA", "phone": "689-232-0204", "opening_hours": "Mo-Su 10:45-22:00", "brand": "Cava", "brand:wikidata": "Q85751038", "nsi_id": "cava-96af40"}},
{"type": "Feature", "id": "otydFAaRACCRRybIYvc1SDQCMtM=", "properties": {"ref": "5930 Red Bug Lake Rd, Winter Springs", "@spider": "cava", "amenity": "restaurant", "cuisine": "mediterranean", "addr:street_address": "5930 Red Bug Lake Rd, Winter Springs", "addr:city": "Winter Springs", "addr:state": "FL", "addr:postcode": "32708", "name": "CAVA", "phone": "689-229-2168", "opening_hours": "Mo-Su 10:45-22:00", "brand": "Cava", "brand:wikidata": "Q85751038", "nsi_id": "cava-96af40"}},
{"type": "Feature", "id": "c1dyh8kJptBwz2P-ljQ72LahFkI=", "properties": {"ref": "10920 Haynes Bridge Rd, STE 100, Alpharetta", "@spider": "cava", "amenity": "restaurant", "cuisine": "mediterranean", "addr:street_address": "10920 Haynes Bridge Rd, STE 100, Alpharetta", "addr:city": "Alpharetta", "addr:state": "GA", "addr:postcode": "30022", "name": "CAVA", "phone": "470-567-4995", "opening_hours": "Mo-Su 10:45-22:00", "brand": "Cava", "brand:wikidata": "Q85751038", "nsi_id": "cava-96af40"}},
{"type": "Feature", "id": "tOjICh-soy4vXVpVg9hYS-naRwg=", "properties": {"ref": "145 Alps Rd, Athens", "@spider": "cava", "amenity": "restaurant", "cuisine": "mediterranean", "addr:street_address": "145 Alps Rd, Athens", "addr:city": "Athens", "addr:state": "GA", "addr:postcode": "30606", "name": "CAVA", "phone": "(706) 715-5481", "opening_hours": "Mo-Su 10:45-22:00", "brand": "Cava", "brand:wikidata": "Q85751038", "nsi_id": "cava-96af40"}},
{"type": "Feature", "id": "Bs-6UlvY_PQVG9MPEznq59itKos=", "properties": {"ref": "5001 Peachtree Blvd, Bldg 1000, Suite 1030, Chamblee", "@spider": "cava", "amenity": "restaurant", "cuisine": "mediterranean", "addr:street_address": "5001 Peachtree Blvd, Bldg 1000, Suite 1030, Chamblee", "addr:city": "Chamblee", "addr:state": "GA", "addr:postcode": "30341", "name": "CAVA", "phone": "470-800-8343", "opening_hours": "Mo-Su 10:45-22:00", "brand": "Cava", "brand:wikidata": "Q85751038", "nsi_id": "cava-96af40"}},
{"type": "Feature", "id": "xTuc-3BKlVvggoUjctqskGjdG34=", "properties": {"ref": "2935 Cobb Pkwy SE SW, Atlanta", "@spider": "cava", "amenity": "restaurant", "cuisine": "mediterranean", "addr:street_address": "2935 Cobb Pkwy SE SW, Atlanta", "addr:city": "Cumberland", "addr:state": "GA", "addr:postcode": "30339", "name": "CAVA", "phone": "470-666-7535", "opening_hours": "Mo-Su 10:45-22:00", "brand": "Cava", "brand:wikidata": "Q85751038", "nsi_id": "cava-96af40"}},
{"type": "Feature", "id": "S-1DjreH4M7OhULAbmLei3FfXvA=", "properties": {"ref": "410 Peachtree Pkwy, Suite  #260, Cumming", "@spider": "cava", "amenity": "restaurant", "cuisine": "mediterranean", "addr:street_address": "410 Peachtree Pkwy, Suite  #260, Cumming", "addr:city": "Cumming", "addr:state": "GA", "addr:postcode": "30041", "name": "CAVA", "phone": "470-239-0797", "opening_hours": "Mo-Su 10:45-22:00", "brand": "Cava", "brand:wikidata": "Q85751038", "nsi_id": "cava-96af40"}},
{"type": "Feature", "id": "yikN-uuUd5ntOBgRZM9tREOzDhw=", "properties": {"ref": "2501 Blackmon Dr, Ste 610, Decatur", "@spider": "cava", "amenity": "restaurant", "cuisine": "mediterranean", "addr:street_address": "2501 Blackmon Dr, Ste 610, Decatur", "addr:city": "Decatur", "addr:state": "GA", "addr:postcode": "30033", "name": "CAVA", "phone": "470-800-8402", "opening_hours": "Mo-Su 10:45-22:00", "brand": "Cava", "brand:wikidata": "Q85751038", "nsi_id": "cava-96af40"}},
{"type": "Feature", "id": "2FSSsUWVGGQCMzMPiP1TNR4NJc8=", "properties": {"ref": "2480 Briarcliff Rd NE #48, Atlanta", "@spider": "cava", "amenity": "restaurant", "cuisine": "mediterranean", "addr:street_address": "2480 Briarcliff Rd NE #48, Atlanta", "addr:city": "Druid Hills", "addr:state": "GA", "addr:postcode": "30329", "name": "CAVA", "phone": "404-301-0821", "opening_hours": "Mo-Su 10:45-22:00", "brand": "Cava", "brand:wikidata": "Q85751038", "nsi_id": "cava-96af40"}},
{"type": "Feature", "id": "xSz1RLKl33nD1WILvbmvCnTsIkM=", "properties": {"ref": "4400 Roswell Rd, Ste. 157, Marietta", "@spider": "cava", "amenity": "restaurant", "cuisine": "mediterranean", "addr:street_address": "4400 Roswell Rd, Ste. 157, Marietta", "addr:city": "East Cobb", "addr:state": "GA", "addr:postcode": "30062", "name": "CAVA", "phone": "470-524-0237", "opening_hours": "Mo-Su 10:45-22:30", "brand": "Cava", "brand:wikidata": "Q85751038", "nsi_id": "cava-96af40"}},
{"type": "Feature", "id": "I8PBZW1-j1ERBu4jtnIK-0y5eJs=", "properties": {"ref": "1555 Crater Lake Drive, Kennesaw", "@spider": "cava", "amenity": "restaurant", "cuisine": "mediterranean", "addr:street_address": "1555 Crater Lake Drive, Kennesaw", "addr:city": "Kennesaw", "addr:state": "GA", "addr:postcode": "30152", "name": "CAVA", "phone": "470-649-4263", "opening_hours": "Mo-Su 10:45-22:00", "brand": "Cava", "brand:wikidata": "Q85751038", "nsi_id": "cava-96af40"}},
{"type": "Feature", "id": "sAxaMQrhIcVOi8_kwA0UPtbZFjY=", "properties": {"ref": "3385 Woodward Crossing Blvd, STE 300, Buford", "@spider": "cava", "amenity": "restaurant", "cuisine": "mediterranean", "addr:street_address": "3385 Woodward Crossing Blvd, STE 300, Buford", "addr:city": "Mall of Georgia", "addr:state": " GA", "addr:postcode": "30519", "name": "CAVA", "phone": "470-780-2028", "opening_hours": "Mo-Su 10:45-22:00", "brand": "Cava", "brand:wikidata": "Q85751038", "nsi_id": "cava-96af40"}},
{"type": "Feature", "id": "tDoIHc8ln5wQn-5RPjBnqcHbOS0=", "properties": {"ref": "3655 Roswell Rd NE, Suite 100, Atlanta", "@spider": "cava", "amenity": "restaurant", "cuisine": "mediterranean", "addr:street_address": "3655 Roswell Rd NE, Suite 100, Atlanta", "addr:city": "North Buckhead", "addr:state": "GA", "addr:postcode": "30342", "name": "CAVA", "phone": "470-427-8951", "opening_hours": "Mo-Su 10:45-22:00", "brand": "Cava", "brand:wikidata": "Q85751038", "nsi_id": "cava-96af40"}},
{"type": "Feature", "id": "SqWfiHh-ssubTxG6QQCcWCU58c8=", "properties": {"ref": "2333-A Peachtree Rd NE, Atlanta", "@spider": "cava", "amenity": "restaurant", "cuisine": "mediterranean", "addr:street_address": "2333-A Peachtree Rd NE, Atlanta", "addr:city": "Peachtree", "addr:state": "GA", "addr:postcode": "30305", "name": "CAVA", "phone": "470-480-2761", "opening_hours": "Mo-Su 10:45-22:00", "brand": "Cava", "brand:wikidata": "Q85751038", "nsi_id": "cava-96af40"}},
{"type": "Feature", "id": "5eKAxO7jGN3yPKPhX4LBzUvPCZw=", "properties": {"ref": "5150 Peachtree Pkwy, Suite 100, Peachtree Corners", "@spider": "cava", "amenity": "restaurant", "cuisine": "mediterranean", "addr:street_address": "5150 Peachtree Pkwy, Suite 100, Peachtree Corners", "addr:city": "Peachtree Corners", "addr:state": "GA", "addr:postcode": "30092", "name": "CAVA", "phone": "470-740-5432", "opening_hours": "Mo-Su 10:45-22:00", "brand": "Cava", "brand:wikidata": "Q85751038", "nsi_id": "cava-96af40"}},
{"type": "Feature", "id": "ZiXV5wfgTZcAkbMPgOHM-L-peHM=", "properties": {"ref": "1165 Perimeter Center W, Suite 340, Atlanta", "@spider": "cava", "amenity": "restaurant", "cuisine": "mediterranean", "addr:street_address": "1165 Perimeter Center W, Suite 340, Atlanta", "addr:city": "Perimeter", "addr:state": "GA", "addr:postcode": "30338", "name": "CAVA", "phone": "470-410-5142", "opening_hours": "Mo-Su 10:45-22:00", "brand": "Cava", "brand:wikidata": "Q85751038", "nsi_id": "cava-96af40"}},
{"type": "Feature", "id": "K9fyWfmIFsVQnSDYwCks1s8TLFI=", "properties": {"ref": "1105 Woodstock Road, Suite 100, Roswell", "@spider": "cava", "amenity": "restaurant", "cuisine": "mediterranean", "addr:street_address": "1105 Woodstock Road, Suite 100, Roswell", "addr:city": "Roswell Corners", "addr:state": "GA", "addr:postcode": "30075", "name": "CAVA", "phone": "470-740-5301", "opening_hours": "Mo-Su 10:45-22:00", "brand": "Cava", "brand:wikidata": "Q85751038", "nsi_id": "cava-96af40"}},
{"type": "Feature", "id": "yPYBXvtWPJsCw9ILimL4atIMKQk=", "properties": {"ref": "5840 Roswell Rd, Suite 300, Sandy Springs", "@spider": "cava", "amenity": "restaurant", "cuisine": "mediterranean", "addr:street_address": "5840 Roswell Rd, Suite 300, Sandy Springs", "addr:city": "Sandy Springs Digital Kitchen", "addr:state": "GA", "addr:postcode": "30328", "name": "CAVA", "phone": "470-336-6465", "opening_hours": "Mo-Sa 10:45-20:00", "brand": "Cava", "brand:wikidata": "Q85751038", "nsi_id": "cava-96af40"}},
{"type": "Feature", "id": "5ZmSGvriZAIJA92yDFVEvM0tbP4=", "properties": {"ref": "6405 W. 135th St., Overland Park", "@spider": "cava", "amenity": "restaurant", "cuisine": "mediterranean", "addr:street_address": "6405 W. 135th St., Overland Park", "addr:city": "Corbin Park", "addr:state": "KS", "addr:postcode": "66223", "name": "CAVA", "phone": "913-386-3710", "opening_hours": "Mo-Su 10:45-22:00", "brand": "Cava", "brand:wikidata": "Q85751038", "nsi_id": "cava-96af40"}},
{"type": "Feature", "id": "xxxo4cJ9oUty5gKgqRrVpWHBM3c=", "properties": {"ref": "11895 West 95th St, Overland Park", "@spider": "cava", "amenity": "restaurant", "cuisine": "mediterranean", "addr:street_address": "11895 West 95th St, Overland Park", "addr:city": "Oak Park", "addr:state": "KS", "addr:postcode": "66214", "name": "CAVA", "phone": "913-393-9024", "opening_hours": "Mo-Su 10:45-22:00", "brand": "Cava", "brand:wikidata": "Q85751038", "nsi_id": "cava-96af40"}},
{"type": "Feature", "id": "7VI4W9y04KAskECeK05FFsCuVLU=", "properties": {"ref": "669 Boylston Street, Boston", "@spider": "cava", "amenity": "restaurant", "cuisine": "mediterranean", "addr:street_address": "669 Boylston Street, Boston", "addr:city": "Back Bay", "addr:state": "MA", "addr:postcode": "02116", "name": "CAVA", "phone": "617-286-8927", "opening_hours": "Mo-Su 10:45-22:00", "brand": "Cava", "brand:wikidata": "Q85751038", "nsi_id": "cava-96af40"}},
{"type": "Feature", "id": "qr5bIHTlK7Kzodx_Q90qbfE_K4c=", "properties": {"ref": "680 Legacy Place, Dedham", "@spider": "cava", "amenity": "restaurant", "cuisine": "mediterranean", "addr:street_address": "680 Legacy Place, Dedham", "addr:city": "Dedham", "addr:state": "MA", "addr:postcode": "02026", "name": "CAVA", "phone": "781-205-4766", "opening_hours": "Mo-Su 10:45-22:00", "brand": "Cava", "brand:wikidata": "Q85751038", "nsi_id": "cava-96af40"}},
{"type": "Feature", "id": "5PncGGArrIO2ECm_0igMTIfNkT0=", "properties": {"ref": "1346 Boylston Street, Boston", "@spider": "cava", "amenity": "restaurant", "cuisine": "mediterranean", "addr:street_address": "1346 Boylston Street, Boston", "addr:city": "Fenway", "addr:state": "MA", "addr:postcode": "02215", "name": "CAVA", "phone": "617-286-8872", "opening_hours": "Mo-Su 10:45-22:00", "brand": "Cava", "brand:wikidata": "Q85751038", "nsi_id": "cava-96af40"}},
{"type": "Feature", "id": "pDEpLwO992rcnyEjntQ3bjtisCM=", "properties": {"ref": "94 Derby Street, Hingham", "@spider": "cava", "amenity": "restaurant", "cuisine": "mediterranean", "addr:street_address": "94 Derby Street, Hingham", "addr:city": "Hingham", "addr:state": "MA", "addr:postcode": "02043", "name": "CAVA", "phone": "781-205-4779", "opening_hours": "Mo-Su 10:45-22:00", "brand": "Cava", "brand:wikidata": "Q85751038", "nsi_id": "cava-96af40"}},
{"type": "Feature", "id": "yGEz1k7V6EmiOaePbMVFYanKmME=", "properties": {"ref": "82 Ames Street, Cambridge", "@spider": "cava", "amenity": "restaurant", "cuisine": "mediterranean", "addr:street_address": "82 Ames Street, Cambridge", "addr:city": "Kendall Square", "addr:state": "MA", "addr:postcode": "02142", "name": "CAVA", "phone": "617-202-9396", "opening_hours": "Mo-Su 10:45-22:00", "brand": "Cava", "brand:wikidata": "Q85751038", "nsi_id": "cava-96af40"}},
{"type": "Feature", "id": "EUycCrtmeNfYwIZnXWGYjw4rJzk=", "properties": {"ref": "800 Boylston St, Boston", "@spider": "cava", "amenity": "restaurant", "cuisine": "mediterranean", "addr:street_address": "800 Boylston St, Boston", "addr:city": "Prudential Center", "addr:state": "MA", "addr:postcode": "02199", "name": "CAVA", "phone": "857-557-3907", "opening_hours": "Mo-Su 10:45-22:00", "brand": "Cava", "brand:wikidata": "Q85751038", "nsi_id": "cava-96af40"}},
{"type": "Feature", "id": "T4YTMtpD72AwaPbHAlZefuRx5vw=", "properties": {"ref": "300 Mishawum Road, Unit 730, Woburn", "@spider": "cava", "amenity": "restaurant", "cuisine": "mediterranean", "addr:street_address": "300 Mishawum Road, Unit 730, Woburn", "addr:city": "Woburn", "addr:state": "MA", "addr:postcode": "01801", "name": "CAVA", "phone": "(781) 381-4080", "opening_hours": "Mo-Su 10:45-22:00", "brand": "Cava", "brand:wikidata": "Q85751038", "nsi_id": "cava-96af40"}},
{"type": "Feature", "id": "Iry3iAIIOt6kXi6L97xbcOpGDZI=", "properties": {"ref": "1901 Towne Centre Blvd, Suite 150, Annapolis", "@spider": "cava", "amenity": "restaurant", "cuisine": "mediterranean", "addr:street_address": "1901 Towne Centre Blvd, Suite 150, Annapolis", "addr:city": "Annapolis", "addr:state": "MD", "addr:postcode": "21401", "name": "CAVA", "phone": "410-994-3803", "opening_hours": "Mo-Su 10:45-22:00", "brand": "Cava", "brand:wikidata": "Q85751038", "nsi_id": "cava-96af40"}},
{"type": "Feature", "id": "F47AYt6EQpLCfYg4qugDN0js738=", "properties": {"ref": "7680 Arundel Mills Blvd, Hanover", "@spider": "cava", "amenity": "restaurant", "cuisine": "mediterranean", "addr:street_address": "7680 Arundel Mills Blvd, Hanover", "addr:city": "Arundel Mills", "addr:state": "MD", "addr:postcode": "21076", "name": "CAVA", "phone": "410-216-0484", "opening_hours": "Mo-Su 10:45-22:30", "brand": "Cava", "brand:wikidata": "Q85751038", "nsi_id": "cava-96af40"}},
{"type": "Feature", "id": "2K_vrTyoBC5cDdwc1OBbhuTTYG0=", "properties": {"ref": "4832 Bethesda Avenue, Bethesda", "@spider": "cava", "amenity": "restaurant", "cuisine": "mediterranean", "addr:street_address": "4832 Bethesda Avenue, Bethesda", "addr:city": "Bethesda Row", "addr:state": "MD", "addr:postcode": "20814", "name": "CAVA", "phone": "301-656-1772", "opening_hours": "Mo-Su 10:45-22:00", "brand": "Cava", "brand:wikidata": "Q85751038", "nsi_id": "cava-96af40"}},
{"type": "Feature", "id": "JW5iw8lV1Q2SPWffdq8lB9ek4NY=", "properties": {"ref": "7991 Tuckerman Lane, Potomac", "@spider": "cava", "amenity": "restaurant", "cuisine": "mediterranean", "addr:street_address": "7991 Tuckerman Lane, Potomac", "addr:city": "Cabin John", "addr:state": "MD", "addr:postcode": "20854", "name": "CAVA", "phone": "301-200-5398", "opening_hours": "Mo-Su 10:45-22:00", "brand": "Cava", "brand:wikidata": "Q85751038", "nsi_id": "cava-96af40"}},
{"type": "Feature", "id": "fm6ShJGXUerb14Vzd283pUAxuYA=", "properties": {"ref": "3900 Boston Street, Baltimore", "@spider": "cava", "amenity": "restaurant", "cuisine": "mediterranean", "addr:street_address": "3900 Boston Street, Baltimore", "addr:city": "Canton", "addr:state": "MD", "addr:postcode": "21224", "name": "CAVA", "phone": "667-677-8910", "opening_hours": "Mo-Su 10:45-22:00", "brand": "Cava", "brand:wikidata": "Q85751038", "nsi_id": "cava-96af40"}},
{"type": "Feature", "id": "fVc656BTccMAhbVwhdsRzgqBm-Y=", "properties": {"ref": "7350 Baltimore Ave, College Park", "@spider": "cava", "amenity": "restaurant", "cuisine": "mediterranean", "addr:street_address": "7350 Baltimore Ave, College Park", "addr:city": "College Park", "addr:state": "MD", "addr:postcode": "20740", "name": "CAVA", "phone": "301-200-5417", "opening_hours": "Mo-Su 10:45-22:00", "brand": "Cava", "brand:wikidata": "Q85751038", "nsi_id": "cava-96af40"}},
{"type": "Feature", "id": "p6OVQXLsvPldi7GiHoaqtyiCC80=", "properties": {"ref": "6181 Old Dobbin Lane\n, Columbia", "@spider": "cava", "amenity": "restaurant", "cuisine": "mediterranean", "addr:street_address": "6181 Old Dobbin Lane\n, Columbia", "addr:city": "Columbia", "addr:state": "MD", "addr:postcode": "21045", "name": "CAVA", "phone": "443-283-3400", "opening_hours": "Mo-Su 10:45-22:00", "brand": "Cava", "brand:wikidata": "Q85751038", "nsi_id": "cava-96af40"}},
{"type": "Feature", "id": "tsppzlKeeyU1jOs39G_oxU1Sv7o=", "properties": {"ref": "5615 Spectrum Drive, Frederick", "@spider": "cava", "amenity": "restaurant", "cuisine": "mediterranean", "addr:street_address": "5615 Spectrum Drive, Frederick", "addr:city": "Frederick", "addr:state": "MD", "addr:postcode": "21703", "name": "CAVA", "phone": "240-312-3830", "opening_hours": "Mo-Su 10:45-22:00", "brand": "Cava", "brand:wikidata": "Q85751038", "nsi_id": "cava-96af40"}},
{"type": "Feature", "id": "mfkFhtKBghrxHvRCs4b59B91ImU=", "properties": {"ref": "213 Kentlands Blvd, Gaithersburg", "@spider": "cava", "amenity": "restaurant", "cuisine": "mediterranean", "addr:street_address": "213 Kentlands Blvd, Gaithersburg", "addr:city": "Kentlands", "addr:state": "MD", "addr:postcode": "20878", "name": "CAVA", "phone": "301-476-4209", "opening_hours": "Mo-Su 10:45-22:00", "brand": "Cava", "brand:wikidata": "Q85751038", "nsi_id": "cava-96af40"}},
{"type": "Feature", "id": "SoQFx6KKRfCpyFma6-Wy8zp_5ug=", "properties": {"ref": "7101 Democracy Blvd, Suite 2360, Bethesda", "@spider": "cava", "amenity": "restaurant", "cuisine": "mediterranean", "addr:street_address": "7101 Democracy Blvd, Suite 2360, Bethesda", "addr:city": "Montgomery Mall", "addr:state": "MD", "addr:postcode": "20817", "name": "CAVA", "phone": "301-658-2233", "opening_hours": "Mo-Sa 10:45-21:00; Su 10:45-20:00", "brand": "Cava", "brand:wikidata": "Q85751038", "nsi_id": "cava-96af40"}},
{"type": "Feature", "id": "DkL---BRvLEDc-CSe29XVEPoGbw=", "properties": {"ref": "10130 Reisterstown Road, Suite 30, Owings Mills", "@spider": "cava", "amenity": "restaurant", "cuisine": "mediterranean", "addr:street_address": "10130 Reisterstown Road, Suite 30, Owings Mills", "addr:city": "Owings Mills", "addr:state": "MD", "addr:postcode": "21117", "name": "CAVA", "phone": "410-988-2863", "opening_hours": "Mo-Su 10:45-22:00", "brand": "Cava", "brand:wikidata": "Q85751038", "nsi_id": "cava-96af40"}},
{"type": "Feature", "id": "5uPJaNqK0j8Q9s4Me8tx53SylY4=", "properties": {"ref": "12037 Rockville Pike, Rockville", "@spider": "cava", "amenity": "restaurant", "cuisine": "mediterranean", "addr:street_address": "12037 Rockville Pike, Rockville", "addr:city": "Rockville Pike", "addr:state": "MD", "addr:postcode": "20850", "name": "CAVA", "phone": "240-235-0627", "opening_hours": "Mo-Su 10:45-22:00", "brand": "Cava", "brand:wikidata": "Q85751038", "nsi_id": "cava-96af40"}},
{"type": "Feature", "id": "KQib4FKzclDU_a5rTpAXO3a15Eg=", "properties": {"ref": "28 Upper Rock Circle, Rockville", "@spider": "cava", "amenity": "restaurant", "cuisine": "mediterranean", "addr:street_address": "28 Upper Rock Circle, Rockville", "addr:city": "Shady Grove", "addr:state": "MD", "addr:postcode": "20850", "name": "CAVA", "phone": "301-200-5530 ", "opening_hours": "Mo-Su 10:45-22:00", "brand": "Cava", "brand:wikidata": "Q85751038", "nsi_id": "cava-96af40"}},
{"type": "Feature", "id": "GiY-QDbd5YiPcevD-PPokpBjtDM=", "properties": {"ref": "8515 Fenton Street, Silver Spring", "@spider": "cava", "amenity": "restaurant", "cuisine": "mediterranean", "addr:street_address": "8515 Fenton Street, Silver Spring", "addr:city": "Silver Spring", "addr:state": "MD", "addr:postcode": "20910", "name": "CAVA", "phone": "301-200-8666", "opening_hours": "Mo-Su 10:45-22:00", "brand": "Cava", "brand:wikidata": "Q85751038", "nsi_id": "cava-96af40"}},
{"type": "Feature", "id": "64ykQEtROjHAf4wz6U0tyxyL0ic=", "properties": {"ref": "2129-A York Rd, Timonium", "@spider": "cava", "amenity": "restaurant", "cuisine": "mediterranean", "addr:street_address": "2129-A York Rd, Timonium", "addr:city": "Timonium", "addr:state": "MD", "addr:postcode": "21093", "name": "CAVA", "phone": "667-308-3235", "opening_hours": "Mo-Su 10:45-22:00", "brand": "Cava", "brand:wikidata": "Q85751038", "nsi_id": "cava-96af40"}},
{"type": "Feature", "id": "QkRbieKdJ5ElkJjOeRjyTYNReQ0=", "properties": {"ref": "5201A Campbell Blvd, Nottingham", "@spider": "cava", "amenity": "restaurant", "cuisine": "mediterranean", "addr:street_address": "5201A Campbell Blvd, Nottingham", "addr:city": "White Marsh", "addr:state": "MD", "addr:postcode": "21236", "name": "CAVA", "phone": "410-881-0169", "opening_hours": "Mo-Su 10:45-22:00", "brand": "Cava", "brand:wikidata": "Q85751038", "nsi_id": "cava-96af40"}},
{"type": "Feature", "id": "gqAdNpCbwVzpqJVOXw3WMRiK-g4=", "properties": {"ref": "9140 Woodmore Centre Drive, Lanham", "@spider": "cava", "amenity": "restaurant", "cuisine": "mediterranean", "addr:street_address": "9140 Woodmore Centre Drive, Lanham", "addr:city": "Woodmore", "addr:state": "MD", "addr:postcode": "20706", "name": "CAVA", "phone": "240-297-0171", "opening_hours": "Mo-Su 10:45-22:00", "brand": "Cava", "brand:wikidata": "Q85751038", "nsi_id": "cava-96af40"}},
{"type": "Feature", "id": "ZdJVb9NOK4KWTdfGUA3fyHl_Ays=", "properties": {"ref": "9848 Rea Rd., Ste G., Charlotte", "@spider": "cava", "amenity": "restaurant", "cuisine": "mediterranean", "addr:street_address": "9848 Rea Rd., Ste G., Charlotte", "addr:city": "Blakeney", "addr:state": "NC", "addr:postcode": "28277", "name": "CAVA", "phone": "828-543-0707", "opening_hours": "Mo-Su 10:45-22:00", "brand": "Cava", "brand:wikidata": "Q85751038", "nsi_id": "cava-96af40"}},
{"type": "Feature", "id": "a4_ceiN3TitiWSmX4Z9E63CZ6z4=", "properties": {"ref": "403 Daniels Street,  Raleigh", "@spider": "cava", "amenity": "restaurant", "cuisine": "mediterranean", "addr:street_address": "403 Daniels Street,  Raleigh", "addr:city": "Cameron Village", "addr:state": "NC", "addr:postcode": "27605", "name": "CAVA", "phone": "919-278-7597", "opening_hours": "Mo-Su 10:45-22:00", "brand": "Cava", "brand:wikidata": "Q85751038", "nsi_id": "cava-96af40"}},
{"type": "Feature", "id": "SN4aRnfhh5BZlqGe-Jhdp7OwtHs=", "properties": {"ref": "7631-7633 Pineville Matthews Rd., No.24, Charlotte", "@spider": "cava", "amenity": "restaurant", "cuisine": "mediterranean", "addr:street_address": "7631-7633 Pineville Matthews Rd., No.24, Charlotte", "addr:city": "Carmel Commons", "addr:state": "NC", "addr:postcode": "28226", "name": "CAVA", "phone": "980-270-1042", "opening_hours": "Mo-Su 10:45-20:00", "brand": "Cava", "brand:wikidata": "Q85751038", "nsi_id": "cava-96af40"}},
{"type": "Feature", "id": "P_fJzMQWH-lQdgr9_VBPRh8QwIs=", "properties": {"ref": "2001 Walnut Street,  Suite 100, Cary", "@spider": "cava", "amenity": "restaurant", "cuisine": "mediterranean", "addr:street_address": "2001 Walnut Street,  Suite 100, Cary", "addr:city": "Cary", "addr:state": "NC", "addr:postcode": "27511", "name": "CAVA", "phone": "919-342-5937", "opening_hours": "Mo-Su 10:45-22:00", "brand": "Cava", "brand:wikidata": "Q85751038", "nsi_id": "cava-96af40"}},
{"type": "Feature", "id": "YyrSbpFY4ObV4fS6LEd06wDkXVs=", "properties": {"ref": "Village Plaza, 79 S Elliott Road, Chapel Hill", "@spider": "cava", "amenity": "restaurant", "cuisine": "mediterranean", "addr:street_address": "Village Plaza, 79 S Elliott Road, Chapel Hill", "addr:city": "Chapel Hill", "addr:state": "NC", "addr:postcode": "27514", "name": "CAVA", "phone": "919-636-5828", "opening_hours": "Mo-Su 10:45-22:00", "brand": "Cava", "brand:wikidata": "Q85751038", "nsi_id": "cava-96af40"}},
{"type": "Feature", "id": "t7FDxjbR20T2TzYD-rEfzq2LIvo=", "properties": {"ref": "565 Cross Creek Mall, Suite B, Fayetteville", "@spider": "cava", "amenity": "restaurant", "cuisine": "mediterranean", "addr:street_address": "565 Cross Creek Mall, Suite B, Fayetteville", "addr:city": "Fayetteville", "addr:state": "NC", "addr:postcode": "28303", "name": "CAVA", "phone": "910-300-9311", "opening_hours": "Mo-Su 10:45-22:00", "brand": "Cava", "brand:wikidata": "Q85751038", "nsi_id": "cava-96af40"}},
{"type": "Feature", "id": "SE6Q6_lpNxg1dIw4iv3zrHLw4aI=", "properties": {"ref": "3352 West Friendly Ave, Ste 115, Greensboro", "@spider": "cava", "amenity": "restaurant", "cuisine": "mediterranean", "addr:street_address": "3352 West Friendly Ave, Ste 115, Greensboro", "addr:city": "Greensboro", "addr:state": "NC", "addr:postcode": "27410", "name": "CAVA", "phone": "743-229-2668", "opening_hours": "Mo-Su 10:45-22:00", "brand": "Cava", "brand:wikidata": "Q85751038", "nsi_id": "cava-96af40"}},
{"type": "Feature", "id": "NKyzYVNRc46Sa18zep40BKpNUfM=", "properties": {"ref": "16845 Birkdale Commons Pkwy, Huntersville", "@spider": "cava", "amenity": "restaurant", "cuisine": "mediterranean", "addr:street_address": "16845 Birkdale Commons Pkwy, Huntersville", "addr:city": "Huntersville", "addr:state": "NC", "addr:postcode": "28078", "name": "CAVA", "phone": "704-464-0614", "opening_hours": "Mo-Su 10:45-22:00", "brand": "Cava", "brand:wikidata": "Q85751038", "nsi_id": "cava-96af40"}},
{"type": "Feature", "id": "mBwgP-boDuFRhUBSOFve8agTrkQ=", "properties": {"ref": "1055 Metropolitan Ave, Unit 110, Charlotte", "@spider": "cava", "amenity": "restaurant", "cuisine": "mediterranean", "addr:street_address": "1055 Metropolitan Ave, Unit 110, Charlotte", "addr:city": "Midtown Charlotte", "addr:state": "NC", "addr:postcode": "28204", "name": "CAVA", "phone": "980-999-9692", "opening_hours": "Mo-Su 10:45-22:00", "brand": "Cava", "brand:wikidata": "Q85751038", "nsi_id": "cava-96af40"}},
{"type": "Feature", "id": "33MH3Qzi8nMLFArPJsQoHGxykCA=", "properties": {"ref": "1100 Mercantile Drive, Suite 100, Raleigh", "@spider": "cava", "amenity": "restaurant", "cuisine": "mediterranean", "addr:street_address": "1100 Mercantile Drive, Suite 100, Raleigh", "addr:city": "Midtown East", "addr:state": "NC", "addr:postcode": "27609", "name": "CAVA", "phone": "919-276-4591", "opening_hours": "Mo-Su 10:45-22:00", "brand": "Cava", "brand:wikidata": "Q85751038", "nsi_id": "cava-96af40"}},
{"type": "Feature", "id": "kqrXDo1-z3COEXhiCcQnrGtID3E=", "properties": {"ref": "6004 Falls of Neuse Road, Suite 100, Raleigh", "@spider": "cava", "amenity": "restaurant", "cuisine": "mediterranean", "addr:street_address": "6004 Falls of Neuse Road, Suite 100, Raleigh", "addr:city": "North Ridge", "addr:state": "NC", "addr:postcode": "27609", "name": "CAVA", "phone": "984-263-7865", "opening_hours": "Mo-Su 10:45-22:00", "brand": "Cava", "brand:wikidata": "Q85751038", "nsi_id": "cava-96af40"}},
{"type": "Feature", "id": "Qo1LwqJ9wkI8orjerd3DaOtfj00=", "properties": {"ref": "4267 Park Road, Charlotte", "@spider": "cava", "amenity": "restaurant", "cuisine": "mediterranean", "addr:street_address": "4267 Park Road, Charlotte", "addr:city": "Park Road", "addr:state": "NC", "addr:postcode": "28209", "name": "CAVA", "phone": "704-209-4124", "opening_hours": "Mo-Su 10:45-22:00", "brand": "Cava", "brand:wikidata": "Q85751038", "nsi_id": "cava-96af40"}},
{"type": "Feature", "id": "MH9g7LETEJFIlfgmJizH6EvAOGk=", "properties": {"ref": "1017 Market Center Drive, Morrisville", "@spider": "cava", "amenity": "restaurant", "cuisine": "mediterranean", "addr:street_address": "1017 Market Center Drive, Morrisville", "addr:city": "Park West", "addr:state": "NC", "addr:postcode": "27560", "name": "CAVA", "phone": "919-276-4984", "opening_hours": "Mo-Su 10:45-22:00", "brand": "Cava", "brand:wikidata": "Q85751038", "nsi_id": "cava-96af40"}},
{"type": "Feature", "id": "oJmu6QvhisRD6JZmllcGjexpWAU=", "properties": {"ref": "2126 South Boulevard, Unit 1, Charlotte", "@spider": "cava", "amenity": "restaurant", "cuisine": "mediterranean", "addr:street_address": "2126 South Boulevard, Unit 1, Charlotte", "addr:city": "South End", "addr:state": "NC", "addr:postcode": "28203", "name": "CAVA", "phone": "704-272-1360", "opening_hours": "Mo-Su 10:45-22:00", "brand": "Cava", "brand:wikidata": "Q85751038", "nsi_id": "cava-96af40"}},
{"type": "Feature", "id": "I65OLNCTT6Ay52SCfMvSh6jE8R0=", "properties": {"ref": "8936 JM Keynes Blvd, Charlotte", "@spider": "cava", "amenity": "restaurant", "cuisine": "mediterranean", "addr:street_address": "8936 JM Keynes Blvd, Charlotte", "addr:city": "University Place", "addr:state": "NC", "addr:postcode": "28262", "name": "CAVA", "phone": "704-243-5900", "opening_hours": "Mo-Su 10:45-22:00", "brand": "Cava", "brand:wikidata": "Q85751038", "nsi_id": "cava-96af40"}},
{"type": "Feature", "id": "WJtm8K8SHa3Uk-iVwOOU2mYGmS0=", "properties": {"ref": "6307 Providence Farm Lane, Charlotte", "@spider": "cava", "amenity": "restaurant", "cuisine": "mediterranean", "addr:street_address": "6307 Providence Farm Lane, Charlotte", "addr:city": "Waverly", "addr:state": "NC", "addr:postcode": "28277", "name": "CAVA", "phone": "704-302-1259", "opening_hours": "Mo-Su 10:45-22:00", "brand": "Cava", "brand:wikidata": "Q85751038", "nsi_id": "cava-96af40"}},
{"type": "Feature", "id": "Yd7yku6bSzOTRiwZzP4oWAyRpqo=", "properties": {"ref": "4524 W Wendover Ave, #101, Greensboro", "@spider": "cava", "amenity": "restaurant", "cuisine": "mediterranean", "addr:street_address": "4524 W Wendover Ave, #101, Greensboro", "addr:city": "Wendover", "addr:state": "NC", "addr:postcode": "27409", "name": "CAVA", "phone": "336-265-7937", "opening_hours": "Mo-Su 10:45-22:00", "brand": "Cava", "brand:wikidata": "Q85751038", "nsi_id": "cava-96af40"}},
{"type": "Feature", "id": "zqkcCPcpr1odU0hk6fRiTYzagCk=", "properties": {"ref": "1011 International Dr, Wilmington", "@spider": "cava", "amenity": "restaurant", "cuisine": "mediterranean", "addr:street_address": "1011 International Dr, Wilmington", "addr:city": "Wilmington", "addr:state": "NC", "addr:postcode": "28405", "name": "CAVA", "phone": "910-839-5325", "opening_hours": "Mo-Su 10:45-22:00", "brand": "Cava", "brand:wikidata": "Q85751038", "nsi_id": "cava-96af40"}},
{"type": "Feature", "id": "jvZoGt3HGoR7L31JkWqEMzO2r9M=", "properties": {"ref": "205 S Stratford Road, Suite 88-0665, Winston-Salem", "@spider": "cava", "amenity": "restaurant", "cuisine": "mediterranean", "addr:street_address": "205 S Stratford Road, Suite 88-0665, Winston-Salem", "addr:city": "Winston-Salem", "addr:state": "NC", "addr:postcode": "27103", "name": "CAVA", "phone": "336-493-4254", "opening_hours": "Mo-Su 10:45-22:00", "brand": "Cava", "brand:wikidata": "Q85751038", "nsi_id": "cava-96af40"}},
{"type": "Feature", "id": "q_kPOF92pRZpGSsSwWYZPVdmrZE=", "properties": {"ref": "620 Commons Way, Suite 4100, Bridgewater", "@spider": "cava", "amenity": "restaurant", "cuisine": "mediterranean", "addr:street_address": "620 Commons Way, Suite 4100, Bridgewater", "addr:city": "Bridgewater", "addr:state": "NJ", "addr:postcode": "08807", "name": "CAVA", "phone": "908-224-0052", "opening_hours": "Mo-Su 10:45-22:00", "brand": "Cava", "brand:wikidata": "Q85751038", "nsi_id": "cava-96af40"}},
{"type": "Feature", "id": "LN2DyoZek_nJa-YnG7uuTjBrSoc=", "properties": {"ref": "30 Montgomery Street, Jersey City", "@spider": "cava", "amenity": "restaurant", "cuisine": "mediterranean", "addr:street_address": "30 Montgomery Street, Jersey City", "addr:city": "Jersey City", "addr:state": "NJ", "addr:postcode": "07302", "name": "CAVA", "phone": "201-205-1309", "opening_hours": "Mo-Su 10:45-22:00", "brand": "Cava", "brand:wikidata": "Q85751038", "nsi_id": "cava-96af40"}},
{"type": "Feature", "id": "di9Gal16Vu_WmbKwQLXQe0WDpTg=", "properties": {"ref": "1205 Nixon Dr, Moorestown", "@spider": "cava", "amenity": "restaurant", "cuisine": "mediterranean", "addr:street_address": "1205 Nixon Dr, Moorestown", "addr:city": "Moorestown", "addr:state": "NJ", "addr:postcode": "08057", "name": "CAVA", "phone": "856-600-6964", "opening_hours": "Mo-Su 10:45-22:00", "brand": "Cava", "brand:wikidata": "Q85751038", "nsi_id": "cava-96af40"}},
{"type": "Feature", "id": "QpL3FxMiNY6K2vDEgFn8vIXmLzQ=", "properties": {"ref": "2701 Bergen Town Center, Paramus", "@spider": "cava", "amenity": "restaurant", "cuisine": "mediterranean", "addr:street_address": "2701 Bergen Town Center, Paramus", "addr:city": "Paramus", "addr:state": "NJ", "addr:postcode": "07652", "name": "CAVA", "phone": "201-255-2858", "opening_hours": "Mo-Su 10:45-22:00", "brand": "Cava", "brand:wikidata": "Q85751038", "nsi_id": "cava-96af40"}},
{"type": "Feature", "id": "LFPWtB1Yz7zGPFzqmZyTA-1wThg=", "properties": {"ref": "984 Route 17 N, Ramsey", "@spider": "cava", "amenity": "restaurant", "cuisine": "mediterranean", "addr:street_address": "984 Route 17 N, Ramsey", "addr:city": "Ramsey", "addr:state": "NJ", "addr:postcode": "07446", "name": "CAVA", "phone": "201-378-3957", "opening_hours": "Mo-Su 10:45-22:00", "brand": "Cava", "brand:wikidata": "Q85751038", "nsi_id": "cava-96af40"}},
{"type": "Feature", "id": "ka8B4po2w-V4D6xbjE0KjDnIh8o=", "properties": {"ref": "84 Willowbrook Boulevard, Wayne", "@spider": "cava", "amenity": "restaurant", "cuisine": "mediterranean", "addr:street_address": "84 Willowbrook Boulevard, Wayne", "addr:city": "Wayne", "addr:state": "NJ", "addr:postcode": "07470", "name": "CAVA", "phone": "973-658-4991", "opening_hours": "Mo-Su 10:45-22:00", "brand": "Cava", "brand:wikidata": "Q85751038", "nsi_id": "cava-96af40"}},
{"type": "Feature", "id": "Akx7xzFxTE3Eg_zFdmPapzZjIZc=", "properties": {"ref": "678 6th Avenue , New York", "@spider": "cava", "amenity": "restaurant", "cuisine": "mediterranean", "addr:street_address": "678 6th Avenue , New York", "addr:city": "21st & 6th", "addr:state": "NY", "addr:postcode": "10010", "name": "CAVA", "phone": "212-206-2512", "opening_hours": "Mo-Su 10:45-22:00", "brand": "Cava", "brand:wikidata": "Q85751038", "nsi_id": "cava-96af40"}},
{"type": "Feature", "id": "ykT-U3HHtsflU3I6FN-2XsVjz0Q=", "properties": {"ref": "325 Park Avenue South, New York", "@spider": "cava", "amenity": "restaurant", "cuisine": "mediterranean", "addr:street_address": "325 Park Avenue South, New York", "addr:city": "24th & Park Avenue", "addr:state": "NY", "addr:postcode": "10010", "name": "CAVA", "phone": "718-360-1815", "opening_hours": "Mo-Su 10:45-22:00", "brand": "Cava", "brand:wikidata": "Q85751038", "nsi_id": "cava-96af40"}},
{"type": "Feature", "id": "Kgc04siWbFe8I-Zq8YI6pVqFjUI=", "properties": {"ref": "307 7th Ave, New York", "@spider": "cava", "amenity": "restaurant", "cuisine": "mediterranean", "addr:street_address": "307 7th Ave, New York", "addr:city": "307 7th Ave", "addr:state": "NY", "addr:postcode": "10001", "name": "CAVA", "brand": "Cava", "brand:wikidata": "Q85751038", "nsi_id": "cava-96af40"}},
{"type": "Feature", "id": "WOOhyZ27K7nY78Mf4uLGtQuvgHk=", "properties": {"ref": "1385 Broadway, New York", "@spider": "cava", "amenity": "restaurant", "cuisine": "mediterranean", "addr:street_address": "1385 Broadway, New York", "addr:city": "38th & Broadway", "addr:state": "NY", "addr:postcode": "10018", "name": "CAVA", "phone": "718-502-9282", "opening_hours": "Mo-Su 10:45-22:00", "brand": "Cava", "brand:wikidata": "Q85751038", "nsi_id": "cava-96af40"}},
{"type": "Feature", "id": "Y_DJxJz_AivROXV5rpXCwOyFJj0=", "properties": {"ref": "280 Madison Avenue , New York", "@spider": "cava", "amenity": "restaurant", "cuisine": "mediterranean", "addr:street_address": "280 Madison Avenue , New York", "addr:city": "40th & Madison", "addr:state": "NY", "addr:postcode": "10016", "name": "CAVA", "phone": "718-576-1486", "opening_hours": "Mo-Su 10:45-22:00", "brand": "Cava", "brand:wikidata": "Q85751038", "nsi_id": "cava-96af40"}},
{"type": "Feature", "id": "J4zSXXjrX48yg_BeLGHh8ZpljRc=", "properties": {"ref": "708 3rd Ave, New York", "@spider": "cava", "amenity": "restaurant", "cuisine": "mediterranean", "addr:street_address": "708 3rd Ave, New York", "addr:city": "708 3rd Ave", "addr:state": "NY", "addr:postcode": "10017", "name": "CAVA", "brand": "Cava", "brand:wikidata": "Q85751038", "nsi_id": "cava-96af40"}},
{"type": "Feature", "id": "qRqvmMbN-hO4gD421Cl52bNVEzg=", "properties": {"ref": "345 Adams Street, Brooklyn", "@spider": "cava", "amenity": "restaurant", "cuisine": "mediterranean", "addr:street_address": "345 Adams Street, Brooklyn", "addr:city": "Brooklyn", "addr:state": "NY", "addr:postcode": "11201", "name": "CAVA", "phone": "929-296-7809", "opening_hours": "Mo-Su 10:45-22:00", "brand": "Cava", "brand:wikidata": "Q85751038", "nsi_id": "cava-96af40"}},
{"type": "Feature", "id": "ocsFHD0DB7jXP2ksaIWxpolnGaQ=", "properties": {"ref": "11 West 42nd Street, New York", "@spider": "cava", "amenity": "restaurant", "cuisine": "mediterranean", "addr:street_address": "11 West 42nd Street, New York", "addr:city": "Bryant Park", "addr:state": "NY", "addr:postcode": "10036", "name": "CAVA", "phone": "646-868-0607", "opening_hours": "Mo-Su 10:45-22:00", "brand": "Cava", "brand:wikidata": "Q85751038", "nsi_id": "cava-96af40"}},
{"type": "Feature", "id": "RhqfuA2UD_6xFuB4yQql8IVcfIY=", "properties": {"ref": "834 Walt Whitman Rd, Space F 876, Melville", "@spider": "cava", "amenity": "restaurant", "cuisine": "mediterranean", "addr:street_address": "834 Walt Whitman Rd, Space F 876, Melville", "addr:city": "Melville", "addr:state": "NY", "addr:postcode": "11747", "name": "CAVA", "phone": "(631) 301-3809", "opening_hours": "Mo-Su 10:45-22:00", "brand": "Cava", "brand:wikidata": "Q85751038", "nsi_id": "cava-96af40"}},
{"type": "Feature", "id": "x17m4HgsZMOTwo-xDRe-actVClo=", "properties": {"ref": "50 Spring Street, New York", "@spider": "cava", "amenity": "restaurant", "cuisine": "mediterranean", "addr:street_address": "50 Spring Street, New York", "addr:city": "Nolita", "addr:state": "NY", "addr:postcode": "10012", "name": "CAVA", "phone": "718-502-9262", "opening_hours": "Mo-Su 10:45-22:00", "brand": "Cava", "brand:wikidata": "Q85751038", "nsi_id": "cava-96af40"}},
{"type": "Feature", "id": "Acj3qCHyy0Dv61pAo5eD_XJxpsw=", "properties": {"ref": "3 Rye Ridge Plaza, Rye Brook", "@spider": "cava", "amenity": "restaurant", "cuisine": "mediterranean", "addr:street_address": "3 Rye Ridge Plaza, Rye Brook", "addr:city": "Rye Ridge", "addr:state": "NY", "addr:postcode": "10573", "name": "CAVA", "phone": "914-268-9339", "opening_hours": "Mo-Su 10:45-22:00", "brand": "Cava", "brand:wikidata": "Q85751038", "nsi_id": "cava-96af40"}},
{"type": "Feature", "id": "-GBOpjOP7hdFaUumBJpilY5CObI=", "properties": {"ref": "143 4th Avenue, New York", "@spider": "cava", "amenity": "restaurant", "cuisine": "mediterranean", "addr:street_address": "143 4th Avenue, New York", "addr:city": "Union Square", "addr:state": "NY", "addr:postcode": "10003", "name": "CAVA", "phone": "646-416-6440 ", "opening_hours": "Mo-Su 10:45-22:30", "brand": "Cava", "brand:wikidata": "Q85751038", "nsi_id": "cava-96af40"}},
{"type": "Feature", "id": "vIhFhpMrBbEBTqwOau5zIKobV3Q=", "properties": {"ref": "63 Wall Street, New York", "@spider": "cava", "amenity": "restaurant", "cuisine": "mediterranean", "addr:street_address": "63 Wall Street, New York", "addr:city": "Wall Street", "addr:state": "NY", "addr:postcode": "10005", "name": "CAVA", "phone": "212-206-2524", "opening_hours": "Mo-Su 10:45-22:00", "brand": "Cava", "brand:wikidata": "Q85751038", "nsi_id": "cava-96af40"}},
{"type": "Feature", "id": "jfbQmXUx0_esOzR5j5hWEwyvqh4=", "properties": {"ref": "1556 N 9th Street, Broken Arrow", "@spider": "cava", "amenity": "restaurant", "cuisine": "mediterranean", "addr:street_address": "1556 N 9th Street, Broken Arrow", "addr:city": "Broken Arrow", "addr:state": "OK", "addr:postcode": "74012", "name": "CAVA", "phone": "539-250-4017", "opening_hours": "Mo-Su 10:45-22:00", "brand": "Cava", "brand:wikidata": "Q85751038", "nsi_id": "cava-96af40"}},
{"type": "Feature", "id": "HyPQ3GO-LxBria20Ux39dELDoyI=", "properties": {"ref": "6150C NW Grand Blvd, OKC", "@spider": "cava", "amenity": "restaurant", "cuisine": "mediterranean", "addr:street_address": "6150C NW Grand Blvd, OKC", "addr:city": "Classen Curve", "addr:state": "OK", "addr:postcode": "73118", "name": "CAVA", "phone": "405-767-4635", "opening_hours": "Mo-Su 10:45-22:00", "brand": "Cava", "brand:wikidata": "Q85751038", "nsi_id": "cava-96af40"}},
{"type": "Feature", "id": "nmkFXCQsGlKBWzJArTjw0uhMZ4U=", "properties": {"ref": "1700 E Second Street, Edmond", "@spider": "cava", "amenity": "restaurant", "cuisine": "mediterranean", "addr:street_address": "1700 E Second Street, Edmond", "addr:city": "Edmond", "addr:state": "OK", "addr:postcode": "73034", "name": "CAVA", "phone": "405-920-1623", "opening_hours": "Mo-Su 10:45-22:00", "brand": "Cava", "brand:wikidata": "Q85751038", "nsi_id": "cava-96af40"}},
{"type": "Feature", "id": "pOYQ-kf824fPGTD6Bgx23RBv2p8=", "properties": {"ref": "6044 South Yale St, Tulsa", "@spider": "cava", "amenity": "restaurant", "cuisine": "mediterranean", "addr:street_address": "6044 South Yale St, Tulsa", "addr:city": "Kingspointe", "addr:state": "OK", "addr:postcode": "74135", "name": "CAVA", "phone": "539-242-6424", "opening_hours": "Mo-Su 10:45-22:00", "brand": "Cava", "brand:wikidata": "Q85751038", "nsi_id": "cava-96af40"}},
{"type": "Feature", "id": "o4EQRAn3xGAbM402gg64-9jDXEw=", "properties": {"ref": "1651 24th Avenue NW, Norman", "@spider": "cava", "amenity": "restaurant", "cuisine": "mediterranean", "addr:street_address": "1651 24th Avenue NW, Norman", "addr:city": "Norman", "addr:state": "OK", "addr:postcode": "73069", "name": "CAVA", "phone": "405-701-6908", "opening_hours": "Mo-Su 10:45-22:00", "brand": "Cava", "brand:wikidata": "Q85751038", "nsi_id": "cava-96af40"}},
{"type": "Feature", "id": "nRWrTv9u1IVw19KXGw6O2mb9RwI=", "properties": {"ref": "14110 N. Pennsylvania Avenue, Oklahoma City", "@spider": "cava", "amenity": "restaurant", "cuisine": "mediterranean", "addr:street_address": "14110 N. Pennsylvania Avenue, Oklahoma City", "addr:city": "Quail Springs", "addr:state": "OK", "addr:postcode": "73134", "name": "CAVA", "phone": "405-302-8246", "opening_hours": "Mo-Su 10:45-22:00", "brand": "Cava", "brand:wikidata": "Q85751038", "nsi_id": "cava-96af40"}},
{"type": "Feature", "id": "hxwpvwHLNqbhIC5hSJkjblFk82g=", "properties": {"ref": "10005 S Memorial Rd, Suite 20, Tulsa", "@spider": "cava", "amenity": "restaurant", "cuisine": "mediterranean", "addr:street_address": "10005 S Memorial Rd, Suite 20, Tulsa", "addr:city": "Southtown", "addr:state": "OK", "addr:postcode": "74133", "name": "CAVA", "phone": "918-550-5231", "opening_hours": "Mo-Su 10:45-22:00", "brand": "Cava", "brand:wikidata": "Q85751038", "nsi_id": "cava-96af40"}},
{"type": "Feature", "id": "cGd51bJE3KfPF5_6BJYrsrpa8y4=", "properties": {"ref": "7427 South Olympia, Tulsa", "@spider": "cava", "amenity": "restaurant", "cuisine": "mediterranean", "addr:street_address": "7427 South Olympia, Tulsa", "addr:city": "Tulsa Hills", "addr:state": "OK", "addr:postcode": "74132", "name": "CAVA", "phone": "539-242-6380", "opening_hours": "Mo-Su 10:45-22:00", "brand": "Cava", "brand:wikidata": "Q85751038", "nsi_id": "cava-96af40"}},
{"type": "Feature", "id": "CRNTBJPKHfWZi-QP53L2yieA9gA=", "properties": {"ref": "3741 West Chester Pike, Suite 107, Newtown Square", "@spider": "cava", "amenity": "restaurant", "cuisine": "mediterranean", "addr:street_address": "3741 West Chester Pike, Suite 107, Newtown Square", "addr:city": "Ellis Preserve", "addr:state": "PA", "addr:postcode": "19073", "name": "CAVA", "phone": "484-421-2112", "opening_hours": "Mo-Su 10:45-22:00", "brand": "Cava", "brand:wikidata": "Q85751038", "nsi_id": "cava-96af40"}},
{"type": "Feature", "id": "uha7g0rqHoyez8obpj4fgcc9zn4=", "properties": {"ref": "1751 Wilmington Pike, Suite B-1, Glen Mills", "@spider": "cava", "amenity": "restaurant", "cuisine": "mediterranean", "addr:street_address": "1751 Wilmington Pike, Suite B-1, Glen Mills", "addr:city": "Glen Mills", "addr:state": "PA", "addr:postcode": "19342", "name": "CAVA", "phone": "484-848-5103", "opening_hours": "Mo-Su 10:45-22:00", "brand": "Cava", "brand:wikidata": "Q85751038", "nsi_id": "cava-96af40"}},
{"type": "Feature", "id": "6Z3cyPkFNEd2T6z1y9oeA20UoSc=", "properties": {"ref": "1569 Fruitville Pike\t, Suite 1, , Lancaster", "@spider": "cava", "amenity": "restaurant", "cuisine": "mediterranean", "addr:street_address": "1569 Fruitville Pike\t, Suite 1, , Lancaster", "addr:city": "Lancaster", "addr:state": "PA", "addr:postcode": "17601", "name": "CAVA", "phone": "223-244-6535", "opening_hours": "Mo-Su 10:45-22:00", "brand": "Cava", "brand:wikidata": "Q85751038", "nsi_id": "cava-96af40"}},
{"type": "Feature", "id": "KhxQzZHeOzjx9ZPza_WABaKZB_o=", "properties": {"ref": "500 W Germantown Pike, Suite 520, Plymouth Meeting", "@spider": "cava", "amenity": "restaurant", "cuisine": "mediterranean", "addr:street_address": "500 W Germantown Pike, Suite 520, Plymouth Meeting", "addr:city": "Plymouth Meeting", "addr:state": "PA", "addr:postcode": "19462", "name": "CAVA", "phone": "484-535-5443", "opening_hours": "Mo-Su 10:45-21:00", "brand": "Cava", "brand:wikidata": "Q85751038", "nsi_id": "cava-96af40"}},
{"type": "Feature", "id": "mIGOLKjYj1M4pQWZ7chYfqlLrSQ=", "properties": {"ref": "1713 Chestnut Street, Philadelphia", "@spider": "cava", "amenity": "restaurant", "cuisine": "mediterranean", "addr:street_address": "1713 Chestnut Street, Philadelphia", "addr:city": "Rittenhouse", "addr:state": "PA", "addr:postcode": "19103", "name": "CAVA", "phone": "215-259-3266", "opening_hours": "Mo-Su 10:45-22:00", "brand": "Cava", "brand:wikidata": "Q85751038", "nsi_id": "cava-96af40"}},
{"type": "Feature", "id": "i07UYTGUrl4zUUIS27TTnvx8E1s=", "properties": {"ref": "40 Coulter Ave, Suite 175, Ardmore", "@spider": "cava", "amenity": "restaurant", "cuisine": "mediterranean", "addr:street_address": "40 Coulter Ave, Suite 175, Ardmore", "addr:city": "Suburban Square", "addr:state": "PA", "addr:postcode": "19003", "name": "CAVA", "phone": "484-282-3241", "opening_hours": "Mo-Su 10:45-22:00", "brand": "Cava", "brand:wikidata": "Q85751038", "nsi_id": "cava-96af40"}},
{"type": "Feature", "id": "Qq1151Nk_hr45srkFOh2V9-C-p8=", "properties": {"ref": "1250B Fording Island Rd., Bluffton", "@spider": "cava", "amenity": "restaurant", "cuisine": "mediterranean", "addr:street_address": "1250B Fording Island Rd., Bluffton", "addr:city": "Bluffton", "addr:state": "SC", "addr:postcode": "29910", "name": "CAVA", "phone": "843-949-4647", "opening_hours": "Mo-Su 10:45-22:00", "brand": "Cava", "brand:wikidata": "Q85751038", "nsi_id": "cava-96af40"}},
{"type": "Feature", "id": "Fu-ywzQlu_w-jrHkOoZiBIukC0Q=", "properties": {"ref": "4855 Forest Dr., Columbia", "@spider": "cava", "amenity": "restaurant", "cuisine": "mediterranean", "addr:street_address": "4855 Forest Dr., Columbia", "addr:city": "Forest Drive (Columbia)", "addr:state": "SC", "addr:postcode": "29206", "name": "CAVA", "phone": "803-769-8995", "opening_hours": "Mo-Su 10:45-22:00", "brand": "Cava", "brand:wikidata": "Q85751038", "nsi_id": "cava-96af40"}},
{"type": "Feature", "id": "8GGNhF-nWru_GOuV86ZUq_ZU25o=", "properties": {"ref": "2123 Augusta Street, Suite A, Greenville", "@spider": "cava", "amenity": "restaurant", "cuisine": "mediterranean", "addr:street_address": "2123 Augusta Street, Suite A, Greenville", "addr:city": "Greenville", "addr:state": "SC", "addr:postcode": "29605", "name": "CAVA", "phone": "864-535-6933", "opening_hours": "Mo-Su 10:45-22:00", "brand": "Cava", "brand:wikidata": "Q85751038", "nsi_id": "cava-96af40"}},
{"type": "Feature", "id": "nPZ43bcYlf7veraRochHbsXH6Uw=", "properties": {"ref": "1242 Belk Dr, Suite 101, Mt Pleasant", "@spider": "cava", "amenity": "restaurant", "cuisine": "mediterranean", "addr:street_address": "1242 Belk Dr, Suite 101, Mt Pleasant", "addr:city": "Mt. Pleasant", "addr:state": "SC", "addr:postcode": "29464", "name": "CAVA", "phone": "843-984-2789", "opening_hours": "Mo-Su 10:45-22:00", "brand": "Cava", "brand:wikidata": "Q85751038", "nsi_id": "cava-96af40"}},
{"type": "Feature", "id": "nFvm_O78OGGTTy3XcDMIftmC5T0=", "properties": {"ref": "422 21st Ave S, Nashville", "@spider": "cava", "amenity": "restaurant", "cuisine": "mediterranean", "addr:street_address": "422 21st Ave S, Nashville", "addr:city": "21st Avenue", "addr:state": "TN", "addr:postcode": "37203", "name": "CAVA", "phone": "629-240-1274", "opening_hours": "Mo-Su 10:45-22:00", "brand": "Cava", "brand:wikidata": "Q85751038", "nsi_id": "cava-96af40"}},
{"type": "Feature", "id": "Q7-IpgfmTp0PtzUxoTj1m7O0WCo=", "properties": {"ref": "5010 Broadway Place, Suite 200, Nashville", "@spider": "cava", "amenity": "restaurant", "cuisine": "mediterranean", "addr:street_address": "5010 Broadway Place, Suite 200, Nashville", "addr:city": "5th & Broadway", "addr:state": "TN", "addr:postcode": "37203", "name": "CAVA", "phone": "615-301-1736", "opening_hours": "Mo-Su 10:45-22:00", "brand": "Cava", "brand:wikidata": "Q85751038", "nsi_id": "cava-96af40"}},
{"type": "Feature", "id": "WiNrLLyyGb6tk7Jj11ahyPhBe_E=", "properties": {"ref": "6638 Kingston Pike, Knoxville", "@spider": "cava", "amenity": "restaurant", "cuisine": "mediterranean", "addr:street_address": "6638 Kingston Pike, Knoxville", "addr:city": "Bearden Station", "addr:state": "TN", "addr:postcode": "37919", "name": "CAVA", "phone": "865-381-5360", "opening_hours": "Mo-Su 10:45-22:00", "brand": "Cava", "brand:wikidata": "Q85751038", "nsi_id": "cava-96af40"}},
{"type": "Feature", "id": "H_LehnYaDJerTX11bGbpHvVv4Ew=", "properties": {"ref": "6025 Highway 100, Nashville", "@spider": "cava", "amenity": "restaurant", "cuisine": "mediterranean", "addr:street_address": "6025 Highway 100, Nashville", "addr:city": "Belle Meade", "addr:state": "TN", "addr:postcode": "37205", "name": "CAVA", "phone": "629-240-1575", "opening_hours": "Mo-Su 10:45-20:00", "brand": "Cava", "brand:wikidata": "Q85751038", "nsi_id": "cava-96af40"}},
{"type": "Feature", "id": "MPnO7K2WUoJ4pSZuFV9SUEt1FiE=", "properties": {"ref": "3058 Mallory Ln , Suite 160, Franklin", "@spider": "cava", "amenity": "restaurant", "cuisine": "mediterranean", "addr:street_address": "3058 Mallory Ln , Suite 160, Franklin", "addr:city": "Franklin", "addr:state": "TN", "addr:postcode": "37067", "name": "CAVA", "phone": "615-465-0177", "opening_hours": "Mo-Su 10:45-22:00", "brand": "Cava", "brand:wikidata": "Q85751038", "nsi_id": "cava-96af40"}},
{"type": "Feature", "id": "sAICqlAPdoxqHhN7JZm4pzsJoyw=", "properties": {"ref": "2171 Green Hills Village Drive, Nashville", "@spider": "cava", "amenity": "restaurant", "cuisine": "mediterranean", "addr:street_address": "2171 Green Hills Village Drive, Nashville", "addr:city": "Green Hills", "addr:state": "TN", "addr:postcode": "37215", "name": "CAVA", "phone": "615-301-8455", "opening_hours": "Mo-Su 10:45-22:00", "brand": "Cava", "brand:wikidata": "Q85751038", "nsi_id": "cava-96af40"}},
{"type": "Feature", "id": "1MCgmWyZ_fqTxTu_J9mqAYNKV18=", "properties": {"ref": "11378 Parkside Drive, Ste 2510, Knoxville", "@spider": "cava", "amenity": "restaurant", "cuisine": "mediterranean", "addr:street_address": "11378 Parkside Drive, Ste 2510, Knoxville", "addr:city": "Turkey Creek", "addr:state": "TN", "addr:postcode": "37934", "name": "CAVA", "phone": "865-288-9905", "opening_hours": "Mo-Su 10:45-22:00", "brand": "Cava", "brand:wikidata": "Q85751038", "nsi_id": "cava-96af40"}},
{"type": "Feature", "id": "pAtH1BWTqVzwqMJqNEKTDHojtpk=", "properties": {"ref": "515 Congress Avenue, Austin", "@spider": "cava", "amenity": "restaurant", "cuisine": "mediterranean", "addr:street_address": "515 Congress Avenue, Austin", "addr:city": "6th & Congress", "addr:state": "TX", "addr:postcode": "78701", "name": "CAVA", "phone": "512-256-8002", "opening_hours": "Mo-Su 10:45-22:00", "brand": "Cava", "brand:wikidata": "Q85751038", "nsi_id": "cava-96af40"}},
{"type": "Feature", "id": "phGnKCdsGc3acz-oF_qVyiGX2eA=", "properties": {"ref": " 5100 Belt Line Road, Suite 1056, Dallas", "@spider": "cava", "amenity": "restaurant", "cuisine": "mediterranean", "addr:street_address": " 5100 Belt Line Road, Suite 1056, Dallas", "addr:city": "Addison", "addr:state": "TX", "addr:postcode": "75254", "name": "CAVA", "phone": "469-250-8010", "opening_hours": "Mo-Su 10:45-22:00", "brand": "Cava", "brand:wikidata": "Q85751038", "nsi_id": "cava-96af40"}},
{"type": "Feature", "id": "5TdT7BgDVMPGZMMfOX3kNIknuq8=", "properties": {"ref": "1501 C Bay Area Blvd., Webster", "@spider": "cava", "amenity": "restaurant", "cuisine": "mediterranean", "addr:street_address": "1501 C Bay Area Blvd., Webster", "addr:city": "Baybrook", "addr:state": "TX", "addr:postcode": "77598", "name": "CAVA", "phone": "346-788-3352", "opening_hours": "Mo-Su 10:45-22:00", "brand": "Cava", "brand:wikidata": "Q85751038", "nsi_id": "cava-96af40"}},
{"type": "Feature", "id": "VncUisTptMBtjTZAOmgRv4TVb4I=", "properties": {"ref": "13610 San Pedro Avenue, San Antonio", "@spider": "cava", "amenity": "restaurant", "cuisine": "mediterranean", "addr:street_address": "13610 San Pedro Avenue, San Antonio", "addr:city": "Bitters", "addr:state": "TX", "addr:postcode": "78232", "name": "CAVA", "phone": "726-207-4048", "opening_hours": "Mo-Su 10:45-20:00", "brand": "Cava", "brand:wikidata": "Q85751038", "nsi_id": "cava-96af40"}},
{"type": "Feature", "id": "nqWsneMXpmFyljgmVi2yW8DqNZA=", "properties": {"ref": "9323 Garland Rd, Suite 106, Dallas", "@spider": "cava", "amenity": "restaurant", "cuisine": "mediterranean", "addr:street_address": "9323 Garland Rd, Suite 106, Dallas", "addr:city": "Casa Linda", "addr:state": "TX", "addr:postcode": "75218", "name": "CAVA", "phone": "682-757-4495", "opening_hours": "Mo-Su 10:45-22:00", "brand": "Cava", "brand:wikidata": "Q85751038", "nsi_id": "cava-96af40"}},
{"type": "Feature", "id": "4GCYeB35C6ipOYtT03gM0sscYv0=", "properties": {"ref": "905 E Whitestone Blvd, Suite H, Cedar Park", "@spider": "cava", "amenity": "restaurant", "cuisine": "mediterranean", "addr:street_address": "905 E Whitestone Blvd, Suite H, Cedar Park", "addr:city": "Cedar Park", "addr:state": "TX", "addr:postcode": "78613", "name": "CAVA", "phone": "512-337-2336", "opening_hours": "Mo-Su 10:45-22:00", "brand": "Cava", "brand:wikidata": "Q85751038", "nsi_id": "cava-96af40"}},
{"type": "Feature", "id": "bfVRD-qRJvy0mUbmijyE-nNc22s=", "properties": {"ref": "2643 Commercial Center Blvd, Suite C300, Katy", "@spider": "cava", "amenity": "restaurant", "cuisine": "mediterranean", "addr:street_address": "2643 Commercial Center Blvd, Suite C300, Katy", "addr:city": "Cinco Ranch", "addr:state": "TX", "addr:postcode": "77494", "name": "CAVA", "phone": "346-456-4564", "opening_hours": "Mo-Su 10:45-22:00", "brand": "Cava", "brand:wikidata": "Q85751038", "nsi_id": "cava-96af40"}},
{"type": "Feature", "id": "2CpPN8UrmdOoV88wNzMzaCa0-Ck=", "properties": {"ref": "1099 University Drive, Suite 115, College Station", "@spider": "cava", "amenity": "restaurant", "cuisine": "mediterranean", "addr:street_address": "1099 University Drive, Suite 115, College Station", "addr:city": "College Station", "addr:state": "TX", "addr:postcode": "77840", "name": "CAVA", "phone": "936-571-1751", "opening_hours": "Mo-Su 10:45-22:00", "brand": "Cava", "brand:wikidata": "Q85751038", "nsi_id": "cava-96af40"}},
{"type": "Feature", "id": "Zr3RDz9gpddCdFTg2iqp5FCSF-I=", "properties": {"ref": "120 S. Denton Tap Rd., Ste. 490 , Coppell", "@spider": "cava", "amenity": "restaurant", "cuisine": "mediterranean", "addr:street_address": "120 S. Denton Tap Rd., Ste. 490 , Coppell", "addr:city": "Coppell", "addr:state": "TX", "addr:postcode": "75019", "name": "CAVA", "phone": "469-946-8503", "opening_hours": "Mo-Su 10:45-22:00", "brand": "Cava", "brand:wikidata": "Q85751038", "nsi_id": "cava-96af40"}},
{"type": "Feature", "id": "COzlBhSDuYq0p7csNlx0AIVWqHM=", "properties": {"ref": "16120 W Eldorado Pkwy, Suite 300, Frisco", "@spider": "cava", "amenity": "restaurant", "cuisine": "mediterranean", "addr:street_address": "16120 W Eldorado Pkwy, Suite 300, Frisco", "addr:city": "Custer Star", "addr:state": "TX", "addr:postcode": "75035", "name": "CAVA", "phone": "469-815-6521", "opening_hours": "Mo-Su 10:45-22:00", "brand": "Cava", "brand:wikidata": "Q85751038", "nsi_id": "cava-96af40"}},
{"type": "Feature", "id": "q4nSVapm4CQxqEBtQ6oWNTzJgSs=", "properties": {"ref": "28920 Highway 290, Suite H01, Cypress", "@spider": "cava", "amenity": "restaurant", "cuisine": "mediterranean", "addr:street_address": "28920 Highway 290, Suite H01, Cypress", "addr:city": "Cypress", "addr:state": "TX", "addr:postcode": "77433", "name": "CAVA", "phone": "346-818-2945", "opening_hours": "Mo-Su 10:45-22:00", "brand": "Cava", "brand:wikidata": "Q85751038", "nsi_id": "cava-96af40"}},
{"type": "Feature", "id": "XUyLp8u3j1i4-wEMW710sVaNiy0=", "properties": {"ref": "5871 Long Prairie Road, Suite 300, Flower Mound", "@spider": "cava", "amenity": "restaurant", "cuisine": "mediterranean", "addr:street_address": "5871 Long Prairie Road, Suite 300, Flower Mound", "addr:city": "Flower Mound", "addr:state": "TX", "addr:postcode": "75028", "name": "CAVA", "phone": "469-702-9025", "opening_hours": "Mo-Su 10:45-22:00", "brand": "Cava", "brand:wikidata": "Q85751038", "nsi_id": "cava-96af40"}},
{"type": "Feature", "id": "CpSoYyJT2mJSg_aMmalgUakWjbY=", "properties": {"ref": "5252 Main St, Suite 120, Frisco", "@spider": "cava", "amenity": "restaurant", "cuisine": "mediterranean", "addr:street_address": "5252 Main St, Suite 120, Frisco", "addr:city": "Frisco Market Center", "addr:state": "TX", "addr:postcode": "75034", "name": "CAVA", "phone": "469-283-0848", "opening_hours": "Mo-Su 10:45-22:00", "brand": "Cava", "brand:wikidata": "Q85751038", "nsi_id": "cava-96af40"}},
{"type": "Feature", "id": "jr1BIVEBF_JZ3hUf1mPPDriShek=", "properties": {"ref": "1201 W University Dr., Georgetown", "@spider": "cava", "amenity": "restaurant", "cuisine": "mediterranean", "addr:street_address": "1201 W University Dr., Georgetown", "addr:city": "Georgetown", "addr:state": "TX", "addr:postcode": "78628", "name": "CAVA", "phone": "737-738-5658", "opening_hours": "Mo-Su 10:45-22:00", "brand": "Cava", "brand:wikidata": "Q85751038", "nsi_id": "cava-96af40"}},
{"type": "Feature", "id": "ukY-UrQ0k46McAfNg6tCn2INFlw=", "properties": {"ref": "4000 Washington, Suite 101, Houston", "@spider": "cava", "amenity": "restaurant", "cuisine": "mediterranean", "addr:street_address": "4000 Washington, Suite 101, Houston", "addr:city": "Houston (Washington)", "addr:state": "TX", "addr:postcode": "77007", "name": "CAVA", "phone": "346-971-5833", "opening_hours": "Mo-Su 10:45-22:00", "brand": "Cava", "brand:wikidata": "Q85751038", "nsi_id": "cava-96af40"}},
{"type": "Feature", "id": "H6ZbfbUd_ccqZ7yHpjnY3ySzC2M=", "properties": {"ref": "250 W. 20th St., Unit 400, Houston", "@spider": "cava", "amenity": "restaurant", "cuisine": "mediterranean", "addr:street_address": "250 W. 20th St., Unit 400, Houston", "addr:city": "Houston Heights", "addr:state": "TX", "addr:postcode": "77008", "name": "CAVA", "phone": "346-327-1527", "opening_hours": "Mo-Su 10:45-22:00", "brand": "Cava", "brand:wikidata": "Q85751038", "nsi_id": "cava-96af40"}},
{"type": "Feature", "id": "2b4iWActfdRsWhpfmYKQkS_5p3E=", "properties": {"ref": "4505 Kingwood Dr, Suite 100, Kingwood", "@spider": "cava", "amenity": "restaurant", "cuisine": "mediterranean", "addr:street_address": "4505 Kingwood Dr, Suite 100, Kingwood", "addr:city": "Kingwood", "addr:state": "TX", "addr:postcode": "77345", "name": "CAVA", "phone": "346-477-8539", "opening_hours": "Mo-Su 10:45-22:00", "brand": "Cava", "brand:wikidata": "Q85751038", "nsi_id": "cava-96af40"}},
{"type": "Feature", "id": "5RN-MxqAubUwXroJU86hEBy9VYQ=", "properties": {"ref": "2009 Abrams Pkwy, Dallas", "@spider": "cava", "amenity": "restaurant", "cuisine": "mediterranean", "addr:street_address": "2009 Abrams Pkwy, Dallas", "addr:city": "Lakewood", "addr:state": "TX", "addr:postcode": "75214", "name": "CAVA", "phone": "469-809-7978", "opening_hours": "Mo-Su 10:45-22:00", "brand": "Cava", "brand:wikidata": "Q85751038", "nsi_id": "cava-96af40"}},
{"type": "Feature", "id": "lJEWP7XB1AOJAZcx1gJXhw5GUzI=", "properties": {"ref": "6731 N MacArthur Blvd, Suite 150, Irving", "@spider": "cava", "amenity": "restaurant", "cuisine": "mediterranean", "addr:street_address": "6731 N MacArthur Blvd, Suite 150, Irving", "addr:city": "Las Colinas", "addr:state": "TX", "addr:postcode": "75063", "name": "CAVA", "phone": "(469) 283-0483", "opening_hours": "Mo-Su 10:45-22:00", "brand": "Cava", "brand:wikidata": "Q85751038", "nsi_id": "cava-96af40"}},
{"type": "Feature", "id": "1nZ9DHNmQvp2jxghou2JJ1K03Uo=", "properties": {"ref": "7501 Windrose Avenue, Suite D170, Plano", "@spider": "cava", "amenity": "restaurant", "cuisine": "mediterranean", "addr:street_address": "7501 Windrose Avenue, Suite D170, Plano", "addr:city": "Legacy West", "addr:state": "TX", "addr:postcode": "75024", "name": "CAVA", "phone": "214-295-7667", "opening_hours": "Mo-Su 10:45-22:00", "brand": "Cava", "brand:wikidata": "Q85751038", "nsi_id": "cava-96af40"}},
{"type": "Feature", "id": "L7Pc7UjB9CD6vJdI8KJjpEXvtWc=", "properties": {"ref": "999 E Basse Rd, Suite 125, San Antonio", "@spider": "cava", "amenity": "restaurant", "cuisine": "mediterranean", "addr:street_address": "999 E Basse Rd, Suite 125, San Antonio", "addr:city": "Lincoln Heights", "addr:state": "TX", "addr:postcode": "78209", "name": "CAVA", "phone": "726-610-3055", "opening_hours": "Mo-Su 10:45-22:00", "brand": "Cava", "brand:wikidata": "Q85751038", "nsi_id": "cava-96af40"}},
{"type": "Feature", "id": "gxXAE221CeoAbx-CtTYjA9GJctk=", "properties": {"ref": "9595 Six Pines Dr, Ste 1490, The Woodlands", "@spider": "cava", "amenity": "restaurant", "cuisine": "mediterranean", "addr:street_address": "9595 Six Pines Dr, Ste 1490, The Woodlands", "addr:city": "Market Street", "addr:state": "TX", "addr:postcode": "77380", "name": "CAVA", "phone": "346-478-5059", "opening_hours": "Mo-Su 10:45-22:00", "brand": "Cava", "brand:wikidata": "Q85751038", "nsi_id": "cava-96af40"}},
{"type": "Feature", "id": "LMZCl4tA6b9Rt1Fzf_l5UHvn-Zg=", "properties": {"ref": "8018 Park Ln, Suite 100, Dallas", "@spider": "cava", "amenity": "restaurant", "cuisine": "mediterranean", "addr:street_address": "8018 Park Ln, Suite 100, Dallas", "addr:city": "Park Lane", "addr:state": "TX", "addr:postcode": "75231", "name": "CAVA", "phone": "(469) 250-8081", "opening_hours": "Mo-Su 10:45-22:00", "brand": "Cava", "brand:wikidata": "Q85751038", "nsi_id": "cava-96af40"}},
{"type": "Feature", "id": "xzvtYCnIX62zSwxURFCYocqYGXE=", "properties": {"ref": "11470 Broadway St, Suite 140, Pearland", "@spider": "cava", "amenity": "restaurant", "cuisine": "mediterranean", "addr:street_address": "11470 Broadway St, Suite 140, Pearland", "addr:city": "Pearland", "addr:state": "TX", "addr:postcode": "77584", "name": "CAVA", "phone": "346-699-1428", "opening_hours": "Mo-Su 10:45-22:00", "brand": "Cava", "brand:wikidata": "Q85751038", "nsi_id": "cava-96af40"}},
{"type": "Feature", "id": "OaftEP33QTMM8PRqT585niQW7vM=", "properties": {"ref": "2515 W University, Suite 6A, Denton", "@spider": "cava", "amenity": "restaurant", "cuisine": "mediterranean", "addr:street_address": "2515 W University, Suite 6A, Denton", "addr:city": "Rayzor Ranch", "addr:state": "TX", "addr:postcode": "76201", "name": "CAVA", "phone": "940-304-0245", "opening_hours": "Mo-Su 10:45-22:00", "brand": "Cava", "brand:wikidata": "Q85751038", "nsi_id": "cava-96af40"}},
{"type": "Feature", "id": "ZqB_ZAA-KEf5V5L5YToMMWjbllM=", "properties": {"ref": "222 W Campbell Road, Richardson", "@spider": "cava", "amenity": "restaurant", "cuisine": "mediterranean", "addr:street_address": "222 W Campbell Road, Richardson", "addr:city": "Richardson", "addr:state": "TX", "addr:postcode": "75080", "name": "CAVA", "phone": "469-809-7981", "opening_hours": "Mo-Su 10:45-22:00", "brand": "Cava", "brand:wikidata": "Q85751038", "nsi_id": "cava-96af40"}},
{"type": "Feature", "id": "GEmvecG-Ds1g-DixUwkiiT8xJJ8=", "properties": {"ref": "6800 Snider Plaza Blvd, University Park", "@spider": "cava", "amenity": "restaurant", "cuisine": "mediterranean", "addr:street_address": "6800 Snider Plaza Blvd, University Park", "addr:city": "Snider Plaza Digital Kitchen", "addr:state": "TX", "addr:postcode": "75205", "name": "CAVA", "phone": "945-468-6183", "opening_hours": "Mo-Su 10:45-20:00", "brand": "Cava", "brand:wikidata": "Q85751038", "nsi_id": "cava-96af40"}},
{"type": "Feature", "id": "xY5fn-eYT7XsiH3b5j_lOvry0oA=", "properties": {"ref": "427 N Loop 1604 W Bldg 2, Suite 210, San Antonio", "@spider": "cava", "amenity": "restaurant", "cuisine": "mediterranean", "addr:street_address": "427 N Loop 1604 W Bldg 2, Suite 210, San Antonio", "addr:city": "Sonterra Village", "addr:state": "TX", "addr:postcode": "78258", "name": "CAVA", "phone": "830-205-5302", "opening_hours": "Mo-Su 10:45-22:00", "brand": "Cava", "brand:wikidata": "Q85751038", "nsi_id": "cava-96af40"}},
{"type": "Feature", "id": "nemvX6JTfYwUpAHW-IOAygKfYBU=", "properties": {"ref": "2175 E Southlake Blvd, Southlake", "@spider": "cava", "amenity": "restaurant", "cuisine": "mediterranean", "addr:street_address": "2175 E Southlake Blvd, Southlake", "addr:city": "Southlake", "addr:state": "TX", "addr:postcode": "76092", "name": "CAVA", "phone": "469-283-1031", "opening_hours": "Mo-Su 10:45-22:00", "brand": "Cava", "brand:wikidata": "Q85751038", "nsi_id": "cava-96af40"}},
{"type": "Feature", "id": "RgPYbnrWoq05aL2WFwT1PS0DpY8=", "properties": {"ref": "2162 Spring Stuebner Rd., Building C, Suite 310, Spring", "@spider": "cava", "amenity": "restaurant", "cuisine": "mediterranean", "addr:street_address": "2162 Spring Stuebner Rd., Building C, Suite 310, Spring", "addr:city": "Springwood", "addr:state": "TX", "addr:postcode": "77389", "name": "CAVA", "phone": "346-478-5109", "opening_hours": "Mo-Su 10:45-22:00", "brand": "Cava", "brand:wikidata": "Q85751038", "nsi_id": "cava-96af40"}},
{"type": "Feature", "id": "38WOTG8YQG04i8UM6o8oIPFjirI=", "properties": {"ref": "11225 Huebner Rd TX, Suite  #105, San Antonio", "@spider": "cava", "amenity": "restaurant", "cuisine": "mediterranean", "addr:street_address": "11225 Huebner Rd TX, Suite  #105, San Antonio", "addr:city": "Strand", "addr:state": "TX", "addr:postcode": "78230", "name": "CAVA", "phone": "830-205-5293", "opening_hours": "Mo-Su 10:45-22:00", "brand": "Cava", "brand:wikidata": "Q85751038", "nsi_id": "cava-96af40"}},
{"type": "Feature", "id": "f_59C5b45lspUwC069gYxa3Bfnc=", "properties": {"ref": "2260 Lone Star Drive, Sugar Land", "@spider": "cava", "amenity": "restaurant", "cuisine": "mediterranean", "addr:street_address": "2260 Lone Star Drive, Sugar Land", "addr:city": "Sugar Land", "addr:state": "TX", "addr:postcode": "77479", "name": "CAVA", "phone": "346-450-5763", "opening_hours": "Mo-Su 10:45-22:00", "brand": "Cava", "brand:wikidata": "Q85751038", "nsi_id": "cava-96af40"}},
{"type": "Feature", "id": "y5r5DqAJxLF7DEh-8DXix4dmwKg=", "properties": {"ref": "5601 Brodie Lane, Suite 1525, Austin", "@spider": "cava", "amenity": "restaurant", "cuisine": "mediterranean", "addr:street_address": "5601 Brodie Lane, Suite 1525, Austin", "addr:city": "Sunset Valley", "addr:state": "TX", "addr:postcode": "78745", "name": "CAVA", "phone": "512-222-5609", "opening_hours": "Mo-Su 10:45-22:00", "brand": "Cava", "brand:wikidata": "Q85751038", "nsi_id": "cava-96af40"}},
{"type": "Feature", "id": "29PXwqheGdJDFg2v6YQDHzoYAaQ=", "properties": {"ref": "10808 Domain Drive, Austin", "@spider": "cava", "amenity": "restaurant", "cuisine": "mediterranean", "addr:street_address": "10808 Domain Drive, Austin", "addr:city": "The Domain", "addr:state": "TX", "addr:postcode": "78758", "name": "CAVA", "phone": "512-967-1709", "opening_hours": "Mo-Su 10:45-22:00", "brand": "Cava", "brand:wikidata": "Q85751038", "nsi_id": "cava-96af40"}},
{"type": "Feature", "id": "Hce2Ka2QIO-LThAM72NhjIenDuE=", "properties": {"ref": "2426 Guadalupe Street, Austin", "@spider": "cava", "amenity": "restaurant", "cuisine": "mediterranean", "addr:street_address": "2426 Guadalupe Street, Austin", "addr:city": "The Drag", "addr:state": "TX", "addr:postcode": "78705", "name": "CAVA", "phone": "512-215-4003", "opening_hours": "Mo-Su 10:45-22:00", "brand": "Cava", "brand:wikidata": "Q85751038", "nsi_id": "cava-96af40"}},
{"type": "Feature", "id": "uS_XNCvsThTSdua-U-JU6r57Y4I=", "properties": {"ref": "17603 La Cantera Pkwy, Bldg 100, San Antonio", "@spider": "cava", "amenity": "restaurant", "cuisine": "mediterranean", "addr:street_address": "17603 La Cantera Pkwy, Bldg 100, San Antonio", "addr:city": "The Rim", "addr:state": "TX", "addr:postcode": "78257", "name": "CAVA", "phone": "726-610-3190", "opening_hours": "Mo-Su 10:45-22:00", "brand": "Cava", "brand:wikidata": "Q85751038", "nsi_id": "cava-96af40"}},
{"type": "Feature", "id": "Rd_DatdvdWYDRDsNchl7r4ZkRWE=", "properties": {"ref": "6700 Woodlands Parkway, Suite 170, The Woodlands", "@spider": "cava", "amenity": "restaurant", "cuisine": "mediterranean", "addr:street_address": "6700 Woodlands Parkway, Suite 170, The Woodlands", "addr:city": "The Woodlands", "addr:state": "TX", "addr:postcode": "77382", "name": "CAVA", "phone": "346-298-7973", "opening_hours": "Mo-Su 10:45-22:00", "brand": "Cava", "brand:wikidata": "Q85751038", "nsi_id": "cava-96af40"}},
{"type": "Feature", "id": "ZEhxMO8r0Hgx0pTlnbSzbDMvYpE=", "properties": {"ref": "12850 Memorial Dr, Ste 1120, Houston", "@spider": "cava", "amenity": "restaurant", "cuisine": "mediterranean", "addr:street_address": "12850 Memorial Dr, Ste 1120, Houston", "addr:city": "Town & Country", "addr:state": "TX", "addr:postcode": "77024", "name": "CAVA", "phone": "346-330-4322", "opening_hours": "Mo-Su 10:45-22:00", "brand": "Cava", "brand:wikidata": "Q85751038", "nsi_id": "cava-96af40"}},
{"type": "Feature", "id": "wWzxcRDTpzeqw2_rW0_AA2s_DSY=", "properties": {"ref": "3878 Oak Lawn Ave, Suite 314, Dallas", "@spider": "cava", "amenity": "restaurant", "cuisine": "mediterranean", "addr:street_address": "3878 Oak Lawn Ave, Suite 314, Dallas", "addr:city": "Turtle Creek", "addr:state": "TX", "addr:postcode": "75219", "name": "CAVA", "phone": "469-809-3533", "opening_hours": "Mo-Su 10:45-22:00", "brand": "Cava", "brand:wikidata": "Q85751038", "nsi_id": "cava-96af40"}},
{"type": "Feature", "id": "6AhAeUWY_ex7amW5pLTWpVz6W6k=", "properties": {"ref": "1919 McKinney Avenue, Dallas", "@spider": "cava", "amenity": "restaurant", "cuisine": "mediterranean", "addr:street_address": "1919 McKinney Avenue, Dallas", "addr:city": "Uptown", "addr:state": "TX", "addr:postcode": "75201", "name": "CAVA", "phone": "214-281-8367", "opening_hours": "Mo-Su 10:45-22:00", "brand": "Cava", "brand:wikidata": "Q85751038", "nsi_id": "cava-96af40"}},
{"type": "Feature", "id": "BhPs71Nw-3kmlYvl0FqbAH718oQ=", "properties": {"ref": "10850 Louetta Rd, Ste 100, Houston", "@spider": "cava", "amenity": "restaurant", "cuisine": "mediterranean", "addr:street_address": "10850 Louetta Rd, Ste 100, Houston", "addr:city": "Vintage", "addr:state": "TX", "addr:postcode": "77070", "name": "CAVA", "phone": "346-246-2561", "opening_hours": "Mo-Su 10:45-22:00", "brand": "Cava", "brand:wikidata": "Q85751038", "nsi_id": "cava-96af40"}},
{"type": "Feature", "id": "Qy-InX3XnboN3Nv95OAel_U3iNo=", "properties": {"ref": "5917 Convair Dr, Suite 309, Fort Worth", "@spider": "cava", "amenity": "restaurant", "cuisine": "mediterranean", "addr:street_address": "5917 Convair Dr, Suite 309, Fort Worth", "addr:city": "Waterside", "addr:state": "TX", "addr:postcode": "76109", "name": "CAVA", "phone": "(817) 710-1844", "opening_hours": "Mo-Su 10:45-22:00", "brand": "Cava", "brand:wikidata": "Q85751038", "nsi_id": "cava-96af40"}},
{"type": "Feature", "id": "Z3scN4T9fjYpn_Sech65YIZFchY=", "properties": {"ref": "2550 Citywest Blvd, Suite 600, Houston", "@spider": "cava", "amenity": "restaurant", "cuisine": "mediterranean", "addr:street_address": "2550 Citywest Blvd, Suite 600, Houston", "addr:city": "Westchase", "addr:state": "TX", "addr:postcode": "77042", "name": "CAVA", "phone": "346-327-1205", "opening_hours": "Mo-Su 10:45-22:00", "brand": "Cava", "brand:wikidata": "Q85751038", "nsi_id": "cava-96af40"}},
{"type": "Feature", "id": "k-Z8aPhoeMps9dh2ERwiTa0w6gc=", "properties": {"ref": "3201 Bee Caves Road, Austin", "@spider": "cava", "amenity": "restaurant", "cuisine": "mediterranean", "addr:street_address": "3201 Bee Caves Road, Austin", "addr:city": "Westlake", "addr:state": "TX", "addr:postcode": "78746", "name": "CAVA", "phone": "512-792-4957", "opening_hours": "Mo-Su 10:45-22:00", "brand": "Cava", "brand:wikidata": "Q85751038", "nsi_id": "cava-96af40"}},
{"type": "Feature", "id": "JWD0tMY-fJ18AwSaprPWPr8kjMc=", "properties": {"ref": "701 S Capital of Texas Hwy, Suite G750, Westlake Hills", "@spider": "cava", "amenity": "restaurant", "cuisine": "mediterranean", "addr:street_address": "701 S Capital of Texas Hwy, Suite G750, Westlake Hills", "addr:city": "Westlake Hills", "addr:state": "TX", "addr:postcode": "78746", "name": "CAVA", "phone": "737-910-4672", "opening_hours": "Mo-Su 10:45-20:00", "brand": "Cava", "brand:wikidata": "Q85751038", "nsi_id": "cava-96af40"}},
{"type": "Feature", "id": "g-XQoUtfU7b2bhl87iShNgaLFN0=", "properties": {"ref": "3644 King Street, Alexandria", "@spider": "cava", "amenity": "restaurant", "cuisine": "mediterranean", "addr:street_address": "3644 King Street, Alexandria", "addr:city": "Alexandria", "addr:state": "VA", "addr:postcode": "22302", "name": "CAVA", "phone": "571-370-8061", "opening_hours": "Mo-Su 10:45-20:00", "brand": "Cava", "brand:wikidata": "Q85751038", "nsi_id": "cava-96af40"}},
{"type": "Feature", "id": "Lbczkx0-xe9S1PO1zwOHE-dh16I=", "properties": {"ref": "4513 Duke Street, Alexandria", "@spider": "cava", "amenity": "restaurant", "cuisine": "mediterranean", "addr:street_address": "4513 Duke Street, Alexandria", "addr:city": "Alexandria - Foxchase", "addr:state": "VA", "addr:postcode": "22314", "name": "CAVA", "phone": "571-223-6440", "opening_hours": "Mo-Su 10:45-22:00", "brand": "Cava", "brand:wikidata": "Q85751038", "nsi_id": "cava-96af40"}},
{"type": "Feature", "id": "3veV123Gk-imKnXIG1AgRk1LkKc=", "properties": {"ref": "5965 Kingstowne Towne Center, Suite 100, Alexandria", "@spider": "cava", "amenity": "restaurant", "cuisine": "mediterranean", "addr:street_address": "5965 Kingstowne Towne Center, Suite 100, Alexandria", "addr:city": "Alexandria - Kingstowne", "addr:state": "VA", "addr:postcode": "22315", "name": "CAVA", "phone": "703-972-6191", "opening_hours": "Mo-Su 10:45-22:00", "brand": "Cava", "brand:wikidata": "Q85751038", "nsi_id": "cava-96af40"}},
{"type": "Feature", "id": "IN4wnRxKFG3LXxcqbaysiBZAq44=", "properties": {"ref": "19825 Belmont Chase Drive, Ashburn", "@spider": "cava", "amenity": "restaurant", "cuisine": "mediterranean", "addr:street_address": "19825 Belmont Chase Drive, Ashburn", "addr:city": "Ashburn", "addr:state": "VA", "addr:postcode": "20147", "name": "CAVA", "phone": "703-955-3645", "opening_hours": "Mo-Su 10:45-22:00", "brand": "Cava", "brand:wikidata": "Q85751038", "nsi_id": "cava-96af40"}},
{"type": "Feature", "id": "KSUEo5A_KqKdsKdWuB_AInKRbtU=", "properties": {"ref": "4121 Wilson Blvd, Arlington", "@spider": "cava", "amenity": "restaurant", "cuisine": "mediterranean", "addr:street_address": "4121 Wilson Blvd, Arlington", "addr:city": "Ballston", "addr:state": "VA", "addr:postcode": "22203", "name": "CAVA", "phone": "703-310-6791", "opening_hours": "Mo-Su 10:00-22:00", "brand": "Cava", "brand:wikidata": "Q85751038", "nsi_id": "cava-96af40"}},
{"type": "Feature", "id": "_rrv9KizFqQZQcoSCYkV85_t96k=", "properties": {"ref": "5765A Burke Centre Parkway, Burke", "@spider": "cava", "amenity": "restaurant", "cuisine": "mediterranean", "addr:street_address": "5765A Burke Centre Parkway, Burke", "addr:city": "Burke", "addr:state": "VA", "addr:postcode": "22015", "name": "CAVA", "phone": "571-222-4115", "opening_hours": "Mo-Su 10:45-22:00", "brand": "Cava", "brand:wikidata": "Q85751038", "nsi_id": "cava-96af40"}},
{"type": "Feature", "id": "dC9U7Yta-d_Nb4HYOHzmR8l6i-I=", "properties": {"ref": "14337 Newbrook Drive, Chantilly", "@spider": "cava", "amenity": "restaurant", "cuisine": "mediterranean", "addr:street_address": "14337 Newbrook Drive, Chantilly", "addr:city": "Chantilly", "addr:state": "VA", "addr:postcode": "20151", "name": "CAVA", "phone": "571-234-5849", "opening_hours": "Mo-Su 10:00-22:00", "brand": "Cava", "brand:wikidata": "Q85751038", "nsi_id": "cava-96af40"}},
{"type": "Feature", "id": "tbFAw4HBJXuqnAywoEfrwu2N34k=", "properties": {"ref": "1200 Emmet Street N, Charlottesville", "@spider": "cava", "amenity": "restaurant", "cuisine": "mediterranean", "addr:street_address": "1200 Emmet Street N, Charlottesville", "addr:city": "Charlottesville - Barracks Road", "addr:state": "VA", "addr:postcode": "22903", "name": "CAVA", "phone": "434-227-4800", "opening_hours": "Mo-Su 10:45-22:00", "brand": "Cava", "brand:wikidata": "Q85751038", "nsi_id": "cava-96af40"}},
{"type": "Feature", "id": "sBDIYE2Jld27rxqXE0IDl4X4Tuo=", "properties": {"ref": "801 Eden Way N, Chesapeake", "@spider": "cava", "amenity": "restaurant", "cuisine": "mediterranean", "addr:street_address": "801 Eden Way N, Chesapeake", "addr:city": "Chesapeake", "addr:state": "VA", "addr:postcode": "23320", "name": "CAVA", "phone": "757-970-0283 ", "opening_hours": "Mo-Su 10:45-22:00", "brand": "Cava", "brand:wikidata": "Q85751038", "nsi_id": "cava-96af40"}},
{"type": "Feature", "id": "sxvETU-NCp5g-1bSpX9SWfoHriQ=", "properties": {"ref": "11046 Lee Hwy , Kamp Washington Center, Fairfax", "@spider": "cava", "amenity": "restaurant", "cuisine": "mediterranean", "addr:street_address": "11046 Lee Hwy , Kamp Washington Center, Fairfax", "addr:city": "Fairfax (Kamp Washington)", "addr:state": "VA", "addr:postcode": "22030", "name": "CAVA", "phone": "703-955-3825", "opening_hours": "Mo-Su 10:45-22:00", "brand": "Cava", "brand:wikidata": "Q85751038", "nsi_id": "cava-96af40"}},
{"type": "Feature", "id": "Qxrf4M62Z_0jQZjB8iIYnyZzlko=", "properties": {"ref": "3205 Plank Road, Fredericksburg", "@spider": "cava", "amenity": "restaurant", "cuisine": "mediterranean", "addr:street_address": "3205 Plank Road, Fredericksburg", "addr:city": "Fredericksburg", "addr:state": "VA ", "addr:postcode": "22401", "name": "CAVA", "phone": "540-298-6347", "opening_hours": "Mo-Su 10:45-22:00", "brand": "Cava", "brand:wikidata": "Q85751038", "nsi_id": "cava-96af40"}},
{"type": "Feature", "id": "5SwgG1V2LEPMVXptx7yvhGH_ivk=", "properties": {"ref": "13959 Promenade Commons Street, Gainesville", "@spider": "cava", "amenity": "restaurant", "cuisine": "mediterranean", "addr:street_address": "13959 Promenade Commons Street, Gainesville", "addr:city": "Gainesville", "addr:state": "VA", "addr:postcode": "20155", "name": "CAVA", "phone": "571-234-5934", "opening_hours": "Mo-Su 10:00-22:00", "brand": "Cava", "brand:wikidata": "Q85751038", "nsi_id": "cava-96af40"}},
{"type": "Feature", "id": "FcBiblFElLQV6-vKL0qVTgrpzKA=", "properties": {"ref": "1912 Landstown Centre Way, Suite 100, Virginia Beach", "@spider": "cava", "amenity": "restaurant", "cuisine": "mediterranean", "addr:street_address": "1912 Landstown Centre Way, Suite 100, Virginia Beach", "addr:city": "Landstown", "addr:state": "VA", "addr:postcode": "23456", "name": "CAVA", "phone": "757-970-3998", "opening_hours": "Mo-Su 10:45-22:00", "brand": "Cava", "brand:wikidata": "Q85751038", "nsi_id": "cava-96af40"}},
{"type": "Feature", "id": "85XrtTrBwXgTgF-AKFupLpb7g88=", "properties": {"ref": "3901 Old Forest Rd, Ste. G701, Lynchburg", "@spider": "cava", "amenity": "restaurant", "cuisine": "mediterranean", "addr:street_address": "3901 Old Forest Rd, Ste. G701, Lynchburg", "addr:city": "Lynchburg", "addr:state": "VA", "addr:postcode": "24501", "name": "CAVA", "phone": "434-300-3189", "opening_hours": "Mo-Su 10:45-22:00", "brand": "Cava", "brand:wikidata": "Q85751038", "nsi_id": "cava-96af40"}},
{"type": "Feature", "id": "lVxoKHcvO1UqPpmapF-V6q0pegE=", "properties": {"ref": "1445 Chain Bridge Road, McLean", "@spider": "cava", "amenity": "restaurant", "cuisine": "mediterranean", "addr:street_address": "1445 Chain Bridge Road, McLean", "addr:city": "McLean", "addr:state": "VA", "addr:postcode": "22101", "name": "CAVA", "phone": "571-234-5935", "opening_hours": "Mo-Su 10:45-22:00", "brand": "Cava", "brand:wikidata": "Q85751038", "nsi_id": "cava-96af40"}},
{"type": "Feature", "id": "mXeX1TjYdfVBFz-jV8e-FBjX-ug=", "properties": {"ref": "1403 Huguenot Road, Midlothian", "@spider": "cava", "amenity": "restaurant", "cuisine": "mediterranean", "addr:street_address": "1403 Huguenot Road, Midlothian", "addr:city": "Midlothian", "addr:state": "VA", "addr:postcode": "23113", "name": "CAVA", "phone": "804-251-8040", "opening_hours": "Mo-Su 10:45-22:00", "brand": "Cava", "brand:wikidata": "Q85751038", "nsi_id": "cava-96af40"}},
{"type": "Feature", "id": "yJe_WSRP19t6IzyJoJuF_8_pgDY=", "properties": {"ref": "2905 District Avenue, Fairfax", "@spider": "cava", "amenity": "restaurant", "cuisine": "mediterranean", "addr:street_address": "2905 District Avenue, Fairfax", "addr:city": "Mosaic District", "addr:state": "VA", "addr:postcode": "22031", "name": "CAVA", "phone": "703-988-4313", "opening_hours": "Mo-Su 10:45-22:00", "brand": "Cava", "brand:wikidata": "Q85751038", "nsi_id": "cava-96af40"}},
{"type": "Feature", "id": "foJCDj9hcbmBsZqzNuYwmtAJKnY=", "properties": {"ref": "Reagan National Airport, Terminal B, Arlington", "@spider": "cava", "amenity": "restaurant", "cuisine": "mediterranean", "addr:street_address": "Reagan National Airport, Terminal B, Arlington", "addr:city": "National Airport", "addr:state": "VA ", "addr:postcode": "22202", "name": "CAVA", "phone": "703-417-2125", "brand": "Cava", "brand:wikidata": "Q85751038", "nsi_id": "cava-96af40"}},
{"type": "Feature", "id": "KIq_16LYCmtW8xo1AtO9xQLEsag=", "properties": {"ref": "12090 Jefferson Ave, Suite 1240, Newport News", "@spider": "cava", "amenity": "restaurant", "cuisine": "mediterranean", "addr:street_address": "12090 Jefferson Ave, Suite 1240, Newport News", "addr:city": "Newport News", "addr:state": "VA", "addr:postcode": "23602", "name": "CAVA", "phone": "(757) 372-4272", "opening_hours": "Mo-Su 10:45-22:00", "brand": "Cava", "brand:wikidata": "Q85751038", "nsi_id": "cava-96af40"}},
{"type": "Feature", "id": "m9ReBa5-eEKuTbC6CH9A6GkUnhg=", "properties": {"ref": "4485 Virginia Beach Blvd, Suite 166, Virginia Beach", "@spider": "cava", "amenity": "restaurant", "cuisine": "mediterranean", "addr:street_address": "4485 Virginia Beach Blvd, Suite 166, Virginia Beach", "addr:city": "Pembroke", "addr:state": "VA", "addr:postcode": "23462", "name": "CAVA", "phone": "757-276-5024", "opening_hours": "Mo-Su 10:45-22:00", "brand": "Cava", "brand:wikidata": "Q85751038", "nsi_id": "cava-96af40"}},
{"type": "Feature", "id": "zKE4UWjpHjUAWQ_hDHW61-FHoF0=", "properties": {"ref": "8409 Leesburg Pike, Vienna", "@spider": "cava", "amenity": "restaurant", "cuisine": "mediterranean", "addr:street_address": "8409 Leesburg Pike, Vienna", "addr:city": "Pike 7 Plaza", "addr:state": "VA", "addr:postcode": "22182", "name": "CAVA", "phone": "703-260-7224", "opening_hours": "Mo-Su 10:45-22:00", "brand": "Cava", "brand:wikidata": "Q85751038", "nsi_id": "cava-96af40"}},
{"type": "Feature", "id": "bfiOJuWBaNZcasay2r7oWICPBX0=", "properties": {"ref": "3525 Richmond Hwy, Alexandria", "@spider": "cava", "amenity": "restaurant", "cuisine": "mediterranean", "addr:street_address": "3525 Richmond Hwy, Alexandria", "addr:city": "Potomac Yard", "addr:state": "VA", "addr:postcode": "22305", "name": "CAVA", "phone": "703-278-2193", "opening_hours": "Mo-Su 10:00-22:00", "brand": "Cava", "brand:wikidata": "Q85751038", "nsi_id": "cava-96af40"}},
{"type": "Feature", "id": "bCxZQKvCosFg5pgIA08bjLbBnFA=", "properties": {"ref": "1815 Fountain Drive, Reston", "@spider": "cava", "amenity": "restaurant", "cuisine": "mediterranean", "addr:street_address": "1815 Fountain Drive, Reston", "addr:city": "Reston", "addr:state": "VA", "addr:postcode": "20190", "name": "CAVA", "phone": "703-310-6861", "opening_hours": "Mo-Su 10:45-22:00", "brand": "Cava", "brand:wikidata": "Q85751038", "nsi_id": "cava-96af40"}},
{"type": "Feature", "id": "6oSaVhTqGxdDOPx1TQox-Kb1Xeg=", "properties": {"ref": "2031 Colonial Ave SW, Roanoke", "@spider": "cava", "amenity": "restaurant", "cuisine": "mediterranean", "addr:street_address": "2031 Colonial Ave SW, Roanoke", "addr:city": "Roanoke", "addr:state": "VA", "addr:postcode": "24015", "name": "CAVA", "phone": "540-900-2670", "opening_hours": "Mo-Su 10:45-22:00", "brand": "Cava", "brand:wikidata": "Q85751038", "nsi_id": "cava-96af40"}},
{"type": "Feature", "id": "lqjix4RZNFLhqJof5OVq-e9kCyc=", "properties": {"ref": "1201 Wilson Blvd, Arlington", "@spider": "cava", "amenity": "restaurant", "cuisine": "mediterranean", "addr:street_address": "1201 Wilson Blvd, Arlington", "addr:city": "Rosslyn", "addr:state": "VA", "addr:postcode": "22209  ", "name": "CAVA", "phone": "703-652-7880", "opening_hours": "Mo-Su 10:45-22:00", "brand": "Cava", "brand:wikidata": "Q85751038", "nsi_id": "cava-96af40"}},
{"type": "Feature", "id": "akF937gGB2roOXj_dwvvLMOo-zs=", "properties": {"ref": "11780 West Broad Street, Richmond", "@spider": "cava", "amenity": "restaurant", "cuisine": "mediterranean", "addr:street_address": "11780 West Broad Street, Richmond", "addr:city": "Short Pump", "addr:state": "VA", "addr:postcode": "23233", "name": "CAVA", "phone": "804-210-5949", "opening_hours": "Mo-Su 11:00-22:00", "brand": "Cava", "brand:wikidata": "Q85751038", "nsi_id": "cava-96af40"}},
{"type": "Feature", "id": "iBCdlR1e3KQFHi7V8hC_WSpdrVg=", "properties": {"ref": "21475 Epicerie Plaza, Sterling", "@spider": "cava", "amenity": "restaurant", "cuisine": "mediterranean", "addr:street_address": "21475 Epicerie Plaza, Sterling", "addr:city": "Sterling", "addr:state": "VA", "addr:postcode": "20164", "name": "CAVA", "phone": "703-286-5060", "opening_hours": "Mo-Su 10:45-22:00", "brand": "Cava", "brand:wikidata": "Q85751038", "nsi_id": "cava-96af40"}},
{"type": "Feature", "id": "GagH59bPsmlWrYigoc4TVs0NaA0=", "properties": {"ref": "13421 Hull Street Road, Midlothian", "@spider": "cava", "amenity": "restaurant", "cuisine": "mediterranean", "addr:street_address": "13421 Hull Street Road, Midlothian", "addr:city": "Swift Creek", "addr:state": "VA", "addr:postcode": "23112", "name": "CAVA", "phone": "804-365-0295", "opening_hours": "Mo-Su 10:45-22:00", "brand": "Cava", "brand:wikidata": "Q85751038", "nsi_id": "cava-96af40"}},
{"type": "Feature", "id": "K4sNvIeUouPZ919N88yW6n21Unk=", "properties": {"ref": "810 West Grace Street , Richmond", "@spider": "cava", "amenity": "restaurant", "cuisine": "mediterranean", "addr:street_address": "810 West Grace Street , Richmond", "addr:city": "VCU", "addr:state": "VA", "addr:postcode": "23220", "name": "CAVA", "phone": "804-214-3850", "opening_hours": "Mo-Su 10:45-22:00", "brand": "Cava", "brand:wikidata": "Q85751038", "nsi_id": "cava-96af40"}},
{"type": "Feature", "id": "XVOrwRKkaQpu2Ted8pZlB7b6ir8=", "properties": {"ref": "176 Maple Avenue W, Vienna", "@spider": "cava", "amenity": "restaurant", "cuisine": "mediterranean", "addr:street_address": "176 Maple Avenue W, Vienna", "addr:city": "Vienna", "addr:state": "VA", "addr:postcode": "22180", "name": "CAVA", "phone": "571-234-5933", "opening_hours": "Mo-Su 10:45-21:00", "brand": "Cava", "brand:wikidata": "Q85751038", "nsi_id": "cava-96af40"}},
{"type": "Feature", "id": "-oxrltVxTVG3dPi0qt5I_KRzH5U=", "properties": {"ref": "5025 Settlers Market Blvd, Williamsburg", "@spider": "cava", "amenity": "restaurant", "cuisine": "mediterranean", "addr:street_address": "5025 Settlers Market Blvd, Williamsburg", "addr:city": "Williamsburg", "addr:state": "VA", "addr:postcode": "23188", "name": "CAVA", "phone": "(757) 372-4209", "opening_hours": "Mo-Su 10:45-22:00", "brand": "Cava", "brand:wikidata": "Q85751038", "nsi_id": "cava-96af40"}},
{"type": "Feature", "id": "tW1jO4mdMzKbYx4hjNWc4vq3ItA=", "properties": {"ref": "1601 Willow Lawn Drive, Suite 820, Richmond", "@spider": "cava", "amenity": "restaurant", "cuisine": "mediterranean", "addr:street_address": "1601 Willow Lawn Drive, Suite 820, Richmond", "addr:city": "Willow Lawn", "addr:state": "VA", "addr:postcode": "23230", "name": "CAVA", "phone": "804-406-5236", "opening_hours": "Mo-Su 10:45-22:00", "brand": "Cava", "brand:wikidata": "Q85751038", "nsi_id": "cava-96af40"}},
{"type": "Feature", "id": "5lidhPxNTZ6WdxYMEchiD8odqxw=", "properties": {"ref": "14901 Potomac Town Pl., Ste. 100, Woodbridge", "@spider": "cava", "amenity": "restaurant", "cuisine": "mediterranean", "addr:street_address": "14901 Potomac Town Pl., Ste. 100, Woodbridge", "addr:city": "Woodbridge CAVA Table", "addr:state": "VA", "addr:postcode": "22191", "name": "CAVA", "opening_hours": "Mo-Su 10:45-22:00", "brand": "Cava", "brand:wikidata": "Q85751038", "nsi_id": "cava-96af40"}}]}