{"type":"FeatureCollection","features":[{"type": "Feature", "id": "rf9sIjuDEBFDG6QPKFiQrjZ_vyU=", "properties": {"ref": "3790224426500903597", "contact:fax": "+212 5 29 01 41 97", "@spider": "cgi_group", "addr:city": "Casablanca", "name": "Casablanca Casablanca - Casanearshore", "phone": "+212 5 29 00 98 88", "brand": "CGI Group", "brand:wikidata": "Q1798370"}},
{"type": "Feature", "id": "IY6f_eu3KAYQBiuUGFr2ypSgVRc=", "properties": {"ref": "1098241804479098441", "contact:fax": null, "@spider": "cgi_group", "addr:city": "F\u00e8s", "name": "F\u00e8s  F\u00e8s Shore Park", "phone": "+212 5 32 04 05 20", "brand": "CGI Group", "brand:wikidata": "Q1798370"}},
{"type": "Feature", "id": "SdpsQQHz50RdM845_jZ5zrgqhwk=", "properties": {"ref": "-3464649038565076372", "contact:fax": "+212 5 38 04 31 01", "@spider": "cgi_group", "addr:city": "Rabat", "name": "Rabat B\u00e2timent Shore 3", "phone": "+212 5 38 04 31 00", "brand": "CGI Group", "brand:wikidata": "Q1798370"}},
{"type": "Feature", "id": "sRqEbrzEzhUGy5ePjtZGGunptE0=", "properties": {"ref": "5260569467011432622", "contact:fax": "+61 02 9021 7000", "@spider": "cgi_group", "addr:city": "Lane Cove", "addr:postcode": "2066", "name": "Lane Cove Sydney - Apollo Place", "phone": "+61 2 8277 6319", "brand": "CGI Group", "brand:wikidata": "Q1798370"}},
{"type": "Feature", "id": "NCEVkXKRqvLlXtL-M0AjZaSwe3E=", "properties": {"ref": "1452325062653956109", "contact:fax": "+61 2 9021 7000", "@spider": "cgi_group", "addr:city": "North Sydney", "addr:postcode": "2060", "name": "North Sydney Corporate", "phone": "+61 2 8277 6319", "brand": "CGI Group", "brand:wikidata": "Q1798370"}},
{"type": "Feature", "id": "dlRnH9NFk5Kx8RZVGnKsylNkoSA=", "properties": {"ref": "-6926544941759655989", "contact:fax": "+61 2 9021 7000", "@spider": "cgi_group", "addr:city": "Adelaide", "addr:postcode": "5000", "name": "Adelaide", "phone": "+61 2 8277 6319", "brand": "CGI Group", "brand:wikidata": "Q1798370"}},
{"type": "Feature", "id": "RBPOuyzoy_gCck3m6t_6huW2FGQ=", "properties": {"ref": "4977777415693506617", "contact:fax": "+61 2 9021 7000", "@spider": "cgi_group", "addr:city": "Brisbane", "addr:postcode": "4000", "name": "Brisbane Level 6 (Reception)", "phone": "+61 2 8277 6319", "brand": "CGI Group", "brand:wikidata": "Q1798370"}},
{"type": "Feature", "id": "y_LYlSriis4tGTQnqImHA72fJ9E=", "properties": {"ref": "645095019967422150", "contact:fax": "+61 2 9021 7000", "@spider": "cgi_group", "addr:city": "Hobart", "addr:postcode": "7000", "name": "Hobart Level 6, Reserve Bank Building,", "phone": "+61 2 8277 6319", "brand": "CGI Group", "brand:wikidata": "Q1798370"}},
{"type": "Feature", "id": "mFO8Koe0pBGnzvG6rB6p0K_5A6I=", "properties": {"ref": "-4841382584410121132", "contact:fax": null, "@spider": "cgi_group", "addr:city": "Southbank", "addr:postcode": "3006", "name": "Southbank Melbourne", "phone": "+61 2 8277 6319", "brand": "CGI Group", "brand:wikidata": "Q1798370"}},
{"type": "Feature", "id": "h-bvBF9qdVsPk-_wjosQYe2wH1I=", "properties": {"ref": "-4908545171253270918", "contact:fax": "+91 80 4194 3666", "@spider": "cgi_group", "addr:city": "Bangalore", "addr:postcode": "560037", "name": "Bangalore Divyasree Technopolis", "phone": "+91 80 4194 0000", "brand": "CGI Group", "brand:wikidata": "Q1798370"}},
{"type": "Feature", "id": "6w-b4AmhtkY6E-jKXoA_T56l0Io=", "properties": {"ref": "7584447662340217190", "contact:fax": "+91 80 6642 1200", "@spider": "cgi_group", "addr:city": "Bangalore", "addr:postcode": "560100", "name": "Bangalore E-City", "phone": "+91 80 6642 2222", "brand": "CGI Group", "brand:wikidata": "Q1798370"}},
{"type": "Feature", "id": "kCckNlPryNNOnAqcioMw13AZuKQ=", "properties": {"ref": "-8639337653206096624", "contact:fax": "+ 91 80 6642 1200", "@spider": "cgi_group", "addr:city": "Bangalore", "addr:postcode": "560100", "name": "Bangalore Cyber Park", "phone": "+91 80 6642 2222", "brand": "CGI Group", "brand:wikidata": "Q1798370"}},
{"type": "Feature", "id": "g1CC71iHoBW_vOJegXwmbWYRZSQ=", "properties": {"ref": "5304978272992645927", "contact:fax": null, "@spider": "cgi_group", "addr:city": "Pune", "addr:postcode": "411001", "name": "Pune CGI ISMC Pvt Ltd", "brand": "CGI Group", "brand:wikidata": "Q1798370"}},
{"type": "Feature", "id": "LdxB_qrKz_Z13Y-zxiY0WlZb2HA=", "properties": {"ref": "2130712092301204655", "contact:fax": null, "@spider": "cgi_group", "addr:city": "Mumbai", "addr:postcode": "400096", "name": "Mumbai Andheri Kurla Road", "phone": "+ 91 22 6608 8000", "brand": "CGI Group", "brand:wikidata": "Q1798370"}},
{"type": "Feature", "id": "Brwd7gUOTA3W_OBDNo4_CosY7D0=", "properties": {"ref": "-3376930237951051712", "contact:fax": "+91 44 6647 4666", "@spider": "cgi_group", "addr:city": "Chennai", "addr:postcode": "600089", "name": "Chennai DLF IT Park", "phone": "+91 44 6647 0000", "brand": "CGI Group", "brand:wikidata": "Q1798370"}},
{"type": "Feature", "id": "KZTZWjxN0HcuTVIngG3rVFKRrzk=", "properties": {"ref": "-4213024507547604360", "contact:fax": null, "@spider": "cgi_group", "addr:city": "Hyderabad", "addr:postcode": "500032", "name": "Hyderabad CGI ISMC Pvt Ltd", "brand": "CGI Group", "brand:wikidata": "Q1798370"}},
{"type": "Feature", "id": "I29f02tHbc3OEI4osCaJkohLoEs=", "properties": {"ref": "8961960971854605415", "contact:fax": null, "@spider": "cgi_group", "addr:city": "Hyderabad", "addr:postcode": "500081", "name": "Hyderabad DLF - Cyber City", "brand": "CGI Group", "brand:wikidata": "Q1798370"}},
{"type": "Feature", "id": "mPDIvWB-d7ZaqIw0e9UcYzECOk8=", "properties": {"ref": "-5456413339307928017", "contact:fax": "+603 2386 7999", "@spider": "cgi_group", "addr:city": "Kuala Lumpur", "addr:postcode": "59200", "name": "Kuala Lumpur Kuala Lumpur - Avenue 7", "phone": "+603 2386 8600", "brand": "CGI Group", "brand:wikidata": "Q1798370"}},
{"type": "Feature", "id": "-Gl4cV2k-5aVWxppiHUyz7gMG0M=", "properties": {"ref": "-1715843065973329968", "contact:fax": "+63 2 88561575", "@spider": "cgi_group", "addr:city": "Pasig City", "addr:postcode": "1605", "name": "Pasig City Ortigas: Robinsons Cyberscape Alpha", "phone": "+63 2 88584000", "brand": "CGI Group", "brand:wikidata": "Q1798370"}},
{"type": "Feature", "id": "5cRHqi5hQ58BrVIY8jSf0eomy0k=", "properties": {"ref": "5566340787711380629", "contact:fax": "+63 2 88561575", "@spider": "cgi_group", "addr:city": "Taguig City", "addr:postcode": "1634", "name": "Taguig City Taguig City: One World Square", "phone": "+63 2 88584000", "brand": "CGI Group", "brand:wikidata": "Q1798370"}},
{"type": "Feature", "id": "ZOFBDv7ExICc-n60wq-urbJqASM=", "properties": {"ref": "4904111592732979385", "contact:fax": null, "@spider": "cgi_group", "addr:city": "Diegem", "addr:postcode": "1831", "name": "Diegem Brussels", "phone": "+3227086100", "brand": "CGI Group", "brand:wikidata": "Q1798370"}},
{"type": "Feature", "id": "_fOKRKSFHbEerpN57nPC-qDi85c=", "properties": {"ref": "-443087688524941602", "contact:fax": "+420 543 125 112", "@spider": "cgi_group", "addr:city": "BRNO", "addr:postcode": "639 00", "name": "BRNO", "phone": "+420 543 125 111", "brand": "CGI Group", "brand:wikidata": "Q1798370"}},
{"type": "Feature", "id": "-NYGEeH2uG_Vl-bzZEI8oeZEY5s=", "properties": {"ref": "-8185963965151011453", "contact:fax": "+420 284 020 112", "@spider": "cgi_group", "addr:city": "OSTRAVA", "addr:postcode": "708 00", "name": "OSTRAVA", "phone": "+420 284 020 111", "brand": "CGI Group", "brand:wikidata": "Q1798370"}},
{"type": "Feature", "id": "7Wlhbetx6AslZoOuXA3fyjUbcVI=", "properties": {"ref": "-7839714219416831812", "contact:fax": "+420 284 020 112", "@spider": "cgi_group", "addr:city": "PRAHA", "addr:postcode": "155 00", "name": "PRAHA", "phone": "+420 284 020 111", "brand": "CGI Group", "brand:wikidata": "Q1798370"}},
{"type": "Feature", "id": "byuaSoNumS7pC3gNYBD01Cd3Zzs=", "properties": {"ref": "8423007153738186018", "contact:fax": null, "@spider": "cgi_group", "addr:city": "Aarhus", "addr:postcode": "8310", "name": "Aarhus Aarhus - Tranbjerg J", "phone": "+45 44 78 40 00", "brand": "CGI Group", "brand:wikidata": "Q1798370"}},
{"type": "Feature", "id": "kfGejLBi5SS_yv9CNfFOL-nOwrk=", "properties": {"ref": "4943176081523050314", "contact:fax": null, "@spider": "cgi_group", "addr:city": "Ballerup", "addr:postcode": "2750", "name": "Ballerup", "phone": "+45 44 78 40 00", "brand": "CGI Group", "brand:wikidata": "Q1798370"}},
{"type": "Feature", "id": "vc-HZZOAfImBnd4LUJILrCdd3j0=", "properties": {"ref": "-2399175217922125256", "contact:fax": null, "@spider": "cgi_group", "addr:city": "Kolding", "addr:postcode": "6000", "name": "Kolding Kolding - Kokmose", "phone": "+45 44 78 40 00", "brand": "CGI Group", "brand:wikidata": "Q1798370"}},
{"type": "Feature", "id": "4ejAOqZmwmIojEdQkO3XjiCMW7s=", "properties": {"ref": "-641611976892947335", "contact:fax": null, "@spider": "cgi_group", "addr:city": "N\u00f8rresundby", "addr:postcode": "9400", "name": "N\u00f8rresundby Aalborg - N\u00f8rresundby", "phone": "+45 44 78 40 00", "brand": "CGI Group", "brand:wikidata": "Q1798370"}},
{"type": "Feature", "id": "DJ2b1Efn_h1YGcK6iOGSDWxQaZQ=", "properties": {"ref": "-7743469473369924813", "contact:fax": "+372 664 9100", "@spider": "cgi_group", "addr:city": "Tallinn", "addr:postcode": "11316", "name": "Tallinn Tallinn -A. H. Tammsaare tee", "phone": "+372 664 9100", "brand": "CGI Group", "brand:wikidata": "Q1798370"}},
{"type": "Feature", "id": "odwgnxluHZuBu7NYuoAvgXI3bdE=", "properties": {"ref": "-610138729909635897", "contact:fax": "+372 664 9100", "@spider": "cgi_group", "addr:city": "Tartu", "addr:postcode": "50106", "name": "Tartu Tartu - S\u00f5bra", "phone": "+372 737 0700", "brand": "CGI Group", "brand:wikidata": "Q1798370"}},
{"type": "Feature", "id": "7hTNic1E9aksud-mYKDODOYrLNw=", "properties": {"ref": "6686628403717307794", "contact:fax": "+358 010 302 011", "@spider": "cgi_group", "addr:city": "H\u00e4meenlinna", "addr:postcode": "13100", "name": "H\u00e4meenlinna", "phone": "+358 010 302 010", "brand": "CGI Group", "brand:wikidata": "Q1798370"}},
{"type": "Feature", "id": "hYguvA1LThEkDgwF7c3GEv6lNjM=", "properties": {"ref": "-8509081424444584955", "contact:fax": null, "@spider": "cgi_group", "addr:city": "Helsinki", "addr:postcode": "00100", "name": "Helsinki Helsinki \u2013 Kaisaniemi", "phone": "+358 010 302 010", "brand": "CGI Group", "brand:wikidata": "Q1798370"}},
{"type": "Feature", "id": "aQb3p9ff8MrZVHmiO945B1cuMRY=", "properties": {"ref": "2860429139794143761", "contact:fax": "+358 010 302 011", "@spider": "cgi_group", "addr:city": "Helsinki", "addr:postcode": "00381", "name": "Helsinki Helsinki - Karvaamokuja", "phone": "+358 010 302 010", "brand": "CGI Group", "brand:wikidata": "Q1798370"}},
{"type": "Feature", "id": "KmkwXltijLYRZVWa18bFqC5O3yE=", "properties": {"ref": "-5978151158732590970", "contact:fax": "+358 010 302 011", "@spider": "cgi_group", "addr:city": "Helsinki", "addr:postcode": "00380", "name": "Helsinki Helsinki - P\u00e4ij\u00e4nteentie", "phone": "+358 010 302 010", "brand": "CGI Group", "brand:wikidata": "Q1798370"}},
{"type": "Feature", "id": "9a1xbgVtnpMgaKSLkGCOjyEvQDI=", "properties": {"ref": "-7070988232235551316", "contact:fax": "+358 010 302 011", "@spider": "cgi_group", "addr:city": "Joensuu", "addr:postcode": "80110", "name": "Joensuu", "phone": "+358 010 302 010", "brand": "CGI Group", "brand:wikidata": "Q1798370"}},
{"type": "Feature", "id": "qq-mym6Iyuxvom66_6ofv8KdzhM=", "properties": {"ref": "-8279386682814454037", "contact:fax": "+358 010 302 011", "@spider": "cgi_group", "addr:city": "Jyv\u00e4skyl\u00e4", "addr:postcode": "40500", "name": "Jyv\u00e4skyl\u00e4", "phone": "+358 010 302 010", "brand": "CGI Group", "brand:wikidata": "Q1798370"}},
{"type": "Feature", "id": "XNXcA7a1rlejuJXTjauaNcVazCQ=", "properties": {"ref": "9185868118585266066", "contact:fax": "+358 010 302 011", "@spider": "cgi_group", "addr:city": "Kuopio", "addr:postcode": "70211", "name": "Kuopio", "phone": "+358 010 302 010", "brand": "CGI Group", "brand:wikidata": "Q1798370"}},
{"type": "Feature", "id": "PGh8V3MTiSvhFaUEuhgMCF_yTAk=", "properties": {"ref": "1360896075436367826", "contact:fax": "+358 010 302 011", "@spider": "cgi_group", "addr:city": "Lahti", "addr:postcode": "15210", "name": "Lahti", "phone": "+358 010 302 010", "brand": "CGI Group", "brand:wikidata": "Q1798370"}},
{"type": "Feature", "id": "ryNBkwq82a6AG7s-V9J-0yS1ff4=", "properties": {"ref": "-5259071236313456842", "contact:fax": null, "@spider": "cgi_group", "addr:city": "Lappeenranta", "addr:postcode": "53100", "name": "Lappeenranta", "phone": "+358 010 302 010", "brand": "CGI Group", "brand:wikidata": "Q1798370"}},
{"type": "Feature", "id": "dSTitnV_9QqWf4xUWUD1o1xP21I=", "properties": {"ref": "1188058602316687509", "contact:fax": "+358 010 302 011", "@spider": "cgi_group", "addr:city": "Mikkeli", "addr:postcode": "50100", "name": "Mikkeli", "phone": "+358 010 302 010", "brand": "CGI Group", "brand:wikidata": "Q1798370"}},
{"type": "Feature", "id": "hSJF6acit1UESA2G6HvXaEF_Oow=", "properties": {"ref": "2356151301830497944", "contact:fax": "+358 010 302 011", "@spider": "cgi_group", "addr:city": "Oulu", "addr:postcode": "90590", "name": "Oulu", "phone": "+358 010 302 010", "brand": "CGI Group", "brand:wikidata": "Q1798370"}},
{"type": "Feature", "id": "JWf0eltZEGcvrZ9hCU2rzkCgXcw=", "properties": {"ref": "936880315746630752", "contact:fax": "+358 010 302 011", "@spider": "cgi_group", "addr:city": "Pori", "addr:postcode": "28100", "name": "Pori", "phone": "+358 010 302 010", "brand": "CGI Group", "brand:wikidata": "Q1798370"}},
{"type": "Feature", "id": "RD3FJ7Ba37F0Qidk8HQhKJZzqlM=", "properties": {"ref": "8368521912119549342", "contact:fax": null, "@spider": "cgi_group", "addr:city": "Rauma", "addr:postcode": "26100", "name": "Rauma", "brand": "CGI Group", "brand:wikidata": "Q1798370"}},
{"type": "Feature", "id": "MfgCw2Ocv4SdTFV8AazksjXEYM0=", "properties": {"ref": "1305043188520859517", "contact:fax": null, "@spider": "cgi_group", "addr:city": "Riihim\u00e4ki", "addr:postcode": "11130", "name": "Riihim\u00e4ki", "phone": "+358 010 302 010", "brand": "CGI Group", "brand:wikidata": "Q1798370"}},
{"type": "Feature", "id": "8rJCV-Ki_zs-keEn051n_9KIG2Q=", "properties": {"ref": "-7654607467914739081", "contact:fax": "+358 010 302 011", "@spider": "cgi_group", "addr:city": "Tampere", "addr:postcode": "33720", "name": "Tampere", "phone": "+358 010 302 010", "brand": "CGI Group", "brand:wikidata": "Q1798370"}},
{"type": "Feature", "id": "Rxywhvyia7emoDygS1gtYYhlI28=", "properties": {"ref": "2006078829833227101", "contact:fax": "+358 010 302 011", "@spider": "cgi_group", "addr:city": "Turku", "addr:postcode": "20540", "name": "Turku", "phone": "+358 010 302 010", "brand": "CGI Group", "brand:wikidata": "Q1798370"}},
{"type": "Feature", "id": "_iDOeKWH4i5luvUwT_bwJHZxrPo=", "properties": {"ref": "3304587811994019788", "contact:fax": "+358 010 302 011", "@spider": "cgi_group", "addr:city": "Vaasa", "addr:postcode": "65100", "name": "Vaasa", "phone": "+358 010 302 010", "brand": "CGI Group", "brand:wikidata": "Q1798370"}},
{"type": "Feature", "id": "4sgT6xAEaIObT0bW1QX3wfrm-LY=", "properties": {"ref": "-1820882507618904978", "contact:fax": "+33 4 42 97 62 21", "@spider": "cgi_group", "addr:city": "Aix-en-Provence", "addr:postcode": "13100", "name": "Aix-en-Provence Immeuble le Quartz", "phone": "+33 4 42 97 22 20", "brand": "CGI Group", "brand:wikidata": "Q1798370"}},
{"type": "Feature", "id": "wbu-2yFEXgqjXY8t6wvooJvN4B4=", "properties": {"ref": "6425927687041169022", "contact:fax": "+33 3 22 52 67 50", "@spider": "cgi_group", "addr:city": "Amiens", "addr:postcode": "80000", "name": "Amiens 80 rue de la Vall\u00e9e", "phone": "+33 3 22 52 67 00", "brand": "CGI Group", "brand:wikidata": "Q1798370"}},
{"type": "Feature", "id": "EnWqXNdFSw0Be51dePNv7rd-TWk=", "properties": {"ref": "6664591320505705140", "contact:fax": "+33 3 22 52 67 50", "@spider": "cgi_group", "addr:city": "Arras", "addr:postcode": "62000", "name": "Arras", "phone": "+33 3 22 52 67 00", "brand": "CGI Group", "brand:wikidata": "Q1798370"}},
{"type": "Feature", "id": "HCAPHWRy7hMRcIzNXzWY932LUGI=", "properties": {"ref": "-722299893650629803", "contact:fax": "05 57 78 59 82", "@spider": "cgi_group", "addr:city": "Bordeaux", "addr:postcode": "33187", "name": "Bordeaux Immeuble Androm\u00e8de", "phone": "05 57 78 56 00", "brand": "CGI Group", "brand:wikidata": "Q1798370"}},
{"type": "Feature", "id": "H2axM6yUSYsFUTURDJPi-B29HL0=", "properties": {"ref": "-8898473756738030843", "contact:fax": "+33 2 98 80 39 58", "@spider": "cgi_group", "addr:city": "Brest", "addr:postcode": "29200", "name": "Brest Immeuble Grand Large", "phone": "+33 2 22 96 88 00", "brand": "CGI Group", "brand:wikidata": "Q1798370"}},
{"type": "Feature", "id": "c3HFQ04DAllCNu-sEDQt3EU4B-Q=", "properties": {"ref": "217928231325810714", "contact:fax": "+33 4 73 44 74 01", "@spider": "cgi_group", "addr:city": "Clermont Ferrand", "addr:postcode": "63000", "name": "Clermont Ferrand P.A.T. de la Pardieu", "phone": "+33 4 73 44 74 00", "brand": "CGI Group", "brand:wikidata": "Q1798370"}},
{"type": "Feature", "id": "cVDKcJ_4_3xo89QWk0fC4cfwJrk=", "properties": {"ref": "5462460894966894527", "contact:fax": "+33 1 57 87 40 80", "@spider": "cgi_group", "addr:city": "Courbevoie", "addr:postcode": "92400", "name": "Courbevoie Si\u00e8ge CGI en France", "phone": "+33 1 57 87 40 00", "brand": "CGI Group", "brand:wikidata": "Q1798370"}},
{"type": "Feature", "id": "-ftsOJcAZSCF0s-4eyWQg6C6zw0=", "properties": {"ref": "-9180019197932033856", "contact:fax": "+33 3 88 66 53 23", "@spider": "cgi_group", "addr:city": "GRAFFENSTADEN", "addr:postcode": "67400", "name": "GRAFFENSTADEN 6 rue Eug\u00e9nie Brazier", "phone": "+33 3 88 55 33 70", "brand": "CGI Group", "brand:wikidata": "Q1798370"}},
{"type": "Feature", "id": "Lpcm1yYezGvUD84Cue4PV-cHDd0=", "properties": {"ref": "-6563660553165676601", "contact:fax": "+33 4 69 64 66 70", "@spider": "cgi_group", "addr:city": "Grenoble", "addr:postcode": "38035", "name": "Grenoble 16 Bis, rue Henri Barbusse", "phone": "+33 4 69 64 66 00", "brand": "CGI Group", "brand:wikidata": "Q1798370"}},
{"type": "Feature", "id": "Fb-G_XGCfZ9t3oDNhKq-7rTtPT8=", "properties": {"ref": "1511461499899828121", "contact:fax": null, "@spider": "cgi_group", "addr:city": "Larmor-Plage", "addr:postcode": "56260", "name": "Larmor-Plage Lorient", "phone": "02 97 37 80 00", "brand": "CGI Group", "brand:wikidata": "Q1798370"}},
{"type": "Feature", "id": "Msp_E_qvywyPKT3kJHil-4XPKzM=", "properties": {"ref": "-1737222576071037951", "contact:fax": "+33 2 43 87 27 33", "@spider": "cgi_group", "addr:city": "Le Mans", "addr:postcode": "72100", "name": "Le Mans 4 avenue", "phone": "+33 2 53 46 50 01", "brand": "CGI Group", "brand:wikidata": "Q1798370"}},
{"type": "Feature", "id": "skcqFT6N48AXZ1itJYKjgEO0j_E=", "properties": {"ref": "3626119672246772246", "contact:fax": "+33 3 62 59 93 99", "@spider": "cgi_group", "addr:city": "Lille", "addr:postcode": "59043", "name": "Lille 8, rue Anatole France", "phone": "+ 33 3 62 59 93 00", "brand": "CGI Group", "brand:wikidata": "Q1798370"}},
{"type": "Feature", "id": "C-DKLxfAunNvWtAiF1Kk9VoY99E=", "properties": {"ref": "1142565302335714988", "contact:fax": "+33 4 69 64 60 01", "@spider": "cgi_group", "addr:city": "Limoges", "addr:postcode": "87000", "name": "Limoges", "phone": "+33 4\u00a069 64 60 00", "brand": "CGI Group", "brand:wikidata": "Q1798370"}},
{"type": "Feature", "id": "noUFONE0WtWdhlA8LrTaEx7tmEc=", "properties": {"ref": "1454613090214132043", "contact:fax": "+33 4 69 64 60 01", "@spider": "cgi_group", "addr:city": "Lyon", "addr:postcode": "69336", "name": "Lyon B\u00e2t. Docksite", "phone": "+33 4 69 64 60 00", "brand": "CGI Group", "brand:wikidata": "Q1798370"}},
{"type": "Feature", "id": "odr8LJqgaEcNlicbgoDFeA3hu_E=", "properties": {"ref": "3484660332528529346", "contact:fax": "+33 4 67 40 97 10", "@spider": "cgi_group", "addr:city": "Montpellier", "addr:postcode": "34170", "name": "Montpellier Avenue Marcel Dassault", "phone": "+33 4 67 40 97 00", "brand": "CGI Group", "brand:wikidata": "Q1798370"}},
{"type": "Feature", "id": "k2MYjegtbeMusj69BSg5gLpQJuQ=", "properties": {"ref": "3926596617376236073", "contact:fax": "+33 2 28 01 59 24", "@spider": "cgi_group", "addr:city": "Nantes", "addr:postcode": "44481", "name": "Nantes Espace Performance 1", "phone": "+33 2 28 01 54 70", "brand": "CGI Group", "brand:wikidata": "Q1798370"}},
{"type": "Feature", "id": "LtIlfCaKbBiW3WqccYviymTMUSs=", "properties": {"ref": "-6258466799440356777", "contact:fax": "+33 5 49 24 82 20", "@spider": "cgi_group", "addr:city": "Niort", "addr:postcode": "79000", "name": "Niort 3 rue Thomas", "phone": "+33 5 49 26 07 07", "brand": "CGI Group", "brand:wikidata": "Q1798370"}},
{"type": "Feature", "id": "rTu08mCyaBLbh408lI56C-PwG5w=", "properties": {"ref": "4356280830731800524", "contact:fax": "+33 2 38 56 63 81", "@spider": "cgi_group", "addr:city": "Orl\u00e9ans", "addr:postcode": "45000", "name": "Orl\u00e9ans 4 passage de la r\u00e2pe", "phone": "+33 2 38 56 89 30", "brand": "CGI Group", "brand:wikidata": "Q1798370"}},
{"type": "Feature", "id": "hrrwIkJFspitjlyPNechODUUjHc=", "properties": {"ref": "-7428022216949637718", "contact:fax": "+33 5 59 80 61 80", "@spider": "cgi_group", "addr:city": "Pau", "addr:postcode": "64320", "name": "Pau Espace 117", "phone": "+33 5 59 80 61 70", "brand": "CGI Group", "brand:wikidata": "Q1798370"}},
{"type": "Feature", "id": "1N8qkeBax9-f4V-oGRG_FXrDooI=", "properties": {"ref": "-5977097081935819129", "contact:fax": "+33 1 5787 4000", "@spider": "cgi_group", "addr:city": "Puteaux", "addr:postcode": "92800", "name": "Puteaux Paris - Carr\u00e9 Michelet", "phone": "+33 1 5787 4000", "brand": "CGI Group", "brand:wikidata": "Q1798370"}},
{"type": "Feature", "id": "AFXHKKB_XnFGFyI_8986nLHYAgo=", "properties": {"ref": "3555445901101007109", "contact:fax": "+33 2 99 38 01 48", "@spider": "cgi_group", "addr:city": "Rennes", "addr:postcode": "35510", "name": "Rennes Immeuble Energies", "phone": "+33 2 14 37 80 00", "brand": "CGI Group", "brand:wikidata": "Q1798370"}},
{"type": "Feature", "id": "R1ehphjwkmMxul-HECEdnz1v5II=", "properties": {"ref": "-4072119036401278233", "contact:fax": "+33 4 92 38 91 33", "@spider": "cgi_group", "addr:city": "Sophia Antipolis", "addr:postcode": "06560", "name": "Sophia Antipolis 310 chemin du Vallon", "phone": "+33 4 92 94 76 76", "brand": "CGI Group", "brand:wikidata": "Q1798370"}},
{"type": "Feature", "id": "6sCaDZ0Q-hSKFCSzTzIUfTmIByc=", "properties": {"ref": "6285217709837917890", "contact:fax": "+33 5 67 69 22 21", "@spider": "cgi_group", "addr:city": "Toulouse", "addr:postcode": "31000", "name": "Toulouse 15 avenue du Docteur", "phone": "+33 5 67 69 22 22", "brand": "CGI Group", "brand:wikidata": "Q1798370"}},
{"type": "Feature", "id": "klyyEt58hAd2uQfacmloI9h9BPc=", "properties": {"ref": "3669706118386748370", "contact:fax": null, "@spider": "cgi_group", "addr:city": "Tours", "addr:postcode": "37000", "name": "Tours", "brand": "CGI Group", "brand:wikidata": "Q1798370"}},
{"type": "Feature", "id": "SIUx_FvUUpc3sQn2GZ1MQQAKdYQ=", "properties": {"ref": "-5161595503554181697", "contact:fax": null, "@spider": "cgi_group", "addr:city": "Alsfeld", "addr:postcode": "36304", "name": "Alsfeld", "phone": "+49 6196 77420", "brand": "CGI Group", "brand:wikidata": "Q1798370"}},
{"type": "Feature", "id": "A75KAxfUY-oP5ZziALFuxHZ0XUw=", "properties": {"ref": "4379014253676578022", "contact:fax": "+49 30 478002120", "@spider": "cgi_group", "addr:city": "Berlin", "addr:postcode": "10117", "name": "Berlin", "phone": "+49 30 4780020", "brand": "CGI Group", "brand:wikidata": "Q1798370"}},
{"type": "Feature", "id": "mszekAwVYNpLEhcPnkGGLtZ32nM=", "properties": {"ref": "-5832300321178385076", "contact:fax": null, "@spider": "cgi_group", "addr:city": "Bielefeld", "addr:postcode": "33602", "name": "Bielefeld", "phone": "+49 1727620069", "brand": "CGI Group", "brand:wikidata": "Q1798370"}},
{"type": "Feature", "id": "HOokIwEgw91CPNLyduvfjtF1e_U=", "properties": {"ref": "-8679524151691314107", "contact:fax": null, "@spider": "cgi_group", "addr:city": "Bochum", "addr:postcode": "44894", "name": "Bochum", "phone": "+49 234 92580", "brand": "CGI Group", "brand:wikidata": "Q1798370"}},
{"type": "Feature", "id": "1PUwDbDoXhzJX-q7JFvDYrXsPkM=", "properties": {"ref": "-3828811064201485581", "contact:fax": "+49 531 8011018444", "@spider": "cgi_group", "addr:city": "Braunschweig", "addr:postcode": "38122", "name": "Braunschweig", "phone": "+49 531 801100", "brand": "CGI Group", "brand:wikidata": "Q1798370"}},
{"type": "Feature", "id": "s2UApy7xhC7QnhGrLS77e4ZRJ68=", "properties": {"ref": "-4110868527146442678", "contact:fax": "+49 421 5491100", "@spider": "cgi_group", "addr:city": "Bremen", "addr:postcode": "28217", "name": "Bremen", "phone": "+49 421 54910", "brand": "CGI Group", "brand:wikidata": "Q1798370"}},
{"type": "Feature", "id": "JTCdMEYQzADh6owkPOnYT4juevk=", "properties": {"ref": "-6691864258097049867", "contact:fax": null, "@spider": "cgi_group", "addr:city": "Darmstadt", "addr:postcode": "64293", "name": "Darmstadt", "phone": "+49 6151 36860101", "brand": "CGI Group", "brand:wikidata": "Q1798370"}},
{"type": "Feature", "id": "bMbxmFNWEh7Q2O5U6G5Qa3i3r4M=", "properties": {"ref": "-105977911501872452", "contact:fax": null, "@spider": "cgi_group", "addr:city": "Dortmund", "addr:postcode": "44141", "name": "Dortmund", "phone": "+49 231 9976700", "brand": "CGI Group", "brand:wikidata": "Q1798370"}},
{"type": "Feature", "id": "ApXiDtm5RjDfSdQKkpY4rmKZGZk=", "properties": {"ref": "-6557501226172428671", "contact:fax": null, "@spider": "cgi_group", "addr:city": "Dresden", "addr:postcode": "01067", "name": "Dresden", "phone": "+49 361 653590", "brand": "CGI Group", "brand:wikidata": "Q1798370"}},
{"type": "Feature", "id": "Ir5Q6E5xwajTbodIcFZxAgOBr_U=", "properties": {"ref": "2665778866759588318", "contact:fax": "+49 211 53 55 155", "@spider": "cgi_group", "addr:city": "D\u00fcsseldorf", "addr:postcode": "40549", "name": "D\u00fcsseldorf", "phone": "+49 211 53 55 0", "brand": "CGI Group", "brand:wikidata": "Q1798370"}},
{"type": "Feature", "id": "jcnnC3nkQ0D14gUUgZrY_sZ4Iwo=", "properties": {"ref": "7111320787264507020", "contact:fax": null, "@spider": "cgi_group", "addr:city": "Erfurt", "addr:postcode": "99084", "name": "Erfurt", "phone": "+49 361 653590", "brand": "CGI Group", "brand:wikidata": "Q1798370"}},
{"type": "Feature", "id": "zoRH5iKXiv7pFhdE-RxIDs0rHqs=", "properties": {"ref": "-5931679431609555292", "contact:fax": null, "@spider": "cgi_group", "addr:city": "Erlangen", "addr:postcode": "91058", "name": "Erlangen", "brand": "CGI Group", "brand:wikidata": "Q1798370"}},
{"type": "Feature", "id": "uwSmNvChIrbFLhjOR39auiKQ1lY=", "properties": {"ref": "-7273546223847167078", "contact:fax": null, "@spider": "cgi_group", "addr:city": "Halle", "addr:postcode": "06108", "name": "Halle", "brand": "CGI Group", "brand:wikidata": "Q1798370"}},
{"type": "Feature", "id": "cNFbFvgwMYI2Gv2zLdKPLw86b8s=", "properties": {"ref": "5862481959447019297", "contact:fax": "+49 40 822259100", "@spider": "cgi_group", "addr:city": "Hamburg", "addr:postcode": "20359", "name": "Hamburg", "phone": "+49 40 8222590", "brand": "CGI Group", "brand:wikidata": "Q1798370"}},
{"type": "Feature", "id": "sR1gOmE15NCFADjJBhk0wmBF9JE=", "properties": {"ref": "-8906382030623990359", "contact:fax": null, "@spider": "cgi_group", "addr:city": "Hannover", "addr:postcode": "30159", "name": "Hannover", "phone": "+49 511 936 39 142", "brand": "CGI Group", "brand:wikidata": "Q1798370"}},
{"type": "Feature", "id": "2tku4WjjTFbkLxRmHtF8IzTGAgk=", "properties": {"ref": "-2601432509676811784", "contact:fax": null, "@spider": "cgi_group", "addr:city": "Heilbronn", "addr:postcode": "74076", "name": "Heilbronn Hofkammergeb\u00e4ude", "phone": "+49 7131 7669220", "brand": "CGI Group", "brand:wikidata": "Q1798370"}},
{"type": "Feature", "id": "GJzlRIRz5KWdE8hf0KmuNp2pLgQ=", "properties": {"ref": "-9211953665495047595", "contact:fax": null, "@spider": "cgi_group", "addr:city": "Kaiserslautern", "addr:postcode": "67657", "name": "Kaiserslautern", "phone": "+49 631 56003043", "brand": "CGI Group", "brand:wikidata": "Q1798370"}},
{"type": "Feature", "id": "rh9yP2ZgIgctm_DCQzvSlJ9CrH8=", "properties": {"ref": "447517368156528739", "contact:fax": "+49 711 72846846", "@spider": "cgi_group", "addr:city": "Karlsruhe", "addr:postcode": "76185", "name": "Karlsruhe", "phone": "+49 711 728460", "brand": "CGI Group", "brand:wikidata": "Q1798370"}},
{"type": "Feature", "id": "Mv-WRkybEODmMWXNzdlStZTu8CM=", "properties": {"ref": "2809060165271930567", "contact:fax": "+49 619 7742555", "@spider": "cgi_group", "addr:city": "Kassel", "addr:postcode": "34117", "name": "Kassel", "phone": "+49 6196 77420", "brand": "CGI Group", "brand:wikidata": "Q1798370"}},
{"type": "Feature", "id": "YlIWOlhLglaiIaalk0Zmgmjb050=", "properties": {"ref": "-415996206115194431", "contact:fax": "+49 2203 6993 1220", "@spider": "cgi_group", "addr:city": "K\u00f6ln", "addr:postcode": "51149", "name": "K\u00f6ln", "phone": "+49 2203 6993 1050", "brand": "CGI Group", "brand:wikidata": "Q1798370"}},
{"type": "Feature", "id": "muF5URTP44sO9D2fpNSJpKn1B2c=", "properties": {"ref": "-468187751087395684", "contact:fax": null, "@spider": "cgi_group", "addr:city": "Leinfelden-Echterdingen", "addr:postcode": "70771", "name": "Leinfelden-Echterdingen", "phone": "+49 711 728460", "brand": "CGI Group", "brand:wikidata": "Q1798370"}},
{"type": "Feature", "id": "xYAp0rYdT77I8Zq9X_ZdQTNzv8s=", "properties": {"ref": "-6499989667012726276", "contact:fax": null, "@spider": "cgi_group", "addr:city": "Leipzig", "addr:postcode": "04109", "name": "Leipzig", "phone": "+49 361 653590", "brand": "CGI Group", "brand:wikidata": "Q1798370"}},
{"type": "Feature", "id": "xqrh6Clnj467V9LUQq1BIMn2eqw=", "properties": {"ref": "-1674752863940422060", "contact:fax": null, "@spider": "cgi_group", "addr:city": "Mannheim", "addr:postcode": "68163", "name": "Mannheim", "phone": "+49 711 728460", "brand": "CGI Group", "brand:wikidata": "Q1798370"}},
{"type": "Feature", "id": "8IUR1qT6nKESC1gvumV1OC5gW-4=", "properties": {"ref": "6230981739138375999", "contact:fax": null, "@spider": "cgi_group", "addr:city": "M\u00fcnchen", "addr:postcode": "80992", "name": "M\u00fcnchen M\u00fcnchen Moosach (North88)", "phone": "+49 89 65112300", "brand": "CGI Group", "brand:wikidata": "Q1798370"}},
{"type": "Feature", "id": "4aJDlJfnEWU9ybln8G8V51Qhuvo=", "properties": {"ref": "-2709403119829717468", "contact:fax": "+49 89 65112355", "@spider": "cgi_group", "addr:city": "M\u00fcnchen", "addr:postcode": "81539", "name": "M\u00fcnchen", "phone": "+49 89 65112300", "brand": "CGI Group", "brand:wikidata": "Q1798370"}},
{"type": "Feature", "id": "sKUVlihtXeglmWhiv7tnwqmduCo=", "properties": {"ref": "4803708475710601111", "contact:fax": "+49 2203 69 931220 Contact via K\u00f6ln Cologne", "@spider": "cgi_group", "addr:city": "Potsdam", "addr:postcode": "14469", "name": "Potsdam", "phone": "+ 49 2203 69 930 Contact via K\u00f6ln Cologne", "brand": "CGI Group", "brand:wikidata": "Q1798370"}},
{"type": "Feature", "id": "fazAlbkM1-ySVRHgK9q0RCqC8tY=", "properties": {"ref": "-1581115225887830349", "contact:fax": null, "@spider": "cgi_group", "addr:city": "Stuttgart", "addr:postcode": "70469", "name": "Stuttgart", "phone": "+49 711 1377620", "brand": "CGI Group", "brand:wikidata": "Q1798370"}},
{"type": "Feature", "id": "NQGhVA7EdnYinJc7Epp1awnuhzM=", "properties": {"ref": "2492432734292609662", "contact:fax": "+49 6196 7742555", "@spider": "cgi_group", "addr:city": "Sulzbach (Taunus)", "addr:postcode": "65843", "name": "Sulzbach (Taunus) Sulzbach", "phone": "+49 6196 77420", "brand": "CGI Group", "brand:wikidata": "Q1798370"}},
{"type": "Feature", "id": "wIDT4b9xO78hBDvC9fODg3vKMt8=", "properties": {"ref": "-8930916547775610320", "contact:fax": null, "@spider": "cgi_group", "addr:city": "Wolfsburg", "addr:postcode": "38448", "name": "Wolfsburg", "phone": "+49 531 801100", "brand": "CGI Group", "brand:wikidata": "Q1798370"}},
{"type": "Feature", "id": "afKeJ7DA1ena_I1_Nk5NZ99Wo4o=", "properties": {"ref": "3022151685151454337", "contact:fax": null, "@spider": "cgi_group", "addr:city": "Budapest", "addr:postcode": "1139", "name": "Budapest", "brand": "CGI Group", "brand:wikidata": "Q1798370"}},
{"type": "Feature", "id": "S4-rotTv_1Yhg0DfwsX8nOOv8Ns=", "properties": {"ref": "-1340943321067403572", "contact:fax": null, "@spider": "cgi_group", "addr:city": "Milano", "addr:postcode": "20147", "name": "Milano Lombardia \u2013 Milano (MI)", "phone": "+39 392 918 9581", "brand": "CGI Group", "brand:wikidata": "Q1798370"}},
{"type": "Feature", "id": "O655YSB5v_x9e343rkN8p3uVN5g=", "properties": {"ref": "-612838952312755245", "contact:fax": null, "@spider": "cgi_group", "addr:city": "Padova", "addr:postcode": "35137", "name": "Padova Veneto \u2013 Padova (PD)", "phone": "+39 0498235817", "brand": "CGI Group", "brand:wikidata": "Q1798370"}},
{"type": "Feature", "id": "iyOjzivOskzFBjaH8PqljOcBvwg=", "properties": {"ref": "-6846111988790941643", "contact:fax": null, "@spider": "cgi_group", "addr:city": "Frascati", "addr:postcode": "00044", "name": "Frascati Lazio \u2013 Frascati (RM)", "phone": "+39 380 7645341", "brand": "CGI Group", "brand:wikidata": "Q1798370"}},
{"type": "Feature", "id": "P1qBCpciw6fma4x5LNpGktnIQIY=", "properties": {"ref": "-1030335261771325483", "contact:fax": null, "@spider": "cgi_group", "addr:city": "Roma", "addr:postcode": "00198", "name": "Roma Lazio - Roma (RM)", "phone": "+39 06 85237443", "brand": "CGI Group", "brand:wikidata": "Q1798370"}},
{"type": "Feature", "id": "wPkIIOPJ_J2KzYaqKVQCPmzf-jU=", "properties": {"ref": "-6078027866732741680", "contact:fax": "+37052123713", "@spider": "cgi_group", "addr:city": "Kaunas", "addr:postcode": "44248", "name": "Kaunas Business Leaders Center", "phone": "+37052123712", "brand": "CGI Group", "brand:wikidata": "Q1798370"}},
{"type": "Feature", "id": "uiSM6o_JzJhVSipBmgsIx-Cm_-g=", "properties": {"ref": "5018582428796358531", "contact:fax": "+37052123713", "@spider": "cgi_group", "addr:city": "Vilnius", "addr:postcode": "12128", "name": "Vilnius", "phone": "+37052123712", "brand": "CGI Group", "brand:wikidata": "Q1798370"}},
{"type": "Feature", "id": "YrDAipUdpdquW34e-CXSFn4SXk0=", "properties": {"ref": "-6845560794288585057", "contact:fax": "+352 265 147 40", "@spider": "cgi_group", "addr:city": "Bertrange", "addr:postcode": "L-8070", "name": "Bertrange Bertrange - Zone d'activit\u00e9 de Bourmicht", "phone": "+352 265 147 20", "brand": "CGI Group", "brand:wikidata": "Q1798370"}},
{"type": "Feature", "id": "PB6CRpDWlJS8ylVgMPzvpJ3F1VM=", "properties": {"ref": "-7091080911190975464", "contact:fax": null, "@spider": "cgi_group", "addr:city": "Riga", "addr:postcode": "LV-1082", "name": "Riga", "phone": "+371 2 6401853", "brand": "CGI Group", "brand:wikidata": "Q1798370"}},
{"type": "Feature", "id": "jd4IcukUP7DRE6hrE9U8yv0N3ZE=", "properties": {"ref": "-7663761916923763673", "contact:fax": null, "@spider": "cgi_group", "addr:city": "Amstelveen", "addr:postcode": "1181 ZA", "name": "Amstelveen", "phone": "+31 88 564 0000", "brand": "CGI Group", "brand:wikidata": "Q1798370"}},
{"type": "Feature", "id": "mKaVDgQ4922U-ntYoydfOa9dgZk=", "properties": {"ref": "4240365481100123642", "contact:fax": null, "@spider": "cgi_group", "addr:city": "Amsterdam", "addr:postcode": "1101 BH", "name": "Amsterdam", "phone": "+31 088 564 0000", "brand": "CGI Group", "brand:wikidata": "Q1798370"}},
{"type": "Feature", "id": "x7Fo9ddVG-ifngSjHl-iu1aMC88=", "properties": {"ref": "1653688679840739414", "contact:fax": null, "@spider": "cgi_group", "addr:city": "Arnhem", "addr:postcode": "6824 BV", "name": "Arnhem", "phone": "+31 088 564 0000", "brand": "CGI Group", "brand:wikidata": "Q1798370"}},
{"type": "Feature", "id": "KK2aM0zzfvXYSB4odPRNbroEllo=", "properties": {"ref": "-6540645821339184199", "contact:fax": null, "@spider": "cgi_group", "addr:city": "Eindhoven", "addr:postcode": "5656 AE", "name": "Eindhoven", "phone": "+31 088 564 0000", "brand": "CGI Group", "brand:wikidata": "Q1798370"}},
{"type": "Feature", "id": "VHRpBrcFxriK8FdCYhQqEb1nfMY=", "properties": {"ref": "8651786846796758342", "contact:fax": null, "@spider": "cgi_group", "addr:city": "Groningen", "addr:postcode": "9727 DW", "name": "Groningen Groningen - Eemsgolaan", "phone": "+31 088 564 0000", "brand": "CGI Group", "brand:wikidata": "Q1798370"}},
{"type": "Feature", "id": "4nqth3VQD8zs_heaV3u9s6xMpuE=", "properties": {"ref": "-644506064847789274", "contact:fax": null, "@spider": "cgi_group", "addr:city": "Maastricht", "addr:postcode": "6221 BT", "name": "Maastricht", "phone": "+31 088 564 0000", "brand": "CGI Group", "brand:wikidata": "Q1798370"}},
{"type": "Feature", "id": "tgbi6-biagYVvcJuEQefco5BKsY=", "properties": {"ref": "-8798376633727496540", "contact:fax": null, "@spider": "cgi_group", "addr:city": "Rotterdam", "addr:postcode": "3068 AX", "name": "Rotterdam Rotterdam \u2013 De Lotus (head office)", "phone": "+31 088 564 0000", "brand": "CGI Group", "brand:wikidata": "Q1798370"}},
{"type": "Feature", "id": "C788EpJxPK5uzqQPZqUkBEN-k5k=", "properties": {"ref": "-1431686901771433969", "contact:fax": null, "@spider": "cgi_group", "addr:city": "Bergen", "addr:postcode": "5059", "name": "Bergen", "phone": "+47 22 57 70 00", "brand": "CGI Group", "brand:wikidata": "Q1798370"}},
{"type": "Feature", "id": "aSMQzyWdH9hy6LcU4bFF9KvML7Q=", "properties": {"ref": "-2400618264380363605", "contact:fax": null, "@spider": "cgi_group", "addr:city": "Haugesund", "addr:postcode": "5535", "name": "Haugesund", "phone": "+47 22 57 70 00", "brand": "CGI Group", "brand:wikidata": "Q1798370"}},
{"type": "Feature", "id": "mZ2wZqeS9SdkUA9b3UInE7Qk0iA=", "properties": {"ref": "4801147137259633503", "contact:fax": null, "@spider": "cgi_group", "addr:city": "Oslo", "addr:postcode": "0663", "name": "Oslo (Visiting address)", "phone": "+47 22 57 70 00", "brand": "CGI Group", "brand:wikidata": "Q1798370"}},
{"type": "Feature", "id": "fJ_Gy7_YaddhICPOafhUd9D3pPk=", "properties": {"ref": "9082853118809876394", "contact:fax": null, "@spider": "cgi_group", "addr:city": "Oslo", "addr:postcode": "0160", "name": "Oslo (Visiting address)", "phone": "+47 22 57 70 00", "brand": "CGI Group", "brand:wikidata": "Q1798370"}},
{"type": "Feature", "id": "A5yjRssJ8mchL88TCf5pAzJ30m8=", "properties": {"ref": "4513948362158570776", "contact:fax": null, "@spider": "cgi_group", "addr:city": "Sandefjord", "addr:postcode": "3241", "name": "Sandefjord", "brand": "CGI Group", "brand:wikidata": "Q1798370"}},
{"type": "Feature", "id": "zwbsN2tPnFq_iDPf6Ikkx-rbx8A=", "properties": {"ref": "2085402296350397411", "contact:fax": null, "@spider": "cgi_group", "addr:city": "Sarpsborg", "addr:postcode": "1711", "name": "Sarpsborg (Visiting and mailing address)", "phone": "+ 47 22 57 70 00", "brand": "CGI Group", "brand:wikidata": "Q1798370"}},
{"type": "Feature", "id": "o1DEMaoRxDyQzk_SsmDtQ9jrxfI=", "properties": {"ref": "5519210607243079134", "contact:fax": null, "@spider": "cgi_group", "addr:city": "Stavanger", "addr:postcode": "4007", "name": "Stavanger (Visiting address)", "phone": "+47 22 57 70 00", "brand": "CGI Group", "brand:wikidata": "Q1798370"}},
{"type": "Feature", "id": "k6pLJzpMtLpg63fUv69iQB0PJCc=", "properties": {"ref": "-2743026909798721996", "contact:fax": null, "@spider": "cgi_group", "addr:city": "Trondheim", "addr:postcode": "7042", "name": "Trondheim", "brand": "CGI Group", "brand:wikidata": "Q1798370"}},
{"type": "Feature", "id": "7TUEpsh2MI0w-qK8J_NrOHwP_GU=", "properties": {"ref": "4874907693006311513", "contact:fax": null, "@spider": "cgi_group", "addr:city": "T\u00f8nsberg", "addr:postcode": "3117", "name": "T\u00f8nsberg T\u00f8nsberg - Halfdan Wilhelmsens alle", "phone": "+ 47 22 57 70 00", "brand": "CGI Group", "brand:wikidata": "Q1798370"}},
{"type": "Feature", "id": "W-pR7IYSWda7KiIzTiz5K9yN8oE=", "properties": {"ref": "-1594985115789301778", "contact:fax": "+48 22 526 5701", "@spider": "cgi_group", "addr:city": "Warszawa", "addr:postcode": "00-103", "name": "Warszawa Warszawa\u2013 Ul. Kr\u00f3lewska", "phone": "+48 22 526 5700", "brand": "CGI Group", "brand:wikidata": "Q1798370"}},
{"type": "Feature", "id": "DzUos_UXPfobeXluGa4C7UlY8Lg=", "properties": {"ref": "8577731103970364553", "contact:fax": "+48 22 526 5701", "@spider": "cgi_group", "addr:city": "Wroc\u0142aw", "addr:postcode": "53-601", "name": "Wroc\u0142aw Wroc\u0142aw - Ul. T\u0119czowa", "phone": "+48 22 526 5700", "brand": "CGI Group", "brand:wikidata": "Q1798370"}},
{"type": "Feature", "id": "9uQpdHGw0s_UTtaajGqvo08dtB8=", "properties": {"ref": "-1738486105154318779", "contact:fax": "+351 210 007 010", "@spider": "cgi_group", "addr:city": "Lisboa", "addr:postcode": "1198-028", "name": "Lisboa  Parque das Na\u00e7\u00f5es", "phone": "+351 210 018 000", "brand": "CGI Group", "brand:wikidata": "Q1798370"}},
{"type": "Feature", "id": "yzpPK9XdiVMn9O30gzVCXvnQgvQ=", "properties": {"ref": "6488235543108195851", "contact:fax": "+351 210 007 010", "@spider": "cgi_group", "addr:city": "Lisboa", "addr:postcode": "1070-159", "name": "Lisboa Main Office", "brand": "CGI Group", "brand:wikidata": "Q1798370"}},
{"type": "Feature", "id": "FQgPyPBK81uGhdOYKifYLGQwZOw=", "properties": {"ref": "3592759829289992575", "contact:fax": "+351 210 007 010", "@spider": "cgi_group", "addr:city": "Odivelas", "addr:postcode": "2675-216", "name": "Odivelas", "brand": "CGI Group", "brand:wikidata": "Q1798370"}},
{"type": "Feature", "id": "WfqmMyjjQeRZwJyM8p-7NLeWEEc=", "properties": {"ref": "5774575733391802548", "contact:fax": "+351 210 007 010", "@spider": "cgi_group", "addr:city": "Porto", "addr:postcode": "4000-285", "name": "Porto  Rua Her\u00f3is M\u00e1rtires de Angola", "brand": "CGI Group", "brand:wikidata": "Q1798370"}},
{"type": "Feature", "id": "ogsVbug0kVXy-fFzxRCYZ8HnBks=", "properties": {"ref": "-1199165025125363522", "contact:fax": null, "@spider": "cgi_group", "addr:city": "Sacav\u00e9m", "addr:postcode": "2660-050", "name": "Sacav\u00e9m", "phone": "+ 351 210 018 210", "brand": "CGI Group", "brand:wikidata": "Q1798370"}},
{"type": "Feature", "id": "__CDZxE3zMgl4w5lMAFPAajMzZw=", "properties": {"ref": "-3671228083127201591", "contact:fax": null, "@spider": "cgi_group", "addr:city": "Sintra", "addr:postcode": "2710-089", "name": "Sintra  Sintra Business Park", "brand": "CGI Group", "brand:wikidata": "Q1798370"}},
{"type": "Feature", "id": "2sT_YGpatOhH8j5IrzwYrJlDpEg=", "properties": {"ref": "-5725954697238634165", "contact:fax": null, "@spider": "cgi_group", "addr:city": "Barcelona", "addr:postcode": "08011", "name": "Barcelona", "phone": "+34 93 151 84 51", "brand": "CGI Group", "brand:wikidata": "Q1798370"}},
{"type": "Feature", "id": "TharDHQrfRVNZakX1tF54plFXh0=", "properties": {"ref": "60115497267436846", "contact:fax": null, "@spider": "cgi_group", "addr:city": "Granada", "addr:postcode": "18006", "name": "Granada", "phone": "+34 91 555 62 38", "brand": "CGI Group", "brand:wikidata": "Q1798370"}},
{"type": "Feature", "id": "9I7P7o9VtJ66VhSVP-hc2i53-YY=", "properties": {"ref": "459704960812550635", "contact:fax": "+34 91 754 50 52", "@spider": "cgi_group", "addr:city": "Madrid", "addr:postcode": "28050", "name": "Madrid Madrid - Avda. De Manoteras", "phone": "+34 91 304 80 94", "brand": "CGI Group", "brand:wikidata": "Q1798370"}},
{"type": "Feature", "id": "HHvDGMDOBI4QP2xdj-AZmuuYTGY=", "properties": {"ref": "-4855469496674379758", "contact:fax": "+34 91754 50 52", "@spider": "cgi_group", "addr:city": "Malaga", "addr:postcode": "29010", "name": "Malaga", "phone": "+34 91 304 80 94", "brand": "CGI Group", "brand:wikidata": "Q1798370"}},
{"type": "Feature", "id": "JYxnz-zh3bhUSyKGwdXox_gWQeQ=", "properties": {"ref": "901783306753103805", "contact:fax": null, "@spider": "cgi_group", "addr:city": "Palma de Mallorca", "addr:postcode": "07121", "name": "Palma de Mallorca", "phone": "+34 97 143 39 09", "brand": "CGI Group", "brand:wikidata": "Q1798370"}},
{"type": "Feature", "id": "tHd2A48r7Mm-oXykDtavVc5xxco=", "properties": {"ref": "-378814110629983824", "contact:fax": null, "@spider": "cgi_group", "addr:city": "Sevilla", "addr:postcode": "41092", "name": "Sevilla", "phone": "+34 91 555 6238", "brand": "CGI Group", "brand:wikidata": "Q1798370"}},
{"type": "Feature", "id": "mW7Sy1Y3B6ZOuZDRTVmEScya-hs=", "properties": {"ref": "8973289134527172050", "contact:fax": null, "@spider": "cgi_group", "addr:city": "Bilbao", "addr:postcode": "48014", "name": "Bilbao", "phone": "+34 91 555 6238", "brand": "CGI Group", "brand:wikidata": "Q1798370"}},
{"type": "Feature", "id": "ZNCK-vQ5wI5lJp7nPpDSdk7SSm4=", "properties": {"ref": "529261531224332411", "contact:fax": null, "@spider": "cgi_group", "addr:city": "Zaragoza", "addr:postcode": "50002", "name": "Zaragoza", "phone": "+34 91 555 62 38", "brand": "CGI Group", "brand:wikidata": "Q1798370"}},
{"type": "Feature", "id": "rPWKtoWrLKqFHynudv_Ttp8Nfhw=", "properties": {"ref": "5398789597822239882", "contact:fax": "+46 243 19576", "@spider": "cgi_group", "addr:city": "Borl\u00e4nge", "addr:postcode": "784 33", "name": "Borl\u00e4nge Borl\u00e4nge - Borgan\u00e4sv\u00e4gen", "phone": "+46 243 93600", "brand": "CGI Group", "brand:wikidata": "Q1798370"}},
{"type": "Feature", "id": "qCYj55P56z8vP0lr7p4YhXmRllQ=", "properties": {"ref": "5900475574036990971", "contact:fax": "+46 456 25025", "@spider": "cgi_group", "addr:city": "Brom\u00f6lla", "addr:postcode": "295 31", "name": "Brom\u00f6lla Brom\u00f6lla - Iv\u00f6gatan", "phone": "+46 456 47500", "brand": "CGI Group", "brand:wikidata": "Q1798370"}},
{"type": "Feature", "id": "40bl_HcS-uRBx2FVh-hnfJA_9A0=", "properties": {"ref": "914968146653304207", "contact:fax": "+46 16 126591", "@spider": "cgi_group", "addr:city": "Eskilstuna", "addr:postcode": "63221", "name": "Eskilstuna", "phone": "+46 16 155800", "brand": "CGI Group", "brand:wikidata": "Q1798370"}},
{"type": "Feature", "id": "_iW5ERNMib6eL5lbNrbtUQ8z-h8=", "properties": {"ref": "-5746140491131517478", "contact:fax": "+46 26 546170", "@spider": "cgi_group", "addr:city": "G\u00e4vle", "addr:postcode": "803 20", "name": "G\u00e4vle", "phone": "+46 26 546140", "brand": "CGI Group", "brand:wikidata": "Q1798370"}},
{"type": "Feature", "id": "w413_2rAJxjsbh1N48SiHER8Ez0=", "properties": {"ref": "2871854535064718799", "contact:fax": "+46 31 7331200", "@spider": "cgi_group", "addr:city": "G\u00f6teborg", "addr:postcode": "41104", "name": "G\u00f6teborg", "phone": "+46 31 7331000", "brand": "CGI Group", "brand:wikidata": "Q1798370"}},
{"type": "Feature", "id": "R9UxtdSAlBFRzoU390UXu7MXfSw=", "properties": {"ref": "5293203896598752850", "contact:fax": null, "@spider": "cgi_group", "addr:city": "G\u00f6teborg", "addr:postcode": "411 05", "name": "G\u00f6teborg", "phone": "+46 72 701 32 12", "brand": "CGI Group", "brand:wikidata": "Q1798370"}},
{"type": "Feature", "id": "UpQy-83WussAN3OiS-Exjfz0mPo=", "properties": {"ref": "-2723802806383078816", "contact:fax": "+46 611 82228", "@spider": "cgi_group", "addr:city": "H\u00e4rn\u00f6sand", "addr:postcode": "871 33", "name": "H\u00e4rn\u00f6sand H\u00e4rn\u00f6sand - Storgatan", "phone": "+46 611 82200", "brand": "CGI Group", "brand:wikidata": "Q1798370"}},
{"type": "Feature", "id": "9WD_OIMwT9x5M_iJ5avDlj14KW8=", "properties": {"ref": "9068259732471558132", "contact:fax": "+46 36 710521", "@spider": "cgi_group", "addr:city": "J\u00f6nk\u00f6ping", "addr:postcode": "553 15", "name": "J\u00f6nk\u00f6ping J\u00f6nk\u00f6ping - J\u00e4rnv\u00e4gsgatan", "phone": "+46 36 345600", "brand": "CGI Group", "brand:wikidata": "Q1798370"}},
{"type": "Feature", "id": "lzLctiFRZD5hJIwGe_9-rarYQxc=", "properties": {"ref": "8071017260168118870", "contact:fax": null, "@spider": "cgi_group", "addr:city": "Kalmar", "addr:postcode": "392 48", "name": "Kalmar Kalmar - Kaggensgatan", "phone": "+46 480 444000", "brand": "CGI Group", "brand:wikidata": "Q1798370"}},
{"type": "Feature", "id": "dXYs87ui0Dz2RboI7nCZ8FwqyAU=", "properties": {"ref": "-323619415692288485", "contact:fax": "+46 455 326343", "@spider": "cgi_group", "addr:city": "Karlskrona", "addr:postcode": "371 75", "name": "Karlskrona Karlskrona - Campus Gr\u00e4svik", "phone": "+46 455 326300", "brand": "CGI Group", "brand:wikidata": "Q1798370"}},
{"type": "Feature", "id": "DhEgM2vlLv8FujYeAaChYc3K6VA=", "properties": {"ref": "3574463290754182710", "contact:fax": null, "@spider": "cgi_group", "addr:city": "Karlstad", "addr:postcode": "652 16", "name": "Karlstad Karlstad - Tyn\u00e4sgatan", "phone": "+46 54 147000", "brand": "CGI Group", "brand:wikidata": "Q1798370"}},
{"type": "Feature", "id": "cD9s-tpi9YQJUwQxuOItRm-_frI=", "properties": {"ref": "9043255890768874329", "contact:fax": "+46 980 393744", "@spider": "cgi_group", "addr:city": "Kiruna", "addr:postcode": "981 28", "name": "Kiruna Kiruna - \u00d6sterleden", "phone": "+46 980 393700", "brand": "CGI Group", "brand:wikidata": "Q1798370"}},
{"type": "Feature", "id": "ehYGQEaw2EJ6xI-duw_to6SEXvo=", "properties": {"ref": "669438397821123035", "contact:fax": "+46 13 214444", "@spider": "cgi_group", "addr:city": "Link\u00f6ping", "addr:postcode": "582 24", "name": "Link\u00f6ping Link\u00f6ping - Teknikringen", "phone": "+46 13 328300", "brand": "CGI Group", "brand:wikidata": "Q1798370"}},
{"type": "Feature", "id": "MCWVjBX3aI39AWUSMyS42WpnbXM=", "properties": {"ref": "-8497545760191453594", "contact:fax": "+46 920 276699", "@spider": "cgi_group", "addr:city": "Lule\u00e5", "addr:postcode": "977 75", "name": "Lule\u00e5 Lule\u00e5 - Aurorum", "phone": "+46 920 276600", "brand": "CGI Group", "brand:wikidata": "Q1798370"}},
{"type": "Feature", "id": "OJvzNTjp_ZtOsQiDe4Mike83-Bk=", "properties": {"ref": "4568005966751033208", "contact:fax": "+46 0 40251050", "@spider": "cgi_group", "addr:city": "Malm\u00f6", "addr:postcode": "211 75", "name": "Malm\u00f6 Malm\u00f6 - \u00d6stra Varvsgatan", "phone": "+46 0 40251000", "brand": "CGI Group", "brand:wikidata": "Q1798370"}},
{"type": "Feature", "id": "wu32AaTS37ji_cdAbIwXtKsGDgI=", "properties": {"ref": "-1239791844763441622", "contact:fax": "+46 11 231899", "@spider": "cgi_group", "addr:city": "Norrk\u00f6ping", "addr:postcode": "600 45", "name": "Norrk\u00f6ping Norrk\u00f6ping - S\u00f6dra Grytsgatan", "phone": "+46 11 231800", "brand": "CGI Group", "brand:wikidata": "Q1798370"}},
{"type": "Feature", "id": "pS_fvBKgT1ZZ_qZLchuit1--mkU=", "properties": {"ref": "7726511892568185644", "contact:fax": "+46 19 5062501", "@spider": "cgi_group", "addr:city": "\u00d6rebro", "addr:postcode": "703 61", "name": "\u00d6rebro \u00d6rebro - Storgatan", "phone": "+46 19 5062500", "brand": "CGI Group", "brand:wikidata": "Q1798370"}},
{"type": "Feature", "id": "RzczQdOh5bXf6tuOKZTwHARGBig=", "properties": {"ref": "5665396985985214468", "contact:fax": "+46 660 273180", "@spider": "cgi_group", "addr:city": "\u00d6rnsk\u00f6ldsvik", "addr:postcode": "891 18", "name": "\u00d6rnsk\u00f6ldsvik \u00d6rnsk\u00f6ldsvik - J\u00e4rnv\u00e4gsgatan", "phone": "+46 660 273100", "brand": "CGI Group", "brand:wikidata": "Q1798370"}},
{"type": "Feature", "id": "_mgZ2rkFjVbo9yCGAG1o7ZO36Qo=", "properties": {"ref": "-7097512672837200925", "contact:fax": "+46 491 762001", "@spider": "cgi_group", "addr:city": "Oskarshamn", "addr:postcode": "572 30", "name": "Oskarshamn Oskarshamn - Bryggaregatan", "phone": "+46 491 762000", "brand": "CGI Group", "brand:wikidata": "Q1798370"}},
{"type": "Feature", "id": "zHKflbP9p3Q5qFd-fACtn28UZNI=", "properties": {"ref": "-254042799787599031", "contact:fax": null, "@spider": "cgi_group", "addr:city": "\u00d6stersund", "addr:postcode": "831 41", "name": "\u00d6stersund", "phone": "+46 63 152200", "brand": "CGI Group", "brand:wikidata": "Q1798370"}},
{"type": "Feature", "id": "GKZDG48g4l0wiToH-lA1dn0xfwQ=", "properties": {"ref": "8869339731221703406", "contact:fax": null, "@spider": "cgi_group", "addr:city": "Skara", "addr:postcode": "532 30", "name": "Skara Skara - Skaraborgsgatan", "phone": "+46 511 253 80", "brand": "CGI Group", "brand:wikidata": "Q1798370"}},
{"type": "Feature", "id": "bCBC5w3H6Szfesjc7Lk2wsQdBus=", "properties": {"ref": "8558194433366430789", "contact:fax": "+46 910 786425", "@spider": "cgi_group", "addr:city": "Skellefte\u00e5", "addr:postcode": "931 30", "name": "Skellefte\u00e5 Skellefte\u00e5 - H\u00f6rnellgatan", "phone": "+46 910 786400", "brand": "CGI Group", "brand:wikidata": "Q1798370"}},
{"type": "Feature", "id": "IYUCT_BWie2I-quIe7z8LkC0C88=", "properties": {"ref": "8730455277189538157", "contact:fax": null, "@spider": "cgi_group", "addr:city": "Stockholm", "addr:postcode": "164 98", "name": "Stockholm Stockholm - Torshamnsgatan", "phone": "+46 8 670 20 00", "brand": "CGI Group", "brand:wikidata": "Q1798370"}},
{"type": "Feature", "id": "WLyV9FffTqD4nq8-vg7TDJDPRvY=", "properties": {"ref": "166158599655572666", "contact:fax": null, "@spider": "cgi_group", "addr:city": "Stockholm", "addr:postcode": "111 20", "name": "Stockholm", "phone": "+46 8 670 20 00", "brand": "CGI Group", "brand:wikidata": "Q1798370"}},
{"type": "Feature", "id": "9uGvK1NfCUPnAv2RwehkB9T4psI=", "properties": {"ref": "-2418771757353236058", "contact:fax": "+46 60 178590", "@spider": "cgi_group", "addr:city": "Sundsvall", "addr:postcode": "851 05", "name": "Sundsvall Sundsvall - Fredsgatan", "phone": "+46 60 7853300", "brand": "CGI Group", "brand:wikidata": "Q1798370"}},
{"type": "Feature", "id": "z0g0WLhd_QAvx-Y2DlMfsBlJVuk=", "properties": {"ref": "-2250799165828892051", "contact:fax": "+46 90 771914", "@spider": "cgi_group", "addr:city": "Ume\u00e5", "addr:postcode": "904 20", "name": "Ume\u00e5 Ume\u00e5 - Tegsplan", "phone": "+46 90 159100", "brand": "CGI Group", "brand:wikidata": "Q1798370"}},
{"type": "Feature", "id": "AhMS7M05G3dJ1cN4gqsvxEeRUww=", "properties": {"ref": "6868744390916310737", "contact:fax": "+46 21 171819", "@spider": "cgi_group", "addr:city": "V\u00e4ster\u00e5s", "addr:postcode": "722 13", "name": "V\u00e4ster\u00e5s V\u00e4ster\u00e5s - Sigurdsgatan", "phone": "+46 21 171200", "brand": "CGI Group", "brand:wikidata": "Q1798370"}},
{"type": "Feature", "id": "l3eMeEpdtrR4bj2YtuXKWEU9U8Q=", "properties": {"ref": "-7552333950088951583", "contact:fax": null, "@spider": "cgi_group", "addr:city": "Bucharest", "name": "Bucharest 15D SOs. Orhideelor", "brand": "CGI Group", "brand:wikidata": "Q1798370"}},
{"type": "Feature", "id": "cCrKkEZHOUy65t5JEoenM4lRJ2M=", "properties": {"ref": "-7604484878910484719", "contact:fax": "+421 2 57 882 112", "@spider": "cgi_group", "addr:city": "BRATISLAVA", "addr:postcode": "811 03", "name": "BRATISLAVA", "phone": "+421 2 57 882 111", "brand": "CGI Group", "brand:wikidata": "Q1798370"}},
{"type": "Feature", "id": "LsElOI0sfRnqbX9RbH_1oRwP3a4=", "properties": {"ref": "-7622416722301428025", "contact:fax": null, "@spider": "cgi_group", "addr:city": "Belfast", "addr:postcode": "BT1 6JH", "name": "Belfast", "phone": "+44 0845 0707765", "brand": "CGI Group", "brand:wikidata": "Q1798370"}},
{"type": "Feature", "id": "8RZqotHqLAMBbINnBFK2ro_Iew8=", "properties": {"ref": "-764586598325596316", "contact:fax": null, "@spider": "cgi_group", "addr:city": "Leicester", "addr:postcode": "LE4 5SP", "name": "Leicester", "phone": "+44 0845 0707765", "brand": "CGI Group", "brand:wikidata": "Q1798370"}},
{"type": "Feature", "id": "36lXol3GmhoJ1jpcrH5MLKjBig4=", "properties": {"ref": "-4069420724080432323", "contact:fax": null, "@spider": "cgi_group", "addr:city": "Reading", "addr:postcode": "RG2 6UH", "name": "Reading Reading - Brook Drive", "phone": "+44 0845 070 7765", "brand": "CGI Group", "brand:wikidata": "Q1798370"}},
{"type": "Feature", "id": "ppMi6nNRe9yYQHzZ5ATBeMs5DwI=", "properties": {"ref": "-5579117109468913316", "contact:fax": null, "@spider": "cgi_group", "addr:city": "Bristol", "addr:postcode": "BS34 7RR", "name": "Bristol Building 20a1 Brandon House", "phone": "+44 0845 0707765", "brand": "CGI Group", "brand:wikidata": "Q1798370"}},
{"type": "Feature", "id": "HEw8HMY-hqyQrZKqkrj7Jhfxy-s=", "properties": {"ref": "5199362950439336717", "contact:fax": null, "@spider": "cgi_group", "addr:city": "Bristol", "addr:postcode": "BS4 5SS", "name": "Bristol", "phone": "+44 0845 0707765", "brand": "CGI Group", "brand:wikidata": "Q1798370"}},
{"type": "Feature", "id": "8WPYgQ9morGclt4AZuQLy9sAF7s=", "properties": {"ref": "100389748189301175", "contact:fax": null, "@spider": "cgi_group", "addr:city": "Milton Keynes", "addr:postcode": "MK9 1FH", "name": "Milton Keynes", "phone": "+44 0845 070 7765", "brand": "CGI Group", "brand:wikidata": "Q1798370"}},
{"type": "Feature", "id": "tOUr2dD8lqh39X8yN9zZlW_bSzs=", "properties": {"ref": "-8474859764137962583", "contact:fax": null, "@spider": "cgi_group", "addr:city": "Brockworth", "addr:postcode": "GL3 4AB", "name": "Brockworth", "phone": "+44 0845 070 7765", "brand": "CGI Group", "brand:wikidata": "Q1798370"}},
{"type": "Feature", "id": "QUZPnE0XDDs7SkiGIumF8FOeUZE=", "properties": {"ref": "5225038389442503733", "contact:fax": null, "@spider": "cgi_group", "addr:city": "Manchester", "addr:postcode": "M5 3LZ", "name": "Manchester", "phone": "+44 0845 070 7765", "brand": "CGI Group", "brand:wikidata": "Q1798370"}},
{"type": "Feature", "id": "uit5phawUTngXvgcb5ORS_xLIHo=", "properties": {"ref": "-2647354281557414427", "contact:fax": null, "@spider": "cgi_group", "addr:city": "London", "addr:postcode": "EC3M 3BY", "name": "London London - Fenchurch Street", "phone": "+44 0845 0707765", "brand": "CGI Group", "brand:wikidata": "Q1798370"}},
{"type": "Feature", "id": "G2bS0TL03mrwlo8cshEDX8FL3Nw=", "properties": {"ref": "7479264071721355988", "contact:fax": null, "@spider": "cgi_group", "addr:city": "Liverpool", "addr:postcode": "L3 1DQ", "name": "Liverpool", "phone": "+44 0845 0707765", "brand": "CGI Group", "brand:wikidata": "Q1798370"}},
{"type": "Feature", "id": "maw77RHg579T690mffd7ob5jC3Y=", "properties": {"ref": "-8399104831059832351", "contact:fax": null, "@spider": "cgi_group", "addr:city": "Edinburgh", "addr:postcode": "EH2 3ES", "name": "Edinburgh", "phone": "+44 0845 0707765", "brand": "CGI Group", "brand:wikidata": "Q1798370"}},
{"type": "Feature", "id": "oVxWrtK3Ceim8dqCUxZUtA8wiT8=", "properties": {"ref": "5778666875698238277", "contact:fax": null, "@spider": "cgi_group", "addr:city": "Galashiels", "addr:postcode": "TD1 3TE", "name": "Galashiels", "phone": "+44 0845 0707765", "brand": "CGI Group", "brand:wikidata": "Q1798370"}},
{"type": "Feature", "id": "-ZgW7AnIVylave8jrywSrFWvLbE=", "properties": {"ref": "2496443057279249278", "contact:fax": null, "@spider": "cgi_group", "addr:city": "Glasgow", "addr:postcode": "G2 2JJ", "name": "Glasgow", "phone": "+44 0845 0707765", "brand": "CGI Group", "brand:wikidata": "Q1798370"}},
{"type": "Feature", "id": "gA2ZM7zF4cKfyKrYNr2cNKAyOWs=", "properties": {"ref": "7905414220235125907", "contact:fax": null, "@spider": "cgi_group", "addr:city": "Leatherhead", "addr:postcode": "KT22 7LP", "name": "Leatherhead Keats House", "phone": "+44 0845 070 7765", "brand": "CGI Group", "brand:wikidata": "Q1798370"}},
{"type": "Feature", "id": "qbo6FbRtNkv8-TctY9qmNauN5AY=", "properties": {"ref": "-8253931353978200276", "contact:fax": null, "@spider": "cgi_group", "addr:city": "Newcastle upon Tyne", "addr:postcode": "NE4 5TG", "name": "Newcastle upon Tyne The Catalyst", "phone": "+44 0845 0707765", "brand": "CGI Group", "brand:wikidata": "Q1798370"}},
{"type": "Feature", "id": "KBy3Y0FeRbon0VGmEcw7455tTxY=", "properties": {"ref": "3374501809987192465", "contact:fax": null, "@spider": "cgi_group", "addr:city": "Bridgend", "addr:postcode": "CF31 3NA", "name": "Bridgend Data Centre", "phone": "+44 0845 070 7765", "brand": "CGI Group", "brand:wikidata": "Q1798370"}},
{"type": "Feature", "id": "wvtROvl4CHox4pUH0FjkagXQqY4=", "properties": {"ref": "-4882969416525822353", "contact:fax": null, "@spider": "cgi_group", "addr:city": "Bridgend", "addr:postcode": "CF31 3TR", "name": "Bridgend Waterton", "phone": "+44 0845 070 7765", "brand": "CGI Group", "brand:wikidata": "Q1798370"}},
{"type": "Feature", "id": "VzcLvFyjNB442pCdubVxy6Mxwms=", "properties": {"ref": "-6893383218787880959", "contact:fax": null, "@spider": "cgi_group", "addr:city": "Clwyd", "addr:postcode": "LL17 0JE", "name": "Clwyd St Asaph", "phone": "+44 0845 0707765", "brand": "CGI Group", "brand:wikidata": "Q1798370"}},
{"type": "Feature", "id": "c_ckR310Toa6cc5q61n1L3Zfy3M=", "properties": {"ref": "-7148381962456238226", "contact:fax": null, "@spider": "cgi_group", "addr:city": "Solihull", "addr:postcode": "B91 3QJ", "name": "Solihull", "phone": "+44 0845 0707765", "brand": "CGI Group", "brand:wikidata": "Q1798370"}},
{"type": "Feature", "id": "GJ0zQ7bmRdpQb8A68NwOtm1_QvI=", "properties": {"ref": "-4886666976257467587", "contact:fax": null, "@spider": "cgi_group", "addr:city": "Wiltshire", "addr:postcode": "SN14 0GB", "name": "Wiltshire Chippenham", "phone": "+44 0845 0707765", "brand": "CGI Group", "brand:wikidata": "Q1798370"}},
{"type": "Feature", "id": "cVFkclOqtbcbTZtCXe2kgbsm8bA=", "properties": {"ref": "-960326513157028566", "contact:fax": null, "@spider": "cgi_group", "addr:city": "Leeds", "addr:postcode": "LS1 5SH", "name": "Leeds", "phone": "+44 0845 0707765", "brand": "CGI Group", "brand:wikidata": "Q1798370"}},
{"type": "Feature", "id": "ZLQth1aoX2RPvT5SG9rcEDFXCFE=", "properties": {"ref": "5695654314507259373", "contact:fax": "+1 4032138488", "@spider": "cgi_group", "addr:city": "Calgary", "addr:postcode": "T2P 0X8", "name": "Calgary", "phone": "+1 4032188300", "brand": "CGI Group", "brand:wikidata": "Q1798370"}},
{"type": "Feature", "id": "JG2BRCfzuQ-Trp2zp5wlNGqQeDs=", "properties": {"ref": "-732561557667363478", "contact:fax": "+1 7804092201", "@spider": "cgi_group", "addr:city": "Edmonton", "addr:postcode": "T5J 3N6", "name": "Edmonton", "phone": "+1 7804092200", "brand": "CGI Group", "brand:wikidata": "Q1798370"}},
{"type": "Feature", "id": "EQPDEw6a8HFSEsrPDJreAuqZy4s=", "properties": {"ref": "2113412305598396679", "contact:fax": "+1 6044447611", "@spider": "cgi_group", "addr:city": "Burnaby", "addr:postcode": "V5C 0J3", "name": "Burnaby", "phone": "+1 6044200108", "brand": "CGI Group", "brand:wikidata": "Q1798370"}},
{"type": "Feature", "id": "f7V1K63VVgMOReds8zlEIPo-SmY=", "properties": {"ref": "-6765937919874568156", "contact:fax": "+1 2503885018", "@spider": "cgi_group", "addr:city": "Victoria", "addr:postcode": "V8W 2E1", "name": "Victoria", "phone": "+1 2503833934", "brand": "CGI Group", "brand:wikidata": "Q1798370"}},
{"type": "Feature", "id": "RNS7n22sUfAOHjIkR-DZyeRHcx8=", "properties": {"ref": "-7609983678056786472", "contact:fax": "+1 5064585059", "@spider": "cgi_group", "addr:city": "Fredericton", "addr:postcode": "E3C 2R2", "name": "Fredericton", "phone": "+1 5064585020", "brand": "CGI Group", "brand:wikidata": "Q1798370"}},
{"type": "Feature", "id": "PAGvt6HZzu93wHN5b8u5AMBdUtI=", "properties": {"ref": "-4405938522426345485", "contact:fax": "+1 5068564135", "@spider": "cgi_group", "addr:city": "Moncton", "addr:postcode": "E1C 0M3", "name": "Moncton", "phone": "+1 5068785500", "brand": "CGI Group", "brand:wikidata": "Q1798370"}},
{"type": "Feature", "id": "KU3I1kRqu4HcgYu-L8lPzETZYPs=", "properties": {"ref": "-7729742051642176899", "contact:fax": "+1 9024934490", "@spider": "cgi_group", "addr:city": "Halifax", "addr:postcode": "B3L 2C2", "name": "Halifax", "phone": "+1 9024933500", "brand": "CGI Group", "brand:wikidata": "Q1798370"}},
{"type": "Feature", "id": "tv9eG175AWKRBhpjtTLAUm8lhUE=", "properties": {"ref": "-2594798374887262469", "contact:fax": null, "@spider": "cgi_group", "addr:city": "Markham", "addr:postcode": "L3T 7Z3", "name": "Markham", "phone": "+1 9057622700", "brand": "CGI Group", "brand:wikidata": "Q1798370"}},
{"type": "Feature", "id": "J____YlHdRUW3r5SKAC5QuV2toA=", "properties": {"ref": "3292615814039614556", "contact:fax": null, "@spider": "cgi_group", "addr:city": "Mississauga", "addr:postcode": "L5N 2V8", "name": "Mississauga", "brand": "CGI Group", "brand:wikidata": "Q1798370"}},
{"type": "Feature", "id": "vPS3dwM5C0fSTc8lpi8n6_vKupw=", "properties": {"ref": "8392433094729986642", "contact:fax": "+1 9058587171", "@spider": "cgi_group", "addr:city": "Mississauga", "addr:postcode": "L5N 2V8", "name": "Mississauga", "phone": "+1 9058212252", "brand": "CGI Group", "brand:wikidata": "Q1798370"}},
{"type": "Feature", "id": "ehaOn5-CgvPorQ2p2QSX1QkPBYQ=", "properties": {"ref": "-18227619754055974", "contact:fax": "+1 6137405929", "@spider": "cgi_group", "addr:city": "Ottawa", "addr:postcode": "K1J 9B9", "name": "Ottawa", "phone": "+1 6137405900", "brand": "CGI Group", "brand:wikidata": "Q1798370"}},
{"type": "Feature", "id": "RzAqiG3E0RVs0H3ngOHJHhKRLYU=", "properties": {"ref": "4082697986669614559", "contact:fax": null, "@spider": "cgi_group", "addr:city": "Ottawa", "addr:postcode": "K1P 6L5", "name": "Ottawa", "brand": "CGI Group", "brand:wikidata": "Q1798370"}},
{"type": "Feature", "id": "Wu_EzwU1CQGZsdamu3Uvby94khc=", "properties": {"ref": "-2443241809722854005", "contact:fax": "+1 4163639766", "@spider": "cgi_group", "addr:city": "Toronto", "addr:postcode": "M5B 2L7", "name": "Toronto", "phone": "+1 4163637827", "brand": "CGI Group", "brand:wikidata": "Q1798370"}},
{"type": "Feature", "id": "AqPyracc8D5tJFiX4eWrCT6KkiA=", "properties": {"ref": "5964123400070197637", "contact:fax": null, "@spider": "cgi_group", "addr:city": "Stratford", "addr:postcode": "C1B 1T5", "name": "Stratford", "phone": "+1 9023678300", "brand": "CGI Group", "brand:wikidata": "Q1798370"}},
{"type": "Feature", "id": "kgfQhBbyC7cIkNAA4AiL37-YQWQ=", "properties": {"ref": "-7123975618376765139", "contact:fax": "8194749998", "@spider": "cgi_group", "addr:city": "Drummondville", "addr:postcode": "J2C 2Z5", "name": "Drummondville", "brand": "CGI Group", "brand:wikidata": "Q1798370"}},
{"type": "Feature", "id": "4oEv-HVfuBlkEVDYLhPpOyAu9K0=", "properties": {"ref": "7589159222879686800", "contact:fax": "6137405900", "@spider": "cgi_group", "addr:city": "Gatineau", "addr:postcode": "J8T 1P8", "name": "Gatineau", "brand": "CGI Group", "brand:wikidata": "Q1798370"}},
{"type": "Feature", "id": "KhQLtJin8OAhH2Os8tdgOO0l1sQ=", "properties": {"ref": "-4152204065595429720", "contact:fax": null, "@spider": "cgi_group", "addr:city": "Montr\u00e9al", "addr:postcode": "H1N 2K1", "name": "Montr\u00e9al", "brand": "CGI Group", "brand:wikidata": "Q1798370"}},
{"type": "Feature", "id": "-FvDlH4rSie1MRnrCMWFcvBvDOk=", "properties": {"ref": "5127159907064123362", "contact:fax": null, "@spider": "cgi_group", "addr:city": "Montr\u00e9al", "addr:postcode": "H2S 3L5", "name": "Montr\u00e9al Montr\u00e9al - Saint-Denis", "phone": "514 415 3000", "brand": "CGI Group", "brand:wikidata": "Q1798370"}},
{"type": "Feature", "id": "GJOKSKkmLf4PSJWaa3kP7kPCM7I=", "properties": {"ref": "-6214322461276458303", "contact:fax": "+1 5148413299", "@spider": "cgi_group", "addr:city": "Montr\u00e9al", "addr:postcode": "H3G 1T4", "name": "Montr\u00e9al Montr\u00e9al - Head office", "phone": "+1 5148413200", "brand": "CGI Group", "brand:wikidata": "Q1798370"}},
{"type": "Feature", "id": "2d-uihzSoiSY5tTA1h2f5QnloJc=", "properties": {"ref": "2247640776499021315", "contact:fax": "514 4153000", "@spider": "cgi_group", "addr:city": "Montreal", "addr:postcode": "H3A 2N4", "name": "Montreal", "brand": "CGI Group", "brand:wikidata": "Q1798370"}},
{"type": "Feature", "id": "XFC6tQvF8JVe1jjNxbgNu315elk=", "properties": {"ref": "-3271593358539451588", "contact:fax": "+1 5147350821", "@spider": "cgi_group", "addr:city": "Montr\u00e9al", "addr:postcode": "H2M 2P2", "name": "Montr\u00e9al Montr\u00e9al - Cr\u00e9mazie", "phone": "+1 5148506300", "brand": "CGI Group", "brand:wikidata": "Q1798370"}},
{"type": "Feature", "id": "HIJV9Tun_w9xVdtHfSlYW1nzbb4=", "properties": {"ref": "-1654486879477535576", "contact:fax": null, "@spider": "cgi_group", "addr:city": "Qu\u00e9bec", "addr:postcode": "G1K 8G3", "name": "Qu\u00e9bec", "phone": "+1 4186230101", "brand": "CGI Group", "brand:wikidata": "Q1798370"}},
{"type": "Feature", "id": "SIAGFq5CImFaCcgoO_zb88Aoqf4=", "properties": {"ref": "-7117637997315949974", "contact:fax": "+1 4186966795", "@spider": "cgi_group", "addr:city": "Saguenay", "addr:postcode": "G7H 7K9", "name": "Saguenay", "phone": "+1 4186966789", "brand": "CGI Group", "brand:wikidata": "Q1798370"}},
{"type": "Feature", "id": "GHhh1NI_tQOulIM78WLnuSAgZ2w=", "properties": {"ref": "5549842027486762310", "contact:fax": null, "@spider": "cgi_group", "addr:city": "Shawinigan", "addr:postcode": "G9N 1E6", "name": "Shawinigan", "phone": "+1 8195372320", "brand": "CGI Group", "brand:wikidata": "Q1798370"}},
{"type": "Feature", "id": "N5LCoVUciL8t9oVhrer-vVy4B4A=", "properties": {"ref": "-7896585385660476271", "contact:fax": "+1 8198217461", "@spider": "cgi_group", "addr:city": "Sherbrooke", "addr:postcode": "J1H 1H1", "name": "Sherbrooke", "phone": "+1 8198217460", "brand": "CGI Group", "brand:wikidata": "Q1798370"}},
{"type": "Feature", "id": "2PUG7Oc6pSqINMXOiH-nfThWhKo=", "properties": {"ref": "-1643436116916398210", "contact:fax": null, "@spider": "cgi_group", "addr:city": "Sherbrooke", "addr:postcode": "J1H 1W6", "name": "Sherbrooke", "phone": "438 334 1488", "brand": "CGI Group", "brand:wikidata": "Q1798370"}},
{"type": "Feature", "id": "EhinNqi5u9w7RXUBXJjaulJwytg=", "properties": {"ref": "4591785456750730968", "contact:fax": "+1 3067614329", "@spider": "cgi_group", "addr:city": "Regina", "addr:postcode": "S4P 4K8", "name": "Regina", "phone": "+1 3067614000", "brand": "CGI Group", "brand:wikidata": "Q1798370"}},
{"type": "Feature", "id": "TCmlVRiZX-hYC1aVQgQdWrUIRmw=", "properties": {"ref": "5628343421482124762", "contact:fax": null, "@spider": "cgi_group", "addr:city": "Bogot\u00e1", "addr:postcode": "111311", "name": "Bogot\u00e1", "phone": "+57 1 4924640", "brand": "CGI Group", "brand:wikidata": "Q1798370"}},
{"type": "Feature", "id": "fNZUnbpJCevcBIg_6K5RYx-chFM=", "properties": {"ref": "-3570243579181742893", "contact:fax": null, "@spider": "cgi_group", "addr:city": "Ciudad de M\u00e9xico", "addr:postcode": "11650", "name": "Ciudad de M\u00e9xico", "phone": "+52 1 55 52071656, +52 1 55 55146815", "brand": "CGI Group", "brand:wikidata": "Q1798370"}},
{"type": "Feature", "id": "gG98Bp53as-XiPxJqsbDfuyh6rA=", "properties": {"ref": "-2243806578888425683", "contact:fax": null, "@spider": "cgi_group", "addr:city": "Birmingham", "addr:postcode": "35243", "name": "Birmingham", "phone": "+1 2052592300", "brand": "CGI Group", "brand:wikidata": "Q1798370"}},
{"type": "Feature", "id": "A694hqXA7kXBFWQdzmiPqdl7Amo=", "properties": {"ref": "5509851807613932416", "contact:fax": "+1 2565346473", "@spider": "cgi_group", "addr:city": "Huntsville", "addr:postcode": "35808", "name": "Huntsville", "phone": "+1 2569222400", "brand": "CGI Group", "brand:wikidata": "Q1798370"}},
{"type": "Feature", "id": "oDTmHnt4fqbb-MgCDttRq03Whl8=", "properties": {"ref": "6706535745878524849", "contact:fax": null, "@spider": "cgi_group", "addr:city": "Mobile", "addr:postcode": "36695-4520", "name": "Mobile", "phone": "+1 2517064460", "brand": "CGI Group", "brand:wikidata": "Q1798370"}},
{"type": "Feature", "id": "_rtCj4iovq-AmnSnIVFy_tGyUGo=", "properties": {"ref": "5878736180702719115", "contact:fax": null, "@spider": "cgi_group", "addr:city": "Montgomery", "addr:postcode": "36104", "name": "Montgomery", "brand": "CGI Group", "brand:wikidata": "Q1798370"}},
{"type": "Feature", "id": "LIR6lezOzLtQwB6GSgSkEztt2rg=", "properties": {"ref": "7549308326185682270", "contact:fax": "+1 3345661205", "@spider": "cgi_group", "addr:city": "Troy", "addr:postcode": "36081", "name": "Troy", "phone": "+1 3348075540", "brand": "CGI Group", "brand:wikidata": "Q1798370"}},
{"type": "Feature", "id": "IsYycdt8j4sXXLFDQgOWscBLqug=", "properties": {"ref": "-2498807776908486443", "contact:fax": null, "@spider": "cgi_group", "addr:city": "Juneau", "addr:postcode": "99801", "name": "Juneau", "phone": "+1 9074634112 x245", "brand": "CGI Group", "brand:wikidata": "Q1798370"}},
{"type": "Feature", "id": "lokA3Fq7GoUsr9-4Wch6TaxJNvU=", "properties": {"ref": "3333704423753123955", "contact:fax": "+1 5207338096", "@spider": "cgi_group", "addr:city": "Tucson", "addr:postcode": "85710", "name": "Tucson", "phone": "+1 5207338060", "brand": "CGI Group", "brand:wikidata": "Q1798370"}},
{"type": "Feature", "id": "etBAdMsdFOA_BFR9CDTtthCL4N4=", "properties": {"ref": "-7807932709570314491", "contact:fax": "+1 5016222442", "@spider": "cgi_group", "addr:city": "Hot Springs", "addr:postcode": "71913", "name": "Hot Springs", "phone": "+1 5016222440", "brand": "CGI Group", "brand:wikidata": "Q1798370"}},
{"type": "Feature", "id": "EaN_HNOCEuLo0_XHPvW11D9ZdeE=", "properties": {"ref": "4700742240402328830", "contact:fax": "2298896598", "@spider": "cgi_group", "addr:city": "Albany", "addr:postcode": "31707", "name": "Albany", "phone": "2298896500", "brand": "CGI Group", "brand:wikidata": "Q1798370"}},
{"type": "Feature", "id": "PH7bu8METZCks_U-kq0LMWCN_mM=", "properties": {"ref": "-7904473745393333943", "contact:fax": null, "@spider": "cgi_group", "addr:city": "Albany", "addr:postcode": "31707", "name": "Albany", "brand": "CGI Group", "brand:wikidata": "Q1798370"}},
{"type": "Feature", "id": "wlpRZyP9FKjHeyxJKfvvkUVV_xc=", "properties": {"ref": "4239220989209038310", "contact:fax": null, "@spider": "cgi_group", "addr:city": "Atlanta", "addr:postcode": "30326", "name": "Atlanta", "brand": "CGI Group", "brand:wikidata": "Q1798370"}},
{"type": "Feature", "id": "riPWQ1M7zr4J5OC9Xk1noMoLw00=", "properties": {"ref": "1983561639187910499", "contact:fax": null, "@spider": "cgi_group", "addr:city": "Chicago", "addr:postcode": "60607", "name": "Chicago", "brand": "CGI Group", "brand:wikidata": "Q1798370"}},
{"type": "Feature", "id": "Db3l9UP3Xy96ODGiKu9USX8um74=", "properties": {"ref": "-6678577282737822313", "contact:fax": null, "@spider": "cgi_group", "addr:city": "Frankfort", "addr:postcode": "40601", "name": "Frankfort", "phone": "+1 6148655000", "brand": "CGI Group", "brand:wikidata": "Q1798370"}},
{"type": "Feature", "id": "g_2fT9FAesO1cYNt-UU8_pwXDFw=", "properties": {"ref": "3988039742533705319", "contact:fax": null, "@spider": "cgi_group", "addr:city": "Greenwood Village", "addr:postcode": "80111", "name": "Greenwood Village", "phone": "+1 3035652201", "brand": "CGI Group", "brand:wikidata": "Q1798370"}},
{"type": "Feature", "id": "3muw1N4S9E8hQsEEU_395_-rSLI=", "properties": {"ref": "-6967406950000571962", "contact:fax": "8604032041", "@spider": "cgi_group", "addr:city": "Hartford", "addr:postcode": "06102-5056", "name": "Hartford", "phone": "8604032040", "brand": "CGI Group", "brand:wikidata": "Q1798370"}},
{"type": "Feature", "id": "wvL7NeUbvbrwA9azTR5Df1H53iU=", "properties": {"ref": "-3855069736098739368", "contact:fax": null, "@spider": "cgi_group", "addr:city": "Honolulu", "addr:postcode": "96813", "name": "Honolulu", "phone": "+1 8083750999", "brand": "CGI Group", "brand:wikidata": "Q1798370"}},
{"type": "Feature", "id": "uPfXp1wSD-VUg0U4SykpPgs28ps=", "properties": {"ref": "9193208272657128463", "contact:fax": null, "@spider": "cgi_group", "addr:city": "Lafayette", "addr:postcode": "70501", "name": "Lafayette", "phone": "+1 3374841650", "brand": "CGI Group", "brand:wikidata": "Q1798370"}},
{"type": "Feature", "id": "sLHBh0Hj8DHHg8Q1DjXleM04Jko=", "properties": {"ref": "-5398240013440277680", "contact:fax": null, "@spider": "cgi_group", "addr:city": "Lafayette", "addr:postcode": "70506", "name": "Lafayette", "phone": "+1 3374841699", "brand": "CGI Group", "brand:wikidata": "Q1798370"}},
{"type": "Feature", "id": "2up_PmFxKOszNVDxA9bEkUr-w3U=", "properties": {"ref": "315127556386846388", "contact:fax": "+1 2132395301", "@spider": "cgi_group", "addr:city": "Los Angeles", "addr:postcode": "90071", "name": "Los Angeles", "phone": "+1 2132395300", "brand": "CGI Group", "brand:wikidata": "Q1798370"}},
{"type": "Feature", "id": "WuEcIzLk5kskN8GT0PqKvZ-SymY=", "properties": {"ref": "-6308650471824402875", "contact:fax": "+1 5102688545", "@spider": "cgi_group", "addr:city": "Oakland", "addr:postcode": "94612", "name": "Oakland", "phone": "+1 5102385300", "brand": "CGI Group", "brand:wikidata": "Q1798370"}},
{"type": "Feature", "id": "IiwpiTm36ntpaGKpF6sboCC6TEE=", "properties": {"ref": "9032180299932585630", "contact:fax": null, "@spider": "cgi_group", "addr:city": "Sacramento", "addr:postcode": "95814", "name": "Sacramento", "phone": "+1 9168301100", "brand": "CGI Group", "brand:wikidata": "Q1798370"}},
{"type": "Feature", "id": "dzs-k6tCWx4g03dA-yY9mzSJX58=", "properties": {"ref": "-680239843772586523", "contact:fax": "+1 6197258401", "@spider": "cgi_group", "addr:city": "San Diego", "addr:postcode": "92108", "name": "San Diego", "phone": "+1 6197258400", "brand": "CGI Group", "brand:wikidata": "Q1798370"}},
{"type": "Feature", "id": "p531-TABYqfeL4tgn8H8ubCdL5o=", "properties": {"ref": "7899507675618692508", "contact:fax": "+1 9253023550", "@spider": "cgi_group", "addr:city": "San Ramon", "addr:postcode": "94583", "name": "San Ramon", "phone": "+1 9252639955", "brand": "CGI Group", "brand:wikidata": "Q1798370"}},
{"type": "Feature", "id": "h6kwLxvsS3coluz_5HgJegTHVpY=", "properties": {"ref": "-907345076152150164", "contact:fax": null, "@spider": "cgi_group", "addr:city": "Melbourne", "addr:postcode": "32940", "name": "Melbourne", "brand": "CGI Group", "brand:wikidata": "Q1798370"}},
{"type": "Feature", "id": "HtXwqZL266bNGuvUubaHkvO8iLE=", "properties": {"ref": "-2659883024955378320", "contact:fax": null, "@spider": "cgi_group", "addr:city": "Orange Park", "addr:postcode": "32073", "name": "Orange Park", "brand": "CGI Group", "brand:wikidata": "Q1798370"}},
{"type": "Feature", "id": "Zgq6iWt7lM_OkZwiruidy689xr8=", "properties": {"ref": "-8104756646742288981", "contact:fax": null, "@spider": "cgi_group", "addr:city": "Tampa", "addr:postcode": "33607", "name": "Tampa", "brand": "CGI Group", "brand:wikidata": "Q1798370"}},
{"type": "Feature", "id": "pVRXTueUEhJ-a7sWO_cwTyu1Hrg=", "properties": {"ref": "270771215287519506", "contact:fax": "+1 2076604401", "@spider": "cgi_group", "addr:city": "Waterville", "addr:postcode": "04901", "name": "Waterville", "phone": "+1 2076604400", "brand": "CGI Group", "brand:wikidata": "Q1798370"}},
{"type": "Feature", "id": "GVZmYRqt8pIdwg-1PNoKJIaVVFg=", "properties": {"ref": "8221109059860326836", "contact:fax": "+1 3016232102", "@spider": "cgi_group", "addr:city": "Annapolis Junction", "addr:postcode": "20701", "name": "Annapolis Junction", "phone": "+1 3016232000", "brand": "CGI Group", "brand:wikidata": "Q1798370"}},
{"type": "Feature", "id": "0lsdnox2eDXPgrQZ9LtbgeHLsg4=", "properties": {"ref": "5117731927050648957", "contact:fax": "+1 4104484787", "@spider": "cgi_group", "addr:city": "Baltimore", "addr:postcode": "21244", "name": "Baltimore", "phone": "+1 4105974200", "brand": "CGI Group", "brand:wikidata": "Q1798370"}},
{"type": "Feature", "id": "c2sqPjWBXQvcnVUhs91jY4tLapU=", "properties": {"ref": "7494269123595911487", "contact:fax": "+1 7815352700", "@spider": "cgi_group", "addr:city": "Burlington", "addr:postcode": "01803", "name": "Burlington", "phone": "+1 7815652600", "brand": "CGI Group", "brand:wikidata": "Q1798370"}},
{"type": "Feature", "id": "OrrvayX4nY-BF3hQlOrymvH-XIo=", "properties": {"ref": "-2177480990065124186", "contact:fax": "+1 5173462914", "@spider": "cgi_group", "addr:city": "Lansing", "addr:postcode": "48933", "name": "Lansing", "phone": "+1 5173462913", "brand": "CGI Group", "brand:wikidata": "Q1798370"}},
{"type": "Feature", "id": "8XHeaZz9mNwx1-wwoGUP08WIx8I=", "properties": {"ref": "-1829109927146403067", "contact:fax": null, "@spider": "cgi_group", "addr:city": "Maplewood", "addr:postcode": "63143", "name": "Maplewood St. Louis", "phone": "+1 3122162100", "brand": "CGI Group", "brand:wikidata": "Q1798370"}},
{"type": "Feature", "id": "yLThLdDB85PkM1exIxkXQlN9ZK8=", "properties": {"ref": "-6518151225837933588", "contact:fax": null, "@spider": "cgi_group", "addr:city": "New Brunswick", "addr:postcode": "08901", "name": "New Brunswick", "brand": "CGI Group", "brand:wikidata": "Q1798370"}},
{"type": "Feature", "id": "wVFXF-IrR8bkP8QZZ-J64PA17mY=", "properties": {"ref": "2772979416465310353", "contact:fax": "+1 5182187800", "@spider": "cgi_group", "addr:city": "Albany", "addr:postcode": "12203", "name": "Albany", "phone": "+1 5182187700", "brand": "CGI Group", "brand:wikidata": "Q1798370"}},
{"type": "Feature", "id": "VbcaKsV9wTcFNHn7bA_VDyxD-wg=", "properties": {"ref": "-9220276668235423065", "contact:fax": "+1 2126123636", "@spider": "cgi_group", "addr:city": "New York", "addr:postcode": "10004", "name": "New York", "phone": "+1 2126123600", "brand": "CGI Group", "brand:wikidata": "Q1798370"}},
{"type": "Feature", "id": "Ptz-T-A39B6F9tTK6zauS1tLw9s=", "properties": {"ref": "-8969712990679125053", "contact:fax": null, "@spider": "cgi_group", "addr:city": "New York", "addr:postcode": "10006", "name": "New York", "brand": "CGI Group", "brand:wikidata": "Q1798370"}},
{"type": "Feature", "id": "2bFLCIBUWG7u3_LdEPm3Lu6YDlg=", "properties": {"ref": "6923827743542839281", "contact:fax": null, "@spider": "cgi_group", "addr:city": "Charlotte", "addr:postcode": "28277-3496", "name": "Charlotte", "phone": "1 7044093760", "brand": "CGI Group", "brand:wikidata": "Q1798370"}},
{"type": "Feature", "id": "K8WNVLE7g0cX4ukTjr0tqztHxdU=", "properties": {"ref": "3860247137180721418", "contact:fax": null, "@spider": "cgi_group", "addr:city": "Durham", "addr:postcode": "27560", "name": "Durham", "brand": "CGI Group", "brand:wikidata": "Q1798370"}},
{"type": "Feature", "id": "czNicJEDFZ62Nt296yBobF_7eaA=", "properties": {"ref": "-3447132749274551184", "contact:fax": null, "@spider": "cgi_group", "addr:city": "Beavercreek", "addr:postcode": "45431", "name": "Beavercreek Dayton", "brand": "CGI Group", "brand:wikidata": "Q1798370"}},
{"type": "Feature", "id": "pVG2Ukl7_8nuc12j0vHZoBIsUVk=", "properties": {"ref": "-8238033947334686155", "contact:fax": "+1 2166871488", "@spider": "cgi_group", "addr:city": "Cleveland", "addr:postcode": "44114", "name": "Cleveland", "phone": "+1 2166871480", "brand": "CGI Group", "brand:wikidata": "Q1798370"}},
{"type": "Feature", "id": "9ldR1wrRzL4y-pz_fv8FAhjJ26A=", "properties": {"ref": "5808044850738488661", "contact:fax": null, "@spider": "cgi_group", "addr:city": "Columbus", "addr:postcode": "43240", "name": "Columbus", "brand": "CGI Group", "brand:wikidata": "Q1798370"}},
{"type": "Feature", "id": "C2FIVocGtr1Q5VTWzUBTR1NGxvo=", "properties": {"ref": "-2419507892755834315", "contact:fax": null, "@spider": "cgi_group", "addr:city": "Westerville", "addr:postcode": "43082", "name": "Westerville Columbus", "phone": "+1 6148655000", "brand": "CGI Group", "brand:wikidata": "Q1798370"}},
{"type": "Feature", "id": "kY83eFbBJ9G0R9TQjUrw3cR3wzU=", "properties": {"ref": "7946130157406984743", "contact:fax": null, "@spider": "cgi_group", "addr:city": "Lawton", "addr:postcode": "73505", "name": "Lawton", "brand": "CGI Group", "brand:wikidata": "Q1798370"}},
{"type": "Feature", "id": "oBnYtiaIWC6zavEFCMUtOIl6jpw=", "properties": {"ref": "7445735067611559897", "contact:fax": "+1 7876259060", "@spider": "cgi_group", "addr:city": "Guaynabo", "addr:postcode": "00968", "name": "Guaynabo San Juan", "phone": "+1 7876259050", "brand": "CGI Group", "brand:wikidata": "Q1798370"}},
{"type": "Feature", "id": "cP-9osZ-3fKE7EVo5ia7QXEro7w=", "properties": {"ref": "3859163103458503311", "contact:fax": null, "@spider": "cgi_group", "addr:city": "Pittsburgh", "addr:postcode": "15219", "name": "Pittsburgh", "phone": "+1 4122583300", "brand": "CGI Group", "brand:wikidata": "Q1798370"}},
{"type": "Feature", "id": "ON79nGXems4MZFEIx6HCxhm14Gk=", "properties": {"ref": "930455483926729821", "contact:fax": "+1 6108328115", "@spider": "cgi_group", "addr:city": "Plymouth Meeting", "addr:postcode": "19462", "name": "Plymouth Meeting", "phone": "+1 6108328110", "brand": "CGI Group", "brand:wikidata": "Q1798370"}},
{"type": "Feature", "id": "YbLvhz5icbE_bk9NyO0LDbt7hPk=", "properties": {"ref": "-7065290677485922896", "contact:fax": "+1 8032162441", "@spider": "cgi_group", "addr:city": "Columbia", "addr:postcode": "29210", "name": "Columbia", "phone": "+1 8032162440", "brand": "CGI Group", "brand:wikidata": "Q1798370"}},
{"type": "Feature", "id": "3iHYOfCGOQypvFjo6kXGM1MDyhU=", "properties": {"ref": "1932265334538029383", "contact:fax": "+1 8433087191", "@spider": "cgi_group", "addr:city": "North Charleston", "addr:postcode": "29405", "name": "North Charleston", "phone": "+1 8437459496", "brand": "CGI Group", "brand:wikidata": "Q1798370"}},
{"type": "Feature", "id": "wR_24a2d7zuxtVjj5z9I3DD0s4o=", "properties": {"ref": "-7531903033663531885", "contact:fax": "+1 8433087191", "@spider": "cgi_group", "addr:city": "North Charleston", "addr:postcode": "29406", "name": "North Charleston", "phone": "+1 8437459496", "brand": "CGI Group", "brand:wikidata": "Q1798370"}},
{"type": "Feature", "id": "_bpH8XYVLyl9Y5qGP2ELWDIZJjM=", "properties": {"ref": "3132144276616270547", "contact:fax": null, "@spider": "cgi_group", "addr:city": "Chattanooga", "addr:postcode": "37450", "name": "Chattanooga", "phone": "+1 4235997000", "brand": "CGI Group", "brand:wikidata": "Q1798370"}},
{"type": "Feature", "id": "nUPjFxB-5eJyTVOzEmD92sxBUlQ=", "properties": {"ref": "473509507841491643", "contact:fax": null, "@spider": "cgi_group", "addr:city": "Franklin", "addr:postcode": "37067", "name": "Franklin", "phone": "+1 6152240441", "brand": "CGI Group", "brand:wikidata": "Q1798370"}},
{"type": "Feature", "id": "0QnQ2y0K2M2JyjqjShj-jQgFrkI=", "properties": {"ref": "4209959406553070727", "contact:fax": null, "@spider": "cgi_group", "addr:city": "Knoxville", "addr:postcode": "37902", "name": "Knoxville", "brand": "CGI Group", "brand:wikidata": "Q1798370"}},
{"type": "Feature", "id": "uO-xhMiAe1onecg6NYz9Mcg6xdo=", "properties": {"ref": "7635485984382505190", "contact:fax": null, "@spider": "cgi_group", "addr:city": "Nashville", "addr:postcode": "37214", "name": "Nashville", "brand": "CGI Group", "brand:wikidata": "Q1798370"}},
{"type": "Feature", "id": "2RMlbn6wusu5T8eSLluM9DtUuUU=", "properties": {"ref": "-4628768950163918608", "contact:fax": null, "@spider": "cgi_group", "addr:city": "Austin", "addr:postcode": "78746", "name": "Austin", "phone": "+1 5123067500", "brand": "CGI Group", "brand:wikidata": "Q1798370"}},
{"type": "Feature", "id": "BrOpFt7dtuK9TlvxM4piyax8T6w=", "properties": {"ref": "-4388874375288250097", "contact:fax": null, "@spider": "cgi_group", "addr:city": "Austin", "addr:postcode": "78735", "name": "Austin", "brand": "CGI Group", "brand:wikidata": "Q1798370"}},
{"type": "Feature", "id": "h1x9FiDpJAILby7lbt4H0RWWZ2o=", "properties": {"ref": "1242249445232362153", "contact:fax": "+1 2547744430", "@spider": "cgi_group", "addr:city": "Belton", "addr:postcode": "76513", "name": "Belton", "phone": "+1 2547424050", "brand": "CGI Group", "brand:wikidata": "Q1798370"}},
{"type": "Feature", "id": "I6tguUZtsRy5QSdPFfu_Eso2DVw=", "properties": {"ref": "-1471095292894870112", "contact:fax": "+1 9727880502", "@spider": "cgi_group", "addr:city": "Dallas", "addr:postcode": "75254", "name": "Dallas", "phone": "+1 9727880400", "brand": "CGI Group", "brand:wikidata": "Q1798370"}},
{"type": "Feature", "id": "UN23pBfdv9g3CmPYqsg3Bs1cUSI=", "properties": {"ref": "-1493608872666432583", "contact:fax": "+1 8173483613", "@spider": "cgi_group", "addr:city": "Fort Worth", "addr:postcode": "76102", "name": "Fort Worth", "phone": "+1 8173327761", "brand": "CGI Group", "brand:wikidata": "Q1798370"}},
{"type": "Feature", "id": "0n140OhSUu1diACzisUiNiCrVQ0=", "properties": {"ref": "2055488991566116302", "contact:fax": "+1 7139547311", "@spider": "cgi_group", "addr:city": "Houston", "addr:postcode": "77042", "name": "Houston", "phone": "+1 7139547000", "brand": "CGI Group", "brand:wikidata": "Q1798370"}},
{"type": "Feature", "id": "Xx1RhURXqYc5U8kTDBSxDS7vgk0=", "properties": {"ref": "-6957272520781475722", "contact:fax": null, "@spider": "cgi_group", "addr:city": "San Antonio", "addr:postcode": "78249", "name": "San Antonio", "brand": "CGI Group", "brand:wikidata": "Q1798370"}},
{"type": "Feature", "id": "rn4C5G87cTWWvTKhkEyGYGVvMRg=", "properties": {"ref": "977675305842829543", "contact:fax": null, "@spider": "cgi_group", "addr:city": "Lehi", "addr:postcode": "84043", "name": "Lehi", "phone": "+1 3857075662", "brand": "CGI Group", "brand:wikidata": "Q1798370"}},
{"type": "Feature", "id": "ncBSKyKxnU-RqWV0QY-mYCrV1jQ=", "properties": {"ref": "-5438497270726917315", "contact:fax": null, "@spider": "cgi_group", "addr:city": "Arlington", "addr:postcode": "22201", "name": "Arlington", "brand": "CGI Group", "brand:wikidata": "Q1798370"}},
{"type": "Feature", "id": "pImxF8mxw1l38WgnQ7zZO4OCqeQ=", "properties": {"ref": "2021017883836738231", "contact:fax": "+1 7032675111", "@spider": "cgi_group", "addr:city": "Fairfax", "addr:postcode": "22030", "name": "Fairfax", "phone": "+1 7032678000", "brand": "CGI Group", "brand:wikidata": "Q1798370"}},
{"type": "Feature", "id": "-FQr7K11LCOUnWcOIjeNOMWItYw=", "properties": {"ref": "5064211829239376342", "contact:fax": "+1 7032276704", "@spider": "cgi_group", "addr:city": "Fairfax", "addr:postcode": "22033", "name": "Fairfax", "phone": "+1 7032276000", "brand": "CGI Group", "brand:wikidata": "Q1798370"}},
{"type": "Feature", "id": "nmH7sYaLBRSx60FNDKGPG5JmHe4=", "properties": {"ref": "-3910908585829165625", "contact:fax": null, "@spider": "cgi_group", "addr:city": "Fairfax", "addr:postcode": "22033", "name": "Fairfax", "brand": "CGI Group", "brand:wikidata": "Q1798370"}},
{"type": "Feature", "id": "nYk4vwuxBrmiGdOhHYtrhiRzvEo=", "properties": {"ref": "-8037794228157254595", "contact:fax": "+1 2768898507", "@spider": "cgi_group", "addr:city": "Lebanon", "addr:postcode": "24266", "name": "Lebanon", "phone": "+1 2768897500", "brand": "CGI Group", "brand:wikidata": "Q1798370"}},
{"type": "Feature", "id": "k0yGSvkoYM3zodbmHclzLXwhX9U=", "properties": {"ref": "-1523616838537247339", "contact:fax": null, "@spider": "cgi_group", "addr:city": "Manassas", "addr:postcode": "20110", "name": "Manassas", "phone": "+1 5713594374", "brand": "CGI Group", "brand:wikidata": "Q1798370"}},
{"type": "Feature", "id": "vN2DUve4p8902U0pglY3y16wcmg=", "properties": {"ref": "7095751177995736191", "contact:fax": "+1 7573021399", "@spider": "cgi_group", "addr:city": "Norfolk", "addr:postcode": "23505", "name": "Norfolk", "phone": "+1 7573021400", "brand": "CGI Group", "brand:wikidata": "Q1798370"}},
{"type": "Feature", "id": "MWPx8DdTT7947DkW3KpnKhDuOrw=", "properties": {"ref": "-4816882057599930491", "contact:fax": "+1 8046484317", "@spider": "cgi_group", "addr:city": "Richmond", "addr:postcode": "23219", "name": "Richmond", "phone": "+1 8046483774", "brand": "CGI Group", "brand:wikidata": "Q1798370"}},
{"type": "Feature", "id": "j-Us8NjRsv3nc_WFdjF1G75YNIA=", "properties": {"ref": "2275006301746795838", "contact:fax": "+1 7038855601", "@spider": "cgi_group", "addr:city": "Sterling", "addr:postcode": "20166", "name": "Sterling", "phone": "+1 7038855600", "brand": "CGI Group", "brand:wikidata": "Q1798370"}},
{"type": "Feature", "id": "euhEfR01fwSyRUNgl_dtLbo4w14=", "properties": {"ref": "-2855231800179890499", "contact:fax": "+1 4259436801", "@spider": "cgi_group", "addr:city": "Bellevue", "addr:postcode": "98004", "name": "Bellevue", "phone": "+1 4259433817", "brand": "CGI Group", "brand:wikidata": "Q1798370"}},
{"type": "Feature", "id": "8VWPjxHt3SZVbwGKXUXs-pA3pzQ=", "properties": {"ref": "-376270949762132267", "contact:fax": null, "@spider": "cgi_group", "addr:city": "Madison", "addr:postcode": "53703", "name": "Madison", "brand": "CGI Group", "brand:wikidata": "Q1798370"}},
{"type": "Feature", "id": "T_iSnu1ShYs0ywgyZsHYaqLm7hY=", "properties": {"ref": "6840234327725864452", "contact:fax": "+1 7153934701", "@spider": "cgi_group", "addr:city": "Wausau", "addr:postcode": "54403", "name": "Wausau", "phone": "+1 7153934900", "brand": "CGI Group", "brand:wikidata": "Q1798370"}}]}