{"type":"FeatureCollection","features":[{"type": "Feature", "id": "JsJaDj3081CCCNki6_l2Tmy5p2I=", "properties": {"ref": "2206", "@spider": "cheddars_scratch_kitchen", "amenity": "restaurant", "cuisine": "american", "official_name": "Cheddar's Scratch Kitchen", "addr:full": "8172 West Bell Rd", "addr:city": "Glendale", "addr:state": "AZ", "addr:postcode": "853088704", "addr:country": "US", "name": "Glendale - Arrowhead Marketplace", "phone": "(623) 295-3730", "website": "https://www.cheddars.com/web-api/restaurants", "brand": "Cheddar's Scratch Kitchen", "brand:wikidata": "Q5089187", "nsi_id": "cheddars-96af40"}, "geometry": {"type": "Point", "coordinates": [-112.231813, 33.638691]}},
{"type": "Feature", "id": "DkhfyXtpWIAMIrTD3vvnkonR6FI=", "properties": {"ref": "2192", "@spider": "cheddars_scratch_kitchen", "amenity": "restaurant", "cuisine": "american", "official_name": "Cheddar's Scratch Kitchen", "addr:full": "15030 West McDowell Rd", "addr:city": "Goodyear", "addr:state": "AZ", "addr:postcode": "853952530", "addr:country": "US", "name": "Goodyear", "phone": "(623) 535-3827", "website": "https://www.cheddars.com/web-api/restaurants", "brand": "Cheddar's Scratch Kitchen", "brand:wikidata": "Q5089187", "nsi_id": "cheddars-96af40"}, "geometry": {"type": "Point", "coordinates": [-112.38212, 33.46501]}},
{"type": "Feature", "id": "2H__2epPYf8nNDNkkTBA_0kWLts=", "properties": {"ref": "2089", "@spider": "cheddars_scratch_kitchen", "amenity": "restaurant", "cuisine": "american", "official_name": "Cheddar's Scratch Kitchen", "addr:full": "2530 W Chandler Blvd", "addr:city": "Chandler", "addr:state": "AZ", "addr:postcode": "852244905", "addr:country": "US", "name": "Chandler", "phone": "(480) 963-9422", "website": "https://www.cheddars.com/web-api/restaurants", "brand": "Cheddar's Scratch Kitchen", "brand:wikidata": "Q5089187", "nsi_id": "cheddars-96af40"}, "geometry": {"type": "Point", "coordinates": [-111.886843, 33.306427]}},
{"type": "Feature", "id": "4q77xgatAogGrsmuZrQiyUBG4Oo=", "properties": {"ref": "2111", "@spider": "cheddars_scratch_kitchen", "amenity": "restaurant", "cuisine": "american", "official_name": "Cheddar's Scratch Kitchen", "addr:full": "3455 E Broadway Blvd", "addr:city": "Tucson", "addr:state": "AZ", "addr:postcode": "857165410", "addr:country": "US", "name": "Tucson", "phone": "(520) 327-0187", "website": "https://www.cheddars.com/web-api/restaurants", "brand": "Cheddar's Scratch Kitchen", "brand:wikidata": "Q5089187", "nsi_id": "cheddars-96af40"}, "geometry": {"type": "Point", "coordinates": [-110.91777, 32.222015]}},
{"type": "Feature", "id": "Uj5BRouAVGRq4MsEXG01fyDweK0=", "properties": {"ref": "2086", "@spider": "cheddars_scratch_kitchen", "amenity": "restaurant", "cuisine": "american", "official_name": "Cheddar's Scratch Kitchen", "addr:full": "4865 Pan American West Freeway", "addr:city": "Albuquerque", "addr:state": "NM", "addr:postcode": "871092238", "addr:country": "US", "name": "Albuquerque", "phone": "(505) 345-0829", "website": "https://www.cheddars.com/web-api/restaurants", "brand": "Cheddar's Scratch Kitchen", "brand:wikidata": "Q5089187", "nsi_id": "cheddars-96af40"}, "geometry": {"type": "Point", "coordinates": [-106.600926, 35.139429]}},
{"type": "Feature", "id": "HtE-NPXi-ekSlIdaJLAZDBMrBlc=", "properties": {"ref": "9008", "@spider": "cheddars_scratch_kitchen", "amenity": "restaurant", "cuisine": "american", "official_name": "Cheddar's Scratch Kitchen", "addr:full": "10250 Grant St", "addr:city": "Thornton", "addr:state": "CO", "addr:postcode": "80229", "addr:country": "US", "name": "Thornton, CO", "phone": "(303) 280-2307", "website": "https://www.cheddars.com/web-api/restaurants", "brand": "Cheddar's Scratch Kitchen", "brand:wikidata": "Q5089187", "nsi_id": "cheddars-96af40"}, "geometry": {"type": "Point", "coordinates": [-104.981516, 39.882668]}},
{"type": "Feature", "id": "2WmEEmKc4kf2EUTZs_fvXuFqs10=", "properties": {"ref": "9006", "@spider": "cheddars_scratch_kitchen", "amenity": "restaurant", "cuisine": "american", "official_name": "Cheddar's Scratch Kitchen", "addr:full": "15775 E Briarwood Cir", "addr:city": "Aurora", "addr:state": "CO", "addr:postcode": "80016", "addr:country": "US", "name": "Aurora, CO", "phone": "(303) 699-9800", "website": "https://www.cheddars.com/web-api/restaurants", "brand": "Cheddar's Scratch Kitchen", "brand:wikidata": "Q5089187", "nsi_id": "cheddars-96af40"}, "geometry": {"type": "Point", "coordinates": [-104.804137, 39.594233]}},
{"type": "Feature", "id": "yfwLzWIzMOShITgnDGnDBhiH7bs=", "properties": {"ref": "9007", "@spider": "cheddars_scratch_kitchen", "amenity": "restaurant", "cuisine": "american", "official_name": "Cheddar's Scratch Kitchen", "addr:full": "1140 Interquest Parkway", "addr:city": "Colorado Springs", "addr:state": "CO", "addr:postcode": "80921", "addr:country": "US", "name": "Colorado Springs, CO", "phone": "(719) 262-7100", "website": "https://www.cheddars.com/web-api/restaurants", "brand": "Cheddar's Scratch Kitchen", "brand:wikidata": "Q5089187", "nsi_id": "cheddars-96af40"}, "geometry": {"type": "Point", "coordinates": [-104.809585, 38.991405]}},
{"type": "Feature", "id": "qQWionXjpuz8swd9tHS2wp-6ORA=", "properties": {"ref": "2016", "@spider": "cheddars_scratch_kitchen", "amenity": "restaurant", "cuisine": "american", "official_name": "Cheddar's Scratch Kitchen", "addr:full": "11895 Gateway Blvd West", "addr:city": "El Paso", "addr:state": "TX", "addr:postcode": "799367409", "addr:country": "US", "name": "El Paso", "phone": "(915) 593-6979", "website": "https://www.cheddars.com/web-api/restaurants", "brand": "Cheddar's Scratch Kitchen", "brand:wikidata": "Q5089187", "nsi_id": "cheddars-96af40"}, "geometry": {"type": "Point", "coordinates": [-106.30797, 31.72483]}},
{"type": "Feature", "id": "0t1ryFvsPepxZ2Wgt_cJIaLDZUk=", "properties": {"ref": "2033", "@spider": "cheddars_scratch_kitchen", "amenity": "restaurant", "cuisine": "american", "official_name": "Cheddar's Scratch Kitchen", "addr:full": "3901 West Interstate 40", "addr:city": "Amarillo", "addr:state": "TX", "addr:postcode": "791091526", "addr:country": "US", "name": "Amarillo", "phone": "(806) 358-2111", "website": "https://www.cheddars.com/web-api/restaurants", "brand": "Cheddar's Scratch Kitchen", "brand:wikidata": "Q5089187", "nsi_id": "cheddars-96af40"}, "geometry": {"type": "Point", "coordinates": [-101.88239, 35.19073]}},
{"type": "Feature", "id": "EjnS1STtrtSapwF4KF5w1VONUpQ=", "properties": {"ref": "2071", "@spider": "cheddars_scratch_kitchen", "amenity": "restaurant", "cuisine": "american", "official_name": "Cheddar's Scratch Kitchen", "addr:full": "4875 East 42nd St", "addr:city": "Odessa", "addr:state": "TX", "addr:postcode": "797627219", "addr:country": "US", "name": "Odessa", "phone": "(432) 362-6400", "website": "https://www.cheddars.com/web-api/restaurants", "brand": "Cheddar's Scratch Kitchen", "brand:wikidata": "Q5089187", "nsi_id": "cheddars-96af40"}, "geometry": {"type": "Point", "coordinates": [-102.33657, 31.8934]}},
{"type": "Feature", "id": "xkNET-yxCUfxroEYYv078E8pyHc=", "properties": {"ref": "2030", "@spider": "cheddars_scratch_kitchen", "amenity": "restaurant", "cuisine": "american", "official_name": "Cheddar's Scratch Kitchen", "addr:full": "4009 South Loop 289", "addr:city": "Lubbock", "addr:state": "TX", "addr:postcode": "794231131", "addr:country": "US", "name": "Lubbock", "phone": "(806) 791-1213", "website": "https://www.cheddars.com/web-api/restaurants", "brand": "Cheddar's Scratch Kitchen", "brand:wikidata": "Q5089187", "nsi_id": "cheddars-96af40"}, "geometry": {"type": "Point", "coordinates": [-101.89958, 33.52861]}},
{"type": "Feature", "id": "ot2kAfxM20HBXcNb7RUdbWSSGyg=", "properties": {"ref": "2012", "@spider": "cheddars_scratch_kitchen", "amenity": "restaurant", "cuisine": "american", "official_name": "Cheddar's Scratch Kitchen", "addr:full": "1309 Knickerbocker Rd", "addr:city": "San Angelo", "addr:state": "TX", "addr:postcode": "769045578", "addr:country": "US", "name": "San Angelo", "phone": "(325) 655-6200", "website": "https://www.cheddars.com/web-api/restaurants", "brand": "Cheddar's Scratch Kitchen", "brand:wikidata": "Q5089187", "nsi_id": "cheddars-96af40"}, "geometry": {"type": "Point", "coordinates": [-100.45097, 31.43409]}},
{"type": "Feature", "id": "ivh_duvL_hYTjIQ5STOfFX0Lpgk=", "properties": {"ref": "2191", "@spider": "cheddars_scratch_kitchen", "amenity": "restaurant", "cuisine": "american", "official_name": "Cheddar's Scratch Kitchen", "addr:full": "3502 S Clack St", "addr:city": "Abilene", "addr:state": "TX", "addr:postcode": "796062205", "addr:country": "US", "name": "Abilene", "phone": "(325) 793-7106", "website": "https://www.cheddars.com/web-api/restaurants", "brand": "Cheddar's Scratch Kitchen", "brand:wikidata": "Q5089187", "nsi_id": "cheddars-96af40"}, "geometry": {"type": "Point", "coordinates": [-99.771424, 32.408902]}},
{"type": "Feature", "id": "wKdRhOJrEOklARaoM34dAD8k2KE=", "properties": {"ref": "2065", "@spider": "cheddars_scratch_kitchen", "amenity": "restaurant", "cuisine": "american", "official_name": "Cheddar's Scratch Kitchen", "addr:full": "5424 East O", "addr:city": "Lincoln", "addr:state": "NE", "addr:postcode": "685102121", "addr:country": "US", "name": "Lincoln", "phone": "(402) 488-0357", "website": "https://www.cheddars.com/web-api/restaurants", "brand": "Cheddar's Scratch Kitchen", "brand:wikidata": "Q5089187", "nsi_id": "cheddars-96af40"}, "geometry": {"type": "Point", "coordinates": [-96.645895, 40.813933]}},
{"type": "Feature", "id": "GzRUAndYIfsj2Lvtz38HDnZKNq0=", "properties": {"ref": "2060", "@spider": "cheddars_scratch_kitchen", "amenity": "restaurant", "cuisine": "american", "official_name": "Cheddar's Scratch Kitchen", "addr:full": "12152 L St", "addr:city": "Omaha", "addr:state": "NE", "addr:postcode": "681372264", "addr:country": "US", "name": "Omaha", "phone": "(402) 330-4140", "website": "https://www.cheddars.com/web-api/restaurants", "brand": "Cheddar's Scratch Kitchen", "brand:wikidata": "Q5089187", "nsi_id": "cheddars-96af40"}, "geometry": {"type": "Point", "coordinates": [-96.10363, 41.21311]}},
{"type": "Feature", "id": "6LtO_ughGUAb0vFjYh3iQpwF85o=", "properties": {"ref": "2196", "@spider": "cheddars_scratch_kitchen", "amenity": "restaurant", "cuisine": "american", "official_name": "Cheddar's Scratch Kitchen", "addr:full": "535 S Ridge Road Circle", "addr:city": "Wichita", "addr:state": "KS", "addr:postcode": "672092233", "addr:country": "US", "name": "Wichita - S. Ridge Rd. Circle", "phone": "(316) 722-1413", "website": "https://www.cheddars.com/web-api/restaurants", "brand": "Cheddar's Scratch Kitchen", "brand:wikidata": "Q5089187", "nsi_id": "cheddars-96af40"}, "geometry": {"type": "Point", "coordinates": [-97.426869, 37.67496]}},
{"type": "Feature", "id": "axjp769jgcv2-d47mArGEh7BUao=", "properties": {"ref": "2028", "@spider": "cheddars_scratch_kitchen", "amenity": "restaurant", "cuisine": "american", "official_name": "Cheddar's Scratch Kitchen", "addr:full": "11711 E 13th Street North", "addr:city": "Wichita", "addr:state": "KS", "addr:postcode": "672063703", "addr:country": "US", "name": "Wichita", "phone": "(316) 688-0401", "website": "https://www.cheddars.com/web-api/restaurants", "brand": "Cheddar's Scratch Kitchen", "brand:wikidata": "Q5089187", "nsi_id": "cheddars-96af40"}, "geometry": {"type": "Point", "coordinates": [-97.202077, 37.707993]}},
{"type": "Feature", "id": "4_uUVFmUyJtEiRMncMVeJMRILGY=", "properties": {"ref": "2175", "@spider": "cheddars_scratch_kitchen", "amenity": "restaurant", "cuisine": "american", "official_name": "Cheddar's Scratch Kitchen", "addr:full": "12332 NW 10th St.", "addr:city": "Yukon", "addr:state": "OK", "addr:postcode": "730995811", "addr:country": "US", "name": "Yukon", "phone": "(405) 324-2374", "website": "https://www.cheddars.com/web-api/restaurants", "brand": "Cheddar's Scratch Kitchen", "brand:wikidata": "Q5089187", "nsi_id": "cheddars-96af40"}, "geometry": {"type": "Point", "coordinates": [-97.74642, 35.477672]}},
{"type": "Feature", "id": "Bh130mCSJ9fm3na1TyDt-fFNOno=", "properties": {"ref": "2024", "@spider": "cheddars_scratch_kitchen", "amenity": "restaurant", "cuisine": "american", "official_name": "Cheddar's Scratch Kitchen", "addr:full": "4240 Kell Blvd", "addr:city": "Wichita Falls", "addr:state": "TX", "addr:postcode": "763094800", "addr:country": "US", "name": "Wichita Falls", "phone": "(940) 692-9292", "website": "https://www.cheddars.com/web-api/restaurants", "brand": "Cheddar's Scratch Kitchen", "brand:wikidata": "Q5089187", "nsi_id": "cheddars-96af40"}, "geometry": {"type": "Point", "coordinates": [-98.55157, 33.87893]}},
{"type": "Feature", "id": "BXtf39wx39c1pMUh16QlUKxi064=", "properties": {"ref": "2205", "@spider": "cheddars_scratch_kitchen", "amenity": "restaurant", "cuisine": "american", "official_name": "Cheddar's Scratch Kitchen", "addr:full": "2515 W Memorial Rd.", "addr:city": "Oklahoma City", "addr:state": "OK", "addr:postcode": "731348030", "addr:country": "US", "name": "Oklahoma City - Quail Springs Mall", "phone": "(405) 849-3279", "website": "https://www.cheddars.com/web-api/restaurants", "brand": "Cheddar's Scratch Kitchen", "brand:wikidata": "Q5089187", "nsi_id": "cheddars-96af40"}, "geometry": {"type": "Point", "coordinates": [-97.558881, 35.610323]}},
{"type": "Feature", "id": "dWB06E6N6NcDrYsH4AooP3rfHmM=", "properties": {"ref": "2040", "@spider": "cheddars_scratch_kitchen", "amenity": "restaurant", "cuisine": "american", "official_name": "Cheddar's Scratch Kitchen", "addr:full": "1300 24th Avenue Northwest", "addr:city": "Norman", "addr:state": "OK", "addr:postcode": "730696481", "addr:country": "US", "name": "Norman", "phone": "(405) 321-3479", "website": "https://www.cheddars.com/web-api/restaurants", "brand": "Cheddar's Scratch Kitchen", "brand:wikidata": "Q5089187", "nsi_id": "cheddars-96af40"}, "geometry": {"type": "Point", "coordinates": [-97.482438, 35.234152]}},
{"type": "Feature", "id": "ySbtuZ1p_z-8k-NyteyMVNQmuI0=", "properties": {"ref": "2123", "@spider": "cheddars_scratch_kitchen", "amenity": "restaurant", "cuisine": "american", "official_name": "Cheddar's Scratch Kitchen", "addr:full": "2320 NE Bob Bullock Loop", "addr:city": "Laredo", "addr:state": "TX", "addr:postcode": "780456895", "addr:country": "US", "name": "Laredo", "phone": "(956) 723-4410", "website": "https://www.cheddars.com/web-api/restaurants", "brand": "Cheddar's Scratch Kitchen", "brand:wikidata": "Q5089187", "nsi_id": "cheddars-96af40"}, "geometry": {"type": "Point", "coordinates": [-99.471792, 27.612593]}},
{"type": "Feature", "id": "jweVFQGJDHn5QdUunyxSyUo59AA=", "properties": {"ref": "2042", "@spider": "cheddars_scratch_kitchen", "amenity": "restaurant", "cuisine": "american", "official_name": "Cheddar's Scratch Kitchen", "addr:full": "7405 Southeast 29th St", "addr:city": "Midwest City", "addr:state": "OK", "addr:postcode": "731106101", "addr:country": "US", "name": "Midwest City", "phone": "(405) 741-2188", "website": "https://www.cheddars.com/web-api/restaurants", "brand": "Cheddar's Scratch Kitchen", "brand:wikidata": "Q5089187", "nsi_id": "cheddars-96af40"}, "geometry": {"type": "Point", "coordinates": [-97.393344, 35.435815]}},
{"type": "Feature", "id": "6722xhkn2wnZtwLNvP_fA1q28VE=", "properties": {"ref": "2170", "@spider": "cheddars_scratch_kitchen", "amenity": "restaurant", "cuisine": "american", "official_name": "Cheddar's Scratch Kitchen", "addr:full": "6700 NW Loop 820 Freeway", "addr:city": "Fort Worth", "addr:state": "TX", "addr:postcode": "761353624", "addr:country": "US", "name": "Fort Worth - Lake Worth", "phone": "(817) 238-7406", "website": "https://www.cheddars.com/web-api/restaurants", "brand": "Cheddar's Scratch Kitchen", "brand:wikidata": "Q5089187", "nsi_id": "cheddars-96af40"}, "geometry": {"type": "Point", "coordinates": [-97.43309, 32.801739]}},
{"type": "Feature", "id": "3BuiUuF-y-Co_IA_RaNENG6aB4A=", "properties": {"ref": "2177", "@spider": "cheddars_scratch_kitchen", "amenity": "restaurant", "cuisine": "american", "official_name": "Cheddar's Scratch Kitchen", "addr:full": "3240 N Interstate 35", "addr:city": "Denton", "addr:state": "TX", "addr:postcode": "762012041", "addr:country": "US", "name": "Denton", "phone": "(940) 320-2503", "website": "https://www.cheddars.com/web-api/restaurants", "brand": "Cheddar's Scratch Kitchen", "brand:wikidata": "Q5089187", "nsi_id": "cheddars-96af40"}, "geometry": {"type": "Point", "coordinates": [-97.171003, 33.225138]}},
{"type": "Feature", "id": "YHhcUFNj5aVO9FPNeC2yIeQbWfs=", "properties": {"ref": "2027", "@spider": "cheddars_scratch_kitchen", "amenity": "restaurant", "cuisine": "american", "official_name": "Cheddar's Scratch Kitchen", "addr:full": "2801 Texas Sage Trail", "addr:city": "Fort Worth", "addr:state": "TX", "addr:postcode": "761778586", "addr:country": "US", "name": "Fort Worth - Texas Sage Trail", "phone": "(817) 741-7800", "website": "https://www.cheddars.com/web-api/restaurants", "brand": "Cheddar's Scratch Kitchen", "brand:wikidata": "Q5089187", "nsi_id": "cheddars-96af40"}, "geometry": {"type": "Point", "coordinates": [-97.31549, 32.91322]}},
{"type": "Feature", "id": "CpOS6U4OZgaAbm2ztpANqhGNHEg=", "properties": {"ref": "2054", "@spider": "cheddars_scratch_kitchen", "amenity": "restaurant", "cuisine": "american", "official_name": "Cheddar's Scratch Kitchen", "addr:full": "15607 I-10 West", "addr:city": "San Antonio", "addr:state": "TX", "addr:postcode": "782491367", "addr:country": "US", "name": "San Antonio - North", "phone": "(210) 690-8100", "website": "https://www.cheddars.com/web-api/restaurants", "brand": "Cheddar's Scratch Kitchen", "brand:wikidata": "Q5089187", "nsi_id": "cheddars-96af40"}, "geometry": {"type": "Point", "coordinates": [-98.59639, 29.58493]}},
{"type": "Feature", "id": "hWi_GwEyj35NMXst04gcnvk7qDw=", "properties": {"ref": "2045", "@spider": "cheddars_scratch_kitchen", "amenity": "restaurant", "cuisine": "american", "official_name": "Cheddar's Scratch Kitchen", "addr:full": "7403 NW Loop 410", "addr:city": "San Antonio", "addr:state": "TX", "addr:postcode": "782452488", "addr:country": "US", "name": "San Antonio", "phone": "(210) 522-0011", "website": "https://www.cheddars.com/web-api/restaurants", "brand": "Cheddar's Scratch Kitchen", "brand:wikidata": "Q5089187", "nsi_id": "cheddars-96af40"}, "geometry": {"type": "Point", "coordinates": [-98.63645, 29.44665]}},
{"type": "Feature", "id": "HpRUUTf_KLepF7wdiyqnvnKzZfU=", "properties": {"ref": "2211", "@spider": "cheddars_scratch_kitchen", "amenity": "restaurant", "cuisine": "american", "official_name": "Cheddar's Scratch Kitchen", "addr:full": "31 NE Interstate 410 Loop", "addr:city": "San Antonio", "addr:state": "TX", "addr:postcode": "782165896", "addr:country": "US", "name": "San Antonio - North Star", "phone": "(210) 526-3111", "website": "https://www.cheddars.com/web-api/restaurants", "brand": "Cheddar's Scratch Kitchen", "brand:wikidata": "Q5089187", "nsi_id": "cheddars-96af40"}, "geometry": {"type": "Point", "coordinates": [-98.49238, 29.5212]}},
{"type": "Feature", "id": "OnUquL5xMSKnvBJg2Bv_Eif7X9Y=", "properties": {"ref": "2201", "@spider": "cheddars_scratch_kitchen", "amenity": "restaurant", "cuisine": "american", "official_name": "Cheddar's Scratch Kitchen", "addr:full": "12525 South Freeway", "addr:city": "Fort Worth", "addr:state": "TX", "addr:postcode": "760287008", "addr:country": "US", "name": "Burleson", "phone": "(682) 350-4166", "website": "https://www.cheddars.com/web-api/restaurants", "brand": "Cheddar's Scratch Kitchen", "brand:wikidata": "Q5089187", "nsi_id": "cheddars-96af40"}, "geometry": {"type": "Point", "coordinates": [-97.318163, 32.575876]}},
{"type": "Feature", "id": "lFye8ejszCnHWkfBAgltPEriDR0=", "properties": {"ref": "2063", "@spider": "cheddars_scratch_kitchen", "amenity": "restaurant", "cuisine": "american", "official_name": "Cheddar's Scratch Kitchen", "addr:full": "15284 Interstate 35 N", "addr:city": "Selma", "addr:state": "TX", "addr:postcode": "781543941", "addr:country": "US", "name": "Selma", "phone": "(210) 651-3600", "website": "https://www.cheddars.com/web-api/restaurants", "brand": "Cheddar's Scratch Kitchen", "brand:wikidata": "Q5089187", "nsi_id": "cheddars-96af40"}, "geometry": {"type": "Point", "coordinates": [-98.316444, 29.578255]}},
{"type": "Feature", "id": "T1L49zxbNecnn_YPeTFP60RflyY=", "properties": {"ref": "2032", "@spider": "cheddars_scratch_kitchen", "amenity": "restaurant", "cuisine": "american", "official_name": "Cheddar's Scratch Kitchen", "addr:full": "201 E Central Texas Expy", "addr:city": "Harker Heights", "addr:state": "TX", "addr:postcode": "765481887", "addr:country": "US", "name": "Harker Heights", "phone": "(254) 519-1200", "website": "https://www.cheddars.com/web-api/restaurants", "brand": "Cheddar's Scratch Kitchen", "brand:wikidata": "Q5089187", "nsi_id": "cheddars-96af40"}, "geometry": {"type": "Point", "coordinates": [-97.66479, 31.07219]}},
{"type": "Feature", "id": "vKct8GeBLlCyRBPCjdLO9IOCMs4=", "properties": {"ref": "2006", "@spider": "cheddars_scratch_kitchen", "amenity": "restaurant", "cuisine": "american", "official_name": "Cheddar's Scratch Kitchen", "addr:full": "4830 North Little Rd", "addr:city": "Arlington", "addr:state": "TX", "addr:postcode": "760171054", "addr:country": "US", "name": "Arlington - Little Rd.", "phone": "(817) 572-2966", "website": "https://www.cheddars.com/web-api/restaurants", "brand": "Cheddar's Scratch Kitchen", "brand:wikidata": "Q5089187", "nsi_id": "cheddars-96af40"}, "geometry": {"type": "Point", "coordinates": [-97.20295, 32.67061]}},
{"type": "Feature", "id": "-SvwwNCpOEinWf4tGWgLAvUASI8=", "properties": {"ref": "2005", "@spider": "cheddars_scratch_kitchen", "amenity": "restaurant", "cuisine": "american", "official_name": "Cheddar's Scratch Kitchen", "addr:full": "1937 Airport Freeway", "addr:city": "Bedford", "addr:state": "TX", "addr:postcode": "760215732", "addr:country": "US", "name": "Bedford", "phone": "(817) 540-0778", "website": "https://www.cheddars.com/web-api/restaurants", "brand": "Cheddar's Scratch Kitchen", "brand:wikidata": "Q5089187", "nsi_id": "cheddars-96af40"}, "geometry": {"type": "Point", "coordinates": [-97.13459, 32.83774]}},
{"type": "Feature", "id": "BzJlerGaNgrOFRanjEgmrdgCa3Q=", "properties": {"ref": "2021", "@spider": "cheddars_scratch_kitchen", "amenity": "restaurant", "cuisine": "american", "official_name": "Cheddar's Scratch Kitchen", "addr:full": "13301 North Hwy 183", "addr:city": "Austin", "addr:state": "TX", "addr:postcode": "787507155", "addr:country": "US", "name": "Austin - Hwy. 183", "phone": "(512) 336-8855", "website": "https://www.cheddars.com/web-api/restaurants", "brand": "Cheddar's Scratch Kitchen", "brand:wikidata": "Q5089187", "nsi_id": "cheddars-96af40"}, "geometry": {"type": "Point", "coordinates": [-97.78773, 30.44603]}},
{"type": "Feature", "id": "EWH5okt5oUzNxlriRf_uNp9pU1g=", "properties": {"ref": "2031", "@spider": "cheddars_scratch_kitchen", "amenity": "restaurant", "cuisine": "american", "official_name": "Cheddar's Scratch Kitchen", "addr:full": "4301 William Cannon Dr", "addr:city": "Austin", "addr:state": "TX", "addr:postcode": "787491473", "addr:country": "US", "name": "Austin - Arbor Trails", "phone": "(512) 899-9727", "website": "https://www.cheddars.com/web-api/restaurants", "brand": "Cheddar's Scratch Kitchen", "brand:wikidata": "Q5089187", "nsi_id": "cheddars-96af40"}, "geometry": {"type": "Point", "coordinates": [-97.838574, 30.219847]}},
{"type": "Feature", "id": "22Gq8yqfgR9XtMBwJNLvEr6kTHI=", "properties": {"ref": "2194", "@spider": "cheddars_scratch_kitchen", "amenity": "restaurant", "cuisine": "american", "official_name": "Cheddar's Scratch Kitchen", "addr:full": "2540 S IH 35", "addr:city": "San Marcos", "addr:state": "TX", "addr:postcode": "786665910", "addr:country": "US", "name": "San Marcos", "phone": "(512) 392-5308", "website": "https://www.cheddars.com/web-api/restaurants", "brand": "Cheddar's Scratch Kitchen", "brand:wikidata": "Q5089187", "nsi_id": "cheddars-96af40"}, "geometry": {"type": "Point", "coordinates": [-97.965656, 29.846765]}},
{"type": "Feature", "id": "M2iKSUlASY45tWKxvW0SqeZ5ovk=", "properties": {"ref": "2017", "@spider": "cheddars_scratch_kitchen", "amenity": "restaurant", "cuisine": "american", "official_name": "Cheddar's Scratch Kitchen", "addr:full": "4106 South Carrier Parkway", "addr:city": "Grand Prairie", "addr:state": "TX", "addr:postcode": "750523214", "addr:country": "US", "name": "Grand Prairie", "phone": "(972) 264-0794", "website": "https://www.cheddars.com/web-api/restaurants", "brand": "Cheddar's Scratch Kitchen", "brand:wikidata": "Q5089187", "nsi_id": "cheddars-96af40"}, "geometry": {"type": "Point", "coordinates": [-97.007521, 32.673928]}},
{"type": "Feature", "id": "E7TcmofTtBuXvamOAw71ohcU_1c=", "properties": {"ref": "2014", "@spider": "cheddars_scratch_kitchen", "amenity": "restaurant", "cuisine": "american", "official_name": "Cheddar's Scratch Kitchen", "addr:full": "700 W Lyndon B Johnson Fwy", "addr:city": "Irving", "addr:state": "TX", "addr:postcode": "750633713", "addr:country": "US", "name": "Irving - MacArthur Blvd.", "phone": "(972) 409-0300", "website": "https://www.cheddars.com/web-api/restaurants", "brand": "Cheddar's Scratch Kitchen", "brand:wikidata": "Q5089187", "nsi_id": "cheddars-96af40"}, "geometry": {"type": "Point", "coordinates": [-96.95653, 32.9136]}},
{"type": "Feature", "id": "FfLcTu-0NVWyzwHCY6a2ELyE8Oc=", "properties": {"ref": "2019", "@spider": "cheddars_scratch_kitchen", "amenity": "restaurant", "cuisine": "american", "official_name": "Cheddar's Scratch Kitchen", "addr:full": "15119 N Interstate HY 35", "addr:city": "Pflugerville", "addr:state": "TX", "addr:postcode": "786603367", "addr:country": "US", "name": "Pflugerville", "phone": "(512) 990-9600", "website": "https://www.cheddars.com/web-api/restaurants", "brand": "Cheddar's Scratch Kitchen", "brand:wikidata": "Q5089187", "nsi_id": "cheddars-96af40"}, "geometry": {"type": "Point", "coordinates": [-97.666792, 30.44456]}},
{"type": "Feature", "id": "7y8m45cQjLudHUJ9xjz4E0Ex2bY=", "properties": {"ref": "2115", "@spider": "cheddars_scratch_kitchen", "amenity": "restaurant", "cuisine": "american", "official_name": "Cheddar's Scratch Kitchen", "addr:full": "5450 Nebraska Furniture Mart Way", "addr:city": "The Colony", "addr:state": "TX", "addr:postcode": "750566386", "addr:country": "US", "name": "The Colony", "phone": "(214) 494-6250", "website": "https://www.cheddars.com/web-api/restaurants", "brand": "Cheddar's Scratch Kitchen", "brand:wikidata": "Q5089187", "nsi_id": "cheddars-96af40"}, "geometry": {"type": "Point", "coordinates": [-96.871069, 33.072237]}},
{"type": "Feature", "id": "qtZ_zmY8JGh2us_JIYaYI-nKJQc=", "properties": {"ref": "2022", "@spider": "cheddars_scratch_kitchen", "amenity": "restaurant", "cuisine": "american", "official_name": "Cheddar's Scratch Kitchen", "addr:full": "4208 Franklin Ave", "addr:city": "Waco", "addr:state": "TX", "addr:postcode": "767106944", "addr:country": "US", "name": "Waco", "phone": "(254) 741-1411", "website": "https://www.cheddars.com/web-api/restaurants", "brand": "Cheddar's Scratch Kitchen", "brand:wikidata": "Q5089187", "nsi_id": "cheddars-96af40"}, "geometry": {"type": "Point", "coordinates": [-97.16393, 31.52525]}},
{"type": "Feature", "id": "ho4dtlwyIvqAVFUR3rPBdYW0780=", "properties": {"ref": "2007", "@spider": "cheddars_scratch_kitchen", "amenity": "restaurant", "cuisine": "american", "official_name": "Cheddar's Scratch Kitchen", "addr:full": "39640 LBJ Freeway", "addr:city": "Dallas", "addr:state": "TX", "addr:postcode": "752373901", "addr:country": "US", "name": "Dallas - LBJ Freeway", "phone": "(972) 780-1200", "website": "https://www.cheddars.com/web-api/restaurants", "brand": "Cheddar's Scratch Kitchen", "brand:wikidata": "Q5089187", "nsi_id": "cheddars-96af40"}, "geometry": {"type": "Point", "coordinates": [-96.85843, 32.64489]}},
{"type": "Feature", "id": "mCIgHqjcn87g-914TY96GKcwBA4=", "properties": {"ref": "2020", "@spider": "cheddars_scratch_kitchen", "amenity": "restaurant", "cuisine": "american", "official_name": "Cheddar's Scratch Kitchen", "addr:full": "3300 N US Highway 75", "addr:city": "Sherman", "addr:state": "TX", "addr:postcode": "750902524", "addr:country": "US", "name": "Sherman", "phone": "(903) 870-9797", "website": "https://www.cheddars.com/web-api/restaurants", "brand": "Cheddar's Scratch Kitchen", "brand:wikidata": "Q5089187", "nsi_id": "cheddars-96af40"}, "geometry": {"type": "Point", "coordinates": [-96.61053, 33.67539]}},
{"type": "Feature", "id": "kQa3D6-fOXplASAlq-ysvcv8Bto=", "properties": {"ref": "2105", "@spider": "cheddars_scratch_kitchen", "amenity": "restaurant", "cuisine": "american", "official_name": "Cheddar's Scratch Kitchen", "addr:full": "5302 N Belt Highway", "addr:city": "Saint Joseph", "addr:state": "MO", "addr:postcode": "645061209", "addr:country": "US", "name": "St. Joseph", "phone": "(816) 233-0202", "website": "https://www.cheddars.com/web-api/restaurants", "brand": "Cheddar's Scratch Kitchen", "brand:wikidata": "Q5089187", "nsi_id": "cheddars-96af40"}, "geometry": {"type": "Point", "coordinates": [-94.81595, 39.814387]}},
{"type": "Feature", "id": "-1jjnTXYtMT5lyNHVBW1yhJozAA=", "properties": {"ref": "2094", "@spider": "cheddars_scratch_kitchen", "amenity": "restaurant", "cuisine": "american", "official_name": "Cheddar's Scratch Kitchen", "addr:full": "11865 West 95th St", "addr:city": "Overland Park", "addr:state": "KS", "addr:postcode": "662141832", "addr:country": "US", "name": "Overland Park", "phone": "(913) 599-3111", "website": "https://www.cheddars.com/web-api/restaurants", "brand": "Cheddar's Scratch Kitchen", "brand:wikidata": "Q5089187", "nsi_id": "cheddars-96af40"}, "geometry": {"type": "Point", "coordinates": [-94.72209, 38.95623]}},
{"type": "Feature", "id": "utPA6gq22F8IoIkUJkNyxsY4A3A=", "properties": {"ref": "2096", "@spider": "cheddars_scratch_kitchen", "amenity": "restaurant", "cuisine": "american", "official_name": "Cheddar's Scratch Kitchen", "addr:full": "8380 N. Booth Ave", "addr:city": "Kansas City", "addr:state": "MO", "addr:postcode": "641587200", "addr:country": "US", "name": "Kansas City - N. Booth Ave.", "phone": "(816) 781-8958", "website": "https://www.cheddars.com/web-api/restaurants", "brand": "Cheddar's Scratch Kitchen", "brand:wikidata": "Q5089187", "nsi_id": "cheddars-96af40"}, "geometry": {"type": "Point", "coordinates": [-94.478255, 39.244259]}},
{"type": "Feature", "id": "KIab4sHWjyH1NEz3mKtjSJyujqg=", "properties": {"ref": "2095", "@spider": "cheddars_scratch_kitchen", "amenity": "restaurant", "cuisine": "american", "official_name": "Cheddar's Scratch Kitchen", "addr:full": "4675 South Bass Pro Dr", "addr:city": "Independence", "addr:state": "MO", "addr:postcode": "640555456", "addr:country": "US", "name": "Independence", "phone": "(816) 795-5520", "website": "https://www.cheddars.com/web-api/restaurants", "brand": "Cheddar's Scratch Kitchen", "brand:wikidata": "Q5089187", "nsi_id": "cheddars-96af40"}, "geometry": {"type": "Point", "coordinates": [-94.36408, 39.034473]}},
{"type": "Feature", "id": "JJOXC8E84b8P_8XXSNKbYsYAp6E=", "properties": {"ref": "2015", "@spider": "cheddars_scratch_kitchen", "amenity": "restaurant", "cuisine": "american", "official_name": "Cheddar's Scratch Kitchen", "addr:full": "10708 East 71st St", "addr:city": "Tulsa", "addr:state": "OK", "addr:postcode": "741332501", "addr:country": "US", "name": "Tulsa", "phone": "(918) 307-2013", "website": "https://www.cheddars.com/web-api/restaurants", "brand": "Cheddar's Scratch Kitchen", "brand:wikidata": "Q5089187", "nsi_id": "cheddars-96af40"}, "geometry": {"type": "Point", "coordinates": [-95.85707, 36.06025]}},
{"type": "Feature", "id": "ZTBIP4L3QRx2Eki4YyViOs25xws=", "properties": {"ref": "2041", "@spider": "cheddars_scratch_kitchen", "amenity": "restaurant", "cuisine": "american", "official_name": "Cheddar's Scratch Kitchen", "addr:full": "190 East Stacy Rd #900", "addr:city": "Allen", "addr:state": "TX", "addr:postcode": "750028748", "addr:country": "US", "name": "Allen", "phone": "(972) 678-2914", "website": "https://www.cheddars.com/web-api/restaurants", "brand": "Cheddar's Scratch Kitchen", "brand:wikidata": "Q5089187", "nsi_id": "cheddars-96af40"}, "geometry": {"type": "Point", "coordinates": [-96.65187, 33.12915]}},
{"type": "Feature", "id": "p804B_NSUHi0sA1q4_oZHxLebm8=", "properties": {"ref": "2026", "@spider": "cheddars_scratch_kitchen", "amenity": "restaurant", "cuisine": "american", "official_name": "Cheddar's Scratch Kitchen", "addr:full": "5445 North President George Bush Hwy", "addr:city": "Garland", "addr:state": "TX", "addr:postcode": "750444801", "addr:country": "US", "name": "Garland", "phone": "(972) 495-1200", "website": "https://www.cheddars.com/web-api/restaurants", "brand": "Cheddar's Scratch Kitchen", "brand:wikidata": "Q5089187", "nsi_id": "cheddars-96af40"}, "geometry": {"type": "Point", "coordinates": [-96.64454, 32.96614]}},
{"type": "Feature", "id": "Xn0SnKcjD0mKYeHaEINbGT-7wSU=", "properties": {"ref": "2044", "@spider": "cheddars_scratch_kitchen", "amenity": "restaurant", "cuisine": "american", "official_name": "Cheddar's Scratch Kitchen", "addr:full": "1320 N Peachtree Rd", "addr:city": "Mesquite", "addr:state": "TX", "addr:postcode": "751491300", "addr:country": "US", "name": "Mesquite", "phone": "(972) 329-7082", "website": "https://www.cheddars.com/web-api/restaurants", "brand": "Cheddar's Scratch Kitchen", "brand:wikidata": "Q5089187", "nsi_id": "cheddars-96af40"}, "geometry": {"type": "Point", "coordinates": [-96.62576, 32.78343]}},
{"type": "Feature", "id": "3gvZ9rcq5GfN3Pu8Gqm9eG_ava8=", "properties": {"ref": "2038", "@spider": "cheddars_scratch_kitchen", "amenity": "restaurant", "cuisine": "american", "official_name": "Cheddar's Scratch Kitchen", "addr:full": "3020 East Expressway 83", "addr:city": "McAllen", "addr:state": "TX", "addr:postcode": "785018345", "addr:country": "US", "name": "McAllen", "phone": "(956) 686-6766", "website": "https://www.cheddars.com/web-api/restaurants", "brand": "Cheddar's Scratch Kitchen", "brand:wikidata": "Q5089187", "nsi_id": "cheddars-96af40"}, "geometry": {"type": "Point", "coordinates": [-98.257834, 26.194894]}},
{"type": "Feature", "id": "HPpkMIo_xoJf9_doMIgW1979rks=", "properties": {"ref": "2050", "@spider": "cheddars_scratch_kitchen", "amenity": "restaurant", "cuisine": "american", "official_name": "Cheddar's Scratch Kitchen", "addr:full": "5855 South Padre Island Dr", "addr:city": "Corpus Christi", "addr:state": "TX", "addr:postcode": "784123905", "addr:country": "US", "name": "Corpus Christi", "phone": "(361) 906-0700", "website": "https://www.cheddars.com/web-api/restaurants", "brand": "Cheddar's Scratch Kitchen", "brand:wikidata": "Q5089187", "nsi_id": "cheddars-96af40"}, "geometry": {"type": "Point", "coordinates": [-97.3653, 27.70425]}},
{"type": "Feature", "id": "1iX-_eTapa65qh3HI5cxFlv8olQ=", "properties": {"ref": "2098", "@spider": "cheddars_scratch_kitchen", "amenity": "restaurant", "cuisine": "american", "official_name": "Cheddar's Scratch Kitchen", "addr:full": "1701 University Drive East", "addr:city": "College Station", "addr:state": "TX", "addr:postcode": "778402662", "addr:country": "US", "name": "College Station", "phone": "(979) 260-1701", "website": "https://www.cheddars.com/web-api/restaurants", "brand": "Cheddar's Scratch Kitchen", "brand:wikidata": "Q5089187", "nsi_id": "cheddars-96af40"}, "geometry": {"type": "Point", "coordinates": [-96.313106, 30.639462]}},
{"type": "Feature", "id": "n1EV5SrAitBuu8xvdQdgghUNyBk=", "properties": {"ref": "2171", "@spider": "cheddars_scratch_kitchen", "amenity": "restaurant", "cuisine": "american", "official_name": "Cheddar's Scratch Kitchen", "addr:full": "6702 W. Expressway 83", "addr:city": "Harlingen", "addr:state": "TX", "addr:postcode": "78552", "addr:country": "US", "name": "Harlingen", "phone": "(956) 365-3134", "website": "https://www.cheddars.com/web-api/restaurants", "brand": "Cheddar's Scratch Kitchen", "brand:wikidata": "Q5089187", "nsi_id": "cheddars-96af40"}, "geometry": {"type": "Point", "coordinates": [-97.755056, 26.187881]}},
{"type": "Feature", "id": "F47YeuN0kLwka7Pdn3i_b_e9lqU=", "properties": {"ref": "2023", "@spider": "cheddars_scratch_kitchen", "amenity": "restaurant", "cuisine": "american", "official_name": "Cheddar's Scratch Kitchen", "addr:full": "3120 Hammons Blvd", "addr:city": "Joplin", "addr:state": "MO", "addr:postcode": "648044467", "addr:country": "US", "name": "Joplin", "phone": "(417) 624-6000", "website": "https://www.cheddars.com/web-api/restaurants", "brand": "Cheddar's Scratch Kitchen", "brand:wikidata": "Q5089187", "nsi_id": "cheddars-96af40"}, "geometry": {"type": "Point", "coordinates": [-94.475398, 37.048032]}},
{"type": "Feature", "id": "N9-hp6fgJNxVk5is8zEJoKk3V6E=", "properties": {"ref": "2037", "@spider": "cheddars_scratch_kitchen", "amenity": "restaurant", "cuisine": "american", "official_name": "Cheddar's Scratch Kitchen", "addr:full": "3907 Phoenix Ave", "addr:city": "Fort Smith", "addr:state": "AR", "addr:postcode": "729036029", "addr:country": "US", "name": "Fort Smith", "phone": "(479) 649-5959", "website": "https://www.cheddars.com/web-api/restaurants", "brand": "Cheddar's Scratch Kitchen", "brand:wikidata": "Q5089187", "nsi_id": "cheddars-96af40"}, "geometry": {"type": "Point", "coordinates": [-94.38933, 35.338989]}},
{"type": "Feature", "id": "KGYL8zEx_8_KwgS1ZZcHlxR5Sko=", "properties": {"ref": "2018", "@spider": "cheddars_scratch_kitchen", "amenity": "restaurant", "cuisine": "american", "official_name": "Cheddar's Scratch Kitchen", "addr:full": "6701 South Broadway Ave", "addr:city": "Tyler", "addr:state": "TX", "addr:postcode": "757034731", "addr:country": "US", "name": "Tyler", "phone": "(903) 534-1700", "website": "https://www.cheddars.com/web-api/restaurants", "brand": "Cheddar's Scratch Kitchen", "brand:wikidata": "Q5089187", "nsi_id": "cheddars-96af40"}, "geometry": {"type": "Point", "coordinates": [-95.3073, 32.27647]}},
{"type": "Feature", "id": "YtknhqQsSRfjtU5fXwBqkjMw6ig=", "properties": {"ref": "2053", "@spider": "cheddars_scratch_kitchen", "amenity": "restaurant", "cuisine": "american", "official_name": "Cheddar's Scratch Kitchen", "addr:full": "23948 Northwest Freeway", "addr:city": "Cypress", "addr:state": "TX", "addr:postcode": "774296173", "addr:country": "US", "name": "Cypress", "phone": "(281) 256-2259", "website": "https://www.cheddars.com/web-api/restaurants", "brand": "Cheddar's Scratch Kitchen", "brand:wikidata": "Q5089187", "nsi_id": "cheddars-96af40"}, "geometry": {"type": "Point", "coordinates": [-95.66988, 29.95177]}},
{"type": "Feature", "id": "bWwFm3pRkaGNLmILySXIObkMOYQ=", "properties": {"ref": "2039", "@spider": "cheddars_scratch_kitchen", "amenity": "restaurant", "cuisine": "american", "official_name": "Cheddar's Scratch Kitchen", "addr:full": "21150 Katy Freeway", "addr:city": "Katy", "addr:state": "TX", "addr:postcode": "774497768", "addr:country": "US", "name": "Katy", "phone": "(281) 578-0593", "website": "https://www.cheddars.com/web-api/restaurants", "brand": "Cheddar's Scratch Kitchen", "brand:wikidata": "Q5089187", "nsi_id": "cheddars-96af40"}, "geometry": {"type": "Point", "coordinates": [-95.73813, 29.78619]}},
{"type": "Feature", "id": "HCeWkTronv6N6AcC2qxb7zXjT0s=", "properties": {"ref": "2199", "@spider": "cheddars_scratch_kitchen", "amenity": "restaurant", "cuisine": "american", "official_name": "Cheddar's Scratch Kitchen", "addr:full": "2520 Interstate 45 N", "addr:city": "Conroe", "addr:state": "TX", "addr:postcode": "773037810", "addr:country": "US", "name": "Conroe", "phone": "(936) 286-8222", "website": "https://www.cheddars.com/web-api/restaurants", "brand": "Cheddar's Scratch Kitchen", "brand:wikidata": "Q5089187", "nsi_id": "cheddars-96af40"}, "geometry": {"type": "Point", "coordinates": [-95.480426, 30.341858]}},
{"type": "Feature", "id": "8fkUCNhTDiT1RmDLrJanyaiknDw=", "properties": {"ref": "2025", "@spider": "cheddars_scratch_kitchen", "amenity": "restaurant", "cuisine": "american", "official_name": "Cheddar's Scratch Kitchen", "addr:full": "3074 North Eastman Rd", "addr:city": "Longview", "addr:state": "TX", "addr:postcode": "756055093", "addr:country": "US", "name": "Longview", "phone": "(903) 663-6660", "website": "https://www.cheddars.com/web-api/restaurants", "brand": "Cheddar's Scratch Kitchen", "brand:wikidata": "Q5089187", "nsi_id": "cheddars-96af40"}, "geometry": {"type": "Point", "coordinates": [-94.72614, 32.54635]}},
{"type": "Feature", "id": "nky_EFjtwRVx2dH5y2fa6MiKu70=", "properties": {"ref": "2043", "@spider": "cheddars_scratch_kitchen", "amenity": "restaurant", "cuisine": "american", "official_name": "Cheddar's Scratch Kitchen", "addr:full": "21001 Interstate 45", "addr:city": "Spring", "addr:state": "TX", "addr:postcode": "773885606", "addr:country": "US", "name": "Spring", "phone": "(281) 528-7629", "website": "https://www.cheddars.com/web-api/restaurants", "brand": "Cheddar's Scratch Kitchen", "brand:wikidata": "Q5089187", "nsi_id": "cheddars-96af40"}, "geometry": {"type": "Point", "coordinates": [-95.43583, 30.06746]}},
{"type": "Feature", "id": "vFuGIO6BcfcyxZHdh7W4aGe11vo=", "properties": {"ref": "2067", "@spider": "cheddars_scratch_kitchen", "amenity": "restaurant", "cuisine": "american", "official_name": "Cheddar's Scratch Kitchen", "addr:full": "803 Bonaventure Way", "addr:city": "Sugar Land", "addr:state": "TX", "addr:postcode": "774781401", "addr:country": "US", "name": "Sugar Land", "phone": "(281) 242-1035", "website": "https://www.cheddars.com/web-api/restaurants", "brand": "Cheddar's Scratch Kitchen", "brand:wikidata": "Q5089187", "nsi_id": "cheddars-96af40"}, "geometry": {"type": "Point", "coordinates": [-95.640997, 29.606303]}},
{"type": "Feature", "id": "JHoFavbGY8iBFC4YUfxR44ih3pY=", "properties": {"ref": "2107", "@spider": "cheddars_scratch_kitchen", "amenity": "restaurant", "cuisine": "american", "official_name": "Cheddar's Scratch Kitchen", "addr:full": "10601 Westpark Dr", "addr:city": "Houston", "addr:state": "TX", "addr:postcode": "770425014", "addr:country": "US", "name": "Houston - Westpark Dr.", "phone": "(713) 706-3663", "website": "https://www.cheddars.com/web-api/restaurants", "brand": "Cheddar's Scratch Kitchen", "brand:wikidata": "Q5089187", "nsi_id": "cheddars-96af40"}, "geometry": {"type": "Point", "coordinates": [-95.558485, 29.721262]}},
{"type": "Feature", "id": "aY8715Dn4rIs2F8eDUcejNIC1H8=", "properties": {"ref": "2055", "@spider": "cheddars_scratch_kitchen", "amenity": "restaurant", "cuisine": "american", "official_name": "Cheddar's Scratch Kitchen", "addr:full": "9500 FM 1960 Bypass Rd. West", "addr:city": "Humble", "addr:state": "TX", "addr:postcode": "773384036", "addr:country": "US", "name": "Humble", "phone": "(281) 446-9288", "website": "https://www.cheddars.com/web-api/restaurants", "brand": "Cheddar's Scratch Kitchen", "brand:wikidata": "Q5089187", "nsi_id": "cheddars-96af40"}, "geometry": {"type": "Point", "coordinates": [-95.280718, 30.004313]}},
{"type": "Feature", "id": "n0cVcjGAP26CMYTrw8YnW8YDe7U=", "properties": {"ref": "2099", "@spider": "cheddars_scratch_kitchen", "amenity": "restaurant", "cuisine": "american", "official_name": "Cheddar's Scratch Kitchen", "addr:full": "3901 S Medford Drive", "addr:city": "Lufkin", "addr:state": "TX", "addr:postcode": "759015785", "addr:country": "US", "name": "Lufkin", "phone": "(936) 639-0001", "website": "https://www.cheddars.com/web-api/restaurants", "brand": "Cheddar's Scratch Kitchen", "brand:wikidata": "Q5089187", "nsi_id": "cheddars-96af40"}, "geometry": {"type": "Point", "coordinates": [-94.715975, 31.313295]}},
{"type": "Feature", "id": "BiS6hdgBPPpr1FR_yV3f5gtG8Ss=", "properties": {"ref": "2046", "@spider": "cheddars_scratch_kitchen", "amenity": "restaurant", "cuisine": "american", "official_name": "Cheddar's Scratch Kitchen", "addr:full": "2495 N. Expressway", "addr:city": "Brownsville", "addr:state": "TX", "addr:postcode": "785209138", "addr:country": "US", "name": "Brownsville", "phone": "(956) 541-4422", "website": "https://www.cheddars.com/web-api/restaurants", "brand": "Cheddar's Scratch Kitchen", "brand:wikidata": "Q5089187", "nsi_id": "cheddars-96af40"}, "geometry": {"type": "Point", "coordinates": [-97.506418, 25.953153]}},
{"type": "Feature", "id": "9XzEPyzoLZAHWrfwRAJJpZOT08Y=", "properties": {"ref": "2070", "@spider": "cheddars_scratch_kitchen", "amenity": "restaurant", "cuisine": "american", "official_name": "Cheddar's Scratch Kitchen", "addr:full": "3365 E. Sam Houston Pkwy", "addr:city": "Pasadena", "addr:state": "TX", "addr:postcode": "775052327", "addr:country": "US", "name": "Pasadena", "phone": "(281) 998-2800", "website": "https://www.cheddars.com/web-api/restaurants", "brand": "Cheddar's Scratch Kitchen", "brand:wikidata": "Q5089187", "nsi_id": "cheddars-96af40"}, "geometry": {"type": "Point", "coordinates": [-95.155145, 29.66032]}},
{"type": "Feature", "id": "E4kXHWAhE-m0MsPHIoy8Au1wUAM=", "properties": {"ref": "2110", "@spider": "cheddars_scratch_kitchen", "amenity": "restaurant", "cuisine": "american", "official_name": "Cheddar's Scratch Kitchen", "addr:full": "21001 Gulf Freeway", "addr:city": "Webster", "addr:state": "TX", "addr:postcode": "775986406", "addr:country": "US", "name": "Webster", "phone": "(281) 332-3400", "website": "https://www.cheddars.com/web-api/restaurants", "brand": "Cheddar's Scratch Kitchen", "brand:wikidata": "Q5089187", "nsi_id": "cheddars-96af40"}, "geometry": {"type": "Point", "coordinates": [-95.124294, 29.523156]}},
{"type": "Feature", "id": "4_zEbVyoS1-5ypbWwgNnxDigeIU=", "properties": {"ref": "2051", "@spider": "cheddars_scratch_kitchen", "amenity": "restaurant", "cuisine": "american", "official_name": "Cheddar's Scratch Kitchen", "addr:full": "4530 East Freeway", "addr:city": "Baytown", "addr:state": "TX", "addr:postcode": "775218881", "addr:country": "US", "name": "Baytown", "phone": "(281) 421-7596", "website": "https://www.cheddars.com/web-api/restaurants", "brand": "Cheddar's Scratch Kitchen", "brand:wikidata": "Q5089187", "nsi_id": "cheddars-96af40"}, "geometry": {"type": "Point", "coordinates": [-94.99089, 29.80246]}},
{"type": "Feature", "id": "ujgNpn0xpLxgeALzTqrQBK5Amys=", "properties": {"ref": "2091", "@spider": "cheddars_scratch_kitchen", "amenity": "restaurant", "cuisine": "american", "official_name": "Cheddar's Scratch Kitchen", "addr:full": "161 Collins Rd NE", "addr:city": "Cedar Rapids", "addr:state": "IA", "addr:postcode": "524023201", "addr:country": "US", "name": "Cedar Rapids", "phone": "(319) 393-4557", "website": "https://www.cheddars.com/web-api/restaurants", "brand": "Cheddar's Scratch Kitchen", "brand:wikidata": "Q5089187", "nsi_id": "cheddars-96af40"}, "geometry": {"type": "Point", "coordinates": [-91.625907, 42.026631]}},
{"type": "Feature", "id": "SDfUgm4fQZ3Fwynul-5Vzj2g_-Y=", "properties": {"ref": "2088", "@spider": "cheddars_scratch_kitchen", "amenity": "restaurant", "cuisine": "american", "official_name": "Cheddar's Scratch Kitchen", "addr:full": "2824 Commerce Dr", "addr:city": "Coralville", "addr:state": "IA", "addr:postcode": "522412756", "addr:country": "US", "name": "Coralville", "phone": "(319) 545-3131", "website": "https://www.cheddars.com/web-api/restaurants", "brand": "Cheddar's Scratch Kitchen", "brand:wikidata": "Q5089187", "nsi_id": "cheddars-96af40"}, "geometry": {"type": "Point", "coordinates": [-91.616143, 41.694977]}},
{"type": "Feature", "id": "2hmcSAIvYNwhOAcUTxg7_Ehq-uY=", "properties": {"ref": "2076", "@spider": "cheddars_scratch_kitchen", "amenity": "restaurant", "cuisine": "american", "official_name": "Cheddar's Scratch Kitchen", "addr:full": "1010 I-70 Drive SW", "addr:city": "Columbia", "addr:state": "MO", "addr:postcode": "652032051", "addr:country": "US", "name": "Columbia", "phone": "(573) 441-0617", "website": "https://www.cheddars.com/web-api/restaurants", "brand": "Cheddar's Scratch Kitchen", "brand:wikidata": "Q5089187", "nsi_id": "cheddars-96af40"}, "geometry": {"type": "Point", "coordinates": [-92.354081, 38.964468]}},
{"type": "Feature", "id": "ypNd_Q0lJjCEnsm8NiPDGp4T9Cs=", "properties": {"ref": "2009", "@spider": "cheddars_scratch_kitchen", "amenity": "restaurant", "cuisine": "american", "official_name": "Cheddar's Scratch Kitchen", "addr:full": "1950 E. Primrose St", "addr:city": "Springfield", "addr:state": "MO", "addr:postcode": "658042901", "addr:country": "US", "name": "Springfield", "phone": "(417) 889-8998", "website": "https://www.cheddars.com/web-api/restaurants", "brand": "Cheddar's Scratch Kitchen", "brand:wikidata": "Q5089187", "nsi_id": "cheddars-96af40"}, "geometry": {"type": "Point", "coordinates": [-93.259605, 37.15043]}},
{"type": "Feature", "id": "9EbPLk2FLYCoL7B6M9zGbKhAYjc=", "properties": {"ref": "2207", "@spider": "cheddars_scratch_kitchen", "amenity": "restaurant", "cuisine": "american", "official_name": "Cheddar's Scratch Kitchen", "addr:full": "2935 W 76 Country Blvd", "addr:city": "Branson", "addr:state": "MO", "addr:postcode": "656163558", "addr:country": "US", "name": "Branson", "phone": "(417) 213-3188", "website": "https://www.cheddars.com/web-api/restaurants", "brand": "Cheddar's Scratch Kitchen", "brand:wikidata": "Q5089187", "nsi_id": "cheddars-96af40"}, "geometry": {"type": "Point", "coordinates": [-93.2748, 36.6387]}},
{"type": "Feature", "id": "DM-Wxdujfu1L5M_IHUl59E9ZnbE=", "properties": {"ref": "2106", "@spider": "cheddars_scratch_kitchen", "amenity": "restaurant", "cuisine": "american", "official_name": "Cheddar's Scratch Kitchen", "addr:full": "3815 I-10 South", "addr:city": "Beaumont", "addr:state": "TX", "addr:postcode": "777054426", "addr:country": "US", "name": "Beaumont", "phone": "(409) 840-5333", "website": "https://www.cheddars.com/web-api/restaurants", "brand": "Cheddar's Scratch Kitchen", "brand:wikidata": "Q5089187", "nsi_id": "cheddars-96af40"}, "geometry": {"type": "Point", "coordinates": [-94.152677, 30.041153]}},
{"type": "Feature", "id": "OxfcSw-G7z_de-5441hINIaxqxk=", "properties": {"ref": "2109", "@spider": "cheddars_scratch_kitchen", "amenity": "restaurant", "cuisine": "american", "official_name": "Cheddar's Scratch Kitchen", "addr:full": "8005 Memorial Blvd", "addr:city": "Port Arthur", "addr:state": "TX", "addr:postcode": "776407002", "addr:country": "US", "name": "Port Arthur", "phone": "(409) 729-5800", "website": "https://www.cheddars.com/web-api/restaurants", "brand": "Cheddar's Scratch Kitchen", "brand:wikidata": "Q5089187", "nsi_id": "cheddars-96af40"}, "geometry": {"type": "Point", "coordinates": [-93.986153, 29.939217]}},
{"type": "Feature", "id": "_cN7QkbbxeML3blozgEMhR5T4-Q=", "properties": {"ref": "2057", "@spider": "cheddars_scratch_kitchen", "amenity": "restaurant", "cuisine": "american", "official_name": "Cheddar's Scratch Kitchen", "addr:full": "400 S University", "addr:city": "Little Rock", "addr:state": "AR", "addr:postcode": "722055246", "addr:country": "US", "name": "Little Rock", "phone": "(501) 614-7578", "website": "https://www.cheddars.com/web-api/restaurants", "brand": "Cheddar's Scratch Kitchen", "brand:wikidata": "Q5089187", "nsi_id": "cheddars-96af40"}, "geometry": {"type": "Point", "coordinates": [-92.341652, 34.749057]}},
{"type": "Feature", "id": "_9N5qLr0vt0zxWpI7EYe-8ksJXE=", "properties": {"ref": "2174", "@spider": "cheddars_scratch_kitchen", "amenity": "restaurant", "cuisine": "american", "official_name": "Cheddar's Scratch Kitchen", "addr:full": "4531 W Wisconsin Ave", "addr:city": "Appleton", "addr:state": "WI", "addr:postcode": "549138635", "addr:country": "US", "name": "Appleton", "phone": "(920) 749-0827", "website": "https://www.cheddars.com/web-api/restaurants", "brand": "Cheddar's Scratch Kitchen", "brand:wikidata": "Q5089187", "nsi_id": "cheddars-96af40"}, "geometry": {"type": "Point", "coordinates": [-88.474477, 44.272511]}},
{"type": "Feature", "id": "U8iGaGwEN0LCPiRPkZmttu1Gar4=", "properties": {"ref": "2081", "@spider": "cheddars_scratch_kitchen", "amenity": "restaurant", "cuisine": "american", "official_name": "Cheddar's Scratch Kitchen", "addr:full": "6600 N. Illinois St", "addr:city": "Fairview Heights", "addr:state": "IL", "addr:postcode": "622082004", "addr:country": "US", "name": "Fairview Heights", "phone": "(618) 622-9475", "website": "https://www.cheddars.com/web-api/restaurants", "brand": "Cheddar's Scratch Kitchen", "brand:wikidata": "Q5089187", "nsi_id": "cheddars-96af40"}, "geometry": {"type": "Point", "coordinates": [-89.984126, 38.59658]}},
{"type": "Feature", "id": "nnr6Zkw74SbTRKRxFuQK9Lncu7Y=", "properties": {"ref": "2204", "@spider": "cheddars_scratch_kitchen", "amenity": "restaurant", "cuisine": "american", "official_name": "Cheddar's Scratch Kitchen", "addr:full": "2123 Red Wolf Blvd", "addr:city": "Jonesboro", "addr:state": "AR", "addr:postcode": "724016385", "addr:country": "US", "name": "Jonesboro", "phone": "(870) 819-3802", "website": "https://www.cheddars.com/web-api/restaurants", "brand": "Cheddar's Scratch Kitchen", "brand:wikidata": "Q5089187", "nsi_id": "cheddars-96af40"}, "geometry": {"type": "Point", "coordinates": [-90.669636, 35.818768]}},
{"type": "Feature", "id": "ef1y2Bul-fk-UWyshR2MiuS34tI=", "properties": {"ref": "2087", "@spider": "cheddars_scratch_kitchen", "amenity": "restaurant", "cuisine": "american", "official_name": "Cheddar's Scratch Kitchen", "addr:full": "10366 77th St", "addr:city": "Pleasant Prairie", "addr:state": "WI", "addr:postcode": "531581141", "addr:country": "US", "name": "Pleasant Prairie", "phone": "(262) 697-1657", "website": "https://www.cheddars.com/web-api/restaurants", "brand": "Cheddar's Scratch Kitchen", "brand:wikidata": "Q5089187", "nsi_id": "cheddars-96af40"}, "geometry": {"type": "Point", "coordinates": [-87.932762, 42.566484]}},
{"type": "Feature", "id": "CxlK0PcL-ARpB7ZfEX6Qo-ZFGd4=", "properties": {"ref": "2036", "@spider": "cheddars_scratch_kitchen", "amenity": "restaurant", "cuisine": "american", "official_name": "Cheddar's Scratch Kitchen", "addr:full": "105 Remington Blvd", "addr:city": "Bolingbrook", "addr:state": "IL", "addr:postcode": "604403533", "addr:country": "US", "name": "Bolingbrook", "phone": "(630) 378-5555", "website": "https://www.cheddars.com/web-api/restaurants", "brand": "Cheddar's Scratch Kitchen", "brand:wikidata": "Q5089187", "nsi_id": "cheddars-96af40"}, "geometry": {"type": "Point", "coordinates": [-88.06883, 41.68734]}},
{"type": "Feature", "id": "jAPdw7KhLS6sIZiu5v-XgkVyLF8=", "properties": {"ref": "2157", "@spider": "cheddars_scratch_kitchen", "amenity": "restaurant", "cuisine": "american", "official_name": "Cheddar's Scratch Kitchen", "addr:full": "2147 North Germantown Parkway", "addr:city": "Cordova", "addr:state": "TN", "addr:postcode": "380164491", "addr:country": "US", "name": "Cordova - Germantown Pkwy.", "phone": "(901) 380-1119", "website": "https://www.cheddars.com/web-api/restaurants", "brand": "Cheddar's Scratch Kitchen", "brand:wikidata": "Q5089187", "nsi_id": "cheddars-96af40"}, "geometry": {"type": "Point", "coordinates": [-89.793455, 35.184673]}},
{"type": "Feature", "id": "rhGMhBbBqIZijOhYmeI_Hfq1YkA=", "properties": {"ref": "2202", "@spider": "cheddars_scratch_kitchen", "amenity": "restaurant", "cuisine": "american", "official_name": "Cheddar's Scratch Kitchen", "addr:full": "5002 Hinkleville Road", "addr:city": "Paducah", "addr:state": "KY", "addr:postcode": "420018005", "addr:country": "US", "name": "Paducah", "phone": "(270) 908-3352", "website": "https://www.cheddars.com/web-api/restaurants", "brand": "Cheddar's Scratch Kitchen", "brand:wikidata": "Q5089187", "nsi_id": "cheddars-96af40"}, "geometry": {"type": "Point", "coordinates": [-88.682118, 37.077205]}},
{"type": "Feature", "id": "_r-KTS9Bg3V6P5IkyW6kspljHmM=", "properties": {"ref": "2146", "@spider": "cheddars_scratch_kitchen", "amenity": "restaurant", "cuisine": "american", "official_name": "Cheddar's Scratch Kitchen", "addr:full": "2116 Emporium Dr", "addr:city": "Jackson", "addr:state": "TN", "addr:postcode": "383056004", "addr:country": "US", "name": "Jackson", "phone": "(731) 736-2362", "website": "https://www.cheddars.com/web-api/restaurants", "brand": "Cheddar's Scratch Kitchen", "brand:wikidata": "Q5089187", "nsi_id": "cheddars-96af40"}, "geometry": {"type": "Point", "coordinates": [-88.853657, 35.666828]}},
{"type": "Feature", "id": "a9IQPDi4oxKfplg8XfC-pY3tQMc=", "properties": {"ref": "2092", "@spider": "cheddars_scratch_kitchen", "amenity": "restaurant", "cuisine": "american", "official_name": "Cheddar's Scratch Kitchen", "addr:full": "160 Town Center Parkway", "addr:city": "Slidell", "addr:state": "LA", "addr:postcode": "704588087", "addr:country": "US", "name": "Slidell", "phone": "(985) 649-9933", "website": "https://www.cheddars.com/web-api/restaurants", "brand": "Cheddar's Scratch Kitchen", "brand:wikidata": "Q5089187", "nsi_id": "cheddars-96af40"}, "geometry": {"type": "Point", "coordinates": [-89.757634, 30.269658]}},
{"type": "Feature", "id": "7ObZW-s9KN-3InYzyTkezKrxkp4=", "properties": {"ref": "2068", "@spider": "cheddars_scratch_kitchen", "amenity": "restaurant", "cuisine": "american", "official_name": "Cheddar's Scratch Kitchen", "addr:full": "4914 N Main St", "addr:city": "Mishawaka", "addr:state": "IN", "addr:postcode": "46545", "addr:country": "US", "name": "Mishawaka", "phone": "(574) 273-0013", "website": "https://www.cheddars.com/web-api/restaurants", "brand": "Cheddar's Scratch Kitchen", "brand:wikidata": "Q5089187", "nsi_id": "cheddars-96af40"}, "geometry": {"type": "Point", "coordinates": [-86.181687, 41.704856]}},
{"type": "Feature", "id": "3qcGMTWgCntO6ZjQ62WwvNeCifE=", "properties": {"ref": "2167", "@spider": "cheddars_scratch_kitchen", "amenity": "restaurant", "cuisine": "american", "official_name": "Cheddar's Scratch Kitchen", "addr:full": "91 N 36th St.", "addr:city": "Lafayette", "addr:state": "IN", "addr:postcode": "479054798", "addr:country": "US", "name": "Lafayette", "phone": "(765) 746-6811", "website": "https://www.cheddars.com/web-api/restaurants", "brand": "Cheddar's Scratch Kitchen", "brand:wikidata": "Q5089187", "nsi_id": "cheddars-96af40"}, "geometry": {"type": "Point", "coordinates": [-86.849241, 40.418203]}},
{"type": "Feature", "id": "tMDg35jEnZuGnfhCAo1Gk1NSzFs=", "properties": {"ref": "2166", "@spider": "cheddars_scratch_kitchen", "amenity": "restaurant", "cuisine": "american", "official_name": "Cheddar's Scratch Kitchen", "addr:full": "4424 South US Hwy 41", "addr:city": "Terre Haute", "addr:state": "IN", "addr:postcode": "478024409", "addr:country": "US", "name": "Terre Haute", "phone": "(812) 917-3317", "website": "https://www.cheddars.com/web-api/restaurants", "brand": "Cheddar's Scratch Kitchen", "brand:wikidata": "Q5089187", "nsi_id": "cheddars-96af40"}, "geometry": {"type": "Point", "coordinates": [-87.414314, 39.413813]}},
{"type": "Feature", "id": "aE-Ln-3L6SdMblR8q1db9TDgeV8=", "properties": {"ref": "2148", "@spider": "cheddars_scratch_kitchen", "amenity": "restaurant", "cuisine": "american", "official_name": "Cheddar's Scratch Kitchen", "addr:full": "2100 North Green River Rd", "addr:city": "Evansville", "addr:state": "IN", "addr:postcode": "477151912", "addr:country": "US", "name": "Evansville", "phone": "(812) 491-9976", "website": "https://www.cheddars.com/web-api/restaurants", "brand": "Cheddar's Scratch Kitchen", "brand:wikidata": "Q5089187", "nsi_id": "cheddars-96af40"}, "geometry": {"type": "Point", "coordinates": [-87.49317, 37.99603]}},
{"type": "Feature", "id": "fdx6Pdvg5B9Nb2w5UHkuTTAGiVo=", "properties": {"ref": "2153", "@spider": "cheddars_scratch_kitchen", "amenity": "restaurant", "cuisine": "american", "official_name": "Cheddar's Scratch Kitchen", "addr:full": "9466 US Hwy 36", "addr:city": "Avon", "addr:state": "IN", "addr:postcode": "461237240", "addr:country": "US", "name": "Avon", "phone": "(317) 209-9690", "website": "https://www.cheddars.com/web-api/restaurants", "brand": "Cheddar's Scratch Kitchen", "brand:wikidata": "Q5089187", "nsi_id": "cheddars-96af40"}, "geometry": {"type": "Point", "coordinates": [-86.354598, 39.764063]}},
{"type": "Feature", "id": "A-UmPABQn8kZA6mtU9H0ZkRO8NE=", "properties": {"ref": "2139", "@spider": "cheddars_scratch_kitchen", "amenity": "restaurant", "cuisine": "american", "official_name": "Cheddar's Scratch Kitchen", "addr:full": "3040 Highland Pointe Dr", "addr:city": "Owensboro", "addr:state": "KY", "addr:postcode": "423032114", "addr:country": "US", "name": "Owensboro", "phone": "(270) 685-2092", "website": "https://www.cheddars.com/web-api/restaurants", "brand": "Cheddar's Scratch Kitchen", "brand:wikidata": "Q5089187", "nsi_id": "cheddars-96af40"}, "geometry": {"type": "Point", "coordinates": [-87.07031, 37.75482]}},
{"type": "Feature", "id": "pDDpseocSmMqg-qGX38lYqsFwTM=", "properties": {"ref": "2163", "@spider": "cheddars_scratch_kitchen", "amenity": "restaurant", "cuisine": "american", "official_name": "Cheddar's Scratch Kitchen", "addr:full": "2697 Wilma Rudolph Blvd", "addr:city": "Clarksville", "addr:state": "TN", "addr:postcode": "370405845", "addr:country": "US", "name": "Clarksville", "phone": "(931) 896-2505", "website": "https://www.cheddars.com/web-api/restaurants", "brand": "Cheddar's Scratch Kitchen", "brand:wikidata": "Q5089187", "nsi_id": "cheddars-96af40"}, "geometry": {"type": "Point", "coordinates": [-87.29452, 36.585252]}},
{"type": "Feature", "id": "iiYOh3_KR-OIBfFVTsV6vfkyYcw=", "properties": {"ref": "2158", "@spider": "cheddars_scratch_kitchen", "amenity": "restaurant", "cuisine": "american", "official_name": "Cheddar's Scratch Kitchen", "addr:full": "126 S. Franklin Rd", "addr:city": "Bloomington", "addr:state": "IN", "addr:postcode": "474045295", "addr:country": "US", "name": "Bloomington", "phone": "(812) 822-1628", "website": "https://www.cheddars.com/web-api/restaurants", "brand": "Cheddar's Scratch Kitchen", "brand:wikidata": "Q5089187", "nsi_id": "cheddars-96af40"}, "geometry": {"type": "Point", "coordinates": [-86.571433, 39.166044]}},
{"type": "Feature", "id": "WOnrFvHuAd5bP0cJBDbTzM8aZc0=", "properties": {"ref": "2034", "@spider": "cheddars_scratch_kitchen", "amenity": "restaurant", "cuisine": "american", "official_name": "Cheddar's Scratch Kitchen", "addr:full": "5719 West Saginaw Hwy", "addr:city": "Lansing", "addr:state": "MI", "addr:postcode": "489172458", "addr:country": "US", "name": "Lansing", "phone": "(517) 323-4963", "website": "https://www.cheddars.com/web-api/restaurants", "brand": "Cheddar's Scratch Kitchen", "brand:wikidata": "Q5089187", "nsi_id": "cheddars-96af40"}, "geometry": {"type": "Point", "coordinates": [-84.631727, 42.740365]}},
{"type": "Feature", "id": "oOa16GlDxFfdx0A8OOoaQ_yU7NU=", "properties": {"ref": "2160", "@spider": "cheddars_scratch_kitchen", "amenity": "restaurant", "cuisine": "american", "official_name": "Cheddar's Scratch Kitchen", "addr:full": "5151 Noggle Way", "addr:city": "Indianapolis", "addr:state": "IN", "addr:postcode": "462378405", "addr:country": "US", "name": "Indianapolis - Greenwood", "phone": "(317) 807-0248", "website": "https://www.cheddars.com/web-api/restaurants", "brand": "Cheddar's Scratch Kitchen", "brand:wikidata": "Q5089187", "nsi_id": "cheddars-96af40"}, "geometry": {"type": "Point", "coordinates": [-86.080989, 39.637147]}},
{"type": "Feature", "id": "tqnZfv4_1R5fsdRxv-PeBnTtYFI=", "properties": {"ref": "2029", "@spider": "cheddars_scratch_kitchen", "amenity": "restaurant", "cuisine": "american", "official_name": "Cheddar's Scratch Kitchen", "addr:full": "305 West Coliseum Blvd", "addr:city": "Fort Wayne", "addr:state": "IN", "addr:postcode": "468051008", "addr:country": "US", "name": "Fort Wayne", "phone": "(260) 484-4631", "website": "https://www.cheddars.com/web-api/restaurants", "brand": "Cheddar's Scratch Kitchen", "brand:wikidata": "Q5089187", "nsi_id": "cheddars-96af40"}, "geometry": {"type": "Point", "coordinates": [-85.14319, 41.11751]}},
{"type": "Feature", "id": "XOHgSdXqjiFsv1m_xLxUnjsZMZw=", "properties": {"ref": "2141", "@spider": "cheddars_scratch_kitchen", "amenity": "restaurant", "cuisine": "american", "official_name": "Cheddar's Scratch Kitchen", "addr:full": "701 Campbell Lane", "addr:city": "Bowling Green", "addr:state": "KY", "addr:postcode": "421041040", "addr:country": "US", "name": "Bowling Green", "phone": "(270) 846-3370", "website": "https://www.cheddars.com/web-api/restaurants", "brand": "Cheddar's Scratch Kitchen", "brand:wikidata": "Q5089187", "nsi_id": "cheddars-96af40"}, "geometry": {"type": "Point", "coordinates": [-86.467855, 36.961276]}},
{"type": "Feature", "id": "afK_0p6DH86qYjltTbiCnmyrZok=", "properties": {"ref": "2130", "@spider": "cheddars_scratch_kitchen", "amenity": "restaurant", "cuisine": "american", "official_name": "Cheddar's Scratch Kitchen", "addr:full": "1385 Veterans Parkway", "addr:city": "Clarksville", "addr:state": "IN", "addr:postcode": "471297747", "addr:country": "US", "name": "Clarksville", "phone": "(812) 280-9660", "website": "https://www.cheddars.com/web-api/restaurants", "brand": "Cheddar's Scratch Kitchen", "brand:wikidata": "Q5089187", "nsi_id": "cheddars-96af40"}, "geometry": {"type": "Point", "coordinates": [-85.756097, 38.329985]}},
{"type": "Feature", "id": "R79p_93LjIHf8LWNa9uDMB2NSa8=", "properties": {"ref": "2168", "@spider": "cheddars_scratch_kitchen", "amenity": "restaurant", "cuisine": "american", "official_name": "Cheddar's Scratch Kitchen", "addr:full": "1654 Westgate Circle", "addr:city": "Brentwood", "addr:state": "TN", "addr:postcode": "370278019", "addr:country": "US", "name": "Brentwood", "phone": "(615) 922-2301", "website": "https://www.cheddars.com/web-api/restaurants", "brand": "Cheddar's Scratch Kitchen", "brand:wikidata": "Q5089187", "nsi_id": "cheddars-96af40"}, "geometry": {"type": "Point", "coordinates": [-86.805301, 35.966597]}},
{"type": "Feature", "id": "_mh05msl6f5huc98IfRPFfF1LnI=", "properties": {"ref": "2135", "@spider": "cheddars_scratch_kitchen", "amenity": "restaurant", "cuisine": "american", "official_name": "Cheddar's Scratch Kitchen", "addr:full": "210 N. Anderson Lane", "addr:city": "Hendersonville", "addr:state": "TN", "addr:postcode": "370756926", "addr:country": "US", "name": "Hendersonville", "phone": "(615) 822-5537", "website": "https://www.cheddars.com/web-api/restaurants", "brand": "Cheddar's Scratch Kitchen", "brand:wikidata": "Q5089187", "nsi_id": "cheddars-96af40"}, "geometry": {"type": "Point", "coordinates": [-86.59857, 36.32142]}},
{"type": "Feature", "id": "RBFFWmX5ZSJDqTR79xRMjHOFZQ8=", "properties": {"ref": "2147", "@spider": "cheddars_scratch_kitchen", "amenity": "restaurant", "cuisine": "american", "official_name": "Cheddar's Scratch Kitchen", "addr:full": "3400 North Dixie Ave", "addr:city": "Elizabethtown", "addr:state": "KY", "addr:postcode": "427019491", "addr:country": "US", "name": "Elizabethtown", "phone": "(270) 900-0076", "website": "https://www.cheddars.com/web-api/restaurants", "brand": "Cheddar's Scratch Kitchen", "brand:wikidata": "Q5089187", "nsi_id": "cheddars-96af40"}, "geometry": {"type": "Point", "coordinates": [-85.89164, 37.74553]}},
{"type": "Feature", "id": "iMxHym4xigs44_M_kfXk0EPMDbA=", "properties": {"ref": "2142", "@spider": "cheddars_scratch_kitchen", "amenity": "restaurant", "cuisine": "american", "official_name": "Cheddar's Scratch Kitchen", "addr:full": "3521 Outer Loop", "addr:city": "Louisville", "addr:state": "KY", "addr:postcode": "402193578", "addr:country": "US", "name": "Louisville - Outer Loop", "phone": "(502) 961-6308", "website": "https://www.cheddars.com/web-api/restaurants", "brand": "Cheddar's Scratch Kitchen", "brand:wikidata": "Q5089187", "nsi_id": "cheddars-96af40"}, "geometry": {"type": "Point", "coordinates": [-85.696182, 38.136952]}},
{"type": "Feature", "id": "VQxKKHq9kZYDdW3C9Sjl_eZfkxg=", "properties": {"ref": "2128", "@spider": "cheddars_scratch_kitchen", "amenity": "restaurant", "cuisine": "american", "official_name": "Cheddar's Scratch Kitchen", "addr:full": "10403 Westport Rd", "addr:city": "Louisville", "addr:state": "KY", "addr:postcode": "402411901", "addr:country": "US", "name": "Louisville - Westport Rd", "phone": "(502) 339-5400", "website": "https://www.cheddars.com/web-api/restaurants", "brand": "Cheddar's Scratch Kitchen", "brand:wikidata": "Q5089187", "nsi_id": "cheddars-96af40"}, "geometry": {"type": "Point", "coordinates": [-85.55909, 38.29451]}},
{"type": "Feature", "id": "WWRnj9jumTQ9A2U5Vg5--qfa3EQ=", "properties": {"ref": "2144", "@spider": "cheddars_scratch_kitchen", "amenity": "restaurant", "cuisine": "american", "official_name": "Cheddar's Scratch Kitchen", "addr:full": "50 Old Pleasant Grove Rd", "addr:city": "Mount Juliet", "addr:state": "TN", "addr:postcode": "371223796", "addr:country": "US", "name": "Mt. Juliet", "phone": "(615) 773-4002", "website": "https://www.cheddars.com/web-api/restaurants", "brand": "Cheddar's Scratch Kitchen", "brand:wikidata": "Q5089187", "nsi_id": "cheddars-96af40"}, "geometry": {"type": "Point", "coordinates": [-86.51383, 36.17439]}},
{"type": "Feature", "id": "SI9PLNOumvbu8yXrITCTcnQlCiM=", "properties": {"ref": "2140", "@spider": "cheddars_scratch_kitchen", "amenity": "restaurant", "cuisine": "american", "official_name": "Cheddar's Scratch Kitchen", "addr:full": "955 Industrial Blvd", "addr:city": "Smyrna", "addr:state": "TN", "addr:postcode": "371676815", "addr:country": "US", "name": "Smyrna", "phone": "(615) 223-9394", "website": "https://www.cheddars.com/web-api/restaurants", "brand": "Cheddar's Scratch Kitchen", "brand:wikidata": "Q5089187", "nsi_id": "cheddars-96af40"}, "geometry": {"type": "Point", "coordinates": [-86.56845, 35.97753]}},
{"type": "Feature", "id": "gPAA2dJbmAtHEK3D2DCeZdPJUow=", "properties": {"ref": "2156", "@spider": "cheddars_scratch_kitchen", "amenity": "restaurant", "cuisine": "american", "official_name": "Cheddar's Scratch Kitchen", "addr:full": "1829 Old Fort Parkway", "addr:city": "Murfreesboro", "addr:state": "TN", "addr:postcode": "371293364", "addr:country": "US", "name": "Murfreesboro", "phone": "(615) 904-0100", "website": "https://www.cheddars.com/web-api/restaurants", "brand": "Cheddar's Scratch Kitchen", "brand:wikidata": "Q5089187", "nsi_id": "cheddars-96af40"}, "geometry": {"type": "Point", "coordinates": [-86.423306, 35.845303]}},
{"type": "Feature", "id": "4J0kLh0n73mQ5zQJYn4OzT3Eeac=", "properties": {"ref": "2048", "@spider": "cheddars_scratch_kitchen", "amenity": "restaurant", "cuisine": "american", "official_name": "Cheddar's Scratch Kitchen", "addr:full": "6125 University Dr", "addr:city": "Huntsville", "addr:state": "AL", "addr:postcode": "358061757", "addr:country": "US", "name": "Huntsville", "phone": "(256) 971-2000", "website": "https://www.cheddars.com/web-api/restaurants", "brand": "Cheddar's Scratch Kitchen", "brand:wikidata": "Q5089187", "nsi_id": "cheddars-96af40"}, "geometry": {"type": "Point", "coordinates": [-86.67608, 34.74301]}},
{"type": "Feature", "id": "tGtxExzqvO1Q8h5Mqxuu1fGZix0=", "properties": {"ref": "2079", "@spider": "cheddars_scratch_kitchen", "amenity": "restaurant", "cuisine": "american", "official_name": "Cheddar's Scratch Kitchen", "addr:full": "7173 N Davis Hwy", "addr:city": "Pensacola", "addr:state": "FL", "addr:postcode": "325046208", "addr:country": "US", "name": "Pensacola", "phone": "(850) 484-5203", "website": "https://www.cheddars.com/web-api/restaurants", "brand": "Cheddar's Scratch Kitchen", "brand:wikidata": "Q5089187", "nsi_id": "cheddars-96af40"}, "geometry": {"type": "Point", "coordinates": [-87.22239, 30.498519]}},
{"type": "Feature", "id": "Fr68mI6dSKBXS_jgyimQ1uNb91M=", "properties": {"ref": "2162", "@spider": "cheddars_scratch_kitchen", "amenity": "restaurant", "cuisine": "american", "official_name": "Cheddar's Scratch Kitchen", "addr:full": "3633 Springdale Rd", "addr:city": "Cincinnati", "addr:state": "OH", "addr:postcode": "452511406", "addr:country": "US", "name": "Cincinnati - Northgate", "phone": "(513) 245-0984", "website": "https://www.cheddars.com/web-api/restaurants", "brand": "Cheddar's Scratch Kitchen", "brand:wikidata": "Q5089187", "nsi_id": "cheddars-96af40"}, "geometry": {"type": "Point", "coordinates": [-84.597466, 39.247456]}},
{"type": "Feature", "id": "8wUGMgVr4POFGM9Vn9VneOs8pJU=", "properties": {"ref": "2134", "@spider": "cheddars_scratch_kitchen", "amenity": "restaurant", "cuisine": "american", "official_name": "Cheddar's Scratch Kitchen", "addr:full": "6935 Houston Rd", "addr:city": "Florence", "addr:state": "KY", "addr:postcode": "410425125", "addr:country": "US", "name": "Florence", "phone": "(859) 746-2966", "website": "https://www.cheddars.com/web-api/restaurants", "brand": "Cheddar's Scratch Kitchen", "brand:wikidata": "Q5089187", "nsi_id": "cheddars-96af40"}, "geometry": {"type": "Point", "coordinates": [-84.64985, 39.00902]}},
{"type": "Feature", "id": "c5ctP_N2z9VRehuDmRjF-MaWGk0=", "properties": {"ref": "2169", "@spider": "cheddars_scratch_kitchen", "amenity": "restaurant", "cuisine": "american", "official_name": "Cheddar's Scratch Kitchen", "addr:full": "5341 Cornerstone N Blvd", "addr:city": "Centerville", "addr:state": "OH", "addr:postcode": "454402269", "addr:country": "US", "name": "Centerville", "phone": "(937) 439-4944", "website": "https://www.cheddars.com/web-api/restaurants", "brand": "Cheddar's Scratch Kitchen", "brand:wikidata": "Q5089187", "nsi_id": "cheddars-96af40"}, "geometry": {"type": "Point", "coordinates": [-84.108164, 39.660953]}},
{"type": "Feature", "id": "Jz54_N1vWRjzj8jrAsxEG3Hz_5Y=", "properties": {"ref": "2013", "@spider": "cheddars_scratch_kitchen", "amenity": "restaurant", "cuisine": "american", "official_name": "Cheddar's Scratch Kitchen", "addr:full": "2100 Tiffin Ave", "addr:city": "Findlay", "addr:state": "OH", "addr:postcode": "458409503", "addr:country": "US", "name": "Findlay", "phone": "(419) 423-4499", "website": "https://www.cheddars.com/web-api/restaurants", "brand": "Cheddar's Scratch Kitchen", "brand:wikidata": "Q5089187", "nsi_id": "cheddars-96af40"}, "geometry": {"type": "Point", "coordinates": [-83.6019, 41.05516]}},
{"type": "Feature", "id": "YDZZNH0u2huj5pgvlKsw8Zxc06U=", "properties": {"ref": "2131", "@spider": "cheddars_scratch_kitchen", "amenity": "restaurant", "cuisine": "american", "official_name": "Cheddar's Scratch Kitchen", "addr:full": "1375 Interstate Dr.", "addr:city": "Cookeville", "addr:state": "TN", "addr:postcode": "385014130", "addr:country": "US", "name": "Cookeville", "phone": "(931) 526-7715", "website": "https://www.cheddars.com/web-api/restaurants", "brand": "Cheddar's Scratch Kitchen", "brand:wikidata": "Q5089187", "nsi_id": "cheddars-96af40"}, "geometry": {"type": "Point", "coordinates": [-85.509658, 36.138714]}},
{"type": "Feature", "id": "jJJagAJ6PnwWO1EpTD0h_hqb0Gc=", "properties": {"ref": "2164", "@spider": "cheddars_scratch_kitchen", "amenity": "restaurant", "cuisine": "american", "official_name": "Cheddar's Scratch Kitchen", "addr:full": "2150 US 127 South", "addr:city": "Danville", "addr:state": "KY", "addr:postcode": "40422", "addr:country": "US", "name": "Danville", "phone": "(859) 374-4021", "website": "https://www.cheddars.com/web-api/restaurants", "brand": "Cheddar's Scratch Kitchen", "brand:wikidata": "Q5089187", "nsi_id": "cheddars-96af40"}, "geometry": {"type": "Point", "coordinates": [-84.77356, 37.614123]}},
{"type": "Feature", "id": "26w6QCvSvZLATZ5So3qTaKfS2Jk=", "properties": {"ref": "2125", "@spider": "cheddars_scratch_kitchen", "amenity": "restaurant", "cuisine": "american", "official_name": "Cheddar's Scratch Kitchen", "addr:full": "3604 Walden Dr", "addr:city": "Lexington", "addr:state": "KY", "addr:postcode": "405172019", "addr:country": "US", "name": "Lexington - Tates Creek", "phone": "(859) 272-0891", "website": "https://www.cheddars.com/web-api/restaurants", "brand": "Cheddar's Scratch Kitchen", "brand:wikidata": "Q5089187", "nsi_id": "cheddars-96af40"}, "geometry": {"type": "Point", "coordinates": [-84.496049, 37.982355]}},
{"type": "Feature", "id": "_Grk3FVZAYKcpGFPToY5ykwxrVU=", "properties": {"ref": "2165", "@spider": "cheddars_scratch_kitchen", "amenity": "restaurant", "cuisine": "american", "official_name": "Cheddar's Scratch Kitchen", "addr:full": "2014 Gunbarrel Rd.", "addr:city": "Chattanooga", "addr:state": "TN", "addr:postcode": "374212605", "addr:country": "US", "name": "Chattanooga", "phone": "(423) 805-2233", "website": "https://www.cheddars.com/web-api/restaurants", "brand": "Cheddar's Scratch Kitchen", "brand:wikidata": "Q5089187", "nsi_id": "cheddars-96af40"}, "geometry": {"type": "Point", "coordinates": [-85.154055, 35.031654]}},
{"type": "Feature", "id": "psgW7urjtbe5lqf-mqwkuN_84xM=", "properties": {"ref": "2011", "@spider": "cheddars_scratch_kitchen", "amenity": "restaurant", "cuisine": "american", "official_name": "Cheddar's Scratch Kitchen", "addr:full": "979 N Lexington Springmill Rd", "addr:city": "Ontario", "addr:state": "OH", "addr:postcode": "449061118", "addr:country": "US", "name": "Mansfield - Ontario", "phone": "(419) 747-9777", "website": "https://www.cheddars.com/web-api/restaurants", "brand": "Cheddar's Scratch Kitchen", "brand:wikidata": "Q5089187", "nsi_id": "cheddars-96af40"}, "geometry": {"type": "Point", "coordinates": [-82.59087, 40.779]}},
{"type": "Feature", "id": "zzsc0Dg7l4AjS3wVDidldAfP1Vc=", "properties": {"ref": "2159", "@spider": "cheddars_scratch_kitchen", "amenity": "restaurant", "cuisine": "american", "official_name": "Cheddar's Scratch Kitchen", "addr:full": "125 Faith Assembly Church Rd", "addr:city": "London", "addr:state": "KY", "addr:postcode": "407419662", "addr:country": "US", "name": "London", "phone": "(606) 330-0163", "website": "https://www.cheddars.com/web-api/restaurants", "brand": "Cheddar's Scratch Kitchen", "brand:wikidata": "Q5089187", "nsi_id": "cheddars-96af40"}, "geometry": {"type": "Point", "coordinates": [-84.112709, 37.148151]}},
{"type": "Feature", "id": "cploE_Hfz1lXdy6VwV5bTRMSahM=", "properties": {"ref": "2210", "@spider": "cheddars_scratch_kitchen", "amenity": "restaurant", "cuisine": "american", "official_name": "Cheddar's Scratch Kitchen", "addr:full": "578 Paul Huff Parkway", "addr:city": "Cleveland", "addr:state": "TN", "addr:postcode": "373122957", "addr:country": "US", "name": "Cleveland", "phone": "(423) 790-3218", "website": "https://www.cheddars.com/web-api/restaurants", "brand": "Cheddar's Scratch Kitchen", "brand:wikidata": "Q5089187", "nsi_id": "cheddars-96af40"}, "geometry": {"type": "Point", "coordinates": [-84.85662, 35.21059]}},
{"type": "Feature", "id": "zFq3Bkkxo7Ttn23Mk1GTz58KGDg=", "properties": {"ref": "2154", "@spider": "cheddars_scratch_kitchen", "amenity": "restaurant", "cuisine": "american", "official_name": "Cheddar's Scratch Kitchen", "addr:full": "8390 Kingston Pike", "addr:city": "Knoxville", "addr:state": "TN", "addr:postcode": "379195449", "addr:country": "US", "name": "Knoxville - Kingston Pike", "phone": "(865) 851-9233", "website": "https://www.cheddars.com/web-api/restaurants", "brand": "Cheddar's Scratch Kitchen", "brand:wikidata": "Q5089187", "nsi_id": "cheddars-96af40"}, "geometry": {"type": "Point", "coordinates": [-84.058391, 35.922659]}},
{"type": "Feature", "id": "zEpB0kGz6nQG6qAF6Sc43nGEXEE=", "properties": {"ref": "2145", "@spider": "cheddars_scratch_kitchen", "amenity": "restaurant", "cuisine": "american", "official_name": "Cheddar's Scratch Kitchen", "addr:full": "5615 Clinton Hwy", "addr:city": "Knoxville", "addr:state": "TN", "addr:postcode": "379123456", "addr:country": "US", "name": "Knoxville - Clinton Hwy.", "phone": "(865) 687-3466", "website": "https://www.cheddars.com/web-api/restaurants", "brand": "Cheddar's Scratch Kitchen", "brand:wikidata": "Q5089187", "nsi_id": "cheddars-96af40"}, "geometry": {"type": "Point", "coordinates": [-83.986466, 36.005105]}},
{"type": "Feature", "id": "7P23jx04HWsNojG73pcfuCvrYec=", "properties": {"ref": "2143", "@spider": "cheddars_scratch_kitchen", "amenity": "restaurant", "cuisine": "american", "official_name": "Cheddar's Scratch Kitchen", "addr:full": "250 Hamilton Crossing Dr", "addr:city": "Alcoa", "addr:state": "TN", "addr:postcode": "377012262", "addr:country": "US", "name": "Alcoa", "phone": "(865) 983-5582", "website": "https://www.cheddars.com/web-api/restaurants", "brand": "Cheddar's Scratch Kitchen", "brand:wikidata": "Q5089187", "nsi_id": "cheddars-96af40"}, "geometry": {"type": "Point", "coordinates": [-83.98627, 35.76669]}},
{"type": "Feature", "id": "Vn8PcpuYcEEsyC9cQsF9aOZHAsY=", "properties": {"ref": "2182", "@spider": "cheddars_scratch_kitchen", "amenity": "restaurant", "cuisine": "american", "official_name": "Cheddar's Scratch Kitchen", "addr:full": "5555 Whittlesey Blvd", "addr:city": "Columbus", "addr:state": "GA", "addr:postcode": "319097212", "addr:country": "US", "name": "Columbus", "phone": "(706) 649-6690", "website": "https://www.cheddars.com/web-api/restaurants", "brand": "Cheddar's Scratch Kitchen", "brand:wikidata": "Q5089187", "nsi_id": "cheddars-96af40"}, "geometry": {"type": "Point", "coordinates": [-84.9519, 32.54434]}},
{"type": "Feature", "id": "OOQ72n2o3L93UM4J-eljZ83vPDo=", "properties": {"ref": "2074", "@spider": "cheddars_scratch_kitchen", "amenity": "restaurant", "cuisine": "american", "official_name": "Cheddar's Scratch Kitchen", "addr:full": "4941 Montgomery Hwy", "addr:city": "Dothan", "addr:state": "AL", "addr:postcode": "363031509", "addr:country": "US", "name": "Dothan", "phone": "(334) 677-0854", "website": "https://www.cheddars.com/web-api/restaurants", "brand": "Cheddar's Scratch Kitchen", "brand:wikidata": "Q5089187", "nsi_id": "cheddars-96af40"}, "geometry": {"type": "Point", "coordinates": [-85.448816, 31.270273]}},
{"type": "Feature", "id": "RTyioqGuyqtCjjFj2F0GGsHKgmI=", "properties": {"ref": "2183", "@spider": "cheddars_scratch_kitchen", "amenity": "restaurant", "cuisine": "american", "official_name": "Cheddar's Scratch Kitchen", "addr:full": "1965 Jonesboro Rd", "addr:city": "McDonough", "addr:state": "GA", "addr:postcode": "302535972", "addr:country": "US", "name": "McDonough", "phone": "(678) 759-8634", "website": "https://www.cheddars.com/web-api/restaurants", "brand": "Cheddar's Scratch Kitchen", "brand:wikidata": "Q5089187", "nsi_id": "cheddars-96af40"}, "geometry": {"type": "Point", "coordinates": [-84.220598, 33.463731]}},
{"type": "Feature", "id": "K2Z6NM-FqsPPYOgvxYYfzS9rBLw=", "properties": {"ref": "2138", "@spider": "cheddars_scratch_kitchen", "amenity": "restaurant", "cuisine": "american", "official_name": "Cheddar's Scratch Kitchen", "addr:full": "530 Winchester Ave", "addr:city": "Ashland", "addr:state": "KY", "addr:postcode": "411017334", "addr:country": "US", "name": "Ashland", "phone": "(606) 324-1045", "website": "https://www.cheddars.com/web-api/restaurants", "brand": "Cheddar's Scratch Kitchen", "brand:wikidata": "Q5089187", "nsi_id": "cheddars-96af40"}, "geometry": {"type": "Point", "coordinates": [-82.650618, 38.483657]}},
{"type": "Feature", "id": "93uRccbe2t_DjjuGi3qB6MQxXJo=", "properties": {"ref": "2150", "@spider": "cheddars_scratch_kitchen", "amenity": "restaurant", "cuisine": "american", "official_name": "Cheddar's Scratch Kitchen", "addr:full": "1009 Grand Central Ave", "addr:city": "Vienna", "addr:state": "WV", "addr:postcode": "261051063", "addr:country": "US", "name": "Parkersburg - Vienna", "phone": "(304) 295-6871", "website": "https://www.cheddars.com/web-api/restaurants", "brand": "Cheddar's Scratch Kitchen", "brand:wikidata": "Q5089187", "nsi_id": "cheddars-96af40"}, "geometry": {"type": "Point", "coordinates": [-81.553483, 39.310598]}},
{"type": "Feature", "id": "5q2cln0nUyVbreEoNzOS8MaAxiM=", "properties": {"ref": "2161", "@spider": "cheddars_scratch_kitchen", "amenity": "restaurant", "cuisine": "american", "official_name": "Cheddar's Scratch Kitchen", "addr:full": "3240 Parkway Dr", "addr:city": "Pigeon Forge", "addr:state": "TN", "addr:postcode": "378633422", "addr:country": "US", "name": "Pigeon Forge", "phone": "(865) 908-9555", "website": "https://www.cheddars.com/web-api/restaurants", "brand": "Cheddar's Scratch Kitchen", "brand:wikidata": "Q5089187", "nsi_id": "cheddars-96af40"}, "geometry": {"type": "Point", "coordinates": [-83.559698, 35.791305]}},
{"type": "Feature", "id": "0KdO4ZDsxqbN9WvxCGzcsJTnuNU=", "properties": {"ref": "2184", "@spider": "cheddars_scratch_kitchen", "amenity": "restaurant", "cuisine": "american", "official_name": "Cheddar's Scratch Kitchen", "addr:full": "1195 Dawsonville Hwy NW", "addr:city": "Gainesville", "addr:state": "GA", "addr:postcode": "305012601", "addr:country": "US", "name": "Gainesville", "phone": "(678) 450-4510", "website": "https://www.cheddars.com/web-api/restaurants", "brand": "Cheddar's Scratch Kitchen", "brand:wikidata": "Q5089187", "nsi_id": "cheddars-96af40"}, "geometry": {"type": "Point", "coordinates": [-83.860315, 34.30361]}},
{"type": "Feature", "id": "wtteZAahdF3Agoil5kH2y3sQ5Gw=", "properties": {"ref": "2126", "@spider": "cheddars_scratch_kitchen", "amenity": "restaurant", "cuisine": "american", "official_name": "Cheddar's Scratch Kitchen", "addr:full": "2004 N. Eastman Rd", "addr:city": "Kingsport", "addr:state": "TN", "addr:postcode": "376642314", "addr:country": "US", "name": "Kingsport", "phone": "(423) 230-5851", "website": "https://www.cheddars.com/web-api/restaurants", "brand": "Cheddar's Scratch Kitchen", "brand:wikidata": "Q5089187", "nsi_id": "cheddars-96af40"}, "geometry": {"type": "Point", "coordinates": [-82.51836, 36.54608]}},
{"type": "Feature", "id": "r4pfCw2mKB4OY5FzRp1yGXl3-a4=", "properties": {"ref": "2127", "@spider": "cheddars_scratch_kitchen", "amenity": "restaurant", "cuisine": "american", "official_name": "Cheddar's Scratch Kitchen", "addr:full": "3000 Franklin Terrace Dr", "addr:city": "Johnson City", "addr:state": "TN", "addr:postcode": "376044123", "addr:country": "US", "name": "Johnson City", "phone": "(423) 262-0087", "website": "https://www.cheddars.com/web-api/restaurants", "brand": "Cheddar's Scratch Kitchen", "brand:wikidata": "Q5089187", "nsi_id": "cheddars-96af40"}, "geometry": {"type": "Point", "coordinates": [-82.401369, 36.352509]}},
{"type": "Feature", "id": "v2gLchMyDkeALbpMWmyzF-It8Ps=", "properties": {"ref": "2180", "@spider": "cheddars_scratch_kitchen", "amenity": "restaurant", "cuisine": "american", "official_name": "Cheddar's Scratch Kitchen", "addr:full": "2040 Oconee Connector", "addr:city": "Athens", "addr:state": "GA", "addr:postcode": "306065785", "addr:country": "US", "name": "Athens", "phone": "(706) 353-0217", "website": "https://www.cheddars.com/web-api/restaurants", "brand": "Cheddar's Scratch Kitchen", "brand:wikidata": "Q5089187", "nsi_id": "cheddars-96af40"}, "geometry": {"type": "Point", "coordinates": [-83.449107, 33.914691]}},
{"type": "Feature", "id": "8bw65I-L0TvQrfKTzd9SaBD8Buc=", "properties": {"ref": "2179", "@spider": "cheddars_scratch_kitchen", "amenity": "restaurant", "cuisine": "american", "official_name": "Cheddar's Scratch Kitchen", "addr:full": "1111 North Westover Blvd", "addr:city": "Albany", "addr:state": "GA", "addr:postcode": "317076640", "addr:country": "US", "name": "Albany", "phone": "(229) 496-5720", "website": "https://www.cheddars.com/web-api/restaurants", "brand": "Cheddar's Scratch Kitchen", "brand:wikidata": "Q5089187", "nsi_id": "cheddars-96af40"}, "geometry": {"type": "Point", "coordinates": [-84.211456, 31.618015]}},
{"type": "Feature", "id": "6E68M6ZK51vuVSMqKp2uhiKEerI=", "properties": {"ref": "2188", "@spider": "cheddars_scratch_kitchen", "amenity": "restaurant", "cuisine": "american", "official_name": "Cheddar's Scratch Kitchen", "addr:full": "2915 Watson Blvd", "addr:city": "Warner Robins", "addr:state": "GA", "addr:postcode": "310938535", "addr:country": "US", "name": "Warner Robins", "phone": "(478) 971-1527", "website": "https://www.cheddars.com/web-api/restaurants", "brand": "Cheddar's Scratch Kitchen", "brand:wikidata": "Q5089187", "nsi_id": "cheddars-96af40"}, "geometry": {"type": "Point", "coordinates": [-83.68489, 32.61776]}},
{"type": "Feature", "id": "EPOtlMcAWBw5RB-axdJwFA50brI=", "properties": {"ref": "2133", "@spider": "cheddars_scratch_kitchen", "amenity": "restaurant", "cuisine": "american", "official_name": "Cheddar's Scratch Kitchen", "addr:full": "106 Bleachery Blvd", "addr:city": "Asheville", "addr:state": "NC", "addr:postcode": "288058209", "addr:country": "US", "name": "Asheville", "phone": "(828) 299-1168", "website": "https://www.cheddars.com/web-api/restaurants", "brand": "Cheddar's Scratch Kitchen", "brand:wikidata": "Q5089187", "nsi_id": "cheddars-96af40"}, "geometry": {"type": "Point", "coordinates": [-82.51254, 35.576273]}},
{"type": "Feature", "id": "BQJWBP9KTCpumz67OASEteRyG-o=", "properties": {"ref": "2069", "@spider": "cheddars_scratch_kitchen", "amenity": "restaurant", "cuisine": "american", "official_name": "Cheddar's Scratch Kitchen", "addr:full": "2085 Interchange Rd", "addr:city": "Erie", "addr:state": "PA", "addr:postcode": "165098315", "addr:country": "US", "name": "Erie", "phone": "(814) 864-9249", "website": "https://www.cheddars.com/web-api/restaurants", "brand": "Cheddar's Scratch Kitchen", "brand:wikidata": "Q5089187", "nsi_id": "cheddars-96af40"}, "geometry": {"type": "Point", "coordinates": [-80.103892, 42.064664]}},
{"type": "Feature", "id": "ggAKOTRHSHgCCoV7stP0PnvW44A=", "properties": {"ref": "2136", "@spider": "cheddars_scratch_kitchen", "amenity": "restaurant", "cuisine": "american", "official_name": "Cheddar's Scratch Kitchen", "addr:full": "120 Cabela Dr", "addr:city": "Triadelphia", "addr:state": "WV", "addr:postcode": "260591042", "addr:country": "US", "name": "Triadelphia - Wheeling", "phone": "(304) 547-0275", "website": "https://www.cheddars.com/web-api/restaurants", "brand": "Cheddar's Scratch Kitchen", "brand:wikidata": "Q5089187", "nsi_id": "cheddars-96af40"}, "geometry": {"type": "Point", "coordinates": [-80.598935, 40.061758]}},
{"type": "Feature", "id": "Tsso3liJn_asTmXDGbnuuoXmzdI=", "properties": {"ref": "2151", "@spider": "cheddars_scratch_kitchen", "amenity": "restaurant", "cuisine": "american", "official_name": "Cheddar's Scratch Kitchen", "addr:full": "1545 Old Airport Rd", "addr:city": "Bristol", "addr:state": "VA", "addr:postcode": "242018390", "addr:country": "US", "name": "Bristol", "phone": "(276) 644-4470", "website": "https://www.cheddars.com/web-api/restaurants", "brand": "Cheddar's Scratch Kitchen", "brand:wikidata": "Q5089187", "nsi_id": "cheddars-96af40"}, "geometry": {"type": "Point", "coordinates": [-82.12078, 36.62892]}},
{"type": "Feature", "id": "rdzBdPBcZ7dYxMYB6qH0WbauHsE=", "properties": {"ref": "2152", "@spider": "cheddars_scratch_kitchen", "amenity": "restaurant", "cuisine": "american", "official_name": "Cheddar's Scratch Kitchen", "addr:full": "4291 Robert Byrd Hwy", "addr:city": "Beckley", "addr:state": "WV", "addr:postcode": "258012223", "addr:country": "US", "name": "Beckley", "phone": "(304) 252-7123", "website": "https://www.cheddars.com/web-api/restaurants", "brand": "Cheddar's Scratch Kitchen", "brand:wikidata": "Q5089187", "nsi_id": "cheddars-96af40"}, "geometry": {"type": "Point", "coordinates": [-81.187181, 37.815489]}},
{"type": "Feature", "id": "plHCia3fwpIyfs_457v6PeAdUBM=", "properties": {"ref": "2058", "@spider": "cheddars_scratch_kitchen", "amenity": "restaurant", "cuisine": "american", "official_name": "Cheddar's Scratch Kitchen", "addr:full": "1025 Woodruff Rd", "addr:city": "Greenville", "addr:state": "SC", "addr:postcode": "296074132", "addr:country": "US", "name": "Greenville", "phone": "(864) 297-1046", "website": "https://www.cheddars.com/web-api/restaurants", "brand": "Cheddar's Scratch Kitchen", "brand:wikidata": "Q5089187", "nsi_id": "cheddars-96af40"}, "geometry": {"type": "Point", "coordinates": [-82.30779, 34.83256]}},
{"type": "Feature", "id": "9RgwGinLNs0Te9XrDyWrKoWRzvU=", "properties": {"ref": "2181", "@spider": "cheddars_scratch_kitchen", "amenity": "restaurant", "cuisine": "american", "official_name": "Cheddar's Scratch Kitchen", "addr:full": "3609 Walton Way Extension", "addr:city": "Augusta", "addr:state": "GA", "addr:postcode": "309091834", "addr:country": "US", "name": "Augusta", "phone": "(706) 738-7831", "website": "https://www.cheddars.com/web-api/restaurants", "brand": "Cheddar's Scratch Kitchen", "brand:wikidata": "Q5089187", "nsi_id": "cheddars-96af40"}, "geometry": {"type": "Point", "coordinates": [-82.073575, 33.489254]}},
{"type": "Feature", "id": "cRYJgij7HcdxyonRoQXyYe6b0Qw=", "properties": {"ref": "2187", "@spider": "cheddars_scratch_kitchen", "amenity": "restaurant", "cuisine": "american", "official_name": "Cheddar's Scratch Kitchen", "addr:full": "270 Norman Dr", "addr:city": "Valdosta", "addr:state": "GA", "addr:postcode": "316015100", "addr:country": "US", "name": "Valdosta", "phone": "(229) 247-5551", "website": "https://www.cheddars.com/web-api/restaurants", "brand": "Cheddar's Scratch Kitchen", "brand:wikidata": "Q5089187", "nsi_id": "cheddars-96af40"}, "geometry": {"type": "Point", "coordinates": [-83.317103, 30.824574]}},
{"type": "Feature", "id": "-JsRpnfDjVlMmQ4_Ca9ZeLZ2gCI=", "properties": {"ref": "2193", "@spider": "cheddars_scratch_kitchen", "amenity": "restaurant", "cuisine": "american", "official_name": "Cheddar's Scratch Kitchen", "addr:full": "2655 Roosevelt Blvd", "addr:city": "Clearwater", "addr:state": "FL", "addr:postcode": "337602512", "addr:country": "US", "name": "Largo", "phone": "(727) 536-7770", "website": "https://www.cheddars.com/web-api/restaurants", "brand": "Cheddar's Scratch Kitchen", "brand:wikidata": "Q5089187", "nsi_id": "cheddars-96af40"}, "geometry": {"type": "Point", "coordinates": [-82.72747, 27.91568]}},
{"type": "Feature", "id": "DzH-iV4COShfMEmgfmAOsO7EDhQ=", "properties": {"ref": "2173", "@spider": "cheddars_scratch_kitchen", "amenity": "restaurant", "cuisine": "american", "official_name": "Cheddar's Scratch Kitchen", "addr:full": "12280 Cortez Blvd", "addr:city": "Brooksville", "addr:state": "FL", "addr:postcode": "346132626", "addr:country": "US", "name": "Brooksville", "phone": "(352) 596-7094", "website": "https://www.cheddars.com/web-api/restaurants", "brand": "Cheddar's Scratch Kitchen", "brand:wikidata": "Q5089187", "nsi_id": "cheddars-96af40"}, "geometry": {"type": "Point", "coordinates": [-82.520214, 28.53295]}},
{"type": "Feature", "id": "sdyKeAfkO31diTASz5gpCg_ZZgU=", "properties": {"ref": "2083", "@spider": "cheddars_scratch_kitchen", "amenity": "restaurant", "cuisine": "american", "official_name": "Cheddar's Scratch Kitchen", "addr:full": "4101 Park Blvd", "addr:city": "Pinellas Park", "addr:state": "FL", "addr:postcode": "337813647", "addr:country": "US", "name": "Pinellas Park", "phone": "(727) 544-8518", "website": "https://www.cheddars.com/web-api/restaurants", "brand": "Cheddar's Scratch Kitchen", "brand:wikidata": "Q5089187", "nsi_id": "cheddars-96af40"}, "geometry": {"type": "Point", "coordinates": [-82.690154, 27.839716]}},
{"type": "Feature", "id": "eWjPKJbLaLtJw6APUmbh0tp1HIw=", "properties": {"ref": "2132", "@spider": "cheddars_scratch_kitchen", "amenity": "restaurant", "cuisine": "american", "official_name": "Cheddar's Scratch Kitchen", "addr:full": "2111 University Town Centre Dr", "addr:city": "Morgantown", "addr:state": "WV", "addr:postcode": "265012464", "addr:country": "US", "name": "Morgantown", "phone": "(304) 598-3233", "website": "https://www.cheddars.com/web-api/restaurants", "brand": "Cheddar's Scratch Kitchen", "brand:wikidata": "Q5089187", "nsi_id": "cheddars-96af40"}, "geometry": {"type": "Point", "coordinates": [-80.005527, 39.653511]}},
{"type": "Feature", "id": "R-gwkppgWQIrBoKHrV4Zq6vStGc=", "properties": {"ref": "2155", "@spider": "cheddars_scratch_kitchen", "amenity": "restaurant", "cuisine": "american", "official_name": "Cheddar's Scratch Kitchen", "addr:full": "2051 E Franklin Blvd", "addr:city": "Gastonia", "addr:state": "NC", "addr:postcode": "280544749", "addr:country": "US", "name": "Gastonia", "phone": "(704) 215-5594", "website": "https://www.cheddars.com/web-api/restaurants", "brand": "Cheddar's Scratch Kitchen", "brand:wikidata": "Q5089187", "nsi_id": "cheddars-96af40"}, "geometry": {"type": "Point", "coordinates": [-81.142465, 35.261058]}},
{"type": "Feature", "id": "_7okTIu8HZoZfOJZXi3gG419k8M=", "properties": {"ref": "2129", "@spider": "cheddars_scratch_kitchen", "amenity": "restaurant", "cuisine": "american", "official_name": "Cheddar's Scratch Kitchen", "addr:full": "620 University Center Blvd", "addr:city": "Charlotte", "addr:state": "NC", "addr:postcode": "282621513", "addr:country": "US", "name": "Charlotte", "phone": "(704) 503-7871", "website": "https://www.cheddars.com/web-api/restaurants", "brand": "Cheddar's Scratch Kitchen", "brand:wikidata": "Q5089187", "nsi_id": "cheddars-96af40"}, "geometry": {"type": "Point", "coordinates": [-80.75671, 35.30962]}},
{"type": "Feature", "id": "kM7UIJOd_DDj29Kinf9Xr0lguHA=", "properties": {"ref": "2049", "@spider": "cheddars_scratch_kitchen", "amenity": "restaurant", "cuisine": "american", "official_name": "Cheddar's Scratch Kitchen", "addr:full": "4814 Valley View", "addr:city": "Roanoke", "addr:state": "VA", "addr:postcode": "240122018", "addr:country": "US", "name": "Roanoke", "phone": "(540) 563-5555", "website": "https://www.cheddars.com/web-api/restaurants", "brand": "Cheddar's Scratch Kitchen", "brand:wikidata": "Q5089187", "nsi_id": "cheddars-96af40"}, "geometry": {"type": "Point", "coordinates": [-79.960896, 37.302966]}},
{"type": "Feature", "id": "uJ6iX5r71OIlZAxCXJYc82TShbE=", "properties": {"ref": "2186", "@spider": "cheddars_scratch_kitchen", "amenity": "restaurant", "cuisine": "american", "official_name": "Cheddar's Scratch Kitchen", "addr:full": "1425 Benton Blvd", "addr:city": "Pooler", "addr:state": "GA", "addr:postcode": "313222052", "addr:country": "US", "name": "Pooler", "phone": "(912) 330-9177", "website": "https://www.cheddars.com/web-api/restaurants", "brand": "Cheddar's Scratch Kitchen", "brand:wikidata": "Q5089187", "nsi_id": "cheddars-96af40"}, "geometry": {"type": "Point", "coordinates": [-81.24821, 32.14636]}},
{"type": "Feature", "id": "fKItLoaN5LFQB9qKcs5tapz4eH4=", "properties": {"ref": "2189", "@spider": "cheddars_scratch_kitchen", "amenity": "restaurant", "cuisine": "american", "official_name": "Cheddar's Scratch Kitchen", "addr:full": "551 Canal Rd", "addr:city": "Brunswick", "addr:state": "GA", "addr:postcode": "315256723", "addr:country": "US", "name": "Brunswick", "phone": "(912) 275-7384", "website": "https://www.cheddars.com/web-api/restaurants", "brand": "Cheddar's Scratch Kitchen", "brand:wikidata": "Q5089187", "nsi_id": "cheddars-96af40"}, "geometry": {"type": "Point", "coordinates": [-81.496314, 31.235199]}},
{"type": "Feature", "id": "ae8fsPA8rMtPIbPtHj1i_FuLb1g=", "properties": {"ref": "2176", "@spider": "cheddars_scratch_kitchen", "amenity": "restaurant", "cuisine": "american", "official_name": "Cheddar's Scratch Kitchen", "addr:full": "4065 SW College Rd", "addr:city": "Ocala", "addr:state": "FL", "addr:postcode": "344745712", "addr:country": "US", "name": "Ocala", "phone": "(352) 291-0641", "website": "https://www.cheddars.com/web-api/restaurants", "brand": "Cheddar's Scratch Kitchen", "brand:wikidata": "Q5089187", "nsi_id": "cheddars-96af40"}, "geometry": {"type": "Point", "coordinates": [-82.19238, 29.144104]}},
{"type": "Feature", "id": "1ksc_0WQ98_a-_jgjy7snNBLWzQ=", "properties": {"ref": "2120", "@spider": "cheddars_scratch_kitchen", "amenity": "restaurant", "cuisine": "american", "official_name": "Cheddar's Scratch Kitchen", "addr:full": "11004 N Dale Mabry Hwy", "addr:city": "Tampa", "addr:state": "FL", "addr:postcode": "336183802", "addr:country": "US", "name": "Tampa - Carrollwood", "phone": "(813) 964-5300", "website": "https://www.cheddars.com/web-api/restaurants", "brand": "Cheddar's Scratch Kitchen", "brand:wikidata": "Q5089187", "nsi_id": "cheddars-96af40"}, "geometry": {"type": "Point", "coordinates": [-82.505131, 28.048989]}},
{"type": "Feature", "id": "JOGbid__NFPGzIuvG3qmHMeiGkE=", "properties": {"ref": "2122", "@spider": "cheddars_scratch_kitchen", "amenity": "restaurant", "cuisine": "american", "official_name": "Cheddar's Scratch Kitchen", "addr:full": "2391 Sun Vista Dr", "addr:city": "Lutz", "addr:state": "FL", "addr:postcode": "335596813", "addr:country": "US", "name": "Lutz - Wesley Chapel", "phone": "(813) 948-3016", "website": "https://www.cheddars.com/web-api/restaurants", "brand": "Cheddar's Scratch Kitchen", "brand:wikidata": "Q5089187", "nsi_id": "cheddars-96af40"}, "geometry": {"type": "Point", "coordinates": [-82.393918, 28.191907]}},
{"type": "Feature", "id": "AkQDr9nTbqqIvnWUrcVKXaMyn1M=", "properties": {"ref": "2172", "@spider": "cheddars_scratch_kitchen", "amenity": "restaurant", "cuisine": "american", "official_name": "Cheddar's Scratch Kitchen", "addr:full": "4954 Town Center Parkway", "addr:city": "Jacksonville", "addr:state": "FL", "addr:postcode": "322468582", "addr:country": "US", "name": "Jacksonville", "phone": "(904) 564-2101", "website": "https://www.cheddars.com/web-api/restaurants", "brand": "Cheddar's Scratch Kitchen", "brand:wikidata": "Q5089187", "nsi_id": "cheddars-96af40"}, "geometry": {"type": "Point", "coordinates": [-81.534917, 30.255386]}},
{"type": "Feature", "id": "9iHRC6IzKIGUwoiVuEd54VJxD3k=", "properties": {"ref": "2121", "@spider": "cheddars_scratch_kitchen", "amenity": "restaurant", "cuisine": "american", "official_name": "Cheddar's Scratch Kitchen", "addr:full": "3411 S Florida Ave", "addr:city": "Lakeland", "addr:state": "FL", "addr:postcode": "338034755", "addr:country": "US", "name": "Lakeland", "phone": "(863) 647-2170", "website": "https://www.cheddars.com/web-api/restaurants", "brand": "Cheddar's Scratch Kitchen", "brand:wikidata": "Q5089187", "nsi_id": "cheddars-96af40"}, "geometry": {"type": "Point", "coordinates": [-81.957468, 28.002675]}},
{"type": "Feature", "id": "-LhCPXtejn-iZ2LdOPSM75_GGok=", "properties": {"ref": "2195", "@spider": "cheddars_scratch_kitchen", "amenity": "restaurant", "cuisine": "american", "official_name": "Cheddar's Scratch Kitchen", "addr:full": "7920 W Irlo Bronson Memorial Hwy", "addr:city": "Kissimmee", "addr:state": "FL", "addr:postcode": "347471731", "addr:country": "US", "name": "West Kissimmee", "phone": "(407) 787-3339", "website": "https://www.cheddars.com/web-api/restaurants", "brand": "Cheddar's Scratch Kitchen", "brand:wikidata": "Q5089187", "nsi_id": "cheddars-96af40"}, "geometry": {"type": "Point", "coordinates": [-81.603432, 28.344781]}},
{"type": "Feature", "id": "q2GhaDE-AVJG1gBpSzGLBz2g8Is=", "properties": {"ref": "2208", "@spider": "cheddars_scratch_kitchen", "amenity": "restaurant", "cuisine": "american", "official_name": "Cheddar's Scratch Kitchen", "addr:full": "18600 Veterans Blvd", "addr:city": "Port Charlotte", "addr:state": "FL", "addr:postcode": "339541018", "addr:country": "US", "name": "Port Charlotte", "phone": "(941) 467-3648", "website": "https://www.cheddars.com/web-api/restaurants", "brand": "Cheddar's Scratch Kitchen", "brand:wikidata": "Q5089187", "nsi_id": "cheddars-96af40"}, "geometry": {"type": "Point", "coordinates": [-82.14491, 27.01398]}},
{"type": "Feature", "id": "xoZenA1V9yZfifF0wDJgbQTBQE4=", "properties": {"ref": "2078", "@spider": "cheddars_scratch_kitchen", "amenity": "restaurant", "cuisine": "american", "official_name": "Cheddar's Scratch Kitchen", "addr:full": "10040 University Plaza Dr", "addr:city": "Fort Myers", "addr:state": "FL", "addr:postcode": "339136012", "addr:country": "US", "name": "Fort Myers", "phone": "(239) 561-3618", "website": "https://www.cheddars.com/web-api/restaurants", "brand": "Cheddar's Scratch Kitchen", "brand:wikidata": "Q5089187", "nsi_id": "cheddars-96af40"}, "geometry": {"type": "Point", "coordinates": [-81.784271, 26.49209]}},
{"type": "Feature", "id": "jXyJvc6T2DvguXEtPlMdCUQh3qM=", "properties": {"ref": "2197", "@spider": "cheddars_scratch_kitchen", "amenity": "restaurant", "cuisine": "american", "official_name": "Cheddar's Scratch Kitchen", "addr:full": "6109 Westwood Blvd.", "addr:city": "Orlando", "addr:state": "FL", "addr:postcode": "328218082", "addr:country": "US", "name": "Orlando - I-Drive", "phone": "(407) 345-8922", "website": "https://www.cheddars.com/web-api/restaurants", "brand": "Cheddar's Scratch Kitchen", "brand:wikidata": "Q5089187", "nsi_id": "cheddars-96af40"}, "geometry": {"type": "Point", "coordinates": [-81.460759, 28.419838]}},
{"type": "Feature", "id": "HlpbJgJKRtAoTkyDXxrFNlx-xtY=", "properties": {"ref": "2112", "@spider": "cheddars_scratch_kitchen", "amenity": "restaurant", "cuisine": "american", "official_name": "Cheddar's Scratch Kitchen", "addr:full": "875 Osceola Parkway", "addr:city": "Kissimmee", "addr:state": "FL", "addr:postcode": "347417551", "addr:country": "US", "name": "Kissimmee East - The Loop", "phone": "(407) 348-2159", "website": "https://www.cheddars.com/web-api/restaurants", "brand": "Cheddar's Scratch Kitchen", "brand:wikidata": "Q5089187", "nsi_id": "cheddars-96af40"}, "geometry": {"type": "Point", "coordinates": [-81.410266, 28.340278]}},
{"type": "Feature", "id": "_BF2CwiskKmPgSxoFW_tsmWngTU=", "properties": {"ref": "2085", "@spider": "cheddars_scratch_kitchen", "amenity": "restaurant", "cuisine": "american", "official_name": "Cheddar's Scratch Kitchen", "addr:full": "1650 Rinehart Rd", "addr:city": "Sanford", "addr:state": "FL", "addr:postcode": "327717496", "addr:country": "US", "name": "Sanford", "phone": "(407) 302-4120", "website": "https://www.cheddars.com/web-api/restaurants", "brand": "Cheddar's Scratch Kitchen", "brand:wikidata": "Q5089187", "nsi_id": "cheddars-96af40"}, "geometry": {"type": "Point", "coordinates": [-81.331754, 28.804172]}},
{"type": "Feature", "id": "XET7AUHBExs6wH8oAEQiFbnRhYo=", "properties": {"ref": "2090", "@spider": "cheddars_scratch_kitchen", "amenity": "restaurant", "cuisine": "american", "official_name": "Cheddar's Scratch Kitchen", "addr:full": "6650 S Semoran Blvd.", "addr:city": "Orlando", "addr:state": "FL", "addr:postcode": "328223242", "addr:country": "US", "name": "Orlando - Semoran Blvd", "phone": "(407) 438-8878", "website": "https://www.cheddars.com/web-api/restaurants", "brand": "Cheddar's Scratch Kitchen", "brand:wikidata": "Q5089187", "nsi_id": "cheddars-96af40"}, "geometry": {"type": "Point", "coordinates": [-81.311062, 28.467382]}},
{"type": "Feature", "id": "MhYIcGnSzWgO5pir1-FPhx3iZ4U=", "properties": {"ref": "2066", "@spider": "cheddars_scratch_kitchen", "amenity": "restaurant", "cuisine": "american", "official_name": "Cheddar's Scratch Kitchen", "addr:full": "225 N Mcpherson Church Rd", "addr:city": "Fayetteville", "addr:state": "NC", "addr:postcode": "283034403", "addr:country": "US", "name": "Fayetteville", "phone": "(910) 487-3722", "website": "https://www.cheddars.com/web-api/restaurants", "brand": "Cheddar's Scratch Kitchen", "brand:wikidata": "Q5089187", "nsi_id": "cheddars-96af40"}, "geometry": {"type": "Point", "coordinates": [-78.951892, 35.070316]}},
{"type": "Feature", "id": "c5GbZ7mRzeqDJiyhz8e8LUBnoE8=", "properties": {"ref": "2119", "@spider": "cheddars_scratch_kitchen", "amenity": "restaurant", "cuisine": "american", "official_name": "Cheddar's Scratch Kitchen", "addr:full": "1770 West International Speedway Blvd", "addr:city": "Daytona Beach", "addr:state": "FL", "addr:postcode": "32114", "addr:country": "US", "name": "Daytona Beach", "phone": "(386) 226-2645", "website": "https://www.cheddars.com/web-api/restaurants", "brand": "Cheddar's Scratch Kitchen", "brand:wikidata": "Q5089187", "nsi_id": "cheddars-96af40"}, "geometry": {"type": "Point", "coordinates": [-81.065312, 29.194477]}},
{"type": "Feature", "id": "jCnqZgku_jWM4SP4BoiMcnpW_6I=", "properties": {"ref": "2093", "@spider": "cheddars_scratch_kitchen", "amenity": "restaurant", "cuisine": "american", "official_name": "Cheddar's Scratch Kitchen", "addr:full": "12201 E Colonial Dr", "addr:city": "Orlando", "addr:state": "FL", "addr:postcode": "328264758", "addr:country": "US", "name": "Orlando - E Colonial Dr", "phone": "(407) 282-8100", "website": "https://www.cheddars.com/web-api/restaurants", "brand": "Cheddar's Scratch Kitchen", "brand:wikidata": "Q5089187", "nsi_id": "cheddars-96af40"}, "geometry": {"type": "Point", "coordinates": [-81.198109, 28.566346]}},
{"type": "Feature", "id": "VHPzGcLOELnslPvttg62RTeSeoo=", "properties": {"ref": "2084", "@spider": "cheddars_scratch_kitchen", "amenity": "restaurant", "cuisine": "american", "official_name": "Cheddar's Scratch Kitchen", "addr:full": "2130 W. New Haven Ave", "addr:city": "West Melbourne", "addr:state": "FL", "addr:postcode": "329043804", "addr:country": "US", "name": "West Melbourne", "phone": "(321) 409-0711", "website": "https://www.cheddars.com/web-api/restaurants", "brand": "Cheddar's Scratch Kitchen", "brand:wikidata": "Q5089187", "nsi_id": "cheddars-96af40"}, "geometry": {"type": "Point", "coordinates": [-80.657448, 28.079423]}},
{"type": "Feature", "id": "XVfzB7T62O3YkioGzoVmiAUJtjA=", "properties": {"ref": "2124", "@spider": "cheddars_scratch_kitchen", "amenity": "restaurant", "cuisine": "american", "official_name": "Cheddar's Scratch Kitchen", "addr:full": "1375 NW St Lucie West Blvd", "addr:city": "Port Saint Lucie", "addr:state": "FL", "addr:postcode": "349862196", "addr:country": "US", "name": "Port St. Lucie", "phone": "(772) 340-0242", "website": "https://www.cheddars.com/web-api/restaurants", "brand": "Cheddar's Scratch Kitchen", "brand:wikidata": "Q5089187", "nsi_id": "cheddars-96af40"}, "geometry": {"type": "Point", "coordinates": [-80.390137, 27.316142]}},
{"type": "Feature", "id": "b-qq1UZCmVZZn_Xfqzg7tT5FztY=", "properties": {"ref": "2200", "@spider": "cheddars_scratch_kitchen", "amenity": "restaurant", "cuisine": "american", "official_name": "Cheddar's Scratch Kitchen", "addr:full": "16455 SW 88th Street", "addr:city": "Miami", "addr:state": "FL", "addr:postcode": "331965826", "addr:country": "US", "name": "Kendall", "phone": "(305) 388-6236", "website": "https://www.cheddars.com/web-api/restaurants", "brand": "Cheddar's Scratch Kitchen", "brand:wikidata": "Q5089187", "nsi_id": "cheddars-96af40"}, "geometry": {"type": "Point", "coordinates": [-80.458484, 25.684465]}},
{"type": "Feature", "id": "KZGzf__qbQE2lVH8M4qLMK7JRNU=", "properties": {"ref": "2198", "@spider": "cheddars_scratch_kitchen", "amenity": "restaurant", "cuisine": "american", "official_name": "Cheddar's Scratch Kitchen", "addr:full": "16020 Pines Blvd", "addr:city": "Pembroke Pines", "addr:state": "FL", "addr:postcode": "330271112", "addr:country": "US", "name": "Pembroke Pines", "phone": "(954) 364-0539", "website": "https://www.cheddars.com/web-api/restaurants", "brand": "Cheddar's Scratch Kitchen", "brand:wikidata": "Q5089187", "nsi_id": "cheddars-96af40"}, "geometry": {"type": "Point", "coordinates": [-80.359976, 26.007237]}},
{"type": "Feature", "id": "75TprP2soeJ0jXGxEY2P197KORM=", "properties": {"ref": "2190", "@spider": "cheddars_scratch_kitchen", "amenity": "restaurant", "cuisine": "american", "official_name": "Cheddar's Scratch Kitchen", "addr:full": "3722 Plank Road", "addr:city": "Fredericksburg", "addr:state": "VA", "addr:postcode": "224076835", "addr:country": "US", "name": "Fredericksburg", "phone": "(540) 548-2469", "website": "https://www.cheddars.com/web-api/restaurants", "brand": "Cheddar's Scratch Kitchen", "brand:wikidata": "Q5089187", "nsi_id": "cheddars-96af40"}, "geometry": {"type": "Point", "coordinates": [-77.523415, 38.291903]}},
{"type": "Feature", "id": "LMz9gqX1EXgq7zF-5Ij2BozgA3c=", "properties": {"ref": "2059", "@spider": "cheddars_scratch_kitchen", "amenity": "restaurant", "cuisine": "american", "official_name": "Cheddar's Scratch Kitchen", "addr:full": "1340 Toronita St", "addr:city": "York", "addr:state": "PA", "addr:postcode": "174021918", "addr:country": "US", "name": "York", "phone": "(717) 848-1079", "website": "https://www.cheddars.com/web-api/restaurants", "brand": "Cheddar's Scratch Kitchen", "brand:wikidata": "Q5089187", "nsi_id": "cheddars-96af40"}, "geometry": {"type": "Point", "coordinates": [-76.728316, 39.983383]}},
{"type": "Feature", "id": "VdkVZ3rgbegZrkBm_9bBqNhckvs=", "properties": {"ref": "2077", "@spider": "cheddars_scratch_kitchen", "amenity": "restaurant", "cuisine": "american", "official_name": "Cheddar's Scratch Kitchen", "addr:full": "15804 Crain Hwy", "addr:city": "Brandywine", "addr:state": "MD", "addr:postcode": "206138077", "addr:country": "US", "name": "Brandywine", "phone": "(301) 782-7277", "website": "https://www.cheddars.com/web-api/restaurants", "brand": "Cheddar's Scratch Kitchen", "brand:wikidata": "Q5089187", "nsi_id": "cheddars-96af40"}, "geometry": {"type": "Point", "coordinates": [-76.87431, 38.677774]}},
{"type": "Feature", "id": "UWSZmyL9Aqu3Y1eGOwR6oW2QZiE=", "properties": {"ref": "2056", "@spider": "cheddars_scratch_kitchen", "amenity": "restaurant", "cuisine": "american", "official_name": "Cheddar's Scratch Kitchen", "addr:full": "901 Criswell Drive", "addr:city": "Greenville", "addr:state": "NC", "addr:postcode": "278346757", "addr:country": "US", "name": "Greenville", "phone": "(252) 321-1002", "website": "https://www.cheddars.com/web-api/restaurants", "brand": "Cheddar's Scratch Kitchen", "brand:wikidata": "Q5089187", "nsi_id": "cheddars-96af40"}, "geometry": {"type": "Point", "coordinates": [-77.404933, 35.565638]}},
{"type": "Feature", "id": "JWLRRvcpLXIVlHshM96wc5QZJmA=", "properties": {"ref": "9005", "@spider": "cheddars_scratch_kitchen", "amenity": "restaurant", "cuisine": "american", "official_name": "Cheddar's Scratch Kitchen", "addr:full": "925 S State Road 7", "addr:city": "Wellington", "addr:state": "FL", "addr:postcode": "33414", "addr:country": "US", "name": "Wellington, FL", "phone": "(561) 345-2880", "website": "https://www.cheddars.com/web-api/restaurants", "brand": "Cheddar's Scratch Kitchen", "brand:wikidata": "Q5089187", "nsi_id": "cheddars-96af40"}, "geometry": {"type": "Point", "coordinates": [-80.203002, 26.6651]}},
{"type": "Feature", "id": "PYfRUdD-A5CAG69PExnH8_eWLo0=", "properties": {"ref": "2008", "@spider": "cheddars_scratch_kitchen", "amenity": "restaurant", "cuisine": "american", "official_name": "Cheddar's Scratch Kitchen", "addr:full": "12280 Jefferson Ave", "addr:city": "Newport News", "addr:state": "VA", "addr:postcode": "236026969", "addr:country": "US", "name": "Newport News", "phone": "(757) 249-4000", "website": "https://www.cheddars.com/web-api/restaurants", "brand": "Cheddar's Scratch Kitchen", "brand:wikidata": "Q5089187", "nsi_id": "cheddars-96af40"}, "geometry": {"type": "Point", "coordinates": [-76.49848, 37.11186]}},
{"type": "Feature", "id": "LWrjpfQuKI0FIrv0QWGzWPuDAbo=", "properties": {"ref": "2082", "@spider": "cheddars_scratch_kitchen", "amenity": "restaurant", "cuisine": "american", "official_name": "Cheddar's Scratch Kitchen", "addr:full": "4590 South Dupont Hwy", "addr:city": "Camden", "addr:state": "DE", "addr:postcode": "199341363", "addr:country": "US", "name": "Camden", "phone": "(302) 698-3270", "website": "https://www.cheddars.com/web-api/restaurants", "brand": "Cheddar's Scratch Kitchen", "brand:wikidata": "Q5089187", "nsi_id": "cheddars-96af40"}, "geometry": {"type": "Point", "coordinates": [-75.546291, 39.096062]}},
{"type": "Feature", "id": "97r65Rp-L73SYCKY1V4XSW1fOIA=", "properties": {"ref": "2072", "@spider": "cheddars_scratch_kitchen", "amenity": "restaurant", "cuisine": "american", "official_name": "Cheddar's Scratch Kitchen", "addr:full": "2007 Western Blvd", "addr:city": "Jacksonville", "addr:state": "NC", "addr:postcode": "285466900", "addr:country": "US", "name": "Jacksonville", "phone": "(910) 346-5001", "website": "https://www.cheddars.com/web-api/restaurants", "brand": "Cheddar's Scratch Kitchen", "brand:wikidata": "Q5089187", "nsi_id": "cheddars-96af40"}, "geometry": {"type": "Point", "coordinates": [-77.407157, 34.79116]}}]}