{"type":"FeatureCollection","features":[{"type": "Feature", "id": "6sH18tJhD8NWNcyH_IFK_c6VFts=", "properties": {"ref": "6229", "@spider": "chef_and_brewer", "amenity": "pub", "addr:full": "44 High Street, Wick, Bristol, BS30 5QH", "addr:postcode": "BS30 5QH", "addr:country": "GB", "name": "Rose & Crown", "phone": "01179 372198", "website": "https://www.chefandbrewer.com/pubs/avon/rose-crown/", "contact:email": "6229@greeneking.co.uk", "opening_hours": "Mo-Fr 11:00-23:00; Sa 09:30-23:00; Su 09:30-22:30", "image": "https://www.chefandbrewer.com/q/i/6229/", "brand": "Chef & Brewer", "brand:wikidata": "Q5089491", "nsi_id": "chefandbrewer-eaed91"}, "geometry": {"type": "Point", "coordinates": [-2.426634, 51.452491]}},
{"type": "Feature", "id": "DKJocGHSNzh4Aa8o2FRpL_oC2zM=", "properties": {"ref": "6123", "@spider": "chef_and_brewer", "amenity": "pub", "addr:full": "Billericay Road, Herongate, Brentwood, CM13 3PS", "addr:postcode": "CM13 3PS", "addr:country": "GB", "name": "Boars Head", "phone": "01277 810324", "website": "https://www.chefandbrewer.com/pubs/essex/boars-head/", "contact:email": "6123@greeneking.co.uk", "opening_hours": "Mo-Fr 11:00-23:00; Sa 09:30-23:00; Su 09:30-22:30", "image": "https://www.chefandbrewer.com/q/i/6123/", "brand": "Chef & Brewer", "brand:wikidata": "Q5089491", "nsi_id": "chefandbrewer-eaed91"}, "geometry": {"type": "Point", "coordinates": [0.353879, 51.594805]}},
{"type": "Feature", "id": "ZlIQJVEL5KyLntFl0WVGDJJgQPE=", "properties": {"ref": "6202", "@spider": "chef_and_brewer", "amenity": "pub", "addr:full": "Roxwell Road, Writtle, Chelmsford, CM1 3RU", "addr:postcode": "CM1 3RU", "addr:country": "GB", "name": "Horse & Groom", "phone": "01245 420245", "website": "https://www.chefandbrewer.com/pubs/essex/horse-groom/", "contact:email": "6202@greeneking.co.uk", "opening_hours": "Mo-Fr 11:00-23:00; Sa 09:30-23:00; Su 09:30-22:30", "image": "https://www.chefandbrewer.com/q/i/6202/", "brand": "Chef & Brewer", "brand:wikidata": "Q5089491", "nsi_id": "chefandbrewer-eaed91"}, "geometry": {"type": "Point", "coordinates": [0.434724, 51.741]}},
{"type": "Feature", "id": "3hPfxu4cIZKycpl2A2z7vcFSA44=", "properties": {"ref": "7773", "@spider": "chef_and_brewer", "amenity": "pub", "addr:full": "Fox Lane, Wimborne, BH21 2EQ", "addr:postcode": "BH21 2EQ", "addr:country": "GB", "name": "Fox & Hounds", "phone": "01202 872 881", "website": "https://www.chefandbrewer.com/pubs/dorset/fox-hounds/", "contact:email": "7773@greeneking.co.uk", "opening_hours": "Mo-Sa 11:00-23:00; Su 11:00-22:30", "image": "https://www.chefandbrewer.com/q/i/7773/", "brand": "Chef & Brewer", "brand:wikidata": "Q5089491", "nsi_id": "chefandbrewer-eaed91"}, "geometry": {"type": "Point", "coordinates": [-1.937061, 50.799566]}},
{"type": "Feature", "id": "4bGFV4weP5kydG_5sQ0SZxK69UA=", "properties": {"ref": "6212", "@spider": "chef_and_brewer", "amenity": "pub", "addr:full": "95 Ashbourne Road, Mackworth, Derby, DE22 4LZ", "addr:postcode": "DE22 4LZ", "addr:country": "GB", "name": "Mundy Arms", "phone": "01332 824254", "website": "https://www.chefandbrewer.com/pubs/derbyshire/mundy-arms/", "contact:email": "6212@greeneking.co.uk", "opening_hours": "Mo-Fr 11:00-23:00; Sa 09:30-23:00; Su 09:30-22:30", "image": "https://www.chefandbrewer.com/q/i/6212/", "brand": "Chef & Brewer", "brand:wikidata": "Q5089491", "nsi_id": "chefandbrewer-eaed91"}, "geometry": {"type": "Point", "coordinates": [-1.534863, 52.935161]}},
{"type": "Feature", "id": "AV0FzMA7KeYlGpCIo4gjEPtnGhU=", "properties": {"ref": "6200", "@spider": "chef_and_brewer", "amenity": "pub", "addr:full": "Chester High Road, Neston, CH64 7TA", "addr:postcode": "CH64 7TA", "addr:country": "GB", "name": "Hinderton Arms", "phone": "01513 361085", "website": "https://www.chefandbrewer.com/pubs/cheshire/hinderton-arms/", "contact:email": "6200@greeneking.co.uk", "opening_hours": "Mo-Fr 11:00-23:00; Sa 09:30-23:00; Su 09:30-22:30", "image": "https://www.chefandbrewer.com/q/i/6200/", "brand": "Chef & Brewer", "brand:wikidata": "Q5089491", "nsi_id": "chefandbrewer-eaed91"}, "geometry": {"type": "Point", "coordinates": [-3.04325, 53.29473]}},
{"type": "Feature", "id": "cH6WkGohKrQrKMjzjhGyMGz8D5c=", "properties": {"ref": "6095", "@spider": "chef_and_brewer", "amenity": "pub", "addr:full": "14 Manchester Road, Cheadle, SK8 2NP", "addr:postcode": "SK8 2NP", "addr:country": "GB", "name": "Ashlea", "phone": "01614 280413", "website": "https://www.chefandbrewer.com/pubs/cheshire/ashlea/", "contact:email": "6095@greeneking.co.uk", "opening_hours": "Mo-Fr 11:00-23:00; Sa 09:30-23:00; Su 09:30-22:30", "image": "https://www.chefandbrewer.com/q/i/6095/", "brand": "Chef & Brewer", "brand:wikidata": "Q5089491", "nsi_id": "chefandbrewer-eaed91"}, "geometry": {"type": "Point", "coordinates": [-2.213225, 53.396637]}},
{"type": "Feature", "id": "ZW5cFXBbWSIEmikkV7EMSqQ3YrI=", "properties": {"ref": "6097", "@spider": "chef_and_brewer", "amenity": "pub", "addr:full": "School Lane, Dunham Massey, Altrincham, WA14 4SE", "addr:postcode": "WA14 4SE", "addr:country": "GB", "name": "Axe & Cleaver", "phone": "01619 283391", "website": "https://www.chefandbrewer.com/pubs/cheshire/axe-cleaver/", "contact:email": "6097@greeneking.co.uk", "opening_hours": "Mo-Fr 11:00-23:00; Sa 09:30-23:00; Su 09:30-22:30", "image": "https://www.chefandbrewer.com/q/i/6097/", "brand": "Chef & Brewer", "brand:wikidata": "Q5089491", "nsi_id": "chefandbrewer-eaed91"}, "geometry": {"type": "Point", "coordinates": [-2.391974, 53.38858]}},
{"type": "Feature", "id": "T2PxZubZGQFdqRmY33dLoGRiW0Q=", "properties": {"ref": "1648", "@spider": "chef_and_brewer", "amenity": "pub", "addr:full": "Middlewich Road, Wistaston, Crewe, CW2 8SB", "addr:postcode": "CW2 8SB", "addr:country": "GB", "name": "Rising Sun Inn", "phone": "01270 213782", "website": "https://www.chefandbrewer.com/pubs/cheshire/rising-sun-inn/", "contact:email": "1648@greeneking.co.uk", "opening_hours": "Mo-Fr 11:00-23:00; Sa 09:30-23:00; Su 09:30-22:30", "image": "https://www.chefandbrewer.com/q/i/1648/", "brand": "Chef & Brewer", "brand:wikidata": "Q5089491", "nsi_id": "chefandbrewer-eaed91"}, "geometry": {"type": "Point", "coordinates": [-2.489169, 53.091499]}},
{"type": "Feature", "id": "Z76x3R7zoZ9KfAu2jTmdcx6amw0=", "properties": {"ref": "6328", "@spider": "chef_and_brewer", "amenity": "pub", "addr:full": "184 Warrington Road, Bold Heath, Widnes, WA8 3XT", "addr:postcode": "WA8 3XT", "addr:country": "GB", "name": "Griffin", "phone": "01514 245143", "website": "https://www.chefandbrewer.com/pubs/cheshire/griffin-bold-heath/", "contact:email": "6328@greeneking.co.uk", "opening_hours": "Mo-Fr 11:00-23:00; Sa 09:30-23:00; Su 09:30-22:30", "image": "https://www.chefandbrewer.com/q/i/6328/", "brand": "Chef & Brewer", "brand:wikidata": "Q5089491", "nsi_id": "chefandbrewer-eaed91"}, "geometry": {"type": "Point", "coordinates": [-2.700594, 53.397524]}},
{"type": "Feature", "id": "Db-24n6_rOlBOZPnXQ2QNqSqIGY=", "properties": {"ref": "6170", "@spider": "chef_and_brewer", "amenity": "pub", "addr:full": "2 Congleton Road, Alderley Edge, SK9 7AA", "addr:postcode": "SK9 7AA", "addr:country": "GB", "name": "De Trafford Arms", "phone": "01625 583881", "website": "https://www.chefandbrewer.com/pubs/cheshire/de-trafford-arms/", "contact:email": "6170@greeneking.co.uk", "opening_hours": "Mo-Fr 11:00-23:00; Sa 09:30-23:00; Su 09:30-22:30", "image": "https://www.chefandbrewer.com/q/i/6170/", "brand": "Chef & Brewer", "brand:wikidata": "Q5089491", "nsi_id": "chefandbrewer-eaed91"}, "geometry": {"type": "Point", "coordinates": [-2.236646, 53.299774]}},
{"type": "Feature", "id": "FIhG3Q2hfUjFSrzI7rnnsNK2zBM=", "properties": {"ref": "6245", "@spider": "chef_and_brewer", "amenity": "pub", "addr:full": "Golborne Road, Winwick, Warrington, WA2 8LF", "addr:postcode": "WA2 8LF", "addr:country": "GB", "name": "Swan", "phone": "01925 631416", "website": "https://www.chefandbrewer.com/pubs/cheshire/swan/", "contact:email": "6245@greeneking.co.uk", "opening_hours": "Mo-Fr 11:00-23:00; Sa 09:30-23:00; Su 09:30-22:30", "image": "https://www.chefandbrewer.com/q/i/6245/", "brand": "Chef & Brewer", "brand:wikidata": "Q5089491", "nsi_id": "chefandbrewer-eaed91"}, "geometry": {"type": "Point", "coordinates": [-2.596961, 53.429854]}},
{"type": "Feature", "id": "yn5gck-rpBDCGQtw8wkfR0xVIJo=", "properties": {"ref": "6196", "@spider": "chef_and_brewer", "amenity": "pub", "addr:full": "Stamford Road, Bowdon, Altrincham, WA14 2TP", "addr:postcode": "WA14 2TP", "addr:country": "GB", "name": "Griffin", "phone": "01619 281211", "website": "https://www.chefandbrewer.com/pubs/cheshire/griffin/", "contact:email": "6196@greeneking.co.uk", "opening_hours": "Mo-Fr 11:00-23:00; Sa 09:30-23:00; Su 09:30-22:30", "image": "https://www.chefandbrewer.com/q/i/6196/", "brand": "Chef & Brewer", "brand:wikidata": "Q5089491", "nsi_id": "chefandbrewer-eaed91"}, "geometry": {"type": "Point", "coordinates": [-2.363411, 53.378045]}},
{"type": "Feature", "id": "u6seJUDzF476fvJo1zAhXYP5dGQ=", "properties": {"ref": "6228", "@spider": "chef_and_brewer", "amenity": "pub", "addr:full": "Wilmslow Road, Ringway, Altrincham, WA15 8XJ", "addr:postcode": "WA15 8XJ", "addr:country": "GB", "name": "Romper", "phone": "01619 039473", "website": "https://www.chefandbrewer.com/pubs/cheshire/romper/", "contact:email": "6228@greeneking.co.uk", "opening_hours": "Mo-Fr 11:00-23:00; Sa 09:30-23:00; Su 09:30-22:30", "image": "https://www.chefandbrewer.com/q/i/6228/", "brand": "Chef & Brewer", "brand:wikidata": "Q5089491", "nsi_id": "chefandbrewer-eaed91"}, "geometry": {"type": "Point", "coordinates": [-2.288858, 53.358948]}},
{"type": "Feature", "id": "LgsYRv6XVlWPWnoentoEuet82pk=", "properties": {"ref": "6143", "@spider": "chef_and_brewer", "amenity": "pub", "addr:full": "30 Wilmslow Road, Wilmslow, SK9 3EW", "addr:postcode": "SK9 3EW", "addr:country": "GB", "name": "Bulls Head", "phone": "01625 535544", "website": "https://www.chefandbrewer.com/pubs/cheshire/bulls-head/", "contact:email": "6143@greeneking.co.uk", "opening_hours": "Mo-Fr 11:00-23:00; Sa 09:30-23:00; Su 09:30-22:30", "image": "https://www.chefandbrewer.com/q/i/6143/", "brand": "Chef & Brewer", "brand:wikidata": "Q5089491", "nsi_id": "chefandbrewer-eaed91"}, "geometry": {"type": "Point", "coordinates": [-2.216407, 53.34543]}},
{"type": "Feature", "id": "rxOMd68PDtD0hmh9O70VpCALYF4=", "properties": {"ref": "6225", "@spider": "chef_and_brewer", "amenity": "pub", "addr:full": "7 Chester Road, Daresbury, Warrington, WA4 4AJ", "addr:postcode": "WA4 4AJ", "addr:country": "GB", "name": "Ring O' Bells", "phone": "01925 740256", "website": "https://www.chefandbrewer.com/pubs/cheshire/ring-o-bells/", "contact:email": "6225@greeneking.co.uk", "opening_hours": "Mo-Fr 11:00-23:00; Sa 09:30-23:00; Su 09:30-22:30", "image": "https://www.chefandbrewer.com/q/i/6225/", "brand": "Chef & Brewer", "brand:wikidata": "Q5089491", "nsi_id": "chefandbrewer-eaed91"}, "geometry": {"type": "Point", "coordinates": [-2.633022, 53.340883]}},
{"type": "Feature", "id": "pYKQgT0gBn6IzZ4c-G4UsxXzLS0=", "properties": {"ref": "5807", "@spider": "chef_and_brewer", "amenity": "pub", "addr:full": "Cound, Shrewsbury, SY5 6AF", "addr:postcode": "SY5 6AF", "addr:country": "GB", "name": "Riverside Inn", "phone": "01743 296613", "website": "https://www.chefandbrewer.com/pubs/shropshire/riverside-inn/", "contact:email": "5807@greeneking.co.uk", "opening_hours": "Mo-Sa 09:00-23:00; Su 09:00-22:30", "image": "https://www.chefandbrewer.com/q/i/5807/", "brand": "Chef & Brewer", "brand:wikidata": "Q5089491", "nsi_id": "chefandbrewer-eaed91"}, "geometry": {"type": "Point", "coordinates": [-2.63408, 52.64169]}},
{"type": "Feature", "id": "hADP_8KO9qhxZ7eSz587n36-IrI=", "properties": {"ref": "6182", "@spider": "chef_and_brewer", "amenity": "pub", "addr:full": "Bransford Court Lane, Bransford, Worcester, WR6 5JL", "addr:postcode": "WR6 5JL", "addr:country": "GB", "name": "Fox Inn", "phone": "01886 832247", "website": "https://www.chefandbrewer.com/pubs/worcestershire/fox-inn/", "contact:email": "6182@greeneking.co.uk", "opening_hours": "Mo-Fr 11:00-23:00; Sa 09:30-23:00; Su 09:30-22:30", "image": "https://www.chefandbrewer.com/q/i/6182/", "brand": "Chef & Brewer", "brand:wikidata": "Q5089491", "nsi_id": "chefandbrewer-eaed91"}, "geometry": {"type": "Point", "coordinates": [-2.287574, 52.176045]}},
{"type": "Feature", "id": "tAaWMlCQrlWJXpyEH-fHHlTL-O8=", "properties": {"ref": "6211", "@spider": "chef_and_brewer", "amenity": "pub", "addr:full": "Worcester Road, Summerfield, Kidderminster, DY11 7RF", "addr:postcode": "DY11 7RF", "addr:country": "GB", "name": "Mare & Colt", "phone": "01562 824116", "website": "https://www.chefandbrewer.com/pubs/worcestershire/mare-colt/", "contact:email": "6211@greeneking.co.uk", "opening_hours": "Mo-Fr 11:00-23:00; Sa 09:30-23:00; Su 09:30-22:30", "image": "https://www.chefandbrewer.com/q/i/6211/", "brand": "Chef & Brewer", "brand:wikidata": "Q5089491", "nsi_id": "chefandbrewer-eaed91"}, "geometry": {"type": "Point", "coordinates": [-2.233845, 52.358793]}},
{"type": "Feature", "id": "SzEx1gT0MB_SFDDV2IMZdI3kKW8=", "properties": {"ref": "6231", "@spider": "chef_and_brewer", "amenity": "pub", "addr:full": "Longbank, Bewdley, DY12 2QP", "addr:postcode": "DY12 2QP", "addr:country": "GB", "name": "Running Horse Inn", "phone": "01299 402161", "website": "https://www.chefandbrewer.com/pubs/worcestershire/running-horse-inn/", "contact:email": "6231@greeneking.co.uk", "opening_hours": "Mo-Fr 11:00-23:00; Sa 09:30-23:00; Su 09:30-22:30", "image": "https://www.chefandbrewer.com/q/i/6231/", "brand": "Chef & Brewer", "brand:wikidata": "Q5089491", "nsi_id": "chefandbrewer-eaed91"}, "geometry": {"type": "Point", "coordinates": [-2.347377, 52.368244]}},
{"type": "Feature", "id": "qdg6_Ic0PgEzvqZ3g-djf6vHFG4=", "properties": {"ref": "7928", "@spider": "chef_and_brewer", "amenity": "pub", "addr:full": "High Street, Avebury, Marlborough, SN8 1RF", "addr:postcode": "SN8 1RF", "addr:country": "GB", "name": "Red Lion", "phone": "01672 539266", "website": "https://www.chefandbrewer.com/pubs/wiltshire/red-lion/", "contact:email": "7928@Greeneking.co.uk", "opening_hours": "Mo-Th 10:30-23:00; Fr-Sa 09:30-23:00; Su 09:30-22:30", "image": "https://www.chefandbrewer.com/q/i/7928/", "brand": "Chef & Brewer", "brand:wikidata": "Q5089491", "nsi_id": "chefandbrewer-eaed91"}, "geometry": {"type": "Point", "coordinates": [-1.854728, 51.428659]}},
{"type": "Feature", "id": "SOsHF0RWxC4YBBp4IFXQP4fLWaM=", "properties": {"ref": "6165", "@spider": "chef_and_brewer", "amenity": "pub", "addr:full": "Ermin Street, Blunsdon, Swindon, SN26 8DJ", "addr:postcode": "SN26 8DJ", "addr:country": "GB", "name": "Cold Harbour", "phone": "01793 724840", "website": "https://www.chefandbrewer.com/pubs/wiltshire/cold-harbour/", "contact:email": "6165@greeneking.co.uk", "opening_hours": "Mo-Fr 07:00-23:00; Sa 08:00-23:00; Su 08:00-22:30", "image": "https://www.chefandbrewer.com/q/i/6165/", "brand": "Chef & Brewer", "brand:wikidata": "Q5089491", "nsi_id": "chefandbrewer-eaed91"}, "geometry": {"type": "Point", "coordinates": [-1.787389, 51.609066]}},
{"type": "Feature", "id": "5csvUjmSXu8m_4GLcFTEAX6zjtc=", "properties": {"ref": "5802", "@spider": "chef_and_brewer", "amenity": "pub", "addr:full": "43 Otley Road, Baildon, Shipley, BD17 7PY", "addr:postcode": "BD17 7PY", "addr:country": "GB", "name": "Halfway House", "phone": "01274 924796", "website": "https://www.chefandbrewer.com/pubs/west-yorkshire/halfway-house/", "opening_hours": "Mo-Fr 11:00-23:00; Sa 09:30-23:00; Su 09:30-22:30", "image": "https://www.chefandbrewer.com/q/i/5802/", "brand": "Chef & Brewer", "brand:wikidata": "Q5089491", "nsi_id": "chefandbrewer-eaed91"}, "geometry": {"type": "Point", "coordinates": [-1.752202, 53.846153]}},
{"type": "Feature", "id": "q0zGUuPAmUhglaTiU_v0MwYG3Hg=", "properties": {"ref": "6264", "@spider": "chef_and_brewer", "amenity": "pub", "addr:full": "55 Wetherby Road, Roundhay, Leeds, LS8 2JU", "addr:postcode": "LS8 2JU", "addr:country": "GB", "name": "White House", "phone": "01132 656446", "website": "https://www.chefandbrewer.com/pubs/west-yorkshire/white-house/", "contact:email": "6264@greeneking.co.uk", "opening_hours": "Mo-Fr 11:00-23:00; Sa 09:30-23:00; Su 09:30-22:30", "image": "https://www.chefandbrewer.com/q/i/6264/", "brand": "Chef & Brewer", "brand:wikidata": "Q5089491", "nsi_id": "chefandbrewer-eaed91"}, "geometry": {"type": "Point", "coordinates": [-1.496859, 53.830685]}},
{"type": "Feature", "id": "0Jx8k-e--wDJ56CGPcCM-q7W680=", "properties": {"ref": "6218", "@spider": "chef_and_brewer", "amenity": "pub", "addr:full": "Wakefield Road, Brighouse, Wakefield, HD6 4HA", "addr:postcode": "HD6 4HA", "addr:country": "GB", "name": "Old Mill", "phone": "01484 402161", "website": "https://www.chefandbrewer.com/pubs/west-yorkshire/old-mill/", "contact:email": "6218@greeneking.co.uk", "opening_hours": "Mo-Fr 11:00-23:00; Sa 09:30-23:00; Su 09:30-22:30", "image": "https://www.chefandbrewer.com/q/i/6218/", "brand": "Chef & Brewer", "brand:wikidata": "Q5089491", "nsi_id": "chefandbrewer-eaed91"}, "geometry": {"type": "Point", "coordinates": [-1.744613, 53.69348]}},
{"type": "Feature", "id": "Mnq6WhqryYHc2T6KSnOxtt-IKek=", "properties": {"ref": "6243", "@spider": "chef_and_brewer", "amenity": "pub", "addr:full": "London Road, Felbridge, East Grinstead, RH19 2QR", "addr:postcode": "RH19 2QR", "addr:country": "GB", "name": "Star Inn", "phone": "01342 323239", "website": "https://www.chefandbrewer.com/pubs/west-sussex/star-inn/", "contact:email": "6243@greeneking.co.uk", "opening_hours": "Mo-Fr 11:00-23:00; Sa 09:30-23:00; Su 09:30-22:30", "image": "https://www.chefandbrewer.com/q/i/6243/", "brand": "Chef & Brewer", "brand:wikidata": "Q5089491", "nsi_id": "chefandbrewer-eaed91"}, "geometry": {"type": "Point", "coordinates": [-0.038978, 51.139675]}},
{"type": "Feature", "id": "Ol6sKw2Zps_E9C_woQM-AscvTPo=", "properties": {"ref": "6226", "@spider": "chef_and_brewer", "amenity": "pub", "addr:full": "Shirpney Road, Shripney, Bognor Regis, PO22 9PA", "addr:postcode": "PO22 9PA", "addr:country": "GB", "name": "Robin Hood", "phone": "01243 822323", "website": "https://www.chefandbrewer.com/pubs/west-sussex/robin-hood/", "contact:email": "6226@greeneking.co.uk", "opening_hours": "Mo-Fr 11:00-23:00; Sa 09:30-23:00; Su 09:30-22:30", "image": "https://www.chefandbrewer.com/q/i/6226/", "brand": "Chef & Brewer", "brand:wikidata": "Q5089491", "nsi_id": "chefandbrewer-eaed91"}, "geometry": {"type": "Point", "coordinates": [-0.670338, 50.813633]}},
{"type": "Feature", "id": "JmfN-73odOpouD5SVG9jaDtnT8I=", "properties": {"ref": "6184", "@spider": "chef_and_brewer", "amenity": "pub", "addr:full": "London Road, Lowfield Heath, Crawley, RH10 9ST", "addr:postcode": "RH10 9ST", "addr:country": "GB", "name": "Gatwick Manor", "phone": "01293 866619", "website": "https://www.chefandbrewer.com/pubs/west-sussex/gatwick-manor/", "contact:email": "6184@greeneking.co.uk", "opening_hours": "Mo-Fr 11:00-23:00; Sa 09:30-23:00; Su 09:30-22:30", "image": "https://www.chefandbrewer.com/q/i/6184/", "brand": "Chef & Brewer", "brand:wikidata": "Q5089491", "nsi_id": "chefandbrewer-eaed91"}, "geometry": {"type": "Point", "coordinates": [-0.184507, 51.139492]}},
{"type": "Feature", "id": "TNgvPiRTwCNwC3BV5-XRoHFDx8Y=", "properties": {"ref": "6137", "@spider": "chef_and_brewer", "amenity": "pub", "addr:full": "Goring Street, Goring-By-Sea, Worthing, BN12 5AR", "addr:postcode": "BN12 5AR", "addr:country": "GB", "name": "Bull", "phone": "01903 247622", "website": "https://www.chefandbrewer.com/pubs/west-sussex/bull/", "contact:email": "6137@greeneking.co.uk", "opening_hours": "Mo-Fr 11:00-23:00; Sa 09:30-23:00; Su 09:30-22:30", "image": "https://www.chefandbrewer.com/q/i/6137/", "brand": "Chef & Brewer", "brand:wikidata": "Q5089491", "nsi_id": "chefandbrewer-eaed91"}, "geometry": {"type": "Point", "coordinates": [-0.432337, 50.813205]}},
{"type": "Feature", "id": "Gcq3VJaLeAie13KYzswtHn0-4go=", "properties": {"ref": "1646", "@spider": "chef_and_brewer", "amenity": "pub", "addr:full": "177 Four Ashes Road, Dorridge, Solihull, B93 8ND", "addr:postcode": "B93 8ND", "addr:country": "GB", "name": "Drum & Monkey", "phone": "01564 772 242", "website": "https://www.chefandbrewer.com/pubs/west-midlands/drum-monkey/", "contact:email": "1646@greeneking.co.uk", "opening_hours": "Mo-Fr 11:00-23:00; Sa 09:30-23:00; Su 09:30-22:30", "image": "https://www.chefandbrewer.com/q/i/1646/", "brand": "Chef & Brewer", "brand:wikidata": "Q5089491", "nsi_id": "chefandbrewer-eaed91"}, "geometry": {"type": "Point", "coordinates": [-1.766477, 52.37654]}},
{"type": "Feature", "id": "i97KlJEFS98PWH-WTJERo8Syov8=", "properties": {"ref": "6193", "@spider": "chef_and_brewer", "amenity": "pub", "addr:full": "1657 High Street, Knowle, B93 0LL", "addr:postcode": "B93 0LL", "addr:country": "GB", "name": "Greswolde Arms", "phone": "01564 772711", "website": "https://www.chefandbrewer.com/pubs/west-midlands/greswolde-arms/", "contact:email": "6193@greeneking.co.uk", "opening_hours": "Mo-Su 09:30-23:00", "image": "https://www.chefandbrewer.com/q/i/6193/", "brand": "Chef & Brewer", "brand:wikidata": "Q5089491", "nsi_id": "chefandbrewer-eaed91"}, "geometry": {"type": "Point", "coordinates": [-1.735542, 52.389792]}},
{"type": "Feature", "id": "-rom0dTb5pHkHhoO0Pfp4CWODss=", "properties": {"ref": "6220", "@spider": "chef_and_brewer", "amenity": "pub", "addr:full": "Icknield Street, Forhill, Kings Norton, B38 0EH", "addr:postcode": "B38 0EH", "addr:country": "GB", "name": "Peacock Inn", "phone": "01564 823232", "website": "https://www.chefandbrewer.com/pubs/west-midlands/peacock-inn/", "contact:email": "6220@greeneking.co.uk", "opening_hours": "Mo-Fr 11:00-23:00; Sa 09:30-23:00; Su 09:30-22:30", "image": "https://www.chefandbrewer.com/q/i/6220/", "brand": "Chef & Brewer", "brand:wikidata": "Q5089491", "nsi_id": "chefandbrewer-eaed91"}, "geometry": {"type": "Point", "coordinates": [-1.921451, 52.37749]}},
{"type": "Feature", "id": "0NYp1lRGfHq72uxSNcPbuz74X0U=", "properties": {"ref": "6217", "@spider": "chef_and_brewer", "amenity": "pub", "addr:full": "Mill Hill, Baginton, Coventry, CV8 3AH", "addr:postcode": "CV8 3AH", "addr:country": "GB", "name": "Old Mill", "phone": "02476 302241", "website": "https://www.chefandbrewer.com/pubs/west-midlands/old-mill/", "contact:email": "6217@greeneking.co.uk", "opening_hours": "Mo-Fr 11:00-23:00; Sa 09:30-23:00; Su 09:30-22:30", "image": "https://www.chefandbrewer.com/q/i/6217/", "brand": "Chef & Brewer", "brand:wikidata": "Q5089491", "nsi_id": "chefandbrewer-eaed91"}, "geometry": {"type": "Point", "coordinates": [-1.502914, 52.374579]}},
{"type": "Feature", "id": "kA7VU4eWw2hffA9KW5nIcd1bsrg=", "properties": {"ref": "6111", "@spider": "chef_and_brewer", "amenity": "pub", "addr:full": "Spencers Lane, Berkswell, Coventry, CV7 7BB", "addr:postcode": "CV7 7BB", "addr:country": "GB", "name": "Bear Inn", "phone": "01676 533202", "website": "https://www.chefandbrewer.com/pubs/west-midlands/bear-inn/", "contact:email": "6111@greeneking.co.uk", "opening_hours": "Mo-Fr 11:00-23:00; Sa 09:30-23:00; Su 09:30-22:30", "image": "https://www.chefandbrewer.com/q/i/6111/", "brand": "Chef & Brewer", "brand:wikidata": "Q5089491", "nsi_id": "chefandbrewer-eaed91"}, "geometry": {"type": "Point", "coordinates": [-1.639157, 52.409489]}},
{"type": "Feature", "id": "2GMm3-ZM880JTJVcOfJcmosFopU=", "properties": {"ref": "6199", "@spider": "chef_and_brewer", "amenity": "pub", "addr:full": "Wolverhampton Road, Himley, Dudley, DY3 4LD", "addr:postcode": "DY3 4LD", "addr:country": "GB", "name": "Himley House", "phone": "01902 892468", "website": "https://www.chefandbrewer.com/pubs/west-midlands/himley-house/", "contact:email": "6199@greeneking.co.uk", "opening_hours": "Mo-Fr 11:00-23:00; Sa 09:30-23:00; Su 09:30-22:30", "image": "https://www.chefandbrewer.com/q/i/6199/", "brand": "Chef & Brewer", "brand:wikidata": "Q5089491", "nsi_id": "chefandbrewer-eaed91"}, "geometry": {"type": "Point", "coordinates": [-2.17483, 52.518802]}},
{"type": "Feature", "id": "frbsnu5LKCBud-va-53uZSra4do=", "properties": {"ref": "6183", "@spider": "chef_and_brewer", "amenity": "pub", "addr:full": "160 Hagley Road, Edgbaston, Birmingham, B16 9NX", "addr:postcode": "B16 9NX", "addr:country": "GB", "name": "Garden House", "phone": "01214 548315", "website": "https://www.chefandbrewer.com/pubs/west-midlands/garden-house/", "contact:email": "6183@greeneking.co.uk", "opening_hours": "Mo-Fr 11:00-23:00; Sa 09:30-23:00; Su 09:30-22:30", "image": "https://www.chefandbrewer.com/q/i/6183/", "brand": "Chef & Brewer", "brand:wikidata": "Q5089491", "nsi_id": "chefandbrewer-eaed91"}, "geometry": {"type": "Point", "coordinates": [-1.937653, 52.47175]}},
{"type": "Feature", "id": "5RLRJH3sfgj7PJM_VvmJnFCFukY=", "properties": {"ref": "6267", "@spider": "chef_and_brewer", "amenity": "pub", "addr:full": "120 Mumbles Road, Blackpill, Swansea, SA3 5AS", "addr:postcode": "SA3 5AS", "addr:country": "GB", "name": "Woodman", "phone": "01792 402700", "website": "https://www.chefandbrewer.com/pubs/west-glamorgan/woodman/", "contact:email": "6267@greeneking.co.uk", "opening_hours": "Mo-Fr 11:00-23:00; Sa 09:30-23:00; Su 09:30-22:30", "image": "https://www.chefandbrewer.com/q/i/6267/", "brand": "Chef & Brewer", "brand:wikidata": "Q5089491", "nsi_id": "chefandbrewer-eaed91"}, "geometry": {"type": "Point", "coordinates": [-3.996094, 51.596072]}},
{"type": "Feature", "id": "V7w_g43zaT-fK38TTIKzpJOt3Zg=", "properties": {"ref": "1963", "@spider": "chef_and_brewer", "amenity": "pub", "addr:full": "6 High Street, Kenilworth, CV8 1LZ", "addr:postcode": "CV8 1LZ", "addr:country": "GB", "name": "Abbey Field", "phone": "01926 515450", "website": "https://www.chefandbrewer.com/pubs/warwickshire/abbey-field/", "contact:email": "1963@greeneking.co.uk", "opening_hours": "Mo-Fr 11:00-23:00; Sa 09:30-23:00; Su 09:30-22:30", "image": "https://www.chefandbrewer.com/q/i/1963/", "brand": "Chef & Brewer", "brand:wikidata": "Q5089491", "nsi_id": "chefandbrewer-eaed91"}, "geometry": {"type": "Point", "coordinates": [-1.581415, 52.350128]}},
{"type": "Feature", "id": "XuV5N1Vq1hKLePylWR86l3FzGeg=", "properties": {"ref": "6222", "@spider": "chef_and_brewer", "amenity": "pub", "addr:full": "Greenford Lane, Lamesley, Gateshead, NE11 0ER", "addr:postcode": "NE11 0ER", "addr:country": "GB", "name": "Ravensworth Arms", "phone": "01914 876023", "website": "https://www.chefandbrewer.com/pubs/tyne-and-wear/ravensworth-arms/", "contact:email": "6222@greeneking.co.uk", "opening_hours": "Mo-Sa 09:30-23:00; Su 09:30-22:30", "image": "https://www.chefandbrewer.com/q/i/6222/", "brand": "Chef & Brewer", "brand:wikidata": "Q5089491", "nsi_id": "chefandbrewer-eaed91"}, "geometry": {"type": "Point", "coordinates": [-1.609879, 54.913573]}},
{"type": "Feature", "id": "4Npcgx9wfQRgW8M139rtGPJwrVE=", "properties": {"ref": "6244", "@spider": "chef_and_brewer", "amenity": "pub", "addr:full": "2 Hutton Road, Ash Vale, GU12 5HA", "addr:postcode": "GU12 5HA", "addr:country": "GB", "name": "Swan", "phone": "01252 325212", "website": "https://www.chefandbrewer.com/pubs/surrey/swan/", "contact:email": "6244@greeneking.co.uk", "opening_hours": "Mo-Fr 11:00-23:00; Sa 09:30-23:00; Su 09:30-22:30", "image": "https://www.chefandbrewer.com/q/i/6244/", "brand": "Chef & Brewer", "brand:wikidata": "Q5089491", "nsi_id": "chefandbrewer-eaed91"}, "geometry": {"type": "Point", "coordinates": [-0.718921, 51.266861]}},
{"type": "Feature", "id": "u1DYJTdn1piJFjneEFVnYsImP-o=", "properties": {"ref": "6314", "@spider": "chef_and_brewer", "amenity": "pub", "addr:full": "Farnham Road, Holt Pound, Farnham, GU10 4LA", "addr:postcode": "GU10 4LA", "addr:country": "GB", "name": "Ball & Wicket", "phone": "01483 963161", "website": "https://www.chefandbrewer.com/pubs/surrey/ball-wicket/", "contact:email": "6314@greeneking.co.uk", "opening_hours": "Mo-Fr 11:00-23:00; Sa 09:30-23:00; Su 09:30-22:30", "image": "https://www.chefandbrewer.com/q/i/6314/", "brand": "Chef & Brewer", "brand:wikidata": "Q5089491", "nsi_id": "chefandbrewer-eaed91"}, "geometry": {"type": "Point", "coordinates": [-0.83431, 51.188474]}},
{"type": "Feature", "id": "zD8IP02pyCXtD5RuuJ8ZYHu_DOU=", "properties": {"ref": "6258", "@spider": "chef_and_brewer", "amenity": "pub", "addr:full": "London Road, Virginia Water, GU25 4QF", "addr:postcode": "GU25 4QF", "addr:country": "GB", "name": "Wheatsheaf Hotel", "phone": "01344 842057", "website": "https://www.chefandbrewer.com/pubs/surrey/wheatsheaf-hotel/", "contact:email": "6258@greeneking.co.uk", "opening_hours": "Mo-Fr 11:00-23:00; Sa 09:30-23:00; Su 09:30-22:30", "image": "https://www.chefandbrewer.com/q/i/6258/", "brand": "Chef & Brewer", "brand:wikidata": "Q5089491", "nsi_id": "chefandbrewer-eaed91"}, "geometry": {"type": "Point", "coordinates": [-0.592546, 51.409095]}},
{"type": "Feature", "id": "ka0XhNW_WS-DYmbrV_vkrCPqleM=", "properties": {"ref": "6174", "@spider": "chef_and_brewer", "amenity": "pub", "addr:full": "Portsmouth Road, Fairmile, Cobham, KT11 1BW", "addr:postcode": "KT11 1BW", "addr:country": "GB", "name": "Fairmile", "phone": "01932 868141", "website": "https://www.chefandbrewer.com/pubs/surrey/fairmile/", "contact:email": "6174@greeneking.co.uk", "opening_hours": "Mo-Fr 11:00-23:00; Sa 09:30-23:00; Su 09:30-22:30", "image": "https://www.chefandbrewer.com/q/i/6174/", "brand": "Chef & Brewer", "brand:wikidata": "Q5089491", "nsi_id": "chefandbrewer-eaed91"}, "geometry": {"type": "Point", "coordinates": [-0.400428, 51.341225]}},
{"type": "Feature", "id": "_hNJOx5Gxq14T_KRA2g7G7Kx-Pc=", "properties": {"ref": "6263", "@spider": "chef_and_brewer", "amenity": "pub", "addr:full": "Shere Lane, Shere, Guildford, GU5 9HS", "addr:postcode": "GU5 9HS", "addr:country": "GB", "name": "White Horse", "phone": "01483 202518", "website": "https://www.chefandbrewer.com/pubs/surrey/white-horse/", "contact:email": "6263@greeneking.co.uk", "opening_hours": "Mo-Fr 11:00-23:00; Sa 09:30-23:00; Su 09:30-22:30", "image": "https://www.chefandbrewer.com/q/i/6263/", "brand": "Chef & Brewer", "brand:wikidata": "Q5089491", "nsi_id": "chefandbrewer-eaed91"}, "geometry": {"type": "Point", "coordinates": [-0.464924, 51.219228]}},
{"type": "Feature", "id": "XKptLfDyvEjjGIhjLCCshXhtWJU=", "properties": {"ref": "6235", "@spider": "chef_and_brewer", "amenity": "pub", "addr:full": "Antlands Lane East, Shipley Bridge, Horley, RH6 9TE", "addr:postcode": "RH6 9TE", "addr:country": "GB", "name": "Shipley Bridge", "phone": "01293 785237", "website": "https://www.chefandbrewer.com/pubs/surrey/shipley-bridge/", "contact:email": "6235@greeneking.co.uk", "opening_hours": "Mo-Fr 11:00-23:00; Sa 09:30-23:00; Su 09:30-22:30", "image": "https://www.chefandbrewer.com/q/i/6235/", "brand": "Chef & Brewer", "brand:wikidata": "Q5089491", "nsi_id": "chefandbrewer-eaed91"}, "geometry": {"type": "Point", "coordinates": [-0.133893, 51.148793]}},
{"type": "Feature", "id": "toI9Nj5SsdXAicjOA2K5GiPSTlc=", "properties": {"ref": "6270", "@spider": "chef_and_brewer", "amenity": "pub", "addr:full": "25 Little Bookham Street, Little Bookham, Leatherhead, KT23 3AA", "addr:postcode": "KT23 3AA", "addr:country": "GB", "name": "Ye Olde Windsor Castle", "phone": "01372 452226", "website": "https://www.chefandbrewer.com/pubs/surrey/ye-olde-windsor-castle/", "contact:email": "6270@greeneking.co.uk", "opening_hours": "Mo-Fr 11:00-23:00; Sa 09:30-23:00; Su 09:30-22:30", "image": "https://www.chefandbrewer.com/q/i/6270/", "brand": "Chef & Brewer", "brand:wikidata": "Q5089491", "nsi_id": "chefandbrewer-eaed91"}, "geometry": {"type": "Point", "coordinates": [-0.387589, 51.27875]}},
{"type": "Feature", "id": "J1DedsGIy2abfpy_p5EXjR_iYE4=", "properties": {"ref": "6221", "@spider": "chef_and_brewer", "amenity": "pub", "addr:full": "48 West End Lane, Esher, KT10 8LA", "addr:postcode": "KT10 8LA", "addr:country": "GB", "name": "Prince of Wales", "phone": "01372 465483", "website": "https://www.chefandbrewer.com/pubs/surrey/prince-of-wales/", "contact:email": "6221@greeneking.co.uk", "opening_hours": "Mo-Sa 09:30-23:00; Su 09:30-22:30", "image": "https://www.chefandbrewer.com/q/i/6221/", "brand": "Chef & Brewer", "brand:wikidata": "Q5089491", "nsi_id": "chefandbrewer-eaed91"}, "geometry": {"type": "Point", "coordinates": [-0.379383, 51.363406]}},
{"type": "Feature", "id": "MpC5T6ISsnrNiHC8xEEBXTtOhXg=", "properties": {"ref": "6216", "@spider": "chef_and_brewer", "amenity": "pub", "addr:full": "68 High Street, Oxted, RH8 9LP", "addr:postcode": "RH8 9LP", "addr:country": "GB", "name": "Old Bell", "phone": "01883 712181", "website": "https://www.chefandbrewer.com/pubs/surrey/old-bell/", "contact:email": "6216@greeneking.co.uk", "opening_hours": "Mo-Fr 11:00-23:00; Sa 09:30-23:00; Su 09:30-22:30", "image": "https://www.chefandbrewer.com/q/i/6216/", "brand": "Chef & Brewer", "brand:wikidata": "Q5089491", "nsi_id": "chefandbrewer-eaed91"}, "geometry": {"type": "Point", "coordinates": [-0.016864, 51.252363]}},
{"type": "Feature", "id": "4qd23Ua7KB0b-MHVV1yqgw02_lw=", "properties": {"ref": "6223", "@spider": "chef_and_brewer", "amenity": "pub", "addr:full": "Main Road, Martlesham, Woodbridge, IP12 4RN", "addr:postcode": "IP12 4RN", "addr:country": "GB", "name": "Red Lion", "phone": "01394 382169", "website": "https://www.chefandbrewer.com/pubs/suffolk/red-lion/", "contact:email": "6223@greeneking.co.uk", "opening_hours": "Mo-Fr 11:00-23:00; Sa 09:30-23:00; Su 09:30-22:30", "image": "https://www.chefandbrewer.com/q/i/6223/", "brand": "Chef & Brewer", "brand:wikidata": "Q5089491", "nsi_id": "chefandbrewer-eaed91"}, "geometry": {"type": "Point", "coordinates": [1.284944, 52.07732]}},
{"type": "Feature", "id": "zYosAKnCKlDIVPqBfB3G5bRWUYA=", "properties": {"ref": "6213", "@spider": "chef_and_brewer", "amenity": "pub", "addr:full": "Rugeley Road, Burntwood, WS7 9HA", "addr:postcode": "WS7 9HA", "addr:country": "GB", "name": "Nags Head", "phone": "01543 682510", "website": "https://www.chefandbrewer.com/pubs/staffordshire/nags-head/", "contact:email": "6213@greeneking.co.uk", "opening_hours": "Mo-Fr 11:00-23:00; Sa 09:30-23:00; Su 09:30-22:30", "image": "https://www.chefandbrewer.com/q/i/6213/", "brand": "Chef & Brewer", "brand:wikidata": "Q5089491", "nsi_id": "chefandbrewer-eaed91"}, "geometry": {"type": "Point", "coordinates": [-1.906136, 52.686262]}},
{"type": "Feature", "id": "dYQLRfHm4xlI5OE2e5GlVG_rz0Y=", "properties": {"ref": "6498", "@spider": "chef_and_brewer", "amenity": "pub", "addr:full": "Riverside Drive, Branston, Burton on Trent, DE14 3EP", "addr:postcode": "DE14 3EP", "addr:country": "GB", "name": "Riverside", "phone": "01283 511234", "website": "https://www.chefandbrewer.com/pubs/staffordshire/riverside-hotel/", "contact:email": "6498@greeneking.co.uk", "opening_hours": "Mo-Fr 11:00-23:00; Sa 09:30-23:00; Su 09:30-22:30", "image": "https://www.chefandbrewer.com/q/i/6498/", "brand": "Chef & Brewer", "brand:wikidata": "Q5089491", "nsi_id": "chefandbrewer-eaed91"}, "geometry": {"type": "Point", "coordinates": [-1.664711, 52.786103]}},
{"type": "Feature", "id": "Oo8kEQcKeYmv_pFyWnMHpp8tdT0=", "properties": {"ref": "6237", "@spider": "chef_and_brewer", "amenity": "pub", "addr:full": "1 Hurricane Close, Stafford, ST16 1GZ", "addr:postcode": "ST16 1GZ", "addr:country": "GB", "name": "Shire Horse", "phone": "01785 270700", "website": "https://www.chefandbrewer.com/pubs/staffordshire/shire-horse/", "contact:email": "6237@greeneking.co.uk", "opening_hours": "Mo-Fr 11:00-23:00; Sa 09:30-23:00; Su 09:30-22:30", "image": "https://www.chefandbrewer.com/q/i/6237/", "brand": "Chef & Brewer", "brand:wikidata": "Q5089491", "nsi_id": "chefandbrewer-eaed91"}, "geometry": {"type": "Point", "coordinates": [-2.13348, 52.832419]}},
{"type": "Feature", "id": "wj4YMj0_A1lc3gibIfhGpNGWklk=", "properties": {"ref": "6172", "@spider": "chef_and_brewer", "amenity": "pub", "addr:full": "High Street, Tutbury, Burton-On-Trent, DE13 9LS", "addr:postcode": "DE13 9LS", "addr:country": "GB", "name": "Dog & Partridge", "phone": "01283 813030", "website": "https://www.chefandbrewer.com/pubs/staffordshire/dog-partridge/", "contact:email": "6172@greeneking.co.uk", "opening_hours": "Mo-Fr 11:00-23:00; Sa 09:30-23:00; Su 09:30-22:30", "image": "https://www.chefandbrewer.com/q/i/6172/", "brand": "Chef & Brewer", "brand:wikidata": "Q5089491", "nsi_id": "chefandbrewer-eaed91"}, "geometry": {"type": "Point", "coordinates": [-1.685503, 52.85727]}},
{"type": "Feature", "id": "CVgg2pCaJbV2UgvtblVQbv_h7jk=", "properties": {"ref": "6201", "@spider": "chef_and_brewer", "amenity": "pub", "addr:full": "Little Hay Lane, Lichfield, WS14 0QA", "addr:postcode": "WS14 0QA", "addr:country": "GB", "name": "Holly Bush", "phone": "01543 481217", "website": "https://www.chefandbrewer.com/pubs/staffordshire/holly-bush/", "contact:email": "6201@greeneking.co.uk", "opening_hours": "Mo-Fr 11:00-23:00; Sa 09:30-23:00; Su 09:30-22:30", "image": "https://www.chefandbrewer.com/q/i/6201/", "brand": "Chef & Brewer", "brand:wikidata": "Q5089491", "nsi_id": "chefandbrewer-eaed91"}, "geometry": {"type": "Point", "coordinates": [-1.820653, 52.623367]}},
{"type": "Feature", "id": "ntZXPvyLdr6YRmZr-tuoLh4U1B8=", "properties": {"ref": "7933", "@spider": "chef_and_brewer", "amenity": "pub", "addr:full": "Sheffield Road, Todwick, Sheffield, S26 1DJ", "addr:postcode": "S26 1DJ", "addr:country": "GB", "name": "Red Lion", "phone": "01909 771654", "website": "https://www.chefandbrewer.com/pubs/south-yorkshire/red-lion/", "contact:email": "7933@Greeneking.co.uk", "opening_hours": "Mo-Su 07:00-23:00", "image": "https://www.chefandbrewer.com/q/i/7933/", "brand": "Chef & Brewer", "brand:wikidata": "Q5089491", "nsi_id": "chefandbrewer-eaed91"}, "geometry": {"type": "Point", "coordinates": [-1.256154, 53.359958]}},
{"type": "Feature", "id": "0DBKMdOzRggkDbq4dhLRXm3nQW0=", "properties": {"ref": "6219", "@spider": "chef_and_brewer", "amenity": "pub", "addr:full": "Baslow Road, Owler Bar, Sheffield, S17 3BQ", "addr:postcode": "S17 3BQ", "addr:country": "GB", "name": "Peacock", "phone": "01142 361789", "website": "https://www.chefandbrewer.com/pubs/south-yorkshire/peacock/", "contact:email": "6219@greeneking.co.uk", "opening_hours": "Mo-Fr 11:00-23:00; Sa 09:30-23:00; Su 09:30-22:30", "image": "https://www.chefandbrewer.com/q/i/6219/", "brand": "Chef & Brewer", "brand:wikidata": "Q5089491", "nsi_id": "chefandbrewer-eaed91"}, "geometry": {"type": "Point", "coordinates": [-1.561097, 53.298324]}},
{"type": "Feature", "id": "seIv1GJTz4ESZguCqt-1pDAHTlU=", "properties": {"ref": "6302", "@spider": "chef_and_brewer", "amenity": "pub", "addr:full": ", Norton Fitzwarren, Taunton, TA2 6NR", "addr:postcode": "TA2 6NR", "addr:country": "GB", "name": "Cross Keys", "phone": "01823 333062", "website": "https://www.chefandbrewer.com/pubs/somerset/cross-keys/", "contact:email": "6302@greeneking.co.uk", "opening_hours": "Mo-Fr 11:00-23:00; Sa 09:30-23:00; Su 09:30-22:30", "image": "https://www.chefandbrewer.com/q/i/6302/", "brand": "Chef & Brewer", "brand:wikidata": "Q5089491", "nsi_id": "chefandbrewer-eaed91"}, "geometry": {"type": "Point", "coordinates": [-3.135569, 51.031096]}},
{"type": "Feature", "id": "izr9aofAAqmEqh3J9Nqkggv5NsY=", "properties": {"ref": "8630", "@spider": "chef_and_brewer", "amenity": "pub", "addr:full": "Elton Road, Clevedon, BS21 7RH", "addr:postcode": "BS21 7RH", "addr:country": "GB", "name": "Little Harp", "phone": "01275 343739", "website": "https://www.chefandbrewer.com/pubs/somerset/little-harp/", "contact:email": "8630@greeneking.co.uk", "opening_hours": "Mo-Su 11:00-23:00", "image": "https://www.chefandbrewer.com/q/i/8630/", "brand": "Chef & Brewer", "brand:wikidata": "Q5089491", "nsi_id": "chefandbrewer-eaed91"}, "geometry": {"type": "Point", "coordinates": [-2.864983, 51.437437]}},
{"type": "Feature", "id": "aPwV23jE9nZtONLLvfEkgTMwm5U=", "properties": {"ref": "6186", "@spider": "chef_and_brewer", "amenity": "pub", "addr:full": "Mill Lane, Bathampton, Bath, BA2 6TR", "addr:postcode": "BA2 6TR", "addr:country": "GB", "name": "George Inn", "phone": "01225 425079", "website": "https://www.chefandbrewer.com/pubs/somerset/george-inn/", "contact:email": "6186@greeneking.co.uk", "opening_hours": "Mo-Fr 11:00-23:00; Sa 09:30-23:00; Su 09:30-22:30", "image": "https://www.chefandbrewer.com/q/i/6186/", "brand": "Chef & Brewer", "brand:wikidata": "Q5089491", "nsi_id": "chefandbrewer-eaed91"}, "geometry": {"type": "Point", "coordinates": [-2.321937, 51.396716]}},
{"type": "Feature", "id": "71b6JuOwZ0alu2Q2ypToOUlCI7Q=", "properties": {"ref": "5284", "@spider": "chef_and_brewer", "amenity": "pub", "addr:full": "Newbridge, Witney, OX29 7QD", "addr:postcode": "OX29 7QD", "addr:country": "GB", "name": "Rose Revived", "phone": "01865 300221", "website": "https://www.chefandbrewer.com/pubs/oxfordshire/rose-revived/", "contact:email": "5284@Greeneking.co.uk", "opening_hours": "Mo-Fr 11:00-23:00; Sa-Su 09:30-23:00", "image": "https://www.chefandbrewer.com/q/i/5284/", "brand": "Chef & Brewer", "brand:wikidata": "Q5089491", "nsi_id": "chefandbrewer-eaed91"}, "geometry": {"type": "Point", "coordinates": [-1.41702, 51.710198]}},
{"type": "Feature", "id": "5YLaOMEy0-eeGzkFNrfRPMLjzTo=", "properties": {"ref": "5247", "@spider": "chef_and_brewer", "amenity": "pub", "addr:full": "Faringdon Road, Frilford Heath, Abingdon, OX13 6QJ", "addr:postcode": "OX13 6QJ", "addr:country": "GB", "name": "Dog House", "phone": "01865 390830", "website": "https://www.chefandbrewer.com/pubs/oxfordshire/dog-house/", "contact:email": "5247@Greeneking.co.uk", "opening_hours": "Mo-Fr 11:00-23:00; Sa 09:30-23:00; Su 09:30-22:30", "image": "https://www.chefandbrewer.com/q/i/5247/", "brand": "Chef & Brewer", "brand:wikidata": "Q5089491", "nsi_id": "chefandbrewer-eaed91"}, "geometry": {"type": "Point", "coordinates": [-1.350676, 51.685113]}},
{"type": "Feature", "id": "S42N22x31s5W6gMK6O-qVSyI0Cs=", "properties": {"ref": "6105", "@spider": "chef_and_brewer", "amenity": "pub", "addr:full": "Clifton Hampden Road, Clifton Hampden, Abingdon, OX14 3EH", "addr:postcode": "OX14 3EH", "addr:country": "GB", "name": "Barley Mow", "phone": "01865 407847", "website": "https://www.chefandbrewer.com/pubs/oxfordshire/barley-mow/", "contact:email": "6105@greeneking.co.uk", "opening_hours": "Mo-Fr 11:00-23:00; Sa 09:30-23:00; Su 09:30-22:30", "image": "https://www.chefandbrewer.com/q/i/6105/", "brand": "Chef & Brewer", "brand:wikidata": "Q5089491", "nsi_id": "chefandbrewer-eaed91"}, "geometry": {"type": "Point", "coordinates": [-1.208758, 51.653649]}},
{"type": "Feature", "id": "qfiT4UZIAFe-OdBhs7bOa_YLl20=", "properties": {"ref": "6206", "@spider": "chef_and_brewer", "amenity": "pub", "addr:full": "Church Road, Sandford-On-Thames, OX4 4YB", "addr:postcode": "OX4 4YB", "addr:country": "GB", "name": "Kings Arms", "phone": "01865 777095", "website": "https://www.chefandbrewer.com/pubs/oxfordshire/kings-arms/", "contact:email": "6206@greeneking.co.uk", "opening_hours": "Mo-Fr 11:00-23:00; Sa 09:30-23:00; Su 09:30-22:30", "image": "https://www.chefandbrewer.com/q/i/6206/", "brand": "Chef & Brewer", "brand:wikidata": "Q5089491", "nsi_id": "chefandbrewer-eaed91"}, "geometry": {"type": "Point", "coordinates": [-1.232166, 51.70825]}},
{"type": "Feature", "id": "M1AaHOrAc31lZsDe1AFB83jOUCI=", "properties": {"ref": "6260", "@spider": "chef_and_brewer", "amenity": "pub", "addr:full": "Church Road, Burton Joyce, Nottingham, NG14 5GB", "addr:postcode": "NG14 5GB", "addr:country": "GB", "name": "Wheatsheaf", "phone": "01159 313298", "website": "https://www.chefandbrewer.com/pubs/nottinghamshire/the-wheatsheaf/", "contact:email": "6260@greeneking.co.uk", "opening_hours": "Mo-Fr 11:00-23:00; Sa 09:30-23:00; Su 09:30-22:30", "image": "https://www.chefandbrewer.com/q/i/6260/", "brand": "Chef & Brewer", "brand:wikidata": "Q5089491", "nsi_id": "chefandbrewer-eaed91"}, "geometry": {"type": "Point", "coordinates": [-1.033756, 52.988793]}},
{"type": "Feature", "id": "drvOH3tzcHzpz3YEIE-UIv_zR-E=", "properties": {"ref": "6176", "@spider": "chef_and_brewer", "amenity": "pub", "addr:full": "Main Road, Wilford, Nottingham, NG11 7AA", "addr:postcode": "NG11 7AA", "addr:country": "GB", "name": "Ferry Inn", "phone": "01159 811441", "website": "https://www.chefandbrewer.com/pubs/nottinghamshire/ferry-inn/", "contact:email": "6176@greeneking.co.uk", "opening_hours": "Mo-Fr 11:00-23:00; Sa 09:30-23:00; Su 09:30-22:30", "image": "https://www.chefandbrewer.com/q/i/6176/", "brand": "Chef & Brewer", "brand:wikidata": "Q5089491", "nsi_id": "chefandbrewer-eaed91"}, "geometry": {"type": "Point", "coordinates": [-1.156814, 52.934744]}},
{"type": "Feature", "id": "WapXem_fnz0WbC4Sie4MAhwkHkI=", "properties": {"ref": "6203", "@spider": "chef_and_brewer", "amenity": "pub", "addr:full": "Nottingham Road, Ravenshead, Nottingham, NG15 9HJ", "addr:postcode": "NG15 9HJ", "addr:country": "GB", "name": "Hutt", "phone": "01623 792325", "website": "https://www.chefandbrewer.com/pubs/nottinghamshire/hutt/", "contact:email": "6203@greeneking.co.uk", "opening_hours": "Mo-Fr 11:00-23:00; Sa 09:30-23:00; Su 09:30-22:30", "image": "https://www.chefandbrewer.com/q/i/6203/", "brand": "Chef & Brewer", "brand:wikidata": "Q5089491", "nsi_id": "chefandbrewer-eaed91"}, "geometry": {"type": "Point", "coordinates": [-1.170166, 53.083737]}},
{"type": "Feature", "id": "UX52ObRe5mKZg3IExCmb67LyfV0=", "properties": {"ref": "6250", "@spider": "chef_and_brewer", "amenity": "pub", "addr:full": "Mapperley Plains, Mapperley, Nottingham, NG3 5RT", "addr:postcode": "NG3 5RT", "addr:country": "GB", "name": "Travellers Rest", "phone": "01159 264412", "website": "https://www.chefandbrewer.com/pubs/nottinghamshire/travellers-rest/", "contact:email": "6250@greeneking.co.uk", "opening_hours": "Mo-Fr 11:00-23:00; Sa 09:30-23:00; Su 09:30-22:30", "image": "https://www.chefandbrewer.com/q/i/6250/", "brand": "Chef & Brewer", "brand:wikidata": "Q5089491", "nsi_id": "chefandbrewer-eaed91"}, "geometry": {"type": "Point", "coordinates": [-1.099853, 53.010172]}},
{"type": "Feature", "id": "gxZjwZp8thXQFNIqbfoMjD0ptUo=", "properties": {"ref": "7639", "@spider": "chef_and_brewer", "amenity": "pub", "addr:full": "Middle Street, Corbridge, NE45 5AT", "addr:postcode": "NE45 5AT", "addr:country": "GB", "name": "Black Bull", "phone": "01434 632261", "website": "https://www.chefandbrewer.com/pubs/northumberland/black-bull/", "contact:email": "7639@Greeneking.co.uk", "opening_hours": "Mo-Fr 11:00-23:00; Sa 09:30-23:00; Su 09:30-22:30", "image": "https://www.chefandbrewer.com/q/i/7639/", "brand": "Chef & Brewer", "brand:wikidata": "Q5089491", "nsi_id": "chefandbrewer-eaed91"}, "geometry": {"type": "Point", "coordinates": [-2.018737, 54.97393]}},
{"type": "Feature", "id": "liLdcnusGKzzbsAht1B1HX0e5Lg=", "properties": {"ref": "6257", "@spider": "chef_and_brewer", "amenity": "pub", "addr:full": "Main Road, Riding Mill, Hexham, NE44 6DQ", "addr:postcode": "NE44 6DQ", "addr:country": "GB", "name": "Wellington Hotel", "phone": "01434 682531", "website": "https://www.chefandbrewer.com/pubs/northumberland/wellington-hotel/", "contact:email": "6257@greeneking.co.uk", "opening_hours": "Mo-Fr 11:00-23:00; Sa 09:30-23:00; Su 09:30-22:30", "image": "https://www.chefandbrewer.com/q/i/6257/", "brand": "Chef & Brewer", "brand:wikidata": "Q5089491", "nsi_id": "chefandbrewer-eaed91"}, "geometry": {"type": "Point", "coordinates": [-1.972959, 54.947839]}},
{"type": "Feature", "id": "R6CXZlLNd9sPjqRpMfh3cIZN8nQ=", "properties": {"ref": "6135", "@spider": "chef_and_brewer", "amenity": "pub", "addr:full": "Bedford Road, Northampton, NN4 7AA", "addr:postcode": "NN4 7AA", "addr:country": "GB", "name": "Britannia", "phone": "01604 630437", "website": "https://www.chefandbrewer.com/pubs/northamptonshire/britannia/", "contact:email": "6135@greeneking.co.uk", "opening_hours": "Mo-Fr 11:00-23:00; Sa 09:30-23:00; Su 09:30-22:30", "image": "https://www.chefandbrewer.com/q/i/6135/", "brand": "Chef & Brewer", "brand:wikidata": "Q5089491", "nsi_id": "chefandbrewer-eaed91"}, "geometry": {"type": "Point", "coordinates": [-0.861591, 52.228067]}},
{"type": "Feature", "id": "-qlopPKSN5MalkBRgomOmS4XUR8=", "properties": {"ref": "6194", "@spider": "chef_and_brewer", "amenity": "pub", "addr:full": "Towcester Road, Milton Malsor, Northampton, NN7 3AP", "addr:postcode": "NN7 3AP", "addr:country": "GB", "name": "Greyhound", "phone": "01604 858449", "website": "https://www.chefandbrewer.com/pubs/northamptonshire/greyhound/", "contact:email": "6194@greeneking.co.uk", "opening_hours": "Mo-Fr 11:00-23:00; Sa 09:30-23:00; Su 09:30-22:30", "image": "https://www.chefandbrewer.com/q/i/6194/", "brand": "Chef & Brewer", "brand:wikidata": "Q5089491", "nsi_id": "chefandbrewer-eaed91"}, "geometry": {"type": "Point", "coordinates": [-0.92879, 52.194819]}},
{"type": "Feature", "id": "h1QxjPj4oKMyKP_OwDOabpCk2yw=", "properties": {"ref": "6167", "@spider": "chef_and_brewer", "amenity": "pub", "addr:full": "High Street, Weedon, Northampton, NN7 4PX", "addr:postcode": "NN7 4PX", "addr:country": "GB", "name": "Crossroads", "phone": "01327 340354", "website": "https://www.chefandbrewer.com/pubs/northamptonshire/crossroads/", "contact:email": "6167@greeneking.co.uk", "opening_hours": "Mo-Fr 11:00-23:00; Sa 09:30-23:00; Su 09:30-22:30", "image": "https://www.chefandbrewer.com/q/i/6167/", "brand": "Chef & Brewer", "brand:wikidata": "Q5089491", "nsi_id": "chefandbrewer-eaed91"}, "geometry": {"type": "Point", "coordinates": [-1.075236, 52.233166]}},
{"type": "Feature", "id": "0dcg5lvIvm_NMYLmYNkBcksjh7k=", "properties": {"ref": "6240", "@spider": "chef_and_brewer", "amenity": "pub", "addr:full": "Northampton Road, Chapel Brampton, Northampton, NN6 8AE", "addr:postcode": "NN6 8AE", "addr:country": "GB", "name": "Spencer Arms", "phone": "01604 842237", "website": "https://www.chefandbrewer.com/pubs/northamptonshire/spencer-arms/", "contact:email": "6240@greeneking.co.uk", "opening_hours": "Mo-Fr 11:00-23:00; Sa 09:30-23:00; Su 09:30-22:30", "image": "https://www.chefandbrewer.com/q/i/6240/", "brand": "Chef & Brewer", "brand:wikidata": "Q5089491", "nsi_id": "chefandbrewer-eaed91"}, "geometry": {"type": "Point", "coordinates": [-0.930774, 52.28955]}},
{"type": "Feature", "id": "MFMp_Bkj3WyrBbruopa6ZLuYJik=", "properties": {"ref": "6192", "@spider": "chef_and_brewer", "amenity": "pub", "addr:full": "Main Road, Brackley Hatch, Brackley, NN13 5TX", "addr:postcode": "NN13 5TX", "addr:country": "GB", "name": "Green Man Inn", "phone": "01280 850209", "website": "https://www.chefandbrewer.com/pubs/northamptonshire/green-man-inn/", "contact:email": "6192@greeneking.co.uk", "opening_hours": "Mo-Fr 11:00-23:00; Sa 09:30-23:00; Su 09:30-22:30", "image": "https://www.chefandbrewer.com/q/i/6192/", "brand": "Chef & Brewer", "brand:wikidata": "Q5089491", "nsi_id": "chefandbrewer-eaed91"}, "geometry": {"type": "Point", "coordinates": [-1.057257, 52.07065]}},
{"type": "Feature", "id": "NXgD8wuL3J2b28q1F_ZGZxQz18U=", "properties": {"ref": "6208", "@spider": "chef_and_brewer", "amenity": "pub", "addr:full": "Market Place, Masham, Ripon, HG4 4EF", "addr:postcode": "HG4 4EF", "addr:country": "GB", "name": "Kings Head", "phone": "01765 689295", "website": "https://www.chefandbrewer.com/pubs/north-yorkshire/kings-head/", "contact:email": "6208@greeneking.co.uk", "opening_hours": "Mo-Fr 11:00-23:00; Sa 09:30-23:00; Su 09:30-22:30", "image": "https://www.chefandbrewer.com/q/i/6208/", "brand": "Chef & Brewer", "brand:wikidata": "Q5089491", "nsi_id": "chefandbrewer-eaed91"}, "geometry": {"type": "Point", "coordinates": [-1.655846, 54.221314]}},
{"type": "Feature", "id": "v_0ko_x7lgOXODRDm73Uf3rm5cA=", "properties": {"ref": "6239", "@spider": "chef_and_brewer", "amenity": "pub", "addr:full": "Church Row, Beckwithshaw, Harrogate, HG3 1QW", "addr:postcode": "HG3 1QW", "addr:country": "GB", "name": "Smiths Arms", "phone": "01423 504871", "website": "https://www.chefandbrewer.com/pubs/north-yorkshire/smiths-arms/", "contact:email": "6239@greeneking.co.uk", "opening_hours": "Mo-Fr 11:00-23:00; Sa 09:30-23:00; Su 09:30-22:30", "image": "https://www.chefandbrewer.com/q/i/6239/", "brand": "Chef & Brewer", "brand:wikidata": "Q5089491", "nsi_id": "chefandbrewer-eaed91"}, "geometry": {"type": "Point", "coordinates": [-1.593147, 53.973722]}},
{"type": "Feature", "id": "MJGk_TPE2Dq_pUPRN1m0gIRnASQ=", "properties": {"ref": "6166", "@spider": "chef_and_brewer", "amenity": "pub", "addr:full": "Middlesbrough Road, Upsall, Guisborough, TS14 6RW", "addr:postcode": "TS14 6RW", "addr:country": "GB", "name": "Cross Keys", "phone": "01287 610035", "website": "https://www.chefandbrewer.com/pubs/north-yorkshire/cross-keys/", "contact:email": "6166@greeneking.co.uk", "opening_hours": "Mo-Sa 09:30-23:00; Su 09:30-22:30", "image": "https://www.chefandbrewer.com/q/i/6166/", "brand": "Chef & Brewer", "brand:wikidata": "Q5089491", "nsi_id": "chefandbrewer-eaed91"}, "geometry": {"type": "Point", "coordinates": [-1.124968, 54.53401]}},
{"type": "Feature", "id": "KtykV6vHUOoG3wRk_-uGtQ5ze-I=", "properties": {"ref": "6232", "@spider": "chef_and_brewer", "amenity": "pub", "addr:full": "46 Yarmouth Road, Thorpe St Andrew, Norwich, NR7 0HE", "addr:postcode": "NR7 0HE", "addr:country": "GB", "name": "Rushcutters Arms", "phone": "01603 435403", "website": "https://www.chefandbrewer.com/pubs/norfolk/rushcutters-arms/", "contact:email": "6232@greeneking.co.uk", "opening_hours": "Mo-Fr 11:00-23:00; Sa 09:30-23:00; Su 09:30-22:30", "image": "https://www.chefandbrewer.com/q/i/6232/", "brand": "Chef & Brewer", "brand:wikidata": "Q5089491", "nsi_id": "chefandbrewer-eaed91"}, "geometry": {"type": "Point", "coordinates": [1.34261, 52.625807]}},
{"type": "Feature", "id": "evGwS9C5ph042IivsPJl2V2CCoA=", "properties": {"ref": "6246", "@spider": "chef_and_brewer", "amenity": "pub", "addr:full": "Oxford Road, Uxbridge, UB8 1LZ", "addr:postcode": "UB8 1LZ", "addr:country": "GB", "name": "Swan & Bottle", "phone": "01895 234047", "website": "https://www.chefandbrewer.com/pubs/middlesex/swan-bottle/", "contact:email": "6246@greeneking.co.uk", "opening_hours": "Mo-Fr 11:00-23:00; Sa 09:30-23:00; Su 09:30-22:30", "image": "https://www.chefandbrewer.com/q/i/6246/", "brand": "Chef & Brewer", "brand:wikidata": "Q5089491", "nsi_id": "chefandbrewer-eaed91"}, "geometry": {"type": "Point", "coordinates": [-0.4848, 51.550738]}},
{"type": "Feature", "id": "wl7P5tw0_qod952JPWXUoswNUFw=", "properties": {"ref": "6209", "@spider": "chef_and_brewer", "amenity": "pub", "addr:full": ", Rudry, Caerphilly, CF83 3EB", "addr:postcode": "CF83 3EB", "addr:country": "GB", "name": "Maenllwyd Inn", "phone": "02920 882372", "website": "https://www.chefandbrewer.com/pubs/mid-glamorgan/maenllwyd-inn/", "contact:email": "6209@greeneking.co.uk", "opening_hours": "Mo-Fr 11:00-23:00; Sa 09:30-23:00; Su 09:30-22:30", "image": "https://www.chefandbrewer.com/q/i/6209/", "brand": "Chef & Brewer", "brand:wikidata": "Q5089491", "nsi_id": "chefandbrewer-eaed91"}, "geometry": {"type": "Point", "coordinates": [-3.153896, 51.572862]}},
{"type": "Feature", "id": "1VNGcOwZdI-SQ6WdBx8El5gx0QM=", "properties": {"ref": "6129", "@spider": "chef_and_brewer", "amenity": "pub", "addr:full": "26 St Helens Road, Rainford, St Helens, WA11 7QT", "addr:postcode": "WA11 7QT", "addr:country": "GB", "name": "Bottle & Glass Inn", "phone": "01744 882712", "website": "https://www.chefandbrewer.com/pubs/merseyside/bottle-glass-inn/", "contact:email": "6129@greeneking.co.uk", "opening_hours": "Mo-Fr 11:00-23:00; Sa 09:30-23:00; Su 09:30-22:30", "image": "https://www.chefandbrewer.com/q/i/6129/", "brand": "Chef & Brewer", "brand:wikidata": "Q5089491", "nsi_id": "chefandbrewer-eaed91"}, "geometry": {"type": "Point", "coordinates": [-2.774742, 53.48274]}},
{"type": "Feature", "id": "fTG0t6oGrOGjWMy-j3vkVESOWtU=", "properties": {"ref": "6109", "@spider": "chef_and_brewer", "amenity": "pub", "addr:full": "24-26 Gateacre Brow, Gateacre, Liverpool, L25 3PB", "addr:postcode": "L25 3PB", "addr:country": "GB", "name": "Bear & Staff", "phone": "01514 282526", "website": "https://www.chefandbrewer.com/pubs/merseyside/bear-staff/", "contact:email": "6109@greeneking.co.uk", "opening_hours": "Mo-Fr 11:00-23:00; Sa 09:30-23:00; Su 09:30-22:30", "image": "https://www.chefandbrewer.com/q/i/6109/", "brand": "Chef & Brewer", "brand:wikidata": "Q5089491", "nsi_id": "chefandbrewer-eaed91"}, "geometry": {"type": "Point", "coordinates": [-2.863984, 53.382863]}},
{"type": "Feature", "id": "OlJojeZ3DN0Wz9x6IillCgI0XO0=", "properties": {"ref": "6341", "@spider": "chef_and_brewer", "amenity": "pub", "addr:full": "Canwick Avenue, Bracebridge Heath, Lincoln, LN4 2RS", "addr:postcode": "LN4 2RS", "addr:country": "GB", "name": "Homestead", "phone": "01522 546400", "website": "https://www.chefandbrewer.com/pubs/lincolnshire/homestead/", "contact:email": "6341@greeneking.co.uk", "opening_hours": "Mo-Fr 11:00-23:00; Sa 09:30-23:00; Su 09:30-22:30", "image": "https://www.chefandbrewer.com/q/i/6341/", "brand": "Chef & Brewer", "brand:wikidata": "Q5089491", "nsi_id": "chefandbrewer-eaed91"}, "geometry": {"type": "Point", "coordinates": [-0.535365, 53.198407]}},
{"type": "Feature", "id": "ksD9D2Rnbgact5fiQ6AjWqfDK4E=", "properties": {"ref": "6149", "@spider": "chef_and_brewer", "amenity": "pub", "addr:full": "Main Street, Kirby Muxloe, Leicester, LE9 2AP", "addr:postcode": "LE9 2AP", "addr:country": "GB", "name": "Castle Hotel", "phone": "01162 395337", "website": "https://www.chefandbrewer.com/pubs/leicestershire/castle-hotel/", "contact:email": "6149@greeneking.co.uk", "opening_hours": "Mo-Fr 11:00-23:00; Sa 09:30-23:00; Su 09:30-22:30", "image": "https://www.chefandbrewer.com/q/i/6149/", "brand": "Chef & Brewer", "brand:wikidata": "Q5089491", "nsi_id": "chefandbrewer-eaed91"}, "geometry": {"type": "Point", "coordinates": [-1.228668, 52.637561]}},
{"type": "Feature", "id": "Xya58CP8FoYI9NiB52gLb62oAT8=", "properties": {"ref": "6272", "@spider": "chef_and_brewer", "amenity": "pub", "addr:full": "29 London Road, Great Glen, Leicester, LE8 9FL", "addr:postcode": "LE8 9FL", "addr:country": "GB", "name": "Yews", "phone": "01162 593369", "website": "https://www.chefandbrewer.com/pubs/leicestershire/yews/", "contact:email": "6272@greeneking.co.uk", "opening_hours": "Mo-Fr 11:00-23:00; Sa 09:30-23:00; Su 09:30-22:30", "image": "https://www.chefandbrewer.com/q/i/6272/", "brand": "Chef & Brewer", "brand:wikidata": "Q5089491", "nsi_id": "chefandbrewer-eaed91"}, "geometry": {"type": "Point", "coordinates": [-1.037068, 52.572396]}},
{"type": "Feature", "id": "W81I22J-6emBViaBCUE9MEwUSEM=", "properties": {"ref": "5821", "@spider": "chef_and_brewer", "amenity": "pub", "addr:full": "Mellor Lane, Mellor, Blackburn, BB2 7EG", "addr:postcode": "BB2 7EG", "addr:country": "GB", "name": "Spread Eagle", "phone": "01254813528", "website": "https://www.chefandbrewer.com/pubs/lancashire/spread-eagle/", "opening_hours": "Mo-Fr 10:00-21:00; Sa 09:00-21:00; Su 09:30-21:00", "image": "https://www.chefandbrewer.com/q/i/5821/", "brand": "Chef & Brewer", "brand:wikidata": "Q5089491", "nsi_id": "chefandbrewer-eaed91"}, "geometry": {"type": "Point", "coordinates": [-2.50487, 53.7752]}},
{"type": "Feature", "id": "CZuc-2piihTOj45c7i5Hqh3rXa8=", "properties": {"ref": "5804", "@spider": "chef_and_brewer", "amenity": "pub", "addr:full": "Main Road, Slyne, Lancaster, LA2 6AU", "addr:postcode": "LA2 6AU", "addr:country": "GB", "name": "Cross Keys", "phone": "01524 823166", "website": "https://www.chefandbrewer.com/pubs/lancashire/cross-keys/", "opening_hours": "Mo-Fr 11:00-23:00; Sa 09:30-23:00; Su 09:30-22:30", "image": "https://www.chefandbrewer.com/q/i/5804/", "brand": "Chef & Brewer", "brand:wikidata": "Q5089491", "nsi_id": "chefandbrewer-eaed91"}, "geometry": {"type": "Point", "coordinates": [-2.800802, 54.084075]}},
{"type": "Feature", "id": "c5iguv0_xb-Dbyd3HaAyiHSQHLU=", "properties": {"ref": "5803", "@spider": "chef_and_brewer", "amenity": "pub", "addr:full": "Bowerham Road, Lancaster, LA1 3AH", "addr:postcode": "LA1 3AH", "addr:country": "GB", "name": "Greaves Park", "phone": "01524 389335", "website": "https://www.chefandbrewer.com/pubs/lancashire/greaves-park/", "opening_hours": "Mo-Fr 11:00-23:00; Sa 09:30-23:00; Su 09:30-22:30", "image": "https://www.chefandbrewer.com/q/i/5803/", "brand": "Chef & Brewer", "brand:wikidata": "Q5089491", "nsi_id": "chefandbrewer-eaed91"}, "geometry": {"type": "Point", "coordinates": [-2.794584, 54.040886]}},
{"type": "Feature", "id": "YBXR3ZJHZuyluJV_OHL7PrgJGBA=", "properties": {"ref": "6731", "@spider": "chef_and_brewer", "amenity": "pub", "addr:full": "Skippool Road, Little Thornton, Cleveleys, FY5 5LD", "addr:postcode": "FY5 5LD", "addr:country": "GB", "name": "Thornton Lodge", "phone": "01253 882455", "website": "https://www.chefandbrewer.com/pubs/lancashire/thornton-lodge/", "contact:email": "6731@greeneking.co.uk", "opening_hours": "Mo-Fr 11:00-23:00; Sa 09:30-23:00; Su 09:30-22:30", "image": "https://www.chefandbrewer.com/q/i/6731/", "brand": "Chef & Brewer", "brand:wikidata": "Q5089491", "nsi_id": "chefandbrewer-eaed91"}, "geometry": {"type": "Point", "coordinates": [-2.983186, 53.858671]}},
{"type": "Feature", "id": "TCrbYKQNc8mISCLdysUomx-jaaI=", "properties": {"ref": "6210", "@spider": "chef_and_brewer", "amenity": "pub", "addr:full": "Moss Lane, Whittle-Le-Woods, Chorley, PR6 8AB", "addr:postcode": "PR6 8AB", "addr:country": "GB", "name": "Malthouse Farm", "phone": "01257 232889", "website": "https://www.chefandbrewer.com/pubs/lancashire/malthouse-farm/", "contact:email": "6210@greeneking.co.uk", "opening_hours": "Mo-Tu 11:00-23:00; We-Sa 09:00-23:00; Su 09:00-22:30", "image": "https://www.chefandbrewer.com/q/i/6210/", "brand": "Chef & Brewer", "brand:wikidata": "Q5089491", "nsi_id": "chefandbrewer-eaed91"}, "geometry": {"type": "Point", "coordinates": [-2.619971, 53.678047]}},
{"type": "Feature", "id": "rNQkhgDzWoL0bOrSnFzLVGF8Ffo=", "properties": {"ref": "6171", "@spider": "chef_and_brewer", "amenity": "pub", "addr:full": "852 Wilmslow Road, Didsbury, Manchester, M20 2SG", "addr:postcode": "M20 2SG", "addr:country": "GB", "name": "Didsbury", "phone": "01614 455389", "website": "https://www.chefandbrewer.com/pubs/lancashire/didsbury/", "contact:email": "6171@greeneking.co.uk", "opening_hours": "Mo-Sa 09:30-23:00; Su 09:30-22:30", "image": "https://www.chefandbrewer.com/q/i/6171/", "brand": "Chef & Brewer", "brand:wikidata": "Q5089491", "nsi_id": "chefandbrewer-eaed91"}, "geometry": {"type": "Point", "coordinates": [-2.230789, 53.410308]}},
{"type": "Feature", "id": "WibclY_oQQAzcgAHDiGILdDmEF0=", "properties": {"ref": "6121", "@spider": "chef_and_brewer", "amenity": "pub", "addr:full": "Chorley Old Road, Horwich, Bolton, BL6 6PY", "addr:postcode": "BL6 6PY", "addr:country": "GB", "name": "Blundell Arms", "phone": "01204 841194", "website": "https://www.chefandbrewer.com/pubs/lancashire/blundell-arms/", "contact:email": "6121@greeneking.co.uk", "opening_hours": "Mo-Fr 11:00-23:00; Sa 09:30-23:00; Su 09:30-22:30", "image": "https://www.chefandbrewer.com/q/i/6121/", "brand": "Chef & Brewer", "brand:wikidata": "Q5089491", "nsi_id": "chefandbrewer-eaed91"}, "geometry": {"type": "Point", "coordinates": [-2.506217, 53.595302]}},
{"type": "Feature", "id": "FvgEFB1h7yDw-Z8sjN2ib5zKj8M=", "properties": {"ref": "6241", "@spider": "chef_and_brewer", "amenity": "pub", "addr:full": "Ormskirk Road, Bickerstaffe, Ormskirk, L39 9EN", "addr:postcode": "L39 9EN", "addr:country": "GB", "name": "Stanley Gate", "phone": "01695 727700", "website": "https://www.chefandbrewer.com/pubs/lancashire/stanley-gate/", "contact:email": "6241@greeneking.co.uk", "opening_hours": "Mo-Fr 11:00-23:00; Sa 10:00-23:00; Su 10:00-22:30", "image": "https://www.chefandbrewer.com/q/i/6241/", "brand": "Chef & Brewer", "brand:wikidata": "Q5089491", "nsi_id": "chefandbrewer-eaed91"}, "geometry": {"type": "Point", "coordinates": [-2.842215, 53.541148]}},
{"type": "Feature", "id": "BcVH-yS_jI3X53Bj3gekjOdJ9_w=", "properties": {"ref": "6227", "@spider": "chef_and_brewer", "amenity": "pub", "addr:full": "Garstang Road, Bilsborrow, Preston, PR3 0RE", "addr:postcode": "PR3 0RE", "addr:country": "GB", "name": "Roebuck", "phone": "01995 640234", "website": "https://www.chefandbrewer.com/pubs/lancashire/roebuck/", "contact:email": "6227@greeneking.co.uk", "opening_hours": "Mo-Fr 11:00-23:00; Sa 09:30-23:00; Su 09:30-22:30", "image": "https://www.chefandbrewer.com/q/i/6227/", "brand": "Chef & Brewer", "brand:wikidata": "Q5089491", "nsi_id": "chefandbrewer-eaed91"}, "geometry": {"type": "Point", "coordinates": [-2.745932, 53.851401]}},
{"type": "Feature", "id": "GJLrln51yapgjqU42aUbDc77bBc=", "properties": {"ref": "6188", "@spider": "chef_and_brewer", "amenity": "pub", "addr:full": "Station Road, Wrea Green, Preston, PR4 2PH", "addr:postcode": "PR4 2PH", "addr:country": "GB", "name": "Grapes Hotel", "phone": "01772 682927", "website": "https://www.chefandbrewer.com/pubs/lancashire/grapes-hotel/", "contact:email": "6188@greeneking.co.uk", "opening_hours": "Mo-Fr 11:00-23:00; Sa 09:30-23:00; Su 09:30-22:30", "image": "https://www.chefandbrewer.com/q/i/6188/", "brand": "Chef & Brewer", "brand:wikidata": "Q5089491", "nsi_id": "chefandbrewer-eaed91"}, "geometry": {"type": "Point", "coordinates": [-2.916159, 53.777115]}},
{"type": "Feature", "id": "nKisHsgf6NrktAJjjvy0Q2GJeT0=", "properties": {"ref": "6249", "@spider": "chef_and_brewer", "amenity": "pub", "addr:full": "Watts Lane, Chislehurst, BR7 5PJ", "addr:postcode": "BR7 5PJ", "addr:country": "GB", "name": "Tigers Head", "phone": "02084 673070", "website": "https://www.chefandbrewer.com/pubs/kent/tigers-head/", "contact:email": "6249@greeneking.co.uk", "opening_hours": "Mo-Fr 11:00-23:00; Sa 09:30-23:00; Su 09:30-22:30", "image": "https://www.chefandbrewer.com/q/i/6249/", "brand": "Chef & Brewer", "brand:wikidata": "Q5089491", "nsi_id": "chefandbrewer-eaed91"}, "geometry": {"type": "Point", "coordinates": [0.074385, 51.409025]}},
{"type": "Feature", "id": "qNM5KZZBZUL2WtSqhxkR-xz33D8=", "properties": {"ref": "6164", "@spider": "chef_and_brewer", "amenity": "pub", "addr:full": "Penenden Heath Road, Maidstone, ME14 2DG", "addr:postcode": "ME14 2DG", "addr:country": "GB", "name": "Chiltern Hundreds", "phone": "01622 752335", "website": "https://www.chefandbrewer.com/pubs/kent/chiltern-hundreds/", "contact:email": "6164@greeneking.co.uk", "opening_hours": "Mo-Fr 11:00-23:00; Sa 09:30-23:00; Su 09:30-22:30", "image": "https://www.chefandbrewer.com/q/i/6164/", "brand": "Chef & Brewer", "brand:wikidata": "Q5089491", "nsi_id": "chefandbrewer-eaed91"}, "geometry": {"type": "Point", "coordinates": [0.542239, 51.285751]}},
{"type": "Feature", "id": "UyXPHg49z95YbXHHQhpBOAh5LjY=", "properties": {"ref": "6254", "@spider": "chef_and_brewer", "amenity": "pub", "addr:full": "Tonbridge Road, Wateringbury, Maidstone, ME18 5NS", "addr:postcode": "ME18 5NS", "addr:country": "GB", "name": "Wateringbury", "phone": "01622 812632", "website": "https://www.chefandbrewer.com/pubs/kent/wateringbury/", "contact:email": "6254@greeneking.co.uk", "opening_hours": "Mo-Fr 11:00-23:00; Sa 09:30-23:00; Su 09:30-22:30", "image": "https://www.chefandbrewer.com/q/i/6254/", "brand": "Chef & Brewer", "brand:wikidata": "Q5089491", "nsi_id": "chefandbrewer-eaed91"}, "geometry": {"type": "Point", "coordinates": [0.424579, 51.25471]}},
{"type": "Feature", "id": "ASHwwj7fpDY7StREYURgUZTLwDg=", "properties": {"ref": "6253", "@spider": "chef_and_brewer", "amenity": "pub", "addr:full": "Vauxhall Lane, Tonbridge, TN11 0NA", "addr:postcode": "TN11 0NA", "addr:country": "GB", "name": "Vauxhall Inn", "phone": "01732 773111", "website": "https://www.chefandbrewer.com/pubs/kent/vauxhall-inn/", "contact:email": "6253@greeneking.co.uk", "opening_hours": "Mo-Fr 11:00-23:00; Sa 09:30-23:00; Su 09:30-22:30", "image": "https://www.chefandbrewer.com/q/i/6253/", "brand": "Chef & Brewer", "brand:wikidata": "Q5089491", "nsi_id": "chefandbrewer-eaed91"}, "geometry": {"type": "Point", "coordinates": [0.281355, 51.182225]}},
{"type": "Feature", "id": "f5VgD7xXIv7qUkmoyDVWo9QWA5w=", "properties": {"ref": "7766", "@spider": "chef_and_brewer", "amenity": "pub", "addr:full": "49 Cambridge Road, Wadesmill, Ware, SG12 0TN", "addr:postcode": "SG12 0TN", "addr:country": "GB", "name": "Feathers", "phone": "01920 462606", "website": "https://www.chefandbrewer.com/pubs/hertfordshire/feathers/", "contact:email": "7766@Greeneking.co.uk", "opening_hours": "Mo-Fr 07:00-23:00; Sa 08:00-23:00; Su 08:00-22:30", "image": "https://www.chefandbrewer.com/q/i/7766/", "brand": "Chef & Brewer", "brand:wikidata": "Q5089491", "nsi_id": "chefandbrewer-eaed91"}, "geometry": {"type": "Point", "coordinates": [-0.027803, 51.840269]}},
{"type": "Feature", "id": "galc2-nULv3dMX8WijfHgqHL0HY=", "properties": {"ref": "4019", "@spider": "chef_and_brewer", "amenity": "pub", "addr:full": "London Road, Baldock, SG7 6LZ", "addr:postcode": "SG7 6LZ", "addr:country": "GB", "name": "George IV", "phone": "01462 892367", "website": "https://www.chefandbrewer.com/pubs/hertfordshire/george-iv/", "contact:email": "4019@Greeneking.co.uk", "opening_hours": "Mo-Fr 11:00-23:00; Sa 09:30-23:00; Su 09:30-22:30", "image": "https://www.chefandbrewer.com/q/i/4019/", "brand": "Chef & Brewer", "brand:wikidata": "Q5089491", "nsi_id": "chefandbrewer-eaed91"}, "geometry": {"type": "Point", "coordinates": [-0.188006, 51.975629]}},
{"type": "Feature", "id": "ef5Tw_fWwDZO2Dht7nMcWmLqCEg=", "properties": {"ref": "6151", "@spider": "chef_and_brewer", "amenity": "pub", "addr:full": "St Albans Road, Redbourn, St Albans, AL3 7AD", "addr:postcode": "AL3 7AD", "addr:country": "GB", "name": "Chequers Inn", "phone": "01582 792359", "website": "https://www.chefandbrewer.com/pubs/hertfordshire/chequers-inn/", "contact:email": "6151@greeneking.co.uk", "opening_hours": "Mo-Fr 11:00-23:00; Sa 09:30-23:00; Su 09:30-22:30", "image": "https://www.chefandbrewer.com/q/i/6151/", "brand": "Chef & Brewer", "brand:wikidata": "Q5089491", "nsi_id": "chefandbrewer-eaed91"}, "geometry": {"type": "Point", "coordinates": [-0.39148, 51.793399]}},
{"type": "Feature", "id": "ldNSjIglSt49ExGPYfWplXAnBp8=", "properties": {"ref": "6107", "@spider": "chef_and_brewer", "amenity": "pub", "addr:full": "Butterfly Lane, Elstree, Borehamwood, WD6 3AD", "addr:postcode": "WD6 3AD", "addr:country": "GB", "name": "Battle Axes", "phone": "02089 531049", "website": "https://www.chefandbrewer.com/pubs/hertfordshire/battle-axes/", "contact:email": "6107@greeneking.co.uk", "opening_hours": "Mo-Fr 11:00-23:00; Sa 09:30-23:00; Su 09:30-22:30", "image": "https://www.chefandbrewer.com/q/i/6107/", "brand": "Chef & Brewer", "brand:wikidata": "Q5089491", "nsi_id": "chefandbrewer-eaed91"}, "geometry": {"type": "Point", "coordinates": [-0.318777, 51.657879]}},
{"type": "Feature", "id": "NF_CopUIAjSCd7r-ws6ix3fcybY=", "properties": {"ref": "6191", "@spider": "chef_and_brewer", "amenity": "pub", "addr:full": "5 High Street, Great Offley, Hitchin, SG5 3AR", "addr:postcode": "SG5 3AR", "addr:country": "GB", "name": "Green Man", "phone": "01462 768256", "website": "https://www.chefandbrewer.com/pubs/hertfordshire/green-man/", "contact:email": "6191@greeneking.co.uk", "opening_hours": "Mo-Fr 11:00-23:00; Sa 09:30-23:00; Su 09:30-22:30", "image": "https://www.chefandbrewer.com/q/i/6191/", "brand": "Chef & Brewer", "brand:wikidata": "Q5089491", "nsi_id": "chefandbrewer-eaed91"}, "geometry": {"type": "Point", "coordinates": [-0.339718, 51.930724]}},
{"type": "Feature", "id": "e97nIg3YR4P_akzorLFlYQMMB4w=", "properties": {"ref": "6177", "@spider": "chef_and_brewer", "amenity": "pub", "addr:full": "1 Church Road, Little Berkhamsted, Hertford, SG13 8LY", "addr:postcode": "SG13 8LY", "addr:country": "GB", "name": "Five Horseshoes", "phone": "01707 875055", "website": "https://www.chefandbrewer.com/pubs/hertfordshire/five-horseshoes/", "contact:email": "6177@greeneking.co.uk", "opening_hours": "Mo-Fr 11:00-23:00; Sa 09:30-23:00; Su 09:30-22:30", "image": "https://www.chefandbrewer.com/q/i/6177/", "brand": "Chef & Brewer", "brand:wikidata": "Q5089491", "nsi_id": "chefandbrewer-eaed91"}, "geometry": {"type": "Point", "coordinates": [-0.129733, 51.753828]}},
{"type": "Feature", "id": "VmT4m1xwaLc5NpMCimMUbJxMPq4=", "properties": {"ref": "6248", "@spider": "chef_and_brewer", "amenity": "pub", "addr:full": "Spellbrook Lane East, Spellbrook, Bishops Stortford, CM22 7SE", "addr:postcode": "CM22 7SE", "addr:country": "GB", "name": "Three Horse Shoes", "phone": "01279 722849", "website": "https://www.chefandbrewer.com/pubs/hertfordshire/three-horse-shoes/", "contact:email": "6248@greeneking.co.uk", "opening_hours": "Mo-Fr 11:00-23:00; Sa 09:30-23:00; Su 09:30-22:30", "image": "https://www.chefandbrewer.com/q/i/6248/", "brand": "Chef & Brewer", "brand:wikidata": "Q5089491", "nsi_id": "chefandbrewer-eaed91"}, "geometry": {"type": "Point", "coordinates": [0.157886, 51.836311]}},
{"type": "Feature", "id": "DQOoV-HpVAy6FYGEAmdfYKhfqAg=", "properties": {"ref": "6214", "@spider": "chef_and_brewer", "amenity": "pub", "addr:full": "177 Luton Road, Harpenden, AL5 3BN", "addr:postcode": "AL5 3BN", "addr:country": "GB", "name": "Old Bell", "phone": "01582 712484", "website": "https://www.chefandbrewer.com/pubs/hertfordshire/old-bell/", "contact:email": "6214@greeneking.co.uk", "opening_hours": "Mo-Fr 11:00-23:00; Sa 09:30-23:00; Su 09:30-22:30", "image": "https://www.chefandbrewer.com/q/i/6214/", "brand": "Chef & Brewer", "brand:wikidata": "Q5089491", "nsi_id": "chefandbrewer-eaed91"}, "geometry": {"type": "Point", "coordinates": [-0.368091, 51.824703]}},
{"type": "Feature", "id": "Hu-LAG_y57_22Zgm9DjkzvwfFaQ=", "properties": {"ref": "6251", "@spider": "chef_and_brewer", "amenity": "pub", "addr:full": "The Common, Chipperfield, Kings Langley, WD4 9BS", "addr:postcode": "WD4 9BS", "addr:country": "GB", "name": "Two Brewers", "phone": "01923 265266", "website": "https://www.chefandbrewer.com/pubs/hertfordshire/two-brewers/", "contact:email": "6251@greeneking.co.uk", "opening_hours": "Mo-Fr 11:00-23:00; Sa 09:30-23:00; Su 09:30-22:30", "image": "https://www.chefandbrewer.com/q/i/6251/", "brand": "Chef & Brewer", "brand:wikidata": "Q5089491", "nsi_id": "chefandbrewer-eaed91"}, "geometry": {"type": "Point", "coordinates": [-0.491292, 51.703791]}},
{"type": "Feature", "id": "BzONNsYLYowpYmKM2yQgDMB9_gQ=", "properties": {"ref": "5249", "@spider": "chef_and_brewer", "amenity": "pub", "addr:full": "London Road, Blackwater, Camberley, GU17 9LJ", "addr:postcode": "GU17 9LJ", "addr:country": "GB", "name": "Ely", "phone": "01252 860444", "website": "https://www.chefandbrewer.com/pubs/hampshire/ely/", "contact:email": "5249@Greeneking.co.uk", "opening_hours": "Mo-Fr 07:00-23:00; Sa-Su 08:00-23:00", "image": "https://www.chefandbrewer.com/q/i/5249/", "brand": "Chef & Brewer", "brand:wikidata": "Q5089491", "nsi_id": "chefandbrewer-eaed91"}, "geometry": {"type": "Point", "coordinates": [-0.821923, 51.323906]}},
{"type": "Feature", "id": "PWp06wMl8ZY0D8nx84H8Otkxliw=", "properties": {"ref": "7992", "@spider": "chef_and_brewer", "amenity": "pub", "addr:full": "3 Kiln Road, Sherborne St John, Basingstoke, RG24 9HS", "addr:postcode": "RG24 9HS", "addr:country": "GB", "name": "Swan", "phone": "01256 850165", "website": "https://www.chefandbrewer.com/pubs/hampshire/swan-sherborne-st-john/", "contact:email": "7992@greeneking.co.uk", "opening_hours": "Mo-Fr 11:00-23:00; Sa 09:30-23:00; Su 09:30-22:30", "image": "https://www.chefandbrewer.com/q/i/7992/", "brand": "Chef & Brewer", "brand:wikidata": "Q5089491", "nsi_id": "chefandbrewer-eaed91"}, "geometry": {"type": "Point", "coordinates": [-1.105903, 51.293632]}},
{"type": "Feature", "id": "lXzLM87iJSVWXkP-lMrUL9XS7iU=", "properties": {"ref": "7914", "@spider": "chef_and_brewer", "amenity": "pub", "addr:full": "The Cross, Burley, Ringwood, BH24 4AB", "addr:postcode": "BH24 4AB", "addr:country": "GB", "name": "Queens Head", "phone": "01425 403423", "website": "https://www.chefandbrewer.com/pubs/hampshire/queens-head/", "contact:email": "7914@Greeneking.co.uk", "opening_hours": "Mo-Fr 11:00-23:00; Sa 09:30-23:00; Su 09:30-22:30", "image": "https://www.chefandbrewer.com/q/i/7914/", "brand": "Chef & Brewer", "brand:wikidata": "Q5089491", "nsi_id": "chefandbrewer-eaed91"}, "geometry": {"type": "Point", "coordinates": [-1.701071, 50.826747]}},
{"type": "Feature", "id": "Q4dpZdxrAWBXtX_83oknUo0Ir6Y=", "properties": {"ref": "6259", "@spider": "chef_and_brewer", "amenity": "pub", "addr:full": "Winchester Road, North Waltham, Basingstoke, RG25 2BB", "addr:postcode": "RG25 2BB", "addr:country": "GB", "name": "Wheatsheaf", "phone": "01256 398282", "website": "https://www.chefandbrewer.com/pubs/hampshire/wheatsheaf/", "contact:email": "6259@greeneking.co.uk", "opening_hours": "Mo-Fr 11:00-23:00; Sa 09:30-23:00; Su 09:30-22:30", "image": "https://www.chefandbrewer.com/q/i/6259/", "brand": "Chef & Brewer", "brand:wikidata": "Q5089491", "nsi_id": "chefandbrewer-eaed91"}, "geometry": {"type": "Point", "coordinates": [-1.186635, 51.205629]}},
{"type": "Feature", "id": "19qw1TQcJ9iAaycfL4ZDGdzYzLg=", "properties": {"ref": "6256", "@spider": "chef_and_brewer", "amenity": "pub", "addr:full": "Colt Hill-London Road, Odiham, Hook, RG29 1AL", "addr:postcode": "RG29 1AL", "addr:country": "GB", "name": "Waterwitch", "phone": "01256 702778", "website": "https://www.chefandbrewer.com/pubs/hampshire/waterwitch/", "contact:email": "6256@greeneking.co.uk", "opening_hours": "Mo-Fr 11:00-23:00; Sa 09:30-23:00; Su 09:30-22:30", "image": "https://www.chefandbrewer.com/q/i/6256/", "brand": "Chef & Brewer", "brand:wikidata": "Q5089491", "nsi_id": "chefandbrewer-eaed91"}, "geometry": {"type": "Point", "coordinates": [-0.932342, 51.258868]}},
{"type": "Feature", "id": "zOHPP93ng6NhPyS4eljyNJD9jA0=", "properties": {"ref": "6198", "@spider": "chef_and_brewer", "amenity": "pub", "addr:full": "London Road, Old Basing, Basingstoke, RG24 7JL", "addr:postcode": "RG24 7JL", "addr:country": "GB", "name": "Hatch", "phone": "01256 473077", "website": "https://www.chefandbrewer.com/pubs/hampshire/hatch/", "contact:email": "6198@greeneking.co.uk", "opening_hours": "Mo-Fr 11:00-23:00; Sa 09:30-23:00; Su 09:30-22:30", "image": "https://www.chefandbrewer.com/q/i/6198/", "brand": "Chef & Brewer", "brand:wikidata": "Q5089491", "nsi_id": "chefandbrewer-eaed91"}, "geometry": {"type": "Point", "coordinates": [-1.033389, 51.264046]}},
{"type": "Feature", "id": "0TdLZVmDHEKoSYPVoNMImqAxP_E=", "properties": {"ref": "6180", "@spider": "chef_and_brewer", "amenity": "pub", "addr:full": "Birch Spinney, Hungerford, Bursledon, Southampton, SO31 8DE", "addr:postcode": "SO31 8DE", "addr:country": "GB", "name": "Fox & Hounds", "phone": "02380 402784", "website": "https://www.chefandbrewer.com/pubs/hampshire/fox-hounds/", "contact:email": "6180@greeneking.co.uk", "opening_hours": "Mo-Fr 11:00-23:00; Sa 09:30-23:00; Su 09:30-22:30", "image": "https://www.chefandbrewer.com/q/i/6180/", "brand": "Chef & Brewer", "brand:wikidata": "Q5089491", "nsi_id": "chefandbrewer-eaed91"}, "geometry": {"type": "Point", "coordinates": [-1.317243, 50.883112]}},
{"type": "Feature", "id": "sP7PVNlpQdlJ3FieNXUuFj78m5E=", "properties": {"ref": "6266", "@spider": "chef_and_brewer", "amenity": "pub", "addr:full": "Romsey Road, Lyndhurst, SO43 7AR", "addr:postcode": "SO43 7AR", "addr:country": "GB", "name": "White Rabbit", "phone": "02380 282814", "website": "https://www.chefandbrewer.com/pubs/hampshire/white-rabbit/", "contact:email": "6266@greeneking.co.uk", "opening_hours": "Mo-Fr 11:00-23:00; Sa 09:30-23:00; Su 09:30-22:30", "image": "https://www.chefandbrewer.com/q/i/6266/", "brand": "Chef & Brewer", "brand:wikidata": "Q5089491", "nsi_id": "chefandbrewer-eaed91"}, "geometry": {"type": "Point", "coordinates": [-1.576761, 50.875607]}},
{"type": "Feature", "id": "fXoTP0hbVYp_OTad3VFm-T6YT9k=", "properties": {"ref": "6133", "@spider": "chef_and_brewer", "amenity": "pub", "addr:full": "Shawford Road, Shawford, Winchester, SO21 2BP", "addr:postcode": "SO21 2BP", "addr:country": "GB", "name": "Bridge", "phone": "01962 713171", "website": "https://www.chefandbrewer.com/pubs/hampshire/bridge/", "contact:email": "6133@greeneking.co.uk", "opening_hours": "Mo-Fr 11:00-23:00; Sa 09:30-23:00; Su 09:30-22:30", "image": "https://www.chefandbrewer.com/q/i/6133/", "brand": "Chef & Brewer", "brand:wikidata": "Q5089491", "nsi_id": "chefandbrewer-eaed91"}, "geometry": {"type": "Point", "coordinates": [-1.326974, 51.022309]}},
{"type": "Feature", "id": "3TZQdaIMqATMuG3v45PdrmP10jc=", "properties": {"ref": "6145", "@spider": "chef_and_brewer", "amenity": "pub", "addr:full": "15 Strand-on-the-Green, Chiswick, W4 3PQ", "addr:postcode": "W4 3PQ", "addr:country": "GB", "name": "Bulls Head", "phone": "02089 941204", "website": "https://www.chefandbrewer.com/pubs/greater-london/bulls-head/", "contact:email": "6145@greeneking.co.uk", "opening_hours": "Mo-Fr 11:00-23:00; Sa 09:30-23:00; Su 09:30-22:30", "image": "https://www.chefandbrewer.com/q/i/6145/", "brand": "Chef & Brewer", "brand:wikidata": "Q5089491", "nsi_id": "chefandbrewer-eaed91"}, "geometry": {"type": "Point", "coordinates": [-0.278177, 51.484383]}},
{"type": "Feature", "id": "mrYVFFmDsTmTFfCJ543gSNXOlPE=", "properties": {"ref": "7612", "@spider": "chef_and_brewer", "amenity": "pub", "addr:full": "Crickley Hill, Birdlip, Gloucester, GL4 8JY", "addr:postcode": "GL4 8JY", "addr:country": "GB", "name": "Air Balloon", "phone": "01452 862541", "website": "https://www.chefandbrewer.com/pubs/gloucestershire/air-balloon/", "contact:email": "7612@Greeneking.co.uk", "opening_hours": "Mo-Fr 11:00-23:00; Sa 09:30-23:00; Su 09:30-22:30", "image": "https://www.chefandbrewer.com/q/i/7612/", "brand": "Chef & Brewer", "brand:wikidata": "Q5089491", "nsi_id": "chefandbrewer-eaed91"}, "geometry": {"type": "Point", "coordinates": [-2.096714, 51.843372]}},
{"type": "Feature", "id": "pPSOy7cSEJn5X7-VZheYogCXCO0=", "properties": {"ref": "6261", "@spider": "chef_and_brewer", "amenity": "pub", "addr:full": "Centre Seven, Barnwood, Gloucester, GL4 3HR", "addr:postcode": "GL4 3HR", "addr:country": "GB", "name": "Wheatstone Inn", "phone": "01452 634360", "website": "https://www.chefandbrewer.com/pubs/gloucestershire/wheatstone-inn/", "contact:email": "6261@greeneking.co.uk", "opening_hours": "Mo-Fr 11:00-23:00; Sa 09:30-23:00; Su 09:30-22:30", "image": "https://www.chefandbrewer.com/q/i/6261/", "brand": "Chef & Brewer", "brand:wikidata": "Q5089491", "nsi_id": "chefandbrewer-eaed91"}, "geometry": {"type": "Point", "coordinates": [-2.197312, 51.868638]}},
{"type": "Feature", "id": "qXiykGzunnV5-e7bOBtARqZ-Q4Y=", "properties": {"ref": "6189", "@spider": "chef_and_brewer", "amenity": "pub", "addr:full": "Mulberry Green, Harlow, CM17 0ET", "addr:postcode": "CM17 0ET", "addr:country": "GB", "name": "Green Man", "phone": "01279 442521", "website": "https://www.chefandbrewer.com/pubs/essex/green-man/", "contact:email": "6189@greeneking.co.uk", "opening_hours": "Mo-Fr 11:00-23:00; Sa 09:30-23:00; Su 09:30-22:30", "image": "https://www.chefandbrewer.com/q/i/6189/", "brand": "Chef & Brewer", "brand:wikidata": "Q5089491", "nsi_id": "chefandbrewer-eaed91"}, "geometry": {"type": "Point", "coordinates": [0.140019, 51.783137]}},
{"type": "Feature", "id": "mG4YSmm3vx3bGT-GAXT9jKEALJg=", "properties": {"ref": "6187", "@spider": "chef_and_brewer", "amenity": "pub", "addr:full": "Main Road, Boreham, Chelmsford, CM3 3HJ", "addr:postcode": "CM3 3HJ", "addr:country": "GB", "name": "Grange", "phone": "01245 398495", "website": "https://www.chefandbrewer.com/pubs/essex/grange/", "contact:email": "6187@greeneking.co.uk", "opening_hours": "Mo-Fr 11:00-23:00; Sa 09:30-23:00; Su 09:30-22:30", "image": "https://www.chefandbrewer.com/q/i/6187/", "brand": "Chef & Brewer", "brand:wikidata": "Q5089491", "nsi_id": "chefandbrewer-eaed91"}, "geometry": {"type": "Point", "coordinates": [0.523616, 51.756737]}},
{"type": "Feature", "id": "9w3jYozXvKU3eG7RhhnWylumbkI=", "properties": {"ref": "6141", "@spider": "chef_and_brewer", "amenity": "pub", "addr:full": "99 Main Road, Hockley, SS5 4RN", "addr:postcode": "SS5 4RN", "addr:country": "GB", "name": "Bull", "phone": "01702 203122", "website": "https://www.chefandbrewer.com/pubs/essex/bull/", "contact:email": "6141@greeneking.co.uk", "opening_hours": "Mo-Fr 11:00-23:00; Sa 09:30-23:00; Su 09:30-22:30", "image": "https://www.chefandbrewer.com/q/i/6141/", "brand": "Chef & Brewer", "brand:wikidata": "Q5089491", "nsi_id": "chefandbrewer-eaed91"}, "geometry": {"type": "Point", "coordinates": [0.645409, 51.600804]}},
{"type": "Feature", "id": "44ESmN_WHqg81rRSk4XIGBpHXC4=", "properties": {"ref": "6271", "@spider": "chef_and_brewer", "amenity": "pub", "addr:full": "The Causeway, Great Horkesley, Colchester, CO6 4EG", "addr:postcode": "CO6 4EG", "addr:country": "GB", "name": "Yew Tree", "phone": "01206 273450", "website": "https://www.chefandbrewer.com/pubs/essex/yew-tree/", "contact:email": "6271@greeneking.co.uk", "opening_hours": "Mo-Fr 11:00-23:00; Sa 09:30-23:00; Su 09:30-22:30", "image": "https://www.chefandbrewer.com/q/i/6271/", "brand": "Chef & Brewer", "brand:wikidata": "Q5089491", "nsi_id": "chefandbrewer-eaed91"}, "geometry": {"type": "Point", "coordinates": [0.875362, 51.93743]}},
{"type": "Feature", "id": "KS9IsPiTzZGGhJklDVw8vmN-ro0=", "properties": {"ref": "6099", "@spider": "chef_and_brewer", "amenity": "pub", "addr:full": "Sewardstone Road, Sewardstone, Waltham Abbey, EN9 3QF", "addr:postcode": "EN9 3QF", "addr:country": "GB", "name": "Bakers Arms", "phone": "01992 656000", "website": "https://www.chefandbrewer.com/pubs/essex/bakers-arms/", "contact:email": "6099@greeneking.co.uk", "opening_hours": "Mo-Fr 11:00-23:00; Sa 09:30-23:00; Su 09:30-22:30", "image": "https://www.chefandbrewer.com/q/i/6099/", "brand": "Chef & Brewer", "brand:wikidata": "Q5089491", "nsi_id": "chefandbrewer-eaed91"}, "geometry": {"type": "Point", "coordinates": [0.002212, 51.6681]}},
{"type": "Feature", "id": "TJUyqUvul7F-wkN7QPjcGOeNMF4=", "properties": {"ref": "6147", "@spider": "chef_and_brewer", "amenity": "pub", "addr:full": "London Road, Butley, Macclesfield, SK10 4EA", "addr:postcode": "SK10 4EA", "addr:country": "GB", "name": "Butley Ash", "phone": "01625 824930", "website": "https://www.chefandbrewer.com/pubs/cheshire/butley-ash/", "contact:email": "6147@greeneking.co.uk", "opening_hours": "Mo-Fr 11:00-23:00; Sa 09:30-23:00; Su 09:30-22:30", "image": "https://www.chefandbrewer.com/q/i/6147/", "brand": "Chef & Brewer", "brand:wikidata": "Q5089491", "nsi_id": "chefandbrewer-eaed91"}, "geometry": {"type": "Point", "coordinates": [-2.137428, 53.29712]}},
{"type": "Feature", "id": "7MBvMMTcfvXlnTSJ0ZgN4F4LuXg=", "properties": {"ref": "6197", "@spider": "chef_and_brewer", "amenity": "pub", "addr:full": "Werneth Low Road, Hyde, SK14 3AA", "addr:postcode": "SK14 3AA", "addr:country": "GB", "name": "Hare & Hounds Inn", "phone": "01613 665526", "website": "https://www.chefandbrewer.com/pubs/cheshire/hare-hounds-inn/", "contact:email": "6197@greeneking.co.uk", "opening_hours": "Mo-Fr 11:00-23:00; Sa 09:30-23:00; Su 09:30-22:30", "image": "https://www.chefandbrewer.com/q/i/6197/", "brand": "Chef & Brewer", "brand:wikidata": "Q5089491", "nsi_id": "chefandbrewer-eaed91"}, "geometry": {"type": "Point", "coordinates": [-2.064507, 53.430833]}},
{"type": "Feature", "id": "NQZX91yD2--dQr3IuD_ResArCy0=", "properties": {"ref": "6119", "@spider": "chef_and_brewer", "amenity": "pub", "addr:full": "520 Chester Road, Sandiway, Northwich, CW8 2DN", "addr:postcode": "CW8 2DN", "addr:country": "GB", "name": "Blue Cap", "phone": "01606 883006", "website": "https://www.chefandbrewer.com/pubs/cheshire/blue-cap/", "contact:email": "6119@greeneking.co.uk", "opening_hours": "Mo-Fr 11:00-23:00; Sa-Su 08:00-23:00", "image": "https://www.chefandbrewer.com/q/i/6119/", "brand": "Chef & Brewer", "brand:wikidata": "Q5089491", "nsi_id": "chefandbrewer-eaed91"}, "geometry": {"type": "Point", "coordinates": [-2.588678, 53.232057]}},
{"type": "Feature", "id": "spprMWqs6KbNqJUE8wCBCseGPnk=", "properties": {"ref": "6117", "@spider": "chef_and_brewer", "amenity": "pub", "addr:full": "Chelford Road, Macclesfield, SK11 9PG", "addr:postcode": "SK11 9PG", "addr:country": "GB", "name": "Blacksmiths Arms", "phone": "01625 424312", "website": "https://www.chefandbrewer.com/pubs/cheshire/blacksmiths-arms/", "contact:email": "6117@greeneking.co.uk", "opening_hours": "Mo-Fr 11:00-23:00; Sa 09:30-23:00; Su 09:30-22:30", "image": "https://www.chefandbrewer.com/q/i/6117/", "brand": "Chef & Brewer", "brand:wikidata": "Q5089491", "nsi_id": "chefandbrewer-eaed91"}, "geometry": {"type": "Point", "coordinates": [-2.18361, 53.259422]}},
{"type": "Feature", "id": "Ecdi3kktP2zmrOErGij3uLVmHbs=", "properties": {"ref": "6205", "@spider": "chef_and_brewer", "amenity": "pub", "addr:full": "Warrington Road, Hoo Green, Knutsford, WA16 0PZ", "addr:postcode": "WA16 0PZ", "addr:country": "GB", "name": "Kilton Inn", "phone": "01565 830420", "website": "https://www.chefandbrewer.com/pubs/cheshire/kilton-inn/", "contact:email": "6205@greeneking.co.uk", "opening_hours": "Mo-Fr 11:00-23:00; Sa 09:30-23:00; Su 09:30-22:30", "image": "https://www.chefandbrewer.com/q/i/6205/", "brand": "Chef & Brewer", "brand:wikidata": "Q5089491", "nsi_id": "chefandbrewer-eaed91"}, "geometry": {"type": "Point", "coordinates": [-2.423134, 53.340581]}},
{"type": "Feature", "id": "j_tKYVGCAhD4o8qngWxVkb6kUpA=", "properties": {"ref": "6131", "@spider": "chef_and_brewer", "amenity": "pub", "addr:full": "Clayhythe Road, Waterbeach, Cambridge, CB25 9HZ", "addr:postcode": "CB25 9HZ", "addr:country": "GB", "name": "Bridge", "phone": "01223 860622", "website": "https://www.chefandbrewer.com/pubs/cambridgeshire/bridge/", "contact:email": "6131@greeneking.co.uk", "opening_hours": "Mo-Fr 11:00-23:00; Sa 09:30-23:00; Su 09:30-22:30", "image": "https://www.chefandbrewer.com/q/i/6131/", "brand": "Chef & Brewer", "brand:wikidata": "Q5089491", "nsi_id": "chefandbrewer-eaed91"}, "geometry": {"type": "Point", "coordinates": [0.198723, 52.258051]}},
{"type": "Feature", "id": "D5o1--_gv04LBpz4EdIhwj2XFgc=", "properties": {"ref": "6169", "@spider": "chef_and_brewer", "amenity": "pub", "addr:full": "1 Great North Road, Eaton Socon, St Neots, PE19 8EN", "addr:postcode": "PE19 8EN", "addr:country": "GB", "name": "Crown Inn", "phone": "01480 212232", "website": "https://www.chefandbrewer.com/pubs/cambridgeshire/crown-inn/", "contact:email": "6169@greeneking.co.uk", "opening_hours": "Mo-Fr 11:00-23:00; Sa 09:30-23:00; Su 09:30-22:30", "image": "https://www.chefandbrewer.com/q/i/6169/", "brand": "Chef & Brewer", "brand:wikidata": "Q5089491", "nsi_id": "chefandbrewer-eaed91"}, "geometry": {"type": "Point", "coordinates": [-0.29179, 52.206972]}},
{"type": "Feature", "id": "O4YDXrRjPiFdeXR3M9k67StGl1g=", "properties": {"ref": "6179", "@spider": "chef_and_brewer", "amenity": "pub", "addr:full": "Thorpe Road, Longthorpe, Peterborough, PE3 6NB", "addr:postcode": "PE3 6NB", "addr:country": "GB", "name": "Fox & Hounds", "phone": "01733 264126", "website": "https://www.chefandbrewer.com/pubs/cambridgeshire/fox-hounds/", "contact:email": "6179@greeneking.co.uk", "opening_hours": "Mo-Fr 11:00-23:00; Sa 09:30-23:00; Su 09:30-22:30", "image": "https://www.chefandbrewer.com/q/i/6179/", "brand": "Chef & Brewer", "brand:wikidata": "Q5089491", "nsi_id": "chefandbrewer-eaed91"}, "geometry": {"type": "Point", "coordinates": [-0.288154, 52.572973]}},
{"type": "Feature", "id": "WeGC2uvU9e7T2maLBNpaAefGukg=", "properties": {"ref": "0122", "@spider": "chef_and_brewer", "amenity": "pub", "addr:full": "Thorpe Meadows, Peterborough, PE3 6GA", "addr:postcode": "PE3 6GA", "addr:country": "GB", "name": "Boathouse", "phone": "01733 898 469", "website": "https://www.chefandbrewer.com/pubs/cambridgeshire/boathouse/", "contact:email": "0122@greeneking.co.uk", "opening_hours": "Mo-Su 11:00-23:00", "image": "https://www.chefandbrewer.com/q/i/0122/", "brand": "Chef & Brewer", "brand:wikidata": "Q5089491", "nsi_id": "chefandbrewer-eaed91"}, "geometry": {"type": "Point", "coordinates": [-0.266863, 52.571087]}},
{"type": "Feature", "id": "kiCCbk_5aa0xkyuB07Gkr22vFfA=", "properties": {"ref": "5630", "@spider": "chef_and_brewer", "amenity": "pub", "addr:full": "Three Households, Chalfont St Giles, HP8 4LP", "addr:postcode": "HP8 4LP", "addr:country": "GB", "name": "White Hart", "phone": "01494 872441", "website": "https://www.chefandbrewer.com/pubs/buckinghamshire/white-hart-chalfont-st-giles/", "contact:email": "5630@Greeneking.co.uk", "opening_hours": "Mo-Fr 11:00-23:00; Sa 09:30-23:00; Su 09:30-22:30", "image": "https://www.chefandbrewer.com/q/i/5630/", "brand": "Chef & Brewer", "brand:wikidata": "Q5089491", "nsi_id": "chefandbrewer-eaed91"}, "geometry": {"type": "Point", "coordinates": [-0.583367, 51.628974]}},
{"type": "Feature", "id": "mXUtyr5msjxr1l0WVv6-p16mt90=", "properties": {"ref": "6168", "@spider": "chef_and_brewer", "amenity": "pub", "addr:full": "Church Road, Penn, HP10 8NY", "addr:postcode": "HP10 8NY", "addr:country": "GB", "name": "Crown Inn", "phone": "01494 812640", "website": "https://www.chefandbrewer.com/pubs/buckinghamshire/crown-inn/", "contact:email": "6168@greeneking.co.uk", "opening_hours": "Mo-Fr 11:00-23:00; Sa 09:30-23:00; Su 09:30-22:30", "image": "https://www.chefandbrewer.com/q/i/6168/", "brand": "Chef & Brewer", "brand:wikidata": "Q5089491", "nsi_id": "chefandbrewer-eaed91"}, "geometry": {"type": "Point", "coordinates": [-0.676553, 51.631444]}},
{"type": "Feature", "id": "jRG0OxrBL91sHAxZlHcViCPY0eQ=", "properties": {"ref": "6238", "@spider": "chef_and_brewer", "amenity": "pub", "addr:full": "20 Pound Street, Wendover, Aylesbury, HP22 6EJ", "addr:postcode": "HP22 6EJ", "addr:country": "GB", "name": "Shoulder of Mutton", "phone": "01296 623223", "website": "https://www.chefandbrewer.com/pubs/buckinghamshire/shoulder-of-mutton/", "contact:email": "6238@greeneking.co.uk", "opening_hours": "Mo-Fr 11:00-23:00; Sa 09:30-23:00; Su 09:30-22:30", "image": "https://www.chefandbrewer.com/q/i/6238/", "brand": "Chef & Brewer", "brand:wikidata": "Q5089491", "nsi_id": "chefandbrewer-eaed91"}, "geometry": {"type": "Point", "coordinates": [-0.745639, 51.761244]}},
{"type": "Feature", "id": "Anj9NUnM5Ghds-X5t4MPD2MJr7w=", "properties": {"ref": "6173", "@spider": "chef_and_brewer", "amenity": "pub", "addr:full": "85 Packhorse Road, Gerrards Cross, SL9 8HX", "addr:postcode": "SL9 8HX", "addr:country": "GB", "name": "Ethorpe Hotel", "phone": "01753 882039", "website": "https://www.chefandbrewer.com/pubs/buckinghamshire/ethorpe-hotel/", "contact:email": "6173@greeneking.co.uk", "opening_hours": "Mo-Fr 11:00-23:00; Sa 09:30-23:00; Su 09:30-22:30", "image": "https://www.chefandbrewer.com/q/i/6173/", "brand": "Chef & Brewer", "brand:wikidata": "Q5089491", "nsi_id": "chefandbrewer-eaed91"}, "geometry": {"type": "Point", "coordinates": [-0.552274, 51.589576]}},
{"type": "Feature", "id": "HOkFVXafhvLKpENdVvS6yzA1z0U=", "properties": {"ref": "6269", "@spider": "chef_and_brewer", "amenity": "pub", "addr:full": "Newport Road, Woughton-On-The-Green, Milton Keynes, MK6 3BS", "addr:postcode": "MK6 3BS", "addr:country": "GB", "name": "Ye Olde Swan", "phone": "01908 679489", "website": "https://www.chefandbrewer.com/pubs/buckinghamshire/ye-olde-swan/", "contact:email": "6269@greeneking.co.uk", "opening_hours": "Mo-Fr 11:00-23:00; Sa 10:00-23:00; Su 10:00-22:30", "image": "https://www.chefandbrewer.com/q/i/6269/", "brand": "Chef & Brewer", "brand:wikidata": "Q5089491", "nsi_id": "chefandbrewer-eaed91"}, "geometry": {"type": "Point", "coordinates": [-0.723666, 52.029238]}},
{"type": "Feature", "id": "L2byjqX952XUlvK6i7uRYz8uFKI=", "properties": {"ref": "6127", "@spider": "chef_and_brewer", "amenity": "pub", "addr:full": "2 Rickmansworth Road, Amersham, HP6 5JN", "addr:postcode": "HP6 5JN", "addr:country": "GB", "name": "Boot & Slipper", "phone": "01494 727082", "website": "https://www.chefandbrewer.com/pubs/buckinghamshire/boot-slipper/", "contact:email": "6127@greeneking.co.uk", "opening_hours": "Mo-Fr 11:00-23:00; Sa 09:30-23:00; Su 09:30-22:30", "image": "https://www.chefandbrewer.com/q/i/6127/", "brand": "Chef & Brewer", "brand:wikidata": "Q5089491", "nsi_id": "chefandbrewer-eaed91"}, "geometry": {"type": "Point", "coordinates": [-0.608371, 51.680197]}},
{"type": "Feature", "id": "ApFSAe880fPgWIl4jJYwMOtBxQI=", "properties": {"ref": "6224", "@spider": "chef_and_brewer", "amenity": "pub", "addr:full": "12 Langley Park Road, Iver, SL0 0JZ", "addr:postcode": "SL0 0JZ", "addr:country": "GB", "name": "Red Lion", "phone": "01753 654257", "website": "https://www.chefandbrewer.com/pubs/buckinghamshire/red-lion/", "contact:email": "6224@greeneking.co.uk", "opening_hours": "Mo-Fr 11:00-23:00; Sa 09:30-23:00; Su 09:30-22:30", "image": "https://www.chefandbrewer.com/q/i/6224/", "brand": "Chef & Brewer", "brand:wikidata": "Q5089491", "nsi_id": "chefandbrewer-eaed91"}, "geometry": {"type": "Point", "coordinates": [-0.526939, 51.518842]}},
{"type": "Feature", "id": "18wiVVCVIipCGG1s724VhruFLxg=", "properties": {"ref": "6215", "@spider": "chef_and_brewer", "amenity": "pub", "addr:full": "Goring Lane, Grazeley Green, Reading, RG7 1LS", "addr:postcode": "RG7 1LS", "addr:country": "GB", "name": "Old Bell", "phone": "01189 888348", "website": "https://www.chefandbrewer.com/pubs/berkshire/old-bell/", "contact:email": "6215@greeneking.co.uk", "opening_hours": "Mo-Fr 11:00-23:00; Sa 09:30-23:00; Su 09:30-22:30", "image": "https://www.chefandbrewer.com/q/i/6215/", "brand": "Chef & Brewer", "brand:wikidata": "Q5089491", "nsi_id": "chefandbrewer-eaed91"}, "geometry": {"type": "Point", "coordinates": [-1.019025, 51.39959]}},
{"type": "Feature", "id": "_MDVyAtdGNOG7WvLsf5ljjx3d28=", "properties": {"ref": "6230", "@spider": "chef_and_brewer", "amenity": "pub", "addr:full": "Beaconsfield Road, Farnham Common, Slough, SL2 3HS", "addr:postcode": "SL2 3HS", "addr:country": "GB", "name": "Royal Oak", "phone": "01753 642032", "website": "https://www.chefandbrewer.com/pubs/berkshire/royal-oak/", "contact:email": "6230@greeneking.co.uk", "opening_hours": "Mo-Fr 11:00-23:00; Sa 09:30-23:00; Su 09:30-22:30", "image": "https://www.chefandbrewer.com/q/i/6230/", "brand": "Chef & Brewer", "brand:wikidata": "Q5089491", "nsi_id": "chefandbrewer-eaed91"}, "geometry": {"type": "Point", "coordinates": [-0.61553, 51.560391]}},
{"type": "Feature", "id": "PnO9zLqWz-m9Mh6azNsAGTjSeB8=", "properties": {"ref": "6233", "@spider": "chef_and_brewer", "amenity": "pub", "addr:full": "Moss End, Warfield, Bracknell, RG42 6ER", "addr:postcode": "RG42 6ER", "addr:country": "GB", "name": "Shepherds House", "phone": "01344 423341", "website": "https://www.chefandbrewer.com/pubs/berkshire/shepherds-house/", "contact:email": "6233@greeneking.co.uk", "opening_hours": "Mo-Fr 11:00-23:00; Sa 09:30-23:00; Su 09:30-22:30", "image": "https://www.chefandbrewer.com/q/i/6233/", "brand": "Chef & Brewer", "brand:wikidata": "Q5089491", "nsi_id": "chefandbrewer-eaed91"}, "geometry": {"type": "Point", "coordinates": [-0.75193, 51.44684]}},
{"type": "Feature", "id": "7YVCIkpyEIhPOZw3UZHKoRQAHFE=", "properties": {"ref": "6185", "@spider": "chef_and_brewer", "amenity": "pub", "addr:full": "Loddon Bridge Road, Earley, Reading, RG6 7EN", "addr:postcode": "RG6 7EN", "addr:country": "GB", "name": "George", "phone": "01189 261844", "website": "https://www.chefandbrewer.com/pubs/berkshire/george/", "contact:email": "6185@greeneking.co.uk", "opening_hours": "Mo-Fr 11:00-23:00; Sa 09:30-23:00; Su 09:30-22:30", "image": "https://www.chefandbrewer.com/q/i/6185/", "brand": "Chef & Brewer", "brand:wikidata": "Q5089491", "nsi_id": "chefandbrewer-eaed91"}, "geometry": {"type": "Point", "coordinates": [-0.900308, 51.437859]}},
{"type": "Feature", "id": "Wqc8aQ3O54Y2lHWVnANcicdLt0I=", "properties": {"ref": "6175", "@spider": "chef_and_brewer", "amenity": "pub", "addr:full": "Taplow Common Road, Burnham, Slough, SL1 8NS", "addr:postcode": "SL1 8NS", "addr:country": "GB", "name": "Feathers", "phone": "01628 664646", "website": "https://www.chefandbrewer.com/pubs/berkshire/feathers/", "contact:email": "6175@greeneking.co.uk", "opening_hours": "Mo-Fr 11:00-23:00; Sa 09:30-23:00; Su 09:30-22:30", "image": "https://www.chefandbrewer.com/q/i/6175/", "brand": "Chef & Brewer", "brand:wikidata": "Q5089491", "nsi_id": "chefandbrewer-eaed91"}, "geometry": {"type": "Point", "coordinates": [-0.681292, 51.557139]}},
{"type": "Feature", "id": "9kW4aDLzzyPuDj_ZtjnFHtkVBEQ=", "properties": {"ref": "6195", "@spider": "chef_and_brewer", "amenity": "pub", "addr:full": "10-12 Church Road, Caversham, Reading, RG4 7AD", "addr:postcode": "RG4 7AD", "addr:country": "GB", "name": "Griffin", "phone": "01189 475018", "website": "https://www.chefandbrewer.com/pubs/berkshire/griffin/", "contact:email": "6195@greeneking.co.uk", "opening_hours": "Mo-Fr 11:00-23:00; Sa 09:30-23:00; Su 09:30-22:30", "image": "https://www.chefandbrewer.com/q/i/6195/", "brand": "Chef & Brewer", "brand:wikidata": "Q5089491", "nsi_id": "chefandbrewer-eaed91"}, "geometry": {"type": "Point", "coordinates": [-0.977349, 51.467357]}},
{"type": "Feature", "id": "6cmDXL1suruStILb0vBhzBFn1oA=", "properties": {"ref": "6236", "@spider": "chef_and_brewer", "amenity": "pub", "addr:full": "Bath Road, Littlewick Green, Maidenhead, SL6 3QA", "addr:postcode": "SL6 3QA", "addr:country": "GB", "name": "Shire Horse", "phone": "01628 825335", "website": "https://www.chefandbrewer.com/pubs/berkshire/shire-horse/", "contact:email": "6236@greeneking.co.uk", "opening_hours": "Mo-Fr 11:00-23:00; Sa 09:30-23:00; Su 09:30-22:30", "image": "https://www.chefandbrewer.com/q/i/6236/", "brand": "Chef & Brewer", "brand:wikidata": "Q5089491", "nsi_id": "chefandbrewer-eaed91"}, "geometry": {"type": "Point", "coordinates": [-0.777429, 51.51489]}},
{"type": "Feature", "id": "hPGHaaJl03_PKHIi0aP35rTE6tA=", "properties": {"ref": "6268", "@spider": "chef_and_brewer", "amenity": "pub", "addr:full": "221 Barkham Road, Barkham, Wokingham, RG41 4BY", "addr:postcode": "RG41 4BY", "addr:country": "GB", "name": "Ye Olde Leathern Bottel", "phone": "01189 784222", "website": "https://www.chefandbrewer.com/pubs/berkshire/ye-olde-leathern-bottel/", "contact:email": "6268@greeneking.co.uk", "opening_hours": "Mo-Fr 11:00-23:00; Sa 09:30-23:00; Su 09:30-22:30", "image": "https://www.chefandbrewer.com/q/i/6268/", "brand": "Chef & Brewer", "brand:wikidata": "Q5089491", "nsi_id": "chefandbrewer-eaed91"}, "geometry": {"type": "Point", "coordinates": [-0.857236, 51.404543]}},
{"type": "Feature", "id": "Yx6WtKG18Tje0fsBxv0D9svtypY=", "properties": {"ref": "6115", "@spider": "chef_and_brewer", "amenity": "pub", "addr:full": "Bath Road, Midgham, Newbury, RG7 5UX", "addr:postcode": "RG7 5UX", "addr:country": "GB", "name": "Berkshire Arms", "phone": "01189 714114", "website": "https://www.chefandbrewer.com/pubs/berkshire/berkshire-arms/", "contact:email": "6115@greeneking.co.uk", "opening_hours": "Mo-Fr 11:00-23:00; Sa 09:30-23:00; Su 09:30-22:30", "image": "https://www.chefandbrewer.com/q/i/6115/", "brand": "Chef & Brewer", "brand:wikidata": "Q5089491", "nsi_id": "chefandbrewer-eaed91"}, "geometry": {"type": "Point", "coordinates": [-1.21417, 51.398367]}},
{"type": "Feature", "id": "4nMDQIO3XJLOs9GTnSQjWQdTC6s=", "properties": {"ref": "6234", "@spider": "chef_and_brewer", "amenity": "pub", "addr:full": "Thornbury Road, Alveston, Bristol, BS35 3LL", "addr:postcode": "BS35 3LL", "addr:country": "GB", "name": "Ship Inn", "phone": "01454 412521", "website": "https://www.chefandbrewer.com/pubs/Avon/ship-Inn/", "contact:email": "6234@greeneking.co.uk", "opening_hours": "Mo-Fr 11:00-23:00; Sa 09:30-23:00; Su 09:30-22:30", "image": "https://www.chefandbrewer.com/q/i/6234/", "brand": "Chef & Brewer", "brand:wikidata": "Q5089491", "nsi_id": "chefandbrewer-eaed91"}, "geometry": {"type": "Point", "coordinates": [-2.528478, 51.592626]}}]}