{"type":"FeatureCollection","features":[{"type": "Feature", "id": "MMBkL3WgXIC2sSCS6ZrF8f7Y5WY=", "properties": {"ref": "20653", "shop": "funeral_directors", "@spider": "chelmsford_star_coop_gb", "addr:full": "96 Whitmore Way, Basildon SS14 3JT, UK", "addr:state": "England", "addr:postcode": "SS14 3JT", "addr:country": "GB", "name": "Basildon Funeral Directors", "phone": "01268 382749", "website": "https://www.chelmsfordstar.coop/store/basildon-funeral-directors/", "brand": "Chelmsford Star Coop", "brand:wikidata": "Q5089972"}, "geometry": {"type": "Point", "coordinates": [0.4873567, 51.58235850000001]}},
{"type": "Feature", "id": "_MJvGQwp7japcptu4LmbxeVraqI=", "properties": {"ref": "14953", "shop": "funeral_directors", "@spider": "chelmsford_star_coop_gb", "addr:full": "60 The Green, Writtle, Chelmsford CM1 3DU, UK", "addr:city": "Writtle", "addr:state": "England", "addr:postcode": "CM1 3DU", "addr:country": "GB", "name": "Writtle Funeral Home", "phone": "01245 422622", "website": "https://www.chelmsfordstar.coop/store/writtle-funeral-home/", "brand": "Chelmsford Star Coop", "brand:wikidata": "Q5089972"}, "geometry": {"type": "Point", "coordinates": [0.426297, 51.731213]}},
{"type": "Feature", "id": "4-9_2ebgyFewByXryWgAkhYzQGE=", "properties": {"ref": "14952", "shop": "supermarket", "@spider": "chelmsford_star_coop_gb", "addr:full": "17 Bridge St, Writtle, Chelmsford CM1 3EY, UK", "addr:city": "Writtle", "addr:state": "England", "addr:postcode": "CM1 3EY", "addr:country": "GB", "name": "Writtle (+Post Office)", "phone": "01245 421148", "website": "https://www.chelmsfordstar.coop/store/writtle-post-office/", "brand": "Chelmsford Star Coop", "brand:wikidata": "Q5089972"}, "geometry": {"type": "Point", "coordinates": [0.4320306, 51.7296354]}},
{"type": "Feature", "id": "x1znva56F7IW-Kc8_oo1ZISH9T4=", "properties": {"ref": "14951", "shop": "supermarket", "@spider": "chelmsford_star_coop_gb", "addr:full": "109 Snakes Ln W, Woodford, Woodford Green IG8 0DY, UK", "addr:state": "England", "addr:postcode": "IG8 0DY", "addr:country": "GB", "name": "Woodford Green", "phone": "020 8504 0594", "website": "https://www.chelmsfordstar.coop/store/woodford-green/", "brand": "Chelmsford Star Coop", "brand:wikidata": "Q5089972"}, "geometry": {"type": "Point", "coordinates": [0.0323488, 51.6072426]}},
{"type": "Feature", "id": "C-yV_R866Tq-nktmVFNK5PyuYnI=", "properties": {"ref": "14950", "shop": "supermarket", "@spider": "chelmsford_star_coop_gb", "addr:full": "7-8 London Rd, St Peters Terrace, Wickford SS12 0AP, UK", "addr:state": "England", "addr:postcode": "SS12 0AP", "addr:country": "GB", "name": "Wickford", "phone": "01268 768833", "website": "https://www.chelmsfordstar.coop/store/wickford/", "brand": "Chelmsford Star Coop", "brand:wikidata": "Q5089972"}, "geometry": {"type": "Point", "coordinates": [0.5136408, 51.6112875]}},
{"type": "Feature", "id": "kWWFDADmyhxb42nDlCmDpdKP8bc=", "properties": {"ref": "14949", "shop": "supermarket", "@spider": "chelmsford_star_coop_gb", "addr:full": "85-87 West Rd, Shoeburyness, Southend-on-Sea SS3 9DT, UK", "addr:state": "England", "addr:postcode": "SS3 9DT", "addr:country": "GB", "name": "West Road", "phone": "01702 290679", "website": "https://www.chelmsfordstar.coop/store/west-road/", "brand": "Chelmsford Star Coop", "brand:wikidata": "Q5089972"}, "geometry": {"type": "Point", "coordinates": [0.780062, 51.5302327]}},
{"type": "Feature", "id": "A5qYkHgu7R7DwqWLMlv4milLOKs=", "properties": {"ref": "14948", "shop": "supermarket", "@spider": "chelmsford_star_coop_gb", "addr:full": "74 Trent Rd, Chelmsford CM1 2LQ, UK", "addr:state": "England", "addr:postcode": "CM1 2LQ", "addr:country": "GB", "name": "Trent Road", "phone": "01245 258585", "website": "https://www.chelmsfordstar.coop/store/trent-road/", "brand": "Chelmsford Star Coop", "brand:wikidata": "Q5089972"}, "geometry": {"type": "Point", "coordinates": [0.4395973, 51.7470386]}},
{"type": "Feature", "id": "hhzD4T4jgEh9tao_N7Fdegt_IPs=", "properties": {"ref": "14947", "shop": "supermarket", "@spider": "chelmsford_star_coop_gb", "addr:full": "14-15 Torquay Rd, Springfield, Chelmsford CM1 6NF, UK", "addr:state": "England", "addr:postcode": "CM1 6NF", "addr:country": "GB", "name": "Torquay Road", "phone": "01245 347868", "website": "https://www.chelmsfordstar.coop/store/torquay-road-collect/", "brand": "Chelmsford Star Coop", "brand:wikidata": "Q5089972"}, "geometry": {"type": "Point", "coordinates": [0.4886659999999999, 51.747106]}},
{"type": "Feature", "id": "zN1QT954vve76ERDd4WrwyY_Tbw=", "properties": {"ref": "14946", "shop": "supermarket", "@spider": "chelmsford_star_coop_gb", "addr:full": "14-16 Calcutta Rd, Tilbury RM18 7QU, UK", "addr:state": "England", "addr:postcode": "RM18 7QU", "addr:country": "GB", "name": "Tilbury", "phone": "01375 843401", "website": "https://www.chelmsfordstar.coop/store/tilbury/", "brand": "Chelmsford Star Coop", "brand:wikidata": "Q5089972"}, "geometry": {"type": "Point", "coordinates": [0.3623077, 51.46186849999999]}},
{"type": "Feature", "id": "lEIgQt9joX-ihw30FW0cQnZkzSQ=", "properties": {"ref": "14945", "shop": "supermarket", "@spider": "chelmsford_star_coop_gb", "addr:full": "159 Church Rd, Thundersley, South Benfleet, Benfleet SS7 4EN, UK", "addr:city": "Thundersley", "addr:state": "England", "addr:postcode": "SS7 4EN", "addr:country": "GB", "name": "Thundersley", "phone": "01268 753908", "website": "https://www.chelmsfordstar.coop/store/thundersley-collect/", "brand": "Chelmsford Star Coop", "brand:wikidata": "Q5089972"}, "geometry": {"type": "Point", "coordinates": [0.559576, 51.572017]}},
{"type": "Feature", "id": "070Om3BEWaSxFyfTi0ODT50oCF8=", "properties": {"ref": "14944", "shop": "supermarket", "@spider": "chelmsford_star_coop_gb", "addr:full": "The Sorrells, Stanford-le-Hope SS17, UK", "addr:state": "England", "addr:country": "GB", "name": "The Sorrells", "phone": "01375 642129", "website": "https://www.chelmsfordstar.coop/store/the-sorrells-collect/", "brand": "Chelmsford Star Coop", "brand:wikidata": "Q5089972"}, "geometry": {"type": "Point", "coordinates": [0.4444505, 51.5214243]}},
{"type": "Feature", "id": "tPr8-TK1TjWDbEpiCMrnm-w4cn0=", "properties": {"ref": "14943", "shop": "supermarket", "@spider": "chelmsford_star_coop_gb", "addr:full": "3-4 Canterbury Parade, South Ockendon RM15 6NH, UK", "addr:state": "England", "addr:postcode": "RM15 6NH", "addr:country": "GB", "name": "South Ockendon", "phone": "01708 852488", "website": "https://www.chelmsfordstar.coop/store/south-ockendon-collect/", "brand": "Chelmsford Star Coop", "brand:wikidata": "Q5089972"}, "geometry": {"type": "Point", "coordinates": [0.2956324, 51.5226351]}},
{"type": "Feature", "id": "OuZFsLsJyDgHjSwXJXuGgjSe4kg=", "properties": {"ref": "14942", "shop": "supermarket", "@spider": "chelmsford_star_coop_gb", "addr:full": "2-6 Portsea Rd, Tilbury RM18 8AX, UK", "addr:state": "England", "addr:postcode": "RM18 8AX", "addr:country": "GB", "name": "Portsea Road", "phone": "01375 844738", "website": "https://www.chelmsfordstar.coop/store/portsea-road/", "brand": "Chelmsford Star Coop", "brand:wikidata": "Q5089972"}, "geometry": {"type": "Point", "coordinates": [0.3763094, 51.4633602]}},
{"type": "Feature", "id": "e-KBd4NX_VaY3QrEZM6tDzkd0TA=", "properties": {"ref": "14941", "shop": "supermarket", "@spider": "chelmsford_star_coop_gb", "addr:full": "157-159 Nevendon Rd, Wickford SS12 0NY, UK", "addr:state": "England", "addr:postcode": "SS12 0NY", "addr:country": "GB", "name": "Nevendon Road", "phone": "01268 766999", "website": "https://www.chelmsfordstar.coop/store/nevendon-road-collect/", "brand": "Chelmsford Star Coop", "brand:wikidata": "Q5089972"}, "geometry": {"type": "Point", "coordinates": [0.5161513, 51.6043239]}},
{"type": "Feature", "id": "dCOBEaySJ5d-6n1QxKnj-DntUP0=", "properties": {"ref": "14940", "shop": "supermarket", "@spider": "chelmsford_star_coop_gb", "addr:full": "105 Mungo Park Rd, Rainham RM13 7PP, UK", "addr:state": "England", "addr:postcode": "RM13 7PP", "addr:country": "GB", "name": "Mungo Park", "phone": "01708 520984", "website": "https://www.chelmsfordstar.coop/store/mungo-park/", "brand": "Chelmsford Star Coop", "brand:wikidata": "Q5089972"}, "geometry": {"type": "Point", "coordinates": [0.192367, 51.5402859]}},
{"type": "Feature", "id": "alZRqyRVKxBXVYL9nq-XJ--lWHQ=", "properties": {"ref": "14939", "shop": "supermarket", "@spider": "chelmsford_star_coop_gb", "addr:full": "Moulsham Lodge Foodcentre, 156 Gloucester Ave, Chelmsford CM2 9LG, UK", "addr:state": "England", "addr:postcode": "CM2 9LG", "addr:country": "GB", "name": "Moulsham Lodge", "phone": "01245 258089", "website": "https://www.chelmsfordstar.coop/store/moulsham-lodge-collect/", "brand": "Chelmsford Star Coop", "brand:wikidata": "Q5089972"}, "geometry": {"type": "Point", "coordinates": [0.474936, 51.716282]}},
{"type": "Feature", "id": "r-Wv45FgPAiDLr1cwbH0PykzKYE=", "properties": {"ref": "14938", "shop": "supermarket", "@spider": "chelmsford_star_coop_gb", "addr:full": "26 Melbourne Ave, Chelmsford CM1 2DW, UK", "addr:state": "England", "addr:postcode": "CM1 2DW", "addr:country": "GB", "name": "Melbourne", "phone": "01245 347774", "website": "https://www.chelmsfordstar.coop/store/melbourne/", "brand": "Chelmsford Star Coop", "brand:wikidata": "Q5089972"}, "geometry": {"type": "Point", "coordinates": [0.4524249999999999, 51.748947]}},
{"type": "Feature", "id": "2zDAbbVJ4gAGvyWLRa4iiQTwLAM=", "properties": {"ref": "14937", "shop": "supermarket", "@spider": "chelmsford_star_coop_gb", "addr:full": "164-170 Meadgate Ave, Great Baddow, Chelmsford CM2 7LJ, UK", "addr:city": "Great Baddow", "addr:state": "England", "addr:postcode": "CM2 7LJ", "addr:country": "GB", "name": "Meadgate", "phone": "01245 354759", "website": "https://www.chelmsfordstar.coop/store/meadgate-collect/", "brand": "Chelmsford Star Coop", "brand:wikidata": "Q5089972"}, "geometry": {"type": "Point", "coordinates": [0.4902178, 51.7234741]}},
{"type": "Feature", "id": "yi4O1lipA0fImSR8JBfBFLq-a_A=", "properties": {"ref": "14936", "shop": "supermarket", "@spider": "chelmsford_star_coop_gb", "addr:full": "173-175 Long Rd, Canvey Island SS8 0JD, UK", "addr:state": "England", "addr:postcode": "SS8 0JD", "addr:country": "GB", "name": "Long Road", "phone": "01268 693004", "website": "https://www.chelmsfordstar.coop/store/long-road/", "brand": "Chelmsford Star Coop", "brand:wikidata": "Q5089972"}, "geometry": {"type": "Point", "coordinates": [0.5804087000000001, 51.5199696]}},
{"type": "Feature", "id": "NfCCwgCtxtW-7kxv5esqIET0Vnc=", "properties": {"ref": "14935", "shop": "supermarket", "@spider": "chelmsford_star_coop_gb", "addr:full": "1663 London Rd, Leigh-on-Sea, Southend-on-Sea, Leigh-on-Sea SS9 2SH, UK", "addr:city": "Southend-on-Sea", "addr:state": "England", "addr:postcode": "SS9 2SH", "addr:country": "GB", "name": "Leigh On Sea", "phone": "01702 716362", "website": "https://www.chelmsfordstar.coop/store/leigh-on-sea/", "brand": "Chelmsford Star Coop", "brand:wikidata": "Q5089972"}, "geometry": {"type": "Point", "coordinates": [0.6353719999999999, 51.548191]}},
{"type": "Feature", "id": "AshBXNSIUAertkwjUkKblxXTzmI=", "properties": {"ref": "14934", "shop": "supermarket", "@spider": "chelmsford_star_coop_gb", "addr:full": "108 Kings Rd, Chelmsford CM1 2BB, UK", "addr:state": "England", "addr:postcode": "CM1 2BB", "addr:country": "GB", "name": "Kings Road", "phone": "01245 353630\t", "website": "https://www.chelmsfordstar.coop/store/kings-road-collect/", "brand": "Chelmsford Star Coop", "brand:wikidata": "Q5089972"}, "geometry": {"type": "Point", "coordinates": [0.4592018, 51.7447465]}},
{"type": "Feature", "id": "98H0WyQhUdjzO99WnHXphRnUB78=", "properties": {"ref": "14933", "shop": "funeral_directors", "@spider": "chelmsford_star_coop_gb", "addr:full": "47 High St, Ingatestone CM4 9DU, UK", "addr:state": "England", "addr:postcode": "CM4 9DU", "addr:country": "GB", "name": "Ingatestone Funeral Home", "phone": "01277 350988", "website": "https://www.chelmsfordstar.coop/store/ingatestone-funeral-home/", "brand": "Chelmsford Star Coop", "brand:wikidata": "Q5089972"}, "geometry": {"type": "Point", "coordinates": [0.3852159999999999, 51.670721]}},
{"type": "Feature", "id": "J6ddv1A2_YMxFm15RnLepxkKvDE=", "properties": {"ref": "14932", "shop": "supermarket", "@spider": "chelmsford_star_coop_gb", "addr:full": "3-5, Spreadeagle Place, High St, Ingatestone CM4 9EA, UK", "addr:state": "England", "addr:postcode": "CM4 9EA", "addr:country": "GB", "name": "Ingatestone", "phone": "01277 353124", "website": "https://www.chelmsfordstar.coop/store/ingatestone-collect/", "brand": "Chelmsford Star Coop", "brand:wikidata": "Q5089972"}, "geometry": {"type": "Point", "coordinates": [0.386934, 51.671672]}},
{"type": "Feature", "id": "aY2JFB6kvre4u26mIvgHc_rNS0U=", "properties": {"ref": "14931", "shop": "supermarket", "@spider": "chelmsford_star_coop_gb", "addr:full": "62-64 Woodland Ave, Hutton, Brentwood CM13 1HH, UK", "addr:state": "England", "addr:postcode": "CM13 1HH", "addr:country": "GB", "name": "Hutton", "phone": "01277 228042", "website": "https://www.chelmsfordstar.coop/store/hutton/", "brand": "Chelmsford Star Coop", "brand:wikidata": "Q5089972"}, "geometry": {"type": "Point", "coordinates": [0.3461506999999999, 51.63774969999999]}},
{"type": "Feature", "id": "KnrTTNj5a40vs4iTsAX3RVEkvlM=", "properties": {"ref": "14930", "shop": "supermarket", "@spider": "chelmsford_star_coop_gb", "addr:full": "115-119 Ferry Rd, Hullbridge, Hockley SS5 6ET, UK", "addr:city": "Hullbridge", "addr:state": "England", "addr:postcode": "SS5 6ET", "addr:country": "GB", "name": "Hullbridge", "phone": "01702 232388", "website": "https://www.chelmsfordstar.coop/store/hullbridge-collect/", "brand": "Chelmsford Star Coop", "brand:wikidata": "Q5089972"}, "geometry": {"type": "Point", "coordinates": [0.6127971, 51.6218199]}},
{"type": "Feature", "id": "7_XHFrfe3XLH4-yO-yKHmnpQJPY=", "properties": {"ref": "14929", "shop": "supermarket", "@spider": "chelmsford_star_coop_gb", "addr:full": "Main Rd, Hawkwell, Hockley SS5 4EG, UK", "addr:city": "Hawkwell", "addr:state": "England", "addr:postcode": "SS5 4EG", "addr:country": "GB", "name": "Hawkwell Off-Licence", "phone": "01702 207577", "website": "https://www.chelmsfordstar.coop/store/hawkwell-off-licence/", "brand": "Chelmsford Star Coop", "brand:wikidata": "Q5089972"}, "geometry": {"type": "Point", "coordinates": [0.6656713, 51.5972295]}},
{"type": "Feature", "id": "cMB6kiSlKFF0g51cZlkgyIVqpLM=", "properties": {"ref": "14928", "shop": "supermarket", "@spider": "chelmsford_star_coop_gb", "addr:full": "216 Main Rd, Hawkwell, Hockley SS5 4EG, UK", "addr:city": "Hawkwell", "addr:state": "England", "addr:postcode": "SS5 4EG", "addr:country": "GB", "name": "Hawkwell", "phone": "01702 204939", "website": "https://www.chelmsfordstar.coop/store/hawkwell-collect/", "brand": "Chelmsford Star Coop", "brand:wikidata": "Q5089972"}, "geometry": {"type": "Point", "coordinates": [0.6655603, 51.59754969999999]}},
{"type": "Feature", "id": "Q9ChtjgOIeOs9K5LbMpXDwDXYxg=", "properties": {"ref": "14927", "shop": "supermarket", "@spider": "chelmsford_star_coop_gb", "addr:full": "15 Havengore, Springfield, Chelmsford CM1 6JP, UK", "addr:state": "England", "addr:postcode": "CM1 6JP", "addr:country": "GB", "name": "Havengore", "phone": "01245 262923\t", "website": "https://www.chelmsfordstar.coop/store/havengore/", "brand": "Chelmsford Star Coop", "brand:wikidata": "Q5089972"}, "geometry": {"type": "Point", "coordinates": [0.4979002999999999, 51.74761290000001]}},
{"type": "Feature", "id": "j7SCNQtCnK0U0RodiiDrYsaJPV0=", "properties": {"ref": "14926", "shop": "supermarket", "@spider": "chelmsford_star_coop_gb", "addr:full": "Panners Parade, Priory Ln, Great Notley, Braintree CM77 7AE, UK", "addr:city": "Great Notley", "addr:state": "England", "addr:postcode": "CM77 7AE", "addr:country": "GB", "name": "Great Notley", "phone": "01376 334644\t", "website": "https://www.chelmsfordstar.coop/store/great-notley-collect/", "brand": "Chelmsford Star Coop", "brand:wikidata": "Q5089972"}, "geometry": {"type": "Point", "coordinates": [0.5281937000000001, 51.865781]}},
{"type": "Feature", "id": "9ZdSxJZRTSLb3TPUG8WNmlZbpDw=", "properties": {"ref": "14925", "shop": "funeral_directors", "@spider": "chelmsford_star_coop_gb", "addr:full": "White Hart Way, Great Dunmow, Dunmow CM6 1WX, UK", "addr:city": "Great Dunmow", "addr:state": "England", "addr:postcode": "CM6 1WX", "addr:country": "GB", "name": "Great Dunmow Funeral Home", "phone": "01371 875542\t", "website": "https://www.chelmsfordstar.coop/store/great-dunmow-funeral-home/", "brand": "Chelmsford Star Coop", "brand:wikidata": "Q5089972"}, "geometry": {"type": "Point", "coordinates": [0.3643891, 51.8711492]}},
{"type": "Feature", "id": "u9xSZha1XGSKtBdBulomnAMgZXA=", "properties": {"ref": "14922", "shop": "funeral_directors", "@spider": "chelmsford_star_coop_gb", "addr:full": "348 Baddow Rd, Great Baddow, Chelmsford CM2 9RA, UK", "addr:city": "Great Baddow", "addr:state": "England", "addr:postcode": "CM2 9RA", "addr:country": "GB", "name": "Great Baddow Funeral Home", "phone": "01245 268993\t", "website": "https://www.chelmsfordstar.coop/store/great-baddow-funeral-home/", "brand": "Chelmsford Star Coop", "brand:wikidata": "Q5089972"}, "geometry": {"type": "Point", "coordinates": [0.488526, 51.72202100000001]}},
{"type": "Feature", "id": "K9ClLcmuBYj6TjR4LhT2EdmSDwg=", "properties": {"ref": "14921", "shop": "supermarket", "@spider": "chelmsford_star_coop_gb", "addr:full": "83 Barnard Rd, Chelmsford CM2 8SN, UK", "addr:state": "England", "addr:postcode": "CM2 8SN", "addr:country": "GB", "name": "Galleywood", "phone": "01245 474591", "website": "https://www.chelmsfordstar.coop/store/galleywood-collect/", "brand": "Chelmsford Star Coop", "brand:wikidata": "Q5089972"}, "geometry": {"type": "Point", "coordinates": [0.4745648, 51.697196]}},
{"type": "Feature", "id": "g2GJbWudBs4cZGpzVhfmBWvn9qc=", "properties": {"ref": "14918", "shop": "supermarket", "@spider": "chelmsford_star_coop_gb", "addr:full": "82 Forest Dr, Chelmsford CM1, UK", "addr:state": "England", "addr:country": "GB", "name": "Forest Drive", "phone": "01245 258855", "website": "https://www.chelmsfordstar.coop/store/forest-drive/", "brand": "Chelmsford Star Coop", "brand:wikidata": "Q5089972"}, "geometry": {"type": "Point", "coordinates": [0.4495284, 51.7309014]}},
{"type": "Feature", "id": "jEja01DHEQgWLfKNAazjVwIe67E=", "properties": {"ref": "14916", "shop": "supermarket", "@spider": "chelmsford_star_coop_gb", "addr:full": "109 Princess Margaret Rd, East Tilbury, Tilbury RM18 8SB, UK", "addr:city": "East Tilbury", "addr:state": "England", "addr:postcode": "RM18 8SB", "addr:country": "GB", "name": "East Tilbury", "phone": "01375 857786", "website": "https://www.chelmsfordstar.coop/store/east-tilbury/", "brand": "Chelmsford Star Coop", "brand:wikidata": "Q5089972"}, "geometry": {"type": "Point", "coordinates": [0.4178492, 51.4804404]}},
{"type": "Feature", "id": "kj4qU6xLEYbZQY3DbueOEPRhP1s=", "properties": {"ref": "14914", "shop": "supermarket", "@spider": "chelmsford_star_coop_gb", "addr:full": "40 Duke St, Chelmsford CM1, UK", "addr:state": "England", "addr:country": "GB", "name": "Duke Street", "phone": "01245 345490", "website": "https://www.chelmsfordstar.coop/store/duke-street-collect/", "brand": "Chelmsford Star Coop", "brand:wikidata": "Q5089972"}, "geometry": {"type": "Point", "coordinates": [0.4666081, 51.736763]}},
{"type": "Feature", "id": "GOduIxQIds_0ATSCx0NleucoWBg=", "properties": {"ref": "14912", "shop": "funeral_directors", "@spider": "chelmsford_star_coop_gb", "addr:full": "57A Main Rd, Danbury, Chelmsford CM3 4NG, UK", "addr:city": "Danbury", "addr:state": "England", "addr:postcode": "CM3 4NG", "addr:country": "GB", "name": "Danbury Funeral Home", "phone": "01245 221444", "website": "https://www.chelmsfordstar.coop/store/danbury-funeral-home/", "brand": "Chelmsford Star Coop", "brand:wikidata": "Q5089972"}, "geometry": {"type": "Point", "coordinates": [0.5742381999999999, 51.7175468]}},
{"type": "Feature", "id": "nojM-_AtIC7HhK5ZQwL4MGIilZY=", "properties": {"ref": "14910", "shop": "supermarket", "@spider": "chelmsford_star_coop_gb", "addr:full": "16 Main Rd, Danbury, Chelmsford CM3 4NQ, UK", "addr:city": "Danbury", "addr:state": "England", "addr:postcode": "CM3 4NQ", "addr:country": "GB", "name": "Danbury (+Post Office)", "phone": "01245 227733", "website": "https://www.chelmsfordstar.coop/store/danbury-post-office/", "brand": "Chelmsford Star Coop", "brand:wikidata": "Q5089972"}, "geometry": {"type": "Point", "coordinates": [0.5790455999999999, 51.7168988]}},
{"type": "Feature", "id": "OGWjp-JsT3FQlze98Q3uvwVy-50=", "properties": {"ref": "14899", "shop": "supermarket", "@spider": "chelmsford_star_coop_gb", "addr:full": "Wood Ln, Dagenham RM8 3NH, UK", "addr:state": "England", "addr:postcode": "RM8 3NH", "addr:country": "GB", "name": "Dagenham", "phone": "0208 5171036", "website": "https://www.chelmsfordstar.coop/store/14899/", "brand": "Chelmsford Star Coop", "brand:wikidata": "Q5089972"}, "geometry": {"type": "Point", "coordinates": [0.1425028, 51.5544559]}},
{"type": "Feature", "id": "cl1hf5nHef2ZbrT2UiQNsX7i_PU=", "properties": {"ref": "14409", "shop": "supermarket", "@spider": "chelmsford_star_coop_gb", "addr:full": "174-176 Cressing Rd, Braintree CM7 3PL, UK", "addr:state": "England", "addr:postcode": "CM7 3PL", "addr:country": "GB", "name": "Cressing Road", "phone": "01376 320952", "website": "https://www.chelmsfordstar.coop/store/cressing-road-collect/", "brand": "Chelmsford Star Coop", "brand:wikidata": "Q5089972"}, "geometry": {"type": "Point", "coordinates": [0.5713943, 51.8772409]}},
{"type": "Feature", "id": "ZuUDYUM7bDojJsfqxYkZGgNnaUU=", "properties": {"ref": "14408", "shop": "supermarket", "@spider": "chelmsford_star_coop_gb", "addr:full": "Church Street Foodcentre, 62 Church St, Bocking, Braintree CM7 5JY, UK", "addr:state": "England", "addr:postcode": "CM7 5JY", "addr:country": "GB", "name": "Church Street", "phone": "01376 326516", "website": "https://www.chelmsfordstar.coop/store/church-street-collect/", "brand": "Chelmsford Star Coop", "brand:wikidata": "Q5089972"}, "geometry": {"type": "Point", "coordinates": [0.5544137, 51.9019835]}},
{"type": "Feature", "id": "a74OxUJD2LEoKnqM-euEljqzEUE=", "properties": {"ref": "14406", "shop": "travel_agency", "@spider": "chelmsford_star_coop_gb", "addr:full": "220 Moulsham St, Chelmsford CM2 0LS, UK", "addr:state": "England", "addr:postcode": "CM2 0LS", "addr:country": "GB", "name": "Chelmsford Travel Branch", "phone": "01245 490290", "website": "https://www.chelmsfordstar.coop/store/chelmsford-travel-branch/", "brand": "Chelmsford Star Coop", "brand:wikidata": "Q5089972"}, "geometry": {"type": "Point", "coordinates": [0.4742657999999999, 51.7312375]}},
{"type": "Feature", "id": "bIxST2FMdx-LAKBy568t55zEGGg=", "properties": {"ref": "13952", "shop": "department_store", "@spider": "chelmsford_star_coop_gb", "addr:full": "220 Moulsham St, Chelmsford CM2 0LS, UK", "addr:state": "England", "addr:postcode": "CM2 0LS", "addr:country": "GB", "name": "Chelmsford Quadrant", "phone": "01245 490101", "website": "https://www.chelmsfordstar.coop/store/chelmsford-quadrant/", "brand": "Chelmsford Star Coop", "brand:wikidata": "Q5089972"}, "geometry": {"type": "Point", "coordinates": [0.4740772, 51.73117999999999]}},
{"type": "Feature", "id": "xmrCjpC6e7zbYy1Ptw9LL_2wYfY=", "properties": {"ref": "13951", "shop": "supermarket", "@spider": "chelmsford_star_coop_gb", "addr:full": "42 Challis Ln, Braintree CM7 1AN, UK", "addr:state": "England", "addr:postcode": "CM7 1AN", "addr:country": "GB", "name": "Challis Lane", "phone": "01376 321615", "website": "https://www.chelmsfordstar.coop/store/challis-lane-collect/", "brand": "Chelmsford Star Coop", "brand:wikidata": "Q5089972"}, "geometry": {"type": "Point", "coordinates": [0.5561821000000001, 51.8684539]}},
{"type": "Feature", "id": "YNivJs164MMaa_ZdLA88cr0K5-g=", "properties": {"ref": "13950", "shop": "funeral_directors", "@spider": "chelmsford_star_coop_gb", "addr:full": "Berkeley Street Properties Plc, 78 Broomfield Rd, Chelmsford CM1 1SS, UK", "addr:state": "England", "addr:postcode": "CM1 1SS", "addr:country": "GB", "name": "Broomfield Funeral Home", "phone": "01245 353978", "website": "https://www.chelmsfordstar.coop/store/broomfield-funeral-home/", "brand": "Chelmsford Star Coop", "brand:wikidata": "Q5089972"}, "geometry": {"type": "Point", "coordinates": [0.4667409999999999, 51.739294]}},
{"type": "Feature", "id": "WX2DV4WXr40_DJa5z1bICflUIDI=", "properties": {"ref": "13949", "shop": "supermarket", "@spider": "chelmsford_star_coop_gb", "addr:full": "47-49 Main Rd, Broomfield, Chelmsford CM1 7BU, UK", "addr:city": "Broomfield", "addr:state": "England", "addr:postcode": "CM1 7BU", "addr:country": "GB", "name": "Broomfield", "phone": "01245 440316", "website": "https://www.chelmsfordstar.coop/store/broomfield/", "brand": "Chelmsford Star Coop", "brand:wikidata": "Q5089972"}, "geometry": {"type": "Point", "coordinates": [0.4732982, 51.7569745]}},
{"type": "Feature", "id": "oEcjK9ZwWeRpGl6LNNtDgRvfP3o=", "properties": {"ref": "13948", "shop": "travel_agency", "@spider": "chelmsford_star_coop_gb", "addr:full": "9-15 Rayne Rd, Braintree CM7 2QA, UK", "addr:state": "England", "addr:postcode": "CM7 2QA", "addr:country": "GB", "name": "Braintree Travel Branch", "phone": "01376 551444", "website": "https://www.chelmsfordstar.coop/store/braintree-travel-branch/", "brand": "Chelmsford Star Coop", "brand:wikidata": "Q5089972"}, "geometry": {"type": "Point", "coordinates": [0.5495694999999999, 51.879372]}},
{"type": "Feature", "id": "G3xxHjn92406TSJJbc9uXKFXH2I=", "properties": {"ref": "13947", "shop": "department_store", "@spider": "chelmsford_star_coop_gb", "addr:full": "9-15 George Rd, Braintree CM7 2QA, UK", "addr:state": "England", "addr:postcode": "CM7 2QA", "addr:country": "GB", "name": "Braintree Quadrant", "phone": "01376 321303", "website": "https://www.chelmsfordstar.coop/store/braintree-quadrant/", "brand": "Chelmsford Star Coop", "brand:wikidata": "Q5089972"}, "geometry": {"type": "Point", "coordinates": [0.5489589999999999, 51.87895899999999]}},
{"type": "Feature", "id": "mqFKf4QIy9KvciQke_Fm0aWMLNQ=", "properties": {"ref": "13946", "shop": "funeral_directors", "@spider": "chelmsford_star_coop_gb", "addr:full": "George Yard, Braintree CM7 1RB, UK", "addr:state": "England", "addr:postcode": "CM7 1RB", "addr:country": "GB", "name": "Braintree Funeral Home (George Yard)", "phone": "01376 528408", "website": "https://www.chelmsfordstar.coop/store/braintree-funeral-home-george-yard/", "brand": "Chelmsford Star Coop", "brand:wikidata": "Q5089972"}, "geometry": {"type": "Point", "coordinates": [0.5488071000000001, 51.8788498]}},
{"type": "Feature", "id": "aHwYDFrDx8H2SkrX-ldfUYulOjE=", "properties": {"ref": "13945", "shop": "funeral_directors", "@spider": "chelmsford_star_coop_gb", "addr:full": "6 Clare Rd, Braintree CM7 2PA, UK", "addr:state": "England", "addr:postcode": "CM7 2PA", "addr:country": "GB", "name": "Braintree Funeral Home", "phone": "01376 551951", "website": "https://www.chelmsfordstar.coop/store/braintree-funeral-home/", "brand": "Chelmsford Star Coop", "brand:wikidata": "Q5089972"}, "geometry": {"type": "Point", "coordinates": [0.5459381, 51.8771205]}},
{"type": "Feature", "id": "jn1Ms1slaiBUxkjOfxL4Gy1u5No=", "properties": {"ref": "1156", "shop": "supermarket", "@spider": "chelmsford_star_coop_gb", "addr:full": "Fingrith Hall Ln, Blackmore, Ingatestone CM4 0RU, UK", "addr:city": "Blackmore", "addr:state": "England", "addr:postcode": "CM4 0RU", "addr:country": "GB", "name": "Blackmore (+ Post Office)", "phone": "01277 822231", "website": "https://www.chelmsfordstar.coop/store/blackmore-post-office/", "brand": "Chelmsford Star Coop", "brand:wikidata": "Q5089972"}, "geometry": {"type": "Point", "coordinates": [0.3190899999999999, 51.692702]}},
{"type": "Feature", "id": "AkzMko_-9-E1RYJKNHKdfQsTaqQ=", "properties": {"ref": "876", "shop": "supermarket", "@spider": "chelmsford_star_coop_gb", "addr:full": "62 Beehive Ln, Great Baddow, Chelmsford CM2 9RP, UK", "addr:city": "Great Baddow", "addr:state": "England", "addr:postcode": "CM2 9RP", "addr:country": "GB", "name": "Beehive Lane", "phone": "01245 357761", "website": "https://www.chelmsfordstar.coop/store/beehive-lane-collect/", "brand": "Chelmsford Star Coop", "brand:wikidata": "Q5089972"}, "geometry": {"type": "Point", "coordinates": [0.4861716000000001, 51.7177166]}},
{"type": "Feature", "id": "9tRL6Wbuts8BIUMTuphGDL1mzTk=", "properties": {"ref": "871", "shop": "supermarket", "@spider": "chelmsford_star_coop_gb", "addr:full": "Jones of Chelmsford, 372 Baddow Rd, Great Baddow, Chelmsford CM2 9RA, UK", "addr:city": "Great Baddow", "addr:state": "England", "addr:postcode": "CM2 9RA", "addr:country": "GB", "name": "Baddow Road", "phone": "01245 493900", "website": "https://www.chelmsfordstar.coop/store/baddow-road/", "brand": "Chelmsford Star Coop", "brand:wikidata": "Q5089972"}, "geometry": {"type": "Point", "coordinates": [0.4892955, 51.72172000000001]}}]}