{"type":"FeatureCollection","features":[{"type": "Feature", "id": "Q_8vD5RB2jAuOu1VtBCUM2wvcGo=", "properties": {"ref": "23157", "@spider": "chicosofftherack", "addr:full": "2655 Richmond Ave, Sp 2610", "addr:city": "Staten Island", "addr:state": "NY", "addr:postcode": "10314", "addr:country": "US", "name": "Staten Island Mall Off the Rack", "website": "https://stores.chicosofftherack.com/s/staten-island-mall-off-the-rack", "brand": "Chico's Off The Rack", "brand:wikidata": "Q5096393"}, "geometry": {"type": "Point", "coordinates": [-74.166455, 40.581811]}},
{"type": "Feature", "id": "6uSjHf3Cq8apnt7er5LVBXMGhA0=", "properties": {"ref": "22585", "@spider": "chicosofftherack", "addr:full": "89 West Spring Valley Avenue.", "addr:city": "Maywood", "addr:state": "NJ", "addr:postcode": "07607", "addr:country": "US", "name": "The Outlets at Bergen Town Center", "website": "https://stores.chicosofftherack.com/s/the-outlets-at-bergen-town-center", "brand": "Chico's Off The Rack", "brand:wikidata": "Q5096393"}, "geometry": {"type": "Point", "coordinates": [-74.060356, 40.913906]}},
{"type": "Feature", "id": "5DjqHPepXGLe9O1ifuuwLK8xBiw=", "properties": {"ref": "22581", "@spider": "chicosofftherack", "addr:full": "112 The Arches Cir, Ste 112", "addr:city": "Deer Park", "addr:state": "NY", "addr:postcode": "11729", "addr:country": "US", "name": "Tanger Outlet Center at The Arches", "website": "https://stores.chicosofftherack.com/s/tanger-outlet-center-at-the-arches", "brand": "Chico's Off The Rack", "brand:wikidata": "Q5096393"}, "geometry": {"type": "Point", "coordinates": [-73.303661, 40.763109]}},
{"type": "Feature", "id": "WzMvuW4v1gRTc25Uglg26sD8ZNA=", "properties": {"ref": "22632", "@spider": "chicosofftherack", "addr:full": "15 Centre Drive, 7A & 7B", "addr:city": "Central Valley", "addr:state": "NY", "addr:postcode": "10917", "addr:country": "US", "name": "Woodbury Centre", "website": "https://stores.chicosofftherack.com/s/woodbury-centre", "brand": "Chico's Off The Rack", "brand:wikidata": "Q5096393"}, "geometry": {"type": "Point", "coordinates": [-74.133963, 41.314584]}},
{"type": "Feature", "id": "IUmFZNV-GQSHiafRqFmMKps-3r0=", "properties": {"ref": "22604", "@spider": "chicosofftherack", "addr:full": "537 Monmouth Rd", "addr:city": "Jackson", "addr:state": "NJ", "addr:postcode": "08527", "addr:country": "US", "name": "Jackson Premium Outlets", "website": "https://stores.chicosofftherack.com/s/jackson-premium-outlets", "brand": "Chico's Off The Rack", "brand:wikidata": "Q5096393"}, "geometry": {"type": "Point", "coordinates": [-74.417587, 40.161878]}},
{"type": "Feature", "id": "sq-Q3PbsTFHpn4_EeBiRyc0Qbzw=", "properties": {"ref": "35212", "@spider": "chicosofftherack", "addr:full": "158 Pinesbridge Road", "addr:city": "Beacon Falls", "addr:state": "CT", "addr:postcode": "06403", "addr:country": "US", "name": "Chico's Outlet Liquidating Store", "website": "https://stores.chicosofftherack.com/s/chico-s-outlet-liquidating-store", "brand": "Chico's Off The Rack", "brand:wikidata": "Q5096393"}, "geometry": {"type": "Point", "coordinates": [-73.08077, 41.42813]}},
{"type": "Feature", "id": "Ywyh0TRFbdFYop4R5A94mNuYLsI=", "properties": {"ref": "22528", "@spider": "chicosofftherack", "addr:full": "1947 Old Country Road, # 1010", "addr:city": "Riverhead", "addr:state": "NY", "addr:postcode": "11901", "addr:country": "US", "name": "Tanger Outlet Center Riverhead II", "website": "https://stores.chicosofftherack.com/s/tanger-outlet-center-riverhead-ii", "brand": "Chico's Off The Rack", "brand:wikidata": "Q5096393"}, "geometry": {"type": "Point", "coordinates": [-72.711529, 40.91847]}},
{"type": "Feature", "id": "VvjCvPjFvFp06HFEIYKLgTbBU24=", "properties": {"ref": "22601", "@spider": "chicosofftherack", "addr:full": "77 Wind Creek Blvd, Suite 231", "addr:city": "Bethlehem", "addr:state": "PA", "addr:postcode": "18015", "addr:country": "US", "name": "The Outlets at Wind Creek", "website": "https://stores.chicosofftherack.com/s/the-outlets-at-wind-creek", "brand": "Chico's Off The Rack", "brand:wikidata": "Q5096393"}, "geometry": {"type": "Point", "coordinates": [-75.36495, 40.6147]}},
{"type": "Feature", "id": "EhVrxGmPh8_BMN02ZHFzY30R78g=", "properties": {"ref": "22593", "@spider": "chicosofftherack", "addr:full": "20-A Killingworth Turnpi, Suite 160", "addr:city": "Clinton", "addr:state": "CT", "addr:postcode": "06413", "addr:country": "US", "name": "Clinton Crossing Premium Outlets", "website": "https://stores.chicosofftherack.com/s/clinton-crossing-premium-outlets", "brand": "Chico's Off The Rack", "brand:wikidata": "Q5096393"}, "geometry": {"type": "Point", "coordinates": [-72.5276, 41.2787]}},
{"type": "Feature", "id": "sXf0GR6lPtag1Nx8SDmxEkbZPLs=", "properties": {"ref": "22546", "@spider": "chicosofftherack", "addr:full": "18 W Lightcap Road, Suite 377", "addr:city": "Pottstown", "addr:state": "PA", "addr:postcode": "19464", "addr:country": "US", "name": "Philadelphia Premium Outlets", "website": "https://stores.chicosofftherack.com/s/philadelphia-premium-outlets", "brand": "Chico's Off The Rack", "brand:wikidata": "Q5096393"}, "geometry": {"type": "Point", "coordinates": [-75.570626, 40.236618]}},
{"type": "Feature", "id": "ZTfXOfKolCJdbh3X4EvBrd4gBmY=", "properties": {"ref": "32644", "@spider": "chicosofftherack", "addr:full": "3104 Fashion Center Blvd, Ste 370", "addr:city": "Newark", "addr:state": "DE", "addr:postcode": "19702", "addr:country": "US", "name": "Christiana Fash Center Off the Rack", "website": "https://stores.chicosofftherack.com/s/christiana-fash-center-off-the-rack", "brand": "Chico's Off The Rack", "brand:wikidata": "Q5096393"}, "geometry": {"type": "Point", "coordinates": [-75.7508, 39.6852]}},
{"type": "Feature", "id": "s0_L6Lhxmly-TtePgUgeZaICqt0=", "properties": {"ref": "22574", "@spider": "chicosofftherack", "addr:full": "803 Stanley K Tanger Blvd.", "addr:city": "Lancaster", "addr:state": "PA", "addr:postcode": "17602", "addr:country": "US", "name": "Tanger Outlet Center Lancaster", "website": "https://stores.chicosofftherack.com/s/tanger-outlet-center-lancaster", "brand": "Chico's Off The Rack", "brand:wikidata": "Q5096393"}, "geometry": {"type": "Point", "coordinates": [-76.221238, 40.026436]}},
{"type": "Feature", "id": "UHH2sQ8ziPK9Z6soGcxk1WkBzOo=", "properties": {"ref": "22541", "@spider": "chicosofftherack", "addr:full": "57 Outlet Square", "addr:city": "Hershey", "addr:state": "PA", "addr:postcode": "17033", "addr:country": "US", "name": "Tanger Outlet Center  Hershey", "website": "https://stores.chicosofftherack.com/s/tanger-outlet-center-hershey", "brand": "Chico's Off The Rack", "brand:wikidata": "Q5096393"}, "geometry": {"type": "Point", "coordinates": [-76.647741, 40.293668]}},
{"type": "Feature", "id": "jBkfYoJIJpJspHeNheRlrbhYP_A=", "properties": {"ref": "22533", "@spider": "chicosofftherack", "addr:full": "35016 Midway Outlet Dr, Unit 324", "addr:city": "Rehoboth Beach", "addr:state": "DE", "addr:postcode": "19971", "addr:country": "US", "name": "Tanger Outlet Center Rehoboth Beach", "website": "https://stores.chicosofftherack.com/s/tanger-outlet-center-rehoboth-beach", "brand": "Chico's Off The Rack", "brand:wikidata": "Q5096393"}, "geometry": {"type": "Point", "coordinates": [-75.13876, 38.734428]}},
{"type": "Feature", "id": "sNqXkExy6HI64vEEMnQEMi2GEtY=", "properties": {"ref": "22538", "@spider": "chicosofftherack", "addr:full": "102 Outlet Center Dr, Ste F080", "addr:city": "Queenstown", "addr:state": "MD", "addr:postcode": "21658", "addr:country": "US", "name": "Queenstown Premium Outlets", "website": "https://stores.chicosofftherack.com/s/queenstown-premium-outlets", "brand": "Chico's Off The Rack", "brand:wikidata": "Q5096393"}, "geometry": {"type": "Point", "coordinates": [-76.1606, 38.983574]}},
{"type": "Feature", "id": "pVyrjMnB1Qxfqb3nDIJpqVZgXyc=", "properties": {"ref": "22614", "@spider": "chicosofftherack", "addr:full": "12741 Ocean Gateway, Suite 690", "addr:city": "Ocean City", "addr:state": "MD", "addr:postcode": "21842", "addr:country": "US", "name": "Outlets Ocean City", "website": "https://stores.chicosofftherack.com/s/outlets-ocean-city", "brand": "Chico's Off The Rack", "brand:wikidata": "Q5096393"}, "geometry": {"type": "Point", "coordinates": [-75.0548, 38.43281]}},
{"type": "Feature", "id": "64mVJxBY8FBthmlnZjvdJtTEh88=", "properties": {"ref": "22628", "@spider": "chicosofftherack", "addr:full": "1863 Gettysburg Village Dr", "addr:city": "Gettysburg", "addr:state": "PA", "addr:postcode": "17325", "addr:country": "US", "name": "The Outlet Shoppes at Gettysburg", "website": "https://stores.chicosofftherack.com/s/the-outlet-shoppes-at-gettysburg", "brand": "Chico's Off The Rack", "brand:wikidata": "Q5096393"}, "geometry": {"type": "Point", "coordinates": [-77.201667, 39.794163]}},
{"type": "Feature", "id": "CBTXSLxbE-GnCwg7kMCeA14aQ3Y=", "properties": {"ref": "23159", "@spider": "chicosofftherack", "addr:full": "250 Granite St, 1051", "addr:city": "Braintree", "addr:state": "MA", "addr:postcode": "02184", "addr:country": "US", "name": "South Shore Plaza Off the Rack", "website": "https://stores.chicosofftherack.com/s/south-shore-plaza-off-the-rack", "brand": "Chico's Off The Rack", "brand:wikidata": "Q5096393"}, "geometry": {"type": "Point", "coordinates": [-71.029995, 42.221811]}},
{"type": "Feature", "id": "CHw1iZCIxtSsmt22S8Pk-gaN9lA=", "properties": {"ref": "22603", "@spider": "chicosofftherack", "addr:full": "80 Premium Outlets Blvd, Ste 617", "addr:city": "Merrimack", "addr:state": "NH", "addr:postcode": "03054", "addr:country": "US", "name": "Merrimack Premium Outlets", "website": "https://stores.chicosofftherack.com/s/merrimack-premium-outlets", "brand": "Chico's Off The Rack", "brand:wikidata": "Q5096393"}, "geometry": {"type": "Point", "coordinates": [-71.499452, 42.826489]}},
{"type": "Feature", "id": "MI31zQeBvGTSKAexfl0wEF5NhKY=", "properties": {"ref": "22607", "@spider": "chicosofftherack", "addr:full": "6800 Oxon Hill Road., Suite 220", "addr:city": "National Harbor", "addr:state": "MD", "addr:postcode": "20745", "addr:country": "US", "name": "Tanger Outlet Center National Harbo", "website": "https://stores.chicosofftherack.com/s/tanger-outlet-center-national-harbo", "brand": "Chico's Off The Rack", "brand:wikidata": "Q5096393"}, "geometry": {"type": "Point", "coordinates": [-77.00111, 38.795803]}},
{"type": "Feature", "id": "2wZRI8zZSK4k5zGDhesSPMQ8ZkI=", "properties": {"ref": "22542", "@spider": "chicosofftherack", "addr:full": "110 Prime Outlets Boulevard.", "addr:city": "Hagerstown", "addr:state": "MD", "addr:postcode": "21740", "addr:country": "US", "name": "Hagerstown Premium Outlets", "website": "https://stores.chicosofftherack.com/s/hagerstown-premium-outlets", "brand": "Chico's Off The Rack", "brand:wikidata": "Q5096393"}, "geometry": {"type": "Point", "coordinates": [-77.7203, 39.6419]}},
{"type": "Feature", "id": "lvmlBBlo_LNfmVAlBukBELrBwk4=", "properties": {"ref": "22624", "@spider": "chicosofftherack", "addr:full": "655 New York 318., Suite B081", "addr:city": "Waterloo", "addr:state": "NY", "addr:postcode": "13165", "addr:country": "US", "name": "Waterloo Premium Outlets", "website": "https://stores.chicosofftherack.com/s/waterloo-premium-outlets", "brand": "Chico's Off The Rack", "brand:wikidata": "Q5096393"}, "geometry": {"type": "Point", "coordinates": [-76.8627, 42.9048]}},
{"type": "Feature", "id": "1OtuFZ5hSq2Np7_f6F8HTLUtCjk=", "properties": {"ref": "22524", "@spider": "chicosofftherack", "addr:full": "241 Fort Evans Road NE, Ste 1101", "addr:city": "Leesburg", "addr:state": "VA", "addr:postcode": "20176", "addr:country": "US", "name": "Leesburg Corner Premium Outlets", "website": "https://stores.chicosofftherack.com/s/leesburg-corner-premium-outlets", "brand": "Chico's Off The Rack", "brand:wikidata": "Q5096393"}, "geometry": {"type": "Point", "coordinates": [-77.543834, 39.10877]}},
{"type": "Feature", "id": "QwfY8PCBD0dpAWRFOtQV6gmVXLQ=", "properties": {"ref": "22595", "@spider": "chicosofftherack", "addr:full": "2700 Potomac Mills Cir, Unit 836", "addr:city": "Woodbridge", "addr:state": "VA", "addr:postcode": "22192", "addr:country": "US", "name": "Potomac Mills", "website": "https://stores.chicosofftherack.com/s/potomac-mills", "brand": "Chico's Off The Rack", "brand:wikidata": "Q5096393"}, "geometry": {"type": "Point", "coordinates": [-77.293521, 38.64309]}},
{"type": "Feature", "id": "XP1KuIjYDNxhiRRSnOV2KRA9Cqs=", "properties": {"ref": "22578", "@spider": "chicosofftherack", "addr:full": "375 US Route 1, Ste 100A", "addr:city": "Kittery", "addr:state": "ME", "addr:postcode": "03904", "addr:country": "US", "name": "Kittery Premium Outlets", "website": "https://stores.chicosofftherack.com/s/kittery-premium-outlets", "brand": "Chico's Off The Rack", "brand:wikidata": "Q5096393"}, "geometry": {"type": "Point", "coordinates": [-70.72633, 43.117269]}},
{"type": "Feature", "id": "5AOlnHaeMHtAFV9uEnDnK3_Gb2Y=", "properties": {"ref": "22564", "@spider": "chicosofftherack", "addr:full": "2 Common Court, Space B48", "addr:city": "North Conway", "addr:state": "NH", "addr:postcode": "03860", "addr:country": "US", "name": "Settlers' Green Outlet Village", "website": "https://stores.chicosofftherack.com/s/settlers-green-outlet-village", "brand": "Chico's Off The Rack", "brand:wikidata": "Q5096393"}, "geometry": {"type": "Point", "coordinates": [-71.109717, 44.022557]}},
{"type": "Feature", "id": "1iTwYrO1nqcvbvNZplL2e0OJ7OQ=", "properties": {"ref": "22554", "@spider": "chicosofftherack", "addr:full": "5715-74 Richmond Rd., Ste 74", "addr:city": "Williamsburg", "addr:state": "VA", "addr:postcode": "23188", "addr:country": "US", "name": "Williamsburg Premium Outlets", "website": "https://stores.chicosofftherack.com/s/williamsburg-premium-outlets", "brand": "Chico's Off The Rack", "brand:wikidata": "Q5096393"}, "geometry": {"type": "Point", "coordinates": [-76.773803, 37.37152]}},
{"type": "Feature", "id": "TNMZMGALOZN5kY949fwDBCAIFyw=", "properties": {"ref": "22547", "@spider": "chicosofftherack", "addr:full": "1902 Military Rd., Spc 45", "addr:city": "Niagara Falls", "addr:state": "NY", "addr:postcode": "14304", "addr:country": "US", "name": "Fashion Outlets of Niagara Falls", "website": "https://stores.chicosofftherack.com/s/fashion-outlets-of-niagara-falls", "brand": "Chico's Off The Rack", "brand:wikidata": "Q5096393"}, "geometry": {"type": "Point", "coordinates": [-78.974766, 43.097034]}},
{"type": "Feature", "id": "iP-NpvuPWGZRQYKIhWvkr8G1sI8=", "properties": {"ref": "22544", "@spider": "chicosofftherack", "addr:full": "1911 Leesburg Grove City, Spc 1050", "addr:city": "Grove City", "addr:state": "PA", "addr:postcode": "16127", "addr:country": "US", "name": "Grove City Premium Outlets", "website": "https://stores.chicosofftherack.com/s/grove-city-premium-outlets", "brand": "Chico's Off The Rack", "brand:wikidata": "Q5096393"}, "geometry": {"type": "Point", "coordinates": [-80.157352, 41.140007]}},
{"type": "Feature", "id": "XI9t865g22n-jpz0s-MBxP_m-Go=", "properties": {"ref": "33906", "@spider": "chicosofftherack", "addr:full": "1560 Park Manor Blvd", "addr:city": "Pittsburgh", "addr:state": "PA", "addr:postcode": "15205", "addr:country": "US", "name": "Robinson Town Centre Off the Rack", "website": "https://stores.chicosofftherack.com/s/robinson-town-centre-off-the-rack", "brand": "Chico's Off The Rack", "brand:wikidata": "Q5096393"}, "geometry": {"type": "Point", "coordinates": [-80.164734, 40.454586]}},
{"type": "Feature", "id": "qVXlzAskCrAtacFqug1QpYGmbH0=", "properties": {"ref": "22573", "@spider": "chicosofftherack", "addr:full": "2200 Tanger Blvd., Ste 940", "addr:city": "Washington", "addr:state": "PA", "addr:postcode": "15301", "addr:country": "US", "name": "Tanger Outlet Center Pittsburgh", "website": "https://stores.chicosofftherack.com/s/tanger-outlet-center-pittsburgh", "brand": "Chico's Off The Rack", "brand:wikidata": "Q5096393"}, "geometry": {"type": "Point", "coordinates": [-80.212028, 40.216559]}},
{"type": "Feature", "id": "-oS2bRRDN-A5lMN5XJvn4uYVi4U=", "properties": {"ref": "22571", "@spider": "chicosofftherack", "addr:full": "549 S Chilicothe Rd, Ste 399", "addr:city": "Aurora", "addr:state": "OH", "addr:postcode": "44202", "addr:country": "US", "name": "Aurora Farms Premium Outlets", "website": "https://stores.chicosofftherack.com/s/aurora-farms-premium-outlets", "brand": "Chico's Off The Rack", "brand:wikidata": "Q5096393"}, "geometry": {"type": "Point", "coordinates": [-81.3454, 41.3176]}},
{"type": "Feature", "id": "ht_wmeBh6jKNbBiCkXmNuNw-RkE=", "properties": {"ref": "27598", "@spider": "chicosofftherack", "addr:full": "6813 Fayetteville Rd, Ste 101", "addr:city": "Durham", "addr:state": "NC", "addr:postcode": "27713", "addr:country": "US", "name": "Renaissance Center Off the Rack", "website": "https://stores.chicosofftherack.com/s/renaissance-center-off-the-rack", "brand": "Chico's Off The Rack", "brand:wikidata": "Q5096393"}, "geometry": {"type": "Point", "coordinates": [-78.937501, 35.904736]}},
{"type": "Feature", "id": "SZlOrbYDVa7I6P1zK_cF_cY8mNw=", "properties": {"ref": "22566", "@spider": "chicosofftherack", "addr:full": "4000 Arrowhead Blvd, Suite 550", "addr:city": "Mebane", "addr:state": "NC", "addr:postcode": "27302", "addr:country": "US", "name": "Tanger Outlet Center Mebane", "website": "https://stores.chicosofftherack.com/s/tanger-outlet-center-mebane", "brand": "Chico's Off The Rack", "brand:wikidata": "Q5096393"}, "geometry": {"type": "Point", "coordinates": [-79.266242, 36.074666]}},
{"type": "Feature", "id": "uct79vdCnreDFvso9GYZSm7KCXE=", "properties": {"ref": "22583", "@spider": "chicosofftherack", "addr:full": "1025 Outlet Center Dr, Suite 20", "addr:city": "Smithfield", "addr:state": "NC", "addr:postcode": "27577", "addr:country": "US", "name": "Carolina Premium Outlets", "website": "https://stores.chicosofftherack.com/s/carolina-premium-outlets", "brand": "Chico's Off The Rack", "brand:wikidata": "Q5096393"}, "geometry": {"type": "Point", "coordinates": [-78.31351, 35.508367]}},
{"type": "Feature", "id": "6c0bYzaDW_7cCeyga5aBkZQt6uQ=", "properties": {"ref": "22545", "@spider": "chicosofftherack", "addr:full": "8000 Factory Shops Blvd., Ste 8200", "addr:city": "Jeffersonville", "addr:state": "OH", "addr:postcode": "43128", "addr:country": "US", "name": "Tanger Outlets - Jeffersonville", "website": "https://stores.chicosofftherack.com/s/tanger-outlets-jeffersonville", "brand": "Chico's Off The Rack", "brand:wikidata": "Q5096393"}, "geometry": {"type": "Point", "coordinates": [-83.603076, 39.620307]}},
{"type": "Feature", "id": "GJjzZprVgUkJEI2PodmZ26_fkkg=", "properties": {"ref": "22582", "@spider": "chicosofftherack", "addr:full": "200 Shoppes on the Parkway, Ste 49", "addr:city": "Blowing Rock", "addr:state": "NC", "addr:postcode": "28605", "addr:country": "US", "name": "Tanger Outlets Shoppes on the Parkw", "website": "https://stores.chicosofftherack.com/s/tanger-outlets-shoppes-on-the-parkw", "brand": "Chico's Off The Rack", "brand:wikidata": "Q5096393"}, "geometry": {"type": "Point", "coordinates": [-81.670064, 36.141597]}},
{"type": "Feature", "id": "m1CUbyForUZ4k01DLChR4KAl9Bc=", "properties": {"ref": "22531", "@spider": "chicosofftherack", "addr:full": "9015-1 JM Keynes Drive", "addr:city": "Charlotte", "addr:state": "NC", "addr:postcode": "28262", "addr:country": "US", "name": "The Shoppes at University Place", "website": "https://stores.chicosofftherack.com/s/the-shoppes-at-university-place", "brand": "Chico's Off The Rack", "brand:wikidata": "Q5096393"}, "geometry": {"type": "Point", "coordinates": [-80.751192, 35.308246]}},
{"type": "Feature", "id": "D7m5_CfCGckuWWYq-GlJjHE1RnY=", "properties": {"ref": "22623", "@spider": "chicosofftherack", "addr:full": "1475 N. Burkhart Rd", "addr:city": "Howell", "addr:state": "MI", "addr:postcode": "48855", "addr:country": "US", "name": "Tanger Outlet Center Howell", "website": "https://stores.chicosofftherack.com/s/tanger-outlet-center-howell", "brand": "Chico's Off The Rack", "brand:wikidata": "Q5096393"}, "geometry": {"type": "Point", "coordinates": [-83.993422, 42.621312]}},
{"type": "Feature", "id": "TP-pqdS_6zYGi1Ky39g4ZIbwGJ4=", "properties": {"ref": "22548", "@spider": "chicosofftherack", "addr:full": "8825 Marketplace Dr, Ste F380", "addr:city": "Birch Run", "addr:state": "MI", "addr:postcode": "48415", "addr:country": "US", "name": "Birch Run Premium Outlets", "website": "https://stores.chicosofftherack.com/s/birch-run-premium-outlets", "brand": "Chico's Off The Rack", "brand:wikidata": "Q5096393"}, "geometry": {"type": "Point", "coordinates": [-83.7941, 43.2509]}},
{"type": "Feature", "id": "lMm9wn819Q_OboRelegpu9HZa9E=", "properties": {"ref": "22629", "@spider": "chicosofftherack", "addr:full": "5512 New Fashion Way", "addr:city": "Charlotte", "addr:state": "NC", "addr:postcode": "28278", "addr:country": "US", "name": "Charlotte Premium Outlets", "website": "https://stores.chicosofftherack.com/s/charlotte-premium-outlets", "brand": "Chico's Off The Rack", "brand:wikidata": "Q5096393"}, "geometry": {"type": "Point", "coordinates": [-80.971136, 35.168637]}},
{"type": "Feature", "id": "ljcXy1BLKC125oqNunXEowNXJ88=", "properties": {"ref": "22635", "@spider": "chicosofftherack", "addr:full": "1502 Hwy 17 North, Unit 2", "addr:city": "North Myrtle Beach", "addr:state": "SC", "addr:postcode": "29582", "addr:country": "US", "name": "Coastal North Town Center", "website": "https://stores.chicosofftherack.com/s/coastal-north-town-center", "brand": "Chico's Off The Rack", "brand:wikidata": "Q5096393"}, "geometry": {"type": "Point", "coordinates": [-78.675282, 33.833053]}},
{"type": "Feature", "id": "06NCmqQ5VG-59AHp3sbdqGce42M=", "properties": {"ref": "22580", "@spider": "chicosofftherack", "addr:full": "4633 Factory Stores Blvd, Ste C110", "addr:city": "Myrtle Beach", "addr:state": "SC", "addr:postcode": "29579", "addr:country": "US", "name": "Tanger Outlet Center Myrtle Beac", "website": "https://stores.chicosofftherack.com/s/tanger-outlet-center-myrtle-beac", "brand": "Chico's Off The Rack", "brand:wikidata": "Q5096393"}, "geometry": {"type": "Point", "coordinates": [-78.960462, 33.751681]}},
{"type": "Feature", "id": "vhNxkEhTTlvVbv50PHQRdq51MZQ=", "properties": {"ref": "22552", "@spider": "chicosofftherack", "addr:full": "413 Premium Outlet Drive", "addr:city": "Monroe", "addr:state": "OH", "addr:postcode": "45050", "addr:country": "US", "name": "Cincinnati Premium Outlets", "website": "https://stores.chicosofftherack.com/s/cincinnati-premium-outlets", "brand": "Chico's Off The Rack", "brand:wikidata": "Q5096393"}, "geometry": {"type": "Point", "coordinates": [-84.3622, 39.4403]}},
{"type": "Feature", "id": "YDQ2tiSBCwFDHoNR85Pk8qaeTWo=", "properties": {"ref": "22549", "@spider": "chicosofftherack", "addr:full": "100 Factory Shops Blvd, Ste 100", "addr:city": "Gaffney", "addr:state": "SC", "addr:postcode": "29341", "addr:country": "US", "name": "Gaffney Premium Outlets", "website": "https://stores.chicosofftherack.com/s/gaffney-premium-outlets", "brand": "Chico's Off The Rack", "brand:wikidata": "Q5096393"}, "geometry": {"type": "Point", "coordinates": [-81.714032, 35.080692]}},
{"type": "Feature", "id": "vYCTSjp5beGe398JslOzKBimK8I=", "properties": {"ref": "22535", "@spider": "chicosofftherack", "addr:full": "1645 Parkway, Ste 280", "addr:city": "Sevierville", "addr:state": "TN", "addr:postcode": "37862", "addr:country": "US", "name": "Tanger Outlet Center Sevierville", "website": "https://stores.chicosofftherack.com/s/tanger-outlet-center-sevierville", "brand": "Chico's Off The Rack", "brand:wikidata": "Q5096393"}, "geometry": {"type": "Point", "coordinates": [-83.569441, 35.832449]}},
{"type": "Feature", "id": "LHLm5N8Q1H6SmVXgQQFHyEtVFII=", "properties": {"ref": "23158", "@spider": "chicosofftherack", "addr:full": "3700 River Town Pkwy, Ste 1148", "addr:city": "Grandville", "addr:state": "MI", "addr:postcode": "49418", "addr:country": "US", "name": "Rivertown Crossings Off the Rack", "website": "https://stores.chicosofftherack.com/s/rivertown-crossings-off-the-rack", "brand": "Chico's Off The Rack", "brand:wikidata": "Q5096393"}, "geometry": {"type": "Point", "coordinates": [-85.7631, 42.9096]}},
{"type": "Feature", "id": "McNc9aTPXUIim-rEDHtJ7VzRVvM=", "properties": {"ref": "22618", "@spider": "chicosofftherack", "addr:full": "1155 Buck Creek Rd", "addr:city": "Simpsonville", "addr:state": "KY", "addr:postcode": "40067", "addr:country": "US", "name": "The Outlet Shoppes of the Bluegrass", "website": "https://stores.chicosofftherack.com/s/the-outlet-shoppes-of-the-bluegrass", "brand": "Chico's Off The Rack", "brand:wikidata": "Q5096393"}, "geometry": {"type": "Point", "coordinates": [-85.348292, 38.205469]}},
{"type": "Feature", "id": "L1SIy3KhFHVYJjgWm19k7vFrVHE=", "properties": {"ref": "22569", "@spider": "chicosofftherack", "addr:full": "4840 Tanger Outlet Boule, Suite 131", "addr:city": "North Charleston", "addr:state": "SC", "addr:postcode": "29418", "addr:country": "US", "name": "Tanger Outlet Center Charleston", "website": "https://stores.chicosofftherack.com/s/tanger-outlet-center-charleston", "brand": "Chico's Off The Rack", "brand:wikidata": "Q5096393"}, "geometry": {"type": "Point", "coordinates": [-80.018474, 32.873404]}},
{"type": "Feature", "id": "Voos8iTUSKnE0Yh-8_PvEb7rJGU=", "properties": {"ref": "22557", "@spider": "chicosofftherack", "addr:full": "3035 Outlet Drive, Space E080", "addr:city": "Edinburgh", "addr:state": "IN", "addr:postcode": "46124", "addr:country": "US", "name": "Indiana Premium Outlets", "website": "https://stores.chicosofftherack.com/s/indiana-premium-outlets", "brand": "Chico's Off The Rack", "brand:wikidata": "Q5096393"}, "geometry": {"type": "Point", "coordinates": [-85.96173, 39.311213]}},
{"type": "Feature", "id": "bjE7MBQxdV_0pNaETulH5QLvC10=", "properties": {"ref": "22540", "@spider": "chicosofftherack", "addr:full": "927 Lighthouse Place", "addr:city": "Michigan City", "addr:state": "IN", "addr:postcode": "46360", "addr:country": "US", "name": "Lighthouse Place Premium Outlets", "website": "https://stores.chicosofftherack.com/s/lighthouse-place-premium-outlets", "brand": "Chico's Off The Rack", "brand:wikidata": "Q5096393"}, "geometry": {"type": "Point", "coordinates": [-86.906504, 41.717197]}},
{"type": "Feature", "id": "FVxiIrDLqZSCWi3OckJ6HE6E2EQ=", "properties": {"ref": "22605", "@spider": "chicosofftherack", "addr:full": "800 Steven B. Tanger Boulevard", "addr:city": "Commerce", "addr:state": "GA", "addr:postcode": "30529", "addr:country": "US", "name": "Tanger Outlet Center Commerce", "website": "https://stores.chicosofftherack.com/s/tanger-outlet-center-commerce", "brand": "Chico's Off The Rack", "brand:wikidata": "Q5096393"}, "geometry": {"type": "Point", "coordinates": [-83.473852, 34.251699]}},
{"type": "Feature", "id": "IFTDuIH8FO-aA865-YJgbcgQw00=", "properties": {"ref": "22572", "@spider": "chicosofftherack", "addr:full": "1254 Fording Island Rd., Ste 260", "addr:city": "Bluffton", "addr:state": "SC", "addr:postcode": "29910", "addr:country": "US", "name": "Tanger Outlet Center Hilton Head I", "website": "https://stores.chicosofftherack.com/s/tanger-outlet-center-hilton-head-i", "brand": "Chico's Off The Rack", "brand:wikidata": "Q5096393"}, "geometry": {"type": "Point", "coordinates": [-80.833449, 32.247974]}},
{"type": "Feature", "id": "5zBKm6ApEUZUJC038G9obJKOjvs=", "properties": {"ref": "22634", "@spider": "chicosofftherack", "addr:full": "79 US HWY 41., Ste C&D", "addr:city": "Schererville", "addr:state": "IN", "addr:postcode": "46375", "addr:country": "US", "name": "Shops on Main", "website": "https://stores.chicosofftherack.com/s/shops-on-main", "brand": "Chico's Off The Rack", "brand:wikidata": "Q5096393"}, "geometry": {"type": "Point", "coordinates": [-87.471252, 41.520688]}},
{"type": "Feature", "id": "dBmLv7IaOtvu7KDg6243V1Fsnw4=", "properties": {"ref": "22525", "@spider": "chicosofftherack", "addr:full": "800 Hwy 400 S, Ste 250", "addr:city": "Dawsonville", "addr:state": "GA", "addr:postcode": "30534", "addr:country": "US", "name": "North Georgia Premium Outlets", "website": "https://stores.chicosofftherack.com/s/north-georgia-premium-outlets", "brand": "Chico's Off The Rack", "brand:wikidata": "Q5096393"}, "geometry": {"type": "Point", "coordinates": [-84.046804, 34.359789]}},
{"type": "Feature", "id": "B6anwNxmIpDyTHUtEppf2S5hkro=", "properties": {"ref": "22630", "@spider": "chicosofftherack", "addr:full": "200 Tanger Outlet Blvd., Suite 605", "addr:city": "Pooler", "addr:state": "GA", "addr:postcode": "31322", "addr:country": "US", "name": "Tanger Outlets Savannah", "website": "https://stores.chicosofftherack.com/s/tanger-outlets-savannah", "brand": "Chico's Off The Rack", "brand:wikidata": "Q5096393"}, "geometry": {"type": "Point", "coordinates": [-81.2495, 32.1159]}},
{"type": "Feature", "id": "Puy9MULot1C73pp4bgQsdK6mef4=", "properties": {"ref": "22592", "@spider": "chicosofftherack", "addr:full": "5220 Fashion Outlets Wa, Suite 2180", "addr:city": "Rosemont", "addr:state": "IL", "addr:postcode": "60018", "addr:country": "US", "name": "Fashion Outlets of Chicago", "website": "https://stores.chicosofftherack.com/s/fashion-outlets-of-chicago", "brand": "Chico's Off The Rack", "brand:wikidata": "Q5096393"}, "geometry": {"type": "Point", "coordinates": [-87.865982, 41.974406]}},
{"type": "Feature", "id": "lnwZ9DYEoWbTYPjrz7GjNKlJdcE=", "properties": {"ref": "22520", "@spider": "chicosofftherack", "addr:full": "11211 120th Ave, Ste 30", "addr:city": "Pleasant Prairie", "addr:state": "WI", "addr:postcode": "53158", "addr:country": "US", "name": "Pleasant Prairie Premium Outlets", "website": "https://stores.chicosofftherack.com/s/pleasant-prairie-premium-outlets", "brand": "Chico's Off The Rack", "brand:wikidata": "Q5096393"}, "geometry": {"type": "Point", "coordinates": [-87.94881, 42.516666]}},
{"type": "Feature", "id": "TMbElYx-qpSA-v1Ui2TGWOOWjpw=", "properties": {"ref": "22596", "@spider": "chicosofftherack", "addr:full": "915 Ridgewalk Parkway, Suite 570", "addr:city": "Woodstock", "addr:state": "GA", "addr:postcode": "30188", "addr:country": "US", "name": "The Outlet Shoppes at Atlanta", "website": "https://stores.chicosofftherack.com/s/the-outlet-shoppes-at-atlanta", "brand": "Chico's Off The Rack", "brand:wikidata": "Q5096393"}, "geometry": {"type": "Point", "coordinates": [-84.524156, 34.122282]}},
{"type": "Feature", "id": "2mhYuNgjz6kOh7Mlr4dn0olN19k=", "properties": {"ref": "22594", "@spider": "chicosofftherack", "addr:full": "307 Opry Mills Dr", "addr:city": "Nashville", "addr:state": "TN", "addr:postcode": "37214", "addr:country": "US", "name": "Opry Mills", "website": "https://stores.chicosofftherack.com/s/opry-mills", "brand": "Chico's Off The Rack", "brand:wikidata": "Q5096393"}, "geometry": {"type": "Point", "coordinates": [-86.69239, 36.20366]}},
{"type": "Feature", "id": "ZqBKFR15eB5Ru_X7ahKU1allraA=", "properties": {"ref": "22576", "@spider": "chicosofftherack", "addr:full": "1000 Tanger Drive, Suite 313", "addr:city": "Locust Grove", "addr:state": "GA", "addr:postcode": "30248", "addr:country": "US", "name": "Tanger Outlet Center Locust Grove", "website": "https://stores.chicosofftherack.com/s/tanger-outlet-center-locust-grove", "brand": "Chico's Off The Rack", "brand:wikidata": "Q5096393"}, "geometry": {"type": "Point", "coordinates": [-84.122163, 33.348654]}},
{"type": "Feature", "id": "Q4_NvCQVEjvRQU0mC-hwKCePlUo=", "properties": {"ref": "22619", "@spider": "chicosofftherack", "addr:full": "A1200 Tuscola Boulevard, Suite 4013", "addr:city": "Tuscola", "addr:state": "IL", "addr:postcode": "61953", "addr:country": "US", "name": "Tuscola Outlets", "website": "https://stores.chicosofftherack.com/s/tuscola-outlets", "brand": "Chico's Off The Rack", "brand:wikidata": "Q5096393"}, "geometry": {"type": "Point", "coordinates": [-88.2831, 39.7992]}},
{"type": "Feature", "id": "XXXj2lt0V2qyfazTypj0l2nH37E=", "properties": {"ref": "22570", "@spider": "chicosofftherack", "addr:full": "6200 Grand River Blvd E., Ste. 126", "addr:city": "Leeds", "addr:state": "AL", "addr:postcode": "35094", "addr:country": "US", "name": "The Shops of Grand River", "website": "https://stores.chicosofftherack.com/s/the-shops-of-grand-river", "brand": "Chico's Off The Rack", "brand:wikidata": "Q5096393"}, "geometry": {"type": "Point", "coordinates": [-86.595031, 33.546939]}},
{"type": "Feature", "id": "BY3PgYOPh6khSvzWc-va0cRB47k=", "properties": {"ref": "22518", "@spider": "chicosofftherack", "addr:full": "2700 State Road 16, Ste 908", "addr:city": "Saint Augustine", "addr:state": "FL", "addr:postcode": "32092", "addr:country": "US", "name": "St. Augustine Premium Outlets", "website": "https://stores.chicosofftherack.com/s/st-augustine-premium-outlets", "brand": "Chico's Off The Rack", "brand:wikidata": "Q5096393"}, "geometry": {"type": "Point", "coordinates": [-81.415791, 29.921074]}},
{"type": "Feature", "id": "zlh-Ua5KOUmUTMiKpNox-Ah19h8=", "properties": {"ref": "22636", "@spider": "chicosofftherack", "addr:full": "4414 SW College Rd, Ste 1920", "addr:city": "Ocala", "addr:state": "FL", "addr:postcode": "34474", "addr:country": "US", "name": "Market Street at Heath Brook.", "website": "https://stores.chicosofftherack.com/s/market-street-at-heath-brook", "brand": "Chico's Off The Rack", "brand:wikidata": "Q5096393"}, "geometry": {"type": "Point", "coordinates": [-82.190412, 29.13876]}},
{"type": "Feature", "id": "FT-phyrIA0ATBZReNGbKTyGABK0=", "properties": {"ref": "22985", "@spider": "chicosofftherack", "addr:full": "4957 International Drive, Ste 1D-27", "addr:city": "Orlando", "addr:state": "FL", "addr:postcode": "32819", "addr:country": "US", "name": "Orlando Premium Outlets", "website": "https://stores.chicosofftherack.com/s/orlando-premium-outlets", "brand": "Chico's Off The Rack", "brand:wikidata": "Q5096393"}, "geometry": {"type": "Point", "coordinates": [-81.449665, 28.473895]}},
{"type": "Feature", "id": "aNYqxDv6Awg067D_CXqSgJ_2Y2A=", "properties": {"ref": "22617", "@spider": "chicosofftherack", "addr:full": "5205 Airways Blvd, Suite 850", "addr:city": "Southaven", "addr:state": "MS", "addr:postcode": "38671", "addr:country": "US", "name": "Tanger Outlets Southaven", "website": "https://stores.chicosofftherack.com/s/tanger-outlets-southaven", "brand": "Chico's Off The Rack", "brand:wikidata": "Q5096393"}, "geometry": {"type": "Point", "coordinates": [-89.986182, 34.925034]}},
{"type": "Feature", "id": "GJ9eXuyJ5GrwEyWNmaZOoR-FLjE=", "properties": {"ref": "22589", "@spider": "chicosofftherack", "addr:full": "1792 94th Drive, Ste A -110", "addr:city": "Vero Beach", "addr:state": "FL", "addr:postcode": "32966", "addr:country": "US", "name": "Vero Beach Outlets", "website": "https://stores.chicosofftherack.com/s/vero-beach-outlets", "brand": "Chico's Off The Rack", "brand:wikidata": "Q5096393"}, "geometry": {"type": "Point", "coordinates": [-80.522147, 27.642948]}},
{"type": "Feature", "id": "nbJ5KmemMPiHYHW_6vRjIIPYLlI=", "properties": {"ref": "33946", "@spider": "chicosofftherack", "addr:full": "1355 St Lucie W Blvd", "addr:city": "Port St Lucie", "addr:state": "FL", "addr:postcode": "34986", "addr:country": "US", "name": "Shoppes St Lucie West Off the Rack", "website": "https://stores.chicosofftherack.com/s/shoppes-st-lucie-west-off-the-rack", "brand": "Chico's Off The Rack", "brand:wikidata": "Q5096393"}, "geometry": {"type": "Point", "coordinates": [-80.389548, 27.317906]}},
{"type": "Feature", "id": "0YPKRY1Ry-zm8fh7Lzgg-InQ6AU=", "properties": {"ref": "22622", "@spider": "chicosofftherack", "addr:full": "4540 Osage Beach Pkwy, Unit BB4", "addr:city": "Osage Beach", "addr:state": "MO", "addr:postcode": "65065", "addr:country": "US", "name": "Osage Beach Premium Outlets", "website": "https://stores.chicosofftherack.com/s/osage-beach-premium-outlets", "brand": "Chico's Off The Rack", "brand:wikidata": "Q5096393"}, "geometry": {"type": "Point", "coordinates": [-92.627236, 38.146339]}},
{"type": "Feature", "id": "5oD8eoXxi3qysMkHP4g54RHPGNQ=", "properties": {"ref": "22627", "@spider": "chicosofftherack", "addr:full": "3905 Eagan Outlets Parkway", "addr:city": "Eagan", "addr:state": "MN", "addr:postcode": "55122", "addr:country": "US", "name": "Twin Cities Premium Outlets", "website": "https://stores.chicosofftherack.com/s/twin-cities-premium-outlets", "brand": "Chico's Off The Rack", "brand:wikidata": "Q5096393"}, "geometry": {"type": "Point", "coordinates": [-93.21063, 44.816449]}},
{"type": "Feature", "id": "3PRWJb8xsG5RTp42kkRwyoTUroQ=", "properties": {"ref": "22615", "@spider": "chicosofftherack", "addr:full": "1771 Palm Beach Lakes", "addr:city": "West Palm Beach", "addr:state": "FL", "addr:postcode": "33401", "addr:country": "US", "name": "Palm Beach Outlets", "website": "https://stores.chicosofftherack.com/s/palm-beach-outlets", "brand": "Chico's Off The Rack", "brand:wikidata": "Q5096393"}, "geometry": {"type": "Point", "coordinates": [-80.085032, 26.723696]}},
{"type": "Feature", "id": "0PuI2tolVXMau_CsI9nMavhnneE=", "properties": {"ref": "22522", "@spider": "chicosofftherack", "addr:full": "5303 Factory Shops Bouleva, Ste 500", "addr:city": "Ellenton", "addr:state": "FL", "addr:postcode": "34222", "addr:country": "US", "name": "Ellenton Premium Outlets", "website": "https://stores.chicosofftherack.com/s/ellenton-premium-outlets", "brand": "Chico's Off The Rack", "brand:wikidata": "Q5096393"}, "geometry": {"type": "Point", "coordinates": [-82.505422, 27.534252]}},
{"type": "Feature", "id": "OEKGLkStucaefReqXDlCmgAq9bo=", "properties": {"ref": "22553", "@spider": "chicosofftherack", "addr:full": "6415 Labeaux Avenue NE, #A220", "addr:city": "Albertville", "addr:state": "MN", "addr:postcode": "55301", "addr:country": "US", "name": "Albertville Premium Outlets", "website": "https://stores.chicosofftherack.com/s/albertville-premium-outlets", "brand": "Chico's Off The Rack", "brand:wikidata": "Q5096393"}, "geometry": {"type": "Point", "coordinates": [-93.663378, 45.243988]}},
{"type": "Feature", "id": "JZD1iA0biCjDnL4IfcqDEc8qedg=", "properties": {"ref": "22521", "@spider": "chicosofftherack", "addr:full": "2601 S McKenzie St, Ste 468", "addr:city": "Foley", "addr:state": "AL", "addr:postcode": "36535", "addr:country": "US", "name": "Tanger Outlet Center Foley", "website": "https://stores.chicosofftherack.com/s/tanger-outlet-center-foley", "brand": "Chico's Off The Rack", "brand:wikidata": "Q5096393"}, "geometry": {"type": "Point", "coordinates": [-87.678445, 30.375476]}},
{"type": "Feature", "id": "7-xQEB7TZLCm7IHCbzED7pX_SR4=", "properties": {"ref": "22633", "@spider": "chicosofftherack", "addr:full": "17775 South Tamiami Trail.", "addr:city": "North Port", "addr:state": "FL", "addr:postcode": "34287", "addr:country": "US", "name": "Cocoplum Village Shops", "website": "https://stores.chicosofftherack.com/s/cocoplum-village-shops", "brand": "Chico's Off The Rack", "brand:wikidata": "Q5096393"}, "geometry": {"type": "Point", "coordinates": [-82.252803, 27.046985]}},
{"type": "Feature", "id": "-RJpGEavy72DssyJKrOQflhB9CA=", "properties": {"ref": "22599", "@spider": "chicosofftherack", "addr:full": "200 Bass Pro Drive, Suite 490", "addr:city": "Pearl", "addr:state": "MS", "addr:postcode": "39208", "addr:country": "US", "name": "Outlets of Mississippi", "website": "https://stores.chicosofftherack.com/s/outlets-of-mississippi", "brand": "Chico's Off The Rack", "brand:wikidata": "Q5096393"}, "geometry": {"type": "Point", "coordinates": [-90.150182, 32.27505]}},
{"type": "Feature", "id": "JSgQxoH05lj8HF4uuWY-MRzKsuc=", "properties": {"ref": "22529", "@spider": "chicosofftherack", "addr:full": "12801 W Sunrise Blvd, SP 1031", "addr:city": "Sunrise", "addr:state": "FL", "addr:postcode": "33323", "addr:country": "US", "name": "Sawgrass Mills", "website": "https://stores.chicosofftherack.com/s/sawgrass-mills", "brand": "Chico's Off The Rack", "brand:wikidata": "Q5096393"}, "geometry": {"type": "Point", "coordinates": [-80.320529, 26.152121]}},
{"type": "Feature", "id": "l5Tclnr9vDQV0byt-qVH7tAUjAo=", "properties": {"ref": "22551", "@spider": "chicosofftherack", "addr:full": "300 Tanger Boulevard, Suite 206", "addr:city": "Branson", "addr:state": "MO", "addr:postcode": "65616", "addr:country": "US", "name": "Tanger Outlet Center Branson", "website": "https://stores.chicosofftherack.com/s/tanger-outlet-center-branson", "brand": "Chico's Off The Rack", "brand:wikidata": "Q5096393"}, "geometry": {"type": "Point", "coordinates": [-93.2646194, 36.6445664]}},
{"type": "Feature", "id": "D37-W7tEeYa55P-PBAiYer446Wc=", "properties": {"ref": "22517", "@spider": "chicosofftherack", "addr:full": "10801 Corkscrew Rd, Ste 336", "addr:city": "Estero", "addr:state": "FL", "addr:postcode": "33928", "addr:country": "US", "name": "Miromar Outlets", "website": "https://stores.chicosofftherack.com/s/miromar-outlets", "brand": "Chico's Off The Rack", "brand:wikidata": "Q5096393"}, "geometry": {"type": "Point", "coordinates": [-81.774619, 26.437134]}},
{"type": "Feature", "id": "dxogEh4AtN_-C1KmoVkpw3t5L6A=", "properties": {"ref": "22631", "@spider": "chicosofftherack", "addr:full": "11201 Bass Pro Pwy, E-W116", "addr:city": "Little Rock", "addr:state": "AR", "addr:postcode": "72210", "addr:country": "US", "name": "The Outlets at Little Rock", "website": "https://stores.chicosofftherack.com/s/the-outlets-at-little-rock", "brand": "Chico's Off The Rack", "brand:wikidata": "Q5096393"}, "geometry": {"type": "Point", "coordinates": [-92.407734, 34.661995]}},
{"type": "Feature", "id": "lrF0I5V9nNutS7ATqs5IUQcOEoM=", "properties": {"ref": "32643", "@spider": "chicosofftherack", "addr:full": "8630 Mills Dr", "addr:city": "Miami", "addr:state": "FL", "addr:postcode": "33183", "addr:country": "US", "name": "Palms at Twn & Cntry Off the Rack", "website": "https://stores.chicosofftherack.com/s/palms-at-twn-cntry-off-the-rack", "brand": "Chico's Off The Rack", "brand:wikidata": "Q5096393"}, "geometry": {"type": "Point", "coordinates": [-80.387923, 25.687535]}},
{"type": "Feature", "id": "ePqEkUYbMu1WFEt1El28-YswqiE=", "properties": {"ref": "22575", "@spider": "chicosofftherack", "addr:full": "1803 Village West Parkwa, Ste. M133", "addr:city": "Kansas City", "addr:state": "KS", "addr:postcode": "66111", "addr:country": "US", "name": "Legends Outlets Kansas City", "website": "https://stores.chicosofftherack.com/s/legends-outlets-kansas-city", "brand": "Chico's Off The Rack", "brand:wikidata": "Q5096393"}, "geometry": {"type": "Point", "coordinates": [-94.826126, 39.125581]}},
{"type": "Feature", "id": "nKW0wh9Au0URJpih-HpXW6iCiL4=", "properties": {"ref": "22567", "@spider": "chicosofftherack", "addr:full": "10655 Factory Shops Blvd", "addr:city": "Gulfport", "addr:state": "MS", "addr:postcode": "39503", "addr:country": "US", "name": "Gulfport Premium Outlets", "website": "https://stores.chicosofftherack.com/s/gulfport-premium-outlets", "brand": "Chico's Off The Rack", "brand:wikidata": "Q5096393"}, "geometry": {"type": "Point", "coordinates": [-89.0928, 30.3674]}},
{"type": "Feature", "id": "bi-4v2NaKnsKuiCjZF3VoluP0eI=", "properties": {"ref": "22610", "@spider": "chicosofftherack", "addr:full": "21215 Nebraska Crossing D, Ste D105", "addr:city": "Gretna", "addr:state": "NE", "addr:postcode": "68028", "addr:country": "US", "name": "Nebraska Crossing Outlets", "website": "https://stores.chicosofftherack.com/s/nebraska-crossing-outlets", "brand": "Chico's Off The Rack", "brand:wikidata": "Q5096393"}, "geometry": {"type": "Point", "coordinates": [-96.251101, 41.099551]}},
{"type": "Feature", "id": "WA4wTbzu32IEdPx5iWZhBXTjP0g=", "properties": {"ref": "22612", "@spider": "chicosofftherack", "addr:full": "500 Port of New Orleans Pl, Ste 115", "addr:city": "New Orleans", "addr:state": "LA", "addr:postcode": "70130", "addr:country": "US", "name": "The Outlet Collection at Riverwalk", "website": "https://stores.chicosofftherack.com/s/the-outlet-collection-at-riverwalk", "brand": "Chico's Off The Rack", "brand:wikidata": "Q5096393"}, "geometry": {"type": "Point", "coordinates": [-90.062891, 29.947315]}},
{"type": "Feature", "id": "1xe_ruieEk_K5-lS-Aj7-gLpb6c=", "properties": {"ref": "22579", "@spider": "chicosofftherack", "addr:full": "2200 Tanger Blvd, Suite 117", "addr:city": "Gonzales", "addr:state": "LA", "addr:postcode": "70737", "addr:country": "US", "name": "Tanger Outlet Center Gonzales", "website": "https://stores.chicosofftherack.com/s/tanger-outlet-center-gonzales", "brand": "Chico's Off The Rack", "brand:wikidata": "Q5096393"}, "geometry": {"type": "Point", "coordinates": [-90.951507, 30.213544]}},
{"type": "Feature", "id": "NnAcEL0-mZlieil40Ypx5dA7ijM=", "properties": {"ref": "22555", "@spider": "chicosofftherack", "addr:full": "7634 W Reno Avenue, Ste 640", "addr:city": "Oklahoma City", "addr:state": "OK", "addr:postcode": "73127", "addr:country": "US", "name": "The Outlet Shoppes at Oklahoma City", "website": "https://stores.chicosofftherack.com/s/the-outlet-shoppes-at-oklahoma-city", "brand": "Chico's Off The Rack", "brand:wikidata": "Q5096393"}, "geometry": {"type": "Point", "coordinates": [-97.650038, 35.464156]}},
{"type": "Feature", "id": "P-hsG5ibQQIGDfoZbAu0S0ip23k=", "properties": {"ref": "22560", "@spider": "chicosofftherack", "addr:full": "820 W Stacy Rd, Ste 410", "addr:city": "Allen", "addr:state": "TX", "addr:postcode": "75013", "addr:country": "US", "name": "Allen Premium Outlets", "website": "https://stores.chicosofftherack.com/s/allen-premium-outlets", "brand": "Chico's Off The Rack", "brand:wikidata": "Q5096393"}, "geometry": {"type": "Point", "coordinates": [-96.660698, 33.132691]}},
{"type": "Feature", "id": "JfNSLsHaJqiGcvsszWAr0UdGbhM=", "properties": {"ref": "22523", "@spider": "chicosofftherack", "addr:full": "3000 Grapevine Mills Parkwa, Sp 202", "addr:city": "Grapevine", "addr:state": "TX", "addr:postcode": "76051", "addr:country": "US", "name": "Grapevine Mills", "website": "https://stores.chicosofftherack.com/s/grapevine-mills", "brand": "Chico's Off The Rack", "brand:wikidata": "Q5096393"}, "geometry": {"type": "Point", "coordinates": [-97.04288, 32.967224]}},
{"type": "Feature", "id": "8lA8gX9u3J0_5HazSB6nInIGuCw=", "properties": {"ref": "22586", "@spider": "chicosofftherack", "addr:full": "2950 W. Interstate 20, Suite 438", "addr:city": "Grand Prairie", "addr:state": "TX", "addr:postcode": "75052", "addr:country": "US", "name": "Grand Prairie Premium Outlets", "website": "https://stores.chicosofftherack.com/s/grand-prairie-premium-outlets", "brand": "Chico's Off The Rack", "brand:wikidata": "Q5096393"}, "geometry": {"type": "Point", "coordinates": [-97.053344, 32.67957]}},
{"type": "Feature", "id": "r9TS5WZxYty_8KDua8LvJGw6A3U=", "properties": {"ref": "22606", "@spider": "chicosofftherack", "addr:full": "5885 Gulf Freeway, Suite 815", "addr:city": "Texas City", "addr:state": "TX", "addr:postcode": "77591", "addr:country": "US", "name": "Tanger Outlet Center S. Hou/Galvest", "website": "https://stores.chicosofftherack.com/s/tanger-outlet-center-s-hou-galvest", "brand": "Chico's Off The Rack", "brand:wikidata": "Q5096393"}, "geometry": {"type": "Point", "coordinates": [-95.047139, 29.417597]}},
{"type": "Feature", "id": "PxueFpLNEwisvMr2y_ocVf3SLSU=", "properties": {"ref": "22534", "@spider": "chicosofftherack", "addr:full": "380 Meyerland Plaza Mall", "addr:city": "Houston", "addr:state": "TX", "addr:postcode": "77096", "addr:country": "US", "name": "Meyerland Plaza", "website": "https://stores.chicosofftherack.com/s/meyerland-plaza", "brand": "Chico's Off The Rack", "brand:wikidata": "Q5096393"}, "geometry": {"type": "Point", "coordinates": [-95.461952, 29.686618]}},
{"type": "Feature", "id": "s-xE5gevssqjT9HQe7RVAF2kGmY=", "properties": {"ref": "22563", "@spider": "chicosofftherack", "addr:full": "29300 Hempstead Rd, Suite 1202", "addr:city": "Cypress", "addr:state": "TX", "addr:postcode": "77433", "addr:country": "US", "name": "Houston Premium Outlets", "website": "https://stores.chicosofftherack.com/s/houston-premium-outlets", "brand": "Chico's Off The Rack", "brand:wikidata": "Q5096393"}, "geometry": {"type": "Point", "coordinates": [-95.756715, 29.996913]}},
{"type": "Feature", "id": "_hSnXiNVPd1kHi8WM6r1Onzw2FU=", "properties": {"ref": "22558", "@spider": "chicosofftherack", "addr:full": "4401 N IH 35, Suite 757", "addr:city": "Round Rock", "addr:state": "TX", "addr:postcode": "78664", "addr:country": "US", "name": "Round Rock Premium Outlets", "website": "https://stores.chicosofftherack.com/s/round-rock-premium-outlets", "brand": "Chico's Off The Rack", "brand:wikidata": "Q5096393"}, "geometry": {"type": "Point", "coordinates": [-97.694208, 30.535102]}},
{"type": "Feature", "id": "_j7M5mWa7hAG-O8hq9PUV-EoKrs=", "properties": {"ref": "22539", "@spider": "chicosofftherack", "addr:full": "3939 S Interstate Hwy 35, Ste 1300", "addr:city": "San Marcos", "addr:state": "TX", "addr:postcode": "78666", "addr:country": "US", "name": "San Marcos Premium Outlets", "website": "https://stores.chicosofftherack.com/s/san-marcos-premium-outlets", "brand": "Chico's Off The Rack", "brand:wikidata": "Q5096393"}, "geometry": {"type": "Point", "coordinates": [-97.9406, 29.8826]}},
{"type": "Feature", "id": "Gwu0PnPFUHXsv-JdUKmLtWwT0jw=", "properties": {"ref": "22565", "@spider": "chicosofftherack", "addr:full": "5050 Factory Shops Blvd, Suite 165", "addr:city": "Castle Rock", "addr:state": "CO", "addr:postcode": "80108", "addr:country": "US", "name": "Outlets at Castle Rock", "website": "https://stores.chicosofftherack.com/s/outlets-at-castle-rock", "brand": "Chico's Off The Rack", "brand:wikidata": "Q5096393"}, "geometry": {"type": "Point", "coordinates": [-104.874534, 39.415272]}},
{"type": "Feature", "id": "akCW2cxmJZlhKNoT_SKuXC3F2Mk=", "properties": {"ref": "22543", "@spider": "chicosofftherack", "addr:full": "125-D Stephens Way, POB 25433", "addr:city": "Silverthorne", "addr:state": "CO", "addr:postcode": "80498", "addr:country": "US", "name": "The Outlets at Silverthorne", "website": "https://stores.chicosofftherack.com/s/the-outlets-at-silverthorne", "brand": "Chico's Off The Rack", "brand:wikidata": "Q5096393"}, "geometry": {"type": "Point", "coordinates": [-106.062, 39.6375]}},
{"type": "Feature", "id": "FXQUwTnbgKjPjHi3uxGa69aeGQs=", "properties": {"ref": "31730", "@spider": "chicosofftherack", "addr:full": "8889 Gateway Blvd W, Suite 1810", "addr:city": "El Paso", "addr:state": "TX", "addr:postcode": "79925", "addr:country": "US", "name": "The Fountains at Farah Off the Rack", "website": "https://stores.chicosofftherack.com/s/the-fountains-at-farah-off-the-rack", "brand": "Chico's Off The Rack", "brand:wikidata": "Q5096393"}, "geometry": {"type": "Point", "coordinates": [-106.37136, 31.77025]}},
{"type": "Feature", "id": "kUKDI8dEtuK9dcCZeUiEymZYeTU=", "properties": {"ref": "22609", "@spider": "chicosofftherack", "addr:full": "3700 N Cabelas Blvd, Suite 317", "addr:city": "Lehi", "addr:state": "UT", "addr:postcode": "84043", "addr:country": "US", "name": "Outlets at Traverse Mountain", "website": "https://stores.chicosofftherack.com/s/outlets-at-traverse-mountain", "brand": "Chico's Off The Rack", "brand:wikidata": "Q5096393"}, "geometry": {"type": "Point", "coordinates": [-111.884604, 40.435031]}},
{"type": "Feature", "id": "bZXiVXp-PpEb6Vy5Goei2jAePCA=", "properties": {"ref": "22984", "@spider": "chicosofftherack", "addr:full": "5000 Arizona Mills Circle, Sp 380", "addr:city": "Tempe", "addr:state": "AZ", "addr:postcode": "85282", "addr:country": "US", "name": "Arizona Mills", "website": "https://stores.chicosofftherack.com/s/arizona-mills", "brand": "Chico's Off The Rack", "brand:wikidata": "Q5096393"}, "geometry": {"type": "Point", "coordinates": [-111.964485, 33.383125]}},
{"type": "Feature", "id": "V0MAgxyrebL6eDg6SwhHbMk9ZTY=", "properties": {"ref": "22598", "@spider": "chicosofftherack", "addr:full": "6800 N 95th Avenue,  705", "addr:city": "Glendale", "addr:state": "AZ", "addr:postcode": "85305", "addr:country": "US", "name": "Tanger Outlet Center Westgate", "website": "https://stores.chicosofftherack.com/s/tanger-outlet-center-westgate", "brand": "Chico's Off The Rack", "brand:wikidata": "Q5096393"}, "geometry": {"type": "Point", "coordinates": [-112.266883, 33.534838]}},
{"type": "Feature", "id": "xo_sFGDh0TnnU4ubQgM_ci3JIsg=", "properties": {"ref": "22532", "@spider": "chicosofftherack", "addr:full": "855 S Grand Central Pkwy, #1575", "addr:city": "Las Vegas", "addr:state": "NV", "addr:postcode": "89106", "addr:country": "US", "name": "Las Vegas Premium Outlets - North", "website": "https://stores.chicosofftherack.com/s/las-vegas-premium-outlets-north", "brand": "Chico's Off The Rack", "brand:wikidata": "Q5096393"}, "geometry": {"type": "Point", "coordinates": [-115.157692, 36.162672]}},
{"type": "Feature", "id": "QAKwCqlXhCDA10V0IM8d4GlynuY=", "properties": {"ref": "22602", "@spider": "chicosofftherack", "addr:full": "7400 Las Vegas Boulevard, Suite 227", "addr:city": "Las Vegas", "addr:state": "NV", "addr:postcode": "89123", "addr:country": "US", "name": "Las Vegas Premium Outlets - South", "website": "https://stores.chicosofftherack.com/s/las-vegas-premium-outlets-south", "brand": "Chico's Off The Rack", "brand:wikidata": "Q5096393"}, "geometry": {"type": "Point", "coordinates": [-115.17051, 36.054262]}},
{"type": "Feature", "id": "kvqavdqxynUzaPMkSQV94bOapNo=", "properties": {"ref": "22562", "@spider": "chicosofftherack", "addr:full": "48400 Seminole Dr, Suite 624", "addr:city": "Cabazon", "addr:state": "CA", "addr:postcode": "92230", "addr:country": "US", "name": "Desert Hills Premium Outlets", "website": "https://stores.chicosofftherack.com/s/desert-hills-premium-outlets", "brand": "Chico's Off The Rack", "brand:wikidata": "Q5096393"}, "geometry": {"type": "Point", "coordinates": [-116.817759, 33.930348]}},
{"type": "Feature", "id": "EuKFpBYq33VeSr2M9NMRtPEV2qs=", "properties": {"ref": "22626", "@spider": "chicosofftherack", "addr:full": "1101 OUtlet Collection Wa, Ste 1020", "addr:city": "Auburn", "addr:state": "WA", "addr:postcode": "98001", "addr:country": "US", "name": "The Outlet Collection - Seattle", "website": "https://stores.chicosofftherack.com/s/the-outlet-collection-seattle", "brand": "Chico's Off The Rack", "brand:wikidata": "Q5096393"}, "geometry": {"type": "Point", "coordinates": [-122.240757, 47.299038]}},
{"type": "Feature", "id": "KoZeqz7tlA02dsTfea2U_7Artr8=", "properties": {"ref": "22556", "@spider": "chicosofftherack", "addr:full": "5001 Willows Rd, Suite 308", "addr:city": "Alpine", "addr:state": "CA", "addr:postcode": "91901", "addr:country": "US", "name": "Viejas Outlet Center", "website": "https://stores.chicosofftherack.com/s/viejas-outlet-center", "brand": "Chico's Off The Rack", "brand:wikidata": "Q5096393"}, "geometry": {"type": "Point", "coordinates": [-116.706646, 32.840634]}},
{"type": "Feature", "id": "k2GmtsrjZr3C-BxG4hfQHRb-A7Q=", "properties": {"ref": "22600", "@spider": "chicosofftherack", "addr:full": "5600 Paseo del Norte, Ste A116", "addr:city": "Carlsbad", "addr:state": "CA", "addr:postcode": "92008", "addr:country": "US", "name": "Carlsbad Premium Outlets", "website": "https://stores.chicosofftherack.com/s/carlsbad-premium-outlets", "brand": "Chico's Off The Rack", "brand:wikidata": "Q5096393"}, "geometry": {"type": "Point", "coordinates": [-117.32131, 33.126433]}},
{"type": "Feature", "id": "8IXLjxJwVTvfvKuLdLINIago1hU=", "properties": {"ref": "22584", "@spider": "chicosofftherack", "addr:full": "4125 Camino de la Plaza, Ste 404", "addr:city": "San Diego", "addr:state": "CA", "addr:postcode": "92173", "addr:country": "US", "name": "Las Americas Premium Outlets", "website": "https://stores.chicosofftherack.com/s/las-americas-premium-outlets", "brand": "Chico's Off The Rack", "brand:wikidata": "Q5096393"}, "geometry": {"type": "Point", "coordinates": [-117.043238, 32.545103]}},
{"type": "Feature", "id": "A_qBebuWBq2FFGO08uY8qzpMQD8=", "properties": {"ref": "22608", "@spider": "chicosofftherack", "addr:full": "101 West Avenida Vista H, Suite 580", "addr:city": "San Clemente", "addr:state": "CA", "addr:postcode": "92672", "addr:country": "US", "name": "Outlets at San Clemente", "website": "https://stores.chicosofftherack.com/s/outlets-at-san-clemente", "brand": "Chico's Off The Rack", "brand:wikidata": "Q5096393"}, "geometry": {"type": "Point", "coordinates": [-117.636607, 33.440706]}},
{"type": "Feature", "id": "dQ1Sd28O7JzaYb4up_FlqiogG9Y=", "properties": {"ref": "22597", "@spider": "chicosofftherack", "addr:full": "1312 Lum Road", "addr:city": "Centralia", "addr:state": "WA", "addr:postcode": "98531", "addr:country": "US", "name": "Centralia Outlets", "website": "https://stores.chicosofftherack.com/s/centralia-outlets", "brand": "Chico's Off The Rack", "brand:wikidata": "Q5096393"}, "geometry": {"type": "Point", "coordinates": [-122.977632, 46.731878]}},
{"type": "Feature", "id": "BDcTmsWZZnJfdngQqo9VnPvn9J8=", "properties": {"ref": "22537", "@spider": "chicosofftherack", "addr:full": "1001 N Arney Road, Ste 402", "addr:city": "Woodburn", "addr:state": "OR", "addr:postcode": "97071", "addr:country": "US", "name": "Woodburn Premium Outlets", "website": "https://stores.chicosofftherack.com/s/woodburn-premium-outlets", "brand": "Chico's Off The Rack", "brand:wikidata": "Q5096393"}, "geometry": {"type": "Point", "coordinates": [-122.878354, 45.156227]}},
{"type": "Feature", "id": "0BLJxx7UQlErfz-BHTr-tx9Ykxg=", "properties": {"ref": "22559", "@spider": "chicosofftherack", "addr:full": "13000 Folsom Boulevard, Suite 902", "addr:city": "Folsom", "addr:state": "CA", "addr:postcode": "95630", "addr:country": "US", "name": "Folsom Premium Outlets", "website": "https://stores.chicosofftherack.com/s/folsom-premium-outlets", "brand": "Chico's Off The Rack", "brand:wikidata": "Q5096393"}, "geometry": {"type": "Point", "coordinates": [-121.18946, 38.644655]}},
{"type": "Feature", "id": "_tEAxio0tX3ZdZhIkxMxFLnDBRA=", "properties": {"ref": "22530", "@spider": "chicosofftherack", "addr:full": "990 Camarillo Center Dr, Ste 1022", "addr:city": "Camarillo", "addr:state": "CA", "addr:postcode": "93010", "addr:country": "US", "name": "Camarillo Premium Outlets", "website": "https://stores.chicosofftherack.com/s/camarillo-premium-outlets", "brand": "Chico's Off The Rack", "brand:wikidata": "Q5096393"}, "geometry": {"type": "Point", "coordinates": [-119.057615, 34.217533]}},
{"type": "Feature", "id": "94PKTO0nJpCy0AEsBCNXh3rFo50=", "properties": {"ref": "22620", "@spider": "chicosofftherack", "addr:full": "1500 SE East Devils Lake, Suite 114", "addr:city": "Lincoln City", "addr:state": "OR", "addr:postcode": "97367", "addr:country": "US", "name": "Lincoln City Outlets", "website": "https://stores.chicosofftherack.com/s/lincoln-city-outlets", "brand": "Chico's Off The Rack", "brand:wikidata": "Q5096393"}, "geometry": {"type": "Point", "coordinates": [-124.01029, 44.958721]}},
{"type": "Feature", "id": "qn1HTDll-Ou4K4PCFNXJWlyaBUI=", "properties": {"ref": "22519", "@spider": "chicosofftherack", "addr:full": "131 Nut Tree Road, Bldg6 Sp61", "addr:city": "Vacaville", "addr:state": "CA", "addr:postcode": "95687", "addr:country": "US", "name": "Vacaville Premium Outlets", "website": "https://stores.chicosofftherack.com/s/vacaville-premium-outlets", "brand": "Chico's Off The Rack", "brand:wikidata": "Q5096393"}, "geometry": {"type": "Point", "coordinates": [-121.955933, 38.367994]}},
{"type": "Feature", "id": "1C4vo6AdkeTVw2Rc4cqwKIJTdI8=", "properties": {"ref": "22587", "@spider": "chicosofftherack", "addr:full": "2782 Paragon Outlet Drive.", "addr:city": "Livermore", "addr:state": "CA", "addr:postcode": "94551", "addr:country": "US", "name": "Livermore Premium Outlets", "website": "https://stores.chicosofftherack.com/s/livermore-premium-outlets", "brand": "Chico's Off The Rack", "brand:wikidata": "Q5096393"}, "geometry": {"type": "Point", "coordinates": [-121.7681, 37.6821]}},
{"type": "Feature", "id": "33LCRCTFL3fwgy5v7SrlI-kY5R8=", "properties": {"ref": "22526", "@spider": "chicosofftherack", "addr:full": "8555 San Ysidro Avenue, Ste D060", "addr:city": "Gilroy", "addr:state": "CA", "addr:postcode": "95020", "addr:country": "US", "name": "Gilroy Premium Outlets", "website": "https://stores.chicosofftherack.com/s/gilroy-premium-outlets", "brand": "Chico's Off The Rack", "brand:wikidata": "Q5096393"}, "geometry": {"type": "Point", "coordinates": [-121.566518, 37.024923]}}]}