{"type":"FeatureCollection","features":[{"type": "Feature", "id": "s34CUh2MaBAIFJ2EA6miHhCQA9M=", "properties": {"ref": "ga-canton-marketplace", "@spider": "chickfila", "amenity": "fast_food", "cuisine": "chicken", "takeaway": "yes", "addr:street_address": "2048 Cumming Hwy", "addr:city": "Canton", "addr:state": "GA", "addr:postcode": "30114", "addr:country": "US", "name": "Canton Marketplace", "website": "https://www.chick-fil-a.com/locations/ga/canton-marketplace", "image": "https://www.chick-fil-a.com/-/media/images/cfacom/default-images/seo/history_freestanding.ashx", "brand": "Chick-Fil-A", "brand:wikidata": "Q491516", "nsi_id": "chickfila-4d2ff4"}, "geometry": {"type": "Point", "coordinates": [-84.453449, 34.236141]}},
{"type": "Feature", "id": "xZrKBqNKx4CuoNvFOWk4D3pIuXo=", "properties": {"ref": "ga-fayetteville-towne-center", "@spider": "chickfila", "amenity": "fast_food", "cuisine": "chicken", "takeaway": "yes", "addr:street_address": "875 Glynn St S", "addr:city": "Fayetteville", "addr:state": "GA", "addr:postcode": "30214", "addr:country": "US", "name": "Fayetteville Towne Center", "website": "https://www.chick-fil-a.com/locations/ga/fayetteville-towne-center", "image": "https://www.chick-fil-a.com/-/media/images/cfacom/default-images/seo/history_freestanding.ashx", "brand": "Chick-Fil-A", "brand:wikidata": "Q491516", "nsi_id": "chickfila-4d2ff4"}, "geometry": {"type": "Point", "coordinates": [-84.458569, 33.429835]}},
{"type": "Feature", "id": "mABqv_x1816x-ei2-Puv6pXtjyU=", "properties": {"ref": "ga-dawsonville", "@spider": "chickfila", "amenity": "fast_food", "cuisine": "chicken", "takeaway": "yes", "addr:street_address": "231 Power Center Dr", "addr:city": "Dawsonville", "addr:state": "GA", "addr:postcode": "30534", "addr:country": "US", "name": "Dawsonville", "website": "https://www.chick-fil-a.com/locations/ga/dawsonville", "image": "https://www.chick-fil-a.com/-/media/images/cfacom/default-images/seo/history_freestanding.ashx", "brand": "Chick-Fil-A", "brand:wikidata": "Q491516", "nsi_id": "chickfila-4d2ff4"}, "geometry": {"type": "Point", "coordinates": [-84.044434, 34.356704]}},
{"type": "Feature", "id": "BIpD7GMlXDLGZRJNRI0pf4bQ3xg=", "properties": {"ref": "ga-macon-road", "@spider": "chickfila", "amenity": "fast_food", "cuisine": "chicken", "takeaway": "yes", "addr:street_address": "2421 Wynnton Rd", "addr:city": "Columbus", "addr:state": "GA", "addr:postcode": "31906", "addr:country": "US", "name": "Macon Road", "website": "https://www.chick-fil-a.com/locations/ga/macon-road", "image": "https://www.chick-fil-a.com/-/media/images/cfacom/default-images/seo/history_freestanding.ashx", "brand": "Chick-Fil-A", "brand:wikidata": "Q491516", "nsi_id": "chickfila-4d2ff4"}, "geometry": {"type": "Point", "coordinates": [-84.956275, 32.472023]}},
{"type": "Feature", "id": "0qr6xCeWwJ0j-h7rQ7hFAWyJm5g=", "properties": {"ref": "ga-downtown-decatur", "@spider": "chickfila", "amenity": "fast_food", "cuisine": "chicken", "takeaway": "yes", "addr:street_address": "105 E Trinity Pl", "addr:city": "Decatur", "addr:state": "GA", "addr:postcode": "30030", "addr:country": "US", "name": "Downtown Decatur", "website": "https://www.chick-fil-a.com/locations/ga/downtown-decatur", "image": "https://www.chick-fil-a.com/-/media/images/cfacom/default-images/seo/history_freestanding.ashx", "brand": "Chick-Fil-A", "brand:wikidata": "Q491516", "nsi_id": "chickfila-4d2ff4"}, "geometry": {"type": "Point", "coordinates": [-84.296083, 33.773055]}},
{"type": "Feature", "id": "uj1ZzfUbMWoUg6IYQGZWW3VBcO8=", "properties": {"ref": "ga-dahlonega", "@spider": "chickfila", "amenity": "fast_food", "cuisine": "chicken", "takeaway": "yes", "addr:street_address": "488 Morrison Moore Pkwy E", "addr:city": "Dahlonega", "addr:state": "GA", "addr:postcode": "30533", "addr:country": "US", "name": "Dahlonega", "website": "https://www.chick-fil-a.com/locations/ga/dahlonega", "image": "https://www.chick-fil-a.com/-/media/images/cfacom/default-images/seo/history_freestanding.ashx", "brand": "Chick-Fil-A", "brand:wikidata": "Q491516", "nsi_id": "chickfila-4d2ff4"}, "geometry": {"type": "Point", "coordinates": [-83.975746, 34.534322]}},
{"type": "Feature", "id": "QiPuSskNucso1vY9WpvQsaGpqwc=", "properties": {"ref": "ga-starrs-mill", "@spider": "chickfila", "amenity": "fast_food", "cuisine": "chicken", "takeaway": "yes", "addr:street_address": "1222 Highway 74 S", "addr:city": "Peachtree City", "addr:state": "GA", "addr:postcode": "30269", "addr:country": "US", "name": "Starr's Mill", "website": "https://www.chick-fil-a.com/locations/ga/starrs-mill", "image": "https://www.chick-fil-a.com/-/media/images/cfacom/default-images/seo/history_freestanding.ashx", "brand": "Chick-Fil-A", "brand:wikidata": "Q491516", "nsi_id": "chickfila-4d2ff4"}, "geometry": {"type": "Point", "coordinates": [-84.534254, 33.342639]}},
{"type": "Feature", "id": "fJ35iD5Q8Gdv2P5QB1cDHf46PtA=", "properties": {"ref": "ga-clayton", "@spider": "chickfila", "amenity": "fast_food", "cuisine": "chicken", "takeaway": "yes", "addr:street_address": "151 Highway 441 N", "addr:city": "Clayton", "addr:state": "GA", "addr:postcode": "30525", "addr:country": "US", "name": "Clayton", "website": "https://www.chick-fil-a.com/locations/ga/clayton", "image": "https://www.chick-fil-a.com/-/media/images/cfacom/default-images/seo/history_freestanding.ashx", "brand": "Chick-Fil-A", "brand:wikidata": "Q491516", "nsi_id": "chickfila-4d2ff4"}, "geometry": {"type": "Point", "coordinates": [-83.397028, 34.880366]}},
{"type": "Feature", "id": "1ndjZdijXpd5LHmesalFQexqQno=", "properties": {"ref": "ga-mullins-crossing", "@spider": "chickfila", "amenity": "fast_food", "cuisine": "chicken", "takeaway": "yes", "addr:street_address": "4201 Washington Rd", "addr:city": "Evans", "addr:state": "GA", "addr:postcode": "30809", "addr:country": "US", "name": "Mullins Crossing", "website": "https://www.chick-fil-a.com/locations/ga/mullins-crossing", "image": "https://www.chick-fil-a.com/-/media/images/cfacom/default-images/seo/history_freestanding.ashx", "brand": "Chick-Fil-A", "brand:wikidata": "Q491516", "nsi_id": "chickfila-4d2ff4"}, "geometry": {"type": "Point", "coordinates": [-82.11951, 33.52529]}},
{"type": "Feature", "id": "QO6a5JRHTemOuzSuLVEyDEfv9O4=", "properties": {"ref": "ga-mcdonough", "@spider": "chickfila", "amenity": "fast_food", "cuisine": "chicken", "takeaway": "yes", "addr:street_address": "1321 Highway 20 W", "addr:city": "Mcdonough", "addr:state": "GA", "addr:postcode": "30253", "addr:country": "US", "name": "McDonough", "website": "https://www.chick-fil-a.com/locations/ga/mcdonough", "image": "https://www.chick-fil-a.com/-/media/images/cfacom/default-images/seo/history_freestanding.ashx", "brand": "Chick-Fil-A", "brand:wikidata": "Q491516", "nsi_id": "chickfila-4d2ff4"}, "geometry": {"type": "Point", "coordinates": [-84.18341, 33.42431]}},
{"type": "Feature", "id": "JupeHzH3twCba3v4UDzVA9RH9HE=", "properties": {"ref": "ga-saint-simons", "@spider": "chickfila", "amenity": "fast_food", "cuisine": "chicken", "takeaway": "yes", "addr:street_address": "2205 Demere Rd", "addr:city": "Saint Simons Island", "addr:state": "GA", "addr:postcode": "31522", "addr:country": "US", "name": "Saint Simons", "website": "https://www.chick-fil-a.com/locations/ga/saint-simons", "image": "https://www.chick-fil-a.com/-/media/images/cfacom/default-images/seo/history_freestanding.ashx", "brand": "Chick-Fil-A", "brand:wikidata": "Q491516", "nsi_id": "chickfila-4d2ff4"}, "geometry": {"type": "Point", "coordinates": [-81.390172, 31.159728]}},
{"type": "Feature", "id": "qW2nyOGAvcj37e85ErypdmF99EA=", "properties": {"ref": "ga-cleveland-ga", "@spider": "chickfila", "amenity": "fast_food", "cuisine": "chicken", "takeaway": "yes", "addr:street_address": "25 W Underwood St", "addr:city": "Cleveland", "addr:state": "GA", "addr:postcode": "30528", "addr:country": "US", "name": "Cleveland (GA)", "website": "https://www.chick-fil-a.com/locations/ga/cleveland-ga", "image": "https://www.chick-fil-a.com/-/media/images/cfacom/default-images/seo/history_freestanding.ashx", "brand": "Chick-Fil-A", "brand:wikidata": "Q491516", "nsi_id": "chickfila-4d2ff4"}, "geometry": {"type": "Point", "coordinates": [-83.76380379, 34.59505069]}},
{"type": "Feature", "id": "33slZKjjBWrJp6lCnPDPRAio-hs=", "properties": {"ref": "ga-lee-crossings", "@spider": "chickfila", "amenity": "fast_food", "cuisine": "chicken", "takeaway": "yes", "addr:street_address": "1202 US Highway 19 S", "addr:city": "Leesburg", "addr:state": "GA", "addr:postcode": "31763", "addr:country": "US", "name": "Lee Crossings", "website": "https://www.chick-fil-a.com/locations/ga/lee-crossings", "image": "https://www.chick-fil-a.com/-/media/images/cfacom/default-images/seo/history_freestanding.ashx", "brand": "Chick-Fil-A", "brand:wikidata": "Q491516", "nsi_id": "chickfila-4d2ff4"}, "geometry": {"type": "Point", "coordinates": [-84.17355, 31.65587]}},
{"type": "Feature", "id": "gqFyeHuWTyxFOMDFN8H57Ac-DeU=", "properties": {"ref": "ga-lafayette-parkway", "@spider": "chickfila", "amenity": "fast_food", "cuisine": "chicken", "takeaway": "yes", "addr:street_address": "1574 Lafayette Pkwy", "addr:city": "Lagrange", "addr:state": "GA", "addr:postcode": "30241", "addr:country": "US", "name": "LaFayette Parkway", "website": "https://www.chick-fil-a.com/locations/ga/lafayette-parkway", "image": "https://www.chick-fil-a.com/-/media/images/cfacom/default-images/seo/history_freestanding.ashx", "brand": "Chick-Fil-A", "brand:wikidata": "Q491516", "nsi_id": "chickfila-4d2ff4"}, "geometry": {"type": "Point", "coordinates": [-84.97454, 33.041518]}},
{"type": "Feature", "id": "9nLI2RFm-JHqHu16AlWCysuj2UY=", "properties": {"ref": "ga-vidalia", "@spider": "chickfila", "amenity": "fast_food", "cuisine": "chicken", "takeaway": "yes", "addr:street_address": "2349 E 1st St", "addr:city": "Vidalia", "addr:state": "GA", "addr:postcode": "30474", "addr:country": "US", "name": "Vidalia", "website": "https://www.chick-fil-a.com/locations/ga/vidalia", "image": "https://www.chick-fil-a.com/-/media/images/cfacom/default-images/seo/history_freestanding.ashx", "brand": "Chick-Fil-A", "brand:wikidata": "Q491516", "nsi_id": "chickfila-4d2ff4"}, "geometry": {"type": "Point", "coordinates": [-82.38104, 32.20727]}},
{"type": "Feature", "id": "V8z89rMXZ7AcxpZDKj17v39_tWk=", "properties": {"ref": "ga-northlake-festival", "@spider": "chickfila", "amenity": "fast_food", "cuisine": "chicken", "takeaway": "yes", "addr:street_address": "3967 Lavista Rd", "addr:city": "Tucker", "addr:state": "GA", "addr:postcode": "30084", "addr:country": "US", "name": "Northlake Festival", "website": "https://www.chick-fil-a.com/locations/ga/northlake-festival", "image": "https://www.chick-fil-a.com/-/media/images/cfacom/default-images/seo/history_freestanding.ashx", "brand": "Chick-Fil-A", "brand:wikidata": "Q491516", "nsi_id": "chickfila-4d2ff4"}, "geometry": {"type": "Point", "coordinates": [-84.252529, 33.846024]}},
{"type": "Feature", "id": "kO3PoNUYEOf7s__xulWuNCGs9vc=", "properties": {"ref": "hi-makiki", "@spider": "chickfila", "amenity": "fast_food", "cuisine": "chicken", "takeaway": "yes", "addr:street_address": "1056 S Beretania St", "addr:city": "Honolulu", "addr:state": "HI", "addr:postcode": "96814", "addr:country": "US", "name": "Makiki", "website": "https://www.chick-fil-a.com/locations/hi/makiki", "image": "https://www.chick-fil-a.com/-/media/images/cfacom/default-images/seo/history_freestanding.ashx", "brand": "Chick-Fil-A", "brand:wikidata": "Q491516", "nsi_id": "chickfila-4d2ff4"}, "geometry": {"type": "Point", "coordinates": [-157.8463496, 21.3029417]}},
{"type": "Feature", "id": "NmOxvsVAnRABrwi_7lXYSZHzog8=", "properties": {"ref": "hi-ala-moana-mall", "@spider": "chickfila", "amenity": "fast_food", "cuisine": "chicken", "takeaway": "yes", "addr:street_address": "1450 Ala Moana Blvd Ste 1160H", "addr:city": "Honolulu", "addr:state": "HI", "addr:postcode": "96814", "addr:country": "US", "name": "Ala Moana Mall", "website": "https://www.chick-fil-a.com/locations/hi/ala-moana-mall", "image": "https://www.chick-fil-a.com/-/media/images/cfacom/default-images/seo/history_freestanding.ashx", "brand": "Chick-Fil-A", "brand:wikidata": "Q491516", "nsi_id": "chickfila-4d2ff4"}, "geometry": {"type": "Point", "coordinates": [-157.842902, 21.291387]}},
{"type": "Feature", "id": "cnDC40_ydfpq-U0bIqMr3TsMfZA=", "properties": {"ref": "hi-kahului", "@spider": "chickfila", "amenity": "fast_food", "cuisine": "chicken", "takeaway": "yes", "addr:street_address": "14 Ho'okele St Pad 14", "addr:city": "Kahului", "addr:state": "HI", "addr:postcode": "96732", "addr:country": "US", "name": "Kahului", "website": "https://www.chick-fil-a.com/locations/hi/kahului", "image": "https://www.chick-fil-a.com/-/media/images/cfacom/default-images/seo/history_freestanding.ashx", "brand": "Chick-Fil-A", "brand:wikidata": "Q491516", "nsi_id": "chickfila-4d2ff4"}, "geometry": {"type": "Point", "coordinates": [-156.458274, 20.873413]}},
{"type": "Feature", "id": "pLfHRUaQcotMwORifcgS1Q6kR-I=", "properties": {"ref": "nd-kirkwood-mall-nd", "@spider": "chickfila", "amenity": "fast_food", "cuisine": "chicken", "takeaway": "yes", "addr:street_address": "703 S. 3rd Street", "addr:city": "Bismarck", "addr:state": "ND", "addr:postcode": "58504", "addr:country": "US", "name": "Kirkwood Mall (ND)", "website": "https://www.chick-fil-a.com/locations/nd/kirkwood-mall-nd", "image": "https://www.chick-fil-a.com/-/media/images/cfacom/default-images/seo/history_freestanding.ashx", "brand": "Chick-Fil-A", "brand:wikidata": "Q491516", "nsi_id": "chickfila-4d2ff4"}, "geometry": {"type": "Point", "coordinates": [-100.785982, 46.798296]}},
{"type": "Feature", "id": "gzGuwYl54vNm2kKcHMQrWwtwVno=", "properties": {"ref": "nd-university-of-north-dakota", "@spider": "chickfila", "amenity": "fast_food", "cuisine": "chicken", "takeaway": "yes", "addr:street_address": "3625 Campus Rd Stop 9033 Memorial Union", "addr:city": "Grand Forks", "addr:state": "ND", "addr:postcode": "58202", "addr:country": "US", "name": "University of North Dakota", "website": "https://www.chick-fil-a.com/locations/nd/university-of-north-dakota", "image": "https://www.chick-fil-a.com/-/media/images/cfacom/default-images/seo/history_freestanding.ashx", "brand": "Chick-Fil-A", "brand:wikidata": "Q491516", "nsi_id": "chickfila-4d2ff4"}, "geometry": {"type": "Point", "coordinates": [-97.08163, 47.91955]}},
{"type": "Feature", "id": "g6-0QuKihYj3_4QEfphnqNw4dOk=", "properties": {"ref": "nd-west-acres", "@spider": "chickfila", "amenity": "fast_food", "cuisine": "chicken", "takeaway": "yes", "addr:street_address": "4100 13th Ave S", "addr:city": "Fargo", "addr:state": "ND", "addr:postcode": "58103", "addr:country": "US", "name": "West Acres", "website": "https://www.chick-fil-a.com/locations/nd/west-acres", "image": "https://www.chick-fil-a.com/-/media/images/cfacom/default-images/seo/history_freestanding.ashx", "brand": "Chick-Fil-A", "brand:wikidata": "Q491516", "nsi_id": "chickfila-4d2ff4"}, "geometry": {"type": "Point", "coordinates": [-96.850322, 46.861273]}},
{"type": "Feature", "id": "N6OZR_ewxDX-FXHLiMV_md9nYCM=", "properties": {"ref": "nd-grand-forks", "@spider": "chickfila", "amenity": "fast_food", "cuisine": "chicken", "takeaway": "yes", "addr:street_address": "3230 32nd Ave S", "addr:city": "Grand Forks", "addr:state": "ND", "addr:postcode": "58201", "addr:country": "US", "name": "Grand Forks", "website": "https://www.chick-fil-a.com/locations/nd/grand-forks", "image": "https://www.chick-fil-a.com/-/media/images/cfacom/default-images/seo/history_freestanding.ashx", "brand": "Chick-Fil-A", "brand:wikidata": "Q491516", "nsi_id": "chickfila-4d2ff4"}, "geometry": {"type": "Point", "coordinates": [-97.074769, 47.890059]}},
{"type": "Feature", "id": "0opeXbRNh5S9rBq6At519XeouBI=", "properties": {"ref": "nv-flamingo-paradise", "@spider": "chickfila", "amenity": "fast_food", "cuisine": "chicken", "takeaway": "yes", "addr:street_address": "4165 Paradise Rd", "addr:city": "Las Vegas", "addr:state": "NV", "addr:postcode": "89169", "addr:country": "US", "name": "Flamingo & Paradise", "website": "https://www.chick-fil-a.com/locations/nv/flamingo-paradise", "image": "https://www.chick-fil-a.com/-/media/images/cfacom/default-images/seo/history_freestanding.ashx", "brand": "Chick-Fil-A", "brand:wikidata": "Q491516", "nsi_id": "chickfila-4d2ff4"}, "geometry": {"type": "Point", "coordinates": [-115.154193, 36.11332]}},
{"type": "Feature", "id": "6PXAvxudAlaCA9sf1zb-EzVGYGI=", "properties": {"ref": "nv-charleston-sacramento", "@spider": "chickfila", "amenity": "fast_food", "cuisine": "chicken", "takeaway": "yes", "addr:street_address": "SEC of Charleston Blvd. & Sacramento Dr.", "addr:city": "Las Vegas", "addr:state": "NV", "addr:postcode": "89104", "addr:country": "US", "name": "Charleston & Sacramento", "website": "https://www.chick-fil-a.com/locations/nv/charleston-sacramento", "image": "https://www.chick-fil-a.com/-/media/images/cfacom/default-images/seo/history_freestanding.ashx", "brand": "Chick-Fil-A", "brand:wikidata": "Q491516", "nsi_id": "chickfila-4d2ff4"}, "geometry": {"type": "Point", "coordinates": [-115.086957, 36.158548]}},
{"type": "Feature", "id": "nGfvXx8m8DlKfwr17t0trij85EM=", "properties": {"ref": "nv-centennial-hills-at-95-plaza", "@spider": "chickfila", "amenity": "fast_food", "cuisine": "chicken", "takeaway": "yes", "addr:street_address": "6410 Centennial Center Blvd", "addr:city": "Las Vegas", "addr:state": "NV", "addr:postcode": "89149", "addr:country": "US", "name": "Centennial Hills at 95 Plaza", "website": "https://www.chick-fil-a.com/locations/nv/centennial-hills-at-95-plaza", "image": "https://www.chick-fil-a.com/-/media/images/cfacom/default-images/seo/history_freestanding.ashx", "brand": "Chick-Fil-A", "brand:wikidata": "Q491516", "nsi_id": "chickfila-4d2ff4"}, "geometry": {"type": "Point", "coordinates": [-115.26897, 36.275091]}},
{"type": "Feature", "id": "QB3YhN2NPnqeZVSYjC_84Va_EuE=", "properties": {"ref": "nv-hwy-215-flamingo", "@spider": "chickfila", "amenity": "fast_food", "cuisine": "chicken", "takeaway": "yes", "addr:street_address": "9830 W Flamingo Rd", "addr:city": "Las Vegas", "addr:state": "NV", "addr:postcode": "89147", "addr:country": "US", "name": "Hwy 215 & Flamingo", "website": "https://www.chick-fil-a.com/locations/nv/hwy-215-flamingo", "image": "https://www.chick-fil-a.com/-/media/images/cfacom/default-images/seo/history_freestanding.ashx", "brand": "Chick-Fil-A", "brand:wikidata": "Q491516", "nsi_id": "chickfila-4d2ff4"}, "geometry": {"type": "Point", "coordinates": [-115.30700812, 36.11561593]}},
{"type": "Feature", "id": "xzWIfNByOuu6b4frmj758qa_Bvk=", "properties": {"ref": "nv-charleston-fort-apache-inline-dt", "@spider": "chickfila", "amenity": "fast_food", "cuisine": "chicken", "takeaway": "yes", "addr:street_address": "1100 S Fort Apache Rd", "addr:city": "Las Vegas", "addr:state": "NV", "addr:postcode": "89117", "addr:country": "US", "name": "Charleston & Fort Apache In-Line DT", "website": "https://www.chick-fil-a.com/locations/nv/charleston-fort-apache-inline-dt", "image": "https://www.chick-fil-a.com/-/media/images/cfacom/default-images/seo/history_freestanding.ashx", "brand": "Chick-Fil-A", "brand:wikidata": "Q491516", "nsi_id": "chickfila-4d2ff4"}, "geometry": {"type": "Point", "coordinates": [-115.290928, 36.158651]}},
{"type": "Feature", "id": "2-WmVSH78JmtutQ9XQygIDGnKrw=", "properties": {"ref": "nv-carson-valley", "@spider": "chickfila", "amenity": "fast_food", "cuisine": "chicken", "takeaway": "yes", "addr:street_address": "4751 Cochise Street", "addr:city": "Carson City", "addr:state": "NV", "addr:postcode": "89703", "addr:country": "US", "name": "Carson Valley", "website": "https://www.chick-fil-a.com/locations/nv/carson-valley", "image": "https://www.chick-fil-a.com/-/media/images/cfacom/default-images/seo/history_freestanding.ashx", "brand": "Chick-Fil-A", "brand:wikidata": "Q491516", "nsi_id": "chickfila-4d2ff4"}, "geometry": {"type": "Point", "coordinates": [-119.772344, 39.124562]}},
{"type": "Feature", "id": "wka9btLFk2yGvxFjmn15uRsSk8U=", "properties": {"ref": "nv-las-vegas-blvd-i215", "@spider": "chickfila", "amenity": "fast_food", "cuisine": "chicken", "takeaway": "yes", "addr:street_address": "7010 Las Vegas Blvd S", "addr:city": "Las Vegas", "addr:state": "NV", "addr:postcode": "89119", "addr:country": "US", "name": "Las Vegas Blvd & I-215", "website": "https://www.chick-fil-a.com/locations/nv/las-vegas-blvd-i215", "image": "https://www.chick-fil-a.com/-/media/images/cfacom/default-images/seo/history_freestanding.ashx", "brand": "Chick-Fil-A", "brand:wikidata": "Q491516", "nsi_id": "chickfila-4d2ff4"}, "geometry": {"type": "Point", "coordinates": [-115.171982, 36.062248]}},
{"type": "Feature", "id": "BgSmE6cReIFqSnonATkTiTVMS2M=", "properties": {"ref": "nv-flamingo-valley-view", "@spider": "chickfila", "amenity": "fast_food", "cuisine": "chicken", "takeaway": "yes", "addr:street_address": "3841 W Flamingo Rd", "addr:city": "Las Vegas", "addr:state": "NV", "addr:postcode": "89103", "addr:country": "US", "name": "Flamingo & Valley View", "website": "https://www.chick-fil-a.com/locations/nv/flamingo-valley-view", "image": "https://www.chick-fil-a.com/-/media/images/cfacom/default-images/seo/history_freestanding.ashx", "brand": "Chick-Fil-A", "brand:wikidata": "Q491516", "nsi_id": "chickfila-4d2ff4"}, "geometry": {"type": "Point", "coordinates": [-115.191178, 36.115142]}},
{"type": "Feature", "id": "RT3ex3sEoAQol2wO0AGjw63eV1A=", "properties": {"ref": "nv-craig-road-scott-robinson", "@spider": "chickfila", "amenity": "fast_food", "cuisine": "chicken", "takeaway": "yes", "addr:street_address": "1720 W Craig Rd", "addr:city": "North Las Vegas", "addr:state": "NV", "addr:postcode": "89032", "addr:country": "US", "name": "Craig Road & Scott Robinson", "website": "https://www.chick-fil-a.com/locations/nv/craig-road-scott-robinson", "image": "https://www.chick-fil-a.com/-/media/images/cfacom/default-images/seo/history_freestanding.ashx", "brand": "Chick-Fil-A", "brand:wikidata": "Q491516", "nsi_id": "chickfila-4d2ff4"}, "geometry": {"type": "Point", "coordinates": [-115.165392, 36.239847]}},
{"type": "Feature", "id": "sY6Fpvj0kkha9HHDW2fsoQ4uo6Y=", "properties": {"ref": "nv-strip-at-harmon-in-line", "@spider": "chickfila", "amenity": "fast_food", "cuisine": "chicken", "takeaway": "yes", "addr:street_address": "3667 Las Vegas Blvd S", "addr:city": "Las Vegas", "addr:state": "NV", "addr:postcode": "89109", "addr:country": "US", "name": "Strip at Harmon In-Line", "website": "https://www.chick-fil-a.com/locations/nv/strip-at-harmon-in-line", "image": "https://www.chick-fil-a.com/-/media/images/cfacom/default-images/seo/history_freestanding.ashx", "brand": "Chick-Fil-A", "brand:wikidata": "Q491516", "nsi_id": "chickfila-4d2ff4"}, "geometry": {"type": "Point", "coordinates": [-115.172411, 36.109442]}},
{"type": "Feature", "id": "X-kkOTXWGkxJWtqR9-ajAjbKKbQ=", "properties": {"ref": "nv-golden-nugget-las-vegas-hotel", "@spider": "chickfila", "amenity": "fast_food", "cuisine": "chicken", "takeaway": "yes", "addr:street_address": "129 Fremont St", "addr:city": "Las Vegas", "addr:state": "NV", "addr:postcode": "89101", "addr:country": "US", "name": "Golden Nugget Las Vegas Hotel", "website": "https://www.chick-fil-a.com/locations/nv/golden-nugget-las-vegas-hotel", "image": "https://www.chick-fil-a.com/-/media/images/cfacom/default-images/seo/history_freestanding.ashx", "brand": "Chick-Fil-A", "brand:wikidata": "Q491516", "nsi_id": "chickfila-4d2ff4"}, "geometry": {"type": "Point", "coordinates": [-115.1459920586, 36.1696261929]}},
{"type": "Feature", "id": "MCnSYwxHGSoYj2XF1jOrqis9x_s=", "properties": {"ref": "nv-rainbow-lake-mead", "@spider": "chickfila", "amenity": "fast_food", "cuisine": "chicken", "takeaway": "yes", "addr:street_address": "1991 N Rainbow Blvd", "addr:city": "Las Vegas", "addr:state": "NV", "addr:postcode": "89108", "addr:country": "US", "name": "Rainbow & Lake Mead", "website": "https://www.chick-fil-a.com/locations/nv/rainbow-lake-mead", "image": "https://www.chick-fil-a.com/-/media/images/cfacom/default-images/seo/history_freestanding.ashx", "brand": "Chick-Fil-A", "brand:wikidata": "Q491516", "nsi_id": "chickfila-4d2ff4"}, "geometry": {"type": "Point", "coordinates": [-115.242731, 36.195461]}},
{"type": "Feature", "id": "hs-bAGjp-aElw7_FfPaAMiiiurk=", "properties": {"ref": "nv-sparks-blvd-i80", "@spider": "chickfila", "amenity": "fast_food", "cuisine": "chicken", "takeaway": "yes", "addr:street_address": "1390 Big Fish Dr", "addr:city": "Sparks", "addr:state": "NV", "addr:postcode": "89434", "addr:country": "US", "name": "Sparks Blvd & I-80", "website": "https://www.chick-fil-a.com/locations/nv/sparks-blvd-i80", "image": "https://www.chick-fil-a.com/-/media/images/cfacom/default-images/seo/history_freestanding.ashx", "brand": "Chick-Fil-A", "brand:wikidata": "Q491516", "nsi_id": "chickfila-4d2ff4"}, "geometry": {"type": "Point", "coordinates": [-119.715986, 39.531663]}},
{"type": "Feature", "id": "QEJ0_88OIXvNCdvmj0ArdduQqjs=", "properties": {"ref": "nv-eastern-and-ione", "@spider": "chickfila", "amenity": "fast_food", "cuisine": "chicken", "takeaway": "yes", "addr:street_address": "9925 S Eastern Ave", "addr:city": "Las Vegas", "addr:state": "NV", "addr:postcode": "89183", "addr:country": "US", "name": "Eastern and Ione", "website": "https://www.chick-fil-a.com/locations/nv/eastern-and-ione", "image": "https://www.chick-fil-a.com/-/media/images/cfacom/default-images/seo/history_freestanding.ashx", "brand": "Chick-Fil-A", "brand:wikidata": "Q491516", "nsi_id": "chickfila-4d2ff4"}, "geometry": {"type": "Point", "coordinates": [-115.117133, 36.009113]}},
{"type": "Feature", "id": "52Ohay32KjFmMoEqRYHiRz7XuAE=", "properties": {"ref": "nv-stephanie-at-warm-springs", "@spider": "chickfila", "amenity": "fast_food", "cuisine": "chicken", "takeaway": "yes", "addr:street_address": "460 N Stephanie St", "addr:city": "Henderson", "addr:state": "NV", "addr:postcode": "89014", "addr:country": "US", "name": "Stephanie at Warm Springs", "website": "https://www.chick-fil-a.com/locations/nv/stephanie-at-warm-springs", "image": "https://www.chick-fil-a.com/-/media/images/cfacom/default-images/seo/history_freestanding.ashx", "brand": "Chick-Fil-A", "brand:wikidata": "Q491516", "nsi_id": "chickfila-4d2ff4"}, "geometry": {"type": "Point", "coordinates": [-115.045765, 36.057661]}},
{"type": "Feature", "id": "ceRRVOE_dxB1QFZg8TnbRNh4Kik=", "properties": {"ref": "nv-sahara-at-i-15", "@spider": "chickfila", "amenity": "fast_food", "cuisine": "chicken", "takeaway": "yes", "addr:street_address": "2480 S Rancho Dr", "addr:city": "Las Vegas", "addr:state": "NV", "addr:postcode": "89102", "addr:country": "US", "name": "Sahara at I-15", "website": "https://www.chick-fil-a.com/locations/nv/sahara-at-i-15", "image": "https://www.chick-fil-a.com/-/media/images/cfacom/default-images/seo/history_freestanding.ashx", "brand": "Chick-Fil-A", "brand:wikidata": "Q491516", "nsi_id": "chickfila-4d2ff4"}, "geometry": {"type": "Point", "coordinates": [-115.172875, 36.144667]}},
{"type": "Feature", "id": "11VRIrY2SuhLCnDt-yxPA20mCsM=", "properties": {"ref": "nv-south-mccarran-and-580", "@spider": "chickfila", "amenity": "fast_food", "cuisine": "chicken", "takeaway": "yes", "addr:street_address": "6365 S McCarran Blvd", "addr:city": "Reno", "addr:state": "NV", "addr:postcode": "89509", "addr:country": "US", "name": "South McCarran and 580", "website": "https://www.chick-fil-a.com/locations/nv/south-mccarran-and-580", "image": "https://www.chick-fil-a.com/-/media/images/cfacom/default-images/seo/history_freestanding.ashx", "brand": "Chick-Fil-A", "brand:wikidata": "Q491516", "nsi_id": "chickfila-4d2ff4"}, "geometry": {"type": "Point", "coordinates": [-119.791909, 39.477305]}},
{"type": "Feature", "id": "dEn6tE21ckzNo2_24fokLMFggtM=", "properties": {"ref": "mt-missoula", "@spider": "chickfila", "amenity": "fast_food", "cuisine": "chicken", "takeaway": "yes", "addr:street_address": "2880 N Reserve St", "addr:city": "Missoula", "addr:state": "MT", "addr:postcode": "59808", "addr:country": "US", "name": "Missoula", "website": "https://www.chick-fil-a.com/locations/mt/missoula", "image": "https://www.chick-fil-a.com/-/media/images/cfacom/default-images/seo/history_freestanding.ashx", "brand": "Chick-Fil-A", "brand:wikidata": "Q491516", "nsi_id": "chickfila-4d2ff4"}, "geometry": {"type": "Point", "coordinates": [-114.038635, 46.891088]}},
{"type": "Feature", "id": "TEjbJN9uidUrcsmrCLGe2vWotGE=", "properties": {"ref": "mt-billings", "@spider": "chickfila", "amenity": "fast_food", "cuisine": "chicken", "takeaway": "yes", "addr:street_address": "604 S 24th St W", "addr:city": "Billings", "addr:state": "MT", "addr:postcode": "59102", "addr:country": "US", "name": "Billings", "website": "https://www.chick-fil-a.com/locations/mt/billings", "image": "https://www.chick-fil-a.com/-/media/images/cfacom/default-images/seo/history_freestanding.ashx", "brand": "Chick-Fil-A", "brand:wikidata": "Q491516", "nsi_id": "chickfila-4d2ff4"}, "geometry": {"type": "Point", "coordinates": [-108.5767, 45.757471]}},
{"type": "Feature", "id": "8cuySQBveVyDUKjF1TjW4qFI6C8=", "properties": {"ref": "mt-kalispell", "@spider": "chickfila", "amenity": "fast_food", "cuisine": "chicken", "takeaway": "yes", "addr:street_address": "35 Treeline Rd", "addr:city": "Kalispell", "addr:state": "MT", "addr:postcode": "59901", "addr:country": "US", "name": "Kalispell", "website": "https://www.chick-fil-a.com/locations/mt/kalispell", "image": "https://www.chick-fil-a.com/-/media/images/cfacom/default-images/seo/history_freestanding.ashx", "brand": "Chick-Fil-A", "brand:wikidata": "Q491516", "nsi_id": "chickfila-4d2ff4"}, "geometry": {"type": "Point", "coordinates": [-114.33125, 48.2382]}},
{"type": "Feature", "id": "QB3ia5xEtHcSS7nj0zBeoiE6eFs=", "properties": {"ref": "me-rock-row", "@spider": "chickfila", "amenity": "fast_food", "cuisine": "chicken", "takeaway": "yes", "addr:street_address": "94 Rock Row", "addr:city": "Westbrook", "addr:state": "ME", "addr:postcode": "04092", "addr:country": "US", "name": "Rock Row", "website": "https://www.chick-fil-a.com/locations/me/rock-row", "image": "https://www.chick-fil-a.com/-/media/images/cfacom/default-images/seo/history_freestanding.ashx", "brand": "Chick-Fil-A", "brand:wikidata": "Q491516", "nsi_id": "chickfila-4d2ff4"}, "geometry": {"type": "Point", "coordinates": [-70.333229, 43.677408]}},
{"type": "Feature", "id": "tMXJsbdBpRlnItLWX_2uMOpandU=", "properties": {"ref": "me-bangor", "@spider": "chickfila", "amenity": "fast_food", "cuisine": "chicken", "takeaway": "yes", "addr:street_address": "605 Stillwater Ave", "addr:city": "Bangor", "addr:state": "ME", "addr:postcode": "04401", "addr:country": "US", "name": "Bangor", "website": "https://www.chick-fil-a.com/locations/me/bangor", "image": "https://www.chick-fil-a.com/-/media/images/cfacom/default-images/seo/history_freestanding.ashx", "brand": "Chick-Fil-A", "brand:wikidata": "Q491516", "nsi_id": "chickfila-4d2ff4"}, "geometry": {"type": "Point", "coordinates": [-68.7533, 44.83]}},
{"type": "Feature", "id": "hWu3hUccF79MspShIrt8pIuFPt8=", "properties": {"ref": "in-greenfield-in", "@spider": "chickfila", "amenity": "fast_food", "cuisine": "chicken", "takeaway": "yes", "addr:street_address": "2203 N State St", "addr:city": "Greenfield", "addr:state": "IN", "addr:postcode": "46140", "addr:country": "US", "name": "Greenfield (IN)", "website": "https://www.chick-fil-a.com/locations/in/greenfield-in", "image": "https://www.chick-fil-a.com/-/media/images/cfacom/default-images/seo/history_freestanding.ashx", "brand": "Chick-Fil-A", "brand:wikidata": "Q491516", "nsi_id": "chickfila-4d2ff4"}, "geometry": {"type": "Point", "coordinates": [-85.769144, 39.816302]}},
{"type": "Feature", "id": "GUgfZlEeTJaQe8FglL3z4tCIv00=", "properties": {"ref": "in-marian-university", "@spider": "chickfila", "amenity": "fast_food", "cuisine": "chicken", "takeaway": "yes", "addr:street_address": "3200 Cold Spring Rd", "addr:city": "Indianapolis", "addr:state": "IN", "addr:postcode": "46222", "addr:country": "US", "name": "Marian University", "website": "https://www.chick-fil-a.com/locations/in/marian-university", "image": "https://www.chick-fil-a.com/-/media/images/cfacom/default-images/seo/history_freestanding.ashx", "brand": "Chick-Fil-A", "brand:wikidata": "Q491516", "nsi_id": "chickfila-4d2ff4"}, "geometry": {"type": "Point", "coordinates": [-86.2023934826, 39.8137883179]}},
{"type": "Feature", "id": "SGjQFX-UAP0K4de7_mwexJHki5M=", "properties": {"ref": "in-wheeler-landing-in", "@spider": "chickfila", "amenity": "fast_food", "cuisine": "chicken", "takeaway": "yes", "name": "Chick-fil-A", "website": "https://www.chick-fil-a.com/locations/in/wheeler-landing-in", "image": "https://www.chick-fil-a.com/-/media/images/cfacom/default-images/seo/history_freestanding.ashx", "brand": "Chick-Fil-A", "brand:wikidata": "Q491516", "nsi_id": "chickfila-4d2ff4"}},
{"type": "Feature", "id": "nh6HRBpqooLzuAKPklB3lWzc5YU=", "properties": {"ref": "in-downtown-indy-in-inline", "@spider": "chickfila", "amenity": "fast_food", "cuisine": "chicken", "takeaway": "yes", "addr:street_address": "10 E Washington St., Suite 100", "addr:city": "Indianapolis", "addr:state": "IN", "addr:postcode": "46204", "addr:country": "US", "name": "Downtown Indy (IN) In-Line", "website": "https://www.chick-fil-a.com/locations/in/downtown-indy-in-inline", "image": "https://www.chick-fil-a.com/-/media/images/cfacom/default-images/seo/history_freestanding.ashx", "brand": "Chick-Fil-A", "brand:wikidata": "Q491516", "nsi_id": "chickfila-4d2ff4"}, "geometry": {"type": "Point", "coordinates": [-86.157621, 39.767285]}},
{"type": "Feature", "id": "8v38xgMbSP3h67aY4Cs3ea6riHQ=", "properties": {"ref": "in-university-of-notre-dame-duncan-student-center", "@spider": "chickfila", "amenity": "fast_food", "cuisine": "chicken", "takeaway": "yes", "addr:street_address": "Duncan Student Center", "addr:city": "Notre Dame", "addr:state": "IN", "addr:postcode": "46556", "addr:country": "US", "name": "University of Notre Dame - Duncan Student Center", "website": "https://www.chick-fil-a.com/locations/in/university-of-notre-dame-duncan-student-center", "image": "https://www.chick-fil-a.com/-/media/images/cfacom/default-images/seo/history_freestanding.ashx", "brand": "Chick-Fil-A", "brand:wikidata": "Q491516", "nsi_id": "chickfila-4d2ff4"}, "geometry": {"type": "Point", "coordinates": [-86.235475, 41.698349]}},
{"type": "Feature", "id": "q3JeoCSb-bbKqljjb9-lqWWdoRQ=", "properties": {"ref": "in-westfield-wheeler-landing", "@spider": "chickfila", "amenity": "fast_food", "cuisine": "chicken", "takeaway": "yes", "addr:street_address": "763 E Tournament Trl", "addr:city": "Westfield", "addr:state": "IN", "addr:postcode": "46074", "addr:country": "US", "name": "Westfield Wheeler Landing", "website": "https://www.chick-fil-a.com/locations/in/westfield-wheeler-landing", "image": "https://www.chick-fil-a.com/-/media/images/cfacom/default-images/seo/history_freestanding.ashx", "brand": "Chick-Fil-A", "brand:wikidata": "Q491516", "nsi_id": "chickfila-4d2ff4"}, "geometry": {"type": "Point", "coordinates": [-86.144721, 40.042945]}},
{"type": "Feature", "id": "QYCksVWdzboOpULMhWLcvv4yGIY=", "properties": {"ref": "in-east-washington-st-indianapolis", "@spider": "chickfila", "amenity": "fast_food", "cuisine": "chicken", "takeaway": "yes", "addr:street_address": "9961 E Washington St", "addr:city": "Indianapolis", "addr:state": "IN", "addr:postcode": "46229", "addr:country": "US", "name": "East Washington St. - Indianapolis", "website": "https://www.chick-fil-a.com/locations/in/east-washington-st-indianapolis", "image": "https://www.chick-fil-a.com/-/media/images/cfacom/default-images/seo/history_freestanding.ashx", "brand": "Chick-Fil-A", "brand:wikidata": "Q491516", "nsi_id": "chickfila-4d2ff4"}, "geometry": {"type": "Point", "coordinates": [-85.9904, 39.7749]}},
{"type": "Feature", "id": "2huhKQYwkizziu0D4qVv4X-Yjc0=", "properties": {"ref": "in-gainbridge-fieldhouse", "@spider": "chickfila", "amenity": "fast_food", "cuisine": "chicken", "takeaway": "yes", "addr:street_address": "125 S. Pennsylvania Street", "addr:city": "Indianapolis", "addr:state": "IN", "addr:postcode": "46204", "addr:country": "US", "name": "Gainbridge Fieldhouse", "website": "https://www.chick-fil-a.com/locations/in/gainbridge-fieldhouse", "image": "https://www.chick-fil-a.com/-/media/images/cfacom/default-images/seo/history_freestanding.ashx", "brand": "Chick-Fil-A", "brand:wikidata": "Q491516", "nsi_id": "chickfila-4d2ff4"}, "geometry": {"type": "Point", "coordinates": [-86.156, 39.764]}},
{"type": "Feature", "id": "KMy2QSfI3IWh8tLxoLzkrjx9TeA=", "properties": {"ref": "in-schererville-in", "@spider": "chickfila", "amenity": "fast_food", "cuisine": "chicken", "takeaway": "yes", "addr:street_address": "315 US Highway 41", "addr:city": "Schererville", "addr:state": "IN", "addr:postcode": "46375", "addr:country": "US", "name": "Schererville (IN)", "website": "https://www.chick-fil-a.com/locations/in/schererville-in", "image": "https://www.chick-fil-a.com/-/media/images/cfacom/default-images/seo/history_freestanding.ashx", "brand": "Chick-Fil-A", "brand:wikidata": "Q491516", "nsi_id": "chickfila-4d2ff4"}, "geometry": {"type": "Point", "coordinates": [-87.470639, 41.516584]}},
{"type": "Feature", "id": "ygRbjC9Ibw94Kb4BvoO9ZaRTBuw=", "properties": {"ref": "in-west-evansville", "@spider": "chickfila", "amenity": "fast_food", "cuisine": "chicken", "takeaway": "yes", "addr:street_address": "4400 W Lloyd Expy", "addr:city": "Evansville", "addr:state": "IN", "addr:postcode": "47712", "addr:country": "US", "name": "West Evansville", "website": "https://www.chick-fil-a.com/locations/in/west-evansville", "image": "https://www.chick-fil-a.com/-/media/images/cfacom/default-images/seo/history_freestanding.ashx", "brand": "Chick-Fil-A", "brand:wikidata": "Q491516", "nsi_id": "chickfila-4d2ff4"}, "geometry": {"type": "Point", "coordinates": [-87.628565, 37.977201]}},
{"type": "Feature", "id": "N1LJCjvsQe9HowksgUe88iPj0QQ=", "properties": {"ref": "in-portage-rd", "@spider": "chickfila", "amenity": "fast_food", "cuisine": "chicken", "takeaway": "yes", "addr:street_address": "3703 Portage Ave", "addr:city": "South Bend", "addr:state": "IN", "addr:postcode": "46628", "addr:country": "US", "name": "Portage Rd", "website": "https://www.chick-fil-a.com/locations/in/portage-rd", "image": "https://www.chick-fil-a.com/-/media/images/cfacom/default-images/seo/history_freestanding.ashx", "brand": "Chick-Fil-A", "brand:wikidata": "Q491516", "nsi_id": "chickfila-4d2ff4"}, "geometry": {"type": "Point", "coordinates": [-86.290133, 41.728171]}},
{"type": "Feature", "id": "XfTWJR2ykl0jp-_qVTYi8yEQsEs=", "properties": {"ref": "in-valparaiso-in", "@spider": "chickfila", "amenity": "fast_food", "cuisine": "chicken", "takeaway": "yes", "addr:street_address": "61 Silhavy Rd", "addr:city": "Valparaiso", "addr:state": "IN", "addr:postcode": "46383", "addr:country": "US", "name": "Valparaiso (IN)", "website": "https://www.chick-fil-a.com/locations/in/valparaiso-in", "image": "https://www.chick-fil-a.com/-/media/images/cfacom/default-images/seo/history_freestanding.ashx", "brand": "Chick-Fil-A", "brand:wikidata": "Q491516", "nsi_id": "chickfila-4d2ff4"}, "geometry": {"type": "Point", "coordinates": [-87.026828, 41.468104]}},
{"type": "Feature", "id": "m-TL4mahNbyWIbf3yuT99C0vKnQ=", "properties": {"ref": "in-north-greenwood-in", "@spider": "chickfila", "amenity": "fast_food", "cuisine": "chicken", "takeaway": "yes", "addr:street_address": "2020 E County Line Rd", "addr:city": "Indianapolis", "addr:state": "IN", "addr:postcode": "46227", "addr:country": "US", "name": "North Greenwood (IN)", "website": "https://www.chick-fil-a.com/locations/in/north-greenwood-in", "image": "https://www.chick-fil-a.com/-/media/images/cfacom/default-images/seo/history_freestanding.ashx", "brand": "Chick-Fil-A", "brand:wikidata": "Q491516", "nsi_id": "chickfila-4d2ff4"}, "geometry": {"type": "Point", "coordinates": [-86.12564, 39.635906]}},
{"type": "Feature", "id": "N58Y913i2VxRv2TL40q6U22-Tv0=", "properties": {"ref": "in-university-park-mall", "@spider": "chickfila", "amenity": "fast_food", "cuisine": "chicken", "takeaway": "yes", "addr:street_address": "6501 Grape Rd", "addr:city": "Mishawaka", "addr:state": "IN", "addr:postcode": "46545", "addr:country": "US", "name": "University Park Mall", "website": "https://www.chick-fil-a.com/locations/in/university-park-mall", "image": "https://www.chick-fil-a.com/-/media/images/cfacom/default-images/seo/history_freestanding.ashx", "brand": "Chick-Fil-A", "brand:wikidata": "Q491516", "nsi_id": "chickfila-4d2ff4"}, "geometry": {"type": "Point", "coordinates": [-86.190576, 41.717871]}},
{"type": "Feature", "id": "402apcMwanjCDcf1yksc56RGjnE=", "properties": {"ref": "in-purdue-university", "@spider": "chickfila", "amenity": "fast_food", "cuisine": "chicken", "takeaway": "yes", "addr:street_address": "401 N Russell St", "addr:city": "West Lafayette", "addr:state": "IN", "addr:postcode": "47906", "addr:country": "US", "name": "Purdue University", "website": "https://www.chick-fil-a.com/locations/in/purdue-university", "image": "https://www.chick-fil-a.com/-/media/images/cfacom/default-images/seo/history_freestanding.ashx", "brand": "Chick-Fil-A", "brand:wikidata": "Q491516", "nsi_id": "chickfila-4d2ff4"}, "geometry": {"type": "Point", "coordinates": [-86.916, 40.427]}},
{"type": "Feature", "id": "HUK1f11SHU2p0j38s0JHOoCsi_s=", "properties": {"ref": "in-jeffersonville", "@spider": "chickfila", "amenity": "fast_food", "cuisine": "chicken", "takeaway": "yes", "addr:street_address": "3549 E 10th St", "addr:city": "Jeffersonville", "addr:state": "IN", "addr:postcode": "47130", "addr:country": "US", "name": "Jeffersonville", "website": "https://www.chick-fil-a.com/locations/in/jeffersonville", "image": "https://www.chick-fil-a.com/-/media/images/cfacom/default-images/seo/history_freestanding.ashx", "brand": "Chick-Fil-A", "brand:wikidata": "Q491516", "nsi_id": "chickfila-4d2ff4"}, "geometry": {"type": "Point", "coordinates": [-85.70818, 38.33692]}},
{"type": "Feature", "id": "_Hh76jHq_aWd-5c81ddX5y66qpQ=", "properties": {"ref": "in-lafayette-in", "@spider": "chickfila", "amenity": "fast_food", "cuisine": "chicken", "takeaway": "yes", "addr:street_address": "50 N Creasy Ln", "addr:city": "Lafayette", "addr:state": "IN", "addr:postcode": "47905", "addr:country": "US", "name": "Lafayette (IN)", "website": "https://www.chick-fil-a.com/locations/in/lafayette-in", "image": "https://www.chick-fil-a.com/-/media/images/cfacom/default-images/seo/history_freestanding.ashx", "brand": "Chick-Fil-A", "brand:wikidata": "Q491516", "nsi_id": "chickfila-4d2ff4"}, "geometry": {"type": "Point", "coordinates": [-86.839487, 40.41815]}},
{"type": "Feature", "id": "5tub7EToyojFiLgU7WZhbybAGGQ=", "properties": {"ref": "in-anson-in", "@spider": "chickfila", "amenity": "fast_food", "cuisine": "chicken", "takeaway": "yes", "addr:street_address": "6240 East Whitestown Pkwy", "addr:city": "Whitestown", "addr:state": "IN", "addr:postcode": "46075", "addr:country": "US", "name": "Anson (IN)", "website": "https://www.chick-fil-a.com/locations/in/anson-in", "image": "https://www.chick-fil-a.com/-/media/images/cfacom/default-images/seo/history_freestanding.ashx", "brand": "Chick-Fil-A", "brand:wikidata": "Q491516", "nsi_id": "chickfila-4d2ff4"}, "geometry": {"type": "Point", "coordinates": [-86.35, 39.949]}},
{"type": "Feature", "id": "WCs-dwRcKenOKqkxwdvMdZ8toyA=", "properties": {"ref": "in-coliseum-boulevard", "@spider": "chickfila", "amenity": "fast_food", "cuisine": "chicken", "takeaway": "yes", "addr:street_address": "182 W Coliseum Blvd", "addr:city": "Fort Wayne", "addr:state": "IN", "addr:postcode": "46805", "addr:country": "US", "name": "Coliseum Boulevard", "website": "https://www.chick-fil-a.com/locations/in/coliseum-boulevard", "image": "https://www.chick-fil-a.com/-/media/images/cfacom/default-images/seo/history_freestanding.ashx", "brand": "Chick-Fil-A", "brand:wikidata": "Q491516", "nsi_id": "chickfila-4d2ff4"}, "geometry": {"type": "Point", "coordinates": [-85.1419, 41.117609]}},
{"type": "Feature", "id": "4TQLniBEuXYU0XeaCw4CCKkrNaY=", "properties": {"ref": "in-university-of-evansville", "@spider": "chickfila", "amenity": "fast_food", "cuisine": "chicken", "takeaway": "yes", "addr:street_address": "1800 Lincoln Ave John Ridgway University Center", "addr:city": "Evansville", "addr:state": "IN", "addr:postcode": "47722", "addr:country": "US", "name": "University of Evansville", "website": "https://www.chick-fil-a.com/locations/in/university-of-evansville", "image": "https://www.chick-fil-a.com/-/media/images/cfacom/default-images/seo/history_freestanding.ashx", "brand": "Chick-Fil-A", "brand:wikidata": "Q491516", "nsi_id": "chickfila-4d2ff4"}, "geometry": {"type": "Point", "coordinates": [-87.53183, 37.97266]}},
{"type": "Feature", "id": "ApjQDBtEVUeYbYGHRaxmnXRBXoY=", "properties": {"ref": "in-noblesville-at-sr37", "@spider": "chickfila", "amenity": "fast_food", "cuisine": "chicken", "takeaway": "yes", "addr:street_address": "16685 Mercantile Blvd", "addr:city": "Noblesville", "addr:state": "IN", "addr:postcode": "46060", "addr:country": "US", "name": "Noblesville at SR37", "website": "https://www.chick-fil-a.com/locations/in/noblesville-at-sr37", "image": "https://www.chick-fil-a.com/-/media/images/cfacom/default-images/seo/history_freestanding.ashx", "brand": "Chick-Fil-A", "brand:wikidata": "Q491516", "nsi_id": "chickfila-4d2ff4"}, "geometry": {"type": "Point", "coordinates": [-85.99441921, 40.03143241]}},
{"type": "Feature", "id": "tlLeYKZhzwKEU2lPiIyontZ6lNU=", "properties": {"ref": "in-jefferson-pointe", "@spider": "chickfila", "amenity": "fast_food", "cuisine": "chicken", "takeaway": "yes", "addr:street_address": "1725 Apple Glen Blvd", "addr:city": "Fort Wayne", "addr:state": "IN", "addr:postcode": "46804", "addr:country": "US", "name": "Jefferson Pointe", "website": "https://www.chick-fil-a.com/locations/in/jefferson-pointe", "image": "https://www.chick-fil-a.com/-/media/images/cfacom/default-images/seo/history_freestanding.ashx", "brand": "Chick-Fil-A", "brand:wikidata": "Q491516", "nsi_id": "chickfila-4d2ff4"}, "geometry": {"type": "Point", "coordinates": [-85.199473, 41.070828]}},
{"type": "Feature", "id": "mcmi6EYNlO5VsIxMrHv0fCRo55s=", "properties": {"ref": "in-greenwood", "@spider": "chickfila", "amenity": "fast_food", "cuisine": "chicken", "takeaway": "yes", "addr:street_address": "155 Marlin Dr", "addr:city": "Greenwood", "addr:state": "IN", "addr:postcode": "46142", "addr:country": "US", "name": "Greenwood", "website": "https://www.chick-fil-a.com/locations/in/greenwood", "image": "https://www.chick-fil-a.com/-/media/images/cfacom/default-images/seo/history_freestanding.ashx", "brand": "Chick-Fil-A", "brand:wikidata": "Q491516", "nsi_id": "chickfila-4d2ff4"}, "geometry": {"type": "Point", "coordinates": [-86.15905823, 39.61451595]}},
{"type": "Feature", "id": "VFhi2605SJohb18BVFAo2c2yPQ8=", "properties": {"ref": "in-avon", "@spider": "chickfila", "amenity": "fast_food", "cuisine": "chicken", "takeaway": "yes", "addr:street_address": "10791 E US Highway 36", "addr:city": "Avon", "addr:state": "IN", "addr:postcode": "46123", "addr:country": "US", "name": "Avon", "website": "https://www.chick-fil-a.com/locations/in/avon", "image": "https://www.chick-fil-a.com/-/media/images/cfacom/default-images/seo/history_freestanding.ashx", "brand": "Chick-Fil-A", "brand:wikidata": "Q491516", "nsi_id": "chickfila-4d2ff4"}, "geometry": {"type": "Point", "coordinates": [-86.330632, 39.763195]}},
{"type": "Feature", "id": "gQvVy7ICL0k3czGtv5IZvAZp-Fo=", "properties": {"ref": "in-circle-centre-mall", "@spider": "chickfila", "amenity": "fast_food", "cuisine": "chicken", "takeaway": "yes", "addr:street_address": "49 W Maryland St Spc VC-10", "addr:city": "Indianapolis", "addr:state": "IN", "addr:postcode": "46204", "addr:country": "US", "name": "Circle Centre Mall", "website": "https://www.chick-fil-a.com/locations/in/circle-centre-mall", "image": "https://www.chick-fil-a.com/-/media/images/cfacom/default-images/seo/history_freestanding.ashx", "brand": "Chick-Fil-A", "brand:wikidata": "Q491516", "nsi_id": "chickfila-4d2ff4"}, "geometry": {"type": "Point", "coordinates": [-86.159146, 39.766881]}},
{"type": "Feature", "id": "NQgbd1QGMjgnuOnGtsRKStSPtdA=", "properties": {"ref": "in-the-pyramids", "@spider": "chickfila", "amenity": "fast_food", "cuisine": "chicken", "takeaway": "yes", "addr:street_address": "3360 W 86th St", "addr:city": "Indianapolis", "addr:state": "IN", "addr:postcode": "46268", "addr:country": "US", "name": "The Pyramids", "website": "https://www.chick-fil-a.com/locations/in/the-pyramids", "image": "https://www.chick-fil-a.com/-/media/images/cfacom/default-images/seo/history_freestanding.ashx", "brand": "Chick-Fil-A", "brand:wikidata": "Q491516", "nsi_id": "chickfila-4d2ff4"}, "geometry": {"type": "Point", "coordinates": [-86.218984, 39.9122]}},
{"type": "Feature", "id": "jwWQfu8RoEhl1kKgyUpSxkUXG2A=", "properties": {"ref": "in-cross-pointe", "@spider": "chickfila", "amenity": "fast_food", "cuisine": "chicken", "takeaway": "yes", "addr:street_address": "7101 E Indiana St", "addr:city": "Evansville", "addr:state": "IN", "addr:postcode": "47715", "addr:country": "US", "name": "Cross Pointe", "website": "https://www.chick-fil-a.com/locations/in/cross-pointe", "image": "https://www.chick-fil-a.com/-/media/images/cfacom/default-images/seo/history_freestanding.ashx", "brand": "Chick-Fil-A", "brand:wikidata": "Q491516", "nsi_id": "chickfila-4d2ff4"}, "geometry": {"type": "Point", "coordinates": [-87.46729, 37.977302]}},
{"type": "Feature", "id": "_wbIUciJnaYX4JJoylwyLFfy6cQ=", "properties": {"ref": "in-the-crossing", "@spider": "chickfila", "amenity": "fast_food", "cuisine": "chicken", "takeaway": "yes", "addr:street_address": "3802 E 82nd St", "addr:city": "Indianapolis", "addr:state": "IN", "addr:postcode": "46240", "addr:country": "US", "name": "The Crossing", "website": "https://www.chick-fil-a.com/locations/in/the-crossing", "image": "https://www.chick-fil-a.com/-/media/images/cfacom/default-images/seo/history_freestanding.ashx", "brand": "Chick-Fil-A", "brand:wikidata": "Q491516", "nsi_id": "chickfila-4d2ff4"}, "geometry": {"type": "Point", "coordinates": [-86.1017, 39.909451]}},
{"type": "Feature", "id": "8z4MeTT7L3fpzP-BxOw1qoETmAI=", "properties": {"ref": "in-mishawaka-main-street", "@spider": "chickfila", "amenity": "fast_food", "cuisine": "chicken", "takeaway": "yes", "addr:street_address": "5517 N Main St", "addr:city": "Mishawaka", "addr:state": "IN", "addr:postcode": "46545", "addr:country": "US", "name": "Mishawaka Main Street", "website": "https://www.chick-fil-a.com/locations/in/mishawaka-main-street", "image": "https://www.chick-fil-a.com/-/media/images/cfacom/default-images/seo/history_freestanding.ashx", "brand": "Chick-Fil-A", "brand:wikidata": "Q491516", "nsi_id": "chickfila-4d2ff4"}, "geometry": {"type": "Point", "coordinates": [-86.180486, 41.710663]}},
{"type": "Feature", "id": "xCi0r1pBO95RxHmVvvGSVnAd6zA=", "properties": {"ref": "in-college-mall", "@spider": "chickfila", "amenity": "fast_food", "cuisine": "chicken", "takeaway": "yes", "addr:street_address": "2856 E 3rd St Spc C-9", "addr:city": "Bloomington", "addr:state": "IN", "addr:postcode": "47401", "addr:country": "US", "name": "College Mall", "website": "https://www.chick-fil-a.com/locations/in/college-mall", "image": "https://www.chick-fil-a.com/-/media/images/cfacom/default-images/seo/history_freestanding.ashx", "brand": "Chick-Fil-A", "brand:wikidata": "Q491516", "nsi_id": "chickfila-4d2ff4"}, "geometry": {"type": "Point", "coordinates": [-86.495656, 39.161843]}},
{"type": "Feature", "id": "JuGwufI4BmVklFMgjzf9apqsWJE=", "properties": {"ref": "in-castleton-square", "@spider": "chickfila", "amenity": "fast_food", "cuisine": "chicken", "takeaway": "yes", "addr:street_address": "6020 E 82nd St Ste 1012", "addr:city": "Indianapolis", "addr:state": "IN", "addr:postcode": "46250", "addr:country": "US", "name": "Castleton Square", "website": "https://www.chick-fil-a.com/locations/in/castleton-square", "image": "https://www.chick-fil-a.com/-/media/images/cfacom/default-images/seo/history_freestanding.ashx", "brand": "Chick-Fil-A", "brand:wikidata": "Q491516", "nsi_id": "chickfila-4d2ff4"}, "geometry": {"type": "Point", "coordinates": [-86.063842, 39.90923]}},
{"type": "Feature", "id": "8CieqwJPULA1e-JaqrfAaTQgY-w=", "properties": {"ref": "in-greenwood-park-mall-in", "@spider": "chickfila", "amenity": "fast_food", "cuisine": "chicken", "takeaway": "yes", "addr:street_address": "1251 US Highway 31 N Ste C19", "addr:city": "Greenwood", "addr:state": "IN", "addr:postcode": "46142", "addr:country": "US", "name": "Greenwood Park Mall (IN)", "website": "https://www.chick-fil-a.com/locations/in/greenwood-park-mall-in", "image": "https://www.chick-fil-a.com/-/media/images/cfacom/default-images/seo/history_freestanding.ashx", "brand": "Chick-Fil-A", "brand:wikidata": "Q491516", "nsi_id": "chickfila-4d2ff4"}, "geometry": {"type": "Point", "coordinates": [-86.120085, 39.63214]}},
{"type": "Feature", "id": "JBCvKa7B_gaLOCYs3N9iphLm-Yc=", "properties": {"ref": "in-glenbrook-square", "@spider": "chickfila", "amenity": "fast_food", "cuisine": "chicken", "takeaway": "yes", "addr:street_address": "4201 Coldwater Rd", "addr:city": "Fort Wayne", "addr:state": "IN", "addr:postcode": "46805", "addr:country": "US", "name": "Glenbrook Square", "website": "https://www.chick-fil-a.com/locations/in/glenbrook-square", "image": "https://www.chick-fil-a.com/-/media/images/cfacom/default-images/seo/history_freestanding.ashx", "brand": "Chick-Fil-A", "brand:wikidata": "Q491516", "nsi_id": "chickfila-4d2ff4"}, "geometry": {"type": "Point", "coordinates": [-85.140053, 41.11463]}},
{"type": "Feature", "id": "cEZxOEvLQZKgGuI9vE7pE4m2Icg=", "properties": {"ref": "in-plainfield", "@spider": "chickfila", "amenity": "fast_food", "cuisine": "chicken", "takeaway": "yes", "addr:street_address": "2687 E Main St", "addr:city": "Plainfield", "addr:state": "IN", "addr:postcode": "46168", "addr:country": "US", "name": "Plainfield", "website": "https://www.chick-fil-a.com/locations/in/plainfield", "image": "https://www.chick-fil-a.com/-/media/images/cfacom/default-images/seo/history_freestanding.ashx", "brand": "Chick-Fil-A", "brand:wikidata": "Q491516", "nsi_id": "chickfila-4d2ff4"}, "geometry": {"type": "Point", "coordinates": [-86.35411403, 39.71845222]}},
{"type": "Feature", "id": "s2yhS7x5HFmGmNJcwMz0Jb4WETg=", "properties": {"ref": "in-eastland-mall-in", "@spider": "chickfila", "amenity": "fast_food", "cuisine": "chicken", "takeaway": "yes", "addr:street_address": "800 N Green River Rd", "addr:city": "Evansville", "addr:state": "IN", "addr:postcode": "47715", "addr:country": "US", "name": "Eastland Mall (IN)", "website": "https://www.chick-fil-a.com/locations/in/eastland-mall-in", "image": "https://www.chick-fil-a.com/-/media/images/cfacom/default-images/seo/history_freestanding.ashx", "brand": "Chick-Fil-A", "brand:wikidata": "Q491516", "nsi_id": "chickfila-4d2ff4"}, "geometry": {"type": "Point", "coordinates": [-87.495096, 37.984665]}},
{"type": "Feature", "id": "ldrYaRn9yN1uHHtvkfBUZu3UDFs=", "properties": {"ref": "in-southport-road", "@spider": "chickfila", "amenity": "fast_food", "cuisine": "chicken", "takeaway": "yes", "addr:street_address": "5240 E Southport Rd", "addr:city": "Indianapolis", "addr:state": "IN", "addr:postcode": "46237", "addr:country": "US", "name": "Southport Road", "website": "https://www.chick-fil-a.com/locations/in/southport-road", "image": "https://www.chick-fil-a.com/-/media/images/cfacom/default-images/seo/history_freestanding.ashx", "brand": "Chick-Fil-A", "brand:wikidata": "Q491516", "nsi_id": "chickfila-4d2ff4"}, "geometry": {"type": "Point", "coordinates": [-86.0786001, 39.66644017]}},
{"type": "Feature", "id": "c-RKqH-SlqxtI_eEVP4keyl2_rA=", "properties": {"ref": "in-ball-state-university", "@spider": "chickfila", "amenity": "fast_food", "cuisine": "chicken", "takeaway": "yes", "addr:street_address": "1101 N McKinley Ave Atrium Food Court in the Art & Journalism Building", "addr:city": "Muncie", "addr:state": "IN", "addr:postcode": "47303", "addr:country": "US", "name": "Ball State University", "website": "https://www.chick-fil-a.com/locations/in/ball-state-university", "image": "https://www.chick-fil-a.com/-/media/images/cfacom/default-images/seo/history_freestanding.ashx", "brand": "Chick-Fil-A", "brand:wikidata": "Q491516", "nsi_id": "chickfila-4d2ff4"}, "geometry": {"type": "Point", "coordinates": [-85.40862579, 40.20214]}},
{"type": "Feature", "id": "LZakE1FwFGXUNqii09YrdxDFQqc=", "properties": {"ref": "in-indiana-university-purdue-univ-at-indianapolis", "@spider": "chickfila", "amenity": "fast_food", "cuisine": "chicken", "takeaway": "yes", "addr:street_address": "420 University Blvd Ste 120", "addr:city": "Indianapolis", "addr:state": "IN", "addr:postcode": "46202", "addr:country": "US", "name": "Indiana University Purdue Univ at Indianapolis", "website": "https://www.chick-fil-a.com/locations/in/indiana-university-purdue-univ-at-indianapolis", "image": "https://www.chick-fil-a.com/-/media/images/cfacom/default-images/seo/history_freestanding.ashx", "brand": "Chick-Fil-A", "brand:wikidata": "Q491516", "nsi_id": "chickfila-4d2ff4"}, "geometry": {"type": "Point", "coordinates": [-86.17632426, 39.77393]}},
{"type": "Feature", "id": "9Bv5BH2Y8RzDVe5Ohauhq3JpK14=", "properties": {"ref": "in-saxony-i69", "@spider": "chickfila", "amenity": "fast_food", "cuisine": "chicken", "takeaway": "yes", "addr:street_address": "14098 Bergen Blvd", "addr:city": "Noblesville", "addr:state": "IN", "addr:postcode": "46060", "addr:country": "US", "name": "Saxony & I-69", "website": "https://www.chick-fil-a.com/locations/in/saxony-i69", "image": "https://www.chick-fil-a.com/-/media/images/cfacom/default-images/seo/history_freestanding.ashx", "brand": "Chick-Fil-A", "brand:wikidata": "Q491516", "nsi_id": "chickfila-4d2ff4"}, "geometry": {"type": "Point", "coordinates": [-85.926991, 39.994664]}},
{"type": "Feature", "id": "rbIG5m6lGecmadwLx49UyjKympM=", "properties": {"ref": "in-columbus-national", "@spider": "chickfila", "amenity": "fast_food", "cuisine": "chicken", "takeaway": "yes", "addr:street_address": "1250 N National Rd", "addr:city": "Columbus", "addr:state": "IN", "addr:postcode": "47201", "addr:country": "US", "name": "Columbus National", "website": "https://www.chick-fil-a.com/locations/in/columbus-national", "image": "https://www.chick-fil-a.com/-/media/images/cfacom/default-images/seo/history_freestanding.ashx", "brand": "Chick-Fil-A", "brand:wikidata": "Q491516", "nsi_id": "chickfila-4d2ff4"}, "geometry": {"type": "Point", "coordinates": [-85.878729, 39.210987]}},
{"type": "Feature", "id": "fMRi9a9EWKf4r9U5jvbEtyG-A_k=", "properties": {"ref": "in-indiana-wesleyan-university", "@spider": "chickfila", "amenity": "fast_food", "cuisine": "chicken", "takeaway": "yes", "addr:street_address": "4201 S Washington St Barnes Student Center", "addr:city": "Marion", "addr:state": "IN", "addr:postcode": "46953", "addr:country": "US", "name": "Indiana Wesleyan University", "website": "https://www.chick-fil-a.com/locations/in/indiana-wesleyan-university", "image": "https://www.chick-fil-a.com/-/media/images/cfacom/default-images/seo/history_freestanding.ashx", "brand": "Chick-Fil-A", "brand:wikidata": "Q491516", "nsi_id": "chickfila-4d2ff4"}, "geometry": {"type": "Point", "coordinates": [-85.66366777, 40.51914]}},
{"type": "Feature", "id": "WPDeUK60wxhQHvRufkmEoIlLUAQ=", "properties": {"ref": "in-taylor-university", "@spider": "chickfila", "amenity": "fast_food", "cuisine": "chicken", "takeaway": "yes", "addr:street_address": "236 W Reade Ave LaRita R. Boren Campus Center", "addr:city": "Upland", "addr:state": "IN", "addr:postcode": "46989", "addr:country": "US", "name": "Taylor University", "website": "https://www.chick-fil-a.com/locations/in/taylor-university", "image": "https://www.chick-fil-a.com/-/media/images/cfacom/default-images/seo/history_freestanding.ashx", "brand": "Chick-Fil-A", "brand:wikidata": "Q491516", "nsi_id": "chickfila-4d2ff4"}, "geometry": {"type": "Point", "coordinates": [-85.49689578, 40.45864]}},
{"type": "Feature", "id": "g3S4O1jX9uwqTy8nUvQUFHYzAQE=", "properties": {"ref": "in-university-of-southern-indiana", "@spider": "chickfila", "amenity": "fast_food", "cuisine": "chicken", "takeaway": "yes", "addr:street_address": "8600 University Blvd", "addr:city": "Evansville", "addr:state": "IN", "addr:postcode": "47712", "addr:country": "US", "name": "University of Southern Indiana", "website": "https://www.chick-fil-a.com/locations/in/university-of-southern-indiana", "image": "https://www.chick-fil-a.com/-/media/images/cfacom/default-images/seo/history_freestanding.ashx", "brand": "Chick-Fil-A", "brand:wikidata": "Q491516", "nsi_id": "chickfila-4d2ff4"}, "geometry": {"type": "Point", "coordinates": [-87.676115, 37.9614]}},
{"type": "Feature", "id": "7DisAFFmh4jsbgVvokuI4STe48U=", "properties": {"ref": "in-anderson-university", "@spider": "chickfila", "amenity": "fast_food", "cuisine": "chicken", "takeaway": "yes", "addr:street_address": "1100 E 5th St OLT Student Center", "addr:city": "Anderson", "addr:state": "IN", "addr:postcode": "46012", "addr:country": "US", "name": "Anderson University", "website": "https://www.chick-fil-a.com/locations/in/anderson-university", "image": "https://www.chick-fil-a.com/-/media/images/cfacom/default-images/seo/history_freestanding.ashx", "brand": "Chick-Fil-A", "brand:wikidata": "Q491516", "nsi_id": "chickfila-4d2ff4"}, "geometry": {"type": "Point", "coordinates": [-85.66452674, 40.11292]}},
{"type": "Feature", "id": "DCrPCitsquWM0wEQG77ZMMezON8=", "properties": {"ref": "in-indianapolis-international-airport", "@spider": "chickfila", "amenity": "fast_food", "cuisine": "chicken", "takeaway": "yes", "addr:street_address": "7800 Col H Weir Cook Mem Dr", "addr:city": "Indianapolis", "addr:state": "IN", "addr:postcode": "46241", "addr:country": "US", "name": "Indianapolis International Airport", "website": "https://www.chick-fil-a.com/locations/in/indianapolis-international-airport", "image": "https://www.chick-fil-a.com/-/media/images/cfacom/default-images/seo/history_freestanding.ashx", "brand": "Chick-Fil-A", "brand:wikidata": "Q491516", "nsi_id": "chickfila-4d2ff4"}, "geometry": {"type": "Point", "coordinates": [-86.29764303, 39.71491]}},
{"type": "Feature", "id": "R7oIi1T5G5qe4SaQQM3fmhkrT5M=", "properties": {"ref": "in-south-bend", "@spider": "chickfila", "amenity": "fast_food", "cuisine": "chicken", "takeaway": "yes", "addr:street_address": "4555 S Michigan St", "addr:city": "South Bend", "addr:state": "IN", "addr:postcode": "46614", "addr:country": "US", "name": "South Bend", "website": "https://www.chick-fil-a.com/locations/in/south-bend", "image": "https://www.chick-fil-a.com/-/media/images/cfacom/default-images/seo/history_freestanding.ashx", "brand": "Chick-Fil-A", "brand:wikidata": "Q491516", "nsi_id": "chickfila-4d2ff4"}, "geometry": {"type": "Point", "coordinates": [-86.251863, 41.627748]}},
{"type": "Feature", "id": "u6BBTbhWPWxm6QbZ2umu0mP7S9k=", "properties": {"ref": "in-new-albany", "@spider": "chickfila", "amenity": "fast_food", "cuisine": "chicken", "takeaway": "yes", "addr:street_address": "2225 State St", "addr:city": "New Albany", "addr:state": "IN", "addr:postcode": "47150", "addr:country": "US", "name": "New Albany", "website": "https://www.chick-fil-a.com/locations/in/new-albany", "image": "https://www.chick-fil-a.com/-/media/images/cfacom/default-images/seo/history_freestanding.ashx", "brand": "Chick-Fil-A", "brand:wikidata": "Q491516", "nsi_id": "chickfila-4d2ff4"}, "geometry": {"type": "Point", "coordinates": [-85.842012, 38.306639]}},
{"type": "Feature", "id": "cBxiBQ5Z-t0BtZOf9Rw6_kxi2Y8=", "properties": {"ref": "in-veterans-parkway", "@spider": "chickfila", "amenity": "fast_food", "cuisine": "chicken", "takeaway": "yes", "addr:street_address": "1320 Veterans Pkwy", "addr:city": "Clarksville", "addr:state": "IN", "addr:postcode": "47129", "addr:country": "US", "name": "Veterans Parkway", "website": "https://www.chick-fil-a.com/locations/in/veterans-parkway", "image": "https://www.chick-fil-a.com/-/media/images/cfacom/default-images/seo/history_freestanding.ashx", "brand": "Chick-Fil-A", "brand:wikidata": "Q491516", "nsi_id": "chickfila-4d2ff4"}, "geometry": {"type": "Point", "coordinates": [-85.75914, 38.32855]}},
{"type": "Feature", "id": "cINoWDFP5aHNIHtcubf7YbMREXE=", "properties": {"ref": "in-westfield", "@spider": "chickfila", "amenity": "fast_food", "cuisine": "chicken", "takeaway": "yes", "addr:street_address": "14647 Thatcher Ln", "addr:city": "Carmel", "addr:state": "IN", "addr:postcode": "46032", "addr:country": "US", "name": "Westfield", "website": "https://www.chick-fil-a.com/locations/in/westfield", "image": "https://www.chick-fil-a.com/-/media/images/cfacom/default-images/seo/history_freestanding.ashx", "brand": "Chick-Fil-A", "brand:wikidata": "Q491516", "nsi_id": "chickfila-4d2ff4"}, "geometry": {"type": "Point", "coordinates": [-86.12614514, 40.00160666]}},
{"type": "Feature", "id": "5nJNUkDrjAzRkGK5mh2SbLFOYSA=", "properties": {"ref": "in-merrillville", "@spider": "chickfila", "amenity": "fast_food", "cuisine": "chicken", "takeaway": "yes", "addr:street_address": "2385 Southlake Mall", "addr:city": "Merrillville", "addr:state": "IN", "addr:postcode": "46410", "addr:country": "US", "name": "Merrillville", "website": "https://www.chick-fil-a.com/locations/in/merrillville", "image": "https://www.chick-fil-a.com/-/media/images/cfacom/default-images/seo/history_freestanding.ashx", "brand": "Chick-Fil-A", "brand:wikidata": "Q491516", "nsi_id": "chickfila-4d2ff4"}, "geometry": {"type": "Point", "coordinates": [-87.3076759, 41.47062169]}},
{"type": "Feature", "id": "omgb-NSNQ33T7aLopgXt7V1lVBc=", "properties": {"ref": "in-bloomington-east", "@spider": "chickfila", "amenity": "fast_food", "cuisine": "chicken", "takeaway": "yes", "addr:street_address": "3020 E 3rd St College Mall pad", "addr:city": "Bloomington", "addr:state": "IN", "addr:postcode": "47401", "addr:country": "US", "name": "Bloomington East", "website": "https://www.chick-fil-a.com/locations/in/bloomington-east", "image": "https://www.chick-fil-a.com/-/media/images/cfacom/default-images/seo/history_freestanding.ashx", "brand": "Chick-Fil-A", "brand:wikidata": "Q491516", "nsi_id": "chickfila-4d2ff4"}, "geometry": {"type": "Point", "coordinates": [-86.49355, 39.1637]}},
{"type": "Feature", "id": "lw5l3ysDZQ6uN50M1znbYMaAgE0=", "properties": {"ref": "in-broad-ripple", "@spider": "chickfila", "amenity": "fast_food", "cuisine": "chicken", "takeaway": "yes", "addr:street_address": "6231 N Keystone Ave", "addr:city": "Indianapolis", "addr:state": "IN", "addr:postcode": "46220", "addr:country": "US", "name": "Broad Ripple", "website": "https://www.chick-fil-a.com/locations/in/broad-ripple", "image": "https://www.chick-fil-a.com/-/media/images/cfacom/default-images/seo/history_freestanding.ashx", "brand": "Chick-Fil-A", "brand:wikidata": "Q491516", "nsi_id": "chickfila-4d2ff4"}, "geometry": {"type": "Point", "coordinates": [-86.12168892, 39.8700931]}},
{"type": "Feature", "id": "I81YrzkTO3guUA0ouCKFUkapJ2M=", "properties": {"ref": "in-terre-haute", "@spider": "chickfila", "amenity": "fast_food", "cuisine": "chicken", "takeaway": "yes", "addr:street_address": "3675 S US Highway 41", "addr:city": "Terre Haute", "addr:state": "IN", "addr:postcode": "47802", "addr:country": "US", "name": "Terre Haute", "website": "https://www.chick-fil-a.com/locations/in/terre-haute", "image": "https://www.chick-fil-a.com/-/media/images/cfacom/default-images/seo/history_freestanding.ashx", "brand": "Chick-Fil-A", "brand:wikidata": "Q491516", "nsi_id": "chickfila-4d2ff4"}, "geometry": {"type": "Point", "coordinates": [-87.41684359, 39.42210199]}},
{"type": "Feature", "id": "gmIs9fgCJW9caWTomgRPAnyarpU=", "properties": {"ref": "in-muncie", "@spider": "chickfila", "amenity": "fast_food", "cuisine": "chicken", "takeaway": "yes", "addr:street_address": "511 W McGalliard Rd", "addr:city": "Muncie", "addr:state": "IN", "addr:postcode": "47303", "addr:country": "US", "name": "Muncie", "website": "https://www.chick-fil-a.com/locations/in/muncie", "image": "https://www.chick-fil-a.com/-/media/images/cfacom/default-images/seo/history_freestanding.ashx", "brand": "Chick-Fil-A", "brand:wikidata": "Q491516", "nsi_id": "chickfila-4d2ff4"}, "geometry": {"type": "Point", "coordinates": [-85.39191795, 40.21845576]}},
{"type": "Feature", "id": "ugP_bUZp10JcDDBTlHnWGEXZudA=", "properties": {"ref": "ks-113th-nall-ks", "@spider": "chickfila", "amenity": "fast_food", "cuisine": "chicken", "takeaway": "yes", "addr:street_address": "11240 Nall Avenue", "addr:city": "Overland Park", "addr:state": "KS", "addr:postcode": "66211", "addr:country": "US", "name": "113th & Nall (KS)", "website": "https://www.chick-fil-a.com/locations/ks/113th-nall-ks", "image": "https://www.chick-fil-a.com/-/media/images/cfacom/default-images/seo/history_freestanding.ashx", "brand": "Chick-Fil-A", "brand:wikidata": "Q491516", "nsi_id": "chickfila-4d2ff4"}, "geometry": {"type": "Point", "coordinates": [-94.649795, 38.923212]}},
{"type": "Feature", "id": "8CLIVnh2DKKirffjREApM-Xnlic=", "properties": {"ref": "ks-k96-greenwich-rd-ks", "@spider": "chickfila", "amenity": "fast_food", "cuisine": "chicken", "takeaway": "yes", "addr:street_address": "2400 N Greenwich Rd", "addr:city": "Wichita", "addr:state": "KS", "addr:postcode": "67226", "addr:country": "US", "name": "K96 & Greenwich Rd (KS)", "website": "https://www.chick-fil-a.com/locations/ks/k96-greenwich-rd-ks", "image": "https://www.chick-fil-a.com/-/media/images/cfacom/default-images/seo/history_freestanding.ashx", "brand": "Chick-Fil-A", "brand:wikidata": "Q491516", "nsi_id": "chickfila-4d2ff4"}, "geometry": {"type": "Point", "coordinates": [-97.207335, 37.726752]}},
{"type": "Feature", "id": "cz3wWZfy_6MhewRl-fhTSvstii4=", "properties": {"ref": "ks-johnson-county-community-college", "@spider": "chickfila", "amenity": "fast_food", "cuisine": "chicken", "takeaway": "yes", "addr:street_address": "12345 College Blvd # SC110", "addr:city": "Overland Park", "addr:state": "KS", "addr:postcode": "66210", "addr:country": "US", "name": "Johnson County Community College", "website": "https://www.chick-fil-a.com/locations/ks/johnson-county-community-college", "image": "https://www.chick-fil-a.com/-/media/images/cfacom/default-images/seo/history_freestanding.ashx", "brand": "Chick-Fil-A", "brand:wikidata": "Q491516", "nsi_id": "chickfila-4d2ff4"}, "geometry": {"type": "Point", "coordinates": [-94.72652075, 38.92443]}},
{"type": "Feature", "id": "Cu9G5fZ-UEt2fn_FpwJeb-b2S3E=", "properties": {"ref": "ks-kansas-state-university", "@spider": "chickfila", "amenity": "fast_food", "cuisine": "chicken", "takeaway": "yes", "addr:street_address": "918 N 17th St 121 K- State Student Union", "addr:city": "Manhattan", "addr:state": "KS", "addr:postcode": "66506", "addr:country": "US", "name": "Kansas State University", "website": "https://www.chick-fil-a.com/locations/ks/kansas-state-university", "image": "https://www.chick-fil-a.com/-/media/images/cfacom/default-images/seo/history_freestanding.ashx", "brand": "Chick-Fil-A", "brand:wikidata": "Q491516", "nsi_id": "chickfila-4d2ff4"}, "geometry": {"type": "Point", "coordinates": [-96.58266985, 39.18809]}},
{"type": "Feature", "id": "-VN1Lkkc0Kk8yNxcVFEC2IM4C1U=", "properties": {"ref": "ks-97th-metcalf-ks", "@spider": "chickfila", "amenity": "fast_food", "cuisine": "chicken", "takeaway": "yes", "addr:street_address": "9591 Metcalf Ave", "addr:city": "Overland Park", "addr:state": "KS", "addr:postcode": "66212", "addr:country": "US", "name": "97th & Metcalf (KS)", "website": "https://www.chick-fil-a.com/locations/ks/97th-metcalf-ks", "image": "https://www.chick-fil-a.com/-/media/images/cfacom/default-images/seo/history_freestanding.ashx", "brand": "Chick-Fil-A", "brand:wikidata": "Q491516", "nsi_id": "chickfila-4d2ff4"}, "geometry": {"type": "Point", "coordinates": [-94.668012, 38.95319]}},
{"type": "Feature", "id": "m5iA_yCTGVSzMKqivw2L5u6nGFo=", "properties": {"ref": "ks-lenexa", "@spider": "chickfila", "amenity": "fast_food", "cuisine": "chicken", "takeaway": "yes", "addr:street_address": "15919 W 87th Street Pkwy", "addr:city": "Lenexa", "addr:state": "KS", "addr:postcode": "66219", "addr:country": "US", "name": "Lenexa", "website": "https://www.chick-fil-a.com/locations/ks/lenexa", "image": "https://www.chick-fil-a.com/-/media/images/cfacom/default-images/seo/history_freestanding.ashx", "brand": "Chick-Fil-A", "brand:wikidata": "Q491516", "nsi_id": "chickfila-4d2ff4"}, "geometry": {"type": "Point", "coordinates": [-94.771632, 38.970704]}},
{"type": "Feature", "id": "vAl_1DkUfOk51vPfCueJyop_UHI=", "properties": {"ref": "ks-maple-ridge", "@spider": "chickfila", "amenity": "fast_food", "cuisine": "chicken", "takeaway": "yes", "addr:street_address": "7320 West Taft Street", "addr:city": "Wichita", "addr:state": "KS", "addr:postcode": "67209", "addr:country": "US", "name": "Maple & Ridge", "website": "https://www.chick-fil-a.com/locations/ks/maple-ridge", "image": "https://www.chick-fil-a.com/-/media/images/cfacom/default-images/seo/history_freestanding.ashx", "brand": "Chick-Fil-A", "brand:wikidata": "Q491516", "nsi_id": "chickfila-4d2ff4"}, "geometry": {"type": "Point", "coordinates": [-97.426941, 37.6773]}},
{"type": "Feature", "id": "PrUbGKAsUFQ_2ZtxMfceQNj-Q9g=", "properties": {"ref": "ks-salina", "@spider": "chickfila", "amenity": "fast_food", "cuisine": "chicken", "takeaway": "yes", "addr:street_address": "2245 S 9th St", "addr:city": "Salina", "addr:state": "KS", "addr:postcode": "67401", "addr:country": "US", "name": "Salina", "website": "https://www.chick-fil-a.com/locations/ks/salina", "image": "https://www.chick-fil-a.com/-/media/images/cfacom/default-images/seo/history_freestanding.ashx", "brand": "Chick-Fil-A", "brand:wikidata": "Q491516", "nsi_id": "chickfila-4d2ff4"}, "geometry": {"type": "Point", "coordinates": [-97.612084, 38.80266]}},
{"type": "Feature", "id": "y6prskK0vpVERkDx3de3OqvK87I=", "properties": {"ref": "ks-hutchinson", "@spider": "chickfila", "amenity": "fast_food", "cuisine": "chicken", "takeaway": "yes", "addr:street_address": "1809 E 17th Ave", "addr:city": "Hutchinson", "addr:state": "KS", "addr:postcode": "67501", "addr:country": "US", "name": "Hutchinson", "website": "https://www.chick-fil-a.com/locations/ks/hutchinson", "image": "https://www.chick-fil-a.com/-/media/images/cfacom/default-images/seo/history_freestanding.ashx", "brand": "Chick-Fil-A", "brand:wikidata": "Q491516", "nsi_id": "chickfila-4d2ff4"}, "geometry": {"type": "Point", "coordinates": [-97.894305, 38.071746]}},
{"type": "Feature", "id": "1u7Ijc2fLO7sZJCRbeIPfRAoSYk=", "properties": {"ref": "ks-17th-and-wanamaker", "@spider": "chickfila", "amenity": "fast_food", "cuisine": "chicken", "takeaway": "yes", "addr:street_address": "1625 SW Wanamaker Rd", "addr:city": "Topeka", "addr:state": "KS", "addr:postcode": "66604", "addr:country": "US", "name": "17th and Wanamaker", "website": "https://www.chick-fil-a.com/locations/ks/17th-and-wanamaker", "image": "https://www.chick-fil-a.com/-/media/images/cfacom/default-images/seo/history_freestanding.ashx", "brand": "Chick-Fil-A", "brand:wikidata": "Q491516", "nsi_id": "chickfila-4d2ff4"}, "geometry": {"type": "Point", "coordinates": [-95.762455, 39.036992]}},
{"type": "Feature", "id": "tS4t5lxt9_VauIGQPgvJQxjKCLk=", "properties": {"ref": "ks-central-rock-road", "@spider": "chickfila", "amenity": "fast_food", "cuisine": "chicken", "takeaway": "yes", "addr:street_address": "7990 E Central Ave", "addr:city": "Wichita", "addr:state": "KS", "addr:postcode": "67206", "addr:country": "US", "name": "Central & Rock Road", "website": "https://www.chick-fil-a.com/locations/ks/central-rock-road", "image": "https://www.chick-fil-a.com/-/media/images/cfacom/default-images/seo/history_freestanding.ashx", "brand": "Chick-Fil-A", "brand:wikidata": "Q491516", "nsi_id": "chickfila-4d2ff4"}, "geometry": {"type": "Point", "coordinates": [-97.244939, 37.69421]}},
{"type": "Feature", "id": "ntXaLmxj5Ww7zyJR7m_0Dr1HUOo=", "properties": {"ref": "ks-plaza-at-the-speedway", "@spider": "chickfila", "amenity": "fast_food", "cuisine": "chicken", "takeaway": "yes", "addr:street_address": "10770 Parallel Pkwy", "addr:city": "Kansas City", "addr:state": "KS", "addr:postcode": "66109", "addr:country": "US", "name": "Plaza at the Speedway", "website": "https://www.chick-fil-a.com/locations/ks/plaza-at-the-speedway", "image": "https://www.chick-fil-a.com/-/media/images/cfacom/default-images/seo/history_freestanding.ashx", "brand": "Chick-Fil-A", "brand:wikidata": "Q491516", "nsi_id": "chickfila-4d2ff4"}, "geometry": {"type": "Point", "coordinates": [-94.82797178, 39.12899927]}},
{"type": "Feature", "id": "OnOjVSmCYD4VhQLs8a6ZR0H9kqo=", "properties": {"ref": "ks-21st-maize", "@spider": "chickfila", "amenity": "fast_food", "cuisine": "chicken", "takeaway": "yes", "addr:street_address": "10515 W 21st St N", "addr:city": "Wichita", "addr:state": "KS", "addr:postcode": "67205", "addr:country": "US", "name": "21st & Maize", "website": "https://www.chick-fil-a.com/locations/ks/21st-maize", "image": "https://www.chick-fil-a.com/-/media/images/cfacom/default-images/seo/history_freestanding.ashx", "brand": "Chick-Fil-A", "brand:wikidata": "Q491516", "nsi_id": "chickfila-4d2ff4"}, "geometry": {"type": "Point", "coordinates": [-97.46395377, 37.72211509]}},
{"type": "Feature", "id": "t9UW3OejGDro4ZE_FWyEisaf5J8=", "properties": {"ref": "ks-mission-crossing", "@spider": "chickfila", "amenity": "fast_food", "cuisine": "chicken", "takeaway": "yes", "addr:street_address": "6039 Metcalf Ave Mission Crossing Center", "addr:city": "Mission", "addr:state": "KS", "addr:postcode": "66202", "addr:country": "US", "name": "Mission Crossing", "website": "https://www.chick-fil-a.com/locations/ks/mission-crossing", "image": "https://www.chick-fil-a.com/-/media/images/cfacom/default-images/seo/history_freestanding.ashx", "brand": "Chick-Fil-A", "brand:wikidata": "Q491516", "nsi_id": "chickfila-4d2ff4"}, "geometry": {"type": "Point", "coordinates": [-94.66712, 39.01893]}},
{"type": "Feature", "id": "c6ZtKCmx9o5H5ipsN5r2CbzT7nE=", "properties": {"ref": "ks-oak-park-plaza", "@spider": "chickfila", "amenity": "fast_food", "cuisine": "chicken", "takeaway": "yes", "addr:street_address": "9707 Quivira Rd", "addr:city": "Overland Park", "addr:state": "KS", "addr:postcode": "66215", "addr:country": "US", "name": "Oak Park Plaza", "website": "https://www.chick-fil-a.com/locations/ks/oak-park-plaza", "image": "https://www.chick-fil-a.com/-/media/images/cfacom/default-images/seo/history_freestanding.ashx", "brand": "Chick-Fil-A", "brand:wikidata": "Q491516", "nsi_id": "chickfila-4d2ff4"}, "geometry": {"type": "Point", "coordinates": [-94.72303213, 38.95162974]}},
{"type": "Feature", "id": "iYNkwSBooClM2xahMrmKPC-_yWw=", "properties": {"ref": "ks-135th-and-69-hwy", "@spider": "chickfila", "amenity": "fast_food", "cuisine": "chicken", "takeaway": "yes", "addr:street_address": "7500 W 135th St", "addr:city": "Overland Park", "addr:state": "KS", "addr:postcode": "66223", "addr:country": "US", "name": "135th and 69 Hwy", "website": "https://www.chick-fil-a.com/locations/ks/135th-and-69-hwy", "image": "https://www.chick-fil-a.com/-/media/images/cfacom/default-images/seo/history_freestanding.ashx", "brand": "Chick-Fil-A", "brand:wikidata": "Q491516", "nsi_id": "chickfila-4d2ff4"}, "geometry": {"type": "Point", "coordinates": [-94.673145, 38.884563]}},
{"type": "Feature", "id": "mb7O9bMzRjmQ45lOi0_iTGzgTIE=", "properties": {"ref": "ks-olathe-pointe", "@spider": "chickfila", "amenity": "fast_food", "cuisine": "chicken", "takeaway": "yes", "addr:street_address": "12087 S Blackbob Rd", "addr:city": "Olathe", "addr:state": "KS", "addr:postcode": "66062", "addr:country": "US", "name": "Olathe Pointe", "website": "https://www.chick-fil-a.com/locations/ks/olathe-pointe", "image": "https://www.chick-fil-a.com/-/media/images/cfacom/default-images/seo/history_freestanding.ashx", "brand": "Chick-Fil-A", "brand:wikidata": "Q491516", "nsi_id": "chickfila-4d2ff4"}, "geometry": {"type": "Point", "coordinates": [-94.76025221, 38.90955167]}},
{"type": "Feature", "id": "JZnHIrYM49g9SYi566CLExQtsIY=", "properties": {"ref": "ks-university-of-kansas", "@spider": "chickfila", "amenity": "fast_food", "cuisine": "chicken", "takeaway": "yes", "addr:street_address": "1301 Jayhawk Blvd Wescoe Hall Underground", "addr:city": "Lawrence", "addr:state": "KS", "addr:postcode": "66045", "addr:country": "US", "name": "University of Kansas", "website": "https://www.chick-fil-a.com/locations/ks/university-of-kansas", "image": "https://www.chick-fil-a.com/-/media/images/cfacom/default-images/seo/history_freestanding.ashx", "brand": "Chick-Fil-A", "brand:wikidata": "Q491516", "nsi_id": "chickfila-4d2ff4"}, "geometry": {"type": "Point", "coordinates": [-95.24775815, 38.95757]}},
{"type": "Feature", "id": "2HE7eq8CWSKs2BERCJbbrnOKr0w=", "properties": {"ref": "ks-wichita-dwight-d-eisenhower-national-airport", "@spider": "chickfila", "amenity": "fast_food", "cuisine": "chicken", "takeaway": "yes", "addr:street_address": "2277 S Eisenhower St", "addr:city": "Wichita", "addr:state": "KS", "addr:postcode": "67209", "addr:country": "US", "name": "Wichita Dwight D. Eisenhower National Airport", "website": "https://www.chick-fil-a.com/locations/ks/wichita-dwight-d-eisenhower-national-airport", "image": "https://www.chick-fil-a.com/-/media/images/cfacom/default-images/seo/history_freestanding.ashx", "brand": "Chick-Fil-A", "brand:wikidata": "Q491516", "nsi_id": "chickfila-4d2ff4"}, "geometry": {"type": "Point", "coordinates": [-97.428603, 37.65301]}},
{"type": "Feature", "id": "j-zWLGmlYjmF4CDRZDGF6lg4uyo=", "properties": {"ref": "ks-derby-marketplace", "@spider": "chickfila", "amenity": "fast_food", "cuisine": "chicken", "takeaway": "yes", "addr:street_address": "1818 N Rock Rd", "addr:city": "Derby", "addr:state": "KS", "addr:postcode": "67037", "addr:country": "US", "name": "Derby Marketplace", "website": "https://www.chick-fil-a.com/locations/ks/derby-marketplace", "image": "https://www.chick-fil-a.com/-/media/images/cfacom/default-images/seo/history_freestanding.ashx", "brand": "Chick-Fil-A", "brand:wikidata": "Q491516", "nsi_id": "chickfila-4d2ff4"}, "geometry": {"type": "Point", "coordinates": [-97.243449, 37.565558]}},
{"type": "Feature", "id": "So9U196O5506Pr5lwN7IYx5nxX4=", "properties": {"ref": "ks-manhattan-ks", "@spider": "chickfila", "amenity": "fast_food", "cuisine": "chicken", "takeaway": "yes", "addr:street_address": "636 Tuttle Creek Blvd", "addr:city": "Manhattan", "addr:state": "KS", "addr:postcode": "66502", "addr:country": "US", "name": "Manhattan (KS)", "website": "https://www.chick-fil-a.com/locations/ks/manhattan-ks", "image": "https://www.chick-fil-a.com/-/media/images/cfacom/default-images/seo/history_freestanding.ashx", "brand": "Chick-Fil-A", "brand:wikidata": "Q491516", "nsi_id": "chickfila-4d2ff4"}, "geometry": {"type": "Point", "coordinates": [-96.55794, 39.18525]}},
{"type": "Feature", "id": "U7tBkvtN0ADyn_ELrOGfFZbpo-A=", "properties": {"ref": "ks-wichita-state-university", "@spider": "chickfila", "amenity": "fast_food", "cuisine": "chicken", "takeaway": "yes", "addr:street_address": "1845 Fairmount Rhatigan Student Center", "addr:city": "Wichita", "addr:state": "KS", "addr:postcode": "67260", "addr:country": "US", "name": "Wichita State University", "website": "https://www.chick-fil-a.com/locations/ks/wichita-state-university", "image": "https://www.chick-fil-a.com/-/media/images/cfacom/default-images/seo/history_freestanding.ashx", "brand": "Chick-Fil-A", "brand:wikidata": "Q491516", "nsi_id": "chickfila-4d2ff4"}, "geometry": {"type": "Point", "coordinates": [-97.29440459, 37.7183]}},
{"type": "Feature", "id": "HzDQDLDAiEns98XriWJRsTjZ_6I=", "properties": {"ref": "ks-iowa-27th-ks", "@spider": "chickfila", "amenity": "fast_food", "cuisine": "chicken", "takeaway": "yes", "addr:street_address": "2735 Iowa St", "addr:city": "Lawrence", "addr:state": "KS", "addr:postcode": "66046", "addr:country": "US", "name": "Iowa & 27th (KS)", "website": "https://www.chick-fil-a.com/locations/ks/iowa-27th-ks", "image": "https://www.chick-fil-a.com/-/media/images/cfacom/default-images/seo/history_freestanding.ashx", "brand": "Chick-Fil-A", "brand:wikidata": "Q491516", "nsi_id": "chickfila-4d2ff4"}, "geometry": {"type": "Point", "coordinates": [-95.260784, 38.933007]}},
{"type": "Feature", "id": "lXLBFtEOSQSHCpPr4OtFQ13ZiWw=", "properties": {"ref": "il-edwardsville-il", "@spider": "chickfila", "amenity": "fast_food", "cuisine": "chicken", "takeaway": "yes", "addr:street_address": "2319 Troy Rd", "addr:city": "Glen Carbon", "addr:state": "IL", "addr:postcode": "62034", "addr:country": "US", "name": "Edwardsville (IL)", "website": "https://www.chick-fil-a.com/locations/il/edwardsville-il", "image": "https://www.chick-fil-a.com/-/media/images/cfacom/default-images/seo/history_freestanding.ashx", "brand": "Chick-Fil-A", "brand:wikidata": "Q491516", "nsi_id": "chickfila-4d2ff4"}, "geometry": {"type": "Point", "coordinates": [-89.9519474263, 38.7852040831]}},
{"type": "Feature", "id": "n1z4O3HIPY3cXJFLYaYMwrDTbLU=", "properties": {"ref": "il-touhy-marketplace-il", "@spider": "chickfila", "amenity": "fast_food", "cuisine": "chicken", "takeaway": "yes", "addr:street_address": "3720 Touhy Ave", "addr:city": "Skokie", "addr:state": "IL", "addr:postcode": "60076", "addr:country": "US", "name": "Touhy Marketplace (IL)", "website": "https://www.chick-fil-a.com/locations/il/touhy-marketplace-il", "image": "https://www.chick-fil-a.com/-/media/images/cfacom/default-images/seo/history_freestanding.ashx", "brand": "Chick-Fil-A", "brand:wikidata": "Q491516", "nsi_id": "chickfila-4d2ff4"}, "geometry": {"type": "Point", "coordinates": [-87.722086, 42.011952]}},
{"type": "Feature", "id": "SH0FjFk7Rv_zis0ep39nJOpNARA=", "properties": {"ref": "il-wrigleyville-il-inline", "@spider": "chickfila", "amenity": "fast_food", "cuisine": "chicken", "takeaway": "yes", "addr:street_address": "3500 N Clark St", "addr:city": "Chicago", "addr:state": "IL", "addr:postcode": "60657", "addr:country": "US", "name": "Wrigleyville (IL) In-Line", "website": "https://www.chick-fil-a.com/locations/il/wrigleyville-il-inline", "image": "https://www.chick-fil-a.com/-/media/images/cfacom/default-images/seo/history_freestanding.ashx", "brand": "Chick-Fil-A", "brand:wikidata": "Q491516", "nsi_id": "chickfila-4d2ff4"}, "geometry": {"type": "Point", "coordinates": [-87.655564, 41.945647]}},
{"type": "Feature", "id": "Vzg0GS4oOn5201aXlfa0Jd4oQHk=", "properties": {"ref": "il-bradley-bourbonnais-il", "@spider": "chickfila", "amenity": "fast_food", "cuisine": "chicken", "takeaway": "yes", "addr:street_address": "1359 Locke Dr", "addr:city": "Bradley", "addr:state": "IL", "addr:postcode": "60915", "addr:country": "US", "name": "Bradley Bourbonnais (IL)", "website": "https://www.chick-fil-a.com/locations/il/bradley-bourbonnais-il", "image": "https://www.chick-fil-a.com/-/media/images/cfacom/default-images/seo/history_freestanding.ashx", "brand": "Chick-Fil-A", "brand:wikidata": "Q491516", "nsi_id": "chickfila-4d2ff4"}, "geometry": {"type": "Point", "coordinates": [-87.850302, 41.16383]}},
{"type": "Feature", "id": "mPcLtsLDdlojNeqfpXcDKNEd0Jw=", "properties": {"ref": "il-algonquin-il", "@spider": "chickfila", "amenity": "fast_food", "cuisine": "chicken", "takeaway": "yes", "addr:street_address": "425 S Randall Rd", "addr:city": "Algonquin", "addr:state": "IL", "addr:postcode": "60102", "addr:country": "US", "name": "Algonquin (IL)", "website": "https://www.chick-fil-a.com/locations/il/algonquin-il", "image": "https://www.chick-fil-a.com/-/media/images/cfacom/default-images/seo/history_freestanding.ashx", "brand": "Chick-Fil-A", "brand:wikidata": "Q491516", "nsi_id": "chickfila-4d2ff4"}, "geometry": {"type": "Point", "coordinates": [-88.334444, 42.171271]}},
{"type": "Feature", "id": "vI6nNLZyn8FC3BIYE8UklMiQbzQ=", "properties": {"ref": "il-machesney-park-il", "@spider": "chickfila", "amenity": "fast_food", "cuisine": "chicken", "takeaway": "yes", "addr:street_address": "1505 West Lane Road", "addr:city": "Machesney Park", "addr:state": "IL", "addr:postcode": "61115", "addr:country": "US", "name": "Machesney Park (IL)", "website": "https://www.chick-fil-a.com/locations/il/machesney-park-il", "image": "https://www.chick-fil-a.com/-/media/images/cfacom/default-images/seo/history_freestanding.ashx", "brand": "Chick-Fil-A", "brand:wikidata": "Q491516", "nsi_id": "chickfila-4d2ff4"}, "geometry": {"type": "Point", "coordinates": [-89.028734, 42.365221]}},
{"type": "Feature", "id": "W_1AvAWEqQ1zinixQmpceesAKvg=", "properties": {"ref": "il-golf-mill-il", "@spider": "chickfila", "amenity": "fast_food", "cuisine": "chicken", "takeaway": "yes", "addr:street_address": "8575 West Golf Road", "addr:city": "Niles", "addr:state": "IL", "addr:postcode": "60714", "addr:country": "US", "name": "Golf Mill (IL)", "website": "https://www.chick-fil-a.com/locations/il/golf-mill-il", "image": "https://www.chick-fil-a.com/-/media/images/cfacom/default-images/seo/history_freestanding.ashx", "brand": "Chick-Fil-A", "brand:wikidata": "Q491516", "nsi_id": "chickfila-4d2ff4"}, "geometry": {"type": "Point", "coordinates": [-87.839827, 42.054124]}},
{"type": "Feature", "id": "H83TUaI2T-29FP_KFQLehvGWJ14=", "properties": {"ref": "il-millennium-park-il-inline", "@spider": "chickfila", "amenity": "fast_food", "cuisine": "chicken", "takeaway": "yes", "addr:street_address": "122 S Michigan Ave", "addr:city": "Chicago", "addr:state": "IL", "addr:postcode": "60603", "addr:country": "US", "name": "Millennium Park (IL) In-Line", "website": "https://www.chick-fil-a.com/locations/il/millennium-park-il-inline", "image": "https://www.chick-fil-a.com/-/media/images/cfacom/default-images/seo/history_freestanding.ashx", "brand": "Chick-Fil-A", "brand:wikidata": "Q491516", "nsi_id": "chickfila-4d2ff4"}, "geometry": {"type": "Point", "coordinates": [-87.624679, 41.879699]}},
{"type": "Feature", "id": "PMTw-NRdI6qZnPEh5YSZwis4p_0=", "properties": {"ref": "il-joliet-il", "@spider": "chickfila", "amenity": "fast_food", "cuisine": "chicken", "takeaway": "yes", "addr:street_address": "2705 Plainfield Rd", "addr:city": "Joliet", "addr:state": "IL", "addr:postcode": "60435", "addr:country": "US", "name": "Joliet (IL)", "website": "https://www.chick-fil-a.com/locations/il/joliet-il", "image": "https://www.chick-fil-a.com/-/media/images/cfacom/default-images/seo/history_freestanding.ashx", "brand": "Chick-Fil-A", "brand:wikidata": "Q491516", "nsi_id": "chickfila-4d2ff4"}, "geometry": {"type": "Point", "coordinates": [-88.156031, 41.576106]}},
{"type": "Feature", "id": "7WpWdYyGht91KXPW2bU1PJur4jM=", "properties": {"ref": "il-elgin-il", "@spider": "chickfila", "amenity": "fast_food", "cuisine": "chicken", "takeaway": "yes", "addr:street_address": "1110 S Randall Rd", "addr:city": "Elgin", "addr:state": "IL", "addr:postcode": "60123", "addr:country": "US", "name": "Elgin (IL)", "website": "https://www.chick-fil-a.com/locations/il/elgin-il", "image": "https://www.chick-fil-a.com/-/media/images/cfacom/default-images/seo/history_freestanding.ashx", "brand": "Chick-Fil-A", "brand:wikidata": "Q491516", "nsi_id": "chickfila-4d2ff4"}, "geometry": {"type": "Point", "coordinates": [-88.336931, 42.00458]}},
{"type": "Feature", "id": "bzubfLNoNCqFP_KWhrqvCCh5s1c=", "properties": {"ref": "il-bucktown-il", "@spider": "chickfila", "amenity": "fast_food", "cuisine": "chicken", "takeaway": "yes", "addr:street_address": "1910 W Fullerton Ave", "addr:city": "Chicago", "addr:state": "IL", "addr:postcode": "60614", "addr:country": "US", "name": "Bucktown (IL)", "website": "https://www.chick-fil-a.com/locations/il/bucktown-il", "image": "https://www.chick-fil-a.com/-/media/images/cfacom/default-images/seo/history_freestanding.ashx", "brand": "Chick-Fil-A", "brand:wikidata": "Q491516", "nsi_id": "chickfila-4d2ff4"}, "geometry": {"type": "Point", "coordinates": [-87.677508, 41.925821]}},
{"type": "Feature", "id": "3fLt8Z8zEUImNJLLTIW5r_uvDoc=", "properties": {"ref": "il-south-loop-il", "@spider": "chickfila", "amenity": "fast_food", "cuisine": "chicken", "takeaway": "yes", "addr:street_address": "1106 S Clinton St", "addr:city": "Chicago", "addr:state": "IL", "addr:postcode": "60607", "addr:country": "US", "name": "South Loop (IL)", "website": "https://www.chick-fil-a.com/locations/il/south-loop-il", "image": "https://www.chick-fil-a.com/-/media/images/cfacom/default-images/seo/history_freestanding.ashx", "brand": "Chick-Fil-A", "brand:wikidata": "Q491516", "nsi_id": "chickfila-4d2ff4"}, "geometry": {"type": "Point", "coordinates": [-87.641114, 41.868545]}},
{"type": "Feature", "id": "yLqo0P1IJ6-YDYc8iAqmSfmohiA=", "properties": {"ref": "il-ford-city-il", "@spider": "chickfila", "amenity": "fast_food", "cuisine": "chicken", "takeaway": "yes", "addr:street_address": "4733 W 76th St", "addr:city": "Chicago", "addr:state": "IL", "addr:postcode": "60652", "addr:country": "US", "name": "Ford City (IL)", "website": "https://www.chick-fil-a.com/locations/il/ford-city-il", "image": "https://www.chick-fil-a.com/-/media/images/cfacom/default-images/seo/history_freestanding.ashx", "brand": "Chick-Fil-A", "brand:wikidata": "Q491516", "nsi_id": "chickfila-4d2ff4"}, "geometry": {"type": "Point", "coordinates": [-87.740985, 41.754008]}},
{"type": "Feature", "id": "krrCgCm1AFNxdDAUa0h6rVGqnJ0=", "properties": {"ref": "il-chicago-union-station", "@spider": "chickfila", "amenity": "fast_food", "cuisine": "chicken", "takeaway": "yes", "addr:street_address": "225 S Canal St", "addr:city": "Chicago", "addr:state": "IL", "addr:postcode": "60606", "addr:country": "US", "name": "Chicago Union Station", "website": "https://www.chick-fil-a.com/locations/il/chicago-union-station", "image": "https://www.chick-fil-a.com/-/media/images/cfacom/default-images/seo/history_freestanding.ashx", "brand": "Chick-Fil-A", "brand:wikidata": "Q491516", "nsi_id": "chickfila-4d2ff4"}, "geometry": {"type": "Point", "coordinates": [-87.644, 41.88]}},
{"type": "Feature", "id": "wzUean1BIm2at084yhAq2DieA7w=", "properties": {"ref": "il-michigan-avenue-il-inline", "@spider": "chickfila", "amenity": "fast_food", "cuisine": "chicken", "takeaway": "yes", "addr:street_address": "500 N Michigan Ave Ste 140", "addr:city": "Chicago", "addr:state": "IL", "addr:postcode": "60611", "addr:country": "US", "name": "Michigan Avenue (IL) In-Line", "website": "https://www.chick-fil-a.com/locations/il/michigan-avenue-il-inline", "image": "https://www.chick-fil-a.com/-/media/images/cfacom/default-images/seo/history_freestanding.ashx", "brand": "Chick-Fil-A", "brand:wikidata": "Q491516", "nsi_id": "chickfila-4d2ff4"}, "geometry": {"type": "Point", "coordinates": [-87.6248064, 41.8910515]}},
{"type": "Feature", "id": "6nzwL4t4Z4NulYr2XZdtVJJonAQ=", "properties": {"ref": "il-norridge-il", "@spider": "chickfila", "amenity": "fast_food", "cuisine": "chicken", "takeaway": "yes", "addr:street_address": "4512 N Harlem Ave", "addr:city": "Norridge", "addr:state": "IL", "addr:postcode": "60706", "addr:country": "US", "name": "Norridge (IL)", "website": "https://www.chick-fil-a.com/locations/il/norridge-il", "image": "https://www.chick-fil-a.com/-/media/images/cfacom/default-images/seo/history_freestanding.ashx", "brand": "Chick-Fil-A", "brand:wikidata": "Q491516", "nsi_id": "chickfila-4d2ff4"}, "geometry": {"type": "Point", "coordinates": [-87.807608, 41.962563]}}]}