{"type":"FeatureCollection","features":[{"type": "Feature", "id": "VVY5Stv1hxAeZKuxtAkXe6RPZKQ=", "properties": {"ref": "245 Heritage Drive", "@spider": "childcare_network", "addr:full": "245 Heritage Drive", "addr:city": "Bristol", "addr:state": "Virginia", "addr:postcode": "24201", "addr:country": "US", "name": "Bristol Heritage Drive", "phone": "(276) 669-3223", "website": "https://schools.childcarenetwork.com/va/bristol/245-heritage-drive", "opening_hours": "6:00 AM"}, "geometry": {"type": "Point", "coordinates": [-82.1344757, 36.6236228]}},
{"type": "Feature", "id": "QDfZld-iUboHfiTJ5EyOCqsq3oI=", "properties": {"ref": "4300 John Tyler Memorial Hwy", "@spider": "childcare_network", "addr:full": "4300 John Tyler Memorial Hwy", "addr:city": "Williamsburg", "addr:state": "Virginia", "addr:postcode": "23185", "addr:country": "US", "name": "Williamsburg John Tyler Memorial Highway", "phone": "(757) 253-2574", "website": "https://schools.childcarenetwork.com/va/williamsburg/4300-john-tyler-memorial-hwy", "opening_hours": "6:30 AM"}, "geometry": {"type": "Point", "coordinates": [-76.77204271221638, 37.249909782256324]}},
{"type": "Feature", "id": "m2ilSn43WxIELjkOMBlHU9PJAsw=", "properties": {"ref": "8210 Walmsley Blvd", "@spider": "childcare_network", "addr:full": "8210 Walmsley Blvd", "addr:city": "Richmond", "addr:state": "Virginia", "addr:postcode": "23235", "addr:country": "US", "name": "Richmond Hull Street / Walmsley Boulevard", "phone": "(804) 276-0959", "website": "https://schools.childcarenetwork.com/va/richmond/8210-walmsley-blvd", "opening_hours": "6:30 AM"}, "geometry": {"type": "Point", "coordinates": [-77.54560680246561, 37.459702402305844]}},
{"type": "Feature", "id": "g_t0r2z716pEHO5-lLUvhggGhfQ=", "properties": {"ref": "6420 Westworth Blvd.", "@spider": "childcare_network", "addr:full": "6420 Westworth Blvd.", "addr:city": "Westworth Village", "addr:state": "Texas", "addr:postcode": "76114", "addr:country": "US", "name": "Westworth Village", "phone": "(817) 349-2941", "website": "https://schools.childcarenetwork.com/tx/westworth-village/6420-westworth-blvd", "opening_hours": "6:30 AM"}, "geometry": {"type": "Point", "coordinates": [-97.4262493, 32.7591096]}},
{"type": "Feature", "id": "Xzd10yAb2MP4_jUkXKX4NLPCs2w=", "properties": {"ref": "6637 Oaklawn Drive", "@spider": "childcare_network", "addr:full": "6637 Oaklawn Drive", "addr:city": "Watauga", "addr:state": "Texas", "addr:postcode": "76148", "addr:country": "US", "name": "Watauga Oaklawn Lane", "phone": "(817) 498-5437", "website": "https://schools.childcarenetwork.com/tx/watauga/6637-oaklawn-drive", "opening_hours": "6:00 AM"}, "geometry": {"type": "Point", "coordinates": [-97.23878688037394, 32.87041618216442]}},
{"type": "Feature", "id": "T_D-oZK5XDg2nMRm7scIKCWAe8g=", "properties": {"ref": "240 S Collins Road", "@spider": "childcare_network", "addr:full": "240 S Collins Road", "addr:city": "Sunnyvale", "addr:state": "Texas", "addr:postcode": "75182", "addr:country": "US", "name": "Sunnyvale S. Collins Road", "phone": "(972) 203-1999", "website": "https://schools.childcarenetwork.com/tx/sunnyvale/240-s-collins-road", "opening_hours": "6:30 AM"}, "geometry": {"type": "Point", "coordinates": [-96.567481, 32.777477]}},
{"type": "Feature", "id": "UMOLoVfcqC5D95zODZIR1JOjTuQ=", "properties": {"ref": "4095 Eldorado Pkwy", "@spider": "childcare_network", "addr:full": "4095 Eldorado Pkwy", "addr:city": "McKinney", "addr:state": "Texas", "addr:postcode": "75070", "addr:country": "US", "name": "McKinney Eldorado Parkway", "phone": "(972) 569-6996", "website": "https://schools.childcarenetwork.com/tx/mckinney/4095-eldorado-pkwy", "opening_hours": "6:00 AM"}, "geometry": {"type": "Point", "coordinates": [-96.67126962749512, 33.16750023150576]}},
{"type": "Feature", "id": "EFczmM3cvk2pyW4JsNXQmr-7bh8=", "properties": {"ref": "8419 Ooltewah Harrison Road", "@spider": "childcare_network", "addr:full": "8419 Ooltewah Harrison Road", "addr:city": "Ooltewah", "addr:state": "Tennessee", "addr:postcode": "37363", "addr:country": "US", "name": "Ooltewah Ooltewah Harrison Road", "phone": "(423) 708-5003", "website": "https://schools.childcarenetwork.com/tn/ooltewah/8419-ooltewah-harrison-road", "opening_hours": "6:00 AM"}, "geometry": {"type": "Point", "coordinates": [-85.08669384730814, 35.09001383456737]}},
{"type": "Feature", "id": "RSIfq9dM24vQF7kNT5neGoIdJYU=", "properties": {"ref": "3595 Reynolda Road", "@spider": "childcare_network", "addr:full": "3595 Reynolda Road", "addr:city": "Winston-Salem", "addr:state": "North Carolina", "addr:postcode": "27106", "addr:country": "US", "name": "Winston Salem Reynolda Road", "phone": "(336) 923-8698", "website": "https://schools.childcarenetwork.com/nc/winston-salem/3595-reynolda-road", "opening_hours": "6:30 AM"}, "geometry": {"type": "Point", "coordinates": [-80.31469227762733, 36.156145509484695]}},
{"type": "Feature", "id": "7Us0lY7-niL0_PuWm1JOyzGMnN0=", "properties": {"ref": "1748 Alysheba Way", "@spider": "childcare_network", "addr:full": "1748 Alysheba Way", "addr:city": "Lexington", "addr:state": "Kentucky", "addr:postcode": "40509", "addr:country": "US", "name": "Lexington Hamburg", "phone": "(859) 264-0544", "website": "https://schools.childcarenetwork.com/ky/lexington/1748-alysheba-way", "opening_hours": "6:00 AM"}, "geometry": {"type": "Point", "coordinates": [-84.42352921288011, 38.01443626424413]}},
{"type": "Feature", "id": "2r1J1umzXf28_3IgqQTriF6ELjM=", "properties": {"ref": "2001 Kia Blvd", "@spider": "childcare_network", "addr:full": "2001 Kia Blvd", "addr:city": "West Point", "addr:state": "Georgia", "addr:postcode": "31833", "addr:country": "US", "name": "West Point Kia Boulevard", "phone": "(706) 225-5262", "website": "https://schools.childcarenetwork.com/ga/west-point/2001-kia-blvd", "opening_hours": "6:00 AM"}, "geometry": {"type": "Point", "coordinates": [-85.11684, 32.931254]}},
{"type": "Feature", "id": "jryZ7gfvaWFUz_v1B5_1tt__fEc=", "properties": {"ref": "412 Government Street", "@spider": "childcare_network", "addr:full": "412 Government Street", "addr:city": "Valparaiso", "addr:state": "Florida", "addr:postcode": "32580", "addr:country": "US", "name": "Valparaiso Government Street", "phone": "(850) 678-8290", "website": "https://schools.childcarenetwork.com/fl/valparaiso/412-government-street", "opening_hours": "6:15 AM"}, "geometry": {"type": "Point", "coordinates": [-86.50746516172626, 30.51633844900436]}},
{"type": "Feature", "id": "h6vcF56vgpRDJlRiGtNzRumOBiE=", "properties": {"ref": "104 Country Club Parkway", "@spider": "childcare_network", "addr:full": "104 Country Club Parkway", "addr:city": "Maumelle", "addr:state": "Arkansas", "addr:postcode": "72113", "addr:country": "US", "name": "Maumelle Country Club Parkway", "phone": "(501) 391-1359", "website": "https://schools.childcarenetwork.com/ar/maumelle/104-country-club-parkway", "opening_hours": "6:00 AM"}, "geometry": {"type": "Point", "coordinates": [-92.40182500491085, 34.84078273606484]}},
{"type": "Feature", "id": "RuvcL0Fw0idKHmymNTfNSsTmVXs=", "properties": {"ref": "702 Second Avenue", "@spider": "childcare_network", "addr:full": "702 Second Avenue", "addr:city": "Opelika", "addr:state": "Alabama", "addr:postcode": "36801", "addr:country": "US", "name": "Opelika Second Avenue", "phone": "(334) 749-9631", "website": "https://schools.childcarenetwork.com/al/opelika/702-second-avenue", "opening_hours": "6:00 AM"}, "geometry": {"type": "Point", "coordinates": [-85.38079740659083, 32.65087836176244]}},
{"type": "Feature", "id": "WliXSIS0s-0USRymW_0aM-WN_eA=", "properties": {"ref": "6210 Robinhood Lane", "@spider": "childcare_network", "addr:full": "6210 Robinhood Lane", "addr:city": "Huntsville", "addr:state": "Alabama", "addr:postcode": "35806", "addr:country": "US", "name": "Huntsville Robinhood Lane", "phone": "(256) 837-5859", "website": "https://schools.childcarenetwork.com/al/huntsville/6210-robinhood-lane", "opening_hours": "6:00 AM"}, "geometry": {"type": "Point", "coordinates": [-86.6579862975359, 34.713930937796015]}},
{"type": "Feature", "id": "MaObIc3FNcmluKKqtbcfNnIoI1w=", "properties": {"ref": "950 Rainbow Drive", "@spider": "childcare_network", "addr:full": "950 Rainbow Drive", "addr:city": "Gadsden", "addr:state": "Alabama", "addr:postcode": "35901", "addr:country": "US", "name": "Gadsden Rainbow Drive", "phone": "(256) 547-7729", "website": "https://schools.childcarenetwork.com/al/gadsden/950-rainbow-drive", "opening_hours": "6:30 AM"}, "geometry": {"type": "Point", "coordinates": [-86.00316274049283, 33.998251098457104]}},
{"type": "Feature", "id": "t6SRR542XuqXwxBiRqZn45_ygzQ=", "properties": {"ref": "1425 Hillyer Robinson Ind Pkwy", "@spider": "childcare_network", "addr:full": "1425 Hillyer Robinson Ind Pkwy", "addr:city": "Anniston", "addr:state": "Alabama", "addr:postcode": "36207", "addr:country": "US", "name": "Anniston Hillyer Robinson Industrial Pkwy", "phone": "(256) 831-9746", "website": "https://schools.childcarenetwork.com/al/anniston/1425-hillyer-robinson-ind-pkwy", "opening_hours": "6:30 AM"}, "geometry": {"type": "Point", "coordinates": [-85.8092678423452, 33.62699548310101]}},
{"type": "Feature", "id": "87VVKNwf6q-rGazINmetRQH3Plo=", "properties": {"ref": "7 Tyler St", "@spider": "childcare_network", "addr:full": "7 Tyler St", "addr:city": "Greenbrier", "addr:state": "Arkansas", "addr:postcode": "72058", "addr:country": "US", "name": "Greenbrier Tyler Street", "phone": "(501) 679-5323", "website": "https://schools.childcarenetwork.com/ar/greenbrier/7-tyler-st", "opening_hours": "5:45 AM"}, "geometry": {"type": "Point", "coordinates": [-92.3867311732497, 35.211024480220324]}},
{"type": "Feature", "id": "Uoy1trwVRPZKUeDN5k_kalUhtJg=", "properties": {"ref": "952 Lord Dunmore Drive", "@spider": "childcare_network", "addr:full": "952 Lord Dunmore Drive", "addr:city": "Virginia Beach", "addr:state": "Virginia", "addr:postcode": "23464", "addr:country": "US", "name": "Virginia Beach Lord Dunmore Drive", "phone": "(866) 521-5437", "website": "https://schools.childcarenetwork.com/va/virginia-beach/952-lord-dunmore-drive", "opening_hours": "6:00 AM"}, "geometry": {"type": "Point", "coordinates": [-76.1701475, 36.8120906]}},
{"type": "Feature", "id": "4nxcdDqs0S2Oi1JZMQ0uLOC_-NE=", "properties": {"ref": "5220 Starkey Road, S.W.", "@spider": "childcare_network", "addr:full": "5220 Starkey Road, S.W.", "addr:city": "Roanoke", "addr:state": "Virginia", "addr:postcode": "24018", "addr:country": "US", "name": "Roanoke Starkey Road S.W.", "phone": "(540) 774-2547", "website": "https://schools.childcarenetwork.com/va/roanoke/5220-starkey-road-sw", "opening_hours": "6:30 AM"}, "geometry": {"type": "Point", "coordinates": [-79.9857560922953, 37.2122534497599]}},
{"type": "Feature", "id": "fZevnfUIcfMTtNyTVudbqlZkzek=", "properties": {"ref": "4225 Brambleton Avenue", "@spider": "childcare_network", "addr:full": "4225 Brambleton Avenue", "addr:city": "Roanoke", "addr:state": "Virginia", "addr:postcode": "24018", "addr:country": "US", "name": "Roanoke Brambleton Ave", "phone": "(540) 989-3459", "website": "https://schools.childcarenetwork.com/va/roanoke/4225-brambleton-avenue", "opening_hours": "6:30 AM"}, "geometry": {"type": "Point", "coordinates": [-80.01043580183506, 37.22813340494646]}},
{"type": "Feature", "id": "qidHS9D9KeKUpzg-YPoIaoUbphw=", "properties": {"ref": "1056 Ferry Plantation", "@spider": "childcare_network", "addr:full": "1056 Ferry Plantation", "addr:city": "Virginia Beach", "addr:state": "Virginia", "addr:postcode": "23455", "addr:country": "US", "name": "Virginia Beach Ferry Plantation Road", "phone": "(757) 464-0182", "website": "https://schools.childcarenetwork.com/va/virginia-beach/1056-ferry-plantation", "opening_hours": "6:00 AM"}, "geometry": {"type": "Point", "coordinates": [-76.13758361532689, 36.872129960142786]}},
{"type": "Feature", "id": "FoLLigfc-4-XEPzwTPoResUcm-Q=", "properties": {"ref": "7901 NW 85th Terrace", "@spider": "childcare_network", "addr:full": "7901 NW 85th Terrace", "addr:city": "Oklahoma City", "addr:state": "Oklahoma", "addr:postcode": "73132", "addr:country": "US", "name": "Oklahoma City NW Expressway", "phone": "(405) 621-9070", "website": "https://schools.childcarenetwork.com/ok/oklahoma-city/7901-nw-85th-terrace", "opening_hours": "6:30 AM"}, "geometry": {"type": "Point", "coordinates": [-97.65482095608792, 35.558989038743455]}},
{"type": "Feature", "id": "GzYIDgcul9VD8p9CMJAzlyAe-m8=", "properties": {"ref": "4500 East I-240 Service Road", "@spider": "childcare_network", "addr:full": "4500 East I-240 Service Road", "addr:city": "Oklahoma City", "addr:state": "Oklahoma", "addr:postcode": "73135", "addr:country": "US", "name": "Oklahoma City I-240 Service Road", "phone": "(405) 672-2989", "website": "https://schools.childcarenetwork.com/ok/oklahoma-city/4500-east-i-240-service-road", "opening_hours": "6:00 AM"}, "geometry": {"type": "Point", "coordinates": [-97.43767323619363, 35.38994453346076]}},
{"type": "Feature", "id": "yQVLtf0hhO2ymLMieQnr_0ZxEjo=", "properties": {"ref": "3232 NW 150th Street", "@spider": "childcare_network", "addr:full": "3232 NW 150th Street", "addr:city": "Oklahoma City", "addr:state": "Oklahoma", "addr:postcode": "73134", "addr:country": "US", "name": "Oklahoma City NW 150th Street", "phone": "(405) 752-0221", "website": "https://schools.childcarenetwork.com/ok/oklahoma-city/3232-nw-150th-street", "opening_hours": "6:30 AM"}, "geometry": {"type": "Point", "coordinates": [-97.57540602781239, 35.623194784868716]}},
{"type": "Feature", "id": "MazSMNeJpg2i03GJxdzRGTAmVos=", "properties": {"ref": "1050 SW Grand Blvd", "@spider": "childcare_network", "addr:full": "1050 SW Grand Blvd", "addr:city": "Oklahoma City", "addr:state": "Oklahoma", "addr:postcode": "73109", "addr:country": "US", "name": "Oklahoma City SW Grand Boulevard", "phone": "(405) 634-1260", "website": "https://schools.childcarenetwork.com/ok/oklahoma-city/1050-sw-grand-blvd", "opening_hours": "6:00 AM"}, "geometry": {"type": "Point", "coordinates": [-97.5338252342147, 35.42749009728839]}},
{"type": "Feature", "id": "CmdKZ5EJ8ZIz5e7pSZPSEGNQHZ8=", "properties": {"ref": "2101 5th Street South", "@spider": "childcare_network", "addr:full": "2101 5th Street South", "addr:city": "Phenix City", "addr:state": "Alabama", "addr:postcode": "36869", "addr:country": "US", "name": "Phenix City 5th St South", "phone": "(334) 291-9348", "website": "https://schools.childcarenetwork.com/al/phenix-city/2101-5th-street-south", "opening_hours": "6:30 AM"}, "geometry": {"type": "Point", "coordinates": [-85.02534416827973, 32.437404628756276]}},
{"type": "Feature", "id": "1GpqeuHEP-hI3gE-OXimbw5Vz-k=", "properties": {"ref": "1008 Gateway Drive", "@spider": "childcare_network", "addr:full": "1008 Gateway Drive", "addr:city": "Phenix City", "addr:state": "Alabama", "addr:postcode": "36869", "addr:country": "US", "name": "Phenix City Gateway Drive", "phone": "(334) 214-5273", "website": "https://schools.childcarenetwork.com/al/phenix-city/1008-gateway-drive", "opening_hours": "5:30 AM"}, "geometry": {"type": "Point", "coordinates": [-85.02556308851064, 32.43302770237288]}},
{"type": "Feature", "id": "b6OZNoOqMNq-UK9oSfEmHpJvGrY=", "properties": {"ref": "800 Kirk Road", "@spider": "childcare_network", "addr:full": "800 Kirk Road", "addr:city": "Little Rock", "addr:state": "Arkansas", "addr:postcode": "72223", "addr:country": "US", "name": "Little Rock Chenal Parkway", "phone": "(501) 821-2029", "website": "https://schools.childcarenetwork.com/ar/little-rock/800-kirk-road", "opening_hours": "6:30 AM"}, "geometry": {"type": "Point", "coordinates": [-92.4515914, 34.7614402]}},
{"type": "Feature", "id": "QeP-Cbeymeaa8-vo3Hyd7p4c4P4=", "properties": {"ref": "306 North Shackleford Road", "@spider": "childcare_network", "addr:full": "306 North Shackleford Road", "addr:city": "Little Rock", "addr:state": "Arkansas", "addr:postcode": "72211", "addr:country": "US", "name": "Little Rock N. Shackleford Road", "phone": "(501) 224-0978", "website": "https://schools.childcarenetwork.com/ar/little-rock/306-north-shackleford-road", "opening_hours": "6:30 AM"}, "geometry": {"type": "Point", "coordinates": [-92.39431040798661, 34.75729873089155]}},
{"type": "Feature", "id": "TG0QIXpQL4Q9JG3TynmOIOkDMvg=", "properties": {"ref": "2611 Prince Street", "@spider": "childcare_network", "addr:full": "2611 Prince Street", "addr:city": "Conway", "addr:state": "Arkansas", "addr:postcode": "72034", "addr:country": "US", "name": "Conway Prince Street", "phone": "(501) 336-8881", "website": "https://schools.childcarenetwork.com/ar/conway/2611-prince-street", "opening_hours": "6:00 AM"}, "geometry": {"type": "Point", "coordinates": [-92.46651973149216, 35.09142753467681]}},
{"type": "Feature", "id": "T_1w0s2qi9YBq-Wo4QzjCbklB5A=", "properties": {"ref": "507 Prickett Road", "@spider": "childcare_network", "addr:full": "507 Prickett Road", "addr:city": "Bryant", "addr:state": "Arkansas", "addr:postcode": "72022", "addr:country": "US", "name": "Bryant Prickett Road", "phone": "(501) 847-4491", "website": "https://schools.childcarenetwork.com/ar/bryant/507-prickett-road", "opening_hours": "6:30 AM"}, "geometry": {"type": "Point", "coordinates": [-92.49945147937774, 34.61051605052511]}},
{"type": "Feature", "id": "MQB5QtgUxam1ttYz6s8oQxLfAsw=", "properties": {"ref": "408 S Reynolds Road", "@spider": "childcare_network", "addr:full": "408 S Reynolds Road", "addr:city": "Bryant", "addr:state": "Arkansas", "addr:postcode": "72022", "addr:country": "US", "name": "Bryant S. Reynolds Road", "phone": "(501) 847-5400", "website": "https://schools.childcarenetwork.com/ar/bryant/408-s-reynolds-road", "opening_hours": "6:00 AM"}, "geometry": {"type": "Point", "coordinates": [-92.49075642822237, 34.59101370811851]}},
{"type": "Feature", "id": "ZxtvXORYw3qHXYNNls7RKA8n1Z4=", "properties": {"ref": "2618 N.Prickett Road", "@spider": "childcare_network", "addr:full": "2618 N.Prickett Road", "addr:city": "Bryant", "addr:state": "Arkansas", "addr:postcode": "72022", "addr:country": "US", "name": "Bryant N. Prickett Road", "phone": "(501) 847-4498", "website": "https://schools.childcarenetwork.com/ar/bryant/2618-nprickett-road", "opening_hours": "6:00 AM"}, "geometry": {"type": "Point", "coordinates": [-92.50655550983907, 34.61893624240562]}},
{"type": "Feature", "id": "xc-zfTuOaWKWfmx1D3k_xi0roag=", "properties": {"ref": "1150 Highway 365 S", "@spider": "childcare_network", "addr:full": "1150 Highway 365 S", "addr:city": "Conway", "addr:state": "Arkansas", "addr:postcode": "72032", "addr:country": "US", "name": "Conway Highway 365", "phone": "(501) 328-5075", "website": "https://schools.childcarenetwork.com/ar/conway/1150-highway-365-s", "opening_hours": "6:30 AM"}, "geometry": {"type": "Point", "coordinates": [-92.4263112186535, 35.0631088508238]}},
{"type": "Feature", "id": "GXNXIZn4TXgeaIjH8g5fHjSU8Xs=", "properties": {"ref": "10700 Kanis Road", "@spider": "childcare_network", "addr:full": "10700 Kanis Road", "addr:city": "Little Rock", "addr:state": "Arkansas", "addr:postcode": "72211", "addr:country": "US", "name": "Little Rock Farm Bureau", "phone": "(501) 223-3337", "website": "https://schools.childcarenetwork.com/ar/little-rock/10700-kanis-road", "opening_hours": "6:30 AM"}, "geometry": {"type": "Point", "coordinates": [-92.39216201165675, 34.7435426855513]}},
{"type": "Feature", "id": "2PuWrgXz9Mx3yTcpZEYvb9dykJQ=", "properties": {"ref": "6093 Alcoa Road", "@spider": "childcare_network", "addr:full": "6093 Alcoa Road", "addr:city": "Benton", "addr:state": "Arkansas", "addr:postcode": "72015", "addr:country": "US", "name": "Benton Alcoa Road", "phone": "(501) 315-5500", "website": "https://schools.childcarenetwork.com/ar/benton/6093-alcoa-road", "opening_hours": "6:00 AM"}, "geometry": {"type": "Point", "coordinates": [-92.53441424873148, 34.590559338579034]}},
{"type": "Feature", "id": "cGe_T79IQx2ciTa5RIbU8vXMzzw=", "properties": {"ref": "2881 East Park Avenue", "@spider": "childcare_network", "addr:full": "2881 East Park Avenue", "addr:city": "Tallahassee", "addr:state": "Florida", "addr:postcode": "32301", "addr:country": "US", "name": "Tallahassee East Park Avenue", "phone": "(850) 877-7729", "website": "https://schools.childcarenetwork.com/fl/tallahassee/2881-east-park-avenue", "opening_hours": "6:30 AM"}, "geometry": {"type": "Point", "coordinates": [-84.22959381948817, 30.440803190850442]}},
{"type": "Feature", "id": "fGGwPXXM2hRBoGKPxzDkzgGEHJA=", "properties": {"ref": "9441 Bowman Avenue", "@spider": "childcare_network", "addr:full": "9441 Bowman Avenue", "addr:city": "Pensacola", "addr:state": "Florida", "addr:postcode": "32534", "addr:country": "US", "name": "Pensacola Bowman Avenue", "phone": "(850) 477-9508", "website": "https://schools.childcarenetwork.com/fl/pensacola/9441-bowman-avenue", "opening_hours": "6:00 AM"}, "geometry": {"type": "Point", "coordinates": [-87.29257606440069, 30.53485316871325]}},
{"type": "Feature", "id": "g_bcvcQtFdlRfSULw_qBfomceOM=", "properties": {"ref": "7525 West Fairfield Drive", "@spider": "childcare_network", "addr:full": "7525 West Fairfield Drive", "addr:city": "Pensacola", "addr:state": "Florida", "addr:postcode": "32506", "addr:country": "US", "name": "Pensacola West Fairfield Drive", "phone": "(850) 455-3096", "website": "https://schools.childcarenetwork.com/fl/pensacola/7525-west-fairfield-drive", "opening_hours": "6:00 AM"}, "geometry": {"type": "Point", "coordinates": [-87.31170623867513, 30.427645781967094]}},
{"type": "Feature", "id": "flwcxu4oG7ww348wwRE5zg4JcDg=", "properties": {"ref": "4079 Creighton Road", "@spider": "childcare_network", "addr:full": "4079 Creighton Road", "addr:city": "Pensacola", "addr:state": "Florida", "addr:postcode": "32504", "addr:country": "US", "name": "Pensacola Creighton Road", "phone": "(850) 477-1451", "website": "https://schools.childcarenetwork.com/fl/pensacola/4079-creighton-road", "opening_hours": "6:00 AM"}, "geometry": {"type": "Point", "coordinates": [-87.16867596646682, 30.49568955011295]}},
{"type": "Feature", "id": "5w5nRLvZbvnPaFDrCMOCbGFM0n0=", "properties": {"ref": "2623 W Michigan Avenue", "@spider": "childcare_network", "addr:full": "2623 W Michigan Avenue", "addr:city": "Pensacola", "addr:state": "Florida", "addr:postcode": "32526", "addr:country": "US", "name": "Pensacola Michigan Avenue", "phone": "(850) 944-5491", "website": "https://schools.childcarenetwork.com/fl/pensacola/2623-w-michigan-avenue", "opening_hours": "6:00 AM"}, "geometry": {"type": "Point", "coordinates": [-87.2865302631426, 30.46033144777154]}},
{"type": "Feature", "id": "KLkjfQNS_mvkieBB4ZB9vVb-sfE=", "properties": {"ref": "5705 Hickory Street", "@spider": "childcare_network", "addr:full": "5705 Hickory Street", "addr:city": "Panama City", "addr:state": "Florida", "addr:postcode": "32404", "addr:country": "US", "name": "Panama City Hickory Street", "phone": "(850) 785-5732", "website": "https://schools.childcarenetwork.com/fl/panama-city/5705-hickory-street", "opening_hours": "6:00 AM"}, "geometry": {"type": "Point", "coordinates": [-85.58965603497029, 30.13873811863963]}},
{"type": "Feature", "id": "MC-_t6iT55QJcLVJZbXPsnaOsWg=", "properties": {"ref": "1967 Raymond Diehl Road", "@spider": "childcare_network", "addr:full": "1967 Raymond Diehl Road", "addr:city": "Tallahassee", "addr:state": "Florida", "addr:postcode": "32308", "addr:country": "US", "name": "Tallahassee Raymond Diehl Road", "phone": "(850) 385-0553", "website": "https://schools.childcarenetwork.com/fl/tallahassee/1967-raymond-diehl-road", "opening_hours": "6:30 AM"}, "geometry": {"type": "Point", "coordinates": [-84.24424307520991, 30.49970339526479]}},
{"type": "Feature", "id": "5I3UPWXDpxQcQ-eeDfqybR6WOW8=", "properties": {"ref": "6 Medical Park Drive", "@spider": "childcare_network", "addr:full": "6 Medical Park Drive", "addr:city": "Benton", "addr:state": "Arkansas", "addr:postcode": "72015", "addr:country": "US", "name": "Benton Saline Memorial Hospital", "phone": "(501) 776-1988", "website": "https://schools.childcarenetwork.com/ar/benton/6-medical-park-drive", "opening_hours": "6:00 AM"}, "geometry": {"type": "Point", "coordinates": [-92.584008, 34.5750306]}},
{"type": "Feature", "id": "H4aKzFy0FAMT8zNiCVaAB9gKvq4=", "properties": {"ref": "1883 Granada Street", "@spider": "childcare_network", "addr:full": "1883 Granada Street", "addr:city": "Navarre", "addr:state": "Florida", "addr:postcode": "32566", "addr:country": "US", "name": "Navarre Granada Street", "phone": "(850) 936-9700", "website": "https://schools.childcarenetwork.com/fl/navarre/1883-granada-street", "opening_hours": "6:00 AM"}, "geometry": {"type": "Point", "coordinates": [-86.86361714293957, 30.404745036643092]}},
{"type": "Feature", "id": "Fe0UrKSWcF2NH7TojIomvGoqrIc=", "properties": {"ref": "916 West 26th Street", "@spider": "childcare_network", "addr:full": "916 West 26th Street", "addr:city": "Lynn Haven", "addr:state": "Florida", "addr:postcode": "32444", "addr:country": "US", "name": "Lynn Haven W. 26th Street", "phone": "(850) 265-1509", "website": "https://schools.childcarenetwork.com/fl/lynn-haven/916-west-26th-street", "opening_hours": "6:00 AM"}, "geometry": {"type": "Point", "coordinates": [-85.65973659669407, 30.21911258116286]}},
{"type": "Feature", "id": "zglqghaVc4qSZ57KYZcPP3mhfW0=", "properties": {"ref": "1269 Oriole Beach Road", "@spider": "childcare_network", "addr:full": "1269 Oriole Beach Road", "addr:city": "Gulf Breeze", "addr:state": "Florida", "addr:postcode": "32563", "addr:country": "US", "name": "Gulf Breeze Oriole Beach Road", "phone": "(850) 932-1669", "website": "https://schools.childcarenetwork.com/fl/gulf-breeze/1269-oriole-beach-road", "opening_hours": "6:00 AM"}, "geometry": {"type": "Point", "coordinates": [-87.0953644, 30.3842873]}},
{"type": "Feature", "id": "24i7josnzzhIPEw63AzA29aPagk=", "properties": {"ref": "108 Jet Drive", "@spider": "childcare_network", "addr:full": "108 Jet Drive", "addr:city": "Fort Walton Beach", "addr:state": "Florida", "addr:postcode": "32548", "addr:country": "US", "name": "Ft. Walton Beach Jet Drive", "phone": "(850) 244-0777", "website": "https://schools.childcarenetwork.com/fl/fort-walton-beach/108-jet-drive", "opening_hours": "6:00 AM"}, "geometry": {"type": "Point", "coordinates": [-86.62057870702347, 30.414103229605978]}},
{"type": "Feature", "id": "AGUYhaEokx6FKq3NjGIMjYlK_WQ=", "properties": {"ref": "502 Benning Drive", "@spider": "childcare_network", "addr:full": "502 Benning Drive", "addr:city": "Destin", "addr:state": "Florida", "addr:postcode": "32541", "addr:country": "US", "name": "Destin Benning Drive", "phone": "(850) 837-4004", "website": "https://schools.childcarenetwork.com/fl/destin/502-benning-drive", "opening_hours": "6:15 AM"}, "geometry": {"type": "Point", "coordinates": [-86.49469239078996, 30.402587834532934]}},
{"type": "Feature", "id": "Ce73U0Aro3NidgBGddKXoMmR5c0=", "properties": {"ref": "79 South 20th Street", "@spider": "childcare_network", "addr:full": "79 South 20th Street", "addr:city": "Defuniak Springs", "addr:state": "Florida", "addr:postcode": "32433", "addr:country": "US", "name": "DeFuniak Springs S. 20th Street", "phone": "(850) 635-0581", "website": "https://schools.childcarenetwork.com/fl/defuniak-springs/79-south-20th-street", "opening_hours": "6:30 AM"}, "geometry": {"type": "Point", "coordinates": [-86.1257726, 30.7237772]}},
{"type": "Feature", "id": "H0mD74vHS-KVCpmGpTpgn5C3DaA=", "properties": {"ref": "2523 Military Road", "@spider": "childcare_network", "addr:full": "2523 Military Road", "addr:city": "Benton", "addr:state": "Arkansas", "addr:postcode": "72015", "addr:country": "US", "name": "Benton Military Road", "phone": "(501) 315-2221", "website": "https://schools.childcarenetwork.com/ar/benton/2523-military-road", "opening_hours": "6:00 AM"}, "geometry": {"type": "Point", "coordinates": [-92.56153787177561, 34.587419684885745]}},
{"type": "Feature", "id": "utLQt_ordBOKbKr0h73ksVpDypQ=", "properties": {"ref": "9315 Conners Road", "@spider": "childcare_network", "addr:full": "9315 Conners Road", "addr:city": "Villa Rica", "addr:state": "Georgia", "addr:postcode": "30180", "addr:country": "US", "name": "Villa Rica Corners Road", "phone": "(770) 456-0777", "website": "https://schools.childcarenetwork.com/ga/villa-rica/9315-conners-road", "opening_hours": "6:00 AM"}, "geometry": {"type": "Point", "coordinates": [-84.8800409, 33.7350384]}},
{"type": "Feature", "id": "WBVif55F90j4mOtYgqoOg_uq2_s=", "properties": {"ref": "3895 Flat Shoals Road", "@spider": "childcare_network", "addr:full": "3895 Flat Shoals Road", "addr:city": "Union City", "addr:state": "Georgia", "addr:postcode": "30291", "addr:country": "US", "name": "Union City Flat Shoals Road", "phone": "(770) 964-8236", "website": "https://schools.childcarenetwork.com/ga/union-city/3895-flat-shoals-road", "opening_hours": "6:30 AM"}, "geometry": {"type": "Point", "coordinates": [-84.5168450435686, 33.58724705335096]}},
{"type": "Feature", "id": "zfbKX3GnNfmmU_1Y_7gNytbS9Ww=", "properties": {"ref": "1612 Sharon Road", "@spider": "childcare_network", "addr:full": "1612 Sharon Road", "addr:city": "Benton", "addr:state": "Arkansas", "addr:postcode": "72019", "addr:country": "US", "name": "Benton Sharon Road", "phone": "(501) 315-2220", "website": "https://schools.childcarenetwork.com/ar/benton/1612-sharon-road", "opening_hours": "6:00 AM"}, "geometry": {"type": "Point", "coordinates": [-92.58683104968549, 34.579357853952864]}},
{"type": "Feature", "id": "VJU2jmhdJfo-Wc3C47IztynYGZc=", "properties": {"ref": "700 Flippen Road", "@spider": "childcare_network", "addr:full": "700 Flippen Road", "addr:city": "Stockbridge", "addr:state": "Georgia", "addr:postcode": "30281", "addr:country": "US", "name": "Stockbridge Flippen Road", "phone": "(770) 474-5844", "website": "https://schools.childcarenetwork.com/ga/stockbridge/700-flippen-road", "opening_hours": "6:30 AM"}, "geometry": {"type": "Point", "coordinates": [-84.2476348104334, 33.53002778382361]}},
{"type": "Feature", "id": "PoqthHCrYE4LsutDB1PBE3uUzkU=", "properties": {"ref": "6048 West Fayetteville Road", "@spider": "childcare_network", "addr:full": "6048 West Fayetteville Road", "addr:city": "Riverdale", "addr:state": "Georgia", "addr:postcode": "30349", "addr:country": "US", "name": "College Park W. Fayetteville Road", "phone": "(770) 996-1634", "website": "https://schools.childcarenetwork.com/ga/riverdale/6048-west-fayetteville-road", "opening_hours": "6:30 AM"}, "geometry": {"type": "Point", "coordinates": [-84.44679285706042, 33.59003632170551]}},
{"type": "Feature", "id": "kQZ5CDvkD63-VRaDfzi9B4NLSjs=", "properties": {"ref": "5531 Hwy 41 North", "@spider": "childcare_network", "addr:full": "5531 Hwy 41 North", "addr:city": "Ringgold", "addr:state": "Georgia", "addr:postcode": "30736", "addr:country": "US", "name": "Ringgold Highway 41", "phone": "(706) 516-1326", "website": "https://schools.childcarenetwork.com/ga/ringgold/5531-hwy-41-north", "opening_hours": "6:30 AM"}, "geometry": {"type": "Point", "coordinates": [-85.13720828318782, 34.934293364495275]}},
{"type": "Feature", "id": "De_A2-pq0KPpx_5JaTgrSaGYffE=", "properties": {"ref": "106 Westside Blvd", "@spider": "childcare_network", "addr:full": "106 Westside Blvd", "addr:city": "Pooler", "addr:state": "Georgia", "addr:postcode": "31322", "addr:country": "US", "name": "Pooler Westside Boulevard", "phone": "(912) 330-6507", "website": "https://schools.childcarenetwork.com/ga/pooler/106-westside-blvd", "opening_hours": "6:30 AM"}, "geometry": {"type": "Point", "coordinates": [-81.22340751225107, 32.10351015989712]}},
{"type": "Feature", "id": "8IsECGzEer2P-6BkeaTOiDUR_kg=", "properties": {"ref": "2374 Beaver Ruin Road", "@spider": "childcare_network", "addr:full": "2374 Beaver Ruin Road", "addr:city": "Norcross", "addr:state": "Georgia", "addr:postcode": "30071", "addr:country": "US", "name": "Norcross Beaver Ruin Road", "phone": "(770) 662-3008", "website": "https://schools.childcarenetwork.com/ga/norcross/2374-beaver-ruin-road", "opening_hours": "6:30 AM"}, "geometry": {"type": "Point", "coordinates": [-84.1925321, 33.939962]}},
{"type": "Feature", "id": "Cw1vFTNkI4JZW3Cy1DcQOqLMDPc=", "properties": {"ref": "4798 Live Oak Church Road", "@spider": "childcare_network", "addr:full": "4798 Live Oak Church Road", "addr:city": "Crestview", "addr:state": "Florida", "addr:postcode": "32539", "addr:country": "US", "name": "Crestview Live Oak Church Road", "phone": "(850) 634-0700", "website": "https://schools.childcarenetwork.com/fl/crestview/4798-live-oak-church-road", "opening_hours": "6:00 AM"}, "geometry": {"type": "Point", "coordinates": [-86.5646975, 30.7223822]}},
{"type": "Feature", "id": "hxIQecH2s_pxk14f61CFF_UA3-U=", "properties": {"ref": "405 Brookemeade Drive", "@spider": "childcare_network", "addr:full": "405 Brookemeade Drive", "addr:city": "Crestview", "addr:state": "Florida", "addr:postcode": "32539", "addr:country": "US", "name": "Crestview Brookemeade Drive", "phone": "(850) 398-8800", "website": "https://schools.childcarenetwork.com/fl/crestview/405-brookemeade-drive", "opening_hours": "6:00 AM"}, "geometry": {"type": "Point", "coordinates": [-86.55908594783307, 30.739653041059533]}},
{"type": "Feature", "id": "jB5uRCar-EvxC9BBR2OaPeIab6g=", "properties": {"ref": "2526 Moody Road", "@spider": "childcare_network", "addr:full": "2526 Moody Road", "addr:city": "Warner Robins", "addr:state": "Georgia", "addr:postcode": "31088", "addr:country": "US", "name": "Warner Robins Moody Road", "phone": "(478) 922-7572", "website": "https://schools.childcarenetwork.com/ga/warner-robins/2526-moody-road", "opening_hours": "6:30 AM"}, "geometry": {"type": "Point", "coordinates": [-83.6229692533903, 32.57551504100349]}},
{"type": "Feature", "id": "TW--h1pAe-KIQlWRxaEMgXU4Wmg=", "properties": {"ref": "209 Corder Road", "@spider": "childcare_network", "addr:full": "209 Corder Road", "addr:city": "Warner Robins", "addr:state": "Georgia", "addr:postcode": "31088", "addr:country": "US", "name": "Warner Robins Corder Road", "phone": "(478) 922-9918", "website": "https://schools.childcarenetwork.com/ga/warner-robins/209-corder-road", "opening_hours": "6:00 AM"}, "geometry": {"type": "Point", "coordinates": [-83.647244781003, 32.61547459495486]}},
{"type": "Feature", "id": "1sr9WBpAAbVnrk_cHQv9dbSe65o=", "properties": {"ref": "519 St. Augustine Road", "@spider": "childcare_network", "addr:full": "519 St. Augustine Road", "addr:city": "Valdosta", "addr:state": "Georgia", "addr:postcode": "31601", "addr:country": "US", "name": "Valdosta St. Augustine Road", "phone": "(229) 242-7089", "website": "https://schools.childcarenetwork.com/ga/valdosta/519-st-augustine-road", "opening_hours": "6:00 AM"}, "geometry": {"type": "Point", "coordinates": [-83.31373099694156, 30.834667272295146]}},
{"type": "Feature", "id": "AQUZN0XV7_MZ5gk2bcK-UgaeQXw=", "properties": {"ref": "424 Connell Road", "@spider": "childcare_network", "addr:full": "424 Connell Road", "addr:city": "Valdosta", "addr:state": "Georgia", "addr:postcode": "31602", "addr:country": "US", "name": "Valdosta Connell Road", "phone": "(229) 247-7230", "website": "https://schools.childcarenetwork.com/ga/valdosta/424-connell-road", "opening_hours": "6:00 AM"}, "geometry": {"type": "Point", "coordinates": [-83.27998693277436, 30.874695571078494]}},
{"type": "Feature", "id": "TsnBzBmC0-HKXIPQh_GjB6KCmF8=", "properties": {"ref": "3584 Mt Zion Church Road", "@spider": "childcare_network", "addr:full": "3584 Mt Zion Church Road", "addr:city": "Valdosta", "addr:state": "Georgia", "addr:postcode": "31605", "addr:country": "US", "name": "Valdosta Mt. Zion Church Road", "phone": "(229) 242-1895", "website": "https://schools.childcarenetwork.com/ga/valdosta/3584-mt-zion-church-road", "opening_hours": "6:00 AM"}, "geometry": {"type": "Point", "coordinates": [-83.26149848404407, 30.888146700676664]}},
{"type": "Feature", "id": "96YobNUHyBqMfzHAY4GHkMzR4Fw=", "properties": {"ref": "1201 N Houston Road", "@spider": "childcare_network", "addr:full": "1201 N Houston Road", "addr:city": "Warner Robins", "addr:state": "Georgia", "addr:postcode": "31093", "addr:country": "US", "name": "Warner Robins N. Houston Road", "phone": "(478) 929-1395", "website": "https://schools.childcarenetwork.com/ga/warner-robins/1201-n-houston-road", "opening_hours": "6:30 AM"}, "geometry": {"type": "Point", "coordinates": [-83.64194577240465, 32.64525233739488]}},
{"type": "Feature", "id": "-PUF3qYepYib3RFXCOiCIFrcsGE=", "properties": {"ref": "2985 Xavier Ray Court", "@spider": "childcare_network", "addr:full": "2985 Xavier Ray Court", "addr:city": "Snellville", "addr:state": "Georgia", "addr:postcode": "30039", "addr:country": "US", "name": "Snellville Xavier Ray Court", "phone": "(770) 972-7774", "website": "https://schools.childcarenetwork.com/ga/snellville/2985-xavier-ray-court", "opening_hours": "6:30 AM"}, "geometry": {"type": "Point", "coordinates": [-84.00855895160578, 33.81188608074745]}},
{"type": "Feature", "id": "-wAxbepLkIc-ged666dtpBaK1lk=", "properties": {"ref": "2877 Woodruff Drive", "@spider": "childcare_network", "addr:full": "2877 Woodruff Drive", "addr:city": "Smyrna", "addr:state": "Georgia", "addr:postcode": "30080", "addr:country": "US", "name": "Smyrna Woodruff Drive", "phone": "(770) 436-8627", "website": "https://schools.childcarenetwork.com/ga/smyrna/2877-woodruff-drive", "opening_hours": "6:30 AM"}, "geometry": {"type": "Point", "coordinates": [-84.48166714293956, 33.88232406027607]}},
{"type": "Feature", "id": "Uu8LOrxMREm69OUJGhxGM74Yx6I=", "properties": {"ref": "7360 Hodgson Memorial Drive", "@spider": "childcare_network", "addr:full": "7360 Hodgson Memorial Drive", "addr:city": "Savannah", "addr:state": "Georgia", "addr:postcode": "31406", "addr:country": "US", "name": "Savannah Hodgson Memorial Drive", "phone": "(912) 355-4754", "website": "https://schools.childcarenetwork.com/ga/savannah/7360-hodgson-memorial-drive", "opening_hours": "6:30 AM"}, "geometry": {"type": "Point", "coordinates": [-81.11290076360177, 32.00121905616303]}},
{"type": "Feature", "id": "X9_kfY4jJDCF8skBdZvdB5OxXeU=", "properties": {"ref": "350 Johnny Mercer Blvd", "@spider": "childcare_network", "addr:full": "350 Johnny Mercer Blvd", "addr:city": "Savannah", "addr:state": "Georgia", "addr:postcode": "31410", "addr:country": "US", "name": "Savannah Johnny Mercer Blvd", "phone": "(912) 897-3888", "website": "https://schools.childcarenetwork.com/ga/savannah/350-johnny-mercer-blvd", "opening_hours": "6:30 AM"}, "geometry": {"type": "Point", "coordinates": [-80.97983932944771, 32.016181096963464]}},
{"type": "Feature", "id": "co7Vs5Gn6p7Z-NXxBMrutN1OzIE=", "properties": {"ref": "12441 White Bluff Road", "@spider": "childcare_network", "addr:full": "12441 White Bluff Road", "addr:city": "Savannah", "addr:state": "Georgia", "addr:postcode": "31419", "addr:country": "US", "name": "Savannah White Bluff Road", "phone": "(912) 925-5238", "website": "https://schools.childcarenetwork.com/ga/savannah/12441-white-bluff-road", "opening_hours": "6:00 AM"}, "geometry": {"type": "Point", "coordinates": [-81.13348163252351, 31.97283856649411]}},
{"type": "Feature", "id": "YQIJM5ynnZvlgiCamKXnHXYV7jI=", "properties": {"ref": "2265 Cooper Lake SE", "@spider": "childcare_network", "addr:full": "2265 Cooper Lake SE", "addr:city": "Smyrna", "addr:state": "Georgia", "addr:postcode": "30080", "addr:country": "US", "name": "Smyrna Cooper Lake Road", "phone": "(770) 435-3165", "website": "https://schools.childcarenetwork.com/ga/smyrna/2265-cooper-lake-se", "opening_hours": "6:30 AM"}, "geometry": {"type": "Point", "coordinates": [-84.49418838715457, 33.85361573996989]}},
{"type": "Feature", "id": "yzaRyxEC3qUhRlFjDlrVy_9Vzzk=", "properties": {"ref": "2350 Wisteria Drive", "@spider": "childcare_network", "addr:full": "2350 Wisteria Drive", "addr:city": "Snellville", "addr:state": "Georgia", "addr:postcode": "30078", "addr:country": "US", "name": "Snellville Wisteria Drive", "phone": "(770) 979-0500", "website": "https://schools.childcarenetwork.com/ga/snellville/2350-wisteria-drive", "opening_hours": "6:30 AM"}, "geometry": {"type": "Point", "coordinates": [-84.01233695647909, 33.85850098952094]}},
{"type": "Feature", "id": "j2kpcY9TusDiS2V8aM-glra8ET4=", "properties": {"ref": "701 Dunlap Road", "@spider": "childcare_network", "addr:full": "701 Dunlap Road", "addr:city": "Milledgeville", "addr:state": "Georgia", "addr:postcode": "31061", "addr:country": "US", "name": "Milledgeville Dunlap Road", "phone": "(478) 452-3333", "website": "https://schools.childcarenetwork.com/ga/milledgeville/701-dunlap-road", "opening_hours": "6:30 AM"}, "geometry": {"type": "Point", "coordinates": [-83.2429900582838, 33.11281676577688]}},
{"type": "Feature", "id": "lcVhLiywTbA-SiAAteL3jS4Z0SQ=", "properties": {"ref": "246 Rose Street", "@spider": "childcare_network", "addr:full": "246 Rose Street", "addr:city": "Martinez", "addr:state": "Georgia", "addr:postcode": "30907", "addr:country": "US", "name": "Martinez Rose Street", "phone": "(706) 863-7180", "website": "https://schools.childcarenetwork.com/ga/martinez/246-rose-street", "opening_hours": "6:30 AM"}, "geometry": {"type": "Point", "coordinates": [-82.0881221, 33.5074295]}},
{"type": "Feature", "id": "l3mfwG1I52QxRVp2yn3569ZtgwU=", "properties": {"ref": "655 Strickland Road", "@spider": "childcare_network", "addr:full": "655 Strickland Road", "addr:city": "Locust Grove", "addr:state": "Georgia", "addr:postcode": "30248", "addr:country": "US", "name": "Locust Grove Strickland Road", "phone": "(770) 898-9500", "website": "https://schools.childcarenetwork.com/ga/locust-grove/655-strickland-road", "opening_hours": "7:00 AM"}, "geometry": {"type": "Point", "coordinates": [-84.20573871717932, 33.373798880044305]}},
{"type": "Feature", "id": "udgibFS9NITLbQ_oDCnbugBDnR8=", "properties": {"ref": "105 Old Mill Road", "@spider": "childcare_network", "addr:full": "105 Old Mill Road", "addr:city": "LaGrange", "addr:state": "Georgia", "addr:postcode": "30241", "addr:country": "US", "name": "LaGrange Calumet West Old Mill Road", "phone": "(706) 884-3603", "website": "https://schools.childcarenetwork.com/ga/lagrange/105-old-mill-road", "opening_hours": "6:15 AM"}, "geometry": {"type": "Point", "coordinates": [-85.0093521, 33.0378701]}},
{"type": "Feature", "id": "dQK6cQ9jlxs0yHuM3NS-rnINIUw=", "properties": {"ref": "94 Highland Falls Blvd.", "@spider": "childcare_network", "addr:full": "94 Highland Falls Blvd.", "addr:city": "Hiram", "addr:state": "Georgia", "addr:postcode": "30141", "addr:country": "US", "name": "Hiram Highland Falls Boulevard", "phone": "(770) 439-0174", "website": "https://schools.childcarenetwork.com/ga/hiram/94-highland-falls-blvd", "opening_hours": "6:00 AM"}, "geometry": {"type": "Point", "coordinates": [-84.77311699694155, 33.90043094983925]}},
{"type": "Feature", "id": "BjsZupEEiXocGChCueaBbRHTFa0=", "properties": {"ref": "803 Veterans Parkway", "@spider": "childcare_network", "addr:full": "803 Veterans Parkway", "addr:city": "Hinesville", "addr:state": "Georgia", "addr:postcode": "31313", "addr:country": "US", "name": "Hinesville Veterans Parkway", "phone": "(912) 877-2662", "website": "https://schools.childcarenetwork.com/ga/hinesville/803-veterans-parkway", "opening_hours": "6:00 AM"}, "geometry": {"type": "Point", "coordinates": [-81.6189072, 31.834483]}},
{"type": "Feature", "id": "bU3uDpDJzJ3vZObdSFURuINhyEg=", "properties": {"ref": "1513 McDonough Road", "@spider": "childcare_network", "addr:full": "1513 McDonough Road", "addr:city": "Hampton", "addr:state": "Georgia", "addr:postcode": "30228", "addr:country": "US", "name": "Hampton McDonough Road", "phone": "(770) 471-9980", "website": "https://schools.childcarenetwork.com/ga/hampton/1513-mcdonough-road", "opening_hours": "6:00 AM"}, "geometry": {"type": "Point", "coordinates": [-84.34196276992321, 33.448550212796405]}},
{"type": "Feature", "id": "1sfUYmf0iPW-aMG4joGVLmM_Z2o=", "properties": {"ref": "724 East Robinson Avenue", "@spider": "childcare_network", "addr:full": "724 East Robinson Avenue", "addr:city": "Grovetown", "addr:state": "Georgia", "addr:postcode": "30813", "addr:country": "US", "name": "Grovetown E. Robinson Avenue", "phone": "(706) 550-1139", "website": "https://schools.childcarenetwork.com/ga/grovetown/724-east-robinson-avenue", "opening_hours": "6:00 AM"}, "geometry": {"type": "Point", "coordinates": [-82.1787137, 33.4362278]}},
{"type": "Feature", "id": "QfOdmWK0OE4x1lp_jlxDji7dqjQ=", "properties": {"ref": "4405 Jonesboro Road", "@spider": "childcare_network", "addr:full": "4405 Jonesboro Road", "addr:city": "Forest Park", "addr:state": "Georgia", "addr:postcode": "30297", "addr:country": "US", "name": "Forest Park Jonesboro Road", "phone": "(404) 214-2901", "website": "https://schools.childcarenetwork.com/ga/forest-park/4405-jonesboro-road", "opening_hours": "6:30 AM"}, "geometry": {"type": "Point", "coordinates": [-84.35980018306407, 33.63444222000271]}},
{"type": "Feature", "id": "vFxN8wLVfgYmvWaqwCRdIotSFq8=", "properties": {"ref": "689 Jonesboro Road", "@spider": "childcare_network", "addr:full": "689 Jonesboro Road", "addr:city": "McDonough", "addr:state": "Georgia", "addr:postcode": "30253", "addr:country": "US", "name": "McDonough Jonesboro Road", "phone": "(770) 302-0300", "website": "https://schools.childcarenetwork.com/ga/mcdonough/689-jonesboro-road", "opening_hours": "6:30 AM"}, "geometry": {"type": "Point", "coordinates": [-84.179763, 33.45827]}},
{"type": "Feature", "id": "1mvhYloEGGg4JH_0BRAwbvcByfM=", "properties": {"ref": "4250 Jodeco Road", "@spider": "childcare_network", "addr:full": "4250 Jodeco Road", "addr:city": "McDonough", "addr:state": "Georgia", "addr:postcode": "30253", "addr:country": "US", "name": "McDonough Jodeco Road", "phone": "(770) 954-9353", "website": "https://schools.childcarenetwork.com/ga/mcdonough/4250-jodeco-road", "opening_hours": "6:30 AM"}, "geometry": {"type": "Point", "coordinates": [-84.1757129, 33.4879093]}},
{"type": "Feature", "id": "1wjFv88bwkLEas8nQ6bxA0RhVno=", "properties": {"ref": "161 Roberson Mill Rd NE", "@spider": "childcare_network", "addr:full": "161 Roberson Mill Rd NE", "addr:city": "Milledgeville", "addr:state": "Georgia", "addr:postcode": "31061", "addr:country": "US", "name": "Milledgeville Roberson Mill Road", "phone": "(478) 452-5222", "website": "https://schools.childcarenetwork.com/ga/milledgeville/161-roberson-mill-rd-ne", "opening_hours": "6:30 AM"}, "geometry": {"type": "Point", "coordinates": [-83.261097, 33.102293]}},
{"type": "Feature", "id": "rxM_ziz7qVwn2lKm4xQzNqiyP4g=", "properties": {"ref": "1040 Farmer Street", "@spider": "childcare_network", "addr:full": "1040 Farmer Street", "addr:city": "Crestview", "addr:state": "Florida", "addr:postcode": "32539", "addr:country": "US", "name": "Crestview Farmer Street", "phone": "(850) 683-0055", "website": "https://schools.childcarenetwork.com/fl/crestview/1040-farmer-street", "opening_hours": "6:00 AM"}, "geometry": {"type": "Point", "coordinates": [-86.55360112008623, 30.773333446814647]}},
{"type": "Feature", "id": "-nI0uU4kTkeJ67iCh1CWXehoVL8=", "properties": {"ref": "4689 Hardy McManus Road", "@spider": "childcare_network", "addr:full": "4689 Hardy McManus Road", "addr:city": "Evans", "addr:state": "Georgia", "addr:postcode": "30809", "addr:country": "US", "name": "Evans Hardy McManus Road", "phone": "(706) 364-4216", "website": "https://schools.childcarenetwork.com/ga/evans/4689-hardy-mcmanus-road", "opening_hours": "6:00 AM"}, "geometry": {"type": "Point", "coordinates": [-82.14914787177565, 33.57881563778502]}},
{"type": "Feature", "id": "N00-IWgzWZ_Qby8zmO18XyraCb0=", "properties": {"ref": "1768 Washington Road", "@spider": "childcare_network", "addr:full": "1768 Washington Road", "addr:city": "East Point", "addr:state": "Georgia", "addr:postcode": "30344", "addr:country": "US", "name": "East Point Washington Road", "phone": "(404) 761-6453", "website": "https://schools.childcarenetwork.com/ga/east-point/1768-washington-road", "opening_hours": "6:00 AM"}, "geometry": {"type": "Point", "coordinates": [-84.4463378871286, 33.67529461705492]}},
{"type": "Feature", "id": "7YaIf3tXRV1IYXFFwTBHlFFQMMs=", "properties": {"ref": "3635 Howell Ferry Road", "@spider": "childcare_network", "addr:full": "3635 Howell Ferry Road", "addr:city": "Duluth", "addr:state": "Georgia", "addr:postcode": "30096", "addr:country": "US", "name": "Duluth Howell Ferry Road", "phone": "(770) 623-9800", "website": "https://schools.childcarenetwork.com/ga/duluth/3635-howell-ferry-road", "opening_hours": "6:30 AM"}, "geometry": {"type": "Point", "coordinates": [-84.16584600553989, 34.00082670259436]}},
{"type": "Feature", "id": "4Ht4Yw2WO0Yn2206BYgGFN9o5Q4=", "properties": {"ref": "2476 Candler Road", "@spider": "childcare_network", "addr:full": "2476 Candler Road", "addr:city": "Decatur", "addr:state": "Georgia", "addr:postcode": "30032", "addr:country": "US", "name": "Decatur Candler Road", "phone": "(404) 241-3455", "website": "https://schools.childcarenetwork.com/ga/decatur/2476-candler-road", "opening_hours": "6:30 AM"}, "geometry": {"type": "Point", "coordinates": [-84.2743615979112, 33.717873417255596]}},
{"type": "Feature", "id": "PXp2r7Mtd127-uWAhcwZLaDppKU=", "properties": {"ref": "405 Dacula Road", "@spider": "childcare_network", "addr:full": "405 Dacula Road", "addr:city": "Dacula", "addr:state": "Georgia", "addr:postcode": "30019", "addr:country": "US", "name": "Dacula Dacula Road", "phone": "(770) 995-7660", "website": "https://schools.childcarenetwork.com/ga/dacula/405-dacula-road", "opening_hours": "6:00 AM"}, "geometry": {"type": "Point", "coordinates": [-83.90343890258566, 33.998027047658226]}},
{"type": "Feature", "id": "_VLuczcPnxV8sfG8EYtE7nZgsGg=", "properties": {"ref": "3510 Austell Road SW", "@spider": "childcare_network", "addr:full": "3510 Austell Road SW", "addr:city": "Marietta", "addr:state": "Georgia", "addr:postcode": "30008", "addr:country": "US", "name": "Marietta Austell Road SW", "phone": "(770) 333-5551", "website": "https://schools.childcarenetwork.com/ga/marietta/3510-austell-road-sw", "opening_hours": "6:30 AM"}, "geometry": {"type": "Point", "coordinates": [-84.59303658837797, 33.86813828451736]}},
{"type": "Feature", "id": "sIj3SCqFYjboD4OZzqIiArfblnI=", "properties": {"ref": "7017 Price Road", "@spider": "childcare_network", "addr:full": "7017 Price Road", "addr:city": "Macon", "addr:state": "Georgia", "addr:postcode": "31220", "addr:country": "US", "name": "Macon Price Road", "phone": "(478) 471-6494", "website": "https://schools.childcarenetwork.com/ga/macon/7017-price-road", "opening_hours": "6:30 AM"}, "geometry": {"type": "Point", "coordinates": [-83.75844395581692, 32.850746336462066]}},
{"type": "Feature", "id": "HSxrK1KdOEmQk3uFG6b6nUPP2Us=", "properties": {"ref": "5905 Houston Road", "@spider": "childcare_network", "addr:full": "5905 Houston Road", "addr:city": "Macon", "addr:state": "Georgia", "addr:postcode": "31216", "addr:country": "US", "name": "Macon Houston Road", "phone": "(478) 781-8532", "website": "https://schools.childcarenetwork.com/ga/macon/5905-houston-road", "opening_hours": "6:00 AM"}, "geometry": {"type": "Point", "coordinates": [-83.67690629753588, 32.73875728616307]}},
{"type": "Feature", "id": "w18asYTo7mCTCdrPFthLyCQzdno=", "properties": {"ref": "54 Towler Road", "@spider": "childcare_network", "addr:full": "54 Towler Road", "addr:city": "Lawrenceville", "addr:state": "Georgia", "addr:postcode": "30046", "addr:country": "US", "name": "Lawrenceville Towler Road", "phone": "(770) 513-4359", "website": "https://schools.childcarenetwork.com/ga/lawrenceville/54-towler-road", "opening_hours": "6:00 AM"}, "geometry": {"type": "Point", "coordinates": [-84.0132898155581, 33.94270242772183]}},
{"type": "Feature", "id": "ztt1lN6QjF10gdl-wGlld4uaubM=", "properties": {"ref": "225 Simonton Road", "@spider": "childcare_network", "addr:full": "225 Simonton Road", "addr:city": "Lawrenceville", "addr:state": "Georgia", "addr:postcode": "30045", "addr:country": "US", "name": "Lawrenceville Simonton Road", "phone": "(770) 962-8873", "website": "https://schools.childcarenetwork.com/ga/lawrenceville/225-simonton-road", "opening_hours": "6:30 AM"}, "geometry": {"type": "Point", "coordinates": [-83.95852148652557, 33.93637467699968]}},
{"type": "Feature", "id": "jRtrHsuyOvOgmwq-EKMF6v6XgGo=", "properties": {"ref": "524 Pine Street", "@spider": "childcare_network", "addr:full": "524 Pine Street", "addr:city": "Macon", "addr:state": "Georgia", "addr:postcode": "31201", "addr:country": "US", "name": "Macon Pine Street", "phone": "(478) 746-9927", "website": "https://schools.childcarenetwork.com/ga/macon/524-pine-street", "opening_hours": "6:30 AM"}, "geometry": {"type": "Point", "coordinates": [-83.631342, 32.831753]}},
{"type": "Feature", "id": "Sd3siVqC1ZZdh-7F7DJ4KaWcmac=", "properties": {"ref": "4971 Sheraton Drive", "@spider": "childcare_network", "addr:full": "4971 Sheraton Drive", "addr:city": "Macon", "addr:state": "Georgia", "addr:postcode": "31210", "addr:country": "US", "name": "Macon Sheraton Drive", "phone": "(478) 474-8829", "website": "https://schools.childcarenetwork.com/ga/macon/4971-sheraton-drive", "opening_hours": "6:00 AM"}, "geometry": {"type": "Point", "coordinates": [-83.7086977, 32.9252056]}},
{"type": "Feature", "id": "qTQGu5Qz15y8KCUkM9nJ3oczxtI=", "properties": {"ref": "3940 Northside Drive", "@spider": "childcare_network", "addr:full": "3940 Northside Drive", "addr:city": "Macon", "addr:state": "Georgia", "addr:postcode": "31210", "addr:country": "US", "name": "Macon Northside Drive", "phone": "(478) 474-7163", "website": "https://schools.childcarenetwork.com/ga/macon/3940-northside-drive", "opening_hours": "6:30 AM"}, "geometry": {"type": "Point", "coordinates": [-83.69912180523187, 32.89832810049812]}},
{"type": "Feature", "id": "Pd_337Hk2ABdlcfqoesX0c2IUjM=", "properties": {"ref": "1987 Wood Valley Road", "@spider": "childcare_network", "addr:full": "1987 Wood Valley Road", "addr:city": "Macon", "addr:state": "Georgia", "addr:postcode": "31211", "addr:country": "US", "name": "Macon Wood Valley Road", "phone": "(478) 746-6024", "website": "https://schools.childcarenetwork.com/ga/macon/1987-wood-valley-road", "opening_hours": "6:00 AM"}, "geometry": {"type": "Point", "coordinates": [-83.61369460672859, 32.87142579629855]}},
{"type": "Feature", "id": "K_lePRmqP_3pCZorFgrhGCyxkpA=", "properties": {"ref": "1609 Williamson Road", "@spider": "childcare_network", "addr:full": "1609 Williamson Road", "addr:city": "Griffin", "addr:state": "Georgia", "addr:postcode": "30224", "addr:country": "US", "name": "Griffin Williamson Road", "phone": "(770) 228-7474", "website": "https://schools.childcarenetwork.com/ga/griffin/1609-williamson-road", "opening_hours": "6:30 AM"}, "geometry": {"type": "Point", "coordinates": [-84.30019285706044, 33.22491711850787]}},
{"type": "Feature", "id": "a3eEE8O4spGoQZ8DVQ35qMzEyOI=", "properties": {"ref": "1140 Cowen Road", "@spider": "childcare_network", "addr:full": "1140 Cowen Road", "addr:city": "Griffin", "addr:state": "Georgia", "addr:postcode": "30223", "addr:country": "US", "name": "Griffin Cowan Road", "phone": "(770) 227-2333", "website": "https://schools.childcarenetwork.com/ga/griffin/1140-cowen-road", "opening_hours": "6:30 AM"}, "geometry": {"type": "Point", "coordinates": [-84.30526282232364, 33.27554228085516]}},
{"type": "Feature", "id": "pHFbVY03EDoa5rR7Jq5DUv3jjq4=", "properties": {"ref": "2090 Lower Roswell Road", "@spider": "childcare_network", "addr:full": "2090 Lower Roswell Road", "addr:city": "Marietta", "addr:state": "Georgia", "addr:postcode": "30068", "addr:country": "US", "name": "Marietta Lower Roswell Road", "phone": "(770) 973-0900", "website": "https://schools.childcarenetwork.com/ga/marietta/2090-lower-roswell-road", "opening_hours": "6:30 AM"}, "geometry": {"type": "Point", "coordinates": [-84.49144883374692, 33.94845800376149]}},
{"type": "Feature", "id": "ThavBCVodb4nSjUqUBm8Je14lP0=", "properties": {"ref": "92 Bowtie Blvd", "@spider": "childcare_network", "addr:full": "92 Bowtie Blvd", "addr:city": "Chatsworth", "addr:state": "Georgia", "addr:postcode": "30705", "addr:country": "US", "name": "Chatsworth Bowtie Boulevard", "phone": "(706) 695-8866", "website": "https://schools.childcarenetwork.com/ga/chatsworth/92-bowtie-blvd", "opening_hours": "6:00 AM"}, "geometry": {"type": "Point", "coordinates": [-84.81719203381635, 34.78098867017815]}},
{"type": "Feature", "id": "JjldSTDDUcmWcYuTbMu0u5uInU8=", "properties": {"ref": "1151 Rome Street", "@spider": "childcare_network", "addr:full": "1151 Rome Street", "addr:city": "Carrollton", "addr:state": "Georgia", "addr:postcode": "30117", "addr:country": "US", "name": "Carrollton Rome Street", "phone": "(770) 834-0009", "website": "https://schools.childcarenetwork.com/ga/carrollton/1151-rome-street", "opening_hours": "6:15 AM"}, "geometry": {"type": "Point", "coordinates": [-85.07824678600457, 33.59437197181592]}},
{"type": "Feature", "id": "XTd61tmAhIVEyVMp7rr11pdqYSs=", "properties": {"ref": "1145 Cedar Shoals Drive", "@spider": "childcare_network", "addr:full": "1145 Cedar Shoals Drive", "addr:city": "Athens", "addr:state": "Georgia", "addr:postcode": "30605", "addr:country": "US", "name": "Athens Cedar Shoals Drive", "phone": "(706) 543-1104", "website": "https://schools.childcarenetwork.com/ga/athens/1145-cedar-shoals-drive", "opening_hours": "6:30 AM"}, "geometry": {"type": "Point", "coordinates": [-83.33554209879401, 33.927253233388114]}},
{"type": "Feature", "id": "Y4ia971oGinH-wzOPQm6DbroXPk=", "properties": {"ref": "4833 Baker Grove Road", "@spider": "childcare_network", "addr:full": "4833 Baker Grove Road", "addr:city": "Acworth", "addr:state": "Georgia", "addr:postcode": "30101", "addr:country": "US", "name": "Acworth Baker Grove Road", "phone": "(770) 975-7770", "website": "https://schools.childcarenetwork.com/ga/acworth/4833-baker-grove-road", "opening_hours": "6:30 AM"}, "geometry": {"type": "Point", "coordinates": [-84.64921812267454, 34.07394572796021]}},
{"type": "Feature", "id": "49S3L1AkcnfTf0oXslhfglYusBU=", "properties": {"ref": "130 Technology Court", "@spider": "childcare_network", "addr:full": "130 Technology Court", "addr:city": "Georgetown", "addr:state": "Kentucky", "addr:postcode": "40324", "addr:country": "US", "name": "Georgetown Technology Court", "phone": "(502) 868-6764", "website": "https://schools.childcarenetwork.com/ky/georgetown/130-technology-court", "opening_hours": "5:00 AM"}, "geometry": {"type": "Point", "coordinates": [-84.5096837, 38.2669865]}},
{"type": "Feature", "id": "PZdpJeIqxcMOV7AovecXRThyS1k=", "properties": {"ref": "802 East Leonard Street", "@spider": "childcare_network", "addr:full": "802 East Leonard Street", "addr:city": "Southport", "addr:state": "North Carolina", "addr:postcode": "28461", "addr:country": "US", "name": "Southport East Leonard Street", "phone": "(910) 457-0555", "website": "https://schools.childcarenetwork.com/nc/southport/802-east-leonard-street", "opening_hours": "6:30 AM"}, "geometry": {"type": "Point", "coordinates": [-78.01411789964118, 33.93255756782508]}},
{"type": "Feature", "id": "L0S65cI9owjoP9aiWlQtW-M7srg=", "properties": {"ref": "101 Beaufort Drive", "@spider": "childcare_network", "addr:full": "101 Beaufort Drive", "addr:city": "Sneads Ferry", "addr:state": "North Carolina", "addr:postcode": "28460", "addr:country": "US", "name": "Sneads Ferry Beaufort Drive", "phone": "(910) 741-1988", "website": "https://schools.childcarenetwork.com/nc/sneads-ferry/101-beaufort-drive", "opening_hours": "6:30 AM"}, "geometry": {"type": "Point", "coordinates": [-77.443467, 34.5564736]}},
{"type": "Feature", "id": "PjKAcv_UZ3MyBlHRGp1NExYBmfY=", "properties": {"ref": "1201 S Pollock Street", "@spider": "childcare_network", "addr:full": "1201 S Pollock Street", "addr:city": "Selma", "addr:state": "North Carolina", "addr:postcode": "27576", "addr:country": "US", "name": "Selma", "phone": "(919) 965-9327", "website": "https://schools.childcarenetwork.com/nc/selma/1201-s-pollock-street", "opening_hours": "6:30 AM"}, "geometry": {"type": "Point", "coordinates": [-78.2951876, 35.5266116]}},
{"type": "Feature", "id": "dxRRKucGJz8hmDfcfMPMi58_oG8=", "properties": {"ref": "124 Ridge Road", "@spider": "childcare_network", "addr:full": "124 Ridge Road", "addr:city": "Dallas", "addr:state": "Georgia", "addr:postcode": "30157", "addr:country": "US", "name": "Dallas Ridge Road", "phone": "(770) 459-1128", "website": "https://schools.childcarenetwork.com/ga/dallas/124-ridge-road", "opening_hours": "6:00 AM"}, "geometry": {"type": "Point", "coordinates": [-84.8874895, 33.8077319]}},
{"type": "Feature", "id": "FPjJJhXfssnnjm4SUZGzgcLvYPQ=", "properties": {"ref": "1070 Cedarcrest Road", "@spider": "childcare_network", "addr:full": "1070 Cedarcrest Road", "addr:city": "Dallas", "addr:state": "Georgia", "addr:postcode": "30132", "addr:country": "US", "name": "Dallas Cedarcrest Road", "phone": "(678) 574-4898", "website": "https://schools.childcarenetwork.com/ga/dallas/1070-cedarcrest-road", "opening_hours": "6:00 AM"}, "geometry": {"type": "Point", "coordinates": [-84.76840081043338, 34.020847569706056]}},
{"type": "Feature", "id": "1ryihglf1PhvqngcepSOGlOEjEQ=", "properties": {"ref": "2130 Bridgestone Business Parkway", "@spider": "childcare_network", "addr:full": "2130 Bridgestone Business Parkway", "addr:city": "Conyers", "addr:state": "Georgia", "addr:postcode": "30012", "addr:country": "US", "name": "Conyers Bridgestone Business Parkway", "phone": "(678) 374-5410", "website": "https://schools.childcarenetwork.com/ga/conyers/2130-bridgestone-business-parkway", "opening_hours": "6:00 AM"}, "geometry": {"type": "Point", "coordinates": [-83.979014, 33.675874]}},
{"type": "Feature", "id": "aQQ8O61n4j9RAT3BenpC2kVSqrM=", "properties": {"ref": "5001 Academy Drive", "@spider": "childcare_network", "addr:full": "5001 Academy Drive", "addr:city": "Columbus", "addr:state": "Georgia", "addr:postcode": "31909", "addr:country": "US", "name": "Columbus Academy Drive", "phone": "(706) 568-4117", "website": "https://schools.childcarenetwork.com/ga/columbus/5001-academy-drive", "opening_hours": "5:30 AM"}, "geometry": {"type": "Point", "coordinates": [-84.90526132156378, 32.53801908620167]}},
{"type": "Feature", "id": "QSg4uz71PYIfpTDDn9obn92RUTg=", "properties": {"ref": "4719 Warm Springs Road", "@spider": "childcare_network", "addr:full": "4719 Warm Springs Road", "addr:city": "Columbus", "addr:state": "Georgia", "addr:postcode": "31909", "addr:country": "US", "name": "Columbus Warm Springs Road", "phone": "(706) 563-0829", "website": "https://schools.childcarenetwork.com/ga/columbus/4719-warm-springs-road", "opening_hours": "5:30 AM"}, "geometry": {"type": "Point", "coordinates": [-84.91485591840268, 32.525684629724736]}},
{"type": "Feature", "id": "20gwPUKrXkXK0BUNzl4O1RmYAVM=", "properties": {"ref": "3643 Weems Road", "@spider": "childcare_network", "addr:full": "3643 Weems Road", "addr:city": "Columbus", "addr:state": "Georgia", "addr:postcode": "31909", "addr:country": "US", "name": "Columbus Weems Road", "phone": "(706) 327-8153", "website": "https://schools.childcarenetwork.com/ga/columbus/3643-weems-road", "opening_hours": "5:30 AM"}, "geometry": {"type": "Point", "coordinates": [-84.9341792, 32.5400767]}},
{"type": "Feature", "id": "Hr9kgV4U6KQta-LhZAjOCyfM4ns=", "properties": {"ref": "3615 Wheeler Road", "@spider": "childcare_network", "addr:full": "3615 Wheeler Road", "addr:city": "Augusta", "addr:state": "Georgia", "addr:postcode": "30909", "addr:country": "US", "name": "Augusta Wheeler Road", "phone": "(706) 868-8285", "website": "https://schools.childcarenetwork.com/ga/augusta/3615-wheeler-road", "opening_hours": "6:00 AM"}, "geometry": {"type": "Point", "coordinates": [-82.0868995, 33.483903]}},
{"type": "Feature", "id": "kj-2gQ18dsEKkltEA6uI3VMiu_U=", "properties": {"ref": "2801 Wylds Road", "@spider": "childcare_network", "addr:full": "2801 Wylds Road", "addr:city": "Augusta", "addr:state": "Georgia", "addr:postcode": "30909", "addr:country": "US", "name": "Augusta Wylds Road", "phone": "(706) 736-2136", "website": "https://schools.childcarenetwork.com/ga/augusta/2801-wylds-road", "opening_hours": "6:00 AM"}, "geometry": {"type": "Point", "coordinates": [-82.07814522242772, 33.46000093999488]}},
{"type": "Feature", "id": "XcLoBxHg8pt7eXFtZdGl_Cc3PSQ=", "properties": {"ref": "306 Baldwin Drive", "@spider": "childcare_network", "addr:full": "306 Baldwin Drive", "addr:city": "Albany", "addr:state": "Georgia", "addr:postcode": "31707", "addr:country": "US", "name": "Albany Baldwin Drive", "phone": "(229) 888-5603", "website": "https://schools.childcarenetwork.com/ga/albany/306-baldwin-drive", "opening_hours": "6:30 AM"}, "geometry": {"type": "Point", "coordinates": [-84.18632556869983, 31.581970304231888]}},
{"type": "Feature", "id": "mrPA_7r9p2Ict976R5Y0vg3r89s=", "properties": {"ref": "2403 Brierwood Drive", "@spider": "childcare_network", "addr:full": "2403 Brierwood Drive", "addr:city": "Albany", "addr:state": "Georgia", "addr:postcode": "31705", "addr:country": "US", "name": "Albany Brierwood Drive", "phone": "(229) 888-2219", "website": "https://schools.childcarenetwork.com/ga/albany/2403-brierwood-drive", "opening_hours": "6:30 AM"}, "geometry": {"type": "Point", "coordinates": [-84.0938371429935, 31.5663934523618]}},
{"type": "Feature", "id": "OlU9nbPvh-aQttgt_y_R6KQT270=", "properties": {"ref": "214 Telfair Avenue", "@spider": "childcare_network", "addr:full": "214 Telfair Avenue", "addr:city": "Albany", "addr:state": "Georgia", "addr:postcode": "31701", "addr:country": "US", "name": "Albany Telfair Avenue", "phone": "(229) 439-2842", "website": "https://schools.childcarenetwork.com/ga/albany/214-telfair-avenue", "opening_hours": "6:30 AM"}, "geometry": {"type": "Point", "coordinates": [-84.1533996, 31.6079706]}},
{"type": "Feature", "id": "jzR1w6GusWSgcNCBWZfI9JyPbPE=", "properties": {"ref": "3424 Airport Blvd", "@spider": "childcare_network", "addr:full": "3424 Airport Blvd", "addr:city": "Wilson", "addr:state": "North Carolina", "addr:postcode": "27896", "addr:country": "US", "name": "Wilson Airport Blvd", "phone": "(252) 291-1990", "website": "https://schools.childcarenetwork.com/nc/wilson/3424-airport-blvd", "opening_hours": "6:30 AM"}, "geometry": {"type": "Point", "coordinates": [-77.94957099999999, 35.762858]}},
{"type": "Feature", "id": "4KO9dlrCreelrbFNGjL9Z8xdg_U=", "properties": {"ref": "6640 Gordon Road", "@spider": "childcare_network", "addr:full": "6640 Gordon Road", "addr:city": "Wilmington", "addr:state": "North Carolina", "addr:postcode": "28411", "addr:country": "US", "name": "Wilmington Gordon Road", "phone": "(910) 397-9090", "website": "https://schools.childcarenetwork.com/nc/wilmington/6640-gordon-road", "opening_hours": "6:30 AM"}, "geometry": {"type": "Point", "coordinates": [-77.83655688037396, 34.26544982542829]}},
{"type": "Feature", "id": "JcG22jP-Y4-jgGEU5DtLTq1nq3s=", "properties": {"ref": "783 West Corbett Avenue", "@spider": "childcare_network", "addr:full": "783 West Corbett Avenue", "addr:city": "Swansboro", "addr:state": "North Carolina", "addr:postcode": "28584", "addr:country": "US", "name": "Swansboro Highway 24", "phone": "(910) 326-3386", "website": "https://schools.childcarenetwork.com/nc/swansboro/783-west-corbett-avenue", "opening_hours": "6:00 AM"}, "geometry": {"type": "Point", "coordinates": [-77.13805095643141, 34.69603226450619]}},
{"type": "Feature", "id": "1RH5JhtBWNb5yBHrG4dHR7r77oo=", "properties": {"ref": "4808 New Centre Drive", "@spider": "childcare_network", "addr:full": "4808 New Centre Drive", "addr:city": "Wilmington", "addr:state": "North Carolina", "addr:postcode": "28403", "addr:country": "US", "name": "Wilmington New Centre Drive", "phone": "(910) 452-4444", "website": "https://schools.childcarenetwork.com/nc/wilmington/4808-new-centre-drive", "opening_hours": "6:30 AM"}, "geometry": {"type": "Point", "coordinates": [-77.88023378532688, 34.24317673809351]}},
{"type": "Feature", "id": "lwP8h2NX_QbVSizwOQ68Zjjl4pU=", "properties": {"ref": "4202 Wilshire Blvd", "@spider": "childcare_network", "addr:full": "4202 Wilshire Blvd", "addr:city": "Wilmington", "addr:state": "North Carolina", "addr:postcode": "28403", "addr:country": "US", "name": "Wilmington Wilshire Boulevard", "phone": "(910) 791-2080", "website": "https://schools.childcarenetwork.com/nc/wilmington/4202-wilshire-blvd", "opening_hours": "6:30 AM"}, "geometry": {"type": "Point", "coordinates": [-77.88886349944613, 34.219667040135484]}},
{"type": "Feature", "id": "OPY3U9HYJydEJXG5uhmoVBnTNgo=", "properties": {"ref": "2411 Flint Drive", "@spider": "childcare_network", "addr:full": "2411 Flint Drive", "addr:city": "Wilmington", "addr:state": "North Carolina", "addr:postcode": "28401", "addr:country": "US", "name": "Wilmington Flint Drive", "phone": "(910) 799-5195", "website": "https://schools.childcarenetwork.com/nc/wilmington/2411-flint-drive", "opening_hours": "6:30 AM"}, "geometry": {"type": "Point", "coordinates": [-77.9237554051395, 34.19759129281283]}},
{"type": "Feature", "id": "E6fgv3SEBm-blYHVW8QDla2pKcs=", "properties": {"ref": "1309 Washington Avenue", "@spider": "childcare_network", "addr:full": "1309 Washington Avenue", "addr:city": "Sanford", "addr:state": "North Carolina", "addr:postcode": "27330", "addr:country": "US", "name": "Sanford Washington Avenue", "phone": "(919) 775-3531", "website": "https://schools.childcarenetwork.com/nc/sanford/1309-washington-avenue", "opening_hours": "6:00 AM"}, "geometry": {"type": "Point", "coordinates": [-79.17797767447325, 35.46688515540267]}},
{"type": "Feature", "id": "uXJchWDwUrpWFwNbI-AZSXCrUq0=", "properties": {"ref": "19 Lennon Drive", "@spider": "childcare_network", "addr:full": "19 Lennon Drive", "addr:city": "Wilmington", "addr:state": "North Carolina", "addr:postcode": "28405", "addr:country": "US", "name": "Wilmington Lennon Drive", "phone": "(910) 392-3430", "website": "https://schools.childcarenetwork.com/nc/wilmington/19-lennon-drive", "opening_hours": "6:30 AM"}, "geometry": {"type": "Point", "coordinates": [-77.87618262970199, 34.2469279569046]}},
{"type": "Feature", "id": "h5eeiSH_VvxPHPNwo1eIsJX1__A=", "properties": {"ref": "1553 S 41st Street", "@spider": "childcare_network", "addr:full": "1553 S 41st Street", "addr:city": "Wilmington", "addr:state": "North Carolina", "addr:postcode": "28403", "addr:country": "US", "name": "Wilmington 41st Street", "phone": "(910) 395-5400", "website": "https://schools.childcarenetwork.com/nc/wilmington/1553-s-41st-street", "opening_hours": "6:30 AM"}, "geometry": {"type": "Point", "coordinates": [-77.8955161385287, 34.20995614828485]}},
{"type": "Feature", "id": "nHlPPIvXCGocfos9O2AQSRNTvOY=", "properties": {"ref": "204 N 18th Street", "@spider": "childcare_network", "addr:full": "204 N 18th Street", "addr:city": "Morehead City", "addr:state": "North Carolina", "addr:postcode": "28557", "addr:country": "US", "name": "Morehead City North 18th Street", "phone": "(252) 247-2006", "website": "https://schools.childcarenetwork.com/nc/morehead-city/204-n-18th-street", "opening_hours": "6:00 AM"}, "geometry": {"type": "Point", "coordinates": [-76.72703271746019, 34.72391877033037]}},
{"type": "Feature", "id": "dxqdw1sXaXF8PPQp5CPJVlm5qFk=", "properties": {"ref": "2305 Madison Drive", "@spider": "childcare_network", "addr:full": "2305 Madison Drive", "addr:city": "Wilson", "addr:state": "North Carolina", "addr:postcode": "27893", "addr:country": "US", "name": "Wilson Madison Drive", "phone": "(252) 237-5599", "website": "https://schools.childcarenetwork.com/nc/wilson/2305-madison-drive", "opening_hours": "6:30 AM"}, "geometry": {"type": "Point", "coordinates": [-77.9474298, 35.7293936]}},
{"type": "Feature", "id": "72rsWy7Ae2IY1QmXsUjGA756awk=", "properties": {"ref": "200 N. Westover Blvd", "@spider": "childcare_network", "addr:full": "200 N. Westover Blvd", "addr:city": "Albany", "addr:state": "Georgia", "addr:postcode": "31707", "addr:country": "US", "name": "Albany North Westover Boulevard", "phone": "(229) 888-8090", "website": "https://schools.childcarenetwork.com/ga/albany/200-n-westover-blvd", "opening_hours": "6:30 AM"}, "geometry": {"type": "Point", "coordinates": [-84.21878300305843, 31.591079701474502]}},
{"type": "Feature", "id": "7aapuVoEZbhjw-fnvStm0fCo4s0=", "properties": {"ref": "2131 Wrightsboro Road", "@spider": "childcare_network", "addr:full": "2131 Wrightsboro Road", "addr:city": "Augusta", "addr:state": "Georgia", "addr:postcode": "30904", "addr:country": "US", "name": "Augusta Wrightsboro Road", "phone": "(706) 733-4913", "website": "https://schools.childcarenetwork.com/ga/augusta/2131-wrightsboro-road", "opening_hours": "6:00 AM"}, "geometry": {"type": "Point", "coordinates": [-82.01399959201336, 33.46765461240951]}},
{"type": "Feature", "id": "bW7zCD5qr3L55F6qjXJvuvuvhBM=", "properties": {"ref": "353 Farr Road", "@spider": "childcare_network", "addr:full": "353 Farr Road", "addr:city": "Columbus", "addr:state": "Georgia", "addr:postcode": "31907", "addr:country": "US", "name": "Columbus Farr Road", "phone": "(706) 687-8454", "website": "https://schools.childcarenetwork.com/ga/columbus/353-farr-road", "opening_hours": "5:30 AM"}, "geometry": {"type": "Point", "coordinates": [-84.9246367, 32.4427542]}},
{"type": "Feature", "id": "Q_kGK6DEP1KByKvPfYZp9BgfkWM=", "properties": {"ref": "3009 University Avenue", "@spider": "childcare_network", "addr:full": "3009 University Avenue", "addr:city": "Columbus", "addr:state": "Georgia", "addr:postcode": "31907", "addr:country": "US", "name": "Columbus University Avenue", "phone": "(706) 563-3798", "website": "https://schools.childcarenetwork.com/ga/columbus/3009-university-avenue", "opening_hours": "5:30 AM"}, "geometry": {"type": "Point", "coordinates": [-84.93279524196703, 32.49251053655473]}},
{"type": "Feature", "id": "LlXmNC9NXDMyRT5KzxQR2fo_M44=", "properties": {"ref": "2805 Hamilton Road", "@spider": "childcare_network", "addr:full": "2805 Hamilton Road", "addr:city": "Columbus", "addr:state": "Georgia", "addr:postcode": "31904", "addr:country": "US", "name": "Columbus Hamilton Road", "phone": "(706) 576-5650", "website": "https://schools.childcarenetwork.com/ga/columbus/2805-hamilton-road", "opening_hours": "6:00 AM"}, "geometry": {"type": "Point", "coordinates": [-84.98267988285545, 32.48980606387878]}},
{"type": "Feature", "id": "hq85gvdjQb5fFPTRY6utS8SU_7c=", "properties": {"ref": "2451 Whittlesey Road", "@spider": "childcare_network", "addr:full": "2451 Whittlesey Road", "addr:city": "Columbus", "addr:state": "Georgia", "addr:postcode": "31909", "addr:country": "US", "name": "Columbus Whittlesey Road", "phone": "(706) 323-9501", "website": "https://schools.childcarenetwork.com/ga/columbus/2451-whittlesey-road", "opening_hours": "5:30 AM"}, "geometry": {"type": "Point", "coordinates": [-84.95617699544806, 32.540034589473336]}},
{"type": "Feature", "id": "4SLHa4CkcZlVun9Qh4C5-pQ1Rl4=", "properties": {"ref": "1810 Floyd Road", "@spider": "childcare_network", "addr:full": "1810 Floyd Road", "addr:city": "Columbus", "addr:state": "Georgia", "addr:postcode": "31907", "addr:country": "US", "name": "Columbus Floyd Road", "phone": "(706) 568-6655", "website": "https://schools.childcarenetwork.com/ga/columbus/1810-floyd-road", "opening_hours": "5:30 AM"}, "geometry": {"type": "Point", "coordinates": [-84.89802348096123, 32.47773700948492]}},
{"type": "Feature", "id": "dQmESsahRexWzSBGvSicrbaP8T0=", "properties": {"ref": "1546 Old McDonough Hwy SE", "@spider": "childcare_network", "addr:full": "1546 Old McDonough Hwy SE", "addr:city": "Conyers", "addr:state": "Georgia", "addr:postcode": "30094", "addr:country": "US", "name": "Conyers Old McDonough Highway", "phone": "(770) 922-9333", "website": "https://schools.childcarenetwork.com/ga/conyers/1546-old-mcdonough-hwy-se", "opening_hours": "6:00 AM"}, "geometry": {"type": "Point", "coordinates": [-84.01366844293955, 33.6476139120597]}},
{"type": "Feature", "id": "l2wEYN0kweUfcf-53ADG9vpTae8=", "properties": {"ref": "1395 Flat Shoals Road", "@spider": "childcare_network", "addr:full": "1395 Flat Shoals Road", "addr:city": "Conyers", "addr:state": "Georgia", "addr:postcode": "30013", "addr:country": "US", "name": "Conyers Flat Shoals Road", "phone": "(770) 922-1903", "website": "https://schools.childcarenetwork.com/ga/conyers/1395-flat-shoals-road", "opening_hours": "6:00 AM"}, "geometry": {"type": "Point", "coordinates": [-84.0008022, 33.6376282]}},
{"type": "Feature", "id": "HABbwxLDnnlS5-G42nwXy_L_-hU=", "properties": {"ref": "780 Sutton Place", "@spider": "childcare_network", "addr:full": "780 Sutton Place", "addr:city": "Monroe", "addr:state": "North Carolina", "addr:postcode": "28112", "addr:country": "US", "name": "Monroe Sutton Place", "phone": "(704) 296-0784", "website": "https://schools.childcarenetwork.com/nc/monroe/780-sutton-place", "opening_hours": "6:30 AM"}, "geometry": {"type": "Point", "coordinates": [-80.51732299016896, 34.97583622964639]}},
{"type": "Feature", "id": "GHp-dLqBa2LccORJAHnWO747muM=", "properties": {"ref": "5038 Styers Ferry Road", "@spider": "childcare_network", "addr:full": "5038 Styers Ferry Road", "addr:city": "Lewisville", "addr:state": "North Carolina", "addr:postcode": "27023", "addr:country": "US", "name": "Lewisville Styers Ferry Road", "phone": "(336) 766-3233", "website": "https://schools.childcarenetwork.com/nc/lewisville/5038-styers-ferry-road", "opening_hours": "6:30 AM"}, "geometry": {"type": "Point", "coordinates": [-80.38657058341505, 36.079374754757396]}},
{"type": "Feature", "id": "pTr8SxLbj4EClq0RBdvr-liN8Xw=", "properties": {"ref": "787 Village Road NE", "@spider": "childcare_network", "addr:full": "787 Village Road NE", "addr:city": "Leland", "addr:state": "North Carolina", "addr:postcode": "28451", "addr:country": "US", "name": "Leland Village Road", "phone": "(910) 371-1818", "website": "https://schools.childcarenetwork.com/nc/leland/787-village-road-ne", "opening_hours": "6:30 AM"}, "geometry": {"type": "Point", "coordinates": [-78.01858530613424, 34.24547975174699]}},
{"type": "Feature", "id": "N3JJ7qaSYzSX9zzJ7H5fR3xTiC0=", "properties": {"ref": "820 Salisbury Street", "@spider": "childcare_network", "addr:full": "820 Salisbury Street", "addr:city": "Kernersville", "addr:state": "North Carolina", "addr:postcode": "27284", "addr:country": "US", "name": "Kernersville Salisbury Street", "phone": "(336) 996-3776", "website": "https://schools.childcarenetwork.com/nc/kernersville/820-salisbury-street", "opening_hours": "6:30 AM"}, "geometry": {"type": "Point", "coordinates": [-80.0783533, 36.1094905]}},
{"type": "Feature", "id": "PzRBhVN_ci98gvQaJHnASXcsraM=", "properties": {"ref": "1250 Bay Valley Road", "@spider": "childcare_network", "addr:full": "1250 Bay Valley Road", "addr:city": "Kenly", "addr:state": "North Carolina", "addr:postcode": "27542", "addr:country": "US", "name": "Kenly Bay Valley Road", "phone": "(919) 284-3236", "website": "https://schools.childcarenetwork.com/nc/kenly/1250-bay-valley-road", "opening_hours": "6:30 AM"}, "geometry": {"type": "Point", "coordinates": [-78.144947, 35.6118822]}},
{"type": "Feature", "id": "PsW_8NO1NMnSehUq382yyllZlMo=", "properties": {"ref": "5121 Mackay Road", "@spider": "childcare_network", "addr:full": "5121 Mackay Road", "addr:city": "Jamestown", "addr:state": "North Carolina", "addr:postcode": "27282", "addr:country": "US", "name": "Jamestown Mackay Road", "phone": "(336) 854-1888", "website": "https://schools.childcarenetwork.com/nc/jamestown/5121-mackay-road", "opening_hours": "6:30 AM"}, "geometry": {"type": "Point", "coordinates": [-79.90381641410352, 36.01700710186981]}},
{"type": "Feature", "id": "GaElnhI6ELx7Xto4gb1rPGv70f0=", "properties": {"ref": "204 N Shepard Street", "@spider": "childcare_network", "addr:full": "204 N Shepard Street", "addr:city": "Havelock", "addr:state": "North Carolina", "addr:postcode": "28532", "addr:country": "US", "name": "Havelock Shepard Street", "phone": "(252) 447-1802", "website": "https://schools.childcarenetwork.com/nc/havelock/204-n-shepard-street", "opening_hours": "6:00 AM"}, "geometry": {"type": "Point", "coordinates": [-76.892854952743, 34.858881923223066]}},
{"type": "Feature", "id": "7AsiFAQ0agyPQXtPRumvFWx_iyQ=", "properties": {"ref": "100 E Hanover Road", "@spider": "childcare_network", "addr:full": "100 E Hanover Road", "addr:city": "Graham", "addr:state": "North Carolina", "addr:postcode": "27253", "addr:country": "US", "name": "Graham East Hanover Road", "phone": "(336) 506-6411", "website": "https://schools.childcarenetwork.com/nc/graham/100-e-hanover-road", "opening_hours": "6:30 AM"}, "geometry": {"type": "Point", "coordinates": [-79.39938959999999, 36.0843352]}},
{"type": "Feature", "id": "YYvr3zsv-THWDDyG5Lnb1q-EGX8=", "properties": {"ref": "4905 Western Blvd", "@spider": "childcare_network", "addr:full": "4905 Western Blvd", "addr:city": "Raleigh", "addr:state": "North Carolina", "addr:postcode": "27606", "addr:country": "US", "name": "Raleigh Western Boulevard", "phone": "(919) 851-3612", "website": "https://schools.childcarenetwork.com/nc/raleigh/4905-western-blvd", "opening_hours": "6:30 AM"}, "geometry": {"type": "Point", "coordinates": [-78.70745580183507, 35.78554678053943]}},
{"type": "Feature", "id": "iGMOIWO4WNKxCFprOjLIjaTsuG0=", "properties": {"ref": "2912 Brentwood Road", "@spider": "childcare_network", "addr:full": "2912 Brentwood Road", "addr:city": "Raleigh", "addr:state": "North Carolina", "addr:postcode": "27604", "addr:country": "US", "name": "Raleigh Brentwood Road", "phone": "(919) 872-3295", "website": "https://schools.childcarenetwork.com/nc/raleigh/2912-brentwood-road", "opening_hours": "6:30 AM"}, "geometry": {"type": "Point", "coordinates": [-78.5958996444138, 35.82006222042325]}},
{"type": "Feature", "id": "GSf0bvkR7tmCQsUwAlSeqeAcYQQ=", "properties": {"ref": "221 E. Six Forks Road", "@spider": "childcare_network", "addr:full": "221 E. Six Forks Road", "addr:city": "Raleigh", "addr:state": "North Carolina", "addr:postcode": "27609", "addr:country": "US", "name": "Raleigh E. Six Forks Road", "phone": "(919) 834-0677", "website": "https://schools.childcarenetwork.com/nc/raleigh/221-e-six-forks-road", "opening_hours": "6:30 AM"}, "geometry": {"type": "Point", "coordinates": [-78.62833892366882, 35.82186069921094]}},
{"type": "Feature", "id": "gDCZkuQ5oNzHqphfO46CLdkwjhE=", "properties": {"ref": "3705 Old Cherry Point Road", "@spider": "childcare_network", "addr:full": "3705 Old Cherry Point Road", "addr:city": "New Bern", "addr:state": "North Carolina", "addr:postcode": "28560", "addr:country": "US", "name": "New Bern Old Cherry Point Road", "phone": "(252) 636-3791", "website": "https://schools.childcarenetwork.com/nc/new-bern/3705-old-cherry-point-road", "opening_hours": "6:15 AM"}, "geometry": {"type": "Point", "coordinates": [-77.00536808019206, 35.04720560335433]}},
{"type": "Feature", "id": "kB5DFBDndctvy8aZnrXrc1puuzE=", "properties": {"ref": "301 Ninth Street", "@spider": "childcare_network", "addr:full": "301 Ninth Street", "addr:city": "New Bern", "addr:state": "North Carolina", "addr:postcode": "28560", "addr:country": "US", "name": "New Bern Trent Road / 9th Street", "phone": "(252) 638-2957", "website": "https://schools.childcarenetwork.com/nc/new-bern/301-ninth-street", "opening_hours": "6:00 AM"}, "geometry": {"type": "Point", "coordinates": [-77.0725021, 35.1039581]}},
{"type": "Feature", "id": "OHTr-Yqkq3vxqX2SAi_Su6bPu84=", "properties": {"ref": "350 West Jones Street", "@spider": "childcare_network", "addr:full": "350 West Jones Street", "addr:city": "Fuquay - Varina", "addr:state": "North Carolina", "addr:postcode": "27526", "addr:country": "US", "name": "Fuquay - Varina West Jones Street", "phone": "(919) 557-1219", "website": "https://schools.childcarenetwork.com/nc/fuquay-varina/350-west-jones-street", "opening_hours": "6:30 AM"}, "geometry": {"type": "Point", "coordinates": [-78.80553014679867, 35.587963408960334]}},
{"type": "Feature", "id": "eIRdYYoHKvLtwjChezQHMNqTkWA=", "properties": {"ref": "6 Fairview Hills Drive", "@spider": "childcare_network", "addr:full": "6 Fairview Hills Drive", "addr:city": "Fairview", "addr:state": "North Carolina", "addr:postcode": "28730", "addr:country": "US", "name": "Fairview Fairview Hills Drive", "phone": "(828) 628-9242", "website": "https://schools.childcarenetwork.com/nc/fairview/6-fairview-hills-drive", "opening_hours": "7:00 AM"}, "geometry": {"type": "Point", "coordinates": [-82.43306710820275, 35.5341459524323]}},
{"type": "Feature", "id": "0888uWzC5P5WIv2gXLa1O64ElEc=", "properties": {"ref": "210 Pineville-Matthews Road", "@spider": "childcare_network", "addr:full": "210 Pineville-Matthews Road", "addr:city": "Matthews", "addr:state": "North Carolina", "addr:postcode": "28105", "addr:country": "US", "name": "Matthews Pineville-Matthews Road", "phone": "(704) 845-9019", "website": "https://schools.childcarenetwork.com/nc/matthews/210-pineville-matthews-road", "opening_hours": "7:00 AM"}, "geometry": {"type": "Point", "coordinates": [-80.74175546593216, 35.11807691715152]}},
{"type": "Feature", "id": "tmh4tYFDMpfWq3pyIM0DBEMO2mM=", "properties": {"ref": "10540 Monroe Road", "@spider": "childcare_network", "addr:full": "10540 Monroe Road", "addr:city": "Matthews", "addr:state": "North Carolina", "addr:postcode": "28105", "addr:country": "US", "name": "Matthews Monroe Road", "phone": "(704) 847-0208", "website": "https://schools.childcarenetwork.com/nc/matthews/10540-monroe-road", "opening_hours": "6:30 AM"}, "geometry": {"type": "Point", "coordinates": [-80.733537, 35.129186]}},
{"type": "Feature", "id": "0ItPpz9YTXr1jSMPAPpGNQiE3jo=", "properties": {"ref": "928 Henderson Drive", "@spider": "childcare_network", "addr:full": "928 Henderson Drive", "addr:city": "Jacksonville", "addr:state": "North Carolina", "addr:postcode": "28540", "addr:country": "US", "name": "Jacksonville Henderson Drive", "phone": "(910) 347-5437", "website": "https://schools.childcarenetwork.com/nc/jacksonville/928-henderson-drive", "opening_hours": "6:00 AM"}, "geometry": {"type": "Point", "coordinates": [-77.42592658307154, 34.77905872401599]}},
{"type": "Feature", "id": "FygVAJO3XjwXLbk7xDXx_u1XaUY=", "properties": {"ref": "2160 Chester Ridge Drive", "@spider": "childcare_network", "addr:full": "2160 Chester Ridge Drive", "addr:city": "High Point", "addr:state": "North Carolina", "addr:postcode": "27262", "addr:country": "US", "name": "High Point Chester Ridge Drive", "phone": "(336) 804-8358", "website": "https://schools.childcarenetwork.com/nc/high-point/2160-chester-ridge-drive", "opening_hours": "6:30 AM"}, "geometry": {"type": "Point", "coordinates": [-80.01296381903171, 35.987093019593495]}},
{"type": "Feature", "id": "e8WuFWQ-4Cm-SuFSRYenU2DPzPI=", "properties": {"ref": "1307 East Fairfield Road", "@spider": "childcare_network", "addr:full": "1307 East Fairfield Road", "addr:city": "High Point", "addr:state": "North Carolina", "addr:postcode": "27263", "addr:country": "US", "name": "High Point E. Fairfield Road", "phone": "(336) 434-1529", "website": "https://schools.childcarenetwork.com/nc/high-point/1307-east-fairfield-road", "opening_hours": "6:30 AM"}, "geometry": {"type": "Point", "coordinates": [-79.95694221062297, 35.92498077188465]}},
{"type": "Feature", "id": "PZroSJA31m9ynlzKFtTwjtI3Fa0=", "properties": {"ref": "5527 West Market Street", "@spider": "childcare_network", "addr:full": "5527 West Market Street", "addr:city": "Greensboro", "addr:state": "North Carolina", "addr:postcode": "27409", "addr:country": "US", "name": "Greensboro W. Market Street", "phone": "(336) 292-4411", "website": "https://schools.childcarenetwork.com/nc/greensboro/5527-west-market-street", "opening_hours": "6:30 AM"}, "geometry": {"type": "Point", "coordinates": [-79.89104207516039, 36.075413592090555]}},
{"type": "Feature", "id": "WlLS-Eea7sPLKSnfa5Dyk2hnkm0=", "properties": {"ref": "5312 West Friendly Avenue", "@spider": "childcare_network", "addr:full": "5312 West Friendly Avenue", "addr:city": "Greensboro", "addr:state": "North Carolina", "addr:postcode": "27410", "addr:country": "US", "name": "Greensboro W. Friendly Avenue", "phone": "(336) 851-5678", "website": "https://schools.childcarenetwork.com/nc/greensboro/5312-west-friendly-avenue", "opening_hours": "6:30 AM"}, "geometry": {"type": "Point", "coordinates": [-79.8793261, 36.0898065]}},
{"type": "Feature", "id": "kCR0F8ZNeJO08Pu9L_d48O4NsiI=", "properties": {"ref": "3092 Union Road", "@spider": "childcare_network", "addr:full": "3092 Union Road", "addr:city": "Gastonia", "addr:state": "North Carolina", "addr:postcode": "28056", "addr:country": "US", "name": "Gastonia Union Road", "phone": "(704) 864-9618", "website": "https://schools.childcarenetwork.com/nc/gastonia/3092-union-road", "opening_hours": "7:00 AM"}, "geometry": {"type": "Point", "coordinates": [-81.16588253678799, 35.214267684877164]}},
{"type": "Feature", "id": "9hKcFCaUeUJfMgtmJJTOwi1F9d8=", "properties": {"ref": "1750 Oak Hollow Road", "@spider": "childcare_network", "addr:full": "1750 Oak Hollow Road", "addr:city": "Gastonia", "addr:state": "North Carolina", "addr:postcode": "28054", "addr:country": "US", "name": "Gastonia New Hope Road / Oak Hollow Road", "phone": "(704) 868-2054", "website": "https://schools.childcarenetwork.com/nc/gastonia/1750-oak-hollow-road", "opening_hours": "7:00 AM"}, "geometry": {"type": "Point", "coordinates": [-81.15528576371463, 35.28806480478832]}},
{"type": "Feature", "id": "f0fGqXBM4PfrLpDNNJYy3QHPFUE=", "properties": {"ref": "2200 W Vandalia Road", "@spider": "childcare_network", "addr:full": "2200 W Vandalia Road", "addr:city": "Greensboro", "addr:state": "North Carolina", "addr:postcode": "27407", "addr:country": "US", "name": "Greensboro W. Vandalia Road", "phone": "(336) 854-0111", "website": "https://schools.childcarenetwork.com/nc/greensboro/2200-w-vandalia-road", "opening_hours": "7:00 AM"}, "geometry": {"type": "Point", "coordinates": [-79.84724416873456, 36.0202368673354]}},
{"type": "Feature", "id": "H0PxTRrGbbO3u_S-NURXbjW8PlI=", "properties": {"ref": "1907 Adams Farm Parkway", "@spider": "childcare_network", "addr:full": "1907 Adams Farm Parkway", "addr:city": "Greensboro", "addr:state": "North Carolina", "addr:postcode": "27407", "addr:country": "US", "name": "Greensboro Adams Farm Road", "phone": "(336) 854-5710", "website": "https://schools.childcarenetwork.com/nc/greensboro/1907-adams-farm-parkway", "opening_hours": "6:30 AM"}, "geometry": {"type": "Point", "coordinates": [-79.90478298569269, 36.02065481431211]}},
{"type": "Feature", "id": "7DbD5OGHiBR6QFDzjqOsP437Pt8=", "properties": {"ref": "1405 West Friendly Avenue", "@spider": "childcare_network", "addr:full": "1405 West Friendly Avenue", "addr:city": "Greensboro", "addr:state": "North Carolina", "addr:postcode": "27403", "addr:country": "US", "name": "Greensboro West Friendly Avenue", "phone": "(336) 275-3048", "website": "https://schools.childcarenetwork.com/nc/greensboro/1405-west-friendly-avenue", "opening_hours": "6:30 AM"}, "geometry": {"type": "Point", "coordinates": [-79.81168201165679, 36.07438471846588]}},
{"type": "Feature", "id": "2Ar3nU3mJioj71oi67mcjfIZWEc=", "properties": {"ref": "111 Muirs Chapel Road", "@spider": "childcare_network", "addr:full": "111 Muirs Chapel Road", "addr:city": "Greensboro", "addr:state": "North Carolina", "addr:postcode": "27410", "addr:country": "US", "name": "Greensboro Muirs Chapel Road", "phone": "(336) 852-0241", "website": "https://schools.childcarenetwork.com/nc/greensboro/111-muirs-chapel-road", "opening_hours": "6:30 AM"}, "geometry": {"type": "Point", "coordinates": [-79.8702075, 36.0717283]}},
{"type": "Feature", "id": "A5-uu6MaosxT--jGrPrI9c-6d_o=", "properties": {"ref": "3250 N Shiloh Road", "@spider": "childcare_network", "addr:full": "3250 N Shiloh Road", "addr:city": "Garner", "addr:state": "North Carolina", "addr:postcode": "27529", "addr:country": "US", "name": "Garner N. Shiloh Road", "phone": "(919) 553-2057", "website": "https://schools.childcarenetwork.com/nc/garner/3250-n-shiloh-road", "opening_hours": "6:30 AM"}, "geometry": {"type": "Point", "coordinates": [-78.5509874, 35.5879116]}},
{"type": "Feature", "id": "ABkJquC7JKI1YQw41BFoQr_lR3U=", "properties": {"ref": "1600 Benson Road", "@spider": "childcare_network", "addr:full": "1600 Benson Road", "addr:city": "Garner", "addr:state": "North Carolina", "addr:postcode": "27529", "addr:country": "US", "name": "Garner Benson Road", "phone": "(919) 772-5437", "website": "https://schools.childcarenetwork.com/nc/garner/1600-benson-road", "opening_hours": "6:30 AM"}, "geometry": {"type": "Point", "coordinates": [-78.60471918344973, 35.68402658784522]}},
{"type": "Feature", "id": "HBebfJwPmW0Qco1BpcuRL9uv7G0=", "properties": {"ref": "7011 Nexus Court", "@spider": "childcare_network", "addr:full": "7011 Nexus Court", "addr:city": "Fayetteville", "addr:state": "North Carolina", "addr:postcode": "28304", "addr:country": "US", "name": "Fayetteville Raeford Road / Nexus Court", "phone": "(910) 867-6544", "website": "https://schools.childcarenetwork.com/nc/fayetteville/7011-nexus-court", "opening_hours": "5:00 AM"}, "geometry": {"type": "Point", "coordinates": [-79.0155593, 35.0344035]}},
{"type": "Feature", "id": "hDW2ua8BkIDvKDYpbbU7gWuGY74=", "properties": {"ref": "1010 South Williamson Avenue", "@spider": "childcare_network", "addr:full": "1010 South Williamson Avenue", "addr:city": "Elon", "addr:state": "North Carolina", "addr:postcode": "27244", "addr:country": "US", "name": "Elon S. Williamson Avenue", "phone": "(336) 584-5678", "website": "https://schools.childcarenetwork.com/nc/elon/1010-south-williamson-avenue", "opening_hours": "6:30 AM"}, "geometry": {"type": "Point", "coordinates": [-79.51450967915059, 36.08220359917913]}},
{"type": "Feature", "id": "LTsrYqcaH8ax0Npsp39qnYJChPQ=", "properties": {"ref": "500 Mercer Mill Road", "@spider": "childcare_network", "addr:full": "500 Mercer Mill Road", "addr:city": "Elizabethtown", "addr:state": "North Carolina", "addr:postcode": "28337", "addr:country": "US", "name": "Elizabethtown Mercer Mill Road", "phone": "(910) 872-0000", "website": "https://schools.childcarenetwork.com/nc/elizabethtown/500-mercer-mill-road", "opening_hours": "6:30 AM"}, "geometry": {"type": "Point", "coordinates": [-78.6040878, 34.6183776]}},
{"type": "Feature", "id": "sAJbgnATdXzpYHOwk7n0L213T4U=", "properties": {"ref": "827 South Sellers Mill Road", "@spider": "childcare_network", "addr:full": "827 South Sellers Mill Road", "addr:city": "Burlington", "addr:state": "North Carolina", "addr:postcode": "27217", "addr:country": "US", "name": "Burlington S. Sellars Mill Road", "phone": "(336) 226-7361", "website": "https://schools.childcarenetwork.com/nc/burlington/827-south-sellers-mill-road", "opening_hours": "6:30 AM"}, "geometry": {"type": "Point", "coordinates": [-79.39929399694154, 36.08493191620572]}},
{"type": "Feature", "id": "py_0T3Q462mtkQE5Q7hDjRN5MY0=", "properties": {"ref": "143 Patsy Street", "@spider": "childcare_network", "addr:full": "143 Patsy Street", "addr:city": "Benson", "addr:state": "North Carolina", "addr:postcode": "27504", "addr:country": "US", "name": "Benson", "phone": "(919) 934-1430", "website": "https://schools.childcarenetwork.com/nc/benson/143-patsy-street", "opening_hours": "6:30 AM"}, "geometry": {"type": "Point", "coordinates": [-78.55633, 35.52066]}},
{"type": "Feature", "id": "wXH6Ua6VYMjEQgvj-cMvZMyaTDQ=", "properties": {"ref": "310 RL Stowe Road", "@spider": "childcare_network", "addr:full": "310 RL Stowe Road", "addr:city": "Belmont", "addr:state": "North Carolina", "addr:postcode": "28012", "addr:country": "US", "name": "Belmont RL Stowe Road", "phone": "(704) 825-5112", "website": "https://schools.childcarenetwork.com/nc/belmont/310-rl-stowe-road", "opening_hours": "6:30 AM"}, "geometry": {"type": "Point", "coordinates": [-81.03643177610041, 35.23416413272638]}},
{"type": "Feature", "id": "sjEsOt0gN66GKaNaA3_W-ZO9hX0=", "properties": {"ref": "3749 Sweeten Creek Road", "@spider": "childcare_network", "addr:full": "3749 Sweeten Creek Road", "addr:city": "Arden", "addr:state": "North Carolina", "addr:postcode": "28704", "addr:country": "US", "name": "Arden Sweeten Creek Road", "phone": "(828) 681-5250", "website": "https://schools.childcarenetwork.com/nc/arden/3749-sweeten-creek-road", "opening_hours": "7:00 AM"}, "geometry": {"type": "Point", "coordinates": [-82.5155257, 35.4734517]}},
{"type": "Feature", "id": "sDEq4u9fISJDEHv0xMm8-9SwLxM=", "properties": {"ref": "5791 Pepperbush Road", "@spider": "childcare_network", "addr:full": "5791 Pepperbush Road", "addr:city": "Fayetteville", "addr:state": "North Carolina", "addr:postcode": "28304", "addr:country": "US", "name": "Fayetteville Pepperbush Drive", "phone": "(910) 424-0492", "website": "https://schools.childcarenetwork.com/nc/fayetteville/5791-pepperbush-road", "opening_hours": "6:00 AM"}, "geometry": {"type": "Point", "coordinates": [-78.98203664723871, 35.01381121293612]}},
{"type": "Feature", "id": "QvN6V62-_IwufL8sLDXIZL4yII4=", "properties": {"ref": "312 Brynn Marr Road", "@spider": "childcare_network", "addr:full": "312 Brynn Marr Road", "addr:city": "Jacksonville", "addr:state": "North Carolina", "addr:postcode": "28546", "addr:country": "US", "name": "Jacksonville Brynn Marr Road", "phone": "(910) 353-5437", "website": "https://schools.childcarenetwork.com/nc/jacksonville/312-brynn-marr-road", "opening_hours": "6:00 AM"}, "geometry": {"type": "Point", "coordinates": [-77.37687618096828, 34.74913465570688]}},
{"type": "Feature", "id": "fFr1IEfaNsQiuXwKfZG5f5zAeq4=", "properties": {"ref": "5500 Old Thomasville Road", "@spider": "childcare_network", "addr:full": "5500 Old Thomasville Road", "addr:city": "Archdale", "addr:state": "North Carolina", "addr:postcode": "27263", "addr:country": "US", "name": "Archdale Old Thomasville Road", "phone": "(336) 882-1004", "website": "https://schools.childcarenetwork.com/nc/archdale/5500-old-thomasville-road", "opening_hours": "6:30 AM"}, "geometry": {"type": "Point", "coordinates": [-80.04576848691482, 35.905239626046985]}},
{"type": "Feature", "id": "WAty_wv43PGMsHsXAq-PfAqiZYE=", "properties": {"ref": "451 N Clear Springs Road", "@spider": "childcare_network", "addr:full": "451 N Clear Springs Road", "addr:city": "Mustang", "addr:state": "Oklahoma", "addr:postcode": "73064", "addr:country": "US", "name": "Mustang", "phone": "(405) 376-4235", "website": "https://schools.childcarenetwork.com/ok/mustang/451-n-clear-springs-road", "opening_hours": "6:00 AM"}, "geometry": {"type": "Point", "coordinates": [-97.760856, 35.395219]}},
{"type": "Feature", "id": "jrR5XmOW42yhoqZBTGueNpAkxWQ=", "properties": {"ref": "2230 North Janeway Avenue", "@spider": "childcare_network", "addr:full": "2230 North Janeway Avenue", "addr:city": "Moore", "addr:state": "Oklahoma", "addr:postcode": "73160", "addr:country": "US", "name": "Moore North Janeway Avenue", "phone": "(405) 794-6346", "website": "https://schools.childcarenetwork.com/ok/moore/2230-north-janeway-avenue", "opening_hours": "6:30 AM"}, "geometry": {"type": "Point", "coordinates": [-97.5026526, 35.3579394]}},
{"type": "Feature", "id": "BBKLz7C5DXMv8NFh2C5sAkKOrrw=", "properties": {"ref": "1818C Hamill Road", "@spider": "childcare_network", "addr:full": "1818C Hamill Road", "addr:city": "Hixson", "addr:state": "Tennessee", "addr:postcode": "37343", "addr:country": "US", "name": "Hixson Hamill Road", "phone": "(423) 877-4180", "website": "https://schools.childcarenetwork.com/tn/hixson/1818c-hamill-road", "opening_hours": "6:30 AM"}, "geometry": {"type": "Point", "coordinates": [-85.2410346055052, 35.12127071745534]}},
{"type": "Feature", "id": "HRT1-sfm36fm4n-2fwPQWt-iJuk=", "properties": {"ref": "2150 Edmonds Lane", "@spider": "childcare_network", "addr:full": "2150 Edmonds Lane", "addr:city": "Lewisville", "addr:state": "Texas", "addr:postcode": "75067", "addr:country": "US", "name": "Lewisville Edmonds Lane", "phone": "(469) 630-6388", "website": "https://schools.childcarenetwork.com/tx/lewisville/2150-edmonds-lane", "opening_hours": "6:30 AM"}, "geometry": {"type": "Point", "coordinates": [-97.00639997668648, 33.006822002737245]}},
{"type": "Feature", "id": "i6PylEeHjEPXbpY32wa1LUhGiqc=", "properties": {"ref": "921 Ruby Street", "@spider": "childcare_network", "addr:full": "921 Ruby Street", "addr:city": "Durham", "addr:state": "North Carolina", "addr:postcode": "27704", "addr:country": "US", "name": "Durham Ruby Street", "phone": "(919) 220-8395", "website": "https://schools.childcarenetwork.com/nc/durham/921-ruby-street", "opening_hours": "6:30 AM"}, "geometry": {"type": "Point", "coordinates": [-78.90761885950718, 36.02250400203032]}},
{"type": "Feature", "id": "jxZq2ksUMIBAz_u2wfGCnyGORAs=", "properties": {"ref": "622 S Barbour Street", "@spider": "childcare_network", "addr:full": "622 S Barbour Street", "addr:city": "Clayton", "addr:state": "North Carolina", "addr:postcode": "27520", "addr:country": "US", "name": "Clayton Highway 70 / S. Barbour Street", "phone": "(919) 553-5814", "website": "https://schools.childcarenetwork.com/nc/clayton/622-s-barbour-street", "opening_hours": "6:30 AM"}, "geometry": {"type": "Point", "coordinates": [-78.46384189508916, 35.64675877792734]}},
{"type": "Feature", "id": "ffYEgttxUUAT1MFphyjI3K0ZUKg=", "properties": {"ref": "8216 University Ridge Drive", "@spider": "childcare_network", "addr:full": "8216 University Ridge Drive", "addr:city": "Charlotte", "addr:state": "North Carolina", "addr:postcode": "28213", "addr:country": "US", "name": "Charlotte University Ridge Drive", "phone": "(704) 598-1911", "website": "https://schools.childcarenetwork.com/nc/charlotte/8216-university-ridge-drive", "opening_hours": "6:30 AM"}, "geometry": {"type": "Point", "coordinates": [-80.737422, 35.2913764]}},
{"type": "Feature", "id": "TDMkcxAw2cEb-VrxD4omfMnvC-c=", "properties": {"ref": "7207 Lawyers Road", "@spider": "childcare_network", "addr:full": "7207 Lawyers Road", "addr:city": "Charlotte", "addr:state": "North Carolina", "addr:postcode": "28227", "addr:country": "US", "name": "Charlotte Lawyers Road", "phone": "(704) 531-2023", "website": "https://schools.childcarenetwork.com/nc/charlotte/7207-lawyers-road", "opening_hours": "6:30 AM"}, "geometry": {"type": "Point", "coordinates": [-80.71944422759532, 35.20000671237023]}},
{"type": "Feature", "id": "ySuLLDKd8x-ZG6lx0iuNiqSAb4A=", "properties": {"ref": "651 Woodlawn Road", "@spider": "childcare_network", "addr:full": "651 Woodlawn Road", "addr:city": "Charlotte", "addr:state": "North Carolina", "addr:postcode": "28209", "addr:country": "US", "name": "Charlotte Woodlawn Road", "phone": "(704) 523-9294", "website": "https://schools.childcarenetwork.com/nc/charlotte/651-woodlawn-road", "opening_hours": "6:30 AM"}, "geometry": {"type": "Point", "coordinates": [-80.8691406, 35.1740837]}},
{"type": "Feature", "id": "cJYSEN-rDCJFGeO_ixYoXKyC_mU=", "properties": {"ref": "6418 Park South Drive", "@spider": "childcare_network", "addr:full": "6418 Park South Drive", "addr:city": "Charlotte", "addr:state": "North Carolina", "addr:postcode": "28210", "addr:country": "US", "name": "Charlotte Park South Drive", "phone": "(704) 554-8378", "website": "https://schools.childcarenetwork.com/nc/charlotte/6418-park-south-drive", "opening_hours": "6:30 AM"}, "geometry": {"type": "Point", "coordinates": [-80.84644962144375, 35.14344179806111]}},
{"type": "Feature", "id": "t_IQkieQDvKsNJrBjU9uABCxUfM=", "properties": {"ref": "443 Weaverville Hwy", "@spider": "childcare_network", "addr:full": "443 Weaverville Hwy", "addr:city": "Asheville", "addr:state": "North Carolina", "addr:postcode": "28804", "addr:country": "US", "name": "Asheville Weaverville Highway", "phone": "(828) 645-2697", "website": "https://schools.childcarenetwork.com/nc/asheville/443-weaverville-hwy", "opening_hours": "6:30 AM"}, "geometry": {"type": "Point", "coordinates": [-82.58325654049281, 35.667931220015866]}},
{"type": "Feature", "id": "v-DalvPGKRHYo3hkPWWO_GO6lyI=", "properties": {"ref": "330 Sardis Road", "@spider": "childcare_network", "addr:full": "330 Sardis Road", "addr:city": "Asheville", "addr:state": "North Carolina", "addr:postcode": "28806", "addr:country": "US", "name": "Asheville Sardis Road", "phone": "(828) 670-9890", "website": "https://schools.childcarenetwork.com/nc/asheville/330-sardis-road", "opening_hours": "7:00 AM"}, "geometry": {"type": "Point", "coordinates": [-82.63443298976728, 35.54092208507644]}},
{"type": "Feature", "id": "2mq4-a6x8p3w2DbGHehRvgUqx0o=", "properties": {"ref": "5235 The Plaza", "@spider": "childcare_network", "addr:full": "5235 The Plaza", "addr:city": "Charlotte", "addr:state": "North Carolina", "addr:postcode": "28215", "addr:country": "US", "name": "Charlotte The Plaza", "phone": "(704) 536-9103", "website": "https://schools.childcarenetwork.com/nc/charlotte/5235-the-plaza", "opening_hours": "6:30 AM"}, "geometry": {"type": "Point", "coordinates": [-80.76530850888594, 35.249855840849]}},
{"type": "Feature", "id": "U_ooGRfxXpxkpKrOACqZ5mf5zr0=", "properties": {"ref": "5026 Monroe Road", "@spider": "childcare_network", "addr:full": "5026 Monroe Road", "addr:city": "Charlotte", "addr:state": "North Carolina", "addr:postcode": "28205", "addr:country": "US", "name": "Charlotte Monroe Road", "phone": "(704) 535-3207", "website": "https://schools.childcarenetwork.com/nc/charlotte/5026-monroe-road", "opening_hours": "6:30 AM"}, "geometry": {"type": "Point", "coordinates": [-80.77717410903387, 35.19085457038232]}},
{"type": "Feature", "id": "5uCaxdPfmzCiGlKmOHc5y2-dt7k=", "properties": {"ref": "5017 South Boulevard", "@spider": "childcare_network", "addr:full": "5017 South Boulevard", "addr:city": "Charlotte", "addr:state": "North Carolina", "addr:postcode": "28217", "addr:country": "US", "name": "Charlotte South Boulevard", "phone": "(704) 525-0840", "website": "https://schools.childcarenetwork.com/nc/charlotte/5017-south-boulevard", "opening_hours": "6:30 AM"}, "geometry": {"type": "Point", "coordinates": [-80.87534585954188, 35.169436977935995]}},
{"type": "Feature", "id": "x3T8e8jrvWiY71nBpfi47cIGgYg=", "properties": {"ref": "4609 Tuckaseegee Road", "@spider": "childcare_network", "addr:full": "4609 Tuckaseegee Road", "addr:city": "Charlotte", "addr:state": "North Carolina", "addr:postcode": "28208", "addr:country": "US", "name": "Charlotte Tuckaseegee Road", "phone": "(704) 392-0393", "website": "https://schools.childcarenetwork.com/nc/charlotte/4609-tuckaseegee-road", "opening_hours": "6:30 AM"}, "geometry": {"type": "Point", "coordinates": [-80.90249000057696, 35.24646981135052]}},
{"type": "Feature", "id": "kI6i3zrKQBo0K39xzMkO7kVWtCE=", "properties": {"ref": "430 West Sugar Creek", "@spider": "childcare_network", "addr:full": "430 West Sugar Creek", "addr:city": "Charlotte", "addr:state": "North Carolina", "addr:postcode": "28213", "addr:country": "US", "name": "Charlotte West Sugar Creek", "phone": "(704) 597-0191", "website": "https://schools.childcarenetwork.com/nc/charlotte/430-west-sugar-creek", "opening_hours": "6:30 AM"}, "geometry": {"type": "Point", "coordinates": [-80.79394672139529, 35.264740080190954]}},
{"type": "Feature", "id": "Y0LltjvcvHXapK3IPUDvAdl0vHE=", "properties": {"ref": "1909 East 15th Street", "@spider": "childcare_network", "addr:full": "1909 East 15th Street", "addr:city": "Edmond", "addr:state": "Oklahoma", "addr:postcode": "73013", "addr:country": "US", "name": "Edmond E. 15th Street", "phone": "(405) 348-1491", "website": "https://schools.childcarenetwork.com/ok/edmond/1909-east-15th-street", "opening_hours": "6:30 AM"}, "geometry": {"type": "Point", "coordinates": [-97.45523032944777, 35.638756079110074]}},
{"type": "Feature", "id": "ytfsFafVxxBVkaclNjA9qH6qWJ8=", "properties": {"ref": "14300 N. Western Avenue", "@spider": "childcare_network", "addr:full": "14300 N. Western Avenue", "addr:city": "Edmond", "addr:state": "Oklahoma", "addr:postcode": "73013", "addr:country": "US", "name": "Edmond N. Western Avenue", "phone": "(405) 748-4424", "website": "https://schools.childcarenetwork.com/ok/edmond/14300-n-western-avenue", "opening_hours": "6:30 AM"}, "geometry": {"type": "Point", "coordinates": [-97.53126565681657, 35.615408113349076]}},
{"type": "Feature", "id": "BtUySQU1MzaeKXFoS-9KRQsREbo=", "properties": {"ref": "4650 Redlands Drive", "@spider": "childcare_network", "addr:full": "4650 Redlands Drive", "addr:city": "Chattanooga", "addr:state": "Tennessee", "addr:postcode": "37416", "addr:country": "US", "name": "Chattanooga Bonny Oaks Drive", "phone": "(423) 899-2821", "website": "https://schools.childcarenetwork.com/tn/chattanooga/4650-redlands-drive", "opening_hours": "6:30 AM"}, "geometry": {"type": "Point", "coordinates": [-85.19654431473253, 35.07530378028905]}},
{"type": "Feature", "id": "2jJlQcqWd-5ku56pX6dIZDAWYhI=", "properties": {"ref": "2020 South MacArthur Blvd", "@spider": "childcare_network", "addr:full": "2020 South MacArthur Blvd", "addr:city": "Irving", "addr:state": "Texas", "addr:postcode": "75060", "addr:country": "US", "name": "Irving S. MacArthur Boulevard", "phone": "(972) 790-4337", "website": "https://schools.childcarenetwork.com/tx/irving/2020-south-macarthur-blvd", "opening_hours": "6:30 AM"}, "geometry": {"type": "Point", "coordinates": [-96.95888446073059, 32.79336632519609]}},
{"type": "Feature", "id": "gSQ5mwhw8TgSrPy-m0snaHIa6Sw=", "properties": {"ref": "6161 Haltom Road", "@spider": "childcare_network", "addr:full": "6161 Haltom Road", "addr:city": "Haltom City", "addr:state": "Texas", "addr:postcode": "76137", "addr:country": "US", "name": "Haltom City Haltom Road", "phone": "(817) 498-0055", "website": "https://schools.childcarenetwork.com/tx/haltom-city/6161-haltom-road", "opening_hours": "6:30 AM"}, "geometry": {"type": "Point", "coordinates": [-97.28109321829754, 32.86063592259023]}},
{"type": "Feature", "id": "dbrRuKDvqWn202KQ3GOdOMU3VJk=", "properties": {"ref": "707 South Cedar Ridge", "@spider": "childcare_network", "addr:full": "707 South Cedar Ridge", "addr:city": "Duncanville", "addr:state": "Texas", "addr:postcode": "75137", "addr:country": "US", "name": "Duncanville South Cedar Ridge", "phone": "(972) 298-0252", "website": "https://schools.childcarenetwork.com/tx/duncanville/707-south-cedar-ridge", "opening_hours": "6:30 AM"}, "geometry": {"type": "Point", "coordinates": [-96.926447, 32.645681]}},
{"type": "Feature", "id": "TM5A29M4pqRglqE-MEC8BefHBXs=", "properties": {"ref": "1602 Gunbarrel Road", "@spider": "childcare_network", "addr:full": "1602 Gunbarrel Road", "addr:city": "Chattanooga", "addr:state": "Tennessee", "addr:postcode": "37421", "addr:country": "US", "name": "Chattanooga Gunbarrel Road", "phone": "(423) 894-6332", "website": "https://schools.childcarenetwork.com/tn/chattanooga/1602-gunbarrel-road", "opening_hours": "7:30 AM"}, "geometry": {"type": "Point", "coordinates": [-85.16044924354469, 35.017799096493]}},
{"type": "Feature", "id": "xi4ehV2uPyOJWIt5_koTNCb2NxY=", "properties": {"ref": "1510 East 3rd Street", "@spider": "childcare_network", "addr:full": "1510 East 3rd Street", "addr:city": "Chattanooga", "addr:state": "Tennessee", "addr:postcode": "37404", "addr:country": "US", "name": "Chattanooga 3rd Street", "phone": "(423) 629-0303", "website": "https://schools.childcarenetwork.com/tn/chattanooga/1510-east-3rd-street", "opening_hours": "6:30 AM"}, "geometry": {"type": "Point", "coordinates": [-85.27772389777203, 35.042610529203536]}},
{"type": "Feature", "id": "yhjfOPwsSDZeHtD2gLVbpOZra-E=", "properties": {"ref": "1043 Grays Drive", "@spider": "childcare_network", "addr:full": "1043 Grays Drive", "addr:city": "Chattanooga", "addr:state": "Tennessee", "addr:postcode": "37421", "addr:country": "US", "name": "Chattanooga Grays Drive", "phone": "(423) 855-1664", "website": "https://schools.childcarenetwork.com/tn/chattanooga/1043-grays-drive", "opening_hours": "6:30 AM"}, "geometry": {"type": "Point", "coordinates": [-85.1473501989754, 35.00129717517187]}},
{"type": "Feature", "id": "dB4N4uOw83iJLA8w82fEOQ3qdtc=", "properties": {"ref": "2241 Commonwealth Avenue", "@spider": "childcare_network", "addr:full": "2241 Commonwealth Avenue", "addr:city": "Charlotte", "addr:state": "North Carolina", "addr:postcode": "28205", "addr:country": "US", "name": "Charlotte Commonwealth Avenue", "phone": "(704) 334-7269", "website": "https://schools.childcarenetwork.com/nc/charlotte/2241-commonwealth-avenue", "opening_hours": "6:30 AM"}, "geometry": {"type": "Point", "coordinates": [-80.8077037024641, 35.21678233044879]}},
{"type": "Feature", "id": "rnI1-kkyldNgQvwWih9KqRbGzro=", "properties": {"ref": "1901 North Sharon Amity Road", "@spider": "childcare_network", "addr:full": "1901 North Sharon Amity Road", "addr:city": "Charlotte", "addr:state": "North Carolina", "addr:postcode": "28205", "addr:country": "US", "name": "Charlotte Sharon Amity Road", "phone": "(704) 536-4602", "website": "https://schools.childcarenetwork.com/nc/charlotte/1901-north-sharon-amity-road", "opening_hours": "6:30 AM"}, "geometry": {"type": "Point", "coordinates": [-80.77458895031452, 35.18703044633005]}},
{"type": "Feature", "id": "rTh393__0LILz5eeJmJ1GxTBB6c=", "properties": {"ref": "55 Hawkesburg Drive", "@spider": "childcare_network", "addr:full": "55 Hawkesburg Drive", "addr:city": "Clayton", "addr:state": "North Carolina", "addr:postcode": "27527", "addr:country": "US", "name": "Clayton Hawkesburg Drive / Powhatan", "phone": "(919) 359-0495", "website": "https://schools.childcarenetwork.com/nc/clayton/55-hawkesburg-drive", "opening_hours": "6:30 AM"}, "geometry": {"type": "Point", "coordinates": [-78.39225074049284, 35.629740853132716]}},
{"type": "Feature", "id": "a3U3dTtS7PTBGnQninkQMwmum7A=", "properties": {"ref": "2029 Winston Road", "@spider": "childcare_network", "addr:full": "2029 Winston Road", "addr:city": "Clayton", "addr:state": "North Carolina", "addr:postcode": "27520", "addr:country": "US", "name": "Clayton Winston Road", "phone": "(919) 553-1030", "website": "https://schools.childcarenetwork.com/nc/clayton/2029-winston-road", "opening_hours": "6:30 AM"}, "geometry": {"type": "Point", "coordinates": [-78.5053008, 35.6457365]}},
{"type": "Feature", "id": "SyrRsYx1Bh1VdXkuWRh0LtyAw38=", "properties": {"ref": "100 East School Road", "@spider": "childcare_network", "addr:full": "100 East School Road", "addr:city": "Clayton", "addr:state": "North Carolina", "addr:postcode": "27527", "addr:country": "US", "name": "Clayton Highway 42 / E. School Road", "phone": "(919) 553-1215", "website": "https://schools.childcarenetwork.com/nc/clayton/100-east-school-road", "opening_hours": "6:30 AM"}, "geometry": {"type": "Point", "coordinates": [-78.3992843, 35.6483154]}},
{"type": "Feature", "id": "EbmhfVsIjukT0oFeVmRPysEJKHA=", "properties": {"ref": "117 Woodcroft Parkway", "@spider": "childcare_network", "addr:full": "117 Woodcroft Parkway", "addr:city": "Durham", "addr:state": "North Carolina", "addr:postcode": "27713", "addr:country": "US", "name": "Durham Woodcroft Parkway", "phone": "(919) 489-8899", "website": "https://schools.childcarenetwork.com/nc/durham/117-woodcroft-parkway", "opening_hours": "6:30 AM"}, "geometry": {"type": "Point", "coordinates": [-78.9284522, 35.9230547]}},
{"type": "Feature", "id": "P_Nj0pZV6flKqLpaMOXFQ3DL3W4=", "properties": {"ref": "115 Rippling Stream Road", "@spider": "childcare_network", "addr:full": "115 Rippling Stream Road", "addr:city": "Durham", "addr:state": "North Carolina", "addr:postcode": "27704", "addr:country": "US", "name": "Durham Rippling Stream Road", "phone": "(919) 477-5689", "website": "https://schools.childcarenetwork.com/nc/durham/115-rippling-stream-road", "opening_hours": "6:30 AM"}, "geometry": {"type": "Point", "coordinates": [-78.9073518387637, 36.071630867259096]}},
{"type": "Feature", "id": "bckjLgVwj3B2u3hozxJkEUPQc1E=", "properties": {"ref": "1358 Robinson Rd", "@spider": "childcare_network", "addr:full": "1358 Robinson Rd", "addr:city": "Corinth", "addr:state": "Texas", "addr:postcode": "76210", "addr:country": "US", "name": "Corinth Robinson Road", "phone": "(940) 891-2500", "website": "https://schools.childcarenetwork.com/tx/corinth/1358-robinson-rd", "opening_hours": "6:30 AM"}, "geometry": {"type": "Point", "coordinates": [-97.08713988468497, 33.15898077594831]}},
{"type": "Feature", "id": "h3ss_4oxDoQL7_a_n2xKxydiEaE=", "properties": {"ref": "2029 W. Hebron Pkwy", "@spider": "childcare_network", "addr:full": "2029 W. Hebron Pkwy", "addr:city": "Carrollton", "addr:state": "Texas", "addr:postcode": "75010", "addr:country": "US", "name": "Carrollton W. Hebron Parkway", "phone": "(972) 939-8210", "website": "https://schools.childcarenetwork.com/tx/carrollton/2029-w-hebron-pkwy", "opening_hours": "6:30 AM"}, "geometry": {"type": "Point", "coordinates": [-96.94628685962556, 33.01428705107812]}},
{"type": "Feature", "id": "c1K3u5_c1gz4NNFhOO9Fu4VDmhQ=", "properties": {"ref": "4636 S. Hwy 360", "@spider": "childcare_network", "addr:full": "4636 S. Hwy 360", "addr:city": "Grand Prairie", "addr:state": "Texas", "addr:postcode": "75052", "addr:country": "US", "name": "Grand Prairie S. Highway 360", "phone": "(972) 988-3900", "website": "https://schools.childcarenetwork.com/tx/grand-prairie/4636-s-hwy-360", "opening_hours": "6:30 AM"}, "geometry": {"type": "Point", "coordinates": [-97.060226, 32.660565]}},
{"type": "Feature", "id": "Z5mZ3oDlWAEtrDe8mBbQzjbaKPU=", "properties": {"ref": "6157 Silver Sage Drive", "@spider": "childcare_network", "addr:full": "6157 Silver Sage Drive", "addr:city": "Ft Worth", "addr:state": "Texas", "addr:postcode": "76137", "addr:country": "US", "name": "Ft Worth Silver Sage Drive", "phone": "(817) 581-9454", "website": "https://schools.childcarenetwork.com/tx/ft-worth/6157-silver-sage-drive", "opening_hours": "6:00 AM"}, "geometry": {"type": "Point", "coordinates": [-97.28612102025511, 32.86028549390958]}},
{"type": "Feature", "id": "FABhlI0ZpHLnQssKHxYDHDjHcdM=", "properties": {"ref": "3420 W Risinger Road", "@spider": "childcare_network", "addr:full": "3420 W Risinger Road", "addr:city": "Ft Worth", "addr:state": "Texas", "addr:postcode": "76123", "addr:country": "US", "name": "Ft Worth Risinger Road", "phone": "(817) 292-5599", "website": "https://schools.childcarenetwork.com/tx/ft-worth/3420-w-risinger-road", "opening_hours": "6:30 AM"}, "geometry": {"type": "Point", "coordinates": [-97.36999346932885, 32.61531867028316]}},
{"type": "Feature", "id": "_xL1LrgvdeI2G5Lc_aaKSptKXEw=", "properties": {"ref": "5025 Teasley Lane", "@spider": "childcare_network", "addr:full": "5025 Teasley Lane", "addr:city": "Denton", "addr:state": "Texas", "addr:postcode": "76210", "addr:country": "US", "name": "Denton Teasley Lane", "phone": "(940) 383-5800", "website": "https://schools.childcarenetwork.com/tx/denton/5025-teasley-lane", "opening_hours": "6:30 AM"}, "geometry": {"type": "Point", "coordinates": [-97.1049443, 33.1444423]}},
{"type": "Feature", "id": "7TmnWY8jVpGCK_E0J18weXoSFtw=", "properties": {"ref": "3812 Market Street", "@spider": "childcare_network", "addr:full": "3812 Market Street", "addr:city": "Denton", "addr:state": "Texas", "addr:postcode": "76209", "addr:country": "US", "name": "Denton Market Street", "phone": "(940) 484-8337", "website": "https://schools.childcarenetwork.com/tx/denton/3812-market-street", "opening_hours": "6:00 AM"}, "geometry": {"type": "Point", "coordinates": [-97.0892175, 33.2179608]}},
{"type": "Feature", "id": "toE3QHL0dHZGtUgAJWhBxtZd2Bw=", "properties": {"ref": "140 Expedition Drive", "@spider": "childcare_network", "addr:full": "140 Expedition Drive", "addr:city": "Ft. Worth", "addr:state": "Texas", "addr:postcode": "76108", "addr:country": "US", "name": "Ft. Worth Expedition Drive", "phone": "(817) 246-2771", "website": "https://schools.childcarenetwork.com/tx/ft-worth/140-expedition-drive", "opening_hours": "6:00 AM"}, "geometry": {"type": "Point", "coordinates": [-97.4834150882877, 32.75988002247637]}},
{"type": "Feature", "id": "nm3ljvVuCvb3pegO2COjKVgWYXo=", "properties": {"ref": "3574 S. Carrier Parkway", "@spider": "childcare_network", "addr:full": "3574 S. Carrier Parkway", "addr:city": "Grand Prairie", "addr:state": "Texas", "addr:postcode": "75052", "addr:country": "US", "name": "Grand Prairie S. Carrier Parkway", "phone": "(972) 263-5800", "website": "https://schools.childcarenetwork.com/tx/grand-prairie/3574-s-carrier-parkway", "opening_hours": "6:30 AM"}, "geometry": {"type": "Point", "coordinates": [-97.01079676380635, 32.68444855374285]}},
{"type": "Feature", "id": "4BKVigHOjJcK6iwsQ1y1WgqiJcc=", "properties": {"ref": "240 East Beltline Road", "@spider": "childcare_network", "addr:full": "240 East Beltline Road", "addr:city": "Cedar Hill", "addr:state": "Texas", "addr:postcode": "75104", "addr:country": "US", "name": "Cedar Hill Beltline", "phone": "(972) 293-2882", "website": "https://schools.childcarenetwork.com/tx/cedar-hill/240-east-beltline-road", "opening_hours": "6:30 AM"}, "geometry": {"type": "Point", "coordinates": [-96.93850063252353, 32.589386790843065]}},
{"type": "Feature", "id": "0DFE6rfn7LwI0xUckMAXCqw6C8E=", "properties": {"ref": "195 N. Clark Road", "@spider": "childcare_network", "addr:full": "195 N. Clark Road", "addr:city": "Cedar Hill", "addr:state": "Texas", "addr:postcode": "75104", "addr:country": "US", "name": "Cedar Hill N. Clark Road", "phone": "(972) 299-9999", "website": "https://schools.childcarenetwork.com/tx/cedar-hill/195-n-clark-road", "opening_hours": "6:30 AM"}, "geometry": {"type": "Point", "coordinates": [-96.94294603456274, 32.59126750747087]}},
{"type": "Feature", "id": "N700SJpRPbUl8UVLgg9v4g0j7Wk=", "properties": {"ref": "900 SW Alsbury Boulevard", "@spider": "childcare_network", "addr:full": "900 SW Alsbury Boulevard", "addr:city": "Burleson", "addr:state": "Texas", "addr:postcode": "76028", "addr:country": "US", "name": "Burleson SW Alsbury Boulevard", "phone": "(817) 426-0777", "website": "https://schools.childcarenetwork.com/tx/burleson/900-sw-alsbury-boulevard", "opening_hours": "6:00 AM"}, "geometry": {"type": "Point", "coordinates": [-97.35407, 32.543033]}},
{"type": "Feature", "id": "uzDxE_ciZhAcDcKuUqT54qHn0IY=", "properties": {"ref": "285 Old Highway 1187", "@spider": "childcare_network", "addr:full": "285 Old Highway 1187", "addr:city": "Burleson", "addr:state": "Texas", "addr:postcode": "76028", "addr:country": "US", "name": "Burleson Old Highway 1187", "phone": "(817) 551-1908", "website": "https://schools.childcarenetwork.com/tx/burleson/285-old-highway-1187", "opening_hours": "6:30 AM"}, "geometry": {"type": "Point", "coordinates": [-97.31413037324984, 32.581000799573836]}},
{"type": "Feature", "id": "bUMV5u64LZf32hDPnW0CnMd0Jh8=", "properties": {"ref": "717 W. Stephens Street", "@spider": "childcare_network", "addr:full": "717 W. Stephens Street", "addr:city": "Arlington", "addr:state": "Texas", "addr:postcode": "76017", "addr:country": "US", "name": "Arlington W. Stephens Street", "phone": "(817) 557-6900", "website": "https://schools.childcarenetwork.com/tx/arlington/717-w-stephens-street", "opening_hours": "6:30 AM"}, "geometry": {"type": "Point", "coordinates": [-97.11617901962603, 32.67424022672312]}},
{"type": "Feature", "id": "93N-vHmpxpkN2E2UQ_JN3r3CRiM=", "properties": {"ref": "6250 Matlock Road", "@spider": "childcare_network", "addr:full": "6250 Matlock Road", "addr:city": "Arlington", "addr:state": "Texas", "addr:postcode": "76002", "addr:country": "US", "name": "Arlington Matlock Road", "phone": "(817) 557-8000", "website": "https://schools.childcarenetwork.com/tx/arlington/6250-matlock-road", "opening_hours": "6:30 AM"}, "geometry": {"type": "Point", "coordinates": [-97.11592597726343, 32.64321131529381]}},
{"type": "Feature", "id": "ETeFy3FoE7Dq7Y_U3jV5UWscu8A=", "properties": {"ref": "1400 Caplin Drive", "@spider": "childcare_network", "addr:full": "1400 Caplin Drive", "addr:city": "Arlington", "addr:state": "Texas", "addr:postcode": "76018", "addr:country": "US", "name": "Arlington Caplin Drive", "phone": "(817) 557-0331", "website": "https://schools.childcarenetwork.com/tx/arlington/1400-caplin-drive", "opening_hours": "6:30 AM"}, "geometry": {"type": "Point", "coordinates": [-97.08817276992318, 32.6665412292356]}}]}