{"type":"FeatureCollection","features":[{"type": "Feature", "id": "OZn5k49bmWlI9_ku3D4nXfNxTyM=", "properties": {"ref": "2440", "delivery": "yes", "takeaway": "yes", "contact:deliveroo": "https://deliveroo.co.uk/menu/manchester/ashton-under-lyne/2440-chiquito-ashton-moss", "contact:uberEats": "http://www.ubereats.com/manchester/food-delivery/chiquito-ashton-moss/fhMlCXg7RzCjBKh2D3raNA/", "contact:justEat": "https://www.just-eat.co.uk/restaurants-chiquito-ashtonmoss/menu", "@spider": "chiquito", "amenity": "restaurant", "cuisine": "tex-mex", "addr:full": "Ashton Leisure Park, Ashton under Lyne, North West, OL7 0PG, United Kingdom", "addr:street_address": "Ashton Leisure Park", "addr:city": "Ashton under Lyne", "addr:postcode": "OL7 0PG", "addr:country": "GB", "name": "Ashton Moss", "phone": "+44 161 342 1840", "website": "https://www.chiquito.co.uk/restaurants/ashton-moss", "opening_hours": "Mo-Th 11:00-22:00; Fr-Sa 11:00-23:00; Su 11:00-22:00", "brand": "Chiquito", "brand:wikidata": "Q5101775", "nsi_id": "chiquito-9b5453"}, "geometry": {"type": "Point", "coordinates": [-2.1115789000000404, 53.4890363]}},
{"type": "Feature", "id": "3rfBEK-q8wj-uKcAiEhJSNLtjTE=", "properties": {"ref": "2016", "delivery": "yes", "takeaway": "yes", "contact:deliveroo": "https://deliveroo.co.uk/menu/manchester/middlebrook/2016-chiquito-bolton-middlebrook", "contact:uberEats": "http://www.ubereats.com/manchester/food-delivery/chiquito-bolton-middlebrook/I_OWQXb-TY2nmw99Bb_aUw/", "contact:justEat": "https://www.just-eat.co.uk/restaurants-chiquito-bolton/menu", "@spider": "chiquito", "amenity": "restaurant", "cuisine": "tex-mex", "addr:full": "Middlebrook Retail & Leisure Park, Horwich, Bolton, North West, BL6 6JA, United Kingdom", "addr:street_address": "Middlebrook Retail & Leisure Park", "addr:city": "Horwich, Bolton", "addr:postcode": "BL6 6JA", "addr:country": "GB", "name": "Bolton", "phone": "+44 1204 474030", "website": "https://www.chiquito.co.uk/restaurants/bolton", "opening_hours": "Mo-Th 11:00-22:00; Fr-Sa 11:00-23:00; Su 11:00-21:00", "brand": "Chiquito", "brand:wikidata": "Q5101775", "nsi_id": "chiquito-9b5453"}, "geometry": {"type": "Point", "coordinates": [-2.536255600000004, 53.5831173]}},
{"type": "Feature", "id": "dN8LCKZ24iP3ND-6FqUsAGlj8X0=", "properties": {"ref": "2109", "delivery": "yes", "takeaway": "yes", "contact:deliveroo": "https://deliveroo.co.uk/menu/camberley/camberley/chiquito-camberley", "contact:uberEats": "http://www.ubereats.com/london/food-delivery/chiquito-camberley/HSUZMnATSxS8vuKSvab6GA/", "contact:justEat": "https://www.just-eat.co.uk/restaurants-chiquito-camberley/menu", "@spider": "chiquito", "amenity": "restaurant", "cuisine": "tex-mex", "addr:full": "The Atrium, Camberley, South East, GU15 3GP, United Kingdom", "addr:street_address": "The Atrium", "addr:city": "Camberley", "addr:postcode": "GU15 3GP", "addr:country": "GB", "name": "Camberley - The Atrium", "phone": "+44 1276 410 130", "website": "https://www.chiquito.co.uk/restaurants/camberley-atrium", "opening_hours": "Mo-Th 12:00-22:00; Fr-Sa 12:00-23:00; Su 12:00-22:00", "brand": "Chiquito", "brand:wikidata": "Q5101775", "nsi_id": "chiquito-9b5453"}, "geometry": {"type": "Point", "coordinates": [-0.7480780999999297, 51.3367713]}},
{"type": "Feature", "id": "f0y0th8QcPM-MSka0cLeCK_umTI=", "properties": {"ref": "2320", "delivery": "yes", "takeaway": "yes", "contact:deliveroo": "https://deliveroo.co.uk/menu/ellesmere-port/ellesmere-port-south/chiquito-ellesmere-port", "contact:uberEats": "https://www.ubereats.com/gb/liverpool/food-delivery/chiquito-cheshire-oaks/P1-hV4qZSKycLUSVI9sZCw", "contact:justEat": "https://www.just-eat.co.uk/restaurants-chiquito-cheshireoaksellesmereport/menu", "@spider": "chiquito", "amenity": "restaurant", "cuisine": "tex-mex", "addr:full": "11 Coliseum Way, Ellesmere Port, North West, CH65 9HD, United Kingdom", "addr:street_address": "11 Coliseum Way", "addr:city": "Ellesmere Port", "addr:postcode": "CH65 9HD", "addr:country": "GB", "name": "Cheshire Oaks", "phone": "+44 151 348 8510", "website": "https://www.chiquito.co.uk/restaurants/cheshire-oaks", "opening_hours": "Mo-Sa 12:00-22:00; Su 12:00-21:00", "brand": "Chiquito", "brand:wikidata": "Q5101775", "nsi_id": "chiquito-9b5453"}, "geometry": {"type": "Point", "coordinates": [-2.886016599999948, 53.2642261]}},
{"type": "Feature", "id": "jJNqzBnbIlGl0CIj1hMwZvbaWrI=", "properties": {"ref": "2031", "delivery": "yes", "takeaway": "yes", "contact:deliveroo": "https://deliveroo.co.uk/menu/deeside/deeside/2031-chiquito-chester-broughton?day=today&geohash=gcmykqfdd5s6&time=1200", "contact:uberEats": "https://www.ubereats.com/gb/cardiff/food-delivery/chiquito-chester-broughton/OyZ32qpgRa6KZJmiGENQCQ", "contact:justEat": null, "@spider": "chiquito", "amenity": "restaurant", "cuisine": "tex-mex", "addr:full": "Unit 19 Broughton Shopping Park, Broughton, Wales, CH4 0DP, United Kingdom", "addr:street_address": "Unit 19 Broughton Shopping Park", "addr:city": "Broughton", "addr:postcode": "CH4 0DP", "addr:country": "GB", "name": "Chester Broughton", "phone": "+44 1244530564", "website": "https://www.chiquito.co.uk/restaurants/chester", "opening_hours": "Mo-Th 11:00-21:00; Fr-Sa 11:00-22:00; Su 11:00-21:00", "brand": "Chiquito", "brand:wikidata": "Q5101775", "nsi_id": "chiquito-9b5453"}, "geometry": {"type": "Point", "coordinates": [-2.974109999999996, 53.1670666]}},
{"type": "Feature", "id": "EuqXqwOD37J99S4vWV8MST3zpKE=", "properties": {"ref": "2290", "delivery": "yes", "takeaway": "yes", "contact:deliveroo": "https://deliveroo.co.uk/menu/bristol/catbrain/2290-kick-ass-burrito-chiquito-cribbs-causeway", "contact:uberEats": "http://www.ubereats.com/bristol/food-delivery/chiquito-cribbs-causeway/SNtIzss0RwKGQu8GB8SGoA/", "contact:justEat": "https://www.just-eat.co.uk/restaurants-chiquitocribbscauseway-bristol/menu", "@spider": "chiquito", "amenity": "restaurant", "cuisine": "tex-mex", "addr:full": "Merlyn Road, Cribbs Causeway, South West, BS10 7SR, United Kingdom", "addr:street_address": "Merlyn Road", "addr:city": "Cribbs Causeway", "addr:postcode": "BS10 7SR", "addr:country": "GB", "name": "Cribbs Causeway - The Venue", "phone": "+44 117 959 8900", "website": "https://www.chiquito.co.uk/restaurants/cribbs-causeway-venue", "opening_hours": "Mo-Sa 12:00-22:00; Su 12:00-21:00", "brand": "Chiquito", "brand:wikidata": "Q5101775", "nsi_id": "chiquito-9b5453"}, "geometry": {"type": "Point", "coordinates": [-2.6027813000000606, 51.5230616]}},
{"type": "Feature", "id": "ciYwKqHcgaovwJJjyd9zw9OODCw=", "properties": {"ref": "2480", "delivery": "yes", "takeaway": "yes", "contact:deliveroo": "https://deliveroo.co.uk/menu/birmingham/dudley/2480-chiquito-dudley", "contact:uberEats": "http://www.ubereats.com/birmingham/food-delivery/chiquito-dudley/5ItrmCdLSqmLOeu4HibN1w/", "contact:justEat": "https://www.just-eat.co.uk/restaurants-chiquito-dudley/menu", "@spider": "chiquito", "amenity": "restaurant", "cuisine": "tex-mex", "addr:full": "Castlegate Way, Dudley, West Midlands, DY1 4TA, United Kingdom", "addr:street_address": "Castlegate Way", "addr:city": "Dudley", "addr:postcode": "DY1 4TA", "addr:country": "GB", "name": "Dudley", "phone": "+44 1384 215 130", "website": "https://www.chiquito.co.uk/restaurants/dudley", "opening_hours": "Mo-Th 12:00-22:00; Fr-Sa 12:00-23:00; Su 12:00-22:00", "brand": "Chiquito", "brand:wikidata": "Q5101775", "nsi_id": "chiquito-9b5453"}, "geometry": {"type": "Point", "coordinates": [-2.072222600000032, 52.5161335]}}]}