{"type":"FeatureCollection","features":[{"type": "Feature", "id": "GiPvZLmg6Bl3N0TYXvqUUGhSU6c=", "properties": {"ref": "https://stores.christmastreeshops.com/#14230121", "@spider": "christmas_tree_shops", "shop": "variety_store", "addr:street_address": "46 Springer Drive", "addr:city": "Bangor", "addr:state": "ME", "addr:postcode": "04401", "addr:country": "US", "name": "Christmas Tree Shops Bangor, ME", "phone": "(207) 947-1553", "website": "https://stores.christmastreeshops.com/me/bangor/46-springer-drive", "opening_hours": "Mo-Sa 09:00-21:00; Su 10:00-19:00", "image": "https://dynl.mktgcdn.com/p/LnH7-r1LFD32v4weg_0dIVXJWgwcPjMvUv8CHPwkh4U/304x170.jpg", "brand": "Christmas Tree Shops", "brand:wikidata": "Q5111452", "nsi_id": "christmastreeshops-c85191"}, "geometry": {"type": "Point", "coordinates": [-68.7401078, 44.8371938]}},
{"type": "Feature", "id": "kz9XhND_lWtnS-5HurSlJcDvrRg=", "properties": {"ref": "https://stores.christmastreeshops.com/#14230082", "@spider": "christmas_tree_shops", "shop": "variety_store", "addr:street_address": "42 Whitten Road", "addr:city": "Augusta", "addr:state": "ME", "addr:postcode": "04330", "addr:country": "US", "name": "Christmas Tree Shops Augusta, ME", "phone": "(207) 626-5330", "website": "https://stores.christmastreeshops.com/me/augusta/42-whitten-road", "opening_hours": "Mo-Sa 09:00-21:00; Su 10:00-19:00", "image": "https://dynl.mktgcdn.com/p/LnH7-r1LFD32v4weg_0dIVXJWgwcPjMvUv8CHPwkh4U/304x170.jpg", "brand": "Christmas Tree Shops", "brand:wikidata": "Q5111452", "nsi_id": "christmastreeshops-c85191"}, "geometry": {"type": "Point", "coordinates": [-69.8143626, 44.3133007]}},
{"type": "Feature", "id": "7WMO7oQGgD3dHy5VSgQW0k7uxso=", "properties": {"ref": "https://stores.christmastreeshops.com/#14230123", "@spider": "christmas_tree_shops", "shop": "variety_store", "addr:street_address": "2925 Festival Way", "addr:city": "Waldorf", "addr:state": "MD", "addr:postcode": "20601", "addr:country": "US", "name": "Christmas Tree Shops Waldorf, MD", "phone": "(301) 705-5048", "website": "https://stores.christmastreeshops.com/md/waldorf/2925-festival-way", "opening_hours": "Mo-Sa 09:00-21:00; Su 10:00-19:00", "image": "https://dynl.mktgcdn.com/p/LnH7-r1LFD32v4weg_0dIVXJWgwcPjMvUv8CHPwkh4U/304x170.jpg", "brand": "Christmas Tree Shops", "brand:wikidata": "Q5111452", "nsi_id": "christmastreeshops-c85191"}, "geometry": {"type": "Point", "coordinates": [-76.9085633, 38.6311938]}},
{"type": "Feature", "id": "F03hrKlF6gyKdiz921gRPI8zF6Y=", "properties": {"ref": "https://stores.christmastreeshops.com/#14230133", "@spider": "christmas_tree_shops", "shop": "variety_store", "addr:street_address": "17151 Cole Road", "addr:city": "Hagerstown", "addr:state": "MD", "addr:postcode": "21740", "addr:country": "US", "name": "Christmas Tree Shops Hagerstown, MD", "phone": "(301) 582-0018", "website": "https://stores.christmastreeshops.com/md/hagerstown/17151-cole-road", "opening_hours": "Mo-Sa 09:00-21:00; Su 10:00-19:00", "image": "https://dynl.mktgcdn.com/p/LnH7-r1LFD32v4weg_0dIVXJWgwcPjMvUv8CHPwkh4U/304x170.jpg", "brand": "Christmas Tree Shops", "brand:wikidata": "Q5111452", "nsi_id": "christmastreeshops-c85191"}, "geometry": {"type": "Point", "coordinates": [-77.77547344070126, 39.62106427768482]}},
{"type": "Feature", "id": "ITUSwJwKzeJZ4sLmt8juhb4fDxQ=", "properties": {"ref": "https://stores.christmastreeshops.com/#14230157", "@spider": "christmas_tree_shops", "shop": "variety_store", "addr:street_address": "425 Main St", "addr:city": "West Dennis", "addr:state": "MA", "addr:postcode": "02670", "addr:country": "US", "name": "Christmas Tree Shops West Dennis, MA", "phone": "(508) 394-5557", "website": "https://stores.christmastreeshops.com/ma/west-dennis/425-main-st", "opening_hours": "Mo-Sa 09:00-21:00; Su 10:00-19:00", "image": "https://dynl.mktgcdn.com/p/LnH7-r1LFD32v4weg_0dIVXJWgwcPjMvUv8CHPwkh4U/304x170.jpg", "brand": "Christmas Tree Shops", "brand:wikidata": "Q5111452", "nsi_id": "christmastreeshops-c85191"}, "geometry": {"type": "Point", "coordinates": [-70.16632883749884, 41.664887800373826]}},
{"type": "Feature", "id": "Wwi58HOgdXRHx5BEKr15nxamyy8=", "properties": {"ref": "https://stores.christmastreeshops.com/#14230134", "@spider": "christmas_tree_shops", "shop": "variety_store", "addr:street_address": "177 Middlesex Avenue", "addr:city": "Somerville", "addr:state": "MA", "addr:postcode": "02145", "addr:country": "US", "name": "Christmas Tree Shops Somerville, MA", "phone": "(617) 623-3428", "website": "https://stores.christmastreeshops.com/ma/somerville/177-middlesex-avenue", "opening_hours": "Mo-Sa 09:00-21:00; Su 10:00-19:00", "image": "https://dynl.mktgcdn.com/p/LnH7-r1LFD32v4weg_0dIVXJWgwcPjMvUv8CHPwkh4U/304x170.jpg", "brand": "Christmas Tree Shops", "brand:wikidata": "Q5111452", "nsi_id": "christmastreeshops-c85191"}, "geometry": {"type": "Point", "coordinates": [-71.0832659, 42.3963049]}},
{"type": "Feature", "id": "biAhf6DA6ancdv2Szhwed24_c2w=", "properties": {"ref": "https://stores.christmastreeshops.com/#14230143", "@spider": "christmas_tree_shops", "shop": "variety_store", "addr:street_address": "1000 Boston Turnpike", "addr:city": "Shrewsbury", "addr:state": "MA", "addr:postcode": "01545", "addr:country": "US", "name": "Christmas Tree Shops Shrewsbury, MA", "phone": "(508) 842-5945", "website": "https://stores.christmastreeshops.com/ma/shrewsbury/1000-boston-turnpike", "opening_hours": "Mo-Sa 09:00-21:00; Su 10:00-19:00", "image": "https://dynl.mktgcdn.com/p/LnH7-r1LFD32v4weg_0dIVXJWgwcPjMvUv8CHPwkh4U/304x170.jpg", "brand": "Christmas Tree Shops", "brand:wikidata": "Q5111452", "nsi_id": "christmastreeshops-c85191"}, "geometry": {"type": "Point", "coordinates": [-71.6739582, 42.2805745]}},
{"type": "Feature", "id": "9qX4D5PlKijc053v2MegHPQpT0s=", "properties": {"ref": "https://stores.christmastreeshops.com/#14230151", "@spider": "christmas_tree_shops", "shop": "variety_store", "addr:street_address": "5 Cranberry Highway", "addr:city": "Sagamore", "addr:state": "MA", "addr:postcode": "02561", "addr:country": "US", "name": "Christmas Tree Shops Sagamore, MA", "phone": "(508) 888-7010", "website": "https://stores.christmastreeshops.com/ma/sagamore/5-cranberry-highway", "opening_hours": "Mo-Sa 09:00-21:00; Su 10:00-19:00", "image": "https://dynl.mktgcdn.com/p/LnH7-r1LFD32v4weg_0dIVXJWgwcPjMvUv8CHPwkh4U/304x170.jpg", "brand": "Christmas Tree Shops", "brand:wikidata": "Q5111452", "nsi_id": "christmastreeshops-c85191"}, "geometry": {"type": "Point", "coordinates": [-70.54246124492374, 41.772859018346516]}},
{"type": "Feature", "id": "UXvAcqrnmwPIYkz6cw8Cuburs-s=", "properties": {"ref": "https://stores.christmastreeshops.com/#14230159", "@spider": "christmas_tree_shops", "shop": "variety_store", "addr:street_address": "296 Old Oak Street", "addr:city": "Pembroke", "addr:state": "MA", "addr:postcode": "02359", "addr:country": "US", "name": "Christmas Tree Shops Pembroke, MA", "phone": "(781) 826-8884", "website": "https://stores.christmastreeshops.com/ma/pembroke/296-old-oak-street", "opening_hours": "Mo-Sa 09:00-21:00; Su 10:00-19:00", "image": "https://dynl.mktgcdn.com/p/LnH7-r1LFD32v4weg_0dIVXJWgwcPjMvUv8CHPwkh4U/304x170.jpg", "brand": "Christmas Tree Shops", "brand:wikidata": "Q5111452", "nsi_id": "christmastreeshops-c85191"}, "geometry": {"type": "Point", "coordinates": [-70.7622833, 42.1063232]}},
{"type": "Feature", "id": "8-XNJpYnPHXZrcyV7B_g6I1Gexg=", "properties": {"ref": "https://stores.christmastreeshops.com/#14230154", "@spider": "christmas_tree_shops", "shop": "variety_store", "addr:street_address": "10 S Orleans Road", "addr:city": "Orleans", "addr:state": "MA", "addr:postcode": "02653", "addr:country": "US", "name": "Christmas Tree Shops Orleans, MA", "phone": "(508) 255-8494", "website": "https://stores.christmastreeshops.com/ma/orleans/10-s-orleans-road", "opening_hours": "Mo-Sa 09:00-21:00; Su 10:00-19:00", "image": "https://dynl.mktgcdn.com/p/LnH7-r1LFD32v4weg_0dIVXJWgwcPjMvUv8CHPwkh4U/304x170.jpg", "brand": "Christmas Tree Shops", "brand:wikidata": "Q5111452", "nsi_id": "christmastreeshops-c85191"}, "geometry": {"type": "Point", "coordinates": [-69.98796761724941, 41.79069836130552]}},
{"type": "Feature", "id": "q9lJETd0uX8LIy-hDMyGddUARTw=", "properties": {"ref": "https://stores.christmastreeshops.com/#14230120", "@spider": "christmas_tree_shops", "shop": "variety_store", "addr:street_address": "65 Faunce Corner Mall Road", "addr:city": "North Dartmouth", "addr:state": "MA", "addr:postcode": "02747", "addr:country": "US", "name": "Christmas Tree Shops North Dartmouth, MA", "phone": "(508) 996-4803", "website": "https://stores.christmastreeshops.com/ma/north-dartmouth/65-faunce-corner-mall-road", "opening_hours": "Mo-Sa 09:00-21:00; Su 10:00-19:00", "image": "https://dynl.mktgcdn.com/p/LnH7-r1LFD32v4weg_0dIVXJWgwcPjMvUv8CHPwkh4U/304x170.jpg", "brand": "Christmas Tree Shops", "brand:wikidata": "Q5111452", "nsi_id": "christmastreeshops-c85191"}, "geometry": {"type": "Point", "coordinates": [-70.98463809684017, 41.64571238741491]}},
{"type": "Feature", "id": "Jn0E2_-XV4BDLcj_Knn9MqGxz5g=", "properties": {"ref": "https://stores.christmastreeshops.com/#14230136", "@spider": "christmas_tree_shops", "shop": "variety_store", "addr:street_address": "1505 South Washington Street", "addr:city": "North Attleboro", "addr:state": "MA", "addr:postcode": "02760", "addr:country": "US", "name": "Christmas Tree Shops North Attleboro, MA", "phone": "(508) 399-8978", "website": "https://stores.christmastreeshops.com/ma/north-attleboro/1505-south-washington-street", "opening_hours": "Mo-Sa 09:00-21:00; Su 10:00-19:00", "image": "https://dynl.mktgcdn.com/p/LnH7-r1LFD32v4weg_0dIVXJWgwcPjMvUv8CHPwkh4U/304x170.jpg", "brand": "Christmas Tree Shops", "brand:wikidata": "Q5111452", "nsi_id": "christmastreeshops-c85191"}, "geometry": {"type": "Point", "coordinates": [-71.35305268200142, 41.93364112556938]}},
{"type": "Feature", "id": "_1wKFw43iC8UgxJ31yYfTvxIXsk=", "properties": {"ref": "https://stores.christmastreeshops.com/#14230108", "@spider": "christmas_tree_shops", "shop": "variety_store", "addr:street_address": "1298 Worcester St.", "addr:city": "Natick", "addr:state": "MA", "addr:postcode": "01760", "addr:country": "US", "name": "Christmas Tree Shops Natick, MA", "phone": "(508) 655-9800", "website": "https://stores.christmastreeshops.com/ma/natick/1298-worcester-st", "opening_hours": "Mo-Sa 09:00-21:00; Su 10:00-19:00", "image": "https://dynl.mktgcdn.com/p/LnH7-r1LFD32v4weg_0dIVXJWgwcPjMvUv8CHPwkh4U/304x170.jpg", "brand": "Christmas Tree Shops", "brand:wikidata": "Q5111452", "nsi_id": "christmastreeshops-c85191"}, "geometry": {"type": "Point", "coordinates": [-71.3852544, 42.2981098]}},
{"type": "Feature", "id": "xAeF_IdPU1dSxGK9cg6Vlca46Gc=", "properties": {"ref": "https://stores.christmastreeshops.com/#14230125", "@spider": "christmas_tree_shops", "shop": "variety_store", "addr:street_address": "28-34 Broadway Route 1 South", "addr:city": "Lynnfield", "addr:state": "MA", "addr:postcode": "01940", "addr:country": "US", "name": "Christmas Tree Shops Lynnfield, MA", "phone": "(781) 598-0004", "website": "https://stores.christmastreeshops.com/ma/lynnfield/28-34-broadway-route-1-south", "opening_hours": "Mo-Sa 09:00-21:00; Su 10:00-19:00", "image": "https://dynl.mktgcdn.com/p/LnH7-r1LFD32v4weg_0dIVXJWgwcPjMvUv8CHPwkh4U/304x170.jpg", "brand": "Christmas Tree Shops", "brand:wikidata": "Q5111452", "nsi_id": "christmastreeshops-c85191"}, "geometry": {"type": "Point", "coordinates": [-71.015274, 42.504364]}},
{"type": "Feature", "id": "JZzszdFzTXh2GpPmVpKjiexNftI=", "properties": {"ref": "https://stores.christmastreeshops.com/#14230117", "@spider": "christmas_tree_shops", "shop": "variety_store", "addr:street_address": "655 Route 132", "addr:city": "Hyannis", "addr:state": "MA", "addr:postcode": "02601", "addr:country": "US", "name": "Christmas Tree Shops Hyannis, MA", "phone": "(508) 778-5521", "website": "https://stores.christmastreeshops.com/ma/hyannis/655-route-132", "opening_hours": "Mo-Sa 09:00-21:00; Su 10:00-19:00", "image": "https://dynl.mktgcdn.com/p/LnH7-r1LFD32v4weg_0dIVXJWgwcPjMvUv8CHPwkh4U/304x170.jpg", "brand": "Christmas Tree Shops", "brand:wikidata": "Q5111452", "nsi_id": "christmastreeshops-c85191"}, "geometry": {"type": "Point", "coordinates": [-70.2920372, 41.6662143]}},
{"type": "Feature", "id": "fRTw-pS6kVZlzWAQrhGdOD40PK8=", "properties": {"ref": "https://stores.christmastreeshops.com/#14230118", "@spider": "christmas_tree_shops", "shop": "variety_store", "addr:street_address": "39 Holyoke Street Holyoke Crossing Mall", "addr:city": "Holyoke", "addr:state": "MA", "addr:postcode": "01040", "addr:country": "US", "name": "Christmas Tree Shops Holyoke, MA", "phone": "(413) 552-0086", "website": "https://stores.christmastreeshops.com/ma/holyoke/39-holyoke-street", "opening_hours": "Mo-Sa 09:00-21:00; Su 10:00-19:00", "image": "https://dynl.mktgcdn.com/p/LnH7-r1LFD32v4weg_0dIVXJWgwcPjMvUv8CHPwkh4U/304x170.jpg", "brand": "Christmas Tree Shops", "brand:wikidata": "Q5111452", "nsi_id": "christmastreeshops-c85191"}, "geometry": {"type": "Point", "coordinates": [-72.64201942198756, 42.17199392926428]}},
{"type": "Feature", "id": "ce_5dKU4brIVcZBqn-bySlMQe-Q=", "properties": {"ref": "https://stores.christmastreeshops.com/#14230145", "@spider": "christmas_tree_shops", "shop": "variety_store", "addr:street_address": "100 Cypress St.", "addr:city": "Williston", "addr:state": "VT", "addr:postcode": "05495", "addr:country": "US", "name": "Christmas Tree Shops Williston, VT", "phone": "(802) 872-9509", "website": "https://stores.christmastreeshops.com/vt/williston/100-cypress-st", "opening_hours": "Mo-Sa 09:00-21:00; Su 10:00-19:00", "image": "https://dynl.mktgcdn.com/p/LnH7-r1LFD32v4weg_0dIVXJWgwcPjMvUv8CHPwkh4U/304x170.jpg", "brand": "Christmas Tree Shops", "brand:wikidata": "Q5111452", "nsi_id": "christmastreeshops-c85191"}, "geometry": {"type": "Point", "coordinates": [-73.1105285, 44.4451777]}},
{"type": "Feature", "id": "tvdcP5YHjMGk8ctcPnbr0PWHR3g=", "properties": {"ref": "https://stores.christmastreeshops.com/#14230110", "@spider": "christmas_tree_shops", "shop": "variety_store", "addr:street_address": "2700 Potomac Mills Circle Unit 104", "addr:city": "Woodbridge", "addr:state": "VA", "addr:postcode": "22192", "addr:country": "US", "name": "Christmas Tree Shops Woodbridge, VA", "phone": "(703) 497-4670", "website": "https://stores.christmastreeshops.com/va/woodbridge/2700-potomac-mills-circle", "opening_hours": "Mo-Sa 09:00-21:00; Su 10:00-19:00", "image": "https://dynl.mktgcdn.com/p/LnH7-r1LFD32v4weg_0dIVXJWgwcPjMvUv8CHPwkh4U/304x170.jpg", "brand": "Christmas Tree Shops", "brand:wikidata": "Q5111452", "nsi_id": "christmastreeshops-c85191"}, "geometry": {"type": "Point", "coordinates": [-77.29546159497329, 38.64320731398191]}},
{"type": "Feature", "id": "DuFdghH3tm1XyJLdQKsKfXyzpz4=", "properties": {"ref": "https://stores.christmastreeshops.com/#14230081", "@spider": "christmas_tree_shops", "shop": "variety_store", "addr:street_address": "9819 West Broad Street", "addr:city": "Glen Allen", "addr:state": "VA", "addr:postcode": "23060", "addr:country": "US", "name": "Christmas Tree Shops Glen Allen, VA", "phone": "(804) 346-2840", "website": "https://stores.christmastreeshops.com/va/glen-allen/9819-west-broad-street", "opening_hours": "Mo-Sa 09:00-21:00; Su 10:00-19:00", "image": "https://dynl.mktgcdn.com/p/LnH7-r1LFD32v4weg_0dIVXJWgwcPjMvUv8CHPwkh4U/304x170.jpg", "brand": "Christmas Tree Shops", "brand:wikidata": "Q5111452", "nsi_id": "christmastreeshops-c85191"}, "geometry": {"type": "Point", "coordinates": [-77.56646813005648, 37.64116422586058]}},
{"type": "Feature", "id": "Esd5CZ_EOrXfnGY9KsI5acJvefU=", "properties": {"ref": "https://stores.christmastreeshops.com/#14230102", "@spider": "christmas_tree_shops", "shop": "variety_store", "addr:street_address": "1320 Carl D. Silver Parkway", "addr:city": "Fredericksburg", "addr:state": "VA", "addr:postcode": "22401", "addr:country": "US", "name": "Christmas Tree Shops Fredericksburg, VA", "phone": "(540) 786-1506", "website": "https://stores.christmastreeshops.com/va/fredericksburg/1320-carl-d-silver-parkway", "opening_hours": "Mo-Sa 09:00-21:00; Su 10:00-19:00", "image": "https://dynl.mktgcdn.com/p/LnH7-r1LFD32v4weg_0dIVXJWgwcPjMvUv8CHPwkh4U/304x170.jpg", "brand": "Christmas Tree Shops", "brand:wikidata": "Q5111452", "nsi_id": "christmastreeshops-c85191"}, "geometry": {"type": "Point", "coordinates": [-77.51055805323784, 38.30177750391778]}},
{"type": "Feature", "id": "85rKX-tukwh69THPaFtEekDkXKY=", "properties": {"ref": "https://stores.christmastreeshops.com/#14230103", "@spider": "christmas_tree_shops", "shop": "variety_store", "addr:street_address": "1117 Woodruff Road", "addr:city": "Greenville", "addr:state": "SC", "addr:postcode": "29607", "addr:country": "US", "name": "Christmas Tree Shops Greenville, SC", "phone": "(864) 297-3667", "website": "https://stores.christmastreeshops.com/sc/greenville/1117-woodruff-road", "opening_hours": "Mo-Sa 09:00-21:00; Su 10:00-19:00", "image": "https://dynl.mktgcdn.com/p/LnH7-r1LFD32v4weg_0dIVXJWgwcPjMvUv8CHPwkh4U/304x170.jpg", "brand": "Christmas Tree Shops", "brand:wikidata": "Q5111452", "nsi_id": "christmastreeshops-c85191"}, "geometry": {"type": "Point", "coordinates": [-82.30188363352568, 34.83233198706077]}},
{"type": "Feature", "id": "qFH7LF4NiuxLg79JCBoABmvm7Rg=", "properties": {"ref": "https://stores.christmastreeshops.com/#14230122", "@spider": "christmas_tree_shops", "shop": "variety_store", "addr:street_address": "300 Quaker Lane Route 2", "addr:city": "Warwick", "addr:state": "RI", "addr:postcode": "02886", "addr:country": "US", "name": "Christmas Tree Shops Warwick, RI", "phone": "(401) 821-4944", "website": "https://stores.christmastreeshops.com/ri/warwick/300-quaker-lane-route-2", "opening_hours": "Mo-Sa 09:00-21:00; Su 10:00-19:00", "image": "https://dynl.mktgcdn.com/p/LnH7-r1LFD32v4weg_0dIVXJWgwcPjMvUv8CHPwkh4U/304x170.jpg", "brand": "Christmas Tree Shops", "brand:wikidata": "Q5111452", "nsi_id": "christmastreeshops-c85191"}, "geometry": {"type": "Point", "coordinates": [-71.4996284297556, 41.689578066333404]}},
{"type": "Feature", "id": "p6fkytVO1O6OuCQ2Ep4OscwLoWo=", "properties": {"ref": "https://stores.christmastreeshops.com/#14230160", "@spider": "christmas_tree_shops", "shop": "variety_store", "addr:street_address": "19 East Main Road", "addr:city": "Middletown", "addr:state": "RI", "addr:postcode": "02842", "addr:country": "US", "name": "Christmas Tree Shops Middletown, RI", "phone": "(401) 841-5100", "website": "https://stores.christmastreeshops.com/ri/middletown/19-east-main-road", "opening_hours": "Mo-Sa 09:00-21:00; Su 10:00-19:00", "image": "https://dynl.mktgcdn.com/p/LnH7-r1LFD32v4weg_0dIVXJWgwcPjMvUv8CHPwkh4U/304x170.jpg", "brand": "Christmas Tree Shops", "brand:wikidata": "Q5111452", "nsi_id": "christmastreeshops-c85191"}, "geometry": {"type": "Point", "coordinates": [-71.29822511362858, 41.51609654383874]}},
{"type": "Feature", "id": "sNYbnM7UTZ5TOwjis2sURWwvnt0=", "properties": {"ref": "https://stores.christmastreeshops.com/#14230094", "@spider": "christmas_tree_shops", "shop": "variety_store", "addr:street_address": "2935 Concord Road", "addr:city": "York", "addr:state": "PA", "addr:postcode": "17402", "addr:country": "US", "name": "Christmas Tree Shops York, PA", "phone": "(717) 840-2720", "website": "https://stores.christmastreeshops.com/pa/york/2935-concord-road", "opening_hours": "Mo-Sa 09:00-21:00; Su 10:00-19:00", "image": "https://dynl.mktgcdn.com/p/LnH7-r1LFD32v4weg_0dIVXJWgwcPjMvUv8CHPwkh4U/304x170.jpg", "brand": "Christmas Tree Shops", "brand:wikidata": "Q5111452", "nsi_id": "christmastreeshops-c85191"}, "geometry": {"type": "Point", "coordinates": [-76.6680655, 39.9848052]}},
{"type": "Feature", "id": "SuwLSzGUeYn7OKiBapVmc1Bec6A=", "properties": {"ref": "https://stores.christmastreeshops.com/#14230088", "@spider": "christmas_tree_shops", "shop": "variety_store", "addr:street_address": "4001 Shoppes Blvd.", "addr:city": "Moosic", "addr:state": "PA", "addr:postcode": "18507", "addr:country": "US", "name": "Christmas Tree Shops Moosic, PA", "phone": "(570) 343-7300", "website": "https://stores.christmastreeshops.com/pa/moosic/4001-shoppes-blvd", "opening_hours": "Mo-Sa 09:00-21:00; Su 10:00-19:00", "image": "https://dynl.mktgcdn.com/p/LnH7-r1LFD32v4weg_0dIVXJWgwcPjMvUv8CHPwkh4U/304x170.jpg", "brand": "Christmas Tree Shops", "brand:wikidata": "Q5111452", "nsi_id": "christmastreeshops-c85191"}, "geometry": {"type": "Point", "coordinates": [-75.67436450226637, 41.36134967906752]}},
{"type": "Feature", "id": "SIgNhxOsUWRNKBZOvHBtywJoL08=", "properties": {"ref": "https://stores.christmastreeshops.com/#14230096", "@spider": "christmas_tree_shops", "shop": "variety_store", "addr:street_address": "2350 Lincoln Highway", "addr:city": "Lancaster", "addr:state": "PA", "addr:postcode": "17602", "addr:country": "US", "name": "Christmas Tree Shops Lancaster, PA", "phone": "(717) 397-0362", "website": "https://stores.christmastreeshops.com/pa/lancaster/2350-lincoln-highway", "opening_hours": "Mo-Sa 09:00-21:00; Su 10:00-19:00", "image": "https://dynl.mktgcdn.com/p/LnH7-r1LFD32v4weg_0dIVXJWgwcPjMvUv8CHPwkh4U/304x170.jpg", "brand": "Christmas Tree Shops", "brand:wikidata": "Q5111452", "nsi_id": "christmastreeshops-c85191"}, "geometry": {"type": "Point", "coordinates": [-76.210544, 40.023288]}},
{"type": "Feature", "id": "Vw2EbZ6lmK68V4tiQmE7WxhRgMU=", "properties": {"ref": "https://stores.christmastreeshops.com/#14230156", "@spider": "christmas_tree_shops", "shop": "variety_store", "addr:street_address": "4690 High Pointe Blvd.", "addr:city": "Harrisburg", "addr:state": "PA", "addr:postcode": "17111", "addr:country": "US", "name": "Christmas Tree Shops Harrisburg, PA", "phone": "(717) 558-3880", "website": "https://stores.christmastreeshops.com/pa/harrisburg/4690-high-pointe-blvd", "opening_hours": "Mo-Sa 09:00-21:00; Su 10:00-19:00", "image": "https://dynl.mktgcdn.com/p/LnH7-r1LFD32v4weg_0dIVXJWgwcPjMvUv8CHPwkh4U/304x170.jpg", "brand": "Christmas Tree Shops", "brand:wikidata": "Q5111452", "nsi_id": "christmastreeshops-c85191"}, "geometry": {"type": "Point", "coordinates": [-76.80110889673279, 40.246460962512245]}},
{"type": "Feature", "id": "1HUOsnjQYpOB0w-urycKd6GfSdQ=", "properties": {"ref": "https://stores.christmastreeshops.com/#14230097", "@spider": "christmas_tree_shops", "shop": "variety_store", "addr:street_address": "2088 Interchange Road", "addr:city": "Erie", "addr:state": "PA", "addr:postcode": "16565", "addr:country": "US", "name": "Christmas Tree Shops Erie, PA", "phone": "(814) 864-1356", "website": "https://stores.christmastreeshops.com/pa/erie/2088-interchange-road", "opening_hours": "Mo-Sa 09:00-21:00; Su 10:00-19:00", "image": "https://dynl.mktgcdn.com/p/LnH7-r1LFD32v4weg_0dIVXJWgwcPjMvUv8CHPwkh4U/304x170.jpg", "brand": "Christmas Tree Shops", "brand:wikidata": "Q5111452", "nsi_id": "christmastreeshops-c85191"}, "geometry": {"type": "Point", "coordinates": [-80.1039467, 42.0681078]}},
{"type": "Feature", "id": "ZEnkHW_XS_4i1EfdGdLO1mpAhW0=", "properties": {"ref": "https://stores.christmastreeshops.com/#14230147", "@spider": "christmas_tree_shops", "shop": "variety_store", "addr:street_address": "955 East Lancaster Ave.", "addr:city": "Downingtown", "addr:state": "PA", "addr:postcode": "19335", "addr:country": "US", "name": "Christmas Tree Shops Downingtown, PA", "phone": "(610) 518-9340", "website": "https://stores.christmastreeshops.com/pa/downingtown/955-east-lancaster-ave", "opening_hours": "Mo-Sa 09:00-21:00; Su 10:00-19:00", "image": "https://dynl.mktgcdn.com/p/LnH7-r1LFD32v4weg_0dIVXJWgwcPjMvUv8CHPwkh4U/304x170.jpg", "brand": "Christmas Tree Shops", "brand:wikidata": "Q5111452", "nsi_id": "christmastreeshops-c85191"}, "geometry": {"type": "Point", "coordinates": [-75.68550255538298, 40.01967073492591]}},
{"type": "Feature", "id": "gr4YBIoDrjVbT3HLXZYYpeOJUBE=", "properties": {"ref": "https://stores.christmastreeshops.com/#14230152", "@spider": "christmas_tree_shops", "shop": "variety_store", "addr:street_address": "916 Airport Center Drive", "addr:city": "Allentown", "addr:state": "PA", "addr:postcode": "18109", "addr:country": "US", "name": "Christmas Tree Shops Allentown, PA", "phone": "(610) 231-9546", "website": "https://stores.christmastreeshops.com/pa/allentown/916-airport-center-drive", "opening_hours": "Mo-Sa 09:00-21:00; Su 10:00-19:00", "image": "https://dynl.mktgcdn.com/p/LnH7-r1LFD32v4weg_0dIVXJWgwcPjMvUv8CHPwkh4U/304x170.jpg", "brand": "Christmas Tree Shops", "brand:wikidata": "Q5111452", "nsi_id": "christmastreeshops-c85191"}, "geometry": {"type": "Point", "coordinates": [-75.43809758625162, 40.63872376202361]}},
{"type": "Feature", "id": "YIYZ5OxCHgEJcrDfuU0xwYSVZKk=", "properties": {"ref": "https://stores.christmastreeshops.com/#14230128", "@spider": "christmas_tree_shops", "shop": "variety_store", "addr:street_address": "2264 Miamisburg Centerville Road", "addr:city": "Dayton", "addr:state": "OH", "addr:postcode": "45459", "addr:country": "US", "name": "Christmas Tree Shops Dayton, OH", "phone": "(937) 428-0523", "website": "https://stores.christmastreeshops.com/oh/dayton/2264-miamisburg-centerville-road", "opening_hours": "Mo-Sa 09:00-21:00; Su 10:00-19:00", "image": "https://dynl.mktgcdn.com/p/LnH7-r1LFD32v4weg_0dIVXJWgwcPjMvUv8CHPwkh4U/304x170.jpg", "brand": "Christmas Tree Shops", "brand:wikidata": "Q5111452", "nsi_id": "christmastreeshops-c85191"}, "geometry": {"type": "Point", "coordinates": [-84.21116076803253, 39.63251389401673]}},
{"type": "Feature", "id": "J2iDMYDP67faotSZDd768q4-0AM=", "properties": {"ref": "https://stores.christmastreeshops.com/#14230127", "@spider": "christmas_tree_shops", "shop": "variety_store", "addr:street_address": "21182 Salmon Run Mall Loop West", "addr:city": "Watertown", "addr:state": "NY", "addr:postcode": "13601", "addr:country": "US", "name": "Christmas Tree Shops Watertown, NY", "phone": "(315) 779-7540", "website": "https://stores.christmastreeshops.com/ny/watertown/21182-salmon-run-mall-loop-west", "opening_hours": "Mo-Sa 09:00-20:00; Su 10:00-18:00", "image": "https://dynl.mktgcdn.com/p/LnH7-r1LFD32v4weg_0dIVXJWgwcPjMvUv8CHPwkh4U/304x170.jpg", "brand": "Christmas Tree Shops", "brand:wikidata": "Q5111452", "nsi_id": "christmastreeshops-c85191"}, "geometry": {"type": "Point", "coordinates": [-75.95087576190184, 43.97991566462846]}},
{"type": "Feature", "id": "MbUCkNm9rcloIYSoHKJnpGUeyME=", "properties": {"ref": "https://stores.christmastreeshops.com/#14230139", "@spider": "christmas_tree_shops", "shop": "variety_store", "addr:street_address": "132 Northern Lights Plaza", "addr:city": "Syracuse", "addr:state": "NY", "addr:postcode": "13212", "addr:country": "US", "name": "Christmas Tree Shops Syracuse, NY", "phone": "(315) 454-9223", "website": "https://stores.christmastreeshops.com/ny/syracuse/132-northern-lights-plaza", "opening_hours": "Mo-Sa 09:00-21:00; Su 10:00-19:00", "image": "https://dynl.mktgcdn.com/p/LnH7-r1LFD32v4weg_0dIVXJWgwcPjMvUv8CHPwkh4U/304x170.jpg", "brand": "Christmas Tree Shops", "brand:wikidata": "Q5111452", "nsi_id": "christmastreeshops-c85191"}, "geometry": {"type": "Point", "coordinates": [-76.14460646011128, 43.109700478690804]}},
{"type": "Feature", "id": "TTRGAvxNCiVMlQH5cy1C97Dp06E=", "properties": {"ref": "https://stores.christmastreeshops.com/#14230112", "@spider": "christmas_tree_shops", "shop": "variety_store", "addr:street_address": "85 Bricktown Way", "addr:city": "Staten Island", "addr:state": "NY", "addr:postcode": "10309", "addr:country": "US", "name": "Christmas Tree Shops Staten Island, NY", "phone": "(718) 984-2493", "website": "https://stores.christmastreeshops.com/ny/staten-island/85-bricktown-way", "opening_hours": "Mo-Sa 09:00-21:00; Su 10:00-19:00", "image": "https://dynl.mktgcdn.com/p/LnH7-r1LFD32v4weg_0dIVXJWgwcPjMvUv8CHPwkh4U/304x170.jpg", "brand": "Christmas Tree Shops", "brand:wikidata": "Q5111452", "nsi_id": "christmastreeshops-c85191"}, "geometry": {"type": "Point", "coordinates": [-74.2281892, 40.5308956]}},
{"type": "Feature", "id": "bsVTSauSHHHUew8HNhpAbqsjfyo=", "properties": {"ref": "https://stores.christmastreeshops.com/#14230092", "@spider": "christmas_tree_shops", "shop": "variety_store", "addr:street_address": "32 Spring Valley Marketplace", "addr:city": "Spring Valley", "addr:state": "NY", "addr:postcode": "10977", "addr:country": "US", "name": "Christmas Tree Shops Spring Valley, NY", "phone": "(845) 371-4449", "website": "https://stores.christmastreeshops.com/ny/spring-valley/32-spring-valley-marketplace", "opening_hours": "Mo-Sa 09:00-21:00; Su 10:00-19:00", "image": "https://dynl.mktgcdn.com/p/LnH7-r1LFD32v4weg_0dIVXJWgwcPjMvUv8CHPwkh4U/304x170.jpg", "brand": "Christmas Tree Shops", "brand:wikidata": "Q5111452", "nsi_id": "christmastreeshops-c85191"}, "geometry": {"type": "Point", "coordinates": [-74.0260840379878, 41.10558365534701]}},
{"type": "Feature", "id": "XfAnJx8w66hKZ_eGNHmQBWnwZqY=", "properties": {"ref": "https://stores.christmastreeshops.com/#14230113", "@spider": "christmas_tree_shops", "shop": "variety_store", "addr:street_address": "790 Jefferson Road", "addr:city": "Rochester", "addr:state": "NY", "addr:postcode": "14623", "addr:country": "US", "name": "Christmas Tree Shops Rochester, NY", "phone": "(585) 292-0120", "website": "https://stores.christmastreeshops.com/ny/rochester/790-jefferson-road", "opening_hours": "Mo-Sa 09:00-21:00; Su 10:00-19:00", "image": "https://dynl.mktgcdn.com/p/LnH7-r1LFD32v4weg_0dIVXJWgwcPjMvUv8CHPwkh4U/304x170.jpg", "brand": "Christmas Tree Shops", "brand:wikidata": "Q5111452", "nsi_id": "christmastreeshops-c85191"}, "geometry": {"type": "Point", "coordinates": [-77.6189193, 43.0886535]}},
{"type": "Feature", "id": "xQFT5sTAy1_cipZNVKoI0U0Hcig=", "properties": {"ref": "https://stores.christmastreeshops.com/#14230106", "@spider": "christmas_tree_shops", "shop": "variety_store", "addr:street_address": "1791 Old Country Road CR58", "addr:city": "Riverhead", "addr:state": "NY", "addr:postcode": "11901", "addr:country": "US", "name": "Christmas Tree Shops Riverhead, NY", "phone": "(631) 727-0156", "website": "https://stores.christmastreeshops.com/ny/riverhead/1791-old-country-road", "opening_hours": "Mo-Sa 09:00-21:00; Su 10:00-19:00", "image": "https://dynl.mktgcdn.com/p/LnH7-r1LFD32v4weg_0dIVXJWgwcPjMvUv8CHPwkh4U/304x170.jpg", "brand": "Christmas Tree Shops", "brand:wikidata": "Q5111452", "nsi_id": "christmastreeshops-c85191"}, "geometry": {"type": "Point", "coordinates": [-72.70303502579497, 40.922408253264216]}},
{"type": "Feature", "id": "og9MDlwHwgflyrcYTr_IlzTBTLg=", "properties": {"ref": "https://stores.christmastreeshops.com/#14230130", "@spider": "christmas_tree_shops", "shop": "variety_store", "addr:street_address": "1895 South Road", "addr:city": "Poughkeepsie", "addr:state": "NY", "addr:postcode": "12601", "addr:country": "US", "name": "Christmas Tree Shops Poughkeepsie, NY", "phone": "(845) 297-0189", "website": "https://stores.christmastreeshops.com/ny/poughkeepsie/1895-south-road", "opening_hours": "Mo-Sa 09:00-21:00; Su 10:00-19:00", "image": "https://dynl.mktgcdn.com/p/LnH7-r1LFD32v4weg_0dIVXJWgwcPjMvUv8CHPwkh4U/304x170.jpg", "brand": "Christmas Tree Shops", "brand:wikidata": "Q5111452", "nsi_id": "christmastreeshops-c85191"}, "geometry": {"type": "Point", "coordinates": [-73.9199218, 41.6188621]}},
{"type": "Feature", "id": "dGKZiXsjY_tlYTBy0dczGb4WkRQ=", "properties": {"ref": "https://stores.christmastreeshops.com/#14230104", "@spider": "christmas_tree_shops", "shop": "variety_store", "addr:street_address": "1100 North Galleria Drive", "addr:city": "Middletown", "addr:state": "NY", "addr:postcode": "10941", "addr:country": "US", "name": "Christmas Tree Shops Middletown, NY", "phone": "(845) 692-8584", "website": "https://stores.christmastreeshops.com/ny/middletown/1100-north-galleria-drive", "opening_hours": "Mo-Sa 09:00-21:00; Su 10:00-19:00", "image": "https://dynl.mktgcdn.com/p/LnH7-r1LFD32v4weg_0dIVXJWgwcPjMvUv8CHPwkh4U/304x170.jpg", "brand": "Christmas Tree Shops", "brand:wikidata": "Q5111452", "nsi_id": "christmastreeshops-c85191"}, "geometry": {"type": "Point", "coordinates": [-74.37282773894748, 41.455893258098946]}},
{"type": "Feature", "id": "6ZfzCo2zeyc6a2D2Sl7aR9xx1wg=", "properties": {"ref": "https://stores.christmastreeshops.com/#14230158", "@spider": "christmas_tree_shops", "shop": "variety_store", "addr:street_address": "420 Harry L. Drive", "addr:city": "Johnson City", "addr:state": "NY", "addr:postcode": "13790", "addr:country": "US", "name": "Christmas Tree Shops Johnson City, NY", "phone": "(607) 798-0468", "website": "https://stores.christmastreeshops.com/ny/johnson-city/420-harry-l-drive", "opening_hours": "Mo-Sa 09:00-21:00; Su 10:00-19:00", "image": "https://dynl.mktgcdn.com/p/LnH7-r1LFD32v4weg_0dIVXJWgwcPjMvUv8CHPwkh4U/304x170.jpg", "brand": "Christmas Tree Shops", "brand:wikidata": "Q5111452", "nsi_id": "christmastreeshops-c85191"}, "geometry": {"type": "Point", "coordinates": [-75.96654190274882, 42.1216279172321]}},
{"type": "Feature", "id": "0slxTvfNHnv1Ph29j9kK2S3mRLc=", "properties": {"ref": "https://stores.christmastreeshops.com/#14230089", "@spider": "christmas_tree_shops", "shop": "variety_store", "addr:street_address": "393 North Central Ave", "addr:city": "Hartsdale", "addr:state": "NY", "addr:postcode": "10530", "addr:country": "US", "name": "Christmas Tree Shops Hartsdale, NY", "phone": "(914) 948-3721", "website": "https://stores.christmastreeshops.com/ny/hartsdale/393-north-central-ave", "opening_hours": "Mo-Sa 09:00-21:00; Su 10:00-19:00", "image": "https://dynl.mktgcdn.com/p/LnH7-r1LFD32v4weg_0dIVXJWgwcPjMvUv8CHPwkh4U/304x170.jpg", "brand": "Christmas Tree Shops", "brand:wikidata": "Q5111452", "nsi_id": "christmastreeshops-c85191"}, "geometry": {"type": "Point", "coordinates": [-73.7889596, 41.0315475]}},
{"type": "Feature", "id": "O_eMwHeJAgXICBq0PMBbtCZPoDM=", "properties": {"ref": "https://stores.christmastreeshops.com/#14230142", "@spider": "christmas_tree_shops", "shop": "variety_store", "addr:street_address": "1150 The Arches Circle", "addr:city": "Deer Park", "addr:state": "NY", "addr:postcode": "11729", "addr:country": "US", "name": "Christmas Tree Shops Deer Park, NY", "phone": "(631) 586-1648", "website": "https://stores.christmastreeshops.com/ny/deer-park/1150-the-arches-circle", "opening_hours": "Mo-Sa 09:00-21:00; Su 10:00-19:00", "image": "https://dynl.mktgcdn.com/p/LnH7-r1LFD32v4weg_0dIVXJWgwcPjMvUv8CHPwkh4U/304x170.jpg", "brand": "Christmas Tree Shops", "brand:wikidata": "Q5111452", "nsi_id": "christmastreeshops-c85191"}, "geometry": {"type": "Point", "coordinates": [-73.30633480175953, 40.76420929488201]}},
{"type": "Feature", "id": "8T5ju3trlWa6G4QgzL2OTR1y5H8=", "properties": {"ref": "https://stores.christmastreeshops.com/#14230161", "@spider": "christmas_tree_shops", "shop": "variety_store", "addr:street_address": "1701 Niagara Falls Blvd.", "addr:city": "Amherst", "addr:state": "NY", "addr:postcode": "14228", "addr:country": "US", "name": "Christmas Tree Shops Amherst, NY", "phone": "(716) 834-0354", "website": "https://stores.christmastreeshops.com/ny/amherst/1701-niagara-falls-blvd", "opening_hours": "Mo-Sa 09:00-21:00; Su 10:00-19:00", "image": "https://dynl.mktgcdn.com/p/LnH7-r1LFD32v4weg_0dIVXJWgwcPjMvUv8CHPwkh4U/304x170.jpg", "brand": "Christmas Tree Shops", "brand:wikidata": "Q5111452", "nsi_id": "christmastreeshops-c85191"}, "geometry": {"type": "Point", "coordinates": [-78.82054351281147, 43.000696920936456]}},
{"type": "Feature", "id": "dEKihz8G2dfStoRgOCy2K_VaNhA=", "properties": {"ref": "https://stores.christmastreeshops.com/#14230148", "@spider": "christmas_tree_shops", "shop": "variety_store", "addr:street_address": "1425 Central Avenue Unit 242", "addr:city": "Albany", "addr:state": "NY", "addr:postcode": "12205", "addr:country": "US", "name": "Christmas Tree Shops Albany, NY", "phone": "(518) 459-0878", "website": "https://stores.christmastreeshops.com/ny/albany/1425-central-avenue", "opening_hours": "Mo-Sa 09:00-21:00; Su 10:00-19:00", "image": "https://dynl.mktgcdn.com/p/LnH7-r1LFD32v4weg_0dIVXJWgwcPjMvUv8CHPwkh4U/304x170.jpg", "brand": "Christmas Tree Shops", "brand:wikidata": "Q5111452", "nsi_id": "christmastreeshops-c85191"}, "geometry": {"type": "Point", "coordinates": [-73.816808313524, 42.708989870916675]}},
{"type": "Feature", "id": "x84CVB4orhFZ_XWyBX1dWACk1xo=", "properties": {"ref": "https://stores.christmastreeshops.com/#14230149", "@spider": "christmas_tree_shops", "shop": "variety_store", "addr:street_address": "1728 US Route 46 West Falls Plaza", "addr:city": "Woodland Park", "addr:state": "NJ", "addr:postcode": "07424", "addr:country": "US", "name": "Christmas Tree Shops Woodland Park, NJ", "phone": "(973) 339-5088", "website": "https://stores.christmastreeshops.com/nj/woodland-park/1728-us-route-46", "opening_hours": "Mo-Sa 09:00-21:00; Su 10:00-19:00", "image": "https://dynl.mktgcdn.com/p/LnH7-r1LFD32v4weg_0dIVXJWgwcPjMvUv8CHPwkh4U/304x170.jpg", "brand": "Christmas Tree Shops", "brand:wikidata": "Q5111452", "nsi_id": "christmastreeshops-c85191"}, "geometry": {"type": "Point", "coordinates": [-74.215252, 40.8882524]}},
{"type": "Feature", "id": "1dakq5XdxxMgX_LyHCMEkLVQSfs=", "properties": {"ref": "https://stores.christmastreeshops.com/#14230090", "@spider": "christmas_tree_shops", "shop": "variety_store", "addr:street_address": "350 Route 22 West", "addr:city": "Springfield", "addr:state": "NJ", "addr:postcode": "07081", "addr:country": "US", "name": "Christmas Tree Shops Springfield, NJ", "phone": "(973) 379-2862", "website": "https://stores.christmastreeshops.com/nj/springfield/350-route-22-west", "opening_hours": "Mo-Sa 09:00-21:00; Su 10:00-19:00", "image": "https://dynl.mktgcdn.com/p/LnH7-r1LFD32v4weg_0dIVXJWgwcPjMvUv8CHPwkh4U/304x170.jpg", "brand": "Christmas Tree Shops", "brand:wikidata": "Q5111452", "nsi_id": "christmastreeshops-c85191"}, "geometry": {"type": "Point", "coordinates": [-74.32526265200323, 40.68554195597051]}},
{"type": "Feature", "id": "65zeO_rOauXz5dGDoktPvZVElHY=", "properties": {"ref": "https://stores.christmastreeshops.com/#14230091", "@spider": "christmas_tree_shops", "shop": "variety_store", "addr:street_address": "327 Mt. Hope Ave.", "addr:city": "Rockaway", "addr:state": "NJ", "addr:postcode": "07866", "addr:country": "US", "name": "Christmas Tree Shops Rockaway, NJ", "phone": "(973) 361-1502", "website": "https://stores.christmastreeshops.com/nj/rockaway/327-mt-hope-ave", "opening_hours": "Mo-Sa 09:00-21:00; Su 10:00-19:00", "image": "https://dynl.mktgcdn.com/p/LnH7-r1LFD32v4weg_0dIVXJWgwcPjMvUv8CHPwkh4U/304x170.jpg", "brand": "Christmas Tree Shops", "brand:wikidata": "Q5111452", "nsi_id": "christmastreeshops-c85191"}, "geometry": {"type": "Point", "coordinates": [-74.5489282, 40.9077688]}},
{"type": "Feature", "id": "ILEqCd24oVTndCeRi1PqeL5FcHc=", "properties": {"ref": "https://stores.christmastreeshops.com/#14230093", "@spider": "christmas_tree_shops", "shop": "variety_store", "addr:street_address": "300 Ikea Drive", "addr:city": "Paramus", "addr:state": "NJ", "addr:postcode": "07652", "addr:country": "US", "name": "Christmas Tree Shops Paramus, NJ", "phone": "(201) 291-1340", "website": "https://stores.christmastreeshops.com/nj/paramus/300-ikea-drive", "opening_hours": "Mo-Sa 09:00-21:00", "image": "https://dynl.mktgcdn.com/p/LnH7-r1LFD32v4weg_0dIVXJWgwcPjMvUv8CHPwkh4U/304x170.jpg", "brand": "Christmas Tree Shops", "brand:wikidata": "Q5111452", "nsi_id": "christmastreeshops-c85191"}, "geometry": {"type": "Point", "coordinates": [-74.0742612, 40.9221535]}},
{"type": "Feature", "id": "HuaTZ3Ai3GHmuGonU4DtmV7wr-w=", "properties": {"ref": "https://stores.christmastreeshops.com/#14230126", "@spider": "christmas_tree_shops", "shop": "variety_store", "addr:street_address": "230 Consumer Square", "addr:city": "Mays Landing", "addr:state": "NJ", "addr:postcode": "08330", "addr:country": "US", "name": "Christmas Tree Shops Mays Landing, NJ", "phone": "(609) 645-5196", "website": "https://stores.christmastreeshops.com/nj/mays-landing/230-consumer-square", "opening_hours": "Mo-Sa 09:00-21:00; Su 10:00-19:00", "image": "https://dynl.mktgcdn.com/p/LnH7-r1LFD32v4weg_0dIVXJWgwcPjMvUv8CHPwkh4U/304x170.jpg", "brand": "Christmas Tree Shops", "brand:wikidata": "Q5111452", "nsi_id": "christmastreeshops-c85191"}, "geometry": {"type": "Point", "coordinates": [-74.6310795, 39.4504174]}},
{"type": "Feature", "id": "QGRRn6MeGbqhGq_8LFmTuSTQ-lQ=", "properties": {"ref": "https://stores.christmastreeshops.com/#14230105", "@spider": "christmas_tree_shops", "shop": "variety_store", "addr:street_address": "100 Trotters Way", "addr:city": "Freehold", "addr:state": "NJ", "addr:postcode": "07728", "addr:country": "US", "name": "Christmas Tree Shops Freehold, NJ", "phone": "(732) 577-2555", "website": "https://stores.christmastreeshops.com/nj/freehold/100-trotters-way", "opening_hours": "Mo-Sa 09:00-21:00; Su 10:00-19:00", "image": "https://dynl.mktgcdn.com/p/LnH7-r1LFD32v4weg_0dIVXJWgwcPjMvUv8CHPwkh4U/304x170.jpg", "brand": "Christmas Tree Shops", "brand:wikidata": "Q5111452", "nsi_id": "christmastreeshops-c85191"}, "geometry": {"type": "Point", "coordinates": [-74.2944128, 40.2524026]}},
{"type": "Feature", "id": "ChiyJ7x14Pr8BLtQazDwrBgmqkU=", "properties": {"ref": "https://stores.christmastreeshops.com/#14230132", "@spider": "christmas_tree_shops", "shop": "variety_store", "addr:street_address": "1775 Deptford Center Rd", "addr:city": "Deptford", "addr:state": "NJ", "addr:postcode": "08096", "addr:country": "US", "name": "Christmas Tree Shops Deptford, NJ", "phone": "(856) 401-9340", "website": "https://stores.christmastreeshops.com/nj/deptford/1775-deptford-center-rd", "opening_hours": "Mo-Sa 09:00-21:00; Su 10:00-19:00", "image": "https://dynl.mktgcdn.com/p/LnH7-r1LFD32v4weg_0dIVXJWgwcPjMvUv8CHPwkh4U/304x170.jpg", "brand": "Christmas Tree Shops", "brand:wikidata": "Q5111452", "nsi_id": "christmastreeshops-c85191"}, "geometry": {"type": "Point", "coordinates": [-75.0970123, 39.8271173]}},
{"type": "Feature", "id": "dRQtT0B6dqiYWx7H8r9ZKi5q3ek=", "properties": {"ref": "https://stores.christmastreeshops.com/#14230100", "@spider": "christmas_tree_shops", "shop": "variety_store", "addr:street_address": "2130 Marlton Pike", "addr:city": "Cherry Hill", "addr:state": "NJ", "addr:postcode": "08002", "addr:country": "US", "name": "Christmas Tree Shops Cherry Hill, NJ", "phone": "(856) 910-8320", "website": "https://stores.christmastreeshops.com/nj/cherry-hill/2130-marlton-pike", "opening_hours": "Mo-Sa 09:00-21:00; Su 10:00-19:00", "image": "https://dynl.mktgcdn.com/p/LnH7-r1LFD32v4weg_0dIVXJWgwcPjMvUv8CHPwkh4U/304x170.jpg", "brand": "Christmas Tree Shops", "brand:wikidata": "Q5111452", "nsi_id": "christmastreeshops-c85191"}, "geometry": {"type": "Point", "coordinates": [-75.03728549211041, 39.92367997255304]}},
{"type": "Feature", "id": "0-1k1UhZUujVnAWYCHkGHzkMZ5A=", "properties": {"ref": "https://stores.christmastreeshops.com/#14230107", "@spider": "christmas_tree_shops", "shop": "variety_store", "addr:street_address": "365 US Hwy 202 #206", "addr:city": "Bridgewater", "addr:state": "NJ", "addr:postcode": "08807", "addr:country": "US", "name": "Christmas Tree Shops Bridgewater, NJ", "phone": "(908) 722-1052", "website": "https://stores.christmastreeshops.com/nj/bridgewater/365-us-hwy-202", "opening_hours": "Mo-Sa 09:00-21:00; Su 10:00-19:00", "image": "https://dynl.mktgcdn.com/p/LnH7-r1LFD32v4weg_0dIVXJWgwcPjMvUv8CHPwkh4U/304x170.jpg", "brand": "Christmas Tree Shops", "brand:wikidata": "Q5111452", "nsi_id": "christmastreeshops-c85191"}, "geometry": {"type": "Point", "coordinates": [-74.628153, 40.578398]}},
{"type": "Feature", "id": "moqAAVJDlBoUddaSsDRTOjx46lA=", "properties": {"ref": "https://stores.christmastreeshops.com/#14230085", "@spider": "christmas_tree_shops", "shop": "variety_store", "addr:street_address": "479 Route 70 East", "addr:city": "Brick", "addr:state": "NJ", "addr:postcode": "08723", "addr:country": "US", "name": "Christmas Tree Shops Brick, NJ", "phone": "(732) 451-9629", "website": "https://stores.christmastreeshops.com/nj/brick/479-route-70-east", "opening_hours": "Mo-Sa 09:00-21:00; Su 10:00-19:00", "image": "https://dynl.mktgcdn.com/p/LnH7-r1LFD32v4weg_0dIVXJWgwcPjMvUv8CHPwkh4U/304x170.jpg", "brand": "Christmas Tree Shops", "brand:wikidata": "Q5111452", "nsi_id": "christmastreeshops-c85191"}, "geometry": {"type": "Point", "coordinates": [-74.15595470765948, 40.0545566357582]}},
{"type": "Feature", "id": "Zx38hhR4AgZyKdym7wYk1sFsKJs=", "properties": {"ref": "https://stores.christmastreeshops.com/#14230146", "@spider": "christmas_tree_shops", "shop": "variety_store", "addr:street_address": "92 Cluff Crossing Road", "addr:city": "Salem", "addr:state": "NH", "addr:postcode": "03079", "addr:country": "US", "name": "Christmas Tree Shops Salem, NH", "phone": "(603) 898-0002", "website": "https://stores.christmastreeshops.com/nh/salem/92-cluff-crossing-road", "opening_hours": "Mo-Sa 09:00-21:00; Su 10:00-19:00", "image": "https://dynl.mktgcdn.com/p/LnH7-r1LFD32v4weg_0dIVXJWgwcPjMvUv8CHPwkh4U/304x170.jpg", "brand": "Christmas Tree Shops", "brand:wikidata": "Q5111452", "nsi_id": "christmastreeshops-c85191"}, "geometry": {"type": "Point", "coordinates": [-71.22080218179843, 42.7653430100296]}},
{"type": "Feature", "id": "yxVqcULGCphwTY8xctzEpGqYcQg=", "properties": {"ref": "https://stores.christmastreeshops.com/#14230144", "@spider": "christmas_tree_shops", "shop": "variety_store", "addr:street_address": "100 Durgin Lane", "addr:city": "Portsmouth", "addr:state": "NH", "addr:postcode": "03801", "addr:country": "US", "name": "Christmas Tree Shops Portsmouth, NH", "phone": "(603) 422-8775", "website": "https://stores.christmastreeshops.com/nh/portsmouth/100-durgin-lane", "opening_hours": "Mo-Sa 09:00-21:00; Su 10:00-19:00", "image": "https://dynl.mktgcdn.com/p/LnH7-r1LFD32v4weg_0dIVXJWgwcPjMvUv8CHPwkh4U/304x170.jpg", "brand": "Christmas Tree Shops", "brand:wikidata": "Q5111452", "nsi_id": "christmastreeshops-c85191"}, "geometry": {"type": "Point", "coordinates": [-70.79755417681906, 43.08813495204276]}},
{"type": "Feature", "id": "8mS2Ung4YnrsiD-nJPRwDbq6VGY=", "properties": {"ref": "https://stores.christmastreeshops.com/#14230135", "@spider": "christmas_tree_shops", "shop": "variety_store", "addr:street_address": "1584 White Mountain Highway", "addr:city": "North Conway", "addr:state": "NH", "addr:postcode": "03860", "addr:country": "US", "name": "Christmas Tree Shops North Conway, NH", "phone": "(603) 356-0570", "website": "https://stores.christmastreeshops.com/nh/north-conway/1584-white-mountain-highway", "opening_hours": "Mo-Sa 09:00-21:00; Su 10:00-19:00", "image": "https://dynl.mktgcdn.com/p/LnH7-r1LFD32v4weg_0dIVXJWgwcPjMvUv8CHPwkh4U/304x170.jpg", "brand": "Christmas Tree Shops", "brand:wikidata": "Q5111452", "nsi_id": "christmastreeshops-c85191"}, "geometry": {"type": "Point", "coordinates": [-71.11808244432939, 44.02239311205082]}},
{"type": "Feature", "id": "3wnxeIHo3cUnfTTwo59kxVzRkQo=", "properties": {"ref": "https://stores.christmastreeshops.com/#14230086", "@spider": "christmas_tree_shops", "shop": "variety_store", "addr:street_address": "41 Gusabel Avenue", "addr:city": "Nashua", "addr:state": "NH", "addr:postcode": "03063", "addr:country": "US", "name": "Christmas Tree Shops Nashua, NH", "phone": "(603) 889-9001", "website": "https://stores.christmastreeshops.com/nh/nashua/41-gusabel-avenue", "opening_hours": "Mo-Sa 09:00-21:00; Su 10:00-19:00", "image": "https://dynl.mktgcdn.com/p/LnH7-r1LFD32v4weg_0dIVXJWgwcPjMvUv8CHPwkh4U/304x170.jpg", "brand": "Christmas Tree Shops", "brand:wikidata": "Q5111452", "nsi_id": "christmastreeshops-c85191"}, "geometry": {"type": "Point", "coordinates": [-71.4964825413723, 42.76483066517002]}},
{"type": "Feature", "id": "YjvwKQ33bECYkJ2IcMzlhEOFWoU=", "properties": {"ref": "https://stores.christmastreeshops.com/#14230101", "@spider": "christmas_tree_shops", "shop": "variety_store", "addr:street_address": "1210-B Bridford Pkwy East", "addr:city": "Greensboro", "addr:state": "NC", "addr:postcode": "27407", "addr:country": "US", "name": "Christmas Tree Shops Greensboro, NC", "phone": "(336) 856-9937", "website": "https://stores.christmastreeshops.com/nc/greensboro/1210-b-bridford-pkwy-east", "opening_hours": "Mo-Sa 09:00-21:00; Su 10:00-19:00", "image": "https://dynl.mktgcdn.com/p/LnH7-r1LFD32v4weg_0dIVXJWgwcPjMvUv8CHPwkh4U/304x170.jpg", "brand": "Christmas Tree Shops", "brand:wikidata": "Q5111452", "nsi_id": "christmastreeshops-c85191"}, "geometry": {"type": "Point", "coordinates": [-79.90736264999379, 36.05738986967169]}},
{"type": "Feature", "id": "jnqPDDxpq9tJgjS_WPjBIW5OfsM=", "properties": {"ref": "https://stores.christmastreeshops.com/#14230098", "@spider": "christmas_tree_shops", "shop": "variety_store", "addr:street_address": "2053 Skibo Road", "addr:city": "Fayetteville", "addr:state": "NC", "addr:postcode": "28314", "addr:country": "US", "name": "Christmas Tree Shops Fayetteville, NC", "phone": "(910) 867-6775", "website": "https://stores.christmastreeshops.com/nc/fayetteville/2053-skibo-road", "opening_hours": "Mo-Sa 09:00-21:00; Su 10:00-19:00", "image": "https://dynl.mktgcdn.com/p/LnH7-r1LFD32v4weg_0dIVXJWgwcPjMvUv8CHPwkh4U/304x170.jpg", "brand": "Christmas Tree Shops", "brand:wikidata": "Q5111452", "nsi_id": "christmastreeshops-c85191"}, "geometry": {"type": "Point", "coordinates": [-78.9705897, 35.0538698]}},
{"type": "Feature", "id": "jWUFciabeCYbQoQ2tGtv4Ic4hCQ=", "properties": {"ref": "https://stores.christmastreeshops.com/#14230138", "@spider": "christmas_tree_shops", "shop": "variety_store", "addr:street_address": "13361 Hall Road", "addr:city": "Utica", "addr:state": "MI", "addr:postcode": "48315", "addr:country": "US", "name": "Christmas Tree Shops Utica, MI", "phone": "(586) 731-3719", "website": "https://stores.christmastreeshops.com/mi/utica/13361-hall-road", "opening_hours": "Mo-Sa 09:00-21:00; Su 10:00-19:00", "image": "https://dynl.mktgcdn.com/p/LnH7-r1LFD32v4weg_0dIVXJWgwcPjMvUv8CHPwkh4U/304x170.jpg", "brand": "Christmas Tree Shops", "brand:wikidata": "Q5111452", "nsi_id": "christmastreeshops-c85191"}, "geometry": {"type": "Point", "coordinates": [-82.99610849558752, 42.630229015308295]}},
{"type": "Feature", "id": "eAulFg4YXN6HcGFHkaaN57LdiRk=", "properties": {"ref": "https://stores.christmastreeshops.com/#14230124", "@spider": "christmas_tree_shops", "shop": "variety_store", "addr:street_address": "23869 Eureka Rd.", "addr:city": "Taylor", "addr:state": "MI", "addr:postcode": "48180", "addr:country": "US", "name": "Christmas Tree Shops Taylor, MI", "phone": "(734) 287-8137", "website": "https://stores.christmastreeshops.com/mi/taylor/23869-eureka-rd", "opening_hours": "Mo-Sa 09:00-21:00; Su 10:00-19:00", "image": "https://dynl.mktgcdn.com/p/LnH7-r1LFD32v4weg_0dIVXJWgwcPjMvUv8CHPwkh4U/304x170.jpg", "brand": "Christmas Tree Shops", "brand:wikidata": "Q5111452", "nsi_id": "christmastreeshops-c85191"}, "geometry": {"type": "Point", "coordinates": [-83.26420093134294, 42.1948129674277]}},
{"type": "Feature", "id": "ktyysM1EonGPhiX3XBMerVE0o0M=", "properties": {"ref": "https://stores.christmastreeshops.com/#14230087", "@spider": "christmas_tree_shops", "shop": "variety_store", "addr:street_address": "4071 Miller Road", "addr:city": "Flint", "addr:state": "MI", "addr:postcode": "48507", "addr:country": "US", "name": "Christmas Tree Shops Flint, MI", "phone": "(810) 733-7052", "website": "https://stores.christmastreeshops.com/mi/flint/4071-miller-road", "opening_hours": "Mo-Sa 09:00-21:00; Su 10:00-19:00", "image": "https://dynl.mktgcdn.com/p/LnH7-r1LFD32v4weg_0dIVXJWgwcPjMvUv8CHPwkh4U/304x170.jpg", "brand": "Christmas Tree Shops", "brand:wikidata": "Q5111452", "nsi_id": "christmastreeshops-c85191"}, "geometry": {"type": "Point", "coordinates": [-83.7537675, 42.9808519]}},
{"type": "Feature", "id": "J0r5MMqGnKigxJS0k0U4pPuWw6Y=", "properties": {"ref": "https://stores.christmastreeshops.com/#14230083", "@spider": "christmas_tree_shops", "shop": "variety_store", "addr:street_address": "490 Payne Road", "addr:city": "Scarborough", "addr:state": "ME", "addr:postcode": "04074", "addr:country": "US", "name": "Christmas Tree Shops Scarborough, ME", "phone": "(207) 885-8885", "website": "https://stores.christmastreeshops.com/me/scarborough/490-payne-road", "opening_hours": "Mo-Sa 09:00-21:00; Su 10:00-19:00", "image": "https://dynl.mktgcdn.com/p/LnH7-r1LFD32v4weg_0dIVXJWgwcPjMvUv8CHPwkh4U/304x170.jpg", "brand": "Christmas Tree Shops", "brand:wikidata": "Q5111452", "nsi_id": "christmastreeshops-c85191"}, "geometry": {"type": "Point", "coordinates": [-70.34536738404115, 43.6293922122792]}},
{"type": "Feature", "id": "FEqWoW5_2mM_0_zw8gHTUTGKZQM=", "properties": {"ref": "https://stores.christmastreeshops.com/#14230164", "@spider": "christmas_tree_shops", "shop": "variety_store", "addr:street_address": "340 Patriot Place", "addr:city": "Foxboro", "addr:state": "MA", "addr:postcode": "02035", "addr:country": "US", "name": "Christmas Tree Shops Foxboro, MA", "phone": "(508) 698-1830", "website": "https://stores.christmastreeshops.com/ma/foxboro/340-patriot-place", "opening_hours": "Mo-Sa 09:00-21:00; Su 10:00-19:00", "image": "https://dynl.mktgcdn.com/p/LnH7-r1LFD32v4weg_0dIVXJWgwcPjMvUv8CHPwkh4U/304x170.jpg", "brand": "Christmas Tree Shops", "brand:wikidata": "Q5111452", "nsi_id": "christmastreeshops-c85191"}, "geometry": {"type": "Point", "coordinates": [-71.26855230398769, 42.08670532318425]}},
{"type": "Feature", "id": "81kiogNYNmTnqhdGnny5YH9b3U0=", "properties": {"ref": "https://stores.christmastreeshops.com/#14230155", "@spider": "christmas_tree_shops", "shop": "variety_store", "addr:street_address": "28 Davis Straits", "addr:city": "Falmouth", "addr:state": "MA", "addr:postcode": "02540", "addr:country": "US", "name": "Christmas Tree Shops Falmouth, MA", "phone": "(508) 548-1414", "website": "https://stores.christmastreeshops.com/ma/falmouth/28-davis-straits", "opening_hours": "Mo-Sa 09:00-21:00; Su 10:00-19:00", "image": "https://dynl.mktgcdn.com/p/LnH7-r1LFD32v4weg_0dIVXJWgwcPjMvUv8CHPwkh4U/304x170.jpg", "brand": "Christmas Tree Shops", "brand:wikidata": "Q5111452", "nsi_id": "christmastreeshops-c85191"}, "geometry": {"type": "Point", "coordinates": [-70.59819745767209, 41.557010014172846]}},
{"type": "Feature", "id": "XqKd56wXIPFN8i263q14CGNZqaA=", "properties": {"ref": "https://stores.christmastreeshops.com/#14230137", "@spider": "christmas_tree_shops", "shop": "variety_store", "addr:street_address": "15 Stockwell Dr.", "addr:city": "Avon", "addr:state": "MA", "addr:postcode": "02322", "addr:country": "US", "name": "Christmas Tree Shops Avon, MA", "phone": "(508) 586-6438", "website": "https://stores.christmastreeshops.com/ma/avon/15-stockwell-dr", "opening_hours": "Mo-Sa 09:00-21:00; Su 10:00-19:00", "image": "https://dynl.mktgcdn.com/p/LnH7-r1LFD32v4weg_0dIVXJWgwcPjMvUv8CHPwkh4U/304x170.jpg", "brand": "Christmas Tree Shops", "brand:wikidata": "Q5111452", "nsi_id": "christmastreeshops-c85191"}, "geometry": {"type": "Point", "coordinates": [-71.0680393, 42.1275853]}},
{"type": "Feature", "id": "J8ORrUTVZ90ndxqMFHC2Joe1aDQ=", "properties": {"ref": "https://stores.christmastreeshops.com/#14230099", "@spider": "christmas_tree_shops", "shop": "variety_store", "addr:street_address": "1336 Hansel Ave", "addr:city": "Florence", "addr:state": "KY", "addr:postcode": "41042", "addr:country": "US", "name": "Christmas Tree Shops Florence, KY", "phone": "(859) 371-0135", "website": "https://stores.christmastreeshops.com/ky/florence/1336-hansel-ave", "opening_hours": "Mo-Sa 09:00-21:00; Su 10:00-19:00", "image": "https://dynl.mktgcdn.com/p/LnH7-r1LFD32v4weg_0dIVXJWgwcPjMvUv8CHPwkh4U/304x170.jpg", "brand": "Christmas Tree Shops", "brand:wikidata": "Q5111452", "nsi_id": "christmastreeshops-c85191"}, "geometry": {"type": "Point", "coordinates": [-84.637924, 39.0183168]}},
{"type": "Feature", "id": "ZBaZ6wzy93rKtnHBhwtihqeHXOM=", "properties": {"ref": "https://stores.christmastreeshops.com/#14230116", "@spider": "christmas_tree_shops", "shop": "variety_store", "addr:street_address": "5851 North Grape Road", "addr:city": "Mishawaka", "addr:state": "IN", "addr:postcode": "46545", "addr:country": "US", "name": "Christmas Tree Shops Mishawaka, IN", "phone": "(574) 271-1230", "website": "https://stores.christmastreeshops.com/in/mishawaka/5851-north-grape-road", "opening_hours": "Mo-Sa 09:00-21:00; Su 10:00-19:00", "image": "https://dynl.mktgcdn.com/p/LnH7-r1LFD32v4weg_0dIVXJWgwcPjMvUv8CHPwkh4U/304x170.jpg", "brand": "Christmas Tree Shops", "brand:wikidata": "Q5111452", "nsi_id": "christmastreeshops-c85191"}, "geometry": {"type": "Point", "coordinates": [-86.1905364, 41.7136726]}},
{"type": "Feature", "id": "Vaq8gBqnPaH46CguNdr6EW45mUc=", "properties": {"ref": "https://stores.christmastreeshops.com/#14230140", "@spider": "christmas_tree_shops", "shop": "variety_store", "addr:street_address": "1230 US Highway 31 N", "addr:city": "Greenwood", "addr:state": "IN", "addr:postcode": "46142", "addr:country": "US", "name": "Christmas Tree Shops Greenwood, IN", "phone": "(317) 859-8913", "website": "https://stores.christmastreeshops.com/in/greenwood/1230-us-highway-31-n", "opening_hours": "Mo-Sa 09:00-21:00; Su 10:00-19:00", "image": "https://dynl.mktgcdn.com/p/LnH7-r1LFD32v4weg_0dIVXJWgwcPjMvUv8CHPwkh4U/304x170.jpg", "brand": "Christmas Tree Shops", "brand:wikidata": "Q5111452", "nsi_id": "christmastreeshops-c85191"}, "geometry": {"type": "Point", "coordinates": [-86.12585775223056, 39.63131474203868]}},
{"type": "Feature", "id": "Q70_Yz91-rhITNpwu4axxX-APjM=", "properties": {"ref": "https://stores.christmastreeshops.com/#14230153", "@spider": "christmas_tree_shops", "shop": "variety_store", "addr:street_address": "845 Ernest W. Barrett Pwky NW", "addr:city": "Kennesaw", "addr:state": "GA", "addr:postcode": "30144", "addr:country": "US", "name": "Christmas Tree Shops Kennesaw, GA", "phone": "(678) 424-5578", "website": "https://stores.christmastreeshops.com/ga/kennesaw/845-ernest-w-barrett-pwky-nw", "opening_hours": "Mo-Sa 09:00-21:00; Su 10:00-19:00", "image": "https://dynl.mktgcdn.com/p/LnH7-r1LFD32v4weg_0dIVXJWgwcPjMvUv8CHPwkh4U/304x170.jpg", "brand": "Christmas Tree Shops", "brand:wikidata": "Q5111452", "nsi_id": "christmastreeshops-c85191"}, "geometry": {"type": "Point", "coordinates": [-84.575852, 34.0042367]}},
{"type": "Feature", "id": "yqwHmAsCMTLlKcTK4CQGPUji-Dw=", "properties": {"ref": "https://stores.christmastreeshops.com/#14230095", "@spider": "christmas_tree_shops", "shop": "variety_store", "addr:street_address": "239 Robert C. Daniel Jr. Parkway", "addr:city": "Augusta", "addr:state": "GA", "addr:postcode": "30909", "addr:country": "US", "name": "Christmas Tree Shops Augusta, GA", "phone": "(706) 738-0570", "website": "https://stores.christmastreeshops.com/ga/augusta/239-robert-c-daniel-jr-parkway", "opening_hours": "Mo-Sa 09:00-21:00; Su 10:00-19:00", "image": "https://dynl.mktgcdn.com/p/LnH7-r1LFD32v4weg_0dIVXJWgwcPjMvUv8CHPwkh4U/304x170.jpg", "brand": "Christmas Tree Shops", "brand:wikidata": "Q5111452", "nsi_id": "christmastreeshops-c85191"}, "geometry": {"type": "Point", "coordinates": [-82.0815882, 33.4892635]}},
{"type": "Feature", "id": "pt4zjQHsnbbmPZ_fLOykRzXORXo=", "properties": {"ref": "https://stores.christmastreeshops.com/#38116177", "@spider": "christmas_tree_shops", "shop": "variety_store", "addr:street_address": "147 N Cattleman Road", "addr:city": "Sarasota", "addr:state": "FL", "addr:postcode": "34243", "addr:country": "US", "name": "Christmas Tree Shops Sarasota, FL", "phone": "(877) 463-1549", "website": "https://stores.christmastreeshops.com/fl/sarasota/147-n-cattleman-road", "image": "https://dynl.mktgcdn.com/p/LnH7-r1LFD32v4weg_0dIVXJWgwcPjMvUv8CHPwkh4U/304x170.jpg", "brand": "Christmas Tree Shops", "brand:wikidata": "Q5111452", "nsi_id": "christmastreeshops-c85191"}, "geometry": {"type": "Point", "coordinates": [-82.45816098816907, 27.383144588123557]}},
{"type": "Feature", "id": "cMH5m1qKfwGHOKqolF5Qn_CVz9w=", "properties": {"ref": "https://stores.christmastreeshops.com/#38116049", "@spider": "christmas_tree_shops", "shop": "variety_store", "addr:street_address": "11470 Pines Boulevard", "addr:city": "Pembroke Pines", "addr:state": "FL", "addr:postcode": "33026", "addr:country": "US", "name": "Christmas Tree Shops Pembroke Pines, FL", "phone": "(877) 463-1549", "website": "https://stores.christmastreeshops.com/fl/pembroke-pines/11470-pines-boulevard", "image": "https://dynl.mktgcdn.com/p/LnH7-r1LFD32v4weg_0dIVXJWgwcPjMvUv8CHPwkh4U/304x170.jpg", "brand": "Christmas Tree Shops", "brand:wikidata": "Q5111452", "nsi_id": "christmastreeshops-c85191"}, "geometry": {"type": "Point", "coordinates": [-80.30226121236954, 26.006432104485036]}},
{"type": "Feature", "id": "jfYB9i2K03BV0hTMKNIBehgG4AU=", "properties": {"ref": "https://stores.christmastreeshops.com/#14230165", "@spider": "christmas_tree_shops", "shop": "variety_store", "addr:street_address": "8801 Southside Blvd Suite 7", "addr:city": "Jacksonville", "addr:state": "FL", "addr:postcode": "32256", "addr:country": "US", "name": "Christmas Tree Shops Jacksonville, FL", "phone": "(904) 423-4322", "website": "https://stores.christmastreeshops.com/fl/jacksonville/8801-southside-blvd", "opening_hours": "Mo-Sa 09:00-21:00; Su 10:00-19:00", "image": "https://dynl.mktgcdn.com/p/LnH7-r1LFD32v4weg_0dIVXJWgwcPjMvUv8CHPwkh4U/304x170.jpg", "brand": "Christmas Tree Shops", "brand:wikidata": "Q5111452", "nsi_id": "christmastreeshops-c85191"}, "geometry": {"type": "Point", "coordinates": [-81.5502288, 30.1995617]}},
{"type": "Feature", "id": "GQj9DGalPyMq6TfuvA6VAsdya7I=", "properties": {"ref": "https://stores.christmastreeshops.com/#38116175", "@spider": "christmas_tree_shops", "shop": "variety_store", "addr:street_address": "8020 Mediterranean Drive", "addr:city": "Estero", "addr:state": "FL", "addr:postcode": "33928", "addr:country": "US", "name": "Christmas Tree Shops Estero, FL", "phone": "(239) 317-3974", "website": "https://stores.christmastreeshops.com/fl/estero/8020-mediterranean-drive", "opening_hours": "Mo-Sa 09:00-21:00; Su 09:00-19:00", "image": "https://dynl.mktgcdn.com/p/LnH7-r1LFD32v4weg_0dIVXJWgwcPjMvUv8CHPwkh4U/304x170.jpg", "brand": "Christmas Tree Shops", "brand:wikidata": "Q5111452", "nsi_id": "christmastreeshops-c85191"}, "geometry": {"type": "Point", "coordinates": [-81.80691447234967, 26.408422193595662]}},
{"type": "Feature", "id": "L9JDR5R35gGz5rHueWvRjVzaUhQ=", "properties": {"ref": "https://stores.christmastreeshops.com/#14230109", "@spider": "christmas_tree_shops", "shop": "variety_store", "addr:street_address": "130 East Altamonte Drive Suite #1300", "addr:city": "Altamonte Springs", "addr:state": "FL", "addr:postcode": "32701", "addr:country": "US", "name": "Christmas Tree Shops Altamonte Springs, FL", "phone": "(407) 332-0049", "website": "https://stores.christmastreeshops.com/fl/altamonte-springs/130-east-altamonte-drive", "opening_hours": "Mo-Sa 09:00-21:00; Su 10:00-19:00", "image": "https://dynl.mktgcdn.com/p/LnH7-r1LFD32v4weg_0dIVXJWgwcPjMvUv8CHPwkh4U/304x170.jpg", "brand": "Christmas Tree Shops", "brand:wikidata": "Q5111452", "nsi_id": "christmastreeshops-c85191"}, "geometry": {"type": "Point", "coordinates": [-81.3868236, 28.6602244]}},
{"type": "Feature", "id": "BQeWCzikQYFk3Bp7A2mDoVM3dzA=", "properties": {"ref": "https://stores.christmastreeshops.com/#14230084", "@spider": "christmas_tree_shops", "shop": "variety_store", "addr:street_address": "5450 Brandywine Parkway", "addr:city": "Wilmington", "addr:state": "DE", "addr:postcode": "19803", "addr:country": "US", "name": "Christmas Tree Shops Wilmington, DE", "phone": "(302) 479-0680", "website": "https://stores.christmastreeshops.com/de/wilmington/5450-brandywine-parkway", "opening_hours": "Mo-Sa 09:00-21:00; Su 10:00-19:00", "image": "https://dynl.mktgcdn.com/p/LnH7-r1LFD32v4weg_0dIVXJWgwcPjMvUv8CHPwkh4U/304x170.jpg", "brand": "Christmas Tree Shops", "brand:wikidata": "Q5111452", "nsi_id": "christmastreeshops-c85191"}, "geometry": {"type": "Point", "coordinates": [-75.53620666084873, 39.83251664608576]}},
{"type": "Feature", "id": "R9t_Btq0NFXOTY6pl6uCEfDLn5w=", "properties": {"ref": "https://stores.christmastreeshops.com/#14230163", "@spider": "christmas_tree_shops", "shop": "variety_store", "addr:street_address": "19563 Coastal Highway #3", "addr:city": "Rehoboth Beach", "addr:state": "DE", "addr:postcode": "19971", "addr:country": "US", "name": "Christmas Tree Shops Rehoboth Beach, DE", "phone": "(302) 260-7185", "website": "https://stores.christmastreeshops.com/de/rehoboth-beach/19563-coastal-highway", "opening_hours": "Mo-Sa 09:00-21:00; Su 10:00-19:00", "image": "https://dynl.mktgcdn.com/p/LnH7-r1LFD32v4weg_0dIVXJWgwcPjMvUv8CHPwkh4U/304x170.jpg", "brand": "Christmas Tree Shops", "brand:wikidata": "Q5111452", "nsi_id": "christmastreeshops-c85191"}, "geometry": {"type": "Point", "coordinates": [-75.11605413491822, 38.72066192246627]}},
{"type": "Feature", "id": "qaxeZAlFJrvRZ8UBLN2aXOGEjPg=", "properties": {"ref": "https://stores.christmastreeshops.com/#14230119", "@spider": "christmas_tree_shops", "shop": "variety_store", "addr:street_address": "824 Hartford Turnpike", "addr:city": "Waterford", "addr:state": "CT", "addr:postcode": "06385", "addr:country": "US", "name": "Christmas Tree Shops Waterford, CT", "phone": "(860) 442-0066", "website": "https://stores.christmastreeshops.com/ct/waterford/824-hartford-turnpike", "opening_hours": "Mo-Sa 09:00-21:00; Su 10:00-19:00", "image": "https://dynl.mktgcdn.com/p/LnH7-r1LFD32v4weg_0dIVXJWgwcPjMvUv8CHPwkh4U/304x170.jpg", "brand": "Christmas Tree Shops", "brand:wikidata": "Q5111452", "nsi_id": "christmastreeshops-c85191"}, "geometry": {"type": "Point", "coordinates": [-72.14381747001687, 41.373015104344056]}},
{"type": "Feature", "id": "62G10tA1jgGGJSdwx5vsbKKw66s=", "properties": {"ref": "https://stores.christmastreeshops.com/#14230129", "@spider": "christmas_tree_shops", "shop": "variety_store", "addr:street_address": "220 Indian River Road", "addr:city": "Orange", "addr:state": "CT", "addr:postcode": "06477", "addr:country": "US", "name": "Christmas Tree Shops Orange, CT", "phone": "(203) 795-0060", "website": "https://stores.christmastreeshops.com/ct/orange/220-indian-river-road", "opening_hours": "Mo-Sa 09:00-21:00; Su 10:00-19:00", "image": "https://dynl.mktgcdn.com/p/LnH7-r1LFD32v4weg_0dIVXJWgwcPjMvUv8CHPwkh4U/304x170.jpg", "brand": "Christmas Tree Shops", "brand:wikidata": "Q5111452", "nsi_id": "christmastreeshops-c85191"}, "geometry": {"type": "Point", "coordinates": [-73.0015255, 41.2624688]}},
{"type": "Feature", "id": "11v7EMGGbMAq-SPEYN2cxGLqR1A=", "properties": {"ref": "https://stores.christmastreeshops.com/#14230141", "@spider": "christmas_tree_shops", "shop": "variety_store", "addr:street_address": "120 Hale Road", "addr:city": "Manchester", "addr:state": "CT", "addr:postcode": "06042-1773", "addr:country": "US", "name": "Christmas Tree Shops Manchester, CT", "phone": "(860) 648-9390", "website": "https://stores.christmastreeshops.com/ct/manchester/120-hale-road", "opening_hours": "Mo-Sa 09:00-21:00; Su 10:00-19:00", "image": "https://dynl.mktgcdn.com/p/LnH7-r1LFD32v4weg_0dIVXJWgwcPjMvUv8CHPwkh4U/304x170.jpg", "brand": "Christmas Tree Shops", "brand:wikidata": "Q5111452", "nsi_id": "christmastreeshops-c85191"}, "geometry": {"type": "Point", "coordinates": [-72.53009988807787, 41.80956060823204]}},
{"type": "Feature", "id": "RLhEfIcOWTBK46z9LCScqF2cjUQ=", "properties": {"ref": "https://stores.christmastreeshops.com/#14230111", "@spider": "christmas_tree_shops", "shop": "variety_store", "addr:street_address": "15 Backus Avenue Suite 42", "addr:city": "Danbury", "addr:state": "CT", "addr:postcode": "06810", "addr:country": "US", "name": "Christmas Tree Shops Danbury, CT", "phone": "(203) 791-1114", "website": "https://stores.christmastreeshops.com/ct/danbury/15-backus-avenue", "opening_hours": "Mo-Sa 09:00-21:00; Su 10:00-19:00", "image": "https://dynl.mktgcdn.com/p/LnH7-r1LFD32v4weg_0dIVXJWgwcPjMvUv8CHPwkh4U/304x170.jpg", "brand": "Christmas Tree Shops", "brand:wikidata": "Q5111452", "nsi_id": "christmastreeshops-c85191"}, "geometry": {"type": "Point", "coordinates": [-73.48703072818626, 41.377241036728414]}}]}