{"type":"FeatureCollection","features":[{"type": "Feature", "id": "jvLacY7MSXTqlEgCo22Hu-SKD-M=", "properties": {"ref": "0014K", "@spider": "cintas", "addr:full": "1671 S 4370 West", "addr:city": "Salt Lake City", "addr:state": "UT", "addr:postcode": "84104", "addr:country": "US", "name": "Cintas", "phone": "801-972-4697", "brand": "Cintas", "brand:wikidata": "Q1092571"}, "geometry": {"type": "Point", "coordinates": [-111.9951, 40.73384]}},
{"type": "Feature", "id": "bUj_w5meZxjYmLA2LFKnrIwRn68=", "properties": {"ref": "180", "@spider": "cintas", "addr:full": "1586 S 5350 W", "addr:city": "Salt Lake City", "addr:state": "UT", "addr:postcode": "84104", "addr:country": "US", "name": "Cintas", "phone": "801-972-4544", "brand": "Cintas", "brand:wikidata": "Q1092571"}, "geometry": {"type": "Point", "coordinates": [-112.019875, 40.7353821]}},
{"type": "Feature", "id": "oUJ4SgEhf0CFljjcjWDh0gK4XLw=", "properties": {"ref": "207", "@spider": "cintas", "addr:full": "340 Dunavant Dr", "addr:city": "Rockford", "addr:state": "TN", "addr:postcode": "37853", "addr:country": "US", "name": "Cintas", "phone": "865-546-3210", "brand": "Cintas", "brand:wikidata": "Q1092571"}, "geometry": {"type": "Point", "coordinates": [-83.93884, 35.8644867]}},
{"type": "Feature", "id": "O3LUcX3Tr7q7fkxDebbNZPJa9qc=", "properties": {"ref": "248", "@spider": "cintas", "addr:full": "10301 Cogdill Rd Suite 303", "addr:city": "Knoxville", "addr:state": "TN", "addr:postcode": "37932", "addr:country": "US", "name": "Cintas", "phone": "865-966-4701", "brand": "Cintas", "brand:wikidata": "Q1092571"}, "geometry": {"type": "Point", "coordinates": [-84.1295, 35.9116554]}},
{"type": "Feature", "id": "wqq-82I1czWaWm6JqZTMZgS7pno=", "properties": {"ref": "0039M", "@spider": "cintas", "addr:full": "3217 N 1st Ave", "addr:city": "Sioux Falls", "addr:state": "SD", "addr:postcode": "57104", "addr:country": "US", "name": "Cintas", "phone": "605-334-3052", "brand": "Cintas", "brand:wikidata": "Q1092571"}, "geometry": {"type": "Point", "coordinates": [-96.72504, 43.58065]}},
{"type": "Feature", "id": "x-NiuGb1EImPrMOAUxxRvIAX6Ps=", "properties": {"ref": "213", "@spider": "cintas", "addr:full": "121 Landers Rd", "addr:city": "Spartanburg", "addr:state": "SC", "addr:postcode": "29303", "addr:country": "US", "name": "Cintas", "phone": "864-699-6000", "brand": "Cintas", "brand:wikidata": "Q1092571"}, "geometry": {"type": "Point", "coordinates": [-81.92577, 34.9998474]}},
{"type": "Feature", "id": "kDHTBx75uKezrieSwUmw63-XWcg=", "properties": {"ref": "216", "@spider": "cintas", "addr:full": "191 Elcon Dr", "addr:city": "Greenville", "addr:state": "SC", "addr:postcode": "29605", "addr:country": "US", "name": "Cintas", "phone": "864-299-0567", "brand": "Cintas", "brand:wikidata": "Q1092571"}, "geometry": {"type": "Point", "coordinates": [-82.23266, 34.94648]}},
{"type": "Feature", "id": "m2zq9xvPXU-wS5pDbpA5JhnSrWo=", "properties": {"ref": "00F51", "@spider": "cintas", "addr:full": "1 Marcus Dr Suite 204", "addr:city": "Greenville", "addr:state": "SC", "addr:postcode": "29615", "addr:country": "US", "name": "Cintas", "phone": "864-661-1020", "brand": "Cintas", "brand:wikidata": "Q1092571"}, "geometry": {"type": "Point", "coordinates": [-82.31985, 34.84599]}},
{"type": "Feature", "id": "_EH08ouKWWVhPpi9T33gxdVK1D4=", "properties": {"ref": "756", "@spider": "cintas", "addr:full": "300 Highland Corporate Dr", "addr:city": "Cumberland", "addr:state": "RI", "addr:postcode": "2864", "addr:country": "US", "name": "Cintas", "phone": "401-235-6400", "brand": "Cintas", "brand:wikidata": "Q1092571"}, "geometry": {"type": "Point", "coordinates": [-71.47168, 41.9928474]}},
{"type": "Feature", "id": "7HsWzYXe9okNTnCRxtw7-EqWZ9E=", "properties": {"ref": "00F40", "@spider": "cintas", "addr:full": "710 Narragansett Park Drive", "addr:city": "Pawtucket", "addr:state": "RI", "addr:postcode": "2861", "addr:country": "US", "name": "Cintas", "phone": "401-723-7300", "brand": "Cintas", "brand:wikidata": "Q1092571"}, "geometry": {"type": "Point", "coordinates": [-71.34915, 41.8606377]}},
{"type": "Feature", "id": "Fj1EuS1uwKjvITvoSEl9y_snu28=", "properties": {"ref": "395", "@spider": "cintas", "addr:full": "1111 Smile Way", "addr:city": "York", "addr:state": "PA", "addr:postcode": "17404", "addr:country": "US", "name": "Cintas", "phone": "717-848-4787", "brand": "Cintas", "brand:wikidata": "Q1092571"}, "geometry": {"type": "Point", "coordinates": [-76.7557449, 39.988266]}},
{"type": "Feature", "id": "9EZz7ixngRBz13ZbaZllsCeZrZY=", "properties": {"ref": "0059H", "@spider": "cintas", "addr:full": "1170 Garfield Ave STE 4", "addr:city": "Lancaster", "addr:state": "PA", "addr:postcode": "17601", "addr:country": "US", "name": "Cintas", "phone": "717-207-7228", "brand": "Cintas", "brand:wikidata": "Q1092571"}, "geometry": {"type": "Point", "coordinates": [-76.3204, 40.0580368]}},
{"type": "Feature", "id": "fotVWPJTX0SusJlzea_VPbRFcVU=", "properties": {"ref": "178", "@spider": "cintas", "addr:full": "2406 Antelope Rd", "addr:city": "White City", "addr:state": "OR", "addr:postcode": "97503", "addr:country": "US", "name": "Cintas", "phone": "541-826-8899", "brand": "Cintas", "brand:wikidata": "Q1092571"}, "geometry": {"type": "Point", "coordinates": [-122.847389, 42.42662]}},
{"type": "Feature", "id": "QF5_iUYjjVD6B7INnLBme46QzDw=", "properties": {"ref": "63", "@spider": "cintas", "addr:full": "5940 S 129th East Ave", "addr:city": "Tulsa", "addr:state": "OK", "addr:postcode": "74134", "addr:country": "US", "name": "Cintas", "phone": "918-252-3693", "brand": "Cintas", "brand:wikidata": "Q1092571"}, "geometry": {"type": "Point", "coordinates": [-95.8339, 36.0778]}},
{"type": "Feature", "id": "CRj5TXTawPm5LpdNAAieB1yWLig=", "properties": {"ref": "418", "@spider": "cintas", "addr:full": "1108 N 105th E Ave", "addr:city": "Tulsa", "addr:state": "OK", "addr:postcode": "74116", "addr:country": "US", "name": "Cintas", "phone": "918-835-4255", "brand": "Cintas", "brand:wikidata": "Q1092571"}, "geometry": {"type": "Point", "coordinates": [-95.86276, 36.17174]}},
{"type": "Feature", "id": "xOU2qTMqwCPld6CMo2PGXTpTYow=", "properties": {"ref": "0034K", "@spider": "cintas", "addr:full": "1700 Main Ave W", "addr:city": "West Fargo", "addr:state": "ND", "addr:postcode": "58078", "addr:country": "US", "name": "Cintas", "phone": "701-277-5638", "brand": "Cintas", "brand:wikidata": "Q1092571"}, "geometry": {"type": "Point", "coordinates": [-96.92909, 46.87823]}},
{"type": "Feature", "id": "eI9PYzjeDoO9KPxSYriU3ZuZXw4=", "properties": {"ref": "0011F", "@spider": "cintas", "addr:full": "325 Corporate Blvd S", "addr:city": "Yonkers", "addr:state": "NY", "addr:postcode": "10701", "addr:country": "US", "name": "Cintas", "phone": "914-669-5062", "brand": "Cintas", "brand:wikidata": "Q1092571"}, "geometry": {"type": "Point", "coordinates": [-73.87875, 40.9677162]}},
{"type": "Feature", "id": "0C16V34IW99-t_qqdIIylZO-Ebs=", "properties": {"ref": "790", "@spider": "cintas", "addr:full": "12 Harbor Park Dr", "addr:city": "Port Washington", "addr:state": "NY", "addr:postcode": "11050", "addr:country": "US", "name": "Cintas", "phone": "516-403-4800", "brand": "Cintas", "brand:wikidata": "Q1092571"}, "geometry": {"type": "Point", "coordinates": [-73.6618958, 40.8069572]}},
{"type": "Feature", "id": "FLm-SjEPyxT2GKqw7RoFZWui-Dc=", "properties": {"ref": "793", "@spider": "cintas", "addr:full": "75A Bloomingdale Rd", "addr:city": "Hicksville", "addr:state": "NY", "addr:postcode": "11801", "addr:country": "US", "name": "Cintas", "phone": "855-405-3401", "brand": "Cintas", "brand:wikidata": "Q1092571"}, "geometry": {"type": "Point", "coordinates": [-73.50509, 40.7472954]}},
{"type": "Feature", "id": "y0_KAyGy6bG_nwMbV_qrv93d2hc=", "properties": {"ref": "0019K", "@spider": "cintas", "addr:full": "5101 Wilshire Ave NE", "addr:city": "Albuquerque", "addr:state": "NM", "addr:postcode": "87113", "addr:country": "US", "name": "Cintas", "phone": "505-856-2021", "brand": "Cintas", "brand:wikidata": "Q1092571"}, "geometry": {"type": "Point", "coordinates": [-106.588425, 35.18217]}},
{"type": "Feature", "id": "v942rBUwBrvjofdwo0QAcniTPMQ=", "properties": {"ref": "382", "@spider": "cintas", "addr:full": "5620 Modesto NE", "addr:city": "Albuquerque", "addr:state": "NM", "addr:postcode": "87113", "addr:country": "US", "name": "Cintas", "phone": "505-242-1515", "brand": "Cintas", "brand:wikidata": "Q1092571"}, "geometry": {"type": "Point", "coordinates": [-106.582565, 35.18843]}},
{"type": "Feature", "id": "GWs1983QOBTvtxkUpStA01GKlKU=", "properties": {"ref": "62", "@spider": "cintas", "addr:full": "51 New England Ave", "addr:city": "Piscataway", "addr:state": "NJ", "addr:postcode": "8844", "addr:country": "US", "name": "Cintas", "phone": "732-981-1500", "brand": "Cintas", "brand:wikidata": "Q1092571"}, "geometry": {"type": "Point", "coordinates": [-74.4706039, 40.5553665]}},
{"type": "Feature", "id": "V9_m0BmetfAx37cOGoqPc7Gy8Bw=", "properties": {"ref": "111", "@spider": "cintas", "addr:full": "546 Green Ln", "addr:city": "Union", "addr:state": "NJ", "addr:postcode": "7083", "addr:country": "US", "name": "Cintas", "phone": "908-737-0800", "brand": "Cintas", "brand:wikidata": "Q1092571"}, "geometry": {"type": "Point", "coordinates": [-74.24673, 40.67738]}},
{"type": "Feature", "id": "mAL0gIVhcdX4aHqwDXMcnLbrto0=", "properties": {"ref": "0015F", "@spider": "cintas", "addr:full": "410 Clermont Terrace Ste E", "addr:city": "Union", "addr:state": "NJ", "addr:postcode": "7083", "addr:country": "US", "name": "Cintas", "phone": "908-344-5585", "brand": "Cintas", "brand:wikidata": "Q1092571"}, "geometry": {"type": "Point", "coordinates": [-74.2524, 40.6738968]}},
{"type": "Feature", "id": "3rsITLhRAke18xxBoreoPDejKJw=", "properties": {"ref": "0068M", "@spider": "cintas", "addr:full": "324 Taylor Street", "addr:city": "Manchester", "addr:state": "NH", "addr:postcode": "3103", "addr:country": "US", "name": "Cintas", "phone": "603-625-9722", "brand": "Cintas", "brand:wikidata": "Q1092571"}, "geometry": {"type": "Point", "coordinates": [-71.44264, 42.98208]}},
{"type": "Feature", "id": "9qjRWeiV_6oYvc_vUTE1aEMaE0k=", "properties": {"ref": "00F95", "@spider": "cintas", "addr:full": "79 Dow St", "addr:city": "Bow", "addr:state": "NH", "addr:postcode": "3304", "addr:country": "US", "name": "Cintas", "phone": "603-717-7300", "brand": "Cintas", "brand:wikidata": "Q1092571"}, "geometry": {"type": "Point", "coordinates": [-71.50919, 43.1524658]}},
{"type": "Feature", "id": "YbO1a6wTfHRGyE_hAhCtODxLtVY=", "properties": {"ref": "0015K", "@spider": "cintas", "addr:full": "2111 Industrial St", "addr:city": "Wisconsin Rapids", "addr:state": "WI", "addr:postcode": "54495", "addr:country": "US", "name": "Cintas", "phone": "715-421-1137", "brand": "Cintas", "brand:wikidata": "Q1092571"}, "geometry": {"type": "Point", "coordinates": [-89.8504257, 44.4016266]}},
{"type": "Feature", "id": "0XeRXCfKuP8y_4aJA3WK8W7QzMg=", "properties": {"ref": "442", "@spider": "cintas", "addr:full": "5201 Heffron Ct Bldg A", "addr:city": "Stevens Point", "addr:state": "WI", "addr:postcode": "54481", "addr:country": "US", "name": "Cintas", "phone": "715-254-0280", "brand": "Cintas", "brand:wikidata": "Q1092571"}, "geometry": {"type": "Point", "coordinates": [-89.5211945, 44.5055847]}},
{"type": "Feature", "id": "ezGHU1KKwQOq_QMeJ2Z9DWqN2cA=", "properties": {"ref": "0020K", "@spider": "cintas", "addr:full": "5545 Commerce Rd", "addr:city": "Onalaska", "addr:state": "WI", "addr:postcode": "54650", "addr:country": "US", "name": "Cintas", "phone": "608-783-8899", "brand": "Cintas", "brand:wikidata": "Q1092571"}, "geometry": {"type": "Point", "coordinates": [-91.2440643, 43.92046]}},
{"type": "Feature", "id": "8evG_NfEG_aJFsUxk4Y97qXzLy8=", "properties": {"ref": "184", "@spider": "cintas", "addr:full": "6415 N 62nd St", "addr:city": "Milwaukee", "addr:state": "WI", "addr:postcode": "53223", "addr:country": "US", "name": "Cintas", "phone": "833-711-5952", "brand": "Cintas", "brand:wikidata": "Q1092571"}, "geometry": {"type": "Point", "coordinates": [-87.98964, 43.13486]}},
{"type": "Feature", "id": "3jm04ZZvgfQq7Pon4Cle9wDWPZM=", "properties": {"ref": "447", "@spider": "cintas", "addr:full": "9828 S Oakwood Park Dr", "addr:city": "Franklin", "addr:state": "WI", "addr:postcode": "53132", "addr:country": "US", "name": "Cintas", "phone": "833-711-5952", "brand": "Cintas", "brand:wikidata": "Q1092571"}, "geometry": {"type": "Point", "coordinates": [-87.97222, 42.8661423]}},
{"type": "Feature", "id": "-HLTy8sTooN2aKUj_ucLnT-BwEo=", "properties": {"ref": "455", "@spider": "cintas", "addr:full": "N56 W 13605 Silver Spring Dr", "addr:city": "Menomonee Falls", "addr:state": "WI", "addr:postcode": "53051", "addr:country": "US", "name": "Cintas", "phone": "262-252-3555", "brand": "Cintas", "brand:wikidata": "Q1092571"}, "geometry": {"type": "Point", "coordinates": [-88.08097, 43.1182365]}},
{"type": "Feature", "id": "m75rwF4izYkH0qqjusforwjuyy8=", "properties": {"ref": "0004K", "@spider": "cintas", "addr:full": "2108 Washington Avenue N", "addr:city": "Minneapolis", "addr:state": "MN", "addr:postcode": "55411", "addr:country": "US", "name": "Cintas", "phone": "612-521-4771", "brand": "Cintas", "brand:wikidata": "Q1092571"}, "geometry": {"type": "Point", "coordinates": [-93.28136, 45.000885]}},
{"type": "Feature", "id": "1O4rUs869X3tt3Z6GaxEaB4RFao=", "properties": {"ref": "0021M", "@spider": "cintas", "addr:full": "685 Olive St", "addr:city": "Saint Paul", "addr:state": "MN", "addr:postcode": "55101", "addr:country": "US", "name": "Cintas", "phone": "651-855-7000", "brand": "Cintas", "brand:wikidata": "Q1092571"}, "geometry": {"type": "Point", "coordinates": [-93.0886, 44.9596672]}},
{"type": "Feature", "id": "w1azCzERVu3eM1S5OtF4_LQ9qEU=", "properties": {"ref": "431", "@spider": "cintas", "addr:full": "8701 Brooklyn Blvd", "addr:city": "Brooklyn Park", "addr:state": "MN", "addr:postcode": "55445", "addr:country": "US", "name": "Cintas", "phone": "763-425-7200", "brand": "Cintas", "brand:wikidata": "Q1092571"}, "geometry": {"type": "Point", "coordinates": [-93.3927155, 45.0943069]}},
{"type": "Feature", "id": "7dZz1uJLNMIEFViTW2lx3hpxwFI=", "properties": {"ref": "470", "@spider": "cintas", "addr:full": "11500 95th Ave", "addr:city": "Maple Grove", "addr:state": "MN", "addr:postcode": "55369", "addr:country": "US", "name": "Cintas", "phone": "763-425-6666", "brand": "Cintas", "brand:wikidata": "Q1092571"}, "geometry": {"type": "Point", "coordinates": [-93.42715, 45.1278572]}},
{"type": "Feature", "id": "nnEB2SaUVwHjgBAKnyfQ8IkRz5I=", "properties": {"ref": "754", "@spider": "cintas", "addr:full": "3375 Mike Collins Dr", "addr:city": "Eagan", "addr:state": "MN", "addr:postcode": "55121", "addr:country": "US", "name": "Cintas", "phone": "833-711-5960", "brand": "Cintas", "brand:wikidata": "Q1092571"}, "geometry": {"type": "Point", "coordinates": [-93.13116, 44.8348579]}},
{"type": "Feature", "id": "LLpSqvg_j1FBFw8fMDtEiVlrohU=", "properties": {"ref": "446", "@spider": "cintas", "addr:full": "2222 Vondron Rd", "addr:city": "Madison", "addr:state": "WI", "addr:postcode": "53718", "addr:country": "US", "name": "Cintas", "phone": "608-222-0612", "brand": "Cintas", "brand:wikidata": "Q1092571"}, "geometry": {"type": "Point", "coordinates": [-89.29222, 43.0658035]}},
{"type": "Feature", "id": "DNGbnV3ExADa8C-JuDMDX3d4T_g=", "properties": {"ref": "00F39", "@spider": "cintas", "addr:full": "804 Walsh Rd", "addr:city": "Madison", "addr:state": "WI", "addr:postcode": "53715", "addr:country": "US", "name": "Cintas", "phone": "262-781-0202", "brand": "Cintas", "brand:wikidata": "Q1092571"}, "geometry": {"type": "Point", "coordinates": [-89.31034, 43.1081276]}},
{"type": "Feature", "id": "nd0qI058UabBHW-u9WKiAhm418U=", "properties": {"ref": "443", "@spider": "cintas", "addr:full": "N1352 County Road CB", "addr:city": "Greenville", "addr:state": "WI", "addr:postcode": "54942", "addr:country": "US", "name": "Cintas", "phone": "920-757-1537", "brand": "Cintas", "brand:wikidata": "Q1092571"}, "geometry": {"type": "Point", "coordinates": [-88.5053, 44.2898064]}},
{"type": "Feature", "id": "QfdXuYGx2HE6Qj5PURXThRubZXc=", "properties": {"ref": "0080P", "@spider": "cintas", "addr:full": "3001 E Enterprise AVE", "addr:city": "Appleton", "addr:state": "WI", "addr:postcode": "54913", "addr:country": "US", "name": "Cintas", "phone": "920-739-7764", "brand": "Cintas", "brand:wikidata": "Q1092571"}, "geometry": {"type": "Point", "coordinates": [-88.3627243, 44.2990265]}},
{"type": "Feature", "id": "c2PSYHSjAEw8PlStVqWwnF46ySQ=", "properties": {"ref": "0011K", "@spider": "cintas", "addr:full": "800 Isbell St", "addr:city": "Green Bay", "addr:state": "WI", "addr:postcode": "54303", "addr:country": "US", "name": "Cintas", "phone": "920-497-2509", "brand": "Cintas", "brand:wikidata": "Q1092571"}, "geometry": {"type": "Point", "coordinates": [-88.09542, 44.5271568]}},
{"type": "Feature", "id": "FYTJu4DHNxwrITu_Sj8sbPAU67Y=", "properties": {"ref": "0016K", "@spider": "cintas", "addr:full": "3005 Mondovi Rd", "addr:city": "Eau Claire", "addr:state": "WI", "addr:postcode": "54701", "addr:country": "US", "name": "Cintas", "phone": "715-832-3573", "brand": "Cintas", "brand:wikidata": "Q1092571"}, "geometry": {"type": "Point", "coordinates": [-91.52641, 44.78735]}},
{"type": "Feature", "id": "AP4_bPFvPxgyk5jBXnEPdLvtdUI=", "properties": {"ref": "00F38", "@spider": "cintas", "addr:full": "3405 Truax Ct", "addr:city": "Eau Claire", "addr:state": "WI", "addr:postcode": "54703", "addr:country": "US", "name": "Cintas", "phone": "262-781-0202", "brand": "Cintas", "brand:wikidata": "Q1092571"}, "geometry": {"type": "Point", "coordinates": [-91.5400543, 44.834877]}},
{"type": "Feature", "id": "j4ZrvTfP3pfuCLhznBybjqP_ArQ=", "properties": {"ref": "16", "@spider": "cintas", "addr:full": "200 Apollo Dr", "addr:city": "Chelmsford", "addr:state": "MA", "addr:postcode": "1824", "addr:country": "US", "name": "Cintas", "phone": "978-250-1300", "brand": "Cintas", "brand:wikidata": "Q1092571"}, "geometry": {"type": "Point", "coordinates": [-71.3277, 42.5982628]}},
{"type": "Feature", "id": "VbJv_DPYF0oSAAtpRG84aW5wKPM=", "properties": {"ref": "779", "@spider": "cintas", "addr:full": "10G Gill St", "addr:city": "Woburn", "addr:state": "MA", "addr:postcode": "1801", "addr:country": "US", "name": "Cintas", "phone": "781-497-1900", "brand": "Cintas", "brand:wikidata": "Q1092571"}, "geometry": {"type": "Point", "coordinates": [-71.14875, 42.5081825]}},
{"type": "Feature", "id": "dB8U2yau1v8Gx2vYv1MPxel6_58=", "properties": {"ref": "61", "@spider": "cintas", "addr:full": "10080 Sandmeyer Ln", "addr:city": "Philadelphia", "addr:state": "PA", "addr:postcode": "19116", "addr:country": "US", "name": "Cintas", "phone": "215-673-7230", "brand": "Cintas", "brand:wikidata": "Q1092571"}, "geometry": {"type": "Point", "coordinates": [-75.03346, 40.1119156]}},
{"type": "Feature", "id": "8wQoPCG1Vtv7HZpZYYafPAKbRUs=", "properties": {"ref": "100", "@spider": "cintas", "addr:full": "95 Milton Ave", "addr:city": "Aston", "addr:state": "PA", "addr:postcode": "19014", "addr:country": "US", "name": "Cintas", "phone": "610-364-0887", "brand": "Cintas", "brand:wikidata": "Q1092571"}, "geometry": {"type": "Point", "coordinates": [-75.41098, 39.856163]}},
{"type": "Feature", "id": "vsVNyzVocfqOlk-rVgonyuM_0Rw=", "properties": {"ref": "105", "@spider": "cintas", "addr:full": "1038 Conshohocken Rd", "addr:city": "Conshohocken", "addr:state": "PA", "addr:postcode": "19428", "addr:country": "US", "name": "Cintas", "phone": "610-233-1400", "brand": "Cintas", "brand:wikidata": "Q1092571"}, "geometry": {"type": "Point", "coordinates": [-75.3179855, 40.0937233]}},
{"type": "Feature", "id": "DKf96h7_0hkI6-BtfnegswXJa4c=", "properties": {"ref": "287", "@spider": "cintas", "addr:full": "4700 West Jefferson", "addr:city": "Philadelphia", "addr:state": "PA", "addr:postcode": "19131", "addr:country": "US", "name": "Cintas", "phone": "267-233-5612", "brand": "Cintas", "brand:wikidata": "Q1092571"}, "geometry": {"type": "Point", "coordinates": [-75.21518, 39.9753]}},
{"type": "Feature", "id": "y21Jy4rKlg_k__QdvqtaTAWfwpo=", "properties": {"ref": "0081N", "@spider": "cintas", "addr:full": "190 E 9th Ave Unit A", "addr:city": "Runnemede", "addr:state": "NJ", "addr:postcode": "8078", "addr:country": "US", "name": "Cintas", "phone": "856-861-4920", "brand": "Cintas", "brand:wikidata": "Q1092571"}, "geometry": {"type": "Point", "coordinates": [-75.06668, 39.857708]}},
{"type": "Feature", "id": "JJUN5dgqqc7EF4TEyWzUfoHyGKE=", "properties": {"ref": "00B61", "@spider": "cintas", "addr:full": "1705 US-46", "addr:city": "Ledgewood", "addr:state": "NJ", "addr:postcode": "7852", "addr:country": "US", "name": "Cintas", "phone": "973-347-3901", "brand": "Cintas", "brand:wikidata": "Q1092571"}, "geometry": {"type": "Point", "coordinates": [-74.67124, 40.89161]}},
{"type": "Feature", "id": "fxtamkGNkfiVeisT3iGPLXTtAn8=", "properties": {"ref": "0042F", "@spider": "cintas", "addr:full": "185 Oberline Ave North", "addr:city": "Lakewood", "addr:state": "NJ", "addr:postcode": "8701", "addr:country": "US", "name": "Cintas", "phone": "732-276-4848", "brand": "Cintas", "brand:wikidata": "Q1092571"}, "geometry": {"type": "Point", "coordinates": [-74.17675, 40.0748367]}},
{"type": "Feature", "id": "w1QwaumREH49wfSrbgR4wTuhQ7g=", "properties": {"ref": "411", "@spider": "cintas", "addr:full": "2005 Brighton Henrietta Townline Rd", "addr:city": "Rochester", "addr:state": "NY", "addr:postcode": "14623", "addr:country": "US", "name": "Cintas", "phone": "585-235-7650", "brand": "Cintas", "brand:wikidata": "Q1092571"}, "geometry": {"type": "Point", "coordinates": [-77.6256, 43.09343]}},
{"type": "Feature", "id": "W8TuAwyj54Z9EcdPX8ZXwwJqqEY=", "properties": {"ref": "00F49", "@spider": "cintas", "addr:full": "395 Summit Point Dr Suite 7", "addr:city": "Henrietta", "addr:state": "NY", "addr:postcode": "14467", "addr:country": "US", "name": "Cintas", "phone": "855-859-1363", "brand": "Cintas", "brand:wikidata": "Q1092571"}, "geometry": {"type": "Point", "coordinates": [-77.65048, 43.0555038]}},
{"type": "Feature", "id": "tCPAhr2IWOKZMcFhNuh70q3JQJg=", "properties": {"ref": "780", "@spider": "cintas", "addr:full": "500 South Research Dr", "addr:city": "Central Islip", "addr:state": "NY", "addr:postcode": "11722", "addr:country": "US", "name": "Cintas", "phone": "631-337-0070", "brand": "Cintas", "brand:wikidata": "Q1092571"}, "geometry": {"type": "Point", "coordinates": [-73.20336, 40.7696724]}},
{"type": "Feature", "id": "xbic2UfbVyctF1Ez0QD09chq85I=", "properties": {"ref": "616", "@spider": "cintas", "addr:full": "138 Bracken Rd", "addr:city": "Montgomery", "addr:state": "NY", "addr:postcode": "12549", "addr:country": "US", "name": "Cintas", "phone": "845-457-9655", "brand": "Cintas", "brand:wikidata": "Q1092571"}, "geometry": {"type": "Point", "coordinates": [-74.1903152, 41.5216637]}},
{"type": "Feature", "id": "zT4uCpTRWzcIaUT2obnijVwpn0k=", "properties": {"ref": "121", "@spider": "cintas", "addr:full": "7655 Henry Clay Blvd", "addr:city": "Liverpool", "addr:state": "NY", "addr:postcode": "13088", "addr:country": "US", "name": "Cintas", "phone": "315-432-1888", "brand": "Cintas", "brand:wikidata": "Q1092571"}, "geometry": {"type": "Point", "coordinates": [-76.18879, 43.1392136]}},
{"type": "Feature", "id": "VkLud-J9rFVEYD9USPrdc8ACuz8=", "properties": {"ref": "0035M", "@spider": "cintas", "addr:full": "292 Wolf Rd", "addr:city": "Albany", "addr:state": "NY", "addr:postcode": "12110", "addr:country": "US", "name": "Cintas", "phone": "315-432-1888", "brand": "Cintas", "brand:wikidata": "Q1092571"}, "geometry": {"type": "Point", "coordinates": [-73.79384, 42.73341]}},
{"type": "Feature", "id": "aXNVknLRQJq57gIuZocOIkEatZQ=", "properties": {"ref": "0067P", "@spider": "cintas", "addr:full": "11980 Walden Ave", "addr:city": "Alden", "addr:state": "NY", "addr:postcode": "14004", "addr:country": "US", "name": "Cintas", "phone": "716-684-6600", "brand": "Cintas", "brand:wikidata": "Q1092571"}, "geometry": {"type": "Point", "coordinates": [-78.54138, 42.9380074]}},
{"type": "Feature", "id": "rR40sGXzBpBtM9HahFeexJxHPY8=", "properties": {"ref": "782", "@spider": "cintas", "addr:full": "5740 Genesee St", "addr:city": "Lancaster", "addr:state": "NY", "addr:postcode": "14086", "addr:country": "US", "name": "Cintas", "phone": "716-685-6800", "brand": "Cintas", "brand:wikidata": "Q1092571"}, "geometry": {"type": "Point", "coordinates": [-78.64537, 42.9463768]}},
{"type": "Feature", "id": "QaUliJlU0Lify7eMcov56yurOqU=", "properties": {"ref": "0036M", "@spider": "cintas", "addr:full": "96 Murphy Rd", "addr:city": "Hartford", "addr:state": "CT", "addr:postcode": "6114", "addr:country": "US", "name": "Cintas", "phone": "860-856-4400", "brand": "Cintas", "brand:wikidata": "Q1092571"}, "geometry": {"type": "Point", "coordinates": [-72.6529846, 41.7413063]}},
{"type": "Feature", "id": "vSczwL6hs0ADW35giKoSbsPknrs=", "properties": {"ref": "600", "@spider": "cintas", "addr:full": "431 Hayden Station Rd Suite B", "addr:city": "Windsor", "addr:state": "CT", "addr:postcode": "6095", "addr:country": "US", "name": "Cintas", "phone": "860-787-5950", "brand": "Cintas", "brand:wikidata": "Q1092571"}, "geometry": {"type": "Point", "coordinates": [-72.64518, 41.8954964]}},
{"type": "Feature", "id": "y3CfayeKzIWsYzMoKgP6z4_CWcE=", "properties": {"ref": "00D56", "@spider": "cintas", "addr:full": "394 East St", "addr:city": "Plainville", "addr:state": "CT", "addr:postcode": "6062", "addr:country": "US", "name": "Cintas", "phone": "860-747-2757", "brand": "Cintas", "brand:wikidata": "Q1092571"}, "geometry": {"type": "Point", "coordinates": [-72.8679352, 41.6547623]}},
{"type": "Feature", "id": "hLHtcd93n6tBfbkkdn8r5q70F8w=", "properties": {"ref": "2", "@spider": "cintas", "addr:full": "850 Center Dr", "addr:city": "Vandalia", "addr:state": "OH", "addr:postcode": "45377", "addr:country": "US", "name": "Cintas", "phone": "937-890-8585", "brand": "Cintas", "brand:wikidata": "Q1092571"}, "geometry": {"type": "Point", "coordinates": [-84.18294, 39.8838921]}},
{"type": "Feature", "id": "6bKbEXeYlg2CRzoEnvTBwziEbLU=", "properties": {"ref": "00G45", "@spider": "cintas", "addr:full": "903 Brandt St", "addr:city": "Dayton", "addr:state": "OH", "addr:postcode": "45404", "addr:country": "US", "name": "Cintas", "phone": "937-235-3744", "brand": "Cintas", "brand:wikidata": "Q1092571"}, "geometry": {"type": "Point", "coordinates": [-84.158844, 39.789402]}},
{"type": "Feature", "id": "bAGsMFSoGGKhh9tkuOUyhZk9C0k=", "properties": {"ref": "11", "@spider": "cintas", "addr:full": "8221 Dow Cir", "addr:city": "Strongsville", "addr:state": "OH", "addr:postcode": "44136", "addr:country": "US", "name": "Cintas", "phone": "440-238-5565", "brand": "Cintas", "brand:wikidata": "Q1092571"}, "geometry": {"type": "Point", "coordinates": [-81.80212, 41.34765]}},
{"type": "Feature", "id": "hc0T0J3RzywzQOiZcCYBWGZBQpA=", "properties": {"ref": "12", "@spider": "cintas", "addr:full": "30250 Bruce Indstrl Pkwy", "addr:city": "Solon", "addr:state": "OH", "addr:postcode": "44139", "addr:country": "US", "name": "Cintas", "phone": "440-349-4200", "brand": "Cintas", "brand:wikidata": "Q1092571"}, "geometry": {"type": "Point", "coordinates": [-81.4672241, 41.3770447]}},
{"type": "Feature", "id": "MjVngeDr_QLoCtuN4zgE4PsFyW8=", "properties": {"ref": "352", "@spider": "cintas", "addr:full": "4350 Renaissance Pkwy Suite F", "addr:city": "Cleveland", "addr:state": "OH", "addr:postcode": "44128", "addr:country": "US", "name": "Cintas", "phone": "440-746-7800", "brand": "Cintas", "brand:wikidata": "Q1092571"}, "geometry": {"type": "Point", "coordinates": [-81.49285, 41.44176]}},
{"type": "Feature", "id": "a-SoqSPyHHL8MPCNc4_R_KRhSrc=", "properties": {"ref": "306", "@spider": "cintas", "addr:full": "28140 Cedar Park Blvd", "addr:city": "Perrysburg", "addr:state": "OH", "addr:postcode": "43551", "addr:country": "US", "name": "Cintas", "phone": "419-662-4720", "brand": "Cintas", "brand:wikidata": "Q1092571"}, "geometry": {"type": "Point", "coordinates": [-83.54916, 41.55676]}},
{"type": "Feature", "id": "g23pIp9HPgmH9VC9qQbt2dHunJs=", "properties": {"ref": "318", "@spider": "cintas", "addr:full": "4715 Hayes Ave", "addr:city": "Sandusky", "addr:state": "OH", "addr:postcode": "44870", "addr:country": "US", "name": "Cintas", "phone": "419-626-9726", "brand": "Cintas", "brand:wikidata": "Q1092571"}, "geometry": {"type": "Point", "coordinates": [-82.73155, 41.401413]}},
{"type": "Feature", "id": "zCjhWSz6YicsUc5EIbFPqlJGFfI=", "properties": {"ref": "300", "@spider": "cintas", "addr:full": "39145 Webb Dr", "addr:city": "Westland", "addr:state": "MI", "addr:postcode": "48185", "addr:country": "US", "name": "Cintas", "phone": "734-326-0800", "brand": "Cintas", "brand:wikidata": "Q1092571"}, "geometry": {"type": "Point", "coordinates": [-83.42783, 42.33081]}},
{"type": "Feature", "id": "CxNiQPeCmv6pP5eK-xkYEKt8wGY=", "properties": {"ref": "0045P", "@spider": "cintas", "addr:full": "12875 S Huron River Dr", "addr:city": "Romulus", "addr:state": "MI", "addr:postcode": "48174", "addr:country": "US", "name": "Cintas", "phone": "734-992-5558", "brand": "Cintas", "brand:wikidata": "Q1092571"}, "geometry": {"type": "Point", "coordinates": [-83.4039154, 42.20926]}},
{"type": "Feature", "id": "wExUmZ2lSv50ap8a4a1F9AkzXEM=", "properties": {"ref": "0051M", "@spider": "cintas", "addr:full": "13500 Ashurst St", "addr:city": "Livonia", "addr:state": "MI", "addr:postcode": "48150", "addr:country": "US", "name": "Cintas", "phone": "734-266-3840", "brand": "Cintas", "brand:wikidata": "Q1092571"}, "geometry": {"type": "Point", "coordinates": [-83.38278, 42.3805923]}},
{"type": "Feature", "id": "Xh7CqIHmQS51RnSOos8vQw6k83w=", "properties": {"ref": "721", "@spider": "cintas", "addr:full": "37005 Industrial Rd", "addr:city": "Livonia", "addr:state": "MI", "addr:postcode": "48150", "addr:country": "US", "name": "Cintas", "phone": "734-437-3233", "brand": "Cintas", "brand:wikidata": "Q1092571"}, "geometry": {"type": "Point", "coordinates": [-83.40881, 42.3771935]}},
{"type": "Feature", "id": "Zv0pLrznBfUh11RAOa95tiitt4M=", "properties": {"ref": "259", "@spider": "cintas", "addr:full": "800 Renaissance Pkwy", "addr:city": "Painesville", "addr:state": "OH", "addr:postcode": "44077", "addr:country": "US", "name": "Cintas", "phone": "440-352-4003", "brand": "Cintas", "brand:wikidata": "Q1092571"}, "geometry": {"type": "Point", "coordinates": [-81.27029, 41.7168]}},
{"type": "Feature", "id": "9MqeshvCV4ZhbKwB-RCxaIbBLxA=", "properties": {"ref": "310", "@spider": "cintas", "addr:full": "12601 Debartolo Dr", "addr:city": "North Jackson", "addr:state": "OH", "addr:postcode": "44451", "addr:country": "US", "name": "Cintas", "phone": "330-538-6911", "brand": "Cintas", "brand:wikidata": "Q1092571"}, "geometry": {"type": "Point", "coordinates": [-80.88154, 41.09391]}},
{"type": "Feature", "id": "t0xkQ48FYDFGTu2mbHVRwAg1DDg=", "properties": {"ref": "316", "@spider": "cintas", "addr:full": "3865 Highland Park", "addr:city": "North Canton", "addr:state": "OH", "addr:postcode": "44720", "addr:country": "US", "name": "Cintas", "phone": "330-966-7800", "brand": "Cintas", "brand:wikidata": "Q1092571"}, "geometry": {"type": "Point", "coordinates": [-81.41676, 40.91806]}},
{"type": "Feature", "id": "ju4NMMI40PoL-DzQ6qczO3CCxL0=", "properties": {"ref": "0046P", "@spider": "cintas", "addr:full": "3902 Kropf Avenue SW", "addr:city": "Canton", "addr:state": "OH", "addr:postcode": "44706", "addr:country": "US", "name": "Cintas", "phone": "330-915-2227", "brand": "Cintas", "brand:wikidata": "Q1092571"}, "geometry": {"type": "Point", "coordinates": [-81.44395, 40.7506371]}},
{"type": "Feature", "id": "U-yDxqfIJcnpzBJdrjnJJq3w-e0=", "properties": {"ref": "1", "@spider": "cintas", "addr:full": "5570 Ridge Ave", "addr:city": "Cincinnati", "addr:state": "OH", "addr:postcode": "45213", "addr:country": "US", "name": "Cintas", "phone": "513-631-5750", "brand": "Cintas", "brand:wikidata": "Q1092571"}, "geometry": {"type": "Point", "coordinates": [-84.4252243, 39.1736755]}},
{"type": "Feature", "id": "3KnSPp6BG-Buq-88g3iNMdgi2wY=", "properties": {"ref": "9", "@spider": "cintas", "addr:full": "27 Whitney Dr", "addr:city": "Milford", "addr:state": "OH", "addr:postcode": "45150", "addr:country": "US", "name": "Cintas", "phone": "513-831-4300", "brand": "Cintas", "brand:wikidata": "Q1092571"}, "geometry": {"type": "Point", "coordinates": [-84.25599, 39.1554947]}},
{"type": "Feature", "id": "bM6azqd_pRSUztN6NaPaa9skxyg=", "properties": {"ref": "335", "@spider": "cintas", "addr:full": "2909 Crescentville Rd", "addr:city": "West Chester", "addr:state": "OH", "addr:postcode": "45069", "addr:country": "US", "name": "Cintas", "phone": "513-346-5900", "brand": "Cintas", "brand:wikidata": "Q1092571"}, "geometry": {"type": "Point", "coordinates": [-84.42062, 39.29651]}},
{"type": "Feature", "id": "BbLQAkWcuCayCqPHUO1pqGGcFDg=", "properties": {"ref": "935", "@spider": "cintas", "addr:full": "3368 Turfway Rd", "addr:city": "Erlanger", "addr:state": "KY", "addr:postcode": "41018", "addr:country": "US", "name": "Cintas", "phone": "859-814-0200", "brand": "Cintas", "brand:wikidata": "Q1092571"}, "geometry": {"type": "Point", "coordinates": [-84.6228, 39.0407]}},
{"type": "Feature", "id": "DWMA5Yvhl4bSu3h_4LqFIePcftw=", "properties": {"ref": "718", "@spider": "cintas", "addr:full": "810 E Hanthorn Rd", "addr:city": "Lima", "addr:state": "OH", "addr:postcode": "45804", "addr:country": "US", "name": "Cintas", "phone": "937-235-4703", "brand": "Cintas", "brand:wikidata": "Q1092571"}, "geometry": {"type": "Point", "coordinates": [-84.09229, 40.7019119]}},
{"type": "Feature", "id": "-4x5Y0FEKMEklVfwE13F_XHapCE=", "properties": {"ref": "3", "@spider": "cintas", "addr:full": "1275 Research Rd", "addr:city": "Gahanna", "addr:state": "OH", "addr:postcode": "43230", "addr:country": "US", "name": "Cintas", "phone": "614-860-9152", "brand": "Cintas", "brand:wikidata": "Q1092571"}, "geometry": {"type": "Point", "coordinates": [-82.8383942, 39.9912453]}},
{"type": "Feature", "id": "MLNLLZnrErL6HPJVWQUvOGrQjQA=", "properties": {"ref": "530", "@spider": "cintas", "addr:full": "2250 Commerce St", "addr:city": "Lancaster", "addr:state": "OH", "addr:postcode": "43130", "addr:country": "US", "name": "Cintas", "phone": "740-687-6230", "brand": "Cintas", "brand:wikidata": "Q1092571"}, "geometry": {"type": "Point", "coordinates": [-82.54589, 39.7100449]}},
{"type": "Feature", "id": "m9rJuqD1aYGD_3oP34ECqpmoptA=", "properties": {"ref": "304", "@spider": "cintas", "addr:full": "1300 Boltonfield St", "addr:city": "Columbus", "addr:state": "OH", "addr:postcode": "43228", "addr:country": "US", "name": "Cintas", "phone": "614-878-7313", "brand": "Cintas", "brand:wikidata": "Q1092571"}, "geometry": {"type": "Point", "coordinates": [-83.12788, 39.9263]}},
{"type": "Feature", "id": "hhXmybAUlCrCzQdzhBFbARMD3PQ=", "properties": {"ref": "00G44", "@spider": "cintas", "addr:full": "940 Science Blvd", "addr:city": "Columbus", "addr:state": "OH", "addr:postcode": "43230", "addr:country": "US", "name": "Cintas", "phone": "614-655-3950", "brand": "Cintas", "brand:wikidata": "Q1092571"}, "geometry": {"type": "Point", "coordinates": [-82.84364, 39.9936447]}},
{"type": "Feature", "id": "NNXVuicPvaa7zOmcdk3dnY0Mykg=", "properties": {"ref": "64", "@spider": "cintas", "addr:full": "45 NE 42nd", "addr:city": "Oklahoma City", "addr:state": "OK", "addr:postcode": "73105", "addr:country": "US", "name": "Cintas", "phone": "405-525-6746", "brand": "Cintas", "brand:wikidata": "Q1092571"}, "geometry": {"type": "Point", "coordinates": [-97.5106, 35.5155449]}},
{"type": "Feature", "id": "aRDngfXwp50j6htiKXodK5NRx0Q=", "properties": {"ref": "628", "@spider": "cintas", "addr:full": "821 SW Grande Ave", "addr:city": "Lawton", "addr:state": "OK", "addr:postcode": "73501", "addr:country": "US", "name": "Cintas", "phone": "580-355-0314", "brand": "Cintas", "brand:wikidata": "Q1092571"}, "geometry": {"type": "Point", "coordinates": [-98.402916, 34.57129]}},
{"type": "Feature", "id": "XK3A1yvAjCMFXGGguu00JLZaOCo=", "properties": {"ref": "624", "@spider": "cintas", "addr:full": "5815 Douglas", "addr:city": "Enid", "addr:state": "OK", "addr:postcode": "73701", "addr:country": "US", "name": "Cintas", "phone": "580-233-8821", "brand": "Cintas", "brand:wikidata": "Q1092571"}, "geometry": {"type": "Point", "coordinates": [-97.79406, 36.3934441]}},
{"type": "Feature", "id": "S_t9D6-6FVKY6R5QJfBlcCOtkcw=", "properties": {"ref": "618", "@spider": "cintas", "addr:full": "530 Seabrook Rd", "addr:city": "Ada", "addr:state": "OK", "addr:postcode": "74820", "addr:country": "US", "name": "Cintas", "phone": "580-436-2770", "brand": "Cintas", "brand:wikidata": "Q1092571"}, "geometry": {"type": "Point", "coordinates": [-96.68695, 34.800312]}},
{"type": "Feature", "id": "o4fYnxg9y-JgWUUcwaWBiznfn2c=", "properties": {"ref": "173", "@spider": "cintas", "addr:full": "Building A-Unit A-2 10754 SW Manahasset Dr", "addr:city": "Tualatin", "addr:state": "OR", "addr:postcode": "97062", "addr:country": "US", "name": "Cintas", "phone": "503-520-5007", "brand": "Cintas", "brand:wikidata": "Q1092571"}, "geometry": {"type": "Point", "coordinates": [-122.788376, 45.3793755]}},
{"type": "Feature", "id": "c1vhNLSbujlElthAl6pfB45t51s=", "properties": {"ref": "463", "@spider": "cintas", "addr:full": "9045 N Ramsey Blvd", "addr:city": "Portland", "addr:state": "OR", "addr:postcode": "97203", "addr:country": "US", "name": "Cintas", "phone": "503-283-7733", "brand": "Cintas", "brand:wikidata": "Q1092571"}, "geometry": {"type": "Point", "coordinates": [-122.770187, 45.62454]}},
{"type": "Feature", "id": "SR3CyVG7qb6HqJn3hIqkDfWAQFc=", "properties": {"ref": "0056K", "@spider": "cintas", "addr:full": "14109 NE Airport Way", "addr:city": "Portland", "addr:state": "OR", "addr:postcode": "97230", "addr:country": "US", "name": "Cintas", "phone": "503-247-8228", "brand": "Cintas", "brand:wikidata": "Q1092571"}, "geometry": {"type": "Point", "coordinates": [-122.517014, 45.5613823]}},
{"type": "Feature", "id": "7X1c5U_eJTbLMAd2PACxi-b2EGU=", "properties": {"ref": "00F80", "@spider": "cintas", "addr:full": "704 W 8th St", "addr:city": "Vancouver", "addr:state": "WA", "addr:postcode": "98660", "addr:country": "US", "name": "Cintas", "phone": "360-695-9212", "brand": "Cintas", "brand:wikidata": "Q1092571"}, "geometry": {"type": "Point", "coordinates": [-122.678696, 45.627533]}},
{"type": "Feature", "id": "j6eGTU0nc8SsQY9vO8OoSEsCz5U=", "properties": {"ref": "172", "@spider": "cintas", "addr:full": "29536A Airport Rd", "addr:city": "Eugene", "addr:state": "OR", "addr:postcode": "97402", "addr:country": "US", "name": "Cintas", "phone": "541-607-0988", "brand": "Cintas", "brand:wikidata": "Q1092571"}, "geometry": {"type": "Point", "coordinates": [-123.1835, 44.1127243]}},
{"type": "Feature", "id": "W0R8DfSrcnozNatSp5x36DTE8fw=", "properties": {"ref": "14", "@spider": "cintas", "addr:full": "10611 Iron Ridge Rd", "addr:city": "Jessup", "addr:state": "MD", "addr:postcode": "20794", "addr:country": "US", "name": "Cintas", "phone": "410-712-9417", "brand": "Cintas", "brand:wikidata": "Q1092571"}, "geometry": {"type": "Point", "coordinates": [-76.80307, 39.1356049]}},
{"type": "Feature", "id": "4JWkPrIHNxdeBLenBhRz7tp5up0=", "properties": {"ref": "41", "@spider": "cintas", "addr:full": "1769 Brightseat Rd", "addr:city": "Landover", "addr:state": "MD", "addr:postcode": "20785", "addr:country": "US", "name": "Cintas", "phone": "301-322-2255", "brand": "Cintas", "brand:wikidata": "Q1092571"}, "geometry": {"type": "Point", "coordinates": [-76.85281, 38.9132729]}},
{"type": "Feature", "id": "BI1fRONkbD4DPvkctZVDQ0BhhJw=", "properties": {"ref": "42", "@spider": "cintas", "addr:full": "6300 Seaforth St", "addr:city": "Baltimore", "addr:state": "MD", "addr:postcode": "21224", "addr:country": "US", "name": "Cintas", "phone": "410-633-6400", "brand": "Cintas", "brand:wikidata": "Q1092571"}, "geometry": {"type": "Point", "coordinates": [-76.53925, 39.27163]}},
{"type": "Feature", "id": "oL2NYXiFJ7dqeaGmKjYt9s32ReE=", "properties": {"ref": "0047M", "@spider": "cintas", "addr:full": "136 Lafayette Ave", "addr:city": "Laurel", "addr:state": "MD", "addr:postcode": "20707", "addr:country": "US", "name": "Cintas", "phone": "301-725-9500", "brand": "Cintas", "brand:wikidata": "Q1092571"}, "geometry": {"type": "Point", "coordinates": [-76.84335, 39.10001]}},
{"type": "Feature", "id": "PLqB7x8j8tcZwYY2PG2cQ8F2MEE=", "properties": {"ref": "104", "@spider": "cintas", "addr:full": "114 Centerpoint Blvd", "addr:city": "Pittston", "addr:state": "PA", "addr:postcode": "18640", "addr:country": "US", "name": "Cintas", "phone": "570-891-0400", "brand": "Cintas", "brand:wikidata": "Q1092571"}, "geometry": {"type": "Point", "coordinates": [-75.7554, 41.297905]}},
{"type": "Feature", "id": "VuSDOUKcioEVkqDl9yXAK6A6J8s=", "properties": {"ref": "735", "@spider": "cintas", "addr:full": "1065 Hanover St Suite 105", "addr:city": "Wilkes Barre", "addr:state": "PA", "addr:postcode": "18706", "addr:country": "US", "name": "Cintas", "phone": "570-822-9486", "brand": "Cintas", "brand:wikidata": "Q1092571"}, "geometry": {"type": "Point", "coordinates": [-75.93489, 41.20187]}},
{"type": "Feature", "id": "bbJJP7jXNTVnxjFRJM8ZzPDKrjQ=", "properties": {"ref": "536", "@spider": "cintas", "addr:full": "2700 Carolean Industrial Dr", "addr:city": "State College", "addr:state": "PA", "addr:postcode": "16801", "addr:country": "US", "name": "Cintas", "phone": "814-237-5744", "brand": "Cintas", "brand:wikidata": "Q1092571"}, "geometry": {"type": "Point", "coordinates": [-77.8, 40.826767]}},
{"type": "Feature", "id": "dIvQjXeRLYGR-r80WAccXNjiy44=", "properties": {"ref": "13", "@spider": "cintas", "addr:full": "40 Abele Rd", "addr:city": "Bridgeville", "addr:state": "PA", "addr:postcode": "15017", "addr:country": "US", "name": "Cintas", "phone": "412-221-8870", "brand": "Cintas", "brand:wikidata": "Q1092571"}, "geometry": {"type": "Point", "coordinates": [-80.1242752, 40.3505478]}},
{"type": "Feature", "id": "W3j2xP916ohNz7wIaQLeRVt2TT4=", "properties": {"ref": "0060J", "@spider": "cintas", "addr:full": "560 Alpha Dr", "addr:city": "Pittsburgh", "addr:state": "PA", "addr:postcode": "15238", "addr:country": "US", "name": "Cintas", "phone": "412-455-5044", "brand": "Cintas", "brand:wikidata": "Q1092571"}, "geometry": {"type": "Point", "coordinates": [-79.8700562, 40.4993858]}},
{"type": "Feature", "id": "8eE6wfVKw2qLUJ1whkcT-NqQrkU=", "properties": {"ref": "00D28", "@spider": "cintas", "addr:full": "600 Bursca Dr STE 610", "addr:city": "Bridgeville", "addr:state": "PA", "addr:postcode": "15017", "addr:country": "US", "name": "Cintas", "phone": "412-257-1896", "brand": "Cintas", "brand:wikidata": "Q1092571"}, "geometry": {"type": "Point", "coordinates": [-80.11294, 40.34152]}},
{"type": "Feature", "id": "IPo4ClBMJDzkk88mPJ7LZ9B6xlc=", "properties": {"ref": "00F87", "@spider": "cintas", "addr:full": "2737 W State St", "addr:city": "New Castle", "addr:state": "PA", "addr:postcode": "16101", "addr:country": "US", "name": "Cintas", "phone": "724-498-0663", "brand": "Cintas", "brand:wikidata": "Q1092571"}, "geometry": {"type": "Point", "coordinates": [-80.40179, 41.01392]}},
{"type": "Feature", "id": "kJ0AAu7tTc21GmPV30WeLZFS1Rw=", "properties": {"ref": "6", "@spider": "cintas", "addr:full": "320 Westec Dr", "addr:city": "Mount Pleasant", "addr:state": "PA", "addr:postcode": "15666", "addr:country": "US", "name": "Cintas", "phone": "724-696-5640", "brand": "Cintas", "brand:wikidata": "Q1092571"}, "geometry": {"type": "Point", "coordinates": [-79.5667953, 40.1893349]}},
{"type": "Feature", "id": "KZ5FJ1UwPvHIARWbK3pgQfU5RkA=", "properties": {"ref": "00T90", "@spider": "cintas", "addr:full": "1317 W 12th ST", "addr:city": "Erie", "addr:state": "PA", "addr:postcode": "16501", "addr:country": "US", "name": "Cintas", "phone": "814-838-2208", "brand": "Cintas", "brand:wikidata": "Q1092571"}, "geometry": {"type": "Point", "coordinates": [-80.1097946, 42.11234]}},
{"type": "Feature", "id": "zhuL1yzkN-wejrY6QTn8tT6oix0=", "properties": {"ref": "101", "@spider": "cintas", "addr:full": "164 E Main St", "addr:city": "Emmaus", "addr:state": "PA", "addr:postcode": "18049", "addr:country": "US", "name": "Cintas", "phone": "610-967-5155", "brand": "Cintas", "brand:wikidata": "Q1092571"}, "geometry": {"type": "Point", "coordinates": [-75.4852753, 40.5456]}},
{"type": "Feature", "id": "7kJVcWmDcBXRbOvnQL5AGIBlnT4=", "properties": {"ref": "235", "@spider": "cintas", "addr:full": "9540 Hamburg Rd", "addr:city": "Ladson", "addr:state": "SC", "addr:postcode": "29456", "addr:country": "US", "name": "Cintas", "phone": "843-552-5070", "brand": "Cintas", "brand:wikidata": "Q1092571"}, "geometry": {"type": "Point", "coordinates": [-80.11398, 32.98007]}},
{"type": "Feature", "id": "WUb6xBbAuctSK0pMl6pBOcQcl4c=", "properties": {"ref": "0081H", "@spider": "cintas", "addr:full": "9481 Industrial Center Dr Unit 1A", "addr:city": "Ladson", "addr:state": "SC", "addr:postcode": "29456", "addr:country": "US", "name": "Cintas", "phone": "843-804-4180", "brand": "Cintas", "brand:wikidata": "Q1092571"}, "geometry": {"type": "Point", "coordinates": [-80.100235, 32.9855347]}},
{"type": "Feature", "id": "EBI6Vcykdi1jvKwhMCpgon9x-VM=", "properties": {"ref": "0013Q", "@spider": "cintas", "addr:full": "2335 Laurens Circle", "addr:city": "Florence", "addr:state": "SC", "addr:postcode": "29501", "addr:country": "US", "name": "Cintas", "phone": "843-393-5289", "brand": "Cintas", "brand:wikidata": "Q1092571"}, "geometry": {"type": "Point", "coordinates": [-79.81475, 34.24891]}},
{"type": "Feature", "id": "VD40JzPmb3ulW8bhTsISmNL2YAI=", "properties": {"ref": "260", "@spider": "cintas", "addr:full": "460 Century Cir", "addr:city": "Myrtle Beach", "addr:state": "SC", "addr:postcode": "29526", "addr:country": "US", "name": "Cintas", "phone": "843-839-9327", "brand": "Cintas", "brand:wikidata": "Q1092571"}, "geometry": {"type": "Point", "coordinates": [-78.9926147, 33.79423]}},
{"type": "Feature", "id": "0-X8-KnBTr4pHADrsoaMNv0a28A=", "properties": {"ref": "218", "@spider": "cintas", "addr:full": "1722 Airport Blvd", "addr:city": "Cayce", "addr:state": "SC", "addr:postcode": "29033", "addr:country": "US", "name": "Cintas", "phone": "803-794-4774", "brand": "Cintas", "brand:wikidata": "Q1092571"}, "geometry": {"type": "Point", "coordinates": [-81.08349, 33.96612]}},
{"type": "Feature", "id": "Q-cBe05z_-X3LOLkGUFB3veFQzg=", "properties": {"ref": "0022M", "@spider": "cintas", "addr:full": "1325 Metro East Dr", "addr:city": "Pleasant Hill", "addr:state": "IA", "addr:postcode": "50327", "addr:country": "US", "name": "Cintas", "phone": "515-266-3232", "brand": "Cintas", "brand:wikidata": "Q1092571"}, "geometry": {"type": "Point", "coordinates": [-93.49861, 41.60282]}},
{"type": "Feature", "id": "HEjObaXHFMSE-Esh-bjnrzamNw4=", "properties": {"ref": "00D89", "@spider": "cintas", "addr:full": "1400 SE Gateway Dr STE 109", "addr:city": "Grimes", "addr:state": "IA", "addr:postcode": "50111", "addr:country": "US", "name": "Cintas", "phone": "515-276-5055", "brand": "Cintas", "brand:wikidata": "Q1092571"}, "geometry": {"type": "Point", "coordinates": [-93.77852, 41.67749]}},
{"type": "Feature", "id": "7q-FyY9W-DbJEgn9vLxcM-Q6Cdc=", "properties": {"ref": "51", "@spider": "cintas", "addr:full": "3400 Briley Park Blvd N", "addr:city": "Nashville", "addr:state": "TN", "addr:postcode": "37207", "addr:country": "US", "name": "Cintas", "phone": "615-228-3400", "brand": "Cintas", "brand:wikidata": "Q1092571"}, "geometry": {"type": "Point", "coordinates": [-86.7828751, 36.2454872]}},
{"type": "Feature", "id": "MQv0llEM-j0S9VdrTt8ct3cOtp0=", "properties": {"ref": "00F59", "@spider": "cintas", "addr:full": "1865 Air Lane Dr", "addr:city": "Nashville", "addr:state": "TN", "addr:postcode": "37210", "addr:country": "US", "name": "Cintas", "phone": "615-846-1972", "brand": "Cintas", "brand:wikidata": "Q1092571"}, "geometry": {"type": "Point", "coordinates": [-86.69985, 36.1452446]}},
{"type": "Feature", "id": "pbZdzr2vGaVkk5SOYQhE1vKeMlI=", "properties": {"ref": "206", "@spider": "cintas", "addr:full": "5425 Mineral Wells Rd", "addr:city": "Memphis", "addr:state": "TN", "addr:postcode": "38141", "addr:country": "US", "name": "Cintas", "phone": "901-942-5497", "brand": "Cintas", "brand:wikidata": "Q1092571"}, "geometry": {"type": "Point", "coordinates": [-89.86094, 35.0003548]}},
{"type": "Feature", "id": "SYtWfHFRnStcXYwz9HZ5cJ-gvno=", "properties": {"ref": "377", "@spider": "cintas", "addr:full": "3955 Vantech Dr STE 12", "addr:city": "Memphis", "addr:state": "TN", "addr:postcode": "38115", "addr:country": "US", "name": "Cintas", "phone": "901-202-8059", "brand": "Cintas", "brand:wikidata": "Q1092571"}, "geometry": {"type": "Point", "coordinates": [-89.88805, 35.0411453]}},
{"type": "Feature", "id": "hOn_e-0DTusz71OnhQ24Eud2EgU=", "properties": {"ref": "0056M", "@spider": "cintas", "addr:full": "2117 Berry St", "addr:city": "Kingsport", "addr:state": "TN", "addr:postcode": "37664", "addr:country": "US", "name": "Cintas", "phone": "423-349-4823", "brand": "Cintas", "brand:wikidata": "Q1092571"}, "geometry": {"type": "Point", "coordinates": [-82.52383, 36.53372]}},
{"type": "Feature", "id": "dzziFVpH4c7uU5lA9VOF0XcpFjk=", "properties": {"ref": "475", "@spider": "cintas", "addr:full": "2131 Polymer Dr Suite 2131A", "addr:city": "Chattanooga", "addr:state": "TN", "addr:postcode": "37421", "addr:country": "US", "name": "Cintas", "phone": "423-296-6306", "brand": "Cintas", "brand:wikidata": "Q1092571"}, "geometry": {"type": "Point", "coordinates": [-85.1945, 35.0488968]}},
{"type": "Feature", "id": "hEgchwEJDrUpRIfLkq9Lx67Bf3s=", "properties": {"ref": "0082K", "@spider": "cintas", "addr:full": "710 Jewell Dr", "addr:city": "Waco", "addr:state": "TX", "addr:postcode": "76712", "addr:country": "US", "name": "Cintas", "phone": "936-760-3030", "brand": "Cintas", "brand:wikidata": "Q1092571"}, "geometry": {"type": "Point", "coordinates": [-97.1937561, 31.50116]}},
{"type": "Feature", "id": "dySZKrTZFBiQyj9Iut3fnM-xH9g=", "properties": {"ref": "83", "@spider": "cintas", "addr:full": "307 S Vine St", "addr:city": "Victoria", "addr:state": "TX", "addr:postcode": "77901", "addr:country": "US", "name": "Cintas", "phone": "361-573-6397", "brand": "Cintas", "brand:wikidata": "Q1092571"}, "geometry": {"type": "Point", "coordinates": [-97.01175, 28.7982616]}},
{"type": "Feature", "id": "353gQWz9N7T4qc3dyqI_p_x1z0I=", "properties": {"ref": "87", "@spider": "cintas", "addr:full": "3349 SE Loop 410", "addr:city": "San Antonio", "addr:state": "TX", "addr:postcode": "78222", "addr:country": "US", "name": "Cintas", "phone": "210-224-6321", "brand": "Cintas", "brand:wikidata": "Q1092571"}, "geometry": {"type": "Point", "coordinates": [-98.3942642, 29.3786678]}},
{"type": "Feature", "id": "6E7vPcuOveTvXh1j81ToeKuLuTg=", "properties": {"ref": "00F71", "@spider": "cintas", "addr:full": "7007 Fairgrounds Pkwy Suite 121", "addr:city": "San Antonio", "addr:state": "TX", "addr:postcode": "78238", "addr:country": "US", "name": "Cintas", "phone": "210-762-5195", "brand": "Cintas", "brand:wikidata": "Q1092571"}, "geometry": {"type": "Point", "coordinates": [-98.6165848, 29.45697]}},
{"type": "Feature", "id": "Pu-Y1Eqh5Akp0rBhmebCkhfjiJY=", "properties": {"ref": "86", "@spider": "cintas", "addr:full": "25 Cypress Blvd", "addr:city": "Round Rock", "addr:state": "TX", "addr:postcode": "78664", "addr:country": "US", "name": "Cintas", "phone": "512-388-9709", "brand": "Cintas", "brand:wikidata": "Q1092571"}, "geometry": {"type": "Point", "coordinates": [-97.6823654, 30.5549564]}},
{"type": "Feature", "id": "5xDiHwBJRfeuIar0nmF9LXvZBEQ=", "properties": {"ref": "0041F", "@spider": "cintas", "addr:full": "2525 Ridgepoint Dr Suite 300", "addr:city": "Austin", "addr:state": "TX", "addr:postcode": "78754", "addr:country": "US", "name": "Cintas", "phone": "512-640-8585", "brand": "Cintas", "brand:wikidata": "Q1092571"}, "geometry": {"type": "Point", "coordinates": [-97.6721649, 30.3275661]}},
{"type": "Feature", "id": "xvSGLYFkaPjnvASaXSzH1WawN4c=", "properties": {"ref": "0042K", "@spider": "cintas", "addr:full": "194 Park 35 Cove South", "addr:city": "Buda", "addr:state": "TX", "addr:postcode": "78610", "addr:country": "US", "name": "Cintas", "phone": "512-312-0849", "brand": "Cintas", "brand:wikidata": "Q1092571"}, "geometry": {"type": "Point", "coordinates": [-97.83395, 30.06471]}},
{"type": "Feature", "id": "xYwRdmUzqoGBalRefj3e_LFG1PI=", "properties": {"ref": "81", "@spider": "cintas", "addr:full": "1335 Kress St", "addr:city": "Houston", "addr:state": "TX", "addr:postcode": "77020", "addr:country": "US", "name": "Cintas", "phone": "713-676-0261", "brand": "Cintas", "brand:wikidata": "Q1092571"}, "geometry": {"type": "Point", "coordinates": [-95.30599, 29.76418]}},
{"type": "Feature", "id": "_o1gZrpQKkNBwxxHjgqWHeUnQ3o=", "properties": {"ref": "0014G", "@spider": "cintas", "addr:full": "611 E Sam Houston Pkwy S Suite 100", "addr:city": "Pasadena", "addr:state": "TX", "addr:postcode": "77503", "addr:country": "US", "name": "Cintas", "phone": "281-542-4001", "brand": "Cintas", "brand:wikidata": "Q1092571"}, "geometry": {"type": "Point", "coordinates": [-95.15257, 29.6950474]}},
{"type": "Feature", "id": "ehS7PSZRKeVzKbsFRZuy7c1gZ5o=", "properties": {"ref": "0016M", "@spider": "cintas", "addr:full": "7355 Denny St", "addr:city": "Houston", "addr:state": "TX", "addr:postcode": "77040", "addr:country": "US", "name": "Cintas", "phone": "713-300-3100", "brand": "Cintas", "brand:wikidata": "Q1092571"}, "geometry": {"type": "Point", "coordinates": [-95.50463, 29.8650761]}},
{"type": "Feature", "id": "aVzjoDin2EsTz5KEGFX6oYnX1IU=", "properties": {"ref": "0024K", "@spider": "cintas", "addr:full": "8404 Lawndale Ave", "addr:city": "Houston", "addr:state": "TX", "addr:postcode": "77012", "addr:country": "US", "name": "Cintas", "phone": "713-928-6567", "brand": "Cintas", "brand:wikidata": "Q1092571"}, "geometry": {"type": "Point", "coordinates": [-95.27359, 29.7152061]}},
{"type": "Feature", "id": "QckHuWJzYBL03GXTXkxfimGn6hs=", "properties": {"ref": "197", "@spider": "cintas", "addr:full": "113 Slaton Dr", "addr:city": "Nash", "addr:state": "TX", "addr:postcode": "75569", "addr:country": "US", "name": "Cintas", "phone": "903-223-3215", "brand": "Cintas", "brand:wikidata": "Q1092571"}, "geometry": {"type": "Point", "coordinates": [-94.14244, 33.4452057]}},
{"type": "Feature", "id": "koabFxL2-4pVN0yTzo6fwMj0XDw=", "properties": {"ref": "440", "@spider": "cintas", "addr:full": "2029 S Loop 250 W", "addr:city": "Midland", "addr:state": "TX", "addr:postcode": "79703", "addr:country": "US", "name": "Cintas", "phone": "432-681-3750", "brand": "Cintas", "brand:wikidata": "Q1092571"}, "geometry": {"type": "Point", "coordinates": [-102.140137, 31.9601231]}},
{"type": "Feature", "id": "GkKOwDHlLkeYoplNAGEqOwcy3Nw=", "properties": {"ref": "85", "@spider": "cintas", "addr:full": "5280 Investment Dr", "addr:city": "Dallas", "addr:state": "TX", "addr:postcode": "75236", "addr:country": "US", "name": "Cintas", "phone": "972-709-0291", "brand": "Cintas", "brand:wikidata": "Q1092571"}, "geometry": {"type": "Point", "coordinates": [-96.91578, 32.6952438]}},
{"type": "Feature", "id": "ND-9a1GLceY9MCm6Ge9VQ0K1qh8=", "properties": {"ref": "0012M", "@spider": "cintas", "addr:full": "603 Airline Dr", "addr:city": "Coppell", "addr:state": "TX", "addr:postcode": "75019", "addr:country": "US", "name": "Cintas", "phone": "972-393-1764", "brand": "Cintas", "brand:wikidata": "Q1092571"}, "geometry": {"type": "Point", "coordinates": [-97.00742, 32.94311]}},
{"type": "Feature", "id": "dYICMKWTpH5Za5W3eQzCXGmbpmA=", "properties": {"ref": "163", "@spider": "cintas", "addr:full": "505 Century Pkwy", "addr:city": "Allen", "addr:state": "TX", "addr:postcode": "75013", "addr:country": "US", "name": "Cintas", "phone": "469-854-1180", "brand": "Cintas", "brand:wikidata": "Q1092571"}, "geometry": {"type": "Point", "coordinates": [-96.674, 33.095253]}},
{"type": "Feature", "id": "HTG7RjjMdzUF76iefisl3Wdeg5Q=", "properties": {"ref": "487", "@spider": "cintas", "addr:full": "850 Freeport Parkway Suite 300", "addr:city": "Coppell", "addr:state": "TX", "addr:postcode": "75019", "addr:country": "US", "name": "Cintas", "phone": "469-322-1100", "brand": "Cintas", "brand:wikidata": "Q1092571"}, "geometry": {"type": "Point", "coordinates": [-97.00936, 32.9500961]}},
{"type": "Feature", "id": "vskT1gaFwV9CWEX_J7DjYZ-tkm8=", "properties": {"ref": "0079J", "@spider": "cintas", "addr:full": "3100 N State Hwy 161 100", "addr:city": "Grand Prairie", "addr:state": "TX", "addr:postcode": "75050", "addr:country": "US", "name": "Cintas", "phone": "469-251-1200", "brand": "Cintas", "brand:wikidata": "Q1092571"}, "geometry": {"type": "Point", "coordinates": [-97.01708, 32.80135]}},
{"type": "Feature", "id": "a5ECsytWrgI1XUHMN0O_4xTYiw4=", "properties": {"ref": "00F77", "@spider": "cintas", "addr:full": "751 109th Street", "addr:city": "Arlington", "addr:state": "TX", "addr:postcode": "76011", "addr:country": "US", "name": "Cintas", "phone": "817-640-2223", "brand": "Cintas", "brand:wikidata": "Q1092571"}, "geometry": {"type": "Point", "coordinates": [-97.0545349, 32.7546959]}},
{"type": "Feature", "id": "oT7IHiao7uBNhzDuew5dYa33lBg=", "properties": {"ref": "00K56", "@spider": "cintas", "addr:full": "1801 Big Town Blvd Suite 1000", "addr:city": "Mesquite", "addr:state": "TX", "addr:postcode": "75149", "addr:country": "US", "name": "Cintas", "phone": "972-709-0291", "brand": "Cintas", "brand:wikidata": "Q1092571"}, "geometry": {"type": "Point", "coordinates": [-96.66991, 32.7897]}},
{"type": "Feature", "id": "sfk2HxpDLHgA_fNJ6GaIb4vDGkc=", "properties": {"ref": "494", "@spider": "cintas", "addr:full": "5011 Lotus Ln", "addr:city": "Lufkin", "addr:state": "TX", "addr:postcode": "75902", "addr:country": "US", "name": "Cintas", "phone": "936-760-3030", "brand": "Cintas", "brand:wikidata": "Q1092571"}, "geometry": {"type": "Point", "coordinates": [-94.762825, 31.35006]}},
{"type": "Feature", "id": "m2SEK1JPapJm0cZy9Z3D7qRELu0=", "properties": {"ref": "0018A", "@spider": "cintas", "addr:full": "1105 Slaton Rd STE D", "addr:city": "Lubbock", "addr:state": "TX", "addr:postcode": "79404", "addr:country": "US", "name": "Cintas", "phone": "806-379-6000", "brand": "Cintas", "brand:wikidata": "Q1092571"}, "geometry": {"type": "Point", "coordinates": [-101.824646, 33.53253]}},
{"type": "Feature", "id": "PKxFKhD2YZW8-7pt2Y4LmCw4kao=", "properties": {"ref": "496", "@spider": "cintas", "addr:full": "4106 Airpark Dr", "addr:city": "Laredo", "addr:state": "TX", "addr:postcode": "78041", "addr:country": "US", "name": "Cintas", "phone": "210-224-6321", "brand": "Cintas", "brand:wikidata": "Q1092571"}, "geometry": {"type": "Point", "coordinates": [-99.46666, 27.53357]}},
{"type": "Feature", "id": "JGnI1qJ2S_p96Xi2BlLjAs_JVrQ=", "properties": {"ref": "484", "@spider": "cintas", "addr:full": "5355 W Sam Houston Pkwy N Suite 300", "addr:city": "Houston", "addr:state": "TX", "addr:postcode": "77041", "addr:country": "US", "name": "Cintas", "phone": "713-937-0006", "brand": "Cintas", "brand:wikidata": "Q1092571"}, "geometry": {"type": "Point", "coordinates": [-95.56554, 29.8424244]}},
{"type": "Feature", "id": "dDMgMBBiPPFZp5cfgXtdHJHBXVg=", "properties": {"ref": "00F78", "@spider": "cintas", "addr:full": "5355 W Sam Houston Pkwy N", "addr:city": "Houston", "addr:state": "TX", "addr:postcode": "77041", "addr:country": "US", "name": "Cintas", "phone": "713-937-0006", "brand": "Cintas", "brand:wikidata": "Q1092571"}, "geometry": {"type": "Point", "coordinates": [-95.5655, 29.842062]}},
{"type": "Feature", "id": "Tekv-8m1vanNw2p3mwMk573fe10=", "properties": {"ref": "492", "@spider": "cintas", "addr:full": "3450 Northern Cross Blvd", "addr:city": "Fort Worth", "addr:state": "TX", "addr:postcode": "76137", "addr:country": "US", "name": "Cintas", "phone": "817-831-5600", "brand": "Cintas", "brand:wikidata": "Q1092571"}, "geometry": {"type": "Point", "coordinates": [-97.29783, 32.8336945]}},
{"type": "Feature", "id": "0BVe7RxSypR9vaEvno9Xj42fzy0=", "properties": {"ref": "539", "@spider": "cintas", "addr:full": "301 Junior Beck Dr", "addr:city": "Corpus Christi", "addr:state": "TX", "addr:postcode": "78405", "addr:country": "US", "name": "Cintas", "phone": "361-289-1781", "brand": "Cintas", "brand:wikidata": "Q1092571"}, "geometry": {"type": "Point", "coordinates": [-97.46987, 27.758707]}},
{"type": "Feature", "id": "CthEYHIqMIsf9ZcO-P-QKuReH-k=", "properties": {"ref": "0043K", "@spider": "cintas", "addr:full": "3903 Elaine St", "addr:city": "Bryan", "addr:state": "TX", "addr:postcode": "77808", "addr:country": "US", "name": "Cintas", "phone": "979-589-5740", "brand": "Cintas", "brand:wikidata": "Q1092571"}, "geometry": {"type": "Point", "coordinates": [-96.3807449, 30.7165985]}},
{"type": "Feature", "id": "qyKDkG6zudFP8SeJUDkg90pQRHM=", "properties": {"ref": "84", "@spider": "cintas", "addr:full": "3030 Milam St", "addr:city": "Beaumont", "addr:state": "TX", "addr:postcode": "77701", "addr:country": "US", "name": "Cintas", "phone": "409-832-9906", "brand": "Cintas", "brand:wikidata": "Q1092571"}, "geometry": {"type": "Point", "coordinates": [-94.1183548, 30.0664177]}},
{"type": "Feature", "id": "dcMI7Hyn2h4vueikW0zNS9kNgrg=", "properties": {"ref": "491", "@spider": "cintas", "addr:full": "801 SE 2nd", "addr:city": "Amarillo", "addr:state": "TX", "addr:postcode": "79101", "addr:country": "US", "name": "Cintas", "phone": "806-379-6000", "brand": "Cintas", "brand:wikidata": "Q1092571"}, "geometry": {"type": "Point", "coordinates": [-101.826385, 35.2109566]}},
{"type": "Feature", "id": "Jiylf9w8AA2vKbkL7HpKpXcVNt0=", "properties": {"ref": "439", "@spider": "cintas", "addr:full": "768 Walnut St", "addr:city": "Abilene", "addr:state": "TX", "addr:postcode": "79601", "addr:country": "US", "name": "Cintas", "phone": "325-677-5266", "brand": "Cintas", "brand:wikidata": "Q1092571"}, "geometry": {"type": "Point", "coordinates": [-99.73137, 32.456562]}},
{"type": "Feature", "id": "l7rTKGKp-potZZ1i0p8cxSfr_hg=", "properties": {"ref": "525", "@spider": "cintas", "addr:full": "2122 Winfield Rd", "addr:city": "St Albans", "addr:state": "WV", "addr:postcode": "25177", "addr:country": "US", "name": "Cintas", "phone": "304-755-0590", "brand": "Cintas", "brand:wikidata": "Q1092571"}, "geometry": {"type": "Point", "coordinates": [-81.85377, 38.42567]}},
{"type": "Feature", "id": "ZSXY_uNlbchV78H18-jNCswgIWA=", "properties": {"ref": "394", "@spider": "cintas", "addr:full": "1000 Shenandoah Village Dr", "addr:city": "Waynesboro", "addr:state": "VA", "addr:postcode": "22980", "addr:country": "US", "name": "Cintas", "phone": "540-949-0072", "brand": "Cintas", "brand:wikidata": "Q1092571"}, "geometry": {"type": "Point", "coordinates": [-78.93935, 38.05588]}},
{"type": "Feature", "id": "QO59JKbGK2d9FdYoYHXSJFEeeXI=", "properties": {"ref": "605", "@spider": "cintas", "addr:full": "918 N 5th Ave", "addr:city": "Yakima", "addr:state": "WA", "addr:postcode": "98902", "addr:country": "US", "name": "Cintas", "phone": "509-248-3860", "brand": "Cintas", "brand:wikidata": "Q1092571"}, "geometry": {"type": "Point", "coordinates": [-120.518906, 46.61329]}},
{"type": "Feature", "id": "682Up90EofWXgNzcGw2bceZnK_o=", "properties": {"ref": "749", "@spider": "cintas", "addr:full": "1601 North 24th St", "addr:city": "Omaha", "addr:state": "NE", "addr:postcode": "68110", "addr:country": "US", "name": "Cintas", "phone": "402-734-3428", "brand": "Cintas", "brand:wikidata": "Q1092571"}, "geometry": {"type": "Point", "coordinates": [-95.9461, 41.27373]}},
{"type": "Feature", "id": "HWWnwCSPDduFQmwnwdzohn_1eAg=", "properties": {"ref": "0071M", "@spider": "cintas", "addr:full": "156 Avenue B", "addr:city": "Williston", "addr:state": "VT", "addr:postcode": "5495", "addr:country": "US", "name": "Cintas", "phone": "802-864-9078", "brand": "Cintas", "brand:wikidata": "Q1092571"}, "geometry": {"type": "Point", "coordinates": [-73.12716, 44.462677]}},
{"type": "Feature", "id": "zU8ITkcudYjTNZnBoh5Gi0OUrVw=", "properties": {"ref": "0032K", "@spider": "cintas", "addr:full": "1250 Kuhn Dr", "addr:city": "Saint Cloud", "addr:state": "MN", "addr:postcode": "56301", "addr:country": "US", "name": "Cintas", "phone": "320-252-9471", "brand": "Cintas", "brand:wikidata": "Q1092571"}, "geometry": {"type": "Point", "coordinates": [-94.1662445, 45.5168648]}},
{"type": "Feature", "id": "nNphOn-QQC2jIx60Vm5r2WJ-7ts=", "properties": {"ref": "31", "@spider": "cintas", "addr:full": "31850 Sherman Ave", "addr:city": "Madison Hgts", "addr:state": "MI", "addr:postcode": "48071", "addr:country": "US", "name": "Cintas", "phone": "248-585-7930", "brand": "Cintas", "brand:wikidata": "Q1092571"}, "geometry": {"type": "Point", "coordinates": [-83.09502, 42.5252838]}},
{"type": "Feature", "id": "ujTcgkAXxGeEFfBPNUupkjwa_90=", "properties": {"ref": "325", "@spider": "cintas", "addr:full": "232 E Maple Road", "addr:city": "Troy", "addr:state": "MI", "addr:postcode": "48083", "addr:country": "US", "name": "Cintas", "phone": "248-817-3777", "brand": "Cintas", "brand:wikidata": "Q1092571"}, "geometry": {"type": "Point", "coordinates": [-83.14187, 42.5466347]}},
{"type": "Feature", "id": "s5Ta10_36lZ1rLooL_hkra_Ho6s=", "properties": {"ref": "0076J", "@spider": "cintas", "addr:full": "209 Brooks St", "addr:city": "Worcester", "addr:state": "MA", "addr:postcode": "1606", "addr:country": "US", "name": "Cintas", "phone": "508-556-6115", "brand": "Cintas", "brand:wikidata": "Q1092571"}, "geometry": {"type": "Point", "coordinates": [-71.8016357, 42.31878]}},
{"type": "Feature", "id": "F0_ZyJa8AiCZofixhh3PJ3zYmn8=", "properties": {"ref": "758", "@spider": "cintas", "addr:full": "88 Spiller Dr", "addr:city": "Westbrook", "addr:state": "ME", "addr:postcode": "4092", "addr:country": "US", "name": "Cintas", "phone": "207-854-0000", "brand": "Cintas", "brand:wikidata": "Q1092571"}, "geometry": {"type": "Point", "coordinates": [-70.3821259, 43.656456]}},
{"type": "Feature", "id": "7lDNVGYfdZAtLxqEnmqIGDN07B8=", "properties": {"ref": "397", "@spider": "cintas", "addr:full": "304 Downing Pines", "addr:city": "West Monroe", "addr:state": "LA", "addr:postcode": "71291", "addr:country": "US", "name": "Cintas", "phone": "318-387-3322", "brand": "Cintas", "brand:wikidata": "Q1092571"}, "geometry": {"type": "Point", "coordinates": [-92.16536, 32.5016632]}},
{"type": "Feature", "id": "IMFER9YTTW_9F0s9IuvTsz70SoQ=", "properties": {"ref": "0025D", "@spider": "cintas", "addr:full": "8201 E 34th St N Suite 909", "addr:city": "Wichita", "addr:state": "KS", "addr:postcode": "67226", "addr:country": "US", "name": "Cintas", "phone": "316-665-6060", "brand": "Cintas", "brand:wikidata": "Q1092571"}, "geometry": {"type": "Point", "coordinates": [-97.24019, 37.7457848]}},
{"type": "Feature", "id": "spR4esZu_9wLU3ns77egCYHRHu0=", "properties": {"ref": "451", "@spider": "cintas", "addr:full": "9333 E 35th St N", "addr:city": "Wichita", "addr:state": "KS", "addr:postcode": "67226", "addr:country": "US", "name": "Cintas", "phone": "316-945-5700", "brand": "Cintas", "brand:wikidata": "Q1092571"}, "geometry": {"type": "Point", "coordinates": [-97.22943, 37.7487564]}},
{"type": "Feature", "id": "NIXbtTg0rMA2Zx21tHD4pGhX6ig=", "properties": {"ref": "623", "@spider": "cintas", "addr:full": "1312 Capital Boulevard Suite 102", "addr:city": "Reno", "addr:state": "NV", "addr:postcode": "89502", "addr:country": "US", "name": "Cintas", "phone": "775-352-1753", "brand": "Cintas", "brand:wikidata": "Q1092571"}, "geometry": {"type": "Point", "coordinates": [-119.749275, 39.5049]}},
{"type": "Feature", "id": "fzDTkTQCRjJW04zvHEObRzxeL-c=", "properties": {"ref": "0019P", "@spider": "cintas", "addr:full": "1331 Armory Rd", "addr:city": "Salina", "addr:state": "KS", "addr:postcode": "67401", "addr:country": "US", "name": "Cintas", "phone": "785-376-0522", "brand": "Cintas", "brand:wikidata": "Q1092571"}, "geometry": {"type": "Point", "coordinates": [-97.62748, 38.831356]}},
{"type": "Feature", "id": "EY2OLS9kSzV6LlOmbWETvdB4ExQ=", "properties": {"ref": "0001K", "@spider": "cintas", "addr:full": "1745 N Reynolds", "addr:city": "Kansas City", "addr:state": "MO", "addr:postcode": "64120", "addr:country": "US", "name": "Cintas", "phone": "816-231-6500", "brand": "Cintas", "brand:wikidata": "Q1092571"}, "geometry": {"type": "Point", "coordinates": [-94.50847, 39.14101]}},
{"type": "Feature", "id": "zj3aNAMoE7WpZ9Is-Ifk6qWlloI=", "properties": {"ref": "430", "@spider": "cintas", "addr:full": "2050 Kansas City Rd", "addr:city": "Olathe", "addr:state": "KS", "addr:postcode": "66051", "addr:country": "US", "name": "Cintas", "phone": "913-782-8333", "brand": "Cintas", "brand:wikidata": "Q1092571"}, "geometry": {"type": "Point", "coordinates": [-94.7838058, 38.9054871]}},
{"type": "Feature", "id": "Oui2PukwZG9Mn_WYwG2wPlGQpWE=", "properties": {"ref": "479", "@spider": "cintas", "addr:full": "10060 Lackman Rd", "addr:city": "Lenexa", "addr:state": "KS", "addr:postcode": "66219", "addr:country": "US", "name": "Cintas", "phone": "913-441-4477", "brand": "Cintas", "brand:wikidata": "Q1092571"}, "geometry": {"type": "Point", "coordinates": [-94.76157, 38.94661]}},
{"type": "Feature", "id": "GI3NkVmuj8zscn8csXIul0e_0Rs=", "properties": {"ref": "00F58", "@spider": "cintas", "addr:full": "15533 W 100th Terrace", "addr:city": "Lenexa", "addr:state": "KS", "addr:postcode": "66219", "addr:country": "US", "name": "Cintas", "phone": "913-441-4477", "brand": "Cintas", "brand:wikidata": "Q1092571"}, "geometry": {"type": "Point", "coordinates": [-94.76515, 38.94594]}},
{"type": "Feature", "id": "6c7dsae8dFpKQ0MEvBhdDbp1V2k=", "properties": {"ref": "449", "@spider": "cintas", "addr:full": "1200 S 2nd St", "addr:city": "Dodge City", "addr:state": "KS", "addr:postcode": "67801", "addr:country": "US", "name": "Cintas", "phone": "620-225-6450", "brand": "Cintas", "brand:wikidata": "Q1092571"}, "geometry": {"type": "Point", "coordinates": [-100.018707, 37.7329674]}},
{"type": "Feature", "id": "M0VyqefbZz7rO2CSNrYqBCxtABo=", "properties": {"ref": "0055M", "@spider": "cintas", "addr:full": "70 Sir Noahs Way", "addr:city": "Somerset", "addr:state": "KY", "addr:postcode": "42503", "addr:country": "US", "name": "Cintas", "phone": "606-679-3703", "brand": "Cintas", "brand:wikidata": "Q1092571"}, "geometry": {"type": "Point", "coordinates": [-84.63733, 37.08488]}},
{"type": "Feature", "id": "2lGp4y39BGoU1VZNLejL2FyyJCA=", "properties": {"ref": "904", "@spider": "cintas", "addr:full": "5200 Charter Oak Dr", "addr:city": "Paducah", "addr:state": "KY", "addr:postcode": "42001", "addr:country": "US", "name": "Cintas", "phone": "270-443-7192", "brand": "Cintas", "brand:wikidata": "Q1092571"}, "geometry": {"type": "Point", "coordinates": [-88.6823349, 37.09549]}},
{"type": "Feature", "id": "34q0KzH_kW8ZtjOM9RkoU45w_mQ=", "properties": {"ref": "302", "@spider": "cintas", "addr:full": "3916 Oaklawn Dr", "addr:city": "Louisville", "addr:state": "KY", "addr:postcode": "40219", "addr:country": "US", "name": "Cintas", "phone": "502-964-6449", "brand": "Cintas", "brand:wikidata": "Q1092571"}, "geometry": {"type": "Point", "coordinates": [-85.68763, 38.1478271]}},
{"type": "Feature", "id": "s6wDDnyK26saBhjNRBxyDKHFysY=", "properties": {"ref": "326", "@spider": "cintas", "addr:full": "2900 Blankenbaker Pkwy Suite 120", "addr:city": "Louisville", "addr:state": "KY", "addr:postcode": "40299", "addr:country": "US", "name": "Cintas", "phone": "502-964-7337", "brand": "Cintas", "brand:wikidata": "Q1092571"}, "geometry": {"type": "Point", "coordinates": [-85.54014, 38.20097]}},
{"type": "Feature", "id": "1ouOdwN6RMPzwyuY1B28F_O12t4=", "properties": {"ref": "0071P", "@spider": "cintas", "addr:full": "1720 Research Drive", "addr:city": "Louisville", "addr:state": "KY", "addr:postcode": "40299", "addr:country": "US", "name": "Cintas", "phone": "502-776-1551", "brand": "Cintas", "brand:wikidata": "Q1092571"}, "geometry": {"type": "Point", "coordinates": [-85.5566559, 38.22127]}},
{"type": "Feature", "id": "4HhaX4_JMTMXkS1seqyms5GKOL0=", "properties": {"ref": "314", "@spider": "cintas", "addr:full": "7233 Enterprise Park Dr", "addr:city": "Evansville", "addr:state": "IN", "addr:postcode": "47715", "addr:country": "US", "name": "Cintas", "phone": "812-471-0870", "brand": "Cintas", "brand:wikidata": "Q1092571"}, "geometry": {"type": "Point", "coordinates": [-87.46353, 37.99504]}},
{"type": "Feature", "id": "6YYKcVScclLeV5wSdKJ1xTDkQOU=", "properties": {"ref": "383", "@spider": "cintas", "addr:full": "6149 Wedeking Ave Suite B", "addr:city": "Evansville", "addr:state": "IN", "addr:postcode": "47715", "addr:country": "US", "name": "Cintas", "phone": "812-213-8800", "brand": "Cintas", "brand:wikidata": "Q1092571"}, "geometry": {"type": "Point", "coordinates": [-87.4754639, 37.9959068]}},
{"type": "Feature", "id": "MJzE4dJvQnSw0SkSu9UMrS20PQM=", "properties": {"ref": "312", "@spider": "cintas", "addr:full": "100 Westhampton Dr", "addr:city": "Lexington", "addr:state": "KY", "addr:postcode": "40511", "addr:country": "US", "name": "Cintas", "phone": "859-252-8487", "brand": "Cintas", "brand:wikidata": "Q1092571"}, "geometry": {"type": "Point", "coordinates": [-84.54065, 38.0778847]}},
{"type": "Feature", "id": "4WA9QDvjbzOdedyKgVZW6AB7ndQ=", "properties": {"ref": "00K62", "@spider": "cintas", "addr:full": "305 Peterson Dr", "addr:city": "Elizabethtown", "addr:state": "KY", "addr:postcode": "42701", "addr:country": "US", "name": "Cintas", "phone": "270-737-3100", "brand": "Cintas", "brand:wikidata": "Q1092571"}, "geometry": {"type": "Point", "coordinates": [-85.90338, 37.6838074]}},
{"type": "Feature", "id": "wDed2iziexSAp-TqNPC-Js8B__c=", "properties": {"ref": "0015J", "@spider": "cintas", "addr:full": "101 23rd St", "addr:city": "Corbin", "addr:state": "KY", "addr:postcode": "40701", "addr:country": "US", "name": "Cintas", "phone": "606-523-0878", "brand": "Cintas", "brand:wikidata": "Q1092571"}, "geometry": {"type": "Point", "coordinates": [-84.09093, 36.9247246]}},
{"type": "Feature", "id": "CBm8tdy8aRgDy2TW9qycIkc6xuk=", "properties": {"ref": "288", "@spider": "cintas", "addr:full": "1526 Madison Avenue", "addr:city": "Huntington", "addr:state": "WV", "addr:postcode": "25704", "addr:country": "US", "name": "Cintas", "phone": "304-710-3200", "brand": "Cintas", "brand:wikidata": "Q1092571"}, "geometry": {"type": "Point", "coordinates": [-82.4807358, 38.4090576]}},
{"type": "Feature", "id": "Z6jNFulpdQIKPIQ7eT9gSZcGNyM=", "properties": {"ref": "311", "@spider": "cintas", "addr:full": "4125 Winchester Ave", "addr:city": "Ashland", "addr:state": "KY", "addr:postcode": "41101", "addr:country": "US", "name": "Cintas", "phone": "606-325-3777", "brand": "Cintas", "brand:wikidata": "Q1092571"}, "geometry": {"type": "Point", "coordinates": [-82.61162, 38.451828]}},
{"type": "Feature", "id": "5ckip3GPx0kl_1oqAotsTvw8P88=", "properties": {"ref": "541", "@spider": "cintas", "addr:full": "1101 Talbot Ave", "addr:city": "Thibodaux", "addr:state": "LA", "addr:postcode": "70301", "addr:country": "US", "name": "Cintas", "phone": "985-446-8664", "brand": "Cintas", "brand:wikidata": "Q1092571"}, "geometry": {"type": "Point", "coordinates": [-90.84123, 29.7767639]}},
{"type": "Feature", "id": "Pg0q4csiD_ssYiv86kyEmohbUYI=", "properties": {"ref": "0016H", "@spider": "cintas", "addr:full": "100 Machine Loop Road", "addr:city": "Scott", "addr:state": "LA", "addr:postcode": "70583", "addr:country": "US", "name": "Cintas", "phone": "337-735-3630", "brand": "Cintas", "brand:wikidata": "Q1092571"}, "geometry": {"type": "Point", "coordinates": [-92.1039352, 30.2364655]}},
{"type": "Feature", "id": "ssD_B03oS1Hy_0KW2CLqnREUDBg=", "properties": {"ref": "543", "@spider": "cintas", "addr:full": "101 Venture Way", "addr:city": "Lafayette", "addr:state": "LA", "addr:postcode": "70507", "addr:country": "US", "name": "Cintas", "phone": "337-234-8531", "brand": "Cintas", "brand:wikidata": "Q1092571"}, "geometry": {"type": "Point", "coordinates": [-92.0369644, 30.2735386]}},
{"type": "Feature", "id": "FXKBBGD1VaVzPR4wEGVyaTUztCA=", "properties": {"ref": "0029K", "@spider": "cintas", "addr:full": "120 Canvasback Dr", "addr:city": "Saint Rose", "addr:state": "LA", "addr:postcode": "70087", "addr:country": "US", "name": "Cintas", "phone": "504-464-1593", "brand": "Cintas", "brand:wikidata": "Q1092571"}, "geometry": {"type": "Point", "coordinates": [-90.28321, 29.9855843]}},
{"type": "Feature", "id": "ZNhW80638nq2xiOSHEC0u3LJExg=", "properties": {"ref": "544", "@spider": "cintas", "addr:full": "625 Elmwood Park Blvd", "addr:city": "Harahan", "addr:state": "LA", "addr:postcode": "70123", "addr:country": "US", "name": "Cintas", "phone": "504-733-8555", "brand": "Cintas", "brand:wikidata": "Q1092571"}, "geometry": {"type": "Point", "coordinates": [-90.1851349, 29.9528751]}},
{"type": "Feature", "id": "elJjyzu0Ebw0T3DadlVtu8wCEOQ=", "properties": {"ref": "252", "@spider": "cintas", "addr:full": "1140 Expressway Drive", "addr:city": "Pineville", "addr:state": "LA", "addr:postcode": "71360", "addr:country": "US", "name": "Cintas", "phone": "318-443-5332", "brand": "Cintas", "brand:wikidata": "Q1092571"}, "geometry": {"type": "Point", "coordinates": [-92.42326, 31.3216553]}},
{"type": "Feature", "id": "WQhjzi0ODQBVh_NjUNKkDAdVRkQ=", "properties": {"ref": "542", "@spider": "cintas", "addr:full": "408 Pryce St", "addr:city": "Lake Charles", "addr:state": "LA", "addr:postcode": "70601", "addr:country": "US", "name": "Cintas", "phone": "337-439-5755", "brand": "Cintas", "brand:wikidata": "Q1092571"}, "geometry": {"type": "Point", "coordinates": [-93.21509, 30.233717]}},
{"type": "Feature", "id": "jXymLKyrVkj7h6ZWCuGt_HebXpQ=", "properties": {"ref": "547", "@spider": "cintas", "addr:full": "4100 Viking Dr", "addr:city": "Bossier City", "addr:state": "LA", "addr:postcode": "71111", "addr:country": "US", "name": "Cintas", "phone": "318-752-0460", "brand": "Cintas", "brand:wikidata": "Q1092571"}, "geometry": {"type": "Point", "coordinates": [-93.68942, 32.55032]}},
{"type": "Feature", "id": "Ch2_1SIza299X2e6y2gG_UKVHEE=", "properties": {"ref": "263", "@spider": "cintas", "addr:full": "11401 Industriplex Blvd Suite 5", "addr:city": "Baton Rouge", "addr:state": "LA", "addr:postcode": "70806", "addr:country": "US", "name": "Cintas", "phone": "225-346-4642", "brand": "Cintas", "brand:wikidata": "Q1092571"}, "geometry": {"type": "Point", "coordinates": [-91.0545044, 30.3883]}},
{"type": "Feature", "id": "C_bYHWSnuWyixuzHShMK_SZZdCY=", "properties": {"ref": "540", "@spider": "cintas", "addr:full": "10220 Perkins Rd", "addr:city": "Baton Rouge", "addr:state": "LA", "addr:postcode": "70810", "addr:country": "US", "name": "Cintas", "phone": "225-767-8860", "brand": "Cintas", "brand:wikidata": "Q1092571"}, "geometry": {"type": "Point", "coordinates": [-91.09539, 30.37725]}},
{"type": "Feature", "id": "Ny5jNmOW44qtt7Xh8iyjQzbWEjU=", "properties": {"ref": "549", "@spider": "cintas", "addr:full": "205 N 19th St", "addr:city": "Baton Rouge", "addr:state": "LA", "addr:postcode": "70806", "addr:country": "US", "name": "Cintas", "phone": "225-383-5267", "brand": "Cintas", "brand:wikidata": "Q1092571"}, "geometry": {"type": "Point", "coordinates": [-91.17025, 30.4494438]}},
{"type": "Feature", "id": "FH-DxrjJQxyE3Up2q0YTaGs5XcU=", "properties": {"ref": "0065H", "@spider": "cintas", "addr:full": "293 Target Industrial Circle", "addr:city": "Bangor", "addr:state": "ME", "addr:postcode": "4401", "addr:country": "US", "name": "Cintas", "phone": "207-854-0000", "brand": "Cintas", "brand:wikidata": "Q1092571"}, "geometry": {"type": "Point", "coordinates": [-68.82763, 44.78916]}},
{"type": "Feature", "id": "39QWyDojVD4HUqKu8ZoB3Zfs5n8=", "properties": {"ref": "145", "@spider": "cintas", "addr:full": "9022 Euclid Ave", "addr:city": "Manassas", "addr:state": "VA", "addr:postcode": "20110", "addr:country": "US", "name": "Cintas", "phone": "703-881-4370", "brand": "Cintas", "brand:wikidata": "Q1092571"}, "geometry": {"type": "Point", "coordinates": [-77.45308, 38.7626]}},
{"type": "Feature", "id": "bVU7-PXgaN42HVSWfNiSoxtlcU4=", "properties": {"ref": "0044F", "@spider": "cintas", "addr:full": "6313 Gravel Avenue", "addr:city": "Alexandria", "addr:state": "VA", "addr:postcode": "22310", "addr:country": "US", "name": "Cintas", "phone": "757-484-1116", "brand": "Cintas", "brand:wikidata": "Q1092571"}, "geometry": {"type": "Point", "coordinates": [-77.15844, 38.7703362]}},
{"type": "Feature", "id": "Y82spnLAjgVHrrpQ9TvHf9L77Uo=", "properties": {"ref": "0080N", "@spider": "cintas", "addr:full": "15100 Enterprise Ct Suite 200", "addr:city": "Chantilly", "addr:state": "VA", "addr:postcode": "20151", "addr:country": "US", "name": "Cintas", "phone": "571-446-6902", "brand": "Cintas", "brand:wikidata": "Q1092571"}, "geometry": {"type": "Point", "coordinates": [-77.46843, 38.9069824]}},
{"type": "Feature", "id": "o25ClXExfCVgi1jZbUw4Kx5UrU4=", "properties": {"ref": "393", "@spider": "cintas", "addr:full": "6520 Hughesville Industrial Park Rd", "addr:city": "Hughesville", "addr:state": "MD", "addr:postcode": "20637", "addr:country": "US", "name": "Cintas", "phone": "301-843-1076", "brand": "Cintas", "brand:wikidata": "Q1092571"}, "geometry": {"type": "Point", "coordinates": [-76.77233, 38.53335]}},
{"type": "Feature", "id": "B0WFFVmR4xLob498Rxas-KZc9SU=", "properties": {"ref": "387", "@spider": "cintas", "addr:full": "3951 Dartmouth Ct", "addr:city": "Frederick", "addr:state": "MD", "addr:postcode": "21703", "addr:country": "US", "name": "Cintas", "phone": "301-874-8352", "brand": "Cintas", "brand:wikidata": "Q1092571"}, "geometry": {"type": "Point", "coordinates": [-77.5048752, 39.3380432]}},
{"type": "Feature", "id": "MDMFRbOPCtTqCgm-h1sJbhT0Kmo=", "properties": {"ref": "386", "@spider": "cintas", "addr:full": "11800 Upper Potomac Industrial Park St", "addr:city": "Cumberland", "addr:state": "MD", "addr:postcode": "21502", "addr:country": "US", "name": "Cintas", "phone": "301-729-6800", "brand": "Cintas", "brand:wikidata": "Q1092571"}, "geometry": {"type": "Point", "coordinates": [-78.80286, 39.6299744]}},
{"type": "Feature", "id": "kembxEMwrPqbqhqzcW-zLSljVYE=", "properties": {"ref": "617", "@spider": "cintas", "addr:full": "481 Pleasant St", "addr:city": "Lee", "addr:state": "MA", "addr:postcode": "1238", "addr:country": "US", "name": "Cintas", "phone": "413-243-1363", "brand": "Cintas", "brand:wikidata": "Q1092571"}, "geometry": {"type": "Point", "coordinates": [-73.24402, 42.287117]}},
{"type": "Feature", "id": "lOwSFA1TPRD_JMv_YDGT6-OUYbM=", "properties": {"ref": "0032N", "@spider": "cintas", "addr:full": "9085 Twin Oaks Dr", "addr:city": "Windsor", "addr:state": "ON", "addr:postcode": "N8N 5B8", "addr:country": "US", "name": "Cintas", "phone": "519-979-5913", "brand": "Cintas", "brand:wikidata": "Q1092571"}, "geometry": {"type": "Point", "coordinates": [-82.91469, 42.29164]}},
{"type": "Feature", "id": "hZQDENTfKUPB3dYgAJUuy0wVTyg=", "properties": {"ref": "354", "@spider": "cintas", "addr:full": "51518 Quadrate Dr", "addr:city": "Macomb", "addr:state": "MI", "addr:postcode": "48042", "addr:country": "US", "name": "Cintas", "phone": "586-677-9900", "brand": "Cintas", "brand:wikidata": "Q1092571"}, "geometry": {"type": "Point", "coordinates": [-82.9624252, 42.67595]}},
{"type": "Feature", "id": "ycJ1UGV5a6Opzm60f7IIVYD584c=", "properties": {"ref": "847", "@spider": "cintas", "addr:full": "1775 Sylvestre Dr", "addr:city": "Tecumseh", "addr:state": "ON", "addr:postcode": "N8N 2L9", "addr:country": "US", "name": "Cintas", "phone": "519-735-2114", "brand": "Cintas", "brand:wikidata": "Q1092571"}, "geometry": {"type": "Point", "coordinates": [-82.87626, 42.3012848]}},
{"type": "Feature", "id": "cWND5n0YQCofGQKAzo8veYGjqUI=", "properties": {"ref": "724", "@spider": "cintas", "addr:full": "4400 Dove Rd", "addr:city": "Port Huron", "addr:state": "MI", "addr:postcode": "48060", "addr:country": "US", "name": "Cintas", "phone": "810-364-1276", "brand": "Cintas", "brand:wikidata": "Q1092571"}, "geometry": {"type": "Point", "coordinates": [-82.49841, 42.9508553]}},
{"type": "Feature", "id": "U-SsIFXixVSkVW6trj--iCt90aI=", "properties": {"ref": "346", "@spider": "cintas", "addr:full": "421 Bayliss St", "addr:city": "Midland", "addr:state": "MI", "addr:postcode": "48640", "addr:country": "US", "name": "Cintas", "phone": "989-835-7709", "brand": "Cintas", "brand:wikidata": "Q1092571"}, "geometry": {"type": "Point", "coordinates": [-84.2243, 43.62295]}},
{"type": "Feature", "id": "g0MC9OrjcSJf5N0QnlP3Vmwa0XE=", "properties": {"ref": "725", "@spider": "cintas", "addr:full": "2408 South Canal Rd STE C", "addr:city": "Lansing", "addr:state": "MI", "addr:postcode": "48917", "addr:country": "US", "name": "Cintas", "phone": "517-322-7700", "brand": "Cintas", "brand:wikidata": "Q1092571"}, "geometry": {"type": "Point", "coordinates": [-84.6634445, 42.7078857]}},
{"type": "Feature", "id": "82q8psBgucgh6J0wyRPe0MpkMv0=", "properties": {"ref": "301", "@spider": "cintas", "addr:full": "3149 Wilson Dr NW", "addr:city": "Walker", "addr:state": "MI", "addr:postcode": "49544", "addr:country": "US", "name": "Cintas", "phone": "616-791-6300", "brand": "Cintas", "brand:wikidata": "Q1092571"}, "geometry": {"type": "Point", "coordinates": [-85.78668, 43.0226936]}},
{"type": "Feature", "id": "iPGGbIYyvTKemH85E5Qnd9i-0YM=", "properties": {"ref": "305", "@spider": "cintas", "addr:full": "5079 33rd St SE", "addr:city": "Kentwood", "addr:state": "MI", "addr:postcode": "49512", "addr:country": "US", "name": "Cintas", "phone": "616-942-9225", "brand": "Cintas", "brand:wikidata": "Q1092571"}, "geometry": {"type": "Point", "coordinates": [-85.54207, 42.9032974]}},
{"type": "Feature", "id": "hUVvNDRh_bQxlb5sWNxkcfohJA8=", "properties": {"ref": "308", "@spider": "cintas", "addr:full": "4162 S Dye Rd", "addr:city": "Swartz Creek", "addr:state": "MI", "addr:postcode": "48473", "addr:country": "US", "name": "Cintas", "phone": "810-230-5580", "brand": "Cintas", "brand:wikidata": "Q1092571"}, "geometry": {"type": "Point", "coordinates": [-83.78289, 42.9681473]}},
{"type": "Feature", "id": "i1LIbPTgUjwUwkI0v9WJ8ce77rw=", "properties": {"ref": "729", "@spider": "cintas", "addr:full": "6881 N US 131", "addr:city": "Fife Lake", "addr:state": "MI", "addr:postcode": "49633", "addr:country": "US", "name": "Cintas", "phone": "231-879-3163", "brand": "Cintas", "brand:wikidata": "Q1092571"}, "geometry": {"type": "Point", "coordinates": [-85.35133, 44.5860558]}},
{"type": "Feature", "id": "navUU7LX1W9pW-GqYbku7fKCu-c=", "properties": {"ref": "459", "@spider": "cintas", "addr:full": "3517 West Red Iron Dr", "addr:city": "Webb City", "addr:state": "MO", "addr:postcode": "64870", "addr:country": "US", "name": "Cintas", "phone": "417-781-8011", "brand": "Cintas", "brand:wikidata": "Q1092571"}, "geometry": {"type": "Point", "coordinates": [-94.4602661, 37.1219826]}},
{"type": "Feature", "id": "qJK_UTbDguIsA4iE6fDF3A6EbSs=", "properties": {"ref": "0002K", "@spider": "cintas", "addr:full": "2624 Park Dr", "addr:city": "Owatonna", "addr:state": "MN", "addr:postcode": "55060", "addr:country": "US", "name": "Cintas", "phone": "507-451-5710", "brand": "Cintas", "brand:wikidata": "Q1092571"}, "geometry": {"type": "Point", "coordinates": [-93.26048, 44.09248]}},
{"type": "Feature", "id": "RWzdCZyrsPvxvDO1vGTfnB2pXho=", "properties": {"ref": "448", "@spider": "cintas", "addr:full": "634 Lambert Pointe Dr", "addr:city": "Hazelwood", "addr:state": "MO", "addr:postcode": "63042", "addr:country": "US", "name": "Cintas", "phone": "314-426-7100", "brand": "Cintas", "brand:wikidata": "Q1092571"}, "geometry": {"type": "Point", "coordinates": [-90.37788, 38.77406]}},
{"type": "Feature", "id": "zMuQatUjuXqR0uYnxLDZ0LnD4zk=", "properties": {"ref": "452", "@spider": "cintas", "addr:full": "3750 Mueller Rd", "addr:city": "St Charles", "addr:state": "MO", "addr:postcode": "63301", "addr:country": "US", "name": "Cintas", "phone": "636-947-0030", "brand": "Cintas", "brand:wikidata": "Q1092571"}, "geometry": {"type": "Point", "coordinates": [-90.50271, 38.8232346]}},
{"type": "Feature", "id": "by2K4VTbXNRJwbYfr87NSg1AW2E=", "properties": {"ref": "731", "@spider": "cintas", "addr:full": "6200 Olive Blvd", "addr:city": "University City", "addr:state": "MO", "addr:postcode": "63130", "addr:country": "US", "name": "Cintas", "phone": "314-862-1010", "brand": "Cintas", "brand:wikidata": "Q1092571"}, "geometry": {"type": "Point", "coordinates": [-90.29884, 38.660305]}},
{"type": "Feature", "id": "GD7nJugVWjRiHfrRqzSFoPUkrSo=", "properties": {"ref": "0006K", "@spider": "cintas", "addr:full": "3246 E Hwy 7 Suite 100", "addr:city": "Montevideo", "addr:state": "MN", "addr:postcode": "56265", "addr:country": "US", "name": "Cintas", "phone": "320-269-5557", "brand": "Cintas", "brand:wikidata": "Q1092571"}, "geometry": {"type": "Point", "coordinates": [-95.68584, 44.94831]}},
{"type": "Feature", "id": "SHT7x4iHeCZ5Z3FGTXTOf4ntF_s=", "properties": {"ref": "177", "@spider": "cintas", "addr:full": "3220 Leonard Rd", "addr:city": "St Joseph", "addr:state": "MO", "addr:postcode": "64503", "addr:country": "US", "name": "Cintas", "phone": "816-232-8401", "brand": "Cintas", "brand:wikidata": "Q1092571"}, "geometry": {"type": "Point", "coordinates": [-94.7877655, 39.736763]}},
{"type": "Feature", "id": "BQaf9R4VWp1IMXA_Vdjqlcel0uc=", "properties": {"ref": "569", "@spider": "cintas", "addr:full": "4600 E Mustard Way", "addr:city": "Springfield", "addr:state": "MO", "addr:postcode": "65803", "addr:country": "US", "name": "Cintas", "phone": "417-831-4040", "brand": "Cintas", "brand:wikidata": "Q1092571"}, "geometry": {"type": "Point", "coordinates": [-93.19758, 37.2443237]}},
{"type": "Feature", "id": "ia4FyDqmVx8TQqh_3ynfzyduWNM=", "properties": {"ref": "0083P", "@spider": "cintas", "addr:full": "1711 N Barnes", "addr:city": "Springfield", "addr:state": "MO", "addr:postcode": "65803", "addr:country": "US", "name": "Cintas", "phone": "417-865-6185", "brand": "Cintas", "brand:wikidata": "Q1092571"}, "geometry": {"type": "Point", "coordinates": [-93.2517242, 37.2282753]}},
{"type": "Feature", "id": "ss14X5_C5clKH98QjRYC2aqiKNI=", "properties": {"ref": "210", "@spider": "cintas", "addr:full": "3894 Beasley Rd", "addr:city": "Jackson", "addr:state": "MS", "addr:postcode": "39213", "addr:country": "US", "name": "Cintas", "phone": "601-366-0667", "brand": "Cintas", "brand:wikidata": "Q1092571"}, "geometry": {"type": "Point", "coordinates": [-90.2254944, 32.38582]}},
{"type": "Feature", "id": "FP086_E_r6Ucx__2RcpsnJaaAnI=", "properties": {"ref": "0046M", "@spider": "cintas", "addr:full": "240 W Mitchell Ave", "addr:city": "Jackson", "addr:state": "MS", "addr:postcode": "39213", "addr:country": "US", "name": "Cintas", "phone": "601-366-5204", "brand": "Cintas", "brand:wikidata": "Q1092571"}, "geometry": {"type": "Point", "coordinates": [-90.1870346, 32.3365631]}},
{"type": "Feature", "id": "nnn_2pea4moqfTw5V1syX3ZYMgg=", "properties": {"ref": "00J71", "@spider": "cintas", "addr:full": "106 Business Park Drive", "addr:city": "Ridgeland", "addr:state": "MS", "addr:postcode": "39157", "addr:country": "US", "name": "Cintas", "phone": "601-693-6121", "brand": "Cintas", "brand:wikidata": "Q1092571"}, "geometry": {"type": "Point", "coordinates": [-90.1743, 32.40581]}},
{"type": "Feature", "id": "3OpMdNqdo8dkLN0maVGy6ROxqn4=", "properties": {"ref": "00J66", "@spider": "cintas", "addr:full": "112 E 8th Ave", "addr:city": "Petal", "addr:state": "MS", "addr:postcode": "39465", "addr:country": "US", "name": "Cintas", "phone": "601-544-3623", "brand": "Cintas", "brand:wikidata": "Q1092571"}, "geometry": {"type": "Point", "coordinates": [-89.26168, 31.3369045]}},
{"type": "Feature", "id": "fIdBV3cJPwCr5ElqSTk4q66eM-w=", "properties": {"ref": "0045M", "@spider": "cintas", "addr:full": "367 Garfield Ave", "addr:city": "Duluth", "addr:state": "MN", "addr:postcode": "55802", "addr:country": "US", "name": "Cintas", "phone": "218-727-2954", "brand": "Cintas", "brand:wikidata": "Q1092571"}, "geometry": {"type": "Point", "coordinates": [-92.11365, 46.76414]}},
{"type": "Feature", "id": "MFqFt8PeKgLcKs3BJ02G52_G5uk=", "properties": {"ref": "379", "@spider": "cintas", "addr:full": "8771 E Columbus CT", "addr:city": "Columbia", "addr:state": "MO", "addr:postcode": "65201", "addr:country": "US", "name": "Cintas", "phone": "573-441-2440", "brand": "Cintas", "brand:wikidata": "Q1092571"}, "geometry": {"type": "Point", "coordinates": [-92.203186, 38.95306]}},
{"type": "Feature", "id": "Jrpl8LCUgjIVzlYW0nENzqppdHM=", "properties": {"ref": "00D71", "@spider": "cintas", "addr:full": "140 Sheridan Street", "addr:city": "Cape Girardeau", "addr:state": "MO", "addr:postcode": "63703", "addr:country": "US", "name": "Cintas", "phone": "573-334-6843", "brand": "Cintas", "brand:wikidata": "Q1092571"}, "geometry": {"type": "Point", "coordinates": [-89.54589, 37.3034821]}},
{"type": "Feature", "id": "9oItdtB6SUNiEo2VfS-G1BxgIT4=", "properties": {"ref": "240", "@spider": "cintas", "addr:full": "14081 Fastway Ln", "addr:city": "Gulfport", "addr:state": "MS", "addr:postcode": "39503", "addr:country": "US", "name": "Cintas", "phone": "228-822-0065", "brand": "Cintas", "brand:wikidata": "Q1092571"}, "geometry": {"type": "Point", "coordinates": [-89.07223, 30.4363079]}},
{"type": "Feature", "id": "OUOaUCKHEqNLCLgD9m01SHVg2d0=", "properties": {"ref": "212", "@spider": "cintas", "addr:full": "5970 Greenwood Pkwy", "addr:city": "Bessemer", "addr:state": "AL", "addr:postcode": "35023", "addr:country": "US", "name": "Cintas", "phone": "205-424-2250", "brand": "Cintas", "brand:wikidata": "Q1092571"}, "geometry": {"type": "Point", "coordinates": [-86.9206, 33.3458328]}},
{"type": "Feature", "id": "sKrl3No4nDDWhu6BSsxtgQS-_rU=", "properties": {"ref": "247", "@spider": "cintas", "addr:full": "276 Cahaba Valley Cir", "addr:city": "Pelham", "addr:state": "AL", "addr:postcode": "35124", "addr:country": "US", "name": "Cintas", "phone": "205-403-0911", "brand": "Cintas", "brand:wikidata": "Q1092571"}, "geometry": {"type": "Point", "coordinates": [-86.78733, 33.341423]}},
{"type": "Feature", "id": "EAMoqyzGqDl4q01YqLBxiPn9MpI=", "properties": {"ref": "59", "@spider": "cintas", "addr:full": "2460 Kiel Way", "addr:city": "Las Vegas", "addr:state": "NV", "addr:postcode": "89030", "addr:country": "US", "name": "Cintas", "phone": "702-649-7511", "brand": "Cintas", "brand:wikidata": "Q1092571"}, "geometry": {"type": "Point", "coordinates": [-115.139442, 36.20578]}},
{"type": "Feature", "id": "ZxW457SRzs2A9mv8bhEZ_Yo7vDY=", "properties": {"ref": "187", "@spider": "cintas", "addr:full": "730 Valle Verde Dr", "addr:city": "Henderson", "addr:state": "NV", "addr:postcode": "89014", "addr:country": "US", "name": "Cintas", "phone": "702-435-2192", "brand": "Cintas", "brand:wikidata": "Q1092571"}, "geometry": {"type": "Point", "coordinates": [-115.066154, 36.0704041]}},
{"type": "Feature", "id": "02jL4Qp461N31vxiAEqCIarPR60=", "properties": {"ref": "0020M", "@spider": "cintas", "addr:full": "4670 Vandenberg Drive", "addr:city": "North Las Vegas", "addr:state": "NV", "addr:postcode": "89081", "addr:country": "US", "name": "Cintas", "phone": "702-677-3000", "brand": "Cintas", "brand:wikidata": "Q1092571"}, "geometry": {"type": "Point", "coordinates": [-115.085709, 36.2457657]}},
{"type": "Feature", "id": "Wm8hpOAymxOltN_06_QvNwAlHhE=", "properties": {"ref": "532", "@spider": "cintas", "addr:full": "436 Dora Hwy", "addr:city": "Pulaski", "addr:state": "VA", "addr:postcode": "24301", "addr:country": "US", "name": "Cintas", "phone": "540-980-1655", "brand": "Cintas", "brand:wikidata": "Q1092571"}, "geometry": {"type": "Point", "coordinates": [-80.7747, 37.0448647]}},
{"type": "Feature", "id": "U1moMvxdgUkBZP5cjsVSXBORi0c=", "properties": {"ref": "391", "@spider": "cintas", "addr:full": "2707 Smithfield Rd", "addr:city": "Portsmouth", "addr:state": "VA", "addr:postcode": "23702", "addr:country": "US", "name": "Cintas", "phone": "757-485-1100", "brand": "Cintas", "brand:wikidata": "Q1092571"}, "geometry": {"type": "Point", "coordinates": [-76.33966, 36.7945824]}},
{"type": "Feature", "id": "Uiqgl3hDOFZs-uE3pu7b7e_RJgE=", "properties": {"ref": "0036J", "@spider": "cintas", "addr:full": "701 Flag Stone Way STE C", "addr:city": "Newport News", "addr:state": "VA", "addr:postcode": "23608", "addr:country": "US", "name": "Cintas", "phone": "757-723-9111", "brand": "Cintas", "brand:wikidata": "Q1092571"}, "geometry": {"type": "Point", "coordinates": [-76.5315857, 37.1697922]}},
{"type": "Feature", "id": "zrBumLDm9KfHFr076tP1KY7Pn9I=", "properties": {"ref": "143", "@spider": "cintas", "addr:full": "12524 Kingston Ave", "addr:city": "Chester", "addr:state": "VA", "addr:postcode": "23836", "addr:country": "US", "name": "Cintas", "phone": "804-530-2601", "brand": "Cintas", "brand:wikidata": "Q1092571"}, "geometry": {"type": "Point", "coordinates": [-77.3469543, 37.35631]}},
{"type": "Feature", "id": "eWRKgsMMQ_ORW2eOjLgqhntVn1A=", "properties": {"ref": "00G46", "@spider": "cintas", "addr:full": "1708 W Hundred Rd", "addr:city": "Chester", "addr:state": "VA", "addr:postcode": "23836", "addr:country": "US", "name": "Cintas", "phone": "804-530-2605", "brand": "Cintas", "brand:wikidata": "Q1092571"}, "geometry": {"type": "Point", "coordinates": [-77.39175, 37.353508]}},
{"type": "Feature", "id": "oBCFfEck1BMo2ueUzVAAtUvPp_E=", "properties": {"ref": "524", "@spider": "cintas", "addr:full": "704 Industrial Ave", "addr:city": "Bedford", "addr:state": "VA", "addr:postcode": "24523", "addr:country": "US", "name": "Cintas", "phone": "540-586-3626", "brand": "Cintas", "brand:wikidata": "Q1092571"}, "geometry": {"type": "Point", "coordinates": [-79.53549, 37.3230934]}},
{"type": "Feature", "id": "eVA7oJ2ciikDydnCuK9CZ90XCsc=", "properties": {"ref": "0059P", "@spider": "cintas", "addr:full": "800 S Industry Way STE 330", "addr:city": "Meridian", "addr:state": "ID", "addr:postcode": "83651", "addr:country": "US", "name": "Cintas", "phone": "208-286-4750", "brand": "Cintas", "brand:wikidata": "Q1092571"}, "geometry": {"type": "Point", "coordinates": [-116.38604, 43.59725]}},
{"type": "Feature", "id": "uaNLQWdkrXP4qp3OWc9xky_znn4=", "properties": {"ref": "610", "@spider": "cintas", "addr:full": "2302 E Railroad St", "addr:city": "Nampa", "addr:state": "ID", "addr:postcode": "83687", "addr:country": "US", "name": "Cintas", "phone": "208-466-7088", "brand": "Cintas", "brand:wikidata": "Q1092571"}, "geometry": {"type": "Point", "coordinates": [-116.542282, 43.56988]}},
{"type": "Feature", "id": "ESAFvzEkEDbSAvjt4aPAN2MSIos=", "properties": {"ref": "606", "@spider": "cintas", "addr:full": "3808 N Sullivan Rd", "addr:city": "Spokane", "addr:state": "WA", "addr:postcode": "99216", "addr:country": "US", "name": "Cintas", "phone": "509-536-4818", "brand": "Cintas", "brand:wikidata": "Q1092571"}, "geometry": {"type": "Point", "coordinates": [-117.196144, 47.69047]}},
{"type": "Feature", "id": "htl6MPba3F_iFxg3PnD3bTkYD6M=", "properties": {"ref": "0024D", "@spider": "cintas", "addr:full": "3526 B St NW Suite 102", "addr:city": "Auburn", "addr:state": "WA", "addr:postcode": "98001", "addr:country": "US", "name": "Cintas", "phone": "425-609-7249", "brand": "Cintas", "brand:wikidata": "Q1092571"}, "geometry": {"type": "Point", "coordinates": [-122.230492, 47.33905]}},
{"type": "Feature", "id": "Xt91nMhFo9N3EmDMtUxCCRzGB1k=", "properties": {"ref": "460", "@spider": "cintas", "addr:full": "6400 Merrill Creek Pkwy", "addr:city": "Everett", "addr:state": "WA", "addr:postcode": "98203", "addr:country": "US", "name": "Cintas", "phone": "425-349-2442", "brand": "Cintas", "brand:wikidata": "Q1092571"}, "geometry": {"type": "Point", "coordinates": [-122.268509, 47.9403]}},
{"type": "Feature", "id": "xy0zs9aSWrqkC48sfALLGZ5yFHI=", "properties": {"ref": "0048K", "@spider": "cintas", "addr:full": "1001 SW 34th St", "addr:city": "Renton", "addr:state": "WA", "addr:postcode": "98057", "addr:country": "US", "name": "Cintas", "phone": "425-251-1801", "brand": "Cintas", "brand:wikidata": "Q1092571"}, "geometry": {"type": "Point", "coordinates": [-122.231979, 47.4486542]}},
{"type": "Feature", "id": "Z1mqGyQiDONv3sKnYHvmndn3j9o=", "properties": {"ref": "00F93", "@spider": "cintas", "addr:full": "3320 W Valley Hwy N Suite D111", "addr:city": "Auburn", "addr:state": "WA", "addr:postcode": "98001", "addr:country": "US", "name": "Cintas", "phone": "253-852-1962", "brand": "Cintas", "brand:wikidata": "Q1092571"}, "geometry": {"type": "Point", "coordinates": [-122.245956, 47.33775]}},
{"type": "Feature", "id": "_Sh5wXStmMR96YnZRZ9BzsIUcIU=", "properties": {"ref": "461", "@spider": "cintas", "addr:full": "631 Valley Ave NW", "addr:city": "Puyallup", "addr:state": "WA", "addr:postcode": "98371", "addr:country": "US", "name": "Cintas", "phone": "253-926-1097", "brand": "Cintas", "brand:wikidata": "Q1092571"}, "geometry": {"type": "Point", "coordinates": [-122.302704, 47.21063]}},
{"type": "Feature", "id": "S5fy3q9c6tw6jMxZmKs7_N4zZg8=", "properties": {"ref": "608", "@spider": "cintas", "addr:full": "1306 W Washington", "addr:city": "Pasco", "addr:state": "WA", "addr:postcode": "99301", "addr:country": "US", "name": "Cintas", "phone": "509-248-3860", "brand": "Cintas", "brand:wikidata": "Q1092571"}, "geometry": {"type": "Point", "coordinates": [-119.104912, 46.2232361]}},
{"type": "Feature", "id": "jt_ZMEYpoikrKAuw0O9qt3_fqhI=", "properties": {"ref": "607", "@spider": "cintas", "addr:full": "310 2nd St NE", "addr:city": "East Wenatchee", "addr:state": "WA", "addr:postcode": "98802", "addr:country": "US", "name": "Cintas", "phone": "509-886-0311", "brand": "Cintas", "brand:wikidata": "Q1092571"}, "geometry": {"type": "Point", "coordinates": [-120.282829, 47.4079971]}},
{"type": "Feature", "id": "t_vexUa5MXowgEyVCiZjVs274u8=", "properties": {"ref": "531", "@spider": "cintas", "addr:full": "100 Scott Ave", "addr:city": "Morgantown", "addr:state": "WV", "addr:postcode": "26508", "addr:country": "US", "name": "Cintas", "phone": "304-296-8366", "brand": "Cintas", "brand:wikidata": "Q1092571"}, "geometry": {"type": "Point", "coordinates": [-79.95896, 39.5871925]}},
{"type": "Feature", "id": "Yvc2zNmSXuGxTwVTlGBSemWOh80=", "properties": {"ref": "00J67", "@spider": "cintas", "addr:full": "40 Broadhead Ln", "addr:city": "Mineral Wells", "addr:state": "WV", "addr:postcode": "26150", "addr:country": "US", "name": "Cintas", "phone": "304-489-9058", "brand": "Cintas", "brand:wikidata": "Q1092571"}, "geometry": {"type": "Point", "coordinates": [-81.5373154, 39.2036552]}},
{"type": "Feature", "id": "mRpocNd26rBoYHiWhRpEAg7X-sM=", "properties": {"ref": "0023M", "@spider": "cintas", "addr:full": "806 W 4th St", "addr:city": "Davenport", "addr:state": "IA", "addr:postcode": "52802", "addr:country": "US", "name": "Cintas", "phone": "563-449-5555", "brand": "Cintas", "brand:wikidata": "Q1092571"}, "geometry": {"type": "Point", "coordinates": [-90.58498, 41.5237732]}},
{"type": "Feature", "id": "-gqvOOVgBNS_xuMNZsmiL-lGfqk=", "properties": {"ref": "342", "@spider": "cintas", "addr:full": "3020 West 76th St", "addr:city": "Davenport", "addr:state": "IA", "addr:postcode": "52806", "addr:country": "US", "name": "Cintas", "phone": "563-449-5555", "brand": "Cintas", "brand:wikidata": "Q1092571"}, "geometry": {"type": "Point", "coordinates": [-90.61931, 41.5977249]}},
{"type": "Feature", "id": "ncNME2mlnLqz7nXGC8p9S4pjk4A=", "properties": {"ref": "370", "@spider": "cintas", "addr:full": "5150 E Margaret Dr", "addr:city": "Terre Haute", "addr:state": "IN", "addr:postcode": "47803", "addr:country": "US", "name": "Cintas", "phone": "812-877-9115", "brand": "Cintas", "brand:wikidata": "Q1092571"}, "geometry": {"type": "Point", "coordinates": [-87.33835, 39.43434]}},
{"type": "Feature", "id": "oUXFwOaC8PSPAi98hF84L3uRxcA=", "properties": {"ref": "21", "@spider": "cintas", "addr:full": "6001 W 73rd St", "addr:city": "Bedford Park", "addr:state": "IL", "addr:postcode": "60638", "addr:country": "US", "name": "Cintas", "phone": "708-496-1116", "brand": "Cintas", "brand:wikidata": "Q1092571"}, "geometry": {"type": "Point", "coordinates": [-87.77126, 41.7591629]}},
{"type": "Feature", "id": "e41gx__Oh8hfSi1LaCTX-jAZQ-Q=", "properties": {"ref": "22", "@spider": "cintas", "addr:full": "1025 National Pkwy", "addr:city": "Schaumburg", "addr:state": "IL", "addr:postcode": "60173", "addr:country": "US", "name": "Cintas", "phone": "847-882-1102", "brand": "Cintas", "brand:wikidata": "Q1092571"}, "geometry": {"type": "Point", "coordinates": [-88.05167, 42.0546646]}},
{"type": "Feature", "id": "3_tW-wYlgc49jfzPXzooHh0dB5A=", "properties": {"ref": "0023K", "@spider": "cintas", "addr:full": "8201 S Cork Ave", "addr:city": "Justice", "addr:state": "IL", "addr:postcode": "60458", "addr:country": "US", "name": "Cintas", "phone": "708-496-1600", "brand": "Cintas", "brand:wikidata": "Q1092571"}, "geometry": {"type": "Point", "coordinates": [-87.837265, 41.7425575]}},
{"type": "Feature", "id": "dvZg4hBNoKtFK2rNBr9arn-hxrA=", "properties": {"ref": "343", "@spider": "cintas", "addr:full": "1870 Brummel Dr", "addr:city": "Elk Grove Village", "addr:state": "IL", "addr:postcode": "60007", "addr:country": "US", "name": "Cintas", "phone": "847-228-3970", "brand": "Cintas", "brand:wikidata": "Q1092571"}, "geometry": {"type": "Point", "coordinates": [-87.9556351, 42.0191345]}},
{"type": "Feature", "id": "CiuBVMp14nUq6jGhRXPG3DVhIkI=", "properties": {"ref": "0047P", "@spider": "cintas", "addr:full": "4081 Ryan Rd", "addr:city": "Gurnee", "addr:state": "IL", "addr:postcode": "60031", "addr:country": "US", "name": "Cintas", "phone": "414-329-9970", "brand": "Cintas", "brand:wikidata": "Q1092571"}, "geometry": {"type": "Point", "coordinates": [-87.9029846, 42.38963]}},
{"type": "Feature", "id": "VASUfFKuCJ9FhugTonm5RH9Vltc=", "properties": {"ref": "769", "@spider": "cintas", "addr:full": "1201 W St Charles Rd", "addr:city": "Maywood", "addr:state": "IL", "addr:postcode": "60153", "addr:country": "US", "name": "Cintas", "phone": "708-613-3100", "brand": "Cintas", "brand:wikidata": "Q1092571"}, "geometry": {"type": "Point", "coordinates": [-87.84769, 41.8886147]}},
{"type": "Feature", "id": "LWKw08xBfv4K201QLG0pFaWzjkM=", "properties": {"ref": "00F94", "@spider": "cintas", "addr:full": "11 Eisenhower Lane South", "addr:city": "Lombard", "addr:state": "IL", "addr:postcode": "60148", "addr:country": "US", "name": "Cintas", "phone": "630-978-0600", "brand": "Cintas", "brand:wikidata": "Q1092571"}, "geometry": {"type": "Point", "coordinates": [-88.0168152, 41.84061]}},
{"type": "Feature", "id": "ldnf7zZlmus6_f4tfzfqHeTSlY0=", "properties": {"ref": "0056F", "@spider": "cintas", "addr:full": "99-075 Koaha Way B", "addr:city": "Aiea", "addr:state": "HI", "addr:postcode": "96701", "addr:country": "US", "name": "Cintas", "phone": "808-670-3200", "brand": "Cintas", "brand:wikidata": "Q1092571"}, "geometry": {"type": "Point", "coordinates": [-157.901947, 21.37315]}},
{"type": "Feature", "id": "TyX3KoOUmDFqY1_ezGc2BYANcis=", "properties": {"ref": "00K99", "@spider": "cintas", "addr:full": "544 Ohohia St", "addr:city": "Honolulu", "addr:state": "HI", "addr:postcode": "96819", "addr:country": "US", "name": "Cintas", "phone": "808-834-2662", "brand": "Cintas", "brand:wikidata": "Q1092571"}, "geometry": {"type": "Point", "coordinates": [-157.908035, 21.3344364]}},
{"type": "Feature", "id": "_uA9nwTOh8a09TGBDmuZaAkB9DM=", "properties": {"ref": "220", "@spider": "cintas", "addr:full": "701 Harris Indl Blvd", "addr:city": "Vidalia", "addr:state": "GA", "addr:postcode": "30474", "addr:country": "US", "name": "Cintas", "phone": "912-537-9500", "brand": "Cintas", "brand:wikidata": "Q1092571"}, "geometry": {"type": "Point", "coordinates": [-82.3812561, 32.19784]}},
{"type": "Feature", "id": "U5_JqGEhrveaeuI69MSLQCujNLQ=", "properties": {"ref": "291", "@spider": "cintas", "addr:full": "720 South Powerline Rd Suite 1", "addr:city": "Deerfield Beach", "addr:state": "FL", "addr:postcode": "33442", "addr:country": "US", "name": "Cintas", "phone": "954-585-8080", "brand": "Cintas", "brand:wikidata": "Q1092571"}, "geometry": {"type": "Point", "coordinates": [-80.1516647, 26.306982]}},
{"type": "Feature", "id": "YHtdsPkSyeutgqqNCEqdsSUVfUU=", "properties": {"ref": "0049K", "@spider": "cintas", "addr:full": "3050 SW 42nd St", "addr:city": "Fort Lauderdale", "addr:state": "FL", "addr:postcode": "33312", "addr:country": "US", "name": "Cintas", "phone": "954-327-9400", "brand": "Cintas", "brand:wikidata": "Q1092571"}, "geometry": {"type": "Point", "coordinates": [-80.18664, 26.0688324]}},
{"type": "Feature", "id": "FyAZWiKR66XwtF26wi8J8lGvDiY=", "properties": {"ref": "00F62", "@spider": "cintas", "addr:full": "720 S Powerline Rd Suite 1", "addr:city": "Deerfield Beach", "addr:state": "FL", "addr:postcode": "33442", "addr:country": "US", "name": "Cintas", "phone": "954-585-8080", "brand": "Cintas", "brand:wikidata": "Q1092571"}, "geometry": {"type": "Point", "coordinates": [-80.1516647, 26.306982]}},
{"type": "Feature", "id": "x4InQacf-JUdEtafFogg55dD1H8=", "properties": {"ref": "66", "@spider": "cintas", "addr:full": "5495 Oswego", "addr:city": "Denver", "addr:state": "CO", "addr:postcode": "80239", "addr:country": "US", "name": "Cintas", "phone": "303-371-6631", "brand": "Cintas", "brand:wikidata": "Q1092571"}, "geometry": {"type": "Point", "coordinates": [-104.850845, 39.7951736]}},
{"type": "Feature", "id": "0S430UJjc2M09wn_f4tRCWKerOA=", "properties": {"ref": "0007K", "@spider": "cintas", "addr:full": "5100 Race Ct", "addr:city": "Denver", "addr:state": "CO", "addr:postcode": "80216", "addr:country": "US", "name": "Cintas", "phone": "303-390-0300", "brand": "Cintas", "brand:wikidata": "Q1092571"}, "geometry": {"type": "Point", "coordinates": [-104.964714, 39.7889252]}},
{"type": "Feature", "id": "qmb-fRHChlyi77zNywUV1q8ZEPM=", "properties": {"ref": "390", "@spider": "cintas", "addr:full": "1100 W 120th Ave Suite 500", "addr:city": "Westminster", "addr:state": "CO", "addr:postcode": "80234", "addr:country": "US", "name": "Cintas", "phone": "303-463-3210", "brand": "Cintas", "brand:wikidata": "Q1092571"}, "geometry": {"type": "Point", "coordinates": [-105.000061, 39.9101677]}},
{"type": "Feature", "id": "RlbJ-V9XZCblGZZklTCGvmCbW3M=", "properties": {"ref": "54", "@spider": "cintas", "addr:full": "777 139th Ave", "addr:city": "San Leandro", "addr:state": "CA", "addr:postcode": "94578", "addr:country": "US", "name": "Cintas", "phone": "510-352-6330", "brand": "Cintas", "brand:wikidata": "Q1092571"}, "geometry": {"type": "Point", "coordinates": [-122.14489, 37.7098465]}},
{"type": "Feature", "id": "LpSmmSMLgD-70hADGCUGSSQ5ZoI=", "properties": {"ref": "464", "@spider": "cintas", "addr:full": "370 Shaw Rd", "addr:city": "S San Francisco", "addr:state": "CA", "addr:postcode": "94080", "addr:country": "US", "name": "Cintas", "phone": "650-589-4300", "brand": "Cintas", "brand:wikidata": "Q1092571"}, "geometry": {"type": "Point", "coordinates": [-122.407074, 37.63573]}},
{"type": "Feature", "id": "GOQmdmpOs4tzhdOmgh-mpHQ7Og0=", "properties": {"ref": "0054K", "@spider": "cintas", "addr:full": "3444 Depot Rd", "addr:city": "Hayward", "addr:state": "CA", "addr:postcode": "94545", "addr:country": "US", "name": "Cintas", "phone": "510-293-5840", "brand": "Cintas", "brand:wikidata": "Q1092571"}, "geometry": {"type": "Point", "coordinates": [-122.126434, 37.637764]}},
{"type": "Feature", "id": "-_OPHOaxp_kzt82mEw1LJ7rbRhk=", "properties": {"ref": "65", "@spider": "cintas", "addr:full": "580 N Monitor Rd", "addr:city": "Springdale", "addr:state": "AR", "addr:postcode": "72764", "addr:country": "US", "name": "Cintas", "phone": "479-751-7934", "brand": "Cintas", "brand:wikidata": "Q1092571"}, "geometry": {"type": "Point", "coordinates": [-94.10389, 36.18872]}},
{"type": "Feature", "id": "As8EVNXrdWiabCkcXoW6DcW2elw=", "properties": {"ref": "445", "@spider": "cintas", "addr:full": "2201 N Forbes Blvd", "addr:city": "Tucson", "addr:state": "AZ", "addr:postcode": "85745", "addr:country": "US", "name": "Cintas", "phone": "520-745-2052", "brand": "Cintas", "brand:wikidata": "Q1092571"}, "geometry": {"type": "Point", "coordinates": [-110.995461, 32.24799]}},
{"type": "Feature", "id": "JLlnKM1NbubHWGSf5oio-xcexEE=", "properties": {"ref": "00F34", "@spider": "cintas", "addr:full": "4201 S Santa Rita St Suite 105", "addr:city": "Tucson", "addr:state": "AZ", "addr:postcode": "85714", "addr:country": "US", "name": "Cintas", "phone": "520-884-7979", "brand": "Cintas", "brand:wikidata": "Q1092571"}, "geometry": {"type": "Point", "coordinates": [-110.952805, 32.174572]}},
{"type": "Feature", "id": "dMIZRqOJLAnW4u2fwSi3BhUoXFA=", "properties": {"ref": "215", "@spider": "cintas", "addr:full": "3437 Kauloosa Ave", "addr:city": "Tuscaloosa", "addr:state": "AL", "addr:postcode": "35401", "addr:country": "US", "name": "Cintas", "phone": "205-345-1686", "brand": "Cintas", "brand:wikidata": "Q1092571"}, "geometry": {"type": "Point", "coordinates": [-87.56271, 33.1800079]}},
{"type": "Feature", "id": "cPmWAa5oj-nMF7-zP8rX1XrfZZ4=", "properties": {"ref": "0001M", "@spider": "cintas", "addr:full": "1141 Emory Folmar Blvd", "addr:city": "Montgomery", "addr:state": "AL", "addr:postcode": "36110", "addr:country": "US", "name": "Cintas", "phone": "334-260-2880", "brand": "Cintas", "brand:wikidata": "Q1092571"}, "geometry": {"type": "Point", "coordinates": [-86.25911, 32.4137764]}},
{"type": "Feature", "id": "zU8r5NAew37U9OpAo4-d-NXjTLI=", "properties": {"ref": "211", "@spider": "cintas", "addr:full": "5679 Commerce Blvd E", "addr:city": "Mobile", "addr:state": "AL", "addr:postcode": "36619", "addr:country": "US", "name": "Cintas", "phone": "251-443-7301", "brand": "Cintas", "brand:wikidata": "Q1092571"}, "geometry": {"type": "Point", "coordinates": [-88.14082, 30.5730419]}},
{"type": "Feature", "id": "yZ8GugL6ErkN5Kddbea2WS8Iz9o=", "properties": {"ref": "746", "@spider": "cintas", "addr:full": "1209 Airport Industrial Dr", "addr:city": "Gadsden", "addr:state": "AL", "addr:postcode": "35904", "addr:country": "US", "name": "Cintas", "phone": "256-494-0500", "brand": "Cintas", "brand:wikidata": "Q1092571"}, "geometry": {"type": "Point", "coordinates": [-86.09006, 33.98953]}},
{"type": "Feature", "id": "J0yxw5etiYSvu6UMFJ7Rf4RR7QE=", "properties": {"ref": "0002M", "@spider": "cintas", "addr:full": "201 Vulcan Way", "addr:city": "Dothan", "addr:state": "AL", "addr:postcode": "36303", "addr:country": "US", "name": "Cintas", "phone": "334-673-4990", "brand": "Cintas", "brand:wikidata": "Q1092571"}, "geometry": {"type": "Point", "coordinates": [-85.3734055, 31.24334]}},
{"type": "Feature", "id": "7WrSWVpJlxW-HuFo92EOvtQzitA=", "properties": {"ref": "0031K", "@spider": "cintas", "addr:full": "9467 E Valley Rd", "addr:city": "Prescott Valley", "addr:state": "AZ", "addr:postcode": "86314", "addr:country": "US", "name": "Cintas", "phone": "928-772-4945", "brand": "Cintas", "brand:wikidata": "Q1092571"}, "geometry": {"type": "Point", "coordinates": [-112.299782, 34.58365]}},
{"type": "Feature", "id": "jJBy0ZmxHTciK8FXHqtIoau8UoI=", "properties": {"ref": "00F33", "@spider": "cintas", "addr:full": "6724 Corsair Dr", "addr:city": "Prescott", "addr:state": "AZ", "addr:postcode": "86301", "addr:country": "US", "name": "Cintas", "phone": "623-939-7979", "brand": "Cintas", "brand:wikidata": "Q1092571"}, "geometry": {"type": "Point", "coordinates": [-112.410011, 34.6530037]}},
{"type": "Feature", "id": "oTwVZola4viB0t06K3CFqMfOry8=", "properties": {"ref": "182", "@spider": "cintas", "addr:full": "23345 N 23rd Ave Suite 170", "addr:city": "Phoenix", "addr:state": "AZ", "addr:postcode": "85027", "addr:country": "US", "name": "Cintas", "phone": "480-557-0500", "brand": "Cintas", "brand:wikidata": "Q1092571"}, "geometry": {"type": "Point", "coordinates": [-112.1066, 33.6974258]}},
{"type": "Feature", "id": "aLeReb14DyKtBM88VRmOjiNQ3-s=", "properties": {"ref": "466", "@spider": "cintas", "addr:full": "5501 W Hadley St", "addr:city": "Phoenix", "addr:state": "AZ", "addr:postcode": "85043", "addr:country": "US", "name": "Cintas", "phone": "602-415-1227", "brand": "Cintas", "brand:wikidata": "Q1092571"}, "geometry": {"type": "Point", "coordinates": [-112.178513, 33.43934]}},
{"type": "Feature", "id": "JKcVAdolja0YcjrHzsdy2Az2y1Y=", "properties": {"ref": "0064K", "@spider": "cintas", "addr:full": "4804 W Roosevelt Street", "addr:city": "Phoenix", "addr:state": "AZ", "addr:postcode": "85043", "addr:country": "US", "name": "Cintas", "phone": "602-353-3100", "brand": "Cintas", "brand:wikidata": "Q1092571"}, "geometry": {"type": "Point", "coordinates": [-112.163795, 33.4614067]}},
{"type": "Feature", "id": "K1xxm8oSOi2eQiJmHHR3mAY0JyA=", "properties": {"ref": "00D53", "@spider": "cintas", "addr:full": "2929 W Clarendon Ave", "addr:city": "Phoenix", "addr:state": "AZ", "addr:postcode": "85017", "addr:country": "US", "name": "Cintas", "phone": "623-939-7979", "brand": "Cintas", "brand:wikidata": "Q1092571"}, "geometry": {"type": "Point", "coordinates": [-112.12281, 33.4917145]}},
{"type": "Feature", "id": "OZFqMA9qEjb2DKaWPsjQGLCKXpA=", "properties": {"ref": "696", "@spider": "cintas", "addr:full": "2425 North Nevada St", "addr:city": "Chandler", "addr:state": "AZ", "addr:postcode": "85225", "addr:country": "US", "name": "Cintas", "phone": "480-968-5691", "brand": "Cintas", "brand:wikidata": "Q1092571"}, "geometry": {"type": "Point", "coordinates": [-111.834412, 33.3415527]}},
{"type": "Feature", "id": "NX9ohPtbNlyygZAAEz-nJ6GjLj8=", "properties": {"ref": "00F35", "@spider": "cintas", "addr:full": "790 N Lake Havasu", "addr:city": "Lake Havasu City", "addr:state": "AZ", "addr:postcode": "86403", "addr:country": "US", "name": "Cintas", "phone": "623-939-7979", "brand": "Cintas", "brand:wikidata": "Q1092571"}, "geometry": {"type": "Point", "coordinates": [-114.3471, 34.4985275]}},
{"type": "Feature", "id": "FicB-0rSr-9EoboVKUM_mmB8GIo=", "properties": {"ref": "650", "@spider": "cintas", "addr:full": "101 W Beebe Capps", "addr:city": "Searcy", "addr:state": "AR", "addr:postcode": "72143", "addr:country": "US", "name": "Cintas", "phone": "501-268-8614", "brand": "Cintas", "brand:wikidata": "Q1092571"}, "geometry": {"type": "Point", "coordinates": [-91.7377853, 35.24361]}},
{"type": "Feature", "id": "68Un_qimptW6hNENiBAa81RiE60=", "properties": {"ref": "295", "@spider": "cintas", "addr:full": "102 Champs Blvd", "addr:city": "Maumelle", "addr:state": "AR", "addr:postcode": "72113", "addr:country": "US", "name": "Cintas", "phone": "501-753-8998", "brand": "Cintas", "brand:wikidata": "Q1092571"}, "geometry": {"type": "Point", "coordinates": [-92.392, 34.8671]}},
{"type": "Feature", "id": "X6Sub0bV8KEQNfYV3QvzPJC1CLU=", "properties": {"ref": "0004M", "@spider": "cintas", "addr:full": "5271 Highway 1 South", "addr:city": "Jonesboro", "addr:state": "AR", "addr:postcode": "72404", "addr:country": "US", "name": "Cintas", "phone": "870-935-4000", "brand": "Cintas", "brand:wikidata": "Q1092571"}, "geometry": {"type": "Point", "coordinates": [-90.6925354, 35.7507629]}},
{"type": "Feature", "id": "ONzq8KMPpOFD4fNWozJPjSJMnhQ=", "properties": {"ref": "572", "@spider": "cintas", "addr:full": "1724 Airport Rd", "addr:city": "Harrison", "addr:state": "AR", "addr:postcode": "72601", "addr:country": "US", "name": "Cintas", "phone": "870-741-4721", "brand": "Cintas", "brand:wikidata": "Q1092571"}, "geometry": {"type": "Point", "coordinates": [-93.1538849, 36.2497063]}},
{"type": "Feature", "id": "ixA5O9Ry3H4ovnFw6k-Xf58ZP44=", "properties": {"ref": "49", "@spider": "cintas", "addr:full": "8100 Highway 45 S", "addr:city": "Ft Smith", "addr:state": "AR", "addr:postcode": "72916", "addr:country": "US", "name": "Cintas", "phone": "479-646-9647", "brand": "Cintas", "brand:wikidata": "Q1092571"}, "geometry": {"type": "Point", "coordinates": [-94.41909, 35.2298355]}},
{"type": "Feature", "id": "w6HxygE-x2FPX99Q7SOgWsPXfZA=", "properties": {"ref": "0069H", "@spider": "cintas", "addr:full": "8100 Highway 45 S", "addr:city": "Fort Smith", "addr:state": "AR", "addr:postcode": "72916", "addr:country": "US", "name": "Cintas", "phone": "501-734-2415", "brand": "Cintas", "brand:wikidata": "Q1092571"}, "geometry": {"type": "Point", "coordinates": [-94.41909, 35.2298355]}},
{"type": "Feature", "id": "KHBmVi1n8zvbFmlThcvnAPameZE=", "properties": {"ref": "53", "@spider": "cintas", "addr:full": "7735 S Paramount Blvd", "addr:city": "Pico Rivera", "addr:state": "CA", "addr:postcode": "90660", "addr:country": "US", "name": "Cintas", "phone": "562-368-3200", "brand": "Cintas", "brand:wikidata": "Q1092571"}, "geometry": {"type": "Point", "coordinates": [-118.111992, 33.97673]}},
{"type": "Feature", "id": "iCuDv0WL6jhipxlH35qv8cHHc7g=", "properties": {"ref": "150", "@spider": "cintas", "addr:full": "2150 S Proforma Ave", "addr:city": "Ontario", "addr:state": "CA", "addr:postcode": "91761", "addr:country": "US", "name": "Cintas", "phone": "909-930-9096", "brand": "Cintas", "brand:wikidata": "Q1092571"}, "geometry": {"type": "Point", "coordinates": [-117.597092, 34.03682]}},
{"type": "Feature", "id": "U7y3Yj8kZGxlXMa_ZZPbIJjDYuo=", "properties": {"ref": "168", "@spider": "cintas", "addr:full": "4320 E Miraloma Ave", "addr:city": "Anaheim", "addr:state": "CA", "addr:postcode": "92807", "addr:country": "US", "name": "Cintas", "phone": "714-288-8400", "brand": "Cintas", "brand:wikidata": "Q1092571"}, "geometry": {"type": "Point", "coordinates": [-117.822075, 33.86156]}},
{"type": "Feature", "id": "qg0R-PhgCNMp3eE_EGDO0rUAr1w=", "properties": {"ref": "426", "@spider": "cintas", "addr:full": "20100 S Susana Rd", "addr:city": "Compton", "addr:state": "CA", "addr:postcode": "90221", "addr:country": "US", "name": "Cintas", "phone": "310-725-2850", "brand": "Cintas", "brand:wikidata": "Q1092571"}, "geometry": {"type": "Point", "coordinates": [-118.205971, 33.8494873]}},
{"type": "Feature", "id": "LlS-FSYUktqeXYQliHMQvkF49RE=", "properties": {"ref": "0044K", "@spider": "cintas", "addr:full": "14700 Spring Ave", "addr:city": "Santa Fe Springs", "addr:state": "CA", "addr:postcode": "90670", "addr:country": "US", "name": "Cintas", "phone": "562-921-3505", "brand": "Cintas", "brand:wikidata": "Q1092571"}, "geometry": {"type": "Point", "coordinates": [-118.03965, 33.8980865]}},
{"type": "Feature", "id": "F3z0yRsFwwJnaF-wLpmaWRmnGbU=", "properties": {"ref": "0052K", "@spider": "cintas", "addr:full": "10943 Pendleton St", "addr:city": "Sun Valley", "addr:state": "CA", "addr:postcode": "91352", "addr:country": "US", "name": "Cintas", "phone": "818-768-0477", "brand": "Cintas", "brand:wikidata": "Q1092571"}, "geometry": {"type": "Point", "coordinates": [-118.370285, 34.2407074]}},
{"type": "Feature", "id": "IQnjAolIR0QSWLaRkcmAxjR8v1E=", "properties": {"ref": "693", "@spider": "cintas", "addr:full": "2829 Workman Mill Rd", "addr:city": "Whittier", "addr:state": "CA", "addr:postcode": "90601", "addr:country": "US", "name": "Cintas", "phone": "562-692-8741", "brand": "Cintas", "brand:wikidata": "Q1092571"}, "geometry": {"type": "Point", "coordinates": [-118.031143, 34.02719]}},
{"type": "Feature", "id": "6Iy97lAJDAxpowMypbKPUz9agic=", "properties": {"ref": "0069G", "@spider": "cintas", "addr:full": "14510 Garfield Ave", "addr:city": "Paramount", "addr:state": "CA", "addr:postcode": "90723", "addr:country": "US", "name": "Cintas", "phone": "424-785-0090", "brand": "Cintas", "brand:wikidata": "Q1092571"}, "geometry": {"type": "Point", "coordinates": [-118.165932, 33.9016151]}},
{"type": "Feature", "id": "ayw87JNXeNg_o_4OWWZvrvwXklo=", "properties": {"ref": "0069P", "@spider": "cintas", "addr:full": "1460 S Carlos Ave", "addr:city": "Ontario", "addr:state": "CA", "addr:postcode": "91761", "addr:country": "US", "name": "Cintas", "phone": "909-295-7080", "brand": "Cintas", "brand:wikidata": "Q1092571"}, "geometry": {"type": "Point", "coordinates": [-117.6069, 34.0475426]}},
{"type": "Feature", "id": "Ow_husKhuDGAhvLZMG1oU78Zac0=", "properties": {"ref": "55", "@spider": "cintas", "addr:full": "460 W California Ave", "addr:city": "Vista", "addr:state": "CA", "addr:postcode": "92083", "addr:country": "US", "name": "Cintas", "phone": "760-941-8422", "brand": "Cintas", "brand:wikidata": "Q1092571"}, "geometry": {"type": "Point", "coordinates": [-117.251167, 33.20788]}},
{"type": "Feature", "id": "B_meyxbELmHVTN6NxOEyVX3d0RA=", "properties": {"ref": "684", "@spider": "cintas", "addr:full": "28311 Kelly Johnson Pkwy", "addr:city": "Valencia", "addr:state": "CA", "addr:postcode": "91355", "addr:country": "US", "name": "Cintas", "phone": "661-310-7400", "brand": "Cintas", "brand:wikidata": "Q1092571"}, "geometry": {"type": "Point", "coordinates": [-118.580437, 34.4500732]}},
{"type": "Feature", "id": "7bJK4VMQgEOOqoPzxvthexuL__g=", "properties": {"ref": "640", "@spider": "cintas", "addr:full": "14792 Franklin Ave", "addr:city": "Tustin", "addr:state": "CA", "addr:postcode": "92780", "addr:country": "US", "name": "Cintas", "phone": "714-639-8577", "brand": "Cintas", "brand:wikidata": "Q1092571"}, "geometry": {"type": "Point", "coordinates": [-117.810165, 33.7142868]}},
{"type": "Feature", "id": "PFSFTq8daEd7zRElSBiVURW0VwY=", "properties": {"ref": "922", "@spider": "cintas", "addr:full": "1877 Industrial Dr", "addr:city": "Stockton", "addr:state": "CA", "addr:postcode": "95206", "addr:country": "US", "name": "Cintas", "phone": "209-922-0500", "brand": "Cintas", "brand:wikidata": "Q1092571"}, "geometry": {"type": "Point", "coordinates": [-121.249474, 37.91246]}},
{"type": "Feature", "id": "VE5BXU5c0m73uH6uKpHiv_C7_qA=", "properties": {"ref": "626", "@spider": "cintas", "addr:full": "975 Corp Center Pkwy Suite 135", "addr:city": "Santa Rosa", "addr:state": "CA", "addr:postcode": "95407", "addr:country": "US", "name": "Cintas", "phone": "707-568-6150", "brand": "Cintas", "brand:wikidata": "Q1092571"}, "geometry": {"type": "Point", "coordinates": [-122.753952, 38.4237633]}},
{"type": "Feature", "id": "F9uC-V1-G4sZCzq-GFmTyZUt6Ro=", "properties": {"ref": "0051P", "@spider": "cintas", "addr:full": "48400 Fremont Blvd", "addr:city": "Fremont", "addr:state": "CA", "addr:postcode": "94538", "addr:country": "US", "name": "Cintas", "phone": "408-834-4381", "brand": "Cintas", "brand:wikidata": "Q1092571"}, "geometry": {"type": "Point", "coordinates": [-121.931305, 37.4655342]}},
{"type": "Feature", "id": "NGxJaanweTZqRCH4R2Pjw_jOT4U=", "properties": {"ref": "0020D", "@spider": "cintas", "addr:full": "8254 Ronson Rd", "addr:city": "San Diego", "addr:state": "CA", "addr:postcode": "92111", "addr:country": "US", "name": "Cintas", "phone": "858-495-2335", "brand": "Cintas", "brand:wikidata": "Q1092571"}, "geometry": {"type": "Point", "coordinates": [-117.144814, 32.8294144]}},
{"type": "Feature", "id": "K1urFL4nMRf0peE4-7Y2WvJxXUc=", "properties": {"ref": "694", "@spider": "cintas", "addr:full": "675  32nd St", "addr:city": "San Diego", "addr:state": "CA", "addr:postcode": "92102", "addr:country": "US", "name": "Cintas", "phone": "619-239-1001", "brand": "Cintas", "brand:wikidata": "Q1092571"}, "geometry": {"type": "Point", "coordinates": [-117.124725, 32.7130165]}},
{"type": "Feature", "id": "H7xC-d_Z4ZQ65PX3Gk94NgYxsgs=", "properties": {"ref": "169", "@spider": "cintas", "addr:full": "1200 Del Paso Rd", "addr:city": "Sacramento", "addr:state": "CA", "addr:postcode": "95834", "addr:country": "US", "name": "Cintas", "phone": "916-419-1099", "brand": "Cintas", "brand:wikidata": "Q1092571"}, "geometry": {"type": "Point", "coordinates": [-121.489265, 38.6555443]}},
{"type": "Feature", "id": "lrpXsSiChslBayW3DWINoPI6WMw=", "properties": {"ref": "0039K", "@spider": "cintas", "addr:full": "5900 Alder Ave", "addr:city": "Sacramento", "addr:state": "CA", "addr:postcode": "95828", "addr:country": "US", "name": "Cintas", "phone": "916-381-5995", "brand": "Cintas", "brand:wikidata": "Q1092571"}, "geometry": {"type": "Point", "coordinates": [-121.373062, 38.5187378]}},
{"type": "Feature", "id": "GFO7FTvS7wJq_tHJnFLQySo7zhg=", "properties": {"ref": "622", "@spider": "cintas", "addr:full": "1231 National Dr", "addr:city": "Sacramento", "addr:state": "Ca", "addr:postcode": "95834", "addr:country": "US", "name": "Cintas", "phone": "916-576-2850", "brand": "Cintas", "brand:wikidata": "Q1092571"}, "geometry": {"type": "Point", "coordinates": [-121.489357, 38.6442]}},
{"type": "Feature", "id": "GRcTbG9xHBl0966-Bg2JSskk90Y=", "properties": {"ref": "0038K", "@spider": "cintas", "addr:full": "1229 California Ave", "addr:city": "Pittsburg", "addr:state": "CA", "addr:postcode": "94565", "addr:country": "US", "name": "Cintas", "phone": "925-427-4401", "brand": "Cintas", "brand:wikidata": "Q1092571"}, "geometry": {"type": "Point", "coordinates": [-121.86631, 38.01599]}},
{"type": "Feature", "id": "qzUqB17OJmEYOvgiZaalyAhshEI=", "properties": {"ref": "0081P", "@spider": "cintas", "addr:full": "500 E 3rd St", "addr:city": "Oxnard", "addr:state": "CA", "addr:postcode": "93030", "addr:country": "US", "name": "Cintas", "phone": "661-310-7400", "brand": "Cintas", "brand:wikidata": "Q1092571"}, "geometry": {"type": "Point", "coordinates": [-119.174408, 34.1992455]}},
{"type": "Feature", "id": "adWrXsRo_xRf2kp6ReqrNtOWoGI=", "properties": {"ref": "698", "@spider": "cintas", "addr:full": "1851 S Wineville Ave", "addr:city": "Ontario", "addr:state": "CA", "addr:postcode": "91761", "addr:country": "US", "name": "Cintas", "phone": "909-390-4912", "brand": "Cintas", "brand:wikidata": "Q1092571"}, "geometry": {"type": "Point", "coordinates": [-117.541054, 34.04018]}},
{"type": "Feature", "id": "KCej2zc4k1scvyzY5sEaE1wYFZg=", "properties": {"ref": "630", "@spider": "cintas", "addr:full": "904 Holloway Rd", "addr:city": "Gilroy", "addr:state": "CA", "addr:postcode": "95020", "addr:country": "US", "name": "Cintas", "phone": "408-848-1023", "brand": "Cintas", "brand:wikidata": "Q1092571"}, "geometry": {"type": "Point", "coordinates": [-121.5469, 37.0002975]}},
{"type": "Feature", "id": "H8Ykk3x4EA74jNsGV5SuolFOQmk=", "properties": {"ref": "621", "@spider": "cintas", "addr:full": "2920 SE Ave", "addr:city": "Fresno", "addr:state": "CA", "addr:postcode": "93725", "addr:country": "US", "name": "Cintas", "phone": "559-457-0183", "brand": "Cintas", "brand:wikidata": "Q1092571"}, "geometry": {"type": "Point", "coordinates": [-119.773636, 36.69534]}},
{"type": "Feature", "id": "iUewzPxI7NghUHiM4inEl6GL4QA=", "properties": {"ref": "668", "@spider": "cintas", "addr:full": "5500 Young St", "addr:city": "Bakersfield", "addr:state": "CA", "addr:postcode": "93311", "addr:country": "US", "name": "Cintas", "phone": "661-282-4300", "brand": "Cintas", "brand:wikidata": "Q1092571"}, "geometry": {"type": "Point", "coordinates": [-119.097809, 35.3056831]}},
{"type": "Feature", "id": "c59YTvs1nTi9ugPSAeGddEz5fY4=", "properties": {"ref": "0021K", "@spider": "cintas", "addr:full": "1000 So Lincoln Ave", "addr:city": "Loveland", "addr:state": "CO", "addr:postcode": "80537", "addr:country": "US", "name": "Cintas", "phone": "970-593-9767", "brand": "Cintas", "brand:wikidata": "Q1092571"}, "geometry": {"type": "Point", "coordinates": [-105.072456, 40.381546]}},
{"type": "Feature", "id": "hTA7fsKoSSe8wvwKj3yoWRcVC7M=", "properties": {"ref": "737", "@spider": "cintas", "addr:full": "523  10th St", "addr:city": "Greeley", "addr:state": "CO", "addr:postcode": "80631", "addr:country": "US", "name": "Cintas", "phone": "970-352-2233", "brand": "Cintas", "brand:wikidata": "Q1092571"}, "geometry": {"type": "Point", "coordinates": [-104.686661, 40.4228668]}},
{"type": "Feature", "id": "gjjhW1eoo2u2QvSGmvvbQ606HDw=", "properties": {"ref": "562", "@spider": "cintas", "addr:full": "2850 N El Paso St Bldg B", "addr:city": "Colorado Springs", "addr:state": "CO", "addr:postcode": "80907", "addr:country": "US", "name": "Cintas", "phone": "719-636-2629", "brand": "Cintas", "brand:wikidata": "Q1092571"}, "geometry": {"type": "Point", "coordinates": [-104.814178, 38.87174]}},
{"type": "Feature", "id": "lIiW09KxTAWnuPo79YOaZXzTiME=", "properties": {"ref": "00F47", "@spider": "cintas", "addr:full": "880 Elkton Dr", "addr:city": "Colorado Springs", "addr:state": "CO", "addr:postcode": "80907", "addr:country": "US", "name": "Cintas", "phone": "719-590-9191", "brand": "Cintas", "brand:wikidata": "Q1092571"}, "geometry": {"type": "Point", "coordinates": [-104.842819, 38.9030151]}},
{"type": "Feature", "id": "FGRHov5HHTp8tNVDDq33Xc5G4jw=", "properties": {"ref": "283", "@spider": "cintas", "addr:full": "2401 Vista Pkwy", "addr:city": "West Palm Beach", "addr:state": "FL", "addr:postcode": "33411", "addr:country": "US", "name": "Cintas", "phone": "561-686-1444", "brand": "Cintas", "brand:wikidata": "Q1092571"}, "geometry": {"type": "Point", "coordinates": [-80.14556, 26.72141]}},
{"type": "Feature", "id": "va_supOHhsdYfJXsGMsonf5RCXI=", "properties": {"ref": "69", "@spider": "cintas", "addr:full": "9300 MCI Drive N", "addr:city": "Pinellas Park", "addr:state": "FL", "addr:postcode": "33782", "addr:country": "US", "name": "Cintas", "phone": "727-578-3300", "brand": "Cintas", "brand:wikidata": "Q1092571"}, "geometry": {"type": "Point", "coordinates": [-82.67888, 27.8564243]}},
{"type": "Feature", "id": "saTkTH24xFsZyErUN_Osrksk5Ds=", "properties": {"ref": "74", "@spider": "cintas", "addr:full": "7101 Parke E Blvd", "addr:city": "Tampa", "addr:state": "FL", "addr:postcode": "33610", "addr:country": "US", "name": "Cintas", "phone": "813-623-3474", "brand": "Cintas", "brand:wikidata": "Q1092571"}, "geometry": {"type": "Point", "coordinates": [-82.37474, 28.0003376]}},
{"type": "Feature", "id": "MuhMZBB8CQyJANnmm4EO-dOF2Ag=", "properties": {"ref": "0051K", "@spider": "cintas", "addr:full": "3735 Corporex Park Dr", "addr:city": "Tampa", "addr:state": "FL", "addr:postcode": "33619", "addr:country": "US", "name": "Cintas", "phone": "813-620-4042", "brand": "Cintas", "brand:wikidata": "Q1092571"}, "geometry": {"type": "Point", "coordinates": [-82.37791, 27.9773235]}},
{"type": "Feature", "id": "_6vwGmGlM-GmntF7GQw4KuFEXRI=", "properties": {"ref": "00F32", "@spider": "cintas", "addr:full": "9203 King Palm Dr", "addr:city": "Tampa", "addr:state": "FL", "addr:postcode": "33619", "addr:country": "US", "name": "Cintas", "phone": "813-621-6094", "brand": "Cintas", "brand:wikidata": "Q1092571"}, "geometry": {"type": "Point", "coordinates": [-82.3491745, 27.9760017]}},
{"type": "Feature", "id": "sNbtPVDZtDg_FxJl8kZcLaxIGGw=", "properties": {"ref": "00F48", "@spider": "cintas", "addr:full": "9318 Florida Palm Dr", "addr:city": "Tampa", "addr:state": "FL", "addr:postcode": "33619", "addr:country": "US", "name": "Cintas", "phone": "813-247-4444", "brand": "Cintas", "brand:wikidata": "Q1092571"}, "geometry": {"type": "Point", "coordinates": [-82.3501053, 27.9455833]}},
{"type": "Feature", "id": "Mc_K6SUfkMnJqFs3ivdMxwSyvLA=", "properties": {"ref": "00F63", "@spider": "cintas", "addr:full": "501 Haverty Ct STE A", "addr:city": "Rockledge", "addr:state": "FL", "addr:postcode": "32955", "addr:country": "US", "name": "Cintas", "phone": "321-783-1040", "brand": "Cintas", "brand:wikidata": "Q1092571"}, "geometry": {"type": "Point", "coordinates": [-80.71858, 28.315424]}},
{"type": "Feature", "id": "rKZXKvRnfFrSDRY4Inc1l2vEnoY=", "properties": {"ref": "612", "@spider": "cintas", "addr:full": "18907 Maranatha Way", "addr:city": "Bridgeville", "addr:state": "DE", "addr:postcode": "19933", "addr:country": "US", "name": "Cintas", "phone": "302-628-2690", "brand": "Cintas", "brand:wikidata": "Q1092571"}, "geometry": {"type": "Point", "coordinates": [-75.58597, 38.728447]}},
{"type": "Feature", "id": "7DAOmw-NXxYC_o0Vp2OTR21YfX4=", "properties": {"ref": "293", "@spider": "cintas", "addr:full": "8781 Paul Starr Dr", "addr:city": "Pensacola", "addr:state": "FL", "addr:postcode": "32514", "addr:country": "US", "name": "Cintas", "phone": "850-477-6601", "brand": "Cintas", "brand:wikidata": "Q1092571"}, "geometry": {"type": "Point", "coordinates": [-87.19848, 30.5223446]}},
{"type": "Feature", "id": "UCtZgtOB3fTgucHry2bpjdYYj4o=", "properties": {"ref": "17", "@spider": "cintas", "addr:full": "1111 NW 209th Ave", "addr:city": "Pembroke Pines", "addr:state": "FL", "addr:postcode": "33029", "addr:country": "US", "name": "Cintas", "phone": "954-433-5000", "brand": "Cintas", "brand:wikidata": "Q1092571"}, "geometry": {"type": "Point", "coordinates": [-80.42874, 26.0186768]}},
{"type": "Feature", "id": "kKj6Co27ieT5ZgGm3j1Hew90jVQ=", "properties": {"ref": "73", "@spider": "cintas", "addr:full": "4392 34th St", "addr:city": "Orlando", "addr:state": "FL", "addr:postcode": "32811", "addr:country": "US", "name": "Cintas", "phone": "407-423-4222", "brand": "Cintas", "brand:wikidata": "Q1092571"}, "geometry": {"type": "Point", "coordinates": [-81.43382, 28.5052567]}},
{"type": "Feature", "id": "IoUF0DwPPjDwsMsY6hJggyYv8Uc=", "properties": {"ref": "0013G", "@spider": "cintas", "addr:full": "10805 Southport Dr Suite 6", "addr:city": "Orlando", "addr:state": "FL", "addr:postcode": "32824", "addr:country": "US", "name": "Cintas", "phone": "407-545-8867", "brand": "Cintas", "brand:wikidata": "Q1092571"}, "geometry": {"type": "Point", "coordinates": [-81.37002, 28.4100342]}},
{"type": "Feature", "id": "Ew0gGHn0vWw89XUIhc2hbnoNPmc=", "properties": {"ref": "0058K", "@spider": "cintas", "addr:full": "1150 Emma Oaks Trail Suite 150", "addr:city": "Lake Mary", "addr:state": "FL", "addr:postcode": "32746", "addr:country": "US", "name": "Cintas", "phone": "407-351-5435", "brand": "Cintas", "brand:wikidata": "Q1092571"}, "geometry": {"type": "Point", "coordinates": [-81.36542, 28.7322578]}},
{"type": "Feature", "id": "V3mEFP7XQLX4nNNG5Lw4DuALUCs=", "properties": {"ref": "280", "@spider": "cintas", "addr:full": "1595 Transport Ct", "addr:city": "Jacksonville", "addr:state": "FL", "addr:postcode": "32218", "addr:country": "US", "name": "Cintas", "phone": "904-741-4525", "brand": "Cintas", "brand:wikidata": "Q1092571"}, "geometry": {"type": "Point", "coordinates": [-81.66326, 30.4720516]}},
{"type": "Feature", "id": "6bOdqofDTb_0HTdzDX-tMgS_8AI=", "properties": {"ref": "292", "@spider": "cintas", "addr:full": "7251 Salisburry Rd  1", "addr:city": "Jacksonville", "addr:state": "FL", "addr:postcode": "32256", "addr:country": "US", "name": "Cintas", "phone": "904-562-7000", "brand": "Cintas", "brand:wikidata": "Q1092571"}, "geometry": {"type": "Point", "coordinates": [-81.58179, 30.2400513]}},
{"type": "Feature", "id": "o4oUSy6lnqx8JtqS8zE24yEGXUE=", "properties": {"ref": "00F61", "@spider": "cintas", "addr:full": "7251 Salisbury", "addr:city": "Jacksonville", "addr:state": "FL", "addr:postcode": "32256", "addr:country": "US", "name": "Cintas", "phone": "904-562-7000", "brand": "Cintas", "brand:wikidata": "Q1092571"}, "geometry": {"type": "Point", "coordinates": [-81.58179, 30.2400513]}},
{"type": "Feature", "id": "YWLAassTMMhG3bizGRtnjkUzEVA=", "properties": {"ref": "294", "@spider": "cintas", "addr:full": "12650 Westlinks Dr", "addr:city": "Fort Myers", "addr:state": "FL", "addr:postcode": "33913", "addr:country": "US", "name": "Cintas", "phone": "239-561-7873", "brand": "Cintas", "brand:wikidata": "Q1092571"}, "geometry": {"type": "Point", "coordinates": [-81.75759, 26.55876]}},
{"type": "Feature", "id": "YPAETa63yhL9-hNtE0pKq21N7ag=", "properties": {"ref": "00F24", "@spider": "cintas", "addr:full": "12771 Westlinks Dr", "addr:city": "Ft Myers", "addr:state": "FL", "addr:postcode": "33913", "addr:country": "US", "name": "Cintas", "phone": "239-693-8722", "brand": "Cintas", "brand:wikidata": "Q1092571"}, "geometry": {"type": "Point", "coordinates": [-81.75486, 26.5558567]}},
{"type": "Feature", "id": "IqMfifYLm85bhxRvaLk1gM6poVo=", "properties": {"ref": "149", "@spider": "cintas", "addr:full": "1844 Holsonback Dr", "addr:city": "Daytona Beach", "addr:state": "FL", "addr:postcode": "32117", "addr:country": "US", "name": "Cintas", "phone": "386-274-2715", "brand": "Cintas", "brand:wikidata": "Q1092571"}, "geometry": {"type": "Point", "coordinates": [-81.07848, 29.21463]}},
{"type": "Feature", "id": "l-pdIhrHHgf4f9Bk5JsTQQDuTvA=", "properties": {"ref": "148", "@spider": "cintas", "addr:full": "11600 NW 173rd St", "addr:city": "Alachua", "addr:state": "FL", "addr:postcode": "32615", "addr:country": "US", "name": "Cintas", "phone": "386-418-0022", "brand": "Cintas", "brand:wikidata": "Q1092571"}, "geometry": {"type": "Point", "coordinates": [-82.5278854, 29.76286]}},
{"type": "Feature", "id": "cZUIlrmbPqZ3W2Kblzup1sVJ-zo=", "properties": {"ref": "237", "@spider": "cintas", "addr:full": "112 Coleman Blvd", "addr:city": "Savannah", "addr:state": "GA", "addr:postcode": "31408", "addr:country": "US", "name": "Cintas", "phone": "912-748-1305", "brand": "Cintas", "brand:wikidata": "Q1092571"}, "geometry": {"type": "Point", "coordinates": [-81.22321, 32.11385]}},
{"type": "Feature", "id": "mrkuzObEC4mKj61vjAZ0FoIHKVY=", "properties": {"ref": "71", "@spider": "cintas", "addr:full": "3600 Kennesaw", "addr:city": "Kennesaw", "addr:state": "GA", "addr:postcode": "30144", "addr:country": "US", "name": "Cintas", "phone": "770-635-0661", "brand": "Cintas", "brand:wikidata": "Q1092571"}, "geometry": {"type": "Point", "coordinates": [-84.62228, 34.01822]}},
{"type": "Feature", "id": "_aPnvFHsTkt9_81_j-eyFeGawQs=", "properties": {"ref": "201", "@spider": "cintas", "addr:full": "5180 Panola Industrial Rd", "addr:city": "Decatur", "addr:state": "GA", "addr:postcode": "30035", "addr:country": "US", "name": "Cintas", "phone": "770-987-3007", "brand": "Cintas", "brand:wikidata": "Q1092571"}, "geometry": {"type": "Point", "coordinates": [-84.1783752, 33.7057076]}},
{"type": "Feature", "id": "Yvo3hOr8g-Y7sZDCU1hJ1m-xNj8=", "properties": {"ref": "227", "@spider": "cintas", "addr:full": "1705 Corporate Dr", "addr:city": "Norcross", "addr:state": "GA", "addr:postcode": "30093", "addr:country": "US", "name": "Cintas", "phone": "770-333-9988", "brand": "Cintas", "brand:wikidata": "Q1092571"}, "geometry": {"type": "Point", "coordinates": [-84.14376, 33.94036]}},
{"type": "Feature", "id": "QYAqx70kC5gLxK2HVF2y2E_3_vI=", "properties": {"ref": "0026P", "@spider": "cintas", "addr:full": "422 Thornton Rd Suite 109", "addr:city": "Lithia Springs", "addr:state": "GA", "addr:postcode": "30122", "addr:country": "US", "name": "Cintas", "phone": "770-999-9333", "brand": "Cintas", "brand:wikidata": "Q1092571"}, "geometry": {"type": "Point", "coordinates": [-84.62837, 33.79291]}},
{"type": "Feature", "id": "A2M-se62NAFZxhFPXjIuI4pYl8s=", "properties": {"ref": "0037K", "@spider": "cintas", "addr:full": "6030 Lagrange Blvd SW", "addr:city": "Atlanta", "addr:state": "GA", "addr:postcode": "30336", "addr:country": "US", "name": "Cintas", "phone": "404-349-2863", "brand": "Cintas", "brand:wikidata": "Q1092571"}, "geometry": {"type": "Point", "coordinates": [-84.59009, 33.7212639]}},
{"type": "Feature", "id": "wAtCP6U3Bnw7_qRywxF9ycFGOH4=", "properties": {"ref": "0058P", "@spider": "cintas", "addr:full": "4272 Pio Nono Ave", "addr:city": "Macon", "addr:state": "GA", "addr:postcode": "31206", "addr:country": "US", "name": "Cintas", "phone": "478-781-2830", "brand": "Cintas", "brand:wikidata": "Q1092571"}, "geometry": {"type": "Point", "coordinates": [-83.66684, 32.7868]}},
{"type": "Feature", "id": "DjlFXjciZJtGJws3koFK_FW-n5k=", "properties": {"ref": "0008M", "@spider": "cintas", "addr:full": "1625 Heraeus Blvd", "addr:city": "Buford", "addr:state": "GA", "addr:postcode": "30518", "addr:country": "US", "name": "Cintas", "phone": "770-614-4007", "brand": "Cintas", "brand:wikidata": "Q1092571"}, "geometry": {"type": "Point", "coordinates": [-84.00989, 34.1047935]}},
{"type": "Feature", "id": "3NUPY-tIfghENO9No2xdU7UeXu4=", "properties": {"ref": "258", "@spider": "cintas", "addr:full": "1055 Progress Industrial Blvd", "addr:city": "Lawrenceville", "addr:state": "GA", "addr:postcode": "30043", "addr:country": "US", "name": "Cintas", "phone": "678-252-1300", "brand": "Cintas", "brand:wikidata": "Q1092571"}, "geometry": {"type": "Point", "coordinates": [-83.95574, 33.9950676]}},
{"type": "Feature", "id": "S-jarVy39mAYwQJ5xyuxIySE464=", "properties": {"ref": "256", "@spider": "cintas", "addr:full": "1455 Belfast Ave", "addr:city": "Columbus", "addr:state": "GA", "addr:postcode": "31904", "addr:country": "US", "name": "Cintas", "phone": "706-653-9909", "brand": "Cintas", "brand:wikidata": "Q1092571"}, "geometry": {"type": "Point", "coordinates": [-84.9714355, 32.5296974]}},
{"type": "Feature", "id": "cV2ogQBaclm4d3aZYwtAiC9Ujo8=", "properties": {"ref": "219", "@spider": "cintas", "addr:full": "529 Laney Walker Blvd Ext", "addr:city": "Augusta", "addr:state": "GA", "addr:postcode": "30901", "addr:country": "US", "name": "Cintas", "phone": "706-724-0748", "brand": "Cintas", "brand:wikidata": "Q1092571"}, "geometry": {"type": "Point", "coordinates": [-81.9428253, 33.4553452]}},
{"type": "Feature", "id": "Sr_oq6BoPc8z_EP4hwGUszmV5jc=", "properties": {"ref": "438", "@spider": "cintas", "addr:full": "1700 West Town Rd", "addr:city": "Albany", "addr:state": "GA", "addr:postcode": "31707", "addr:country": "US", "name": "Cintas", "phone": "229-432-2393", "brand": "Cintas", "brand:wikidata": "Q1092571"}, "geometry": {"type": "Point", "coordinates": [-84.18711, 31.563158]}},
{"type": "Feature", "id": "mcPG0rhtgjtx5YkZQX4BLTnJWXg=", "properties": {"ref": "0098H", "@spider": "cintas", "addr:full": "10335 Argonne Woods Dr STE 100", "addr:city": "Woodridge", "addr:state": "IL", "addr:postcode": "60517", "addr:country": "US", "name": "Cintas", "phone": "630-343-5533", "brand": "Cintas", "brand:wikidata": "Q1092571"}, "geometry": {"type": "Point", "coordinates": [-88.00864, 41.6988068]}},
{"type": "Feature", "id": "5Qou0AUTURJOr38D3Xia8ry0lzA=", "properties": {"ref": "344", "@spider": "cintas", "addr:full": "1150 Wyndham Pkwy", "addr:city": "Romeoville", "addr:state": "IL", "addr:postcode": "60446", "addr:country": "US", "name": "Cintas", "phone": "630-378-1500", "brand": "Cintas", "brand:wikidata": "Q1092571"}, "geometry": {"type": "Point", "coordinates": [-88.11724, 41.6628036]}},
{"type": "Feature", "id": "rZaW9c0bF_7CiGE3kFGoVt0f7Bw=", "properties": {"ref": "0019M", "@spider": "cintas", "addr:full": "5611 11th St", "addr:city": "Rockford", "addr:state": "IL", "addr:postcode": "61109", "addr:country": "US", "name": "Cintas", "phone": "815-874-2481", "brand": "Cintas", "brand:wikidata": "Q1092571"}, "geometry": {"type": "Point", "coordinates": [-89.07407, 42.1999855]}},
{"type": "Feature", "id": "Bu6RzYTRl_3Nu4yXAHhJy7-AnOo=", "properties": {"ref": "355", "@spider": "cintas", "addr:full": "5100  26th Ave", "addr:city": "Rockford", "addr:state": "IL", "addr:postcode": "61109", "addr:country": "US", "name": "Cintas", "phone": "815-398-6200", "brand": "Cintas", "brand:wikidata": "Q1092571"}, "geometry": {"type": "Point", "coordinates": [-89.01719, 42.237133]}},
{"type": "Feature", "id": "f011ObuGlETB74LVWkyymBRBw-Y=", "properties": {"ref": "396", "@spider": "cintas", "addr:full": "2015 Eagle Rd", "addr:city": "Normal", "addr:state": "IL", "addr:postcode": "61761", "addr:country": "US", "name": "Cintas", "phone": "309-454-6737", "brand": "Cintas", "brand:wikidata": "Q1092571"}, "geometry": {"type": "Point", "coordinates": [-88.9947, 40.54356]}},
{"type": "Feature", "id": "345JAqCN7-xeiOXtQlm8M6kfw98=", "properties": {"ref": "319", "@spider": "cintas", "addr:full": "1303 Kenwood Ave", "addr:city": "Hammond", "addr:state": "IN", "addr:postcode": "46320", "addr:country": "US", "name": "Cintas", "phone": "219-852-2600", "brand": "Cintas", "brand:wikidata": "Q1092571"}, "geometry": {"type": "Point", "coordinates": [-87.49831, 41.59978]}},
{"type": "Feature", "id": "Q75XbuzkcbESHzu6ZJ06RE-86gc=", "properties": {"ref": "00D72", "@spider": "cintas", "addr:full": "621 W Industrial Park Rd Suite B", "addr:city": "Carbondal", "addr:state": "IL", "addr:postcode": "62901", "addr:country": "US", "name": "Cintas", "phone": "618-549-7381", "brand": "Cintas", "brand:wikidata": "Q1092571"}, "geometry": {"type": "Point", "coordinates": [-89.2241, 37.7468452]}},
{"type": "Feature", "id": "2bnt5AnHCoBGE9P0oe3s_l_pOVA=", "properties": {"ref": "336", "@spider": "cintas", "addr:full": "4001 William Richardson Dr", "addr:city": "South Bend", "addr:state": "IN", "addr:postcode": "46628", "addr:country": "US", "name": "Cintas", "phone": "574-247-2340", "brand": "Cintas", "brand:wikidata": "Q1092571"}, "geometry": {"type": "Point", "coordinates": [-86.30606, 41.73308]}},
{"type": "Feature", "id": "4Y9gLjfMgJB0H5UeTw5Zjkgn350=", "properties": {"ref": "00G18", "@spider": "cintas", "addr:full": "2110 Aeroplex Dr N", "addr:city": "Elkhart", "addr:state": "IN", "addr:postcode": "46514", "addr:country": "US", "name": "Cintas", "phone": "574-218-6800", "brand": "Cintas", "brand:wikidata": "Q1092571"}, "geometry": {"type": "Point", "coordinates": [-86.0072556, 41.7162361]}},
{"type": "Feature", "id": "qoRNGPIFA5nU9ASAWfEywQFGMjA=", "properties": {"ref": "716", "@spider": "cintas", "addr:full": "601 E Main St", "addr:city": "Muncie", "addr:state": "IN", "addr:postcode": "47305", "addr:country": "US", "name": "Cintas", "phone": "765-289-4411", "brand": "Cintas", "brand:wikidata": "Q1092571"}, "geometry": {"type": "Point", "coordinates": [-85.3802261, 40.1933861]}},
{"type": "Feature", "id": "P26ZjVPUEjHahI2RjWuqEkcrNOw=", "properties": {"ref": "18", "@spider": "cintas", "addr:full": "9949 Park Davis Dr", "addr:city": "Indianapolis", "addr:state": "IN", "addr:postcode": "46235", "addr:country": "US", "name": "Cintas", "phone": "317-890-5000", "brand": "Cintas", "brand:wikidata": "Q1092571"}, "geometry": {"type": "Point", "coordinates": [-85.99285, 39.8199348]}},
{"type": "Feature", "id": "TdfWKdZ8h0dSWxtZJfZGT91YsQE=", "properties": {"ref": "388", "@spider": "cintas", "addr:full": "1435 Brookville Way Suite P", "addr:city": "Indianapolis", "addr:state": "Indiana", "addr:postcode": "46239", "addr:country": "US", "name": "Cintas", "phone": "317-264-5103", "brand": "Cintas", "brand:wikidata": "Q1092571"}, "geometry": {"type": "Point", "coordinates": [-86.04412, 39.7499428]}},
{"type": "Feature", "id": "I3aJToQYXlVKNYj104tVz9WZ4Qo=", "properties": {"ref": "00F86", "@spider": "cintas", "addr:full": "177 W Carmel Dr", "addr:city": "Carmel", "addr:state": "IN", "addr:postcode": "46032", "addr:country": "US", "name": "Cintas", "phone": "317-573-8160", "brand": "Cintas", "brand:wikidata": "Q1092571"}, "geometry": {"type": "Point", "coordinates": [-86.13036, 39.9608536]}},
{"type": "Feature", "id": "n2xxI1NOdnjQ8E3M4BobOnhziQI=", "properties": {"ref": "00G65", "@spider": "cintas", "addr:full": "7258 Georgetown Rd", "addr:city": "Indianapolis", "addr:state": "IN", "addr:postcode": "46268", "addr:country": "US", "name": "Cintas", "phone": "317-387-9000", "brand": "Cintas", "brand:wikidata": "Q1092571"}, "geometry": {"type": "Point", "coordinates": [-86.24466, 39.8848343]}},
{"type": "Feature", "id": "Ti5AKfBI1hnb-Zj1rIr-QVo9Tbg=", "properties": {"ref": "366", "@spider": "cintas", "addr:full": "3470 W County Rd O NS", "addr:city": "Frankfort", "addr:state": "IN", "addr:postcode": "46041", "addr:country": "US", "name": "Cintas", "phone": "765-654-7960", "brand": "Cintas", "brand:wikidata": "Q1092571"}, "geometry": {"type": "Point", "coordinates": [-86.375145, 40.28684]}},
{"type": "Feature", "id": "Cl_o6UHw47Yhf1jJPULKVByddQw=", "properties": {"ref": "338", "@spider": "cintas", "addr:full": "3201 Brooklyn Ave", "addr:city": "Fort Wayne", "addr:state": "IN", "addr:postcode": "46809", "addr:country": "US", "name": "Cintas", "phone": "260-747-7416", "brand": "Cintas", "brand:wikidata": "Q1092571"}, "geometry": {"type": "Point", "coordinates": [-85.16398, 41.0551033]}},
{"type": "Feature", "id": "-iTebEDQT3cTXO4SD9eMX6mT2lI=", "properties": {"ref": "00G64", "@spider": "cintas", "addr:full": "3115 Independence Dr", "addr:city": "Ft Wayne", "addr:state": "IN", "addr:postcode": "46808", "addr:country": "US", "name": "Cintas", "phone": "260-426-7661", "brand": "Cintas", "brand:wikidata": "Q1092571"}, "geometry": {"type": "Point", "coordinates": [-85.1833344, 41.107666]}},
{"type": "Feature", "id": "QNIiM73CATXE45mA0vciK837uNA=", "properties": {"ref": "529", "@spider": "cintas", "addr:full": "6955 S International Dr", "addr:city": "Columbus", "addr:state": "IN", "addr:postcode": "47201", "addr:country": "US", "name": "Cintas", "phone": "812-372-9535", "brand": "Cintas", "brand:wikidata": "Q1092571"}, "geometry": {"type": "Point", "coordinates": [-85.9589539, 39.13742]}},
{"type": "Feature", "id": "uJqpJbC83qZDEDMWYhO1PBeyBIU=", "properties": {"ref": "351", "@spider": "cintas", "addr:full": "1720 N Wohlert St", "addr:city": "Angola", "addr:state": "IN", "addr:postcode": "46703", "addr:country": "US", "name": "Cintas", "phone": "260-665-7559", "brand": "Cintas", "brand:wikidata": "Q1092571"}, "geometry": {"type": "Point", "coordinates": [-85.0038147, 41.65616]}},
{"type": "Feature", "id": "WfZ-E6YGJhtK0hb6sxT8cKzkDJ4=", "properties": {"ref": "947", "@spider": "cintas", "addr:full": "203 9th St", "addr:city": "Charles City", "addr:state": "IA", "addr:postcode": "50616", "addr:country": "US", "name": "Cintas", "phone": "515-265-8777", "brand": "Cintas", "brand:wikidata": "Q1092571"}, "geometry": {"type": "Point", "coordinates": [-92.67486, 43.0554657]}}]}