{"type":"FeatureCollection","features":[{"type": "Feature", "id": "b8kLlPjofWpgXVuhVI-lhRu5zO4=", "properties": {"ref": "2720 Girard Blvd NEAlbuquerqueNM", "@spider": "clean_harbors", "addr:full": "2720 Girard Blvd NE", "addr:city": "Albuquerque", "addr:state": "NM", "addr:postcode": "87107", "addr:country": "US", "name": "Clean Harbors Environmental Services, Inc. ", "phone": "NULL", "brand": "Clean Harbors", "brand:wikidata": "Q5130494"}, "geometry": {"type": "Point", "coordinates": [-106.6134591, 35.1127869]}},
{"type": "Feature", "id": "DiQLQKrFpeVesjJqX27xSZ2SJ4U=", "properties": {"ref": "51 Broderick RoadBristolCT", "@spider": "clean_harbors", "addr:full": "51 Broderick Road", "addr:city": "Bristol", "addr:state": "CT", "addr:postcode": "6010", "addr:country": "US", "name": "Clean Harbors", "phone": "860-583-8917", "brand": "Clean Harbors", "brand:wikidata": "Q5130494"}, "geometry": {"type": "Point", "coordinates": [-72.9068176, 41.6538552]}},
{"type": "Feature", "id": "tXI91VG6lwncTR90HhlxxBW1W1w=", "properties": {"ref": "2858 Route 322BridgeportNJ", "@spider": "clean_harbors", "addr:full": "2858 Route 322", "addr:city": "Bridgeport", "addr:state": "NJ", "addr:postcode": "08014", "addr:country": "US", "name": "Clean Harbors", "phone": "NULL", "brand": "Clean Harbors", "brand:wikidata": "Q5130494"}, "geometry": {"type": "Point", "coordinates": [-75.3488243, 39.7900414]}},
{"type": "Feature", "id": "krYECb3bTuaipISIBpTEv3sY2u8=", "properties": {"ref": "1 Hill Ave.BraintreeMA", "@spider": "clean_harbors", "addr:full": "1 Hill Ave.", "addr:city": "Braintree", "addr:state": "MA", "addr:postcode": "02184", "addr:country": "US", "name": "Clean Harbors", "phone": "781-380-7175", "brand": "Clean Harbors", "brand:wikidata": "Q5130494"}, "geometry": {"type": "Point", "coordinates": [-70.9788305, 42.2360444]}},
{"type": "Feature", "id": "s1noYHgcLQZEX-mQjN6shLKfGdQ=", "properties": {"ref": "5610 Alpha DrBoynton BeachFL", "@spider": "clean_harbors", "addr:full": "5610 Alpha Dr", "addr:city": "Boynton Beach", "addr:state": "FL", "addr:postcode": "33426", "addr:country": "US", "name": "Clean Harbors", "phone": "561-736-1339", "brand": "Clean Harbors", "brand:wikidata": "Q5130494"}, "geometry": {"type": "Point", "coordinates": [-80.0809927, 26.5400311]}},
{"type": "Feature", "id": "8wzvCNJ5P2uSM4IfJAis892Gepc=", "properties": {"ref": "20 Dunklee RoadBowNH", "@spider": "clean_harbors", "addr:full": "20 Dunklee Road", "addr:city": "Bow", "addr:state": "NH", "addr:postcode": "03304", "addr:country": "US", "name": "Clean Harbors", "phone": "603-224-6626", "brand": "Clean Harbors", "brand:wikidata": "Q5130494"}, "geometry": {"type": "Point", "coordinates": [-71.4828315, 43.1406681]}},
{"type": "Feature", "id": "cwlh76aZoE1HqRFrLG--3WyeABg=", "properties": {"ref": "605 Industrial BlvdBorgerTX", "@spider": "clean_harbors", "addr:full": "605 Industrial Blvd", "addr:city": "Borger", "addr:state": "TX", "addr:postcode": "79007", "addr:country": "US", "name": "Clean Harbors", "phone": "580-762-4111", "brand": "Clean Harbors", "brand:wikidata": "Q5130494"}, "geometry": {"type": "Point", "coordinates": [-101.4033208, 35.6225299]}},
{"type": "Feature", "id": "pJKjVnjmODoEMOu3WeAWoiDT0pQ=", "properties": {"ref": "6215 52 AvenueBonnyvilleAB", "@spider": "clean_harbors", "addr:full": "6215 52 Avenue", "addr:city": "Bonnyville", "addr:state": "AB", "addr:postcode": "T9N 2L7", "addr:country": "CA", "name": "Clean Harbors", "phone": "780-826-7244", "brand": "Clean Harbors", "brand:wikidata": "Q5130494"}, "geometry": {"type": "Point", "coordinates": [-110.7740844, 54.2709132]}},
{"type": "Feature", "id": "1SCYd5nTootsTkTFUDb8QUtW7us=", "properties": {"ref": "4101 Industrial WayBeniciaCA", "@spider": "clean_harbors", "addr:full": "4101 Industrial Way", "addr:city": "Benicia", "addr:state": "CA", "addr:postcode": "94510", "addr:country": "US", "name": "Clean Harbors", "phone": "707-747-6699", "brand": "Clean Harbors", "brand:wikidata": "Q5130494"}, "geometry": {"type": "Point", "coordinates": [-122.1214201, 38.0709442]}},
{"type": "Feature", "id": "lPD-ClEXHLS9cjyRzKWOfQmxcBs=", "properties": {"ref": "4445 Eastlake AveBeaumontTX", "@spider": "clean_harbors", "addr:full": "4445 Eastlake Ave", "addr:city": "Beaumont", "addr:state": "TX", "addr:postcode": "77705", "addr:country": "US", "name": "Clean Harbors", "phone": "409-736-2821", "brand": "Clean Harbors", "brand:wikidata": "Q5130494"}, "geometry": {"type": "Point", "coordinates": [-94.028167, 29.98476]}},
{"type": "Feature", "id": "3K5Zr2_lxEQBBhc2LA2DCoE1kH4=", "properties": {"ref": "13351 Scenic HighwayBaton RougeLA", "@spider": "clean_harbors", "addr:full": "13351 Scenic Highway", "addr:city": "Baton Rouge", "addr:state": "LA", "addr:postcode": "70807", "addr:country": "US", "name": "Clean Harbors", "phone": "225-778-1234", "brand": "Clean Harbors", "brand:wikidata": "Q5130494"}, "geometry": {"type": "Point", "coordinates": [-91.2215773, 30.5685639]}},
{"type": "Feature", "id": "Fj_X1PhHBTvZfl0pSoSFSKZUuqI=", "properties": {"ref": "252 Salem StreetWoburnMA", "@spider": "clean_harbors", "addr:full": "252 Salem Street", "addr:city": "Woburn", "addr:state": "MA", "addr:postcode": "01801", "addr:country": "US", "name": "Clean Harbors", "phone": "781-935-9066", "brand": "Clean Harbors", "brand:wikidata": "Q5130494"}, "geometry": {"type": "Point", "coordinates": [-71.1327364, 42.4900148]}},
{"type": "Feature", "id": "jw6u-vD0g59mKzkiLu9WT7Xavow=", "properties": {"ref": "45 Terracon PlaceWinnipegMB", "@spider": "clean_harbors", "addr:full": "45 Terracon Place", "addr:city": "Winnipeg", "addr:state": "MB", "addr:postcode": "R2J 4B3", "addr:country": "CA", "name": "Clean Harbors", "phone": "204-231-9448", "brand": "Clean Harbors", "brand:wikidata": "Q5130494"}, "geometry": {"type": "Point", "coordinates": [-97.0596887, 49.8893247]}},
{"type": "Feature", "id": "zB11fuDi_-AnUO5aCP_Qa6r7ngs=", "properties": {"ref": "1147 Henry AvenueWinnipegMB", "@spider": "clean_harbors", "addr:full": "1147 Henry Avenue", "addr:city": "Winnipeg", "addr:state": "MB", "addr:postcode": "R3E 1V6", "addr:country": "CA", "name": "Clean Harbors", "phone": "204-956-9770", "brand": "Clean Harbors", "brand:wikidata": "Q5130494"}, "geometry": {"type": "Point", "coordinates": [-97.169763, 49.9149276]}},
{"type": "Feature", "id": "LQgpEQrRctw7OEXNg_8QeG8aFas=", "properties": {"ref": "1737 East Denni StreetWilmingtonCA", "@spider": "clean_harbors", "addr:full": "1737 East Denni Street", "addr:city": "Wilmington", "addr:state": "CA", "addr:postcode": "90744", "addr:country": "US", "name": "Clean Harbors", "phone": "310-835-9998", "brand": "Clean Harbors", "brand:wikidata": "Q5130494"}, "geometry": {"type": "Point", "coordinates": [-118.239962, 33.7861543]}},
{"type": "Feature", "id": "ioechlKwFFNKjwSCPMBMU2Vrxus=", "properties": {"ref": "12895 FM 1097 Rd WWillisTX", "@spider": "clean_harbors", "addr:full": "12895 FM 1097 Rd W", "addr:city": "Willis", "addr:state": "TX", "addr:postcode": "77318", "addr:country": "US", "name": "Clean Harbors", "phone": "936-856-4231", "brand": "Clean Harbors", "brand:wikidata": "Q5130494"}, "geometry": {"type": "Point", "coordinates": [-95.552501, 30.42863]}},
{"type": "Feature", "id": "rbWIxjVJQNvFVwXhRP2yyBWLbC8=", "properties": {"ref": "2549 N. New York StreetWichitaKS", "@spider": "clean_harbors", "addr:full": "2549 N. New York Street", "addr:city": "Wichita", "addr:state": "KS", "addr:postcode": "67219", "addr:country": "US", "name": "Clean Harbors", "phone": "316-269-7400", "brand": "Clean Harbors", "brand:wikidata": "Q5130494"}, "geometry": {"type": "Point", "coordinates": [-97.3198369, 37.7293014]}},
{"type": "Feature", "id": "q4Uv3k9KDXYkc4rImfJbRYLvA28=", "properties": {"ref": "2808 Ohio St.WichitaKS", "@spider": "clean_harbors", "addr:full": "2808 Ohio St.", "addr:city": "Wichita", "addr:state": "KS", "addr:postcode": "67219", "addr:country": "US", "name": "Clean Harbors", "phone": "316-226-7480", "brand": "Clean Harbors", "brand:wikidata": "Q5130494"}, "geometry": {"type": "Point", "coordinates": [-97.3230926, 37.7340909]}},
{"type": "Feature", "id": "PZvsjdgpTPYbwXFUqKV1lNPGwO4=", "properties": {"ref": "5910 45th AvenueWhitecourtAB", "@spider": "clean_harbors", "addr:full": "5910 45th Avenue", "addr:city": "Whitecourt", "addr:state": "AB", "addr:postcode": "T7A 0A6", "addr:country": "CA", "name": "Clean Harbors", "phone": "780-706-7182", "brand": "Clean Harbors", "brand:wikidata": "Q5130494"}, "geometry": {"type": "Point", "coordinates": [-115.7112091, 54.136128]}},
{"type": "Feature", "id": "VL0C2hMSrYIaQHcPVL6Ka3ahAus=", "properties": {"ref": "5012 West StreetWhitecourtAB", "@spider": "clean_harbors", "addr:full": "5012 West Street", "addr:city": "Whitecourt", "addr:state": "AB", "addr:postcode": "T7S 0A6", "addr:country": "CA", "name": "Clean Harbors", "phone": "780-268-3967", "brand": "Clean Harbors", "brand:wikidata": "Q5130494"}, "geometry": {"type": "Point", "coordinates": [-115.714889, 54.140245]}},
{"type": "Feature", "id": "A9jJRP7iRGV4a2ONM8rs-vQWJ5I=", "properties": {"ref": "52735 Clarke RoadWhite CastleLA", "@spider": "clean_harbors", "addr:full": "52735 Clarke Road", "addr:city": "White Castle", "addr:state": "LA", "addr:postcode": "70788", "addr:country": "US", "name": "Clean Harbors", "phone": "225-545-7800", "brand": "Clean Harbors", "brand:wikidata": "Q5130494"}, "geometry": {"type": "Point", "coordinates": [-91.0949324, 30.1609155]}},
{"type": "Feature", "id": "9NzyAcdm2qxvqqw797Lm-xWrsDQ=", "properties": {"ref": "3023 Dial StreetWhistlerAL", "@spider": "clean_harbors", "addr:full": "3023 Dial Street", "addr:city": "Whistler", "addr:state": "AL", "addr:postcode": "36612", "addr:country": "US", "name": "Clean Harbors", "phone": "251-456-3042", "brand": "Clean Harbors", "brand:wikidata": "Q5130494"}, "geometry": {"type": "Point", "coordinates": [-88.1178317, 30.7427582]}},
{"type": "Feature", "id": "uXmQ9ivZObCDaXdOPbqhte2Yyoc=", "properties": {"ref": "10 Industrial Park DriveWheelingWV", "@spider": "clean_harbors", "addr:full": "10 Industrial Park Drive", "addr:city": "Wheeling", "addr:state": "WV", "addr:postcode": "26003", "addr:country": "US", "name": "Clean Harbors", "phone": "304-238-5433", "brand": "Clean Harbors", "brand:wikidata": "Q5130494"}, "geometry": {"type": "Point", "coordinates": [-80.719773, 40.078919]}},
{"type": "Feature", "id": "7g6ra71Dt3MDmM5k3V3cevIyATE=", "properties": {"ref": "607 Pleasant StreetWeymouthMA", "@spider": "clean_harbors", "addr:full": "607 Pleasant Street", "addr:city": "Weymouth", "addr:state": "MA", "addr:postcode": "02189", "addr:country": "US", "name": "Clean Harbors", "phone": "781-331-9954", "brand": "Clean Harbors", "brand:wikidata": "Q5130494"}, "geometry": {"type": "Point", "coordinates": [-70.9277485, 42.186501]}},
{"type": "Feature", "id": "hy_pRmVR5zR2mz36EFpilmKBHgc=", "properties": {"ref": "5295 South Garvey RoadWestmorlandCA", "@spider": "clean_harbors", "addr:full": "5295 South Garvey Road", "addr:city": "Westmorland", "addr:state": "CA", "addr:postcode": "92281", "addr:country": "US", "name": "Clean Harbors", "phone": "760-344-9400", "brand": "Clean Harbors", "brand:wikidata": "Q5130494"}, "geometry": {"type": "Point", "coordinates": [-115.6933079, 33.0247354]}},
{"type": "Feature", "id": "ZQWOmLmCA26cujXmwjiwG27AM3g=", "properties": {"ref": "6060 Hix RoadWestlandMI", "@spider": "clean_harbors", "addr:full": "6060 Hix Road", "addr:city": "Westland", "addr:state": "MI", "addr:postcode": "48185", "addr:country": "US", "name": "Clean Harbors", "phone": "248-465-6270", "brand": "Clean Harbors", "brand:wikidata": "Q5130494"}, "geometry": {"type": "Point", "coordinates": [-83.4175739, 42.3280006]}},
{"type": "Feature", "id": "UwqCYMA0rwLH3IUxp8ufArPLrjY=", "properties": {"ref": "1745 Cebrian StreetWest SacramentoCA", "@spider": "clean_harbors", "addr:full": "1745 Cebrian Street", "addr:city": "West Sacramento", "addr:state": "CA", "addr:postcode": "95691", "addr:country": "US", "name": "Clean Harbors", "phone": "916-520-3620", "brand": "Clean Harbors", "brand:wikidata": "Q5130494"}, "geometry": {"type": "Point", "coordinates": [-121.5443879, 38.5708463]}},
{"type": "Feature", "id": "ZYIWawibTdy2W-VKAouL_BPyCSA=", "properties": {"ref": "17465 Eltham RoadWest PointVA", "@spider": "clean_harbors", "addr:full": "17465 Eltham Road", "addr:city": "West Point", "addr:state": "VA", "addr:postcode": "23181", "addr:country": "US", "name": "Clean Harbors", "phone": "804-843-2180", "brand": "Clean Harbors", "brand:wikidata": "Q5130494"}, "geometry": {"type": "Point", "coordinates": [-76.8566686, 37.5061654]}},
{"type": "Feature", "id": "Kw2b9gskL2YOvzez-hg_pPs4SQQ=", "properties": {"ref": "2200 S. West AvenueWaukeshaWI", "@spider": "clean_harbors", "addr:full": "2200 S. West Avenue", "addr:city": "Waukesha", "addr:state": "WI", "addr:postcode": "53189", "addr:country": "US", "name": "Clean Harbors", "phone": "262-293-2267", "brand": "Clean Harbors", "brand:wikidata": "Q5130494"}, "geometry": {"type": "Point", "coordinates": [-88.23497, 42.972724]}},
{"type": "Feature", "id": "Qu-R79f3_RR0EAvW-GwxqoIv9WA=", "properties": {"ref": "1902 15 AvenueWainwrightAB", "@spider": "clean_harbors", "addr:full": "1902 15 Avenue", "addr:city": "Wainwright", "addr:state": "AB", "addr:postcode": "T9W 1S8", "addr:country": "CA", "name": "Clean Harbors", "phone": "780-842-2841", "brand": "Clean Harbors", "brand:wikidata": "Q5130494"}, "geometry": {"type": "Point", "coordinates": [-110.8437286, 52.8447611]}},
{"type": "Feature", "id": "xQwtUQrLLjoEKdIY84lXookfU_c=", "properties": {"ref": "6785 Route 132Sainte-CatherinePQ", "@spider": "clean_harbors", "addr:full": "6785 Route 132", "addr:city": "Sainte-Catherine", "addr:state": "PQ", "addr:postcode": "J5C 1B6", "addr:country": "CA", "name": "Clean Harbors", "phone": "450-632-6640", "brand": "Clean Harbors", "brand:wikidata": "Q5130494"}, "geometry": {"type": "Point", "coordinates": [-73.5984482, 45.3953213]}},
{"type": "Feature", "id": "cazqw6S-jQ3UBeVzVjZ5ivXZjT8=", "properties": {"ref": "16319 E. Marshall StreetTulsaOK", "@spider": "clean_harbors", "addr:full": "16319 E. Marshall Street", "addr:city": "Tulsa", "addr:state": "OK", "addr:postcode": "74116", "addr:country": "US", "name": "Clean Harbors", "phone": "918-202-5822", "brand": "Clean Harbors", "brand:wikidata": "Q5130494"}, "geometry": {"type": "Point", "coordinates": [-95.8512162, 36.1713388]}},
{"type": "Feature", "id": "U-0WT1KIioNd6lVTFhrDhzwowLM=", "properties": {"ref": "1374 Beverage DriveStone MountainGA", "@spider": "clean_harbors", "addr:full": "1374 Beverage Drive", "addr:city": "Stone Mountain", "addr:state": "GA", "addr:postcode": "30083", "addr:country": "US", "name": "Clean Harbors", "phone": "770-908-8251", "brand": "Clean Harbors", "brand:wikidata": "Q5130494"}, "geometry": {"type": "Point", "coordinates": [-84.1883228, 33.8209001]}},
{"type": "Feature", "id": "P0VrXAM56zIEhlYDeIrBBstJ4Os=", "properties": {"ref": "2150 North 470 EastTooeleUT", "@spider": "clean_harbors", "addr:full": "2150 North 470 East", "addr:city": "Tooele", "addr:state": "UT", "addr:postcode": "84074", "addr:country": "US", "name": "Clean Harbors", "phone": "435-843-4840", "brand": "Clean Harbors", "brand:wikidata": "Q5130494"}, "geometry": {"type": "Point", "coordinates": [-112.2915334, 40.5684963]}},
{"type": "Feature", "id": "USIcCc7q526owqq9K1Zw27Jlinw=", "properties": {"ref": "1829 Allanport RoadThoroldON", "@spider": "clean_harbors", "addr:full": "1829 Allanport Road", "addr:city": "Thorold", "addr:state": "ON", "addr:postcode": "L2V 3Y9", "addr:country": "CA", "name": "Clean Harbors", "phone": "NULL", "brand": "Clean Harbors", "brand:wikidata": "Q5130494"}, "geometry": {"type": "Point", "coordinates": [-79.1988049, 43.060634]}},
{"type": "Feature", "id": "ZMeCb6igVcWOP-ZlVmcQJCiQEPo=", "properties": {"ref": "Range Road 82AConklinAB", "@spider": "clean_harbors", "addr:full": "Range Road 82A", "addr:city": "Conklin", "addr:state": "AB", "addr:postcode": "T0P 1H0", "addr:country": "CA", "name": "Clean Harbors", "phone": "888-228-2220", "brand": "Clean Harbors", "brand:wikidata": "Q5130494"}, "geometry": {"type": "Point", "coordinates": [-111.146195, 55.652165]}},
{"type": "Feature", "id": "PPdttXCwT9VfxAl3fnVc6U1SnDo=", "properties": {"ref": "6741 VIP ParkwaySyracuseNY", "@spider": "clean_harbors", "addr:full": "6741 VIP Parkway", "addr:city": "Syracuse", "addr:state": "NY", "addr:postcode": "13211", "addr:country": "US", "name": "Clean Harbors", "phone": "315-741-3270", "brand": "Clean Harbors", "brand:wikidata": "Q5130494"}, "geometry": {"type": "Point", "coordinates": [-76.1138291, 43.0999882]}},
{"type": "Feature", "id": "QzMMzrtPA04kVjoRW2BJlE9nOqg=", "properties": {"ref": "105 Kuusamo DriveRed Deer CountyAB", "@spider": "clean_harbors", "addr:full": "105 Kuusamo Drive", "addr:city": "Red Deer County", "addr:state": "AB", "addr:postcode": "T4E 2J5", "addr:country": "CA", "name": "Clean Harbors", "phone": "403-887-2074", "brand": "Clean Harbors", "brand:wikidata": "Q5130494"}, "geometry": {"type": "Point", "coordinates": [-114.196509, 52.297855]}},
{"type": "Feature", "id": "VkhICZg9J16q_opguOaQaz3nXOg=", "properties": {"ref": "2120 Louis Alleman ParkwaySulphurLA", "@spider": "clean_harbors", "addr:full": "2120 Louis Alleman Parkway", "addr:city": "Sulphur", "addr:state": "LA", "addr:postcode": "70665", "addr:country": "US", "phone": "337-708-1882", "brand": "Clean Harbors", "brand:wikidata": "Q5130494"}, "geometry": {"type": "Point", "coordinates": [-93.3585328, 30.2475587]}},
{"type": "Feature", "id": "xBAAELcUiAAFAktIpwjlq3KOWyU=", "properties": {"ref": "6400 Sterling Drive NorthSterling HeightsMI", "@spider": "clean_harbors", "addr:full": "6400 Sterling Drive North", "addr:city": "Sterling Heights", "addr:state": "MI", "addr:postcode": "48312", "addr:country": "US", "name": "Clean Harbors", "phone": "586-977-8174", "brand": "Clean Harbors", "brand:wikidata": "Q5130494"}, "geometry": {"type": "Point", "coordinates": [-83.0434376, 42.5452713]}},
{"type": "Feature", "id": "RVdub1HUjobMUOLUMJA2X49NIns=", "properties": {"ref": "21207 County Road 32.2SterlingCO", "@spider": "clean_harbors", "addr:full": "21207 County Road 32.2", "addr:city": "Sterling", "addr:state": "CO", "addr:postcode": "80751", "addr:country": "US", "name": "Clean Harbors", "phone": "970-521-0551", "brand": "Clean Harbors", "brand:wikidata": "Q5130494"}, "geometry": {"type": "Point", "coordinates": [-103.1735405, 40.6590522]}},
{"type": "Feature", "id": "e1udtxSLqvfJ5WxnoHZk_CETjuU=", "properties": {"ref": "407 N. Thierman RoadSpokane ValleyWA", "@spider": "clean_harbors", "addr:full": "407 N. Thierman Road", "addr:city": "Spokane Valley", "addr:state": "WA", "addr:postcode": "99212", "addr:country": "US", "name": "Clean Harbors", "phone": "509-535-3244", "brand": "Clean Harbors", "brand:wikidata": "Q5130494"}, "geometry": {"type": "Point", "coordinates": [-117.3164407, 47.6612989]}},
{"type": "Feature", "id": "AHrDhauxmslsVErwIYHBjJoA5U8=", "properties": {"ref": "1200 Marietta WaySparksNV", "@spider": "clean_harbors", "addr:full": "1200 Marietta Way", "addr:city": "Sparks", "addr:state": "NV", "addr:postcode": "89431", "addr:country": "US", "name": "Clean Harbors", "phone": "775-624-8060", "brand": "Clean Harbors", "brand:wikidata": "Q5130494"}, "geometry": {"type": "Point", "coordinates": [-119.753535, 39.5230181]}},
{"type": "Feature", "id": "YseiuYE0w3hn-jbmeXlhIMImp4c=", "properties": {"ref": "191 Coney Island DriveSparksNV", "@spider": "clean_harbors", "addr:full": "191 Coney Island Drive", "addr:city": "Sparks", "addr:state": "NV", "addr:postcode": "89431", "addr:country": "US", "name": "Clean Harbors", "phone": "775-331-9400", "brand": "Clean Harbors", "brand:wikidata": "Q5130494"}, "geometry": {"type": "Point", "coordinates": [-119.744516, 39.5188698]}},
{"type": "Feature", "id": "4NlDyRjdQFJmS9SOeKI5JaS5DAg=", "properties": {"ref": "609 Pleasant StreetWeymouthMA", "@spider": "clean_harbors", "addr:full": "609 Pleasant Street", "addr:city": "Weymouth", "addr:state": "MA", "addr:postcode": "02189", "addr:country": "US", "name": "Clean Harbors", "phone": "781-803-4100", "brand": "Clean Harbors", "brand:wikidata": "Q5130494"}, "geometry": {"type": "Point", "coordinates": [-70.9278018, 42.1865181]}},
{"type": "Feature", "id": "QYmhGEdGC81iIcYk7aq004QEDrw=", "properties": {"ref": "17 Main StreetSouth PortlandME", "@spider": "clean_harbors", "addr:full": "17 Main Street", "addr:city": "South Portland", "addr:state": "ME", "addr:postcode": "04106", "addr:country": "US", "name": "Clean Harbors", "phone": "207-799-8111", "brand": "Clean Harbors", "brand:wikidata": "Q5130494"}, "geometry": {"type": "Point", "coordinates": [-70.2838787, 43.6387438]}},
{"type": "Feature", "id": "StsbMZCdpev5P8sdeDNU_iB3JS0=", "properties": {"ref": "37 Rumery StreetSouth PortlandME", "@spider": "clean_harbors", "addr:full": "37 Rumery Street", "addr:city": "South Portland", "addr:state": "ME", "addr:postcode": "04106", "addr:country": "US", "name": "Clean Harbors", "phone": "207-772-2201", "brand": "Clean Harbors", "brand:wikidata": "Q5130494"}, "geometry": {"type": "Point", "coordinates": [-70.2927912, 43.6222755]}},
{"type": "Feature", "id": "wjdsAlYyKITs3xTI1aEv_ZlsCvI=", "properties": {"ref": "116 Skyline DriveSouth PlainfieldNJ", "@spider": "clean_harbors", "addr:full": "116 Skyline Drive", "addr:city": "South Plainfield", "addr:state": "NJ", "addr:postcode": "07080", "addr:country": "US", "name": "Clean Harbors", "phone": "732-248-1997", "brand": "Clean Harbors", "brand:wikidata": "Q5130494"}, "geometry": {"type": "Point", "coordinates": [-74.4273277, 40.5647346]}},
{"type": "Feature", "id": "yzeX4xd9R4BR99ioNCc-O5oGzhk=", "properties": {"ref": "1401 Tamarack RdSlave LakeAB", "@spider": "clean_harbors", "addr:full": "1401 Tamarack Rd", "addr:city": "Slave Lake", "addr:state": "AB", "addr:postcode": "T0G 2A0", "addr:country": "CA", "name": "Clean Harbors", "phone": "NULL", "brand": "Clean Harbors", "brand:wikidata": "Q5130494"}, "geometry": {"type": "Point", "coordinates": [-114.7694862, 55.2977244]}},
{"type": "Feature", "id": "IkJ5tDDFGOu4xJKW8jvNRbHg3Lw=", "properties": {"ref": "MRM Access RdWood BuffaloAB", "@spider": "clean_harbors", "addr:full": "MRM Access Rd", "addr:city": "Wood Buffalo", "addr:state": "AB", "addr:postcode": "T0P", "addr:country": "CA", "name": "Clean Harbors", "phone": "888-228-2220", "brand": "Clean Harbors", "brand:wikidata": "Q5130494"}, "geometry": {"type": "Point", "coordinates": [-111.5744578, 57.196975]}},
{"type": "Feature", "id": "Njoq39BGJBolAMbX58-V0oadY2M=", "properties": {"ref": "635 Old County Road PPSheboygan FallsWI", "@spider": "clean_harbors", "addr:full": "635 Old County Road PP", "addr:city": "Sheboygan Falls", "addr:state": "WI", "addr:postcode": "53082", "addr:country": "US", "name": "Clean Harbors", "phone": "920-550-2626", "brand": "Clean Harbors", "brand:wikidata": "Q5130494"}, "geometry": {"type": "Point", "coordinates": [-87.830284, 43.72078]}},
{"type": "Feature", "id": "029WZ_VXXh7r7ndk8r9e8Vzzf8w=", "properties": {"ref": "770 Derby AvenueSeymourCT", "@spider": "clean_harbors", "addr:full": "770 Derby Avenue", "addr:city": "Seymour", "addr:state": "CT", "addr:postcode": "06483", "addr:country": "US", "name": "Clean Harbors", "phone": "203-734-2581", "brand": "Clean Harbors", "brand:wikidata": "Q5130494"}, "geometry": {"type": "Point", "coordinates": [-73.0924081, 41.3640938]}},
{"type": "Feature", "id": "kVxXhHVnY_f9CH2akrmbCxISj6M=", "properties": {"ref": "221 Sutton StreetNorth AndoverMA", "@spider": "clean_harbors", "addr:full": "221 Sutton Street", "addr:city": "North Andover", "addr:state": "MA", "addr:postcode": "01845", "addr:country": "US", "name": "Clean Harbors", "phone": "978-687-5041", "brand": "Clean Harbors", "brand:wikidata": "Q5130494"}, "geometry": {"type": "Point", "coordinates": [-71.1311349, 42.7070364]}},
{"type": "Feature", "id": "ZhL9WQVGpwlIdc4XSpOf6Iw4g8g=", "properties": {"ref": "2 Miles East of Calmar 12-28-49-26 4thCalmarAB", "@spider": "clean_harbors", "addr:full": "2 Miles East of Calmar 12-28-49-26 4th", "addr:city": "Calmar", "addr:state": "AB", "addr:postcode": "T9G 1Y1", "addr:country": "CA", "name": "Clean Harbors", "phone": "NULL", "brand": "Clean Harbors", "brand:wikidata": "Q5130494"}, "geometry": {"type": "Point", "coordinates": [-113.7278989, 53.358587]}},
{"type": "Feature", "id": "rnjCqm6xUFEPzA0KKqw0rqT94ys=", "properties": {"ref": "12400 247th Ave S.E.SawyerND", "@spider": "clean_harbors", "addr:full": "12400 247th Ave S.E.", "addr:city": "Sawyer", "addr:state": "ND", "addr:postcode": "58781", "addr:country": "US", "name": "Clean Harbors", "phone": "NULL", "brand": "Clean Harbors", "brand:wikidata": "Q5130494"}, "geometry": {"type": "Point", "coordinates": [-101.1019973, 47.9787768]}},
{"type": "Feature", "id": "YQkos7PN11NeS5mUDfMks6V6dA4=", "properties": {"ref": "12210 23 Street NEEdmontonAB", "@spider": "clean_harbors", "addr:full": "12210 23 Street NE", "addr:city": "Edmonton", "addr:state": "AB", "addr:postcode": "T6S 0A5", "addr:country": "CA", "name": "Clean Harbors", "phone": "780-960-1507", "brand": "Clean Harbors", "brand:wikidata": "Q5130494"}, "geometry": {"type": "Point", "coordinates": [-113.31382026797, 53.576761462865]}},
{"type": "Feature", "id": "GIqUdAr_2TYNkXFcqxNBbG39YbQ=", "properties": {"ref": "2700 Avenue SSan LeonTX", "@spider": "clean_harbors", "addr:full": "2700 Avenue S", "addr:city": "San Leon", "addr:state": "TX", "addr:postcode": "77539", "addr:country": "US", "name": "Clean Harbors", "phone": "NULL", "brand": "Clean Harbors", "brand:wikidata": "Q5130494"}, "geometry": {"type": "Point", "coordinates": [-94.9652947, 29.4683162]}},
{"type": "Feature", "id": "QWodgD5w4U3JTkGkhRQOj_ftBBs=", "properties": {"ref": "1010 Commercial StreetSan JoseCA", "@spider": "clean_harbors", "addr:full": "1010 Commercial Street", "addr:city": "San Jose", "addr:state": "CA", "addr:postcode": "95112", "addr:country": "US", "name": "Clean Harbors", "phone": "408-451-5000", "brand": "Clean Harbors", "brand:wikidata": "Q5130494"}, "geometry": {"type": "Point", "coordinates": [-121.8873012, 37.3667185]}},
{"type": "Feature", "id": "sxTPb8HaXpNBQQyCh2zbonpLbtI=", "properties": {"ref": "695 Seaport BlvdRedwood CityCA", "@spider": "clean_harbors", "addr:full": "695 Seaport Blvd", "addr:city": "Redwood City", "addr:state": "CA", "addr:postcode": "94063", "addr:country": "US", "name": "Clean Harbors", "phone": "408-441-0962", "brand": "Clean Harbors", "brand:wikidata": "Q5130494"}, "geometry": {"type": "Point", "coordinates": [-122.2151767, 37.4920577]}},
{"type": "Feature", "id": "aMAXfAr21uRUY0uiaSDv47mkVnE=", "properties": {"ref": "1021 Berryessa RoadSan JoseCA", "@spider": "clean_harbors", "addr:full": "1021 Berryessa Road", "addr:city": "San Jose", "addr:state": "CA", "addr:postcode": "95133", "addr:country": "US", "name": "Clean Harbors", "phone": "408-441-0962", "brand": "Clean Harbors", "brand:wikidata": "Q5130494"}, "geometry": {"type": "Point", "coordinates": [-121.884411, 37.3655194]}},
{"type": "Feature", "id": "-VxLtduxAnZxuNkgxc9MmaMx_V0=", "properties": {"ref": "3495 Kurtz StreetSan DiegoCA", "@spider": "clean_harbors", "addr:full": "3495 Kurtz Street", "addr:city": "San Diego", "addr:state": "CA", "addr:postcode": "92110", "addr:country": "US", "name": "Clean Harbors", "phone": "619-241-4250", "brand": "Clean Harbors", "brand:wikidata": "Q5130494"}, "geometry": {"type": "Point", "coordinates": [-117.2102179, 32.7559363]}},
{"type": "Feature", "id": "5CYt00-Qsj8bF0owNr_BjUtHGao=", "properties": {"ref": "4303 Profit DriveSan AntonioTX", "@spider": "clean_harbors", "addr:full": "4303 Profit Drive", "addr:city": "San Antonio", "addr:state": "TX", "addr:postcode": "78219", "addr:country": "US", "name": "Clean Harbors", "phone": "210-304-3000", "brand": "Clean Harbors", "brand:wikidata": "Q5130494"}, "geometry": {"type": "Point", "coordinates": [-98.4116118, 29.4431564]}},
{"type": "Feature", "id": "Cnuh_7LFe-Qt16TBugaZZ7K3Alw=", "properties": {"ref": "1435 Sherman StreetSan AntonioTX", "@spider": "clean_harbors", "addr:full": "1435 Sherman Street", "addr:city": "San Antonio", "addr:state": "TX", "addr:postcode": "78226", "addr:country": "US", "name": "Clean Harbors", "phone": "210-605-9529", "brand": "Clean Harbors", "brand:wikidata": "Q5130494"}, "geometry": {"type": "Point", "coordinates": [-98.4567699, 29.4347099]}},
{"type": "Feature", "id": "tY3m4SXRY9qfoytaAPowqIqJy3g=", "properties": {"ref": "27 Whitebone WaySaint JohnNB", "@spider": "clean_harbors", "addr:full": "27 Whitebone Way", "addr:city": "Saint John", "addr:state": "NB", "addr:postcode": "E2J 4W2", "addr:country": "CA", "name": "Clean Harbors", "phone": "506-672-2664", "brand": "Clean Harbors", "brand:wikidata": "Q5130494"}, "geometry": {"type": "Point", "coordinates": [-65.9961412, 45.2670314]}},
{"type": "Feature", "id": "2pqSiWJ00iKKwd1PR35yVXPs4go=", "properties": {"ref": "1225 Grace AvenueSacramentoCA", "@spider": "clean_harbors", "addr:full": "1225 Grace Avenue", "addr:city": "Sacramento", "addr:state": "CA", "addr:postcode": "95838", "addr:country": "US", "name": "Clean Harbors", "phone": "559-852-1529", "brand": "Clean Harbors", "brand:wikidata": "Q5130494"}, "geometry": {"type": "Point", "coordinates": [-121.4375158, 38.6512882]}},
{"type": "Feature", "id": "UwXuPj0z2mTmGLXyXKIqbCqnlB4=", "properties": {"ref": "2 km No. of Hwy.14 on 2ndary Rd.854RyleyAB", "@spider": "clean_harbors", "addr:full": "2 km No. of Hwy.14 on 2ndary Rd.854", "addr:city": "Ryley", "addr:state": "AB", "addr:postcode": "T0B 4A0", "addr:country": "CA", "name": "Clean Harbors", "phone": "NULL", "brand": "Clean Harbors", "brand:wikidata": "Q5130494"}, "geometry": {"type": "Point", "coordinates": [-112.4225187, 53.3003969]}},
{"type": "Feature", "id": "2EonLOhORGA1wu84g2BdIdWuZPQ=", "properties": {"ref": "2 km N of Suncor on Hwy 63Ruth LakeAB", "@spider": "clean_harbors", "addr:full": "2 km N of Suncor on Hwy 63", "addr:city": "Ruth Lake", "addr:state": "AB", "addr:country": "CA", "name": "Clean Harbors", "phone": "888-228-2220", "brand": "Clean Harbors", "brand:wikidata": "Q5130494"}, "geometry": {"type": "Point", "coordinates": [-111.53754, 56.982229]}},
{"type": "Feature", "id": "xhrUICgiDLEG2NgKlk_Ffs8I184=", "properties": {"ref": "4559 Wagon Wheel RoadRoxanaIL", "@spider": "clean_harbors", "addr:full": "4559 Wagon Wheel Road", "addr:city": "Roxana", "addr:state": "IL", "addr:postcode": "62084", "addr:country": "US", "name": "Clean Harbors", "phone": "618-655-4008", "brand": "Clean Harbors", "brand:wikidata": "Q5130494"}, "geometry": {"type": "Point", "coordinates": [-90.0528566, 38.8124436]}},
{"type": "Feature", "id": "qoJIZ_4xN9gP7CAfnIpTace2NxI=", "properties": {"ref": "2600 North Central Expressway, Suite 400RichardsonTX", "@spider": "clean_harbors", "addr:full": "2600 North Central Expressway, Suite 400", "addr:city": "Richardson", "addr:state": "TX", "addr:postcode": "75080", "addr:country": "US", "name": "Clean Harbors", "phone": "800-669-5740", "brand": "Clean Harbors", "brand:wikidata": "Q5130494"}, "geometry": {"type": "Point", "coordinates": [-96.7083467, 32.9929926]}},
{"type": "Feature", "id": "YF-KB04oyUr_xSn8lCrs__TmCxA=", "properties": {"ref": "#2 321 37 Avenue, NECalgaryAB", "@spider": "clean_harbors", "addr:full": "#2 321 37 Avenue, NE", "addr:city": "Calgary", "addr:state": "AB", "addr:postcode": "T2E 6P6", "addr:country": "CA", "name": "Clean Harbors", "phone": "403-216-2131", "brand": "Clean Harbors", "brand:wikidata": "Q5130494"}, "geometry": {"type": "Point", "coordinates": [-114.052117, 51.085908]}},
{"type": "Feature", "id": "uPYk5lKz9Jn6JX3yRYlAOGwf5Wc=", "properties": {"ref": "208 Watlington Industrial DriveReidsvilleNC", "@spider": "clean_harbors", "addr:full": "208 Watlington Industrial Drive", "addr:city": "Reidsville", "addr:state": "NC", "addr:postcode": "27320", "addr:country": "US", "name": "Clean Harbors", "phone": "336-342-6106", "brand": "Clean Harbors", "brand:wikidata": "Q5130494"}, "geometry": {"type": "Point", "coordinates": [-79.648121, 36.320142]}},
{"type": "Feature", "id": "2alv8d0aHC2xK2X0hQ07Svj9qWE=", "properties": {"ref": "525 E Dewdney AveReginaSK", "@spider": "clean_harbors", "addr:full": "525 E Dewdney Ave", "addr:city": "Regina", "addr:state": "SK", "addr:postcode": "S4N 4E9", "addr:country": "CA", "name": "Clean Harbors", "phone": "306-546-3322", "brand": "Clean Harbors", "brand:wikidata": "Q5130494"}, "geometry": {"type": "Point", "coordinates": [-104.5755619, 50.4547534]}},
{"type": "Feature", "id": "Ty3I9oOPKlnbmuKkDiH7NoLIDEg=", "properties": {"ref": "525 E Dewdney AvenueReginaSK", "@spider": "clean_harbors", "addr:full": "525 E Dewdney Avenue", "addr:city": "Regina", "addr:state": "SK", "addr:postcode": "S4N 4E9", "addr:country": "CA", "name": "Clean Harbors", "phone": "306-546-3322", "brand": "Clean Harbors", "brand:wikidata": "Q5130494"}, "geometry": {"type": "Point", "coordinates": [-104.5755619, 50.4547534]}},
{"type": "Feature", "id": "YvAM47_G55RtVL_Dk4D3X_FlHPU=", "properties": {"ref": "1025 Wellings RoadReginaSK", "@spider": "clean_harbors", "addr:full": "1025 Wellings Road", "addr:city": "Regina", "addr:state": "SK", "addr:postcode": "S4N 2C6", "addr:country": "CA", "name": "Clean Harbors", "phone": "306-630-6636", "brand": "Clean Harbors", "brand:wikidata": "Q5130494"}, "geometry": {"type": "Point", "coordinates": [-104.5396864, 50.4999713]}},
{"type": "Feature", "id": "XsQ1VTKMB0J639Aty_La8gEoWzA=", "properties": {"ref": "4522 48 Ave.RedwaterAB", "@spider": "clean_harbors", "addr:full": "4522 48 Ave.", "addr:city": "Redwater", "addr:state": "AB", "addr:postcode": "T0G 2A0", "addr:country": "CA", "name": "Clean Harbors", "phone": "780-942-2039", "brand": "Clean Harbors", "brand:wikidata": "Q5130494"}, "geometry": {"type": "Point", "coordinates": [-113.0982794, 53.9494944]}},
{"type": "Feature", "id": "6RvPBlGcoxuTp7gpM8odljmcMbg=", "properties": {"ref": "102, 113 Clearskye WayRed DeerAB", "@spider": "clean_harbors", "addr:full": "102, 113 Clearskye Way", "addr:city": "Red Deer", "addr:state": "AB", "addr:postcode": "T4E 0A1", "addr:country": "CA", "name": "Clean Harbors", "phone": "403-346-8265", "brand": "Clean Harbors", "brand:wikidata": "Q5130494"}, "geometry": {"type": "Point", "coordinates": [-113.7880082, 52.2114907]}},
{"type": "Feature", "id": "eYjJJEQ79sEI9_sTibUXRO26KeU=", "properties": {"ref": "4229 Hewlett DriveRed Deer CountyAB", "@spider": "clean_harbors", "addr:full": "4229 Hewlett Drive", "addr:city": "Red Deer County", "addr:state": "AB", "addr:postcode": "T4S 2A8", "addr:country": "CA", "name": "Clean Harbors", "phone": "403-342-7823", "brand": "Clean Harbors", "brand:wikidata": "Q5130494"}, "geometry": {"type": "Point", "coordinates": [-113.7726074, 52.344781]}},
{"type": "Feature", "id": "A9R9miRrNF60SQBr_78brW5XeAg=", "properties": {"ref": "KM 51.0, Highway 2ManatiPR", "@spider": "clean_harbors", "addr:full": "KM 51.0, Highway 2", "addr:city": "Manati", "addr:state": "PR", "addr:postcode": "00674", "addr:country": "US", "name": "Clean Harbors", "phone": "NULL", "brand": "Clean Harbors", "brand:wikidata": "Q5130494"}, "geometry": {"type": "Point", "coordinates": [-66.4757265, 18.4328842]}},
{"type": "Feature", "id": "HTjaXh_3v2iOdjB43551AqJT1UE=", "properties": {"ref": "Road 869, Street # 2, West Gate Industrial Park, Palmas WardCatanoPR", "@spider": "clean_harbors", "addr:full": "Road 869, Street # 2, West Gate Industrial Park, Palmas Ward", "addr:city": "Catano", "addr:state": "PR", "addr:postcode": "00962", "addr:country": "US", "name": "Clean Harbors", "phone": "NULL", "brand": "Clean Harbors", "brand:wikidata": "Q5130494"}, "geometry": {"type": "Point", "coordinates": [-66.1355775, 18.4354298]}},
{"type": "Feature", "id": "7UXKtUbtWLimjsg2YQM3KeI0ZAo=", "properties": {"ref": "3804 - 53 AvenueProvostAB", "@spider": "clean_harbors", "addr:full": "3804 - 53 Avenue", "addr:city": "Provost", "addr:state": "AB", "addr:postcode": "T0B 3S0", "addr:country": "CA", "name": "Clean Harbors", "phone": "NULL", "brand": "Clean Harbors", "brand:wikidata": "Q5130494"}, "geometry": {"type": "Point", "coordinates": [-110.24414020141, 52.356867579786]}},
{"type": "Feature", "id": "WsxIwNi-04B1gc6NngFBJUKuZ80=", "properties": {"ref": "405 McAloney RoadPrince GeorgeBC", "@spider": "clean_harbors", "addr:full": "405 McAloney Road", "addr:city": "Prince George", "addr:state": "BC", "addr:postcode": "V2K 4L2", "addr:country": "CA", "name": "Clean Harbors", "phone": "250-563-5882", "brand": "Clean Harbors", "brand:wikidata": "Q5130494"}, "geometry": {"type": "Point", "coordinates": [-122.7749096, 53.928406]}},
{"type": "Feature", "id": "Knkb6Ta1VOtIvjM1wckHqHFQ_oI=", "properties": {"ref": "Highway #73 at Sabine Consolidated RoadPort ArthurTX", "@spider": "clean_harbors", "addr:full": "Highway #73 at Sabine Consolidated Road", "addr:city": "Port Arthur", "addr:state": "TX", "addr:postcode": "77640", "addr:country": "US", "name": "Clean Harbors", "phone": "NULL", "brand": "Clean Harbors", "brand:wikidata": "Q5130494"}, "geometry": {"type": "Point", "coordinates": [-94.1267009, 29.8499953]}},
{"type": "Feature", "id": "PB3kJzOqGy-ZsuHhkQXdXt3p3Jo=", "properties": {"ref": "704 East Hubbard RoadPonca CityOK", "@spider": "clean_harbors", "addr:full": "704 East Hubbard Road", "addr:city": "Ponca City", "addr:state": "OK", "addr:postcode": "74601", "addr:country": "US", "name": "Clean Harbors", "phone": "580-762-4111", "brand": "Clean Harbors", "brand:wikidata": "Q5130494"}, "geometry": {"type": "Point", "coordinates": [-97.0672289, 36.7527699]}},
{"type": "Feature", "id": "hKjCzGjKQftlbjj3G_0pc7NWvEI=", "properties": {"ref": "1400 NW 13th Ave.Pompano BeachFL", "@spider": "clean_harbors", "addr:full": "1400 NW 13th Ave.", "addr:city": "Pompano Beach", "addr:state": "FL", "addr:postcode": "33069", "addr:country": "US", "name": "Clean Harbors", "phone": "754-222-5102", "brand": "Clean Harbors", "brand:wikidata": "Q5130494"}, "geometry": {"type": "Point", "coordinates": [-80.1413055, 26.2451738]}},
{"type": "Feature", "id": "x63gO5Re-5VRHHdiLF3WzofuCjg=", "properties": {"ref": "111 Harris DrivePocaWV", "@spider": "clean_harbors", "addr:full": "111 Harris Drive", "addr:city": "Poca", "addr:state": "WV", "addr:postcode": "25159", "addr:country": "US", "name": "Clean Harbors", "phone": "304-755-4279", "brand": "Clean Harbors", "brand:wikidata": "Q5130494"}, "geometry": {"type": "Point", "coordinates": [-81.819678, 38.450439]}},
{"type": "Feature", "id": "4kuY570-SbyjM1QMX0CvQ7wNlaI=", "properties": {"ref": "650 Noble DriveWest MifflinPA", "@spider": "clean_harbors", "addr:full": "650 Noble Drive", "addr:city": "West Mifflin", "addr:state": "PA", "addr:postcode": "15122", "addr:country": "US", "phone": "412-643-5012", "brand": "Clean Harbors", "brand:wikidata": "Q5130494"}, "geometry": {"type": "Point", "coordinates": [-79.9310674, 40.3610977]}},
{"type": "Feature", "id": "qh1Oh9Q4DKhIpLJwHcPH1w_GkKs=", "properties": {"ref": "1340 West Lincoln StreetPhoenixAZ", "@spider": "clean_harbors", "addr:full": "1340 West Lincoln Street", "addr:city": "Phoenix", "addr:state": "AZ", "addr:postcode": "85007", "addr:country": "US", "name": "Clean Harbors", "phone": "602-258-6155", "brand": "Clean Harbors", "brand:wikidata": "Q5130494"}, "geometry": {"type": "Point", "coordinates": [-112.0904767, 33.4423211]}},
{"type": "Feature", "id": "d86cPBhipDrtUzO9638zpSrUujc=", "properties": {"ref": "904 Courses Landing RoadPenns GroveNJ", "@spider": "clean_harbors", "addr:full": "904 Courses Landing Road", "addr:city": "Penns Grove", "addr:state": "NJ", "addr:postcode": "08069", "addr:country": "US", "name": "Clean Harbors", "phone": "410-287-7200", "brand": "Clean Harbors", "brand:wikidata": "Q5130494"}, "geometry": {"type": "Point", "coordinates": [-75.433094, 39.680518]}},
{"type": "Feature", "id": "dUKaNzUBtBHIrICwg2O9XUwr264=", "properties": {"ref": "6125 N. Pecatonica RoadPecatonicaIL", "@spider": "clean_harbors", "addr:full": "6125 N. Pecatonica Road", "addr:city": "Pecatonica", "addr:state": "IL", "addr:postcode": "61063", "addr:country": "US", "name": "Clean Harbors", "phone": "815-239-2152", "brand": "Clean Harbors", "brand:wikidata": "Q5130494"}, "geometry": {"type": "Point", "coordinates": [-89.3585191, 42.3413524]}},
{"type": "Feature", "id": "YNsv9ZZoywEIeTePb0UEgeWgSW8=", "properties": {"ref": "4123 East B Street, Unit APascoWA", "@spider": "clean_harbors", "addr:full": "4123 East B Street, Unit A", "addr:city": "Pasco", "addr:state": "WA", "addr:postcode": "99301", "addr:country": "US", "name": "Clean Harbors", "phone": "509-316-7002", "brand": "Clean Harbors", "brand:wikidata": "Q5130494"}, "geometry": {"type": "Point", "coordinates": [-119.0420248, 46.2258201]}},
{"type": "Feature", "id": "jjC2Gxbw3X8JRHW-elB8pF9iYaQ=", "properties": {"ref": "3996 W M-21OwossoMI", "@spider": "clean_harbors", "addr:full": "3996 W M-21", "addr:city": "Owosso", "addr:state": "MI", "addr:postcode": "48867", "addr:country": "US", "name": "Clean Harbors", "phone": "989-875-6500", "brand": "Clean Harbors", "brand:wikidata": "Q5130494"}, "geometry": {"type": "Point", "coordinates": [-84.2445042, 43.0004238]}},
{"type": "Feature", "id": "6z9Bv1KYuVVjfOfckYJLxsc9Se4=", "properties": {"ref": "161 Industrial Loop SouthOrange ParkFL", "@spider": "clean_harbors", "addr:full": "161 Industrial Loop South", "addr:city": "Orange Park", "addr:state": "FL", "addr:postcode": "32073", "addr:country": "US", "name": "Clean Harbors", "phone": "904-264-2607", "brand": "Clean Harbors", "brand:wikidata": "Q5130494"}, "geometry": {"type": "Point", "coordinates": [-81.718128, 30.179967]}},
{"type": "Feature", "id": "W0uD6-rwTREYFExkvu7wA5BKbfU=", "properties": {"ref": "2218 Township Road 540OnowayAB", "@spider": "clean_harbors", "addr:full": "2218 Township Road 540", "addr:city": "Onoway", "addr:state": "AB", "addr:postcode": "T0E 1V0", "addr:country": "CA", "name": "Clean Harbors", "phone": "780-451-6969", "brand": "Clean Harbors", "brand:wikidata": "Q5130494"}, "geometry": {"type": "Point", "coordinates": [-114.1244990863, 53.628600677494]}},
{"type": "Feature", "id": "W-mM2o8eO1S9ajWWInO4TyzZ0eE=", "properties": {"ref": "13915 A PlazaOmahaNE", "@spider": "clean_harbors", "addr:full": "13915 A Plaza", "addr:city": "Omaha", "addr:state": "NE", "addr:postcode": "68144", "addr:country": "US", "name": "Clean Harbors", "phone": "NULL", "brand": "Clean Harbors", "brand:wikidata": "Q5130494"}, "geometry": {"type": "Point", "coordinates": [-96.1300119, 41.22326]}},
{"type": "Feature", "id": "s9X6UKLk5yjYvJGzka-mJg-qg_I=", "properties": {"ref": "52838 W. 61st StreetOiltonIK", "@spider": "clean_harbors", "addr:full": "52838 W. 61st Street", "addr:city": "Oilton", "addr:state": "IK", "addr:postcode": "74052", "addr:country": "US", "name": "Clean Harbors", "phone": "918-625-7470", "brand": "Clean Harbors", "brand:wikidata": "Q5130494"}, "geometry": {"type": "Point", "coordinates": [-96.594027, 36.074408]}},
{"type": "Feature", "id": "3AhiBGVz4BA5hTTa4483Y5nAfBQ=", "properties": {"ref": "1501 Walther RdOdessaTX", "@spider": "clean_harbors", "addr:full": "1501 Walther Rd", "addr:city": "Odessa", "addr:state": "TX", "addr:postcode": "79763", "addr:country": "US", "name": "Clean Harbors", "phone": "833-923-4400", "brand": "Clean Harbors", "brand:wikidata": "Q5130494"}, "geometry": {"type": "Point", "coordinates": [-102.3941396, 31.8182269]}},
{"type": "Feature", "id": "KK6JW4O1yYUTFHgx-5S3R3Qx4OM=", "properties": {"ref": "1501 Walther RoadOdessaTX", "@spider": "clean_harbors", "addr:full": "1501 Walther Road", "addr:city": "Odessa", "addr:state": "TX", "addr:postcode": "79763", "addr:country": "US", "name": "Clean Harbors", "phone": "781-857-0819", "brand": "Clean Harbors", "brand:wikidata": "Q5130494"}, "geometry": {"type": "Point", "coordinates": [-102.3941396, 31.8182269]}},
{"type": "Feature", "id": "OTjxdG_7mSaqvBAR0gWUjh0AONQ=", "properties": {"ref": "42 Longwater DriveNorwellMA", "@spider": "clean_harbors", "addr:full": "42 Longwater Drive", "addr:city": "Norwell", "addr:state": "MA", "addr:postcode": "02061-9149", "addr:country": "US", "name": "Clean Harbors", "phone": "NULL", "brand": "Clean Harbors", "brand:wikidata": "Q5130494"}, "geometry": {"type": "Point", "coordinates": [-70.8839929, 42.1603973]}},
{"type": "Feature", "id": "htE4zQx-S909th_fxSEhiQ51ltY=", "properties": {"ref": "709 North Taylor WayNorth Salt LakeUT", "@spider": "clean_harbors", "addr:full": "709 North Taylor Way", "addr:city": "North Salt Lake", "addr:state": "UT", "addr:postcode": "84054", "addr:country": "US", "name": "Clean Harbors", "phone": "801-294-2992", "brand": "Clean Harbors", "brand:wikidata": "Q5130494"}, "geometry": {"type": "Point", "coordinates": [-111.9163848, 40.8548844]}},
{"type": "Feature", "id": "Se2crO_hb03CKgt8Fg_rXzDjU5s=", "properties": {"ref": "97 North Leslie RoadNorth EastMD", "@spider": "clean_harbors", "addr:full": "97 North Leslie Road", "addr:city": "North East", "addr:state": "MD", "addr:postcode": "21901", "addr:country": "US", "name": "Clean Harbors", "phone": "410-287-7200", "brand": "Clean Harbors", "brand:wikidata": "Q5130494"}, "geometry": {"type": "Point", "coordinates": [-75.9519871, 39.6183003]}},
{"type": "Feature", "id": "IwR7GjxPevojuYceNI13yDy_9hA=", "properties": {"ref": "1460 Livingston AveNorth Brunswick NJ", "@spider": "clean_harbors", "addr:full": "1460 Livingston Ave", "addr:city": "North Brunswick ", "addr:state": "NJ", "addr:postcode": "08902", "addr:country": "US", "name": "Clean Harbors", "phone": "410-287-7200", "brand": "Clean Harbors", "brand:wikidata": "Q5130494"}, "geometry": {"type": "Point", "coordinates": [-74.4799467, 40.4588287]}},
{"type": "Feature", "id": "Y-Z9lW4dKat2eNFrVvG3uQPNg_M=", "properties": {"ref": "7 Park DriveNitroWV", "@spider": "clean_harbors", "addr:full": "7 Park Drive", "addr:city": "Nitro", "addr:state": "WV", "addr:postcode": "25143", "addr:country": "US", "name": "Clean Harbors", "phone": "304-755-0105", "brand": "Clean Harbors", "brand:wikidata": "Q5130494"}, "geometry": {"type": "Point", "coordinates": [-81.8402185, 38.438167]}},
{"type": "Feature", "id": "hKoMxtbu8QqUWmU80koq2zUOcIQ=", "properties": {"ref": "64805 Oilwell RoadNinilchikAK", "@spider": "clean_harbors", "addr:full": "64805 Oilwell Road", "addr:city": "Ninilchik", "addr:state": "AK", "addr:postcode": "99639", "addr:country": "US", "name": "Clean Harbors", "phone": "281-478-2679", "brand": "Clean Harbors", "brand:wikidata": "Q5130494"}, "geometry": {"type": "Point", "coordinates": [-151.6179861, 60.031016]}},
{"type": "Feature", "id": "FcEBu42jMBim5x8PKCkSIghvFzI=", "properties": {"ref": "15 Little Brook LaneNewburghNY", "@spider": "clean_harbors", "addr:full": "15 Little Brook Lane", "addr:city": "Newburgh", "addr:state": "NY", "addr:postcode": "12550", "addr:country": "US", "name": "Clean Harbors", "phone": "845-566-5071", "brand": "Clean Harbors", "brand:wikidata": "Q5130494"}, "geometry": {"type": "Point", "coordinates": [-74.06338, 41.5440799]}},
{"type": "Feature", "id": "cI48SQ0Bo1_yGd3D3Z1ml8SNPU0=", "properties": {"ref": "106 Ford CourtNew LenoxIL", "@spider": "clean_harbors", "addr:full": "106 Ford Court", "addr:city": "New Lenox", "addr:state": "IL", "addr:postcode": "60451", "addr:country": "US", "name": "Clean Harbors", "phone": "815-836-8813", "brand": "Clean Harbors", "brand:wikidata": "Q5130494"}, "geometry": {"type": "Point", "coordinates": [-87.967668, 41.4885826]}},
{"type": "Feature", "id": "4_Mwv9kW5oWExF9JoyYBlQsWZlU=", "properties": {"ref": "1205 Tool DriveNew IberiaLA", "@spider": "clean_harbors", "addr:full": "1205 Tool Drive", "addr:city": "New Iberia", "addr:state": "LA", "addr:postcode": "70562", "addr:country": "US", "name": "Clean Harbors", "phone": "337-365-9811", "brand": "Clean Harbors", "brand:wikidata": "Q5130494"}, "geometry": {"type": "Point", "coordinates": [-91.831804, 29.974278]}},
{"type": "Feature", "id": "c0Te3-YGYg0NTp4w-jXX3ZtWiC4=", "properties": {"ref": "16955 W. Rogers Dr.New BerlinWI", "@spider": "clean_harbors", "addr:full": "16955 W. Rogers Dr.", "addr:city": "New Berlin", "addr:state": "WI", "addr:postcode": "53151", "addr:country": "US", "name": "Clean Harbors", "phone": "262-293-2267", "brand": "Clean Harbors", "brand:wikidata": "Q5130494"}, "geometry": {"type": "Point", "coordinates": [-88.1235357, 43.0064362]}},
{"type": "Feature", "id": "NjMSF31RIN1ot1AkhCFF7TKygUg=", "properties": {"ref": "160 Logan DriveMuncyPA", "@spider": "clean_harbors", "addr:full": "160 Logan Drive", "addr:city": "Muncy", "addr:state": "PA", "addr:postcode": "17756", "addr:country": "US", "name": "Clean Harbors", "phone": "570-264-7000", "brand": "Clean Harbors", "brand:wikidata": "Q5130494"}, "geometry": {"type": "Point", "coordinates": [-76.7911302, 41.2231357]}},
{"type": "Feature", "id": "GKRkKxZJB4K6DwgZwX0Ed5LlLjw=", "properties": {"ref": "15195 State Route 536Mount VernonWA", "@spider": "clean_harbors", "addr:full": "15195 State Route 536", "addr:city": "Mount Vernon", "addr:state": "WA", "addr:postcode": "98273", "addr:country": "US", "name": "Clean Harbors", "phone": "360-899-5202", "brand": "Clean Harbors", "brand:wikidata": "Q5130494"}, "geometry": {"type": "Point", "coordinates": [-122.415482, 48.4429527]}},
{"type": "Feature", "id": "0R4kL46zKR5_dwjYk0fYZ8phybA=", "properties": {"ref": "7027 Commercial DriveMorrowGA", "@spider": "clean_harbors", "addr:full": "7027 Commercial Drive", "addr:city": "Morrow", "addr:state": "GA", "addr:postcode": "30260", "addr:country": "US", "name": "Clean Harbors", "phone": "770-496-9912", "brand": "Clean Harbors", "brand:wikidata": "Q5130494"}, "geometry": {"type": "Point", "coordinates": [-84.3422912, 33.5627586]}},
{"type": "Feature", "id": "-LJyBrVc2HlchA1WJ90SCS9xGd0=", "properties": {"ref": "121 East Chain of Rocks RoadMitchellIL", "@spider": "clean_harbors", "addr:full": "121 East Chain of Rocks Road", "addr:city": "Mitchell", "addr:state": "IL", "addr:postcode": "62040", "addr:country": "US", "name": "Clean Harbors", "phone": "618-931-0010", "brand": "Clean Harbors", "brand:wikidata": "Q5130494"}, "geometry": {"type": "Point", "coordinates": [-90.0907368, 38.7619526]}},
{"type": "Feature", "id": "Tfas9ObljmPaxJ-DQR1RoAozAtM=", "properties": {"ref": "551 Avonhead RdMississaugaON", "@spider": "clean_harbors", "addr:full": "551 Avonhead Rd", "addr:city": "Mississauga", "addr:state": "ON", "addr:postcode": "L5J 4B1", "addr:country": "CA", "name": "Clean Harbors", "phone": "905-822-3781", "brand": "Clean Harbors", "brand:wikidata": "Q5130494"}, "geometry": {"type": "Point", "coordinates": [-79.623988, 43.496815]}},
{"type": "Feature", "id": "QBxK7sY_fK8pFd3xxd53yV-9-ZY=", "properties": {"ref": "5399 East Holmes RoadMemphisTN", "@spider": "clean_harbors", "addr:full": "5399 East Holmes Road", "addr:city": "Memphis", "addr:state": "TN", "addr:postcode": "38118", "addr:country": "US", "name": "Clean Harbors", "phone": "901-730-4190", "brand": "Clean Harbors", "brand:wikidata": "Q5130494"}, "geometry": {"type": "Point", "coordinates": [-89.8832903, 35.0048098]}},
{"type": "Feature", "id": "koJpwaJ2uDZ0tow3ZTYnCXTDq4A=", "properties": {"ref": "50A Brigham StreetMarlboroughMA", "@spider": "clean_harbors", "addr:full": "50A Brigham Street", "addr:city": "Marlborough", "addr:state": "MA", "addr:postcode": "01752", "addr:country": "US", "name": "Clean Harbors", "phone": "508-970-8672", "brand": "Clean Harbors", "brand:wikidata": "Q5130494"}, "geometry": {"type": "Point", "coordinates": [-71.5419256, 42.3295682]}},
{"type": "Feature", "id": "loNTWT-MtGOc_wHK80ffN5Z5WzA=", "properties": {"ref": "5406 46 StMacklinSK", "@spider": "clean_harbors", "addr:full": "5406 46 St", "addr:city": "Macklin", "addr:state": "SK", "addr:postcode": "S0L 2C0", "addr:country": "CA", "name": "Clean Harbors", "phone": "780-753-6330", "brand": "Clean Harbors", "brand:wikidata": "Q5130494"}, "geometry": {"type": "Point", "coordinates": [-109.9368612, 52.3384593]}},
{"type": "Feature", "id": "MedVGkcvdBS5EESp4nJeFsBLyTQ=", "properties": {"ref": "5100 Coquiwaldie RoadMackenzieBC", "@spider": "clean_harbors", "addr:full": "5100 Coquiwaldie Road", "addr:city": "Mackenzie", "addr:state": "BC", "addr:postcode": "V0J 2C0", "addr:country": "CA", "name": "Clean Harbors", "phone": "250-997-6129", "brand": "Clean Harbors", "brand:wikidata": "Q5130494"}, "geometry": {"type": "Point", "coordinates": [-123.1404474, 55.3060759]}},
{"type": "Feature", "id": "mQEmO7b_15961rB6nH5Y595fPTc=", "properties": {"ref": "261 Eiler AvenueLouisvilleKY", "@spider": "clean_harbors", "addr:full": "261 Eiler Avenue", "addr:city": "Louisville", "addr:state": "KY", "addr:postcode": "40214", "addr:country": "US", "name": "Clean Harbors", "phone": "513-681-6242", "brand": "Clean Harbors", "brand:wikidata": "Q5130494"}, "geometry": {"type": "Point", "coordinates": [-85.750652, 38.162369]}},
{"type": "Feature", "id": "BZk0m7Elyq4r51hxFaU6DLGlV98=", "properties": {"ref": "1700 S.Soto StreetLos AngelesCA", "@spider": "clean_harbors", "addr:full": "1700 S.Soto Street", "addr:city": "Los Angeles", "addr:state": "CA", "addr:postcode": "90023", "addr:country": "US", "name": "Clean Harbors", "phone": "916-365-5682", "brand": "Clean Harbors", "brand:wikidata": "Q5130494"}, "geometry": {"type": "Point", "coordinates": [-118.2388297, 33.9895061]}},
{"type": "Feature", "id": "b_7rYCcgpoZaFSJmLF6pLzr08U4=", "properties": {"ref": "40355 S. County Road 236WaynokaOK", "@spider": "clean_harbors", "addr:full": "40355 S. County Road 236", "addr:city": "Waynoka", "addr:state": "OK", "addr:postcode": "73860", "addr:country": "US", "name": "Clean Harbors", "phone": "580-697-3500", "brand": "Clean Harbors", "brand:wikidata": "Q5130494"}, "geometry": {"type": "Point", "coordinates": [-98.8798145, 36.5822557]}},
{"type": "Feature", "id": "SBa7VAW8dQLV9onb5Tkhunthc-I=", "properties": {"ref": "1200 Sylvan StreetLindenNJ", "@spider": "clean_harbors", "addr:full": "1200 Sylvan Street", "addr:city": "Linden", "addr:state": "NJ", "addr:postcode": "07036", "addr:country": "US", "name": "Clean Harbors", "phone": "908-525-7043", "brand": "Clean Harbors", "brand:wikidata": "Q5130494"}, "geometry": {"type": "Point", "coordinates": [-74.252092, 40.6137716]}},
{"type": "Feature", "id": "MaScqFxrJBeRFp9UXqLJLyHh06I=", "properties": {"ref": "2250 N. Church RoadLibertyMO", "@spider": "clean_harbors", "addr:full": "2250 N. Church Road", "addr:city": "Liberty", "addr:state": "MO", "addr:postcode": "64101", "addr:country": "US", "name": "Clean Harbors", "phone": "816-781-3000", "brand": "Clean Harbors", "brand:wikidata": "Q5130494"}, "geometry": {"type": "Point", "coordinates": [-94.4382272, 39.2752608]}},
{"type": "Feature", "id": "HOVK0_jSq_VTw2UyfFQvZkSdohY=", "properties": {"ref": "130-B Frontage RoadLexingtonSC", "@spider": "clean_harbors", "addr:full": "130-B Frontage Road", "addr:city": "Lexington", "addr:state": "SC", "addr:postcode": "29073", "addr:country": "US", "name": "Clean Harbors", "phone": "803-490-6003", "brand": "Clean Harbors", "brand:wikidata": "Q5130494"}, "geometry": {"type": "Point", "coordinates": [-81.1996765, 33.9724296]}},
{"type": "Feature", "id": "wGBso4eipggNKa7CRDplsSuyVow=", "properties": {"ref": "13733 W. 108th StreetLenexaKS", "@spider": "clean_harbors", "addr:full": "13733 W. 108th Street", "addr:city": "Lenexa", "addr:state": "KS", "addr:postcode": "66215", "addr:country": "US", "name": "Clean Harbors", "phone": "913-491-4051", "brand": "Clean Harbors", "brand:wikidata": "Q5130494"}, "geometry": {"type": "Point", "coordinates": [-94.744642, 38.932479]}},
{"type": "Feature", "id": "6pUkl4yGX9TpB4Y1hoEme7BtnnY=", "properties": {"ref": "3902 - 77 AvenueLeducAB", "@spider": "clean_harbors", "addr:full": "3902 - 77 Avenue", "addr:city": "Leduc", "addr:state": "AB", "addr:postcode": "T9E 0B7", "addr:country": "CA", "name": "Clean Harbors", "phone": "780-903-6777", "brand": "Clean Harbors", "brand:wikidata": "Q5130494"}, "geometry": {"type": "Point", "coordinates": [-113.5288899, 53.299299]}},
{"type": "Feature", "id": "S_s-jgF9IkX8SDj5ZdTZbaP95wA=", "properties": {"ref": "3527 Whiskey Bottom RoadLaurelMD", "@spider": "clean_harbors", "addr:full": "3527 Whiskey Bottom Road", "addr:city": "Laurel", "addr:state": "MD", "addr:postcode": "20724", "addr:country": "US", "name": "Clean Harbors", "phone": "301-939-6000", "brand": "Clean Harbors", "brand:wikidata": "Q5130494"}, "geometry": {"type": "Point", "coordinates": [-76.8154088, 39.1014878]}},
{"type": "Feature", "id": "kQ0k_rZtSsku-AJ6iOYNYk1pu-U=", "properties": {"ref": "4500 North Walnut Road, Suite BLas VegasNV", "@spider": "clean_harbors", "addr:full": "4500 North Walnut Road, Suite B", "addr:city": "Las Vegas", "addr:state": "NV", "addr:postcode": "89081", "addr:country": "US", "name": "Clean Harbors", "phone": "702-258-0109", "brand": "Clean Harbors", "brand:wikidata": "Q5130494"}, "geometry": {"type": "Point", "coordinates": [-115.0894582, 36.2422645]}},
{"type": "Feature", "id": "PyJHS1_lwssz61x1yuQdqZGAIgw=", "properties": {"ref": "149 Woodland DriveLaPlaceLA", "@spider": "clean_harbors", "addr:full": "149 Woodland Drive", "addr:city": "LaPlace", "addr:state": "LA", "addr:postcode": "70068", "addr:country": "US", "name": "Clean Harbors", "phone": "985-652-0187", "brand": "Clean Harbors", "brand:wikidata": "Q5130494"}, "geometry": {"type": "Point", "coordinates": [-90.4508077, 30.0860413]}},
{"type": "Feature", "id": "dNgkA3JY57WB_AlU-_wXeOImoJE=", "properties": {"ref": "4090 Telfer Road, Rural Route #1CorunnaON", "@spider": "clean_harbors", "addr:full": "4090 Telfer Road, Rural Route #1", "addr:city": "Corunna", "addr:state": "ON", "addr:postcode": "N0N 1G0", "addr:country": "CA", "name": "Clean Harbors", "phone": "519-864-1021", "brand": "Clean Harbors", "brand:wikidata": "Q5130494"}, "geometry": {"type": "Point", "coordinates": [-82.3019742, 42.8785174]}},
{"type": "Feature", "id": "yY9bXHtu3VLMGdf52KZfCgMGG98=", "properties": {"ref": "500 Independence Parkway SouthLa PorteTX", "@spider": "clean_harbors", "addr:full": "500 Independence Parkway South", "addr:city": "La Porte", "addr:state": "TX", "addr:postcode": "77571", "addr:country": "US", "name": "Clean Harbors", "phone": "281-884-5500", "brand": "Clean Harbors", "brand:wikidata": "Q5130494"}, "geometry": {"type": "Point", "coordinates": [-95.0900281, 29.7077281]}},
{"type": "Feature", "id": "ygKs9-npoQxD5mN_y1Jx2wJsVUI=", "properties": {"ref": "1980 North Highway 146La PorteTX", "@spider": "clean_harbors", "addr:full": "1980 North Highway 146", "addr:city": "La Porte", "addr:state": "TX", "addr:postcode": "77571", "addr:country": "US", "name": "Clean Harbors", "phone": "307-382-4442", "brand": "Clean Harbors", "brand:wikidata": "Q5130494"}, "geometry": {"type": "Point", "coordinates": [-95.094282, 29.7310855]}},
{"type": "Feature", "id": "sO5BmOmAWD11fK9qFDglMDrm2MI=", "properties": {"ref": "1980 Texas 146 Service RoadLa PorteTX", "@spider": "clean_harbors", "addr:full": "1980 Texas 146 Service Road", "addr:city": "La Porte", "addr:state": "TX", "addr:postcode": "77571", "addr:country": "US", "name": "Clean Harbors", "phone": "713-307-2100", "brand": "Clean Harbors", "brand:wikidata": "Q5130494"}, "geometry": {"type": "Point", "coordinates": [-95.0300406, 29.6868004]}},
{"type": "Feature", "id": "jyTqDr-qdlX-h_ZVyQ9MXnPEqNs=", "properties": {"ref": "30 Joseph StreetKingstonMA", "@spider": "clean_harbors", "addr:full": "30 Joseph Street", "addr:city": "Kingston", "addr:state": "MA", "addr:postcode": "02364", "addr:country": "US", "name": "Clean Harbors", "phone": "339-309-2168", "brand": "Clean Harbors", "brand:wikidata": "Q5130494"}, "geometry": {"type": "Point", "coordinates": [-70.757594, 42.0030417]}},
{"type": "Feature", "id": "CroMqoAA8IK3Q9rLOAnzYLZa_Ng=", "properties": {"ref": "3250 Lloydtown Aurora RdKingON", "@spider": "clean_harbors", "addr:full": "3250 Lloydtown Aurora Rd", "addr:city": "King", "addr:state": "ON", "addr:postcode": "L7B 0G3", "addr:country": "CA", "name": "Clean Harbors", "phone": "647-463-5211", "brand": "Clean Harbors", "brand:wikidata": "Q5130494"}, "geometry": {"type": "Point", "coordinates": [-79.5814137, 44.0044927]}},
{"type": "Feature", "id": "JG2RKlFfxzCjBKwH6QKk1-qHyNE=", "properties": {"ref": "2247 South Highway 71KimballNE", "@spider": "clean_harbors", "addr:full": "2247 South Highway 71", "addr:city": "Kimball", "addr:state": "NE", "addr:postcode": "69145", "addr:country": "US", "name": "Clean Harbors", "phone": "308-235-4012", "brand": "Clean Harbors", "brand:wikidata": "Q5130494"}, "geometry": {"type": "Point", "coordinates": [-103.6544634, 41.1557365]}},
{"type": "Feature", "id": "sD76gpf0P5ac6gAb2MqBdrPoz5M=", "properties": {"ref": "26328 79th Ave SouthKentWA", "@spider": "clean_harbors", "addr:full": "26328 79th Ave South", "addr:city": "Kent", "addr:state": "WA", "addr:postcode": "98032", "addr:country": "US", "name": "Clean Harbors", "phone": "253-639-4240", "brand": "Clean Harbors", "brand:wikidata": "Q5130494"}, "geometry": {"type": "Point", "coordinates": [-122.2344939, 47.3656061]}},
{"type": "Feature", "id": "vGQ3sHBiE5Zxi7kreAgm-VqVocY=", "properties": {"ref": "2423 Tyler StreetKennerLA", "@spider": "clean_harbors", "addr:full": "2423 Tyler Street", "addr:city": "Kenner", "addr:state": "LA", "addr:postcode": "70062", "addr:country": "US", "name": "Clean Harbors", "phone": "225-778-3616", "brand": "Clean Harbors", "brand:wikidata": "Q5130494"}, "geometry": {"type": "Point", "coordinates": [-90.2771832, 30.0008935]}},
{"type": "Feature", "id": "8gK0mqqjmlbx-HZoKsp1OUbfAO8=", "properties": {"ref": "4030 Columbus Drive NEKalkaskaMI", "@spider": "clean_harbors", "addr:full": "4030 Columbus Drive NE", "addr:city": "Kalkaska", "addr:state": "MI", "addr:postcode": "49646", "addr:country": "US", "name": "Clean Harbors", "phone": "231-258-8014", "brand": "Clean Harbors", "brand:wikidata": "Q5130494"}, "geometry": {"type": "Point", "coordinates": [-85.1668433, 44.7724702]}},
{"type": "Feature", "id": "2DeDH_JfswzlzM0xR1-FO8DT3Dc=", "properties": {"ref": "155 South Seward StreetJuneauAK", "@spider": "clean_harbors", "addr:full": "155 South Seward Street", "addr:city": "Juneau", "addr:state": "AK", "addr:postcode": "99801", "addr:country": "US", "name": "Clean Harbors", "phone": "907-780-6691", "brand": "Clean Harbors", "brand:wikidata": "Q5130494"}, "geometry": {"type": "Point", "coordinates": [-134.4068213, 58.2997973]}},
{"type": "Feature", "id": "tMUl_vAxiAKDZ9Lj50gtdV1kLUY=", "properties": {"ref": "Boulevard Miguel De La Madrid s/n Esq Rodriguez Jardines del AeropuertoCiudad Juarez", "@spider": "clean_harbors", "addr:full": "Boulevard Miguel De La Madrid s/n Esq Rodriguez Jardines del Aeropuerto", "addr:city": "Ciudad Juarez", "addr:state": "N/A", "addr:postcode": "32695", "addr:country": "MX", "name": "Laidlaw Environmental Services de Mexico, S.A.de C.V.", "phone": "01152-656-892-8036", "brand": "Clean Harbors", "brand:wikidata": "Q5130494"}, "geometry": {"type": "Point", "coordinates": [-105.7820674, 28.4854458]}},
{"type": "Feature", "id": "tCDeBrHJ54YMfJwltlOh4pF8XaY=", "properties": {"ref": "4710 Dignan StreetJacksonvilleFL", "@spider": "clean_harbors", "addr:full": "4710 Dignan Street", "addr:city": "Jacksonville", "addr:state": "FL", "addr:postcode": "32254", "addr:country": "US", "name": "Clean Harbors", "phone": "904-381-8511", "brand": "Clean Harbors", "brand:wikidata": "Q5130494"}, "geometry": {"type": "Point", "coordinates": [-81.7269478, 30.3243505]}},
{"type": "Feature", "id": "qkX1K_2OLMwTXcj_if4Z0YULr7c=", "properties": {"ref": "212 S Pine River StreetIthacaMI", "@spider": "clean_harbors", "addr:full": "212 S Pine River Street", "addr:city": "Ithaca", "addr:state": "MI", "addr:postcode": "48867", "addr:country": "US", "name": "Clean Harbors", "phone": "989-875-6500", "brand": "Clean Harbors", "brand:wikidata": "Q5130494"}, "geometry": {"type": "Point", "coordinates": [-84.6076069, 43.2903287]}},
{"type": "Feature", "id": "fny_1uG8aaISti3UxA-um1K4oRk=", "properties": {"ref": "475 Park 800 Industrial DriveGreenwoodIN", "@spider": "clean_harbors", "addr:full": "475 Park 800 Industrial Drive", "addr:city": "Greenwood", "addr:state": "IN", "addr:postcode": "46143", "addr:country": "US", "name": "Clean Harbors", "phone": "317-888-0570", "brand": "Clean Harbors", "brand:wikidata": "Q5130494"}, "geometry": {"type": "Point", "coordinates": [-86.0974722, 39.5913993]}},
{"type": "Feature", "id": "0gmtGJLcsxadBC6vj31UWc8u5sk=", "properties": {"ref": "91 Pinevale SreetIndian OrchardMA", "@spider": "clean_harbors", "addr:full": "91 Pinevale Sreet", "addr:city": "Indian Orchard", "addr:state": "MA", "addr:postcode": "01151", "addr:country": "US", "name": "Clean Harbors", "phone": "413-827-8557", "brand": "Clean Harbors", "brand:wikidata": "Q5130494"}, "geometry": {"type": "Point", "coordinates": [-72.499911, 42.156917]}},
{"type": "Feature", "id": "VBRbNTQeuFtlvNC6aJvR-c76DrA=", "properties": {"ref": "6151 Executive BlvdHuber HeightsOH", "@spider": "clean_harbors", "addr:full": "6151 Executive Blvd", "addr:city": "Huber Heights", "addr:state": "OH", "addr:postcode": "45424", "addr:country": "US", "name": "Clean Harbors", "phone": "937-237-1097", "brand": "Clean Harbors", "brand:wikidata": "Q5130494"}, "geometry": {"type": "Point", "coordinates": [-84.1251252, 39.8708023]}},
{"type": "Feature", "id": "TfmWlmXZ7HgdHBiJgBczfKilNv8=", "properties": {"ref": "3624 Westchase DriveHoustonTX", "@spider": "clean_harbors", "addr:full": "3624 Westchase Drive", "addr:city": "Houston", "addr:state": "TX", "addr:postcode": "77042", "addr:country": "US", "name": "Clean Harbors", "phone": "281-478-2658", "brand": "Clean Harbors", "brand:wikidata": "Q5130494"}, "geometry": {"type": "Point", "coordinates": [-95.5520098, 29.7246601]}},
{"type": "Feature", "id": "V0fP8Rx_RRiZMR9UckksfF57EaQ=", "properties": {"ref": "802 Seaco CtHoustonTX", "@spider": "clean_harbors", "addr:full": "802 Seaco Ct", "addr:city": "Houston", "addr:state": "TX", "addr:postcode": "77536", "addr:country": "US", "name": "Clean Harbors", "phone": "281-478-2600", "brand": "Clean Harbors", "brand:wikidata": "Q5130494"}, "geometry": {"type": "Point", "coordinates": [-95.129373, 29.704119]}},
{"type": "Feature", "id": "-NO0t4bMD9CVUbgpjeES5k8WP2A=", "properties": {"ref": "2202 Genoa Red Bluff RoadHoustonTX", "@spider": "clean_harbors", "addr:full": "2202 Genoa Red Bluff Road", "addr:city": "Houston", "addr:state": "TX", "addr:postcode": "77034", "addr:country": "US", "name": "Clean Harbors", "phone": "346-315-8301", "brand": "Clean Harbors", "brand:wikidata": "Q5130494"}, "geometry": {"type": "Point", "coordinates": [-95.1615555, 29.6288976]}},
{"type": "Feature", "id": "sIdk2fCsE7pD6byKB1-u5AH8kyM=", "properties": {"ref": "7545 Harvest Road Prince GeorgeHopewellVA", "@spider": "clean_harbors", "addr:full": "7545 Harvest Road Prince George", "addr:city": "Hopewell", "addr:state": "VA", "addr:postcode": "23875", "addr:country": "US", "name": "Clean Harbors", "phone": "804-796-6994", "brand": "Clean Harbors", "brand:wikidata": "Q5130494"}, "geometry": {"type": "Point", "coordinates": [-77.2640875, 37.2435011]}},
{"type": "Feature", "id": "1XsHwzQEQ36luc0MySCvfbkCVDs=", "properties": {"ref": "7979 Palm AvenueHighlandCA", "@spider": "clean_harbors", "addr:full": "7979 Palm Avenue", "addr:city": "Highland", "addr:state": "CA", "addr:postcode": "92346", "addr:country": "US", "name": "Clean Harbors", "phone": "909-862-8300", "brand": "Clean Harbors", "brand:wikidata": "Q5130494"}, "geometry": {"type": "Point", "coordinates": [-117.2083114, 34.1068209]}},
{"type": "Feature", "id": "E2kPpMlCWhaSDuO4M4uEEY5eEYM=", "properties": {"ref": "9775 East 97th PlaceHendersonCO", "@spider": "clean_harbors", "addr:full": "9775 East 97th Place", "addr:city": "Henderson", "addr:state": "CO", "addr:postcode": "80640", "addr:country": "US", "name": "Clean Harbors", "phone": "970-651-3134", "brand": "Clean Harbors", "brand:wikidata": "Q5130494"}, "geometry": {"type": "Point", "coordinates": [-104.8737521, 39.8740391]}},
{"type": "Feature", "id": "41IA7ZQtUlkpf2IioweVvnUDuXQ=", "properties": {"ref": "581 Milliken DriveHebronOH", "@spider": "clean_harbors", "addr:full": "581 Milliken Drive", "addr:city": "Hebron", "addr:state": "OH", "addr:postcode": "43025", "addr:country": "US", "name": "Clean Harbors", "phone": "740-929-3532", "brand": "Clean Harbors", "brand:wikidata": "Q5130494"}, "geometry": {"type": "Point", "coordinates": [-82.475107, 39.984937]}},
{"type": "Feature", "id": "HUwig9gR4nWXIP_R9AgA9x45kjQ=", "properties": {"ref": "7349 Wilkes AvenueHeadingleyMB", "@spider": "clean_harbors", "addr:full": "7349 Wilkes Avenue", "addr:city": "Headingley", "addr:state": "MB", "addr:postcode": "R4H 1B8", "addr:country": "CA", "name": "Clean Harbors", "phone": "204-557-5884", "brand": "Clean Harbors", "brand:wikidata": "Q5130494"}, "geometry": {"type": "Point", "coordinates": [-97.3291284, 49.8381905]}},
{"type": "Feature", "id": "T6Ynt68pSsjXBMppy7Iu-Ybwm2M=", "properties": {"ref": "520 Southgate DriveGuelphON", "@spider": "clean_harbors", "addr:full": "520 Southgate Drive", "addr:city": "Guelph", "addr:state": "ON", "addr:postcode": "N1G 4P5", "addr:country": "CA", "name": "Clean Harbors", "phone": "519-824-2025", "brand": "Clean Harbors", "brand:wikidata": "Q5130494"}, "geometry": {"type": "Point", "coordinates": [-80.2166576, 43.4980981]}},
{"type": "Feature", "id": "tDfQ89B0R9Rqjnb4xa32UoerbjU=", "properties": {"ref": "5402 - 57 Ave.GrimshawAB", "@spider": "clean_harbors", "addr:full": "5402 - 57 Ave.", "addr:city": "Grimshaw", "addr:state": "AB", "addr:postcode": "T0H 1E0", "addr:country": "CA", "name": "Clean Harbors", "phone": "780-624-1440", "brand": "Clean Harbors", "brand:wikidata": "Q5130494"}, "geometry": {"type": "Point", "coordinates": [-117.6181485, 56.1930406]}},
{"type": "Feature", "id": "OJ1RgTou_aXWoxGwz6IV03m_o-s=", "properties": {"ref": "2815 Old Greenbrier PikeGreenbrierTN", "@spider": "clean_harbors", "addr:full": "2815 Old Greenbrier Pike", "addr:city": "Greenbrier", "addr:state": "TN", "addr:postcode": "37073", "addr:country": "US", "name": "Clean Harbors", "phone": "615-643-3170", "brand": "Clean Harbors", "brand:wikidata": "Q5130494"}, "geometry": {"type": "Point", "coordinates": [-86.8116959, 36.4452611]}},
{"type": "Feature", "id": "Sw3qV1-SLdu8JjyZ1AdmKT_xgG0=", "properties": {"ref": "(for FedEx) 3 Miles East 7 Miles North of Knolls, Exit 41 off I-80CliveUT", "@spider": "clean_harbors", "addr:full": "(for FedEx) 3 Miles East 7 Miles North of Knolls, Exit 41 off I-80", "addr:city": "Clive", "addr:state": "UT", "addr:postcode": "84083", "addr:country": "US", "name": "Clean Harbors", "phone": "NULL", "brand": "Clean Harbors", "brand:wikidata": "Q5130494"}, "geometry": {"type": "Point", "coordinates": [-113.5851508, 40.7337457]}},
{"type": "Feature", "id": "OLY9vPnBJmPA3WTuxoklceHFmD0=", "properties": {"ref": "9805-42 AVEGrande PrairieAB", "@spider": "clean_harbors", "addr:full": "9805-42 AVE", "addr:city": "Grande Prairie", "addr:state": "AB", "addr:postcode": "T8W 5A8", "addr:country": "CA", "name": "Clean Harbors", "phone": "NULL", "brand": "Clean Harbors", "brand:wikidata": "Q5130494"}, "geometry": {"type": "Point", "coordinates": [-118.7869154, 55.1184691]}},
{"type": "Feature", "id": "wGWZCPzwBlM7KNOc7KwxiR4ajns=", "properties": {"ref": "9601 156 AvenueGrande PrairieAB", "@spider": "clean_harbors", "addr:full": "9601 156 Avenue", "addr:city": "Grande Prairie", "addr:state": "AB", "addr:postcode": "T8V 2P3", "addr:country": "CA", "name": "Clean Harbors", "phone": "780-532-0011", "brand": "Clean Harbors", "brand:wikidata": "Q5130494"}, "geometry": {"type": "Point", "coordinates": [-118.78435364392, 55.219601881689]}},
{"type": "Feature", "id": "9p2rURK1tzpCG-_rufeYVwema_I=", "properties": {"ref": "9601 156 AveGrande PrairieAB", "@spider": "clean_harbors", "addr:full": "9601 156 Ave", "addr:city": "Grande Prairie", "addr:state": "AB", "addr:postcode": "T8V 2P3", "addr:country": "CA", "name": "Clean Harbors", "phone": "780-532-4331", "brand": "Clean Harbors", "brand:wikidata": "Q5130494"}, "geometry": {"type": "Point", "coordinates": [-118.7839221, 55.219672]}},
{"type": "Feature", "id": "YFmSlrEPqcAUY13kirBDb6njZLs=", "properties": {"ref": "14020 97th StreetGrande PrairieAB", "@spider": "clean_harbors", "addr:full": "14020 97th Street", "addr:city": "Grande Prairie", "addr:state": "AB", "addr:postcode": "T8V 7B7", "addr:country": "CA", "name": "Clean Harbors", "phone": "780-539-6336", "brand": "Clean Harbors", "brand:wikidata": "Q5130494"}, "geometry": {"type": "Point", "coordinates": [-118.7876011, 55.207438]}},
{"type": "Feature", "id": "49xnV-bzE38UDJAiWx5Ogm-mraI=", "properties": {"ref": "32 Bask RoadGlenmontNY", "@spider": "clean_harbors", "addr:full": "32 Bask Road", "addr:city": "Glenmont", "addr:state": "NY", "addr:postcode": "12077", "addr:country": "US", "name": "Clean Harbors", "phone": "518-434-0149", "brand": "Clean Harbors", "brand:wikidata": "Q5130494"}, "geometry": {"type": "Point", "coordinates": [-73.769354, 42.581319]}},
{"type": "Feature", "id": "qH7YlAPtlW5lhJnJgszXiHDjMaI=", "properties": {"ref": "13075 Donges Bay RoadGermantownWI", "@spider": "clean_harbors", "addr:full": "13075 Donges Bay Road", "addr:city": "Germantown", "addr:state": "WI", "addr:postcode": "53022", "addr:country": "US", "name": "Clean Harbors", "phone": "262-236-8130", "brand": "Clean Harbors", "brand:wikidata": "Q5130494"}, "geometry": {"type": "Point", "coordinates": [-88.0730788, 43.206593]}},
{"type": "Feature", "id": "lLRvrRrN4eM-HKHtp5LPyihcEtM=", "properties": {"ref": "6715 85th AvenueFort St. JohnBC", "@spider": "clean_harbors", "addr:full": "6715 85th Avenue", "addr:city": "Fort St. John", "addr:state": "BC", "addr:postcode": "V1J 6C4", "addr:country": "CA", "name": "Clean Harbors", "phone": "250-785-8500", "brand": "Clean Harbors", "brand:wikidata": "Q5130494"}, "geometry": {"type": "Point", "coordinates": [-120.78735783666, 56.232045115412]}},
{"type": "Feature", "id": "JJbPwiK1ys5V3B7ijtKcUGFC9LU=", "properties": {"ref": "11208 - 84 AvenueFort SaskatchewanAB", "@spider": "clean_harbors", "addr:full": "11208 - 84 Avenue", "addr:city": "Fort Saskatchewan", "addr:state": "AB", "addr:postcode": "T8L 3V7", "addr:country": "CA", "name": "Clean Harbors", "phone": "780-998-0465", "brand": "Clean Harbors", "brand:wikidata": "Q5130494"}, "geometry": {"type": "Point", "coordinates": [-113.185552, 53.70512]}},
{"type": "Feature", "id": "SfsZ6vmqR2Y5AcDTnYALRGzuea8=", "properties": {"ref": "6715 - 85 AvenueFort St JohnBC", "@spider": "clean_harbors", "addr:full": "6715 - 85 Avenue", "addr:city": "Fort St John", "addr:state": "BC", "addr:postcode": "V1J 4J3", "addr:country": "CA", "name": "Clean Harbors", "phone": "250-785-8500", "brand": "Clean Harbors", "brand:wikidata": "Q5130494"}, "geometry": {"type": "Point", "coordinates": [-120.7873822, 56.2318064]}},
{"type": "Feature", "id": "1BLRRI36aa7WztY8ySZjvlQMwhk=", "properties": {"ref": "6708 87A AvenueFort St. JohnBC", "@spider": "clean_harbors", "addr:full": "6708 87A Avenue", "addr:city": "Fort St. John", "addr:state": "BC", "addr:postcode": "V1J 0B4", "addr:country": "CA", "name": "Clean Harbors", "phone": "250-785-4577", "brand": "Clean Harbors", "brand:wikidata": "Q5130494"}, "geometry": {"type": "Point", "coordinates": [-120.7838206, 56.234627]}},
{"type": "Feature", "id": "Y8XpMLZAfzSrpFj5SLoyuoS1g1M=", "properties": {"ref": "9416 102 AvenueFort St. JohnBC", "@spider": "clean_harbors", "addr:full": "9416 102 Avenue", "addr:city": "Fort St. John", "addr:state": "BC", "addr:postcode": "V1J 2C6", "addr:country": "CA", "name": "Clean Harbors", "phone": "250-261-3747", "brand": "Clean Harbors", "brand:wikidata": "Q5130494"}, "geometry": {"type": "Point", "coordinates": [-120.8375131, 56.2485409]}},
{"type": "Feature", "id": "J_FNWkUflX_4d3GNaWb-Vp8UG5k=", "properties": {"ref": "6715 - 85 AvenueFort Saint JohnBC", "@spider": "clean_harbors", "addr:full": "6715 - 85 Avenue", "addr:city": "Fort Saint John", "addr:state": "BC", "addr:postcode": "V1J 4J3", "addr:country": "CA", "name": "Clean Harbors", "phone": "250-785-4577", "brand": "Clean Harbors", "brand:wikidata": "Q5130494"}, "geometry": {"type": "Point", "coordinates": [-120.7873822, 56.2318064]}},
{"type": "Feature", "id": "4XQf5B5Z6RQnec2e-dpzKSdjfGQ=", "properties": {"ref": "4901-46th AveFort NelsonBC", "@spider": "clean_harbors", "addr:full": "4901-46th Ave", "addr:city": "Fort Nelson", "addr:state": "BC", "addr:postcode": "V0C 1R0", "addr:country": "CA", "name": "Clean Harbors", "phone": "250-233-8811", "brand": "Clean Harbors", "brand:wikidata": "Q5130494"}, "geometry": {"type": "Point", "coordinates": [-122.7017195, 58.7999124]}},
{"type": "Feature", "id": "cP2GZzkMskhCAI_zK9hGKNnIO2E=", "properties": {"ref": "E 1/2 Section 16, Township 92, Range 10, W4MFort McMurrayAB", "@spider": "clean_harbors", "addr:full": "E 1/2 Section 16, Township 92, Range 10, W4M", "addr:city": "Fort McMurray", "addr:state": "AB", "addr:country": "CA", "name": "Clean Harbors", "phone": "780-743-3008", "brand": "Clean Harbors", "brand:wikidata": "Q5130494"}, "geometry": {"type": "Point", "coordinates": [-111.539171, 56.982983]}},
{"type": "Feature", "id": "g7FTvdXKyJ9_UR0xEChNNZdK0CQ=", "properties": {"ref": "1203 Klement StreetFort AtkinsonWI", "@spider": "clean_harbors", "addr:full": "1203 Klement Street", "addr:city": "Fort Atkinson", "addr:state": "WI", "addr:postcode": "53538", "addr:country": "US", "name": "Clean Harbors", "phone": "920-563-3729", "brand": "Clean Harbors", "brand:wikidata": "Q5130494"}, "geometry": {"type": "Point", "coordinates": [-88.8529335, 42.9122877]}},
{"type": "Feature", "id": "GbhJvMInpRybpDHwd9l77IasyhI=", "properties": {"ref": "2730 Roosevelt BoulevardEugeneOR", "@spider": "clean_harbors", "addr:full": "2730 Roosevelt Boulevard", "addr:city": "Eugene", "addr:state": "OR", "addr:postcode": "97402", "addr:country": "US", "name": "Clean Harbors", "phone": "503-785-0404", "brand": "Clean Harbors", "brand:wikidata": "Q5130494"}, "geometry": {"type": "Point", "coordinates": [-123.13754, 44.061171]}},
{"type": "Feature", "id": "c9sFh626MM6eYXfHIxb2fcgLgoE=", "properties": {"ref": "10625 Hickson StreetElk CityOK", "@spider": "clean_harbors", "addr:full": "10625 Hickson Street", "addr:city": "Elk City", "addr:state": "OK", "addr:postcode": "73644", "addr:country": "US", "name": "Clean Harbors", "phone": "833-923-4400", "brand": "Clean Harbors", "brand:wikidata": "Q5130494"}, "geometry": {"type": "Point", "coordinates": [-99.4345338, 35.3477859]}},
{"type": "Feature", "id": "HhQCmoPCiBfyB1M2uc4V7v8BFtw=", "properties": {"ref": "309 American CircleEl DoradoAR", "@spider": "clean_harbors", "addr:full": "309 American Circle", "addr:city": "El Dorado", "addr:state": "AR", "addr:postcode": "71730", "addr:country": "US", "name": "Clean Harbors", "phone": "870-863-7173", "brand": "Clean Harbors", "brand:wikidata": "Q5130494"}, "geometry": {"type": "Point", "coordinates": [-92.6315743, 33.2054332]}},
{"type": "Feature", "id": "jBE9X_9KYgoao85nI18a_lJy3lI=", "properties": {"ref": "15715-121A AvenueEdmontonAB", "@spider": "clean_harbors", "addr:full": "15715-121A Avenue", "addr:city": "Edmonton", "addr:state": "AB", "addr:postcode": "T5V 1B1", "addr:country": "CA", "name": "Clean Harbors", "phone": "780-451-6969", "brand": "Clean Harbors", "brand:wikidata": "Q5130494"}, "geometry": {"type": "Point", "coordinates": [-113.593337, 53.5732114]}},
{"type": "Feature", "id": "cnaAIw9NAvc1qsa2-fwVUkBXcUc=", "properties": {"ref": "9808 - 12 Avenue SWEdmontonAB", "@spider": "clean_harbors", "addr:full": "9808 - 12 Avenue SW", "addr:city": "Edmonton", "addr:state": "AB", "addr:postcode": "T6X 0J5", "addr:country": "CA", "name": "Clean Harbors", "phone": "780-395-5800", "brand": "Clean Harbors", "brand:wikidata": "Q5130494"}, "geometry": {"type": "Point", "coordinates": [-113.4825467, 53.4238295]}},
{"type": "Feature", "id": "U4pmTOQ09a_jiNfB3fQmjhMnBN8=", "properties": {"ref": "633 East 138th StreetDoltonIL", "@spider": "clean_harbors", "addr:full": "633 East 138th Street", "addr:city": "Dolton", "addr:state": "IL", "addr:postcode": "60419", "addr:country": "US", "name": "Clean Harbors", "phone": "708-225-8100", "brand": "Clean Harbors", "brand:wikidata": "Q5130494"}, "geometry": {"type": "Point", "coordinates": [-87.6058681, 41.64432]}},
{"type": "Feature", "id": "eQQG2c9L589LNVtBff5Ak6moCp8=", "properties": {"ref": "645 E. 138th StreetDoltonIL", "@spider": "clean_harbors", "addr:full": "645 E. 138th Street", "addr:city": "Dolton", "addr:state": "IL", "addr:postcode": "60419", "addr:country": "US", "name": "Clean Harbors", "phone": "708-225-8110", "brand": "Clean Harbors", "brand:wikidata": "Q5130494"}, "geometry": {"type": "Point", "coordinates": [-87.6046205, 41.6446115]}},
{"type": "Feature", "id": "8ZWKbIqmNaHbtj8UE5VMinAQb4o=", "properties": {"ref": "26339 Hwy 39DevonAB", "@spider": "clean_harbors", "addr:full": "26339 Hwy 39", "addr:city": "Devon", "addr:state": "AB", "addr:postcode": "T9G 1Y1", "addr:country": "CA", "name": "Clean Harbors", "phone": "NULL", "brand": "Clean Harbors", "brand:wikidata": "Q5130494"}, "geometry": {"type": "Point", "coordinates": [-113.7278989, 53.358587]}},
{"type": "Feature", "id": "dDgrGZk19mCZTeL9rdwcSm1_V-c=", "properties": {"ref": "4704 NE 22nd StreetDes MoinesIA", "@spider": "clean_harbors", "addr:full": "4704 NE 22nd Street", "addr:city": "Des Moines", "addr:state": "IA", "addr:postcode": "50313", "addr:country": "US", "name": "Clean Harbors", "phone": "515-802-3480", "brand": "Clean Harbors", "brand:wikidata": "Q5130494"}, "geometry": {"type": "Point", "coordinates": [-93.5819811, 41.6454923]}},
{"type": "Feature", "id": "1jUKS2ruY4u9KR_rVPKv1bjAWVk=", "properties": {"ref": "4721 Ironton Street, Unit BDenverCO", "@spider": "clean_harbors", "addr:full": "4721 Ironton Street, Unit B", "addr:city": "Denver", "addr:state": "CO", "addr:postcode": "80239", "addr:country": "US", "name": "Clean Harbors", "phone": "303-371-1100", "brand": "Clean Harbors", "brand:wikidata": "Q5130494"}, "geometry": {"type": "Point", "coordinates": [-104.863978, 39.7833846]}},
{"type": "Feature", "id": "KzYx_fkclbFD97qlQMmZBe5frWc=", "properties": {"ref": "1722 Cooper Creek RoadDentonTX", "@spider": "clean_harbors", "addr:full": "1722 Cooper Creek Road", "addr:city": "Denton", "addr:state": "TX", "addr:postcode": "76208", "addr:country": "US", "name": "Clean Harbors", "phone": "940-735-3712", "brand": "Clean Harbors", "brand:wikidata": "Q5130494"}, "geometry": {"type": "Point", "coordinates": [-97.081124, 33.2368979]}},
{"type": "Feature", "id": "Q5sN9WTM5sfKFT97GXi8nfFR4hs=", "properties": {"ref": "7842 Progress WayDeltaBC", "@spider": "clean_harbors", "addr:full": "7842 Progress Way", "addr:city": "Delta", "addr:state": "BC", "addr:postcode": "V4G 1A4", "addr:country": "CA", "name": "Clean Harbors", "phone": "604-940-0894", "brand": "Clean Harbors", "brand:wikidata": "Q5130494"}, "geometry": {"type": "Point", "coordinates": [-123.0069131, 49.1376388]}},
{"type": "Feature", "id": "dUQvtH_MMdnFQk6Tlk9GdJYK840=", "properties": {"ref": "108555 East Highway 36Deer TrailCO", "@spider": "clean_harbors", "addr:full": "108555 East Highway 36", "addr:city": "Deer Trail", "addr:state": "CO", "addr:postcode": "80105", "addr:country": "US", "name": "Clean Harbors", "phone": "970-386-2293", "brand": "Clean Harbors", "brand:wikidata": "Q5130494"}, "geometry": {"type": "Point", "coordinates": [-103.721736, 39.7569511]}},
{"type": "Feature", "id": "DR9blYQMvvYRfYMs1fGMAdlw_94=", "properties": {"ref": "2027 Independence Parkway SouthLa PorteTX", "@spider": "clean_harbors", "addr:full": "2027 Independence Parkway South", "addr:city": "La Porte", "addr:state": "TX", "addr:postcode": "77571", "addr:country": "US", "name": "Clean Harbors", "phone": "281-930-2300", "brand": "Clean Harbors", "brand:wikidata": "Q5130494"}, "geometry": {"type": "Point", "coordinates": [-95.0928763, 29.7274373]}},
{"type": "Feature", "id": "F4w9-TkylovudR0VQrwGrQFrjkA=", "properties": {"ref": "802 Seaco CourtDeer ParkTX", "@spider": "clean_harbors", "addr:full": "802 Seaco Court", "addr:city": "Deer Park", "addr:state": "TX", "addr:postcode": "77536", "addr:country": "US", "name": "Clean Harbors", "phone": "281-478-2600", "brand": "Clean Harbors", "brand:wikidata": "Q5130494"}, "geometry": {"type": "Point", "coordinates": [-95.129373, 29.704119]}},
{"type": "Feature", "id": "cCS2tRtwOEKPopXuJe85tjg6BiQ=", "properties": {"ref": "640 McElmon RoadDebertNS", "@spider": "clean_harbors", "addr:full": "640 McElmon Road", "addr:city": "Debert", "addr:state": "NS", "addr:postcode": "B0M 1G0", "addr:country": "CA", "name": "Clean Harbors", "phone": "NULL", "brand": "Clean Harbors", "brand:wikidata": "Q5130494"}, "geometry": {"type": "Point", "coordinates": [-63.423716, 45.4091359]}},
{"type": "Feature", "id": "JCEFeXGfvXXBR2xEW6imwAWkaKU=", "properties": {"ref": "8100 Chancellor RowDallasTX", "@spider": "clean_harbors", "addr:full": "8100 Chancellor Row", "addr:city": "Dallas", "addr:state": "TX", "addr:postcode": "75247", "addr:country": "US", "name": "Clean Harbors", "phone": "214-631-1660", "brand": "Clean Harbors", "brand:wikidata": "Q5130494"}, "geometry": {"type": "Point", "coordinates": [-96.8809258, 32.8153115]}},
{"type": "Feature", "id": "HT9ZAvijkMM7tYT2WJyr1bkQ5Yk=", "properties": {"ref": "167 Mill StCranstonRI", "@spider": "clean_harbors", "addr:full": "167 Mill St", "addr:city": "Cranston", "addr:state": "RI", "addr:postcode": "02905", "addr:country": "US", "name": "Clean Harbors", "phone": "401- 228-2435", "brand": "Clean Harbors", "brand:wikidata": "Q5130494"}, "geometry": {"type": "Point", "coordinates": [-71.412694, 41.766457]}},
{"type": "Feature", "id": "Xlywv_ANpEXVxDrXw05VFIPfbHQ=", "properties": {"ref": "1704 Hunter RoadCorpus ChristiTX", "@spider": "clean_harbors", "addr:full": "1704 Hunter Road", "addr:city": "Corpus Christi", "addr:state": "TX", "addr:postcode": "78409", "addr:country": "US", "name": "Clean Harbors", "phone": "361-299-0006", "brand": "Clean Harbors", "brand:wikidata": "Q5130494"}, "geometry": {"type": "Point", "coordinates": [-97.5130065, 27.8155629]}},
{"type": "Feature", "id": "6Cjg3y4ffL91xPRrK8fgIdVQ4fw=", "properties": {"ref": "18408 S Laurel Park RdComptonCA", "@spider": "clean_harbors", "addr:full": "18408 S Laurel Park Rd", "addr:city": "Compton", "addr:state": "CA", "addr:postcode": "90220", "addr:country": "US", "name": "Clean Harbors", "phone": "310-307-7450", "brand": "Clean Harbors", "brand:wikidata": "Q5130494"}, "geometry": {"type": "Point", "coordinates": [-118.2189451, 33.8639173]}},
{"type": "Feature", "id": "UdHeBW-MvbqGYJAUUqYSTI3XQuM=", "properties": {"ref": "2500 East Victoria StreetComptonCA", "@spider": "clean_harbors", "addr:full": "2500 East Victoria Street", "addr:city": "Compton", "addr:state": "CA", "addr:postcode": "90220", "addr:country": "US", "name": "Clean Harbors", "phone": "310-764-5851", "brand": "Clean Harbors", "brand:wikidata": "Q5130494"}, "geometry": {"type": "Point", "coordinates": [-118.2217556, 33.8624378]}},
{"type": "Feature", "id": "ZMgNNjXGq9EN4Jtmz3NgjTbawXg=", "properties": {"ref": "3763 Highway 471ColfaxLA", "@spider": "clean_harbors", "addr:full": "3763 Highway 471", "addr:city": "Colfax", "addr:state": "LA", "addr:postcode": "71417", "addr:country": "US", "name": "Clean Harbors", "phone": "318-627-3443", "brand": "Clean Harbors", "brand:wikidata": "Q5130494"}, "geometry": {"type": "Point", "coordinates": [-92.729928, 31.570072]}},
{"type": "Feature", "id": "cHn_7ynvDaw7MzBtlYAlX1c1Dns=", "properties": {"ref": "340 Commerce StreetCluteTX", "@spider": "clean_harbors", "addr:full": "340 Commerce Street", "addr:city": "Clute", "addr:state": "TX", "addr:postcode": "77531", "addr:country": "US", "name": "Clean Harbors", "phone": "979-388-0029", "brand": "Clean Harbors", "brand:wikidata": "Q5130494"}, "geometry": {"type": "Point", "coordinates": [-95.3980454, 29.0115348]}},
{"type": "Feature", "id": "asXxvKvw4xf4bCqR_AoQsGdllOY=", "properties": {"ref": "3.5 miles South of Mile Post 49 on I-80GrantsvilleUT", "@spider": "clean_harbors", "addr:full": "3.5 miles South of Mile Post 49 on I-80", "addr:city": "Grantsville", "addr:state": "UT", "addr:postcode": "84029", "addr:country": "US", "name": "Clean Harbors", "phone": "801-323-8900", "brand": "Clean Harbors", "brand:wikidata": "Q5130494"}, "geometry": {"type": "Point", "coordinates": [-112.4368457, 40.6830958]}},
{"type": "Feature", "id": "V-dEXs816j76wcSYjTceS6oD-GU=", "properties": {"ref": "2900 Rockefeller AvenueClevelandOH", "@spider": "clean_harbors", "addr:full": "2900 Rockefeller Avenue", "addr:city": "Cleveland", "addr:state": "OH", "addr:postcode": "44115", "addr:country": "US", "name": "Clean Harbors", "phone": "216-429-2402", "brand": "Clean Harbors", "brand:wikidata": "Q5130494"}, "geometry": {"type": "Point", "coordinates": [-81.6713924, 41.4810075]}},
{"type": "Feature", "id": "xXeMv2m-0FxEhBMlQyOQiDqAR50=", "properties": {"ref": "2930 Independence Rd.ClevelandOH", "@spider": "clean_harbors", "addr:full": "2930 Independence Rd.", "addr:city": "Cleveland", "addr:state": "OH", "addr:postcode": "44115", "addr:country": "US", "name": "Clean Harbors", "phone": "216-429-2401", "brand": "Clean Harbors", "brand:wikidata": "Q5130494"}, "geometry": {"type": "Point", "coordinates": [-81.6671957, 41.476189]}},
{"type": "Feature", "id": "Y2MrEpr4MMm6RihD2TPO1us8pjA=", "properties": {"ref": "520 3 Ave SWCalgaryAB", "@spider": "clean_harbors", "addr:full": "520 3 Ave SW", "addr:city": "Calgary", "addr:state": "AB", "addr:postcode": "T2P 0R3", "addr:country": "CA", "name": "Clean Harbors", "phone": "403-218-6360", "brand": "Clean Harbors", "brand:wikidata": "Q5130494"}, "geometry": {"type": "Point", "coordinates": [-114.0720484, 51.0509887]}},
{"type": "Feature", "id": "mhXo4Tg9G72Toece0OzMFifHQ6s=", "properties": {"ref": "Township Road 730ClairmontAB", "@spider": "clean_harbors", "addr:full": "Township Road 730", "addr:city": "Clairmont", "addr:state": "AB", "addr:postcode": "T0H 0W0", "addr:country": "CA", "name": "Clean Harbors", "phone": "NULL", "brand": "Clean Harbors", "brand:wikidata": "Q5130494"}, "geometry": {"type": "Point", "coordinates": [-118.666792, 55.286955]}},
{"type": "Feature", "id": "GZ7kPGHl2nrBfivvY6llVuHGNic=", "properties": {"ref": "16540 SE 130th AvenueClackamasOR", "@spider": "clean_harbors", "addr:full": "16540 SE 130th Avenue", "addr:city": "Clackamas", "addr:state": "OR", "addr:postcode": "97015", "addr:country": "US", "name": "Clean Harbors", "phone": "503-742-7105", "brand": "Clean Harbors", "brand:wikidata": "Q5130494"}, "geometry": {"type": "Point", "coordinates": [-122.5293532, 45.4032895]}},
{"type": "Feature", "id": "I8eK0XVa4c2Tw-A4tAS9ivF89sY=", "properties": {"ref": "12402 SE Jennifer St.ClackamasOR", "@spider": "clean_harbors", "addr:full": "12402 SE Jennifer St.", "addr:city": "Clackamas", "addr:state": "OR", "addr:postcode": "97015", "addr:country": "US", "name": "Clean Harbors", "phone": "503-785-0404", "brand": "Clean Harbors", "brand:wikidata": "Q5130494"}, "geometry": {"type": "Point", "coordinates": [-122.5365299, 45.4036625]}},
{"type": "Feature", "id": "Oquj4N9_4MXKlBApLSUNpdgvwlc=", "properties": {"ref": "4879 Spring Grove AvenueCincinnatiOH", "@spider": "clean_harbors", "addr:full": "4879 Spring Grove Avenue", "addr:city": "Cincinnati", "addr:state": "OH", "addr:postcode": "45232", "addr:country": "US", "name": "Clean Harbors", "phone": "513-681-6242", "brand": "Clean Harbors", "brand:wikidata": "Q5130494"}, "geometry": {"type": "Point", "coordinates": [-84.5096018, 39.1703061]}},
{"type": "Feature", "id": "FQ_PmkXR5CiD4rWRBLuMaCQnWHw=", "properties": {"ref": "256 West North Bend RdCincinnatiOH", "@spider": "clean_harbors", "addr:full": "256 West North Bend Rd", "addr:city": "Cincinnati", "addr:state": "OH", "addr:postcode": "45216", "addr:country": "US", "name": "Clean Harbors", "phone": "513-681-6259", "brand": "Clean Harbors", "brand:wikidata": "Q5130494"}, "geometry": {"type": "Point", "coordinates": [-84.4844414, 39.1991723]}},
{"type": "Feature", "id": "2sppsfFYra7qLKCMd8DX_vL1Sxk=", "properties": {"ref": "16 Glendale Milford RoadLovelandOH", "@spider": "clean_harbors", "addr:full": "16 Glendale Milford Road", "addr:city": "Loveland", "addr:state": "OH", "addr:postcode": "45140", "addr:country": "US", "name": "Clean Harbors", "phone": "281-409-1597", "brand": "Clean Harbors", "brand:wikidata": "Q5130494"}, "geometry": {"type": "Point", "coordinates": [-84.314626, 39.224475]}},
{"type": "Feature", "id": "INqFB9NnDVR5swDWrGlhTLrw_ng=", "properties": {"ref": "1445 West 42nd StreetChicagoIL", "@spider": "clean_harbors", "addr:full": "1445 West 42nd Street", "addr:city": "Chicago", "addr:state": "IL", "addr:postcode": "60609", "addr:country": "US", "name": "Clean Harbors", "phone": "773-247-2828", "brand": "Clean Harbors", "brand:wikidata": "Q5130494"}, "geometry": {"type": "Point", "coordinates": [-87.6606856, 41.8174468]}},
{"type": "Feature", "id": "-dhKu57NjHjJW8ApNl3AeBAaH4A=", "properties": {"ref": "11861 South Cottage GroveChicagoIL", "@spider": "clean_harbors", "addr:full": "11861 South Cottage Grove", "addr:city": "Chicago", "addr:state": "IL", "addr:postcode": "60628", "addr:country": "US", "name": "Clean Harbors", "phone": "773-468-1186", "brand": "Clean Harbors", "brand:wikidata": "Q5130494"}, "geometry": {"type": "Point", "coordinates": [-87.6079441, 41.6779334]}},
{"type": "Feature", "id": "eKmhDdcwcvqRx3139_114VzxcE8=", "properties": {"ref": "4541 Bainbridge BlvdChesapeakeVA", "@spider": "clean_harbors", "addr:full": "4541 Bainbridge Blvd", "addr:city": "Chesapeake", "addr:state": "VA", "addr:postcode": "23320", "addr:country": "US", "name": "Clean Harbors", "phone": "757-545-1958", "brand": "Clean Harbors", "brand:wikidata": "Q5130494"}, "geometry": {"type": "Point", "coordinates": [-76.288528, 36.768184]}},
{"type": "Feature", "id": "NLCiwIslnuL0jjjh8xjkkn1mRmA=", "properties": {"ref": "3300 Cummings RoadChattanoogaTN", "@spider": "clean_harbors", "addr:full": "3300 Cummings Road", "addr:city": "Chattanooga", "addr:state": "TN", "addr:postcode": "37419", "addr:country": "US", "name": "Clean Harbors", "phone": "423-821-6926", "brand": "Clean Harbors", "brand:wikidata": "Q5130494"}, "geometry": {"type": "Point", "coordinates": [-85.3784892, 35.006099]}},
{"type": "Feature", "id": "CGSGn08MB0T5h_LGpDKAyVX4J0w=", "properties": {"ref": "4004 W. Earhart WayChandlerAZ", "@spider": "clean_harbors", "addr:full": "4004 W. Earhart Way", "addr:city": "Chandler", "addr:state": "AZ", "addr:postcode": "85226", "addr:country": "US", "name": "Clean Harbors", "phone": "480-545-2777", "brand": "Clean Harbors", "brand:wikidata": "Q5130494"}, "geometry": {"type": "Point", "coordinates": [-111.912286, 33.2956544]}},
{"type": "Feature", "id": "01cQw2WIzykZ3cv9OyXeBzJvkbo=", "properties": {"ref": "20 Tucker DriveCaseyvilleIL", "@spider": "clean_harbors", "addr:full": "20 Tucker Drive", "addr:city": "Caseyville", "addr:state": "IL", "addr:postcode": "1151", "addr:country": "US", "name": "Clean Harbors", "phone": "913-491-4051", "brand": "Clean Harbors", "brand:wikidata": "Q5130494"}, "geometry": {"type": "Point", "coordinates": [-90.0551799, 38.6106051]}},
{"type": "Feature", "id": "EUehmqKP2ucpEFautoNZ3A4XklM=", "properties": {"ref": "18025 S BroadwayCarsonCA", "@spider": "clean_harbors", "addr:full": "18025 S Broadway", "addr:city": "Carson", "addr:state": "CA", "addr:postcode": "90248", "addr:country": "US", "name": "Clean Harbors", "phone": "310-327-0991", "brand": "Clean Harbors", "brand:wikidata": "Q5130494"}, "geometry": {"type": "Point", "coordinates": [-118.2794303, 33.8671669]}},
{"type": "Feature", "id": "NfeVSONpCyJvi6bp75rknrp8_E4=", "properties": {"ref": "258 Johnson RdCanonsburgPA", "@spider": "clean_harbors", "addr:full": "258 Johnson Rd", "addr:city": "Canonsburg", "addr:state": "PA", "addr:postcode": "15317", "addr:country": "US", "name": "Clean Harbors", "phone": "570-264-7000", "brand": "Clean Harbors", "brand:wikidata": "Q5130494"}, "geometry": {"type": "Point", "coordinates": [-80.2037718, 40.2332833]}},
{"type": "Feature", "id": "73MTD97YmY2Ip6K-RgDfVG6G9TM=", "properties": {"ref": "258 Johnson RoadCanonsburgPA", "@spider": "clean_harbors", "addr:full": "258 Johnson Road", "addr:city": "Canonsburg", "addr:state": "PA", "addr:postcode": "15317", "addr:country": "US", "name": "Clean Harbors", "phone": "724-749-5881", "brand": "Clean Harbors", "brand:wikidata": "Q5130494"}, "geometry": {"type": "Point", "coordinates": [-80.2037718, 40.2332833]}},
{"type": "Feature", "id": "ZNbZIzbKcwezGqnlC6SdUtrrGS0=", "properties": {"ref": "3217 Terminal DriveEaganMN", "@spider": "clean_harbors", "addr:full": "3217 Terminal Drive", "addr:city": "Eagan", "addr:state": "MN", "addr:postcode": "55121", "addr:country": "US", "name": "Clean Harbors", "phone": "651-767-9590", "brand": "Clean Harbors", "brand:wikidata": "Q5130494"}, "geometry": {"type": "Point", "coordinates": [-93.189924, 44.840931]}},
{"type": "Feature", "id": "JJgnAjMkVoRCHlb679b3Jusjrjw=", "properties": {"ref": "880 Verdulera StreetCamarilloCA", "@spider": "clean_harbors", "addr:full": "880 Verdulera Street", "addr:city": "Camarillo", "addr:state": "CA", "addr:postcode": "93010", "addr:country": "US", "name": "Clean Harbors", "phone": "805-987-0217", "brand": "Clean Harbors", "brand:wikidata": "Q5130494"}, "geometry": {"type": "Point", "coordinates": [-119.0936717, 34.2165518]}},
{"type": "Feature", "id": "2rXvOdbmXgMPhE4hUsyeWg1BU9I=", "properties": {"ref": "2700 61st Avenue SECalgaryAB", "@spider": "clean_harbors", "addr:full": "2700 61st Avenue SE", "addr:city": "Calgary", "addr:state": "AB", "addr:postcode": "T2C 4V2", "addr:country": "CA", "name": "Clean Harbors", "phone": "403-237-6437", "brand": "Clean Harbors", "brand:wikidata": "Q5130494"}, "geometry": {"type": "Point", "coordinates": [-113.9955979, 50.9991746]}},
{"type": "Feature", "id": "xvTt2m6MN-EsCe3tfc_XrV_xAnA=", "properties": {"ref": "235133 Ryan Road SECalgaryAB", "@spider": "clean_harbors", "addr:full": "235133 Ryan Road SE", "addr:city": "Calgary", "addr:state": "AB", "addr:postcode": "T1K 0K1", "addr:country": "CA", "name": "Clean Harbors", "phone": "403-969-1443", "brand": "Clean Harbors", "brand:wikidata": "Q5130494"}, "geometry": {"type": "Point", "coordinates": [-113.9046553, 51.0025014]}},
{"type": "Feature", "id": "EMfVQYphvcTjeeM3ujw81LMAXNM=", "properties": {"ref": "2500 West Lokern RoadButtonwillowCA", "@spider": "clean_harbors", "addr:full": "2500 West Lokern Road", "addr:city": "Buttonwillow", "addr:state": "CA", "addr:postcode": "93206", "addr:country": "US", "name": "Clean Harbors", "phone": "NULL", "brand": "Clean Harbors", "brand:wikidata": "Q5130494"}, "geometry": {"type": "Point", "coordinates": [-119.611572, 35.405092]}},
{"type": "Feature", "id": "AHvssNFz5kh6vVjtBdg89Fq01LA=", "properties": {"ref": "4475 South Dort HwyBurtonMI", "@spider": "clean_harbors", "addr:full": "4475 South Dort Hwy", "addr:city": "Burton", "addr:state": "MI", "addr:postcode": "48529", "addr:country": "US", "name": "Clean Harbors", "phone": "810-715-2700", "brand": "Clean Harbors", "brand:wikidata": "Q5130494"}, "geometry": {"type": "Point", "coordinates": [-83.6524137, 42.9611227]}},
{"type": "Feature", "id": "kusYY9iUu5lVSkq9aSzNihqHXqo=", "properties": {"ref": "1790 Ironstone DriveBurlingtonON", "@spider": "clean_harbors", "addr:full": "1790 Ironstone Drive", "addr:city": "Burlington", "addr:state": "ON", "addr:postcode": "L7L 5V3", "addr:country": "CA", "name": "Clean Harbors", "phone": "905-315-5606", "brand": "Clean Harbors", "brand:wikidata": "Q5130494"}, "geometry": {"type": "Point", "coordinates": [-79.7904037, 43.3874417]}},
{"type": "Feature", "id": "jY9NCdesTumvdYbsrs8OmB71-XM=", "properties": {"ref": "41 North Gates AveLackawannaNY", "@spider": "clean_harbors", "addr:full": "41 North Gates Ave", "addr:city": "Lackawanna", "addr:state": "NY", "addr:postcode": "14218", "addr:country": "US", "name": "Clean Harbors", "phone": "716-541-9683", "brand": "Clean Harbors", "brand:wikidata": "Q5130494"}, "geometry": {"type": "Point", "coordinates": [-78.849375688078, 42.829677652585]}},
{"type": "Feature", "id": "uE8Iwj2iUQZYWILvQrN80wVI3gg=", "properties": {"ref": "761 Middle StreetBristolCT", "@spider": "clean_harbors", "addr:full": "761 Middle Street", "addr:city": "Bristol", "addr:state": "CT", "addr:postcode": "06010", "addr:country": "US", "name": "Clean Harbors", "phone": "860-583-8917", "brand": "Clean Harbors", "brand:wikidata": "Q5130494"}, "geometry": {"type": "Point", "coordinates": [-72.9074362, 41.6525524]}},
{"type": "Feature", "id": "K1znjejKsDotZjJ29wJUt1RTAF0=", "properties": {"ref": "7001 Kilo AvenueBartowFL", "@spider": "clean_harbors", "addr:full": "7001 Kilo Avenue", "addr:city": "Bartow", "addr:state": "FL", "addr:postcode": "33830", "addr:country": "US", "name": "Clean Harbors", "phone": "863-533-6111", "brand": "Clean Harbors", "brand:wikidata": "Q5130494"}, "geometry": {"type": "Point", "coordinates": [-81.7784383, 27.9555395]}},
{"type": "Feature", "id": "Og16ITGQs_kyYZ2Ecoq0EFaVMos=", "properties": {"ref": "40B Carey CircleHampdenME", "@spider": "clean_harbors", "addr:full": "40B Carey Circle", "addr:city": "Hampden", "addr:state": "ME", "addr:postcode": "04444", "addr:country": "US", "name": "Clean Harbors", "phone": "207-262-9504", "brand": "Clean Harbors", "brand:wikidata": "Q5130494"}, "geometry": {"type": "Point", "coordinates": [-68.8063206, 44.7749384]}},
{"type": "Feature", "id": "3WfvER8STrCzpMzUB-lx3cKucWo=", "properties": {"ref": "1910 Russell StreetBaltimoreMD", "@spider": "clean_harbors", "addr:full": "1910 Russell Street", "addr:city": "Baltimore", "addr:state": "MD", "addr:postcode": "21230", "addr:country": "US", "name": "Clean Harbors", "phone": "410-244-8200", "brand": "Clean Harbors", "brand:wikidata": "Q5130494"}, "geometry": {"type": "Point", "coordinates": [-76.6329, 39.271019]}},
{"type": "Feature", "id": "p-29Q9pwGxfhxN34u7sUfujbRz8=", "properties": {"ref": "4650 Rosedale LaneBakersfieldCA", "@spider": "clean_harbors", "addr:full": "4650 Rosedale Lane", "addr:city": "Bakersfield", "addr:state": "CA", "addr:postcode": "93314", "addr:country": "US", "name": "Clean Harbors", "phone": "661-587-0021", "brand": "Clean Harbors", "brand:wikidata": "Q5130494"}, "geometry": {"type": "Point", "coordinates": [-119.1490698, 35.4028917]}},
{"type": "Feature", "id": "wJ_7YCmnolg_ASrc03WVXlC2ebM=", "properties": {"ref": "806 Hoods Creek PikeAshlandKY", "@spider": "clean_harbors", "addr:full": "806 Hoods Creek Pike", "addr:city": "Ashland", "addr:state": "KY", "addr:postcode": "41101", "addr:country": "US", "name": "Clean Harbors", "phone": "606-329-1306", "brand": "Clean Harbors", "brand:wikidata": "Q5130494"}, "geometry": {"type": "Point", "coordinates": [-82.6681962, 38.4922165]}},
{"type": "Feature", "id": "0ypxXLS89F1AhkhpAHjlxKznMWU=", "properties": {"ref": "Box 385ArcolaSK", "@spider": "clean_harbors", "addr:full": "Box 385", "addr:city": "Arcola", "addr:state": "SK", "addr:postcode": "S0C 0G0", "addr:country": "CA", "name": "Clean Harbors", "phone": "306-461-6186", "brand": "Clean Harbors", "brand:wikidata": "Q5130494"}, "geometry": {"type": "Point", "coordinates": [-102.494564, 49.64848]}},
{"type": "Feature", "id": "UrDRpsccSAKE3IARu9PFxht7o5Y=", "properties": {"ref": "6180 Old Mendenhall RoadArchdaleNC", "@spider": "clean_harbors", "addr:full": "6180 Old Mendenhall Road", "addr:city": "Archdale", "addr:state": "NC", "addr:postcode": "27263", "addr:country": "US", "name": "Clean Harbors", "phone": "336-861-4149", "brand": "Clean Harbors", "brand:wikidata": "Q5130494"}, "geometry": {"type": "Point", "coordinates": [-80.0149689, 35.914751]}},
{"type": "Feature", "id": "CbJCjhhRZ7dP4MCiXocctt2J2GA=", "properties": {"ref": "(for FedEx) 11600 North Aptus RoadDugwayUT", "@spider": "clean_harbors", "addr:full": "(for FedEx) 11600 North Aptus Road", "addr:city": "Dugway", "addr:state": "UT", "addr:postcode": "84022", "addr:country": "US", "name": "Clean Harbors", "phone": "NULL", "brand": "Clean Harbors", "brand:wikidata": "Q5130494"}, "geometry": {"type": "Point", "coordinates": [-112.7444097, 40.2210532]}},
{"type": "Feature", "id": "R2C8AuLIJDQHqyRhcHeeRV3qpNc=", "properties": {"ref": "2231 Cinnabar LoopAnchorageAK", "@spider": "clean_harbors", "addr:full": "2231 Cinnabar Loop", "addr:city": "Anchorage", "addr:state": "AK", "addr:postcode": "99507", "addr:country": "US", "name": "Clean Harbors", "phone": "907-331-6600", "brand": "Clean Harbors", "brand:wikidata": "Q5130494"}, "geometry": {"type": "Point", "coordinates": [-149.8407487, 61.1466037]}},
{"type": "Feature", "id": "v1NqzhnrkxvrgnZKxaTpV_XSVsE=", "properties": {"ref": "82 Seabro AvenueAmityvilleNY", "@spider": "clean_harbors", "addr:full": "82 Seabro Avenue", "addr:city": "Amityville", "addr:state": "NY", "addr:postcode": "11701", "addr:country": "US", "name": "Clean Harbors", "phone": "631-703-3451", "brand": "Clean Harbors", "brand:wikidata": "Q5130494"}, "geometry": {"type": "Point", "coordinates": [-73.3979818, 40.7141001]}},
{"type": "Feature", "id": "shPCCB0gqruLX01Xeh68CZELdbI=", "properties": {"ref": "5464 HWY 71AltairTX", "@spider": "clean_harbors", "addr:full": "5464 HWY 71", "addr:city": "Altair", "addr:state": "TX", "addr:postcode": "77412", "addr:country": "US", "name": "Clean Harbors", "phone": "NULL", "brand": "Clean Harbors", "brand:wikidata": "Q5130494"}, "geometry": {"type": "Point", "coordinates": [-96.4863448, 29.5998209]}}]}