{"type":"FeatureCollection","features":[{"type": "Feature", "id": "sHqx_48OmQbLW5uWzxp-2N7-Hc4=", "properties": {"ref": "233999887", "@spider": "clinical_pathology_laboratories", "addr:full": "900 Belanger Street", "addr:city": "Houma", "addr:state": "LA", "addr:postcode": "70360", "addr:country": "US", "name": "Houma", "website": "na", "brand": "Clinical Pathology Laboratories", "brand:wikidata": "Q91911320"}, "geometry": {"type": "Point", "coordinates": [-90.714191, 29.595681]}},
{"type": "Feature", "id": "65TQAG_BqBI0pnrfOy0LtI-kMSI=", "properties": {"ref": "334985427", "@spider": "clinical_pathology_laboratories", "addr:full": "4201 Garth Suite 116", "addr:city": "Baytown", "addr:state": "TX", "addr:postcode": "77521", "addr:country": "US", "name": "Baytown - Methodist", "website": "na", "brand": "Clinical Pathology Laboratories", "brand:wikidata": "Q91911320"}, "geometry": {"type": "Point", "coordinates": [-94.979914, 29.767551]}},
{"type": "Feature", "id": "2JHqjtvDpcWhnD0QL8p8O-KwsbE=", "properties": {"ref": "334985428", "@spider": "clinical_pathology_laboratories", "addr:full": "1402 Walton Way", "addr:city": "Augusta", "addr:state": "GA", "addr:postcode": "30901", "addr:country": "US", "name": "Augusta - Walton Way", "website": "na", "brand": "Clinical Pathology Laboratories", "brand:wikidata": "Q91911320"}, "geometry": {"type": "Point", "coordinates": [-81.983267, 33.473325]}},
{"type": "Feature", "id": "RJh4tp8gCuhrCKtarracLo6qBFU=", "properties": {"ref": "334985429", "@spider": "clinical_pathology_laboratories", "addr:full": "2741 W. Thomas St Ste A", "addr:city": "Hammond", "addr:state": "LA", "addr:postcode": "70401", "addr:country": "US", "name": "Hammond", "website": "na", "brand": "Clinical Pathology Laboratories", "brand:wikidata": "Q91911320"}, "geometry": {"type": "Point", "coordinates": [-90.492118, 30.50201]}},
{"type": "Feature", "id": "VIDOCAKJJ02RrbpgWAn1BGRMYUo=", "properties": {"ref": "334985430", "@spider": "clinical_pathology_laboratories", "addr:full": "1751 Broad Park Circle South Suite 205", "addr:city": "Mansfiled", "addr:state": "TX", "addr:postcode": "76063", "addr:country": "US", "name": "Mansfield", "website": "na", "brand": "Clinical Pathology Laboratories", "brand:wikidata": "Q91911320"}, "geometry": {"type": "Point", "coordinates": [-97.111289, 32.568259]}},
{"type": "Feature", "id": "_yEAMqm8-zPpuEATBG0UHNJHSuo=", "properties": {"ref": "334985431", "@spider": "clinical_pathology_laboratories", "addr:full": "2905 Hillrise Drive", "addr:city": "Las Cruces", "addr:state": "NM", "addr:postcode": "88011", "addr:country": "US", "name": "Hillrise - PSC", "website": "na", "brand": "Clinical Pathology Laboratories", "brand:wikidata": "Q91911320"}, "geometry": {"type": "Point", "coordinates": [-106.737647, 32.304659]}},
{"type": "Feature", "id": "pWkc1_li64fGw-vpIPAkUkkAy4g=", "properties": {"ref": "334985432", "@spider": "clinical_pathology_laboratories", "addr:full": "2800 Garth Rd", "addr:city": "Baytown", "addr:state": "TX", "addr:postcode": "77521", "addr:country": "US", "name": "Baytown PSC", "website": "na", "brand": "Clinical Pathology Laboratories", "brand:wikidata": "Q91911320"}, "geometry": {"type": "Point", "coordinates": [-94.978035, 29.751736]}},
{"type": "Feature", "id": "Dx9dklWqxQ_W-RmkF9Gs0d9IEW0=", "properties": {"ref": "334985433", "@spider": "clinical_pathology_laboratories", "addr:full": "135 Bunton Creek Road Suite 103", "addr:city": "Kyle", "addr:state": "TX", "addr:postcode": "78640", "addr:country": "US", "name": "Kyle - Hays Surgery Center", "website": "na", "brand": "Clinical Pathology Laboratories", "brand:wikidata": "Q91911320"}, "geometry": {"type": "Point", "coordinates": [-97.860987, 30.008724]}},
{"type": "Feature", "id": "MnjxgHedO0Di-ir2ZTmAtjzT1bs=", "properties": {"ref": "334985434", "@spider": "clinical_pathology_laboratories", "addr:full": "155 Uptown Avenue Suite A", "addr:city": "Brownsville", "addr:state": "TX", "addr:postcode": "78520", "addr:country": "US", "name": "Brownsville - Uptown Ave.", "website": "na", "brand": "Clinical Pathology Laboratories", "brand:wikidata": "Q91911320"}, "geometry": {"type": "Point", "coordinates": [-97.510091, 25.924223]}},
{"type": "Feature", "id": "x_uMTJaEanRun0_jFCUXGGDNonY=", "properties": {"ref": "334985435", "@spider": "clinical_pathology_laboratories", "addr:full": "3910 Brookside Drive Suite 200", "addr:city": "Tyler", "addr:state": "TX", "addr:postcode": "75701", "addr:country": "US", "name": "Tyler - Brookside", "website": "na", "brand": "Clinical Pathology Laboratories", "brand:wikidata": "Q91911320"}, "geometry": {"type": "Point", "coordinates": [-95.30832, 32.305574]}},
{"type": "Feature", "id": "6w2nD9xpeMGqAaVj4Yr74yI2_TM=", "properties": {"ref": "334985436", "@spider": "clinical_pathology_laboratories", "addr:full": "520 Elmwood Park Boulevard Suite 130", "addr:city": "Harahan", "addr:state": "LA", "addr:postcode": "70123", "addr:country": "US", "name": "Harahan", "website": "na", "brand": "Clinical Pathology Laboratories", "brand:wikidata": "Q91911320"}, "geometry": {"type": "Point", "coordinates": [-90.184285, 29.949094]}},
{"type": "Feature", "id": "-fPPj2J_eHn2pZZJhKm-TlotwHA=", "properties": {"ref": "334985437", "@spider": "clinical_pathology_laboratories", "addr:full": "6121 N STATE HWY 161 SUITE 101", "addr:city": "IRVING", "addr:state": "TX", "addr:postcode": "75063", "addr:country": "US", "name": "LAS COLINAS PSC", "website": "na", "brand": "Clinical Pathology Laboratories", "brand:wikidata": "Q91911320"}, "geometry": {"type": "Point", "coordinates": [-96.989076, 32.883946]}},
{"type": "Feature", "id": "_PW1mmYjBaFKj7tLRi6z-iVN0-U=", "properties": {"ref": "334985438", "@spider": "clinical_pathology_laboratories", "addr:full": "301 Hospital Drive Suite 105", "addr:city": "Corsicana", "addr:state": "TX", "addr:postcode": "75110", "addr:country": "US", "name": "Corsicana", "website": "na", "brand": "Clinical Pathology Laboratories", "brand:wikidata": "Q91911320"}, "geometry": {"type": "Point", "coordinates": [-96.50042, 32.081094]}},
{"type": "Feature", "id": "2k6kmTLV-LUi4s6wvvVjMfTa0gk=", "properties": {"ref": "334985439", "@spider": "clinical_pathology_laboratories", "addr:full": "10020 Research Forest Dr. Ste. B", "addr:city": "Magnolia", "addr:state": "TX", "addr:postcode": "77354", "addr:country": "US", "name": "Magnolia PSC", "website": "na", "brand": "Clinical Pathology Laboratories", "brand:wikidata": "Q91911320"}, "geometry": {"type": "Point", "coordinates": [-95.560074, 30.215794]}},
{"type": "Feature", "id": "KSqq3FSB2RI1MDRC9Z-OoR1xOmc=", "properties": {"ref": "334985440", "@spider": "clinical_pathology_laboratories", "addr:full": "601 E. Whitestone Suite 632", "addr:city": "Cedar Park", "addr:state": "TX", "addr:postcode": "78613", "addr:country": "US", "name": "Cedar Park", "website": "na", "brand": "Clinical Pathology Laboratories", "brand:wikidata": "Q91911320"}, "geometry": {"type": "Point", "coordinates": [-97.824412, 30.523526]}},
{"type": "Feature", "id": "4MrlWq1sXChzyt4w85UhP7_0EAA=", "properties": {"ref": "334985441", "@spider": "clinical_pathology_laboratories", "addr:full": "6836 Austin Center Blvd Bldg 1 Suite 185", "addr:city": "Austin", "addr:state": "TX", "addr:postcode": "78731", "addr:country": "US", "name": "Austin - Austin Center Blvd.", "website": "na", "brand": "Clinical Pathology Laboratories", "brand:wikidata": "Q91911320"}, "geometry": {"type": "Point", "coordinates": [-97.752445, 30.351505]}},
{"type": "Feature", "id": "xuFn--B2LWovN2hOGMbWvRVxXWE=", "properties": {"ref": "334985442", "@spider": "clinical_pathology_laboratories", "addr:full": "2011 E. Houston Suite B", "addr:city": "San Antonio", "addr:state": "TX", "addr:postcode": "78202", "addr:country": "US", "name": "San Antonio - Eastpointe", "website": "na", "brand": "Clinical Pathology Laboratories", "brand:wikidata": "Q91911320"}, "geometry": {"type": "Point", "coordinates": [-98.465084, 29.425425]}},
{"type": "Feature", "id": "MX9SZ0badSr__Pdo-ByAXcIhyRg=", "properties": {"ref": "334985443", "@spider": "clinical_pathology_laboratories", "addr:full": "1005 W. Ralph M Hall Parkway Suite 231", "addr:city": "Rockwall", "addr:state": "TX", "addr:postcode": "75032", "addr:country": "US", "name": "Rockwall - Rockwall PSC", "website": "na", "brand": "Clinical Pathology Laboratories", "brand:wikidata": "Q91911320"}, "geometry": {"type": "Point", "coordinates": [-96.469821, 32.886955]}},
{"type": "Feature", "id": "_gPxfgQmQwRnQ5IGYDouISH7I3U=", "properties": {"ref": "334985444", "@spider": "clinical_pathology_laboratories", "addr:full": "4530 Buffalo Gap Road", "addr:city": "Abilene", "addr:state": "TX", "addr:postcode": "79606", "addr:country": "US", "name": "Abilene", "website": "na", "brand": "Clinical Pathology Laboratories", "brand:wikidata": "Q91911320"}, "geometry": {"type": "Point", "coordinates": [-99.762701, 32.394134]}},
{"type": "Feature", "id": "vkhQm4RkeaQPjv166wu0k4moxl8=", "properties": {"ref": "334985445", "@spider": "clinical_pathology_laboratories", "addr:full": "600 E. Taylor St. ste. 100", "addr:city": "Sherman", "addr:state": "TX", "addr:postcode": "75090", "addr:country": "US", "name": "Sherman Taylor Place PSC", "website": "na", "brand": "Clinical Pathology Laboratories", "brand:wikidata": "Q91911320"}, "geometry": {"type": "Point", "coordinates": [-96.60825, 33.655862]}},
{"type": "Feature", "id": "xaWanm4ML1xCQhHNmOsMGfRpQnQ=", "properties": {"ref": "334985446", "@spider": "clinical_pathology_laboratories", "addr:full": "112 Herff Rd #340", "addr:city": "Boerne", "addr:state": "TX", "addr:postcode": "78006", "addr:country": "US", "name": "Boerne", "website": "na", "brand": "Clinical Pathology Laboratories", "brand:wikidata": "Q91911320"}, "geometry": {"type": "Point", "coordinates": [-98.728415, 29.782731]}},
{"type": "Feature", "id": "OgC2Q4gFceAVbRwtD3pmycY7QC4=", "properties": {"ref": "334985447", "@spider": "clinical_pathology_laboratories", "addr:full": "1200 E. Ridge Road Suite 10", "addr:city": "McAllen", "addr:state": "TX", "addr:postcode": "78503", "addr:country": "US", "name": "McAllen", "website": "na", "brand": "Clinical Pathology Laboratories", "brand:wikidata": "Q91911320"}, "geometry": {"type": "Point", "coordinates": [-98.20997, 26.183345]}},
{"type": "Feature", "id": "ZkuyM_IPrT6Wj9H3m0Bh9gxuAug=", "properties": {"ref": "334985448", "@spider": "clinical_pathology_laboratories", "addr:full": "2911 Medical Arts Square Suite 4", "addr:city": "Austin", "addr:state": "TX", "addr:postcode": "78705", "addr:country": "US", "name": "Austin - Medical Arts Square", "website": "na", "brand": "Clinical Pathology Laboratories", "brand:wikidata": "Q91911320"}, "geometry": {"type": "Point", "coordinates": [-97.727934, 30.288461]}},
{"type": "Feature", "id": "H56DooCpcgwsAw5kVMI1bjh1Dx4=", "properties": {"ref": "334985449", "@spider": "clinical_pathology_laboratories", "addr:full": "8440 Walnut Hill Lane Suite 370", "addr:city": "Dallas", "addr:state": "TX", "addr:postcode": "75231", "addr:country": "US", "name": "Dallas - 8440 Walnut Hill", "website": "na", "brand": "Clinical Pathology Laboratories", "brand:wikidata": "Q91911320"}, "geometry": {"type": "Point", "coordinates": [-96.759028, 32.882219]}},
{"type": "Feature", "id": "Wyb5fHxkfNzPNsHA_sni0j006Qk=", "properties": {"ref": "334985450", "@spider": "clinical_pathology_laboratories", "addr:full": "2604 St. Michael Drive Suite 210", "addr:city": "TEXARKANA", "addr:state": "TX", "addr:postcode": "75503", "addr:country": "US", "name": "Texarkana St Michael", "website": "na", "brand": "Clinical Pathology Laboratories", "brand:wikidata": "Q91911320"}, "geometry": {"type": "Point", "coordinates": [-94.0756, 33.464038]}},
{"type": "Feature", "id": "ANymDo6eLUO5pgyiY7SowVHwpR4=", "properties": {"ref": "334985451", "@spider": "clinical_pathology_laboratories", "addr:full": "4275 Burnham Avenue Suite 130", "addr:city": "Las Vegas", "addr:state": "NV", "addr:postcode": "89119", "addr:country": "US", "name": "Las Vegas-Burnham Ave PSC", "website": "na", "brand": "Clinical Pathology Laboratories", "brand:wikidata": "Q91911320"}, "geometry": {"type": "Point", "coordinates": [-115.124498, 36.11162]}},
{"type": "Feature", "id": "yP2q6x4JEQn6CeslmDG3kJeaDZo=", "properties": {"ref": "334985452", "@spider": "clinical_pathology_laboratories", "addr:full": "7180 Cascade Valley Court Suite 150", "addr:city": "Las Vegas", "addr:state": "NV", "addr:postcode": "89128", "addr:country": "US", "name": "Las Vegas - Mountain View", "website": "na", "brand": "Clinical Pathology Laboratories", "brand:wikidata": "Q91911320"}, "geometry": {"type": "Point", "coordinates": [-115.249084, 36.211506]}},
{"type": "Feature", "id": "z8733uxTfJhzbN4C2GspH8uK2Qc=", "properties": {"ref": "334985453", "@spider": "clinical_pathology_laboratories", "addr:full": "1105 Central Expressway, Bldg I, North Suite 300", "addr:city": "Allen", "addr:state": "TX", "addr:postcode": "75013", "addr:country": "US", "name": "Allen PSC  (inside Texas Health Resource Hospital)", "website": "na", "brand": "Clinical Pathology Laboratories", "brand:wikidata": "Q91911320"}, "geometry": {"type": "Point", "coordinates": [-96.67313, 33.116019]}},
{"type": "Feature", "id": "4wry4t3xlRR9ymfPLh4-VGSs78k=", "properties": {"ref": "334985454", "@spider": "clinical_pathology_laboratories", "addr:full": "11673 Jollyville Road Suite 106", "addr:city": "Austin", "addr:state": "TX", "addr:postcode": "78759", "addr:country": "US", "name": "Austin - Ladera Park", "website": "na", "brand": "Clinical Pathology Laboratories", "brand:wikidata": "Q91911320"}, "geometry": {"type": "Point", "coordinates": [-97.750504, 30.418298]}},
{"type": "Feature", "id": "4-Nf31AprBu0PigIM2yeM8Q-Rdw=", "properties": {"ref": "334985455", "@spider": "clinical_pathology_laboratories", "addr:full": "3201 Maryland Parkway Suite 101", "addr:city": "Las Vegas", "addr:state": "NV", "addr:postcode": "89109", "addr:country": "US", "name": "Las Vegas - Maryland Parkway PSC", "website": "na", "brand": "Clinical Pathology Laboratories", "brand:wikidata": "Q91911320"}, "geometry": {"type": "Point", "coordinates": [-115.137894, 36.131718]}},
{"type": "Feature", "id": "FlMP-cFgpNhIrGItxO3Ntodex50=", "properties": {"ref": "334985456", "@spider": "clinical_pathology_laboratories", "addr:full": "3110 Calder Suite B", "addr:city": "Beaumont", "addr:state": "TX", "addr:postcode": "77702", "addr:country": "US", "name": "Beaumont", "website": "na", "brand": "Clinical Pathology Laboratories", "brand:wikidata": "Q91911320"}, "geometry": {"type": "Point", "coordinates": [-94.13446, 30.085674]}},
{"type": "Feature", "id": "ANZ-7KMJm6fRsDTUlmSMCtRaLmM=", "properties": {"ref": "334985457", "@spider": "clinical_pathology_laboratories", "addr:full": "527 ODD FELLOWS RD, SUITE A", "addr:city": "CROWLEY", "addr:state": "LA", "addr:postcode": "70526", "addr:country": "US", "name": "CROWLEY PSC", "website": "na", "brand": "Clinical Pathology Laboratories", "brand:wikidata": "Q91911320"}, "geometry": {"type": "Point", "coordinates": [-92.369908, 30.230868]}},
{"type": "Feature", "id": "UV21YqdPNCCiPqAVdtLXJzBuD48=", "properties": {"ref": "334985458", "@spider": "clinical_pathology_laboratories", "addr:full": "2407 W. Louisiana Suite 103", "addr:city": "Midland", "addr:state": "TX", "addr:postcode": "79701", "addr:country": "US", "name": "Midland", "website": "na", "brand": "Clinical Pathology Laboratories", "brand:wikidata": "Q91911320"}, "geometry": {"type": "Point", "coordinates": [-102.104181, 31.998171]}},
{"type": "Feature", "id": "0B2K9z2BpdvT9z7dKw2vquCVMik=", "properties": {"ref": "334985459", "@spider": "clinical_pathology_laboratories", "addr:full": "2905 Azalea Park Drive", "addr:city": "Muskogee", "addr:state": "OK", "addr:postcode": "74403", "addr:country": "US", "name": "Muskogee", "website": "na", "brand": "Clinical Pathology Laboratories", "brand:wikidata": "Q91911320"}, "geometry": {"type": "Point", "coordinates": [-95.398442, 35.769515]}},
{"type": "Feature", "id": "_Ny_p-q5bvOUiFBgKwy0Fk-h7Os=", "properties": {"ref": "334985460", "@spider": "clinical_pathology_laboratories", "addr:full": "16545 Southwest Freeway Suite 260", "addr:city": "Sugarland", "addr:state": "TX", "addr:postcode": "77479", "addr:country": "US", "name": "Sugarland - Southwest Freeway", "website": "na", "brand": "Clinical Pathology Laboratories", "brand:wikidata": "Q91911320"}, "geometry": {"type": "Point", "coordinates": [-95.63456, 29.591331]}},
{"type": "Feature", "id": "_qL1da_-7oSpmn9IA4ctpPBkxI8=", "properties": {"ref": "334985461", "@spider": "clinical_pathology_laboratories", "addr:full": "1919 N. Loop West Suite 171", "addr:city": "Houston", "addr:state": "TX", "addr:postcode": "77008", "addr:country": "US", "name": "North Loop West", "website": "na", "brand": "Clinical Pathology Laboratories", "brand:wikidata": "Q91911320"}, "geometry": {"type": "Point", "coordinates": [-95.434207, 29.810527]}},
{"type": "Feature", "id": "mQmju2h0QcwvimTuVX8Ajn2rAIU=", "properties": {"ref": "334985462", "@spider": "clinical_pathology_laboratories", "addr:full": "2301 S. Clear Creek Road Suite 130", "addr:city": "Killeen", "addr:state": "TX", "addr:postcode": "76549", "addr:country": "US", "name": "Killeen PSC", "website": "na", "brand": "Clinical Pathology Laboratories", "brand:wikidata": "Q91911320"}, "geometry": {"type": "Point", "coordinates": [-97.671612, 31.122005]}},
{"type": "Feature", "id": "WOV_7nuWu_m6tKlUOYOOiPi0j9E=", "properties": {"ref": "334985463", "@spider": "clinical_pathology_laboratories", "addr:full": "1521 S. Staples Street Suite 103", "addr:city": "Corpus Christi", "addr:state": "TX", "addr:postcode": "78404", "addr:country": "US", "name": "CC Medical Tower", "website": "na", "brand": "Clinical Pathology Laboratories", "brand:wikidata": "Q91911320"}, "geometry": {"type": "Point", "coordinates": [-97.40179, 27.775707]}},
{"type": "Feature", "id": "tItOts9-w_Vu9avZbtlPzIFEqWU=", "properties": {"ref": "334985464", "@spider": "clinical_pathology_laboratories", "addr:full": "2706 N. Ben Wilson", "addr:city": "Victoria", "addr:state": "TX", "addr:postcode": "77901", "addr:country": "US", "name": "Victoria - Ben Wilson", "website": "na", "brand": "Clinical Pathology Laboratories", "brand:wikidata": "Q91911320"}, "geometry": {"type": "Point", "coordinates": [-96.974248, 28.813785]}},
{"type": "Feature", "id": "fwiLtcOX6KnXNpdibTahj9M2W6Q=", "properties": {"ref": "334985465", "@spider": "clinical_pathology_laboratories", "addr:full": "9870 Gateway Blvd North Ste. E1", "addr:city": "El Paso", "addr:state": "TX", "addr:postcode": "79924", "addr:country": "US", "name": "El Paso - North East", "website": "na", "brand": "Clinical Pathology Laboratories", "brand:wikidata": "Q91911320"}, "geometry": {"type": "Point", "coordinates": [-106.439897, 31.894788]}},
{"type": "Feature", "id": "MzTZSchliKMe-oHNCfRb7WDZe1Y=", "properties": {"ref": "334985466", "@spider": "clinical_pathology_laboratories", "addr:full": "100 N. Green Valley Parkway Suite 315", "addr:city": "Henderson", "addr:state": "NV", "addr:postcode": "89074", "addr:country": "US", "name": "Green Valley", "website": "na", "brand": "Clinical Pathology Laboratories", "brand:wikidata": "Q91911320"}, "geometry": {"type": "Point", "coordinates": [-115.083849, 36.02585]}},
{"type": "Feature", "id": "cabYL_kIgje46hDlv2mNNYJeW8g=", "properties": {"ref": "334985467", "@spider": "clinical_pathology_laboratories", "addr:full": "2141 Office Park Drive #7", "addr:city": "San Angelo", "addr:state": "TX", "addr:postcode": "76904", "addr:country": "US", "name": "San Angelo PSC", "website": "na", "brand": "Clinical Pathology Laboratories", "brand:wikidata": "Q91911320"}, "geometry": {"type": "Point", "coordinates": [-100.464879, 31.421988]}},
{"type": "Feature", "id": "70ij8glP3PHE0uQ5WmOyWGpmeFA=", "properties": {"ref": "334985468", "@spider": "clinical_pathology_laboratories", "addr:full": "1003 W. San Antonio Street", "addr:city": "Lockhart", "addr:state": "TX", "addr:postcode": "78644", "addr:country": "US", "name": "Lockhart", "website": "na", "brand": "Clinical Pathology Laboratories", "brand:wikidata": "Q91911320"}, "geometry": {"type": "Point", "coordinates": [-97.68475, 29.883582]}},
{"type": "Feature", "id": "y3HyTBipVKgTcCj9hawGrdOnYzg=", "properties": {"ref": "334985469", "@spider": "clinical_pathology_laboratories", "addr:full": "7011 Ribelin Ranch Drive Suite 300", "addr:city": "Austin", "addr:state": "TX", "addr:postcode": "78750", "addr:country": "US", "name": "Austin - Ribelin Ranch Drive", "website": "na", "brand": "Clinical Pathology Laboratories", "brand:wikidata": "Q91911320"}, "geometry": {"type": "Point", "coordinates": [-97.83011, 30.392229]}},
{"type": "Feature", "id": "LgTxPlDoxrau9WqNAddVpLpv1i0=", "properties": {"ref": "334985470", "@spider": "clinical_pathology_laboratories", "addr:full": "9701 Brodie Lane Suite 103", "addr:city": "Austin", "addr:state": "TX", "addr:postcode": "78748", "addr:country": "US", "name": "Austin - Brodie Lane", "website": "na", "brand": "Clinical Pathology Laboratories", "brand:wikidata": "Q91911320"}, "geometry": {"type": "Point", "coordinates": [-97.846698, 30.187136]}},
{"type": "Feature", "id": "KESl3Ppmf_MOTXq5D8PSCcHz1iE=", "properties": {"ref": "334985471", "@spider": "clinical_pathology_laboratories", "addr:full": "375 Municipal Drive Suite 117", "addr:city": "Richardson", "addr:state": "TX", "addr:postcode": "75080", "addr:country": "US", "name": "Richardson - Richardson Medical Park PSC", "website": "na", "brand": "Clinical Pathology Laboratories", "brand:wikidata": "Q91911320"}, "geometry": {"type": "Point", "coordinates": [-96.725643, 32.973567]}},
{"type": "Feature", "id": "CeNcvm0ALp2D4Njz1Ia1QwnWD4s=", "properties": {"ref": "334985472", "@spider": "clinical_pathology_laboratories", "addr:full": "406 N. Grande Avenue Suite 110", "addr:city": "Gainesville", "addr:state": "TX", "addr:postcode": "76240", "addr:country": "US", "name": "Gainesville", "website": "na", "brand": "Clinical Pathology Laboratories", "brand:wikidata": "Q91911320"}, "geometry": {"type": "Point", "coordinates": [-97.132927, 33.627673]}},
{"type": "Feature", "id": "LDzdVjY-KP0HJpG5PB72lekzZwk=", "properties": {"ref": "334985473", "@spider": "clinical_pathology_laboratories", "addr:full": "3150 Matlock Road Suite 411", "addr:city": "Arlington", "addr:state": "TX", "addr:postcode": "76015", "addr:country": "US", "name": "South Arlington", "website": "na", "brand": "Clinical Pathology Laboratories", "brand:wikidata": "Q91911320"}, "geometry": {"type": "Point", "coordinates": [-97.1157, 32.693568]}},
{"type": "Feature", "id": "BUjZ0xrLEakkwjK8C0RM1FkT2B0=", "properties": {"ref": "334985474", "@spider": "clinical_pathology_laboratories", "addr:full": "1600 Coulter Building C Suite 306", "addr:city": "Amarillo", "addr:state": "TX", "addr:postcode": "79106", "addr:country": "US", "name": "Amarillo - Coulter", "website": "na", "brand": "Clinical Pathology Laboratories", "brand:wikidata": "Q91911320"}, "geometry": {"type": "Point", "coordinates": [-101.922427, 35.196751]}},
{"type": "Feature", "id": "SewUTvJLZ3HEbLiBJTvCNIWL6BY=", "properties": {"ref": "334985475", "@spider": "clinical_pathology_laboratories", "addr:full": "1310 RR 620 South Suite  B-08", "addr:city": "Lakeway", "addr:state": "TX", "addr:postcode": "78734", "addr:country": "US", "name": "Lakeway", "website": "na", "brand": "Clinical Pathology Laboratories", "brand:wikidata": "Q91911320"}, "geometry": {"type": "Point", "coordinates": [-97.965357, 30.350279]}},
{"type": "Feature", "id": "U-6N_cV_MuJIK7ZQDQuUJFanm8M=", "properties": {"ref": "334985476", "@spider": "clinical_pathology_laboratories", "addr:full": "17051 N. Dallas Parkway Suite 150", "addr:city": "Addison", "addr:state": "TX", "addr:postcode": "75001", "addr:country": "US", "name": "Addison PSC", "website": "na", "brand": "Clinical Pathology Laboratories", "brand:wikidata": "Q91911320"}, "geometry": {"type": "Point", "coordinates": [-96.829313, 32.983947]}},
{"type": "Feature", "id": "0bVhhCqkf5ySqPB8doHOC9zIfl0=", "properties": {"ref": "334985477", "@spider": "clinical_pathology_laboratories", "addr:full": "425 Holderrieth Suite 113", "addr:city": "Tomball", "addr:state": "TX", "addr:postcode": "77375", "addr:country": "US", "name": "Tomball", "website": "na", "brand": "Clinical Pathology Laboratories", "brand:wikidata": "Q91911320"}, "geometry": {"type": "Point", "coordinates": [-95.623943, 30.090302]}},
{"type": "Feature", "id": "q-0xrL-zKRtF9CfAJJvTwOykC1U=", "properties": {"ref": "334985479", "@spider": "clinical_pathology_laboratories", "addr:full": "425 North Belair Road, Suit 2 PSC", "addr:city": "Evans", "addr:state": "GA", "addr:postcode": "30809", "addr:country": "US", "name": "Belair Road PSC", "website": "na", "brand": "Clinical Pathology Laboratories", "brand:wikidata": "Q91911320"}, "geometry": {"type": "Point", "coordinates": [-82.132105, 33.528221]}},
{"type": "Feature", "id": "vjGqNDfJVrklqCB8Ih7DXT6IGHg=", "properties": {"ref": "334985481", "@spider": "clinical_pathology_laboratories", "addr:full": "509 North Texas Boulevard", "addr:city": "Alice", "addr:state": "TX", "addr:postcode": "78332", "addr:country": "US", "name": "Alice", "website": "na", "brand": "Clinical Pathology Laboratories", "brand:wikidata": "Q91911320"}, "geometry": {"type": "Point", "coordinates": [-98.065043, 27.755928]}},
{"type": "Feature", "id": "pTLLADyTs0kDMkkGaeY7UyRKV1I=", "properties": {"ref": "334985482", "@spider": "clinical_pathology_laboratories", "addr:full": "103 West Gibson Ste 103", "addr:city": "Jasper", "addr:state": "TX", "addr:postcode": "79591", "addr:country": "US", "name": "CPL Jasper", "website": "na", "brand": "Clinical Pathology Laboratories", "brand:wikidata": "Q91911320"}, "geometry": {"type": "Point", "coordinates": [-94.00072, 30.90843]}},
{"type": "Feature", "id": "DLI7IFl1n-KUTJI44HK2SHTo_Gs=", "properties": {"ref": "334985483", "@spider": "clinical_pathology_laboratories", "addr:full": "14615 N. San Pedro Suite 170", "addr:city": "San Antonio", "addr:state": "TX", "addr:postcode": "78232", "addr:country": "US", "name": "San Antonio - One Medical Park", "website": "na", "brand": "Clinical Pathology Laboratories", "brand:wikidata": "Q91911320"}, "geometry": {"type": "Point", "coordinates": [-98.479903, 29.574113]}},
{"type": "Feature", "id": "hwrgX1Uuc0-b6OufHX3I7OcsLSQ=", "properties": {"ref": "334985485", "@spider": "clinical_pathology_laboratories", "addr:full": "527 Gaslight Blvd", "addr:city": "Lufkin", "addr:state": "TX", "addr:postcode": "75604", "addr:country": "US", "name": "DRL Lufkin", "website": "na", "brand": "Clinical Pathology Laboratories", "brand:wikidata": "Q91911320"}, "geometry": {"type": "Point", "coordinates": [-94.752124, 31.327712]}},
{"type": "Feature", "id": "9ApQygKbU_JK-7jACjSzKbSwtfQ=", "properties": {"ref": "334985486", "@spider": "clinical_pathology_laboratories", "addr:full": "5211 ESSEN LANE,  SUITE 7", "addr:city": "Baton Rouge", "addr:state": "LA", "addr:postcode": "70809", "addr:country": "US", "name": "Baton Rouge Main", "website": "na", "brand": "Clinical Pathology Laboratories", "brand:wikidata": "Q91911320"}, "geometry": {"type": "Point", "coordinates": [-91.10138, 30.399363]}},
{"type": "Feature", "id": "ChmAkG64nieFMR-Z_TqM7-c5hys=", "properties": {"ref": "334985487", "@spider": "clinical_pathology_laboratories", "addr:full": "305 West 7th Street Suite B", "addr:city": "DeRidder", "addr:state": "LA", "addr:postcode": "70634", "addr:country": "US", "name": "DeRidder", "website": "na", "brand": "Clinical Pathology Laboratories", "brand:wikidata": "Q91911320"}, "geometry": {"type": "Point", "coordinates": [-93.289392, 30.841372]}},
{"type": "Feature", "id": "_TzJGeMzQJhVxZzOLYJJqA5rpl8=", "properties": {"ref": "334985488", "@spider": "clinical_pathology_laboratories", "addr:full": "21309 Foster Road Suite 200", "addr:city": "Spring", "addr:state": "TX", "addr:postcode": "77388", "addr:country": "US", "name": "Spring PSC", "website": "na", "brand": "Clinical Pathology Laboratories", "brand:wikidata": "Q91911320"}, "geometry": {"type": "Point", "coordinates": [-95.45633, 30.06937]}},
{"type": "Feature", "id": "YZfp7lH1yqVRhVgKShFBGwdQ-8Y=", "properties": {"ref": "334985489", "@spider": "clinical_pathology_laboratories", "addr:full": "3201 Colorado Boulevard Suite 102", "addr:city": "Denton", "addr:state": "TX", "addr:postcode": "76240", "addr:country": "US", "name": "Denton - Colorado Blvd.", "website": "na", "brand": "Clinical Pathology Laboratories", "brand:wikidata": "Q91911320"}, "geometry": {"type": "Point", "coordinates": [-97.096114, 33.182139]}},
{"type": "Feature", "id": "ucqmUyqeNi1RxJbe_GVB9ULFO9w=", "properties": {"ref": "334985490", "@spider": "clinical_pathology_laboratories", "addr:full": "12121 Richmond Avenue Street 210", "addr:city": "Houston", "addr:state": "TX", "addr:postcode": "77042", "addr:country": "US", "name": "West Houston", "website": "na", "brand": "Clinical Pathology Laboratories", "brand:wikidata": "Q91911320"}, "geometry": {"type": "Point", "coordinates": [-95.593744, 29.729174]}},
{"type": "Feature", "id": "62Y8Gvso9dPjxiX0_g1ky4jv6Pw=", "properties": {"ref": "334985491", "@spider": "clinical_pathology_laboratories", "addr:full": "5625 Eiger Road Suite 120", "addr:city": "Austin", "addr:state": "TX", "addr:postcode": "78735", "addr:country": "US", "name": "Austin - Southwest Medical Village", "website": "na", "brand": "Clinical Pathology Laboratories", "brand:wikidata": "Q91911320"}, "geometry": {"type": "Point", "coordinates": [-97.857424, 30.244944]}},
{"type": "Feature", "id": "zX4zPwd-aWC2SAu41ok-o60pemQ=", "properties": {"ref": "334985492", "@spider": "clinical_pathology_laboratories", "addr:full": "5757 Warren Parkway POB II Suite 100", "addr:city": "Frisco", "addr:state": "TX", "addr:postcode": "75034", "addr:country": "US", "name": "Frisco PSC", "website": "na", "brand": "Clinical Pathology Laboratories", "brand:wikidata": "Q91911320"}, "geometry": {"type": "Point", "coordinates": [-96.838065, 33.104957]}},
{"type": "Feature", "id": "_6xsRqKOcunnZ0LlRWxzn9CmOl4=", "properties": {"ref": "334985493", "@spider": "clinical_pathology_laboratories", "addr:full": "8160 Walnut Hill Lane Suite 111", "addr:city": "Dallas", "addr:state": "TX", "addr:postcode": "75231", "addr:country": "US", "name": "Dallas - Margot Perot", "website": "na", "brand": "Clinical Pathology Laboratories", "brand:wikidata": "Q91911320"}, "geometry": {"type": "Point", "coordinates": [-96.763944, 32.880969]}},
{"type": "Feature", "id": "yRRpcwUX5ltHewqrTvRGFcBMlxg=", "properties": {"ref": "334985494", "@spider": "clinical_pathology_laboratories", "addr:full": "8460 Central Mall Dr", "addr:city": "PORT ARTHUR", "addr:state": "TX", "addr:postcode": "77642", "addr:country": "US", "name": "Port Arthur PSC", "website": "na", "brand": "Clinical Pathology Laboratories", "brand:wikidata": "Q91911320"}, "geometry": {"type": "Point", "coordinates": [-93.984694, 29.948942]}},
{"type": "Feature", "id": "DNzqr2Qdw36Fq0haJVF5yzh4sxI=", "properties": {"ref": "334985495", "@spider": "clinical_pathology_laboratories", "addr:full": "2250 Hospital Drive Suite 112", "addr:city": "Bossier City", "addr:state": "LA", "addr:postcode": "71111", "addr:country": "US", "name": "Bossier City", "website": "na", "brand": "Clinical Pathology Laboratories", "brand:wikidata": "Q91911320"}, "geometry": {"type": "Point", "coordinates": [-93.722654, 32.557946]}},
{"type": "Feature", "id": "_pTdXT2ImzDv7qn6M-Drga6dSBI=", "properties": {"ref": "334985496", "@spider": "clinical_pathology_laboratories", "addr:full": "7430 Barlite Suite 106", "addr:city": "San Antonio", "addr:state": "TX", "addr:postcode": "78224", "addr:country": "US", "name": "San Antonio - Women & Children Health Research", "website": "na", "brand": "Clinical Pathology Laboratories", "brand:wikidata": "Q91911320"}, "geometry": {"type": "Point", "coordinates": [-98.545641, 29.353836]}},
{"type": "Feature", "id": "5V0PWI3HTF-0un5XJth3AseC_CQ=", "properties": {"ref": "334985497", "@spider": "clinical_pathology_laboratories", "addr:full": "212 Wesley Drive", "addr:city": "Kerrville", "addr:state": "TX", "addr:postcode": "78028", "addr:country": "US", "name": "Kerrville - Medical Arts Plaza", "website": "na", "brand": "Clinical Pathology Laboratories", "brand:wikidata": "Q91911320"}, "geometry": {"type": "Point", "coordinates": [-99.150748, 30.046719]}},
{"type": "Feature", "id": "u24ZVb6vaeMs0pIxPcgL9rCgBx0=", "properties": {"ref": "334985498", "@spider": "clinical_pathology_laboratories", "addr:full": "12276 San Jose Boulevard Suite 704", "addr:city": "Jacksonville", "addr:state": "FL", "addr:postcode": "32223", "addr:country": "US", "name": "Jacksonville - San Jose Blvd", "website": "na", "brand": "Clinical Pathology Laboratories", "brand:wikidata": "Q91911320"}, "geometry": {"type": "Point", "coordinates": [-81.634681, 30.146307]}},
{"type": "Feature", "id": "lJfG96Ab-pZfNKe1bLGBUjZDVPw=", "properties": {"ref": "334985499", "@spider": "clinical_pathology_laboratories", "addr:full": "3400 Long Prairie Rd ste. 102", "addr:city": "Flower Mound", "addr:state": "TX", "addr:postcode": "75022", "addr:country": "US", "name": "Flower Mound PSC", "website": "na", "brand": "Clinical Pathology Laboratories", "brand:wikidata": "Q91911320"}, "geometry": {"type": "Point", "coordinates": [-97.069928, 33.032043]}},
{"type": "Feature", "id": "RgORYNBHNqIkBIznUC3YqPCjmM4=", "properties": {"ref": "334985500", "@spider": "clinical_pathology_laboratories", "addr:full": "5771 S. Fort Apache Road Suite110", "addr:city": "Las Vegas", "addr:state": "NV", "addr:postcode": "89148", "addr:country": "US", "name": "Fort Apache", "website": "na", "brand": "Clinical Pathology Laboratories", "brand:wikidata": "Q91911320"}, "geometry": {"type": "Point", "coordinates": [-115.298922, 36.08362]}},
{"type": "Feature", "id": "Ovv52XAtKXZmzV_Uuh-3n5mZii8=", "properties": {"ref": "334985501", "@spider": "clinical_pathology_laboratories", "addr:full": "335 E Sonterra Blvd #212", "addr:city": "San Antonio", "addr:state": "TX", "addr:postcode": "78258", "addr:country": "US", "name": "San Antonio Sonterra", "website": "na", "brand": "Clinical Pathology Laboratories", "brand:wikidata": "Q91911320"}, "geometry": {"type": "Point", "coordinates": [-98.489306, 29.616885]}},
{"type": "Feature", "id": "jq87iDeHjxTB_v9nSp04WNz5RZQ=", "properties": {"ref": "334985502", "@spider": "clinical_pathology_laboratories", "addr:full": "2802 Business Center Drive Suite 110", "addr:city": "Pearland", "addr:state": "TX", "addr:postcode": "77074", "addr:country": "US", "name": "Pearland", "website": "na", "brand": "Clinical Pathology Laboratories", "brand:wikidata": "Q91911320"}, "geometry": {"type": "Point", "coordinates": [-95.392538, 29.559656]}},
{"type": "Feature", "id": "pHOm16t0l71odzIVjyMzJTO4t-E=", "properties": {"ref": "334985503", "@spider": "clinical_pathology_laboratories", "addr:full": "1301 W. 38th Street Suite 115", "addr:city": "Austin", "addr:state": "TX", "addr:postcode": "78705", "addr:country": "US", "name": "Austin - Medical Park Tower", "website": "na", "brand": "Clinical Pathology Laboratories", "brand:wikidata": "Q91911320"}, "geometry": {"type": "Point", "coordinates": [-97.746598, 30.305776]}},
{"type": "Feature", "id": "0Q-Ln_tu68U_XrWFpUIVuvFTSnY=", "properties": {"ref": "334985504", "@spider": "clinical_pathology_laboratories", "addr:full": "66 Gruene Park Drive #104", "addr:city": "New Braunfels", "addr:state": "TX", "addr:postcode": "78130", "addr:country": "US", "name": "New Braunfels- Gruene Park Drive", "website": "na", "brand": "Clinical Pathology Laboratories", "brand:wikidata": "Q91911320"}, "geometry": {"type": "Point", "coordinates": [-98.093291, 29.726564]}},
{"type": "Feature", "id": "J_g0qPr8oV9x6LZtG5AAEoTI52o=", "properties": {"ref": "334985505", "@spider": "clinical_pathology_laboratories", "addr:full": "2603 Osler Boulevard", "addr:city": "Bryan", "addr:state": "TX", "addr:postcode": "77802", "addr:country": "US", "name": "Osler", "website": "na", "brand": "Clinical Pathology Laboratories", "brand:wikidata": "Q91911320"}, "geometry": {"type": "Point", "coordinates": [-96.348317, 30.655402]}},
{"type": "Feature", "id": "vIxiKdDhpvEUn3JNu81P3opE5HU=", "properties": {"ref": "334985506", "@spider": "clinical_pathology_laboratories", "addr:full": "3535 N. Fourth Street", "addr:city": "Longview", "addr:state": "TX", "addr:postcode": "75605", "addr:country": "US", "name": "Longview PSC", "website": "na", "brand": "Clinical Pathology Laboratories", "brand:wikidata": "Q91911320"}, "geometry": {"type": "Point", "coordinates": [-94.731685, 32.505053]}},
{"type": "Feature", "id": "7Std1eDNomNlK3Hjvz51bHrjlB4=", "properties": {"ref": "334985507", "@spider": "clinical_pathology_laboratories", "addr:full": "3829 Saratoga Boulevard", "addr:city": "Corpus Christi", "addr:state": "TX", "addr:postcode": "78415", "addr:country": "US", "name": "Saratoga Blvd.", "website": "na", "brand": "Clinical Pathology Laboratories", "brand:wikidata": "Q91911320"}, "geometry": {"type": "Point", "coordinates": [-97.415438, 27.700399]}},
{"type": "Feature", "id": "2jExYAvd4l4OCvaDteX6P_3a8tU=", "properties": {"ref": "334985508", "@spider": "clinical_pathology_laboratories", "addr:full": "4102 Woodlawn Suite 120", "addr:city": "Pasadena", "addr:state": "TX", "addr:postcode": "77504", "addr:country": "US", "name": "Pasadena", "website": "na", "brand": "Clinical Pathology Laboratories", "brand:wikidata": "Q91911320"}, "geometry": {"type": "Point", "coordinates": [-95.186576, 29.661534]}},
{"type": "Feature", "id": "iXiitbx_yw3F_7Ia-SkMjjogKws=", "properties": {"ref": "334985509", "@spider": "clinical_pathology_laboratories", "addr:full": "8230 Walnut Hill Lane Suite 518", "addr:city": "Dallas", "addr:state": "TX", "addr:postcode": "75231", "addr:country": "US", "name": "Dallas - 8230 Walnut Hill", "website": "na", "brand": "Clinical Pathology Laboratories", "brand:wikidata": "Q91911320"}, "geometry": {"type": "Point", "coordinates": [-96.760691, 32.881854]}},
{"type": "Feature", "id": "jg0AP4cumPBFa0W46dJagrH2GnA=", "properties": {"ref": "334985510", "@spider": "clinical_pathology_laboratories", "addr:full": "6049 Harris Parkway ste. 105", "addr:city": "Fort worth", "addr:state": "TX", "addr:postcode": "76132", "addr:country": "US", "name": "Harris Parkway PSC", "website": "na", "brand": "Clinical Pathology Laboratories", "brand:wikidata": "Q91911320"}, "geometry": {"type": "Point", "coordinates": [-97.419758, 32.660343]}},
{"type": "Feature", "id": "uUF7K69reXb24eSJWKznv0bEuKA=", "properties": {"ref": "334985511", "@spider": "clinical_pathology_laboratories", "addr:full": "855 Belanger St # 106", "addr:city": "Houma", "addr:state": "LA", "addr:postcode": "70360", "addr:country": "US", "name": "Houma  (Inside 360 Wellness)", "website": "na", "brand": "Clinical Pathology Laboratories", "brand:wikidata": "Q91911320"}, "geometry": {"type": "Point", "coordinates": [-90.715806, 29.59697]}},
{"type": "Feature", "id": "LBEAg0n0ScUitwnIowbzbaSXdEk=", "properties": {"ref": "334985512", "@spider": "clinical_pathology_laboratories", "addr:full": "7127 Somerset Rd Suite 102", "addr:city": "San Antonio", "addr:state": "TX", "addr:postcode": "78211", "addr:country": "US", "name": "San Antonio - Somerest Office Park", "website": "na", "brand": "Clinical Pathology Laboratories", "brand:wikidata": "Q91911320"}, "geometry": {"type": "Point", "coordinates": [-98.550076, 29.356292]}},
{"type": "Feature", "id": "UbUmwOaBcGK4R-cxc1iTbOYRSBw=", "properties": {"ref": "334985513", "@spider": "clinical_pathology_laboratories", "addr:full": "2535 Bert Kouns Industrial Loop Suite 219", "addr:city": "Shreveport", "addr:state": "LA", "addr:postcode": "71118", "addr:country": "US", "name": "Shreveport-Main", "website": "na", "brand": "Clinical Pathology Laboratories", "brand:wikidata": "Q91911320"}, "geometry": {"type": "Point", "coordinates": [-93.800273, 32.401401]}},
{"type": "Feature", "id": "YcvREaf8TfqNm8B_qDvn9h5_kQw=", "properties": {"ref": "334985514", "@spider": "clinical_pathology_laboratories", "addr:full": "6295 S. Rainbow Boulevard Suite 103", "addr:city": "Las Vegas", "addr:state": "NV", "addr:postcode": "89118", "addr:country": "US", "name": "Las Vegas - Rainbow Blvd.", "website": "na", "brand": "Clinical Pathology Laboratories", "brand:wikidata": "Q91911320"}, "geometry": {"type": "Point", "coordinates": [-115.243315, 36.074591]}},
{"type": "Feature", "id": "mRcypY51VbLoxGPjTVbcUonlCTc=", "properties": {"ref": "334985515", "@spider": "clinical_pathology_laboratories", "addr:full": "401 N. Hancock", "addr:city": "Odessa", "addr:state": "TX", "addr:postcode": "79761", "addr:country": "US", "name": "Odessa", "website": "na", "brand": "Clinical Pathology Laboratories", "brand:wikidata": "Q91911320"}, "geometry": {"type": "Point", "coordinates": [-102.366134, 31.84918]}},
{"type": "Feature", "id": "6uKS8Z2YM2DGVlLdkOleCKfD_AU=", "properties": {"ref": "334985516", "@spider": "clinical_pathology_laboratories", "addr:full": "11212 Hwy 151 Bldg 2, Ste 370", "addr:city": "San Antonio", "addr:state": "TX", "addr:postcode": "78251", "addr:country": "US", "name": "San Antonio - Westover Hills", "website": "na", "brand": "Clinical Pathology Laboratories", "brand:wikidata": "Q91911320"}, "geometry": {"type": "Point", "coordinates": [-98.697015, 29.466891]}},
{"type": "Feature", "id": "wzr4SRodHy-XNd1WkaoZhPm4zoY=", "properties": {"ref": "334985517", "@spider": "clinical_pathology_laboratories", "addr:full": "1707 W. Charleston Blvd Suite 130", "addr:city": "Las Vegas", "addr:state": "NV", "addr:postcode": "89102", "addr:country": "US", "name": "Las Vegas - UNLV", "website": "na", "brand": "Clinical Pathology Laboratories", "brand:wikidata": "Q91911320"}, "geometry": {"type": "Point", "coordinates": [-115.163691, 36.158022]}},
{"type": "Feature", "id": "STvtS4JyKnPF7chOQkGzCd2tW7k=", "properties": {"ref": "334985518", "@spider": "clinical_pathology_laboratories", "addr:full": "1813 Golden Trail Court Suite 120", "addr:city": "Carrollton", "addr:state": "TX", "addr:postcode": "75010", "addr:country": "US", "name": "Carrollton PSC", "website": "na", "brand": "Clinical Pathology Laboratories", "brand:wikidata": "Q91911320"}, "geometry": {"type": "Point", "coordinates": [-96.879134, 33.024244]}},
{"type": "Feature", "id": "mF-eYn3i0isRKqszobcT45RKmfk=", "properties": {"ref": "334985519", "@spider": "clinical_pathology_laboratories", "addr:full": "2500 S. Lakeline Blvd Suite 203", "addr:city": "Cedar Park", "addr:state": "TX", "addr:postcode": "78613", "addr:country": "US", "name": "Cedar Park - Lakeline Blvd.", "website": "na", "brand": "Clinical Pathology Laboratories", "brand:wikidata": "Q91911320"}, "geometry": {"type": "Point", "coordinates": [-97.816408, 30.476352]}},
{"type": "Feature", "id": "yfGiKya97n5t207bWLfdpyrCkWk=", "properties": {"ref": "334985520", "@spider": "clinical_pathology_laboratories", "addr:full": "100 Wolfe Nursery Rd #105", "addr:city": "Stephenville", "addr:state": "TX", "addr:postcode": "76401", "addr:country": "US", "name": "Stephenville PSC", "website": "na", "brand": "Clinical Pathology Laboratories", "brand:wikidata": "Q91911320"}, "geometry": {"type": "Point", "coordinates": [-98.23962, 32.20463]}},
{"type": "Feature", "id": "yrh66q5T5HJNaMyx2F-iq8YcKNU=", "properties": {"ref": "334985521", "@spider": "clinical_pathology_laboratories", "addr:full": "7411 Remcon Circle Suite A-5", "addr:city": "El Paso", "addr:state": "TX", "addr:postcode": "79912", "addr:country": "US", "name": "El Paso - Westside", "website": "na", "brand": "Clinical Pathology Laboratories", "brand:wikidata": "Q91911320"}, "geometry": {"type": "Point", "coordinates": [-106.562581, 31.837066]}},
{"type": "Feature", "id": "48VPKMEksEzNMMkuYiqLpUycW7A=", "properties": {"ref": "334985522", "@spider": "clinical_pathology_laboratories", "addr:full": "506 E 2nd Street Ste A", "addr:city": "Rio Grande City", "addr:state": "TX", "addr:postcode": "78582", "addr:country": "US", "name": "Rio Grande", "website": "na", "brand": "Clinical Pathology Laboratories", "brand:wikidata": "Q91911320"}, "geometry": {"type": "Point", "coordinates": [-98.622575, 26.592249]}},
{"type": "Feature", "id": "6t9-8xFDAVGRQbu6PmqAAVMduG4=", "properties": {"ref": "334985523", "@spider": "clinical_pathology_laboratories", "addr:full": "11720 FM 1960 W", "addr:city": "Houston", "addr:state": "TX", "addr:postcode": "77065", "addr:country": "US", "name": "Fallbrook", "website": "na", "brand": "Clinical Pathology Laboratories", "brand:wikidata": "Q91911320"}, "geometry": {"type": "Point", "coordinates": [-95.59693, 29.92725]}},
{"type": "Feature", "id": "ijvEGunSNLN2FmYK3IRIGc64LxQ=", "properties": {"ref": "334985524", "@spider": "clinical_pathology_laboratories", "addr:full": "3537 South I-35 E Suite 212", "addr:city": "Denton", "addr:state": "TX", "addr:postcode": "76210", "addr:country": "US", "name": "Denton Reginal Medical Center", "website": "na", "brand": "Clinical Pathology Laboratories", "brand:wikidata": "Q91911320"}, "geometry": {"type": "Point", "coordinates": [-97.091092, 33.176961]}},
{"type": "Feature", "id": "aJ1AwK8SEBfF5kM2PryIVECsg8Y=", "properties": {"ref": "334985525", "@spider": "clinical_pathology_laboratories", "addr:full": "4255 E. Charleston Boulevard Suite I", "addr:city": "Las Vegas", "addr:state": "NV", "addr:postcode": "89104", "addr:country": "US", "name": "Las Vegas -  East Charleston  **SEMEN COLLECTION APPOINTMENTS NOT AVAILABLE ONLINE, CALL 702.795.4900 FOR ASSISTANCE**", "website": "na", "brand": "Clinical Pathology Laboratories", "brand:wikidata": "Q91911320"}, "geometry": {"type": "Point", "coordinates": [-115.082138, 36.158265]}},
{"type": "Feature", "id": "lf2wGD8x5I1Lwoa7rjiB_-L6toY=", "properties": {"ref": "334985526", "@spider": "clinical_pathology_laboratories", "addr:full": "3430 W. Wheatland Road Physicians Office 1 Suite 116", "addr:city": "Dallas", "addr:state": "TX", "addr:postcode": "75237", "addr:country": "US", "name": "Dallas - Charlton Methodist PSC", "website": "na", "brand": "Clinical Pathology Laboratories", "brand:wikidata": "Q91911320"}, "geometry": {"type": "Point", "coordinates": [-96.875461, 32.647406]}},
{"type": "Feature", "id": "8BJLsMqendQMEhp7sa94rjDxduA=", "properties": {"ref": "334985527", "@spider": "clinical_pathology_laboratories", "addr:full": "4315 James Casey, Ste. 101", "addr:city": "Austin", "addr:state": "TX", "addr:postcode": "78745", "addr:country": "US", "name": "Austin - James Casey", "website": "na", "brand": "Clinical Pathology Laboratories", "brand:wikidata": "Q91911320"}, "geometry": {"type": "Point", "coordinates": [-97.775016, 30.223671]}},
{"type": "Feature", "id": "SYqutLKyVISH5X5jOGaucVxl-4I=", "properties": {"ref": "334985528", "@spider": "clinical_pathology_laboratories", "addr:full": "6300 Main Street", "addr:city": "Zachary", "addr:state": "LA", "addr:postcode": "70791", "addr:country": "US", "name": "Lane Memorial Hospital", "website": "na", "brand": "Clinical Pathology Laboratories", "brand:wikidata": "Q91911320"}, "geometry": {"type": "Point", "coordinates": [-91.13751, 30.649011]}},
{"type": "Feature", "id": "TCWVwYI_LBi1rY-i99UTZt71ltU=", "properties": {"ref": "334985529", "@spider": "clinical_pathology_laboratories", "addr:full": "12201 Renfert Way Suite 102", "addr:city": "Austin", "addr:state": "TX", "addr:postcode": "78758", "addr:country": "US", "name": "Austin - Medical Oaks Pavillion", "website": "na", "brand": "Clinical Pathology Laboratories", "brand:wikidata": "Q91911320"}, "geometry": {"type": "Point", "coordinates": [-97.704692, 30.409695]}},
{"type": "Feature", "id": "0trZ5cOMwJquyYarZad56PXnyF8=", "properties": {"ref": "334985530", "@spider": "clinical_pathology_laboratories", "addr:full": "1200 Hospital Drive Suite 7", "addr:city": "Opelousas", "addr:state": "LA", "addr:postcode": "70570", "addr:country": "US", "name": "Opelousas", "website": "na", "brand": "Clinical Pathology Laboratories", "brand:wikidata": "Q91911320"}, "geometry": {"type": "Point", "coordinates": [-92.075045, 30.543387]}},
{"type": "Feature", "id": "sqFVGaCZMRoSMGUHBa7NV_eOWIE=", "properties": {"ref": "334985531", "@spider": "clinical_pathology_laboratories", "addr:full": "242 E. Evergreen", "addr:city": "Sherman", "addr:state": "TX", "addr:postcode": "75090", "addr:country": "US", "name": "Sherman", "website": "na", "brand": "Clinical Pathology Laboratories", "brand:wikidata": "Q91911320"}, "geometry": {"type": "Point", "coordinates": [-96.609836, 33.647104]}},
{"type": "Feature", "id": "w1vPI_yoYHdSBLPRjc9rgh0xnUE=", "properties": {"ref": "334985532", "@spider": "clinical_pathology_laboratories", "addr:full": "875 Collegiate Drive", "addr:city": "Paris", "addr:state": "TX", "addr:postcode": "75460", "addr:country": "US", "name": "Paris", "website": "na", "brand": "Clinical Pathology Laboratories", "brand:wikidata": "Q91911320"}, "geometry": {"type": "Point", "coordinates": [-95.526831, 33.653778]}},
{"type": "Feature", "id": "KhqKpKjrvPUfwGpGsRJ77AORVxU=", "properties": {"ref": "334985533", "@spider": "clinical_pathology_laboratories", "addr:full": "150 Pine Forest Dr. STE 203", "addr:city": "Shenandoah", "addr:state": "TX", "addr:postcode": "77380", "addr:country": "US", "name": "Vision Park PSC", "website": "na", "brand": "Clinical Pathology Laboratories", "brand:wikidata": "Q91911320"}, "geometry": {"type": "Point", "coordinates": [-95.458677, 30.18919]}},
{"type": "Feature", "id": "lBc4atYHkW36q0lLP2now8QQ5ds=", "properties": {"ref": "334985534", "@spider": "clinical_pathology_laboratories", "addr:full": "12702 Toepperwein Ste 112", "addr:city": "San Antonio", "addr:state": "TX", "addr:postcode": "78233", "addr:country": "US", "name": "San Antonio - I 35 Plaza (Toepperwein)", "website": "na", "brand": "Clinical Pathology Laboratories", "brand:wikidata": "Q91911320"}, "geometry": {"type": "Point", "coordinates": [-98.345723, 29.554613]}},
{"type": "Feature", "id": "YN0GPdSg5gQTgnxQt-rXjAvpkH8=", "properties": {"ref": "334985536", "@spider": "clinical_pathology_laboratories", "addr:full": "1525 East 6th Street A-1", "addr:city": "Weslaco", "addr:state": "TX", "addr:postcode": "78596", "addr:country": "US", "name": "Weslaco", "website": "na", "brand": "Clinical Pathology Laboratories", "brand:wikidata": "Q91911320"}, "geometry": {"type": "Point", "coordinates": [-97.974043, 26.150319]}},
{"type": "Feature", "id": "6r8R_o6V1N4T_EkDjoPku6dNHLk=", "properties": {"ref": "334985537", "@spider": "clinical_pathology_laboratories", "addr:full": "700 Olympic Plaza Suite 270", "addr:city": "Tyler", "addr:state": "TX", "addr:postcode": "75701", "addr:country": "US", "name": "Tyler - POB", "website": "na", "brand": "Clinical Pathology Laboratories", "brand:wikidata": "Q91911320"}, "geometry": {"type": "Point", "coordinates": [-95.292528, 32.337318]}},
{"type": "Feature", "id": "UnHN9ohG0Awi1KIt8yqfWyEZPk4=", "properties": {"ref": "334985538", "@spider": "clinical_pathology_laboratories", "addr:full": "10521 Jeffreys Street Suite 121", "addr:city": "Henderson", "addr:state": "NV", "addr:postcode": "89052", "addr:country": "US", "name": "Henderson-Jeffrey's PSC", "website": "na", "brand": "Clinical Pathology Laboratories", "brand:wikidata": "Q91911320"}, "geometry": {"type": "Point", "coordinates": [-115.11985, 36.00056]}},
{"type": "Feature", "id": "zw0M7CYLCR0yf6zTQTFoW7fPiQI=", "properties": {"ref": "334985539", "@spider": "clinical_pathology_laboratories", "addr:full": "601 E. San Antonio Street Suite 201", "addr:city": "Victoria", "addr:state": "TX", "addr:postcode": "77901", "addr:country": "US", "name": "Victoria - Detar Medical Plaza", "website": "na", "brand": "Clinical Pathology Laboratories", "brand:wikidata": "Q91911320"}, "geometry": {"type": "Point", "coordinates": [-96.997724, 28.808092]}},
{"type": "Feature", "id": "X52fEgVvdlY8c2QySbpBNs5sA08=", "properties": {"ref": "334985540", "@spider": "clinical_pathology_laboratories", "addr:full": "1905 SW H. K. Dodgen Loop", "addr:city": "Temple", "addr:state": "TX", "addr:postcode": "76549", "addr:country": "US", "name": "Temple PSC", "website": "na", "brand": "Clinical Pathology Laboratories", "brand:wikidata": "Q91911320"}, "geometry": {"type": "Point", "coordinates": [-97.37686, 31.07299]}},
{"type": "Feature", "id": "95ymGrbakCY8BQxOVw5uK-XErzI=", "properties": {"ref": "334985541", "@spider": "clinical_pathology_laboratories", "addr:full": "6801 McPherson #337", "addr:city": "Laredo", "addr:state": "TX", "addr:postcode": "78041", "addr:country": "US", "name": "Laredo - McPherson", "website": "na", "brand": "Clinical Pathology Laboratories", "brand:wikidata": "Q91911320"}, "geometry": {"type": "Point", "coordinates": [-99.472694, 27.561821]}},
{"type": "Feature", "id": "1fe8aUijRM7TBqp_CVuBXlpHM5M=", "properties": {"ref": "334985542", "@spider": "clinical_pathology_laboratories", "addr:full": "8080 Independence Parkway Suite 225", "addr:city": "Plano", "addr:state": "TX", "addr:postcode": "75025", "addr:country": "US", "name": "Plano - Independence Medical Village", "website": "na", "brand": "Clinical Pathology Laboratories", "brand:wikidata": "Q91911320"}, "geometry": {"type": "Point", "coordinates": [-96.748429, 33.088239]}},
{"type": "Feature", "id": "xaq250D90iCJ6JRFu8CN5VxX7u8=", "properties": {"ref": "334985543", "@spider": "clinical_pathology_laboratories", "addr:full": "609 Hemphill Street Suite 102", "addr:city": "Ft Worth", "addr:state": "TX", "addr:postcode": "76104", "addr:country": "US", "name": "Ft. Worth - Hemphill", "website": "na", "brand": "Clinical Pathology Laboratories", "brand:wikidata": "Q91911320"}, "geometry": {"type": "Point", "coordinates": [-97.331577, 32.737758]}},
{"type": "Feature", "id": "ejLCXPELdjmQ8YQUV0BpGIGYwqg=", "properties": {"ref": "334985544", "@spider": "clinical_pathology_laboratories", "addr:full": "5711 Almeda RD", "addr:city": "Houston", "addr:state": "TX", "addr:postcode": "77004", "addr:country": "US", "name": "Almeda PSC", "website": "na", "brand": "Clinical Pathology Laboratories", "brand:wikidata": "Q91911320"}, "geometry": {"type": "Point", "coordinates": [-95.379907, 29.71845]}},
{"type": "Feature", "id": "zmPGqdHdZHUgHgizBHBdRQGgEx4=", "properties": {"ref": "334985545", "@spider": "clinical_pathology_laboratories", "addr:full": "1521 Market St. Ste G", "addr:city": "Rockport", "addr:state": "TX", "addr:postcode": "78382", "addr:country": "US", "name": "Rockport PSC", "website": "na", "brand": "Clinical Pathology Laboratories", "brand:wikidata": "Q91911320"}, "geometry": {"type": "Point", "coordinates": [-97.057981, 28.041134]}},
{"type": "Feature", "id": "exNdrMiQk7vZOdIQpNZNqL2kkKY=", "properties": {"ref": "334985546", "@spider": "clinical_pathology_laboratories", "addr:full": "1200 Carl Ramert Drive", "addr:city": "Yoakum", "addr:state": "TX", "addr:postcode": "77995", "addr:country": "US", "name": "Yoakum Community Hospital Medical Outpatient Building", "website": "na", "brand": "Clinical Pathology Laboratories", "brand:wikidata": "Q91911320"}, "geometry": {"type": "Point", "coordinates": [-97.129292, 29.307069]}},
{"type": "Feature", "id": "JWntXM9_WBIiVSICkP20uXHBF7s=", "properties": {"ref": "334985547", "@spider": "clinical_pathology_laboratories", "addr:full": "170 Benney Lane Suite 102", "addr:city": "Dripping Springs", "addr:state": "TX", "addr:postcode": "78620", "addr:country": "US", "name": "Dripping Springs PSC", "website": "na", "brand": "Clinical Pathology Laboratories", "brand:wikidata": "Q91911320"}, "geometry": {"type": "Point", "coordinates": [-98.10035, 30.19526]}},
{"type": "Feature", "id": "BchT0hqR4rw3rAczhR7fETMyxKU=", "properties": {"ref": "334985548", "@spider": "clinical_pathology_laboratories", "addr:full": "4635 NE Stalling Drive Suite 102", "addr:city": "Nacogdoches", "addr:state": "TX", "addr:postcode": "75965", "addr:country": "US", "name": "Nacogdoches - Stallings", "website": "na", "brand": "Clinical Pathology Laboratories", "brand:wikidata": "Q91911320"}, "geometry": {"type": "Point", "coordinates": [-94.650181, 31.651327]}},
{"type": "Feature", "id": "FXz2CMAe6cxAO-XF2t1Du4ihEAs=", "properties": {"ref": "334985549", "@spider": "clinical_pathology_laboratories", "addr:full": "2270 Joe Battle, Suite D", "addr:city": "El Paso", "addr:state": "TX", "addr:postcode": "79938", "addr:country": "US", "name": "El Paso - 2270 Joe Battle     Please Note Temporary Change in Hours Due to COVID-19.", "website": "na", "brand": "Clinical Pathology Laboratories", "brand:wikidata": "Q91911320"}, "geometry": {"type": "Point", "coordinates": [-106.266695, 31.783703]}},
{"type": "Feature", "id": "QzTXHXp0QLHRiecheJFYk4bbwXs=", "properties": {"ref": "334985550", "@spider": "clinical_pathology_laboratories", "addr:full": "5615-C Jackson Street", "addr:city": "Alexandria", "addr:state": "LA", "addr:postcode": "71303", "addr:country": "US", "name": "Alexandria", "website": "na", "brand": "Clinical Pathology Laboratories", "brand:wikidata": "Q91911320"}, "geometry": {"type": "Point", "coordinates": [-92.486507, 31.268161]}},
{"type": "Feature", "id": "tSNVDHnUQsIma4ep60QHZoF4Pq8=", "properties": {"ref": "334985551", "@spider": "clinical_pathology_laboratories", "addr:full": "10141 US Hwy 59 Road", "addr:city": "Wharton", "addr:state": "TX", "addr:postcode": "77488", "addr:country": "US", "name": "Wharton", "website": "na", "brand": "Clinical Pathology Laboratories", "brand:wikidata": "Q91911320"}, "geometry": {"type": "Point", "coordinates": [-96.117415, 29.328597]}},
{"type": "Feature", "id": "G8g_nK9au14aLB7GiZblzmdNIuA=", "properties": {"ref": "334985552", "@spider": "clinical_pathology_laboratories", "addr:full": "601 W. State Highway 6 Suite 107", "addr:city": "Waco", "addr:state": "TX", "addr:postcode": "76710", "addr:country": "US", "name": "Waco PSC", "website": "na", "brand": "Clinical Pathology Laboratories", "brand:wikidata": "Q91911320"}, "geometry": {"type": "Point", "coordinates": [-97.198595, 31.518262]}},
{"type": "Feature", "id": "OSAVKqdRUNpx_fSBLbUrnc-D2us=", "properties": {"ref": "334985553", "@spider": "clinical_pathology_laboratories", "addr:full": "1111 W. 34th Street Suite 100", "addr:city": "Austin", "addr:state": "TX", "addr:postcode": "78705", "addr:country": "US", "name": "Austin - Bailey Square", "website": "na", "brand": "Clinical Pathology Laboratories", "brand:wikidata": "Q91911320"}, "geometry": {"type": "Point", "coordinates": [-97.746706, 30.302932]}},
{"type": "Feature", "id": "1AKcDl4TcvB_Ifjbi93d3R8T4GM=", "properties": {"ref": "334985554", "@spider": "clinical_pathology_laboratories", "addr:full": "4510 Ambassador Caffery Suite B", "addr:city": "Lafayette", "addr:state": "LA", "addr:postcode": "70508", "addr:country": "US", "name": "Lafayette - Ambassador Caffery", "website": "na", "brand": "Clinical Pathology Laboratories", "brand:wikidata": "Q91911320"}, "geometry": {"type": "Point", "coordinates": [-92.066016, 30.239717]}},
{"type": "Feature", "id": "UBvKsFm23cB0G4xOR9lhJm8H5wI=", "properties": {"ref": "334985555", "@spider": "clinical_pathology_laboratories", "addr:full": "2045 E. Cheyenne Avenue Suite 150", "addr:city": "Las Vegas", "addr:state": "NV", "addr:postcode": "89030", "addr:country": "US", "name": "Cheyenne", "website": "na", "brand": "Clinical Pathology Laboratories", "brand:wikidata": "Q91911320"}, "geometry": {"type": "Point", "coordinates": [-115.120602, 36.216349]}},
{"type": "Feature", "id": "ldzjzswParn-JsrnVQlUEeSCPFM=", "properties": {"ref": "334985556", "@spider": "clinical_pathology_laboratories", "addr:full": "4112 Links Lane Suite 100", "addr:city": "Round Rock", "addr:state": "TX", "addr:postcode": "78664", "addr:country": "US", "name": "Round Rock - Forest Creek", "website": "na", "brand": "Clinical Pathology Laboratories", "brand:wikidata": "Q91911320"}, "geometry": {"type": "Point", "coordinates": [-97.600364, 30.498664]}},
{"type": "Feature", "id": "2EDhn6VHcdD6ASEAuTEmkNQ8tNA=", "properties": {"ref": "334985557", "@spider": "clinical_pathology_laboratories", "addr:full": "1200 Binz Suite 1360", "addr:city": "Houston", "addr:state": "TX", "addr:postcode": "77004", "addr:country": "US", "name": "Binz", "website": "na", "brand": "Clinical Pathology Laboratories", "brand:wikidata": "Q91911320"}, "geometry": {"type": "Point", "coordinates": [-95.388046, 29.724219]}},
{"type": "Feature", "id": "8gfx0T4P0WP5tBNBqk2MX3LI4v8=", "properties": {"ref": "334985558", "@spider": "clinical_pathology_laboratories", "addr:full": "3401 W Alberta Rd", "addr:city": "Edinburg", "addr:state": "TX", "addr:postcode": "78539", "addr:country": "US", "name": "Edinburg", "website": "na", "brand": "Clinical Pathology Laboratories", "brand:wikidata": "Q91911320"}, "geometry": {"type": "Point", "coordinates": [-98.204683, 26.258588]}},
{"type": "Feature", "id": "tlK1UvZOk526lxpbNWoNfngmFCY=", "properties": {"ref": "334985559", "@spider": "clinical_pathology_laboratories", "addr:full": "3724 20th Street", "addr:city": "Lubbock", "addr:state": "TX", "addr:postcode": "79410", "addr:country": "US", "name": "Lubbock", "website": "na", "brand": "Clinical Pathology Laboratories", "brand:wikidata": "Q91911320"}, "geometry": {"type": "Point", "coordinates": [-101.895931, 33.577198]}},
{"type": "Feature", "id": "Z6uLEK-w_MlZQ1A5YrR2gJIY9TE=", "properties": {"ref": "334985560", "@spider": "clinical_pathology_laboratories", "addr:full": "3939 North Fry Road Ste. B", "addr:city": "Katy", "addr:state": "TX", "addr:postcode": "77449", "addr:country": "US", "name": "Katy", "website": "na", "brand": "Clinical Pathology Laboratories", "brand:wikidata": "Q91911320"}, "geometry": {"type": "Point", "coordinates": [-95.720485, 29.827916]}},
{"type": "Feature", "id": "HwcvWH3aCcBNNnNlKzBCJgA4pqE=", "properties": {"ref": "334985561", "@spider": "clinical_pathology_laboratories", "addr:full": "343 W. Houston Suite 206", "addr:city": "San Antonio", "addr:state": "TX", "addr:postcode": "78205", "addr:country": "US", "name": "San Antonio - Rosa Verde Tower", "website": "na", "brand": "Clinical Pathology Laboratories", "brand:wikidata": "Q91911320"}, "geometry": {"type": "Point", "coordinates": [-98.496712, 29.426433]}},
{"type": "Feature", "id": "X9K4fSN8fl5pwQoWre8hEMFZhM0=", "properties": {"ref": "334985562", "@spider": "clinical_pathology_laboratories", "addr:full": "2540 N. Galloway Suite 207", "addr:city": "Mesquite", "addr:state": "TX", "addr:postcode": "75150", "addr:country": "US", "name": "Mesquite - Galloway", "website": "na", "brand": "Clinical Pathology Laboratories", "brand:wikidata": "Q91911320"}, "geometry": {"type": "Point", "coordinates": [-96.6102, 32.799496]}},
{"type": "Feature", "id": "WwDa4m4-O5qzyZ-gVX1Ht8bGxJg=", "properties": {"ref": "334985563", "@spider": "clinical_pathology_laboratories", "addr:full": "4499 Medical Drive Suite 100", "addr:city": "San Antonio", "addr:state": "TX", "addr:postcode": "78229", "addr:country": "US", "name": "San Antonio - Methodist Plaza", "website": "na", "brand": "Clinical Pathology Laboratories", "brand:wikidata": "Q91911320"}, "geometry": {"type": "Point", "coordinates": [-98.571603, 29.51042]}},
{"type": "Feature", "id": "cjf6Jr-I-Pc-oTfhZNfgBQP5WMc=", "properties": {"ref": "334985564", "@spider": "clinical_pathology_laboratories", "addr:full": "19701 Kingwood Drive Building 4 Suite B", "addr:city": "Kingwood", "addr:state": "TX", "addr:postcode": "77339", "addr:country": "US", "name": "Kingwood", "website": "na", "brand": "Clinical Pathology Laboratories", "brand:wikidata": "Q91911320"}, "geometry": {"type": "Point", "coordinates": [-95.257769, 30.051999]}},
{"type": "Feature", "id": "ILeK_S3dHBeqJacqA1narGAXeMk=", "properties": {"ref": "334985565", "@spider": "clinical_pathology_laboratories", "addr:full": "1216 Victor II Blvd", "addr:city": "Morgan City", "addr:state": "LA", "addr:postcode": "70380", "addr:country": "US", "name": "Morgan City", "website": "na", "brand": "Clinical Pathology Laboratories", "brand:wikidata": "Q91911320"}, "geometry": {"type": "Point", "coordinates": [-91.198992, 29.707973]}},
{"type": "Feature", "id": "Xv7nYN_4QTKkbiq2BbF-zmVqeFs=", "properties": {"ref": "334985566", "@spider": "clinical_pathology_laboratories", "addr:full": "3600 Gaston Ave Suite 1051", "addr:city": "Dallas", "addr:state": "TX", "addr:postcode": "75246", "addr:country": "US", "name": "Dallas - Wadley Tower", "website": "na", "brand": "Clinical Pathology Laboratories", "brand:wikidata": "Q91911320"}, "geometry": {"type": "Point", "coordinates": [-96.779725, 32.791002]}},
{"type": "Feature", "id": "tSzGmVzlSj5svayV7WLPLLYesl0=", "properties": {"ref": "334985567", "@spider": "clinical_pathology_laboratories", "addr:full": "1025 N. Austin", "addr:city": "Seguin", "addr:state": "TX", "addr:postcode": "78155", "addr:country": "US", "name": "Seguin PSC", "website": "na", "brand": "Clinical Pathology Laboratories", "brand:wikidata": "Q91911320"}, "geometry": {"type": "Point", "coordinates": [-97.9643, 29.57844]}},
{"type": "Feature", "id": "tkpJXecj_mlvc57B8GHnqqVMuzk=", "properties": {"ref": "334985568", "@spider": "clinical_pathology_laboratories", "addr:full": "601a Professional Dr #140", "addr:city": "Lawrenceville", "addr:state": "GA", "addr:postcode": "70604", "addr:country": "US", "name": "Lawrenceville PSC-By appointment only", "website": "na", "brand": "Clinical Pathology Laboratories", "brand:wikidata": "Q91911320"}, "geometry": {"type": "Point", "coordinates": [-84.012517, 33.963993]}},
{"type": "Feature", "id": "n-97mU60IXmFlzUQI02iCBR453A=", "properties": {"ref": "334985569", "@spider": "clinical_pathology_laboratories", "addr:full": "4001 S. Decatur Boulevard Suite 5", "addr:city": "Las Vegas", "addr:state": "NV", "addr:postcode": "89103", "addr:country": "US", "name": "Decatur", "website": "na", "brand": "Clinical Pathology Laboratories", "brand:wikidata": "Q91911320"}, "geometry": {"type": "Point", "coordinates": [-115.209933, 36.117263]}},
{"type": "Feature", "id": "80P8TVxhl60zN7JR_TMRMGQG3Pw=", "properties": {"ref": "334985570", "@spider": "clinical_pathology_laboratories", "addr:full": "12200 Renfert Way Suite 102", "addr:city": "Austin", "addr:state": "TX", "addr:postcode": "78758", "addr:country": "US", "name": "Austin - St David's Womens Center", "website": "na", "brand": "Clinical Pathology Laboratories", "brand:wikidata": "Q91911320"}, "geometry": {"type": "Point", "coordinates": [-97.705644, 30.411707]}},
{"type": "Feature", "id": "C-Y5xJrxVdc6xECVTsTBSfaJERA=", "properties": {"ref": "334985571", "@spider": "clinical_pathology_laboratories", "addr:full": "100 Medical Center Boulevard Suite 108", "addr:city": "Conroe", "addr:state": "TX", "addr:postcode": "77304", "addr:country": "US", "name": "Conroe", "website": "na", "brand": "Clinical Pathology Laboratories", "brand:wikidata": "Q91911320"}, "geometry": {"type": "Point", "coordinates": [-95.464872, 30.286892]}},
{"type": "Feature", "id": "TTFsjRW20qlLYgwSkx9dJ4GAbm4=", "properties": {"ref": "334985572", "@spider": "clinical_pathology_laboratories", "addr:full": "998 E. Main St", "addr:city": "Uvalde", "addr:state": "TX", "addr:postcode": "78801", "addr:country": "US", "name": "Uvalde", "website": "na", "brand": "Clinical Pathology Laboratories", "brand:wikidata": "Q91911320"}, "geometry": {"type": "Point", "coordinates": [-99.770441, 29.215301]}},
{"type": "Feature", "id": "z3yoQolWuAv6mSdjM-ZsAeXBl98=", "properties": {"ref": "334985573", "@spider": "clinical_pathology_laboratories", "addr:full": "210 West Park Drive Suite 102", "addr:city": "Livingston", "addr:state": "TX", "addr:postcode": "77351", "addr:country": "US", "name": "Livingston", "website": "na", "brand": "Clinical Pathology Laboratories", "brand:wikidata": "Q91911320"}, "geometry": {"type": "Point", "coordinates": [-94.942007, 30.73035]}},
{"type": "Feature", "id": "0-oVyh8Iws7iDfGCQ6okC00EjNI=", "properties": {"ref": "334985574", "@spider": "clinical_pathology_laboratories", "addr:full": "1610 9th Street Suite B", "addr:city": "Wichita Falls", "addr:state": "TX", "addr:postcode": "76301", "addr:country": "US", "name": "Wichita Falls", "website": "na", "brand": "Clinical Pathology Laboratories", "brand:wikidata": "Q91911320"}, "geometry": {"type": "Point", "coordinates": [-98.503016, 33.904617]}},
{"type": "Feature", "id": "YW4sfF2SvzhVfNhlJ-BE1ZesNm0=", "properties": {"ref": "334985575", "@spider": "clinical_pathology_laboratories", "addr:full": "4520 Wichers Drive Suite 102", "addr:city": "Marrero", "addr:state": "LA", "addr:postcode": "70072", "addr:country": "US", "name": "Marrero", "website": "na", "brand": "Clinical Pathology Laboratories", "brand:wikidata": "Q91911320"}, "geometry": {"type": "Point", "coordinates": [-90.094966, 29.889495]}},
{"type": "Feature", "id": "8Ne_b4q3usBVNxiI2mTE3c4dw7A=", "properties": {"ref": "334985576", "@spider": "clinical_pathology_laboratories", "addr:full": "10500 Vista Del Sol Suite B", "addr:city": "El Paso", "addr:state": "TX", "addr:postcode": "79925", "addr:country": "US", "name": "El Paso - Eastside", "website": "na", "brand": "Clinical Pathology Laboratories", "brand:wikidata": "Q91911320"}, "geometry": {"type": "Point", "coordinates": [-106.266186, 31.740442]}},
{"type": "Feature", "id": "vnZIgXdvJDK1DBDaPQJFHMQqouc=", "properties": {"ref": "334985577", "@spider": "clinical_pathology_laboratories", "addr:full": "521 Interstate 45 Ste. #12", "addr:city": "Huntsville", "addr:state": "TX", "addr:postcode": "77340", "addr:country": "US", "name": "Huntsville", "website": "na", "brand": "Clinical Pathology Laboratories", "brand:wikidata": "Q91911320"}, "geometry": {"type": "Point", "coordinates": [-95.578413, 30.720633]}},
{"type": "Feature", "id": "ehFMBnlah4HmYyMZeJOEgHNjIb0=", "properties": {"ref": "334985578", "@spider": "clinical_pathology_laboratories", "addr:full": "2000 A Medical Parkway", "addr:city": "San Marcos", "addr:state": "TX", "addr:postcode": "78666", "addr:country": "US", "name": "San Marcos MedPark", "website": "na", "brand": "Clinical Pathology Laboratories", "brand:wikidata": "Q91911320"}, "geometry": {"type": "Point", "coordinates": [-97.94761, 29.85373]}},
{"type": "Feature", "id": "Zx_ooBzpbGOLsU2pWSPP1G-Lrto=", "properties": {"ref": "334985579", "@spider": "clinical_pathology_laboratories", "addr:full": "5656 Bee Caves Rd Suite K-101", "addr:city": "Austin", "addr:state": "TX", "addr:postcode": "78746", "addr:country": "US", "name": "Austin - West Lake", "website": "na", "brand": "Clinical Pathology Laboratories", "brand:wikidata": "Q91911320"}, "geometry": {"type": "Point", "coordinates": [-97.82587, 30.296538]}},
{"type": "Feature", "id": "TLgnAOGdTbq2xQ9kCnIZdW1BRlw=", "properties": {"ref": "334985580", "@spider": "clinical_pathology_laboratories", "addr:full": "1250 8th Avenue Suite 335", "addr:city": "Ft Worth", "addr:state": "TX", "addr:postcode": "76104", "addr:country": "US", "name": "Ft. Worth - Eighth Ave.", "website": "na", "brand": "Clinical Pathology Laboratories", "brand:wikidata": "Q91911320"}, "geometry": {"type": "Point", "coordinates": [-97.344146, 32.731101]}},
{"type": "Feature", "id": "NOkozrSLsf7AaNG6nP9QQhn9zto=", "properties": {"ref": "334985581", "@spider": "clinical_pathology_laboratories", "addr:full": "598 Cactus Street", "addr:city": "Giddings", "addr:state": "TX", "addr:postcode": "78942", "addr:country": "US", "name": "Giddings PSC", "website": "na", "brand": "Clinical Pathology Laboratories", "brand:wikidata": "Q91911320"}, "geometry": {"type": "Point", "coordinates": [-96.927575, 30.191117]}},
{"type": "Feature", "id": "JK2ZsCoQgCDfdWNoM41TogvknNE=", "properties": {"ref": "334985582", "@spider": "clinical_pathology_laboratories", "addr:full": "1602 Rock Prairie Road Suite 150", "addr:city": "College Station", "addr:state": "TX", "addr:postcode": "77845", "addr:country": "US", "name": "Rock Prairie", "website": "na", "brand": "Clinical Pathology Laboratories", "brand:wikidata": "Q91911320"}, "geometry": {"type": "Point", "coordinates": [-96.292237, 30.582282]}},
{"type": "Feature", "id": "EC8wz9J42H3WeKDt8mCbzNBNJlM=", "properties": {"ref": "334985583", "@spider": "clinical_pathology_laboratories", "addr:full": "2013 Wells Branch Parkway Suite 115", "addr:city": "Austin", "addr:state": "TX", "addr:postcode": "78728", "addr:country": "US", "name": "Austin - Wells Branch", "website": "na", "brand": "Clinical Pathology Laboratories", "brand:wikidata": "Q91911320"}, "geometry": {"type": "Point", "coordinates": [-97.68293, 30.434632]}},
{"type": "Feature", "id": "060mqSe7GeC9Y93po0DSWOyDKMM=", "properties": {"ref": "334985584", "@spider": "clinical_pathology_laboratories", "addr:full": "3303 Rogers Road Suite 110", "addr:city": "San Antonio", "addr:state": "TX", "addr:postcode": "78251", "addr:country": "US", "name": "San Antonio - Rogers Rd.", "website": "na", "brand": "Clinical Pathology Laboratories", "brand:wikidata": "Q91911320"}, "geometry": {"type": "Point", "coordinates": [-98.689429, 29.466122]}},
{"type": "Feature", "id": "VyVngmCGnKCMHlFlXHMGCECyHJA=", "properties": {"ref": "334985585", "@spider": "clinical_pathology_laboratories", "addr:full": "711 Lehmann Dr", "addr:city": "Kerrville", "addr:state": "TX", "addr:postcode": "78028", "addr:country": "US", "name": "Kerrville Lehmann Dr", "website": "na", "brand": "Clinical Pathology Laboratories", "brand:wikidata": "Q91911320"}, "geometry": {"type": "Point", "coordinates": [-99.144426, 30.034202]}},
{"type": "Feature", "id": "h2VgwmefVY7EGx9ZGbffQ2i3IA4=", "properties": {"ref": "334985586", "@spider": "clinical_pathology_laboratories", "addr:full": "178 DEL ORLEANS AVE, SUITE A", "addr:city": "DENHAM SPRINGS", "addr:state": "LA", "addr:postcode": "70726", "addr:country": "US", "name": "Denham Springs PSC", "website": "na", "brand": "Clinical Pathology Laboratories", "brand:wikidata": "Q91911320"}, "geometry": {"type": "Point", "coordinates": [-90.954107, 30.469688]}},
{"type": "Feature", "id": "0xmifjV48qyEFt9eqIuYGSZCtH8=", "properties": {"ref": "334985587", "@spider": "clinical_pathology_laboratories", "addr:full": "7591 Fern Avenue Suite1502", "addr:city": "Shreveport", "addr:state": "LA", "addr:postcode": "71105", "addr:country": "US", "name": "Shreveport - Fern Ave.", "website": "na", "brand": "Clinical Pathology Laboratories", "brand:wikidata": "Q91911320"}, "geometry": {"type": "Point", "coordinates": [-93.7256, 32.432231]}},
{"type": "Feature", "id": "ci-haF6F4d19oOVnKpv40TTHEys=", "properties": {"ref": "334985588", "@spider": "clinical_pathology_laboratories", "addr:full": "912 W 21ST", "addr:city": "CLOVIS", "addr:state": "NM", "addr:postcode": "88101", "addr:country": "US", "name": "Dynamic Healthcare, LLC", "website": "na", "brand": "Clinical Pathology Laboratories", "brand:wikidata": "Q91911320"}, "geometry": {"type": "Point", "coordinates": [-103.216248, 34.420096]}},
{"type": "Feature", "id": "Gr80Tc-IozsGFoXAyecFxMO21t8=", "properties": {"ref": "334985589", "@spider": "clinical_pathology_laboratories", "addr:full": "106 Springwood Drive Suite 100", "addr:city": "Victoria", "addr:state": "TX", "addr:postcode": "77904", "addr:country": "US", "name": "Victoria - Springwood Dr.", "website": "na", "brand": "Clinical Pathology Laboratories", "brand:wikidata": "Q91911320"}, "geometry": {"type": "Point", "coordinates": [-97.017109, 28.85162]}},
{"type": "Feature", "id": "C6vyc5Q3opRZ4L2D_Y3OGU6YcPM=", "properties": {"ref": "334985590", "@spider": "clinical_pathology_laboratories", "addr:full": "5802 Saratoga Blvd. Ste. 100", "addr:city": "Corpus Christi", "addr:state": "TX", "addr:postcode": "78414", "addr:country": "US", "name": "Corpus Christi - Wellspring", "website": "na", "brand": "Clinical Pathology Laboratories", "brand:wikidata": "Q91911320"}, "geometry": {"type": "Point", "coordinates": [-97.376365, 27.68743]}},
{"type": "Feature", "id": "-c_QcPm-ln5wIAtSAl8RhPLaw4s=", "properties": {"ref": "334985591", "@spider": "clinical_pathology_laboratories", "addr:full": "5355 W. Sam Houston Parkway North Suite 350", "addr:city": "Houston", "addr:state": "TX", "addr:postcode": "77041", "addr:country": "US", "name": "Houston - Sam Houston Pkwy", "website": "na", "brand": "Clinical Pathology Laboratories", "brand:wikidata": "Q91911320"}, "geometry": {"type": "Point", "coordinates": [-95.56489, 29.843556]}},
{"type": "Feature", "id": "yrH6YFrh93wd7uV4XLpcpoPcsqQ=", "properties": {"ref": "334985592", "@spider": "clinical_pathology_laboratories", "addr:full": "3101 Highway 71 East Suite 206", "addr:city": "Bastrop", "addr:state": "TX", "addr:postcode": "78602", "addr:country": "US", "name": "Bastrop - Lakeside Professional Bldg.", "website": "na", "brand": "Clinical Pathology Laboratories", "brand:wikidata": "Q91911320"}, "geometry": {"type": "Point", "coordinates": [-97.293315, 30.103552]}},
{"type": "Feature", "id": "qE3TTGph59sVFQIDHqQE9dJPdVk=", "properties": {"ref": "334985593", "@spider": "clinical_pathology_laboratories", "addr:full": "1003 Legacy Ranch Suite 204", "addr:city": "Waxahachie", "addr:state": "TX", "addr:postcode": "75165", "addr:country": "US", "name": "Waxahachie PSC", "website": "na", "brand": "Clinical Pathology Laboratories", "brand:wikidata": "Q91911320"}, "geometry": {"type": "Point", "coordinates": [-96.856711, 32.417788]}},
{"type": "Feature", "id": "04j7O6UXQUg_cODSKYmnlEvCvyA=", "properties": {"ref": "334985594", "@spider": "clinical_pathology_laboratories", "addr:full": "7777 SW Freeway STE 640", "addr:city": "Houston", "addr:state": "TX", "addr:postcode": "77074", "addr:country": "US", "name": "SW Memorial", "website": "na", "brand": "Clinical Pathology Laboratories", "brand:wikidata": "Q91911320"}, "geometry": {"type": "Point", "coordinates": [-95.521545, 29.693015]}},
{"type": "Feature", "id": "8N-uJJiBlgmX5YCy2Or9t20xvYQ=", "properties": {"ref": "334985595", "@spider": "clinical_pathology_laboratories", "addr:full": "4070 Nelson Road #100", "addr:city": "Lake Charles", "addr:state": "LA", "addr:postcode": "70605", "addr:country": "US", "name": "Lake Charles", "website": "na", "brand": "Clinical Pathology Laboratories", "brand:wikidata": "Q91911320"}, "geometry": {"type": "Point", "coordinates": [-93.201938, 30.204179]}},
{"type": "Feature", "id": "Cx553GPNbtiRH3HrgZIGlGMyjxw=", "properties": {"ref": "334985596", "@spider": "clinical_pathology_laboratories", "addr:full": "319 N. Bonnie Brae Street", "addr:city": "Denton", "addr:state": "TX", "addr:postcode": "76201", "addr:country": "US", "name": "Denton\u00a0- Bonnie Brae", "website": "na", "brand": "Clinical Pathology Laboratories", "brand:wikidata": "Q91911320"}, "geometry": {"type": "Point", "coordinates": [-97.162233, 33.21766]}},
{"type": "Feature", "id": "S1zScr85DOPxXL6qzbqgTfGV7jQ=", "properties": {"ref": "334985597", "@spider": "clinical_pathology_laboratories", "addr:full": "3201 University Drive E Suite 340", "addr:city": "Bryan", "addr:state": "TX", "addr:postcode": "77802", "addr:country": "US", "name": "Bryan - Main Lab", "website": "na", "brand": "Clinical Pathology Laboratories", "brand:wikidata": "Q91911320"}, "geometry": {"type": "Point", "coordinates": [-96.297402, 30.650101]}},
{"type": "Feature", "id": "C67AllAl4KF32XJclkDiBIJ7vwQ=", "properties": {"ref": "334985598", "@spider": "clinical_pathology_laboratories", "addr:full": "5030 Crenshaw Rd. STE 140", "addr:city": "Pasadena", "addr:state": "TX", "addr:postcode": "77505", "addr:country": "US", "name": "Pasadena - Crenshaw", "website": "na", "brand": "Clinical Pathology Laboratories", "brand:wikidata": "Q91911320"}, "geometry": {"type": "Point", "coordinates": [-95.165975, 29.63941]}},
{"type": "Feature", "id": "R7nkOrM0xUKGfOet8LnHZK-xVfc=", "properties": {"ref": "334985599", "@spider": "clinical_pathology_laboratories", "addr:full": "7711 Louis Pastuer Suite 506", "addr:city": "San Antonio", "addr:state": "TX", "addr:postcode": "78229", "addr:country": "US", "name": "San Antonio - Oak Hills Bldg.", "website": "na", "brand": "Clinical Pathology Laboratories", "brand:wikidata": "Q91911320"}, "geometry": {"type": "Point", "coordinates": [-98.571719, 29.508413]}},
{"type": "Feature", "id": "QWbr9cFSOi5S3-yIiAGTwju2xP0=", "properties": {"ref": "334985600", "@spider": "clinical_pathology_laboratories", "addr:full": "13725 Northwest Boulevard Suite 10", "addr:city": "Corpus Christi", "addr:state": "TX", "addr:postcode": "78410", "addr:country": "US", "name": "Calallen", "website": "na", "brand": "Clinical Pathology Laboratories", "brand:wikidata": "Q91911320"}, "geometry": {"type": "Point", "coordinates": [-97.635864, 27.855149]}},
{"type": "Feature", "id": "hKR1vGFcWLF-P53cyjPCKiMM63M=", "properties": {"ref": "334985601", "@spider": "clinical_pathology_laboratories", "addr:full": "4224 N. Mesa Suite B", "addr:city": "El Paso", "addr:state": "TX", "addr:postcode": "79902", "addr:country": "US", "name": "El Paso - Central", "website": "na", "brand": "Clinical Pathology Laboratories", "brand:wikidata": "Q91911320"}, "geometry": {"type": "Point", "coordinates": [-106.51052, 31.796174]}},
{"type": "Feature", "id": "gOEYHOCDq8--6U2gXNeZjdcsfuk=", "properties": {"ref": "334985602", "@spider": "clinical_pathology_laboratories", "addr:full": "1905 Dove Crossing Lane, Suite C", "addr:city": "Navasota", "addr:state": "TX", "addr:postcode": "77868", "addr:country": "US", "name": "Navasota", "website": "na", "brand": "Clinical Pathology Laboratories", "brand:wikidata": "Q91911320"}, "geometry": {"type": "Point", "coordinates": [-96.066932, 30.388068]}},
{"type": "Feature", "id": "pIb7O3wJZohvCxFHhoa8fpqgLwo=", "properties": {"ref": "334985603", "@spider": "clinical_pathology_laboratories", "addr:full": "1303 McCullough #538", "addr:city": "San Antonio", "addr:state": "TX", "addr:postcode": "78212", "addr:country": "US", "name": "San Antonio - Metropolitan", "website": "na", "brand": "Clinical Pathology Laboratories", "brand:wikidata": "Q91911320"}, "geometry": {"type": "Point", "coordinates": [-98.493911, 29.434659]}},
{"type": "Feature", "id": "bdh4CdZmWcISv6p7Mzuj11SZ5so=", "properties": {"ref": "334985604", "@spider": "clinical_pathology_laboratories", "addr:full": "13650 Eastlake Suite A107", "addr:city": "El Paso", "addr:state": "TX", "addr:postcode": "79928", "addr:country": "US", "name": "El Paso - Horizon", "website": "na", "brand": "Clinical Pathology Laboratories", "brand:wikidata": "Q91911320"}, "geometry": {"type": "Point", "coordinates": [-106.214296, 31.698405]}},
{"type": "Feature", "id": "R-l9d0vaQWQgqB3sodT1VTAJ-AY=", "properties": {"ref": "334985605", "@spider": "clinical_pathology_laboratories", "addr:full": "8736 Medical City Way", "addr:city": "Ft Worth", "addr:state": "TX", "addr:postcode": "76248", "addr:country": "US", "name": "Ft. Worth - North Tarrant Parkway", "website": "na", "brand": "Clinical Pathology Laboratories", "brand:wikidata": "Q91911320"}, "geometry": {"type": "Point", "coordinates": [-97.313898, 32.897557]}},
{"type": "Feature", "id": "1w1UkgYXWy4VBsO2wqh7X-4ha0g=", "properties": {"ref": "334985606", "@spider": "clinical_pathology_laboratories", "addr:full": "2301 S. Hampton Road Suite 150", "addr:city": "Dallas", "addr:state": "TX", "addr:postcode": "75224", "addr:country": "US", "name": "Dallas - Hampton PSC", "website": "na", "brand": "Clinical Pathology Laboratories", "brand:wikidata": "Q91911320"}, "geometry": {"type": "Point", "coordinates": [-96.857933, 32.722525]}},
{"type": "Feature", "id": "EirRF-dxeWsi2Ew0oXSJgQ5u4eQ=", "properties": {"ref": "334985607", "@spider": "clinical_pathology_laboratories", "addr:full": "2503 US-281 #300", "addr:city": "Marble Falls", "addr:state": "TX", "addr:postcode": "78654", "addr:country": "US", "name": "Marble Falls", "website": "na", "brand": "Clinical Pathology Laboratories", "brand:wikidata": "Q91911320"}, "geometry": {"type": "Point", "coordinates": [-98.270407, 30.59583]}},
{"type": "Feature", "id": "cDGRmEiKgm2Ap4DKSGxC459ZugE=", "properties": {"ref": "334985608", "@spider": "clinical_pathology_laboratories", "addr:full": "7200 Wyoming Springs Road Suite 900", "addr:city": "Round Rock", "addr:state": "TX", "addr:postcode": "78681", "addr:country": "US", "name": "Round Rock - Wyoming Springs Medical Bldg.", "website": "na", "brand": "Clinical Pathology Laboratories", "brand:wikidata": "Q91911320"}, "geometry": {"type": "Point", "coordinates": [-97.716985, 30.513022]}},
{"type": "Feature", "id": "icfKSp9Q5zDco_N3FeoB9D67UYE=", "properties": {"ref": "334985609", "@spider": "clinical_pathology_laboratories", "addr:full": "925 E. Southlake Blvd #110", "addr:city": "Southlake", "addr:state": "TX", "addr:postcode": "76092", "addr:country": "US", "name": "Southlake PSC", "website": "na", "brand": "Clinical Pathology Laboratories", "brand:wikidata": "Q91911320"}, "geometry": {"type": "Point", "coordinates": [-97.1372, 32.939091]}},
{"type": "Feature", "id": "vYdYKW72kcNTYPLJ9SkWvbKtQ0o=", "properties": {"ref": "334985610", "@spider": "clinical_pathology_laboratories", "addr:full": "3010 Williams Drive Suite 222", "addr:city": "Georgetown", "addr:state": "TX", "addr:postcode": "78628", "addr:country": "US", "name": "Georgetown - Williams Dr", "website": "na", "brand": "Clinical Pathology Laboratories", "brand:wikidata": "Q91911320"}, "geometry": {"type": "Point", "coordinates": [-97.692933, 30.6627]}},
{"type": "Feature", "id": "RN6BnuOQjLAqPwDcoQK0gsT79Dw=", "properties": {"ref": "334985611", "@spider": "clinical_pathology_laboratories", "addr:full": "3330 N.W. 56th Street Suite 104", "addr:city": "Oklahoma City", "addr:state": "OK", "addr:postcode": "73112", "addr:country": "US", "name": "N.W. Medical Center", "website": "na", "brand": "Clinical Pathology Laboratories", "brand:wikidata": "Q91911320"}, "geometry": {"type": "Point", "coordinates": [-97.575744, 35.527049]}},
{"type": "Feature", "id": "t3mhHGcJ01x6XpmKVOdrnyjXX68=", "properties": {"ref": "334985612", "@spider": "clinical_pathology_laboratories", "addr:full": "3201 South Austin Avenue Ste 120", "addr:city": "Georgetown", "addr:state": "TX", "addr:postcode": "78626", "addr:country": "US", "name": "Georgetown - S. Austin Ave", "website": "na", "brand": "Clinical Pathology Laboratories", "brand:wikidata": "Q91911320"}, "geometry": {"type": "Point", "coordinates": [-97.681159, 30.61408]}},
{"type": "Feature", "id": "PnjJGTBlG27z7-4FNMmYDJ7Jkyw=", "properties": {"ref": "334985613", "@spider": "clinical_pathology_laboratories", "addr:full": "221 W Potts St", "addr:city": "Falfurrias", "addr:state": "TX", "addr:postcode": "78355", "addr:country": "US", "name": "Falfurrias PSC", "website": "na", "brand": "Clinical Pathology Laboratories", "brand:wikidata": "Q91911320"}, "geometry": {"type": "Point", "coordinates": [-98.147491, 27.21509]}},
{"type": "Feature", "id": "b6UilFB4gVFArPfLfusrPocopNA=", "properties": {"ref": "334985614", "@spider": "clinical_pathology_laboratories", "addr:full": "1401 Medical Parkway Building C Suite 260", "addr:city": "Cedar Park", "addr:state": "TX", "addr:postcode": "78613", "addr:country": "US", "name": "Cedar Park - Medical Parkway", "website": "na", "brand": "Clinical Pathology Laboratories", "brand:wikidata": "Q91911320"}, "geometry": {"type": "Point", "coordinates": [-97.810327, 30.531627]}},
{"type": "Feature", "id": "QvBLHkTgFhlY4cNrxLnsAzAEOJM=", "properties": {"ref": "334985615", "@spider": "clinical_pathology_laboratories", "addr:full": "1713 Treasure Hills Boulevard Suite 1-A", "addr:city": "Harlingen", "addr:state": "TX", "addr:postcode": "78550", "addr:country": "US", "name": "Harlingen - Treasure Hills", "website": "na", "brand": "Clinical Pathology Laboratories", "brand:wikidata": "Q91911320"}, "geometry": {"type": "Point", "coordinates": [-97.669403, 26.171896]}},
{"type": "Feature", "id": "HOpOLvLf6meurxaeYSJ4es0nEk4=", "properties": {"ref": "334985616", "@spider": "clinical_pathology_laboratories", "addr:full": "1700 Lindberg Drive", "addr:city": "Slidell", "addr:state": "LA", "addr:postcode": "70458", "addr:country": "US", "name": "Southern Surgical Center", "website": "na", "brand": "Clinical Pathology Laboratories", "brand:wikidata": "Q91911320"}, "geometry": {"type": "Point", "coordinates": [-89.755695, 30.273324]}},
{"type": "Feature", "id": "PtaLY7jF_MFar0ghP0otT8Kbu5U=", "properties": {"ref": "334985617", "@spider": "clinical_pathology_laboratories", "addr:full": "7300 Eldorado Pkwy. Suite 115", "addr:city": "McKinney", "addr:state": "TX", "addr:postcode": "75070", "addr:country": "US", "name": "McKinney - McKinney Medical Village", "website": "na", "brand": "Clinical Pathology Laboratories", "brand:wikidata": "Q91911320"}, "geometry": {"type": "Point", "coordinates": [-96.713613, 33.17533]}},
{"type": "Feature", "id": "pdziXzsHNkn08QYQn9Iyv7BCRJA=", "properties": {"ref": "334985618", "@spider": "clinical_pathology_laboratories", "addr:full": "12924 Bellaire Suite 100", "addr:city": "Houston", "addr:state": "TX", "addr:postcode": "77072", "addr:country": "US", "name": "Alief", "website": "na", "brand": "Clinical Pathology Laboratories", "brand:wikidata": "Q91911320"}, "geometry": {"type": "Point", "coordinates": [-95.6106, 29.703863]}},
{"type": "Feature", "id": "dupL2Whw5xRsGho3sIRRR5rBFZ8=", "properties": {"ref": "334985619", "@spider": "clinical_pathology_laboratories", "addr:full": "1101 S. College Road Suite #410", "addr:city": "Lafayette", "addr:state": "LA", "addr:postcode": "70503", "addr:country": "US", "name": "Lafayette", "website": "na", "brand": "Clinical Pathology Laboratories", "brand:wikidata": "Q91911320"}, "geometry": {"type": "Point", "coordinates": [-92.029183, 30.201879]}},
{"type": "Feature", "id": "Gxqg-tSfA2HztOqki6o7iUUJCpM=", "properties": {"ref": "334985620", "@spider": "clinical_pathology_laboratories", "addr:full": "3901 Houma Boulevard Suite 105", "addr:city": "Metairie", "addr:state": "LA", "addr:postcode": "70006", "addr:country": "US", "name": "Metairie", "website": "na", "brand": "Clinical Pathology Laboratories", "brand:wikidata": "Q91911320"}, "geometry": {"type": "Point", "coordinates": [-90.18001, 30.011053]}},
{"type": "Feature", "id": "_tQqqCBdBRT8wXUWtnYZXpXlGaw=", "properties": {"ref": "334985621", "@spider": "clinical_pathology_laboratories", "addr:full": "1023 N. Mound Street", "addr:city": "Nacogdoches", "addr:state": "TX", "addr:postcode": "75961", "addr:country": "US", "name": "Nacogdoches Mound", "website": "na", "brand": "Clinical Pathology Laboratories", "brand:wikidata": "Q91911320"}, "geometry": {"type": "Point", "coordinates": [-94.650014, 31.611947]}},
{"type": "Feature", "id": "Adq_l5bZqToWRvtSJNCHq8cw0To=", "properties": {"ref": "334985623", "@spider": "clinical_pathology_laboratories", "addr:full": "1029 Keyser Ave", "addr:city": "Natchitoches", "addr:state": "LA", "addr:postcode": "71457", "addr:country": "US", "name": "Natchitoches", "website": "na", "brand": "Clinical Pathology Laboratories", "brand:wikidata": "Q91911320"}, "geometry": {"type": "Point", "coordinates": [-93.060594, 31.75185]}},
{"type": "Feature", "id": "eIvf-ccpXLvq4iFz1ztk2GpuQ04=", "properties": {"ref": "334985624", "@spider": "clinical_pathology_laboratories", "addr:full": "300 N Rufe Snow Dr.", "addr:city": "Keller", "addr:state": "TX", "addr:postcode": "76248", "addr:country": "US", "name": "Keller PSC", "website": "na", "brand": "Clinical Pathology Laboratories", "brand:wikidata": "Q91911320"}, "geometry": {"type": "Point", "coordinates": [-97.229808, 32.937443]}},
{"type": "Feature", "id": "tnWeDfXWi7PaewRLxz4Jz36O354=", "properties": {"ref": "334985625", "@spider": "clinical_pathology_laboratories", "addr:full": "4412 Kell West Blvd.", "addr:city": "Wichita Falls", "addr:state": "Tx", "addr:postcode": "76309", "addr:country": "US", "name": "Kell West PSC", "website": "na", "brand": "Clinical Pathology Laboratories", "brand:wikidata": "Q91911320"}, "geometry": {"type": "Point", "coordinates": [-98.55605, 33.877459]}},
{"type": "Feature", "id": "F72IS91gNxwwgcyJ4jirBbf-3Og=", "properties": {"ref": "334985626", "@spider": "clinical_pathology_laboratories", "addr:full": "210 Lake Road Suite 1000", "addr:city": "Lake Jackson", "addr:state": "TX", "addr:postcode": "77566", "addr:country": "US", "name": "Lake Jackson PSC", "website": "na", "brand": "Clinical Pathology Laboratories", "brand:wikidata": "Q91911320"}, "geometry": {"type": "Point", "coordinates": [-95.461056, 29.040957]}},
{"type": "Feature", "id": "tHUlWIpOyUaSYPgXuI2pgN8s8oo=", "properties": {"ref": "334985627", "@spider": "clinical_pathology_laboratories", "addr:full": "4151 Jaime Zapata Memorial Hwy Suite 204", "addr:city": "Laredo", "addr:state": "TX", "addr:postcode": "78045", "addr:country": "US", "name": "Laredo South PSC", "website": "na", "brand": "Clinical Pathology Laboratories", "brand:wikidata": "Q91911320"}, "geometry": {"type": "Point", "coordinates": [-99.451771, 27.49383]}},
{"type": "Feature", "id": "dKSDWRm6nwGM6Z1TOOt-kLIERQY=", "properties": {"ref": "334985628", "@spider": "clinical_pathology_laboratories", "addr:full": "328 W. Main St. ste 203", "addr:city": "Lewisville", "addr:state": "TX", "addr:postcode": "75057", "addr:country": "US", "name": "Lewisville PSC", "website": "na", "brand": "Clinical Pathology Laboratories", "brand:wikidata": "Q91911320"}, "geometry": {"type": "Point", "coordinates": [-96.999199, 33.045659]}},
{"type": "Feature", "id": "UPTezhkhi6q2HoBf_Klm1CvZMsw=", "properties": {"ref": "334985629", "@spider": "clinical_pathology_laboratories", "addr:full": "112 Homer Road", "addr:city": "Minden", "addr:state": "LA", "addr:postcode": "71055", "addr:country": "US", "name": "Minden PSC", "website": "na", "brand": "Clinical Pathology Laboratories", "brand:wikidata": "Q91911320"}, "geometry": {"type": "Point", "coordinates": [-93.279435, 32.620842]}},
{"type": "Feature", "id": "0MAiL7QoVhkDf9X_tkzbaoK_RtY=", "properties": {"ref": "334985630", "@spider": "clinical_pathology_laboratories", "addr:full": "300 South 6th Street", "addr:city": "Monroe", "addr:state": "LA", "addr:postcode": "71201", "addr:country": "US", "name": "Monroe PSC", "website": "na", "brand": "Clinical Pathology Laboratories", "brand:wikidata": "Q91911320"}, "geometry": {"type": "Point", "coordinates": [-92.111639, 32.502595]}},
{"type": "Feature", "id": "AEme3Q1WLzQNuYlCe1fPb6SfRD0=", "properties": {"ref": "334985631", "@spider": "clinical_pathology_laboratories", "addr:full": "2430 N. Decatur Blvd", "addr:city": "Las Vegas", "addr:state": "NV", "addr:postcode": "89107", "addr:country": "US", "name": "North Decatur PSC", "website": "na", "brand": "Clinical Pathology Laboratories", "brand:wikidata": "Q91911320"}, "geometry": {"type": "Point", "coordinates": [-115.204756, 36.203947]}},
{"type": "Feature", "id": "1yvBly9ZQG6vxNz0geICBRV1FzU=", "properties": {"ref": "334985632", "@spider": "clinical_pathology_laboratories", "addr:full": "2967 Oak Run Parkway Suite 102", "addr:city": "New Braunfels", "addr:state": "TX", "addr:postcode": "78130", "addr:country": "US", "name": "Oak Run", "website": "na", "brand": "Clinical Pathology Laboratories", "brand:wikidata": "Q91911320"}, "geometry": {"type": "Point", "coordinates": [-98.167061, 29.714822]}},
{"type": "Feature", "id": "CRw2dw4jHLCrc-IanDesk-u0094=", "properties": {"ref": "334985633", "@spider": "clinical_pathology_laboratories", "addr:full": "7399 HWY 44#A", "addr:city": "GONZALES", "addr:state": "LA", "addr:postcode": "70737", "addr:country": "US", "name": "PELICAN PSC", "website": "na", "brand": "Clinical Pathology Laboratories", "brand:wikidata": "Q91911320"}, "geometry": {"type": "Point", "coordinates": [-90.92016, 30.178108]}},
{"type": "Feature", "id": "QT8sPGcYjdhF4LcYVdxyiSr-60E=", "properties": {"ref": "334985634", "@spider": "clinical_pathology_laboratories", "addr:full": "4488 N. Shallowford Rd, #220", "addr:city": "Atlanta", "addr:state": "GA", "addr:postcode": "30338", "addr:country": "US", "name": "Perimeter PSC", "website": "na", "brand": "Clinical Pathology Laboratories", "brand:wikidata": "Q91911320"}, "geometry": {"type": "Point", "coordinates": [-84.306741, 33.923982]}},
{"type": "Feature", "id": "PlLKONXrNrRxpd6yG7sUskPn4CE=", "properties": {"ref": "334985635", "@spider": "clinical_pathology_laboratories", "addr:full": "4815 S Harvard , Suite 128", "addr:city": "Tulsa", "addr:state": "OK", "addr:postcode": "74135", "addr:country": "US", "name": "PSC TULSA HARVARD", "website": "na", "brand": "Clinical Pathology Laboratories", "brand:wikidata": "Q91911320"}, "geometry": {"type": "Point", "coordinates": [-95.939428, 36.092243]}},
{"type": "Feature", "id": "_SwUaU6GwrGJ3xfShipNW6rXPnI=", "properties": {"ref": "334985636", "@spider": "clinical_pathology_laboratories", "addr:full": "5131 O'DONOVAN DR.  First Floor", "addr:city": "BATON ROUGE", "addr:state": "LA", "addr:postcode": "70808", "addr:country": "US", "name": "RENAL ASSOCIATES", "website": "na", "brand": "Clinical Pathology Laboratories", "brand:wikidata": "Q91911320"}, "geometry": {"type": "Point", "coordinates": [-91.112146, 30.403953]}},
{"type": "Feature", "id": "SXoUj3ZWyCXGROmObshtbcIXnT8=", "properties": {"ref": "334985637", "@spider": "clinical_pathology_laboratories", "addr:full": "1001 Little Oak Way, Suite 200", "addr:city": "Round Rock", "addr:state": "TX", "addr:postcode": "78661", "addr:country": "US", "name": "Round Rock - Treehouse (Temporarily Closed)", "website": "na", "brand": "Clinical Pathology Laboratories", "brand:wikidata": "Q91911320"}, "geometry": {"type": "Point", "coordinates": [-97.723806, 30.495063]}},
{"type": "Feature", "id": "r3Y7Q3l8w0vZKCUncaD9IEL9-Oo=", "properties": {"ref": "334985638", "@spider": "clinical_pathology_laboratories", "addr:full": "7700 Lakeview Parkway 400A", "addr:city": "Rowlett", "addr:state": "TX", "addr:postcode": "75088", "addr:country": "US", "name": "Rowlett PSC", "website": "na", "brand": "Clinical Pathology Laboratories", "brand:wikidata": "Q91911320"}, "geometry": {"type": "Point", "coordinates": [-96.508938, 32.920677]}},
{"type": "Feature", "id": "cC2ATqPVIRFnqYDNxBeHoNH_b1g=", "properties": {"ref": "334985639", "@spider": "clinical_pathology_laboratories", "addr:full": "1211 North Shartel, Suite 605", "addr:city": "Oklahoma City", "addr:state": "OK", "addr:postcode": "73103", "addr:country": "US", "name": "Shartel", "website": "na", "brand": "Clinical Pathology Laboratories", "brand:wikidata": "Q91911320"}, "geometry": {"type": "Point", "coordinates": [-97.526057, 35.480356]}},
{"type": "Feature", "id": "usgLuAgTL0E1JRBg_Z2_KLIU-i0=", "properties": {"ref": "334985640", "@spider": "clinical_pathology_laboratories", "addr:full": "2273 Arkansas Road", "addr:city": "West Monroe", "addr:state": "LA", "addr:postcode": "71291", "addr:country": "US", "name": "West Monroe PSC", "website": "na", "brand": "Clinical Pathology Laboratories", "brand:wikidata": "Q91911320"}, "geometry": {"type": "Point", "coordinates": [-92.183464, 32.534484]}},
{"type": "Feature", "id": "Xmir6zrCJCer311jZzXSLewtHd8=", "properties": {"ref": "334985641", "@spider": "clinical_pathology_laboratories", "addr:full": "10010 Westover Hills Blvd #140", "addr:city": "San Antonio", "addr:state": "TX", "addr:postcode": "78251", "addr:country": "US", "name": "Westover Blvd PSC", "website": "na", "brand": "Clinical Pathology Laboratories", "brand:wikidata": "Q91911320"}, "geometry": {"type": "Point", "coordinates": [-98.688727, 29.464098]}},
{"type": "Feature", "id": "WAaKmQwFmHovnnS4fWU_7ixjtM8=", "properties": {"ref": "334985642", "@spider": "clinical_pathology_laboratories", "addr:full": "20040 PLANK RD", "addr:city": "ZACHARY", "addr:state": "LA", "addr:postcode": "70791", "addr:country": "US", "name": "Zachary PSC- located in Hart Primary Care", "website": "na", "brand": "Clinical Pathology Laboratories", "brand:wikidata": "Q91911320"}, "geometry": {"type": "Point", "coordinates": [-91.10552, 30.647518]}},
{"type": "Feature", "id": "iI69oWsiaQ7eZMQjvZTJyAiVXak=", "properties": {"ref": "335587605", "@spider": "clinical_pathology_laboratories", "addr:full": "2502 Crockett Dr #A", "addr:city": "Brownwood", "addr:state": "TX", "addr:postcode": "76801", "addr:country": "US", "name": "Brownwood IOP", "website": "na", "brand": "Clinical Pathology Laboratories", "brand:wikidata": "Q91911320"}, "geometry": {"type": "Point", "coordinates": [-98.993944, 31.681224]}},
{"type": "Feature", "id": "3tCZxZOc3Vn0Bp2er2kjRffsRUE=", "properties": {"ref": "337930897", "@spider": "clinical_pathology_laboratories", "addr:full": "1212 Coit Road Suite 112", "addr:city": "Plano", "addr:state": "TX", "addr:postcode": "75075", "addr:country": "US", "name": "Plano- Coit PSC", "website": "na", "brand": "Clinical Pathology Laboratories", "brand:wikidata": "Q91911320"}, "geometry": {"type": "Point", "coordinates": [-96.765819, 33.016592]}},
{"type": "Feature", "id": "m6OOO_kBTBfF1i1x7_1aG1lctnE=", "properties": {"ref": "337930898", "@spider": "clinical_pathology_laboratories", "addr:full": "5655 W. Spring Creek Parkway Suite 145", "addr:city": "Plano", "addr:state": "TX", "addr:postcode": "75024", "addr:country": "US", "name": "West Plano Medical Village", "website": "na", "brand": "Clinical Pathology Laboratories", "brand:wikidata": "Q91911320"}, "geometry": {"type": "Point", "coordinates": [-96.811241, 33.063076]}},
{"type": "Feature", "id": "xEzKvt8tg5QQ78iNKeQcFhmjfH8=", "properties": {"ref": "340857736", "@spider": "clinical_pathology_laboratories", "addr:full": "7500 Fannin Suite 250", "addr:city": "Houston", "addr:state": "TX", "addr:postcode": "77054", "addr:country": "US", "name": "7500 Fannin PSC", "website": "na", "brand": "Clinical Pathology Laboratories", "brand:wikidata": "Q91911320"}, "geometry": {"type": "Point", "coordinates": [-95.400714, 29.694053]}},
{"type": "Feature", "id": "2Wfgp-e58GXoSXl-VlcEVJP7DoY=", "properties": {"ref": "341875720", "@spider": "clinical_pathology_laboratories", "addr:full": "561 Medical Center Blvd.", "addr:city": "Webster", "addr:postcode": "77598", "addr:country": "US", "name": "Webster PSC", "website": "na", "brand": "Clinical Pathology Laboratories", "brand:wikidata": "Q91911320"}, "geometry": {"type": "Point", "coordinates": [-95.127612, 29.538997]}},
{"type": "Feature", "id": "rMX2ShHrJzWkiEcDhcO0eO1udUI=", "properties": {"ref": "345224867", "@spider": "clinical_pathology_laboratories", "addr:full": "720 E Lee Ave", "addr:city": "Kingsville", "addr:postcode": "78363", "addr:country": "US", "name": "Kingsville PSC", "website": "na", "brand": "Clinical Pathology Laboratories", "brand:wikidata": "Q91911320"}, "geometry": {"type": "Point", "coordinates": [-97.859592, 27.519967]}},
{"type": "Feature", "id": "6TjvNVv7d378-dkx24Y2M8XsA6k=", "properties": {"ref": "346119138", "@spider": "clinical_pathology_laboratories", "addr:full": "56 Louis Prima Dr", "addr:city": "Covington", "addr:postcode": "70433", "addr:country": "US", "name": "Covington Patient Service Center", "website": "na", "brand": "Clinical Pathology Laboratories", "brand:wikidata": "Q91911320"}, "geometry": {"type": "Point", "coordinates": [-90.079896, 30.438754]}},
{"type": "Feature", "id": "eQBwC6pAuplrKL-Ty0WBDV5gN28=", "properties": {"ref": "346388614", "@spider": "clinical_pathology_laboratories", "addr:full": "32665 N US Hwy 281", "addr:city": "Bulverde", "addr:state": "TX", "addr:postcode": "78163", "addr:country": "US", "name": "Bulverde PSC", "website": "na", "brand": "Clinical Pathology Laboratories", "brand:wikidata": "Q91911320"}, "geometry": {"type": "Point", "coordinates": [-98.427633, 29.777289]}}]}