{"type":"FeatureCollection","features":[{"type": "Feature", "id": "pl_gcFkROcAlmWsZZMx4U2McNgc=", "properties": {"ref": "peters-township", "@spider": "coen_markets", "addr:full": "3841 Washington Road", "addr:city": "McMurray", "addr:state": "PA", "addr:postcode": "15317", "name": "Coen", "phone": "724-260-0547", "opening_hours": "MON-SUN: 5AM - 9PM", "brand": "Coen Markets"}, "geometry": {"type": "Point", "coordinates": [-80.126109, 40.273909]}},
{"type": "Feature", "id": "SMXFxxAF14m7_5Bet5baUyZ7dY0=", "properties": {"ref": "overbrook", "@spider": "coen_markets", "addr:full": "1709 SAW MILL RUN BLVD PITTSBURGH", "addr:city": "Overbrook", "addr:state": "PA", "addr:postcode": "15210", "name": "Coen", "phone": "412-881-1145", "opening_hours": "MON-SUN: 5AM - 11PM", "brand": "Coen Markets"}, "geometry": {"type": "Point", "coordinates": [-79.997328, 40.395926]}},
{"type": "Feature", "id": "0YWN0ftMAUbvVdNcoD1iqYt-Mj4=", "properties": {"ref": "norvelt-cafe-store", "@spider": "coen_markets", "addr:full": "2400 Mt. Pleasant Road", "addr:city": "Norvelt", "addr:state": "PA", "addr:postcode": "15674", "name": "Coen", "phone": "724-343-3074", "opening_hours": "MON-SUN: 5AM - 10PM", "brand": "Coen Markets"}, "geometry": {"type": "Point", "coordinates": [-79.49759, 40.202371]}},
{"type": "Feature", "id": "qm95jmeDemu2w63okn3Bnn4wc4g=", "properties": {"ref": "new-martinsville-sunoco", "@spider": "coen_markets", "addr:full": "645 Third Street", "addr:city": "New Martinsville", "addr:state": "WV", "addr:postcode": "26155", "name": "Coen", "phone": "304-455-3389", "opening_hours": "MON-SUN: 5AM - 10PM", "brand": "Coen Markets"}, "geometry": {"type": "Point", "coordinates": [-80.857605, 39.64708]}},
{"type": "Feature", "id": "YOThz6Dn-yuSdlWlAdV2s1CayQw=", "properties": {"ref": "murtland", "@spider": "coen_markets", "addr:full": "100 Murtland Avenue", "addr:city": "Washington", "addr:state": "PA", "addr:postcode": "15301", "name": "Coen", "phone": "724-228-1054", "opening_hours": "MON-SUN: 5AM - 9PM", "brand": "Coen Markets"}, "geometry": {"type": "Point", "coordinates": [-80.234967, 40.180365]}},
{"type": "Feature", "id": "nI9ZE0bAOJqOWwbhw0vBpr29bh4=", "properties": {"ref": "mt-washington-bailey-ave", "@spider": "coen_markets", "addr:full": "20 BAILEY AVENUE PITTSBURGH", "addr:city": "Mt. Washington Bailey Ave", "addr:state": "PA", "addr:postcode": "15211", "name": "Coen", "phone": "412-431-6722", "opening_hours": "MON-SUN: 5AM - 11PM", "brand": "Coen Markets"}, "geometry": {"type": "Point", "coordinates": [-80.005436, 40.426793]}},
{"type": "Feature", "id": "uR1KaWYPQET2dE45MUwS21fy1gE=", "properties": {"ref": "mt-washington-virginia-ave", "@spider": "coen_markets", "addr:full": "304 VIRGINIA AVE PITTSBURGH,", "addr:city": "Mt Washington Virginia Ave", "addr:state": "PA", "addr:postcode": "15211", "name": "Coen", "phone": "412-224-2182", "opening_hours": "MON-SUN: 5AM - 10PM", "brand": "Coen Markets"}, "geometry": {"type": "Point", "coordinates": [-80.010755, 40.431423]}},
{"type": "Feature", "id": "TGVsCn_otY27F5c-eBSdYMlxyJE=", "properties": {"ref": "moundsville", "@spider": "coen_markets", "addr:full": "901 LaFayette Avenue", "addr:city": "Moundsville", "addr:state": "WV", "addr:postcode": "26041", "name": "Coen", "phone": "304-845-4287", "opening_hours": "MON-SUN: 4:00am to 11:00pm", "brand": "Coen Markets"}, "geometry": {"type": "Point", "coordinates": [-80.747503, 39.916816]}},
{"type": "Feature", "id": "X7r6q_GHyBKtdqhcSHkiJTtodTs=", "properties": {"ref": "monaca", "@spider": "coen_markets", "addr:full": "1400 PENNSYLVANIA AVE", "addr:city": "MONACA", "addr:state": "PA", "addr:postcode": "15061", "name": "Coen", "phone": "724-709-8612", "opening_hours": "MON-SUN: 5AM - 11PM", "brand": "Coen Markets"}, "geometry": {"type": "Point", "coordinates": [-80.274992, 40.688769]}},
{"type": "Feature", "id": "LGsCraXkkUNvYbo4ymPvNtK6qFE=", "properties": {"ref": "midland", "@spider": "coen_markets", "addr:full": "1030 MIDLAND AVE", "addr:city": "MIDLAND", "addr:state": "PA", "addr:postcode": "15059", "name": "Coen", "phone": "724-643-5161", "opening_hours": "MON-SUN: 4AM - 10PM", "brand": "Coen Markets"}, "geometry": {"type": "Point", "coordinates": [-80.449459, 40.634126]}},
{"type": "Feature", "id": "oi8C50ya-72uNH93TvzHD39PXkQ=", "properties": {"ref": "manor", "@spider": "coen_markets", "addr:full": "82 MAIN STREET PO Box 614", "addr:city": "MANOR", "addr:state": "PA", "addr:postcode": "15665", "name": "Coen", "phone": "724-863-4298", "opening_hours": "MON-SUN: 5AM - 10PM", "brand": "Coen Markets"}, "geometry": {"type": "Point", "coordinates": [-79.670479, 40.333266]}},
{"type": "Feature", "id": "Ua77_GLOn9ei_8QVWrFTH_VdIrU=", "properties": {"ref": "level-green", "@spider": "coen_markets", "addr:full": "561 ST ROUTE 130", "addr:city": "LEVEL GREEN", "addr:state": "PA", "addr:postcode": "15085", "name": "Coen", "phone": "724-947-3669", "opening_hours": "MON-SUN: 5AM - 9PM", "brand": "Coen Markets"}, "geometry": {"type": "Point", "coordinates": [-79.764874, 40.387483]}},
{"type": "Feature", "id": "lmTnd7c0diS0Wfs6_k7mL9B8jwI=", "properties": {"ref": "jefferson-avenue", "@spider": "coen_markets", "addr:full": "1300 Jefferson Avenue", "addr:city": "Washington", "addr:state": "PA", "addr:postcode": "15301", "name": "Coen", "phone": "724-228-6550", "opening_hours": "MON-SUN: 5AM - 10PM", "brand": "Coen Markets"}, "geometry": {"type": "Point", "coordinates": [-80.267655, 40.186695]}},
{"type": "Feature", "id": "xmEu2X_ZegOzmbiY5To8IW0x7Ng=", "properties": {"ref": "imperial", "@spider": "coen_markets", "addr:full": "500 Market Place Dr", "addr:city": "oakdale", "addr:state": "pa", "addr:postcode": "15071", "name": "Coen", "phone": "412-254-4944", "opening_hours": "HOURS: 5:00AM - 11:00PM", "brand": "Coen Markets"}, "geometry": {"type": "Point", "coordinates": [-80.23949240965442, 40.44004276861253]}},
{"type": "Feature", "id": "vtIGLVE3K0ViNNFuXSnha2Fa2Io=", "properties": {"ref": "i-79", "@spider": "coen_markets", "addr:full": "2229 Houston Hill Church Road", "addr:city": "Canonsburg", "addr:state": "PA", "addr:postcode": "15317", "name": "Coen", "phone": "724-746-3735", "opening_hours": "MON-SUN: 5AM - 9PM", "brand": "Coen Markets"}, "geometry": {"type": "Point", "coordinates": [-80.197788, 40.244636]}},
{"type": "Feature", "id": "QHSXdIFS4ZsOfMOxX2ZsJZgD0rc=", "properties": {"ref": "hopewell", "@spider": "coen_markets", "addr:full": "4071 RAYSTOWN RD.", "addr:city": "HOPEWELL", "addr:state": "PA", "addr:postcode": "16650", "name": "Coen", "phone": "412-293-1094", "opening_hours": "MON-SUN: 5AM - 10PM", "brand": "Coen Markets"}, "geometry": {"type": "Point", "coordinates": [-78.341794, 40.137044]}},
{"type": "Feature", "id": "tymXOfxTP3p4bzzT7NJvzDioluY=", "properties": {"ref": "wintersville", "@spider": "coen_markets", "addr:full": "620 Main Street", "addr:city": "Wintersville", "addr:state": "OH", "addr:postcode": "43953", "name": "Coen", "phone": "740-266-2243", "opening_hours": "MON-SUN: 5AM - 11PM", "brand": "Coen Markets"}, "geometry": {"type": "Point", "coordinates": [-80.698157, 40.374065]}},
{"type": "Feature", "id": "mkKxSMBEOsaSfsxZ-5U8LuS71og=", "properties": {"ref": "west-homestead", "@spider": "coen_markets", "addr:full": "3439 W RUN RD HOMESTEAD", "addr:city": "West Homestead", "addr:state": "PA", "addr:postcode": "15120", "name": "Coen", "phone": "412-461-4628", "opening_hours": "Mon-Sun: 5AM - 10PM", "brand": "Coen Markets"}, "geometry": {"type": "Point", "coordinates": [-79.909171, 40.388237]}},
{"type": "Feature", "id": "x1K-8aJPlN5-a_Fgz6gO2Ukv5sE=", "properties": {"ref": "west-chestnut-exxon", "@spider": "coen_markets", "addr:full": "1297 West Chestnut Street", "addr:city": "Washington", "addr:state": "PA", "addr:postcode": "15301", "name": "Coen", "phone": "724-229-2896", "opening_hours": "MON-SUN: 5AM - 11PM", "brand": "Coen Markets"}, "geometry": {"type": "Point", "coordinates": [-80.272507, 40.165595]}},
{"type": "Feature", "id": "FJ6tEatZIGT5HplhzQBtiHYZcpo=", "properties": {"ref": "weirton", "@spider": "coen_markets", "addr:full": "128 American Way", "addr:city": " Weirton", "addr:state": "WV", "addr:postcode": "26062", "name": "Coen", "phone": "304-224-1903", "opening_hours": "MON-SUN: 5AM - 11PM", "brand": "Coen Markets"}, "geometry": {"type": "Point", "coordinates": [-80.529181, 40.395834]}},
{"type": "Feature", "id": "39H128B0v1e8gto7DXL8y1LHwss=", "properties": {"ref": "waynesburg", "@spider": "coen_markets", "addr:full": "331 East Roy Furman Highway", "addr:city": "Waynesburg", "addr:state": "PA", "addr:postcode": "15370", "name": "Coen", "phone": "724-638-9315", "opening_hours": "MON-SUN: 5AM - 10PM", "brand": "Coen Markets"}, "geometry": {"type": "Point", "coordinates": [-80.072613, 39.885823]}},
{"type": "Feature", "id": "Jovh4v3tyKQ0rSFph57XPTm4D-4=", "properties": {"ref": "washington-rd", "@spider": "coen_markets", "addr:full": "481 Washington Road", "addr:city": "Washington", "addr:state": "PA", "addr:postcode": "15301", "name": "Coen", "phone": "724-705-7196", "opening_hours": "MON-SUN: 5AM - 9PM", "brand": "Coen Markets"}, "geometry": {"type": "Point", "coordinates": [-80.213692, 40.190065]}},
{"type": "Feature", "id": "hQot2--goQc7CDPeC0D5i__anX8=", "properties": {"ref": "venetia", "@spider": "coen_markets", "addr:full": "801 E. McMurray Rd.", "addr:city": "Venetia", "addr:state": "PA", "addr:postcode": "15367", "name": "Coen", "phone": "412-230-3698", "opening_hours": "HOURS: 5:00AM - 10:00PM", "brand": "Coen Markets"}, "geometry": {"type": "Point", "coordinates": [-80.07707, 40.28888]}},
{"type": "Feature", "id": "3xDIn-2vHLEih30anJURo_9VnMg=", "properties": {"ref": "valencia", "@spider": "coen_markets", "addr:full": "1370 PITTSBURGH RD", "addr:city": "Valencia", "addr:state": "PA", "addr:postcode": "16059", "name": "Coen", "phone": "412-274-8081", "opening_hours": "HOURS: 5:00AM - 9:00PM", "brand": "Coen Markets"}, "geometry": {"type": "Point", "coordinates": [-79.935849, 40.68255]}},
{"type": "Feature", "id": "0e2wvBeZfbB9mo7scpI28VP35_E=", "properties": {"ref": "triadelphia", "@spider": "coen_markets", "addr:full": "1961 Dallas Pike", "addr:city": "Triadelphia", "addr:state": "WV", "addr:postcode": "26059", "name": "Coen", "phone": "304-400-6154", "opening_hours": "MON-SUN: 5AM - 10PM", "brand": "Coen Markets"}, "geometry": {"type": "Point", "coordinates": [-80.56645, 40.067183]}},
{"type": "Feature", "id": "qPEik3IAeaIDt1Ue8gL_LVkDHNY=", "properties": {"ref": "toronto", "@spider": "coen_markets", "addr:full": "1860 Franklin Street", "addr:city": "Toronto", "addr:state": "OH", "addr:postcode": "43964", "name": "Coen", "phone": "740-537-9591", "opening_hours": "MON-SUN: 5AM - 11PM", "brand": "Coen Markets"}, "geometry": {"type": "Point", "coordinates": [-80.615701, 40.450545]}},
{"type": "Feature", "id": "L2JO9FWIx1UWGmhm28kXwdeY-JQ=", "properties": {"ref": "steubenville", "@spider": "coen_markets", "addr:full": "953 North 7th Street", "addr:city": "Steubenville", "addr:state": "OH", "addr:postcode": "43952", "name": "Coen", "phone": "740-282-1021", "opening_hours": "MON-SUN: 5AM - 11PM", "brand": "Coen Markets"}, "geometry": {"type": "Point", "coordinates": [-80.613753, 40.37307]}},
{"type": "Feature", "id": "NlKhOZ1NP1wx9XzzdO4OqRu9an8=", "properties": {"ref": "southside-24th-st", "@spider": "coen_markets", "addr:full": "2401 E CARSON ST PITTSBURGH", "addr:city": "Southside 24th St.", "addr:state": "PA", "addr:postcode": "15203", "name": "Coen", "phone": "412-431-3550", "opening_hours": "MON-SUN: 5AM - 11PM", "brand": "Coen Markets"}, "geometry": {"type": "Point", "coordinates": [-79.970923, 40.428332]}},
{"type": "Feature", "id": "4QhRwAV8pggV_P-WlkfWLR_o-7g=", "properties": {"ref": "southside-10th-st", "@spider": "coen_markets", "addr:full": "925 E CARSON ST PITTSBURGH", "addr:city": "Southside 10th St.", "addr:state": "PA", "addr:postcode": "15203", "name": "Coen", "phone": "412-293-1014", "opening_hours": "MON-SUN: 5AM - 11PM", "brand": "Coen Markets"}, "geometry": {"type": "Point", "coordinates": [-79.988944, 40.42891]}},
{"type": "Feature", "id": "645atKw1rjG6Db6vmJuudofjNHg=", "properties": {"ref": "south-park", "@spider": "coen_markets", "addr:full": "2880 BROWNSVILLE ROAD", "addr:city": "South Park", "addr:state": "PA", "addr:postcode": "15129", "name": "Coen", "phone": "412-851-5470", "opening_hours": "Mon-Sun: 5A -11PM", "brand": "Coen Markets"}, "geometry": {"type": "Point", "coordinates": [-79.997005, 40.287652]}},
{"type": "Feature", "id": "TQUd6g9c5QmVv0QzDOhuCxHg4hs=", "properties": {"ref": "shelocta", "@spider": "coen_markets", "addr:full": "9650 RT 422", "addr:city": "Shelocta", "addr:state": "PA", "addr:postcode": "15774", "name": "Coen", "phone": "412-293-1213", "opening_hours": "MON-SUN: 5AM - 10PM", "brand": "Coen Markets"}, "geometry": {"type": "Point", "coordinates": [-79.302668, 40.657153]}},
{"type": "Feature", "id": "uYJKTuRV7b6siypSnyujHc47yKE=", "properties": {"ref": "sharpsburg", "@spider": "coen_markets", "addr:full": "1501 N CANAL ST", "addr:city": "Sharpsburg", "addr:state": "PA", "addr:postcode": "15215", "name": "Coen", "phone": "412-781-4426", "opening_hours": "Mon-Sun:\u00a05AM - 10PM", "brand": "Coen Markets"}, "geometry": {"type": "Point", "coordinates": [-79.926208, 40.496704]}},
{"type": "Feature", "id": "PBFLQEfYSaydurrkOgeX_lVDVfY=", "properties": {"ref": "ruff-creek", "@spider": "coen_markets", "addr:full": "720 Washington Road", "addr:city": "Prosperity", "addr:state": "PA", "addr:postcode": "15329", "name": "Coen", "phone": "724-638-9529", "opening_hours": "MON-SUN: 5AM - 10PM", "brand": "Coen Markets"}, "geometry": {"type": "Point", "coordinates": [-80.174261, 39.958695]}},
{"type": "Feature", "id": "LQckaio9wxb8AVaKNkSLGWP2mdc=", "properties": {"ref": "rostraver", "@spider": "coen_markets", "addr:full": "5100 RT 51 BELLE VERNON", "addr:city": "Rostraver", "addr:state": "PA", "addr:postcode": "15012", "name": "Coen", "phone": "724-379-7252", "opening_hours": "MON-SUN: 5AM - 9PM", "brand": "Coen Markets"}, "geometry": {"type": "Point", "coordinates": [-79.836194, 40.202449]}},
{"type": "Feature", "id": "yRU1YvpDFy9izlH7HfbAZVBeQ4M=", "properties": {"ref": "rochester", "@spider": "coen_markets", "addr:full": "854 OHIO RIVER BLVD", "addr:city": "ROCHESTER", "addr:state": "PA", "addr:postcode": "15074", "name": "Coen", "phone": "724-774-0811", "opening_hours": "MON-SUN: 5AM - 10PM", "brand": "Coen Markets"}, "geometry": {"type": "Point", "coordinates": [-80.268892, 40.697377]}},
{"type": "Feature", "id": "r6bwfzGzX18ckp3AoUKtV3Gf-wU=", "properties": {"ref": "powhatan", "@spider": "coen_markets", "addr:full": "288 OH-7", "addr:city": "Powhatan Point", "addr:state": "OH", "addr:postcode": "43942", "name": "Coen", "phone": " 740-340-0954", "opening_hours": "MON-SUN: 5AM - 10PM", "brand": "Coen Markets"}, "geometry": {"type": "Point", "coordinates": [-80.804425, 39.864473]}},
{"type": "Feature", "id": "XV-3ZYrfBuShsjvBs7clSwd06Yc=", "properties": {"ref": "hickory", "@spider": "coen_markets", "addr:full": "221 Main Street Route 18", "addr:city": "Hickory", "addr:state": "PA", "addr:postcode": "15340", "name": "Coen", "phone": "724-323-0098", "opening_hours": "MON-SUN: 5AM - 9PM", "brand": "Coen Markets"}, "geometry": {"type": "Point", "coordinates": [-80.333104, 40.293231]}},
{"type": "Feature", "id": "v0gjAFtPvLmbBpJ1I6pQfoqmJxU=", "properties": {"ref": "harrison-city", "@spider": "coen_markets", "addr:full": "3338 ROUTE 130", "addr:city": "HARRISON CITY", "addr:state": "PA", "addr:postcode": "15636", "name": "Coen", "phone": "724-744-0494", "opening_hours": "MON-SUN: 5AM - 10PM", "brand": "Coen Markets"}, "geometry": {"type": "Point", "coordinates": [-79.648867, 40.354715]}},
{"type": "Feature", "id": "-OMK423_TOlOkc4owxomQS2Jrss=", "properties": {"ref": "greenfield", "@spider": "coen_markets", "addr:full": "4071 BEECHWOOD BLVD", "addr:city": "PITTSBURGH", "addr:state": "PA", "addr:postcode": "15217", "name": "Coen", "phone": "412-422-0585", "opening_hours": "MON-SUN: 5AM - 11PM", "brand": "Coen Markets"}, "geometry": {"type": "Point", "coordinates": [-79.938243, 40.426579]}},
{"type": "Feature", "id": "qpGUGNE4tMlL7umY277czHI-Rug=", "properties": {"ref": "follansbee", "@spider": "coen_markets", "addr:full": "1522 Main Street", "addr:city": "Follansbee", "addr:state": "WV", "addr:postcode": "26037", "name": "Coen", "phone": "304-527-5450", "opening_hours": "MON-SUN: 5AM - 10PM", "brand": "Coen Markets"}, "geometry": {"type": "Point", "coordinates": [-80.597008, 40.339478]}},
{"type": "Feature", "id": "JnonpgHlAbs5UHpdDnLhL1p0KIA=", "properties": {"ref": "export", "@spider": "coen_markets", "addr:full": "5200 MELLON RD", "addr:city": "EXPORT", "addr:state": "PA", "addr:postcode": "15632", "name": "Coen", "phone": "724-327-0064", "opening_hours": "MON-SUN: 5AM - 9PM", "brand": "Coen Markets"}, "geometry": {"type": "Point", "coordinates": [-79.59911, 40.403796]}},
{"type": "Feature", "id": "S4Z3RTvEIk98akXnkI-qzgHvGy0=", "properties": {"ref": "exit-11", "@spider": "coen_markets", "addr:full": "2865 South Bridge Road", "addr:city": "Washington", "addr:state": "PA", "addr:postcode": "15301", "name": "Coen", "phone": "724-229-7655", "opening_hours": "MON-SUN: 5AM - 9PM", "brand": "Coen Markets"}, "geometry": {"type": "Point", "coordinates": [-80.337077, 40.130546]}},
{"type": "Feature", "id": "ceyLhH0lNVgDOKKYvCPsw-csV7Q=", "properties": {"ref": "emlenton", "@spider": "coen_markets", "addr:full": "6412 EMLENTON - CLINTONVILLE RD", "addr:city": "EMLENTON", "addr:state": "PA", "addr:postcode": "16373", "name": "Coen", "phone": "724-867-1119", "opening_hours": "MON-SUN: 5AM - 10PM", "brand": "Coen Markets"}, "geometry": {"type": "Point", "coordinates": [-79.73836, 41.175621]}},
{"type": "Feature", "id": "0XE6Znpi5zulL3L46crbIdhXEh8=", "properties": {"ref": "dormont", "@spider": "coen_markets", "addr:full": "2873 West Liberty Ave", "addr:city": "Pittsburgh", "addr:state": "PA", "addr:postcode": "15216", "name": "Coen", "phone": "412-341-3113", "opening_hours": "MON-SUN: 5AM - 11PM", "brand": "Coen Markets"}, "geometry": {"type": "Point", "coordinates": [-80.02088, 40.40278]}},
{"type": "Feature", "id": "y0aD-V078Bmr7UtO2DxFSfegzOA=", "properties": {"ref": "donegal", "@spider": "coen_markets", "addr:full": "3612 PA-31", "addr:city": "Dongegal", "addr:state": "PA", "addr:postcode": "15628", "name": "Coen", "phone": "724-305-8082", "opening_hours": "Mon-Sun: 5AM - 10PM", "brand": "Coen Markets"}, "geometry": {"type": "Point", "coordinates": [-79.378174, 40.106927]}},
{"type": "Feature", "id": "yOBZ9rX5TIN3zBkU0l4hAKzOFd0=", "properties": {"ref": "claysville-cafe-store", "@spider": "coen_markets", "addr:full": "1133 US Route 40", "addr:city": "Claysville", "addr:state": "PA", "addr:postcode": "15323", "name": "Coen", "phone": "724-663-5103", "opening_hours": "MON-SUN: 5AM - 10PM", "brand": "Coen Markets"}, "geometry": {"type": "Point", "coordinates": [-80.427432, 40.115659]}},
{"type": "Feature", "id": "bD_icFi809vYBj9UkhCHpdlEe7A=", "properties": {"ref": "canonsburg", "@spider": "coen_markets", "addr:full": "2601 Washington Road", "addr:city": "Canonsburg", "addr:state": "pa", "addr:postcode": "15317", "name": "Coen", "phone": "412-631-6512", "opening_hours": "HOURS: 5:00AM - 11:00PM", "brand": "Coen Markets"}, "geometry": {"type": "Point", "coordinates": [-80.15391452416478, 40.255866593233236]}},
{"type": "Feature", "id": "bHKrU1-TOUf83xZZJIipnbqIfT8=", "properties": {"ref": "kwik-stop", "@spider": "coen_markets", "addr:full": "2048 Route 18", "addr:city": "Burgettstown", "addr:state": "PA", "addr:postcode": "15021", "name": "Coen", "phone": "724-947-3669", "opening_hours": "MON-SUN: 5AM - 9PM", "brand": "Coen Markets"}, "geometry": {"type": "Point", "coordinates": [-80.390095, 40.366087]}},
{"type": "Feature", "id": "55p7an9JWELFXm3TzemQn3hOwrY=", "properties": {"ref": "brilliant", "@spider": "coen_markets", "addr:full": "1499 Third Street", "addr:city": "Brilliant", "addr:state": "OH", "addr:postcode": "43913", "name": "Coen", "phone": "740-575-4042", "opening_hours": "MON-SUN: 5AM - 10PM", "brand": "Coen Markets"}, "geometry": {"type": "Point", "coordinates": [-80.640844, 40.25903]}},
{"type": "Feature", "id": "GAKxWY2CzSLysYLL0a7j98-m1XE=", "properties": {"ref": "bethel-park", "@spider": "coen_markets", "addr:full": "2733 S PARK RD", "addr:city": "BETHEL PARK", "addr:state": "PA", "addr:postcode": "15102", "name": "Coen", "phone": "412-831-8848", "opening_hours": "MON-SUN: 5AM - 10PM", "brand": "Coen Markets"}, "geometry": {"type": "Point", "coordinates": [-80.032409, 40.327693]}},
{"type": "Feature", "id": "srNiliMULhoVL2MoCpE8Q9DbjFc=", "properties": {"ref": "bentleyville", "@spider": "coen_markets", "addr:full": "204 Wilson Road", "addr:city": "Bentleyville", "addr:state": "PA", "addr:postcode": "15314", "name": "Coen", "phone": "724-300-8037", "opening_hours": "MON-SUN: 5AM - 9PM", "brand": "Coen Markets"}, "geometry": {"type": "Point", "coordinates": [-80.000327, 40.130895]}},
{"type": "Feature", "id": "QWET6LxikcL1B5tH1STUmKULIUQ=", "properties": {"ref": "bedford", "@spider": "coen_markets", "addr:full": "6371 LINCOLN HWY", "addr:city": "BEDFORD", "addr:state": "PA", "addr:postcode": "15522", "name": "Coen", "phone": "814-623-7980", "opening_hours": "MON-SUN: 5AM - 10PM", "brand": "Coen Markets"}, "geometry": {"type": "Point", "coordinates": [-78.550856, 40.04759]}},
{"type": "Feature", "id": "kviDQnocgvzQfn6hdqHyOV227gA=", "properties": {"ref": "somerset", "@spider": "coen_markets", "addr:full": "2380 W BAKERSVILLE EDIE RD SOMERSET", "addr:city": "Bakersville", "addr:state": "PA", "addr:postcode": "15501", "name": "Coen", "phone": "412-230-3805", "opening_hours": "MON-SUN: 5AM - 10PM", "brand": "Coen Markets"}, "geometry": {"type": "Point", "coordinates": [-79.213636, 40.035335]}},
{"type": "Feature", "id": "9EPFbYT0rJDMeri2pmFYgAqga-o=", "properties": {"ref": "ambridge", "@spider": "coen_markets", "addr:full": "2399 DUSS AVE", "addr:city": "AMBRIDGE", "addr:state": "PA", "addr:postcode": "15003", "name": "Coen", "phone": "724-266-2040", "opening_hours": "MON-SUN: 5AM - 10PM", "brand": "Coen Markets"}, "geometry": {"type": "Point", "coordinates": [-80.22669, 40.60489]}},
{"type": "Feature", "id": "ggyFBslzDb45ogGMq4TcliDjynw=", "properties": {"ref": "aliquippa", "@spider": "coen_markets", "addr:full": "1610 GRINGO RD", "addr:city": "ALIQUIPPA", "addr:state": "PA", "addr:postcode": "15001", "name": "Coen", "phone": "724-378-4050", "opening_hours": "MON-SUN: 5AM - 10PM", "brand": "Coen Markets"}, "geometry": {"type": "Point", "coordinates": [-80.275546, 40.561482]}},
{"type": "Feature", "id": "cEqJIHTiosSkBH-aF-S026CvLuM=", "properties": {"ref": "84-sunoco", "@spider": "coen_markets", "addr:full": "1795 Route 136", "addr:city": "84 (Sunoco)", "addr:state": "PA", "addr:postcode": "15330", "name": "Coen", "phone": "724-225-7830", "opening_hours": "MON-SUN: 5AM - 9PM", "brand": "Coen Markets"}, "geometry": {"type": "Point", "coordinates": [-80.132402, 40.182749]}},
{"type": "Feature", "id": "APqqwnxfcw84pfFQ1ziCaovW_3I=", "properties": {"ref": "519-70-sunoco", "@spider": "coen_markets", "addr:full": "437 Route 519", "addr:city": "Eighty Four", "addr:state": "PA", "addr:postcode": "15330", "name": "Coen", "phone": "724-228-3186", "opening_hours": "MON-SUN: 5AM - 9PM", "brand": "Coen Markets"}, "geometry": {"type": "Point", "coordinates": [-80.131404, 40.154251]}}]}