{"type":"FeatureCollection","features":[{"type": "Feature", "id": "3jmkC_w515YZZl_bvAvxmdCcZkQ=", "properties": {"ref": "902", "@spider": "colruyt", "shop": "supermarket", "addr:housenumber": "41", "addr:street": "BRUSSELSE STEENWEG", "addr:city": "AALST", "addr:postcode": "9300", "addr:country": "BE", "name": "Colruyt", "website": "https://www.colruyt.be/nl/colruyt-openingsuren/4156", "brand": "Colruyt", "brand:wikidata": "Q2363991", "nsi_id": "colruyt-27c1df"}, "geometry": {"type": "Point", "coordinates": [4.0538972, 50.933074]}},
{"type": "Feature", "id": "W_40rOS3PhN3Cyj1F8rdcZRntIw=", "properties": {"ref": "946", "@spider": "colruyt", "shop": "supermarket", "addr:housenumber": "66", "addr:street": "LOSTRAAT", "addr:city": "AALTER", "addr:postcode": "9880", "addr:country": "BE", "name": "Colruyt", "website": "https://www.colruyt.be/nl/colruyt-openingsuren/4218", "brand": "Colruyt", "brand:wikidata": "Q2363991", "nsi_id": "colruyt-27c1df"}, "geometry": {"type": "Point", "coordinates": [3.4500133, 51.0784761]}},
{"type": "Feature", "id": "JvEWeq_IB4S1ee02_El82Ki2dNY=", "properties": {"ref": "950", "@spider": "colruyt", "shop": "supermarket", "addr:housenumber": "241", "addr:street": "LEUVENSESTEENWEG", "addr:city": "AARSCHOT", "addr:postcode": "3200", "addr:country": "BE", "name": "Colruyt", "website": "https://www.colruyt.be/nl/colruyt-openingsuren/4222", "brand": "Colruyt", "brand:wikidata": "Q2363991", "nsi_id": "colruyt-27c1df"}, "geometry": {"type": "Point", "coordinates": [4.8110969, 50.9760369]}},
{"type": "Feature", "id": "OZERSUVeVUCXLYrZ_Xg9FeHkf48=", "properties": {"ref": "886", "@spider": "colruyt", "shop": "supermarket", "addr:housenumber": "19", "addr:street": "BRUSSELSESTEENWEG", "addr:city": "ALSEMBERG", "addr:postcode": "1652", "addr:country": "BE", "name": "Colruyt", "website": "https://www.colruyt.be/nl/colruyt-openingsuren/4138", "brand": "Colruyt", "brand:wikidata": "Q2363991", "nsi_id": "colruyt-27c1df"}, "geometry": {"type": "Point", "coordinates": [4.336719, 50.7415212]}},
{"type": "Feature", "id": "Bwf0HCBQJSsIL07ZZr2eMLL5YoU=", "properties": {"ref": "783", "@spider": "colruyt", "shop": "supermarket", "addr:housenumber": "247", "addr:street": "CHAUSSEE DE TONGRES", "addr:city": "AMAY", "addr:postcode": "4540", "addr:country": "BE", "name": "Colruyt", "website": "https://www.colruyt.be/nl/colruyt-openingsuren/3853", "brand": "Colruyt", "brand:wikidata": "Q2363991", "nsi_id": "colruyt-27c1df"}, "geometry": {"type": "Point", "coordinates": [5.3061951, 50.5599284]}},
{"type": "Feature", "id": "TRni-CmqLBmBZ4XM-dl-AwXtagM=", "properties": {"ref": "650", "@spider": "colruyt", "shop": "supermarket", "addr:housenumber": "4", "addr:street": "RUE DE LA PAPETERIE", "addr:city": "ANDENNE", "addr:postcode": "5300", "addr:country": "BE", "name": "Colruyt", "website": "https://www.colruyt.be/nl/colruyt-openingsuren/3596", "brand": "Colruyt", "brand:wikidata": "Q2363991", "nsi_id": "colruyt-27c1df"}, "geometry": {"type": "Point", "coordinates": [5.0930033, 50.4917055]}},
{"type": "Feature", "id": "1iWvskXNIL-2qGesKDNpet3W9gU=", "properties": {"ref": "669", "@spider": "colruyt", "shop": "supermarket", "addr:housenumber": "57", "addr:street": "MAURICE HERBETTELAAN", "addr:city": "ANDERLECHT", "addr:postcode": "1070", "addr:country": "BE", "name": "Colruyt", "website": "https://www.colruyt.be/nl/colruyt-openingsuren/3620", "brand": "Colruyt", "brand:wikidata": "Q2363991", "nsi_id": "colruyt-27c1df"}, "geometry": {"type": "Point", "coordinates": [4.3099483, 50.8439965]}},
{"type": "Feature", "id": "hUM1FqLO4XYHq2R9iCApbKMHu0g=", "properties": {"ref": "744", "@spider": "colruyt", "shop": "supermarket", "addr:housenumber": "824", "addr:street": "BERGENSESTEENWEG", "addr:city": "ANDERLECHT", "addr:postcode": "1070", "addr:country": "BE", "name": "Colruyt", "website": "https://www.colruyt.be/nl/colruyt-openingsuren/3759", "brand": "Colruyt", "brand:wikidata": "Q2363991", "nsi_id": "colruyt-27c1df"}, "geometry": {"type": "Point", "coordinates": [4.3025743961, 50.8275378372]}},
{"type": "Feature", "id": "tAbt4peBWiLFEzqqLFCmJfA1R90=", "properties": {"ref": "448", "@spider": "colruyt", "shop": "supermarket", "addr:housenumber": "4", "addr:street": "RUE DE LA STATION", "addr:city": "ANDERLUES", "addr:postcode": "6150", "addr:country": "BE", "name": "Colruyt", "website": "https://www.colruyt.be/nl/colruyt-openingsuren/3074", "brand": "Colruyt", "brand:wikidata": "Q2363991", "nsi_id": "colruyt-27c1df"}, "geometry": {"type": "Point", "coordinates": [4.2797751, 50.401257]}},
{"type": "Feature", "id": "R5sN_iTR1QhE86rgICPNg-BBY1A=", "properties": {"ref": "681", "@spider": "colruyt", "shop": "supermarket", "addr:housenumber": "88", "addr:street": "RUE DES FRANCAIS", "addr:city": "ANS", "addr:postcode": "4430", "addr:country": "BE", "name": "Colruyt", "website": "https://www.colruyt.be/nl/colruyt-openingsuren/3644", "brand": "Colruyt", "brand:wikidata": "Q2363991", "nsi_id": "colruyt-27c1df"}, "geometry": {"type": "Point", "coordinates": [5.5324966, 50.6588119]}},
{"type": "Feature", "id": "5Oj06EBpc6sJQi2BMHO3a5ghUEM=", "properties": {"ref": "880", "@spider": "colruyt", "shop": "supermarket", "addr:housenumber": "14", "addr:street": "AVENUE DE L'EUROPE", "addr:city": "ANTOING", "addr:postcode": "7640", "addr:country": "BE", "name": "Colruyt", "website": "https://www.colruyt.be/nl/colruyt-openingsuren/4128", "brand": "Colruyt", "brand:wikidata": "Q2363991", "nsi_id": "colruyt-27c1df"}, "geometry": {"type": "Point", "coordinates": [3.4521636, 50.5656778]}},
{"type": "Feature", "id": "IY2Tkbk6d6XjvTz4OEBjfatmUFM=", "properties": {"ref": "636", "@spider": "colruyt", "shop": "supermarket", "addr:housenumber": "35A", "addr:street": "LANGE ELZENSTRAAT", "addr:city": "ANTWERPEN 1", "addr:postcode": "2018", "addr:country": "BE", "name": "Colruyt", "website": "https://www.colruyt.be/nl/colruyt-openingsuren/3573", "brand": "Colruyt", "brand:wikidata": "Q2363991", "nsi_id": "colruyt-27c1df"}, "geometry": {"type": "Point", "coordinates": [4.395306, 51.2011247]}},
{"type": "Feature", "id": "dwsZFyYo-6dnXnIz502c5yNHDrg=", "properties": {"ref": "2781", "@spider": "colruyt", "shop": "supermarket", "addr:housenumber": "15", "addr:street": "GENTPLAATS", "addr:city": "ANTWERPEN 1", "addr:postcode": "2000", "addr:country": "BE", "name": "Colruyt", "website": "https://www.colruyt.be/nl/colruyt-openingsuren/7477", "brand": "Colruyt", "brand:wikidata": "Q2363991", "nsi_id": "colruyt-27c1df"}, "geometry": {"type": "Point", "coordinates": [4.3872453, 51.2060004]}},
{"type": "Feature", "id": "nLWeVL-LgZ2g6Gm7HrOGEzCZy2o=", "properties": {"ref": "2643", "@spider": "colruyt", "shop": "supermarket", "addr:housenumber": "357", "addr:street": "BLANCEFLOERLAAN", "addr:city": "ANTWERPEN 5", "addr:postcode": "2050", "addr:country": "BE", "name": "Colruyt", "website": "https://www.colruyt.be/nl/colruyt-openingsuren/7190", "brand": "Colruyt", "brand:wikidata": "Q2363991", "nsi_id": "colruyt-27c1df"}, "geometry": {"type": "Point", "coordinates": [4.363296, 51.2198341]}},
{"type": "Feature", "id": "J8pWRFICQwUD7cDnVtjkDpDzHhs=", "properties": {"ref": "538", "@spider": "colruyt", "shop": "supermarket", "addr:housenumber": "15", "addr:street": "RUE DE L'HYDRION", "addr:city": "ARLON", "addr:postcode": "6700", "addr:country": "BE", "name": "Colruyt", "website": "https://www.colruyt.be/nl/colruyt-openingsuren/3266", "brand": "Colruyt", "brand:wikidata": "Q2363991", "nsi_id": "colruyt-27c1df"}, "geometry": {"type": "Point", "coordinates": [5.799413, 49.6832331]}},
{"type": "Feature", "id": "HbGYEUxYwQNCee-hvwFHvNzZSkY=", "properties": {"ref": "454", "@spider": "colruyt", "shop": "supermarket", "addr:housenumber": "49A", "addr:street": "NERVIERSSTRAAT", "addr:city": "ASSE", "addr:postcode": "1730", "addr:country": "BE", "name": "Colruyt", "website": "https://www.colruyt.be/nl/colruyt-openingsuren/3083", "brand": "Colruyt", "brand:wikidata": "Q2363991", "nsi_id": "colruyt-27c1df"}, "geometry": {"type": "Point", "coordinates": [4.189811, 50.9165932]}},
{"type": "Feature", "id": "AsdLT5aPCecKL8kReY3B317decc=", "properties": {"ref": "833", "@spider": "colruyt", "shop": "supermarket", "addr:housenumber": "124", "addr:street": "NIJVERHEIDSSTRAAT", "addr:city": "ASSEBROEK", "addr:postcode": "8310", "addr:country": "BE", "name": "Colruyt", "website": "https://www.colruyt.be/nl/colruyt-openingsuren/4050", "brand": "Colruyt", "brand:wikidata": "Q2363991", "nsi_id": "colruyt-27c1df"}, "geometry": {"type": "Point", "coordinates": [3.241102, 51.207433]}},
{"type": "Feature", "id": "wOdhP1dhqoIWHCLeF5ra28IgTCs=", "properties": {"ref": "621", "@spider": "colruyt", "shop": "supermarket", "addr:housenumber": "116", "addr:street": "CHAUSSEE DE BRUXELLES", "addr:city": "ATH", "addr:postcode": "7800", "addr:country": "BE", "name": "Colruyt", "website": "https://www.colruyt.be/nl/colruyt-openingsuren/3547", "brand": "Colruyt", "brand:wikidata": "Q2363991", "nsi_id": "colruyt-27c1df"}, "geometry": {"type": "Point", "coordinates": [3.7882782, 50.633502]}},
{"type": "Feature", "id": "ZiWUjTYBMFTndg9iyfMb6LdLhg4=", "properties": {"ref": "640", "@spider": "colruyt", "shop": "supermarket", "addr:housenumber": "272", "addr:street": "DOORNIKSESTEENWEG", "addr:city": "AVELGEM", "addr:postcode": "8580", "addr:country": "BE", "name": "Colruyt", "website": "https://www.colruyt.be/nl/colruyt-openingsuren/3582", "brand": "Colruyt", "brand:wikidata": "Q2363991", "nsi_id": "colruyt-27c1df"}, "geometry": {"type": "Point", "coordinates": [3.439359, 50.764426]}},
{"type": "Feature", "id": "9ABq_q2-C2do_xP48qfroEWk_PA=", "properties": {"ref": "974", "@spider": "colruyt", "shop": "supermarket", "addr:housenumber": "8", "addr:street": "MELKERIJSTRAAT", "addr:city": "AVERBODE", "addr:postcode": "3271", "addr:country": "BE", "name": "Colruyt", "website": "https://www.colruyt.be/nl/colruyt-openingsuren/4263", "brand": "Colruyt", "brand:wikidata": "Q2363991", "nsi_id": "colruyt-27c1df"}, "geometry": {"type": "Point", "coordinates": [4.9826536, 51.026757]}},
{"type": "Feature", "id": "IMfMTSZpq1Lox5Q5xBR8MlXPQ84=", "properties": {"ref": "982", "@spider": "colruyt", "shop": "supermarket", "addr:housenumber": "13", "addr:street": "CHAUSSEE DE BRUXELLES", "addr:city": "BAISY-THY", "addr:postcode": "1470", "addr:country": "BE", "name": "Colruyt", "website": "https://www.colruyt.be/nl/colruyt-openingsuren/4283", "brand": "Colruyt", "brand:wikidata": "Q2363991", "nsi_id": "colruyt-27c1df"}, "geometry": {"type": "Point", "coordinates": [4.4516466, 50.6154795]}},
{"type": "Feature", "id": "JV3_kixSh-4rqwfaQ8MzHtJ6Je0=", "properties": {"ref": "3174", "@spider": "colruyt", "shop": "supermarket", "addr:housenumber": "1", "addr:street": "SCHOOR", "addr:city": "BALEN", "addr:postcode": "2490", "addr:country": "BE", "name": "Colruyt", "website": "https://www.colruyt.be/nl/colruyt-openingsuren/7964", "brand": "Colruyt", "brand:wikidata": "Q2363991", "nsi_id": "colruyt-27c1df"}, "geometry": {"type": "Point", "coordinates": [5.178819606, 51.165198346]}},
{"type": "Feature", "id": "ldyFSynZczDeQMYSeq2Cycr7-Mc=", "properties": {"ref": "741", "@spider": "colruyt", "shop": "supermarket", "addr:housenumber": "22", "addr:street": "CHAUSSEE DE HOUFFALIZE", "addr:city": "BASTOGNE", "addr:postcode": "6600", "addr:country": "BE", "name": "Colruyt", "website": "https://www.colruyt.be/nl/colruyt-openingsuren/3747", "brand": "Colruyt", "brand:wikidata": "Q2363991", "nsi_id": "colruyt-27c1df"}, "geometry": {"type": "Point", "coordinates": [5.723048, 50.011502]}},
{"type": "Feature", "id": "daiMG3-O7JtWc95R3NDtXrTAoUw=", "properties": {"ref": "866", "@spider": "colruyt", "shop": "supermarket", "addr:housenumber": "37", "addr:street": "OUTRE-COUR", "addr:city": "BATTICE", "addr:postcode": "4651", "addr:country": "BE", "name": "Colruyt", "website": "https://www.colruyt.be/nl/colruyt-openingsuren/4114", "brand": "Colruyt", "brand:wikidata": "Q2363991", "nsi_id": "colruyt-27c1df"}, "geometry": {"type": "Point", "coordinates": [5.8207, 50.64744]}},
{"type": "Feature", "id": "Wpb_EDAAOJ8J7IiplTwNXEJ_7oo=", "properties": {"ref": "2673", "@spider": "colruyt", "shop": "supermarket", "addr:housenumber": "175", "addr:street": "VOIE DE L'AIR PUR", "addr:city": "BEAUFAYS", "addr:postcode": "4052", "addr:country": "BE", "name": "Colruyt", "website": "https://www.colruyt.be/nl/colruyt-openingsuren/7254", "brand": "Colruyt", "brand:wikidata": "Q2363991", "nsi_id": "colruyt-27c1df"}, "geometry": {"type": "Point", "coordinates": [5.6179059, 50.5769753]}},
{"type": "Feature", "id": "mx93yZgnHrZf4nAAbnQbwJSfvOE=", "properties": {"ref": "2583", "@spider": "colruyt", "shop": "supermarket", "addr:housenumber": "72", "addr:street": "HUBERT D'YDEWALLESTRAAT", "addr:city": "BEERNEM", "addr:postcode": "8730", "addr:country": "BE", "name": "Colruyt", "website": "https://www.colruyt.be/nl/colruyt-openingsuren/7085", "brand": "Colruyt", "brand:wikidata": "Q2363991", "nsi_id": "colruyt-27c1df"}, "geometry": {"type": "Point", "coordinates": [3.3218791, 51.1292944]}},
{"type": "Feature", "id": "AZOkVrcMahPnrt3zkt3J9fOEI_w=", "properties": {"ref": "608", "@spider": "colruyt", "shop": "supermarket", "addr:housenumber": "5", "addr:street": "CHAUSSEE DE DINANT", "addr:city": "BEN-AHIN", "addr:postcode": "4500", "addr:country": "BE", "name": "Colruyt", "website": "https://www.colruyt.be/nl/colruyt-openingsuren/3521", "brand": "Colruyt", "brand:wikidata": "Q2363991", "nsi_id": "colruyt-27c1df"}, "geometry": {"type": "Point", "coordinates": [5.2181089, 50.5222812]}},
{"type": "Feature", "id": "uj9745tkQddaMpgU-BYcvn49qko=", "properties": {"ref": "3310", "@spider": "colruyt", "shop": "supermarket", "addr:housenumber": "239", "addr:street": "OOGSTSTRAAT", "addr:city": "BERCHEM (ANTW.)", "addr:postcode": "2600", "addr:country": "BE", "name": "Colruyt", "website": "https://www.colruyt.be/nl/colruyt-openingsuren/7959", "brand": "Colruyt", "brand:wikidata": "Q2363991", "nsi_id": "colruyt-27c1df"}, "geometry": {"type": "Point", "coordinates": [4.44133948, 51.179493284]}},
{"type": "Feature", "id": "GjWj6yAlmkPQg4xb7bAGWTfEFsw=", "properties": {"ref": "484", "@spider": "colruyt", "shop": "supermarket", "addr:housenumber": "321", "addr:street": "KOOLMIJNLAAN", "addr:city": "BERINGEN", "addr:postcode": "3580", "addr:country": "BE", "name": "Colruyt", "website": "https://www.colruyt.be/nl/colruyt-openingsuren/3121", "brand": "Colruyt", "brand:wikidata": "Q2363991", "nsi_id": "colruyt-27c1df"}, "geometry": {"type": "Point", "coordinates": [5.2197124, 51.0763021]}},
{"type": "Feature", "id": "ONJg44YP7B3NIiimialVbERK1UU=", "properties": {"ref": "685", "@spider": "colruyt", "shop": "supermarket", "addr:housenumber": "17", "addr:street": "DONKVIJVERSTRAAT", "addr:city": "BEVEREN-WAAS", "addr:postcode": "9120", "addr:country": "BE", "name": "Colruyt", "website": "https://www.colruyt.be/nl/colruyt-openingsuren/3651", "brand": "Colruyt", "brand:wikidata": "Q2363991", "nsi_id": "colruyt-27c1df"}, "geometry": {"type": "Point", "coordinates": [4.2511468, 51.2141848]}},
{"type": "Feature", "id": "rrb8AJ2BpRmk-oNRG3fhTTdhbqk=", "properties": {"ref": "874", "@spider": "colruyt", "shop": "supermarket", "addr:housenumber": "7", "addr:street": "ROUTE DE QUENAST", "addr:city": "BIERGHES", "addr:postcode": "1430", "addr:country": "BE", "name": "Colruyt", "website": "https://www.colruyt.be/nl/colruyt-openingsuren/4122", "brand": "Colruyt", "brand:wikidata": "Q2363991", "nsi_id": "colruyt-27c1df"}, "geometry": {"type": "Point", "coordinates": [4.1218974, 50.6936498]}},
{"type": "Feature", "id": "YUjitbzbsS6kw0QaV-Tl-Wl20Sk=", "properties": {"ref": "3330", "@spider": "colruyt", "shop": "supermarket", "addr:housenumber": "18", "addr:street": "MAASTRICHTERSTRAAT", "addr:city": "BILZEN", "addr:postcode": "3740", "addr:country": "BE", "name": "Colruyt", "website": "https://www.colruyt.be/nl/colruyt-openingsuren/8008", "brand": "Colruyt", "brand:wikidata": "Q2363991", "nsi_id": "colruyt-27c1df"}, "geometry": {"type": "Point", "coordinates": [5.525766541, 50.865164758]}},
{"type": "Feature", "id": "mAo1-SuibnxDlvmCKKOe2vcMqKc=", "properties": {"ref": "661", "@spider": "colruyt", "shop": "supermarket", "addr:housenumber": "162", "addr:street": "RUE ZEPHIRIN FONTAINE", "addr:city": "BINCHE", "addr:postcode": "7130", "addr:country": "BE", "name": "Colruyt", "website": "https://www.colruyt.be/nl/colruyt-openingsuren/3610", "brand": "Colruyt", "brand:wikidata": "Q2363991", "nsi_id": "colruyt-27c1df"}, "geometry": {"type": "Point", "coordinates": [4.1716297, 50.4213843]}},
{"type": "Feature", "id": "7a-qlt-6ybyzo-LN595AnY1_coM=", "properties": {"ref": "717", "@spider": "colruyt", "shop": "supermarket", "addr:housenumber": "2", "addr:street": "RUITERSTRAAT", "addr:city": "BLANKENBERGE", "addr:postcode": "8370", "addr:country": "BE", "name": "Colruyt", "website": "https://www.colruyt.be/nl/colruyt-openingsuren/3694", "brand": "Colruyt", "brand:wikidata": "Q2363991", "nsi_id": "colruyt-27c1df"}, "geometry": {"type": "Point", "coordinates": [3.13285, 51.31238]}},
{"type": "Feature", "id": "WmxB1vFYz7irekwWU4qtAWKvXoM=", "properties": {"ref": "687", "@spider": "colruyt", "shop": "supermarket", "addr:housenumber": "19", "addr:street": "ROUTE DU CONDROZ", "addr:city": "BONCELLES", "addr:postcode": "4100", "addr:country": "BE", "name": "Colruyt", "website": "https://www.colruyt.be/nl/colruyt-openingsuren/3653", "brand": "Colruyt", "brand:wikidata": "Q2363991", "nsi_id": "colruyt-27c1df"}, "geometry": {"type": "Point", "coordinates": [5.550215, 50.567642]}},
{"type": "Feature", "id": "AgxjAZBS3l7O6AMVwm1fvZso0vQ=", "properties": {"ref": "766", "@spider": "colruyt", "shop": "supermarket", "addr:housenumber": "1", "addr:street": "PAPENSTEENSTRAAT", "addr:city": "BOOM", "addr:postcode": "2850", "addr:country": "BE", "name": "Colruyt", "website": "https://www.colruyt.be/nl/colruyt-openingsuren/3821", "brand": "Colruyt", "brand:wikidata": "Q2363991", "nsi_id": "colruyt-27c1df"}, "geometry": {"type": "Point", "coordinates": [4.3673019, 51.0946249]}},
{"type": "Feature", "id": "CEEsG4H8ws2l7CTOuEMWq8nySU4=", "properties": {"ref": "579", "@spider": "colruyt", "shop": "supermarket", "addr:housenumber": "85", "addr:street": "SINT-AMANDSESTEENWEG", "addr:city": "BORNEM", "addr:postcode": "2880", "addr:country": "BE", "name": "Colruyt", "website": "https://www.colruyt.be/nl/colruyt-openingsuren/3465", "brand": "Colruyt", "brand:wikidata": "Q2363991", "nsi_id": "colruyt-27c1df"}, "geometry": {"type": "Point", "coordinates": [4.2288212, 51.0914746]}},
{"type": "Feature", "id": "_R1eiaPk_Kn-x75RTRlck-apJbk=", "properties": {"ref": "614", "@spider": "colruyt", "shop": "supermarket", "addr:housenumber": "32", "addr:street": "RUE DU COLLEGE", "addr:city": "BOUILLON", "addr:postcode": "6830", "addr:country": "BE", "name": "Colruyt", "website": "https://www.colruyt.be/nl/colruyt-openingsuren/3537", "brand": "Colruyt", "brand:wikidata": "Q2363991", "nsi_id": "colruyt-27c1df"}, "geometry": {"type": "Point", "coordinates": [5.0688035, 49.7927083]}},
{"type": "Feature", "id": "-FKjJGplpaUfPqncQehRLodPaGU=", "properties": {"ref": "1713", "@spider": "colruyt", "shop": "supermarket", "addr:housenumber": "50", "addr:street": "RUE DU JARDINIER", "addr:city": "BRAINE-L'ALLEUD", "addr:postcode": "1420", "addr:country": "BE", "name": "Colruyt", "website": "https://www.colruyt.be/nl/colruyt-openingsuren/4476", "brand": "Colruyt", "brand:wikidata": "Q2363991", "nsi_id": "colruyt-27c1df"}, "geometry": {"type": "Point", "coordinates": [4.3654116, 50.6944836]}},
{"type": "Feature", "id": "hi_rZM9iAEuoLWk9xpKchTmKo1U=", "properties": {"ref": "617", "@spider": "colruyt", "shop": "supermarket", "addr:housenumber": "6", "addr:street": "RUE DE TUBIZE", "addr:city": "BRAINE-LE-CHATEAU", "addr:postcode": "1440", "addr:country": "BE", "name": "Colruyt", "website": "https://www.colruyt.be/nl/colruyt-openingsuren/3541", "brand": "Colruyt", "brand:wikidata": "Q2363991", "nsi_id": "colruyt-27c1df"}, "geometry": {"type": "Point", "coordinates": [4.2655481, 50.6817317]}},
{"type": "Feature", "id": "qI6VeYXKZDU4IuJEc4qsqMtumK8=", "properties": {"ref": "615", "@spider": "colruyt", "shop": "supermarket", "addr:housenumber": "4", "addr:street": "GERAARDSBERGSESTRAAT", "addr:city": "BRAKEL", "addr:postcode": "9660", "addr:country": "BE", "name": "Colruyt", "website": "https://www.colruyt.be/nl/colruyt-openingsuren/3538", "brand": "Colruyt", "brand:wikidata": "Q2363991", "nsi_id": "colruyt-27c1df"}, "geometry": {"type": "Point", "coordinates": [3.7595431, 50.7980297]}},
{"type": "Feature", "id": "5J7H-bvo8-eLZ9Cuq7pkNjBXhf0=", "properties": {"ref": "716", "@spider": "colruyt", "shop": "supermarket", "addr:housenumber": "24", "addr:street": "LEOPOLDSLEI", "addr:city": "BRASSCHAAT", "addr:postcode": "2930", "addr:country": "BE", "name": "Colruyt", "website": "https://www.colruyt.be/nl/colruyt-openingsuren/3692", "brand": "Colruyt", "brand:wikidata": "Q2363991", "nsi_id": "colruyt-27c1df"}, "geometry": {"type": "Point", "coordinates": [4.4866286, 51.2899609]}},
{"type": "Feature", "id": "aClq3Uy4jUYEbPm1W2qMBjN445E=", "properties": {"ref": "875", "@spider": "colruyt", "shop": "supermarket", "addr:housenumber": "22", "addr:street": "VLOEDSTRAAT", "addr:city": "BREDENE", "addr:postcode": "8450", "addr:country": "BE", "name": "Colruyt", "website": "https://www.colruyt.be/nl/colruyt-openingsuren/4123", "brand": "Colruyt", "brand:wikidata": "Q2363991", "nsi_id": "colruyt-27c1df"}, "geometry": {"type": "Point", "coordinates": [2.9736245, 51.2387231]}},
{"type": "Feature", "id": "4bK2dBsMinBOt3zMPd2OKm-1Ax4=", "properties": {"ref": "811", "@spider": "colruyt", "shop": "supermarket", "addr:housenumber": "14", "addr:street": "REGENBOOGSTRAAT", "addr:city": "BREE", "addr:postcode": "3960", "addr:country": "BE", "name": "Colruyt", "website": "https://www.colruyt.be/nl/colruyt-openingsuren/4000", "brand": "Colruyt", "brand:wikidata": "Q2363991", "nsi_id": "colruyt-27c1df"}, "geometry": {"type": "Point", "coordinates": [5.60757, 51.1391245]}},
{"type": "Feature", "id": "oaD6xILKEI1w7fw-O__dIsQxj38=", "properties": {"ref": "668", "@spider": "colruyt", "shop": "supermarket", "addr:housenumber": "1", "addr:street": "VEEMARKTSTRAAT", "addr:city": "BRUGGE", "addr:postcode": "8000", "addr:country": "BE", "name": "Colruyt", "website": "https://www.colruyt.be/nl/colruyt-openingsuren/3619", "brand": "Colruyt", "brand:wikidata": "Q2363991", "nsi_id": "colruyt-27c1df"}, "geometry": {"type": "Point", "coordinates": [3.2153662, 51.2219399]}},
{"type": "Feature", "id": "C2tp3xdZ9iTYzCetfg2dDIvhTZo=", "properties": {"ref": "1826", "@spider": "colruyt", "shop": "supermarket", "addr:housenumber": "13", "addr:street": "CLOS DU CHENE AU BOIS", "addr:city": "CHAPELLE-LEZ-HERLAIM", "addr:postcode": "7160", "addr:country": "BE", "name": "Colruyt", "website": "https://www.colruyt.be/nl/colruyt-openingsuren/5378", "brand": "Colruyt", "brand:wikidata": "Q2363991", "nsi_id": "colruyt-27c1df"}, "geometry": {"type": "Point", "coordinates": [4.272667, 50.475331]}},
{"type": "Feature", "id": "KIINaPBYjHrfJw9E3jfrORFvQUs=", "properties": {"ref": "510", "@spider": "colruyt", "shop": "supermarket", "addr:housenumber": "11", "addr:street": "PLACE DU MARCHE", "addr:city": "CHATELET", "addr:postcode": "6200", "addr:country": "BE", "name": "Colruyt", "website": "https://www.colruyt.be/nl/colruyt-openingsuren/3187", "brand": "Colruyt", "brand:wikidata": "Q2363991", "nsi_id": "colruyt-27c1df"}, "geometry": {"type": "Point", "coordinates": [4.5217659, 50.4055216]}},
{"type": "Feature", "id": "qCK4MX7FnsnQTJ2CQ4G_w0CUC0o=", "properties": {"ref": "877", "@spider": "colruyt", "shop": "supermarket", "addr:housenumber": "16", "addr:street": "RUE DE BEAUFRAIPONT", "addr:city": "CHENEE", "addr:postcode": "4032", "addr:country": "BE", "name": "Colruyt", "website": "https://www.colruyt.be/nl/colruyt-openingsuren/4125", "brand": "Colruyt", "brand:wikidata": "Q2363991", "nsi_id": "colruyt-27c1df"}, "geometry": {"type": "Point", "coordinates": [5.6127824, 50.6074402]}},
{"type": "Feature", "id": "p_QW87aqZIElIU97p3TxZE72Pec=", "properties": {"ref": "757", "@spider": "colruyt", "shop": "supermarket", "addr:housenumber": "17", "addr:street": "RUE SAINT GILLES", "addr:city": "CINEY", "addr:postcode": "5590", "addr:country": "BE", "name": "Colruyt", "website": "https://www.colruyt.be/nl/colruyt-openingsuren/3799", "brand": "Colruyt", "brand:wikidata": "Q2363991", "nsi_id": "colruyt-27c1df"}, "geometry": {"type": "Point", "coordinates": [5.1178994, 50.3073448]}},
{"type": "Feature", "id": "_9woviEqJC3UcCI6AGscH1PDpzU=", "properties": {"ref": "1003", "@spider": "colruyt", "shop": "supermarket", "addr:housenumber": "89", "addr:street": "GRAND'ROUTE", "addr:city": "CORBAIS", "addr:postcode": "1435", "addr:country": "BE", "name": "Colruyt", "website": "https://www.colruyt.be/nl/colruyt-openingsuren/4339", "brand": "Colruyt", "brand:wikidata": "Q2363991", "nsi_id": "colruyt-27c1df"}, "geometry": {"type": "Point", "coordinates": [4.6476326, 50.640163]}},
{"type": "Feature", "id": "ZjhpRmL-epnelJSC9fBZeX1SbOk=", "properties": {"ref": "2717", "@spider": "colruyt", "shop": "supermarket", "addr:housenumber": "154", "addr:street": "RUE DE TRAZEGNIES", "addr:city": "COURCELLES", "addr:postcode": "6180", "addr:country": "BE", "name": "Colruyt", "website": "https://www.colruyt.be/nl/colruyt-openingsuren/7345", "brand": "Colruyt", "brand:wikidata": "Q2363991", "nsi_id": "colruyt-27c1df"}, "geometry": {"type": "Point", "coordinates": [4.354385335, 50.462728708]}},
{"type": "Feature", "id": "DHeTImFjNVbj7wzbC5YG41HVaZ8=", "properties": {"ref": "864", "@spider": "colruyt", "shop": "supermarket", "addr:housenumber": "57", "addr:street": "PLACE DE CUESMES", "addr:city": "CUESMES", "addr:postcode": "7033", "addr:country": "BE", "name": "Colruyt", "website": "https://www.colruyt.be/nl/colruyt-openingsuren/4112", "brand": "Colruyt", "brand:wikidata": "Q2363991", "nsi_id": "colruyt-27c1df"}, "geometry": {"type": "Point", "coordinates": [3.9254186, 50.4366878]}},
{"type": "Feature", "id": "W5SnNMqjpxhfWPx6kUR0wcpWBp0=", "properties": {"ref": "646", "@spider": "colruyt", "shop": "supermarket", "addr:housenumber": "233", "addr:street": "CHAUSSEE DE BRUXELLES", "addr:city": "DAMPREMY", "addr:postcode": "6020", "addr:country": "BE", "name": "Colruyt", "website": "https://www.colruyt.be/nl/colruyt-openingsuren/3588", "brand": "Colruyt", "brand:wikidata": "Q2363991", "nsi_id": "colruyt-27c1df"}, "geometry": {"type": "Point", "coordinates": [4.4390739, 50.4379269]}},
{"type": "Feature", "id": "61jLBc_xtY2LPd3gvaxdrGvtGps=", "properties": {"ref": "654", "@spider": "colruyt", "shop": "supermarket", "addr:housenumber": "1", "addr:street": "GAMPELAEREDREEF", "addr:city": "DEINZE", "addr:postcode": "9800", "addr:country": "BE", "name": "Colruyt", "website": "https://www.colruyt.be/nl/colruyt-openingsuren/3600", "brand": "Colruyt", "brand:wikidata": "Q2363991", "nsi_id": "colruyt-27c1df"}, "geometry": {"type": "Point", "coordinates": [3.547323, 50.980767]}},
{"type": "Feature", "id": "odWxHCi8uzxK_c3IgEA3w2bO00c=", "properties": {"ref": "3490", "@spider": "colruyt", "shop": "supermarket", "addr:housenumber": "1", "addr:street": "GAMPELAEREDREEF", "addr:city": "DEINZE (ASTENE)", "addr:postcode": "9800", "addr:country": "BE", "name": "Colruyt", "website": "https://www.colruyt.be/nl/colruyt-openingsuren/8469", "brand": "Colruyt", "brand:wikidata": "Q2363991", "nsi_id": "colruyt-27c1df"}, "geometry": {"type": "Point", "coordinates": [3.548212646, 50.980750943]}},
{"type": "Feature", "id": "kscn1pjMMHN8aEeoLX7qvIOMBws=", "properties": {"ref": "700", "@spider": "colruyt", "shop": "supermarket", "addr:housenumber": "98", "addr:street": "OUDE VEST", "addr:city": "DENDERMONDE", "addr:postcode": "9200", "addr:country": "BE", "name": "Colruyt", "website": "https://www.colruyt.be/nl/colruyt-openingsuren/3671", "brand": "Colruyt", "brand:wikidata": "Q2363991", "nsi_id": "colruyt-27c1df"}, "geometry": {"type": "Point", "coordinates": [4.1029079, 51.029909]}},
{"type": "Feature", "id": "V5Ztm8qps84ZOA46mlJyjcBfm_Q=", "properties": {"ref": "489", "@spider": "colruyt", "shop": "supermarket", "addr:housenumber": "22", "addr:street": "EYENDIJKSTRAAT", "addr:city": "DEURNE (ANTWERPEN)", "addr:postcode": "2100", "addr:country": "BE", "name": "Colruyt", "website": "https://www.colruyt.be/nl/colruyt-openingsuren/3130", "brand": "Colruyt", "brand:wikidata": "Q2363991", "nsi_id": "colruyt-27c1df"}, "geometry": {"type": "Point", "coordinates": [4.4576518, 51.2215848]}},
{"type": "Feature", "id": "oPwhnH-m2iXhoWz_CZxMUHGZ3wc=", "properties": {"ref": "897", "@spider": "colruyt", "shop": "supermarket", "addr:housenumber": "57-A", "addr:street": "HERENTALSEBAAN", "addr:city": "DEURNE (ANTWERPEN)", "addr:postcode": "2100", "addr:country": "BE", "name": "Colruyt", "website": "https://www.colruyt.be/nl/colruyt-openingsuren/4150", "brand": "Colruyt", "brand:wikidata": "Q2363991", "nsi_id": "colruyt-27c1df"}, "geometry": {"type": "Point", "coordinates": [4.4551328, 51.2097984]}},
{"type": "Feature", "id": "A_hUQJlICbLdnimUhfmVYbCOeXU=", "properties": {"ref": "841", "@spider": "colruyt", "shop": "supermarket", "addr:housenumber": "72", "addr:street": "LEUVENSESTEENWEG", "addr:city": "DIEST", "addr:postcode": "3290", "addr:country": "BE", "name": "Colruyt", "website": "https://www.colruyt.be/nl/colruyt-openingsuren/4063", "brand": "Colruyt", "brand:wikidata": "Q2363991", "nsi_id": "colruyt-27c1df"}, "geometry": {"type": "Point", "coordinates": [5.044282, 50.9775359]}},
{"type": "Feature", "id": "b7aZxDvQdsrk7gQRe4YHEiqr4l8=", "properties": {"ref": "878", "@spider": "colruyt", "shop": "supermarket", "addr:housenumber": "1", "addr:street": "RIJKSWACHTSTRAAT", "addr:city": "DIKSMUIDE", "addr:postcode": "8600", "addr:country": "BE", "name": "Colruyt", "website": "https://www.colruyt.be/nl/colruyt-openingsuren/4126", "brand": "Colruyt", "brand:wikidata": "Q2363991", "nsi_id": "colruyt-27c1df"}, "geometry": {"type": "Point", "coordinates": [2.8711371, 51.0310068]}},
{"type": "Feature", "id": "OWIKD7DbuYL7CDcEO2ySFpSS7-8=", "properties": {"ref": "455", "@spider": "colruyt", "shop": "supermarket", "addr:housenumber": "170", "addr:street": "NINOOFSESTEENWEG", "addr:city": "DILBEEK", "addr:postcode": "1700", "addr:country": "BE", "name": "Colruyt", "website": "https://www.colruyt.be/nl/colruyt-openingsuren/3084", "brand": "Colruyt", "brand:wikidata": "Q2363991", "nsi_id": "colruyt-27c1df"}, "geometry": {"type": "Point", "coordinates": [4.2725792, 50.8446291]}},
{"type": "Feature", "id": "v_RRqRBq9V37-_23AFeNuVDx5lk=", "properties": {"ref": "1671", "@spider": "colruyt", "shop": "supermarket", "addr:housenumber": "355", "addr:street": "RUE SAINT JACQUES", "addr:city": "DINANT", "addr:postcode": "5500", "addr:country": "BE", "name": "Colruyt", "website": "https://www.colruyt.be/nl/colruyt-openingsuren/4324", "brand": "Colruyt", "brand:wikidata": "Q2363991", "nsi_id": "colruyt-27c1df"}, "geometry": {"type": "Point", "coordinates": [4.9498376, 50.2649342]}},
{"type": "Feature", "id": "7ZDo8mtiJ5sZFJSg_2CzIrH1I3Y=", "properties": {"ref": "871", "@spider": "colruyt", "shop": "supermarket", "addr:housenumber": "18", "addr:street": "ALBERT DEGANDTPLEIN", "addr:city": "DOTTENIJS", "addr:postcode": "7711", "addr:country": "BE", "name": "Colruyt", "website": "https://www.colruyt.be/nl/colruyt-openingsuren/4119", "brand": "Colruyt", "brand:wikidata": "Q2363991", "nsi_id": "colruyt-27c1df"}, "geometry": {"type": "Point", "coordinates": [3.30491, 50.72811]}},
{"type": "Feature", "id": "smHhw7laNvyMcJjLbCFYyOAYR64=", "properties": {"ref": "1004", "@spider": "colruyt", "shop": "supermarket", "addr:housenumber": "104", "addr:street": "RUE D'ELOUGES", "addr:city": "DOUR", "addr:postcode": "7370", "addr:country": "BE", "name": "Colruyt", "website": "https://www.colruyt.be/nl/colruyt-openingsuren/4348", "brand": "Colruyt", "brand:wikidata": "Q2363991", "nsi_id": "colruyt-27c1df"}, "geometry": {"type": "Point", "coordinates": [3.7687244, 50.3971312]}},
{"type": "Feature", "id": "8pS2zwZSr3ZY4dbUTPlqC6LwWuA=", "properties": {"ref": "676", "@spider": "colruyt", "shop": "supermarket", "addr:housenumber": "124", "addr:street": "HOVESSTRAAT", "addr:city": "EDINGEN", "addr:postcode": "7850", "addr:country": "BE", "name": "Colruyt", "website": "https://www.colruyt.be/nl/colruyt-openingsuren/3634", "brand": "Colruyt", "brand:wikidata": "Q2363991", "nsi_id": "colruyt-27c1df"}, "geometry": {"type": "Point", "coordinates": [4.0324806, 50.6906623]}},
{"type": "Feature", "id": "UqB49l69lE3wldfam1I7RvBqXls=", "properties": {"ref": "652", "@spider": "colruyt", "shop": "supermarket", "addr:housenumber": "24", "addr:street": "VROMBAUTSTRAAT", "addr:city": "EEKLO", "addr:postcode": "9900", "addr:country": "BE", "name": "Colruyt", "website": "https://www.colruyt.be/nl/colruyt-openingsuren/3598", "brand": "Colruyt", "brand:wikidata": "Q2363991", "nsi_id": "colruyt-27c1df"}, "geometry": {"type": "Point", "coordinates": [3.5738986, 51.1920426]}},
{"type": "Feature", "id": "JWUSnubL05XNbroXjj67vv4OTCk=", "properties": {"ref": "610", "@spider": "colruyt", "shop": "supermarket", "addr:housenumber": "122", "addr:street": "KLOOSTERSTRAAT", "addr:city": "EKEREN", "addr:postcode": "2180", "addr:country": "BE", "name": "Colruyt", "website": "https://www.colruyt.be/nl/colruyt-openingsuren/3523", "brand": "Colruyt", "brand:wikidata": "Q2363991", "nsi_id": "colruyt-27c1df"}, "geometry": {"type": "Point", "coordinates": [4.416315, 51.2835476]}},
{"type": "Feature", "id": "euJDsKgMNenkz2kcwiDQkQBmKjU=", "properties": {"ref": "879", "@spider": "colruyt", "shop": "supermarket", "addr:housenumber": "27", "addr:street": "RUE JEAN VINOIS", "addr:city": "ELLEZELLES", "addr:postcode": "7890", "addr:country": "BE", "name": "Colruyt", "website": "https://www.colruyt.be/nl/colruyt-openingsuren/4127", "brand": "Colruyt", "brand:wikidata": "Q2363991", "nsi_id": "colruyt-27c1df"}, "geometry": {"type": "Point", "coordinates": [3.6816472, 50.7325714]}},
{"type": "Feature", "id": "N_ZM4VmSx3DwZo6dUUfa5Zu4yyk=", "properties": {"ref": "2221", "@spider": "colruyt", "shop": "supermarket", "addr:housenumber": "159", "addr:street": "ROUTE DE CHARLEROI", "addr:city": "EPINOIS", "addr:postcode": "7134", "addr:country": "BE", "name": "Colruyt", "website": "https://www.colruyt.be/nl/colruyt-openingsuren/7014", "brand": "Colruyt", "brand:wikidata": "Q2363991", "nsi_id": "colruyt-27c1df"}, "geometry": {"type": "Point", "coordinates": [4.2016888, 50.4094313]}},
{"type": "Feature", "id": "06XoTtzjjf64BoaezbHIBPkmkw8=", "properties": {"ref": "2750", "@spider": "colruyt", "shop": "supermarket", "addr:housenumber": "32", "addr:street": "KREUPELSTRAAT", "addr:city": "EPPEGEM", "addr:postcode": "1980", "addr:country": "BE", "name": "Colruyt", "website": "https://www.colruyt.be/nl/colruyt-openingsuren/7459", "brand": "Colruyt", "brand:wikidata": "Q2363991", "nsi_id": "colruyt-27c1df"}, "geometry": {"type": "Point", "coordinates": [4.4553702, 50.9682734]}},
{"type": "Feature", "id": "6WvF46jwWUpFdjvvKsxx54nkx20=", "properties": {"ref": "1675", "@spider": "colruyt", "shop": "supermarket", "addr:housenumber": "300", "addr:street": "ROUTE DE MONS", "addr:city": "ERQUELINNES", "addr:postcode": "6560", "addr:country": "BE", "name": "Colruyt", "website": "https://www.colruyt.be/nl/colruyt-openingsuren/4416", "brand": "Colruyt", "brand:wikidata": "Q2363991", "nsi_id": "colruyt-27c1df"}, "geometry": {"type": "Point", "coordinates": [4.1273378, 50.3167872]}},
{"type": "Feature", "id": "QLZgvrmck-6OF3FWbNElIT1fe04=", "properties": {"ref": "471", "@spider": "colruyt", "shop": "supermarket", "addr:housenumber": "102", "addr:street": "GRAYSTRAAT", "addr:city": "ETTERBEEK", "addr:postcode": "1040", "addr:country": "BE", "name": "Colruyt", "website": "https://www.colruyt.be/nl/colruyt-openingsuren/3104", "brand": "Colruyt", "brand:wikidata": "Q2363991", "nsi_id": "colruyt-27c1df"}, "geometry": {"type": "Point", "coordinates": [4.3792536, 50.8342712]}},
{"type": "Feature", "id": "s1cX1mtlVaKd74uSmz_HikUnZQc=", "properties": {"ref": "2713", "@spider": "colruyt", "shop": "supermarket", "addr:housenumber": "56", "addr:street": "HERBESTHALER STRASSE", "addr:city": "EUPEN", "addr:postcode": "4700", "addr:country": "BE", "name": "Colruyt", "website": "https://www.colruyt.be/nl/colruyt-openingsuren/7318", "brand": "Colruyt", "brand:wikidata": "Q2363991", "nsi_id": "colruyt-27c1df"}, "geometry": {"type": "Point", "coordinates": [6.0235769, 50.634432]}},
{"type": "Feature", "id": "S20Rir43qVd2Du08WMZsJeBtfdc=", "properties": {"ref": "625", "@spider": "colruyt", "shop": "supermarket", "addr:housenumber": "42", "addr:street": "OUD-STRIJDERSLAAN", "addr:city": "EVERE", "addr:postcode": "1140", "addr:country": "BE", "name": "Colruyt", "website": "https://www.colruyt.be/nl/colruyt-openingsuren/3557", "brand": "Colruyt", "brand:wikidata": "Q2363991", "nsi_id": "colruyt-27c1df"}, "geometry": {"type": "Point", "coordinates": [4.414175, 50.8610141]}},
{"type": "Feature", "id": "Su9R3DdMV-wmoemZD0u-XGrtCnM=", "properties": {"ref": "635", "@spider": "colruyt", "shop": "supermarket", "addr:housenumber": "1031", "addr:street": "HAACHTSESTEENWEG", "addr:city": "EVERE", "addr:postcode": "1140", "addr:country": "BE", "name": "Colruyt", "website": "https://www.colruyt.be/nl/colruyt-openingsuren/3571", "brand": "Colruyt", "brand:wikidata": "Q2363991", "nsi_id": "colruyt-27c1df"}, "geometry": {"type": "Point", "coordinates": [4.4037583, 50.8750313]}},
{"type": "Feature", "id": "eXWmuUfFPXEi3zB1iowvPYEHd2E=", "properties": {"ref": "458", "@spider": "colruyt", "shop": "supermarket", "addr:housenumber": "45", "addr:street": "AVENUE DES MARTYRS", "addr:city": "FLERON", "addr:postcode": "4620", "addr:country": "BE", "name": "Colruyt", "website": "https://www.colruyt.be/nl/colruyt-openingsuren/3087", "brand": "Colruyt", "brand:wikidata": "Q2363991", "nsi_id": "colruyt-27c1df"}, "geometry": {"type": "Point", "coordinates": [5.6734336, 50.6158616]}},
{"type": "Feature", "id": "1UvdMzc8kv1YrHzt3f78EPr5sXg=", "properties": {"ref": "2220", "@spider": "colruyt", "shop": "supermarket", "addr:housenumber": "77", "addr:street": "RUE DE LA STATION", "addr:city": "FLORENVILLE", "addr:postcode": "6820", "addr:country": "BE", "name": "Colruyt", "website": "https://www.colruyt.be/nl/colruyt-openingsuren/2214", "brand": "Colruyt", "brand:wikidata": "Q2363991", "nsi_id": "colruyt-27c1df"}, "geometry": {"type": "Point", "coordinates": [5.328295, 49.703269]}},
{"type": "Feature", "id": "RocroNv9AqHIB-N86yPXnofGrCQ=", "properties": {"ref": "813", "@spider": "colruyt", "shop": "supermarket", "addr:housenumber": "4A", "addr:street": "ROUTE DE LESSINES", "addr:city": "FRASNES-LEZ-BUISSENA", "addr:postcode": "7911", "addr:country": "BE", "name": "Colruyt", "website": "https://www.colruyt.be/nl/colruyt-openingsuren/4012", "brand": "Colruyt", "brand:wikidata": "Q2363991", "nsi_id": "colruyt-27c1df"}, "geometry": {"type": "Point", "coordinates": [3.6305229, 50.673165]}},
{"type": "Feature", "id": "vvYDbgLuKWSIdCAUHpoQi9C2XDo=", "properties": {"ref": "848", "@spider": "colruyt", "shop": "supermarket", "addr:housenumber": "87", "addr:street": "ANTWERPSEWEG", "addr:city": "GEEL", "addr:postcode": "2440", "addr:country": "BE", "name": "Colruyt", "website": "https://www.colruyt.be/nl/colruyt-openingsuren/4087", "brand": "Colruyt", "brand:wikidata": "Q2363991", "nsi_id": "colruyt-27c1df"}, "geometry": {"type": "Point", "coordinates": [4.9546486, 51.1451825]}},
{"type": "Feature", "id": "2cbv0LNkTJCFgb3Xey1oDOMiQxw=", "properties": {"ref": "490", "@spider": "colruyt", "shop": "supermarket", "addr:housenumber": "6", "addr:street": "RUE DE LA SUCRERIE", "addr:city": "GEMBLOUX", "addr:postcode": "5030", "addr:country": "BE", "name": "Colruyt", "website": "https://www.colruyt.be/nl/colruyt-openingsuren/3132", "brand": "Colruyt", "brand:wikidata": "Q2363991", "nsi_id": "colruyt-27c1df"}, "geometry": {"type": "Point", "coordinates": [4.6946881, 50.5691404]}},
{"type": "Feature", "id": "VoHwYW3QHhYCSBveuHhHf0h3_Jk=", "properties": {"ref": "486", "@spider": "colruyt", "shop": "supermarket", "addr:housenumber": "225", "addr:street": "VENNESTRAAT", "addr:city": "GENK", "addr:postcode": "3600", "addr:country": "BE", "name": "Colruyt", "website": "https://www.colruyt.be/nl/colruyt-openingsuren/3125", "brand": "Colruyt", "brand:wikidata": "Q2363991", "nsi_id": "colruyt-27c1df"}, "geometry": {"type": "Point", "coordinates": [5.4905236, 50.9768261]}},
{"type": "Feature", "id": "8cCHINa_6pwzGHH0rJJHYKhuw7E=", "properties": {"ref": "3294", "@spider": "colruyt", "shop": "supermarket", "addr:housenumber": "214", "addr:street": "HASSELTWEG", "addr:city": "GENK", "addr:postcode": "3600", "addr:country": "BE", "name": "Colruyt", "website": "https://www.colruyt.be/nl/colruyt-openingsuren/8072", "brand": "Colruyt", "brand:wikidata": "Q2363991", "nsi_id": "colruyt-27c1df"}, "geometry": {"type": "Point", "coordinates": [5.452281015, 50.960417046]}},
{"type": "Feature", "id": "7nOpHqVXktRI_qMwYKfLRVoM4mw=", "properties": {"ref": "710", "@spider": "colruyt", "shop": "supermarket", "addr:housenumber": "197", "addr:street": "DRONGENSESTEENWEG", "addr:city": "GENT", "addr:postcode": "9000", "addr:country": "BE", "name": "Colruyt", "website": "https://www.colruyt.be/nl/colruyt-openingsuren/3686", "brand": "Colruyt", "brand:wikidata": "Q2363991", "nsi_id": "colruyt-27c1df"}, "geometry": {"type": "Point", "coordinates": [3.6942292, 51.055831]}},
{"type": "Feature", "id": "CX6OZTKGeJ7u-wfGCbSVZ9Cz2Sw=", "properties": {"ref": "967", "@spider": "colruyt", "shop": "supermarket", "addr:housenumber": "271", "addr:street": "CHEE DE PHILIPPEVILLE", "addr:city": "GERPINNES", "addr:postcode": "6280", "addr:country": "BE", "name": "Colruyt", "website": "https://www.colruyt.be/nl/colruyt-openingsuren/4254", "brand": "Colruyt", "brand:wikidata": "Q2363991", "nsi_id": "colruyt-27c1df"}, "geometry": {"type": "Point", "coordinates": [4.4765, 50.327984]}},
{"type": "Feature", "id": "bD6dt43bfWZsbib60ADXhZZaLNo=", "properties": {"ref": "695", "@spider": "colruyt", "shop": "supermarket", "addr:housenumber": "61", "addr:street": "CHAUSSEE IMPERIALE", "addr:city": "GILLY", "addr:postcode": "6060", "addr:country": "BE", "name": "Colruyt", "website": "https://www.colruyt.be/nl/colruyt-openingsuren/3662", "brand": "Colruyt", "brand:wikidata": "Q2363991", "nsi_id": "colruyt-27c1df"}, "geometry": {"type": "Point", "coordinates": [4.4826741, 50.423404]}},
{"type": "Feature", "id": "iFmgh6VLt6dkGJ8VhvchKZZGb8M=", "properties": {"ref": "709", "@spider": "colruyt", "shop": "supermarket", "addr:housenumber": "37", "addr:street": "RUE TAHON", "addr:city": "GOSSELIES", "addr:postcode": "6041", "addr:country": "BE", "name": "Colruyt", "website": "https://www.colruyt.be/nl/colruyt-openingsuren/3685", "brand": "Colruyt", "brand:wikidata": "Q2363991", "nsi_id": "colruyt-27c1df"}, "geometry": {"type": "Point", "coordinates": [4.4347989, 50.4599097]}},
{"type": "Feature", "id": "vfDDAetGIEll4X-5TJieQJFtOIM=", "properties": {"ref": "1709", "@spider": "colruyt", "shop": "supermarket", "addr:housenumber": "328", "addr:street": "CHAUSSEE DE WAVRE", "addr:city": "GREZ-DOICEAU", "addr:postcode": "1390", "addr:country": "BE", "name": "Colruyt", "website": "https://www.colruyt.be/nl/colruyt-openingsuren/4457", "brand": "Colruyt", "brand:wikidata": "Q2363991", "nsi_id": "colruyt-27c1df"}, "geometry": {"type": "Point", "coordinates": [4.659673, 50.737426]}},
{"type": "Feature", "id": "hZzs50iFFEiAbWZ563eNnyvJJ2g=", "properties": {"ref": "449", "@spider": "colruyt", "shop": "supermarket", "addr:housenumber": "248", "addr:street": "WOLVERTEMSESTEENWEG", "addr:city": "GRIMBERGEN", "addr:postcode": "1850", "addr:country": "BE", "name": "Colruyt", "website": "https://www.colruyt.be/nl/colruyt-openingsuren/3077", "brand": "Colruyt", "brand:wikidata": "Q2363991", "nsi_id": "colruyt-27c1df"}, "geometry": {"type": "Point", "coordinates": [4.3785596, 50.9356235]}},
{"type": "Feature", "id": "xFyuFSLzwY81eYdmuwifUXjZ6-8=", "properties": {"ref": "3061", "@spider": "colruyt", "shop": "supermarket", "addr:housenumber": "40", "addr:street": "LIERSE STEENWEG", "addr:city": "GROBBENDONK", "addr:postcode": "2280", "addr:country": "BE", "name": "Colruyt", "website": "https://www.colruyt.be/nl/colruyt-openingsuren/7896", "brand": "Colruyt", "brand:wikidata": "Q2363991", "nsi_id": "colruyt-27c1df"}, "geometry": {"type": "Point", "coordinates": [4.7387305, 51.1721094]}},
{"type": "Feature", "id": "OMdR4_L6nwOwx4U4f3xTmybEtNU=", "properties": {"ref": "868", "@spider": "colruyt", "shop": "supermarket", "addr:housenumber": "113", "addr:street": "STATIONSSTRAAT", "addr:city": "HAACHT", "addr:postcode": "3150", "addr:country": "BE", "name": "Colruyt", "website": "https://www.colruyt.be/nl/colruyt-openingsuren/4116", "brand": "Colruyt", "brand:wikidata": "Q2363991", "nsi_id": "colruyt-27c1df"}, "geometry": {"type": "Point", "coordinates": [4.6262825, 50.9732725]}},
{"type": "Feature", "id": "AQJiPalv7M7W7xI78aftyUukN2M=", "properties": {"ref": "904", "@spider": "colruyt", "shop": "supermarket", "addr:housenumber": "131", "addr:street": "HOOGSTRAAT", "addr:city": "HAALTERT", "addr:postcode": "9450", "addr:country": "BE", "name": "Colruyt", "website": "https://www.colruyt.be/nl/colruyt-openingsuren/4159", "brand": "Colruyt", "brand:wikidata": "Q2363991", "nsi_id": "colruyt-27c1df"}, "geometry": {"type": "Point", "coordinates": [4.0007549, 50.8957352]}},
{"type": "Feature", "id": "sknOrDc6HxwQG7clCr26BIAaYlg=", "properties": {"ref": "1010", "@spider": "colruyt", "shop": "supermarket", "addr:housenumber": "1", "addr:street": "PLACE COMMUNALE", "addr:city": "HACCOURT", "addr:postcode": "4684", "addr:country": "BE", "name": "Colruyt", "website": "https://www.colruyt.be/nl/colruyt-openingsuren/4360", "brand": "Colruyt", "brand:wikidata": "Q2363991", "nsi_id": "colruyt-27c1df"}, "geometry": {"type": "Point", "coordinates": [5.6692726, 50.7315769]}},
{"type": "Feature", "id": "GwQz1gI001JtN-Smva7kEIRjBzc=", "properties": {"ref": "604", "@spider": "colruyt", "shop": "supermarket", "addr:housenumber": "300", "addr:street": "EDINGENSESTEENWEG", "addr:city": "HALLE", "addr:postcode": "1500", "addr:country": "BE", "name": "Colruyt", "website": "https://www.colruyt.be/nl/colruyt-openingsuren/3515", "brand": "Colruyt", "brand:wikidata": "Q2363991", "nsi_id": "colruyt-27c1df"}, "geometry": {"type": "Point", "coordinates": [4.215961, 50.726975]}},
{"type": "Feature", "id": "aQ3fpXJ49TsdLLM6Z_I5QdnpkuM=", "properties": {"ref": "697", "@spider": "colruyt", "shop": "supermarket", "addr:housenumber": "91", "addr:street": "DAMSTRAAT", "addr:city": "HAMME (O.-VL.)", "addr:postcode": "9220", "addr:country": "BE", "name": "Colruyt", "website": "https://www.colruyt.be/nl/colruyt-openingsuren/3665", "brand": "Colruyt", "brand:wikidata": "Q2363991", "nsi_id": "colruyt-27c1df"}, "geometry": {"type": "Point", "coordinates": [4.1368574, 51.0883227]}},
{"type": "Feature", "id": "SlzI1twkfU6d7GMJEd4wARkZNMY=", "properties": {"ref": "773", "@spider": "colruyt", "shop": "supermarket", "addr:housenumber": "59", "addr:street": "RUE DE LANDEN", "addr:city": "HANNUT", "addr:postcode": "4280", "addr:country": "BE", "name": "Colruyt", "website": "https://www.colruyt.be/nl/colruyt-openingsuren/3834", "brand": "Colruyt", "brand:wikidata": "Q2363991", "nsi_id": "colruyt-27c1df"}, "geometry": {"type": "Point", "coordinates": [5.0820931, 50.6840043]}},
{"type": "Feature", "id": "v-83P2l89bZh0nmQKBF-f8uACko=", "properties": {"ref": "1670", "@spider": "colruyt", "shop": "supermarket", "addr:housenumber": "180", "addr:street": "STASEGEMSESTEENWEG", "addr:city": "HARELBEKE", "addr:postcode": "8530", "addr:country": "BE", "name": "Colruyt", "website": "https://www.colruyt.be/nl/colruyt-openingsuren/4275", "brand": "Colruyt", "brand:wikidata": "Q2363991", "nsi_id": "colruyt-27c1df"}, "geometry": {"type": "Point", "coordinates": [3.3110259, 50.8385885]}},
{"type": "Feature", "id": "edIA4gZ17qAOqNzHtONeH_sSl6c=", "properties": {"ref": "739", "@spider": "colruyt", "shop": "supermarket", "addr:housenumber": "36", "addr:street": "HENDRIK V. VELDEKESINGEL", "addr:city": "HASSELT", "addr:postcode": "3500", "addr:country": "BE", "name": "Colruyt", "website": "https://www.colruyt.be/nl/colruyt-openingsuren/3741", "brand": "Colruyt", "brand:wikidata": "Q2363991", "nsi_id": "colruyt-27c1df"}, "geometry": {"type": "Point", "coordinates": [5.3145603, 50.9284356]}},
{"type": "Feature", "id": "AM70XlXSGUXvYmcq-W2khBAs4sk=", "properties": {"ref": "2654", "@spider": "colruyt", "shop": "supermarket", "addr:housenumber": "17", "addr:street": "PEERDERBAAN", "addr:city": "HECHTEL-EKSEL", "addr:postcode": "3940", "addr:country": "BE", "name": "Colruyt", "website": "https://www.colruyt.be/nl/colruyt-openingsuren/7238", "brand": "Colruyt", "brand:wikidata": "Q2363991", "nsi_id": "colruyt-27c1df"}, "geometry": {"type": "Point", "coordinates": [5.3706213, 51.1254452]}},
{"type": "Feature", "id": "0H4vnaJqkgcbV92kIk1V6qmgN-w=", "properties": {"ref": "464", "@spider": "colruyt", "shop": "supermarket", "addr:housenumber": "40", "addr:street": "MECHELSESTEENWEG", "addr:city": "HEIST-OP-DEN-BERG", "addr:postcode": "2220", "addr:country": "BE", "name": "Colruyt", "website": "https://www.colruyt.be/nl/colruyt-openingsuren/3094", "brand": "Colruyt", "brand:wikidata": "Q2363991", "nsi_id": "colruyt-27c1df"}, "geometry": {"type": "Point", "coordinates": [4.700673, 51.0710339]}},
{"type": "Feature", "id": "Vc93gBtZyP0cmtAl9KZph0_6BJ0=", "properties": {"ref": "682", "@spider": "colruyt", "shop": "supermarket", "addr:housenumber": "596", "addr:street": "GROTE BAAN", "addr:city": "HELCHTEREN", "addr:postcode": "3530", "addr:country": "BE", "name": "Colruyt", "website": "https://www.colruyt.be/nl/colruyt-openingsuren/3645", "brand": "Colruyt", "brand:wikidata": "Q2363991", "nsi_id": "colruyt-27c1df"}, "geometry": {"type": "Point", "coordinates": [5.3770841, 51.0886949]}},
{"type": "Feature", "id": "lBzVXzQ8PvDCrIBh4jAD4ZzVJEw=", "properties": {"ref": "763", "@spider": "colruyt", "shop": "supermarket", "addr:housenumber": "42", "addr:street": "BELGIELAAN", "addr:city": "HERENTALS", "addr:postcode": "2200", "addr:country": "BE", "name": "Colruyt", "website": "https://www.colruyt.be/nl/colruyt-openingsuren/3816", "brand": "Colruyt", "brand:wikidata": "Q2363991", "nsi_id": "colruyt-27c1df"}, "geometry": {"type": "Point", "coordinates": [4.8325482, 51.1807329]}},
{"type": "Feature", "id": "nzzW361oTE2od3AAZhYKIWprTx4=", "properties": {"ref": "493", "@spider": "colruyt", "shop": "supermarket", "addr:housenumber": "17", "addr:street": "BOULEVARD ZENOBE GRAMME", "addr:city": "HERSTAL", "addr:postcode": "4040", "addr:country": "BE", "name": "Colruyt", "website": "https://www.colruyt.be/nl/colruyt-openingsuren/3135", "brand": "Colruyt", "brand:wikidata": "Q2363991", "nsi_id": "colruyt-27c1df"}, "geometry": {"type": "Point", "coordinates": [5.6286099, 50.6595847]}},
{"type": "Feature", "id": "Jfblgke72vU9KDvCGD9rO9COwC0=", "properties": {"ref": "881", "@spider": "colruyt", "shop": "supermarket", "addr:housenumber": "97", "addr:street": "AVENUE REINE ASTRID", "addr:city": "HEUSY", "addr:postcode": "4802", "addr:country": "BE", "name": "Colruyt", "website": "https://www.colruyt.be/nl/colruyt-openingsuren/4130", "brand": "Colruyt", "brand:wikidata": "Q2363991", "nsi_id": "colruyt-27c1df"}, "geometry": {"type": "Point", "coordinates": [5.883367, 50.5846188]}},
{"type": "Feature", "id": "JhneoYGJ5ow6GBptKGsNFfuugnA=", "properties": {"ref": "605", "@spider": "colruyt", "shop": "supermarket", "addr:housenumber": "71", "addr:street": "GROENVELDSTRAAT", "addr:city": "HEVERLEE", "addr:postcode": "3001", "addr:country": "BE", "name": "Colruyt", "website": "https://www.colruyt.be/nl/colruyt-openingsuren/3516", "brand": "Colruyt", "brand:wikidata": "Q2363991", "nsi_id": "colruyt-27c1df"}, "geometry": {"type": "Point", "coordinates": [4.6844635, 50.87156]}},
{"type": "Feature", "id": "Ew0i0v_HG7uZ-VYHOIaRCcQYbPc=", "properties": {"ref": "693", "@spider": "colruyt", "shop": "supermarket", "addr:housenumber": "777", "addr:street": "SINT-BERNARDSESTEENWEG", "addr:city": "HOBOKEN (ANTWERPEN)", "addr:postcode": "2660", "addr:country": "BE", "name": "Colruyt", "website": "https://www.colruyt.be/nl/colruyt-openingsuren/3660", "brand": "Colruyt", "brand:wikidata": "Q2363991", "nsi_id": "colruyt-27c1df"}, "geometry": {"type": "Point", "coordinates": [4.3645575, 51.1713424]}},
{"type": "Feature", "id": "4xywtEG24yTd9njC4Nrh7aVI-SY=", "properties": {"ref": "921", "@spider": "colruyt", "shop": "supermarket", "addr:housenumber": "88", "addr:street": "IEPERSTRAAT", "addr:city": "HOOGLEDE", "addr:postcode": "8830", "addr:country": "BE", "name": "Colruyt", "website": "https://www.colruyt.be/nl/colruyt-openingsuren/4189", "brand": "Colruyt", "brand:wikidata": "Q2363991", "nsi_id": "colruyt-27c1df"}, "geometry": {"type": "Point", "coordinates": [3.0770433, 50.9748998]}},
{"type": "Feature", "id": "xIzNDpueJPPCyFlIOiONgzC1ZEI=", "properties": {"ref": "898", "@spider": "colruyt", "shop": "supermarket", "addr:housenumber": "20A", "addr:street": "SINT LENAARTSEWEG", "addr:city": "HOOGSTRATEN", "addr:postcode": "2320", "addr:country": "BE", "name": "Colruyt", "website": "https://www.colruyt.be/nl/colruyt-openingsuren/4151", "brand": "Colruyt", "brand:wikidata": "Q2363991", "nsi_id": "colruyt-27c1df"}, "geometry": {"type": "Point", "coordinates": [4.7519294, 51.3904018]}},
{"type": "Feature", "id": "VrQnOQT0bg2YTH7OIeXkkkBwz4Q=", "properties": {"ref": "491", "@spider": "colruyt", "shop": "supermarket", "addr:housenumber": "10", "addr:street": "RIJSELSEPOORT", "addr:city": "IEPER", "addr:postcode": "8900", "addr:country": "BE", "name": "Colruyt", "website": "https://www.colruyt.be/nl/colruyt-openingsuren/3133", "brand": "Colruyt", "brand:wikidata": "Q2363991", "nsi_id": "colruyt-27c1df"}, "geometry": {"type": "Point", "coordinates": [2.8860114, 50.8414791]}},
{"type": "Feature", "id": "f4Z-LEyHNPlfZnvgv0Jg_TmJo6s=", "properties": {"ref": "779", "@spider": "colruyt", "shop": "supermarket", "addr:housenumber": "119", "addr:street": "NEDERWEG", "addr:city": "IZEGEM", "addr:postcode": "8870", "addr:country": "BE", "name": "Colruyt", "website": "https://www.colruyt.be/nl/colruyt-openingsuren/3844", "brand": "Colruyt", "brand:wikidata": "Q2363991", "nsi_id": "colruyt-27c1df"}, "geometry": {"type": "Point", "coordinates": [3.2037429, 50.9224373]}},
{"type": "Feature", "id": "kMfxubzQyXbtXgjgPPxpCWyoWLY=", "properties": {"ref": "1710", "@spider": "colruyt", "shop": "supermarket", "addr:housenumber": "477", "addr:street": "CHAUSSEE DE LIEGE", "addr:city": "JAMBES", "addr:postcode": "5100", "addr:country": "BE", "name": "Colruyt", "website": "https://www.colruyt.be/nl/colruyt-openingsuren/4465", "brand": "Colruyt", "brand:wikidata": "Q2363991", "nsi_id": "colruyt-27c1df"}, "geometry": {"type": "Point", "coordinates": [4.897115, 50.464704]}},
{"type": "Feature", "id": "BuuzlO3jrp7ZdE8uqA8kTAyAoN8=", "properties": {"ref": "885", "@spider": "colruyt", "shop": "supermarket", "addr:housenumber": "510", "addr:street": "AVENUE WILSON", "addr:city": "JEMAPPES", "addr:postcode": "7012", "addr:country": "BE", "name": "Colruyt", "website": "https://www.colruyt.be/nl/colruyt-openingsuren/4136", "brand": "Colruyt", "brand:wikidata": "Q2363991", "nsi_id": "colruyt-27c1df"}, "geometry": {"type": "Point", "coordinates": [3.9033565, 50.4484959]}},
{"type": "Feature", "id": "e4-5SKDfog91Y_qjKSzno6OVbhk=", "properties": {"ref": "645", "@spider": "colruyt", "shop": "supermarket", "addr:housenumber": "2", "addr:street": "RUE DU BIEF", "addr:city": "JEMEPPE-SUR-MEUSE", "addr:postcode": "4101", "addr:country": "BE", "name": "Colruyt", "website": "https://www.colruyt.be/nl/colruyt-openingsuren/3587", "brand": "Colruyt", "brand:wikidata": "Q2363991", "nsi_id": "colruyt-27c1df"}, "geometry": {"type": "Point", "coordinates": [5.4991626, 50.6181582]}},
{"type": "Feature", "id": "1wpWLJdQCxq5-CszEYTC8RZAXkA=", "properties": {"ref": "457", "@spider": "colruyt", "shop": "supermarket", "addr:housenumber": "39", "addr:street": "CHAUSSEE DE CHARLEROI", "addr:city": "JEMEPPE-SUR-SAMBRE", "addr:postcode": "5190", "addr:country": "BE", "name": "Colruyt", "website": "https://www.colruyt.be/nl/colruyt-openingsuren/3086", "brand": "Colruyt", "brand:wikidata": "Q2363991", "nsi_id": "colruyt-27c1df"}, "geometry": {"type": "Point", "coordinates": [4.6427713, 50.4555498]}},
{"type": "Feature", "id": "AMd4iH0QpoWLMZFTgwVWubLI_c0=", "properties": {"ref": "612", "@spider": "colruyt", "shop": "supermarket", "addr:housenumber": "511B", "addr:street": "LEOPOLD I STRAAT", "addr:city": "JETTE", "addr:postcode": "1090", "addr:country": "BE", "name": "Colruyt", "website": "https://www.colruyt.be/nl/colruyt-openingsuren/3525", "brand": "Colruyt", "brand:wikidata": "Q2363991", "nsi_id": "colruyt-27c1df"}, "geometry": {"type": "Point", "coordinates": [4.3278922, 50.873263]}},
{"type": "Feature", "id": "61G0DKXB1Ttme2TYW6nIoetfRYo=", "properties": {"ref": "928", "@spider": "colruyt", "shop": "supermarket", "addr:housenumber": "36", "addr:street": "RUE DE PIETRAIN", "addr:city": "JODOIGNE", "addr:postcode": "1370", "addr:country": "BE", "name": "Colruyt", "website": "https://www.colruyt.be/nl/colruyt-openingsuren/4198", "brand": "Colruyt", "brand:wikidata": "Q2363991", "nsi_id": "colruyt-27c1df"}, "geometry": {"type": "Point", "coordinates": [4.8762453, 50.7243166]}},
{"type": "Feature", "id": "zX6hrgJqydlhEQZUUHK6qnEL_3w=", "properties": {"ref": "511", "@spider": "colruyt", "shop": "supermarket", "addr:housenumber": "186", "addr:street": "KAPELLENSTEENWEG", "addr:city": "KALMTHOUT", "addr:postcode": "2920", "addr:country": "BE", "name": "Colruyt", "website": "https://www.colruyt.be/nl/colruyt-openingsuren/3200", "brand": "Colruyt", "brand:wikidata": "Q2363991", "nsi_id": "colruyt-27c1df"}, "geometry": {"type": "Point", "coordinates": [4.4750611, 51.3817135]}},
{"type": "Feature", "id": "VJ2pdAQG9PrVIyxURZ6Sw9vz28M=", "properties": {"ref": "922", "@spider": "colruyt", "shop": "supermarket", "addr:housenumber": "75", "addr:street": "PUTSEBAAN", "addr:city": "KEERBERGEN", "addr:postcode": "3140", "addr:country": "BE", "name": "Colruyt", "website": "https://www.colruyt.be/nl/colruyt-openingsuren/4190", "brand": "Colruyt", "brand:wikidata": "Q2363991", "nsi_id": "colruyt-27c1df"}, "geometry": {"type": "Point", "coordinates": [4.6346503, 51.0072017]}},
{"type": "Feature", "id": "wRMqhoaEBirVLmAs1n7BI9vHMjc=", "properties": {"ref": "440", "@spider": "colruyt", "shop": "supermarket", "addr:housenumber": "237", "addr:street": "TIENSESTEENWEG", "addr:city": "KESSEL-LO", "addr:postcode": "3010", "addr:country": "BE", "name": "Colruyt", "website": "https://www.colruyt.be/nl/colruyt-openingsuren/3062", "brand": "Colruyt", "brand:wikidata": "Q2363991", "nsi_id": "colruyt-27c1df"}, "geometry": {"type": "Point", "coordinates": [4.7267201, 50.8708744]}},
{"type": "Feature", "id": "T3uT_1moMP9LqwTah9-DTN7Ikfk=", "properties": {"ref": "768", "@spider": "colruyt", "shop": "supermarket", "addr:housenumber": "191", "addr:street": "NATIENLAAN", "addr:city": "KNOKKE", "addr:postcode": "8300", "addr:country": "BE", "name": "Colruyt", "website": "https://www.colruyt.be/nl/colruyt-openingsuren/3829", "brand": "Colruyt", "brand:wikidata": "Q2363991", "nsi_id": "colruyt-27c1df"}, "geometry": {"type": "Point", "coordinates": [3.2955048, 51.3278015]}},
{"type": "Feature", "id": "OGYBAuiwZzbzpTSDeApBOQcLdbk=", "properties": {"ref": "873", "@spider": "colruyt", "shop": "supermarket", "addr:housenumber": "39", "addr:street": "ZEELAAN", "addr:city": "KOKSIJDE", "addr:postcode": "8670", "addr:country": "BE", "name": "Colruyt", "website": "https://www.colruyt.be/nl/colruyt-openingsuren/4121", "brand": "Colruyt", "brand:wikidata": "Q2363991", "nsi_id": "colruyt-27c1df"}, "geometry": {"type": "Point", "coordinates": [2.6492578, 51.1061464]}},
{"type": "Feature", "id": "dP7CzVp1sjRqDpX74tV48XeqT58=", "properties": {"ref": "460", "@spider": "colruyt", "shop": "supermarket", "addr:housenumber": "164", "addr:street": "WERVIKSESTEENWEG", "addr:city": "KOMEN", "addr:postcode": "7780", "addr:country": "BE", "name": "Colruyt", "website": "https://www.colruyt.be/nl/colruyt-openingsuren/3089", "brand": "Colruyt", "brand:wikidata": "Q2363991", "nsi_id": "colruyt-27c1df"}, "geometry": {"type": "Point", "coordinates": [3.0126034, 50.774577]}},
{"type": "Feature", "id": "262juMJeUeGHvTMlUUaBAdkf1RU=", "properties": {"ref": "487", "@spider": "colruyt", "shop": "supermarket", "addr:housenumber": "171", "addr:street": "OOSTSTATIESTRAAT", "addr:city": "KONTICH", "addr:postcode": "2550", "addr:country": "BE", "name": "Colruyt", "website": "https://www.colruyt.be/nl/colruyt-openingsuren/3127", "brand": "Colruyt", "brand:wikidata": "Q2363991", "nsi_id": "colruyt-27c1df"}, "geometry": {"type": "Point", "coordinates": [4.4563914, 51.1348931]}},
{"type": "Feature", "id": "HgPINtsf5AezbcFRhWkxqEF_iYg=", "properties": {"ref": "596", "@spider": "colruyt", "shop": "supermarket", "addr:housenumber": "2", "addr:street": "SINT-SEBASTIAANSLAAN", "addr:city": "KORTRIJK", "addr:postcode": "8500", "addr:country": "BE", "name": "Colruyt", "website": "https://www.colruyt.be/nl/colruyt-openingsuren/3492", "brand": "Colruyt", "brand:wikidata": "Q2363991", "nsi_id": "colruyt-27c1df"}, "geometry": {"type": "Point", "coordinates": [3.2605202, 50.8230093]}},
{"type": "Feature", "id": "TxqxH9powuHzj7jd2iIsf6B-xZA=", "properties": {"ref": "597", "@spider": "colruyt", "shop": "supermarket", "addr:housenumber": "9F", "addr:street": "FERDINAND KINNENSTRAAT", "addr:city": "KRAAINEM", "addr:postcode": "1950", "addr:country": "BE", "name": "Colruyt", "website": "https://www.colruyt.be/nl/colruyt-openingsuren/3494", "brand": "Colruyt", "brand:wikidata": "Q2363991", "nsi_id": "colruyt-27c1df"}, "geometry": {"type": "Point", "coordinates": [4.4714531, 50.8438738]}},
{"type": "Feature", "id": "ShK4rYQU7_w1w7CZUvXAaQc8rB4=", "properties": {"ref": "966", "@spider": "colruyt", "shop": "supermarket", "addr:housenumber": "9", "addr:street": "KLEINE RINGLAAN", "addr:city": "KUURNE", "addr:postcode": "8520", "addr:country": "BE", "name": "Colruyt", "website": "https://www.colruyt.be/nl/colruyt-openingsuren/4253", "brand": "Colruyt", "brand:wikidata": "Q2363991", "nsi_id": "colruyt-27c1df"}, "geometry": {"type": "Point", "coordinates": [3.2664742, 50.8465631]}},
{"type": "Feature", "id": "ywrmJL9yKb3CUulHH1qEfPLwZr0=", "properties": {"ref": "701", "@spider": "colruyt", "shop": "supermarket", "addr:housenumber": "21", "addr:street": "RUE DU GAZOMETRE", "addr:city": "LA LOUVIERE", "addr:postcode": "7100", "addr:country": "BE", "name": "Colruyt", "website": "https://www.colruyt.be/nl/colruyt-openingsuren/3672", "brand": "Colruyt", "brand:wikidata": "Q2363991", "nsi_id": "colruyt-27c1df"}, "geometry": {"type": "Point", "coordinates": [4.1818611, 50.4739164]}},
{"type": "Feature", "id": "Xu8vI3qDj0ER2poPUgTZgFNeOpw=", "properties": {"ref": "2623", "@spider": "colruyt", "shop": "supermarket", "addr:housenumber": "30", "addr:street": "RUE DE BAUME-MARPENT", "addr:city": "LA LOUVIERE", "addr:postcode": "7100", "addr:country": "BE", "name": "Colruyt", "website": "https://www.colruyt.be/nl/colruyt-openingsuren/7142", "brand": "Colruyt", "brand:wikidata": "Q2363991", "nsi_id": "colruyt-27c1df"}, "geometry": {"type": "Point", "coordinates": [4.2077160714, 50.4639283254]}},
{"type": "Feature", "id": "z_dAXihbt60NCm6nSRKLbaW-PMo=", "properties": {"ref": "557", "@spider": "colruyt", "shop": "supermarket", "addr:housenumber": "7", "addr:street": "MAURICE DE MOORPLEIN", "addr:city": "LAKEN", "addr:postcode": "1020", "addr:country": "BE", "name": "Colruyt", "website": "https://www.colruyt.be/nl/colruyt-openingsuren/3425", "brand": "Colruyt", "brand:wikidata": "Q2363991", "nsi_id": "colruyt-27c1df"}, "geometry": {"type": "Point", "coordinates": [4.3401937, 50.8714917]}},
{"type": "Feature", "id": "gnU3ydZWeExdgXjWQ5nRzndxAh0=", "properties": {"ref": "900", "@spider": "colruyt", "shop": "supermarket", "addr:housenumber": "21", "addr:street": "FABRIEKSTRAAT", "addr:city": "LANDEN", "addr:postcode": "3400", "addr:country": "BE", "name": "Colruyt", "website": "https://www.colruyt.be/nl/colruyt-openingsuren/4153", "brand": "Colruyt", "brand:wikidata": "Q2363991", "nsi_id": "colruyt-27c1df"}, "geometry": {"type": "Point", "coordinates": [5.087942, 50.7495283]}},
{"type": "Feature", "id": "7axzmc9FlpqWWVKShZaAdPXOvpA=", "properties": {"ref": "623", "@spider": "colruyt", "shop": "supermarket", "addr:housenumber": "110", "addr:street": "BRUSSELSESTEENWEG", "addr:city": "LEBBEKE", "addr:postcode": "9280", "addr:country": "BE", "name": "Colruyt", "website": "https://www.colruyt.be/nl/colruyt-openingsuren/3549", "brand": "Colruyt", "brand:wikidata": "Q2363991", "nsi_id": "colruyt-27c1df"}, "geometry": {"type": "Point", "coordinates": [4.1326451, 50.9937725]}},
{"type": "Feature", "id": "LWnCQ8Jnuoz3eyqp5fYGQkE1XUs=", "properties": {"ref": "780", "@spider": "colruyt", "shop": "supermarket", "addr:housenumber": "44", "addr:street": "HOOGSTRAAT", "addr:city": "LEDE", "addr:postcode": "9340", "addr:country": "BE", "name": "Colruyt", "website": "https://www.colruyt.be/nl/colruyt-openingsuren/3845", "brand": "Colruyt", "brand:wikidata": "Q2363991", "nsi_id": "colruyt-27c1df"}, "geometry": {"type": "Point", "coordinates": [3.9772019, 50.9633075]}},
{"type": "Feature", "id": "MIIUXDUvsxy7Tj5TWP_YGs38E9k=", "properties": {"ref": "657", "@spider": "colruyt", "shop": "supermarket", "addr:housenumber": "69", "addr:street": "EDMOND VAN HOOREBEKESTR", "addr:city": "LEDEBERG", "addr:postcode": "9050", "addr:country": "BE", "name": "Colruyt", "website": "https://www.colruyt.be/nl/colruyt-openingsuren/3606", "brand": "Colruyt", "brand:wikidata": "Q2363991", "nsi_id": "colruyt-27c1df"}, "geometry": {"type": "Point", "coordinates": [3.7473294, 51.0356701]}},
{"type": "Feature", "id": "KKdCTuBGVk-ZOuu7r0JMR9ALA1g=", "properties": {"ref": "684", "@spider": "colruyt", "shop": "supermarket", "addr:housenumber": "2", "addr:street": "LOMBAARDENSTRAAT", "addr:city": "LEUVEN", "addr:postcode": "3000", "addr:country": "BE", "name": "Colruyt", "website": "https://www.colruyt.be/nl/colruyt-openingsuren/3650", "brand": "Colruyt", "brand:wikidata": "Q2363991", "nsi_id": "colruyt-27c1df"}, "geometry": {"type": "Point", "coordinates": [4.7013392, 50.8840921]}},
{"type": "Feature", "id": "qCa1WeXHwVkGDVwUyDalWGXDY9Y=", "properties": {"ref": "740", "@spider": "colruyt", "shop": "supermarket", "addr:housenumber": "56", "addr:street": "RUE DE CONDE", "addr:city": "LEUZE-EN-HAINAUT", "addr:postcode": "7900", "addr:country": "BE", "name": "Colruyt", "website": "https://www.colruyt.be/nl/colruyt-openingsuren/3743", "brand": "Colruyt", "brand:wikidata": "Q2363991", "nsi_id": "colruyt-27c1df"}, "geometry": {"type": "Point", "coordinates": [3.6176676, 50.595859]}},
{"type": "Feature", "id": "PUIGf8yL8hu74PuYOW-npmgKCsM=", "properties": {"ref": "485", "@spider": "colruyt", "shop": "supermarket", "addr:housenumber": "65", "addr:street": "KLEEMPUTTENSTRAAT", "addr:city": "LIEDEKERKE", "addr:postcode": "1770", "addr:country": "BE", "name": "Colruyt", "website": "https://www.colruyt.be/nl/colruyt-openingsuren/3123", "brand": "Colruyt", "brand:wikidata": "Q2363991", "nsi_id": "colruyt-27c1df"}, "geometry": {"type": "Point", "coordinates": [4.0915535, 50.8713644]}},
{"type": "Feature", "id": "s5gm5RxaTo1g36C-vFYcfmWNsvU=", "properties": {"ref": "560", "@spider": "colruyt", "shop": "supermarket", "addr:housenumber": "32", "addr:street": "BLD DE LA CONSTITUTION", "addr:city": "LIEGE 2", "addr:postcode": "4020", "addr:country": "BE", "name": "Colruyt", "website": "https://www.colruyt.be/nl/colruyt-openingsuren/3435", "brand": "Colruyt", "brand:wikidata": "Q2363991", "nsi_id": "colruyt-27c1df"}, "geometry": {"type": "Point", "coordinates": [5.5845517, 50.6431965]}},
{"type": "Feature", "id": "Z9DxqHwkF8KY8qfuRC4PgqB_How=", "properties": {"ref": "699", "@spider": "colruyt", "shop": "supermarket", "addr:housenumber": "235", "addr:street": "RUE GRETRY", "addr:city": "LIEGE 2", "addr:postcode": "4020", "addr:country": "BE", "name": "Colruyt", "website": "https://www.colruyt.be/nl/colruyt-openingsuren/3670", "brand": "Colruyt", "brand:wikidata": "Q2363991", "nsi_id": "colruyt-27c1df"}, "geometry": {"type": "Point", "coordinates": [5.586252, 50.630339]}},
{"type": "Feature", "id": "v0X7YrIBNNtybpvpHozlqgcNTdY=", "properties": {"ref": "456", "@spider": "colruyt", "shop": "supermarket", "addr:housenumber": "344", "addr:street": "ANTWERPSESTEENWEG", "addr:city": "LIER", "addr:postcode": "2500", "addr:country": "BE", "name": "Colruyt", "website": "https://www.colruyt.be/nl/colruyt-openingsuren/3085", "brand": "Colruyt", "brand:wikidata": "Q2363991", "nsi_id": "colruyt-27c1df"}, "geometry": {"type": "Point", "coordinates": [4.5404706, 51.1462901]}},
{"type": "Feature", "id": "OTffFD0wrBDhq6wwWnyrUPEofNA=", "properties": {"ref": "508", "@spider": "colruyt", "shop": "supermarket", "addr:housenumber": "44-46", "addr:street": "ANTWERPSE STEENWEG", "addr:city": "LOCHRISTI", "addr:postcode": "9080", "addr:country": "BE", "name": "Colruyt", "website": "https://www.colruyt.be/nl/colruyt-openingsuren/3180", "brand": "Colruyt", "brand:wikidata": "Q2363991", "nsi_id": "colruyt-27c1df"}, "geometry": {"type": "Point", "coordinates": [3.815325, 51.09245]}},
{"type": "Feature", "id": "sYF1GvIxyxWO5ZcbvOB_Fh39WvE=", "properties": {"ref": "924", "@spider": "colruyt", "shop": "supermarket", "addr:housenumber": "22", "addr:street": "GENTSE STEENWEG", "addr:city": "LOKEREN", "addr:postcode": "9160", "addr:country": "BE", "name": "Colruyt", "website": "https://www.colruyt.be/nl/colruyt-openingsuren/4192", "brand": "Colruyt", "brand:wikidata": "Q2363991", "nsi_id": "colruyt-27c1df"}, "geometry": {"type": "Point", "coordinates": [3.9615043, 51.1115104]}},
{"type": "Feature", "id": "yYimCt18z90_XCzoOYXDsZO5POI=", "properties": {"ref": "793", "@spider": "colruyt", "shop": "supermarket", "addr:housenumber": "37", "addr:street": "KONING LEOPOLDLAAN", "addr:city": "LOMMEL", "addr:postcode": "3920", "addr:country": "BE", "name": "Colruyt", "website": "https://www.colruyt.be/nl/colruyt-openingsuren/3872", "brand": "Colruyt", "brand:wikidata": "Q2363991", "nsi_id": "colruyt-27c1df"}, "geometry": {"type": "Point", "coordinates": [5.3189089, 51.2287681]}},
{"type": "Feature", "id": "yhSInT7QX43yr-HxhF3mgyRugCk=", "properties": {"ref": "462", "@spider": "colruyt", "shop": "supermarket", "addr:housenumber": "39", "addr:street": "MOLENSTRAAT", "addr:city": "LONDERZEEL", "addr:postcode": "1840", "addr:country": "BE", "name": "Colruyt", "website": "https://www.colruyt.be/nl/colruyt-openingsuren/3092", "brand": "Colruyt", "brand:wikidata": "Q2363991", "nsi_id": "colruyt-27c1df"}, "geometry": {"type": "Point", "coordinates": [4.2998892, 51.0039916]}},
{"type": "Feature", "id": "MEJkY4iFWkO_tEKMXW-mPvOBAUo=", "properties": {"ref": "1679", "@spider": "colruyt", "shop": "supermarket", "addr:housenumber": "5", "addr:street": "BOULEVARD F W RAIFFEISEN", "addr:city": "LUXEMBOURG", "addr:postcode": "2411", "addr:country": "LU", "name": "Colruyt", "website": "https://www.colruyt.be/nl/colruyt-openingsuren/4462", "brand": "Colruyt", "brand:wikidata": "Q2363991", "nsi_id": "colruyt-27c1df"}, "geometry": {"type": "Point", "coordinates": [6.1191648245, 49.5858343914]}},
{"type": "Feature", "id": "2Fzrll_PwWii7ZkJ28uUQIGpVOk=", "properties": {"ref": "892", "@spider": "colruyt", "shop": "supermarket", "addr:housenumber": "9", "addr:street": "KLOOSTERBEMPDEN", "addr:city": "MAASEIK", "addr:postcode": "3680", "addr:country": "BE", "name": "Colruyt", "website": "https://www.colruyt.be/nl/colruyt-openingsuren/4145", "brand": "Colruyt", "brand:wikidata": "Q2363991", "nsi_id": "colruyt-27c1df"}, "geometry": {"type": "Point", "coordinates": [5.78327, 51.09585]}},
{"type": "Feature", "id": "TgVYyI1gaKaWkXBYJQ5BJ-ccTJM=", "properties": {"ref": "798", "@spider": "colruyt", "shop": "supermarket", "addr:housenumber": "2", "addr:street": "KONING LEOPOLDLAAN", "addr:city": "MALDEGEM", "addr:postcode": "9990", "addr:country": "BE", "name": "Colruyt", "website": "https://www.colruyt.be/nl/colruyt-openingsuren/3886", "brand": "Colruyt", "brand:wikidata": "Q2363991", "nsi_id": "colruyt-27c1df"}, "geometry": {"type": "Point", "coordinates": [3.4523249, 51.2037779]}},
{"type": "Feature", "id": "Uz3DaT5zQ50T0JQST5pJYOrzRWY=", "properties": {"ref": "805", "@spider": "colruyt", "shop": "supermarket", "addr:housenumber": "2", "addr:street": "AVENUE DES ALLIES", "addr:city": "MALMEDY", "addr:postcode": "4960", "addr:country": "BE", "name": "Colruyt", "website": "https://www.colruyt.be/nl/colruyt-openingsuren/3905", "brand": "Colruyt", "brand:wikidata": "Q2363991", "nsi_id": "colruyt-27c1df"}, "geometry": {"type": "Point", "coordinates": [6.0223238, 50.424853]}},
{"type": "Feature", "id": "ZatbIFmfw3pE4xve2-BXJNfQWZk=", "properties": {"ref": "771", "@spider": "colruyt", "shop": "supermarket", "addr:housenumber": "264", "addr:street": "CHAUSSEE DE NAMUR", "addr:city": "MARBAIS (BR.W.)", "addr:postcode": "1495", "addr:country": "BE", "name": "Colruyt", "website": "https://www.colruyt.be/nl/colruyt-openingsuren/3832", "brand": "Colruyt", "brand:wikidata": "Q2363991", "nsi_id": "colruyt-27c1df"}, "geometry": {"type": "Point", "coordinates": [4.5340424, 50.5728433]}},
{"type": "Feature", "id": "rLOpfW09zYHactjxhULzsP5oAYE=", "properties": {"ref": "494", "@spider": "colruyt", "shop": "supermarket", "addr:housenumber": "10", "addr:street": "VIEILLE ROUTE DE LIEGE", "addr:city": "MARCHE-EN-FAMENNE", "addr:postcode": "6900", "addr:country": "BE", "name": "Colruyt", "website": "https://www.colruyt.be/nl/colruyt-openingsuren/3136", "brand": "Colruyt", "brand:wikidata": "Q2363991", "nsi_id": "colruyt-27c1df"}, "geometry": {"type": "Point", "coordinates": [5.3433693, 50.2316203]}},
{"type": "Feature", "id": "dRICZF6SSQPR7YqPLlk3oV6bGmw=", "properties": {"ref": "512", "@spider": "colruyt", "shop": "supermarket", "addr:housenumber": "43", "addr:street": "RUE LIEUTEN.GEN.GILLAIN", "addr:city": "MARCHIENNE-AU-PONT", "addr:postcode": "6030", "addr:country": "BE", "name": "Colruyt", "website": "https://www.colruyt.be/nl/colruyt-openingsuren/3201", "brand": "Colruyt", "brand:wikidata": "Q2363991", "nsi_id": "colruyt-27c1df"}, "geometry": {"type": "Point", "coordinates": [4.3930077553, 50.4090782096]}},
{"type": "Feature", "id": "4AYSChp85fbIiD0yN_PFx3f3_-8=", "properties": {"ref": "708", "@spider": "colruyt", "shop": "supermarket", "addr:housenumber": "16", "addr:street": "RUE DU GRAND PONT", "addr:city": "MARCINELLE", "addr:postcode": "6001", "addr:country": "BE", "name": "Colruyt", "website": "https://www.colruyt.be/nl/colruyt-openingsuren/3683", "brand": "Colruyt", "brand:wikidata": "Q2363991", "nsi_id": "colruyt-27c1df"}, "geometry": {"type": "Point", "coordinates": [4.4471025, 50.3983485]}},
{"type": "Feature", "id": "5sA4KDsZbhLm9fSlIa6208Y8CYc=", "properties": {"ref": "683", "@spider": "colruyt", "shop": "supermarket", "addr:housenumber": "351", "addr:street": "LIERSESTEENWEG", "addr:city": "MECHELEN", "addr:postcode": "2800", "addr:country": "BE", "name": "Colruyt", "website": "https://www.colruyt.be/nl/colruyt-openingsuren/3649", "brand": "Colruyt", "brand:wikidata": "Q2363991", "nsi_id": "colruyt-27c1df"}, "geometry": {"type": "Point", "coordinates": [4.4775242, 51.0445293]}},
{"type": "Feature", "id": "lHgH4tJQeve_1S4mZYb7nplRMWU=", "properties": {"ref": "616", "@spider": "colruyt", "shop": "supermarket", "addr:housenumber": "583", "addr:street": "RIJKSWEG", "addr:city": "MECHELEN-AAN-DE-MAAS", "addr:postcode": "3630", "addr:country": "BE", "name": "Colruyt", "website": "https://www.colruyt.be/nl/colruyt-openingsuren/3540", "brand": "Colruyt", "brand:wikidata": "Q2363991", "nsi_id": "colruyt-27c1df"}, "geometry": {"type": "Point", "coordinates": [5.692298, 50.9413055]}},
{"type": "Feature", "id": "Jh4qDrCEITDlA5TDo_ZP2yTbJFM=", "properties": {"ref": "698", "@spider": "colruyt", "shop": "supermarket", "addr:housenumber": "435", "addr:street": "IEPERSTRAAT", "addr:city": "MENEN", "addr:postcode": "8930", "addr:country": "BE", "name": "Colruyt", "website": "https://www.colruyt.be/nl/colruyt-openingsuren/3669", "brand": "Colruyt", "brand:wikidata": "Q2363991", "nsi_id": "colruyt-27c1df"}, "geometry": {"type": "Point", "coordinates": [3.1139812, 50.7981015]}},
{"type": "Feature", "id": "wr89n0lOOL1yIDD9bObFjX8SXeA=", "properties": {"ref": "3323", "@spider": "colruyt", "shop": "supermarket", "addr:housenumber": "5", "addr:street": "BLEUKENWEG", "addr:city": "MERCHTEM", "addr:postcode": "1785", "addr:country": "BE", "name": "Colruyt", "website": "https://www.colruyt.be/nl/colruyt-openingsuren/8091", "brand": "Colruyt", "brand:wikidata": "Q2363991", "nsi_id": "colruyt-27c1df"}, "geometry": {"type": "Point", "coordinates": [4.238289022, 50.961041051]}},
{"type": "Feature", "id": "kBlPBgXsQkbSI4UP0uZrB-K6CvI=", "properties": {"ref": "715", "@spider": "colruyt", "shop": "supermarket", "addr:housenumber": "696", "addr:street": "HUNDELGEMSESTEENWEG", "addr:city": "MERELBEKE", "addr:postcode": "9820", "addr:country": "BE", "name": "Colruyt", "website": "https://www.colruyt.be/nl/colruyt-openingsuren/3691", "brand": "Colruyt", "brand:wikidata": "Q2363991", "nsi_id": "colruyt-27c1df"}, "geometry": {"type": "Point", "coordinates": [3.7464714, 50.9917577]}},
{"type": "Feature", "id": "w8Zz1VTv6HToCumK9uqo2Nm9NHc=", "properties": {"ref": "583", "@spider": "colruyt", "shop": "supermarket", "addr:housenumber": "1", "addr:street": "MOLENLEI", "addr:city": "MERKSEM", "addr:postcode": "2170", "addr:country": "BE", "name": "Colruyt", "website": "https://www.colruyt.be/nl/colruyt-openingsuren/3470", "brand": "Colruyt", "brand:wikidata": "Q2363991", "nsi_id": "colruyt-27c1df"}, "geometry": {"type": "Point", "coordinates": [4.4556283, 51.2491997]}},
{"type": "Feature", "id": "w7iGQoE3K3qIEARiczsXc6iuidQ=", "properties": {"ref": "670", "@spider": "colruyt", "shop": "supermarket", "addr:housenumber": "111", "addr:street": "GROENENDAALLAAN", "addr:city": "MERKSEM", "addr:postcode": "2170", "addr:country": "BE", "name": "Colruyt", "website": "https://www.colruyt.be/nl/colruyt-openingsuren/3621", "brand": "Colruyt", "brand:wikidata": "Q2363991", "nsi_id": "colruyt-27c1df"}, "geometry": {"type": "Point", "coordinates": [4.4307491, 51.2426711]}},
{"type": "Feature", "id": "91p896PW8EbD5hHbFYrX5_46QSk=", "properties": {"ref": "835", "@spider": "colruyt", "shop": "supermarket", "addr:housenumber": "1", "addr:street": "ZONE INDUSTRIELLE", "addr:city": "MERSCH", "addr:postcode": "7526", "addr:country": "LU", "name": "Colruyt", "website": "https://www.colruyt.be/nl/colruyt-openingsuren/4052", "brand": "Colruyt", "brand:wikidata": "Q2363991", "nsi_id": "colruyt-27c1df"}, "geometry": {"type": "Point", "coordinates": [6.097453, 49.758702]}},
{"type": "Feature", "id": "h0rKf9f3yX_FkMneT5-XQkHguNo=", "properties": {"ref": "753", "@spider": "colruyt", "shop": "supermarket", "addr:housenumber": "121", "addr:street": "RUE ALBERT-IER", "addr:city": "METTET", "addr:postcode": "5640", "addr:country": "BE", "name": "Colruyt", "website": "https://www.colruyt.be/nl/colruyt-openingsuren/3777", "brand": "Colruyt", "brand:wikidata": "Q2363991", "nsi_id": "colruyt-27c1df"}, "geometry": {"type": "Point", "coordinates": [4.6555698, 50.3282111]}},
{"type": "Feature", "id": "3fj5twR3gPMhG6l7DTMlB12bnyw=", "properties": {"ref": "688", "@spider": "colruyt", "shop": "supermarket", "addr:housenumber": "298", "addr:street": "OOSTENDELAAN", "addr:city": "MIDDELKERKE", "addr:postcode": "8430", "addr:country": "BE", "name": "Colruyt", "website": "https://www.colruyt.be/nl/colruyt-openingsuren/3654", "brand": "Colruyt", "brand:wikidata": "Q2363991", "nsi_id": "colruyt-27c1df"}, "geometry": {"type": "Point", "coordinates": [2.8407762, 51.1938392]}},
{"type": "Feature", "id": "AE48TGQj7HTxB5aX5HrVb6xEJDw=", "properties": {"ref": "2819", "@spider": "colruyt", "shop": "supermarket", "addr:housenumber": "136", "addr:street": "MENENSTRAAT", "addr:city": "MOESKROEN", "addr:postcode": "7700", "addr:country": "BE", "name": "Colruyt", "website": "https://www.colruyt.be/nl/colruyt-openingsuren/7620", "brand": "Colruyt", "brand:wikidata": "Q2363991", "nsi_id": "colruyt-27c1df"}, "geometry": {"type": "Point", "coordinates": [3.2134538, 50.7487954]}},
{"type": "Feature", "id": "3B4ScT4GMOJHkvxJ6P2TPpMbZhA=", "properties": {"ref": "620", "@spider": "colruyt", "shop": "supermarket", "addr:housenumber": "64", "addr:street": "ROZENBERG", "addr:city": "MOL", "addr:postcode": "2400", "addr:country": "BE", "name": "Colruyt", "website": "https://www.colruyt.be/nl/colruyt-openingsuren/3544", "brand": "Colruyt", "brand:wikidata": "Q2363991", "nsi_id": "colruyt-27c1df"}, "geometry": {"type": "Point", "coordinates": [5.1229459, 51.1898735]}},
{"type": "Feature", "id": "cPeTXVh9T587WlKXxeNfJ0Lgqwc=", "properties": {"ref": "686", "@spider": "colruyt", "shop": "supermarket", "addr:housenumber": "123", "addr:street": "CHAUSSEE DE BINCHE", "addr:city": "MONS", "addr:postcode": "7000", "addr:country": "BE", "name": "Colruyt", "website": "https://www.colruyt.be/nl/colruyt-openingsuren/3652", "brand": "Colruyt", "brand:wikidata": "Q2363991", "nsi_id": "colruyt-27c1df"}, "geometry": {"type": "Point", "coordinates": [3.9799625, 50.4520387]}},
{"type": "Feature", "id": "L-S6ezR13aoGO7TxdQMV9VgxDjs=", "properties": {"ref": "672", "@spider": "colruyt", "shop": "supermarket", "addr:housenumber": "36", "addr:street": "CHAUSSEE DE MARIEMONT", "addr:city": "MORLANWELZ-MARIEMONT", "addr:postcode": "7140", "addr:country": "BE", "name": "Colruyt", "website": "https://www.colruyt.be/nl/colruyt-openingsuren/3623", "brand": "Colruyt", "brand:wikidata": "Q2363991", "nsi_id": "colruyt-27c1df"}, "geometry": {"type": "Point", "coordinates": [4.23407, 50.4593717]}},
{"type": "Feature", "id": "z0A1tSdXVzFU8InGkmP_tdP4bxA=", "properties": {"ref": "988", "@spider": "colruyt", "shop": "supermarket", "addr:housenumber": "172", "addr:street": "DRABSTRAAT", "addr:city": "MORTSEL", "addr:postcode": "2640", "addr:country": "BE", "name": "Colruyt", "website": "https://www.colruyt.be/nl/colruyt-openingsuren/4316", "brand": "Colruyt", "brand:wikidata": "Q2363991", "nsi_id": "colruyt-27c1df"}, "geometry": {"type": "Point", "coordinates": [4.467963, 51.1739169]}},
{"type": "Feature", "id": "bEB88i3yCggSi2We-l3pHIUQAoU=", "properties": {"ref": "749", "@spider": "colruyt", "shop": "supermarket", "addr:housenumber": "16", "addr:street": "CHAUSSEE DE CHARLEROI", "addr:city": "NAMUR", "addr:postcode": "5000", "addr:country": "BE", "name": "Colruyt", "website": "https://www.colruyt.be/nl/colruyt-openingsuren/3768", "brand": "Colruyt", "brand:wikidata": "Q2363991", "nsi_id": "colruyt-27c1df"}, "geometry": {"type": "Point", "coordinates": [4.842535, 50.4627865]}},
{"type": "Feature", "id": "HU-oAd7F-JjdNzHJO_jDBns0xik=", "properties": {"ref": "884", "@spider": "colruyt", "shop": "supermarket", "addr:housenumber": "145", "addr:street": "LUTTICHER STRASSE", "addr:city": "NEU-MORESNET", "addr:postcode": "4721", "addr:country": "BE", "name": "Colruyt", "website": "https://www.colruyt.be/nl/colruyt-openingsuren/4135", "brand": "Colruyt", "brand:wikidata": "Q2363991", "nsi_id": "colruyt-27c1df"}, "geometry": {"type": "Point", "coordinates": [6.0174596, 50.7165301]}},
{"type": "Feature", "id": "Ylj2Oesy7A8fDc46K2X6qdbYWFc=", "properties": {"ref": "958", "@spider": "colruyt", "shop": "supermarket", "addr:housenumber": "33-A", "addr:street": "JOZEF CARDIJNLAAN", "addr:city": "NIEUWPOORT", "addr:postcode": "8620", "addr:country": "BE", "name": "Colruyt", "website": "https://www.colruyt.be/nl/colruyt-openingsuren/4232", "brand": "Colruyt", "brand:wikidata": "Q2363991", "nsi_id": "colruyt-27c1df"}, "geometry": {"type": "Point", "coordinates": [2.739978, 51.137091]}},
{"type": "Feature", "id": "stcNH7whQS1RG-qVIGK-B3NtZPE=", "properties": {"ref": "859", "@spider": "colruyt", "shop": "supermarket", "addr:housenumber": "287", "addr:street": "RUE DES VIADUCS", "addr:city": "NIMY", "addr:postcode": "7020", "addr:country": "BE", "name": "Colruyt", "website": "https://www.colruyt.be/nl/colruyt-openingsuren/4106", "brand": "Colruyt", "brand:wikidata": "Q2363991", "nsi_id": "colruyt-27c1df"}, "geometry": {"type": "Point", "coordinates": [3.9531295, 50.4825433]}},
{"type": "Feature", "id": "fdrRy1arZAEwKTzdOJuIAN1q-4M=", "properties": {"ref": "901", "@spider": "colruyt", "shop": "supermarket", "addr:housenumber": "26", "addr:street": "POLDERBAAN", "addr:city": "NINOVE", "addr:postcode": "9400", "addr:country": "BE", "name": "Colruyt", "website": "https://www.colruyt.be/nl/colruyt-openingsuren/4154", "brand": "Colruyt", "brand:wikidata": "Q2363991", "nsi_id": "colruyt-27c1df"}, "geometry": {"type": "Point", "coordinates": [4.0164286, 50.835282]}},
{"type": "Feature", "id": "Jo71_tY8MSiCAjHMsRIvMqAX2dw=", "properties": {"ref": "595", "@spider": "colruyt", "shop": "supermarket", "addr:housenumber": "170", "addr:street": "CHAUSSEE DE BRUXELLES", "addr:city": "NIVELLES", "addr:postcode": "1400", "addr:country": "BE", "name": "Colruyt", "website": "https://www.colruyt.be/nl/colruyt-openingsuren/3490", "brand": "Colruyt", "brand:wikidata": "Q2363991", "nsi_id": "colruyt-27c1df"}, "geometry": {"type": "Point", "coordinates": [4.3361374, 50.6103227]}},
{"type": "Feature", "id": "YwIkh33WL8Yh5AXG32rHj6Z0QCs=", "properties": {"ref": "618", "@spider": "colruyt", "shop": "supermarket", "addr:housenumber": "11", "addr:street": "VOSKAPELLELAAN", "addr:city": "NOSSEGEM", "addr:postcode": "1930", "addr:country": "BE", "name": "Colruyt", "website": "https://www.colruyt.be/nl/colruyt-openingsuren/3542", "brand": "Colruyt", "brand:wikidata": "Q2363991", "nsi_id": "colruyt-27c1df"}, "geometry": {"type": "Point", "coordinates": [4.5121293, 50.8779442]}},
{"type": "Feature", "id": "CBqFc4PHWi8-pOWwdVz27S2wse0=", "properties": {"ref": "980", "@spider": "colruyt", "shop": "supermarket", "addr:housenumber": "529", "addr:street": "TORHOUTSESTEENWEG", "addr:city": "OOSTENDE", "addr:postcode": "8400", "addr:country": "BE", "name": "Colruyt", "website": "https://www.colruyt.be/nl/colruyt-openingsuren/4271", "brand": "Colruyt", "brand:wikidata": "Q2363991", "nsi_id": "colruyt-27c1df"}, "geometry": {"type": "Point", "coordinates": [2.9046004, 51.20742]}},
{"type": "Feature", "id": "Fc2dkcxt_Vkemnrvd2FpCoqGRQI=", "properties": {"ref": "794", "@spider": "colruyt", "shop": "supermarket", "addr:housenumber": "16", "addr:street": "INGELMUNSTERSTEENWEG", "addr:city": "OOSTROZEBEKE", "addr:postcode": "8780", "addr:country": "BE", "name": "Colruyt", "website": "https://www.colruyt.be/nl/colruyt-openingsuren/3873", "brand": "Colruyt", "brand:wikidata": "Q2363991", "nsi_id": "colruyt-27c1df"}, "geometry": {"type": "Point", "coordinates": [3.3220892, 50.9199957]}},
{"type": "Feature", "id": "MtLlNvYLRseYJpETu0L-DsJ3bx0=", "properties": {"ref": "2733", "@spider": "colruyt", "shop": "supermarket", "addr:housenumber": "137", "addr:street": "STEENWEG OP MERCHTEM", "addr:city": "OPWIJK", "addr:postcode": "1745", "addr:country": "BE", "name": "Colruyt", "website": "https://www.colruyt.be/nl/colruyt-openingsuren/7382", "brand": "Colruyt", "brand:wikidata": "Q2363991", "nsi_id": "colruyt-27c1df"}, "geometry": {"type": "Point", "coordinates": [4.2027375, 50.9613243]}},
{"type": "Feature", "id": "vz__029pYSUSDA1jRULQN15vW9s=", "properties": {"ref": "641", "@spider": "colruyt", "shop": "supermarket", "addr:housenumber": "2038", "addr:street": "AVENUE DU DOUAIRE", "addr:city": "OTTIGNIES", "addr:postcode": "1340", "addr:country": "BE", "name": "Colruyt", "website": "https://www.colruyt.be/nl/colruyt-openingsuren/3583", "brand": "Colruyt", "brand:wikidata": "Q2363991", "nsi_id": "colruyt-27c1df"}, "geometry": {"type": "Point", "coordinates": [4.5670411, 50.6632026]}},
{"type": "Feature", "id": "DTt6w-_S0N1Cd8ERQQy3aZ8_b7o=", "properties": {"ref": "644", "@spider": "colruyt", "shop": "supermarket", "addr:housenumber": "2", "addr:street": "BLEKERIJSTRAAT", "addr:city": "OUD-TURNHOUT", "addr:postcode": "2360", "addr:country": "BE", "name": "Colruyt", "website": "https://www.colruyt.be/nl/colruyt-openingsuren/3586", "brand": "Colruyt", "brand:wikidata": "Q2363991", "nsi_id": "colruyt-27c1df"}, "geometry": {"type": "Point", "coordinates": [4.9685303, 51.3206744]}},
{"type": "Feature", "id": "lQ7vTKJ_bw2pX3BXIiOiTkCWBkc=", "properties": {"ref": "447", "@spider": "colruyt", "shop": "supermarket", "addr:housenumber": "3", "addr:street": "TACAMBAROPLEIN", "addr:city": "OUDENAARDE", "addr:postcode": "9700", "addr:country": "BE", "name": "Colruyt", "website": "https://www.colruyt.be/nl/colruyt-openingsuren/3070", "brand": "Colruyt", "brand:wikidata": "Q2363991", "nsi_id": "colruyt-27c1df"}, "geometry": {"type": "Point", "coordinates": [3.6016008, 50.8466031]}},
{"type": "Feature", "id": "fEohDgX71jBpOPpIt4JBSJCLIu4=", "properties": {"ref": "459", "@spider": "colruyt", "shop": "supermarket", "addr:housenumber": "20", "addr:street": "TRIOMFLAAN", "addr:city": "OUDERGEM", "addr:postcode": "1160", "addr:country": "BE", "name": "Colruyt", "website": "https://www.colruyt.be/nl/colruyt-openingsuren/3088", "brand": "Colruyt", "brand:wikidata": "Q2363991", "nsi_id": "colruyt-27c1df"}, "geometry": {"type": "Point", "coordinates": [4.3975257, 50.8249117]}},
{"type": "Feature", "id": "O4mpnBvT3BLS9SB_Lf8IETInG10=", "properties": {"ref": "712", "@spider": "colruyt", "shop": "supermarket", "addr:housenumber": "373", "addr:street": "GROTEWEG", "addr:city": "OVERBOELARE", "addr:postcode": "9500", "addr:country": "BE", "name": "Colruyt", "website": "https://www.colruyt.be/nl/colruyt-openingsuren/3688", "brand": "Colruyt", "brand:wikidata": "Q2363991", "nsi_id": "colruyt-27c1df"}, "geometry": {"type": "Point", "coordinates": [3.8533638, 50.757921]}},
{"type": "Feature", "id": "dWV-Y39F31qHNiWSyZiyzEn8QK0=", "properties": {"ref": "606", "@spider": "colruyt", "shop": "supermarket", "addr:housenumber": "482A", "addr:street": "BRUSSELSESTEENWEG", "addr:city": "OVERIJSE", "addr:postcode": "3090", "addr:country": "BE", "name": "Colruyt", "website": "https://www.colruyt.be/nl/colruyt-openingsuren/3517", "brand": "Colruyt", "brand:wikidata": "Q2363991", "nsi_id": "colruyt-27c1df"}, "geometry": {"type": "Point", "coordinates": [4.4935415, 50.7888732]}},
{"type": "Feature", "id": "6iZ8bLw0Mc54pqDbY89CWzQ3YE4=", "properties": {"ref": "498", "@spider": "colruyt", "shop": "supermarket", "addr:housenumber": "68", "addr:street": "HEERSTRAAT", "addr:city": "PELT", "addr:postcode": "3910", "addr:country": "BE", "name": "Colruyt", "website": "https://www.colruyt.be/nl/colruyt-openingsuren/3146", "brand": "Colruyt", "brand:wikidata": "Q2363991", "nsi_id": "colruyt-27c1df"}, "geometry": {"type": "Point", "coordinates": [5.440668, 51.229601]}},
{"type": "Feature", "id": "kwyXHojw_Of5l96Yar3vbCBYhKo=", "properties": {"ref": "2812", "@spider": "colruyt", "shop": "supermarket", "addr:housenumber": "157", "addr:street": "RUE NEUVE CHAUSSEE", "addr:city": "PERUWELZ", "addr:postcode": "7600", "addr:country": "BE", "name": "Colruyt", "website": "https://www.colruyt.be/nl/colruyt-openingsuren/7613", "brand": "Colruyt", "brand:wikidata": "Q2363991", "nsi_id": "colruyt-27c1df"}, "geometry": {"type": "Point", "coordinates": [3.600576, 50.5250918]}},
{"type": "Feature", "id": "9enW8p7ROfLTPEULSFeKUVwJf1I=", "properties": {"ref": "3255", "@spider": "colruyt", "shop": "supermarket", "addr:housenumber": "26", "addr:street": "BASTNICHERSTROOSS", "addr:city": "POMMERLOCH", "addr:postcode": "9638", "addr:country": "LU", "name": "Colruyt", "website": "https://www.colruyt.be/nl/colruyt-openingsuren/8025", "brand": "Colruyt", "brand:wikidata": "Q2363991", "nsi_id": "colruyt-27c1df"}, "geometry": {"type": "Point", "coordinates": [5.858935033, 49.963675437]}},
{"type": "Feature", "id": "kq7fyJVGkfB7KQFmJQC-SWWYgEQ=", "properties": {"ref": "784", "@spider": "colruyt", "shop": "supermarket", "addr:housenumber": "56", "addr:street": "DUINKERKESTRAAT", "addr:city": "POPERINGE", "addr:postcode": "8970", "addr:country": "BE", "name": "Colruyt", "website": "https://www.colruyt.be/nl/colruyt-openingsuren/3854", "brand": "Colruyt", "brand:wikidata": "Q2363991", "nsi_id": "colruyt-27c1df"}, "geometry": {"type": "Point", "coordinates": [2.7187854, 50.8538532]}},
{"type": "Feature", "id": "kWmdHOJPByov5DdkvmCk7j5Zm5Y=", "properties": {"ref": "1680", "@spider": "colruyt", "shop": "supermarket", "addr:housenumber": "167", "addr:street": "RUE DE TOURNAI", "addr:city": "QUEVAUCAMPS", "addr:postcode": "7972", "addr:country": "BE", "name": "Colruyt", "website": "https://www.colruyt.be/nl/colruyt-openingsuren/4464", "brand": "Colruyt", "brand:wikidata": "Q2363991", "nsi_id": "colruyt-27c1df"}, "geometry": {"type": "Point", "coordinates": [3.6857541, 50.509281]}},
{"type": "Feature", "id": "OYsxNvKc0IgPWS1AKaKVAc0gZk8=", "properties": {"ref": "713", "@spider": "colruyt", "shop": "supermarket", "addr:housenumber": "9", "addr:street": "STATIONSSTRAAT", "addr:city": "RAMSEL", "addr:postcode": "2230", "addr:country": "BE", "name": "Colruyt", "website": "https://www.colruyt.be/nl/colruyt-openingsuren/3689", "brand": "Colruyt", "brand:wikidata": "Q2363991", "nsi_id": "colruyt-27c1df"}, "geometry": {"type": "Point", "coordinates": [4.8317456, 51.0322028]}},
{"type": "Feature", "id": "z0vxoHDBs_pgHXbg-2SJOLvK-QQ=", "properties": {"ref": "759", "@spider": "colruyt", "shop": "supermarket", "addr:housenumber": "8", "addr:street": "LE BLANCHEAU", "addr:city": "RECOGNE", "addr:postcode": "6800", "addr:country": "BE", "name": "Colruyt", "website": "https://www.colruyt.be/nl/colruyt-openingsuren/3812", "brand": "Colruyt", "brand:wikidata": "Q2363991", "nsi_id": "colruyt-27c1df"}, "geometry": {"type": "Point", "coordinates": [5.3610037, 49.9182398]}},
{"type": "Feature", "id": "yR0k_fa9jJrX9rr33v323dGzG4I=", "properties": {"ref": "776", "@spider": "colruyt", "shop": "supermarket", "addr:housenumber": "16", "addr:street": "RUE AVIATEUR HUENS", "addr:city": "RIXENSART", "addr:postcode": "1330", "addr:country": "BE", "name": "Colruyt", "website": "https://www.colruyt.be/nl/colruyt-openingsuren/3838", "brand": "Colruyt", "brand:wikidata": "Q2363991", "nsi_id": "colruyt-27c1df"}, "geometry": {"type": "Point", "coordinates": [4.5306387, 50.7150541]}},
{"type": "Feature", "id": "t5lbd2EBBzEjQMNpFHxnJ66yDiA=", "properties": {"ref": "2712", "@spider": "colruyt", "shop": "supermarket", "addr:housenumber": "4", "addr:street": "RUE DE DINANT", "addr:city": "ROCHEFORT", "addr:postcode": "5580", "addr:country": "BE", "name": "Colruyt", "website": "https://www.colruyt.be/nl/colruyt-openingsuren/7314", "brand": "Colruyt", "brand:wikidata": "Q2363991", "nsi_id": "colruyt-27c1df"}, "geometry": {"type": "Point", "coordinates": [5.2112912, 50.1661255]}},
{"type": "Feature", "id": "xt9mDHdUVNaC60fjip2dAeNBS4s=", "properties": {"ref": "754", "@spider": "colruyt", "shop": "supermarket", "addr:housenumber": "114", "addr:street": "DIKSMUIDSESTEENWEG", "addr:city": "ROESELARE", "addr:postcode": "8800", "addr:country": "BE", "name": "Colruyt", "website": "https://www.colruyt.be/nl/colruyt-openingsuren/3785", "brand": "Colruyt", "brand:wikidata": "Q2363991", "nsi_id": "colruyt-27c1df"}, "geometry": {"type": "Point", "coordinates": [3.1155993, 50.9464175]}},
{"type": "Feature", "id": "QhOZ2mVkqtZuRA9ltu3_g8O1J9s=", "properties": {"ref": "899", "@spider": "colruyt", "shop": "supermarket", "addr:housenumber": "163", "addr:street": "HEROPBOUWSTRAAT", "addr:city": "ROESELARE", "addr:postcode": "8800", "addr:country": "BE", "name": "Colruyt", "website": "https://www.colruyt.be/nl/colruyt-openingsuren/4152", "brand": "Colruyt", "brand:wikidata": "Q2363991", "nsi_id": "colruyt-27c1df"}, "geometry": {"type": "Point", "coordinates": [3.131306, 50.9395091]}},
{"type": "Feature", "id": "_zAdAl1lCwdZwHLkNpTCyr9d1C4=", "properties": {"ref": "1659", "@spider": "colruyt", "shop": "supermarket", "addr:housenumber": "52", "addr:street": "OSWALD PONETTESTRAAT", "addr:city": "RONSE", "addr:postcode": "9600", "addr:country": "BE", "name": "Colruyt", "website": "https://www.colruyt.be/nl/colruyt-openingsuren/4244", "brand": "Colruyt", "brand:wikidata": "Q2363991", "nsi_id": "colruyt-27c1df"}, "geometry": {"type": "Point", "coordinates": [3.5933188, 50.7453978]}},
{"type": "Feature", "id": "lrwsMJcCfgsLxUrkjO8rs0vAZ3s=", "properties": {"ref": "609", "@spider": "colruyt", "shop": "supermarket", "addr:housenumber": "17", "addr:street": "RUE ADOLPHE RENSON", "addr:city": "SAINT-NICOLAS(LIEGE)", "addr:postcode": "4420", "addr:country": "BE", "name": "Colruyt", "website": "https://www.colruyt.be/nl/colruyt-openingsuren/3522", "brand": "Colruyt", "brand:wikidata": "Q2363991", "nsi_id": "colruyt-27c1df"}, "geometry": {"type": "Point", "coordinates": [5.5340283, 50.6401477]}},
{"type": "Feature", "id": "a9I65wjV6IItNG3bO99HRHwQCUE=", "properties": {"ref": "1008", "@spider": "colruyt", "shop": "supermarket", "addr:housenumber": "1", "addr:street": "BALMORAL", "addr:city": "SART-LEZ-SPA", "addr:postcode": "4845", "addr:country": "BE", "name": "Colruyt", "website": "https://www.colruyt.be/nl/colruyt-openingsuren/4357", "brand": "Colruyt", "brand:wikidata": "Q2363991", "nsi_id": "colruyt-27c1df"}, "geometry": {"type": "Point", "coordinates": [5.9047799, 50.5116838]}},
{"type": "Feature", "id": "mrSIV-WEKxbq8vGHbdr9ohNpRL8=", "properties": {"ref": "469", "@spider": "colruyt", "shop": "supermarket", "addr:housenumber": "17", "addr:street": "ROODEBEEKLAAN", "addr:city": "SCHAARBEEK", "addr:postcode": "1030", "addr:country": "BE", "name": "Colruyt", "website": "https://www.colruyt.be/nl/colruyt-openingsuren/3102", "brand": "Colruyt", "brand:wikidata": "Q2363991", "nsi_id": "colruyt-27c1df"}, "geometry": {"type": "Point", "coordinates": [4.3973611, 50.8477002]}},
{"type": "Feature", "id": "Cnrc_hQE1MYPuDdjcRQrtdV_aYI=", "properties": {"ref": "558", "@spider": "colruyt", "shop": "supermarket", "addr:housenumber": "8-16", "addr:street": "JERUSALEMSTRAAT", "addr:city": "SCHAARBEEK", "addr:postcode": "1030", "addr:country": "BE", "name": "Colruyt", "website": "https://www.colruyt.be/nl/colruyt-openingsuren/3427", "brand": "Colruyt", "brand:wikidata": "Q2363991", "nsi_id": "colruyt-27c1df"}, "geometry": {"type": "Point", "coordinates": [4.3778952, 50.8670483]}},
{"type": "Feature", "id": "DvPvDB6dO828xl4rXMTe8Rya4-Y=", "properties": {"ref": "2826", "@spider": "colruyt", "shop": "supermarket", "addr:housenumber": "510", "addr:street": "LEUVENSESTEENWEG", "addr:city": "SCHAARBEEK", "addr:postcode": "1030", "addr:country": "BE", "name": "Colruyt", "website": "https://www.colruyt.be/nl/colruyt-openingsuren/7627", "brand": "Colruyt", "brand:wikidata": "Q2363991", "nsi_id": "colruyt-27c1df"}, "geometry": {"type": "Point", "coordinates": [4.3932807, 50.8535943]}},
{"type": "Feature", "id": "3QZKs_hVMMj5GijdBDpsEWqs-rg=", "properties": {"ref": "551", "@spider": "colruyt", "shop": "supermarket", "addr:housenumber": "139", "addr:street": "AUGUST NIHOULSTRAAT", "addr:city": "SCHERPENHEUVEL", "addr:postcode": "3270", "addr:country": "BE", "name": "Colruyt", "website": "https://www.colruyt.be/nl/colruyt-openingsuren/3390", "brand": "Colruyt", "brand:wikidata": "Q2363991", "nsi_id": "colruyt-27c1df"}, "geometry": {"type": "Point", "coordinates": [4.9718434, 50.9728851]}},
{"type": "Feature", "id": "BhFjXu3DNle8JU5DP-Cs3RIqQ_I=", "properties": {"ref": "451", "@spider": "colruyt", "shop": "supermarket", "addr:housenumber": "275", "addr:street": "PAALSTRAAT", "addr:city": "SCHOTEN", "addr:postcode": "2900", "addr:country": "BE", "name": "Colruyt", "website": "https://www.colruyt.be/nl/colruyt-openingsuren/3079", "brand": "Colruyt", "brand:wikidata": "Q2363991", "nsi_id": "colruyt-27c1df"}, "geometry": {"type": "Point", "coordinates": [4.506286, 51.2592673]}},
{"type": "Feature", "id": "wfLk3yWXZeTFvA041tiZ7oCqvkk=", "properties": {"ref": "553", "@spider": "colruyt", "shop": "supermarket", "addr:housenumber": "61", "addr:street": "RUE PUITS-MARIE", "addr:city": "SERAING", "addr:postcode": "4100", "addr:country": "BE", "name": "Colruyt", "website": "https://www.colruyt.be/nl/colruyt-openingsuren/3404", "brand": "Colruyt", "brand:wikidata": "Q2363991", "nsi_id": "colruyt-27c1df"}, "geometry": {"type": "Point", "coordinates": [5.5076822, 50.5805176]}},
{"type": "Feature", "id": "IXExPL9-lfK9X8wy_Pn4gdTx49A=", "properties": {"ref": "762", "@spider": "colruyt", "shop": "supermarket", "addr:housenumber": "409", "addr:street": "DENDERMONDSESTEENWEG", "addr:city": "SINT-AMANDSBERG", "addr:postcode": "9040", "addr:country": "BE", "name": "Colruyt", "website": "https://www.colruyt.be/nl/colruyt-openingsuren/3815", "brand": "Colruyt", "brand:wikidata": "Q2363991", "nsi_id": "colruyt-27c1df"}, "geometry": {"type": "Point", "coordinates": [3.7529881, 51.0521888]}},
{"type": "Feature", "id": "T0iRITORhVoskx2Z49ILeX4_JPs=", "properties": {"ref": "631", "@spider": "colruyt", "shop": "supermarket", "addr:housenumber": "345", "addr:street": "GISTELSE STEENWEG", "addr:city": "SINT-ANDRIES", "addr:postcode": "8200", "addr:country": "BE", "name": "Colruyt", "website": "https://www.colruyt.be/nl/colruyt-openingsuren/3566", "brand": "Colruyt", "brand:wikidata": "Q2363991", "nsi_id": "colruyt-27c1df"}, "geometry": {"type": "Point", "coordinates": [3.1885507, 51.1987583]}},
{"type": "Feature", "id": "Iuxrlc6p2SCaqXQs24BrrzRo2zs=", "properties": {"ref": "1825", "@spider": "colruyt", "shop": "supermarket", "addr:housenumber": "1238", "addr:street": "KORTRIJKSESTEENWEG", "addr:city": "SINT-DENIJS-WESTREM", "addr:postcode": "9051", "addr:country": "BE", "name": "Colruyt", "website": "https://www.colruyt.be/nl/colruyt-openingsuren/4591", "brand": "Colruyt", "brand:wikidata": "Q2363991", "nsi_id": "colruyt-27c1df"}, "geometry": {"type": "Point", "coordinates": [3.6550922, 51.0154063]}},
{"type": "Feature", "id": "jLt4ZKYj5eMKEc_0tU1HivcNQ6s=", "properties": {"ref": "923", "@spider": "colruyt", "shop": "supermarket", "addr:housenumber": "8", "addr:street": "BLOKSTRAAT", "addr:city": "SINT-GILLIS-WAAS", "addr:postcode": "9170", "addr:country": "BE", "name": "Colruyt", "website": "https://www.colruyt.be/nl/colruyt-openingsuren/4191", "brand": "Colruyt", "brand:wikidata": "Q2363991", "nsi_id": "colruyt-27c1df"}, "geometry": {"type": "Point", "coordinates": [4.1236521, 51.2222899]}},
{"type": "Feature", "id": "E-9CULll0u9DMSjRZRCAsDkveIc=", "properties": {"ref": "639", "@spider": "colruyt", "shop": "supermarket", "addr:housenumber": "87", "addr:street": "PUTSESTEENWEG", "addr:city": "SINT-KATELIJNE-WAVER", "addr:postcode": "2860", "addr:country": "BE", "name": "Colruyt", "website": "https://www.colruyt.be/nl/colruyt-openingsuren/3579", "brand": "Colruyt", "brand:wikidata": "Q2363991", "nsi_id": "colruyt-27c1df"}, "geometry": {"type": "Point", "coordinates": [4.514898, 51.035262]}},
{"type": "Feature", "id": "neEaSOoQ-bLwhp3v7HUhBRosEP0=", "properties": {"ref": "1059", "@spider": "colruyt", "shop": "supermarket", "addr:housenumber": "109", "addr:street": "SMISSTRAAT", "addr:city": "SINT-NIKLAAS", "addr:postcode": "9100", "addr:country": "BE", "name": "Colruyt", "website": "https://www.colruyt.be/nl/colruyt-openingsuren/4596", "brand": "Colruyt", "brand:wikidata": "Q2363991", "nsi_id": "colruyt-27c1df"}, "geometry": {"type": "Point", "coordinates": [4.1360154, 51.1490884]}},
{"type": "Feature", "id": "Ihqn_cLzJ0ID2FrRCxu0AGRoVfw=", "properties": {"ref": "453", "@spider": "colruyt", "shop": "supermarket", "addr:housenumber": "54", "addr:street": "NIJVERHEIDSSTRAAT", "addr:city": "SINT-NIKLAAS", "addr:postcode": "9100", "addr:country": "BE", "name": "Colruyt", "website": "https://www.colruyt.be/nl/colruyt-openingsuren/3082", "brand": "Colruyt", "brand:wikidata": "Q2363991", "nsi_id": "colruyt-27c1df"}, "geometry": {"type": "Point", "coordinates": [4.1359718, 51.1705699]}},
{"type": "Feature", "id": "kz9vfva_gHPqdUvPLBcduaCSoLI=", "properties": {"ref": "726", "@spider": "colruyt", "shop": "supermarket", "addr:housenumber": "201", "addr:street": "BERGENSESTEENWEG", "addr:city": "SINT-PIETERS-LEEUW", "addr:postcode": "1600", "addr:country": "BE", "name": "Colruyt", "website": "https://www.colruyt.be/nl/colruyt-openingsuren/3711", "brand": "Colruyt", "brand:wikidata": "Q2363991", "nsi_id": "colruyt-27c1df"}, "geometry": {"type": "Point", "coordinates": [4.2860431, 50.79696]}},
{"type": "Feature", "id": "idAvkXKnxnWZzibHa546IcPV3Nc=", "properties": {"ref": "577", "@spider": "colruyt", "shop": "supermarket", "addr:housenumber": "266", "addr:street": "TIENSESTEENWEG", "addr:city": "SINT-TRUIDEN", "addr:postcode": "3800", "addr:country": "BE", "name": "Colruyt", "website": "https://www.colruyt.be/nl/colruyt-openingsuren/3463", "brand": "Colruyt", "brand:wikidata": "Q2363991", "nsi_id": "colruyt-27c1df"}, "geometry": {"type": "Point", "coordinates": [5.1530114, 50.8128958]}},
{"type": "Feature", "id": "KeVic-398K22DDfy0WhtI5QmGtk=", "properties": {"ref": "844", "@spider": "colruyt", "shop": "supermarket", "addr:housenumber": "10A", "addr:street": "CHEMIN SAINT-LANDRY", "addr:city": "SOIGNIES", "addr:postcode": "7060", "addr:country": "BE", "name": "Colruyt", "website": "https://www.colruyt.be/nl/colruyt-openingsuren/4073", "brand": "Colruyt", "brand:wikidata": "Q2363991", "nsi_id": "colruyt-27c1df"}, "geometry": {"type": "Point", "coordinates": [4.078696, 50.5848934]}},
{"type": "Feature", "id": "L2s-51b89KFyXQVv9YdO16jFmhk=", "properties": {"ref": "1660", "@spider": "colruyt", "shop": "supermarket", "addr:housenumber": "6", "addr:street": "ZONE UM WOELLER", "addr:city": "SOLEUVRE", "addr:postcode": "4410", "addr:country": "LU", "name": "Colruyt", "website": "https://www.colruyt.be/nl/colruyt-openingsuren/4252", "brand": "Colruyt", "brand:wikidata": "Q2363991", "nsi_id": "colruyt-27c1df"}, "geometry": {"type": "Point", "coordinates": [5.9354227781, 49.5371783904]}},
{"type": "Feature", "id": "BLmbUtLaMoAgEakf8n74hwPs79E=", "properties": {"ref": "727", "@spider": "colruyt", "shop": "supermarket", "addr:housenumber": "362", "addr:street": "GENTSESTEENWEG", "addr:city": "ST-JANS-MOLENBEEK", "addr:postcode": "1080", "addr:country": "BE", "name": "Colruyt", "website": "https://www.colruyt.be/nl/colruyt-openingsuren/3715", "brand": "Colruyt", "brand:wikidata": "Q2363991", "nsi_id": "colruyt-27c1df"}, "geometry": {"type": "Point", "coordinates": [4.3022628, 50.8615151]}},
{"type": "Feature", "id": "hq4DKnqkieohV5Gcy-cH2K0Tj8E=", "properties": {"ref": "474", "@spider": "colruyt", "shop": "supermarket", "addr:housenumber": "5", "addr:street": "PIERRE DE COCKSTRAAT", "addr:city": "ST-PIETERS-WOLUWE", "addr:postcode": "1150", "addr:country": "BE", "name": "Colruyt", "website": "https://www.colruyt.be/nl/colruyt-openingsuren/3108", "brand": "Colruyt", "brand:wikidata": "Q2363991", "nsi_id": "colruyt-27c1df"}, "geometry": {"type": "Point", "coordinates": [4.4319045, 50.8368454]}},
{"type": "Feature", "id": "ywlg9aqmlTumQbBs2Q14AQKchxQ=", "properties": {"ref": "619", "@spider": "colruyt", "shop": "supermarket", "addr:housenumber": "10/E", "addr:street": "ABTSDREEF", "addr:city": "STABROEK", "addr:postcode": "2940", "addr:country": "BE", "name": "Colruyt", "website": "https://www.colruyt.be/nl/colruyt-openingsuren/3543", "brand": "Colruyt", "brand:wikidata": "Q2363991", "nsi_id": "colruyt-27c1df"}, "geometry": {"type": "Point", "coordinates": [4.361944, 51.3324858]}},
{"type": "Feature", "id": "KH88zss-RyGofGlL-TAitZB732U=", "properties": {"ref": "3610", "@spider": "colruyt", "shop": "supermarket", "addr:housenumber": "2", "addr:street": "ROUTE D'ARLON", "addr:city": "STRASSEN", "addr:postcode": "8008", "addr:country": "LU", "name": "Colruyt", "website": "https://www.colruyt.be/nl/colruyt-openingsuren/8548", "brand": "Colruyt", "brand:wikidata": "Q2363991", "nsi_id": "colruyt-27c1df"}, "geometry": {"type": "Point", "coordinates": [6.096933194, 49.618918618]}},
{"type": "Feature", "id": "yRo77tzepp_955CtToybaj5W-Mk=", "properties": {"ref": "725", "@spider": "colruyt", "shop": "supermarket", "addr:housenumber": "19", "addr:street": "VRIJHEIDSTRAAT", "addr:city": "TEMSE", "addr:postcode": "9140", "addr:country": "BE", "name": "Colruyt", "website": "https://www.colruyt.be/nl/colruyt-openingsuren/3707", "brand": "Colruyt", "brand:wikidata": "Q2363991", "nsi_id": "colruyt-27c1df"}, "geometry": {"type": "Point", "coordinates": [4.2190716, 51.1286756]}},
{"type": "Feature", "id": "Psv_wwXFAaFTfXHrNb3aDHLwel0=", "properties": {"ref": "865", "@spider": "colruyt", "shop": "supermarket", "addr:housenumber": "49", "addr:street": "RUE DEFUISSEAUX", "addr:city": "TERTRE", "addr:postcode": "7333", "addr:country": "BE", "name": "Colruyt", "website": "https://www.colruyt.be/nl/colruyt-openingsuren/4113", "brand": "Colruyt", "brand:wikidata": "Q2363991", "nsi_id": "colruyt-27c1df"}, "geometry": {"type": "Point", "coordinates": [3.815698, 50.4697365]}},
{"type": "Feature", "id": "Uap3JfqgKZK4KwUVJK0TrG1XqSo=", "properties": {"ref": "3453", "@spider": "colruyt", "shop": "supermarket", "addr:housenumber": "174", "addr:street": "DIESTERSTRAAT", "addr:city": "TESSENDERLO", "addr:postcode": "3980", "addr:country": "BE", "name": "Colruyt", "website": "https://www.colruyt.be/nl/colruyt-openingsuren/8206", "brand": "Colruyt", "brand:wikidata": "Q2363991", "nsi_id": "colruyt-27c1df"}, "geometry": {"type": "Point", "coordinates": [5.088901157, 51.057042596]}},
{"type": "Feature", "id": "mfDpOlaQKRRgcVhLayaKBgPriDM=", "properties": {"ref": "858", "@spider": "colruyt", "shop": "supermarket", "addr:housenumber": "108", "addr:street": "DREVE DES ALLIES", "addr:city": "THUIN", "addr:postcode": "6530", "addr:country": "BE", "name": "Colruyt", "website": "https://www.colruyt.be/nl/colruyt-openingsuren/4105", "brand": "Colruyt", "brand:wikidata": "Q2363991", "nsi_id": "colruyt-27c1df"}, "geometry": {"type": "Point", "coordinates": [4.3099221, 50.3392612]}},
{"type": "Feature", "id": "vzakhIuddtHPjtauPtuZrhuAnJE=", "properties": {"ref": "1708", "@spider": "colruyt", "shop": "supermarket", "addr:housenumber": "66", "addr:street": "DEKEN DARRASLAAN", "addr:city": "TIELT", "addr:postcode": "8700", "addr:country": "BE", "name": "Colruyt", "website": "https://www.colruyt.be/nl/colruyt-openingsuren/4224", "brand": "Colruyt", "brand:wikidata": "Q2363991", "nsi_id": "colruyt-27c1df"}, "geometry": {"type": "Point", "coordinates": [3.3174381, 50.9979051]}},
{"type": "Feature", "id": "kqVICQWJDh_Bo6hsDn8OmMmGPdk=", "properties": {"ref": "893", "@spider": "colruyt", "shop": "supermarket", "addr:housenumber": "54", "addr:street": "ZIJDELINGSESTRAAT", "addr:city": "TIENEN", "addr:postcode": "3300", "addr:country": "BE", "name": "Colruyt", "website": "https://www.colruyt.be/nl/colruyt-openingsuren/4146", "brand": "Colruyt", "brand:wikidata": "Q2363991", "nsi_id": "colruyt-27c1df"}, "geometry": {"type": "Point", "coordinates": [4.9233157, 50.8113793]}},
{"type": "Feature", "id": "JPWmoDnw14H8Jf9vmcXCvBfUcis=", "properties": {"ref": "513", "@spider": "colruyt", "shop": "supermarket", "addr:housenumber": "64", "addr:street": "ZIJDELINGSESTRAAT", "addr:city": "TIENEN", "addr:postcode": "3300", "addr:country": "BE", "name": "Colruyt", "website": "https://www.colruyt.be/nl/colruyt-openingsuren/3202", "brand": "Colruyt", "brand:wikidata": "Q2363991", "nsi_id": "colruyt-27c1df"}, "geometry": {"type": "Point", "coordinates": [4.9231461, 50.8117093]}},
{"type": "Feature", "id": "cRFrDknm2VIb9KdgLkMxnb0C2oE=", "properties": {"ref": "883", "@spider": "colruyt", "shop": "supermarket", "addr:housenumber": "33", "addr:street": "ASTRIDLAAN", "addr:city": "TONGEREN", "addr:postcode": "3700", "addr:country": "BE", "name": "Colruyt", "website": "https://www.colruyt.be/nl/colruyt-openingsuren/4134", "brand": "Colruyt", "brand:wikidata": "Q2363991", "nsi_id": "colruyt-27c1df"}, "geometry": {"type": "Point", "coordinates": [5.45953, 50.7767772]}},
{"type": "Feature", "id": "NsWWbV6dT-UmYi64f5UcXd6PNBE=", "properties": {"ref": "452", "@spider": "colruyt", "shop": "supermarket", "addr:housenumber": "25", "addr:street": "KORTEMARKSTRAAT", "addr:city": "TORHOUT", "addr:postcode": "8820", "addr:country": "BE", "name": "Colruyt", "website": "https://www.colruyt.be/nl/colruyt-openingsuren/3080", "brand": "Colruyt", "brand:wikidata": "Q2363991", "nsi_id": "colruyt-27c1df"}, "geometry": {"type": "Point", "coordinates": [3.0999977, 51.0617274]}},
{"type": "Feature", "id": "ADEVqZuqmb6FrvcikVQ7cxAVJsA=", "properties": {"ref": "750", "@spider": "colruyt", "shop": "supermarket", "addr:housenumber": "2", "addr:street": "QUAI DES SALINES", "addr:city": "TOURNAI", "addr:postcode": "7500", "addr:country": "BE", "name": "Colruyt", "website": "https://www.colruyt.be/nl/colruyt-openingsuren/3769", "brand": "Colruyt", "brand:wikidata": "Q2363991", "nsi_id": "colruyt-27c1df"}, "geometry": {"type": "Point", "coordinates": [3.387091, 50.6100394]}},
{"type": "Feature", "id": "bSG2IwwwhSTPcfpmTNhkt71GTqQ=", "properties": {"ref": "785", "@spider": "colruyt", "shop": "supermarket", "addr:housenumber": "113", "addr:street": "CHAUSSEE DE RENAIX", "addr:city": "TOURNAI", "addr:postcode": "7500", "addr:country": "BE", "name": "Colruyt", "website": "https://www.colruyt.be/nl/colruyt-openingsuren/3855", "brand": "Colruyt", "brand:wikidata": "Q2363991", "nsi_id": "colruyt-27c1df"}, "geometry": {"type": "Point", "coordinates": [3.4120794, 50.6160116]}},
{"type": "Feature", "id": "M1fsijHPK-gfJczlq1L8g8Klw5w=", "properties": {"ref": "696", "@spider": "colruyt", "shop": "supermarket", "addr:housenumber": "161", "addr:street": "STALLESTRAAT", "addr:city": "UKKEL", "addr:postcode": "1180", "addr:country": "BE", "name": "Colruyt", "website": "https://www.colruyt.be/nl/colruyt-openingsuren/3663", "brand": "Colruyt", "brand:wikidata": "Q2363991", "nsi_id": "colruyt-27c1df"}, "geometry": {"type": "Point", "coordinates": [4.3238012, 50.79664]}},
{"type": "Feature", "id": "vK5vT2qcgXiy7GPyaFsP9y0tWC4=", "properties": {"ref": "1057", "@spider": "colruyt", "shop": "supermarket", "addr:housenumber": "16", "addr:street": "KIEZELWEG", "addr:city": "VELDWEZELT", "addr:postcode": "3620", "addr:country": "BE", "name": "Colruyt", "website": "https://www.colruyt.be/nl/colruyt-openingsuren/4593", "brand": "Colruyt", "brand:wikidata": "Q2363991", "nsi_id": "colruyt-27c1df"}, "geometry": {"type": "Point", "coordinates": [5.6289736, 50.8790518]}},
{"type": "Feature", "id": "xYEKF9ikqyH5-dQi8lCuQagbhLc=", "properties": {"ref": "473", "@spider": "colruyt", "shop": "supermarket", "addr:housenumber": "60", "addr:street": "BOULEVARD D GERARDCHAMPS", "addr:city": "VERVIERS", "addr:postcode": "4800", "addr:country": "BE", "name": "Colruyt", "website": "https://www.colruyt.be/nl/colruyt-openingsuren/3107", "brand": "Colruyt", "brand:wikidata": "Q2363991", "nsi_id": "colruyt-27c1df"}, "geometry": {"type": "Point", "coordinates": [5.8475732, 50.5916607]}},
{"type": "Feature", "id": "1U7XBYTsZBPhftgK_Q_WdFLCGsc=", "properties": {"ref": "495", "@spider": "colruyt", "shop": "supermarket", "addr:housenumber": "18", "addr:street": "VAARTSTRAAT", "addr:city": "VEURNE", "addr:postcode": "8630", "addr:country": "BE", "name": "Colruyt", "website": "https://www.colruyt.be/nl/colruyt-openingsuren/3137", "brand": "Colruyt", "brand:wikidata": "Q2363991", "nsi_id": "colruyt-27c1df"}, "geometry": {"type": "Point", "coordinates": [2.6686143, 51.0701104]}},
{"type": "Feature", "id": "_qrZJHRxHBShsTXVOJnh43wqZ8Y=", "properties": {"ref": "554", "@spider": "colruyt", "shop": "supermarket", "addr:housenumber": "23", "addr:street": "MUTSAERTPLAATS", "addr:city": "VILVOORDE", "addr:postcode": "1800", "addr:country": "BE", "name": "Colruyt", "website": "https://www.colruyt.be/nl/colruyt-openingsuren/3417", "brand": "Colruyt", "brand:wikidata": "Q2363991", "nsi_id": "colruyt-27c1df"}, "geometry": {"type": "Point", "coordinates": [4.3613101, 50.9020736]}},
{"type": "Feature", "id": "ytoYGHP5K77KHquqgvdQQlXppmY=", "properties": {"ref": "626", "@spider": "colruyt", "shop": "supermarket", "addr:housenumber": "57", "addr:street": "SCHAARBEEKLEI", "addr:city": "VILVOORDE", "addr:postcode": "1800", "addr:country": "BE", "name": "Colruyt", "website": "https://www.colruyt.be/nl/colruyt-openingsuren/3559", "brand": "Colruyt", "brand:wikidata": "Q2363991", "nsi_id": "colruyt-27c1df"}, "geometry": {"type": "Point", "coordinates": [4.4265794, 50.9241043]}},
{"type": "Feature", "id": "X9TIQH2Z4S-snS--fclchL7uYxo=", "properties": {"ref": "925", "@spider": "colruyt", "shop": "supermarket", "addr:housenumber": "14", "addr:street": "RUE DE MONTMEDY", "addr:city": "VIRTON", "addr:postcode": "6760", "addr:country": "BE", "name": "Colruyt", "website": "https://www.colruyt.be/nl/colruyt-openingsuren/4193", "brand": "Colruyt", "brand:wikidata": "Q2363991", "nsi_id": "colruyt-27c1df"}, "geometry": {"type": "Point", "coordinates": [5.5190936, 49.5658632]}},
{"type": "Feature", "id": "UyPZ6QbmfiwIwLT2mhQv-NsSW1k=", "properties": {"ref": "566", "@spider": "colruyt", "shop": "supermarket", "addr:housenumber": "208", "addr:street": "VICTOR ROUSSEAULAAN", "addr:city": "VORST", "addr:postcode": "1190", "addr:country": "BE", "name": "Colruyt", "website": "https://www.colruyt.be/nl/colruyt-openingsuren/3451", "brand": "Colruyt", "brand:wikidata": "Q2363991", "nsi_id": "colruyt-27c1df"}, "geometry": {"type": "Point", "coordinates": [4.3260109, 50.8099916]}},
{"type": "Feature", "id": "XXELhaTtRejZUOWEYeSZ2kLf-R4=", "properties": {"ref": "834", "@spider": "colruyt", "shop": "supermarket", "addr:housenumber": "21", "addr:street": "ANTWERPSESTEENWEG", "addr:city": "VOSSELAAR", "addr:postcode": "2350", "addr:country": "BE", "name": "Colruyt", "website": "https://www.colruyt.be/nl/colruyt-openingsuren/4051", "brand": "Colruyt", "brand:wikidata": "Q2363991", "nsi_id": "colruyt-27c1df"}, "geometry": {"type": "Point", "coordinates": [4.901886, 51.316678]}},
{"type": "Feature", "id": "oYNh3Ci1j3qxjnAyRxEIq-DH7mI=", "properties": {"ref": "2624", "@spider": "colruyt", "shop": "supermarket", "addr:housenumber": "23", "addr:street": "RUE ST.DONAT", "addr:city": "WALCOURT", "addr:postcode": "5650", "addr:country": "BE", "name": "Colruyt", "website": "https://www.colruyt.be/nl/colruyt-openingsuren/7148", "brand": "Colruyt", "brand:wikidata": "Q2363991", "nsi_id": "colruyt-27c1df"}, "geometry": {"type": "Point", "coordinates": [4.4353238, 50.2634606]}},
{"type": "Feature", "id": "goxJcNWi_CBJe4pjCPuwl7Jv-oQ=", "properties": {"ref": "755", "@spider": "colruyt", "shop": "supermarket", "addr:housenumber": "50", "addr:street": "NOORDERLAAN", "addr:city": "WAREGEM", "addr:postcode": "8790", "addr:country": "BE", "name": "Colruyt", "website": "https://www.colruyt.be/nl/colruyt-openingsuren/3795", "brand": "Colruyt", "brand:wikidata": "Q2363991", "nsi_id": "colruyt-27c1df"}, "geometry": {"type": "Point", "coordinates": [3.422303, 50.8900546]}},
{"type": "Feature", "id": "1RWUBwyQ-VsFKp6ouHxvjxJcvgI=", "properties": {"ref": "647", "@spider": "colruyt", "shop": "supermarket", "addr:housenumber": "17", "addr:street": "RUE DU MOULIN", "addr:city": "WAREMME", "addr:postcode": "4300", "addr:country": "BE", "name": "Colruyt", "website": "https://www.colruyt.be/nl/colruyt-openingsuren/3589", "brand": "Colruyt", "brand:wikidata": "Q2363991", "nsi_id": "colruyt-27c1df"}, "geometry": {"type": "Point", "coordinates": [5.2506662, 50.6976925]}},
{"type": "Feature", "id": "FAX9xwgYT9Eno0rXsLbZpT1M5Tk=", "properties": {"ref": "465", "@spider": "colruyt", "shop": "supermarket", "addr:housenumber": "10", "addr:street": "SENTIER DU PIED VERT", "addr:city": "WASMUEL", "addr:postcode": "7390", "addr:country": "BE", "name": "Colruyt", "website": "https://www.colruyt.be/nl/colruyt-openingsuren/3096", "brand": "Colruyt", "brand:wikidata": "Q2363991", "nsi_id": "colruyt-27c1df"}, "geometry": {"type": "Point", "coordinates": [3.84467, 50.4399931]}},
{"type": "Feature", "id": "x-BOh0sia_J95AI05r7e1P7c3XQ=", "properties": {"ref": "497", "@spider": "colruyt", "shop": "supermarket", "addr:housenumber": "684", "addr:street": "CHAUSSEE DE BRUXELLES", "addr:city": "WATERLOO", "addr:postcode": "1410", "addr:country": "BE", "name": "Colruyt", "website": "https://www.colruyt.be/nl/colruyt-openingsuren/3144", "brand": "Colruyt", "brand:wikidata": "Q2363991", "nsi_id": "colruyt-27c1df"}, "geometry": {"type": "Point", "coordinates": [4.4037911, 50.6940329]}},
{"type": "Feature", "id": "QuxYvVBZZl_q0xFfzjxA3PWNraI=", "properties": {"ref": "624", "@spider": "colruyt", "shop": "supermarket", "addr:housenumber": "45", "addr:street": "AVENUE DES PRINCES", "addr:city": "WAVRE", "addr:postcode": "1300", "addr:country": "BE", "name": "Colruyt", "website": "https://www.colruyt.be/nl/colruyt-openingsuren/3555", "brand": "Colruyt", "brand:wikidata": "Q2363991", "nsi_id": "colruyt-27c1df"}, "geometry": {"type": "Point", "coordinates": [4.6155928, 50.7169591]}},
{"type": "Feature", "id": "DsR5UAHzYGi_94pp8JEPPm2qfTg=", "properties": {"ref": "861", "@spider": "colruyt", "shop": "supermarket", "addr:housenumber": "26", "addr:street": "RUE DE LA STATION", "addr:city": "WELLIN", "addr:postcode": "6920", "addr:country": "BE", "name": "Colruyt", "website": "https://www.colruyt.be/nl/colruyt-openingsuren/4108", "brand": "Colruyt", "brand:wikidata": "Q2363991", "nsi_id": "colruyt-27c1df"}, "geometry": {"type": "Point", "coordinates": [5.1179829, 50.0812316]}},
{"type": "Feature", "id": "gyVE_TDMTS1nR62znYEL7tZHb0Y=", "properties": {"ref": "1792", "@spider": "colruyt", "shop": "supermarket", "addr:housenumber": "906", "addr:street": "ROMEINSE STEENWEG", "addr:city": "WEMMEL", "addr:postcode": "1780", "addr:country": "BE", "name": "Colruyt", "website": "https://www.colruyt.be/nl/colruyt-openingsuren/4544", "brand": "Colruyt", "brand:wikidata": "Q2363991", "nsi_id": "colruyt-27c1df"}, "geometry": {"type": "Point", "coordinates": [4.321005, 50.8964]}},
{"type": "Feature", "id": "7VkgLCZ5L6Hy_vmMWSeC_qw59o4=", "properties": {"ref": "2619", "@spider": "colruyt", "shop": "supermarket", "addr:housenumber": "6A", "addr:street": "OP DER HAART", "addr:city": "WEMPERHARDT", "addr:postcode": "9999", "addr:country": "LU", "name": "Colruyt", "website": "https://www.colruyt.be/nl/colruyt-openingsuren/7127", "brand": "Colruyt", "brand:wikidata": "Q2363991", "nsi_id": "colruyt-27c1df"}, "geometry": {"type": "Point", "coordinates": [6.0497407, 50.1565663]}},
{"type": "Feature", "id": "7ZCpKx4fOnuHt1geO7v7BIJ1ZAw=", "properties": {"ref": "977", "@spider": "colruyt", "shop": "supermarket", "addr:housenumber": "1320", "addr:street": "CHAUSSEE DE DINANT", "addr:city": "WEPION", "addr:postcode": "5100", "addr:country": "BE", "name": "Colruyt", "website": "https://www.colruyt.be/nl/colruyt-openingsuren/4268", "brand": "Colruyt", "brand:wikidata": "Q2363991", "nsi_id": "colruyt-27c1df"}, "geometry": {"type": "Point", "coordinates": [4.8779397, 50.3923555]}},
{"type": "Feature", "id": "v-edl4an5dioDQWbyPZ1cZPOBmY=", "properties": {"ref": "559", "@spider": "colruyt", "shop": "supermarket", "addr:housenumber": "335", "addr:street": "ANTWERPSESTEENWEG", "addr:city": "WESTMALLE", "addr:postcode": "2390", "addr:country": "BE", "name": "Colruyt", "website": "https://www.colruyt.be/nl/colruyt-openingsuren/3433", "brand": "Colruyt", "brand:wikidata": "Q2363991", "nsi_id": "colruyt-27c1df"}, "geometry": {"type": "Point", "coordinates": [4.6872094, 51.2973417]}},
{"type": "Feature", "id": "8UtG86JBYhRElfl1AZOtzgTNtKQ=", "properties": {"ref": "613", "@spider": "colruyt", "shop": "supermarket", "addr:housenumber": "95", "addr:street": "GENTSESTEENWEG", "addr:city": "WETTEREN", "addr:postcode": "9230", "addr:country": "BE", "name": "Colruyt", "website": "https://www.colruyt.be/nl/colruyt-openingsuren/3536", "brand": "Colruyt", "brand:wikidata": "Q2363991", "nsi_id": "colruyt-27c1df"}, "geometry": {"type": "Point", "coordinates": [3.8726541, 51.0005391]}},
{"type": "Feature", "id": "zFqtJi1qHLLidJuATrqXWxaMKNc=", "properties": {"ref": "611", "@spider": "colruyt", "shop": "supermarket", "addr:housenumber": "34", "addr:street": "LAARSTRAAT", "addr:city": "WILRIJK", "addr:postcode": "2610", "addr:country": "BE", "name": "Colruyt", "website": "https://www.colruyt.be/nl/colruyt-openingsuren/3524", "brand": "Colruyt", "brand:wikidata": "Q2363991", "nsi_id": "colruyt-27c1df"}, "geometry": {"type": "Point", "coordinates": [4.3948029, 51.1747576]}},
{"type": "Feature", "id": "qMez7P6jySMxehhINMXtWICkqFU=", "properties": {"ref": "926", "@spider": "colruyt", "shop": "supermarket", "addr:housenumber": "587", "addr:street": "HERENTALSEBAAN", "addr:city": "WOMMELGEM", "addr:postcode": "2160", "addr:country": "BE", "name": "Colruyt", "website": "https://www.colruyt.be/nl/colruyt-openingsuren/4195", "brand": "Colruyt", "brand:wikidata": "Q2363991", "nsi_id": "colruyt-27c1df"}, "geometry": {"type": "Point", "coordinates": [4.5161654, 51.1970228]}},
{"type": "Feature", "id": "HIjicq510gwtdBw4-lkhJeSKC9o=", "properties": {"ref": "912", "@spider": "colruyt", "shop": "supermarket", "addr:housenumber": "23", "addr:street": "BOTESTRAAT", "addr:city": "WONDELGEM", "addr:postcode": "9032", "addr:country": "BE", "name": "Colruyt", "website": "https://www.colruyt.be/nl/colruyt-openingsuren/4176", "brand": "Colruyt", "brand:wikidata": "Q2363991", "nsi_id": "colruyt-27c1df"}, "geometry": {"type": "Point", "coordinates": [3.709028, 51.0880513]}},
{"type": "Feature", "id": "7tRmbvyCCqif1SJLfDUA4P4Ucnc=", "properties": {"ref": "665", "@spider": "colruyt", "shop": "supermarket", "addr:housenumber": "32", "addr:street": "SINT-LAURENTIUSSTRAAT", "addr:city": "ZEDELGEM", "addr:postcode": "8210", "addr:country": "BE", "name": "Colruyt", "website": "https://www.colruyt.be/nl/colruyt-openingsuren/3615", "brand": "Colruyt", "brand:wikidata": "Q2363991", "nsi_id": "colruyt-27c1df"}, "geometry": {"type": "Point", "coordinates": [3.1338667, 51.1429929]}},
{"type": "Feature", "id": "PjvJbndN2YdhXBw4GM6XOFuNXcI=", "properties": {"ref": "556", "@spider": "colruyt", "shop": "supermarket", "addr:housenumber": "2-6", "addr:street": "LANGE AKKER", "addr:city": "ZELE", "addr:postcode": "9240", "addr:country": "BE", "name": "Colruyt", "website": "https://www.colruyt.be/nl/colruyt-openingsuren/3421", "brand": "Colruyt", "brand:wikidata": "Q2363991", "nsi_id": "colruyt-27c1df"}, "geometry": {"type": "Point", "coordinates": [4.0301161, 51.0656944]}},
{"type": "Feature", "id": "Rj1eCap6S79218ID3PodX1-eviU=", "properties": {"ref": "483", "@spider": "colruyt", "shop": "supermarket", "addr:housenumber": "6", "addr:street": "WESTKADE", "addr:city": "ZELZATE", "addr:postcode": "9060", "addr:country": "BE", "name": "Colruyt", "website": "https://www.colruyt.be/nl/colruyt-openingsuren/3120", "brand": "Colruyt", "brand:wikidata": "Q2363991", "nsi_id": "colruyt-27c1df"}, "geometry": {"type": "Point", "coordinates": [3.8079068, 51.2012712]}},
{"type": "Feature", "id": "ChzEGoSB2fxN3ThjX38sYgP1vjQ=", "properties": {"ref": "891", "@spider": "colruyt", "shop": "supermarket", "addr:housenumber": "8A", "addr:street": "ZOERSELSTEENWEG", "addr:city": "ZOERSEL", "addr:postcode": "2980", "addr:country": "BE", "name": "Colruyt", "website": "https://www.colruyt.be/nl/colruyt-openingsuren/4143", "brand": "Colruyt", "brand:wikidata": "Q2363991", "nsi_id": "colruyt-27c1df"}, "geometry": {"type": "Point", "coordinates": [4.6401541, 51.2669014]}},
{"type": "Feature", "id": "Dwcb_7jJ3nI3DbTGU1i3kMeLcR8=", "properties": {"ref": "2830", "@spider": "colruyt", "shop": "supermarket", "addr:housenumber": "62", "addr:street": "HEUVENEINDEWEG", "addr:city": "ZONHOVEN", "addr:postcode": "3520", "addr:country": "BE", "name": "Colruyt", "website": "https://www.colruyt.be/nl/colruyt-openingsuren/7651", "brand": "Colruyt", "brand:wikidata": "Q2363991", "nsi_id": "colruyt-27c1df"}, "geometry": {"type": "Point", "coordinates": [5.3643159, 50.9771478]}},
{"type": "Feature", "id": "GAKfWMn_EZ91oKxUqcojnEXhPEg=", "properties": {"ref": "653", "@spider": "colruyt", "shop": "supermarket", "addr:housenumber": "2", "addr:street": "BIJLOKESTRAAT", "addr:city": "ZOTTEGEM", "addr:postcode": "9620", "addr:country": "BE", "name": "Colruyt", "website": "https://www.colruyt.be/nl/colruyt-openingsuren/3599", "brand": "Colruyt", "brand:wikidata": "Q2363991", "nsi_id": "colruyt-27c1df"}, "geometry": {"type": "Point", "coordinates": [3.828794, 50.87875]}}]}