{"type":"FeatureCollection","features":[{"type": "Feature", "id": "jJOPtCAeasBMCiBe74-XwLS8L2Y=", "properties": {"ref": "versailles", "@spider": "completude", "addr:full": "29 rue du Mar\u00e9chal Foch", "addr:city": "VERSAILLES ", "addr:postcode": "78000", "addr:country": "FR", "phone": "01 30 21 11 78", "website": "https://www.completude.com/agence/versailles/", "brand": "Compl\u00e9tude", "brand:wikidata": "Q2990589"}, "geometry": {"type": "Point", "coordinates": [2.1326089, 48.8074996]}},
{"type": "Feature", "id": "fL1Q3gTzT7J1Zl-VXvABqOtFt4Q=", "properties": {"ref": "paris", "@spider": "completude", "addr:full": "38 rue Blomet", "addr:city": "PARIS ", "addr:postcode": "75015", "addr:country": "FR", "phone": "01 56 58 58 58", "website": "https://www.completude.com/agence/paris/", "brand": "Compl\u00e9tude", "brand:wikidata": "Q2990589"}, "geometry": {"type": "Point", "coordinates": [2.306257, 48.842829]}},
{"type": "Feature", "id": "gprSnin87PeBV7Jy0WQLOSedtbY=", "properties": {"ref": "tours", "@spider": "completude", "addr:full": "41 rue Marceau", "addr:city": "TOURS ", "addr:postcode": "37000", "addr:country": "FR", "phone": "02 47 60 12 30", "website": "https://www.completude.com/agence/tours/", "brand": "Compl\u00e9tude", "brand:wikidata": "Q2990589"}, "geometry": {"type": "Point", "coordinates": [0.685418, 47.392743]}},
{"type": "Feature", "id": "c2PXKZpHmElwOAEFE-onAjYAP1A=", "properties": {"ref": "toulouse", "@spider": "completude", "addr:full": "40 rue des Couteliers", "addr:city": "TOULOUSE ", "addr:postcode": "31000", "addr:country": "FR", "phone": "05 61 10 29 29", "website": "https://www.completude.com/agence/toulouse/", "brand": "Compl\u00e9tude", "brand:wikidata": "Q2990589"}, "geometry": {"type": "Point", "coordinates": [1.4417, 43.5991]}},
{"type": "Feature", "id": "0lq4-omtxlRcr7kFnjHxL8ZJlso=", "properties": {"ref": "toulon", "@spider": "completude", "addr:full": "176 avenue Vauban", "addr:city": "TOULON ", "addr:postcode": "83000", "addr:country": "FR", "phone": "04 94 15 10 76", "website": "https://www.completude.com/agence/toulon/", "brand": "Compl\u00e9tude", "brand:wikidata": "Q2990589"}, "geometry": {"type": "Point", "coordinates": [5.928899, 43.12671]}},
{"type": "Feature", "id": "BbtKV6BJyqarbLtarRptm2rpoEA=", "properties": {"ref": "strasbourg", "@spider": "completude", "addr:full": "61 rue du Faubourg de Pierre", "addr:city": "STRASBOURG ", "addr:postcode": "67000", "addr:country": "FR", "phone": "03 88 10 80 06", "website": "https://www.completude.com/agence/strasbourg/", "brand": "Compl\u00e9tude", "brand:wikidata": "Q2990589"}, "geometry": {"type": "Point", "coordinates": [7.745044, 48.589787]}},
{"type": "Feature", "id": "lTqMXX3Wl19Kn2DX8GlOeROIn00=", "properties": {"ref": "saint-nazaire", "@spider": "completude", "addr:full": "62 avenue de la R\u00e9publique", "addr:city": "SAINT NAZAIRE ", "addr:postcode": "44600", "addr:country": "FR", "phone": "02 28 54 33 24", "website": "https://www.completude.com/agence/saint-nazaire/", "brand": "Compl\u00e9tude", "brand:wikidata": "Q2990589"}, "geometry": {"type": "Point", "coordinates": [-2.2118820724441, 47.279849669356]}},
{"type": "Feature", "id": "voMZwOBPgF5kRH4AzqrFk9mcfDA=", "properties": {"ref": "rouen", "@spider": "completude", "addr:full": "19 rue de la R\u00e9publique", "addr:city": "ROUEN ", "addr:postcode": "76000", "addr:country": "FR", "phone": "02 35 71 51 54", "website": "https://www.completude.com/agence/rouen/", "brand": "Compl\u00e9tude", "brand:wikidata": "Q2990589"}, "geometry": {"type": "Point", "coordinates": [1.097357, 49.439989]}},
{"type": "Feature", "id": "6C13kUKzkWcXfrMcSSEseKHcT-w=", "properties": {"ref": "rennes", "@spider": "completude", "addr:full": "52 boulevard de la Libert\u00e9", "addr:city": "RENNES ", "addr:postcode": "35000", "addr:country": "FR", "phone": "02 99 78 10 97", "website": "https://www.completude.com/agence/rennes/", "brand": "Compl\u00e9tude", "brand:wikidata": "Q2990589"}, "geometry": {"type": "Point", "coordinates": [-1.6831094901312, 48.108414828272]}},
{"type": "Feature", "id": "N4BDjXjEn2whlTmpiMpbdF9r6wc=", "properties": {"ref": "poitiers", "@spider": "completude", "addr:full": "2 rue Alsace Lorraine", "addr:city": "POITIERS ", "addr:postcode": "86000", "addr:country": "FR", "phone": "05 49 49 91 40", "website": "https://www.completude.com/agence/poitiers/", "brand": "Compl\u00e9tude", "brand:wikidata": "Q2990589"}, "geometry": {"type": "Point", "coordinates": [0.33911181044221, 46.578049726327]}},
{"type": "Feature", "id": "rny8fDkAqufToK-4MujXc_CRcgo=", "properties": {"ref": "pau", "@spider": "completude", "addr:full": "18 cours Bosquet", "addr:city": "PAU ", "addr:postcode": "64000", "addr:country": "FR", "phone": "05 59 90 99 95", "website": "https://www.completude.com/agence/pau/", "brand": "Compl\u00e9tude", "brand:wikidata": "Q2990589"}, "geometry": {"type": "Point", "coordinates": [-0.36642231417626, 43.297500930886]}},
{"type": "Feature", "id": "qoqppPHqH6mMin2PBZX4BZYRt_M=", "properties": {"ref": "orleans", "@spider": "completude", "addr:full": "76 rue Bannier", "addr:city": "ORLEANS ", "addr:postcode": "45000", "addr:country": "FR", "phone": "02 38 65 44 10", "website": "https://www.completude.com/agence/orleans/", "brand": "Compl\u00e9tude", "brand:wikidata": "Q2990589"}, "geometry": {"type": "Point", "coordinates": [1.90269, 47.905006]}},
{"type": "Feature", "id": "ot2X_D6TZEFEU_64xCDbNsORJUY=", "properties": {"ref": "nice", "@spider": "completude", "addr:full": "31 rue de la Buffa", "addr:city": "NICE ", "addr:postcode": "06000", "addr:country": "FR", "phone": "04 93 16 01 04", "website": "https://www.completude.com/agence/nice/", "brand": "Compl\u00e9tude", "brand:wikidata": "Q2990589"}, "geometry": {"type": "Point", "coordinates": [7.261749, 43.69702]}},
{"type": "Feature", "id": "i82S-SRemnDUXydfa9R7IcYOnyU=", "properties": {"ref": "nantes", "@spider": "completude", "addr:full": "1 quai de la Fosse", "addr:city": "NANTES ", "addr:postcode": "44000", "addr:country": "FR", "phone": "02 40 35 97 97", "website": "https://www.completude.com/agence/nantes/", "brand": "Compl\u00e9tude", "brand:wikidata": "Q2990589"}, "geometry": {"type": "Point", "coordinates": [-1.559421, 47.21205]}},
{"type": "Feature", "id": "PeMHtQbeoYxWNrWHax9wZg6g-E8=", "properties": {"ref": "nancy", "@spider": "completude", "addr:full": "145 rue Saint-Dizier", "addr:city": "NANCY ", "addr:postcode": "54000", "addr:country": "FR", "phone": "03 83 30 38 78", "website": "https://www.completude.com/agence/nancy/", "brand": "Compl\u00e9tude", "brand:wikidata": "Q2990589"}, "geometry": {"type": "Point", "coordinates": [6.1853218, 48.6869913]}},
{"type": "Feature", "id": "N27xFWyHco6oe0E_ReHM5cLpQfM=", "properties": {"ref": "montpellier", "@spider": "completude", "addr:full": "4 boulevard du Jeu de Paume", "addr:city": "MONTPELLIER ", "addr:postcode": "34000", "addr:country": "FR", "phone": "04 67 29 10 67", "website": "https://www.completude.com/agence/montpellier/", "brand": "Compl\u00e9tude", "brand:wikidata": "Q2990589"}, "geometry": {"type": "Point", "coordinates": [3.87313, 43.608476]}},
{"type": "Feature", "id": "JVd7ZfFipN686DFzTNe-05HA0mY=", "properties": {"ref": "metz", "@spider": "completude", "addr:full": "14 rue Gambetta", "addr:city": "METZ ", "addr:postcode": "57000", "addr:country": "FR", "phone": "03 87 65 54 70", "website": "https://www.completude.com/agence/metz/", "brand": "Compl\u00e9tude", "brand:wikidata": "Q2990589"}, "geometry": {"type": "Point", "coordinates": [6.1748017, 49.110443]}},
{"type": "Feature", "id": "n9La8gXOR8BBoifbAIzxQiLMiZs=", "properties": {"ref": "marseille", "@spider": "completude", "addr:full": "150 rue Paradis", "addr:city": "MARSEILLE ", "addr:postcode": "13006", "addr:country": "FR", "phone": "04 91 63 10 10", "website": "https://www.completude.com/agence/marseille/", "brand": "Compl\u00e9tude", "brand:wikidata": "Q2990589"}, "geometry": {"type": "Point", "coordinates": [5.379824, 43.286219]}},
{"type": "Feature", "id": "8GrMtaZiA8yh2SjyfugH948VgFg=", "properties": {"ref": "lyon", "@spider": "completude", "addr:full": "17 rue Dunoir", "addr:city": "LYON ", "addr:postcode": "69003", "addr:country": "FR", "phone": "04 72 84 62 62", "website": "https://www.completude.com/agence/lyon/", "brand": "Compl\u00e9tude", "brand:wikidata": "Q2990589"}, "geometry": {"type": "Point", "coordinates": [4.8470731484795, 45.761068637205]}},
{"type": "Feature", "id": "_qEkEeBxzBagddylgDzG67CTl0s=", "properties": {"ref": "lorient", "@spider": "completude", "addr:full": "11 boulevard du G\u00e9n\u00e9ral Leclerc", "addr:city": "LORIENT ", "addr:postcode": "56100", "addr:country": "FR", "phone": "02 97 78 55 20", "website": "https://www.completude.com/agence/lorient/", "brand": "Compl\u00e9tude", "brand:wikidata": "Q2990589"}, "geometry": {"type": "Point", "coordinates": [-3.3653262, 47.7485413]}},
{"type": "Feature", "id": "O3upBEurgZyDel0ZUqV5vir0es0=", "properties": {"ref": "limoges", "@spider": "completude", "addr:full": "2 rue Jean Jaur\u00e8s", "addr:city": "LIMOGES ", "addr:postcode": "87000", "addr:country": "FR", "phone": "05 55 11 09 02", "website": "https://www.completude.com/agence/limoges/", "brand": "Compl\u00e9tude", "brand:wikidata": "Q2990589"}, "geometry": {"type": "Point", "coordinates": [1.2616180398713, 45.828859483436]}},
{"type": "Feature", "id": "q29-USIslQRpCC1_oCe3uyYH6wg=", "properties": {"ref": "lille", "@spider": "completude", "addr:full": "78 rue Nationale", "addr:city": "LILLE ", "addr:postcode": "59000", "addr:country": "FR", "phone": "03 20 15 15 15", "website": "https://www.completude.com/agence/lille/", "brand": "Compl\u00e9tude", "brand:wikidata": "Q2990589"}, "geometry": {"type": "Point", "coordinates": [3.0598283, 50.6358665]}},
{"type": "Feature", "id": "AjEWgFtHAwcVSraOKxRib_6FszU=", "properties": {"ref": "grenoble", "@spider": "completude", "addr:full": "17 cours Berriat", "addr:city": "GRENOBLE ", "addr:postcode": "38000", "addr:country": "FR", "phone": "04 76 47 22 12", "website": "https://www.completude.com/agence/grenoble/", "brand": "Compl\u00e9tude", "brand:wikidata": "Q2990589"}, "geometry": {"type": "Point", "coordinates": [5.7217938, 45.1878645]}},
{"type": "Feature", "id": "V0w8uBQiPL0t9mJsnqr2_pX0bUE=", "properties": {"ref": "dijon", "@spider": "completude", "addr:full": "5 boulevard de la Tr\u00e9mouille", "addr:city": "DIJON ", "addr:postcode": "21000", "addr:country": "FR", "phone": "03 80 49 91 08", "website": "https://www.completude.com/agence/dijon/", "brand": "Compl\u00e9tude", "brand:wikidata": "Q2990589"}, "geometry": {"type": "Point", "coordinates": [5.0428123, 47.3261691]}},
{"type": "Feature", "id": "dYJ232HrzJe0YfxkmWHjNKxypiM=", "properties": {"ref": "clermont-ferrand", "@spider": "completude", "addr:full": "49 rue Blatin", "addr:city": "CLERMONT-FERRAND ", "addr:postcode": "63000", "addr:country": "FR", "phone": "04 73 30 88 10", "website": "https://www.completude.com/agence/clermont-ferrand/", "brand": "Compl\u00e9tude", "brand:wikidata": "Q2990589"}, "geometry": {"type": "Point", "coordinates": [3.077765, 45.77671]}},
{"type": "Feature", "id": "G6rtWjJeVBDk7SUmCtg_m6ruGMc=", "properties": {"ref": "caen", "@spider": "completude", "addr:full": "24 avenue du six juin", "addr:city": "CAEN ", "addr:postcode": "14000", "addr:country": "FR", "phone": "02 31 06 04 91", "website": "https://www.completude.com/agence/caen/", "brand": "Compl\u00e9tude", "brand:wikidata": "Q2990589"}, "geometry": {"type": "Point", "coordinates": [-0.35719291955078, 49.181557932587]}},
{"type": "Feature", "id": "cq7L880m3X4yVxx7F57Hgm8X6ZM=", "properties": {"ref": "brest", "@spider": "completude", "addr:full": "23 rue Jean Mac\u00e9", "addr:city": "BREST ", "addr:postcode": "29200", "addr:country": "FR", "phone": "02 98 41 25 54", "website": "https://www.completude.com/agence/brest/", "brand": "Compl\u00e9tude", "brand:wikidata": "Q2990589"}, "geometry": {"type": "Point", "coordinates": [-4.4879573312283, 48.386824424559]}},
{"type": "Feature", "id": "shUge4bCooKUynMpaxydjTeMSq4=", "properties": {"ref": "bordeaux", "@spider": "completude", "addr:full": "15 rue Dr Charles Nancel P\u00e9nard", "addr:city": "BORDEAUX ", "addr:postcode": "33000", "addr:country": "FR", "phone": "05 56 52 09 36", "website": "https://www.completude.com/agence/bordeaux/", "brand": "Compl\u00e9tude", "brand:wikidata": "Q2990589"}, "geometry": {"type": "Point", "coordinates": [-0.581124, 44.839986]}},
{"type": "Feature", "id": "U9enz_foqFvS3GOuBvcuD8cP3Vg=", "properties": {"ref": "angers", "@spider": "completude", "addr:full": "17 place Moli\u00e8re", "addr:city": "ANGERS ", "addr:postcode": "49100", "addr:country": "FR", "phone": "02 41 22 19 19", "website": "https://www.completude.com/agence/angers/", "brand": "Compl\u00e9tude", "brand:wikidata": "Q2990589"}, "geometry": {"type": "Point", "coordinates": [-0.55493799999999, 47.4738]}},
{"type": "Feature", "id": "e1W7ZKwRhsENk4rg-tbUj4hvaF8=", "properties": {"ref": "aix-en-provence", "@spider": "completude", "addr:full": "5 bis cours Sextius", "addr:city": "AIX-EN-PROVENCE ", "addr:postcode": "13100", "addr:country": "FR", "phone": "04 42 20 94 97", "website": "https://www.completude.com/agence/aix-en-provence/", "brand": "Compl\u00e9tude", "brand:wikidata": "Q2990589"}, "geometry": {"type": "Point", "coordinates": [5.4437359815324, 43.527969434425]}},
{"type": "Feature", "id": "so8r4MJexV81HAxA9bLvVi4Ikh4=", "properties": {"ref": "neuilly-sur-seine", "@spider": "completude", "addr:full": "133 avenue Charles de Gaulle", "addr:city": "NEUILLY-SUR-SEINE ", "addr:postcode": "92200", "addr:country": "FR", "phone": "01 46 37 86 48", "website": "https://www.completude.com/agence/neuilly-sur-seine/", "brand": "Compl\u00e9tude", "brand:wikidata": "Q2990589"}, "geometry": {"type": "Point", "coordinates": [2.267062, 48.88239]}}]}