{"type":"FeatureCollection","features":[{"type": "Feature", "id": "qNHOCGQSPDTU6UhbA0Gv0reSEcg=", "properties": {"ref": "c0c0ffb7-8443-43cc-8c0d-a52e4a0fbaa3", "@spider": "concentra", "addr:full": "6405 SW Rosewood", "addr:city": "Lake Oswego", "addr:state": "\r\n    OR", "addr:postcode": "97035", "name": "Lake Oswego", "phone": "\r\n                  ", "website": "https://www.concentra.com/urgent-care-centers/oregon/portland/lake-oswego-urgent-care/", "brand": "Concentra", "brand:wikidata": "Q5158304"}, "geometry": {"type": "Point", "coordinates": [-122.74165, 45.40074]}},
{"type": "Feature", "id": "Wi7sG-zkmbEk1pYWK5G2M_iXBEA=", "properties": {"ref": "f951df09-99f9-437d-b539-6e620eeac593", "@spider": "concentra", "addr:full": "12518 NE Airport Way", "addr:city": "Airport Portland", "addr:state": "\r\n    OR", "addr:postcode": "97230", "name": "Airport Portland", "phone": "\r\n                  ", "website": "https://www.concentra.com/urgent-care-centers/oregon/portland/airport-portland-urgent-care/", "brand": "Concentra", "brand:wikidata": "Q5158304"}, "geometry": {"type": "Point", "coordinates": [-122.52697, 45.5627]}},
{"type": "Feature", "id": "5N-om4XnlzY5Pj_RZMdAQdV6LWg=", "properties": {"ref": "d78e316c-186f-4d63-813f-72a00f8eca3d", "@spider": "concentra", "addr:full": "3449 N Anchor Street", "addr:city": "Swan Island", "addr:state": "\r\n    OR", "addr:postcode": "97217", "name": "Swan Island", "phone": "\r\n                  ", "website": "https://www.concentra.com/urgent-care-centers/oregon/portland/swan-island-urgent-care/", "brand": "Concentra", "brand:wikidata": "Q5158304"}, "geometry": {"type": "Point", "coordinates": [-122.70236, 45.55847]}},
{"type": "Feature", "id": "PcGcEbDpp3eVVXffFZF2eyPRyQA=", "properties": {"ref": "d0140bb0-1b50-408d-a61a-88a349fd3c2f", "@spider": "concentra", "addr:full": "2225 NW Towncenter Drive", "addr:city": "Tanasbourne", "addr:state": "\r\n    OR", "addr:postcode": "97006", "name": "Tanasbourne", "phone": "\r\n                  ", "website": "https://www.concentra.com/urgent-care-centers/oregon/portland/tanasbourne-urgent-care/", "brand": "Concentra", "brand:wikidata": "Q5158304"}, "geometry": {"type": "Point", "coordinates": [-122.86682, 45.53586]}},
{"type": "Feature", "id": "kQrlt1Q3x-k7Mglog0n9t3L9tTE=", "properties": {"ref": "add7e22d-c09a-43da-86a3-faf5593e5741", "@spider": "concentra", "addr:full": "3928 Pacific Avenue SE", "addr:city": "Lacey", "addr:state": "\r\n    WA", "addr:postcode": "98503-1109", "name": "Lacey", "phone": "\r\n                  ", "website": "https://www.concentra.com/urgent-care-centers/washington/portland/lacey-urgent-care/", "brand": "Concentra", "brand:wikidata": "Q5158304"}, "geometry": {"type": "Point", "coordinates": [-122.83667358529999, 47.0400980653]}},
{"type": "Feature", "id": "VYh55W70VZYUBn7i0H8ya-N33AM=", "properties": {"ref": "307cb0b8-ffb4-44a7-aa63-6b727784040b", "@spider": "concentra", "addr:full": "3850 South Meridian", "addr:city": "Puyallup", "addr:state": "\r\n    WA", "addr:postcode": "98373-3701", "name": "Puyallup", "phone": "\r\n                  ", "website": "https://www.concentra.com/urgent-care-centers/washington/portland/puyallup-urgent-care/", "brand": "Concentra", "brand:wikidata": "Q5158304"}, "geometry": {"type": "Point", "coordinates": [-122.29344, 47.1552]}},
{"type": "Feature", "id": "1UShewLzCp9AMTOlbU3cxIr5IsU=", "properties": {"ref": "3bc9a3a0-1e94-448a-ba46-f9c276ecebf1", "@spider": "concentra", "addr:full": "2624 South 38th St.", "addr:city": "Tacoma", "addr:state": "\r\n    WA", "addr:postcode": "98409-7308", "name": "Tacoma", "phone": "\r\n                  ", "website": "https://www.concentra.com/urgent-care-centers/washington/portland/tacoma-urgent-care/", "brand": "Concentra", "brand:wikidata": "Q5158304"}, "geometry": {"type": "Point", "coordinates": [-122.47272, 47.22215]}},
{"type": "Feature", "id": "a27_UOnK3YzQg2fW_eeqlvwMYPU=", "properties": {"ref": "8a7d4cde-3533-4350-9595-72491c048590", "@spider": "concentra", "addr:full": "1300 South 320th St.", "addr:city": "Federal Way", "addr:state": "\r\n    WA", "addr:postcode": "98003-5359", "name": "Federal Way", "phone": "\r\n                  ", "website": "https://www.concentra.com/urgent-care-centers/washington/portland/federal-way-urgent-care/", "brand": "Concentra", "brand:wikidata": "Q5158304"}, "geometry": {"type": "Point", "coordinates": [-122.31623, 47.31558]}},
{"type": "Feature", "id": "6w3HQPH2aO3QjINHrK0CrZgXecU=", "properties": {"ref": "3a241ec7-253a-4349-bcba-f2ff0a49f0df", "@spider": "concentra", "addr:full": "24031 104th Ave. SE", "addr:city": "Kent", "addr:state": "\r\n    WA", "addr:postcode": "98030-4975", "name": "Kent", "phone": "\r\n                  ", "website": "https://www.concentra.com/urgent-care-centers/washington/portland/kent-urgent-care/", "brand": "Concentra", "brand:wikidata": "Q5158304"}, "geometry": {"type": "Point", "coordinates": [-122.20287, 47.38606]}},
{"type": "Feature", "id": "X12111WaRVu9HNKAUuO0tTykB5Q=", "properties": {"ref": "90d9a3cc-9613-46a7-b906-50922b57d56a", "@spider": "concentra", "addr:full": "200 Andover Park East", "addr:city": "Tukwila", "addr:state": "\r\n    WA", "addr:postcode": "98188-2938", "name": "Tukwila", "phone": "\r\n                  ", "website": "https://www.concentra.com/urgent-care-centers/washington/portland/tukwila-urgent-care/", "brand": "Concentra", "brand:wikidata": "Q5158304"}, "geometry": {"type": "Point", "coordinates": [-122.24917, 47.45758]}},
{"type": "Feature", "id": "0IoX_ebV2mqVtx4fKikh-jwohw0=", "properties": {"ref": "bb448a79-414f-4d72-8ce8-cb52b02669e0", "@spider": "concentra", "addr:full": "3223 1st Avenue S.", "addr:city": "First Avenue", "addr:state": "\r\n    WA", "addr:postcode": "98134-1850", "name": "First Avenue", "phone": "\r\n                  ", "website": "https://www.concentra.com/urgent-care-centers/washington/portland/first-avenue-urgent-care/", "brand": "Concentra", "brand:wikidata": "Q5158304"}, "geometry": {"type": "Point", "coordinates": [-122.33472, 47.574932]}},
{"type": "Feature", "id": "qM00h2-V_d6UwOSvxFsu-x3sLvI=", "properties": {"ref": "acab6094-1505-42fe-a5b3-8d04f086e32c", "@spider": "concentra", "addr:full": "1925 140th Ave. NE", "addr:city": "Bellevue", "addr:state": "\r\n    WA", "addr:postcode": "98005-2303", "name": "Bellevue", "phone": "\r\n                  ", "website": "https://www.concentra.com/urgent-care-centers/washington/portland/bellevue-urgent-care/", "brand": "Concentra", "brand:wikidata": "Q5158304"}, "geometry": {"type": "Point", "coordinates": [-122.15387, 47.62735]}},
{"type": "Feature", "id": "aBacE2qWLXSB82yFhyVA1-7YBe8=", "properties": {"ref": "e5a6f9eb-2f9d-4d1b-96c1-9ac1737979d7", "@spider": "concentra", "addr:full": "16690 Redmond Way", "addr:city": "Redmond", "addr:state": "\r\n    WA", "addr:postcode": "98052-4434", "name": "Redmond", "phone": "\r\n                  ", "website": "https://www.concentra.com/urgent-care-centers/washington/portland/redmond-urgent-care/", "brand": "Concentra", "brand:wikidata": "Q5158304"}, "geometry": {"type": "Point", "coordinates": [-122.11811, 47.67317]}},
{"type": "Feature", "id": "8uH2yMm7-HI-fN7FgKwWas3tx68=", "properties": {"ref": "0b2f7fe9-68ac-4979-853d-ee3fa3ab8dd5", "@spider": "concentra", "addr:full": "836 NE Northgate Way", "addr:city": "Northgate", "addr:state": "\r\n    WA", "addr:postcode": "98125-7312", "name": "Northgate", "phone": "\r\n                  ", "website": "https://www.concentra.com/urgent-care-centers/washington/portland/northgate-urgent-care/", "brand": "Concentra", "brand:wikidata": "Q5158304"}, "geometry": {"type": "Point", "coordinates": [-122.320007, 47.70969]}},
{"type": "Feature", "id": "ErVHsdYCs-3uYpP-e_ECB81Hi60=", "properties": {"ref": "bd707390-8b6c-415f-b53a-7840a305c064", "@spider": "concentra", "addr:full": "4320 196th St. SW", "addr:city": "Lynnwood", "addr:state": "\r\n    WA", "addr:postcode": "98036-6773", "name": "Lynnwood", "phone": "\r\n                  ", "website": "https://www.concentra.com/urgent-care-centers/washington/portland/lynnwood-urgent-care/", "brand": "Concentra", "brand:wikidata": "Q5158304"}, "geometry": {"type": "Point", "coordinates": [-122.291938162, 47.820481941]}},
{"type": "Feature", "id": "_ayvDKTLLipsdBUcQtBkq0pAJeM=", "properties": {"ref": "2a4dc7e5-29b9-4967-87aa-7d158b01a518", "@spider": "concentra", "addr:full": "3101 111th St. SW", "addr:city": "Everett (Paine Field)", "addr:state": "\r\n    WA", "addr:postcode": "98204-3590", "name": "Everett (Paine Field)", "phone": "\r\n                  ", "website": "https://www.concentra.com/urgent-care-centers/washington/portland/paine-field-urgent-care/", "brand": "Concentra", "brand:wikidata": "Q5158304"}, "geometry": {"type": "Point", "coordinates": [-122.2753, 47.89747]}},
{"type": "Feature", "id": "3T2PCe0DfMX5HqKT1KU8WzBhEkU=", "properties": {"ref": "fa103a28-3d4b-4922-b334-7184ff033936", "@spider": "concentra", "addr:full": "3726 Broadway", "addr:city": "Everett (Broadway)", "addr:state": "\r\n    WA", "addr:postcode": "98201-5030", "name": "Everett (Broadway)", "phone": "\r\n                  ", "website": "https://www.concentra.com/urgent-care-centers/washington/portland/everett-broadway-urgent-care/", "brand": "Concentra", "brand:wikidata": "Q5158304"}, "geometry": {"type": "Point", "coordinates": [-122.20156, 47.96853]}},
{"type": "Feature", "id": "8yD42Aj4eFRXTaE8nUdxmX3U2IU=", "properties": {"ref": "1f51f348-166a-4074-9905-f6e720050bd8", "@spider": "concentra", "addr:full": "2005 E. 29th Ave", "addr:city": "South Hill", "addr:state": "\r\n    WA", "addr:postcode": "99203-3957", "name": "South Hill", "phone": "\r\n                  ", "website": "https://www.concentra.com/urgent-care-centers/washington/portland/south-hill-urgent-care/", "brand": "Concentra", "brand:wikidata": "Q5158304"}, "geometry": {"type": "Point", "coordinates": [-117.380636, 47.628484]}},
{"type": "Feature", "id": "hEznw7Ff8ZdZOV_CrQtTKoGjFRs=", "properties": {"ref": "95c78f43-763b-4896-8aff-80b22a2aa82f", "@spider": "concentra", "addr:full": "9222 North Newport Hwy.", "addr:city": "Northside", "addr:state": "\r\n    WA", "addr:postcode": "99218-1235", "name": "Northside", "phone": "\r\n                  ", "website": "https://www.concentra.com/urgent-care-centers/washington/portland/northside-urgent-care/", "brand": "Concentra", "brand:wikidata": "Q5158304"}, "geometry": {"type": "Point", "coordinates": [-117.409256, 47.741293]}},
{"type": "Feature", "id": "N8afQwLJVd45KmkmU0VVtIt51C0=", "properties": {"ref": "f11cb356-d042-40ae-8461-2545eed7df11", "@spider": "concentra", "addr:full": "15425 East Mission Ave", "addr:city": "Valley", "addr:state": "\r\n    WA", "addr:postcode": "99037-9505", "name": "Valley", "phone": "\r\n                  ", "website": "https://www.concentra.com/urgent-care-centers/washington/portland/valley-urgent-care/", "brand": "Concentra", "brand:wikidata": "Q5158304"}, "geometry": {"type": "Point", "coordinates": [-117.197033, 47.667022]}},
{"type": "Feature", "id": "TrtMFsY2ZgJUxloXdV707xfanoQ=", "properties": {"ref": "06455bf0-8eb3-4e83-8279-196c41a29f47", "@spider": "concentra", "addr:full": "255 Glendale Ave", "addr:city": "Sparks", "addr:state": "\r\n    NV", "addr:postcode": "89431", "name": "Sparks", "phone": "\r\n                  ", "website": "https://www.concentra.com/urgent-care-centers/nevada/reno/sparks-urgent-care/", "brand": "Concentra", "brand:wikidata": "Q5158304"}, "geometry": {"type": "Point", "coordinates": [-119.74601, 39.52696]}},
{"type": "Feature", "id": "-gkBwNJyK10XBM4WdqGp7_7aIjk=", "properties": {"ref": "caca96f8-326c-41c5-875d-84b8e5b585a0", "@spider": "concentra", "addr:full": "6410 South Virginia Street", "addr:city": "Reno South", "addr:state": "\r\n    NV", "addr:postcode": "89511", "name": "Reno South", "phone": "\r\n                  ", "website": "https://www.concentra.com/urgent-care-centers/nevada/reno/reno-south-urgent-care/", "brand": "Concentra", "brand:wikidata": "Q5158304"}, "geometry": {"type": "Point", "coordinates": [-119.78444, 39.46773]}},
{"type": "Feature", "id": "nnMUcvS9lEXt2ggrZHD2ET3elUc=", "properties": {"ref": "62d0ff31-2f61-4a0c-8cd2-308fb6edbfcc", "@spider": "concentra", "addr:full": "3488 Goni Rd Ste 141", "addr:city": "Carson City", "addr:state": "\r\n    NV", "addr:postcode": "89706", "name": "Carson City", "phone": "\r\n                  ", "website": "https://www.concentra.com/urgent-care-centers/nevada/reno/carson-city-urgent-care/", "brand": "Concentra", "brand:wikidata": "Q5158304"}, "geometry": {"type": "Point", "coordinates": [-119.748177, 39.188522]}},
{"type": "Feature", "id": "U6PjIEhhIYs0Zx1ceCLvcksNP_0=", "properties": {"ref": "1d37f046-ef19-4b90-9796-f5a6ac841ca1", "@spider": "concentra", "addr:full": "2305 Sunset Boulevard", "addr:city": "Rocklin", "addr:state": "\r\n    CA", "addr:postcode": "95765-4337", "name": "Rocklin", "phone": "\r\n                  ", "website": "https://www.concentra.com/urgent-care-centers/california/los-angeles/rocklin-urgent-care/", "brand": "Concentra", "brand:wikidata": "Q5158304"}, "geometry": {"type": "Point", "coordinates": [-121.26569, 38.79769]}},
{"type": "Feature", "id": "So7EFTJfFWpUXTfaOE4HF9U7oTY=", "properties": {"ref": "4736bafa-dd9c-4ded-aef5-561e930727a5", "@spider": "concentra", "addr:full": "4700 Northgate Blvd.", "addr:city": "Sacramento - North", "addr:state": "\r\n    CA", "addr:postcode": "95834-1128", "name": "Sacramento - North", "phone": "\r\n                  ", "website": "https://www.concentra.com/urgent-care-centers/california/los-angeles/sacramento-north-urgent-care/", "brand": "Concentra", "brand:wikidata": "Q5158304"}, "geometry": {"type": "Point", "coordinates": [-121.47703, 38.65423]}},
{"type": "Feature", "id": "8_aB7wNt0S37nOY3bacUzSdvuP0=", "properties": {"ref": "3d678a1e-c5de-4c82-a981-6c3f60f02707", "@spider": "concentra", "addr:full": "3680 Industrial Blvd.", "addr:city": "West Sacramento", "addr:state": "\r\n    CA", "addr:postcode": "95691", "name": "West Sacramento", "phone": "\r\n                  ", "website": "https://www.concentra.com/urgent-care-centers/california/los-angeles/west-sacramento-urgent-care/", "brand": "Concentra", "brand:wikidata": "Q5158304"}, "geometry": {"type": "Point", "coordinates": [-121.56606, 38.57422]}},
{"type": "Feature", "id": "uKpACcx8i1UZTuZ4umrBvWLLcoQ=", "properties": {"ref": "fd8b842d-bda6-43d4-9d12-3fa7a3c4dc33", "@spider": "concentra", "addr:full": "10670 White Rock Road", "addr:city": "Rancho Cordova", "addr:state": "\r\n    CA", "addr:postcode": "95670", "name": "Rancho Cordova", "phone": "\r\n                  ", "website": "https://www.concentra.com/urgent-care-centers/california/bay-area/rancho-cordova-urgent-care/", "brand": "Concentra", "brand:wikidata": "Q5158304"}, "geometry": {"type": "Point", "coordinates": [-121.29181, 38.58628]}},
{"type": "Feature", "id": "6-6VhBNx0iTTvuv6tCJll2lZ8Ww=", "properties": {"ref": "53bf2373-0b89-4538-979b-9db821a82310", "@spider": "concentra", "addr:full": "1675 Alhambra Blvd.", "addr:city": "Sacramento - Downtown", "addr:state": "\r\n    CA", "addr:postcode": "95816-7047", "name": "Sacramento - Downtown", "phone": "\r\n                  ", "website": "https://www.concentra.com/urgent-care-centers/california/los-angeles/sacramento-downtown-urgent-care/", "brand": "Concentra", "brand:wikidata": "Q5158304"}, "geometry": {"type": "Point", "coordinates": [-121.46761, 38.56388]}},
{"type": "Feature", "id": "UsopCzX9PfKtcsy7pAp6yMbcwG4=", "properties": {"ref": "2325dfcb-002e-4709-89b8-76d58cbec47d", "@spider": "concentra", "addr:full": "1221 N Dutton Avenue", "addr:city": "Santa Rosa", "addr:state": "\r\n    CA", "addr:postcode": "95401", "name": "Santa Rosa", "phone": "\r\n                  ", "website": "https://www.concentra.com/urgent-care-centers/california/bay-area/santa-rosa-urgent-care/", "brand": "Concentra", "brand:wikidata": "Q5158304"}, "geometry": {"type": "Point", "coordinates": [-122.73189, 38.44818]}},
{"type": "Feature", "id": "GwtuNWb44cQR82fPb-xfXJU93No=", "properties": {"ref": "2e2ac09e-8d11-44e4-9d14-cfd70e58b863", "@spider": "concentra", "addr:full": "6174 State Farm Drive", "addr:city": "Rohnert Park", "addr:state": "\r\n    CA", "addr:postcode": "94928", "name": "Rohnert Park", "phone": "\r\n                  ", "website": "https://www.concentra.com/urgent-care-centers/california/bay-area/rohnert-park-urgent-care/", "brand": "Concentra", "brand:wikidata": "Q5158304"}, "geometry": {"type": "Point", "coordinates": [-122.70589, 38.35037]}},
{"type": "Feature", "id": "q8-zKz0amdUgXrgady37VuRTQDg=", "properties": {"ref": "f2abe1d4-4314-4a8e-9b4e-b40bd1ed4f65", "@spider": "concentra", "addr:full": "2970 Hilltop Mall Road", "addr:city": "Richmond", "addr:state": "\r\n    CA", "addr:postcode": "94806", "name": "Richmond", "phone": "\r\n                  ", "website": "https://www.concentra.com/urgent-care-centers/california/bay-area/richmond-urgent-care/", "brand": "Concentra", "brand:wikidata": "Q5158304"}, "geometry": {"type": "Point", "coordinates": [-122.32955, 37.97817]}},
{"type": "Feature", "id": "vcVe58FZH5pIjupB3NWH-JfBS3E=", "properties": {"ref": "20a1ea46-7fb7-4239-9867-1a7d6d6855e2", "@spider": "concentra", "addr:full": "1855 Gateway Blvd.", "addr:city": "Concord Gateway", "addr:state": "\r\n    CA", "addr:postcode": "94520", "name": "Concord Gateway", "phone": "\r\n                  ", "website": "https://www.concentra.com/urgent-care-centers/california/los-angeles/concord-urgent-care/", "brand": "Concentra", "brand:wikidata": "Q5158304"}, "geometry": {"type": "Point", "coordinates": [-122.043847, 37.971158]}},
{"type": "Feature", "id": "e815ZAQptuccLFiz7_eDRrD1Uas=", "properties": {"ref": "00a0bf34-7fa5-41f6-821e-cd4061b2b71e", "@spider": "concentra", "addr:full": "1429 West Fremont Street", "addr:city": "Stockton West", "addr:state": "\r\n    CA", "addr:postcode": "95203-2627", "name": "Stockton West", "phone": "\r\n                  ", "website": "https://www.concentra.com/urgent-care-centers/california/los-angeles/stockton-west-urgent-care/", "brand": "Concentra", "brand:wikidata": "Q5158304"}, "geometry": {"type": "Point", "coordinates": [-121.310861, 37.954532]}},
{"type": "Feature", "id": "2agUwti_4UOYe86IpgesjPA-zNM=", "properties": {"ref": "6cd0f6eb-9e13-4584-b43b-305263e1f90b", "@spider": "concentra", "addr:full": "3140 Balfour Road", "addr:city": "Brentwood", "addr:state": "\r\n    CA", "addr:postcode": "94513", "name": "Brentwood", "phone": "\r\n                  ", "website": "https://www.concentra.com/urgent-care-centers/california/los-angeles/brentwood-urgent-care/", "brand": "Concentra", "brand:wikidata": "Q5158304"}, "geometry": {"type": "Point", "coordinates": [-121.722984, 37.924853]}},
{"type": "Feature", "id": "P9_VvkNcwYpL-KwB0Smw6wvq_ns=", "properties": {"ref": "5a0a95d1-ae09-4eb3-b423-48c327f959db", "@spider": "concentra", "addr:full": "1981 N. Broadway", "addr:city": "Walnut Creek", "addr:state": "\r\n    CA", "addr:postcode": "94596", "name": "Walnut Creek", "phone": "\r\n                  ", "website": "https://www.concentra.com/urgent-care-centers/california/los-angeles/walnut-creek-urgent-care/", "brand": "Concentra", "brand:wikidata": "Q5158304"}, "geometry": {"type": "Point", "coordinates": [-122.06186, 37.9057]}},
{"type": "Feature", "id": "GzQO4z8VG8izOcpf4lfP2Rdwy3w=", "properties": {"ref": "31e6295c-3bb7-4af7-83d4-6dd5d6f01b64", "@spider": "concentra", "addr:full": "3663 E. Arch Road", "addr:city": "Stockton Airport", "addr:state": "\r\n    CA", "addr:postcode": "95215-8315", "name": "Stockton Airport", "phone": "\r\n                  ", "website": "https://www.concentra.com/urgent-care-centers/california/los-angeles/stockton-airport-urgent-care/", "brand": "Concentra", "brand:wikidata": "Q5158304"}, "geometry": {"type": "Point", "coordinates": [-121.218396, 37.905754]}},
{"type": "Feature", "id": "MBRM2QrGEbvP8elnD6Cb0d5Cjkw=", "properties": {"ref": "44859f33-64af-479b-8cfc-23e497f4a17f", "@spider": "concentra", "addr:full": "2850 Seventh Street", "addr:city": "Berkeley", "addr:state": "\r\n    CA", "addr:postcode": "94710-2703", "name": "Berkeley", "phone": "\r\n                  ", "website": "https://www.concentra.com/urgent-care-centers/california/bay-area/berkeley-urgent-care/", "brand": "Concentra", "brand:wikidata": "Q5158304"}, "geometry": {"type": "Point", "coordinates": [-122.29236, 37.85392]}},
{"type": "Feature", "id": "leV30QLqkqmCZRgpranWlqbXut4=", "properties": {"ref": "bdae899c-caac-414d-a436-762f89e256e8", "@spider": "concentra", "addr:full": "384 Embarcadero West", "addr:city": "Oakland", "addr:state": "\r\n    CA", "addr:postcode": "94607", "name": "Oakland", "phone": "\r\n                  ", "website": "https://www.concentra.com/urgent-care-centers/california/bay-area/oakland-urgent-care/", "brand": "Concentra", "brand:wikidata": "Q5158304"}, "geometry": {"type": "Point", "coordinates": [-122.27512, 37.79477]}},
{"type": "Feature", "id": "NKI1igLXWVXyzbdWzJg2ltuK5UU=", "properties": {"ref": "af55c53a-c40b-4289-b779-62471812325f", "@spider": "concentra", "addr:full": "26 California Street", "addr:city": "Downtown San Francisco", "addr:state": "\r\n    CA", "addr:postcode": "94111", "name": "Downtown San Francisco", "phone": "\r\n                  ", "website": "https://www.concentra.com/urgent-care-centers/california/bay-area/downtown-san-francisco-urgent-care/", "brand": "Concentra", "brand:wikidata": "Q5158304"}, "geometry": {"type": "Point", "coordinates": [-122.39704, 37.7937]}},
{"type": "Feature", "id": "viB2YGDcmOviiDs1yH29IgnHl3M=", "properties": {"ref": "7a926021-bda7-4c7f-a9a1-40d84a900b2e", "@spider": "concentra", "addr:full": "2 Connecticut Street", "addr:city": "Potrero Hill", "addr:state": "\r\n    CA", "addr:postcode": "94107", "name": "Potrero Hill", "phone": "\r\n                  ", "website": "https://www.concentra.com/urgent-care-centers/california/bay-area/potrero-hill-urgent-care/", "brand": "Concentra", "brand:wikidata": "Q5158304"}, "geometry": {"type": "Point", "coordinates": [-122.3981, 37.76597]}},
{"type": "Feature", "id": "ZkBZiAYoDH8PVecnFnSi-hLYzEY=", "properties": {"ref": "00a82810-be92-471f-9a47-4225dc7f7584", "@spider": "concentra", "addr:full": "333 Hegenberger Road", "addr:city": "Oakland Airport", "addr:state": "\r\n    CA", "addr:postcode": "94621-0701", "name": "Oakland Airport", "phone": "\r\n                  ", "website": "https://www.concentra.com/urgent-care-centers/california/bay-area/oakland-airport-urgent-care/", "brand": "Concentra", "brand:wikidata": "Q5158304"}, "geometry": {"type": "Point", "coordinates": [-122.200611, 37.735684]}},
{"type": "Feature", "id": "rtnLVm59cX3yvrPgGTeHA381MrU=", "properties": {"ref": "6cabaaf0-2cbe-436c-ac09-869b0f4d10d2", "@spider": "concentra", "addr:full": "13939 E. 14th Street", "addr:city": "San Leandro East", "addr:state": "\r\n    CA", "addr:postcode": "94578-2613", "name": "San Leandro East", "phone": "\r\n                  ", "website": "https://www.concentra.com/urgent-care-centers/california/los-angeles/san-leandro-east-urgent-care/", "brand": "Concentra", "brand:wikidata": "Q5158304"}, "geometry": {"type": "Point", "coordinates": [-122.14148, 37.71309]}},
{"type": "Feature", "id": "hIGZ8FPwIJSKZDtXMAaIhF4wC0w=", "properties": {"ref": "04d893d5-7109-454d-b234-68af02a14391", "@spider": "concentra", "addr:full": "2587 Merced Street", "addr:city": "San Leandro", "addr:state": "\r\n    CA", "addr:postcode": "94577", "name": "San Leandro", "phone": "\r\n                  ", "website": "https://www.concentra.com/urgent-care-centers/california/bay-area/san-leandro-urgent-care/", "brand": "Concentra", "brand:wikidata": "Q5158304"}, "geometry": {"type": "Point", "coordinates": [-122.1681, 37.70445]}},
{"type": "Feature", "id": "MD6QUoIo5S6_0JT7hl7OlnTBQ64=", "properties": {"ref": "278981b5-1617-4270-9f9e-b5b5d065bb81", "@spider": "concentra", "addr:full": "5635 W. Las Positas Blvd", "addr:city": "Pleasanton", "addr:state": "\r\n    CA", "addr:postcode": "94588", "name": "Pleasanton", "phone": "\r\n                  ", "website": "https://www.concentra.com/urgent-care-centers/california/los-angeles/pleasanton-urgent-care/", "brand": "Concentra", "brand:wikidata": "Q5158304"}, "geometry": {"type": "Point", "coordinates": [-121.88371, 37.69046]}},
{"type": "Feature", "id": "bD1X0lWGmLTuOtkRNPKEmcIaAVM=", "properties": {"ref": "33f620e3-49fc-4600-98c9-c3cc5f3a97a1", "@spider": "concentra", "addr:full": "3 South Linden Avenue", "addr:city": "San Francisco Airport", "addr:state": "\r\n    CA", "addr:postcode": "94080", "name": "San Francisco Airport", "phone": "\r\n                  ", "website": "https://www.concentra.com/urgent-care-centers/california/bay-area/san-francisco-airport-urgent-care/", "brand": "Concentra", "brand:wikidata": "Q5158304"}, "geometry": {"type": "Point", "coordinates": [-122.41087233729999, 37.6520011793]}},
{"type": "Feature", "id": "gpVhVlerfpLkCV4XEir7FLIwD3s=", "properties": {"ref": "159130fa-e16c-4997-a096-6b0917b63e4d", "@spider": "concentra", "addr:full": "1524 McHenry Avenue", "addr:city": "Modesto", "addr:state": "\r\n    CA", "addr:postcode": "95350-4500", "name": "Modesto", "phone": "\r\n                  ", "website": "https://www.concentra.com/urgent-care-centers/california/los-angeles/modesto-urgent-care/", "brand": "Concentra", "brand:wikidata": "Q5158304"}, "geometry": {"type": "Point", "coordinates": [-120.992756, 37.666191]}},
{"type": "Feature", "id": "HiRflQb5VgqIR6e2K8rBcrX00fM=", "properties": {"ref": "0fdc7faf-12a5-44e7-a1de-b1f3ad467119", "@spider": "concentra", "addr:full": "33560 Alvarado Niles Road", "addr:city": "Union City", "addr:state": "\r\n    CA", "addr:postcode": "94587", "name": "Union City", "phone": "\r\n                  ", "website": "https://www.concentra.com/urgent-care-centers/california/los-angeles/union-city-urgent-care/", "brand": "Concentra", "brand:wikidata": "Q5158304"}, "geometry": {"type": "Point", "coordinates": [-122.03566, 37.59138]}},
{"type": "Feature", "id": "93t4oo0kKSsefrShjLvN1gmx4Vg=", "properties": {"ref": "d3ad51ed-2ef1-4400-b4cc-25c482047167", "@spider": "concentra", "addr:full": "1340 Mitchell Road", "addr:city": "Modesto Ceres", "addr:state": "\r\n    CA", "addr:postcode": "95351-4923", "name": "Modesto Ceres", "phone": "\r\n                  ", "website": "https://www.concentra.com/urgent-care-centers/california/los-angeles/modesto-ceres-urgent-care/", "brand": "Concentra", "brand:wikidata": "Q5158304"}, "geometry": {"type": "Point", "coordinates": [-120.938339, 37.611599]}},
{"type": "Feature", "id": "dmL3-gj0OJ74LqltIxvtU-9e1Iw=", "properties": {"ref": "68f0571f-8184-4de3-ba2c-47675ecb81f9", "@spider": "concentra", "addr:full": "3161 Walnut Ave", "addr:city": "Fremont", "addr:state": "\r\n    CA", "addr:postcode": "94538-2216", "name": "Fremont", "phone": "\r\n                  ", "website": "https://www.concentra.com/urgent-care-centers/california/bay-area/fremont-urgent-care/", "brand": "Concentra", "brand:wikidata": "Q5158304"}, "geometry": {"type": "Point", "coordinates": [-121.980214, 37.551376]}},
{"type": "Feature", "id": "PbmE8FbUWo3eS9ZZFPY5E9z3cPw=", "properties": {"ref": "48e3b0f1-1c9b-4d1c-a4ab-2242e031303b", "@spider": "concentra", "addr:full": "125 Shoreway Rd.", "addr:city": "San Carlos", "addr:state": "\r\n    CA", "addr:postcode": "94070", "name": "San Carlos", "phone": "\r\n                  ", "website": "https://www.concentra.com/urgent-care-centers/california/los-angeles/san-carlos-urgent-care/", "brand": "Concentra", "brand:wikidata": "Q5158304"}, "geometry": {"type": "Point", "coordinates": [-122.26092, 37.51976]}},
{"type": "Feature", "id": "Wmw_aCkd55lBB8CcttD-p9wI4-w=", "properties": {"ref": "a3505b66-cb25-4ca2-b1f8-24f30326f3ef", "@spider": "concentra", "addr:full": "315 South Abbott Avenue", "addr:city": "Milpitas Abbott", "addr:state": "\r\n    CA", "addr:postcode": "95035", "name": "Milpitas Abbott", "phone": "\r\n                  ", "website": "https://www.concentra.com/urgent-care-centers/california/bay-area/milpitas-abbott-urgent-care/", "brand": "Concentra", "brand:wikidata": "Q5158304"}, "geometry": {"type": "Point", "coordinates": [-121.91364, 37.42559]}},
{"type": "Feature", "id": "dh5rGVtw-qXo6uSDMH0_Fi7sxXE=", "properties": {"ref": "234e4758-9da6-416c-8ef8-2e84d1cbec52", "@spider": "concentra", "addr:full": "1717 S. Main Street", "addr:city": "Milpitas", "addr:state": "\r\n    CA", "addr:postcode": "95035-6756", "name": "Milpitas", "phone": "\r\n                  ", "website": "https://www.concentra.com/urgent-care-centers/california/los-angeles/milpitas-urgent-care/", "brand": "Concentra", "brand:wikidata": "Q5158304"}, "geometry": {"type": "Point", "coordinates": [-121.90352, 37.4057]}},
{"type": "Feature", "id": "OEXSPMz8tlmtdaqE13yrrMHrrAo=", "properties": {"ref": "71356087-0729-4fbd-8569-15015ede56a9", "@spider": "concentra", "addr:full": "1197 E. Arques Avenue", "addr:city": "Sunnyvale", "addr:state": "\r\n    CA", "addr:postcode": "94085-3904", "name": "Sunnyvale", "phone": "\r\n                  ", "website": "https://www.concentra.com/urgent-care-centers/california/los-angeles/sunnyvale-urgent-care/", "brand": "Concentra", "brand:wikidata": "Q5158304"}, "geometry": {"type": "Point", "coordinates": [-121.99779, 37.38096]}},
{"type": "Feature", "id": "BYExDiWA8Khdi3jhT6AMaxJNmho=", "properties": {"ref": "a3f8979a-2b38-4ca9-9ac4-7ff107c1cd70", "@spider": "concentra", "addr:full": "2737 Walsh Avenue", "addr:city": "Santa Clara Central Expressway", "addr:state": "\r\n    CA", "addr:postcode": "95051", "name": "Santa Clara Central Expressway", "phone": "\r\n                  ", "website": "https://www.concentra.com/urgent-care-centers/california/bay-area/santa-clara-central-expressway-urgent-care/", "brand": "Concentra", "brand:wikidata": "Q5158304"}, "geometry": {"type": "Point", "coordinates": [-121.97663, 37.37455]}},
{"type": "Feature", "id": "2LQdnLhOPfPW18yFPpF5sT66yEo=", "properties": {"ref": "4915660a-7f4c-4109-b2f9-74043c2077f9", "@spider": "concentra", "addr:full": "988 Walsh Avenue", "addr:city": "Santa Clara", "addr:state": "\r\n    CA", "addr:postcode": "95050-2649", "name": "Santa Clara", "phone": "\r\n                  ", "website": "https://www.concentra.com/urgent-care-centers/california/bay-area/santa-clara-urgent-care/", "brand": "Concentra", "brand:wikidata": "Q5158304"}, "geometry": {"type": "Point", "coordinates": [-121.95107, 37.36919]}},
{"type": "Feature", "id": "6sDzZbg63OAmLFiv60QMuxi7QDI=", "properties": {"ref": "dbb49957-77cf-4df6-85b7-a6f46206c1f8", "@spider": "concentra", "addr:full": "1887 Monterey Road", "addr:city": "San Jose", "addr:state": "\r\n    CA", "addr:postcode": "95112-6136", "name": "San Jose", "phone": "\r\n                  ", "website": "https://www.concentra.com/urgent-care-centers/california/bay-area/san-jose-urgent-care/", "brand": "Concentra", "brand:wikidata": "Q5158304"}, "geometry": {"type": "Point", "coordinates": [-121.867867, 37.307755]}},
{"type": "Feature", "id": "fi1XVkPLLQ2ix8BsNOdubSuBVQk=", "properties": {"ref": "6bc696f5-0def-496c-80e8-62a36b67aa91", "@spider": "concentra", "addr:full": "1901 Monterey Rd Ste. 10", "addr:city": "San Jose Stauffer", "addr:state": "\r\n    CA", "addr:postcode": "95112", "name": "San Jose Stauffer", "phone": "\r\n                  ", "website": "https://www.concentra.com/urgent-care-centers/california/bay-area/san-jose-stauffer-urgent-care/", "brand": "Concentra", "brand:wikidata": "Q5158304"}, "geometry": {"type": "Point", "coordinates": [-121.865822, 37.30764]}},
{"type": "Feature", "id": "ZWf1S4Qby89OcoaZTsQNioNHF9w=", "properties": {"ref": "68fc78d2-3bd5-43e7-b1f5-c91d395b5b4d", "@spider": "concentra", "addr:full": "190 Leavesley Rd", "addr:city": "Gilroy", "addr:state": "\r\n    CA", "addr:postcode": "95020", "name": "Gilroy", "phone": "\r\n                  ", "website": "https://www.concentra.com/urgent-care-centers/california/los-angeles/gilroy-urgent-care/", "brand": "Concentra", "brand:wikidata": "Q5158304"}, "geometry": {"type": "Point", "coordinates": [-121.5726, 37.01994]}},
{"type": "Feature", "id": "Yl9FFYB-hf3weyHr1ZKWHDINjsc=", "properties": {"ref": "92361d56-de4f-456b-a958-3bc06c01e60d", "@spider": "concentra", "addr:full": "509 S I Street", "addr:city": "Fresno Madera", "addr:state": "\r\n    CA", "addr:postcode": "93637", "name": "Fresno Madera", "phone": "\r\n                  ", "website": "https://www.concentra.com/urgent-care-centers/california/fresno/fresno-madera-urgent-care/", "brand": "Concentra", "brand:wikidata": "Q5158304"}, "geometry": {"type": "Point", "coordinates": [-120.05949, 36.95508]}},
{"type": "Feature", "id": "YIN6R6Lvee7ECp3FithrdriOvjQ=", "properties": {"ref": "30f8c14c-3d69-4bd8-bef1-23034f7ab492", "@spider": "concentra", "addr:full": "2086 N 1700 W", "addr:city": "Layton", "addr:state": "\r\n    UT", "addr:postcode": "84041", "name": "Layton", "phone": "\r\n                  ", "website": "https://www.concentra.com/urgent-care-centers/utah/salt-lake-city/layton-urgent-care/", "brand": "Concentra", "brand:wikidata": "Q5158304"}, "geometry": {"type": "Point", "coordinates": [-111.998593, 41.090233]}},
{"type": "Feature", "id": "L16OS2upD6QGWHd8nghofbcgYcY=", "properties": {"ref": "4cbd90ee-cd58-41c6-b6aa-05406dfe9c59", "@spider": "concentra", "addr:full": "7265 N First Street", "addr:city": "Fresno North", "addr:state": "\r\n    CA", "addr:postcode": "93720", "name": "Fresno North", "phone": "\r\n                  ", "website": "https://www.concentra.com/urgent-care-centers/california/fresno/fresno-north-urgent-care/", "brand": "Concentra", "brand:wikidata": "Q5158304"}, "geometry": {"type": "Point", "coordinates": [-119.77476, 36.84249]}},
{"type": "Feature", "id": "lGHllbkv5rdQCR5iASzCbfQplaw=", "properties": {"ref": "577912fd-fb74-4a3b-9fdb-681a2c2ee0bf", "@spider": "concentra", "addr:full": "2555 S East Avenue", "addr:city": "Fresno Jensen", "addr:state": "\r\n    CA", "addr:postcode": "93706", "name": "Fresno Jensen", "phone": "\r\n                  ", "website": "https://www.concentra.com/urgent-care-centers/california/fresno/fresno-jensen-urgent-care/", "brand": "Concentra", "brand:wikidata": "Q5158304"}, "geometry": {"type": "Point", "coordinates": [-119.77201, 36.70903]}},
{"type": "Feature", "id": "4Z4_hisjUvd90mXG7Hvghjw9xBY=", "properties": {"ref": "05576d54-846c-496c-8834-13e8bfb7c41c", "@spider": "concentra", "addr:full": "1735 S Redwood Rd", "addr:city": "Redwood 17th South", "addr:state": "\r\n    UT", "addr:postcode": "84104", "name": "Redwood 17th South", "phone": "\r\n                  ", "website": "https://www.concentra.com/urgent-care-centers/utah/salt-lake-city/redwood-17th-south-urgent-care/", "brand": "Concentra", "brand:wikidata": "Q5158304"}, "geometry": {"type": "Point", "coordinates": [-111.9386469081, 40.7320790252]}},
{"type": "Feature", "id": "hs8L3vxKCr96DF1CGjEi0MeZ670=", "properties": {"ref": "9d1c66c0-297a-4521-8271-2d3eb28e1a03", "@spider": "concentra", "addr:full": "2390 S. Redwood Rd.", "addr:city": "Salt Lake City", "addr:state": "\r\n    UT", "addr:postcode": "84119", "name": "Salt Lake City", "phone": "\r\n                  ", "website": "https://www.concentra.com/urgent-care-centers/utah/salt-lake-city/salt-lake-city-urgent-care/", "brand": "Concentra", "brand:wikidata": "Q5158304"}, "geometry": {"type": "Point", "coordinates": [-111.93947, 40.71889]}},
{"type": "Feature", "id": "qPHcyIYJQ8tvhf4gpYe5ALzAjuY=", "properties": {"ref": "8a1c35c7-6411-4a6e-90e2-fe951b576690", "@spider": "concentra", "addr:full": "385 W 9000 S", "addr:city": "Sandy", "addr:state": "\r\n    UT", "addr:postcode": "84070", "name": "Sandy", "phone": "\r\n                  ", "website": "https://www.concentra.com/urgent-care-centers/utah/salt-lake-city/sandy-urgent-care/", "brand": "Concentra", "brand:wikidata": "Q5158304"}, "geometry": {"type": "Point", "coordinates": [-111.90238, 40.588]}},
{"type": "Feature", "id": "dxjnZY4YmZGISeQZI3HzdGWfFqw=", "properties": {"ref": "fd900b3b-2ce4-4d4c-8451-676ea665fbf8", "@spider": "concentra", "addr:full": "12422 S 450 E", "addr:city": "Draper", "addr:state": "\r\n    UT", "addr:postcode": "84020", "name": "Draper", "phone": "\r\n                  ", "website": "https://www.concentra.com/urgent-care-centers/utah/salt-lake-city/draper-urgent-care/", "brand": "Concentra", "brand:wikidata": "Q5158304"}, "geometry": {"type": "Point", "coordinates": [-111.87859, 40.52515]}},
{"type": "Feature", "id": "z8RIO2JItCtNttBXPizPvWyAY7s=", "properties": {"ref": "9e947900-b9de-46f0-b437-a312a91d2fbb", "@spider": "concentra", "addr:full": "601 North 1200 W", "addr:city": "Orem", "addr:state": "\r\n    UT", "addr:postcode": "84057", "name": "Orem", "phone": "\r\n                  ", "website": "https://www.concentra.com/urgent-care-centers/utah/salt-lake-city/orem-urgent-care/", "brand": "Concentra", "brand:wikidata": "Q5158304"}, "geometry": {"type": "Point", "coordinates": [-111.72499, 40.3082]}},
{"type": "Feature", "id": "kxUR87wpZSqRehhmc_t3zLXi1PU=", "properties": {"ref": "3205be72-339a-4488-ac25-d0a214b7c0aa", "@spider": "concentra", "addr:full": "1800 WestWind Dr", "addr:city": "Bakersfield", "addr:state": "\r\n    CA", "addr:postcode": "93301-3055", "name": "Bakersfield", "phone": "\r\n                  ", "website": "https://www.concentra.com/urgent-care-centers/california/los-angeles/bakersfield-urgent-care/", "brand": "Concentra", "brand:wikidata": "Q5158304"}, "geometry": {"type": "Point", "coordinates": [-119.04213, 35.37531]}},
{"type": "Feature", "id": "TTlb_OlhizH_fEdWJclubJmKauk=", "properties": {"ref": "65040749-8d0b-401f-b2d8-ebc21922f7bc", "@spider": "concentra", "addr:full": "151 W Brooks Ave", "addr:city": "Brooks Las Vegas North", "addr:state": "\r\n    NV", "addr:postcode": "89030", "name": "Brooks Las Vegas North", "phone": "\r\n                  ", "website": "https://www.concentra.com/urgent-care-centers/nevada/las-vegas/brooks-las-vegas-north-urgent-care/", "brand": "Concentra", "brand:wikidata": "Q5158304"}, "geometry": {"type": "Point", "coordinates": [-115.14076, 36.21418]}},
{"type": "Feature", "id": "afVhwYcMq5rzmG4P9IBHAm3mo3M=", "properties": {"ref": "66fb81ab-c61d-4417-b491-decaac433fe5", "@spider": "concentra", "addr:full": "3900 Paradise Rd", "addr:city": "Las Vegas Paradise", "addr:state": "\r\n    NV", "addr:postcode": "89169", "name": "Las Vegas Paradise", "phone": "\r\n                  ", "website": "https://www.concentra.com/urgent-care-centers/nevada/las-vegas/las-vegas-paradise-urgent-care/", "brand": "Concentra", "brand:wikidata": "Q5158304"}, "geometry": {"type": "Point", "coordinates": [-115.15339, 36.11801]}},
{"type": "Feature", "id": "voL1WaDrn1vMlPIjzvNHsYzaN1o=", "properties": {"ref": "7d3fb23d-9e13-4326-b7a1-55ef1dfe15ee", "@spider": "concentra", "addr:full": "5850 Polaris Ave", "addr:city": "Las Vegas Polaris", "addr:state": "\r\n    NV", "addr:postcode": "89118", "name": "Las Vegas Polaris", "phone": "\r\n                  ", "website": "https://www.concentra.com/urgent-care-centers/nevada/las-vegas/las-vegas-polaris-urgent-care/", "brand": "Concentra", "brand:wikidata": "Q5158304"}, "geometry": {"type": "Point", "coordinates": [-115.18557, 36.08346]}},
{"type": "Feature", "id": "zMI5lyOw0N0jeblNHMzATqRhubw=", "properties": {"ref": "e05198d2-b9cb-434d-bed0-5e64de5090ce", "@spider": "concentra", "addr:full": "149 N Gibson Rd", "addr:city": "Henderson", "addr:state": "\r\n    NV", "addr:postcode": "89014", "name": "Henderson", "phone": "\r\n                  ", "website": "https://www.concentra.com/urgent-care-centers/nevada/las-vegas/henderson-urgent-care/", "brand": "Concentra", "brand:wikidata": "Q5158304"}, "geometry": {"type": "Point", "coordinates": [-115.02942, 36.03802]}},
{"type": "Feature", "id": "eg9Y_cIbGwI_mqMkAv_BlHGBKYY=", "properties": {"ref": "0e006b0d-8ca6-47f6-9533-aed5c2d97d93", "@spider": "concentra", "addr:full": "25733 Rye Canyon Road", "addr:city": "Valencia", "addr:state": "\r\n    CA", "addr:postcode": "91355-1135", "name": "Valencia", "phone": "\r\n                  ", "website": "https://www.concentra.com/urgent-care-centers/california/los-angeles/valencia-urgent-care/", "brand": "Concentra", "brand:wikidata": "Q5158304"}, "geometry": {"type": "Point", "coordinates": [-118.58728, 34.43197]}},
{"type": "Feature", "id": "DAf_cU4KrCFQeWTWhzhIGyKY5As=", "properties": {"ref": "2000197c-2e6b-48bf-84a0-1b1956e75b11", "@spider": "concentra", "addr:full": "22840 Soledad Canyon Road", "addr:city": "Saugus", "addr:state": "\r\n    CA", "addr:postcode": "91350-2630", "name": "Saugus", "phone": "\r\n                  ", "website": "https://www.concentra.com/urgent-care-centers/california/los-angeles/saugus-urgent-care/", "brand": "Concentra", "brand:wikidata": "Q5158304"}, "geometry": {"type": "Point", "coordinates": [-118.53558, 34.42159]}},
{"type": "Feature", "id": "8ZMosagv8XnxREOAPD0Tdqg0HL8=", "properties": {"ref": "219abc2c-79a4-4943-85f2-0e2f7a08cef1", "@spider": "concentra", "addr:full": "1851 North Lombard", "addr:city": "Oxnard", "addr:state": "\r\n    CA", "addr:postcode": "93030-8230", "name": "Oxnard", "phone": "\r\n                  ", "website": "https://www.concentra.com/urgent-care-centers/california/los-angeles/oxnard-urgent-care/", "brand": "Concentra", "brand:wikidata": "Q5158304"}, "geometry": {"type": "Point", "coordinates": [-119.14991, 34.21833]}},
{"type": "Feature", "id": "kuWC4GwPnwFbR86mduMJtTmhV7M=", "properties": {"ref": "6c8d467c-9547-4684-8354-f4a729a52dbe", "@spider": "concentra", "addr:full": "4934 Verdugo Way", "addr:city": "Camarillo", "addr:state": "\r\n    CA", "addr:postcode": "93012-8631", "name": "Camarillo", "phone": "\r\n                  ", "website": "https://www.concentra.com/urgent-care-centers/california/los-angeles/camarillo-urgent-care/", "brand": "Concentra", "brand:wikidata": "Q5158304"}, "geometry": {"type": "Point", "coordinates": [-119.00447, 34.21557]}},
{"type": "Feature", "id": "qRcL46S1gwqDIexlsLFFwRzdqUs=", "properties": {"ref": "decf3507-fff3-4c73-be87-2aba57331e16", "@spider": "concentra", "addr:full": "9700 De Soto Avenue", "addr:city": "Chatsworth", "addr:state": "\r\n    CA", "addr:postcode": "91311-4409", "name": "Chatsworth", "phone": "\r\n                  ", "website": "https://www.concentra.com/urgent-care-centers/california/los-angeles/chatsworth-urgent-care/", "brand": "Concentra", "brand:wikidata": "Q5158304"}, "geometry": {"type": "Point", "coordinates": [-118.58773, 34.24686]}},
{"type": "Feature", "id": "ZqTlQAKiKibVrwNySaismoImU9Y=", "properties": {"ref": "88a3c9c1-6a1a-47f3-9de4-33fdf1ac6ad4", "@spider": "concentra", "addr:full": "16300 Roscoe Boulevard", "addr:city": "Van Nuys", "addr:state": "\r\n    CA", "addr:postcode": "91406-1258", "name": "Van Nuys", "phone": "\r\n                  ", "website": "https://www.concentra.com/urgent-care-centers/california/los-angeles/van-nuys-urgent-care/", "brand": "Concentra", "brand:wikidata": "Q5158304"}, "geometry": {"type": "Point", "coordinates": [-118.48831, 34.22045]}},
{"type": "Feature", "id": "ssGHTqWFieXKGoCRCw9NaQWf1zI=", "properties": {"ref": "d22c0d8d-9619-4489-bb9c-c21ee5be4e9c", "@spider": "concentra", "addr:full": "2550 N. Hollywood Way", "addr:city": "Burbank", "addr:state": "\r\n    CA", "addr:postcode": "91505", "name": "Burbank", "phone": "\r\n                  ", "website": "https://www.concentra.com/urgent-care-centers/california/los-angeles/burbank-urgent-care/", "brand": "Concentra", "brand:wikidata": "Q5158304"}, "geometry": {"type": "Point", "coordinates": [-118.34802, 34.19509]}},
{"type": "Feature", "id": "CPbkMHcMfGwc5TYTkGx24jhQXmQ=", "properties": {"ref": "21c3fd28-dd03-492f-b8d0-6b5ca49e2b1b", "@spider": "concentra", "addr:full": "434 S. San Vicente Blvd.", "addr:city": "Los Angeles - San Vicente", "addr:state": "\r\n    CA", "addr:postcode": "90048", "name": "Los Angeles - San Vicente", "phone": "\r\n                  ", "website": "https://www.concentra.com/urgent-care-centers/california/los-angeles/san-vicente-urgent-care/", "brand": "Concentra", "brand:wikidata": "Q5158304"}, "geometry": {"type": "Point", "coordinates": [-118.375585, 34.070669]}},
{"type": "Feature", "id": "SP0U4BU3Sw4faHzkTnljIvEgUsY=", "properties": {"ref": "c3dd4239-bf00-48f7-a477-451ae7679cd4", "@spider": "concentra", "addr:full": "6520 N. Irwindale Ave.", "addr:city": "Irwindale", "addr:state": "\r\n    CA", "addr:postcode": "91702-2801", "name": "Irwindale", "phone": "\r\n                  ", "website": "https://www.concentra.com/urgent-care-centers/california/los-angeles/irwindale-urgent-care/", "brand": "Concentra", "brand:wikidata": "Q5158304"}, "geometry": {"type": "Point", "coordinates": [-117.932907, 34.131488]}},
{"type": "Feature", "id": "3yhm9yuF8NRYqi3yEhQENBPCmVc=", "properties": {"ref": "a0c0fe1e-575d-4e4b-b817-b06206c70be5", "@spider": "concentra", "addr:full": "1313 West 8th Street", "addr:city": "Los Angeles - 8th St.", "addr:state": "\r\n    CA", "addr:postcode": "90017-4420", "name": "Los Angeles - 8th St.", "phone": "\r\n                  ", "website": "https://www.concentra.com/urgent-care-centers/california/los-angeles/los-angeles-8th-st-urgent-care/", "brand": "Concentra", "brand:wikidata": "Q5158304"}, "geometry": {"type": "Point", "coordinates": [-118.26943, 34.0507]}},
{"type": "Feature", "id": "tZZZCKUMLbs2nXf0dagnU0ujvdY=", "properties": {"ref": "bb071352-d340-4fb4-b7c0-502184dc4fd8", "@spider": "concentra", "addr:full": "420 E. 3rd St.", "addr:city": "Los Angeles - 3rd St.", "addr:state": "\r\n    CA", "addr:postcode": "90013", "name": "Los Angeles - 3rd St.", "phone": "\r\n                  ", "website": "https://www.concentra.com/urgent-care-centers/california/los-angeles/los-angeles-grand-urgent-care/", "brand": "Concentra", "brand:wikidata": "Q5158304"}, "geometry": {"type": "Point", "coordinates": [-118.24212, 34.046713]}},
{"type": "Feature", "id": "A3SxyPCuketg6wtAvkSUFAmoSLk=", "properties": {"ref": "31a2a8ca-bcff-4d09-b6bc-df9ad6ab2c25", "@spider": "concentra", "addr:full": "15768 Arrow Hwy", "addr:city": "Irwindale Arrow Highway", "addr:state": "\r\n    CA", "addr:postcode": "91706", "name": "Irwindale Arrow Highway", "phone": "\r\n                  ", "website": "https://www.concentra.com/urgent-care-centers/california/los-angeles/irwindale-arrow-highway-urgent-care/", "brand": "Concentra", "brand:wikidata": "Q5158304"}, "geometry": {"type": "Point", "coordinates": [-117.9369, 34.106382]}},
{"type": "Feature", "id": "Ms4716QewWvju91YgJuFrzDSV68=", "properties": {"ref": "04b57df1-aea6-4ae8-9b37-032e521bc31e", "@spider": "concentra", "addr:full": "9350 Flair Drive", "addr:city": "El Monte", "addr:state": "\r\n    CA", "addr:postcode": "91731-2828", "name": "El Monte", "phone": "\r\n                  ", "website": "https://www.concentra.com/urgent-care-centers/california/los-angeles/el-monte-urgent-care/", "brand": "Concentra", "brand:wikidata": "Q5158304"}, "geometry": {"type": "Point", "coordinates": [-118.06507, 34.07129]}},
{"type": "Feature", "id": "t5L-wt_QBZlI7DhAgWRArjFLxSk=", "properties": {"ref": "a48b4657-6f8b-470f-8a5d-c2f258fa0984", "@spider": "concentra", "addr:full": "3851 Soto Street", "addr:city": "Vernon Soto", "addr:state": "\r\n    CA", "addr:postcode": "90058-1718", "name": "Vernon Soto", "phone": "\r\n                  ", "website": "https://www.concentra.com/urgent-care-centers/california/los-angeles/vernon-soto-urgent-care/", "brand": "Concentra", "brand:wikidata": "Q5158304"}, "geometry": {"type": "Point", "coordinates": [-118.220843, 34.007161]}},
{"type": "Feature", "id": "5AOVrfpDzzMxJEpzlJudrQE4r6Q=", "properties": {"ref": "95de4bf1-2555-4375-892d-4c906068c26c", "@spider": "concentra", "addr:full": "6033 W Century Blvd.", "addr:city": "Airport LAX", "addr:state": "\r\n    CA", "addr:postcode": "90045", "name": "Airport LAX", "phone": "\r\n                  ", "website": "https://www.concentra.com/urgent-care-centers/california/los-angeles/airport-lax-urgent-care/", "brand": "Concentra", "brand:wikidata": "Q5158304"}, "geometry": {"type": "Point", "coordinates": [-118.38876, 33.94559]}},
{"type": "Feature", "id": "V-0Ihp1UAplJ4yis53KHuYrDGfY=", "properties": {"ref": "442b1f19-6c49-448a-98e8-30b369050ef4", "@spider": "concentra", "addr:full": "801 Corporate Center Dr.", "addr:city": "Pomona", "addr:state": "\r\n    CA", "addr:postcode": "91768-2628", "name": "Pomona", "phone": "\r\n                  ", "website": "https://www.concentra.com/urgent-care-centers/california/los-angeles/pomona-urgent-care/", "brand": "Concentra", "brand:wikidata": "Q5158304"}, "geometry": {"type": "Point", "coordinates": [-117.801868, 34.06475]}},
{"type": "Feature", "id": "qY6ohx6mrcixsVsWXbMyyYOpHT8=", "properties": {"ref": "f0b98faa-b110-4c96-8e22-201fd04e2b70", "@spider": "concentra", "addr:full": "3430 Garfield Avenue", "addr:city": "Commerce", "addr:state": "\r\n    CA", "addr:postcode": "90040-3104", "name": "Commerce", "phone": "\r\n                  ", "website": "https://www.concentra.com/urgent-care-centers/california/los-angeles/commerce-urgent-care/", "brand": "Concentra", "brand:wikidata": "Q5158304"}, "geometry": {"type": "Point", "coordinates": [-118.14011, 33.98438]}},
{"type": "Feature", "id": "I5A5YcOdi45RNHzhjoM4cqKL6Ug=", "properties": {"ref": "ca7e707d-9b90-486a-8daf-645fe62c6cd3", "@spider": "concentra", "addr:full": "390 North Pacific Coast Hwy", "addr:city": "El Segundo-LAX", "addr:state": "\r\n    CA", "addr:postcode": "90245-4475", "name": "El Segundo-LAX", "phone": "\r\n                  ", "website": "https://www.concentra.com/urgent-care-centers/california/los-angeles/el-segundo-urgent-care/", "brand": "Concentra", "brand:wikidata": "Q5158304"}, "geometry": {"type": "Point", "coordinates": [-118.394667, 33.920801]}},
{"type": "Feature", "id": "pMO2cTrt67UI1lI0GJFonrJu2ZY=", "properties": {"ref": "8986c17e-1164-4960-92b9-529dec42de96", "@spider": "concentra", "addr:full": "17487 E. Hurley Street", "addr:city": "City of Industry", "addr:state": "\r\n    CA", "addr:postcode": "91744-5106", "name": "City of Industry", "phone": "\r\n                  ", "website": "https://www.concentra.com/urgent-care-centers/california/los-angeles/city-of-industry-urgent-care/", "brand": "Concentra", "brand:wikidata": "Q5158304"}, "geometry": {"type": "Point", "coordinates": [-117.92091562700001, 34.0095792755]}},
{"type": "Feature", "id": "6R0BuiiKyvkavYu6xHiXXaQcDxA=", "properties": {"ref": "63c047cf-2194-437b-8047-5280f6cb4b1d", "@spider": "concentra", "addr:full": "9405 Fairway View Place", "addr:city": "Rancho Cucamonga", "addr:state": "\r\n    CA", "addr:postcode": "91730", "name": "Rancho Cucamonga", "phone": "\r\n                  ", "website": "https://www.concentra.com/urgent-care-centers/california/los-angeles/rancho-cucamonga-urgent-care/", "brand": "Concentra", "brand:wikidata": "Q5158304"}, "geometry": {"type": "Point", "coordinates": [-117.558786, 34.083135]}},
{"type": "Feature", "id": "4L5BFGbEKy0NVNXN3s1iUa5MkmI=", "properties": {"ref": "2912b722-6059-4f3f-afc0-064cbec143bc", "@spider": "concentra", "addr:full": "3200 Inland Empire Blvd.", "addr:city": "Ontario Airport", "addr:state": "\r\n    CA", "addr:postcode": "91764-5513", "name": "Ontario Airport", "phone": "\r\n                  ", "website": "https://www.concentra.com/urgent-care-centers/california/los-angeles/ontario-airport-urgent-care/", "brand": "Concentra", "brand:wikidata": "Q5158304"}, "geometry": {"type": "Point", "coordinates": [-117.58087, 34.07078]}},
{"type": "Feature", "id": "fA9GyJmB-ZjrbGnXu2wr7ILti7A=", "properties": {"ref": "b79d74a0-2277-4442-b9a4-bbd684144e4b", "@spider": "concentra", "addr:full": "10400 Norwalk Blvd.", "addr:city": "Santa Fe Springs", "addr:state": "\r\n    CA", "addr:postcode": "90670", "name": "Santa Fe Springs", "phone": "\r\n                  ", "website": "https://www.concentra.com/urgent-care-centers/california/los-angeles/santa-fe-springs-urgent-care/", "brand": "Concentra", "brand:wikidata": "Q5158304"}, "geometry": {"type": "Point", "coordinates": [-118.07235, 33.9415]}},
{"type": "Feature", "id": "Bzkqdxs8MULa52DXsuREwWIqHqI=", "properties": {"ref": "15c1d3cf-f64d-408e-af54-60b38a5c7e54", "@spider": "concentra", "addr:full": "1101 S Milliken Avenue", "addr:city": "Ontario", "addr:state": "\r\n    CA", "addr:postcode": "91761", "name": "Ontario", "phone": "\r\n                  ", "website": "https://www.concentra.com/urgent-care-centers/california/los-angeles/ontario-urgent-care/", "brand": "Concentra", "brand:wikidata": "Q5158304"}, "geometry": {"type": "Point", "coordinates": [-117.55813, 34.05184]}},
{"type": "Feature", "id": "6D6ZW45QFdItNGFjqa_1wGRji24=", "properties": {"ref": "ebeee189-9765-4355-b0b1-3703deac08bc", "@spider": "concentra", "addr:full": "2171 South Grove Ave.", "addr:city": "Ontario South (Grove)", "addr:state": "\r\n    CA", "addr:postcode": "91761-4600", "name": "Ontario South (Grove)", "phone": "\r\n                  ", "website": "https://www.concentra.com/urgent-care-centers/california/los-angeles/ontario-grove-urgent-care/", "brand": "Concentra", "brand:wikidata": "Q5158304"}, "geometry": {"type": "Point", "coordinates": [-117.62835, 34.03463]}},
{"type": "Feature", "id": "UPjvZhV7pbQGlX2g3dEUIWbsrKQ=", "properties": {"ref": "f7db9fa3-4760-459d-ae47-3a4fe7fc3120", "@spider": "concentra", "addr:full": "16630 S. Broadway St", "addr:city": "Gardena", "addr:state": "\r\n    CA", "addr:postcode": "90248-2716", "name": "Gardena", "phone": "\r\n                  ", "website": "https://www.concentra.com/urgent-care-centers/california/los-angeles/gardena-urgent-care/", "brand": "Concentra", "brand:wikidata": "Q5158304"}, "geometry": {"type": "Point", "coordinates": [-118.27798, 33.88014]}},
{"type": "Feature", "id": "Fntjfgny39OWbKynrA3EDctswMQ=", "properties": {"ref": "bdaa801c-ce94-41cc-bc44-d3e741d1d92f", "@spider": "concentra", "addr:full": "21081 S Western Ave Ste 150", "addr:city": "Harbor Gateway", "addr:state": "\r\n    CA", "addr:postcode": "90501", "name": "Harbor Gateway", "phone": "\r\n                  ", "website": "https://www.concentra.com/urgent-care-centers/california/los-angeles/harbor-gateway-urgent-care/", "brand": "Concentra", "brand:wikidata": "Q5158304"}, "geometry": {"type": "Point", "coordinates": [-118.30917, 33.86922]}},
{"type": "Feature", "id": "go5MIHiqUWNQulZh56SYtDC7vvE=", "properties": {"ref": "6c437c6d-fdc1-4cbe-9829-e7ce9a75f8f1", "@spider": "concentra", "addr:full": "599 Inland Center Drive", "addr:city": "San Bernardino", "addr:state": "\r\n    CA", "addr:postcode": "92408-1819", "name": "San Bernardino", "phone": "\r\n                  ", "website": "https://www.concentra.com/urgent-care-centers/california/los-angeles/san-bernardino-urgent-care/", "brand": "Concentra", "brand:wikidata": "Q5158304"}, "geometry": {"type": "Point", "coordinates": [-117.295558, 34.089945]}},
{"type": "Feature", "id": "mwgybOJ0YI9V1D68RFo5qxEi9Ys=", "properties": {"ref": "b7d344cb-635b-4b51-b1b9-c61073f5f79c", "@spider": "concentra", "addr:full": "1149 W. 190th Street", "addr:city": "Torrance", "addr:state": "\r\n    CA", "addr:postcode": "90248-4321", "name": "Torrance", "phone": "\r\n                  ", "website": "https://www.concentra.com/urgent-care-centers/california/los-angeles/torrance-urgent-care/", "brand": "Concentra", "brand:wikidata": "Q5158304"}, "geometry": {"type": "Point", "coordinates": [-118.2966, 33.85888]}},
{"type": "Feature", "id": "nFffSzW6lqLdyc2MGPDdmMZr-sE=", "properties": {"ref": "44c00fc4-902b-4994-9972-94061fc5e2c8", "@spider": "concentra", "addr:full": "2499 S. Wilmington Ave.", "addr:city": "Compton - Rancho Dominguez", "addr:state": "\r\n    CA", "addr:postcode": "90220", "name": "Compton - Rancho Dominguez", "phone": "\r\n                  ", "website": "https://www.concentra.com/urgent-care-centers/california/los-angeles/compton-rancho-dominguez-urgent-care/", "brand": "Concentra", "brand:wikidata": "Q5158304"}, "geometry": {"type": "Point", "coordinates": [-118.23581, 33.86787]}},
{"type": "Feature", "id": "15hTLUkQy6X_Bl9E9QRQOMDyC4I=", "properties": {"ref": "481cad09-49e6-4dc3-ba06-3923ee4a760b", "@spider": "concentra", "addr:full": "1375 Camino Real Ste. 130", "addr:city": "San Bernardino Camino Real", "addr:state": "\r\n    CA", "addr:postcode": "92408", "name": "San Bernardino Camino Real", "phone": "\r\n                  ", "website": "https://www.concentra.com/urgent-care-centers/california/los-angeles/san-bernardino-camino-real-urgent-care/", "brand": "Concentra", "brand:wikidata": "Q5158304"}, "geometry": {"type": "Point", "coordinates": [-117.296758, 34.076059]}},
{"type": "Feature", "id": "GX2lkdkRjTYfmhrMEo3JxtY_lOQ=", "properties": {"ref": "96a7ab66-07db-433d-bb04-3bf2680e7d0c", "@spider": "concentra", "addr:full": "15302 El Prado Road", "addr:city": "Chino", "addr:state": "\r\n    CA", "addr:postcode": "91710-7659", "name": "Chino", "phone": "\r\n                  ", "website": "https://www.concentra.com/urgent-care-centers/california/los-angeles/chino-urgent-care/", "brand": "Concentra", "brand:wikidata": "Q5158304"}, "geometry": {"type": "Point", "coordinates": [-117.6883849547, 33.9759388532]}},
{"type": "Feature", "id": "lVZjA3wKFiSn9n6Rk1wLzwmrWK8=", "properties": {"ref": "61594a34-8650-4c41-b71e-8a941b5cf3d0", "@spider": "concentra", "addr:full": "850 East Washington St.", "addr:city": "Colton", "addr:state": "\r\n    CA", "addr:postcode": "92324-8101", "name": "Colton", "phone": "\r\n                  ", "website": "https://www.concentra.com/urgent-care-centers/california/los-angeles/colton-urgent-care/", "brand": "Concentra", "brand:wikidata": "Q5158304"}, "geometry": {"type": "Point", "coordinates": [-117.313232, 34.047888]}},
{"type": "Feature", "id": "Se4btZxIw0PR-eiZeA7w57cSLhE=", "properties": {"ref": "a6c2010f-44d1-47a2-ad39-0c6b1097ec40", "@spider": "concentra", "addr:full": "40 Centerpointe Drive", "addr:city": "La Palma", "addr:state": "\r\n    CA", "addr:postcode": "90623", "name": "La Palma", "phone": "\r\n                  ", "website": "https://www.concentra.com/urgent-care-centers/california/orange-county/la-palma-urgent-care/", "brand": "Concentra", "brand:wikidata": "Q5158304"}, "geometry": {"type": "Point", "coordinates": [-118.03279, 33.86079]}},
{"type": "Feature", "id": "pfXw92mHgYcZohhvaoEzEr3eaq4=", "properties": {"ref": "3d8a9b55-9a36-4bbd-b71f-4b6449f28b8b", "@spider": "concentra", "addr:full": "1760 Chicago Avenue", "addr:city": "Riverside Chicago Ave", "addr:state": "\r\n    CA", "addr:postcode": "92507-2300", "name": "Riverside Chicago Ave", "phone": "\r\n                  ", "website": "https://www.concentra.com/urgent-care-centers/california/los-angeles/riverside-chicago-ave-urgent-care/", "brand": "Concentra", "brand:wikidata": "Q5158304"}, "geometry": {"type": "Point", "coordinates": [-117.347937, 33.996974]}},
{"type": "Feature", "id": "DecSRWwviy6yIg1X_iaoSuQ_5sQ=", "properties": {"ref": "c7f49575-8358-4e39-a5a3-d84d1f5e2a8c", "@spider": "concentra", "addr:full": "640 S Placentia Avenue", "addr:city": "Placentia", "addr:state": "\r\n    CA", "addr:postcode": "92870", "name": "Placentia", "phone": "\r\n                  ", "website": "https://www.concentra.com/urgent-care-centers/california/orange-county/placentia-urgent-care/", "brand": "Concentra", "brand:wikidata": "Q5158304"}, "geometry": {"type": "Point", "coordinates": [-117.88159, 33.8631]}},
{"type": "Feature", "id": "Yh2FXaBhnF-rySfpT8PFHVe8tVg=", "properties": {"ref": "f2cdea35-d175-4725-826c-d5ae4fd5fdc7", "@spider": "concentra", "addr:full": "100 Oceangate, P245", "addr:city": "Long Beach", "addr:state": "\r\n    CA", "addr:postcode": "90802", "name": "Long Beach", "phone": "\r\n                  ", "website": "https://www.concentra.com/urgent-care-centers/california/los-angeles/long-beach-urgent-care/", "brand": "Concentra", "brand:wikidata": "Q5158304"}, "geometry": {"type": "Point", "coordinates": [-118.19895, 33.76683]}},
{"type": "Feature", "id": "HrazwhIOfSeabh4Vuxw2sIDp52M=", "properties": {"ref": "4535661b-980b-42f9-aabf-b4264df9ac99", "@spider": "concentra", "addr:full": "1045 North Tustin St.", "addr:city": "Orange", "addr:state": "\r\n    CA", "addr:postcode": "92867-5904", "name": "Orange", "phone": "\r\n                  ", "website": "https://www.concentra.com/urgent-care-centers/california/los-angeles/orange-urgent-care/", "brand": "Concentra", "brand:wikidata": "Q5158304"}, "geometry": {"type": "Point", "coordinates": [-117.835248, 33.80483]}},
{"type": "Feature", "id": "XAuY7PMzGTjv-3e7i8_uW7Ln0xI=", "properties": {"ref": "c6dae867-3dce-496e-9d96-3ed694520f79", "@spider": "concentra", "website": "https://www.concentra.com/urgent-care-centers/california/orange-county/anaheim-orange-urgent-care/", "brand": "Concentra", "brand:wikidata": "Q5158304"}, "geometry": {"type": "Point", "coordinates": [-117.88217, 33.79423]}},
{"type": "Feature", "id": "e2DpfeIIaOU0EquQbEMbefc7jOI=", "properties": {"ref": "b8923094-003e-46e9-95f2-312d15d27235", "@spider": "concentra", "addr:full": "21830 Cactus Ave.", "addr:city": "Riverside West March", "addr:state": "\r\n    CA", "addr:postcode": "92518", "name": "Riverside West March", "phone": "\r\n                  ", "website": "https://www.concentra.com/urgent-care-centers/california/los-angeles/riverside-towngate-urgent-care/", "brand": "Concentra", "brand:wikidata": "Q5158304"}, "geometry": {"type": "Point", "coordinates": [-117.28610455820001, 33.909978380700004]}},
{"type": "Feature", "id": "EZu9u9pBP1OXbxNipU6NKazQDXc=", "properties": {"ref": "434e00c7-006e-4299-b17a-43b1579c4834", "@spider": "concentra", "addr:full": "800 N. Tustin Ave.", "addr:city": "Santa Ana Tustin", "addr:state": "\r\n    CA", "addr:postcode": "92705", "name": "Santa Ana Tustin", "phone": "\r\n                  ", "website": "https://www.concentra.com/urgent-care-centers/california/los-angeles/santa-ana-tustin-urgent-care/", "brand": "Concentra", "brand:wikidata": "Q5158304"}, "geometry": {"type": "Point", "coordinates": [-117.834784, 33.752322]}},
{"type": "Feature", "id": "Q656QFs1KHcVxKZdkSEjEK4dBQk=", "properties": {"ref": "0b090bf9-f6be-441c-8922-295668585a03", "@spider": "concentra", "addr:full": "16420 Perris Blvd", "addr:city": "Moreno Valley", "addr:state": "\r\n    CA", "addr:postcode": "92551-1135", "name": "Moreno Valley", "phone": "\r\n                  ", "website": "https://www.concentra.com/urgent-care-centers/california/los-angeles/moreno-valley-urgent-care/", "brand": "Concentra", "brand:wikidata": "Q5158304"}, "geometry": {"type": "Point", "coordinates": [-117.226, 33.8827]}},
{"type": "Feature", "id": "jYH8nwpT9zDuYi3IRVwtkbwXsvg=", "properties": {"ref": "1858c27a-0f02-4e8d-9423-0cb7c783c494", "@spider": "concentra", "addr:full": "3100 W. Warner Ave.", "addr:city": "Santa Ana (Warner Ave)", "addr:state": "\r\n    CA", "addr:postcode": "92704-5331", "name": "Santa Ana (Warner Ave)", "phone": "\r\n                  ", "website": "https://www.concentra.com/urgent-care-centers/california/los-angeles/santa-ana-warner-urgent-care/", "brand": "Concentra", "brand:wikidata": "Q5158304"}, "geometry": {"type": "Point", "coordinates": [-117.9105, 33.71444]}},
{"type": "Feature", "id": "myayVyMJE7mb7ZwDJ4XArbdtWts=", "properties": {"ref": "43d5ec5b-647e-4a99-935e-dfbf6fe9a681", "@spider": "concentra", "addr:full": "1619 E Edinger Avenue", "addr:city": "East Edinger & Lyon", "addr:state": "\r\n    CA", "addr:postcode": "92705-5001", "name": "East Edinger & Lyon", "phone": "\r\n                  ", "website": "https://www.concentra.com/urgent-care-centers/california/los-angeles/east-edinger-lyon-urgent-care/", "brand": "Concentra", "brand:wikidata": "Q5158304"}, "geometry": {"type": "Point", "coordinates": [-117.846553, 33.72717]}},
{"type": "Feature", "id": "Nf8FfDl6b28v6KnAn3mIFBzgFz4=", "properties": {"ref": "254f298f-de49-4b30-90ab-de5e078fec5f", "@spider": "concentra", "addr:full": "2362 Morse Avenue", "addr:city": "Morse", "addr:state": "\r\n    CA", "addr:postcode": "92614-6234", "name": "Morse", "phone": "\r\n                  ", "website": "https://www.concentra.com/urgent-care-centers/california/los-angeles/morse-urgent-care/", "brand": "Concentra", "brand:wikidata": "Q5158304"}, "geometry": {"type": "Point", "coordinates": [-117.849303, 33.681902]}},
{"type": "Feature", "id": "UzFwyKxW6uxLCcTMJTVMhC5fXE0=", "properties": {"ref": "94bf32ae-bc5f-455f-aecd-28fb8f6e17fb", "@spider": "concentra", "addr:full": "15751 Rockfield Blvd.", "addr:city": "Irvine Rockfield", "addr:state": "\r\n    CA", "addr:postcode": "92618", "name": "Irvine Rockfield", "phone": "\r\n                  ", "website": "https://www.concentra.com/urgent-care-centers/california/los-angeles/irvine-rockfield-urgent-care/", "brand": "Concentra", "brand:wikidata": "Q5158304"}, "geometry": {"type": "Point", "coordinates": [-117.720176, 33.634263]}},
{"type": "Feature", "id": "Dt7cv6Ah8mCv99g8oZwOhij4nt8=", "properties": {"ref": "72d5e307-c301-44cb-a6c6-a7045251ccac", "@spider": "concentra", "addr:full": "22741 Lambert Street", "addr:city": "Lake Forest", "addr:state": "\r\n    CA", "addr:postcode": "92630-1617", "name": "Lake Forest", "phone": "\r\n                  ", "website": "https://www.concentra.com/urgent-care-centers/california/los-angeles/lake-forest-urgent-care/", "brand": "Concentra", "brand:wikidata": "Q5158304"}, "geometry": {"type": "Point", "coordinates": [-117.7135, 33.63228]}},
{"type": "Feature", "id": "7lS3Ec4VizLHkAf3tQzgc3aHX7s=", "properties": {"ref": "0c6fe714-e550-406f-bc4b-1b5e0bc6d4aa", "@spider": "concentra", "addr:full": "25115 Madison Ave.", "addr:city": "Murrieta", "addr:state": "\r\n    CA", "addr:postcode": "92562-8967", "name": "Murrieta", "phone": "\r\n                  ", "website": "https://www.concentra.com/urgent-care-centers/california/los-angeles/murrieta-urgent-care/", "brand": "Concentra", "brand:wikidata": "Q5158304"}, "geometry": {"type": "Point", "coordinates": [-117.202478, 33.556996]}},
{"type": "Feature", "id": "rqliLLfsmwS5wxUoko_b2l5-_yc=", "properties": {"ref": "8ba9dad2-a205-4c89-9d6a-c0aee028987d", "@spider": "concentra", "addr:full": "3910 Vista Way", "addr:city": "Oceanside", "addr:state": "\r\n    CA", "addr:postcode": "92056-4513", "name": "Oceanside", "phone": "\r\n                  ", "website": "https://www.concentra.com/urgent-care-centers/california/bay-area/oceanside-urgent-care/", "brand": "Concentra", "brand:wikidata": "Q5158304"}, "geometry": {"type": "Point", "coordinates": [-117.293703, 33.184489]}},
{"type": "Feature", "id": "LCqPjCR2NsYD6wQJ59mjU0UxjaI=", "properties": {"ref": "12ef5afc-862f-48e1-acb8-0d17a7a83d56", "@spider": "concentra", "addr:full": "5810 El Camino Real", "addr:city": "Carlsbad", "addr:state": "\r\n    CA", "addr:postcode": "92008-8819", "name": "Carlsbad", "phone": "\r\n                  ", "website": "https://www.concentra.com/urgent-care-centers/california/los-angeles/carlsbad-urgent-care/", "brand": "Concentra", "brand:wikidata": "Q5158304"}, "geometry": {"type": "Point", "coordinates": [-117.27241, 33.13655]}},
{"type": "Feature", "id": "U58FEGUYBJmB4dDqlR0UzG8h3L4=", "properties": {"ref": "383f07ab-0ac8-4c37-8201-c0753741924c", "@spider": "concentra", "addr:full": "740 Nordahl Road", "addr:city": "San Marcos", "addr:state": "\r\n    CA", "addr:postcode": "92069", "name": "San Marcos", "phone": "\r\n                  ", "website": "https://www.concentra.com/urgent-care-centers/california/north-san-diego/san-marcos-urgent-care/", "brand": "Concentra", "brand:wikidata": "Q5158304"}, "geometry": {"type": "Point", "coordinates": [-117.11948, 33.13509]}},
{"type": "Feature", "id": "fAncKFYy6eL8XC3gCAtF0ppAswU=", "properties": {"ref": "9ef63e4d-a27a-4007-9282-21cc2800263e", "@spider": "concentra", "addr:full": "860 West Valley Parkway", "addr:city": "Escondido", "addr:state": "\r\n    CA", "addr:postcode": "92025-2534", "name": "Escondido", "phone": "\r\n                  ", "website": "https://www.concentra.com/urgent-care-centers/california/los-angeles/escondido-urgent-care/", "brand": "Concentra", "brand:wikidata": "Q5158304"}, "geometry": {"type": "Point", "coordinates": [-117.09412, 33.11772]}},
{"type": "Feature", "id": "YJTroGjVYZWKdSAHfHEVRjtA49U=", "properties": {"ref": "b2b576d8-42fa-4dec-83f0-bc3df5eda9dd", "@spider": "concentra", "addr:full": "1110 E. Route 66", "addr:city": "Flagstaff", "addr:state": "\r\n    AZ", "addr:postcode": "86001", "name": "Flagstaff", "phone": "\r\n                  ", "website": "https://www.concentra.com/urgent-care-centers/arizona/flagstaff/flagstaff-urgent-care/", "brand": "Concentra", "brand:wikidata": "Q5158304"}, "geometry": {"type": "Point", "coordinates": [-111.63662, 35.19384]}},
{"type": "Feature", "id": "lOHsLWb3i9i2tm7BJDcU66nngiQ=", "properties": {"ref": "cbc08841-44bd-4795-b1ea-0d4612394e43", "@spider": "concentra", "addr:full": "10350 Barnes Canyon Road", "addr:city": "Sorrento Mesa", "addr:state": "\r\n    CA", "addr:postcode": "92121", "name": "Sorrento Mesa", "phone": "\r\n                  ", "website": "https://www.concentra.com/urgent-care-centers/california/bay-area/sorrento-mesa-urgent-care/", "brand": "Concentra", "brand:wikidata": "Q5158304"}, "geometry": {"type": "Point", "coordinates": [-117.194819, 32.901363]}},
{"type": "Feature", "id": "q6MCjvW_2mGcXwsELdZHZ3Ky-II=", "properties": {"ref": "f30d4f7f-a33b-455a-9cda-f3436ee9b2e5", "@spider": "concentra", "addr:full": "7590 Miramar Road", "addr:city": "Miramar", "addr:state": "\r\n    CA", "addr:postcode": "92126-4232", "name": "Miramar", "phone": "\r\n                  ", "website": "https://www.concentra.com/urgent-care-centers/california/bay-area/miramar-urgent-care/", "brand": "Concentra", "brand:wikidata": "Q5158304"}, "geometry": {"type": "Point", "coordinates": [-117.152672, 32.886517]}},
{"type": "Feature", "id": "lxdpBcKMoIhVGEm8yCD1K4hLWL4=", "properties": {"ref": "4c711d16-67bd-44ea-a86d-5bcb578dc8fb", "@spider": "concentra", "addr:full": "5575 Ruffin Road", "addr:city": "Kearny Mesa", "addr:state": "\r\n    CA", "addr:postcode": "92123-1380", "name": "Kearny Mesa", "phone": "\r\n                  ", "website": "https://www.concentra.com/urgent-care-centers/california/bay-area/kearny-mesa-urgent-care/", "brand": "Concentra", "brand:wikidata": "Q5158304"}, "geometry": {"type": "Point", "coordinates": [-117.126038, 32.836029]}},
{"type": "Feature", "id": "qnW3j71CkqwDfYU5NJdKOv_vGzE=", "properties": {"ref": "4b07586d-e758-4785-8bbb-f1ffc1b1181d", "@spider": "concentra", "addr:full": "9745 Prospect Ave.", "addr:city": "Santee", "addr:state": "\r\n    CA", "addr:postcode": "92071-6209", "name": "Santee", "phone": "\r\n                  ", "website": "https://www.concentra.com/urgent-care-centers/california/los-angeles/santee-urgent-care/", "brand": "Concentra", "brand:wikidata": "Q5158304"}, "geometry": {"type": "Point", "coordinates": [-116.984417, 32.830988]}},
{"type": "Feature", "id": "mTeJRKlfUYrg4P2uC30Ygydo5mw=", "properties": {"ref": "c8104bee-d651-4928-844a-5b40b469a5fe", "@spider": "concentra", "addr:full": "5333 Mission Center Rd. #100", "addr:city": "Mission Valley", "addr:state": "\r\n    CA", "addr:postcode": "92108", "name": "Mission Valley", "phone": "\r\n                  ", "website": "https://www.concentra.com/urgent-care-centers/california/bay-area/mission-valley-urgent-care/", "brand": "Concentra", "brand:wikidata": "Q5158304"}, "geometry": {"type": "Point", "coordinates": [-117.15359, 32.77154]}},
{"type": "Feature", "id": "qpIaooz63Tg1nSLk-WR8DBsbO8o=", "properties": {"ref": "e38df85d-c5a0-4c86-b592-cca6a117d9f3", "@spider": "concentra", "addr:full": "3930 Fourth Avenue", "addr:city": "Hillcrest", "addr:state": "\r\n    CA", "addr:postcode": "92103-3119", "name": "Hillcrest", "phone": "\r\n                  ", "website": "https://www.concentra.com/urgent-care-centers/california/bay-area/hillcrest-urgent-care/", "brand": "Concentra", "brand:wikidata": "Q5158304"}, "geometry": {"type": "Point", "coordinates": [-117.161952, 32.748918]}},
{"type": "Feature", "id": "Hl_UHNmzIMk9Uq16HtqC5oSW8w0=", "properties": {"ref": "b0ca8186-59a2-4fac-aab1-09ed32ca8f44", "@spider": "concentra", "addr:full": "7862 El Cajon Blvd", "addr:city": "La Mesa", "addr:state": "\r\n    CA", "addr:postcode": "91942", "name": "La Mesa", "phone": "\r\n                  ", "website": "https://www.concentra.com/urgent-care-centers/california/los-angeles/la-mesa-urgent-care/", "brand": "Concentra", "brand:wikidata": "Q5158304"}, "geometry": {"type": "Point", "coordinates": [-117.027977, 32.769429]}},
{"type": "Feature", "id": "rFb6oVzTEXT1NlduCb6U0_C4-lM=", "properties": {"ref": "f81d5b69-96a9-4e48-81e5-24088ab430ce", "@spider": "concentra", "addr:full": "102 Mile of Cars Way", "addr:city": "National City", "addr:state": "\r\n    CA", "addr:postcode": "91950-6603", "name": "National City", "phone": "\r\n                  ", "website": "https://www.concentra.com/urgent-care-centers/california/los-angeles/national-city-urgent-care/", "brand": "Concentra", "brand:wikidata": "Q5158304"}, "geometry": {"type": "Point", "coordinates": [-117.103236, 32.661113]}},
{"type": "Feature", "id": "oIR2sQxS2biVKoNEqknvMHu9tpA=", "properties": {"ref": "215f2ec3-95c9-4def-b8c0-bb255bc1e2fe", "@spider": "concentra", "addr:full": "542 Broadway", "addr:city": "Chula Vista", "addr:state": "\r\n    CA", "addr:postcode": "91910", "name": "Chula Vista", "phone": "\r\n                  ", "website": "https://www.concentra.com/urgent-care-centers/california/los-angeles/chula-vista-urgent-care/", "brand": "Concentra", "brand:wikidata": "Q5158304"}, "geometry": {"type": "Point", "coordinates": [-117.089015, 32.629432]}},
{"type": "Feature", "id": "ThPcXGb9BcG7WLdajWmg65CuUeY=", "properties": {"ref": "fac7d078-0ea6-4de0-9e97-5fc1b1521b26", "@spider": "concentra", "addr:full": "620 South Lemay Avenue", "addr:city": "Fort Collins Lemay", "addr:state": "\r\n    CO", "addr:postcode": "80524", "name": "Fort Collins Lemay", "phone": "\r\n                  ", "website": "https://www.concentra.com/urgent-care-centers/colorado/ft-collins/fort-collins-lemay-urgent-care/", "brand": "Concentra", "brand:wikidata": "Q5158304"}, "geometry": {"type": "Point", "coordinates": [-105.05732, 40.57927]}},
{"type": "Feature", "id": "M5vkSUG2xJVmXOqGP4zuJayc6_0=", "properties": {"ref": "50b773b7-05fa-4d16-a711-33f83e32d52c", "@spider": "concentra", "addr:full": "3300 28th Street", "addr:city": "Boulder", "addr:state": "\r\n    CO", "addr:postcode": "80301", "name": "Boulder", "phone": "\r\n                  ", "website": "https://www.concentra.com/urgent-care-centers/colorado/denver/boulder-urgent-care/", "brand": "Concentra", "brand:wikidata": "Q5158304"}, "geometry": {"type": "Point", "coordinates": [-105.2582, 40.03429]}},
{"type": "Feature", "id": "-LFSGj577jj0HyQCg2ELbCvulLg=", "properties": {"ref": "af49ffff-343c-4954-932a-fd71496c0443", "@spider": "concentra", "addr:full": "1860 Industrial Circle", "addr:city": "Longmont", "addr:state": "\r\n    CO", "addr:postcode": "80501", "name": "Longmont", "phone": "\r\n                  ", "website": "https://www.concentra.com/urgent-care-centers/colorado/denver/longmont-urgent-care/", "brand": "Concentra", "brand:wikidata": "Q5158304"}, "geometry": {"type": "Point", "coordinates": [-105.12565, 40.14715]}},
{"type": "Feature", "id": "7xDvLR_AVOsdzxWfw8dtWd6qRRE=", "properties": {"ref": "238ea297-db12-4baa-b3ee-d3b296bcc4b3", "@spider": "concentra", "addr:full": "290 Nickel Street", "addr:city": "Broomfield", "addr:state": "\r\n    CO", "addr:postcode": "80020", "name": "Broomfield", "phone": "\r\n                  ", "website": "https://www.concentra.com/urgent-care-centers/colorado/colorado-springs/broomfield-urgent-care/", "brand": "Concentra", "brand:wikidata": "Q5158304"}, "geometry": {"type": "Point", "coordinates": [-105.08795, 39.91949]}},
{"type": "Feature", "id": "kUddCibzlodCRcgR3OqrYvO8_-s=", "properties": {"ref": "ee3c1cd0-64cd-4c0f-a4b5-067c19c06abe", "@spider": "concentra", "addr:full": "11185 W. 6th Ave.", "addr:city": "Lakewood Simms", "addr:state": "\r\n    CO", "addr:postcode": "80215", "name": "Lakewood Simms", "phone": "\r\n                  ", "website": "https://www.concentra.com/urgent-care-centers/colorado/denver/lakewood-simms-urgent-care/", "brand": "Concentra", "brand:wikidata": "Q5158304"}, "geometry": {"type": "Point", "coordinates": [-105.1284, 39.72876]}},
{"type": "Feature", "id": "jpDNIKC2RncjqNA_-D2gJXWA2sw=", "properties": {"ref": "5dbde25e-39a8-4147-9f07-3ebfa1595947", "@spider": "concentra", "addr:full": "550 East Thornton Parkway", "addr:city": "Thornton Parkway", "addr:state": "\r\n    CO", "addr:postcode": "80229", "name": "Thornton Parkway", "phone": "\r\n                  ", "website": "https://www.concentra.com/urgent-care-centers/colorado/colorado-springs/thornton-parkway-urgent-care/", "brand": "Concentra", "brand:wikidata": "Q5158304"}, "geometry": {"type": "Point", "coordinates": [-104.979726, 39.869389]}},
{"type": "Feature", "id": "LwL1JAWwkrjS5cT8LTaWm32qmWY=", "properties": {"ref": "b7529c11-0816-48f3-8f59-5308ab391b50", "@spider": "concentra", "addr:full": "500 E 84th Avenue", "addr:city": "Thornton", "addr:state": "\r\n    CO", "addr:postcode": "80229", "name": "Thornton", "phone": "\r\n                  ", "website": "https://www.concentra.com/urgent-care-centers/colorado/denver/thornton-urgent-care/", "brand": "Concentra", "brand:wikidata": "Q5158304"}, "geometry": {"type": "Point", "coordinates": [-104.982398, 39.847434]}},
{"type": "Feature", "id": "DwB6YvADmmiZ2TUOXZOFPmaGI80=", "properties": {"ref": "b5f60412-10ee-40a2-a80e-9e8f957ecb27", "@spider": "concentra", "addr:full": "420 E 58th Avenue", "addr:city": "North Denver", "addr:state": "\r\n    CO", "addr:postcode": "80216", "name": "North Denver", "phone": "\r\n                  ", "website": "https://www.concentra.com/urgent-care-centers/colorado/denver/north-denver-urgent-care/", "brand": "Concentra", "brand:wikidata": "Q5158304"}, "geometry": {"type": "Point", "coordinates": [-104.98198, 39.80148]}},
{"type": "Feature", "id": "UmUKwJKTKpCMmTZSBknJTEcSetk=", "properties": {"ref": "46f339f9-a6c8-4e92-b284-5a582f8c931a", "@spider": "concentra", "addr:full": "1730 Blake Street", "addr:city": "Downtown Denver", "addr:state": "\r\n    CO", "addr:postcode": "80202", "name": "Downtown Denver", "phone": "\r\n                  ", "website": "https://www.concentra.com/urgent-care-centers/colorado/denver/downtown-denver-urgent-care/", "brand": "Concentra", "brand:wikidata": "Q5158304"}, "geometry": {"type": "Point", "coordinates": [-104.99715, 39.75208]}},
{"type": "Feature", "id": "SoROng_oifWVN1KmLrqHYK1UAjc=", "properties": {"ref": "0f093672-c864-4086-90af-360da0ec3a8e", "@spider": "concentra", "addr:full": "1212 S Broadway", "addr:city": "South Broadway", "addr:state": "\r\n    CO", "addr:postcode": "80210", "name": "South Broadway", "phone": "\r\n                  ", "website": "https://www.concentra.com/urgent-care-centers/colorado/denver/south-broadway-urgent-care/", "brand": "Concentra", "brand:wikidata": "Q5158304"}, "geometry": {"type": "Point", "coordinates": [-104.98704, 39.69459]}},
{"type": "Feature", "id": "dLfGGUaUptsPfgGjwRaiAFArAyQ=", "properties": {"ref": "67cfcbc0-6e80-43b0-b80c-9f77aac6542d", "@spider": "concentra", "addr:full": "5855 Stapleton Drive North", "addr:city": "Central Park", "addr:state": "\r\n    CO", "addr:postcode": "80216", "name": "Central Park", "phone": "\r\n                  ", "website": "https://www.concentra.com/urgent-care-centers/colorado/denver/stapleton-urgent-care/", "brand": "Concentra", "brand:wikidata": "Q5158304"}, "geometry": {"type": "Point", "coordinates": [-104.91892, 39.77956]}},
{"type": "Feature", "id": "C9w4CGQW02ctn7ClnUeyGRsEA10=", "properties": {"ref": "5e25c170-627d-4f66-89a1-5c0940efc4b3", "@spider": "concentra", "addr:full": "14155 N. 83rd Avenue", "addr:city": "Peoria", "addr:state": "\r\n    AZ", "addr:postcode": "85381", "name": "Peoria", "phone": "\r\n                  ", "website": "https://www.concentra.com/urgent-care-centers/arizona/phoenix/peoria-urgent-care/", "brand": "Concentra", "brand:wikidata": "Q5158304"}, "geometry": {"type": "Point", "coordinates": [-112.23751, 33.61387]}},
{"type": "Feature", "id": "oVrsZVR379VG9MYPUTJ-p1c0WZk=", "properties": {"ref": "7210d81b-ca96-48e3-adcc-eaee6d0953ab", "@spider": "concentra", "addr:full": "875 South Colorado Blvd", "addr:city": "Cherry Creek", "addr:state": "\r\n    CO", "addr:postcode": "80246", "name": "Cherry Creek", "phone": "\r\n                  ", "website": "https://www.concentra.com/urgent-care-centers/colorado/denver/cherry-creek-urgent-care/", "brand": "Concentra", "brand:wikidata": "Q5158304"}, "geometry": {"type": "Point", "coordinates": [-104.94115, 39.70104]}},
{"type": "Feature", "id": "4H5jm47X_HRuAMRC2zomTBrMsoQ=", "properties": {"ref": "e52c7884-88ae-4e01-bcd5-d697fb16b74e", "@spider": "concentra", "addr:full": "20 W Dry Creek Circle", "addr:city": "Littleton", "addr:state": "\r\n    CO", "addr:postcode": "80120", "name": "Littleton", "phone": "\r\n                  ", "website": "https://www.concentra.com/urgent-care-centers/colorado/denver/littleton-urgent-care/", "brand": "Concentra", "brand:wikidata": "Q5158304"}, "geometry": {"type": "Point", "coordinates": [-104.9923, 39.58203]}},
{"type": "Feature", "id": "1aEAkoLaV__p_7eK9NA31teI4TA=", "properties": {"ref": "5eec60a4-627a-4323-93c5-9dffafe43bdf", "@spider": "concentra", "addr:full": "3449 Chambers Rd Ste B", "addr:city": "Aurora Chambers", "addr:state": "\r\n    CO", "addr:postcode": "80011", "name": "Aurora Chambers", "phone": "\r\n                  ", "website": "https://www.concentra.com/urgent-care-centers/colorado/denver/aurora-chambers-urgent-care/", "brand": "Concentra", "brand:wikidata": "Q5158304"}, "geometry": {"type": "Point", "coordinates": [-104.81065, 39.76525]}},
{"type": "Feature", "id": "OoRCQl2uPuLMyI-fZLVnwnv7ViY=", "properties": {"ref": "be1984d0-01d6-4424-ae56-204ff2beb22c", "@spider": "concentra", "addr:full": "15235 E. 38th Ave", "addr:city": "Aurora North", "addr:state": "\r\n    CO", "addr:postcode": "80011", "name": "Aurora North", "phone": "\r\n                  ", "website": "https://www.concentra.com/urgent-care-centers/colorado/denver/aurora-north-urgent-care/", "brand": "Concentra", "brand:wikidata": "Q5158304"}, "geometry": {"type": "Point", "coordinates": [-104.807563, 39.769558]}},
{"type": "Feature", "id": "sthvpTLtKL_Kiwc4PeoQfSLeuDk=", "properties": {"ref": "78b65ff2-7397-46b0-b510-0590b181c098", "@spider": "concentra", "addr:full": "12808 N Black Canyon Highway", "addr:city": "Phoenix Metro Center", "addr:state": "\r\n    AZ", "addr:postcode": "85029", "name": "Phoenix Metro Center", "phone": "\r\n                  ", "website": "https://www.concentra.com/urgent-care-centers/arizona/phoenix/phoenix-metro-center-urgent-care/", "brand": "Concentra", "brand:wikidata": "Q5158304"}, "geometry": {"type": "Point", "coordinates": [-112.11713, 33.60174]}},
{"type": "Feature", "id": "hiQQQHcTbYz5sYVajRmYbgnEYFU=", "properties": {"ref": "65cf3c52-7c9c-4472-b135-8765bce9cf97", "@spider": "concentra", "addr:full": "10355 E Iliff Avenue", "addr:city": "Aurora Southeast", "addr:state": "\r\n    CO", "addr:postcode": "80247", "name": "Aurora Southeast", "phone": "\r\n                  ", "website": "https://www.concentra.com/urgent-care-centers/colorado/denver/aurora-southeast-urgent-care/", "brand": "Concentra", "brand:wikidata": "Q5158304"}, "geometry": {"type": "Point", "coordinates": [-104.8672, 39.67476]}},
{"type": "Feature", "id": "lu0aeaHWrcyW2AmBOI8uQNl1SfY=", "properties": {"ref": "55fe0253-b87e-49b1-9389-490a7bc1ca66", "@spider": "concentra", "addr:full": "9330 South University Blvd.", "addr:city": "Highlands Ranch", "addr:state": "\r\n    CO", "addr:postcode": "80126", "name": "Highlands Ranch", "phone": "\r\n                  ", "website": "https://www.concentra.com/urgent-care-centers/colorado/denver/highlands-ranch-urgent-care/", "brand": "Concentra", "brand:wikidata": "Q5158304"}, "geometry": {"type": "Point", "coordinates": [-104.94473, 39.54493]}},
{"type": "Feature", "id": "BUmgo5Wv3v3RpiJC3ChLEBlHJ-Y=", "properties": {"ref": "86f31384-ee2e-436b-b8f2-5b5334128df6", "@spider": "concentra", "addr:full": "11877 E. Arapahoe Road", "addr:city": "Tech Center", "addr:state": "\r\n    CO", "addr:postcode": "80112", "name": "Tech Center", "phone": "\r\n                  ", "website": "https://www.concentra.com/urgent-care-centers/colorado/denver/tech-center-urgent-care/", "brand": "Concentra", "brand:wikidata": "Q5158304"}, "geometry": {"type": "Point", "coordinates": [-104.85157, 39.59544]}},
{"type": "Feature", "id": "J1zFR01u_uyu4CA9EoanHORarXU=", "properties": {"ref": "3bbbdc91-a9ef-42be-ac13-e6185a73bffd", "@spider": "concentra", "addr:full": "2010 N. 75th Avenue", "addr:city": "Estrella", "addr:state": "\r\n    AZ", "addr:postcode": "85035-3247", "name": "Estrella", "phone": "\r\n                  ", "website": "https://www.concentra.com/urgent-care-centers/arizona/phoenix/estrella-urgent-care/", "brand": "Concentra", "brand:wikidata": "Q5158304"}, "geometry": {"type": "Point", "coordinates": [-112.22124, 33.47024]}},
{"type": "Feature", "id": "QFmXRNNQY6UTo6sChSLz2WkBN-Q=", "properties": {"ref": "e06f84af-d857-41c1-b81a-6a7e1d4fcf7b", "@spider": "concentra", "addr:full": "11960 Lioness Way Ste. 150", "addr:city": "Parker", "addr:state": "\r\n    CO", "addr:postcode": "80134", "name": "Parker", "phone": "\r\n                  ", "website": "https://www.concentra.com/urgent-care-centers/colorado/denver/parker-urgent-care/", "brand": "Concentra", "brand:wikidata": "Q5158304"}, "geometry": {"type": "Point", "coordinates": [-104.849998, 39.53405]}},
{"type": "Feature", "id": "S6cCXzEGC5j26Ib2zctbpP84Pb0=", "properties": {"ref": "8c52233b-0d4e-4064-ab6b-85e37540a136", "@spider": "concentra", "addr:full": "3532 W Thomas Road", "addr:city": "West - 35th and Thomas", "addr:state": "\r\n    AZ", "addr:postcode": "85019", "name": "West - 35th and Thomas", "phone": "\r\n                  ", "website": "https://www.concentra.com/urgent-care-centers/arizona/phoenix/west-35th-and-thomas-urgent-care/", "brand": "Concentra", "brand:wikidata": "Q5158304"}, "geometry": {"type": "Point", "coordinates": [-112.13560679269999, 33.480968365799995]}},
{"type": "Feature", "id": "zCD82Q2HzR2XI3ln4rvazJUy_bk=", "properties": {"ref": "c223e0e4-9d82-4a85-a47f-0003f5adf617", "@spider": "concentra", "addr:full": "10335 N. Scottsdale Road", "addr:city": "Scottsdale", "addr:state": "\r\n    AZ", "addr:postcode": "85253-1435", "name": "Scottsdale", "phone": "\r\n                  ", "website": "https://www.concentra.com/urgent-care-centers/arizona/phoenix/scottsdale-urgent-care/", "brand": "Concentra", "brand:wikidata": "Q5158304"}, "geometry": {"type": "Point", "coordinates": [-111.9257, 33.58038]}},
{"type": "Feature", "id": "KbKqzDpBzTARINSOGtPXnT03CnM=", "properties": {"ref": "83e4f7de-72d4-4ed6-bb8c-3c0db8f99dc9", "@spider": "concentra", "addr:full": "5340 W Buckeye Road", "addr:city": "Southwest - 51st and Buckeye", "addr:state": "\r\n    AZ", "addr:postcode": "85043", "name": "Southwest - 51st and Buckeye", "phone": "\r\n                  ", "website": "https://www.concentra.com/urgent-care-centers/arizona/phoenix/southwest-51st-and-buckeye-urgent-care/", "brand": "Concentra", "brand:wikidata": "Q5158304"}, "geometry": {"type": "Point", "coordinates": [-112.17482, 33.43748]}},
{"type": "Feature", "id": "LKL4DGI1LsKfbn4ZsbsiDprKZzI=", "properties": {"ref": "cf45d1ad-8965-4c0b-a950-392928682bab", "@spider": "concentra", "addr:full": "1818 E Sky Harbor Circle North Bldg 2", "addr:city": "Airport Phoenix", "addr:state": "\r\n    AZ", "addr:postcode": "85034", "name": "Airport Phoenix", "phone": "\r\n                  ", "website": "https://www.concentra.com/urgent-care-centers/arizona/phoenix/airport-phoenix-urgent-care/", "brand": "Concentra", "brand:wikidata": "Q5158304"}, "geometry": {"type": "Point", "coordinates": [-112.044128, 33.439816]}},
{"type": "Feature", "id": "SZjnqRXaxCPBptZNG3veZ63-_pM=", "properties": {"ref": "c42aca48-b193-409f-9f9d-9513724ecdc6", "@spider": "concentra", "addr:full": "1626 South Priest Drive", "addr:city": "Rio Salado", "addr:state": "\r\n    AZ", "addr:postcode": "85281", "name": "Rio Salado", "phone": "\r\n                  ", "website": "https://www.concentra.com/urgent-care-centers/arizona/tucson/rio-salado-urgent-care/", "brand": "Concentra", "brand:wikidata": "Q5158304"}, "geometry": {"type": "Point", "coordinates": [-111.9291, 33.4244]}},
{"type": "Feature", "id": "CuOZzcUFM9SbG_VRMueVYYiBK5E=", "properties": {"ref": "1e7610fc-e68a-4bd9-baf7-5fbf5b7ed69b", "@spider": "concentra", "addr:full": "950 W Southern Avenue", "addr:city": "Tempe", "addr:state": "\r\n    AZ", "addr:postcode": "85282", "name": "Tempe", "phone": "\r\n                  ", "website": "https://www.concentra.com/urgent-care-centers/arizona/phoenix/tempe-urgent-care/", "brand": "Concentra", "brand:wikidata": "Q5158304"}, "geometry": {"type": "Point", "coordinates": [-111.95145, 33.39285]}},
{"type": "Feature", "id": "BklfNDQlzMLZBuw8NbH67MwJ00I=", "properties": {"ref": "b79034bd-b183-4355-9ca2-f869cd225a02", "@spider": "concentra", "addr:full": "1710 W Southern", "addr:city": "Mesa", "addr:state": "\r\n    AZ", "addr:postcode": "85202", "name": "Mesa", "phone": "\r\n                  ", "website": "https://www.concentra.com/urgent-care-centers/arizona/phoenix/mesa-urgent-care/", "brand": "Concentra", "brand:wikidata": "Q5158304"}, "geometry": {"type": "Point", "coordinates": [-111.86827, 33.39314]}},
{"type": "Feature", "id": "__yJRs34fbqff1aEbfI94DYQirQ=", "properties": {"ref": "2e03d72a-94ad-4451-8dda-9462e1b72ba0", "@spider": "concentra", "addr:full": "1959 S Val Vista Drive", "addr:city": "East Mesa", "addr:state": "\r\n    AZ", "addr:postcode": "85204", "name": "East Mesa", "phone": "\r\n                  ", "website": "https://www.concentra.com/urgent-care-centers/arizona/phoenix/east-mesa-urgent-care/", "brand": "Concentra", "brand:wikidata": "Q5158304"}, "geometry": {"type": "Point", "coordinates": [-111.75209, 33.38009]}},
{"type": "Feature", "id": "Ns9M4Tm76y0QRyCPUUARAOTqSio=", "properties": {"ref": "95add975-99ed-4b97-90d8-1cebc696bea9", "@spider": "concentra", "addr:full": "5320 Mark Dabling Blvd.", "addr:city": "Rockrimmon", "addr:state": "\r\n    CO", "addr:postcode": "80918", "name": "Rockrimmon", "phone": "\r\n                  ", "website": "https://www.concentra.com/urgent-care-centers/colorado/colorado-springs/rockrimmon-urgent-care/", "brand": "Concentra", "brand:wikidata": "Q5158304"}, "geometry": {"type": "Point", "coordinates": [-104.82338, 38.90942]}},
{"type": "Feature", "id": "TNGf2vv1kNrQ29RqfbMLvtpEptI=", "properties": {"ref": "dcada2d9-d2a3-4b8b-af6d-4a78ddd32fa4", "@spider": "concentra", "addr:full": "402 W. Bijou St.", "addr:city": "Bijou", "addr:state": "\r\n    CO", "addr:postcode": "80905", "name": "Bijou", "phone": "\r\n                  ", "website": "https://www.concentra.com/urgent-care-centers/colorado/colorado-springs/bijou-urgent-care/", "brand": "Concentra", "brand:wikidata": "Q5158304"}, "geometry": {"type": "Point", "coordinates": [-104.83313, 38.83743]}},
{"type": "Feature", "id": "QqwwDpOyFfyU9Aa4KCrGTK8YPIk=", "properties": {"ref": "9ff37613-1056-418c-b951-6847fe32a7d9", "@spider": "concentra", "addr:full": "4083 Austin Bluffs Pkwy.", "addr:city": "Austin Bluffs", "addr:state": "\r\n    CO", "addr:postcode": "80918", "name": "Austin Bluffs", "phone": "\r\n                  ", "website": "https://www.concentra.com/urgent-care-centers/colorado/colorado-springs/austin-bluffs-urgent-care/", "brand": "Concentra", "brand:wikidata": "Q5158304"}, "geometry": {"type": "Point", "coordinates": [-104.75469, 38.89063]}},
{"type": "Feature", "id": "JoFYZMsrXsyiA_b3QrI2QC8Wxr0=", "properties": {"ref": "730d0480-b21b-438a-9c05-c87c5ce5bcff", "@spider": "concentra", "addr:full": "6011 Woodmen Rd, Ste 100", "addr:city": "Woodmen", "addr:state": "\r\n    CO", "addr:postcode": "80923", "name": "Woodmen", "phone": "\r\n                  ", "website": "https://www.concentra.com/urgent-care-centers/colorado/colorado-springs/woodmen-road-urgent-care/", "brand": "Concentra", "brand:wikidata": "Q5158304"}, "geometry": {"type": "Point", "coordinates": [-104.714065, 38.940261]}},
{"type": "Feature", "id": "bTmDAHSAkktAfg4Z7tJIoWeDnI8=", "properties": {"ref": "4fac2bb2-b107-4449-9597-c93b5072a5d5", "@spider": "concentra", "addr:full": "2322 S Academy Blvd.", "addr:city": "South Academy", "addr:state": "\r\n    CO", "addr:postcode": "80916", "name": "South Academy", "phone": "\r\n                  ", "website": "https://www.concentra.com/urgent-care-centers/colorado/colorado-springs/south-academy-urgent-care/", "brand": "Concentra", "brand:wikidata": "Q5158304"}, "geometry": {"type": "Point", "coordinates": [-104.75764, 38.80026]}},
{"type": "Feature", "id": "GFzDtXzcp7FB1zMOJXDLkdAa5lw=", "properties": {"ref": "f913a40e-67a4-4582-9315-b892019dd7ce", "@spider": "concentra", "addr:full": "4112 Outlook Blvd. Ste. 325", "addr:city": "Outlook Boulevard", "addr:state": "\r\n    CO", "addr:postcode": "81008", "name": "Outlook Boulevard", "phone": "\r\n                  ", "website": "https://www.concentra.com/urgent-care-centers/colorado/colorado-springs/outlook-boulevard-urgent-care/", "brand": "Concentra", "brand:wikidata": "Q5158304"}, "geometry": {"type": "Point", "coordinates": [-104.625931, 38.311727]}},
{"type": "Feature", "id": "tNt1dSrHaEA4IZhYcMpj9_YZyz4=", "properties": {"ref": "24ac5f94-f437-459e-ba77-116e979ea6a3", "@spider": "concentra", "addr:full": "4117 N. Elizabeth St.", "addr:city": "Pueblo", "addr:state": "\r\n    CO", "addr:postcode": "81008", "name": "Pueblo", "phone": "\r\n                  ", "website": "https://www.concentra.com/urgent-care-centers/colorado/denver/pueblo-urgent-care/", "brand": "Concentra", "brand:wikidata": "Q5158304"}, "geometry": {"type": "Point", "coordinates": [-104.61601, 38.31139]}},
{"type": "Feature", "id": "qscjQyZxfQDvG4r9AgLAE0ibFls=", "properties": {"ref": "b95b0a31-265b-4342-9d8f-75b54b9addf5", "@spider": "concentra", "addr:full": "2005 W Ruthrauff Road", "addr:city": "Tucson North - Ruthrauff", "addr:state": "\r\n    AZ", "addr:postcode": "85705", "name": "Tucson North - Ruthrauff", "phone": "\r\n                  ", "website": "https://www.concentra.com/urgent-care-centers/arizona/tucson/tucson-north-ruthrauff-urgent-care/", "brand": "Concentra", "brand:wikidata": "Q5158304"}, "geometry": {"type": "Point", "coordinates": [-111.0101, 32.29431]}},
{"type": "Feature", "id": "Y2vFrHy9_fjRCHm6Z4kfIqSrPPU=", "properties": {"ref": "752978f1-bf4e-467e-831a-b1daac225d66", "@spider": "concentra", "addr:full": "3811 Commons Ave NE", "addr:city": "Albuquerque Singer", "addr:state": "\r\n    NM", "addr:postcode": "87109", "name": "Albuquerque Singer", "phone": "\r\n                  ", "website": "https://www.concentra.com/urgent-care-centers/new-mexico/albuquerque/albuquerque-singer-urgent-care/", "brand": "Concentra", "brand:wikidata": "Q5158304"}, "geometry": {"type": "Point", "coordinates": [-106.60323, 35.14365]}},
{"type": "Feature", "id": "pdBN1xvwxqwhNRba9PPA_xKL_mM=", "properties": {"ref": "ecf8c41f-1b82-4245-a2d1-2f1cce193748", "@spider": "concentra", "addr:full": "5700 Harper Dr NE", "addr:city": "Albuquerque Northpointe", "addr:state": "\r\n    NM", "addr:postcode": "87109", "name": "Albuquerque Northpointe", "phone": "\r\n                  ", "website": "https://www.concentra.com/urgent-care-centers/new-mexico/albuquerque/albuquerque-northpointe-urgent-care/", "brand": "Concentra", "brand:wikidata": "Q5158304"}, "geometry": {"type": "Point", "coordinates": [-106.58636, 35.15313]}},
{"type": "Feature", "id": "t3Dty2-qC9Wes4R5QUo66Y-g_E8=", "properties": {"ref": "cd84b320-a7e6-4204-a5f8-6f90358110ab", "@spider": "concentra", "addr:full": "3101 Menaul Blvd. NE", "addr:city": "Menaul", "addr:state": "\r\n    NM", "addr:postcode": "87107", "name": "Menaul", "phone": "\r\n                  ", "website": "https://www.concentra.com/urgent-care-centers/new-mexico/albuquerque/concentra-menaul-urgent-care/", "brand": "Concentra", "brand:wikidata": "Q5158304"}, "geometry": {"type": "Point", "coordinates": [-106.610001, 35.110092]}},
{"type": "Feature", "id": "G0iNZ-X8vLgQhz64Lob2T3wSj9I=", "properties": {"ref": "f86c478c-66e2-49e9-a14a-6816144ef932", "@spider": "concentra", "addr:full": "720 Saint Michaels Dr", "addr:city": "Santa Fe", "addr:state": "\r\n    NM", "addr:postcode": "87505", "name": "Santa Fe", "phone": "\r\n                  ", "website": "https://www.concentra.com/urgent-care-centers/new-mexico/santa-fe/santa-fe-urgent-care/", "brand": "Concentra", "brand:wikidata": "Q5158304"}, "geometry": {"type": "Point", "coordinates": [-105.95904, 35.65923]}},
{"type": "Feature", "id": "UtIdQkIJqne1s2sbmm6iqpfD4WA=", "properties": {"ref": "9787fd87-ca6e-4622-a12d-4299668563b8", "@spider": "concentra", "addr:full": "2301 N. Forbes Blvd", "addr:city": "Tucson West", "addr:state": "\r\n    AZ", "addr:postcode": "85745", "name": "Tucson West", "phone": "\r\n                  ", "website": "https://www.concentra.com/urgent-care-centers/arizona/tucson/tucson-west-urgent-care/", "brand": "Concentra", "brand:wikidata": "Q5158304"}, "geometry": {"type": "Point", "coordinates": [-110.99593, 32.24919]}},
{"type": "Feature", "id": "LLBFaCnOf3qLP0-kUHj1xipvPmg=", "properties": {"ref": "1f2dd0c1-c0e5-4028-991a-6da7c1518c17", "@spider": "concentra", "addr:full": "4600 S Park Avenue", "addr:city": "Tucson South - Park Avenue", "addr:state": "\r\n    AZ", "addr:postcode": "85714", "name": "Tucson South - Park Avenue", "phone": "\r\n                  ", "website": "https://www.concentra.com/urgent-care-centers/arizona/tucson/tucson-south-park-avenue-urgent-care/", "brand": "Concentra", "brand:wikidata": "Q5158304"}, "geometry": {"type": "Point", "coordinates": [-110.95657, 32.16851]}},
{"type": "Feature", "id": "qNZ950AWdrqpQhSPYydNRUb_NuU=", "properties": {"ref": "39143b8c-c452-4f6b-9013-964f2338159d", "@spider": "concentra", "addr:full": "7119 E Broadway Blvd.", "addr:city": "Tucson East", "addr:state": "\r\n    AZ", "addr:postcode": "85710", "name": "Tucson East", "phone": "\r\n                  ", "website": "https://www.concentra.com/urgent-care-centers/arizona/tucson/tucson-east-urgent-care/", "brand": "Concentra", "brand:wikidata": "Q5158304"}, "geometry": {"type": "Point", "coordinates": [-110.84011, 32.22111]}},
{"type": "Feature", "id": "HNX4vVAYhHp3aSzchuP7uFr3bX0=", "properties": {"ref": "e7d11bd2-4a4a-446f-9a47-44ccc2350cc7", "@spider": "concentra", "addr:full": "6320 Gateway Blvd. E", "addr:city": "Gateway", "addr:state": "\r\n    TX", "addr:postcode": "79905", "name": "Gateway", "phone": "\r\n                  ", "website": "https://www.concentra.com/urgent-care-centers/texas/el-paso/gateway-urgent-care/", "brand": "Concentra", "brand:wikidata": "Q5158304"}, "geometry": {"type": "Point", "coordinates": [-106.40386, 31.78148]}},
{"type": "Feature", "id": "2fCvqhPkQ8sgm720PJWsc46l4kA=", "properties": {"ref": "baf4e602-1a5c-4d6a-aa74-5c004e72a21c", "@spider": "concentra", "addr:full": "1610 N. Zaragosa Road", "addr:city": "El Paso East", "addr:state": "\r\n    TX", "addr:postcode": "79936", "name": "El Paso East", "phone": "\r\n                  ", "website": "https://www.concentra.com/urgent-care-centers/texas/el-paso/el-paso-east-urgent-care/", "brand": "Concentra", "brand:wikidata": "Q5158304"}, "geometry": {"type": "Point", "coordinates": [-106.28509, 31.74408]}},
{"type": "Feature", "id": "C813oGGwKWnhMdtrx0ECpqE_DAA=", "properties": {"ref": "584c96ed-79f3-4738-8f0d-e802de6827a2", "@spider": "concentra", "addr:full": "1619 S Kentucky Street", "addr:city": "Amarillo", "addr:state": "\r\n    TX", "addr:postcode": "79102", "name": "Amarillo", "phone": "\r\n                  ", "website": "https://www.concentra.com/urgent-care-centers/texas/amarillo/amarillo-urgent-care/", "brand": "Concentra", "brand:wikidata": "Q5158304"}, "geometry": {"type": "Point", "coordinates": [-101.86954, 35.19729]}},
{"type": "Feature", "id": "9hXmRZA5xX_GG8pbFdRNB8GxZpk=", "properties": {"ref": "b59c4dc7-cb54-491e-a0c0-dd66ccc67971", "@spider": "concentra", "addr:full": "4900 N 26th Street", "addr:city": "Lincoln", "addr:state": "\r\n    NE", "addr:postcode": "68521", "name": "Lincoln", "phone": "\r\n                  ", "website": "https://www.concentra.com/urgent-care-centers/nebraska/lincoln/lincoln-urgent-care/", "brand": "Concentra", "brand:wikidata": "Q5158304"}, "geometry": {"type": "Point", "coordinates": [-96.68358, 40.86034]}},
{"type": "Feature", "id": "j544Dr8No-QCxfjONx8-ruY6qEA=", "properties": {"ref": "d608ad24-d26a-4bd4-af4c-77238826330d", "@spider": "concentra", "addr:full": "6048 Marsha Sharp Fwy", "addr:city": "Lubbock Canyon West", "addr:state": "\r\n    TX", "addr:postcode": "79407", "name": "Lubbock Canyon West", "phone": "\r\n                  ", "website": "https://www.concentra.com/urgent-care-centers/texas/lubbock/lubbock-canyon-west-urgent-care/", "brand": "Concentra", "brand:wikidata": "Q5158304"}, "geometry": {"type": "Point", "coordinates": [-101.95045, 33.54965]}},
{"type": "Feature", "id": "31EKQAjO81dgrk5Ta4NGoJNPj7k=", "properties": {"ref": "785a8aa5-1018-476d-a573-f627fb2550c2", "@spider": "concentra", "addr:full": "9602 M Street", "addr:city": "Omaha West", "addr:state": "\r\n    NE", "addr:postcode": "68127", "name": "Omaha West", "phone": "\r\n                  ", "website": "https://www.concentra.com/urgent-care-centers/nebraska/omaha/omaha-west-urgent-care/", "brand": "Concentra", "brand:wikidata": "Q5158304"}, "geometry": {"type": "Point", "coordinates": [-96.06226, 41.21149]}},
{"type": "Feature", "id": "UpyGmR1ymAvXe7G8Oe7v_BL0PaM=", "properties": {"ref": "d14b3d04-d496-4f8f-9e4a-9ea453fabee7", "@spider": "concentra", "addr:full": "2900 F Street", "addr:city": "South Omaha", "addr:state": "\r\n    NE", "addr:postcode": "68107", "name": "South Omaha", "phone": "\r\n                  ", "website": "https://www.concentra.com/urgent-care-centers/nebraska/omaha/south-omaha-urgent-care/", "brand": "Concentra", "brand:wikidata": "Q5158304"}, "geometry": {"type": "Point", "coordinates": [-95.95436, 41.21973]}},
{"type": "Feature", "id": "Gk5g8J6sqq_VrlqlgXYqmV1yqu0=", "properties": {"ref": "b951c70a-d955-45e3-8095-e8bda0c1ce70", "@spider": "concentra", "addr:full": "1580 White Oak Drive", "addr:city": "Chaska", "addr:state": "\r\n    MN", "addr:postcode": "55318", "name": "Chaska", "phone": "\r\n                  ", "website": "https://www.concentra.com/urgent-care-centers/minnesota/detroit/chaska-urgent-care/", "brand": "Concentra", "brand:wikidata": "Q5158304"}, "geometry": {"type": "Point", "coordinates": [-93.60569, 44.80462]}},
{"type": "Feature", "id": "ohKeBKsp8O62r7CYwlK1GS4G8aY=", "properties": {"ref": "9efbee5f-41b5-4b9c-aff7-5dfae349bbe2", "@spider": "concentra", "addr:full": "4080 W Broadway", "addr:city": "Robbinsdale", "addr:state": "\r\n    MN", "addr:postcode": "55422", "name": "Robbinsdale", "phone": "\r\n                  ", "website": "https://www.concentra.com/urgent-care-centers/minnesota/detroit/robbinsdale-urgent-care/", "brand": "Concentra", "brand:wikidata": "Q5158304"}, "geometry": {"type": "Point", "coordinates": [-93.3361, 45.0294]}},
{"type": "Feature", "id": "NxDFqFyfkpLtYHAEKkJ-k10GO9w=", "properties": {"ref": "5e9ceb22-0b3b-4a86-8109-dfc55f685fc0", "@spider": "concentra", "addr:full": "10190 Baltimore Street NE", "addr:city": "Blaine", "addr:state": "\r\n    MN", "addr:postcode": "55449", "name": "Blaine", "phone": "\r\n                  ", "website": "https://www.concentra.com/urgent-care-centers/minnesota/detroit/blaine-urgent-care/", "brand": "Concentra", "brand:wikidata": "Q5158304"}, "geometry": {"type": "Point", "coordinates": [-93.2341, 45.15509]}},
{"type": "Feature", "id": "lR5IwSMz4_BVmgK3mfPiojxQ92s=", "properties": {"ref": "9a5a2c9c-36c5-4306-a8a4-411b9f1d8e0e", "@spider": "concentra", "addr:full": "7550 34th Avenue S", "addr:city": "Minneapolis (Airport)", "addr:state": "\r\n    MN", "addr:postcode": "55450-1124", "name": "Minneapolis (Airport)", "phone": "\r\n                  ", "website": "https://www.concentra.com/urgent-care-centers/minnesota/detroit/minneapolis-airport-urgent-care/", "brand": "Concentra", "brand:wikidata": "Q5158304"}, "geometry": {"type": "Point", "coordinates": [-93.22356, 44.86642]}},
{"type": "Feature", "id": "1rHryJPgpcIbgUQ23CdcJuPqw8g=", "properties": {"ref": "24ff559c-3d7d-481c-9f01-1e59dc8cf216", "@spider": "concentra", "addr:full": "570 Asbury Street", "addr:city": "St. Paul", "addr:state": "\r\n    MN", "addr:postcode": "55104", "name": "St. Paul", "phone": "\r\n                  ", "website": "https://www.concentra.com/urgent-care-centers/minnesota/detroit/st-paul-urgent-care/", "brand": "Concentra", "brand:wikidata": "Q5158304"}, "geometry": {"type": "Point", "coordinates": [-93.16461, 44.95867]}},
{"type": "Feature", "id": "DPbvZA2-VV50ON33FP-Pl31ac9M=", "properties": {"ref": "10eb174a-2239-438b-bf6a-2c0c3a8c1d27", "@spider": "concentra", "addr:full": "2520 Pilot Knob Road", "addr:city": "Mendota Heights", "addr:state": "\r\n    MN", "addr:postcode": "55120", "name": "Mendota Heights", "phone": "\r\n                  ", "website": "https://www.concentra.com/urgent-care-centers/minnesota/detroit/mendota-heights-urgent-care/", "brand": "Concentra", "brand:wikidata": "Q5158304"}, "geometry": {"type": "Point", "coordinates": [-93.16570929560001, 44.864367736700004]}},
{"type": "Feature", "id": "FbS0rjRbXwKObFQhku4j6wvASAc=", "properties": {"ref": "7ddf45c5-8221-4ff1-9069-d4412b154ce4", "@spider": "concentra", "addr:full": "904 Edmond St", "addr:city": "St. Joe Edmond", "addr:state": "\r\n    MO", "addr:postcode": "64501", "name": "St. Joe Edmond", "phone": "\r\n                  ", "website": "https://www.concentra.com/urgent-care-centers/missouri/st-louis/st-joe-edmond-urgent-care/", "brand": "Concentra", "brand:wikidata": "Q5158304"}, "geometry": {"type": "Point", "coordinates": [-94.849363, 39.765746]}},
{"type": "Feature", "id": "jcNML5lNVy893WV63FpdrTVdJoE=", "properties": {"ref": "8c9b2754-8623-45ac-93bc-ae8906fae2c6", "@spider": "concentra", "addr:full": "5506 Corporate Dr", "addr:city": "St. Joe Corporate Drive", "addr:state": "\r\n    MO", "addr:postcode": "64507", "name": "St. Joe Corporate Drive", "phone": "\r\n                  ", "website": "https://www.concentra.com/urgent-care-centers/missouri/kansas-city/st-joe-corporate-drive-urgent-care/", "brand": "Concentra", "brand:wikidata": "Q5158304"}, "geometry": {"type": "Point", "coordinates": [-94.7653596944, 39.7534536737]}},
{"type": "Feature", "id": "K10HWYZ8Pi0TgtxzDwVsnNH02Pc=", "properties": {"ref": "98b74af5-47ef-415c-90a3-a36b03b83c12", "@spider": "concentra", "addr:full": "11144 Aurora Avenue", "addr:city": "Aurora Des Moines", "addr:state": "\r\n    IA", "addr:postcode": "50322", "name": "Aurora Des Moines", "phone": "\r\n                  ", "website": "https://www.concentra.com/urgent-care-centers/iowa/des-moines/aurora-des-moines-urgent-care/", "brand": "Concentra", "brand:wikidata": "Q5158304"}, "geometry": {"type": "Point", "coordinates": [-93.77055, 41.637337]}},
{"type": "Feature", "id": "OSdVFEtUxd16gP0WKDch2QEFJJQ=", "properties": {"ref": "af6f4df1-7ff6-488f-9657-31b49e7b0c9d", "@spider": "concentra", "addr:full": "36 W Memorial Rd", "addr:city": "Memorial Road", "addr:state": "\r\n    OK", "addr:postcode": "73114", "name": "Memorial Road", "phone": "\r\n                  ", "website": "https://www.concentra.com/urgent-care-centers/oklahoma/oklahoma-city/memorial-road-urgent-care/", "brand": "Concentra", "brand:wikidata": "Q5158304"}, "geometry": {"type": "Point", "coordinates": [-97.51602, 35.60912]}},
{"type": "Feature", "id": "Y_Ol5cMjYutu4soZzn2-xGmLOxE=", "properties": {"ref": "2025a8a7-a045-4220-9e19-2fb48b09286a", "@spider": "concentra", "addr:full": "6101 W Reno Ave", "addr:city": "West Reno", "addr:state": "\r\n    OK", "addr:postcode": "73127", "name": "West Reno", "phone": "\r\n                  ", "website": "https://www.concentra.com/urgent-care-centers/oklahoma/oklahoma-city/west-reno-urgent-care/", "brand": "Concentra", "brand:wikidata": "Q5158304"}, "geometry": {"type": "Point", "coordinates": [-97.62298, 35.46504]}},
{"type": "Feature", "id": "G81_CP3aLZAQgck0Rtj0z3_gI3A=", "properties": {"ref": "56b9e82d-5226-4e2e-9878-3ab004d995fa", "@spider": "concentra", "addr:full": "200 S Quadrum Dr", "addr:city": "Quadrum", "addr:state": "\r\n    OK", "addr:postcode": "73108", "name": "Quadrum", "phone": "\r\n                  ", "website": "https://www.concentra.com/urgent-care-centers/oklahoma/oklahoma-city/quadrum-urgent-care/", "brand": "Concentra", "brand:wikidata": "Q5158304"}, "geometry": {"type": "Point", "coordinates": [-97.58127, 35.46408]}},
{"type": "Feature", "id": "EaSifyTH5xNzC6df6-47wQtlnFE=", "properties": {"ref": "16b8f92d-829d-4367-90d9-24fcfeab3693", "@spider": "concentra", "addr:full": "2100 Dixon Street", "addr:city": "Dixon", "addr:state": "\r\n    IA", "addr:postcode": "50316", "name": "Dixon", "phone": "\r\n                  ", "website": "https://www.concentra.com/urgent-care-centers/iowa/des-moines/dixon-urgent-care/", "brand": "Concentra", "brand:wikidata": "Q5158304"}, "geometry": {"type": "Point", "coordinates": [-93.58815, 41.61298]}},
{"type": "Feature", "id": "AKXFG2OsLNufTY7-gVjswrcsSiU=", "properties": {"ref": "24541160-624c-407a-a2ee-4a76701ae22e", "@spider": "concentra", "addr:full": "1500 W I-240 Service Road", "addr:city": "Oklahoma South ", "addr:state": "\r\n    OK", "addr:postcode": "73159", "name": "Oklahoma South ", "phone": "\r\n                  ", "website": "https://www.concentra.com/urgent-care-centers/oklahoma/oklahoma-city/oklahoma-south-urgent-care/", "brand": "Concentra", "brand:wikidata": "Q5158304"}, "geometry": {"type": "Point", "coordinates": [-97.543932, 35.391002]}},
{"type": "Feature", "id": "D01H3K4uFpQYtK4uaKx3vCexQM0=", "properties": {"ref": "83659487-d647-4c0f-8870-5aed2a59503f", "@spider": "concentra", "addr:full": "1333 Meadowlark Lane", "addr:city": "Wyandotte", "addr:state": "\r\n    KS", "addr:postcode": "66102", "name": "Wyandotte", "phone": "\r\n                  ", "website": "https://www.concentra.com/urgent-care-centers/kansas/kansas-city/wyandotte-urgent-care/", "brand": "Concentra", "brand:wikidata": "Q5158304"}, "geometry": {"type": "Point", "coordinates": [-94.709147, 39.120086]}},
{"type": "Feature", "id": "zisoW_LUMUuPOLz118luSnPmCew=", "properties": {"ref": "7729c826-8776-4fb8-a407-5975f3a2df90", "@spider": "concentra", "addr:full": "4214 Kansas Avenue", "addr:city": "Kansas Avenue", "addr:state": "\r\n    KS", "addr:postcode": "66106", "name": "Kansas Avenue", "phone": "\r\n                  ", "website": "https://www.concentra.com/urgent-care-centers/kansas/kansas-city/kansas-avenue-urgent-care/", "brand": "Concentra", "brand:wikidata": "Q5158304"}, "geometry": {"type": "Point", "coordinates": [-94.67747, 39.08956]}},
{"type": "Feature", "id": "D9XceoE98neUBTOa4kNXiRTlJYE=", "properties": {"ref": "763ce762-7df8-4061-a531-0ae4719264d6", "@spider": "concentra", "addr:full": "14809 W 95th Street", "addr:city": "Lenexa", "addr:state": "\r\n    KS", "addr:postcode": "66215", "name": "Lenexa", "phone": "\r\n                  ", "website": "https://www.concentra.com/urgent-care-centers/kansas/kansas-city/lenexa-urgent-care/", "brand": "Concentra", "brand:wikidata": "Q5158304"}, "geometry": {"type": "Point", "coordinates": [-94.75854, 38.95508]}},
{"type": "Feature", "id": "Me7ZtCkPawRGrn1G_pW7RgKnIC0=", "properties": {"ref": "34dcf9f2-6270-48ba-b62c-f9013b150ada", "@spider": "concentra", "addr:full": "15430 S. Rogers Rd", "addr:city": "Olathe", "addr:state": "\r\n    KS", "addr:postcode": "66062-3497", "name": "Olathe", "phone": "\r\n                  ", "website": "https://www.concentra.com/urgent-care-centers/kansas/kansas-city/johnson-county-urgent-care/", "brand": "Concentra", "brand:wikidata": "Q5158304"}, "geometry": {"type": "Point", "coordinates": [-94.822389, 38.848864]}},
{"type": "Feature", "id": "ASSO5ICPAyeKhdYlcv5hcY-IIG4=", "properties": {"ref": "0ad014cd-fb31-48b6-a96f-2d6e595fc7f9", "@spider": "concentra", "addr:full": "599 Armour Road", "addr:city": "North Kansas City", "addr:state": "\r\n    MO", "addr:postcode": "64116", "name": "North Kansas City", "phone": "\r\n                  ", "website": "https://www.concentra.com/urgent-care-centers/missouri/kansas-city/north-kansas-city-urgent-care/", "brand": "Concentra", "brand:wikidata": "Q5158304"}, "geometry": {"type": "Point", "coordinates": [-94.57377, 39.14259]}},
{"type": "Feature", "id": "jcbkGsKqm_V4cVFtxAmg5oPPZFs=", "properties": {"ref": "2eec8bef-c951-4d47-9ca4-3fafaa5a4be7", "@spider": "concentra", "addr:full": "200 Southwest Boulevard", "addr:city": "Crossroads", "addr:state": "\r\n    MO", "addr:postcode": "64108", "name": "Crossroads", "phone": "\r\n                  ", "website": "https://www.concentra.com/urgent-care-centers/missouri/kansas-city/crossroads-urgent-care/", "brand": "Concentra", "brand:wikidata": "Q5158304"}, "geometry": {"type": "Point", "coordinates": [-94.58628953370001, 39.0897006736]}},
{"type": "Feature", "id": "JEdazLO7XAMmVwd6S-yKzQ5aNhY=", "properties": {"ref": "e660b63d-3216-4dde-9bf2-4ac7f73aa84d", "@spider": "concentra", "addr:full": "6401 Front Street", "addr:city": "Executive Park", "addr:state": "\r\n    MO", "addr:postcode": "64120", "name": "Executive Park", "phone": "\r\n                  ", "website": "https://www.concentra.com/urgent-care-centers/missouri/kansas-city/executive-park-urgent-care/", "brand": "Concentra", "brand:wikidata": "Q5158304"}, "geometry": {"type": "Point", "coordinates": [-94.5070874649, 39.1297689708]}},
{"type": "Feature", "id": "UDEzMsT8y1H2AorqPlqcKQnLeMk=", "properties": {"ref": "f8aac6cf-e0a6-40b0-bf5d-491701b54231", "@spider": "concentra", "addr:full": "6501 E. Commerce Ave", "addr:city": "Front Street", "addr:state": "\r\n    MO", "addr:postcode": "64120", "name": "Front Street", "phone": "\r\n                  ", "website": "https://www.concentra.com/urgent-care-centers/missouri/st-louis/front-street-urgent-care/", "brand": "Concentra", "brand:wikidata": "Q5158304"}, "geometry": {"type": "Point", "coordinates": [-94.505422, 39.131004]}},
{"type": "Feature", "id": "yb9BFUSyuu2Z9ojq-c9CTcPq8Cc=", "properties": {"ref": "c486fff4-9964-4488-adba-5d7e5ed87471", "@spider": "concentra", "addr:full": "12220A South Blue Ridge Blvd.", "addr:city": "Grandview", "addr:state": "\r\n    MO", "addr:postcode": "64030", "name": "Grandview", "phone": "\r\n                  ", "website": "https://www.concentra.com/urgent-care-centers/missouri/kansas-city/grandview-urgent-care/", "brand": "Concentra", "brand:wikidata": "Q5158304"}, "geometry": {"type": "Point", "coordinates": [-94.532196, 38.903107]}},
{"type": "Feature", "id": "FhA98FYjo3aq3F1Srh4s3MzgkEs=", "properties": {"ref": "1ab7df0f-9d5c-4855-911c-9e889861fc66", "@spider": "concentra", "addr:full": "19000 E. Eastland Ctr Ct", "addr:city": "Independence", "addr:state": "\r\n    MO", "addr:postcode": "64055", "name": "Independence", "phone": "\r\n                  ", "website": "https://www.concentra.com/urgent-care-centers/missouri/kansas-city/independence-urgent-care/", "brand": "Concentra", "brand:wikidata": "Q5158304"}, "geometry": {"type": "Point", "coordinates": [-94.35506, 39.03478]}},
{"type": "Feature", "id": "_fje7m8i7mVioHcQq2ZQhN_dy_E=", "properties": {"ref": "e49c5597-8ddf-4540-9643-6f438df03d73", "@spider": "concentra", "addr:full": "5682 W Skelly Dr", "addr:city": "Town West", "addr:state": "\r\n    OK", "addr:postcode": "74107", "name": "Town West", "phone": "\r\n                  ", "website": "https://www.concentra.com/urgent-care-centers/oklahoma/tulsa/town-west-urgent-care/", "brand": "Concentra", "brand:wikidata": "Q5158304"}, "geometry": {"type": "Point", "coordinates": [-96.04728, 36.08117]}},
{"type": "Feature", "id": "DrzFh-t_OnxWBeqVNQu-ppmJ5dM=", "properties": {"ref": "9735d97b-c9cb-478b-a913-09259ac28758", "@spider": "concentra", "addr:full": "1541 N Sheridan Rd", "addr:city": "North Sheridan", "addr:state": "\r\n    OK", "addr:postcode": "74115", "name": "North Sheridan", "phone": "\r\n                  ", "website": "https://www.concentra.com/urgent-care-centers/oklahoma/tulsa/north-sheridan-urgent-care/", "brand": "Concentra", "brand:wikidata": "Q5158304"}, "geometry": {"type": "Point", "coordinates": [-95.90455, 36.17785]}},
{"type": "Feature", "id": "um_iD14A_jaqtT1CGokePMsNwB0=", "properties": {"ref": "ef3728b2-a429-469b-9143-45574728bdc9", "@spider": "concentra", "addr:full": "6732 E. 41 St", "addr:city": "Tulsa E. 41st St.", "addr:state": "\r\n    OK", "addr:postcode": "74145", "name": "Tulsa E. 41st St.", "phone": "\r\n                  ", "website": "https://www.concentra.com/urgent-care-centers/oklahoma/tulsa/tulsa-e-41st-st-urgent-care/", "brand": "Concentra", "brand:wikidata": "Q5158304"}, "geometry": {"type": "Point", "coordinates": [-95.90172689999999, 36.1040002]}},
{"type": "Feature", "id": "VgpkVURxfTMzz81c_x31z_bFFlA=", "properties": {"ref": "21736eae-79eb-4dac-918e-fba6053224e0", "@spider": "concentra", "addr:full": "9515 E 51st Street", "addr:city": "South Mingo", "addr:state": "\r\n    OK", "addr:postcode": "74145", "name": "South Mingo", "phone": "\r\n                  ", "website": "https://www.concentra.com/urgent-care-centers/oklahoma/tulsa/south-mingo-urgent-care/", "brand": "Concentra", "brand:wikidata": "Q5158304"}, "geometry": {"type": "Point", "coordinates": [-95.8707, 36.08995]}},
{"type": "Feature", "id": "Jjl13QsR5vvXSURx8GIsROeGra0=", "properties": {"ref": "9cb1b700-e182-46d7-bce6-b517e7325359", "@spider": "concentra", "addr:full": "4060 Sandshell Dr", "addr:city": "Fort Worth Fossil Creek", "addr:state": "\r\n    TX", "addr:postcode": "76137", "name": "Fort Worth Fossil Creek", "phone": "\r\n                  ", "website": "https://www.concentra.com/urgent-care-centers/texas/fort-worth/fort-worth-fossil-creek-urgent-care/", "brand": "Concentra", "brand:wikidata": "Q5158304"}, "geometry": {"type": "Point", "coordinates": [-97.29942, 32.84091]}},
{"type": "Feature", "id": "FOOLWuBiw-DFkcK_fmv-tHuQhjU=", "properties": {"ref": "c3e89da6-10af-425d-9223-ad2a527e1407", "@spider": "concentra", "addr:full": "2500 West Freeway (I30)", "addr:city": "Fort Worth Forest Park", "addr:state": "\r\n    TX", "addr:postcode": "76102", "name": "Fort Worth Forest Park", "phone": "\r\n                  ", "website": "https://www.concentra.com/urgent-care-centers/texas/fort-worth/fort-worth-forest-park-urgent-care/", "brand": "Concentra", "brand:wikidata": "Q5158304"}, "geometry": {"type": "Point", "coordinates": [-97.354589, 32.7386]}},
{"type": "Feature", "id": "VRgQfSErUEZ3S_sCTKn3LSBNktQ=", "properties": {"ref": "20d6f230-5a00-4e4d-9b6d-9232c6f62627", "@spider": "concentra", "addr:full": "8756 Teel Parkway, Suite 350", "addr:city": "Frisco", "addr:state": "\r\n    TX", "addr:postcode": "75034", "name": "Frisco", "phone": "\r\n                  ", "website": "https://www.concentra.com/urgent-care-centers/texas/dallas/frisco-urgent-care/", "brand": "Concentra", "brand:wikidata": "Q5158304"}, "geometry": {"type": "Point", "coordinates": [-96.863, 33.15057]}},
{"type": "Feature", "id": "Y6QRB3hPN5GfxcRa3QuNHyb_190=", "properties": {"ref": "8cbaa0ec-ba52-4fbe-b959-c9ef965ceb64", "@spider": "concentra", "addr:full": "2403 S. Stemmons Fwy", "addr:city": "Lewisville", "addr:state": "\r\n    TX", "addr:postcode": "75067", "name": "Lewisville", "phone": "\r\n                  ", "website": "https://www.concentra.com/urgent-care-centers/texas/dallas/lewisville-urgent-care/", "brand": "Concentra", "brand:wikidata": "Q5158304"}, "geometry": {"type": "Point", "coordinates": [-96.97258, 33.0056]}},
{"type": "Feature", "id": "nNxb1Er_3cQSocegRTuV5GgAPSo=", "properties": {"ref": "7cc6fc9e-a313-4fda-b821-1610cf0d4b7b", "@spider": "concentra", "addr:full": "811 NE Alsbury Blvd", "addr:city": "Burleson", "addr:state": "\r\n    TX", "addr:postcode": "76028", "name": "Burleson", "phone": "\r\n                  ", "website": "https://www.concentra.com/urgent-care-centers/texas/fort-worth/burleson-urgent-care/", "brand": "Concentra", "brand:wikidata": "Q5158304"}, "geometry": {"type": "Point", "coordinates": [-97.322487, 32.564274]}},
{"type": "Feature", "id": "32FTAiXIdEXzi_XMumfO5nb759s=", "properties": {"ref": "e4ae8bbb-f2f5-4ace-8e2d-3bcf2ff38036", "@spider": "concentra", "addr:full": "5910 N. MacArthur Blvd.", "addr:city": "Las Colinas", "addr:state": "\r\n    TX", "addr:postcode": "75039", "name": "Las Colinas", "phone": "\r\n                  ", "website": "https://www.concentra.com/urgent-care-centers/texas/dallas/las-colinas-urgent-care/", "brand": "Concentra", "brand:wikidata": "Q5158304"}, "geometry": {"type": "Point", "coordinates": [-96.96032, 32.89253]}},
{"type": "Feature", "id": "hC4jIMp3lJe_mlR1l5L5hX6JUSM=", "properties": {"ref": "1ac71d75-71aa-47a0-a38c-effaff47eaf7", "@spider": "concentra", "addr:full": "1345 Valwood Pkwy", "addr:city": "Carrollton", "addr:state": "\r\n    TX", "addr:postcode": "75006", "name": "Carrollton", "phone": "\r\n                  ", "website": "https://www.concentra.com/urgent-care-centers/texas/dallas/carrollton-urgent-care/", "brand": "Concentra", "brand:wikidata": "Q5158304"}, "geometry": {"type": "Point", "coordinates": [-96.91505, 32.9384]}},
{"type": "Feature", "id": "1Xkyf4wvSVEAlNCBmjSrOTjruY0=", "properties": {"ref": "64ef98f7-3bc9-4255-a25c-686e1f6f2af0", "@spider": "concentra", "addr:full": "2160 E. Lamar Blvd.", "addr:city": "Arlington North", "addr:state": "\r\n    TX", "addr:postcode": "76006", "name": "Arlington North", "phone": "\r\n                  ", "website": "https://www.concentra.com/urgent-care-centers/texas/fort-worth/arlington-north-urgent-care/", "brand": "Concentra", "brand:wikidata": "Q5158304"}, "geometry": {"type": "Point", "coordinates": [-97.073769, 32.760811]}},
{"type": "Feature", "id": "ldoQOWfE2vCVqaKfp1MMw524iPM=", "properties": {"ref": "bb3de9e9-3d58-4849-b616-4b1eda513399", "@spider": "concentra", "addr:full": "15810 Midway Rd", "addr:city": "Addison - DFW", "addr:state": "\r\n    TX", "addr:postcode": "75001", "name": "Addison - DFW", "phone": "\r\n                  ", "website": "https://www.concentra.com/urgent-care-centers/texas/dallas/addison-dfw-urgent-care/", "brand": "Concentra", "brand:wikidata": "Q5158304"}, "geometry": {"type": "Point", "coordinates": [-96.83854, 32.96538]}},
{"type": "Feature", "id": "2VIN7dW68ucjZDyMYoa7V978JgM=", "properties": {"ref": "522a0c3c-b988-484b-a875-568a4fb2ecba", "@spider": "concentra", "addr:full": "511 E. I-20", "addr:city": "Arlington South", "addr:state": "\r\n    TX", "addr:postcode": "76018", "name": "Arlington South", "phone": "\r\n                  ", "website": "https://www.concentra.com/urgent-care-centers/texas/dallas/arlington-south-urgent-care/", "brand": "Concentra", "brand:wikidata": "Q5158304"}, "geometry": {"type": "Point", "coordinates": [-97.101013, 32.67878]}},
{"type": "Feature", "id": "fdjT2YYBAZJMcU1VMVT5Esah4KY=", "properties": {"ref": "d004f332-8d60-4506-9372-9bab33c2f533", "@spider": "concentra", "addr:full": "1300 N. Central Expressway", "addr:city": "Plano", "addr:state": "\r\n    TX", "addr:postcode": "75074", "name": "Plano", "phone": "\r\n                  ", "website": "https://www.concentra.com/urgent-care-centers/texas/dallas/plano-urgent-care/", "brand": "Concentra", "brand:wikidata": "Q5158304"}, "geometry": {"type": "Point", "coordinates": [-96.70782, 33.01739]}},
{"type": "Feature", "id": "bAdy2UO0AZa3kcWY1c5c0hSk2aU=", "properties": {"ref": "89e7b217-d22a-4cf4-bfc9-83feaa2039ce", "@spider": "concentra", "addr:full": "1450 Empire Central", "addr:city": "Empire Central", "addr:state": "\r\n    TX", "addr:postcode": "75247-4027", "name": "Empire Central", "phone": "\r\n                  ", "website": "https://www.concentra.com/urgent-care-centers/texas/dallas/empire-central-urgent-care/", "brand": "Concentra", "brand:wikidata": "Q5158304"}, "geometry": {"type": "Point", "coordinates": [-96.865993, 32.825589]}},
{"type": "Feature", "id": "YmLoJM7LyAEMjrFYq8BYH2OgHW4=", "properties": {"ref": "23382b61-0e5c-4845-96e8-dc4fc5111ff6", "@spider": "concentra", "addr:full": "2920 N. Stemmons Fwy.", "addr:city": "Stemmons", "addr:state": "\r\n    TX", "addr:postcode": "75247", "name": "Stemmons", "phone": "\r\n                  ", "website": "https://www.concentra.com/urgent-care-centers/texas/dallas/stemmons-urgent-care/", "brand": "Concentra", "brand:wikidata": "Q5158304"}, "geometry": {"type": "Point", "coordinates": [-96.85134, 32.81227]}},
{"type": "Feature", "id": "gFPvM6EW75F1BAbxFWzNvxnIkw8=", "properties": {"ref": "e3114394-0ef1-4265-8f62-04da7ed951e9", "@spider": "concentra", "addr:full": "5601 Greenville Ave.", "addr:city": "Upper Greenville", "addr:state": "\r\n    TX", "addr:postcode": "75206", "name": "Upper Greenville", "phone": "\r\n                  ", "website": "https://www.concentra.com/urgent-care-centers/texas/dallas/upper-greenville-urgent-care/", "brand": "Concentra", "brand:wikidata": "Q5158304"}, "geometry": {"type": "Point", "coordinates": [-96.76968, 32.85391]}},
{"type": "Feature", "id": "9KsriTBagkeI38pJjKEzEoPylpY=", "properties": {"ref": "a5973a09-7f8b-471f-b0f3-303cfa968401", "@spider": "concentra", "addr:full": "1621 S Jupiter Rd", "addr:city": "Garland", "addr:state": "\r\n    TX", "addr:postcode": "75042", "name": "Garland", "phone": "\r\n                  ", "website": "https://www.concentra.com/urgent-care-centers/texas/dallas/garland-urgent-care/", "brand": "Concentra", "brand:wikidata": "Q5158304"}, "geometry": {"type": "Point", "coordinates": [-96.68308, 32.89788]}},
{"type": "Feature", "id": "UvlNtgNmh7daaAVyzjTQdIuy2D4=", "properties": {"ref": "fb58b3f5-ebf3-4c6f-b7d1-3266845ca0ea", "@spider": "concentra", "addr:full": "5520 Westmoreland", "addr:city": "Redbird", "addr:state": "\r\n    TX", "addr:postcode": "75237", "name": "Redbird", "phone": "\r\n                  ", "website": "https://www.concentra.com/urgent-care-centers/texas/dallas/redbird-urgent-care/", "brand": "Concentra", "brand:wikidata": "Q5158304"}, "geometry": {"type": "Point", "coordinates": [-96.88272, 32.67905]}},
{"type": "Feature", "id": "QIWCyqDAReLgBduwC3p76qYr98g=", "properties": {"ref": "c17ffc1d-e6c8-4e22-8a01-8331730d649c", "@spider": "concentra", "addr:full": "3540 East 46th Street", "addr:city": "Davenport", "addr:state": "\r\n    IA", "addr:postcode": "52807", "name": "Davenport", "phone": "\r\n                  ", "website": "https://www.concentra.com/urgent-care-centers/iowa/quad-citites/davenport-urgent-care/", "brand": "Concentra", "brand:wikidata": "Q5158304"}, "geometry": {"type": "Point", "coordinates": [-90.51968, 41.56752]}},
{"type": "Feature", "id": "pLa91-7g2kBCMemm3b-krSS4ULY=", "properties": {"ref": "a1ee23b8-44ab-4ae6-b4c2-1b73d7f96548", "@spider": "concentra", "addr:full": "4928 Samuell Blvd.", "addr:city": "Mesquite", "addr:state": "\r\n    TX", "addr:postcode": "75149", "name": "Mesquite", "phone": "\r\n                  ", "website": "https://www.concentra.com/urgent-care-centers/texas/dallas/mesquite-urgent-care/", "brand": "Concentra", "brand:wikidata": "Q5158304"}, "geometry": {"type": "Point", "coordinates": [-96.672663, 32.791881]}},
{"type": "Feature", "id": "fMknrjcQyeGutzyrJmA3EOnDF0k=", "properties": {"ref": "0944f803-13df-462d-9426-312087fa3abb", "@spider": "concentra", "addr:full": "555 Valley View Drive", "addr:city": "Moline", "addr:state": "\r\n    IL", "addr:postcode": "61265", "name": "Moline", "phone": "\r\n                  ", "website": "https://www.concentra.com/urgent-care-centers/illinois/quad-citites/moline-urgent-care/", "brand": "Concentra", "brand:wikidata": "Q5158304"}, "geometry": {"type": "Point", "coordinates": [-90.53141, 41.47188]}},
{"type": "Feature", "id": "G_gTDWCw0YaH8oGRBopQCxHsuSE=", "properties": {"ref": "593e0e71-8860-44ef-bfcc-f9426d1df672", "@spider": "concentra", "addr:full": "358 Junction Rd", "addr:city": "Madison West", "addr:state": "\r\n    WI", "addr:postcode": "53717", "name": "Madison West", "phone": "\r\n                  ", "website": "https://www.concentra.com/urgent-care-centers/wisconsin/madison/madison-west-urgent-care/", "brand": "Concentra", "brand:wikidata": "Q5158304"}, "geometry": {"type": "Point", "coordinates": [-89.52414, 43.06757]}},
{"type": "Feature", "id": "nvJPGVgMlgfqHuILi2iOv50Zdcw=", "properties": {"ref": "2056ebc9-af19-42e9-8028-3ce28f3eda4c", "@spider": "concentra", "addr:full": "4260 East Towne Boulevard", "addr:city": "Madison East", "addr:state": "\r\n    WI", "addr:postcode": "53704-3704", "name": "Madison East", "phone": "\r\n                  ", "website": "https://www.concentra.com/urgent-care-centers/wisconsin/madison/madison-east-urgent-care/", "brand": "Concentra", "brand:wikidata": "Q5158304"}, "geometry": {"type": "Point", "coordinates": [-89.31034, 43.12526]}},
{"type": "Feature", "id": "0b-S4nrtQ69tjB-wmvKd9BpApjs=", "properties": {"ref": "d65c0ad4-0459-4605-bd0e-c07b39a0ea26", "@spider": "concentra", "addr:full": "4205 Franklin Ave", "addr:city": "Waco", "addr:state": "\r\n    TX", "addr:postcode": "76710", "name": "Waco", "phone": "\r\n                  ", "website": "https://www.concentra.com/urgent-care-centers/texas/waco/waco-urgent-care/", "brand": "Concentra", "brand:wikidata": "Q5158304"}, "geometry": {"type": "Point", "coordinates": [-97.16385, 31.52607]}},
{"type": "Feature", "id": "hk52_qbexKf7FFbgTtmHv8EJpRA=", "properties": {"ref": "34e1fea9-7029-49d8-9100-886aae6f7b51", "@spider": "concentra", "addr:full": "13831 U.S. Hwy 183 N", "addr:city": "Lakeline", "addr:state": "\r\n    TX", "addr:postcode": "78750", "name": "Lakeline", "phone": "\r\n                  ", "website": "https://www.concentra.com/urgent-care-centers/texas/austin/lakeline-urgent-care/", "brand": "Concentra", "brand:wikidata": "Q5158304"}, "geometry": {"type": "Point", "coordinates": [-97.794622, 30.466486]}},
{"type": "Feature", "id": "bT96I_XiLFXfzar55qTp6Ex0AD0=", "properties": {"ref": "86735a5c-de89-4980-8f06-fa7f33244abf", "@spider": "concentra", "addr:full": "117-B Louis Henna Blvd.", "addr:city": "Round Rock", "addr:state": "\r\n    TX", "addr:postcode": "78664", "name": "Round Rock", "phone": "\r\n                  ", "website": "https://www.concentra.com/urgent-care-centers/texas/austin/round-rock-urgent-care/", "brand": "Concentra", "brand:wikidata": "Q5158304"}, "geometry": {"type": "Point", "coordinates": [-97.67178, 30.47997]}},
{"type": "Feature", "id": "GtoyUSMDOPNc-FNGl1IowyjcQ0o=", "properties": {"ref": "228ca391-7465-4430-aa2d-869c1436e7dd", "@spider": "concentra", "addr:full": "9333 Research Blvd.", "addr:city": "Austin Arboretum Crossing ", "addr:state": "\r\n    TX", "addr:postcode": "78759", "name": "Austin Arboretum Crossing ", "phone": "\r\n                  ", "website": "https://www.concentra.com/urgent-care-centers/texas/austin/austin-arboretum-crossing-urgent-care/", "brand": "Concentra", "brand:wikidata": "Q5158304"}, "geometry": {"type": "Point", "coordinates": [-97.7412977533, 30.3849611987]}},
{"type": "Feature", "id": "xkj8bdqBOI3TthT8IPpdLHm0jBU=", "properties": {"ref": "b37dc701-54d2-49a8-987c-d7cd8549b754", "@spider": "concentra", "addr:full": "2000 W. Anderson Lane", "addr:city": "Anderson Lane", "addr:state": "\r\n    TX", "addr:postcode": "78757", "name": "Anderson Lane", "phone": "\r\n                  ", "website": "https://www.concentra.com/urgent-care-centers/texas/austin/anderson-lane-urgent-care/", "brand": "Concentra", "brand:wikidata": "Q5158304"}, "geometry": {"type": "Point", "coordinates": [-97.726578, 30.354832]}},
{"type": "Feature", "id": "x7Ljav_e5GB_u62nvpBxE6LN5oQ=", "properties": {"ref": "fcc5c233-775d-4f56-9bf1-1ece0c9b2a66", "@spider": "concentra", "addr:full": "12651 Vance Jackson", "addr:city": "Fiesta Trails", "addr:state": "\r\n    TX", "addr:postcode": "78230", "name": "Fiesta Trails", "phone": "\r\n                  ", "website": "https://www.concentra.com/urgent-care-centers/texas/san-antonio/fiesta-trails-urgent-care/", "brand": "Concentra", "brand:wikidata": "Q5158304"}, "geometry": {"type": "Point", "coordinates": [-98.58624, 29.56289]}},
{"type": "Feature", "id": "-698lfNQrprgVYYkHVJdBdfU0mI=", "properties": {"ref": "99a35fa4-9f90-4ae3-853a-cb13763c4539", "@spider": "concentra", "addr:full": "3801 S. Lamar Blvd.", "addr:city": "South Lamar", "addr:state": "\r\n    TX", "addr:postcode": "78704", "name": "South Lamar", "phone": "\r\n                  ", "website": "https://www.concentra.com/urgent-care-centers/texas/austin/south-lamar-urgent-care/", "brand": "Concentra", "brand:wikidata": "Q5158304"}, "geometry": {"type": "Point", "coordinates": [-97.789093, 30.237994]}},
{"type": "Feature", "id": "_8o8_RVbjFL7V7Gfvzdq9PdEgb0=", "properties": {"ref": "80787bda-8c0a-4a99-bdfa-eb4d62988a98", "@spider": "concentra", "addr:full": "1794 Zumbehl Road", "addr:city": "St. Charles", "addr:state": "\r\n    MO", "addr:postcode": "63303", "name": "St. Charles", "phone": "\r\n                  ", "website": "https://www.concentra.com/urgent-care-centers/missouri/st-louis/st-charles-urgent-care/", "brand": "Concentra", "brand:wikidata": "Q5158304"}, "geometry": {"type": "Point", "coordinates": [-90.52435, 38.77972]}},
{"type": "Feature", "id": "r8TlTULgB8Q6YW_iLdRD7C2f_vQ=", "properties": {"ref": "42c141e8-0257-4c87-87ff-140d66e0fb8a", "@spider": "concentra", "addr:full": "7555 NW Loop 410", "addr:city": "San Antonio West Loop 410", "addr:state": "\r\n    TX", "addr:postcode": "78245", "name": "San Antonio West Loop 410", "phone": "\r\n                  ", "website": "https://www.concentra.com/urgent-care-centers/texas/san-antonio/san-antonio-west-loop-410-urgent-care/", "brand": "Concentra", "brand:wikidata": "Q5158304"}, "geometry": {"type": "Point", "coordinates": [-98.63962, 29.44402]}},
{"type": "Feature", "id": "e4QrlOnEaTu2FaO4EhL2-FrYK_Y=", "properties": {"ref": "79647e71-d105-48d1-aa54-d8da5d68ae33", "@spider": "concentra", "addr:full": "10001 South IH-35", "addr:city": "Austin IH-35 South", "addr:state": "\r\n    TX", "addr:postcode": "78747", "name": "Austin IH-35 South", "phone": "\r\n                  ", "website": "https://www.concentra.com/urgent-care-centers/texas/austin/austin-ih-35-south-urgent-care/", "brand": "Concentra", "brand:wikidata": "Q5158304"}, "geometry": {"type": "Point", "coordinates": [-97.7895122454, 30.1568869485]}},
{"type": "Feature", "id": "Wn_rGAHqhzEbhChJs0A3KUfy5W8=", "properties": {"ref": "46564032-64e0-4145-a842-1e88c9ccfda5", "@spider": "concentra", "addr:full": "10200 Broadway Street", "addr:city": "Airport San Antonio", "addr:state": "\r\n    TX", "addr:postcode": "78217", "name": "Airport San Antonio", "phone": "\r\n                  ", "website": "https://www.concentra.com/urgent-care-centers/texas/san-antonio/airport-san-antonio-urgent-care/", "brand": "Concentra", "brand:wikidata": "Q5158304"}, "geometry": {"type": "Point", "coordinates": [-98.44802, 29.53308]}},
{"type": "Feature", "id": "LO_oZltuF_Uj8QohtqF-7W_dYZw=", "properties": {"ref": "c8b05565-e5d8-42d5-895b-a8f26343caa7", "@spider": "concentra", "addr:full": "83 Progress Parkway", "addr:city": "Westport", "addr:state": "\r\n    MO", "addr:postcode": "63043", "name": "Westport", "phone": "\r\n                  ", "website": "https://www.concentra.com/urgent-care-centers/missouri/st-louis/westport-urgent-care/", "brand": "Concentra", "brand:wikidata": "Q5158304"}, "geometry": {"type": "Point", "coordinates": [-90.44743, 38.70604]}},
{"type": "Feature", "id": "6KDoKMu7HyUQXcm6tt8t8ULI3Cw=", "properties": {"ref": "10bf862c-bdb6-4263-9029-70a88212b17d", "@spider": "concentra", "addr:full": "400 E Quincy", "addr:city": "Downtown San Antonio", "addr:state": "\r\n    TX", "addr:postcode": "78215", "name": "Downtown San Antonio", "phone": "\r\n                  ", "website": "https://www.concentra.com/urgent-care-centers/texas/san-antonio/downtown-san-antonio-urgent-care/", "brand": "Concentra", "brand:wikidata": "Q5158304"}, "geometry": {"type": "Point", "coordinates": [-98.49102, 29.4365]}},
{"type": "Feature", "id": "a63QRIstA1Ruuft8uCmrOSreCV0=", "properties": {"ref": "6501796c-7c37-40a9-b0eb-d42007beb073", "@spider": "concentra", "addr:full": "12702 Toepperwein", "addr:city": "San Antonio Toepperwein", "addr:state": "\r\n    TX", "addr:postcode": "78233", "name": "San Antonio Toepperwein", "phone": "\r\n                  ", "website": "https://www.concentra.com/urgent-care-centers/texas/san-antonio/san-antonio-toepperwein-urgent-care/", "brand": "Concentra", "brand:wikidata": "Q5158304"}, "geometry": {"type": "Point", "coordinates": [-98.34715, 29.55346]}},
{"type": "Feature", "id": "OxpSuCmOL7OvsCnmoteHukF2JEA=", "properties": {"ref": "a4b1ac72-dbc1-4e7e-9475-406b4f9d85ba", "@spider": "concentra", "addr:full": "S30W24896 W. Sunset Dr", "addr:city": "Waukesha", "addr:state": "\r\n    WI", "addr:postcode": "53189", "name": "Waukesha", "phone": "\r\n                  ", "website": "https://www.concentra.com/urgent-care-centers/wisconsin/milwaukee/waukesha-urgent-care/", "brand": "Concentra", "brand:wikidata": "Q5158304"}, "geometry": {"type": "Point", "coordinates": [-88.24592, 42.98869]}},
{"type": "Feature", "id": "6rHZIgx4ojHQwJReVK7PevIhpN0=", "properties": {"ref": "c77bc84e-6937-40d2-a077-e29caeccd863", "@spider": "concentra", "addr:full": "463 Lynn Haven", "addr:city": "Hazelwood", "addr:state": "\r\n    MO", "addr:postcode": "63042", "name": "Hazelwood", "phone": "\r\n                  ", "website": "https://www.concentra.com/urgent-care-centers/missouri/st-louis/hazelwood-urgent-care/", "brand": "Concentra", "brand:wikidata": "Q5158304"}, "geometry": {"type": "Point", "coordinates": [-90.35904, 38.78302]}}]}