{"type":"FeatureCollection","features":[{"type": "Feature", "id": "mWPN3Gkzg4aluHHR_YH9uDnvkf4=", "properties": {"ref": "472", "@spider": "cookout", "amenity": "fast_food", "cuisine": "american", "takeaway": "yes", "addr:full": "416 25th St", "addr:city": "Huntington", "addr:state": "WV", "addr:postcode": "25703", "addr:country": "US", "name": "Huntington", "website": "https://www.facebook.com/Cook-Out-Huntington-WV-831133010281109/", "opening_hours": "Mo-Th 10:30-03:30; Fr-Sa 10:30-04:30; Su 10:30-03:30", "brand": "Cookout", "brand:wikidata": "Q5166992", "nsi_id": "cookout-4d2ff4"}, "geometry": {"type": "Point", "coordinates": [-82.412507, 38.425868]}},
{"type": "Feature", "id": "_CZcDTXXKYWgt9-XPh18zPbep6w=", "properties": {"ref": "3040", "@spider": "cookout", "amenity": "fast_food", "cuisine": "american", "takeaway": "yes", "addr:full": "131 GOFF MOUNTAIN RD", "addr:city": "CROSS LANES", "addr:state": "WV", "addr:postcode": "25313", "addr:country": "US", "name": "Cross Lanes", "opening_hours": "Mo-Th 10:30-03:00; Fr-Sa 10:30-04:00; Su 10:30-03:00", "brand": "Cookout", "brand:wikidata": "Q5166992", "nsi_id": "cookout-4d2ff4"}, "geometry": {"type": "Point", "coordinates": [-81.793162, 38.41741]}},
{"type": "Feature", "id": "PByYfxmK8Go1bcdTnOq6FgIgStc=", "properties": {"ref": "1765", "@spider": "cookout", "amenity": "fast_food", "cuisine": "american", "takeaway": "yes", "addr:full": "275 Stone St.", "addr:city": "Morehead", "addr:state": "KY", "addr:postcode": "40351", "addr:country": "US", "name": "Morehead", "opening_hours": "Mo-Th 10:30-02:00; Fr-Sa 10:30-03:30; Su 10:30-02:00", "brand": "Cookout", "brand:wikidata": "Q5166992", "nsi_id": "cookout-4d2ff4"}, "geometry": {"type": "Point", "coordinates": [-83.435884, 38.175017]}},
{"type": "Feature", "id": "UBM59X2NeQpEPmpH6MkhqDXQRDE=", "properties": {"ref": "3049", "@spider": "cookout", "amenity": "fast_food", "cuisine": "american", "takeaway": "yes", "addr:full": "5505 MacCorkle Ave SE", "addr:city": "Charleston", "addr:state": "WV", "addr:postcode": "25304", "addr:country": "US", "name": "Charleston", "opening_hours": "Mo-Th 10:30-03:00; Fr-Sa 10:30-04:00; Su 10:30-03:00", "brand": "Cookout", "brand:wikidata": "Q5166992", "nsi_id": "cookout-4d2ff4"}, "geometry": {"type": "Point", "coordinates": [-81.570889, 38.314852]}},
{"type": "Feature", "id": "msiNAgtf9-xoEozWB5xZoKhKn2A=", "properties": {"ref": "3099", "@spider": "cookout", "amenity": "fast_food", "cuisine": "american", "takeaway": "yes", "addr:full": "100 HOSPITAL DR", "addr:city": "WINCHESTER", "addr:state": "KY", "addr:postcode": "40391", "addr:country": "US", "name": "WINCHESTER", "opening_hours": "Mo-Th 10:30-01:00; Fr-Sa 10:30-03:00; Su 10:30-01:00", "brand": "Cookout", "brand:wikidata": "Q5166992", "nsi_id": "cookout-4d2ff4"}, "geometry": {"type": "Point", "coordinates": [-84.214499, 38.009267]}},
{"type": "Feature", "id": "rjiXBj3IOB-yn6kbEgtHzOs6hUU=", "properties": {"ref": "400", "@spider": "cookout", "amenity": "fast_food", "cuisine": "american", "takeaway": "yes", "addr:full": "855 S Broadway", "addr:city": "Lexington", "addr:state": "KY", "addr:postcode": "40504", "addr:country": "US", "name": "Lexington", "website": "https://www.facebook.com/Cook-Out-Lexington-KY-1519432145016339/", "opening_hours": "Mo-Th 10:30-04:00; Fr-Sa 10:30-05:00; Su 10:30-04:00", "brand": "Cookout", "brand:wikidata": "Q5166992", "nsi_id": "cookout-4d2ff4"}, "geometry": {"type": "Point", "coordinates": [-84.513665, 38.040443]}},
{"type": "Feature", "id": "CJI0sy2znvy2zdsN8u706OkWJl8=", "properties": {"ref": "1755", "@spider": "cookout", "amenity": "fast_food", "cuisine": "american", "takeaway": "yes", "addr:full": "1345 N Eisenhower Dr", "addr:city": "Beckley", "addr:state": "WV", "addr:postcode": "25801", "addr:country": "US", "name": "Beckley", "opening_hours": "Mo-Th 10:30-02:00; Fr-Sa 10:30-03:30; Su 10:30-02:00", "brand": "Cookout", "brand:wikidata": "Q5166992", "nsi_id": "cookout-4d2ff4"}, "geometry": {"type": "Point", "coordinates": [-81.181404, 37.802609]}},
{"type": "Feature", "id": "2sWyCw2YvYVgvKGkiQGnbw3JZrk=", "properties": {"ref": "470", "@spider": "cookout", "amenity": "fast_food", "cuisine": "american", "takeaway": "yes", "addr:full": "1234 US Highway 127 S", "addr:city": "Frankfort", "addr:state": "KY", "addr:postcode": "40601", "addr:country": "US", "name": "Frankfort", "website": "https://www.facebook.com/Cook-Out-Frankfort-KY-394359087386569/", "opening_hours": "Mo-Th 10:30-02:00; Fr-Sa 10:30-03:30; Su 10:30-02:00", "brand": "Cookout", "brand:wikidata": "Q5166992", "nsi_id": "cookout-4d2ff4"}, "geometry": {"type": "Point", "coordinates": [-84.86053, 38.217203]}},
{"type": "Feature", "id": "loR2HnlP-wfyJzqVZ0cYrkR36-I=", "properties": {"ref": "1763", "@spider": "cookout", "amenity": "fast_food", "cuisine": "american", "takeaway": "yes", "addr:full": "120 Eastern Bypass", "addr:city": "Richmond", "addr:state": "KY", "addr:postcode": "40475", "addr:country": "US", "name": "Richmond", "opening_hours": "Mo-Th 10:30-03:30; Fr-Sa 10:30-04:30; Su 10:30-03:30", "brand": "Cookout", "brand:wikidata": "Q5166992", "nsi_id": "cookout-4d2ff4"}, "geometry": {"type": "Point", "coordinates": [-84.320286, 37.735818]}},
{"type": "Feature", "id": "xIf51UGBF-7jaKS2OWuGI2ROGXw=", "properties": {"ref": "3151", "@spider": "cookout", "amenity": "fast_food", "cuisine": "american", "takeaway": "yes", "addr:full": "2561 S Hwy 27", "addr:city": "Somerset", "addr:state": "KY", "addr:postcode": "42501", "addr:country": "US", "name": "SOMERSET", "opening_hours": "Mo-Th 10:30-03:00; Fr-Sa 10:30-04:00; Su 10:30-03:00", "brand": "Cookout", "brand:wikidata": "Q5166992", "nsi_id": "cookout-4d2ff4"}, "geometry": {"type": "Point", "coordinates": [-84.623565, 37.057846]}},
{"type": "Feature", "id": "00ZGsHC8DQ-oK1i9vd31qWydrT8=", "properties": {"ref": "429", "@spider": "cookout", "amenity": "fast_food", "cuisine": "american", "takeaway": "yes", "addr:full": "3128 Lee Hwy", "addr:city": "Bristol", "addr:state": "VA", "addr:postcode": "24202", "addr:country": "US", "name": "Bristol", "website": "https://www.facebook.com/Cook-Out-Bristol-495174133892388/", "opening_hours": "Mo-We 10:30-02:00; Th-Sa 10:30-03:00; Su 10:30-02:00", "brand": "Cookout", "brand:wikidata": "Q5166992", "nsi_id": "cookout-4d2ff4"}, "geometry": {"type": "Point", "coordinates": [-82.126569, 36.632752]}},
{"type": "Feature", "id": "IZ6oRH-V2gmoAQmkjFc1dMcJZ5E=", "properties": {"ref": "437", "@spider": "cookout", "amenity": "fast_food", "cuisine": "american", "takeaway": "yes", "addr:full": "7400 Lee Hwy", "addr:city": "Radford", "addr:state": "VA", "addr:postcode": "24141", "addr:country": "US", "name": "Radford", "website": "https://www.facebook.com/Cook-Out-Radford-351415481550569/", "opening_hours": "Mo-Th 10:30-03:00; Fr-Sa 10:30-04:00; Su 10:30-03:00", "brand": "Cookout", "brand:wikidata": "Q5166992", "nsi_id": "cookout-4d2ff4"}, "geometry": {"type": "Point", "coordinates": [-80.583122, 37.144386]}},
{"type": "Feature", "id": "Fg7T7wlQHaFy-Qt9Kl6_3Ce7N5w=", "properties": {"ref": "407", "@spider": "cookout", "amenity": "fast_food", "cuisine": "american", "takeaway": "yes", "addr:full": "1600 E Stone Dr", "addr:city": "Kingsport", "addr:state": "TN", "addr:postcode": "37660", "addr:country": "US", "name": "Kingsport", "website": "https://www.facebook.com/Cookoutkpt/", "opening_hours": "Mo-Th 10:30-03:00; Fr-Sa 10:30-04:00; Su 10:30-03:00", "brand": "Cookout", "brand:wikidata": "Q5166992", "nsi_id": "cookout-4d2ff4"}, "geometry": {"type": "Point", "coordinates": [-82.519933, 36.549126]}},
{"type": "Feature", "id": "NVm_0nycEeshXKWyL8n8EpFABGM=", "properties": {"ref": "438", "@spider": "cookout", "amenity": "fast_food", "cuisine": "american", "takeaway": "yes", "addr:full": "1311 S Main St", "addr:city": "Blacksburg", "addr:state": "VA", "addr:postcode": "24060", "addr:country": "US", "name": "Blacksburg", "website": "https://www.facebook.com/Cook-Out-Blacksburg-164380223665045/", "opening_hours": "Mo-Th 10:30-03:30; Fr-Sa 10:30-04:30; Su 10:30-03:30", "brand": "Cookout", "brand:wikidata": "Q5166992", "nsi_id": "cookout-4d2ff4"}, "geometry": {"type": "Point", "coordinates": [-80.400701, 37.217002]}},
{"type": "Feature", "id": "cybpXhB5AKI_Z6EnJMpOsR7uewU=", "properties": {"ref": "3071", "@spider": "cookout", "amenity": "fast_food", "cuisine": "american", "takeaway": "yes", "addr:full": "510 KY-92", "addr:city": "Williamsburg", "addr:state": "KY", "addr:postcode": "40769", "addr:country": "US", "name": "Williamsburg", "opening_hours": "Mo-Th 10:30-03:00; Fr-Sa 10:30-04:00; Su 10:30-03:00", "brand": "Cookout", "brand:wikidata": "Q5166992", "nsi_id": "cookout-4d2ff4"}, "geometry": {"type": "Point", "coordinates": [-84.170076, 36.722234]}},
{"type": "Feature", "id": "52cf2hd3bpEsXexdLgtGors8kT8=", "properties": {"ref": "3006", "@spider": "cookout", "amenity": "fast_food", "cuisine": "american", "takeaway": "yes", "addr:full": "615 East Broadway St", "addr:city": "Campbellsville", "addr:state": "KY", "addr:postcode": "42718", "addr:country": "US", "name": "Campbellsville", "opening_hours": "Mo-Th 10:30-03:00; Fr-Sa 10:30-04:00; Su 10:30-03:00", "brand": "Cookout", "brand:wikidata": "Q5166992", "nsi_id": "cookout-4d2ff4"}, "geometry": {"type": "Point", "coordinates": [-85.339202, 37.345122]}},
{"type": "Feature", "id": "nuAs_ixrJr-vNCBICk3DjKvQqTc=", "properties": {"ref": "1927", "@spider": "cookout", "amenity": "fast_food", "cuisine": "american", "takeaway": "yes", "addr:full": "1423 Hershberger Rd NW", "addr:city": "Roanoke", "addr:state": "VA", "addr:postcode": "24012", "addr:country": "US", "name": "Roanoke", "website": "https://www.facebook.com/Cook-Out-Roanoke-VA-124394997896036/", "opening_hours": "Mo-Th 10:30-03:00; Fr-Sa 10:30-04:00; Su 10:30-03:00", "brand": "Cookout", "brand:wikidata": "Q5166992", "nsi_id": "cookout-4d2ff4"}, "geometry": {"type": "Point", "coordinates": [-79.958863, 37.315231]}},
{"type": "Feature", "id": "IgI1UpMHI8JzPRaBPGdUnbTtVQI=", "properties": {"ref": "2915", "@spider": "cookout", "amenity": "fast_food", "cuisine": "american", "takeaway": "yes", "addr:full": "509 W Elk Ave", "addr:city": "Elizabethton", "addr:state": "TN", "addr:postcode": "37643", "addr:country": "US", "name": "Elizabethton", "opening_hours": "Mo-Th 10:30-03:00; Fr-Sa 10:30-04:00; Su 10:30-03:00", "brand": "Cookout", "brand:wikidata": "Q5166992", "nsi_id": "cookout-4d2ff4"}, "geometry": {"type": "Point", "coordinates": [-82.235218, 36.351051]}},
{"type": "Feature", "id": "p9084qYzyt92dMA5gEHJHFw1Fjo=", "properties": {"ref": "3225", "@spider": "cookout", "amenity": "fast_food", "cuisine": "american", "takeaway": "yes", "addr:full": "1001 Jamestown St", "addr:city": "Columbia", "addr:state": "KY", "addr:postcode": "42728", "addr:country": "US", "name": "Columbia, KY", "opening_hours": "Mo-Th 10:30-03:00; Fr-Sa 10:30-04:00; Su 10:30-03:00", "brand": "Cookout", "brand:wikidata": "Q5166992", "nsi_id": "cookout-4d2ff4"}, "geometry": {"type": "Point", "coordinates": [-85.303665, 37.092129]}},
{"type": "Feature", "id": "4xehIupSX0nzMppSsq8VQNNMG3M=", "properties": {"ref": "443", "@spider": "cookout", "amenity": "fast_food", "cuisine": "american", "takeaway": "yes", "addr:full": "445 E Nelson St", "addr:city": "Lexington", "addr:state": "VA", "addr:postcode": "24450", "addr:country": "US", "name": "Lexington", "website": "https://www.facebook.com/Cook-Out-Lexington-VA-1023259587726169/", "opening_hours": "Mo-Th 10:30-01:00; Fr-Sa 10:30-03:00; Su 10:30-01:00", "brand": "Cookout", "brand:wikidata": "Q5166992", "nsi_id": "cookout-4d2ff4"}, "geometry": {"type": "Point", "coordinates": [-79.437642, 37.779668]}},
{"type": "Feature", "id": "EmGVnud3QQ4bWUwU6c-q3jp0UuY=", "properties": {"ref": "395", "@spider": "cookout", "amenity": "fast_food", "cuisine": "american", "takeaway": "yes", "addr:full": "1206 W State of Franklin Rd", "addr:city": "Johnson City", "addr:state": "TN", "addr:postcode": "37604", "addr:country": "US", "name": "Johnson City", "website": "https://www.facebook.com/Cook-Out-Johnson-City-161469887286294/", "opening_hours": "Mo-Th 10:30-03:00; Fr-Sa 10:30-04:00; Su 10:30-03:00", "brand": "Cookout", "brand:wikidata": "Q5166992", "nsi_id": "cookout-4d2ff4"}, "geometry": {"type": "Point", "coordinates": [-82.373903, 36.30319]}},
{"type": "Feature", "id": "NdeOlnY7NP1lPz5K6R6GPCU0YPo=", "properties": {"ref": "418", "@spider": "cookout", "amenity": "fast_food", "cuisine": "american", "takeaway": "yes", "addr:full": "3545 E Andrew Johnson Hwy", "addr:city": "Greeneville", "addr:state": "TN", "addr:postcode": "37745", "addr:country": "US", "name": "Greeneville", "website": "https://www.facebook.com/Cook-Out-Greeneville-TN-101129006887591/", "opening_hours": "Mo-Th 10:30-01:00; Fr-Sa 10:30-03:00; Su 10:30-01:00", "brand": "Cookout", "brand:wikidata": "Q5166992", "nsi_id": "cookout-4d2ff4"}, "geometry": {"type": "Point", "coordinates": [-82.76284, 36.186021]}},
{"type": "Feature", "id": "iEFnnAKOu7cNXlJ6ytBniRHeU-Y=", "properties": {"ref": "401", "@spider": "cookout", "amenity": "fast_food", "cuisine": "american", "takeaway": "yes", "addr:full": "2251 W Andrew Johnson Hwy", "addr:city": "Morristown", "addr:state": "TN", "addr:postcode": "37814", "addr:country": "US", "name": "Morristown", "website": "https://www.facebook.com/Cook-Out-Morristown-131641086993293/", "opening_hours": "Mo-Th 10:30-03:00; Fr-Sa 10:30-04:00; Su 10:30-03:00", "brand": "Cookout", "brand:wikidata": "Q5166992", "nsi_id": "cookout-4d2ff4"}, "geometry": {"type": "Point", "coordinates": [-83.324115, 36.205042]}},
{"type": "Feature", "id": "cwsiv7p57LA1fuzeEWF6J7eJLNk=", "properties": {"ref": "411", "@spider": "cookout", "amenity": "fast_food", "cuisine": "american", "takeaway": "yes", "addr:full": "1688 E Market St", "addr:city": "Harrisonburg", "addr:state": "VA", "addr:postcode": "22801", "addr:country": "US", "name": "Harrisonburg", "website": "https://www.facebook.com/Cook-Out-Harrisonburg-349381581811785/", "opening_hours": "Mo-Th 10:30-03:00; Fr-Sa 10:30-04:00; Su 10:30-03:00", "brand": "Cookout", "brand:wikidata": "Q5166992", "nsi_id": "cookout-4d2ff4"}, "geometry": {"type": "Point", "coordinates": [-78.844753, 38.433818]}},
{"type": "Feature", "id": "X5TlGE824AxAGvXeRRt17CKhd30=", "properties": {"ref": "1937", "@spider": "cookout", "amenity": "fast_food", "cuisine": "american", "takeaway": "yes", "addr:full": "1179 Blowing Rock Road", "addr:city": "Boone", "addr:state": "NC", "addr:postcode": "28607", "addr:country": "US", "name": "Boone", "opening_hours": "Mo-Th 10:30-03:30; Fr-Sa 10:30-04:30; Su 10:30-03:30", "brand": "Cookout", "brand:wikidata": "Q5166992", "nsi_id": "cookout-4d2ff4"}, "geometry": {"type": "Point", "coordinates": [-81.666859, 36.204266]}},
{"type": "Feature", "id": "Dq6nIKsHCYGXWAI5bHweU2RQl7g=", "properties": {"ref": "1928", "@spider": "cookout", "amenity": "fast_food", "cuisine": "american", "takeaway": "yes", "addr:full": "12 Powder Creek Ln", "addr:city": "Rocky Mount", "addr:state": "VA", "addr:postcode": "24151", "addr:country": "US", "name": "Powder Creek", "website": "https://www.facebook.com/Cook-Out-Powder-Creek-925156844237239/", "opening_hours": "Mo-Th 10:30-02:00; Fr-Sa 10:30-03:30; Su 10:30-02:00", "brand": "Cookout", "brand:wikidata": "Q5166992", "nsi_id": "cookout-4d2ff4"}, "geometry": {"type": "Point", "coordinates": [-79.870618, 37.011851]}},
{"type": "Feature", "id": "Rn9OcQUOm94P8yLB8nxx1aYkmjI=", "properties": {"ref": "448", "@spider": "cookout", "amenity": "fast_food", "cuisine": "american", "takeaway": "yes", "addr:full": "1432 W Main St", "addr:city": "Waynesboro", "addr:state": "VA", "addr:postcode": "22980", "addr:country": "US", "name": "Waynesboro", "website": "https://www.facebook.com/Cook-Out-Waynesboro-1659844077618038/", "opening_hours": "Mo-Th 10:30-01:00; Fr-Sa 10:30-03:00; Su 10:30-01:00", "brand": "Cookout", "brand:wikidata": "Q5166992", "nsi_id": "cookout-4d2ff4"}, "geometry": {"type": "Point", "coordinates": [-78.900751, 38.072096]}},
{"type": "Feature", "id": "KSZ9w4JQrnxIY2YAMNoyjFqYgAw=", "properties": {"ref": "1653", "@spider": "cookout", "amenity": "fast_food", "cuisine": "american", "takeaway": "yes", "addr:full": "1988 Rockford Street", "addr:city": "Mount Airy", "addr:state": "NC", "addr:postcode": "27030", "addr:country": "US", "name": "Mount Airy", "opening_hours": "Mo-Th 10:30-02:00; Fr-Sa 10:30-03:30; Su 10:30-02:00", "brand": "Cookout", "brand:wikidata": "Q5166992", "nsi_id": "cookout-4d2ff4"}, "geometry": {"type": "Point", "coordinates": [-80.614823, 36.482301]}},
{"type": "Feature", "id": "zg9jQSxtb_aOb5eQBLMJrx5ARVc=", "properties": {"ref": "1693", "@spider": "cookout", "amenity": "fast_food", "cuisine": "american", "takeaway": "yes", "addr:full": "1919 US Hwy 421", "addr:city": "Wilkesboro", "addr:state": "NC", "addr:postcode": "28697", "addr:country": "US", "name": "Wilkesboro", "opening_hours": "Mo-Th 10:30-01:00; Fr-Sa 10:30-03:00; Su 10:30-01:00", "brand": "Cookout", "brand:wikidata": "Q5166992", "nsi_id": "cookout-4d2ff4"}, "geometry": {"type": "Point", "coordinates": [-81.202411, 36.149905]}},
{"type": "Feature", "id": "oKtiZyA_Bvp89Eiejorkk81hni8=", "properties": {"ref": "3157", "@spider": "cookout", "amenity": "fast_food", "cuisine": "american", "takeaway": "yes", "addr:full": "1425 NORTH BRIDGE ST", "addr:city": "ELKIN", "addr:state": "NC", "addr:postcode": "28621", "addr:country": "US", "name": "ELKIN", "opening_hours": "Mo-Th 10:30-03:00; Fr-Sa 10:30-04:00; Su 10:30-03:00", "brand": "Cookout", "brand:wikidata": "Q5166992", "nsi_id": "cookout-4d2ff4"}, "geometry": {"type": "Point", "coordinates": [-80.85406, 36.268966]}},
{"type": "Feature", "id": "pw2ntWhuHlGVto7nkBlB3-UvLNo=", "properties": {"ref": "430", "@spider": "cookout", "amenity": "fast_food", "cuisine": "american", "takeaway": "yes", "addr:full": "435 E Emory Rd", "addr:city": "Powell", "addr:state": "TN", "addr:postcode": "37849", "addr:country": "US", "name": "Powell", "opening_hours": "Mo-Th 10:30-03:00; Fr-Sa 10:30-04:00; Su 10:30-03:00", "brand": "Cookout", "brand:wikidata": "Q5166992", "nsi_id": "cookout-4d2ff4"}, "geometry": {"type": "Point", "coordinates": [-83.996823, 36.050465]}},
{"type": "Feature", "id": "cvNA2sJS2-ubV006K4vAJrGhTjM=", "properties": {"ref": "440", "@spider": "cookout", "amenity": "fast_food", "cuisine": "american", "takeaway": "yes", "addr:full": "2629 Wards Rd", "addr:city": "Lynchburg", "addr:state": "VA", "addr:postcode": "24502", "addr:country": "US", "name": "Lynchburg", "website": "https://www.facebook.com/Cook-Out-Lynchburg-257636287658988/", "opening_hours": "Mo-Th 10:30-03:00; Fr-Sa 10:30-04:00; Su 10:30-03:00", "brand": "Cookout", "brand:wikidata": "Q5166992", "nsi_id": "cookout-4d2ff4"}, "geometry": {"type": "Point", "coordinates": [-79.181967, 37.362156]}},
{"type": "Feature", "id": "ZqRtxIf9YW51nyB9GOGUkjQxlSc=", "properties": {"ref": "2909", "@spider": "cookout", "amenity": "fast_food", "cuisine": "american", "takeaway": "yes", "addr:full": "2439 VIRGINIA AVE", "addr:city": "COLLINSVILLE", "addr:state": "VA", "addr:postcode": "24078", "addr:country": "US", "name": "Collinsville", "opening_hours": "Mo-Th 10:30-03:00; Fr-Sa 10:30-04:00; Su 10:30-03:00", "brand": "Cookout", "brand:wikidata": "Q5166992", "nsi_id": "cookout-4d2ff4"}, "geometry": {"type": "Point", "coordinates": [-79.909103, 36.713881]}},
{"type": "Feature", "id": "5bXAIw5MyCLoitEwUygiSIC-h4w=", "properties": {"ref": "397", "@spider": "cookout", "amenity": "fast_food", "cuisine": "american", "takeaway": "yes", "addr:full": "2135 Cumberland Ave", "addr:city": "Knoxville", "addr:state": "TN", "addr:postcode": "37916", "addr:country": "US", "name": "Cumberland Ave.", "website": "https://www.facebook.com/Cook-Out-Cumberland-Ave-754960911282287/", "opening_hours": "Mo-Th 10:30-04:00; Fr-Sa 10:30-05:00; Su 10:30-04:00", "brand": "Cookout", "brand:wikidata": "Q5166992", "nsi_id": "cookout-4d2ff4"}, "geometry": {"type": "Point", "coordinates": [-83.938894, 35.954269]}},
{"type": "Feature", "id": "p_f8_W6gNdMJMG1KJYkwsZOTrQs=", "properties": {"ref": "1641", "@spider": "cookout", "amenity": "fast_food", "cuisine": "american", "takeaway": "yes", "addr:full": "510 Blowing Rock Blvd", "addr:city": "Lenoir", "addr:state": "NC", "addr:postcode": "28645", "addr:country": "US", "name": "Lenoir", "opening_hours": "Mo-Th 10:30-02:00; Fr-Sa 10:30-03:00; Su 10:30-02:00", "brand": "Cookout", "brand:wikidata": "Q5166992", "nsi_id": "cookout-4d2ff4"}, "geometry": {"type": "Point", "coordinates": [-81.52494, 35.922322]}},
{"type": "Feature", "id": "fojfVzulA7ecyYq6mHadBpN-Rgw=", "properties": {"ref": "399", "@spider": "cookout", "amenity": "fast_food", "cuisine": "american", "takeaway": "yes", "addr:full": "6920 Kingston Pike", "addr:city": "Knoxville", "addr:state": "TN", "addr:postcode": "37919", "addr:country": "US", "name": "Kingston Pike", "website": "https://www.facebook.com/Cook-Out-Kingston-Pike-240065539375829/", "opening_hours": "Mo-Th 10:30-03:00; Fr-Sa 10:30-04:00; Su 10:30-03:00", "brand": "Cookout", "brand:wikidata": "Q5166992", "nsi_id": "cookout-4d2ff4"}, "geometry": {"type": "Point", "coordinates": [-84.020932, 35.932017]}},
{"type": "Feature", "id": "fGDYhtx9bWS52ucGyohVFT5-aUc=", "properties": {"ref": "439", "@spider": "cookout", "amenity": "fast_food", "cuisine": "american", "takeaway": "yes", "addr:full": "1254 Emmet St N", "addr:city": "Charlottesville", "addr:state": "VA", "addr:postcode": "22903", "addr:country": "US", "name": "Charlottesville", "website": "https://www.facebook.com/Cook-Out-Charlottesville-475425282660772/", "opening_hours": "Mo-Th 10:30-03:30; Fr-Sa 10:30-04:30; Su 10:30-03:30", "brand": "Cookout", "brand:wikidata": "Q5166992", "nsi_id": "cookout-4d2ff4"}, "geometry": {"type": "Point", "coordinates": [-78.496845, 38.054988]}},
{"type": "Feature", "id": "iIBuuVdeLhVnOpGfqQC3C6nyt9w=", "properties": {"ref": "1725", "@spider": "cookout", "amenity": "fast_food", "cuisine": "american", "takeaway": "yes", "addr:full": "321 Cedar Bluff Rd", "addr:city": "Knoxville", "addr:state": "TN", "addr:postcode": "37923", "addr:country": "US", "name": "Cedar Bluff", "opening_hours": "Mo-Th 10:30-03:00; Fr-Sa 10:30-04:00; Su 10:30-03:00", "brand": "Cookout", "brand:wikidata": "Q5166992", "nsi_id": "cookout-4d2ff4"}, "geometry": {"type": "Point", "coordinates": [-84.093281, 35.920454]}},
{"type": "Feature", "id": "RfqXfZdIMJimIwbGmyM-TsrEms0=", "properties": {"ref": "3211", "@spider": "cookout", "amenity": "fast_food", "cuisine": "american", "takeaway": "yes", "addr:full": "1551 S Pleasant Valley Road", "addr:city": "Winchester", "addr:state": "VA", "addr:postcode": "22601", "addr:country": "US", "name": "WINCHESTER VA", "opening_hours": "Mo-Th 10:30-03:00; Fr-Sa 10:30-04:00; Su 10:30-03:00", "brand": "Cookout", "brand:wikidata": "Q5166992", "nsi_id": "cookout-4d2ff4"}, "geometry": {"type": "Point", "coordinates": [-78.164194, 39.167389]}},
{"type": "Feature", "id": "1M1BBM0pSzss8FAexk0lLObav0U=", "properties": {"ref": "3080", "@spider": "cookout", "amenity": "fast_food", "cuisine": "american", "takeaway": "yes", "addr:full": "636 SOUTH MAIN ST", "addr:city": "KING", "addr:state": "NC", "addr:postcode": "27021", "addr:country": "US", "name": "KING", "opening_hours": "Mo-Th 10:30-03:00; Fr-Sa 10:30-04:00; Su 10:30-03:00", "brand": "Cookout", "brand:wikidata": "Q5166992", "nsi_id": "cookout-4d2ff4"}, "geometry": {"type": "Point", "coordinates": [-80.362363, 36.264739]}},
{"type": "Feature", "id": "HuvyUNIGymwySXPeNmKjRmUJR8Q=", "properties": {"ref": "3192", "@spider": "cookout", "amenity": "fast_food", "cuisine": "american", "takeaway": "yes", "addr:full": "11113 PARKSIDE DRIVE", "addr:city": "KNOXVILLE", "addr:state": "TN", "addr:postcode": "37934", "addr:country": "US", "name": "TURKEY CREEK", "opening_hours": "Mo-Th 10:30-03:00; Fr-Sa 10:30-04:00; Su 10:30-03:00", "brand": "Cookout", "brand:wikidata": "Q5166992", "nsi_id": "cookout-4d2ff4"}, "geometry": {"type": "Point", "coordinates": [-84.152706, 35.902523]}},
{"type": "Feature", "id": "v0jIWEVEexj7zRwZ_1UiwRidSUk=", "properties": {"ref": "3095", "@spider": "cookout", "amenity": "fast_food", "cuisine": "american", "takeaway": "yes", "addr:full": "96 US 70", "addr:city": "MARION", "addr:state": "NC", "addr:postcode": "28752", "addr:country": "US", "name": "MARION", "opening_hours": "Mo-Th 10:30-03:00; Fr-Sa 10:30-04:00; Su 10:30-03:00", "brand": "Cookout", "brand:wikidata": "Q5166992", "nsi_id": "cookout-4d2ff4"}, "geometry": {"type": "Point", "coordinates": [-82.033961, 35.705681]}},
{"type": "Feature", "id": "93uUlQHi1KSkucMJLm43a3zeKwA=", "properties": {"ref": "1651", "@spider": "cookout", "amenity": "fast_food", "cuisine": "american", "takeaway": "yes", "addr:full": "1000 Burkemont Rd", "addr:city": "Morganton", "addr:state": "NC", "addr:postcode": "28655", "addr:country": "US", "name": "Morganton", "opening_hours": "Mo-Th 10:30-02:00; Fr-Sa 10:30-03:30; Su 10:30-02:00", "brand": "Cookout", "brand:wikidata": "Q5166992", "nsi_id": "cookout-4d2ff4"}, "geometry": {"type": "Point", "coordinates": [-81.693919, 35.722454]}},
{"type": "Feature", "id": "Fla8QSQPdrP3Vj5X35SM3wtbxR8=", "properties": {"ref": "1585", "@spider": "cookout", "amenity": "fast_food", "cuisine": "american", "takeaway": "yes", "addr:full": "659 Van Buren Rd.", "addr:city": "Eden", "addr:state": "NC", "addr:postcode": "27288", "addr:country": "US", "name": "Eden", "opening_hours": "Mo-Th 10:30-03:00; Fr-Sa 10:30-04:00; Su 10:30-03:00", "brand": "Cookout", "brand:wikidata": "Q5166992", "nsi_id": "cookout-4d2ff4"}, "geometry": {"type": "Point", "coordinates": [-79.74017, 36.490426]}},
{"type": "Feature", "id": "tQb2KNSrmUuU71BRA1SMW9YAJqw=", "properties": {"ref": "1701", "@spider": "cookout", "amenity": "fast_food", "cuisine": "american", "takeaway": "yes", "addr:full": "245 Summit Point Lane", "addr:city": "Winston-Salem", "addr:state": "NC", "addr:postcode": "27105", "addr:country": "US", "name": "Winston (Summit Pointe)", "opening_hours": "Mo-Th 10:30-03:00; Fr-Sa 10:30-04:00; Su 10:30-03:00", "brand": "Cookout", "brand:wikidata": "Q5166992", "nsi_id": "cookout-4d2ff4"}, "geometry": {"type": "Point", "coordinates": [-80.274589, 36.185005]}},
{"type": "Feature", "id": "SSn3sP2ueoJxQ36zyKjbUVVnsR0=", "properties": {"ref": "403", "@spider": "cookout", "amenity": "fast_food", "cuisine": "american", "takeaway": "yes", "addr:full": "1305 W Lamar Alexander Pkwy", "addr:city": "Maryville", "addr:state": "TN", "addr:postcode": "37801", "addr:country": "US", "name": "Maryville", "website": "https://www.facebook.com/Cook-Out-Maryville-378008402310173/", "opening_hours": "Mo-Th 10:30-03:00; Fr-Sa 10:30-04:00; Su 10:30-03:00", "brand": "Cookout", "brand:wikidata": "Q5166992", "nsi_id": "cookout-4d2ff4"}, "geometry": {"type": "Point", "coordinates": [-83.999358, 35.751615]}},
{"type": "Feature", "id": "FiCImgEFVhpVy_k8vxUWJoP6u1M=", "properties": {"ref": "3252", "@spider": "cookout", "amenity": "fast_food", "cuisine": "american", "takeaway": "yes", "addr:full": "2897 REYNOLDA RD", "addr:city": "WINSTON SALEM", "addr:state": "NC", "addr:country": "US", "name": "REYNOLDA RD", "opening_hours": "Mo-Th 10:30-03:00; Fr-Sa 10:30-04:00; Su 10:30-03:00", "brand": "Cookout", "brand:wikidata": "Q5166992", "nsi_id": "cookout-4d2ff4"}, "geometry": {"type": "Point", "coordinates": [-80.300026, 36.144705]}},
{"type": "Feature", "id": "zXqgEKOTKMCxBjyy57YrrZxZ3o0=", "properties": {"ref": "1936", "@spider": "cookout", "amenity": "fast_food", "cuisine": "american", "takeaway": "yes", "addr:full": "1055 Patton Ave", "addr:city": "Asheville", "addr:state": "NC", "addr:postcode": "28806", "addr:country": "US", "name": "Patton Ave", "opening_hours": "Mo-Th 10:30-03:00; Fr-Sa 10:30-04:00; Su 10:30-03:00", "brand": "Cookout", "brand:wikidata": "Q5166992", "nsi_id": "cookout-4d2ff4"}, "geometry": {"type": "Point", "coordinates": [-82.594467, 35.587253]}},
{"type": "Feature", "id": "DoTdjZLokxPvToFg61Q9N5KPRms=", "properties": {"ref": "1621", "@spider": "cookout", "amenity": "fast_food", "cuisine": "american", "takeaway": "yes", "addr:full": "1710 N. Center Street", "addr:city": "Hickory", "addr:state": "NC", "addr:postcode": "28601", "addr:country": "US", "name": "Hickory", "opening_hours": "Mo-Th 10:30-03:00; Fr-Sa 10:30-04:00; Su 10:30-03:00", "brand": "Cookout", "brand:wikidata": "Q5166992", "nsi_id": "cookout-4d2ff4"}, "geometry": {"type": "Point", "coordinates": [-81.336161, 35.754702]}},
{"type": "Feature", "id": "mvktMjWglBSohfpEAAMNOO_cXOM=", "properties": {"ref": "1935", "@spider": "cookout", "amenity": "fast_food", "cuisine": "american", "takeaway": "yes", "addr:full": "251 Tunnel Rd.", "addr:city": "Asheville", "addr:state": "NC", "addr:postcode": "28805", "addr:country": "US", "name": "Tunnel Rd.", "opening_hours": "Mo-Th 10:30-03:00; Fr-Sa 10:30-04:00; Su 22:30-03:00", "brand": "Cookout", "brand:wikidata": "Q5166992", "nsi_id": "cookout-4d2ff4"}, "geometry": {"type": "Point", "coordinates": [-82.527936, 35.584888]}},
{"type": "Feature", "id": "sWCwQBXbP0PB0dQAhKcWO5t11l4=", "properties": {"ref": "1703", "@spider": "cookout", "amenity": "fast_food", "cuisine": "american", "takeaway": "yes", "addr:full": "339 Akron Drive", "addr:city": "Winston-Salem", "addr:state": "NC", "addr:postcode": "27105", "addr:country": "US", "name": "Akron Drive", "opening_hours": "Mo-Th 10:30-03:00; Fr-Sa 10:30-04:00; Su 10:30-03:00", "brand": "Cookout", "brand:wikidata": "Q5166992", "nsi_id": "cookout-4d2ff4"}, "geometry": {"type": "Point", "coordinates": [-80.241291, 36.137372]}},
{"type": "Feature", "id": "5E3lY0-69P3N56Lb1co_ltQmGjQ=", "properties": {"ref": "402", "@spider": "cookout", "amenity": "fast_food", "cuisine": "american", "takeaway": "yes", "addr:full": "730 Campbell Ln", "addr:city": "Bowling Green", "addr:state": "KY", "addr:postcode": "42101", "addr:country": "US", "name": "Bowling Green", "website": "https://www.facebook.com/Cook-Out-Bowling-Green-KY-1544343059143837/", "opening_hours": "Mo-Th 10:30-03:30; Fr-Sa 10:30-04:30; Su 10:30-03:30", "brand": "Cookout", "brand:wikidata": "Q5166992", "nsi_id": "cookout-4d2ff4"}, "geometry": {"type": "Point", "coordinates": [-86.472449, 36.964286]}},
{"type": "Feature", "id": "yzrDeDM-h-hSh-2PCHNlhESuxx4=", "properties": {"ref": "1707", "@spider": "cookout", "amenity": "fast_food", "cuisine": "american", "takeaway": "yes", "addr:full": "4505 Kester Mill Road", "addr:city": "Winston-Salem", "addr:state": "NC", "addr:postcode": "27013", "addr:country": "US", "name": "Kester Mill", "opening_hours": "Mo-Th 10:30-03:00; Fr-Sa 10:30-04:00; Su 10:30-03:00", "brand": "Cookout", "brand:wikidata": "Q5166992", "nsi_id": "cookout-4d2ff4"}, "geometry": {"type": "Point", "coordinates": [-80.334536, 36.069697]}},
{"type": "Feature", "id": "uw4kL20bmTMiEUT4hZAHhqcZx4k=", "properties": {"ref": "3250", "@spider": "cookout", "amenity": "fast_food", "cuisine": "american", "takeaway": "yes", "addr:full": "5222 NEAL TRAIL DR", "addr:city": "WALKERTOWN", "addr:state": "NC", "addr:postcode": "27051", "addr:country": "US", "name": "WALKERTOWN NC", "opening_hours": "Mo-Th 10:30-03:00; Fr-Sa 10:30-04:00; Su 10:30-03:00", "brand": "Cookout", "brand:wikidata": "Q5166992", "nsi_id": "cookout-4d2ff4"}, "geometry": {"type": "Point", "coordinates": [-80.134675, 36.165388]}},
{"type": "Feature", "id": "m_nVbjZ8kIZaL6rpWwKGPZB67Yk=", "properties": {"ref": "3298", "@spider": "cookout", "amenity": "fast_food", "cuisine": "american", "takeaway": "yes", "addr:full": "1951 HIGHWAY 70 SE", "addr:city": "HICKORY", "addr:state": "NC", "addr:postcode": "28602", "addr:country": "US", "name": "HICKORY, NC", "opening_hours": "Mo-Th 10:30-03:00; Fr-Sa 10:30-04:00; Su 10:30-03:00", "brand": "Cookout", "brand:wikidata": "Q5166992", "nsi_id": "cookout-4d2ff4"}, "geometry": {"type": "Point", "coordinates": [-81.303922, 35.706747]}},
{"type": "Feature", "id": "1oLVtv-hPHqAhRQcZhuQF7KLo0A=", "properties": {"ref": "415", "@spider": "cookout", "amenity": "fast_food", "cuisine": "american", "takeaway": "yes", "addr:full": "3409 Riverside Dr", "addr:city": "Danville", "addr:state": "VA", "addr:postcode": "24541", "addr:country": "US", "name": "Danville", "website": "https://www.facebook.com/Cook-Out-Danville-436720683031240/", "opening_hours": "Mo-Th 10:30-03:00; Fr-Sa 10:30-04:00; Su 10:30-03:00", "brand": "Cookout", "brand:wikidata": "Q5166992", "nsi_id": "cookout-4d2ff4"}, "geometry": {"type": "Point", "coordinates": [-79.426897, 36.583497]}},
{"type": "Feature", "id": "l_WE8ZUoO2fBkieUs_Fg5jd7esk=", "properties": {"ref": "3319", "@spider": "cookout", "amenity": "fast_food", "cuisine": "american", "takeaway": "yes", "addr:full": "1562 YADKINVILLE RD", "addr:city": "MOCKSVILLE", "addr:state": "NC", "addr:postcode": "27208", "addr:country": "US", "name": "MOCKSVILLE, NC", "opening_hours": "Mo-Th 10:30-03:00; Fr-Sa 10:30-04:00; Su 10:30-03:00", "brand": "Cookout", "brand:wikidata": "Q5166992", "nsi_id": "cookout-4d2ff4"}, "geometry": {"type": "Point", "coordinates": [-80.588324, 35.922241]}},
{"type": "Feature", "id": "7i0yzotIWuVnmABUmDczQeaDrJ8=", "properties": {"ref": "1687", "@spider": "cookout", "amenity": "fast_food", "cuisine": "american", "takeaway": "yes", "addr:full": "181 Turnersburg Hwy.", "addr:city": "Statesville", "addr:state": "NC", "addr:postcode": "28625", "addr:country": "US", "name": "Statesville", "opening_hours": "Mo-Th 10:30-02:00; Fr-Sa 10:30-03:30; Su 10:30-02:00", "brand": "Cookout", "brand:wikidata": "Q5166992", "nsi_id": "cookout-4d2ff4"}, "geometry": {"type": "Point", "coordinates": [-80.876043, 35.812532]}},
{"type": "Feature", "id": "Y9ksHOHnJ1MwAW_1_Khlo51PGS4=", "properties": {"ref": "1569", "@spider": "cookout", "amenity": "fast_food", "cuisine": "american", "takeaway": "yes", "addr:full": "460 E. Conover Blvd", "addr:city": "Conover", "addr:state": "NC", "addr:postcode": "28613", "addr:country": "US", "name": "Conover", "opening_hours": "Mo-Th 10:30-02:00; Fr-Sa 10:30-03:30; Su 10:30-02:00", "brand": "Cookout", "brand:wikidata": "Q5166992", "nsi_id": "cookout-4d2ff4"}, "geometry": {"type": "Point", "coordinates": [-81.208984, 35.702819]}},
{"type": "Feature", "id": "abM9XVEXELzA8DHdBHFyC86QAb0=", "properties": {"ref": "1705", "@spider": "cookout", "amenity": "fast_food", "cuisine": "american", "takeaway": "yes", "addr:full": "3103 Peters Creek Pkwy.", "addr:city": "Winston-Salem", "addr:state": "NC", "addr:postcode": "27127", "addr:country": "US", "name": "Peters Creek", "opening_hours": "Mo-Th 10:30-03:00; Fr-Sa 10:30-04:00; Su 10:30-03:00", "brand": "Cookout", "brand:wikidata": "Q5166992", "nsi_id": "cookout-4d2ff4"}, "geometry": {"type": "Point", "coordinates": [-80.259497, 36.049906]}},
{"type": "Feature", "id": "kar0EB3c0Yz8i91KX_rx7vElq8k=", "properties": {"ref": "3300", "@spider": "cookout", "amenity": "fast_food", "cuisine": "american", "takeaway": "yes", "addr:full": "1646 FREEWAY DRIVE", "addr:city": "REIDSVILLE", "addr:state": "NC", "addr:postcode": "27320", "addr:country": "US", "name": "REIDSVILLE, NC", "opening_hours": "Mo-Th 10:30-03:00; Fr-Sa 10:30-04:00; Su 10:30-03:00", "brand": "Cookout", "brand:wikidata": "Q5166992", "nsi_id": "cookout-4d2ff4"}, "geometry": {"type": "Point", "coordinates": [-79.692151, 36.351803]}},
{"type": "Feature", "id": "kJT8etBxA5edjop5ob4c7S7cOKE=", "properties": {"ref": "1637", "@spider": "cookout", "amenity": "fast_food", "cuisine": "american", "takeaway": "yes", "addr:full": "1010 S. Main Street", "addr:city": "Kernersville", "addr:state": "NC", "addr:postcode": "27284", "addr:country": "US", "name": "Kernersville", "opening_hours": "Mo-Th 10:30-03:00; Fr-Sa 10:30-04:00; Su 10:30-03:00", "brand": "Cookout", "brand:wikidata": "Q5166992", "nsi_id": "cookout-4d2ff4"}, "geometry": {"type": "Point", "coordinates": [-80.096887, 36.108746]}},
{"type": "Feature", "id": "O6nsM_gvrHk2rSDn9DUvQbT7aFY=", "properties": {"ref": "1930", "@spider": "cookout", "amenity": "fast_food", "cuisine": "american", "takeaway": "yes", "addr:full": "869 S Jefferson Ave", "addr:city": "Cookeville", "addr:state": "TN", "addr:postcode": "38501", "addr:country": "US", "name": "Cookeville", "website": "https://www.facebook.com/Cook-Out-Cookeville-TN-411035682391301/", "opening_hours": "Mo-We 10:30-03:00; Th-Sa 10:30-04:00; Su 10:30-03:00", "brand": "Cookout", "brand:wikidata": "Q5166992", "nsi_id": "cookout-4d2ff4"}, "geometry": {"type": "Point", "coordinates": [-85.501274, 36.140792]}},
{"type": "Feature", "id": "LQFVsp3Ei50j1oKFToMyjJ1a2mg=", "properties": {"ref": "2994", "@spider": "cookout", "amenity": "fast_food", "cuisine": "american", "takeaway": "yes", "addr:full": "3309 BATTLEGROUND AVE", "addr:city": "GREENSBORO", "addr:state": "NC", "addr:postcode": "27410", "addr:country": "US", "name": "BATTLEGROUND", "opening_hours": "Mo-Th 10:30-03:00; Fr-Sa 10:30-04:00; Su 10:30-03:00", "brand": "Cookout", "brand:wikidata": "Q5166992", "nsi_id": "cookout-4d2ff4"}, "geometry": {"type": "Point", "coordinates": [-79.845408, 36.122277]}},
{"type": "Feature", "id": "RoArb6MV4arR63Jinaln1CcRPr4=", "properties": {"ref": "3322", "@spider": "cookout", "amenity": "fast_food", "cuisine": "american", "takeaway": "yes", "addr:full": "5326 W MARKET ST", "addr:city": "GREENSBORO", "addr:state": "NC", "addr:postcode": "27409", "addr:country": "US", "name": "Greensboro, NC", "opening_hours": "Mo-Th 10:30-03:00; Fr-Sa 10:30-04:00; Su 10:30-03:00", "brand": "Cookout", "brand:wikidata": "Q5166992", "nsi_id": "cookout-4d2ff4"}, "geometry": {"type": "Point", "coordinates": [-79.883658, 36.072178]}},
{"type": "Feature", "id": "B534YHDUG3DjpIunv9D4OOG-DXI=", "properties": {"ref": "1613", "@spider": "cookout", "amenity": "fast_food", "cuisine": "american", "takeaway": "yes", "addr:full": "2411 Battleground Avenue", "addr:city": "Greensboro", "addr:state": "NC", "addr:postcode": "27408", "addr:country": "US", "name": "Battleground", "opening_hours": "Mo-Th 10:30-03:00; Fr-Sa 10:30-04:00; Su 10:30-03:00", "brand": "Cookout", "brand:wikidata": "Q5166992", "nsi_id": "cookout-4d2ff4"}, "geometry": {"type": "Point", "coordinates": [-79.825123, 36.103676]}},
{"type": "Feature", "id": "7ly7qH9EZJ0dDTHNXtIgknKiWig=", "properties": {"ref": "1615", "@spider": "cookout", "amenity": "fast_food", "cuisine": "american", "takeaway": "yes", "addr:full": "5406 Sapp Road", "addr:city": "Greensboro", "addr:state": "NC", "addr:postcode": "27409", "addr:country": "US", "name": "Wendover", "opening_hours": "Mo-Th 10:30-03:00; Fr-Sa 10:30-04:00; Su 10:30-03:00", "brand": "Cookout", "brand:wikidata": "Q5166992", "nsi_id": "cookout-4d2ff4"}, "geometry": {"type": "Point", "coordinates": [-79.905148, 36.055689]}},
{"type": "Feature", "id": "E8ISm4k-qgiEAFcihNgRXYVtuOU=", "properties": {"ref": "1625", "@spider": "cookout", "amenity": "fast_food", "cuisine": "american", "takeaway": "yes", "addr:full": "2420 N. Main Street", "addr:city": "High Point", "addr:state": "NC", "addr:postcode": "27265", "addr:country": "US", "name": "North Main", "opening_hours": "Mo-Th 10:30-02:30; Fr-Sa 10:30-03:30; Su 10:30-02:30", "brand": "Cookout", "brand:wikidata": "Q5166992", "nsi_id": "cookout-4d2ff4"}, "geometry": {"type": "Point", "coordinates": [-80.026189, 35.98872]}},
{"type": "Feature", "id": "4k7-Dxe_KHZwUSs3XcY7vh9N9mY=", "properties": {"ref": "1689", "@spider": "cookout", "amenity": "fast_food", "cuisine": "american", "takeaway": "yes", "addr:full": "1391 East Main Street", "addr:city": "Sylva", "addr:state": "NC", "addr:postcode": "28779", "addr:country": "US", "name": "Sylva", "opening_hours": "Mo-Th 10:30-03:00; Fr-Sa 10:30-04:00; Su 10:30-03:00", "brand": "Cookout", "brand:wikidata": "Q5166992", "nsi_id": "cookout-4d2ff4"}, "geometry": {"type": "Point", "coordinates": [-83.201466, 35.359592]}},
{"type": "Feature", "id": "NLbFnP_Yp_TcM3S-ZPD0K7Wz3eY=", "properties": {"ref": "2570", "@spider": "cookout", "amenity": "fast_food", "cuisine": "american", "takeaway": "yes", "addr:full": "2546 Chimney Rock Rd.", "addr:city": "Hendersonville", "addr:state": "NC", "addr:postcode": "28792", "addr:country": "US", "name": "Hendersonville", "brand": "Cookout", "brand:wikidata": "Q5166992", "nsi_id": "cookout-4d2ff4"}, "geometry": {"type": "Point", "coordinates": [-82.430924, 35.346817]}},
{"type": "Feature", "id": "KoDqhOICd1q4P3BA4SWjW6F0oHc=", "properties": {"ref": "409", "@spider": "cookout", "amenity": "fast_food", "cuisine": "american", "takeaway": "yes", "addr:full": "1437 S Main St", "addr:city": "Farmville", "addr:state": "VA", "addr:postcode": "23901", "addr:country": "US", "name": "Farmville", "website": "https://www.facebook.com/Cook-Out-Farmville-343414159046323/", "opening_hours": "Mo-Th 10:30-03:00; Fr-Sa 10:30-04:00; Su 10:30-03:00", "brand": "Cookout", "brand:wikidata": "Q5166992", "nsi_id": "cookout-4d2ff4"}, "geometry": {"type": "Point", "coordinates": [-78.395549, 37.282977]}},
{"type": "Feature", "id": "W5npbFU62WaJVOBt2295q1NdGpU=", "properties": {"ref": "1607", "@spider": "cookout", "amenity": "fast_food", "cuisine": "american", "takeaway": "yes", "addr:full": "1041 Summit Avenue", "addr:city": "Greensboro", "addr:state": "NC", "addr:postcode": "27405", "addr:country": "US", "name": "Summit Ave", "opening_hours": "Mo-Th 10:30-03:30; Fr-Sa 10:30-04:30; Su 10:30-03:30", "brand": "Cookout", "brand:wikidata": "Q5166992", "nsi_id": "cookout-4d2ff4"}, "geometry": {"type": "Point", "coordinates": [-79.774918, 36.088567]}},
{"type": "Feature", "id": "AayK2ZodF-9hkVmAxWqZLPB-RQs=", "properties": {"ref": "1611", "@spider": "cookout", "amenity": "fast_food", "cuisine": "american", "takeaway": "yes", "addr:full": "3804 High Point Road", "addr:city": "Greensboro", "addr:state": "NC", "addr:postcode": "27407", "addr:country": "US", "name": "High Point Road", "opening_hours": "Mo-Th 10:30-03:00; Fr-Sa 10:30-04:00; Su 10:30-03:00", "brand": "Cookout", "brand:wikidata": "Q5166992", "nsi_id": "cookout-4d2ff4"}, "geometry": {"type": "Point", "coordinates": [-79.875413, 36.026284]}},
{"type": "Feature", "id": "T-cnQxNp3fFZLlGy7n65GtAABaU=", "properties": {"ref": "1649", "@spider": "cookout", "amenity": "fast_food", "cuisine": "american", "takeaway": "yes", "addr:full": "355 West Plaza Drive", "addr:city": "Mooresville", "addr:state": "NC", "addr:postcode": "28117", "addr:country": "US", "name": "Mooresville", "opening_hours": "Mo-Th 10:30-02:00; Fr-Sa 10:30-03:30; Su 10:30-02:00", "brand": "Cookout", "brand:wikidata": "Q5166992", "nsi_id": "cookout-4d2ff4"}, "geometry": {"type": "Point", "coordinates": [-80.855082, 35.592924]}},
{"type": "Feature", "id": "igZBZ26Q8jzsyRX_CdaIixkRvnU=", "properties": {"ref": "1643", "@spider": "cookout", "amenity": "fast_food", "cuisine": "american", "takeaway": "yes", "addr:full": "1437 E. Main Street", "addr:city": "Lincolnton", "addr:state": "NC", "addr:postcode": "28093", "addr:country": "US", "name": "Lincolnton", "opening_hours": "Mo-Th 10:30-02:00; Fr-Sa 10:30-03:00; Su 10:30-02:00", "brand": "Cookout", "brand:wikidata": "Q5166992", "nsi_id": "cookout-4d2ff4"}, "geometry": {"type": "Point", "coordinates": [-81.236174, 35.477405]}},
{"type": "Feature", "id": "fJwzo-jq4uccKq6TWi-27kIYbHc=", "properties": {"ref": "1609", "@spider": "cookout", "amenity": "fast_food", "cuisine": "american", "takeaway": "yes", "addr:full": "2601 Randleman Road", "addr:city": "Greensboro", "addr:state": "NC", "addr:postcode": "27406", "addr:country": "US", "name": "Randleman Road", "opening_hours": "Mo-Th 10:30-03:00; Fr-Sa 10:30-04:00; Su 10:30-03:00", "brand": "Cookout", "brand:wikidata": "Q5166992", "nsi_id": "cookout-4d2ff4"}, "geometry": {"type": "Point", "coordinates": [-79.801361, 36.029899]}},
{"type": "Feature", "id": "81JURgRTIFBcCTq2ddE03Lt0GpQ=", "properties": {"ref": "3202", "@spider": "cookout", "amenity": "fast_food", "cuisine": "american", "takeaway": "yes", "addr:full": "130 Grace Way", "addr:city": "Forest City", "addr:state": "NC", "addr:postcode": "28043", "addr:country": "US", "name": "Forest City", "opening_hours": "Mo-Th 10:30-03:00; Fr-Sa 10:30-04:00; Su 10:30-03:00", "brand": "Cookout", "brand:wikidata": "Q5166992", "nsi_id": "cookout-4d2ff4"}, "geometry": {"type": "Point", "coordinates": [-81.903307, 35.338883]}},
{"type": "Feature", "id": "mVddlSVFoZ8tLfqpaE_27xPbuac=", "properties": {"ref": "1623", "@spider": "cookout", "amenity": "fast_food", "cuisine": "american", "takeaway": "yes", "addr:full": "2923 S. Main Street", "addr:city": "High Point", "addr:state": "NC", "addr:postcode": "27263", "addr:country": "US", "name": "South Main", "opening_hours": "Mo-Th 10:30-02:00; Fr-Sa 10:30-03:00; Su 10:30-02:00", "brand": "Cookout", "brand:wikidata": "Q5166992", "nsi_id": "cookout-4d2ff4"}, "geometry": {"type": "Point", "coordinates": [-79.977458, 35.920628]}},
{"type": "Feature", "id": "1vH5EvlPnq1Jk7y_k6I8aUj3KN4=", "properties": {"ref": "3085", "@spider": "cookout", "amenity": "fast_food", "cuisine": "american", "takeaway": "yes", "addr:full": "1700 COTTON GROVE RD", "addr:city": "LEXINGTON", "addr:state": "NC", "addr:postcode": "27292", "addr:country": "US", "name": "LEXINGTON NC", "opening_hours": "Mo-Th 10:30-03:00; Fr-Sa 10:30-04:00; Su 10:30-03:00", "brand": "Cookout", "brand:wikidata": "Q5166992", "nsi_id": "cookout-4d2ff4"}, "geometry": {"type": "Point", "coordinates": [-80.259378, 35.77804]}},
{"type": "Feature", "id": "SYo20x4ICkxn5q6vuJ-fYOg-6aA=", "properties": {"ref": "1691", "@spider": "cookout", "amenity": "fast_food", "cuisine": "american", "takeaway": "yes", "addr:full": "1123 Randolph Street", "addr:city": "Thomasville", "addr:state": "NC", "addr:postcode": "27360", "addr:country": "US", "name": "Thomasville", "opening_hours": "Mo-Th 10:30-02:30; Fr-Sa 10:30-03:30; Su 10:30-02:30", "brand": "Cookout", "brand:wikidata": "Q5166992", "nsi_id": "cookout-4d2ff4"}, "geometry": {"type": "Point", "coordinates": [-80.072352, 35.858129]}},
{"type": "Feature", "id": "ewkM9TKqm-j0PWL-dTmLLgfnh4w=", "properties": {"ref": "2930", "@spider": "cookout", "amenity": "fast_food", "cuisine": "american", "takeaway": "yes", "addr:full": "244 Asheville Hwy", "addr:city": "Brevard", "addr:state": "NC", "addr:postcode": "28712", "addr:country": "US", "name": "Brevard", "opening_hours": "Mo-Th 10:30-03:00; Fr-Sa 10:30-04:00; Su 10:30-03:00", "brand": "Cookout", "brand:wikidata": "Q5166992", "nsi_id": "cookout-4d2ff4"}, "geometry": {"type": "Point", "coordinates": [-82.722742, 35.245779]}},
{"type": "Feature", "id": "qoiy2rdBmgAipcCs1V2kQtXo-j8=", "properties": {"ref": "1675", "@spider": "cookout", "amenity": "fast_food", "cuisine": "american", "takeaway": "yes", "addr:full": "801 East Innes Street", "addr:city": "Salisbury", "addr:state": "NC", "addr:postcode": "28144", "addr:country": "US", "name": "Salisbury", "opening_hours": "Mo-Th 10:30-03:00; Fr-Sa 10:30-04:00; Su 10:30-03:00", "brand": "Cookout", "brand:wikidata": "Q5166992", "nsi_id": "cookout-4d2ff4"}, "geometry": {"type": "Point", "coordinates": [-80.462767, 35.660433]}},
{"type": "Feature", "id": "CoLJBAO2wPYQ4OQrexbvv6m_rfc=", "properties": {"ref": "3075", "@spider": "cookout", "amenity": "fast_food", "cuisine": "american", "takeaway": "yes", "addr:full": "20220 W Catawba Ave", "addr:city": "Cornelius", "addr:state": "NC", "addr:postcode": "28031", "addr:country": "US", "name": "Cornelius", "opening_hours": "Mo-Th 10:30-03:00; Fr-Sa 10:30-04:00; Su 10:30-03:00", "brand": "Cookout", "brand:wikidata": "Q5166992", "nsi_id": "cookout-4d2ff4"}, "geometry": {"type": "Point", "coordinates": [-80.879157, 35.4824]}},
{"type": "Feature", "id": "1_UtMtcEA6UP1ZL6UVHgCFDDG1Q=", "properties": {"ref": "1571", "@spider": "cookout", "amenity": "fast_food", "cuisine": "american", "takeaway": "yes", "addr:full": "7519 HWY 73", "addr:city": "Denver", "addr:state": "NC", "addr:postcode": "28037", "addr:country": "US", "name": "Denver", "opening_hours": "Mo-Th 10:30-01:00; Fr-Sa 10:30-03:00; Su 10:30-01:00", "brand": "Cookout", "brand:wikidata": "Q5166992", "nsi_id": "cookout-4d2ff4"}, "geometry": {"type": "Point", "coordinates": [-80.993107, 35.444542]}},
{"type": "Feature", "id": "EQ3pwgS4lll03JHiX9FusQ982HI=", "properties": {"ref": "1938", "@spider": "cookout", "amenity": "fast_food", "cuisine": "american", "takeaway": "yes", "addr:full": "414 Huffman Mill Road", "addr:city": "Burlington", "addr:state": "NC", "addr:postcode": "27215", "addr:country": "US", "name": "Burlington", "opening_hours": "Mo-Th 10:30-03:00; Fr-Sa 10:30-04:00; Su 10:30-03:00", "brand": "Cookout", "brand:wikidata": "Q5166992", "nsi_id": "cookout-4d2ff4"}, "geometry": {"type": "Point", "coordinates": [-79.489176, 36.074949]}},
{"type": "Feature", "id": "tQfxCIKP2Qtk7e1Kq8M1WGbCpgI=", "properties": {"ref": "1721", "@spider": "cookout", "amenity": "fast_food", "cuisine": "american", "takeaway": "yes", "addr:full": "1227 Congress Pkwy", "addr:city": "Athens", "addr:state": "TN", "addr:postcode": "37303", "addr:country": "US", "name": "Athens", "opening_hours": "Mo-Th 10:30-02:00; Fr-Sa 10:30-03:00; Su 10:30-02:00", "brand": "Cookout", "brand:wikidata": "Q5166992", "nsi_id": "cookout-4d2ff4"}, "geometry": {"type": "Point", "coordinates": [-84.622098, 35.451402]}},
{"type": "Feature", "id": "XsEaz9DKY1z7ihR0g0DBlcXy-rU=", "properties": {"ref": "1681", "@spider": "cookout", "amenity": "fast_food", "cuisine": "american", "takeaway": "yes", "addr:full": "308 Earl Road", "addr:city": "Shelby", "addr:state": "NC", "addr:postcode": "28150", "addr:country": "US", "name": "Shelby", "opening_hours": "Mo-Th 10:30-02:00; Fr-Sa 10:30-04:00; Su 10:30-02:00", "brand": "Cookout", "brand:wikidata": "Q5166992", "nsi_id": "cookout-4d2ff4"}, "geometry": {"type": "Point", "coordinates": [-81.536016, 35.277072]}},
{"type": "Feature", "id": "FROENCopwlwW2yKCoyERBC1o1S0=", "properties": {"ref": "3236", "@spider": "cookout", "amenity": "fast_food", "cuisine": "american", "takeaway": "yes", "addr:full": "8502 Centerville Rd", "addr:city": "Manassas Park", "addr:state": "VA", "addr:postcode": "20111", "addr:country": "US", "name": "Manassas Park", "opening_hours": "Mo-Th 10:30-03:00; Fr-Sa 10:30-04:00; Su 10:30-03:00", "brand": "Cookout", "brand:wikidata": "Q5166992", "nsi_id": "cookout-4d2ff4"}, "geometry": {"type": "Point", "coordinates": [-77.453233, 38.770931]}},
{"type": "Feature", "id": "40IaI0QrTinkIUUvz6NkJjsaI_s=", "properties": {"ref": "1673", "@spider": "cookout", "amenity": "fast_food", "cuisine": "american", "takeaway": "yes", "addr:full": "110 Walker St.", "addr:city": "Roxboro", "addr:state": "NC", "addr:postcode": "27573", "addr:country": "US", "name": "Roxboro (Walker St)", "opening_hours": "Mo-Th 10:30-02:00; Fr-Sa 10:30-03:30; Su 10:30-02:00", "brand": "Cookout", "brand:wikidata": "Q5166992", "nsi_id": "cookout-4d2ff4"}, "geometry": {"type": "Point", "coordinates": [-78.980335, 36.401286]}},
{"type": "Feature", "id": "pIWFW2CN2crKfZU50Yyl_R_ACcg=", "properties": {"ref": "1627", "@spider": "cookout", "amenity": "fast_food", "cuisine": "american", "takeaway": "yes", "addr:full": "425 Huntersville Gateway Blvd.", "addr:city": "Huntersville", "addr:state": "NC", "addr:postcode": "28078", "addr:country": "US", "name": "Huntersville", "opening_hours": "Mo-Th 10:30-02:00; Fr-Sa 10:30-03:30; Su 10:30-02:00", "brand": "Cookout", "brand:wikidata": "Q5166992", "nsi_id": "cookout-4d2ff4"}, "geometry": {"type": "Point", "coordinates": [-80.856681, 35.413776]}},
{"type": "Feature", "id": "lNGmW4-XyDlvtaD6v4Hp1M5pau0=", "properties": {"ref": "3186", "@spider": "cookout", "amenity": "fast_food", "cuisine": "american", "takeaway": "yes", "addr:full": "963 GEORGIA RD", "addr:city": "FRANKLIN", "addr:state": "NC", "addr:postcode": "28734", "addr:country": "US", "name": "FRANKLIN", "opening_hours": "Mo-Th 10:30-03:00; Fr-Sa 10:30-04:00; Su 10:30-03:00", "brand": "Cookout", "brand:wikidata": "Q5166992", "nsi_id": "cookout-4d2ff4"}, "geometry": {"type": "Point", "coordinates": [-83.39198, 35.161885]}},
{"type": "Feature", "id": "CXx8xUTurZpfAbs7XUvEtNSjuwc=", "properties": {"ref": "1635", "@spider": "cookout", "amenity": "fast_food", "cuisine": "american", "takeaway": "yes", "addr:full": "901 S. Cannon Blvd.", "addr:city": "Kannapolis", "addr:state": "NC", "addr:postcode": "28083", "addr:country": "US", "name": "Kannapolis", "opening_hours": "Mo-Th 10:30-02:00; Fr-Sa 10:30-03:30; Su 10:30-02:00", "brand": "Cookout", "brand:wikidata": "Q5166992", "nsi_id": "cookout-4d2ff4"}, "geometry": {"type": "Point", "coordinates": [-80.6111, 35.48432]}},
{"type": "Feature", "id": "zQdb6L-RnzqtgYiHvG0Ay3BoLX0=", "properties": {"ref": "1605", "@spider": "cookout", "amenity": "fast_food", "cuisine": "american", "takeaway": "yes", "addr:full": "311 S. Main Street", "addr:city": "Graham", "addr:state": "NC", "addr:postcode": "27253", "addr:country": "US", "name": "Graham", "opening_hours": "Mo-Th 10:30-03:00; Fr-Sa 10:30-04:00; Su 10:30-03:00", "brand": "Cookout", "brand:wikidata": "Q5166992", "nsi_id": "cookout-4d2ff4"}, "geometry": {"type": "Point", "coordinates": [-79.400842, 36.06448]}},
{"type": "Feature", "id": "FcwIV6pb8JyfIsKcITommkAEKok=", "properties": {"ref": "3317", "@spider": "cookout", "amenity": "fast_food", "cuisine": "american", "takeaway": "yes", "addr:full": "685 W. ACADEMY ST", "addr:city": "RANDLEMAN", "addr:state": "NC", "addr:postcode": "27317", "addr:country": "US", "name": "RANDLEMAN, NC", "opening_hours": "Mo-Th 10:30-03:00; Fr-Sa 10:30-04:00; Su 10:30-03:00", "brand": "Cookout", "brand:wikidata": "Q5166992", "nsi_id": "cookout-4d2ff4"}, "geometry": {"type": "Point", "coordinates": [-79.820088, 35.821808]}},
{"type": "Feature", "id": "nhQRVhLa54sTNzxMP0iuUChx-kU=", "properties": {"ref": "2713", "@spider": "cookout", "amenity": "fast_food", "cuisine": "american", "takeaway": "yes", "addr:full": "107 Legends Drive", "addr:city": "Lebanon", "addr:state": "TN", "addr:postcode": "37087", "addr:country": "US", "name": "Lebanon", "opening_hours": "Mo-Th 10:30-02:00; Fr-Sa 10:30-03:00; Su 10:30-02:00", "brand": "Cookout", "brand:wikidata": "Q5166992", "nsi_id": "cookout-4d2ff4"}, "geometry": {"type": "Point", "coordinates": [-86.293338, 36.188898]}},
{"type": "Feature", "id": "zgPfe1hSU0si8PHrUqNhfIz3rNY=", "properties": {"ref": "444", "@spider": "cookout", "amenity": "fast_food", "cuisine": "american", "takeaway": "yes", "addr:full": "2024 Plank Rd", "addr:city": "Fredericksburg", "addr:state": "VA", "addr:postcode": "22401", "addr:country": "US", "name": "Fredericksburg", "website": "https://www.facebook.com/Cook-Out-Fredericksburg-412856235571181/", "opening_hours": "Mo-Th 10:30-03:30; Fr-Sa 10:30-04:30; Su 10:30-03:30", "brand": "Cookout", "brand:wikidata": "Q5166992", "nsi_id": "cookout-4d2ff4"}, "geometry": {"type": "Point", "coordinates": [-77.494945, 38.295708]}},
{"type": "Feature", "id": "Yvl6q0VHt1-SSKuw_NFXEOX6kFs=", "properties": {"ref": "453", "@spider": "cookout", "amenity": "fast_food", "cuisine": "american", "takeaway": "yes", "addr:full": "10108 Jefferson Davis Hwy", "addr:city": "Fredericksburg", "addr:state": "VA", "addr:postcode": "22407", "addr:country": "US", "name": "Massaponax", "opening_hours": "Mo-Th 10:30-03:00; Fr-Sa 10:30-04:00; Su 10:30-03:00", "brand": "Cookout", "brand:wikidata": "Q5166992", "nsi_id": "cookout-4d2ff4"}, "geometry": {"type": "Point", "coordinates": [-77.506731, 38.223195]}},
{"type": "Feature", "id": "NRlZfCd3KZ4D9pzOCSFPdYotJvY=", "properties": {"ref": "1601", "@spider": "cookout", "amenity": "fast_food", "cuisine": "american", "takeaway": "yes", "addr:full": "2810 East Franklin Blvd.", "addr:city": "Gastonia", "addr:state": "NC", "addr:postcode": "28056", "addr:country": "US", "name": "Franklin Blvd", "opening_hours": "Mo-Th 10:30-02:00; Fr-Sa 10:30-03:30; Su 10:30-02:00", "brand": "Cookout", "brand:wikidata": "Q5166992", "nsi_id": "cookout-4d2ff4"}, "geometry": {"type": "Point", "coordinates": [-81.12998, 35.260405]}},
{"type": "Feature", "id": "smHURcfZI4EC5fl0faYC0_yVtH8=", "properties": {"ref": "2757", "@spider": "cookout", "amenity": "fast_food", "cuisine": "american", "takeaway": "yes", "addr:full": "1255 Mebane Oaks Rd", "addr:city": "Mebane", "addr:state": "NC", "addr:postcode": "27302", "addr:country": "US", "name": "Mebane, NC", "brand": "Cookout", "brand:wikidata": "Q5166992", "nsi_id": "cookout-4d2ff4"}, "geometry": {"type": "Point", "coordinates": [-79.272519, 36.069003]}},
{"type": "Feature", "id": "VYwPqB472UO1iQwHC4OtFRIWIk4=", "properties": {"ref": "1567", "@spider": "cookout", "amenity": "fast_food", "cuisine": "american", "takeaway": "yes", "addr:full": "7771 Gateway Lane NW", "addr:city": "Concord", "addr:state": "NC", "addr:postcode": "28027", "addr:country": "US", "name": "Speedway", "opening_hours": "Mo-Th 10:30-02:00; Fr-Sa 10:30-03:30; Su 10:30-02:00", "brand": "Cookout", "brand:wikidata": "Q5166992", "nsi_id": "cookout-4d2ff4"}, "geometry": {"type": "Point", "coordinates": [-80.711172, 35.367564]}},
{"type": "Feature", "id": "Tvb14ja0klK37zM6nZbSu_iviBE=", "properties": {"ref": "1565", "@spider": "cookout", "amenity": "fast_food", "cuisine": "american", "takeaway": "yes", "addr:full": "280 South Concord Pkwy", "addr:city": "Concord", "addr:state": "NC", "addr:postcode": "28027", "addr:country": "US", "name": "Concord Pkwy", "opening_hours": "Mo-Th 10:30-02:00; Fr-Sa 10:30-03:30; Su 10:30-02:00", "brand": "Cookout", "brand:wikidata": "Q5166992", "nsi_id": "cookout-4d2ff4"}, "geometry": {"type": "Point", "coordinates": [-80.610852, 35.398025]}},
{"type": "Feature", "id": "gJc3tB-y9MyJ6ipG9mKsVVDcR_g=", "properties": {"ref": "1599", "@spider": "cookout", "amenity": "fast_food", "cuisine": "american", "takeaway": "yes", "addr:full": "2113 S. Union Road", "addr:city": "Gastonia", "addr:state": "NC", "addr:postcode": "28054", "addr:country": "US", "name": "Hudson Blvd", "opening_hours": "Mo-Th 10:30-02:00; Fr-Sa 10:30-03:30; Su 10:30-02:00", "brand": "Cookout", "brand:wikidata": "Q5166992", "nsi_id": "cookout-4d2ff4"}, "geometry": {"type": "Point", "coordinates": [-81.171008, 35.23307]}},
{"type": "Feature", "id": "N5CKDNxlJms-XTVRbzaSobQes2k=", "properties": {"ref": "1943", "@spider": "cookout", "amenity": "fast_food", "cuisine": "american", "takeaway": "yes", "addr:full": "4333 Sunset Road", "addr:city": "Charlotte", "addr:state": "NC", "addr:postcode": "28216", "addr:country": "US", "name": "Sunset Road", "opening_hours": "Mo-Th 10:30-03:00; Fr-Sa 10:30-04:00; Su 10:30-03:00", "brand": "Cookout", "brand:wikidata": "Q5166992", "nsi_id": "cookout-4d2ff4"}, "geometry": {"type": "Point", "coordinates": [-80.855552, 35.305918]}},
{"type": "Feature", "id": "M379Cp7waIEbJaWXFNxir9kEQsg=", "properties": {"ref": "1557", "@spider": "cookout", "amenity": "fast_food", "cuisine": "american", "takeaway": "yes", "addr:full": "9705 North Tryon Street", "addr:city": "Charlotte", "addr:state": "NC", "addr:postcode": "28262", "addr:country": "US", "name": "North Tryon", "opening_hours": "Mo-Th 10:30-04:00; Fr-Sa 10:30-05:00; Su 10:30-04:00", "brand": "Cookout", "brand:wikidata": "Q5166992", "nsi_id": "cookout-4d2ff4"}, "geometry": {"type": "Point", "coordinates": [-80.73821, 35.317949]}},
{"type": "Feature", "id": "7-StZEn35lpLmNd8QFYu2XE_vDk=", "properties": {"ref": "1934", "@spider": "cookout", "amenity": "fast_food", "cuisine": "american", "takeaway": "yes", "addr:full": "544 E. Dixie Drive", "addr:city": "Asheboro", "addr:state": "NC", "addr:postcode": "27204", "addr:country": "US", "name": "Dixie Drive", "opening_hours": "Mo-Th 10:30-01:00; Fr-Sa 10:30-03:00; Su 10:30-01:00", "brand": "Cookout", "brand:wikidata": "Q5166992", "nsi_id": "cookout-4d2ff4"}, "geometry": {"type": "Point", "coordinates": [-79.807308, 35.688973]}},
{"type": "Feature", "id": "N5AEnKQLdcoU4rZUzM5u3LRG944=", "properties": {"ref": "1554", "@spider": "cookout", "amenity": "fast_food", "cuisine": "american", "takeaway": "yes", "addr:full": "1513 W Floyd Baker Rd", "addr:city": "Gaffney", "addr:state": "SC", "addr:postcode": "29341", "addr:country": "US", "name": "Gaffney", "website": "https://www.facebook.com/Cook-Out-Gaffney-138524396312094/", "opening_hours": "Mo-Th 10:30-03:00; Fr-Sa 10:30-04:00; Su 10:30-03:00", "brand": "Cookout", "brand:wikidata": "Q5166992", "nsi_id": "cookout-4d2ff4"}, "geometry": {"type": "Point", "coordinates": [-81.662006, 35.089354]}},
{"type": "Feature", "id": "KCgRSZQKBO7QpvU1UOgZwIMYrdQ=", "properties": {"ref": "1944", "@spider": "cookout", "amenity": "fast_food", "cuisine": "american", "takeaway": "yes", "addr:full": "1301 Sugar Creek Road", "addr:city": "Charlotte", "addr:state": "NC", "addr:postcode": "28262", "addr:country": "US", "name": "Sugar Creek", "opening_hours": "Mo-Th 10:30-04:00; Fr-Sa 10:30-05:00; Su 10:30-04:00", "brand": "Cookout", "brand:wikidata": "Q5166992", "nsi_id": "cookout-4d2ff4"}, "geometry": {"type": "Point", "coordinates": [-80.794088, 35.27993]}},
{"type": "Feature", "id": "9e-77shIPeLMHvAUhzqwbssr9Gc=", "properties": {"ref": "3285", "@spider": "cookout", "amenity": "fast_food", "cuisine": "american", "takeaway": "yes", "addr:full": "5161 Z-MAX BLVD", "addr:city": "HARRISBURG", "addr:state": "NC", "addr:postcode": "28075", "addr:country": "US", "name": "Harrisburg NC", "opening_hours": "Mo-Th 10:30-03:00; Fr-Sa 10:30-04:00; Su 10:30-03:00", "brand": "Cookout", "brand:wikidata": "Q5166992", "nsi_id": "cookout-4d2ff4"}, "geometry": {"type": "Point", "coordinates": [-80.6622, 35.32058]}},
{"type": "Feature", "id": "hA-hM1I8ptIFBbOIbyraAhFBpvk=", "properties": {"ref": "1940", "@spider": "cookout", "amenity": "fast_food", "cuisine": "american", "takeaway": "yes", "addr:full": "2540 Freedom Drive", "addr:city": "Charlotte", "addr:state": "NC", "addr:postcode": "28208", "addr:country": "US", "name": "Freedom Drive", "opening_hours": "Mo-Th 10:30-04:00; Fr-Sa 10:30-05:00; Su 10:30-04:00", "brand": "Cookout", "brand:wikidata": "Q5166992", "nsi_id": "cookout-4d2ff4"}, "geometry": {"type": "Point", "coordinates": [-80.881266, 35.237036]}},
{"type": "Feature", "id": "NFmJJlW7_5vwJBUHFlD6v3DGF5s=", "properties": {"ref": "1931", "@spider": "cookout", "amenity": "fast_food", "cuisine": "american", "takeaway": "yes", "addr:full": "2102 Gallatin Pike N", "addr:city": "Madison", "addr:state": "TN", "addr:postcode": "37115", "addr:country": "US", "name": "Madison", "website": "https://www.facebook.com/Cook-Out-Madison-1182279561787622/", "opening_hours": "Mo-Th 10:30-03:00; Fr-Sa 10:30-04:00; Su 10:30-03:00", "brand": "Cookout", "brand:wikidata": "Q5166992", "nsi_id": "cookout-4d2ff4"}, "geometry": {"type": "Point", "coordinates": [-86.691648, 36.30373]}},
{"type": "Feature", "id": "b9zspev-CHTPqoYOlgjDt1xv4oA=", "properties": {"ref": "182", "@spider": "cookout", "amenity": "fast_food", "cuisine": "american", "takeaway": "yes", "addr:full": "1800 Boiling Springs Rd", "addr:city": "Boiling Springs", "addr:state": "SC", "addr:postcode": "29316", "addr:country": "US", "name": "Boiling Springs", "website": "https://www.facebook.com/Cook-Out-Boiling-Springs-210880565700878/", "opening_hours": "Mo-Th 10:30-03:00; Fr-Sa 10:30-04:00; Su 10:30-03:00", "brand": "Cookout", "brand:wikidata": "Q5166992", "nsi_id": "cookout-4d2ff4"}, "geometry": {"type": "Point", "coordinates": [-81.959699, 35.015801]}},
{"type": "Feature", "id": "SbiPXPx2FeMsAMPr2AUphk-uM9g=", "properties": {"ref": "1782", "@spider": "cookout", "amenity": "fast_food", "cuisine": "american", "takeaway": "yes", "addr:full": "4245 Pouncey Tract Rd", "addr:city": "Glen Allen", "addr:state": "VA", "addr:postcode": "23005", "addr:country": "US", "name": "Glen Allen", "opening_hours": "Mo-Th 10:30-03:00; Fr-Sa 10:30-04:00; Su 10:30-03:00", "brand": "Cookout", "brand:wikidata": "Q5166992", "nsi_id": "cookout-4d2ff4"}, "geometry": {"type": "Point", "coordinates": [-77.610536, 37.653915]}},
{"type": "Feature", "id": "Sf3iXdjnycvE8aFETAzFl6mEXcw=", "properties": {"ref": "1942", "@spider": "cookout", "amenity": "fast_food", "cuisine": "american", "takeaway": "yes", "addr:full": "5715 N. Sharon Amity Road", "addr:city": "Charlotte", "addr:state": "NC", "addr:postcode": "28215", "addr:country": "US", "name": "Sharon Amity", "opening_hours": "Mo-Th 10:30-03:00; Fr-Sa 10:30-04:00; Su 10:30-03:00", "brand": "Cookout", "brand:wikidata": "Q5166992", "nsi_id": "cookout-4d2ff4"}, "geometry": {"type": "Point", "coordinates": [-80.738923, 35.234852]}},
{"type": "Feature", "id": "Pkmr6BmyddJRkw2y8CheVk6xvR4=", "properties": {"ref": "2888", "@spider": "cookout", "amenity": "fast_food", "cuisine": "american", "takeaway": "yes", "addr:full": "4374 South Tryon Street", "addr:city": "Charlotte", "addr:state": "NC", "addr:postcode": "28217", "addr:country": "US", "name": "South Tryon", "opening_hours": "Mo-Th 10:30-03:00; Fr-Sa 10:30-04:00; Su 10:30-03:00", "brand": "Cookout", "brand:wikidata": "Q5166992", "nsi_id": "cookout-4d2ff4"}, "geometry": {"type": "Point", "coordinates": [-80.885855, 35.186078]}},
{"type": "Feature", "id": "WVoLeVEnLsPL3BVkGW6PfOof-GA=", "properties": {"ref": "1747", "@spider": "cookout", "amenity": "fast_food", "cuisine": "american", "takeaway": "yes", "addr:full": "1353 W. Wade Hampton Blvd.", "addr:city": "Greer", "addr:state": "SC", "addr:postcode": "29650", "addr:country": "US", "name": "Greer", "opening_hours": "Mo-Th 10:30-03:00; Fr-Sa 10:30-04:00; Su 10:30-03:00", "brand": "Cookout", "brand:wikidata": "Q5166992", "nsi_id": "cookout-4d2ff4"}, "geometry": {"type": "Point", "coordinates": [-82.263367, 34.939838]}},
{"type": "Feature", "id": "q_ZPcmMMtW9WIPUUMI467l-Kg1I=", "properties": {"ref": "205", "@spider": "cookout", "amenity": "fast_food", "cuisine": "american", "takeaway": "yes", "addr:full": "1996 E Main St", "addr:city": "Spartanburg", "addr:state": "SC", "addr:postcode": "29307", "addr:country": "US", "name": "East Main St", "website": "https://www.facebook.com/Cook-Out-Spartanburg-131759956909148/", "opening_hours": "Mo-Th 10:30-02:00; Fr-Sa 10:30-03:30; Su 10:30-02:00", "brand": "Cookout", "brand:wikidata": "Q5166992", "nsi_id": "cookout-4d2ff4"}, "geometry": {"type": "Point", "coordinates": [-81.887726, 34.970926]}},
{"type": "Feature", "id": "GgheaTfLG7a_DuTIrzanK7U0L74=", "properties": {"ref": "434", "@spider": "cookout", "amenity": "fast_food", "cuisine": "american", "takeaway": "yes", "addr:full": "1501 Eastridge Rd", "addr:city": "Henrico", "addr:state": "VA", "addr:postcode": "23229", "addr:country": "US", "name": "East Ridge", "website": "https://www.facebook.com/Cook-Out-East-Ridge-1660135617576757/", "opening_hours": "Mo-Su 10:30-01:00", "brand": "Cookout", "brand:wikidata": "Q5166992", "nsi_id": "cookout-4d2ff4"}, "geometry": {"type": "Point", "coordinates": [-77.562444, 37.601655]}},
{"type": "Feature", "id": "NTtI2sysIaBz7UQtnwvFQVK65nY=", "properties": {"ref": "1941", "@spider": "cookout", "amenity": "fast_food", "cuisine": "american", "takeaway": "yes", "addr:full": "6438 Albemarle Road", "addr:city": "Charlotte", "addr:state": "NC", "addr:postcode": "28212", "addr:country": "US", "name": "Albemarle Road", "opening_hours": "Mo-Th 10:30-02:00; Fr-Sa 10:30-03:00; Su 10:30-02:00", "brand": "Cookout", "brand:wikidata": "Q5166992", "nsi_id": "cookout-4d2ff4"}, "geometry": {"type": "Point", "coordinates": [-80.734894, 35.202054]}},
{"type": "Feature", "id": "oHtFLz40DQ4eE26S9pVU_ioXEqM=", "properties": {"ref": "1784", "@spider": "cookout", "amenity": "fast_food", "cuisine": "american", "takeaway": "yes", "addr:full": "800 England St", "addr:city": "Ashland", "addr:state": "VA", "addr:postcode": "23005", "addr:country": "US", "name": "Ashland", "opening_hours": "Mo-Th 10:30-01:00; Fr-Sa 10:30-03:00; Su 10:30-01:00", "brand": "Cookout", "brand:wikidata": "Q5166992", "nsi_id": "cookout-4d2ff4"}, "geometry": {"type": "Point", "coordinates": [-77.467686, 37.758763]}},
{"type": "Feature", "id": "FMFnMR6swgIW29vTZrHkuUj8_RQ=", "properties": {"ref": "1559", "@spider": "cookout", "amenity": "fast_food", "cuisine": "american", "takeaway": "yes", "addr:full": "13317 York Center Dr.", "addr:city": "Charlotte", "addr:state": "NC", "addr:postcode": "28273", "addr:country": "US", "name": "York Center", "opening_hours": "Mo-Th 10:30-03:30; Fr-Sa 10:30-04:30; Su 10:30-03:30", "brand": "Cookout", "brand:wikidata": "Q5166992", "nsi_id": "cookout-4d2ff4"}, "geometry": {"type": "Point", "coordinates": [-80.949836, 35.12151]}},
{"type": "Feature", "id": "t32iZWgKgoY_-V2tdUCtgTOngTI=", "properties": {"ref": "2553", "@spider": "cookout", "amenity": "fast_food", "cuisine": "american", "takeaway": "yes", "addr:full": "1620 John B White Sr. Blvd.", "addr:city": "Spartanburg", "addr:state": "SC", "addr:postcode": "29301", "addr:country": "US", "name": "John B. White Sr. Blvd.", "brand": "Cookout", "brand:wikidata": "Q5166992", "nsi_id": "cookout-4d2ff4"}, "geometry": {"type": "Point", "coordinates": [-81.97918, 34.923584]}},
{"type": "Feature", "id": "7nWiX9J-CF2NhbXV-B7xNceJBtA=", "properties": {"ref": "186", "@spider": "cookout", "amenity": "fast_food", "cuisine": "american", "takeaway": "yes", "addr:full": "1513 Poinsett Hwy", "addr:city": "Greenville", "addr:state": "SC", "addr:postcode": "29609", "addr:country": "US", "name": "Poinsett", "website": "https://www.facebook.com/Cook-Out-Poinsett-286872238029823/", "opening_hours": "Mo-Th 10:30-03:00; Fr-Sa 10:30-04:00; Su 10:30-03:00", "brand": "Cookout", "brand:wikidata": "Q5166992", "nsi_id": "cookout-4d2ff4"}, "geometry": {"type": "Point", "coordinates": [-82.406007, 34.888712]}},
{"type": "Feature", "id": "5bEJnAYoSgdT0QyjJiEMt9AgCSI=", "properties": {"ref": "414", "@spider": "cookout", "amenity": "fast_food", "cuisine": "american", "takeaway": "yes", "addr:full": "2910 Gallatin Pike", "addr:city": "Nashville", "addr:state": "TN", "addr:postcode": "37216", "addr:country": "US", "name": "Gallatin Pike", "website": "https://www.facebook.com/Cook-Out-Gallatin-Pike-105912529761458/", "opening_hours": "Mo-Th 10:30-03:00; Fr-Sa 10:30-04:00; Su 10:30-03:00", "brand": "Cookout", "brand:wikidata": "Q5166992", "nsi_id": "cookout-4d2ff4"}, "geometry": {"type": "Point", "coordinates": [-86.738112, 36.203339]}},
{"type": "Feature", "id": "DrxGdr03JuDENltP4ASAbFMdbS4=", "properties": {"ref": "1581", "@spider": "cookout", "amenity": "fast_food", "cuisine": "american", "takeaway": "yes", "addr:full": "3624 Hillsborough Road", "addr:city": "Durham", "addr:state": "NC", "addr:postcode": "27707", "addr:country": "US", "name": "Hillsborough Road", "opening_hours": "Mo-Th 10:30-03:30; Fr-Sa 10:30-04:30; Su 10:30-03:30", "brand": "Cookout", "brand:wikidata": "Q5166992", "nsi_id": "cookout-4d2ff4"}, "geometry": {"type": "Point", "coordinates": [-78.954799, 36.023247]}},
{"type": "Feature", "id": "dJFYR6BWMMzR1PrWaHq7i_l0Mhw=", "properties": {"ref": "1577", "@spider": "cookout", "amenity": "fast_food", "cuisine": "american", "takeaway": "yes", "addr:full": "4245 North Roxboro Street", "addr:city": "Durham", "addr:state": "NC", "addr:postcode": "27705", "addr:country": "US", "name": "Roxboro Road", "opening_hours": "Mo-Th 10:30-03:00; Fr-Sa 10:30-04:00; Su 10:30-03:00", "brand": "Cookout", "brand:wikidata": "Q5166992", "nsi_id": "cookout-4d2ff4"}, "geometry": {"type": "Point", "coordinates": [-78.903794, 36.050141]}},
{"type": "Feature", "id": "PY0bRSoU2POiULsEYEWEqtyVakE=", "properties": {"ref": "1657", "@spider": "cookout", "amenity": "fast_food", "cuisine": "american", "takeaway": "yes", "addr:full": "525 E. Industry Dr.", "addr:city": "Oxford", "addr:state": "NC", "addr:postcode": "27565", "addr:country": "US", "name": "Oxford", "opening_hours": "Mo-Th 10:30-03:00; Fr-Sa 10:30-04:00; Su 10:30-03:00", "brand": "Cookout", "brand:wikidata": "Q5166992", "nsi_id": "cookout-4d2ff4"}, "geometry": {"type": "Point", "coordinates": [-78.584446, 36.298627]}},
{"type": "Feature", "id": "NgoRrqo5v3PVNUrkI_XOSzMT5cI=", "properties": {"ref": "441", "@spider": "cookout", "amenity": "fast_food", "cuisine": "american", "takeaway": "yes", "addr:full": "8240 Midlothian Tpke", "addr:city": "Richmond", "addr:state": "VA", "addr:postcode": "23235", "addr:country": "US", "name": "Midlothian Turnpike", "website": "https://www.facebook.com/Cook-Out-Midlothian-Turnpike-794685847347782/", "opening_hours": "Mo-Th 10:30-03:00; Fr-Sa 10:30-04:00; Su 10:30-03:00", "brand": "Cookout", "brand:wikidata": "Q5166992", "nsi_id": "cookout-4d2ff4"}, "geometry": {"type": "Point", "coordinates": [-77.54898, 37.49763]}},
{"type": "Feature", "id": "cZexnNgdQRH_ghqNI6CR5HxpvyU=", "properties": {"ref": "1933", "@spider": "cookout", "amenity": "fast_food", "cuisine": "american", "takeaway": "yes", "addr:full": "707 Leonard Ave", "addr:city": "Albemarle", "addr:state": "NC", "addr:postcode": "28001", "addr:country": "US", "name": "Albemarle", "opening_hours": "Mo-Fr 09:00-05:00", "brand": "Cookout", "brand:wikidata": "Q5166992", "nsi_id": "cookout-4d2ff4"}, "geometry": {"type": "Point", "coordinates": [-80.175374, 35.343087]}},
{"type": "Feature", "id": "xGdpkIN2rLj1xoCYwlm_Vas70uU=", "properties": {"ref": "1723", "@spider": "cookout", "amenity": "fast_food", "cuisine": "american", "takeaway": "yes", "addr:full": "822 25th St", "addr:city": "Cleveland", "addr:state": "TN", "addr:postcode": "37311", "addr:country": "US", "name": "Cleveland", "opening_hours": "Mo-Th 10:30-02:00; Fr-Sa 10:30-03:30; Su 10:30-02:00", "brand": "Cookout", "brand:wikidata": "Q5166992", "nsi_id": "cookout-4d2ff4"}, "geometry": {"type": "Point", "coordinates": [-84.874295, 35.183025]}},
{"type": "Feature", "id": "Gf7OybBwpE5oLc7GDSXJWLfF8zY=", "properties": {"ref": "1561", "@spider": "cookout", "amenity": "fast_food", "cuisine": "american", "takeaway": "yes", "addr:full": "1815 Sardis Rd.", "addr:city": "Charlotte", "addr:state": "NC", "addr:postcode": "28270", "addr:country": "US", "name": "Sardis Rd.", "opening_hours": "Mo-Th 10:30-03:00; Fr-Sa 10:30-04:00; Su 10:30-03:00", "brand": "Cookout", "brand:wikidata": "Q5166992", "nsi_id": "cookout-4d2ff4"}, "geometry": {"type": "Point", "coordinates": [-80.735618, 35.140769]}},
{"type": "Feature", "id": "67LUtYkUhbsc_nvoqVSkfuf63NE=", "properties": {"ref": "435", "@spider": "cookout", "amenity": "fast_food", "cuisine": "american", "takeaway": "yes", "addr:full": "4802 W Broad St", "addr:city": "Richmond", "addr:state": "VA", "addr:postcode": "23230", "addr:country": "US", "name": "Broad St.", "website": "https://www.facebook.com/Cook-Out-Broad-St-237245233135222/", "opening_hours": "Mo-Th 10:30-04:00; Fr-Sa 10:30-05:00; Su 10:30-04:00", "brand": "Cookout", "brand:wikidata": "Q5166992", "nsi_id": "cookout-4d2ff4"}, "geometry": {"type": "Point", "coordinates": [-77.491456, 37.580558]}},
{"type": "Feature", "id": "FoSq94gAnlqYI2nkGjpxO7IoM7I=", "properties": {"ref": "1563", "@spider": "cookout", "amenity": "fast_food", "cuisine": "american", "takeaway": "yes", "addr:full": "10645 Park Road", "addr:city": "Charlotte", "addr:state": "NC", "addr:postcode": "28210", "addr:country": "US", "name": "Pineville", "opening_hours": "Mo-Th 10:30-03:00; Fr-Sa 10:30-04:00; Su 10:30-03:00", "brand": "Cookout", "brand:wikidata": "Q5166992", "nsi_id": "cookout-4d2ff4"}, "geometry": {"type": "Point", "coordinates": [-80.869104, 35.091578]}},
{"type": "Feature", "id": "Uj8gGtkUC2vIWJRedcZSpPBoHOU=", "properties": {"ref": "172", "@spider": "cookout", "amenity": "fast_food", "cuisine": "american", "takeaway": "yes", "addr:full": "1560 Laurens Rd", "addr:city": "Greenville", "addr:state": "SC", "addr:postcode": "29607", "addr:country": "US", "name": "Laurens Rd.", "website": "https://www.facebook.com/Cook-Out-Laurens-Rd-120317818020327/", "opening_hours": "Mo-Th 10:30-03:00; Fr-Sa 10:30-04:00; Su 10:30-03:00", "brand": "Cookout", "brand:wikidata": "Q5166992", "nsi_id": "cookout-4d2ff4"}, "geometry": {"type": "Point", "coordinates": [-82.359711, 34.841603]}},
{"type": "Feature", "id": "AoIadFgaLvEtMGBcDVihnPax9SQ=", "properties": {"ref": "3275", "@spider": "cookout", "amenity": "fast_food", "cuisine": "american", "takeaway": "yes", "addr:full": "450 S ELLIOTT RD", "addr:city": "CHAPEL HIL", "addr:state": "NC", "addr:postcode": "27514", "addr:country": "US", "name": "Chapel Hill", "opening_hours": "Mo-Th 10:30-03:00; Fr-Sa 10:30-04:00; Su 10:30-03:00", "brand": "Cookout", "brand:wikidata": "Q5166992", "nsi_id": "cookout-4d2ff4"}, "geometry": {"type": "Point", "coordinates": [-79.025349, 35.932043]}},
{"type": "Feature", "id": "5-P6xsjLGXNul2LSMCBhanWZXIA=", "properties": {"ref": "1745", "@spider": "cookout", "amenity": "fast_food", "cuisine": "american", "takeaway": "yes", "addr:full": "5146 Calhoun Memorial Hwy", "addr:city": "Easley", "addr:state": "SC", "addr:postcode": "29640", "addr:country": "US", "name": "Easley", "opening_hours": "Mo-Th 10:30-03:00; Fr-Sa 10:30-04:00; Su 10:30-03:00", "brand": "Cookout", "brand:wikidata": "Q5166992", "nsi_id": "cookout-4d2ff4"}, "geometry": {"type": "Point", "coordinates": [-82.557618, 34.824918]}},
{"type": "Feature", "id": "q23wYl3h17Easdx0AWju0lcv7tM=", "properties": {"ref": "1583", "@spider": "cookout", "amenity": "fast_food", "cuisine": "american", "takeaway": "yes", "addr:full": "3119 Shannon Road", "addr:city": "Durham", "addr:state": "NC", "addr:postcode": "27707", "addr:country": "US", "name": "Shannon Rd", "opening_hours": "Mo-Th 10:30-03:30; Fr-Sa 10:30-04:30; Su 10:30-03:30", "brand": "Cookout", "brand:wikidata": "Q5166992", "nsi_id": "cookout-4d2ff4"}, "geometry": {"type": "Point", "coordinates": [-78.954555, 35.966885]}},
{"type": "Feature", "id": "31zRs6dasnZlClFkk51-qRr803o=", "properties": {"ref": "424", "@spider": "cookout", "amenity": "fast_food", "cuisine": "american", "takeaway": "yes", "addr:full": "491 Sam Ridley Pkwy W", "addr:city": "Smyrna", "addr:state": "TN", "addr:postcode": "37167", "addr:country": "US", "name": "Smyrna", "website": "https://www.facebook.com/Cook-Out-Smyrna-1656899611251017/", "opening_hours": "Mo-Th 10:30-03:00; Fr-Sa 10:30-04:00; Su 10:30-03:00", "brand": "Cookout", "brand:wikidata": "Q5166992", "nsi_id": "cookout-4d2ff4"}, "geometry": {"type": "Point", "coordinates": [-86.555816, 35.981469]}},
{"type": "Feature", "id": "ZZh9lEd-KMFXDOvwoBUA4JKCbOM=", "properties": {"ref": "1780", "@spider": "cookout", "amenity": "fast_food", "cuisine": "american", "takeaway": "yes", "addr:full": "1682 Memorial Blvd", "addr:city": "Murfreesboro", "addr:state": "TN", "addr:postcode": "37129", "addr:country": "US", "name": "Memorial Blvd", "opening_hours": "Mo-Th 10:30-03:00; Fr-Sa 10:30-04:00; Su 10:30-03:00", "brand": "Cookout", "brand:wikidata": "Q5166992", "nsi_id": "cookout-4d2ff4"}, "geometry": {"type": "Point", "coordinates": [-86.389058, 35.86486]}},
{"type": "Feature", "id": "LCf9xMNza6obd-FhV0t2bckiXOI=", "properties": {"ref": "412", "@spider": "cookout", "amenity": "fast_food", "cuisine": "american", "takeaway": "yes", "addr:full": "1807 West End Ave", "addr:city": "Nashville", "addr:state": "TN", "addr:postcode": "37203", "addr:country": "US", "name": "West End", "website": "https://www.facebook.com/Cook-Out-West-End-1133425080031406/", "opening_hours": "Mo-Th 10:30-04:00; Fr-Sa 10:30-05:00; Su 10:30-04:00", "brand": "Cookout", "brand:wikidata": "Q5166992", "nsi_id": "cookout-4d2ff4"}, "geometry": {"type": "Point", "coordinates": [-86.796443, 36.152469]}},
{"type": "Feature", "id": "Iq2v4GBnmbTiD-70f2O_aB60aTA=", "properties": {"ref": "1778", "@spider": "cookout", "amenity": "fast_food", "cuisine": "american", "takeaway": "yes", "addr:full": "2892 Wilma Rudolph Blvd", "addr:city": "Clarksville", "addr:state": "TN", "addr:postcode": "37040", "addr:country": "US", "name": "Wilma Rudolph", "opening_hours": "Mo-Th 10:30-03:00; Fr-Sa 10:30-04:00; Su 10:30-03:00", "brand": "Cookout", "brand:wikidata": "Q5166992", "nsi_id": "cookout-4d2ff4"}, "geometry": {"type": "Point", "coordinates": [-87.291589, 36.591625]}},
{"type": "Feature", "id": "3Hlkk2IFr-mlOHl0fmiWyGDtaRc=", "properties": {"ref": "405", "@spider": "cookout", "amenity": "fast_food", "cuisine": "american", "takeaway": "yes", "addr:full": "2919 S Rutherford Blvd", "addr:city": "Murfreesboro", "addr:state": "TN", "addr:postcode": "37130", "addr:country": "US", "name": "S Rutherford Blvd", "website": "https://www.facebook.com/Cook-Out-Murfreesboro-1680462458832605/", "opening_hours": "Mo-Th 10:30-04:00; Fr-Sa 10:30-05:00; Su 10:30-04:00", "brand": "Cookout", "brand:wikidata": "Q5166992", "nsi_id": "cookout-4d2ff4"}, "geometry": {"type": "Point", "coordinates": [-86.35127, 35.831479]}},
{"type": "Feature", "id": "umO_8unLrmsiusuKCba7DpPbmF8=", "properties": {"ref": "160", "@spider": "cookout", "amenity": "fast_food", "cuisine": "american", "takeaway": "yes", "addr:full": "1820 Woodruff Rd", "addr:city": "Greenville", "addr:state": "SC", "addr:postcode": "29607", "addr:country": "US", "name": "Greenville", "website": "https://www.facebook.com/Cook-Out-Woodruff-Rd-286921361518098/", "opening_hours": "Mo-Th 10:30-03:00; Fr-Sa 10:30-04:00; Su 10:30-03:00", "brand": "Cookout", "brand:wikidata": "Q5166992", "nsi_id": "cookout-4d2ff4"}, "geometry": {"type": "Point", "coordinates": [-82.268195, 34.819417]}},
{"type": "Feature", "id": "R_8_GHdNSZydheeVYFiSO6dvzm8=", "properties": {"ref": "1629", "@spider": "cookout", "amenity": "fast_food", "cuisine": "american", "takeaway": "yes", "addr:full": "13703 B Hwy 74", "addr:city": "Indian Trail", "addr:state": "NC", "addr:postcode": "28079", "addr:country": "US", "name": "Indian Trail", "opening_hours": "Mo-Th 10:30-02:00; Fr-Sa 10:30-03:30; Su 10:30-02:00", "brand": "Cookout", "brand:wikidata": "Q5166992", "nsi_id": "cookout-4d2ff4"}, "geometry": {"type": "Point", "coordinates": [-80.661836, 35.085903]}},
{"type": "Feature", "id": "KTaXNi1ZuGt-j9sIK9UUPCQbuL4=", "properties": {"ref": "1719", "@spider": "cookout", "amenity": "fast_food", "cuisine": "american", "takeaway": "yes", "addr:full": "5802 Charlotte Pike", "addr:city": "Nashville", "addr:state": "TN", "addr:postcode": "37209", "addr:country": "US", "name": "Charlotte Pike", "opening_hours": "Mo-Su 10:30-03:00", "brand": "Cookout", "brand:wikidata": "Q5166992", "nsi_id": "cookout-4d2ff4"}, "geometry": {"type": "Point", "coordinates": [-86.861715, 36.149579]}},
{"type": "Feature", "id": "-_tqal4dv-HAzJ64yriualXA5dc=", "properties": {"ref": "3105", "@spider": "cookout", "amenity": "fast_food", "cuisine": "american", "takeaway": "yes", "addr:full": "386 West Butler Rd", "addr:city": "Mauldin", "addr:state": "SC", "addr:postcode": "29662", "addr:country": "US", "name": "MAULDIN", "opening_hours": "Mo-Th 10:30-03:00; Fr-Sa 10:30-04:00; Su 10:30-03:00", "brand": "Cookout", "brand:wikidata": "Q5166992", "nsi_id": "cookout-4d2ff4"}, "geometry": {"type": "Point", "coordinates": [-82.318587, 34.775978]}},
{"type": "Feature", "id": "YvRON5G15KG0FIiPB77Th8xWI3k=", "properties": {"ref": "1553", "@spider": "cookout", "amenity": "fast_food", "cuisine": "american", "takeaway": "yes", "addr:full": "2531 Cherry Rd", "addr:city": "Rock Hill", "addr:state": "SC", "addr:postcode": "29732", "addr:country": "US", "name": "Rock Hill", "website": "https://www.facebook.com/Cook-Out-Rock-Hill-127519780716464/", "opening_hours": "Mo-Th 10:30-03:00; Fr-Sa 10:30-04:00; Su 10:30-03:00", "brand": "Cookout", "brand:wikidata": "Q5166992", "nsi_id": "cookout-4d2ff4"}, "geometry": {"type": "Point", "coordinates": [-80.990596, 34.970997]}},
{"type": "Feature", "id": "vCRN7kswpJ8Vf3bHo3gDefdGKTs=", "properties": {"ref": "451", "@spider": "cookout", "amenity": "fast_food", "cuisine": "american", "takeaway": "yes", "addr:full": "7114 Mechanicsville Turnpike", "addr:city": "Mechanicsville", "addr:state": "VA", "addr:postcode": "23111", "addr:country": "US", "name": "Mechanicsville", "opening_hours": "Mo-Th 10:30-03:00; Fr-Sa 10:30-04:00; Su 10:30-03:00", "brand": "Cookout", "brand:wikidata": "Q5166992", "nsi_id": "cookout-4d2ff4"}, "geometry": {"type": "Point", "coordinates": [-77.344353, 37.611708]}},
{"type": "Feature", "id": "6O7PiCvmHQ8Rf1DxMWsRBDYGC1Y=", "properties": {"ref": "1575", "@spider": "cookout", "amenity": "fast_food", "cuisine": "american", "takeaway": "yes", "addr:full": "1540 S. Miami Blvd.", "addr:city": "Durham", "addr:state": "NC", "addr:postcode": "27703", "addr:country": "US", "name": "Miami Blvd.", "opening_hours": "Mo-Th 10:30-03:00; Fr-Sa 10:30-04:30; Su 10:30-03:00", "brand": "Cookout", "brand:wikidata": "Q5166992", "nsi_id": "cookout-4d2ff4"}, "geometry": {"type": "Point", "coordinates": [-78.838898, 35.95089]}},
{"type": "Feature", "id": "FEWET6Sjx6q5qV4nV9-JBzFHA5M=", "properties": {"ref": "1579", "@spider": "cookout", "amenity": "fast_food", "cuisine": "american", "takeaway": "yes", "addr:full": "2103 Allendown Drive", "addr:city": "Durham", "addr:state": "NC", "addr:postcode": "27713", "addr:country": "US", "name": "RTP", "opening_hours": "Mo-Th 10:30-03:30; Fr-Sa 10:30-04:00; Su 10:30-03:30", "brand": "Cookout", "brand:wikidata": "Q5166992", "nsi_id": "cookout-4d2ff4"}, "geometry": {"type": "Point", "coordinates": [-78.895939, 35.899145]}},
{"type": "Feature", "id": "pN08580COYtnnhvl2kx9SAOGbic=", "properties": {"ref": "1929", "@spider": "cookout", "amenity": "fast_food", "cuisine": "american", "takeaway": "yes", "addr:full": "804 N 2nd St", "addr:city": "Clarksville", "addr:state": "TN", "addr:postcode": "37040", "addr:country": "US", "name": "Clarksville", "website": "https://www.facebook.com/Cook-Out-Clarksville-TN-439263162898051/", "opening_hours": "Mo-Th 10:30-03:00; Fr-Sa 10:30-04:00; Su 10:30-03:00", "brand": "Cookout", "brand:wikidata": "Q5166992", "nsi_id": "cookout-4d2ff4"}, "geometry": {"type": "Point", "coordinates": [-87.365529, 36.540384]}},
{"type": "Feature", "id": "51YGrl36CcHvYknTd_EZtErowvk=", "properties": {"ref": "442", "@spider": "cookout", "amenity": "fast_food", "cuisine": "american", "takeaway": "yes", "addr:full": "4300 S Laburnum Ave", "addr:city": "Richmond", "addr:state": "VA", "addr:postcode": "23231", "addr:country": "US", "name": "Laburnum Ave.", "website": "https://www.facebook.com/Cook-Out-Laburnum-Ave-1027416023946781/", "opening_hours": "Mo-Su 10:30-02:00", "brand": "Cookout", "brand:wikidata": "Q5166992", "nsi_id": "cookout-4d2ff4"}, "geometry": {"type": "Point", "coordinates": [-77.359573, 37.5298]}},
{"type": "Feature", "id": "gvd9aLvg5P-bCzj4BRxz7UHZX98=", "properties": {"ref": "203", "@spider": "cookout", "amenity": "fast_food", "cuisine": "american", "takeaway": "yes", "addr:full": "1055 Tiger Blvd", "addr:city": "Clemson", "addr:state": "SC", "addr:postcode": "29631", "addr:country": "US", "name": "Clemson", "website": "https://www.facebook.com/Cook-Out-Clemson-147001958680461/", "opening_hours": "Mo-Th 10:30-04:00; Fr-Sa 10:30-05:00; Su 10:30-04:00", "brand": "Cookout", "brand:wikidata": "Q5166992", "nsi_id": "cookout-4d2ff4"}, "geometry": {"type": "Point", "coordinates": [-82.838997, 34.692164]}},
{"type": "Feature", "id": "eIhWy4h_GHDynhWp9zE6PIKkDCQ=", "properties": {"ref": "422", "@spider": "cookout", "amenity": "fast_food", "cuisine": "american", "takeaway": "yes", "addr:full": "5390 TN-153", "addr:city": "Chattanooga", "addr:state": "TN", "addr:postcode": "37343", "addr:country": "US", "name": "Hixson", "website": "https://www.facebook.com/Cook-Out-Hixson-TN-1693682747514675/", "opening_hours": "Mo-Th 10:30-02:00; Fr-Sa 10:30-03:00; Su 10:30-02:00", "brand": "Cookout", "brand:wikidata": "Q5166992", "nsi_id": "cookout-4d2ff4"}, "geometry": {"type": "Point", "coordinates": [-85.246395, 35.135998]}},
{"type": "Feature", "id": "mYlMn6WG4X6RTA9y9nHDzJmOrRM=", "properties": {"ref": "1647", "@spider": "cookout", "amenity": "fast_food", "cuisine": "american", "takeaway": "yes", "addr:full": "1410 W. Roosevelt Blvd.", "addr:city": "Monroe", "addr:state": "NC", "addr:postcode": "28110", "addr:country": "US", "name": "Monroe", "opening_hours": "Mo-Th 10:30-02:00; Fr-Sa 10:30-03:30; Su 10:30-02:00", "brand": "Cookout", "brand:wikidata": "Q5166992", "nsi_id": "cookout-4d2ff4"}, "geometry": {"type": "Point", "coordinates": [-80.544469, 34.996662]}},
{"type": "Feature", "id": "Pa4q2Cr2BvtAU3oF9SVJUvvE_R8=", "properties": {"ref": "436", "@spider": "cookout", "amenity": "fast_food", "cuisine": "american", "takeaway": "yes", "addr:full": "618 Boulevard", "addr:city": "Colonial Heights", "addr:state": "VA", "addr:postcode": "23834", "addr:country": "US", "name": "Colonial Heights", "website": "https://www.facebook.com/Cook-Out-Colonial-Heights-100478336722805/", "opening_hours": "Mo-Th 10:30-04:00; Fr-Sa 10:30-05:00; Su 10:30-04:00", "brand": "Cookout", "brand:wikidata": "Q5166992", "nsi_id": "cookout-4d2ff4"}, "geometry": {"type": "Point", "coordinates": [-77.409954, 37.24488]}},
{"type": "Feature", "id": "_JxufJMLe7XQMtyNJdDaX1-8rtU=", "properties": {"ref": "426", "@spider": "cookout", "amenity": "fast_food", "cuisine": "american", "takeaway": "yes", "addr:full": "5001 Brainerd Rd", "addr:city": "Chattanooga", "addr:state": "TN", "addr:postcode": "37421", "addr:country": "US", "name": "Chattanooga", "website": "https://www.facebook.com/Cook-Out-Chattanooga-902930316411570/", "opening_hours": "Mo-Th 10:30-03:00; Fr-Sa 10:30-04:00; Su 10:30-03:00", "brand": "Cookout", "brand:wikidata": "Q5166992", "nsi_id": "cookout-4d2ff4"}, "geometry": {"type": "Point", "coordinates": [-85.205056, 35.017179]}},
{"type": "Feature", "id": "P2S_Lxt-XrJxLNCEf4pWxkw8Jto=", "properties": {"ref": "1667", "@spider": "cookout", "amenity": "fast_food", "cuisine": "american", "takeaway": "yes", "addr:full": "6505 Falls Of Neuse Road", "addr:city": "Raleigh", "addr:state": "NC", "addr:postcode": "27615", "addr:country": "US", "name": "Falls Of Neuse", "opening_hours": "Mo-Th 10:30-03:00; Fr-Sa 10:30-04:00; Su 10:30-03:00", "brand": "Cookout", "brand:wikidata": "Q5166992", "nsi_id": "cookout-4d2ff4"}, "geometry": {"type": "Point", "coordinates": [-78.62227, 35.87161]}},
{"type": "Feature", "id": "3nIousK3rqVA5HuYB62-Aqa5vDc=", "properties": {"ref": "1939", "@spider": "cookout", "amenity": "fast_food", "cuisine": "american", "takeaway": "yes", "addr:full": "1607 Walnut St.", "addr:city": "Cary", "addr:state": "NC", "addr:postcode": "27511", "addr:country": "US", "name": "Walnut St.", "opening_hours": "Mo-Th 10:30-12:00; Fr-Sa 10:30-01:00; Su 10:30-12:00", "brand": "Cookout", "brand:wikidata": "Q5166992", "nsi_id": "cookout-4d2ff4"}, "geometry": {"type": "Point", "coordinates": [-78.748207, 35.76421]}},
{"type": "Feature", "id": "h5mRZTUOZyVUDppvJlcPvEWdpe4=", "properties": {"ref": "196", "@spider": "cookout", "amenity": "fast_food", "cuisine": "american", "takeaway": "yes", "addr:full": "3432 Clemson Blvd", "addr:city": "Anderson", "addr:state": "SC", "addr:postcode": "29621", "addr:country": "US", "name": "Anderson", "website": "https://www.facebook.com/Cook-Out-Anderson-829949843784485/", "opening_hours": "Mo-Th 10:30-03:00; Fr-Sa 10:30-04:00; Su 10:30-03:00", "brand": "Cookout", "brand:wikidata": "Q5166992", "nsi_id": "cookout-4d2ff4"}, "geometry": {"type": "Point", "coordinates": [-82.672697, 34.548821]}},
{"type": "Feature", "id": "BpBO6cPxsbStz9hdO5ZUTUcLZdc=", "properties": {"ref": "3248", "@spider": "cookout", "amenity": "fast_food", "cuisine": "american", "takeaway": "yes", "addr:full": "21 GOLDEN LEAF DR", "addr:city": "LOUISBURG", "addr:state": "NC", "addr:postcode": "27549", "addr:country": "US", "name": "Louisburg", "opening_hours": "Mo-Th 10:30-03:00; Fr-Sa 10:30-04:00; Su 10:30-03:00", "brand": "Cookout", "brand:wikidata": "Q5166992", "nsi_id": "cookout-4d2ff4"}, "geometry": {"type": "Point", "coordinates": [-78.307332, 36.084656]}},
{"type": "Feature", "id": "XaRj_L-aB8Ris0LZWdYwfHA-BX0=", "properties": {"ref": "1663", "@spider": "cookout", "amenity": "fast_food", "cuisine": "american", "takeaway": "yes", "addr:full": "3930 Western Blvd.", "addr:city": "Raleigh", "addr:state": "NC", "addr:postcode": "27606", "addr:country": "US", "name": "Western Blvd.", "opening_hours": "Mo-We 10:30-04:00; Th 10:30-04:30; Fr-Sa 10:30-05:00; Su 10:30-04:00", "brand": "Cookout", "brand:wikidata": "Q5166992", "nsi_id": "cookout-4d2ff4"}, "geometry": {"type": "Point", "coordinates": [-78.693111, 35.784796]}},
{"type": "Feature", "id": "M6-dGm5Ct71l2kbzQ_rsGNQuLOc=", "properties": {"ref": "1677", "@spider": "cookout", "amenity": "fast_food", "cuisine": "american", "takeaway": "yes", "addr:full": "1906 S. Horner Blvd.", "addr:city": "Sanford", "addr:state": "NC", "addr:postcode": "27330", "addr:country": "US", "name": "South Horner", "opening_hours": "Mo-Th 10:30-02:00; Fr-Sa 10:30-03:30; Su 10:30-02:00", "brand": "Cookout", "brand:wikidata": "Q5166992", "nsi_id": "cookout-4d2ff4"}, "geometry": {"type": "Point", "coordinates": [-79.155423, 35.464947]}},
{"type": "Feature", "id": "0nx8FtRAbjekYEI9dhxYG39Z-r8=", "properties": {"ref": "1731", "@spider": "cookout", "amenity": "fast_food", "cuisine": "american", "takeaway": "yes", "addr:full": "920 Battlefield Pkwy", "addr:city": "Fort Oglethorpe", "addr:state": "GA", "addr:postcode": "30742", "addr:country": "US", "name": "Fort Oglethorpe", "opening_hours": "Mo-Th 10:30-02:00; Fr-Sa 10:30-03:00; Su 10:30-02:00", "brand": "Cookout", "brand:wikidata": "Q5166992", "nsi_id": "cookout-4d2ff4"}, "geometry": {"type": "Point", "coordinates": [-85.246235, 34.952837]}},
{"type": "Feature", "id": "yIWYn5PS2NpjjiC02ajYAGlh9PE=", "properties": {"ref": "1661", "@spider": "cookout", "amenity": "fast_food", "cuisine": "american", "takeaway": "yes", "addr:full": "3244 Capital Blvd.", "addr:city": "Raleigh", "addr:state": "NC", "addr:postcode": "27604", "addr:country": "US", "name": "Capital Blvd.", "opening_hours": "Mo-Th 10:30-03:00; Fr-Sa 10:30-04:00; Su 10:30-03:00", "brand": "Cookout", "brand:wikidata": "Q5166992", "nsi_id": "cookout-4d2ff4"}, "geometry": {"type": "Point", "coordinates": [-78.587262, 35.823623]}},
{"type": "Feature", "id": "Nn8yVgeAFicckFh6j8uAsq5jjCs=", "properties": {"ref": "1665", "@spider": "cookout", "amenity": "fast_food", "cuisine": "american", "takeaway": "yes", "addr:full": "1201 New Bern Avenue", "addr:city": "Raleigh", "addr:state": "NC", "addr:postcode": "27610", "addr:country": "US", "name": "New Bern Ave", "opening_hours": "Mo-Th 10:30-03:30; Fr-Sa 10:30-04:30; Su 10:30-03:30", "brand": "Cookout", "brand:wikidata": "Q5166992", "nsi_id": "cookout-4d2ff4"}, "geometry": {"type": "Point", "coordinates": [-78.621883, 35.780203]}},
{"type": "Feature", "id": "Qvjlt3RYdR-Wc_SSwyTfyHg4pfY=", "properties": {"ref": "1659", "@spider": "cookout", "amenity": "fast_food", "cuisine": "american", "takeaway": "yes", "addr:full": "3222 S. Wilmington Street", "addr:city": "Raleigh", "addr:state": "NC", "addr:postcode": "27603", "addr:country": "US", "name": "South Wilmington", "opening_hours": "Mo-Th 10:30-03:00; Fr-Sa 10:30-04:00; Su 10:30-03:00", "brand": "Cookout", "brand:wikidata": "Q5166992", "nsi_id": "cookout-4d2ff4"}, "geometry": {"type": "Point", "coordinates": [-78.6508, 35.736681]}},
{"type": "Feature", "id": "prwZBTkcJZhJjR9803_pyNDnsD4=", "properties": {"ref": "3223", "@spider": "cookout", "amenity": "fast_food", "cuisine": "american", "takeaway": "yes", "addr:full": "1262 Hwy 9 Bypass W", "addr:city": "Lancaster", "addr:state": "sc", "addr:postcode": "29720", "addr:country": "US", "name": "Lancaster, SC", "opening_hours": "Mo-Th 10:30-03:00; Fr-Sa 10:30-04:00; Su 10:30-03:00", "brand": "Cookout", "brand:wikidata": "Q5166992", "nsi_id": "cookout-4d2ff4"}, "geometry": {"type": "Point", "coordinates": [-80.799752, 34.733716]}},
{"type": "Feature", "id": "nQC1EgQFk-0OkKjZg9P1oS9dN9I=", "properties": {"ref": "1729", "@spider": "cookout", "amenity": "fast_food", "cuisine": "american", "takeaway": "yes", "addr:full": "1257 Glenwood Ave", "addr:city": "Dalton", "addr:state": "GA", "addr:postcode": "30721", "addr:country": "US", "name": "Dalton", "opening_hours": "Mo-Th 10:30-02:00; Fr-Sa 10:30-03:00; Su 10:30-02:00", "brand": "Cookout", "brand:wikidata": "Q5166992", "nsi_id": "cookout-4d2ff4"}, "geometry": {"type": "Point", "coordinates": [-84.962704, 34.794242]}},
{"type": "Feature", "id": "VtShtXOVk4_LGBJRqkW3OJOmlV8=", "properties": {"ref": "3113", "@spider": "cookout", "amenity": "fast_food", "cuisine": "american", "takeaway": "yes", "addr:full": "1151 North Smithfield Rd", "addr:city": "Knightdale", "addr:state": "NC", "addr:postcode": "27545", "addr:country": "US", "name": "KNIGHTDALE", "opening_hours": "Mo-Th 10:30-03:00; Fr-Sa 10:30-04:00; Su 10:30-03:00", "brand": "Cookout", "brand:wikidata": "Q5166992", "nsi_id": "cookout-4d2ff4"}, "geometry": {"type": "Point", "coordinates": [-78.487628, 35.797191]}},
{"type": "Feature", "id": "oLalaZ5-J5gqSC8bShtdItgGCjA=", "properties": {"ref": "3229", "@spider": "cookout", "amenity": "fast_food", "cuisine": "american", "takeaway": "yes", "addr:full": "4001 JONES SAUSAGE RD", "addr:city": "GARNER", "addr:state": "NC", "addr:postcode": "27529", "addr:country": "US", "name": "Jones Sausage", "opening_hours": "Mo-Th 10:30-03:00; Fr-Sa 10:30-04:00; Su 10:30-03:00", "brand": "Cookout", "brand:wikidata": "Q5166992", "nsi_id": "cookout-4d2ff4"}, "geometry": {"type": "Point", "coordinates": [-78.577888, 35.727592]}},
{"type": "Feature", "id": "170Q7EouhsTwQ8Ee_g9WcRD7qYw=", "properties": {"ref": "1595", "@spider": "cookout", "amenity": "fast_food", "cuisine": "american", "takeaway": "yes", "addr:full": "1433 N. Main Street", "addr:city": "Fuquay Varina", "addr:state": "NC", "addr:postcode": "27526", "addr:country": "US", "name": "Fuquay Varina", "opening_hours": "Mo-Th 10:30-02:00; Fr-Sa 10:30-03:30; Su 10:30-02:00", "brand": "Cookout", "brand:wikidata": "Q5166992", "nsi_id": "cookout-4d2ff4"}, "geometry": {"type": "Point", "coordinates": [-78.771039, 35.593884]}},
{"type": "Feature", "id": "mZle4tkXjWIPS5Qa0a2y2mWdGao=", "properties": {"ref": "428", "@spider": "cookout", "amenity": "fast_food", "cuisine": "american", "takeaway": "yes", "addr:full": "109 Mathis Dr", "addr:city": "Dickson", "addr:state": "TN", "addr:postcode": "37055", "addr:country": "US", "name": "Dickson", "website": "https://www.facebook.com/Cook-Out-Dickson-TN-618055724999032/", "opening_hours": "Mo-Th 10:30-02:00; Fr-Sa 10:30-03:30; Su 10:30-02:00", "brand": "Cookout", "brand:wikidata": "Q5166992", "nsi_id": "cookout-4d2ff4"}, "geometry": {"type": "Point", "coordinates": [-87.37619, 36.075961]}},
{"type": "Feature", "id": "KnwxxAofElOGcxXgUZj_tdBhoFc=", "properties": {"ref": "1683", "@spider": "cookout", "amenity": "fast_food", "cuisine": "american", "takeaway": "yes", "addr:full": "11000 US 15/501", "addr:city": "Southern Pines", "addr:state": "NC", "addr:postcode": "28387", "addr:country": "US", "name": "Southern Pines", "opening_hours": "Mo-Th 10:30-02:30; Fr-Sa 10:30-03:30; Su 10:30-02:30", "brand": "Cookout", "brand:wikidata": "Q5166992", "nsi_id": "cookout-4d2ff4"}, "geometry": {"type": "Point", "coordinates": [-79.419394, 35.158889]}},
{"type": "Feature", "id": "2AnM2m3_GYuviqYhUyVrPJ2FBfE=", "properties": {"ref": "3296", "@spider": "cookout", "amenity": "fast_food", "cuisine": "american", "takeaway": "yes", "addr:full": "1200 N ARENDELL AVE", "addr:city": "Zebulon", "addr:state": "NC", "addr:postcode": "27597", "addr:country": "US", "name": "ZEBULON, NC", "opening_hours": "Mo-Th 10:30-03:00; Fr-Sa 10:30-04:00; Su 10:30-03:00", "brand": "Cookout", "brand:wikidata": "Q5166992", "nsi_id": "cookout-4d2ff4"}, "geometry": {"type": "Point", "coordinates": [-78.32191, 35.836758]}},
{"type": "Feature", "id": "OPjeRoAXt_ZZTPCZOjxemX37Ok8=", "properties": {"ref": "1669", "@spider": "cookout", "amenity": "fast_food", "cuisine": "american", "takeaway": "yes", "addr:full": "1505 Julian R Allsbrook Hwy.", "addr:city": "Roanoke Rapids", "addr:state": "NC", "addr:postcode": "27870", "addr:country": "US", "name": "Roanoke Rapids", "opening_hours": "Mo-Th 10:30-03:00; Fr-Sa 10:30-04:00; Su 10:30-03:00", "brand": "Cookout", "brand:wikidata": "Q5166992", "nsi_id": "cookout-4d2ff4"}, "geometry": {"type": "Point", "coordinates": [-77.636767, 36.433253]}},
{"type": "Feature", "id": "Iz14weVbjTvc5PpqSbpuDqZ8jSs=", "properties": {"ref": "1597", "@spider": "cookout", "amenity": "fast_food", "cuisine": "american", "takeaway": "yes", "addr:full": "102 Bratton Drive", "addr:city": "Garner", "addr:state": "NC", "addr:postcode": "27529", "addr:country": "US", "name": "Garner", "opening_hours": "Mo-Th 10:30-02:00; Fr-Sa 10:30-03:30; Su 10:30-02:00", "brand": "Cookout", "brand:wikidata": "Q5166992", "nsi_id": "cookout-4d2ff4"}, "geometry": {"type": "Point", "coordinates": [-78.558437, 35.61053]}},
{"type": "Feature", "id": "0p6WFsukNAx-a75MPRYg5HDNRTE=", "properties": {"ref": "1864", "@spider": "cookout", "amenity": "fast_food", "cuisine": "american", "takeaway": "yes", "addr:full": "1240 E Broad St.", "addr:city": "Rockingham", "addr:state": "NC", "addr:postcode": "28379", "addr:country": "US", "name": "Rockingham", "opening_hours": "Mo-Th 10:30-03:00; Fr-Sa 10:30-04:00; Su 10:30-03:00", "brand": "Cookout", "brand:wikidata": "Q5166992", "nsi_id": "cookout-4d2ff4"}, "geometry": {"type": "Point", "coordinates": [-79.752399, 34.922665]}},
{"type": "Feature", "id": "Q-CfeUyIYHoHMYYaSEFFMw8Z9Jk=", "properties": {"ref": "3277", "@spider": "cookout", "amenity": "fast_food", "cuisine": "american", "takeaway": "yes", "addr:full": "102 E. EVANS DR", "addr:city": "Nashville", "addr:state": "NC", "addr:postcode": "27856", "addr:country": "US", "name": "Nashville NC", "opening_hours": "Mo-Th 10:30-03:00; Fr-Sa 10:30-04:00; Su 10:30-03:00", "brand": "Cookout", "brand:wikidata": "Q5166992", "nsi_id": "cookout-4d2ff4"}, "geometry": {"type": "Point", "coordinates": [-77.972739, 35.979119]}},
{"type": "Feature", "id": "_-ZbraY9-IggjQgszh1F4IhLTCM=", "properties": {"ref": "465", "@spider": "cookout", "amenity": "fast_food", "cuisine": "american", "takeaway": "yes", "addr:full": "719 Jesse Jewell Pkwy SW", "addr:city": "Gainesville", "addr:state": "GA", "addr:postcode": "30501", "addr:country": "US", "name": "Gainesville", "website": "https://www.facebook.com/Cook-Out-Gainesville-1610774965824652/", "opening_hours": "Mo-Th 10:30-02:00; Fr-Sa 10:30-03:00; Su 10:30-02:00", "brand": "Cookout", "brand:wikidata": "Q5166992", "nsi_id": "cookout-4d2ff4"}, "geometry": {"type": "Point", "coordinates": [-83.818822, 34.300642]}},
{"type": "Feature", "id": "YmBc-eJc7HxLGecnu15GXYQMLzw=", "properties": {"ref": "174", "@spider": "cookout", "amenity": "fast_food", "cuisine": "american", "takeaway": "yes", "addr:full": "1821 Hwy 72", "addr:city": "Greenwood", "addr:state": "SC", "addr:postcode": "29649", "addr:country": "US", "name": "Greenwood", "website": "https://www.facebook.com/Cook-Out-Greenwood-533714506640248/", "opening_hours": "Mo-Th 10:30-03:00; Fr-Sa 10:30-04:00; Su 10:30-03:00", "brand": "Cookout", "brand:wikidata": "Q5166992", "nsi_id": "cookout-4d2ff4"}, "geometry": {"type": "Point", "coordinates": [-82.164485, 34.217788]}},
{"type": "Feature", "id": "F5fB8EKz6khmOFbcmIILEgA1zgM=", "properties": {"ref": "1685", "@spider": "cookout", "amenity": "fast_food", "cuisine": "american", "takeaway": "yes", "addr:full": "406 Lillington HWY", "addr:city": "Spring Lake", "addr:state": "NC", "addr:postcode": "28390", "addr:country": "US", "name": "Spring Lake", "opening_hours": "Mo-Th 10:30-03:00; Fr-Sa 10:30-04:00; Su 10:30-03:00", "brand": "Cookout", "brand:wikidata": "Q5166992", "nsi_id": "cookout-4d2ff4"}, "geometry": {"type": "Point", "coordinates": [-78.971113, 35.170778]}},
{"type": "Feature", "id": "f-dudvUx8mw0qgDTf3dXHxRYGeU=", "properties": {"ref": "427", "@spider": "cookout", "amenity": "fast_food", "cuisine": "american", "takeaway": "yes", "addr:full": "1660 Richmond Rd", "addr:city": "Williamsburg", "addr:state": "VA", "addr:postcode": "23185", "addr:country": "US", "name": "Williamsburg", "website": "https://www.facebook.com/Cook-Out-Williamsburg-360514104075416/", "opening_hours": "Mo-Th 10:30-03:00; Fr-Sa 10:30-04:00; Su 10:30-03:00", "brand": "Cookout", "brand:wikidata": "Q5166992", "nsi_id": "cookout-4d2ff4"}, "geometry": {"type": "Point", "coordinates": [-76.726261, 37.295709]}},
{"type": "Feature", "id": "HJfS7pbJI6DhwL8QKmPC7Sp87U4=", "properties": {"ref": "2953", "@spider": "cookout", "amenity": "fast_food", "cuisine": "american", "takeaway": "yes", "addr:full": "610 East Hwy 53", "addr:city": "Calhoun", "addr:state": "GA", "addr:postcode": "30701", "addr:country": "US", "name": "Calhoun", "opening_hours": "Mo-Th 10:30-03:00; Fr-Sa 10:30-04:00; Su 10:30-03:00", "brand": "Cookout", "brand:wikidata": "Q5166992", "nsi_id": "cookout-4d2ff4"}, "geometry": {"type": "Point", "coordinates": [-84.924881, 34.47452]}},
{"type": "Feature", "id": "nka6iaoih4O6mLadYsoVqEbMA34=", "properties": {"ref": "1671", "@spider": "cookout", "amenity": "fast_food", "cuisine": "american", "takeaway": "yes", "addr:full": "1020 N. Wesleyan Blvd.", "addr:city": "Rocky Mount", "addr:state": "NC", "addr:postcode": "27801", "addr:country": "US", "name": "Rocky Mount", "opening_hours": "Mo-Th 10:30-03:00; Fr-Sa 10:30-04:00; Su 10:30-03:00", "brand": "Cookout", "brand:wikidata": "Q5166992", "nsi_id": "cookout-4d2ff4"}, "geometry": {"type": "Point", "coordinates": [-77.80938, 35.97121]}},
{"type": "Feature", "id": "s0aNK-DZHOUqNkZV4LnvkCArW1I=", "properties": {"ref": "469", "@spider": "cookout", "amenity": "fast_food", "cuisine": "american", "takeaway": "yes", "addr:full": "205 N 12th St", "addr:city": "Murray", "addr:state": "KY", "addr:postcode": "42071", "addr:country": "US", "name": "Murray", "website": "https://www.facebook.com/Cook-Out-Murray-1681577158746368/", "opening_hours": "Mo-Th 10:30-03:00; Fr-Sa 10:30-04:00; Su 10:30-03:00", "brand": "Cookout", "brand:wikidata": "Q5166992", "nsi_id": "cookout-4d2ff4"}, "geometry": {"type": "Point", "coordinates": [-88.315197, 36.612765]}},
{"type": "Feature", "id": "PW58tmkHEjOY4Lrk6tCFwDUN2SI=", "properties": {"ref": "396", "@spider": "cookout", "amenity": "fast_food", "cuisine": "american", "takeaway": "yes", "addr:full": "3626 Mundy Mill Rd", "addr:city": "Gainesville", "addr:state": "GA", "addr:postcode": "30504", "addr:country": "US", "name": "Oakwood", "website": "https://www.facebook.com/Cook-Out-Oakwood-GA-159392357730852/", "opening_hours": "Mo-Th 10:30-01:00; Fr-Sa 10:30-03:00; Su 10:30-01:00", "brand": "Cookout", "brand:wikidata": "Q5166992", "nsi_id": "cookout-4d2ff4"}, "geometry": {"type": "Point", "coordinates": [-83.867004, 34.228393]}},
{"type": "Feature", "id": "FSoTLaqkyt4WjY_wgsExK62hajM=", "properties": {"ref": "1573", "@spider": "cookout", "amenity": "fast_food", "cuisine": "american", "takeaway": "yes", "addr:full": "1723 W Cumberland St.", "addr:city": "Dunn", "addr:state": "NC", "addr:postcode": "28334", "addr:country": "US", "name": "Dunn", "opening_hours": "Mo-Th 10:30-03:00; Fr-Sa 10:30-04:00; Su 10:30-03:00", "brand": "Cookout", "brand:wikidata": "Q5166992", "nsi_id": "cookout-4d2ff4"}, "geometry": {"type": "Point", "coordinates": [-78.627857, 35.316462]}},
{"type": "Feature", "id": "rg244d6zkj9pzmvid9UheHT_Bng=", "properties": {"ref": "1679", "@spider": "cookout", "amenity": "fast_food", "cuisine": "american", "takeaway": "yes", "addr:full": "603 Ricks Road", "addr:city": "Selma", "addr:state": "NC", "addr:postcode": "27576", "addr:country": "US", "name": "Selma", "opening_hours": "Mo-Th 10:30-02:00; Fr-Sa 10:30-03:30; Su 10:30-02:00", "brand": "Cookout", "brand:wikidata": "Q5166992", "nsi_id": "cookout-4d2ff4"}, "geometry": {"type": "Point", "coordinates": [-78.293086, 35.522245]}},
{"type": "Feature", "id": "neSyY-O-l6evDsqfLBIMTbCl2NQ=", "properties": {"ref": "1589", "@spider": "cookout", "amenity": "fast_food", "cuisine": "american", "takeaway": "yes", "addr:full": "6903 Cliffdale Road", "addr:city": "Fayetteville", "addr:state": "NC", "addr:postcode": "28314", "addr:country": "US", "name": "Cliffdale Road", "opening_hours": "Mo-Th 10:30-03:00; Fr-Sa 10:30-04:00; Su 10:30-03:00", "brand": "Cookout", "brand:wikidata": "Q5166992", "nsi_id": "cookout-4d2ff4"}, "geometry": {"type": "Point", "coordinates": [-79.013021, 35.060037]}},
{"type": "Feature", "id": "IPMK-rR1IXksDjAG2aUPMKnVsWM=", "properties": {"ref": "1593", "@spider": "cookout", "amenity": "fast_food", "cuisine": "american", "takeaway": "yes", "addr:full": "3745 Ramsey St.", "addr:city": "Fayetteville", "addr:state": "NC", "addr:postcode": "28311", "addr:country": "US", "name": "Ramsey St.", "opening_hours": "Mo-Th 10:30-03:00; Fr-Sa 10:30-04:00; Su 10:30-03:00", "brand": "Cookout", "brand:wikidata": "Q5166992", "nsi_id": "cookout-4d2ff4"}, "geometry": {"type": "Point", "coordinates": [-78.88, 35.111985]}},
{"type": "Feature", "id": "vXSWi5YV0D-M2VTNIH3JPZYemuE=", "properties": {"ref": "1699", "@spider": "cookout", "amenity": "fast_food", "cuisine": "american", "takeaway": "yes", "addr:full": "2925 Raleigh Rd Parkway", "addr:city": "Wilson", "addr:state": "NC", "addr:postcode": "27896", "addr:country": "US", "name": "Wilson", "opening_hours": "Mo-Th 10:30-03:00; Fr-Sa 10:30-04:00; Su 10:30-03:00", "brand": "Cookout", "brand:wikidata": "Q5166992", "nsi_id": "cookout-4d2ff4"}, "geometry": {"type": "Point", "coordinates": [-77.956597, 35.738166]}},
{"type": "Feature", "id": "VdNbApMfGYdBZ9lm1zP1uGN7ugc=", "properties": {"ref": "446", "@spider": "cookout", "amenity": "fast_food", "cuisine": "american", "takeaway": "yes", "addr:full": "7065 George Washington Memorial Hwy", "addr:city": "Gloucester Courthouse", "addr:state": "VA", "addr:postcode": "23061", "addr:country": "US", "name": "Gloucester", "website": "https://www.facebook.com/Cook-Out-Gloucester-485876331592721/", "opening_hours": "Mo-Th 10:30-03:00; Fr-Sa 10:30-04:00; Su 10:30-03:00", "brand": "Cookout", "brand:wikidata": "Q5166992", "nsi_id": "cookout-4d2ff4"}, "geometry": {"type": "Point", "coordinates": [-76.52796, 37.392858]}},
{"type": "Feature", "id": "UCliqL0CCF3hrjix-BzG98YtScE=", "properties": {"ref": "1639", "@spider": "cookout", "amenity": "fast_food", "cuisine": "american", "takeaway": "yes", "addr:full": "1304 Scotland Crossing Dr.", "addr:city": "Laurinburg", "addr:state": "NC", "addr:postcode": "28352", "addr:country": "US", "name": "Laurinburg", "opening_hours": "Mo-Th 10:30-02:00; Fr-Sa 10:30-03:30; Su 10:30-02:00", "brand": "Cookout", "brand:wikidata": "Q5166992", "nsi_id": "cookout-4d2ff4"}, "geometry": {"type": "Point", "coordinates": [-79.482258, 34.755906]}},
{"type": "Feature", "id": "CRif-M2-BAj2pVeVGlmPHALHIKA=", "properties": {"ref": "1591", "@spider": "cookout", "amenity": "fast_food", "cuisine": "american", "takeaway": "yes", "addr:full": "2921 Owen Drive", "addr:city": "Fayetteville", "addr:state": "NC", "addr:postcode": "28306", "addr:country": "US", "name": "Owen Drive", "opening_hours": "Mo-Th 10:30-03:00; Fr-Sa 10:30-04:00; Su 10:30-03:00", "brand": "Cookout", "brand:wikidata": "Q5166992", "nsi_id": "cookout-4d2ff4"}, "geometry": {"type": "Point", "coordinates": [-78.89975, 35.019588]}},
{"type": "Feature", "id": "NOAByaITwB70Lggs7D_cjQW_JYY=", "properties": {"ref": "1753", "@spider": "cookout", "amenity": "fast_food", "cuisine": "american", "takeaway": "yes", "addr:full": "109 HWY 15-401 Bypass W", "addr:city": "Bennettsville", "addr:state": "SC", "addr:postcode": "29512", "addr:country": "US", "name": "Bennettsville", "opening_hours": "Mo-Th 10:30-02:00; Fr-Sa 10:30-03:30; Su 10:30-02:00", "brand": "Cookout", "brand:wikidata": "Q5166992", "nsi_id": "cookout-4d2ff4"}, "geometry": {"type": "Point", "coordinates": [-79.675567, 34.610597]}},
{"type": "Feature", "id": "_tSLiNOto1bgi3R3nrscRjiHUo4=", "properties": {"ref": "3240", "@spider": "cookout", "amenity": "fast_food", "cuisine": "american", "takeaway": "yes", "addr:full": "920 US-1", "addr:city": "LUGOFF", "addr:state": "SC", "addr:postcode": "29078", "addr:country": "US", "name": "Lugoff SC", "opening_hours": "Mo-Th 10:30-03:00; Fr-Sa 10:30-04:00; Su 10:30-03:00", "brand": "Cookout", "brand:wikidata": "Q5166992", "nsi_id": "cookout-4d2ff4"}, "geometry": {"type": "Point", "coordinates": [-80.679812, 34.226037]}},
{"type": "Feature", "id": "YzY97wjC4ww_NVORdphN-vGN-ig=", "properties": {"ref": "3137", "@spider": "cookout", "amenity": "fast_food", "cuisine": "american", "takeaway": "yes", "addr:full": "104 River Oaks Dr", "addr:city": "Tarboro", "addr:state": "NC", "addr:postcode": "27886", "addr:country": "US", "name": "TARBORO", "opening_hours": "Mo-Th 10:30-03:00; Fr-Sa 10:30-04:00; Su 10:30-03:00", "brand": "Cookout", "brand:wikidata": "Q5166992", "nsi_id": "cookout-4d2ff4"}, "geometry": {"type": "Point", "coordinates": [-77.547525, 35.882983]}},
{"type": "Feature", "id": "-GkvufOJ50qFFW4P6gVAvfvu3sM=", "properties": {"ref": "413", "@spider": "cookout", "amenity": "fast_food", "cuisine": "american", "takeaway": "yes", "addr:full": "12471 Jefferson Ave", "addr:city": "Newport News", "addr:state": "VA", "addr:postcode": "23602", "addr:country": "US", "name": "Jefferson Ave.", "website": "https://www.facebook.com/Cook-Out-Jefferson-Ave-251065428348628/", "opening_hours": "Mo-Th 10:30-03:00; Fr-Sa 10:30-04:00; Su 10:30-03:00", "brand": "Cookout", "brand:wikidata": "Q5166992", "nsi_id": "cookout-4d2ff4"}, "geometry": {"type": "Point", "coordinates": [-76.509576, 37.124264]}},
{"type": "Feature", "id": "DdjCLHuMAfvEGEqavHJQI74L63g=", "properties": {"ref": "200", "@spider": "cookout", "amenity": "fast_food", "cuisine": "american", "takeaway": "yes", "addr:full": "626 5th St", "addr:city": "Hartsville", "addr:state": "SC", "addr:postcode": "29550", "addr:country": "US", "name": "Hartsville", "website": "https://www.facebook.com/Cook-Out-Hartsville-137199473032416/", "opening_hours": "Mo-Th 10:30-02:00; Fr-Sa 10:30-03:30; Su 10:30-02:00", "brand": "Cookout", "brand:wikidata": "Q5166992", "nsi_id": "cookout-4d2ff4"}, "geometry": {"type": "Point", "coordinates": [-80.077043, 34.381406]}},
{"type": "Feature", "id": "MOhY9R61S_cFd3_IkaB0JDtNWsE=", "properties": {"ref": "1733", "@spider": "cookout", "amenity": "fast_food", "cuisine": "american", "takeaway": "yes", "addr:full": "46 W May Street", "addr:city": "Winder", "addr:state": "GA", "addr:postcode": "30680", "addr:country": "US", "name": "Winder", "opening_hours": "Mo-Th 10:30-02:00; Fr-Sa 10:30-03:00; Su 10:30-02:00", "brand": "Cookout", "brand:wikidata": "Q5166992", "nsi_id": "cookout-4d2ff4"}, "geometry": {"type": "Point", "coordinates": [-83.725963, 33.991909]}},
{"type": "Feature", "id": "RWrtdrtuEpMRJwrXwbyoKuUwRUA=", "properties": {"ref": "392", "@spider": "cookout", "amenity": "fast_food", "cuisine": "american", "takeaway": "yes", "addr:full": "1917 W Broad St", "addr:city": "Athens", "addr:state": "GA", "addr:postcode": "30606", "addr:country": "US", "name": "UGA", "website": "https://www.facebook.com/Cook-Out-UGA-311461302345839/", "opening_hours": "Mo-Th 10:30-03:00; Fr-Sa 10:30-04:00; Su 10:30-03:00", "brand": "Cookout", "brand:wikidata": "Q5166992", "nsi_id": "cookout-4d2ff4"}, "geometry": {"type": "Point", "coordinates": [-83.401271, 33.95132]}},
{"type": "Feature", "id": "nEEqZpZOKmJh7Dl3EtDVM2pQP8o=", "properties": {"ref": "466", "@spider": "cookout", "amenity": "fast_food", "cuisine": "american", "takeaway": "yes", "addr:full": "11475 Haynes Bridge Rd", "addr:city": "Alpharetta", "addr:state": "GA", "addr:postcode": "30009", "addr:country": "US", "name": "Alpharetta", "website": "https://www.facebook.com/Cook-Out-Alpharetta-GA-473146126197741/", "opening_hours": "Mo-Th 10:30-02:00; Fr-Sa 10:30-03:00; Su 10:30-02:00", "brand": "Cookout", "brand:wikidata": "Q5166992", "nsi_id": "cookout-4d2ff4"}, "geometry": {"type": "Point", "coordinates": [-84.289618, 34.061423]}},
{"type": "Feature", "id": "FNQi5U2Ltpr26jdPuJzIfjUt-Sg=", "properties": {"ref": "170", "@spider": "cookout", "amenity": "fast_food", "cuisine": "american", "takeaway": "yes", "addr:full": "10030 Two Notch Rd", "addr:city": "Columbia", "addr:state": "SC", "addr:postcode": "29223", "addr:country": "US", "name": "Two Notch Rd", "website": "https://www.facebook.com/Cook-Out-Two-Notch-Rd-228592350609044/", "opening_hours": "Mo-Th 10:30-03:00; Fr-Sa 10:30-04:00; Su 10:30-03:00", "brand": "Cookout", "brand:wikidata": "Q5166992", "nsi_id": "cookout-4d2ff4"}, "geometry": {"type": "Point", "coordinates": [-80.891252, 34.113279]}},
{"type": "Feature", "id": "EhxvRsAZ4M7EivpYzA3BkHWdOmc=", "properties": {"ref": "457", "@spider": "cookout", "amenity": "fast_food", "cuisine": "american", "takeaway": "yes", "addr:full": "808 Martha Berry Blvd NE", "addr:city": "Rome", "addr:state": "GA", "addr:postcode": "30165", "addr:country": "US", "name": "Rome", "website": "https://www.facebook.com/Cook-Out-Rome-521004928011071/", "opening_hours": "Mo-Th 10:30-02:00; Fr-Sa 10:30-03:00; Su 10:30-02:00", "brand": "Cookout", "brand:wikidata": "Q5166992", "nsi_id": "cookout-4d2ff4"}, "geometry": {"type": "Point", "coordinates": [-85.180502, 34.261469]}},
{"type": "Feature", "id": "7YugrMBpgw8YjBzMYylPJ514Z4k=", "properties": {"ref": "359", "@spider": "cookout", "amenity": "fast_food", "cuisine": "american", "takeaway": "yes", "addr:full": "1020 Jordan Dr", "addr:city": "Athens", "addr:state": "GA", "addr:postcode": "30606", "addr:country": "US", "name": "Athens", "website": "https://www.facebook.com/Cook-Out-Athens-GA-751873978255288/", "opening_hours": "Mo-Th 10:30-02:00; Fr-Sa 10:30-03:30; Su 10:30-02:00", "brand": "Cookout", "brand:wikidata": "Q5166992", "nsi_id": "cookout-4d2ff4"}, "geometry": {"type": "Point", "coordinates": [-83.442446, 33.919852]}},
{"type": "Feature", "id": "Z08DKF6ThGlAb3odvdPp3p9hkqI=", "properties": {"ref": "3127", "@spider": "cookout", "amenity": "fast_food", "cuisine": "american", "takeaway": "yes", "addr:full": "601 W 3rd St", "addr:city": "Pembroke", "addr:state": "NC", "addr:postcode": "28372", "addr:country": "US", "name": "PEMBROKE", "opening_hours": "Mo-Th 10:30-03:00; Fr-Sa 10:30-04:00; Su 10:30-03:00", "brand": "Cookout", "brand:wikidata": "Q5166992", "nsi_id": "cookout-4d2ff4"}, "geometry": {"type": "Point", "coordinates": [-79.199929, 34.683473]}},
{"type": "Feature", "id": "WPu3G7iRU3zScZ_pxG4hBMtTe1E=", "properties": {"ref": "1743", "@spider": "cookout", "amenity": "fast_food", "cuisine": "american", "takeaway": "yes", "addr:full": "600 Bush River Rd", "addr:city": "Columbia", "addr:state": "SC", "addr:postcode": "29210", "addr:country": "US", "name": "Bush River", "opening_hours": "Mo-Th 10:30-03:00; Fr-Sa 10:30-04:00; Su 10:30-03:00", "brand": "Cookout", "brand:wikidata": "Q5166992", "nsi_id": "cookout-4d2ff4"}, "geometry": {"type": "Point", "coordinates": [-81.096601, 34.030373]}},
{"type": "Feature", "id": "FEub0dnVWJo9vP2zazZwWgpYjUY=", "properties": {"ref": "165", "@spider": "cookout", "amenity": "fast_food", "cuisine": "american", "takeaway": "yes", "addr:full": "515 W Main St", "addr:city": "Lexington", "addr:state": "SC", "addr:postcode": "29072", "addr:country": "US", "name": "Lexington", "website": "https://www.facebook.com/Cook-Out-Lexington-SC-284045831758011/", "opening_hours": "Mo-Th 10:30-02:00; Fr-Sa 10:30-03:30; Su 10:30-02:00", "brand": "Cookout", "brand:wikidata": "Q5166992", "nsi_id": "cookout-4d2ff4"}, "geometry": {"type": "Point", "coordinates": [-81.246459, 33.985624]}},
{"type": "Feature", "id": "bIO0kCktDqDvEFqTOkrWH4IXwBs=", "properties": {"ref": "460", "@spider": "cookout", "amenity": "fast_food", "cuisine": "american", "takeaway": "yes", "addr:full": "745 Chastain Rd NW", "addr:city": "Kennesaw", "addr:state": "GA", "addr:postcode": "30144", "addr:country": "US", "name": "Kennesaw", "website": "https://www.facebook.com/Cook-Out-Kennesaw-GA-915604005125568/", "opening_hours": "Mo-Th 10:30-03:30; Fr-Sa 10:30-04:30; Su 10:30-03:30", "brand": "Cookout", "brand:wikidata": "Q5166992", "nsi_id": "cookout-4d2ff4"}, "geometry": {"type": "Point", "coordinates": [-84.57067, 34.034806]}},
{"type": "Feature", "id": "nsJubB7smXXFu6G5mfCvICZpUHI=", "properties": {"ref": "1552", "@spider": "cookout", "amenity": "fast_food", "cuisine": "american", "takeaway": "yes", "addr:full": "5311 Forest Dr", "addr:city": "Columbia", "addr:state": "SC", "addr:postcode": "29206", "addr:country": "US", "name": "Forest Drive", "website": "https://www.facebook.com/Cook-Out-Forest-Drive-853686274715691/", "opening_hours": "Mo-Th 10:30-02:00; Fr-Sa 10:30-03:30; Su 10:30-02:00", "brand": "Cookout", "brand:wikidata": "Q5166992", "nsi_id": "cookout-4d2ff4"}, "geometry": {"type": "Point", "coordinates": [-80.955209, 34.023287]}},
{"type": "Feature", "id": "I8iCqZFiaG-MBHyhgCOxrGkekic=", "properties": {"ref": "1603", "@spider": "cookout", "amenity": "fast_food", "cuisine": "american", "takeaway": "yes", "addr:full": "432 N. Berkley Blvd.", "addr:city": "Goldsboro", "addr:state": "NC", "addr:postcode": "27534", "addr:country": "US", "name": "Goldsboro", "opening_hours": "Mo-Th 10:30-03:00; Fr-Sa 10:30-04:00; Su 10:30-03:00", "brand": "Cookout", "brand:wikidata": "Q5166992", "nsi_id": "cookout-4d2ff4"}, "geometry": {"type": "Point", "coordinates": [-77.945829, 35.373912]}},
{"type": "Feature", "id": "W67f4EDNay0UDxTaJumMQPrm4W0=", "properties": {"ref": "3283", "@spider": "cookout", "amenity": "fast_food", "cuisine": "american", "takeaway": "yes", "addr:full": "179 E. CHURCH ST", "addr:city": "BATESBURG-LEESVILLE", "addr:state": "SC", "addr:postcode": "29070", "addr:country": "US", "name": "Batesburg- Leesville SC", "opening_hours": "Mo-Th 10:30-03:00; Fr-Sa 10:30-04:00; Su 10:30-03:00", "brand": "Cookout", "brand:wikidata": "Q5166992", "nsi_id": "cookout-4d2ff4"}, "geometry": {"type": "Point", "coordinates": [-81.525385, 33.915665]}},
{"type": "Feature", "id": "oycQlI4aFF8pdWcr2W8dhBbzvx4=", "properties": {"ref": "91", "@spider": "cookout", "amenity": "fast_food", "cuisine": "american", "takeaway": "yes", "addr:full": "1101 Harden St", "addr:city": "Columbia", "addr:state": "SC", "addr:postcode": "29205", "addr:country": "US", "name": "Harden St", "website": "https://www.facebook.com/Cook-Out-Columbia-323485694341175", "opening_hours": "Mo-Th 10:30-04:00; Fr-Sa 10:30-05:00; Su 10:30-04:00", "brand": "Cookout", "brand:wikidata": "Q5166992", "nsi_id": "cookout-4d2ff4"}, "geometry": {"type": "Point", "coordinates": [-81.018678, 34.004515]}},
{"type": "Feature", "id": "_eMAOSHykttQpG1eTd9oI3agyvQ=", "properties": {"ref": "1921", "@spider": "cookout", "amenity": "fast_food", "cuisine": "american", "takeaway": "yes", "addr:full": "2220 Sparkman Dr. NW", "addr:city": "Huntsville", "addr:state": "AL", "addr:postcode": "35810", "addr:country": "US", "name": "Huntsville", "opening_hours": "Mo-Th 10:30-03:00; Fr-Sa 10:30-04:00; Su 10:30-03:00", "brand": "Cookout", "brand:wikidata": "Q5166992", "nsi_id": "cookout-4d2ff4"}, "geometry": {"type": "Point", "coordinates": [-86.594639, 34.763669]}},
{"type": "Feature", "id": "h_xsrSf2ntq7VSRa3ci954ZZqDY=", "properties": {"ref": "445", "@spider": "cookout", "amenity": "fast_food", "cuisine": "american", "takeaway": "yes", "addr:full": "1017 N Main St", "addr:city": "Suffolk", "addr:state": "VA", "addr:postcode": "23434", "addr:country": "US", "name": "Suffolk", "website": "https://www.facebook.com/Cook-Out-Suffolk-VA-1690984734450692/", "opening_hours": "Mo-Th 10:30-03:00; Fr-Sa 10:30-04:00; Su 10:30-03:00", "brand": "Cookout", "brand:wikidata": "Q5166992", "nsi_id": "cookout-4d2ff4"}, "geometry": {"type": "Point", "coordinates": [-76.583859, 36.744044]}},
{"type": "Feature", "id": "WSMJ7HiOS7LMcBmwBoxZqsLOfsg=", "properties": {"ref": "447", "@spider": "cookout", "amenity": "fast_food", "cuisine": "american", "takeaway": "yes", "addr:full": "1025 W Mercury Blvd", "addr:city": "Hampton", "addr:state": "VA", "addr:postcode": "23666", "addr:country": "US", "name": "Hampton", "website": "https://www.facebook.com/Cook-Out-Hampton-296681090434010/", "opening_hours": "Mo-Th 10:30-03:30; Fr-Sa 10:30-04:30; Su 10:30-03:30", "brand": "Cookout", "brand:wikidata": "Q5166992", "nsi_id": "cookout-4d2ff4"}, "geometry": {"type": "Point", "coordinates": [-76.3796, 37.043204]}},
{"type": "Feature", "id": "WdJ7CzaPNzjONV3GXGs-GCsrXjs=", "properties": {"ref": "1739", "@spider": "cookout", "amenity": "fast_food", "cuisine": "american", "takeaway": "yes", "addr:full": "2019 Scenic Hwy", "addr:city": "Snellville", "addr:state": "GA", "addr:postcode": "30078", "addr:country": "US", "name": "Snellville", "opening_hours": "Mo-Th 10:30-02:00; Fr-Sa 10:30-03:00; Su 10:30-02:00", "brand": "Cookout", "brand:wikidata": "Q5166992", "nsi_id": "cookout-4d2ff4"}, "geometry": {"type": "Point", "coordinates": [-84.015996, 33.869082]}},
{"type": "Feature", "id": "DfJv3rVfSkzcvaiaXmQ7WF5AUaE=", "properties": {"ref": "3097", "@spider": "cookout", "amenity": "fast_food", "cuisine": "american", "takeaway": "yes", "addr:full": "7440 GARNERS FERRY RD", "addr:city": "COLUMBIA", "addr:state": "SC", "addr:postcode": "29209", "addr:country": "US", "name": "GARNERS FERRY", "opening_hours": "Mo-Th 10:30-03:00; Fr-Sa 10:30-04:00; Su 10:30-03:00", "brand": "Cookout", "brand:wikidata": "Q5166992", "nsi_id": "cookout-4d2ff4"}, "geometry": {"type": "Point", "coordinates": [-80.942884, 33.96535]}},
{"type": "Feature", "id": "Ml-M1AlhLhpLSro9lGKemriddtA=", "properties": {"ref": "1645", "@spider": "cookout", "amenity": "fast_food", "cuisine": "american", "takeaway": "yes", "addr:full": "2712 N. Roberts Ave", "addr:city": "Lumberton", "addr:state": "NC", "addr:postcode": "28358", "addr:country": "US", "name": "Lumberton", "opening_hours": "Mo-Th 10:30-03:00; Fr-Sa 10:30-04:00; Su 10:30-03:00", "brand": "Cookout", "brand:wikidata": "Q5166992", "nsi_id": "cookout-4d2ff4"}, "geometry": {"type": "Point", "coordinates": [-79.010876, 34.644548]}},
{"type": "Feature", "id": "JcRZ-HNomfrqTXrgQ6-M4cR8x5k=", "properties": {"ref": "1735", "@spider": "cookout", "amenity": "fast_food", "cuisine": "american", "takeaway": "yes", "addr:full": "9 Cobb Pkwy", "addr:city": "Marietta", "addr:state": "GA", "addr:postcode": "30062", "addr:country": "US", "name": "Big Chicken", "opening_hours": "Mo-Th 10:30-03:00; Fr-Sa 10:30-04:00; Su 10:30-03:00", "brand": "Cookout", "brand:wikidata": "Q5166992", "nsi_id": "cookout-4d2ff4"}, "geometry": {"type": "Point", "coordinates": [-84.521428, 33.951363]}},
{"type": "Feature", "id": "zDa0fftxLBJNbUpYBanij7tIQ5Q=", "properties": {"ref": "1906", "@spider": "cookout", "amenity": "fast_food", "cuisine": "american", "takeaway": "yes", "addr:full": "379 Radford Blvd.", "addr:city": "Dillon", "addr:state": "SC", "addr:postcode": "29536", "addr:country": "US", "name": "Dillon", "opening_hours": "Mo-Th 10:30-03:00; Fr-Sa 10:30-04:00; Su 10:30-03:00", "brand": "Cookout", "brand:wikidata": "Q5166992", "nsi_id": "cookout-4d2ff4"}, "geometry": {"type": "Point", "coordinates": [-79.367895, 34.433072]}},
{"type": "Feature", "id": "GuvAe0LAd5lmCJWqhOPJQfkVlOc=", "properties": {"ref": "452", "@spider": "cookout", "amenity": "fast_food", "cuisine": "american", "takeaway": "yes", "addr:full": "4487 Hugh Howell Rd", "addr:city": "Tucker", "addr:state": "GA", "addr:postcode": "30084", "addr:country": "US", "name": "Tucker", "opening_hours": "Mo-Th 10:30-02:00; Fr-Sa 10:30-03:00; Su 10:30-02:00", "brand": "Cookout", "brand:wikidata": "Q5166992", "nsi_id": "cookout-4d2ff4"}, "geometry": {"type": "Point", "coordinates": [-84.204968, 33.848783]}},
{"type": "Feature", "id": "7LrRHP33hNVMelM0_1CzrCvpyKk=", "properties": {"ref": "3200", "@spider": "cookout", "amenity": "fast_food", "cuisine": "american", "takeaway": "yes", "addr:full": "2112 Lucas St", "addr:city": "Florence", "addr:state": "SC", "addr:postcode": "29501", "addr:country": "US", "name": "Florence SC 2", "opening_hours": "Mo-Th 10:30-03:00; Fr-Sa 10:30-04:00; Su 10:30-03:00", "brand": "Cookout", "brand:wikidata": "Q5166992", "nsi_id": "cookout-4d2ff4"}, "geometry": {"type": "Point", "coordinates": [-79.804235, 34.232428]}},
{"type": "Feature", "id": "fOVVuhgJi1Mldh_P9hXjLYC3hZk=", "properties": {"ref": "425", "@spider": "cookout", "amenity": "fast_food", "cuisine": "american", "takeaway": "yes", "addr:full": "4015 Victory Blvd", "addr:city": "Portsmouth", "addr:state": "VA", "addr:postcode": "23701", "addr:country": "US", "name": "Portsmouth", "website": "https://www.facebook.com/Cook-Out-Portsmouth-447098682070000/", "opening_hours": "Mo-Th 10:30-03:00; Fr-Sa 10:30-04:00; Su 10:30-03:00", "brand": "Cookout", "brand:wikidata": "Q5166992", "nsi_id": "cookout-4d2ff4"}, "geometry": {"type": "Point", "coordinates": [-76.360264, 36.811285]}},
{"type": "Feature", "id": "ajfKiam6ltrVqr2pLpL-r1OcVaE=", "properties": {"ref": "1617", "@spider": "cookout", "amenity": "fast_food", "cuisine": "american", "takeaway": "yes", "addr:full": "711 S. Memorial Drive", "addr:city": "Greenville", "addr:state": "NC", "addr:postcode": "27834", "addr:country": "US", "name": "Memorial Dr", "opening_hours": "Mo-Th 10:30-03:00; Fr-Sa 10:30-04:00; Su 10:30-03:00", "brand": "Cookout", "brand:wikidata": "Q5166992", "nsi_id": "cookout-4d2ff4"}, "geometry": {"type": "Point", "coordinates": [-77.394898, 35.60682]}},
{"type": "Feature", "id": "jLNkobqLJtq6m93EOGE0jEPlw1I=", "properties": {"ref": "2851", "@spider": "cookout", "amenity": "fast_food", "cuisine": "american", "takeaway": "yes", "addr:full": "720 E Little Creek Rd", "addr:city": "Norfolk", "addr:state": "VA", "addr:country": "US", "name": "Norfolk, VA", "brand": "Cookout", "brand:wikidata": "Q5166992", "nsi_id": "cookout-4d2ff4"}, "geometry": {"type": "Point", "coordinates": [-76.252891, 36.916194]}},
{"type": "Feature", "id": "Mr4xKnf-Njl1_lEzVkYr7c6CkGA=", "properties": {"ref": "423", "@spider": "cookout", "amenity": "fast_food", "cuisine": "american", "takeaway": "yes", "addr:full": "1818 Monticello Ave", "addr:city": "Norfolk", "addr:state": "VA", "addr:postcode": "23235", "addr:country": "US", "name": "Monticello Ave.", "website": "https://www.facebook.com/Cook-Out-Monticello-Ave-145050145667487/", "opening_hours": "Mo-Th 10:30-03:00; Fr-Sa 10:30-04:00; Su 10:30-03:00", "brand": "Cookout", "brand:wikidata": "Q5166992", "nsi_id": "cookout-4d2ff4"}, "geometry": {"type": "Point", "coordinates": [-76.284441, 36.865391]}},
{"type": "Feature", "id": "LQtc4DOnp8qYFgcfx3FqpbyLdPg=", "properties": {"ref": "398", "@spider": "cookout", "amenity": "fast_food", "cuisine": "american", "takeaway": "yes", "addr:full": "3800 Austell Rd SW", "addr:city": "Marietta", "addr:state": "GA", "addr:postcode": "30008", "addr:country": "US", "name": "Austell Road", "website": "https://www.facebook.com/AustellRoad/", "opening_hours": "Mo-Th 10:30-03:00; Fr-Sa 10:30-04:00; Su 10:30-03:00", "brand": "Cookout", "brand:wikidata": "Q5166992", "nsi_id": "cookout-4d2ff4"}, "geometry": {"type": "Point", "coordinates": [-84.598513, 33.861082]}},
{"type": "Feature", "id": "l8O8yJp4jSWeAfkYXQxMhjybjfo=", "properties": {"ref": "474", "@spider": "cookout", "amenity": "fast_food", "cuisine": "american", "takeaway": "yes", "addr:full": "1115 S Salisbury Blvd", "addr:city": "Salisbury", "addr:state": "MD", "addr:postcode": "21804", "addr:country": "US", "name": "Maryland", "website": "https://www.facebook.com/Cook-Out-Maryland-802226056455689/", "opening_hours": "Mo-Th 10:30-03:00; Fr-Sa 10:30-04:00; Su 10:30-03:00", "brand": "Cookout", "brand:wikidata": "Q5166992", "nsi_id": "cookout-4d2ff4"}, "geometry": {"type": "Point", "coordinates": [-75.602345, 38.347291]}},
{"type": "Feature", "id": "eAW_qtfXIisS_h0CxJ4SgPIziJY=", "properties": {"ref": "2861", "@spider": "cookout", "amenity": "fast_food", "cuisine": "american", "takeaway": "yes", "addr:full": "2683 NC HWY 24", "addr:city": "WARSAW", "addr:state": "NC", "addr:postcode": "28396", "addr:country": "US", "name": "Warsaw", "opening_hours": "Mo-Th 10:30-03:00; Fr-Sa 10:30-04:00; Su 10:30-03:00", "brand": "Cookout", "brand:wikidata": "Q5166992", "nsi_id": "cookout-4d2ff4"}, "geometry": {"type": "Point", "coordinates": [-78.13726, 34.993398]}},
{"type": "Feature", "id": "s_ja3eMbQux9154euYTT_2ziILA=", "properties": {"ref": "2931", "@spider": "cookout", "amenity": "fast_food", "cuisine": "american", "takeaway": "yes", "addr:full": "4145 S Memorial Dr", "addr:city": "Winterville", "addr:state": "NC", "addr:postcode": "28590", "addr:country": "US", "name": "Winterville", "opening_hours": "Mo-Th 10:30-03:00; Fr-Sa 10:30-04:00; Su 10:30-03:00", "brand": "Cookout", "brand:wikidata": "Q5166992", "nsi_id": "cookout-4d2ff4"}, "geometry": {"type": "Point", "coordinates": [-77.404662, 35.549855]}},
{"type": "Feature", "id": "uIihvzNBnfy37lvV7V_JAtCmVrg=", "properties": {"ref": "184", "@spider": "cookout", "amenity": "fast_food", "cuisine": "american", "takeaway": "yes", "addr:full": "2007 S Irby St", "addr:city": "Florence", "addr:state": "SC", "addr:postcode": "29505", "addr:country": "US", "name": "Florence", "website": "https://www.facebook.com/Cook-Out-Florence-455373304624036/", "opening_hours": "Mo-Th 10:30-03:00; Fr-Sa 10:30-04:00; Su 10:30-03:00", "brand": "Cookout", "brand:wikidata": "Q5166992", "nsi_id": "cookout-4d2ff4"}, "geometry": {"type": "Point", "coordinates": [-79.7679, 34.157356]}},
{"type": "Feature", "id": "hcU4tqZZjoQM6Mig5275DhiBOA4=", "properties": {"ref": "1619", "@spider": "cookout", "amenity": "fast_food", "cuisine": "american", "takeaway": "yes", "addr:full": "3209 East 10th Street", "addr:city": "Greenville", "addr:state": "NC", "addr:postcode": "27858", "addr:country": "US", "name": "10th Street", "opening_hours": "Mo-Fr 09:00-05:00", "brand": "Cookout", "brand:wikidata": "Q5166992", "nsi_id": "cookout-4d2ff4"}, "geometry": {"type": "Point", "coordinates": [-77.331071, 35.599041]}},
{"type": "Feature", "id": "w7N4m_F9tOxTzJgPCbHuJ4DBg-A=", "properties": {"ref": "1555", "@spider": "cookout", "amenity": "fast_food", "cuisine": "american", "takeaway": "yes", "addr:full": "1180 Broad St", "addr:city": "Sumter", "addr:state": "SC", "addr:postcode": "29150", "addr:country": "US", "name": "Sumter", "website": "https://www.facebook.com/Cook-Out-Sumter-121112274648921/", "opening_hours": "Mo-Th 10:30-03:00; Fr-Sa 10:30-04:00; Su 10:30-03:00", "brand": "Cookout", "brand:wikidata": "Q5166992", "nsi_id": "cookout-4d2ff4"}, "geometry": {"type": "Point", "coordinates": [-80.381758, 33.955393]}},
{"type": "Feature", "id": "4fjX4PkD7bNLyIDEgyBDDw4mnY0=", "properties": {"ref": "2845", "@spider": "cookout", "amenity": "fast_food", "cuisine": "american", "takeaway": "yes", "addr:full": "131 University Plaza", "addr:city": "Martin", "addr:state": "TN", "addr:postcode": "38237", "addr:country": "US", "name": "Martin, TN", "brand": "Cookout", "brand:wikidata": "Q5166992", "nsi_id": "cookout-4d2ff4"}, "geometry": {"type": "Point", "coordinates": [-88.877952, 36.349027]}},
{"type": "Feature", "id": "p4J4lE50uJQzMTE-q7_SpqhjfhE=", "properties": {"ref": "462", "@spider": "cookout", "amenity": "fast_food", "cuisine": "american", "takeaway": "yes", "addr:full": "1112 Northside Dr NW", "addr:city": "Atlanta", "addr:state": "GA", "addr:postcode": "30318", "addr:country": "US", "name": "Northside Dr.", "website": "https://www.facebook.com/Cook-Out-Northside-Dr-979716882090983/", "opening_hours": "Mo-Th 10:30-04:00; Fr-Sa 10:30-05:00; Su 10:30-04:00", "brand": "Cookout", "brand:wikidata": "Q5166992", "nsi_id": "cookout-4d2ff4"}, "geometry": {"type": "Point", "coordinates": [-84.407805, 33.785301]}},
{"type": "Feature", "id": "l8ZBxHtM5pI_mVkSD4wbM0DE0Pw=", "properties": {"ref": "3069", "@spider": "cookout", "amenity": "fast_food", "cuisine": "american", "takeaway": "yes", "addr:full": "1549 Washington St", "addr:city": "Williamston", "addr:state": "NC", "addr:postcode": "27892", "addr:country": "US", "name": "Williamston", "opening_hours": "Mo-Th 10:30-03:00; Fr-Sa 10:30-04:00; Su 10:30-03:00", "brand": "Cookout", "brand:wikidata": "Q5166992", "nsi_id": "cookout-4d2ff4"}, "geometry": {"type": "Point", "coordinates": [-77.066138, 35.833714]}},
{"type": "Feature", "id": "swJ8qJE90nFXhJdqtFHKauJxZnU=", "properties": {"ref": "461", "@spider": "cookout", "amenity": "fast_food", "cuisine": "american", "takeaway": "yes", "addr:full": "544 Ponce de Leon Ave NE", "addr:city": "Atlanta", "addr:state": "GA", "addr:postcode": "30308", "addr:country": "US", "name": "Ponce De Leon", "website": "https://www.facebook.com/Cook-Out-Ponce-De-Leon-901595843233286/", "opening_hours": "Mo-Fr 10:30-03:00; Sa-Su 10:30-04:00", "brand": "Cookout", "brand:wikidata": "Q5166992", "nsi_id": "cookout-4d2ff4"}, "geometry": {"type": "Point", "coordinates": [-84.369188, 33.773776]}},
{"type": "Feature", "id": "3BDQgDbIFrkO7ky6SVTJgtxyvdo=", "properties": {"ref": "1926", "@spider": "cookout", "amenity": "fast_food", "cuisine": "american", "takeaway": "yes", "addr:full": "1105 N Military Hwy", "addr:city": "Norfolk", "addr:state": "VA", "addr:postcode": "23502", "addr:country": "US", "name": "Military Hwy.", "website": "https://www.facebook.com/Cook-Out-Military-Hwy-148398785308452/", "opening_hours": "Mo-Th 10:30-03:00; Fr-Sa 10:30-04:00; Su 10:30-03:00", "brand": "Cookout", "brand:wikidata": "Q5166992", "nsi_id": "cookout-4d2ff4"}, "geometry": {"type": "Point", "coordinates": [-76.210654, 36.859732]}},
{"type": "Feature", "id": "el-Jng6b7XjI8JhjHFhQphuRsz8=", "properties": {"ref": "456", "@spider": "cookout", "amenity": "fast_food", "cuisine": "american", "takeaway": "yes", "addr:full": "403 Moreland Ave SE", "addr:city": "Atlanta", "addr:state": "GA", "addr:postcode": "30316", "addr:country": "US", "name": "Moreland Ave.", "website": "https://www.facebook.com/Cook-Out-Moreland-Ave-405202679690661/", "opening_hours": "Mo-Th 10:30-04:00; Fr-Sa 10:30-05:00; Su 10:30-04:00", "brand": "Cookout", "brand:wikidata": "Q5166992", "nsi_id": "cookout-4d2ff4"}, "geometry": {"type": "Point", "coordinates": [-84.34958, 33.743089]}},
{"type": "Feature", "id": "En4Igxns_9cVRooDq_qHHw_FZn0=", "properties": {"ref": "431", "@spider": "cookout", "amenity": "fast_food", "cuisine": "american", "takeaway": "yes", "addr:full": "1328 Battlefield Blvd N", "addr:city": "Chesapeake", "addr:state": "VA", "addr:postcode": "23320", "addr:country": "US", "name": "Chesapeake", "website": "https://www.facebook.com/Cook-Out-Chesapeake-VA-1210558818965725/", "opening_hours": "Mo-Th 10:30-03:00; Fr-Sa 10:30-04:00; Su 10:30-03:00", "brand": "Cookout", "brand:wikidata": "Q5166992", "nsi_id": "cookout-4d2ff4"}, "geometry": {"type": "Point", "coordinates": [-76.251728, 36.764709]}},
{"type": "Feature", "id": "WuuTGxWmbnxkz0q63zwtnQY2h4s=", "properties": {"ref": "463", "@spider": "cookout", "amenity": "fast_food", "cuisine": "american", "takeaway": "yes", "addr:full": "2790 Panola Rd", "addr:city": "Lithonia", "addr:state": "GA", "addr:postcode": "30058", "addr:country": "US", "name": "Lithonia", "website": "https://www.facebook.com/Cook-Out-Lithonia-GA-643914412410085/", "opening_hours": "Mo-Th 10:30-03:00; Fr-Sa 10:30-04:00; Su 10:30-03:00", "brand": "Cookout", "brand:wikidata": "Q5166992", "nsi_id": "cookout-4d2ff4"}, "geometry": {"type": "Point", "coordinates": [-84.168953, 33.70574]}},
{"type": "Feature", "id": "5CZPTgrUD5Yfs7o79auySJ8NW_Q=", "properties": {"ref": "1923", "@spider": "cookout", "amenity": "fast_food", "cuisine": "american", "takeaway": "yes", "addr:full": "4050 W Vernon Ave.", "addr:city": "Kinston", "addr:state": "NC", "addr:postcode": "28504", "addr:country": "US", "name": "Kinston", "opening_hours": "Mo-Th 10:30-03:00; Fr-Sa 10:30-04:00; Su 10:30-03:00", "brand": "Cookout", "brand:wikidata": "Q5166992", "nsi_id": "cookout-4d2ff4"}, "geometry": {"type": "Point", "coordinates": [-77.644112, 35.261366]}},
{"type": "Feature", "id": "nb2Tz9iVmWH0r-YIolm--NHcpFU=", "properties": {"ref": "449", "@spider": "cookout", "amenity": "fast_food", "cuisine": "american", "takeaway": "yes", "addr:full": "5670 Indian River Rd", "addr:city": "Virginia Beach", "addr:state": "VA", "addr:postcode": "23464", "addr:country": "US", "name": "Virginia Beach", "opening_hours": "Mo-Th 10:30-03:00; Fr-Sa 10:30-04:00; Su 10:30-03:00", "brand": "Cookout", "brand:wikidata": "Q5166992", "nsi_id": "cookout-4d2ff4"}, "geometry": {"type": "Point", "coordinates": [-76.190398, 36.805592]}},
{"type": "Feature", "id": "SCcYVRo1CD7wjGe61Zfaf9_-23Y=", "properties": {"ref": "464", "@spider": "cookout", "amenity": "fast_food", "cuisine": "american", "takeaway": "yes", "addr:full": "2910 Washington Rd", "addr:city": "Augusta", "addr:state": "GA", "addr:postcode": "30909", "addr:country": "US", "name": "Washington Rd.", "website": "https://www.facebook.com/Cook-Out-Washington-Rd-867752489957768/", "opening_hours": "Mo-Th 10:30-03:00; Fr-Sa 10:30-04:00; Su 10:30-03:00", "brand": "Cookout", "brand:wikidata": "Q5166992", "nsi_id": "cookout-4d2ff4"}, "geometry": {"type": "Point", "coordinates": [-82.039595, 33.511181]}},
{"type": "Feature", "id": "tGUPa_sVS15Q8LV-I0TyttPeY1U=", "properties": {"ref": "3102", "@spider": "cookout", "amenity": "fast_food", "cuisine": "american", "takeaway": "yes", "addr:full": "1654 Beltline Rd", "addr:city": "Decatur", "addr:state": "AL", "addr:postcode": "35601", "addr:country": "US", "name": "DECATUR", "opening_hours": "Mo-Th 10:30-03:00; Fr-Sa 10:30-04:00; Su 10:30-03:00", "brand": "Cookout", "brand:wikidata": "Q5166992", "nsi_id": "cookout-4d2ff4"}, "geometry": {"type": "Point", "coordinates": [-87.011174, 34.567841]}},
{"type": "Feature", "id": "8XmEqC8Dt2QMPZYqArv7GJaoROY=", "properties": {"ref": "361", "@spider": "cookout", "amenity": "fast_food", "cuisine": "american", "takeaway": "yes", "addr:full": "4088 Jimmie Dyess Pkwy", "addr:city": "Augusta", "addr:state": "GA", "addr:postcode": "30909", "addr:country": "US", "name": "Jimmie Dyess", "website": "https://www.facebook.com/Cook-Out-Jimmie-Dyess-490861071033619/", "opening_hours": "Mo-Th 10:30-03:00; Fr-Sa 10:30-04:00; Su 10:30-03:00", "brand": "Cookout", "brand:wikidata": "Q5166992", "nsi_id": "cookout-4d2ff4"}, "geometry": {"type": "Point", "coordinates": [-82.1292, 33.480216]}},
{"type": "Feature", "id": "_-tpAfsRYJAL6TlkNH3h7a12oVk=", "properties": {"ref": "2753", "@spider": "cookout", "amenity": "fast_food", "cuisine": "american", "takeaway": "yes", "addr:full": "2086 Whisky Rd.", "addr:city": "Aiken", "addr:state": "SC", "addr:postcode": "29083", "addr:country": "US", "name": "Aiken", "brand": "Cookout", "brand:wikidata": "Q5166992", "nsi_id": "cookout-4d2ff4"}, "geometry": {"type": "Point", "coordinates": [-81.716024, 33.517946]}},
{"type": "Feature", "id": "r0IK9dy2ysDHyfGptszK9DenU7w=", "properties": {"ref": "357", "@spider": "cookout", "amenity": "fast_food", "cuisine": "american", "takeaway": "yes", "addr:full": "1801 Walton Way", "addr:city": "Augusta", "addr:state": "GA", "addr:postcode": "30904", "addr:country": "US", "name": "Augusta", "website": "https://www.facebook.com/Cook-Out-Augusta-GA-1374858229417176/", "opening_hours": "Mo-Th 10:30-03:00; Fr-Sa 10:30-04:00; Su 10:30-03:00", "brand": "Cookout", "brand:wikidata": "Q5166992", "nsi_id": "cookout-4d2ff4"}, "geometry": {"type": "Point", "coordinates": [-81.997777, 33.475965]}},
{"type": "Feature", "id": "iYmROE_u6e_9AM57WUjkogMv9N8=", "properties": {"ref": "459", "@spider": "cookout", "amenity": "fast_food", "cuisine": "american", "takeaway": "yes", "addr:full": "6273 Jonesboro Rd", "addr:city": "Morrow", "addr:state": "GA", "addr:postcode": "30260", "addr:country": "US", "name": "Morrow", "website": "https://www.facebook.com/Cook-Out-Morrow-GA-869523703091766/", "opening_hours": "Mo-Th 10:30-03:00; Fr-Sa 10:30-04:00; Su 10:30-03:00", "brand": "Cookout", "brand:wikidata": "Q5166992", "nsi_id": "cookout-4d2ff4"}, "geometry": {"type": "Point", "coordinates": [-84.339792, 33.584026]}},
{"type": "Feature", "id": "oPb5ryaGS61MU9uGcgDCUEqpbNE=", "properties": {"ref": "1709", "@spider": "cookout", "amenity": "fast_food", "cuisine": "american", "takeaway": "yes", "addr:full": "1006 Carolina Ave", "addr:city": "Washington", "addr:state": "NC", "addr:postcode": "27889", "addr:country": "US", "name": "Little Washington", "opening_hours": "Mo-Th 10:30-03:00; Fr-Sa 10:30-04:00; Su 10:30-03:00", "brand": "Cookout", "brand:wikidata": "Q5166992", "nsi_id": "cookout-4d2ff4"}, "geometry": {"type": "Point", "coordinates": [-77.059646, 35.556405]}},
{"type": "Feature", "id": "H_aLMv8LrsZaPdjElWlppOyNHRg=", "properties": {"ref": "2694", "@spider": "cookout", "amenity": "fast_food", "cuisine": "american", "takeaway": "yes", "addr:full": "1634 General Booth Blvd", "addr:city": "Virginia Beach", "addr:state": "VA", "addr:postcode": "23454", "addr:country": "US", "name": "General Booth Rd", "brand": "Cookout", "brand:wikidata": "Q5166992", "nsi_id": "cookout-4d2ff4"}, "geometry": {"type": "Point", "coordinates": [-76.000043, 36.783731]}},
{"type": "Feature", "id": "byBbOFKyUIWzTr9XUzYcAKCwm-Y=", "properties": {"ref": "1737", "@spider": "cookout", "amenity": "fast_food", "cuisine": "american", "takeaway": "yes", "addr:full": "6897 GA \u2013 85", "addr:city": "Riverdale", "addr:state": "GA", "addr:postcode": "30274", "addr:country": "US", "name": "Riverdale", "opening_hours": "Mo-Th 10:30-03:00; Fr-Sa 10:30-04:00; Su 10:30-03:00", "brand": "Cookout", "brand:wikidata": "Q5166992", "nsi_id": "cookout-4d2ff4"}, "geometry": {"type": "Point", "coordinates": [-84.413061, 33.566849]}},
{"type": "Feature", "id": "C2CaTHgBOd7DI1DgpJZ6ukI4Pe4=", "properties": {"ref": "1741", "@spider": "cookout", "amenity": "fast_food", "cuisine": "american", "takeaway": "yes", "addr:full": "3012 Peach Orchard Road", "addr:city": "Augusta", "addr:state": "GA", "addr:postcode": "30906", "addr:country": "US", "name": "Peach Orchard", "opening_hours": "Mo-Th 10:30-03:00; Fr-Sa 10:30-04:00; Su 10:30-03:00", "brand": "Cookout", "brand:wikidata": "Q5166992", "nsi_id": "cookout-4d2ff4"}, "geometry": {"type": "Point", "coordinates": [-82.022841, 33.416059]}},
{"type": "Feature", "id": "Ph6APLXd_JAIjrnbd1_sGtKSZJw=", "properties": {"ref": "3272", "@spider": "cookout", "amenity": "fast_food", "cuisine": "american", "takeaway": "yes", "addr:full": "705 N. J.K POWELL BLVD", "addr:city": "WHITEVILLE", "addr:state": "NC", "addr:postcode": "28472", "addr:country": "US", "name": "Whiteville", "opening_hours": "Mo-Th 10:30-03:00; Fr-Sa 10:30-04:00; Su 10:30-03:00", "brand": "Cookout", "brand:wikidata": "Q5166992", "nsi_id": "cookout-4d2ff4"}, "geometry": {"type": "Point", "coordinates": [-78.707709, 34.328579]}},
{"type": "Feature", "id": "HuTqYeeAxCStCzhHCermmWBxAoU=", "properties": {"ref": "1751", "@spider": "cookout", "amenity": "fast_food", "cuisine": "american", "takeaway": "yes", "addr:full": "2821 Paxville Hwy", "addr:city": "Manning", "addr:state": "SC", "addr:postcode": "29102", "addr:country": "US", "name": "Manning", "opening_hours": "Mo-Th 10:30-02:00; Fr-Sa 10:30-03:00; Su 10:30-02:00", "brand": "Cookout", "brand:wikidata": "Q5166992", "nsi_id": "cookout-4d2ff4"}, "geometry": {"type": "Point", "coordinates": [-80.239424, 33.701205]}},
{"type": "Feature", "id": "qrhWXbS3YFN23bHyRxPzlOrMN8c=", "properties": {"ref": "1587", "@spider": "cookout", "amenity": "fast_food", "cuisine": "american", "takeaway": "yes", "addr:full": "912 W Ehringhaus St.", "addr:city": "Elizabeth City", "addr:state": "NC", "addr:postcode": "27909", "addr:country": "US", "name": "Elizabeth City", "opening_hours": "Mo-Th 10:30-03:00; Fr-Sa 10:30-04:00; Su 10:30-03:00", "brand": "Cookout", "brand:wikidata": "Q5166992", "nsi_id": "cookout-4d2ff4"}, "geometry": {"type": "Point", "coordinates": [-76.233716, 36.295865]}},
{"type": "Feature", "id": "A11E5pnhGHe1EHPZySPWV8GNxEQ=", "properties": {"ref": "3119", "@spider": "cookout", "amenity": "fast_food", "cuisine": "american", "takeaway": "yes", "addr:full": "570 S Court St", "addr:city": "Florence", "addr:state": "AL", "addr:postcode": "35630", "addr:country": "US", "name": "FLORENCE", "opening_hours": "Mo-Th 10:30-03:00; Fr-Sa 10:30-04:00; Su 10:30-03:00", "brand": "Cookout", "brand:wikidata": "Q5166992", "nsi_id": "cookout-4d2ff4"}, "geometry": {"type": "Point", "coordinates": [-87.673774, 34.795797]}},
{"type": "Feature", "id": "HUdaoVNz26eT0fdUWTiNMlQ3Hs0=", "properties": {"ref": "2957", "@spider": "cookout", "amenity": "fast_food", "cuisine": "american", "takeaway": "yes", "addr:full": "1404 GA-20", "addr:city": "McDonough", "addr:state": "GA", "addr:postcode": "30253", "addr:country": "US", "name": "MCDONOUGH", "opening_hours": "Mo-Th 10:30-03:00; Fr-Sa 10:30-04:00; Su 10:30-03:00", "brand": "Cookout", "brand:wikidata": "Q5166992", "nsi_id": "cookout-4d2ff4"}, "geometry": {"type": "Point", "coordinates": [-84.185493, 33.424022]}},
{"type": "Feature", "id": "wx9-AUbPQD2XdvKxnxmYcAC8Ldo=", "properties": {"ref": "1452", "@spider": "cookout", "amenity": "fast_food", "cuisine": "american", "takeaway": "yes", "addr:full": "402 S. Pelham", "addr:city": "Jacksonville", "addr:state": "AL", "addr:postcode": "36235", "addr:country": "US", "name": "Jacksonville", "opening_hours": "Mo-Th 10:30-02:00; Fr-Sa 10:30-03:00; Su 10:30-02:00", "brand": "Cookout", "brand:wikidata": "Q5166992", "nsi_id": "cookout-4d2ff4"}, "geometry": {"type": "Point", "coordinates": [-85.7608, 33.8115]}},
{"type": "Feature", "id": "FZ7mNYa6PvEZet2IF-e-ptKD5Is=", "properties": {"ref": "198", "@spider": "cookout", "amenity": "fast_food", "cuisine": "american", "takeaway": "yes", "addr:full": "725 John C Calhoun Dr", "addr:city": "Orangeburg", "addr:state": "SC", "addr:postcode": "29115", "addr:country": "US", "name": "Orangeburg", "website": "https://www.facebook.com/Cook-Out-Orangeburg-267071653463861/", "opening_hours": "Mo-Th 10:30-04:00; Fr-Sa 10:30-05:00; Su 10:30-04:00", "brand": "Cookout", "brand:wikidata": "Q5166992", "nsi_id": "cookout-4d2ff4"}, "geometry": {"type": "Point", "coordinates": [-80.855658, 33.490827]}},
{"type": "Feature", "id": "cSPn-z9_y96lhn1nIz8p8pyBt8M=", "properties": {"ref": "394", "@spider": "cookout", "amenity": "fast_food", "cuisine": "american", "takeaway": "yes", "addr:full": "904 S Park St", "addr:city": "Carrollton", "addr:state": "GA", "addr:postcode": "30117", "addr:country": "US", "name": "Carrollton", "website": "https://www.facebook.com/Cook-Out-Carrollton-GA-1444317195895834/", "opening_hours": "Mo-Th 10:30-03:00; Fr-Sa 10:30-04:00; Su 10:30-03:00", "brand": "Cookout", "brand:wikidata": "Q5166992", "nsi_id": "cookout-4d2ff4"}, "geometry": {"type": "Point", "coordinates": [-85.075664, 33.565438]}},
{"type": "Feature", "id": "oFQXxrH8MRvsutvm3qa0bxEdfA8=", "properties": {"ref": "2721", "@spider": "cookout", "amenity": "fast_food", "cuisine": "american", "takeaway": "yes", "addr:full": "4 Stonebridge Blvd", "addr:city": "Jackson", "addr:state": "TN", "addr:postcode": "38305", "addr:country": "US", "name": "4 Stonebridge Blvd", "brand": "Cookout", "brand:wikidata": "Q5166992", "nsi_id": "cookout-4d2ff4"}, "geometry": {"type": "Point", "coordinates": [-88.85319, 35.67086]}},
{"type": "Feature", "id": "JjSMZKAJ6Kk601nIxc3paqiU4xk=", "properties": {"ref": "1655", "@spider": "cookout", "amenity": "fast_food", "cuisine": "american", "takeaway": "yes", "addr:full": "2500 Dr ML King Blvd", "addr:city": "New Bern", "addr:state": "NC", "addr:postcode": "28562", "addr:country": "US", "name": "New Bern City", "opening_hours": "Mo-Th 10:30-03:00; Fr-Sa 10:30-04:00; Su 10:30-03:00", "brand": "Cookout", "brand:wikidata": "Q5166992", "nsi_id": "cookout-4d2ff4"}, "geometry": {"type": "Point", "coordinates": [-77.080873, 35.105875]}},
{"type": "Feature", "id": "dYQch_dLHvk6NTzjYWY_tqEGAFU=", "properties": {"ref": "1633", "@spider": "cookout", "amenity": "fast_food", "cuisine": "american", "takeaway": "yes", "addr:full": "407 South Marine Blvd", "addr:city": "Jacksonville", "addr:state": "NC", "addr:postcode": "28540", "addr:country": "US", "name": "Eastern", "opening_hours": "Mo-Th 10:30-03:30; Fr-Sa 10:30-04:30; Su 10:30-03:30", "brand": "Cookout", "brand:wikidata": "Q5166992", "nsi_id": "cookout-4d2ff4"}, "geometry": {"type": "Point", "coordinates": [-77.447144, 34.751609]}},
{"type": "Feature", "id": "7XvCgdhZe1y1PvkXfk_6Dltvpkg=", "properties": {"ref": "455", "@spider": "cookout", "amenity": "fast_food", "cuisine": "american", "takeaway": "yes", "addr:full": "1893 N Columbia St", "addr:city": "Milledgeville", "addr:state": "GA", "addr:postcode": "31061", "addr:country": "US", "name": "Milledgeville", "website": "https://www.facebook.com/Cook-Out-Milledgeville-GA-193841974141676/", "opening_hours": "Mo-Th 10:30-03:00; Fr-Sa 10:30-04:00; Su 10:30-03:00", "brand": "Cookout", "brand:wikidata": "Q5166992", "nsi_id": "cookout-4d2ff4"}, "geometry": {"type": "Point", "coordinates": [-83.250911, 33.10574]}},
{"type": "Feature", "id": "F-rvzvcUlkx_elZib501ToWEp1Y=", "properties": {"ref": "1631", "@spider": "cookout", "amenity": "fast_food", "cuisine": "american", "takeaway": "yes", "addr:full": "421 Western Boulevard", "addr:city": "Jacksonville", "addr:state": "NC", "addr:postcode": "28546", "addr:country": "US", "name": "Jacksonville", "opening_hours": "Mo-Th 10:30-03:30; Fr-Sa 10:30-04:30; Su 10:30-03:30", "brand": "Cookout", "brand:wikidata": "Q5166992", "nsi_id": "cookout-4d2ff4"}, "geometry": {"type": "Point", "coordinates": [-77.386757, 34.770012]}},
{"type": "Feature", "id": "MOex3bIRIwexgll7qOBT-52_UMY=", "properties": {"ref": "168", "@spider": "cookout", "amenity": "fast_food", "cuisine": "american", "takeaway": "yes", "addr:full": "2480 US Hwy 501", "addr:city": "Conway", "addr:state": "SC", "addr:postcode": "29526", "addr:country": "US", "name": "Conway", "website": "https://www.facebook.com/Cook-Out-Conway-1033606036657732/", "opening_hours": "Mo-Th 10:30-04:00; Fr-Sa 10:30-05:00; Su 10:30-04:00", "brand": "Cookout", "brand:wikidata": "Q5166992", "nsi_id": "cookout-4d2ff4"}, "geometry": {"type": "Point", "coordinates": [-78.994518, 33.786296]}},
{"type": "Feature", "id": "cJh8nZDsDPYEQ34GHylVmGmtrio=", "properties": {"ref": "3291", "@spider": "cookout", "amenity": "fast_food", "cuisine": "american", "takeaway": "yes", "addr:full": "1147 New Pointe Blvd", "addr:city": "LeLand", "addr:state": "NC", "addr:postcode": "28451", "addr:country": "US", "name": "LELAND, NC", "opening_hours": "Mo-Th 10:30-03:00; Fr-Sa 10:30-04:00; Su 10:30-03:00", "brand": "Cookout", "brand:wikidata": "Q5166992", "nsi_id": "cookout-4d2ff4"}, "geometry": {"type": "Point", "coordinates": [-78.021657, 34.213062]}},
{"type": "Feature", "id": "7Dx42VUalaQB82uVyHHz_meZlcg=", "properties": {"ref": "1456", "@spider": "cookout", "amenity": "fast_food", "cuisine": "american", "takeaway": "yes", "addr:full": "205 US-17", "addr:city": "North Myrtle Beach", "addr:state": "SC", "addr:postcode": "29582", "addr:country": "US", "name": "North Myrtle Beach", "opening_hours": "Mo-Th 10:30-02:00; Fr-Sa 10:30-03:00; Su 10:30-02:00", "brand": "Cookout", "brand:wikidata": "Q5166992", "nsi_id": "cookout-4d2ff4"}, "geometry": {"type": "Point", "coordinates": [-78.677522, 33.830327]}},
{"type": "Feature", "id": "XxIPZb4wpgSKMGfeyUltrgkxdaE=", "properties": {"ref": "3093", "@spider": "cookout", "amenity": "fast_food", "cuisine": "american", "takeaway": "yes", "addr:full": "4455 MAIN ST", "addr:city": "SHALLOTTE", "addr:state": "NC", "addr:postcode": "28470", "addr:country": "US", "name": "SHALLOTTE", "opening_hours": "Mo-Th 10:30-03:00; Fr-Sa 10:30-04:00; Su 10:30-03:00", "brand": "Cookout", "brand:wikidata": "Q5166992", "nsi_id": "cookout-4d2ff4"}, "geometry": {"type": "Point", "coordinates": [-78.367012, 33.98399]}},
{"type": "Feature", "id": "xqs2MLbeCzGpwSZbuyG_JAHNOLM=", "properties": {"ref": "2855", "@spider": "cookout", "amenity": "fast_food", "cuisine": "american", "takeaway": "yes", "addr:full": "534 US Hwy 70 West", "addr:city": "Havelock", "addr:state": "NC", "addr:postcode": "28532", "addr:country": "US", "name": "Havelock", "opening_hours": "Mo-Th 10:30-03:00; Fr-Sa 10:30-04:00; Su 10:30-03:00", "brand": "Cookout", "brand:wikidata": "Q5166992", "nsi_id": "cookout-4d2ff4"}, "geometry": {"type": "Point", "coordinates": [-76.933052, 34.906116]}},
{"type": "Feature", "id": "jLA97GuO5ZwwiL3agaimFJv71ms=", "properties": {"ref": "3037", "@spider": "cookout", "amenity": "fast_food", "cuisine": "american", "takeaway": "yes", "addr:full": "429 South College Rd", "addr:city": "Wilmington", "addr:state": "NC", "addr:postcode": "28403", "addr:country": "US", "name": "Wilmington", "opening_hours": "Mo-Th 10:30-03:00; Fr-Sa 10:30-04:00; Su 10:30-03:00", "brand": "Cookout", "brand:wikidata": "Q5166992", "nsi_id": "cookout-4d2ff4"}, "geometry": {"type": "Point", "coordinates": [-77.875985, 34.23106]}},
{"type": "Feature", "id": "3VW1dGRRBbZQtU3-e2atK0uqg1Y=", "properties": {"ref": "1695", "@spider": "cookout", "amenity": "fast_food", "cuisine": "american", "takeaway": "yes", "addr:full": "715 S. College Rd.", "addr:city": "Wilmington", "addr:state": "NC", "addr:postcode": "28403", "addr:country": "US", "name": "Wilmington (College Rd)", "opening_hours": "Mo-Th 10:30-04:00; Fr-Sa 10:30-05:00; Su 10:30-04:00", "brand": "Cookout", "brand:wikidata": "Q5166992", "nsi_id": "cookout-4d2ff4"}, "geometry": {"type": "Point", "coordinates": [-77.881849, 34.222575]}},
{"type": "Feature", "id": "ZfLqN28ErMRvPo_-vjJpATwxu8E=", "properties": {"ref": "163", "@spider": "cookout", "amenity": "fast_food", "cuisine": "american", "takeaway": "yes", "addr:full": "1800 N Kings Hwy", "addr:city": "Myrtle Beach", "addr:state": "SC", "addr:postcode": "29577", "addr:country": "US", "name": "Myrtle Beach", "website": "https://www.facebook.com/Cook-Out-Myrtle-Beach-1424433594497985/", "opening_hours": "Mo-Th 10:30-03:30; Fr-Sa 10:30-04:30; Su 10:30-03:30", "brand": "Cookout", "brand:wikidata": "Q5166992", "nsi_id": "cookout-4d2ff4"}, "geometry": {"type": "Point", "coordinates": [-78.87396, 33.700063]}},
{"type": "Feature", "id": "CAMlwzqNXMh1rNxirMRJmxZZKjo=", "properties": {"ref": "1776", "@spider": "cookout", "amenity": "fast_food", "cuisine": "american", "takeaway": "yes", "addr:full": "100 Loyola Dr", "addr:city": "Myrtle Beach", "addr:state": "SC", "addr:postcode": "29588", "addr:country": "US", "name": "Surfside", "opening_hours": "Mo-Th 10:30-02:00; Fr-Sa 10:30-03:00; Su 10:30-02:00", "brand": "Cookout", "brand:wikidata": "Q5166992", "nsi_id": "cookout-4d2ff4"}, "geometry": {"type": "Point", "coordinates": [-78.990502, 33.640803]}},
{"type": "Feature", "id": "GNrQ5OEkI7BpDTwNeOlbkfUdqDU=", "properties": {"ref": "2559", "@spider": "cookout", "amenity": "fast_food", "cuisine": "american", "takeaway": "yes", "addr:full": "155 Tom Hill Sr. Blvd.", "addr:city": "Macon", "addr:state": "GA", "addr:postcode": "31210", "addr:country": "US", "name": "Tom Hill Sr. Blvd", "opening_hours": "Mo-Th 10:30-03:00; Fr-Sa 10:30-04:00; Su 10:30-03:00", "brand": "Cookout", "brand:wikidata": "Q5166992", "nsi_id": "cookout-4d2ff4"}, "geometry": {"type": "Point", "coordinates": [-83.688184, 32.899288]}},
{"type": "Feature", "id": "uNo0pK-HhVknULQFwkHGNjO5NCY=", "properties": {"ref": "1697", "@spider": "cookout", "amenity": "fast_food", "cuisine": "american", "takeaway": "yes", "addr:full": "5615 Carolina Beach Road", "addr:city": "Wilmington", "addr:state": "NC", "addr:postcode": "28412", "addr:country": "US", "name": "Carolina Beach", "opening_hours": "Mo-Th 10:30-03:00; Fr-Sa 10:30-04:00; Su 10:30-03:00", "brand": "Cookout", "brand:wikidata": "Q5166992", "nsi_id": "cookout-4d2ff4"}, "geometry": {"type": "Point", "coordinates": [-77.894081, 34.135348]}},
{"type": "Feature", "id": "F1MkWzc_IskIk1vLMW9hH3V07tQ=", "properties": {"ref": "3280", "@spider": "cookout", "amenity": "fast_food", "cuisine": "american", "takeaway": "yes", "addr:full": "2005 S CROATAN HWY", "addr:city": "KILL DEVIL HILLS", "addr:state": "NC", "addr:postcode": "27948", "addr:country": "US", "name": "Kill Devil Hills", "opening_hours": "Mo-Th 10:30-03:00; Fr-Sa 10:30-04:00; Su 10:30-03:00", "brand": "Cookout", "brand:wikidata": "Q5166992", "nsi_id": "cookout-4d2ff4"}, "geometry": {"type": "Point", "coordinates": [-75.649016, 35.994545]}},
{"type": "Feature", "id": "lktdIGJi5-9wTJZRjSt-9ox1o2M=", "properties": {"ref": "3154", "@spider": "cookout", "amenity": "fast_food", "cuisine": "american", "takeaway": "yes", "addr:full": "126 COMMERCE AVE", "addr:city": "LAGRANGE", "addr:state": "GA", "addr:postcode": "30241", "addr:country": "US", "name": "LAGRANGE", "opening_hours": "Mo-Th 10:30-03:00; Fr-Sa 10:30-04:00; Su 10:30-03:00", "brand": "Cookout", "brand:wikidata": "Q5166992", "nsi_id": "cookout-4d2ff4"}, "geometry": {"type": "Point", "coordinates": [-85.025544, 33.04888]}},
{"type": "Feature", "id": "QCsu3-I3hnV2f7LQwDu67xvREw4=", "properties": {"ref": "1403", "@spider": "cookout", "amenity": "fast_food", "cuisine": "american", "takeaway": "yes", "addr:full": "5001 Brookhaven Rd", "addr:city": "Macon", "addr:state": "GA", "addr:postcode": "31206", "addr:country": "US", "name": "Brookhaven Rd", "opening_hours": "Mo-Th 10:30-03:00; Fr-Sa 10:30-04:00; Su 10:30-03:00", "brand": "Cookout", "brand:wikidata": "Q5166992", "nsi_id": "cookout-4d2ff4"}, "geometry": {"type": "Point", "coordinates": [-83.720627, 32.81169]}},
{"type": "Feature", "id": "ZmJzuiCXzXhZVzro5_D000PQToY=", "properties": {"ref": "2913", "@spider": "cookout", "amenity": "fast_food", "cuisine": "american", "takeaway": "yes", "addr:full": "1395 Bells Hwy", "addr:city": "Walterboro", "addr:state": "SC", "addr:postcode": "29488", "addr:country": "US", "name": "Walterboro", "opening_hours": "Mo-Th 10:30-03:00; Fr-Sa 10:30-04:00; Su 10:30-03:00", "brand": "Cookout", "brand:wikidata": "Q5166992", "nsi_id": "cookout-4d2ff4"}, "geometry": {"type": "Point", "coordinates": [-80.685643, 32.926069]}},
{"type": "Feature", "id": "57PMo9ywhxnICoZlSV7TUtYmgMY=", "properties": {"ref": "2948", "@spider": "cookout", "amenity": "fast_food", "cuisine": "american", "takeaway": "yes", "addr:full": "4127 Arendell St", "addr:city": "Morehead City", "addr:state": "NC", "addr:postcode": "28557", "addr:country": "US", "name": "Morehead City", "opening_hours": "Mo-Th 10:30-03:00; Fr-Sa 10:30-04:00; Su 10:30-03:00", "brand": "Cookout", "brand:wikidata": "Q5166992", "nsi_id": "cookout-4d2ff4"}, "geometry": {"type": "Point", "coordinates": [-76.770734, 34.726914]}},
{"type": "Feature", "id": "F6DQtu0ADwxWwIg8CGdfj0iSLKI=", "properties": {"ref": "1774", "@spider": "cookout", "amenity": "fast_food", "cuisine": "american", "takeaway": "yes", "addr:full": "703 N Main St", "addr:city": "Summerville", "addr:state": "SC", "addr:postcode": "29483", "addr:country": "US", "name": "Summerville", "opening_hours": "Mo-Th 10:30-03:00; Fr-Sa 10:30-04:00; Su 10:30-03:00", "brand": "Cookout", "brand:wikidata": "Q5166992", "nsi_id": "cookout-4d2ff4"}, "geometry": {"type": "Point", "coordinates": [-80.168893, 33.027661]}},
{"type": "Feature", "id": "OLttyiOMjgfhltOcq44Vvi0ZMXs=", "properties": {"ref": "3109", "@spider": "cookout", "amenity": "fast_food", "cuisine": "american", "takeaway": "yes", "addr:full": "301 24th St", "addr:city": "Birmingham", "addr:state": "AL", "addr:postcode": "35233", "addr:country": "US", "name": "BIRMINGHAM (UAB)", "opening_hours": "Mo-Th 10:30-03:00; Fr-Sa 10:30-04:00; Su 10:30-03:00", "brand": "Cookout", "brand:wikidata": "Q5166992", "nsi_id": "cookout-4d2ff4"}, "geometry": {"type": "Point", "coordinates": [-86.796708, 33.512456]}},
{"type": "Feature", "id": "9w1ft-UIKAZ8A27e18NqLqXlgz4=", "properties": {"ref": "176", "@spider": "cookout", "amenity": "fast_food", "cuisine": "american", "takeaway": "yes", "addr:full": "8970 University Blvd", "addr:city": "North Charleston", "addr:state": "SC", "addr:postcode": "29406", "addr:country": "US", "name": "North Charleston", "website": "https://www.facebook.com/Cook-Out-North-Charleston-103928453102082/", "opening_hours": "Mo-Th 10:30-03:30; Fr-Sa 10:30-04:30; Su 10:30-03:30", "brand": "Cookout", "brand:wikidata": "Q5166992", "nsi_id": "cookout-4d2ff4"}, "geometry": {"type": "Point", "coordinates": [-80.062084, 32.975628]}},
{"type": "Feature", "id": "SgUgJPiLn2gvIQPpXVdxImoKmzo=", "properties": {"ref": "2875", "@spider": "cookout", "amenity": "fast_food", "cuisine": "american", "takeaway": "yes", "addr:full": "281 Lakeshore Pkwy", "addr:city": "Birmingham", "addr:state": "AL", "addr:postcode": "35209", "addr:country": "US", "name": "Birmingham", "opening_hours": "Mo-Th 10:30-03:00; Fr-Sa 10:30-04:00; Su 10:30-03:00", "brand": "Cookout", "brand:wikidata": "Q5166992", "nsi_id": "cookout-4d2ff4"}, "geometry": {"type": "Point", "coordinates": [-86.827728, 33.444221]}},
{"type": "Feature", "id": "4jwijS8AVCwCtoRNJdcxAeXoMmA=", "properties": {"ref": "2566", "@spider": "cookout", "amenity": "fast_food", "cuisine": "american", "takeaway": "yes", "addr:full": "8475 Dorchester Rd.", "addr:city": "North Charleston", "addr:state": "SC", "addr:postcode": "29420", "addr:country": "US", "name": "Dorchester Rd", "brand": "Cookout", "brand:wikidata": "Q5166992", "nsi_id": "cookout-4d2ff4"}, "geometry": {"type": "Point", "coordinates": [-80.112514, 32.916968]}},
{"type": "Feature", "id": "Tn7KGu9lCFtf6EarT2PaBKa-uBA=", "properties": {"ref": "1417", "@spider": "cookout", "amenity": "fast_food", "cuisine": "american", "takeaway": "yes", "addr:full": "3061 Watson Blvd.", "addr:city": "Warner Robins", "addr:state": "GA", "addr:postcode": "31093", "addr:country": "US", "name": "Warner Robins #2", "opening_hours": "Mo-Th 10:30-03:00; Fr-Sa 10:30-04:00; Su 10:30-03:00", "brand": "Cookout", "brand:wikidata": "Q5166992", "nsi_id": "cookout-4d2ff4"}, "geometry": {"type": "Point", "coordinates": [-83.692762, 32.616471]}},
{"type": "Feature", "id": "D5s4MXLHHaHBt0w_yefC1Uzy1yc=", "properties": {"ref": "390", "@spider": "cookout", "amenity": "fast_food", "cuisine": "american", "takeaway": "yes", "addr:full": "113 Richard B Russell Pkwy", "addr:city": "Warner Robins", "addr:state": "GA", "addr:postcode": "31088", "addr:country": "US", "name": "Warner Robins", "website": "https://www.facebook.com/Cook-Out-Warner-Robins-GA-914229221931249/", "opening_hours": "Mo-Th 10:30-03:00; Fr-Sa 10:30-04:00; Su 10:30-03:00", "brand": "Cookout", "brand:wikidata": "Q5166992", "nsi_id": "cookout-4d2ff4"}, "geometry": {"type": "Point", "coordinates": [-83.655558, 32.593714]}},
{"type": "Feature", "id": "NVdLs-yenRjbCw5iK8chsKEwzGI=", "properties": {"ref": "180", "@spider": "cookout", "amenity": "fast_food", "cuisine": "american", "takeaway": "yes", "addr:full": "2036 Savannah Hwy", "addr:city": "Charleston", "addr:state": "SC", "addr:postcode": "29407", "addr:country": "US", "name": "Charleston", "website": "https://www.facebook.com/Cook-Out-Charleston-880697992009879/", "opening_hours": "Mo-Th 10:30-03:00; Fr-Sa 10:30-04:00; Su 10:30-03:00", "brand": "Cookout", "brand:wikidata": "Q5166992", "nsi_id": "cookout-4d2ff4"}, "geometry": {"type": "Point", "coordinates": [-80.02966, 32.790155]}},
{"type": "Feature", "id": "V8DCx7wzC4wRb3FwrECz00LTqnw=", "properties": {"ref": "3264", "@spider": "cookout", "amenity": "fast_food", "cuisine": "american", "takeaway": "yes", "addr:full": "1340 Sam Nunn Blvd", "addr:city": "Perry", "addr:state": "GA", "addr:postcode": "31069", "addr:country": "US", "name": "Perry", "opening_hours": "Mo-Th 10:30-03:00; Fr-Sa 10:30-04:00; Su 10:30-03:00", "brand": "Cookout", "brand:wikidata": "Q5166992", "nsi_id": "cookout-4d2ff4"}, "geometry": {"type": "Point", "coordinates": [-83.739117, 32.467614]}},
{"type": "Feature", "id": "-1lPTW6NZxERfqNrdZOJ8sS24os=", "properties": {"ref": "1407", "@spider": "cookout", "amenity": "fast_food", "cuisine": "american", "takeaway": "yes", "addr:full": "1711 N HWY 17", "addr:city": "MT Pleasant", "addr:state": "SC", "addr:postcode": "29464", "addr:country": "US", "name": "Mt Pleasant", "opening_hours": "Mo-Th 10:30-03:00; Fr-Sa 10:30-04:00; Su 10:30-03:00", "brand": "Cookout", "brand:wikidata": "Q5166992", "nsi_id": "cookout-4d2ff4"}, "geometry": {"type": "Point", "coordinates": [-79.838832, 32.823879]}},
{"type": "Feature", "id": "0sP-i5kSeol3-A9Gnu8DxqTzEW8=", "properties": {"ref": "352", "@spider": "cookout", "amenity": "fast_food", "cuisine": "american", "takeaway": "yes", "addr:full": "550 Fair Rd", "addr:city": "Statesboro", "addr:state": "GA", "addr:postcode": "30458", "addr:country": "US", "name": "Statesboro", "website": "https://www.facebook.com/Cook-Out-Statesboro-440399366047227/", "opening_hours": "Mo-Th 10:30-03:30; Fr-Sa 10:30-04:30; Su 10:30-03:30", "brand": "Cookout", "brand:wikidata": "Q5166992", "nsi_id": "cookout-4d2ff4"}, "geometry": {"type": "Point", "coordinates": [-81.780342, 32.432718]}},
{"type": "Feature", "id": "RjlIgysxbYJO4AvCbvBhJg1Eq3A=", "properties": {"ref": "3205", "@spider": "cookout", "amenity": "fast_food", "cuisine": "american", "takeaway": "yes", "addr:full": "8569 HWY 51", "addr:city": "Millington", "addr:state": "TN", "addr:postcode": "38053", "addr:country": "US", "name": "Millington", "opening_hours": "Mo-Th 10:30-03:00; Fr-Sa 10:30-04:00; Su 10:30-03:00", "brand": "Cookout", "brand:wikidata": "Q5166992", "nsi_id": "cookout-4d2ff4"}, "geometry": {"type": "Point", "coordinates": [-89.893008, 35.360422]}},
{"type": "Feature", "id": "i6aQV616Okh1JWpF5gaSbDBK8do=", "properties": {"ref": "1904", "@spider": "cookout", "amenity": "fast_food", "cuisine": "american", "takeaway": "yes", "addr:full": "7970 US Hwy 64", "addr:city": "Memphis", "addr:state": "TN", "addr:postcode": "38133", "addr:country": "US", "name": "Memphis", "opening_hours": "Mo-Th 10:30-02:00; Fr-Sa 10:30-03:00; Su 10:30-02:00", "brand": "Cookout", "brand:wikidata": "Q5166992", "nsi_id": "cookout-4d2ff4"}, "geometry": {"type": "Point", "coordinates": [-89.797508, 35.205113]}},
{"type": "Feature", "id": "BZbAps-kutLCJCakKumnx6O5fJA=", "properties": {"ref": "2871", "@spider": "cookout", "amenity": "fast_food", "cuisine": "american", "takeaway": "yes", "addr:full": "3189 Manchester Expy", "addr:city": "Columbus", "addr:state": "GA", "addr:postcode": "31909", "addr:country": "US", "name": "Columbus, GA", "opening_hours": "Mo-Th 10:30-03:00; Fr-Sa 10:30-04:00; Su 10:30-03:00", "brand": "Cookout", "brand:wikidata": "Q5166992", "nsi_id": "cookout-4d2ff4"}, "geometry": {"type": "Point", "coordinates": [-84.943627, 32.50862]}},
{"type": "Feature", "id": "Cr_1ZrMyQNWJSE6djDkVIKgtY6o=", "properties": {"ref": "2568", "@spider": "cookout", "amenity": "fast_food", "cuisine": "american", "takeaway": "yes", "addr:full": "2168 Interstate Dr.", "addr:city": "Opelika", "addr:state": "AL", "addr:postcode": "36801", "addr:country": "US", "name": "Opelika", "opening_hours": "Mo-Th 10:30-03:00; Fr-Sa 10:30-04:00; Su 10:30-03:00", "brand": "Cookout", "brand:wikidata": "Q5166992", "nsi_id": "cookout-4d2ff4"}, "geometry": {"type": "Point", "coordinates": [-85.405024, 32.616904]}},
{"type": "Feature", "id": "F-TDPed0X5qXeSqmChK5mu-IahM=", "properties": {"ref": "1925", "@spider": "cookout", "amenity": "fast_food", "cuisine": "american", "takeaway": "yes", "addr:full": "1601 Opelika Rd.", "addr:city": "Auburn", "addr:state": "AL", "addr:postcode": "36830", "addr:country": "US", "name": "Auburn", "opening_hours": "Mo-Th 10:30-03:00; Fr-Sa 10:30-04:00; Su 10:30-03:00", "brand": "Cookout", "brand:wikidata": "Q5166992", "nsi_id": "cookout-4d2ff4"}, "geometry": {"type": "Point", "coordinates": [-85.448159, 32.624427]}},
{"type": "Feature", "id": "tkHO2y214aIzMs1903vTSztRy8g=", "properties": {"ref": "3209", "@spider": "cookout", "amenity": "fast_food", "cuisine": "american", "takeaway": "yes", "addr:full": "7755 Winchester Rd", "addr:city": "Memphis", "addr:state": "TN", "addr:postcode": "38125", "addr:country": "US", "name": "Winchester Rd", "opening_hours": "Mo-Th 10:30-03:00; Fr-Sa 10:30-04:00; Su 10:30-03:00", "brand": "Cookout", "brand:wikidata": "Q5166992", "nsi_id": "cookout-4d2ff4"}, "geometry": {"type": "Point", "coordinates": [-89.805017, 35.048793]}},
{"type": "Feature", "id": "MJyi3hnDWe7MeLmWhBZHi-yxRSo=", "properties": {"ref": "1749", "@spider": "cookout", "amenity": "fast_food", "cuisine": "american", "takeaway": "yes", "addr:full": "101 Central Ave", "addr:city": "Hilton Head", "addr:state": "SC", "addr:postcode": "29926", "addr:country": "US", "name": "Hilton Head", "opening_hours": "Mo-Th 10:30-01:00; Fr-Sa 10:30-03:00; Su 10:30-01:00", "brand": "Cookout", "brand:wikidata": "Q5166992", "nsi_id": "cookout-4d2ff4"}, "geometry": {"type": "Point", "coordinates": [-80.726287, 32.213117]}},
{"type": "Feature", "id": "PzKPRqofuIfJMFaJik2dpjrTE18=", "properties": {"ref": "369", "@spider": "cookout", "amenity": "fast_food", "cuisine": "american", "takeaway": "yes", "addr:full": "480 Pooler Pkwy", "addr:city": "Pooler", "addr:state": "GA", "addr:postcode": "31322", "addr:country": "US", "name": "Pooler", "website": "https://www.facebook.com/Cook-Out-Pooler-644125142338597/", "opening_hours": "Mo-Th 10:30-02:00; Fr-Sa 10:30-03:00; Su 10:30-02:00", "brand": "Cookout", "brand:wikidata": "Q5166992", "nsi_id": "cookout-4d2ff4"}, "geometry": {"type": "Point", "coordinates": [-81.254587, 32.136595]}},
{"type": "Feature", "id": "bzS6pBY-8SQCEZL_pokAyTV_e9I=", "properties": {"ref": "458", "@spider": "cookout", "amenity": "fast_food", "cuisine": "american", "takeaway": "yes", "addr:full": "11700 Abercorn St", "addr:city": "Savannah", "addr:state": "GA", "addr:postcode": "31419", "addr:country": "US", "name": "Abercorn", "website": "https://www.facebook.com/Cook-Out-Abercorn-520763008090740/", "opening_hours": "Mo-Th 10:30-03:00; Fr-Sa 10:30-04:00; Su 10:30-03:00", "brand": "Cookout", "brand:wikidata": "Q5166992", "nsi_id": "cookout-4d2ff4"}, "geometry": {"type": "Point", "coordinates": [-81.151636, 31.982949]}},
{"type": "Feature", "id": "-gDu3HBmEzocqOer8bxgK8Q3Fbc=", "properties": {"ref": "1409", "@spider": "cookout", "amenity": "fast_food", "cuisine": "american", "takeaway": "yes", "addr:full": "705 W Oglethorpe Hwy", "addr:city": "Hinesville", "addr:state": "GA", "addr:postcode": "31313", "addr:country": "US", "name": "Hinesville", "opening_hours": "Mo-Th 10:30-03:00; Fr-Sa 10:30-04:00; Su 10:30-03:00", "brand": "Cookout", "brand:wikidata": "Q5166992", "nsi_id": "cookout-4d2ff4"}, "geometry": {"type": "Point", "coordinates": [-81.599528, 31.822584]}},
{"type": "Feature", "id": "eqGIUqgMJuwn9n2PzZ1L9xDOmTg=", "properties": {"ref": "1885", "@spider": "cookout", "amenity": "fast_food", "cuisine": "american", "takeaway": "yes", "addr:full": "1405 E 16TH Ave.", "addr:city": "Cordele", "addr:state": "GA", "addr:postcode": "31015", "addr:country": "US", "name": "Cordele", "opening_hours": "Mo-Th 10:30-01:00; Fr-Sa 10:30-03:00; Su 10:30-01:00", "brand": "Cookout", "brand:wikidata": "Q5166992", "nsi_id": "cookout-4d2ff4"}, "geometry": {"type": "Point", "coordinates": [-83.759947, 31.961434]}},
{"type": "Feature", "id": "s_VyYJGUKMmgk8uMse-FDa_pOxo=", "properties": {"ref": "1888", "@spider": "cookout", "amenity": "fast_food", "cuisine": "american", "takeaway": "yes", "addr:full": "112 Hudson St.", "addr:city": "Americus", "addr:state": "GA", "addr:postcode": "31709", "addr:country": "US", "name": "Americus", "opening_hours": "Mo-Th 10:30-02:00; Fr-Sa 10:30-03:00; Su 10:30-02:00", "brand": "Cookout", "brand:wikidata": "Q5166992", "nsi_id": "cookout-4d2ff4"}, "geometry": {"type": "Point", "coordinates": [-84.217869, 32.073063]}},
{"type": "Feature", "id": "2mcG5Prh6Bs8d2yNnNY3FkQ5WzY=", "properties": {"ref": "3330", "@spider": "cookout", "amenity": "fast_food", "cuisine": "american", "takeaway": "yes", "addr:full": "4950 New Jesup Rd", "addr:city": "Brunswick", "addr:state": "GA", "addr:postcode": "31520", "addr:country": "US", "name": "BRUNSWICK, GA", "opening_hours": "Mo-Th 10:30-03:00; Fr-Sa 10:30-04:00; Su 10:30-03:00", "brand": "Cookout", "brand:wikidata": "Q5166992", "nsi_id": "cookout-4d2ff4"}, "geometry": {"type": "Point", "coordinates": [-81.518197, 31.217343]}},
{"type": "Feature", "id": "yATgHKlFpZq0dqzcNtJ2VGfoCic=", "properties": {"ref": "2911", "@spider": "cookout", "amenity": "fast_food", "cuisine": "american", "takeaway": "yes", "addr:full": "1401 US 82", "addr:city": "Tifton", "addr:state": "GA", "addr:postcode": "31793", "addr:country": "US", "name": "Tifton", "opening_hours": "Mo-Th 10:30-03:00; Fr-Sa 10:30-04:00; Su 10:30-03:00", "brand": "Cookout", "brand:wikidata": "Q5166992", "nsi_id": "cookout-4d2ff4"}, "geometry": {"type": "Point", "coordinates": [-83.535961, 31.448985]}},
{"type": "Feature", "id": "z29rddteBjIg7FKnnEhoo1l8k9Y=", "properties": {"ref": "1727", "@spider": "cookout", "amenity": "fast_food", "cuisine": "american", "takeaway": "yes", "addr:full": "100 15th St E", "addr:city": "Tuscaloosa", "addr:state": "AL", "addr:postcode": "35401", "addr:country": "US", "name": "Tuscaloosa", "opening_hours": "Mo-Th 10:30-03:30; Fr-Sa 10:30-04:30; Su 10:30-03:30", "brand": "Cookout", "brand:wikidata": "Q5166992", "nsi_id": "cookout-4d2ff4"}, "geometry": {"type": "Point", "coordinates": [-87.535035, 33.198699]}},
{"type": "Feature", "id": "wmt5S2vRrbpn4JWUrSXx1YuvNb0=", "properties": {"ref": "2849", "@spider": "cookout", "amenity": "fast_food", "cuisine": "american", "takeaway": "yes", "addr:full": "503 N 18th Ave", "addr:city": "Columbus", "addr:state": "MS", "addr:postcode": "39705", "addr:country": "US", "name": "Columbus, MS", "brand": "Cookout", "brand:wikidata": "Q5166992", "nsi_id": "cookout-4d2ff4"}, "geometry": {"type": "Point", "coordinates": [-88.432519, 33.516088]}},
{"type": "Feature", "id": "EQSknJPbAw3iEQSdQvvknkaSWhE=", "properties": {"ref": "2992", "@spider": "cookout", "amenity": "fast_food", "cuisine": "american", "takeaway": "yes", "addr:full": "2557 COBBS FORD RD", "addr:city": "PRATTVILLE", "addr:state": "AL", "addr:postcode": "36066", "addr:country": "US", "name": "PRATTVILLE", "opening_hours": "Mo-Th 10:30-03:00; Fr-Sa 10:30-04:00; Su 10:30-03:00", "brand": "Cookout", "brand:wikidata": "Q5166992", "nsi_id": "cookout-4d2ff4"}, "geometry": {"type": "Point", "coordinates": [-86.392743, 32.460909]}},
{"type": "Feature", "id": "trRjt2fqOQV-8qJR1hgXbg-300U=", "properties": {"ref": "2847", "@spider": "cookout", "amenity": "fast_food", "cuisine": "american", "takeaway": "yes", "addr:full": "2610 Zelda Rd", "addr:city": "Montgomery", "addr:state": "AL", "addr:postcode": "36107", "addr:country": "US", "name": "Montgomery, AL", "brand": "Cookout", "brand:wikidata": "Q5166992", "nsi_id": "cookout-4d2ff4"}, "geometry": {"type": "Point", "coordinates": [-86.27097, 32.363701]}},
{"type": "Feature", "id": "PNkm9M8PSnKp4cpU6aYyGJRuDys=", "properties": {"ref": "1715", "@spider": "cookout", "amenity": "fast_food", "cuisine": "american", "takeaway": "yes", "addr:full": "102 MS-12", "addr:city": "Starkville", "addr:state": "MS", "addr:postcode": "39759", "addr:country": "US", "name": "Starkville", "opening_hours": "Mo-Th 10:30-03:00; Fr-Sa 10:30-04:00; Su 10:30-03:00", "brand": "Cookout", "brand:wikidata": "Q5166992", "nsi_id": "cookout-4d2ff4"}, "geometry": {"type": "Point", "coordinates": [-88.813509, 33.45451]}},
{"type": "Feature", "id": "3PKay7f81X2KHa-SO2IlkpMWzj0=", "properties": {"ref": "3042", "@spider": "cookout", "amenity": "fast_food", "cuisine": "american", "takeaway": "yes", "addr:full": "7406 HACKS CROSS RD", "addr:city": "OLIVE BRANCH", "addr:state": "MS", "addr:postcode": "38654", "addr:country": "US", "name": "OLIVE BRANCH", "opening_hours": "Mo-Th 10:30-02:00; Fr-Sa 10:30-03:00; Su 10:30-02:00", "brand": "Cookout", "brand:wikidata": "Q5166992", "nsi_id": "cookout-4d2ff4"}, "geometry": {"type": "Point", "coordinates": [-89.794582, 34.968354]}},
{"type": "Feature", "id": "mKZqiklHG4pvokyIzs5y4YNQxnw=", "properties": {"ref": "1713", "@spider": "cookout", "amenity": "fast_food", "cuisine": "american", "takeaway": "yes", "addr:full": "2195 Jackson Ave W", "addr:city": "Oxford", "addr:state": "MS", "addr:postcode": "38655", "addr:country": "US", "name": "Oxford", "opening_hours": "Mo-Th 10:30-03:00; Fr-Sa 10:30-04:00; Su 10:30-03:00", "brand": "Cookout", "brand:wikidata": "Q5166992", "nsi_id": "cookout-4d2ff4"}, "geometry": {"type": "Point", "coordinates": [-89.56018, 34.363304]}},
{"type": "Feature", "id": "LKZl95QFb70_MoMCNKjZTAeQ_Vc=", "properties": {"ref": "1932", "@spider": "cookout", "amenity": "fast_food", "cuisine": "american", "takeaway": "yes", "addr:full": "757 South Highland Street", "addr:city": "Memphis", "addr:state": "TN", "addr:postcode": "38111", "addr:country": "US", "name": "S Highland St", "opening_hours": "Mo-Th 10:30-03:00; Fr-Sa 10:30-04:00; Su 10:30-03:00", "brand": "Cookout", "brand:wikidata": "Q5166992", "nsi_id": "cookout-4d2ff4"}, "geometry": {"type": "Point", "coordinates": [-89.946396, 35.11081]}},
{"type": "Feature", "id": "hpByQoAfaIFoTJ0TiS6hl7EFzvw=", "properties": {"ref": "1902", "@spider": "cookout", "amenity": "fast_food", "cuisine": "american", "takeaway": "yes", "addr:full": "1463 Union Ave.", "addr:city": "Memphis", "addr:state": "TN", "addr:postcode": "38104", "addr:country": "US", "name": "Union Ave", "opening_hours": "Mo-Th 10:30-03:00; Fr-Sa 10:30-04:00; Su 10:30-03:00", "brand": "Cookout", "brand:wikidata": "Q5166992", "nsi_id": "cookout-4d2ff4"}, "geometry": {"type": "Point", "coordinates": [-90.012476, 35.136103]}},
{"type": "Feature", "id": "ib97YHdulKBNJNvU-DSODjTdFBo=", "properties": {"ref": "3083", "@spider": "cookout", "amenity": "fast_food", "cuisine": "american", "takeaway": "yes", "addr:full": "4286 ELVIS PRESLEY BLVD", "addr:city": "MEMPHIS", "addr:state": "TN", "addr:postcode": "38116", "addr:country": "US", "name": "ELVIS PRESLEY BLVD", "opening_hours": "Mo-Th 10:30-03:00; Fr-Sa 10:30-04:00; Su 10:30-03:00", "brand": "Cookout", "brand:wikidata": "Q5166992", "nsi_id": "cookout-4d2ff4"}, "geometry": {"type": "Point", "coordinates": [-90.024597, 35.031801]}},
{"type": "Feature", "id": "KhjsoK1i8iNQ5By3YZFjMIpdFYI=", "properties": {"ref": "2557", "@spider": "cookout", "amenity": "fast_food", "cuisine": "american", "takeaway": "yes", "addr:full": "1107 US HWY 231 S.", "addr:city": "Troy", "addr:state": "AL", "addr:postcode": "36081", "addr:country": "US", "name": "Troy", "opening_hours": "Mo-Th 10:30-02:00; Fr-Sa 10:30-03:00; Su 10:30-02:00", "brand": "Cookout", "brand:wikidata": "Q5166992", "nsi_id": "cookout-4d2ff4"}, "geometry": {"type": "Point", "coordinates": [-85.956398, 31.783272]}},
{"type": "Feature", "id": "rxWfVl2ug_HvyjG8KxVR8-vxyMg=", "properties": {"ref": "2857", "@spider": "cookout", "amenity": "fast_food", "cuisine": "american", "takeaway": "yes", "addr:full": "609 N Slappey Blvd", "addr:city": "Albany", "addr:state": "GA", "addr:postcode": "31701", "addr:country": "US", "name": "Albany, GA", "opening_hours": "Mo-Th 10:30-03:00; Fr-Sa 10:30-04:00; Su 10:30-03:00", "brand": "Cookout", "brand:wikidata": "Q5166992", "nsi_id": "cookout-4d2ff4"}, "geometry": {"type": "Point", "coordinates": [-84.176607, 31.585209]}},
{"type": "Feature", "id": "SQjTAThGFcgiZhjD67cZ4-bSXL4=", "properties": {"ref": "2936", "@spider": "cookout", "amenity": "fast_food", "cuisine": "american", "takeaway": "yes", "addr:full": "1219 S Frontage Rd", "addr:city": "Meridian", "addr:state": "MS", "addr:postcode": "39301", "addr:country": "US", "name": "Meridian", "opening_hours": "Mo-Th 10:30-03:00; Fr-Sa 10:30-04:00; Su 10:30-03:00", "brand": "Cookout", "brand:wikidata": "Q5166992", "nsi_id": "cookout-4d2ff4"}, "geometry": {"type": "Point", "coordinates": [-88.683854, 32.357791]}},
{"type": "Feature", "id": "eZO96_BwoBhNHtzq_tG2o3VD4tY=", "properties": {"ref": "2755", "@spider": "cookout", "amenity": "fast_food", "cuisine": "american", "takeaway": "yes", "addr:full": "990 N St Augustine Rd.", "addr:city": "Valdosta", "addr:state": "GA", "addr:postcode": "31601", "addr:country": "US", "name": "Valdosta", "brand": "Cookout", "brand:wikidata": "Q5166992", "nsi_id": "cookout-4d2ff4"}, "geometry": {"type": "Point", "coordinates": [-83.31758, 30.838444]}},
{"type": "Feature", "id": "OnpykKz4UpXCiEdLoZoGPVYq_c8=", "properties": {"ref": "1919", "@spider": "cookout", "amenity": "fast_food", "cuisine": "american", "takeaway": "yes", "addr:full": "986 High St.", "addr:city": "Jackson", "addr:state": "MS", "addr:postcode": "39202", "addr:country": "US", "name": "Jackson", "brand": "Cookout", "brand:wikidata": "Q5166992", "nsi_id": "cookout-4d2ff4"}, "geometry": {"type": "Point", "coordinates": [-90.174037, 32.304015]}},
{"type": "Feature", "id": "aX71WCQba_dwgXSj4lKNa6xzwnw=", "properties": {"ref": "2679", "@spider": "cookout", "amenity": "fast_food", "cuisine": "american", "takeaway": "yes", "addr:full": "2603 Highway 80 West", "addr:city": "Jackson", "addr:state": "MS", "addr:postcode": "39204", "addr:country": "US", "name": "Highway 80", "brand": "Cookout", "brand:wikidata": "Q5166992", "nsi_id": "cookout-4d2ff4"}, "geometry": {"type": "Point", "coordinates": [-90.232533, 32.293191]}},
{"type": "Feature", "id": "etGZVcGRjw3lYvqusm8Vy0Pt5_w=", "properties": {"ref": "1711", "@spider": "cookout", "amenity": "fast_food", "cuisine": "american", "takeaway": "yes", "addr:full": "3601 Hardy St", "addr:city": "Hattiesburg", "addr:state": "MS", "addr:postcode": "39402", "addr:country": "US", "name": "Hattiesburg", "opening_hours": "Mo-Th 10:30-03:00; Fr-Sa 10:30-04:00; Su 10:30-03:00", "brand": "Cookout", "brand:wikidata": "Q5166992", "nsi_id": "cookout-4d2ff4"}, "geometry": {"type": "Point", "coordinates": [-89.343521, 31.32527]}},
{"type": "Feature", "id": "7v9QO3SGqsWLvzRS4qoSh4nJ-Nc=", "properties": {"ref": "2864", "@spider": "cookout", "amenity": "fast_food", "cuisine": "american", "takeaway": "yes", "addr:full": "116 S. University Blvd.", "addr:city": "Mobile", "addr:state": "AL", "addr:postcode": "36608", "addr:country": "US", "name": "Mobile", "opening_hours": "Mo-Th 10:30-03:00; Fr-Sa 10:30-04:00; Su 10:30-03:00", "brand": "Cookout", "brand:wikidata": "Q5166992", "nsi_id": "cookout-4d2ff4"}, "geometry": {"type": "Point", "coordinates": [-88.172243, 30.685416]}}]}