{"type":"FeatureCollection","features":[{"type": "Feature", "id": "N5_vHXT-60T4C70hsLBgFZxU9IQ=", "properties": {"ref": "252856", "@spider": "coopers_hawk", "amenity": "restaurant", "cuisine": "pizza", "official_name": "Old Chicago Pizza & Taproom", "addr:full": "20423 N Rand Rd", "addr:city": "Kildeer", "addr:state": "IL", "addr:postcode": "60074", "name": "Kildeer, IL", "website": "https://chwinery.com/locations/illinois/kildeer-il", "brand": "Cooper's Hawk", "brand:wikidata": "Q64411347", "nsi_id": "oldchicago-96af40"}, "geometry": {"type": "Point", "coordinates": [-88.0478849, 42.1603592]}},
{"type": "Feature", "id": "DA4IKhkdx9lB9oeeIJZ-raTn53g=", "properties": {"ref": "243975", "@spider": "coopers_hawk", "amenity": "restaurant", "cuisine": "pizza", "official_name": "Old Chicago Pizza & Taproom", "addr:full": "12801 University Ave", "addr:city": "Clive", "addr:state": "IA", "addr:postcode": "50325", "name": "Clive, IA", "website": "https://chwinery.com/locations/iowa/clive-ia", "brand": "Cooper's Hawk", "brand:wikidata": "Q64411347", "nsi_id": "oldchicago-96af40"}, "geometry": {"type": "Point", "coordinates": [-93.7949935, 41.600935]}},
{"type": "Feature", "id": "xfzItOTov2mrCSQc-CqjEwh-1_o=", "properties": {"ref": "243969", "@spider": "coopers_hawk", "amenity": "restaurant", "cuisine": "pizza", "official_name": "Old Chicago Pizza & Taproom", "addr:full": "7799 W. Grand Ave", "addr:city": "Gurnee", "addr:state": "IL", "addr:postcode": "60031", "name": "Gurnee, IL", "website": "https://chwinery.com/locations/illinois/gurnee-il", "brand": "Cooper's Hawk", "brand:wikidata": "Q64411347", "nsi_id": "oldchicago-96af40"}, "geometry": {"type": "Point", "coordinates": [-87.9914426, 42.3857444]}},
{"type": "Feature", "id": "_2-YvywaVbHD7nqSDt3iXqrirqA=", "properties": {"ref": "212576", "@spider": "coopers_hawk", "amenity": "restaurant", "cuisine": "pizza", "official_name": "Old Chicago Pizza & Taproom", "addr:full": "540 NW Chipman Rd", "addr:city": "Lee's Summit", "addr:state": "MO", "addr:postcode": "64086", "name": "Lee's Summit, MO", "website": "https://chwinery.com/locations/missouri/lees-summit-mo", "brand": "Cooper's Hawk", "brand:wikidata": "Q64411347", "nsi_id": "oldchicago-96af40"}, "geometry": {"type": "Point", "coordinates": [-94.3923207, 38.9257371]}},
{"type": "Feature", "id": "4qWHSyuosS02Bf5-2q6M8rA82Ac=", "properties": {"ref": "212571", "@spider": "coopers_hawk", "amenity": "restaurant", "cuisine": "pizza", "official_name": "Old Chicago Pizza & Taproom", "addr:full": "5300 N Service Rd", "addr:city": "St. Peters", "addr:state": "MO", "addr:postcode": "63376", "name": "St. Peters, MO", "website": "https://chwinery.com/locations/missouri/st-peters-mo", "brand": "Cooper's Hawk", "brand:wikidata": "Q64411347", "nsi_id": "oldchicago-96af40"}, "geometry": {"type": "Point", "coordinates": [-90.6180878, 38.8013059]}},
{"type": "Feature", "id": "e165GyAtZl5fKC63V_8yTAhkMHQ=", "properties": {"ref": "212567", "@spider": "coopers_hawk", "amenity": "restaurant", "cuisine": "pizza", "official_name": "Old Chicago Pizza & Taproom", "addr:full": "4705 Talmadge Rd", "addr:city": "Toledo", "addr:state": "OH", "addr:postcode": "43623", "name": "Toledo, OH", "website": "https://chwinery.com/locations/ohio/toledo-oh", "brand": "Cooper's Hawk", "brand:wikidata": "Q64411347", "nsi_id": "oldchicago-96af40"}, "geometry": {"type": "Point", "coordinates": [-83.6460916, 41.7011625]}},
{"type": "Feature", "id": "ed300ZKWg0hM3ojITw9KbMATq4U=", "properties": {"ref": "151411", "@spider": "coopers_hawk", "amenity": "restaurant", "cuisine": "pizza", "official_name": "Old Chicago Pizza & Taproom", "addr:full": "3130 Fruitville Commons Blvd", "addr:city": "Sarasota", "addr:state": "FL", "addr:postcode": "34240", "name": "Sarasota, FL", "website": "https://chwinery.com/locations/florida/sarasota-fl", "brand": "Cooper's Hawk", "brand:wikidata": "Q64411347", "nsi_id": "oldchicago-96af40"}, "geometry": {"type": "Point", "coordinates": [-82.4425108, 27.3390796]}},
{"type": "Feature", "id": "5cIR_nJ-KyXW0VnJr6NSJHbJBgg=", "properties": {"ref": "80588", "@spider": "coopers_hawk", "amenity": "restaurant", "cuisine": "pizza", "official_name": "Old Chicago Pizza & Taproom", "addr:full": "6731 Dempster Street", "addr:city": "Morton Grove", "addr:state": "IL", "addr:postcode": "60053", "name": "Morton Grove, IL", "website": "https://chwinery.com/locations/illinois/morton-grove-il", "brand": "Cooper's Hawk", "brand:wikidata": "Q64411347", "nsi_id": "oldchicago-96af40"}, "geometry": {"type": "Point", "coordinates": [-87.794562, 42.0408023]}},
{"type": "Feature", "id": "-tDfSxPejHsqTPu6pV8qHD8Njmw=", "properties": {"ref": "80587", "@spider": "coopers_hawk", "amenity": "restaurant", "cuisine": "pizza", "official_name": "Old Chicago Pizza & Taproom", "addr:full": "8696 E US Hwy 36", "addr:city": "Avon", "addr:state": "IN", "addr:postcode": "46123", "name": "Avon, IN", "website": "https://chwinery.com/locations/indiana/avon-in", "brand": "Cooper's Hawk", "brand:wikidata": "Q64411347", "nsi_id": "oldchicago-96af40"}, "geometry": {"type": "Point", "coordinates": [-86.3679989, 39.7637798]}},
{"type": "Feature", "id": "1u7CUaRwchu-BDlkxhM0GQgYISg=", "properties": {"ref": "80586", "@spider": "coopers_hawk", "amenity": "restaurant", "cuisine": "pizza", "official_name": "Old Chicago Pizza & Taproom", "addr:full": "3325 W Chandler Blvd", "addr:city": "Chandler", "addr:state": "AZ", "addr:postcode": "85226", "name": "Chandler, AZ", "website": "https://chwinery.com/locations/arizona/chandler-az", "brand": "Cooper's Hawk", "brand:wikidata": "Q64411347", "nsi_id": "oldchicago-96af40"}, "geometry": {"type": "Point", "coordinates": [-111.8992443, 33.3045708]}},
{"type": "Feature", "id": "W0HbdwtVrMmaq1C2rDYoEwTjjTc=", "properties": {"ref": "58867", "@spider": "coopers_hawk", "amenity": "restaurant", "cuisine": "pizza", "official_name": "Old Chicago Pizza & Taproom", "addr:full": "7361 E Frank Lloyd Wright Blvd", "addr:city": "Scottsdale", "addr:state": "AZ", "addr:postcode": "85260", "name": "Scottsdale, AZ", "website": "https://chwinery.com/locations/arizona/scottsdale-az", "brand": "Cooper's Hawk", "brand:wikidata": "Q64411347", "nsi_id": "oldchicago-96af40"}, "geometry": {"type": "Point", "coordinates": [-111.9217412, 33.6368758]}},
{"type": "Feature", "id": "9kVPdzSKr-fDmS-CT8y3onAbKYE=", "properties": {"ref": "58863", "@spider": "coopers_hawk", "amenity": "restaurant", "cuisine": "pizza", "official_name": "Old Chicago Pizza & Taproom", "addr:full": "1822 Pointe Blvd.", "addr:city": "Dania Beach", "addr:state": "FL", "addr:postcode": "33004", "name": "Dania Beach, FL", "website": "https://chwinery.com/locations/florida/dania-beach-fl", "brand": "Cooper's Hawk", "brand:wikidata": "Q64411347", "nsi_id": "oldchicago-96af40"}, "geometry": {"type": "Point", "coordinates": [-80.16091133, 26.05332554]}},
{"type": "Feature", "id": "PzHe0Ua_QQSRiZytxGpvtHOlOiY=", "properties": {"ref": "58778", "@spider": "coopers_hawk", "amenity": "restaurant", "cuisine": "pizza", "official_name": "Old Chicago Pizza & Taproom", "addr:full": "58 E Oak St", "addr:city": "Chicago", "addr:state": "IL", "addr:postcode": "60611", "name": "Esquire by Cooper's Hawk - Chicago", "website": "https://chwinery.com/locations/illinois/chicago", "brand": "Cooper's Hawk", "brand:wikidata": "Q64411347", "nsi_id": "oldchicago-96af40"}, "geometry": {"type": "Point", "coordinates": [-87.626112, 41.901049]}},
{"type": "Feature", "id": "DpO54JfeGoYOZXKwNdcQ5QJo8Vw=", "properties": {"ref": "58334", "@spider": "coopers_hawk", "amenity": "restaurant", "cuisine": "pizza", "official_name": "Old Chicago Pizza & Taproom", "addr:full": "1801 Butterfield Rd", "addr:city": "Downers Grove", "addr:state": "IL", "addr:postcode": "60515", "name": "Downers Grove, IL", "website": "https://chwinery.com/locations/illinois/downers-grove", "brand": "Cooper's Hawk", "brand:wikidata": "Q64411347", "nsi_id": "oldchicago-96af40"}, "geometry": {"type": "Point", "coordinates": [-88.0307296, 41.8321561]}},
{"type": "Feature", "id": "s8aFU60pNhETA9_aZO8uKCnIkBM=", "properties": {"ref": "58332", "@spider": "coopers_hawk", "amenity": "restaurant", "cuisine": "pizza", "official_name": "Old Chicago Pizza & Taproom", "addr:full": "4515 28th St SE", "addr:city": "Kentwood", "addr:state": "MI", "addr:postcode": "49512", "name": "Kentwood, MI", "website": "https://chwinery.com/locations/michigan/kentwood-mi", "brand": "Cooper's Hawk", "brand:wikidata": "Q64411347", "nsi_id": "oldchicago-96af40"}, "geometry": {"type": "Point", "coordinates": [-85.5559123, 42.9130556]}},
{"type": "Feature", "id": "0lfUifJzVnxJVbsbjMUedvw-Cz0=", "properties": {"ref": "58330", "@spider": "coopers_hawk", "amenity": "restaurant", "cuisine": "pizza", "official_name": "Old Chicago Pizza & Taproom", "addr:full": "2568 E Sunrise Blvd", "addr:city": "Fort Lauderdale", "addr:state": "FL", "addr:postcode": "33304", "name": "Fort Lauderdale, FL", "website": "https://chwinery.com/locations/florida/fort-lauderdale", "brand": "Cooper's Hawk", "brand:wikidata": "Q64411347", "nsi_id": "oldchicago-96af40"}, "geometry": {"type": "Point", "coordinates": [-80.1128284, 26.1372971]}},
{"type": "Feature", "id": "vgruOdSivQH8J9q4WN-P-3jJxVM=", "properties": {"ref": "58327", "@spider": "coopers_hawk", "amenity": "restaurant", "cuisine": "pizza", "official_name": "Old Chicago Pizza & Taproom", "addr:full": "5220 Cornerstone North Blvd", "addr:city": "Centerville", "addr:state": "OH", "addr:postcode": "45440", "name": "Centerville, OH", "website": "https://chwinery.com/locations/ohio/centerville-oh", "brand": "Cooper's Hawk", "brand:wikidata": "Q64411347", "nsi_id": "oldchicago-96af40"}, "geometry": {"type": "Point", "coordinates": [-84.1076468, 39.6640604]}},
{"type": "Feature", "id": "rWMrV-FCEE1-6Dn6NIgdACd4vg4=", "properties": {"ref": "58320", "@spider": "coopers_hawk", "amenity": "restaurant", "cuisine": "pizza", "official_name": "Old Chicago Pizza & Taproom", "addr:full": "151 E Big Beaver Rd", "addr:city": "Troy", "addr:state": "MI", "addr:postcode": "48083", "name": "Troy, MI", "website": "https://chwinery.com/locations/michigan/troy-mi", "brand": "Cooper's Hawk", "brand:wikidata": "Q64411347", "nsi_id": "oldchicago-96af40"}, "geometry": {"type": "Point", "coordinates": [-83.1450543, 42.5628037]}},
{"type": "Feature", "id": "lnXgEEFZWeTFh26H3fU2GUrC6_I=", "properties": {"ref": "58319", "@spider": "coopers_hawk", "amenity": "restaurant", "cuisine": "pizza", "official_name": "Old Chicago Pizza & Taproom", "addr:full": "1403 Research Blvd", "addr:city": "Rockville", "addr:state": "MD", "addr:postcode": "20850", "name": "Rockville, MD", "website": "https://chwinery.com/locations/maryland/rockville-md", "brand": "Cooper's Hawk", "brand:wikidata": "Q64411347", "nsi_id": "oldchicago-96af40"}, "geometry": {"type": "Point", "coordinates": [-77.1791171, 39.0907597]}},
{"type": "Feature", "id": "wsOYFYpgviECTT6D3U3eJe76P6s=", "properties": {"ref": "40057", "@spider": "coopers_hawk", "amenity": "restaurant", "cuisine": "pizza", "official_name": "Old Chicago Pizza & Taproom", "addr:full": "733 Lynnhaven Mall Loop", "addr:city": "Virginia Beach", "addr:state": "VA", "addr:postcode": "23452", "name": "Virginia Beach, VA", "website": "https://chwinery.com/locations/virginia/virginia-beach", "brand": "Cooper's Hawk", "brand:wikidata": "Q64411347", "nsi_id": "oldchicago-96af40"}, "geometry": {"type": "Point", "coordinates": [-76.070181, 36.8135656]}},
{"type": "Feature", "id": "5Z4nD2Bv_RoAcqFQdHTcDHpszp0=", "properties": {"ref": "39896", "@spider": "coopers_hawk", "amenity": "restaurant", "cuisine": "pizza", "official_name": "Old Chicago Pizza & Taproom", "addr:full": "27200 Harvard Rd", "addr:city": "Orange Village", "addr:state": "OH", "addr:postcode": "44122", "name": "Orange Village, OH", "website": "https://chwinery.com/locations/ohio/orange-village", "brand": "Cooper's Hawk", "brand:wikidata": "Q64411347", "nsi_id": "oldchicago-96af40"}, "geometry": {"type": "Point", "coordinates": [-81.4873072, 41.4494082]}},
{"type": "Feature", "id": "c1CxW0mwL0t5itXZIBXn1wsUey8=", "properties": {"ref": "36561", "@spider": "coopers_hawk", "amenity": "restaurant", "cuisine": "pizza", "official_name": "Old Chicago Pizza & Taproom", "addr:full": "2307 E Lincoln Hwy", "addr:city": "New Lenox", "addr:state": "IL", "addr:postcode": "60451", "name": "New Lenox, IL", "website": "https://chwinery.com/locations/illinois/new-lenox", "brand": "Cooper's Hawk", "brand:wikidata": "Q64411347", "nsi_id": "oldchicago-96af40"}, "geometry": {"type": "Point", "coordinates": [-87.9194164, 41.509153]}},
{"type": "Feature", "id": "h7_B3LdNhBJonyu5KniWadO9XFI=", "properties": {"ref": "18833", "@spider": "coopers_hawk", "amenity": "restaurant", "cuisine": "pizza", "official_name": "Old Chicago Pizza & Taproom", "addr:full": "17440 Hall Rd", "addr:city": "Clinton Township", "addr:state": "MI", "addr:postcode": "48038", "name": "Clinton Township, MI", "website": "https://chwinery.com/locations/michigan/clinton-township", "brand": "Cooper's Hawk", "brand:wikidata": "Q64411347", "nsi_id": "oldchicago-96af40"}, "geometry": {"type": "Point", "coordinates": [-82.94461114, 42.62584283]}},
{"type": "Feature", "id": "eMo8vy7pF9OWWii-v5SqHjLiAxc=", "properties": {"ref": "18825", "@spider": "coopers_hawk", "amenity": "restaurant", "cuisine": "pizza", "official_name": "Old Chicago Pizza & Taproom", "addr:full": "10310 Pines Blvd", "addr:city": "Pembroke Pines", "addr:state": "FL", "addr:postcode": "33026", "name": "Pembroke Pines, FL", "website": "https://chwinery.com/locations/florida/pembroke-pines", "brand": "Cooper's Hawk", "brand:wikidata": "Q64411347", "nsi_id": "oldchicago-96af40"}, "geometry": {"type": "Point", "coordinates": [-80.2837755, 26.0079476]}},
{"type": "Feature", "id": "5_b58EqeHFWlccC8sPH1xOkSbiY=", "properties": {"ref": "2384", "@spider": "coopers_hawk", "amenity": "restaurant", "cuisine": "pizza", "official_name": "Old Chicago Pizza & Taproom", "addr:full": "12130 Sunset Hills Rd", "addr:city": "Reston", "addr:state": "VA", "addr:postcode": "20190", "name": "Reston, VA", "website": "https://chwinery.com/locations/virginia/reston", "brand": "Cooper's Hawk", "brand:wikidata": "Q64411347", "nsi_id": "oldchicago-96af40"}, "geometry": {"type": "Point", "coordinates": [-77.36550004, 38.95425897]}},
{"type": "Feature", "id": "QUXYR25wM9Q9f5bN3HojM4pdMiU=", "properties": {"ref": "2381", "@spider": "coopers_hawk", "amenity": "restaurant", "cuisine": "pizza", "official_name": "Old Chicago Pizza & Taproom", "addr:full": "950 Lake St", "addr:city": "Oak Park", "addr:state": "IL", "addr:postcode": "60301", "name": "Oak Park, IL", "website": "https://chwinery.com/locations/illinois/oak-park-il", "brand": "Cooper's Hawk", "brand:wikidata": "Q64411347", "nsi_id": "oldchicago-96af40"}, "geometry": {"type": "Point", "coordinates": [-87.799949, 41.888995]}},
{"type": "Feature", "id": "Ks0F7r29Fcm8oJTfUd9XY_qbhQ8=", "properties": {"ref": "2378", "@spider": "coopers_hawk", "amenity": "restaurant", "cuisine": "pizza", "official_name": "Old Chicago Pizza & Taproom", "addr:full": "4110 W Boy Scout Blvd", "addr:city": "Tampa", "addr:state": "FL", "addr:postcode": "33607", "name": "Tampa, FL", "website": "https://chwinery.com/locations/florida/tampa", "brand": "Cooper's Hawk", "brand:wikidata": "Q64411347", "nsi_id": "oldchicago-96af40"}, "geometry": {"type": "Point", "coordinates": [-82.5124846, 27.9654184]}},
{"type": "Feature", "id": "uCR5HoYDblfTE-dQ_CdqZaIyipk=", "properties": {"ref": "2376", "@spider": "coopers_hawk", "amenity": "restaurant", "cuisine": "pizza", "official_name": "Old Chicago Pizza & Taproom", "addr:full": "3101 PGA Boulevard", "addr:city": "Palm Beach Gardens", "addr:state": "FL", "addr:postcode": "33410", "name": "Palm Beach Gardens, FL", "website": "https://chwinery.com/locations/florida/palm-beach-gardens", "brand": "Cooper's Hawk", "brand:wikidata": "Q64411347", "nsi_id": "oldchicago-96af40"}, "geometry": {"type": "Point", "coordinates": [-80.0841292, 26.8455586]}},
{"type": "Feature", "id": "HrUorPjV2CxXF6NPZoG-shJkZ24=", "properties": {"ref": "2374", "@spider": "coopers_hawk", "amenity": "restaurant", "cuisine": "pizza", "official_name": "Old Chicago Pizza & Taproom", "addr:full": "8005 International Dr", "addr:city": "Orlando", "addr:state": "FL", "addr:postcode": "32819", "name": "Orlando, FL on International Drive", "website": "https://chwinery.com/locations/florida/orlando-on-international-dr", "brand": "Cooper's Hawk", "brand:wikidata": "Q64411347", "nsi_id": "oldchicago-96af40"}, "geometry": {"type": "Point", "coordinates": [-81.4698653, 28.4492171]}},
{"type": "Feature", "id": "2eSOPDtVpZZlkwefe72rIaQYYWM=", "properties": {"ref": "2372", "@spider": "coopers_hawk", "amenity": "restaurant", "cuisine": "pizza", "official_name": "Old Chicago Pizza & Taproom", "addr:full": "529 N Alafaya Trail", "addr:city": "Orlando", "addr:state": "FL", "addr:postcode": "32828", "name": "Orlando, FL at Waterford Lakes", "website": "https://chwinery.com/locations/florida/orlando-at-waterford-lakes", "brand": "Cooper's Hawk", "brand:wikidata": "Q64411347", "nsi_id": "oldchicago-96af40"}, "geometry": {"type": "Point", "coordinates": [-81.201752, 28.5545637]}},
{"type": "Feature", "id": "795VXpwnbWzTbBAyYiPjSKoGQdM=", "properties": {"ref": "2370", "@spider": "coopers_hawk", "amenity": "restaurant", "cuisine": "pizza", "official_name": "Old Chicago Pizza & Taproom", "addr:full": "11905 Tamiami Trail N", "addr:city": "Naples", "addr:state": "FL", "addr:postcode": "34110", "name": "Naples, FL", "website": "https://chwinery.com/locations/florida/naples", "brand": "Cooper's Hawk", "brand:wikidata": "Q64411347", "nsi_id": "oldchicago-96af40"}, "geometry": {"type": "Point", "coordinates": [-81.802419, 26.279157]}},
{"type": "Feature", "id": "Wil7BZZ4HmC553l1Kr8n9uGVcTc=", "properties": {"ref": "2368", "@spider": "coopers_hawk", "amenity": "restaurant", "cuisine": "pizza", "official_name": "Old Chicago Pizza & Taproom", "addr:full": "4850 Big Island Drive", "addr:city": "Jacksonville", "addr:state": "FL", "addr:postcode": "32246", "name": "Jacksonville, FL", "website": "https://chwinery.com/locations/florida/jacksonville", "brand": "Cooper's Hawk", "brand:wikidata": "Q64411347", "nsi_id": "oldchicago-96af40"}, "geometry": {"type": "Point", "coordinates": [-81.5310927, 30.2533713]}},
{"type": "Feature", "id": "pUGMfh6zf624jUdEQSP2ZKd0qfQ=", "properties": {"ref": "2366", "@spider": "coopers_hawk", "amenity": "restaurant", "cuisine": "pizza", "official_name": "Old Chicago Pizza & Taproom", "addr:full": "3585 NW 83rd Ave", "addr:city": "Doral", "addr:state": "FL", "addr:postcode": "33122", "name": "Doral, FL", "website": "https://chwinery.com/locations/florida/doral", "brand": "Cooper's Hawk", "brand:wikidata": "Q64411347", "nsi_id": "oldchicago-96af40"}, "geometry": {"type": "Point", "coordinates": [-80.3314915, 25.8085179]}},
{"type": "Feature", "id": "5PMHJIMZYyiJdELNCG0_MsCrkr4=", "properties": {"ref": "2364", "@spider": "coopers_hawk", "amenity": "restaurant", "cuisine": "pizza", "official_name": "Old Chicago Pizza & Taproom", "addr:full": "4473 Lyons Rd", "addr:city": "Coconut Creek", "addr:state": "FL", "addr:postcode": "33073", "name": "Coconut Creek, FL", "website": "https://chwinery.com/locations/florida/coconut-creek", "brand": "Cooper's Hawk", "brand:wikidata": "Q64411347", "nsi_id": "oldchicago-96af40"}, "geometry": {"type": "Point", "coordinates": [-80.1865004, 26.283738]}},
{"type": "Feature", "id": "YAL7jPWfVgpp_NjWGkqF5mNheas=", "properties": {"ref": "2361", "@spider": "coopers_hawk", "amenity": "restaurant", "cuisine": "pizza", "official_name": "Old Chicago Pizza & Taproom", "addr:full": "510 Village Center Dr", "addr:city": "Burr Ridge", "addr:state": "IL", "addr:postcode": "60527", "name": "Burr Ridge, IL", "website": "https://chwinery.com/locations/illinois/burr-ridge", "brand": "Cooper's Hawk", "brand:wikidata": "Q64411347", "nsi_id": "oldchicago-96af40"}, "geometry": {"type": "Point", "coordinates": [-87.912306, 41.7520318]}},
{"type": "Feature", "id": "_t18gEhYlalhHWMqX8xmBXloHvA=", "properties": {"ref": "2359", "@spider": "coopers_hawk", "amenity": "restaurant", "cuisine": "pizza", "official_name": "Old Chicago Pizza & Taproom", "addr:full": "1740 Freedom Dr", "addr:city": "Naperville", "addr:state": "IL", "addr:postcode": "60563", "name": "Naperville, IL", "website": "https://chwinery.com/locations/illinois/naperville", "brand": "Cooper's Hawk", "brand:wikidata": "Q64411347", "nsi_id": "oldchicago-96af40"}, "geometry": {"type": "Point", "coordinates": [-88.1257514, 41.8026134]}},
{"type": "Feature", "id": "AzwSSJyyHup7k_UFiKQrBnOwEVs=", "properties": {"ref": "2357", "@spider": "coopers_hawk", "amenity": "restaurant", "cuisine": "pizza", "official_name": "Old Chicago Pizza & Taproom", "addr:full": "4830 W 111th St", "addr:city": "Oak Lawn", "addr:state": "IL", "addr:postcode": "60453", "name": "Oak Lawn, IL", "website": "https://chwinery.com/locations/illinois/oak-lawn", "brand": "Cooper's Hawk", "brand:wikidata": "Q64411347", "nsi_id": "oldchicago-96af40"}, "geometry": {"type": "Point", "coordinates": [-87.741172, 41.691279]}},
{"type": "Feature", "id": "MFYFP5insCmEkGJtysN9cIJGXNU=", "properties": {"ref": "2355", "@spider": "coopers_hawk", "amenity": "restaurant", "cuisine": "pizza", "official_name": "Old Chicago Pizza & Taproom", "addr:full": "15690 Harlem Ave", "addr:city": "Orland Park", "addr:state": "IL", "addr:postcode": "60462", "name": "Orland Park, IL", "website": "https://chwinery.com/locations/illinois/orland-park", "brand": "Cooper's Hawk", "brand:wikidata": "Q64411347", "nsi_id": "oldchicago-96af40"}, "geometry": {"type": "Point", "coordinates": [-87.7951182, 41.6064365]}},
{"type": "Feature", "id": "VPUnUq1DLcdugwDJelS57BDi-Zk=", "properties": {"ref": "2353", "@spider": "coopers_hawk", "amenity": "restaurant", "cuisine": "pizza", "official_name": "Old Chicago Pizza & Taproom", "addr:full": "3710 E Main St", "addr:city": "St Charles", "addr:state": "IL", "addr:postcode": "60174", "name": "St. Charles, IL", "website": "https://chwinery.com/locations/illinois/st-charles", "brand": "Cooper's Hawk", "brand:wikidata": "Q64411347", "nsi_id": "oldchicago-96af40"}, "geometry": {"type": "Point", "coordinates": [-88.2727429, 41.9214262]}},
{"type": "Feature", "id": "4c0rjieqA4w22tRWhBanqA15vtM=", "properties": {"ref": "2351", "@spider": "coopers_hawk", "amenity": "restaurant", "cuisine": "pizza", "official_name": "Old Chicago Pizza & Taproom", "addr:full": "100 W Higgins Rd", "addr:city": "South Barrington", "addr:state": "IL", "addr:postcode": "60010", "name": "South Barrington, IL", "website": "https://chwinery.com/locations/illinois/south-barrington", "brand": "Cooper's Hawk", "brand:wikidata": "Q64411347", "nsi_id": "oldchicago-96af40"}, "geometry": {"type": "Point", "coordinates": [-88.1826279, 42.0749163]}},
{"type": "Feature", "id": "3cyiHud-atXDqd-7p46zjK-vxcY=", "properties": {"ref": "2349", "@spider": "coopers_hawk", "amenity": "restaurant", "cuisine": "pizza", "official_name": "Old Chicago Pizza & Taproom", "addr:full": "2501 Wabash Ave", "addr:city": "Springfield", "addr:state": "IL", "addr:postcode": "62704", "name": "Springfield, IL", "website": "https://chwinery.com/locations/illinois/springfield", "brand": "Cooper's Hawk", "brand:wikidata": "Q64411347", "nsi_id": "oldchicago-96af40"}, "geometry": {"type": "Point", "coordinates": [-89.7037216, 39.765743]}},
{"type": "Feature", "id": "tgzoI2IrYdU__REH40zEJyIeEHI=", "properties": {"ref": "2347", "@spider": "coopers_hawk", "amenity": "restaurant", "cuisine": "pizza", "official_name": "Old Chicago Pizza & Taproom", "addr:full": "583 N Milwaukee Ave", "addr:city": "Wheeling", "addr:state": "IL", "addr:postcode": "60090", "name": "Wheeling, IL", "website": "https://chwinery.com/locations/illinois/wheeling", "brand": "Cooper's Hawk", "brand:wikidata": "Q64411347", "nsi_id": "oldchicago-96af40"}, "geometry": {"type": "Point", "coordinates": [-87.9122218, 42.1498797]}},
{"type": "Feature", "id": "Wa2hN_9uCPPHphd-BygWSwDlCEc=", "properties": {"ref": "2345", "@spider": "coopers_hawk", "amenity": "restaurant", "cuisine": "pizza", "official_name": "Old Chicago Pizza & Taproom", "addr:full": "2120 Southlake Mall", "addr:city": "Merrillville", "addr:state": "IN", "addr:postcode": "46410", "name": "Merrillville, IN", "website": "https://chwinery.com/locations/indiana/merrillville", "brand": "Cooper's Hawk", "brand:wikidata": "Q64411347", "nsi_id": "oldchicago-96af40"}, "geometry": {"type": "Point", "coordinates": [-87.3041437, 41.4703854]}},
{"type": "Feature", "id": "D8AdIVqXDPer0TM45YDALKRucFY=", "properties": {"ref": "2343", "@spider": "coopers_hawk", "amenity": "restaurant", "cuisine": "pizza", "official_name": "Old Chicago Pizza & Taproom", "addr:full": "3815 E 96th St", "addr:city": "Indianapolis", "addr:state": "IN", "addr:postcode": "46240", "name": "Indianapolis, IN", "website": "https://chwinery.com/locations/indiana/indianapolis", "brand": "Cooper's Hawk", "brand:wikidata": "Q64411347", "nsi_id": "oldchicago-96af40"}, "geometry": {"type": "Point", "coordinates": [-86.1016301, 39.9263185]}},
{"type": "Feature", "id": "EiUvjbO_lasjWB4GyOdNurSOFtQ=", "properties": {"ref": "2340", "@spider": "coopers_hawk", "amenity": "restaurant", "cuisine": "pizza", "official_name": "Old Chicago Pizza & Taproom", "addr:full": "1906 Towne Centre Blvd", "addr:city": "Annapolis", "addr:state": "MD", "addr:postcode": "21401", "name": "Annapolis, MD", "website": "https://chwinery.com/locations/maryland/annapolis", "brand": "Cooper's Hawk", "brand:wikidata": "Q64411347", "nsi_id": "oldchicago-96af40"}, "geometry": {"type": "Point", "coordinates": [-76.5405059, 38.981842]}},
{"type": "Feature", "id": "wfaixwjpXz8vP30lVwfESjHWwrI=", "properties": {"ref": "2337", "@spider": "coopers_hawk", "amenity": "restaurant", "cuisine": "pizza", "official_name": "Old Chicago Pizza & Taproom", "addr:full": "1146 Town and Country Crossing Dr", "addr:city": "Town and Country", "addr:state": "MO", "addr:postcode": "63017", "name": "Town and Country, MO", "website": "https://chwinery.com/locations/missouri/town-and-country", "brand": "Cooper's Hawk", "brand:wikidata": "Q64411347", "nsi_id": "oldchicago-96af40"}, "geometry": {"type": "Point", "coordinates": [-90.5167443, 38.6227446]}},
{"type": "Feature", "id": "VhGzKurd0A6_fR7ilyfCIWesuv8=", "properties": {"ref": "2335", "@spider": "coopers_hawk", "amenity": "restaurant", "cuisine": "pizza", "official_name": "Old Chicago Pizza & Taproom", "addr:full": "4686 Broadway", "addr:city": "Kansas City", "addr:state": "MO", "addr:postcode": "64112", "name": "Kansas City, MO", "website": "https://chwinery.com/locations/missouri/kansas-city", "brand": "Cooper's Hawk", "brand:wikidata": "Q64411347", "nsi_id": "oldchicago-96af40"}, "geometry": {"type": "Point", "coordinates": [-94.5917243, 39.042571]}},
{"type": "Feature", "id": "ZDYlweYHi7xWtYEVjcpN2TcxB3s=", "properties": {"ref": "2330", "@spider": "coopers_hawk", "amenity": "restaurant", "cuisine": "pizza", "official_name": "Old Chicago Pizza & Taproom", "addr:full": "4230 The Strand", "addr:city": "Columbus", "addr:state": "OH", "addr:postcode": "43219", "name": "Columbus, OH", "website": "https://chwinery.com/locations/ohio/columbus", "brand": "Cooper's Hawk", "brand:wikidata": "Q64411347", "nsi_id": "oldchicago-96af40"}, "geometry": {"type": "Point", "coordinates": [-82.9149379, 40.0541788]}},
{"type": "Feature", "id": "Z66IwFSUgUt8rPI5PeMTwePDyGY=", "properties": {"ref": "2328", "@spider": "coopers_hawk", "amenity": "restaurant", "cuisine": "pizza", "official_name": "Old Chicago Pizza & Taproom", "addr:full": "8080 Montgomery Rd", "addr:city": "Cincinnati", "addr:state": "OH", "addr:postcode": "45236", "name": "Cincinnati, OH", "website": "https://chwinery.com/locations/ohio/cincinnati", "brand": "Cooper's Hawk", "brand:wikidata": "Q64411347", "nsi_id": "oldchicago-96af40"}, "geometry": {"type": "Point", "coordinates": [-84.3704282, 39.2026303]}},
{"type": "Feature", "id": "A_08-17xPV1CMgmTBK6N6ixWlFg=", "properties": {"ref": "2325", "@spider": "coopers_hawk", "amenity": "restaurant", "cuisine": "pizza", "official_name": "Old Chicago Pizza & Taproom", "addr:full": "11792 W Broad St", "addr:city": "Richmond", "addr:state": "VA", "addr:postcode": "23233", "name": "Richmond, VA", "website": "https://chwinery.com/locations/virginia/richmond", "brand": "Cooper's Hawk", "brand:wikidata": "Q64411347", "nsi_id": "oldchicago-96af40"}, "geometry": {"type": "Point", "coordinates": [-77.6218773, 37.6542847]}},
{"type": "Feature", "id": "uUklPSzpMoEdqw2XYmGp6nQv7gE=", "properties": {"ref": "2323", "@spider": "coopers_hawk", "amenity": "restaurant", "cuisine": "pizza", "official_name": "Old Chicago Pizza & Taproom", "addr:full": "19870 Belmont Chase Dr", "addr:city": "Ashburn", "addr:state": "VA", "addr:postcode": "20147", "name": "Ashburn, VA", "website": "https://chwinery.com/locations/virginia/ashburn", "brand": "Cooper's Hawk", "brand:wikidata": "Q64411347", "nsi_id": "oldchicago-96af40"}, "geometry": {"type": "Point", "coordinates": [-77.4844859, 39.0663477]}},
{"type": "Feature", "id": "sa-iqwPA0keVqyGTHpAohsbHSh0=", "properties": {"ref": "2320", "@spider": "coopers_hawk", "amenity": "restaurant", "cuisine": "pizza", "official_name": "Old Chicago Pizza & Taproom", "addr:full": "15 S Moorland Rd", "addr:city": "Brookfield", "addr:state": "WI", "addr:postcode": "53005", "name": "Brookfield, WI", "website": "https://chwinery.com/locations/wisconsin/brookfield", "brand": "Cooper's Hawk", "brand:wikidata": "Q64411347", "nsi_id": "oldchicago-96af40"}, "geometry": {"type": "Point", "coordinates": [-88.1087896, 43.0312273]}},
{"type": "Feature", "id": "BW94HtAgDKeGAAPxdWKTYgGEotM=", "properties": {"ref": "2316", "@spider": "coopers_hawk", "amenity": "restaurant", "cuisine": "pizza", "official_name": "Old Chicago Pizza & Taproom", "addr:full": "798 W Algonquin Rd", "addr:city": "Arlington Heights", "addr:state": "IL", "addr:postcode": "60005", "name": "Arlington Heights, IL", "website": "https://chwinery.com/locations/illinois/arlington-heights", "brand": "Cooper's Hawk", "brand:wikidata": "Q64411347", "nsi_id": "oldchicago-96af40"}, "geometry": {"type": "Point", "coordinates": [-87.9916725, 42.0507882]}},
{"type": "Feature", "id": "PfNELU1LwWspnrZ6DzywgiNTze4=", "properties": {"ref": "2332", "@spider": "coopers_hawk", "amenity": "restaurant", "cuisine": "pizza", "official_name": "Old Chicago Pizza & Taproom", "addr:full": "7490 Bales St", "addr:city": "Liberty Township", "addr:state": "OH", "addr:postcode": "45069", "name": "Liberty Township, OH", "website": "https://chwinery.com/locations/ohio/liberty-township", "brand": "Cooper's Hawk", "brand:wikidata": "Q64411347", "nsi_id": "oldchicago-96af40"}, "geometry": {"type": "Point", "coordinates": [-84.3741475, 39.3720497]}}]}