{"type":"FeatureCollection","features":[{"type": "Feature", "id": "mplli1ngz-n1u7lac49Idc2siTQ=", "properties": {"ref": "0", "@spider": "cooplands_doncaster", "addr:full": "Unit 6 Mill Street, Armthorpe, DN3 3DL", "addr:postcode": "DN3 3DL", "addr:country": "GB", "name": "ARMTHORPE", "phone": "01302 835 195", "opening_hours": "Mo-Sa 08:00-17:00", "brand": "Cooplands", "brand:wikidata": "Q96622197"}},
{"type": "Feature", "id": "UMEW1sCU6z-L1RmY8h19s88Hibo=", "properties": {"ref": "1", "@spider": "cooplands_doncaster", "addr:full": "1 Station Rd, Askern, DN6 0JA", "addr:postcode": "DN6 0JA", "addr:country": "GB", "name": "ASKERN", "phone": "01302 702 900", "opening_hours": "Mo-Sa 08:00-17:00", "brand": "Cooplands", "brand:wikidata": "Q96622197"}},
{"type": "Feature", "id": "lkIhug3T_sT8XdiJO8wDVZuduRc=", "properties": {"ref": "2", "@spider": "cooplands_doncaster", "addr:full": "Exchange Station, Midland Street, S70 1SE", "addr:postcode": "S70 1SE", "addr:country": "GB", "name": "BARNSLEY", "phone": "01226 244 327", "opening_hours": "Mo-Sa 08:00-17:00", "brand": "Cooplands", "brand:wikidata": "Q96622197"}},
{"type": "Feature", "id": "FIrOkvtzqJMIZDv_8uIAHcYhBNk=", "properties": {"ref": "3", "@spider": "cooplands_doncaster", "addr:full": "1 Scott Lane, Bawtry, DN10 6JT", "addr:postcode": "DN10 6JT", "addr:country": "GB", "name": "BAWTRY", "phone": "01302 710 414", "opening_hours": "Mo-Sa 08:00-17:00", "brand": "Cooplands", "brand:wikidata": "Q96622197"}},
{"type": "Feature", "id": "kGV3OBZcINe5JqZ0-s5L2UF7udw=", "properties": {"ref": "4", "@spider": "cooplands_doncaster", "addr:full": "18/21 Baxtergate, DN1 1LQ", "addr:postcode": "DN1 1LQ", "addr:country": "GB", "name": "BAXTERGATE", "phone": "01302 812087", "opening_hours": "Mo-Sa 08:00-17:00", "brand": "Cooplands", "brand:wikidata": "Q96622197"}},
{"type": "Feature", "id": "eu14RAcHi-fgBeaXI9nuRNX2IQI=", "properties": {"ref": "5", "@spider": "cooplands_doncaster", "addr:full": "2 Brinsworth Lane, Brinsworth, S60 5BS", "addr:postcode": "S60 5BS", "addr:country": "GB", "name": "BRINSWORTH", "phone": "01709 376 312", "opening_hours": "Mo-Sa 08:00-17:00", "brand": "Cooplands", "brand:wikidata": "Q96622197"}},
{"type": "Feature", "id": "hrf75klVQgRBkE4BxtExtPXm0qY=", "properties": {"ref": "6", "@spider": "cooplands_doncaster", "addr:full": "111 Chaucer Rd, S65 2LD", "addr:postcode": "S65 2LD", "addr:country": "GB", "name": "CHAUCER", "phone": "01709 365 597", "opening_hours": "Mo-Sa 08:00-17:00", "brand": "Cooplands", "brand:wikidata": "Q96622197"}},
{"type": "Feature", "id": "VdI3h5l-dX1hjNFOYVJclz282uY=", "properties": {"ref": "7", "@spider": "cooplands_doncaster", "addr:full": "56 Laughton Road, S25 2PS", "addr:postcode": "S25 2PS", "addr:country": "GB", "name": "DINNINGTON", "phone": "01909 560 047", "opening_hours": "Mo-Sa 08:00-17:00", "brand": "Cooplands", "brand:wikidata": "Q96622197"}},
{"type": "Feature", "id": "0-KkPO_FTJwvmG7KUa3ezUQDVcQ=", "properties": {"ref": "8", "@spider": "cooplands_doncaster", "addr:full": "Unit 8, Dronfield Civic Centre, S18 1PD", "addr:postcode": "S18 1PD", "addr:country": "GB", "name": "DRONFIELD", "phone": "01246 414 333", "opening_hours": "Mo-Sa 08:00-17:00", "brand": "Cooplands", "brand:wikidata": "Q96622197"}},
{"type": "Feature", "id": "WWvd3L2RkrJZZhMJ7xtWK5I0Wks=", "properties": {"ref": "9", "@spider": "cooplands_doncaster", "addr:full": "100 East Laith Gate, Christ Church, DN1 1JE", "addr:postcode": "DN1 1JE", "addr:country": "GB", "name": "EAST LTH GATE", "phone": "01302 812 086", "opening_hours": "Mo-Sa 08:00-17:00", "brand": "Cooplands", "brand:wikidata": "Q96622197"}},
{"type": "Feature", "id": "p2_dygbFp8g3HKZbjAHBlA02Vno=", "properties": {"ref": "10", "@spider": "cooplands_doncaster", "addr:full": "10 Everingham Rd, Cantley, DN4 6JG", "addr:postcode": "DN4 6JG", "addr:country": "GB", "name": "EVERINGHAM", "phone": "01302 531 843", "opening_hours": "Mo-Sa 08:00-17:00", "brand": "Cooplands", "brand:wikidata": "Q96622197"}},
{"type": "Feature", "id": "g_QWvvaTS-dXeUgYR53cgC31M5c=", "properties": {"ref": "11", "@spider": "cooplands_doncaster", "addr:full": "Unit 1/3 Fitzalan Square, S1 2AY", "addr:postcode": "S1 2AY", "addr:country": "GB", "name": "FITZALAN SQ", "phone": "01142 491 990", "opening_hours": "Mo-Sa 08:00-17:00", "brand": "Cooplands", "brand:wikidata": "Q96622197"}},
{"type": "Feature", "id": "T9kMybEGLmDOwpzVnmzEd7sWwtk=", "properties": {"ref": "12", "@spider": "cooplands_doncaster", "addr:full": "5 North Mall, Frenchgate Centre, DN1 1SR", "addr:postcode": "DN1 1SR", "addr:country": "GB", "name": "FRENCHGATE", "phone": "01302 812 089", "opening_hours": "Mo-Sa 08:00-17:00", "brand": "Cooplands", "brand:wikidata": "Q96622197"}},
{"type": "Feature", "id": "B-oHXOzy-NMlPHDCuGJa3Z3uUZk=", "properties": {"ref": "13", "@spider": "cooplands_doncaster", "addr:full": "30 Barnsley Rd, S63 9NF", "addr:postcode": "S63 9NF", "addr:country": "GB", "name": "GOLDTHORPE", "phone": "01709 892 278", "opening_hours": "Mo-Sa 08:00-17:00", "brand": "Cooplands", "brand:wikidata": "Q96622197"}},
{"type": "Feature", "id": "JW_cIhCeTUdb_xDpBf6-mAzVuWE=", "properties": {"ref": "14", "@spider": "cooplands_doncaster", "addr:full": "61 Doncaster Road, Langold, S81 9QH", "addr:postcode": "S81 9QH", "addr:country": "GB", "name": "LANGOLD", "phone": "01909 731 532", "opening_hours": "Mo-Sa 08:00-17:00", "brand": "Cooplands", "brand:wikidata": "Q96622197"}},
{"type": "Feature", "id": "wNi3ZqE2--V3ZPCdHCnzpGY3KAE=", "properties": {"ref": "15", "@spider": "cooplands_doncaster", "addr:full": "36 Four Seasons Centre, NG18 1SU", "addr:postcode": "NG18 1SU", "addr:country": "GB", "name": "MANSFIELD", "phone": "01623 622 984", "opening_hours": "Mo-Sa 08:00-17:00", "brand": "Cooplands", "brand:wikidata": "Q96622197"}},
{"type": "Feature", "id": "LaWrYWCoT--xUDPyRzOjYgO-lQc=", "properties": {"ref": "16", "@spider": "cooplands_doncaster", "addr:full": "Unit 2, Forest Road, NG22 9PL", "addr:postcode": "NG22 9PL", "addr:country": "GB", "name": "OLLERTON", "phone": "01623 863 433", "opening_hours": "Mo-Sa 08:00-17:00", "brand": "Cooplands", "brand:wikidata": "Q96622197"}},
{"type": "Feature", "id": "qGDm6EVxiyrRAflCsP3JLpFplZ8=", "properties": {"ref": "17", "@spider": "cooplands_doncaster", "addr:full": "6 Prospect (Precinct), S81 0RS", "addr:postcode": "S81 0RS", "addr:country": "GB", "name": "PROSPECT", "phone": "01909 473 060", "opening_hours": "Mo-Sa 08:00-17:00", "brand": "Cooplands", "brand:wikidata": "Q96622197"}},
{"type": "Feature", "id": "o3v1DzvXACZLyf8tsM1dxMaWQV0=", "properties": {"ref": "18", "@spider": "cooplands_doncaster", "addr:full": "4 Carolgate, Retford, Nottinghamshire, DN22 6BU", "addr:postcode": "DN22 6BU", "addr:country": "GB", "name": "RETFORD", "phone": "01777 706 663", "opening_hours": "Mo-Sa 08:00-17:00", "brand": "Cooplands", "brand:wikidata": "Q96622197"}},
{"type": "Feature", "id": "WabZT8lA74ALQYRtTG6zn4EEMSM=", "properties": {"ref": "19", "@spider": "cooplands_doncaster", "addr:full": "14 Crossland Way, Scawthorpe, DN5 9EX", "addr:postcode": "DN5 9EX", "addr:country": "GB", "name": "SCAWTHORPE", "phone": "01302 781 893", "opening_hours": "Mo-Sa 08:00-17:00", "brand": "Cooplands", "brand:wikidata": "Q96622197"}},
{"type": "Feature", "id": "qud2Cfvkp_WFJ6BvaHQD7OHSAq0=", "properties": {"ref": "20", "@spider": "cooplands_doncaster", "addr:full": "Unit 2 Skellow Rd, Carcroft, DN6 8JH", "addr:postcode": "DN6 8JH", "addr:country": "GB", "name": "SKELLOW", "phone": "01302 338 218", "opening_hours": "Mo-Sa 08:00-17:00", "brand": "Cooplands", "brand:wikidata": "Q96622197"}},
{"type": "Feature", "id": "U1z9Y2jixyPG7mrVYmmedatf5II=", "properties": {"ref": "21", "@spider": "cooplands_doncaster", "addr:full": "12 Finkle Street, Thorne, DN8 5DE", "addr:postcode": "DN8 5DE", "addr:country": "GB", "name": "THORNE", "phone": "01405 812 259", "opening_hours": "Mo-Sa 08:00-17:00", "brand": "Cooplands", "brand:wikidata": "Q96622197"}},
{"type": "Feature", "id": "Atkbv4JQ5-zJNWORCxO0qXI8CZ8=", "properties": {"ref": "22", "@spider": "cooplands_doncaster", "addr:full": "109a Houghton Road, S63 0NG", "addr:postcode": "S63 0NG", "addr:country": "GB", "name": "THURNSCOE", "phone": "01709 894 633", "opening_hours": "Mo-Sa 08:00-17:00", "brand": "Cooplands", "brand:wikidata": "Q96622197"}},
{"type": "Feature", "id": "5S8f0tSF0xNJVbl9npRkrlbKJUA=", "properties": {"ref": "23", "@spider": "cooplands_doncaster", "addr:full": "262 Great North Road, Woodlands, DN6 7HP", "addr:postcode": "DN6 7HP", "addr:country": "GB", "name": "WOODLANDS", "phone": "01302 723 512", "opening_hours": "Mo-Sa 08:00-17:00", "brand": "Cooplands", "brand:wikidata": "Q96622197"}}]}