{"type":"FeatureCollection","features":[{"type": "Feature", "id": "RMOK0O_OUPw-GrmVyGJ_i6M266o=", "properties": {"ref": "7610840000059", "branch": "Crissier", "@spider": "coop_vitality_ch", "amenity": "pharmacy", "healthcare": "pharmacy", "addr:housenumber": "1", "addr:street": "Chemin de Saugy", "addr:city": "Crissier", "addr:postcode": "1023", "addr:country": "CH", "name": "Coop Vitality", "phone": "+41588788000", "website": "https://www.coopvitality.ch/fr/coop-vitality-crissier", "contact:email": "pharmacie.crissier@coop-vitality.ch", "image": "https://www.coopvitality.ch/media/magestore/storepickup/images/store/gallery/c/v/cv_crissier.jpg", "brand": "Coop Vitality", "brand:wikidata": "Q111725297", "located_in": "L\u00e9man Centre", "nsi_id": "coopvitality-7092c5"}, "geometry": {"type": "Point", "coordinates": [6.5698497, 46.54458345]}},
{"type": "Feature", "id": "Om7zYU2uWM4ZTmX2dMSltGa5MBI=", "properties": {"ref": "7610840000042", "branch": "Kriens EKZ Schappe", "@spider": "coop_vitality_ch", "amenity": "pharmacy", "healthcare": "pharmacy", "addr:housenumber": "16", "addr:street": "Obernauerstrasse", "addr:city": "Kriens", "addr:postcode": "6010", "addr:country": "CH", "name": "Coop Vitality", "phone": "+41588788010", "website": "https://www.coopvitality.ch/de/coop-vitality-kriens-ekz-schappe", "contact:email": "apotheke.kriens@coop-vitality.ch", "image": "https://www.coopvitality.ch/media/magestore/storepickup/images/store/gallery/a/p/apotheke_homepage_resized_kopie.jpg", "brand": "Coop Vitality", "brand:wikidata": "Q111725297", "located_in": "Schappe Center", "nsi_id": "coopvitality-7092c5"}, "geometry": {"type": "Point", "coordinates": [8.2734872, 47.0341587]}},
{"type": "Feature", "id": "jy5en3B92fHIc70K8Gq2pGYCpKw=", "properties": {"ref": "7610840000011", "branch": "St. Gallen Neumarkt", "@spider": "coop_vitality_ch", "amenity": "pharmacy", "healthcare": "pharmacy", "addr:housenumber": "25", "addr:street": "Vadianstrasse", "addr:city": "St. Gallen", "addr:postcode": "9000", "addr:country": "CH", "name": "Coop Vitality", "phone": "+41588788020", "website": "https://www.coopvitality.ch/de/coop-vitality-st-gallen-neumarkt", "contact:email": "apotheke.stgallen@coop-vitality.ch", "image": "https://www.coopvitality.ch/media/magestore/storepickup/images/store/gallery/c/v/cv_stgallenneumarkt.png", "brand": "Coop Vitality", "brand:wikidata": "Q111725297", "nsi_id": "coopvitality-7092c5"}, "geometry": {"type": "Point", "coordinates": [9.3714852, 47.421884]}},
{"type": "Feature", "id": "kxtGWr22l6UfpaeuitlEi4keRvY=", "properties": {"ref": "7610840000028", "branch": "Z\u00fcrich Bahnhofstrasse", "@spider": "coop_vitality_ch", "amenity": "pharmacy", "healthcare": "pharmacy", "addr:housenumber": "81", "addr:street": "Bahnhofstrasse", "addr:city": "Z\u00fcrich", "addr:postcode": "8001", "addr:country": "CH", "name": "Coop Vitality", "phone": "+41588788030", "website": "https://www.coopvitality.ch/de/coop-vitality-zurich-bahnhofstrasse", "contact:email": "apotheke.zuerich@coop-vitality.ch", "image": "https://www.coopvitality.ch/media/magestore/storepickup/images/store/gallery/c/v/cv_z_rich_2.jpg", "brand": "Coop Vitality", "brand:wikidata": "Q111725297", "nsi_id": "coopvitality-7092c5"}, "geometry": {"type": "Point", "coordinates": [8.5391203, 47.3758777]}},
{"type": "Feature", "id": "OIhdkw44oYVV_9VYGJfijJb3mWU=", "properties": {"ref": "7601001369849", "branch": "Volketswil Volkiland", "@spider": "coop_vitality_ch", "amenity": "pharmacy", "healthcare": "pharmacy", "addr:housenumber": "1", "addr:street": "Industriestrasse", "addr:city": "Volketswil", "addr:postcode": "8604", "addr:country": "CH", "name": "Coop Vitality", "phone": "+41588788040", "website": "https://www.coopvitality.ch/de/coop-vitality-volketswil-volkiland", "contact:email": "apotheke.volketswil@coop-vitality.ch", "image": "https://www.coopvitality.ch/media/magestore/storepickup/images/store/gallery/c/o/coop_vitality_volketswil_-_mit_weihnachtsdeko.jpg", "brand": "Coop Vitality", "brand:wikidata": "Q111725297", "located_in": "Volkiland", "nsi_id": "coopvitality-7092c5"}, "geometry": {"type": "Point", "coordinates": [8.6676237, 47.3825368]}},
{"type": "Feature", "id": "U-NuYBx8Y0jFiwptYBsUmw87jeY=", "properties": {"ref": "7601001370463", "branch": "Biel Centre Bahnhof", "@spider": "coop_vitality_ch", "amenity": "pharmacy", "healthcare": "pharmacy", "addr:housenumber": "31", "addr:street": "Salzhausstrasse", "addr:city": "Biel/Bienne", "addr:postcode": "2503", "addr:country": "CH", "name": "Coop Vitality", "phone": "+41588788050", "website": "https://www.coopvitality.ch/de/coop-vitality-biel-centre-bahnhof", "contact:email": "apotheke.biel@coop-vitality.ch", "image": "https://www.coopvitality.ch/media/magestore/storepickup/images/store/gallery/c/v/cv_biel.jpg", "brand": "Coop Vitality", "brand:wikidata": "Q111725297", "located_in": "Centre Bahnhof", "nsi_id": "coopvitality-7092c5"}, "geometry": {"type": "Point", "coordinates": [7.242938, 47.130289]}},
{"type": "Feature", "id": "MQF5emKrJw7ZTPBZjWBYcZMSxww=", "properties": {"ref": "7601001370708", "branch": "Basel Am Marktplatz", "@spider": "coop_vitality_ch", "amenity": "pharmacy", "healthcare": "pharmacy", "addr:housenumber": "15", "addr:street": "Hutgasse", "addr:city": "Basel", "addr:postcode": "4001", "addr:country": "CH", "name": "Coop Vitality", "phone": "+41588788070", "website": "https://www.coopvitality.ch/de/coop-vitality-basel-am-marktplatz", "contact:email": "apotheke.basel@coop-vitality.ch", "image": "https://www.coopvitality.ch/media/magestore/storepickup/images/store/gallery/c/v/cv_baselhutgasse.jpg", "brand": "Coop Vitality", "brand:wikidata": "Q111725297", "nsi_id": "coopvitality-7092c5"}, "geometry": {"type": "Point", "coordinates": [7.5873863, 47.5575012]}},
{"type": "Feature", "id": "fv3oc4uk4v1kbRD9Kawqvj3yTBI=", "properties": {"ref": "7601001372009", "branch": "Seewen", "@spider": "coop_vitality_ch", "amenity": "pharmacy", "healthcare": "pharmacy", "addr:housenumber": "7", "addr:street": "Steinbislin", "addr:city": "Seewen", "addr:postcode": "6423", "addr:country": "CH", "name": "Coop Vitality", "phone": "+41588788080", "website": "https://www.coopvitality.ch/de/coop-vitality-seewen", "contact:email": "apotheke.seewen@coop-vitality.ch", "image": "https://www.coopvitality.ch/media/magestore/storepickup/images/store/gallery/c/v/cv_seewen.jpg", "brand": "Coop Vitality", "brand:wikidata": "Q111725297", "located_in": "Seewen Markt", "nsi_id": "coopvitality-7092c5"}, "geometry": {"type": "Point", "coordinates": [8.628109, 47.0327339]}},
{"type": "Feature", "id": "2XgWaC4iX_V8fwm9_bFlb-fWqwM=", "properties": {"ref": "7601001372016", "branch": "Tenero", "@spider": "coop_vitality_ch", "amenity": "pharmacy", "healthcare": "pharmacy", "addr:housenumber": "8", "addr:street": "Via Brere", "addr:city": "Tenero", "addr:postcode": "6598", "addr:country": "CH", "name": "Coop Vitality", "phone": "+41588788090", "website": "https://www.coopvitality.ch/it/coop-vitality-tenero", "contact:email": "farmacia.tenero@coop-vitality.ch", "image": "https://www.coopvitality.ch/media/magestore/storepickup/images/store/gallery/t/e/tenero.jpg", "brand": "Coop Vitality", "brand:wikidata": "Q111725297", "located_in": "Centro Tenero", "nsi_id": "coopvitality-7092c5"}, "geometry": {"type": "Point", "coordinates": [8.8552224, 46.1750416]}},
{"type": "Feature", "id": "epP9SiNg0U6z2iT6CTOvDjkzJ_A=", "properties": {"ref": "7601001372023", "branch": "Wettingen", "@spider": "coop_vitality_ch", "amenity": "pharmacy", "healthcare": "pharmacy", "addr:housenumber": "42", "addr:street": "Jurastrasse", "addr:city": "Wettingen", "addr:postcode": "5430", "addr:country": "CH", "name": "Coop Vitality", "phone": "+41588788100", "website": "https://www.coopvitality.ch/de/coop-vitality-wettingen", "contact:email": "apotheke.wettingen@coop-vitality.ch", "image": "https://www.coopvitality.ch/media/magestore/storepickup/images/store/gallery/c/v/cv_wettingen.jpg", "brand": "Coop Vitality", "brand:wikidata": "Q111725297", "located_in": "T\u00e4gipark", "nsi_id": "coopvitality-7092c5"}, "geometry": {"type": "Point", "coordinates": [8.3298715, 47.4582792]}},
{"type": "Feature", "id": "8GlB_KhGDTZUelqXoUMPy1upN98=", "properties": {"ref": "7601001372795", "branch": "Fontainemelon", "@spider": "coop_vitality_ch", "amenity": "pharmacy", "healthcare": "pharmacy", "addr:housenumber": "12", "addr:street": "Avenue Robert", "addr:city": "Fontainemelon", "addr:postcode": "2052", "addr:country": "CH", "name": "Coop Vitality", "phone": "+41588788110", "website": "https://www.coopvitality.ch/fr/coop-vitality-fontainemelon", "contact:email": "pharmacie.fontainemelon@coop-vitality.ch", "image": "https://www.coopvitality.ch/media/magestore/storepickup/images/store/gallery/c/v/cv_fontainemelon.jpg", "brand": "Coop Vitality", "brand:wikidata": "Q111725297", "located_in": "Centre commercial", "nsi_id": "coopvitality-7092c5"}, "geometry": {"type": "Point", "coordinates": [6.8932792, 47.0575054]}},
{"type": "Feature", "id": "w5z0mr8uCOd9m862geDGcEzLMNQ=", "properties": {"ref": "7601001373105", "branch": "W\u00fcrenlingen", "@spider": "coop_vitality_ch", "amenity": "pharmacy", "healthcare": "pharmacy", "addr:housenumber": "7", "addr:street": "Kuhg\u00e4ssli", "addr:city": "W\u00fcrenlingen", "addr:postcode": "5303", "addr:country": "CH", "name": "Coop Vitality", "phone": "+41588788120", "website": "https://www.coopvitality.ch/de/coop-vitality-wurenlingen", "contact:email": "apotheke.wuerenlingen@coop-vitality.ch", "image": "https://www.coopvitality.ch/media/magestore/storepickup/images/store/gallery/c/v/cv_w_renlingen.jpg", "brand": "Coop Vitality", "brand:wikidata": "Q111725297", "located_in": "Im Aarepark", "nsi_id": "coopvitality-7092c5"}, "geometry": {"type": "Point", "coordinates": [8.2445311, 47.5252865]}},
{"type": "Feature", "id": "4XBCDY2o3WFC0Lcag7Z-qUZJTT4=", "properties": {"ref": "7601001373617", "branch": "Bern Wankdorf", "@spider": "coop_vitality_ch", "amenity": "pharmacy", "healthcare": "pharmacy", "addr:housenumber": "85", "addr:street": "Papierm\u00fchlestrasse", "addr:city": "Bern", "addr:postcode": "3014", "addr:country": "CH", "name": "Coop Vitality", "phone": "+41588788130", "website": "https://www.coopvitality.ch/de/coop-vitality-bern-wankdorf", "contact:email": "apotheke.wankdorf@coop-vitality.ch", "image": "https://www.coopvitality.ch/media/magestore/storepickup/images/store/gallery/c/v/cv_wankdorf.jpg", "brand": "Coop Vitality", "brand:wikidata": "Q111725297", "located_in": "Wankdorf Center", "nsi_id": "coopvitality-7092c5"}, "geometry": {"type": "Point", "coordinates": [7.4659396, 46.963499]}},
{"type": "Feature", "id": "dXUPh_uYKZ9P51BiPcBWuvrBCrM=", "properties": {"ref": "7601001373266", "branch": "Winterthur Gr\u00fcze", "@spider": "coop_vitality_ch", "amenity": "pharmacy", "healthcare": "pharmacy", "addr:housenumber": "19", "addr:street": "Rudolf-Diesel-Str.", "addr:city": "Winterthur", "addr:postcode": "8404", "addr:country": "CH", "name": "Coop Vitality", "phone": "+41588788140", "website": "https://www.coopvitality.ch/de/coop-vitality-winterthur-gruze", "contact:email": "apotheke.winterthur@coop-vitality.ch", "image": "https://www.coopvitality.ch/media/magestore/storepickup/images/store/gallery/c/v/cv_winterthurgr_ze.jpg", "brand": "Coop Vitality", "brand:wikidata": "Q111725297", "located_in": "Gr\u00fcze Markt", "nsi_id": "coopvitality-7092c5"}, "geometry": {"type": "Point", "coordinates": [8.7579937, 47.4946554]}},
{"type": "Feature", "id": "R3VrIGYeDLZK1EccQlgnSztqH28=", "properties": {"ref": "7601001374218", "branch": "Chaux-de-Fonds", "@spider": "coop_vitality_ch", "amenity": "pharmacy", "healthcare": "pharmacy", "addr:housenumber": "151", "addr:street": "Av. L\u00e9opold-Robert", "addr:city": "La Chaux-de-Fonds", "addr:postcode": "2300", "addr:country": "CH", "name": "Coop Vitality", "phone": "+41588788150", "website": "https://www.coopvitality.ch/fr/coop-vitality-chaux-de-fonds", "contact:email": "pharmacie.LCdF@coop-vitality.ch", "image": "https://www.coopvitality.ch/media/magestore/storepickup/images/store/gallery/c/v/cv_lachauxdefonds.jpg", "brand": "Coop Vitality", "brand:wikidata": "Q111725297", "located_in": "Les Entilles Centre", "nsi_id": "coopvitality-7092c5"}, "geometry": {"type": "Point", "coordinates": [6.8169342, 47.0948083]}},
{"type": "Feature", "id": "qUG4tu6BHnTKZGiui4KGRgk_ycs=", "properties": {"ref": "7601001374232", "branch": "Bern Ryfflihof", "@spider": "coop_vitality_ch", "amenity": "pharmacy", "healthcare": "pharmacy", "addr:housenumber": "3", "addr:street": "Genfergasse", "addr:city": "Bern", "addr:postcode": "3011", "addr:country": "CH", "name": "Coop Vitality", "phone": "+41588788160", "website": "https://www.coopvitality.ch/de/coop-vitality-bern-ryfflihof", "contact:email": "apotheke.ryfflihof@coop-vitality.ch", "image": "https://www.coopvitality.ch/media/magestore/storepickup/images/store/gallery/c/v/cv_bernryfflihof.jpg", "brand": "Coop Vitality", "brand:wikidata": "Q111725297", "located_in": "Ryfflihof", "nsi_id": "coopvitality-7092c5"}, "geometry": {"type": "Point", "coordinates": [7.442018, 46.949523]}},
{"type": "Feature", "id": "47qgwxQzMB157gCmBGsNWmBWhjs=", "properties": {"ref": "7601001374225", "branch": "Viganello", "@spider": "coop_vitality_ch", "amenity": "pharmacy", "healthcare": "pharmacy", "addr:housenumber": "1", "addr:street": "Via Molinazzo", "addr:city": "Viganello", "addr:postcode": "6962", "addr:country": "CH", "name": "Coop Vitality", "phone": "+41588788170", "website": "https://www.coopvitality.ch/it/coop-vitality-viganello", "contact:email": "farmacia.viganello@coop-vitality.ch", "image": "https://www.coopvitality.ch/media/magestore/storepickup/images/store/gallery/c/v/cv_viganello.jpg", "brand": "Coop Vitality", "brand:wikidata": "Q111725297", "nsi_id": "coopvitality-7092c5"}, "geometry": {"type": "Point", "coordinates": [8.9650986, 46.0098184]}},
{"type": "Feature", "id": "BvEfaRINxDbhwtUMUNEvimeH5qk=", "properties": {"ref": "7601001374195", "branch": "Grenchen", "@spider": "coop_vitality_ch", "amenity": "pharmacy", "healthcare": "pharmacy", "addr:housenumber": "8", "addr:street": "Bettlachstrasse", "addr:city": "Grenchen", "addr:postcode": "2540", "addr:country": "CH", "name": "Coop Vitality", "phone": "+41588788180", "website": "https://www.coopvitality.ch/de/coop-vitality-grenchen", "contact:email": "apotheke.grenchen@coop-vitality.ch", "image": "https://www.coopvitality.ch/media/magestore/storepickup/images/store/gallery/c/v/cv_grenchen.jpg", "brand": "Coop Vitality", "brand:wikidata": "Q111725297", "located_in": "Centro", "nsi_id": "coopvitality-7092c5"}, "geometry": {"type": "Point", "coordinates": [7.396785, 47.1926272]}},
{"type": "Feature", "id": "LpozGcIy3AP36AfbWem3CnqTMgA=", "properties": {"ref": "7601001375321", "branch": "Langenthal B\u00e4regg", "@spider": "coop_vitality_ch", "amenity": "pharmacy", "healthcare": "pharmacy", "addr:housenumber": "10", "addr:street": "B\u00e4reggstr.", "addr:city": "Langenthal", "addr:postcode": "4900", "addr:country": "CH", "name": "Coop Vitality", "phone": "+41588788190", "website": "https://www.coopvitality.ch/de/coop-vitality-langenthal-baregg", "contact:email": "apotheke.langenthal@coop-vitality.ch", "image": "https://www.coopvitality.ch/media/magestore/storepickup/images/store/gallery/c/v/cv_langenthal.jpg", "brand": "Coop Vitality", "brand:wikidata": "Q111725297", "located_in": "B\u00e4regg Center", "nsi_id": "coopvitality-7092c5"}, "geometry": {"type": "Point", "coordinates": [7.7813119, 47.220756]}},
{"type": "Feature", "id": "dM_TEkHjaD1oSO2Wgga-vZuVUOA=", "properties": {"ref": "7601001375611", "branch": "Maladi\u00e8re Neuch\u00e2tel", "@spider": "coop_vitality_ch", "amenity": "pharmacy", "healthcare": "pharmacy", "addr:housenumber": "10r", "addr:street": "Rue de la  Pierre-\u00e0-Mazel", "addr:city": "Neuch\u00e2tel", "addr:postcode": "2000", "addr:country": "CH", "name": "Coop Vitality", "phone": "+41588788200", "website": "https://www.coopvitality.ch/fr/coop-vitality-maladiere-neuchatel", "contact:email": "pharmacie.neuchatel@coop-vitality.ch", "image": "https://www.coopvitality.ch/media/magestore/storepickup/images/store/gallery/c/v/cv_neuchatel.jpg", "brand": "Coop Vitality", "brand:wikidata": "Q111725297", "located_in": "La Maladi\u00e8re Centre", "nsi_id": "coopvitality-7092c5"}, "geometry": {"type": "Point", "coordinates": [6.94436, 46.995253]}},
{"type": "Feature", "id": "oC0D4cpeMrhbODOtyF5TOlh0MOY=", "properties": {"ref": "7601001376212", "branch": "Oftringen Perry Center", "@spider": "coop_vitality_ch", "amenity": "pharmacy", "healthcare": "pharmacy", "addr:housenumber": "1", "addr:street": "Bernstrasse", "addr:city": "Oftringen", "addr:postcode": "4665", "addr:country": "CH", "name": "Coop Vitality", "phone": "+41588788210", "website": "https://www.coopvitality.ch/de/coop-vitality-oftringen-perry-center", "contact:email": "apotheke.oftringen@coop-vitality.ch", "image": "https://www.coopvitality.ch/media/magestore/storepickup/images/store/gallery/f/o/foto_4.jpg", "brand": "Coop Vitality", "brand:wikidata": "Q111725297", "located_in": "Perry-Center", "nsi_id": "coopvitality-7092c5"}, "geometry": {"type": "Point", "coordinates": [7.9129567, 47.3120561]}},
{"type": "Feature", "id": "SG6MMqA_AOLC_0ysPbp1G80AGx0=", "properties": {"ref": "7601001376229", "branch": "Z\u00fcrich Sihl-City", "@spider": "coop_vitality_ch", "amenity": "pharmacy", "healthcare": "pharmacy", "addr:housenumber": "1", "addr:street": "Kalanderplatz", "addr:city": "Z\u00fcrich", "addr:postcode": "8045", "addr:country": "CH", "name": "Coop Vitality", "phone": "+41588788220", "website": "https://www.coopvitality.ch/de/coop-vitality-zurich-sihl-city", "contact:email": "apotheke.sihlcity@coop-vitality.ch", "image": "https://www.coopvitality.ch/media/magestore/storepickup/images/store/gallery/c/v/cv_sihlcity.jpg", "brand": "Coop Vitality", "brand:wikidata": "Q111725297", "located_in": "Sihlcity", "located_in:wikidata": "Q1703434", "nsi_id": "coopvitality-7092c5"}, "geometry": {"type": "Point", "coordinates": [8.5230658, 47.3577488]}},
{"type": "Feature", "id": "0oSfaopARYv4RWkx92uhk3LKx6o=", "properties": {"ref": "7601001376830", "branch": "Basel Europe", "@spider": "coop_vitality_ch", "amenity": "pharmacy", "healthcare": "pharmacy", "addr:housenumber": "41", "addr:street": "Clarastrasse", "addr:city": "Basel", "addr:postcode": "4058", "addr:country": "CH", "name": "Coop Vitality", "phone": "+41588788240", "website": "https://www.coopvitality.ch/de/coop-vitality-basel-europe", "contact:email": "apotheke.europe@coop-vitality.ch", "image": "https://www.coopvitality.ch/media/magestore/storepickup/images/store/gallery/c/v/cv_basel_europe.jpg", "brand": "Coop Vitality", "brand:wikidata": "Q111725297", "located_in": "Europecenter", "nsi_id": "coopvitality-7092c5"}, "geometry": {"type": "Point", "coordinates": [7.597354, 47.5630991]}},
{"type": "Feature", "id": "e5KJKlyB1y5YSoSqa0yBn7mH_do=", "properties": {"ref": "7601001377554", "branch": "Morges", "@spider": "coop_vitality_ch", "amenity": "pharmacy", "healthcare": "pharmacy", "addr:housenumber": "4", "addr:street": "Rue des Foss\u00e9s", "addr:city": "Morges", "addr:postcode": "1110", "addr:country": "CH", "name": "Coop Vitality", "phone": "+41588788250", "website": "https://www.coopvitality.ch/fr/coop-vitality-morges", "contact:email": "pharmacie.morges@coop-vitality.ch", "image": "https://www.coopvitality.ch/media/magestore/storepickup/images/store/gallery/c/v/cv_charpentiers.jpg", "brand": "Coop Vitality", "brand:wikidata": "Q111725297", "nsi_id": "coopvitality-7092c5"}, "geometry": {"type": "Point", "coordinates": [6.4976428, 46.510049]}},
{"type": "Feature", "id": "-S2tiMQq3UGfJ_mJXB8PNy3dUAQ=", "properties": {"ref": "7601001377707", "branch": "Sierre", "@spider": "coop_vitality_ch", "amenity": "pharmacy", "healthcare": "pharmacy", "addr:housenumber": "7", "addr:street": "Av. Max Huber", "addr:city": "Sierre", "addr:postcode": "3960", "addr:country": "CH", "name": "Coop Vitality", "phone": "+41588788260", "website": "https://www.coopvitality.ch/de/coop-vitality-sierre", "contact:email": "pharmacie.sierre@coop-vitality.ch", "image": "https://www.coopvitality.ch/media/magestore/storepickup/images/store/gallery/c/v/cv_sierre.png", "brand": "Coop Vitality", "brand:wikidata": "Q111725297", "nsi_id": "coopvitality-7092c5"}, "geometry": {"type": "Point", "coordinates": [7.5345487, 46.2938422]}},
{"type": "Feature", "id": "f5QLLAYkgcLn6dNwMraefWwer2g=", "properties": {"ref": "7601001378247", "branch": "Sant' Antonino", "@spider": "coop_vitality_ch", "amenity": "pharmacy", "healthcare": "pharmacy", "addr:street": " La Rotonda", "addr:city": "S. Antonino", "addr:postcode": "6592", "addr:country": "CH", "name": "Coop Vitality", "phone": "+41588788270", "website": "https://www.coopvitality.ch/it/coop-vitality-sant-antonino", "contact:email": "farmacia.santantonino@coop-vitality.ch", "image": "https://www.coopvitality.ch/media/magestore/storepickup/images/store/gallery/b/i/bild_1.jpg", "brand": "Coop Vitality", "brand:wikidata": "Q111725297", "located_in": "Centro Manor", "nsi_id": "coopvitality-7092c5"}, "geometry": {"type": "Point", "coordinates": [8.9658705, 46.1546498]}},
{"type": "Feature", "id": "NUVjY3hMcG_YGF5qejqyt0QCeXo=", "properties": {"ref": "7601001378339", "branch": "Niederrohrdorf", "@spider": "coop_vitality_ch", "amenity": "pharmacy", "healthcare": "pharmacy", "addr:housenumber": "2", "addr:street": "Zentrum", "addr:city": "Niederrohrdorf", "addr:postcode": "5443", "addr:country": "CH", "name": "Coop Vitality", "phone": "+41588788280", "website": "https://www.coopvitality.ch/de/coop-vitality-niederrohrdorf", "contact:email": "apotheke.niederrohrdorf@coop-vitality.ch", "image": "https://www.coopvitality.ch/media/magestore/storepickup/images/store/gallery/c/v/cv_niederrohrdorf.jpg", "brand": "Coop Vitality", "brand:wikidata": "Q111725297", "nsi_id": "coopvitality-7092c5"}, "geometry": {"type": "Point", "coordinates": [8.3051899, 47.4237763]}},
{"type": "Feature", "id": "ebhgdhlLDT9Nk7Rl5gIE9mioGJY=", "properties": {"ref": "7601001378773", "branch": "Kreuzlingen Karussell", "@spider": "coop_vitality_ch", "amenity": "pharmacy", "healthcare": "pharmacy", "addr:housenumber": "16", "addr:street": "Sonnenstrasse", "addr:city": "Kreuzlingen", "addr:postcode": "8280", "addr:country": "CH", "name": "Coop Vitality", "phone": "+41588788290", "website": "https://www.coopvitality.ch/de/coop-vitality-kreuzlingen-karussell", "contact:email": "apotheke.kreuzlingen@coop-vitality.ch", "image": "https://www.coopvitality.ch/media/magestore/storepickup/images/store/gallery/c/v/cv_kreuzlingen.jpg", "brand": "Coop Vitality", "brand:wikidata": "Q111725297", "located_in": "Einkaufszentrum Karussell", "nsi_id": "coopvitality-7092c5"}, "geometry": {"type": "Point", "coordinates": [9.172738, 47.650582]}},
{"type": "Feature", "id": "UMHra83EiM4cLsWQgAuc9-QzQ9A=", "properties": {"ref": "7601001379268", "branch": "Rickenbach", "@spider": "coop_vitality_ch", "amenity": "pharmacy", "healthcare": "pharmacy", "addr:housenumber": "4", "addr:street": "Breitestrasse", "addr:city": "Rickenbach b. Wil", "addr:postcode": "9532", "addr:country": "CH", "name": "Coop Vitality", "phone": "+41588788300", "website": "https://www.coopvitality.ch/de/coop-vitality-rickenbach", "contact:email": "apotheke.rickenbach@coop-vitality.ch", "image": "https://www.coopvitality.ch/media/magestore/storepickup/images/store/gallery/4/5/4513_001.png", "brand": "Coop Vitality", "brand:wikidata": "Q111725297", "located_in": "Coop Zentrum Breite", "nsi_id": "coopvitality-7092c5"}, "geometry": {"type": "Point", "coordinates": [9.0535708, 47.4470584]}},
{"type": "Feature", "id": "6Eme5bVK9XtTmXlalpuD7obg0Kw=", "properties": {"ref": "7601001379510", "branch": "Dietlikon", "@spider": "coop_vitality_ch", "amenity": "pharmacy", "healthcare": "pharmacy", "addr:housenumber": "28", "addr:street": "Industriestrasse", "addr:city": "Dietlikon", "addr:postcode": "8305", "addr:country": "CH", "name": "Coop Vitality", "phone": "+41588788310", "website": "https://www.coopvitality.ch/de/coop-vitality-dietlikon", "contact:email": "apotheke.dietlikon@coop-vitality.ch", "image": "https://www.coopvitality.ch/media/magestore/storepickup/images/store/gallery/c/v/cv_dietlikon.jpg", "brand": "Coop Vitality", "brand:wikidata": "Q111725297", "nsi_id": "coopvitality-7092c5"}, "geometry": {"type": "Point", "coordinates": [8.6187486, 47.413264]}},
{"type": "Feature", "id": "qW1XNd0HvrVYN1JgURJcelE5p0M=", "properties": {"ref": "7601001379527", "branch": "Canobbio", "@spider": "coop_vitality_ch", "amenity": "pharmacy", "healthcare": "pharmacy", "addr:housenumber": "5", "addr:street": "Via Sonvico", "addr:city": "Canobbio", "addr:postcode": "6952", "addr:country": "CH", "name": "Coop Vitality", "phone": "+41588788320", "website": "https://www.coopvitality.ch/it/coop-vitality-canobbio", "contact:email": "farmacia.canobbio@coop-vitality.ch", "image": "https://www.coopvitality.ch/media/magestore/storepickup/images/store/gallery/c/v/cv_canobbio.jpg", "brand": "Coop Vitality", "brand:wikidata": "Q111725297", "located_in": "Coop Resega", "nsi_id": "coopvitality-7092c5"}, "geometry": {"type": "Point", "coordinates": [8.9674876, 46.0283869]}},
{"type": "Feature", "id": "9hGzXD_nB_y--lm4Y7LstB_pkK8=", "properties": {"ref": "7601001379794", "branch": "Lyss", "@spider": "coop_vitality_ch", "amenity": "pharmacy", "healthcare": "pharmacy", "addr:housenumber": "2", "addr:street": "Beundengasse", "addr:city": "Lyss", "addr:postcode": "3250", "addr:country": "CH", "name": "Coop Vitality", "phone": "+41588788330", "website": "https://www.coopvitality.ch/de/coop-vitality-lyss", "contact:email": "apotheke.lyss@coop-vitality.ch", "image": "https://www.coopvitality.ch/media/magestore/storepickup/images/store/gallery/c/v/cv_lyss.jpg", "brand": "Coop Vitality", "brand:wikidata": "Q111725297", "nsi_id": "coopvitality-7092c5"}, "geometry": {"type": "Point", "coordinates": [7.3026023, 47.0727395]}},
{"type": "Feature", "id": "EUDMtd1VFTUM1RNLiIFXuF8xpVo=", "properties": {"ref": "7601001379770", "branch": "Muri", "@spider": "coop_vitality_ch", "amenity": "pharmacy", "healthcare": "pharmacy", "addr:housenumber": "1", "addr:street": "Seetalstr.", "addr:city": "Muri", "addr:postcode": "5630", "addr:country": "CH", "name": "Coop Vitality", "phone": "+41588788340", "website": "https://www.coopvitality.ch/de/coop-vitality-muri", "contact:email": "apotheke.muri@coop-vitality.ch", "image": "https://www.coopvitality.ch/media/magestore/storepickup/images/store/gallery/c/v/cv_muri.jpg", "brand": "Coop Vitality", "brand:wikidata": "Q111725297", "located_in": "Muripark", "nsi_id": "coopvitality-7092c5"}, "geometry": {"type": "Point", "coordinates": [8.340985, 47.272602]}},
{"type": "Feature", "id": "VN6pkhNQ9FloxV78O-agAuRbbAM=", "properties": {"ref": "7601001380165", "branch": "Bachenb\u00fclach", "@spider": "coop_vitality_ch", "amenity": "pharmacy", "healthcare": "pharmacy", "addr:housenumber": "6", "addr:street": "Grabenstrasse", "addr:city": "Bachenb\u00fclach", "addr:postcode": "8184", "addr:country": "CH", "name": "Coop Vitality", "phone": "+41588788350", "website": "https://www.coopvitality.ch/de/coop-vitality-bachenbulach", "contact:email": "apotheke.bachenbuelach@coop-vitality.ch", "image": "https://www.coopvitality.ch/media/magestore/storepickup/images/store/gallery/c/v/cv_bachenb_lach.jpg", "brand": "Coop Vitality", "brand:wikidata": "Q111725297", "located_in": "Coop Center", "nsi_id": "coopvitality-7092c5"}, "geometry": {"type": "Point", "coordinates": [8.54182, 47.506213]}},
{"type": "Feature", "id": "Tbu7lBS9eXomghyggG6OJuPHdec=", "properties": {"ref": "7601001380141", "branch": "Z\u00fcrich Letzipark", "@spider": "coop_vitality_ch", "amenity": "pharmacy", "healthcare": "pharmacy", "addr:housenumber": "50", "addr:street": "Baslerstrasse", "addr:city": "Z\u00fcrich", "addr:postcode": "8048", "addr:country": "CH", "name": "Coop Vitality", "phone": "+41588788360", "website": "https://www.coopvitality.ch/de/coop-vitality-zurich-letzipark", "contact:email": "apotheke.letzipark@coop-vitality.ch", "image": "https://www.coopvitality.ch/media/magestore/storepickup/images/store/gallery/c/v/cv_letzipark.jpeg", "brand": "Coop Vitality", "brand:wikidata": "Q111725297", "located_in": "Einkaufszentrum Letzipark", "located_in:wikidata": "Q1489092", "nsi_id": "coopvitality-7092c5"}, "geometry": {"type": "Point", "coordinates": [8.4991157, 47.3864268]}},
{"type": "Feature", "id": "bCpSAvIgEas6ItkNy812Sk9b6bg=", "properties": {"ref": "7601001380721", "branch": "Mellingen", "@spider": "coop_vitality_ch", "amenity": "pharmacy", "healthcare": "pharmacy", "addr:housenumber": "21", "addr:street": "Birrfeldstrasse", "addr:city": "Mellingen", "addr:postcode": "5507", "addr:country": "CH", "name": "Coop Vitality", "phone": "+41588788370", "website": "https://www.coopvitality.ch/de/coop-vitality-mellingen", "contact:email": "apotheke.mellingen@coop-vitality.ch", "image": "https://www.coopvitality.ch/media/magestore/storepickup/images/store/gallery/c/v/cv_mellingen.jpg", "brand": "Coop Vitality", "brand:wikidata": "Q111725297", "located_in": "Reusstalcenter Mellingen", "nsi_id": "coopvitality-7092c5"}, "geometry": {"type": "Point", "coordinates": [8.2698094, 47.4183888]}},
{"type": "Feature", "id": "Y7GVqfpAY6gE0xybe4pS-CncWP4=", "properties": {"ref": "7601001380561", "branch": "Z\u00fcrich-Wiedikon", "@spider": "coop_vitality_ch", "amenity": "pharmacy", "healthcare": "pharmacy", "addr:housenumber": "200", "addr:street": "Birmensdorferstr.", "addr:city": "Z\u00fcrich", "addr:postcode": "8003", "addr:country": "CH", "name": "Coop Vitality", "phone": "+41588788380", "website": "https://www.coopvitality.ch/de/coop-vitality-zurich-wiedikon", "contact:email": "apotheke.wiedikon@coop-vitality.ch", "image": "https://www.coopvitality.ch/media/magestore/storepickup/images/store/gallery/c/v/cv_wiedikon.jpg", "brand": "Coop Vitality", "brand:wikidata": "Q111725297", "nsi_id": "coopvitality-7092c5"}, "geometry": {"type": "Point", "coordinates": [8.515926, 47.3707614]}},
{"type": "Feature", "id": "z2QBYCavRru-Lg0OaTt8W_Ie15c=", "properties": {"ref": "7601001391543", "branch": "Langnau", "@spider": "coop_vitality_ch", "amenity": "pharmacy", "healthcare": "pharmacy", "addr:housenumber": "37", "addr:street": "S\u00e4gestrasse", "addr:city": "Langnau i. E.", "addr:postcode": "3550", "addr:country": "CH", "name": "Coop Vitality", "phone": "+41588788390", "website": "https://www.coopvitality.ch/de/coop-vitality-langnau", "contact:email": "apotheke.langnau@coop-vitality.ch", "image": "https://www.coopvitality.ch/media/magestore/storepickup/images/store/gallery/c/v/cv_langnau.jpg", "brand": "Coop Vitality", "brand:wikidata": "Q111725297", "located_in": "Ilfis Center", "nsi_id": "coopvitality-7092c5"}, "geometry": {"type": "Point", "coordinates": [7.77836645, 46.94053894]}},
{"type": "Feature", "id": "VgxPm6G54KxfM89JLqd50gPWdLY=", "properties": {"ref": "7601001392403", "branch": "Gossau", "@spider": "coop_vitality_ch", "amenity": "pharmacy", "healthcare": "pharmacy", "addr:housenumber": "75", "addr:street": "St. Gallerstrasse", "addr:city": "Gossau (SG)", "addr:postcode": "9200", "addr:country": "CH", "name": "Coop Vitality", "phone": "+41588788400", "website": "https://www.coopvitality.ch/de/coop-vitality-gossau", "contact:email": "apotheke.gossau@coop-vitality.ch", "image": "https://www.coopvitality.ch/media/magestore/storepickup/images/store/gallery/c/v/cv_gossau.jpg", "brand": "Coop Vitality", "brand:wikidata": "Q111725297", "nsi_id": "coopvitality-7092c5"}, "geometry": {"type": "Point", "coordinates": [9.2515426, 47.416719]}},
{"type": "Feature", "id": "BJdlilw6F9KS7HOKDhGClMvb3Jo=", "properties": {"ref": "7601001392397", "branch": "Renens", "@spider": "coop_vitality_ch", "amenity": "pharmacy", "healthcare": "pharmacy", "addr:housenumber": "1", "addr:street": "Place du March\u00e9", "addr:city": "Renens", "addr:postcode": "1020", "addr:country": "CH", "name": "Coop Vitality", "phone": "+41588788410", "website": "https://www.coopvitality.ch/fr/coop-vitality-renens", "contact:email": "pharmacie.renens@coop-vitality.ch", "image": "https://www.coopvitality.ch/media/magestore/storepickup/images/store/gallery/c/v/cv_renens.jpg", "brand": "Coop Vitality", "brand:wikidata": "Q111725297", "located_in": "Renens Centre", "nsi_id": "coopvitality-7092c5"}, "geometry": {"type": "Point", "coordinates": [6.5816253, 46.5383394]}},
{"type": "Feature", "id": "k7P949VnXlRGz9APmg60ZO7u4L8=", "properties": {"ref": "7601001393318", "branch": "Feuerthalen", "@spider": "coop_vitality_ch", "amenity": "pharmacy", "healthcare": "pharmacy", "addr:housenumber": "30", "addr:street": "Sch\u00fctzenstrasse", "addr:city": "Feuerthalen", "addr:postcode": "8245", "addr:country": "CH", "name": "Coop Vitality", "phone": "+41588788420", "website": "https://www.coopvitality.ch/de/coop-vitality-feuerthalen", "contact:email": "apotheke.feuerthalen@coop-vitality.ch", "image": "https://www.coopvitality.ch/media/magestore/storepickup/images/store/gallery/c/v/cv_feuerthalen.jpg", "brand": "Coop Vitality", "brand:wikidata": "Q111725297", "located_in": "Coop Rhymarkt", "nsi_id": "coopvitality-7092c5"}, "geometry": {"type": "Point", "coordinates": [8.6468045, 47.6906467]}},
{"type": "Feature", "id": "8TQ3L8wkWckSOQDYcVsVrrCWMCQ=", "properties": {"ref": "7601001393301", "branch": "Frauenfeld Schlosspark", "@spider": "coop_vitality_ch", "amenity": "pharmacy", "healthcare": "pharmacy", "addr:housenumber": "138", "addr:street": "Z\u00fcrcherstrasse", "addr:city": "Frauenfeld", "addr:postcode": "8500", "addr:country": "CH", "name": "Coop Vitality", "phone": "+41588788430", "website": "https://www.coopvitality.ch/de/coop-vitality-frauenfeld-schlosspark", "contact:email": "apotheke.frauenfeld@coop-vitality.ch", "image": "https://www.coopvitality.ch/media/magestore/storepickup/images/store/gallery/c/v/cv_frauenfeld.jpg", "brand": "Coop Vitality", "brand:wikidata": "Q111725297", "located_in": "EKZ Schlosspark", "nsi_id": "coopvitality-7092c5"}, "geometry": {"type": "Point", "coordinates": [8.8957024, 47.55433]}},
{"type": "Feature", "id": "4ytjKMDe0iNB6nIzScHy4mZo0xw=", "properties": {"ref": "7601001393516", "branch": "Basel S\u00fcdpark", "@spider": "coop_vitality_ch", "amenity": "pharmacy", "healthcare": "pharmacy", "addr:housenumber": "125", "addr:street": "G\u00fcterstrasse", "addr:city": "Basel", "addr:postcode": "4053", "addr:country": "CH", "name": "Coop Vitality", "phone": "+41588788440", "website": "https://www.coopvitality.ch/de/coop-vitality-basel-sudpark", "contact:email": "apotheke.suedpark@coop-vitality.ch", "image": "https://www.coopvitality.ch/media/magestore/storepickup/images/store/gallery/c/v/cv_basels_dpark_1.jpg", "brand": "Coop Vitality", "brand:wikidata": "Q111725297", "located_in": "S\u00fcdpark Bahnhof SBB", "nsi_id": "coopvitality-7092c5"}, "geometry": {"type": "Point", "coordinates": [7.58864, 47.545393]}},
{"type": "Feature", "id": "iwoh7SZZX70MzwH66FsZybbhMLM=", "properties": {"ref": "7601001394025", "branch": "Egerkingen G\u00e4upark", "@spider": "coop_vitality_ch", "amenity": "pharmacy", "healthcare": "pharmacy", "addr:housenumber": "3", "addr:street": "Hausimollstrasse", "addr:city": "Egerkingen", "addr:postcode": "4622", "addr:country": "CH", "name": "Coop Vitality", "phone": "+41588788450", "website": "https://www.coopvitality.ch/de/coop-vitality-egerkingen-gaupark", "contact:email": "apotheke.egerkingen@coop-vitality.ch", "image": "https://www.coopvitality.ch/media/magestore/storepickup/images/store/gallery/c/v/cv_egerkingen.jpg", "brand": "Coop Vitality", "brand:wikidata": "Q111725297", "located_in": "G\u00e4upark", "nsi_id": "coopvitality-7092c5"}, "geometry": {"type": "Point", "coordinates": [7.802967, 47.318179]}},
{"type": "Feature", "id": "Olt443_2VMDT6WMKwjY1ubrhQ-A=", "properties": {"ref": "7601001393936", "branch": "Chur City West", "@spider": "coop_vitality_ch", "amenity": "pharmacy", "healthcare": "pharmacy", "addr:housenumber": "35", "addr:street": "Rasch\u00e4renstrasse", "addr:city": "Chur", "addr:postcode": "7000", "addr:country": "CH", "name": "Coop Vitality", "phone": "+41588788460", "website": "https://www.coopvitality.ch/de/coop-vitality-chur-city-west", "contact:email": "apotheke.chur@coop-vitality.ch", "image": "https://www.coopvitality.ch/media/magestore/storepickup/images/store/gallery/c/v/cv_chur.jpg", "brand": "Coop Vitality", "brand:wikidata": "Q111725297", "located_in": "EKZ City West Chur", "nsi_id": "coopvitality-7092c5"}, "geometry": {"type": "Point", "coordinates": [9.5082964, 46.8469991]}},
{"type": "Feature", "id": "wFNEkyi8juTQ3046RpfFkiYJeXk=", "properties": {"ref": "7601001394926", "branch": "Frick", "@spider": "coop_vitality_ch", "amenity": "pharmacy", "healthcare": "pharmacy", "addr:housenumber": "37", "addr:street": "Hauptstrasse", "addr:city": "Frick", "addr:postcode": "5070", "addr:country": "CH", "name": "Coop Vitality", "phone": "+41588788470", "website": "https://www.coopvitality.ch/de/coop-vitality-frick", "contact:email": "apotheke.frick@coop-vitality.ch", "image": "https://www.coopvitality.ch/media/magestore/storepickup/images/store/gallery/c/v/cv_frick.jpg", "brand": "Coop Vitality", "brand:wikidata": "Q111725297", "nsi_id": "coopvitality-7092c5"}, "geometry": {"type": "Point", "coordinates": [8.0192535, 47.5090824]}},
{"type": "Feature", "id": "qP8TNshDxop_ZlFgxDmg7f0JZiM=", "properties": {"ref": "7601001394735", "branch": "Jona", "@spider": "coop_vitality_ch", "amenity": "pharmacy", "healthcare": "pharmacy", "addr:housenumber": "17", "addr:street": "Allmeindstrasse", "addr:city": "Rapperswil-Jona", "addr:postcode": "8645", "addr:country": "CH", "name": "Coop Vitality", "phone": "+41588788480", "website": "https://www.coopvitality.ch/de/coop-vitality-jona", "contact:email": "apotheke.jona@coop-vitality.ch", "image": "https://www.coopvitality.ch/media/magestore/storepickup/images/store/gallery/i/m/img_6072.jpg", "brand": "Coop Vitality", "brand:wikidata": "Q111725297", "nsi_id": "coopvitality-7092c5"}, "geometry": {"type": "Point", "coordinates": [8.836551, 47.23114]}},
{"type": "Feature", "id": "F_vFrUejovulEvK7nWOyYElA1ak=", "properties": {"ref": "7601001396517", "branch": "Agy", "@spider": "coop_vitality_ch", "amenity": "pharmacy", "healthcare": "pharmacy", "addr:housenumber": "1", "addr:street": "Route d'Agy", "addr:city": "Granges-Paccot", "addr:postcode": "1763", "addr:country": "CH", "name": "Coop Vitality", "phone": "+41588788490", "website": "https://www.coopvitality.ch/fr/coop-vitality-agy", "contact:email": "pharmacie.agy@coop-vitality.ch", "image": "https://www.coopvitality.ch/media/magestore/storepickup/images/store/gallery/c/v/cv_agy.jpg", "brand": "Coop Vitality", "brand:wikidata": "Q111725297", "located_in": "Centre commercial d'Agy", "nsi_id": "coopvitality-7092c5"}, "geometry": {"type": "Point", "coordinates": [7.1530837, 46.8208263]}},
{"type": "Feature", "id": "2FM45vymmcvndbVgcElqbk9VPVM=", "properties": {"ref": "7601001395541", "branch": "Thalwil", "@spider": "coop_vitality_ch", "amenity": "pharmacy", "healthcare": "pharmacy", "addr:housenumber": "1", "addr:street": "Florastrasse", "addr:city": "Thalwil", "addr:postcode": "8800", "addr:country": "CH", "name": "Coop Vitality", "phone": "+41588788500", "website": "https://www.coopvitality.ch/de/coop-vitality-thalwil", "contact:email": "apotheke.thalwil@coop-vitality.ch", "image": "https://www.coopvitality.ch/media/magestore/storepickup/images/store/gallery/c/v/cv_thalwil.jpg", "brand": "Coop Vitality", "brand:wikidata": "Q111725297", "nsi_id": "coopvitality-7092c5"}, "geometry": {"type": "Point", "coordinates": [8.5620336, 47.2967616]}},
{"type": "Feature", "id": "ZCy7l98JXDmjOsPOeLZziQoPi30=", "properties": {"ref": "7601001397675", "branch": "Onex", "@spider": "coop_vitality_ch", "amenity": "pharmacy", "healthcare": "pharmacy", "addr:housenumber": "21", "addr:street": "Rue des Bossons", "addr:city": "Onex", "addr:postcode": "1213", "addr:country": "CH", "name": "Coop Vitality", "phone": "+41588788510", "website": "https://www.coopvitality.ch/fr/coop-vitality-onex", "contact:email": "pharmacie.onex@coop-vitality.ch", "image": "https://www.coopvitality.ch/media/magestore/storepickup/images/store/gallery/c/v/cv_onex.jpg", "brand": "Coop Vitality", "brand:wikidata": "Q111725297", "located_in": "Centre commercial Coop", "nsi_id": "coopvitality-7092c5"}, "geometry": {"type": "Point", "coordinates": [6.1039007, 46.1874925]}},
{"type": "Feature", "id": "D2FgX0eq00UxyeW6pGHnZByMu-I=", "properties": {"ref": "7601001397910", "branch": "Laufen", "@spider": "coop_vitality_ch", "amenity": "pharmacy", "healthcare": "pharmacy", "addr:housenumber": "16", "addr:street": "Bahnhofstrasse", "addr:city": "Laufen", "addr:postcode": "4242", "addr:country": "CH", "name": "Coop Vitality", "phone": "+41588788520", "website": "https://www.coopvitality.ch/de/coop-vitality-laufen", "contact:email": "apotheke.laufen@coop-vitality.ch", "image": "https://www.coopvitality.ch/media/magestore/storepickup/images/store/gallery/c/v/cv_laufen.jpg", "brand": "Coop Vitality", "brand:wikidata": "Q111725297", "nsi_id": "coopvitality-7092c5"}, "geometry": {"type": "Point", "coordinates": [7.501954, 47.4193842]}},
{"type": "Feature", "id": "-wOden3i_6x1jiQ9o3lsFRA5774=", "properties": {"ref": "7601001398399", "branch": "Haag", "@spider": "coop_vitality_ch", "amenity": "pharmacy", "healthcare": "pharmacy", "addr:street": "Im R\u00fcti", "addr:city": "Haag (Rheintal)", "addr:postcode": "9469", "addr:country": "CH", "name": "Coop Vitality", "phone": "+41588788530", "website": "https://www.coopvitality.ch/de/coop-vitality-haag", "contact:email": "apotheke.haag@coop-vitality.ch", "image": "https://www.coopvitality.ch/media/magestore/storepickup/images/store/gallery/c/v/cv_haag.jpg", "brand": "Coop Vitality", "brand:wikidata": "Q111725297", "located_in": "Haag Center", "nsi_id": "coopvitality-7092c5"}, "geometry": {"type": "Point", "coordinates": [9.4957096, 47.2130135]}},
{"type": "Feature", "id": "G-2YPCwyv9atm0vNpwoK_2yE-as=", "properties": {"ref": "7601001398382", "branch": "Oerlikon Center Eleven", "@spider": "coop_vitality_ch", "amenity": "pharmacy", "healthcare": "pharmacy", "addr:housenumber": "4", "addr:street": "Sophie T\u00e4uber-Strasse", "addr:city": "Z\u00fcrich", "addr:postcode": "8050", "addr:country": "CH", "name": "Coop Vitality", "phone": "+41588788540", "website": "https://www.coopvitality.ch/de/coop-vitality-oerlikon-center-eleven", "contact:email": "apotheke.oerlikon@coop-vitality.ch", "image": "https://www.coopvitality.ch/media/magestore/storepickup/images/store/gallery/c/v/cv_oerlikon.jpg", "brand": "Coop Vitality", "brand:wikidata": "Q111725297", "located_in": "Center Eleven", "nsi_id": "coopvitality-7092c5"}, "geometry": {"type": "Point", "coordinates": [8.5404597, 47.4129225]}},
{"type": "Feature", "id": "n3iibMw6L0czRpqOomtAPUKfupc=", "properties": {"ref": "7601001399693", "branch": "Gland", "@spider": "coop_vitality_ch", "amenity": "pharmacy", "healthcare": "pharmacy", "addr:street": "Quartier Eikenott", "addr:city": "Gland", "addr:postcode": "1196", "addr:country": "CH", "name": "Coop Vitality", "phone": "+41588788560", "website": "https://www.coopvitality.ch/fr/coop-vitality-gland", "contact:email": "pharmacie.gland@coop-vitality.ch", "image": "https://www.coopvitality.ch/media/magestore/storepickup/images/store/gallery/c/v/cv_gland.jpg", "brand": "Coop Vitality", "brand:wikidata": "Q111725297", "located_in": "All\u00e9e du Communet 20", "nsi_id": "coopvitality-7092c5"}, "geometry": {"type": "Point", "coordinates": [6.2660848, 46.4274289]}},
{"type": "Feature", "id": "jIgDpO1OAZWz3yrOH16Q1zyVWHc=", "properties": {"ref": "7601001399709", "branch": "Conthey", "@spider": "coop_vitality_ch", "amenity": "pharmacy", "healthcare": "pharmacy", "addr:housenumber": "2", "addr:street": "Rue de la Madeleine", "addr:city": "Conthey", "addr:postcode": "1964", "addr:country": "CH", "name": "Coop Vitality", "phone": "+41588788570", "website": "https://www.coopvitality.ch/fr/coop-vitality-conthey", "contact:email": "pharmacie.conthey@coop-vitality.ch", "image": "https://www.coopvitality.ch/media/magestore/storepickup/images/store/gallery/c/v/cv_conthey.jpg", "brand": "Coop Vitality", "brand:wikidata": "Q111725297", "located_in": "Bassin-Centre", "nsi_id": "coopvitality-7092c5"}, "geometry": {"type": "Point", "coordinates": [7.2959422, 46.2238898]}},
{"type": "Feature", "id": "G8Pu0YxNst2yD01cnx2AZkKKHtY=", "properties": {"ref": "7601001400207", "branch": "Bern Europaplatz", "@spider": "coop_vitality_ch", "amenity": "pharmacy", "healthcare": "pharmacy", "addr:housenumber": "1a", "addr:street": "Europaplatz", "addr:city": "Bern", "addr:postcode": "3008", "addr:country": "CH", "name": "Coop Vitality", "phone": "+41588788580", "website": "https://www.coopvitality.ch/de/coop-vitality-bern-europaplatz", "contact:email": "apotheke.europaplatz@coop-vitality.ch", "image": "https://www.coopvitality.ch/media/magestore/storepickup/images/store/gallery/c/v/cv_berneuropaplatz.jpg", "brand": "Coop Vitality", "brand:wikidata": "Q111725297", "nsi_id": "coopvitality-7092c5"}, "geometry": {"type": "Point", "coordinates": [7.4058919, 46.9436161]}},
{"type": "Feature", "id": "B-R1S1_veeBWHX426teJhLZYCPE=", "properties": {"ref": "7601001399808", "branch": "Dietikon Silbern", "@spider": "coop_vitality_ch", "amenity": "pharmacy", "healthcare": "pharmacy", "addr:housenumber": "9", "addr:street": "Silbernstrasse", "addr:city": "Dietikon", "addr:postcode": "8953", "addr:country": "CH", "name": "Coop Vitality", "phone": "+41588788590", "website": "https://www.coopvitality.ch/de/coop-vitality-dietikon-silbern", "contact:email": "apotheke.silbern@coop-vitality.ch", "image": "https://www.coopvitality.ch/media/magestore/storepickup/images/store/gallery/c/v/cv_dietikonsilbern.jpg", "brand": "Coop Vitality", "brand:wikidata": "Q111725297", "nsi_id": "coopvitality-7092c5"}, "geometry": {"type": "Point", "coordinates": [8.3921946, 47.4182702]}},
{"type": "Feature", "id": "q70Q6t8ZAFPrnBK0zbsyo6Krmo8=", "properties": {"ref": "7601001400276", "branch": "Grindelwald", "@spider": "coop_vitality_ch", "amenity": "pharmacy", "healthcare": "pharmacy", "addr:housenumber": "101", "addr:street": "Dorfstrasse", "addr:city": "Grindelwald", "addr:postcode": "3818", "addr:country": "CH", "name": "Coop Vitality", "phone": "+41588788600", "website": "https://www.coopvitality.ch/de/coop-vitality-grindelwald", "contact:email": "apotheke.grindelwald@coop-vitality.ch", "image": "https://www.coopvitality.ch/media/magestore/storepickup/images/store/gallery/c/v/cv_grindelwald.jpg", "brand": "Coop Vitality", "brand:wikidata": "Q111725297", "nsi_id": "coopvitality-7092c5"}, "geometry": {"type": "Point", "coordinates": [8.0357857, 46.6242163]}},
{"type": "Feature", "id": "Csvv4rFhwJ7MgMAcfux1GTTv1l8=", "properties": {"ref": "7601001400825", "branch": "Basel Pilger", "@spider": "coop_vitality_ch", "amenity": "pharmacy", "healthcare": "pharmacy", "addr:housenumber": "57", "addr:street": "Missionsstrasse", "addr:city": "Basel", "addr:postcode": "4055", "addr:country": "CH", "name": "Coop Vitality", "phone": "+41588788610", "website": "https://www.coopvitality.ch/de/coop-vitality-basel-pilger", "contact:email": "apotheke.pilger@coop-vitality.ch", "image": "https://www.coopvitality.ch/media/magestore/storepickup/images/store/gallery/c/v/cv_baselpilger.jpg", "brand": "Coop Vitality", "brand:wikidata": "Q111725297", "nsi_id": "coopvitality-7092c5"}, "geometry": {"type": "Point", "coordinates": [7.575282, 47.5608726]}},
{"type": "Feature", "id": "ztaqcM5UDNzhPUzDDcYtvmOInrc=", "properties": {"ref": "7601001401440", "branch": "Kaiseraugst", "@spider": "coop_vitality_ch", "amenity": "pharmacy", "healthcare": "pharmacy", "addr:housenumber": "3", "addr:street": "Junkholzweg", "addr:city": "Kaiseraugst", "addr:postcode": "4303", "addr:country": "CH", "name": "Coop Vitality", "phone": "+41588788630", "website": "https://www.coopvitality.ch/de/coop-vitality-kaiseraugst", "contact:email": "apotheke.kaiseraugst@coop-vitality.ch", "image": "https://www.coopvitality.ch/media/magestore/storepickup/images/store/gallery/c/v/cv_kaiseraugust.jpg", "brand": "Coop Vitality", "brand:wikidata": "Q111725297", "located_in": "Kaiserhof Center", "nsi_id": "coopvitality-7092c5"}, "geometry": {"type": "Point", "coordinates": [7.7304327, 47.537799]}},
{"type": "Feature", "id": "24T-PkVxzKfXYPXza8OeiuA1nH0=", "properties": {"ref": "7601001402386", "branch": "Weinfelden", "@spider": "coop_vitality_ch", "amenity": "pharmacy", "healthcare": "pharmacy", "addr:housenumber": "18", "addr:street": "Fichtenstrasse", "addr:city": "Weinfelden", "addr:postcode": "8570", "addr:country": "CH", "name": "Coop Vitality", "phone": "+41588788650", "website": "https://www.coopvitality.ch/de/coop-vitality-weinfelden", "contact:email": "apotheke.weinfelden@coop-vitality.ch", "image": "https://www.coopvitality.ch/media/magestore/storepickup/images/store/gallery/c/v/cv_weinfelden.jpg", "brand": "Coop Vitality", "brand:wikidata": "Q111725297", "nsi_id": "coopvitality-7092c5"}, "geometry": {"type": "Point", "coordinates": [9.0968035, 47.5666493]}},
{"type": "Feature", "id": "6s6dlKkKNReFb92BJh_rGwX3Wf8=", "properties": {"ref": "7601001402836", "branch": "Biberist", "@spider": "coop_vitality_ch", "amenity": "pharmacy", "healthcare": "pharmacy", "addr:housenumber": "44", "addr:street": "Hauptstrasse", "addr:city": "Biberist", "addr:postcode": "4562", "addr:country": "CH", "name": "Coop Vitality", "phone": "+41588788670", "website": "https://www.coopvitality.ch/de/coop-vitality-biberist", "contact:email": "apotheke.biberist@coop-vitality.ch", "image": "https://www.coopvitality.ch/media/magestore/storepickup/images/store/gallery/c/v/cv_biberist.jpg", "brand": "Coop Vitality", "brand:wikidata": "Q111725297", "nsi_id": "coopvitality-7092c5"}, "geometry": {"type": "Point", "coordinates": [7.5629519, 47.1817699]}},
{"type": "Feature", "id": "Va_Sc-TdDen4lBIoJSbqmPI7DWc=", "properties": {"ref": "7601001402737", "branch": "Baden", "@spider": "coop_vitality_ch", "amenity": "pharmacy", "healthcare": "pharmacy", "addr:housenumber": "5", "addr:street": "Langhaus", "addr:city": "Baden", "addr:postcode": "5400", "addr:country": "CH", "name": "Coop Vitality", "phone": "+41588788660", "website": "https://www.coopvitality.ch/de/coop-vitality-baden", "contact:email": "apotheke.baden@coop-vitality.ch", "image": "https://www.coopvitality.ch/media/magestore/storepickup/images/store/gallery/c/v/cv_baden_1.png", "brand": "Coop Vitality", "brand:wikidata": "Q111725297", "nsi_id": "coopvitality-7092c5"}, "geometry": {"type": "Point", "coordinates": [8.3066484, 47.4765145]}},
{"type": "Feature", "id": "eQOql7S46qyTHNf7hSrshvOqodE=", "properties": {"ref": "7601001402928", "branch": "Kriens Pilatus Markt", "@spider": "coop_vitality_ch", "amenity": "pharmacy", "healthcare": "pharmacy", "addr:housenumber": "19", "addr:street": "Ringstrasse", "addr:city": "Kriens", "addr:postcode": "6010", "addr:country": "CH", "name": "Coop Vitality", "phone": "+41588788680", "website": "https://www.coopvitality.ch/de/coop-vitality-kriens-pilatus-markt", "contact:email": "apotheke.pilatus@coop-vitality.ch", "image": "https://www.coopvitality.ch/media/magestore/storepickup/images/store/gallery/c/v/cv_pilatus.jpg", "brand": "Coop Vitality", "brand:wikidata": "Q111725297", "located_in": "Pilatusmarkt", "located_in:wikidata": "Q2094879", "nsi_id": "coopvitality-7092c5"}, "geometry": {"type": "Point", "coordinates": [8.2997264, 47.018045]}},
{"type": "Feature", "id": "PtkCQFzSZ_kF2DVpZWK7qNGuQTA=", "properties": {"ref": "7601001402287", "branch": "Wallisellen", "@spider": "coop_vitality_ch", "amenity": "pharmacy", "healthcare": "pharmacy", "addr:housenumber": "2", "addr:street": "Bahnhofplatz", "addr:city": "Wallisellen", "addr:postcode": "8304", "addr:country": "CH", "name": "Coop Vitality", "phone": "+41588788640", "website": "https://www.coopvitality.ch/de/coop-vitality-wallisellen", "contact:email": "apotheke.wallisellen@coop-vitality.ch", "image": "https://www.coopvitality.ch/media/magestore/storepickup/images/store/gallery/c/v/cv_wallisellen.jpg", "brand": "Coop Vitality", "brand:wikidata": "Q111725297", "nsi_id": "coopvitality-7092c5"}, "geometry": {"type": "Point", "coordinates": [8.592497, 47.4128645]}},
{"type": "Feature", "id": "OscWyoA4JAMQ1SZ1NKZusFogRsg=", "properties": {"ref": "7601001400894", "branch": "Opfikon Glattpark", "@spider": "coop_vitality_ch", "amenity": "pharmacy", "healthcare": "pharmacy", "addr:housenumber": "12", "addr:street": "Boulevard Lilienthal", "addr:city": "Glattpark (Opfikon)", "addr:postcode": "8152", "addr:country": "CH", "name": "Coop Vitality", "phone": "+41588788620", "website": "https://www.coopvitality.ch/de/coop-vitality-opfikon-glattpark", "contact:email": "apotheke.opfikon@coop-vitality.ch", "image": "https://www.coopvitality.ch/media/magestore/storepickup/images/store/gallery/c/v/cv_opfikon.jpg", "brand": "Coop Vitality", "brand:wikidata": "Q111725297", "nsi_id": "coopvitality-7092c5"}, "geometry": {"type": "Point", "coordinates": [8.562148, 47.423811]}},
{"type": "Feature", "id": "yM6D6imzVS946I0zqE4VCIjjy4Q=", "properties": {"ref": "7601001403963", "branch": "Winterthur Stadtgarten", "@spider": "coop_vitality_ch", "amenity": "pharmacy", "healthcare": "pharmacy", "addr:housenumber": "12", "addr:street": "Bankstrasse", "addr:city": "Winterthur", "addr:postcode": "8400", "addr:country": "CH", "name": "Coop Vitality", "phone": "+41588788690", "website": "https://www.coopvitality.ch/de/coop-vitality-winterthur-stadtgarten", "contact:email": "apotheke.stadtgarten@coop-vitality.ch", "image": "https://www.coopvitality.ch/media/magestore/storepickup/images/store/gallery/c/v/cv_winterthurstadtgarten.jpg", "brand": "Coop Vitality", "brand:wikidata": "Q111725297", "nsi_id": "coopvitality-7092c5"}, "geometry": {"type": "Point", "coordinates": [8.7257786, 47.5009777]}},
{"type": "Feature", "id": "jCXBzJki6fPtz3GLsHUnhs7bn8k=", "properties": {"ref": "7601001404953", "branch": "Rorschach", "@spider": "coop_vitality_ch", "amenity": "pharmacy", "healthcare": "pharmacy", "addr:housenumber": "12", "addr:street": "Marktplatz", "addr:city": "Rorschach", "addr:postcode": "9400", "addr:country": "CH", "name": "Coop Vitality", "phone": "+41588788730", "website": "https://www.coopvitality.ch/de/coop-vitality-rorschach", "contact:email": "apotheke.rorschach@coop-vitality.ch", "image": "https://www.coopvitality.ch/media/magestore/storepickup/images/store/gallery/c/v/cv_rorschach.jpg", "brand": "Coop Vitality", "brand:wikidata": "Q111725297", "nsi_id": "coopvitality-7092c5"}, "geometry": {"type": "Point", "coordinates": [9.490783, 47.478027]}},
{"type": "Feature", "id": "V1T8ceKbQ8B5b9omh3ijTxmA0cI=", "properties": {"ref": "7601001404823", "branch": "Wohlen", "@spider": "coop_vitality_ch", "amenity": "pharmacy", "healthcare": "pharmacy", "addr:housenumber": "2", "addr:street": "Alte Bahnhofstrasse", "addr:city": "Wohlen AG", "addr:postcode": "5610", "addr:country": "CH", "name": "Coop Vitality", "phone": "+41588788700", "website": "https://www.coopvitality.ch/de/coop-vitality-wohlen", "contact:email": "apotheke.wohlen@coop-vitality.ch", "image": "https://www.coopvitality.ch/media/magestore/storepickup/images/store/gallery/c/v/cv_wohlen.jpg", "brand": "Coop Vitality", "brand:wikidata": "Q111725297", "nsi_id": "coopvitality-7092c5"}, "geometry": {"type": "Point", "coordinates": [8.270494, 47.350257]}},
{"type": "Feature", "id": "8LXj7ZjRqTYbyxGlCBO0zdqK9WA=", "properties": {"ref": "7601001404809", "branch": "Mendrisio", "@spider": "coop_vitality_ch", "amenity": "pharmacy", "healthcare": "pharmacy", "addr:housenumber": "31", "addr:street": "Via Giorgio Bernasconi", "addr:city": "Mendrisio", "addr:postcode": "6850", "addr:country": "CH", "name": "Coop Vitality", "phone": "+41588788720", "website": "https://www.coopvitality.ch/it/coop-vitality-mendrisio", "contact:email": "farmacia.mendrisio@coop-vitality.ch", "image": "https://www.coopvitality.ch/media/magestore/storepickup/images/store/gallery/c/v/cv_mendrisio.jpg", "brand": "Coop Vitality", "brand:wikidata": "Q111725297", "nsi_id": "coopvitality-7092c5"}, "geometry": {"type": "Point", "coordinates": [8.976682, 45.865949]}},
{"type": "Feature", "id": "oCfnOPZwHGRYLgSMDC9vvMgMeZ8=", "properties": {"ref": "7601001405257", "branch": "Flims", "@spider": "coop_vitality_ch", "amenity": "pharmacy", "healthcare": "pharmacy", "addr:housenumber": "80", "addr:street": "Via Nova", "addr:city": "Flims Dorf", "addr:postcode": "7017", "addr:country": "CH", "name": "Coop Vitality", "phone": "+41588788710", "website": "https://www.coopvitality.ch/de/coop-vitality-flims", "contact:email": "apotheke.flims@coop-vitality.ch", "image": "https://www.coopvitality.ch/media/magestore/storepickup/images/store/gallery/c/o/coopvitality_flims.jpg", "brand": "Coop Vitality", "brand:wikidata": "Q111725297", "nsi_id": "coopvitality-7092c5"}, "geometry": {"type": "Point", "coordinates": [9.282318, 46.833762]}},
{"type": "Feature", "id": "96xS_kMu8ia5YiBZG7Cqb8IxGos=", "properties": {"ref": "7601001405455", "branch": "Lenzburg", "@spider": "coop_vitality_ch", "amenity": "pharmacy", "healthcare": "pharmacy", "addr:housenumber": "31", "addr:street": "Augustin-Keller-Strasse", "addr:city": "Lenzburg", "addr:postcode": "5600", "addr:country": "CH", "name": "Coop Vitality", "phone": "+41588788740", "website": "https://www.coopvitality.ch/de/coop-vitality-lenzburg", "contact:email": "apotheke.lenzburg@coop-vitality.ch", "image": "https://www.coopvitality.ch/media/magestore/storepickup/images/store/gallery/c/v/cv_lenzburg.jpg", "brand": "Coop Vitality", "brand:wikidata": "Q111725297", "nsi_id": "coopvitality-7092c5"}, "geometry": {"type": "Point", "coordinates": [8.170904, 47.389898]}},
{"type": "Feature", "id": "JiNTi_UpMbt26U_Y8X289SbghAc=", "properties": {"ref": "7601001405493", "branch": "Oberwil Coop Center", "@spider": "coop_vitality_ch", "amenity": "pharmacy", "healthcare": "pharmacy", "addr:housenumber": "15", "addr:street": "Hauptstrasse", "addr:city": "Oberwil BL", "addr:postcode": "4104", "addr:country": "CH", "name": "Coop Vitality", "phone": "+41588788750", "website": "https://www.coopvitality.ch/de/coop-vitality-oberwil-coop-center", "contact:email": "apotheke.oberwil@coop-vitality.ch", "image": "https://www.coopvitality.ch/media/magestore/storepickup/images/store/gallery/a/p/apotheke_cv_oberwil.jpg", "brand": "Coop Vitality", "brand:wikidata": "Q111725297", "nsi_id": "coopvitality-7092c5"}, "geometry": {"type": "Point", "coordinates": [7.558009, 47.514605]}},
{"type": "Feature", "id": "RMkhzQZi7s-4LNWIDXXdm5ucvGE=", "properties": {"ref": "7601001405981", "branch": "Matran", "@spider": "coop_vitality_ch", "amenity": "pharmacy", "healthcare": "pharmacy", "addr:housenumber": "1", "addr:street": "Route du Bois", "addr:city": "Matran", "addr:postcode": "1753", "addr:country": "CH", "name": "Coop Vitality", "phone": "+41588788780", "website": "https://www.coopvitality.ch/fr/coop-vitality-matran", "contact:email": "pharmacie.matran@coop-vitality.ch", "image": "https://www.coopvitality.ch/media/magestore/storepickup/images/store/gallery/c/v/cv_matran1.jpg", "brand": "Coop Vitality", "brand:wikidata": "Q111725297", "located_in": "Centre Matran", "nsi_id": "coopvitality-7092c5"}, "geometry": {"type": "Point", "coordinates": [7.088852, 46.78066]}},
{"type": "Feature", "id": "Ez-aTt8PUAIzpg7IngS5L6kjaRc=", "properties": {"ref": "7601001406452", "branch": "Ins", "@spider": "coop_vitality_ch", "amenity": "pharmacy", "healthcare": "pharmacy", "addr:housenumber": "8", "addr:street": "Bahnhofstrasse", "addr:city": "Ins", "addr:postcode": "3232", "addr:country": "CH", "name": "Coop Vitality", "phone": "+41588788790", "website": "https://www.coopvitality.ch/de/coop-vitality-ins", "contact:email": "apotheke.ins@coop-vitality.ch", "image": "https://www.coopvitality.ch/media/magestore/storepickup/images/store/gallery/c/v/cv_ins.jpg", "brand": "Coop Vitality", "brand:wikidata": "Q111725297", "nsi_id": "coopvitality-7092c5"}, "geometry": {"type": "Point", "coordinates": [7.1035, 47.005566]}},
{"type": "Feature", "id": "597l4xyDpk8N5YjzEpR5L1P8rX4=", "properties": {"ref": "7601001407510", "branch": "Basel Erlenmatt", "@spider": "coop_vitality_ch", "amenity": "pharmacy", "healthcare": "pharmacy", "addr:housenumber": "81", "addr:street": "Erlenstrasse", "addr:city": "Basel", "addr:postcode": "4058", "addr:country": "CH", "name": "Coop Vitality", "phone": "+41588788810", "website": "https://www.coopvitality.ch/de/coop-vitality-basel-erlenmatt", "contact:email": "apotheke.erlenmatt@coop-vitality.ch", "image": "https://www.coopvitality.ch/media/magestore/storepickup/images/store/gallery/f/i/file6-2.jpeg", "brand": "Coop Vitality", "brand:wikidata": "Q111725297", "nsi_id": "coopvitality-7092c5"}, "geometry": {"type": "Point", "coordinates": [7.603717, 47.569722]}},
{"type": "Feature", "id": "rJZ1qtFIxSZ2vsk08vC_Il3R53A=", "properties": {"ref": "7601001407503", "branch": "Z\u00fcrich Flughafen", "@spider": "coop_vitality_ch", "amenity": "pharmacy", "healthcare": "pharmacy", "addr:housenumber": "2", "addr:street": "Postfach Terminal", "addr:city": "Z\u00fcrich Flughafen", "addr:postcode": "8060", "addr:country": "CH", "name": "Coop Vitality", "phone": "+41588788820", "website": "https://www.coopvitality.ch/de/coop-vitality-zurich-flughafen", "contact:email": "apotheke.flughafen@coop-vitality.ch", "image": "https://www.coopvitality.ch/media/magestore/storepickup/images/store/gallery/i/m/img_0640.jpg", "brand": "Coop Vitality", "brand:wikidata": "Q111725297", "nsi_id": "coopvitality-7092c5"}, "geometry": {"type": "Point", "coordinates": [8.5610291, 47.4515388]}},
{"type": "Feature", "id": "dWM5bmUn74F-HGJ-joxUr7XxM_E=", "properties": {"ref": "7601001408203", "branch": "Del\u00e9mont", "@spider": "coop_vitality_ch", "amenity": "pharmacy", "healthcare": "pharmacy", "addr:housenumber": "16", "addr:street": "Route de B\u00e2le", "addr:city": "Del\u00e9mont", "addr:postcode": "2800", "addr:country": "CH", "name": "Coop Vitality", "phone": "0588788830", "website": "https://www.coopvitality.ch/fr/coop-vitality-delemont", "contact:email": "pharmacie.delemont@coop-vitality.ch", "image": "https://www.coopvitality.ch/media/magestore/storepickup/images/store/gallery/2/0/20211130_172805_resized.jpg", "brand": "Coop Vitality", "brand:wikidata": "Q111725297", "nsi_id": "coopvitality-7092c5"}, "geometry": {"type": "Point", "coordinates": [7.34722, 47.36652]}},
{"type": "Feature", "id": "Z-nwP2nFel6C8X50BywmemAX3DM=", "properties": {"ref": "7601001408678", "branch": "St. Gallen Shopping Arena", "@spider": "coop_vitality_ch", "amenity": "pharmacy", "healthcare": "pharmacy", "addr:housenumber": "462", "addr:street": "Z\u00fcrcherstrasse", "addr:city": "St. Gallen", "addr:postcode": "9015", "addr:country": "CH", "name": "Coop Vitality", "phone": "+41588788840", "website": "https://www.coopvitality.ch/de/coop-vitality-st-gallen-shopping-arena", "contact:email": "apotheke.shoppingarena@coop-vitality.ch", "image": "https://www.coopvitality.ch/media/magestore/storepickup/images/store/gallery/i/m/img_8856.jpg", "brand": "Coop Vitality", "brand:wikidata": "Q111725297", "located_in": "Shopping Arena", "nsi_id": "coopvitality-7092c5"}, "geometry": {"type": "Point", "coordinates": [9.30573, 47.40834]}},
{"type": "Feature", "id": "_N3ittT5ZjM1FfChovYO3M7eyA8=", "properties": {"ref": "7601001408746", "branch": "Murten", "@spider": "coop_vitality_ch", "amenity": "pharmacy", "healthcare": "pharmacy", "addr:housenumber": "54", "addr:street": "L\u00f6wenbergstrasse", "addr:city": "Murten", "addr:postcode": "3280", "addr:country": "CH", "name": "Coop Vitality", "phone": "+41588788860", "website": "https://www.coopvitality.ch/de/coop-vitality-murten", "contact:email": "apotheke.murten@coop-vitality.ch", "image": "https://www.coopvitality.ch/media/magestore/storepickup/images/store/gallery/r/s/rsz_5765_0001_aussen.jpg", "brand": "Coop Vitality", "brand:wikidata": "Q111725297", "nsi_id": "coopvitality-7092c5"}, "geometry": {"type": "Point", "coordinates": [7.138414, 46.92848]}},
{"type": "Feature", "id": "9dsTKjiozv-_ef1D4KReov_jHps=", "properties": {"ref": "7601001408753", "branch": "Ch\u00e2tel-Saint-Denis", "@spider": "coop_vitality_ch", "amenity": "pharmacy", "healthcare": "pharmacy", "addr:housenumber": "14", "addr:street": "Chemin des Chardonnerets", "addr:city": "Ch\u00e2tel-St-Denis", "addr:postcode": "1618", "addr:country": "CH", "name": "Coop Vitality", "phone": "+41588788850", "website": "https://www.coopvitality.ch/fr/coop-vitality-chatel-saint-denis", "contact:email": "pharmacie.chatel-st-denis@coop-vitality.ch", "image": "https://www.coopvitality.ch/media/magestore/storepickup/images/store/gallery/5/7/5764_0001_aussen.jpg", "brand": "Coop Vitality", "brand:wikidata": "Q111725297", "nsi_id": "coopvitality-7092c5"}, "geometry": {"type": "Point", "coordinates": [6.898192, 46.522789]}},
{"type": "Feature", "id": "pxBv7TxgYrmhCIeqesJEXOklrFM=", "properties": {"ref": "7601001408944", "branch": "Langenthal Tell", "@spider": "coop_vitality_ch", "amenity": "pharmacy", "healthcare": "pharmacy", "addr:housenumber": "3", "addr:street": "St. Urbanstrasse", "addr:city": "Langenthal", "addr:postcode": "4900", "addr:country": "CH", "name": "Coop Vitality", "phone": "+41588788870", "website": "https://www.coopvitality.ch/de/coop-vitality-langenthal-tell", "contact:email": "apotheke.langenthal-tell@coop-vitality.ch", "image": "https://www.coopvitality.ch/media/magestore/storepickup/images/store/gallery/i/m/img_3137.jpg", "brand": "Coop Vitality", "brand:wikidata": "Q111725297", "nsi_id": "coopvitality-7092c5"}, "geometry": {"type": "Point", "coordinates": [7.789985, 47.212149]}},
{"type": "Feature", "id": "1Igbdl9cS8mWpZgFAkOUKqxYdkY=", "properties": {"ref": "7601001409392", "branch": "Bubendorf", "@spider": "coop_vitality_ch", "amenity": "pharmacy", "healthcare": "pharmacy", "addr:housenumber": "1", "addr:street": "Gewerbestrasse", "addr:city": "Bubendorf", "addr:postcode": "4416", "addr:country": "CH", "name": "Coop Vitality", "phone": "+41588788890", "website": "https://www.coopvitality.ch/de/coop-vitality-bubendorf", "contact:email": "apotheke.bubendorf@coop-vitality.ch", "image": "https://www.coopvitality.ch/media/magestore/storepickup/images/store/gallery/5/7/5789_0001_aussen_webseite.jpg", "brand": "Coop Vitality", "brand:wikidata": "Q111725297", "nsi_id": "coopvitality-7092c5"}, "geometry": {"type": "Point", "coordinates": [7.736755, 47.454117]}},
{"type": "Feature", "id": "hh-3R9qU6OsPWuaGK5wBuP3d1xo=", "properties": {"ref": "7601001409880", "branch": "Vich", "@spider": "coop_vitality_ch", "amenity": "pharmacy", "healthcare": "pharmacy", "addr:housenumber": "4", "addr:street": "Chemin de la Bichette", "addr:city": "Vich", "addr:postcode": "1267", "addr:country": "CH", "name": "Coop Vitality", "phone": "+41588788900", "website": "https://www.coopvitality.ch/fr/coop-vitality-vich", "contact:email": "pharmacie.vich@coop-vitality.ch", "image": "https://www.coopvitality.ch/media/magestore/storepickup/images/store/gallery/5/8/5858_0001_aussen.jpg", "brand": "Coop Vitality", "brand:wikidata": "Q111725297", "nsi_id": "coopvitality-7092c5"}, "geometry": {"type": "Point", "coordinates": [6.255008, 46.424525]}},
{"type": "Feature", "id": "eM79Idpa1tT6a0V6f8UyrmRUBG8=", "properties": {"ref": "7601001410411", "branch": "Chur Quader", "@spider": "coop_vitality_ch", "amenity": "pharmacy", "healthcare": "pharmacy", "addr:housenumber": "14", "addr:street": "Masanserstrasse", "addr:city": "Chur", "addr:postcode": "7000", "addr:country": "CH", "name": "Coop Vitality", "phone": "+41588788910", "website": "https://www.coopvitality.ch/de/coop-vitality-chur-quader", "contact:email": "apotheke.quader@coop-vitality.ch", "image": "https://www.coopvitality.ch/media/magestore/storepickup/images/store/gallery/5/9/5911_0001_eingang.jpg", "brand": "Coop Vitality", "brand:wikidata": "Q111725297", "located_in": "Quader Center", "nsi_id": "coopvitality-7092c5"}, "geometry": {"type": "Point", "coordinates": [9.534415, 46.852178]}},
{"type": "Feature", "id": "Ffa0QCxxHKK4mfTtg-wdSWq48nY=", "properties": {"ref": "7601001412422", "branch": "Bern Freudenberg", "@spider": "coop_vitality_ch", "amenity": "pharmacy", "healthcare": "pharmacy", "addr:housenumber": "15", "addr:street": "Giacomettistrasse", "addr:city": "Bern", "addr:postcode": "3006", "addr:country": "CH", "name": "Coop Vitality", "phone": "+41588788930", "website": "https://www.coopvitality.ch/de/coop-vitality-bern-freudenberg", "contact:email": "apotheke.freudenberg@coop-vitality.ch", "image": "https://www.coopvitality.ch/media/magestore/storepickup/images/store/gallery/2/0/20210916_081100_resized.jpg", "brand": "Coop Vitality", "brand:wikidata": "Q111725297", "nsi_id": "coopvitality-7092c5"}, "geometry": {"type": "Point", "coordinates": [7.47268077, 46.94559027]}},
{"type": "Feature", "id": "L4qwM-vgpRZ6dIBU-rq7ekKNnwA=", "properties": {"ref": "7601001411906", "branch": "Huttwil", "@spider": "coop_vitality_ch", "amenity": "pharmacy", "healthcare": "pharmacy", "addr:housenumber": "43", "addr:street": "Bahnhofstrasse", "addr:city": "Huttwil", "addr:postcode": "4950", "addr:country": "CH", "name": "Coop Vitality", "phone": "+41588788920", "website": "https://www.coopvitality.ch/de/coop-vitality-huttwil", "contact:email": "apotheke.huttwil@coop-vitality.ch", "image": "https://www.coopvitality.ch/media/magestore/storepickup/images/store/gallery/h/u/huttwil_standortbild_1.jpg", "brand": "Coop Vitality", "brand:wikidata": "Q111725297", "nsi_id": "coopvitality-7092c5"}, "geometry": {"type": "Point", "coordinates": [7.84237, 47.11422]}},
{"type": "Feature", "id": "uIYIt0EW-S2roWuQXOI4uTIGNHg=", "properties": {"ref": "7601002991780", "branch": "Z\u00fcrich Stauffacher", "@spider": "coop_vitality_ch", "amenity": "pharmacy", "healthcare": "pharmacy", "addr:housenumber": "15", "addr:street": "Badenerstrasse", "addr:city": "Z\u00fcrich", "addr:postcode": "8004", "addr:country": "CH", "name": "Coop Vitality", "phone": "+41588788940", "website": "https://www.coopvitality.ch/de/coop-vitality-zurich-stauffacher", "contact:email": "apotheke.stauffacher@coop-vitality.ch", "image": "https://www.coopvitality.ch/media/magestore/storepickup/images/store/gallery/c/v/cv_zuerich_stauffacher.jpg", "brand": "Coop Vitality", "brand:wikidata": "Q111725297", "nsi_id": "coopvitality-7092c5"}, "geometry": {"type": "Point", "coordinates": [8.53033, 47.37344]}}]}