{"type":"FeatureCollection","features":[{"type": "Feature", "id": "Z0ZGih1WU0GnHkqGihV7XHTu75c=", "properties": {"ref": "anaheim-hills", "@spider": "corner_bakery_cafe", "amenity": "cafe", "cuisine": "coffee_shop", "takeaway": "yes", "addr:full": "5747 E Santa Ana Canyon Rd", "addr:city": "Anaheim", "addr:state": "California", "addr:postcode": "92807", "addr:country": "US", "name": "Anaheim Hills", "phone": "(714) 685-6970", "website": "https://cornerbakerycafe.com/location/anaheim-hills", "opening_hours": "Mo-Su 06:00-20:00", "brand": "Corner Bakery Cafe", "brand:wikidata": "Q5171598", "nsi_id": "cornerbakery-243cad"}, "geometry": {"type": "Point", "coordinates": [-117.788506, 33.852279]}},
{"type": "Feature", "id": "OK1H-MMOp-ulKSEKeKOXdm2BriY=", "properties": {"ref": "thousand-oaks", "@spider": "corner_bakery_cafe", "amenity": "cafe", "cuisine": "coffee_shop", "takeaway": "yes", "addr:full": "111 S Westlake Blvd", "addr:city": "Westlake Village", "addr:state": "California", "addr:postcode": "91362", "addr:country": "US", "name": "Thousand Oaks", "phone": "(805) 496-6993", "website": "https://cornerbakerycafe.com/location/thousand-oaks", "opening_hours": "Mo-Su 07:30-19:30", "brand": "Corner Bakery Cafe", "brand:wikidata": "Q5171598", "nsi_id": "cornerbakery-243cad"}, "geometry": {"type": "Point", "coordinates": [-118.824815, 34.159885]}},
{"type": "Feature", "id": "nG4dJZ_B40ODInVi3iHh571TkRE=", "properties": {"ref": "packwood-creek", "@spider": "corner_bakery_cafe", "amenity": "cafe", "cuisine": "coffee_shop", "takeaway": "yes", "addr:full": "4021 S Mooney Blvd", "addr:city": "Visalia", "addr:state": "California", "addr:postcode": "93277", "addr:country": "US", "name": "Packwood Creek", "phone": "(559) 740-0203", "website": "https://cornerbakerycafe.com/location/packwood-creek", "opening_hours": "Mo-Su 07:00-20:00", "brand": "Corner Bakery Cafe", "brand:wikidata": "Q5171598", "nsi_id": "cornerbakery-243cad"}, "geometry": {"type": "Point", "coordinates": [-119.31488, 36.294222]}},
{"type": "Feature", "id": "9oZBEBFgqn8tSZHZQrCk7I8amZM=", "properties": {"ref": "valencia", "@spider": "corner_bakery_cafe", "amenity": "cafe", "cuisine": "coffee_shop", "takeaway": "yes", "addr:full": "24290 Valencia Blvd", "addr:city": "Valencia", "addr:state": "California", "addr:postcode": "91355", "addr:country": "US", "name": "Valencia", "phone": "(661) 259-2813", "website": "https://cornerbakerycafe.com/location/valencia", "opening_hours": "Mo-Su 06:00-20:00", "brand": "Corner Bakery Cafe", "brand:wikidata": "Q5171598", "nsi_id": "cornerbakery-243cad"}, "geometry": {"type": "Point", "coordinates": [-118.559271, 34.412867]}},
{"type": "Feature", "id": "SOiDW8IpalcTlNEsZMQKPfOVuYU=", "properties": {"ref": "north-temecula", "@spider": "corner_bakery_cafe", "amenity": "cafe", "cuisine": "coffee_shop", "takeaway": "yes", "addr:full": "26440 Ynez Road", "addr:city": "Temecula", "addr:state": "California", "addr:postcode": "92591", "addr:country": "US", "name": "North Temecula", "phone": "(951) 719-3289", "website": "https://cornerbakerycafe.com/location/north-temecula", "opening_hours": "Mo-Su 07:00-21:00", "brand": "Corner Bakery Cafe", "brand:wikidata": "Q5171598", "nsi_id": "cornerbakery-243cad"}, "geometry": {"type": "Point", "coordinates": [-117.158724, 33.524038]}},
{"type": "Feature", "id": "k1LcHRHdnhtwhR_OozMKG5tTpRo=", "properties": {"ref": "simi-valley", "@spider": "corner_bakery_cafe", "amenity": "cafe", "cuisine": "coffee_shop", "takeaway": "yes", "addr:full": "1555 Simi Town Center Way", "addr:city": "Simi Valley", "addr:state": "California", "addr:postcode": "93065", "addr:country": "US", "name": "Simi Valley", "phone": "(805) 306-1892", "website": "https://cornerbakerycafe.com/location/simi-valley", "opening_hours": "Mo 07:30-19:30; Tu-Su 07:00-19:30", "brand": "Corner Bakery Cafe", "brand:wikidata": "Q5171598", "nsi_id": "cornerbakery-243cad"}, "geometry": {"type": "Point", "coordinates": [-118.771808, 34.284321]}},
{"type": "Feature", "id": "5WNbq4VodV2kGu_49kS7hW_1Jiw=", "properties": {"ref": "south-coast-village", "@spider": "corner_bakery_cafe", "amenity": "cafe", "cuisine": "coffee_shop", "takeaway": "yes", "addr:full": "1621 W Sunflower Ave", "addr:city": "Santa Ana", "addr:state": "California", "addr:postcode": "92704", "addr:country": "US", "name": "South Coast Village", "phone": "(714) 546-1555", "website": "https://cornerbakerycafe.com/location/south-coast-village", "opening_hours": "Mo-Su 07:30-19:30", "brand": "Corner Bakery Cafe", "brand:wikidata": "Q5171598", "nsi_id": "cornerbakery-243cad"}, "geometry": {"type": "Point", "coordinates": [-117.89038, 33.695553]}},
{"type": "Feature", "id": "en2nZ2NFiCUDfAIUIpAB0FlmLXY=", "properties": {"ref": "city-place", "@spider": "corner_bakery_cafe", "amenity": "cafe", "cuisine": "coffee_shop", "takeaway": "yes", "addr:full": "2789 N Main St", "addr:city": "Santa Ana", "addr:state": "California", "addr:postcode": "92705", "addr:country": "US", "name": "City Place", "phone": "(714) 547-8834", "website": "https://cornerbakerycafe.com/location/city-place", "opening_hours": "Mo-Su 07:30-19:30", "brand": "Corner Bakery Cafe", "brand:wikidata": "Q5171598", "nsi_id": "cornerbakery-243cad"}, "geometry": {"type": "Point", "coordinates": [-117.867055, 33.774058]}},
{"type": "Feature", "id": "qjHIVpAkim-QX2dqlHfmS758CtQ=", "properties": {"ref": "west-san-jose", "@spider": "corner_bakery_cafe", "amenity": "cafe", "cuisine": "coffee_shop", "takeaway": "yes", "addr:full": "1690 Saratoga Ave", "addr:city": "San Jose", "addr:state": "California", "addr:postcode": "95129", "addr:country": "US", "name": "West San Jose", "phone": "(669) 237-4102", "website": "https://cornerbakerycafe.com/location/west-san-jose", "opening_hours": "Mo-Su 07:00-17:00", "brand": "Corner Bakery Cafe", "brand:wikidata": "Q5171598", "nsi_id": "cornerbakery-243cad"}, "geometry": {"type": "Point", "coordinates": [-121.99152, 37.291812]}},
{"type": "Feature", "id": "HKRyAjy5aLrHFzIyuXjIvzpPq9A=", "properties": {"ref": "market-street", "@spider": "corner_bakery_cafe", "amenity": "cafe", "cuisine": "coffee_shop", "takeaway": "yes", "addr:full": "665 Market St", "addr:city": "San Francisco", "addr:state": "California", "addr:postcode": "94105", "addr:country": "US", "name": "Market Street", "phone": "(415) 935-4040", "website": "https://cornerbakerycafe.com/location/market-street", "brand": "Corner Bakery Cafe", "brand:wikidata": "Q5171598", "nsi_id": "cornerbakery-243cad"}, "geometry": {"type": "Point", "coordinates": [-122.4026, 37.788052]}},
{"type": "Feature", "id": "ljlQUCtJpWzGVTBT0Qrqo4wQ8xs=", "properties": {"ref": "first-broadway", "@spider": "corner_bakery_cafe", "amenity": "cafe", "cuisine": "coffee_shop", "takeaway": "yes", "addr:full": "101 Broadway", "addr:city": "San Diego", "addr:state": "California", "addr:postcode": "92101", "addr:country": "US", "name": "First & Broadway", "phone": "(619) 233-1642", "website": "https://cornerbakerycafe.com/location/first-broadway", "opening_hours": "Mo-Su 07:00-16:00", "brand": "Corner Bakery Cafe", "brand:wikidata": "Q5171598", "nsi_id": "cornerbakery-243cad"}, "geometry": {"type": "Point", "coordinates": [-117.163674, 32.715535]}},
{"type": "Feature", "id": "6PaY8whTbyAnP3dod7ECHOm0ago=", "properties": {"ref": "utc", "@spider": "corner_bakery_cafe", "amenity": "cafe", "cuisine": "coffee_shop", "takeaway": "yes", "addr:full": "4575 La Jolla Village Dr", "addr:city": "San Diego", "addr:state": "California", "addr:postcode": "92122", "addr:country": "US", "name": "UTC", "phone": "(858) 453-1333", "website": "https://cornerbakerycafe.com/location/utc", "opening_hours": "Mo-Sa 07:00-20:00; Su 08:00-19:00", "brand": "Corner Bakery Cafe", "brand:wikidata": "Q5171598", "nsi_id": "cornerbakery-243cad"}, "geometry": {"type": "Point", "coordinates": [-117.209442, 32.872665]}},
{"type": "Feature", "id": "GnKbVM5AJUKVgEfT9roTd2wGXCs=", "properties": {"ref": "mission-valley", "@spider": "corner_bakery_cafe", "amenity": "cafe", "cuisine": "coffee_shop", "takeaway": "yes", "addr:full": "1025 Camino de la Reina", "addr:city": "San Diego", "addr:state": "California", "addr:postcode": "92108", "addr:country": "US", "name": "Mission Valley", "phone": "(619) 692-0423", "website": "https://cornerbakerycafe.com/location/mission-valley", "opening_hours": "Mo-Su 07:30-19:30", "brand": "Corner Bakery Cafe", "brand:wikidata": "Q5171598", "nsi_id": "cornerbakery-243cad"}, "geometry": {"type": "Point", "coordinates": [-117.152982, 32.768083]}},
{"type": "Feature", "id": "g25oAutJngJpBB-9fW6INJwRg7A=", "properties": {"ref": "redondo-beach", "@spider": "corner_bakery_cafe", "amenity": "cafe", "cuisine": "coffee_shop", "takeaway": "yes", "addr:full": "1868 S Pacific Coast Hwy", "addr:city": "Redondo Beach", "addr:state": "California", "addr:postcode": "90277", "addr:country": "US", "name": "Redondo Beach", "phone": "(310) 540-9379", "website": "https://cornerbakerycafe.com/location/redondo-beach", "opening_hours": "Mo-Su 07:00-20:00", "brand": "Corner Bakery Cafe", "brand:wikidata": "Q5171598", "nsi_id": "cornerbakery-243cad"}, "geometry": {"type": "Point", "coordinates": [-118.378429, 33.816317]}},
{"type": "Feature", "id": "zbePgVSFlBbr0Tx033SSwQSTCUg=", "properties": {"ref": "redlands", "@spider": "corner_bakery_cafe", "amenity": "cafe", "cuisine": "coffee_shop", "takeaway": "yes", "addr:full": "402-2D N Orange St", "addr:city": "Redlands", "addr:state": "California", "addr:postcode": "92374", "addr:country": "US", "name": "Redlands", "phone": "(909) 801-3962", "website": "https://cornerbakerycafe.com/location/redlands", "opening_hours": "Mo-Su 07:30-20:00", "brand": "Corner Bakery Cafe", "brand:wikidata": "Q5171598", "nsi_id": "cornerbakery-243cad"}, "geometry": {"type": "Point", "coordinates": [-117.182303, 34.059149]}},
{"type": "Feature", "id": "XWHuXoiPAjtE4nJhMH_Hx6_Owzs=", "properties": {"ref": "rancho-cucamonga", "@spider": "corner_bakery_cafe", "amenity": "cafe", "cuisine": "coffee_shop", "takeaway": "yes", "addr:full": "12375 S Mainstreet", "addr:city": "Rancho Cucamonga", "addr:state": "California", "addr:postcode": "91739", "addr:country": "US", "name": "Rancho Cucamonga", "phone": "(909) 803-2600", "website": "https://cornerbakerycafe.com/location/rancho-cucamonga", "opening_hours": "Mo-Sa 07:00-19:00; Su 07:30-19:00", "brand": "Corner Bakery Cafe", "brand:wikidata": "Q5171598", "nsi_id": "cornerbakery-243cad"}, "geometry": {"type": "Point", "coordinates": [-117.535544, 34.110696]}},
{"type": "Feature", "id": "aKnBmCRxUxVbILcNt1z_uIe7O3I=", "properties": {"ref": "wauwatosa", "@spider": "corner_bakery_cafe", "amenity": "cafe", "cuisine": "coffee_shop", "takeaway": "yes", "addr:full": "11500 W Burleigh St", "addr:city": "Wauwatosa", "addr:state": "Wisconsin", "addr:postcode": "53222", "addr:country": "US", "name": "Wauwatosa", "phone": "(414) 476-2233", "website": "https://cornerbakerycafe.com/location/wauwatosa", "opening_hours": "Mo-Su 07:00-21:00", "brand": "Corner Bakery Cafe", "brand:wikidata": "Q5171598", "nsi_id": "cornerbakery-243cad"}, "geometry": {"type": "Point", "coordinates": [-88.056404, 43.076131]}},
{"type": "Feature", "id": "PSPZ4XO3re36ynhWWd8Wb_YjbsQ=", "properties": {"ref": "shorewood", "@spider": "corner_bakery_cafe", "amenity": "cafe", "cuisine": "coffee_shop", "takeaway": "yes", "addr:full": "1305 E Capitol Dr", "addr:city": "Shorewood", "addr:state": "Wisconsin", "addr:postcode": "53211", "addr:country": "US", "name": "Shorewood", "phone": "(414) 210-2972", "website": "https://cornerbakerycafe.com/location/shorewood", "opening_hours": "Mo-Fr 06:00-22:00; Sa-Su 06:30-22:00", "brand": "Corner Bakery Cafe", "brand:wikidata": "Q5171598", "nsi_id": "cornerbakery-243cad"}, "geometry": {"type": "Point", "coordinates": [-87.894477, 43.089025]}},
{"type": "Feature", "id": "wIbxtiBdWwmWNRWccHhYZYXBjMk=", "properties": {"ref": "pleasant-prairie", "@spider": "corner_bakery_cafe", "amenity": "cafe", "cuisine": "coffee_shop", "takeaway": "yes", "addr:full": "9250 76th St", "addr:city": "Pleasant Prairie", "addr:state": "Wisconsin", "addr:postcode": "53158", "addr:country": "US", "name": "Pleasant Prairie", "phone": "(262) 997-6251", "website": "https://cornerbakerycafe.com/location/pleasant-prairie", "opening_hours": "Mo-Fr 06:30-21:00; Sa-Su 07:00-21:00", "brand": "Corner Bakery Cafe", "brand:wikidata": "Q5171598", "nsi_id": "cornerbakery-243cad"}, "geometry": {"type": "Point", "coordinates": [-87.918401, 42.565949]}},
{"type": "Feature", "id": "lcconL0dpwL-44Q16fduoXRoVPM=", "properties": {"ref": "southcenter-plaza", "@spider": "corner_bakery_cafe", "amenity": "cafe", "cuisine": "coffee_shop", "takeaway": "yes", "addr:full": "393A Strander Blvd", "addr:city": "Tukwila", "addr:state": "Washington", "addr:postcode": "98188", "addr:country": "US", "name": "Southcenter Plaza", "phone": "(206) 673-2955", "website": "https://cornerbakerycafe.com/location/southcenter-plaza", "opening_hours": "Mo-Su 07:00-20:00", "brand": "Corner Bakery Cafe", "brand:wikidata": "Q5171598", "nsi_id": "cornerbakery-243cad"}, "geometry": {"type": "Point", "coordinates": [-122.254669, 47.45564]}},
{"type": "Feature", "id": "W8tJ07bUM3voLuqvV95rV3IeoV8=", "properties": {"ref": "issaquah", "@spider": "corner_bakery_cafe", "amenity": "cafe", "cuisine": "coffee_shop", "takeaway": "yes", "addr:full": "720 NW Gilman Blvd", "addr:city": "Issaquah", "addr:state": "Washington", "addr:postcode": "98027", "addr:country": "US", "name": "Issaquah", "phone": "(425) 651-2770", "website": "https://cornerbakerycafe.com/location/issaquah", "brand": "Corner Bakery Cafe", "brand:wikidata": "Q5171598", "nsi_id": "cornerbakery-243cad"}, "geometry": {"type": "Point", "coordinates": [-122.048293, 47.544185]}},
{"type": "Feature", "id": "3-kF1NwZCStj73Cx_he3OST42Sg=", "properties": {"ref": "tysons", "@spider": "corner_bakery_cafe", "amenity": "cafe", "cuisine": "coffee_shop", "takeaway": "yes", "addr:full": "2001 International Dr", "addr:city": "McLean", "addr:state": "Virginia", "addr:postcode": "22102", "addr:country": "US", "name": "Tysons", "phone": "(703) 821-4224", "website": "https://cornerbakerycafe.com/location/tysons", "opening_hours": "Mo-Sa 09:30-17:30; Su 09:30-17:00", "brand": "Corner Bakery Cafe", "brand:wikidata": "Q5171598", "nsi_id": "cornerbakery-243cad"}, "geometry": {"type": "Point", "coordinates": [-77.225736, 38.9240634]}},
{"type": "Feature", "id": "nnIZpYVa7LKybQEcVlC-FCPehAQ=", "properties": {"ref": "innsbrook", "@spider": "corner_bakery_cafe", "amenity": "cafe", "cuisine": "coffee_shop", "takeaway": "yes", "addr:full": "11000 W. Broad Street", "addr:city": "Glen Allen", "addr:state": "Virginia", "addr:postcode": "23060", "addr:country": "US", "name": "Innsbrook", "phone": "(804) 447-3766", "website": "https://cornerbakerycafe.com/location/innsbrook", "opening_hours": "Mo-Sa 07:00-20:00; Su 08:00-19:00", "brand": "Corner Bakery Cafe", "brand:wikidata": "Q5171598", "nsi_id": "cornerbakery-243cad"}, "geometry": {"type": "Point", "coordinates": [-77.586908, 37.647797]}},
{"type": "Feature", "id": "VoxSai5UzBCPrI-rTrVXuzxSuLE=", "properties": {"ref": "fair-oaks", "@spider": "corner_bakery_cafe", "amenity": "cafe", "cuisine": "coffee_shop", "takeaway": "yes", "addr:full": "3903B Fair Ridge Dr", "addr:city": "Fairfax", "addr:state": "Virginia", "addr:postcode": "22033", "addr:country": "US", "name": "Fair Oaks", "phone": "(703) 934-8703", "website": "https://cornerbakerycafe.com/location/fair-oaks", "opening_hours": "Mo-Sa 07:30-20:00; Su 07:30-18:00", "brand": "Corner Bakery Cafe", "brand:wikidata": "Q5171598", "nsi_id": "cornerbakery-243cad"}, "geometry": {"type": "Point", "coordinates": [-77.372511, 38.872999]}},
{"type": "Feature", "id": "edc0kZFvLSPzVFV_rFAH2p9yAEE=", "properties": {"ref": "courthouse", "@spider": "corner_bakery_cafe", "amenity": "cafe", "cuisine": "coffee_shop", "takeaway": "yes", "addr:full": "2111 Wilson Blvd", "addr:city": "Arlington", "addr:state": "Virginia", "addr:postcode": "22201", "addr:country": "US", "name": "Courthouse", "phone": "(703) 236-2818", "website": "https://cornerbakerycafe.com/location/courthouse", "opening_hours": "Mo-Fr 07:00-15:00; Sa-Su 07:30-15:00", "brand": "Corner Bakery Cafe", "brand:wikidata": "Q5171598", "nsi_id": "cornerbakery-243cad"}, "geometry": {"type": "Point", "coordinates": [-77.085527, 38.89163]}},
{"type": "Feature", "id": "B7NQCyiRR95U-3RtNRILrqm1xTE=", "properties": {"ref": "red-butte", "@spider": "corner_bakery_cafe", "amenity": "cafe", "cuisine": "coffee_shop", "takeaway": "yes", "addr:full": "610 Foothill Blvd", "addr:city": "Salt Lake City", "addr:state": "Utah", "addr:postcode": "84113", "addr:country": "US", "name": "Red Butte", "phone": "(801) 583-2000", "website": "https://cornerbakerycafe.com/location/red-butte", "opening_hours": "Mo-Sa 08:00-16:00", "brand": "Corner Bakery Cafe", "brand:wikidata": "Q5171598", "nsi_id": "cornerbakery-243cad"}, "geometry": {"type": "Point", "coordinates": [-111.83383, 40.754811]}},
{"type": "Feature", "id": "tAJeIKiMsGcSMgKWUopbR2eS4xE=", "properties": {"ref": "orem", "@spider": "corner_bakery_cafe", "amenity": "cafe", "cuisine": "coffee_shop", "takeaway": "yes", "addr:full": "115 W Center St", "addr:city": "Orem", "addr:state": "Utah", "addr:postcode": "84057", "addr:country": "US", "name": "Orem", "phone": "(801) 221-3740", "website": "https://cornerbakerycafe.com/location/orem", "opening_hours": "Mo-Sa 08:00-20:00", "brand": "Corner Bakery Cafe", "brand:wikidata": "Q5171598", "nsi_id": "cornerbakery-243cad"}, "geometry": {"type": "Point", "coordinates": [-111.698257, 40.296912]}},
{"type": "Feature", "id": "V4sl4Jwv6q4baDNo1XvBWGzkMXI=", "properties": {"ref": "ogden-harrison", "@spider": "corner_bakery_cafe", "amenity": "cafe", "cuisine": "coffee_shop", "takeaway": "yes", "addr:full": "4315 Harrison Blvd", "addr:city": "Ogden", "addr:state": "Utah", "addr:postcode": "84403", "addr:country": "US", "name": "Ogden Harrison", "phone": "(801) 475-5506", "website": "https://cornerbakerycafe.com/location/ogden-harrison", "opening_hours": "Mo 08:00-15:00; Tu-Fr 08:00-20:00; Sa 08:00-15:00", "brand": "Corner Bakery Cafe", "brand:wikidata": "Q5171598", "nsi_id": "cornerbakery-243cad"}, "geometry": {"type": "Point", "coordinates": [-111.949425, 41.184325]}},
{"type": "Feature", "id": "ltqZZN-wN-Uhrzq6IBB2507WrI8=", "properties": {"ref": "fashion-place", "@spider": "corner_bakery_cafe", "amenity": "cafe", "cuisine": "coffee_shop", "takeaway": "yes", "addr:full": "6227 South State St", "addr:city": "Murray", "addr:state": "Utah", "addr:postcode": "84107", "addr:country": "US", "name": "Fashion Place", "phone": "(801) 262-5555", "website": "https://cornerbakerycafe.com/location/fashion-place", "opening_hours": "Mo-Sa 08:00-20:00; Su 10:00-18:00", "brand": "Corner Bakery Cafe", "brand:wikidata": "Q5171598", "nsi_id": "cornerbakery-243cad"}, "geometry": {"type": "Point", "coordinates": [-111.886127, 40.634921]}},
{"type": "Feature", "id": "i8xUZXTDLTr3WtmHT24NZseNAUM=", "properties": {"ref": "bountiful", "@spider": "corner_bakery_cafe", "amenity": "cafe", "cuisine": "coffee_shop", "takeaway": "yes", "addr:full": "175 West 500 South", "addr:city": "Bountiful", "addr:state": "Utah", "addr:postcode": "84010", "addr:country": "US", "name": "Bountiful", "phone": "(801) 298-9000", "website": "https://cornerbakerycafe.com/location/bountiful", "brand": "Corner Bakery Cafe", "brand:wikidata": "Q5171598", "nsi_id": "cornerbakery-243cad"}, "geometry": {"type": "Point", "coordinates": [-111.884564, 40.883953]}},
{"type": "Feature", "id": "hpSHugETVfcg2desO4nPV-O0i74=", "properties": {"ref": "tyler", "@spider": "corner_bakery_cafe", "amenity": "cafe", "cuisine": "coffee_shop", "takeaway": "yes", "addr:full": "3306 Troup Hwy", "addr:city": "Tyler", "addr:state": "Texas", "addr:postcode": "75701", "addr:country": "US", "name": "Tyler", "phone": "(903) 592-0000", "website": "https://cornerbakerycafe.com/location/tyler", "opening_hours": "Mo-Th 07:00-19:30; Fr 07:00-19:00; Sa 07:00-19:30; Su 08:00-19:30", "brand": "Corner Bakery Cafe", "brand:wikidata": "Q5171598", "nsi_id": "cornerbakery-243cad"}, "geometry": {"type": "Point", "coordinates": [-95.27466, 32.313268]}},
{"type": "Feature", "id": "NrETKtmOQwScqDyYFVCZhNuCSUM=", "properties": {"ref": "southlake", "@spider": "corner_bakery_cafe", "amenity": "cafe", "cuisine": "coffee_shop", "takeaway": "yes", "addr:full": "100 State St", "addr:city": "Southlake", "addr:state": "Texas", "addr:postcode": "76092", "addr:country": "US", "name": "Southlake", "phone": "(817) 329-1127", "website": "https://cornerbakerycafe.com/location/southlake", "opening_hours": "Mo-Sa 07:00-21:00; Su 07:00-20:00", "brand": "Corner Bakery Cafe", "brand:wikidata": "Q5171598", "nsi_id": "cornerbakery-243cad"}, "geometry": {"type": "Point", "coordinates": [-97.133866, 32.9411524]}},
{"type": "Feature", "id": "3RE6cnpQpeW7x-z1JcUeSbfbEdw=", "properties": {"ref": "the-quarry", "@spider": "corner_bakery_cafe", "amenity": "cafe", "cuisine": "coffee_shop", "takeaway": "yes", "addr:full": "255 E Basse Rd", "addr:city": "San Antonio", "addr:state": "Texas", "addr:postcode": "78209", "addr:country": "US", "name": "The Quarry", "phone": "(210) 441-4553", "website": "https://cornerbakerycafe.com/location/the-quarry", "opening_hours": "Mo-We 07:00-20:00; Th 07:00-15:00; Fr-Su 07:00-20:00", "brand": "Corner Bakery Cafe", "brand:wikidata": "Q5171598", "nsi_id": "cornerbakery-243cad"}, "geometry": {"type": "Point", "coordinates": [-98.481114, 29.492137]}},
{"type": "Feature", "id": "PS_DFsRyQgQGrTO6sMqNgWyQN4o=", "properties": {"ref": "stone-oak", "@spider": "corner_bakery_cafe", "amenity": "cafe", "cuisine": "coffee_shop", "takeaway": "yes", "addr:full": "18720 Stone Oak Parkway", "addr:city": "San Antonio", "addr:state": "Texas", "addr:postcode": "78258", "addr:country": "US", "name": "Stone Oak", "phone": "(210) 441-4547", "website": "https://cornerbakerycafe.com/location/stone-oak", "opening_hours": "Mo-Su 07:00-20:00", "brand": "Corner Bakery Cafe", "brand:wikidata": "Q5171598", "nsi_id": "cornerbakery-243cad"}, "geometry": {"type": "Point", "coordinates": [-98.491069, 29.609768]}},
{"type": "Feature", "id": "VMXdD5mLqjEIYtnG2VNaGj-OCQY=", "properties": {"ref": "round-rock", "@spider": "corner_bakery_cafe", "amenity": "cafe", "cuisine": "coffee_shop", "takeaway": "yes", "addr:full": "110 N I35", "addr:city": "Round Rock", "addr:state": "Texas", "addr:postcode": "78681", "addr:country": "US", "name": "Round Rock", "phone": "(512) 582-8938", "website": "https://cornerbakerycafe.com/location/round-rock", "opening_hours": "Mo-Su 07:00-20:00", "brand": "Corner Bakery Cafe", "brand:wikidata": "Q5171598", "nsi_id": "cornerbakery-243cad"}, "geometry": {"type": "Point", "coordinates": [-97.688176, 30.509021]}},
{"type": "Feature", "id": "qJ3sVu5v5gZgnd1HJuWLerfTTHY=", "properties": {"ref": "preston-544", "@spider": "corner_bakery_cafe", "amenity": "cafe", "cuisine": "coffee_shop", "takeaway": "yes", "addr:full": "2401 Preston Rd", "addr:city": "Plano", "addr:state": "Texas", "addr:postcode": "75093", "addr:country": "US", "name": "Preston 544", "phone": "(972) 398-1955", "website": "https://cornerbakerycafe.com/location/preston-544", "opening_hours": "Mo-Su 07:00-20:00", "brand": "Corner Bakery Cafe", "brand:wikidata": "Q5171598", "nsi_id": "cornerbakery-243cad"}, "geometry": {"type": "Point", "coordinates": [-96.7954, 33.030867]}},
{"type": "Feature", "id": "TCnPylNOhTK4uRmqD10kZSohGM0=", "properties": {"ref": "palms-crossing", "@spider": "corner_bakery_cafe", "amenity": "cafe", "cuisine": "coffee_shop", "takeaway": "yes", "addr:full": "3400 W. Expressway 83", "addr:city": "McAllen", "addr:state": "Texas", "addr:postcode": "78501", "addr:country": "US", "name": "Palms Crossing", "phone": "(956) 800-6279", "website": "https://cornerbakerycafe.com/location/palms-crossing", "opening_hours": "Mo 07:30-20:00; Tu-Fr 07:30-21:00; Sa 07:00-21:00; Su 07:00-20:00", "brand": "Corner Bakery Cafe", "brand:wikidata": "Q5171598", "nsi_id": "cornerbakery-243cad"}, "geometry": {"type": "Point", "coordinates": [-98.260453, 26.195997]}},
{"type": "Feature", "id": "H5XoTn4SMxRoXwrMevFBa1XpH1M=", "properties": {"ref": "north-mcallen", "@spider": "corner_bakery_cafe", "amenity": "cafe", "cuisine": "coffee_shop", "takeaway": "yes", "addr:full": "4021 N 10th St", "addr:city": "McAllen", "addr:state": "Texas", "addr:postcode": "78504", "addr:country": "US", "name": "North McAllen", "phone": "(956) 278-8270", "website": "https://cornerbakerycafe.com/location/north-mcallen", "opening_hours": "Mo-Fr 06:30-21:00; Sa-Su 07:00-21:00", "brand": "Corner Bakery Cafe", "brand:wikidata": "Q5171598", "nsi_id": "cornerbakery-243cad"}, "geometry": {"type": "Point", "coordinates": [-98.224462, 26.240738]}},
{"type": "Feature", "id": "ipY5YDL1Z97rytDT_8oO_2TJNsI=", "properties": {"ref": "las-colinas", "@spider": "corner_bakery_cafe", "amenity": "cafe", "cuisine": "coffee_shop", "takeaway": "yes", "addr:full": "118 E John Carpenter Freeway", "addr:city": "Irving", "addr:state": "Texas", "addr:postcode": "75062", "addr:country": "US", "name": "Las Colinas", "phone": "(972) 717-2053", "website": "https://cornerbakerycafe.com/location/las-colinas", "opening_hours": "Mo-Su 07:00-19:30", "brand": "Corner Bakery Cafe", "brand:wikidata": "Q5171598", "nsi_id": "cornerbakery-243cad"}, "geometry": {"type": "Point", "coordinates": [-96.943259, 32.866258]}},
{"type": "Feature", "id": "Iu02_HmWUfhxM03H4RDSONHw3Ws=", "properties": {"ref": "macarthur-park", "@spider": "corner_bakery_cafe", "amenity": "cafe", "cuisine": "coffee_shop", "takeaway": "yes", "addr:full": "7403 N MacArthur Blvd", "addr:city": "Irving", "addr:state": "Texas", "addr:postcode": "75063", "addr:country": "US", "name": "MacArthur Park", "phone": "(214) 574-5135", "website": "https://cornerbakerycafe.com/location/macarthur-park", "opening_hours": "Mo-Su 07:00-20:00", "brand": "Corner Bakery Cafe", "brand:wikidata": "Q5171598", "nsi_id": "cornerbakery-243cad"}, "geometry": {"type": "Point", "coordinates": [-96.959443, 32.907506]}},
{"type": "Feature", "id": "g-t37sS20ICCqTR0x7sLHcW8eM0=", "properties": {"ref": "hurst", "@spider": "corner_bakery_cafe", "amenity": "cafe", "cuisine": "coffee_shop", "takeaway": "yes", "addr:full": "1410 Precinct Line Rd", "addr:city": "Hurst", "addr:state": "Texas", "addr:postcode": "76053", "addr:country": "US", "name": "Hurst", "phone": "(817) 374-4825", "website": "https://cornerbakerycafe.com/location/hurst", "opening_hours": "Mo-Su 07:00-20:00", "brand": "Corner Bakery Cafe", "brand:wikidata": "Q5171598", "nsi_id": "cornerbakery-243cad"}, "geometry": {"type": "Point", "coordinates": [-97.185815, 32.836787]}},
{"type": "Feature", "id": "z7huB10lVcL3_odS0n1WBF_kuwQ=", "properties": {"ref": "greenhouse", "@spider": "corner_bakery_cafe", "amenity": "cafe", "cuisine": "coffee_shop", "takeaway": "yes", "addr:full": "19355 Katy Fwy", "addr:city": "Houston", "addr:state": "Texas", "addr:postcode": "77094", "addr:country": "US", "name": "Greenhouse", "phone": "(832) 772-9874", "website": "https://cornerbakerycafe.com/location/greenhouse", "opening_hours": "Mo 06:30-19:00; Tu-Fr 06:30-21:00; Sa-Su 07:00-20:00", "brand": "Corner Bakery Cafe", "brand:wikidata": "Q5171598", "nsi_id": "cornerbakery-243cad"}, "geometry": {"type": "Point", "coordinates": [-95.706846, 29.783582]}},
{"type": "Feature", "id": "mirajxkI6oyDd3esMeal9lsXaNM=", "properties": {"ref": "memorial", "@spider": "corner_bakery_cafe", "amenity": "cafe", "cuisine": "coffee_shop", "takeaway": "yes", "addr:full": "9311 Katy Freeway", "addr:city": "Houston", "addr:state": "Texas", "addr:postcode": "77024", "addr:country": "US", "name": "Memorial", "phone": "(713) 973-2037", "website": "https://cornerbakerycafe.com/location/memorial", "opening_hours": "Mo 06:30-19:00; Tu-Fr 06:30-21:00; Sa-Su 07:00-20:00", "brand": "Corner Bakery Cafe", "brand:wikidata": "Q5171598", "nsi_id": "cornerbakery-243cad"}, "geometry": {"type": "Point", "coordinates": [-95.521646, 29.783255]}},
{"type": "Feature", "id": "yG0wjXE-jX7JIfawmIW7OvYLoU4=", "properties": {"ref": "washington-heights", "@spider": "corner_bakery_cafe", "amenity": "cafe", "cuisine": "coffee_shop", "takeaway": "yes", "addr:full": "107 Yale St", "addr:city": "Houston", "addr:state": "Texas", "addr:postcode": "77007", "addr:country": "US", "name": "Washington Heights", "phone": "(713) 880-9400", "website": "https://cornerbakerycafe.com/location/washington-heights", "opening_hours": "Mo 06:30-19:00; Tu-Sa 06:30-21:00; Su 07:00-20:00", "brand": "Corner Bakery Cafe", "brand:wikidata": "Q5171598", "nsi_id": "cornerbakery-243cad"}, "geometry": {"type": "Point", "coordinates": [-95.398822, 29.772875]}},
{"type": "Feature", "id": "AbnAqMW8aOuf3xzDQaSam4qglhg=", "properties": {"ref": "west-university", "@spider": "corner_bakery_cafe", "amenity": "cafe", "cuisine": "coffee_shop", "takeaway": "yes", "addr:full": "2615 Southwest Freeway", "addr:city": "Houston", "addr:state": "Texas", "addr:postcode": "77098", "addr:country": "US", "name": "West University", "phone": "(713) 520-8211", "website": "https://cornerbakerycafe.com/location/west-university", "opening_hours": "Mo 06:30-19:00; Tu-Fr 06:30-21:00; Sa-Su 07:00-20:00", "brand": "Corner Bakery Cafe", "brand:wikidata": "Q5171598", "nsi_id": "cornerbakery-243cad"}, "geometry": {"type": "Point", "coordinates": [-95.419867, 29.72976]}},
{"type": "Feature", "id": "GILwiTB8J76AcZYjCEQPBcQxonk=", "properties": {"ref": "1000-main", "@spider": "corner_bakery_cafe", "amenity": "cafe", "cuisine": "coffee_shop", "takeaway": "yes", "addr:full": "1000 Main St", "addr:city": "Houston", "addr:state": "Texas", "addr:postcode": "77002", "addr:country": "US", "name": "1000 Main", "phone": "(713) 651-0673", "website": "https://cornerbakerycafe.com/location/1000-main", "opening_hours": "Mo-Fr 06:30-15:00", "brand": "Corner Bakery Cafe", "brand:wikidata": "Q5171598", "nsi_id": "cornerbakery-243cad"}, "geometry": {"type": "Point", "coordinates": [-95.365365, 29.75687]}},
{"type": "Feature", "id": "IFhDRejxUj9S_22skWByWrOArMk=", "properties": {"ref": "highland-village", "@spider": "corner_bakery_cafe", "amenity": "cafe", "cuisine": "coffee_shop", "takeaway": "yes", "addr:full": "3640 Justin Rd", "addr:city": "Highland Village", "addr:state": "Texas", "addr:postcode": "75077", "addr:country": "US", "name": "Highland Village", "phone": "(972) 317-0378", "website": "https://cornerbakerycafe.com/location/highland-village", "opening_hours": "Mo-Sa 07:00-21:00; Su 07:00-20:00", "brand": "Corner Bakery Cafe", "brand:wikidata": "Q5171598", "nsi_id": "cornerbakery-243cad"}, "geometry": {"type": "Point", "coordinates": [-97.085985, 33.072372]}},
{"type": "Feature", "id": "6bil4dVueddFoZqsfcwzhITDlaQ=", "properties": {"ref": "frisco", "@spider": "corner_bakery_cafe", "amenity": "cafe", "cuisine": "coffee_shop", "takeaway": "yes", "addr:full": "3301 Preston Rd", "addr:city": "Frisco", "addr:state": "Texas", "addr:postcode": "75034", "addr:country": "US", "name": "Frisco", "phone": "(972) 668-6590", "website": "https://cornerbakerycafe.com/location/frisco", "opening_hours": "Mo-Su 07:00-20:00", "brand": "Corner Bakery Cafe", "brand:wikidata": "Q5171598", "nsi_id": "cornerbakery-243cad"}, "geometry": {"type": "Point", "coordinates": [-96.806154, 33.106409]}},
{"type": "Feature", "id": "AfdhgphvR4Xsm5fjAt2Dy1Z8hFY=", "properties": {"ref": "blackstone", "@spider": "corner_bakery_cafe", "amenity": "cafe", "cuisine": "coffee_shop", "takeaway": "yes", "addr:full": "615 Main St", "addr:city": "Fort Worth", "addr:state": "Texas", "addr:postcode": "76102", "addr:country": "US", "name": "Blackstone", "phone": "(817) 870-4991", "website": "https://cornerbakerycafe.com/location/blackstone", "opening_hours": "Mo-Th 07:00-15:00; Fr-Sa 07:00-19:00; Su 07:00-15:00", "brand": "Corner Bakery Cafe", "brand:wikidata": "Q5171598", "nsi_id": "cornerbakery-243cad"}, "geometry": {"type": "Point", "coordinates": [-97.330232, 32.753756]}},
{"type": "Feature", "id": "AYSMjL6E4FReEONCzG38Lm9EMbM=", "properties": {"ref": "airway", "@spider": "corner_bakery_cafe", "amenity": "cafe", "cuisine": "coffee_shop", "takeaway": "yes", "addr:full": "1301 Airway Blvd", "addr:city": "El Paso", "addr:state": "Texas", "addr:postcode": "79925", "addr:country": "US", "name": "Airway", "phone": "(915) 772-5522", "website": "https://cornerbakerycafe.com/location/airway", "opening_hours": "Mo 06:30-20:00; Tu-Su 06:30-20:30", "brand": "Corner Bakery Cafe", "brand:wikidata": "Q5171598", "nsi_id": "cornerbakery-243cad"}, "geometry": {"type": "Point", "coordinates": [-106.395892, 31.784727]}},
{"type": "Feature", "id": "Jw84c15j5jMJlSpxt-iHQ1GvKeE=", "properties": {"ref": "yarbrough", "@spider": "corner_bakery_cafe", "amenity": "cafe", "cuisine": "coffee_shop", "takeaway": "yes", "addr:full": "1144 N Yarbrough Dr", "addr:city": "El Paso", "addr:state": "Texas", "addr:postcode": "79925", "addr:country": "US", "name": "Yarbrough", "phone": "(915) 633-1392", "website": "https://cornerbakerycafe.com/location/yarbrough", "opening_hours": "Mo 06:30-16:00; Tu-Su 06:30-20:30", "brand": "Corner Bakery Cafe", "brand:wikidata": "Q5171598", "nsi_id": "cornerbakery-243cad"}, "geometry": {"type": "Point", "coordinates": [-106.343801, 31.753791]}},
{"type": "Feature", "id": "R5MpA2-IJL-_5p5GfEFzzZvC-2M=", "properties": {"ref": "sunland-park", "@spider": "corner_bakery_cafe", "amenity": "cafe", "cuisine": "coffee_shop", "takeaway": "yes", "addr:full": "655 Sunland Park Dr", "addr:city": "El Paso", "addr:state": "Texas", "addr:postcode": "79912", "addr:country": "US", "name": "Sunland Park", "phone": "(915) 584-4600", "website": "https://cornerbakerycafe.com/location/sunland-park", "opening_hours": "Mo 06:30-20:00; Tu-Su 06:30-20:30", "brand": "Corner Bakery Cafe", "brand:wikidata": "Q5171598", "nsi_id": "cornerbakery-243cad"}, "geometry": {"type": "Point", "coordinates": [-106.541883, 31.819766]}},
{"type": "Feature", "id": "VmOHPfr3wvKo-gvg806mm5qv1lo=", "properties": {"ref": "george-dieter", "@spider": "corner_bakery_cafe", "amenity": "cafe", "cuisine": "coffee_shop", "takeaway": "yes", "addr:full": "1350 George Dieter", "addr:city": "El Paso", "addr:state": "Texas", "addr:postcode": "79936", "addr:country": "US", "name": "George Dieter", "phone": "(915) 855-1873", "website": "https://cornerbakerycafe.com/location/george-dieter", "opening_hours": "Mo-Su 06:30-20:30", "brand": "Corner Bakery Cafe", "brand:wikidata": "Q5171598", "nsi_id": "cornerbakery-243cad"}, "geometry": {"type": "Point", "coordinates": [-106.30246, 31.728251]}},
{"type": "Feature", "id": "Be38MZ_q2quOORk7rODff2wYsC8=", "properties": {"ref": "park-central", "@spider": "corner_bakery_cafe", "amenity": "cafe", "cuisine": "coffee_shop", "takeaway": "yes", "addr:full": "12700 Park Central Dr", "addr:city": "Dallas", "addr:state": "Texas", "addr:postcode": "75251", "addr:country": "US", "name": "Park Central", "phone": "(469) 640-6952", "website": "https://cornerbakerycafe.com/location/park-central", "opening_hours": "Mo 07:00-02:30; Tu-Th 07:00-14:30; Fr 07:00-02:30", "brand": "Corner Bakery Cafe", "brand:wikidata": "Q5171598", "nsi_id": "cornerbakery-243cad"}, "geometry": {"type": "Point", "coordinates": [-96.775938, 32.921588]}},
{"type": "Feature", "id": "KqoYWIAVUKAcseo7e7w39xCtLXc=", "properties": {"ref": "prestonwood", "@spider": "corner_bakery_cafe", "amenity": "cafe", "cuisine": "coffee_shop", "takeaway": "yes", "addr:full": "5225 Beltline Rd", "addr:city": "Dallas", "addr:state": "Texas", "addr:postcode": "75254", "addr:country": "US", "name": "Prestonwood", "phone": "(469) 547-0019", "website": "https://cornerbakerycafe.com/location/prestonwood", "opening_hours": "Mo-Su 07:00-15:00", "brand": "Corner Bakery Cafe", "brand:wikidata": "Q5171598", "nsi_id": "cornerbakery-243cad"}, "geometry": {"type": "Point", "coordinates": [-96.817713, 32.955075]}},
{"type": "Feature", "id": "2iYqkjv9awFE904mfI8Z00tw0Oo=", "properties": {"ref": "plaza-of-americas", "@spider": "corner_bakery_cafe", "amenity": "cafe", "cuisine": "coffee_shop", "takeaway": "yes", "addr:full": "600 N Pearl St", "addr:city": "Dallas", "addr:state": "Texas", "addr:postcode": "75201", "addr:country": "US", "name": "Plaza of Americas", "phone": "(214) 969-0507", "website": "https://cornerbakerycafe.com/location/plaza-of-americas", "opening_hours": "Mo-Fr 07:00-14:30", "brand": "Corner Bakery Cafe", "brand:wikidata": "Q5171598", "nsi_id": "cornerbakery-243cad"}, "geometry": {"type": "Point", "coordinates": [-96.79507, 32.786493]}},
{"type": "Feature", "id": "SfQ4624ODtr13ktcxlP3NdK2cyI=", "properties": {"ref": "coit-campbell", "@spider": "corner_bakery_cafe", "amenity": "cafe", "cuisine": "coffee_shop", "takeaway": "yes", "addr:full": "7615 Campbell Rd", "addr:city": "Dallas", "addr:state": "Texas", "addr:postcode": "75248", "addr:country": "US", "name": "Coit & Campbell", "phone": "(972) 407-9131", "website": "https://cornerbakerycafe.com/location/coit-campbell", "opening_hours": "Mo-Sa 07:00-15:00; Su 07:30-15:00", "brand": "Corner Bakery Cafe", "brand:wikidata": "Q5171598", "nsi_id": "cornerbakery-243cad"}, "geometry": {"type": "Point", "coordinates": [-96.768854, 32.979806]}},
{"type": "Feature", "id": "PsBEXeFiBOKNAkaDgi5L7H9suv4=", "properties": {"ref": "preston-forest", "@spider": "corner_bakery_cafe", "amenity": "cafe", "cuisine": "coffee_shop", "takeaway": "yes", "addr:full": "11700 Preston Rd", "addr:city": "Dallas", "addr:state": "Texas", "addr:postcode": "75230", "addr:country": "US", "name": "Preston & Forest", "phone": "(214) 891-1690", "website": "https://cornerbakerycafe.com/location/preston-forest", "opening_hours": "Mo-Su 07:00-20:00", "brand": "Corner Bakery Cafe", "brand:wikidata": "Q5171598", "nsi_id": "cornerbakery-243cad"}, "geometry": {"type": "Point", "coordinates": [-96.801948, 32.90907]}},
{"type": "Feature", "id": "A2U1hjmo8JRcIHAW99zCnoT-QC4=", "properties": {"ref": "northpark", "@spider": "corner_bakery_cafe", "amenity": "cafe", "cuisine": "coffee_shop", "takeaway": "yes", "addr:full": "8687 N Central Expy", "addr:city": "Dallas", "addr:state": "Texas", "addr:postcode": "75225", "addr:country": "US", "name": "Northpark", "phone": "(214) 361-1316", "website": "https://cornerbakerycafe.com/location/northpark", "opening_hours": "Mo-Sa 09:00-20:00; Su 10:00-18:00", "brand": "Corner Bakery Cafe", "brand:wikidata": "Q5171598", "nsi_id": "cornerbakery-243cad"}, "geometry": {"type": "Point", "coordinates": [-96.772688, 32.867143]}},
{"type": "Feature", "id": "e8H3MRBwNqBA2-WByFYEbWETEeI=", "properties": {"ref": "west-end", "@spider": "corner_bakery_cafe", "amenity": "cafe", "cuisine": "coffee_shop", "takeaway": "yes", "addr:full": "301 N Market", "addr:city": "Dallas", "addr:state": "Texas", "addr:postcode": "75202", "addr:country": "US", "name": "West End", "phone": "(214) 651-8650", "website": "https://cornerbakerycafe.com/location/west-end", "opening_hours": "Mo-Fr 07:00-15:00", "brand": "Corner Bakery Cafe", "brand:wikidata": "Q5171598", "nsi_id": "cornerbakery-243cad"}, "geometry": {"type": "Point", "coordinates": [-96.806701, 32.780837]}},
{"type": "Feature", "id": "2qy5-_jWxycVH1g7DD8H0lCC5ik=", "properties": {"ref": "galleria", "@spider": "corner_bakery_cafe", "amenity": "cafe", "cuisine": "coffee_shop", "takeaway": "yes", "addr:full": "13350 Dallas Pkwy", "addr:city": "Dallas", "addr:state": "Texas", "addr:postcode": "75240", "addr:country": "US", "name": "Galleria", "phone": "(972) 934-7001", "website": "https://cornerbakerycafe.com/location/galleria", "opening_hours": "Mo-Fr 08:00-20:00; Sa 09:00-20:00; Su 09:00-18:00", "brand": "Corner Bakery Cafe", "brand:wikidata": "Q5171598", "nsi_id": "cornerbakery-243cad"}, "geometry": {"type": "Point", "coordinates": [-96.8199973, 32.9296688]}},
{"type": "Feature", "id": "GSJGKdNIzq6lkGNILJGEAulwpwM=", "properties": {"ref": "la-palmera", "@spider": "corner_bakery_cafe", "amenity": "cafe", "cuisine": "coffee_shop", "takeaway": "yes", "addr:full": "4938 S Staples Street", "addr:city": "Corpus Christi", "addr:state": "Texas", "addr:postcode": "78411", "addr:country": "US", "name": "La Palmera", "phone": "(361) 500-6548", "website": "https://cornerbakerycafe.com/location/la-palmera", "opening_hours": "Mo 06:30-19:00; Tu-Fr 06:30-21:00; Sa 07:00-21:00; Su 07:00-20:00", "brand": "Corner Bakery Cafe", "brand:wikidata": "Q5171598", "nsi_id": "cornerbakery-243cad"}, "geometry": {"type": "Point", "coordinates": [-97.36922, 27.708668]}},
{"type": "Feature", "id": "-Jk3LufVsrkpntiaHhBEhwliPKg=", "properties": {"ref": "arboretum", "@spider": "corner_bakery_cafe", "amenity": "cafe", "cuisine": "coffee_shop", "takeaway": "yes", "addr:full": "9761 Great Hills Trail", "addr:city": "Austin", "addr:state": "Texas", "addr:postcode": "78759", "addr:country": "US", "name": "Arboretum", "phone": "(512) 777-4250", "website": "https://cornerbakerycafe.com/location/arboretum", "opening_hours": "Mo-Su 07:00-15:00", "brand": "Corner Bakery Cafe", "brand:wikidata": "Q5171598", "nsi_id": "cornerbakery-243cad"}, "geometry": {"type": "Point", "coordinates": [-97.750859, 30.393852]}},
{"type": "Feature", "id": "ofnwkFPNd7e6qpTdzqxVxKLWp_Q=", "properties": {"ref": "south-arlington", "@spider": "corner_bakery_cafe", "amenity": "cafe", "cuisine": "coffee_shop", "takeaway": "yes", "addr:full": "3810 S Cooper", "addr:city": "Arlington", "addr:state": "Texas", "addr:postcode": "76015", "addr:country": "US", "name": "South Arlington", "phone": "(817) 465-6690", "website": "https://cornerbakerycafe.com/location/south-arlington", "opening_hours": "Mo-Su 07:00-15:00", "brand": "Corner Bakery Cafe", "brand:wikidata": "Q5171598", "nsi_id": "cornerbakery-243cad"}, "geometry": {"type": "Point", "coordinates": [-97.134682, 32.68349]}},
{"type": "Feature", "id": "5wQUFa7g273QmdqIYhatZDw7Ey8=", "properties": {"ref": "nashville-sobro", "@spider": "corner_bakery_cafe", "amenity": "cafe", "cuisine": "coffee_shop", "takeaway": "yes", "addr:full": "308 4th Avenue South", "addr:city": "Nashville", "addr:state": "Tennessee", "addr:postcode": "37201", "addr:country": "US", "name": "Nashville SoBro", "phone": "(615) 248-2680", "website": "https://cornerbakerycafe.com/location/nashville-sobro", "opening_hours": "Mo-Sa 07:00-15:00", "brand": "Corner Bakery Cafe", "brand:wikidata": "Q5171598", "nsi_id": "cornerbakery-243cad"}, "geometry": {"type": "Point", "coordinates": [-86.774746, 36.15771]}},
{"type": "Feature", "id": "5FRzbVvhfDFr1uuUomMiSlpWUR8=", "properties": {"ref": "wayne", "@spider": "corner_bakery_cafe", "amenity": "cafe", "cuisine": "coffee_shop", "takeaway": "yes", "addr:full": "613 W Lancaster Ave", "addr:city": "Wayne", "addr:state": "Pennsylvania", "addr:postcode": "19087", "addr:country": "US", "name": "Wayne", "website": "https://cornerbakerycafe.com/location/wayne", "brand": "Corner Bakery Cafe", "brand:wikidata": "Q5171598", "nsi_id": "cornerbakery-243cad"}},
{"type": "Feature", "id": "bff7AN4MM8srhtuOqD155Nm_m4s=", "properties": {"ref": "38th-market", "@spider": "corner_bakery_cafe", "amenity": "cafe", "cuisine": "coffee_shop", "takeaway": "yes", "addr:full": "3737 Market St", "addr:city": "Philadelphia", "addr:state": "Pennsylvania", "addr:postcode": "19104", "addr:country": "US", "name": "38th & Market", "phone": "(215) 349-6290", "website": "https://cornerbakerycafe.com/location/38th-market", "opening_hours": "Mo-Fr 07:00-17:00; Sa-Su 08:00-14:00", "brand": "Corner Bakery Cafe", "brand:wikidata": "Q5171598", "nsi_id": "cornerbakery-243cad"}, "geometry": {"type": "Point", "coordinates": [-75.19698, 39.956847]}},
{"type": "Feature", "id": "W8vaOt0Qy4OtmiL2ZGA4dzabqGM=", "properties": {"ref": "17th-jfk", "@spider": "corner_bakery_cafe", "amenity": "cafe", "cuisine": "coffee_shop", "takeaway": "yes", "addr:full": "1701 Market St", "addr:city": "Philadelphia", "addr:state": "Pennsylvania", "addr:postcode": "19103", "addr:country": "US", "name": "17th & JFK", "phone": "(215) 569-2533", "website": "https://cornerbakerycafe.com/location/17th-jfk", "opening_hours": "Mo-Fr 07:00-15:00; Sa-Su 08:00-14:00", "brand": "Corner Bakery Cafe", "brand:wikidata": "Q5171598", "nsi_id": "cornerbakery-243cad"}, "geometry": {"type": "Point", "coordinates": [-75.168467, 39.95365]}},
{"type": "Feature", "id": "fCDbDChl71alMP4SUByck7k10kw=", "properties": {"ref": "king-of-prussia", "@spider": "corner_bakery_cafe", "amenity": "cafe", "cuisine": "coffee_shop", "takeaway": "yes", "addr:full": "160 N. Gulph Rd.", "addr:city": "King of Prussia", "addr:state": "Pennsylvania", "addr:postcode": "19406", "addr:country": "US", "name": "King of Prussia", "phone": "(610) 337-0385", "website": "https://cornerbakerycafe.com/location/king-of-prussia", "opening_hours": "Mo-Fr 06:30-15:00; Sa-Su 07:30-15:00", "brand": "Corner Bakery Cafe", "brand:wikidata": "Q5171598", "nsi_id": "cornerbakery-243cad"}, "geometry": {"type": "Point", "coordinates": [-75.395709, 40.087051]}},
{"type": "Feature", "id": "JVjlppxHEW-yFj6GDCgvLk8sNu8=", "properties": {"ref": "horsham", "@spider": "corner_bakery_cafe", "amenity": "cafe", "cuisine": "coffee_shop", "takeaway": "yes", "addr:full": "100 Welsh Road", "addr:city": "Horsham", "addr:state": "Pennsylvania", "addr:postcode": "19044", "addr:country": "US", "name": "Horsham", "phone": "(215) 659-5126", "website": "https://cornerbakerycafe.com/location/horsham", "opening_hours": "Mo-Fr 06:30-20:00; Sa 07:30-20:00; Su 07:30-18:00", "brand": "Corner Bakery Cafe", "brand:wikidata": "Q5171598", "nsi_id": "cornerbakery-243cad"}, "geometry": {"type": "Point", "coordinates": [-75.142903, 40.158386]}},
{"type": "Feature", "id": "QQvwegtDU7qPRj8HBC8aB-IlUJM=", "properties": {"ref": "bryn-mawr", "@spider": "corner_bakery_cafe", "amenity": "cafe", "cuisine": "coffee_shop", "takeaway": "yes", "addr:full": "761 W Lancaster Ave", "addr:city": "Bryn Mawr", "addr:state": "Pennsylvania", "addr:postcode": "19010", "addr:country": "US", "name": "Bryn Mawr", "website": "https://cornerbakerycafe.com/location/bryn-mawr", "brand": "Corner Bakery Cafe", "brand:wikidata": "Q5171598", "nsi_id": "cornerbakery-243cad"}},
{"type": "Feature", "id": "KLVzGpDIYRWh3HfXsUDMkzUnXhc=", "properties": {"ref": "bala-cynwyd", "@spider": "corner_bakery_cafe", "amenity": "cafe", "cuisine": "coffee_shop", "takeaway": "yes", "addr:full": "153 East City Ave", "addr:city": "Bala Cynwyd", "addr:state": "Pennsylvania", "addr:postcode": "19004", "addr:country": "US", "name": "Bala Cynwyd", "phone": "(610) 664-0402", "website": "https://cornerbakerycafe.com/location/bala-cynwyd", "opening_hours": "Mo-Fr 06:30-20:00; Sa-Su 07:30-20:00", "brand": "Corner Bakery Cafe", "brand:wikidata": "Q5171598", "nsi_id": "cornerbakery-243cad"}, "geometry": {"type": "Point", "coordinates": [-75.222082, 40.003868]}},
{"type": "Feature", "id": "n1KURVTJ175DIJGntACbMpI-t68=", "properties": {"ref": "tanasbourne", "@spider": "corner_bakery_cafe", "amenity": "cafe", "cuisine": "coffee_shop", "takeaway": "yes", "addr:full": "19325 NW Emma Way", "addr:city": "Hillsboro", "addr:state": "Oregon", "addr:postcode": "97124", "addr:country": "US", "name": "Tanasbourne", "phone": "(503) 536-2375", "website": "https://cornerbakerycafe.com/location/tanasbourne", "opening_hours": "Mo-Fr 07:30-20:00; Sa-Su 08:00-20:00", "brand": "Corner Bakery Cafe", "brand:wikidata": "Q5171598", "nsi_id": "cornerbakery-243cad"}, "geometry": {"type": "Point", "coordinates": [-122.877515, 45.535542]}},
{"type": "Feature", "id": "_y2TS4_YD2lTIUvkFi9_k346bUY=", "properties": {"ref": "quail-springs", "@spider": "corner_bakery_cafe", "amenity": "cafe", "cuisine": "coffee_shop", "takeaway": "yes", "addr:full": "13900 N Pennsylvania Ave", "addr:city": "Oklahoma City", "addr:state": "Oklahoma", "addr:postcode": "73134", "addr:country": "US", "name": "Quail Springs", "phone": "(405) 418-8686", "website": "https://cornerbakerycafe.com/location/quail-springs", "opening_hours": "Mo-Fr 09:00-20:00; Sa-Su 08:00-20:00", "brand": "Corner Bakery Cafe", "brand:wikidata": "Q5171598", "nsi_id": "cornerbakery-243cad"}, "geometry": {"type": "Point", "coordinates": [-97.549045, 35.612185]}},
{"type": "Feature", "id": "rKJhlq9ZV7QkkR9CZ9gRySBY9WU=", "properties": {"ref": "lohman", "@spider": "corner_bakery_cafe", "amenity": "cafe", "cuisine": "coffee_shop", "takeaway": "yes", "addr:full": "2305 E Lohman Ave", "addr:city": "Las Cruces", "addr:state": "New Mexico", "addr:postcode": "88001", "addr:country": "US", "name": "Lohman", "phone": "(575) 541-5767", "website": "https://cornerbakerycafe.com/location/lohman", "opening_hours": "Mo 06:30-16:00; Tu-Su 06:30-20:00", "brand": "Corner Bakery Cafe", "brand:wikidata": "Q5171598", "nsi_id": "cornerbakery-243cad"}, "geometry": {"type": "Point", "coordinates": [-106.752478, 32.313587]}},
{"type": "Feature", "id": "xkkVzF5NOL9LsP92Nk9XAhzZm9U=", "properties": {"ref": "princeton", "@spider": "corner_bakery_cafe", "amenity": "cafe", "cuisine": "coffee_shop", "takeaway": "yes", "addr:full": "3535 US Highway 1", "addr:city": "Princeton", "addr:state": "New Jersey", "addr:postcode": "08540", "addr:country": "US", "name": "Princeton", "phone": "(609) 951-0139", "website": "https://cornerbakerycafe.com/location/princeton", "opening_hours": "Mo-We 07:30-15:00; Th-Sa 07:30-20:00; Su 07:30-17:00", "brand": "Corner Bakery Cafe", "brand:wikidata": "Q5171598", "nsi_id": "cornerbakery-243cad"}, "geometry": {"type": "Point", "coordinates": [-74.659776, 40.315549]}},
{"type": "Feature", "id": "u_9c5xz_RhHx1ZVO8MWoVrawBPU=", "properties": {"ref": "stephanie", "@spider": "corner_bakery_cafe", "amenity": "cafe", "cuisine": "coffee_shop", "takeaway": "yes", "addr:full": "494 N Stephanie St", "addr:city": "Henderson", "addr:state": "Nevada", "addr:postcode": "89014", "addr:country": "US", "name": "Stephanie", "phone": "(702) 840-2336", "website": "https://cornerbakerycafe.com/location/stephanie", "opening_hours": "Mo-Su 07:00-20:00", "brand": "Corner Bakery Cafe", "brand:wikidata": "Q5171598", "nsi_id": "cornerbakery-243cad"}, "geometry": {"type": "Point", "coordinates": [-115.046094, 36.0597837]}},
{"type": "Feature", "id": "kqbTskRDl_0eJ1NstbqXhoSEq1A=", "properties": {"ref": "towson", "@spider": "corner_bakery_cafe", "amenity": "cafe", "cuisine": "coffee_shop", "takeaway": "yes", "addr:full": "823 Goucher Blvd", "addr:city": "Towson", "addr:state": "Maryland", "addr:postcode": "21286", "addr:country": "US", "name": "Towson", "phone": "(443) 279-7377", "website": "https://cornerbakerycafe.com/location/towson", "brand": "Corner Bakery Cafe", "brand:wikidata": "Q5171598", "nsi_id": "cornerbakery-243cad"}, "geometry": {"type": "Point", "coordinates": [-76.584304, 39.396607]}},
{"type": "Feature", "id": "v3E1A4XL1a67NOzSzv_l_SpPA_o=", "properties": {"ref": "gaithersburg", "@spider": "corner_bakery_cafe", "amenity": "cafe", "cuisine": "coffee_shop", "takeaway": "yes", "addr:full": "One Grand Corner Ave", "addr:city": "Gaithersburg", "addr:state": "Maryland", "addr:postcode": "20878", "addr:country": "US", "name": "Gaithersburg", "phone": "(301) 721-1634", "website": "https://cornerbakerycafe.com/location/gaithersburg", "opening_hours": "Mo-Sa 07:30-20:00; Su 07:30-17:00", "brand": "Corner Bakery Cafe", "brand:wikidata": "Q5171598", "nsi_id": "cornerbakery-243cad"}, "geometry": {"type": "Point", "coordinates": [-77.20048, 39.118356]}},
{"type": "Feature", "id": "CzDmWLh4WVBHSV2vWZW54gRC3ZU=", "properties": {"ref": "columbia", "@spider": "corner_bakery_cafe", "amenity": "cafe", "cuisine": "coffee_shop", "takeaway": "yes", "addr:full": "10000 Town Center Ave", "addr:city": "Columbia", "addr:state": "Maryland", "addr:postcode": "21044", "addr:country": "US", "name": "Columbia", "phone": "(443) 917-4042", "website": "https://cornerbakerycafe.com/location/columbia", "opening_hours": "Mo 07:30-19:00; Tu 07:30-07:00; We-Th 07:30-19:00; Fr 07:30-15:00; Sa-Su 07:30-19:00", "brand": "Corner Bakery Cafe", "brand:wikidata": "Q5171598", "nsi_id": "cornerbakery-243cad"}, "geometry": {"type": "Point", "coordinates": [-76.865255, 39.214328]}},
{"type": "Feature", "id": "esEgp7i7pxaLCaU-QQw-ynL394w=", "properties": {"ref": "westlake", "@spider": "corner_bakery_cafe", "amenity": "cafe", "cuisine": "coffee_shop", "takeaway": "yes", "addr:full": "10327 Westlake Dr", "addr:city": "Bethesda", "addr:state": "Maryland", "addr:postcode": "20817", "addr:country": "US", "name": "Westlake", "phone": "(301) 469-8774", "website": "https://cornerbakerycafe.com/location/westlake", "opening_hours": "Mo-Su 07:30-20:00", "brand": "Corner Bakery Cafe", "brand:wikidata": "Q5171598", "nsi_id": "cornerbakery-243cad"}, "geometry": {"type": "Point", "coordinates": [-77.14714, 39.026003]}},
{"type": "Feature", "id": "QiTl1GWIdeGc38pXybAO7NupYk4=", "properties": {"ref": "inner-harbor", "@spider": "corner_bakery_cafe", "amenity": "cafe", "cuisine": "coffee_shop", "takeaway": "yes", "addr:full": "500 E Pratt Street", "addr:city": "Baltimore", "addr:state": "Maryland", "addr:postcode": "21202", "addr:country": "US", "name": "Inner Harbor", "phone": "(443) 681-1175", "website": "https://cornerbakerycafe.com/location/inner-harbor", "opening_hours": "Tu-Fr 07:30-15:00", "brand": "Corner Bakery Cafe", "brand:wikidata": "Q5171598", "nsi_id": "cornerbakery-243cad"}, "geometry": {"type": "Point", "coordinates": [-76.608372, 39.28702]}},
{"type": "Feature", "id": "viRmCVCoTGHixqQSbAKvfLKLNu0=", "properties": {"ref": "bowling-green", "@spider": "corner_bakery_cafe", "amenity": "cafe", "cuisine": "coffee_shop", "takeaway": "yes", "addr:full": "1951 Scottsville Rd", "addr:city": "Bowling Green", "addr:state": "Kentucky", "addr:postcode": "42104", "addr:country": "US", "name": "Bowling Green", "phone": "(270) 796-8100", "website": "https://cornerbakerycafe.com/location/bowling-green", "opening_hours": "Mo-Sa 07:00-20:00; Su 08:00-20:00", "brand": "Corner Bakery Cafe", "brand:wikidata": "Q5171598", "nsi_id": "cornerbakery-243cad"}, "geometry": {"type": "Point", "coordinates": [-86.430944, 36.960902]}},
{"type": "Feature", "id": "h3ay6U6X1K4mn0UJRGADRA2wWuc=", "properties": {"ref": "corbin-park", "@spider": "corner_bakery_cafe", "amenity": "cafe", "cuisine": "coffee_shop", "takeaway": "yes", "addr:full": "6721 W 135th St", "addr:city": "Overland Park", "addr:state": "Kansas", "addr:postcode": "66223", "addr:country": "US", "name": "Corbin Park", "phone": "(913) 955-2370", "website": "https://cornerbakerycafe.com/location/corbin-park", "opening_hours": "Mo-Sa 07:00-20:00; Su 08:00-20:00", "brand": "Corner Bakery Cafe", "brand:wikidata": "Q5171598", "nsi_id": "cornerbakery-243cad"}, "geometry": {"type": "Point", "coordinates": [-94.663507, 38.883391]}},
{"type": "Feature", "id": "R79jVRcNZgSUM9jb7Ru2KhvUHPk=", "properties": {"ref": "camelot-court", "@spider": "corner_bakery_cafe", "amenity": "cafe", "cuisine": "coffee_shop", "takeaway": "yes", "addr:full": "11705 Roe Ave", "addr:city": "Leawood", "addr:state": "Kansas", "addr:postcode": "66211", "addr:country": "US", "name": "Camelot Court", "phone": "(913) 766-0486", "website": "https://cornerbakerycafe.com/location/camelot-court", "brand": "Corner Bakery Cafe", "brand:wikidata": "Q5171598", "nsi_id": "cornerbakery-243cad"}, "geometry": {"type": "Point", "coordinates": [-94.639174, 38.916284]}},
{"type": "Feature", "id": "_I8f2qZEv76V6hppZNnySCTpUiE=", "properties": {"ref": "edens-plaza", "@spider": "corner_bakery_cafe", "amenity": "cafe", "cuisine": "coffee_shop", "takeaway": "yes", "addr:full": "3232 Lake Ave", "addr:city": "Wilmette", "addr:state": "Illinois", "addr:postcode": "60091", "addr:country": "US", "name": "Edens Plaza", "phone": "(847) 251-2547", "website": "https://cornerbakerycafe.com/location/edens-plaza", "opening_hours": "Mo-Sa 07:00-15:00; Su 07:30-15:00", "brand": "Corner Bakery Cafe", "brand:wikidata": "Q5171598", "nsi_id": "cornerbakery-243cad"}, "geometry": {"type": "Point", "coordinates": [-87.756513, 42.082711]}},
{"type": "Feature", "id": "Wb31oTHwpji7TNZGLAtsovg1se0=", "properties": {"ref": "wheaton", "@spider": "corner_bakery_cafe", "amenity": "cafe", "cuisine": "coffee_shop", "takeaway": "yes", "addr:full": "625 S County Farm Road", "addr:city": "Wheaton", "addr:state": "Illinois", "addr:postcode": "60187", "addr:country": "US", "name": "Wheaton", "website": "https://cornerbakerycafe.com/location/wheaton", "brand": "Corner Bakery Cafe", "brand:wikidata": "Q5171598", "nsi_id": "cornerbakery-243cad"}},
{"type": "Feature", "id": "TN2xhGEv7kwMJObUCOdViC1ckJw=", "properties": {"ref": "cantera", "@spider": "corner_bakery_cafe", "amenity": "cafe", "cuisine": "coffee_shop", "takeaway": "yes", "addr:full": "28258 Diehl Rd", "addr:city": "Warrenville", "addr:state": "Illinois", "addr:postcode": "60555", "addr:country": "US", "name": "Cantera", "phone": "(630) 836-1689", "website": "https://cornerbakerycafe.com/location/cantera", "opening_hours": "Tu-Fr 07:30-19:30; Sa-Su 07:30-15:00", "brand": "Corner Bakery Cafe", "brand:wikidata": "Q5171598", "nsi_id": "cornerbakery-243cad"}, "geometry": {"type": "Point", "coordinates": [-88.173453, 41.803467]}},
{"type": "Feature", "id": "jFJvVjjj56wJStK1L2vsTup16cA=", "properties": {"ref": "vernon-hills", "@spider": "corner_bakery_cafe", "amenity": "cafe", "cuisine": "coffee_shop", "takeaway": "yes", "addr:full": "445 E Townline Rd", "addr:city": "Vernon Hills", "addr:state": "Illinois", "addr:postcode": "60061", "addr:country": "US", "name": "Vernon Hills", "phone": "(847) 728-8723", "website": "https://cornerbakerycafe.com/location/vernon-hills", "opening_hours": "Mo-Su 07:00-15:00", "brand": "Corner Bakery Cafe", "brand:wikidata": "Q5171598", "nsi_id": "cornerbakery-243cad"}, "geometry": {"type": "Point", "coordinates": [-87.953614, 42.239971]}},
{"type": "Feature", "id": "XdZRUY3SBjM5nKnVbyIyYWBdatM=", "properties": {"ref": "skokie", "@spider": "corner_bakery_cafe", "amenity": "cafe", "cuisine": "coffee_shop", "takeaway": "yes", "addr:full": "5369 Touhy Ave", "addr:city": "Skokie", "addr:state": "Illinois", "addr:postcode": "60077", "addr:country": "US", "name": "Skokie", "phone": "(847) 763-0735", "website": "https://cornerbakerycafe.com/location/skokie", "opening_hours": "Mo-Fr 06:30-21:00; Sa 07:00-21:00; Su 07:00-20:00", "brand": "Corner Bakery Cafe", "brand:wikidata": "Q5171598", "nsi_id": "cornerbakery-243cad"}, "geometry": {"type": "Point", "coordinates": [-87.762667, 42.011483]}},
{"type": "Feature", "id": "izfvwgcOqvBq8LyJr9zW-d2cLwY=", "properties": {"ref": "old-orchard", "@spider": "corner_bakery_cafe", "amenity": "cafe", "cuisine": "coffee_shop", "takeaway": "yes", "addr:full": "4999 Old Orchard Ctr", "addr:city": "Skokie", "addr:state": "Illinois", "addr:postcode": "60077", "addr:country": "US", "name": "Old Orchard", "phone": "(847) 933-1555", "website": "https://cornerbakerycafe.com/location/old-orchard", "opening_hours": "Mo-Su 07:30-19:30", "brand": "Corner Bakery Cafe", "brand:wikidata": "Q5171598", "nsi_id": "cornerbakery-243cad"}, "geometry": {"type": "Point", "coordinates": [-87.748723, 42.057174]}},
{"type": "Feature", "id": "Iz5dVIZNy7CKFG_bsKkNyXgKSA4=", "properties": {"ref": "schaumburg", "@spider": "corner_bakery_cafe", "amenity": "cafe", "cuisine": "coffee_shop", "takeaway": "yes", "addr:full": "1901 E Woodfield  Rd", "addr:city": "Schaumburg", "addr:state": "Illinois", "addr:postcode": "60173", "addr:country": "US", "name": "Schaumburg", "phone": "(847) 240-1111", "website": "https://cornerbakerycafe.com/location/schaumburg", "opening_hours": "Mo-Fr 07:00-19:00; Sa 07:30-19:00; Su 07:30-17:00", "brand": "Corner Bakery Cafe", "brand:wikidata": "Q5171598", "nsi_id": "cornerbakery-243cad"}, "geometry": {"type": "Point", "coordinates": [-88.032895, 42.042508]}},
{"type": "Feature", "id": "Z0s_Y4GvBb0Rx25_RnBhgxvSn_g=", "properties": {"ref": "oak-lawn", "@spider": "corner_bakery_cafe", "amenity": "cafe", "cuisine": "coffee_shop", "takeaway": "yes", "addr:full": "9621 Cicero Ave", "addr:city": "Oak Lawn", "addr:state": "Illinois", "addr:postcode": "60453", "addr:country": "US", "name": "Oak Lawn", "phone": "(708) 907-7981", "website": "https://cornerbakerycafe.com/location/oak-lawn", "opening_hours": "Mo-Sa 07:30-20:00; Su 07:30-18:00", "brand": "Corner Bakery Cafe", "brand:wikidata": "Q5171598", "nsi_id": "cornerbakery-243cad"}, "geometry": {"type": "Point", "coordinates": [-87.7404, 41.717855]}},
{"type": "Feature", "id": "JJdJ18kalu-BML61XJHmTdZCxRU=", "properties": {"ref": "oak-brook", "@spider": "corner_bakery_cafe", "amenity": "cafe", "cuisine": "coffee_shop", "takeaway": "yes", "addr:full": "240 Oak Brook Ctr", "addr:city": "Oak Brook", "addr:state": "Illinois", "addr:postcode": "60523", "addr:country": "US", "name": "Oak Brook", "phone": "(630) 368-0505", "website": "https://cornerbakerycafe.com/location/oak-brook", "opening_hours": "Mo-Su 07:30-15:00", "brand": "Corner Bakery Cafe", "brand:wikidata": "Q5171598", "nsi_id": "cornerbakery-243cad"}, "geometry": {"type": "Point", "coordinates": [-87.951121, 41.849896]}},
{"type": "Feature", "id": "KyvUXpfPQicOFNZ-JZxPC0E0NqM=", "properties": {"ref": "la-grange", "@spider": "corner_bakery_cafe", "amenity": "cafe", "cuisine": "coffee_shop", "takeaway": "yes", "addr:full": "39 N La Grange Rd", "addr:city": "La Grange", "addr:state": "Illinois", "addr:postcode": "60525", "addr:country": "US", "name": "La Grange", "phone": "(708) 579-5410", "website": "https://cornerbakerycafe.com/location/la-grange", "opening_hours": "Mo-Su 07:30-19:30", "brand": "Corner Bakery Cafe", "brand:wikidata": "Q5171598", "nsi_id": "cornerbakery-243cad"}, "geometry": {"type": "Point", "coordinates": [-87.869481, 41.817759]}},
{"type": "Feature", "id": "D1DdXO5Bn9SIcO518nfrRIfba9c=", "properties": {"ref": "hinsdale", "@spider": "corner_bakery_cafe", "amenity": "cafe", "cuisine": "coffee_shop", "takeaway": "yes", "addr:full": "42 E Hinsdale Ave", "addr:city": "Hinsdale", "addr:state": "Illinois", "addr:postcode": "60521", "addr:country": "US", "name": "Hinsdale", "phone": "(630) 601-2841", "website": "https://cornerbakerycafe.com/location/hinsdale", "opening_hours": "Mo-Fr 07:30-19:30; Sa 07:30-17:00; Su 07:30-15:00", "brand": "Corner Bakery Cafe", "brand:wikidata": "Q5171598", "nsi_id": "cornerbakery-243cad"}, "geometry": {"type": "Point", "coordinates": [-87.927426, 41.802688]}},
{"type": "Feature", "id": "HnH71ogZF8zJFRWLRdglDeRl6Gk=", "properties": {"ref": "glenview-south", "@spider": "corner_bakery_cafe", "amenity": "cafe", "cuisine": "coffee_shop", "takeaway": "yes", "addr:full": "1378 Patriot Blvd", "addr:city": "Glenview", "addr:state": "Illinois", "addr:postcode": "60026", "addr:country": "US", "name": "Glenview South", "phone": "(847) 998-4745", "website": "https://cornerbakerycafe.com/location/glenview-south", "opening_hours": "Mo-We 07:00-15:00; Th-Su 07:00-19:00", "brand": "Corner Bakery Cafe", "brand:wikidata": "Q5171598", "nsi_id": "cornerbakery-243cad"}, "geometry": {"type": "Point", "coordinates": [-87.819589, 42.079981]}},
{"type": "Feature", "id": "bfGYro7B5e5bwFgXZ-WdIhZcDTE=", "properties": {"ref": "geneva", "@spider": "corner_bakery_cafe", "amenity": "cafe", "cuisine": "coffee_shop", "takeaway": "yes", "addr:full": "1614 Commons Dr", "addr:city": "Geneva", "addr:state": "Illinois", "addr:postcode": "60134", "addr:country": "US", "name": "Geneva", "phone": "(630) 845-1738", "website": "https://cornerbakerycafe.com/location/geneva", "opening_hours": "Mo-Fr 07:00-15:00; Sa-Su 07:30-15:00", "brand": "Corner Bakery Cafe", "brand:wikidata": "Q5171598", "nsi_id": "cornerbakery-243cad"}, "geometry": {"type": "Point", "coordinates": [-88.341068, 41.892353]}},
{"type": "Feature", "id": "S6nTfgusiNCiEOROYZNo61Zb7tg=", "properties": {"ref": "lake-lasalle", "@spider": "corner_bakery_cafe", "amenity": "cafe", "cuisine": "coffee_shop", "takeaway": "yes", "addr:full": "200 N LaSalle St", "addr:city": "Chicago", "addr:state": "Illinois", "addr:postcode": "60601", "addr:country": "US", "name": "Lake & LaSalle", "phone": "(312) 726-7244", "website": "https://cornerbakerycafe.com/location/lake-lasalle", "opening_hours": "Mo-Fr 07:00-15:00", "brand": "Corner Bakery Cafe", "brand:wikidata": "Q5171598", "nsi_id": "cornerbakery-243cad"}, "geometry": {"type": "Point", "coordinates": [-87.63291, 41.885883]}},
{"type": "Feature", "id": "XdWf38zR2CqToAWAV2Z3tvPOdz8=", "properties": {"ref": "u2", "@spider": "corner_bakery_cafe", "amenity": "cafe", "cuisine": "coffee_shop", "takeaway": "yes", "addr:full": "444 W Jackson Blvd", "addr:city": "Chicago", "addr:state": "Illinois", "addr:postcode": "60606", "addr:country": "US", "name": "U2", "phone": "(312) 575-1410", "website": "https://cornerbakerycafe.com/location/u2", "brand": "Corner Bakery Cafe", "brand:wikidata": "Q5171598", "nsi_id": "cornerbakery-243cad"}, "geometry": {"type": "Point", "coordinates": [-87.638904, 41.87816]}},
{"type": "Feature", "id": "KkGcfVQZ75IVuA4H4r6Wu2RgKVE=", "properties": {"ref": "palmer-house", "@spider": "corner_bakery_cafe", "amenity": "cafe", "cuisine": "coffee_shop", "takeaway": "yes", "addr:full": "35 E Monroe St", "addr:city": "Chicago", "addr:state": "Illinois", "addr:postcode": "60603", "addr:country": "US", "name": "Palmer House", "phone": "(312) 372-0072", "website": "https://cornerbakerycafe.com/location/palmer-house", "brand": "Corner Bakery Cafe", "brand:wikidata": "Q5171598", "nsi_id": "cornerbakery-243cad"}, "geometry": {"type": "Point", "coordinates": [-87.626374, 41.880641]}},
{"type": "Feature", "id": "wKcXDFZ-dR06BuIrHqyKZbxObPI=", "properties": {"ref": "goodman-theatre", "@spider": "corner_bakery_cafe", "amenity": "cafe", "cuisine": "coffee_shop", "takeaway": "yes", "addr:full": "56 W Randolph St", "addr:city": "Chicago", "addr:state": "Illinois", "addr:postcode": "60601", "addr:country": "US", "name": "Goodman Theatre", "phone": "(312) 346-9492", "website": "https://cornerbakerycafe.com/location/goodman-theatre", "opening_hours": "Mo-Fr 07:00-15:00; Sa-Su 08:00-14:00", "brand": "Corner Bakery Cafe", "brand:wikidata": "Q5171598", "nsi_id": "cornerbakery-243cad"}, "geometry": {"type": "Point", "coordinates": [-87.630008, 41.884626]}},
{"type": "Feature", "id": "sfUT9QCJk3NjxCcKYCoFNiUQvtI=", "properties": {"ref": "washington-wells", "@spider": "corner_bakery_cafe", "amenity": "cafe", "cuisine": "coffee_shop", "takeaway": "yes", "addr:full": "188 W Washington St", "addr:city": "Chicago", "addr:state": "Illinois", "addr:postcode": "60602", "addr:country": "US", "name": "Washington & Wells", "phone": "(312) 263-4258", "website": "https://cornerbakerycafe.com/location/washington-wells", "opening_hours": "Mo-Fr 07:00-15:00; Sa 08:00-14:00", "brand": "Corner Bakery Cafe", "brand:wikidata": "Q5171598", "nsi_id": "cornerbakery-243cad"}, "geometry": {"type": "Point", "coordinates": [-87.63362, 41.883416]}},
{"type": "Feature", "id": "XlRR7NV0sCvW1ND0QfkNumASXwM=", "properties": {"ref": "michigan-wacker", "@spider": "corner_bakery_cafe", "amenity": "cafe", "cuisine": "coffee_shop", "takeaway": "yes", "addr:full": "360 N Michigan Ave", "addr:city": "Chicago", "addr:state": "Illinois", "addr:postcode": "60601", "addr:country": "US", "name": "Michigan & Wacker", "phone": "(312) 236-2400", "website": "https://cornerbakerycafe.com/location/michigan-wacker", "opening_hours": "Mo-Su 07:00-15:00", "brand": "Corner Bakery Cafe", "brand:wikidata": "Q5171598", "nsi_id": "cornerbakery-243cad"}, "geometry": {"type": "Point", "coordinates": [-87.625075, 41.88812]}},
{"type": "Feature", "id": "jf2M_AcacvkRjmSgUFNZ9tsPMow=", "properties": {"ref": "south-lasalle", "@spider": "corner_bakery_cafe", "amenity": "cafe", "cuisine": "coffee_shop", "takeaway": "yes", "addr:full": "120 S La Salle St", "addr:city": "Chicago", "addr:state": "Illinois", "addr:postcode": "60603", "addr:country": "US", "name": "South LaSalle", "phone": "(312) 269-9100", "website": "https://cornerbakerycafe.com/location/south-lasalle", "opening_hours": "Mo-Fr 07:00-15:00", "brand": "Corner Bakery Cafe", "brand:wikidata": "Q5171598", "nsi_id": "cornerbakery-243cad"}, "geometry": {"type": "Point", "coordinates": [-87.632458, 41.880072]}},
{"type": "Feature", "id": "yoFRe3gvJXqNkherjDnqkC6xFRo=", "properties": {"ref": "citicorp", "@spider": "corner_bakery_cafe", "amenity": "cafe", "cuisine": "coffee_shop", "takeaway": "yes", "addr:full": "500 W Madison", "addr:city": "Chicago", "addr:state": "Illinois", "addr:postcode": "60661", "addr:country": "US", "name": "Citicorp", "phone": "(312) 715-0800", "website": "https://cornerbakerycafe.com/location/citicorp", "opening_hours": "Mo-Fr 07:00-15:00", "brand": "Corner Bakery Cafe", "brand:wikidata": "Q5171598", "nsi_id": "cornerbakery-243cad"}, "geometry": {"type": "Point", "coordinates": [-87.640795, 41.882053]}},
{"type": "Feature", "id": "rUcg9YFkVQf1Pr9bradvzLnOvK8=", "properties": {"ref": "santa-fe", "@spider": "corner_bakery_cafe", "amenity": "cafe", "cuisine": "coffee_shop", "takeaway": "yes", "addr:full": "224 S Michigan Ave", "addr:city": "Chicago", "addr:state": "Illinois", "addr:postcode": "60604", "addr:country": "US", "name": "Santa Fe", "phone": "(312) 431-7600", "website": "https://cornerbakerycafe.com/location/santa-fe", "brand": "Corner Bakery Cafe", "brand:wikidata": "Q5171598", "nsi_id": "cornerbakery-243cad"}, "geometry": {"type": "Point", "coordinates": [-87.624672, 41.87841]}},
{"type": "Feature", "id": "WRSHaEbq0eZjZa8zYYeNt4HakkA=", "properties": {"ref": "marquette", "@spider": "corner_bakery_cafe", "amenity": "cafe", "cuisine": "coffee_shop", "takeaway": "yes", "addr:full": "140 S Dearborn", "addr:city": "Chicago", "addr:state": "Illinois", "addr:postcode": "60603", "addr:country": "US", "name": "Marquette", "phone": "(312) 920-9100", "website": "https://cornerbakerycafe.com/location/marquette", "opening_hours": "Mo-Fr 07:30-15:00", "brand": "Corner Bakery Cafe", "brand:wikidata": "Q5171598", "nsi_id": "cornerbakery-243cad"}, "geometry": {"type": "Point", "coordinates": [-87.6294184, 41.8798408]}},
{"type": "Feature", "id": "QFG6je2xZjzj46RoeXXm1Rtoz1c=", "properties": {"ref": "arlington-heights", "@spider": "corner_bakery_cafe", "amenity": "cafe", "cuisine": "coffee_shop", "takeaway": "yes", "addr:full": "470 E Rand Rd", "addr:city": "Arlington Heights", "addr:state": "Illinois", "addr:postcode": "60004", "addr:country": "US", "name": "Arlington Heights", "phone": "(847) 394-4661", "website": "https://cornerbakerycafe.com/location/arlington-heights", "opening_hours": "Mo-Fr 07:00-20:00; Sa-Su 07:30-20:00", "brand": "Corner Bakery Cafe", "brand:wikidata": "Q5171598", "nsi_id": "cornerbakery-243cad"}, "geometry": {"type": "Point", "coordinates": [-87.975805, 42.110841]}},
{"type": "Feature", "id": "oHt27ua_FDacZn91fxpsV3GPjh0=", "properties": {"ref": "peachtree", "@spider": "corner_bakery_cafe", "amenity": "cafe", "cuisine": "coffee_shop", "takeaway": "yes", "addr:full": "6050 Peachtree Pkwy", "addr:city": "Peachtree Corners", "addr:state": "Georgia", "addr:postcode": "30092", "addr:country": "US", "name": "Peachtree", "phone": "(678) 281-2150", "website": "https://cornerbakerycafe.com/location/peachtree", "opening_hours": "Mo-Fr 06:30-17:00; Sa-Su 08:00-17:00", "brand": "Corner Bakery Cafe", "brand:wikidata": "Q5171598", "nsi_id": "cornerbakery-243cad"}, "geometry": {"type": "Point", "coordinates": [-84.232902, 33.95393]}},
{"type": "Feature", "id": "iFmCIwYVhQ5CAEvfrSH7neGLxmw=", "properties": {"ref": "southern-building", "@spider": "corner_bakery_cafe", "amenity": "cafe", "cuisine": "coffee_shop", "takeaway": "yes", "addr:full": "270 Peachtree St NW", "addr:city": "Atlanta", "addr:state": "Georgia", "addr:postcode": "30303", "addr:country": "US", "name": "Southern Building", "phone": "(404) 215-9000", "website": "https://cornerbakerycafe.com/location/southern-building", "opening_hours": "Mo-Fr 07:00-15:00; Sa 08:00-14:00", "brand": "Corner Bakery Cafe", "brand:wikidata": "Q5171598", "nsi_id": "cornerbakery-243cad"}, "geometry": {"type": "Point", "coordinates": [-84.387675, 33.76191]}},
{"type": "Feature", "id": "UFkixF8yHqOyTbigjMgagzEtR7k=", "properties": {"ref": "buckhead", "@spider": "corner_bakery_cafe", "amenity": "cafe", "cuisine": "coffee_shop", "takeaway": "yes", "addr:full": "3368 Peachtree Rd NE", "addr:city": "Atlanta", "addr:state": "Georgia", "addr:postcode": "30326", "addr:country": "US", "name": "Buckhead", "phone": "(404) 816-5100", "website": "https://cornerbakerycafe.com/location/buckhead", "opening_hours": "Mo-Fr 06:30-19:00; Sa 08:00-19:00; Su 08:00-17:00", "brand": "Corner Bakery Cafe", "brand:wikidata": "Q5171598", "nsi_id": "cornerbakery-243cad"}, "geometry": {"type": "Point", "coordinates": [-84.3672503, 33.848288]}},
{"type": "Feature", "id": "J5Hx71kOy_S77to5ZUz84hRCgL8=", "properties": {"ref": "brandon-blvd", "@spider": "corner_bakery_cafe", "amenity": "cafe", "cuisine": "coffee_shop", "takeaway": "yes", "addr:full": "2326 W Brandon Blvd", "addr:city": "Brandon", "addr:state": "Florida", "addr:postcode": "33511", "addr:country": "US", "name": "Brandon Blvd", "phone": "(813) 982-3073", "website": "https://cornerbakerycafe.com/location/brandon-blvd", "opening_hours": "Mo-Fr 07:00-15:00; Sa-Su 08:00-15:00", "brand": "Corner Bakery Cafe", "brand:wikidata": "Q5171598", "nsi_id": "cornerbakery-243cad"}, "geometry": {"type": "Point", "coordinates": [-82.322438, 27.939735]}},
{"type": "Feature", "id": "4T3iX4atcMNWflsQah3Kz6jRjjQ=", "properties": {"ref": "capitol-hill", "@spider": "corner_bakery_cafe", "amenity": "cafe", "cuisine": "coffee_shop", "takeaway": "yes", "addr:full": "500 N Capitol St NW", "addr:city": "Washington", "addr:state": "District of Columbia", "addr:postcode": "20001", "addr:country": "US", "name": "Capitol Hill", "phone": "(202) 627-3139", "website": "https://cornerbakerycafe.com/location/capitol-hill", "opening_hours": "Mo-Fr 07:00-15:00; Sa-Su 07:30-15:00", "brand": "Corner Bakery Cafe", "brand:wikidata": "Q5171598", "nsi_id": "cornerbakery-243cad"}, "geometry": {"type": "Point", "coordinates": [-77.009279, 38.896347]}},
{"type": "Feature", "id": "U2tSM0vWaQmZ0j64U6LIebZeNMs=", "properties": {"ref": "mcpherson-square", "@spider": "corner_bakery_cafe", "amenity": "cafe", "cuisine": "coffee_shop", "takeaway": "yes", "addr:full": "1425 K St NW", "addr:city": "Washington", "addr:state": "District of Columbia", "addr:postcode": "20005", "addr:country": "US", "name": "McPherson Square", "phone": "(202) 898-5704", "website": "https://cornerbakerycafe.com/location/mcpherson-square", "opening_hours": "Mo-Fr 07:00-15:00", "brand": "Corner Bakery Cafe", "brand:wikidata": "Q5171598", "nsi_id": "cornerbakery-243cad"}, "geometry": {"type": "Point", "coordinates": [-77.033244, 38.902763]}},
{"type": "Feature", "id": "lhYS0yaoeaeY-oCVxYnQJO_SbDg=", "properties": {"ref": "19th-l", "@spider": "corner_bakery_cafe", "amenity": "cafe", "cuisine": "coffee_shop", "takeaway": "yes", "addr:full": "1828 L St NW", "addr:city": "Washington", "addr:state": "District of Columbia", "addr:postcode": "20036", "addr:country": "US", "name": "19th & L", "phone": "(202) 776-9052", "website": "https://cornerbakerycafe.com/location/19th-l", "opening_hours": "Mo-Fr 07:00-15:00; Sa 08:00-14:00", "brand": "Corner Bakery Cafe", "brand:wikidata": "Q5171598", "nsi_id": "cornerbakery-243cad"}, "geometry": {"type": "Point", "coordinates": [-77.04322, 38.903629]}},
{"type": "Feature", "id": "Vv1CsEjq7fQiykz6xhePM2i1dsM=", "properties": {"ref": "national-press", "@spider": "corner_bakery_cafe", "amenity": "cafe", "cuisine": "coffee_shop", "takeaway": "yes", "addr:full": "529 14th St NW", "addr:city": "Washington", "addr:state": "District of Columbia", "addr:postcode": "20045", "addr:country": "US", "name": "National Press", "phone": "(202) 662-7400", "website": "https://cornerbakerycafe.com/location/national-press", "opening_hours": "Mo-Th 07:00-15:00", "brand": "Corner Bakery Cafe", "brand:wikidata": "Q5171598", "nsi_id": "cornerbakery-243cad"}, "geometry": {"type": "Point", "coordinates": [-77.031667, 38.897171]}},
{"type": "Feature", "id": "u8SbmJN_36p5bZRiKLAwQHoOTBs=", "properties": {"ref": "highlands-ranch", "@spider": "corner_bakery_cafe", "amenity": "cafe", "cuisine": "coffee_shop", "takeaway": "yes", "addr:full": "1601 Mayberry Dr", "addr:city": "Highlands Ranch", "addr:state": "Colorado", "addr:postcode": "80129", "addr:country": "US", "name": "Highlands Ranch", "phone": "(303) 471-6400", "website": "https://cornerbakerycafe.com/location/highlands-ranch", "opening_hours": "Mo 06:30-20:00; Tu-Fr 06:30-20:30; Sa-Su 07:00-20:00", "brand": "Corner Bakery Cafe", "brand:wikidata": "Q5171598", "nsi_id": "cornerbakery-243cad"}, "geometry": {"type": "Point", "coordinates": [-105.00432, 39.54609]}},
{"type": "Feature", "id": "uLJjwNH4DypFdvaHIalEqcUFPeA=", "properties": {"ref": "green-valley-ranch", "@spider": "corner_bakery_cafe", "amenity": "cafe", "cuisine": "coffee_shop", "takeaway": "yes", "addr:full": "5680 N. Tower Rd", "addr:city": "Denver", "addr:state": "Colorado", "addr:postcode": "80249", "addr:country": "US", "name": "Green Valley Ranch", "phone": "(303) 825-0525", "website": "https://cornerbakerycafe.com/location/green-valley-ranch", "opening_hours": "Mo-Fr 06:30-20:00; Sa 07:00-20:00; Su 07:00-18:00", "brand": "Corner Bakery Cafe", "brand:wikidata": "Q5171598", "nsi_id": "cornerbakery-243cad"}, "geometry": {"type": "Point", "coordinates": [-104.77197, 39.79977]}},
{"type": "Feature", "id": "E9ouwWtRPPeksdq3Go-BaBOJ9f0=", "properties": {"ref": "city-center", "@spider": "corner_bakery_cafe", "amenity": "cafe", "cuisine": "coffee_shop", "takeaway": "yes", "addr:full": "717 17th St", "addr:city": "Denver", "addr:state": "Colorado", "addr:postcode": "80202", "addr:country": "US", "name": "City Center", "phone": "(303) 292-5100", "website": "https://cornerbakerycafe.com/location/city-center", "opening_hours": "Mo-Fr 07:00-15:00", "brand": "Corner Bakery Cafe", "brand:wikidata": "Q5171598", "nsi_id": "cornerbakery-243cad"}, "geometry": {"type": "Point", "coordinates": [-104.99118, 39.747079]}},
{"type": "Feature", "id": "Lh0vAB1tNuzQLBxi73QGQ_hM9J0=", "properties": {"ref": "pavilions", "@spider": "corner_bakery_cafe", "amenity": "cafe", "cuisine": "coffee_shop", "takeaway": "yes", "addr:full": "500 16th St", "addr:city": "Denver", "addr:state": "Colorado", "addr:postcode": "80202", "addr:country": "US", "name": "Pavilions", "phone": "(303) 572-0166", "website": "https://cornerbakerycafe.com/location/pavilions", "opening_hours": "Mo-Fr 07:00-15:00; Sa 08:00-14:00", "brand": "Corner Bakery Cafe", "brand:wikidata": "Q5171598", "nsi_id": "cornerbakery-243cad"}, "geometry": {"type": "Point", "coordinates": [-104.990062, 39.743293]}},
{"type": "Feature", "id": "nIXbHWJI5G8LT4fIGhSfNx2p3WQ=", "properties": {"ref": "southglenn", "@spider": "corner_bakery_cafe", "amenity": "cafe", "cuisine": "coffee_shop", "takeaway": "yes", "addr:full": "2253 E Briarwood Ave", "addr:city": "Centennial", "addr:state": "Colorado", "addr:postcode": "80122", "addr:country": "US", "name": "SouthGlenn", "phone": "(303) 794-3900", "website": "https://cornerbakerycafe.com/location/southglenn", "opening_hours": "Mo-Fr 06:30-19:30; Sa 07:00-19:30; Su 07:30-19:30", "brand": "Corner Bakery Cafe", "brand:wikidata": "Q5171598", "nsi_id": "cornerbakery-243cad"}, "geometry": {"type": "Point", "coordinates": [-104.961798, 39.592834]}},
{"type": "Feature", "id": "v3DrTdjiSi9KOk-fdyZ1TmM_SKQ=", "properties": {"ref": "woodland-hills", "@spider": "corner_bakery_cafe", "amenity": "cafe", "cuisine": "coffee_shop", "takeaway": "yes", "addr:full": "6100 Topanga Canyon Blvd", "addr:city": "Woodland Hills", "addr:state": "California", "addr:postcode": "91367", "addr:country": "US", "name": "Woodland Hills", "phone": "(818) 710-9245", "website": "https://cornerbakerycafe.com/location/woodland-hills", "opening_hours": "Mo-Fr 07:30-16:00; Sa 07:30-15:00", "brand": "Corner Bakery Cafe", "brand:wikidata": "Q5171598", "nsi_id": "cornerbakery-243cad"}, "geometry": {"type": "Point", "coordinates": [-118.603644, 34.181657]}},
{"type": "Feature", "id": "UhgdJYRPvnj8F3ut1tl0kXIftiU=", "properties": {"ref": "whittier", "@spider": "corner_bakery_cafe", "amenity": "cafe", "cuisine": "coffee_shop", "takeaway": "yes", "addr:full": "13515 Whittier Blvd", "addr:city": "Whittier", "addr:state": "California", "addr:postcode": "90605", "addr:country": "US", "name": "Whittier", "phone": "(562) 693-0985", "website": "https://cornerbakerycafe.com/location/whittier", "opening_hours": "Mo-Fr 07:30-20:00; Sa-Su 07:30-18:00", "brand": "Corner Bakery Cafe", "brand:wikidata": "Q5171598", "nsi_id": "cornerbakery-243cad"}, "geometry": {"type": "Point", "coordinates": [-118.031474, 33.962639]}},
{"type": "Feature", "id": "UTTa8DC-Ftz8z7WFbiBi3pvzTqY=", "properties": {"ref": "pleasanton", "@spider": "corner_bakery_cafe", "amenity": "cafe", "cuisine": "coffee_shop", "takeaway": "yes", "addr:full": "6770 Bernal Ave", "addr:city": "Pleasanton", "addr:state": "California", "addr:postcode": "94566", "addr:country": "US", "name": "Pleasanton", "phone": "(925) 484-0102", "website": "https://cornerbakerycafe.com/location/pleasanton", "brand": "Corner Bakery Cafe", "brand:wikidata": "Q5171598", "nsi_id": "cornerbakery-243cad"}, "geometry": {"type": "Point", "coordinates": [-121.897675, 37.657824]}},
{"type": "Feature", "id": "fUWv_T-aXHf66nhj0W3K8pdJIxY=", "properties": {"ref": "hastings-ranch", "@spider": "corner_bakery_cafe", "amenity": "cafe", "cuisine": "coffee_shop", "takeaway": "yes", "addr:full": "3807 E Foothill Blvd", "addr:city": "Pasadena", "addr:state": "California", "addr:postcode": "91107", "addr:country": "US", "name": "Hastings Ranch", "phone": "(626) 351-0464", "website": "https://cornerbakerycafe.com/location/hastings-ranch", "opening_hours": "Mo-Su 07:00-20:00", "brand": "Corner Bakery Cafe", "brand:wikidata": "Q5171598", "nsi_id": "cornerbakery-243cad"}, "geometry": {"type": "Point", "coordinates": [-118.06958, 34.150592]}},
{"type": "Feature", "id": "yyC560nG1YOmlUqfQXv-dGZWShs=", "properties": {"ref": "pasadena", "@spider": "corner_bakery_cafe", "amenity": "cafe", "cuisine": "coffee_shop", "takeaway": "yes", "addr:full": "345 South Lake Ave", "addr:city": "Pasadena", "addr:state": "California", "addr:postcode": "91101", "addr:country": "US", "name": "Pasadena", "phone": "(626) 578-1281", "website": "https://cornerbakerycafe.com/location/pasadena", "opening_hours": "Mo-Th 07:00-20:00; Fr-Sa 07:00-20:30; Su 07:00-20:00", "brand": "Corner Bakery Cafe", "brand:wikidata": "Q5171598", "nsi_id": "cornerbakery-243cad"}, "geometry": {"type": "Point", "coordinates": [-118.132526, 34.139945]}},
{"type": "Feature", "id": "VlKjhSvhvwKSg0qgxyxpYmmEXKE=", "properties": {"ref": "palo-alto", "@spider": "corner_bakery_cafe", "amenity": "cafe", "cuisine": "coffee_shop", "takeaway": "yes", "addr:full": "3375 El Camino Real", "addr:city": "Palo Alto", "addr:state": "California", "addr:postcode": "94306", "addr:country": "US", "name": "Palo Alto", "phone": "(650) 843-0676", "website": "https://cornerbakerycafe.com/location/palo-alto", "opening_hours": "Mo-Su 07:00-16:00", "brand": "Corner Bakery Cafe", "brand:wikidata": "Q5171598", "nsi_id": "cornerbakery-243cad"}, "geometry": {"type": "Point", "coordinates": [-122.13584, 37.420061]}},
{"type": "Feature", "id": "NM2hcnidgjyxqV03bSIn4FjOOGM=", "properties": {"ref": "northridge", "@spider": "corner_bakery_cafe", "amenity": "cafe", "cuisine": "coffee_shop", "takeaway": "yes", "addr:full": "19500 Plummer St", "addr:city": "Northridge", "addr:state": "California", "addr:postcode": "91324", "addr:country": "US", "name": "Northridge", "phone": "(818) 671-2001", "website": "https://cornerbakerycafe.com/location/northridge", "opening_hours": "Mo-Su 07:00-20:00", "brand": "Corner Bakery Cafe", "brand:wikidata": "Q5171598", "nsi_id": "cornerbakery-243cad"}, "geometry": {"type": "Point", "coordinates": [-118.558696, 34.242314]}},
{"type": "Feature", "id": "VGZPPsXLydFJZA4_UmbNordO_Qs=", "properties": {"ref": "manhattan-beach", "@spider": "corner_bakery_cafe", "amenity": "cafe", "cuisine": "coffee_shop", "takeaway": "yes", "addr:full": "3208 N Sepulveda Blvd", "addr:city": "Manhattan Beach", "addr:state": "California", "addr:postcode": "90266", "addr:country": "US", "name": "Manhattan Beach", "phone": "(310) 545-2596", "website": "https://cornerbakerycafe.com/location/manhattan-beach", "opening_hours": "Mo-Su 08:00-19:00", "brand": "Corner Bakery Cafe", "brand:wikidata": "Q5171598", "nsi_id": "cornerbakery-243cad"}, "geometry": {"type": "Point", "coordinates": [-118.394225, 33.89883]}},
{"type": "Feature", "id": "IWj0ivNhIGMrBfG4AlWlrcv1DCM=", "properties": {"ref": "pico", "@spider": "corner_bakery_cafe", "amenity": "cafe", "cuisine": "coffee_shop", "takeaway": "yes", "addr:full": "10759 W Pico Blvd", "addr:city": "Los Angeles", "addr:state": "California", "addr:postcode": "90064", "addr:country": "US", "name": "Pico", "phone": "(424) 238-3721", "website": "https://cornerbakerycafe.com/location/pico", "opening_hours": "Mo-Su 07:30-15:00", "brand": "Corner Bakery Cafe", "brand:wikidata": "Q5171598", "nsi_id": "cornerbakery-243cad"}, "geometry": {"type": "Point", "coordinates": [-118.42652, 34.04148]}},
{"type": "Feature", "id": "JWtgvQULGph-7-lWe0edDpVk-xw=", "properties": {"ref": "1cal-marketplace", "@spider": "corner_bakery_cafe", "amenity": "cafe", "cuisine": "coffee_shop", "takeaway": "yes", "addr:full": "300 South Grand Avenue", "addr:city": "Los Angeles", "addr:state": "California", "addr:postcode": "90071", "addr:country": "US", "name": "1CAL MARKETPLACE", "phone": "(213) 921-4450", "website": "https://cornerbakerycafe.com/location/1cal-marketplace", "opening_hours": "Mo-Fr 06:00-15:00", "brand": "Corner Bakery Cafe", "brand:wikidata": "Q5171598", "nsi_id": "cornerbakery-243cad"}, "geometry": {"type": "Point", "coordinates": [-118.251386, 34.052382]}},
{"type": "Feature", "id": "SE-23N4646JT1p4AZmrl0r9gIuo=", "properties": {"ref": "beverly-connection", "@spider": "corner_bakery_cafe", "amenity": "cafe", "cuisine": "coffee_shop", "takeaway": "yes", "addr:full": "100 N La Cienega Blvd", "addr:city": "Los Angeles", "addr:state": "California", "addr:postcode": "90048", "addr:country": "US", "name": "Beverly Connection", "phone": "(310) 358-9146", "website": "https://cornerbakerycafe.com/location/beverly-connection", "opening_hours": "Mo-Su 07:30-19:30", "brand": "Corner Bakery Cafe", "brand:wikidata": "Q5171598", "nsi_id": "cornerbakery-243cad"}, "geometry": {"type": "Point", "coordinates": [-118.376378, 34.074749]}},
{"type": "Feature", "id": "nz3yTwYQ5OW2DrOiGY4IMDuq8Vk=", "properties": {"ref": "westwood", "@spider": "corner_bakery_cafe", "amenity": "cafe", "cuisine": "coffee_shop", "takeaway": "yes", "addr:full": "1019 S Westwood Blvd", "addr:city": "Los Angeles", "addr:state": "California", "addr:postcode": "90024", "addr:country": "US", "name": "Westwood", "phone": "(310) 824-1314", "website": "https://cornerbakerycafe.com/location/westwood", "opening_hours": "Mo-Fr 07:30-17:00; Sa-Su 07:30-16:00", "brand": "Corner Bakery Cafe", "brand:wikidata": "Q5171598", "nsi_id": "cornerbakery-243cad"}, "geometry": {"type": "Point", "coordinates": [-118.445677, 34.062177]}},
{"type": "Feature", "id": "IuEvReQCUhF6dg3lsYICaTyYsmA=", "properties": {"ref": "8th-figueroa", "@spider": "corner_bakery_cafe", "amenity": "cafe", "cuisine": "coffee_shop", "takeaway": "yes", "addr:full": "801 S Figueroa", "addr:city": "Los Angeles", "addr:state": "California", "addr:postcode": "90017", "addr:country": "US", "name": "8th & Figueroa", "phone": "(213) 239-0424", "website": "https://cornerbakerycafe.com/location/8th-figueroa", "opening_hours": "Mo-Fr 06:00-15:00", "brand": "Corner Bakery Cafe", "brand:wikidata": "Q5171598", "nsi_id": "cornerbakery-243cad"}, "geometry": {"type": "Point", "coordinates": [-118.261785, 34.04786]}},
{"type": "Feature", "id": "fq6FevlU71c21exZlP4HzCbuq-c=", "properties": {"ref": "long-beach", "@spider": "corner_bakery_cafe", "amenity": "cafe", "cuisine": "coffee_shop", "takeaway": "yes", "addr:full": "6507 E. Pacific Coast Highway", "addr:city": "Long Beach", "addr:state": "California", "addr:postcode": "90803", "addr:country": "US", "name": "Long Beach", "phone": "(562) 856-6120", "website": "https://cornerbakerycafe.com/location/long-beach", "opening_hours": "Mo-Su 07:00-17:00", "brand": "Corner Bakery Cafe", "brand:wikidata": "Q5171598", "nsi_id": "cornerbakery-243cad"}, "geometry": {"type": "Point", "coordinates": [-118.108543, 33.756908]}},
{"type": "Feature", "id": "_Zy89WXcNUIltKK_STZkwPmNANU=", "properties": {"ref": "lakewood", "@spider": "corner_bakery_cafe", "amenity": "cafe", "cuisine": "coffee_shop", "takeaway": "yes", "addr:full": "5312 Clark Ave", "addr:city": "Lakewood", "addr:state": "California", "addr:postcode": "90712", "addr:country": "US", "name": "Lakewood", "phone": "(562) 461-0803", "website": "https://cornerbakerycafe.com/location/lakewood", "opening_hours": "Mo-Fr 07:00-20:00; Sa 07:30-18:00; Su 07:30-20:00", "brand": "Corner Bakery Cafe", "brand:wikidata": "Q5171598", "nsi_id": "cornerbakery-243cad"}, "geometry": {"type": "Point", "coordinates": [-118.133589, 33.854162]}},
{"type": "Feature", "id": "Mkk_6ZJzZ5gakw3uDgfSLIzWiek=", "properties": {"ref": "lake-forest", "@spider": "corner_bakery_cafe", "amenity": "cafe", "cuisine": "coffee_shop", "takeaway": "yes", "addr:full": "23702-C El Toro Rd", "addr:city": "Lake Forest", "addr:state": "California", "addr:postcode": "92630", "addr:country": "US", "name": "Lake Forest", "phone": "(949) 472-1383", "website": "https://cornerbakerycafe.com/location/lake-forest", "opening_hours": "Mo-Su 07:30-19:30", "brand": "Corner Bakery Cafe", "brand:wikidata": "Q5171598", "nsi_id": "cornerbakery-243cad"}, "geometry": {"type": "Point", "coordinates": [-117.702567, 33.618059]}},
{"type": "Feature", "id": "P-2ubeYz4wZFVP5ehPlUzX-dBN4=", "properties": {"ref": "laguna-niguel", "@spider": "corner_bakery_cafe", "amenity": "cafe", "cuisine": "coffee_shop", "takeaway": "yes", "addr:full": "27221 LaPaz Rd", "addr:city": "Laguna Niguel", "addr:state": "California", "addr:postcode": "92677", "addr:country": "US", "name": "Laguna Niguel", "phone": "(949) 425-8673", "website": "https://cornerbakerycafe.com/location/laguna-niguel", "opening_hours": "Mo-Su 07:30-15:00", "brand": "Corner Bakery Cafe", "brand:wikidata": "Q5171598", "nsi_id": "cornerbakery-243cad"}, "geometry": {"type": "Point", "coordinates": [-117.708365, 33.568103]}},
{"type": "Feature", "id": "zAaZ5xST9-mYeWegGKZYzmTF8PQ=", "properties": {"ref": "la-habra", "@spider": "corner_bakery_cafe", "amenity": "cafe", "cuisine": "coffee_shop", "takeaway": "yes", "addr:full": "1040 W Imperial Hwy", "addr:city": "La Habra", "addr:state": "California", "addr:postcode": "90631", "addr:country": "US", "name": "La Habra", "phone": "(714) 459-1420", "website": "https://cornerbakerycafe.com/location/la-habra", "opening_hours": "Mo-Su 07:30-19:30", "brand": "Corner Bakery Cafe", "brand:wikidata": "Q5171598", "nsi_id": "cornerbakery-243cad"}, "geometry": {"type": "Point", "coordinates": [-117.958672, 33.917059]}},
{"type": "Feature", "id": "zdOk6aWmC8dWpDGEIK0BzYc2H-8=", "properties": {"ref": "irvine-marketplace", "@spider": "corner_bakery_cafe", "amenity": "cafe", "cuisine": "coffee_shop", "takeaway": "yes", "addr:full": "13786 Jamboree Rd", "addr:city": "Irvine", "addr:state": "California", "addr:postcode": "92602", "addr:country": "US", "name": "Irvine Marketplace", "phone": "(714) 734-8270", "website": "https://cornerbakerycafe.com/location/irvine-marketplace", "opening_hours": "Mo-Su 07:30-21:00", "brand": "Corner Bakery Cafe", "brand:wikidata": "Q5171598", "nsi_id": "cornerbakery-243cad"}, "geometry": {"type": "Point", "coordinates": [-117.790104, 33.722478]}},
{"type": "Feature", "id": "Vrf1gAqXMfu84ObxjdBpijEBzf8=", "properties": {"ref": "harvard-main", "@spider": "corner_bakery_cafe", "amenity": "cafe", "cuisine": "coffee_shop", "takeaway": "yes", "addr:full": "17575 Harvard Ave", "addr:city": "Irvine", "addr:state": "California", "addr:postcode": "92614", "addr:country": "US", "name": "Harvard & Main", "phone": "(949) 399-0999", "website": "https://cornerbakerycafe.com/location/harvard-main", "opening_hours": "Mo-Su 07:30-19:30", "brand": "Corner Bakery Cafe", "brand:wikidata": "Q5171598", "nsi_id": "cornerbakery-243cad"}, "geometry": {"type": "Point", "coordinates": [-117.831937, 33.677269]}},
{"type": "Feature", "id": "2nrCn9cPAhRRJY6kaFFu50PbLYw=", "properties": {"ref": "huntington-beach", "@spider": "corner_bakery_cafe", "amenity": "cafe", "cuisine": "coffee_shop", "takeaway": "yes", "addr:full": "7621 Edinger Ave", "addr:city": "Huntington  Beach", "addr:state": "California", "addr:postcode": "92647", "addr:country": "US", "name": "Huntington Beach", "phone": "(714) 891-8400", "website": "https://cornerbakerycafe.com/location/huntington-beach", "opening_hours": "Mo-Su 06:00-20:30", "brand": "Corner Bakery Cafe", "brand:wikidata": "Q5171598", "nsi_id": "cornerbakery-243cad"}, "geometry": {"type": "Point", "coordinates": [-117.995919, 33.730468]}},
{"type": "Feature", "id": "jZQ4gljErAARC3FeqWvpD3yzaes=", "properties": {"ref": "hacienda-heights", "@spider": "corner_bakery_cafe", "amenity": "cafe", "cuisine": "coffee_shop", "takeaway": "yes", "addr:full": "1697 S Azusa Ave", "addr:city": "Hacienda Heights", "addr:state": "California", "addr:postcode": "91745", "addr:country": "US", "name": "Hacienda Heights", "phone": "(626) 559-0460", "website": "https://cornerbakerycafe.com/location/hacienda-heights", "opening_hours": "Mo-Su 07:30-18:00", "brand": "Corner Bakery Cafe", "brand:wikidata": "Q5171598", "nsi_id": "cornerbakery-243cad"}, "geometry": {"type": "Point", "coordinates": [-117.93209, 33.99166]}},
{"type": "Feature", "id": "bg_nyiYl_qoAVSc85A-PC0Q5YbQ=", "properties": {"ref": "glendora", "@spider": "corner_bakery_cafe", "amenity": "cafe", "cuisine": "coffee_shop", "takeaway": "yes", "addr:full": "1385 E Gladstone St", "addr:city": "Glendora", "addr:state": "California", "addr:postcode": "91740", "addr:country": "US", "name": "Glendora", "phone": "(909) 305-2525", "website": "https://cornerbakerycafe.com/location/glendora", "opening_hours": "Mo-Su 07:30-19:00", "brand": "Corner Bakery Cafe", "brand:wikidata": "Q5171598", "nsi_id": "cornerbakery-243cad"}, "geometry": {"type": "Point", "coordinates": [-117.83569, 34.114176]}},
{"type": "Feature", "id": "JrVOErxvxAmkL9n19Ibtmd16KRQ=", "properties": {"ref": "park-crossing", "@spider": "corner_bakery_cafe", "amenity": "cafe", "cuisine": "coffee_shop", "takeaway": "yes", "addr:full": "8464 N Friant Rd", "addr:city": "Fresno", "addr:state": "California", "addr:postcode": "93720", "addr:country": "US", "name": "Park Crossing", "phone": "(559) 328-5991", "website": "https://cornerbakerycafe.com/location/park-crossing", "opening_hours": "Mo-Su 07:00-20:00", "brand": "Corner Bakery Cafe", "brand:wikidata": "Q5171598", "nsi_id": "cornerbakery-243cad"}, "geometry": {"type": "Point", "coordinates": [-119.78333, 36.858865]}},
{"type": "Feature", "id": "yp_NfnNwqJjbCfpN5kuFJ7qGVTQ=", "properties": {"ref": "fountain-valley", "@spider": "corner_bakery_cafe", "amenity": "cafe", "cuisine": "coffee_shop", "takeaway": "yes", "addr:full": "18315 Brookhurst St", "addr:city": "Fountain Valley", "addr:state": "California", "addr:postcode": "92708", "addr:country": "US", "name": "Fountain Valley", "phone": "(714) 861-4092", "website": "https://cornerbakerycafe.com/location/fountain-valley", "opening_hours": "Mo-Su 07:30-19:30", "brand": "Corner Bakery Cafe", "brand:wikidata": "Q5171598", "nsi_id": "cornerbakery-243cad"}, "geometry": {"type": "Point", "coordinates": [-117.954507, 33.696081]}},
{"type": "Feature", "id": "yGECABCo8ZCMp76WLSw5LsJKRck=", "properties": {"ref": "encino", "@spider": "corner_bakery_cafe", "amenity": "cafe", "cuisine": "coffee_shop", "takeaway": "yes", "addr:full": "15626 Ventura Blvd", "addr:city": "Encino", "addr:state": "California", "addr:postcode": "91436", "addr:country": "US", "name": "Encino", "phone": "(818) 981-7514", "website": "https://cornerbakerycafe.com/location/encino", "opening_hours": "Mo-Su 06:00-19:00", "brand": "Corner Bakery Cafe", "brand:wikidata": "Q5171598", "nsi_id": "cornerbakery-243cad"}, "geometry": {"type": "Point", "coordinates": [-118.474044, 34.154904]}},
{"type": "Feature", "id": "NiBk7Dtig8H-jHWaYtMURrgIGew=", "properties": {"ref": "south-coast-plaza-mall", "@spider": "corner_bakery_cafe", "amenity": "cafe", "cuisine": "coffee_shop", "takeaway": "yes", "addr:full": "3333 Bristol St", "addr:city": "Costa Mesa", "addr:state": "California", "addr:postcode": "92626", "addr:country": "US", "name": "South Coast Plaza Mall", "phone": "(714) 966-2404", "website": "https://cornerbakerycafe.com/location/south-coast-plaza-mall", "opening_hours": "Mo-Sa 09:30-20:00; Su 10:30-19:00", "brand": "Corner Bakery Cafe", "brand:wikidata": "Q5171598", "nsi_id": "cornerbakery-243cad"}, "geometry": {"type": "Point", "coordinates": [-117.888357, 33.689948]}},
{"type": "Feature", "id": "I5biYS00_pmVmfVWueXc_xLgZp0=", "properties": {"ref": "chino-hills", "@spider": "corner_bakery_cafe", "amenity": "cafe", "cuisine": "coffee_shop", "takeaway": "yes", "addr:full": "4517 Chino Hills Pkwy", "addr:city": "Chino Hills", "addr:state": "California", "addr:postcode": "91709", "addr:country": "US", "name": "Chino Hills", "phone": "(909) 597-7664", "website": "https://cornerbakerycafe.com/location/chino-hills", "opening_hours": "Mo-Fr 07:00-20:30; Sa-Su 07:00-20:00", "brand": "Corner Bakery Cafe", "brand:wikidata": "Q5171598", "nsi_id": "cornerbakery-243cad"}, "geometry": {"type": "Point", "coordinates": [-117.705716, 33.982436]}},
{"type": "Feature", "id": "Zz9r-ivdg-OZJzNruCyeY2gv-rQ=", "properties": {"ref": "carlsbad", "@spider": "corner_bakery_cafe", "amenity": "cafe", "cuisine": "coffee_shop", "takeaway": "yes", "addr:full": "5617 Paseo Del Norte", "addr:city": "Carlsbad", "addr:state": "California", "addr:postcode": "92008", "addr:country": "US", "name": "Carlsbad", "phone": "(760) 444-3105", "website": "https://cornerbakerycafe.com/location/carlsbad", "opening_hours": "Mo-Fr 07:00-20:00; Sa-Su 07:00-18:00", "brand": "Corner Bakery Cafe", "brand:wikidata": "Q5171598", "nsi_id": "cornerbakery-243cad"}, "geometry": {"type": "Point", "coordinates": [-117.323317, 33.125831]}},
{"type": "Feature", "id": "Gx2KvUo-bX8SPgHoy2s2-RUquL0=", "properties": {"ref": "burbank", "@spider": "corner_bakery_cafe", "amenity": "cafe", "cuisine": "coffee_shop", "takeaway": "yes", "addr:full": "800 N San Fernando Blvd", "addr:city": "Burbank", "addr:state": "California", "addr:postcode": "91502", "addr:country": "US", "name": "Burbank", "phone": "(818) 846-1256", "website": "https://cornerbakerycafe.com/location/burbank", "opening_hours": "Mo-Su 07:00-20:00", "brand": "Corner Bakery Cafe", "brand:wikidata": "Q5171598", "nsi_id": "cornerbakery-243cad"}, "geometry": {"type": "Point", "coordinates": [-118.315102, 34.185914]}},
{"type": "Feature", "id": "WFyQ6E0HE1TjXiBYezaVIk6ZSG8=", "properties": {"ref": "brea", "@spider": "corner_bakery_cafe", "amenity": "cafe", "cuisine": "coffee_shop", "takeaway": "yes", "addr:full": "103 W Imperial Hwy", "addr:city": "Brea", "addr:state": "California", "addr:postcode": "92821", "addr:country": "US", "name": "Brea", "phone": "(714) 257-9208", "website": "https://cornerbakerycafe.com/location/brea", "opening_hours": "Mo-Su 07:30-19:30", "brand": "Corner Bakery Cafe", "brand:wikidata": "Q5171598", "nsi_id": "cornerbakery-243cad"}, "geometry": {"type": "Point", "coordinates": [-117.900294, 33.917172]}}]}