{"type":"FeatureCollection","features":[{"type": "Feature", "id": "2OZzFXmZzk09En5icb0Ut6Pbnwc=", "properties": {"ref": "https://www.chghospitals.com/location/cornerstone-behavioral-health-el-dorado/", "@spider": "cornerstone_healthcare_group", "addr:full": "\u00a01400 N Wilmot Road", "addr:city": "Tucson", "addr:state": "AZ", "addr:postcode": "85712", "addr:country": "US", "name": "Cornerstone Behavioral Health El Dorado", "phone": "(520) 222-8268", "website": "https://www.chghospitals.com/location/cornerstone-behavioral-health-el-dorado/", "brand": "Cornerstone Healthcare Group"}, "geometry": {"type": "Point", "coordinates": [-110.855605, 32.240328]}},
{"type": "Feature", "id": "yZTtgIXVaT-bMTxhM0Ab2L2ISq8=", "properties": {"ref": "https://www.chghospitals.com/location/three-forks-of-forney/", "@spider": "cornerstone_healthcare_group", "addr:full": "335 S. FM 548", "addr:city": "Forney", "addr:state": "TX", "addr:postcode": "75126", "addr:country": "US", "name": "Three Forks of Forney", "phone": "(972) 552-3426", "website": "https://www.chghospitals.com/location/three-forks-of-forney/", "brand": "Cornerstone Healthcare Group"}, "geometry": {"type": "Point", "coordinates": [-96.457185, 32.733616]}},
{"type": "Feature", "id": "wz-K3h1nG_O3byJCaNT8p4ZTeqs=", "properties": {"ref": "https://www.chghospitals.com/location/stonehaven-assisted-living/", "@spider": "cornerstone_healthcare_group", "addr:full": "101 Olympia Drive", "addr:city": "Maumelle", "addr:state": "AR", "addr:postcode": "72113", "addr:country": "US", "name": "Stonehaven Assisted Living", "phone": "(501) 803-3335", "website": "https://www.chghospitals.com/location/stonehaven-assisted-living/", "brand": "Cornerstone Healthcare Group"}, "geometry": {"type": "Point", "coordinates": [-92.395204, 34.87436]}},
{"type": "Feature", "id": "_uaW2Hz41qzGcYwhGlTrIBxqUQQ=", "properties": {"ref": "https://www.chghospitals.com/location/trinity-timbers-of-longview/", "@spider": "cornerstone_healthcare_group", "addr:full": "3102 Gilmer Road", "addr:city": "Longview", "addr:state": "TX", "addr:postcode": "75604", "addr:country": "US", "name": "Trinity Timbers of Longview", "phone": "(903) 295-7570", "website": "https://www.chghospitals.com/location/trinity-timbers-of-longview/", "brand": "Cornerstone Healthcare Group"}, "geometry": {"type": "Point", "coordinates": [-94.793972, 32.543112]}},
{"type": "Feature", "id": "OCuxeQlwjyrwWjI8rmC6T7uQ4FE=", "properties": {"ref": "https://www.chghospitals.com/location/chisolm-trail-estates-of-keene/", "@spider": "cornerstone_healthcare_group", "addr:full": "513 S. Old Betsy Road", "addr:city": "Keene", "addr:state": "TX", "addr:postcode": "76059", "addr:country": "US", "name": "Chisolm Trail Estates of Keene", "phone": "(817) 556-9100", "website": "https://www.chghospitals.com/location/chisolm-trail-estates-of-keene/", "brand": "Cornerstone Healthcare Group"}, "geometry": {"type": "Point", "coordinates": [-97.334942, 32.386385]}},
{"type": "Feature", "id": "Fw1c60w4cwoSJr2jl748xwhWI-c=", "properties": {"ref": "https://www.chghospitals.com/location/crystal-creek-at-preston-hollow/", "@spider": "cornerstone_healthcare_group", "addr:full": "11409 N. Central Expressway", "addr:city": "Dallas", "addr:state": "TX", "addr:postcode": "75243", "addr:country": "US", "name": "Crystal Creek at Preston Hollow", "phone": "(214) 363-5100", "website": "https://www.chghospitals.com/location/crystal-creek-at-preston-hollow/", "brand": "Cornerstone Healthcare Group"}, "geometry": {"type": "Point", "coordinates": [-96.770073, 32.904993]}},
{"type": "Feature", "id": "vMKUy0vPm_WkvNaYIKuNuPirYdo=", "properties": {"ref": "https://www.chghospitals.com/location/trinity-oaks-of-pearland/", "@spider": "cornerstone_healthcare_group", "addr:full": "3033 Pearland Parkway", "addr:city": "Pearland", "addr:state": "TX", "addr:postcode": "77581", "addr:country": "US", "name": "Trinity Oaks of Pearland", "phone": "(281) 997-8880", "website": "https://www.chghospitals.com/location/trinity-oaks-of-pearland/", "brand": "Cornerstone Healthcare Group"}, "geometry": {"type": "Point", "coordinates": [-95.265802, 29.552166]}},
{"type": "Feature", "id": "CsBSc0xtE4CNCiaWbpIAeNTlmQY=", "properties": {"ref": "https://www.chghospitals.com/location/trinity-hills-of-knoxville/", "@spider": "cornerstone_healthcare_group", "addr:full": "4611 Asheville Highway", "addr:city": "Knoxville", "addr:state": "TN", "addr:postcode": "37914", "addr:country": "US", "name": "Trinity Hills of Knoxville", "phone": "(865) 329-3292", "website": "https://www.chghospitals.com/location/trinity-hills-of-knoxville/", "brand": "Cornerstone Healthcare Group"}, "geometry": {"type": "Point", "coordinates": [-83.860503, 36.007356]}},
{"type": "Feature", "id": "LQsTiGTHCKPhxfbrwFaXeq3hE0Q=", "properties": {"ref": "https://www.chghospitals.com/location/trinity-shores-of-port-lavaca/", "@spider": "cornerstone_healthcare_group", "addr:full": "201 Trinity Shores Drive", "addr:city": "Port Lavaca", "addr:state": "TX", "addr:postcode": "77979", "addr:country": "US", "name": "Trinity Shores of Port Lavaca", "phone": "(361) 552-2333", "website": "https://www.chghospitals.com/location/trinity-shores-of-port-lavaca/", "brand": "Cornerstone Healthcare Group"}, "geometry": {"type": "Point", "coordinates": [-96.64187, 28.63088]}},
{"type": "Feature", "id": "Ssnx5N9kTMNhrg8MOlLFS-53vWM=", "properties": {"ref": "https://www.chghospitals.com/location/cornerstone-specialty-hospitals-austin/", "@spider": "cornerstone_healthcare_group", "addr:full": "4207 Burnet Road", "addr:city": "Austin", "addr:state": "TX", "addr:postcode": "78756", "addr:country": "US", "name": "Cornerstone Specialty Hospitals Austin", "phone": "(512) 706-1900", "website": "https://www.chghospitals.com/location/cornerstone-specialty-hospitals-austin/", "brand": "Cornerstone Healthcare Group"}, "geometry": {"type": "Point", "coordinates": [-97.743336, 30.312962]}},
{"type": "Feature", "id": "wGGiMwWwQjo5itQ_ECsZc60GhTI=", "properties": {"ref": "https://www.chghospitals.com/location/solara-specialty-hospitals-brownsville/", "@spider": "cornerstone_healthcare_group", "addr:full": "333 Lorenaly Drive", "addr:city": "Brownsville", "addr:state": "TX", "addr:postcode": "78520", "addr:country": "US", "name": "Solara Specialty Hospitals Brownsville", "phone": "(956) 546-0808", "website": "https://www.chghospitals.com/location/solara-specialty-hospitals-brownsville/", "brand": "Cornerstone Healthcare Group"}, "geometry": {"type": "Point", "coordinates": [-97.510126, 25.974126]}},
{"type": "Feature", "id": "CnOG_4uWgfqX316iB17Mvcnpbv8=", "properties": {"ref": "https://www.chghospitals.com/location/cornerstone-specialty-hospitals-conroe/", "@spider": "cornerstone_healthcare_group", "addr:full": "1500 Grand Lake Drive", "addr:city": "Conroe", "addr:state": "TX", "addr:postcode": "77304", "addr:country": "US", "name": "Cornerstone Specialty Hospitals Conroe", "phone": "\u00a0(936) 523-1800", "website": "https://www.chghospitals.com/location/cornerstone-specialty-hospitals-conroe/", "brand": "Cornerstone Healthcare Group"}, "geometry": {"type": "Point", "coordinates": [-95.465762, 30.282231]}},
{"type": "Feature", "id": "5PdkCUUzUAkkP1fczyhkdLpV1fE=", "properties": {"ref": "https://www.chghospitals.com/location/solara-specialty-hospitals-harlingen/", "@spider": "cornerstone_healthcare_group", "addr:full": "508 Victoria Lane", "addr:city": "Harlingen", "addr:state": "TX", "addr:postcode": "78550", "addr:country": "US", "name": "Solara Specialty Hospitals Harlingen", "phone": "(956) 425-9600", "website": "https://www.chghospitals.com/location/solara-specialty-hospitals-harlingen/", "brand": "Cornerstone Healthcare Group"}, "geometry": {"type": "Point", "coordinates": [-97.672643, 26.160092]}},
{"type": "Feature", "id": "VKtVye6RABU3S9lnMYe2BiOxRAs=", "properties": {"ref": "https://www.chghospitals.com/location/solara-specialty-hospitals-mcallen/", "@spider": "cornerstone_healthcare_group", "addr:full": "301 West Expressway 83, 8th Floor", "addr:city": "McAllen", "addr:state": "TX", "addr:postcode": "78503", "addr:country": "US", "name": "Solara Specialty Hospitals McAllen", "phone": "(956) 632-4880", "website": "https://www.chghospitals.com/location/solara-specialty-hospitals-mcallen/", "brand": "Cornerstone Healthcare Group"}, "geometry": {"type": "Point", "coordinates": [-98.225932, 26.186928]}},
{"type": "Feature", "id": "XIm0VYDiCOW3y8GupbICJnriydw=", "properties": {"ref": "https://www.chghospitals.com/location/cornerstone-specialty-hospitals-round-rock/", "@spider": "cornerstone_healthcare_group", "addr:full": "4681 College Park Drive", "addr:city": "Round Rock", "addr:state": "TX", "addr:postcode": "78665", "addr:country": "US", "name": "Cornerstone Specialty Hospitals Round Rock", "phone": "(512) 671-1100", "website": "https://www.chghospitals.com/location/cornerstone-specialty-hospitals-round-rock/", "brand": "Cornerstone Healthcare Group"}, "geometry": {"type": "Point", "coordinates": [-97.657566, 30.566902]}},
{"type": "Feature", "id": "9oyzZ2BqqJ1kPtDAVtwvburzeb0=", "properties": {"ref": "https://www.chghospitals.com/location/cornerstone-specialty-hospitals-bossier-city/", "@spider": "cornerstone_healthcare_group", "addr:full": "4900 Medical Drive", "addr:city": "Bossier City", "addr:state": "LA", "addr:postcode": "71112", "addr:country": "US", "name": "Cornerstone Specialty Hospitals Bossier City", "phone": "(318) 747-9500", "website": "https://www.chghospitals.com/location/cornerstone-specialty-hospitals-bossier-city/", "brand": "Cornerstone Healthcare Group"}, "geometry": {"type": "Point", "coordinates": [-93.669728, 32.461085]}},
{"type": "Feature", "id": "aRT5GleIJWrGaM1Rc6RO6kcpe4o=", "properties": {"ref": "https://www.chghospitals.com/location/cornerstone-specialty-hospitals-southwest-louisiana/", "@spider": "cornerstone_healthcare_group", "addr:full": "524 Dr. Michael Debakey Drive., 3rd floor", "addr:city": "Lake Charles", "addr:state": "LA", "addr:postcode": "70601", "addr:country": "US", "name": "Cornerstone Specialty Hospitals Southwest Louisiana", "phone": "(337) 310-6000", "website": "https://www.chghospitals.com/location/cornerstone-specialty-hospitals-southwest-louisiana/", "brand": "Cornerstone Healthcare Group"}, "geometry": {"type": "Point", "coordinates": [-93.22781, 30.216474]}},
{"type": "Feature", "id": "in-ruYDx6xYr-TKrNUKlHBtX2UI=", "properties": {"ref": "https://www.chghospitals.com/location/cornerstone-specialty-hospitals-west-monroe/", "@spider": "cornerstone_healthcare_group", "addr:full": "6198 Cypress Street", "addr:city": "West Monroe", "addr:state": "LA", "addr:postcode": "71291", "addr:country": "US", "name": "Cornerstone Specialty Hospitals West Monroe", "phone": "\u00a0(318) 396-5600", "website": "https://www.chghospitals.com/location/cornerstone-specialty-hospitals-west-monroe/", "brand": "Cornerstone Healthcare Group"}, "geometry": {"type": "Point", "coordinates": [-92.204451, 32.516104]}},
{"type": "Feature", "id": "LT6feB-j2rYZlzza5VStLCArERU=", "properties": {"ref": "https://www.chghospitals.com/location/cornerstone-specialty-hospitals-broken-arrow/", "@spider": "cornerstone_healthcare_group", "addr:full": "1000 West Boise Circle, 3rd Floor", "addr:city": "Broken Arrow", "addr:state": "OK", "addr:postcode": "74012", "addr:country": "US", "name": "Cornerstone Specialty Hospitals Broken Arrow", "phone": "(918) 994-8300", "website": "https://www.chghospitals.com/location/cornerstone-specialty-hospitals-broken-arrow/", "brand": "Cornerstone Healthcare Group"}, "geometry": {"type": "Point", "coordinates": [-95.800712, 36.0783]}},
{"type": "Feature", "id": "yTD5MQ9dv5Zyrrij8KJX37wJ__8=", "properties": {"ref": "https://www.chghospitals.com/location/cornerstone-specialty-hospitals-muskogee/", "@spider": "cornerstone_healthcare_group", "addr:full": "351 South 40th Street", "addr:city": "Muskogee", "addr:state": "OK", "addr:postcode": "74401", "addr:country": "US", "name": "Cornerstone Specialty Hospitals Muskogee", "phone": "(918) 682-6161", "website": "https://www.chghospitals.com/location/cornerstone-specialty-hospitals-muskogee/", "brand": "Cornerstone Healthcare Group"}, "geometry": {"type": "Point", "coordinates": [-95.412164, 35.752183]}},
{"type": "Feature", "id": "HGZq5bN8PLgclJrltv15khUvpqw=", "properties": {"ref": "https://www.chghospitals.com/location/cornerstone-specialty-hospitals-shawnee/", "@spider": "cornerstone_healthcare_group", "addr:full": "1900 Gordon Cooper", "addr:city": "Shawnee", "addr:state": "OK", "addr:postcode": "74801", "addr:country": "US", "name": "Cornerstone Specialty Hospitals Shawnee", "phone": "(405) 395-5800", "website": "https://www.chghospitals.com/location/cornerstone-specialty-hospitals-shawnee/", "brand": "Cornerstone Healthcare Group"}, "geometry": {"type": "Point", "coordinates": [-96.925864, 35.299096]}},
{"type": "Feature", "id": "BsFbNVlzGEKDbbIAfwMHcy1fHAQ=", "properties": {"ref": "https://www.chghospitals.com/location/cornerstone-specialty-hospitals-tucson/", "@spider": "cornerstone_healthcare_group", "addr:full": "7220 East Rosewood Street", "addr:city": "Tucson", "addr:state": "AZ", "addr:postcode": "85710", "addr:country": "US", "name": "Cornerstone Specialty Hospitals Southeast Arizona", "phone": "(520) 546-4595", "website": "https://www.chghospitals.com/location/cornerstone-specialty-hospitals-tucson/", "brand": "Cornerstone Healthcare Group"}, "geometry": {"type": "Point", "coordinates": [-110.838011, 32.231239]}},
{"type": "Feature", "id": "j3hTGLO3qXfpBsJVqATCmhkXYR4=", "properties": {"ref": "https://www.chghospitals.com/location/cornerstone-specialty-hospitals-little-rock/", "@spider": "cornerstone_healthcare_group", "addr:full": "2 St Vincent Circle, 6th Floor", "addr:city": "Little Rock", "addr:state": "AR", "addr:postcode": "72205", "addr:country": "US", "name": "Cornerstone Specialty Hospitals Little Rock", "phone": "(501) 265-0600", "website": "https://www.chghospitals.com/location/cornerstone-specialty-hospitals-little-rock/", "brand": "Cornerstone Healthcare Group"}, "geometry": {"type": "Point", "coordinates": [-92.339586, 34.750033]}},
{"type": "Feature", "id": "R4jGdt1n8wmbZinu5UqNlBUNqzE=", "properties": {"ref": "https://www.chghospitals.com/location/cornerstone-specialty-hospitals-huntington/", "@spider": "cornerstone_healthcare_group", "addr:full": "2900 First Avenue, Two East", "addr:city": "Huntington", "addr:state": "WV", "addr:postcode": "25702", "addr:country": "US", "name": "Cornerstone Specialty Hospitals Huntington", "phone": "(304) 399-2600", "website": "https://www.chghospitals.com/location/cornerstone-specialty-hospitals-huntington/", "brand": "Cornerstone Healthcare Group"}, "geometry": {"type": "Point", "coordinates": [-82.400626, 38.432599]}}]}