{"type":"FeatureCollection","features":[{"type": "Feature", "id": "24umWj4NbMfy9yl-m_eW8Ix-Cc8=", "properties": {"ref": "sd_sioux-falls_2804-s-louise-ave", "@spider": "costplus_worldmarket", "official_name": "Cost Plus World Market", "shop": "interior_decoration", "addr:full": "2804 S Louise Ave", "addr:city": "Sioux Falls", "addr:state": "SD", "addr:postcode": "57106-4300", "name": "World Market Sioux Falls", "phone": "(605) 323-1500", "website": "https://stores.worldmarket.com/sd/sioux-falls/2804-s-louise-ave.html", "opening_hours": "Mo-Sa 10:00-20:00; Su 11:00-18:00", "brand": "Cost Plus World Market", "brand:wikidata": "Q5174750", "nsi_id": "worldmarket-18147c"}, "geometry": {"type": "Point", "coordinates": [-96.77026169999999, 43.5202704]}},
{"type": "Feature", "id": "t6b-rdNVcsGaFdWyJRsYBd5eHlI=", "properties": {"ref": "pa_lansdale_751-horsham-road", "@spider": "costplus_worldmarket", "official_name": "Cost Plus World Market", "shop": "interior_decoration", "addr:full": "751 Horsham Road Unit B2", "addr:city": "Lansdale", "addr:state": "PA", "addr:postcode": "19446", "name": "World Market Montgomeryville", "phone": "(215) 368-7545", "website": "https://stores.worldmarket.com/pa/lansdale/751-horsham-road.html", "opening_hours": "Mo-Sa 10:00-20:00; Su 11:00-18:00", "brand": "Cost Plus World Market", "brand:wikidata": "Q5174750", "nsi_id": "worldmarket-18147c"}, "geometry": {"type": "Point", "coordinates": [-75.241077, 40.2475838]}},
{"type": "Feature", "id": "BgMn2o3GRQYoFsyJWy2cV1z1M14=", "properties": {"ref": "nh_salem_290-south-broadway", "@spider": "costplus_worldmarket", "official_name": "Cost Plus World Market", "shop": "interior_decoration", "addr:full": "290 South Broadway Unit 3B", "addr:city": "Salem", "addr:state": "NH", "addr:postcode": "03079", "name": "World Market Village Shoppes at Salem", "phone": "(603) 824-3668", "website": "https://stores.worldmarket.com/nh/salem/290-south-broadway.html", "opening_hours": "Mo-Sa 10:00-20:00; Su 11:00-18:00", "brand": "Cost Plus World Market", "brand:wikidata": "Q5174750", "nsi_id": "worldmarket-18147c"}, "geometry": {"type": "Point", "coordinates": [-71.214183, 42.7574066]}},
{"type": "Feature", "id": "cWiIeiyhkGMzuOaj6gpoDi5IRmU=", "properties": {"ref": "wi_middleton_1700-deming-way", "@spider": "costplus_worldmarket", "official_name": "Cost Plus World Market", "shop": "interior_decoration", "addr:full": "1700 Deming Way Suite 110", "addr:city": "Middleton", "addr:state": "WI", "addr:postcode": "53562", "name": "World Market Middleton", "phone": "(608) 829-1020", "website": "https://stores.worldmarket.com/wi/middleton/1700-deming-way.html", "opening_hours": "Mo-Sa 10:00-20:00; Su 11:00-18:00", "brand": "Cost Plus World Market", "brand:wikidata": "Q5174750", "nsi_id": "worldmarket-18147c"}, "geometry": {"type": "Point", "coordinates": [-89.5281806588172, 43.0927706855417]}},
{"type": "Feature", "id": "fBSyj6IN2CDSeUKxtOGx1tfr3ho=", "properties": {"ref": "wa_woodinville_13990-ne-mill-place", "@spider": "costplus_worldmarket", "official_name": "Cost Plus World Market", "shop": "interior_decoration", "addr:full": "13990 NE Mill Place", "addr:city": "Woodinville", "addr:state": "WA", "addr:postcode": "98072", "name": "World Market Woodinville", "phone": "(425) 424-3214", "website": "https://stores.worldmarket.com/wa/woodinville/13990-ne-mill-place.html", "opening_hours": "Mo-Sa 10:00-20:00; Su 11:00-18:00", "brand": "Cost Plus World Market", "brand:wikidata": "Q5174750", "nsi_id": "worldmarket-18147c"}, "geometry": {"type": "Point", "coordinates": [-122.15331691510067, 47.75718222915483]}},
{"type": "Feature", "id": "44fvZFzYeuVF5EnhjkOzIHkbjcY=", "properties": {"ref": "va_williamsburg_5225-settlers-market-blvd", "@spider": "costplus_worldmarket", "official_name": "Cost Plus World Market", "shop": "interior_decoration", "addr:full": "5225 Settlers Market Blvd Suite 190", "addr:city": "Williamsburg", "addr:state": "VA", "addr:postcode": "23188", "name": "World Market Williamsburg", "phone": "(757) 229-1461", "website": "https://stores.worldmarket.com/va/williamsburg/5225-settlers-market-blvd.html", "opening_hours": "Mo-Fr 11:00-19:00; Sa 10:00-20:00; Su 11:00-18:00", "brand": "Cost Plus World Market", "brand:wikidata": "Q5174750", "nsi_id": "worldmarket-18147c"}, "geometry": {"type": "Point", "coordinates": [-76.7516939342021, 37.2783512923243]}},
{"type": "Feature", "id": "R0hFNfflQN-fOQ8zKQaocBSYbz4=", "properties": {"ref": "ut_park-city_1688-uinta-way", "@spider": "costplus_worldmarket", "official_name": "Cost Plus World Market", "shop": "interior_decoration", "addr:full": "1688 Uinta Way Suite C", "addr:city": "Park City", "addr:state": "UT", "addr:postcode": "84098", "name": "World Market Park City", "phone": "(435) 940-9480", "website": "https://stores.worldmarket.com/ut/park-city/1688-uinta-way.html", "opening_hours": "Mo-Sa 10:00-19:00; Su 11:00-18:00", "brand": "Cost Plus World Market", "brand:wikidata": "Q5174750", "nsi_id": "worldmarket-18147c"}, "geometry": {"type": "Point", "coordinates": [-111.5407888, 40.722357]}},
{"type": "Feature", "id": "MCEsLX2mJA3mgfe_O4-IHNETr54=", "properties": {"ref": "tx_webster_1001-west-bay-area-blvd", "@spider": "costplus_worldmarket", "official_name": "Cost Plus World Market", "shop": "interior_decoration", "addr:full": "1001 West Bay Area Blvd #C", "addr:city": "Webster", "addr:state": "TX", "addr:postcode": "77598", "name": "World Market Webster", "phone": "(281) 316-1069", "website": "https://stores.worldmarket.com/tx/webster/1001-west-bay-area-blvd.html", "opening_hours": "Mo-Sa 10:00-20:00; Su 11:00-18:00", "brand": "Cost Plus World Market", "brand:wikidata": "Q5174750", "nsi_id": "worldmarket-18147c"}, "geometry": {"type": "Point", "coordinates": [-95.1368460211415, 29.5402518264985]}},
{"type": "Feature", "id": "DqGVDhhek9wDUO5S8EqHGBPB4GM=", "properties": {"ref": "tn_nashville_6728-charlotte-pike", "@spider": "costplus_worldmarket", "official_name": "Cost Plus World Market", "shop": "interior_decoration", "addr:full": "6728 Charlotte Pike", "addr:city": "Nashville", "addr:state": "TN", "addr:postcode": "37209", "name": "World Market Nashville West", "phone": "(615) 356-0160", "website": "https://stores.worldmarket.com/tn/nashville/6728-charlotte-pike.html", "opening_hours": "Mo-Sa 10:00-20:00; Su 11:00-18:00", "brand": "Cost Plus World Market", "brand:wikidata": "Q5174750", "nsi_id": "worldmarket-18147c"}, "geometry": {"type": "Point", "coordinates": [-86.8897640705108, 36.1371035642899]}},
{"type": "Feature", "id": "EOe3RUQM911LIJ2yqdztwG2B3YA=", "properties": {"ref": "tn_murfreesboro_2615-medical-center-pkwy", "@spider": "costplus_worldmarket", "official_name": "Cost Plus World Market", "shop": "interior_decoration", "addr:full": "2615 Medical Center Pkwy Unit 2400", "addr:city": "Murfreesboro", "addr:state": "TN", "addr:postcode": "37129", "name": "World Market Murfreesboro", "phone": "(615) 898-1393", "website": "https://stores.worldmarket.com/tn/murfreesboro/2615-medical-center-pkwy.html", "opening_hours": "Mo-Sa 10:00-20:00; Su 11:00-18:00", "brand": "Cost Plus World Market", "brand:wikidata": "Q5174750", "nsi_id": "worldmarket-18147c"}, "geometry": {"type": "Point", "coordinates": [-86.444771, 35.859614]}},
{"type": "Feature", "id": "BClQMtWULFSJOvw5OmasVIlaw0E=", "properties": {"ref": "sc_summerville_460-azalea-square-blvd", "@spider": "costplus_worldmarket", "official_name": "Cost Plus World Market", "shop": "interior_decoration", "addr:full": "460 Azalea Square Blvd", "addr:city": "Summerville", "addr:state": "SC", "addr:postcode": "29483", "name": "World Market Summerville", "phone": "(843) 875-0042", "website": "https://stores.worldmarket.com/sc/summerville/460-azalea-square-blvd.html", "opening_hours": "Mo-Sa 10:00-20:00; Su 11:00-18:00", "brand": "Cost Plus World Market", "brand:wikidata": "Q5174750", "nsi_id": "worldmarket-18147c"}, "geometry": {"type": "Point", "coordinates": [-80.1564577, 33.0406358]}},
{"type": "Feature", "id": "nSgb_-dAVDcbNZhPfMUV-cnKZ08=", "properties": {"ref": "sc_myrtle-beach_1144-seaboard-street", "@spider": "costplus_worldmarket", "official_name": "Cost Plus World Market", "shop": "interior_decoration", "addr:full": "1144 Seaboard Street", "addr:city": "Myrtle Beach", "addr:state": "SC", "addr:postcode": "29577", "name": "World Market Myrtle Beach", "phone": "(843) 448-6064", "website": "https://stores.worldmarket.com/sc/myrtle-beach/1144-seaboard-street.html", "opening_hours": "Mo-Sa 10:00-20:00; Su 11:00-18:00", "brand": "Cost Plus World Market", "brand:wikidata": "Q5174750", "nsi_id": "worldmarket-18147c"}, "geometry": {"type": "Point", "coordinates": [-78.8938629627227, 33.7122286792831]}},
{"type": "Feature", "id": "p0HaUj3vCleNimLrVKZOYc9VGcA=", "properties": {"ref": "or_tigard_10108-sw-washington-square-road", "@spider": "costplus_worldmarket", "official_name": "Cost Plus World Market", "shop": "interior_decoration", "addr:full": "10108 SW Washington Square Road", "addr:city": "Tigard", "addr:state": "OR", "addr:postcode": "97223", "name": "World Market Tigard", "phone": "(503) 968-2060", "website": "https://stores.worldmarket.com/or/tigard/10108-sw-washington-square-road.html", "opening_hours": "Mo-Sa 10:00-20:00; Su 11:00-18:00", "brand": "Cost Plus World Market", "brand:wikidata": "Q5174750", "nsi_id": "worldmarket-18147c"}, "geometry": {"type": "Point", "coordinates": [-122.7782764, 45.4473213]}},
{"type": "Feature", "id": "Zx5CJbfodljncoM6BiHQVzQ9nIY=", "properties": {"ref": "ok_tulsa_5356-e--skelly-drive", "@spider": "costplus_worldmarket", "official_name": "Cost Plus World Market", "shop": "interior_decoration", "addr:full": "5356 E. Skelly Drive", "addr:city": "Tulsa", "addr:state": "OK", "addr:postcode": "74135", "name": "World Market Midtown Village", "phone": "(918) 879-0060", "website": "https://stores.worldmarket.com/ok/tulsa/5356-e--skelly-drive.html", "opening_hours": "Mo-Sa 10:00-20:00; Su 11:00-18:00", "brand": "Cost Plus World Market", "brand:wikidata": "Q5174750", "nsi_id": "worldmarket-18147c"}, "geometry": {"type": "Point", "coordinates": [-95.9152459, 36.0978118]}},
{"type": "Feature", "id": "MYj5q33DiFyesyeLKzGec5Ph3uc=", "properties": {"ref": "oh_westlake_307-main-street", "@spider": "costplus_worldmarket", "official_name": "Cost Plus World Market", "shop": "interior_decoration", "addr:full": "307 Main Street", "addr:city": "Westlake", "addr:state": "OH", "addr:postcode": "44145", "name": "World Market Crocker Park", "phone": "(440) 414-0075", "website": "https://stores.worldmarket.com/oh/westlake/307-main-street.html", "opening_hours": "Mo-Sa 10:00-21:00; Su 00:00-18:00", "brand": "Cost Plus World Market", "brand:wikidata": "Q5174750", "nsi_id": "worldmarket-18147c"}, "geometry": {"type": "Point", "coordinates": [-81.9511528, 41.4562275]}},
{"type": "Feature", "id": "6bXYlk8O685QwZnVCjCCTrP7CLk=", "properties": {"ref": "nc_wilmington_820-inspiration-drive", "@spider": "costplus_worldmarket", "official_name": "Cost Plus World Market", "shop": "interior_decoration", "addr:full": "820 Inspiration Drive", "addr:city": "Wilmington", "addr:state": "NC", "addr:postcode": "28405", "name": "World Market Wilmington", "phone": "(910) 509-9969", "website": "https://stores.worldmarket.com/nc/wilmington/820-inspiration-drive.html", "opening_hours": "Mo-Sa 10:00-20:00; Su 11:00-18:00", "brand": "Cost Plus World Market", "brand:wikidata": "Q5174750", "nsi_id": "worldmarket-18147c"}, "geometry": {"type": "Point", "coordinates": [-77.8300477, 34.2444213]}},
{"type": "Feature", "id": "gyj9MRMTXtn-0qF1muD1daE8T88=", "properties": {"ref": "nm_santa-fe_4250-cerrillos-road", "@spider": "costplus_worldmarket", "official_name": "Cost Plus World Market", "shop": "interior_decoration", "addr:full": "4250 Cerrillos Road Suite 1220", "addr:city": "Santa Fe", "addr:state": "NM", "addr:postcode": "87507", "name": "World Market Santa Fe", "phone": "(505) 424-6077", "website": "https://stores.worldmarket.com/nm/santa-fe/4250-cerrillos-road.html", "opening_hours": "Mo-Sa 10:00-20:00; Su 11:00-18:00", "brand": "Cost Plus World Market", "brand:wikidata": "Q5174750", "nsi_id": "worldmarket-18147c"}, "geometry": {"type": "Point", "coordinates": [-106.012947, 35.6366797]}},
{"type": "Feature", "id": "CTR8K6W_g7RKSjsyC0YSf_vKAy8=", "properties": {"ref": "nj_woodland-park_1730-us-route-46", "@spider": "costplus_worldmarket", "official_name": "Cost Plus World Market", "shop": "interior_decoration", "addr:full": "1730 US Route 46", "addr:city": "Woodland Park", "addr:state": "NJ", "addr:postcode": "07424", "name": "World Market West Falls Plaza", "phone": "(973) 435-9026", "website": "https://stores.worldmarket.com/nj/woodland-park/1730-us-route-46.html", "opening_hours": "Mo-Sa 10:00-20:00; Su 11:00-18:00", "brand": "Cost Plus World Market", "brand:wikidata": "Q5174750", "nsi_id": "worldmarket-18147c"}, "geometry": {"type": "Point", "coordinates": [-74.21494361838523, 40.88807733074594]}},
{"type": "Feature", "id": "eWIAs_EZzaAG7aiUQaIzPNONnKE=", "properties": {"ref": "nj_shrewsbury_490-broad-street", "@spider": "costplus_worldmarket", "official_name": "Cost Plus World Market", "shop": "interior_decoration", "addr:full": "490 Broad Street", "addr:city": "Shrewsbury", "addr:state": "NJ", "addr:postcode": "07702", "name": "World Market Shrewsbury", "phone": "(732) 530-2863", "website": "https://stores.worldmarket.com/nj/shrewsbury/490-broad-street.html", "opening_hours": "Mo-Sa 10:00-20:00; Su 11:00-18:00", "brand": "Cost Plus World Market", "brand:wikidata": "Q5174750", "nsi_id": "worldmarket-18147c"}, "geometry": {"type": "Point", "coordinates": [-74.0637584, 40.335201]}},
{"type": "Feature", "id": "8w_-L5lpX-aE2BfILRIBOOfBSR0=", "properties": {"ref": "nj_livingston_530-w-mt-pleasant-ave", "@spider": "costplus_worldmarket", "official_name": "Cost Plus World Market", "shop": "interior_decoration", "addr:full": "530 W Mt Pleasant Ave", "addr:city": "Livingston", "addr:state": "NJ", "addr:postcode": "07039", "name": "World Market Livingston", "phone": "(973) 533-7439", "website": "https://stores.worldmarket.com/nj/livingston/530-w-mt-pleasant-ave.html", "opening_hours": "Mo-Sa 10:00-20:00; Su 11:00-18:00", "brand": "Cost Plus World Market", "brand:wikidata": "Q5174750", "nsi_id": "worldmarket-18147c"}, "geometry": {"type": "Point", "coordinates": [-74.3475628, 40.7994947]}},
{"type": "Feature", "id": "2_sOVg4z5hF7Tgw996hs5sRCxdU=", "properties": {"ref": "nc_raleigh_5900-poyner-anchor-lane", "@spider": "costplus_worldmarket", "official_name": "Cost Plus World Market", "shop": "interior_decoration", "addr:full": "5900 Poyner Anchor Lane Suite 121", "addr:city": "Raleigh", "addr:state": "NC", "addr:postcode": "27616", "name": "World Market Raleigh", "phone": "(919) 954-4833", "website": "https://stores.worldmarket.com/nc/raleigh/5900-poyner-anchor-lane.html", "opening_hours": "Mo-Fr 11:00-20:00; Sa 10:00-20:00; Su 11:00-18:00", "brand": "Cost Plus World Market", "brand:wikidata": "Q5174750", "nsi_id": "worldmarket-18147c"}, "geometry": {"type": "Point", "coordinates": [-78.5677459, 35.8639061]}},
{"type": "Feature", "id": "WjCiDJVAP9RDcnyaetk3qyIkw6E=", "properties": {"ref": "nc_mooresville_590k-river-highway", "@spider": "costplus_worldmarket", "official_name": "Cost Plus World Market", "shop": "interior_decoration", "addr:full": "590K River Highway Suite K", "addr:city": "Mooresville", "addr:state": "NC", "addr:postcode": "28117", "name": "World Market Mooresville", "phone": "(704) 658-1730", "website": "https://stores.worldmarket.com/nc/mooresville/590k-river-highway.html", "opening_hours": "Mo-Sa 10:00-20:00; Su 11:00-18:00", "brand": "Cost Plus World Market", "brand:wikidata": "Q5174750", "nsi_id": "worldmarket-18147c"}, "geometry": {"type": "Point", "coordinates": [-80.8702857, 35.5982217]}},
{"type": "Feature", "id": "HkV7p0KWs7l1Bi8tqMiZHwvL5PA=", "properties": {"ref": "nc_matthews_10530-northeast-parkway", "@spider": "costplus_worldmarket", "official_name": "Cost Plus World Market", "shop": "interior_decoration", "addr:full": "10530 Northeast Parkway Suite L", "addr:city": "Matthews", "addr:state": "NC", "addr:postcode": "28105", "name": "World Market Matthews", "phone": "(704) 849-2004", "website": "https://stores.worldmarket.com/nc/matthews/10530-northeast-parkway.html", "opening_hours": "Mo-Sa 10:00-20:00; Su 11:00-18:00", "brand": "Cost Plus World Market", "brand:wikidata": "Q5174750", "nsi_id": "worldmarket-18147c"}, "geometry": {"type": "Point", "coordinates": [-80.7012027, 35.130877]}},
{"type": "Feature", "id": "7vrpKcnwUQB_ScopNCyQRq_RPKo=", "properties": {"ref": "nc_greensboro_4526-w--wendover-avenue", "@spider": "costplus_worldmarket", "official_name": "Cost Plus World Market", "shop": "interior_decoration", "addr:full": "4526 W. Wendover Avenue Suite 102", "addr:city": "Greensboro", "addr:state": "NC", "addr:postcode": "27409", "name": "World Market Wendover Commons", "phone": "(336) 609-5353", "website": "https://stores.worldmarket.com/nc/greensboro/4526-w--wendover-avenue.html", "opening_hours": "Mo-Sa 10:00-20:00; Su 11:00-18:00", "brand": "Cost Plus World Market", "brand:wikidata": "Q5174750", "nsi_id": "worldmarket-18147c"}, "geometry": {"type": "Point", "coordinates": [-79.909064, 36.054691]}},
{"type": "Feature", "id": "gFRwBZ5i7KtC0RxsfHiZSWtCar4=", "properties": {"ref": "nc_fayetteville_2712-freedom-parkway-drive", "@spider": "costplus_worldmarket", "official_name": "Cost Plus World Market", "shop": "interior_decoration", "addr:full": "2712 Freedom Parkway Drive", "addr:city": "Fayetteville", "addr:state": "NC", "addr:postcode": "28314", "name": "World Market Freedom Town Center", "phone": "(910) 717-3078", "website": "https://stores.worldmarket.com/nc/fayetteville/2712-freedom-parkway-drive.html", "opening_hours": "Mo-Sa 10:00-20:00; Su 11:00-18:00", "brand": "Cost Plus World Market", "brand:wikidata": "Q5174750", "nsi_id": "worldmarket-18147c"}, "geometry": {"type": "Point", "coordinates": [-78.968177, 35.0582215]}},
{"type": "Feature", "id": "vFHdIPfJBzNU3ryYVkCvFBKch_A=", "properties": {"ref": "nc_durham_6807-fayetteville-road", "@spider": "costplus_worldmarket", "official_name": "Cost Plus World Market", "shop": "interior_decoration", "addr:full": "6807 Fayetteville Road Suite 114", "addr:city": "Durham", "addr:state": "NC", "addr:postcode": "27713", "name": "World Market Durham", "phone": "(919) 405-2112", "website": "https://stores.worldmarket.com/nc/durham/6807-fayetteville-road.html", "opening_hours": "Mo-Sa 10:00-20:00; Su 11:00-18:00", "brand": "Cost Plus World Market", "brand:wikidata": "Q5174750", "nsi_id": "worldmarket-18147c"}, "geometry": {"type": "Point", "coordinates": [-78.9355606, 35.9044747]}},
{"type": "Feature", "id": "_-cwt1lA9p7kUE7o66uQFcLW8qQ=", "properties": {"ref": "nc_cary_2410-walnut-street", "@spider": "costplus_worldmarket", "official_name": "Cost Plus World Market", "shop": "interior_decoration", "addr:full": "2410 Walnut Street", "addr:city": "Cary", "addr:state": "NC", "addr:postcode": "27518", "name": "World Market Cary", "phone": "(919) 851-6104", "website": "https://stores.worldmarket.com/nc/cary/2410-walnut-street.html", "opening_hours": "Mo-Sa 10:00-20:00; Su 11:00-18:00", "brand": "Cost Plus World Market", "brand:wikidata": "Q5174750", "nsi_id": "worldmarket-18147c"}, "geometry": {"type": "Point", "coordinates": [-78.744326, 35.7525886]}},
{"type": "Feature", "id": "dcb6ipyOscwzB_u31OhD2SPJAEE=", "properties": {"ref": "nc_arden_9-mckenna-road", "@spider": "costplus_worldmarket", "official_name": "Cost Plus World Market", "shop": "interior_decoration", "addr:full": "9 McKenna Road", "addr:city": "Arden", "addr:state": "NC", "addr:postcode": "28704", "name": "World Market Arden Asheville", "phone": "(828) 654-0119", "website": "https://stores.worldmarket.com/nc/arden/9-mckenna-road.html", "opening_hours": "Mo-Sa 10:00-20:00; Su 11:00-18:00", "brand": "Cost Plus World Market", "brand:wikidata": "Q5174750", "nsi_id": "worldmarket-18147c"}, "geometry": {"type": "Point", "coordinates": [-82.5345429590561, 35.4490463133837]}},
{"type": "Feature", "id": "chy0ToNlJrYgnGfgGgar7KJF2aA=", "properties": {"ref": "oh_north-canton_5527-dressler-road-nw", "@spider": "costplus_worldmarket", "official_name": "Cost Plus World Market", "shop": "interior_decoration", "addr:full": "5527 Dressler Road NW", "addr:city": "North Canton", "addr:state": "OH", "addr:postcode": "44720", "name": "World Market North Canton", "phone": "(330) 305-0990", "website": "https://stores.worldmarket.com/oh/north-canton/5527-dressler-road-nw.html", "opening_hours": "Mo-Fr 11:00-19:00; Sa 10:00-20:00; Su 11:00-18:00", "brand": "Cost Plus World Market", "brand:wikidata": "Q5174750", "nsi_id": "worldmarket-18147c"}, "geometry": {"type": "Point", "coordinates": [-81.434818804264, 40.861758676701]}},
{"type": "Feature", "id": "Zh87gDgkLDdsR0lQa-JvKLFj9tM=", "properties": {"ref": "oh_dublin_5720-britton-parkway", "@spider": "costplus_worldmarket", "official_name": "Cost Plus World Market", "shop": "interior_decoration", "addr:full": "5720 Britton Parkway", "addr:city": "Dublin", "addr:state": "OH", "addr:postcode": "43016", "name": "World Market Dublin Tuttle", "phone": "(614) 717-9400", "website": "https://stores.worldmarket.com/oh/dublin/5720-britton-parkway.html", "opening_hours": "Mo-Fr 11:00-19:00; Sa 10:00-20:00; Su 11:00-18:00", "brand": "Cost Plus World Market", "brand:wikidata": "Q5174750", "nsi_id": "worldmarket-18147c"}, "geometry": {"type": "Point", "coordinates": [-83.135696053505, 40.0707482840509]}},
{"type": "Feature", "id": "gWZge2Wtp8BAVGdGLmyD97vF42E=", "properties": {"ref": "oh_akron_4020-medina-road", "@spider": "costplus_worldmarket", "official_name": "Cost Plus World Market", "shop": "interior_decoration", "addr:full": "4020 Medina Road Suite 120", "addr:city": "Akron", "addr:state": "OH", "addr:postcode": "44333", "name": "World Market Akron", "phone": "(330) 670-1124", "website": "https://stores.worldmarket.com/oh/akron/4020-medina-road.html", "opening_hours": "Mo-Sa 10:00-20:00; Su 11:00-18:00", "brand": "Cost Plus World Market", "brand:wikidata": "Q5174750", "nsi_id": "worldmarket-18147c"}, "geometry": {"type": "Point", "coordinates": [-81.6421304, 41.1319357]}},
{"type": "Feature", "id": "DoHLWWOtA3-85ruA3S4sLJReNsI=", "properties": {"ref": "ok_norman_520-ed-noble-parkway", "@spider": "costplus_worldmarket", "official_name": "Cost Plus World Market", "shop": "interior_decoration", "addr:full": "520 Ed Noble Parkway", "addr:city": "Norman", "addr:state": "OK", "addr:postcode": "73072", "name": "World Market Norman", "phone": "(405) 253-2881", "website": "https://stores.worldmarket.com/ok/norman/520-ed-noble-parkway.html", "opening_hours": "Mo-Sa 10:00-20:00; Su 11:00-18:00", "brand": "Cost Plus World Market", "brand:wikidata": "Q5174750", "nsi_id": "worldmarket-18147c"}, "geometry": {"type": "Point", "coordinates": [-97.4867729, 35.2126632]}},
{"type": "Feature", "id": "fNY6_Y5T7hb96F1rhmHl3AQrpHg=", "properties": {"ref": "or_keizer_6160-ulali-drive", "@spider": "costplus_worldmarket", "official_name": "Cost Plus World Market", "shop": "interior_decoration", "addr:full": "6160 Ulali Drive", "addr:city": "Keizer", "addr:state": "OR", "addr:postcode": "97303", "name": "World Market Salem-Keizer", "phone": "(503) 304-4607", "website": "https://stores.worldmarket.com/or/keizer/6160-ulali-drive.html", "opening_hours": "Mo-Sa 10:00-20:00; Su 11:00-18:00", "brand": "Cost Plus World Market", "brand:wikidata": "Q5174750", "nsi_id": "worldmarket-18147c"}, "geometry": {"type": "Point", "coordinates": [-122.9978689, 45.0097622]}},
{"type": "Feature", "id": "ivvmAtTpbt5Dg2LtAfEHuWAVLYg=", "properties": {"ref": "nm_albuquerque_3601-old-airport-avenue-nw", "@spider": "costplus_worldmarket", "official_name": "Cost Plus World Market", "shop": "interior_decoration", "addr:full": "3601 Old Airport Avenue NW Suite B", "addr:city": "Albuquerque", "addr:state": "NM", "addr:postcode": "87114", "name": "World Market West Albuquerque", "phone": "(505) 899-7902", "website": "https://stores.worldmarket.com/nm/albuquerque/3601-old-airport-avenue-nw.html", "opening_hours": "Mo-Sa 10:00-20:00; Su 11:00-18:00", "brand": "Cost Plus World Market", "brand:wikidata": "Q5174750", "nsi_id": "worldmarket-18147c"}, "geometry": {"type": "Point", "coordinates": [-106.6531017, 35.2040615]}},
{"type": "Feature", "id": "u6ovL3WxkXodzw2sU1fHDTqqgPY=", "properties": {"ref": "nm_albuquerque_3301-menaul-blvd-ne", "@spider": "costplus_worldmarket", "official_name": "Cost Plus World Market", "shop": "interior_decoration", "addr:full": "3301 Menaul Blvd NE", "addr:city": "Albuquerque", "addr:state": "NM", "addr:postcode": "87107", "name": "World Market Albuquerque", "phone": "(505) 881-9300", "website": "https://stores.worldmarket.com/nm/albuquerque/3301-menaul-blvd-ne.html", "opening_hours": "Mo-Sa 10:00-19:00; Su 11:00-18:00", "brand": "Cost Plus World Market", "brand:wikidata": "Q5174750", "nsi_id": "worldmarket-18147c"}, "geometry": {"type": "Point", "coordinates": [-106.6073276, 35.110435]}},
{"type": "Feature", "id": "iPbwRv8rKTjEllFHtGw-Niu0huw=", "properties": {"ref": "or_gresham_989-nw-12th-street", "@spider": "costplus_worldmarket", "official_name": "Cost Plus World Market", "shop": "interior_decoration", "addr:full": "989 NW 12th Street", "addr:city": "Gresham", "addr:state": "OR", "addr:postcode": "97030", "name": "World Market Gresham", "phone": "(503) 669-9727", "website": "https://stores.worldmarket.com/or/gresham/989-nw-12th-street.html", "opening_hours": "Mo-Sa 10:00-20:00; Su 11:00-18:00", "brand": "Cost Plus World Market", "brand:wikidata": "Q5174750", "nsi_id": "worldmarket-18147c"}, "geometry": {"type": "Point", "coordinates": [-122.442235350608, 45.506267950553]}},
{"type": "Feature", "id": "eWd6EHqnDK-8UG79l_21Y0PsbgM=", "properties": {"ref": "or_eugene_1011-valley-river-way", "@spider": "costplus_worldmarket", "official_name": "Cost Plus World Market", "shop": "interior_decoration", "addr:full": "1011 Valley River Way Suite 101", "addr:city": "Eugene", "addr:state": "OR", "addr:postcode": "97401", "name": "World Market Eugene", "phone": "(541) 683-5702", "website": "https://stores.worldmarket.com/or/eugene/1011-valley-river-way.html", "opening_hours": "Mo-Sa 10:00-20:00; Su 11:00-18:00", "brand": "Cost Plus World Market", "brand:wikidata": "Q5174750", "nsi_id": "worldmarket-18147c"}, "geometry": {"type": "Point", "coordinates": [-123.102082461145, 44.0681935001003]}},
{"type": "Feature", "id": "-vMgWuXiNvz5xNBrFq73ihB_vuU=", "properties": {"ref": "or_clackamas_8626-se-sunnyside-road", "@spider": "costplus_worldmarket", "official_name": "Cost Plus World Market", "shop": "interior_decoration", "addr:full": "8626 SE Sunnyside Road", "addr:city": "Clackamas", "addr:state": "OR", "addr:postcode": "97015", "name": "World Market Clackamas", "phone": "(503) 652-9200", "website": "https://stores.worldmarket.com/or/clackamas/8626-se-sunnyside-road.html", "opening_hours": "Mo-Sa 10:00-20:00; Su 11:00-18:00", "brand": "Cost Plus World Market", "brand:wikidata": "Q5174750", "nsi_id": "worldmarket-18147c"}, "geometry": {"type": "Point", "coordinates": [-122.5750185, 45.4310893]}},
{"type": "Feature", "id": "JsBdO-2IBNJT3_Sy8FTJHXOM8Kw=", "properties": {"ref": "or_bend_63455-north-highway-97", "@spider": "costplus_worldmarket", "official_name": "Cost Plus World Market", "shop": "interior_decoration", "addr:full": "63455 North Highway 97 Suite 16", "addr:city": "Bend", "addr:state": "OR", "addr:postcode": "97701", "name": "World Market Bend", "phone": "(541) 317-9920", "website": "https://stores.worldmarket.com/or/bend/63455-north-highway-97.html", "opening_hours": "Mo-Su 10:00-18:00", "brand": "Cost Plus World Market", "brand:wikidata": "Q5174750", "nsi_id": "worldmarket-18147c"}, "geometry": {"type": "Point", "coordinates": [-121.3015368, 44.101657]}},
{"type": "Feature", "id": "kwqGFWAxrdbdpTnPpmnwZsNDqPk=", "properties": {"ref": "sc_lexington_5135-sunset-blvd", "@spider": "costplus_worldmarket", "official_name": "Cost Plus World Market", "shop": "interior_decoration", "addr:full": "5135 Sunset Blvd Suite T", "addr:city": "Lexington", "addr:state": "SC", "addr:postcode": "29072", "name": "World Market Lexington", "phone": "(803) 356-2406", "website": "https://stores.worldmarket.com/sc/lexington/5135-sunset-blvd.html", "opening_hours": "Mo-Sa 10:00-20:00; Su 11:00-18:00", "brand": "Cost Plus World Market", "brand:wikidata": "Q5174750", "nsi_id": "worldmarket-18147c"}, "geometry": {"type": "Point", "coordinates": [-81.1954061686992, 34.005656861966]}},
{"type": "Feature", "id": "560JoK0xstPsaD9xeO8j_9DaUUQ=", "properties": {"ref": "nc_charlotte_9557-south-blvd", "@spider": "costplus_worldmarket", "official_name": "Cost Plus World Market", "shop": "interior_decoration", "addr:full": "9557 South Blvd", "addr:city": "Charlotte", "addr:state": "NC", "addr:postcode": "28273", "name": "World Market Charlotte", "phone": "(704) 554-1692", "website": "https://stores.worldmarket.com/nc/charlotte/9557-south-blvd.html", "opening_hours": "Mo-Sa 10:00-20:00; Su 11:00-18:00", "brand": "Cost Plus World Market", "brand:wikidata": "Q5174750", "nsi_id": "worldmarket-18147c"}, "geometry": {"type": "Point", "coordinates": [-80.8774709, 35.105664]}},
{"type": "Feature", "id": "oTLgYm-jRlVcaJsrNbmPWFtw-HM=", "properties": {"ref": "nc_charlotte_8150-ikea-boulevard", "@spider": "costplus_worldmarket", "official_name": "Cost Plus World Market", "shop": "interior_decoration", "addr:full": "8150 Ikea Boulevard Suite 20", "addr:city": "Charlotte", "addr:state": "NC", "addr:postcode": "28262", "name": "World Market Belgate", "phone": "(704) 598-2097", "website": "https://stores.worldmarket.com/nc/charlotte/8150-ikea-boulevard.html", "opening_hours": "Mo-Sa 10:00-20:00; Su 11:00-18:00", "brand": "Cost Plus World Market", "brand:wikidata": "Q5174750", "nsi_id": "worldmarket-18147c"}, "geometry": {"type": "Point", "coordinates": [-80.7634317, 35.2962458]}},
{"type": "Feature", "id": "lCv_n8w5arwKTIYYYb2YaXoboqA=", "properties": {"ref": "nc_charlotte_330-south-sharon-amity-road", "@spider": "costplus_worldmarket", "official_name": "Cost Plus World Market", "shop": "interior_decoration", "addr:full": "330 South Sharon Amity Road", "addr:city": "Charlotte", "addr:state": "NC", "addr:postcode": "28211", "name": "World Market Cotswold", "phone": "(704) 442-5353", "website": "https://stores.worldmarket.com/nc/charlotte/330-south-sharon-amity-road.html", "opening_hours": "Mo-Sa 10:00-20:00; Su 11:00-18:00", "brand": "Cost Plus World Market", "brand:wikidata": "Q5174750", "nsi_id": "worldmarket-18147c"}, "geometry": {"type": "Point", "coordinates": [-80.8020464, 35.1754175]}},
{"type": "Feature", "id": "hrhxy-G4yP6cQtjJ3zvmYihM564=", "properties": {"ref": "sc_greenville_1125-woodruff-road", "@spider": "costplus_worldmarket", "official_name": "Cost Plus World Market", "shop": "interior_decoration", "addr:full": "1125 Woodruff Road Suite 500", "addr:city": "Greenville", "addr:state": "SC", "addr:postcode": "29607", "name": "World Market Greenville", "phone": "(864) 234-8816", "website": "https://stores.worldmarket.com/sc/greenville/1125-woodruff-road.html", "opening_hours": "Mo-Sa 10:00-20:00; Su 11:00-18:00", "brand": "Cost Plus World Market", "brand:wikidata": "Q5174750", "nsi_id": "worldmarket-18147c"}, "geometry": {"type": "Point", "coordinates": [-82.2959854, 34.8299443]}},
{"type": "Feature", "id": "cHxA1NLK1Lb9tnP6c0IjacIKm-c=", "properties": {"ref": "sc_columbia_6090-garners-ferry-rd", "@spider": "costplus_worldmarket", "official_name": "Cost Plus World Market", "shop": "interior_decoration", "addr:full": "6090 Garners Ferry Rd Suite B", "addr:city": "Columbia", "addr:state": "SC", "addr:postcode": "29209", "name": "World Market Columbia Woodhill", "phone": "(803) 776-6995", "website": "https://stores.worldmarket.com/sc/columbia/6090-garners-ferry-rd.html", "opening_hours": "Mo-Sa 10:00-20:00; Su 11:00-18:00", "brand": "Cost Plus World Market", "brand:wikidata": "Q5174750", "nsi_id": "worldmarket-18147c"}, "geometry": {"type": "Point", "coordinates": [-80.9681626, 33.9811321]}},
{"type": "Feature", "id": "9MHbKu8UFEi7CnlIjXZEXwXx_8Q=", "properties": {"ref": "oh_columbus_3770-easton-market", "@spider": "costplus_worldmarket", "official_name": "Cost Plus World Market", "shop": "interior_decoration", "addr:full": "3770 Easton Market", "addr:city": "Columbus", "addr:state": "OH", "addr:postcode": "43219", "name": "World Market Columbus Easton", "phone": "(614) 471-5042", "website": "https://stores.worldmarket.com/oh/columbus/3770-easton-market.html", "opening_hours": "Mo-Fr 11:00-20:00; Sa 10:00-20:00; Su 11:00-18:00", "brand": "Cost Plus World Market", "brand:wikidata": "Q5174750", "nsi_id": "worldmarket-18147c"}, "geometry": {"type": "Point", "coordinates": [-82.9221544415305, 40.05301424493]}},
{"type": "Feature", "id": "qVhK0GKfQgXLWXhggKjihcQk8XA=", "properties": {"ref": "oh_columbus_1655-olentangy-river-road", "@spider": "costplus_worldmarket", "official_name": "Cost Plus World Market", "shop": "interior_decoration", "addr:full": "1655 Olentangy River Road", "addr:city": "Columbus", "addr:state": "OH", "addr:postcode": "43212", "name": "World Market Columbus Lennox", "phone": "(614) 297-5925", "website": "https://stores.worldmarket.com/oh/columbus/1655-olentangy-river-road.html", "opening_hours": "Mo-Sa 10:00-20:00; Su 11:00-18:00", "brand": "Cost Plus World Market", "brand:wikidata": "Q5174750", "nsi_id": "worldmarket-18147c"}, "geometry": {"type": "Point", "coordinates": [-83.0273483, 39.9924436]}},
{"type": "Feature", "id": "3tb9AWtgqOLKm-r363gWCYYb_Gw=", "properties": {"ref": "oh_columbus_1331-polaris-parkway", "@spider": "costplus_worldmarket", "official_name": "Cost Plus World Market", "shop": "interior_decoration", "addr:full": "1331 Polaris Parkway", "addr:city": "Columbus", "addr:state": "OH", "addr:postcode": "43240", "name": "World Market Columbus Polaris", "phone": "(614) 431-7007", "website": "https://stores.worldmarket.com/oh/columbus/1331-polaris-parkway.html", "opening_hours": "Mo-Fr 11:00-20:00; Sa 10:00-20:00; Su 11:00-18:00", "brand": "Cost Plus World Market", "brand:wikidata": "Q5174750", "nsi_id": "worldmarket-18147c"}, "geometry": {"type": "Point", "coordinates": [-82.9837381839752, 40.1397327207535]}},
{"type": "Feature", "id": "cjT9n1zAacvfDwgfkFPgvFjd-0U=", "properties": {"ref": "sc_charleston_946-orleans-road", "@spider": "costplus_worldmarket", "official_name": "Cost Plus World Market", "shop": "interior_decoration", "addr:full": "946 Orleans Road Suite E-2", "addr:city": "Charleston", "addr:state": "SC", "addr:postcode": "29407", "name": "World Market Charleston", "phone": "(843) 852-2700", "website": "https://stores.worldmarket.com/sc/charleston/946-orleans-road.html", "opening_hours": "Mo-Sa 10:00-20:00; Su 11:00-18:00", "brand": "Cost Plus World Market", "brand:wikidata": "Q5174750", "nsi_id": "worldmarket-18147c"}, "geometry": {"type": "Point", "coordinates": [-80.026639979369, 32.799125261937]}},
{"type": "Feature", "id": "J_JWSDr8hBY_WdE_8-1R5zqr3CU=", "properties": {"ref": "sc_bluffton_30-malphrus-road", "@spider": "costplus_worldmarket", "official_name": "Cost Plus World Market", "shop": "interior_decoration", "addr:full": "30 Malphrus Road Suite G", "addr:city": "Bluffton", "addr:state": "SC", "addr:postcode": "29910", "name": "World Market Hilton Head", "phone": "(843) 836-1970", "website": "https://stores.worldmarket.com/sc/bluffton/30-malphrus-road.html", "opening_hours": "Mo-Sa 10:00-20:00; Su 11:00-18:00", "brand": "Cost Plus World Market", "brand:wikidata": "Q5174750", "nsi_id": "worldmarket-18147c"}, "geometry": {"type": "Point", "coordinates": [-80.8299484848976, 32.2421548774719]}},
{"type": "Feature", "id": "Es-LzvTalSta2zaN0i9cxroYWKM=", "properties": {"ref": "tn_knoxville_11241-parkside-drive", "@spider": "costplus_worldmarket", "official_name": "Cost Plus World Market", "shop": "interior_decoration", "addr:full": "11241 Parkside Drive", "addr:city": "Knoxville", "addr:state": "TN", "addr:postcode": "37934", "name": "World Market Knoxville", "phone": "(865) 966-9600", "website": "https://stores.worldmarket.com/tn/knoxville/11241-parkside-drive.html", "opening_hours": "Mo-Sa 10:00-20:00; Su 11:00-18:00", "brand": "Cost Plus World Market", "brand:wikidata": "Q5174750", "nsi_id": "worldmarket-18147c"}, "geometry": {"type": "Point", "coordinates": [-84.1570137442249, 35.9014381161627]}},
{"type": "Feature", "id": "QZJ156OWuGfEjRU9J349oy-Ogk4=", "properties": {"ref": "tn_chattanooga_2200-hamilton-place-blvd", "@spider": "costplus_worldmarket", "official_name": "Cost Plus World Market", "shop": "interior_decoration", "addr:full": "2200 Hamilton Place Blvd Suite 6", "addr:city": "Chattanooga", "addr:state": "TN", "addr:postcode": "37421", "name": "World Market Chattanooga", "phone": "(423) 553-7526", "website": "https://stores.worldmarket.com/tn/chattanooga/2200-hamilton-place-blvd.html", "opening_hours": "Mo-Sa 10:00-20:00; Su 11:00-18:00", "brand": "Cost Plus World Market", "brand:wikidata": "Q5174750", "nsi_id": "worldmarket-18147c"}, "geometry": {"type": "Point", "coordinates": [-85.1539897, 35.0363688]}},
{"type": "Feature", "id": "5wGV9ZCM4nYqLHL_VxXsvCVaSxw=", "properties": {"ref": "tx_watauga_7616-denton-highway", "@spider": "costplus_worldmarket", "official_name": "Cost Plus World Market", "shop": "interior_decoration", "addr:full": "7616 Denton Highway Suite 516", "addr:city": "Watauga", "addr:state": "TX", "addr:postcode": "76148", "name": "World Market Watauga", "phone": "(817) 581-8046", "website": "https://stores.worldmarket.com/tx/watauga/7616-denton-highway.html", "opening_hours": "Mo-Fr 11:00-20:00; Sa 10:00-20:00; Su 11:00-18:00", "brand": "Cost Plus World Market", "brand:wikidata": "Q5174750", "nsi_id": "worldmarket-18147c"}, "geometry": {"type": "Point", "coordinates": [-97.2587871551513, 32.8825559906765]}},
{"type": "Feature", "id": "5n8Ydpku3yeYrZDGY0RXTAaH-jk=", "properties": {"ref": "tx_waco_4633-s--jack-kultgen-expressway", "@spider": "costplus_worldmarket", "official_name": "Cost Plus World Market", "shop": "interior_decoration", "addr:full": "4633 S. Jack Kultgen Expressway Suite 103", "addr:city": "Waco", "addr:state": "TX", "addr:postcode": "76706", "name": "World Market Waco", "phone": "(254) 662-9235", "website": "https://stores.worldmarket.com/tx/waco/4633-s--jack-kultgen-expressway.html", "opening_hours": "Mo-Sa 10:00-20:00; Su 11:00-18:00", "brand": "Cost Plus World Market", "brand:wikidata": "Q5174750", "nsi_id": "worldmarket-18147c"}, "geometry": {"type": "Point", "coordinates": [-97.1507582, 31.4995441]}},
{"type": "Feature", "id": "flBFDGsbWXKKInY4ztem2HIIATs=", "properties": {"ref": "tx_tyler_8970-s--broadway-avenue", "@spider": "costplus_worldmarket", "official_name": "Cost Plus World Market", "shop": "interior_decoration", "addr:full": "8970 S. Broadway Avenue", "addr:city": "Tyler", "addr:state": "TX", "addr:postcode": "75703", "name": "World Market Tyler", "phone": "(903) 534-3604", "website": "https://stores.worldmarket.com/tx/tyler/8970-s--broadway-avenue.html", "opening_hours": "Mo-Sa 10:00-20:00; Su 11:00-18:00", "brand": "Cost Plus World Market", "brand:wikidata": "Q5174750", "nsi_id": "worldmarket-18147c"}, "geometry": {"type": "Point", "coordinates": [-95.306089, 32.248269]}},
{"type": "Feature", "id": "zy3BsNWfjvBN2pNg4SeX2X5ApEU=", "properties": {"ref": "tx_the-woodlands_1620-lake-woodlands-drive", "@spider": "costplus_worldmarket", "official_name": "Cost Plus World Market", "shop": "interior_decoration", "addr:full": "1620 Lake Woodlands Drive", "addr:city": "The Woodlands", "addr:state": "TX", "addr:postcode": "77380", "name": "World Market The Woodlands", "phone": "(281) 419-8300", "website": "https://stores.worldmarket.com/tx/the-woodlands/1620-lake-woodlands-drive.html", "opening_hours": "Mo-Sa 10:00-20:00; Su 11:00-18:00", "brand": "Cost Plus World Market", "brand:wikidata": "Q5174750", "nsi_id": "worldmarket-18147c"}, "geometry": {"type": "Point", "coordinates": [-95.4598547, 30.1686323]}},
{"type": "Feature", "id": "0UNjhAli0C_H0SVp34maiT44G3M=", "properties": {"ref": "tx_sunset-valley_5601-brodie-lane", "@spider": "costplus_worldmarket", "official_name": "Cost Plus World Market", "shop": "interior_decoration", "addr:full": "5601 Brodie Lane Suite 1100", "addr:city": "Sunset Valley", "addr:state": "TX", "addr:postcode": "78745", "name": "World Market Sunset Valley", "phone": "(512) 899-2929", "website": "https://stores.worldmarket.com/tx/sunset-valley/5601-brodie-lane.html", "opening_hours": "Mo-Sa 10:00-20:00; Su 11:00-18:00", "brand": "Cost Plus World Market", "brand:wikidata": "Q5174750", "nsi_id": "worldmarket-18147c"}, "geometry": {"type": "Point", "coordinates": [-97.8222092, 30.2254661]}},
{"type": "Feature", "id": "-EUSa4E9YGpJINmbnH2XS23cbuk=", "properties": {"ref": "tx_stafford_12710-fountain-lake-circle", "@spider": "costplus_worldmarket", "official_name": "Cost Plus World Market", "shop": "interior_decoration", "addr:full": "12710 Fountain Lake Circle", "addr:city": "Stafford", "addr:state": "TX", "addr:postcode": "77477", "name": "World Market Stafford", "phone": "(346) 279-3109", "website": "https://stores.worldmarket.com/tx/stafford/12710-fountain-lake-circle.html", "opening_hours": "Mo-Sa 10:00-20:00; Su 11:00-18:00", "brand": "Cost Plus World Market", "brand:wikidata": "Q5174750", "nsi_id": "worldmarket-18147c"}, "geometry": {"type": "Point", "coordinates": [-95.5881295, 29.637273]}},
{"type": "Feature", "id": "aDFOEl1EJlMiDkntjUbopUTNQ5o=", "properties": {"ref": "tx_southlake_2941-e--state-highway-114", "@spider": "costplus_worldmarket", "official_name": "Cost Plus World Market", "shop": "interior_decoration", "addr:full": "2941 E. State Highway 114", "addr:city": "Southlake", "addr:state": "TX", "addr:postcode": "76092", "name": "World Market Southlake", "phone": "(817) 749-0011", "website": "https://stores.worldmarket.com/tx/southlake/2941-e--state-highway-114.html", "opening_hours": "Mo-Sa 10:00-20:00; Su 11:00-18:00", "brand": "Cost Plus World Market", "brand:wikidata": "Q5174750", "nsi_id": "worldmarket-18147c"}, "geometry": {"type": "Point", "coordinates": [-97.1060587, 32.9406757]}},
{"type": "Feature", "id": "gP3fhp0oH1wbIonnNVkJoCxmh2I=", "properties": {"ref": "tx_round-rock_200-sundance-parkway", "@spider": "costplus_worldmarket", "official_name": "Cost Plus World Market", "shop": "interior_decoration", "addr:full": "200 Sundance Parkway Suite 200", "addr:city": "Round Rock", "addr:state": "TX", "addr:postcode": "78681", "name": "World Market Round Rock", "phone": "(512) 733-2727", "website": "https://stores.worldmarket.com/tx/round-rock/200-sundance-parkway.html", "opening_hours": "Mo-Sa 10:00-20:00; Su 11:00-18:00", "brand": "Cost Plus World Market", "brand:wikidata": "Q5174750", "nsi_id": "worldmarket-18147c"}, "geometry": {"type": "Point", "coordinates": [-97.6830998365133, 30.484933987176]}},
{"type": "Feature", "id": "MahgN2EFcIWJ29Zb_3gxr-Ua2uw=", "properties": {"ref": "tx_plano_8700-preston-road", "@spider": "costplus_worldmarket", "official_name": "Cost Plus World Market", "shop": "interior_decoration", "addr:full": "8700 Preston Road Suite 109", "addr:city": "Plano", "addr:state": "TX", "addr:postcode": "75024", "name": "World Market North Plano", "phone": "(972) 377-6638", "website": "https://stores.worldmarket.com/tx/plano/8700-preston-road.html", "opening_hours": "Mo-Sa 10:00-20:00; Su 11:00-18:00", "brand": "Cost Plus World Market", "brand:wikidata": "Q5174750", "nsi_id": "worldmarket-18147c"}, "geometry": {"type": "Point", "coordinates": [-96.8014437, 33.096432]}},
{"type": "Feature", "id": "YatgbU73w0zsK4kPJKNlh5x9sC4=", "properties": {"ref": "tx_pharr_500-n--jackson-road", "@spider": "costplus_worldmarket", "official_name": "Cost Plus World Market", "shop": "interior_decoration", "addr:full": "500 N. Jackson Road", "addr:city": "Pharr", "addr:state": "TX", "addr:postcode": "78577", "name": "World Market McAllen", "phone": "(956) 403-3003", "website": "https://stores.worldmarket.com/tx/pharr/500-n--jackson-road.html", "opening_hours": "Mo-Sa 10:00-20:00; Su 11:00-18:00", "brand": "Cost Plus World Market", "brand:wikidata": "Q5174750", "nsi_id": "worldmarket-18147c"}, "geometry": {"type": "Point", "coordinates": [-98.20174321532244, 26.20257735107035]}},
{"type": "Feature", "id": "T8ANkEhUdoPpp8Y70DEVBOAfc84=", "properties": {"ref": "tx_lubbock_2626-w-loop-289", "@spider": "costplus_worldmarket", "official_name": "Cost Plus World Market", "shop": "interior_decoration", "addr:full": "2626 W Loop 289", "addr:city": "Lubbock", "addr:state": "TX", "addr:postcode": "79407", "name": "World Market Lubbock", "phone": "(806) 507-3372", "website": "https://stores.worldmarket.com/tx/lubbock/2626-w-loop-289.html", "opening_hours": "Mo-Sa 10:00-20:00; Su 11:00-18:00", "brand": "Cost Plus World Market", "brand:wikidata": "Q5174750", "nsi_id": "worldmarket-18147c"}, "geometry": {"type": "Point", "coordinates": [-101.94738138380654, 33.568842724923954]}},
{"type": "Feature", "id": "LB_b2PnggKZ08XYZvO6enEeV1g0=", "properties": {"ref": "tx_katy_6625-south-fry-road", "@spider": "costplus_worldmarket", "official_name": "Cost Plus World Market", "shop": "interior_decoration", "addr:full": "6625 South Fry Road", "addr:city": "Katy", "addr:state": "TX", "addr:postcode": "77494", "name": "World Market Katy", "phone": "(281) 391-1700", "website": "https://stores.worldmarket.com/tx/katy/6625-south-fry-road.html", "opening_hours": "Mo-Sa 10:00-20:00; Su 11:00-18:00", "brand": "Cost Plus World Market", "brand:wikidata": "Q5174750", "nsi_id": "worldmarket-18147c"}, "geometry": {"type": "Point", "coordinates": [-95.7721936, 29.71274]}},
{"type": "Feature", "id": "btUIwAe97GIrmfabqHvIGvF8W0A=", "properties": {"ref": "tx_humble_20416-highway-59n", "@spider": "costplus_worldmarket", "official_name": "Cost Plus World Market", "shop": "interior_decoration", "addr:full": "20416 Highway 59N Suite A", "addr:city": "Humble", "addr:state": "TX", "addr:postcode": "77338", "name": "World Market Humble", "phone": "(281) 706-8937", "website": "https://stores.worldmarket.com/tx/humble/20416-highway-59n.html", "opening_hours": "Mo-Sa 10:00-20:00; Su 11:00-18:00", "brand": "Cost Plus World Market", "brand:wikidata": "Q5174750", "nsi_id": "worldmarket-18147c"}, "geometry": {"type": "Point", "coordinates": [-95.2617389, 30.0118148]}},
{"type": "Feature", "id": "zxLNuML-qww_aMosX_Me9MJjvT8=", "properties": {"ref": "tx_fort-worth_4701-west-freeway", "@spider": "costplus_worldmarket", "official_name": "Cost Plus World Market", "shop": "interior_decoration", "addr:full": "4701 West Freeway Suite 400", "addr:city": "Fort Worth", "addr:state": "TX", "addr:postcode": "76107", "name": "World Market Fort Worth", "phone": "(817) 737-8370", "website": "https://stores.worldmarket.com/tx/fort-worth/4701-west-freeway.html", "opening_hours": "Mo-Sa 10:00-20:00; Su 11:00-18:00", "brand": "Cost Plus World Market", "brand:wikidata": "Q5174750", "nsi_id": "worldmarket-18147c"}, "geometry": {"type": "Point", "coordinates": [-97.3906491101115, 32.7315232089518]}},
{"type": "Feature", "id": "15Jk8HY8BymA55ar_XCb2azCacA=", "properties": {"ref": "tx_flower-mound_6101-long-prairie-road", "@spider": "costplus_worldmarket", "official_name": "Cost Plus World Market", "shop": "interior_decoration", "addr:full": "6101 Long Prairie Road Suite 300", "addr:city": "Flower Mound", "addr:state": "TX", "addr:postcode": "75028", "name": "World Market Flower Mound", "phone": "(972) 539-3355", "website": "https://stores.worldmarket.com/tx/flower-mound/6101-long-prairie-road.html", "opening_hours": "Mo-Fr 11:00-20:00; Sa 10:00-20:00; Su 11:00-18:00", "brand": "Cost Plus World Market", "brand:wikidata": "Q5174750", "nsi_id": "worldmarket-18147c"}, "geometry": {"type": "Point", "coordinates": [-97.0842018537587, 33.0690354614817]}},
{"type": "Feature", "id": "B9sNyG5ZzJeY4xI11sVqs8skuAw=", "properties": {"ref": "tx_cedar-park_5001-183a-toll-road", "@spider": "costplus_worldmarket", "official_name": "Cost Plus World Market", "shop": "interior_decoration", "addr:full": "5001 183A Toll Road", "addr:city": "Cedar Park", "addr:state": "TX", "addr:postcode": "78613", "name": "World Market The Parke", "phone": "(512) 690-2568", "website": "https://stores.worldmarket.com/tx/cedar-park/5001-183a-toll-road.html", "opening_hours": "Mo-Sa 10:00-20:00; Su 11:00-18:00", "brand": "Cost Plus World Market", "brand:wikidata": "Q5174750", "nsi_id": "worldmarket-18147c"}, "geometry": {"type": "Point", "coordinates": [-97.819814, 30.5328832]}},
{"type": "Feature", "id": "yLubWJhzCJe6UHVw8MpS1Gh-sr8=", "properties": {"ref": "tx_bee-cave_12700-shops-parkway", "@spider": "costplus_worldmarket", "official_name": "Cost Plus World Market", "shop": "interior_decoration", "addr:full": "12700 Shops Parkway Suite 200", "addr:city": "Bee Cave", "addr:state": "TX", "addr:postcode": "78738", "name": "World Market Bee Cave", "phone": "(512) 263-9505", "website": "https://stores.worldmarket.com/tx/bee-cave/12700-shops-parkway.html", "opening_hours": "Mo-Fr 11:00-20:00; Sa 10:00-20:00; Su 11:00-18:00", "brand": "Cost Plus World Market", "brand:wikidata": "Q5174750", "nsi_id": "worldmarket-18147c"}, "geometry": {"type": "Point", "coordinates": [-97.9403302, 30.305644]}},
{"type": "Feature", "id": "ZiwAZQbzUaykq8Pm3n49v0Bbm5k=", "properties": {"ref": "tx_austin_9333-research-blvd", "@spider": "costplus_worldmarket", "official_name": "Cost Plus World Market", "shop": "interior_decoration", "addr:full": "9333 Research Blvd Bldg A-5", "addr:city": "Austin", "addr:state": "TX", "addr:postcode": "78759", "name": "World Market Austin", "phone": "(512) 502-9974", "website": "https://stores.worldmarket.com/tx/austin/9333-research-blvd.html", "opening_hours": "Mo-Sa 10:00-20:00; Su 11:00-18:00", "brand": "Cost Plus World Market", "brand:wikidata": "Q5174750", "nsi_id": "worldmarket-18147c"}, "geometry": {"type": "Point", "coordinates": [-97.7379754426806, 30.3835264230237]}},
{"type": "Feature", "id": "g8RbwbhSEufqNLhmybouGkXhl9U=", "properties": {"ref": "tx_arlington_239-curtis-mathes-way", "@spider": "costplus_worldmarket", "official_name": "Cost Plus World Market", "shop": "interior_decoration", "addr:full": "239 Curtis Mathes Way Suite 101", "addr:city": "Arlington", "addr:state": "TX", "addr:postcode": "76018", "name": "World Market Arlington Texas", "phone": "(817) 375-5199", "website": "https://stores.worldmarket.com/tx/arlington/239-curtis-mathes-way.html", "opening_hours": "Mo-Sa 10:00-20:00; Su 11:00-18:00", "brand": "Cost Plus World Market", "brand:wikidata": "Q5174750", "nsi_id": "worldmarket-18147c"}, "geometry": {"type": "Point", "coordinates": [-97.108306959285, 32.6807778225178]}},
{"type": "Feature", "id": "aVA81NPrwCiX00BeV7Tk5H_azdE=", "properties": {"ref": "tx_amarillo_3350-s-soncy-road", "@spider": "costplus_worldmarket", "official_name": "Cost Plus World Market", "shop": "interior_decoration", "addr:full": "3350 S Soncy Road Suite 154", "addr:city": "Amarillo", "addr:state": "TX", "addr:postcode": "79124", "name": "World Market Amarillo", "phone": "(806) 358-4055", "website": "https://stores.worldmarket.com/tx/amarillo/3350-s-soncy-road.html", "opening_hours": "Mo-Sa 10:00-20:00; Su 11:00-18:00", "brand": "Cost Plus World Market", "brand:wikidata": "Q5174750", "nsi_id": "worldmarket-18147c"}, "geometry": {"type": "Point", "coordinates": [-101.940122, 35.177053]}},
{"type": "Feature", "id": "RvYZEqW6JHmlr6WTIji82erDIhI=", "properties": {"ref": "ut_farmington_230-n--central-avenue", "@spider": "costplus_worldmarket", "official_name": "Cost Plus World Market", "shop": "interior_decoration", "addr:full": "230 N. Central Avenue", "addr:city": "Farmington", "addr:state": "UT", "addr:postcode": "84025", "name": "World Market Farmington", "phone": "(801) 451-0169", "website": "https://stores.worldmarket.com/ut/farmington/230-n--central-avenue.html", "opening_hours": "Mo-Fr 11:00-20:00; Sa 10:00-20:00; Su 11:00-18:00", "brand": "Cost Plus World Market", "brand:wikidata": "Q5174750", "nsi_id": "worldmarket-18147c"}, "geometry": {"type": "Point", "coordinates": [-111.906132102012, 40.9845673377838]}},
{"type": "Feature", "id": "V2QNs3BGf9H34MizR7aVdB5l864=", "properties": {"ref": "tx_san-antonio_742-nw-loop-410", "@spider": "costplus_worldmarket", "official_name": "Cost Plus World Market", "shop": "interior_decoration", "addr:full": "742 NW Loop 410 Suite 123", "addr:city": "San Antonio", "addr:state": "TX", "addr:postcode": "78216", "name": "World Market North San Antonio", "phone": "(210) 525-0535", "website": "https://stores.worldmarket.com/tx/san-antonio/742-nw-loop-410.html", "opening_hours": "Mo-Sa 10:00-20:00; Su 11:00-18:00", "brand": "Cost Plus World Market", "brand:wikidata": "Q5174750", "nsi_id": "worldmarket-18147c"}, "geometry": {"type": "Point", "coordinates": [-98.505271, 29.5181577]}},
{"type": "Feature", "id": "pNO5khL2N2I2dFe3XS6HvaZ5sM4=", "properties": {"ref": "tx_san-antonio_17414-la-cantera-parkway", "@spider": "costplus_worldmarket", "official_name": "Cost Plus World Market", "shop": "interior_decoration", "addr:full": "17414 La Cantera Parkway Suite 127", "addr:city": "San Antonio", "addr:state": "TX", "addr:postcode": "78257", "name": "World Market San Antonio The Rim", "phone": "(210) 641-6052", "website": "https://stores.worldmarket.com/tx/san-antonio/17414-la-cantera-parkway.html", "opening_hours": "Mo-Sa 10:00-20:00; Su 11:00-18:00", "brand": "Cost Plus World Market", "brand:wikidata": "Q5174750", "nsi_id": "worldmarket-18147c"}, "geometry": {"type": "Point", "coordinates": [-98.5978165, 29.6060764]}},
{"type": "Feature", "id": "VesPn9qjbyMb9bMsEfhV0HU593c=", "properties": {"ref": "ut_cottonwood-heights_6960-south-park-centre-drive", "@spider": "costplus_worldmarket", "official_name": "Cost Plus World Market", "shop": "interior_decoration", "addr:full": "6960 South Park Centre Drive", "addr:city": "Cottonwood Heights", "addr:state": "UT", "addr:postcode": "84121", "name": "World Market Cottonwood Heights", "phone": "(801) 453-1647", "website": "https://stores.worldmarket.com/ut/cottonwood-heights/6960-south-park-centre-drive.html", "opening_hours": "Mo-Sa 10:00-20:00; Su 11:00-18:00", "brand": "Cost Plus World Market", "brand:wikidata": "Q5174750", "nsi_id": "worldmarket-18147c"}, "geometry": {"type": "Point", "coordinates": [-111.852573752403, 40.6251826205376]}},
{"type": "Feature", "id": "uZVqqHjbKLECGR2syiqTj0-xh_A=", "properties": {"ref": "va_newport-news_12129-jefferson-avenue", "@spider": "costplus_worldmarket", "official_name": "Cost Plus World Market", "shop": "interior_decoration", "addr:full": "12129 Jefferson Avenue", "addr:city": "Newport News", "addr:state": "VA", "addr:postcode": "23602", "name": "World Market Newport News", "phone": "(757) 885-6580", "website": "https://stores.worldmarket.com/va/newport-news/12129-jefferson-avenue.html", "opening_hours": "Mo-Fr 11:00-19:00; Sa 10:00-20:00; Su 11:00-18:00", "brand": "Cost Plus World Market", "brand:wikidata": "Q5174750", "nsi_id": "worldmarket-18147c"}, "geometry": {"type": "Point", "coordinates": [-76.497032493462, 37.1069764642007]}},
{"type": "Feature", "id": "mqfq9shutE6wc1zN9BFBct00jcQ=", "properties": {"ref": "va_glen-allen_11198-west-broad-street", "@spider": "costplus_worldmarket", "official_name": "Cost Plus World Market", "shop": "interior_decoration", "addr:full": "11198 West Broad Street", "addr:city": "Glen Allen", "addr:state": "VA", "addr:postcode": "23060", "name": "World Market Richmond", "phone": "(804) 364-7000", "website": "https://stores.worldmarket.com/va/glen-allen/11198-west-broad-street.html", "opening_hours": "Mo-Sa 10:00-20:00; Su 11:00-18:00", "brand": "Cost Plus World Market", "brand:wikidata": "Q5174750", "nsi_id": "worldmarket-18147c"}, "geometry": {"type": "Point", "coordinates": [-77.6004113, 37.6505364]}},
{"type": "Feature", "id": "NNf37woQN2KCGH3Apny_h3VOeqw=", "properties": {"ref": "va_fredericksburg_9759-patriot-highway", "@spider": "costplus_worldmarket", "official_name": "Cost Plus World Market", "shop": "interior_decoration", "addr:full": "9759 Patriot Highway", "addr:city": "Fredericksburg", "addr:state": "VA", "addr:postcode": "22407", "name": "World Market Fredericksburg", "phone": "(540) 710-7430", "website": "https://stores.worldmarket.com/va/fredericksburg/9759-patriot-highway.html", "opening_hours": "Mo-Fr 11:00-19:00; Sa 10:00-20:00; Su 11:00-18:00", "brand": "Cost Plus World Market", "brand:wikidata": "Q5174750", "nsi_id": "worldmarket-18147c"}, "geometry": {"type": "Point", "coordinates": [-77.501951, 38.222843]}},
{"type": "Feature", "id": "dlP1kApttXbcmuOqrEopJr3P-AU=", "properties": {"ref": "va_falls-church_3532-south-jefferson-street", "@spider": "costplus_worldmarket", "official_name": "Cost Plus World Market", "shop": "interior_decoration", "addr:full": "3532 South Jefferson Street", "addr:city": "Falls Church", "addr:state": "VA", "addr:postcode": "22041", "name": "World Market Falls Church", "phone": "(703) 933-2100", "website": "https://stores.worldmarket.com/va/falls-church/3532-south-jefferson-street.html", "opening_hours": "Mo-Sa 10:00-20:00; Su 11:00-18:00", "brand": "Cost Plus World Market", "brand:wikidata": "Q5174750", "nsi_id": "worldmarket-18147c"}, "geometry": {"type": "Point", "coordinates": [-77.1203224, 38.8487604]}},
{"type": "Feature", "id": "hY9WQg_fjdJj-FGyddPlsmF3-lY=", "properties": {"ref": "tx_houston_195-yale-street", "@spider": "costplus_worldmarket", "official_name": "Cost Plus World Market", "shop": "interior_decoration", "addr:full": "195 Yale Street Suite 300", "addr:city": "Houston", "addr:state": "TX", "addr:postcode": "77007", "name": "World Market Houston Heights", "phone": "(713) 862-8100", "website": "https://stores.worldmarket.com/tx/houston/195-yale-street.html", "opening_hours": "Mo-Sa 10:00-20:00; Su 11:00-18:00", "brand": "Cost Plus World Market", "brand:wikidata": "Q5174750", "nsi_id": "worldmarket-18147c"}, "geometry": {"type": "Point", "coordinates": [-95.4003197, 29.7750761]}},
{"type": "Feature", "id": "tx2sbB_LZIP6ueUb1KfvR9aUI0o=", "properties": {"ref": "tx_houston_17355-tomball-parkway", "@spider": "costplus_worldmarket", "official_name": "Cost Plus World Market", "shop": "interior_decoration", "addr:full": "17355 Tomball Parkway Suite 1H", "addr:city": "Houston", "addr:state": "TX", "addr:postcode": "77064", "name": "World Market Willowbrook", "phone": "(281) 955-5746", "website": "https://stores.worldmarket.com/tx/houston/17355-tomball-parkway.html", "opening_hours": "Mo-Sa 10:00-20:00; Su 11:00-18:00", "brand": "Cost Plus World Market", "brand:wikidata": "Q5174750", "nsi_id": "worldmarket-18147c"}, "geometry": {"type": "Point", "coordinates": [-95.5442429, 29.9533801]}},
{"type": "Feature", "id": "WKVjkJ3Dv8pmH88dGZwB3kODC4g=", "properties": {"ref": "va_fairfax_12993-fair-lakes-shopping-center", "@spider": "costplus_worldmarket", "official_name": "Cost Plus World Market", "shop": "interior_decoration", "addr:full": "12993 Fair Lakes Shopping Center", "addr:city": "Fairfax", "addr:state": "VA", "addr:postcode": "22033", "name": "World Market Fairfax", "phone": "(703) 502-9777", "website": "https://stores.worldmarket.com/va/fairfax/12993-fair-lakes-shopping-center.html", "opening_hours": "Mo-Sa 10:00-20:00; Su 11:00-18:00", "brand": "Cost Plus World Market", "brand:wikidata": "Q5174750", "nsi_id": "worldmarket-18147c"}, "geometry": {"type": "Point", "coordinates": [-77.3896801471709, 38.8577433251158]}},
{"type": "Feature", "id": "c6zMlfAmB_7z9ZYcRmtjhK8xftM=", "properties": {"ref": "tx_dallas_5500-greenville-avenue", "@spider": "costplus_worldmarket", "official_name": "Cost Plus World Market", "shop": "interior_decoration", "addr:full": "5500 Greenville Avenue Suite 300", "addr:city": "Dallas", "addr:state": "TX", "addr:postcode": "75206", "name": "World Market Dallas Old Towne", "phone": "(214) 378-5370", "website": "https://stores.worldmarket.com/tx/dallas/5500-greenville-avenue.html", "opening_hours": "Mo-Sa 10:00-20:00; Su 11:00-18:00", "brand": "Cost Plus World Market", "brand:wikidata": "Q5174750", "nsi_id": "worldmarket-18147c"}, "geometry": {"type": "Point", "coordinates": [-96.7689698748654, 32.8527279269645]}},
{"type": "Feature", "id": "wmIO_Vf2ysDA7fFkIMSM86gemmo=", "properties": {"ref": "tx_dallas_3888-oak-lawn-avenue", "@spider": "costplus_worldmarket", "official_name": "Cost Plus World Market", "shop": "interior_decoration", "addr:full": "3888 Oak Lawn Avenue Suite 111", "addr:city": "Dallas", "addr:state": "TX", "addr:postcode": "75219", "name": "World Market Dallas Turtle Creek", "phone": "(214) 521-1028", "website": "https://stores.worldmarket.com/tx/dallas/3888-oak-lawn-avenue.html", "opening_hours": "Mo-Sa 10:00-20:00; Su 11:00-18:00", "brand": "Cost Plus World Market", "brand:wikidata": "Q5174750", "nsi_id": "worldmarket-18147c"}, "geometry": {"type": "Point", "coordinates": [-96.8014035, 32.8158481]}},
{"type": "Feature", "id": "MYiSEcPsJg60NB6I2ESsoFMe1ww=", "properties": {"ref": "tx_dallas_13912-dallas-parkway", "@spider": "costplus_worldmarket", "official_name": "Cost Plus World Market", "shop": "interior_decoration", "addr:full": "13912 Dallas Parkway", "addr:city": "Dallas", "addr:state": "TX", "addr:postcode": "75240", "name": "World Market Dallas Addison", "phone": "(972) 367-0090", "website": "https://stores.worldmarket.com/tx/dallas/13912-dallas-parkway.html", "opening_hours": "Mo-Sa 10:00-20:00; Su 11:00-18:00", "brand": "Cost Plus World Market", "brand:wikidata": "Q5174750", "nsi_id": "worldmarket-18147c"}, "geometry": {"type": "Point", "coordinates": [-96.82065904140472, 32.93773355425461]}},
{"type": "Feature", "id": "YxyGfN17T_bVBeJM7NTFSHfV-eA=", "properties": {"ref": "va_dulles_45575-dulles-eastern-plaza", "@spider": "costplus_worldmarket", "official_name": "Cost Plus World Market", "shop": "interior_decoration", "addr:full": "45575 Dulles Eastern Plaza Suite 171", "addr:city": "Dulles", "addr:state": "VA", "addr:postcode": "20166", "name": "World Market Dulles Sterling", "phone": "(703) 421-8323", "website": "https://stores.worldmarket.com/va/dulles/45575-dulles-eastern-plaza.html", "opening_hours": "Mo-Sa 10:00-20:00; Su 11:00-18:00", "brand": "Cost Plus World Market", "brand:wikidata": "Q5174750", "nsi_id": "worldmarket-18147c"}, "geometry": {"type": "Point", "coordinates": [-77.4223426, 39.023738]}},
{"type": "Feature", "id": "yeyQbJuPKQYGBrWdhf4OvZQ1Dfg=", "properties": {"ref": "va_charlottesville_1615-emmet-street", "@spider": "costplus_worldmarket", "official_name": "Cost Plus World Market", "shop": "interior_decoration", "addr:full": "1615 Emmet Street #A", "addr:city": "Charlottesville", "addr:state": "VA", "addr:postcode": "22901", "name": "World Market Charlottesville", "phone": "(434) 295-6232", "website": "https://stores.worldmarket.com/va/charlottesville/1615-emmet-street.html", "opening_hours": "Mo-Sa 10:00-20:00; Su 11:00-18:00", "brand": "Cost Plus World Market", "brand:wikidata": "Q5174750", "nsi_id": "worldmarket-18147c"}, "geometry": {"type": "Point", "coordinates": [-78.49655270576477, 38.05890062536511]}},
{"type": "Feature", "id": "FIUExya_n6uH1vWQ78XdrepfPIM=", "properties": {"ref": "va_alexandria_5954-kingstowne-towne-center", "@spider": "costplus_worldmarket", "official_name": "Cost Plus World Market", "shop": "interior_decoration", "addr:full": "5954 Kingstowne Towne Center", "addr:city": "Alexandria", "addr:state": "VA", "addr:postcode": "22315", "name": "World Market Alexandria", "phone": "(703) 922-9500", "website": "https://stores.worldmarket.com/va/alexandria/5954-kingstowne-towne-center.html", "opening_hours": "Mo-Sa 10:00-20:00; Su 11:00-18:00", "brand": "Cost Plus World Market", "brand:wikidata": "Q5174750", "nsi_id": "worldmarket-18147c"}, "geometry": {"type": "Point", "coordinates": [-77.1402551, 38.7705578]}},
{"type": "Feature", "id": "_goyPnPV0HjH3niB9J9TxWjK03M=", "properties": {"ref": "wa_vancouver_16801-se-mill-plain-blvd", "@spider": "costplus_worldmarket", "official_name": "Cost Plus World Market", "shop": "interior_decoration", "addr:full": "16801 SE Mill Plain Blvd", "addr:city": "Vancouver", "addr:state": "WA", "addr:postcode": "98684", "name": "World Market Vancouver", "phone": "(360) 883-3100", "website": "https://stores.worldmarket.com/wa/vancouver/16801-se-mill-plain-blvd.html", "opening_hours": "Mo-Sa 10:00-20:00; Su 11:00-18:00", "brand": "Cost Plus World Market", "brand:wikidata": "Q5174750", "nsi_id": "worldmarket-18147c"}, "geometry": {"type": "Point", "coordinates": [-122.498513143546, 45.6152754899729]}},
{"type": "Feature", "id": "WLvq0M7ma17thvM5kGIlU1JgyBI=", "properties": {"ref": "wa_tukwila_17680-southcenter-parkway", "@spider": "costplus_worldmarket", "official_name": "Cost Plus World Market", "shop": "interior_decoration", "addr:full": "17680 Southcenter Parkway", "addr:city": "Tukwila", "addr:state": "WA", "addr:postcode": "98188", "name": "World Market Tukwila", "phone": "(206) 575-0646", "website": "https://stores.worldmarket.com/wa/tukwila/17680-southcenter-parkway.html", "opening_hours": "Mo-Sa 10:00-20:00; Su 11:00-18:00", "brand": "Cost Plus World Market", "brand:wikidata": "Q5174750", "nsi_id": "worldmarket-18147c"}, "geometry": {"type": "Point", "coordinates": [-122.259649336337, 47.444575351967]}},
{"type": "Feature", "id": "gEsbL8MDpvf8cHtabkdMcpkFHHs=", "properties": {"ref": "wa_tacoma_4036-tacoma-mall-blvd", "@spider": "costplus_worldmarket", "official_name": "Cost Plus World Market", "shop": "interior_decoration", "addr:full": "4036 Tacoma Mall Blvd", "addr:city": "Tacoma", "addr:state": "WA", "addr:postcode": "98409", "name": "World Market Tacoma", "phone": "(253) 475-3500", "website": "https://stores.worldmarket.com/wa/tacoma/4036-tacoma-mall-blvd.html", "opening_hours": "Mo-Sa 11:00-20:00; Su 11:00-18:00", "brand": "Cost Plus World Market", "brand:wikidata": "Q5174750", "nsi_id": "worldmarket-18147c"}, "geometry": {"type": "Point", "coordinates": [-122.465815, 47.2202182]}},
{"type": "Feature", "id": "VA1_m9HMc9Ck1Uv1axWStwljY3E=", "properties": {"ref": "wa_spokane_6125-n-division-street", "@spider": "costplus_worldmarket", "official_name": "Cost Plus World Market", "shop": "interior_decoration", "addr:full": "6125 N Division Street", "addr:city": "Spokane", "addr:state": "WA", "addr:postcode": "99208", "name": "World Market Spokane", "phone": "(509) 484-8640", "website": "https://stores.worldmarket.com/wa/spokane/6125-n-division-street.html", "opening_hours": "Mo-Sa 10:00-20:00; Su 11:00-18:00", "brand": "Cost Plus World Market", "brand:wikidata": "Q5174750", "nsi_id": "worldmarket-18147c"}, "geometry": {"type": "Point", "coordinates": [-117.41215199232101, 47.71397563215418]}},
{"type": "Feature", "id": "xESf2zXKh6KVo96TtOMAPvqLAdU=", "properties": {"ref": "wa_silverdale_10315-silverdale-way-nw", "@spider": "costplus_worldmarket", "official_name": "Cost Plus World Market", "shop": "interior_decoration", "addr:full": "10315 Silverdale Way NW Suite L02", "addr:city": "Silverdale", "addr:state": "WA", "addr:postcode": "98383", "name": "World Market Silverdale", "phone": "(360) 307-8930", "website": "https://stores.worldmarket.com/wa/silverdale/10315-silverdale-way-nw.html", "opening_hours": "Mo-Sa 10:00-20:00; Su 11:00-18:00", "brand": "Cost Plus World Market", "brand:wikidata": "Q5174750", "nsi_id": "worldmarket-18147c"}, "geometry": {"type": "Point", "coordinates": [-122.6917115, 47.6577528]}},
{"type": "Feature", "id": "VS18rTjUt2RoQmthVLmz5bzI1UA=", "properties": {"ref": "wa_seattle_2103-western-avenue", "@spider": "costplus_worldmarket", "official_name": "Cost Plus World Market", "shop": "interior_decoration", "addr:full": "2103 Western Avenue", "addr:city": "Seattle", "addr:state": "WA", "addr:postcode": "98121", "name": "World Market Seattle", "phone": "(206) 443-1055", "website": "https://stores.worldmarket.com/wa/seattle/2103-western-avenue.html", "opening_hours": "Mo-Sa 10:00-20:00; Su 11:00-18:00", "brand": "Cost Plus World Market", "brand:wikidata": "Q5174750", "nsi_id": "worldmarket-18147c"}, "geometry": {"type": "Point", "coordinates": [-122.345198234561, 47.6111322220252]}},
{"type": "Feature", "id": "tNm9v3-Gmmv47O50ig0eqbBwVk8=", "properties": {"ref": "wa_renton_721-n-landing-way", "@spider": "costplus_worldmarket", "official_name": "Cost Plus World Market", "shop": "interior_decoration", "addr:full": "721 N Landing Way Suite A", "addr:city": "Renton", "addr:state": "WA", "addr:postcode": "98057", "name": "World Market Renton", "phone": "(425) 277-7580", "website": "https://stores.worldmarket.com/wa/renton/721-n-landing-way.html", "opening_hours": "Mo-Fr 11:00-20:00; Sa 10:00-20:00; Su 11:00-18:00", "brand": "Cost Plus World Market", "brand:wikidata": "Q5174750", "nsi_id": "worldmarket-18147c"}, "geometry": {"type": "Point", "coordinates": [-122.2056871, 47.4961125]}},
{"type": "Feature", "id": "9EUbidKxG3hY1ydR4fV8aK_3oXA=", "properties": {"ref": "wa_redmond_7214-170th-avenue-ne", "@spider": "costplus_worldmarket", "official_name": "Cost Plus World Market", "shop": "interior_decoration", "addr:full": "7214 170th Avenue NE Space A-1", "addr:city": "Redmond", "addr:state": "WA", "addr:postcode": "98052", "name": "World Market Redmond", "phone": "(425) 883-8863", "website": "https://stores.worldmarket.com/wa/redmond/7214-170th-avenue-ne.html", "opening_hours": "Mo-Sa 10:00-20:00; Su 11:00-18:00", "brand": "Cost Plus World Market", "brand:wikidata": "Q5174750", "nsi_id": "worldmarket-18147c"}, "geometry": {"type": "Point", "coordinates": [-122.1139913, 47.6687766]}},
{"type": "Feature", "id": "Thm4PZAwkqiyWk9PMisHzWuS5PQ=", "properties": {"ref": "wa_olympia_2401-4th-avenue-west", "@spider": "costplus_worldmarket", "official_name": "Cost Plus World Market", "shop": "interior_decoration", "addr:full": "2401 4th Avenue West", "addr:city": "Olympia", "addr:state": "WA", "addr:postcode": "98502", "name": "World Market Capital Mall", "phone": "(360) 890-3820", "website": "https://stores.worldmarket.com/wa/olympia/2401-4th-avenue-west.html", "opening_hours": "Mo-Sa 10:00-20:00; Su 11:00-18:00", "brand": "Cost Plus World Market", "brand:wikidata": "Q5174750", "nsi_id": "worldmarket-18147c"}, "geometry": {"type": "Point", "coordinates": [-122.9313466, 47.0441522]}},
{"type": "Feature", "id": "-kOZHqekFGvmDPNqXN0uKzD34Vg=", "properties": {"ref": "wa_lynnwood_18205-alderwood-mall-pkwy", "@spider": "costplus_worldmarket", "official_name": "Cost Plus World Market", "shop": "interior_decoration", "addr:full": "18205 Alderwood Mall Pkwy Suite S", "addr:city": "Lynnwood", "addr:state": "WA", "addr:postcode": "98037", "name": "World Market Lynnwood", "phone": "(425) 774-8892", "website": "https://stores.worldmarket.com/wa/lynnwood/18205-alderwood-mall-pkwy.html", "opening_hours": "Mo-Sa 10:00-20:00; Su 11:00-18:00", "brand": "Cost Plus World Market", "brand:wikidata": "Q5174750", "nsi_id": "worldmarket-18147c"}, "geometry": {"type": "Point", "coordinates": [-122.2668184, 47.8334242]}},
{"type": "Feature", "id": "Z9ku7dN4DNMccByE4A0UaZ9_nM4=", "properties": {"ref": "wa_bellevue_15600-ne-8th-street", "@spider": "costplus_worldmarket", "official_name": "Cost Plus World Market", "shop": "interior_decoration", "addr:full": "15600 NE 8th Street", "addr:city": "Bellevue", "addr:state": "WA", "addr:postcode": "98008", "name": "World Market Crossroads Bellevue", "phone": "(425) 201-3405", "website": "https://stores.worldmarket.com/wa/bellevue/15600-ne-8th-street.html", "opening_hours": "Mo-Fr 11:00-20:00; Sa 10:00-20:00; Su 11:00-18:00", "brand": "Cost Plus World Market", "brand:wikidata": "Q5174750", "nsi_id": "worldmarket-18147c"}, "geometry": {"type": "Point", "coordinates": [-122.13102668523788, 47.62068072749022]}},
{"type": "Feature", "id": "wetKO4-X5eCpr1ihkzO3PIPnI-0=", "properties": {"ref": "wi_grand-chute_680-north-casaloma-drive", "@spider": "costplus_worldmarket", "official_name": "Cost Plus World Market", "shop": "interior_decoration", "addr:full": "680 North Casaloma Drive", "addr:city": "Grand Chute", "addr:state": "WI", "addr:postcode": "54913", "name": "World Market Appleton", "phone": "(920) 997-9790", "website": "https://stores.worldmarket.com/wi/grand-chute/680-north-casaloma-drive.html", "opening_hours": "Mo-Sa 10:00-20:00; Su 11:00-18:00", "brand": "Cost Plus World Market", "brand:wikidata": "Q5174750", "nsi_id": "worldmarket-18147c"}, "geometry": {"type": "Point", "coordinates": [-88.4752133729989, 44.2686867389571]}},
{"type": "Feature", "id": "3uys0fz_PAJMrj3Bt7tS_P5eoGE=", "properties": {"ref": "wi_brookfield_625-main-street", "@spider": "costplus_worldmarket", "official_name": "Cost Plus World Market", "shop": "interior_decoration", "addr:full": "625 Main Street", "addr:city": "Brookfield", "addr:state": "WI", "addr:postcode": "53005", "name": "World Market Brookfield", "phone": "(262) 786-4672", "website": "https://stores.worldmarket.com/wi/brookfield/625-main-street.html", "opening_hours": "Mo-Sa 10:00-20:00; Su 11:00-18:00", "brand": "Cost Plus World Market", "brand:wikidata": "Q5174750", "nsi_id": "worldmarket-18147c"}, "geometry": {"type": "Point", "coordinates": [-88.1130314, 43.037835]}},
{"type": "Feature", "id": "F8deh4tJEZKUw0vQ3Qgs6R9P0KI=", "properties": {"ref": "ne_omaha_12200-k-plaza", "@spider": "costplus_worldmarket", "official_name": "Cost Plus World Market", "shop": "interior_decoration", "addr:full": "12200 K Plaza", "addr:city": "Omaha", "addr:state": "NE", "addr:postcode": "68137", "name": "World Market Omaha", "phone": "(402) 333-5665", "website": "https://stores.worldmarket.com/ne/omaha/12200-k-plaza.html", "opening_hours": "Mo-Sa 10:00-20:00; Su 11:00-18:00", "brand": "Cost Plus World Market", "brand:wikidata": "Q5174750", "nsi_id": "worldmarket-18147c"}, "geometry": {"type": "Point", "coordinates": [-96.1031761916092, 41.2147766449178]}},
{"type": "Feature", "id": "t_FkvBQ8daUkUXu-kkaJqCi6QFk=", "properties": {"ref": "ma_framingham_1-worcester-road", "@spider": "costplus_worldmarket", "official_name": "Cost Plus World Market", "shop": "interior_decoration", "addr:full": "1 Worcester Road Unit 501", "addr:city": "Framingham", "addr:state": "MA", "addr:postcode": "01701", "name": "World Market Framingham", "phone": "(508) 626-1529", "website": "https://stores.worldmarket.com/ma/framingham/1-worcester-road.html", "opening_hours": "Mo-Sa 10:00-20:00; Su 11:00-18:00", "brand": "Cost Plus World Market", "brand:wikidata": "Q5174750", "nsi_id": "worldmarket-18147c"}, "geometry": {"type": "Point", "coordinates": [-71.3935163, 42.3003499]}},
{"type": "Feature", "id": "d7uuZKS-d67EK7depqr6ecI_HqA=", "properties": {"ref": "md_rockville_12266-rockville-pike", "@spider": "costplus_worldmarket", "official_name": "Cost Plus World Market", "shop": "interior_decoration", "addr:full": "12266 Rockville Pike", "addr:city": "Rockville", "addr:state": "MD", "addr:postcode": "20852", "name": "World Market Rockville", "phone": "(301) 816-2480", "website": "https://stores.worldmarket.com/md/rockville/12266-rockville-pike.html", "opening_hours": "Mo-Sa 10:00-20:00; Su 11:00-18:00", "brand": "Cost Plus World Market", "brand:wikidata": "Q5174750", "nsi_id": "worldmarket-18147c"}, "geometry": {"type": "Point", "coordinates": [-77.1221723109647, 39.0570903393316]}},
{"type": "Feature", "id": "nG2k2OtUEYzRo0e0fI7b_Hm6s80=", "properties": {"ref": "ia_west-des-moines_4100-university-avenue", "@spider": "costplus_worldmarket", "official_name": "Cost Plus World Market", "shop": "interior_decoration", "addr:full": "4100 University Avenue Suite 210", "addr:city": "West Des Moines", "addr:state": "IA", "addr:postcode": "50266", "name": "World Market West Des Moines", "phone": "(515) 267-8666", "website": "https://stores.worldmarket.com/ia/west-des-moines/4100-university-avenue.html", "opening_hours": "Mo-Sa 10:00-20:00; Su 11:00-18:00", "brand": "Cost Plus World Market", "brand:wikidata": "Q5174750", "nsi_id": "worldmarket-18147c"}, "geometry": {"type": "Point", "coordinates": [-93.7595826387405, 41.5979339353859]}},
{"type": "Feature", "id": "1HXcCl-YdU1FnL66wRdN96Q124g=", "properties": {"ref": "in_carmel_2200-east-116th-street", "@spider": "costplus_worldmarket", "official_name": "Cost Plus World Market", "shop": "interior_decoration", "addr:full": "2200 East 116th Street", "addr:city": "Carmel", "addr:state": "IN", "addr:postcode": "46032", "name": "World Market Carmel", "phone": "(317) 706-0400", "website": "https://stores.worldmarket.com/in/carmel/2200-east-116th-street.html", "opening_hours": "Mo-Sa 10:00-20:00; Su 11:00-18:00", "brand": "Cost Plus World Market", "brand:wikidata": "Q5174750", "nsi_id": "worldmarket-18147c"}, "geometry": {"type": "Point", "coordinates": [-86.1165636777877, 39.9596060203549]}},
{"type": "Feature", "id": "AdbK_9qNruGxkAE1tnnugXxBA-o=", "properties": {"ref": "id_meridian_1200-n-eagle-road", "@spider": "costplus_worldmarket", "official_name": "Cost Plus World Market", "shop": "interior_decoration", "addr:full": "1200 N Eagle Road Suite 330", "addr:city": "Meridian", "addr:state": "ID", "addr:postcode": "83642", "name": "World Market Meridian", "phone": "(208) 884-3222", "website": "https://stores.worldmarket.com/id/meridian/1200-n-eagle-road.html", "opening_hours": "Mo-Sa 10:00-20:00; Su 11:00-18:00", "brand": "Cost Plus World Market", "brand:wikidata": "Q5174750", "nsi_id": "worldmarket-18147c"}, "geometry": {"type": "Point", "coordinates": [-116.3525776, 43.615727]}},
{"type": "Feature", "id": "9DkY_bEkptca1-KMGiZ2wuJVE_I=", "properties": {"ref": "nv_sparks_185-los-altos-parkway", "@spider": "costplus_worldmarket", "official_name": "Cost Plus World Market", "shop": "interior_decoration", "addr:full": "185 Los Altos Parkway", "addr:city": "Sparks", "addr:state": "NV", "addr:postcode": "89436", "name": "World Market Sparks", "phone": "(775) 354-2213", "website": "https://stores.worldmarket.com/nv/sparks/185-los-altos-parkway.html", "opening_hours": "Mo-Fr 11:00-20:00; Sa 10:00-20:00; Su 11:00-18:00", "brand": "Cost Plus World Market", "brand:wikidata": "Q5174750", "nsi_id": "worldmarket-18147c"}, "geometry": {"type": "Point", "coordinates": [-119.7412564, 39.5809145]}},
{"type": "Feature", "id": "ngNRA2U6XQNe1rbB5CAB6ASwNK0=", "properties": {"ref": "nv_reno_4987-s-virginia-street", "@spider": "costplus_worldmarket", "official_name": "Cost Plus World Market", "shop": "interior_decoration", "addr:full": "4987 S Virginia Street", "addr:city": "Reno", "addr:state": "NV", "addr:postcode": "89502", "name": "World Market Reno", "phone": "(775) 826-5300", "website": "https://stores.worldmarket.com/nv/reno/4987-s-virginia-street.html", "opening_hours": "Mo-Sa 10:00-20:00; Su 11:00-18:00", "brand": "Cost Plus World Market", "brand:wikidata": "Q5174750", "nsi_id": "worldmarket-18147c"}, "geometry": {"type": "Point", "coordinates": [-119.791861, 39.4794784]}},
{"type": "Feature", "id": "k-qLfttK6RCdnF50vvOr0Wqbm8I=", "properties": {"ref": "mt_missoula_3025-paxson-street", "@spider": "costplus_worldmarket", "official_name": "Cost Plus World Market", "shop": "interior_decoration", "addr:full": "3025 Paxson Street", "addr:city": "Missoula", "addr:state": "MT", "addr:postcode": "59801", "name": "World Market Missoula", "phone": "(406) 542-6669", "website": "https://stores.worldmarket.com/mt/missoula/3025-paxson-street.html", "opening_hours": "Mo-Sa 10:00-20:00; Su 11:00-18:00", "brand": "Cost Plus World Market", "brand:wikidata": "Q5174750", "nsi_id": "worldmarket-18147c"}, "geometry": {"type": "Point", "coordinates": [-114.0300231, 46.8429627]}},
{"type": "Feature", "id": "YoCvM6GkqBoYsDkc5CZJ7oJalqs=", "properties": {"ref": "mn_maple-grove_12209-elm-creek-blvd-n", "@spider": "costplus_worldmarket", "official_name": "Cost Plus World Market", "shop": "interior_decoration", "addr:full": "12209 Elm Creek Blvd N", "addr:city": "Maple Grove", "addr:state": "MN", "addr:postcode": "55369", "name": "World Market Maple Grove", "phone": "(763) 424-0271", "website": "https://stores.worldmarket.com/mn/maple-grove/12209-elm-creek-blvd-n.html", "opening_hours": "Mo-Sa 10:00-20:00; Su 11:00-18:00", "brand": "Cost Plus World Market", "brand:wikidata": "Q5174750", "nsi_id": "worldmarket-18147c"}, "geometry": {"type": "Point", "coordinates": [-93.4358292818069, 45.0917244967949]}},
{"type": "Feature", "id": "FK20oQVyvP6RUK8i7aHAouFolIA=", "properties": {"ref": "mi_portage_6601-s-westnedge-avenue", "@spider": "costplus_worldmarket", "official_name": "Cost Plus World Market", "shop": "interior_decoration", "addr:full": "6601 S Westnedge Avenue Suite B", "addr:city": "Portage", "addr:state": "MI", "addr:postcode": "49002", "name": "World Market Portage", "phone": "(269) 329-1631", "website": "https://stores.worldmarket.com/mi/portage/6601-s-westnedge-avenue.html", "opening_hours": "Mo-Fr 11:00-19:00; Sa 10:00-20:00; Su 11:00-18:00", "brand": "Cost Plus World Market", "brand:wikidata": "Q5174750", "nsi_id": "worldmarket-18147c"}, "geometry": {"type": "Point", "coordinates": [-85.5878841876983, 42.2210911538355]}},
{"type": "Feature", "id": "ECemHHfaSNUq38PHdIQbxFcTkro=", "properties": {"ref": "mi_lansing_427-mall-court", "@spider": "costplus_worldmarket", "official_name": "Cost Plus World Market", "shop": "interior_decoration", "addr:full": "427 Mall Court", "addr:city": "Lansing", "addr:state": "MI", "addr:postcode": "48912", "name": "World Market Lansing", "phone": "(517) 337-1100", "website": "https://stores.worldmarket.com/mi/lansing/427-mall-court.html", "opening_hours": "Mo-Sa 10:00-20:00; Su 11:00-18:00", "brand": "Cost Plus World Market", "brand:wikidata": "Q5174750", "nsi_id": "worldmarket-18147c"}, "geometry": {"type": "Point", "coordinates": [-84.5074182, 42.7380346]}},
{"type": "Feature", "id": "hFmucppXIecemXzzMWeCa4Zv5lA=", "properties": {"ref": "mi_grand-rapids_3641-28th-street-se", "@spider": "costplus_worldmarket", "official_name": "Cost Plus World Market", "shop": "interior_decoration", "addr:full": "3641 28th Street SE", "addr:city": "Grand Rapids", "addr:state": "MI", "addr:postcode": "49512", "name": "World Market Grand Rapids", "phone": "(616) 942-7799", "website": "https://stores.worldmarket.com/mi/grand-rapids/3641-28th-street-se.html", "opening_hours": "Mo-Sa 10:00-20:00; Su 11:00-18:00", "brand": "Cost Plus World Market", "brand:wikidata": "Q5174750", "nsi_id": "worldmarket-18147c"}, "geometry": {"type": "Point", "coordinates": [-85.5773849, 42.9151321]}},
{"type": "Feature", "id": "frhbGBPaXqk9fE6i3Wv2YX02nZk=", "properties": {"ref": "la_shreveport_7071-youree-drive", "@spider": "costplus_worldmarket", "official_name": "Cost Plus World Market", "shop": "interior_decoration", "addr:full": "7071 Youree Drive", "addr:city": "Shreveport", "addr:state": "LA", "addr:postcode": "71105", "name": "World Market Shreveport", "phone": "(318) 798-6385", "website": "https://stores.worldmarket.com/la/shreveport/7071-youree-drive.html", "opening_hours": "Mo-Fr 11:00-20:00; Sa 10:00-20:00; Su 11:00-18:00", "brand": "Cost Plus World Market", "brand:wikidata": "Q5174750", "nsi_id": "worldmarket-18147c"}, "geometry": {"type": "Point", "coordinates": [-93.7153235077857, 32.4425670750751]}},
{"type": "Feature", "id": "i2mcl5baqChpcBqRKt-20VYIuwo=", "properties": {"ref": "ky_saint-matthews_4600-shelbyville-road", "@spider": "costplus_worldmarket", "official_name": "Cost Plus World Market", "shop": "interior_decoration", "addr:full": "4600 Shelbyville Road Suite 607", "addr:city": "Saint Matthews", "addr:state": "KY", "addr:postcode": "40207", "name": "World Market St. Matthews", "phone": "(502) 891-0066", "website": "https://stores.worldmarket.com/ky/saint-matthews/4600-shelbyville-road.html", "opening_hours": "Mo-Sa 10:00-20:00; Su 11:00-18:00", "brand": "Cost Plus World Market", "brand:wikidata": "Q5174750", "nsi_id": "worldmarket-18147c"}, "geometry": {"type": "Point", "coordinates": [-85.6293537, 38.2486385]}},
{"type": "Feature", "id": "aBgwatjyy3pFv2UoihDtNUKk5N0=", "properties": {"ref": "ks_wichita_2746-n-greenwich-court", "@spider": "costplus_worldmarket", "official_name": "Cost Plus World Market", "shop": "interior_decoration", "addr:full": "2746 N Greenwich Court", "addr:city": "Wichita", "addr:state": "KS", "addr:postcode": "67226", "name": "World Market Wichita", "phone": "(316) 315-0741", "website": "https://stores.worldmarket.com/ks/wichita/2746-n-greenwich-court.html", "opening_hours": "Mo-Sa 10:00-20:00; Su 11:00-18:00", "brand": "Cost Plus World Market", "brand:wikidata": "Q5174750", "nsi_id": "worldmarket-18147c"}, "geometry": {"type": "Point", "coordinates": [-97.2047175, 37.7332043]}},
{"type": "Feature", "id": "Z2Zldct9zYnXJ-mIHZMigIODnEc=", "properties": {"ref": "ks_lawrence_3106-iowa-st", "@spider": "costplus_worldmarket", "official_name": "Cost Plus World Market", "shop": "interior_decoration", "addr:full": "3106 Iowa St Suite 200", "addr:city": "Lawrence", "addr:state": "KS", "addr:postcode": "66046", "name": "World Market Lawrence", "phone": "(785) 331-2312", "website": "https://stores.worldmarket.com/ks/lawrence/3106-iowa-st.html", "opening_hours": "Mo-Fr 11:00-20:00; Sa 10:00-20:00; Su 11:00-18:00", "brand": "Cost Plus World Market", "brand:wikidata": "Q5174750", "nsi_id": "worldmarket-18147c"}, "geometry": {"type": "Point", "coordinates": [-95.2584508, 38.9274236]}},
{"type": "Feature", "id": "b5MDpCte6WptgCVM_zMgUfyFFss=", "properties": {"ref": "ky_lexington_2321-sir-barton-way", "@spider": "costplus_worldmarket", "official_name": "Cost Plus World Market", "shop": "interior_decoration", "addr:full": "2321 Sir Barton Way #1060", "addr:city": "Lexington", "addr:state": "KY", "addr:postcode": "40509", "name": "World Market Lexington", "phone": "(859) 788-5023", "website": "https://stores.worldmarket.com/ky/lexington/2321-sir-barton-way.html", "opening_hours": "Mo-Fr 11:00-19:00; Sa 10:00-20:00; Su 11:00-18:00", "brand": "Cost Plus World Market", "brand:wikidata": "Q5174750", "nsi_id": "worldmarket-18147c"}, "geometry": {"type": "Point", "coordinates": [-84.4245756, 38.0220305]}},
{"type": "Feature", "id": "ut42f5B3uhQo5BMVIzw4oxs66R4=", "properties": {"ref": "il_st--charles_3555-east-main-street", "@spider": "costplus_worldmarket", "official_name": "Cost Plus World Market", "shop": "interior_decoration", "addr:full": "3555 East Main Street", "addr:city": "St. Charles", "addr:state": "IL", "addr:postcode": "60174", "name": "World Market St Charles", "phone": "(630) 587-1011", "website": "https://stores.worldmarket.com/il/st--charles/3555-east-main-street.html", "opening_hours": "Mo-Fr 11:00-20:00; Sa 10:00-20:00; Su 11:00-18:00", "brand": "Cost Plus World Market", "brand:wikidata": "Q5174750", "nsi_id": "worldmarket-18147c"}, "geometry": {"type": "Point", "coordinates": [-88.2737835, 41.9190629]}},
{"type": "Feature", "id": "IHGrKbrgAC_4Ytj6oBW4lQguJy8=", "properties": {"ref": "il_oak-brook_2155-west-22nd-street", "@spider": "costplus_worldmarket", "official_name": "Cost Plus World Market", "shop": "interior_decoration", "addr:full": "2155 West 22nd Street Suite 500", "addr:city": "Oak Brook", "addr:state": "IL", "addr:postcode": "60523", "name": "World Market Oakbrook", "phone": "(630) 573-9826", "website": "https://stores.worldmarket.com/il/oak-brook/2155-west-22nd-street.html", "opening_hours": "Mo-Sa 10:00-20:00; Su 11:00-18:00", "brand": "Cost Plus World Market", "brand:wikidata": "Q5174750", "nsi_id": "worldmarket-18147c"}, "geometry": {"type": "Point", "coordinates": [-87.9696586, 41.8451512]}},
{"type": "Feature", "id": "Sz4RP5QeMBc3OzugPuJuCAoaec8=", "properties": {"ref": "ga_kennesaw_840-ernest-w-barrett-parkway-nw", "@spider": "costplus_worldmarket", "official_name": "Cost Plus World Market", "shop": "interior_decoration", "addr:full": "840 Ernest W Barrett Parkway NW Suite 200", "addr:city": "Kennesaw", "addr:state": "GA", "addr:postcode": "30144", "name": "World Market Kennesaw", "phone": "(770) 794-4777", "website": "https://stores.worldmarket.com/ga/kennesaw/840-ernest-w-barrett-parkway-nw.html", "opening_hours": "Mo-Sa 10:00-20:00; Su 11:00-18:00", "brand": "Cost Plus World Market", "brand:wikidata": "Q5174750", "nsi_id": "worldmarket-18147c"}, "geometry": {"type": "Point", "coordinates": [-84.5767548680851, 34.0069186468096]}},
{"type": "Feature", "id": "HXoEw94mocaso3VGGyo5SJOFjjg=", "properties": {"ref": "fl_winter-garden_3227-daniels-road", "@spider": "costplus_worldmarket", "official_name": "Cost Plus World Market", "shop": "interior_decoration", "addr:full": "3227 Daniels Road", "addr:city": "Winter Garden", "addr:state": "FL", "addr:postcode": "34787", "name": "World Market Winter Garden", "phone": "(407) 877-6504", "website": "https://stores.worldmarket.com/fl/winter-garden/3227-daniels-road.html", "opening_hours": "Mo-Sa 10:00-20:00; Su 11:00-18:00", "brand": "Cost Plus World Market", "brand:wikidata": "Q5174750", "nsi_id": "worldmarket-18147c"}, "geometry": {"type": "Point", "coordinates": [-81.5845662, 28.5232554]}},
{"type": "Feature", "id": "J73kUcGD7r9R8miqaSV49p29vCQ=", "properties": {"ref": "fl_wesley-chapel_5831-wesley-grove-blvd", "@spider": "costplus_worldmarket", "official_name": "Cost Plus World Market", "shop": "interior_decoration", "addr:full": "5831 Wesley Grove Blvd", "addr:city": "Wesley Chapel", "addr:state": "FL", "addr:postcode": "33544", "name": "World Market The Grove at Wesley Chapel", "phone": "(813) 371-2433", "website": "https://stores.worldmarket.com/fl/wesley-chapel/5831-wesley-grove-blvd.html", "opening_hours": "Mo-Sa 10:00-20:00; Su 11:00-18:00", "brand": "Cost Plus World Market", "brand:wikidata": "Q5174750", "nsi_id": "worldmarket-18147c"}, "geometry": {"type": "Point", "coordinates": [-82.3539847, 28.2421894]}},
{"type": "Feature", "id": "7Njl_ZzgpdUT3b8A3y0HBwqQu4w=", "properties": {"ref": "fl_tallahassee_1480-apalachee-parkway", "@spider": "costplus_worldmarket", "official_name": "Cost Plus World Market", "shop": "interior_decoration", "addr:full": "1480 Apalachee Parkway", "addr:city": "Tallahassee", "addr:state": "FL", "addr:postcode": "32301", "name": "World Market Tallahassee", "phone": "(850) 656-9977", "website": "https://stores.worldmarket.com/fl/tallahassee/1480-apalachee-parkway.html", "opening_hours": "Mo-Fr 11:00-20:00; Sa 10:00-20:00; Su 11:00-18:00", "brand": "Cost Plus World Market", "brand:wikidata": "Q5174750", "nsi_id": "worldmarket-18147c"}, "geometry": {"type": "Point", "coordinates": [-84.2585197091102, 30.4372364315995]}},
{"type": "Feature", "id": "-Z891sTI_OpRaD36-ouYm6aWBow=", "properties": {"ref": "fl_sanford_2251-wp-ball-blvd", "@spider": "costplus_worldmarket", "official_name": "Cost Plus World Market", "shop": "interior_decoration", "addr:full": "2251 Wp Ball Blvd", "addr:city": "Sanford", "addr:state": "FL", "addr:postcode": "32771", "name": "World Market Sanford", "phone": "(407) 302-0263", "website": "https://stores.worldmarket.com/fl/sanford/2251-wp-ball-blvd.html", "opening_hours": "Mo-Sa 10:00-20:00; Su 11:00-18:00", "brand": "Cost Plus World Market", "brand:wikidata": "Q5174750", "nsi_id": "worldmarket-18147c"}, "geometry": {"type": "Point", "coordinates": [-81.3322128, 28.79968]}},
{"type": "Feature", "id": "nWLX_AxUDkklqAzeffcZOV2U7-U=", "properties": {"ref": "mo_kansas-city_535-westport-road", "@spider": "costplus_worldmarket", "official_name": "Cost Plus World Market", "shop": "interior_decoration", "addr:full": "535 Westport Road", "addr:city": "Kansas City", "addr:state": "MO", "addr:postcode": "64111", "name": "World Market Kansas City Westport", "phone": "(816) 931-3590", "website": "https://stores.worldmarket.com/mo/kansas-city/535-westport-road.html", "opening_hours": "Mo-Sa 10:00-20:00; Su 11:00-18:00", "brand": "Cost Plus World Market", "brand:wikidata": "Q5174750", "nsi_id": "worldmarket-18147c"}, "geometry": {"type": "Point", "coordinates": [-94.5930693, 39.0517181]}},
{"type": "Feature", "id": "FWZ6Pjah-EygRDNUB0DNYtpwecY=", "properties": {"ref": "mo_kansas-city_1111-west-136th-street", "@spider": "costplus_worldmarket", "official_name": "Cost Plus World Market", "shop": "interior_decoration", "addr:full": "1111 West 136th Street", "addr:city": "Kansas City", "addr:state": "MO", "addr:postcode": "64145", "name": "World Market Kansas City Stateline", "phone": "(816) 943-6423", "website": "https://stores.worldmarket.com/mo/kansas-city/1111-west-136th-street.html", "opening_hours": "Mo-Sa 10:00-20:00; Su 11:00-18:00", "brand": "Cost Plus World Market", "brand:wikidata": "Q5174750", "nsi_id": "worldmarket-18147c"}, "geometry": {"type": "Point", "coordinates": [-94.6056232, 38.8797382]}},
{"type": "Feature", "id": "nqfr659Gmiz2CFBo6_uBNVBOoj8=", "properties": {"ref": "fl_pensacola_5420-n-9th-avenue", "@spider": "costplus_worldmarket", "official_name": "Cost Plus World Market", "shop": "interior_decoration", "addr:full": "5420 N 9th Avenue", "addr:city": "Pensacola", "addr:state": "FL", "addr:postcode": "32504", "name": "World Market Pensacola", "phone": "(850) 475-0655", "website": "https://stores.worldmarket.com/fl/pensacola/5420-n-9th-avenue.html", "opening_hours": "Mo-Sa 10:00-20:00; Su 11:00-18:00", "brand": "Cost Plus World Market", "brand:wikidata": "Q5174750", "nsi_id": "worldmarket-18147c"}, "geometry": {"type": "Point", "coordinates": [-87.2072786944427, 30.4764297813798]}},
{"type": "Feature", "id": "JD2N_wd4WRIj38hmN4lCuAAT5cA=", "properties": {"ref": "fl_panama-city-beach_15700-panama-city-beach-parkway", "@spider": "costplus_worldmarket", "official_name": "Cost Plus World Market", "shop": "interior_decoration", "addr:full": "15700 Panama City Beach Parkway Suite 100", "addr:city": "Panama City Beach", "addr:state": "FL", "addr:postcode": "32413", "name": "World Market Panama City", "phone": "(850) 235-4157", "website": "https://stores.worldmarket.com/fl/panama-city-beach/15700-panama-city-beach-parkway.html", "opening_hours": "Mo-Sa 10:00-20:00; Su 11:00-18:00", "brand": "Cost Plus World Market", "brand:wikidata": "Q5174750", "nsi_id": "worldmarket-18147c"}, "geometry": {"type": "Point", "coordinates": [-85.86862927116397, 30.22444610649871]}},
{"type": "Feature", "id": "o2kN5bpRIAGzjKsLxJMV0xuftx4=", "properties": {"ref": "fl_naples_2415-tarpon-bay-blvd", "@spider": "costplus_worldmarket", "official_name": "Cost Plus World Market", "shop": "interior_decoration", "addr:full": "2415 Tarpon Bay Blvd Unit 3", "addr:city": "Naples", "addr:state": "FL", "addr:postcode": "34119", "name": "World Market Naples", "phone": "(239) 566-1239", "website": "https://stores.worldmarket.com/fl/naples/2415-tarpon-bay-blvd.html", "opening_hours": "Mo-Sa 10:00-20:00; Su 11:00-18:00", "brand": "Cost Plus World Market", "brand:wikidata": "Q5174750", "nsi_id": "worldmarket-18147c"}, "geometry": {"type": "Point", "coordinates": [-81.7388876, 26.2703718]}},
{"type": "Feature", "id": "iwhx5yveSxZutotcz199iMx6xO4=", "properties": {"ref": "fl_melbourne_2221-town-center-avenue", "@spider": "costplus_worldmarket", "official_name": "Cost Plus World Market", "shop": "interior_decoration", "addr:full": "2221 Town Center Avenue Suite 135", "addr:city": "Melbourne", "addr:state": "FL", "addr:postcode": "32940", "name": "World Market Melbourne", "phone": "(321) 504-7223", "website": "https://stores.worldmarket.com/fl/melbourne/2221-town-center-avenue.html", "opening_hours": "Mo-Sa 10:00-20:00; Su 11:00-18:00", "brand": "Cost Plus World Market", "brand:wikidata": "Q5174750", "nsi_id": "worldmarket-18147c"}, "geometry": {"type": "Point", "coordinates": [-80.7280257, 28.2420101]}},
{"type": "Feature", "id": "TOUlYNttkakZ7NSlXXSdnMdl1no=", "properties": {"ref": "fl_jacksonville-beach_950-marsh-landing-parkway", "@spider": "costplus_worldmarket", "official_name": "Cost Plus World Market", "shop": "interior_decoration", "addr:full": "950 Marsh Landing Parkway Unit 205", "addr:city": "Jacksonville Beach", "addr:state": "FL", "addr:postcode": "32250", "name": "World Market Jacksonville Beach", "phone": "(904) 543-1133", "website": "https://stores.worldmarket.com/fl/jacksonville-beach/950-marsh-landing-parkway.html", "opening_hours": "Mo-Sa 10:00-20:00; Su 11:00-18:00", "brand": "Cost Plus World Market", "brand:wikidata": "Q5174750", "nsi_id": "worldmarket-18147c"}, "geometry": {"type": "Point", "coordinates": [-81.3959503, 30.2554111]}},
{"type": "Feature", "id": "4EcNo6Lr7fQtM7MZ5GwcWbkFlOs=", "properties": {"ref": "fl_jacksonville_11111-san-jose-blvd", "@spider": "costplus_worldmarket", "official_name": "Cost Plus World Market", "shop": "interior_decoration", "addr:full": "11111 San Jose Blvd Suite 5", "addr:city": "Jacksonville", "addr:state": "FL", "addr:postcode": "32223", "name": "World Market Jacksonville Mandarin", "phone": "(904) 260-3039", "website": "https://stores.worldmarket.com/fl/jacksonville/11111-san-jose-blvd.html", "opening_hours": "Mo-Sa 10:00-20:00; Su 11:00-18:00", "brand": "Cost Plus World Market", "brand:wikidata": "Q5174750", "nsi_id": "worldmarket-18147c"}, "geometry": {"type": "Point", "coordinates": [-81.625373, 30.1746217]}},
{"type": "Feature", "id": "d5xBKtiP1EIXa0pjvpqyoh16ACQ=", "properties": {"ref": "fl_fort-myers_13741-s-tamiami-trail", "@spider": "costplus_worldmarket", "official_name": "Cost Plus World Market", "shop": "interior_decoration", "addr:full": "13741 S Tamiami Trail Unit 3", "addr:city": "Fort Myers", "addr:state": "FL", "addr:postcode": "33912", "name": "World Market Fort Myers", "phone": "(239) 226-9711", "website": "https://stores.worldmarket.com/fl/fort-myers/13741-s-tamiami-trail.html", "opening_hours": "Mo-Sa 10:00-20:00; Su 11:00-18:00", "brand": "Cost Plus World Market", "brand:wikidata": "Q5174750", "nsi_id": "worldmarket-18147c"}, "geometry": {"type": "Point", "coordinates": [-81.8693094402715, 26.541551768924]}},
{"type": "Feature", "id": "4OGNFZRUDqHxIjQBt9yXMSCzCek=", "properties": {"ref": "fl_daytona-beach_2400-west-international-speedway", "@spider": "costplus_worldmarket", "official_name": "Cost Plus World Market", "shop": "interior_decoration", "addr:full": "2400 West International Speedway Suite 300", "addr:city": "Daytona Beach", "addr:state": "FL", "addr:postcode": "32114", "name": "World Market Daytona Beach", "phone": "(386) 258-7817", "website": "https://stores.worldmarket.com/fl/daytona-beach/2400-west-international-speedway.html", "opening_hours": "Mo-Fr 11:00-20:00; Sa 10:00-20:00; Su 11:00-18:00", "brand": "Cost Plus World Market", "brand:wikidata": "Q5174750", "nsi_id": "worldmarket-18147c"}, "geometry": {"type": "Point", "coordinates": [-81.0815347, 29.181657]}},
{"type": "Feature", "id": "fGxjSXyO61o_xBB7vItQqBE9B6s=", "properties": {"ref": "fl_clearwater_23674-us-highway-19n", "@spider": "costplus_worldmarket", "official_name": "Cost Plus World Market", "shop": "interior_decoration", "addr:full": "23674 US Highway 19N", "addr:city": "Clearwater", "addr:state": "FL", "addr:postcode": "33765", "name": "World Market Sunset Point", "phone": "(727) 431-0176", "website": "https://stores.worldmarket.com/fl/clearwater/23674-us-highway-19n.html", "opening_hours": "Mo-Sa 10:00-20:00; Su 11:00-18:00", "brand": "Cost Plus World Market", "brand:wikidata": "Q5174750", "nsi_id": "worldmarket-18147c"}, "geometry": {"type": "Point", "coordinates": [-82.7322409, 27.9888329]}},
{"type": "Feature", "id": "8uRuGxzzltKgAA0BY0Tsiwp2WXk=", "properties": {"ref": "ga_dunwoody_4733-ashford-dunwoody-road", "@spider": "costplus_worldmarket", "official_name": "Cost Plus World Market", "shop": "interior_decoration", "addr:full": "4733 Ashford Dunwoody Road", "addr:city": "Dunwoody", "addr:state": "GA", "addr:postcode": "30338", "name": "World Market Perimeter", "phone": "(678) 731-0014", "website": "https://stores.worldmarket.com/ga/dunwoody/4733-ashford-dunwoody-road.html", "opening_hours": "Mo-Sa 10:00-20:00; Su 11:00-18:00", "brand": "Cost Plus World Market", "brand:wikidata": "Q5174750", "nsi_id": "worldmarket-18147c"}, "geometry": {"type": "Point", "coordinates": [-84.334537411045, 33.9334154094627]}},
{"type": "Feature", "id": "aD-k4G5NnSi7o0niov-Xn7lwiDs=", "properties": {"ref": "ga_buford_1600-mall-of-georgia-blvd", "@spider": "costplus_worldmarket", "official_name": "Cost Plus World Market", "shop": "interior_decoration", "addr:full": "1600 Mall Of Georgia Blvd Suite 1300", "addr:city": "Buford", "addr:state": "GA", "addr:postcode": "30519", "name": "World Market Buford", "phone": "(770) 614-5447", "website": "https://stores.worldmarket.com/ga/buford/1600-mall-of-georgia-blvd.html", "opening_hours": "Mo-Sa 10:00-20:00; Su 11:00-18:00", "brand": "Cost Plus World Market", "brand:wikidata": "Q5174750", "nsi_id": "worldmarket-18147c"}, "geometry": {"type": "Point", "coordinates": [-83.9938209, 34.0642446]}},
{"type": "Feature", "id": "T4KlyrpgfDsjKjfynjfUMfdMr88=", "properties": {"ref": "ga_atlanta_3495-buckhead-loop-ne", "@spider": "costplus_worldmarket", "official_name": "Cost Plus World Market", "shop": "interior_decoration", "addr:full": "3495 Buckhead Loop NE", "addr:city": "Atlanta", "addr:state": "GA", "addr:postcode": "30326", "name": "World Market Atlanta Buckhead", "phone": "(470) 447-5788", "website": "https://stores.worldmarket.com/ga/atlanta/3495-buckhead-loop-ne.html", "opening_hours": "Mo-Sa 10:00-20:00; Su 11:00-18:00", "brand": "Cost Plus World Market", "brand:wikidata": "Q5174750", "nsi_id": "worldmarket-18147c"}, "geometry": {"type": "Point", "coordinates": [-84.370815, 33.851054]}},
{"type": "Feature", "id": "scgcZKMbCCh3OWcDGdJOyneP9E4=", "properties": {"ref": "il_naperville_276-s--route-59", "@spider": "costplus_worldmarket", "official_name": "Cost Plus World Market", "shop": "interior_decoration", "addr:full": "276 S. Route 59", "addr:city": "Naperville", "addr:state": "IL", "addr:postcode": "60540", "name": "World Market Naperville", "phone": "(331) 702-6577", "website": "https://stores.worldmarket.com/il/naperville/276-s--route-59.html", "opening_hours": "Mo-Sa 10:00-20:00; Su 11:00-18:00", "brand": "Cost Plus World Market", "brand:wikidata": "Q5174750", "nsi_id": "worldmarket-18147c"}, "geometry": {"type": "Point", "coordinates": [-88.20389075252353, 41.767697061350965]}},
{"type": "Feature", "id": "NVKIPAmxO65VHkIdhydDMwp5ahw=", "properties": {"ref": "il_kildeer_20505-north-rand-road", "@spider": "costplus_worldmarket", "official_name": "Cost Plus World Market", "shop": "interior_decoration", "addr:full": "20505 North Rand Road Suite 240", "addr:city": "Kildeer", "addr:state": "IL", "addr:postcode": "60047", "name": "World Market Kildeer", "phone": "(847) 726-1664", "website": "https://stores.worldmarket.com/il/kildeer/20505-north-rand-road.html", "opening_hours": "Mo-Sa 10:00-20:00; Su 11:00-18:00", "brand": "Cost Plus World Market", "brand:wikidata": "Q5174750", "nsi_id": "worldmarket-18147c"}, "geometry": {"type": "Point", "coordinates": [-88.0500984191894, 42.1624928481047]}},
{"type": "Feature", "id": "FULTA-6SDBeric59JXIHozw5tZw=", "properties": {"ref": "il_evanston_1725-maple-avenue", "@spider": "costplus_worldmarket", "official_name": "Cost Plus World Market", "shop": "interior_decoration", "addr:full": "1725 Maple Avenue", "addr:city": "Evanston", "addr:state": "IL", "addr:postcode": "60201", "name": "World Market Evanston", "phone": "(847) 424-1022", "website": "https://stores.worldmarket.com/il/evanston/1725-maple-avenue.html", "opening_hours": "Mo-Fr 11:00-20:00; Sa 10:00-20:00; Su 11:00-18:00", "brand": "Cost Plus World Market", "brand:wikidata": "Q5174750", "nsi_id": "worldmarket-18147c"}, "geometry": {"type": "Point", "coordinates": [-87.6844409108161, 42.0491552095161]}},
{"type": "Feature", "id": "AWItXT1zxpGZEpNi7rcVRpp9JxE=", "properties": {"ref": "il_crystal-lake_6000-northwest-highway", "@spider": "costplus_worldmarket", "official_name": "Cost Plus World Market", "shop": "interior_decoration", "addr:full": "6000 Northwest Highway", "addr:city": "Crystal Lake", "addr:state": "IL", "addr:postcode": "60014", "name": "World Market Crystal Lake", "phone": "(815) 455-3994", "website": "https://stores.worldmarket.com/il/crystal-lake/6000-northwest-highway.html", "opening_hours": "Mo-Fr 11:00-20:00; Sa 10:00-20:00; Su 11:00-18:00", "brand": "Cost Plus World Market", "brand:wikidata": "Q5174750", "nsi_id": "worldmarket-18147c"}, "geometry": {"type": "Point", "coordinates": [-88.3125827, 42.2278063]}},
{"type": "Feature", "id": "tj66yG7QQkq41qI87rkbkg6erN0=", "properties": {"ref": "il_chicago_1623-north-sheffield-avenue", "@spider": "costplus_worldmarket", "official_name": "Cost Plus World Market", "shop": "interior_decoration", "addr:full": "1623 North Sheffield Avenue", "addr:city": "Chicago", "addr:state": "IL", "addr:postcode": "60614", "name": "World Market Lincoln Park", "phone": "(312) 587-8037", "website": "https://stores.worldmarket.com/il/chicago/1623-north-sheffield-avenue.html", "opening_hours": "Mo-Sa 10:00-20:00; Su 11:00-18:00", "brand": "Cost Plus World Market", "brand:wikidata": "Q5174750", "nsi_id": "worldmarket-18147c"}, "geometry": {"type": "Point", "coordinates": [-87.652715742588, 41.9115153782916]}},
{"type": "Feature", "id": "rPq9z5vJou8pUblaNx72SRkzPQc=", "properties": {"ref": "la_lafayette_3615-ambassador-caffery-parkway", "@spider": "costplus_worldmarket", "official_name": "Cost Plus World Market", "shop": "interior_decoration", "addr:full": "3615 Ambassador Caffery Parkway", "addr:city": "Lafayette", "addr:state": "LA", "addr:postcode": "70503", "name": "World Market Lafayette", "phone": "(337) 216-1544", "website": "https://stores.worldmarket.com/la/lafayette/3615-ambassador-caffery-parkway.html", "opening_hours": "Mo-Fr 11:00-20:00; Sa 10:00-20:00; Su 11:00-18:00", "brand": "Cost Plus World Market", "brand:wikidata": "Q5174750", "nsi_id": "worldmarket-18147c"}, "geometry": {"type": "Point", "coordinates": [-92.0690879, 30.1758091]}},
{"type": "Feature", "id": "clTzrhfAOfPKzM90BJsldIx8Ggc=", "properties": {"ref": "la_harvey_1617-westbank-expressway", "@spider": "costplus_worldmarket", "official_name": "Cost Plus World Market", "shop": "interior_decoration", "addr:full": "1617 Westbank Expressway", "addr:city": "Harvey", "addr:state": "LA", "addr:postcode": "70058", "name": "World Market Harvey", "phone": "(504) 227-2244", "website": "https://stores.worldmarket.com/la/harvey/1617-westbank-expressway.html", "opening_hours": "Mo-Fr 10:00-19:00; Sa 10:00-20:00; Su 11:00-18:00", "brand": "Cost Plus World Market", "brand:wikidata": "Q5174750", "nsi_id": "worldmarket-18147c"}, "geometry": {"type": "Point", "coordinates": [-90.0691868, 29.9046362]}},
{"type": "Feature", "id": "YLQ0zrisYW8Cd0A97PQfLnwOh5c=", "properties": {"ref": "la_harahan_1134-south-clearview-parkway", "@spider": "costplus_worldmarket", "official_name": "Cost Plus World Market", "shop": "interior_decoration", "addr:full": "1134 South Clearview Parkway", "addr:city": "Harahan", "addr:state": "LA", "addr:postcode": "70123", "name": "World Market Elmwood", "phone": "(504) 736-0571", "website": "https://stores.worldmarket.com/la/harahan/1134-south-clearview-parkway.html", "opening_hours": "Mo-Sa 10:00-20:00; Su 11:00-18:00", "brand": "Cost Plus World Market", "brand:wikidata": "Q5174750", "nsi_id": "worldmarket-18147c"}, "geometry": {"type": "Point", "coordinates": [-90.1855225, 29.9625098]}},
{"type": "Feature", "id": "HRhS08lVmgVHn8eORFO5RdUz4Vs=", "properties": {"ref": "la_baton-rouge_10565-s--mall-drive", "@spider": "costplus_worldmarket", "official_name": "Cost Plus World Market", "shop": "interior_decoration", "addr:full": "10565 S. Mall Drive", "addr:city": "Baton Rouge", "addr:state": "LA", "addr:postcode": "70809", "name": "World Market Baton Rouge", "phone": "(225) 296-4213", "website": "https://stores.worldmarket.com/la/baton-rouge/10565-s--mall-drive.html", "opening_hours": "Mo-Sa 10:00-20:00; Su 11:00-18:00", "brand": "Cost Plus World Market", "brand:wikidata": "Q5174750", "nsi_id": "worldmarket-18147c"}, "geometry": {"type": "Point", "coordinates": [-91.060995, 30.37366]}},
{"type": "Feature", "id": "v592slep5TwpEF7IL3udX_So3TI=", "properties": {"ref": "mi_ann-arbor_2900-south-state-street", "@spider": "costplus_worldmarket", "official_name": "Cost Plus World Market", "shop": "interior_decoration", "addr:full": "2900 South State Street Suite 15", "addr:city": "Ann Arbor", "addr:state": "MI", "addr:postcode": "48104", "name": "World Market Ann Arbor", "phone": "(734) 327-1900", "website": "https://stores.worldmarket.com/mi/ann-arbor/2900-south-state-street.html", "opening_hours": "Mo-Sa 10:00-20:00; Su 11:00-18:00", "brand": "Cost Plus World Market", "brand:wikidata": "Q5174750", "nsi_id": "worldmarket-18147c"}, "geometry": {"type": "Point", "coordinates": [-83.7401951, 42.2452884]}},
{"type": "Feature", "id": "AXvG7TfRgzSYVH-uYuEry5VUm-I=", "properties": {"ref": "mn_bloomington_4250-west-78th-st", "@spider": "costplus_worldmarket", "official_name": "Cost Plus World Market", "shop": "interior_decoration", "addr:full": "4250 West 78th St", "addr:city": "Bloomington", "addr:state": "MN", "addr:postcode": "55435", "name": "World Market Bloomington", "phone": "(952) 831-1914", "website": "https://stores.worldmarket.com/mn/bloomington/4250-west-78th-st.html", "opening_hours": "Mo-Sa 10:00-20:00; Su 11:00-18:00", "brand": "Cost Plus World Market", "brand:wikidata": "Q5174750", "nsi_id": "worldmarket-18147c"}, "geometry": {"type": "Point", "coordinates": [-93.3334615, 44.8605612]}},
{"type": "Feature", "id": "LAuKhXrrkvV6QBnQoL2znJofLJ0=", "properties": {"ref": "mo_independence_19900-east-jackson-drive", "@spider": "costplus_worldmarket", "official_name": "Cost Plus World Market", "shop": "interior_decoration", "addr:full": "19900 East Jackson Drive", "addr:city": "Independence", "addr:state": "MO", "addr:postcode": "64057", "name": "World Market Independence", "phone": "(816) 795-6700", "website": "https://stores.worldmarket.com/mo/independence/19900-east-jackson-drive.html", "opening_hours": "Mo-Fr 11:00-20:00; Sa 10:00-20:00; Su 11:00-18:00", "brand": "Cost Plus World Market", "brand:wikidata": "Q5174750", "nsi_id": "worldmarket-18147c"}, "geometry": {"type": "Point", "coordinates": [-94.3456848, 39.0423262]}},
{"type": "Feature", "id": "QWnF4wb6GSSyYT2lxa0MZixZOmU=", "properties": {"ref": "mo_chesterfield_238-thf-blvd", "@spider": "costplus_worldmarket", "official_name": "Cost Plus World Market", "shop": "interior_decoration", "addr:full": "238 Thf Blvd", "addr:city": "Chesterfield", "addr:state": "MO", "addr:postcode": "63005", "name": "World Market Chesterfield", "phone": "(636) 728-0011", "website": "https://stores.worldmarket.com/mo/chesterfield/238-thf-blvd.html", "opening_hours": "Mo-Fr 11:00-20:00; Sa 10:00-20:00; Su 11:00-18:00", "brand": "Cost Plus World Market", "brand:wikidata": "Q5174750", "nsi_id": "worldmarket-18147c"}, "geometry": {"type": "Point", "coordinates": [-90.5994241, 38.6662593]}},
{"type": "Feature", "id": "dzhDY9G238hmBiiB8Em0a1VMs-s=", "properties": {"ref": "mo_brentwood_24-brentwood-promenade-ct", "@spider": "costplus_worldmarket", "official_name": "Cost Plus World Market", "shop": "interior_decoration", "addr:full": "24 Brentwood Promenade Ct", "addr:city": "Brentwood", "addr:state": "MO", "addr:postcode": "63144", "name": "World Market Brentwood", "phone": "(314) 918-7800", "website": "https://stores.worldmarket.com/mo/brentwood/24-brentwood-promenade-ct.html", "opening_hours": "Mo-Sa 10:00-20:00; Su 11:00-18:00", "brand": "Cost Plus World Market", "brand:wikidata": "Q5174750", "nsi_id": "worldmarket-18147c"}, "geometry": {"type": "Point", "coordinates": [-90.3413218, 38.6277436]}},
{"type": "Feature", "id": "lkA1ccciTmOmJ79OdJ4wmxS08iw=", "properties": {"ref": "mt_bozeman_2226-tschache-st", "@spider": "costplus_worldmarket", "official_name": "Cost Plus World Market", "shop": "interior_decoration", "addr:full": "2226 Tschache St", "addr:city": "Bozeman", "addr:state": "MT", "addr:postcode": "59718", "name": "World Market Bozeman", "phone": "(406) 556-0900", "website": "https://stores.worldmarket.com/mt/bozeman/2226-tschache-st.html", "opening_hours": "Mo-Sa 10:00-20:00; Su 11:00-18:00", "brand": "Cost Plus World Market", "brand:wikidata": "Q5174750", "nsi_id": "worldmarket-18147c"}, "geometry": {"type": "Point", "coordinates": [-111.0650174, 45.6952607]}},
{"type": "Feature", "id": "SOWoIeGvDLCh5fK49ynBzM_oxGs=", "properties": {"ref": "mt_billings_2815-king-avenue-west", "@spider": "costplus_worldmarket", "official_name": "Cost Plus World Market", "shop": "interior_decoration", "addr:full": "2815 King Avenue West", "addr:city": "Billings", "addr:state": "MT", "addr:postcode": "59102", "name": "World Market Billings", "phone": "(406) 651-4340", "website": "https://stores.worldmarket.com/mt/billings/2815-king-avenue-west.html", "opening_hours": "Mo-Sa 10:00-20:00; Su 11:00-18:00", "brand": "Cost Plus World Market", "brand:wikidata": "Q5174750", "nsi_id": "worldmarket-18147c"}, "geometry": {"type": "Point", "coordinates": [-108.5840945, 45.7578264]}},
{"type": "Feature", "id": "c3V81TDqp_3_0ZO9-ZUlxRm8hUs=", "properties": {"ref": "nv_carson-city_911-topsy-lane", "@spider": "costplus_worldmarket", "official_name": "Cost Plus World Market", "shop": "interior_decoration", "addr:full": "911 Topsy Lane Suite 106", "addr:city": "Carson City", "addr:state": "NV", "addr:postcode": "89705", "name": "World Market Carson City", "phone": "(775) 267-3077", "website": "https://stores.worldmarket.com/nv/carson-city/911-topsy-lane.html", "opening_hours": "Mo-Fr 10:00-19:00; Sa 10:00-20:00; Su 11:00-18:00", "brand": "Cost Plus World Market", "brand:wikidata": "Q5174750", "nsi_id": "worldmarket-18147c"}, "geometry": {"type": "Point", "coordinates": [-119.778658837071, 39.1092096513417]}},
{"type": "Feature", "id": "ujMEck2vMJTY-2C6v0rfEtVGaxU=", "properties": {"ref": "nv_las-vegas_3890-blue-diamond-road", "@spider": "costplus_worldmarket", "official_name": "Cost Plus World Market", "shop": "interior_decoration", "addr:full": "3890 Blue Diamond Road Suite C", "addr:city": "Las Vegas", "addr:state": "NV", "addr:postcode": "89139", "name": "World Market Las Vegas", "phone": "(702) 269-4465", "website": "https://stores.worldmarket.com/nv/las-vegas/3890-blue-diamond-road.html", "opening_hours": "Mo-Sa 10:00-20:00; Su 11:00-18:00", "brand": "Cost Plus World Market", "brand:wikidata": "Q5174750", "nsi_id": "worldmarket-18147c"}, "geometry": {"type": "Point", "coordinates": [-115.192666, 36.0417882]}},
{"type": "Feature", "id": "uadovdEbpiqBGiPgKAQQFcgj3jM=", "properties": {"ref": "nv_las-vegas_2151-north-rainbow-blvd", "@spider": "costplus_worldmarket", "official_name": "Cost Plus World Market", "shop": "interior_decoration", "addr:full": "2151 North Rainbow Blvd", "addr:city": "Las Vegas", "addr:state": "NV", "addr:postcode": "89108", "name": "World Market West Las Vegas", "phone": "(702) 638-8844", "website": "https://stores.worldmarket.com/nv/las-vegas/2151-north-rainbow-blvd.html", "opening_hours": "Mo-Sa 10:00-20:00; Su 11:00-18:00", "brand": "Cost Plus World Market", "brand:wikidata": "Q5174750", "nsi_id": "worldmarket-18147c"}, "geometry": {"type": "Point", "coordinates": [-115.2433251, 36.199698]}},
{"type": "Feature", "id": "KgK1-rI1wgVCSx5QiWqYZ2sdjMw=", "properties": {"ref": "ct_west-hartford_1431-new-britain-avenue", "@spider": "costplus_worldmarket", "official_name": "Cost Plus World Market", "shop": "interior_decoration", "addr:full": "1431 New Britain Avenue", "addr:city": "West Hartford", "addr:state": "CT", "addr:postcode": "06110", "name": "World Market West Hartford", "phone": "(860) 256-0740", "website": "https://stores.worldmarket.com/ct/west-hartford/1431-new-britain-avenue.html", "opening_hours": "Mo-Sa 10:00-20:00; Su 11:00-18:00", "brand": "Cost Plus World Market", "brand:wikidata": "Q5174750", "nsi_id": "worldmarket-18147c"}, "geometry": {"type": "Point", "coordinates": [-72.757301, 41.7256923]}},
{"type": "Feature", "id": "i5MM589wO3Mfise6xI79dcOCf5Q=", "properties": {"ref": "ct_manchester_179b-hale-road", "@spider": "costplus_worldmarket", "official_name": "Cost Plus World Market", "shop": "interior_decoration", "addr:full": "179B Hale Road", "addr:city": "Manchester", "addr:state": "CT", "addr:postcode": "06042", "name": "World Market Manchester", "phone": "(860) 327-0566", "website": "https://stores.worldmarket.com/ct/manchester/179b-hale-road.html", "opening_hours": "Mo-Su 11:00-17:00", "brand": "Cost Plus World Market", "brand:wikidata": "Q5174750", "nsi_id": "worldmarket-18147c"}, "geometry": {"type": "Point", "coordinates": [-72.53173877792528, 41.81244665031366]}},
{"type": "Feature", "id": "81hubaWCne4PVmbnEnJfoLeh5sU=", "properties": {"ref": "co_thornton_911-east-120th-avenue", "@spider": "costplus_worldmarket", "official_name": "Cost Plus World Market", "shop": "interior_decoration", "addr:full": "911 East 120th Avenue", "addr:city": "Thornton", "addr:state": "CO", "addr:postcode": "80233", "name": "World Market Thornton", "phone": "(303) 254-4036", "website": "https://stores.worldmarket.com/co/thornton/911-east-120th-avenue.html", "opening_hours": "Mo-Sa 10:00-20:00; Su 11:00-18:00", "brand": "Cost Plus World Market", "brand:wikidata": "Q5174750", "nsi_id": "worldmarket-18147c"}, "geometry": {"type": "Point", "coordinates": [-104.976123154228, 39.9166043306733]}},
{"type": "Feature", "id": "gjubs96U2k1zENZpumoDPu-5xCE=", "properties": {"ref": "co_lakewood_14387-west-colfax-avenue", "@spider": "costplus_worldmarket", "official_name": "Cost Plus World Market", "shop": "interior_decoration", "addr:full": "14387 West Colfax Avenue", "addr:city": "Lakewood", "addr:state": "CO", "addr:postcode": "80401", "name": "World Market Denver West", "phone": "(303) 278-1981", "website": "https://stores.worldmarket.com/co/lakewood/14387-west-colfax-avenue.html", "opening_hours": "Mo-Sa 10:00-20:00; Su 11:00-18:00", "brand": "Cost Plus World Market", "brand:wikidata": "Q5174750", "nsi_id": "worldmarket-18147c"}, "geometry": {"type": "Point", "coordinates": [-105.163389667923, 39.7352074324298]}},
{"type": "Feature", "id": "aycaEuZzy9niOFn18Juf02SNFoY=", "properties": {"ref": "co_glendale_770-s--colorado-blvd-", "@spider": "costplus_worldmarket", "official_name": "Cost Plus World Market", "shop": "interior_decoration", "addr:full": "770 S. Colorado Blvd.", "addr:city": "Glendale", "addr:state": "CO", "addr:postcode": "80246", "name": "World Market Cherry Creek Skyline", "phone": "(303) 758-0530", "website": "https://stores.worldmarket.com/co/glendale/770-s--colorado-blvd-.html", "opening_hours": "Mo-Sa 10:00-20:00; Su 11:00-18:00", "brand": "Cost Plus World Market", "brand:wikidata": "Q5174750", "nsi_id": "worldmarket-18147c"}, "geometry": {"type": "Point", "coordinates": [-104.938981086042, 39.7027527933568]}},
{"type": "Feature", "id": "eZC274O2IJ3h1MUnyPNztPl6j4E=", "properties": {"ref": "co_fort-collins_4357-corbett-drive", "@spider": "costplus_worldmarket", "official_name": "Cost Plus World Market", "shop": "interior_decoration", "addr:full": "4357 Corbett Drive", "addr:city": "Fort Collins", "addr:state": "CO", "addr:postcode": "80525", "name": "World Market Fort Collins", "phone": "(970) 266-8051", "website": "https://stores.worldmarket.com/co/fort-collins/4357-corbett-drive.html", "opening_hours": "Mo-Sa 10:00-20:00; Su 11:00-18:00", "brand": "Cost Plus World Market", "brand:wikidata": "Q5174750", "nsi_id": "worldmarket-18147c"}, "geometry": {"type": "Point", "coordinates": [-105.0290663, 40.5254743]}},
{"type": "Feature", "id": "LawOoknlMDIbygna9yqQTMcxYvA=", "properties": {"ref": "co_englewood_9559-e-county-line-road", "@spider": "costplus_worldmarket", "official_name": "Cost Plus World Market", "shop": "interior_decoration", "addr:full": "9559 E County Line Road", "addr:city": "Englewood", "addr:state": "CO", "addr:postcode": "80112", "name": "World Market Englewood", "phone": "(303) 662-1221", "website": "https://stores.worldmarket.com/co/englewood/9559-e-county-line-road.html", "opening_hours": "Mo-Sa 10:00-20:00; Su 11:00-18:00", "brand": "Cost Plus World Market", "brand:wikidata": "Q5174750", "nsi_id": "worldmarket-18147c"}, "geometry": {"type": "Point", "coordinates": [-104.878113716868, 39.5690937489674]}},
{"type": "Feature", "id": "o5yjrAb4iJC1liT3NT-HLcQ_IUs=", "properties": {"ref": "co_denver_8601-w-cross-drive", "@spider": "costplus_worldmarket", "official_name": "Cost Plus World Market", "shop": "interior_decoration", "addr:full": "8601 W Cross Drive", "addr:city": "Denver", "addr:state": "CO", "addr:postcode": "80123", "name": "World Market Littleton", "phone": "(303) 933-9515", "website": "https://stores.worldmarket.com/co/denver/8601-w-cross-drive.html", "opening_hours": "Mo-Sa 10:00-20:00; Su 11:00-18:00", "brand": "Cost Plus World Market", "brand:wikidata": "Q5174750", "nsi_id": "worldmarket-18147c"}, "geometry": {"type": "Point", "coordinates": [-105.0939969, 39.6158295]}},
{"type": "Feature", "id": "3ntbqUqRdU7e5N2cLDjPhTfsFns=", "properties": {"ref": "co_colorado-springs_2985-new-center-point", "@spider": "costplus_worldmarket", "official_name": "Cost Plus World Market", "shop": "interior_decoration", "addr:full": "2985 New Center Point", "addr:city": "Colorado Springs", "addr:state": "CO", "addr:postcode": "80922", "name": "World Market Colorado Springs", "phone": "(719) 637-3537", "website": "https://stores.worldmarket.com/co/colorado-springs/2985-new-center-point.html", "opening_hours": "Mo-Sa 10:00-20:00; Su 11:00-18:00", "brand": "Cost Plus World Market", "brand:wikidata": "Q5174750", "nsi_id": "worldmarket-18147c"}, "geometry": {"type": "Point", "coordinates": [-104.717355, 38.8760227]}},
{"type": "Feature", "id": "uTgS3-rLTWJj5tQjdnOLh35LhdM=", "properties": {"ref": "co_boulder_1685-28th-street", "@spider": "costplus_worldmarket", "official_name": "Cost Plus World Market", "shop": "interior_decoration", "addr:full": "1685 28th Street", "addr:city": "Boulder", "addr:state": "CO", "addr:postcode": "80301", "name": "World Market Boulder", "phone": "(303) 938-0757", "website": "https://stores.worldmarket.com/co/boulder/1685-28th-street.html", "opening_hours": "Mo-Sa 10:00-20:00; Su 11:00-18:00", "brand": "Cost Plus World Market", "brand:wikidata": "Q5174750", "nsi_id": "worldmarket-18147c"}, "geometry": {"type": "Point", "coordinates": [-105.258855, 40.0166568]}},
{"type": "Feature", "id": "670feJycC_NCerjAB_1-tgeW1FI=", "properties": {"ref": "co_aurora_23901-e-orchard-road", "@spider": "costplus_worldmarket", "official_name": "Cost Plus World Market", "shop": "interior_decoration", "addr:full": "23901 E Orchard Road Suite G", "addr:city": "Aurora", "addr:state": "CO", "addr:postcode": "80016", "name": "World Market Aurora Southlands", "phone": "(720) 876-2100", "website": "https://stores.worldmarket.com/co/aurora/23901-e-orchard-road.html", "opening_hours": "Mo-Fr 11:00-20:00; Sa 10:00-20:00; Su 11:00-18:00", "brand": "Cost Plus World Market", "brand:wikidata": "Q5174750", "nsi_id": "worldmarket-18147c"}, "geometry": {"type": "Point", "coordinates": [-104.708236455917, 39.6088890893134]}},
{"type": "Feature", "id": "OL8d8HqSob1co16AFFGchJENZ5U=", "properties": {"ref": "ca_westlake-village_160-promenade-way", "@spider": "costplus_worldmarket", "official_name": "Cost Plus World Market", "shop": "interior_decoration", "addr:full": "160 Promenade Way Suite 1", "addr:city": "Westlake Village", "addr:state": "CA", "addr:postcode": "91362", "name": "World Market Thousand Oaks", "phone": "(805) 370-0160", "website": "https://stores.worldmarket.com/ca/westlake-village/160-promenade-way.html", "opening_hours": "Mo-Sa 10:00-20:00; Su 11:00-18:00", "brand": "Cost Plus World Market", "brand:wikidata": "Q5174750", "nsi_id": "worldmarket-18147c"}, "geometry": {"type": "Point", "coordinates": [-118.8219696, 34.1586132]}},
{"type": "Feature", "id": "jXAr3Kc2fKaN2xlImc2kxAh8WaQ=", "properties": {"ref": "al_tuscaloosa_1320-mcfarland-blvd-e", "@spider": "costplus_worldmarket", "official_name": "Cost Plus World Market", "shop": "interior_decoration", "addr:full": "1320 McFarland Blvd E", "addr:city": "Tuscaloosa", "addr:state": "AL", "addr:postcode": "35404", "name": "World Market Tuscaloosa", "phone": "(205) 349-4339", "website": "https://stores.worldmarket.com/al/tuscaloosa/1320-mcfarland-blvd-e.html", "opening_hours": "Mo-Fr 11:00-20:00; Sa 10:00-20:00; Su 11:00-18:00", "brand": "Cost Plus World Market", "brand:wikidata": "Q5174750", "nsi_id": "worldmarket-18147c"}, "geometry": {"type": "Point", "coordinates": [-87.5281613902129, 33.200222]}},
{"type": "Feature", "id": "k0DzBKx5vn30iDbqqcYwlYGPZPQ=", "properties": {"ref": "al_spanish-fort_10200-eastern-shore-blvd", "@spider": "costplus_worldmarket", "official_name": "Cost Plus World Market", "shop": "interior_decoration", "addr:full": "10200 Eastern Shore Blvd Suite 160", "addr:city": "Spanish Fort", "addr:state": "AL", "addr:postcode": "36527", "name": "World Market Spanish Fort", "phone": "(251) 626-9927", "website": "https://stores.worldmarket.com/al/spanish-fort/10200-eastern-shore-blvd.html", "opening_hours": "Mo-Fr 11:00-20:00; Sa 10:00-20:00; Su 11:00-18:00", "brand": "Cost Plus World Market", "brand:wikidata": "Q5174750", "nsi_id": "worldmarket-18147c"}, "geometry": {"type": "Point", "coordinates": [-87.8471249341964, 30.66432334071]}},
{"type": "Feature", "id": "xUmqTavfgS_lGDYUietaUndvgbc=", "properties": {"ref": "al_opelika_2546-enterprise-drive", "@spider": "costplus_worldmarket", "official_name": "Cost Plus World Market", "shop": "interior_decoration", "addr:full": "2546 Enterprise Drive", "addr:city": "Opelika", "addr:state": "AL", "addr:postcode": "36801", "name": "World Market Opelika", "phone": "(334) 737-1525", "website": "https://stores.worldmarket.com/al/opelika/2546-enterprise-drive.html", "opening_hours": "Mo-Sa 10:00-20:00; Su 11:00-18:00", "brand": "Cost Plus World Market", "brand:wikidata": "Q5174750", "nsi_id": "worldmarket-18147c"}, "geometry": {"type": "Point", "coordinates": [-85.411153435707, 32.6192119833717]}},
{"type": "Feature", "id": "9KdNmZC9z2H2ZvuX-jV-CQWisoE=", "properties": {"ref": "al_mobile_3250-airport-blvd", "@spider": "costplus_worldmarket", "official_name": "Cost Plus World Market", "shop": "interior_decoration", "addr:full": "3250 Airport Blvd Unit 110", "addr:city": "Mobile", "addr:state": "AL", "addr:postcode": "36606", "name": "World Market Mobile", "phone": "(251) 439-6585", "website": "https://stores.worldmarket.com/al/mobile/3250-airport-blvd.html", "opening_hours": "Mo-Fr 11:00-20:00; Sa 10:00-20:00; Su 11:00-18:00", "brand": "Cost Plus World Market", "brand:wikidata": "Q5174750", "nsi_id": "worldmarket-18147c"}, "geometry": {"type": "Point", "coordinates": [-88.121837, 30.6781575]}},
{"type": "Feature", "id": "y5UA0qRbVKuuHrxhU-QcXNsobSo=", "properties": {"ref": "al_hoover_4381-creekside-avenue", "@spider": "costplus_worldmarket", "official_name": "Cost Plus World Market", "shop": "interior_decoration", "addr:full": "4381 Creekside Avenue", "addr:city": "Hoover", "addr:state": "AL", "addr:postcode": "35244", "name": "World Market Hoover", "phone": "(205) 402-7374", "website": "https://stores.worldmarket.com/al/hoover/4381-creekside-avenue.html", "opening_hours": "Mo-Fr 11:00-20:00; Sa 10:00-20:00; Su 11:00-18:00", "brand": "Cost Plus World Market", "brand:wikidata": "Q5174750", "nsi_id": "worldmarket-18147c"}, "geometry": {"type": "Point", "coordinates": [-86.8179181032246, 33.3753594004244]}},
{"type": "Feature", "id": "cecuGJTMkZMDlFMzhknjGl7_EAE=", "properties": {"ref": "al_birmingham_4608-highway-280", "@spider": "costplus_worldmarket", "official_name": "Cost Plus World Market", "shop": "interior_decoration", "addr:full": "4608 Highway 280", "addr:city": "Birmingham", "addr:state": "AL", "addr:postcode": "35242", "name": "World Market Birmingham", "phone": "(205) 981-3390", "website": "https://stores.worldmarket.com/al/birmingham/4608-highway-280.html", "opening_hours": "Mo-Sa 10:00-20:00; Su 11:00-18:00", "brand": "Cost Plus World Market", "brand:wikidata": "Q5174750", "nsi_id": "worldmarket-18147c"}, "geometry": {"type": "Point", "coordinates": [-86.709556859023, 33.4273760413256]}},
{"type": "Feature", "id": "tAYZvhvWokekZHUH8iDFY4aEv6Y=", "properties": {"ref": "az_tempe_1800-east-rio-salado-parkway", "@spider": "costplus_worldmarket", "official_name": "Cost Plus World Market", "shop": "interior_decoration", "addr:full": "1800 East Rio Salado Parkway Suite 150", "addr:city": "Tempe", "addr:state": "AZ", "addr:postcode": "85288", "name": "World Market Tempe", "phone": "(480) 921-0500", "website": "https://stores.worldmarket.com/az/tempe/1800-east-rio-salado-parkway.html", "opening_hours": "Mo-Sa 10:00-20:00; Su 11:00-18:00", "brand": "Cost Plus World Market", "brand:wikidata": "Q5174750", "nsi_id": "worldmarket-18147c"}, "geometry": {"type": "Point", "coordinates": [-111.90591646006132, 33.42988428110501]}},
{"type": "Feature", "id": "m1ggBtvC3ZF7iDmcJHnVyA_AZHU=", "properties": {"ref": "az_scottsdale_16223-north-scottsdale-road", "@spider": "costplus_worldmarket", "official_name": "Cost Plus World Market", "shop": "interior_decoration", "addr:full": "16223 North Scottsdale Road", "addr:city": "Scottsdale", "addr:state": "AZ", "addr:postcode": "85254", "name": "World Market Scottsdale", "phone": "(480) 905-0218", "website": "https://stores.worldmarket.com/az/scottsdale/16223-north-scottsdale-road.html", "opening_hours": "Mo-Sa 10:00-20:00; Su 11:00-18:00", "brand": "Cost Plus World Market", "brand:wikidata": "Q5174750", "nsi_id": "worldmarket-18147c"}, "geometry": {"type": "Point", "coordinates": [-111.9231686, 33.6337876]}},
{"type": "Feature", "id": "e8cvh1RDziHKQnq4cJIAXKtbEck=", "properties": {"ref": "az_peoria_7419-w-bell-road", "@spider": "costplus_worldmarket", "official_name": "Cost Plus World Market", "shop": "interior_decoration", "addr:full": "7419 W Bell Road", "addr:city": "Peoria", "addr:state": "AZ", "addr:postcode": "85382", "name": "World Market Peoria", "phone": "(623) 486-1300", "website": "https://stores.worldmarket.com/az/peoria/7419-w-bell-road.html", "opening_hours": "Mo-Fr 11:00-20:00; Sa 10:00-20:00; Su 11:00-18:00", "brand": "Cost Plus World Market", "brand:wikidata": "Q5174750", "nsi_id": "worldmarket-18147c"}, "geometry": {"type": "Point", "coordinates": [-112.21848038956, 33.6367476346256]}},
{"type": "Feature", "id": "qhrL5N30phtT_rGLFahX3ylGKds=", "properties": {"ref": "az_mesa_4988-south-power-road", "@spider": "costplus_worldmarket", "official_name": "Cost Plus World Market", "shop": "interior_decoration", "addr:full": "4988 South Power Road", "addr:city": "Mesa", "addr:state": "AZ", "addr:postcode": "85212", "name": "World Market Mesa Gilbert", "phone": "(480) 840-3232", "website": "https://stores.worldmarket.com/az/mesa/4988-south-power-road.html", "opening_hours": "Mo-Sa 10:00-20:00; Su 11:00-18:00", "brand": "Cost Plus World Market", "brand:wikidata": "Q5174750", "nsi_id": "worldmarket-18147c"}, "geometry": {"type": "Point", "coordinates": [-111.689820449073, 33.3255625530841]}},
{"type": "Feature", "id": "BnNsyNFpLd5vb3mXaWJ_F62YdF0=", "properties": {"ref": "az_flagstaff_5005-e-marketplace-drive", "@spider": "costplus_worldmarket", "official_name": "Cost Plus World Market", "shop": "interior_decoration", "addr:full": "5005 E Marketplace Drive Suite 120", "addr:city": "Flagstaff", "addr:state": "AZ", "addr:postcode": "86004", "name": "World Market Flagstaff", "phone": "(928) 526-1058", "website": "https://stores.worldmarket.com/az/flagstaff/5005-e-marketplace-drive.html", "opening_hours": "Mo-Sa 10:00-20:00; Su 11:00-18:00", "brand": "Cost Plus World Market", "brand:wikidata": "Q5174750", "nsi_id": "worldmarket-18147c"}, "geometry": {"type": "Point", "coordinates": [-111.572355345051, 35.2222870060948]}},
{"type": "Feature", "id": "h0d191Kdjcd1ejhFZfyMDMWA7WY=", "properties": {"ref": "az_chandler_860-north-54th-street", "@spider": "costplus_worldmarket", "official_name": "Cost Plus World Market", "shop": "interior_decoration", "addr:full": "860 North 54th Street", "addr:city": "Chandler", "addr:state": "AZ", "addr:postcode": "85226", "name": "World Market Chandler Pavilions", "phone": "(480) 758-6505", "website": "https://stores.worldmarket.com/az/chandler/860-north-54th-street.html", "opening_hours": "Mo-Sa 10:00-20:00; Su 11:00-18:00", "brand": "Cost Plus World Market", "brand:wikidata": "Q5174750", "nsi_id": "worldmarket-18147c"}, "geometry": {"type": "Point", "coordinates": [-111.97077870368958, 33.31650726807208]}},
{"type": "Feature", "id": "UR0bwSrSgRB3rz3vaktrPgOSKWw=", "properties": {"ref": "ca_west-hills_6621-fallbrook-avenue", "@spider": "costplus_worldmarket", "official_name": "Cost Plus World Market", "shop": "interior_decoration", "addr:full": "6621 Fallbrook Avenue Unit A", "addr:city": "West Hills", "addr:state": "CA", "addr:postcode": "91307", "name": "World Market West Hills", "phone": "(818) 712-9394", "website": "https://stores.worldmarket.com/ca/west-hills/6621-fallbrook-avenue.html", "opening_hours": "Mo-Sa 10:00-20:00; Su 11:00-18:00", "brand": "Cost Plus World Market", "brand:wikidata": "Q5174750", "nsi_id": "worldmarket-18147c"}, "geometry": {"type": "Point", "coordinates": [-118.624974, 34.1904019]}},
{"type": "Feature", "id": "1c56SB7Lg_lRsG6cqoFUgLbbvtM=", "properties": {"ref": "ca_san-jose_555-coleman-ave", "@spider": "costplus_worldmarket", "official_name": "Cost Plus World Market", "shop": "interior_decoration", "addr:full": "555 Coleman Ave", "addr:city": "San Jose", "addr:state": "CA", "addr:postcode": "95110", "name": "World Market San Jose Marketplace", "phone": "(408) 299-0254", "website": "https://stores.worldmarket.com/ca/san-jose/555-coleman-ave.html", "opening_hours": "Mo-Sa 10:00-20:00; Su 11:00-18:00", "brand": "Cost Plus World Market", "brand:wikidata": "Q5174750", "nsi_id": "worldmarket-18147c"}, "geometry": {"type": "Point", "coordinates": [-121.906248677319, 37.3391591096185]}},
{"type": "Feature", "id": "OEfx1n9uf1fXum_bGu7bhN4zxls=", "properties": {"ref": "ca_san-jose_5164-stevens-creek-blvd", "@spider": "costplus_worldmarket", "official_name": "Cost Plus World Market", "shop": "interior_decoration", "addr:full": "5164 Stevens Creek Blvd", "addr:city": "San Jose", "addr:state": "CA", "addr:postcode": "95129", "name": "World Market Stevens Creek", "phone": "(408) 490-2305", "website": "https://stores.worldmarket.com/ca/san-jose/5164-stevens-creek-blvd.html", "opening_hours": "Mo-Fr 11:00-20:00; Sa 10:00-20:00; Su 11:00-18:00", "brand": "Cost Plus World Market", "brand:wikidata": "Q5174750", "nsi_id": "worldmarket-18147c"}, "geometry": {"type": "Point", "coordinates": [-121.994546, 37.321684]}},
{"type": "Feature", "id": "48wJSKHkjqvzubbOZRIANvnVQvw=", "properties": {"ref": "az_tucson_5975-e-broadway-blvd", "@spider": "costplus_worldmarket", "official_name": "Cost Plus World Market", "shop": "interior_decoration", "addr:full": "5975 E Broadway Blvd Suite 1", "addr:city": "Tucson", "addr:state": "AZ", "addr:postcode": "85711", "name": "World Market Tucson East", "phone": "(520) 571-1460", "website": "https://stores.worldmarket.com/az/tucson/5975-e-broadway-blvd.html", "opening_hours": "Mo-Sa 10:00-20:00; Su 11:00-18:00", "brand": "Cost Plus World Market", "brand:wikidata": "Q5174750", "nsi_id": "worldmarket-18147c"}, "geometry": {"type": "Point", "coordinates": [-110.8651491, 32.2224285]}},
{"type": "Feature", "id": "M59ZF3RiZ2C7EOLzJTE64Jn5css=", "properties": {"ref": "az_tucson_4380-n-oracle-road", "@spider": "costplus_worldmarket", "official_name": "Cost Plus World Market", "shop": "interior_decoration", "addr:full": "4380 N Oracle Road Suite 100", "addr:city": "Tucson", "addr:state": "AZ", "addr:postcode": "85705", "name": "World Market Tucson Oracle", "phone": "(520) 887-3839", "website": "https://stores.worldmarket.com/az/tucson/4380-n-oracle-road.html", "opening_hours": "Mo-Sa 10:00-20:00; Su 11:00-18:00", "brand": "Cost Plus World Market", "brand:wikidata": "Q5174750", "nsi_id": "worldmarket-18147c"}, "geometry": {"type": "Point", "coordinates": [-110.974702835083, 32.2854773492779]}},
{"type": "Feature", "id": "0OmAKHs6syAHzWD3NMYGBOi2f3I=", "properties": {"ref": "ca_san-jose_1084-blossom-hill-road", "@spider": "costplus_worldmarket", "official_name": "Cost Plus World Market", "shop": "interior_decoration", "addr:full": "1084 Blossom Hill Road", "addr:city": "San Jose", "addr:state": "CA", "addr:postcode": "95123", "name": "World Market San Jose Almaden", "phone": "(408) 267-6666", "website": "https://stores.worldmarket.com/ca/san-jose/1084-blossom-hill-road.html", "opening_hours": "Mo-Sa 10:00-20:00; Su 11:00-18:00", "brand": "Cost Plus World Market", "brand:wikidata": "Q5174750", "nsi_id": "worldmarket-18147c"}, "geometry": {"type": "Point", "coordinates": [-121.8739635, 37.2493921]}},
{"type": "Feature", "id": "3nYGPLL5fhIa4EShW-CmvMNniUI=", "properties": {"ref": "ca_vacaville_1611-east-monte-vista-avenue", "@spider": "costplus_worldmarket", "official_name": "Cost Plus World Market", "shop": "interior_decoration", "addr:full": "1611 East Monte Vista Avenue", "addr:city": "Vacaville", "addr:state": "CA", "addr:postcode": "95688", "name": "World Market Vacaville", "phone": "(707) 452-0552", "website": "https://stores.worldmarket.com/ca/vacaville/1611-east-monte-vista-avenue.html", "opening_hours": "Mo-Sa 10:00-20:00; Su 10:00-18:00", "brand": "Cost Plus World Market", "brand:wikidata": "Q5174750", "nsi_id": "worldmarket-18147c"}, "geometry": {"type": "Point", "coordinates": [-121.9659776, 38.3671959]}},
{"type": "Feature", "id": "YRPzreRvrEMtzhvSWVtOH5mMrMw=", "properties": {"ref": "ca_tracy_2530-naglee-rd", "@spider": "costplus_worldmarket", "official_name": "Cost Plus World Market", "shop": "interior_decoration", "addr:full": "2530 Naglee Rd", "addr:city": "Tracy", "addr:state": "CA", "addr:postcode": "95304", "name": "World Market Outlet Tracy Tracy", "phone": "(209) 830-6076", "website": "https://stores.worldmarket.com/ca/tracy/2530-naglee-rd.html", "opening_hours": "Mo-Tu ; We-Su 10:00-18:00", "brand": "Cost Plus World Market", "brand:wikidata": "Q5174750", "nsi_id": "worldmarket-18147c"}, "geometry": {"type": "Point", "coordinates": [-121.46028935909271, 37.75626627842424]}},
{"type": "Feature", "id": "eiVVf9VKdSCZtLrZ1S4R4aOcO8I=", "properties": {"ref": "ca_torrance_22929-hawthorne-blvd", "@spider": "costplus_worldmarket", "official_name": "Cost Plus World Market", "shop": "interior_decoration", "addr:full": "22929 Hawthorne Blvd", "addr:city": "Torrance", "addr:state": "CA", "addr:postcode": "90505", "name": "World Market Torrance", "phone": "(310) 378-8331", "website": "https://stores.worldmarket.com/ca/torrance/22929-hawthorne-blvd.html", "opening_hours": "Mo-Sa 10:00-20:00; Su 11:00-18:00", "brand": "Cost Plus World Market", "brand:wikidata": "Q5174750", "nsi_id": "worldmarket-18147c"}, "geometry": {"type": "Point", "coordinates": [-118.351997951986, 33.8194155663693]}},
{"type": "Feature", "id": "IAR7k13dsxl8GmJq2U4I98y_W5E=", "properties": {"ref": "ca_temecula_40456-winchester-road", "@spider": "costplus_worldmarket", "official_name": "Cost Plus World Market", "shop": "interior_decoration", "addr:full": "40456 Winchester Road", "addr:city": "Temecula", "addr:state": "CA", "addr:postcode": "92591", "name": "World Market Temecula", "phone": "(951) 296-5860", "website": "https://stores.worldmarket.com/ca/temecula/40456-winchester-road.html", "opening_hours": "Mo-Sa 10:00-20:00; Su 11:00-18:00", "brand": "Cost Plus World Market", "brand:wikidata": "Q5174750", "nsi_id": "worldmarket-18147c"}, "geometry": {"type": "Point", "coordinates": [-117.150215506553, 33.52829314264]}},
{"type": "Feature", "id": "RI8ZP2B0LtShiusOSYaTHUQlQso=", "properties": {"ref": "ca_stevenson-ranch_25676-the-old-rd", "@spider": "costplus_worldmarket", "official_name": "Cost Plus World Market", "shop": "interior_decoration", "addr:full": "25676 The Old Rd", "addr:city": "Stevenson Ranch", "addr:state": "CA", "addr:postcode": "91381", "name": "World Market Valencia", "phone": "(661) 253-2049", "website": "https://stores.worldmarket.com/ca/stevenson-ranch/25676-the-old-rd.html", "opening_hours": "Mo-Sa 10:00-20:00; Su 11:00-18:00", "brand": "Cost Plus World Market", "brand:wikidata": "Q5174750", "nsi_id": "worldmarket-18147c"}, "geometry": {"type": "Point", "coordinates": [-118.57121591269507, 34.38851579588405]}},
{"type": "Feature", "id": "J4pkmprogFrFk3MQ7zSOOPzoj-A=", "properties": {"ref": "ca_sherman-oaks_15201-ventura-blvd", "@spider": "costplus_worldmarket", "official_name": "Cost Plus World Market", "shop": "interior_decoration", "addr:full": "15201 Ventura Blvd", "addr:city": "Sherman Oaks", "addr:state": "CA", "addr:postcode": "91403", "name": "World Market Sherman Oaks", "phone": "(818) 205-9620", "website": "https://stores.worldmarket.com/ca/sherman-oaks/15201-ventura-blvd.html", "opening_hours": "Mo-Sa 10:00-20:00; Su 11:00-18:00", "brand": "Cost Plus World Market", "brand:wikidata": "Q5174750", "nsi_id": "worldmarket-18147c"}, "geometry": {"type": "Point", "coordinates": [-118.464347273138, 34.153817559223]}},
{"type": "Feature", "id": "rCDjJZouP1CgYhRdO9b3uweRxvs=", "properties": {"ref": "az_phoenix_2501-w-happy-valley-road", "@spider": "costplus_worldmarket", "official_name": "Cost Plus World Market", "shop": "interior_decoration", "addr:full": "2501 W Happy Valley Road Suite 22", "addr:city": "Phoenix", "addr:state": "AZ", "addr:postcode": "85085", "name": "World Market Happy Valley Phoenix", "phone": "(623) 879-9900", "website": "https://stores.worldmarket.com/az/phoenix/2501-w-happy-valley-road.html", "opening_hours": "Mo-Fr 11:00-20:00; Sa 10:00-20:00; Su 11:00-18:00", "brand": "Cost Plus World Market", "brand:wikidata": "Q5174750", "nsi_id": "worldmarket-18147c"}, "geometry": {"type": "Point", "coordinates": [-112.1124809, 33.7101008]}},
{"type": "Feature", "id": "AoBP7Ml0OyRabZKowjpl8jwL3i4=", "properties": {"ref": "az_phoenix_1750-e-camelback-road", "@spider": "costplus_worldmarket", "official_name": "Cost Plus World Market", "shop": "interior_decoration", "addr:full": "1750 E Camelback Road", "addr:city": "Phoenix", "addr:state": "AZ", "addr:postcode": "85016", "name": "World Market Phoenix Camelback", "phone": "(602) 263-7744", "website": "https://stores.worldmarket.com/az/phoenix/1750-e-camelback-road.html", "opening_hours": "Mo-Sa 10:00-20:00; Su 11:00-18:00", "brand": "Cost Plus World Market", "brand:wikidata": "Q5174750", "nsi_id": "worldmarket-18147c"}, "geometry": {"type": "Point", "coordinates": [-112.0436212, 33.5096398]}},
{"type": "Feature", "id": "3XMkxyxPtHhle8TMgL77Dz0B5nA=", "properties": {"ref": "ca_seaside_1999-fremont-blvd", "@spider": "costplus_worldmarket", "official_name": "Cost Plus World Market", "shop": "interior_decoration", "addr:full": "1999 Fremont Blvd", "addr:city": "Seaside", "addr:state": "CA", "addr:postcode": "93955", "name": "World Market Seaside", "phone": "(831) 393-2078", "website": "https://stores.worldmarket.com/ca/seaside/1999-fremont-blvd.html", "opening_hours": "Mo-Sa 10:00-20:00; Su 11:00-18:00", "brand": "Cost Plus World Market", "brand:wikidata": "Q5174750", "nsi_id": "worldmarket-18147c"}, "geometry": {"type": "Point", "coordinates": [-121.841104030609, 36.6190927360792]}},
{"type": "Feature", "id": "bbJ4FvQV3jhJ-nAvEzAdF3WIsP4=", "properties": {"ref": "ca_santa-rosa_2685-santa-rosa-avenue", "@spider": "costplus_worldmarket", "official_name": "Cost Plus World Market", "shop": "interior_decoration", "addr:full": "2685 Santa Rosa Avenue", "addr:city": "Santa Rosa", "addr:state": "CA", "addr:postcode": "95407", "name": "World Market Santa Rosa", "phone": "(707) 526-0600", "website": "https://stores.worldmarket.com/ca/santa-rosa/2685-santa-rosa-avenue.html", "opening_hours": "Mo-Sa 10:00-20:00; Su 11:00-18:00", "brand": "Cost Plus World Market", "brand:wikidata": "Q5174750", "nsi_id": "worldmarket-18147c"}, "geometry": {"type": "Point", "coordinates": [-122.71515, 38.412388]}},
{"type": "Feature", "id": "OzrL3MjvhaU7x_SYfgPdnxr1SSc=", "properties": {"ref": "ca_santa-cruz_450-river-street", "@spider": "costplus_worldmarket", "official_name": "Cost Plus World Market", "shop": "interior_decoration", "addr:full": "450 River Street", "addr:city": "Santa Cruz", "addr:state": "CA", "addr:postcode": "95060", "name": "World Market Santa Cruz", "phone": "(831) 466-9188", "website": "https://stores.worldmarket.com/ca/santa-cruz/450-river-street.html", "opening_hours": "Mo-Sa 10:00-20:00; Su 11:00-18:00", "brand": "Cost Plus World Market", "brand:wikidata": "Q5174750", "nsi_id": "worldmarket-18147c"}, "geometry": {"type": "Point", "coordinates": [-122.028703093528, 36.9823141704396]}},
{"type": "Feature", "id": "-CrKmoB4lB45ypy5-friL_Ivukc=", "properties": {"ref": "ca_santa-barbara_610-state-street", "@spider": "costplus_worldmarket", "official_name": "Cost Plus World Market", "shop": "interior_decoration", "addr:full": "610 State Street", "addr:city": "Santa Barbara", "addr:state": "CA", "addr:postcode": "93101", "name": "World Market Santa Barbara", "phone": "(805) 899-8311", "website": "https://stores.worldmarket.com/ca/santa-barbara/610-state-street.html", "opening_hours": "Mo-Sa 10:00-20:00; Su 11:00-18:00", "brand": "Cost Plus World Market", "brand:wikidata": "Q5174750", "nsi_id": "worldmarket-18147c"}, "geometry": {"type": "Point", "coordinates": [-119.6967313, 34.4181565]}},
{"type": "Feature", "id": "lDzaV4uQgLJOHIs8Z-sKDU0TV4U=", "properties": {"ref": "ca_santa-ana_1313-w-sunflower-avenue", "@spider": "costplus_worldmarket", "official_name": "Cost Plus World Market", "shop": "interior_decoration", "addr:full": "1313 W Sunflower Avenue", "addr:city": "Santa Ana", "addr:state": "CA", "addr:postcode": "92704", "name": "World Market South Coast", "phone": "(714) 957-6553", "website": "https://stores.worldmarket.com/ca/santa-ana/1313-w-sunflower-avenue.html", "opening_hours": "Mo-Sa 10:00-20:00; Su 11:00-18:00", "brand": "Cost Plus World Market", "brand:wikidata": "Q5174750", "nsi_id": "worldmarket-18147c"}, "geometry": {"type": "Point", "coordinates": [-117.8881639, 33.6948964]}},
{"type": "Feature", "id": "A7QeYTY45m76hve-bAXTf-LXVZk=", "properties": {"ref": "ca_san-mateo_3000-bridgepointe-parkway", "@spider": "costplus_worldmarket", "official_name": "Cost Plus World Market", "shop": "interior_decoration", "addr:full": "3000 Bridgepointe Parkway", "addr:city": "San Mateo", "addr:state": "CA", "addr:postcode": "94404", "name": "World Market San Mateo", "phone": "(650) 372-9074", "website": "https://stores.worldmarket.com/ca/san-mateo/3000-bridgepointe-parkway.html", "opening_hours": "Mo-Sa 10:00-20:00; Su 11:00-18:00", "brand": "Cost Plus World Market", "brand:wikidata": "Q5174750", "nsi_id": "worldmarket-18147c"}, "geometry": {"type": "Point", "coordinates": [-122.2801406, 37.5610958]}},
{"type": "Feature", "id": "gReU8kqIl11rl2FusLaSltuk8I0=", "properties": {"ref": "ca_san-luis-obispo_325-madonna-road", "@spider": "costplus_worldmarket", "official_name": "Cost Plus World Market", "shop": "interior_decoration", "addr:full": "325 Madonna Road", "addr:city": "San Luis Obispo", "addr:state": "CA", "addr:postcode": "93405", "name": "World Market San Luis Obispo", "phone": "(805) 542-9211", "website": "https://stores.worldmarket.com/ca/san-luis-obispo/325-madonna-road.html", "opening_hours": "Mo-Sa 10:00-20:00; Su 11:00-18:00", "brand": "Cost Plus World Market", "brand:wikidata": "Q5174750", "nsi_id": "worldmarket-18147c"}, "geometry": {"type": "Point", "coordinates": [-120.675520598888, 35.2596854041856]}},
{"type": "Feature", "id": "lIClLImF-yV8QiATCF4DeFwXy2o=", "properties": {"ref": "ca_san-dimas_638-w-arrow-highway", "@spider": "costplus_worldmarket", "official_name": "Cost Plus World Market", "shop": "interior_decoration", "addr:full": "638 W Arrow Highway", "addr:city": "San Dimas", "addr:state": "CA", "addr:postcode": "91773", "name": "World Market San Dimas", "phone": "(909) 592-2924", "website": "https://stores.worldmarket.com/ca/san-dimas/638-w-arrow-highway.html", "opening_hours": "Mo-Sa 10:00-20:00; Su 11:00-18:00", "brand": "Cost Plus World Market", "brand:wikidata": "Q5174750", "nsi_id": "worldmarket-18147c"}, "geometry": {"type": "Point", "coordinates": [-117.8194965, 34.1044423]}},
{"type": "Feature", "id": "ZHQ3V-XElyTm3NCnnWu_ullzlKU=", "properties": {"ref": "ca_san-diego_10455-reserve-drive", "@spider": "costplus_worldmarket", "official_name": "Cost Plus World Market", "shop": "interior_decoration", "addr:full": "10455 Reserve Drive Suite 150", "addr:city": "San Diego", "addr:state": "CA", "addr:postcode": "92127", "name": "World Market Rancho Bernardo", "phone": "(858) 613-0231", "website": "https://stores.worldmarket.com/ca/san-diego/10455-reserve-drive.html", "opening_hours": "Mo-Sa 10:00-20:00; Su 11:00-18:00", "brand": "Cost Plus World Market", "brand:wikidata": "Q5174750", "nsi_id": "worldmarket-18147c"}, "geometry": {"type": "Point", "coordinates": [-117.113796472549, 33.0207479880345]}},
{"type": "Feature", "id": "V-RmeqmPbibZW1iv1gKLkyQSaCQ=", "properties": {"ref": "ca_sacramento_1821-howe-avenue", "@spider": "costplus_worldmarket", "official_name": "Cost Plus World Market", "shop": "interior_decoration", "addr:full": "1821 Howe Avenue", "addr:city": "Sacramento", "addr:state": "CA", "addr:postcode": "95825", "name": "World Market Sacramento", "phone": "(916) 929-0220", "website": "https://stores.worldmarket.com/ca/sacramento/1821-howe-avenue.html", "opening_hours": "Mo-Sa 10:00-19:00; Su 11:00-18:00", "brand": "Cost Plus World Market", "brand:wikidata": "Q5174750", "nsi_id": "worldmarket-18147c"}, "geometry": {"type": "Point", "coordinates": [-121.416537165641, 38.5988492995794]}},
{"type": "Feature", "id": "oVyt43yFPW4de735teBWOXtzV7Q=", "properties": {"ref": "ca_roseville_1120-galleria-blvd", "@spider": "costplus_worldmarket", "official_name": "Cost Plus World Market", "shop": "interior_decoration", "addr:full": "1120 Galleria Blvd Suite 100", "addr:city": "Roseville", "addr:state": "CA", "addr:postcode": "95678", "name": "World Market Roseville", "phone": "(916) 784-7113", "website": "https://stores.worldmarket.com/ca/roseville/1120-galleria-blvd.html", "opening_hours": "Mo-Sa 10:00-20:00; Su 11:00-18:00", "brand": "Cost Plus World Market", "brand:wikidata": "Q5174750", "nsi_id": "worldmarket-18147c"}, "geometry": {"type": "Point", "coordinates": [-121.262984, 38.7694497]}},
{"type": "Feature", "id": "WvM9gID-f9QxIqBKzp67JooWFXM=", "properties": {"ref": "ca_redlands_27440-w-lugonia-ave", "@spider": "costplus_worldmarket", "official_name": "Cost Plus World Market", "shop": "interior_decoration", "addr:full": "27440 W Lugonia Ave", "addr:city": "Redlands", "addr:state": "CA", "addr:postcode": "92374", "name": "World Market Redlands", "phone": "(909) 798-9064", "website": "https://stores.worldmarket.com/ca/redlands/27440-w-lugonia-ave.html", "opening_hours": "Mo-Sa 10:00-20:00; Su 11:00-18:00", "brand": "Cost Plus World Market", "brand:wikidata": "Q5174750", "nsi_id": "worldmarket-18147c"}, "geometry": {"type": "Point", "coordinates": [-117.2061637043953, 34.07225982150676]}},
{"type": "Feature", "id": "ghNNvB0mIDvQkalXY2TWxLos_Bk=", "properties": {"ref": "ca_redding_1080-hilltop-drive", "@spider": "costplus_worldmarket", "official_name": "Cost Plus World Market", "shop": "interior_decoration", "addr:full": "1080 Hilltop Drive", "addr:city": "Redding", "addr:state": "CA", "addr:postcode": "96003", "name": "World Market Redding", "phone": "(530) 221-2080", "website": "https://stores.worldmarket.com/ca/redding/1080-hilltop-drive.html", "opening_hours": "Mo-Fr 11:00-20:00; Sa 10:00-20:00; Su 11:00-18:00", "brand": "Cost Plus World Market", "brand:wikidata": "Q5174750", "nsi_id": "worldmarket-18147c"}, "geometry": {"type": "Point", "coordinates": [-122.359639406204, 40.591445683255]}},
{"type": "Feature", "id": "Kxq43ffJUK8mBTQj_LmMo83vjNE=", "properties": {"ref": "ca_pasadena_3655-e-colorado-blvd", "@spider": "costplus_worldmarket", "official_name": "Cost Plus World Market", "shop": "interior_decoration", "addr:full": "3655 E Colorado Blvd", "addr:city": "Pasadena", "addr:state": "CA", "addr:postcode": "91107", "name": "World Market Pasadena", "phone": "(626) 304-9111", "website": "https://stores.worldmarket.com/ca/pasadena/3655-e-colorado-blvd.html", "opening_hours": "Mo-Sa 10:00-20:00; Su 11:00-18:00", "brand": "Cost Plus World Market", "brand:wikidata": "Q5174750", "nsi_id": "worldmarket-18147c"}, "geometry": {"type": "Point", "coordinates": [-118.0747676, 34.1470181]}},
{"type": "Feature", "id": "euP6S3qZsPbq6jSZRYuQ1jfZXag=", "properties": {"ref": "ca_palm-springs_2465-e-palm-canyon-drive", "@spider": "costplus_worldmarket", "official_name": "Cost Plus World Market", "shop": "interior_decoration", "addr:full": "2465 E Palm Canyon Drive Building 4", "addr:city": "Palm Springs", "addr:state": "CA", "addr:postcode": "92264", "name": "World Market Palm Springs", "phone": "(760) 325-6275", "website": "https://stores.worldmarket.com/ca/palm-springs/2465-e-palm-canyon-drive.html", "opening_hours": "Mo-Sa 10:00-20:00; Su 11:00-18:00", "brand": "Cost Plus World Market", "brand:wikidata": "Q5174750", "nsi_id": "worldmarket-18147c"}, "geometry": {"type": "Point", "coordinates": [-116.521042804893, 33.7996341541387]}},
{"type": "Feature", "id": "Z77NmrTR39NCV6qyYYKEEJNYzVQ=", "properties": {"ref": "ca_oxnard_221-w-esplanade-dr", "@spider": "costplus_worldmarket", "official_name": "Cost Plus World Market", "shop": "interior_decoration", "addr:full": "221 W Esplanade Dr", "addr:city": "Oxnard", "addr:state": "CA", "addr:postcode": "93036", "name": "World Market Oxnard", "phone": "(805) 278-3999", "website": "https://stores.worldmarket.com/ca/oxnard/221-w-esplanade-dr.html", "opening_hours": "Mo-Sa 10:00-20:00; Su 11:00-18:00", "brand": "Cost Plus World Market", "brand:wikidata": "Q5174750", "nsi_id": "worldmarket-18147c"}, "geometry": {"type": "Point", "coordinates": [-119.1756822, 34.2329888]}},
{"type": "Feature", "id": "edgtTRglBrmRhb7hH_MYhB7ebfs=", "properties": {"ref": "ca_oceanside_2140-vista-way", "@spider": "costplus_worldmarket", "official_name": "Cost Plus World Market", "shop": "interior_decoration", "addr:full": "2140 Vista Way", "addr:city": "Oceanside", "addr:state": "CA", "addr:postcode": "92054", "name": "World Market Oceanside", "phone": "(760) 439-1990", "website": "https://stores.worldmarket.com/ca/oceanside/2140-vista-way.html", "opening_hours": "Mo-Sa 10:00-20:00; Su 11:00-18:00", "brand": "Cost Plus World Market", "brand:wikidata": "Q5174750", "nsi_id": "worldmarket-18147c"}, "geometry": {"type": "Point", "coordinates": [-117.3443638, 33.1827146]}},
{"type": "Feature", "id": "U8tli9ss6hW_AY8JZWmj7FSHAhY=", "properties": {"ref": "ca_oakland_101-clay-street", "@spider": "costplus_worldmarket", "official_name": "Cost Plus World Market", "shop": "interior_decoration", "addr:full": "101 Clay Street", "addr:city": "Oakland", "addr:state": "CA", "addr:postcode": "94607", "name": "World Market Oakland", "phone": "(510) 834-4440", "website": "https://stores.worldmarket.com/ca/oakland/101-clay-street.html", "opening_hours": "Mo-Sa 10:00-20:00; Su 11:00-18:00", "brand": "Cost Plus World Market", "brand:wikidata": "Q5174750", "nsi_id": "worldmarket-18147c"}, "geometry": {"type": "Point", "coordinates": [-122.2797976, 37.7969785]}},
{"type": "Feature", "id": "ojighGLtEdn9wzb3Fam_wFyDcTw=", "properties": {"ref": "ca_napa_3934-bel-aire-plaza", "@spider": "costplus_worldmarket", "official_name": "Cost Plus World Market", "shop": "interior_decoration", "addr:full": "3934 Bel Aire Plaza", "addr:city": "Napa", "addr:state": "CA", "addr:postcode": "94558", "name": "World Market Napa", "phone": "(707) 255-9755", "website": "https://stores.worldmarket.com/ca/napa/3934-bel-aire-plaza.html", "opening_hours": "Mo-Sa 10:00-20:00; Su 11:00-18:00", "brand": "Cost Plus World Market", "brand:wikidata": "Q5174750", "nsi_id": "worldmarket-18147c"}, "geometry": {"type": "Point", "coordinates": [-122.3087057, 38.32385]}},
{"type": "Feature", "id": "Nzlp3meiXiI6saqj4-QjasZvcew=", "properties": {"ref": "ca_mountain-view_1910-w-el-camino-real", "@spider": "costplus_worldmarket", "official_name": "Cost Plus World Market", "shop": "interior_decoration", "addr:full": "1910 W El Camino Real", "addr:city": "Mountain View", "addr:state": "CA", "addr:postcode": "94040", "name": "World Market Mountain View", "phone": "(650) 961-6066", "website": "https://stores.worldmarket.com/ca/mountain-view/1910-w-el-camino-real.html", "opening_hours": "Mo-Sa 10:00-20:00; Su 11:00-18:00", "brand": "Cost Plus World Market", "brand:wikidata": "Q5174750", "nsi_id": "worldmarket-18147c"}, "geometry": {"type": "Point", "coordinates": [-122.09657907485962, 37.39408735581325]}},
{"type": "Feature", "id": "HlUKW4SngEYuTn-RG58SGbgw3XU=", "properties": {"ref": "ca_modesto_3801-pelandale-avenue", "@spider": "costplus_worldmarket", "official_name": "Cost Plus World Market", "shop": "interior_decoration", "addr:full": "3801 Pelandale Avenue Suite F-7", "addr:city": "Modesto", "addr:state": "CA", "addr:postcode": "95356", "name": "World Market Modesto", "phone": "(209) 545-4411", "website": "https://stores.worldmarket.com/ca/modesto/3801-pelandale-avenue.html", "opening_hours": "Mo-Sa 10:00-20:00; Su 11:00-18:00", "brand": "Cost Plus World Market", "brand:wikidata": "Q5174750", "nsi_id": "worldmarket-18147c"}, "geometry": {"type": "Point", "coordinates": [-121.064195215767, 37.7010172160681]}},
{"type": "Feature", "id": "hQvzrEwqL_NnW6Zn2mC5CfVSWEs=", "properties": {"ref": "ca_mission-viejo_25262-el-paseo", "@spider": "costplus_worldmarket", "official_name": "Cost Plus World Market", "shop": "interior_decoration", "addr:full": "25262 El Paseo", "addr:city": "Mission Viejo", "addr:state": "CA", "addr:postcode": "92691", "name": "World Market Mission Viejo", "phone": "(949) 348-1126", "website": "https://stores.worldmarket.com/ca/mission-viejo/25262-el-paseo.html", "opening_hours": "Mo-Sa 10:00-20:00; Su 11:00-18:00", "brand": "Cost Plus World Market", "brand:wikidata": "Q5174750", "nsi_id": "worldmarket-18147c"}, "geometry": {"type": "Point", "coordinates": [-117.6731164, 33.5930625]}},
{"type": "Feature", "id": "pJGWkZ3C1SNNrNpYOUYQqfGig0w=", "properties": {"ref": "ca_lakewood_5041-lakewood-blvd", "@spider": "costplus_worldmarket", "official_name": "Cost Plus World Market", "shop": "interior_decoration", "addr:full": "5041 Lakewood Blvd", "addr:city": "Lakewood", "addr:state": "CA", "addr:postcode": "90712", "name": "World Market Lakewood", "phone": "(562) 602-0031", "website": "https://stores.worldmarket.com/ca/lakewood/5041-lakewood-blvd.html", "opening_hours": "Mo-Sa 10:00-20:00; Su 11:00-18:00", "brand": "Cost Plus World Market", "brand:wikidata": "Q5174750", "nsi_id": "worldmarket-18147c"}, "geometry": {"type": "Point", "coordinates": [-118.14377514649, 33.8494385084533]}},
{"type": "Feature", "id": "EVWCQGzlorTATY2jlno3yA8wWw4=", "properties": {"ref": "ca_la-quinta_78983-hwy-111", "@spider": "costplus_worldmarket", "official_name": "Cost Plus World Market", "shop": "interior_decoration", "addr:full": "78983 Hwy 111", "addr:city": "La Quinta", "addr:state": "CA", "addr:postcode": "92253", "name": "World Market La Quinta", "phone": "(760) 777-7267", "website": "https://stores.worldmarket.com/ca/la-quinta/78983-hwy-111.html", "opening_hours": "Mo-Sa 10:00-20:00; Su 11:00-18:00", "brand": "Cost Plus World Market", "brand:wikidata": "Q5174750", "nsi_id": "worldmarket-18147c"}, "geometry": {"type": "Point", "coordinates": [-116.2880407, 33.7076349]}},
{"type": "Feature", "id": "GsH8JCOGI4kew2LzDdRkWbRD5zc=", "properties": {"ref": "ca_la-mesa_5500-grossmont-center-drive", "@spider": "costplus_worldmarket", "official_name": "Cost Plus World Market", "shop": "interior_decoration", "addr:full": "5500 Grossmont Center Drive Suite 233", "addr:city": "La Mesa", "addr:state": "CA", "addr:postcode": "91942", "name": "World Market Grossmont", "phone": "(619) 466-2991", "website": "https://stores.worldmarket.com/ca/la-mesa/5500-grossmont-center-drive.html", "opening_hours": "Mo-Sa 10:00-20:00; Su 11:00-18:00", "brand": "Cost Plus World Market", "brand:wikidata": "Q5174750", "nsi_id": "worldmarket-18147c"}, "geometry": {"type": "Point", "coordinates": [-117.010016441345, 32.7777325280857]}},
{"type": "Feature", "id": "_19hIgbGQL41rQ74VxCKeVuSB38=", "properties": {"ref": "ca_la-jolla_8657-villa-la-jolla-drive", "@spider": "costplus_worldmarket", "official_name": "Cost Plus World Market", "shop": "interior_decoration", "addr:full": "8657 Villa La Jolla Drive Suite 117", "addr:city": "La Jolla", "addr:state": "CA", "addr:postcode": "92037", "name": "World Market La Jolla", "phone": "(858) 455-8210", "website": "https://stores.worldmarket.com/ca/la-jolla/8657-villa-la-jolla-drive.html", "opening_hours": "Mo-Sa 10:00-20:00; Su 11:00-18:00", "brand": "Cost Plus World Market", "brand:wikidata": "Q5174750", "nsi_id": "worldmarket-18147c"}, "geometry": {"type": "Point", "coordinates": [-117.231965, 32.8656852]}},
{"type": "Feature", "id": "in5_1N7glGjWDSAyxcv0rlEmNP4=", "properties": {"ref": "ca_irvine_13682-jamboree-rd", "@spider": "costplus_worldmarket", "official_name": "Cost Plus World Market", "shop": "interior_decoration", "addr:full": "13682 Jamboree Rd", "addr:city": "Irvine", "addr:state": "CA", "addr:postcode": "92602", "name": "World Market Irvine", "phone": "(714) 368-7539", "website": "https://stores.worldmarket.com/ca/irvine/13682-jamboree-rd.html", "opening_hours": "Mo-Sa 10:00-20:00; Su 11:00-18:00", "brand": "Cost Plus World Market", "brand:wikidata": "Q5174750", "nsi_id": "worldmarket-18147c"}, "geometry": {"type": "Point", "coordinates": [-117.7917208, 33.7205267]}},
{"type": "Feature", "id": "ShH981ryreZ55sxhwhwmmHXMOLk=", "properties": {"ref": "ca_huntington-beach_7777-edinger-avenue", "@spider": "costplus_worldmarket", "official_name": "Cost Plus World Market", "shop": "interior_decoration", "addr:full": "7777 Edinger Avenue Suite 136", "addr:city": "Huntington Beach", "addr:state": "CA", "addr:postcode": "92647", "name": "World Market Huntington Beach", "phone": "(714) 903-2454", "website": "https://stores.worldmarket.com/ca/huntington-beach/7777-edinger-avenue.html", "opening_hours": "Mo-Sa 10:00-20:00; Su 11:00-18:00", "brand": "Cost Plus World Market", "brand:wikidata": "Q5174750", "nsi_id": "worldmarket-18147c"}, "geometry": {"type": "Point", "coordinates": [-117.994025457672, 33.7316607678299]}},
{"type": "Feature", "id": "RFJqB-n72HnUlm1Sa9C3QH0nVAw=", "properties": {"ref": "ca_hawthorne_14401-hindry-avenue", "@spider": "costplus_worldmarket", "official_name": "Cost Plus World Market", "shop": "interior_decoration", "addr:full": "14401 Hindry Avenue", "addr:city": "Hawthorne", "addr:state": "CA", "addr:postcode": "90250", "name": "World Market Hawthorne", "phone": "(424) 426-4263", "website": "https://stores.worldmarket.com/ca/hawthorne/14401-hindry-avenue.html", "opening_hours": "Mo-Sa 10:00-20:00; Su 11:00-18:00", "brand": "Cost Plus World Market", "brand:wikidata": "Q5174750", "nsi_id": "worldmarket-18147c"}, "geometry": {"type": "Point", "coordinates": [-118.3733833, 33.9005148]}},
{"type": "Feature", "id": "ngJxDhFl-vjF-3GEH-1QYON8kto=", "properties": {"ref": "ca_greenbrae_2040-redwood-highway", "@spider": "costplus_worldmarket", "official_name": "Cost Plus World Market", "shop": "interior_decoration", "addr:full": "2040 Redwood Highway", "addr:city": "Greenbrae", "addr:state": "CA", "addr:postcode": "94904", "name": "World Market Marin", "phone": "(415) 924-7743", "website": "https://stores.worldmarket.com/ca/greenbrae/2040-redwood-highway.html", "opening_hours": "Mo-Sa 10:00-20:00; Su 11:00-18:00", "brand": "Cost Plus World Market", "brand:wikidata": "Q5174750", "nsi_id": "worldmarket-18147c"}, "geometry": {"type": "Point", "coordinates": [-122.5147675, 37.9373404]}},
{"type": "Feature", "id": "UxZdJEn783wkz-GHFIJXUIQB7Kw=", "properties": {"ref": "ca_glendale_223-n-glendale-avenue", "@spider": "costplus_worldmarket", "official_name": "Cost Plus World Market", "shop": "interior_decoration", "addr:full": "223 N Glendale Avenue", "addr:city": "Glendale", "addr:state": "CA", "addr:postcode": "91206", "name": "World Market Glendale", "phone": "(818) 241-2112", "website": "https://stores.worldmarket.com/ca/glendale/223-n-glendale-avenue.html", "opening_hours": "Mo-Sa 10:00-20:00; Su 11:00-18:00", "brand": "Cost Plus World Market", "brand:wikidata": "Q5174750", "nsi_id": "worldmarket-18147c"}, "geometry": {"type": "Point", "coordinates": [-118.2478261, 34.1495357]}},
{"type": "Feature", "id": "XAdVU7nkjuLD9k0tCkubDkHghN4=", "properties": {"ref": "ca_fresno_7662-n-blackstone-avenue", "@spider": "costplus_worldmarket", "official_name": "Cost Plus World Market", "shop": "interior_decoration", "addr:full": "7662 N Blackstone Avenue Suite A", "addr:city": "Fresno", "addr:state": "CA", "addr:postcode": "93720", "name": "World Market Fresno", "phone": "(559) 432-4100", "website": "https://stores.worldmarket.com/ca/fresno/7662-n-blackstone-avenue.html", "opening_hours": "Mo-Sa 10:00-20:00; Su 11:00-18:00", "brand": "Cost Plus World Market", "brand:wikidata": "Q5174750", "nsi_id": "worldmarket-18147c"}, "geometry": {"type": "Point", "coordinates": [-119.7896452, 36.8479795]}},
{"type": "Feature", "id": "ZWTzPzHAmXjTsk4fvJC7P7hCZLs=", "properties": {"ref": "ca_folsom_2797-e-bidwell-street", "@spider": "costplus_worldmarket", "official_name": "Cost Plus World Market", "shop": "interior_decoration", "addr:full": "2797 E Bidwell Street", "addr:city": "Folsom", "addr:state": "CA", "addr:postcode": "95630", "name": "World Market Folsom", "phone": "(916) 817-2500", "website": "https://stores.worldmarket.com/ca/folsom/2797-e-bidwell-street.html", "opening_hours": "Mo-Sa 10:00-20:00; Su 11:00-18:00", "brand": "Cost Plus World Market", "brand:wikidata": "Q5174750", "nsi_id": "worldmarket-18147c"}, "geometry": {"type": "Point", "coordinates": [-121.1248008, 38.6520962]}},
{"type": "Feature", "id": "gz_SEXdmWCJuJf1lVL-OB_VWq4k=", "properties": {"ref": "ca_daly-city_150-serramonte-center", "@spider": "costplus_worldmarket", "official_name": "Cost Plus World Market", "shop": "interior_decoration", "addr:full": "150 Serramonte Center", "addr:city": "Daly City", "addr:state": "CA", "addr:postcode": "94015", "name": "World Market Serramonte Center", "phone": "(415) 840-0585", "website": "https://stores.worldmarket.com/ca/daly-city/150-serramonte-center.html", "opening_hours": "Mo-Sa 10:00-20:00; Su 11:00-18:00", "brand": "Cost Plus World Market", "brand:wikidata": "Q5174750", "nsi_id": "worldmarket-18147c"}, "geometry": {"type": "Point", "coordinates": [-122.4726881, 37.6701474]}},
{"type": "Feature", "id": "z-VqNLVb1YdjuU_3HCxjxxmxPYw=", "properties": {"ref": "ca_concord_2075-diamond-blvd", "@spider": "costplus_worldmarket", "official_name": "Cost Plus World Market", "shop": "interior_decoration", "addr:full": "2075 Diamond Blvd", "addr:city": "Concord", "addr:state": "CA", "addr:postcode": "94520", "name": "World Market The Veranda", "phone": "(925) 826-0582", "website": "https://stores.worldmarket.com/ca/concord/2075-diamond-blvd.html", "opening_hours": "Mo-Sa 10:00-20:00; Su 11:00-18:00", "brand": "Cost Plus World Market", "brand:wikidata": "Q5174750", "nsi_id": "worldmarket-18147c"}, "geometry": {"type": "Point", "coordinates": [-122.05996692180634, 37.972385816892036]}},
{"type": "Feature", "id": "3mculHnTij00cjaz0_WoBpuHoMQ=", "properties": {"ref": "ca_citrus-heights_6191-sunrise-blvd", "@spider": "costplus_worldmarket", "official_name": "Cost Plus World Market", "shop": "interior_decoration", "addr:full": "6191 Sunrise Blvd", "addr:city": "Citrus Heights", "addr:state": "CA", "addr:postcode": "95610", "name": "World Market Citrus Heights", "phone": "(916) 725-6757", "website": "https://stores.worldmarket.com/ca/citrus-heights/6191-sunrise-blvd.html", "opening_hours": "Mo-Fr 11:00-20:00; Sa 10:00-20:00; Su 11:00-18:00", "brand": "Cost Plus World Market", "brand:wikidata": "Q5174750", "nsi_id": "worldmarket-18147c"}, "geometry": {"type": "Point", "coordinates": [-121.273922547752, 38.6761569330673]}},
{"type": "Feature", "id": "jCe6sJA9fCoMEB_D1HgpvOG5HVU=", "properties": {"ref": "ca_chula-vista_1640-millenia-avenue", "@spider": "costplus_worldmarket", "official_name": "Cost Plus World Market", "shop": "interior_decoration", "addr:full": "1640 Millenia Avenue", "addr:city": "Chula Vista", "addr:state": "CA", "addr:postcode": "91915", "name": "World Market Chula Vista", "phone": "(619) 210-1141", "website": "https://stores.worldmarket.com/ca/chula-vista/1640-millenia-avenue.html", "opening_hours": "Mo-Sa 10:00-20:00; Su 11:00-18:00", "brand": "Cost Plus World Market", "brand:wikidata": "Q5174750", "nsi_id": "worldmarket-18147c"}, "geometry": {"type": "Point", "coordinates": [-116.965146, 32.611275]}},
{"type": "Feature", "id": "cuBgKCrxV044pAB2zYRufV143lc=", "properties": {"ref": "ca_chico_2101-dr-martin-luther-king-jr-parkway", "@spider": "costplus_worldmarket", "official_name": "Cost Plus World Market", "shop": "interior_decoration", "addr:full": "2101 Dr Martin Luther King Jr Parkway Suite 30", "addr:city": "Chico", "addr:state": "CA", "addr:postcode": "95928", "name": "World Market Chico", "phone": "(530) 893-9858", "website": "https://stores.worldmarket.com/ca/chico/2101-dr-martin-luther-king-jr-parkway.html", "opening_hours": "Mo-Sa 10:00-20:00; Su 11:00-18:00", "brand": "Cost Plus World Market", "brand:wikidata": "Q5174750", "nsi_id": "worldmarket-18147c"}, "geometry": {"type": "Point", "coordinates": [-121.8079703, 39.7218676]}},
{"type": "Feature", "id": "HRM1xXFs9Vt6SBJUbK6iQSxwAgQ=", "properties": {"ref": "ca_los-angeles_6333-west-3rd-street", "@spider": "costplus_worldmarket", "official_name": "Cost Plus World Market", "shop": "interior_decoration", "addr:full": "6333 West 3rd Street Space E-10", "addr:city": "Los Angeles", "addr:state": "CA", "addr:postcode": "90036", "name": "World Market LA Farmers Market", "phone": "(323) 935-5530", "website": "https://stores.worldmarket.com/ca/los-angeles/6333-west-3rd-street.html", "opening_hours": "Mo-Sa 10:00-20:00; Su 11:00-19:00", "brand": "Cost Plus World Market", "brand:wikidata": "Q5174750", "nsi_id": "worldmarket-18147c"}, "geometry": {"type": "Point", "coordinates": [-118.3593909, 34.0728263]}},
{"type": "Feature", "id": "qM_W9XVanbYX-zf2rtmnxiKtXjc=", "properties": {"ref": "ca_los-angeles_10860-santa-monica-blvd", "@spider": "costplus_worldmarket", "official_name": "Cost Plus World Market", "shop": "interior_decoration", "addr:full": "10860 Santa Monica Blvd", "addr:city": "Los Angeles", "addr:state": "CA", "addr:postcode": "90025", "name": "World Market West Los Angeles", "phone": "(310) 441-5115", "website": "https://stores.worldmarket.com/ca/los-angeles/10860-santa-monica-blvd.html", "opening_hours": "Mo-Fr 10:00-20:00; Sa 10:00-19:00; Su 11:00-19:00", "brand": "Cost Plus World Market", "brand:wikidata": "Q5174750", "nsi_id": "worldmarket-18147c"}, "geometry": {"type": "Point", "coordinates": [-118.436903199199, 34.0493102824025]}},
{"type": "Feature", "id": "SeRaQeMeYkWpmo_ZMBTVwVRCThk=", "properties": {"ref": "ca_burbank_201-e-magnolia-blvd-", "@spider": "costplus_worldmarket", "official_name": "Cost Plus World Market", "shop": "interior_decoration", "addr:full": "201 E Magnolia Blvd.", "addr:city": "Burbank", "addr:state": "CA", "addr:postcode": "91502", "name": "World Market Burbank", "phone": "(747) 241-5030", "website": "https://stores.worldmarket.com/ca/burbank/201-e-magnolia-blvd-.html", "opening_hours": "Mo-Sa 10:00-20:00; Su 11:00-18:00", "brand": "Cost Plus World Market", "brand:wikidata": "Q5174750", "nsi_id": "worldmarket-18147c"}, "geometry": {"type": "Point", "coordinates": [-118.3121235, 34.1834036]}},
{"type": "Feature", "id": "WeiVugfJ62G1SQ_VE4sT6K-mfog=", "properties": {"ref": "ca_brea_109-west-imperial-highway", "@spider": "costplus_worldmarket", "official_name": "Cost Plus World Market", "shop": "interior_decoration", "addr:full": "109 West Imperial Highway", "addr:city": "Brea", "addr:state": "CA", "addr:postcode": "92821", "name": "World Market Brea", "phone": "(714) 255-9195", "website": "https://stores.worldmarket.com/ca/brea/109-west-imperial-highway.html", "opening_hours": "Mo-Sa 10:00-20:00; Su 11:00-18:00", "brand": "Cost Plus World Market", "brand:wikidata": "Q5174750", "nsi_id": "worldmarket-18147c"}, "geometry": {"type": "Point", "coordinates": [-117.9004377, 33.9181521]}},
{"type": "Feature", "id": "DfejIhTY39W4m7vnWMn8zleUn24=", "properties": {"ref": "ca_bakersfield_9240-rosedale-highway", "@spider": "costplus_worldmarket", "official_name": "Cost Plus World Market", "shop": "interior_decoration", "addr:full": "9240 Rosedale Highway", "addr:city": "Bakersfield", "addr:state": "CA", "addr:postcode": "93312", "name": "World Market Bakersfield", "phone": "(661) 587-1620", "website": "https://stores.worldmarket.com/ca/bakersfield/9240-rosedale-highway.html", "opening_hours": "Mo-Sa 10:00-20:00; Su 11:00-18:00", "brand": "Cost Plus World Market", "brand:wikidata": "Q5174750", "nsi_id": "worldmarket-18147c"}, "geometry": {"type": "Point", "coordinates": [-119.104917924887, 35.385892184363]}}]}