{"type":"FeatureCollection","features":[{"type": "Feature", "id": "ML8_nQs6zwqjiFHZ22hPLY3iyaY=", "properties": {"ref": "51IUyylXbs34unerwP9bbw", "amenity": "cafe", "cuisine": "coffee_shop", "@spider": "costacoffee_ie", "vending": "coffee", "addr:full": "Costa Coffee, Old Bawn Shopping Centre, Old Bawn Road, Tallaght, Dublin 24", "addr:country": "IE", "name": "COSTA COFFEE- OLD BAWN", "brand": "Costa Coffee", "brand:wikidata": "Q608845", "nsi_id": "costaexpress-37500c"}, "geometry": {"type": "Point", "coordinates": [-6.35384, 53.27593]}},
{"type": "Feature", "id": "qb2XR10p0WG0Y94bID_udR5t25E=", "properties": {"ref": "7wYw7iTU1F3XcJVhXmyuVr", "amenity": "cafe", "cuisine": "coffee_shop", "@spider": "costacoffee_ie", "vending": "coffee", "addr:full": "Costa Coffee, Tesco Carpark, Bosheen Street, Bennetsknock, Quartersland, Co. Wexford, Y34 YW08", "addr:country": "IE", "name": "COSTA COFFEE- NEW ROSS", "brand": "Costa Coffee", "brand:wikidata": "Q608845", "nsi_id": "costaexpress-37500c"}, "geometry": {"type": "Point", "coordinates": [-6.93057, 52.39184]}},
{"type": "Feature", "id": "ot2R-z_ar-cE0Uk9mYFf3rhs-_A=", "properties": {"ref": "r7h7AOlUiGvx2KLvTUw4p", "amenity": "cafe", "cuisine": "coffee_shop", "@spider": "costacoffee_ie", "vending": "coffee", "addr:full": "Costa Coffee, Liffey Valley Retail Park, Coldcut Road, Lucan, Dublin, D22 T681", "addr:country": "IE", "name": "COSTA COFFEE- LIFFEY VALLEY RETAIL PARK", "brand": "Costa Coffee", "brand:wikidata": "Q608845", "nsi_id": "costaexpress-37500c"}, "geometry": {"type": "Point", "coordinates": [-6.39276, 53.34877]}},
{"type": "Feature", "id": "YPxq0jD1HPolFwGOtylwsVWZUCw=", "properties": {"ref": "4ADOTbT5qEmlq5Hoz61WCd", "amenity": "cafe", "cuisine": "coffee_shop", "@spider": "costacoffee_ie", "vending": "coffee", "addr:full": "Costa Coffee, Rathnew Village Centre, R772, Commons, Rathnew, Co. Wicklow, A67 WK40", "addr:country": "IE", "name": "COSTA COFFEE- RATHNEW", "brand": "Costa Coffee", "brand:wikidata": "Q608845", "nsi_id": "costaexpress-37500c"}, "geometry": {"type": "Point", "coordinates": [-6.10383, 53.0059]}},
{"type": "Feature", "id": "JTsTFyjVBbXtpCrIFfNz8ZDvF-A=", "properties": {"ref": "1q0543VafF7a8PzOQYelCY", "amenity": "cafe", "cuisine": "coffee_shop", "@spider": "costacoffee_ie", "vending": "coffee", "addr:full": "Costa Coffee, Tesco Car Park, Matthew's Lane, Drogheda, A92 YY01", "addr:country": "IE", "name": "COSTA COFFEE- NAVAN RETAIL PARK DRIVE THRU", "brand": "Costa Coffee", "brand:wikidata": "Q608845", "nsi_id": "costaexpress-37500c"}, "geometry": {"type": "Point", "coordinates": [-6.3725, 53.70122]}},
{"type": "Feature", "id": "5lJy2drJizVZb9HqGlL-kgZaTKI=", "properties": {"ref": "5aR4Y5Nf02pU3uPclhwVt9", "amenity": "cafe", "cuisine": "coffee_shop", "@spider": "costacoffee_ie", "vending": "coffee", "addr:full": "Costa Coffee, Tesco Car Park, Matthew's Lane, Drogheda, A92 YY01", "addr:country": "IE", "name": "COSTA COFFEE- TESCO DROGHEDA", "brand": "Costa Coffee", "brand:wikidata": "Q608845", "nsi_id": "costaexpress-37500c"}, "geometry": {"type": "Point", "coordinates": [-6.3725, 53.70122]}},
{"type": "Feature", "id": "K8kVIM8qTb55R1YGt6EO1LWAAao=", "properties": {"ref": "6YV39RYKZKH3FEqaiAV6z0", "amenity": "cafe", "cuisine": "coffee_shop", "@spider": "costacoffee_ie", "vending": "coffee", "addr:full": "Costa Coffee, Units 1A + 1B, Hillcrest Shopping Centre, Lucan, Co. Dublin, K78 A799", "addr:country": "IE", "name": "COSTA COFFEE- HILLCREST", "brand": "Costa Coffee", "brand:wikidata": "Q608845", "nsi_id": "costaexpress-37500c"}, "geometry": {"type": "Point", "coordinates": [-6.4593, 53.35305]}},
{"type": "Feature", "id": "vNmdvNw-1VzO1Fj3jEn0ZL10NNY=", "properties": {"ref": "31emdmyBXsUmo68clvvgd5", "amenity": "cafe", "cuisine": "coffee_shop", "@spider": "costacoffee_ie", "vending": "coffee", "addr:full": "Drumkeen Retail Park, 4 Upper Galwally, Belfast, BT8 6RB", "addr:country": "IE", "name": "COSTA COFFEE- DRUMKEEN", "opening_hours": "Mo-We 08:00-18:00; Th-Fr 08:00-21:00; Sa 08:00-18:00; Su 11:00-18:00", "brand": "Costa Coffee", "brand:wikidata": "Q608845", "nsi_id": "costaexpress-37500c"}, "geometry": {"type": "Point", "coordinates": [-5.90703, 54.5645]}},
{"type": "Feature", "id": "1iA6hhCOvPZk-KAn2yVLaizBy6U=", "properties": {"ref": "157541635", "amenity": "cafe", "cuisine": "coffee_shop", "@spider": "costacoffee_ie", "vending": "coffee", "addr:full": "Costa Coffee, Unit 13, M6, Navan Town Centre, Kennedy Road, Navan, County Meath, C15 PR23", "addr:country": "IE", "name": "COSTA COFFEE - NAVAN", "opening_hours": "Mo-We 08:00-18:00; Th-Fr 08:00-21:00; Sa 08:00-18:00; Su 11:00-18:00", "brand": "Costa Coffee", "brand:wikidata": "Q608845", "nsi_id": "costaexpress-37500c"}, "geometry": {"type": "Point", "coordinates": [-6.687688, 53.6539718]}},
{"type": "Feature", "id": "822UQt0mE-sBVOo02gVVXjmclig=", "properties": {"ref": "1877424878", "amenity": "cafe", "cuisine": "coffee_shop", "@spider": "costacoffee_ie", "vending": "coffee", "addr:full": "Costa Coffee, Units 124 - 126, The Square Shopping Centre, Tallaght, Dublin, D24 ND77", "addr:country": "IE", "name": "COSTA COFFEE - TALLAGHT", "opening_hours": "Mo-We 08:30-18:00; Th-Fr 08:30-21:00; Sa 09:00-18:00; Su 11:00-18:00", "brand": "Costa Coffee", "brand:wikidata": "Q608845", "nsi_id": "costaexpress-37500c"}, "geometry": {"type": "Point", "coordinates": [-6.3717, 53.28659]}},
{"type": "Feature", "id": "OT-8Y7MoO1h1J5m1ZBndLK9IecE=", "properties": {"ref": "1469980853", "amenity": "cafe", "cuisine": "coffee_shop", "@spider": "costacoffee_ie", "vending": "coffee", "addr:full": "Costa Coffee, Lidl Retail Units, Main Road, Tallaght, D24 W672", "addr:country": "IE", "name": "COSTA COFFEE - MAIN ROAD, TALLAGHT", "opening_hours": "Mo-We 08:00-18:00; Th-Fr 08:00-19:00; Sa 08:30-18:00; Su 10:30-18:00", "brand": "Costa Coffee", "brand:wikidata": "Q608845", "nsi_id": "costaexpress-37500c"}, "geometry": {"type": "Point", "coordinates": [-6.33694, 53.29011]}},
{"type": "Feature", "id": "x1QMf4I68Tm0yKSf7q5KdB04GFQ=", "properties": {"ref": "1695216874", "amenity": "cafe", "cuisine": "coffee_shop", "@spider": "costacoffee_ie", "vending": "coffee", "addr:full": "Costa Coffee, Unit 10 , Park Pointe, Upper Glenageary Road, Dun Laoghaire, Co. Dublin, A96 KT35", "addr:country": "IE", "name": "COSTA COFFEE - PARK POINTE", "opening_hours": "Mo-We 08:00-18:30; Th-Fr 08:00-19:00; Sa 08:00-18:00; Su 10:00-18:00", "brand": "Costa Coffee", "brand:wikidata": "Q608845", "nsi_id": "costaexpress-37500c"}, "geometry": {"type": "Point", "coordinates": [-6.144278, 53.2825368]}},
{"type": "Feature", "id": "g8yZo44w4rxl9zQpdxWSvjvNvCw=", "properties": {"ref": "2671081705", "amenity": "vending_machine", "vending": "coffee", "@spider": "costacoffee_ie", "addr:full": "Costcutter Suffolk 118 - 120 Stewartstown Road Belfast BT11 9JQ", "addr:country": "IE", "name": "Costcutter Suffolk", "opening_hours": "24/7", "brand": "Costa Express", "brand:wikidata": "Q608845", "nsi_id": "costaexpress-37500c"}, "geometry": {"type": "Point", "coordinates": [-6.0091, 54.56811]}},
{"type": "Feature", "id": "qupjiJ88UQRDRW09u9WajjmlQ7k=", "properties": {"ref": "2652623795", "amenity": "vending_machine", "vending": "coffee", "@spider": "costacoffee_ie", "addr:full": "Nisa Donaghcloney 9 Main Street Donaghcloney BT66 7LR", "addr:country": "IE", "name": "Nisa Donaghcloney", "opening_hours": "24/7", "brand": "Costa Express", "brand:wikidata": "Q608845", "nsi_id": "costaexpress-37500c"}, "geometry": {"type": "Point", "coordinates": [-6.2605, 54.42006]}},
{"type": "Feature", "id": "QeF-ehSHUf2JUa_0bP9-Y__2PFA=", "properties": {"ref": "29342657", "amenity": "vending_machine", "vending": "coffee", "@spider": "costacoffee_ie", "addr:full": "Ela's Yourstop O'Connel Street Mountmellick Co. Laois  ", "addr:country": "IE", "name": "Ela's Yourstop", "opening_hours": "24/7", "brand": "Costa Express", "brand:wikidata": "Q608845", "nsi_id": "costaexpress-37500c"}, "geometry": {"type": "Point", "coordinates": [-7.3274, 53.11729]}},
{"type": "Feature", "id": "NnuUxHp2PcPfdC9vz007EQdwFHo=", "properties": {"ref": "1878753645", "amenity": "vending_machine", "vending": "coffee", "@spider": "costacoffee_ie", "addr:full": "Scotch Street Filling Station 106 Moy Road Portadown BT62 1QP", "addr:country": "IE", "name": "Scotch Street Filling Station", "opening_hours": "Mo-We 00:00-24:00; Fr-Su 00:00-24:00", "brand": "Costa Express", "brand:wikidata": "Q608845", "nsi_id": "costaexpress-37500c"}, "geometry": {"type": "Point", "coordinates": [-6.51086, 54.44038]}},
{"type": "Feature", "id": "M88hyu1bDv8uXa3h-iKwmK0ICPE=", "properties": {"ref": "801945424", "amenity": "vending_machine", "vending": "coffee", "@spider": "costacoffee_ie", "addr:full": "Gala Celbridge Unit 2, Aghards House, Thornhill Gardens Celbridge Co. Kildare", "addr:country": "IE", "name": "Gala Celbridge", "opening_hours": "24/7", "brand": "Costa Express", "brand:wikidata": "Q608845", "nsi_id": "costaexpress-37500c"}, "geometry": {"type": "Point", "coordinates": [-6.55089, 53.34886]}},
{"type": "Feature", "id": "8aKVuIxgQTwwXD4CUKKvkh_URt0=", "properties": {"ref": "4026770362", "amenity": "vending_machine", "vending": "coffee", "@spider": "costacoffee_ie", "addr:full": "95 Pond Park Road, Lisburn BT28 2RF", "addr:country": "IE", "name": "NETTLEHILL SERVICE STATION ", "opening_hours": "24/7", "brand": "Costa Express", "brand:wikidata": "Q608845", "nsi_id": "costaexpress-37500c"}, "geometry": {"type": "Point", "coordinates": [-6.05929, 54.52168]}},
{"type": "Feature", "id": "dpTH4S83InM3SMR2oOeSHo3JvKY=", "properties": {"ref": "2624019977", "amenity": "vending_machine", "vending": "coffee", "@spider": "costacoffee_ie", "addr:full": "703 Springfield Road, Belfast, BT12 7FP", "addr:country": "IE", "name": "MOUNT ALVERNO ", "opening_hours": "24/7", "brand": "Costa Express", "brand:wikidata": "Q608845", "nsi_id": "costaexpress-37500c"}, "geometry": {"type": "Point", "coordinates": [-5.99023, 54.59334]}},
{"type": "Feature", "id": "jj61Sfj_kA6rePkrrQhgij1ollE=", "properties": {"ref": "1052725749", "amenity": "vending_machine", "vending": "coffee", "@spider": "costacoffee_ie", "addr:full": "38 - 48 Clifton Street, Belfast, Co. Antrim", "addr:country": "IE", "name": "CLIFTON STREET SS", "opening_hours": "24/7", "brand": "Costa Express", "brand:wikidata": "Q608845", "nsi_id": "costaexpress-37500c"}, "geometry": {"type": "Point", "coordinates": [-5.93403, 54.60594]}},
{"type": "Feature", "id": "JiqPLBNqetVO3YSIUPwSJw2D1D0=", "properties": {"ref": "3440133062", "amenity": "vending_machine", "vending": "coffee", "@spider": "costacoffee_ie", "addr:full": "361 Beersbridge Road, Belfast, Co. Antrim", "addr:country": "IE", "name": "CO OP BEERSBRIDGE", "opening_hours": "24/7", "brand": "Costa Express", "brand:wikidata": "Q608845", "nsi_id": "costaexpress-37500c"}, "geometry": {"type": "Point", "coordinates": [-5.88801, 54.5931]}},
{"type": "Feature", "id": "uJmV-tX8zOz8JJ2FX9yJxjw1p-4=", "properties": {"ref": "1320801422", "amenity": "vending_machine", "vending": "coffee", "@spider": "costacoffee_ie", "addr:full": "Unit 6, 32 - 46 Castlereagh Road, Belfast, BT5 5FB", "addr:country": "IE", "name": "TODAY'S LOCAL CASTLEREAGH", "opening_hours": "24/7", "brand": "Costa Express", "brand:wikidata": "Q608845", "nsi_id": "costaexpress-37500c"}, "geometry": {"type": "Point", "coordinates": [-5.89984, 54.59252]}},
{"type": "Feature", "id": "DPuiRhWQo8zPqvmC7mEYd_QwGII=", "properties": {"ref": "1985703325", "amenity": "vending_machine", "vending": "coffee", "@spider": "costacoffee_ie", "addr:full": "Cornagrade Road, Enniskillen, Co. Fermanagh", "addr:country": "IE", "name": "COSTCUTTER CORNAGRADE ROAD", "opening_hours": "24/7", "brand": "Costa Express", "brand:wikidata": "Q608845", "nsi_id": "costaexpress-37500c"}, "geometry": {"type": "Point", "coordinates": [-7.63688, 54.35482]}},
{"type": "Feature", "id": "6Np-fec1vjEAwqQzbBHblRbeLjQ=", "properties": {"ref": "1503535309", "amenity": "vending_machine", "vending": "coffee", "@spider": "costacoffee_ie", "addr:full": "76 - 78 Burn Road, Cookstown, Co.Tyrone", "addr:country": "IE", "name": "BURN ROAD SERVICE STATION", "opening_hours": "24/7", "brand": "Costa Express", "brand:wikidata": "Q608845", "nsi_id": "costaexpress-37500c"}, "geometry": {"type": "Point", "coordinates": [-6.75245, 54.64753]}},
{"type": "Feature", "id": "R9Bt0t6KUV9Bshoa2b8UO-fV6wU=", "properties": {"ref": "1014582021", "amenity": "vending_machine", "vending": "coffee", "@spider": "costacoffee_ie", "addr:full": "82 Ballymiscaw Road, Holywood, Co. Down", "addr:country": "IE", "name": "TOP CRAIGANTLET", "opening_hours": "24/7", "brand": "Costa Express", "brand:wikidata": "Q608845", "nsi_id": "costaexpress-37500c"}, "geometry": {"type": "Point", "coordinates": [-5.79771, 54.61957]}},
{"type": "Feature", "id": "hZ66zYAREl_hJBKcHtbHE21sZhA=", "properties": {"ref": "942347126", "amenity": "vending_machine", "vending": "coffee", "@spider": "costacoffee_ie", "addr:full": "93 Belmont Church Rd, Belfast, Co. Antrim", "addr:country": "IE", "name": "COSTCUTTER BELMONT", "opening_hours": "24/7", "brand": "Costa Express", "brand:wikidata": "Q608845", "nsi_id": "costaexpress-37500c"}, "geometry": {"type": "Point", "coordinates": [-5.86503, 54.59894]}},
{"type": "Feature", "id": "gcUWRAfnNORiYmRyOpbRiLECGpc=", "properties": {"ref": "1447312357", "amenity": "vending_machine", "vending": "coffee", "@spider": "costacoffee_ie", "addr:full": "323 Ballysillan Road, Belfast, BT14 6RE", "addr:country": "IE", "name": "CO OP BALLYSILLAN ROAD", "opening_hours": "24/7", "brand": "Costa Express", "brand:wikidata": "Q608845", "nsi_id": "costaexpress-37500c"}, "geometry": {"type": "Point", "coordinates": [-5.96383, 54.62882]}},
{"type": "Feature", "id": "D9KKjzny7WmjexwPNT1w7t5Evaw=", "properties": {"ref": "2170079968", "amenity": "vending_machine", "vending": "coffee", "@spider": "costacoffee_ie", "addr:full": "390 Ormeau Road, Belfast, BT7 3HX", "addr:country": "IE", "name": "CO OP KNOCKBREDA", "opening_hours": "24/7", "brand": "Costa Express", "brand:wikidata": "Q608845", "nsi_id": "costaexpress-37500c"}, "geometry": {"type": "Point", "coordinates": [-5.91354, 54.56908]}},
{"type": "Feature", "id": "agXndCZtOnwmgf3x0tTK5UrkKIE=", "properties": {"ref": "2822133974", "amenity": "vending_machine", "vending": "coffee", "@spider": "costacoffee_ie", "addr:full": "Church Street, Inistioge, Co. Kilkenny", "addr:country": "IE", "name": "DAYBREAK INISTIOGE", "opening_hours": "24/7", "brand": "Costa Express", "brand:wikidata": "Q608845", "nsi_id": "costaexpress-37500c"}, "geometry": {"type": "Point", "coordinates": [-7.07376, 52.49858]}},
{"type": "Feature", "id": "rwhZrgyG6kSb0phXf0b_ToDKzdw=", "properties": {"ref": "3829085177", "amenity": "vending_machine", "vending": "coffee", "@spider": "costacoffee_ie", "addr:full": "Barndarrig, Kilbride, Co wicklow", "addr:country": "IE", "name": "BARNDARRIG STORES", "opening_hours": "24/7", "brand": "Costa Express", "brand:wikidata": "Q608845", "nsi_id": "costaexpress-37500c"}, "geometry": {"type": "Point", "coordinates": [-6.10783, 52.9296]}},
{"type": "Feature", "id": "_Xxamlo9tQ7RS5SetBWQyotJ6V0=", "properties": {"ref": "27250869", "amenity": "vending_machine", "vending": "coffee", "@spider": "costacoffee_ie", "addr:full": "207 concession road, Newry, BT35 9JD", "addr:country": "IE", "name": "NISA O'NEILLS", "opening_hours": "24/7", "brand": "Costa Express", "brand:wikidata": "Q608845", "nsi_id": "costaexpress-37500c"}, "geometry": {"type": "Point", "coordinates": [-6.60056, 54.04644]}},
{"type": "Feature", "id": "zXeH9tS06bDzfXDhVgdWEBo31EQ=", "properties": {"ref": "2430706939", "amenity": "vending_machine", "vending": "coffee", "@spider": "costacoffee_ie", "addr:full": "Pettigo, Co. Donegal, FN4 KN2Y", "addr:country": "IE", "name": "APPLEGREEN GALA PETTIGO", "opening_hours": "24/7", "brand": "Costa Express", "brand:wikidata": "Q608845", "nsi_id": "costaexpress-37500c"}, "geometry": {"type": "Point", "coordinates": [-7.83207, 54.54909]}},
{"type": "Feature", "id": "1jFAJEA6UhKW-J7E45S-Eu0abzA=", "properties": {"ref": "8826046", "amenity": "vending_machine", "vending": "coffee", "@spider": "costacoffee_ie", "addr:full": "Shannon Airport, Shannon, Co. Clare", "addr:country": "IE", "name": "WH SMITH SHANNON AIRPORT", "opening_hours": "24/7", "brand": "Costa Express", "brand:wikidata": "Q608845", "nsi_id": "costaexpress-37500c"}, "geometry": {"type": "Point", "coordinates": [-8.92871, 52.68273]}},
{"type": "Feature", "id": "KyWiV3ZtfPMkSoz25EorcX6_kkY=", "properties": {"ref": "1670641040", "amenity": "vending_machine", "vending": "coffee", "@spider": "costacoffee_ie", "addr:full": "185 Ballygawley Road, Dungannon, BT70 1RY", "addr:country": "IE", "name": "MAXOL COSTCUTTER DUNGANNON", "opening_hours": "24/7", "brand": "Costa Express", "brand:wikidata": "Q608845", "nsi_id": "costaexpress-37500c"}, "geometry": {"type": "Point", "coordinates": [-6.87655, 54.48711]}},
{"type": "Feature", "id": "wn2TjZOgy1rqhyCrZ_kotXCGIQE=", "properties": {"ref": "3280466109", "amenity": "vending_machine", "vending": "coffee", "@spider": "costacoffee_ie", "addr:full": "Moness, Burt, Co. Donegal", "addr:country": "IE", "name": "CALLAGHAN'S GALA BURT", "opening_hours": "24/7", "brand": "Costa Express", "brand:wikidata": "Q608845", "nsi_id": "costaexpress-37500c"}, "geometry": {"type": "Point", "coordinates": [-7.45048, 55.03401]}},
{"type": "Feature", "id": "63RbvcUxnedHkSBvbFYeogKew4E=", "properties": {"ref": "1571749884", "amenity": "vending_machine", "vending": "coffee", "@spider": "costacoffee_ie", "addr:full": "8 Lisburn Street, Hillsborough, BT26 6AB", "addr:country": "IE", "name": "CO OP HILLSBOROUGH", "opening_hours": "24/7", "brand": "Costa Express", "brand:wikidata": "Q608845", "nsi_id": "costaexpress-37500c"}, "geometry": {"type": "Point", "coordinates": [-6.08327, 54.46325]}},
{"type": "Feature", "id": "4Q-QFQJCxfjFATqN_vBLbNEXKfI=", "properties": {"ref": "2110067829", "amenity": "vending_machine", "vending": "coffee", "@spider": "costacoffee_ie", "addr:full": "523 - 525 Oldpark Road, Belfast, BT14 6QU", "addr:country": "IE", "name": "CO OP OLDPARK", "opening_hours": "24/7", "brand": "Costa Express", "brand:wikidata": "Q608845", "nsi_id": "costaexpress-37500c"}, "geometry": {"type": "Point", "coordinates": [-5.95634, 54.62224]}},
{"type": "Feature", "id": "BxqLdQLSa6Q30PN4zpMI0OgfbOA=", "properties": {"ref": "1334061109", "amenity": "vending_machine", "vending": "coffee", "@spider": "costacoffee_ie", "addr:full": "164 Longstone Street, Lisburn, Co. Antrim, BT28 1TT", "addr:country": "IE", "name": "CO OP LONGSTONE", "opening_hours": "24/7", "brand": "Costa Express", "brand:wikidata": "Q608845", "nsi_id": "costaexpress-37500c"}, "geometry": {"type": "Point", "coordinates": [-6.05889, 54.50956]}},
{"type": "Feature", "id": "3wPUYU7Wlm4esXf9q-FuZJC7Cm8=", "properties": {"ref": "1711943190", "amenity": "vending_machine", "vending": "coffee", "@spider": "costacoffee_ie", "addr:full": "121 BroughShane Street, Ballymena, Co. Antrim", "addr:country": "IE", "name": "CO OP BROUGHSHANE", "opening_hours": "24/7", "brand": "Costa Express", "brand:wikidata": "Q608845", "nsi_id": "costaexpress-37500c"}, "geometry": {"type": "Point", "coordinates": [-6.27088, 54.8698]}},
{"type": "Feature", "id": "jptaNyBx_4PGgtK8NZoUEIf-UsE=", "properties": {"ref": "3448927209", "amenity": "vending_machine", "vending": "coffee", "@spider": "costacoffee_ie", "addr:full": "32 Upper Malone Rd, Belfast, Co. Antrim", "addr:country": "IE", "name": "CO OP UPPER MALONE", "opening_hours": "24/7", "brand": "Costa Express", "brand:wikidata": "Q608845", "nsi_id": "costaexpress-37500c"}, "geometry": {"type": "Point", "coordinates": [-5.96632, 54.55523]}},
{"type": "Feature", "id": "rOdPzXNnhu4k3P1G7BWEULC6vSE=", "properties": {"ref": "854132277", "amenity": "vending_machine", "vending": "coffee", "@spider": "costacoffee_ie", "addr:full": "WH Smith Cork Airport, Kinsale Road, Cork, Co. Cork", "addr:country": "IE", "name": "WHSMITH CORK AIRPORT ", "opening_hours": "24/7", "brand": "Costa Express", "brand:wikidata": "Q608845", "nsi_id": "costaexpress-37500c"}, "geometry": {"type": "Point", "coordinates": [-8.47692, 51.84628]}},
{"type": "Feature", "id": "CBHmYMn_ac0QTb3nov-4wVP3FF8=", "properties": {"ref": "1060376776", "amenity": "vending_machine", "vending": "coffee", "@spider": "costacoffee_ie", "addr:full": "15 Cardinal O\u2019Fiaich Square, Crossmaglen, Co. Armagh", "addr:country": "IE", "name": "MCENTEES CROSSMAGLEN", "opening_hours": "24/7", "brand": "Costa Express", "brand:wikidata": "Q608845", "nsi_id": "costaexpress-37500c"}, "geometry": {"type": "Point", "coordinates": [54.07694, 54.07694]}},
{"type": "Feature", "id": "bQ0QTKvipNmD4SUVb0HL8ZCB4iE=", "properties": {"ref": "2795715971", "amenity": "vending_machine", "vending": "coffee", "@spider": "costacoffee_ie", "addr:full": "31 Brookwood Rise, Harmonstown, Dublin 5, Co. Dublin", "addr:country": "IE", "name": "DAY TODAY HARMONSTOWN", "opening_hours": "24/7", "brand": "Costa Express", "brand:wikidata": "Q608845", "nsi_id": "costaexpress-37500c"}, "geometry": {"type": "Point", "coordinates": [-6.1917, 53.37925]}},
{"type": "Feature", "id": "Mdk3Vj9LHxNzz_UjTm8msWu8lBk=", "properties": {"ref": "1410783574", "amenity": "vending_machine", "vending": "coffee", "@spider": "costacoffee_ie", "addr:full": "Brodericks, The Hill, Loughrea, Co.Galway", "addr:country": "IE", "name": "GALA LOUGHREA", "opening_hours": "24/7", "brand": "Costa Express", "brand:wikidata": "Q608845", "nsi_id": "costaexpress-37500c"}, "geometry": {"type": "Point", "coordinates": [-8.55546, 53.20128]}},
{"type": "Feature", "id": "lani7Zm4Rm0lRFix3P_mQ3vBQ8c=", "properties": {"ref": "2838895665", "amenity": "vending_machine", "vending": "coffee", "@spider": "costacoffee_ie", "addr:full": "Ballinode, Sligo, Co. Sligo", "addr:country": "IE", "name": "REGIONAL STORES SLIGO", "opening_hours": "24/7", "brand": "Costa Express", "brand:wikidata": "Q608845", "nsi_id": "costaexpress-37500c"}, "geometry": {"type": "Point", "coordinates": [-8.46263, 54.27458]}},
{"type": "Feature", "id": "hT8bXCDiYfzor6Fp-Wn6ANxxaiI=", "properties": {"ref": "172639359", "amenity": "vending_machine", "vending": "coffee", "@spider": "costacoffee_ie", "addr:full": "11A Chichester Street, Belfast, BT1 4JA", "addr:country": "IE", "name": "TODAY'S CHICHESTER STREET", "opening_hours": "24/7", "brand": "Costa Express", "brand:wikidata": "Q608845", "nsi_id": "costaexpress-37500c"}, "geometry": {"type": "Point", "coordinates": [-5.92786, 54.59725]}},
{"type": "Feature", "id": "zQLD4EyXgLoqSUwgxSsfhr8ykb8=", "properties": {"ref": "3766650471", "amenity": "vending_machine", "vending": "coffee", "@spider": "costacoffee_ie", "addr:full": "Main Street, Suncroft, Co. Kildare", "addr:country": "IE", "name": "YOUR STOP SUNCROFT", "opening_hours": "24/7", "brand": "Costa Express", "brand:wikidata": "Q608845", "nsi_id": "costaexpress-37500c"}, "geometry": {"type": "Point", "coordinates": [-6.59263, 53.24811]}},
{"type": "Feature", "id": "vitZN9A1qgsPDQzvmCdeiz0wCG8=", "properties": {"ref": "605338726", "amenity": "vending_machine", "vending": "coffee", "@spider": "costacoffee_ie", "addr:full": "80 Cathedral Road, Armagh, BT61 8AE", "addr:country": "IE", "name": "COSTCUTTER ARMAGH", "opening_hours": "24/7", "brand": "Costa Express", "brand:wikidata": "Q608845", "nsi_id": "costaexpress-37500c"}, "geometry": {"type": "Point", "coordinates": [-6.67094, 54.35173]}},
{"type": "Feature", "id": "fir15ctizzCv242ch0mPXaABIW8=", "properties": {"ref": "3514282914", "amenity": "vending_machine", "vending": "coffee", "@spider": "costacoffee_ie", "addr:full": "Derrinturn, Carbury, Co. Kildare", "addr:country": "IE", "name": "TODAY EXTRA DERRINTURN", "opening_hours": "24/7", "brand": "Costa Express", "brand:wikidata": "Q608845", "nsi_id": "costaexpress-37500c"}, "geometry": {"type": "Point", "coordinates": [-6.94001, 53.33952]}},
{"type": "Feature", "id": "ThMUAU0BLW_HPYz98j7bO-3x60A=", "properties": {"ref": "190181671", "amenity": "vending_machine", "vending": "coffee", "@spider": "costacoffee_ie", "addr:full": "125 Annareagh Rd, Hamiltonsbawn, Co. Armagh", "addr:country": "IE", "name": "BAWN SERVICE STATION", "opening_hours": "24/7", "brand": "Costa Express", "brand:wikidata": "Q608845", "nsi_id": "costaexpress-37500c"}, "geometry": {"type": "Point", "coordinates": [-6.54262, 54.3422]}},
{"type": "Feature", "id": "lNs-eRby-iNyADMBjCP8Q5GEYlc=", "properties": {"ref": "3498062075", "amenity": "vending_machine", "vending": "coffee", "@spider": "costacoffee_ie", "addr:full": "168 Main Street, Lisnaskea, BT92 0JE", "addr:country": "IE", "name": "COSTCUTTER LISNASKEA", "opening_hours": "24/7", "brand": "Costa Express", "brand:wikidata": "Q608845", "nsi_id": "costaexpress-37500c"}, "geometry": {"type": "Point", "coordinates": [-7.44283, 54.25288]}},
{"type": "Feature", "id": "nwPszF3nbGczALFvqtk61Ypw0gY=", "properties": {"ref": "1291336314", "amenity": "vending_machine", "vending": "coffee", "@spider": "costacoffee_ie", "addr:full": "Donegal Road, Killybegs, Co.Donegal", "addr:country": "IE", "name": "TOP OIL KILLYBEGS", "opening_hours": "24/7", "brand": "Costa Express", "brand:wikidata": "Q608845", "nsi_id": "costaexpress-37500c"}, "geometry": {"type": "Point", "coordinates": [-8.42636, 54.64972]}},
{"type": "Feature", "id": "rdMea6QRm9_bl4qad4NeoO0IaJk=", "properties": {"ref": "2398040458", "amenity": "vending_machine", "vending": "coffee", "@spider": "costacoffee_ie", "addr:full": "6A Beechmount Ave, Strabane, BT82 9BE", "addr:country": "IE", "name": "TODAYS BEECHMOUNT", "opening_hours": "24/7", "brand": "Costa Express", "brand:wikidata": "Q608845", "nsi_id": "costaexpress-37500c"}, "geometry": {"type": "Point", "coordinates": [-7.47052, 54.81889]}},
{"type": "Feature", "id": "-m8QDOPMxaHjnpQ3ydGZGZvCRj8=", "properties": {"ref": "1706930455", "amenity": "vending_machine", "vending": "coffee", "@spider": "costacoffee_ie", "addr:full": "179 Derrylin Road, Ballanaleck, Co. Fermanagh", "addr:country": "IE", "name": "CATHCART'S COSTCUTTER", "opening_hours": "24/7", "brand": "Costa Express", "brand:wikidata": "Q608845", "nsi_id": "costaexpress-37500c"}, "geometry": {"type": "Point", "coordinates": [-7.64283, 54.29651]}},
{"type": "Feature", "id": "KM6dTiniNlHbkbgYpm8aztJoFxk=", "properties": {"ref": "2431663325", "amenity": "vending_machine", "vending": "coffee", "@spider": "costacoffee_ie", "addr:full": "18 Holles St, Grand Canal Dock, Dublin 2", "addr:country": "IE", "name": "GALA HOLLES STREET", "opening_hours": "24/7", "brand": "Costa Express", "brand:wikidata": "Q608845", "nsi_id": "costaexpress-37500c"}, "geometry": {"type": "Point", "coordinates": [-6.24255, 53.3402]}},
{"type": "Feature", "id": "yO4rxN14Mi7NkkCTs_JRJo5A-eQ=", "properties": {"ref": "2907985798", "amenity": "vending_machine", "vending": "coffee", "@spider": "costacoffee_ie", "addr:full": "Mullameelan, Ardee, Co. Louth", "addr:country": "IE", "name": "TOP OIL ARDEE", "opening_hours": "24/7", "brand": "Costa Express", "brand:wikidata": "Q608845", "nsi_id": "costaexpress-37500c"}, "geometry": {"type": "Point", "coordinates": [-6.54083, 53.84793]}},
{"type": "Feature", "id": "s8Ae2cyz2CKK9E6uXLf_nt09X1g=", "properties": {"ref": "4048079037", "amenity": "vending_machine", "vending": "coffee", "@spider": "costacoffee_ie", "addr:full": "Inver & Your Stop Painstown, Donadea, Co. Kildare", "addr:country": "IE", "name": "YOUR STOP PAINSTOWN", "opening_hours": "24/7", "brand": "Costa Express", "brand:wikidata": "Q608845", "nsi_id": "costaexpress-37500c"}, "geometry": {"type": "Point", "coordinates": [-6.6926, 53.33779]}},
{"type": "Feature", "id": "BMNGjy7xsWiAC1CFTLPVJT4P7p4=", "properties": {"ref": "1665542742", "amenity": "vending_machine", "vending": "coffee", "@spider": "costacoffee_ie", "addr:full": "Main Street, Dromahair, Co. Leitrim", "addr:country": "IE", "name": "GALA DROMAHAIR", "opening_hours": "24/7", "brand": "Costa Express", "brand:wikidata": "Q608845", "nsi_id": "costaexpress-37500c"}, "geometry": {"type": "Point", "coordinates": [-8.30264, 54.23072]}},
{"type": "Feature", "id": "r3kSyVFycYmDDWNJJK-hZU8DUzw=", "properties": {"ref": "3755575877", "amenity": "vending_machine", "vending": "coffee", "@spider": "costacoffee_ie", "addr:full": "103-111 Avenue Road, Lurgan, BT66 7BD", "addr:country": "IE", "name": "PARKGATE SERVICE STATION", "opening_hours": "24/7", "brand": "Costa Express", "brand:wikidata": "Q608845", "nsi_id": "costaexpress-37500c"}, "geometry": {"type": "Point", "coordinates": [-6.31755, 54.45853]}},
{"type": "Feature", "id": "Ug3iQqvPLeu3Obvu0bDneCM71ok=", "properties": {"ref": "1580953496", "amenity": "vending_machine", "vending": "coffee", "@spider": "costacoffee_ie", "addr:full": "Main Street, Ballyleague, Co Roscommon", "addr:country": "IE", "name": "INVER YOUR STOP BALLYLEAGUE", "opening_hours": "24/7", "brand": "Costa Express", "brand:wikidata": "Q608845", "nsi_id": "costaexpress-37500c"}, "geometry": {"type": "Point", "coordinates": [-8.49172, 53.76843]}},
{"type": "Feature", "id": "T96ISYFkbuw0XkzGA8ewuPPsmVM=", "properties": {"ref": "480379676", "amenity": "vending_machine", "vending": "coffee", "@spider": "costacoffee_ie", "addr:full": "Egmont Place, Churchtown, Co Cork", "addr:country": "IE", "name": "EGMONT STORES", "opening_hours": "24/7", "brand": "Costa Express", "brand:wikidata": "Q608845", "nsi_id": "costaexpress-37500c"}, "geometry": {"type": "Point", "coordinates": [-8.73189, 52.27083]}},
{"type": "Feature", "id": "e6rP0fUZPNkZMI8tkdfdoG0LV-c=", "properties": {"ref": "1617451170", "amenity": "vending_machine", "vending": "coffee", "@spider": "costacoffee_ie", "addr:full": "Fawns, Termons, Co Donegal", "addr:country": "IE", "name": "YOUR STOP TERMONS", "opening_hours": "24/7", "brand": "Costa Express", "brand:wikidata": "Q608845", "nsi_id": "costaexpress-37500c"}, "geometry": {"type": "Point", "coordinates": [-7.82331, 55.05371]}},
{"type": "Feature", "id": "Q5SDtZwzm48mLWEYumP4_uiJUk0=", "properties": {"ref": "2990807379", "amenity": "vending_machine", "vending": "coffee", "@spider": "costacoffee_ie", "addr:full": "Ballinalee, Co Longford", "addr:country": "IE", "name": "FOX'S GALA", "opening_hours": "24/7", "brand": "Costa Express", "brand:wikidata": "Q608845", "nsi_id": "costaexpress-37500c"}, "geometry": {"type": "Point", "coordinates": [-7.65574, 53.77512]}},
{"type": "Feature", "id": "q7TgxTxPwpLJK8qbL_yjh1VL7T4=", "properties": {"ref": "1861585793", "amenity": "vending_machine", "vending": "coffee", "@spider": "costacoffee_ie", "addr:full": "Marshmeadow, New Ross, Co Wexford", "addr:country": "IE", "name": "HENNESSY YOUR STOP FILLING STATION", "opening_hours": "24/7", "brand": "Costa Express", "brand:wikidata": "Q608845", "nsi_id": "costaexpress-37500c"}, "geometry": {"type": "Point", "coordinates": [-6.94597, 52.39581]}},
{"type": "Feature", "id": "mE4u6nH_81OuDdNNAA_XztISgww=", "properties": {"ref": "1320074439", "amenity": "vending_machine", "vending": "coffee", "@spider": "costacoffee_ie", "addr:full": "Applegreen Ballybay, Ballybay, Co. Monaghan", "addr:country": "IE", "name": "APPLEGREEN YOUR STOP BALLYBAY", "opening_hours": "24/7", "brand": "Costa Express", "brand:wikidata": "Q608845", "nsi_id": "costaexpress-37500c"}, "geometry": {"type": "Point", "coordinates": [-6.90304, 54.13058]}},
{"type": "Feature", "id": "8fqP2RlPNrNDoomY9mmRgEunkfQ=", "properties": {"ref": "1147679214", "amenity": "vending_machine", "vending": "coffee", "@spider": "costacoffee_ie", "addr:full": "Main Street, Kilmacthomas, Co Waterford", "addr:country": "IE", "name": "MULHEARNE'S FOODSTORE", "opening_hours": "24/7", "brand": "Costa Express", "brand:wikidata": "Q608845", "nsi_id": "costaexpress-37500c"}, "geometry": {"type": "Point", "coordinates": [-7.42387, 52.20693]}},
{"type": "Feature", "id": "JAciUkhVQConr67yrKcdkwSyA-o=", "properties": {"ref": "3406303293", "amenity": "vending_machine", "vending": "coffee", "@spider": "costacoffee_ie", "addr:full": "Kilrush Road, Ennis, Co Clare", "addr:country": "IE", "name": "O'SULLIVAN AND HANSBURY MOTORS LTD", "opening_hours": "24/7", "brand": "Costa Express", "brand:wikidata": "Q608845", "nsi_id": "costaexpress-37500c"}, "geometry": {"type": "Point", "coordinates": [-9.00627, 52.82765]}},
{"type": "Feature", "id": "bFdjjPwydd3TW3NEkyq_V1vSckY=", "properties": {"ref": "1982503820", "amenity": "vending_machine", "vending": "coffee", "@spider": "costacoffee_ie", "addr:full": "Dublin Road, Athlone, Co. Longford", "addr:country": "IE", "name": "COSTCUTTER ATHLONE", "opening_hours": "24/7", "brand": "Costa Express", "brand:wikidata": "Q608845", "nsi_id": "costaexpress-37500c"}, "geometry": {"type": "Point", "coordinates": [-7.77054, 53.72167]}},
{"type": "Feature", "id": "9ju8fdwU0gDFW9U0a9FVV1r3Y8M=", "properties": {"ref": "495663234", "amenity": "vending_machine", "vending": "coffee", "@spider": "costacoffee_ie", "addr:full": "Ardee Street, Collon, Co Louth", "addr:country": "IE", "name": "APPLEGREEN GALA PFS COLLON", "opening_hours": "24/7", "brand": "Costa Express", "brand:wikidata": "Q608845", "nsi_id": "costaexpress-37500c"}, "geometry": {"type": "Point", "coordinates": [-6.48044, 53.78758]}},
{"type": "Feature", "id": "q6J-a11ycHJ9K73R2a9PTr7A5fM=", "properties": {"ref": "651990356", "amenity": "vending_machine", "vending": "coffee", "@spider": "costacoffee_ie", "addr:full": "Loughduff, Co Cavan", "addr:country": "IE", "name": "LYNCHES GALA KILLYDOON", "opening_hours": "24/7", "brand": "Costa Express", "brand:wikidata": "Q608845", "nsi_id": "costaexpress-37500c"}, "geometry": {"type": "Point", "coordinates": [-7.46088, 53.8774]}},
{"type": "Feature", "id": "yzZT3mBYfBY-xUKr8Er0874k8Rc=", "properties": {"ref": "2629445105", "amenity": "vending_machine", "vending": "coffee", "@spider": "costacoffee_ie", "addr:full": "Main Street, Ballingar, Co Offaly", "addr:country": "IE", "name": "APPLEGREEN GALA BALLINAGAR", "opening_hours": "24/7", "brand": "Costa Express", "brand:wikidata": "Q608845", "nsi_id": "costaexpress-37500c"}, "geometry": {"type": "Point", "coordinates": [-7.29337, 53.29376]}},
{"type": "Feature", "id": "Z2TYadwi-gK81IqggEhNNLJFA1U=", "properties": {"ref": "1900792861", "amenity": "vending_machine", "vending": "coffee", "@spider": "costacoffee_ie", "addr:full": "Annagry, Letterkenny, Co Donegal", "addr:country": "IE", "name": "THE COPE ANNAGHY", "opening_hours": "24/7", "brand": "Costa Express", "brand:wikidata": "Q608845", "nsi_id": "costaexpress-37500c"}, "geometry": {"type": "Point", "coordinates": [-7.73422, 54.94904]}},
{"type": "Feature", "id": "UDBBoldDIbNuJgphSEH9AhzHzrM=", "properties": {"ref": "2871021881", "amenity": "vending_machine", "vending": "coffee", "@spider": "costacoffee_ie", "addr:full": "Riversdale, Bandon, Co Cork", "addr:country": "IE", "name": "ROUNDHILL SERVICE STATION", "opening_hours": "24/7", "brand": "Costa Express", "brand:wikidata": "Q608845", "nsi_id": "costaexpress-37500c"}, "geometry": {"type": "Point", "coordinates": [-8.73547, 51.74898]}},
{"type": "Feature", "id": "wWD0EGQjJ5CJl_kFisKsGQ3bT6s=", "properties": {"ref": "1328007940", "amenity": "vending_machine", "vending": "coffee", "@spider": "costacoffee_ie", "addr:full": "31-33 Main Street, Kesh, Co. Fermanagh", "addr:country": "IE", "name": "LOANES COSTCUTTER KESH", "opening_hours": "24/7", "brand": "Costa Express", "brand:wikidata": "Q608845", "nsi_id": "costaexpress-37500c"}, "geometry": {"type": "Point", "coordinates": [-7.72208, 54.52194]}},
{"type": "Feature", "id": "ArnmhO-S_dWztorijTc438wq1SE=", "properties": {"ref": "2878060294", "amenity": "vending_machine", "vending": "coffee", "@spider": "costacoffee_ie", "addr:full": "Legga, Moyne, Co Longford", "addr:country": "IE", "name": "GALA CORRIGANS SS (MOYNE)", "opening_hours": "24/7", "brand": "Costa Express", "brand:wikidata": "Q608845", "nsi_id": "costaexpress-37500c"}, "geometry": {"type": "Point", "coordinates": [-7.6337, 53.91496]}},
{"type": "Feature", "id": "bXDjkUZbCqVyGLPFo0XZzJKiv7g=", "properties": {"ref": "2266487562", "amenity": "vending_machine", "vending": "coffee", "@spider": "costacoffee_ie", "addr:full": "58-60 Hollywood Arches, Belfast, BT4 1NT", "addr:country": "IE", "name": "RUSSELL'S HOLYWOOD ARCHES", "opening_hours": "24/7", "brand": "Costa Express", "brand:wikidata": "Q608845", "nsi_id": "costaexpress-37500c"}, "geometry": {"type": "Point", "coordinates": [-5.88651, 54.59855]}},
{"type": "Feature", "id": "oxjN2pwWiX1sywvA45G89xHAD5s=", "properties": {"ref": "1336206263", "amenity": "vending_machine", "vending": "coffee", "@spider": "costacoffee_ie", "addr:full": "70 Victoria Street, Keady, Co Armagh", "addr:country": "IE", "name": "TODAYS EXTRA MCGRANES KEADY", "opening_hours": "24/7", "brand": "Costa Express", "brand:wikidata": "Q608845", "nsi_id": "costaexpress-37500c"}, "geometry": {"type": "Point", "coordinates": [-6.7033, 54.24651]}},
{"type": "Feature", "id": "eHlRVfeCBvdgscZF6RGNxZe0NAY=", "properties": {"ref": "2287349467", "amenity": "vending_machine", "vending": "coffee", "@spider": "costacoffee_ie", "addr:full": "64/65 Henry Street, Kyle House, Co Limerick", "addr:country": "IE", "name": "QUIK PICK LIMERICK", "opening_hours": "24/7", "brand": "Costa Express", "brand:wikidata": "Q608845", "nsi_id": "costaexpress-37500c"}, "geometry": {"type": "Point", "coordinates": [-8.63439, 52.65783]}},
{"type": "Feature", "id": "41JQbLORf251F6d9i674SfP5fQY=", "properties": {"ref": "2171995779", "amenity": "vending_machine", "vending": "coffee", "@spider": "costacoffee_ie", "addr:full": "406 Lisburn Road, Belfast, Co. Antrim", "addr:country": "IE", "name": "RUSSELLS LISBURN ROAD", "opening_hours": "24/7", "brand": "Costa Express", "brand:wikidata": "Q608845", "nsi_id": "costaexpress-37500c"}, "geometry": {"type": "Point", "coordinates": [-5.96023, 54.57206]}},
{"type": "Feature", "id": "S4EeeE222XKdv-AEPee9Tr3vEgE=", "properties": {"ref": "3077320126", "amenity": "vending_machine", "vending": "coffee", "@spider": "costacoffee_ie", "addr:full": "78 Old Miltown Road, Shaw's Bridge, Belfast", "addr:country": "IE", "name": "RUSSELLS SHAW BRIDGE", "opening_hours": "24/7", "brand": "Costa Express", "brand:wikidata": "Q608845", "nsi_id": "costaexpress-37500c"}, "geometry": {"type": "Point", "coordinates": [-5.94152, 54.54794]}},
{"type": "Feature", "id": "_UsbeUhg9H_ol2SG9UjTow_rKUI=", "properties": {"ref": "2601345110", "amenity": "vending_machine", "vending": "coffee", "@spider": "costacoffee_ie", "addr:full": "109A Gilnahirk Road, Belfast", "addr:country": "IE", "name": "RUSSELLS GILNAHIRK ROAD", "opening_hours": "24/7", "brand": "Costa Express", "brand:wikidata": "Q608845", "nsi_id": "costaexpress-37500c"}, "geometry": {"type": "Point", "coordinates": [-5.84069, 54.58327]}},
{"type": "Feature", "id": "rjTtviPnj4DQ9qEhl01aCvEDuu4=", "properties": {"ref": "1072639976", "amenity": "vending_machine", "vending": "coffee", "@spider": "costacoffee_ie", "addr:full": "129 Dublin Road, Newry, BT35 8ND", "addr:country": "IE", "name": "DUBLIN ROAD COSTCUTTER", "opening_hours": "24/7", "brand": "Costa Express", "brand:wikidata": "Q608845", "nsi_id": "costaexpress-37500c"}, "geometry": {"type": "Point", "coordinates": [-6.34691, 54.15401]}},
{"type": "Feature", "id": "wUE9xhRY9deAOM8SYS86VNE6RnU=", "properties": {"ref": "1999181027", "amenity": "vending_machine", "vending": "coffee", "@spider": "costacoffee_ie", "addr:full": "1 Mossfield Road, Irvinestown, Co Fermanagh", "addr:country": "IE", "name": "GLENWOOD FILLING STATION", "opening_hours": "24/7", "brand": "Costa Express", "brand:wikidata": "Q608845", "nsi_id": "costaexpress-37500c"}, "geometry": {"type": "Point", "coordinates": [-7.73027, 54.53402]}},
{"type": "Feature", "id": "uPvjaIT3HYn7qY_iyMbAttm2EDY=", "properties": {"ref": "1296442722", "amenity": "vending_machine", "vending": "coffee", "@spider": "costacoffee_ie", "addr:full": "35 Kilkeel Road, Annalong, Co. Down", "addr:country": "IE", "name": "BARBICAN ANNALONG", "opening_hours": "24/7", "brand": "Costa Express", "brand:wikidata": "Q608845", "nsi_id": "costaexpress-37500c"}, "geometry": {"type": "Point", "coordinates": [-5.90237, 54.10659]}},
{"type": "Feature", "id": "cbbOd14SDlo6Zv29o8ctpExKaec=", "properties": {"ref": "2814320466", "amenity": "vending_machine", "vending": "coffee", "@spider": "costacoffee_ie", "addr:full": "Main Street, Stradbally, Co. Laois", "addr:country": "IE", "name": "SIMPSONS GALA STRADBALLY", "opening_hours": "24/7", "brand": "Costa Express", "brand:wikidata": "Q608845", "nsi_id": "costaexpress-37500c"}, "geometry": {"type": "Point", "coordinates": [-7.14996, 53.01566]}},
{"type": "Feature", "id": "B_uGJsOI3g5Iwh7fwQ6h0vLOgvc=", "properties": {"ref": "4090427703", "amenity": "vending_machine", "vending": "coffee", "@spider": "costacoffee_ie", "addr:full": "261 Dublin Road , Killean, Newry", "addr:country": "IE", "name": "BARNEY SS", "opening_hours": "24/7", "brand": "Costa Express", "brand:wikidata": "Q608845", "nsi_id": "costaexpress-37500c"}, "geometry": {"type": "Point", "coordinates": [-6.35805, 54.11543]}},
{"type": "Feature", "id": "6u99zYA7DT_1UPAHq6wO_HG_a0w=", "properties": {"ref": "2562671345", "amenity": "vending_machine", "vending": "coffee", "@spider": "costacoffee_ie", "addr:full": "4 Glenville Terrace, Main Street, Dundrum", "addr:country": "IE", "name": "XL DUNDRUM", "opening_hours": "24/7", "brand": "Costa Express", "brand:wikidata": "Q608845", "nsi_id": "costaexpress-37500c"}, "geometry": {"type": "Point", "coordinates": [-6.24493, 53.29044]}},
{"type": "Feature", "id": "Zxrn_lGJkYqOhDWlZf_UeQiKZ0o=", "properties": {"ref": "2540880232", "amenity": "vending_machine", "vending": "coffee", "@spider": "costacoffee_ie", "addr:full": "24 Hawthorn Avenue, Co. Kilkenny", "addr:country": "IE", "name": "GALA ARDNORE", "opening_hours": "24/7", "brand": "Costa Express", "brand:wikidata": "Q608845", "nsi_id": "costaexpress-37500c"}, "geometry": {"type": "Point", "coordinates": [-7.24196, 52.6434]}},
{"type": "Feature", "id": "_f51drv1TLMyau4OTr41lj3Bm7w=", "properties": {"ref": "3556033003", "amenity": "vending_machine", "vending": "coffee", "@spider": "costacoffee_ie", "addr:full": "Duffry Gate, Enniscorthy, Co Wexford", "addr:country": "IE", "name": "GALA ENNISCORTHY", "opening_hours": "24/7", "brand": "Costa Express", "brand:wikidata": "Q608845", "nsi_id": "costaexpress-37500c"}, "geometry": {"type": "Point", "coordinates": [-6.57433, 52.50349]}},
{"type": "Feature", "id": "s6TFd7B9B2VqmyYot5ESYLCWD5w=", "properties": {"ref": "3398081081", "amenity": "vending_machine", "vending": "coffee", "@spider": "costacoffee_ie", "addr:full": "Dublin Rd, Arklow, Co. Wicklow", "addr:country": "IE", "name": "GALA DUBLIN RD ARKLOW", "opening_hours": "24/7", "brand": "Costa Express", "brand:wikidata": "Q608845", "nsi_id": "costaexpress-37500c"}, "geometry": {"type": "Point", "coordinates": [-6.14734, 52.80253]}},
{"type": "Feature", "id": "ZYcUfYW7iHfpdoDtkI5S5eTwAeg=", "properties": {"ref": "2930497018", "amenity": "vending_machine", "vending": "coffee", "@spider": "costacoffee_ie", "addr:full": "50 A, Glenkeen Road, Aghadowey, BT51 4BN", "addr:country": "IE", "name": "TODAY'S AGHADOWEY", "opening_hours": "24/7", "brand": "Costa Express", "brand:wikidata": "Q608845", "nsi_id": "costaexpress-37500c"}, "geometry": {"type": "Point", "coordinates": [-6.6046, 55.03852]}},
{"type": "Feature", "id": "WuYbR4CCNF_5dMlQc5C4zG_BLvI=", "properties": {"ref": "795354811", "amenity": "vending_machine", "vending": "coffee", "@spider": "costacoffee_ie", "addr:full": "Lambs Cross, Sandyford, Dublin 18, Dublin 18", "addr:country": "IE", "name": "TODAY'S LOCAL LAMBS CROSS", "opening_hours": "24/7", "brand": "Costa Express", "brand:wikidata": "Q608845", "nsi_id": "costaexpress-37500c"}, "geometry": {"type": "Point", "coordinates": [-6.22774, 53.26734]}},
{"type": "Feature", "id": "-GWNbODNSNqL8h6ejpCt99goYkU=", "properties": {"ref": "1615792745", "amenity": "vending_machine", "vending": "coffee", "@spider": "costacoffee_ie", "addr:full": "Dublin Rd (c/o Gala Applegreen), Longford, Co. Longford", "addr:country": "IE", "name": "HANLON'S GALA LONGFORD", "opening_hours": "24/7", "brand": "Costa Express", "brand:wikidata": "Q608845", "nsi_id": "costaexpress-37500c"}, "geometry": {"type": "Point", "coordinates": [-7.77054, 53.72167]}},
{"type": "Feature", "id": "X2aBcH_nRr55cb1XolT4oQuFD18=", "properties": {"ref": "3521108864", "amenity": "vending_machine", "vending": "coffee", "@spider": "costacoffee_ie", "addr:full": "Mostrim Road, Ballymahon, Co. Longford", "addr:country": "IE", "name": "HANLON'S GALA BALLYMAHON", "opening_hours": "24/7", "brand": "Costa Express", "brand:wikidata": "Q608845", "nsi_id": "costaexpress-37500c"}, "geometry": {"type": "Point", "coordinates": [-7.76425, 53.56442]}},
{"type": "Feature", "id": "Ayzu5riB6t36-BhbYlQ_KhnXcwY=", "properties": {"ref": "100818698", "amenity": "vending_machine", "vending": "coffee", "@spider": "costacoffee_ie", "addr:full": "23-27 Gilford Road, Portadown, BT63 5EF", "addr:country": "IE", "name": "RUSSELL'S GILFORD RD SS", "opening_hours": "24/7", "brand": "Costa Express", "brand:wikidata": "Q608845", "nsi_id": "costaexpress-37500c"}, "geometry": {"type": "Point", "coordinates": [-6.42712, 54.42277]}},
{"type": "Feature", "id": "RgvJDAGztNsCUIhxYmYkt97l4QM=", "properties": {"ref": "3896666338", "amenity": "vending_machine", "vending": "coffee", "@spider": "costacoffee_ie", "addr:full": "56 Donaghadee Road, Newtownards, BT23 7EU", "addr:country": "IE", "name": "RUSSELL'S DONAGHEDEE RD SS", "opening_hours": "24/7", "brand": "Costa Express", "brand:wikidata": "Q608845", "nsi_id": "costaexpress-37500c"}, "geometry": {"type": "Point", "coordinates": [-5.68382, 54.59597]}},
{"type": "Feature", "id": "qFrSt6ZxOiSdDUrd2_x_4f32tO4=", "properties": {"ref": "1589902916", "amenity": "vending_machine", "vending": "coffee", "@spider": "costacoffee_ie", "addr:full": "Staplestown Road, Carlow, Carlow", "addr:country": "IE", "name": "HEGARTY'S GALA", "opening_hours": "24/7", "brand": "Costa Express", "brand:wikidata": "Q608845", "nsi_id": "costaexpress-37500c"}, "geometry": {"type": "Point", "coordinates": [-6.91532, 52.83549]}},
{"type": "Feature", "id": "g-pwx9e4bi9_x0XVsU_MRojWzCo=", "properties": {"ref": "1235588802", "amenity": "vending_machine", "vending": "coffee", "@spider": "costacoffee_ie", "addr:full": "1 Pond Park Road, Lisburn, BT28 3LE", "addr:country": "IE", "name": "RUSSELL'S POND PARK", "opening_hours": "24/7", "brand": "Costa Express", "brand:wikidata": "Q608845", "nsi_id": "costaexpress-37500c"}, "geometry": {"type": "Point", "coordinates": [-6.06042, 54.52209]}},
{"type": "Feature", "id": "pVfs2gw6_m_z2EcmMS7z8O0ggF4=", "properties": {"ref": "3973337105", "amenity": "vending_machine", "vending": "coffee", "@spider": "costacoffee_ie", "addr:full": "Mace Jonhson Corner, Stranorlar, Co. Donegal", "addr:country": "IE", "name": "MACE STRANORLAR", "opening_hours": "24/7", "brand": "Costa Express", "brand:wikidata": "Q608845", "nsi_id": "costaexpress-37500c"}, "geometry": {"type": "Point", "coordinates": [-7.76786, 54.80491]}},
{"type": "Feature", "id": "c8GLUxDZgIMmUHY6F1qCjGeUnyo=", "properties": {"ref": "1416786685", "amenity": "vending_machine", "vending": "coffee", "@spider": "costacoffee_ie", "addr:full": "Carnew, Co. Wicklow", "addr:country": "IE", "name": "GALA CANDY'S CARNEW", "opening_hours": "24/7", "brand": "Costa Express", "brand:wikidata": "Q608845", "nsi_id": "costaexpress-37500c"}, "geometry": {"type": "Point", "coordinates": [-6.4949, 52.710258]}},
{"type": "Feature", "id": "UkTrN5mQBdKVp9JM6QP5LEWXPII=", "properties": {"ref": "1795354764", "amenity": "vending_machine", "vending": "coffee", "@spider": "costacoffee_ie", "addr:full": "232 Woodstock Rd, Belfast, BT6 9DL", "addr:country": "IE", "name": "RUSSELL'S WOODSTOCK ROAD", "opening_hours": "24/7", "brand": "Costa Express", "brand:wikidata": "Q608845", "nsi_id": "costaexpress-37500c"}, "geometry": {"type": "Point", "coordinates": [-5.9025, 54.59047]}},
{"type": "Feature", "id": "c7h1SMbCFmufrCEYDHDMOFisNpI=", "properties": {"ref": "1718947850", "amenity": "vending_machine", "vending": "coffee", "@spider": "costacoffee_ie", "addr:full": "2A Newtownards Rd, Belfast, BT23 5AY", "addr:country": "IE", "name": "RUSSELL'S COMBER SS", "opening_hours": "24/7", "brand": "Costa Express", "brand:wikidata": "Q608845", "nsi_id": "costaexpress-37500c"}, "geometry": {"type": "Point", "coordinates": [-5.74148, 54.55172]}},
{"type": "Feature", "id": "daPWQ5uATkDtLCki0uLHjipy9es=", "properties": {"ref": "2438592300", "amenity": "vending_machine", "vending": "coffee", "@spider": "costacoffee_ie", "addr:full": "Townparks, Convoy, Co Donegal", "addr:country": "IE", "name": "GALA HARRIS CONVOY", "opening_hours": "24/7", "brand": "Costa Express", "brand:wikidata": "Q608845", "nsi_id": "costaexpress-37500c"}, "geometry": {"type": "Point", "coordinates": [-7.67078, 54.8619]}},
{"type": "Feature", "id": "Lvb8sgNJj28B9k64UPW9Sd4Vfj8=", "properties": {"ref": "572704867", "amenity": "vending_machine", "vending": "coffee", "@spider": "costacoffee_ie", "addr:full": "Moyleroe, Delvin, Co. Meath", "addr:country": "IE", "name": "DELVIN SS", "opening_hours": "24/7", "brand": "Costa Express", "brand:wikidata": "Q608845", "nsi_id": "costaexpress-37500c"}, "geometry": {"type": "Point", "coordinates": [-7.08131, 53.6229]}},
{"type": "Feature", "id": "0OM9tPdQfWpaMSGQSFR_stKcrEU=", "properties": {"ref": "688903006", "amenity": "vending_machine", "vending": "coffee", "@spider": "costacoffee_ie", "addr:full": "387 Antrim Road, Glengormley BT36 5ED", "addr:country": "IE", "name": "MOYOLA PARK FILLING STATION", "opening_hours": "24/7", "brand": "Costa Express", "brand:wikidata": "Q608845", "nsi_id": "costaexpress-37500c"}, "geometry": {"type": "Point", "coordinates": [-5.96358, 54.67406]}},
{"type": "Feature", "id": "QyZc3JlX5IIhnzN1zZs38tZtqjc=", "properties": {"ref": "3983895609", "amenity": "vending_machine", "vending": "coffee", "@spider": "costacoffee_ie", "addr:full": "Cloncat, Fordstown, Navan, Co. Meath", "addr:country": "IE", "name": "CLONCAT SS", "opening_hours": "24/7", "brand": "Costa Express", "brand:wikidata": "Q608845", "nsi_id": "costaexpress-37500c"}, "geometry": {"type": "Point", "coordinates": [-6.95003, 53.68504]}},
{"type": "Feature", "id": "fdkIoeO57B60opCnSQnEa38i-vw=", "properties": {"ref": "1607397772", "amenity": "vending_machine", "vending": "coffee", "@spider": "costacoffee_ie", "addr:full": "72 Botanic Avenue Belfast BT71JL", "addr:country": "IE", "name": "RUSSELL'S BOTANIC AVENUE", "opening_hours": "24/7", "brand": "Costa Express", "brand:wikidata": "Q608845", "nsi_id": "costaexpress-37500c"}, "geometry": {"type": "Point", "coordinates": [-5.93259, 54.58706]}},
{"type": "Feature", "id": "l4yEUtf5HCWxHhY_OBsb_cF2uI0=", "properties": {"ref": "3849506632", "amenity": "vending_machine", "vending": "coffee", "@spider": "costacoffee_ie", "addr:full": "Liffey Valley Shopping Centre, Fonthill Rd, Dublin, Ireland", "addr:country": "IE", "name": "BOOTS LIFFEY VALLEY", "opening_hours": "24/7", "brand": "Costa Express", "brand:wikidata": "Q608845", "nsi_id": "costaexpress-37500c"}, "geometry": {"type": "Point", "coordinates": [-6.39138, 53.35277]}},
{"type": "Feature", "id": "KLgxbjMpeLf_LA_mrPeFmIQGktg=", "properties": {"ref": "1122629502", "amenity": "vending_machine", "vending": "coffee", "@spider": "costacoffee_ie", "addr:full": "Killala Rd, Kilmoremoy, Ballina, Co. Mayo, Ireland", "addr:country": "IE", "name": "COSTCUTTER BALLINA", "opening_hours": "24/7", "brand": "Costa Express", "brand:wikidata": "Q608845", "nsi_id": "costaexpress-37500c"}, "geometry": {"type": "Point", "coordinates": [-9.162014, 54.1222313]}},
{"type": "Feature", "id": "1BFdIDy-YWeRt9bzCDksLPK4Ko4=", "properties": {"ref": "1224608984", "amenity": "vending_machine", "vending": "coffee", "@spider": "costacoffee_ie", "addr:full": "Inniscarra, Inniscarra, Co. Cork", "addr:country": "IE", "name": "DAYBREAK INNISCARRA", "opening_hours": "24/7", "brand": "Costa Express", "brand:wikidata": "Q608845", "nsi_id": "costaexpress-37500c"}, "geometry": {"type": "Point", "coordinates": [-8.6242223, 51.8939857]}},
{"type": "Feature", "id": "HX_EU0DCLIOe1v34bdPO4W8Z2oY=", "properties": {"ref": "2297160044", "amenity": "vending_machine", "vending": "coffee", "@spider": "costacoffee_ie", "addr:full": "60 College Road, Cork, Co. Cork", "addr:country": "IE", "name": "DAYBREAK COLLEGE RD", "opening_hours": "24/7", "brand": "Costa Express", "brand:wikidata": "Q608845", "nsi_id": "costaexpress-37500c"}, "geometry": {"type": "Point", "coordinates": [-8.4938275, 51.8917014]}},
{"type": "Feature", "id": "ujubUxGTpKouwPLIfr2WYE5Tjy0=", "properties": {"ref": "1758922332", "amenity": "vending_machine", "vending": "coffee", "@spider": "costacoffee_ie", "addr:full": "33 Grand Parade, Cork", "addr:country": "IE", "name": "DAYBREAK CORK GRAND PARADE", "opening_hours": "24/7", "brand": "Costa Express", "brand:wikidata": "Q608845", "nsi_id": "costaexpress-37500c"}, "geometry": {"type": "Point", "coordinates": [-8.4747464, 51.8967834]}},
{"type": "Feature", "id": "nY-f3KhbygnYumqcUI5bdA7unQU=", "properties": {"ref": "608684078", "amenity": "vending_machine", "vending": "coffee", "@spider": "costacoffee_ie", "addr:full": "Gortnamucklagh, Portnoo Road, Glenties, Co. Donegal", "addr:country": "IE", "name": "GALA GLENTIES", "opening_hours": "24/7", "brand": "Costa Express", "brand:wikidata": "Q608845", "nsi_id": "costaexpress-37500c"}, "geometry": {"type": "Point", "coordinates": [-8.29635, 54.7985]}},
{"type": "Feature", "id": "n045LTEKXMXNHkuG9lcNgMazPxU=", "properties": {"ref": "3860803344", "amenity": "vending_machine", "vending": "coffee", "@spider": "costacoffee_ie", "addr:full": "Terminal 2, Airside, Dublin", "addr:country": "IE", "name": "DUBLIN AIRPORT", "opening_hours": "24/7", "brand": "Costa Express", "brand:wikidata": "Q608845", "nsi_id": "costaexpress-37500c"}, "geometry": {"type": "Point", "coordinates": [-6.25526, 53.43685]}},
{"type": "Feature", "id": "WqnRJc7WSZRm3L1xwKPMmop3RT4=", "properties": {"ref": "3360656905", "amenity": "vending_machine", "vending": "coffee", "@spider": "costacoffee_ie", "addr:full": "Clara Road, Tullamore, Co. Offaly", "addr:country": "IE", "name": "DOLANS GALA TULLAMORE", "opening_hours": "24/7", "brand": "Costa Express", "brand:wikidata": "Q608845", "nsi_id": "costaexpress-37500c"}, "geometry": {"type": "Point", "coordinates": [-7.50571, 53.28305]}},
{"type": "Feature", "id": "VSQ6EIR2pZivPc7UQe0gnVaofDA=", "properties": {"ref": "2142391196", "amenity": "vending_machine", "vending": "coffee", "@spider": "costacoffee_ie", "addr:full": "168-170 Musseneden Road, Castlerock, Coleraine", "addr:country": "IE", "name": "EXORNA FILLING STATION", "opening_hours": "24/7", "brand": "Costa Express", "brand:wikidata": "Q608845", "nsi_id": "costaexpress-37500c"}, "geometry": {"type": "Point", "coordinates": [-6.78143, 55.15193]}},
{"type": "Feature", "id": "e0PjFDzgYRaJ4UwYGP3d-lvaSys=", "properties": {"ref": "1178179848", "amenity": "vending_machine", "vending": "coffee", "@spider": "costacoffee_ie", "addr:full": "Mounthawk , Tralee, Co. Kerry", "addr:country": "IE", "name": "GALA MOUNTHAWK", "opening_hours": "24/7", "brand": "Costa Express", "brand:wikidata": "Q608845", "nsi_id": "costaexpress-37500c"}, "geometry": {"type": "Point", "coordinates": [-9.72297, 52.28529]}},
{"type": "Feature", "id": "Bl9uZYxcdEDwazPc0I3NYbwymCc=", "properties": {"ref": "707827818", "amenity": "vending_machine", "vending": "coffee", "@spider": "costacoffee_ie", "addr:full": "Rochestown Rd, Cork, Co. Cork", "addr:country": "IE", "name": "DAYBREAK ROCHESTOWN ROAD", "opening_hours": "24/7", "brand": "Costa Express", "brand:wikidata": "Q608845", "nsi_id": "costaexpress-37500c"}, "geometry": {"type": "Point", "coordinates": [-8.39426, 51.87699]}},
{"type": "Feature", "id": "zJQxOVro9FUje0XgCPp2IZUuRuk=", "properties": {"ref": "4029753983", "amenity": "vending_machine", "vending": "coffee", "@spider": "costacoffee_ie", "addr:full": "Oakpark, Tralee, Co. Kerry", "addr:country": "IE", "name": "GALA OAKPARK", "opening_hours": "24/7", "brand": "Costa Express", "brand:wikidata": "Q608845", "nsi_id": "costaexpress-37500c"}, "geometry": {"type": "Point", "coordinates": [-9.68093, 52.28069]}},
{"type": "Feature", "id": "Z0hy8GU0bb8zkDaYJVFBCfahnCQ=", "properties": {"ref": "421929950", "amenity": "vending_machine", "vending": "coffee", "@spider": "costacoffee_ie", "addr:full": "Derrybeg, Gweedore, Co. Donegal  ", "addr:country": "IE", "name": "GALLAGHERS SS DERRYBEG", "opening_hours": "24/7", "brand": "Costa Express", "brand:wikidata": "Q608845", "nsi_id": "costaexpress-37500c"}, "geometry": {"type": "Point", "coordinates": [-8.30651, 55.060661]}},
{"type": "Feature", "id": "TVaQYEk0Cm9oROtJ_iv4uLYssgU=", "properties": {"ref": "3752697724", "amenity": "vending_machine", "vending": "coffee", "@spider": "costacoffee_ie", "addr:full": "16 Kylemore Road, Dublin ", "addr:country": "IE", "name": "GO GALA SERVICE STATION", "opening_hours": "24/7", "brand": "Costa Express", "brand:wikidata": "Q608845", "nsi_id": "costaexpress-37500c"}, "geometry": {"type": "Point", "coordinates": [-6.10105, 53.27888]}},
{"type": "Feature", "id": "ji8LSIR5n2ao5forSW6tqAnC5KY=", "properties": {"ref": "331029030", "amenity": "vending_machine", "vending": "coffee", "@spider": "costacoffee_ie", "addr:full": "C/O JJ O'Driscolls Ballinlough Road, Cork, Co. Cork", "addr:country": "IE", "name": "JJ O'DRISCOLL", "opening_hours": "24/7", "brand": "Costa Express", "brand:wikidata": "Q608845", "nsi_id": "costaexpress-37500c"}, "geometry": {"type": "Point", "coordinates": [-8.46441, 51.89553]}},
{"type": "Feature", "id": "3fMGuk6oNR9u-8UED4hRisa7bmI=", "properties": {"ref": "3482350754", "amenity": "vending_machine", "vending": "coffee", "@spider": "costacoffee_ie", "addr:full": "Kilkenny Road, Carlow, Co. Carlow", "addr:country": "IE", "name": "MUNELLYS GALA CARLOW", "opening_hours": "24/7", "brand": "Costa Express", "brand:wikidata": "Q608845", "nsi_id": "costaexpress-37500c"}, "geometry": {"type": "Point", "coordinates": [-6.95354, 52.81349]}},
{"type": "Feature", "id": "uNbATA7nLjnmnvhVxWc-7gLWHME=", "properties": {"ref": "1184158517", "amenity": "vending_machine", "vending": "coffee", "@spider": "costacoffee_ie", "addr:full": "177 Moneynick Road, Toome, Co. Antrim", "addr:country": "IE", "name": "MONEYNICK SS", "opening_hours": "24/7", "brand": "Costa Express", "brand:wikidata": "Q608845", "nsi_id": "costaexpress-37500c"}, "geometry": {"type": "Point", "coordinates": [-6.45443, 54.75023]}},
{"type": "Feature", "id": "Ji81V0NRYkNDWZ6gvR7hL_9BB_M=", "properties": {"ref": "1528733151", "amenity": "vending_machine", "vending": "coffee", "@spider": "costacoffee_ie", "addr:full": "210-218 Albertbridge Road Belfast BT54GV", "addr:country": "IE", "name": "RUSSELL'S ALBERTBRIDGE ROAD", "opening_hours": "24/7", "brand": "Costa Express", "brand:wikidata": "Q608845", "nsi_id": "costaexpress-37500c"}, "geometry": {"type": "Point", "coordinates": [-5.90012, 54.59596]}},
{"type": "Feature", "id": "R6-NWzBl2VxBuofbxLZpWbfMWSA=", "properties": {"ref": "3779393330", "amenity": "vending_machine", "vending": "coffee", "@spider": "costacoffee_ie", "addr:full": "58 Newry Road, Newry, Co. Down", "addr:country": "IE", "name": "NARROW WATER SS", "opening_hours": "24/7", "brand": "Costa Express", "brand:wikidata": "Q608845", "nsi_id": "costaexpress-37500c"}, "geometry": {"type": "Point", "coordinates": [-6.27243, 54.10757]}},
{"type": "Feature", "id": "pzWt7UuamRF8UlXnG8Ur4Fj3TwQ=", "properties": {"ref": "3538613214", "amenity": "vending_machine", "vending": "coffee", "@spider": "costacoffee_ie", "addr:full": "32 Main Street, Camlough, Newry, Co. Down ", "addr:country": "IE", "name": "NISA EXTRA CAMLOUGH", "opening_hours": "24/7", "brand": "Costa Express", "brand:wikidata": "Q608845", "nsi_id": "costaexpress-37500c"}, "geometry": {"type": "Point", "coordinates": [-6.41093, 54.18014]}},
{"type": "Feature", "id": "e-xZe9OhVgDA0nhBVkUV0v7ce2I=", "properties": {"ref": "4000555802", "amenity": "vending_machine", "vending": "coffee", "@spider": "costacoffee_ie", "addr:full": "Corner House - Bridge Street, Westport, Co.Mayo", "addr:country": "IE", "name": "MCGREEVEYS WESTPORT", "opening_hours": "24/7", "brand": "Costa Express", "brand:wikidata": "Q608845", "nsi_id": "costaexpress-37500c"}, "geometry": {"type": "Point", "coordinates": [-9.5221, 53.79971]}},
{"type": "Feature", "id": "3LyY87RgpzRpM_Be977WbntHC_4=", "properties": {"ref": "101430847", "amenity": "vending_machine", "vending": "coffee", "@spider": "costacoffee_ie", "addr:full": "Main Street, Emyvale, Aughnacloy", "addr:country": "IE", "name": "McANENLEYS TOPAZ", "opening_hours": "24/7", "brand": "Costa Express", "brand:wikidata": "Q608845", "nsi_id": "costaexpress-37500c"}, "geometry": {"type": "Point", "coordinates": [-6.93009, 54.4362]}},
{"type": "Feature", "id": "QVAhtmeGMJku3UsFQWSHLfriJTc=", "properties": {"ref": "542764431", "amenity": "vending_machine", "vending": "coffee", "@spider": "costacoffee_ie", "addr:full": "15 Upper Road Greenisland BT388RH", "addr:country": "IE", "name": "RUSSELL'S GREENISLAND", "opening_hours": "24/7", "brand": "Costa Express", "brand:wikidata": "Q608845", "nsi_id": "costaexpress-37500c"}, "geometry": {"type": "Point", "coordinates": [-5.86968, 54.70543]}},
{"type": "Feature", "id": "4d8fgEBxlQoxbhuqSaTsMF1g7ro=", "properties": {"ref": "1013503423", "amenity": "vending_machine", "vending": "coffee", "@spider": "costacoffee_ie", "addr:full": "Barna Road, Silver Strand, Galway, Co. Galway", "addr:country": "IE", "name": "SILVER STRAND GALWAY", "opening_hours": "24/7", "brand": "Costa Express", "brand:wikidata": "Q608845", "nsi_id": "costaexpress-37500c"}, "geometry": {"type": "Point", "coordinates": [-9.15057, 53.31003]}},
{"type": "Feature", "id": "bxcHbSm9ZPIQsN2HLjWivguzt8U=", "properties": {"ref": "1649493861", "amenity": "vending_machine", "vending": "coffee", "@spider": "costacoffee_ie", "addr:full": "O'Brian Street, Kanturk, Co.Cork", "addr:country": "IE", "name": "SPAR KANTURK", "opening_hours": "24/7", "brand": "Costa Express", "brand:wikidata": "Q608845", "nsi_id": "costaexpress-37500c"}, "geometry": {"type": "Point", "coordinates": [-8.907482, 52.17879]}},
{"type": "Feature", "id": "dzDv1exDXJfdxNYoO_gtxtu4vIA=", "properties": {"ref": "1250467733", "amenity": "vending_machine", "vending": "coffee", "@spider": "costacoffee_ie", "addr:full": "Rakeelan, Ballyconnell, Co. Cavan ", "addr:country": "IE", "name": "SMITH'S GALA BALLYCONNELL", "opening_hours": "24/7", "brand": "Costa Express", "brand:wikidata": "Q608845", "nsi_id": "costaexpress-37500c"}, "geometry": {"type": "Point", "coordinates": [-7.57387, 54.12684]}},
{"type": "Feature", "id": "F7kCWxBXbxB4XzSLI31lGbvRZJQ=", "properties": {"ref": "1078420009", "amenity": "vending_machine", "vending": "coffee", "@spider": "costacoffee_ie", "addr:full": "Green Street, Callan, Co. Kilkenny", "addr:country": "IE", "name": "SUPERVALU CALLAN", "opening_hours": "24/7", "brand": "Costa Express", "brand:wikidata": "Q608845", "nsi_id": "costaexpress-37500c"}, "geometry": {"type": "Point", "coordinates": [-7.39095, 52.54325]}},
{"type": "Feature", "id": "eyJxZf5BviLbCmbFgzwbpzZutCU=", "properties": {"ref": "2989559872", "amenity": "vending_machine", "vending": "coffee", "@spider": "costacoffee_ie", "addr:full": "Caheroyan Road, Athenry Co. Galway", "addr:country": "IE", "name": "JOYCE'S SS ATHENRY", "opening_hours": "24/7", "brand": "Costa Express", "brand:wikidata": "Q608845", "nsi_id": "costaexpress-37500c"}, "geometry": {"type": "Point", "coordinates": [-8.74249, 53.30363]}},
{"type": "Feature", "id": "h_IT27tIG4m7eyDUgO9KGQZl3zE=", "properties": {"ref": "2876766073", "amenity": "vending_machine", "vending": "coffee", "@spider": "costacoffee_ie", "addr:full": "Hollyhill Shopping Centre, Hollyhill, Co.Cork", "addr:country": "IE", "name": "SUPERVALU HOLLYHILL", "opening_hours": "24/7", "brand": "Costa Express", "brand:wikidata": "Q608845", "nsi_id": "costaexpress-37500c"}, "geometry": {"type": "Point", "coordinates": [-8.47011, 51.91482]}},
{"type": "Feature", "id": "wnUc5qbTo1rm7T1M9SB2uzR6_CI=", "properties": {"ref": "2134907180", "amenity": "vending_machine", "vending": "coffee", "@spider": "costacoffee_ie", "addr:full": "Kilcullen Road, Naas, Co. Kildare", "addr:country": "IE", "name": "MAXOL BARRONBROOK", "opening_hours": "24/7", "brand": "Costa Express", "brand:wikidata": "Q608845", "nsi_id": "costaexpress-37500c"}, "geometry": {"type": "Point", "coordinates": [-6.66644, 53.20754]}},
{"type": "Feature", "id": "fXRa1p4vVKZkF2ft5k8FUuQ6f6A=", "properties": {"ref": "1029922871", "amenity": "vending_machine", "vending": "coffee", "@spider": "costacoffee_ie", "addr:full": "Main Street, Dungloe, Co. Donegal", "addr:country": "IE", "name": "THE COPE DUNGLOE", "opening_hours": "24/7", "brand": "Costa Express", "brand:wikidata": "Q608845", "nsi_id": "costaexpress-37500c"}, "geometry": {"type": "Point", "coordinates": [-8.36014, 54.9489]}},
{"type": "Feature", "id": "uApdDE7wlL_JNZRK8E_cXmOxC8Q=", "properties": {"ref": "3211975745", "amenity": "vending_machine", "vending": "coffee", "@spider": "costacoffee_ie", "addr:full": "The Arlington Centre, Link Rd, Portarlington, Co. Laois", "addr:country": "IE", "name": "SUPERVALU PORTARLINGTON", "opening_hours": "24/7", "brand": "Costa Express", "brand:wikidata": "Q608845", "nsi_id": "costaexpress-37500c"}, "geometry": {"type": "Point", "coordinates": [-7.18802, 53.16041]}},
{"type": "Feature", "id": "oU-Mj1rWxxdX1BpFou4mof-xdF8=", "properties": {"ref": "238983802", "amenity": "vending_machine", "vending": "coffee", "@spider": "costacoffee_ie", "addr:full": "Monaghan Road, Castleblayney, Co. Monaghan", "addr:country": "IE", "name": "TODAY'S CASTLEBLAYNEY", "opening_hours": "24/7", "brand": "Costa Express", "brand:wikidata": "Q608845", "nsi_id": "costaexpress-37500c"}, "geometry": {"type": "Point", "coordinates": [-6.7465, 54.12375]}},
{"type": "Feature", "id": "8A-N-sIuYtbghTICdVOOjU53S1I=", "properties": {"ref": "920304969", "amenity": "vending_machine", "vending": "coffee", "@spider": "costacoffee_ie", "addr:full": "Go Service Station, Newry Road, Dundalk, Co. Louth", "addr:country": "IE", "name": "TODAY'S DUNDALK", "opening_hours": "24/7", "brand": "Costa Express", "brand:wikidata": "Q608845", "nsi_id": "costaexpress-37500c"}, "geometry": {"type": "Point", "coordinates": [-6.40005, 54.01512]}},
{"type": "Feature", "id": "hCZWmvLrSv8Wp_OWRsqXfqdJf1A=", "properties": {"ref": "3315534850", "amenity": "cafe", "cuisine": "coffee_shop", "@spider": "costacoffee_ie", "vending": "coffee", "addr:full": "Costa Coffee, Unit 38\\39, Abbey Centre, Longwood rd, Newton Abbey, BT37 9UL", "addr:country": "IE", "name": "COSTA COFFEE - ABBEY", "opening_hours": "Mo-Fr 07:30-21:00; Sa 07:30-18:00; Su 12:00-18:00", "brand": "Costa Coffee", "brand:wikidata": "Q608845", "nsi_id": "costaexpress-37500c"}, "geometry": {"type": "Point", "coordinates": [-5.920448, 54.6558257]}},
{"type": "Feature", "id": "YmJkVVJ9GF0P_gtr_ER45nipcpk=", "properties": {"ref": "618203018", "amenity": "cafe", "cuisine": "coffee_shop", "@spider": "costacoffee_ie", "vending": "coffee", "addr:full": "Costa Coffee, Airton Road Retail Park, Off Airton Road, Tallaght, Dublin 24, D24 ND7T", "addr:country": "IE", "name": "COSTA COFFEE - AIRTON ROAD RETAIL PARK", "opening_hours": "Mo-Fr 08:00-17:00; Sa 09:00-18:00; Su 10:00-18:00", "brand": "Costa Coffee", "brand:wikidata": "Q608845", "nsi_id": "costaexpress-37500c"}, "geometry": {"type": "Point", "coordinates": [-6.35725, 53.29388]}},
{"type": "Feature", "id": "e8tPyJrw_QbVtFNp75sIHtWafLE=", "properties": {"ref": "788396702", "amenity": "cafe", "cuisine": "coffee_shop", "@spider": "costacoffee_ie", "vending": "coffee", "addr:full": "Costa Coffee, Unit 24, Bridgewater Shopping Centre, Arklow, Y14 VR96", "addr:country": "IE", "name": "COSTA COFFEE - ARKLOW", "opening_hours": "Mo-Sa 09:00-18:00; Su 11:00-18:00", "brand": "Costa Coffee", "brand:wikidata": "Q608845", "nsi_id": "costaexpress-37500c"}, "geometry": {"type": "Point", "coordinates": [-6.159929, 52.7976935]}},
{"type": "Feature", "id": "A_c4C-cH75NVXpjaT37EEbeP48I=", "properties": {"ref": "1532898861", "amenity": "cafe", "cuisine": "coffee_shop", "@spider": "costacoffee_ie", "vending": "coffee", "addr:full": "Costa Coffee, Unit 71, Junction One Retail Park, Antrim, BT41 4LL", "addr:country": "IE", "name": "COSTA COFFEE - ANTRIM", "opening_hours": "Mo-Sa 08:00-18:00; Su 09:00-18:00", "brand": "Costa Coffee", "brand:wikidata": "Q608845", "nsi_id": "costaexpress-37500c"}, "geometry": {"type": "Point", "coordinates": [-6.231185, 54.729704]}},
{"type": "Feature", "id": "Os2k0mvbUbURQjJt2-BQYfPYWd8=", "properties": {"ref": "664992234", "amenity": "cafe", "cuisine": "coffee_shop", "@spider": "costacoffee_ie", "vending": "coffee", "addr:full": "Costa Coffee, Outer Ring Road, Farrenshoneen, Waterford, X91 X6XE", "addr:country": "IE", "name": "COSTA COFFEE - ARDKEEN", "opening_hours": "Mo-Sa 08:00-18:00; Su 10:00-18:00", "brand": "Costa Coffee", "brand:wikidata": "Q608845", "nsi_id": "costaexpress-37500c"}, "geometry": {"type": "Point", "coordinates": [-7.084909, 52.243287]}},
{"type": "Feature", "id": "-0meRcIVsc9bBODyb8I7oza28hA=", "properties": {"ref": "2299434088", "amenity": "cafe", "cuisine": "coffee_shop", "@spider": "costacoffee_ie", "vending": "coffee", "addr:full": "Costa Coffee, Unit 9, Spires Retail Park, Moy Road, Armagh, Co. Armagh, BT61 8DB", "addr:country": "IE", "name": "COSTA COFFEE - ARMAGH", "opening_hours": "Mo-We 08:00-19:00; Th-Fr 08:00-20:00; Sa 08:00-18:00; Su 10:00-18:00", "brand": "Costa Coffee", "brand:wikidata": "Q608845", "nsi_id": "costaexpress-37500c"}, "geometry": {"type": "Point", "coordinates": [54.36441, 54.3644104]}},
{"type": "Feature", "id": "1pPB2_F93njW_0wsjcUmxRGOwrs=", "properties": {"ref": "2851071817", "amenity": "cafe", "cuisine": "coffee_shop", "@spider": "costacoffee_ie", "vending": "coffee", "addr:full": "Costa Coffee, Units 13 - 16 Redmonds Hill, Aungier Street, Dublin 2, Co. Dublin, D02 RP46", "addr:country": "IE", "name": "COSTA COFFEE - AUNGIER STREET", "opening_hours": "24/7", "brand": "Costa Coffee", "brand:wikidata": "Q608845", "nsi_id": "costaexpress-37500c"}, "geometry": {"type": "Point", "coordinates": [-6.266283, 53.338094]}},
{"type": "Feature", "id": "k1o4UvWE5vQGMbWYeMxjPfDitK0=", "properties": {"ref": "4057260872", "amenity": "cafe", "cuisine": "coffee_shop", "@spider": "costacoffee_ie", "vending": "coffee", "addr:full": "Costa Coffee, Units 17A+B, Millfield Shopping Centre, Naul Road, Balbriggan, Co. Dublin, K32 K244", "addr:country": "IE", "name": "COSTA COFFEE - BALBRIGGAN", "opening_hours": "Mo-Sa 09:00-18:00; Su 11:00-18:00", "brand": "Costa Coffee", "brand:wikidata": "Q608845", "nsi_id": "costaexpress-37500c"}, "geometry": {"type": "Point", "coordinates": [-6.19708, 53.60784]}},
{"type": "Feature", "id": "QlkZYzuJi0J81EETh1PpoubIA2E=", "properties": {"ref": "1085284819", "amenity": "cafe", "cuisine": "coffee_shop", "@spider": "costacoffee_ie", "vending": "coffee", "addr:full": "Costa Coffee, 40 Larne Link Road, Ballymena, Co. Antrim, BT42 3GA", "addr:country": "IE", "name": "COSTA COFFEE - BALLYMENA", "opening_hours": "Mo-Fr 08:00-21:00; Sa 08:00-18:00; Su 11:00-18:00", "brand": "Costa Coffee", "brand:wikidata": "Q608845", "nsi_id": "costaexpress-37500c"}, "geometry": {"type": "Point", "coordinates": [-6.271856, 54.8486986]}},
{"type": "Feature", "id": "fYK5jH6mAiJYNx0bUdXB55ks4Js=", "properties": {"ref": "1845452355", "amenity": "cafe", "cuisine": "coffee_shop", "@spider": "costacoffee_ie", "vending": "coffee", "addr:full": "Costa Coffee, Unit 4, East Side Centre, West Park, R608, Ballincollig, Co. Cork, P31 HF68", "addr:country": "IE", "name": "COSTA COFFEE - BALLINCOLLIG", "opening_hours": "Mo-Sa 08:00-18:00; Su 10:00-18:00", "brand": "Costa Coffee", "brand:wikidata": "Q608845", "nsi_id": "costaexpress-37500c"}, "geometry": {"type": "Point", "coordinates": [-8.24389, 53.41291]}},
{"type": "Feature", "id": "1FAnCNaoUQpgKqETuOFD6LJOu5w=", "properties": {"ref": "93028584", "amenity": "cafe", "cuisine": "coffee_shop", "@spider": "costacoffee_ie", "vending": "coffee", "addr:full": "Costa Coffee, Unit 2 , Springhill Retail Park, Killeen Avenue, Bangor, BT19 1ND", "addr:country": "IE", "name": "COSTA COFFEE - BANGOR SPRINGHILL", "opening_hours": "Mo-Tu 08:00-18:00; We-Th 08:00-19:00; Fr-Sa 08:00-18:00; Su 10:00-18:00", "brand": "Costa Coffee", "brand:wikidata": "Q608845", "nsi_id": "costaexpress-37500c"}, "geometry": {"type": "Point", "coordinates": [-5.698239, 54.654811]}},
{"type": "Feature", "id": "_M-KdWi8TCjItGrvO0qu4JmK5rg=", "properties": {"ref": "3709782619", "amenity": "cafe", "cuisine": "coffee_shop", "@spider": "costacoffee_ie", "vending": "coffee", "addr:full": "Costa Coffee, Unit 59, The Boulevard, Outlet Park, Banbridge, BT32 4GJ", "addr:country": "IE", "name": "COSTA COFFEE - BANBRIDGE ", "opening_hours": "Mo-We 08:30-18:00; Th-Fr 08:30-21:00; Sa 08:30-18:00; Su 12:00-18:00", "brand": "Costa Coffee", "brand:wikidata": "Q608845", "nsi_id": "costaexpress-37500c"}, "geometry": {"type": "Point", "coordinates": [-6.260049, 54.3518797]}},
{"type": "Feature", "id": "A38Cl1GR-tGftAVOf_TsAwc27uo=", "properties": {"ref": "3185814275", "amenity": "cafe", "cuisine": "coffee_shop", "@spider": "costacoffee_ie", "vending": "coffee", "addr:full": "Costa Coffee, Unit 19, Bloomfield Shopping Centre, South Circular Road, Bangor, BT19 7HB", "addr:country": "IE", "name": "COSTA COFFEE - BANGOR", "opening_hours": "Mo-We 09:00-18:00; Th-Fr 09:00-19:00; Sa 09:00-18:00; Su 13:00-18:00", "brand": "Costa Coffee", "brand:wikidata": "Q608845", "nsi_id": "costaexpress-37500c"}, "geometry": {"type": "Point", "coordinates": [-5.657236, 54.648571]}},
{"type": "Feature", "id": "GmOnP-NH71jMONvxEp7H9YegJlU=", "properties": {"ref": "3595552314", "amenity": "cafe", "cuisine": "coffee_shop", "@spider": "costacoffee_ie", "vending": "coffee", "addr:full": "Costa Coffee, Lidl Development, Cookstown Road, Tallaght, Dublin 24, D24 V2VW", "addr:country": "IE", "name": "COSTA COFFEE - BELGARD ROAD", "opening_hours": "24/7", "brand": "Costa Coffee", "brand:wikidata": "Q608845", "nsi_id": "costaexpress-37500c"}, "geometry": {"type": "Point", "coordinates": [-6.3808, 53.30106]}},
{"type": "Feature", "id": "3mYcyp4x-TsJiH0WMPqNQYqZvzI=", "properties": {"ref": "3512543928", "amenity": "cafe", "cuisine": "coffee_shop", "@spider": "costacoffee_ie", "vending": "coffee", "addr:full": "Costa Coffee, Bishopstown Road, Wilton, Cork, T12 RC81", "addr:country": "IE", "name": "COSTA COFFEE - BISHOPSTOWN", "opening_hours": "Mo-Sa 08:00-18:00; Su 10:00-18:00", "brand": "Costa Coffee", "brand:wikidata": "Q608845", "nsi_id": "costaexpress-37500c"}, "geometry": {"type": "Point", "coordinates": [-8.486316, 51.8968917]}},
{"type": "Feature", "id": "c8-HckvR45BC8Ra_ZSpjBonUuHs=", "properties": {"ref": "2002384108", "amenity": "cafe", "cuisine": "coffee_shop", "@spider": "costacoffee_ie", "vending": "coffee", "addr:full": "Costa Coffee, Blackpool Retail Park, Cork, T23 W744", "addr:country": "IE", "name": "COSTA COFFEE - BLACKPOOL", "opening_hours": "Mo-Fr 07:30-18:00; Sa 08:00-18:00; Su 09:30-18:00", "brand": "Costa Coffee", "brand:wikidata": "Q608845", "nsi_id": "costaexpress-37500c"}, "geometry": {"type": "Point", "coordinates": [-8.51809, 51.87912]}},
{"type": "Feature", "id": "MIhwS7Yi-uzBdPPCA2X5YEpoprE=", "properties": {"ref": "3152044183", "amenity": "cafe", "cuisine": "coffee_shop", "@spider": "costacoffee_ie", "vending": "coffee", "addr:full": "Costa Coffee, Westend Retail Park, Blanchardstown, Dublin, D15 EE04", "addr:country": "IE", "name": "COSTA COFFEE - BLANCHARDSTOWN", "opening_hours": "Mo-We 08:00-18:00; Th-Fr 08:00-19:00; Sa 08:00-18:00; Su 09:00-18:00", "brand": "Costa Coffee", "brand:wikidata": "Q608845", "nsi_id": "costaexpress-37500c"}, "geometry": {"type": "Point", "coordinates": [-6.38757, 53.39019]}},
{"type": "Feature", "id": "P6EUDbGxrL1QH147YKLTgOpJ1ac=", "properties": {"ref": "1472830642", "amenity": "cafe", "cuisine": "coffee_shop", "@spider": "costacoffee_ie", "vending": "coffee", "addr:full": "Costa Coffee, Unit E, Boucher Square, Belfast, BT12 6HT", "addr:country": "IE", "name": "COSTA COFFEE - BOUCHER SQUARE", "opening_hours": "Mo-We 08:00-18:00; Th 08:00-20:00; Fr-Sa 08:00-18:00; Su 11:00-18:00", "brand": "Costa Coffee", "brand:wikidata": "Q608845", "nsi_id": "costaexpress-37500c"}, "geometry": {"type": "Point", "coordinates": [-5.967628, 54.5771397]}},
{"type": "Feature", "id": "Y3hXuwU0BEB97tQDyQqPMgOMyFk=", "properties": {"ref": "2302270675", "amenity": "cafe", "cuisine": "coffee_shop", "@spider": "costacoffee_ie", "vending": "coffee", "addr:full": "Costa Coffee, Unit 3a, Fairgreen Shopping Centre, Carlow, R93 A9C6", "addr:country": "IE", "name": "COSTA COFFEE - CARLOW", "opening_hours": "Mo-Fr 09:00-17:30; Sa 09:00-18:00; Su 11:00-18:00", "brand": "Costa Coffee", "brand:wikidata": "Q608845", "nsi_id": "costaexpress-37500c"}, "geometry": {"type": "Point", "coordinates": [-6.924012, 52.8333072]}},
{"type": "Feature", "id": "fl2RZa2v-FLBb7GgfdgfEqMdOiQ=", "properties": {"ref": "3618648353", "amenity": "cafe", "cuisine": "coffee_shop", "@spider": "costacoffee_ie", "vending": "coffee", "addr:full": "Costa Coffee, North Inner Relief Road, Hanover Retail Park, Carlow, County Carlow, R93 PA02", "addr:country": "IE", "name": "COSTA COFFEE - CARLOW RETAIL PARK", "opening_hours": "Mo-Sa 08:30-18:00; Su 10:30-18:00", "brand": "Costa Coffee", "brand:wikidata": "Q608845", "nsi_id": "costaexpress-37500c"}, "geometry": {"type": "Point", "coordinates": [-6.925678, 52.8325761]}},
{"type": "Feature", "id": "uKWtUctOZ3IH3UNtQ9T-Ekr4878=", "properties": {"ref": "236647132", "amenity": "cafe", "cuisine": "coffee_shop", "@spider": "costacoffee_ie", "vending": "coffee", "addr:full": "Costa Coffee, Castlecourt Shopping Centre, Royal Avenue, Belfast, BT1 1DD", "addr:country": "IE", "name": "COSTA COFFEE - CASTLECOURT", "opening_hours": "Mo-We 08:00-18:00; Th 08:00-21:00; Fr-Sa 08:00-18:00; Su 12:00-18:00", "brand": "Costa Coffee", "brand:wikidata": "Q608845", "nsi_id": "costaexpress-37500c"}, "geometry": {"type": "Point", "coordinates": [-5.933807, 54.6006101]}},
{"type": "Feature", "id": "Gv6h1U3CA8DcuGjrt452F_kNTBA=", "properties": {"ref": "1466144773", "amenity": "cafe", "cuisine": "coffee_shop", "@spider": "costacoffee_ie", "vending": "coffee", "addr:full": "Costa Coffee, Castlebar Retail and Business Park, Breaffy Road, Castlebar, Co. Mayo, F23 HF59", "addr:country": "IE", "name": "COSTA COFFEE - CASTLEBAR RP", "opening_hours": "Mo-We 08:00-18:00; Th-Fr 08:00-19:00; Sa 08:00-18:00; Su 10:00-18:00", "brand": "Costa Coffee", "brand:wikidata": "Q608845", "nsi_id": "costaexpress-37500c"}, "geometry": {"type": "Point", "coordinates": [-9.271882, 53.854514]}},
{"type": "Feature", "id": "l8clslb2bG-i-lhdrIlFOnOje78=", "properties": {"ref": "3218684046", "amenity": "cafe", "cuisine": "coffee_shop", "@spider": "costacoffee_ie", "vending": "coffee", "addr:full": "Costa Coffee, Unit 11, Donaghcumper, Celbridge, Co. Kildare, W23 TV7X", "addr:country": "IE", "name": "COSTA COFFEE - CELBRIDGE", "opening_hours": "Mo-We 07:00-18:00; Th-Fr 07:00-19:00; Sa 08:00-18:00; Su 09:00-18:00", "brand": "Costa Coffee", "brand:wikidata": "Q608845", "nsi_id": "costaexpress-37500c"}, "geometry": {"type": "Point", "coordinates": [-6.532088, 53.338623]}},
{"type": "Feature", "id": "fu31hFF7YNyU4w1Z6Lw8SgD51jc=", "properties": {"ref": "1813339065", "amenity": "cafe", "cuisine": "coffee_shop", "@spider": "costacoffee_ie", "vending": "coffee", "addr:full": "Costa Coffee, 18 - 22 Castle Place, Belfast, BT1 1GB", "addr:country": "IE", "name": "COSTA COFFEE - CASTLE PLACE", "opening_hours": "Mo-We 08:00-18:00; Th 08:00-20:00; Fr-Sa 08:00-18:00; Su 11:00-18:00", "brand": "Costa Coffee", "brand:wikidata": "Q608845", "nsi_id": "costaexpress-37500c"}, "geometry": {"type": "Point", "coordinates": [-5.930372, 54.5990178]}},
{"type": "Feature", "id": "hNzIk_WZXoa2cnNivnc9OJ07Cq8=", "properties": {"ref": "2604447817", "amenity": "cafe", "cuisine": "coffee_shop", "@spider": "costacoffee_ie", "vending": "coffee", "addr:full": "Costa Coffee, Lakelands Retail Park, Dublin Road, Cavan, Co. Cavan, H12 FW70", "addr:country": "IE", "name": "COSTA COFFEE - CAVAN", "opening_hours": "Mo-We 08:00-18:00; Th-Fr 08:00-19:00; Sa 08:00-18:00; Su 09:00-18:00", "brand": "Costa Coffee", "brand:wikidata": "Q608845", "nsi_id": "costaexpress-37500c"}, "geometry": {"type": "Point", "coordinates": [-7.34247, 53.9834]}},
{"type": "Feature", "id": "Ly424RahHLQmewNwZoygtIqGVhE=", "properties": {"ref": "3635829699", "amenity": "cafe", "cuisine": "coffee_shop", "@spider": "costacoffee_ie", "vending": "coffee", "addr:full": "Costa Coffee, Mount Agnes Road, Churchfield, Cork, T23 HD53", "addr:country": "IE", "name": "COSTA COFFEE - CHURCHFIELD LIDL CORK", "opening_hours": "24/7", "brand": "Costa Coffee", "brand:wikidata": "Q608845", "nsi_id": "costaexpress-37500c"}, "geometry": {"type": "Point", "coordinates": [-8.49084, 51.91097]}},
{"type": "Feature", "id": "KOJIn2z2aFrwkIyDAiCFivve5r0=", "properties": {"ref": "3522010963", "amenity": "cafe", "cuisine": "coffee_shop", "@spider": "costacoffee_ie", "vending": "coffee", "addr:full": "Costa Coffee, Clearwater Shopping Centre, Finglas Road Finglas, Dublin, D11 XY4E", "addr:country": "IE", "name": "COSTA COFFEE - CLEARWATER", "opening_hours": "Mo-We 08:00-17:00; Th-Fr 08:00-18:00; Sa 08:00-17:00; Su 10:00-17:00", "brand": "Costa Coffee", "brand:wikidata": "Q608845", "nsi_id": "costaexpress-37500c"}, "geometry": {"type": "Point", "coordinates": [-6.293288, 53.383444]}},
{"type": "Feature", "id": "p86iKu5Almr53FHpZiaKettVnUE=", "properties": {"ref": "95307400", "amenity": "cafe", "cuisine": "coffee_shop", "@spider": "costacoffee_ie", "vending": "coffee", "addr:full": "Costa Coffee, Unit 9, Cityside, Yorkgate, Belfast, BT15 1JH", "addr:country": "IE", "name": "COSTA COFFEE - CITYSIDE", "opening_hours": "Mo-Fr 08:00-21:00; Sa 08:00-20:00; Su 10:00-18:00", "brand": "Costa Coffee", "brand:wikidata": "Q608845", "nsi_id": "costaexpress-37500c"}, "geometry": {"type": "Point", "coordinates": [-5.925628, 54.6096041]}},
{"type": "Feature", "id": "BrX4GCOw5QTwTMYTqP0blfCvmXM=", "properties": {"ref": "3487436548", "amenity": "cafe", "cuisine": "coffee_shop", "@spider": "costacoffee_ie", "vending": "coffee", "addr:full": "Costa Coffee, Unit 7, Citywest Shopping Centre, Dublin, D24 X304", "addr:country": "IE", "name": "COSTA COFFEE - CITYWEST", "opening_hours": "Mo-Fr 08:00-17:00; Sa 09:00-18:00; Su 10:00-17:30", "brand": "Costa Coffee", "brand:wikidata": "Q608845", "nsi_id": "costaexpress-37500c"}, "geometry": {"type": "Point", "coordinates": [-6.425177, 53.282511]}},
{"type": "Feature", "id": "jkxlY4C0j5scc7A3Fot7z8TTmkg=", "properties": {"ref": "3688310003", "amenity": "cafe", "cuisine": "coffee_shop", "@spider": "costacoffee_ie", "vending": "coffee", "addr:full": "Costa Coffee, Unit 14, Poppyfield Retail Park, Cahir Road, Clonmel, Co. Tipperary, E91 P6N2", "addr:country": "IE", "name": "COSTA COFFEE - CLONMEL", "opening_hours": "Mo-Sa 08:00-18:00; Su 09:00-18:00", "brand": "Costa Coffee", "brand:wikidata": "Q608845", "nsi_id": "costaexpress-37500c"}, "geometry": {"type": "Point", "coordinates": [-7.736223, 52.3563]}},
{"type": "Feature", "id": "0NXwgPwq_6lIrH7ZFe6W1XOlLps=", "properties": {"ref": "1677500089", "amenity": "cafe", "cuisine": "coffee_shop", "@spider": "costacoffee_ie", "vending": "coffee", "addr:full": "Costa Coffee, Units 3 + 4, Showgrounds Shopping Centre, Davis Road, Raheen, Co. Tipperary, E91 VH34", "addr:country": "IE", "name": "COSTA COFFEE - CLONMEL SHOWGROUNDS", "opening_hours": "Mo-We 08:00-18:00; Th-Fr 08:00-18:30; Sa 08:00-18:00; Su 10:00-18:00", "brand": "Costa Coffee", "brand:wikidata": "Q608845", "nsi_id": "costaexpress-37500c"}, "geometry": {"type": "Point", "coordinates": [-7.691396, 52.354756]}},
{"type": "Feature", "id": "6zOx5v0959inJuRqWVBSNQ43U58=", "properties": {"ref": "2888275218", "amenity": "cafe", "cuisine": "coffee_shop", "@spider": "costacoffee_ie", "vending": "coffee", "addr:full": "Costa Coffee, Castletroe Road, Riverside Retail Park, Coleraine BT51 3AW", "addr:country": "IE", "name": "COSTA COFFEE - COLERAINE", "opening_hours": "Mo-Fr 08:00-21:00; Sa 08:00-18:00; Su 10:00-18:00", "brand": "Costa Coffee", "brand:wikidata": "Q608845", "nsi_id": "costaexpress-37500c"}, "geometry": {"type": "Point", "coordinates": [-6.679141, 55.1191699]}},
{"type": "Feature", "id": "fEC6nxKN_4NZP8d9jX_Q43xPX9U=", "properties": {"ref": "2874561618", "amenity": "cafe", "cuisine": "coffee_shop", "@spider": "costacoffee_ie", "vending": "coffee", "addr:full": "Costa Coffee, Unit 2, Downe Retail Park, Ballydugan Road, Downpatrick, Co. Down, BT30 6DR", "addr:country": "IE", "name": "COSTA COFFEE - DOWNPATRICK", "opening_hours": "Mo-We 08:00-18:00; Th-Fr 08:00-19:00; Sa 08:00-18:00; Su 11:00-18:00", "brand": "Costa Coffee", "brand:wikidata": "Q608845", "nsi_id": "costaexpress-37500c"}, "geometry": {"type": "Point", "coordinates": [-5.72295, 54.32383]}},
{"type": "Feature", "id": "rX-S3zaQkmXvqAX6xw0fn7rFP1A=", "properties": {"ref": "4149420249", "amenity": "cafe", "cuisine": "coffee_shop", "@spider": "costacoffee_ie", "vending": "coffee", "addr:full": "Costa Coffee, Unit 14, Deer Park Retail Park, Killarney, County Kerry, V93 DFW9", "addr:country": "IE", "name": "COSTA COFFEE - DEERPARK", "opening_hours": "Mo-We 08:30-18:00; Th-Fr 08:30-18:30; Sa 09:00-18:30; Su 10:00-18:00", "brand": "Costa Coffee", "brand:wikidata": "Q608845", "nsi_id": "costaexpress-37500c"}, "geometry": {"type": "Point", "coordinates": [-9.511002, 52.0598845]}},
{"type": "Feature", "id": "jmXQScakVhXZD5JRc-1qYMNQs_g=", "properties": {"ref": "1380947538", "amenity": "cafe", "cuisine": "coffee_shop", "@spider": "costacoffee_ie", "vending": "coffee", "addr:full": "Costa Coffee, Drogheda Retail Park, Donore Road, Drogheda, A92 C891", "addr:country": "IE", "name": "COSTA COFFEE - DONORE RP", "opening_hours": "Mo-We 08:00-18:00; Th-Fr 08:00-19:00; Sa 08:00-18:00; Su 10:00-18:00", "brand": "Costa Coffee", "brand:wikidata": "Q608845", "nsi_id": "costaexpress-37500c"}, "geometry": {"type": "Point", "coordinates": [-6.372328, 53.699997]}},
{"type": "Feature", "id": "9oFTdrg7Bgrub9EwbmmJ6CFbM-Y=", "properties": {"ref": "3824566166", "amenity": "cafe", "cuisine": "coffee_shop", "@spider": "costacoffee_ie", "vending": "coffee", "addr:full": "Costa Coffee,Unit 27, Marshes Shopping Centre, Dundalk, County Louth, A91 PO27", "addr:country": "IE", "name": "COSTA COFFEE - DUNDALK", "opening_hours": "Mo-We 09:00-19:00; Th-Fr 09:00-19:30; Sa 09:00-19:00; Su 11:00-18:00", "brand": "Costa Coffee", "brand:wikidata": "Q608845", "nsi_id": "costaexpress-37500c"}, "geometry": {"type": "Point", "coordinates": [-6.38829, 53.98613]}},
{"type": "Feature", "id": "bSVT6XW24ETHyT2Kk36k4uh52pc=", "properties": {"ref": "2162994222", "amenity": "cafe", "cuisine": "coffee_shop", "@spider": "costacoffee_ie", "vending": "coffee", "addr:full": "Costa Coffee, Easons, The Pavillion, Dun Laoghaire, A96 C7P3", "addr:country": "IE", "name": "COSTA COFFEE - DUN LOAGHAIRE", "opening_hours": "24/7", "brand": "Costa Coffee", "brand:wikidata": "Q608845", "nsi_id": "costaexpress-37500c"}, "geometry": {"type": "Point", "coordinates": [-6.134666, 53.293248]}},
{"type": "Feature", "id": "qmkfn7unHMaLXl2RdQO1wIrhua4=", "properties": {"ref": "2791708608", "amenity": "cafe", "cuisine": "coffee_shop", "@spider": "costacoffee_ie", "vending": "coffee", "addr:full": "Costa Coffee, Unit 4, Fairways Retail Centre, Dublin Road, Dundalk, Co. Louth, A91 E6KC", "addr:country": "IE", "name": "COSTA COFFEE - DUNDALK FAIRWAYS", "opening_hours": "Mo-Sa 08:00-18:00; Su 09:30-18:00", "brand": "Costa Coffee", "brand:wikidata": "Q608845", "nsi_id": "costaexpress-37500c"}, "geometry": {"type": "Point", "coordinates": [-6.38776, 53.96688]}},
{"type": "Feature", "id": "vlotwqI1ywmoXfmZKA2thqpme4g=", "properties": {"ref": "1516526014", "amenity": "cafe", "cuisine": "coffee_shop", "@spider": "costacoffee_ie", "vending": "coffee", "addr:full": "Costa Coffee, Eastgate Retail Park, Little Island, Cork, T45 KX06", "addr:country": "IE", "name": "COSTA COFFEE - EASTGATE", "opening_hours": "Mo-Fr 07:30-18:00; Sa-Su 09:00-18:00", "brand": "Costa Coffee", "brand:wikidata": "Q608845", "nsi_id": "costaexpress-37500c"}, "geometry": {"type": "Point", "coordinates": [-8.357183, 51.9041673]}},
{"type": "Feature", "id": "nKug_6NlG--Zk48l8sgoFpRj1aA=", "properties": {"ref": "2229205622", "amenity": "cafe", "cuisine": "coffee_shop", "@spider": "costacoffee_ie", "vending": "coffee", "addr:full": "Costa Coffee, Unit 110, Drimnagh Retail Development, Drimnagh Road, Drimnagh, Dublin 12, D12 DH76", "addr:country": "IE", "name": "COSTA COFFEE - DRIMNAGH ROAD", "opening_hours": "Mo-Sa 08:00-18:00; Su 09:00-18:00", "brand": "Costa Coffee", "brand:wikidata": "Q608845", "nsi_id": "costaexpress-37500c"}, "geometry": {"type": "Point", "coordinates": [-6.323162, 53.3244713]}},
{"type": "Feature", "id": "bE2f-JVoBq72sc4EwnN9gQwz7eA=", "properties": {"ref": "2340679293", "amenity": "cafe", "cuisine": "coffee_shop", "@spider": "costacoffee_ie", "vending": "coffee", "addr:full": "Costa Coffee, Unit 3/26 Foodcourt, Dundrum Shopping Centre, Sandyford Road, Dublin, D16 E771", "addr:country": "IE", "name": "COSTA COFFEE - DUNDRUM", "opening_hours": "24/7", "brand": "Costa Coffee", "brand:wikidata": "Q608845", "nsi_id": "costaexpress-37500c"}, "geometry": {"type": "Point", "coordinates": [-6.244958, 53.2912746]}},
{"type": "Feature", "id": "q7pF9zutjLLMS5owoRFTRkusz6w=", "properties": {"ref": "1165271047", "amenity": "cafe", "cuisine": "coffee_shop", "@spider": "costacoffee_ie", "vending": "coffee", "addr:full": "Costa Coffee, Oaks Centre, Oaks Road, Dungannon, BT71 4AR", "addr:country": "IE", "name": "COSTA COFFEE - DUNGANNON", "opening_hours": "Mo-We 08:00-18:00; Th-Fr 08:00-20:00; Sa 08:00-18:00; Su 11:00-18:00", "brand": "Costa Coffee", "brand:wikidata": "Q608845", "nsi_id": "costaexpress-37500c"}, "geometry": {"type": "Point", "coordinates": [-6.76476, 54.51178]}},
{"type": "Feature", "id": "wt2_CYQmxKObXnE34yai43Iwa4Y=", "properties": {"ref": "369961326", "amenity": "cafe", "cuisine": "coffee_shop", "@spider": "costacoffee_ie", "vending": "coffee", "addr:full": "Costa Coffee, Unit 121, Eyre Square Shopping Centre, Eyre Square, Galway, Co. Galway, H91 XN79", "addr:country": "IE", "name": "COSTA COFFEE - EYRE SQUARE", "opening_hours": "Mo-Sa 09:00-17:30; Su 10:30-17:30", "brand": "Costa Coffee", "brand:wikidata": "Q608845", "nsi_id": "costaexpress-37500c"}, "geometry": {"type": "Point", "coordinates": [-9.052, 53.2731076]}},
{"type": "Feature", "id": "m5uEXx0ZtfDS_dokH1DzNN401fw=", "properties": {"ref": "2386474131", "amenity": "cafe", "cuisine": "coffee_shop", "@spider": "costacoffee_ie", "vending": "coffee", "addr:full": "Costa Coffee,\u00a0Hughes and Hughes Bookshop, Bank Place, Ennis, County Clare,\u00a0V95 P48D", "addr:country": "IE", "name": "COSTA COFFEE - ENNIS", "opening_hours": "Mo-Sa 08:30-17:00; Su 11:00-17:00", "brand": "Costa Coffee", "brand:wikidata": "Q608845", "nsi_id": "costaexpress-37500c"}, "geometry": {"type": "Point", "coordinates": [-8.988738, 52.8474255]}},
{"type": "Feature", "id": "6LUL-pqN39UnUhpe7M-qhAAMYJk=", "properties": {"ref": "2243117710", "amenity": "cafe", "cuisine": "coffee_shop", "@spider": "costacoffee_ie", "vending": "coffee", "addr:full": "Costa Coffee, Unit N, Erneside Shopping Centre, Enniskillen, BT74 6JQ", "addr:country": "IE", "name": "COSTA COFFEE - ENNISKILLEN", "opening_hours": "Mo-We 09:00-18:00; Th-Fr 09:00-20:00; Sa 09:00-18:00; Su 13:00-18:00", "brand": "Costa Coffee", "brand:wikidata": "Q608845", "nsi_id": "costaexpress-37500c"}, "geometry": {"type": "Point", "coordinates": [-7.638264, 54.3417195]}},
{"type": "Feature", "id": "K8_plLMd2F4JwK5qK2ba4uSNSek=", "properties": {"ref": "1535090677", "amenity": "cafe", "cuisine": "coffee_shop", "@spider": "costacoffee_ie", "vending": "coffee", "addr:full": "Costa Coffee, 5/6 Emmett Place, Cork, T12 W923", "addr:country": "IE", "name": "COSTA COFFEE - EMMETT PLACE", "opening_hours": "Mo-We 08:00-18:00; Th-Sa 08:00-19:00; Su 09:30-18:30", "brand": "Costa Coffee", "brand:wikidata": "Q608845", "nsi_id": "costaexpress-37500c"}, "geometry": {"type": "Point", "coordinates": [-8.472572, 51.899664]}},
{"type": "Feature", "id": "k82XoPc_hzGglpZV_IXl6dU8KjA=", "properties": {"ref": "1838929464", "amenity": "cafe", "cuisine": "coffee_shop", "@spider": "costacoffee_ie", "vending": "coffee", "addr:full": "Costa Coffee, Unit k1, Foyleside Shopping Centre, level 2, Orchard Street, Derry BT48 6XY", "addr:country": "IE", "name": "COSTA COFFEE - FOYLESIDE", "opening_hours": "Mo-Sa 08:00-18:00; Su 12:00-18:00", "brand": "Costa Coffee", "brand:wikidata": "Q608845", "nsi_id": "costaexpress-37500c"}, "geometry": {"type": "Point", "coordinates": [-7.319485, 54.9941713]}},
{"type": "Feature", "id": "Gl3zxbzqdyKpqOSDeqUQ3-fhQgA=", "properties": {"ref": "3343025098", "amenity": "cafe", "cuisine": "coffee_shop", "@spider": "costacoffee_ie", "vending": "coffee", "addr:full": "Costa Coffee, 22 - 24 Quays St., Galway, H91 NF86", "addr:country": "IE", "name": "COSTA COFFEE - GALWAY", "opening_hours": "24/7", "brand": "Costa Coffee", "brand:wikidata": "Q608845", "nsi_id": "costaexpress-37500c"}, "geometry": {"type": "Point", "coordinates": [-9.054379, 53.270824]}},
{"type": "Feature", "id": "5SSihyF2DiUBoPSUgcQaDl_iBL4=", "properties": {"ref": "2762156860", "amenity": "cafe", "cuisine": "coffee_shop", "@spider": "costacoffee_ie", "vending": "coffee", "addr:full": "Costa Coffee, Tesco, Ramsgate, Gorey, Wexford, Y25 K5P1", "addr:country": "IE", "name": "COSTA COFFEE - GOREY", "opening_hours": "Mo-Sa 09:00-17:00; Su 10:00-17:00", "brand": "Costa Coffee", "brand:wikidata": "Q608845", "nsi_id": "costaexpress-37500c"}, "geometry": {"type": "Point", "coordinates": [-6.302643, 52.6726569]}},
{"type": "Feature", "id": "EwRc4bC-6ifzFIRo3Bz64CZsyl4=", "properties": {"ref": "2129464472", "amenity": "cafe", "cuisine": "coffee_shop", "@spider": "costacoffee_ie", "vending": "coffee", "addr:full": "Costa Coffee, The Mill Business Park, Millands, Courtown Road, Gorey, Co. Wexford, Y25 T8Y6", "addr:country": "IE", "name": "COSTA COFFEE - GOREY ICELAND", "opening_hours": "Mo-We 08:00-17:30; Th 08:00-18:00; Fr 08:00-17:30; Sa 08:00-18:00; Su 10:00-18:00", "brand": "Costa Coffee", "brand:wikidata": "Q608845", "nsi_id": "costaexpress-37500c"}, "geometry": {"type": "Point", "coordinates": [-6.286218, 52.674791]}},
{"type": "Feature", "id": "ZBsfAd9FRxpziAPmPzpzBnqWsR8=", "properties": {"ref": "3969133884", "amenity": "cafe", "cuisine": "coffee_shop", "@spider": "costacoffee_ie", "vending": "coffee", "addr:full": "Costa Coffee, Units 14&15, Meridian Point Shopping Centre, Church Road, Greystones, Co. Wicklow, A63 R268", "addr:country": "IE", "name": "COSTA COFFEE - GREYSTONES", "opening_hours": "Mo-We 08:30-18:00; Th-Fr 08:30-19:00; Sa 09:00-18:00; Su 10:00-18:00", "brand": "Costa Coffee", "brand:wikidata": "Q608845", "nsi_id": "costaexpress-37500c"}, "geometry": {"type": "Point", "coordinates": [-6.066755, 53.146559]}},
{"type": "Feature", "id": "gKSluJpe9MGJvykV19WBDMWdbe4=", "properties": {"ref": "863886372", "amenity": "cafe", "cuisine": "coffee_shop", "@spider": "costacoffee_ie", "vending": "coffee", "addr:full": "Costa Coffee,Unit A, Holywood Exchange Shopping Centre, 306 Airport Road West, Belfast, BT3 9EJ", "addr:country": "IE", "name": "COSTA COFFEE - HOLYWOOD EXCHANGE", "opening_hours": "Mo-We 08:00-18:00; Th-Fr 08:00-19:00; Sa 09:00-18:00; Su 10:00-18:00", "brand": "Costa Coffee", "brand:wikidata": "Q608845", "nsi_id": "costaexpress-37500c"}, "geometry": {"type": "Point", "coordinates": [-5.859231, 54.6263908]}},
{"type": "Feature", "id": "kKZIYROpppqur2UuHVbWIvpz9O0=", "properties": {"ref": "387322876", "amenity": "cafe", "cuisine": "coffee_shop", "@spider": "costacoffee_ie", "vending": "coffee", "addr:full": "Costa Coffee, Unit 53/54, Kennedy Centre, 564-568 Falls Road, Belfast, BT11 9AE", "addr:country": "IE", "name": "COSTA COFFEE - KENNEDY CENTRE", "opening_hours": "Mo-We 08:00-18:00; Th-Fr 08:00-20:00; Sa 08:00-18:00; Su 12:00-18:00", "brand": "Costa Coffee", "brand:wikidata": "Q608845", "nsi_id": "costaexpress-37500c"}, "geometry": {"type": "Point", "coordinates": [-5.977915, 54.5805374]}},
{"type": "Feature", "id": "_f6gIODkpsh1yO2PPXCUmm4KGKI=", "properties": {"ref": "1449353047", "amenity": "cafe", "cuisine": "coffee_shop", "@spider": "costacoffee_ie", "vending": "coffee", "addr:full": "Costa Coffee, Unit 3, Tesco, Kildare Town, R51 K339", "addr:country": "IE", "name": "COSTA COFFEE - KILDARE", "opening_hours": "Mo-Fr 08:00-18:00; Sa 08:30-18:00; Su 10:30-17:00", "brand": "Costa Coffee", "brand:wikidata": "Q608845", "nsi_id": "costaexpress-37500c"}, "geometry": {"type": "Point", "coordinates": [-6.917439, 53.157978]}},
{"type": "Feature", "id": "8kK6sZr4E1BxJuVAYXS0oxHK7Hs=", "properties": {"ref": "2209343173", "amenity": "cafe", "cuisine": "coffee_shop", "@spider": "costacoffee_ie", "vending": "coffee", "addr:full": "Costa Coffee, The Square, Kilcock, Co. Kildare, W23 X229", "addr:country": "IE", "name": "COSTA COFFEE - KILCOCK", "opening_hours": "Mo-Th 08:00-18:00; Fr 09:00-18:00; Sa-Su 18:00-18:00", "brand": "Costa Coffee", "brand:wikidata": "Q608845", "nsi_id": "costaexpress-37500c"}, "geometry": {"type": "Point", "coordinates": [-6.665606, 53.400809]}},
{"type": "Feature", "id": "5Ki5JSuWsdzkoTw0j13ypVNAFYU=", "properties": {"ref": "3312416108", "amenity": "cafe", "cuisine": "coffee_shop", "@spider": "costacoffee_ie", "vending": "coffee", "addr:full": "Costa Coffee, Unit 35, Killarney Outlet Centre, Killarney, County Kerry, V93 HTW2", "addr:country": "IE", "name": "COSTA COFFEE - KILLARNEY", "opening_hours": "Mo-Sa 09:30-18:00; Su 11:30-18:00", "brand": "Costa Coffee", "brand:wikidata": "Q608845", "nsi_id": "costaexpress-37500c"}, "geometry": {"type": "Point", "coordinates": [-9.50304, 52.0596398]}},
{"type": "Feature", "id": "jQ3zan-1V5GPX_akY7vPPwYFWbk=", "properties": {"ref": "966526604", "amenity": "cafe", "cuisine": "coffee_shop", "@spider": "costacoffee_ie", "vending": "coffee", "addr:full": "Costa Coffee, Turner's Cross, Kinsale Road, Ballyphelane, Cork, Co. Cork, T12 EY2W", "addr:country": "IE", "name": "COSTA COFFEE - KINSALE ROAD, CORK", "opening_hours": "Mo-Sa 08:00-18:00; Su 10:00-18:00", "brand": "Costa Coffee", "brand:wikidata": "Q608845", "nsi_id": "costaexpress-37500c"}, "geometry": {"type": "Point", "coordinates": [-8.46893, 51.87998]}},
{"type": "Feature", "id": "lqGp0djx3ntiTlItgW6eHVI4OX8=", "properties": {"ref": "3735080771", "amenity": "cafe", "cuisine": "coffee_shop", "@spider": "costacoffee_ie", "vending": "coffee", "addr:full": "Costa Coffee, 16 Old Naas Road, Inchicore, Dublin 12, D12 BX62", "addr:country": "IE", "name": "COSTA COFFEE - KYLEMORE", "opening_hours": "Mo-Fr 07:30-17:00; Sa 09:00-17:00; Su 10:00-17:00", "brand": "Costa Coffee", "brand:wikidata": "Q608845", "nsi_id": "costaexpress-37500c"}, "geometry": {"type": "Point", "coordinates": [-6.34445, 53.32865]}},
{"type": "Feature", "id": "jX0QurdxXoRJENgN2gOTqCcKOcc=", "properties": {"ref": "3981593351", "amenity": "cafe", "cuisine": "coffee_shop", "@spider": "costacoffee_ie", "vending": "coffee", "addr:full": "Costa Coffee, Unit 23, Bow Street Mall Shopping Centre, Lisburn, County Antrim, BT28 1AW", "addr:country": "IE", "name": "COSTA COFFEE - LISBURN", "opening_hours": "Mo-Tu 09:00-18:00; We 09:00-20:00; Th-Fr 09:00-19:00; Sa 09:00-18:00; Su 13:00-18:00", "brand": "Costa Coffee", "brand:wikidata": "Q608845", "nsi_id": "costaexpress-37500c"}, "geometry": {"type": "Point", "coordinates": [-6.05202, 54.5112995]}},
{"type": "Feature", "id": "GKc0aNFG0ZJdH5xSOxftFaHEJCY=", "properties": {"ref": "1362608706", "amenity": "cafe", "cuisine": "coffee_shop", "@spider": "costacoffee_ie", "vending": "coffee", "addr:full": "Costa Coffee, Phase 3, Letterkenny Retail Park, Letterkenny, F92 E303", "addr:country": "IE", "name": "COSTA COFFEE - LETTERKENNY", "opening_hours": "Mo-Fr 08:00-18:00; Sa 08:30-18:00; Su 10:00-18:00", "brand": "Costa Coffee", "brand:wikidata": "Q608845", "nsi_id": "costaexpress-37500c"}, "geometry": {"type": "Point", "coordinates": [-7.730341, 54.948231]}},
{"type": "Feature", "id": "3jq3qadeDOOReW8rdQkCTgByi3k=", "properties": {"ref": "4190748328", "amenity": "cafe", "cuisine": "coffee_shop", "@spider": "costacoffee_ie", "vending": "coffee", "addr:full": "Costa Coffee,\u00a0Unit 48 Liffey Valley Shopping Centre Fronthill Road Clondalkin, D22 AR23", "addr:country": "IE", "name": "COSTA COFFEE - LIFFEY VALLEY", "opening_hours": "Mo-Sa 09:00-18:00; Su 10:00-18:00", "brand": "Costa Coffee", "brand:wikidata": "Q608845", "nsi_id": "costaexpress-37500c"}, "geometry": {"type": "Point", "coordinates": [-6.391872, 53.3523734]}},
{"type": "Feature", "id": "CsG2jr3p8ORMWXiNiHNhPH2jV4A=", "properties": {"ref": "3142334723", "amenity": "cafe", "cuisine": "coffee_shop", "@spider": "costacoffee_ie", "vending": "coffee", "addr:full": "Costa Coffee, Units 10 + 11, Letterkenny Shopping Centre, Port Road, Gortlee, Letterkenny, F92 H526", "addr:country": "IE", "name": "COSTA COFFEE - LETTERKENNY SC", "opening_hours": "Mo-We 08:00-18:00; Th-Fr 08:00-21:00; Sa 08:00-18:00; Su 11:00-18:00", "brand": "Costa Coffee", "brand:wikidata": "Q608845", "nsi_id": "costaexpress-37500c"}, "geometry": {"type": "Point", "coordinates": [-7.72553, 54.95213]}},
{"type": "Feature", "id": "iypnaL4hW2yxsmsDkpByTO76kAE=", "properties": {"ref": "3715292931", "amenity": "cafe", "cuisine": "coffee_shop", "@spider": "costacoffee_ie", "vending": "coffee", "addr:full": "Costa Coffee, Unit 5, Lisburn Omniplex Site, Lisburn Leisure Park, Governers Road, Lisburn, BT28 1LP", "addr:country": "IE", "name": "COSTA COFFEE - LISBURN OMNIPLEX", "opening_hours": "Mo-We 08:00-18:00; Th-Fr 08:00-19:00; Sa 08:00-18:00; Su 12:00-18:00", "brand": "Costa Coffee", "brand:wikidata": "Q608845", "nsi_id": "costaexpress-37500c"}, "geometry": {"type": "Point", "coordinates": [-6.052135, 54.5064062]}},
{"type": "Feature", "id": "scR3RtPSHDsddZ34VkgV460qgws=", "properties": {"ref": "1760019924", "amenity": "cafe", "cuisine": "coffee_shop", "@spider": "costacoffee_ie", "vending": "coffee", "addr:full": "Costa Coffee, Units 23-25, Waterford Shopping Centre, Lisduggan, Waterford, X91 W70A", "addr:country": "IE", "name": "COSTA COFFEE - LISDUGGAN, WATERFORD", "opening_hours": "Mo-Sa 08:00-18:00; Su 12:00-18:00", "brand": "Costa Coffee", "brand:wikidata": "Q608845", "nsi_id": "costaexpress-37500c"}, "geometry": {"type": "Point", "coordinates": [-7.137273, 52.24994]}},
{"type": "Feature", "id": "22540XiBeZTYEmnJ0cHOGCgo3Qg=", "properties": {"ref": "2357691502", "amenity": "cafe", "cuisine": "coffee_shop", "@spider": "costacoffee_ie", "vending": "coffee", "addr:full": "Costa Coffee (New Coffee Pod), Longwood Retail Park, Longwood Road, Newtownabbey, Co. Antrim, BT37 9UF", "addr:country": "IE", "name": "COSTA COFFEE - LONGWOOD RP", "opening_hours": "Mo-Fr 07:30-21:00; Sa 08:00-19:00; Su 10:00-18:00", "brand": "Costa Coffee", "brand:wikidata": "Q608845", "nsi_id": "costaexpress-37500c"}, "geometry": {"type": "Point", "coordinates": [-5.918616, 54.6561908]}},
{"type": "Feature", "id": "44AXALWGS3xXAZzwtT7TAPhwoZc=", "properties": {"ref": "3200304675", "amenity": "cafe", "cuisine": "coffee_shop", "@spider": "costacoffee_ie", "vending": "coffee", "addr:full": "Costa Coffee, Meadow Lane Shopping Centre, Moneymore Road, Magherafelt, BT45 6PR", "addr:country": "IE", "name": "COSTA COFFEE - MAGHERAFELT", "opening_hours": "Mo-We 08:30-18:30; Th-Fr 08:30-20:30; Sa 08:30-18:00; Su 13:00-17:00", "brand": "Costa Coffee", "brand:wikidata": "Q608845", "nsi_id": "costaexpress-37500c"}, "geometry": {"type": "Point", "coordinates": [-6.601471, 54.7476398]}},
{"type": "Feature", "id": "7Q7Kg4qDzpbzQZL6Jp0LRdDHteo=", "properties": {"ref": "801011301", "amenity": "cafe", "cuisine": "coffee_shop", "@spider": "costacoffee_ie", "vending": "coffee", "addr:full": "Costa Coffee, Unit 4, Manor Mills Shopping Centre, Maynooth, Co. Kildare, W23 NW62", "addr:country": "IE", "name": "COSTA COFFEE - MAYNOOTH", "opening_hours": "Mo-We 08:00-18:30; Th-Fr 08:00-19:00; Sa 08:00-18:00; Su 10:00-18:00", "brand": "Costa Coffee", "brand:wikidata": "Q608845", "nsi_id": "costaexpress-37500c"}, "geometry": {"type": "Point", "coordinates": [-6.59305, 53.38161]}},
{"type": "Feature", "id": "1BS2gVP3TSpK5psbpTrUrUQ9u1Y=", "properties": {"ref": "2369169171", "amenity": "cafe", "cuisine": "coffee_shop", "@spider": "costacoffee_ie", "vending": "coffee", "addr:full": "Costa Coffee, Unit 2b + 2c, Fairgreen Shopping Centre, Grand Parade, Commons, Mullingar, Co. Westmeath, N91 X038", "addr:country": "IE", "name": "COSTA COFFEE - MULLINGAR", "opening_hours": "Mo-Sa 09:00-18:00; Su 10:00-18:00", "brand": "Costa Coffee", "brand:wikidata": "Q608845", "nsi_id": "costaexpress-37500c"}, "geometry": {"type": "Point", "coordinates": [-7.350125, 53.5246225]}},
{"type": "Feature", "id": "Z0JZGpEivIinv9R8Xl1OWIKZkAM=", "properties": {"ref": "750987371", "amenity": "cafe", "cuisine": "coffee_shop", "@spider": "costacoffee_ie", "vending": "coffee", "addr:full": "Costa Coffee, Units 18 - 20, Merchants Quay Shopping Centre, Cork, T12 PN50", "addr:country": "IE", "name": "COSTA COFFEE - MERCHANTS QUAY", "opening_hours": "Mo-Sa 08:00-18:00; Su 12:00-18:00", "brand": "Costa Coffee", "brand:wikidata": "Q608845", "nsi_id": "costaexpress-37500c"}, "geometry": {"type": "Point", "coordinates": [-8.469812, 51.899496]}},
{"type": "Feature", "id": "pg8aFB_FMTdIuCaFSCrtvI3Sw0c=", "properties": {"ref": "2277672182", "amenity": "cafe", "cuisine": "coffee_shop", "@spider": "costacoffee_ie", "vending": "coffee", "addr:full": "Costa Coffee, Unit 3, Whitewater Shopping Centre, Newbridge, County Kildare, W12 YH72", "addr:country": "IE", "name": "COSTA COFFEE - NEWBRIDGE", "opening_hours": "Mo-We 09:00-17:30; Th-Sa 09:00-18:00; Su 11:00-18:00", "brand": "Costa Coffee", "brand:wikidata": "Q608845", "nsi_id": "costaexpress-37500c"}, "geometry": {"type": "Point", "coordinates": [-6.797603, 53.1775953]}},
{"type": "Feature", "id": "mYzjV6sLY7xjeMYU_K_tIEz-3Gg=", "properties": {"ref": "2383755062", "amenity": "cafe", "cuisine": "coffee_shop", "@spider": "costacoffee_ie", "vending": "coffee", "addr:full": "Costa Coffee, Unit 8, Buttercrane Centre, Newry, County Down, Northern Ireland BT35 8HJ", "addr:country": "IE", "name": "COSTA COFFEE - NEWRY", "opening_hours": "Mo-Tu 08:30-17:00; We-Fr 08:30-20:00; Sa 08:30-18:00; Su 13:00-18:00", "brand": "Costa Coffee", "brand:wikidata": "Q608845", "nsi_id": "costaexpress-37500c"}, "geometry": {"type": "Point", "coordinates": [-6.34173, 54.1718449]}},
{"type": "Feature", "id": "NNsmvjMr4gXrMN-ZNZGabiYpTdg=", "properties": {"ref": "3321359230", "amenity": "cafe", "cuisine": "coffee_shop", "@spider": "costacoffee_ie", "vending": "coffee", "addr:full": "Costa Coffee, The Arlington Centre, Link Road, Droughill, Portarlington, Co. Laois, R32 DVF6", "addr:country": "IE", "name": "COSTA COFFEE - PORTARLINGTON", "opening_hours": "Mo-Fr 08:30-17:30; Sa 09:00-18:00; Su 11:00-18:00", "brand": "Costa Coffee", "brand:wikidata": "Q608845", "nsi_id": "costaexpress-37500c"}, "geometry": {"type": "Point", "coordinates": [-7.19279, 53.161171]}},
{"type": "Feature", "id": "ZScbSjsmaL5Bnju7c-6B7gJeX7s=", "properties": {"ref": "325314714", "amenity": "cafe", "cuisine": "coffee_shop", "@spider": "costacoffee_ie", "vending": "coffee", "addr:full": "Costa Coffee, Unit 17, Laois Shopping Centre, James Fintan Lawlor Avenue, Portlaoise, R32 KV62", "addr:country": "IE", "name": "COSTA COFFEE - PORTLAOISE", "opening_hours": "Mo-Sa 09:00-17:30; Su 11:00-17:30", "brand": "Costa Coffee", "brand:wikidata": "Q608845", "nsi_id": "costaexpress-37500c"}, "geometry": {"type": "Point", "coordinates": [-7.295971, 53.032371]}},
{"type": "Feature", "id": "Fve4Yrqb61Ez_2b2HyldfxZLiwU=", "properties": {"ref": "1451531898", "amenity": "cafe", "cuisine": "coffee_shop", "@spider": "costacoffee_ie", "vending": "coffee", "addr:full": "Costa Coffee, Portlaoise Retail Park, Timahoe Road Roundabout, Downs, Portlaoise, Co. Laois, R32 P793", "addr:country": "IE", "name": "COSTA COFFEE - PORTLAOISE RP", "opening_hours": "Mo-Sa 09:00-18:00; Su 11:00-18:00", "brand": "Costa Coffee", "brand:wikidata": "Q608845", "nsi_id": "costaexpress-37500c"}, "geometry": {"type": "Point", "coordinates": [-7.29182, 53.02934]}},
{"type": "Feature", "id": "zpZ2oUQeW_Q92FfMqyrve-QDSKs=", "properties": {"ref": "1300912654", "amenity": "cafe", "cuisine": "coffee_shop", "@spider": "costacoffee_ie", "vending": "coffee", "addr:full": "Costa Coffee, Unit 41, Rushmere Shopping Centre,\u00a0Central Way, Craigavon,\u00a0County Armagh, BT64 1AA.", "addr:country": "IE", "name": "COSTA COFFEE - RUSHMERE", "opening_hours": "Mo-Fr 08:00-20:00; Sa 08:00-18:00; Su 12:30-18:00", "brand": "Costa Coffee", "brand:wikidata": "Q608845", "nsi_id": "costaexpress-37500c"}, "geometry": {"type": "Point", "coordinates": [-6.391772, 54.4494828]}},
{"type": "Feature", "id": "JzcgI_sF3fZWuHEKhTGB4pWLzHM=", "properties": {"ref": "140415370", "amenity": "cafe", "cuisine": "coffee_shop", "@spider": "costacoffee_ie", "vending": "coffee", "addr:full": "Costa Coffee, Unit 26, Johnston Court, O\u2019Connell Street, Sligo, F91 XPN2", "addr:country": "IE", "name": "COSTA COFFEE - SLIGO", "opening_hours": "24/7", "brand": "Costa Coffee", "brand:wikidata": "Q608845", "nsi_id": "costaexpress-37500c"}, "geometry": {"type": "Point", "coordinates": [-8.475974, 54.2707821]}},
{"type": "Feature", "id": "SZw0AZfaNfkDnotieTl3GP0Igu8=", "properties": {"ref": "4290503480", "amenity": "cafe", "cuisine": "coffee_shop", "@spider": "costacoffee_ie", "vending": "coffee", "addr:full": "Costa Coffee, Unit 12, Shane Retail Park, Boucher Road, Belfast, BT12 6UA", "addr:country": "IE", "name": "COSTA COFFEE - SHANE RETAIL PARK", "opening_hours": "Mo-Tu 08:00-19:00; We-Fr 08:00-21:00; Sa 08:30-19:00; Su 11:00-18:00", "brand": "Costa Coffee", "brand:wikidata": "Q608845", "nsi_id": "costaexpress-37500c"}, "geometry": {"type": "Point", "coordinates": [-5.961151, 54.5776973]}},
{"type": "Feature", "id": "b9g0kgtCXZGsS5onuqn2RrHhhD4=", "properties": {"ref": "4076713026", "amenity": "cafe", "cuisine": "coffee_shop", "@spider": "costacoffee_ie", "vending": "coffee", "addr:full": "Costa Coffee, Kiosk 13, Pavilions Shopping Centre, Swords, Co. Dublin, K67 W528", "addr:country": "IE", "name": "COSTA COFFEE - SWORDS", "opening_hours": "Mo-We 09:00-17:30; Th-Fr 09:00-18:30; Sa 09:00-17:30; Su 10:00-17:30", "brand": "Costa Coffee", "brand:wikidata": "Q608845", "nsi_id": "costaexpress-37500c"}, "geometry": {"type": "Point", "coordinates": [-6.221295, 53.4542994]}},
{"type": "Feature", "id": "12p-rs0kUsWo4B945CpDTE2xKDs=", "properties": {"ref": "2392791899", "amenity": "cafe", "cuisine": "coffee_shop", "@spider": "costacoffee_ie", "vending": "coffee", "addr:full": "Costa Coffee, Strabane Retail Park, Branch Road, Strabane, Co. Tyrone, BT82 8EW", "addr:country": "IE", "name": "COSTA COFFEE - STRABANE RP", "opening_hours": "Mo-Fr 07:30-19:00; Sa 07:30-18:00; Su 09:30-18:00", "brand": "Costa Coffee", "brand:wikidata": "Q608845", "nsi_id": "costaexpress-37500c"}, "geometry": {"type": "Point", "coordinates": [-7.470549, 54.8292136]}},
{"type": "Feature", "id": "T1VCQwRmd4HRlN3CbBKCotIDBeM=", "properties": {"ref": "3213479160", "amenity": "cafe", "cuisine": "coffee_shop", "@spider": "costacoffee_ie", "vending": "coffee", "addr:full": "Costa Coffee, Unit 1, Oxmanstown Lofts, Coke Lane, Smithfield, Dublin 7, D07 EE05", "addr:country": "IE", "name": "COSTA COFFEE - SMITHFIELD", "opening_hours": "Mo-Sa 08:30-17:00; Su 10:00-17:00", "brand": "Costa Coffee", "brand:wikidata": "Q608845", "nsi_id": "costaexpress-37500c"}, "geometry": {"type": "Point", "coordinates": [-6.279374, 53.3469639]}},
{"type": "Feature", "id": "HD0eRe1fdfVQhc0yFaad_jXPuQc=", "properties": {"ref": "2351893706", "amenity": "cafe", "cuisine": "coffee_shop", "@spider": "costacoffee_ie", "vending": "coffee", "addr:full": "Costa Coffee, Tesco, Liffey Valley Shopping Centre, Clondalkin, Dublin 22, D22 AR23", "addr:country": "IE", "name": "COSTA COFFEE - TESCO LIFFEY VALLEY", "opening_hours": "Mo-Fr 09:00-17:30; Sa 09:00-18:00; Su 10:00-18:00", "brand": "Costa Coffee", "brand:wikidata": "Q608845", "nsi_id": "costaexpress-37500c"}, "geometry": {"type": "Point", "coordinates": [-6.39189, 53.35142]}},
{"type": "Feature", "id": "ql-Yvnztx5Zw8l1gAimKCdnGRTQ=", "properties": {"ref": "967926607", "amenity": "cafe", "cuisine": "coffee_shop", "@spider": "costacoffee_ie", "vending": "coffee", "addr:full": "Costa Coffee, Unit 14/15, The Mill Shopping Centre, Clondalkin, Dublin, D22 PF30", "addr:country": "IE", "name": "COSTA COFFEE - THE MILL, DUBLIN", "opening_hours": "Mo-Fr 09:00-17:00; Sa 09:00-18:00; Su 11:00-18:00", "brand": "Costa Coffee", "brand:wikidata": "Q608845", "nsi_id": "costaexpress-37500c"}, "geometry": {"type": "Point", "coordinates": [-6.396263, 53.3248344]}},
{"type": "Feature", "id": "CovaFzJRXfbdOyK6-ARm28uPpp8=", "properties": {"ref": "1984947489", "amenity": "cafe", "cuisine": "coffee_shop", "@spider": "costacoffee_ie", "vending": "coffee", "addr:full": "Costa Coffee, The Globe Retail Park, Mauldings, Naas, Co. Kildare, W91 X7Y4", "addr:country": "IE", "name": "COSTA COFFEE - THE GLOBE NAAS", "opening_hours": "Mo-Sa 08:30-18:00; Su 10:30-18:00", "brand": "Costa Coffee", "brand:wikidata": "Q608845", "nsi_id": "costaexpress-37500c"}, "geometry": {"type": "Point", "coordinates": [-6.640339, 53.23482]}},
{"type": "Feature", "id": "UamlmQbKxAwpQqiylab83CBJFaM=", "properties": {"ref": "4113854225", "amenity": "cafe", "cuisine": "coffee_shop", "@spider": "costacoffee_ie", "vending": "coffee", "addr:full": "Costa Coffee, Tesco Store, Moorefield Road (R445), Newbridge, Co. Kildare, W12 KW86", "addr:country": "IE", "name": "COSTA COFFEE - TESCO NEWBRIDGE", "opening_hours": "24/7", "brand": "Costa Coffee", "brand:wikidata": "Q608845", "nsi_id": "costaexpress-37500c"}, "geometry": {"type": "Point", "coordinates": [-6.805905, 53.1728884]}},
{"type": "Feature", "id": "eR49_C3M_fbmtXK5g1CDhD5_VOA=", "properties": {"ref": "1097666479", "amenity": "cafe", "cuisine": "coffee_shop", "@spider": "costacoffee_ie", "vending": "coffee", "addr:full": "Costa Coffee, Thurles Shopping Centre, Slievenamon Road, Thurles Townparks, Thurles, Co. Tipperary, E41 F7D2", "addr:country": "IE", "name": "COSTA COFFEE - THURLES", "opening_hours": "Mo-Sa 09:00-18:00; Su 09:30-18:00", "brand": "Costa Coffee", "brand:wikidata": "Q608845", "nsi_id": "costaexpress-37500c"}, "geometry": {"type": "Point", "coordinates": [-7.81216, 52.67572]}},
{"type": "Feature", "id": "wdALgYXXs3yyPDiGcxw-G4qW_vg=", "properties": {"ref": "597490795", "amenity": "cafe", "cuisine": "coffee_shop", "@spider": "costacoffee_ie", "vending": "coffee", "addr:full": "Costa Coffee, Units 53/54 Tower Centre, Wellington Street, Ballymena, BT43 6AH", "addr:country": "IE", "name": "COSTA COFFEE - TOWER CENTRE, BALLYMENA", "opening_hours": "Mo-We 09:00-17:30; Th-Fr 09:00-21:00; Sa 09:00-18:00; Su 13:00-18:00", "brand": "Costa Coffee", "brand:wikidata": "Q608845", "nsi_id": "costaexpress-37500c"}, "geometry": {"type": "Point", "coordinates": [-6.27843, 54.865257]}},
{"type": "Feature", "id": "_-1dZC4vbNsy17KoR3r1gyPHmhE=", "properties": {"ref": "789639693", "amenity": "cafe", "cuisine": "coffee_shop", "@spider": "costacoffee_ie", "vending": "coffee", "addr:full": "Costa Coffee (Old Priory Inn Building), Haggard St., Trim, Co. Meath, C15 NY9A", "addr:country": "IE", "name": "COSTA COFFEE - TRIM", "opening_hours": "Mo-Su 09:00-18:00", "brand": "Costa Coffee", "brand:wikidata": "Q608845", "nsi_id": "costaexpress-37500c"}, "geometry": {"type": "Point", "coordinates": [-6.790937, 53.5596096]}},
{"type": "Feature", "id": "TkagXHgHjP6f3IlNxr78k_hzz00=", "properties": {"ref": "2163027525", "amenity": "cafe", "cuisine": "coffee_shop", "@spider": "costacoffee_ie", "vending": "coffee", "addr:full": "Costa Coffee, Manor West Retail Park, Tralee, Co. Kerry, V92 CX65", "addr:country": "IE", "name": "COSTA COFFEE - TRALEE MANOR WEST", "opening_hours": "Mo-Sa 08:00-18:00; Su 10:00-18:00", "brand": "Costa Coffee", "brand:wikidata": "Q608845", "nsi_id": "costaexpress-37500c"}, "geometry": {"type": "Point", "coordinates": [-9.67882, 52.26151]}},
{"type": "Feature", "id": "Q-tytdKhArlNFHw-FW-9xjGL84k=", "properties": {"ref": "2745621120", "amenity": "cafe", "cuisine": "coffee_shop", "@spider": "costacoffee_ie", "vending": "coffee", "addr:full": "Costa Coffee, Unit 13 - 14, The Mall, Tralee, Co. Kerry, V92 DY7P", "addr:country": "IE", "name": "COSTA COFFEE - TRALEE", "opening_hours": "Mo-Sa 08:00-18:00; Su 10:00-18:00", "brand": "Costa Coffee", "brand:wikidata": "Q608845", "nsi_id": "costaexpress-37500c"}, "geometry": {"type": "Point", "coordinates": [-9.705418, 52.269275]}},
{"type": "Feature", "id": "bYs-HjKZilQpfPCCX46qqXkVUzM=", "properties": {"ref": "2108326331", "amenity": "cafe", "cuisine": "coffee_shop", "@spider": "costacoffee_ie", "vending": "coffee", "addr:full": "Costa Coffee, Units UG 32 & 33 Victoria Square, Town Centre, Belfast, BT1 4QG", "addr:country": "IE", "name": "COSTA COFFEE - VICTORIA SQUARE", "opening_hours": "24/7", "brand": "Costa Coffee", "brand:wikidata": "Q608845", "nsi_id": "costaexpress-37500c"}, "geometry": {"type": "Point", "coordinates": [-5.924723, 54.5995453]}},
{"type": "Feature", "id": "zXkkeWGncesOyiGzY53ila5NoNg=", "properties": {"ref": "2423315501", "amenity": "cafe", "cuisine": "coffee_shop", "@spider": "costacoffee_ie", "vending": "coffee", "addr:full": "Costa Coffee, Unit 34, Capital House, 34 Wellington Place, Belfast, BT1 6GF", "addr:country": "IE", "name": "COSTA COFFEE- WELLINGTON PLACE", "opening_hours": "24/7", "brand": "Costa Coffee", "brand:wikidata": "Q608845", "nsi_id": "costaexpress-37500c"}, "geometry": {"type": "Point", "coordinates": [-5.93471, 54.5972]}},
{"type": "Feature", "id": "WyL3p8B8NrBDFxJJDQG2ZBtJYZA=", "properties": {"ref": "4067794263", "amenity": "cafe", "cuisine": "coffee_shop", "@spider": "costacoffee_ie", "vending": "coffee", "addr:full": "Costa Coffee, 51 South Main Street, Wexford, Y35 V0HA", "addr:country": "IE", "name": "COSTA COFFEE - WEXFORD", "opening_hours": "Mo-Sa 08:00-17:00; Su 11:00-17:00", "brand": "Costa Coffee", "brand:wikidata": "Q608845", "nsi_id": "costaexpress-37500c"}, "geometry": {"type": "Point", "coordinates": [-6.46055, 52.3368272]}},
{"type": "Feature", "id": "2CezhkORA9wRZNZ5zi-Yk8s2b0g=", "properties": {"ref": "1665714537", "amenity": "cafe", "cuisine": "coffee_shop", "@spider": "costacoffee_ie", "vending": "coffee", "addr:full": "Costa Coffee, Wexford Retail Park, Clonard Little, Wexford, Co. Wexford, Y35 E440", "addr:country": "IE", "name": "COSTA COFFEE - WEXFORD RP", "opening_hours": "Mo-Sa 09:00-18:00; Su 10:00-18:00", "brand": "Costa Coffee", "brand:wikidata": "Q608845", "nsi_id": "costaexpress-37500c"}, "geometry": {"type": "Point", "coordinates": [-6.49161, 52.32422]}},
{"type": "Feature", "id": "jhOr0oy8fun6XQx9mlAUKQ77sQs=", "properties": {"ref": "1960228156", "amenity": "cafe", "cuisine": "coffee_shop", "@spider": "costacoffee_ie", "vending": "coffee", "addr:full": "Costa Coffee, Coffee Pod, Waterford Retail Park, Cork Road, Butlerstown, Waterford, Co. Waterford, X91 P5YX", "addr:country": "IE", "name": "COSTA COFFEE - WATERFORD RP", "opening_hours": "Mo-We 08:00-18:00; Th-Fr 08:00-19:00; Sa 08:00-18:00; Su 09:30-18:00", "brand": "Costa Coffee", "brand:wikidata": "Q608845", "nsi_id": "costaexpress-37500c"}, "geometry": {"type": "Point", "coordinates": [-7.14039, 52.2309]}},
{"type": "Feature", "id": "JgWsQ7Z9PAmWylh-fjRl3pLrPbo=", "properties": {"ref": "4250355120", "amenity": "vending_machine", "vending": "coffee", "@spider": "costacoffee_ie", "addr:full": "Kilmeaden Services, Main street, Kilmeaden, Co Waterford", "addr:country": "IE", "name": "GALA KILMEADEN", "opening_hours": "24/7", "brand": "Costa Express", "brand:wikidata": "Q608845", "nsi_id": "costaexpress-37500c"}, "geometry": {"type": "Point", "coordinates": [-7.24274, 52.23324]}},
{"type": "Feature", "id": "n4BM_fxuWomDQs-sIrd-2cTQS4I=", "properties": {"ref": "3262837625", "amenity": "cafe", "cuisine": "coffee_shop", "@spider": "costacoffee_ie", "vending": "coffee", "addr:full": "Costa Coffee, Childers Retail Park (Limerick One Retail Park), Childers Road, Limerick, V94 P957", "addr:country": "IE", "name": "COSTA COFFEE - CHILDERS ROAD", "opening_hours": "Mo-We 08:30-18:00; Th-Sa 08:30-19:00; Su 10:00-18:00", "brand": "Costa Coffee", "brand:wikidata": "Q608845", "nsi_id": "costaexpress-37500c"}, "geometry": {"type": "Point", "coordinates": [-8.597427, 52.6564483]}},
{"type": "Feature", "id": "vtBe1sk1JQgVWvV5JSoyK9cBNLY=", "properties": {"ref": "3950357525", "amenity": "cafe", "cuisine": "coffee_shop", "@spider": "costacoffee_ie", "vending": "coffee", "addr:full": "Costa Coffee, Riverview Commercial Park, Cloncollig, Tullamore, Co. Offally, R35 VY48", "addr:country": "IE", "name": "COSTA COFFEE - TULLAMORE", "opening_hours": "Mo-We 08:00-18:00; Th-Fr 08:00-19:00; Sa 08:00-18:00; Su 10:00-18:00", "brand": "Costa Coffee", "brand:wikidata": "Q608845", "nsi_id": "costaexpress-37500c"}, "geometry": {"type": "Point", "coordinates": [-7.468645, 53.2691692]}},
{"type": "Feature", "id": "1UtXvIa2eI483Xdq_3yE-8Mrk8o=", "properties": {"ref": "3023113291", "amenity": "cafe", "cuisine": "coffee_shop", "@spider": "costacoffee_ie", "vending": "coffee", "addr:full": "Costa Coffee, Unit 3, Airside Retail Park, Swords, Co. Dublin, K67 A254", "addr:country": "IE", "name": "COSTA COFFEE - SWORDS TESCO", "opening_hours": "Mo-We 07:30-18:00; Th-Fr 07:30-19:00; Sa-Su 09:00-18:00", "brand": "Costa Coffee", "brand:wikidata": "Q608845", "nsi_id": "costaexpress-37500c"}, "geometry": {"type": "Point", "coordinates": [-6.22632, 53.44727]}},
{"type": "Feature", "id": "rbfFeWWPYmu0rHctMsU0CN4vuLI=", "properties": {"ref": "3154350761", "amenity": "cafe", "cuisine": "coffee_shop", "@spider": "costacoffee_ie", "vending": "coffee", "addr:full": "Costa Coffee, Unit 10, Orantown Shopping Centre, Oranmore, Co.Galway, H91 NW27", "addr:country": "IE", "name": "COSTA COFFEE - ORANMORE", "opening_hours": "Mo-We 08:30-18:00; Th-Fr 08:30-19:00; Sa 08:30-18:00; Su 10:00-18:00", "brand": "Costa Coffee", "brand:wikidata": "Q608845", "nsi_id": "costaexpress-37500c"}, "geometry": {"type": "Point", "coordinates": [-8.928604, 53.272778]}},
{"type": "Feature", "id": "b4rIufBpLLttXfzrhgLFSyBDFCw=", "properties": {"ref": "648933366", "amenity": "cafe", "cuisine": "coffee_shop", "@spider": "costacoffee_ie", "vending": "coffee", "addr:full": "Costa Coffee, Tesco Store, Market Square, Castlebar, Co. Mayo, F23 Y313", "addr:country": "IE", "name": "COSTA COFFEE - CASTLEBAR", "opening_hours": "Mo-We 09:00-18:00; Th-Fr 09:00-19:00; Sa 09:00-18:00; Su 10:00-18:00", "brand": "Costa Coffee", "brand:wikidata": "Q608845", "nsi_id": "costaexpress-37500c"}, "geometry": {"type": "Point", "coordinates": [-9.304679, 53.8557764]}},
{"type": "Feature", "id": "GjJR6LHvHiNyW5egkL1KE4-xFCM=", "properties": {"ref": "790485090", "operator": "Springisland Supermarket", "@spider": "costacoffee_ie", "amenity": "vending_machine", "vending": "coffee", "addr:full": "2 Washingbay Road Coalisland Co. Tyrone BT71 4ND", "addr:country": "IE", "name": "Springisland Supermarket", "opening_hours": "24/7", "brand": "Costa Coffee", "brand:wikidata": "Q608845", "nsi_id": "costaexpress-37500c"}, "geometry": {"type": "Point", "coordinates": [-6.69744, 54.54105]}},
{"type": "Feature", "id": "akUnKwgv9m-PGw_STITfuDwwvRg=", "properties": {"ref": "388581754", "amenity": "cafe", "cuisine": "coffee_shop", "@spider": "costacoffee_ie", "vending": "coffee", "addr:full": "Costa Coffee, Tesco Arklow Square, Wexford Road, Abbeylands, Arklow, Co. Wicklow, Y14 NP59", "addr:country": "IE", "name": "COSTA COFFEE - TESCO ARKLOW", "opening_hours": "Mo-Sa 08:30-17:00; Su 09:30-17:00", "brand": "Costa Coffee", "brand:wikidata": "Q608845", "nsi_id": "costaexpress-37500c"}, "geometry": {"type": "Point", "coordinates": [-6.15836, 52.79362]}},
{"type": "Feature", "id": "Rdz8taBzL8gRnf7pZ1r52VT7ZXo=", "properties": {"ref": "4273035775", "amenity": "cafe", "cuisine": "coffee_shop", "@spider": "costacoffee_ie", "vending": "coffee", "addr:full": "Costa Coffee, 32 Barronstrand Street, Waterford, County Waterford, X91HK15", "addr:country": "IE", "name": "COSTA COFFEE - BARRONSTRAND", "opening_hours": "Mo-Sa 08:00-18:00; Su 09:30-18:00", "brand": "Costa Coffee", "brand:wikidata": "Q608845", "nsi_id": "costaexpress-37500c"}, "geometry": {"type": "Point", "coordinates": [-7.11153, 52.26101]}},
{"type": "Feature", "id": "4y1ATHL96B-8XWn_UV4KJ7ajOtc=", "properties": {"ref": "2968305833", "amenity": "cafe", "cuisine": "coffee_shop", "@spider": "costacoffee_ie", "vending": "coffee", "addr:full": "Costa Coffee, M1 Retail Park, Northern Interchange, Drogheda, A92 CVN1", "addr:country": "IE", "name": "COSTA COFFEE - DROGHEDA M1", "opening_hours": "Mo-Sa 08:00-19:00; Su 10:00-19:00", "brand": "Costa Coffee", "brand:wikidata": "Q608845", "nsi_id": "costaexpress-37500c"}, "geometry": {"type": "Point", "coordinates": [-6.39002, 53.72774]}},
{"type": "Feature", "id": "3mnYN5H07whU0BSjvP0RF9R0f6I=", "properties": {"ref": "2795919349", "amenity": "cafe", "cuisine": "coffee_shop", "@spider": "costacoffee_ie", "vending": "coffee", "addr:full": "Costa Coffee, Unit 1, Longford Retail Park, Longford,  N39 AK65", "addr:country": "IE", "name": "COSTA COFFEE - LONGFORD", "opening_hours": "Mo-We 08:30-18:00; Th-Fr 08:30-19:00; Sa 08:30-18:00; Su 10:00-18:00", "brand": "Costa Coffee", "brand:wikidata": "Q608845", "nsi_id": "costaexpress-37500c"}, "geometry": {"type": "Point", "coordinates": [-7.80208, 53.72492]}},
{"type": "Feature", "id": "VUBxj7npjl7rA7bHzrHQkm5uza0=", "properties": {"ref": "1805159419", "amenity": "cafe", "cuisine": "coffee_shop", "@spider": "costacoffee_ie", "vending": "coffee", "addr:full": "Costa Coffee, Cornamanagh, Ballymahon Road, Athlone, County Westmeath, N37 CY52", "addr:country": "IE", "name": "COSTA COFFEE - ATHLONE RP", "opening_hours": "Mo-We 08:00-18:00; Th-Fr 08:00-19:00; Sa 08:00-18:00; Su 09:00-18:00", "brand": "Costa Coffee", "brand:wikidata": "Q608845", "nsi_id": "costaexpress-37500c"}, "geometry": {"type": "Point", "coordinates": [-7.91921033065795, 53.433468560711646]}},
{"type": "Feature", "id": "JGpKiGf8kNpaL0XgilBpfDLX13E=", "properties": {"ref": "3592105247", "amenity": "cafe", "cuisine": "coffee_shop", "@spider": "costacoffee_ie", "vending": "coffee", "addr:full": "Costa Coffee, Unit 7, Westend Village, Westend Retail Park, Blanchardstown, Dublin 15, D15 EE04", "addr:country": "IE", "name": "COSTA COFFEE - WESTEND VILLAGE, BLANCH", "opening_hours": "Mo-We 07:30-18:00; Th 07:30-19:00; Fr-Sa 07:30-18:00; Su 09:30-18:00", "brand": "Costa Coffee", "brand:wikidata": "Q608845", "nsi_id": "costaexpress-37500c"}, "geometry": {"type": "Point", "coordinates": [-6.38774, 53.39052]}},
{"type": "Feature", "id": "zsGeJAw57_mQtR4qNcHi9pvEG5w=", "properties": {"ref": "3652294207", "amenity": "cafe", "cuisine": "coffee_shop", "@spider": "costacoffee_ie", "vending": "coffee", "addr:full": "Costa Coffee, Unit 7, Mallow Towncentre, Mallow, County Cork, P51 N9KP", "addr:country": "IE", "name": "COSTA COFFEE - MALLOW", "opening_hours": "Mo-Fr 07:30-19:00; Sa 08:00-19:00; Su 09:30-19:00", "brand": "Costa Coffee", "brand:wikidata": "Q608845", "nsi_id": "costaexpress-37500c"}, "geometry": {"type": "Point", "coordinates": [-8.645504, 52.1399931]}},
{"type": "Feature", "id": "HtDy-6efXw_9O64JHfXGHBJmtyo=", "properties": {"ref": "1377963829", "amenity": "cafe", "cuisine": "coffee_shop", "@spider": "costacoffee_ie", "vending": "coffee", "addr:full": "Costa Coffee, Unit 14, Lisnagelvin Shopping Centre, Lisnagelvin, Londonderry, BT47 6DF", "addr:country": "IE", "name": "COSTA COFFEE - LISNAGELVIN, DERRY", "opening_hours": "Mo-Tu 08:00-18:00; We 08:00-19:00; Th 08:00-21:00; Fr 08:00-19:00; Sa-Su 08:00-18:00", "brand": "Costa Coffee", "brand:wikidata": "Q608845", "nsi_id": "costaexpress-37500c"}, "geometry": {"type": "Point", "coordinates": [-7.296247, 54.989949]}},
{"type": "Feature", "id": "FVecQAwW0qvEbyu5EKpFOgg83Lk=", "properties": {"ref": "2588072607", "amenity": "cafe", "cuisine": "coffee_shop", "@spider": "costacoffee_ie", "vending": "coffee", "addr:full": "Costa Coffee, Unit 28, Golden Island Shopping Centre, Athlone, County Westmeath, N37 C578", "addr:country": "IE", "name": "COSTA COFFEE - ATHLONE", "opening_hours": "Mo-Sa 08:00-19:00; Su 09:00-18:00", "brand": "Costa Coffee", "brand:wikidata": "Q608845", "nsi_id": "costaexpress-37500c"}, "geometry": {"type": "Point", "coordinates": [-7.93295, 53.42]}},
{"type": "Feature", "id": "6nPjBbWD7EPHB9tyxHA-nmCwqRI=", "properties": {"ref": "290146721", "amenity": "cafe", "cuisine": "coffee_shop", "@spider": "costacoffee_ie", "vending": "coffee", "addr:full": "Costa Coffee, Unit 219, Omni Park Shopping Centre, Santry, D09 CP48", "addr:country": "IE", "name": "COSTA COFFEE - OMNI", "opening_hours": "Mo-We 08:30-17:30; Th-Fr 08:30-18:00; Sa 09:00-18:00; Su 10:00-18:00", "brand": "Costa Coffee", "brand:wikidata": "Q608845", "nsi_id": "costaexpress-37500c"}, "geometry": {"type": "Point", "coordinates": [-6.248228, 53.3919773]}},
{"type": "Feature", "id": "8pBAbusbugEvRejhw9jwmOivTnk=", "properties": {"ref": "1094628776", "amenity": "cafe", "cuisine": "coffee_shop", "@spider": "costacoffee_ie", "vending": "coffee", "addr:full": "Costa Coffee, Unit C17, Ard Shopping Centre, Newtownards, Belfast, Northern Ireland BT23 4EU", "addr:country": "IE", "name": "COSTA COFFEE - NEWTOWNARDS", "opening_hours": "Mo-Sa 08:30-17:00; Su 12:30-17:00", "brand": "Costa Coffee", "brand:wikidata": "Q608845", "nsi_id": "costaexpress-37500c"}, "geometry": {"type": "Point", "coordinates": [-5.71094, 54.5925356]}},
{"type": "Feature", "id": "A3bSWg8d1EfhdNzOEdnWL9zXc3M=", "properties": {"ref": "2487293738", "amenity": "cafe", "cuisine": "coffee_shop", "@spider": "costacoffee_ie", "vending": "coffee", "addr:full": "Costa Coffee, Unit D1C, Gulliver's Retail Park, Santry, D09 CD89", "addr:country": "IE", "name": "COSTA COFFEE - SANTRY", "opening_hours": "Mo-We 07:30-18:00; Th 07:30-19:00; Fr 07:30-18:00; Sa-Su 09:00-18:00", "brand": "Costa Coffee", "brand:wikidata": "Q608845", "nsi_id": "costaexpress-37500c"}, "geometry": {"type": "Point", "coordinates": [-6.260172, 53.4037213]}},
{"type": "Feature", "id": "zQPHxdGqkrg4PtrxIyK7VwLe-us=", "properties": {"ref": "3051290859", "amenity": "cafe", "cuisine": "coffee_shop", "@spider": "costacoffee_ie", "vending": "coffee", "addr:full": "Costa Coffee, Lidl Development, Unit 2, Shanganagh Road, Shankill, Dublin 18", "addr:country": "IE", "name": "COSTA COFFEE -  SHANKILL", "opening_hours": "Mo-Th 08:30-18:00; Fr 20:30-18:00; Sa 18:00-18:00; Su 10:00-18:00", "brand": "Costa Coffee", "brand:wikidata": "Q608845", "nsi_id": "costaexpress-37500c"}, "geometry": {"type": "Point", "coordinates": [-6.12067, 53.24285]}},
{"type": "Feature", "id": "G5SohmbLulF9WKa8JU1wHOYJBxI=", "properties": {"ref": "2173012032", "amenity": "cafe", "cuisine": "coffee_shop", "@spider": "costacoffee_ie", "vending": "coffee", "addr:full": "Costa Coffee, Unit 21, Monread Centre, Naas, Co. Kildare, W91 N768", "addr:country": "IE", "name": "COSTA COFFEE - NAAS", "opening_hours": "Mo-We 08:30-18:00; Th-Fr 08:30-19:00; Sa 09:00-18:00; Su 10:00-18:00", "brand": "Costa Coffee", "brand:wikidata": "Q608845", "nsi_id": "costaexpress-37500c"}, "geometry": {"type": "Point", "coordinates": [-6.663694, 53.240004]}},
{"type": "Feature", "id": "8sd7Q6OUqp6N6BUHi3LptDIdjKA=", "properties": {"ref": "80220557", "amenity": "cafe", "cuisine": "coffee_shop", "@spider": "costacoffee_ie", "vending": "coffee", "addr:full": "Costa Coffee, Unit 10, Damolly Retail Park, Newry, BT35 6PR", "addr:country": "IE", "name": "COSTA COFFEE - NEWRY RETAIL", "opening_hours": "Mo-Sa 08:00-18:00; Su 11:00-18:00", "brand": "Costa Coffee", "brand:wikidata": "Q608845", "nsi_id": "costaexpress-37500c"}, "geometry": {"type": "Point", "coordinates": [-6.350085, 54.191145]}},
{"type": "Feature", "id": "QTZQmGKAC30ik76szdG1gj2nvKk=", "properties": {"ref": "3745249200", "operator": "Intel IR6", "@spider": "costacoffee_ie", "amenity": "vending_machine", "vending": "coffee", "addr:full": "Intel, IR6, R148, Easton Co. Kildare ", "addr:country": "IE", "name": "Intel IR6", "opening_hours": "24/7", "brand": "Costa Coffee", "brand:wikidata": "Q608845", "nsi_id": "costaexpress-37500c"}, "geometry": {"type": "Point", "coordinates": [-6.51625, 53.37238]}},
{"type": "Feature", "id": "OjZZFFEvVyhGgG1xYB7CZ1l0BVo=", "properties": {"ref": "2557638825", "operator": "Quik Pick Parnell Street", "@spider": "costacoffee_ie", "amenity": "vending_machine", "vending": "coffee", "addr:full": "Unit 3, Stewart Hall, Parnell Street, Dublin 1", "addr:country": "IE", "name": "Quik Pick Parnell Street", "opening_hours": "24/7", "brand": "Costa Coffee", "brand:wikidata": "Q608845", "nsi_id": "costaexpress-37500c"}, "geometry": {"type": "Point", "coordinates": [-6.26839, 53.35009]}},
{"type": "Feature", "id": "wDAGXXRczk1mnIKdDlt46GrhqB8=", "properties": {"ref": "313722570", "operator": "Coop Beverley Road", "@spider": "costacoffee_ie", "amenity": "vending_machine", "vending": "coffee", "addr:full": "10 - 12 Beverley Road, Newtownabbey , Co.Antrim BT36 6QD", "addr:country": "IE", "name": "Coop Beverley Road", "opening_hours": "24/7", "brand": "Costa Coffee", "brand:wikidata": "Q608845", "nsi_id": "costaexpress-37500c"}, "geometry": {"type": "Point", "coordinates": [-5.94846, 54.68888]}},
{"type": "Feature", "id": "SzBJOJaR9Prt9P0O3T2beel8BTk=", "properties": {"ref": "4094661445", "operator": "Taggart's Costcutter", "@spider": "costacoffee_ie", "amenity": "vending_machine", "vending": "coffee", "addr:full": "26 Campsie Road, Omagh, Co. Tyrone BT79 0AG", "addr:country": "IE", "name": "Taggart's Costcutter", "opening_hours": "24/7", "brand": "Costa Coffee", "brand:wikidata": "Q608845", "nsi_id": "costaexpress-37500c"}, "geometry": {"type": "Point", "coordinates": [-7.29433, 54.60095]}},
{"type": "Feature", "id": "BiogGeLnkZCZg4OpLVeAfpHKiIc=", "properties": {"ref": "2098676288", "operator": "Springisland Supermarket", "@spider": "costacoffee_ie", "amenity": "vending_machine", "vending": "coffee", "addr:full": "2 Washingbay Road, Coalisland Co. Tyrone BT71 4ND", "addr:country": "IE", "name": "Springisland Supermarket", "opening_hours": "24/7", "brand": "Costa Coffee", "brand:wikidata": "Q608845", "nsi_id": "costaexpress-37500c"}, "geometry": {"type": "Point", "coordinates": [-6.69744, 54.54105]}},
{"type": "Feature", "id": "_-J6YCRZgZSy-tZlyGMxCA22zmY=", "properties": {"ref": "1665084598", "operator": "Costcutter Belcoo", "@spider": "costacoffee_ie", "amenity": "vending_machine", "vending": "coffee", "addr:full": "22 Railway Street, Belcoo Co, Fermanagh BT93 5FJ", "addr:country": "IE", "name": "Costcutter Belcoo", "opening_hours": "24/7", "brand": "Costa Coffee", "brand:wikidata": "Q608845", "nsi_id": "costaexpress-37500c"}, "geometry": {"type": "Point", "coordinates": [-7.87186, 54.29688]}},
{"type": "Feature", "id": "pWzbg6Nh1LAr5sRywS7hGd1Af6k=", "properties": {"ref": "1662918575", "amenity": "cafe", "cuisine": "coffee_shop", "@spider": "costacoffee_ie", "vending": "coffee", "addr:full": "Costa Coffee, Tesco Shopping Centre, Stapleton Drive, Dublin Road, Dundalk, A91 PK74", "addr:country": "IE", "name": "COSTA COFFEE - TESCO DUNDALK", "opening_hours": "Mo-Su 08:00-18:00", "brand": "Costa Coffee", "brand:wikidata": "Q608845", "nsi_id": "costaexpress-37500c"}, "geometry": {"type": "Point", "coordinates": [-6.404695, 53.9984264]}},
{"type": "Feature", "id": "1LniOSNX3yvcQVPdJMgzkcYTfeU=", "properties": {"ref": "3700987234", "amenity": "cafe", "cuisine": "coffee_shop", "@spider": "costacoffee_ie", "vending": "coffee", "addr:full": "Costa Coffee, Unit 45, Douglas Court Shopping Centre, Cork, T12 E659", "addr:country": "IE", "name": "COSTA COFFEE - DOUGLAS", "opening_hours": "Mo-We 09:00-18:00; Th-Sa 08:30-18:00; Su 10:00-18:00", "brand": "Costa Coffee", "brand:wikidata": "Q608845", "nsi_id": "costaexpress-37500c"}, "geometry": {"type": "Point", "coordinates": [-8.43103, 51.87837]}},
{"type": "Feature", "id": "J1qGOeveABr_c58IagfqGnMGp_Y=", "properties": {"ref": "1443553249", "amenity": "cafe", "cuisine": "coffee_shop", "@spider": "costacoffee_ie", "vending": "coffee", "addr:full": "Costa Coffee, Unit 8, Nutgrove Retail Park, Rathfarnham, Dublin, D14 C3X6", "addr:country": "IE", "name": "COSTA COFFEE - NUTGROVE", "opening_hours": "Mo-Fr 08:30-18:00; Sa 09:00-18:00; Su 10:00-18:00", "brand": "Costa Coffee", "brand:wikidata": "Q608845", "nsi_id": "costaexpress-37500c"}, "geometry": {"type": "Point", "coordinates": [-6.268518, 53.291879]}},
{"type": "Feature", "id": "eRNpZy-ynfUhziLyYM7h7UGK92U=", "properties": {"ref": "1780172891", "amenity": "cafe", "cuisine": "coffee_shop", "@spider": "costacoffee_ie", "vending": "coffee", "addr:full": "Costa Coffee, Unit 16, Newbridge Retail Park, Athgarvan Road, Kilbelin, Newbridge, Co. Kildare, W12 N728", "addr:country": "IE", "name": "COSTA COFFEE - NEWBRIDGE RP", "opening_hours": "Mo-We 08:00-18:00; Th-Fr 08:00-19:00; Sa 09:00-18:00; Su 10:00-18:00", "brand": "Costa Coffee", "brand:wikidata": "Q608845", "nsi_id": "costaexpress-37500c"}, "geometry": {"type": "Point", "coordinates": [-8.24389, 53.41291]}},
{"type": "Feature", "id": "cPYKif26dVW2XrnXI_Q2679yzlo=", "properties": {"ref": "2905778478", "operator": "Gala Abbeydorney", "@spider": "costacoffee_ie", "amenity": "vending_machine", "vending": "coffee", "addr:full": "Dromcunnig, Abbeydorney Tralee Co Kerry", "addr:country": "IE", "name": "Gala Abbeydorney", "opening_hours": "24/7", "brand": "Costa Coffee", "brand:wikidata": "Q608845", "nsi_id": "costaexpress-37500c"}, "geometry": {"type": "Point", "coordinates": [-9.6879, 52.34661]}},
{"type": "Feature", "id": "BtihiVOKhKpwSRZicEWHvEHpiL8=", "properties": {"ref": "3941240326", "amenity": "cafe", "cuisine": "coffee_shop", "@spider": "costacoffee_ie", "vending": "coffee", "addr:full": "Costa Coffee, Main Street, Dunshaughlin, Co. Meath, A85 YE29", "addr:country": "IE", "name": "COSTA COFFEE - DUNSHAUGHLIN", "opening_hours": "Mo 08:00-19:00; Tu 08:00-18:00; We-Sa 08:00-19:00; Su 09:30-19:00", "brand": "Costa Coffee", "brand:wikidata": "Q608845", "nsi_id": "costaexpress-37500c"}, "geometry": {"type": "Point", "coordinates": [-6.53956, 53.51047]}},
{"type": "Feature", "id": "PQ1RkTi7hAqEAduCDCDP5Z7iEfI=", "properties": {"ref": "3712511827", "amenity": "cafe", "cuisine": "coffee_shop", "@spider": "costacoffee_ie", "vending": "coffee", "addr:full": "Costa Coffee, Units 1 + 2, Leopardstown Shopping Centre, Ballyogan Avenue, Dublin, D18 E2N8", "addr:country": "IE", "name": "COSTA COFFEE - LEOPARDSTOWN", "opening_hours": "Mo-We 09:00-18:00; Th-Fr 09:00-19:00; Sa 09:00-18:00; Su 11:00-17:00", "brand": "Costa Coffee", "brand:wikidata": "Q608845", "nsi_id": "costaexpress-37500c"}, "geometry": {"type": "Point", "coordinates": [-6.199085, 53.2593322]}},
{"type": "Feature", "id": "1gBoJqilmYdMcnGgMpt8hteqbXc=", "properties": {"ref": "1076128592", "amenity": "cafe", "cuisine": "coffee_shop", "@spider": "costacoffee_ie", "vending": "coffee", "addr:full": "Costa Coffee, Unit 9, Balmoral Plaza, Boucher Road, Belfast, BT12 6HR", "addr:country": "IE", "name": "COSTA COFFEE - BOUCHER ROAD", "opening_hours": "Mo-Tu 08:00-19:00; We-Fr 08:00-20:00; Sa 08:00-18:00; Su 10:00-18:00", "brand": "Costa Coffee", "brand:wikidata": "Q608845", "nsi_id": "costaexpress-37500c"}, "geometry": {"type": "Point", "coordinates": [-5.963782, 54.5789384]}},
{"type": "Feature", "id": "KPtFMbiLmUdPPymxYCqAdsc8s6w=", "properties": {"ref": "32300436", "amenity": "cafe", "cuisine": "coffee_shop", "@spider": "costacoffee_ie", "vending": "coffee", "addr:full": "Costa Coffee, Coffee Pod, Bray Retail Park, Bray, Co. Wicklow, A98 TF84", "addr:country": "IE", "name": "COSTA COFFEE - BRAY RP", "opening_hours": "Mo-Fr 08:00-18:00; Sa 09:00-18:00; Su 10:00-18:00", "brand": "Costa Coffee", "brand:wikidata": "Q608845", "nsi_id": "costaexpress-37500c"}, "geometry": {"type": "Point", "coordinates": [-6.129608, 53.18045]}},
{"type": "Feature", "id": "iws8pPUeCLLqo80mFV4_xKHKcr4=", "properties": {"ref": "42598955", "amenity": "cafe", "cuisine": "coffee_shop", "@spider": "costacoffee_ie", "vending": "coffee", "addr:full": "Costa Coffee, Dundalk Retail Park, Inner Relief Road, Dundalk, Co. Louth, A91 XN62", "addr:country": "IE", "name": "COSTA COFFEE - DUNDALK RP", "opening_hours": "Mo-We 08:00-19:00; Th-Fr 08:00-21:00; Sa 08:00-19:00; Su 09:00-19:00", "brand": "Costa Coffee", "brand:wikidata": "Q608845", "nsi_id": "costaexpress-37500c"}, "geometry": {"type": "Point", "coordinates": [-6.401169, 54.001447]}},
{"type": "Feature", "id": "ZblKAAY0V2pda4OuY6vQmytqC2s=", "properties": {"ref": "4005428214", "amenity": "cafe", "cuisine": "coffee_shop", "@spider": "costacoffee_ie", "vending": "coffee", "addr:full": "Costa Coffee, Unit 9, Parkway Retail Park, Childers Road, Limerick V94 C4E0", "addr:country": "IE", "name": "COSTA COFFEE - PARKWAY", "opening_hours": "Mo-Sa 08:30-19:00; Su 10:00-18:00", "brand": "Costa Coffee", "brand:wikidata": "Q608845", "nsi_id": "costaexpress-37500c"}, "geometry": {"type": "Point", "coordinates": [-8.590661444396973, 52.66172881947955]}},
{"type": "Feature", "id": "YPsusxb7pMcb7glqRB45ucO3hII=", "properties": {"ref": "3709274727", "amenity": "cafe", "cuisine": "coffee_shop", "@spider": "costacoffee_ie", "vending": "coffee", "addr:full": "Costa Coffee, Unit 49/50, Northside Shopping Centre, Coolock, Dublin, D17 DE02", "addr:country": "IE", "name": "COSTA COFFEE - NORTHSIDE", "opening_hours": "Mo-We 08:00-18:30; Th-Fr 08:00-19:00; Sa 09:00-19:00; Su 08:00-18:30", "brand": "Costa Coffee", "brand:wikidata": "Q608845", "nsi_id": "costaexpress-37500c"}, "geometry": {"type": "Point", "coordinates": [-6.21355, 53.3958004]}},
{"type": "Feature", "id": "lMig-5OsyCHeO99wW4Bxci6zblA=", "properties": {"ref": "3868699228", "amenity": "cafe", "cuisine": "coffee_shop", "@spider": "costacoffee_ie", "vending": "coffee", "addr:full": "Costa Coffee, Kilkenny Retail Park, Ring Road, Springhill, Kilkenny, R95 EF68", "addr:country": "IE", "name": "COSTA COFFEE - KILKENNY RP", "opening_hours": "Mo-We 08:30-18:00; Th-Fr 08:30-19:00; Sa 09:00-18:00; Su 11:00-18:00", "brand": "Costa Coffee", "brand:wikidata": "Q608845", "nsi_id": "costaexpress-37500c"}, "geometry": {"type": "Point", "coordinates": [-7.24545, 52.63463]}},
{"type": "Feature", "id": "rf0frnPW4RN3QsaPgjWcF-eFc7s=", "properties": {"ref": "3990458148", "amenity": "cafe", "cuisine": "coffee_shop", "@spider": "costacoffee_ie", "vending": "coffee", "addr:full": "Costa Coffee, Coolock Retail Park, Malahide Road, Dublin 17, D17 TD70", "addr:country": "IE", "name": "COSTA COFFEE - COOLOCK RETAIL PARK", "opening_hours": "Mo-We 08:00-19:00; Th 08:00-20:00; Fr 08:00-19:00; Sa 08:30-19:00; Su 10:00-18:00", "brand": "Costa Coffee", "brand:wikidata": "Q608845", "nsi_id": "costaexpress-37500c"}, "geometry": {"type": "Point", "coordinates": [-6.19281, 53.39198]}},
{"type": "Feature", "id": "DAwZZDeyY_2V2DJyF2n_nkEZR_o=", "properties": {"ref": "2883689418", "amenity": "cafe", "cuisine": "coffee_shop", "@spider": "costacoffee_ie", "vending": "coffee", "addr:full": "Costa Coffee, Unit 320, The Park, Carrickmines, Dublin, D18 DA06", "addr:country": "IE", "name": "COSTA COFFEE - CARRICKMINES", "opening_hours": "Mo-We 08:00-18:00; Th-Fr 08:00-19:00; Sa 09:00-18:00; Su 10:00-18:00", "brand": "Costa Coffee", "brand:wikidata": "Q608845", "nsi_id": "costaexpress-37500c"}, "geometry": {"type": "Point", "coordinates": [-6.184681941833487, 53.25104580835177]}},
{"type": "Feature", "id": "F0etotSP7E8PtDfwe4_6HzQ3PeI=", "properties": {"ref": "283255992", "amenity": "cafe", "cuisine": "coffee_shop", "@spider": "costacoffee_ie", "vending": "coffee", "addr:full": "Costa Coffee, Units 8 + 9, Johnstown Shopping Centre, Johnstown, Navan, Co. Meath, C15 A2WT", "addr:country": "IE", "name": "COSTA COFFEE - JOHNSTOWN CENTRE, NAVAN", "opening_hours": "Mo-We 08:00-19:00; Th-Fr 08:00-20:00; Sa 08:00-19:00; Su 08:30-19:00", "brand": "Costa Coffee", "brand:wikidata": "Q608845", "nsi_id": "costaexpress-37500c"}, "geometry": {"type": "Point", "coordinates": [-6.66008, 53.64382]}},
{"type": "Feature", "id": "OKBDGyyn2TNelxtzJRkDX8kSsYs=", "properties": {"ref": "971147997", "amenity": "cafe", "cuisine": "coffee_shop", "@spider": "costacoffee_ie", "vending": "coffee", "addr:full": "Costa Coffee, Unit 6, Sandyford Hall Shopping Centre, Kilgobbin Road, Dublin, D18 PA43", "addr:country": "IE", "name": "COSTA COFFEE - SANDYFORD, DUBLIN", "opening_hours": "Mo-Sa 08:30-18:00; Su 10:00-18:00", "brand": "Costa Coffee", "brand:wikidata": "Q608845", "nsi_id": "costaexpress-37500c"}, "geometry": {"type": "Point", "coordinates": [13.578437, 48.6557573]}},
{"type": "Feature", "id": "FBSj_lF1epTvKjn783R0jurAEjA=", "properties": {"ref": "422627737", "amenity": "cafe", "cuisine": "coffee_shop", "@spider": "costacoffee_ie", "vending": "coffee", "addr:full": "Costa Coffee, 3 College Green, Dublin 2, Co. Dublin, D02 XH97", "addr:country": "IE", "name": "COSTA COFFEE - COLLEGE GREEN", "opening_hours": "24/7", "brand": "Costa Coffee", "brand:wikidata": "Q608845", "nsi_id": "costaexpress-37500c"}, "geometry": {"type": "Point", "coordinates": [-6.259526, 53.344631]}},
{"type": "Feature", "id": "2E05OsmdB3SqeEK-oo2tmZPuKJ0=", "properties": {"ref": "2559609580", "amenity": "cafe", "cuisine": "coffee_shop", "@spider": "costacoffee_ie", "vending": "coffee", "addr:full": "Costa Coffee, No.1 Dawson Street, Dublin, D02 RW08", "addr:country": "IE", "name": "COSTA COFFEE - DAWSON ST.", "opening_hours": "24/7", "brand": "Costa Coffee", "brand:wikidata": "Q608845", "nsi_id": "costaexpress-37500c"}, "geometry": {"type": "Point", "coordinates": [-6.257799, 53.3427521]}},
{"type": "Feature", "id": "VPFaiPdHMo8gO4wqrJAfUlPp0bw=", "properties": {"ref": "1667119379", "amenity": "cafe", "cuisine": "coffee_shop", "@spider": "costacoffee_ie", "vending": "coffee", "addr:full": "Costa Coffee, Sligo Retail Park, Sligo, Co. Sligo, F91 P922", "addr:country": "IE", "name": "COSTA COFFEE - SLIGO RP", "opening_hours": "Mo-Sa 08:00-19:00; Su 10:00-19:00", "brand": "Costa Coffee", "brand:wikidata": "Q608845", "nsi_id": "costaexpress-37500c"}, "geometry": {"type": "Point", "coordinates": [-8.471553, 54.251165]}},
{"type": "Feature", "id": "Od9rlFKt_jZRz4QrYmGRrxmKxTM=", "properties": {"ref": "2128749026", "amenity": "cafe", "cuisine": "coffee_shop", "@spider": "costacoffee_ie", "vending": "coffee", "addr:full": "Costa Coffee, McDonough Shopping Centre, Workhouse Square, Kilkenny, R95 CP40", "addr:country": "IE", "name": "COSTA COFFEE - KILKENNY", "opening_hours": "Mo-We 08:30-18:00; Th-Fr 08:30-20:00; Sa 09:00-18:00; Su 10:30-18:00", "brand": "Costa Coffee", "brand:wikidata": "Q608845", "nsi_id": "costaexpress-37500c"}, "geometry": {"type": "Point", "coordinates": [-7.244165, 52.655734]}},
{"type": "Feature", "id": "juqsgu99wuVOshu-d3lg7PELLLY=", "properties": {"ref": "2411383530", "amenity": "cafe", "cuisine": "coffee_shop", "@spider": "costacoffee_ie", "vending": "coffee", "addr:full": "Costa Coffee, Unit 7 Fonthill Retail Park, Fonthill Road, Dublin, D22 V2F7", "addr:country": "IE", "name": "COSTA COFFEE - FONTHILL", "opening_hours": "Mo-We 07:30-18:00; Th-Fr 07:30-19:00; Sa 09:00-18:00; Su 10:00-18:00", "brand": "Costa Coffee", "brand:wikidata": "Q608845", "nsi_id": "costaexpress-37500c"}, "geometry": {"type": "Point", "coordinates": [-6.407031, 53.348237]}},
{"type": "Feature", "id": "VwGsWhWAjkkYTP6TbDAZeAaHOkA=", "properties": {"ref": "2612282863", "amenity": "cafe", "cuisine": "coffee_shop", "@spider": "costacoffee_ie", "vending": "coffee", "addr:full": "Costa Coffee, Pearse Street, Ballina, Co. Mayo, F26 R120", "addr:country": "IE", "name": "COSTA COFFEE - BALLINA", "opening_hours": "Mo-Sa 08:00-19:00; Su 10:00-19:00", "brand": "Costa Coffee", "brand:wikidata": "Q608845", "nsi_id": "costaexpress-37500c"}, "geometry": {"type": "Point", "coordinates": [-9.154131, 54.114052]}},
{"type": "Feature", "id": "js9Efd8VEu8xxaneYsVrQfItpfA=", "properties": {"ref": "1472029712", "amenity": "cafe", "cuisine": "coffee_shop", "@spider": "costacoffee_ie", "vending": "coffee", "addr:full": "Costa Coffee, Unit FM12b, Finglas Village Centre, Finglas, Dublin, D11 Y622", "addr:country": "IE", "name": "COSTA COFFEE - FINGLAS", "opening_hours": "Mo-Fr 07:30-18:00; Sa 08:30-17:00; Su 10:00-17:00", "brand": "Costa Coffee", "brand:wikidata": "Q608845", "nsi_id": "costaexpress-37500c"}, "geometry": {"type": "Point", "coordinates": [-6.298167, 53.389512]}},
{"type": "Feature", "id": "EbLMuJnwnkwkgrpe1BRrhJUkwO8=", "properties": {"ref": "2241884656", "amenity": "cafe", "cuisine": "coffee_shop", "@spider": "costacoffee_ie", "vending": "coffee", "addr:full": "Costa Coffee, Unit 1BX, Crescent Shopping Centre, Dooradoyle, Limerick, V94 266E", "addr:country": "IE", "name": "COSTA COFFEE - CRESCENT", "opening_hours": "Mo-We 08:30-18:00; Th-Fr 08:30-21:00; Sa 08:30-18:00; Su 11:00-18:00", "brand": "Costa Coffee", "brand:wikidata": "Q608845", "nsi_id": "costaexpress-37500c"}, "geometry": {"type": "Point", "coordinates": [-8.644643, 52.639598]}},
{"type": "Feature", "id": "3P0YlNWLhD5HHw9WOuQEpkhjIhw=", "properties": {"ref": "3766185525", "amenity": "vending_machine", "vending": "coffee", "@spider": "costacoffee_ie", "addr:full": "O\u2019Neills Kilkenny 7 Ormonde Street Kilkenny Co. Kilkenny", "addr:country": "IE", "name": "O\u2019Neills Kilkenny", "opening_hours": "24/7", "brand": "Costa Express", "brand:wikidata": "Q608845", "nsi_id": "costaexpress-37500c"}, "geometry": {"type": "Point", "coordinates": [-7.25259, 52.65027]}},
{"type": "Feature", "id": "pUzu-xmELhpbrm5Irsr5oX5ykLU=", "properties": {"ref": "3191826784", "amenity": "cafe", "cuisine": "coffee_shop", "@spider": "costacoffee_ie", "vending": "coffee", "addr:full": "Costa Coffee, Unit 14, Naas Town Centre, Dublin Road, Naas, Co. Kildare, W91 TD0P", "addr:country": "IE", "name": "COSTA COFFEE - NAAS TC", "opening_hours": "Mo-We 08:30-18:00; Th-Fr 08:30-19:00; Sa 09:00-18:00; Su 10:00-18:00", "brand": "Costa Coffee", "brand:wikidata": "Q608845", "nsi_id": "costaexpress-37500c"}, "geometry": {"type": "Point", "coordinates": [-6.65585, 53.22238]}},
{"type": "Feature", "id": "BThNhzOT3OdefpWkxusfPF45pXE=", "properties": {"ref": "1754923806", "amenity": "cafe", "cuisine": "coffee_shop", "@spider": "costacoffee_ie", "vending": "coffee", "addr:full": "Costa Coffee, Units 5 + 6, Tesco Shopping Centre, Bray, Co. Wicklow, A98 N2X2", "addr:country": "IE", "name": "COSTA COFFEE - BRAY", "opening_hours": "Mo-Fr 08:00-18:00; Sa 08:30-18:00; Su 11:00-18:00", "brand": "Costa Coffee", "brand:wikidata": "Q608845", "nsi_id": "costaexpress-37500c"}, "geometry": {"type": "Point", "coordinates": [-6.111038, 53.1956696]}},
{"type": "Feature", "id": "TgDlbQA0VytJ0yHW0trXInLMLfw=", "properties": {"ref": "3172870231", "amenity": "cafe", "cuisine": "coffee_shop", "@spider": "costacoffee_ie", "vending": "coffee", "addr:full": "Costa Coffee, 25 - 26 Cruises St., Limerick City, Limerick, V94 RC97", "addr:country": "IE", "name": "COSTA COFFEE - CRUISES ST., LIMERICK", "opening_hours": "Mo-Sa 08:00-18:00; Su 11:00-18:00", "brand": "Costa Coffee", "brand:wikidata": "Q608845", "nsi_id": "costaexpress-37500c"}, "geometry": {"type": "Point", "coordinates": [-8.626192, 52.6640614]}}]}