{"type":"FeatureCollection","features":[{"type": "Feature", "id": "rDI-TJw-qAf1LQTnOa8NHkPy6Pw=", "properties": {"ref": "58", "@spider": "coto", "shop": "supermarket", "addr:full": "CENTRO Viamonte 1571", "addr:street": "CENTRO Viamonte 1571", "addr:country": "AR", "name": "Coto 058-VIAMONTE", "phone": "4811-1091", "opening_hours": "Mo-Th 08:00-21:00; Fr 08:00-21:00; Sa 08:00-21:00; Su off", "brand": "Coto", "brand:wikidata": "Q5175411", "nsi_id": "coto-0d2b84"}, "geometry": {"type": "Point", "coordinates": [-58.389015, -34.600563]}},
{"type": "Feature", "id": "TXiI2UwknyRA16TAAybCe6obopE=", "properties": {"ref": "159", "@spider": "coto", "shop": "supermarket", "addr:full": "BARTOLOME MITRE 1560", "addr:street": "BARTOLOME MITRE 1560", "addr:country": "AR", "name": "Coto 159-BME MITRE", "phone": "4383-2615/2598", "opening_hours": "Mo-Th 08:30-21:00; Fr 08:30-21:30; Sa 08:30-21:30; Su 08:30-21:00", "brand": "Coto", "brand:wikidata": "Q5175411", "nsi_id": "coto-0d2b84"}, "geometry": {"type": "Point", "coordinates": [-58.388819, -34.607696]}},
{"type": "Feature", "id": "yZG-cRC6xFhwtdiKIA6AVZ5f5Ho=", "properties": {"ref": "175", "@spider": "coto", "shop": "supermarket", "addr:full": "PERON 2070", "addr:street": "PERON 2070", "addr:country": "AR", "name": "Coto 175-BALVANERA", "phone": "4953-8641", "opening_hours": "Mo-Th 08:30-21:00; Fr 08:30-21:00; Sa 08:30-21:00; Su 08:30-14:00", "brand": "Coto", "brand:wikidata": "Q5175411", "nsi_id": "coto-0d2b84"}, "geometry": {"type": "Point", "coordinates": [-58.396033, -34.606975]}},
{"type": "Feature", "id": "d_xZVPtueUJ2ty5O1pCTiTp6_Po=", "properties": {"ref": "163", "@spider": "coto", "shop": "supermarket", "addr:full": "JUNIN  1111", "addr:street": "JUNIN  1111", "addr:country": "AR", "name": "Coto 163-JUNIN", "phone": "4826-8775/8784", "opening_hours": "Mo-Th 08:30-21:00; Fr 08:30-21:30; Sa 08:30-21:30; Su 08:30-14:00", "brand": "Coto", "brand:wikidata": "Q5175411", "nsi_id": "coto-0d2b84"}, "geometry": {"type": "Point", "coordinates": [-58.397574, -34.59674]}},
{"type": "Feature", "id": "kzRU4yiyJROMFPOww5mVjdMlJVY=", "properties": {"ref": "61", "@spider": "coto", "shop": "supermarket", "addr:full": "ONCE Alsina 2300", "addr:street": "ONCE Alsina 2300", "addr:country": "AR", "name": "Coto 061-SPINETTO", "phone": "4954-3442", "opening_hours": "Mo-Th 08:30-21:00; Fr 08:30-21:30; Sa 08:30-21:30; Su 08:30-21:00", "brand": "Coto", "brand:wikidata": "Q5175411", "nsi_id": "coto-0d2b84"}, "geometry": {"type": "Point", "coordinates": [-58.399278, -34.612025]}},
{"type": "Feature", "id": "5kf1ykKYljJkyqqiKgzT0XjqOG0=", "properties": {"ref": "78", "@spider": "coto", "shop": "supermarket", "addr:full": "BALVANERA M\u00e9xico 2236", "addr:street": "BALVANERA M\u00e9xico 2236", "addr:country": "AR", "name": "Coto 078-PICHINCHA", "phone": "4308-6665", "opening_hours": "Mo-Th 08:30-21:00; Fr 08:30-21:00; Sa 08:30-21:00; Su off", "brand": "Coto", "brand:wikidata": "Q5175411", "nsi_id": "coto-0d2b84"}, "geometry": {"type": "Point", "coordinates": [-58.398832, -34.616249]}},
{"type": "Feature", "id": "r81n34pd2ZStJqznuQ4InDSsxPE=", "properties": {"ref": "80", "@spider": "coto", "shop": "supermarket", "addr:full": "RECOLETA French 2417", "addr:street": "RECOLETA French 2417", "addr:country": "AR", "name": "Coto 080-FRENCH", "phone": "4807-5292", "opening_hours": "Mo-Th 08:30-21:00; Fr 08:30-21:30; Sa 08:30-21:30; Su 08:30-21:00", "brand": "Coto", "brand:wikidata": "Q5175411", "nsi_id": "coto-0d2b84"}, "geometry": {"type": "Point", "coordinates": [-58.40033, -34.590234]}},
{"type": "Feature", "id": "KFFV8bT9Y1nm062vdZFAQPn49ng=", "properties": {"ref": "160", "@spider": "coto", "shop": "supermarket", "addr:full": "ANTARTIDA ARGENTINA 1160", "addr:street": "ANTARTIDA ARGENTINA 1160", "addr:country": "AR", "name": "Coto 160-SADOS", "phone": "4312-4660", "opening_hours": "Mo-Th 08:30-21:00; Fr 08:30-21:00; Sa 08:30-21:00; Su 08:30-21:00", "brand": "Coto", "brand:wikidata": "Q5175411", "nsi_id": "coto-0d2b84"}, "geometry": {"type": "Point", "coordinates": [-58.375286, -34.583621]}},
{"type": "Feature", "id": "oy2XPhiro3xAYGjRjrWkxj1GhLE=", "properties": {"ref": "42", "@spider": "coto", "shop": "supermarket", "addr:full": "BARRIO NORTE Jean Jaures 1093", "addr:street": "BARRIO NORTE Jean Jaures 1093", "addr:country": "AR", "name": "Coto 042-PARAGUAY", "phone": "4963-8812", "opening_hours": "Mo-Th 08:30-21:00; Fr 08:30-21:00; Sa 08:30-21:00; Su 08:30-14:00", "brand": "Coto", "brand:wikidata": "Q5175411", "nsi_id": "coto-0d2b84"}, "geometry": {"type": "Point", "coordinates": [-58.405678, -34.597163]}},
{"type": "Feature", "id": "QdIDjPX3E9TeKW2DWLKy-RIuFjo=", "properties": {"ref": "46", "@spider": "coto", "shop": "supermarket", "addr:full": "ONCE Av. Rivadavia 2846", "addr:street": "ONCE Av. Rivadavia 2846", "addr:country": "AR", "name": "Coto 046-ONCE", "phone": "4861-6621", "opening_hours": "Mo-Th 08:30-21:00; Fr 08:30-21:00; Sa 08:30-21:00; Su 08:30-14:00", "brand": "Coto", "brand:wikidata": "Q5175411", "nsi_id": "coto-0d2b84"}, "geometry": {"type": "Point", "coordinates": [-58.407055, -34.610201]}},
{"type": "Feature", "id": "kr3qMEuApFZOXus3coL7oDTIcnY=", "properties": {"ref": "124", "@spider": "coto", "shop": "supermarket", "addr:full": "SAN CRISTOBAL Av. San Juan 2168", "addr:street": "SAN CRISTOBAL Av. San Juan 2168", "addr:country": "AR", "name": "Coto 124-SAN JUAN", "phone": "4942-6228", "opening_hours": "Mo-Th 08:30-21:00; Fr 08:30-21:30; Sa 08:30-21:30; Su 08:30-21:00", "brand": "Coto", "brand:wikidata": "Q5175411", "nsi_id": "coto-0d2b84"}, "geometry": {"type": "Point", "coordinates": [-58.395842, -34.623022]}},
{"type": "Feature", "id": "PXOKbtVBZG91kxlg0y5_eb0S1r8=", "properties": {"ref": "25", "@spider": "coto", "shop": "supermarket", "addr:full": "SAN TELMO Brasil 575", "addr:street": "SAN TELMO Brasil 575", "addr:country": "AR", "name": "Coto 025-SAN TELMO", "phone": "4362-5319", "opening_hours": "Mo-Th 08:30-21:00; Fr 08:30-21:00; Sa 08:30-21:00; Su 08:30-14:00", "brand": "Coto", "brand:wikidata": "Q5175411", "nsi_id": "coto-0d2b84"}, "geometry": {"type": "Point", "coordinates": [-58.374006, -34.625452]}},
{"type": "Feature", "id": "qtJVetbTMQmLJjfOS2vXZCERJhc=", "properties": {"ref": "19", "@spider": "coto", "shop": "supermarket", "addr:full": "CONSTITUCI\u00d3N Lima 1553", "addr:street": "CONSTITUCI\u00d3N Lima 1553", "addr:country": "AR", "name": "Coto 019-CONSTITUCION", "phone": "4305-5062", "opening_hours": "Mo-Th 08:30-21:00; Fr 08:30-21:00; Sa 08:30-21:00; Su 08:30-14:00", "brand": "Coto", "brand:wikidata": "Q5175411", "nsi_id": "coto-0d2b84"}, "geometry": {"type": "Point", "coordinates": [-58.382215, -34.626433]}},
{"type": "Feature", "id": "y637Ca3a-hadzEcCmBSr4aT7l8A=", "properties": {"ref": "158", "@spider": "coto", "shop": "supermarket", "addr:full": "CHARCAS  3200", "addr:street": "CHARCAS  3200", "addr:country": "AR", "name": "Coto 158-CHARCAS", "phone": "4825-7925/3620", "opening_hours": "Mo-Th 08:30-21:00; Fr 08:30-21:30; Sa 08:30-21:30; Su 08:30-21:00", "brand": "Coto", "brand:wikidata": "Q5175411", "nsi_id": "coto-0d2b84"}, "geometry": {"type": "Point", "coordinates": [-58.408266, -34.593133]}},
{"type": "Feature", "id": "KH2tcV-oUFuafdOcf7IuXuLP7_0=", "properties": {"ref": "91", "@spider": "coto", "shop": "supermarket", "addr:full": "ABASTO Ag\u00fcero 616", "addr:street": "ABASTO Ag\u00fcero 616", "addr:country": "AR", "name": "Coto 091-ABASTO", "phone": "4865-7515", "opening_hours": "Mo-Th 08:30-21:00; Fr 08:30-21:30; Sa 08:30-21:30; Su 08:30-21:00", "brand": "Coto", "brand:wikidata": "Q5175411", "nsi_id": "coto-0d2b84"}, "geometry": {"type": "Point", "coordinates": [-58.411533, -34.602232]}},
{"type": "Feature", "id": "-mO_tOPy_twu84iocut6HYGnKVo=", "properties": {"ref": "74", "@spider": "coto", "shop": "supermarket", "addr:full": "ALMAGRO Gallo 250", "addr:street": "ALMAGRO Gallo 250", "addr:country": "AR", "name": "Coto 074-GALLO", "phone": "4866-1730/1509/4272/4271/4270", "opening_hours": "Mo-Th 08:30-21:00; Fr 08:30-21:00; Sa 08:30-21:00; Su off", "brand": "Coto", "brand:wikidata": "Q5175411", "nsi_id": "coto-0d2b84"}, "geometry": {"type": "Point", "coordinates": [-58.414057, -34.606811]}},
{"type": "Feature", "id": "QruRL_NcURZv-X6FcfzdF-t0KF0=", "properties": {"ref": "220", "@spider": "coto", "shop": "supermarket", "addr:full": "CAPITAL FEDERAL-JOVELLANOS 151", "addr:street": "CAPITAL FEDERAL-JOVELLANOS 151", "addr:country": "AR", "name": "Coto 220-MARTIN GARCIA", "phone": "5296-4900", "opening_hours": "Mo-Th 08:30-21:00; Fr 08:30-21:30; Sa 08:30-21:30; Su 08:30-21:00", "brand": "Coto", "brand:wikidata": "Q5175411", "nsi_id": "coto-0d2b84"}, "geometry": {"type": "Point", "coordinates": [-58.37389039999999, -34.6320834]}},
{"type": "Feature", "id": "UeQHVG4GgU6l2KOk8jPSharcei4=", "properties": {"ref": "7", "@spider": "coto", "shop": "supermarket", "addr:full": "Av Juan de Garay,San Cristobal,Buenos Aires 2700", "addr:street": "Av Juan de Garay,San Cristobal,Buenos Aires 2700", "addr:country": "AR", "name": "Coto 007-JUAN DE GARAY", "phone": "4308-0071", "opening_hours": "Mo-Th 08:30-20:30; Fr 08:30-21:00; Sa 08:30-21:00; Su off", "brand": "Coto", "brand:wikidata": "Q5175411", "nsi_id": "coto-0d2b84"}, "geometry": {"type": "Point", "coordinates": [-58.40240030000001, -34.6288434]}},
{"type": "Feature", "id": "z9j6j5raG-qAYbm4jztP8RwGNbU=", "properties": {"ref": "56", "@spider": "coto", "shop": "supermarket", "addr:full": "PALERMO Honduras 3862", "addr:street": "PALERMO Honduras 3862", "addr:country": "AR", "name": "Coto 056-HONDURAS", "phone": "4861-8926", "opening_hours": "Mo-Th 08:30-21:00; Fr 08:30-21:30; Sa 08:30-21:30; Su 08:30-21:00", "brand": "Coto", "brand:wikidata": "Q5175411", "nsi_id": "coto-0d2b84"}, "geometry": {"type": "Point", "coordinates": [-58.417694, -34.594124]}},
{"type": "Feature", "id": "vsx1ENZWViwpgDNh7QBNWTZegfI=", "properties": {"ref": "18", "@spider": "coto", "shop": "supermarket", "addr:full": "Hipolito Yrigoyen,Almagro,Buenos Aires 3702", "addr:street": "Hipolito Yrigoyen,Almagro,Buenos Aires 3702", "addr:country": "AR", "name": "Coto 018-H.YRIGOYEN", "phone": "4932-3563", "opening_hours": "Mo-Th 08:30-21:00; Fr 08:30-21:00; Sa 08:30-21:00; Su off", "brand": "Coto", "brand:wikidata": "Q5175411", "nsi_id": "coto-0d2b84"}, "geometry": {"type": "Point", "coordinates": [-58.418661799999995, -34.614299]}},
{"type": "Feature", "id": "im_gJZEk7QutwKRK6mbWQoAPzQo=", "properties": {"ref": "26", "@spider": "coto", "shop": "supermarket", "addr:full": "Av Cervi\u00f1o,Palermo,Buenos Aires 3515", "addr:street": "Av Cervi\u00f1o,Palermo,Buenos Aires 3515", "addr:country": "AR", "name": "Coto 026-CERVINO", "phone": "4802-3970", "opening_hours": "Mo-Th 08:30-21:00; Fr 08:30-21:00; Sa 08:30-21:00; Su off", "brand": "Coto", "brand:wikidata": "Q5175411", "nsi_id": "coto-0d2b84"}, "geometry": {"type": "Point", "coordinates": [-58.40861430000001, -34.5803028]}},
{"type": "Feature", "id": "bQYHX61aktF54KtK-_umtMVCd7A=", "properties": {"ref": "84", "@spider": "coto", "shop": "supermarket", "addr:full": "ALMAGRO Castro Barros 24", "addr:street": "ALMAGRO Castro Barros 24", "addr:country": "AR", "name": "Coto 084-CASTRO BARROS", "phone": "4983-4011", "opening_hours": "Mo-Th 08:30-21:00; Fr 08:30-21:30; Sa 08:30-21:30; Su 08:30-21:00", "brand": "Coto", "brand:wikidata": "Q5175411", "nsi_id": "coto-0d2b84"}, "geometry": {"type": "Point", "coordinates": [-58.421135, -34.61187]}},
{"type": "Feature", "id": "r7lhl9oY5PZVS2eq4_7yBTBbqcw=", "properties": {"ref": "43", "@spider": "coto", "shop": "supermarket", "addr:full": "BOEDO Av. Boedo 777", "addr:street": "BOEDO Av. Boedo 777", "addr:country": "AR", "name": "Coto 043-BOEDO", "phone": "4931-9801", "opening_hours": "Mo-Th 08:30-21:00; Fr 08:30-21:30; Sa 08:30-21:30; Su 08:30-21:00", "brand": "Coto", "brand:wikidata": "Q5175411", "nsi_id": "coto-0d2b84"}, "geometry": {"type": "Point", "coordinates": [-58.416646, -34.621878]}},
{"type": "Feature", "id": "HbbhrsNwBt2vg76zOZTlXFjCdvM=", "properties": {"ref": "203", "@spider": "coto", "shop": "supermarket", "addr:full": "AV SANTA FE 3760", "addr:street": "AV SANTA FE 3760", "addr:country": "AR", "name": "Coto 203-BOTANICO", "phone": "4832-2251", "opening_hours": "Mo-Th 08:30-21:00; Fr 08:30-21:30; Sa 08:30-21:30; Su 08:30-21:00", "brand": "Coto", "brand:wikidata": "Q5175411", "nsi_id": "coto-0d2b84"}, "geometry": {"type": "Point", "coordinates": [-58.41652479999999, -34.5847845]}},
{"type": "Feature", "id": "0OO-mZcm-t3no9I7qiT2qZJrrG8=", "properties": {"ref": "24", "@spider": "coto", "shop": "supermarket", "addr:full": "PALERMO Av. Scalabrini Ort\u00edz 1688", "addr:street": "PALERMO Av. Scalabrini Ort\u00edz 1688", "addr:country": "AR", "name": "Coto 024-SCALABRINI ORTIZ", "phone": "4831-2538", "opening_hours": "Mo-Th 08:30-21:00; Fr 08:30-21:00; Sa 08:30-21:00; Su 08:30-14:00", "brand": "Coto", "brand:wikidata": "Q5175411", "nsi_id": "coto-0d2b84"}, "geometry": {"type": "Point", "coordinates": [-58.424063, -34.590396]}},
{"type": "Feature", "id": "TGAOMCiva-I8j4uAn39LdKXqDyM=", "properties": {"ref": "41", "@spider": "coto", "shop": "supermarket", "addr:full": "ALMAGRO Av. D\u00edaz V\u00e9lez 4531", "addr:street": "ALMAGRO Av. D\u00edaz V\u00e9lez 4531", "addr:country": "AR", "name": "Coto 041-DIAZ VELEZ", "phone": "4983-3129", "opening_hours": "Mo-Th 08:30-21:00; Fr 08:30-21:00; Sa 08:30-21:00; Su 08:30-21:00", "brand": "Coto", "brand:wikidata": "Q5175411", "nsi_id": "coto-0d2b84"}, "geometry": {"type": "Point", "coordinates": [-58.431497, -34.608788]}},
{"type": "Feature", "id": "dMg68O4vKpVgwwZpyHRxJ-QuL34=", "properties": {"ref": "88", "@spider": "coto", "shop": "supermarket", "addr:full": "Av la Plata,Caballito,Buenos Aires 541", "addr:street": "Av la Plata,Caballito,Buenos Aires 541", "addr:country": "AR", "name": "Coto 088-AV. LA PLATA", "phone": "4903-6020", "opening_hours": "Mo-Th 08:30-21:00; Fr 08:30-21:00; Sa 08:30-21:00; Su 08:30-14:00", "brand": "Coto", "brand:wikidata": "Q5175411", "nsi_id": "coto-0d2b84"}, "geometry": {"type": "Point", "coordinates": [-58.42799439999999, -34.6211196]}},
{"type": "Feature", "id": "jYmFr0wKVjQ9-xyKHAujHSW_0yI=", "properties": {"ref": "136", "@spider": "coto", "shop": "supermarket", "addr:full": "CABALLITO Pedro Goyena 565", "addr:street": "CABALLITO Pedro Goyena 565", "addr:country": "AR", "name": "Coto 136-PEDRO GOYENA", "phone": "4926-0406", "opening_hours": "Mo-Th 08:30-21:00; Fr 08:30-21:30; Sa 08:30-21:30; Su 08:30-14:00", "brand": "Coto", "brand:wikidata": "Q5175411", "nsi_id": "coto-0d2b84"}, "geometry": {"type": "Point", "coordinates": [-58.435501, -34.626049]}},
{"type": "Feature", "id": "Ul8uH7xcad1uzRpMrdcsO_S0f_c=", "properties": {"ref": "82", "@spider": "coto", "shop": "supermarket", "addr:full": "VILLA CRESPO Murillo 551", "addr:street": "VILLA CRESPO Murillo 551", "addr:country": "AR", "name": "Coto 082-MURILLO", "phone": "4857-6799", "opening_hours": "Mo-Th 08:30-21:00; Fr 08:30-21:30; Sa 08:30-21:30; Su 08:30-21:00", "brand": "Coto", "brand:wikidata": "Q5175411", "nsi_id": "coto-0d2b84"}, "geometry": {"type": "Point", "coordinates": [-58.441979, -34.600785]}},
{"type": "Feature", "id": "NVR3O4sDi9KKqTnC7aD0HA_urm8=", "properties": {"ref": "6", "@spider": "coto", "shop": "supermarket", "addr:full": "Av la Plata,Nueva Pompeya,Buenos Aires 2392", "addr:street": "Av la Plata,Nueva Pompeya,Buenos Aires 2392", "addr:country": "AR", "name": "Coto 006-AV. LA PLATA", "phone": "4923-2590", "opening_hours": "Mo-Th 08:30-21:00; Fr 08:30-21:00; Sa 08:30-21:00; Su 08:30-14:00", "brand": "Coto", "brand:wikidata": "Q5175411", "nsi_id": "coto-0d2b84"}, "geometry": {"type": "Point", "coordinates": [-58.42288989999997, -34.6424732]}},
{"type": "Feature", "id": "AT4whU66Eoh8gfYa6rF1y6wkIx8=", "properties": {"ref": "168", "@spider": "coto", "shop": "supermarket", "addr:full": "Av. Corrientes  5748", "addr:street": "Av. Corrientes  5748", "addr:country": "AR", "name": "Coto 168-VILLA CRESPO", "phone": "4855-8067/8063", "opening_hours": "Mo-Th 08:30-21:00; Fr 08:30-21:30; Sa 08:30-21:30; Su 08:30-21:00", "brand": "Coto", "brand:wikidata": "Q5175411", "nsi_id": "coto-0d2b84"}, "geometry": {"type": "Point", "coordinates": [-58.44403, -34.595198]}},
{"type": "Feature", "id": "aCXxx7rQyTI8blpbBPhr9oOzcs0=", "properties": {"ref": "116", "@spider": "coto", "shop": "supermarket", "addr:full": "Gral. Martin de Gainza,Caballito,Buenos Aires 90", "addr:street": "Gral. Martin de Gainza,Caballito,Buenos Aires 90", "addr:country": "AR", "name": "Coto 116-YERBAL", "phone": "4431-3879 4988-1114", "opening_hours": "Mo-Th 08:30-21:00; Fr 08:30-21:00; Sa 08:30-21:00; Su off", "brand": "Coto", "brand:wikidata": "Q5175411", "nsi_id": "coto-0d2b84"}, "geometry": {"type": "Point", "coordinates": [-58.44569910000001, -34.6210567]}},
{"type": "Feature", "id": "bP5PfzVjdU2VssYf_X3iQ-ChMyE=", "properties": {"ref": "66", "@spider": "coto", "shop": "supermarket", "addr:full": "BELGRANO Maure 1725", "addr:street": "BELGRANO Maure 1725", "addr:country": "AR", "name": "Coto 066-MAURE", "phone": "4777-1237", "opening_hours": "Mo-Th 08:30-21:00; Fr 08:30-21:30; Sa 08:30-21:30; Su 08:30-21:00", "brand": "Coto", "brand:wikidata": "Q5175411", "nsi_id": "coto-0d2b84"}, "geometry": {"type": "Point", "coordinates": [-58.436143, -34.56686]}},
{"type": "Feature", "id": "ddFZ0fCZFbCjeHM1kXOFTzfRP7M=", "properties": {"ref": "151", "@spider": "coto", "shop": "supermarket", "addr:full": "ASAMBLEA Av. Asamblea 1176", "addr:street": "ASAMBLEA Av. Asamblea 1176", "addr:country": "AR", "name": "Coto 151-ASAMBLEA", "phone": "4924-9451/9458", "opening_hours": "Mo-Th 08:30-21:00; Fr 08:30-21:30; Sa 08:30-21:30; Su 08:30-21:00", "brand": "Coto", "brand:wikidata": "Q5175411", "nsi_id": "coto-0d2b84"}, "geometry": {"type": "Point", "coordinates": [-58.441659, -34.635938]}},
{"type": "Feature", "id": "GZhu1ahzuUGbib0FrPFCrblNWnI=", "properties": {"ref": "63", "@spider": "coto", "shop": "supermarket", "addr:full": "POMPEYA, AV.FRANCISCO RABANAL 1345", "addr:street": "POMPEYA, AV.FRANCISCO RABANAL 1345", "addr:country": "AR", "name": "Coto 063-POMPEYA", "phone": "4919-0484", "opening_hours": "Mo-Th 08:30-21:00; Fr 08:30-21:30; Sa 08:30-21:30; Su 08:30-21:00", "brand": "Coto", "brand:wikidata": "Q5175411", "nsi_id": "coto-0d2b84"}, "geometry": {"type": "Point", "coordinates": [-58.41715900000003, -34.6551014]}},
{"type": "Feature", "id": "osNcctH4lL9gcumAKMUiGIj0OCc=", "properties": {"ref": "45", "@spider": "coto", "shop": "supermarket", "addr:full": "BELGRANO Av. Cabildo 515", "addr:street": "BELGRANO Av. Cabildo 515", "addr:country": "AR", "name": "Coto 045-CABILDO", "phone": "4771-1012", "opening_hours": "Mo-Th 08:00-21:00; Fr 08:00-21:00; Sa 08:00-21:00; Su 08:30-21:00", "brand": "Coto", "brand:wikidata": "Q5175411", "nsi_id": "coto-0d2b84"}, "geometry": {"type": "Point", "coordinates": [-58.442718, -34.571045]}},
{"type": "Feature", "id": "qb-XXWK36YZb2mROC78kj4HEEf0=", "properties": {"ref": "103", "@spider": "coto", "shop": "supermarket", "addr:full": "CABALLITO Av. Gaona 1950", "addr:street": "CABALLITO Av. Gaona 1950", "addr:country": "AR", "name": "Coto 103-IVONNE", "phone": "4584-9393", "opening_hours": "Mo-Th 08:30-21:00; Fr 08:30-21:30; Sa 08:30-21:30; Su 08:30-21:00", "brand": "Coto", "brand:wikidata": "Q5175411", "nsi_id": "coto-0d2b84"}, "geometry": {"type": "Point", "coordinates": [-58.455577, -34.612342]}},
{"type": "Feature", "id": "ISF009GmFiLiDaF-LclNPxEYY08=", "properties": {"ref": "176", "@spider": "coto", "shop": "supermarket", "addr:full": "TEODORO GARCIA NN 2419", "addr:street": "TEODORO GARCIA NN 2419", "addr:country": "AR", "name": "Coto 176-BELGRANO", "phone": "4781-8717", "opening_hours": "Mo-Th 08:30-21:00; Fr 08:30-21:00; Sa 08:30-21:00; Su 08:30-14:00", "brand": "Coto", "brand:wikidata": "Q5175411", "nsi_id": "coto-0d2b84"}, "geometry": {"type": "Point", "coordinates": [-58.44622, -34.56989]}},
{"type": "Feature", "id": "gSwCfRPScrTTf0YaAhLf8IHmSgE=", "properties": {"ref": "101", "@spider": "coto", "shop": "supermarket", "addr:full": "AVELLANEDA Italia 62", "addr:street": "AVELLANEDA Italia 62", "addr:country": "AR", "name": "Coto 101-AVELLANEDA", "phone": "4222-6555", "opening_hours": "Mo-Th 08:30-21:00; Fr 08:30-21:00; Sa 08:30-21:00; Su 08:30-21:00", "brand": "Coto", "brand:wikidata": "Q5175411", "nsi_id": "coto-0d2b84"}, "geometry": {"type": "Point", "coordinates": [-58.362306, -34.665021]}},
{"type": "Feature", "id": "G3-77ZEWkLT84OIcE56P35Uwqvw=", "properties": {"ref": "2", "@spider": "coto", "shop": "supermarket", "addr:full": "PATERNAL Av. San Mart\u00edn 2095", "addr:street": "PATERNAL Av. San Mart\u00edn 2095", "addr:country": "AR", "name": "Coto 002-AV.SAN MARTIN", "phone": "4585-2244", "opening_hours": "Mo-Th 08:30-21:00; Fr 08:30-21:00; Sa 08:30-21:00; Su 08:30-21:00", "brand": "Coto", "brand:wikidata": "Q5175411", "nsi_id": "coto-0d2b84"}, "geometry": {"type": "Point", "coordinates": [-58.45862, -34.604648]}},
{"type": "Feature", "id": "8M28hiLWbqwZqEOyp8ilGkWc8F0=", "properties": {"ref": "60", "@spider": "coto", "shop": "supermarket", "addr:full": "FLORES Av. J. B. Alberdi 1737", "addr:street": "FLORES Av. J. B. Alberdi 1737", "addr:country": "AR", "name": "Coto 060-ALBERDI", "phone": "4631-0091", "opening_hours": "Mo-Th 08:30-21:00; Fr 08:30-21:30; Sa 08:30-21:30; Su 08:30-21:00", "brand": "Coto", "brand:wikidata": "Q5175411", "nsi_id": "coto-0d2b84"}, "geometry": {"type": "Point", "coordinates": [-58.453329, -34.628235]}},
{"type": "Feature", "id": "zhWpvPUZcBIqp0eXPZJvvSGYK7o=", "properties": {"ref": "40", "@spider": "coto", "shop": "supermarket", "addr:full": "FLORES Av. Eva Per\u00f3n 2202", "addr:street": "FLORES Av. Eva Per\u00f3n 2202", "addr:country": "AR", "name": "Coto 040-AV.DEL TRABAJO", "phone": "4631-6212", "opening_hours": "Mo-Th 08:30-21:00; Fr 08:30-21:00; Sa 08:30-21:00; Su 08:30-14:00", "brand": "Coto", "brand:wikidata": "Q5175411", "nsi_id": "coto-0d2b84"}, "geometry": {"type": "Point", "coordinates": [-58.452517, -34.638054]}},
{"type": "Feature", "id": "NejyTVWDVvGY3z8PBJqV54C8Q_g=", "properties": {"ref": "20", "@spider": "coto", "shop": "supermarket", "addr:full": "Elcano,Belgrano,Buenos Aires 3693", "addr:street": "Elcano,Belgrano,Buenos Aires 3693", "addr:country": "AR", "name": "Coto 020-AV EL CANO", "phone": "4553-4831", "opening_hours": "Mo-Th 08:30-21:00; Fr 08:30-21:00; Sa 08:30-21:00; Su off", "brand": "Coto", "brand:wikidata": "Q5175411", "nsi_id": "coto-0d2b84"}, "geometry": {"type": "Point", "coordinates": [-58.457998799999984, -34.5697974]}},
{"type": "Feature", "id": "ZgLqpbAgyFxD8wYL_wEdsau1jgc=", "properties": {"ref": "22", "@spider": "coto", "shop": "supermarket", "addr:full": "Elcano,Belgrano,Buenos Aires 3002", "addr:street": "Elcano,Belgrano,Buenos Aires 3002", "addr:country": "AR", "name": "Coto 022-ELCANO", "phone": "4554-4935", "opening_hours": "Mo-Th 08:30-21:00; Fr 08:30-21:30; Sa 08:30-21:30; Su 08:30-21:00", "brand": "Coto", "brand:wikidata": "Q5175411", "nsi_id": "coto-0d2b84"}, "geometry": {"type": "Point", "coordinates": [-58.457606999999996, -34.5689978]}},
{"type": "Feature", "id": "-4FwKTpcnhS4B4JjcFWo9gO0xN4=", "properties": {"ref": "48", "@spider": "coto", "shop": "supermarket", "addr:full": "FLORES Av. Directorio 2647", "addr:street": "FLORES Av. Directorio 2647", "addr:country": "AR", "name": "Coto 048-DIRECTORIO", "phone": "4611-1011", "opening_hours": "Mo-Th 08:30-21:00; Fr 08:30-21:00; Sa 08:30-21:00; Su 08:30-14:00", "brand": "Coto", "brand:wikidata": "Q5175411", "nsi_id": "coto-0d2b84"}, "geometry": {"type": "Point", "coordinates": [-58.464284, -34.634616]}},
{"type": "Feature", "id": "kxcLT0g2-rL7YXEcomDukZUwK4U=", "properties": {"ref": "47", "@spider": "coto", "shop": "supermarket", "addr:full": "BELGRANO Amen\u00e1bar 2134", "addr:street": "BELGRANO Amen\u00e1bar 2134", "addr:country": "AR", "name": "Coto 047-AMENABAR", "phone": "4786-6061", "opening_hours": "Mo-Th 08:30-21:00; Fr 08:30-21:30; Sa 08:30-21:30; Su 08:30-21:00", "brand": "Coto", "brand:wikidata": "Q5175411", "nsi_id": "coto-0d2b84"}, "geometry": {"type": "Point", "coordinates": [-58.458786, -34.563014]}},
{"type": "Feature", "id": "kgZVUALrsP9JX2y43mL-1wMCLFQ=", "properties": {"ref": "180", "@spider": "coto", "shop": "supermarket", "addr:full": "AV SAN PEDRITO 72", "addr:street": "AV SAN PEDRITO 72", "addr:country": "AR", "name": "Coto 180-SAN PEDRITO", "phone": "4612-0933/2500/2586", "opening_hours": "Mo-Th 08:30-21:00; Fr 08:30-21:30; Sa 08:30-21:30; Su off", "brand": "Coto", "brand:wikidata": "Q5175411", "nsi_id": "coto-0d2b84"}, "geometry": {"type": "Point", "coordinates": [-58.46921090000001, -34.6316975]}},
{"type": "Feature", "id": "pk45F6Rbr9a43dZvQPNwGj6tC8Y=", "properties": {"ref": "167", "@spider": "coto", "shop": "supermarket", "addr:full": "Av. Nazca 1250", "addr:street": "Av. Nazca 1250", "addr:country": "AR", "name": "Coto 167-FLORES", "phone": "4588-0736/1095", "opening_hours": "Mo-Th 08:30-21:00; Fr 08:30-21:30; Sa 08:30-21:30; Su 08:30-21:00", "brand": "Coto", "brand:wikidata": "Q5175411", "nsi_id": "coto-0d2b84"}, "geometry": {"type": "Point", "coordinates": [-58.475358, -34.618942]}},
{"type": "Feature", "id": "B5ifWme7KeAP3S8-F_lEK4Pag6c=", "properties": {"ref": "153", "@spider": "coto", "shop": "supermarket", "addr:full": "ALVAREZ JONTE 2502", "addr:street": "ALVAREZ JONTE 2502", "addr:country": "AR", "name": "Coto 153-JONTE", "phone": "4585-9494/9495", "opening_hours": "Mo-Th 08:30-21:00; Fr 08:30-21:30; Sa 08:30-21:30; Su 08:30-21:00", "brand": "Coto", "brand:wikidata": "Q5175411", "nsi_id": "coto-0d2b84"}, "geometry": {"type": "Point", "coordinates": [-58.477396, -34.607475]}},
{"type": "Feature", "id": "FcuEyYP9YxBQpY_pMP2uo0UwB3U=", "properties": {"ref": "170", "@spider": "coto", "shop": "supermarket", "addr:full": "AV DEL LIBERTADOR 6840", "addr:street": "AV DEL LIBERTADOR 6840", "addr:country": "AR", "name": "Coto 170-LIBERTADOR", "phone": "4896-4410/11/12", "opening_hours": "Mo-Th 08:30-21:00; Fr 08:30-21:30; Sa 08:30-21:30; Su 08:30-21:00", "brand": "Coto", "brand:wikidata": "Q5175411", "nsi_id": "coto-0d2b84"}, "geometry": {"type": "Point", "coordinates": [-58.454265, -34.549286]}},
{"type": "Feature", "id": "zcu1HxKoN6FfJiGEZgs59vgmTrQ=", "properties": {"ref": "44", "@spider": "coto", "shop": "supermarket", "addr:full": "BELGRANO Av. Monroe 3284", "addr:street": "BELGRANO Av. Monroe 3284", "addr:country": "AR", "name": "Coto 044-MONROE", "phone": "4542-0789", "opening_hours": "Mo-Th 08:30-21:00; Fr 08:30-21:30; Sa 08:30-21:30; Su 08:30-21:00", "brand": "Coto", "brand:wikidata": "Q5175411", "nsi_id": "coto-0d2b84"}, "geometry": {"type": "Point", "coordinates": [-58.467963, -34.563152]}},
{"type": "Feature", "id": "jjkiuIHExSlAH72egmaeeFLvMDs=", "properties": {"ref": "64", "@spider": "coto", "shop": "supermarket", "addr:full": "AVELLANEDA Av. Mitre 3300", "addr:street": "AVELLANEDA Av. Mitre 3300", "addr:country": "AR", "name": "Coto 064-SARANDI", "phone": "4205-7808", "opening_hours": "Mo-Th 08:30-21:00; Fr 08:30-21:30; Sa 08:30-21:30; Su 08:30-21:00", "brand": "Coto", "brand:wikidata": "Q5175411", "nsi_id": "coto-0d2b84"}, "geometry": {"type": "Point", "coordinates": [-58.341885, -34.682703]}},
{"type": "Feature", "id": "JIbp6q2UctUBV_TFTxeVbmjB7BU=", "properties": {"ref": "55", "@spider": "coto", "shop": "supermarket", "addr:full": "FLORESTA Av. Avellaneda 3758", "addr:street": "FLORESTA Av. Avellaneda 3758", "addr:country": "AR", "name": "Coto 055-AV. AVELLANEDA", "phone": "4671-7787", "opening_hours": "Mo-Th 08:30-21:00; Fr 08:30-21:00; Sa 08:30-21:00; Su 08:30-14:00", "brand": "Coto", "brand:wikidata": "Q5175411", "nsi_id": "coto-0d2b84"}, "geometry": {"type": "Point", "coordinates": [-58.481439, -34.628916]}},
{"type": "Feature", "id": "WV7qFi2UgYI5IcHWnFxFEPWhKIQ=", "properties": {"ref": "59", "@spider": "coto", "shop": "supermarket", "addr:full": "VILLA URQUIZA Av. Monroe 5055", "addr:street": "VILLA URQUIZA Av. Monroe 5055", "addr:country": "AR", "name": "Coto 059-URQUIZA", "phone": "4523-4965", "opening_hours": "Mo-Th 08:30-21:00; Fr 08:30-21:30; Sa 08:30-21:30; Su 08:30-21:00", "brand": "Coto", "brand:wikidata": "Q5175411", "nsi_id": "coto-0d2b84"}, "geometry": {"type": "Point", "coordinates": [-58.485976, -34.574157]}},
{"type": "Feature", "id": "1WJla4EW-ijZ4GES3UU0jApFzHg=", "properties": {"ref": "75", "@spider": "coto", "shop": "supermarket", "addr:full": "LANUS, Av. B. Rivadavia 2602", "addr:street": "LANUS, Av. B. Rivadavia 2602", "addr:country": "AR", "name": "Coto 075-LANUS", "phone": "4239-9300", "opening_hours": "Mo-Th 08:30-21:00; Fr 08:30-21:00; Sa 08:30-21:00; Su 08:30-21:00", "brand": "Coto", "brand:wikidata": "Q5175411", "nsi_id": "coto-0d2b84"}, "geometry": {"type": "Point", "coordinates": [-58.4200553894042, -34.6906929016113]}},
{"type": "Feature", "id": "JN31Gis_etr1zfs736fq3cCSdsM=", "properties": {"ref": "174", "@spider": "coto", "shop": "supermarket", "addr:full": "CULLEN 5085", "addr:street": "CULLEN 5085", "addr:country": "AR", "name": "Coto 174-CULLEM", "phone": "4522-3286", "opening_hours": "Mo-Th 08:30-21:00; Fr 08:30-21:00; Sa 08:30-21:00; Su 08:30-14:00", "brand": "Coto", "brand:wikidata": "Q5175411", "nsi_id": "coto-0d2b84"}, "geometry": {"type": "Point", "coordinates": [-58.487655, -34.572856]}},
{"type": "Feature", "id": "knc_8u29T4MUNMLIlKTvFW99bpQ=", "properties": {"ref": "108", "@spider": "coto", "shop": "supermarket", "addr:full": "NU\u00d1EZ A. Cabildo 4125", "addr:street": "NU\u00d1EZ A. Cabildo 4125", "addr:country": "AR", "name": "Coto 108-CABILDO", "phone": "4704-9300", "opening_hours": "Mo-Th 08:30-21:00; Fr 08:30-21:30; Sa 08:30-21:30; Su 08:30-21:00", "brand": "Coto", "brand:wikidata": "Q5175411", "nsi_id": "coto-0d2b84"}, "geometry": {"type": "Point", "coordinates": [-58.470531, -34.545839]}},
{"type": "Feature", "id": "yQ7HtDfS3n080cNVK8k2Of7w3a8=", "properties": {"ref": "85", "@spider": "coto", "shop": "supermarket", "addr:full": "MATADEROS Av. Eva Per\u00f3n 4730", "addr:street": "MATADEROS Av. Eva Per\u00f3n 4730", "addr:country": "AR", "name": "Coto 085-EVA PERON", "phone": "4635-4441", "opening_hours": "Mo-Th 08:30-21:00; Fr 08:30-21:00; Sa 08:30-21:00; Su 08:30-21:00", "brand": "Coto", "brand:wikidata": "Q5175411", "nsi_id": "coto-0d2b84"}, "geometry": {"type": "Point", "coordinates": [-58.47666, -34.65757]}},
{"type": "Feature", "id": "F5sOCjggKUmHyLscxQ2ahKI0DwE=", "properties": {"ref": "90", "@spider": "coto", "shop": "supermarket", "addr:full": "VILLA DEVOTO, AV. SEGUROLA 1701", "addr:street": "VILLA DEVOTO, AV. SEGUROLA 1701", "addr:country": "AR", "name": "Coto 090-GEORGALOS", "phone": "4566-9750", "opening_hours": "Mo-Th 08:30-21:00; Fr 08:30-21:30; Sa 08:30-21:30; Su 08:30-21:00", "brand": "Coto", "brand:wikidata": "Q5175411", "nsi_id": "coto-0d2b84"}, "geometry": {"type": "Point", "coordinates": [-58.500238, -34.619662]}},
{"type": "Feature", "id": "R2JGxlvq6pXCElQz4eME5z8XcCo=", "properties": {"ref": "181", "@spider": "coto", "shop": "supermarket", "addr:full": "Av. Ricardo Balb\u00edn  4027", "addr:street": "Av. Ricardo Balb\u00edn  4027", "addr:country": "AR", "name": "Coto 181-SAAVEDRA", "phone": "4-544-7106/ 7146/ 7207", "opening_hours": "Mo-Th 08:30-21:00; Fr 08:30-21:30; Sa 08:30-21:30; Su 08:30-21:00", "brand": "Coto", "brand:wikidata": "Q5175411", "nsi_id": "coto-0d2b84"}, "geometry": {"type": "Point", "coordinates": [-58.487003, -34.554914]}},
{"type": "Feature", "id": "SZXabJr4_nOWAteIo3SBFuje0rc=", "properties": {"ref": "121", "@spider": "coto", "shop": "supermarket", "addr:full": "Av Larrazabal,Villa Lugano,Buenos Aires 3443", "addr:street": "Av Larrazabal,Villa Lugano,Buenos Aires 3443", "addr:country": "AR", "name": "Coto 121-LARRAZABAL", "phone": "4601-4685/4784/5120", "opening_hours": "Mo-Th 08:30-21:00; Fr 08:30-21:00; Sa 08:30-21:00; Su 08:30-14:00", "brand": "Coto", "brand:wikidata": "Q5175411", "nsi_id": "coto-0d2b84"}, "geometry": {"type": "Point", "coordinates": [-58.47907529999998, -34.6711114]}},
{"type": "Feature", "id": "RWNwXxcbW8VVsFH6bhpkJb4aKWA=", "properties": {"ref": "83", "@spider": "coto", "shop": "supermarket", "addr:full": "VILLA LURO Av. Rivadavia 9840", "addr:street": "VILLA LURO Av. Rivadavia 9840", "addr:country": "AR", "name": "Coto 083-VILLA LURO", "phone": "4635-4415", "opening_hours": "Mo-Th 08:30-21:00; Fr 08:30-21:30; Sa 08:30-21:30; Su 08:30-14:00", "brand": "Coto", "brand:wikidata": "Q5175411", "nsi_id": "coto-0d2b84"}, "geometry": {"type": "Point", "coordinates": [-58.502547, -34.637785]}},
{"type": "Feature", "id": "FIYbqAIkdik5vBKv_jEhsVqhRy8=", "properties": {"ref": "52", "@spider": "coto", "shop": "supermarket", "addr:full": "VILLA DEVOTO Sanabria 3320", "addr:street": "VILLA DEVOTO Sanabria 3320", "addr:country": "AR", "name": "Coto 052-SANABRIA", "phone": "4504-1343", "opening_hours": "Mo-Th 08:30-21:00; Fr 08:30-21:00; Sa 08:30-21:00; Su 08:30-14:00", "brand": "Coto", "brand:wikidata": "Q5175411", "nsi_id": "coto-0d2b84"}, "geometry": {"type": "Point", "coordinates": [-58.510373, -34.606286]}},
{"type": "Feature", "id": "DrrLkD0IO6cWPfHs-2ze9EpNjxE=", "properties": {"ref": "110", "@spider": "coto", "shop": "supermarket", "addr:full": "VILLA LUGANO Soldado de la Frontera 5258", "addr:street": "VILLA LUGANO Soldado de la Frontera 5258", "addr:country": "AR", "name": "Coto 110-LUGANO", "phone": "4605-4070", "opening_hours": "Mo-Th 08:30-21:00; Fr 08:30-21:00; Sa 08:30-21:00; Su 08:30-14:00", "brand": "Coto", "brand:wikidata": "Q5175411", "nsi_id": "coto-0d2b84"}, "geometry": {"type": "Point", "coordinates": [-58.463305, -34.685791]}},
{"type": "Feature", "id": "KrTkRTjRk_wWHL8rKHa97g1Kec4=", "properties": {"ref": "125", "@spider": "coto", "shop": "supermarket", "addr:full": "Av Lope de Vega,Villa Luro,Buenos Aires 1742", "addr:street": "Av Lope de Vega,Villa Luro,Buenos Aires 1742", "addr:country": "AR", "name": "Coto 125-LOPE DE VEGA", "phone": "4639-0108", "opening_hours": "Mo-Th 08:30-21:00; Fr 08:30-21:00; Sa 08:30-21:00; Su 08:30-14:00", "brand": "Coto", "brand:wikidata": "Q5175411", "nsi_id": "coto-0d2b84"}, "geometry": {"type": "Point", "coordinates": [-58.51214970000001, -34.6239398]}},
{"type": "Feature", "id": "dCxwbP27NSNp70yXxIYAlA08nto=", "properties": {"ref": "37", "@spider": "coto", "shop": "supermarket", "addr:full": "Av Piedra Buena,Villa Riachuelo,Buenos Aires 4902", "addr:street": "Av Piedra Buena,Villa Riachuelo,Buenos Aires 4902", "addr:country": "AR", "name": "Coto 037-LUGANO", "phone": "4602-8499", "opening_hours": "Mo-Th 08:30-21:00; Fr 08:30-21:00; Sa 08:30-21:00; Su 08:30-14:00", "brand": "Coto", "brand:wikidata": "Q5175411", "nsi_id": "coto-0d2b84"}, "geometry": {"type": "Point", "coordinates": [-58.4753523, -34.6875564]}},
{"type": "Feature", "id": "6yjva_JIS6yDS-zVXGh2QjTV6Og=", "properties": {"ref": "35", "@spider": "coto", "shop": "supermarket", "addr:full": "Av Lope de Vega,Villa Real,Buenos Aires 2503", "addr:street": "Av Lope de Vega,Villa Real,Buenos Aires 2503", "addr:country": "AR", "name": "Coto 035-LOPEZ DE VEGA", "phone": "4568-1952", "opening_hours": "Mo-Th 08:30-21:00; Fr 08:30-21:00; Sa 08:30-21:00; Su off", "brand": "Coto", "brand:wikidata": "Q5175411", "nsi_id": "coto-0d2b84"}, "geometry": {"type": "Point", "coordinates": [-58.51936749999999, -34.6183616]}},
{"type": "Feature", "id": "u7p9fe2nQW1FBNhJnw4FhB-EOek=", "properties": {"ref": "92", "@spider": "coto", "shop": "supermarket", "addr:full": "VICENTE LOPEZ Av. Maip\u00fa 1758", "addr:street": "VICENTE LOPEZ Av. Maip\u00fa 1758", "addr:country": "AR", "name": "Coto 092-VTE LOPEZ", "phone": "4795-0702", "opening_hours": "Mo-Th 08:30-21:00; Fr 08:30-21:30; Sa 08:30-21:30; Su 08:30-21:00", "brand": "Coto", "brand:wikidata": "Q5175411", "nsi_id": "coto-0d2b84"}, "geometry": {"type": "Point", "coordinates": [-58.485506, -34.521857]}},
{"type": "Feature", "id": "QQKovHLCiUbyh7A6RgPZMJLhkms=", "properties": {"ref": "38", "@spider": "coto", "shop": "supermarket", "addr:full": "FLORIDA Av. San Mart\u00edn 3055", "addr:street": "FLORIDA Av. San Mart\u00edn 3055", "addr:country": "AR", "name": "Coto 038-FLORIDA", "phone": "4761-8297", "opening_hours": "Mo-Th 08:30-21:00; Fr 08:30-21:00; Sa 08:30-21:00; Su 08:30-21:00", "brand": "Coto", "brand:wikidata": "Q5175411", "nsi_id": "coto-0d2b84"}, "geometry": {"type": "Point", "coordinates": [-58.50215, -34.533007]}},
{"type": "Feature", "id": "3pDMVCreoKUzAvrMoUl6wbeDuTY=", "properties": {"ref": "186", "@spider": "coto", "shop": "supermarket", "addr:full": "Av. Hipolito Yrigoyen 6174", "addr:street": "Av. Hipolito Yrigoyen 6174", "addr:country": "AR", "name": "Coto 186-REMEDIO DE ESCALADA", "phone": "4248-3271/3272/3279", "opening_hours": "Mo-Th 08:30-21:00; Fr 08:30-21:00; Sa 08:30-21:00; Su 08:30-21:00", "brand": "Coto", "brand:wikidata": "Q5175411", "nsi_id": "coto-0d2b84"}, "geometry": {"type": "Point", "coordinates": [-58.395599, -34.72657]}},
{"type": "Feature", "id": "vgVJRJTHTeYTO6A2oRoUewjjMak=", "properties": {"ref": "39", "@spider": "coto", "shop": "supermarket", "addr:full": "Av Emilio Castro,Liniers,Buenos Aires 7661", "addr:street": "Av Emilio Castro,Liniers,Buenos Aires 7661", "addr:country": "AR", "name": "Coto 039-EMILIO CASTRO", "phone": "4642-9909", "opening_hours": "Mo-Th 08:30-21:00; Fr 08:30-21:00; Sa 08:30-21:00; Su 08:30-14:00", "brand": "Coto", "brand:wikidata": "Q5175411", "nsi_id": "coto-0d2b84"}, "geometry": {"type": "Point", "coordinates": [-58.524888499999975, -34.6563378]}},
{"type": "Feature", "id": "Q15HnmPSmENA-B2AZ6CqYzvuAn4=", "properties": {"ref": "57", "@spider": "coto", "shop": "supermarket", "addr:full": "SAN MART\u00cdN San Mart\u00edn 122", "addr:street": "SAN MART\u00cdN San Mart\u00edn 122", "addr:country": "AR", "name": "Coto 057-SAN MARTIN", "phone": "4752-5245", "opening_hours": "Mo-Th 08:30-21:00; Fr 08:30-21:00; Sa 08:30-21:00; Su 08:30-14:00", "brand": "Coto", "brand:wikidata": "Q5175411", "nsi_id": "coto-0d2b84"}, "geometry": {"type": "Point", "coordinates": [-58.535868, -34.579104]}},
{"type": "Feature", "id": "sy-Vj9_fvllMQr79c208_Or3eto=", "properties": {"ref": "71", "@spider": "coto", "shop": "supermarket", "addr:full": "OLIVOS Av. del Libertador 3100", "addr:street": "OLIVOS Av. del Libertador 3100", "addr:country": "AR", "name": "Coto 071-OLIVOS TREN DE LA COSTA", "phone": "4790-7616", "opening_hours": "Mo-Th Cerrado; Fr Cerrado; Sa Cerrado; Su off", "brand": "Coto", "brand:wikidata": "Q5175411", "nsi_id": "coto-0d2b84"}, "geometry": {"type": "Point", "coordinates": [-58.482319, -34.501465]}},
{"type": "Feature", "id": "Nkdhemi-d2GkctyQ382ooBZkFYw=", "properties": {"ref": "111", "@spider": "coto", "shop": "supermarket", "addr:full": "SAN MART\u00cdN Av. Balb\u00edn 2030", "addr:street": "SAN MART\u00cdN Av. Balb\u00edn 2030", "addr:country": "AR", "name": "Coto 111-SAN MARTIN RUTA 8", "phone": "4754-1640", "opening_hours": "Mo-Th 08:30-21:00; Fr 08:30-21:00; Sa 08:30-21:00; Su 08:30-21:00", "brand": "Coto", "brand:wikidata": "Q5175411", "nsi_id": "coto-0d2b84"}, "geometry": {"type": "Point", "coordinates": [-58.541666, -34.581072]}},
{"type": "Feature", "id": "d6Rx52HY9ego2G9tvTGCzXhJkls=", "properties": {"ref": "53", "@spider": "coto", "shop": "supermarket", "addr:full": "SANTOS LUGARES Av. La Plata 3635", "addr:street": "SANTOS LUGARES Av. La Plata 3635", "addr:country": "AR", "name": "Coto 053-SANTOS LUGARES", "phone": "4757-0808", "opening_hours": "Mo-Th 08:30-21:00; Fr 08:30-21:00; Sa 08:30-21:00; Su 08:30-14:00", "brand": "Coto", "brand:wikidata": "Q5175411", "nsi_id": "coto-0d2b84"}, "geometry": {"type": "Point", "coordinates": [-58.544943, -34.599566]}},
{"type": "Feature", "id": "w0f9GyeFaqxAQciYC9lXytmLXBU=", "properties": {"ref": "188", "@spider": "coto", "shop": "supermarket", "addr:full": "Av. Btme Mitre 2800", "addr:street": "Av. Btme Mitre 2800", "addr:country": "AR", "name": "Coto 188-MUNRO", "phone": "4762-5381 / 4756-4528", "opening_hours": "Mo-Th 08:30-21:00; Fr 08:30-21:30; Sa 08:30-21:30; Su 08:30-21:00", "brand": "Coto", "brand:wikidata": "Q5175411", "nsi_id": "coto-0d2b84"}, "geometry": {"type": "Point", "coordinates": [-58.518, -34.527]}},
{"type": "Feature", "id": "-mqF-WMblA8_1eaF6xx-SwDLzIM=", "properties": {"ref": "130", "@spider": "coto", "shop": "supermarket", "addr:full": "BERNAL Av. Dardo Rocha 251", "addr:street": "BERNAL Av. Dardo Rocha 251", "addr:country": "AR", "name": "Coto 130-BERNAL", "phone": "4251-5950", "opening_hours": "Mo-Th 08:30-21:00; Fr 08:30-21:00; Sa 08:30-21:00; Su 08:30-14:00", "brand": "Coto", "brand:wikidata": "Q5175411", "nsi_id": "coto-0d2b84"}, "geometry": {"type": "Point", "coordinates": [-58.29113, -34.719048]}},
{"type": "Feature", "id": "bpjo7e4fnCMRe33iKL5fmnfLW18=", "properties": {"ref": "94", "@spider": "coto", "shop": "supermarket", "addr:full": "TAPIALES Boulogne Sur Mer esq. 0", "addr:street": "TAPIALES Boulogne Sur Mer esq. 0", "addr:country": "AR", "name": "Coto 094-TAPIALES", "phone": "4462-1810", "opening_hours": "Mo-Th 08:30-21:00; Fr 08:30-21:00; Sa 08:30-21:00; Su 08:30-21:00", "brand": "Coto", "brand:wikidata": "Q5175411", "nsi_id": "coto-0d2b84"}, "geometry": {"type": "Point", "coordinates": [-58.4988327026367, -34.7034187316894]}},
{"type": "Feature", "id": "QLTzb5xk1fL5-UG1xUk-TZnyyQ0=", "properties": {"ref": "129", "@spider": "coto", "shop": "supermarket", "addr:full": "CIUDADELA Comesa\u00f1a s/n 0", "addr:street": "CIUDADELA Comesa\u00f1a s/n 0", "addr:country": "AR", "name": "Coto 129-CIUDADELA", "phone": "4657-5539", "opening_hours": "Mo-Th 08:00-21:00; Fr 08:00-21:30; Sa 08:00-21:30; Su 08:00-21:00", "brand": "Coto", "brand:wikidata": "Q5175411", "nsi_id": "coto-0d2b84"}, "geometry": {"type": "Point", "coordinates": [-58.548529, -34.628918]}},
{"type": "Feature", "id": "CW_EYZBbkz9IJnR84TY13FEF1Nw=", "properties": {"ref": "183", "@spider": "coto", "shop": "supermarket", "addr:full": "Irigoyen  8000", "addr:street": "Irigoyen  8000", "addr:country": "AR", "name": "Coto 183-BANFIELD", "phone": "4202-0347 / 3077", "opening_hours": "Mo-Th 08:30-21:00; Fr 08:30-21:30; Sa 08:30-21:30; Su 08:30-21:00", "brand": "Coto", "brand:wikidata": "Q5175411", "nsi_id": "coto-0d2b84"}, "geometry": {"type": "Point", "coordinates": [-58.400223, -34.749424]}},
{"type": "Feature", "id": "bQx4x2Tal1qJt8QQqdfT2dk5nqc=", "properties": {"ref": "65", "@spider": "coto", "shop": "supermarket", "addr:full": "QUILMES Hip\u00f3lito Yrigoyen 380", "addr:street": "QUILMES Hip\u00f3lito Yrigoyen 380", "addr:country": "AR", "name": "Coto 065-QUILMES", "phone": "4224-6054", "opening_hours": "Mo-Th 08:30-21:00; Fr 08:30-21:30; Sa 08:30-21:30; Su 08:30-21:00", "brand": "Coto", "brand:wikidata": "Q5175411", "nsi_id": "coto-0d2b84"}, "geometry": {"type": "Point", "coordinates": [-58.263357, -34.719271]}},
{"type": "Feature", "id": "5254M_IFza-wrVEuszg6nJNdSHE=", "properties": {"ref": "164", "@spider": "coto", "shop": "supermarket", "addr:full": "Jos\u00e9 Hernandez 2965", "addr:street": "Jos\u00e9 Hernandez 2965", "addr:country": "AR", "name": "Coto 164-VILLA BALLESTER", "phone": "4767-6404/6401", "opening_hours": "Mo-Th 08:30-21:00; Fr 08:30-21:30; Sa 08:30-21:30; Su 08:30-14:00", "brand": "Coto", "brand:wikidata": "Q5175411", "nsi_id": "coto-0d2b84"}, "geometry": {"type": "Point", "coordinates": [-58.555314599999974, -34.5526245]}},
{"type": "Feature", "id": "n8AT3AHTb548qujn_EAAN_06Z6c=", "properties": {"ref": "51", "@spider": "coto", "shop": "supermarket", "addr:full": "RAMOS MEJ\u00cdA Av. Rivadavia 13810", "addr:street": "RAMOS MEJ\u00cdA Av. Rivadavia 13810", "addr:country": "AR", "name": "Coto 051-RAMOS MEJIA", "phone": "4656-6497", "opening_hours": "Mo-Th 08:30-21:00; Fr 08:30-21:00; Sa 08:30-21:00; Su 08:30-21:00", "brand": "Coto", "brand:wikidata": "Q5175411", "nsi_id": "coto-0d2b84"}, "geometry": {"type": "Point", "coordinates": [-58.5611572265625, -34.6406631469726]}},
{"type": "Feature", "id": "RtbWNnhYGSrEFSMWsGeK89EyGWw=", "properties": {"ref": "104", "@spider": "coto", "shop": "supermarket", "addr:full": "QUILMES Av. Calchaqu\u00ed 1740", "addr:street": "QUILMES Av. Calchaqu\u00ed 1740", "addr:country": "AR", "name": "Coto 104-QUILMES", "phone": "4250-7066", "opening_hours": "Mo-Th 08:30-21:00; Fr 08:30-21:00; Sa 08:30-21:00; Su 08:30-14:00", "brand": "Coto", "brand:wikidata": "Q5175411", "nsi_id": "coto-0d2b84"}, "geometry": {"type": "Point", "coordinates": [-58.289502, -34.742231]}},
{"type": "Feature", "id": "zZmSR1PA5PsxbyafRpJ3zNhtXBY=", "properties": {"ref": "235", "@spider": "coto", "shop": "supermarket", "addr:full": "QUILMES-HUMBERTO PRIMO 165", "addr:street": "QUILMES-HUMBERTO PRIMO 165", "addr:country": "AR", "name": "Coto 235-QUILMES CENTRO", "opening_hours": "Mo-Th 08:30-21:00; Fr 08:30-21:30; Sa 08:30-21:30; Su 08:30-21:00", "brand": "Coto", "brand:wikidata": "Q5175411", "nsi_id": "coto-0d2b84"}, "geometry": {"type": "Point", "coordinates": [-58.256138899999996, -34.7247168]}},
{"type": "Feature", "id": "1UIOgXqXIos1TRPitw2uvczkDys=", "properties": {"ref": "67", "@spider": "coto", "shop": "supermarket", "addr:full": "ACASSUSO Albarellos 854", "addr:street": "ACASSUSO Albarellos 854", "addr:country": "AR", "name": "Coto 067-ALBARELLOS", "phone": "4793-9249", "opening_hours": "Mo-Th 08:30-21:00; Fr 08:30-21:00; Sa 08:30-21:00; Su 08:30-21:00", "brand": "Coto", "brand:wikidata": "Q5175411", "nsi_id": "coto-0d2b84"}, "geometry": {"type": "Point", "coordinates": [-58.50557, -34.480241]}},
{"type": "Feature", "id": "E6_AEFS8ZxjE1xvfSnriryZzgkw=", "properties": {"ref": "70", "@spider": "coto", "shop": "supermarket", "addr:full": "SAN ISIDRO Lasalle 653", "addr:street": "SAN ISIDRO Lasalle 653", "addr:country": "AR", "name": "Coto 070-SAN ISIDRO TREN DE LA COSTA", "phone": "4732-1552", "opening_hours": "Mo-Th 08:30-21:00; Fr 08:30-21:00; Sa 08:30-21:00; Su 08:30-21:00", "brand": "Coto", "brand:wikidata": "Q5175411", "nsi_id": "coto-0d2b84"}, "geometry": {"type": "Point", "coordinates": [-58.509417, -34.465661]}},
{"type": "Feature", "id": "XmBRBX1QCRgCzsg8yVtKRLZDpFI=", "properties": {"ref": "68", "@spider": "coto", "shop": "supermarket", "addr:full": "LOMAS DE SAN ISIDRO Jorge Newbery 555", "addr:street": "LOMAS DE SAN ISIDRO Jorge Newbery 555", "addr:country": "AR", "name": "Coto 068-LAS LOMAS", "phone": "4723-5095", "opening_hours": "Mo-Th 08:30-21:00; Fr 08:30-21:00; Sa 08:30-21:00; Su 08:30-21:00", "brand": "Coto", "brand:wikidata": "Q5175411", "nsi_id": "coto-0d2b84"}, "geometry": {"type": "Point", "coordinates": [-58.537726, -34.480456]}},
{"type": "Feature", "id": "ExdtqAG3_1r4zfm9WqGJLvYirWU=", "properties": {"ref": "107", "@spider": "coto", "shop": "supermarket", "addr:full": "TEMPERLEY H. Yrigoyen 10699", "addr:street": "TEMPERLEY H. Yrigoyen 10699", "addr:country": "AR", "name": "Coto 107-TEMPERLEY", "phone": "4239-3000", "opening_hours": "Mo-Th 08:30-21:00; Fr 08:30-21:30; Sa 08:30-21:30; Su 08:30-21:00", "brand": "Coto", "brand:wikidata": "Q5175411", "nsi_id": "coto-0d2b84"}, "geometry": {"type": "Point", "coordinates": [-58.406648, -34.781765]}},
{"type": "Feature", "id": "Vs0cbq-5L2S-QuM8QDFY-wA_zI8=", "properties": {"ref": "69", "@spider": "coto", "shop": "supermarket", "addr:full": "PUNTA CHICA Av. del Libertador 18213", "addr:street": "PUNTA CHICA Av. del Libertador 18213", "addr:country": "AR", "name": "Coto 069-PUNTA CHICA", "phone": "4747-2707", "opening_hours": "Mo-Th 08:30-21:00; Fr 08:30-21:00; Sa 08:30-21:00; Su 08:30-21:00", "brand": "Coto", "brand:wikidata": "Q5175411", "nsi_id": "coto-0d2b84"}, "geometry": {"type": "Point", "coordinates": [-58.527112, -34.452791]}},
{"type": "Feature", "id": "PDKtfP3GpDMxsVLKnRBY4wMNsMg=", "properties": {"ref": "192", "@spider": "coto", "shop": "supermarket", "addr:full": "nd 0", "addr:street": "nd 0", "addr:country": "AR", "name": "Coto 192-SAN FERNANDO", "phone": "4519-9757/73/79/9933/38/44/48", "opening_hours": "Mo-Th 08:00-21:00; Fr 08:00-21:30; Sa 08:00-21:30; Su 08:00-21:00", "brand": "Coto", "brand:wikidata": "Q5175411", "nsi_id": "coto-0d2b84"}, "geometry": {"type": "Point", "coordinates": [-58.574853, -34.474499]}},
{"type": "Feature", "id": "M6HvobwBRDzKmUQFIrFjfk1eXjM=", "properties": {"ref": "215", "@spider": "coto", "shop": "supermarket", "addr:full": "GRAL JUAN JOSE VALLE 51", "addr:street": "GRAL JUAN JOSE VALLE 51", "addr:country": "AR", "name": "Coto 215-MORON", "phone": "4489-5462/0118 - 4483-3511", "opening_hours": "Mo-Th 08:30-21:00; Fr 08:30-21:00; Sa 08:30-21:00; Su 08:30-21:00", "brand": "Coto", "brand:wikidata": "Q5175411", "nsi_id": "coto-0d2b84"}, "geometry": {"type": "Point", "coordinates": [-58.62523620000002, -34.6487503]}},
{"type": "Feature", "id": "gSnUdofTRv4UO9lOBZqj5sdtvP4=", "properties": {"ref": "105", "@spider": "coto", "shop": "supermarket", "addr:full": "MONTE GRANDE Boulevard Bs. As. 710", "addr:street": "MONTE GRANDE Boulevard Bs. As. 710", "addr:country": "AR", "name": "Coto 105-MONTE GRANDE", "phone": "4281-8435 / 8380", "opening_hours": "Mo-Th 08:30-21:00; Fr 08:30-21:30; Sa 08:30-21:30; Su 08:30-21:00", "brand": "Coto", "brand:wikidata": "Q5175411", "nsi_id": "coto-0d2b84"}, "geometry": {"type": "Point", "coordinates": [-58.457076, -34.814747]}},
{"type": "Feature", "id": "gpLRAIi9umeIhdygkS5B2taSEhI=", "properties": {"ref": "199", "@spider": "coto", "shop": "supermarket", "addr:full": "SANTA ROSA 1753/65", "addr:street": "SANTA ROSA 1753/65", "addr:country": "AR", "name": "Coto 199-CASTELAR", "phone": "4624-2933/4624-2257/4624-3836/4623-7496/4623-9307", "opening_hours": "Mo-Th 08:30-21:00; Fr 08:30-21:30; Sa 08:30-21:30; Su 08:30-21:00", "brand": "Coto", "brand:wikidata": "Q5175411", "nsi_id": "coto-0d2b84"}, "geometry": {"type": "Point", "coordinates": [-58.656038799999976, -34.6406079]}},
{"type": "Feature", "id": "8jztUESSNdQeAJJYvYOQU-yCFzE=", "properties": {"ref": "123", "@spider": "coto", "shop": "supermarket", "addr:full": "BELLA VISTA Av. O Higgins 1280", "addr:street": "BELLA VISTA Av. O Higgins 1280", "addr:country": "AR", "name": "Coto 123-BELLA VISTA", "phone": "4668-2636", "opening_hours": "Mo-Th 08:30-21:00; Fr 08:30-21:00; Sa 08:30-21:00; Su 08:30-14:00", "brand": "Coto", "brand:wikidata": "Q5175411", "nsi_id": "coto-0d2b84"}, "geometry": {"type": "Point", "coordinates": [-58.682875, -34.572497]}},
{"type": "Feature", "id": "SnAprpBwvCnByfP_k185lOKKfks=", "properties": {"ref": "13", "@spider": "coto", "shop": "supermarket", "addr:full": "Ruta Nacional 3,Gonzalez Catan,Buenos Aires 4440", "addr:street": "Ruta Nacional 3,Gonzalez Catan,Buenos Aires 4440", "addr:country": "AR", "name": "Coto 013-RUTA 3", "phone": "02202-495279", "opening_hours": "Mo-Th 08:30-21:00; Fr 08:30-21:00; Sa 08:30-21:00; Su 08:00-14:00", "brand": "Coto", "brand:wikidata": "Q5175411", "nsi_id": "coto-0d2b84"}, "geometry": {"type": "Point", "coordinates": [-58.621931, -34.774825]}},
{"type": "Feature", "id": "tQxa9MzVuYu4XazU4vg1sLq4xLA=", "properties": {"ref": "189", "@spider": "coto", "shop": "supermarket", "addr:full": "Av. Ruta 205 Entre 52 y Reconquista 1", "addr:street": "Av. Ruta 205 Entre 52 y Reconquista 1", "addr:country": "AR", "name": "Coto 189-EZEIZA", "phone": "4389-5251 / 4389-5252", "opening_hours": "Mo-Th 08:30-21:00; Fr 08:30-21:30; Sa 08:30-21:30; Su 08:30-21:00", "brand": "Coto", "brand:wikidata": "Q5175411", "nsi_id": "coto-0d2b84"}, "geometry": {"type": "Point", "coordinates": [-58.507372, -34.844866]}},
{"type": "Feature", "id": "Tmyzs9oZIWdFGgxFqiuLmMjaWFQ=", "properties": {"ref": "208", "@spider": "coto", "shop": "supermarket", "addr:full": "MERLO, AV PTE J. D. PERON 24080", "addr:street": "MERLO, AV PTE J. D. PERON 24080", "addr:country": "AR", "name": "Coto 208-MERLO", "phone": "0220-4855371/6522/8044/7429/7097/7501", "opening_hours": "Mo-Th 08:30-21:00; Fr 08:30-21:30; Sa 08:30-21:30; Su 08:30-21:00", "brand": "Coto", "brand:wikidata": "Q5175411", "nsi_id": "coto-0d2b84"}, "geometry": {"type": "Point", "coordinates": [-58.703600600000016, -34.6664477]}},
{"type": "Feature", "id": "vekqqFHC-NH4nzyUUn9SUBsIk3s=", "properties": {"ref": "131", "@spider": "coto", "shop": "supermarket", "addr:full": "JOSE C. PAZ H. Yrigoyen 1826", "addr:street": "JOSE C. PAZ H. Yrigoyen 1826", "addr:country": "AR", "name": "Coto 131-JOSE C. PAZ", "phone": "02320-428689", "opening_hours": "Mo-Th 08:30-21:00; Fr 08:30-21:30; Sa 08:30-21:30; Su 08:30-21:00", "brand": "Coto", "brand:wikidata": "Q5175411", "nsi_id": "coto-0d2b84"}, "geometry": {"type": "Point", "coordinates": [-58.756002, -34.518699]}},
{"type": "Feature", "id": "nhjqAowwTcRbzYF6K061FnlRKV8=", "properties": {"ref": "184", "@spider": "coto", "shop": "supermarket", "addr:full": "PANAMERICANA KM36 1", "addr:street": "PANAMERICANA KM36 1", "addr:country": "AR", "name": "Coto 184-MALVINAS ARGENTINAS", "phone": "03327-444023 al 29/34/35/36/37", "opening_hours": "Mo-Th 08:30-21:00; Fr 08:30-21:30; Sa 08:30-21:30; Su 08:30-21:00", "brand": "Coto", "brand:wikidata": "Q5175411", "nsi_id": "coto-0d2b84"}, "geometry": {"type": "Point", "coordinates": [-58.73067, -34.453233]}},
{"type": "Feature", "id": "R8IN4AZudJQCW8kDk4GvQSHnZXs=", "properties": {"ref": "171", "@spider": "coto", "shop": "supermarket", "addr:full": "AV SARMIENTO (RUTA 205) 524", "addr:street": "AV SARMIENTO (RUTA 205) 524", "addr:country": "AR", "name": "Coto 171-TRISTAN SUAREZ", "phone": "4234-2127 4386-1573", "opening_hours": "Mo-Th 08:30-21:00; Fr 08:30-21:30; Sa 08:30-21:30; Su 08:30-21:00", "brand": "Coto", "brand:wikidata": "Q5175411", "nsi_id": "coto-0d2b84"}, "geometry": {"type": "Point", "coordinates": [-58.572266, -34.893083]}},
{"type": "Feature", "id": "RXZA28lyWvhORtJo1ZWIaikGtJc=", "properties": {"ref": "162", "@spider": "coto", "shop": "supermarket", "addr:full": "jjj 888", "addr:street": "jjj 888", "addr:country": "AR", "name": "Coto 162-TORTUGUITAS", "phone": "02320-623-534/535", "opening_hours": "Mo-Th 08:30-21:00; Fr 08:30-21:00; Sa 08:30-21:00; Su 08:30-21:00", "brand": "Coto", "brand:wikidata": "Q5175411", "nsi_id": "coto-0d2b84"}, "geometry": {"type": "Point", "coordinates": [-58.744187, -34.460679]}},
{"type": "Feature", "id": "NF9v206qEy_S24hHA5SjajfmjkU=", "properties": {"ref": "197", "@spider": "coto", "shop": "supermarket", "addr:full": "AV GRAL MANUEL BELGRANO 950", "addr:street": "AV GRAL MANUEL BELGRANO 950", "addr:country": "AR", "name": "Coto 197-GARIN", "phone": "0348-4624625/64/74 - 4624381 - 4624417/32-34", "opening_hours": "Mo-Th 08:30-21:00; Fr 08:30-21:30; Sa 08:30-21:30; Su 08:30-21:00", "brand": "Coto", "brand:wikidata": "Q5175411", "nsi_id": "coto-0d2b84"}, "geometry": {"type": "Point", "coordinates": [-58.7255946, -34.4179366]}},
{"type": "Feature", "id": "J8zoGgJFzcw1BX6djmqMohEziS0=", "properties": {"ref": "219", "@spider": "coto", "shop": "supermarket", "addr:full": "MORENO, AV VICTORICA 660", "addr:street": "MORENO, AV VICTORICA 660", "addr:country": "AR", "name": "Coto 219-MORENO", "phone": "0237-462-4941/7410/9163/4624/6033/9351", "opening_hours": "Mo-Th 08:30-21:00; Fr 08:30-21:30; Sa 08:30-21:30; Su 08:30-21:00", "brand": "Coto", "brand:wikidata": "Q5175411", "nsi_id": "coto-0d2b84"}, "geometry": {"type": "Point", "coordinates": [-58.79411649999997, -34.6407405]}},
{"type": "Feature", "id": "EkFTWL6BCpIF7LpoEE-S2PXZ0Ik=", "properties": {"ref": "155", "@spider": "coto", "shop": "supermarket", "addr:full": "HIGHLAND PARK E/LOS JAZMINES Y LAS CAMPANILLAS 1", "addr:street": "HIGHLAND PARK E/LOS JAZMINES Y LAS CAMPANILLAS 1", "addr:country": "AR", "name": "Coto 155-HIGHLAND PARK", "phone": "02320-476471/470179", "opening_hours": "Mo-Th 08:30-21:00; Fr 08:30-21:00; Sa 08:30-21:00; Su 08:30-21:00", "brand": "Coto", "brand:wikidata": "Q5175411", "nsi_id": "coto-0d2b84"}, "geometry": {"type": "Point", "coordinates": [-58.794678, -34.419958]}},
{"type": "Feature", "id": "fuatSqDfrc67JrMh8Ln071o8C7o=", "properties": {"ref": "154", "@spider": "coto", "shop": "supermarket", "addr:full": "TAPIA DE CRUZ 420", "addr:street": "TAPIA DE CRUZ 420", "addr:country": "AR", "name": "Coto 154-ESCOBAR", "phone": "03488-43-0957", "opening_hours": "Mo-Th 08:30-21:00; Fr 08:30-21:30; Sa 08:30-21:30; Su 08:30-21:00", "brand": "Coto", "brand:wikidata": "Q5175411", "nsi_id": "coto-0d2b84"}, "geometry": {"type": "Point", "coordinates": [-58.792841, -34.345578]}},
{"type": "Feature", "id": "APQuojbTK-f51LqZ44Ch7KkEE1A=", "properties": {"ref": "149", "@spider": "coto", "shop": "supermarket", "addr:full": "LA PLATA Calle 43 entr 10 y 11 782", "addr:street": "LA PLATA Calle 43 entr 10 y 11 782", "addr:country": "AR", "name": "Coto 149-LA PLATA", "phone": "0221-4221824", "opening_hours": "Mo-Th 08:30-21:00; Fr 08:30-21:00; Sa 08:30-21:00; Su 08:30-21:00", "brand": "Coto", "brand:wikidata": "Q5175411", "nsi_id": "coto-0d2b84"}, "geometry": {"type": "Point", "coordinates": [-57.960182, -34.913282]}},
{"type": "Feature", "id": "2gDeiPT1WMzVYtQZFfUm77XzOtM=", "properties": {"ref": "117", "@spider": "coto", "shop": "supermarket", "addr:full": "CAMPANA J. M. Estrada 878", "addr:street": "CAMPANA J. M. Estrada 878", "addr:country": "AR", "name": "Coto 117-CAMPANA", "phone": "03489-439461", "opening_hours": "Mo-Th 08:30-21:00; Fr 08:30-21:30; Sa 08:30-21:30; Su 08:30-21:00", "brand": "Coto", "brand:wikidata": "Q5175411", "nsi_id": "coto-0d2b84"}, "geometry": {"type": "Point", "coordinates": [-58.960414, -34.165403]}},
{"type": "Feature", "id": "p634G8Ae719SbthauLqlbVG9WXc=", "properties": {"ref": "204", "@spider": "coto", "shop": "supermarket", "addr:full": "RUTA 11 KM 330 330", "addr:street": "RUTA 11 KM 330 330", "addr:country": "AR", "name": "Coto 204-MAR DEL TUYU", "phone": "4586-7940", "opening_hours": "Mo-Th 08:30-21:00; Fr 08:30-21:00; Sa 08:30-21:30; Su 09:00-21:00", "brand": "Coto", "brand:wikidata": "Q5175411", "nsi_id": "coto-0d2b84"}, "geometry": {"type": "Point", "coordinates": [-56.7173456549649, -36.5817680301218]}},
{"type": "Feature", "id": "Xl2BPnFl24BTi-H4mZOuM675Wcc=", "properties": {"ref": "99", "@spider": "coto", "shop": "supermarket", "addr:full": "CENTRO Tres de Febrero 1602", "addr:street": "CENTRO Tres de Febrero 1602", "addr:country": "AR", "name": "Coto 099-ROSARIO (3 DE FEBRERO)", "phone": "0341-4254913", "opening_hours": "Mo-Th 08:30-21:00; Fr 08:30-21:00; Sa 08:30-21:00; Su 08:30-21:00", "brand": "Coto", "brand:wikidata": "Q5175411", "nsi_id": "coto-0d2b84"}, "geometry": {"type": "Point", "coordinates": [-60.646059, -32.95193]}},
{"type": "Feature", "id": "wqMqEza97SOHJkEKxZvPLW3aCiE=", "properties": {"ref": "97", "@spider": "coto", "shop": "supermarket", "addr:full": "CENTRO Urquiza 1644", "addr:street": "CENTRO Urquiza 1644", "addr:country": "AR", "name": "Coto 097-ROSARIO (URQUIZA)", "phone": "0341-440-7475", "opening_hours": "Mo-Th 08:30-21:00; Fr 08:30-21:00; Sa 08:30-21:00; Su 08:30-21:00", "brand": "Coto", "brand:wikidata": "Q5175411", "nsi_id": "coto-0d2b84"}, "geometry": {"type": "Point", "coordinates": [-60.644549, -32.942031]}},
{"type": "Feature", "id": "AA5qBGzpxa5zbuHK049-70nfXO8=", "properties": {"ref": "95", "@spider": "coto", "shop": "supermarket", "addr:full": "B\u00b0 ECHESORTU Mendoza 3901", "addr:street": "B\u00b0 ECHESORTU Mendoza 3901", "addr:country": "AR", "name": "Coto 095-ROSARIO (MENDOZA-LA REINA)", "phone": "0341-4389283", "opening_hours": "Mo-Th 08:30-21:00; Fr 08:30-21:00; Sa 08:30-21:00; Su 08:30-21:00", "brand": "Coto", "brand:wikidata": "Q5175411", "nsi_id": "coto-0d2b84"}, "geometry": {"type": "Point", "coordinates": [-60.677228, -32.945357]}},
{"type": "Feature", "id": "xiYM4EVZsSNaLpvQOJZ9ALRg6_c=", "properties": {"ref": "49", "@spider": "coto", "shop": "supermarket", "addr:full": "MAR DE AJ\u00d3 Libertador San Mart\u00edn 251", "addr:street": "MAR DE AJ\u00d3 Libertador San Mart\u00edn 251", "addr:country": "AR", "name": "Coto 049-MAR DE AJO", "phone": "02257-420229", "opening_hours": "Mo-Th 08:30-21:00; Fr 08:30-21:00; Sa 08:30-21:30; Su 09:00-21:00", "brand": "Coto", "brand:wikidata": "Q5175411", "nsi_id": "coto-0d2b84"}, "geometry": {"type": "Point", "coordinates": [-56.676649, -36.721442]}},
{"type": "Feature", "id": "gpWRLZIhp6DWKDWorA13nuSwcjk=", "properties": {"ref": "165", "@spider": "coto", "shop": "supermarket", "addr:full": "Junin 590", "addr:street": "Junin 590", "addr:country": "AR", "name": "Coto 165-ROSARIO (TALLERES)", "phone": "0341-435-7060", "opening_hours": "Mo-Th 08:30-21:00; Fr 08:30-21:00; Sa 08:30-21:00; Su 08:30-21:00", "brand": "Coto", "brand:wikidata": "Q5175411", "nsi_id": "coto-0d2b84"}, "geometry": {"type": "Point", "coordinates": [-60.671489, -32.927225]}},
{"type": "Feature", "id": "rAcTsk5LBlUBBD2Y_hr20vQe7cs=", "properties": {"ref": "96", "@spider": "coto", "shop": "supermarket", "addr:full": "FISHERTON Circunvalaci\u00f3n y C\u00f3rdoba 0", "addr:street": "FISHERTON Circunvalaci\u00f3n y C\u00f3rdoba 0", "addr:country": "AR", "name": "Coto 096-FISHERTON ROSARIO", "phone": "0341-4514583", "opening_hours": "Mo-Th 08:30-21:00; Fr 08:30-21:00; Sa 08:30-21:00; Su 08:30-21:00", "brand": "Coto", "brand:wikidata": "Q5175411", "nsi_id": "coto-0d2b84"}, "geometry": {"type": "Point", "coordinates": [-60.724663, -32.928038]}},
{"type": "Feature", "id": "tFXfrtDqC5CxCPrYN3QlmIHk9BU=", "properties": {"ref": "178", "@spider": "coto", "shop": "supermarket", "addr:full": "RUTA 11 KM 404  404", "addr:street": "RUTA 11 KM 404  404", "addr:country": "AR", "name": "Coto 178-MADARIAGA", "phone": "02254-571824/26/27/30", "opening_hours": "Mo-Th 08:30-21:00; Fr 08:30-21:00; Sa 08:30-21:30; Su 09:00-21:00", "brand": "Coto", "brand:wikidata": "Q5175411", "nsi_id": "coto-0d2b84"}, "geometry": {"type": "Point", "coordinates": [-56.951625, -37.185485]}},
{"type": "Feature", "id": "4B-S_Sa9Jkf-sRhgyh0lf_-moD4=", "properties": {"ref": "109", "@spider": "coto", "shop": "supermarket", "addr:full": "PARAN\u00c1 Cnel. Juan M. Pir\u00e1n 801", "addr:street": "PARAN\u00c1 Cnel. Juan M. Pir\u00e1n 801", "addr:country": "AR", "name": "Coto 109-PARANA", "phone": "0343-422-0224", "opening_hours": "Mo-Th 08:30-21:00; Fr 08:30-21:30; Sa 08:30-21:30; Su 08:30-21:00", "brand": "Coto", "brand:wikidata": "Q5175411", "nsi_id": "coto-0d2b84"}, "geometry": {"type": "Point", "coordinates": [-60.535746, -31.740021]}},
{"type": "Feature", "id": "1EwIvT3eAj792Q_pYK24pojBotM=", "properties": {"ref": "118", "@spider": "coto", "shop": "supermarket", "addr:full": "SANTA FE Rivadavia 3396", "addr:street": "SANTA FE Rivadavia 3396", "addr:country": "AR", "name": "Coto 118-SANTA FE", "phone": "0342-453-3372", "opening_hours": "Mo-Th 08:30-21:00; Fr 08:30-21:00; Sa 08:30-21:00; Su 08:30-21:00", "brand": "Coto", "brand:wikidata": "Q5175411", "nsi_id": "coto-0d2b84"}, "geometry": {"type": "Point", "coordinates": [-60.70124, -31.636868]}},
{"type": "Feature", "id": "Q8ulaLmnaPaWDlKQT8rDoApVRqI=", "properties": {"ref": "179", "@spider": "coto", "shop": "supermarket", "addr:full": "Puerto 1", "addr:street": "Puerto 1", "addr:country": "AR", "name": "Coto 179-SANTA FE PUERTO", "phone": "0342-483-1640/1370", "opening_hours": "Mo-Th 08:30-21:00; Fr 08:30-21:00; Sa 08:30-21:00; Su 08:30-21:00", "brand": "Coto", "brand:wikidata": "Q5175411", "nsi_id": "coto-0d2b84"}, "geometry": {"type": "Point", "coordinates": [-60.718661, -31.638161]}},
{"type": "Feature", "id": "gLRWyrQPLuddxPMuAdT6O-0vGy4=", "properties": {"ref": "209", "@spider": "coto", "shop": "supermarket", "addr:full": "AV REP DE PERU 2760", "addr:street": "AV REP DE PERU 2760", "addr:country": "AR", "name": "Coto 209-MENDOZA", "phone": "0261-464-1200", "opening_hours": "Mo-Th 08:00-21:00; Fr 08:00-21:30; Sa 08:00-21:30; Su 08:00-21:00", "brand": "Coto", "brand:wikidata": "Q5175411", "nsi_id": "coto-0d2b84"}, "geometry": {"type": "Point", "coordinates": [-68.843574, -32.871591]}},
{"type": "Feature", "id": "nPK_pZFlxxfmhIQ6gbCN6UqC148=", "properties": {"ref": "185", "@spider": "coto", "shop": "supermarket", "addr:full": "DR RAMON 382", "addr:street": "DR RAMON 382", "addr:country": "AR", "name": "Coto 185-NEUQUEN", "phone": "0800-888-4848", "opening_hours": "Mo-Th 08:00-21:00; Fr 08:00-21:30; Sa 08:00-21:30; Su 08:00-21:00", "brand": "Coto", "brand:wikidata": "Q5175411", "nsi_id": "coto-0d2b84"}, "geometry": {"type": "Point", "coordinates": [-68.064506, -38.942254]}}]}