{"type":"FeatureCollection","features":[{"type": "Feature", "id": "_iIsHmCd4mW1leb1NPLaemOWEbc=", "properties": {"ref": "milton-keynes", "@spider": "cotswold_outdoor_gb", "shop": "outdoor", "addr:street_address": "Elder Gate, The Portway", "addr:city": "Milton Keynes, Buckinghamshire", "addr:postcode": "MK9 1EN", "addr:country": "GB", "name": "Milton Keynes", "phone": "01908 671700", "website": "https://www.cotswoldoutdoor.com/stores/milton-keynes.html", "contact:twitter": "@CotswoldOutdoor", "contact:email": "miltonkeynes.shop@cotswoldoutdoor.com", "opening_hours": "Mo-Fr 09:30-18:30; Sa 09:00-18:00; Su 11:00-17:00", "image": "https://www.cotswoldoutdoor.com/content/dam/cotswold/stores/64.jpg", "brand": "Cotswold Outdoor", "brand:wikidata": "Q5175488", "nsi_id": "cotswoldoutdoor-f55d12"}, "geometry": {"type": "Point", "coordinates": [-0.775458, 52.038932]}},
{"type": "Feature", "id": "sKJztA1GPNbx6HfQ3hvhdmbL83s=", "properties": {"ref": "newcastle", "@spider": "cotswold_outdoor_gb", "shop": "outdoor", "addr:street_address": "60 - 62 Northumberland Street", "addr:city": "Newcastle, Tyne & Wear", "addr:postcode": "NE1 7DF", "addr:country": "GB", "name": "Newcastle", "phone": "0191 221 2709", "website": "https://www.cotswoldoutdoor.com/stores/newcastle.html", "contact:twitter": "@CotswoldOutdoor", "contact:email": "newcastle.shop@cotswoldoutdoor.com", "opening_hours": "Mo-We 09:30-19:00; Th 09:30-20:00; Fr 09:30-19:00; Sa 09:00-18:30; Su 11:00-17:00", "image": "https://www.cotswoldoutdoor.com/content/dam/cotswold/stores/60.jpg", "brand": "Cotswold Outdoor", "brand:wikidata": "Q5175488", "nsi_id": "cotswoldoutdoor-f55d12"}, "geometry": {"type": "Point", "coordinates": [-1.612538, 54.975804]}},
{"type": "Feature", "id": "C9f92X79Ip-O-uh4c0zlyhbturg=", "properties": {"ref": "bristol-new-broadmead", "@spider": "cotswold_outdoor_gb", "shop": "outdoor", "addr:street_address": "Unit 2, New Broadmead, Union Street", "addr:city": "Bristol", "addr:postcode": "BS1 2DL", "addr:country": "GB", "name": "Bristol - New Broadmead", "phone": "0117 929 9707", "website": "https://www.cotswoldoutdoor.com/stores/bristol-new-broadmead.html", "contact:twitter": "@CotswoldOutdoor", "contact:email": "bristol.shop@cotswoldoutdoor.com", "opening_hours": "Mo-Fr 09:30-18:30; Sa 09:00-18:00; Su 11:00-17:00", "image": "https://www.cotswoldoutdoor.com/content/dam/cotswold/stores/62.jpg", "brand": "Cotswold Outdoor", "brand:wikidata": "Q5175488", "nsi_id": "cotswoldoutdoor-f55d12"}, "geometry": {"type": "Point", "coordinates": [-2.59155, 51.457095]}},
{"type": "Feature", "id": "Pj6GlljNdmZK8Vj2t_7vqF_ALRc=", "properties": {"ref": "belfast-city", "@spider": "cotswold_outdoor_gb", "shop": "outdoor", "addr:street_address": "Unit 2, 7 - 11 Castle Lane", "addr:city": "Belfast, Northern Ireland", "addr:postcode": "BT1 5DA", "addr:country": "GB", "name": "Belfast - City", "phone": "02890 248607", "website": "https://www.cotswoldoutdoor.com/stores/belfast-city.html", "contact:twitter": "@CotswoldOutdoor", "contact:email": "belfast.city@cotswoldoutdoor.com", "opening_hours": "Mo-We 09:30-18:00; Th 09:30-20:00; Fr-Sa 09:30-18:00; Su 13:00-18:00", "image": "https://www.cotswoldoutdoor.com/content/dam/cotswold/stores/55.jpg", "brand": "Cotswold Outdoor", "brand:wikidata": "Q5175488", "nsi_id": "cotswoldoutdoor-f55d12"}, "geometry": {"type": "Point", "coordinates": [-5.928166, 54.598713]}},
{"type": "Feature", "id": "jGrnXneUd9gMnA00mdveufDqI60=", "properties": {"ref": "cardiff-city-centre", "@spider": "cotswold_outdoor_gb", "shop": "outdoor", "addr:street_address": "11 Wharton Street", "addr:city": "Cardiff, South Glamorgan", "addr:postcode": "CF10 1AG", "addr:country": "GB", "name": "Cardiff - City Centre", "phone": "02920 399796", "website": "https://www.cotswoldoutdoor.com/stores/cardiff-city-centre.html", "contact:twitter": "@CotswoldOutdoor", "contact:email": "cardiff.city@cotswoldoutdoor.com", "opening_hours": "Mo-Fr 09:30-18:00; Sa 09:00-18:00; Su 11:00-17:00", "image": "https://www.cotswoldoutdoor.com/content/dam/cotswold/stores/52.jpg", "brand": "Cotswold Outdoor", "brand:wikidata": "Q5175488", "nsi_id": "cotswoldoutdoor-f55d12"}, "geometry": {"type": "Point", "coordinates": [-3.177698, 51.4795]}},
{"type": "Feature", "id": "Xc5KFF9n0QRetGtxl4uCa7XMjog=", "properties": {"ref": "skipton", "@spider": "cotswold_outdoor_gb", "shop": "outdoor", "addr:street_address": "2 Jerry Croft", "addr:city": "Skipton, North Yorkshire", "addr:postcode": "BD23 1DX", "addr:country": "GB", "name": "Skipton", "phone": "01756 611403", "website": "https://www.cotswoldoutdoor.com/stores/skipton.html", "contact:twitter": "@CotswoldOutdoor", "contact:email": "Skipton.Shop@cotswoldoutdoor.com", "opening_hours": "Mo-Sa 09:00-17:30; Su 11:00-17:00", "image": "https://www.cotswoldoutdoor.com/content/dam/cotswold/stores/77.jpg", "brand": "Cotswold Outdoor", "brand:wikidata": "Q5175488", "nsi_id": "cotswoldoutdoor-f55d12"}, "geometry": {"type": "Point", "coordinates": [-2.014939, 53.962256]}},
{"type": "Feature", "id": "7N8683wTfc7M02DzsSa48JOPiGs=", "properties": {"ref": "edinburgh", "@spider": "cotswold_outdoor_gb", "shop": "outdoor", "addr:street_address": "72 Rose Street, Hanover Buildings", "addr:city": "Edinburgh", "addr:postcode": "EH2 2NN", "addr:country": "GB", "name": "Edinburgh", "phone": "0131 341 2063", "website": "https://www.cotswoldoutdoor.com/stores/edinburgh.html", "contact:twitter": "@CotswoldOutdoor", "contact:email": "edinburgh.shop@cotswoldoutdoor.com", "opening_hours": "Mo-We 09:30-18:00; Th 09:30-20:00; Fr-Sa 09:30-18:00; Su 11:00-17:00", "image": "https://www.cotswoldoutdoor.com/content/dam/cotswold/stores/70.jpg", "brand": "Cotswold Outdoor", "brand:wikidata": "Q5175488", "nsi_id": "cotswoldoutdoor-f55d12"}, "geometry": {"type": "Point", "coordinates": [-3.198257, 55.952534]}},
{"type": "Feature", "id": "Wtp7XIk3mQ5c1gdwpoay1UjbkAM=", "properties": {"ref": "chichester", "@spider": "cotswold_outdoor_gb", "shop": "outdoor", "addr:street_address": "51 East Street", "addr:city": "Chichester, West Sussex", "addr:postcode": "PO19 1JG", "addr:country": "GB", "name": "Chichester", "phone": "01243 788167", "website": "https://www.cotswoldoutdoor.com/stores/chichester.html", "contact:twitter": "@CotswoldOutdoor", "contact:email": "chichester.shop@cotswoldoutdoor.com", "opening_hours": "Mo-Fr 09:00-17:30; Sa 09:00-18:00; Su 10:30-16:30", "image": "https://www.cotswoldoutdoor.com/content/dam/cotswold/stores/45.jpg", "brand": "Cotswold Outdoor", "brand:wikidata": "Q5175488", "nsi_id": "cotswoldoutdoor-f55d12"}, "geometry": {"type": "Point", "coordinates": [-0.774336, 50.835967]}},
{"type": "Feature", "id": "8bAHmerLxeHG3iarsK-f31R1RE0=", "properties": {"ref": "watford", "@spider": "cotswold_outdoor_gb", "shop": "outdoor", "addr:street_address": "161 - 165 High Street", "addr:city": "Watford, Hertfordshire", "addr:postcode": "WD17 2ET", "addr:country": "GB", "name": "Watford", "phone": "01923 230514", "website": "https://www.cotswoldoutdoor.com/stores/watford.html", "contact:twitter": "@CotswoldOutdoor", "contact:email": "watford.shop@cotswoldoutdoor.com", "opening_hours": "Mo 09:30-18:00; Tu 10:00-18:00; We-Sa 09:30-18:00; Su 11:00-17:00", "image": "https://www.cotswoldoutdoor.com/content/dam/cotswold/stores/53.jpg", "brand": "Cotswold Outdoor", "brand:wikidata": "Q5175488", "nsi_id": "cotswoldoutdoor-f55d12"}, "geometry": {"type": "Point", "coordinates": [-0.392133, 51.653328]}},
{"type": "Feature", "id": "rmuYioc2WsnFp7D7jhgjjhpoaBc=", "properties": {"ref": "norwich", "@spider": "cotswold_outdoor_gb", "shop": "outdoor", "addr:street_address": "Blackburn House, 1 Theatre Street", "addr:city": "Norwich, Norfolk", "addr:postcode": "NR2 1RG", "addr:country": "GB", "name": "Norwich", "phone": "01603 232223", "website": "https://www.cotswoldoutdoor.com/stores/norwich.html", "contact:twitter": "@CotswoldOutdoor", "contact:email": "norwich.shop@cotswoldoutdoor.com", "opening_hours": "Mo 09:00-18:00; Tu 10:00-18:00; We 09:00-18:00; Th 09:00-19:00; Fr-Sa 09:00-18:00; Su 10:30-16:30", "image": "https://www.cotswoldoutdoor.com/content/dam/cotswold/stores/31.jpg", "brand": "Cotswold Outdoor", "brand:wikidata": "Q5175488", "nsi_id": "cotswoldoutdoor-f55d12"}, "geometry": {"type": "Point", "coordinates": [1.292046, 52.627055]}},
{"type": "Feature", "id": "Y6mlmXRcRX7POlj5-DXRh6Cmmq0=", "properties": {"ref": "aberdeen", "@spider": "cotswold_outdoor_gb", "shop": "outdoor", "addr:street_address": "9 The Atrium, Guild Square", "addr:city": "Aberdeen, Aberdeenshire", "addr:postcode": "AB11 5PS", "addr:country": "GB", "name": "Aberdeen", "phone": "01224 593639", "website": "https://www.cotswoldoutdoor.com/stores/aberdeen.html", "contact:twitter": "@CotswoldOutdoor", "contact:email": "aberdeen.shop@cotswoldoutdoor.com", "opening_hours": "Mo-Fr 09:00-20:00; Sa 09:00-19:00; Su 10:00-18:00", "image": "https://www.cotswoldoutdoor.com/content/dam/cotswold/stores/49.jpg", "brand": "Cotswold Outdoor", "brand:wikidata": "Q5175488", "nsi_id": "cotswoldoutdoor-f55d12"}, "geometry": {"type": "Point", "coordinates": [-2.097187, 57.144343]}},
{"type": "Feature", "id": "k0oVp56VYsd6_CgH7UNOb-mv608=", "properties": {"ref": "bury-st-edmunds", "@spider": "cotswold_outdoor_gb", "shop": "outdoor", "addr:street_address": "56 Abbeygate Street", "addr:city": "Bury St Edmunds, Suffolk", "addr:postcode": "IP33 1LB", "addr:country": "GB", "name": "Bury St Edmunds", "phone": "01284 749310", "website": "https://www.cotswoldoutdoor.com/stores/bury-st-edmunds.html", "contact:twitter": "@CotswoldOutdoor", "contact:email": "bury.shop@cotswoldoutdoor.com", "opening_hours": "Mo-Sa 09:00-18:00; Su 10:30-16:30", "image": "https://www.cotswoldoutdoor.com/content/dam/cotswold/stores/40.jpg", "brand": "Cotswold Outdoor", "brand:wikidata": "Q5175488", "nsi_id": "cotswoldoutdoor-f55d12"}, "geometry": {"type": "Point", "coordinates": [0.712941, 52.244652]}},
{"type": "Feature", "id": "wQpjl1MVLRHX6ZSrstY9IZFC47A=", "properties": {"ref": "chertsey", "@spider": "cotswold_outdoor_gb", "shop": "outdoor", "addr:street_address": "99 Fordwater Road", "addr:city": "Chertsey, Surrey", "addr:postcode": "KT16 8HH", "addr:country": "GB", "name": "Chertsey", "phone": "01932 566886", "website": "https://www.cotswoldoutdoor.com/stores/chertsey.html", "contact:twitter": "@CotswoldOutdoor", "opening_hours": "Mo-Fr 10:00-19:00; Sa 09:00-18:00; Su 11:00-17:00", "image": "https://www.cotswoldoutdoor.com/content/dam/cotswold/stores/724.jpg", "brand": "Cotswold Outdoor", "brand:wikidata": "Q5175488", "nsi_id": "cotswoldoutdoor-f55d12"}, "geometry": {"type": "Point", "coordinates": [-0.494045, 51.385532]}},
{"type": "Feature", "id": "Spoh4pRL0QaU0ZPe092MdXOenkI=", "properties": {"ref": "leeds", "@spider": "cotswold_outdoor_gb", "shop": "outdoor", "addr:street_address": "8-12 Lands Lane/11 Albion Place", "addr:city": "Leeds", "addr:postcode": "LS1 6LD", "addr:country": "GB", "name": "Leeds", "phone": "01133 224422", "website": "https://www.cotswoldoutdoor.com/stores/leeds.html", "contact:twitter": "@CotswoldOutdoor", "contact:email": "leeds.thecore@cotswoldoutdoor.com", "opening_hours": "Mo-Sa 09:00-18:00; Su 11:00-17:00", "image": "https://www.cotswoldoutdoor.com/content/dam/cotswold/stores/765.jpg", "brand": "Cotswold Outdoor", "brand:wikidata": "Q5175488", "nsi_id": "cotswoldoutdoor-f55d12"}, "geometry": {"type": "Point", "coordinates": [-1.54455, 53.797888]}},
{"type": "Feature", "id": "jupHNSwi7VNFL1uj3mWY0daMbqA=", "properties": {"ref": "manchester-didsbury", "@spider": "cotswold_outdoor_gb", "shop": "outdoor", "addr:street_address": "Unit 1, 751 - 807 Princess Parkway, Princess Park, Didsbury", "addr:city": "Manchester", "addr:postcode": "M20 2ZE", "addr:country": "GB", "name": "Manchester - Didsbury", "phone": "0161 413 8888", "website": "https://www.cotswoldoutdoor.com/stores/manchester-didsbury.html", "contact:twitter": "@CotswoldOutdoor", "opening_hours": "Mo-Sa 09:00-18:00; Su 11:00-17:00", "image": "https://www.cotswoldoutdoor.com/content/dam/cotswold/stores/732.jpg", "brand": "Cotswold Outdoor", "brand:wikidata": "Q5175488", "nsi_id": "cotswoldoutdoor-f55d12"}, "geometry": {"type": "Point", "coordinates": [-2.257958, 53.422554]}},
{"type": "Feature", "id": "y3kys6yIXHXpA68pnBeISFYEukk=", "properties": {"ref": "port-solent", "@spider": "cotswold_outdoor_gb", "shop": "outdoor", "addr:street_address": "The Boardwalk, Port Solent", "addr:city": "Portsmouth, Hants", "addr:postcode": "PO6 4TP", "addr:country": "GB", "name": "Port Solent", "phone": "02394 215667", "website": "https://www.cotswoldoutdoor.com/stores/port-solent.html", "contact:twitter": "@CotswoldOutdoor", "contact:email": "portsolent.shop@cotswoldoutdoor.com", "opening_hours": "Mo-Fr 10:00-19:00; Sa 09:00-18:00; Su 10:00-16:00", "image": "https://www.cotswoldoutdoor.com/content/dam/cotswold/stores/731.jpg", "brand": "Cotswold Outdoor", "brand:wikidata": "Q5175488", "nsi_id": "cotswoldoutdoor-f55d12"}, "geometry": {"type": "Point", "coordinates": [-1.097311, 50.840382]}},
{"type": "Feature", "id": "j6bd1pmlQnbU2YDbg1N4HOTVRoM=", "properties": {"ref": "bristol-filton", "@spider": "cotswold_outdoor_gb", "shop": "outdoor", "addr:street_address": "Units 1 - 3, Shield Retail Centre, Link Road, Filton", "addr:city": "Bristol", "addr:postcode": "BS34 7BR", "addr:country": "GB", "name": "Bristol - Filton", "phone": "0117 450 9940", "website": "https://www.cotswoldoutdoor.com/stores/bristol-filton.html", "contact:twitter": "@CotswoldOutdoor", "opening_hours": "Mo-Fr 10:00-19:00; Sa 10:00-18:00; Su 11:00-17:00", "image": "https://www.cotswoldoutdoor.com/content/dam/cotswold/stores/726.jpg", "brand": "Cotswold Outdoor", "brand:wikidata": "Q5175488", "nsi_id": "cotswoldoutdoor-f55d12"}, "geometry": {"type": "Point", "coordinates": [-2.574494, 51.508958]}},
{"type": "Feature", "id": "xfdApvEf3sa-X507Pa-BoXRBZyA=", "properties": {"ref": "event-shop-1", "@spider": "cotswold_outdoor_gb", "shop": "outdoor", "addr:street_address": "Unit 11 Kemble Business Park", "addr:city": "Crudwell, Malmesbury", "addr:postcode": "SN16 9SH", "addr:country": "GB", "name": "Event Shop 1", "website": "https://www.cotswoldoutdoor.com/stores/event-shop-1.html", "contact:twitter": "@CotswoldOutdoor", "image": "https://www.cotswoldoutdoor.com/content/dam/cotswold/stores/261.jpg", "brand": "Cotswold Outdoor", "brand:wikidata": "Q5175488", "nsi_id": "cotswoldoutdoor-f55d12"}},
{"type": "Feature", "id": "pq-6f8ycbj9NX8syKKhL0ablpmU=", "properties": {"ref": "rushden", "@spider": "cotswold_outdoor_gb", "shop": "outdoor", "addr:street_address": "Rushden Lakes Shopping Centre", "addr:city": "Rushden, Northamptonshire", "addr:postcode": "NN10 6FW", "addr:country": "GB", "name": "Rushden", "phone": "01933426260", "website": "https://www.cotswoldoutdoor.com/stores/rushden.html", "contact:twitter": "@CotswoldOutdoor", "opening_hours": "Mo-Sa 09:00-18:00; Su 10:30-16:30", "image": "https://www.cotswoldoutdoor.com/content/dam/cotswold/stores/92.jpg", "brand": "Cotswold Outdoor", "brand:wikidata": "Q5175488", "nsi_id": "cotswoldoutdoor-f55d12"}, "geometry": {"type": "Point", "coordinates": [-0.6222894752470525, 52.30126045]}},
{"type": "Feature", "id": "DCCAtWTOHezIkaERpZj0vB5M8C0=", "properties": {"ref": "dundrum", "@spider": "cotswold_outdoor_gb", "shop": "outdoor", "addr:street_address": "Unit 3.2 - 4.2, Dundrum Town Centre, Dundrum", "addr:city": "Dublin", "addr:postcode": "Dublin 16", "addr:country": "GB", "name": "Dublin - Dundrum", "phone": "+353 (0) 1 447 0595", "website": "https://www.cotswoldoutdoor.com/stores/dundrum.html", "contact:twitter": "@CotswoldOutdoor", "contact:email": "SRDundrum.Shop@cotswoldoutdoor.com", "opening_hours": "Mo-Fr 09:00-21:00; Sa 09:00-19:00; Su 10:00-19:00", "image": "https://www.cotswoldoutdoor.com/content/dam/cotswold/stores/741.jpg", "brand": "Cotswold Outdoor", "brand:wikidata": "Q5175488", "nsi_id": "cotswoldoutdoor-f55d12"}, "geometry": {"type": "Point", "coordinates": [-6.239371, 53.28564]}},
{"type": "Feature", "id": "PW-B4hk_dwsWp_d7sEA6kdtnuUw=", "properties": {"ref": "london-kensington", "@spider": "cotswold_outdoor_gb", "shop": "outdoor", "addr:street_address": "188 High Street, Kensington", "addr:city": "London", "addr:postcode": "W8 7RG", "addr:country": "GB", "name": "London - Kensington", "phone": "02037802057", "website": "https://www.cotswoldoutdoor.com/stores/london-kensington.html", "contact:twitter": "@CotswoldOutdoor", "contact:email": "SRKensington.Shop@cotswoldoutdoor.com", "opening_hours": "Mo-Fr 10:00-19:00; Sa 09:00-19:00; Su 11:30-17:30", "image": "https://www.cotswoldoutdoor.com/content/dam/cotswold/stores/720.jpg", "brand": "Cotswold Outdoor", "brand:wikidata": "Q5175488", "nsi_id": "cotswoldoutdoor-f55d12"}, "geometry": {"type": "Point", "coordinates": [-0.196717, 51.499873]}},
{"type": "Feature", "id": "vJLdEaU4_lzeiyz1qcMEKtRPSag=", "properties": {"ref": "web-reference-store", "@spider": "cotswold_outdoor_gb", "shop": "outdoor", "addr:street_address": "Unit 11, Kemble Business Park", "addr:city": "Crudwell", "addr:postcode": "SN16 9SH", "addr:country": "GB", "name": "Web Reference Store", "website": "https://www.cotswoldoutdoor.com/stores/web-reference-store.html", "contact:twitter": "@CotswoldOutdoor", "image": "https://www.cotswoldoutdoor.com/content/dam/cotswold/stores/895.jpg", "brand": "Cotswold Outdoor", "brand:wikidata": "Q5175488", "nsi_id": "cotswoldoutdoor-f55d12"}},
{"type": "Feature", "id": "gSw2FFXyOlJO2oh8lgs4HxBPZ7o=", "properties": {"ref": "event-shop", "@spider": "cotswold_outdoor_gb", "shop": "outdoor", "addr:street_address": "Kemble Business Park Unit A/B", "addr:city": "Malmesbury", "addr:postcode": "SN16 9SH", "addr:country": "GB", "name": "Event shop", "phone": "01666 575 500", "website": "https://www.cotswoldoutdoor.com/stores/event-shop.html", "contact:twitter": "@CotswoldOutdoor", "image": "https://www.cotswoldoutdoor.com/content/dam/cotswold/stores/98.jpg", "brand": "Cotswold Outdoor", "brand:wikidata": "Q5175488", "nsi_id": "cotswoldoutdoor-f55d12"}},
{"type": "Feature", "id": "mnWpFILZkOgG0yXdCELsYnuVsrQ=", "properties": {"ref": "external-storage", "@spider": "cotswold_outdoor_gb", "shop": "outdoor", "addr:street_address": "null", "addr:country": "GB", "name": "External Storage", "website": "https://www.cotswoldoutdoor.com/stores/external-storage.html", "contact:twitter": "@CotswoldOutdoor", "image": "https://www.cotswoldoutdoor.com/content/dam/cotswold/stores/990.jpg", "brand": "Cotswold Outdoor", "brand:wikidata": "Q5175488", "nsi_id": "cotswoldoutdoor-f55d12"}},
{"type": "Feature", "id": "Ifn65SbNaY0OhXONm_UY72-EQTk=", "properties": {"ref": "product-recalls-kemble", "@spider": "cotswold_outdoor_gb", "shop": "outdoor", "addr:street_address": "Kemble Business Unit Unit A/B", "addr:city": "Malmesbury", "addr:postcode": "SN16 9SH", "addr:country": "GB", "name": "Product Recalls - Kemble", "website": "https://www.cotswoldoutdoor.com/stores/product-recalls-kemble.html", "contact:twitter": "@CotswoldOutdoor", "image": "https://www.cotswoldoutdoor.com/content/dam/cotswold/stores/996.jpg", "brand": "Cotswold Outdoor", "brand:wikidata": "Q5175488", "nsi_id": "cotswoldoutdoor-f55d12"}},
{"type": "Feature", "id": "MYQugXzizWWZynjsyRVbm9ZpOVU=", "properties": {"ref": "visual-merchandising", "@spider": "cotswold_outdoor_gb", "shop": "outdoor", "addr:street_address": "null", "addr:country": "GB", "name": "Visual Merchandising", "website": "https://www.cotswoldoutdoor.com/stores/visual-merchandising.html", "contact:twitter": "@CotswoldOutdoor", "image": "https://www.cotswoldoutdoor.com/content/dam/cotswold/stores/986.jpg", "brand": "Cotswold Outdoor", "brand:wikidata": "Q5175488", "nsi_id": "cotswoldoutdoor-f55d12"}},
{"type": "Feature", "id": "rHyIYNKo0KlaxeLDEwMQpOGSMTQ=", "properties": {"ref": "cotswold-warehouse", "@spider": "cotswold_outdoor_gb", "shop": "outdoor", "addr:street_address": "Kemble Business Park Unit A/B", "addr:city": "Malmesbury, Glos", "addr:postcode": "SN16 9SH", "addr:country": "GB", "name": "Kemble Warehouse", "website": "https://www.cotswoldoutdoor.com/stores/cotswold-warehouse.html", "contact:twitter": "@CotswoldOutdoor", "image": "https://www.cotswoldoutdoor.com/content/dam/cotswold/stores/995.jpg", "brand": "Cotswold Outdoor", "brand:wikidata": "Q5175488", "nsi_id": "cotswoldoutdoor-f55d12"}},
{"type": "Feature", "id": "BMBuynEUleFDMmb6zR0TpvbUR-Y=", "properties": {"ref": "bm-samples", "@spider": "cotswold_outdoor_gb", "shop": "outdoor", "addr:street_address": "null", "addr:country": "GB", "name": "B+M Samples", "website": "https://www.cotswoldoutdoor.com/stores/bm-samples.html", "contact:twitter": "@CotswoldOutdoor", "image": "https://www.cotswoldoutdoor.com/content/dam/cotswold/stores/992.jpg", "brand": "Cotswold Outdoor", "brand:wikidata": "Q5175488", "nsi_id": "cotswoldoutdoor-f55d12"}},
{"type": "Feature", "id": "YnnJty1cNwSBZ3EB7GHKqYdCYbA=", "properties": {"ref": "retail-operations", "@spider": "cotswold_outdoor_gb", "shop": "outdoor", "addr:street_address": "null", "addr:country": "GB", "name": "Retail Operations", "website": "https://www.cotswoldoutdoor.com/stores/retail-operations.html", "contact:twitter": "@CotswoldOutdoor", "image": "https://www.cotswoldoutdoor.com/content/dam/cotswold/stores/540.jpg", "brand": "Cotswold Outdoor", "brand:wikidata": "Q5175488", "nsi_id": "cotswoldoutdoor-f55d12"}},
{"type": "Feature", "id": "37TOrLW4PjI0PPvxRwvBB_2gTng=", "properties": {"ref": "cotswold-faulty-goods-returns", "@spider": "cotswold_outdoor_gb", "shop": "outdoor", "addr:street_address": "null", "addr:country": "GB", "name": "Termination Stock", "website": "https://www.cotswoldoutdoor.com/stores/cotswold-faulty-goods-returns.html", "contact:twitter": "@CotswoldOutdoor", "image": "https://www.cotswoldoutdoor.com/content/dam/cotswold/stores/991.jpg", "brand": "Cotswold Outdoor", "brand:wikidata": "Q5175488", "nsi_id": "cotswoldoutdoor-f55d12"}},
{"type": "Feature", "id": "sRCNUnaEAkv4q-Jat4MsE9I3JM4=", "properties": {"ref": "sr-warehouse", "@spider": "cotswold_outdoor_gb", "shop": "outdoor", "addr:street_address": "Thornberry Way 2", "addr:city": "Guildford", "addr:postcode": "GU1 1QB", "addr:country": "GB", "name": "Guildford Warehouse", "website": "https://www.cotswoldoutdoor.com/stores/sr-warehouse.html", "contact:twitter": "@CotswoldOutdoor", "image": "https://www.cotswoldoutdoor.com/content/dam/cotswold/stores/997.jpg", "brand": "Cotswold Outdoor", "brand:wikidata": "Q5175488", "nsi_id": "cotswoldoutdoor-f55d12"}},
{"type": "Feature", "id": "g1tY2oCL7UHsCcoM7ivvGw9rFCM=", "properties": {"ref": "leicester", "@spider": "cotswold_outdoor_gb", "shop": "outdoor", "addr:street_address": "MSU5 (Upper Mall), Highcross Shopping Centre, High Street", "addr:city": "Leicester", "addr:postcode": "LE1 4FT", "addr:country": "GB", "name": "Leicester", "phone": "01164 782918", "website": "https://www.cotswoldoutdoor.com/stores/leicester.html", "contact:twitter": "@CotswoldOutdoor", "contact:email": "leicester.shop@cotswoldoutdoor.com", "opening_hours": "Mo-Fr 10:00-19:00; Sa 09:00-19:00; Su 11:00-17:00", "image": "https://www.cotswoldoutdoor.com/content/dam/cotswold/stores/90.jpg", "brand": "Cotswold Outdoor", "brand:wikidata": "Q5175488", "nsi_id": "cotswoldoutdoor-f55d12"}, "geometry": {"type": "Point", "coordinates": [-1.13638, 52.636888]}},
{"type": "Feature", "id": "MbOZ9tcmQP2cCKttnYutqjDueOM=", "properties": {"ref": "web-cotswold-outdoor", "@spider": "cotswold_outdoor_gb", "shop": "outdoor", "addr:street_address": "Kemble Business Park Unit A&B", "addr:city": "Malmesbury, Glos", "addr:postcode": "SN16 9SH", "addr:country": "GB", "name": "Web Cotswold Outdoor", "phone": "01666 575 500", "website": "https://www.cotswoldoutdoor.com/stores/web-cotswold-outdoor.html", "contact:twitter": "@CotswoldOutdoor", "image": "https://www.cotswoldoutdoor.com/content/dam/cotswold/stores/980.jpg", "brand": "Cotswold Outdoor", "brand:wikidata": "Q5175488", "nsi_id": "cotswoldoutdoor-f55d12"}},
{"type": "Feature", "id": "58YcAau9LtDjTV7_UhoeoH_3XTQ=", "properties": {"ref": "biggleswade", "@spider": "cotswold_outdoor_gb", "shop": "outdoor", "addr:street_address": "Unit K, A1 Retail Park, London Road", "addr:city": "Biggleswade, Bedfordshire", "addr:postcode": "SG18 8NE", "addr:country": "GB", "name": "Biggleswade", "phone": "01767 662038", "website": "https://www.cotswoldoutdoor.com/stores/biggleswade.html", "contact:twitter": "@CotswoldOutdoor", "contact:email": "biggleswade.shop@cotswoldoutdoor.com", "opening_hours": "Mo-Sa 09:00-19:00; Su 10:30-16:30", "image": "https://www.cotswoldoutdoor.com/content/dam/cotswold/stores/89.jpg", "brand": "Cotswold Outdoor", "brand:wikidata": "Q5175488", "nsi_id": "cotswoldoutdoor-f55d12"}, "geometry": {"type": "Point", "coordinates": [-0.244112, 52.074086]}},
{"type": "Feature", "id": "0ohtDwlYObPQB3OscC9Zgm10aXQ=", "properties": {"ref": "dublin-city", "@spider": "cotswold_outdoor_gb", "shop": "outdoor", "addr:street_address": "10-12 Trinity Street", "addr:city": "Dublin", "addr:postcode": "Dublin 2", "addr:country": "GB", "name": "Dublin - City", "phone": "+ 353 (0) 1 437 0129", "website": "https://www.cotswoldoutdoor.com/stores/dublin-city.html", "contact:twitter": "@CotswoldOutdoor", "contact:email": "dublin.shop@cotswoldoutdoor.com", "opening_hours": "Mo-We 09:30-19:00; Th 09:30-20:00; Fr 09:30-19:00; Sa 09:30-18:00; Su 12:00-18:00", "image": "https://www.cotswoldoutdoor.com/content/dam/cotswold/stores/87.jpg", "brand": "Cotswold Outdoor", "brand:wikidata": "Q5175488", "nsi_id": "cotswoldoutdoor-f55d12"}, "geometry": {"type": "Point", "coordinates": [-6.261864, 53.343593]}},
{"type": "Feature", "id": "WrMy5I0XVmZ6B6NsQDr54iaF9ks=", "properties": {"ref": "inverness", "@spider": "cotswold_outdoor_gb", "shop": "outdoor", "addr:street_address": "Unit 2, 1 Longman Road", "addr:city": "Inverness", "addr:postcode": "IV1 1SD", "addr:country": "GB", "name": "Inverness", "phone": "01463214110", "website": "https://www.cotswoldoutdoor.com/stores/inverness.html", "contact:twitter": "@CotswoldOutdoor", "contact:email": "inverness.shop@cotswoldoutdoor.com", "opening_hours": "Mo-Sa 09:00-18:00; Su 10:00-17:00", "image": "https://www.cotswoldoutdoor.com/content/dam/cotswold/stores/86.jpg", "brand": "Cotswold Outdoor", "brand:wikidata": "Q5175488", "nsi_id": "cotswoldoutdoor-f55d12"}, "geometry": {"type": "Point", "coordinates": [-4.221157, 57.486502]}},
{"type": "Feature", "id": "bfmVv3K0BwzD_EWfn9gUkRzdMuI=", "properties": {"ref": "bath", "@spider": "cotswold_outdoor_gb", "shop": "outdoor", "addr:street_address": "2 Abbey Gate Street", "addr:city": "Bath, Somerset", "addr:postcode": "BA1 1NP", "addr:country": "GB", "name": "Bath", "phone": "01225 562 230", "website": "https://www.cotswoldoutdoor.com/stores/bath.html", "contact:twitter": "@CotswoldOutdoor", "contact:email": "bath.shop@cotswoldoutdoor.com", "opening_hours": "Mo-Sa 09:00-18:00; Su 11:00-17:00", "image": "https://www.cotswoldoutdoor.com/content/dam/cotswold/stores/69.jpg", "brand": "Cotswold Outdoor", "brand:wikidata": "Q5175488", "nsi_id": "cotswoldoutdoor-f55d12"}, "geometry": {"type": "Point", "coordinates": [-2.359294, 51.380252]}},
{"type": "Feature", "id": "A5DKSoaMQVHNWOsPHA3YY1mVgpY=", "properties": {"ref": "truro", "@spider": "cotswold_outdoor_gb", "shop": "outdoor", "addr:street_address": "29 Back Quay, Off Lemon Quay", "addr:city": "Truro, Cornwall", "addr:postcode": "TR1 2LL", "addr:country": "GB", "name": "Truro", "phone": "01872 222032", "website": "https://www.cotswoldoutdoor.com/stores/truro.html", "contact:twitter": "@CotswoldOutdoor", "contact:email": "truro.shop@cotswoldoutdoor.com", "opening_hours": "Mo-Fr 09:00-17:30; Sa 09:00-18:00; Su 10:30-16:30", "image": "https://www.cotswoldoutdoor.com/content/dam/cotswold/stores/58.jpg", "brand": "Cotswold Outdoor", "brand:wikidata": "Q5175488", "nsi_id": "cotswoldoutdoor-f55d12"}, "geometry": {"type": "Point", "coordinates": [-5.050283, 50.262534]}},
{"type": "Feature", "id": "dQxbcErCb_Y1vTArWC36jcdyj4M=", "properties": {"ref": "cambridge", "@spider": "cotswold_outdoor_gb", "shop": "outdoor", "addr:street_address": "6 - 7 Bridge Street", "addr:city": "Cambridge, Cambridgeshire", "addr:postcode": "CB2 1UA", "addr:country": "GB", "name": "Cambridge", "phone": "01223 316586", "website": "https://www.cotswoldoutdoor.com/stores/cambridge.html", "contact:twitter": "@CotswoldOutdoor", "contact:email": "cambridge.shop@cotswoldoutdoor.com", "opening_hours": "Mo 09:00-18:00; Tu 10:00-18:00; We-Sa 09:00-18:00; Su 10:30-16:30", "image": "https://www.cotswoldoutdoor.com/content/dam/cotswold/stores/43.jpg", "brand": "Cotswold Outdoor", "brand:wikidata": "Q5175488", "nsi_id": "cotswoldoutdoor-f55d12"}, "geometry": {"type": "Point", "coordinates": [0.118955, 52.208135]}},
{"type": "Feature", "id": "83Q9sfkrE4ApfCO4VXU9Xn6HBnA=", "properties": {"ref": "brighton", "@spider": "cotswold_outdoor_gb", "shop": "outdoor", "addr:street_address": "186 Western Road", "addr:city": "Brighton, East Sussex", "addr:postcode": "BN1 2BA", "addr:country": "GB", "name": "Brighton", "phone": "01273 821452", "website": "https://www.cotswoldoutdoor.com/stores/brighton.html", "contact:twitter": "@CotswoldOutdoor", "contact:email": "brighton.shop@cotswoldoutdoor.com", "opening_hours": "Mo-Sa 09:00-18:00; Su 11:00-17:00", "image": "https://www.cotswoldoutdoor.com/content/dam/cotswold/stores/56.jpg", "brand": "Cotswold Outdoor", "brand:wikidata": "Q5175488", "nsi_id": "cotswoldoutdoor-f55d12"}, "geometry": {"type": "Point", "coordinates": [-0.146984, 50.824081]}},
{"type": "Feature", "id": "Yo-a_CGwHGipSa_GTWwhEd3YKhQ=", "properties": {"ref": "bakewell", "@spider": "cotswold_outdoor_gb", "shop": "outdoor", "addr:street_address": "Bridge Street", "addr:city": "Bakewell, Derbyshire", "addr:postcode": "DE45 1DS", "addr:country": "GB", "name": "Bakewell", "phone": "01629 812231", "website": "https://www.cotswoldoutdoor.com/stores/bakewell.html", "contact:twitter": "@CotswoldOutdoor", "contact:email": "bakewell.shop@cotswoldoutdoor.com", "opening_hours": "Mo-Fr 09:00-17:30; Sa 09:00-18:00; Su 10:30-16:30", "image": "https://www.cotswoldoutdoor.com/content/dam/cotswold/stores/42.jpg", "brand": "Cotswold Outdoor", "brand:wikidata": "Q5175488", "nsi_id": "cotswoldoutdoor-f55d12"}, "geometry": {"type": "Point", "coordinates": [-1.674154, 53.213538]}},
{"type": "Feature", "id": "bObMwVFIvbzlIIktyqe1WPFtKow=", "properties": {"ref": "glasgow-silverburn", "@spider": "cotswold_outdoor_gb", "shop": "outdoor", "addr:street_address": "Unit W9, Silverburn Shopping Centre, Barrhead Road", "addr:city": "Glasgow, Lanarkshire", "addr:postcode": "G53 6AG", "addr:country": "GB", "name": "Glasgow - Silverburn", "phone": "0141 881 6573", "website": "https://www.cotswoldoutdoor.com/stores/glasgow-silverburn.html", "contact:twitter": "@CotswoldOutdoor", "contact:email": "silverburn.shop@cotswoldoutdoor.com", "opening_hours": "Mo-Fr 10:00-20:00; Sa 09:00-19:00; Su 10:00-19:00", "image": "https://www.cotswoldoutdoor.com/content/dam/cotswold/stores/36.jpg", "brand": "Cotswold Outdoor", "brand:wikidata": "Q5175488", "nsi_id": "cotswoldoutdoor-f55d12"}, "geometry": {"type": "Point", "coordinates": [-4.342054, 55.822891]}},
{"type": "Feature", "id": "qi2UAbZK8d5EXovoVwSuHHiMq8M=", "properties": {"ref": "manchester-deansgate", "@spider": "cotswold_outdoor_gb", "shop": "outdoor", "addr:street_address": "Unit 2, 118 - 124 Deansgate", "addr:city": "Manchester Greater Manchester", "addr:postcode": "M3 2GQ", "addr:country": "GB", "name": "Manchester - Deansgate", "phone": "0161 839 9255", "website": "https://www.cotswoldoutdoor.com/stores/manchester-deansgate.html", "contact:twitter": "@CotswoldOutdoor", "contact:email": "deansgate.shop@cotswoldoutdoor.com", "opening_hours": "Mo-We 09:00-18:00; Th 09:00-20:00; Fr-Sa 09:00-18:00; Su 11:00-17:00", "image": "https://www.cotswoldoutdoor.com/content/dam/cotswold/stores/35.jpg", "brand": "Cotswold Outdoor", "brand:wikidata": "Q5175488", "nsi_id": "cotswoldoutdoor-f55d12"}, "geometry": {"type": "Point", "coordinates": [-2.247833, 53.481354]}},
{"type": "Feature", "id": "18e9y11qpmBOtGVSVNrefVCdF8w=", "properties": {"ref": "bicester", "@spider": "cotswold_outdoor_gb", "shop": "outdoor", "addr:street_address": "Unit 10 - 11, Bicester Avenue, Oxford Road", "addr:city": "Bicester, Oxfordshire", "addr:postcode": "OX25 2NY", "addr:country": "GB", "name": "Bicester", "phone": "01869 321423", "website": "https://www.cotswoldoutdoor.com/stores/bicester.html", "contact:twitter": "@CotswoldOutdoor", "contact:email": "bicester.shop@cotswoldoutdoor.com", "opening_hours": "Mo-Sa 09:00-18:00; Su 10:30-16:30", "image": "https://www.cotswoldoutdoor.com/content/dam/cotswold/stores/29.jpg", "brand": "Cotswold Outdoor", "brand:wikidata": "Q5175488", "nsi_id": "cotswoldoutdoor-f55d12"}, "geometry": {"type": "Point", "coordinates": [-1.164829, 51.887941]}},
{"type": "Feature", "id": "HG1sCJWtUICJiaxQFVtqgiKFZ4Q=", "properties": {"ref": "harrogate", "@spider": "cotswold_outdoor_gb", "shop": "outdoor", "addr:street_address": "8 - 10 West Park", "addr:city": "Harrogate, North Yorkshire", "addr:postcode": "HG1 1BL", "addr:country": "GB", "name": "Harrogate", "phone": "01423 701100", "website": "https://www.cotswoldoutdoor.com/stores/harrogate.html", "contact:twitter": "@CotswoldOutdoor", "contact:email": "harrogate.shop@cotswoldoutdoor.com", "opening_hours": "Mo-We 09:00-17:30; Th 09:00-19:00; Fr 09:00-17:30; Sa 09:00-18:00; Su 10:30-16:30", "image": "https://www.cotswoldoutdoor.com/content/dam/cotswold/stores/9.jpg", "brand": "Cotswold Outdoor", "brand:wikidata": "Q5175488", "nsi_id": "cotswoldoutdoor-f55d12"}, "geometry": {"type": "Point", "coordinates": [-1.540475, 53.989347]}},
{"type": "Feature", "id": "IRS11dbWIkkBYBgCHTqSMAlpjYA=", "properties": {"ref": "london-piccadilly", "@spider": "cotswold_outdoor_gb", "shop": "outdoor", "addr:street_address": "23 - 26 Piccadilly", "addr:city": "London", "addr:postcode": "W1J 0DJ", "addr:country": "GB", "name": "London - Piccadilly", "phone": "020 7437 7399", "website": "https://www.cotswoldoutdoor.com/stores/london-piccadilly.html", "contact:twitter": "@CotswoldOutdoor", "contact:email": "piccadilly.shop@cotswoldoutdoor.com", "opening_hours": "Mo-Sa 10:00-19:00; Su 11:30-17:30", "image": "https://www.cotswoldoutdoor.com/content/dam/cotswold/stores/17.jpg", "brand": "Cotswold Outdoor", "brand:wikidata": "Q5175488", "nsi_id": "cotswoldoutdoor-f55d12"}, "geometry": {"type": "Point", "coordinates": [-0.136371, 51.509281]}},
{"type": "Feature", "id": "K0jWfRTbOoJNeHbqv__R-LVcU7w=", "properties": {"ref": "grasmere", "@spider": "cotswold_outdoor_gb", "shop": "outdoor", "addr:street_address": "Red Lion Square, Grasmere", "addr:city": "Ambleside, Cumbria", "addr:postcode": "LA22 9SP", "addr:country": "GB", "name": "Grasmere", "phone": "01539 435778", "website": "https://www.cotswoldoutdoor.com/stores/grasmere.html", "contact:twitter": "@CotswoldOutdoor", "contact:email": "grasmere.shop@cotswoldoutdoor.com", "opening_hours": "Mo-Sa 09:30-17:30; Su 10:00-17:00", "image": "https://www.cotswoldoutdoor.com/content/dam/cotswold/stores/18.jpg", "brand": "Cotswold Outdoor", "brand:wikidata": "Q5175488", "nsi_id": "cotswoldoutdoor-f55d12"}, "geometry": {"type": "Point", "coordinates": [-3.024971, 54.458676]}},
{"type": "Feature", "id": "11O5h3ldaH9tLh1TdeoQ3mkRudo=", "properties": {"ref": "london-chiswick", "@spider": "cotswold_outdoor_gb", "shop": "outdoor", "addr:street_address": "323 - 327 Chiswick High Road", "addr:city": "London", "addr:postcode": "W4 4HH", "addr:country": "GB", "name": "London - Chiswick", "phone": "020 3758 3312", "website": "https://www.cotswoldoutdoor.com/stores/london-chiswick.html", "contact:twitter": "@CotswoldOutdoor", "contact:email": "chiswick.shop@cotswoldoutdoor.com", "opening_hours": "Mo-Fr 09:30-18:30; Sa 09:00-18:00; Su 11:00-17:00", "image": "https://www.cotswoldoutdoor.com/content/dam/cotswold/stores/82.jpg", "brand": "Cotswold Outdoor", "brand:wikidata": "Q5175488", "nsi_id": "cotswoldoutdoor-f55d12"}, "geometry": {"type": "Point", "coordinates": [-0.268797, 51.492858]}},
{"type": "Feature", "id": "P9la-6C4qzYvi0okllGYOzIlVyA=", "properties": {"ref": "reading", "@spider": "cotswold_outdoor_gb", "shop": "outdoor", "addr:street_address": "271 Basingstoke Road", "addr:city": "Reading, Berkshire", "addr:postcode": "RG2 0HY", "addr:country": "GB", "name": "Reading", "phone": "0118 987 5177", "website": "https://www.cotswoldoutdoor.com/stores/reading.html", "contact:twitter": "@CotswoldOutdoor", "contact:email": "reading.shop@cotswoldoutdoor.com", "opening_hours": "Mo-We 09:30-18:00; Th 09:30-19:00; Fr 09:30-18:00; Sa 09:00-18:00; Su 10:30-16:30", "image": "https://www.cotswoldoutdoor.com/content/dam/cotswold/stores/10.jpg", "brand": "Cotswold Outdoor", "brand:wikidata": "Q5175488", "nsi_id": "cotswoldoutdoor-f55d12"}, "geometry": {"type": "Point", "coordinates": [-0.968266, 51.433845]}},
{"type": "Feature", "id": "WVzUsw3LmxU8mFSVqcPRfdl1rSM=", "properties": {"ref": "horsham", "@spider": "cotswold_outdoor_gb", "shop": "outdoor", "addr:street_address": "62 West Street", "addr:city": "Horsham, West Sussex", "addr:postcode": "RH12 1PL", "addr:country": "GB", "name": "Horsham", "phone": "01403 858312", "website": "https://www.cotswoldoutdoor.com/stores/horsham.html", "contact:twitter": "@CotswoldOutdoor", "contact:email": "horsham.shop@cotswoldoutdoor.com", "opening_hours": "Mo-Fr 09:00-17:30; Sa 09:00-18:00; Su 10:30-16:30", "image": "https://www.cotswoldoutdoor.com/content/dam/cotswold/stores/83.jpg", "brand": "Cotswold Outdoor", "brand:wikidata": "Q5175488", "nsi_id": "cotswoldoutdoor-f55d12"}, "geometry": {"type": "Point", "coordinates": [-0.329299, 51.062505]}},
{"type": "Feature", "id": "03OuB1sKg89RHpOaDrB0QFJpSBw=", "properties": {"ref": "catterick", "@spider": "cotswold_outdoor_gb", "shop": "outdoor", "addr:street_address": "Princes Gate Shopping Park, Richmond Road", "addr:city": "Catterick Garrison, Yorkshire", "addr:postcode": "DL9 3BA", "addr:country": "GB", "name": "Catterick", "phone": "01748902637", "website": "https://www.cotswoldoutdoor.com/stores/catterick.html", "contact:twitter": "@CotswoldOutdoor", "contact:email": "catterick.shop@cotswoldoutdoor.com", "opening_hours": "Mo-Fr 09:00-20:00; Sa 09:00-19:00; Su 10:30-16:30", "image": "https://www.cotswoldoutdoor.com/content/dam/cotswold/stores/80.jpg", "brand": "Cotswold Outdoor", "brand:wikidata": "Q5175488", "nsi_id": "cotswoldoutdoor-f55d12"}, "geometry": {"type": "Point", "coordinates": [-1.72405, 54.376356]}},
{"type": "Feature", "id": "szwxmbqttmyzjh6X7wI7m3uTglw=", "properties": {"ref": "stirling", "@spider": "cotswold_outdoor_gb", "shop": "outdoor", "addr:street_address": "Dobbies Garden Centre, Drip Road, Craigforth", "addr:city": "Stirling, Stirlingshire", "addr:postcode": "FK9 4UF", "addr:country": "GB", "name": "Stirling", "phone": "01786 241200", "website": "https://www.cotswoldoutdoor.com/stores/stirling.html", "contact:twitter": "@CotswoldOutdoor", "contact:email": "stirling.shop@cotswoldoutdoor.com", "opening_hours": "Mo-Su 09:00-18:00", "image": "https://www.cotswoldoutdoor.com/content/dam/cotswold/stores/81.jpg", "brand": "Cotswold Outdoor", "brand:wikidata": "Q5175488", "nsi_id": "cotswoldoutdoor-f55d12"}, "geometry": {"type": "Point", "coordinates": [-3.979719, 56.13854]}},
{"type": "Feature", "id": "pdye2vSqpiLYJz0E1j7Zunab6fg=", "properties": {"ref": "ambleside", "@spider": "cotswold_outdoor_gb", "shop": "outdoor", "addr:street_address": "Hayes Garden World Ambleside, Lake Road", "addr:city": "Ambleside, Cumbria", "addr:postcode": "LA22 0DW", "addr:country": "GB", "name": "Ambleside", "phone": "01539 751244", "website": "https://www.cotswoldoutdoor.com/stores/ambleside.html", "contact:twitter": "@CotswoldOutdoor", "contact:email": "ambleside.shop@cotswoldoutdoor.com", "opening_hours": "Mo-Sa 09:00-17:30; Su 10:00-17:00", "image": "https://www.cotswoldoutdoor.com/content/dam/cotswold/stores/75.jpg", "brand": "Cotswold Outdoor", "brand:wikidata": "Q5175488", "nsi_id": "cotswoldoutdoor-f55d12"}, "geometry": {"type": "Point", "coordinates": [-2.962441, 54.424386]}},
{"type": "Feature", "id": "TRx_QLE_qKVOmnTLHqZawkP7DgE=", "properties": {"ref": "london-islington", "@spider": "cotswold_outdoor_gb", "shop": "outdoor", "addr:street_address": "116 - 118 Islington High Street", "addr:city": "London", "addr:postcode": "N1 8EG", "addr:country": "GB", "name": "London - Islington", "phone": "020 7354 1166", "website": "https://www.cotswoldoutdoor.com/stores/london-islington.html", "contact:twitter": "@CotswoldOutdoor", "contact:email": "islington.shop@cotswoldoutdoor.com", "opening_hours": "Mo-Fr 09:30-18:30; Sa 10:00-19:00; Su 11:00-17:00", "image": "https://www.cotswoldoutdoor.com/content/dam/cotswold/stores/65.jpg", "brand": "Cotswold Outdoor", "brand:wikidata": "Q5175488", "nsi_id": "cotswoldoutdoor-f55d12"}, "geometry": {"type": "Point", "coordinates": [-0.104122, 51.534573]}},
{"type": "Feature", "id": "cFkLf5x-hdtSQY5Fku_SIphks1c=", "properties": {"ref": "fort-william", "@spider": "cotswold_outdoor_gb", "shop": "outdoor", "addr:street_address": "102 High Street", "addr:city": "Fort William, Inverness-shire", "addr:postcode": "PH33 6AD", "addr:country": "GB", "name": "Fort William", "phone": "01397 719118", "website": "https://www.cotswoldoutdoor.com/stores/fort-william.html", "contact:twitter": "@CotswoldOutdoor", "contact:email": "fortwilliam.shop@cotswoldoutdoor.com", "opening_hours": "Mo-Th 09:30-17:30; Fr 09:30-18:00; Sa 09:00-18:00; Su 10:00-17:30", "image": "https://www.cotswoldoutdoor.com/content/dam/cotswold/stores/73.jpg", "brand": "Cotswold Outdoor", "brand:wikidata": "Q5175488", "nsi_id": "cotswoldoutdoor-f55d12"}, "geometry": {"type": "Point", "coordinates": [-5.113471, 56.816592]}},
{"type": "Feature", "id": "B3N8s2frjkmCnIDy6Ew_v_x5GSw=", "properties": {"ref": "london-covent-garden-southampton-street", "@spider": "cotswold_outdoor_gb", "shop": "outdoor", "addr:street_address": "8 Southampton Street, Covent Garden", "addr:city": "London", "addr:postcode": "WC2E 7HA", "addr:country": "GB", "name": "London - Covent Garden, Southampton Street", "phone": "020 7379 3060", "website": "https://www.cotswoldoutdoor.com/stores/london-covent-garden-southampton-street.html", "contact:twitter": "@CotswoldOutdoor", "opening_hours": "Mo-Th 10:00-19:00; Fr 10:00-20:00; Sa 10:00-19:00; Su 12:00-18:00", "image": "https://www.cotswoldoutdoor.com/content/dam/cotswold/stores/32.jpg", "brand": "Cotswold Outdoor", "brand:wikidata": "Q5175488", "nsi_id": "cotswoldoutdoor-f55d12"}, "geometry": {"type": "Point", "coordinates": [-0.12189, 51.510909]}},
{"type": "Feature", "id": "JnrkNNxkkoaWHbTeRT0Q1zPQxFs=", "properties": {"ref": "windsor", "@spider": "cotswold_outdoor_gb", "shop": "outdoor", "addr:street_address": "54 - 55 Windsor Yards", "addr:city": "Windsor, Berkshire", "addr:postcode": "SL4 1TG", "addr:country": "GB", "name": "Windsor", "phone": "01753 465514", "website": "https://www.cotswoldoutdoor.com/stores/windsor.html", "contact:twitter": "@CotswoldOutdoor", "contact:email": "windsor.shop@cotswoldoutdoor.com", "opening_hours": "Mo-Fr 09:00-17:30; Sa 09:00-18:00; Su 11:00-17:00", "image": "https://www.cotswoldoutdoor.com/content/dam/cotswold/stores/71.jpg", "brand": "Cotswold Outdoor", "brand:wikidata": "Q5175488", "nsi_id": "cotswoldoutdoor-f55d12"}, "geometry": {"type": "Point", "coordinates": [-0.610638, 51.481956]}},
{"type": "Feature", "id": "bBT-9EJHLI8_wH3nRwF5x4Z3emk=", "properties": {"ref": "chester", "@spider": "cotswold_outdoor_gb", "shop": "outdoor", "addr:street_address": "82 - 84 Foregate Street", "addr:city": "Chester, Cheshire", "addr:postcode": "CH1 1HB", "addr:country": "GB", "name": "Chester", "phone": "01244 400204", "website": "https://www.cotswoldoutdoor.com/stores/chester.html", "contact:twitter": "@CotswoldOutdoor", "contact:email": "chester.shop@cotswoldoutdoor.com", "opening_hours": "Mo-Sa 09:00-18:00; Su 11:00-17:00", "image": "https://www.cotswoldoutdoor.com/content/dam/cotswold/stores/57.jpg", "brand": "Cotswold Outdoor", "brand:wikidata": "Q5175488", "nsi_id": "cotswoldoutdoor-f55d12"}, "geometry": {"type": "Point", "coordinates": [-2.884855, 53.191346]}},
{"type": "Feature", "id": "x3tiOzJOwVi7n-CTt05UtaJTg9s=", "properties": {"ref": "betws-y-coed-arfon-house", "@spider": "cotswold_outdoor_gb", "shop": "outdoor", "addr:street_address": "Arfon House, Holyhead Road", "addr:city": "Betws-y-Coed, Conwy", "addr:postcode": "LL24 0AP", "addr:country": "GB", "name": "Betws-y-Coed - Arfon House", "phone": "01690 710234", "website": "https://www.cotswoldoutdoor.com/stores/betws-y-coed-arfon-house.html", "contact:twitter": "@CotswoldOutdoor", "contact:email": "Arfonhouse.shop@cotswoldoutdoor.com", "opening_hours": "Mo-Th 09:00-17:30; Fr-Sa 09:00-18:30; Su 09:00-17:00", "image": "https://www.cotswoldoutdoor.com/content/dam/cotswold/stores/12.jpg", "brand": "Cotswold Outdoor", "brand:wikidata": "Q5175488", "nsi_id": "cotswoldoutdoor-f55d12"}, "geometry": {"type": "Point", "coordinates": [-3.800314, 53.089085]}},
{"type": "Feature", "id": "MH89Q5yYLABnjy0LZqy6HpSUpZY=", "properties": {"ref": "salisbury", "@spider": "cotswold_outdoor_gb", "shop": "outdoor", "addr:street_address": "William Russell's House, 9 Queen Street", "addr:city": "Salisbury, Wiltshire", "addr:postcode": "SP1 1EY", "addr:country": "GB", "name": "Salisbury", "phone": "01722 410659", "website": "https://www.cotswoldoutdoor.com/stores/salisbury.html", "contact:twitter": "@CotswoldOutdoor", "contact:email": "salisbury.shop@cotswoldoutdoor.com", "opening_hours": "Mo-Fr 09:00-17:30; Sa 09:00-18:00; Su 10:30-16:30", "image": "https://www.cotswoldoutdoor.com/content/dam/cotswold/stores/46.jpg", "brand": "Cotswold Outdoor", "brand:wikidata": "Q5175488", "nsi_id": "cotswoldoutdoor-f55d12"}, "geometry": {"type": "Point", "coordinates": [-1.794057, 51.068989]}},
{"type": "Feature", "id": "Uv-P25b4OnX-aHuWGr04SOCWIdk=", "properties": {"ref": "guildford", "@spider": "cotswold_outdoor_gb", "shop": "outdoor", "addr:street_address": "2 - 3 Friary Street", "addr:city": "Guildford, Surrey", "addr:postcode": "GU1 4EH", "addr:country": "GB", "name": "Guildford", "phone": "01483 574032", "website": "https://www.cotswoldoutdoor.com/stores/guildford.html", "contact:twitter": "@CotswoldOutdoor", "contact:email": "guildford.shop@cotswoldoutdoor.com", "opening_hours": "Mo-We 09:00-18:00; Th 09:00-20:00; Fr-Sa 09:00-18:00; Su 11:00-17:00", "image": "https://www.cotswoldoutdoor.com/content/dam/cotswold/stores/48.jpg", "brand": "Cotswold Outdoor", "brand:wikidata": "Q5175488", "nsi_id": "cotswoldoutdoor-f55d12"}, "geometry": {"type": "Point", "coordinates": [-0.575988, 51.235391]}},
{"type": "Feature", "id": "2LfIKb5qtiV1P-CaAYjp4UvBSbM=", "properties": {"ref": "kingston-upon-thames", "@spider": "cotswold_outdoor_gb", "shop": "outdoor", "addr:street_address": "72 - 76 Clarence Street", "addr:city": "Kingston - upon - Thames, Surrey", "addr:postcode": "KT1 1NW", "addr:country": "GB", "name": "Kingston-Upon-Thames", "phone": "0208 549 9500", "website": "https://www.cotswoldoutdoor.com/stores/kingston-upon-thames.html", "contact:twitter": "@CotswoldOutdoor", "contact:email": "Kingston.shop@cotswoldoutdoor.com", "opening_hours": "Mo 09:30-18:00; Tu 10:00-18:00; We 09:30-18:00; Th 10:00-19:00; Fr-Sa 09:30-18:00; Su 11:00-17:00", "image": "https://www.cotswoldoutdoor.com/content/dam/cotswold/stores/13.jpg", "brand": "Cotswold Outdoor", "brand:wikidata": "Q5175488", "nsi_id": "cotswoldoutdoor-f55d12"}, "geometry": {"type": "Point", "coordinates": [-0.301169, 51.410697]}},
{"type": "Feature", "id": "pzcoShgXpJmGiTBNdfaM-Y9ZZk4=", "properties": {"ref": "carmarthen", "@spider": "cotswold_outdoor_gb", "shop": "outdoor", "addr:street_address": "Unit 5 & 5A, St Catherine's Walk", "addr:city": "Carmarthen, Carmarthenshire", "addr:postcode": "SA31 1GA", "addr:country": "GB", "name": "Carmarthen", "phone": "01267 222039", "website": "https://www.cotswoldoutdoor.com/stores/carmarthen.html", "contact:twitter": "@CotswoldOutdoor", "contact:email": "carmarthen.shop@cotswoldoutdoor.com", "opening_hours": "Mo-Fr 09:00-17:30; Sa 09:00-18:00; Su 10:30-16:30", "image": "https://www.cotswoldoutdoor.com/content/dam/cotswold/stores/51.jpg", "brand": "Cotswold Outdoor", "brand:wikidata": "Q5175488", "nsi_id": "cotswoldoutdoor-f55d12"}, "geometry": {"type": "Point", "coordinates": [-4.310288, 51.858673]}},
{"type": "Feature", "id": "PcsxdE9p5YT44CmRs9DHW8ws1uA=", "properties": {"ref": "st-albans", "@spider": "cotswold_outdoor_gb", "shop": "outdoor", "addr:street_address": "91 Victoria Street", "addr:city": "St. Albans, Hertfordshire", "addr:postcode": "AL1 3TJ", "addr:country": "GB", "name": "St Albans", "phone": "01727 847888", "website": "https://www.cotswoldoutdoor.com/stores/st-albans.html", "contact:twitter": "@CotswoldOutdoor", "contact:email": "StAlbans.Shop@cotswoldoutdoor.com", "opening_hours": "Mo-Sa 09:30-18:00; Su 10:30-16:30", "image": "https://www.cotswoldoutdoor.com/content/dam/cotswold/stores/8.jpg", "brand": "Cotswold Outdoor", "brand:wikidata": "Q5175488", "nsi_id": "cotswoldoutdoor-f55d12"}, "geometry": {"type": "Point", "coordinates": [-0.332328, 51.751042]}},
{"type": "Feature", "id": "8JZEqtvlfsUR1HIui40hmzyhDzs=", "properties": {"ref": "plymouth", "@spider": "cotswold_outdoor_gb", "shop": "outdoor", "addr:street_address": "Unit 7, 25 Old Town Street, Drakes Circus", "addr:city": "Plymouth, Devon", "addr:postcode": "PL1 1DA", "addr:country": "GB", "name": "Plymouth", "phone": "01752 672024", "website": "https://www.cotswoldoutdoor.com/stores/plymouth.html", "contact:twitter": "@CotswoldOutdoor", "contact:email": "plymouth.shop@cotswoldoutdoor.com", "opening_hours": "Mo-We 09:00-18:00; Th 09:00-19:00; Fr-Sa 09:00-18:00; Su 10:30-16:30", "image": "https://www.cotswoldoutdoor.com/content/dam/cotswold/stores/34.jpg", "brand": "Cotswold Outdoor", "brand:wikidata": "Q5175488", "nsi_id": "cotswoldoutdoor-f55d12"}, "geometry": {"type": "Point", "coordinates": [-4.139302, 50.371689]}},
{"type": "Feature", "id": "CM8PRFVkj1Il6AtZqfywW99Ii_A=", "properties": {"ref": "cirencester-cotswold-water-park", "@spider": "cotswold_outdoor_gb", "shop": "outdoor", "addr:street_address": "Spine Road East, South Cerney", "addr:city": "Cirencester, Gloucestershire", "addr:postcode": "GL7 5TL", "addr:country": "GB", "name": "Cirencester - Cotswold Water Park", "phone": "01285 863930", "website": "https://www.cotswoldoutdoor.com/stores/cirencester-cotswold-water-park.html", "contact:twitter": "@CotswoldOutdoor", "contact:email": "southcerney.shop@cotswoldoutdoor.com", "opening_hours": "Mo-We 09:30-18:00; Th 09:30-20:00; Fr 09:30-18:00; Sa 09:00-18:00; Su 10:30-16:30", "image": "https://www.cotswoldoutdoor.com/content/dam/cotswold/stores/7.jpg", "brand": "Cotswold Outdoor", "brand:wikidata": "Q5175488", "nsi_id": "cotswoldoutdoor-f55d12"}, "geometry": {"type": "Point", "coordinates": [-1.89674, 51.672149]}},
{"type": "Feature", "id": "Optu6axhSAaoxL7zPffrDFIl9Lg=", "properties": {"ref": "london-leyden-st", "@spider": "cotswold_outdoor_gb", "shop": "outdoor", "addr:street_address": "Ground Floor, St Clements House, Leyden Street", "addr:city": "London", "addr:postcode": "E1 7LL", "addr:country": "GB", "name": "London - Leyden St", "phone": "020 7655 4660", "website": "https://www.cotswoldoutdoor.com/stores/london-leyden-st.html", "contact:twitter": "@CotswoldOutdoor", "contact:email": "leydenstreet.shop@cotswoldoutdoor.com", "opening_hours": "Mo-Fr 10:00-19:00; Sa 10:00-18:00; Su 10:30-16:30", "image": "https://www.cotswoldoutdoor.com/content/dam/cotswold/stores/16.jpg", "brand": "Cotswold Outdoor", "brand:wikidata": "Q5175488", "nsi_id": "cotswoldoutdoor-f55d12"}, "geometry": {"type": "Point", "coordinates": [-0.075881, 51.517078]}},
{"type": "Feature", "id": "fjtgx8MFfjJbxx4EFPPIsvi-S2I=", "properties": {"ref": "droitwich", "@spider": "cotswold_outdoor_gb", "shop": "outdoor", "addr:street_address": "Unit 1, Webbs Garden Centre, Worcester Road, Wychbold", "addr:city": "Droitwich, Worcestershire", "addr:postcode": "WR9 0DG", "addr:country": "GB", "name": "Droitwich", "phone": "01527 861751", "website": "https://www.cotswoldoutdoor.com/stores/droitwich.html", "contact:twitter": "@CotswoldOutdoor", "contact:email": "droitwich.shop@cotswoldoutdoor.com", "opening_hours": "Mo-Fr 09:00-20:00; Sa 09:00-18:00; Su 10:30-16:30", "image": "https://www.cotswoldoutdoor.com/content/dam/cotswold/stores/23.jpg", "brand": "Cotswold Outdoor", "brand:wikidata": "Q5175488", "nsi_id": "cotswoldoutdoor-f55d12"}, "geometry": {"type": "Point", "coordinates": [-2.104053, 52.302259]}},
{"type": "Feature", "id": "DgcwvpJ0R7g6wPUgcWepL3G6WmU=", "properties": {"ref": "liverpool", "@spider": "cotswold_outdoor_gb", "shop": "outdoor", "addr:street_address": "58 - 60 Church Street", "addr:city": "Liverpool, Merseyside", "addr:postcode": "L1 3AY", "addr:country": "GB", "name": "Liverpool", "phone": "0151 707 0323", "website": "https://www.cotswoldoutdoor.com/stores/liverpool.html", "contact:twitter": "@CotswoldOutdoor", "contact:email": "liverpool.shop@cotswoldoutdoor.com", "opening_hours": "Mo-We 09:00-18:00; Th-Fr 09:00-19:00; Sa 09:00-18:00; Su 11:00-17:00", "image": "https://www.cotswoldoutdoor.com/content/dam/cotswold/stores/37.jpg", "brand": "Cotswold Outdoor", "brand:wikidata": "Q5175488", "nsi_id": "cotswoldoutdoor-f55d12"}, "geometry": {"type": "Point", "coordinates": [-2.982482, 53.404818]}},
{"type": "Feature", "id": "mdRNXuxWhBtRoO958ptrujS1RUQ=", "properties": {"ref": "belfast-boucher-retail-park", "@spider": "cotswold_outdoor_gb", "shop": "outdoor", "addr:street_address": "Unit 10, Boucher Retail Park, Boucher Crescent", "addr:city": "Belfast, Northern Ireland", "addr:postcode": "BT12 6HU", "addr:country": "GB", "name": "Belfast - Boucher Retail Park", "phone": "02890 665003", "website": "https://www.cotswoldoutdoor.com/stores/belfast-boucher-retail-park.html", "contact:twitter": "@CotswoldOutdoor", "contact:email": "belfast.shop@cotswoldoutdoor.com", "opening_hours": "Mo-Tu 10:00-18:00; We 10:00-19:00; Th 10:00-21:00; Fr 10:00-19:00; Sa 10:00-18:00; Su 13:00-18:00", "image": "https://www.cotswoldoutdoor.com/content/dam/cotswold/stores/22.jpg", "brand": "Cotswold Outdoor", "brand:wikidata": "Q5175488", "nsi_id": "cotswoldoutdoor-f55d12"}, "geometry": {"type": "Point", "coordinates": [-5.966176, 54.581016]}},
{"type": "Feature", "id": "l4A47t4XbyGuYj_2QJxNexSjt9E=", "properties": {"ref": "bournemouth", "@spider": "cotswold_outdoor_gb", "shop": "outdoor", "addr:street_address": "Unit 1, Westover Retail Park, Castle Lane West", "addr:city": "Bournemouth, Dorset", "addr:postcode": "BH9 3JS", "addr:country": "GB", "name": "Bournemouth", "phone": "01202 529123", "website": "https://www.cotswoldoutdoor.com/stores/bournemouth.html", "contact:twitter": "@CotswoldOutdoor", "contact:email": "bournemouth.shop@cotswoldoutdoor.com", "opening_hours": "Mo-We 09:30-18:00; Th 09:30-20:00; Fr 09:30-18:00; Sa 09:00-18:00; Su 10:30-16:30", "image": "https://www.cotswoldoutdoor.com/content/dam/cotswold/stores/15.jpg", "brand": "Cotswold Outdoor", "brand:wikidata": "Q5175488", "nsi_id": "cotswoldoutdoor-f55d12"}, "geometry": {"type": "Point", "coordinates": [-1.870738, 50.759892]}},
{"type": "Feature", "id": "8W8-TgSlMRueuUb9_JB-GfrRp2A=", "properties": {"ref": "keswick", "@spider": "cotswold_outdoor_gb", "shop": "outdoor", "addr:street_address": "16 Main Street", "addr:city": "Keswick, Cumbria", "addr:postcode": "CA12 5JD", "addr:country": "GB", "name": "Keswick", "phone": "017687  81030", "website": "https://www.cotswoldoutdoor.com/stores/keswick.html", "contact:twitter": "@CotswoldOutdoor", "contact:email": "keswick.shop@cotswoldoutdoor.com", "opening_hours": "Mo-Sa 09:30-18:00; Su 11:00-17:00", "image": "https://www.cotswoldoutdoor.com/content/dam/cotswold/stores/14.jpg", "brand": "Cotswold Outdoor", "brand:wikidata": "Q5175488", "nsi_id": "cotswoldoutdoor-f55d12"}, "geometry": {"type": "Point", "coordinates": [-3.137159, 54.600887]}},
{"type": "Feature", "id": "5ZtDbwgQcyobLHPiTfAoTlA-xsU=", "properties": {"ref": "glasgow-west-end", "@spider": "cotswold_outdoor_gb", "shop": "outdoor", "addr:street_address": "West End Retail Park, 60 Crow Road, Partick", "addr:city": "Glasgow, Lanarkshire", "addr:postcode": "G11 7RY", "addr:country": "GB", "name": "Glasgow - West End", "phone": "0141 357 5353", "website": "https://www.cotswoldoutdoor.com/stores/glasgow-west-end.html", "contact:twitter": "@CotswoldOutdoor", "contact:email": "glasgow.shop@cotswoldoutdoor.com", "opening_hours": "Mo-Fr 09:00-20:00; Sa 09:00-18:00; Su 10:30-17:30", "image": "https://www.cotswoldoutdoor.com/content/dam/cotswold/stores/11.jpg", "brand": "Cotswold Outdoor", "brand:wikidata": "Q5175488", "nsi_id": "cotswoldoutdoor-f55d12"}, "geometry": {"type": "Point", "coordinates": [-4.312353, 55.872316]}},
{"type": "Feature", "id": "CmL85JGMd2uWIOxfijwpExrR7dE=", "properties": {"ref": "maidstone", "@spider": "cotswold_outdoor_gb", "shop": "outdoor", "addr:street_address": "Unit 29, Newnham Court, Shopping Village, Bearsted Road", "addr:city": "Maidstone, Kent", "addr:postcode": "ME14 5LH", "addr:country": "GB", "name": "Maidstone", "phone": "01622 738381", "website": "https://www.cotswoldoutdoor.com/stores/maidstone.html", "contact:twitter": "@CotswoldOutdoor", "contact:email": "maidstone.shop@cotswoldoutdoor.com", "opening_hours": "Mo-Sa 09:00-17:00; Su 10:30-16:30", "image": "https://www.cotswoldoutdoor.com/content/dam/cotswold/stores/25.jpg", "brand": "Cotswold Outdoor", "brand:wikidata": "Q5175488", "nsi_id": "cotswoldoutdoor-f55d12"}, "geometry": {"type": "Point", "coordinates": [0.552382, 51.28506]}},
{"type": "Feature", "id": "pRuxf7e3W03IhGjllPsWELr7Eto=", "properties": {"ref": "nottingham", "@spider": "cotswold_outdoor_gb", "shop": "outdoor", "addr:street_address": "Castle Buildings, Castle Boulevard", "addr:city": "Nottingham, Nottinghamshire", "addr:postcode": "NG7 1SA", "addr:country": "GB", "name": "Nottingham", "phone": "01159 576890", "website": "https://www.cotswoldoutdoor.com/stores/nottingham.html", "contact:twitter": "@CotswoldOutdoor", "contact:email": "nottingham.shop@cotswoldoutdoor.com", "opening_hours": "Mo-Sa 09:00-18:00; Su 10:30-16:30", "image": "https://www.cotswoldoutdoor.com/content/dam/cotswold/stores/19.jpg", "brand": "Cotswold Outdoor", "brand:wikidata": "Q5175488", "nsi_id": "cotswoldoutdoor-f55d12"}, "geometry": {"type": "Point", "coordinates": [-1.17198, 52.947215]}},
{"type": "Feature", "id": "SbHwNSo4RMbgyBofItMHzeTjYt8=", "properties": {"ref": "brecon", "@spider": "cotswold_outdoor_gb", "shop": "outdoor", "addr:street_address": "102 The Struet", "addr:city": "Brecon, Powys", "addr:postcode": "LD3 7LT", "addr:country": "GB", "name": "Brecon", "phone": "01874 622551", "website": "https://www.cotswoldoutdoor.com/stores/brecon.html", "contact:twitter": "@CotswoldOutdoor", "contact:email": "brecon.shop@cotswoldoutdoor.com", "opening_hours": "Mo-Fr 09:00-17:30; Sa 09:00-18:00; Su 10:00-16:00", "image": "https://www.cotswoldoutdoor.com/content/dam/cotswold/stores/33.jpg", "brand": "Cotswold Outdoor", "brand:wikidata": "Q5175488", "nsi_id": "cotswoldoutdoor-f55d12"}, "geometry": {"type": "Point", "coordinates": [-3.391457, 51.949002]}},
{"type": "Feature", "id": "8kchxhzR_B-CQzDZdeRQr1FFlk0=", "properties": {"ref": "exeter-darts-farm", "@spider": "cotswold_outdoor_gb", "shop": "outdoor", "addr:street_address": "Darts Farm Shopping Village, Darts Farm", "addr:city": "Topsham, Exeter, Devon", "addr:postcode": "EX3 0QH", "addr:country": "GB", "name": "Exeter - Darts Farm", "phone": "01392 878313", "website": "https://www.cotswoldoutdoor.com/stores/exeter-darts-farm.html", "contact:twitter": "@CotswoldOutdoor", "contact:email": "exeter.shop@cotswoldoutdoor.com", "opening_hours": "Mo-Sa 09:00-18:00; Su 10:00-16:00", "image": "https://www.cotswoldoutdoor.com/content/dam/cotswold/stores/24.jpg", "brand": "Cotswold Outdoor", "brand:wikidata": "Q5175488", "nsi_id": "cotswoldoutdoor-f55d12"}, "geometry": {"type": "Point", "coordinates": [-3.449165, 50.685803]}},
{"type": "Feature", "id": "9nyG-uIfezBf16yrj4lDxbwvLek=", "properties": {"ref": "orpington", "@spider": "cotswold_outdoor_gb", "shop": "outdoor", "addr:street_address": "Unit 2, Nugent Shopping Park, Cray Avenue", "addr:city": "Orpington, Kent", "addr:postcode": "BR5 3RP", "addr:country": "GB", "name": "Orpington", "phone": "01689 885560", "website": "https://www.cotswoldoutdoor.com/stores/orpington.html", "contact:twitter": "@CotswoldOutdoor", "contact:email": "orpington.shop@cotswoldoutdoor.com", "opening_hours": "Mo-Fr 09:30-18:00; Sa 09:00-17:30; Su 11:00-17:00", "image": "https://www.cotswoldoutdoor.com/content/dam/cotswold/stores/21.jpg", "brand": "Cotswold Outdoor", "brand:wikidata": "Q5175488", "nsi_id": "cotswoldoutdoor-f55d12"}, "geometry": {"type": "Point", "coordinates": [0.112502, 51.393699]}},
{"type": "Feature", "id": "cF7JAB6dl3_7ppHJE6w_9zCtqlQ=", "properties": {"ref": "southampton", "@spider": "cotswold_outdoor_gb", "shop": "outdoor", "addr:street_address": "13 Lower Northam Road, Hedge End", "addr:city": "Southampton, Hampshire", "addr:postcode": "SO30 4FN", "addr:country": "GB", "name": "Southampton", "phone": "01489 790010", "website": "https://www.cotswoldoutdoor.com/stores/southampton.html", "contact:twitter": "@CotswoldOutdoor", "contact:email": "southampton.shop@cotswoldoutdoor.com", "opening_hours": "Mo-We 09:30-18:00; Th 09:30-20:00; Fr 09:30-18:00; Sa 09:00-18:00; Su 10:30-16:30", "image": "https://www.cotswoldoutdoor.com/content/dam/cotswold/stores/6.jpg", "brand": "Cotswold Outdoor", "brand:wikidata": "Q5175488", "nsi_id": "cotswoldoutdoor-f55d12"}, "geometry": {"type": "Point", "coordinates": [-1.302132, 50.914247]}}]}