{"type":"FeatureCollection","features":[{"type": "Feature", "id": "b9UvthVNTUi8GSzsz-Bd495GyTE=", "properties": {"ref": "1000 E. Primrose St. Springfield, MO 65807", "@spider": "cox_health", "addr:full": "1000 E. Primrose St.", "addr:city": "Springfield", "addr:state": "MO", "addr:postcode": "65807", "addr:country": "US", "name": "24/7 Urgent Care Plus Springfield: Turner Center", "phone": "417-269-9812", "brand": "CoxHealth", "brand:wikidata": "Q5179867"}, "geometry": {"type": "Point", "coordinates": [-93.281276, 37.145838]}},
{"type": "Feature", "id": "9Vzctecz37uf73IDPA36X4rCvpw=", "properties": {"ref": "3555 S. National Ave. 1st floor", "@spider": "cox_health", "addr:full": "3 5 5 5   S   N a t i o n a l   A v e", "addr:city": "Springfield", "addr:state": "MO", "addr:postcode": "65807", "addr:country": "US", "name": "Orthopedic & Sports Injury Walk-In Clinic Springfield", "phone": "417-875-3800", "brand": "CoxHealth", "brand:wikidata": "Q5179867"}, "geometry": {"type": "Point", "coordinates": [-93.278649, 37.148877]}},
{"type": "Feature", "id": "G-dqEvib2Tyu1caUVSbp8PwAdZM=", "properties": {"ref": "1000 E. Highway 60 Monett, MO 65708", "@spider": "cox_health", "addr:full": "1000 E. Highway 60", "addr:city": "Monett", "addr:state": "MO", "addr:postcode": "65708", "addr:country": "US", "name": "Monett Gift Shop: From the Heart", "phone": "417-354-1199", "brand": "CoxHealth", "brand:wikidata": "Q5179867"}, "geometry": {"type": "Point", "coordinates": [-93.89998, 36.91384]}},
{"type": "Feature", "id": "wX6yVJ0apwGvwx8LdpMUUfrv9j8=", "properties": {"ref": "3535 S. National Ave. Springfield, MO 65807", "@spider": "cox_health", "addr:full": "3535 S. National Ave.", "addr:city": "Springfield", "addr:state": "MO", "addr:postcode": "65807", "addr:country": "US", "name": "Meyer Orthopedic & Rehabilitation Hospital", "phone": "417-269-9800", "brand": "CoxHealth", "brand:wikidata": "Q5179867"}, "geometry": {"type": "Point", "coordinates": [-93.278939, 37.150478]}},
{"type": "Feature", "id": "SIRuMNv4mdwhF9wpCA65aH2Kcb4=", "properties": {"ref": "29 NW 1st Lane Lamar, MO 64759", "@spider": "cox_health", "addr:full": "29 NW 1st Lane", "addr:city": "Lamar", "addr:state": "MO", "addr:postcode": "64759", "addr:country": "US", "name": "Medical One Clinic", "phone": "417-681-5266", "brand": "CoxHealth", "brand:wikidata": "Q5179867"}, "geometry": {"type": "Point", "coordinates": [-94.300905, 37.506038]}},
{"type": "Feature", "id": "DKKU0xFjkBjuazjPbJKI9rR5ekU=", "properties": {"ref": "1720 W. Battlefield Road Springfield, MO 65807", "@spider": "cox_health", "addr:full": "1720 W. Battlefield Road", "addr:city": "Springfield", "addr:state": "MO", "addr:postcode": "65807", "addr:country": "US", "name": "Hy-Vee Quick+Care Springfield", "phone": "417-881-8649", "brand": "CoxHealth", "brand:wikidata": "Q5179867"}, "geometry": {"type": "Point", "coordinates": [-93.315042, 37.158891]}},
{"type": "Feature", "id": "72oA63EAo6otPBXG3dusjmJ0MmQ=", "properties": {"ref": "3850 S. National Ave. Springfield, MO 65807", "@spider": "cox_health", "addr:full": "3850 S. National Ave.", "addr:city": "Springfield", "addr:state": "MO", "addr:postcode": "65807", "addr:country": "US", "name": "Hulston Cancer Center", "phone": "417-269-5257", "brand": "CoxHealth", "brand:wikidata": "Q5179867"}, "geometry": {"type": "Point", "coordinates": [-93.277309, 37.145085]}},
{"type": "Feature", "id": "X2oi1l5eK6LFaaRzqHBOSPznSLk=", "properties": {"ref": "403 Main St. Golden City, MO 64748", "@spider": "cox_health", "addr:full": "403 Main St. Golden", "addr:city": "City", "addr:state": "MO", "addr:postcode": "64748", "addr:country": "US", "name": "Golden City Clinic", "phone": "417-537-4311", "brand": "CoxHealth", "brand:wikidata": "Q5179867"}, "geometry": {"type": "Point", "coordinates": [-94.0943747, 37.3928492]}},
{"type": "Feature", "id": "FzmFNWfyitQ7Py-csZHMQm4bP84=", "properties": {"ref": "1001 E. Primrose St. Springfield, MO 65807", "@spider": "cox_health", "addr:full": "1001 E. Primrose St.", "addr:city": "Springfield", "addr:state": "MO", "addr:postcode": "65807", "addr:country": "US", "name": "Ferrell-Duncan Clinic", "phone": "417-875-3000", "brand": "CoxHealth", "brand:wikidata": "Q5179867"}, "geometry": {"type": "Point", "coordinates": [-93.281125, 37.148409]}},
{"type": "Feature", "id": "jm2sgQxfNFsA6t9VE1Q5QA6W1kM=", "properties": {"ref": "3800 S. National Ave., Suite 700 Springfield, MO 65807", "@spider": "cox_health", "addr:full": "3800 S. National Ave., Suite 700", "addr:city": "Springfield", "addr:state": "MO", "addr:postcode": "65807", "addr:country": "US", "name": "Family Medical Care Center", "phone": "417-269-8817", "brand": "CoxHealth", "brand:wikidata": "Q5179867"}, "geometry": {"type": "Point", "coordinates": [-93.2770495, 37.1458214]}},
{"type": "Feature", "id": "FYbfBQiNml07v949wgO2FqhAxQg=", "properties": {"ref": "3555 S National Ave., Suite 502 Springfield, MO 65807", "@spider": "cox_health", "addr:full": "3555 S National Ave., Suite 502", "addr:city": "Springfield", "addr:state": "MO", "addr:postcode": "65807", "addr:country": "US", "name": "CoxHealth Vein Center: Springfield", "phone": "417-269-7444", "brand": "CoxHealth", "brand:wikidata": "Q5179867"}, "geometry": {"type": "Point", "coordinates": [-93.2791776, 37.1392488]}},
{"type": "Feature", "id": "-m25DNOmTh5mYXyjA8ighwLMyxQ=", "properties": {"ref": "525 Branson Landing Blvd., Suite 307 Branson, MO 65616", "@spider": "cox_health", "addr:full": "525 Branson Landing Blvd., Suite 307", "addr:city": "Branson", "addr:state": "MO", "addr:postcode": "65616", "addr:country": "US", "name": "CoxHealth Vein Center: Branson", "phone": "417-269-7444", "brand": "CoxHealth", "brand:wikidata": "Q5179867"}, "geometry": {"type": "Point", "coordinates": [-93.221613, 36.651149]}},
{"type": "Feature", "id": "3QrnIAgsA71wxM9VNZ3pSHR6mdM=", "properties": {"ref": "960 E. Walnut Lawn Springfield, MO 65807", "@spider": "cox_health", "addr:full": "960 E. Walnut Lawn", "addr:city": "Springfield", "addr:state": "MO", "addr:postcode": "65807", "addr:country": "US", "name": "CoxHealth Surgery Center", "phone": "417-269-3000", "brand": "CoxHealth", "brand:wikidata": "Q5179867"}, "geometry": {"type": "Point", "coordinates": [-93.281325, 37.15211]}},
{"type": "Feature", "id": "lkJFK-SyXz7Npuipk317F7R-sg0=", "properties": {"ref": "3203 E Old Stone Ave Brookline, MO 65619", "@spider": "cox_health", "addr:full": "3203 E Old Stone Ave", "addr:city": "Brookline", "addr:state": "MO", "addr:postcode": "65619", "addr:country": "US", "name": "CoxHealth Republic Clinic", "phone": "417-269-1910", "brand": "CoxHealth", "brand:wikidata": "Q5179867"}, "geometry": {"type": "Point", "coordinates": [-93.4946267, 37.107247]}},
{"type": "Feature", "id": "evn0j--FQkP4DCQzP10ddlpWMdQ=", "properties": {"ref": "525 Branson Landing Blvd, Suite 501 Branson, MO 65615", "@spider": "cox_health", "addr:full": "525 Branson Landing Blvd, Suite 501", "addr:city": "Branson", "addr:state": "MO", "addr:postcode": "65615", "addr:country": "US", "name": "CoxHealth Pediatric Specialty Center - Branson", "phone": "417-269-1010", "brand": "CoxHealth", "brand:wikidata": "Q5179867"}, "geometry": {"type": "Point", "coordinates": [-93.22168284636649, 36.65127341637792]}},
{"type": "Feature", "id": "QgWV_n9mbgqo8a5SyBuPdmmWmcU=", "properties": {"ref": "3800 S. National Ave. Springfield, MO 65807", "@spider": "cox_health", "addr:full": "3800 S. National Ave.", "addr:city": "Springfield", "addr:state": "MO", "addr:postcode": "65807", "addr:country": "US", "name": "Wheeler Heart and Vascular Center - Vascular Services", "phone": "417-875-2632", "brand": "CoxHealth", "brand:wikidata": "Q5179867"}, "geometry": {"type": "Point", "coordinates": [-93.276608, 37.146429]}},
{"type": "Feature", "id": "ZVF-T-Hvua38n6h-0BA4Xp9-itc=", "properties": {"ref": "3805 S. Kansas Expressway, Suite B Springfield, MO 65807", "@spider": "cox_health", "addr:full": "3805 S. Kansas Expressway, Suite B", "addr:city": "Springfield", "addr:state": "MO", "addr:postcode": "65807", "addr:country": "US", "name": "Walk-In Clinic Springfield: Chesterfield", "phone": "417-269-0269", "brand": "CoxHealth", "brand:wikidata": "Q5179867"}, "geometry": {"type": "Point", "coordinates": [-93.3222732, 37.1449131]}},
{"type": "Feature", "id": "I1fuVKeE-H0Sg9hiFo8eRtqUbH0=", "properties": {"ref": "18452 Missouri Business 13 Branson West, MO 65737", "@spider": "cox_health", "addr:full": "18452 Missouri Business 13", "addr:city": "Branson West", "addr:state": "MO", "addr:postcode": "65737", "addr:country": "US", "name": "Walk-In Clinic Branson West", "phone": "417-272-8911", "brand": "CoxHealth", "brand:wikidata": "Q5179867"}, "geometry": {"type": "Point", "coordinates": [-93.3711489, 36.7010778]}},
{"type": "Feature", "id": "ZjjEzVEJSdT_JVkzk8ZF8xJ4D2g=", "properties": {"ref": "2200 E. Cleveland Ave. Monett, MO 65708", "@spider": "cox_health", "addr:full": "2200 E. Cleveland Ave.", "addr:city": "Monett", "addr:state": "MO", "addr:postcode": "65708", "addr:country": "US", "name": "Visiting Physicians Clinic", "phone": "417-354-1105", "brand": "CoxHealth", "brand:wikidata": "Q5179867"}, "geometry": {"type": "Point", "coordinates": [-93.9043003, 36.928304]}},
{"type": "Feature", "id": "ldBwR4J-eybmE9szlmomvno3rLg=", "properties": {"ref": "1429 W. Sunshine St. Springfield, MO 65807", "@spider": "cox_health", "addr:full": "1429 W. Sunshine St.", "addr:city": "Springfield", "addr:state": "MO", "addr:postcode": "65807", "addr:country": "US", "name": "Urgent Care Springfield: Elfindale", "phone": "417-730-5700", "brand": "CoxHealth", "brand:wikidata": "Q5179867"}, "geometry": {"type": "Point", "coordinates": [-93.3138949, 37.1828215]}},
{"type": "Feature", "id": "uHEjgo03DPsR0D5GaqU4SeK2OuA=", "properties": {"ref": "3525 E. Battlefield Rd Springfield, MO 65809", "@spider": "cox_health", "addr:full": "3525 E. Battlefield Rd", "addr:city": "Springfield", "addr:state": "MO", "addr:postcode": "65809", "addr:country": "US", "name": "Urgent Care Springfield: East Battlefield", "phone": "417-269-0065", "brand": "CoxHealth", "brand:wikidata": "Q5179867"}, "geometry": {"type": "Point", "coordinates": [-93.3050438, 37.0904849]}},
{"type": "Feature", "id": "eBARgdZnI0buMY2DnBxBZeoQd-0=", "properties": {"ref": "5100 N. Towne Centre Dr. Ozark, MO 65721", "@spider": "cox_health", "addr:full": "5100 N. Towne Centre Dr.", "addr:city": "Ozark", "addr:state": "MO", "addr:postcode": "65721", "addr:country": "US", "name": "Urgent Care Ozark", "phone": "417-730-5360", "brand": "CoxHealth", "brand:wikidata": "Q5179867"}, "geometry": {"type": "Point", "coordinates": [93.235907, 37.0689957]}},
{"type": "Feature", "id": "h3uZxPgRsqSI-QlVD2IIq5FyjcE=", "properties": {"ref": "501 N. Old Wilderness Rd. Nixa, MO 65714", "@spider": "cox_health", "addr:full": "501 N. Old Wilderness Rd.", "addr:city": "Nixa", "addr:state": "MO", "addr:postcode": "65714", "addr:country": "US", "name": "Urgent Care Nixa", "phone": "417-269-2150", "brand": "CoxHealth", "brand:wikidata": "Q5179867"}, "geometry": {"type": "Point", "coordinates": [-93.2483068, 37.0279272]}},
{"type": "Feature", "id": "9oeXGopNUjtlP29G915_X0A8JL8=", "properties": {"ref": "2200 E. Cleveland Monett, MO 65708", "@spider": "cox_health", "addr:full": "2200 E. Cleveland", "addr:city": "Monett", "addr:state": "MO", "addr:postcode": "65708", "addr:country": "US", "name": "Urgent Care Monett", "phone": "417-354-1570", "brand": "CoxHealth", "brand:wikidata": "Q5179867"}, "geometry": {"type": "Point", "coordinates": [-93.927074, 36.929119]}},
{"type": "Feature", "id": "51Lx2WeUKskXBu9PE8BvNiA28ZY=", "properties": {"ref": "1216 Deadra Drive Lebanon, MO 65536", "@spider": "cox_health", "addr:full": "1216 Deadra Drive", "addr:city": "Lebanon", "addr:state": "MO", "addr:postcode": "65536", "addr:country": "US", "name": "Urgent Care Lebanon", "phone": "417-730-5650", "brand": "CoxHealth", "brand:wikidata": "Q5179867"}, "geometry": {"type": "Point", "coordinates": [-92.6374801, 37.6683571]}},
{"type": "Feature", "id": "kFgo25XpPiCMDzA28hZrYwXWYKI=", "properties": {"ref": "525 Branson Landing Blvd. Branson, MO 65616", "@spider": "cox_health", "addr:full": "525 Branson Landing Blvd.", "addr:city": "Branson", "addr:state": "MO", "addr:postcode": "65616", "addr:country": "US", "name": "Urgent Care Branson", "phone": "417-348-8646", "brand": "CoxHealth", "brand:wikidata": "Q5179867"}, "geometry": {"type": "Point", "coordinates": [-93.220463, 36.652164]}},
{"type": "Feature", "id": "Qe2Txu6bk_fZJAj-iVjvWtIqamM=", "properties": {"ref": "3901 S. Fremont Ave. Springfield, MO 65804", "@spider": "cox_health", "addr:full": "3901 S. Fremont Ave.", "addr:city": "Springfield", "addr:state": "MO", "addr:postcode": "65804", "addr:country": "US", "name": "The Martin Center", "phone": "417-269-1182", "brand": "CoxHealth", "brand:wikidata": "Q5179867"}, "geometry": {"type": "Point", "coordinates": [-93.273565, 37.143392]}},
{"type": "Feature", "id": "Pkk4eMKweYwESxweuxLx_z9EfKA=", "properties": {"ref": "3555 S. National Ave. Springfield, MO 65807", "@spider": "cox_health", "addr:full": "3555 S. National Ave.", "addr:city": "Springfield", "addr:state": "MO", "addr:postcode": "65807", "addr:country": "US", "name": "The Bone & Joint Center", "phone": "417- 875-3800", "brand": "CoxHealth", "brand:wikidata": "Q5179867"}, "geometry": {"type": "Point", "coordinates": [-93.27929, 37.148884]}},
{"type": "Feature", "id": "4kMSCPI2MXyQteU9DdCc2kafbTI=", "properties": {"ref": "3801 S National Ave Suite 900 Springfield, MO 65807", "@spider": "cox_health", "addr:full": "3801 S National Ave Suite 900", "addr:city": "Springfield", "addr:state": "MO", "addr:postcode": "65807", "addr:country": "US", "name": "Spine Care Clinic", "phone": "417-269-2225", "brand": "CoxHealth", "brand:wikidata": "Q5179867"}, "geometry": {"type": "Point", "coordinates": [-93.280358, 37.144768]}},
{"type": "Feature", "id": "SgYMFWwUaCprtV2zaGHvNX-jlvI=", "properties": {"ref": "1423 N. Jefferson Ave. Springfield, MO 65802", "@spider": "cox_health", "addr:full": "1423 N. Jefferson Ave.", "addr:city": "Springfield", "addr:state": "MO", "addr:postcode": "65802", "addr:country": "US", "name": "Pharmacy: Cox North", "phone": "417-269-8880", "brand": "CoxHealth", "brand:wikidata": "Q5179867"}, "geometry": {"type": "Point", "coordinates": [-93.289503, 37.225162]}},
{"type": "Feature", "id": "23PT4huFpokROASHrjQ57vuw6RY=", "properties": {"ref": "1011 E. Montclair Springfield, MO 65807", "@spider": "cox_health", "addr:full": "1011 E. Montclair", "addr:city": "Springfield", "addr:state": "MO", "addr:postcode": "65807", "addr:country": "US", "name": "CoxHealth Pediatric Specialty Center", "phone": "417-269-1010", "brand": "CoxHealth", "brand:wikidata": "Q5179867"}, "geometry": {"type": "Point", "coordinates": [-93.2840515, 37.1583535]}},
{"type": "Feature", "id": "KagRWtYx_j1pfN7Vdx-RaZ6wgzU=", "properties": {"ref": "3545 S. National Ave Springfield, MO 65807", "@spider": "cox_health", "addr:full": "3545 S. National Ave", "addr:city": "Springfield", "addr:state": "MO", "addr:postcode": "65807", "addr:country": "US", "name": "CoxHealth Fitness Center The Meyer Center", "phone": "417-269-3282", "brand": "CoxHealth", "brand:wikidata": "Q5179867"}, "geometry": {"type": "Point", "coordinates": [-93.279698, 37.150376]}},
{"type": "Feature", "id": "aCqoOuNvn4JKpkES_PVbXicVBEg=", "properties": {"ref": "711 E. Miller Road Republic, MO 65738", "@spider": "cox_health", "addr:full": "711 E. Miller Road", "addr:city": "Republic", "addr:state": "MO", "addr:postcode": "65738", "addr:country": "US", "name": "CoxHealth Fitness Center Republic", "phone": "417-269-2428", "brand": "CoxHealth", "brand:wikidata": "Q5179867"}, "geometry": {"type": "Point", "coordinates": [-93.465774, 37.11215]}},
{"type": "Feature", "id": "LYWMfcOFdIc65E21ZGKs_ByAPJs=", "properties": {"ref": "1423 N. Jefferson Ave Springfield, MO 65802", "@spider": "cox_health", "addr:full": "1423 N. Jefferson Ave", "addr:city": "Springfield", "addr:state": "MO", "addr:postcode": "65802", "addr:country": "US", "name": "CoxHealth Fitness Center North", "phone": "417-269-3282", "brand": "CoxHealth", "brand:wikidata": "Q5179867"}, "geometry": {"type": "Point", "coordinates": [-93.289908, 37.225187]}},
{"type": "Feature", "id": "LJQRHUh7UdBUpBUfc8IMw8P8-Jg=", "properties": {"ref": "1501 Branson Hills Parkway Branson, MO 65616", "@spider": "cox_health", "addr:full": "1501 Branson Hills Parkway", "addr:city": "Branson", "addr:state": "MO", "addr:postcode": "65616", "addr:country": "US", "name": "CoxHealth Fitness Center Branson", "phone": "417-348-0060", "brand": "CoxHealth", "brand:wikidata": "Q5179867"}, "geometry": {"type": "Point", "coordinates": [-93.241017, 36.686611]}},
{"type": "Feature", "id": "Re54Ju6HcHILYOtri-elzf5lCCM=", "properties": {"ref": "304 E. Jackson St., Suite 5H Willard, MO 65781", "@spider": "cox_health", "addr:full": "304 E. Jackson St., Suite 5H", "addr:city": "Willard", "addr:state": "MO", "addr:postcode": "65781", "addr:country": "US", "name": "CoxHealth Center Willard", "phone": "417-269-2458", "brand": "CoxHealth", "brand:wikidata": "Q5179867"}, "geometry": {"type": "Point", "coordinates": [-93.4252853, 37.3022346]}},
{"type": "Feature", "id": "mE-GzubpRFebbJFRZpjlh8JFgw0=", "properties": {"ref": "1602-A N. Main St. Mountain Grove, MO 65711", "@spider": "cox_health", "addr:full": "1602-A N. Main St. Mountain", "addr:city": "Grove", "addr:state": "MO", "addr:postcode": "65711", "addr:country": "US", "name": "CoxHealth Center Mountain Grove", "phone": "417-926-5572", "brand": "CoxHealth", "brand:wikidata": "Q5179867"}, "geometry": {"type": "Point", "coordinates": [-92.2625849, 37.1424053]}},
{"type": "Feature", "id": "P0wpgv6cCgbXloCqvWczswd-2R0=", "properties": {"ref": "510 E. Highway 32 Lebanon, MO 65536", "@spider": "cox_health", "addr:full": "510 E. Highway 32", "addr:city": "Lebanon", "addr:state": "MO", "addr:postcode": "65536", "addr:country": "US", "name": "CoxHealth Center Lebanon", "phone": "417-269-2278", "brand": "CoxHealth", "brand:wikidata": "Q5179867"}, "geometry": {"type": "Point", "coordinates": [-92.6401875, 37.6687881]}},
{"type": "Feature", "id": "Ha95mMwA_XMA0tczuqKCMuJ_MgU=", "properties": {"ref": "3800 S National Ave Springfield, MO 65807", "@spider": "cox_health", "addr:full": "3800 S National Ave", "addr:city": "Springfield", "addr:state": "MO", "addr:postcode": "65807", "addr:country": "US", "name": "Cox Plaza Hotel", "phone": "417-269-5900", "brand": "CoxHealth", "brand:wikidata": "Q5179867"}, "geometry": {"type": "Point", "coordinates": [-93.277109, 37.146433]}},
{"type": "Feature", "id": "NBKGejbpO1xZTX8JHIXw3VUWDiU=", "properties": {"ref": "700 E. Cleveland Monett, MO 65708", "@spider": "cox_health", "addr:full": "700 E. Cleveland", "addr:city": "Monett", "addr:state": "MO", "addr:postcode": "65708", "addr:country": "US", "name": "Cox Monett Rehab & Sports Medicine", "phone": "417-236-2480", "brand": "CoxHealth", "brand:wikidata": "Q5179867"}, "geometry": {"type": "Point", "coordinates": [-93.920702, 36.929293]}},
{"type": "Feature", "id": "CtI4PGkGhiuUU4AX2_698J3wZfA=", "properties": {"ref": "3801 S. National Ave. Springfield, MO 65807", "@spider": "cox_health", "addr:full": "3801 S. National Ave.", "addr:city": "Springfield", "addr:state": "MO", "addr:postcode": "65807", "addr:country": "US", "name": "Cox Medical Center South Emergency & Trauma Center", "phone": "417-269-4083", "brand": "CoxHealth", "brand:wikidata": "Q5179867"}, "geometry": {"type": "Point", "coordinates": [-93.28057, 37.143616]}},
{"type": "Feature", "id": "L43QEJiO0ScCbi9guSLhiynlalo=", "properties": {"ref": "3555 S. National Ave., Suite 500 Springfield, MO 65807", "@spider": "cox_health", "addr:full": "3555 S. National Ave., Suite 500", "addr:city": "Springfield", "addr:state": "MO", "addr:postcode": "65807", "addr:country": "US", "name": "Center for Plastic Surgery", "phone": "417-875-3246", "brand": "CoxHealth", "brand:wikidata": "Q5179867"}, "geometry": {"type": "Point", "coordinates": [-93.27885, 37.149308]}},
{"type": "Feature", "id": "nfTzKIUyh_33QHyRp6oxecfEqQM=", "properties": {"ref": "960 E. Walnut Lawn Suite 203 Springfield, MO 65804", "@spider": "cox_health", "addr:full": "960 E. Walnut Lawn Suite 203", "addr:city": "Springfield", "addr:state": "MO", "addr:postcode": "65804", "addr:country": "US", "name": "Center for Health Improvement", "phone": "(417) 269-3900", "brand": "CoxHealth", "brand:wikidata": "Q5179867"}, "geometry": {"type": "Point", "coordinates": [-93.280639, 37.152212]}},
{"type": "Feature", "id": "aG3ivz0O7G5pLRxdb1C-MuwOO4o=", "properties": {"ref": "1001 E. Primrose St., 1st Floor Springfield, MO 65807", "@spider": "cox_health", "addr:full": "1001 E. Primrose St., 1st Floor", "addr:city": "Springfield", "addr:state": "MO", "addr:postcode": "65807", "addr:country": "US", "name": "Allergy, Asthma & Immunology Clinic", "phone": "417-875-3742", "brand": "CoxHealth", "brand:wikidata": "Q5179867"}, "geometry": {"type": "Point", "coordinates": [-93.280787, 37.147255]}}]}