{"type":"FeatureCollection","features":[{"type": "Feature", "id": "Mvd43JAAaaEejuJ-eQjlaCmHLj0=", "properties": {"ref": "29472", "@spider": "cpk", "amenity": "restaurant", "cuisine": "pizza", "short_name": "CPK", "addr:street_address": "207 S. Beverly Drive", "addr:city": "Beverly Hills", "addr:state": "CA", "addr:postcode": "90212", "addr:country": "US", "name": "California Pizza Kitchen Beverly Hills", "phone": "(310) 275-1101", "website": "https://www.cpk.com/locations/29472", "brand": "California Pizza Kitchen", "brand:wikidata": "Q15109854", "nsi_id": "californiapizzakitchen-2fabb0"}, "geometry": {"type": "Point", "coordinates": [-118.3994965, 34.0656793]}},
{"type": "Feature", "id": "1tL6xB2ihHvvnz63lhZjtaT8XwA=", "properties": {"ref": "29562", "@spider": "cpk", "amenity": "restaurant", "cuisine": "pizza", "short_name": "CPK", "addr:street_address": "3393 Peachtree Road NE", "addr:city": "Atlanta", "addr:state": "GA", "addr:postcode": "30326", "addr:country": "US", "name": "California Pizza Kitchen Lenox", "phone": "(404) 262-9221", "website": "https://www.cpk.com/locations/29562", "brand": "California Pizza Kitchen", "brand:wikidata": "Q15109854", "nsi_id": "californiapizzakitchen-2fabb0"}, "geometry": {"type": "Point", "coordinates": [-84.3619696, 33.8475546]}},
{"type": "Feature", "id": "6F9LE9Q7EhgsYsHhxRStXWSpt1M=", "properties": {"ref": "29568", "@spider": "cpk", "amenity": "restaurant", "cuisine": "pizza", "short_name": "CPK", "addr:street_address": "4211 Waialae Ave.", "addr:city": "Honolulu", "addr:state": "HI", "addr:postcode": "96816", "addr:country": "US", "name": "California Pizza Kitchen Kahala", "phone": "(808) 737-9446", "website": "https://www.cpk.com/locations/29568", "brand": "California Pizza Kitchen", "brand:wikidata": "Q15109854", "nsi_id": "californiapizzakitchen-2fabb0"}, "geometry": {"type": "Point", "coordinates": [-157.7859086, 21.2769409]}},
{"type": "Feature", "id": "_pSlWILO4Wu_0GLmm4bqeKP6Ojc=", "properties": {"ref": "29473", "@spider": "cpk", "amenity": "restaurant", "cuisine": "pizza", "short_name": "CPK", "addr:street_address": "11677 San Vicente Blvd.", "addr:city": "Brentwood", "addr:state": "CA", "addr:postcode": "90049", "addr:country": "US", "name": "California Pizza Kitchen Brentwood", "phone": "(310) 826-3573", "website": "https://www.cpk.com/locations/29473", "brand": "California Pizza Kitchen", "brand:wikidata": "Q15109854", "nsi_id": "californiapizzakitchen-2fabb0"}, "geometry": {"type": "Point", "coordinates": [-118.4650413, 34.0538321]}},
{"type": "Feature", "id": "79Dd03KSH-JaPKDqmibZaucQUfE=", "properties": {"ref": "29650", "@spider": "cpk", "amenity": "restaurant", "cuisine": "pizza", "short_name": "CPK", "addr:street_address": "7939 L. Tysons Corner", "addr:city": "McLean", "addr:state": "VA", "addr:postcode": "22102", "addr:country": "US", "name": "California Pizza Kitchen Tysons Corner", "phone": "(703) 761-1473", "website": "https://www.cpk.com/locations/29650", "brand": "California Pizza Kitchen", "brand:wikidata": "Q15109854", "nsi_id": "californiapizzakitchen-2fabb0"}, "geometry": {"type": "Point", "coordinates": [-77.2210966, 38.9174935]}},
{"type": "Feature", "id": "Nx8z45i6P52dsIWSOFmIT5SoOUg=", "properties": {"ref": "29512", "@spider": "cpk", "amenity": "restaurant", "cuisine": "pizza", "short_name": "CPK", "addr:street_address": "12265 Ventura Blvd.", "addr:city": "Studio City", "addr:state": "CA", "addr:postcode": "91604", "addr:country": "US", "name": "California Pizza Kitchen Studio City", "phone": "(818) 505-6437", "website": "https://www.cpk.com/locations/29512", "brand": "California Pizza Kitchen", "brand:wikidata": "Q15109854", "nsi_id": "californiapizzakitchen-2fabb0"}, "geometry": {"type": "Point", "coordinates": [-118.400382, 34.14332]}},
{"type": "Feature", "id": "lt2FYnQ8RoH77lH_tP1Mb_e_4IU=", "properties": {"ref": "29475", "@spider": "cpk", "amenity": "restaurant", "cuisine": "pizza", "short_name": "CPK", "addr:street_address": "13345 Fiji Way", "addr:city": "Marina Del Rey", "addr:state": "CA", "addr:postcode": "90292", "addr:country": "US", "name": "California Pizza Kitchen Marina Del Rey", "phone": "(310) 301-1563", "website": "https://www.cpk.com/locations/29475", "brand": "California Pizza Kitchen", "brand:wikidata": "Q15109854", "nsi_id": "californiapizzakitchen-2fabb0"}, "geometry": {"type": "Point", "coordinates": [-118.4377168, 33.9778406]}},
{"type": "Feature", "id": "gcOK07gtdwSDiO0gJFISoV22_Zw=", "properties": {"ref": "29535", "@spider": "cpk", "amenity": "restaurant", "cuisine": "pizza", "short_name": "CPK", "addr:street_address": "1815 Hawthorne Blvd.", "addr:city": "Redondo Beach", "addr:state": "CA", "addr:postcode": "90278", "addr:country": "US", "name": "California Pizza Kitchen Redondo Beach", "phone": "(310) 370-9931", "website": "https://www.cpk.com/locations/29535", "brand": "California Pizza Kitchen", "brand:wikidata": "Q15109854", "nsi_id": "californiapizzakitchen-2fabb0"}, "geometry": {"type": "Point", "coordinates": [-118.3560566, 33.8717108]}},
{"type": "Feature", "id": "DhEYIuExFQvxGW36ym6I0OT-aG8=", "properties": {"ref": "29579", "@spider": "cpk", "amenity": "restaurant", "cuisine": "pizza", "short_name": "CPK", "addr:street_address": "551 Oakbrook Center", "addr:city": "Oak Brook", "addr:state": "IL", "addr:postcode": "60523", "addr:country": "US", "name": "California Pizza Kitchen Oakbrook", "phone": "(630) 571-7800", "website": "https://www.cpk.com/locations/29579", "brand": "California Pizza Kitchen", "brand:wikidata": "Q15109854", "nsi_id": "californiapizzakitchen-2fabb0"}, "geometry": {"type": "Point", "coordinates": [-87.9518108, 41.8522885]}},
{"type": "Feature", "id": "jCQo7hJxt7DjFq_1q6yYn1KxVYA=", "properties": {"ref": "29483", "@spider": "cpk", "amenity": "restaurant", "cuisine": "pizza", "short_name": "CPK", "addr:street_address": "719 Paseo Nuevo", "addr:city": "Santa Barbara", "addr:state": "CA", "addr:postcode": "93101", "addr:country": "US", "name": "California Pizza Kitchen Santa Barbara", "phone": "(805) 962-4648", "website": "https://www.cpk.com/locations/29483", "brand": "California Pizza Kitchen", "brand:wikidata": "Q15109854", "nsi_id": "californiapizzakitchen-2fabb0"}, "geometry": {"type": "Point", "coordinates": [-119.700585, 34.418802]}},
{"type": "Feature", "id": "hdjJ89mqlqmERqD_HllsHRQjSa4=", "properties": {"ref": "29522", "@spider": "cpk", "amenity": "restaurant", "cuisine": "pizza", "short_name": "CPK", "addr:street_address": "99 N. Los Robles Ave.", "addr:city": "Pasadena", "addr:state": "CA", "addr:postcode": "91101", "addr:country": "US", "name": "California Pizza Kitchen Pasadena", "phone": "(626) 585-9020", "website": "https://www.cpk.com/locations/29522", "brand": "California Pizza Kitchen", "brand:wikidata": "Q15109854", "nsi_id": "californiapizzakitchen-2fabb0"}, "geometry": {"type": "Point", "coordinates": [-118.141743, 34.147541]}},
{"type": "Feature", "id": "aWXPioO8Jg1jGc-Qil3ZCaDA4JU=", "properties": {"ref": "29506", "@spider": "cpk", "amenity": "restaurant", "cuisine": "pizza", "short_name": "CPK", "addr:street_address": "437 S. Highway 101", "addr:city": "Solana Beach", "addr:state": "CA", "addr:postcode": "92075", "addr:country": "US", "name": "California Pizza Kitchen Solana Beach", "phone": "(858) 793-0999", "website": "https://www.cpk.com/locations/29506", "brand": "California Pizza Kitchen", "brand:wikidata": "Q15109854", "nsi_id": "californiapizzakitchen-2fabb0"}, "geometry": {"type": "Point", "coordinates": [-117.2705968, 32.9856859]}},
{"type": "Feature", "id": "7o0qJVHFg9Wah2HVSGF8WvH6w2Y=", "properties": {"ref": "29480", "@spider": "cpk", "amenity": "restaurant", "cuisine": "pizza", "short_name": "CPK", "addr:street_address": "16101 Ventura Blvd. #200", "addr:city": "Encino", "addr:state": "CA", "addr:postcode": "91436", "addr:country": "US", "name": "California Pizza Kitchen Encino", "phone": "(818) 907-7783", "website": "https://www.cpk.com/locations/29480", "brand": "California Pizza Kitchen", "brand:wikidata": "Q15109854", "nsi_id": "californiapizzakitchen-2fabb0"}, "geometry": {"type": "Point", "coordinates": [-118.4841158, 34.1571467]}},
{"type": "Feature", "id": "YLnNhpQe7Fs1AK99KKt1ublzeD4=", "properties": {"ref": "29602", "@spider": "cpk", "amenity": "restaurant", "cuisine": "pizza", "short_name": "CPK", "addr:street_address": "1493 St. Louis Galleria", "addr:city": "Richmond Heights", "addr:state": "MO", "addr:postcode": "63117", "addr:country": "US", "name": "California Pizza Kitchen St. Louis", "phone": "(314) 863-4500", "website": "https://www.cpk.com/locations/29602", "brand": "California Pizza Kitchen", "brand:wikidata": "Q15109854", "nsi_id": "californiapizzakitchen-2fabb0"}, "geometry": {"type": "Point", "coordinates": [-90.3485518, 38.6327628]}},
{"type": "Feature", "id": "fFPnhEyLXE3B1OUhouJ1GTRszYc=", "properties": {"ref": "29591", "@spider": "cpk", "amenity": "restaurant", "cuisine": "pizza", "short_name": "CPK", "addr:street_address": "7101 Democracy Blvd.", "addr:city": "Bethesda", "addr:state": "MD", "addr:postcode": "20817", "addr:country": "US", "name": "California Pizza Kitchen Bethesda", "phone": "(301) 469-5090", "website": "https://www.cpk.com/locations/29591", "brand": "California Pizza Kitchen", "brand:wikidata": "Q15109854", "nsi_id": "californiapizzakitchen-2fabb0"}, "geometry": {"type": "Point", "coordinates": [-77.1459998, 39.0241378]}},
{"type": "Feature", "id": "bSnVeIAxTp4xlAOAIXUMg31IuWw=", "properties": {"ref": "29521", "@spider": "cpk", "amenity": "restaurant", "cuisine": "pizza", "short_name": "CPK", "addr:street_address": "73080 El Paseo Ste. 8", "addr:city": "Palm Desert", "addr:state": "CA", "addr:postcode": "92260", "addr:country": "US", "name": "California Pizza Kitchen Palm Desert", "phone": "(760) 776-5036", "website": "https://www.cpk.com/locations/29521", "brand": "California Pizza Kitchen", "brand:wikidata": "Q15109854", "nsi_id": "californiapizzakitchen-2fabb0"}, "geometry": {"type": "Point", "coordinates": [-116.389868, 33.7201008]}},
{"type": "Feature", "id": "0pkVxP_Kn0enJeGo7E9J6bp72iI=", "properties": {"ref": "29510", "@spider": "cpk", "amenity": "restaurant", "cuisine": "pizza", "short_name": "CPK", "addr:street_address": "101 N. Brand Blvd.", "addr:city": "Glendale", "addr:state": "CA", "addr:postcode": "91203", "addr:country": "US", "name": "California Pizza Kitchen Glendale", "phone": "(818) 507-1558", "website": "https://www.cpk.com/locations/29510", "brand": "California Pizza Kitchen", "brand:wikidata": "Q15109854", "nsi_id": "californiapizzakitchen-2fabb0"}, "geometry": {"type": "Point", "coordinates": [-118.2557336, 34.1471992]}},
{"type": "Feature", "id": "5XUkHZV1vACwg32WYgoQWe7DaYk=", "properties": {"ref": "29571", "@spider": "cpk", "amenity": "restaurant", "cuisine": "pizza", "short_name": "CPK", "addr:street_address": "554 Pearlridge Center", "addr:city": "Aiea", "addr:state": "HI", "addr:postcode": "96701", "addr:country": "US", "name": "California Pizza Kitchen Pearlridge", "phone": "(808) 487-7741", "website": "https://www.cpk.com/locations/29571", "brand": "California Pizza Kitchen", "brand:wikidata": "Q15109854", "nsi_id": "californiapizzakitchen-2fabb0"}, "geometry": {"type": "Point", "coordinates": [-157.9403214, 21.3835547]}},
{"type": "Feature", "id": "Cfg3E9v9X4vwW-4rT150bDqRXF4=", "properties": {"ref": "29517", "@spider": "cpk", "amenity": "restaurant", "cuisine": "pizza", "short_name": "CPK", "addr:street_address": "1735 Arden Way Suite 220", "addr:city": "Sacramento", "addr:state": "CA", "addr:postcode": "95815", "addr:country": "US", "name": "California Pizza Kitchen Sacramento", "phone": "(916) 568-0932", "website": "https://www.cpk.com/locations/29517", "brand": "California Pizza Kitchen", "brand:wikidata": "Q15109854", "nsi_id": "californiapizzakitchen-2fabb0"}, "geometry": {"type": "Point", "coordinates": [-121.4235956, 38.5992312]}},
{"type": "Feature", "id": "9xLGrl6kuskSRsg3vfEF_iPK7Kc=", "properties": {"ref": "29509", "@spider": "cpk", "amenity": "restaurant", "cuisine": "pizza", "short_name": "CPK", "addr:street_address": "601 N. San Fernando Rd.", "addr:city": "Burbank", "addr:state": "CA", "addr:postcode": "91502", "addr:country": "US", "name": "California Pizza Kitchen Burbank", "phone": "(818) 972-2589", "website": "https://www.cpk.com/locations/29509", "brand": "California Pizza Kitchen", "brand:wikidata": "Q15109854", "nsi_id": "californiapizzakitchen-2fabb0"}, "geometry": {"type": "Point", "coordinates": [-118.3149622, 34.1843353]}},
{"type": "Feature", "id": "cZDY6-qjnuKvpGGBXPK8X9BLBM0=", "properties": {"ref": "29555", "@spider": "cpk", "amenity": "restaurant", "cuisine": "pizza", "short_name": "CPK", "addr:street_address": "5555 Tamiami Trail North, Space#G-16", "addr:city": "Naples", "addr:state": "FL", "addr:postcode": "34108", "addr:country": "US", "name": "California Pizza Kitchen Naples", "phone": "(239) 566-1900", "website": "https://www.cpk.com/locations/29555", "brand": "California Pizza Kitchen", "brand:wikidata": "Q15109854", "nsi_id": "californiapizzakitchen-2fabb0"}, "geometry": {"type": "Point", "coordinates": [-81.801861, 26.2132065]}},
{"type": "Feature", "id": "phOiB8qScl-tYQqXpNUX2WBihFI=", "properties": {"ref": "29588", "@spider": "cpk", "amenity": "restaurant", "cuisine": "pizza", "short_name": "CPK", "addr:street_address": "800 Boylston St., #155", "addr:city": "Boston", "addr:state": "MA", "addr:postcode": "02199", "addr:country": "US", "name": "California Pizza Kitchen Prudential", "phone": "(617) 247-0888", "website": "https://www.cpk.com/locations/29588", "brand": "California Pizza Kitchen", "brand:wikidata": "Q15109854", "nsi_id": "californiapizzakitchen-2fabb0"}, "geometry": {"type": "Point", "coordinates": [-71.0820284, 42.3473912]}},
{"type": "Feature", "id": "zc0qN4f6Jf5CPXKNoOr5QXM-3OM=", "properties": {"ref": "29492", "@spider": "cpk", "amenity": "restaurant", "cuisine": "pizza", "short_name": "CPK", "addr:street_address": "Hillsdale Shopping Center, 100 Hillsdale Mall", "addr:city": "San Mateo", "addr:state": "CA", "addr:postcode": "94403", "addr:country": "US", "name": "California Pizza Kitchen San Mateo", "phone": "(650) 286-9018", "website": "https://www.cpk.com/locations/29492", "brand": "California Pizza Kitchen", "brand:wikidata": "Q15109854", "nsi_id": "californiapizzakitchen-2fabb0"}, "geometry": {"type": "Point", "coordinates": [-122.3003946, 37.5376314]}},
{"type": "Feature", "id": "QV5GxFX2llevdjt2p9APCWxNsRo=", "properties": {"ref": "29551", "@spider": "cpk", "amenity": "restaurant", "cuisine": "pizza", "short_name": "CPK", "addr:street_address": "2301 N. Federal Hwy.", "addr:city": "Ft. Lauderdale", "addr:state": "FL", "addr:postcode": "33305", "addr:country": "US", "name": "California Pizza Kitchen Ft. Lauderdale", "phone": "(954) 565-1196", "website": "https://www.cpk.com/locations/29551", "brand": "California Pizza Kitchen", "brand:wikidata": "Q15109854", "nsi_id": "californiapizzakitchen-2fabb0"}, "geometry": {"type": "Point", "coordinates": [-80.1184427, 26.1559461]}},
{"type": "Feature", "id": "_suJNc_mxskELYDP26eafgbBxPw=", "properties": {"ref": "29466", "@spider": "cpk", "amenity": "restaurant", "cuisine": "pizza", "short_name": "CPK", "addr:street_address": "2400 E. Camelback Rd, Ste. 112", "addr:city": "Phoenix", "addr:state": "AZ", "addr:postcode": "85016", "addr:country": "US", "name": "California Pizza Kitchen Biltmore", "phone": "(602) 553-8382", "website": "https://www.cpk.com/locations/29466", "brand": "California Pizza Kitchen", "brand:wikidata": "Q15109854", "nsi_id": "californiapizzakitchen-2fabb0"}, "geometry": {"type": "Point", "coordinates": [-112.0301204, 33.5094053]}},
{"type": "Feature", "id": "sdCsuLFgl2BAnkAqDFL3oS8n81A=", "properties": {"ref": "29525", "@spider": "cpk", "amenity": "restaurant", "cuisine": "pizza", "short_name": "CPK", "addr:street_address": "2800 N. Main Street, #872", "addr:city": "Santa Ana", "addr:state": "CA", "addr:postcode": "92705", "addr:country": "US", "name": "California Pizza Kitchen Santa Ana", "phone": "(714) 479-0604", "website": "https://www.cpk.com/locations/29525", "brand": "California Pizza Kitchen", "brand:wikidata": "Q15109854", "nsi_id": "californiapizzakitchen-2fabb0"}, "geometry": {"type": "Point", "coordinates": [-117.8674186, 33.7737648]}},
{"type": "Feature", "id": "F5nrNZ98FtwrhjWp56fd1hTPzmg=", "properties": {"ref": "29556", "@spider": "cpk", "amenity": "restaurant", "cuisine": "pizza", "short_name": "CPK", "addr:street_address": "3101 PGA Blvd., L-213", "addr:city": "Palm Beach Gardens", "addr:state": "FL", "addr:postcode": "33410", "addr:country": "US", "name": "California Pizza Kitchen Palm Beach Gardens", "phone": "(561) 625-4682", "website": "https://www.cpk.com/locations/29556", "brand": "California Pizza Kitchen", "brand:wikidata": "Q15109854", "nsi_id": "californiapizzakitchen-2fabb0"}, "geometry": {"type": "Point", "coordinates": [-80.0853836, 26.8473981]}},
{"type": "Feature", "id": "955dSUTed3gMM7Q24I3lSEPLoVc=", "properties": {"ref": "29590", "@spider": "cpk", "amenity": "restaurant", "cuisine": "pizza", "short_name": "CPK", "addr:street_address": "1870 Annapolis Mall", "addr:city": "Annapolis", "addr:state": "MD", "addr:postcode": "21401", "addr:country": "US", "name": "California Pizza Kitchen Annapolis", "phone": "(410) 573-2060", "website": "https://www.cpk.com/locations/29590", "brand": "California Pizza Kitchen", "brand:wikidata": "Q15109854", "nsi_id": "californiapizzakitchen-2fabb0"}, "geometry": {"type": "Point", "coordinates": [-76.548597, 38.9895959]}},
{"type": "Feature", "id": "rEI9FP489eit_dnmKCV2dmqCtBE=", "properties": {"ref": "29526", "@spider": "cpk", "amenity": "restaurant", "cuisine": "pizza", "short_name": "CPK", "addr:street_address": "400 S. Baldwin Ave., Suite 115-U", "addr:city": "Arcadia", "addr:state": "CA", "addr:postcode": "91007", "addr:country": "US", "name": "California Pizza Kitchen Santa Anita", "phone": "(626) 445-2610", "website": "https://www.cpk.com/locations/29526", "brand": "California Pizza Kitchen", "brand:wikidata": "Q15109854", "nsi_id": "californiapizzakitchen-2fabb0"}, "geometry": {"type": "Point", "coordinates": [-118.0523229, 34.1337614]}},
{"type": "Feature", "id": "Ka29XC_g5YlkSmCqgCNmLgN6sO4=", "properties": {"ref": "29563", "@spider": "cpk", "amenity": "restaurant", "cuisine": "pizza", "short_name": "CPK", "addr:street_address": "6301 North Point Pkwy.", "addr:city": "Alpharetta", "addr:state": "GA", "addr:postcode": "30022", "addr:country": "US", "name": "California Pizza Kitchen Northpoint", "phone": "(770) 664-8246", "website": "https://www.cpk.com/locations/29563", "brand": "California Pizza Kitchen", "brand:wikidata": "Q15109854", "nsi_id": "californiapizzakitchen-2fabb0"}, "geometry": {"type": "Point", "coordinates": [-84.291304, 34.0470752]}},
{"type": "Feature", "id": "q9R4Tv5vou2XfMOmV9bmJcj0jjQ=", "properties": {"ref": "29499", "@spider": "cpk", "amenity": "restaurant", "cuisine": "pizza", "short_name": "CPK", "addr:street_address": "11602 Carmel Mountain Road", "addr:city": "San Diego", "addr:state": "CA", "addr:postcode": "92128", "addr:country": "US", "name": "California Pizza Kitchen Carmel Mountain", "phone": "(858) 675-4424", "website": "https://www.cpk.com/locations/29499", "brand": "California Pizza Kitchen", "brand:wikidata": "Q15109854", "nsi_id": "californiapizzakitchen-2fabb0"}, "geometry": {"type": "Point", "coordinates": [-117.0817682, 32.9797098]}},
{"type": "Feature", "id": "TZQ8HQRa-k1ofyWhiru94FOfNZ4=", "properties": {"ref": "29504", "@spider": "cpk", "amenity": "restaurant", "cuisine": "pizza", "short_name": "CPK", "addr:street_address": "25513 Marguerite Pkwy.", "addr:city": "Mission Viejo", "addr:state": "CA", "addr:postcode": "92692", "addr:country": "US", "name": "California Pizza Kitchen Mission Viejo", "phone": "(949) 951-5026", "website": "https://www.cpk.com/locations/29504", "brand": "California Pizza Kitchen", "brand:wikidata": "Q15109854", "nsi_id": "californiapizzakitchen-2fabb0"}, "geometry": {"type": "Point", "coordinates": [-117.6603062, 33.592719]}},
{"type": "Feature", "id": "Ha4_T8FLghVVaMA9GIRoEagBLCE=", "properties": {"ref": "29580", "@spider": "cpk", "amenity": "restaurant", "cuisine": "pizza", "short_name": "CPK", "addr:street_address": "1550 E. Golf Road", "addr:city": "Schaumburg", "addr:state": "IL", "addr:postcode": "60173", "addr:country": "US", "name": "California Pizza Kitchen Schaumburg", "phone": "(847) 413-9200", "website": "https://www.cpk.com/locations/29580", "brand": "California Pizza Kitchen", "brand:wikidata": "Q15109854", "nsi_id": "californiapizzakitchen-2fabb0"}, "geometry": {"type": "Point", "coordinates": [-88.0401578, 42.0510476]}},
{"type": "Feature", "id": "2xvAvmWPNW5umf2w7iYDsBJOjtw=", "properties": {"ref": "29587", "@spider": "cpk", "amenity": "restaurant", "cuisine": "pizza", "short_name": "CPK", "addr:street_address": "1245 Worcester Road, Ste. 1092", "addr:city": "Natick", "addr:state": "MA", "addr:postcode": "01760", "addr:country": "US", "name": "California Pizza Kitchen Natick", "phone": "(508) 651-1506", "website": "https://www.cpk.com/locations/29587", "brand": "California Pizza Kitchen", "brand:wikidata": "Q15109854", "nsi_id": "californiapizzakitchen-2fabb0"}, "geometry": {"type": "Point", "coordinates": [-71.3841388, 42.3008036]}},
{"type": "Feature", "id": "79F9G_wdB4rJ5UcTc3kyLLfy8AA=", "properties": {"ref": "29470", "@spider": "cpk", "amenity": "restaurant", "cuisine": "pizza", "short_name": "CPK", "addr:street_address": "10100 Scottsdale Rd.", "addr:city": "Scottsdale", "addr:state": "AZ", "addr:postcode": "85253", "addr:country": "US", "name": "California Pizza Kitchen Scottsdale", "phone": "(480) 596-8300", "website": "https://www.cpk.com/locations/29470", "brand": "California Pizza Kitchen", "brand:wikidata": "Q15109854", "nsi_id": "californiapizzakitchen-2fabb0"}, "geometry": {"type": "Point", "coordinates": [-111.9269931, 33.5780787]}},
{"type": "Feature", "id": "SbBcppNLvYPQRc8iCsd5vABOMjQ=", "properties": {"ref": "29649", "@spider": "cpk", "amenity": "restaurant", "cuisine": "pizza", "short_name": "CPK", "addr:street_address": "1201 So. Hayes St., Ste F", "addr:city": "Arlington", "addr:state": "VA", "addr:postcode": "22202", "addr:country": "US", "name": "California Pizza Kitchen Pentagon", "phone": "(703) 412-4900", "website": "https://www.cpk.com/locations/29649", "brand": "California Pizza Kitchen", "brand:wikidata": "Q15109854", "nsi_id": "californiapizzakitchen-2fabb0"}, "geometry": {"type": "Point", "coordinates": [-77.0581969, 38.8615586]}},
{"type": "Feature", "id": "2027nFuCqDxNkZjzr0x-pwrqNsw=", "properties": {"ref": "29485", "@spider": "cpk", "amenity": "restaurant", "cuisine": "pizza", "short_name": "CPK", "addr:street_address": "18800 Ventura Blvd.", "addr:city": "Tarzana", "addr:state": "CA", "addr:postcode": "91356", "addr:country": "US", "name": "California Pizza Kitchen Tarzana", "phone": "(818) 345-9925", "website": "https://www.cpk.com/locations/29485", "brand": "California Pizza Kitchen", "brand:wikidata": "Q15109854", "nsi_id": "californiapizzakitchen-2fabb0"}, "geometry": {"type": "Point", "coordinates": [-118.543365, 34.1713907]}},
{"type": "Feature", "id": "7UVRNeC8VtLTa_1ZdPLaPvtT3kI=", "properties": {"ref": "29576", "@spider": "cpk", "amenity": "restaurant", "cuisine": "pizza", "short_name": "CPK", "addr:street_address": "4999 Old Orchard Road, Suite G-2", "addr:city": "Skokie", "addr:state": "IL", "addr:postcode": "60077", "addr:country": "US", "name": "California Pizza Kitchen Old Orchard", "phone": "(847) 673-1144", "website": "https://www.cpk.com/locations/29576", "brand": "California Pizza Kitchen", "brand:wikidata": "Q15109854", "nsi_id": "californiapizzakitchen-2fabb0"}, "geometry": {"type": "Point", "coordinates": [-87.7478839, 42.0615688]}},
{"type": "Feature", "id": "ImbbCnYNoKnVm5rFqkG-tzo3h4w=", "properties": {"ref": "29598", "@spider": "cpk", "amenity": "restaurant", "cuisine": "pizza", "short_name": "CPK", "addr:street_address": "2800 W. Big Beaver Road, Space N-126", "addr:city": "Troy", "addr:state": "MI", "addr:postcode": "48084", "addr:country": "US", "name": "California Pizza Kitchen Somerset", "phone": "(248) 816-0900", "website": "https://www.cpk.com/locations/29598", "brand": "California Pizza Kitchen", "brand:wikidata": "Q15109854", "nsi_id": "californiapizzakitchen-2fabb0"}, "geometry": {"type": "Point", "coordinates": [-83.1841251, 42.5628556]}},
{"type": "Feature", "id": "YOjcf3gA6TfBryZch386CRUhZn0=", "properties": {"ref": "29629", "@spider": "cpk", "amenity": "restaurant", "cuisine": "pizza", "short_name": "CPK", "addr:street_address": "470 Mall Blvd.", "addr:city": "King of Prussia", "addr:state": "PA", "addr:postcode": "19406", "addr:country": "US", "name": "California Pizza Kitchen King of Prussia", "phone": "(610) 337-1500", "website": "https://www.cpk.com/locations/29629", "brand": "California Pizza Kitchen", "brand:wikidata": "Q15109854", "nsi_id": "californiapizzakitchen-2fabb0"}, "geometry": {"type": "Point", "coordinates": [-75.3863349, 40.086781]}},
{"type": "Feature", "id": "JUGq9MHaBggo477bhlx-0a75LyQ=", "properties": {"ref": "29528", "@spider": "cpk", "amenity": "restaurant", "cuisine": "pizza", "short_name": "CPK", "addr:street_address": "310 Los Cerritos Center", "addr:city": "Cerritos", "addr:state": "CA", "addr:postcode": "90703", "addr:country": "US", "name": "California Pizza Kitchen Cerritos", "phone": "(562) 865-4547", "website": "https://www.cpk.com/locations/29528", "brand": "California Pizza Kitchen", "brand:wikidata": "Q15109854", "nsi_id": "californiapizzakitchen-2fabb0"}, "geometry": {"type": "Point", "coordinates": [-118.093073, 33.8623648]}},
{"type": "Feature", "id": "lGMtFh4H2P14-wG45wi2mfhEPCI=", "properties": {"ref": "29508", "@spider": "cpk", "amenity": "restaurant", "cuisine": "pizza", "short_name": "CPK", "addr:street_address": "735 S. Figueroa St. Space 305", "addr:city": "Los Angeles", "addr:state": "CA", "addr:postcode": "90017", "addr:country": "US", "name": "California Pizza Kitchen 7th Street", "phone": "(213) 228-8500", "website": "https://www.cpk.com/locations/29508", "brand": "California Pizza Kitchen", "brand:wikidata": "Q15109854", "nsi_id": "californiapizzakitchen-2fabb0"}, "geometry": {"type": "Point", "coordinates": [-118.2606566, 34.0491079]}},
{"type": "Feature", "id": "nHwy6LPydtBLdTKJqorp9p9y37c=", "properties": {"ref": "29479", "@spider": "cpk", "amenity": "restaurant", "cuisine": "pizza", "short_name": "CPK", "addr:street_address": "1001 Broxton Ave.", "addr:city": "Los Angeles", "addr:state": "CA", "addr:postcode": "90024", "addr:country": "US", "name": "California Pizza Kitchen Westwood", "phone": "(310) 209-9197", "website": "https://www.cpk.com/locations/29479", "brand": "California Pizza Kitchen", "brand:wikidata": "Q15109854", "nsi_id": "californiapizzakitchen-2fabb0"}, "geometry": {"type": "Point", "coordinates": [-118.4471647, 34.0622808]}},
{"type": "Feature", "id": "JabIA5uC9G3H7FZyBciPOSZ0-F0=", "properties": {"ref": "29621", "@spider": "cpk", "amenity": "restaurant", "cuisine": "pizza", "short_name": "CPK", "addr:street_address": "160 Route 110, Sp. 1074", "addr:city": "Huntington Station", "addr:state": "NY", "addr:postcode": "11746", "addr:country": "US", "name": "California Pizza Kitchen Walt Whitman", "phone": "(631) 423-7565", "website": "https://www.cpk.com/locations/29621", "brand": "California Pizza Kitchen", "brand:wikidata": "Q15109854", "nsi_id": "californiapizzakitchen-2fabb0"}, "geometry": {"type": "Point", "coordinates": [-73.4107946, 40.8236464]}},
{"type": "Feature", "id": "uza8jbVzHeFYBF8xokFSPNrJB44=", "properties": {"ref": "29567", "@spider": "cpk", "amenity": "restaurant", "cuisine": "pizza", "short_name": "CPK", "addr:street_address": "1450 Ala Moana Bl, Sp. 3241", "addr:city": "Honolulu", "addr:state": "HI", "addr:postcode": "96814", "addr:country": "US", "name": "California Pizza Kitchen Ala Moana", "phone": "(808) 941-7715", "website": "https://www.cpk.com/locations/29567", "brand": "California Pizza Kitchen", "brand:wikidata": "Q15109854", "nsi_id": "californiapizzakitchen-2fabb0"}, "geometry": {"type": "Point", "coordinates": [-157.8480364, 21.2966976]}},
{"type": "Feature", "id": "3xT-TgIH_VNMm8RTyy3EDiZE4ks=", "properties": {"ref": "29540", "@spider": "cpk", "amenity": "restaurant", "cuisine": "pizza", "short_name": "CPK", "addr:street_address": "3000 E. First Ave. suite 185", "addr:city": "Denver", "addr:state": "CO", "addr:postcode": "80206", "addr:country": "US", "name": "California Pizza Kitchen Cherry Creek", "phone": "(303) 388-5686", "website": "https://www.cpk.com/locations/29540", "brand": "California Pizza Kitchen", "brand:wikidata": "Q15109854", "nsi_id": "californiapizzakitchen-2fabb0"}, "geometry": {"type": "Point", "coordinates": [-104.9567394, 39.7174747]}},
{"type": "Feature", "id": "uZPyhn9RJkbEO_QdMRccV7qRhl4=", "properties": {"ref": "29534", "@spider": "cpk", "amenity": "restaurant", "cuisine": "pizza", "short_name": "CPK", "addr:street_address": "61 S. Pine Ave., Sp. C-195", "addr:city": "Long Beach", "addr:state": "CA", "addr:postcode": "90802", "addr:country": "US", "name": "California Pizza Kitchen Rainbow Harbor", "phone": "(562) 628-1800", "website": "https://www.cpk.com/locations/29534", "brand": "California Pizza Kitchen", "brand:wikidata": "Q15109854", "nsi_id": "californiapizzakitchen-2fabb0"}, "geometry": {"type": "Point", "coordinates": [-118.192627, 33.765097]}},
{"type": "Feature", "id": "ahGGs_7riUPbyNJerG7yYTVpCvI=", "properties": {"ref": "29643", "@spider": "cpk", "amenity": "restaurant", "cuisine": "pizza", "short_name": "CPK", "addr:street_address": "6121 W. Park Blvd., Suite D-126", "addr:city": "Plano", "addr:state": "TX", "addr:postcode": "75093", "addr:country": "US", "name": "California Pizza Kitchen Willow Bend", "phone": "(469) 366-0060", "website": "https://www.cpk.com/locations/29643", "brand": "California Pizza Kitchen", "brand:wikidata": "Q15109854", "nsi_id": "californiapizzakitchen-2fabb0"}, "geometry": {"type": "Point", "coordinates": [-96.8326773, 33.0311764]}},
{"type": "Feature", "id": "N3s9YkIqXFDFcsVYBQ76LpmY4ng=", "properties": {"ref": "29560", "@spider": "cpk", "amenity": "restaurant", "cuisine": "pizza", "short_name": "CPK", "addr:street_address": "10300 W. Forest Hill Bl., #197", "addr:city": "Wellington", "addr:state": "FL", "addr:postcode": "33414", "addr:country": "US", "name": "California Pizza Kitchen Wellington Green", "phone": "(561) 793-1601", "website": "https://www.cpk.com/locations/29560", "brand": "California Pizza Kitchen", "brand:wikidata": "Q15109854", "nsi_id": "californiapizzakitchen-2fabb0"}, "geometry": {"type": "Point", "coordinates": [-80.2084654, 26.646333]}},
{"type": "Feature", "id": "THx6vJf9sagbESCPqoPcdT7tcpY=", "properties": {"ref": "29601", "@spider": "cpk", "amenity": "restaurant", "cuisine": "pizza", "short_name": "CPK", "addr:street_address": "10590 Old Olive Street", "addr:city": "Creve Coeur", "addr:state": "MO", "addr:postcode": "63141", "addr:country": "US", "name": "California Pizza Kitchen Creve Coeur", "phone": "(314) 567-7835", "website": "https://www.cpk.com/locations/29601", "brand": "California Pizza Kitchen", "brand:wikidata": "Q15109854", "nsi_id": "californiapizzakitchen-2fabb0"}, "geometry": {"type": "Point", "coordinates": [-90.4128454, 38.6739681]}},
{"type": "Feature", "id": "0-JplKC4A3me0nn1YE13MXEy-wY=", "properties": {"ref": "29542", "@spider": "cpk", "amenity": "restaurant", "cuisine": "pizza", "short_name": "CPK", "addr:street_address": "1 West Flatiron Circle, #1120", "addr:city": "Broomfield", "addr:state": "CO", "addr:postcode": "80021", "addr:country": "US", "name": "California Pizza Kitchen Flat Iron", "phone": "(303) 410-8895", "website": "https://www.cpk.com/locations/29542", "brand": "California Pizza Kitchen", "brand:wikidata": "Q15109854", "nsi_id": "californiapizzakitchen-2fabb0"}, "geometry": {"type": "Point", "coordinates": [-105.1314025, 39.9321113]}},
{"type": "Feature", "id": "gB-6HcgRac-rCKc7_8YVc66J0Zk=", "properties": {"ref": "29507", "@spider": "cpk", "amenity": "restaurant", "cuisine": "pizza", "short_name": "CPK", "addr:street_address": "3001 El Camino Real", "addr:city": "Tustin", "addr:state": "CA", "addr:postcode": "92782", "addr:country": "US", "name": "California Pizza Kitchen Tustin", "phone": "(714) 838-5083", "website": "https://www.cpk.com/locations/29507", "brand": "California Pizza Kitchen", "brand:wikidata": "Q15109854", "nsi_id": "californiapizzakitchen-2fabb0"}, "geometry": {"type": "Point", "coordinates": [-117.793796, 33.7236815]}},
{"type": "Feature", "id": "NP5yuOZhLwNaviI1EXt450kFRGs=", "properties": {"ref": "29541", "@spider": "cpk", "amenity": "restaurant", "cuisine": "pizza", "short_name": "CPK", "addr:street_address": "8343 S. Park Meadow Center Dr.", "addr:city": "Littleton", "addr:state": "CO", "addr:postcode": "80124", "addr:country": "US", "name": "California Pizza Kitchen Park Meadows", "phone": "(720) 873-0400", "website": "https://www.cpk.com/locations/29541", "brand": "California Pizza Kitchen", "brand:wikidata": "Q15109854", "nsi_id": "californiapizzakitchen-2fabb0"}, "geometry": {"type": "Point", "coordinates": [-104.8732369, 39.5643769]}},
{"type": "Feature", "id": "Pit0miwPhvpNb2zeMKuqudVDmX0=", "properties": {"ref": "29511", "@spider": "cpk", "amenity": "restaurant", "cuisine": "pizza", "short_name": "CPK", "addr:street_address": "6801 Hollywood Blvd., Sp D-2-225", "addr:city": "Hollywood", "addr:state": "CA", "addr:postcode": "90028", "addr:country": "US", "name": "California Pizza Kitchen Hollywood", "phone": "(323) 460-2080", "website": "https://www.cpk.com/locations/29511", "brand": "California Pizza Kitchen", "brand:wikidata": "Q15109854", "nsi_id": "californiapizzakitchen-2fabb0"}, "geometry": {"type": "Point", "coordinates": [-118.339268, 34.102806]}},
{"type": "Feature", "id": "rILiXXo5GOdj1arhq2k6hcAxMAE=", "properties": {"ref": "29495", "@spider": "cpk", "amenity": "restaurant", "cuisine": "pizza", "short_name": "CPK", "addr:street_address": "2855 Stevens Creek Bl., Sp. 1273", "addr:city": "Santa Clara", "addr:state": "CA", "addr:postcode": "95050", "addr:country": "US", "name": "California Pizza Kitchen Valley Fair", "phone": "(408) 243-0081", "website": "https://www.cpk.com/locations/29495", "brand": "California Pizza Kitchen", "brand:wikidata": "Q15109854", "nsi_id": "californiapizzakitchen-2fabb0"}, "geometry": {"type": "Point", "coordinates": [-121.9435859, 37.3261955]}},
{"type": "Feature", "id": "SksRQ4uWvMaG_lukiBhhf6R3XwU=", "properties": {"ref": "29552", "@spider": "cpk", "amenity": "restaurant", "cuisine": "pizza", "short_name": "CPK", "addr:street_address": "2223 NW Shore Blvd, Space 189", "addr:city": "Tampa", "addr:state": "FL", "addr:postcode": "33607", "addr:country": "US", "name": "California Pizza Kitchen International Plaza", "phone": "(813) 353-8155", "website": "https://www.cpk.com/locations/29552", "brand": "California Pizza Kitchen", "brand:wikidata": "Q15109854", "nsi_id": "californiapizzakitchen-2fabb0"}, "geometry": {"type": "Point", "coordinates": [-82.5239807, 27.9744947]}},
{"type": "Feature", "id": "xVM1m1yNb8qg8fq2rLVcVN-Eq-k=", "properties": {"ref": "29469", "@spider": "cpk", "amenity": "restaurant", "cuisine": "pizza", "short_name": "CPK", "addr:street_address": "21001 N. Tatum Blvd, Ste 40-1370", "addr:city": "Phoenix", "addr:state": "AZ", "addr:postcode": "85050", "addr:country": "US", "name": "California Pizza Kitchen Desert Ridge", "phone": "(480) 473-3336", "website": "https://www.cpk.com/locations/29469", "brand": "California Pizza Kitchen", "brand:wikidata": "Q15109854", "nsi_id": "californiapizzakitchen-2fabb0"}, "geometry": {"type": "Point", "coordinates": [-111.9761895, 33.6770959]}},
{"type": "Feature", "id": "0XpkNi8IUFT-JlKqP_TQlW5fgX0=", "properties": {"ref": "29605", "@spider": "cpk", "amenity": "restaurant", "cuisine": "pizza", "short_name": "CPK", "addr:street_address": "6910 Fayetteville Road, Suite 154", "addr:city": "Durham", "addr:state": "NC", "addr:postcode": "27713", "addr:country": "US", "name": "California Pizza Kitchen Southpoint", "phone": "(919) 361-4200", "website": "https://www.cpk.com/locations/29605", "brand": "California Pizza Kitchen", "brand:wikidata": "Q15109854", "nsi_id": "californiapizzakitchen-2fabb0"}, "geometry": {"type": "Point", "coordinates": [-78.9439388, 35.9052172]}},
{"type": "Feature", "id": "jv-CvHV8P2vYf_16UWAZqXiane0=", "properties": {"ref": "29490", "@spider": "cpk", "amenity": "restaurant", "cuisine": "pizza", "short_name": "CPK", "addr:street_address": "5614 Bay St., Suite 244", "addr:city": "Emeryville", "addr:state": "CA", "addr:postcode": "94608", "addr:country": "US", "name": "California Pizza Kitchen Emeryville", "phone": "(510) 654-0750", "website": "https://www.cpk.com/locations/29490", "brand": "California Pizza Kitchen", "brand:wikidata": "Q15109854", "nsi_id": "californiapizzakitchen-2fabb0"}, "geometry": {"type": "Point", "coordinates": [-122.2919266, 37.8343362]}},
{"type": "Feature", "id": "Wmg5-16TeZFeU8_R_qJWtWIwLFU=", "properties": {"ref": "29477", "@spider": "cpk", "amenity": "restaurant", "cuisine": "pizza", "short_name": "CPK", "addr:street_address": "210 Wilshire Blvd", "addr:city": "Santa Monica", "addr:state": "CA", "addr:postcode": "90401", "addr:country": "US", "name": "California Pizza Kitchen Santa Monica", "phone": "(310) 393-9335", "website": "https://www.cpk.com/locations/29477", "brand": "California Pizza Kitchen", "brand:wikidata": "Q15109854", "nsi_id": "californiapizzakitchen-2fabb0"}, "geometry": {"type": "Point", "coordinates": [-118.4996041, 34.0177637]}},
{"type": "Feature", "id": "wkewnQSDFb2sACuqdL6RQXGT75A=", "properties": {"ref": "29545", "@spider": "cpk", "amenity": "restaurant", "cuisine": "pizza", "short_name": "CPK", "addr:street_address": "3 Westfarms Mall, Space #E-125", "addr:city": "Farmington", "addr:state": "CT", "addr:postcode": "06032", "addr:country": "US", "name": "California Pizza Kitchen WestFarms", "phone": "(860) 561-1027", "website": "https://www.cpk.com/locations/29545", "brand": "California Pizza Kitchen", "brand:wikidata": "Q15109854", "nsi_id": "californiapizzakitchen-2fabb0"}, "geometry": {"type": "Point", "coordinates": [-72.7640065, 41.7234946]}},
{"type": "Feature", "id": "Kxdke62iQmqaRzoEbAhw1xKhVSU=", "properties": {"ref": "29594", "@spider": "cpk", "amenity": "restaurant", "cuisine": "pizza", "short_name": "CPK", "addr:street_address": "870 Briarwood Circle", "addr:city": "Ann Arbor", "addr:state": "MI", "addr:postcode": "48108", "addr:country": "US", "name": "California Pizza Kitchen Briarwood", "phone": "(734) 222-6320", "website": "https://www.cpk.com/locations/29594", "brand": "California Pizza Kitchen", "brand:wikidata": "Q15109854", "nsi_id": "californiapizzakitchen-2fabb0"}, "geometry": {"type": "Point", "coordinates": [-83.7434254, 42.2421274]}},
{"type": "Feature", "id": "KwkC0QFHxy7Qry2Zd6RMI9H0Uyo=", "properties": {"ref": "29625", "@spider": "cpk", "amenity": "restaurant", "cuisine": "pizza", "short_name": "CPK", "addr:street_address": "1500 Polaris Pkwy.", "addr:city": "Columbus", "addr:state": "OH", "addr:postcode": "43240", "addr:country": "US", "name": "California Pizza Kitchen Polaris", "phone": "(614) 985-6304", "website": "https://www.cpk.com/locations/29625", "brand": "California Pizza Kitchen", "brand:wikidata": "Q15109854", "nsi_id": "californiapizzakitchen-2fabb0"}, "geometry": {"type": "Point", "coordinates": [-82.9773875, 40.1415928]}},
{"type": "Feature", "id": "P2b14QRvCY9fEVvtSeYfVNV6-mQ=", "properties": {"ref": "29519", "@spider": "cpk", "amenity": "restaurant", "cuisine": "pizza", "short_name": "CPK", "addr:street_address": "1065 Brea Mall 2052A", "addr:city": "Brea", "addr:state": "CA", "addr:postcode": "92821", "addr:country": "US", "name": "California Pizza Kitchen Brea Mall", "phone": "(714) 672-0407", "website": "https://www.cpk.com/locations/29519", "brand": "California Pizza Kitchen", "brand:wikidata": "Q15109854", "nsi_id": "californiapizzakitchen-2fabb0"}, "geometry": {"type": "Point", "coordinates": [-117.8864509, 33.9153422]}},
{"type": "Feature", "id": "rCV1wnjKlK46oDFLS9xezFkvPDU=", "properties": {"ref": "29635", "@spider": "cpk", "amenity": "restaurant", "cuisine": "pizza", "short_name": "CPK", "addr:street_address": "Huebner Center, 11745 IH 10 West, Phase 418", "addr:city": "San Antonio", "addr:state": "TX", "addr:postcode": "78230", "addr:country": "US", "name": "California Pizza Kitchen San Antonio", "phone": "(210) 699-4275", "website": "https://www.cpk.com/locations/29635", "brand": "California Pizza Kitchen", "brand:wikidata": "Q15109854", "nsi_id": "californiapizzakitchen-2fabb0"}, "geometry": {"type": "Point", "coordinates": [-98.5790546, 29.5484603]}},
{"type": "Feature", "id": "0vu4P_JSLVnZ01rBU8aYbiCI53w=", "properties": {"ref": "29531", "@spider": "cpk", "amenity": "restaurant", "cuisine": "pizza", "short_name": "CPK", "addr:street_address": "6417 E. Pacific Coast Hwy., Unit A-1", "addr:city": "Long Beach", "addr:state": "CA", "addr:postcode": "90803", "addr:country": "US", "name": "California Pizza Kitchen Long Beach Market", "phone": "(562) 596-2775", "website": "https://www.cpk.com/locations/29531", "brand": "California Pizza Kitchen", "brand:wikidata": "Q15109854", "nsi_id": "californiapizzakitchen-2fabb0"}, "geometry": {"type": "Point", "coordinates": [-118.109924, 33.757347]}},
{"type": "Feature", "id": "HAGGzP8ChN_FFXUcUsS4YGh0COE=", "properties": {"ref": "29583", "@spider": "cpk", "amenity": "restaurant", "cuisine": "pizza", "short_name": "CPK", "addr:street_address": "7900 Shelbyville Rd., Ste. E17", "addr:city": "Louisville", "addr:state": "KY", "addr:postcode": "40222", "addr:country": "US", "name": "California Pizza Kitchen Oxmoor", "phone": "(502) 425-5125", "website": "https://www.cpk.com/locations/29583", "brand": "California Pizza Kitchen", "brand:wikidata": "Q15109854", "nsi_id": "californiapizzakitchen-2fabb0"}, "geometry": {"type": "Point", "coordinates": [-85.6099166, 38.2470462]}},
{"type": "Feature", "id": "4VMqOk9MWtT5YH3ewD5C-KmVChY=", "properties": {"ref": "29553", "@spider": "cpk", "amenity": "restaurant", "cuisine": "pizza", "short_name": "CPK", "addr:street_address": "4200 Conroy Rd., Sp. #1590", "addr:city": "Orlando", "addr:state": "FL", "addr:postcode": "32839", "addr:country": "US", "name": "California Pizza Kitchen Millenia Mall", "phone": "(407) 248-7887", "website": "https://www.cpk.com/locations/29553", "brand": "California Pizza Kitchen", "brand:wikidata": "Q15109854", "nsi_id": "californiapizzakitchen-2fabb0"}, "geometry": {"type": "Point", "coordinates": [-81.4323, 28.485102]}},
{"type": "Feature", "id": "hqDnVMOc_FhUNQOLO-SiFOuI7jU=", "properties": {"ref": "29603", "@spider": "cpk", "amenity": "restaurant", "cuisine": "pizza", "short_name": "CPK", "addr:street_address": "109 W. County Dtr., Space 2055", "addr:city": "Des Peres", "addr:state": "MO", "addr:postcode": "63131", "addr:country": "US", "name": "California Pizza Kitchen West County Mall", "phone": "(314) 909-0333", "website": "https://www.cpk.com/locations/29603", "brand": "California Pizza Kitchen", "brand:wikidata": "Q15109854", "nsi_id": "californiapizzakitchen-2fabb0"}, "geometry": {"type": "Point", "coordinates": [-90.4480054, 38.6023999]}},
{"type": "Feature", "id": "-TNAFXQz5JPsjrWKOW_dWE14y0E=", "properties": {"ref": "29613", "@spider": "cpk", "amenity": "restaurant", "cuisine": "pizza", "short_name": "CPK", "addr:street_address": "3200 Las Vegas Blvd, Sp #1590", "addr:city": "Las Vegas", "addr:state": "NV", "addr:postcode": "89109", "addr:country": "US", "name": "California Pizza Kitchen Fashion Show Mall", "phone": "(702) 893-1370", "website": "https://www.cpk.com/locations/29613", "brand": "California Pizza Kitchen", "brand:wikidata": "Q15109854", "nsi_id": "californiapizzakitchen-2fabb0"}, "geometry": {"type": "Point", "coordinates": [-115.1715003, 36.1275236]}},
{"type": "Feature", "id": "LIK-jcOf8rI9pJfUGzbKj28HPog=", "properties": {"ref": "29561", "@spider": "cpk", "amenity": "restaurant", "cuisine": "pizza", "short_name": "CPK", "addr:street_address": "264 19th St. N.W, Suite 2150", "addr:city": "Atlanta", "addr:state": "GA", "addr:postcode": "30363", "addr:country": "US", "name": "California Pizza Kitchen Atlantic Station", "phone": "(404) 249-7034", "website": "https://www.cpk.com/locations/29561", "brand": "California Pizza Kitchen", "brand:wikidata": "Q15109854", "nsi_id": "californiapizzakitchen-2fabb0"}, "geometry": {"type": "Point", "coordinates": [-84.3970028, 33.7931066]}},
{"type": "Feature", "id": "Ctx835H9T5-5ULj6i2Dqudiex94=", "properties": {"ref": "29623", "@spider": "cpk", "amenity": "restaurant", "cuisine": "pizza", "short_name": "CPK", "addr:street_address": "25365 Cedar Road", "addr:city": "Lyndhurst", "addr:state": "OH", "addr:postcode": "44124", "addr:country": "US", "name": "California Pizza Kitchen Legacy Village", "phone": "(216) 382-4907", "website": "https://www.cpk.com/locations/29623", "brand": "California Pizza Kitchen", "brand:wikidata": "Q15109854", "nsi_id": "californiapizzakitchen-2fabb0"}, "geometry": {"type": "Point", "coordinates": [-81.501553, 41.5032805]}},
{"type": "Feature", "id": "JaXVbH-dAmDTPIv52brZqQtZGbw=", "properties": {"ref": "29652", "@spider": "cpk", "amenity": "restaurant", "cuisine": "pizza", "short_name": "CPK", "addr:street_address": "11800 W. Broad St., # 1104", "addr:city": "Richmond", "addr:state": "VA", "addr:postcode": "23233", "addr:country": "US", "name": "California Pizza Kitchen Short Pump", "phone": "(804) 364-9047", "website": "https://www.cpk.com/locations/29652", "brand": "California Pizza Kitchen", "brand:wikidata": "Q15109854", "nsi_id": "californiapizzakitchen-2fabb0"}, "geometry": {"type": "Point", "coordinates": [-77.6194616, 37.6562009]}},
{"type": "Feature", "id": "dPNEe5cjleK3KKIZmJ5IRxZbweE=", "properties": {"ref": "29557", "@spider": "cpk", "amenity": "restaurant", "cuisine": "pizza", "short_name": "CPK", "addr:street_address": "11401 Pines Blvd, Space 100", "addr:city": "Pembroke Pines", "addr:state": "FL", "addr:postcode": "33026", "addr:country": "US", "name": "California Pizza Kitchen Pembroke Pines", "phone": "(954) 432-1498", "website": "https://www.cpk.com/locations/29557", "brand": "California Pizza Kitchen", "brand:wikidata": "Q15109854", "nsi_id": "californiapizzakitchen-2fabb0"}, "geometry": {"type": "Point", "coordinates": [-80.3038113, 26.0111881]}},
{"type": "Feature", "id": "xftrJb6AKKzFhupp1wX2J9ly1e8=", "properties": {"ref": "29648", "@spider": "cpk", "amenity": "restaurant", "cuisine": "pizza", "short_name": "CPK", "addr:street_address": "4200 Fairfax Corner West Ave.,Bldg H, 1st Floor", "addr:city": "Fairfax", "addr:state": "VA", "addr:postcode": "22030", "addr:country": "US", "name": "California Pizza Kitchen Fairfax Corner", "phone": "(703) 222-8097", "website": "https://www.cpk.com/locations/29648", "brand": "California Pizza Kitchen", "brand:wikidata": "Q15109854", "nsi_id": "californiapizzakitchen-2fabb0"}, "geometry": {"type": "Point", "coordinates": [-77.3567528, 38.8590775]}},
{"type": "Feature", "id": "kEs6p2u8DfY2T6nzNXPnwr3Mk7o=", "properties": {"ref": "29527", "@spider": "cpk", "amenity": "restaurant", "cuisine": "pizza", "short_name": "CPK", "addr:street_address": "40820 Winchester Rd., #1000", "addr:city": "Temecula", "addr:state": "CA", "addr:postcode": "92591", "addr:country": "US", "name": "California Pizza Kitchen Temecula", "phone": "(951) 296-0575", "website": "https://www.cpk.com/locations/29527", "brand": "California Pizza Kitchen", "brand:wikidata": "Q15109854", "nsi_id": "californiapizzakitchen-2fabb0"}, "geometry": {"type": "Point", "coordinates": [-117.1541815, 33.5248311]}},
{"type": "Feature", "id": "kIK_j9M-g-lQE6kI7ziiWxu0HOc=", "properties": {"ref": "29578", "@spider": "cpk", "amenity": "restaurant", "cuisine": "pizza", "short_name": "CPK", "addr:street_address": "1202 Commons Drive", "addr:city": "Geneva", "addr:state": "IL", "addr:postcode": "60134", "addr:country": "US", "name": "California Pizza Kitchen Geneva Commons", "phone": "(630) 845-1731", "website": "https://www.cpk.com/locations/29578", "brand": "California Pizza Kitchen", "brand:wikidata": "Q15109854", "nsi_id": "californiapizzakitchen-2fabb0"}, "geometry": {"type": "Point", "coordinates": [-88.341481, 41.893837]}},
{"type": "Feature", "id": "ogrxDa6Loc2MQHSbX2RziZn8UEo=", "properties": {"ref": "29573", "@spider": "cpk", "amenity": "restaurant", "cuisine": "pizza", "short_name": "CPK", "addr:street_address": "20502 N. Rand Road", "addr:city": "Deer Park", "addr:state": "IL", "addr:postcode": "60010", "addr:country": "US", "name": "California Pizza Kitchen Deer Park", "phone": "(847) 550-0273", "website": "https://www.cpk.com/locations/29573", "brand": "California Pizza Kitchen", "brand:wikidata": "Q15109854", "nsi_id": "californiapizzakitchen-2fabb0"}, "geometry": {"type": "Point", "coordinates": [-88.0518544, 42.1609259]}},
{"type": "Feature", "id": "-W7KqkkVkN3XSIoR8rhV9f-jMS0=", "properties": {"ref": "29559", "@spider": "cpk", "amenity": "restaurant", "cuisine": "pizza", "short_name": "CPK", "addr:street_address": "695 N. Alafaya Trail", "addr:city": "Orlando", "addr:state": "FL", "addr:postcode": "32828", "addr:country": "US", "name": "California Pizza Kitchen Waterford Lakes", "phone": "(407) 384-5689", "website": "https://www.cpk.com/locations/29559", "brand": "California Pizza Kitchen", "brand:wikidata": "Q15109854", "nsi_id": "californiapizzakitchen-2fabb0"}, "geometry": {"type": "Point", "coordinates": [-81.2038843, 28.554596]}},
{"type": "Feature", "id": "T3qZ7l6DyszQS8riyvnxSFxHFiA=", "properties": {"ref": "29634", "@spider": "cpk", "amenity": "restaurant", "cuisine": "pizza", "short_name": "CPK", "addr:street_address": "2901 Capital of Texas Hwy, Sp J-01", "addr:city": "Austin", "addr:state": "TX", "addr:postcode": "78746", "addr:country": "US", "name": "California Pizza Kitchen Barton Creek", "phone": "(512) 327-6905", "website": "https://www.cpk.com/locations/29634", "brand": "California Pizza Kitchen", "brand:wikidata": "Q15109854", "nsi_id": "californiapizzakitchen-2fabb0"}, "geometry": {"type": "Point", "coordinates": [-97.80706, 30.2578]}},
{"type": "Feature", "id": "t2Uabt32nIS4gfYWRnOl3_BkI9k=", "properties": {"ref": "29639", "@spider": "cpk", "amenity": "restaurant", "cuisine": "pizza", "short_name": "CPK", "addr:street_address": "303 Memorial City Mall, #610", "addr:city": "Houston", "addr:state": "TX", "addr:postcode": "77024", "addr:country": "US", "name": "California Pizza Kitchen Memorial City", "phone": "(713) 365-9473", "website": "https://www.cpk.com/locations/29639", "brand": "California Pizza Kitchen", "brand:wikidata": "Q15109854", "nsi_id": "californiapizzakitchen-2fabb0"}, "geometry": {"type": "Point", "coordinates": [-95.5397304, 29.7810332]}},
{"type": "Feature", "id": "z0PDJoUIadeHlEKB4o0QppWGZyo=", "properties": {"ref": "29523", "@spider": "cpk", "amenity": "restaurant", "cuisine": "pizza", "short_name": "CPK", "addr:street_address": "12517 N. Mainstreet", "addr:city": "Rancho Cucamonga", "addr:state": "CA", "addr:postcode": "91739", "addr:country": "US", "name": "California Pizza Kitchen Rancho Cucamonga", "phone": "(909) 899-8611", "website": "https://www.cpk.com/locations/29523", "brand": "California Pizza Kitchen", "brand:wikidata": "Q15109854", "nsi_id": "californiapizzakitchen-2fabb0"}, "geometry": {"type": "Point", "coordinates": [-117.5324196, 34.1119755]}},
{"type": "Feature", "id": "7XwNuD8T4rPW2edZpAIAQNYEPrg=", "properties": {"ref": "29653", "@spider": "cpk", "amenity": "restaurant", "cuisine": "pizza", "short_name": "CPK", "addr:street_address": "Town Center of Virginia Beach, 200 Central Park Ave.", "addr:city": "Virginia Beach", "addr:state": "VA", "addr:postcode": "23462", "addr:country": "US", "name": "California Pizza Kitchen Virginia Beach", "phone": "(757) 456-2630", "website": "https://www.cpk.com/locations/29653", "brand": "California Pizza Kitchen", "brand:wikidata": "Q15109854", "nsi_id": "californiapizzakitchen-2fabb0"}, "geometry": {"type": "Point", "coordinates": [-76.133277, 36.842768]}},
{"type": "Feature", "id": "3iJJKz6Nr_RQyeRWCP5QBW6ukVg=", "properties": {"ref": "29488", "@spider": "cpk", "amenity": "restaurant", "cuisine": "pizza", "short_name": "CPK", "addr:street_address": "3301 E. Main St., Ste. 1150", "addr:city": "Ventura", "addr:state": "CA", "addr:postcode": "93003", "addr:country": "US", "name": "California Pizza Kitchen Ventura", "phone": "(805) 639-5060", "website": "https://www.cpk.com/locations/29488", "brand": "California Pizza Kitchen", "brand:wikidata": "Q15109854", "nsi_id": "californiapizzakitchen-2fabb0"}, "geometry": {"type": "Point", "coordinates": [-119.2487706, 34.2687175]}},
{"type": "Feature", "id": "dgRL5GUS6LpX31O_q5Y-_gHsxXI=", "properties": {"ref": "29501", "@spider": "cpk", "amenity": "restaurant", "cuisine": "pizza", "short_name": "CPK", "addr:street_address": "521 Spectrum Center Dr. ", "addr:city": "Irvine", "addr:state": "CA", "addr:postcode": "92618", "addr:country": "US", "name": "California Pizza Kitchen Irvine Spectrum", "phone": "(949) 585-9531", "website": "https://www.cpk.com/locations/29501", "brand": "California Pizza Kitchen", "brand:wikidata": "Q15109854", "nsi_id": "californiapizzakitchen-2fabb0"}, "geometry": {"type": "Point", "coordinates": [-117.7080104, 33.6272014]}},
{"type": "Feature", "id": "jbIDP0A3PxxWakZYx99Xgx5KAkk=", "properties": {"ref": "29489", "@spider": "cpk", "amenity": "restaurant", "cuisine": "pizza", "short_name": "CPK", "addr:street_address": "1100 Del Monte Center", "addr:city": "Monterey", "addr:state": "CA", "addr:postcode": "93940", "addr:country": "US", "name": "California Pizza Kitchen Monterey", "phone": "(831) 375-4975", "website": "https://www.cpk.com/locations/29489", "brand": "California Pizza Kitchen", "brand:wikidata": "Q15109854", "nsi_id": "californiapizzakitchen-2fabb0"}, "geometry": {"type": "Point", "coordinates": [-121.898774, 36.584952]}},
{"type": "Feature", "id": "Cv0GCRz99Ed5hFyEteT-2LkDVNg=", "properties": {"ref": "29529", "@spider": "cpk", "amenity": "restaurant", "cuisine": "pizza", "short_name": "CPK", "addr:street_address": "7851 Edinger Avenue", "addr:city": "Huntington Beach", "addr:state": "CA", "addr:postcode": "92647", "addr:country": "US", "name": "California Pizza Kitchen Huntington Beach", "phone": "(714) 372-3157", "website": "https://www.cpk.com/locations/29529", "brand": "California Pizza Kitchen", "brand:wikidata": "Q15109854", "nsi_id": "californiapizzakitchen-2fabb0"}, "geometry": {"type": "Point", "coordinates": [-117.9921191, 33.7305683]}},
{"type": "Feature", "id": "CqukyKo7ssftr18MoIRkMI5WfOQ=", "properties": {"ref": "29486", "@spider": "cpk", "amenity": "restaurant", "cuisine": "pizza", "short_name": "CPK", "addr:street_address": "2200 E. Thousand Oaks Blvd, Ste 10", "addr:city": "Thousand Oaks", "addr:state": "CA", "addr:postcode": "91362", "addr:country": "US", "name": "California Pizza Kitchen The Lakes at Thousand Oaks", "phone": "(805) 777-1778", "website": "https://www.cpk.com/locations/29486", "brand": "California Pizza Kitchen", "brand:wikidata": "Q15109854", "nsi_id": "californiapizzakitchen-2fabb0"}, "geometry": {"type": "Point", "coordinates": [-118.846385, 34.1739881]}},
{"type": "Feature", "id": "CxUtBPh_wHXw2_w4SDCWGLnahNg=", "properties": {"ref": "29530", "@spider": "cpk", "amenity": "restaurant", "cuisine": "pizza", "short_name": "CPK", "addr:street_address": "500 Lakewood Center Mal", "addr:city": "Lakewood", "addr:state": "CA", "addr:postcode": "90712", "addr:country": "US", "name": "California Pizza Kitchen Lakewood", "phone": "(562) 633-0854", "website": "https://www.cpk.com/locations/29530", "brand": "California Pizza Kitchen", "brand:wikidata": "Q15109854", "nsi_id": "californiapizzakitchen-2fabb0"}, "geometry": {"type": "Point", "coordinates": [-118.13852, 33.85067]}},
{"type": "Feature", "id": "e6v6RtZBViOPp4Z88rAYMJ44fxM=", "properties": {"ref": "29481", "@spider": "cpk", "amenity": "restaurant", "cuisine": "pizza", "short_name": "CPK", "addr:street_address": "10150 Stockdale Hwy", "addr:city": "Bakersfield", "addr:state": "CA", "addr:postcode": "93311", "addr:country": "US", "name": "California Pizza Kitchen River Walk", "phone": "(661) 664-4603", "website": "https://www.cpk.com/locations/29481", "brand": "California Pizza Kitchen", "brand:wikidata": "Q15109854", "nsi_id": "californiapizzakitchen-2fabb0"}, "geometry": {"type": "Point", "coordinates": [-119.115741, 35.3535305]}},
{"type": "Feature", "id": "ihBlUw80uhicgujd1xSLaIc_JOY=", "properties": {"ref": "29536", "@spider": "cpk", "amenity": "restaurant", "cuisine": "pizza", "short_name": "CPK", "addr:street_address": "25306 Crenshaw Blvd.", "addr:city": "Torrance", "addr:state": "CA", "addr:postcode": "90505", "addr:country": "US", "name": "California Pizza Kitchen Rolling Hills", "phone": "(310) 539-5410", "website": "https://www.cpk.com/locations/29536", "brand": "California Pizza Kitchen", "brand:wikidata": "Q15109854", "nsi_id": "californiapizzakitchen-2fabb0"}, "geometry": {"type": "Point", "coordinates": [-118.3293046, 33.7940921]}},
{"type": "Feature", "id": "Edd6vXZY9KpBstzR2i-eBP2DyKQ=", "properties": {"ref": "29572", "@spider": "cpk", "amenity": "restaurant", "cuisine": "pizza", "short_name": "CPK", "addr:street_address": "2284 Kalakaua Ave, Space E", "addr:city": "Honolulu", "addr:state": "HI", "addr:postcode": "96815", "addr:country": "US", "name": "California Pizza Kitchen Waikiki", "phone": "(808) 924-2000", "website": "https://www.cpk.com/locations/29572", "brand": "California Pizza Kitchen", "brand:wikidata": "Q15109854", "nsi_id": "californiapizzakitchen-2fabb0"}, "geometry": {"type": "Point", "coordinates": [-157.827396, 21.278375]}},
{"type": "Feature", "id": "qsR7WlMLCGFhMMu8r-xhUqK2jjk=", "properties": {"ref": "29592", "@spider": "cpk", "amenity": "restaurant", "cuisine": "pizza", "short_name": "CPK", "addr:street_address": "136 Boardwalk Place", "addr:city": "Gaithersburg", "addr:state": "MD", "addr:postcode": "20878", "addr:country": "US", "name": "California Pizza Kitchen Gaithersburg", "phone": "(301) 330-0681", "website": "https://www.cpk.com/locations/29592", "brand": "California Pizza Kitchen", "brand:wikidata": "Q15109854", "nsi_id": "californiapizzakitchen-2fabb0"}, "geometry": {"type": "Point", "coordinates": [-77.1986019, 39.1172485]}},
{"type": "Feature", "id": "SsRPd4F0OAUIoMQ13vaFf_5vwnc=", "properties": {"ref": "29626", "@spider": "cpk", "amenity": "restaurant", "cuisine": "pizza", "short_name": "CPK", "addr:street_address": "7315 SW Bridgeport Rd, Blg R2, Sp 102", "addr:city": "Tigard", "addr:state": "OR", "addr:postcode": "97224", "addr:country": "US", "name": "California Pizza Kitchen Bridgeport", "phone": "(503) 968-0504", "website": "https://www.cpk.com/locations/29626", "brand": "California Pizza Kitchen", "brand:wikidata": "Q15109854", "nsi_id": "californiapizzakitchen-2fabb0"}, "geometry": {"type": "Point", "coordinates": [-122.8033845, 45.4081316]}},
{"type": "Feature", "id": "tNWJepZY7tah2uy7KbpnLFR8XH4=", "properties": {"ref": "29524", "@spider": "cpk", "amenity": "restaurant", "cuisine": "pizza", "short_name": "CPK", "addr:street_address": "3540 Riverside Plaza, Ste #308", "addr:city": "Riverside", "addr:state": "CA", "addr:postcode": "92506", "addr:country": "US", "name": "California Pizza Kitchen Riverside Plaza", "phone": "(951) 680-9362", "website": "https://www.cpk.com/locations/29524", "brand": "California Pizza Kitchen", "brand:wikidata": "Q15109854", "nsi_id": "californiapizzakitchen-2fabb0"}, "geometry": {"type": "Point", "coordinates": [-117.390139, 33.9551885]}},
{"type": "Feature", "id": "42PKsfVTU0zazcVG2FHadQbVfs8=", "properties": {"ref": "29484", "@spider": "cpk", "amenity": "restaurant", "cuisine": "pizza", "short_name": "CPK", "addr:street_address": "1555 Simi Town Center Drive, #790", "addr:city": "Simi Valley", "addr:state": "CA", "addr:postcode": "93062", "addr:country": "US", "name": "California Pizza Kitchen Simi Valley Town Ctr", "phone": "(805) 522-0030", "website": "https://www.cpk.com/locations/29484", "brand": "California Pizza Kitchen", "brand:wikidata": "Q15109854", "nsi_id": "californiapizzakitchen-2fabb0"}, "geometry": {"type": "Point", "coordinates": [-118.7683079, 34.2843064]}},
{"type": "Feature", "id": "VOvBbz9dPFMsBoK_f4J-qouUyU4=", "properties": {"ref": "29651", "@spider": "cpk", "amenity": "restaurant", "cuisine": "pizza", "short_name": "CPK", "addr:street_address": "300 Monticello Ave, Unit 149", "addr:city": "Norfolk", "addr:state": "VA", "addr:postcode": "23510", "addr:country": "US", "name": "California Pizza Kitchen MacArthur Center", "phone": "(757) 622-7190", "website": "https://www.cpk.com/locations/29651", "brand": "California Pizza Kitchen", "brand:wikidata": "Q15109854", "nsi_id": "californiapizzakitchen-2fabb0"}, "geometry": {"type": "Point", "coordinates": [-76.2880058, 36.8491811]}},
{"type": "Feature", "id": "QlqBOyWwy8AWN-nIcWQ4xQCJbQs=", "properties": {"ref": "29476", "@spider": "cpk", "amenity": "restaurant", "cuisine": "pizza", "short_name": "CPK", "addr:street_address": "9301 Tampa Avenue, Unit 129", "addr:city": "Northridge", "addr:state": "CA", "addr:postcode": "91324", "addr:country": "US", "name": "California Pizza Kitchen Northridge", "phone": "(818) 701-5035", "website": "https://www.cpk.com/locations/29476", "brand": "California Pizza Kitchen", "brand:wikidata": "Q15109854", "nsi_id": "californiapizzakitchen-2fabb0"}, "geometry": {"type": "Point", "coordinates": [-118.555082, 34.239592]}},
{"type": "Feature", "id": "Bzq1q5Sgbew5jUj_NGiPjDsVGBA=", "properties": {"ref": "29617", "@spider": "cpk", "amenity": "restaurant", "cuisine": "pizza", "short_name": "CPK", "addr:street_address": "71-03 80th Street, Suite 7101", "addr:city": "Glendale", "addr:state": "NY", "addr:postcode": "11385", "addr:country": "US", "name": "California Pizza Kitchen Atlas Park", "phone": "(718) 894-9400", "website": "https://www.cpk.com/locations/29617", "brand": "California Pizza Kitchen", "brand:wikidata": "Q15109854", "nsi_id": "californiapizzakitchen-2fabb0"}, "geometry": {"type": "Point", "coordinates": [-73.869272, 40.708294]}},
{"type": "Feature", "id": "d3xgQwrbt6rR41Cw6WoiK2-v_Qw=", "properties": {"ref": "29597", "@spider": "cpk", "amenity": "restaurant", "cuisine": "pizza", "short_name": "CPK", "addr:street_address": "17350 Hall Road, Space R-101", "addr:city": "Clinton Township", "addr:state": "MI", "addr:postcode": "48038", "addr:country": "US", "name": "California Pizza Kitchen Partridge Creek", "phone": "(586) 263-5667", "website": "https://www.cpk.com/locations/29597", "brand": "California Pizza Kitchen", "brand:wikidata": "Q15109854", "nsi_id": "californiapizzakitchen-2fabb0"}, "geometry": {"type": "Point", "coordinates": [-82.9485901, 42.6272031]}},
{"type": "Feature", "id": "0j8AXS3csujnCxE9nVyXWVjjFNU=", "properties": {"ref": "29610", "@spider": "cpk", "amenity": "restaurant", "cuisine": "pizza", "short_name": "CPK", "addr:street_address": "1200 Morris Turnpike, Unit 8270", "addr:city": "Short Hills", "addr:state": "NJ", "addr:postcode": "07078", "addr:country": "US", "name": "California Pizza Kitchen Short Hills Mall", "phone": "(973) 379-3700", "website": "https://www.cpk.com/locations/29610", "brand": "California Pizza Kitchen", "brand:wikidata": "Q15109854", "nsi_id": "californiapizzakitchen-2fabb0"}, "geometry": {"type": "Point", "coordinates": [-74.3642457, 40.7408743]}},
{"type": "Feature", "id": "CEaoSlfTDqCVJQyeQbowcf38ye0=", "properties": {"ref": "29657", "@spider": "cpk", "amenity": "restaurant", "cuisine": "pizza", "short_name": "CPK", "addr:street_address": "5665 North Centerpark Way, Unti N-141", "addr:city": "Glendale", "addr:state": "WI", "addr:postcode": "53209", "addr:country": "US", "name": "California Pizza Kitchen Bayshore Town Ctr", "phone": "(414) 967-8088", "website": "https://www.cpk.com/locations/29657", "brand": "California Pizza Kitchen", "brand:wikidata": "Q15109854", "nsi_id": "californiapizzakitchen-2fabb0"}, "geometry": {"type": "Point", "coordinates": [-87.9152936, 43.1203236]}},
{"type": "Feature", "id": "By9UWEYI2ovYWfv6bQyQcJ7kR2o=", "properties": {"ref": "29543", "@spider": "cpk", "amenity": "restaurant", "cuisine": "pizza", "short_name": "CPK", "addr:street_address": "39 Norwich Westerly Rd", "addr:city": "Mashantucket", "addr:state": "CT", "addr:postcode": "06338", "addr:country": "US", "name": "California Pizza Kitchen Foxwoods Casino", "phone": "(860) 859-2912", "website": "https://www.cpk.com/locations/29543", "brand": "California Pizza Kitchen", "brand:wikidata": "Q15109854", "nsi_id": "californiapizzakitchen-2fabb0"}, "geometry": {"type": "Point", "coordinates": [-71.9626466, 41.4758112]}},
{"type": "Feature", "id": "boRFHM9cpKSADdIX_AIeLvPsJxc=", "properties": {"ref": "29593", "@spider": "cpk", "amenity": "restaurant", "cuisine": "pizza", "short_name": "CPK", "addr:street_address": "118 Shawan Road, Suite FF", "addr:city": "Hunt Valley", "addr:state": "MD", "addr:postcode": "21030", "addr:country": "US", "name": "California Pizza Kitchen Hunt Valley Town Center", "phone": "(410) 785-3336", "website": "https://www.cpk.com/locations/29593", "brand": "California Pizza Kitchen", "brand:wikidata": "Q15109854", "nsi_id": "californiapizzakitchen-2fabb0"}, "geometry": {"type": "Point", "coordinates": [-76.654829, 39.49896]}},
{"type": "Feature", "id": "OgSO6OayJBESzP1gHt4PE0_o5Dk=", "properties": {"ref": "29514", "@spider": "cpk", "amenity": "restaurant", "cuisine": "pizza", "short_name": "CPK", "addr:street_address": "53 Third Street", "addr:city": "San Francisco", "addr:state": "CA", "addr:postcode": "94103", "addr:country": "US", "name": "California Pizza Kitchen 53 Third Street", "phone": "(415) 278-0443", "website": "https://www.cpk.com/locations/29514", "brand": "California Pizza Kitchen", "brand:wikidata": "Q15109854", "nsi_id": "californiapizzakitchen-2fabb0"}, "geometry": {"type": "Point", "coordinates": [-122.4025283, 37.7869621]}},
{"type": "Feature", "id": "zw3NpR04jtfKbA6UScLY5ZHW76c=", "properties": {"ref": "29550", "@spider": "cpk", "amenity": "restaurant", "cuisine": "pizza", "short_name": "CPK", "addr:street_address": "23181 Village Shops Way, STE 113", "addr:city": "Estero", "addr:state": "FL", "addr:postcode": "33928", "addr:country": "US", "name": "California Pizza Kitchen Coconut Point", "phone": "(239) 498-7667", "website": "https://www.cpk.com/locations/29550", "brand": "California Pizza Kitchen", "brand:wikidata": "Q15109854", "nsi_id": "californiapizzakitchen-2fabb0"}, "geometry": {"type": "Point", "coordinates": [-81.8082169, 26.4006375]}},
{"type": "Feature", "id": "VpIgZRzTvRUJOGB7yDPSdsMEELo=", "properties": {"ref": "29505", "@spider": "cpk", "amenity": "restaurant", "cuisine": "pizza", "short_name": "CPK", "addr:street_address": "2015 Birch Road, Ste 725", "addr:city": "Chula Vista", "addr:state": "CA", "addr:postcode": "91915", "addr:country": "US", "name": "California Pizza Kitchen Otay Ranch Town Ctr", "phone": "(619) 591-4630", "website": "https://www.cpk.com/locations/29505", "brand": "California Pizza Kitchen", "brand:wikidata": "Q15109854", "nsi_id": "californiapizzakitchen-2fabb0"}, "geometry": {"type": "Point", "coordinates": [-116.9669791, 32.6238402]}},
{"type": "Feature", "id": "6g5TFl-zDca44CHcFBKk2q6lXEQ=", "properties": {"ref": "29478", "@spider": "cpk", "amenity": "restaurant", "cuisine": "pizza", "short_name": "CPK", "addr:street_address": "24061 Newhall Ranch Road", "addr:city": "Valencia", "addr:state": "CA", "addr:postcode": "91354", "addr:country": "US", "name": "California Pizza Kitchen Valencia", "phone": "(661) 259-2082", "website": "https://www.cpk.com/locations/29478", "brand": "California Pizza Kitchen", "brand:wikidata": "Q15109854", "nsi_id": "californiapizzakitchen-2fabb0"}, "geometry": {"type": "Point", "coordinates": [-118.5564779, 34.4310335]}},
{"type": "Feature", "id": "4_2j4De2G7xehpf4NNynOhv0-K8=", "properties": {"ref": "29548", "@spider": "cpk", "amenity": "restaurant", "cuisine": "pizza", "short_name": "CPK", "addr:street_address": "6000 Glades Rd. #1230", "addr:city": "Boca Raton", "addr:state": "FL", "addr:postcode": "33431", "addr:country": "US", "name": "California Pizza Kitchen Boca Raton", "phone": "(561) 368-2805", "website": "https://www.cpk.com/locations/29548", "brand": "California Pizza Kitchen", "brand:wikidata": "Q15109854", "nsi_id": "californiapizzakitchen-2fabb0"}, "geometry": {"type": "Point", "coordinates": [-80.1343467, 26.3659017]}},
{"type": "Feature", "id": "5uYI3iVPDyxUr_QBwd_QXQb90s8=", "properties": {"ref": "29518", "@spider": "cpk", "amenity": "restaurant", "cuisine": "pizza", "short_name": "CPK", "addr:street_address": "321 West Katella Avenue,Suite 104", "addr:city": "Anaheim", "addr:state": "CA", "addr:postcode": "92802", "addr:country": "US", "name": "California Pizza Kitchen Anaheim Garden Walk", "phone": "(714) 991-0305", "website": "https://www.cpk.com/locations/29518", "brand": "California Pizza Kitchen", "brand:wikidata": "Q15109854", "nsi_id": "californiapizzakitchen-2fabb0"}, "geometry": {"type": "Point", "coordinates": [-117.910537, 33.803773]}},
{"type": "Feature", "id": "tfClmrDf80KEqCAK6XdO1a35Dhg=", "properties": {"ref": "29636", "@spider": "cpk", "amenity": "restaurant", "cuisine": "pizza", "short_name": "CPK", "addr:street_address": "3401 Esperanza Crossing, Space E01", "addr:city": "Austin", "addr:state": "TX", "addr:postcode": "78758", "addr:country": "US", "name": "California Pizza Kitchen The Domain", "phone": "(512) 836-4400", "website": "https://www.cpk.com/locations/29636", "brand": "California Pizza Kitchen", "brand:wikidata": "Q15109854", "nsi_id": "californiapizzakitchen-2fabb0"}, "geometry": {"type": "Point", "coordinates": [-97.7270307, 30.4003187]}},
{"type": "Feature", "id": "qaSyp-CAysQhJa4IrbLEMH_Pbms=", "properties": {"ref": "29630", "@spider": "cpk", "amenity": "restaurant", "cuisine": "pizza", "short_name": "CPK", "addr:street_address": "514 W. Germantown Pike", "addr:city": "Plymouth Meeting", "addr:state": "PA", "addr:postcode": "19462", "addr:country": "US", "name": "California Pizza Kitchen Plymouth Meeting Mall", "phone": "(610) 828-8232", "website": "https://www.cpk.com/locations/29630", "brand": "California Pizza Kitchen", "brand:wikidata": "Q15109854", "nsi_id": "californiapizzakitchen-2fabb0"}, "geometry": {"type": "Point", "coordinates": [-75.2856058, 40.1157433]}},
{"type": "Feature", "id": "qF-CvcZ53OpdZsNO6bYH7YRlmR8=", "properties": {"ref": "29616", "@spider": "cpk", "amenity": "restaurant", "cuisine": "pizza", "short_name": "CPK", "addr:street_address": "6659 Las Vegas Blvd South, Bldg C1, STE 100", "addr:city": "Las Vegas", "addr:state": "NV", "addr:postcode": "89119", "addr:country": "US", "name": "California Pizza Kitchen Town Square", "phone": "(702) 896-5154", "website": "https://www.cpk.com/locations/29616", "brand": "California Pizza Kitchen", "brand:wikidata": "Q15109854", "nsi_id": "californiapizzakitchen-2fabb0"}, "geometry": {"type": "Point", "coordinates": [-115.174899, 36.0681543]}},
{"type": "Feature", "id": "gDpP424x04YXwzHHkA0LBc00Ahw=", "properties": {"ref": "29520", "@spider": "cpk", "amenity": "restaurant", "cuisine": "pizza", "short_name": "CPK", "addr:street_address": "3505 Grand Ave", "addr:city": "Chino Hills", "addr:state": "CA", "addr:postcode": "91709", "addr:country": "US", "name": "California Pizza Kitchen The Shoppes at Chino Hills", "phone": "(909) 590-3090", "website": "https://www.cpk.com/locations/29520", "brand": "California Pizza Kitchen", "brand:wikidata": "Q15109854", "nsi_id": "californiapizzakitchen-2fabb0"}, "geometry": {"type": "Point", "coordinates": [-117.7298693, 34.0020926]}},
{"type": "Feature", "id": "YNQ3-Kewql9sx_aRHGiu4WIepOI=", "properties": {"ref": "29620", "@spider": "cpk", "amenity": "restaurant", "cuisine": "pizza", "short_name": "CPK", "addr:street_address": "618 Smith Haven Mall", "addr:city": "Lake Grove", "addr:state": "NY", "addr:postcode": "11755", "addr:country": "US", "name": "California Pizza Kitchen Smith Haven Mall", "phone": "(631) 382-9610", "website": "https://www.cpk.com/locations/29620", "brand": "California Pizza Kitchen", "brand:wikidata": "Q15109854", "nsi_id": "californiapizzakitchen-2fabb0"}, "geometry": {"type": "Point", "coordinates": [-73.1297341, 40.8629707]}},
{"type": "Feature", "id": "IDck3MTCVCSQDn2pQZ4Fb6wO7SI=", "properties": {"ref": "29584", "@spider": "cpk", "amenity": "restaurant", "cuisine": "pizza", "short_name": "CPK", "addr:street_address": "10001 Perkins Rowe, Suite 110", "addr:city": "Baton Rouge", "addr:state": "LA", "addr:postcode": "70810", "addr:country": "US", "name": "California Pizza Kitchen Perkins Rowe", "phone": "(225) 766-3840", "website": "https://www.cpk.com/locations/29584", "brand": "California Pizza Kitchen", "brand:wikidata": "Q15109854", "nsi_id": "californiapizzakitchen-2fabb0"}, "geometry": {"type": "Point", "coordinates": [-91.0949915, 30.3797337]}},
{"type": "Feature", "id": "P-Q4zLRtUUxySKlAxd5cOHOK3TY=", "properties": {"ref": "29537", "@spider": "cpk", "amenity": "restaurant", "cuisine": "pizza", "short_name": "CPK", "addr:street_address": "12171 Seal Beach Blvd", "addr:city": "Seal Beach", "addr:state": "CA", "addr:postcode": "90740", "addr:country": "US", "name": "California Pizza Kitchen Rossmoor Center", "phone": "(562) 430-2695", "website": "https://www.cpk.com/locations/29537", "brand": "California Pizza Kitchen", "brand:wikidata": "Q15109854", "nsi_id": "californiapizzakitchen-2fabb0"}, "geometry": {"type": "Point", "coordinates": [-118.0724287, 33.7855851]}},
{"type": "Feature", "id": "Uo4FjgoWSGnsd1Xs7sFTTYzz2uI=", "properties": {"ref": "29599", "@spider": "cpk", "amenity": "restaurant", "cuisine": "pizza", "short_name": "CPK", "addr:street_address": "27500 Novi Road", "addr:city": "Novi", "addr:state": "MI", "addr:postcode": "48377", "addr:country": "US", "name": "California Pizza Kitchen Twelve Oaks", "phone": "(248) 449-3280", "website": "https://www.cpk.com/locations/29599", "brand": "California Pizza Kitchen", "brand:wikidata": "Q15109854", "nsi_id": "californiapizzakitchen-2fabb0"}, "geometry": {"type": "Point", "coordinates": [-83.4708203, 42.4921621]}},
{"type": "Feature", "id": "sxopE68IYnDQ8W-dM4qpPYz0wAg=", "properties": {"ref": "29516", "@spider": "cpk", "amenity": "restaurant", "cuisine": "pizza", "short_name": "CPK", "addr:street_address": "1190 Roseville Parkway", "addr:city": "Roseville", "addr:state": "CA", "addr:postcode": "95678", "addr:country": "US", "name": "California Pizza Kitchen Fountains at Roseville", "phone": "(916) 781-4950", "website": "https://www.cpk.com/locations/29516", "brand": "California Pizza Kitchen", "brand:wikidata": "Q15109854", "nsi_id": "californiapizzakitchen-2fabb0"}, "geometry": {"type": "Point", "coordinates": [-121.2685826, 38.7692068]}},
{"type": "Feature", "id": "L1FxkViEi5_BEzOm9Zf4JUA0cLU=", "properties": {"ref": "29627", "@spider": "cpk", "amenity": "restaurant", "cuisine": "pizza", "short_name": "CPK", "addr:street_address": "11840 SE 82nd ave, Suite 3060", "addr:city": "Happy Valley", "addr:state": "OR", "addr:postcode": "97086", "addr:country": "US", "name": "California Pizza Kitchen Clackamas Town Center", "phone": "(503) 659-0760", "website": "https://www.cpk.com/locations/29627", "brand": "California Pizza Kitchen", "brand:wikidata": "Q15109854", "nsi_id": "californiapizzakitchen-2fabb0"}, "geometry": {"type": "Point", "coordinates": [-122.5757517, 45.4349228]}},
{"type": "Feature", "id": "F004q5aDmuBBSkH23VQudKw1Ynw=", "properties": {"ref": "29612", "@spider": "cpk", "amenity": "restaurant", "cuisine": "pizza", "short_name": "CPK", "addr:street_address": "2241 Q Street NE, Suite 7G", "addr:city": "Albuquerque", "addr:state": "NM", "addr:postcode": "87110", "addr:country": "US", "name": "California Pizza Kitchen Albuquerque Uptown", "phone": "(505) 883-3005", "website": "https://www.cpk.com/locations/29612", "brand": "California Pizza Kitchen", "brand:wikidata": "Q15109854", "nsi_id": "californiapizzakitchen-2fabb0"}, "geometry": {"type": "Point", "coordinates": [-106.5675225, 35.1032877]}},
{"type": "Feature", "id": "1Md9dV8WaARK7UUI5_XayaRdz7Q=", "properties": {"ref": "29564", "@spider": "cpk", "amenity": "restaurant", "cuisine": "pizza", "short_name": "CPK", "addr:street_address": "5173 Peachtree Parkway", "addr:city": "Norcross", "addr:state": "GA", "addr:postcode": "30092", "addr:country": "US", "name": "California Pizza Kitchen Peachtree", "phone": "(770) 662-0929", "website": "https://www.cpk.com/locations/29564", "brand": "California Pizza Kitchen", "brand:wikidata": "Q15109854", "nsi_id": "californiapizzakitchen-2fabb0"}, "geometry": {"type": "Point", "coordinates": [-84.2172992, 33.979988]}},
{"type": "Feature", "id": "WDlxo87TXWTjdVxiLKdfTCuZT3I=", "properties": {"ref": "29569", "@spider": "cpk", "amenity": "restaurant", "cuisine": "pizza", "short_name": "CPK", "addr:street_address": "609 Kailua Road, Space 110/111", "addr:city": "Kailua", "addr:state": "HI", "addr:postcode": "96734", "addr:country": "US", "name": "California Pizza Kitchen Kailua Town Center", "phone": "(808) 263-2480", "website": "https://www.cpk.com/locations/29569", "brand": "California Pizza Kitchen", "brand:wikidata": "Q15109854", "nsi_id": "californiapizzakitchen-2fabb0"}, "geometry": {"type": "Point", "coordinates": [-157.7420385, 21.393552]}},
{"type": "Feature", "id": "gQdegOM0ZBVQxTGWz-5AIqS8ZdA=", "properties": {"ref": "29547", "@spider": "cpk", "amenity": "restaurant", "cuisine": "pizza", "short_name": "CPK", "addr:street_address": "4712 River City Drive, Suite #105", "addr:city": "Jacksonville", "addr:state": "FL", "addr:postcode": "32246", "addr:country": "US", "name": "California Pizza Kitchen Jacksonville", "phone": "(904) 421-0179", "website": "https://www.cpk.com/locations/29547", "brand": "California Pizza Kitchen", "brand:wikidata": "Q15109854", "nsi_id": "californiapizzakitchen-2fabb0"}, "geometry": {"type": "Point", "coordinates": [-81.5257035, 30.2574149]}},
{"type": "Feature", "id": "Ia0_KEsJGrpH6iyzcvCr00Vjdtk=", "properties": {"ref": "29574", "@spider": "cpk", "amenity": "restaurant", "cuisine": "pizza", "short_name": "CPK", "addr:street_address": "1515 Lake Cook Road, Space 1022", "addr:city": "Northbrook", "addr:state": "IL", "addr:postcode": "60062", "addr:country": "US", "name": "California Pizza Kitchen Northbrook Court", "phone": "(847) 897-5106", "website": "https://www.cpk.com/locations/29574", "brand": "California Pizza Kitchen", "brand:wikidata": "Q15109854", "nsi_id": "californiapizzakitchen-2fabb0"}, "geometry": {"type": "Point", "coordinates": [-87.8168719, 42.1504134]}},
{"type": "Feature", "id": "2decgiMq4DHJwd7cdH8ARinDUnU=", "properties": {"ref": "29589", "@spider": "cpk", "amenity": "restaurant", "cuisine": "pizza", "short_name": "CPK", "addr:street_address": "250 Granite Street", "addr:city": "Braintree", "addr:state": "MA", "addr:postcode": "02184", "addr:country": "US", "name": "California Pizza Kitchen South Shore Plaza", "phone": "(781) 602-6149", "website": "https://www.cpk.com/locations/29589", "brand": "California Pizza Kitchen", "brand:wikidata": "Q15109854", "nsi_id": "californiapizzakitchen-2fabb0"}, "geometry": {"type": "Point", "coordinates": [-71.0211399, 42.2217893]}},
{"type": "Feature", "id": "jp3Yt_tJYxQ1iP_sDZIypejSq_M=", "properties": {"ref": "29607", "@spider": "cpk", "amenity": "restaurant", "cuisine": "pizza", "short_name": "CPK", "addr:street_address": "400 Commons Way #1090", "addr:city": "Bridgewater", "addr:state": "NJ", "addr:postcode": "08807", "addr:country": "US", "name": "California Pizza Kitchen Bridgewater Commons", "phone": "(908) 566-1225", "website": "https://www.cpk.com/locations/29607", "brand": "California Pizza Kitchen", "brand:wikidata": "Q15109854", "nsi_id": "californiapizzakitchen-2fabb0"}, "geometry": {"type": "Point", "coordinates": [-74.6192952, 40.5857662]}},
{"type": "Feature", "id": "6Isy4ExzD1VAfzz0PjkvYbnkqpI=", "properties": {"ref": "29493", "@spider": "cpk", "amenity": "restaurant", "cuisine": "pizza", "short_name": "CPK", "addr:street_address": "136 Stanford Shopping", "addr:city": "Palo Alto", "addr:state": "CA", "addr:postcode": "94304", "addr:country": "US", "name": "California Pizza Kitchen Stanford Shopping Center", "phone": "(650) 325-2753", "website": "https://www.cpk.com/locations/29493", "brand": "California Pizza Kitchen", "brand:wikidata": "Q15109854", "nsi_id": "californiapizzakitchen-2fabb0"}, "geometry": {"type": "Point", "coordinates": [-122.1722482, 37.443417]}},
{"type": "Feature", "id": "rLnP9-uqWlIipcR6lxLXmxpEkOU=", "properties": {"ref": "29558", "@spider": "cpk", "amenity": "restaurant", "cuisine": "pizza", "short_name": "CPK", "addr:street_address": "2610  Sawgrass Mills Circle #1429B", "addr:city": "Sunrise", "addr:state": "FL", "addr:postcode": "33323", "addr:country": "US", "name": "California Pizza Kitchen Sawgrass Mills Mall", "phone": "(954) 465-2041", "website": "https://www.cpk.com/locations/29558", "brand": "California Pizza Kitchen", "brand:wikidata": "Q15109854", "nsi_id": "californiapizzakitchen-2fabb0"}, "geometry": {"type": "Point", "coordinates": [-80.321256, 26.153823]}},
{"type": "Feature", "id": "l8OBRy9L5Exg8Wu0FkY-5-_ltbY=", "properties": {"ref": "29474", "@spider": "cpk", "amenity": "restaurant", "cuisine": "pizza", "short_name": "CPK", "addr:street_address": "10704 Venice Blvd.", "addr:city": "Culver City", "addr:state": "CA", "addr:postcode": "90232", "addr:country": "US", "name": "California Pizza Kitchen Culver Center", "phone": "(310) 287-2727", "website": "https://www.cpk.com/locations/29474", "brand": "California Pizza Kitchen", "brand:wikidata": "Q15109854", "nsi_id": "californiapizzakitchen-2fabb0"}, "geometry": {"type": "Point", "coordinates": [-118.406961, 34.0182808]}},
{"type": "Feature", "id": "gkCYFfIhTE7uzVcaFGTkViB5PP8=", "properties": {"ref": "29494", "@spider": "cpk", "amenity": "restaurant", "cuisine": "pizza", "short_name": "CPK", "addr:street_address": "1328 Stoneridge Mall Road, #D122", "addr:city": "Pleasanton", "addr:state": "CA", "addr:postcode": "94588", "addr:country": "US", "name": "California Pizza Kitchen Stoneridge Mall", "phone": "(925) 251-9771", "website": "https://www.cpk.com/locations/29494", "brand": "California Pizza Kitchen", "brand:wikidata": "Q15109854", "nsi_id": "californiapizzakitchen-2fabb0"}, "geometry": {"type": "Point", "coordinates": [-121.9291809, 37.6921933]}},
{"type": "Feature", "id": "v7N9aMudNGuSnY4hcfYmPZ2qx_M=", "properties": {"ref": "29487", "@spider": "cpk", "amenity": "restaurant", "cuisine": "pizza", "short_name": "CPK", "addr:street_address": "6600 Topanga Canyon Blvd, Ste 1082D", "addr:city": "Canoga Park", "addr:state": "CA", "addr:postcode": "91303", "addr:country": "US", "name": "California Pizza Kitchen Topanga", "phone": "(818) 884-8858", "website": "https://www.cpk.com/locations/29487", "brand": "California Pizza Kitchen", "brand:wikidata": "Q15109854", "nsi_id": "californiapizzakitchen-2fabb0"}, "geometry": {"type": "Point", "coordinates": [-118.6032907, 34.1901832]}},
{"type": "Feature", "id": "o-1GBKSCczII1pQtLYM6uo1mdK0=", "properties": {"ref": "29614", "@spider": "cpk", "amenity": "restaurant", "cuisine": "pizza", "short_name": "CPK", "addr:street_address": "10945 Oval Park Drive", "addr:city": "Las Vegas", "addr:state": "NV", "addr:postcode": "89135", "addr:country": "US", "name": "California Pizza Kitchen Summerlin", "phone": "(702) 978-5759", "website": "https://www.cpk.com/locations/29614", "brand": "California Pizza Kitchen", "brand:wikidata": "Q15109854", "nsi_id": "californiapizzakitchen-2fabb0"}, "geometry": {"type": "Point", "coordinates": [-115.331923, 36.151547]}},
{"type": "Feature", "id": "AYdFrtdv9mHUD0ajN-W6kk8uZtU=", "properties": {"ref": "29498", "@spider": "cpk", "amenity": "restaurant", "cuisine": "pizza", "short_name": "CPK", "addr:street_address": "5465 Alton Parkway", "addr:city": "Irvine", "addr:state": "CA", "addr:postcode": "92604", "addr:country": "US", "name": "California Pizza Kitchen Alton", "phone": "(949) 396-1120", "website": "https://www.cpk.com/locations/29498", "brand": "California Pizza Kitchen", "brand:wikidata": "Q15109854", "nsi_id": "californiapizzakitchen-2fabb0"}, "geometry": {"type": "Point", "coordinates": [-117.788647, 33.670339]}},
{"type": "Feature", "id": "5B1PsXo5OTrBBSNlgNnZhKxESH4=", "properties": {"ref": "29497", "@spider": "cpk", "amenity": "restaurant", "cuisine": "pizza", "short_name": "CPK", "addr:street_address": "1325 South Main Street", "addr:city": "Walnut Creek", "addr:state": "CA", "addr:postcode": "94596", "addr:country": "US", "name": "California Pizza Kitchen Walnut Creek", "phone": "(925) 938-0720", "website": "https://www.cpk.com/locations/29497", "brand": "California Pizza Kitchen", "brand:wikidata": "Q15109854", "nsi_id": "californiapizzakitchen-2fabb0"}, "geometry": {"type": "Point", "coordinates": [-122.0588447, 37.893752]}},
{"type": "Feature", "id": "qXC-fPiP6KjEyVza2rmhGfFDR2E=", "properties": {"ref": "29570", "@spider": "cpk", "amenity": "restaurant", "cuisine": "pizza", "short_name": "CPK", "addr:street_address": "91-5431 Kapolei Parkway", "addr:city": "Kapolei", "addr:state": "HI", "addr:postcode": "96707", "addr:country": "US", "name": "California Pizza Kitchen Kapolei", "phone": "(808) 892-2996", "website": "https://www.cpk.com/locations/29570", "brand": "California Pizza Kitchen", "brand:wikidata": "Q15109854", "nsi_id": "californiapizzakitchen-2fabb0"}, "geometry": {"type": "Point", "coordinates": [-158.051419, 21.333783]}},
{"type": "Feature", "id": "Hbn3NSns1OO8NbZP61nRCDPRLz8=", "properties": {"ref": "38538", "@spider": "cpk", "amenity": "restaurant", "cuisine": "pizza", "short_name": "CPK", "addr:street_address": "192 N Cattlemen Rd Unit 1", "addr:city": "Sarasota", "addr:state": "FL", "addr:postcode": "34243", "addr:country": "US", "name": "California Pizza Kitchen Sarasota", "phone": "(941) 203-6966", "website": "https://www.cpk.com/locations/38538", "brand": "California Pizza Kitchen", "brand:wikidata": "Q15109854", "nsi_id": "californiapizzakitchen-2fabb0"}, "geometry": {"type": "Point", "coordinates": [-82.4558544, 27.3852087]}},
{"type": "Feature", "id": "0v6YlI5KX7zjCgJYLIdG0pDkWnw=", "properties": {"ref": "38537", "@spider": "cpk", "amenity": "restaurant", "cuisine": "pizza", "short_name": "CPK", "addr:street_address": "3535 Monroe Street", "addr:city": "Santa Clara", "addr:state": "CA", "addr:postcode": "95051", "addr:country": "US", "name": "California Pizza Kitchen Santa Clara", "phone": "(408) 703-6070", "website": "https://www.cpk.com/locations/38537", "brand": "California Pizza Kitchen", "brand:wikidata": "Q15109854", "nsi_id": "californiapizzakitchen-2fabb0"}, "geometry": {"type": "Point", "coordinates": [-121.9932964, 37.3671812]}},
{"type": "Feature", "id": "fsK0wOtm0Z1n5PFFg546i4O1JUA=", "properties": {"ref": "33826", "@spider": "cpk", "amenity": "restaurant", "cuisine": "pizza", "short_name": "CPK", "addr:street_address": "200 E Via Rancho Pkwy", "addr:city": "Escondido", "addr:state": "CA", "addr:postcode": "92025", "addr:country": "US", "name": "California Pizza Kitchen Escondido", "phone": "(760) 594-9490", "website": "https://www.cpk.com/locations/33826", "brand": "California Pizza Kitchen", "brand:wikidata": "Q15109854", "nsi_id": "californiapizzakitchen-2fabb0"}, "geometry": {"type": "Point", "coordinates": [-117.0671111, 33.071935]}},
{"type": "Feature", "id": "cCF1VoqpdbeA9lPMgKAQ2E5y550=", "properties": {"ref": "40616", "@spider": "cpk", "amenity": "restaurant", "cuisine": "pizza", "short_name": "CPK", "addr:street_address": "95-1249 Meheula Parkway", "addr:city": "Mililani", "addr:state": "HI", "addr:postcode": "96789", "addr:country": "US", "name": "California Pizza Kitchen Mililani", "phone": "(808) 379-3650", "website": "https://www.cpk.com/locations/40616", "brand": "California Pizza Kitchen", "brand:wikidata": "Q15109854", "nsi_id": "californiapizzakitchen-2fabb0"}, "geometry": {"type": "Point", "coordinates": [-158.0059818, 21.4535118]}},
{"type": "Feature", "id": "Uv6gTllD8zPZWmt8cRpxdF7X-1Q=", "properties": {"ref": "29532", "@spider": "cpk", "amenity": "restaurant", "cuisine": "pizza", "short_name": "CPK", "addr:street_address": "3320 N Sepulveda Blvd", "addr:city": "Manhattan Beach", "addr:state": "CA", "addr:postcode": "90266", "addr:country": "US", "name": "California Pizza Kitchen Manhattan Beach", "phone": "(310) 796-1233", "website": "https://www.cpk.com/locations/29532", "brand": "California Pizza Kitchen", "brand:wikidata": "Q15109854", "nsi_id": "californiapizzakitchen-2fabb0"}, "geometry": {"type": "Point", "coordinates": [-118.3947431, 33.8989403]}},
{"type": "Feature", "id": "MnasCweGyi6A8a3Rst5Aqf-uKn0=", "properties": {"ref": "65930", "@spider": "cpk", "amenity": "restaurant", "cuisine": "pizza", "short_name": "CPK", "addr:street_address": "1800 Galleria Blvd", "addr:city": "Franklin", "addr:state": "TN", "addr:postcode": "37064", "addr:country": "US", "name": "California Pizza Kitchen Cool Springs", "phone": "(615) 614-8115", "website": "https://www.cpk.com/locations/65930", "brand": "California Pizza Kitchen", "brand:wikidata": "Q15109854", "nsi_id": "californiapizzakitchen-2fabb0"}, "geometry": {"type": "Point", "coordinates": [-86.8135376, 35.9571186]}},
{"type": "Feature", "id": "IwAp85Vk6PbmnlSJYhsc1do1w0A=", "properties": {"ref": "29500", "@spider": "cpk", "amenity": "restaurant", "cuisine": "pizza", "short_name": "CPK", "addr:street_address": "7007 Friars Road, Suite 354", "addr:city": "San Diego", "addr:state": "CA", "addr:postcode": "92108", "addr:country": "US", "name": "California Pizza Kitchen Fashion Valley", "phone": "(619) 298-4078", "website": "https://www.cpk.com/locations/29500", "brand": "California Pizza Kitchen", "brand:wikidata": "Q15109854", "nsi_id": "californiapizzakitchen-2fabb0"}, "geometry": {"type": "Point", "coordinates": [-117.1668349, 32.7682239]}},
{"type": "Feature", "id": "FXHJAmxgQ9seKepYsgeRq1FLFmA=", "properties": {"ref": "38536", "@spider": "cpk", "amenity": "restaurant", "cuisine": "pizza", "short_name": "CPK", "addr:street_address": "10250 Santa Monica Blvd", "addr:city": "Los Angeles", "addr:state": "CA", "addr:postcode": "90067", "addr:country": "US", "name": "California Pizza Kitchen Century City", "phone": "(424) 363-1235", "website": "https://www.cpk.com/locations/38536", "brand": "California Pizza Kitchen", "brand:wikidata": "Q15109854", "nsi_id": "californiapizzakitchen-2fabb0"}, "geometry": {"type": "Point", "coordinates": [-118.4200376, 34.0599924]}},
{"type": "Feature", "id": "Cx1PP1Wx8hU6joY526vFVz8O1BE=", "properties": {"ref": "29609", "@spider": "cpk", "amenity": "restaurant", "cuisine": "pizza", "short_name": "CPK", "addr:street_address": "1 Garden State Plaza ", "addr:city": "Paramus", "addr:state": "NJ", "addr:postcode": "07652", "addr:country": "US", "name": "California Pizza Kitchen Paramus", "phone": "(201) 587-0005", "website": "https://www.cpk.com/locations/29609", "brand": "California Pizza Kitchen", "brand:wikidata": "Q15109854", "nsi_id": "californiapizzakitchen-2fabb0"}, "geometry": {"type": "Point", "coordinates": [-74.0762757, 40.9181658]}},
{"type": "Feature", "id": "Pa1LsdU_FoTyFeevfjWVGY-q0O4=", "properties": {"ref": "195399", "@spider": "cpk", "amenity": "restaurant", "cuisine": "pizza", "short_name": "CPK", "addr:street_address": "27430 La Paz Road", "addr:city": "Laguna Niguel", "addr:state": "CA", "addr:postcode": "92677", "addr:country": "US", "name": "California Pizza Kitchen Laguna Niguel", "website": "https://www.cpk.com/locations/195399", "brand": "California Pizza Kitchen", "brand:wikidata": "Q15109854", "nsi_id": "californiapizzakitchen-2fabb0"}, "geometry": {"type": "Point", "coordinates": [-117.7074308, 33.5644198]}}]}