{"type":"FeatureCollection","features":[{"type": "Feature", "id": "sTUY3qeL_G_UK4RftD0FI-Z7gX4=", "properties": {"ref": "https://www.crateandbarrel.com/stores/fashion-square/str551?section=events", "@spider": "crateandbarrel", "shop": "furniture", "addr:street_address": "7014-604 E. Camelback Rd", "addr:city": "Scottsdale", "addr:state": "AZ", "addr:postcode": "85251", "addr:country": "US", "name": "Fashion Square", "phone": "(480) 945-1500", "website": "https://www.crateandbarrel.com/stores/fashion-square/str551?section=events", "opening_hours": "Mo-Sa 10:00-21:00; Su 11:00-18:00", "image": "https://cb.scene7.com/is/image/Crate/store-location-551-01/$web_store_location_individual_xs$/221112113838/store-location-551-01.jpg", "brand": "crateandbarrel", "brand:wikidata": "Q5182604", "nsi_id": "crateandbarrel-a5c7fa"}, "geometry": {"type": "Point", "coordinates": [-111.930235, 33.502337]}},
{"type": "Feature", "id": "1cuqsc08vcV0eWoPMh6o3HcEU64=", "properties": {"ref": "https://www.crateandbarrel.com/stores/fashion-square/str551", "@spider": "crateandbarrel", "shop": "furniture", "addr:street_address": "7014-604 E. Camelback Rd", "addr:city": "Scottsdale", "addr:state": "AZ", "addr:postcode": "85251", "addr:country": "US", "name": "Fashion Square", "phone": "(480) 945-1500", "website": "https://www.crateandbarrel.com/stores/fashion-square/str551", "opening_hours": "Mo-Sa 10:00-21:00; Su 11:00-18:00", "image": "https://cb.scene7.com/is/image/Crate/store-location-551-01/$web_store_location_individual_xs$/221112054206/store-location-551-01.jpg", "brand": "crateandbarrel", "brand:wikidata": "Q5182604", "nsi_id": "crateandbarrel-a5c7fa"}, "geometry": {"type": "Point", "coordinates": [-111.930235, 33.502337]}},
{"type": "Feature", "id": "Q7RrxVhhegSV-ug8k6PuMQRCJ4E=", "properties": {"ref": "https://www.crateandbarrel.com/stores/mayfair-mall/str131?section=events", "@spider": "crateandbarrel", "shop": "furniture", "addr:street_address": "2450 N. Mayfair Rd", "addr:city": "Wauwatosa", "addr:state": "WI", "addr:postcode": "53226", "addr:country": "US", "name": "Mayfair Mall", "phone": "(414) 258-9500", "website": "https://www.crateandbarrel.com/stores/mayfair-mall/str131?section=events", "opening_hours": "Mo-Th 10:00-19:00; Fr-Sa 10:00-20:00; Su 11:00-18:00", "image": "https://cb.scene7.com/is/image/Crate/store-location-131-01/$web_store_location_individual_xs$/221112105121/store-location-131-01.jpg", "brand": "crateandbarrel", "brand:wikidata": "Q5182604", "nsi_id": "crateandbarrel-a5c7fa"}, "geometry": {"type": "Point", "coordinates": [-88.047411, 43.063988]}},
{"type": "Feature", "id": "hv5Fas1Dxx9gmPpQazxBjj1lPnw=", "properties": {"ref": "https://www.crateandbarrel.com/stores/spring-valley/str605?section=events", "@spider": "crateandbarrel", "shop": "furniture", "addr:street_address": "4820 Massachusetts Ave NW", "addr:city": "Washington", "addr:state": "DC", "addr:postcode": "20016", "addr:country": "US", "name": "Spring Valley", "phone": "(202) 364-6100", "website": "https://www.crateandbarrel.com/stores/spring-valley/str605?section=events", "opening_hours": "Mo-Sa 10:00-20:00; Su 11:00-18:00", "image": "https://cb.scene7.com/is/image/Crate/store-location-605-01/$web_store_location_individual_xs$/221112073208/store-location-605-01.jpg", "brand": "crateandbarrel", "brand:wikidata": "Q5182604", "nsi_id": "crateandbarrel-a5c7fa"}, "geometry": {"type": "Point", "coordinates": [-77.095463, 38.944521]}},
{"type": "Feature", "id": "FDlYNr3noEjxsY45lYec3tnyPeE=", "properties": {"ref": "https://www.crateandbarrel.com/stores/university-village/str452?section=events", "@spider": "crateandbarrel", "shop": "furniture", "addr:street_address": "2680 NE 49th St", "addr:city": "Seattle", "addr:state": "WA", "addr:postcode": "98105", "addr:country": "US", "name": "University Village", "phone": "(206) 937-9939", "website": "https://www.crateandbarrel.com/stores/university-village/str452?section=events", "opening_hours": "Mo-Sa 10:00-20:00; Su 11:00-18:00", "image": "https://cb.scene7.com/is/image/Crate/store-location-452-01/$web_store_location_individual_xs$/221112113843/store-location-452-01.jpg", "brand": "crateandbarrel", "brand:wikidata": "Q5182604", "nsi_id": "crateandbarrel-a5c7fa"}, "geometry": {"type": "Point", "coordinates": [-122.298695, 47.664437]}},
{"type": "Feature", "id": "ym23oBUtub3h8nAVnH9_YByn1fw=", "properties": {"ref": "https://www.crateandbarrel.com/stores/short-pump-town-center/str612?section=events", "@spider": "crateandbarrel", "shop": "furniture", "addr:street_address": "11800 W. Broad St, Suite 1340", "addr:city": "Richmond", "addr:state": "VA", "addr:postcode": "23233", "addr:country": "US", "name": "Short Pump Town Center", "phone": "(804) 364-0820", "website": "https://www.crateandbarrel.com/stores/short-pump-town-center/str612?section=events", "opening_hours": "Mo-Sa 10:00-20:00; Su 11:00-18:00", "image": "https://cb.scene7.com/is/image/Crate/store-location-612-01/$web_store_location_individual_xs$/221112102419/store-location-612-01.jpg", "brand": "crateandbarrel", "brand:wikidata": "Q5182604", "nsi_id": "crateandbarrel-a5c7fa"}, "geometry": {"type": "Point", "coordinates": [-77.623361, 37.654491]}},
{"type": "Feature", "id": "zeODpAlQkj1Xuibtez2VHLPlcRg=", "properties": {"ref": "https://www.crateandbarrel.com/stores/fashion-place/str557?section=events", "@spider": "crateandbarrel", "shop": "furniture", "addr:street_address": "6207 South State St", "addr:city": "Murray", "addr:state": "UT", "addr:postcode": "84107", "addr:country": "US", "name": "Fashion Place", "phone": "(801) 281-6656", "website": "https://www.crateandbarrel.com/stores/fashion-place/str557?section=events", "opening_hours": "Mo-Th 10:00-20:00; Fr-Sa 10:00-21:00; Su 11:00-18:00", "image": "https://cb.scene7.com/is/image/Crate/store-location-557-01/$web_store_location_individual_xs$/221112113846/store-location-557-01.jpg", "brand": "crateandbarrel", "brand:wikidata": "Q5182604", "nsi_id": "crateandbarrel-a5c7fa"}, "geometry": {"type": "Point", "coordinates": [-111.888222, 40.636012]}},
{"type": "Feature", "id": "2wu5aedRsfMt2aNKbSdSKPsUgvY=", "properties": {"ref": "https://www.crateandbarrel.com/stores/gateway-market/str312?section=events", "@spider": "crateandbarrel", "shop": "furniture", "addr:street_address": "9607 Research Blvd", "addr:city": "Austin", "addr:state": "TX", "addr:postcode": "78759", "addr:country": "US", "name": "Gateway Market", "phone": "(512) 795-9201", "website": "https://www.crateandbarrel.com/stores/gateway-market/str312?section=events", "opening_hours": "Mo-Sa 10:00-20:00; Su 11:00-18:00", "image": "https://cb.scene7.com/is/image/Crate/store-location-312-01/$web_store_location_individual_xs$/221112111659/store-location-312-01.jpg", "brand": "crateandbarrel", "brand:wikidata": "Q5182604", "nsi_id": "crateandbarrel-a5c7fa"}, "geometry": {"type": "Point", "coordinates": [-97.743334, 30.388148]}},
{"type": "Feature", "id": "pjcR52ytzeSoBBnAxxkJDetLbBo=", "properties": {"ref": "https://www.crateandbarrel.com/stores/green-hills/str763?section=events", "@spider": "crateandbarrel", "shop": "furniture", "addr:street_address": "2126 Abbott Martin Rd Suite E101", "addr:city": "Nashville", "addr:state": "TN", "addr:postcode": "37215", "addr:country": "US", "name": "Green Hills", "phone": "(615) 942-2664", "website": "https://www.crateandbarrel.com/stores/green-hills/str763?section=events", "opening_hours": "Mo-Sa 10:00-20:00; Su 11:00-18:00", "image": "https://cb.scene7.com/is/image/Crate/store-location-763-01/$web_store_location_individual_xs$/221112113848/store-location-763-01.jpg", "brand": "crateandbarrel", "brand:wikidata": "Q5182604", "nsi_id": "crateandbarrel-a5c7fa"}, "geometry": {"type": "Point", "coordinates": [-86.8159454, 36.1070316]}},
{"type": "Feature", "id": "PwKCoSlEDwQNqEyUThaxjYMmG7s=", "properties": {"ref": "https://www.crateandbarrel.com/stores/garden-city-center/str223?section=events", "@spider": "crateandbarrel", "shop": "furniture", "addr:street_address": "144 Hillside Road", "addr:city": "Cranston", "addr:state": "RI", "addr:postcode": "02920", "addr:country": "US", "name": "Garden City Center", "phone": "(401) 270-4620", "website": "https://www.crateandbarrel.com/stores/garden-city-center/str223?section=events", "opening_hours": "Mo-Sa 10:00-20:00; Su 12:00-18:00", "image": "https://cb.scene7.com/is/image/Crate/store-location-223-01/$web_store_location_individual_xs$/221112044842/store-location-223-01.jpg", "brand": "crateandbarrel", "brand:wikidata": "Q5182604", "nsi_id": "crateandbarrel-a5c7fa"}, "geometry": {"type": "Point", "coordinates": [-71.4609308, 41.7605666]}},
{"type": "Feature", "id": "7tNE5tuxZsBn4HiXzApC_vSqqQY=", "properties": {"ref": "https://www.crateandbarrel.com/stores/king-of-prussia/str631?section=events", "@spider": "crateandbarrel", "shop": "furniture", "addr:street_address": "160 North Gulph Rd", "addr:city": "King of Prussia", "addr:state": "PA", "addr:postcode": "19406", "addr:country": "US", "name": "King of Prussia", "phone": "(610) 354-9600", "website": "https://www.crateandbarrel.com/stores/king-of-prussia/str631?section=events", "opening_hours": "Mo-Sa 10:00-20:00; Su 11:00-18:00", "image": "https://cb.scene7.com/is/image/Crate/store-location-631-01/$web_store_location_individual_xs$/221112104032/store-location-631-01.jpg", "brand": "crateandbarrel", "brand:wikidata": "Q5182604", "nsi_id": "crateandbarrel-a5c7fa"}, "geometry": {"type": "Point", "coordinates": [-75.395952, 40.085961]}},
{"type": "Feature", "id": "o8QolnkPo6_6gejGl7_Sp-wFvj8=", "properties": {"ref": "https://www.crateandbarrel.com/stores/bridgeport-village/str454?section=events", "@spider": "crateandbarrel", "shop": "furniture", "addr:street_address": "7267 SW Bridgeport Rd", "addr:city": "Tigard", "addr:state": "OR", "addr:postcode": "97224", "addr:country": "US", "name": "Bridgeport Village", "phone": "(503) 598-9005", "website": "https://www.crateandbarrel.com/stores/bridgeport-village/str454?section=events", "opening_hours": "Mo-Sa 10:00-20:00; Su 11:00-18:00", "image": "https://cb.scene7.com/is/image/Crate/store-location-454-01/$web_store_location_individual_xs$/221112113851/store-location-454-01.jpg", "brand": "crateandbarrel", "brand:wikidata": "Q5182604", "nsi_id": "crateandbarrel-a5c7fa"}, "geometry": {"type": "Point", "coordinates": [-122.7497, 45.3966]}},
{"type": "Feature", "id": "H3sVuRMRwF01dd0xBZO7a2kqND8=", "properties": {"ref": "https://www.crateandbarrel.com/stores/kenwood-towne-place/str757?section=events", "@spider": "crateandbarrel", "shop": "furniture", "addr:street_address": "5901 E. Galbraith Rd", "addr:city": "Cincinnati", "addr:state": "OH", "addr:postcode": "45236", "addr:country": "US", "name": "The Kenwood Collection", "phone": "(513) 984-4555", "website": "https://www.crateandbarrel.com/stores/kenwood-towne-place/str757?section=events", "opening_hours": "Mo-Sa 10:00-20:00; Su 11:00-18:00", "image": "https://cb.scene7.com/is/image/Crate/store-location-757-01/$web_store_location_individual_xs$/221112055629/store-location-757-01.jpg", "brand": "crateandbarrel", "brand:wikidata": "Q5182604", "nsi_id": "crateandbarrel-a5c7fa"}, "geometry": {"type": "Point", "coordinates": [-84.3763767, 39.203579]}},
{"type": "Feature", "id": "yYolCSq9PQGZw96cG0kP077JSEo=", "properties": {"ref": "https://www.crateandbarrel.com/stores/the-streets-at-southpoint/str860?section=events", "@spider": "crateandbarrel", "shop": "furniture", "addr:street_address": "8030 Renaissance Pkwy", "addr:city": "Durham", "addr:state": "NC", "addr:postcode": "27713", "addr:country": "US", "name": "The Streets at Southpoint", "phone": "(984) 250-6600", "website": "https://www.crateandbarrel.com/stores/the-streets-at-southpoint/str860?section=events", "opening_hours": "Mo-Sa 10:00-20:00; Su 11:00-18:00", "image": "https://cb.scene7.com/is/image/Crate/store-location-860-01/$web_store_location_individual_xs$/221112113854/store-location-860-01.jpg", "brand": "crateandbarrel", "brand:wikidata": "Q5182604", "nsi_id": "crateandbarrel-a5c7fa"}, "geometry": {"type": "Point", "coordinates": [-78.942482, 35.904983]}},
{"type": "Feature", "id": "pvqTFo4LybKcLqnx_Nt4l-tOV9g=", "properties": {"ref": "https://www.crateandbarrel.com/stores/the-westchester/str623?section=events", "@spider": "crateandbarrel", "shop": "furniture", "addr:street_address": "125 Westchester Ave", "addr:city": "White Plains", "addr:state": "NY", "addr:postcode": "10601", "addr:country": "US", "name": "The Westchester", "phone": "(914) 682-0900", "website": "https://www.crateandbarrel.com/stores/the-westchester/str623?section=events", "opening_hours": "Mo-Th 11:00-20:00; Fr-Sa 10:00-20:00; Su 12:00-18:00", "image": "https://cb.scene7.com/is/image/Crate/store-location-623-01/$web_store_location_individual_xs$/221112062032/store-location-623-01.jpg", "brand": "crateandbarrel", "brand:wikidata": "Q5182604", "nsi_id": "crateandbarrel-a5c7fa"}, "geometry": {"type": "Point", "coordinates": [-73.758328, 41.032431]}},
{"type": "Feature", "id": "bUdPHAzzRTuf3loyXf2o6kQkx9Q=", "properties": {"ref": "https://www.crateandbarrel.com/stores/cherry-hill-mall/str643?section=events", "@spider": "crateandbarrel", "shop": "furniture", "addr:street_address": "2000 New Jersey 38", "addr:city": "Cherry Hill", "addr:state": "NJ", "addr:postcode": "08002", "addr:country": "US", "name": "Cherry Hill Mall", "phone": "(856) 662-5499", "website": "https://www.crateandbarrel.com/stores/cherry-hill-mall/str643?section=events", "opening_hours": "Mo-Sa 10:00-20:00; Su 11:00-18:00", "image": "https://cb.scene7.com/is/image/Crate/store-location-643-01/$web_store_location_individual_xs$/221112113856/store-location-643-01.jpg", "brand": "crateandbarrel", "brand:wikidata": "Q5182604", "nsi_id": "crateandbarrel-a5c7fa"}, "geometry": {"type": "Point", "coordinates": [-75.028682, 39.939052]}},
{"type": "Feature", "id": "s_VdB4iasU68LnZFvpuTZldkSBk=", "properties": {"ref": "https://www.crateandbarrel.com/stores/cherry-hill-mall/str643", "@spider": "crateandbarrel", "shop": "furniture", "addr:street_address": "2000 New Jersey 38", "addr:city": "Cherry Hill", "addr:state": "NJ", "addr:postcode": "08002", "addr:country": "US", "name": "Cherry Hill Mall", "phone": "(856) 662-5499", "website": "https://www.crateandbarrel.com/stores/cherry-hill-mall/str643", "opening_hours": "Mo-Sa 10:00-20:00; Su 11:00-18:00", "image": "https://cb.scene7.com/is/image/Crate/store-location-643-01/$web_store_location_individual_xs$/221112101404/store-location-643-01.jpg", "brand": "crateandbarrel", "brand:wikidata": "Q5182604", "nsi_id": "crateandbarrel-a5c7fa"}, "geometry": {"type": "Point", "coordinates": [-75.028682, 39.939052]}},
{"type": "Feature", "id": "ot0TdR7i3611v4SQRCyL7j4LXAM=", "properties": {"ref": "https://www.crateandbarrel.com/stores/the-mall-at-short-hills/str625?section=events", "@spider": "crateandbarrel", "shop": "furniture", "addr:street_address": "1200 Morris Turnpike Suite 2005", "addr:city": "Short Hills", "addr:state": "NJ", "addr:postcode": "07078", "addr:country": "US", "name": "The Mall at Short Hills", "phone": "(973) 379-9700", "website": "https://www.crateandbarrel.com/stores/the-mall-at-short-hills/str625?section=events", "opening_hours": "Mo-Sa 10:00-20:00; Su 11:00-18:00", "image": "https://cb.scene7.com/is/image/Crate/store-location-625-01/$web_store_location_individual_xs$/221112094042/store-location-625-01.jpg", "brand": "crateandbarrel", "brand:wikidata": "Q5182604", "nsi_id": "crateandbarrel-a5c7fa"}, "geometry": {"type": "Point", "coordinates": [-74.36402, 40.737912]}},
{"type": "Feature", "id": "THHkAB5yoF30jID4YTQVUPqTXrs=", "properties": {"ref": "https://www.crateandbarrel.com/stores/the-mall-at-short-hills/str625", "@spider": "crateandbarrel", "shop": "furniture", "addr:street_address": "1200 Morris Turnpike Suite 2005", "addr:city": "Short Hills", "addr:state": "NJ", "addr:postcode": "07078", "addr:country": "US", "name": "The Mall at Short Hills", "phone": "(973) 379-9700", "website": "https://www.crateandbarrel.com/stores/the-mall-at-short-hills/str625", "opening_hours": "Mo-Sa 10:00-20:00; Su 11:00-18:00", "image": "https://cb.scene7.com/is/image/Crate/store-location-625-01/$web_store_location_individual_xs$/221112113900/store-location-625-01.jpg", "brand": "crateandbarrel", "brand:wikidata": "Q5182604", "nsi_id": "crateandbarrel-a5c7fa"}, "geometry": {"type": "Point", "coordinates": [-74.36402, 40.737912]}},
{"type": "Feature", "id": "IYlC_MITQAbobaD5WgVCtSq9pws=", "properties": {"ref": "https://www.crateandbarrel.com/stores/paramus/str636?section=events", "@spider": "crateandbarrel", "shop": "furniture", "addr:street_address": "504 New Jersey 17", "addr:city": "Paramus", "addr:state": "NJ", "addr:postcode": "07652", "addr:country": "US", "name": "Paramus", "phone": "(201) 986-2999", "website": "https://www.crateandbarrel.com/stores/paramus/str636?section=events", "opening_hours": "Mo-Sa 10:00-20:00", "image": "https://cb.scene7.com/is/image/Crate/store-location-636-01/$web_store_location_individual_xs$/221112070643/store-location-636-01.jpg", "brand": "crateandbarrel", "brand:wikidata": "Q5182604", "nsi_id": "crateandbarrel-a5c7fa"}, "geometry": {"type": "Point", "coordinates": [-74.073283, 40.955367]}},
{"type": "Feature", "id": "Z2R65RfoIA-I808WN-QspZWEJok=", "properties": {"ref": "https://www.crateandbarrel.com/stores/paramus/str636", "@spider": "crateandbarrel", "shop": "furniture", "addr:street_address": "504 New Jersey 17", "addr:city": "Paramus", "addr:state": "NJ", "addr:postcode": "07652", "addr:country": "US", "name": "Paramus", "phone": "(201) 986-2999", "website": "https://www.crateandbarrel.com/stores/paramus/str636", "opening_hours": "Mo-Sa 10:00-20:00", "image": "https://cb.scene7.com/is/image/Crate/store-location-636-01/$web_store_location_individual_xs$/221112102839/store-location-636-01.jpg", "brand": "crateandbarrel", "brand:wikidata": "Q5182604", "nsi_id": "crateandbarrel-a5c7fa"}, "geometry": {"type": "Point", "coordinates": [-74.073283, 40.955367]}},
{"type": "Feature", "id": "euFyNGquwOSc0HFvYnbOBJTb3sw=", "properties": {"ref": "https://www.crateandbarrel.com/stores/the-westchester/str623", "@spider": "crateandbarrel", "shop": "furniture", "addr:street_address": "125 Westchester Ave", "addr:city": "White Plains", "addr:state": "NY", "addr:postcode": "10601", "addr:country": "US", "name": "The Westchester", "phone": "(914) 682-0900", "website": "https://www.crateandbarrel.com/stores/the-westchester/str623", "opening_hours": "Mo-Th 11:00-20:00; Fr-Sa 10:00-20:00; Su 12:00-18:00", "image": "https://cb.scene7.com/is/image/Crate/store-location-623-01/$web_store_location_individual_xs$/221112040149/store-location-623-01.jpg", "brand": "crateandbarrel", "brand:wikidata": "Q5182604", "nsi_id": "crateandbarrel-a5c7fa"}, "geometry": {"type": "Point", "coordinates": [-73.758328, 41.032431]}},
{"type": "Feature", "id": "TnjiVK19Wmu9JLDNjUHk22d_cIg=", "properties": {"ref": "https://www.crateandbarrel.com/stores/manhasset/str627?section=events", "@spider": "crateandbarrel", "shop": "furniture", "addr:street_address": "1950 Northern Blvd", "addr:city": "Manhasset", "addr:state": "NY", "addr:postcode": "11030", "addr:country": "US", "name": "Manhasset", "phone": "(516) 365-7600", "website": "https://www.crateandbarrel.com/stores/manhasset/str627?section=events", "opening_hours": "Mo-Sa 10:00-19:00; Su 11:00-18:00", "image": "https://cb.scene7.com/is/image/Crate/store-location-627-01/$web_store_location_individual_xs$/221112101138/store-location-627-01.jpg", "brand": "crateandbarrel", "brand:wikidata": "Q5182604", "nsi_id": "crateandbarrel-a5c7fa"}, "geometry": {"type": "Point", "coordinates": [-73.675342, 40.79567]}},
{"type": "Feature", "id": "8vk0VEJtRk7nrNn0s6DtJNVi6bQ=", "properties": {"ref": "https://www.crateandbarrel.com/stores/manhasset/str627", "@spider": "crateandbarrel", "shop": "furniture", "addr:street_address": "1950 Northern Blvd", "addr:city": "Manhasset", "addr:state": "NY", "addr:postcode": "11030", "addr:country": "US", "name": "Manhasset", "phone": "(516) 365-7600", "website": "https://www.crateandbarrel.com/stores/manhasset/str627", "opening_hours": "Mo-Sa 10:00-19:00; Su 11:00-18:00", "image": "https://cb.scene7.com/is/image/Crate/store-location-627-01/$web_store_location_individual_xs$/221112064623/store-location-627-01.jpg", "brand": "crateandbarrel", "brand:wikidata": "Q5182604", "nsi_id": "crateandbarrel-a5c7fa"}, "geometry": {"type": "Point", "coordinates": [-73.675342, 40.79567]}},
{"type": "Feature", "id": "2bC55x6kySg_KfjiCs7vu0ndpIQ=", "properties": {"ref": "https://www.crateandbarrel.com/stores/soho/str633?section=events", "@spider": "crateandbarrel", "shop": "furniture", "addr:street_address": "611 Broadway", "addr:city": "New York", "addr:state": "NY", "addr:postcode": "10012", "addr:country": "US", "name": "SoHo", "phone": "(212) 780-0004", "website": "https://www.crateandbarrel.com/stores/soho/str633?section=events", "opening_hours": "Mo-Sa 10:00-20:00; Su 11:00-18:00", "image": "https://cb.scene7.com/is/image/Crate/store-location-633-01/$web_store_location_individual_xs$/221112095238/store-location-633-01.jpg", "brand": "crateandbarrel", "brand:wikidata": "Q5182604", "nsi_id": "crateandbarrel-a5c7fa"}, "geometry": {"type": "Point", "coordinates": [-73.996735, 40.725712]}},
{"type": "Feature", "id": "Hw206TkIUZtqfdqYSTo88SDbxtw=", "properties": {"ref": "https://www.crateandbarrel.com/stores/soho/str633", "@spider": "crateandbarrel", "shop": "furniture", "addr:street_address": "611 Broadway", "addr:city": "New York", "addr:state": "NY", "addr:postcode": "10012", "addr:country": "US", "name": "SoHo", "phone": "(212) 780-0004", "website": "https://www.crateandbarrel.com/stores/soho/str633", "opening_hours": "Mo-Sa 10:00-20:00; Su 11:00-18:00", "image": "https://cb.scene7.com/is/image/Crate/store-location-633-01/$web_store_location_individual_xs$/221112102839/store-location-633-01.jpg", "brand": "crateandbarrel", "brand:wikidata": "Q5182604", "nsi_id": "crateandbarrel-a5c7fa"}, "geometry": {"type": "Point", "coordinates": [-73.996735, 40.725712]}},
{"type": "Feature", "id": "Vk567o0VjN3c9yzkKgs9U051V3c=", "properties": {"ref": "https://www.crateandbarrel.com/stores/the-streets-at-southpoint/str860", "@spider": "crateandbarrel", "shop": "furniture", "addr:street_address": "8030 Renaissance Pkwy", "addr:city": "Durham", "addr:state": "NC", "addr:postcode": "27713", "addr:country": "US", "name": "The Streets at Southpoint", "phone": "(984) 250-6600", "website": "https://www.crateandbarrel.com/stores/the-streets-at-southpoint/str860", "opening_hours": "Mo-Sa 10:00-20:00; Su 11:00-18:00", "image": "https://cb.scene7.com/is/image/Crate/store-location-860-01/$web_store_location_individual_xs$/221112072353/store-location-860-01.jpg", "brand": "crateandbarrel", "brand:wikidata": "Q5182604", "nsi_id": "crateandbarrel-a5c7fa"}, "geometry": {"type": "Point", "coordinates": [-78.942482, 35.904983]}},
{"type": "Feature", "id": "OTUQwj74TQWpFiejGiDFO9xGJI4=", "properties": {"ref": "https://www.crateandbarrel.com/stores/southpark-mall/str861", "@spider": "crateandbarrel", "shop": "furniture", "addr:street_address": "4320 Sharon Rd", "addr:city": "Charlotte", "addr:state": "NC", "addr:postcode": "28211", "addr:country": "US", "name": "SouthPark Mall", "phone": "(704) 362-4003", "website": "https://www.crateandbarrel.com/stores/southpark-mall/str861", "opening_hours": "Mo-Sa 10:00-20:00; Su 11:00-18:00", "image": "https://cb.scene7.com/is/image/Crate/store-location-861-01/$web_store_location_individual_xs$/221112080445/store-location-861-01.jpg", "brand": "crateandbarrel", "brand:wikidata": "Q5182604", "nsi_id": "crateandbarrel-a5c7fa"}, "geometry": {"type": "Point", "coordinates": [-80.828034, 35.15147]}},
{"type": "Feature", "id": "hEPyCYA6C8uQaP28ZB18nZ4QLvk=", "properties": {"ref": "https://www.crateandbarrel.com/stores/southpark-mall/str861?section=events", "@spider": "crateandbarrel", "shop": "furniture", "addr:street_address": "4320 Sharon Rd", "addr:city": "Charlotte", "addr:state": "NC", "addr:postcode": "28211", "addr:country": "US", "name": "SouthPark Mall", "phone": "(704) 362-4003", "website": "https://www.crateandbarrel.com/stores/southpark-mall/str861?section=events", "opening_hours": "Mo-Sa 10:00-20:00; Su 11:00-18:00", "image": "https://cb.scene7.com/is/image/Crate/store-location-861-01/$web_store_location_individual_xs$/221112094811/store-location-861-01.jpg", "brand": "crateandbarrel", "brand:wikidata": "Q5182604", "nsi_id": "crateandbarrel-a5c7fa"}, "geometry": {"type": "Point", "coordinates": [-80.828034, 35.15147]}},
{"type": "Feature", "id": "srJKX-49e4kqepL-JEKAa2bHQPc=", "properties": {"ref": "https://www.crateandbarrel.com/stores/kenwood-towne-place/str757", "@spider": "crateandbarrel", "shop": "furniture", "addr:street_address": "5901 E. Galbraith Rd", "addr:city": "Cincinnati", "addr:state": "OH", "addr:postcode": "45236", "addr:country": "US", "name": "The Kenwood Collection", "phone": "(513) 984-4555", "website": "https://www.crateandbarrel.com/stores/kenwood-towne-place/str757", "opening_hours": "Mo-Sa 10:00-20:00; Su 11:00-18:00", "image": "https://cb.scene7.com/is/image/Crate/store-location-757-01/$web_store_location_individual_xs$/221112055629/store-location-757-01.jpg", "brand": "crateandbarrel", "brand:wikidata": "Q5182604", "nsi_id": "crateandbarrel-a5c7fa"}, "geometry": {"type": "Point", "coordinates": [-84.3763767, 39.203579]}},
{"type": "Feature", "id": "289QmHrgiLQLn8UglbXZudSv-dU=", "properties": {"ref": "https://www.crateandbarrel.com/stores/easton-town-center/str755?section=events", "@spider": "crateandbarrel", "shop": "furniture", "addr:street_address": "3965 Townsfair Way", "addr:city": "Columbus", "addr:state": "OH", "addr:postcode": "43219", "addr:country": "US", "name": "Easton Town Center", "phone": "(614) 475-7428", "website": "https://www.crateandbarrel.com/stores/easton-town-center/str755?section=events", "opening_hours": "Mo-Sa 10:00-20:00; Su 11:00-18:00", "image": "https://cb.scene7.com/is/image/Crate/store-location-755-01/$web_store_location_individual_xs$/221112102123/store-location-755-01.jpg", "brand": "crateandbarrel", "brand:wikidata": "Q5182604", "nsi_id": "crateandbarrel-a5c7fa"}, "geometry": {"type": "Point", "coordinates": [-82.915612, 40.048963]}},
{"type": "Feature", "id": "BqSpksBC48QeRX6jnx-iVm__djs=", "properties": {"ref": "https://www.crateandbarrel.com/stores/easton-town-center/str755", "@spider": "crateandbarrel", "shop": "furniture", "addr:street_address": "3965 Townsfair Way", "addr:city": "Columbus", "addr:state": "OH", "addr:postcode": "43219", "addr:country": "US", "name": "Easton Town Center", "phone": "(614) 475-7428", "website": "https://www.crateandbarrel.com/stores/easton-town-center/str755", "opening_hours": "Mo-Sa 10:00-20:00; Su 11:00-18:00", "image": "https://cb.scene7.com/is/image/Crate/store-location-755-01/$web_store_location_individual_xs$/221112084903/store-location-755-01.jpg", "brand": "crateandbarrel", "brand:wikidata": "Q5182604", "nsi_id": "crateandbarrel-a5c7fa"}, "geometry": {"type": "Point", "coordinates": [-82.915612, 40.048963]}},
{"type": "Feature", "id": "VWHv5VspUVWTt052UjSCAGfZUVI=", "properties": {"ref": "https://www.crateandbarrel.com/stores/legacy-village/str753?section=events", "@spider": "crateandbarrel", "shop": "furniture", "addr:street_address": "24405 Cedar Rd", "addr:city": "Lyndhurst", "addr:state": "OH", "addr:postcode": "44124", "addr:country": "US", "name": "Legacy Village", "phone": "(216) 297-3500", "website": "https://www.crateandbarrel.com/stores/legacy-village/str753?section=events", "opening_hours": "Mo-Sa 10:00-20:00; Su 11:00-18:00", "image": "https://cb.scene7.com/is/image/Crate/store-location-753-01/$web_store_location_individual_xs$/221112100657/store-location-753-01.jpg", "brand": "crateandbarrel", "brand:wikidata": "Q5182604", "nsi_id": "crateandbarrel-a5c7fa"}, "geometry": {"type": "Point", "coordinates": [-81.504327, 41.501437]}},
{"type": "Feature", "id": "ofq3yfg5hO26bKDvd87ZJMNCn8c=", "properties": {"ref": "https://www.crateandbarrel.com/stores/legacy-village/str753", "@spider": "crateandbarrel", "shop": "furniture", "addr:street_address": "24405 Cedar Rd", "addr:city": "Lyndhurst", "addr:state": "OH", "addr:postcode": "44124", "addr:country": "US", "name": "Legacy Village", "phone": "(216) 297-3500", "website": "https://www.crateandbarrel.com/stores/legacy-village/str753", "opening_hours": "Mo-Sa 10:00-20:00; Su 11:00-18:00", "image": "https://cb.scene7.com/is/image/Crate/store-location-753-01/$web_store_location_individual_xs$/221112093757/store-location-753-01.jpg", "brand": "crateandbarrel", "brand:wikidata": "Q5182604", "nsi_id": "crateandbarrel-a5c7fa"}, "geometry": {"type": "Point", "coordinates": [-81.504327, 41.501437]}},
{"type": "Feature", "id": "-6cCSx1cccp2ogIwLKFcumefRTo=", "properties": {"ref": "https://www.crateandbarrel.com/stores/bridgeport-village/str454", "@spider": "crateandbarrel", "shop": "furniture", "addr:street_address": "7267 SW Bridgeport Rd", "addr:city": "Tigard", "addr:state": "OR", "addr:postcode": "97224", "addr:country": "US", "name": "Bridgeport Village", "phone": "(503) 598-9005", "website": "https://www.crateandbarrel.com/stores/bridgeport-village/str454", "opening_hours": "Mo-Sa 10:00-20:00; Su 11:00-18:00", "image": "https://cb.scene7.com/is/image/Crate/store-location-454-01/$web_store_location_individual_xs$/221112112217/store-location-454-01.jpg", "brand": "crateandbarrel", "brand:wikidata": "Q5182604", "nsi_id": "crateandbarrel-a5c7fa"}, "geometry": {"type": "Point", "coordinates": [-122.7497, 45.3966]}},
{"type": "Feature", "id": "cYOlqj9WT23La4Eo_uE1Jbi_YtM=", "properties": {"ref": "https://www.crateandbarrel.com/stores/king-of-prussia/str631", "@spider": "crateandbarrel", "shop": "furniture", "addr:street_address": "160 North Gulph Rd", "addr:city": "King of Prussia", "addr:state": "PA", "addr:postcode": "19406", "addr:country": "US", "name": "King of Prussia", "phone": "(610) 354-9600", "website": "https://www.crateandbarrel.com/stores/king-of-prussia/str631", "opening_hours": "Mo-Sa 10:00-20:00; Su 11:00-18:00", "image": "https://cb.scene7.com/is/image/Crate/store-location-631-01/$web_store_location_individual_xs$/221112074120/store-location-631-01.jpg", "brand": "crateandbarrel", "brand:wikidata": "Q5182604", "nsi_id": "crateandbarrel-a5c7fa"}, "geometry": {"type": "Point", "coordinates": [-75.395952, 40.085961]}},
{"type": "Feature", "id": "V9mYm7VvJ0V4fsJ4c3hSFOOE42U=", "properties": {"ref": "https://www.crateandbarrel.com/stores/ross-park-mall/str656?section=events", "@spider": "crateandbarrel", "shop": "furniture", "addr:street_address": "1000 Ross Park Mall Dr", "addr:city": "Pittsburgh", "addr:state": "PA", "addr:postcode": "15237", "addr:country": "US", "name": "Ross Park Mall", "phone": "(412) 630-8001", "website": "https://www.crateandbarrel.com/stores/ross-park-mall/str656?section=events", "opening_hours": "Mo-Th 10:00-20:00; Fr-Sa 10:00-21:00; Su 11:00-18:00", "image": "https://cb.scene7.com/is/image/Crate/store-location-656-01/$web_store_location_individual_xs$/221112094014/store-location-656-01.jpg", "brand": "crateandbarrel", "brand:wikidata": "Q5182604", "nsi_id": "crateandbarrel-a5c7fa"}, "geometry": {"type": "Point", "coordinates": [-80.0074, 40.539425]}},
{"type": "Feature", "id": "lYU9B_RVHrXUpnrE3l-yJvn_HHk=", "properties": {"ref": "https://www.crateandbarrel.com/stores/ross-park-mall/str656", "@spider": "crateandbarrel", "shop": "furniture", "addr:street_address": "1000 Ross Park Mall Dr", "addr:city": "Pittsburgh", "addr:state": "PA", "addr:postcode": "15237", "addr:country": "US", "name": "Ross Park Mall", "phone": "(412) 630-8001", "website": "https://www.crateandbarrel.com/stores/ross-park-mall/str656", "opening_hours": "Mo-Th 10:00-20:00; Fr-Sa 10:00-21:00; Su 11:00-18:00", "image": "https://cb.scene7.com/is/image/Crate/store-location-656-01/$web_store_location_individual_xs$/221112113923/store-location-656-01.jpg", "brand": "crateandbarrel", "brand:wikidata": "Q5182604", "nsi_id": "crateandbarrel-a5c7fa"}, "geometry": {"type": "Point", "coordinates": [-80.0074, 40.539425]}},
{"type": "Feature", "id": "LUHYpm7k323vQvQYiUHsyNq4g98=", "properties": {"ref": "https://www.crateandbarrel.com/stores/garden-city-center/str223", "@spider": "crateandbarrel", "shop": "furniture", "addr:street_address": "144 Hillside Road", "addr:city": "Cranston", "addr:state": "RI", "addr:postcode": "02920", "addr:country": "US", "name": "Garden City Center", "phone": "(401) 270-4620", "website": "https://www.crateandbarrel.com/stores/garden-city-center/str223", "opening_hours": "Mo-Sa 10:00-20:00; Su 12:00-18:00", "image": "https://cb.scene7.com/is/image/Crate/store-location-223-01/$web_store_location_individual_xs$/221112092311/store-location-223-01.jpg", "brand": "crateandbarrel", "brand:wikidata": "Q5182604", "nsi_id": "crateandbarrel-a5c7fa"}, "geometry": {"type": "Point", "coordinates": [-71.4609308, 41.7605666]}},
{"type": "Feature", "id": "COFVjLyeozR9p4nmVuuP3C3Drdw=", "properties": {"ref": "https://www.crateandbarrel.com/stores/green-hills/str763", "@spider": "crateandbarrel", "shop": "furniture", "addr:street_address": "2126 Abbott Martin Rd Suite E101", "addr:city": "Nashville", "addr:state": "TN", "addr:postcode": "37215", "addr:country": "US", "name": "Green Hills", "phone": "(615) 942-2664", "website": "https://www.crateandbarrel.com/stores/green-hills/str763", "opening_hours": "Mo-Sa 10:00-20:00; Su 11:00-18:00", "image": "https://cb.scene7.com/is/image/Crate/store-location-763-01/$web_store_location_individual_xs$/221112062305/store-location-763-01.jpg", "brand": "crateandbarrel", "brand:wikidata": "Q5182604", "nsi_id": "crateandbarrel-a5c7fa"}, "geometry": {"type": "Point", "coordinates": [-86.8159454, 36.1070316]}},
{"type": "Feature", "id": "QsBmnUU_R39XVNSwPu5TyeIOs0Q=", "properties": {"ref": "https://www.crateandbarrel.com/stores/gateway-market/str312", "@spider": "crateandbarrel", "shop": "furniture", "addr:street_address": "9607 Research Blvd", "addr:city": "Austin", "addr:state": "TX", "addr:postcode": "78759", "addr:country": "US", "name": "Gateway Market", "phone": "(512) 795-9201", "website": "https://www.crateandbarrel.com/stores/gateway-market/str312", "opening_hours": "Mo-Sa 10:00-20:00; Su 11:00-18:00", "image": "https://cb.scene7.com/is/image/Crate/store-location-312-01/$web_store_location_individual_xs$/221112113926/store-location-312-01.jpg", "brand": "crateandbarrel", "brand:wikidata": "Q5182604", "nsi_id": "crateandbarrel-a5c7fa"}, "geometry": {"type": "Point", "coordinates": [-97.743334, 30.388148]}},
{"type": "Feature", "id": "pWPYI8gvmLZmv30jIiO22zUVBvY=", "properties": {"ref": "https://www.crateandbarrel.com/stores/highland-village/str303?section=events", "@spider": "crateandbarrel", "shop": "furniture", "addr:street_address": "4006 Westheimer", "addr:city": "Houston", "addr:state": "TX", "addr:postcode": "77027", "addr:country": "US", "name": "Highland Village", "phone": "(713) 490-6400", "website": "https://www.crateandbarrel.com/stores/highland-village/str303?section=events", "opening_hours": "Mo-Sa 10:00-20:00; Su 11:00-18:00", "image": "https://cb.scene7.com/is/image/Crate/store-location-303-01/$web_store_location_individual_xs$/221112090931/store-location-303-01.jpg", "brand": "crateandbarrel", "brand:wikidata": "Q5182604", "nsi_id": "crateandbarrel-a5c7fa"}, "geometry": {"type": "Point", "coordinates": [-95.445777, 29.741837]}},
{"type": "Feature", "id": "eEgPUTo-M0cVOtboBBTXRTuyfbA=", "properties": {"ref": "https://www.crateandbarrel.com/stores/highland-village/str303", "@spider": "crateandbarrel", "shop": "furniture", "addr:street_address": "4006 Westheimer", "addr:city": "Houston", "addr:state": "TX", "addr:postcode": "77027", "addr:country": "US", "name": "Highland Village", "phone": "(713) 490-6400", "website": "https://www.crateandbarrel.com/stores/highland-village/str303", "opening_hours": "Mo-Sa 10:00-20:00; Su 11:00-18:00", "image": "https://cb.scene7.com/is/image/Crate/store-location-303-01/$web_store_location_individual_xs$/221112080133/store-location-303-01.jpg", "brand": "crateandbarrel", "brand:wikidata": "Q5182604", "nsi_id": "crateandbarrel-a5c7fa"}, "geometry": {"type": "Point", "coordinates": [-95.445777, 29.741837]}},
{"type": "Feature", "id": "oP9ID1Irvn0sMvJlO4PV1wkJsnk=", "properties": {"ref": "https://www.crateandbarrel.com/stores/the-shops-at-willow-bend/str307?section=events", "@spider": "crateandbarrel", "shop": "furniture", "addr:street_address": "6113 West Park Blvd", "addr:city": "Plano", "addr:state": "TX", "addr:postcode": "75093", "addr:country": "US", "name": "The Shops at Willow Bend", "phone": "(469) 366-2400", "website": "https://www.crateandbarrel.com/stores/the-shops-at-willow-bend/str307?section=events", "opening_hours": "Mo-Sa 10:00-20:00; Su 11:00-18:00", "image": "https://cb.scene7.com/is/image/Crate/store-location-307-01/$web_store_location_individual_xs$/221112105247/store-location-307-01.jpg", "brand": "crateandbarrel", "brand:wikidata": "Q5182604", "nsi_id": "crateandbarrel-a5c7fa"}, "geometry": {"type": "Point", "coordinates": [-96.83243, 33.029941]}},
{"type": "Feature", "id": "3DVJSo36v0VeODefDpMLUcDPXsw=", "properties": {"ref": "https://www.crateandbarrel.com/stores/the-shops-at-willow-bend/str307", "@spider": "crateandbarrel", "shop": "furniture", "addr:street_address": "6113 West Park Blvd", "addr:city": "Plano", "addr:state": "TX", "addr:postcode": "75093", "addr:country": "US", "name": "The Shops at Willow Bend", "phone": "(469) 366-2400", "website": "https://www.crateandbarrel.com/stores/the-shops-at-willow-bend/str307", "opening_hours": "Mo-Sa 10:00-20:00; Su 11:00-18:00", "image": "https://cb.scene7.com/is/image/Crate/store-location-307-01/$web_store_location_individual_xs$/221112105612/store-location-307-01.jpg", "brand": "crateandbarrel", "brand:wikidata": "Q5182604", "nsi_id": "crateandbarrel-a5c7fa"}, "geometry": {"type": "Point", "coordinates": [-96.83243, 33.029941]}},
{"type": "Feature", "id": "5nDop1FDfwjJuybFLDZrdXv3Gws=", "properties": {"ref": "https://www.crateandbarrel.com/stores/knox-street/str305?section=events", "@spider": "crateandbarrel", "shop": "furniture", "addr:street_address": "3104 Knox St", "addr:city": "Dallas", "addr:state": "TX", "addr:postcode": "75205", "addr:country": "US", "name": "Knox Street", "phone": "(214) 219-1500", "website": "https://www.crateandbarrel.com/stores/knox-street/str305?section=events", "opening_hours": "Mo-Sa 10:00-20:00; Su 11:00-18:00", "image": "https://cb.scene7.com/is/image/Crate/store-location-305-01/$web_store_location_individual_xs$/221112074700/store-location-305-01.jpg", "brand": "crateandbarrel", "brand:wikidata": "Q5182604", "nsi_id": "crateandbarrel-a5c7fa"}, "geometry": {"type": "Point", "coordinates": [-96.787629, 32.822899]}},
{"type": "Feature", "id": "pvvxl71Zl6QFwQSHCIvFrsaYBgo=", "properties": {"ref": "https://www.crateandbarrel.com/stores/knox-street/str305", "@spider": "crateandbarrel", "shop": "furniture", "addr:street_address": "3104 Knox St", "addr:city": "Dallas", "addr:state": "TX", "addr:postcode": "75205", "addr:country": "US", "name": "Knox Street", "phone": "(214) 219-1500", "website": "https://www.crateandbarrel.com/stores/knox-street/str305", "opening_hours": "Mo-Sa 10:00-20:00; Su 11:00-18:00", "image": "https://cb.scene7.com/is/image/Crate/store-location-305-01/$web_store_location_individual_xs$/221112113933/store-location-305-01.jpg", "brand": "crateandbarrel", "brand:wikidata": "Q5182604", "nsi_id": "crateandbarrel-a5c7fa"}, "geometry": {"type": "Point", "coordinates": [-96.787629, 32.822899]}},
{"type": "Feature", "id": "uRiSReeJFY9TLk5zhsr67WgskIs=", "properties": {"ref": "https://www.crateandbarrel.com/stores/fashion-place/str557", "@spider": "crateandbarrel", "shop": "furniture", "addr:street_address": "6207 South State St", "addr:city": "Murray", "addr:state": "UT", "addr:postcode": "84107", "addr:country": "US", "name": "Fashion Place", "phone": "(801) 281-6656", "website": "https://www.crateandbarrel.com/stores/fashion-place/str557", "opening_hours": "Mo-Th 10:00-20:00; Fr-Sa 10:00-21:00; Su 11:00-18:00", "image": "https://cb.scene7.com/is/image/Crate/store-location-557-01/$web_store_location_individual_xs$/221112113934/store-location-557-01.jpg", "brand": "crateandbarrel", "brand:wikidata": "Q5182604", "nsi_id": "crateandbarrel-a5c7fa"}, "geometry": {"type": "Point", "coordinates": [-111.888222, 40.636012]}},
{"type": "Feature", "id": "JBQystgP9D8fMn96tRfw671ql2I=", "properties": {"ref": "https://www.crateandbarrel.com/stores/short-pump-town-center/str612", "@spider": "crateandbarrel", "shop": "furniture", "addr:street_address": "11800 W. Broad St, Suite 1340", "addr:city": "Richmond", "addr:state": "VA", "addr:postcode": "23233", "addr:country": "US", "name": "Short Pump Town Center", "phone": "(804) 364-0820", "website": "https://www.crateandbarrel.com/stores/short-pump-town-center/str612", "opening_hours": "Mo-Sa 10:00-20:00; Su 11:00-18:00", "image": "https://cb.scene7.com/is/image/Crate/store-location-612-01/$web_store_location_individual_xs$/221112104032/store-location-612-01.jpg", "brand": "crateandbarrel", "brand:wikidata": "Q5182604", "nsi_id": "crateandbarrel-a5c7fa"}, "geometry": {"type": "Point", "coordinates": [-77.623361, 37.654491]}},
{"type": "Feature", "id": "Bugeu2LH9xqJn-AVK8YyK6MXcw4=", "properties": {"ref": "https://www.crateandbarrel.com/stores/tysons-galleria/str606?section=events", "@spider": "crateandbarrel", "shop": "furniture", "addr:street_address": "2001 International Drive Suite 1650", "addr:city": "McLean", "addr:state": "VA", "addr:postcode": "22102", "addr:country": "US", "name": "Tysons Galleria", "phone": "(703) 891-0090", "website": "https://www.crateandbarrel.com/stores/tysons-galleria/str606?section=events", "opening_hours": "Mo-Sa 10:00-20:00; Su 11:00-19:00", "image": "https://cb.scene7.com/is/image/Crate/store-location-606-01/$web_store_location_individual_xs$/221112104127/store-location-606-01.jpg", "brand": "crateandbarrel", "brand:wikidata": "Q5182604", "nsi_id": "crateandbarrel-a5c7fa"}, "geometry": {"type": "Point", "coordinates": [-77.2266551, 38.9232876]}},
{"type": "Feature", "id": "fCtc2NqeYI12M-fPwQhePmxeBmg=", "properties": {"ref": "https://www.crateandbarrel.com/stores/tysons-galleria/str606", "@spider": "crateandbarrel", "shop": "furniture", "addr:street_address": "2001 International Drive Suite 1650", "addr:city": "McLean", "addr:state": "VA", "addr:postcode": "22102", "addr:country": "US", "name": "Tysons Galleria", "phone": "(703) 891-0090", "website": "https://www.crateandbarrel.com/stores/tysons-galleria/str606", "opening_hours": "Mo-Sa 10:00-20:00; Su 11:00-19:00", "image": "https://cb.scene7.com/is/image/Crate/store-location-606-01/$web_store_location_individual_xs$/221112074705/store-location-606-01.jpg", "brand": "crateandbarrel", "brand:wikidata": "Q5182604", "nsi_id": "crateandbarrel-a5c7fa"}, "geometry": {"type": "Point", "coordinates": [-77.2266551, 38.9232876]}},
{"type": "Feature", "id": "rzmHeWuiuryaXPTKYTGIdDvzCBE=", "properties": {"ref": "https://www.crateandbarrel.com/stores/the-market-common/str609?section=events", "@spider": "crateandbarrel", "shop": "furniture", "addr:street_address": "2800 Clarendon Blvd", "addr:city": "Arlington", "addr:state": "VA", "addr:postcode": "22201", "addr:country": "US", "name": "The Market Common", "phone": "(703) 890-2300", "website": "https://www.crateandbarrel.com/stores/the-market-common/str609?section=events", "opening_hours": "Mo-Sa 10:00-20:00; Su 11:00-18:00", "image": "https://cb.scene7.com/is/image/Crate/store-location-609-01/$web_store_location_individual_xs$/221112100107/store-location-609-01.jpg", "brand": "crateandbarrel", "brand:wikidata": "Q5182604", "nsi_id": "crateandbarrel-a5c7fa"}, "geometry": {"type": "Point", "coordinates": [-77.091782, 38.888216]}},
{"type": "Feature", "id": "GL7j9GJ_TW8FaM3PEGGmhpL08B8=", "properties": {"ref": "https://www.crateandbarrel.com/stores/the-market-common/str609", "@spider": "crateandbarrel", "shop": "furniture", "addr:street_address": "2800 Clarendon Blvd", "addr:city": "Arlington", "addr:state": "VA", "addr:postcode": "22201", "addr:country": "US", "name": "The Market Common", "phone": "(703) 890-2300", "website": "https://www.crateandbarrel.com/stores/the-market-common/str609", "opening_hours": "Mo-Sa 10:00-20:00; Su 11:00-18:00", "image": "https://cb.scene7.com/is/image/Crate/store-location-609-01/$web_store_location_individual_xs$/221112061939/store-location-609-01.jpg", "brand": "crateandbarrel", "brand:wikidata": "Q5182604", "nsi_id": "crateandbarrel-a5c7fa"}, "geometry": {"type": "Point", "coordinates": [-77.091782, 38.888216]}},
{"type": "Feature", "id": "XOs2z579TMhz5fdgTE0EIutGKG0=", "properties": {"ref": "https://www.crateandbarrel.com/stores/university-village/str452", "@spider": "crateandbarrel", "shop": "furniture", "addr:street_address": "2680 NE 49th St", "addr:city": "Seattle", "addr:state": "WA", "addr:postcode": "98105", "addr:country": "US", "name": "University Village", "phone": "(206) 937-9939", "website": "https://www.crateandbarrel.com/stores/university-village/str452", "opening_hours": "Mo-Sa 10:00-20:00; Su 11:00-18:00", "image": "https://cb.scene7.com/is/image/Crate/store-location-452-01/$web_store_location_individual_xs$/221112113941/store-location-452-01.jpg", "brand": "crateandbarrel", "brand:wikidata": "Q5182604", "nsi_id": "crateandbarrel-a5c7fa"}, "geometry": {"type": "Point", "coordinates": [-122.298695, 47.664437]}},
{"type": "Feature", "id": "mhpEi6kC4q-XLttNbyuUGw9uQgE=", "properties": {"ref": "https://www.crateandbarrel.com/stores/bellevue-square/str450?section=events", "@spider": "crateandbarrel", "shop": "furniture", "addr:street_address": "555 Bellevue Square", "addr:city": "Bellevue", "addr:state": "WA", "addr:postcode": "98004", "addr:country": "US", "name": "Bellevue Square", "phone": "(425) 646-8900", "website": "https://www.crateandbarrel.com/stores/bellevue-square/str450?section=events", "opening_hours": "Mo-Sa 10:00-21:00; Su 11:00-19:00", "image": "https://cb.scene7.com/is/image/Crate/store-location-450-01/$web_store_location_individual_xs$/221112113942/store-location-450-01.jpg", "brand": "crateandbarrel", "brand:wikidata": "Q5182604", "nsi_id": "crateandbarrel-a5c7fa"}, "geometry": {"type": "Point", "coordinates": [-122.2022, 47.6153]}},
{"type": "Feature", "id": "Z_2L3qTKyzxJBNpDy66JPntmFwM=", "properties": {"ref": "https://www.crateandbarrel.com/stores/bellevue-square/str450", "@spider": "crateandbarrel", "shop": "furniture", "addr:street_address": "555 Bellevue Square", "addr:city": "Bellevue", "addr:state": "WA", "addr:postcode": "98004", "addr:country": "US", "name": "Bellevue Square", "phone": "(425) 646-8900", "website": "https://www.crateandbarrel.com/stores/bellevue-square/str450", "opening_hours": "Mo-Sa 10:00-21:00; Su 11:00-19:00", "image": "https://cb.scene7.com/is/image/Crate/store-location-450-01/$web_store_location_individual_xs$/221112113942/store-location-450-01.jpg", "brand": "crateandbarrel", "brand:wikidata": "Q5182604", "nsi_id": "crateandbarrel-a5c7fa"}, "geometry": {"type": "Point", "coordinates": [-122.2022, 47.6153]}},
{"type": "Feature", "id": "3IHlPvKuwtAILlFX6QhJuZG3boc=", "properties": {"ref": "https://www.crateandbarrel.com/stores/spring-valley/str605", "@spider": "crateandbarrel", "shop": "furniture", "addr:street_address": "4820 Massachusetts Ave NW", "addr:city": "Washington", "addr:state": "DC", "addr:postcode": "20016", "addr:country": "US", "name": "Spring Valley", "phone": "(202) 364-6100", "website": "https://www.crateandbarrel.com/stores/spring-valley/str605", "opening_hours": "Mo-Sa 10:00-20:00; Su 11:00-18:00", "image": "https://cb.scene7.com/is/image/Crate/store-location-605-01/$web_store_location_individual_xs$/221112102419/store-location-605-01.jpg", "brand": "crateandbarrel", "brand:wikidata": "Q5182604", "nsi_id": "crateandbarrel-a5c7fa"}, "geometry": {"type": "Point", "coordinates": [-77.095463, 38.944521]}},
{"type": "Feature", "id": "Hs-khSilzpQ4jcmMl_tB38KV0Vs=", "properties": {"ref": "https://www.crateandbarrel.com/stores/mayfair-mall/str131", "@spider": "crateandbarrel", "shop": "furniture", "addr:street_address": "2450 N. Mayfair Rd", "addr:city": "Wauwatosa", "addr:state": "WI", "addr:postcode": "53226", "addr:country": "US", "name": "Mayfair Mall", "phone": "(414) 258-9500", "website": "https://www.crateandbarrel.com/stores/mayfair-mall/str131", "opening_hours": "Mo-Th 10:00-19:00; Fr-Sa 10:00-20:00; Su 11:00-18:00", "image": "https://cb.scene7.com/is/image/Crate/store-location-131-01/$web_store_location_individual_xs$/221112092944/store-location-131-01.jpg", "brand": "crateandbarrel", "brand:wikidata": "Q5182604", "nsi_id": "crateandbarrel-a5c7fa"}, "geometry": {"type": "Point", "coordinates": [-88.047411, 43.063988]}},
{"type": "Feature", "id": "jaNyLfcgAQjGPv2Z7asrsynS8mY=", "properties": {"ref": "https://www.crateandbarrel.com/stores/kierland-commons/str553?section=events", "@spider": "crateandbarrel", "shop": "furniture", "addr:street_address": "15220 N. Scottsdale Rd", "addr:city": "Scottsdale", "addr:state": "AZ", "addr:postcode": "85254", "addr:country": "US", "name": "Kierland Commons", "phone": "(480) 998-9009", "website": "https://www.crateandbarrel.com/stores/kierland-commons/str553?section=events", "opening_hours": "Mo-Th 10:00-20:00; Fr-Sa 10:00-21:00; Su 11:00-19:00", "image": "https://cb.scene7.com/is/image/Crate/store-location-553-01/$web_store_location_individual_xs$/221112101000/store-location-553-01.jpg", "brand": "crateandbarrel", "brand:wikidata": "Q5182604", "nsi_id": "crateandbarrel-a5c7fa"}, "geometry": {"type": "Point", "coordinates": [-111.925923, 33.623999]}},
{"type": "Feature", "id": "Onf4cO6RHaxP14VzLyTvxHAgfVk=", "properties": {"ref": "https://www.crateandbarrel.com/stores/kierland-commons/str553", "@spider": "crateandbarrel", "shop": "furniture", "addr:street_address": "15220 N. Scottsdale Rd", "addr:city": "Scottsdale", "addr:state": "AZ", "addr:postcode": "85254", "addr:country": "US", "name": "Kierland Commons", "phone": "(480) 998-9009", "website": "https://www.crateandbarrel.com/stores/kierland-commons/str553", "opening_hours": "Mo-Th 10:00-20:00; Fr-Sa 10:00-21:00; Su 11:00-19:00", "image": "https://cb.scene7.com/is/image/Crate/store-location-553-01/$web_store_location_individual_xs$/221112094227/store-location-553-01.jpg", "brand": "crateandbarrel", "brand:wikidata": "Q5182604", "nsi_id": "crateandbarrel-a5c7fa"}, "geometry": {"type": "Point", "coordinates": [-111.925923, 33.623999]}},
{"type": "Feature", "id": "Giz20HEng35NPOMhJ18uoMwk_4Q=", "properties": {"ref": "https://www.crateandbarrel.com/stores/la-encantada/str555?section=events", "@spider": "crateandbarrel", "shop": "furniture", "addr:street_address": "2905 East Skyline Dr", "addr:city": "Tucson", "addr:state": "AZ", "addr:postcode": "85718", "addr:country": "US", "name": "La Encantada", "phone": "(520) 299-7100", "website": "https://www.crateandbarrel.com/stores/la-encantada/str555?section=events", "opening_hours": "Mo-Sa 10:00-20:00; Su 11:00-18:00", "image": "https://cb.scene7.com/is/image/Crate/store-location-555-01/$web_store_location_individual_xs$/221112105351/store-location-555-01.jpg", "brand": "crateandbarrel", "brand:wikidata": "Q5182604", "nsi_id": "crateandbarrel-a5c7fa"}, "geometry": {"type": "Point", "coordinates": [-110.9299, 32.3231]}},
{"type": "Feature", "id": "laPJ38yxCcLCsOx1iQPoSEFXFwE=", "properties": {"ref": "https://www.crateandbarrel.com/stores/la-encantada/str555", "@spider": "crateandbarrel", "shop": "furniture", "addr:street_address": "2905 East Skyline Dr", "addr:city": "Tucson", "addr:state": "AZ", "addr:postcode": "85718", "addr:country": "US", "name": "La Encantada", "phone": "(520) 299-7100", "website": "https://www.crateandbarrel.com/stores/la-encantada/str555", "opening_hours": "Mo-Sa 10:00-20:00; Su 11:00-18:00", "image": "https://cb.scene7.com/is/image/Crate/store-location-555-01/$web_store_location_individual_xs$/221112095837/store-location-555-01.jpg", "brand": "crateandbarrel", "brand:wikidata": "Q5182604", "nsi_id": "crateandbarrel-a5c7fa"}, "geometry": {"type": "Point", "coordinates": [-110.9299, 32.3231]}},
{"type": "Feature", "id": "xp9EzaZyoIVfeHLa1XJpbCiz_74=", "properties": {"ref": "https://www.crateandbarrel.com/stores/summerlin/str525?section=events", "@spider": "crateandbarrel", "shop": "furniture", "addr:street_address": "1765 Festival Plaza Drive", "addr:city": "Las Vegas", "addr:state": "NV", "addr:postcode": "89135", "addr:country": "US", "name": "Summerlin", "phone": "(702) 534-3445", "website": "https://www.crateandbarrel.com/stores/summerlin/str525?section=events", "opening_hours": "Mo-Th 10:00-20:00; Fr-Sa 10:00-21:00; Su 11:00-19:00", "image": "https://cb.scene7.com/is/image/Crate/store-location-525-01/$web_store_location_individual_xs$/221112114013/store-location-525-01.jpg", "brand": "crateandbarrel", "brand:wikidata": "Q5182604", "nsi_id": "crateandbarrel-a5c7fa"}, "geometry": {"type": "Point", "coordinates": [-115.3329, 36.1536]}},
{"type": "Feature", "id": "hHJWR-5aVrPDai3DG_e2FRUoJto=", "properties": {"ref": "https://www.crateandbarrel.com/stores/summerlin/str525", "@spider": "crateandbarrel", "shop": "furniture", "addr:street_address": "1765 Festival Plaza Drive", "addr:city": "Las Vegas", "addr:state": "NV", "addr:postcode": "89135", "addr:country": "US", "name": "Summerlin", "phone": "(702) 534-3445", "website": "https://www.crateandbarrel.com/stores/summerlin/str525", "opening_hours": "Mo-Th 10:00-20:00; Fr-Sa 10:00-21:00; Su 11:00-19:00", "image": "https://cb.scene7.com/is/image/Crate/store-location-525-01/$web_store_location_individual_xs$/221112102500/store-location-525-01.jpg", "brand": "crateandbarrel", "brand:wikidata": "Q5182604", "nsi_id": "crateandbarrel-a5c7fa"}, "geometry": {"type": "Point", "coordinates": [-115.3329, 36.1536]}},
{"type": "Feature", "id": "nu5DsELxBBKzD2D27iO03EAmP4A=", "properties": {"ref": "https://www.crateandbarrel.com/stores/the-boulevard/str121?section=events", "@spider": "crateandbarrel", "shop": "furniture", "addr:street_address": "1 The Blvd", "addr:city": "Richmond Heights", "addr:state": "MO", "addr:postcode": "63117", "addr:country": "US", "name": "The Boulevard", "phone": "(314) 725-6380", "website": "https://www.crateandbarrel.com/stores/the-boulevard/str121?section=events", "opening_hours": "Mo-Sa 10:00-20:00; Su 11:00-18:00", "image": "https://cb.scene7.com/is/image/Crate/store-location-121-01/$web_store_location_individual_xs$/221112061927/store-location-121-01.jpg", "brand": "crateandbarrel", "brand:wikidata": "Q5182604", "nsi_id": "crateandbarrel-a5c7fa"}, "geometry": {"type": "Point", "coordinates": [-91.8471385, 39.1394496]}},
{"type": "Feature", "id": "mOEzWmKi0-F0cxAZpgyXYS9II9U=", "properties": {"ref": "https://www.crateandbarrel.com/stores/the-boulevard/str121", "@spider": "crateandbarrel", "shop": "furniture", "addr:street_address": "1 The Blvd", "addr:city": "Richmond Heights", "addr:state": "MO", "addr:postcode": "63117", "addr:country": "US", "name": "The Boulevard", "phone": "(314) 725-6380", "website": "https://www.crateandbarrel.com/stores/the-boulevard/str121", "opening_hours": "Mo-Sa 10:00-20:00; Su 11:00-18:00", "image": "https://cb.scene7.com/is/image/Crate/store-location-121-01/$web_store_location_individual_xs$/221112065425/store-location-121-01.jpg", "brand": "crateandbarrel", "brand:wikidata": "Q5182604", "nsi_id": "crateandbarrel-a5c7fa"}, "geometry": {"type": "Point", "coordinates": [-91.8471385, 39.1394496]}},
{"type": "Feature", "id": "JXwTxlgTov6H7LumeNZ6MaTYsQM=", "properties": {"ref": "https://www.crateandbarrel.com/stores/galleria-in-edina/str702?section=events", "@spider": "crateandbarrel", "shop": "furniture", "addr:street_address": "3503 Galleria", "addr:city": "Edina", "addr:state": "MN", "addr:postcode": "55435", "addr:country": "US", "name": "Galleria in Edina", "phone": "(952) 920-2300", "website": "https://www.crateandbarrel.com/stores/galleria-in-edina/str702?section=events", "opening_hours": "Mo-Sa 10:00-19:00; Su 11:00-18:00", "image": "https://cb.scene7.com/is/image/Crate/store-location-702-01/$web_store_location_individual_xs$/221112072342/store-location-702-01.jpg", "brand": "crateandbarrel", "brand:wikidata": "Q5182604", "nsi_id": "crateandbarrel-a5c7fa"}, "geometry": {"type": "Point", "coordinates": [-93.326028, 44.876357]}},
{"type": "Feature", "id": "VWxx9llwsdeD71bjC2nnmZRGQMk=", "properties": {"ref": "https://www.crateandbarrel.com/stores/galleria-in-edina/str702", "@spider": "crateandbarrel", "shop": "furniture", "addr:street_address": "3503 Galleria", "addr:city": "Edina", "addr:state": "MN", "addr:postcode": "55435", "addr:country": "US", "name": "Galleria in Edina", "phone": "(952) 920-2300", "website": "https://www.crateandbarrel.com/stores/galleria-in-edina/str702", "opening_hours": "Mo-Sa 10:00-19:00; Su 11:00-18:00", "image": "https://cb.scene7.com/is/image/Crate/store-location-702-01/$web_store_location_individual_xs$/221112112544/store-location-702-01.jpg", "brand": "crateandbarrel", "brand:wikidata": "Q5182604", "nsi_id": "crateandbarrel-a5c7fa"}, "geometry": {"type": "Point", "coordinates": [-93.326028, 44.876357]}},
{"type": "Feature", "id": "uaMOWzCJArrv-stDV-UlEUHqn34=", "properties": {"ref": "https://www.crateandbarrel.com/stores/twelve-oaks/str752?section=events", "@spider": "crateandbarrel", "shop": "furniture", "addr:street_address": "27400 Novi Road", "addr:city": "Novi", "addr:state": "MI", "addr:postcode": "48377", "addr:country": "US", "name": "Twelve Oaks", "phone": "(248) 643-6610", "website": "https://www.crateandbarrel.com/stores/twelve-oaks/str752?section=events", "opening_hours": "Mo-Sa 10:00-21:00; Su 11:00-18:00", "image": "https://cb.scene7.com/is/image/Crate/store-location-752-01/$web_store_location_individual_xs$/221112095657/store-location-752-01.jpg", "brand": "crateandbarrel", "brand:wikidata": "Q5182604", "nsi_id": "crateandbarrel-a5c7fa"}, "geometry": {"type": "Point", "coordinates": [-83.4768472, 42.4893907]}},
{"type": "Feature", "id": "UO3UxUgtbCpQH71quQ3VnebKH1s=", "properties": {"ref": "https://www.crateandbarrel.com/stores/derby-street-shoppes/str218?section=events", "@spider": "crateandbarrel", "shop": "furniture", "addr:street_address": "98 Derby St", "addr:city": "Hingham", "addr:state": "MA", "addr:postcode": "02043", "addr:country": "US", "name": "Derby Street Shoppes", "phone": "(781) 749-8100", "website": "https://www.crateandbarrel.com/stores/derby-street-shoppes/str218?section=events", "opening_hours": "Mo-Sa 10:00-20:00; Su 11:00-18:00", "image": "https://cb.scene7.com/is/image/Crate/store-location-218-01/$web_store_location_individual_xs$/221112101400/store-location-218-01.jpg", "brand": "crateandbarrel", "brand:wikidata": "Q5182604", "nsi_id": "crateandbarrel-a5c7fa"}, "geometry": {"type": "Point", "coordinates": [-70.906974, 42.180163]}},
{"type": "Feature", "id": "Nc9txYn0qjuKmbLX8uPeXeY0BKg=", "properties": {"ref": "https://www.crateandbarrel.com/stores/annapolis-mall/str616?section=events", "@spider": "crateandbarrel", "shop": "furniture", "addr:street_address": "2270 Annapolis Mall Rd", "addr:city": "Annapolis", "addr:state": "MD", "addr:postcode": "21401", "addr:country": "US", "name": "Annapolis Mall", "phone": "(410) 224-2048", "website": "https://www.crateandbarrel.com/stores/annapolis-mall/str616?section=events", "opening_hours": "Mo-Th 10:00-20:00; Fr-Sa 10:00-21:00; Su 11:00-19:00", "image": "https://cb.scene7.com/is/image/Crate/store-location-616-01/$web_store_location_individual_xs$/221112092319/store-location-616-01.jpg", "brand": "crateandbarrel", "brand:wikidata": "Q5182604", "nsi_id": "crateandbarrel-a5c7fa"}, "geometry": {"type": "Point", "coordinates": [-76.548659, 38.990066]}},
{"type": "Feature", "id": "AvfpbjRx5imUU2Vo3sVIRFTVGYA=", "properties": {"ref": "https://www.crateandbarrel.com/stores/one-nineteen/str727?section=events", "@spider": "crateandbarrel", "shop": "furniture", "addr:street_address": "4601 W. 119th St", "addr:city": "Leawood", "addr:state": "KS", "addr:postcode": "66209", "addr:country": "US", "name": "One Nineteen", "phone": "(913) 469-5100", "website": "https://www.crateandbarrel.com/stores/one-nineteen/str727?section=events", "opening_hours": "Mo-Sa 10:00-20:00; Su 11:00-18:00", "image": "https://cb.scene7.com/is/image/Crate/store-location-727-01/$web_store_location_individual_xs$/221112114024/store-location-727-01.jpg", "brand": "crateandbarrel", "brand:wikidata": "Q5182604", "nsi_id": "crateandbarrel-a5c7fa"}, "geometry": {"type": "Point", "coordinates": [-94.639623, 38.912332]}},
{"type": "Feature", "id": "m-NGOe6m_3OqWURiv0P3G-a1rf4=", "properties": {"ref": "https://www.crateandbarrel.com/stores/woodfield-road/str107?section=events", "@spider": "crateandbarrel", "shop": "furniture", "addr:street_address": "760 North Martingale Rd", "addr:city": "Schaumburg", "addr:state": "IL", "addr:postcode": "60173", "addr:country": "US", "name": "Woodfield Road", "phone": "(847) 619-4200", "website": "https://www.crateandbarrel.com/stores/woodfield-road/str107?section=events", "opening_hours": "Mo-Sa 10:00-20:00; Su 11:00-18:00", "image": "https://cb.scene7.com/is/image/Crate/store-location-107-01/$web_store_location_individual_xs$/221112084903/store-location-107-01.jpg", "brand": "crateandbarrel", "brand:wikidata": "Q5182604", "nsi_id": "crateandbarrel-a5c7fa"}, "geometry": {"type": "Point", "coordinates": [-88.0366, 42.043067]}},
{"type": "Feature", "id": "6ge6h2v7ZTg5BjnjGu9SXqC_1zI=", "properties": {"ref": "https://www.crateandbarrel.com/stores/the-fashion-mall-at-keystone/str133?section=events", "@spider": "crateandbarrel", "shop": "furniture", "addr:street_address": "8701 Keystone Crossing", "addr:city": "Indianapolis", "addr:state": "IN", "addr:postcode": "46240", "addr:country": "US", "name": "The Fashion Mall at Keystone", "phone": "(317) 818-9900", "website": "https://www.crateandbarrel.com/stores/the-fashion-mall-at-keystone/str133?section=events", "opening_hours": "Mo-Th 10:00-20:00; Fr-Sa 10:00-21:00; Su 11:00-18:00", "image": "https://cb.scene7.com/is/image/Crate/store-location-133-01/$web_store_location_individual_xs$/221112093448/store-location-133-01.jpg", "brand": "crateandbarrel", "brand:wikidata": "Q5182604", "nsi_id": "crateandbarrel-a5c7fa"}, "geometry": {"type": "Point", "coordinates": [-86.10922, 39.914363]}},
{"type": "Feature", "id": "LeN9yUybe7fhlf68ETGsPweWGxM=", "properties": {"ref": "https://www.crateandbarrel.com/stores/alpharetta/str857?section=events", "@spider": "crateandbarrel", "shop": "furniture", "addr:street_address": "1110 Avalon Boulevard", "addr:city": "Alpharetta", "addr:state": "GA", "addr:postcode": "30009", "addr:country": "US", "name": "Alpharetta", "phone": "(678) 254-0435", "website": "https://www.crateandbarrel.com/stores/alpharetta/str857?section=events", "opening_hours": "Mo-Sa 10:00-20:00; Su 11:00-18:00", "image": "https://cb.scene7.com/is/image/Crate/store-location-857-01/$web_store_location_individual_xs$/221112114027/store-location-857-01.jpg", "brand": "crateandbarrel", "brand:wikidata": "Q5182604", "nsi_id": "crateandbarrel-a5c7fa"}, "geometry": {"type": "Point", "coordinates": [-84.27834, 34.07089]}},
{"type": "Feature", "id": "7NlLxgo-H0oGe6PoIBXIc2psyPM=", "properties": {"ref": "https://www.crateandbarrel.com/stores/sarasota/str813?section=events", "@spider": "crateandbarrel", "shop": "furniture", "addr:street_address": "140 University Town Center Drive", "addr:city": "Sarasota", "addr:state": "FL", "addr:postcode": "34243", "addr:country": "US", "name": "Sarasota", "phone": "(941) 702-9900", "website": "https://www.crateandbarrel.com/stores/sarasota/str813?section=events", "opening_hours": "Mo-Sa 10:00-20:00; Su 11:00-18:00", "image": "https://cb.scene7.com/is/image/Crate/store-location-813-01/$web_store_location_individual_xs$/221112100626/store-location-813-01.jpg", "brand": "crateandbarrel", "brand:wikidata": "Q5182604", "nsi_id": "crateandbarrel-a5c7fa"}, "geometry": {"type": "Point", "coordinates": [-82.456278, 27.38509]}},
{"type": "Feature", "id": "k7F3cQCzugpLeng6dHZkEehUvjQ=", "properties": {"ref": "https://www.crateandbarrel.com/stores/westport/str652?section=events", "@spider": "crateandbarrel", "shop": "furniture", "addr:street_address": "1200 Post Rd E", "addr:city": "Westport", "addr:state": "CT", "addr:postcode": "06880", "addr:country": "US", "name": "Westport", "phone": "(203) 222-9500", "website": "https://www.crateandbarrel.com/stores/westport/str652?section=events", "opening_hours": "Mo-Sa 10:00-20:00; Su 11:00-18:00", "image": "https://cb.scene7.com/is/image/Crate/store-location-652-01/$web_store_location_individual_xs$/221112101353/store-location-652-01.jpg", "brand": "crateandbarrel", "brand:wikidata": "Q5182604", "nsi_id": "crateandbarrel-a5c7fa"}, "geometry": {"type": "Point", "coordinates": [-73.322992, 41.138949]}},
{"type": "Feature", "id": "5K1JltRHbBEQsYQsAnI1DtxZAmc=", "properties": {"ref": "https://www.crateandbarrel.com/stores/park-meadows/str721?section=events", "@spider": "crateandbarrel", "shop": "furniture", "addr:street_address": "8505 Park Meadows Center Dr", "addr:city": "Lone Tree", "addr:state": "CO", "addr:postcode": "80124", "addr:country": "US", "name": "Park Meadows", "phone": "(303) 649-9922", "website": "https://www.crateandbarrel.com/stores/park-meadows/str721?section=events", "opening_hours": "Mo-Sa 10:00-20:00; Su 11:00-18:00", "image": "https://cb.scene7.com/is/image/Crate/store-location-721-01/$web_store_location_individual_xs$/221112114031/store-location-721-01.jpg", "brand": "crateandbarrel", "brand:wikidata": "Q5182604", "nsi_id": "crateandbarrel-a5c7fa"}, "geometry": {"type": "Point", "coordinates": [-104.87275, 39.560763]}},
{"type": "Feature", "id": "J1RU381cyz8kAJmuUln1x-PMHvA=", "properties": {"ref": "https://www.crateandbarrel.com/stores/town-center-corte-madera/str402?section=events", "@spider": "crateandbarrel", "shop": "furniture", "addr:street_address": "320 Corte Madera Town Center", "addr:city": "Corte Madera", "addr:state": "CA", "addr:postcode": "94925", "addr:country": "US", "name": "Town Center Corte Madera", "phone": "(415) 924-5412", "website": "https://www.crateandbarrel.com/stores/town-center-corte-madera/str402?section=events", "opening_hours": "Mo-Sa 10:00-20:00; Su 11:00-18:00", "image": "https://cb.scene7.com/is/image/Crate/store-location-402-01/$web_store_location_individual_xs$/221112102215/store-location-402-01.jpg", "brand": "crateandbarrel", "brand:wikidata": "Q5182604", "nsi_id": "crateandbarrel-a5c7fa"}, "geometry": {"type": "Point", "coordinates": [-122.517724, 37.9287629]}},
{"type": "Feature", "id": "JVTB7V_jymeE4YM2gSeU1xrpeKE=", "properties": {"ref": "https://www.crateandbarrel.com/stores/town-center-corte-madera/str402", "@spider": "crateandbarrel", "shop": "furniture", "addr:street_address": "320 Corte Madera Town Center", "addr:city": "Corte Madera", "addr:state": "CA", "addr:postcode": "94925", "addr:country": "US", "name": "Town Center Corte Madera", "phone": "(415) 924-5412", "website": "https://www.crateandbarrel.com/stores/town-center-corte-madera/str402", "opening_hours": "Mo-Sa 10:00-20:00; Su 11:00-18:00", "image": "https://cb.scene7.com/is/image/Crate/store-location-402-01/$web_store_location_individual_xs$/221112091710/store-location-402-01.jpg", "brand": "crateandbarrel", "brand:wikidata": "Q5182604", "nsi_id": "crateandbarrel-a5c7fa"}, "geometry": {"type": "Point", "coordinates": [-122.517724, 37.9287629]}},
{"type": "Feature", "id": "K1fg5aXiz-FFI66wVq3l_kJj3K4=", "properties": {"ref": "https://www.crateandbarrel.com/stores/stanford-shopping-center/str403?section=events", "@spider": "crateandbarrel", "shop": "furniture", "addr:street_address": "530 Stanford Shopping Center", "addr:city": "Palo Alto", "addr:state": "CA", "addr:postcode": "94304", "addr:country": "US", "name": "Stanford Shopping Center", "phone": "(650) 321-7800", "website": "https://www.crateandbarrel.com/stores/stanford-shopping-center/str403?section=events", "opening_hours": "Mo-Sa 10:00-20:00; Su 11:00-18:00", "image": "https://cb.scene7.com/is/image/Crate/store-location-403-01/$web_store_location_individual_xs$/221112114034/store-location-403-01.jpg", "brand": "crateandbarrel", "brand:wikidata": "Q5182604", "nsi_id": "crateandbarrel-a5c7fa"}, "geometry": {"type": "Point", "coordinates": [-122.172071, 37.439174]}},
{"type": "Feature", "id": "KOOfGb4ul3lSOYbPoz5BuAeSfRg=", "properties": {"ref": "https://www.crateandbarrel.com/stores/stanford-shopping-center/str403", "@spider": "crateandbarrel", "shop": "furniture", "addr:street_address": "530 Stanford Shopping Center", "addr:city": "Palo Alto", "addr:state": "CA", "addr:postcode": "94304", "addr:country": "US", "name": "Stanford Shopping Center", "phone": "(650) 321-7800", "website": "https://www.crateandbarrel.com/stores/stanford-shopping-center/str403", "opening_hours": "Mo-Sa 10:00-20:00; Su 11:00-18:00", "image": "https://cb.scene7.com/is/image/Crate/store-location-403-01/$web_store_location_individual_xs$/221112101355/store-location-403-01.jpg", "brand": "crateandbarrel", "brand:wikidata": "Q5182604", "nsi_id": "crateandbarrel-a5c7fa"}, "geometry": {"type": "Point", "coordinates": [-122.172071, 37.439174]}},
{"type": "Feature", "id": "Sx4S0bCv9hUryiftNwzkoBnMqsU=", "properties": {"ref": "https://www.crateandbarrel.com/stores/santana-row/str404?section=events", "@spider": "crateandbarrel", "shop": "furniture", "addr:street_address": "301 Santana Row", "addr:city": "San Jose", "addr:state": "CA", "addr:postcode": "95128", "addr:country": "US", "name": "Santana Row", "phone": "(408) 247-0600", "website": "https://www.crateandbarrel.com/stores/santana-row/str404?section=events", "opening_hours": "Mo-Sa 10:00-20:00; Su 11:00-18:00", "image": "https://cb.scene7.com/is/image/Crate/store-location-404-01/$web_store_location_individual_xs$/221112114037/store-location-404-01.jpg", "brand": "crateandbarrel", "brand:wikidata": "Q5182604", "nsi_id": "crateandbarrel-a5c7fa"}, "geometry": {"type": "Point", "coordinates": [-121.9475, 37.3229]}},
{"type": "Feature", "id": "DS8qTnCOR8ydj7_DDI37j4c46vw=", "properties": {"ref": "https://www.crateandbarrel.com/stores/santana-row/str404", "@spider": "crateandbarrel", "shop": "furniture", "addr:street_address": "301 Santana Row", "addr:city": "San Jose", "addr:state": "CA", "addr:postcode": "95128", "addr:country": "US", "name": "Santana Row", "phone": "(408) 247-0600", "website": "https://www.crateandbarrel.com/stores/santana-row/str404", "opening_hours": "Mo-Sa 10:00-20:00; Su 11:00-18:00", "image": "https://cb.scene7.com/is/image/Crate/store-location-404-01/$web_store_location_individual_xs$/221112110000/store-location-404-01.jpg", "brand": "crateandbarrel", "brand:wikidata": "Q5182604", "nsi_id": "crateandbarrel-a5c7fa"}, "geometry": {"type": "Point", "coordinates": [-121.9475, 37.3229]}},
{"type": "Feature", "id": "FEgM33-IK4F4uOfBvVnNWky3yUE=", "properties": {"ref": "https://www.crateandbarrel.com/stores/walnut-creek/str418?section=events", "@spider": "crateandbarrel", "shop": "furniture", "addr:street_address": "1000 South Main Street", "addr:city": "Walnut Creek", "addr:state": "CA", "addr:postcode": "94596", "addr:country": "US", "name": "Walnut Creek", "phone": "(925) 947-3500", "website": "https://www.crateandbarrel.com/stores/walnut-creek/str418?section=events", "opening_hours": "Mo-Sa 10:00-20:00; Su 11:00-18:00", "image": "https://cb.scene7.com/is/image/Crate/store-location-418-01/$web_store_location_individual_xs$/221112112414/store-location-418-01.jpg", "brand": "crateandbarrel", "brand:wikidata": "Q5182604", "nsi_id": "crateandbarrel-a5c7fa"}, "geometry": {"type": "Point", "coordinates": [-122.061608, 37.8968407]}},
{"type": "Feature", "id": "IxLV2XskYU2Dsj8ecAWqoX3Y_k4=", "properties": {"ref": "https://www.crateandbarrel.com/stores/walnut-creek/str418", "@spider": "crateandbarrel", "shop": "furniture", "addr:street_address": "1000 South Main Street", "addr:city": "Walnut Creek", "addr:state": "CA", "addr:postcode": "94596", "addr:country": "US", "name": "Walnut Creek", "phone": "(925) 947-3500", "website": "https://www.crateandbarrel.com/stores/walnut-creek/str418", "opening_hours": "Mo-Sa 10:00-20:00; Su 11:00-18:00", "image": "https://cb.scene7.com/is/image/Crate/store-location-418-01/$web_store_location_individual_xs$/221112114039/store-location-418-01.jpg", "brand": "crateandbarrel", "brand:wikidata": "Q5182604", "nsi_id": "crateandbarrel-a5c7fa"}, "geometry": {"type": "Point", "coordinates": [-122.061608, 37.8968407]}},
{"type": "Feature", "id": "Zd-n7Jk2_v87SLaPgRtUwRXxKOs=", "properties": {"ref": "https://www.crateandbarrel.com/stores/galleria-at-roseville/str412?section=events", "@spider": "crateandbarrel", "shop": "furniture", "addr:street_address": "1151 Galleria Blvd", "addr:city": "Roseville", "addr:state": "CA", "addr:postcode": "95678", "addr:country": "US", "name": "Galleria at Roseville", "phone": "(916) 784-9100", "website": "https://www.crateandbarrel.com/stores/galleria-at-roseville/str412?section=events", "opening_hours": "Mo-Th 10:00-20:00; Fr-Sa 10:00-21:00; Su 11:00-19:00", "image": "https://cb.scene7.com/is/image/Crate/store-location-412-01/$web_store_location_individual_xs$/221112095842/store-location-412-01.jpg", "brand": "crateandbarrel", "brand:wikidata": "Q5182604", "nsi_id": "crateandbarrel-a5c7fa"}, "geometry": {"type": "Point", "coordinates": [-121.271147, 38.773829]}},
{"type": "Feature", "id": "CVGmerHp9uDYYPftu2wpDxvX3jI=", "properties": {"ref": "https://www.crateandbarrel.com/stores/galleria-at-roseville/str412", "@spider": "crateandbarrel", "shop": "furniture", "addr:street_address": "1151 Galleria Blvd", "addr:city": "Roseville", "addr:state": "CA", "addr:postcode": "95678", "addr:country": "US", "name": "Galleria at Roseville", "phone": "(916) 784-9100", "website": "https://www.crateandbarrel.com/stores/galleria-at-roseville/str412", "opening_hours": "Mo-Th 10:00-20:00; Fr-Sa 10:00-21:00; Su 11:00-19:00", "image": "https://cb.scene7.com/is/image/Crate/store-location-412-01/$web_store_location_individual_xs$/221112114041/store-location-412-01.jpg", "brand": "crateandbarrel", "brand:wikidata": "Q5182604", "nsi_id": "crateandbarrel-a5c7fa"}, "geometry": {"type": "Point", "coordinates": [-121.271147, 38.773829]}},
{"type": "Feature", "id": "HFiQhYv6y7_cZRpggr_D0AAqIqg=", "properties": {"ref": "https://www.crateandbarrel.com/stores/village-at-topanga/str506?section=events", "@spider": "crateandbarrel", "shop": "furniture", "addr:street_address": "6360 Topanga Canyon Blvd", "addr:city": "Woodland Hills", "addr:state": "CA", "addr:postcode": "91367", "addr:country": "US", "name": "Village at Topanga", "phone": "(818) 346-3900", "website": "https://www.crateandbarrel.com/stores/village-at-topanga/str506?section=events", "opening_hours": "Mo-Th 10:00-20:00; Fr-Sa 10:00-21:00; Su 11:00-19:00", "image": "https://cb.scene7.com/is/image/Crate/store-location-506-01/$web_store_location_individual_xs$/221112111434/store-location-506-01.jpg", "brand": "crateandbarrel", "brand:wikidata": "Q5182604", "nsi_id": "crateandbarrel-a5c7fa"}, "geometry": {"type": "Point", "coordinates": [-118.605819, 34.185888]}},
{"type": "Feature", "id": "FxX6XA4OI0-JVV0Rs17y9ArjSeQ=", "properties": {"ref": "https://www.crateandbarrel.com/stores/village-at-topanga/str506", "@spider": "crateandbarrel", "shop": "furniture", "addr:street_address": "6360 Topanga Canyon Blvd", "addr:city": "Woodland Hills", "addr:state": "CA", "addr:postcode": "91367", "addr:country": "US", "name": "Village at Topanga", "phone": "(818) 346-3900", "website": "https://www.crateandbarrel.com/stores/village-at-topanga/str506", "opening_hours": "Mo-Th 10:00-20:00; Fr-Sa 10:00-21:00; Su 11:00-19:00", "image": "https://cb.scene7.com/is/image/Crate/store-location-506-01/$web_store_location_individual_xs$/221112111954/store-location-506-01.jpg", "brand": "crateandbarrel", "brand:wikidata": "Q5182604", "nsi_id": "crateandbarrel-a5c7fa"}, "geometry": {"type": "Point", "coordinates": [-118.605819, 34.185888]}},
{"type": "Feature", "id": "5GvZ0GFbspPm08yk3k0qXOstCSA=", "properties": {"ref": "https://www.crateandbarrel.com/stores/south-bay-del-amo-fashion-center/str521?section=events", "@spider": "crateandbarrel", "shop": "furniture", "addr:street_address": "21710 Hawthorne Blvd", "addr:city": "Torrance", "addr:state": "CA", "addr:postcode": "90503", "addr:country": "US", "name": "South Bay, Del Amo Fashion Center", "phone": "(310) 371-4804", "website": "https://www.crateandbarrel.com/stores/south-bay-del-amo-fashion-center/str521?section=events", "opening_hours": "Mo-Sa 10:00-20:00; Su 11:00-18:00", "image": "https://cb.scene7.com/is/image/Crate/store-location-521-01/$web_store_location_individual_xs$/221112114045/store-location-521-01.jpg", "brand": "crateandbarrel", "brand:wikidata": "Q5182604", "nsi_id": "crateandbarrel-a5c7fa"}, "geometry": {"type": "Point", "coordinates": [-118.352, 33.8305]}},
{"type": "Feature", "id": "yAr5Xm8DSkKKlS51P8QvjGflN84=", "properties": {"ref": "https://www.crateandbarrel.com/stores/south-bay-del-amo-fashion-center/str521", "@spider": "crateandbarrel", "shop": "furniture", "addr:street_address": "21710 Hawthorne Blvd", "addr:city": "Torrance", "addr:state": "CA", "addr:postcode": "90503", "addr:country": "US", "name": "South Bay, Del Amo Fashion Center", "phone": "(310) 371-4804", "website": "https://www.crateandbarrel.com/stores/south-bay-del-amo-fashion-center/str521", "opening_hours": "Mo-Sa 10:00-20:00; Su 11:00-18:00", "image": "https://cb.scene7.com/is/image/Crate/store-location-521-01/$web_store_location_individual_xs$/221112054054/store-location-521-01.jpg", "brand": "crateandbarrel", "brand:wikidata": "Q5182604", "nsi_id": "crateandbarrel-a5c7fa"}, "geometry": {"type": "Point", "coordinates": [-118.352, 33.8305]}},
{"type": "Feature", "id": "HwcMBB62otEj3lypp4Ig_F6Oie8=", "properties": {"ref": "https://www.crateandbarrel.com/stores/beverly-hills/str513?section=events", "@spider": "crateandbarrel", "shop": "furniture", "addr:street_address": "438 N. Beverly Dr", "addr:city": "Beverly Hills", "addr:state": "CA", "addr:postcode": "90210", "addr:country": "US", "name": "Beverly Hills", "phone": "(310) 247-1700", "website": "https://www.crateandbarrel.com/stores/beverly-hills/str513?section=events", "opening_hours": "Mo-Sa 10:00-20:00; Su 11:00-19:00", "image": "https://cb.scene7.com/is/image/Crate/store-location-513-01/$web_store_location_individual_xs$/221112114048/store-location-513-01.jpg", "brand": "crateandbarrel", "brand:wikidata": "Q5182604", "nsi_id": "crateandbarrel-a5c7fa"}, "geometry": {"type": "Point", "coordinates": [-118.402541, 34.070709]}},
{"type": "Feature", "id": "mzuA65e8qyd4I_P1U6VBlKrs4f4=", "properties": {"ref": "https://www.crateandbarrel.com/stores/beverly-hills/str513", "@spider": "crateandbarrel", "shop": "furniture", "addr:street_address": "438 N. Beverly Dr", "addr:city": "Beverly Hills", "addr:state": "CA", "addr:postcode": "90210", "addr:country": "US", "name": "Beverly Hills", "phone": "(310) 247-1700", "website": "https://www.crateandbarrel.com/stores/beverly-hills/str513", "opening_hours": "Mo-Sa 10:00-20:00; Su 11:00-19:00", "image": "https://cb.scene7.com/is/image/Crate/store-location-513-01/$web_store_location_individual_xs$/221112085246/store-location-513-01.jpg", "brand": "crateandbarrel", "brand:wikidata": "Q5182604", "nsi_id": "crateandbarrel-a5c7fa"}, "geometry": {"type": "Point", "coordinates": [-118.402541, 34.070709]}},
{"type": "Feature", "id": "V3TpjGGupXoygqZ0_B_Fu3QSslk=", "properties": {"ref": "https://www.crateandbarrel.com/stores/pasadena/str509?section=events", "@spider": "crateandbarrel", "shop": "furniture", "addr:street_address": "60 W Colorado Blvd", "addr:city": "Pasadena", "addr:state": "CA", "addr:postcode": "91105", "addr:country": "US", "name": "Pasadena", "phone": "(626) 683-8000", "website": "https://www.crateandbarrel.com/stores/pasadena/str509?section=events", "opening_hours": "Mo-Sa 10:00-20:00; Su 11:00-19:00", "image": "https://cb.scene7.com/is/image/Crate/store-location-509-01/$web_store_location_individual_xs$/221112095227/store-location-509-01.jpg", "brand": "crateandbarrel", "brand:wikidata": "Q5182604", "nsi_id": "crateandbarrel-a5c7fa"}, "geometry": {"type": "Point", "coordinates": [-118.1541798, 34.1455743]}},
{"type": "Feature", "id": "Pl2fbi53nReK35SRgv65DaweSKI=", "properties": {"ref": "https://www.crateandbarrel.com/stores/pasadena/str509", "@spider": "crateandbarrel", "shop": "furniture", "addr:street_address": "60 W Colorado Blvd", "addr:city": "Pasadena", "addr:state": "CA", "addr:postcode": "91105", "addr:country": "US", "name": "Pasadena", "phone": "(626) 683-8000", "website": "https://www.crateandbarrel.com/stores/pasadena/str509", "opening_hours": "Mo-Sa 10:00-20:00; Su 11:00-19:00", "image": "https://cb.scene7.com/is/image/Crate/store-location-509-01/$web_store_location_individual_xs$/221112075028/store-location-509-01.jpg", "brand": "crateandbarrel", "brand:wikidata": "Q5182604", "nsi_id": "crateandbarrel-a5c7fa"}, "geometry": {"type": "Point", "coordinates": [-118.1541798, 34.1455743]}},
{"type": "Feature", "id": "JSfZfjxw9nPQgo1ni9u5-9W3EZQ=", "properties": {"ref": "https://www.crateandbarrel.com/stores/south-coast-plaza/str511?section=events", "@spider": "crateandbarrel", "shop": "furniture", "addr:street_address": "3333 Bear St", "addr:city": "Costa Mesa", "addr:state": "CA", "addr:postcode": "92626", "addr:country": "US", "name": "South Coast Plaza", "phone": "(714) 825-0060", "website": "https://www.crateandbarrel.com/stores/south-coast-plaza/str511?section=events", "opening_hours": "Mo 10:00-20:00; Tu-Sa 10:00-21:00; Su 11:00-19:00", "image": "https://cb.scene7.com/is/image/Crate/store-location-511-01/$web_store_location_individual_xs$/221112114053/store-location-511-01.jpg", "brand": "crateandbarrel", "brand:wikidata": "Q5182604", "nsi_id": "crateandbarrel-a5c7fa"}, "geometry": {"type": "Point", "coordinates": [-117.8912605, 33.691901]}},
{"type": "Feature", "id": "YWQxIios_lSXOeuyiktcdQLWMJQ=", "properties": {"ref": "https://www.crateandbarrel.com/stores/south-coast-plaza/str511", "@spider": "crateandbarrel", "shop": "furniture", "addr:street_address": "3333 Bear St", "addr:city": "Costa Mesa", "addr:state": "CA", "addr:postcode": "92626", "addr:country": "US", "name": "South Coast Plaza", "phone": "(714) 825-0060", "website": "https://www.crateandbarrel.com/stores/south-coast-plaza/str511", "opening_hours": "Mo 10:00-20:00; Tu-Sa 10:00-21:00; Su 11:00-19:00", "image": "https://cb.scene7.com/is/image/Crate/store-location-511-01/$web_store_location_individual_xs$/221112091622/store-location-511-01.jpg", "brand": "crateandbarrel", "brand:wikidata": "Q5182604", "nsi_id": "crateandbarrel-a5c7fa"}, "geometry": {"type": "Point", "coordinates": [-117.8912605, 33.691901]}},
{"type": "Feature", "id": "j-9tZSgOKrUPm4IbI_lAVRqABGs=", "properties": {"ref": "https://www.crateandbarrel.com/stores/university-towne-center/str507?section=events", "@spider": "crateandbarrel", "shop": "furniture", "addr:street_address": "4589 La Jolla Village Dr", "addr:city": "San Diego", "addr:state": "CA", "addr:postcode": "92122", "addr:country": "US", "name": "University Towne Center", "phone": "(858) 558-4545", "website": "https://www.crateandbarrel.com/stores/university-towne-center/str507?section=events", "opening_hours": "Mo-Su 10:00-20:00", "image": "https://cb.scene7.com/is/image/Crate/store-location-507-01/$web_store_location_individual_xs$/221112114056/store-location-507-01.jpg", "brand": "crateandbarrel", "brand:wikidata": "Q5182604", "nsi_id": "crateandbarrel-a5c7fa"}, "geometry": {"type": "Point", "coordinates": [-117.209793, 32.873523]}},
{"type": "Feature", "id": "BfhGmtJh6gjXKL9cxOZOiL1VWJc=", "properties": {"ref": "https://www.crateandbarrel.com/stores/park-meadows/str721", "@spider": "crateandbarrel", "shop": "furniture", "addr:street_address": "8505 Park Meadows Center Dr", "addr:city": "Lone Tree", "addr:state": "CO", "addr:postcode": "80124", "addr:country": "US", "name": "Park Meadows", "phone": "(303) 649-9922", "website": "https://www.crateandbarrel.com/stores/park-meadows/str721", "opening_hours": "Mo-Sa 10:00-20:00; Su 11:00-18:00", "image": "https://cb.scene7.com/is/image/Crate/store-location-721-01/$web_store_location_individual_xs$/221112095837/store-location-721-01.jpg", "brand": "crateandbarrel", "brand:wikidata": "Q5182604", "nsi_id": "crateandbarrel-a5c7fa"}, "geometry": {"type": "Point", "coordinates": [-104.87275, 39.560763]}},
{"type": "Feature", "id": "RbhWjN-N5x7hU2bfHzs3CErNNlo=", "properties": {"ref": "https://www.crateandbarrel.com/stores/university-towne-center/str507", "@spider": "crateandbarrel", "shop": "furniture", "addr:street_address": "4589 La Jolla Village Dr", "addr:city": "San Diego", "addr:state": "CA", "addr:postcode": "92122", "addr:country": "US", "name": "University Towne Center", "phone": "(858) 558-4545", "website": "https://www.crateandbarrel.com/stores/university-towne-center/str507", "opening_hours": "Mo-Su 10:00-20:00", "image": "https://cb.scene7.com/is/image/Crate/store-location-507-01/$web_store_location_individual_xs$/221112100305/store-location-507-01.jpg", "brand": "crateandbarrel", "brand:wikidata": "Q5182604", "nsi_id": "crateandbarrel-a5c7fa"}, "geometry": {"type": "Point", "coordinates": [-117.209793, 32.873523]}},
{"type": "Feature", "id": "ZvGgNvpgMYki4i82DVBoBapHdKQ=", "properties": {"ref": "https://www.crateandbarrel.com/stores/flatiron-crossing/str723?section=events", "@spider": "crateandbarrel", "shop": "furniture", "addr:street_address": "1 W Flatiron Crossing Dr", "addr:city": "Broomfield", "addr:state": "CO", "addr:postcode": "80021", "addr:country": "US", "name": "Flatiron Crossing", "phone": "(720) 887-2700", "website": "https://www.crateandbarrel.com/stores/flatiron-crossing/str723?section=events", "opening_hours": "Mo-Sa 10:00-20:00; Su 11:00-18:00", "image": "https://cb.scene7.com/is/image/Crate/store-location-723-01/$web_store_location_individual_xs$/221112102428/store-location-723-01.jpg", "brand": "crateandbarrel", "brand:wikidata": "Q5182604", "nsi_id": "crateandbarrel-a5c7fa"}, "geometry": {"type": "Point", "coordinates": [-105.131148, 39.929874]}},
{"type": "Feature", "id": "i_ltDXJ20U8LhjcanamHU_dZpn8=", "properties": {"ref": "https://www.crateandbarrel.com/stores/flatiron-crossing/str723", "@spider": "crateandbarrel", "shop": "furniture", "addr:street_address": "1 W Flatiron Crossing Dr", "addr:city": "Broomfield", "addr:state": "CO", "addr:postcode": "80021", "addr:country": "US", "name": "Flatiron Crossing", "phone": "(720) 887-2700", "website": "https://www.crateandbarrel.com/stores/flatiron-crossing/str723", "opening_hours": "Mo-Sa 10:00-20:00; Su 11:00-18:00", "image": "https://cb.scene7.com/is/image/Crate/store-location-723-01/$web_store_location_individual_xs$/221112102428/store-location-723-01.jpg", "brand": "crateandbarrel", "brand:wikidata": "Q5182604", "nsi_id": "crateandbarrel-a5c7fa"}, "geometry": {"type": "Point", "coordinates": [-105.131148, 39.929874]}},
{"type": "Feature", "id": "GWYb3FrzTMZezqA1zhJkqVayNlk=", "properties": {"ref": "https://www.crateandbarrel.com/stores/cherry-creek-north/str725?section=events", "@spider": "crateandbarrel", "shop": "furniture", "addr:street_address": "101 Clayton Ln", "addr:city": "Denver", "addr:state": "CO", "addr:postcode": "80206", "addr:country": "US", "name": "Cherry Creek North", "phone": "(303) 331-9300", "website": "https://www.crateandbarrel.com/stores/cherry-creek-north/str725?section=events", "opening_hours": "Mo-Sa 10:00-20:00; Su 11:00-18:00", "image": "https://cb.scene7.com/is/image/Crate/store-location-725-01/$web_store_location_individual_xs$/221112075841/store-location-725-01.jpg", "brand": "crateandbarrel", "brand:wikidata": "Q5182604", "nsi_id": "crateandbarrel-a5c7fa"}, "geometry": {"type": "Point", "coordinates": [-104.955989, 39.718338]}},
{"type": "Feature", "id": "nbsCAfiuezpa97DPyDxPa_a1-WM=", "properties": {"ref": "https://www.crateandbarrel.com/stores/cherry-creek-north/str725", "@spider": "crateandbarrel", "shop": "furniture", "addr:street_address": "101 Clayton Ln", "addr:city": "Denver", "addr:state": "CO", "addr:postcode": "80206", "addr:country": "US", "name": "Cherry Creek North", "phone": "(303) 331-9300", "website": "https://www.crateandbarrel.com/stores/cherry-creek-north/str725", "opening_hours": "Mo-Sa 10:00-20:00; Su 11:00-18:00", "image": "https://cb.scene7.com/is/image/Crate/store-location-725-01/$web_store_location_individual_xs$/221112065633/store-location-725-01.jpg", "brand": "crateandbarrel", "brand:wikidata": "Q5182604", "nsi_id": "crateandbarrel-a5c7fa"}, "geometry": {"type": "Point", "coordinates": [-104.955989, 39.718338]}},
{"type": "Feature", "id": "FWWL5BhjC_6xxf7kXbtpDNosSsM=", "properties": {"ref": "https://www.crateandbarrel.com/stores/westport/str652", "@spider": "crateandbarrel", "shop": "furniture", "addr:street_address": "1200 Post Rd E", "addr:city": "Westport", "addr:state": "CT", "addr:postcode": "06880", "addr:country": "US", "name": "Westport", "phone": "(203) 222-9500", "website": "https://www.crateandbarrel.com/stores/westport/str652", "opening_hours": "Mo-Sa 10:00-20:00; Su 11:00-18:00", "image": "https://cb.scene7.com/is/image/Crate/store-location-652-01/$web_store_location_individual_xs$/221112100624/store-location-652-01.jpg", "brand": "crateandbarrel", "brand:wikidata": "Q5182604", "nsi_id": "crateandbarrel-a5c7fa"}, "geometry": {"type": "Point", "coordinates": [-73.322992, 41.138949]}},
{"type": "Feature", "id": "Xmv9HEfLHT9YHOlqpzO_GN83-VA=", "properties": {"ref": "https://www.crateandbarrel.com/stores/blue-back-square/str641?section=events", "@spider": "crateandbarrel", "shop": "furniture", "addr:street_address": "48 S Main St", "addr:city": "West Hartford", "addr:state": "CT", "addr:postcode": "06107", "addr:country": "US", "name": "Blue Back Square", "phone": "(860) 236-8900", "website": "https://www.crateandbarrel.com/stores/blue-back-square/str641?section=events", "opening_hours": "Mo-Sa 10:00-19:00; Su 11:00-18:00", "image": "https://cb.scene7.com/is/image/Crate/store-location-641-01/$web_store_location_individual_xs$/221112095807/store-location-641-01.jpg", "brand": "crateandbarrel", "brand:wikidata": "Q5182604", "nsi_id": "crateandbarrel-a5c7fa"}, "geometry": {"type": "Point", "coordinates": [-72.741702, 41.7597792]}},
{"type": "Feature", "id": "c3bYQm1EP4Ohhf1GD4TCBtln9GE=", "properties": {"ref": "https://www.crateandbarrel.com/stores/blue-back-square/str641", "@spider": "crateandbarrel", "shop": "furniture", "addr:street_address": "48 S Main St", "addr:city": "West Hartford", "addr:state": "CT", "addr:postcode": "06107", "addr:country": "US", "name": "Blue Back Square", "phone": "(860) 236-8900", "website": "https://www.crateandbarrel.com/stores/blue-back-square/str641", "opening_hours": "Mo-Sa 10:00-19:00; Su 11:00-18:00", "image": "https://cb.scene7.com/is/image/Crate/store-location-641-01/$web_store_location_individual_xs$/221112070643/store-location-641-01.jpg", "brand": "crateandbarrel", "brand:wikidata": "Q5182604", "nsi_id": "crateandbarrel-a5c7fa"}, "geometry": {"type": "Point", "coordinates": [-72.741702, 41.7597792]}},
{"type": "Feature", "id": "3EPcw0LgABzeBkGShVIJm56wNsw=", "properties": {"ref": "https://www.crateandbarrel.com/stores/sarasota/str813", "@spider": "crateandbarrel", "shop": "furniture", "addr:street_address": "140 University Town Center Drive", "addr:city": "Sarasota", "addr:state": "FL", "addr:postcode": "34243", "addr:country": "US", "name": "Sarasota", "phone": "(941) 702-9900", "website": "https://www.crateandbarrel.com/stores/sarasota/str813", "opening_hours": "Mo-Sa 10:00-20:00; Su 11:00-18:00", "image": "https://cb.scene7.com/is/image/Crate/store-location-813-01/$web_store_location_individual_xs$/221112095935/store-location-813-01.jpg", "brand": "crateandbarrel", "brand:wikidata": "Q5182604", "nsi_id": "crateandbarrel-a5c7fa"}, "geometry": {"type": "Point", "coordinates": [-82.456278, 27.38509]}},
{"type": "Feature", "id": "uIXZfOllp68AGuxY4XYn9v6GYxY=", "properties": {"ref": "https://www.crateandbarrel.com/stores/coral-gables/str814?section=events", "@spider": "crateandbarrel", "shop": "furniture", "addr:street_address": "358 San Lorenzo Ave.", "addr:city": "Coral Gables", "addr:state": "FL", "addr:postcode": "33146", "addr:country": "US", "name": "Coral Gables", "phone": "(305) 460-3560", "website": "https://www.crateandbarrel.com/stores/coral-gables/str814?section=events", "opening_hours": "Mo-Sa 10:00-20:00; Su 11:00-18:00", "image": "https://cb.scene7.com/is/image/Crate/store-location-814-01/$web_store_location_individual_xs$/221112090146/store-location-814-01.jpg", "brand": "crateandbarrel", "brand:wikidata": "Q5182604", "nsi_id": "crateandbarrel-a5c7fa"}, "geometry": {"type": "Point", "coordinates": [-80.260892, 25.732358]}},
{"type": "Feature", "id": "yrQ8DhxSp6_c0aK8k50eGy5eMhE=", "properties": {"ref": "https://www.crateandbarrel.com/stores/coral-gables/str814", "@spider": "crateandbarrel", "shop": "furniture", "addr:street_address": "358 San Lorenzo Ave.", "addr:city": "Coral Gables", "addr:state": "FL", "addr:postcode": "33146", "addr:country": "US", "name": "Coral Gables", "phone": "(305) 460-3560", "website": "https://www.crateandbarrel.com/stores/coral-gables/str814", "opening_hours": "Mo-Sa 10:00-20:00; Su 11:00-18:00", "image": "https://cb.scene7.com/is/image/Crate/store-location-814-01/$web_store_location_individual_xs$/221112093722/store-location-814-01.jpg", "brand": "crateandbarrel", "brand:wikidata": "Q5182604", "nsi_id": "crateandbarrel-a5c7fa"}, "geometry": {"type": "Point", "coordinates": [-80.260892, 25.732358]}},
{"type": "Feature", "id": "O0OaHHDWuivsEAVALREJaLfGQAI=", "properties": {"ref": "https://www.crateandbarrel.com/stores/town-center-at-boca-raton/str801?section=events", "@spider": "crateandbarrel", "shop": "furniture", "addr:street_address": "6000 Glades Rd", "addr:city": "Boca Raton", "addr:state": "FL", "addr:postcode": "33431", "addr:country": "US", "name": "Town Center at Boca Raton", "phone": "(561) 395-1060", "website": "https://www.crateandbarrel.com/stores/town-center-at-boca-raton/str801?section=events", "opening_hours": "Mo-Sa 10:00-21:00; Su 11:00-18:00", "image": "https://cb.scene7.com/is/image/Crate/store-location-801-01/$web_store_location_individual_xs$/221112051236/store-location-801-01.jpg", "brand": "crateandbarrel", "brand:wikidata": "Q5182604", "nsi_id": "crateandbarrel-a5c7fa"}, "geometry": {"type": "Point", "coordinates": [-80.137055, 26.368455]}},
{"type": "Feature", "id": "7it0ntdkS3dsv2fKbkGC4PvGBxI=", "properties": {"ref": "https://www.crateandbarrel.com/stores/town-center-at-boca-raton/str801", "@spider": "crateandbarrel", "shop": "furniture", "addr:street_address": "6000 Glades Rd", "addr:city": "Boca Raton", "addr:state": "FL", "addr:postcode": "33431", "addr:country": "US", "name": "Town Center at Boca Raton", "phone": "(561) 395-1060", "website": "https://www.crateandbarrel.com/stores/town-center-at-boca-raton/str801", "opening_hours": "Mo-Sa 10:00-21:00; Su 11:00-18:00", "image": "https://cb.scene7.com/is/image/Crate/store-location-801-01/$web_store_location_individual_xs$/221112094906/store-location-801-01.jpg", "brand": "crateandbarrel", "brand:wikidata": "Q5182604", "nsi_id": "crateandbarrel-a5c7fa"}, "geometry": {"type": "Point", "coordinates": [-80.137055, 26.368455]}},
{"type": "Feature", "id": "nc_yDPwpP7pY22fgxHvXVlJimng=", "properties": {"ref": "https://www.crateandbarrel.com/stores/the-village-at-gulfstream-park/str808?section=events", "@spider": "crateandbarrel", "shop": "furniture", "addr:street_address": "600 Silks Run", "addr:city": "Hallandale Beach", "addr:state": "FL", "addr:postcode": "33009", "addr:country": "US", "name": "The Village at Gulfstream Park", "phone": "(954) 458-2222", "website": "https://www.crateandbarrel.com/stores/the-village-at-gulfstream-park/str808?section=events", "opening_hours": "Mo-Sa 10:00-20:00; Su 11:00-19:00", "image": "https://cb.scene7.com/is/image/Crate/store-location-808-01/$web_store_location_individual_xs$/221112103222/store-location-808-01.jpg", "brand": "crateandbarrel", "brand:wikidata": "Q5182604", "nsi_id": "crateandbarrel-a5c7fa"}, "geometry": {"type": "Point", "coordinates": [-80.140643, 25.981217]}},
{"type": "Feature", "id": "6M06Pn1XkSD3j-FsCkVtr0fD5yI=", "properties": {"ref": "https://www.crateandbarrel.com/stores/the-village-at-gulfstream-park/str808", "@spider": "crateandbarrel", "shop": "furniture", "addr:street_address": "600 Silks Run", "addr:city": "Hallandale Beach", "addr:state": "FL", "addr:postcode": "33009", "addr:country": "US", "name": "The Village at Gulfstream Park", "phone": "(954) 458-2222", "website": "https://www.crateandbarrel.com/stores/the-village-at-gulfstream-park/str808", "opening_hours": "Mo-Sa 10:00-20:00; Su 11:00-19:00", "image": "https://cb.scene7.com/is/image/Crate/store-location-808-01/$web_store_location_individual_xs$/221112093200/store-location-808-01.jpg", "brand": "crateandbarrel", "brand:wikidata": "Q5182604", "nsi_id": "crateandbarrel-a5c7fa"}, "geometry": {"type": "Point", "coordinates": [-80.140643, 25.981217]}},
{"type": "Feature", "id": "4CxyU2Da3G9Rm_J2SSeeN6Rm71E=", "properties": {"ref": "https://www.crateandbarrel.com/stores/international-plaza/str810?section=events", "@spider": "crateandbarrel", "shop": "furniture", "addr:street_address": "2201 N West Shore Blvd", "addr:city": "Tampa", "addr:state": "FL", "addr:postcode": "33607", "addr:country": "US", "name": "International Plaza", "phone": "(813) 241-3777", "website": "https://www.crateandbarrel.com/stores/international-plaza/str810?section=events", "opening_hours": "Mo-Sa 10:00-20:00; Su 11:00-18:00", "image": "https://cb.scene7.com/is/image/Crate/store-location-810-01/$web_store_location_individual_xs$/221112081758/store-location-810-01.jpg", "brand": "crateandbarrel", "brand:wikidata": "Q5182604", "nsi_id": "crateandbarrel-a5c7fa"}, "geometry": {"type": "Point", "coordinates": [-82.524111, 27.959716]}},
{"type": "Feature", "id": "rpAIUmWngVoMyDv6ghCZm_NV7DM=", "properties": {"ref": "https://www.crateandbarrel.com/stores/international-plaza/str810", "@spider": "crateandbarrel", "shop": "furniture", "addr:street_address": "2201 N West Shore Blvd", "addr:city": "Tampa", "addr:state": "FL", "addr:postcode": "33607", "addr:country": "US", "name": "International Plaza", "phone": "(813) 241-3777", "website": "https://www.crateandbarrel.com/stores/international-plaza/str810", "opening_hours": "Mo-Sa 10:00-20:00; Su 11:00-18:00", "image": "https://cb.scene7.com/is/image/Crate/store-location-810-01/$web_store_location_individual_xs$/221112093027/store-location-810-01.jpg", "brand": "crateandbarrel", "brand:wikidata": "Q5182604", "nsi_id": "crateandbarrel-a5c7fa"}, "geometry": {"type": "Point", "coordinates": [-82.524111, 27.959716]}},
{"type": "Feature", "id": "f_oTesHAYfP9MuVunSHZ-tRg8zU=", "properties": {"ref": "https://www.crateandbarrel.com/stores/alpharetta/str857", "@spider": "crateandbarrel", "shop": "furniture", "addr:street_address": "1110 Avalon Boulevard", "addr:city": "Alpharetta", "addr:state": "GA", "addr:postcode": "30009", "addr:country": "US", "name": "Alpharetta", "phone": "(678) 254-0435", "website": "https://www.crateandbarrel.com/stores/alpharetta/str857", "opening_hours": "Mo-Sa 10:00-20:00; Su 11:00-18:00", "image": "https://cb.scene7.com/is/image/Crate/store-location-857-01/$web_store_location_individual_xs$/221112114118/store-location-857-01.jpg", "brand": "crateandbarrel", "brand:wikidata": "Q5182604", "nsi_id": "crateandbarrel-a5c7fa"}, "geometry": {"type": "Point", "coordinates": [-84.27834, 34.07089]}},
{"type": "Feature", "id": "aW-lagkjGmAceP79cg6F-GiO7X0=", "properties": {"ref": "https://www.crateandbarrel.com/stores/shops-around-lenox/str851?section=events", "@spider": "crateandbarrel", "shop": "furniture", "addr:street_address": "3400 Around Lenox Dr", "addr:city": "Atlanta", "addr:state": "GA", "addr:postcode": "30326", "addr:country": "US", "name": "Shops Around Lenox", "phone": "(404) 239-0008", "website": "https://www.crateandbarrel.com/stores/shops-around-lenox/str851?section=events", "opening_hours": "Mo-Sa 10:00-20:00; Su 11:00-18:00", "image": "https://cb.scene7.com/is/image/Crate/store-location-851-01/$web_store_location_individual_xs$/221112114120/store-location-851-01.jpg", "brand": "crateandbarrel", "brand:wikidata": "Q5182604", "nsi_id": "crateandbarrel-a5c7fa"}, "geometry": {"type": "Point", "coordinates": [-84.365054, 33.845665]}},
{"type": "Feature", "id": "dLetfLimL8hmdP82UuKWF9V0fG8=", "properties": {"ref": "https://www.crateandbarrel.com/stores/shops-around-lenox/str851", "@spider": "crateandbarrel", "shop": "furniture", "addr:street_address": "3400 Around Lenox Dr", "addr:city": "Atlanta", "addr:state": "GA", "addr:postcode": "30326", "addr:country": "US", "name": "Shops Around Lenox", "phone": "(404) 239-0008", "website": "https://www.crateandbarrel.com/stores/shops-around-lenox/str851", "opening_hours": "Mo-Sa 10:00-20:00; Su 11:00-18:00", "image": "https://cb.scene7.com/is/image/Crate/store-location-851-01/$web_store_location_individual_xs$/221112091122/store-location-851-01.jpg", "brand": "crateandbarrel", "brand:wikidata": "Q5182604", "nsi_id": "crateandbarrel-a5c7fa"}, "geometry": {"type": "Point", "coordinates": [-84.365054, 33.845665]}},
{"type": "Feature", "id": "5PnL9FtKq6sOfZu5O31lAZBprpo=", "properties": {"ref": "https://www.crateandbarrel.com/stores/woodfield-road/str107", "@spider": "crateandbarrel", "shop": "furniture", "addr:street_address": "760 North Martingale Rd", "addr:city": "Schaumburg", "addr:state": "IL", "addr:postcode": "60173", "addr:country": "US", "name": "Woodfield Road", "phone": "(847) 619-4200", "website": "https://www.crateandbarrel.com/stores/woodfield-road/str107", "opening_hours": "Mo-Sa 10:00-20:00; Su 11:00-18:00", "image": "https://cb.scene7.com/is/image/Crate/store-location-107-01/$web_store_location_individual_xs$/221112055629/store-location-107-01.jpg", "brand": "crateandbarrel", "brand:wikidata": "Q5182604", "nsi_id": "crateandbarrel-a5c7fa"}, "geometry": {"type": "Point", "coordinates": [-88.0366, 42.043067]}},
{"type": "Feature", "id": "m1txv4sWc7djbDY0OxSR7Q9-8uo=", "properties": {"ref": "https://www.crateandbarrel.com/stores/deer-park-town-center/str135?section=events", "@spider": "crateandbarrel", "shop": "furniture", "addr:street_address": "20530 N. Rand Rd", "addr:city": "Deer Park", "addr:state": "IL", "addr:postcode": "60010", "addr:country": "US", "name": "Deer Park Town Center", "phone": "(847) 438-0031", "website": "https://www.crateandbarrel.com/stores/deer-park-town-center/str135?section=events", "opening_hours": "Mo-Sa 10:00-19:00; Su 12:00-17:00", "image": "https://cb.scene7.com/is/image/Crate/store-location-135-01/$web_store_location_individual_xs$/221112095903/store-location-135-01.jpg", "brand": "crateandbarrel", "brand:wikidata": "Q5182604", "nsi_id": "crateandbarrel-a5c7fa"}, "geometry": {"type": "Point", "coordinates": [-88.05305025, 42.16233086]}},
{"type": "Feature", "id": "9Vr6-PTTGGi-0KrhQA3Sojh4dyk=", "properties": {"ref": "https://www.crateandbarrel.com/stores/deer-park-town-center/str135", "@spider": "crateandbarrel", "shop": "furniture", "addr:street_address": "20530 N. Rand Rd", "addr:city": "Deer Park", "addr:state": "IL", "addr:postcode": "60010", "addr:country": "US", "name": "Deer Park Town Center", "phone": "(847) 438-0031", "website": "https://www.crateandbarrel.com/stores/deer-park-town-center/str135", "opening_hours": "Mo-Sa 10:00-19:00; Su 12:00-17:00", "image": "https://cb.scene7.com/is/image/Crate/store-location-135-01/$web_store_location_individual_xs$/221112055655/store-location-135-01.jpg", "brand": "crateandbarrel", "brand:wikidata": "Q5182604", "nsi_id": "crateandbarrel-a5c7fa"}, "geometry": {"type": "Point", "coordinates": [-88.05305025, 42.16233086]}},
{"type": "Feature", "id": "Sa2ZjsspbZ7HP4DK1R3grWmVrVU=", "properties": {"ref": "https://www.crateandbarrel.com/stores/geneva-commons/str124?section=events", "@spider": "crateandbarrel", "shop": "furniture", "addr:street_address": "1102 Commons Drive", "addr:city": "Geneva", "addr:state": "IL", "addr:postcode": "60134", "addr:country": "US", "name": "Geneva Commons", "phone": "(630) 208-7226", "website": "https://www.crateandbarrel.com/stores/geneva-commons/str124?section=events", "opening_hours": "Mo-Sa 10:00-20:00; Su 11:00-18:00", "image": "https://cb.scene7.com/is/image/Crate/store-location-124-01/$web_store_location_individual_xs$/221112101408/store-location-124-01.jpg", "brand": "crateandbarrel", "brand:wikidata": "Q5182604", "nsi_id": "crateandbarrel-a5c7fa"}, "geometry": {"type": "Point", "coordinates": [-88.341699, 41.896689]}},
{"type": "Feature", "id": "BBagKaj6sgME5L_eOS6nVa0cGJQ=", "properties": {"ref": "https://www.crateandbarrel.com/stores/geneva-commons/str124", "@spider": "crateandbarrel", "shop": "furniture", "addr:street_address": "1102 Commons Drive", "addr:city": "Geneva", "addr:state": "IL", "addr:postcode": "60134", "addr:country": "US", "name": "Geneva Commons", "phone": "(630) 208-7226", "website": "https://www.crateandbarrel.com/stores/geneva-commons/str124", "opening_hours": "Mo-Sa 10:00-20:00; Su 11:00-18:00", "image": "https://cb.scene7.com/is/image/Crate/store-location-124-01/$web_store_location_individual_xs$/221112055655/store-location-124-01.jpg", "brand": "crateandbarrel", "brand:wikidata": "Q5182604", "nsi_id": "crateandbarrel-a5c7fa"}, "geometry": {"type": "Point", "coordinates": [-88.341699, 41.896689]}},
{"type": "Feature", "id": "iW7T4IE1gV5HlD9PHQOJacUSWUM=", "properties": {"ref": "https://www.crateandbarrel.com/stores/oakbrook-center/str103?section=events", "@spider": "crateandbarrel", "shop": "furniture", "addr:street_address": "35 Oakbrook Center", "addr:city": "Oak Brook", "addr:state": "IL", "addr:postcode": "60523", "addr:country": "US", "name": "Oakbrook Center", "phone": "(630) 572-1300", "website": "https://www.crateandbarrel.com/stores/oakbrook-center/str103?section=events", "opening_hours": "Mo-Sa 10:00-20:00; Su 11:00-18:00", "image": "https://cb.scene7.com/is/image/Crate/store-location-103-01/$web_store_location_individual_xs$/221112113744/store-location-103-01.jpg", "brand": "crateandbarrel", "brand:wikidata": "Q5182604", "nsi_id": "crateandbarrel-a5c7fa"}, "geometry": {"type": "Point", "coordinates": [-87.95682, 41.849763]}},
{"type": "Feature", "id": "kdSxEftkArJl_iC_JAiq8qFlc3s=", "properties": {"ref": "https://www.crateandbarrel.com/stores/oakbrook-center/str103", "@spider": "crateandbarrel", "shop": "furniture", "addr:street_address": "35 Oakbrook Center", "addr:city": "Oak Brook", "addr:state": "IL", "addr:postcode": "60523", "addr:country": "US", "name": "Oakbrook Center", "phone": "(630) 572-1300", "website": "https://www.crateandbarrel.com/stores/oakbrook-center/str103", "opening_hours": "Mo-Sa 10:00-20:00; Su 11:00-18:00", "image": "https://cb.scene7.com/is/image/Crate/store-location-103-01/$web_store_location_individual_xs$/221112113744/store-location-103-01.jpg", "brand": "crateandbarrel", "brand:wikidata": "Q5182604", "nsi_id": "crateandbarrel-a5c7fa"}, "geometry": {"type": "Point", "coordinates": [-87.95682, 41.849763]}},
{"type": "Feature", "id": "6mlvmy1nm7AGK8oxONXzZhBkKQs=", "properties": {"ref": "https://www.crateandbarrel.com/stores/northbrook-court-outside-the-mall/str106?section=events", "@spider": "crateandbarrel", "shop": "furniture", "addr:street_address": "1775 Lake Cook Rd", "addr:city": "Northbrook", "addr:state": "IL", "addr:postcode": "60062", "addr:country": "US", "name": "Northbrook Court", "phone": "(847) 272-8920", "website": "https://www.crateandbarrel.com/stores/northbrook-court-outside-the-mall/str106?section=events", "opening_hours": "Mo-Sa 10:00-20:00; Su 11:00-18:00", "image": "https://cb.scene7.com/is/image/Crate/store-location-106-01/$web_store_location_individual_xs$/221112040516/store-location-106-01.jpg", "brand": "crateandbarrel", "brand:wikidata": "Q5182604", "nsi_id": "crateandbarrel-a5c7fa"}, "geometry": {"type": "Point", "coordinates": [-87.8199, 42.1521]}},
{"type": "Feature", "id": "EFaX2ZWeiooIdD86bssifJFuDL4=", "properties": {"ref": "https://www.crateandbarrel.com/stores/northbrook-court-outside-the-mall/str106", "@spider": "crateandbarrel", "shop": "furniture", "addr:street_address": "1775 Lake Cook Rd", "addr:city": "Northbrook", "addr:state": "IL", "addr:postcode": "60062", "addr:country": "US", "name": "Northbrook Court", "phone": "(847) 272-8920", "website": "https://www.crateandbarrel.com/stores/northbrook-court-outside-the-mall/str106", "opening_hours": "Mo-Sa 10:00-20:00; Su 11:00-18:00", "image": "https://cb.scene7.com/is/image/Crate/store-location-106-01/$web_store_location_individual_xs$/221112103522/store-location-106-01.jpg", "brand": "crateandbarrel", "brand:wikidata": "Q5182604", "nsi_id": "crateandbarrel-a5c7fa"}, "geometry": {"type": "Point", "coordinates": [-87.8199, 42.1521]}},
{"type": "Feature", "id": "LiCh6l9VYDv2EBciNbbQwrpEDgA=", "properties": {"ref": "https://www.crateandbarrel.com/stores/north-and-clybourn/str115?section=events", "@spider": "crateandbarrel", "shop": "furniture", "addr:street_address": "850 W. North Avenue", "addr:city": "Chicago", "addr:state": "IL", "addr:postcode": "60642", "addr:country": "US", "name": "North and Clybourn", "phone": "(312) 573-9800", "website": "https://www.crateandbarrel.com/stores/north-and-clybourn/str115?section=events", "opening_hours": "Mo-Fr 10:00-20:00; Sa 10:00-21:00; Su 10:00-19:00", "image": "https://cb.scene7.com/is/image/Crate/store-location-115-01/$web_store_location_individual_xs$/221112055655/store-location-115-01.jpg", "brand": "crateandbarrel", "brand:wikidata": "Q5182604", "nsi_id": "crateandbarrel-a5c7fa"}, "geometry": {"type": "Point", "coordinates": [-87.65004, 41.911037]}},
{"type": "Feature", "id": "nj4-5QWZHcRzOOYvZeoawXJbeXA=", "properties": {"ref": "https://www.crateandbarrel.com/stores/north-and-clybourn/str115", "@spider": "crateandbarrel", "shop": "furniture", "addr:street_address": "850 W. North Avenue", "addr:city": "Chicago", "addr:state": "IL", "addr:postcode": "60642", "addr:country": "US", "name": "North and Clybourn", "phone": "(312) 573-9800", "website": "https://www.crateandbarrel.com/stores/north-and-clybourn/str115", "opening_hours": "Mo-Fr 10:00-20:00; Sa 10:00-21:00; Su 10:00-19:00", "image": "https://cb.scene7.com/is/image/Crate/store-location-115-01/$web_store_location_individual_xs$/221112055655/store-location-115-01.jpg", "brand": "crateandbarrel", "brand:wikidata": "Q5182604", "nsi_id": "crateandbarrel-a5c7fa"}, "geometry": {"type": "Point", "coordinates": [-87.65004, 41.911037]}},
{"type": "Feature", "id": "326swcgHv_AwK2-LCIaCgYAP27Y=", "properties": {"ref": "https://www.crateandbarrel.com/stores/old-orchard-center/str108?section=events", "@spider": "crateandbarrel", "shop": "furniture", "addr:street_address": "4999 Old Orchard Center", "addr:city": "Skokie", "addr:state": "IL", "addr:postcode": "60077", "addr:country": "US", "name": "Old Orchard Center", "phone": "(847) 674-6850", "website": "https://www.crateandbarrel.com/stores/old-orchard-center/str108?section=events", "opening_hours": "Mo-Th 10:00-20:00; Fr-Sa 10:00-21:00; Su 11:00-18:00", "image": "https://cb.scene7.com/is/image/Crate/store-location-108-01/$web_store_location_individual_xs$/221112085123/store-location-108-01.jpg", "brand": "crateandbarrel", "brand:wikidata": "Q5182604", "nsi_id": "crateandbarrel-a5c7fa"}, "geometry": {"type": "Point", "coordinates": [-87.749, 42.0595]}},
{"type": "Feature", "id": "sBlj2P7XuBLeGcER3IzCOvRjFX4=", "properties": {"ref": "https://www.crateandbarrel.com/stores/old-orchard-center/str108", "@spider": "crateandbarrel", "shop": "furniture", "addr:street_address": "4999 Old Orchard Center", "addr:city": "Skokie", "addr:state": "IL", "addr:postcode": "60077", "addr:country": "US", "name": "Old Orchard Center", "phone": "(847) 674-6850", "website": "https://www.crateandbarrel.com/stores/old-orchard-center/str108", "opening_hours": "Mo-Th 10:00-20:00; Fr-Sa 10:00-21:00; Su 11:00-18:00", "image": "https://cb.scene7.com/is/image/Crate/store-location-108-01/$web_store_location_individual_xs$/221112055629/store-location-108-01.jpg", "brand": "crateandbarrel", "brand:wikidata": "Q5182604", "nsi_id": "crateandbarrel-a5c7fa"}, "geometry": {"type": "Point", "coordinates": [-87.749, 42.0595]}},
{"type": "Feature", "id": "bygKmsNbx5X1vTkyLP8CHDyzPKY=", "properties": {"ref": "https://www.crateandbarrel.com/stores/the-fashion-mall-at-keystone/str133", "@spider": "crateandbarrel", "shop": "furniture", "addr:street_address": "8701 Keystone Crossing", "addr:city": "Indianapolis", "addr:state": "IN", "addr:postcode": "46240", "addr:country": "US", "name": "The Fashion Mall at Keystone", "phone": "(317) 818-9900", "website": "https://www.crateandbarrel.com/stores/the-fashion-mall-at-keystone/str133", "opening_hours": "Mo-Th 10:00-20:00; Fr-Sa 10:00-21:00; Su 11:00-18:00", "image": "https://cb.scene7.com/is/image/Crate/store-location-133-01/$web_store_location_individual_xs$/221112104248/store-location-133-01.jpg", "brand": "crateandbarrel", "brand:wikidata": "Q5182604", "nsi_id": "crateandbarrel-a5c7fa"}, "geometry": {"type": "Point", "coordinates": [-86.10922, 39.914363]}},
{"type": "Feature", "id": "-W38DC31dUP--vg3J97MSKcK3QY=", "properties": {"ref": "https://www.crateandbarrel.com/stores/one-nineteen/str727", "@spider": "crateandbarrel", "shop": "furniture", "addr:street_address": "4601 W. 119th St", "addr:city": "Leawood", "addr:state": "KS", "addr:postcode": "66209", "addr:country": "US", "name": "One Nineteen", "phone": "(913) 469-5100", "website": "https://www.crateandbarrel.com/stores/one-nineteen/str727", "opening_hours": "Mo-Sa 10:00-20:00; Su 11:00-18:00", "image": "https://cb.scene7.com/is/image/Crate/store-location-727-01/$web_store_location_individual_xs$/221112101946/store-location-727-01.jpg", "brand": "crateandbarrel", "brand:wikidata": "Q5182604", "nsi_id": "crateandbarrel-a5c7fa"}, "geometry": {"type": "Point", "coordinates": [-94.639623, 38.912332]}},
{"type": "Feature", "id": "hYVN10QRk4OCOjBHq6u3B-5ykOo=", "properties": {"ref": "https://www.crateandbarrel.com/stores/annapolis-mall/str616", "@spider": "crateandbarrel", "shop": "furniture", "addr:street_address": "2270 Annapolis Mall Rd", "addr:city": "Annapolis", "addr:state": "MD", "addr:postcode": "21401", "addr:country": "US", "name": "Annapolis Mall", "phone": "(410) 224-2048", "website": "https://www.crateandbarrel.com/stores/annapolis-mall/str616", "opening_hours": "Mo-Th 10:00-20:00; Fr-Sa 10:00-21:00; Su 11:00-19:00", "image": "https://cb.scene7.com/is/image/Crate/store-location-616-01/$web_store_location_individual_xs$/221112061312/store-location-616-01.jpg", "brand": "crateandbarrel", "brand:wikidata": "Q5182604", "nsi_id": "crateandbarrel-a5c7fa"}, "geometry": {"type": "Point", "coordinates": [-76.548659, 38.990066]}},
{"type": "Feature", "id": "zP_Qtfy4fwKHFppTADr06P6gwuI=", "properties": {"ref": "https://www.crateandbarrel.com/stores/derby-street-shoppes/str218", "@spider": "crateandbarrel", "shop": "furniture", "addr:street_address": "98 Derby St", "addr:city": "Hingham", "addr:state": "MA", "addr:postcode": "02043", "addr:country": "US", "name": "Derby Street Shoppes", "phone": "(781) 749-8100", "website": "https://www.crateandbarrel.com/stores/derby-street-shoppes/str218", "opening_hours": "Mo-Sa 10:00-20:00; Su 11:00-18:00", "image": "https://cb.scene7.com/is/image/Crate/store-location-218-01/$web_store_location_individual_xs$/221112091832/store-location-218-01.jpg", "brand": "crateandbarrel", "brand:wikidata": "Q5182604", "nsi_id": "crateandbarrel-a5c7fa"}, "geometry": {"type": "Point", "coordinates": [-70.906974, 42.180163]}},
{"type": "Feature", "id": "h9C6H9rLnBxaHfwG61953HN9oDE=", "properties": {"ref": "https://www.crateandbarrel.com/stores/natick-mall/str211?section=events", "@spider": "crateandbarrel", "shop": "furniture", "addr:street_address": "1245 Worcester St", "addr:city": "Natick", "addr:state": "MA", "addr:postcode": "01760", "addr:country": "US", "name": "Natick Mall", "phone": "(508) 653-6888", "website": "https://www.crateandbarrel.com/stores/natick-mall/str211?section=events", "opening_hours": "Mo-Th 11:00-19:00; Fr-Sa 10:00-21:00; Su 11:00-18:00", "image": "https://cb.scene7.com/is/image/Crate/store-location-211-01/$web_store_location_individual_xs$/221112095854/store-location-211-01.jpg", "brand": "crateandbarrel", "brand:wikidata": "Q5182604", "nsi_id": "crateandbarrel-a5c7fa"}, "geometry": {"type": "Point", "coordinates": [-71.382411, 42.299626]}},
{"type": "Feature", "id": "CvvTaPkoRAmmesZov6yGv_vgV3o=", "properties": {"ref": "https://www.crateandbarrel.com/stores/natick-mall/str211", "@spider": "crateandbarrel", "shop": "furniture", "addr:street_address": "1245 Worcester St", "addr:city": "Natick", "addr:state": "MA", "addr:postcode": "01760", "addr:country": "US", "name": "Natick Mall", "phone": "(508) 653-6888", "website": "https://www.crateandbarrel.com/stores/natick-mall/str211", "opening_hours": "Mo-Th 11:00-19:00; Fr-Sa 10:00-21:00; Su 11:00-18:00", "image": "https://cb.scene7.com/is/image/Crate/store-location-211-01/$web_store_location_individual_xs$/221112085122/store-location-211-01.jpg", "brand": "crateandbarrel", "brand:wikidata": "Q5182604", "nsi_id": "crateandbarrel-a5c7fa"}, "geometry": {"type": "Point", "coordinates": [-71.382411, 42.299626]}},
{"type": "Feature", "id": "M5Mwmj-Cer6e8Kya-CXc8idEr-o=", "properties": {"ref": "https://www.crateandbarrel.com/stores/the-shops-at-chestnut-hill/str205?section=events", "@spider": "crateandbarrel", "shop": "furniture", "addr:street_address": "199 Boylston St", "addr:city": "Chestnut Hill", "addr:state": "MA", "addr:postcode": "02467", "addr:country": "US", "name": "The Shops at Chestnut Hill", "phone": "(617) 964-8400", "website": "https://www.crateandbarrel.com/stores/the-shops-at-chestnut-hill/str205?section=events", "opening_hours": "Mo-Sa 11:00-20:00; Su 12:00-18:00", "image": "https://cb.scene7.com/is/image/Crate/store-location-205-01/$web_store_location_individual_xs$/221112092336/store-location-205-01.jpg", "brand": "crateandbarrel", "brand:wikidata": "Q5182604", "nsi_id": "crateandbarrel-a5c7fa"}, "geometry": {"type": "Point", "coordinates": [-71.176112, 42.320264]}},
{"type": "Feature", "id": "TOMnZ9m-SGOtIyXOCLEpbZKrhsw=", "properties": {"ref": "https://www.crateandbarrel.com/stores/the-shops-at-chestnut-hill/str205", "@spider": "crateandbarrel", "shop": "furniture", "addr:street_address": "199 Boylston St", "addr:city": "Chestnut Hill", "addr:state": "MA", "addr:postcode": "02467", "addr:country": "US", "name": "The Shops at Chestnut Hill", "phone": "(617) 964-8400", "website": "https://www.crateandbarrel.com/stores/the-shops-at-chestnut-hill/str205", "opening_hours": "Mo-Sa 11:00-20:00; Su 12:00-18:00", "image": "https://cb.scene7.com/is/image/Crate/store-location-205-01/$web_store_location_individual_xs$/221112102442/store-location-205-01.jpg", "brand": "crateandbarrel", "brand:wikidata": "Q5182604", "nsi_id": "crateandbarrel-a5c7fa"}, "geometry": {"type": "Point", "coordinates": [-71.176112, 42.320264]}},
{"type": "Feature", "id": "ZR7tLsXy0OrpLlbzEuWD6CqbkLk=", "properties": {"ref": "https://www.crateandbarrel.com/stores/burlington-mall/str212?section=events", "@spider": "crateandbarrel", "shop": "furniture", "addr:street_address": "73 Middlesex Turnpike", "addr:city": "Burlington", "addr:state": "MA", "addr:postcode": "01803", "addr:country": "US", "name": "Burlington Mall", "phone": "(781) 270-3600", "website": "https://www.crateandbarrel.com/stores/burlington-mall/str212?section=events", "opening_hours": "Mo-Sa 10:00-20:00; Su 11:00-18:00", "image": "https://cb.scene7.com/is/image/Crate/store-location-212-01/$web_store_location_individual_xs$/221112055835/store-location-212-01.jpg", "brand": "crateandbarrel", "brand:wikidata": "Q5182604", "nsi_id": "crateandbarrel-a5c7fa"}, "geometry": {"type": "Point", "coordinates": [-71.212, 42.4824]}},
{"type": "Feature", "id": "4801AW3uT5iis9uXQq_fVrjXE9o=", "properties": {"ref": "https://www.crateandbarrel.com/stores/burlington-mall/str212", "@spider": "crateandbarrel", "shop": "furniture", "addr:street_address": "73 Middlesex Turnpike", "addr:city": "Burlington", "addr:state": "MA", "addr:postcode": "01803", "addr:country": "US", "name": "Burlington Mall", "phone": "(781) 270-3600", "website": "https://www.crateandbarrel.com/stores/burlington-mall/str212", "opening_hours": "Mo-Sa 10:00-20:00; Su 11:00-18:00", "image": "https://cb.scene7.com/is/image/Crate/store-location-212-01/$web_store_location_individual_xs$/221112093016/store-location-212-01.jpg", "brand": "crateandbarrel", "brand:wikidata": "Q5182604", "nsi_id": "crateandbarrel-a5c7fa"}, "geometry": {"type": "Point", "coordinates": [-71.212, 42.4824]}},
{"type": "Feature", "id": "fNdscUvDg3Lsn28zkZRuWQW4eLs=", "properties": {"ref": "https://www.crateandbarrel.com/stores/twelve-oaks/str752", "@spider": "crateandbarrel", "shop": "furniture", "addr:street_address": "27400 Novi Road", "addr:city": "Novi", "addr:state": "MI", "addr:postcode": "48377", "addr:country": "US", "name": "Twelve Oaks", "phone": "(248) 643-6610", "website": "https://www.crateandbarrel.com/stores/twelve-oaks/str752", "opening_hours": "Mo-Sa 10:00-21:00; Su 11:00-18:00", "image": "https://cb.scene7.com/is/image/Crate/store-location-752-01/$web_store_location_individual_xs$/221112102123/store-location-752-01.jpg", "brand": "crateandbarrel", "brand:wikidata": "Q5182604", "nsi_id": "crateandbarrel-a5c7fa"}, "geometry": {"type": "Point", "coordinates": [-83.4768472, 42.4893907]}}]}