{"type":"FeatureCollection","features":[{"type": "Feature", "id": "C0eBko0uikuZ4VhdLYvpXDbpbLo=", "properties": {"ref": "None", "@spider": "dave_and_busters", "amenity": "restaurant", "cuisine": "american", "leisure": "amusement_arcade", "addr:street_address": "800 E Dimond Blvd Ste 240", "addr:city": "Anchorage", "addr:state": "AK", "addr:postcode": "99515", "addr:country": "US", "name": "Dave & Buster's", "phone": "(907) 313-1430", "website": "https://www.daveandbusters.com/locations/anchorage", "opening_hours": "Mo-Th 11:00-24:00; Fr-Sa 11:00-02:00; Su 08:30-24:00", "image": "https://www.daveandbusters.com/media/2452/logo_no_shadow.png?quality=60", "brand": "Dave and Busters", "brand:wikidata": "Q5228205", "nsi_id": "daveandbusters-85c92c"}, "geometry": {"type": "Point", "coordinates": [-149.868352, 61.143034]}},
{"type": "Feature", "id": "Wf1GzqpqXFBCTnJ8YU-ubcd-tDc=", "properties": {"ref": "76", "@spider": "dave_and_busters", "amenity": "restaurant", "cuisine": "american", "leisure": "amusement_arcade", "addr:street_address": "424 Hawthorn Center", "addr:city": "Vernon Hills", "addr:state": "IL", "addr:postcode": "60061", "addr:country": "US", "name": "Dave & Buster's", "phone": "(847) 549-2118", "website": "https://www.daveandbusters.com/locations/vernon-hills", "opening_hours": "Mo-Th 11:00-24:00; Fr-Sa 11:00-02:00; Su 11:00-24:00", "image": "https://www.daveandbusters.com/media/2452/logo_no_shadow.png?quality=60", "brand": "Dave and Busters", "brand:wikidata": "Q5228205", "nsi_id": "daveandbusters-85c92c"}, "geometry": {"type": "Point", "coordinates": [-87.948771, 42.242568]}},
{"type": "Feature", "id": "4sh3XNyQ0kFHDowaDBxcrby98N4=", "properties": {"ref": "126", "@spider": "dave_and_busters", "amenity": "restaurant", "cuisine": "american", "leisure": "amusement_arcade", "addr:street_address": "9870 Berwyn Ave", "addr:city": "Rosemont", "addr:state": "IL", "addr:postcode": "60018", "addr:country": "US", "name": "Dave & Buster's", "phone": "(847) 447-8000", "website": "https://www.daveandbusters.com/locations/rosemont", "opening_hours": "Mo-Th 11:00-24:00; Fr-Sa 11:00-02:00; Su 11:00-24:00", "image": "https://www.daveandbusters.com/media/2452/logo_no_shadow.png?quality=60", "brand": "Dave and Busters", "brand:wikidata": "Q5228205", "nsi_id": "daveandbusters-85c92c"}, "geometry": {"type": "Point", "coordinates": [-87.8720919, 41.9749616]}},
{"type": "Feature", "id": "lu5vod0bxaA6aoUxQMydegEq2hg=", "properties": {"ref": "67", "@spider": "dave_and_busters", "amenity": "restaurant", "cuisine": "american", "leisure": "amusement_arcade", "addr:street_address": "49 Orland Square Dr", "addr:city": "Orland Park", "addr:state": "IL", "addr:postcode": "60462", "addr:country": "US", "name": "Dave & Buster's", "phone": "(708) 428-2100", "website": "https://www.daveandbusters.com/locations/orland-park", "opening_hours": "Mo-Th 11:00-24:00; Fr-Sa 11:00-02:00; Su 11:00-24:00", "image": "https://www.daveandbusters.com/media/2452/logo_no_shadow.png?quality=60", "brand": "Dave and Busters", "brand:wikidata": "Q5228205", "nsi_id": "daveandbusters-85c92c"}, "geometry": {"type": "Point", "coordinates": [-87.851191, 41.61736]}},
{"type": "Feature", "id": "31nBsDf2dREdut0qy9PRPDuYMNE=", "properties": {"ref": "6", "@spider": "dave_and_busters", "amenity": "restaurant", "cuisine": "american", "leisure": "amusement_arcade", "addr:street_address": "1155 N Swift Rd", "addr:city": "Addison", "addr:state": "IL", "addr:postcode": "60101", "addr:country": "US", "name": "Dave & Buster's", "phone": "(630) 543-5151", "website": "https://www.daveandbusters.com/locations/addison", "opening_hours": "Mo-Th 11:30-23:00; Fr-Sa 11:30-02:00; Su 11:30-23:00", "image": "https://www.daveandbusters.com/media/2452/logo_no_shadow.png?quality=60", "brand": "Dave and Busters", "brand:wikidata": "Q5228205", "nsi_id": "daveandbusters-85c92c"}, "geometry": {"type": "Point", "coordinates": [-88.038698, 41.948126]}},
{"type": "Feature", "id": "Cb4nOjZloQuEh2nuGeL42d0Jjfo=", "properties": {"ref": "68", "@spider": "dave_and_busters", "amenity": "restaurant", "cuisine": "american", "leisure": "amusement_arcade", "addr:street_address": "546 North Milwaukee Ave", "addr:city": "Boise", "addr:state": "ID", "addr:postcode": "83704", "addr:country": "US", "name": "Dave & Buster's", "phone": "(208) 901-3800", "website": "https://www.daveandbusters.com/locations/boise", "opening_hours": "Mo-Th 11:30-24:00; Fr 11:30-01:00; Sa 11:00-01:00; Su 11:00-24:00", "image": "https://www.daveandbusters.com/media/2452/logo_no_shadow.png?quality=60", "brand": "Dave and Busters", "brand:wikidata": "Q5228205", "nsi_id": "daveandbusters-85c92c"}, "geometry": {"type": "Point", "coordinates": [-116.283771, 43.609763]}},
{"type": "Feature", "id": "PUyh3Ajy52hO0EB8Kr-81NEXFzM=", "properties": {"ref": "30", "@spider": "dave_and_busters", "amenity": "restaurant", "cuisine": "american", "leisure": "amusement_arcade", "addr:street_address": "1030 Auahi St", "addr:city": "Honolulu", "addr:state": "HI", "addr:postcode": "96814", "addr:country": "US", "name": "Dave & Buster's", "phone": "(808) 589-2215", "website": "https://www.daveandbusters.com/locations/honolulu", "opening_hours": "Mo-Tu 11:00-24:00; We 11:00-02:00; Th 11:00-24:00; Fr-Sa 11:00-02:00; Su 11:00-24:00", "image": "https://www.daveandbusters.com/media/2452/logo_no_shadow.png?quality=60", "brand": "Dave and Busters", "brand:wikidata": "Q5228205", "nsi_id": "daveandbusters-85c92c"}, "geometry": {"type": "Point", "coordinates": [-157.854006, 21.29459]}},
{"type": "Feature", "id": "89kcM6PY7EKkSKzCz4oIci8r-FE=", "properties": {"ref": "140", "@spider": "dave_and_busters", "amenity": "restaurant", "cuisine": "american", "leisure": "amusement_arcade", "addr:street_address": "239 Hwy. 81 W", "addr:city": "McDonough", "addr:state": "GA", "addr:postcode": "30253", "addr:country": "US", "name": "Dave & Buster's", "phone": "(770) 282-3900", "website": "https://www.daveandbusters.com/locations/mcdonough", "opening_hours": "Mo-Th 11:00-24:00; Fr-Sa 11:00-02:00; Su 11:00-24:00", "image": "https://www.daveandbusters.com/media/2452/logo_no_shadow.png?quality=60", "brand": "Dave and Busters", "brand:wikidata": "Q5228205", "nsi_id": "daveandbusters-85c92c"}, "geometry": {"type": "Point", "coordinates": [-84.1922439, 33.4288893]}},
{"type": "Feature", "id": "dbArfL7Y-r30Ew734531O6Q9c-M=", "properties": {"ref": "4", "@spider": "dave_and_busters", "amenity": "restaurant", "cuisine": "american", "leisure": "amusement_arcade", "addr:street_address": "2215 D and B Dr SE", "addr:city": "Marietta", "addr:state": "GA", "addr:postcode": "30067", "addr:country": "US", "name": "Dave & Buster's", "phone": "(770) 951-5554", "website": "https://www.daveandbusters.com/locations/marietta-atlanta", "opening_hours": "Mo-Th 11:30-24:00; Fr-Sa 11:30-01:00; Su 11:30-24:00", "image": "https://www.daveandbusters.com/media/2452/logo_no_shadow.png?quality=60", "brand": "Dave and Busters", "brand:wikidata": "Q5228205", "nsi_id": "daveandbusters-85c92c"}, "geometry": {"type": "Point", "coordinates": [-84.485199, 33.919706]}},
{"type": "Feature", "id": "pNtOhx-75RGyTidEKJGNoLgtfj4=", "properties": {"ref": "45", "@spider": "dave_and_busters", "amenity": "restaurant", "cuisine": "american", "leisure": "amusement_arcade", "addr:street_address": "5900 Sugarloaf Pkwy, Ste 441", "addr:city": "Lawrenceville", "addr:state": "GA", "addr:postcode": "30042", "addr:country": "US", "name": "Dave & Buster's", "phone": "(678) 847-5400", "website": "https://www.daveandbusters.com/locations/lawrenceville-sugarloaf", "opening_hours": "Mo-Th 11:30-24:00; Fr-Sa 11:30-01:00; Su 11:30-24:00", "image": "https://www.daveandbusters.com/media/2452/logo_no_shadow.png?quality=60", "brand": "Dave and Busters", "brand:wikidata": "Q5228205", "nsi_id": "daveandbusters-85c92c"}, "geometry": {"type": "Point", "coordinates": [-84.079082, 33.98049]}},
{"type": "Feature", "id": "kzu2YCp6LggRcLEX-sUort-cwS8=", "properties": {"ref": "108", "@spider": "dave_and_busters", "amenity": "restaurant", "cuisine": "american", "leisure": "amusement_arcade", "addr:street_address": "6500 North Point Pkwy", "addr:city": "Alpharetta", "addr:state": "GA", "addr:postcode": "30022", "addr:country": "US", "name": "Dave & Buster's", "phone": "(678) 256-1100", "website": "https://www.daveandbusters.com/locations/alpharetta", "opening_hours": "Mo-Th 11:00-24:00; Fr-Sa 11:00-01:00; Su 11:00-24:00", "image": "https://www.daveandbusters.com/media/2452/logo_no_shadow.png?quality=60", "brand": "Dave and Busters", "brand:wikidata": "Q5228205", "nsi_id": "daveandbusters-85c92c"}, "geometry": {"type": "Point", "coordinates": [-84.293362, 34.043892]}},
{"type": "Feature", "id": "HDs0O1pAxR3DtT-y4lf7_dzHdOY=", "properties": {"ref": "120", "@spider": "dave_and_busters", "amenity": "restaurant", "cuisine": "american", "leisure": "amusement_arcade", "addr:street_address": "10209 Estuary Lakes Dr", "addr:city": "Tampa", "addr:state": "FL", "addr:postcode": "33619", "addr:country": "US", "name": "Dave & Buster's", "phone": "(813) 603-9700", "website": "https://www.daveandbusters.com/locations/tampa-brandon", "opening_hours": "Mo-Th 11:00-24:00; Fr-Sa 11:00-02:00; Su 11:00-24:00", "image": "https://www.daveandbusters.com/media/2452/logo_no_shadow.png?quality=60", "brand": "Dave and Busters", "brand:wikidata": "Q5228205", "nsi_id": "daveandbusters-85c92c"}, "geometry": {"type": "Point", "coordinates": [-82.334313, 27.936713]}},
{"type": "Feature", "id": "lHJ_q1j9R5GhEwpPAnbx78eFIWA=", "properties": {"ref": "77", "@spider": "dave_and_busters", "amenity": "restaurant", "cuisine": "american", "leisure": "amusement_arcade", "addr:street_address": "15701 LC Hilton Jr Dr", "addr:city": "Panama City Beach", "addr:state": "FL", "addr:postcode": "32413", "addr:country": "US", "name": "Dave & Buster's", "phone": "(850) 238-3501", "website": "https://www.daveandbusters.com/locations/panama-city-beach", "opening_hours": "Mo-Fr 11:00-24:00; Sa 11:00-01:00; Su 11:00-24:00", "image": "https://www.daveandbusters.com/media/2452/logo_no_shadow.png?quality=60", "brand": "Dave and Busters", "brand:wikidata": "Q5228205", "nsi_id": "daveandbusters-85c92c"}, "geometry": {"type": "Point", "coordinates": [-85.873468, 30.21779]}},
{"type": "Feature", "id": "JDMrxLFKS3s2zyCDDhqrnq5yDgw=", "properties": {"ref": "64", "@spider": "dave_and_busters", "amenity": "restaurant", "cuisine": "american", "leisure": "amusement_arcade", "addr:street_address": "8986 International Dr", "addr:city": "Orlando", "addr:state": "FL", "addr:postcode": "32819", "addr:country": "US", "name": "Dave & Buster's", "phone": "(407) 541-3300", "website": "https://www.daveandbusters.com/locations/orlando", "opening_hours": "Mo-Th 11:00-01:00; Fr-Sa 12:00-02:00; Su 11:00-01:00", "image": "https://www.daveandbusters.com/media/2452/logo_no_shadow.png?quality=60", "brand": "Dave and Busters", "brand:wikidata": "Q5228205", "nsi_id": "daveandbusters-85c92c"}, "geometry": {"type": "Point", "coordinates": [-81.473189, 28.436207]}},
{"type": "Feature", "id": "MpuJve_2H6Y2Xk21N1yq_61CFlY=", "properties": {"ref": "59", "@spider": "dave_and_busters", "amenity": "restaurant", "cuisine": "american", "leisure": "amusement_arcade", "addr:street_address": "2201 N Mayfair Rd", "addr:city": "Wauwatosa", "addr:state": "WI", "addr:postcode": "53226", "addr:country": "US", "name": "Dave & Buster's", "phone": "(414) 454-0100", "website": "https://www.daveandbusters.com/locations/wauwatosa", "opening_hours": "Mo-Th 11:00-24:00; Fr-Sa 11:00-01:00; Su 11:00-24:00", "image": "https://www.daveandbusters.com/media/2452/logo_no_shadow.png?quality=60", "brand": "Dave and Busters", "brand:wikidata": "Q5228205", "nsi_id": "daveandbusters-85c92c"}, "geometry": {"type": "Point", "coordinates": [-88.048839, 43.057976]}},
{"type": "Feature", "id": "-moxx9l4r6NPvaC0BrjFFg2Sp58=", "properties": {"ref": "121", "@spider": "dave_and_busters", "amenity": "restaurant", "cuisine": "american", "leisure": "amusement_arcade", "addr:street_address": "414 W Towne Mall", "addr:city": "Madison", "addr:state": "WI", "addr:postcode": "53719", "addr:country": "US", "name": "Dave & Buster's", "phone": "(608) 733-2050", "website": "https://www.daveandbusters.com/locations/madison", "opening_hours": "Mo-Th 11:00-24:00; Fr-Sa 11:00-01:00; Su 11:00-24:00", "image": "https://www.daveandbusters.com/media/2452/logo_no_shadow.png?quality=60", "brand": "Dave and Busters", "brand:wikidata": "Q5228205", "nsi_id": "daveandbusters-85c92c"}, "geometry": {"type": "Point", "coordinates": [-89.5059153, 43.0551447]}},
{"type": "Feature", "id": "DsxedwCzDBFAUjDsfOAEtx0Aw_Q=", "properties": {"ref": "69", "@spider": "dave_and_busters", "amenity": "restaurant", "cuisine": "american", "leisure": "amusement_arcade", "addr:street_address": "701 Lynnhaven Pkwy", "addr:city": "Virginia Beach", "addr:state": "VA", "addr:postcode": "23452", "addr:country": "US", "name": "Dave & Buster's", "phone": "(757) 785-3500", "website": "https://www.daveandbusters.com/locations/virginia-beach", "opening_hours": "Mo-Th 11:00-24:00; Fr-Sa 11:00-02:00; Su 11:00-24:00", "image": "https://www.daveandbusters.com/media/2452/logo_no_shadow.png?quality=60", "brand": "Dave and Busters", "brand:wikidata": "Q5228205", "nsi_id": "daveandbusters-85c92c"}, "geometry": {"type": "Point", "coordinates": [-76.070809, 36.816517]}},
{"type": "Feature", "id": "rr1hHS1VkolkRy2Kv8qxvKmyUXw=", "properties": {"ref": "91", "@spider": "dave_and_busters", "amenity": "restaurant", "cuisine": "american", "leisure": "amusement_arcade", "addr:street_address": "6655 Springfield Mall Rd", "addr:city": "Springfield", "addr:state": "VA", "addr:postcode": "22150", "addr:country": "US", "name": "Dave & Buster's", "phone": "(703) 682-4300", "website": "https://www.daveandbusters.com/locations/springfield", "opening_hours": "Mo-Th 11:00-24:00; Fr-Sa 11:00-02:00; Su 11:00-24:00", "image": "https://www.daveandbusters.com/media/2452/logo_no_shadow.png?quality=60", "brand": "Dave and Busters", "brand:wikidata": "Q5228205", "nsi_id": "daveandbusters-85c92c"}, "geometry": {"type": "Point", "coordinates": [-77.175367, 38.774239]}},
{"type": "Feature", "id": "yZQeVMf4ZemVsC5eUixblSgH-YE=", "properties": {"ref": "55", "@spider": "dave_and_busters", "amenity": "restaurant", "cuisine": "american", "leisure": "amusement_arcade", "addr:street_address": "4001 Brownstone Blvd", "addr:city": "Glen Allen", "addr:state": "VA", "addr:postcode": "23060", "addr:country": "US", "name": "Dave & Buster's", "phone": "(804) 967-7399", "website": "https://www.daveandbusters.com/locations/glen-allen", "opening_hours": "Mo-Tu 11:00-23:00; We-Th 11:00-24:00; Fr-Sa 11:00-01:00; Su 11:00-23:00", "image": "https://www.daveandbusters.com/media/2452/logo_no_shadow.png?quality=60", "brand": "Dave and Busters", "brand:wikidata": "Q5228205", "nsi_id": "daveandbusters-85c92c"}, "geometry": {"type": "Point", "coordinates": [-77.604355, 37.648689]}},
{"type": "Feature", "id": "VptwqY2xKFd7U1PIjrFL2j4q1jM=", "properties": {"ref": "124", "@spider": "dave_and_busters", "amenity": "restaurant", "cuisine": "american", "leisure": "amusement_arcade", "addr:street_address": "140 S Rio Grande St", "addr:city": "Salt Lake City", "addr:state": "UT", "addr:postcode": "84101", "addr:country": "US", "name": "Dave & Buster's", "phone": "(385) 285-7320", "website": "https://www.daveandbusters.com/locations/salt-lake-city", "opening_hours": "Mo-Th 11:00-24:00; Fr-Sa 11:00-01:00; Su 11:00-24:00", "image": "https://www.daveandbusters.com/media/2452/logo_no_shadow.png?quality=60", "brand": "Dave and Busters", "brand:wikidata": "Q5228205", "nsi_id": "daveandbusters-85c92c"}, "geometry": {"type": "Point", "coordinates": [-111.8947334, 40.7561686]}},
{"type": "Feature", "id": "O8bdPJYrnIypd2F4rQnejFm0Zos=", "properties": {"ref": "109", "@spider": "dave_and_busters", "amenity": "restaurant", "cuisine": "american", "leisure": "amusement_arcade", "addr:street_address": "8915 Metropark Drive", "addr:city": "Shenandoah", "addr:state": "TX", "addr:postcode": "77385", "addr:country": "US", "name": "Dave & Buster's", "website": "https://www.daveandbusters.com/locations/mcallen", "opening_hours": "Mo-Th 11:00-24:00; Fr-Sa 11:00-02:00; Su 11:00-24:00", "image": "https://www.daveandbusters.com/media/2452/logo_no_shadow.png?quality=60", "brand": "Dave and Busters", "brand:wikidata": "Q5228205", "nsi_id": "daveandbusters-85c92c"}, "geometry": {"type": "Point", "coordinates": [-98.254238, 26.193722]}},
{"type": "Feature", "id": "NlHtqABsswzhFsl1d1RTETwWOfA=", "properties": {"ref": "83", "@spider": "dave_and_busters", "amenity": "restaurant", "cuisine": "american", "leisure": "amusement_arcade", "addr:street_address": "849 E Commerce St #740", "addr:city": "San Antonio", "addr:state": "TX", "addr:postcode": "78205", "addr:country": "US", "name": "Dave & Buster's", "phone": "(210) 951-3600", "website": "https://www.daveandbusters.com/locations/rivercenter-san-antonio", "opening_hours": "Mo-Th 11:00-24:00; Fr 11:00-02:00; Sa-Su 11:00-24:00", "image": "https://www.daveandbusters.com/media/2452/logo_no_shadow.png?quality=60", "brand": "Dave and Busters", "brand:wikidata": "Q5228205", "nsi_id": "daveandbusters-85c92c"}, "geometry": {"type": "Point", "coordinates": [-98.486824, 29.423841]}},
{"type": "Feature", "id": "cCd7PjCKTyjwOatFltCLjU8j3R8=", "properties": {"ref": "18", "@spider": "dave_and_busters", "amenity": "restaurant", "cuisine": "american", "leisure": "amusement_arcade", "addr:street_address": "440 Crossroads Blvd", "addr:city": "San Antonio", "addr:state": "TX", "addr:postcode": "78201", "addr:country": "US", "name": "Dave & Buster's", "phone": "(210) 515-1515", "website": "https://www.daveandbusters.com/locations/balcones-heights-san-antonio", "opening_hours": "Mo-Th 11:00-24:00; Fr-Sa 11:00-02:00; Su 11:00-24:00", "image": "https://www.daveandbusters.com/media/2452/logo_no_shadow.png?quality=60", "brand": "Dave and Busters", "brand:wikidata": "Q5228205", "nsi_id": "daveandbusters-85c92c"}, "geometry": {"type": "Point", "coordinates": [-98.550286, 29.496332]}},
{"type": "Feature", "id": "LzcH_gp_MWI_n91fI7BxfPOkzS4=", "properties": {"ref": "39", "@spider": "dave_and_busters", "amenity": "restaurant", "cuisine": "american", "leisure": "amusement_arcade", "addr:street_address": "7620 Katy Fwy #100", "addr:city": "Houston", "addr:state": "TX", "addr:postcode": "77024", "addr:country": "US", "name": "Dave & Buster's", "phone": "(713) 263-0303", "website": "http://www.daveandbusters.com/locations/houston-katy-fwy", "opening_hours": "Mo-Th 11:00-24:00; Fr 11:00-02:00; Sa 10:00-02:00; Su 10:00-24:00", "image": "https://www.daveandbusters.com/media/2452/logo_no_shadow.png?quality=60", "brand": "Dave and Busters", "brand:wikidata": "Q5228205", "nsi_id": "daveandbusters-85c92c"}, "geometry": {"type": "Point", "coordinates": [-95.465854, 29.78621]}},
{"type": "Feature", "id": "puQnTMlZ8vmlS9HPbxD3I8QLoKA=", "properties": {"ref": "29", "@spider": "dave_and_busters", "amenity": "restaurant", "cuisine": "american", "leisure": "amusement_arcade", "addr:street_address": "2601 Preston Rd #1200", "addr:city": "Frisco", "addr:state": "TX", "addr:postcode": "75034", "addr:country": "US", "name": "Dave & Buster's", "phone": "(214) 387-0915", "website": "https://www.daveandbusters.com/locations/frisco", "opening_hours": "Mo-Su 11:00-24:00", "image": "https://www.daveandbusters.com/media/2452/logo_no_shadow.png?quality=60", "brand": "Dave and Busters", "brand:wikidata": "Q5228205", "nsi_id": "daveandbusters-85c92c"}, "geometry": {"type": "Point", "coordinates": [-96.811352, 33.099131]}},
{"type": "Feature", "id": "LA4H8138v1KKOTpOYE4S6KF0d0Y=", "properties": {"ref": "89", "@spider": "dave_and_busters", "amenity": "restaurant", "cuisine": "american", "leisure": "amusement_arcade", "addr:street_address": "704 Baybrook Mall Dr", "addr:city": "Friendswood", "addr:state": "TX", "addr:postcode": "77546", "addr:country": "US", "name": "Dave & Buster's", "phone": "(281) 709-0600", "website": "https://www.daveandbusters.com/locations/friendswood", "opening_hours": "Mo-Th 11:00-24:00; Fr-Sa 11:00-02:00; Su 11:00-24:00", "image": "https://www.daveandbusters.com/media/2452/logo_no_shadow.png?quality=60", "brand": "Dave and Busters", "brand:wikidata": "Q5228205", "nsi_id": "daveandbusters-85c92c"}, "geometry": {"type": "Point", "coordinates": [-95.150045, 29.545119]}},
{"type": "Feature", "id": "s8HmgOTBO1Z8W8-ngadSWIbfsJM=", "properties": {"ref": "81", "@spider": "dave_and_busters", "amenity": "restaurant", "cuisine": "american", "leisure": "amusement_arcade", "addr:street_address": "2525 Rio Grande Blvd", "addr:city": "Euless", "addr:state": "TX", "addr:postcode": "76039", "addr:country": "US", "name": "Dave & Buster's", "phone": "(817) 786-1600", "website": "https://www.daveandbusters.com/locations/euless", "opening_hours": "Mo-Th 11:00-24:00; Fr-Sa 11:00-01:00; Su 11:00-24:00", "image": "https://www.daveandbusters.com/media/2452/logo_no_shadow.png?quality=60", "brand": "Dave and Busters", "brand:wikidata": "Q5228205", "nsi_id": "daveandbusters-85c92c"}, "geometry": {"type": "Point", "coordinates": [-97.103197, 32.873599]}},
{"type": "Feature", "id": "3PF1ELwCddOahm83vdeHCg4Xgsg=", "properties": {"ref": "92", "@spider": "dave_and_busters", "amenity": "restaurant", "cuisine": "american", "leisure": "amusement_arcade", "addr:street_address": "6101 Gateway Blvd West #2006", "addr:city": "El Paso", "addr:state": "TX", "addr:postcode": "79925", "addr:country": "US", "name": "Dave & Buster's", "phone": "(915) 304-5400", "website": "https://www.daveandbusters.com/locations/el-paso", "opening_hours": "Mo-Su 11:00-24:00", "image": "https://www.daveandbusters.com/media/2452/logo_no_shadow.png?quality=60", "brand": "Dave and Busters", "brand:wikidata": "Q5228205", "nsi_id": "daveandbusters-85c92c"}, "geometry": {"type": "Point", "coordinates": [-106.412283, 31.784072]}},
{"type": "Feature", "id": "FYFD4HEYyKp7C5byIpm7gf5eMQo=", "properties": {"ref": "62", "@spider": "dave_and_busters", "amenity": "restaurant", "cuisine": "american", "leisure": "amusement_arcade", "addr:street_address": "9450 N Central Expy", "addr:city": "Dallas", "addr:state": "TX", "addr:postcode": "75231", "addr:country": "US", "name": "Dave & Buster's", "phone": "(214) 361-5553", "website": "https://www.daveandbusters.com/locations/dallas", "opening_hours": "Mo-Th 11:00-24:00; Fr-Sa 11:00-02:00; Su 11:00-24:00", "image": "https://www.daveandbusters.com/media/2452/logo_no_shadow.png?quality=60", "brand": "Dave and Busters", "brand:wikidata": "Q5228205", "nsi_id": "daveandbusters-85c92c"}, "geometry": {"type": "Point", "coordinates": [-96.769219, 32.87732]}},
{"type": "Feature", "id": "FA56vwHoFk9e5l9uicyzbf-XP50=", "properties": {"ref": "21", "@spider": "dave_and_busters", "amenity": "restaurant", "cuisine": "american", "leisure": "amusement_arcade", "addr:street_address": "9333 Research Blvd #A600", "addr:city": "Austin", "addr:state": "TX", "addr:postcode": "78759", "addr:country": "US", "name": "Dave & Buster's", "phone": "(512) 346-8015", "website": "https://www.daveandbusters.com/locations/austin", "opening_hours": "Mo-Th 11:00-24:00; Fr-Sa 11:00-02:00; Su 11:00-24:00", "image": "https://www.daveandbusters.com/media/2452/logo_no_shadow.png?quality=60", "brand": "Dave and Busters", "brand:wikidata": "Q5228205", "nsi_id": "daveandbusters-85c92c"}, "geometry": {"type": "Point", "coordinates": [-97.737454, 30.383413]}},
{"type": "Feature", "id": "T-ueienVr3kmSt0U1hm8OmJWpwc=", "properties": {"ref": "54", "@spider": "dave_and_busters", "amenity": "restaurant", "cuisine": "american", "leisure": "amusement_arcade", "addr:street_address": "425 Curtis Mathes Way", "addr:city": "Arlington", "addr:state": "TX", "addr:postcode": "76018", "addr:country": "US", "name": "Dave & Buster's", "phone": "(817) 525-2501", "website": "https://www.daveandbusters.com/locations/arlington", "opening_hours": "Mo-Th 11:00-24:00; Fr-Sa 11:00-01:00; Su 11:00-24:00", "image": "https://www.daveandbusters.com/media/2452/logo_no_shadow.png?quality=60", "brand": "Dave and Busters", "brand:wikidata": "Q5228205", "nsi_id": "daveandbusters-85c92c"}, "geometry": {"type": "Point", "coordinates": [-97.104515, 32.68064]}},
{"type": "Feature", "id": "qO0lNEgp1oOsyOwAxtFnLO4LutI=", "properties": {"ref": "42", "@spider": "dave_and_busters", "amenity": "restaurant", "cuisine": "american", "leisure": "amusement_arcade", "addr:street_address": "540 Opry Mills Dr", "addr:city": "Nashville", "addr:state": "TN", "addr:postcode": "37214", "addr:country": "US", "name": "Dave & Buster's", "phone": "(615) 970-3800", "website": "https://www.daveandbusters.com/locations/nashville", "opening_hours": "Mo-Th 11:00-24:00; Fr-Sa 11:00-01:00; Su 11:00-24:00", "image": "https://www.daveandbusters.com/media/2452/logo_no_shadow.png?quality=60", "brand": "Dave and Busters", "brand:wikidata": "Q5228205", "nsi_id": "daveandbusters-85c92c"}, "geometry": {"type": "Point", "coordinates": [-86.69425, 36.205993]}},
{"type": "Feature", "id": "Dk-mJB4Uy9XnTzsIIj_KAqpdjn0=", "properties": {"ref": "159", "@spider": "dave_and_busters", "amenity": "restaurant", "cuisine": "american", "leisure": "amusement_arcade", "addr:street_address": "2084 Hamilton Place Blvd", "addr:city": "Chattanooga", "addr:state": "TN", "addr:postcode": "37421", "addr:country": "US", "name": "Dave & Buster's", "phone": "(423) 417-3630", "website": "https://www.daveandbusters.com/locations/chattanooga", "opening_hours": "Mo-Th 11:00-24:00; Fr-Sa 11:00-02:00; Su 11:00-24:00", "image": "https://www.daveandbusters.com/media/2452/logo_no_shadow.png?quality=60", "brand": "Dave and Busters", "brand:wikidata": "Q5228205", "nsi_id": "daveandbusters-85c92c"}, "geometry": {"type": "Point", "coordinates": [-85.16114149999999, 35.0328102]}},
{"type": "Feature", "id": "8gFNo8zT71PKdDSuft7DrU-OxNQ=", "properties": {"ref": "107", "@spider": "dave_and_busters", "amenity": "restaurant", "cuisine": "american", "leisure": "amusement_arcade", "addr:street_address": "1322 Celebrity Cir", "addr:city": "Myrtle Beach", "addr:state": "SC", "addr:postcode": "29577", "addr:country": "US", "name": "Dave & Buster's", "phone": "(843) 945-3500", "website": "https://www.daveandbusters.com/locations/myrtle-beach", "opening_hours": "Mo-Fr 11:00-24:00; Sa 11:00-02:00; Su 11:00-24:00", "image": "https://www.daveandbusters.com/media/2452/logo_no_shadow.png?quality=60", "brand": "Dave and Busters", "brand:wikidata": "Q5228205", "nsi_id": "daveandbusters-85c92c"}, "geometry": {"type": "Point", "coordinates": [-78.880736, 33.718252]}},
{"type": "Feature", "id": "MtcojcOXAPK1tl3cRCUcj_niqNM=", "properties": {"ref": "72", "@spider": "dave_and_busters", "amenity": "restaurant", "cuisine": "american", "leisure": "amusement_arcade", "addr:street_address": "1025 Woodruff Rd Suite P101", "addr:city": "Greenville", "addr:state": "SC", "addr:postcode": "29607", "addr:country": "US", "name": "Dave & Buster's", "phone": "(864) 603-6500", "website": "https://www.daveandbusters.com/locations/greenville", "opening_hours": "Mo-Th 11:00-24:00; Fr-Sa 11:00-02:00; Su 11:00-24:00", "image": "https://www.daveandbusters.com/media/2452/logo_no_shadow.png?quality=60", "brand": "Dave and Busters", "brand:wikidata": "Q5228205", "nsi_id": "daveandbusters-85c92c"}, "geometry": {"type": "Point", "coordinates": [-82.304008, 34.833965]}},
{"type": "Feature", "id": "vDbIpEqJnmntTDt5fu07b-FvWD8=", "properties": {"ref": "104", "@spider": "dave_and_busters", "amenity": "restaurant", "cuisine": "american", "leisure": "amusement_arcade", "addr:street_address": "100 Columbiana Circle #5", "addr:city": "Columbia", "addr:state": "SC", "addr:postcode": "29212", "addr:country": "US", "name": "Dave & Buster's", "phone": "(803) 576-4800", "website": "https://www.daveandbusters.com/locations/columbia", "opening_hours": "Mo-Th 11:00-24:00; Fr-Sa 11:00-02:00; Su 11:00-24:00", "image": "https://www.daveandbusters.com/media/2452/logo_no_shadow.png?quality=60", "brand": "Dave and Busters", "brand:wikidata": "Q5228205", "nsi_id": "daveandbusters-85c92c"}, "geometry": {"type": "Point", "coordinates": [-81.156211, 34.076965]}},
{"type": "Feature", "id": "XdZ2icRVJzoo1qkI9EHIFI1LRBk=", "properties": {"ref": "23", "@spider": "dave_and_busters", "amenity": "restaurant", "cuisine": "american", "leisure": "amusement_arcade", "addr:street_address": "40 Providence Pl", "addr:city": "Providence", "addr:state": "RI", "addr:postcode": "2903", "addr:country": "US", "name": "Dave & Buster's", "phone": "(401) 270-4555", "website": "https://www.daveandbusters.com/locations/providence", "opening_hours": "Mo-Th 11:00-24:00; Fr-Sa 11:00-02:00; Su 11:00-24:00", "image": "https://www.daveandbusters.com/media/2452/logo_no_shadow.png?quality=60", "brand": "Dave and Busters", "brand:wikidata": "Q5228205", "nsi_id": "daveandbusters-85c92c"}, "geometry": {"type": "Point", "coordinates": [-71.41721, 41.82796]}},
{"type": "Feature", "id": "BNN4gAXZKlnD8YvOJzMA-CHSVPA=", "properties": {"ref": "113", "@spider": "dave_and_busters", "amenity": "restaurant", "cuisine": "american", "leisure": "amusement_arcade", "addr:street_address": "725 W Main Ave", "addr:city": "Bayam\u00f3n", "addr:postcode": "00961", "addr:country": "PR", "name": "Dave & Buster's", "phone": "(787) 545-7159", "website": "https://www.daveandbusters.com/locations/puerto-rico-bayamon", "opening_hours": "Mo-Th 11:00-24:00; Fr-Sa 11:00-02:00; Su 11:00-24:00", "image": "https://www.daveandbusters.com/media/2452/logo_no_shadow.png?quality=60", "brand": "Dave and Busters", "brand:wikidata": "Q5228205", "nsi_id": "daveandbusters-85c92c"}, "geometry": {"type": "Point", "coordinates": [-66.162035, 18.407037]}},
{"type": "Feature", "id": "679I8ici0K9ZAlyQseMnlGDuoH4=", "properties": {"ref": "53", "@spider": "dave_and_busters", "amenity": "restaurant", "cuisine": "american", "leisure": "amusement_arcade", "addr:street_address": "500 W Germantown Pike #2195", "addr:city": "Plymouth Meeting", "addr:state": "PA", "addr:postcode": "19462", "addr:country": "US", "name": "Dave & Buster's", "phone": "(610) 832-9200", "website": "https://www.daveandbusters.com/locations/plymouth-meeting", "opening_hours": "Mo-Th 11:00-23:00; Fr-Sa 11:00-01:00; Su 11:00-23:00", "image": "https://www.daveandbusters.com/media/2452/logo_no_shadow.png?quality=60", "brand": "Dave and Busters", "brand:wikidata": "Q5228205", "nsi_id": "daveandbusters-85c92c"}, "geometry": {"type": "Point", "coordinates": [-75.283253, 40.115916]}},
{"type": "Feature", "id": "lgsKh5oZdGyQYgXCH53etxjYgj8=", "properties": {"ref": "26", "@spider": "dave_and_busters", "amenity": "restaurant", "cuisine": "american", "leisure": "amusement_arcade", "addr:street_address": "180 E Waterfront Dr", "addr:city": "Homestead", "addr:state": "PA", "addr:postcode": "15120", "addr:country": "US", "name": "Dave & Buster's", "phone": "(412) 462-1500", "website": "https://www.daveandbusters.com/locations/homestead", "opening_hours": "Mo-Th 11:30-24:00; Fr-Sa 11:30-02:00; Su 11:30-24:00", "image": "https://www.daveandbusters.com/media/2452/logo_no_shadow.png?quality=60", "brand": "Dave and Busters", "brand:wikidata": "Q5228205", "nsi_id": "daveandbusters-85c92c"}, "geometry": {"type": "Point", "coordinates": [-79.914154, 40.409301]}},
{"type": "Feature", "id": "_k46CCia7CeMtJMYDece4-vrhCI=", "properties": {"ref": "38", "@spider": "dave_and_busters", "amenity": "restaurant", "cuisine": "american", "leisure": "amusement_arcade", "addr:street_address": "1995 Franklin Mills Cir", "addr:city": "Philadelphia", "addr:state": "PA", "addr:postcode": "19154", "addr:country": "US", "name": "Dave & Buster's", "phone": "(215) 632-0333", "website": "https://www.daveandbusters.com/locations/philadelphia-franklin-mills", "opening_hours": "Mo-Th 11:30-24:00; Fr-Sa 11:30-01:00; Su 11:30-24:00", "image": "https://www.daveandbusters.com/media/2452/logo_no_shadow.png?quality=60", "brand": "Dave and Busters", "brand:wikidata": "Q5228205", "nsi_id": "daveandbusters-85c92c"}, "geometry": {"type": "Point", "coordinates": [-74.960954, 40.091758]}},
{"type": "Feature", "id": "OQQWoLG7M-woWil6LL5ahPyPNio=", "properties": {"ref": "5", "@spider": "dave_and_busters", "amenity": "restaurant", "cuisine": "american", "leisure": "amusement_arcade", "addr:street_address": "325 N Christopher Columbus Blvd", "addr:city": "Philadelphia", "addr:state": "PA", "addr:postcode": "19106", "addr:country": "US", "name": "Dave & Buster's", "phone": "(215) 413-1951", "website": "https://www.daveandbusters.com/locations/philadelphia", "opening_hours": "Mo-Th 11:30-24:00; Fr-Sa 11:30-02:00; Su 11:30-24:00", "image": "https://www.daveandbusters.com/media/2452/logo_no_shadow.png?quality=60", "brand": "Dave and Busters", "brand:wikidata": "Q5228205", "nsi_id": "daveandbusters-85c92c"}, "geometry": {"type": "Point", "coordinates": [-75.137812, 39.956019]}},
{"type": "Feature", "id": "jNEYS1LwDDW_MBX6y73l1RD7ayQ=", "properties": {"ref": "63", "@spider": "dave_and_busters", "amenity": "restaurant", "cuisine": "american", "leisure": "amusement_arcade", "addr:street_address": "11860 SE 82nd Ave #4020", "addr:city": "Happy Valley", "addr:state": "OR", "addr:postcode": "97086", "addr:country": "US", "name": "Dave & Buster's", "phone": "(503) 305-9300", "website": "https://www.daveandbusters.com/locations/happy-valley-clackamas", "opening_hours": "Mo-Th 11:00-24:00; Fr-Sa 11:00-01:00; Su 11:00-24:00", "image": "https://www.daveandbusters.com/media/2452/logo_no_shadow.png?quality=60", "brand": "Dave and Busters", "brand:wikidata": "Q5228205", "nsi_id": "daveandbusters-85c92c"}, "geometry": {"type": "Point", "coordinates": [-122.575064, 45.435043]}},
{"type": "Feature", "id": "Lfq_Tvq0vz-jkVqkA1PHE6U9Ukw=", "properties": {"ref": "56", "@spider": "dave_and_busters", "amenity": "restaurant", "cuisine": "american", "leisure": "amusement_arcade", "addr:street_address": "6812 S 105th E Ave", "addr:city": "Tulsa", "addr:state": "OK", "addr:postcode": "74133", "addr:country": "US", "name": "Dave & Buster's", "phone": "(918) 449-3100", "website": "https://www.daveandbusters.com/locations/tulsa", "opening_hours": "Mo-Th 11:00-24:00; Fr-Sa 11:00-01:00; Su 11:00-24:00", "image": "https://www.daveandbusters.com/media/2452/logo_no_shadow.png?quality=60", "brand": "Dave and Busters", "brand:wikidata": "Q5228205", "nsi_id": "daveandbusters-85c92c"}, "geometry": {"type": "Point", "coordinates": [-95.860598, 36.065145]}},
{"type": "Feature", "id": "G5Mw_HYmUFFyx50FF-s6sFJNhWw=", "properties": {"ref": "66", "@spider": "dave_and_busters", "amenity": "restaurant", "cuisine": "american", "leisure": "amusement_arcade", "addr:street_address": "5501 North May Ave", "addr:city": "Oklahoma City", "addr:state": "OK", "addr:postcode": "73112", "addr:country": "US", "name": "Dave & Buster's", "phone": "(405) 254-9900", "website": "https://www.daveandbusters.com/locations/oklahoma-city", "opening_hours": "Mo-Th 11:00-24:00; Fr-Sa 11:00-02:00; Su 11:00-24:00", "image": "https://www.daveandbusters.com/media/2452/logo_no_shadow.png?quality=60", "brand": "Dave and Busters", "brand:wikidata": "Q5228205", "nsi_id": "daveandbusters-85c92c"}, "geometry": {"type": "Point", "coordinates": [-97.567305, 35.525816]}},
{"type": "Feature", "id": "b9xcMzQY4iBHfOFXMXrww_2l3-4=", "properties": {"ref": "31", "@spider": "dave_and_busters", "amenity": "restaurant", "cuisine": "american", "leisure": "amusement_arcade", "addr:street_address": "25735 1st St", "addr:city": "Westlake", "addr:state": "OH", "addr:postcode": "44145", "addr:country": "US", "name": "Dave & Buster's", "phone": "(440) 892-1415", "website": "https://www.daveandbusters.com/locations/cleveland-westlake", "opening_hours": "Mo-Th 11:30-23:00; Fr-Sa 11:30-01:00; Su 11:30-23:00", "image": "https://www.daveandbusters.com/media/2452/logo_no_shadow.png?quality=60", "brand": "Dave and Busters", "brand:wikidata": "Q5228205", "nsi_id": "daveandbusters-85c92c"}, "geometry": {"type": "Point", "coordinates": [-81.905612, 41.473225]}},
{"type": "Feature", "id": "H3DKXO7L4QRmCFOtRfOIMoJJDIo=", "properties": {"ref": "100", "@spider": "dave_and_busters", "amenity": "restaurant", "cuisine": "american", "leisure": "amusement_arcade", "addr:street_address": "5001 Monroe St", "addr:city": "Toledo", "addr:state": "OH", "addr:postcode": "43623", "addr:country": "US", "name": "Dave & Buster's", "phone": "(419) 481-9800", "website": "https://www.daveandbusters.com/locations/toledo", "opening_hours": "Mo-Th 11:00-24:00; Fr-Sa 11:00-02:00; Su 11:00-24:00", "image": "https://www.daveandbusters.com/media/2452/logo_no_shadow.png?quality=60", "brand": "Dave and Busters", "brand:wikidata": "Q5228205", "nsi_id": "daveandbusters-85c92c"}, "geometry": {"type": "Point", "coordinates": [-83.640496, 41.694604]}},
{"type": "Feature", "id": "KBISuIbVCBG8DtFX1PjE1xBXRlE=", "properties": {"ref": "11", "@spider": "dave_and_busters", "amenity": "restaurant", "cuisine": "american", "leisure": "amusement_arcade", "addr:street_address": "11775 Commons Dr", "addr:city": "Springdale", "addr:state": "OH", "addr:postcode": "45246", "addr:country": "US", "name": "Dave & Buster's", "phone": "(513) 671-5501", "website": "https://www.daveandbusters.com/locations/cincinnati-springdale", "opening_hours": "Mo-Tu 11:00-23:00; We-Th 11:00-24:00; Fr-Sa 11:00-01:00; Su 10:00-23:00", "image": "https://www.daveandbusters.com/media/2452/logo_no_shadow.png?quality=60", "brand": "Dave and Busters", "brand:wikidata": "Q5228205", "nsi_id": "daveandbusters-85c92c"}, "geometry": {"type": "Point", "coordinates": [-84.457277, 39.291669]}},
{"type": "Feature", "id": "PIxYd41Gcdamf5meoP0_jHQB7ks=", "properties": {"ref": "17", "@spider": "dave_and_busters", "amenity": "restaurant", "cuisine": "american", "leisure": "amusement_arcade", "addr:street_address": "3665 Park Mill Run Dr", "addr:city": "Hilliard", "addr:state": "OH", "addr:postcode": "43026", "addr:country": "US", "name": "Dave & Buster's", "phone": "(614) 771-1515", "website": "https://www.daveandbusters.com/locations/hilliard", "opening_hours": "Mo-Th 11:00-24:00; Fr-Sa 11:00-01:00; Su 11:00-24:00", "image": "https://www.daveandbusters.com/media/2452/logo_no_shadow.png?quality=60", "brand": "Dave and Busters", "brand:wikidata": "Q5228205", "nsi_id": "daveandbusters-85c92c"}, "geometry": {"type": "Point", "coordinates": [-83.121315, 40.028017]}},
{"type": "Feature", "id": "v_upvRtsRCUVKZMbJtFNcn7QV0c=", "properties": {"ref": "58", "@spider": "dave_and_busters", "amenity": "restaurant", "cuisine": "american", "leisure": "amusement_arcade", "addr:street_address": "1554 Polaris Pkwy, Ste 206", "addr:city": "Columbus", "addr:state": "OH", "addr:postcode": "43240", "addr:country": "US", "name": "Dave & Buster's", "phone": "(614) 310-6800", "website": "https://www.daveandbusters.com/locations/columbus-polaris", "opening_hours": "Mo-Th 11:30-23:00; Fr-Sa 11:30-01:00; Su 11:30-23:00", "image": "https://www.daveandbusters.com/media/2452/logo_no_shadow.png?quality=60", "brand": "Dave and Busters", "brand:wikidata": "Q5228205", "nsi_id": "daveandbusters-85c92c"}, "geometry": {"type": "Point", "coordinates": [-82.977759, 40.141679]}},
{"type": "Feature", "id": "s_FRfgpr-18En4_6J6NOIir6V2U=", "properties": {"ref": "44", "@spider": "dave_and_busters", "amenity": "restaurant", "cuisine": "american", "leisure": "amusement_arcade", "addr:street_address": "1504 Old Country Rd", "addr:city": "Westbury", "addr:state": "NY", "addr:postcode": "11590", "addr:country": "US", "name": "Dave & Buster's", "phone": "(516) 542-8501", "website": "https://www.daveandbusters.com/locations/westbury", "opening_hours": "Mo-Th 11:00-24:00; Fr-Sa 11:00-02:00; Su 11:00-24:00", "image": "https://www.daveandbusters.com/media/2452/logo_no_shadow.png?quality=60", "brand": "Dave and Busters", "brand:wikidata": "Q5228205", "nsi_id": "daveandbusters-85c92c"}, "geometry": {"type": "Point", "coordinates": [-73.593731, 40.744581]}},
{"type": "Feature", "id": "VQ6qkxC62Wc7lHz_0fJDW6KPjDM=", "properties": {"ref": "15", "@spider": "dave_and_busters", "amenity": "restaurant", "cuisine": "american", "leisure": "amusement_arcade", "addr:street_address": "4661 Palisades Center Dr", "addr:city": "West Nyack", "addr:state": "NY", "addr:postcode": "10994", "addr:country": "US", "name": "Dave & Buster's", "phone": "(845) 353-1555", "website": "https://www.daveandbusters.com/locations/west-nyack", "opening_hours": "Mo-We 11:00-24:00; Th 11:00-01:00; Fr 11:00-02:00; Sa 10:00-02:00; Su 10:00-24:00", "image": "https://www.daveandbusters.com/media/2452/logo_no_shadow.png?quality=60", "brand": "Dave and Busters", "brand:wikidata": "Q5228205", "nsi_id": "daveandbusters-85c92c"}, "geometry": {"type": "Point", "coordinates": [-73.954441, 41.097255]}},
{"type": "Feature", "id": "58KHNaDZ8EV5nd4-8-XxlWWxuG8=", "properties": {"ref": "71", "@spider": "dave_and_busters", "amenity": "restaurant", "cuisine": "american", "leisure": "amusement_arcade", "addr:street_address": "10335 Destiny USA Dr", "addr:city": "Syracuse", "addr:state": "NY", "addr:postcode": "13290", "addr:country": "US", "name": "Dave & Buster's", "phone": "(315) 401-3700", "website": "https://www.daveandbusters.com/locations/syracuse", "opening_hours": "Mo-Th 11:00-24:00; Fr-Sa 11:00-02:00; Su 11:00-24:00", "image": "https://www.daveandbusters.com/media/2452/logo_no_shadow.png?quality=60", "brand": "Dave and Busters", "brand:wikidata": "Q5228205", "nsi_id": "daveandbusters-85c92c"}, "geometry": {"type": "Point", "coordinates": [-76.170846, 43.068422]}},
{"type": "Feature", "id": "4-zMpiJLF6YH8kk0w_IxkTkxqhc=", "properties": {"ref": "130", "@spider": "dave_and_busters", "amenity": "restaurant", "cuisine": "american", "leisure": "amusement_arcade", "addr:street_address": "2655 Richmond Ave", "addr:city": "Staten Island", "addr:state": "NY", "addr:postcode": "10314", "addr:country": "US", "name": "Dave & Buster's", "phone": "(929) 464-2700", "website": "https://www.daveandbusters.com/locations/staten-island", "opening_hours": "Mo-We 11:00-24:00; Th 11:00-01:00; Fr-Sa 11:00-02:00; Su 11:00-24:00", "image": "https://www.daveandbusters.com/media/2452/logo_no_shadow.png?quality=60", "brand": "Dave and Busters", "brand:wikidata": "Q5228205", "nsi_id": "daveandbusters-85c92c"}, "geometry": {"type": "Point", "coordinates": [-74.16696, 40.5822584]}},
{"type": "Feature", "id": "AZ1VCHMDwM6kOhhCmySbGl9eryY=", "properties": {"ref": "93", "@spider": "dave_and_busters", "amenity": "restaurant", "cuisine": "american", "leisure": "amusement_arcade", "addr:street_address": "15 Miracle Mile Dr", "addr:city": "Rochester", "addr:state": "NY", "addr:postcode": "14623", "addr:country": "US", "name": "Dave & Buster's", "phone": "(585) 417-4300", "website": "https://www.daveandbusters.com/locations/rochester", "opening_hours": "Mo-Th 11:00-24:00; Fr-Sa 11:00-02:00; Su 11:00-24:00", "image": "https://www.daveandbusters.com/media/2452/logo_no_shadow.png?quality=60", "brand": "Dave and Busters", "brand:wikidata": "Q5228205", "nsi_id": "daveandbusters-85c92c"}, "geometry": {"type": "Point", "coordinates": [-77.636671, 43.083194]}},
{"type": "Feature", "id": "iEattDIN8WzST7Mkmx9GlvOKQ6Q=", "properties": {"ref": "82", "@spider": "dave_and_busters", "amenity": "restaurant", "cuisine": "american", "leisure": "amusement_arcade", "addr:street_address": "881 Pelham Pkwy", "addr:city": "Pelham Manor", "addr:state": "NY", "addr:postcode": "10803", "addr:country": "US", "name": "Dave & Buster's", "phone": "(914) 380-8500", "website": "https://www.daveandbusters.com/locations/pelham-manor", "opening_hours": "Mo-Su 11:00-24:00", "image": "https://www.daveandbusters.com/media/2452/logo_no_shadow.png?quality=60", "brand": "Dave and Busters", "brand:wikidata": "Q5228205", "nsi_id": "daveandbusters-85c92c"}, "geometry": {"type": "Point", "coordinates": [-73.820794, 40.892028]}},
{"type": "Feature", "id": "EcZK9_PMrBITZlN7FtRyYQfhWOY=", "properties": {"ref": "50", "@spider": "dave_and_busters", "amenity": "restaurant", "cuisine": "american", "leisure": "amusement_arcade", "addr:street_address": "234 W 42nd St, 3rd Floor", "addr:city": "New York City", "addr:state": "NY", "addr:postcode": "10036", "addr:country": "US", "name": "Dave & Buster's", "phone": "(646) 495-2015", "website": "https://www.daveandbusters.com/locations/new-york-city-times-square", "opening_hours": "Mo-Th 10:00-01:00; Fr-Sa 10:00-02:00; Su 10:00-24:00", "image": "https://www.daveandbusters.com/media/2452/logo_no_shadow.png?quality=60", "brand": "Dave and Busters", "brand:wikidata": "Q5228205", "nsi_id": "daveandbusters-85c92c"}, "geometry": {"type": "Point", "coordinates": [-73.988873, 40.756359]}},
{"type": "Feature", "id": "WltiN8D8Zm5PSkuJ7uS6D0TQwRo=", "properties": {"ref": "123", "@spider": "dave_and_busters", "amenity": "restaurant", "cuisine": "american", "leisure": "amusement_arcade", "addr:street_address": "41 Sunrise Mall #2192", "addr:city": "Massapequa", "addr:state": "NY", "addr:postcode": "11758", "addr:country": "US", "name": "Dave & Buster's", "phone": "(516) 809-8511", "website": "https://www.daveandbusters.com/locations/massapequa", "opening_hours": "Mo-Th 11:30-24:00; Fr-Sa 11:30-02:00; Su 11:30-24:00", "image": "https://www.daveandbusters.com/media/2452/logo_no_shadow.png?quality=60", "brand": "Dave and Busters", "brand:wikidata": "Q5228205", "nsi_id": "daveandbusters-85c92c"}, "geometry": {"type": "Point", "coordinates": [-73.43375, 40.6831997]}},
{"type": "Feature", "id": "mbpXX_l_xVUgtp_OxVzcgOEKfOc=", "properties": {"ref": "32", "@spider": "dave_and_busters", "amenity": "restaurant", "cuisine": "american", "leisure": "amusement_arcade", "addr:street_address": "1856 Veterans Memorial Hwy", "addr:city": "Islandia", "addr:state": "NY", "addr:postcode": "11749", "addr:country": "US", "name": "Dave & Buster's", "phone": "(631) 582-6615", "website": "https://www.daveandbusters.com/locations/long-island-islandia", "opening_hours": "Mo-Th 11:00-24:00; Fr-Sa 11:00-01:00; Su 11:00-24:00", "image": "https://www.daveandbusters.com/media/2452/logo_no_shadow.png?quality=60", "brand": "Dave and Busters", "brand:wikidata": "Q5228205", "nsi_id": "daveandbusters-85c92c"}, "geometry": {"type": "Point", "coordinates": [-73.17861, 40.803168]}},
{"type": "Feature", "id": "mMkit9u77aTKa2ioYKQwS14irQY=", "properties": {"ref": "86", "@spider": "dave_and_busters", "amenity": "restaurant", "cuisine": "american", "leisure": "amusement_arcade", "addr:street_address": "1 Galleria Dr", "addr:city": "Buffalo", "addr:state": "NY", "addr:postcode": "14225", "addr:country": "US", "name": "Dave & Buster's", "phone": "(716) 932-2515", "website": "https://www.daveandbusters.com/locations/buffalo", "opening_hours": "Mo-Th 11:00-24:00; Fr-Sa 11:00-01:00; Su 11:00-24:00", "image": "https://www.daveandbusters.com/media/2452/logo_no_shadow.png?quality=60", "brand": "Dave and Busters", "brand:wikidata": "Q5228205", "nsi_id": "daveandbusters-85c92c"}, "geometry": {"type": "Point", "coordinates": [-78.763534, 42.91434]}},
{"type": "Feature", "id": "MvOUjuRvSelD0hVmi4vdVlmS7bk=", "properties": {"ref": "70", "@spider": "dave_and_busters", "amenity": "restaurant", "cuisine": "american", "leisure": "amusement_arcade", "addr:street_address": "1 Crossgate Mall Rd", "addr:city": "Albany", "addr:state": "NY", "addr:postcode": "12203", "addr:country": "US", "name": "Dave & Buster's", "phone": "(518) 313-4500", "website": "https://www.daveandbusters.com/locations/albany", "opening_hours": "Mo-Th 11:00-24:00; Fr-Sa 11:00-02:00; Su 11:00-24:00", "image": "https://www.daveandbusters.com/media/2452/logo_no_shadow.png?quality=60", "brand": "Dave and Busters", "brand:wikidata": "Q5228205", "nsi_id": "daveandbusters-85c92c"}, "geometry": {"type": "Point", "coordinates": [-73.852176, 42.68992]}},
{"type": "Feature", "id": "PISoCeDNF0wViec6VsLYUXqq4P4=", "properties": {"ref": "94", "@spider": "dave_and_busters", "amenity": "restaurant", "cuisine": "american", "leisure": "amusement_arcade", "addr:street_address": "2130 Park Centre Dr, Ste 100", "addr:city": "Las Vegas", "addr:state": "NV", "addr:postcode": "89135", "addr:country": "US", "name": "Dave & Buster's", "phone": "(702) 984-4800", "website": "https://www.daveandbusters.com/locations/las-vegas-summerlin", "opening_hours": "Mo-Th 11:00-24:00; Fr-Sa 11:00-01:00; Su 11:00-24:00", "image": "https://www.daveandbusters.com/media/2452/logo_no_shadow.png?quality=60", "brand": "Dave and Busters", "brand:wikidata": "Q5228205", "nsi_id": "daveandbusters-85c92c"}, "geometry": {"type": "Point", "coordinates": [-115.331832, 36.148732]}},
{"type": "Feature", "id": "Zg_WEFUx_O4kpImL4VwpvP9t75U=", "properties": {"ref": "79", "@spider": "dave_and_busters", "amenity": "restaurant", "cuisine": "american", "leisure": "amusement_arcade", "addr:street_address": "2100 Louisiana Blvd NE", "addr:city": "Albuquerque", "addr:state": "NM", "addr:postcode": "87110", "addr:country": "US", "name": "Dave & Buster's", "phone": "(505) 348-5157", "website": "https://www.daveandbusters.com/locations/albuquerque", "opening_hours": "Mo-Tu 11:00-24:00; We 11:00-01:00; Th 11:00-24:00; Fr-Sa 11:00-01:30; Su 11:00-23:00", "image": "https://www.daveandbusters.com/media/2452/logo_no_shadow.png?quality=60", "brand": "Dave and Busters", "brand:wikidata": "Q5228205", "nsi_id": "daveandbusters-85c92c"}, "geometry": {"type": "Point", "coordinates": [-106.56411, 35.101515]}},
{"type": "Feature", "id": "q9ZSt3MHvsKNpS6T_dbsLUGcekY=", "properties": {"ref": "118", "@spider": "dave_and_busters", "amenity": "restaurant", "cuisine": "american", "leisure": "amusement_arcade", "addr:street_address": "274 Woodbridge Center Dr", "addr:city": "Woodbridge", "addr:state": "NJ", "addr:postcode": "07095", "addr:country": "US", "name": "Dave & Buster's", "phone": "(973) 435-9800", "website": "https://www.daveandbusters.com/locations/middlesex-woodbridge", "opening_hours": "Mo-We 11:00-24:00; Th-Fr 11:00-01:00; Sa-Su 11:00-24:00", "image": "https://www.daveandbusters.com/media/2452/logo_no_shadow.png?quality=60", "brand": "Dave and Busters", "brand:wikidata": "Q5228205", "nsi_id": "daveandbusters-85c92c"}, "geometry": {"type": "Point", "coordinates": [-74.300002, 40.557186]}},
{"type": "Feature", "id": "ZokTaq5qzU53jsS09Ey5SMgUFhw=", "properties": {"ref": "151", "@spider": "dave_and_busters", "amenity": "restaurant", "cuisine": "american", "leisure": "amusement_arcade", "addr:street_address": "200 Premium Outlets Dr", "addr:city": "Blackwood", "addr:state": "NJ", "addr:postcode": "08012", "addr:country": "US", "name": "Dave & Buster's", "phone": "(856) 302-4930", "website": "https://www.daveandbusters.com/locations/Gloucester-blackwood", "opening_hours": "Mo-We 11:00-24:00; Th-Fr 11:00-01:00; Sa-Su 11:00-24:00", "image": "https://www.daveandbusters.com/media/2452/logo_no_shadow.png?quality=60", "brand": "Dave and Busters", "brand:wikidata": "Q5228205", "nsi_id": "daveandbusters-85c92c"}, "geometry": {"type": "Point", "coordinates": [-75.05071, 39.7851]}},
{"type": "Feature", "id": "wMzLlhsKGzIlNaYaZ1Roin-6vT8=", "properties": {"ref": "147", "@spider": "dave_and_busters", "amenity": "restaurant", "cuisine": "american", "leisure": "amusement_arcade", "addr:street_address": "1500 S Willow St Sutie #120", "addr:city": "Manchester", "addr:state": "NH", "addr:postcode": "03103", "addr:country": "US", "name": "Dave & Buster's", "website": "https://www.daveandbusters.com/locations/manchester-new-hampshire", "opening_hours": "Mo-Th 11:00-24:00; Fr-Sa 11:00-02:00; Su 11:00-24:00", "image": "https://www.daveandbusters.com/media/2452/logo_no_shadow.png?quality=60", "brand": "Dave and Busters", "brand:wikidata": "Q5228205", "nsi_id": "daveandbusters-85c92c"}, "geometry": {"type": "Point", "coordinates": [-71.43253379999999, 42.9554768]}},
{"type": "Feature", "id": "5GZDfTtqzAe86YxQl24gbwu6-r4=", "properties": {"ref": "47", "@spider": "dave_and_busters", "amenity": "restaurant", "cuisine": "american", "leisure": "amusement_arcade", "addr:street_address": "2502 S 133rd Plaza, Ste 111", "addr:city": "Omaha", "addr:state": "NE", "addr:postcode": "68144", "addr:country": "US", "name": "Dave & Buster's", "phone": "(402) 778-3915", "website": "https://www.daveandbusters.com/locations/omaha", "opening_hours": "Mo-Th 11:00-24:00; Fr-Sa 11:00-01:00; Su 11:00-24:00", "image": "https://www.daveandbusters.com/media/2452/logo_no_shadow.png?quality=60", "brand": "Dave and Busters", "brand:wikidata": "Q5228205", "nsi_id": "daveandbusters-85c92c"}, "geometry": {"type": "Point", "coordinates": [-96.122969, 41.236356]}},
{"type": "Feature", "id": "bhZ-Z_53mw_MO-5rFhOtdmymeDA=", "properties": {"ref": "111", "@spider": "dave_and_busters", "amenity": "restaurant", "cuisine": "american", "leisure": "amusement_arcade", "addr:street_address": "11049 Carolina Place Pkwy #LS-05", "addr:city": "Pineville", "addr:state": "NC", "addr:postcode": "28134", "addr:country": "US", "name": "Dave & Buster's", "phone": "(704) 969-1600", "website": "https://www.daveandbusters.com/locations/pineville", "opening_hours": "Mo-Th 11:00-24:00; Fr-Sa 11:00-02:00; Su 11:00-24:00", "image": "https://www.daveandbusters.com/media/2452/logo_no_shadow.png?quality=60", "brand": "Dave and Busters", "brand:wikidata": "Q5228205", "nsi_id": "daveandbusters-85c92c"}, "geometry": {"type": "Point", "coordinates": [-80.87754, 35.080856]}},
{"type": "Feature", "id": "Is2luYGfcj4QHW9zch96ZUSbmi0=", "properties": {"ref": "36", "@spider": "dave_and_busters", "amenity": "restaurant", "cuisine": "american", "leisure": "amusement_arcade", "addr:street_address": "8361 Concord Mills Blvd", "addr:city": "Concord", "addr:state": "NC", "addr:postcode": "28027", "addr:country": "US", "name": "Dave & Buster's", "phone": "(704) 979-1700", "website": "https://www.daveandbusters.com/locations/concord", "opening_hours": "Mo-Th 11:00-24:00; Fr-Sa 11:00-02:00; Su 11:00-24:00", "image": "https://www.daveandbusters.com/media/2452/logo_no_shadow.png?quality=60", "brand": "Dave and Busters", "brand:wikidata": "Q5228205", "nsi_id": "daveandbusters-85c92c"}, "geometry": {"type": "Point", "coordinates": [-80.724178, 35.371055]}},
{"type": "Feature", "id": "dWCebOA3NNNGHKCU6hdlW9yMqvU=", "properties": {"ref": "73", "@spider": "dave_and_busters", "amenity": "restaurant", "cuisine": "american", "leisure": "amusement_arcade", "addr:street_address": "1105 Walnut St #E101", "addr:city": "Cary", "addr:state": "NC", "addr:postcode": "27511", "addr:country": "US", "name": "Dave & Buster's", "phone": "(919) 535-6800", "website": "https://www.daveandbusters.com/locations/cary", "opening_hours": "Mo-Th 11:00-24:00; Fr-Sa 11:00-02:00; Su 11:00-24:00", "image": "https://www.daveandbusters.com/media/2452/logo_no_shadow.png?quality=60", "brand": "Dave and Busters", "brand:wikidata": "Q5228205", "nsi_id": "daveandbusters-85c92c"}, "geometry": {"type": "Point", "coordinates": [-78.761228, 35.774377]}},
{"type": "Feature", "id": "1ZneoFzqp2Icxg3emkZMAAIrEZ4=", "properties": {"ref": "20", "@spider": "dave_and_busters", "amenity": "restaurant", "cuisine": "american", "leisure": "amusement_arcade", "addr:street_address": "13857 Riverport Dr", "addr:city": "St. Louis", "addr:state": "MO", "addr:postcode": "63043", "addr:country": "US", "name": "Dave & Buster's", "phone": "(314) 209-8015", "website": "https://www.daveandbusters.com/locations/st-louis-maryland-heights", "opening_hours": "Mo-Th 11:00-24:00; Fr-Sa 11:00-01:00; Su 10:00-23:00", "image": "https://www.daveandbusters.com/media/2452/logo_no_shadow.png?quality=60", "brand": "Dave and Busters", "brand:wikidata": "Q5228205", "nsi_id": "daveandbusters-85c92c"}, "geometry": {"type": "Point", "coordinates": [-90.468329, 38.756188]}},
{"type": "Feature", "id": "bFmI_qc4eOkrBNrDGkMvWe_K5Z0=", "properties": {"ref": "51", "@spider": "dave_and_busters", "amenity": "restaurant", "cuisine": "american", "leisure": "amusement_arcade", "addr:street_address": "11780 Fountains Way", "addr:city": "Maple Grove", "addr:state": "MN", "addr:postcode": "55369", "addr:country": "US", "name": "Dave & Buster's", "phone": "(763) 493-9815", "website": "https://www.daveandbusters.com/locations/maple-grove", "opening_hours": "Mo-Fr 11:00-24:00; Sa 11:00-01:00; Su 11:00-24:00", "image": "https://www.daveandbusters.com/media/2452/logo_no_shadow.png?quality=60", "brand": "Dave and Busters", "brand:wikidata": "Q5228205", "nsi_id": "daveandbusters-85c92c"}, "geometry": {"type": "Point", "coordinates": [-93.428754, 45.093175]}},
{"type": "Feature", "id": "kEkvjIWx3tRHodEi6elWR2zK_m0=", "properties": {"ref": "87", "@spider": "dave_and_busters", "amenity": "restaurant", "cuisine": "american", "leisure": "amusement_arcade", "addr:street_address": "500 Southdale Center", "addr:city": "Edina", "addr:state": "MN", "addr:postcode": "55435", "addr:country": "US", "name": "Dave & Buster's", "phone": "(612) 913-5900", "website": "https://www.daveandbusters.com/locations/edina", "opening_hours": "Mo-Th 11:00-24:00; Fr-Sa 11:00-02:00; Su 11:00-24:00", "image": "https://www.daveandbusters.com/media/2452/logo_no_shadow.png?quality=60", "brand": "Dave and Busters", "brand:wikidata": "Q5228205", "nsi_id": "daveandbusters-85c92c"}, "geometry": {"type": "Point", "coordinates": [-93.326612, 44.880755]}},
{"type": "Feature", "id": "mRhgm9F2s2h4bsbZN5D6muKQfOU=", "properties": {"ref": "13", "@spider": "dave_and_busters", "amenity": "restaurant", "cuisine": "american", "leisure": "amusement_arcade", "addr:street_address": "45511 Park Ave, Ste D", "addr:city": "Utica", "addr:state": "MI", "addr:postcode": "48315", "addr:country": "US", "name": "Dave & Buster's", "phone": "(586) 930-1515", "website": "https://www.daveandbusters.com/locations/utica", "opening_hours": "Mo-Tu 11:00-24:00; We 11:00-01:00; Th 11:00-24:00; Fr-Sa 11:00-02:00; Su 11:00-24:00", "image": "https://www.daveandbusters.com/media/2452/logo_no_shadow.png?quality=60", "brand": "Dave and Busters", "brand:wikidata": "Q5228205", "nsi_id": "daveandbusters-85c92c"}, "geometry": {"type": "Point", "coordinates": [-83.012058, 42.630563]}},
{"type": "Feature", "id": "BrHOIYtJ5EhXv6L4RykwHkETpoc=", "properties": {"ref": "74", "@spider": "dave_and_busters", "amenity": "restaurant", "cuisine": "american", "leisure": "amusement_arcade", "addr:street_address": "19375 Victor Pkwy", "addr:city": "Livonia", "addr:state": "MI", "addr:postcode": "48152", "addr:country": "US", "name": "Dave & Buster's", "phone": "(734) 452-4600", "website": "https://www.daveandbusters.com/locations/livonia", "opening_hours": "Mo-Th 11:00-24:00; Fr-Sa 11:00-02:00; Su 11:00-24:00", "image": "https://www.daveandbusters.com/media/2452/logo_no_shadow.png?quality=60", "brand": "Dave and Busters", "brand:wikidata": "Q5228205", "nsi_id": "daveandbusters-85c92c"}, "geometry": {"type": "Point", "coordinates": [-83.423, 42.428532]}},
{"type": "Feature", "id": "k-6Z0dYpai_eJ5jx6R1Kee29X58=", "properties": {"ref": "85", "@spider": "dave_and_busters", "amenity": "restaurant", "cuisine": "american", "leisure": "amusement_arcade", "addr:street_address": "3660 28th St SE", "addr:city": "Kentwood", "addr:state": "MI", "addr:postcode": "49512", "addr:country": "US", "name": "Dave & Buster's", "phone": "(616) 224-8800", "website": "https://www.daveandbusters.com/locations/kentwood", "opening_hours": "Mo-Th 11:00-24:00; Fr-Sa 11:00-02:00; Su 11:00-24:00", "image": "https://www.daveandbusters.com/media/2452/logo_no_shadow.png?quality=60", "brand": "Dave and Busters", "brand:wikidata": "Q5228205", "nsi_id": "daveandbusters-85c92c"}, "geometry": {"type": "Point", "coordinates": [-85.576956, 42.910468]}},
{"type": "Feature", "id": "vO9fO2b6rt0ebx8K2A4aqW30KuE=", "properties": {"ref": "90", "@spider": "dave_and_busters", "amenity": "restaurant", "cuisine": "american", "leisure": "amusement_arcade", "addr:street_address": "8661 Colesville Rd", "addr:city": "Silver Spring", "addr:state": "MD", "addr:postcode": "20910", "addr:country": "US", "name": "Dave & Buster's", "phone": "(301) 273-2700", "website": "https://www.daveandbusters.com/locations/silver-spring", "opening_hours": "Mo-Fr 11:00-24:00; Sa 11:00-02:00; Su 11:00-24:00", "image": "https://www.daveandbusters.com/media/2452/logo_no_shadow.png?quality=60", "brand": "Dave and Busters", "brand:wikidata": "Q5228205", "nsi_id": "daveandbusters-85c92c"}, "geometry": {"type": "Point", "coordinates": [-77.026964, 38.997068]}},
{"type": "Feature", "id": "rjvJJnX5sDQ9cZ47mWxMsFzpRoY=", "properties": {"ref": "35", "@spider": "dave_and_busters", "amenity": "restaurant", "cuisine": "american", "leisure": "amusement_arcade", "addr:street_address": "7000 Arundel Mills Cir #D-1", "addr:city": "Hanover", "addr:state": "MD", "addr:postcode": "21076", "addr:country": "US", "name": "Dave & Buster's", "phone": "(443) 755-0113", "website": "https://www.daveandbusters.com/locations/hanover-arundel-mills", "opening_hours": "Mo-Th 11:30-24:00; Fr-Sa 11:30-02:00; Su 11:30-24:00", "image": "https://www.daveandbusters.com/media/2452/logo_no_shadow.png?quality=60", "brand": "Dave and Busters", "brand:wikidata": "Q5228205", "nsi_id": "daveandbusters-85c92c"}, "geometry": {"type": "Point", "coordinates": [-76.723468, 39.159285]}},
{"type": "Feature", "id": "Zeimm6lntpxWASK2EttckyrrbAY=", "properties": {"ref": "95", "@spider": "dave_and_busters", "amenity": "restaurant", "cuisine": "american", "leisure": "amusement_arcade", "addr:street_address": "1851 Ritchie Station Ct", "addr:city": "Capitol Heights", "addr:state": "MD", "addr:postcode": "20743", "addr:country": "US", "name": "Dave & Buster's", "phone": "(301) 909-9601", "website": "https://www.daveandbusters.com/locations/capitol-heights", "opening_hours": "Mo-Th 11:00-24:00; Fr-Sa 11:00-02:00; Su 11:00-24:00", "image": "https://www.daveandbusters.com/media/2452/logo_no_shadow.png?quality=60", "brand": "Dave and Busters", "brand:wikidata": "Q5228205", "nsi_id": "daveandbusters-85c92c"}, "geometry": {"type": "Point", "coordinates": [-76.849552, 38.863854]}},
{"type": "Feature", "id": "dtHj7az0UpYzZEwz8hFEUo8GNc8=", "properties": {"ref": "84", "@spider": "dave_and_busters", "amenity": "restaurant", "cuisine": "american", "leisure": "amusement_arcade", "addr:street_address": "271 Mishawum Rd", "addr:city": "Woburn", "addr:state": "MA", "addr:postcode": "01801", "addr:country": "US", "name": "Dave & Buster's", "phone": "(781) 496-4900", "website": "https://www.daveandbusters.com/locations/woburn", "opening_hours": "Mo-Th 11:00-24:00; Fr-Sa 11:00-01:00; Su 11:00-24:00", "image": "https://www.daveandbusters.com/media/2452/logo_no_shadow.png?quality=60", "brand": "Dave and Busters", "brand:wikidata": "Q5228205", "nsi_id": "daveandbusters-85c92c"}, "geometry": {"type": "Point", "coordinates": [-71.138731, 42.502556]}},
{"type": "Feature", "id": "wNz2sks1BmOWOcBBcc9gA7YWsPM=", "properties": {"ref": "61", "@spider": "dave_and_busters", "amenity": "restaurant", "cuisine": "american", "leisure": "amusement_arcade", "addr:street_address": "250 Granite St #1908", "addr:city": "Braintree", "addr:state": "MA", "addr:postcode": "02184", "addr:country": "US", "name": "Dave & Buster's", "phone": "(781) 519-7900", "website": "https://www.daveandbusters.com/locations/braintree", "opening_hours": "Mo-Th 11:00-24:00; Fr-Sa 11:00-01:00; Su 11:00-24:00", "image": "https://www.daveandbusters.com/media/2452/logo_no_shadow.png?quality=60", "brand": "Dave and Busters", "brand:wikidata": "Q5228205", "nsi_id": "daveandbusters-85c92c"}, "geometry": {"type": "Point", "coordinates": [-71.023583, 42.218945]}},
{"type": "Feature", "id": "Dp9leA8FpYp0ezoySEXLTPuzPF8=", "properties": {"ref": "106", "@spider": "dave_and_busters", "amenity": "restaurant", "cuisine": "american", "leisure": "amusement_arcade", "addr:street_address": "1200 Poydras St, Unit 601", "addr:city": "New Orleans", "addr:state": "LA", "addr:postcode": "70113", "addr:country": "US", "name": "Dave & Buster's", "phone": "(504) 226-3300", "website": "https://www.daveandbusters.com/locations/new-orleans", "opening_hours": "Mo-Th 11:00-24:00; Fr-Sa 11:00-02:00; Su 11:00-24:00", "image": "https://www.daveandbusters.com/media/2452/logo_no_shadow.png?quality=60", "brand": "Dave and Busters", "brand:wikidata": "Q5228205", "nsi_id": "daveandbusters-85c92c"}, "geometry": {"type": "Point", "coordinates": [-90.075923, 29.950591]}},
{"type": "Feature", "id": "fbir4WpGs1s9gDFtbOWeQ7zATtw=", "properties": {"ref": "96", "@spider": "dave_and_busters", "amenity": "restaurant", "cuisine": "american", "leisure": "amusement_arcade", "addr:street_address": "781 Heights Blvd", "addr:city": "Florence", "addr:state": "KY", "addr:postcode": "41042", "addr:country": "US", "name": "Dave & Buster's", "phone": "(859) 692-9800", "website": "https://www.daveandbusters.com/locations/florence", "opening_hours": "Mo-Th 11:00-24:00; Fr-Sa 11:00-02:00; Su 11:00-24:00", "image": "https://www.daveandbusters.com/media/2452/logo_no_shadow.png?quality=60", "brand": "Dave and Busters", "brand:wikidata": "Q5228205", "nsi_id": "daveandbusters-85c92c"}, "geometry": {"type": "Point", "coordinates": [-84.645247, 38.98574]}},
{"type": "Feature", "id": "pWkCXOJblppRtjvG5B1YoZFIMVo=", "properties": {"ref": "145", "@spider": "dave_and_busters", "amenity": "restaurant", "cuisine": "american", "leisure": "amusement_arcade", "addr:street_address": "2644 N Greenwich Ct", "addr:city": "Wichita", "addr:state": "KS", "addr:postcode": "67226", "addr:country": "US", "name": "Dave & Buster's", "phone": "(316) 7968550", "website": "https://www.daveandbusters.com/locations/wichita", "opening_hours": "Mo-Th 11:00-24:00; Fr-Sa 11:00-02:00; Su 11:00-24:00", "image": "https://www.daveandbusters.com/media/2452/logo_no_shadow.png?quality=60", "brand": "Dave and Busters", "brand:wikidata": "Q5228205", "nsi_id": "daveandbusters-85c92c"}, "geometry": {"type": "Point", "coordinates": [-97.2098356, 37.7305846]}},
{"type": "Feature", "id": "ayaJV9eMO0REOfYbJLX7cH8xQ3Q=", "properties": {"ref": "101", "@spider": "dave_and_busters", "amenity": "restaurant", "cuisine": "american", "leisure": "amusement_arcade", "addr:street_address": "6811 W 135th St", "addr:city": "Overland Park", "addr:state": "KS", "addr:postcode": "66223", "addr:country": "US", "name": "Dave & Buster's", "phone": "(913) 249-3900", "website": "https://www.daveandbusters.com/locations/overland-park", "opening_hours": "Mo-Th 11:00-24:00; Fr-Sa 11:00-01:00; Su 11:00-24:00", "image": "https://www.daveandbusters.com/media/2452/logo_no_shadow.png?quality=60", "brand": "Dave and Busters", "brand:wikidata": "Q5228205", "nsi_id": "daveandbusters-85c92c"}, "geometry": {"type": "Point", "coordinates": [-94.665691, 38.881395]}},
{"type": "Feature", "id": "sdT8AcGfa1B85r-W0n0cD8MTUJc=", "properties": {"ref": "49", "@spider": "dave_and_busters", "amenity": "restaurant", "cuisine": "american", "leisure": "amusement_arcade", "addr:street_address": "1843 Village W Pkwy, #201", "addr:city": "Kansas City", "addr:state": "KS", "addr:postcode": "66109", "addr:country": "US", "name": "Dave & Buster's", "phone": "(913) 981-6815", "website": "https://www.daveandbusters.com/locations/kansas-city", "opening_hours": "Mo-Th 11:00-24:00; Fr-Sa 11:00-01:00; Su 11:00-24:00", "image": "https://www.daveandbusters.com/media/2452/logo_no_shadow.png?quality=60", "brand": "Dave and Busters", "brand:wikidata": "Q5228205", "nsi_id": "daveandbusters-85c92c"}, "geometry": {"type": "Point", "coordinates": [-94.827097, 39.126717]}},
{"type": "Feature", "id": "jVvAum1SMZXxW4cp7Z-Wvw804Ek=", "properties": {"ref": "57", "@spider": "dave_and_busters", "amenity": "restaurant", "cuisine": "american", "leisure": "amusement_arcade", "addr:street_address": "8350 Castleton Corner Dr", "addr:city": "Indianapolis", "addr:state": "IN", "addr:postcode": "46250", "addr:country": "US", "name": "Dave & Buster's", "phone": "(317) 572-2706", "website": "https://www.daveandbusters.com/locations/indianapolis", "opening_hours": "Mo-Th 11:00-24:00; Fr-Sa 11:00-01:00; Su 11:00-24:00", "image": "https://www.daveandbusters.com/media/2452/logo_no_shadow.png?quality=60", "brand": "Dave and Busters", "brand:wikidata": "Q5228205", "nsi_id": "daveandbusters-85c92c"}, "geometry": {"type": "Point", "coordinates": [-86.073072, 39.908255]}},
{"type": "Feature", "id": "O2YKWMaG1-0WaEY14xHS8ye4LEU=", "properties": {"ref": "156", "@spider": "dave_and_busters", "amenity": "restaurant", "cuisine": "american", "leisure": "amusement_arcade", "addr:street_address": "1251 US Hwy 31N Suite F01B", "addr:city": "Greenwood", "addr:state": "IN", "addr:postcode": "46142", "addr:country": "US", "name": "Dave & Buster's", "phone": "(317) 534-6540", "website": "https://www.daveandbusters.com/locations/greenwood", "opening_hours": "Mo-Th 11:00-24:00; Fr-Sa 11:00-02:00; Su 11:00-24:00", "image": "https://www.daveandbusters.com/media/2452/logo_no_shadow.png?quality=60", "brand": "Dave and Busters", "brand:wikidata": "Q5228205", "nsi_id": "daveandbusters-85c92c"}, "geometry": {"type": "Point", "coordinates": [-86.12489, 39.63309]}},
{"type": "Feature", "id": "u48g_RuRhS3tbqwEQUklfk8dRlU=", "properties": {"ref": "28", "@spider": "dave_and_busters", "amenity": "restaurant", "cuisine": "american", "leisure": "amusement_arcade", "addr:street_address": "11481 NW 12th St #E622", "addr:city": "Miami", "addr:state": "FL", "addr:postcode": "33172", "addr:country": "US", "name": "Dave & Buster's", "phone": "(305) 468-1555", "website": "https://www.daveandbusters.com/locations/miami", "opening_hours": "Mo-Th 11:30-24:00; Fr-Sa 11:30-02:00; Su 11:30-24:00", "image": "https://www.daveandbusters.com/media/2452/logo_no_shadow.png?quality=60", "brand": "Dave and Busters", "brand:wikidata": "Q5228205", "nsi_id": "daveandbusters-85c92c"}, "geometry": {"type": "Point", "coordinates": [-80.38136, 25.787443]}},
{"type": "Feature", "id": "d-K1CdOlCmeY1eMnAj4EPSW836Y=", "properties": {"ref": "22", "@spider": "dave_and_busters", "amenity": "restaurant", "cuisine": "american", "leisure": "amusement_arcade", "addr:street_address": "7025 Salisbury Rd", "addr:city": "Jacksonville", "addr:state": "FL", "addr:postcode": "32256", "addr:country": "US", "name": "Dave & Buster's", "phone": "(904) 296-1525", "website": "https://www.daveandbusters.com/locations/jacksonville", "opening_hours": "Mo-Th 11:00-24:00; Fr-Sa 11:00-01:00; Su 11:00-24:00", "image": "https://www.daveandbusters.com/media/2452/logo_no_shadow.png?quality=60", "brand": "Dave and Busters", "brand:wikidata": "Q5228205", "nsi_id": "daveandbusters-85c92c"}, "geometry": {"type": "Point", "coordinates": [-81.587509, 30.24499]}},
{"type": "Feature", "id": "m_65A6UQSMaIti_AkbRNK-xbzB0=", "properties": {"ref": "8", "@spider": "dave_and_busters", "amenity": "restaurant", "cuisine": "american", "leisure": "amusement_arcade", "addr:street_address": "3000 Oakwood Blvd", "addr:city": "Hollywood", "addr:state": "FL", "addr:postcode": "33020", "addr:country": "US", "name": "Dave & Buster's", "phone": "(954) 923-5505", "website": "https://www.daveandbusters.com/locations/florida-hollywood", "opening_hours": "Mo-Th 11:30-24:00; Fr 11:30-02:00; Sa 11:00-02:00; Su 11:00-24:00", "image": "https://www.daveandbusters.com/media/2452/logo_no_shadow.png?quality=60", "brand": "Dave and Busters", "brand:wikidata": "Q5228205", "nsi_id": "daveandbusters-85c92c"}, "geometry": {"type": "Point", "coordinates": [-80.162288, 26.04017]}},
{"type": "Feature", "id": "sgU5RhSmxgTOs-eEkbvvQH6Q2II=", "properties": {"ref": "80", "@spider": "dave_and_busters", "amenity": "restaurant", "cuisine": "american", "leisure": "amusement_arcade", "addr:street_address": "100 Buckland Hills Dr", "addr:city": "Manchester", "addr:state": "CT", "addr:postcode": "06042", "addr:country": "US", "name": "Dave & Buster's", "phone": "(860) 327-0900", "website": "https://www.daveandbusters.com/locations/manchester", "opening_hours": "Mo-Th 11:00-24:00; Fr-Sa 11:00-02:00; Su 11:00-24:00", "image": "https://www.daveandbusters.com/media/2452/logo_no_shadow.png?quality=60", "brand": "Dave and Busters", "brand:wikidata": "Q5228205", "nsi_id": "daveandbusters-85c92c"}, "geometry": {"type": "Point", "coordinates": [-72.550006, 41.807026]}},
{"type": "Feature", "id": "0l-hahOMZsCzdGh6YA110Pt7RmY=", "properties": {"ref": "25", "@spider": "dave_and_busters", "amenity": "restaurant", "cuisine": "american", "leisure": "amusement_arcade", "addr:street_address": "10667 Westminster Blvd, Ste 100", "addr:city": "Westminster", "addr:state": "CO", "addr:postcode": "80020", "addr:country": "US", "name": "Dave & Buster's", "phone": "(303) 438-1500", "website": "https://www.daveandbusters.com/locations/westminster", "opening_hours": "Mo-Th 11:30-24:00; Fr-Sa 11:30-01:00; Su 11:30-24:00", "image": "https://www.daveandbusters.com/media/2452/logo_no_shadow.png?quality=60", "brand": "Dave and Busters", "brand:wikidata": "Q5228205", "nsi_id": "daveandbusters-85c92c"}, "geometry": {"type": "Point", "coordinates": [-105.069465, 39.890664]}},
{"type": "Feature", "id": "g808TxL1bom2v90mbBOBQZr7Tw0=", "properties": {"ref": "12", "@spider": "dave_and_busters", "amenity": "restaurant", "cuisine": "american", "leisure": "amusement_arcade", "addr:street_address": "2000 S Colorado Blvd", "addr:city": "Denver", "addr:state": "CO", "addr:postcode": "80222", "addr:country": "US", "name": "Dave & Buster's", "phone": "(303) 759-1515", "website": "https://www.daveandbusters.com/locations/denver", "opening_hours": "Mo-Th 11:00-24:00; Fr-Sa 11:00-02:00; Su 11:00-24:00", "image": "https://www.daveandbusters.com/media/2452/logo_no_shadow.png?quality=60", "brand": "Dave and Busters", "brand:wikidata": "Q5228205", "nsi_id": "daveandbusters-85c92c"}, "geometry": {"type": "Point", "coordinates": [-104.93969, 39.680893]}},
{"type": "Feature", "id": "ZC47DMZPW1Nxn-Ogz8abT_tpH8w=", "properties": {"ref": "33", "@spider": "dave_and_busters", "amenity": "restaurant", "cuisine": "american", "leisure": "amusement_arcade", "addr:street_address": "120 Interchange Way", "addr:city": "Vaughan", "addr:state": "ON", "addr:postcode": "L4K 5C3", "addr:country": "CA", "name": "Dave & Buster's", "phone": "(905) 760-7600", "website": "https://www.daveandbusters.com/locations/canada-vaughan", "opening_hours": "Mo-Th 11:30-24:00; Fr-Sa 11:30-02:00; Su 11:30-24:00", "image": "https://www.daveandbusters.com/media/2452/logo_no_shadow.png?quality=60", "brand": "Dave and Busters", "brand:wikidata": "Q5228205", "nsi_id": "daveandbusters-85c92c"}, "geometry": {"type": "Point", "coordinates": [-79.535316, 43.788774]}},
{"type": "Feature", "id": "Sru0flvslCNyct-ilBAS1lZE84M=", "properties": {"ref": "98", "@spider": "dave_and_busters", "amenity": "restaurant", "cuisine": "american", "leisure": "amusement_arcade", "addr:street_address": "2021 Winston Park Dr, Unit E", "addr:city": "Oakville", "addr:state": "ON", "addr:postcode": "L6H 6P5", "addr:country": "CA", "name": "Dave & Buster's", "phone": "(289) 807-0300", "website": "https://www.daveandbusters.com/locations/canada-oakville", "opening_hours": "Mo-Th 11:30-24:00; Fr-Sa 11:30-02:00; Su 11:30-24:00", "image": "https://www.daveandbusters.com/media/2452/logo_no_shadow.png?quality=60", "brand": "Dave and Busters", "brand:wikidata": "Q5228205", "nsi_id": "daveandbusters-85c92c"}, "geometry": {"type": "Point", "coordinates": [-79.667963, 43.50894]}},
{"type": "Feature", "id": "W2fn85WIqdX1ajckfzrDPPIMndA=", "properties": {"ref": "122", "@spider": "dave_and_busters", "amenity": "restaurant", "cuisine": "american", "leisure": "amusement_arcade", "addr:street_address": "21880 Hawthorne Blvd", "addr:city": "Torrance", "addr:state": "CA", "addr:postcode": "90503", "addr:country": "US", "name": "Dave & Buster's", "phone": "(310) 750-9700", "website": "https://www.daveandbusters.com/locations/torrance", "opening_hours": "Mo-Tu 11:00-24:00; We-Th 11:00-01:00; Fr-Sa 11:00-02:00; Su 11:00-24:00", "image": "https://www.daveandbusters.com/media/2452/logo_no_shadow.png?quality=60", "brand": "Dave and Busters", "brand:wikidata": "Q5228205", "nsi_id": "daveandbusters-85c92c"}, "geometry": {"type": "Point", "coordinates": [-118.349194, 33.8281127]}},
{"type": "Feature", "id": "wIVny5lmxAscKx31UM7Dsa3hY_g=", "properties": {"ref": "27", "@spider": "dave_and_busters", "amenity": "restaurant", "cuisine": "american", "leisure": "amusement_arcade", "addr:street_address": "2931 Camino del Rio N", "addr:city": "San Diego", "addr:state": "CA", "addr:postcode": "92108", "addr:country": "US", "name": "Dave & Buster's", "phone": "(619) 280-7115", "website": "https://www.daveandbusters.com/locations/san-diego", "opening_hours": "Mo-Tu 11:00-24:00; We-Sa 11:00-01:00; Su 11:00-24:00", "image": "https://www.daveandbusters.com/media/2452/logo_no_shadow.png?quality=60", "brand": "Dave and Busters", "brand:wikidata": "Q5228205", "nsi_id": "daveandbusters-85c92c"}, "geometry": {"type": "Point", "coordinates": [-117.130996, 32.772589]}},
{"type": "Feature", "id": "SV7KAUmt_hARiG25oVoEqGNwqDE=", "properties": {"ref": "60", "@spider": "dave_and_busters", "amenity": "restaurant", "cuisine": "american", "leisure": "amusement_arcade", "addr:street_address": "1174 Roseville Pkwy", "addr:city": "Roseville", "addr:state": "CA", "addr:postcode": "95678", "addr:country": "US", "name": "Dave & Buster's", "phone": "(916) 772-3400", "website": "https://www.daveandbusters.com/locations/roseville", "opening_hours": "Mo-Th 11:00-24:00; Fr-Sa 11:00-01:00; Su 11:00-24:00", "image": "https://www.daveandbusters.com/media/2452/logo_no_shadow.png?quality=60", "brand": "Dave and Busters", "brand:wikidata": "Q5228205", "nsi_id": "daveandbusters-85c92c"}, "geometry": {"type": "Point", "coordinates": [-121.270121, 38.768311]}},
{"type": "Feature", "id": "Hyd6dBwZnWDRR8260J9P2Wbz9-A=", "properties": {"ref": "16", "@spider": "dave_and_busters", "amenity": "restaurant", "cuisine": "american", "leisure": "amusement_arcade", "addr:street_address": "20 City Blvd W, Bldg G #1", "addr:city": "Orange", "addr:state": "CA", "addr:postcode": "92868", "addr:country": "US", "name": "Dave & Buster's", "phone": "(714) 769-1515", "website": "https://www.daveandbusters.com/locations/california-orange", "opening_hours": "Mo-We 11:00-24:00; Th-Sa 11:00-01:00; Su 11:00-24:00", "image": "https://www.daveandbusters.com/media/2452/logo_no_shadow.png?quality=60", "brand": "Dave and Busters", "brand:wikidata": "Q5228205", "nsi_id": "daveandbusters-85c92c"}, "geometry": {"type": "Point", "coordinates": [-117.89411, 33.784911]}},
{"type": "Feature", "id": "rOthXR6fo6eC5s99RKzKt8uHB3Y=", "properties": {"ref": "10", "@spider": "dave_and_busters", "amenity": "restaurant", "cuisine": "american", "leisure": "amusement_arcade", "addr:street_address": "4821 Mills Circle", "addr:city": "Ontario", "addr:state": "CA", "addr:postcode": "91764", "addr:country": "US", "name": "Dave & Buster's", "phone": "(909) 987-1557", "website": "https://www.daveandbusters.com/locations/california-ontario", "opening_hours": "Mo-Su 11:00-24:00", "image": "https://www.daveandbusters.com/media/2452/logo_no_shadow.png?quality=60", "brand": "Dave and Busters", "brand:wikidata": "Q5228205", "nsi_id": "daveandbusters-85c92c"}, "geometry": {"type": "Point", "coordinates": [-117.548011, 34.072847]}},
{"type": "Feature", "id": "H_wO0TSF1Un0kaJaaaQ22i5Arvo=", "properties": {"ref": "112", "@spider": "dave_and_busters", "amenity": "restaurant", "cuisine": "american", "leisure": "amusement_arcade", "addr:street_address": "9301 Tampa Ave #212", "addr:city": "Northridge", "addr:state": "CA", "addr:postcode": "91324", "addr:country": "US", "name": "Dave & Buster's", "phone": "(818) 739-3100", "website": "https://www.daveandbusters.com/locations/northridge", "opening_hours": "Mo-Th 11:00-01:00; Fr-Sa 11:00-02:00; Su 11:00-01:00", "image": "https://www.daveandbusters.com/media/2452/logo_no_shadow.png?quality=60", "brand": "Dave and Busters", "brand:wikidata": "Q5228205", "nsi_id": "daveandbusters-85c92c"}, "geometry": {"type": "Point", "coordinates": [-118.5555648, 34.2405615]}},
{"type": "Feature", "id": "DIGVOI3or6wFe7I7iBlCycp2Dtw=", "properties": {"ref": "24", "@spider": "dave_and_busters", "amenity": "restaurant", "cuisine": "american", "leisure": "amusement_arcade", "addr:street_address": "940 Great Mall Dr", "addr:city": "Milpitas", "addr:state": "CA", "addr:postcode": "95035", "addr:country": "US", "name": "Dave & Buster's", "phone": "(408) 957-9215", "website": "https://www.daveandbusters.com/locations/milpitas", "opening_hours": "Mo-Tu 11:00-24:00; We-Th 11:00-01:00; Fr 11:00-02:00; Sa 10:00-02:00; Su 09:30-24:00", "image": "https://www.daveandbusters.com/media/2452/logo_no_shadow.png?quality=60", "brand": "Dave and Busters", "brand:wikidata": "Q5228205", "nsi_id": "daveandbusters-85c92c"}, "geometry": {"type": "Point", "coordinates": [-121.897223, 37.412894]}},
{"type": "Feature", "id": "FY47cKHFA9KU4k2di5TGtKUapvc=", "properties": {"ref": "75", "@spider": "dave_and_busters", "amenity": "restaurant", "cuisine": "american", "leisure": "amusement_arcade", "addr:street_address": "6081 Center Dr", "addr:city": "Los Angeles", "addr:state": "CA", "addr:postcode": "90045", "addr:country": "US", "name": "Dave & Buster's", "phone": "(310) 846-9950", "website": "https://www.daveandbusters.com/locations/los-angeles-westchester", "opening_hours": "Mo-We 11:00-24:00; Th-Sa 11:00-01:00; Su 11:00-24:00", "image": "https://www.daveandbusters.com/media/2452/logo_no_shadow.png?quality=60", "brand": "Dave and Busters", "brand:wikidata": "Q5228205", "nsi_id": "daveandbusters-85c92c"}, "geometry": {"type": "Point", "coordinates": [-118.391541, 33.977608]}},
{"type": "Feature", "id": "7jmKU-BYWJWdM_d1BH2U58NHQBY=", "properties": {"ref": "78", "@spider": "dave_and_busters", "amenity": "restaurant", "cuisine": "american", "leisure": "amusement_arcade", "addr:street_address": "6801 Hollywood Blvd #343", "addr:city": "Los Angeles", "addr:state": "CA", "addr:postcode": "92028", "addr:country": "US", "name": "Dave & Buster's", "phone": "(323) 603-2400", "website": "https://www.daveandbusters.com/locations/los-angeles-hollywood", "opening_hours": "Mo-Tu 11:00-24:00; We-Th 11:00-01:00; Fr-Sa 11:00-02:00; Su 11:00-01:00", "image": "https://www.daveandbusters.com/media/2452/logo_no_shadow.png?quality=60", "brand": "Dave and Busters", "brand:wikidata": "Q5228205", "nsi_id": "daveandbusters-85c92c"}, "geometry": {"type": "Point", "coordinates": [-118.339165, 34.102145]}},
{"type": "Feature", "id": "DmWrFWdA3-iqiIKYIEAJ-XwfDD8=", "properties": {"ref": "14", "@spider": "dave_and_busters", "amenity": "restaurant", "cuisine": "american", "leisure": "amusement_arcade", "addr:street_address": "661 Spectrum Center Dr", "addr:city": "Irvine", "addr:state": "CA", "addr:postcode": "92618", "addr:country": "US", "name": "Dave & Buster's", "phone": "(949) 727-0555", "website": "https://www.daveandbusters.com/locations/irvine", "opening_hours": "Mo-We 11:00-24:00; Th-Sa 11:00-01:00; Su 11:00-24:00", "image": "https://www.daveandbusters.com/media/2452/logo_no_shadow.png?quality=60", "brand": "Dave and Busters", "brand:wikidata": "Q5228205", "nsi_id": "daveandbusters-85c92c"}, "geometry": {"type": "Point", "coordinates": [-117.743602, 33.650782]}},
{"type": "Feature", "id": "Fo95kw2K7vs9mLZdFZsbZ0i7dRo=", "properties": {"ref": "88", "@spider": "dave_and_busters", "amenity": "restaurant", "cuisine": "american", "leisure": "amusement_arcade", "addr:street_address": "212 E River Park Circle", "addr:city": "Fresno", "addr:state": "CA", "addr:postcode": "93720", "addr:country": "US", "name": "Dave & Buster's", "phone": "(559) 650-5100", "website": "https://www.daveandbusters.com/locations/fresno", "opening_hours": "Mo-Th 11:00-24:00; Fr-Sa 11:00-01:00; Su 11:00-24:00", "image": "https://www.daveandbusters.com/media/2452/logo_no_shadow.png?quality=60", "brand": "Dave and Busters", "brand:wikidata": "Q5228205", "nsi_id": "daveandbusters-85c92c"}, "geometry": {"type": "Point", "coordinates": [-119.786518, 36.854923]}},
{"type": "Feature", "id": "wRFFFZQ_OvndqleBPOfg9sd5e_Y=", "properties": {"ref": "102", "@spider": "dave_and_busters", "amenity": "restaurant", "cuisine": "american", "leisure": "amusement_arcade", "addr:street_address": "130 Serramonte Center", "addr:city": "Daly City", "addr:state": "CA", "addr:postcode": "94015", "addr:country": "US", "name": "Dave & Buster's", "phone": "(415) 840-9300", "website": "https://www.daveandbusters.com/locations/daly-city", "opening_hours": "Mo-Th 11:00-24:00; Fr-Sa 11:00-02:00; Su 11:00-24:00", "image": "https://www.daveandbusters.com/media/2452/logo_no_shadow.png?quality=60", "brand": "Dave and Busters", "brand:wikidata": "Q5228205", "nsi_id": "daveandbusters-85c92c"}, "geometry": {"type": "Point", "coordinates": [-122.471179, 37.671117]}},
{"type": "Feature", "id": "DWgYO-nhNg0RU2QfdVj4zlzsZaw=", "properties": {"ref": "103", "@spider": "dave_and_busters", "amenity": "restaurant", "cuisine": "american", "leisure": "amusement_arcade", "addr:street_address": "2501 El Camino Real, Ste 140", "addr:city": "Carlsbad", "addr:state": "CA", "addr:postcode": "92008", "addr:country": "US", "name": "Dave & Buster's", "phone": "(760) 576-3800", "website": "https://www.daveandbusters.com/locations/carlsbad", "opening_hours": "Mo-Th 11:00-24:00; Fr-Sa 11:00-01:00; Su 11:00-24:00", "image": "https://www.daveandbusters.com/media/2452/logo_no_shadow.png?quality=60", "brand": "Dave and Busters", "brand:wikidata": "Q5228205", "nsi_id": "daveandbusters-85c92c"}, "geometry": {"type": "Point", "coordinates": [-117.329036, 33.178551]}},
{"type": "Feature", "id": "yJ5tgTonFWm4xq6eZP4_6p-_7xM=", "properties": {"ref": "34", "@spider": "dave_and_busters", "amenity": "restaurant", "cuisine": "american", "leisure": "amusement_arcade", "addr:street_address": "400 S Baldwin Ave #930U", "addr:city": "Arcadia", "addr:state": "CA", "addr:postcode": "91007", "addr:country": "US", "name": "Dave & Buster's", "phone": "(626) 802-6115", "website": "https://www.daveandbusters.com/locations/arcadia-santa-anita", "opening_hours": "Mo-Th 11:00-24:00; Fr-Sa 11:00-01:00; Su 11:00-24:00", "image": "https://www.daveandbusters.com/media/2452/logo_no_shadow.png?quality=60", "brand": "Dave and Busters", "brand:wikidata": "Q5228205", "nsi_id": "daveandbusters-85c92c"}, "geometry": {"type": "Point", "coordinates": [-118.049415, 34.135857]}},
{"type": "Feature", "id": "0f2SaYw0yPXR8ICPKfkuEENObLo=", "properties": {"ref": "105", "@spider": "dave_and_busters", "amenity": "restaurant", "cuisine": "american", "leisure": "amusement_arcade", "addr:street_address": "1390 E Tucson Marketplace Blvd", "addr:city": "Tucson", "addr:state": "AZ", "addr:postcode": "85713", "addr:country": "US", "name": "Dave & Buster's", "phone": "(520) 330-3400", "website": "https://www.daveandbusters.com/locations/tucson", "opening_hours": "Mo-Th 11:00-24:00; Fr-Sa 11:00-01:00; Su 10:00-24:00", "image": "https://www.daveandbusters.com/media/2452/logo_no_shadow.png?quality=60", "brand": "Dave and Busters", "brand:wikidata": "Q5228205", "nsi_id": "daveandbusters-85c92c"}, "geometry": {"type": "Point", "coordinates": [-110.951522, 32.182617]}},
{"type": "Feature", "id": "fXd_6yqJVTc2VGTcMqjuxyyxUZ4=", "properties": {"ref": "52", "@spider": "dave_and_busters", "amenity": "restaurant", "cuisine": "american", "leisure": "amusement_arcade", "addr:street_address": "2000 E Rio Salado Pkwy", "addr:city": "Tempe", "addr:state": "AZ", "addr:postcode": "85281", "addr:country": "US", "name": "Dave & Buster's", "phone": "(480) 281-8456", "website": "https://www.daveandbusters.com/locations/tempe", "opening_hours": "Mo-Th 11:00-24:00; Fr-Sa 11:00-01:00; Su 10:00-24:00", "image": "https://www.daveandbusters.com/media/2452/logo_no_shadow.png?quality=60", "brand": "Dave and Busters", "brand:wikidata": "Q5228205", "nsi_id": "daveandbusters-85c92c"}, "geometry": {"type": "Point", "coordinates": [-111.901366, 33.433939]}},
{"type": "Feature", "id": "w8XADfeeIriyBO0WDL1l10yWwEo=", "properties": {"ref": "43", "@spider": "dave_and_busters", "amenity": "restaurant", "cuisine": "american", "leisure": "amusement_arcade", "addr:street_address": "21001 N Tatum Blvd, Ste 44-1400", "addr:city": "Phoenix", "addr:state": "AZ", "addr:postcode": "85050", "addr:country": "US", "name": "Dave & Buster's", "phone": "(480) 538-8956", "website": "https://www.daveandbusters.com/locations/phoenix-scottsdale", "opening_hours": "Mo-Th 11:30-24:00; Fr 11:30-01:00; Sa 10:00-01:00; Su 11:00-24:00", "image": "https://www.daveandbusters.com/media/2452/logo_no_shadow.png?quality=60", "brand": "Dave and Busters", "brand:wikidata": "Q5228205", "nsi_id": "daveandbusters-85c92c"}, "geometry": {"type": "Point", "coordinates": [-111.976903, 33.674799]}},
{"type": "Feature", "id": "0y5_n7ugW14VWv-0Nfiq9aVZ_uA=", "properties": {"ref": "97", "@spider": "dave_and_busters", "amenity": "restaurant", "cuisine": "american", "leisure": "amusement_arcade", "addr:street_address": "10900 Bass Pro Pkwy", "addr:city": "Little Rock", "addr:state": "AR", "addr:postcode": "72210", "addr:country": "US", "name": "Dave & Buster's", "phone": "(501) 777-3800", "website": "https://www.daveandbusters.com/locations/little-rock", "opening_hours": "Mo-Th 11:00-24:00; Fr-Sa 11:00-02:00; Su 11:00-24:00", "image": "https://www.daveandbusters.com/media/2452/logo_no_shadow.png?quality=60", "brand": "Dave and Busters", "brand:wikidata": "Q5228205", "nsi_id": "daveandbusters-85c92c"}, "geometry": {"type": "Point", "coordinates": [-92.406744, 34.663438]}}]}