{"type":"FeatureCollection","features":[{"type": "Feature", "id": "A8g6CIoiesyN5hD17GPk8XUjMxE=", "properties": {"ref": "144", "@spider": "davidstea", "shop": "tea", "addr:street_address": "999 Upper Wentworth Street, Unit 0117", "addr:city": "Hamilton", "addr:state": "Hamilton", "addr:postcode": "L9A 4X5", "addr:country": "CA", "name": "DAVIDsTEA - Lime Ridge", "phone": "+1 905-388-3586", "website": "https://locations.davidstea.com/fr/on-hamilton-144", "opening_hours": "Mo-Fr 10:00-21:00; Sa 09:30-18:00; Su 11:00-18:00", "brand": "David's Tea", "brand:wikidata": "Q3019129", "nsi_id": "davidstea-12e931"}, "geometry": {"type": "Point", "coordinates": [-79.86152257, 43.21777246]}},
{"type": "Feature", "id": "5fZj2v5SySIX2K0SZl9j4mxMvM8=", "properties": {"ref": "189", "@spider": "davidstea", "shop": "tea", "addr:street_address": "220 Yonge Street, #1030, Toronto Eaton Centre", "addr:city": "Toronto", "addr:state": "Toronto", "addr:postcode": "M5B 2H1", "addr:country": "CA", "name": "DAVIDsTEA - Toronto Eaton Centre", "phone": "+1 416-979-0401", "website": "https://locations.davidstea.com/fr/on-toronto-189", "opening_hours": "Mo-Sa 10:00-20:00; Su 11:00-19:00", "brand": "David's Tea", "brand:wikidata": "Q3019129", "nsi_id": "davidstea-12e931"}, "geometry": {"type": "Point", "coordinates": [-79.38100776, 43.65520544]}},
{"type": "Feature", "id": "x94u_Kl8Msjpd6klhAYXWgWZSt8=", "properties": {"ref": "151", "@spider": "davidstea", "shop": "tea", "addr:street_address": "50 Rideau Street, Unit 294, Rideau Centre", "addr:city": "Ottawa", "addr:state": "Ottawa", "addr:postcode": "K1N 9J7", "addr:country": "CA", "name": "DAVIDsTEA - Rideau Centre", "phone": "+1 613-567-6197", "website": "https://locations.davidstea.com/fr/on-ottawa-151", "opening_hours": "Mo-Sa 10:00-21:00; Su 11:00-18:00", "brand": "David's Tea", "brand:wikidata": "Q3019129", "nsi_id": "davidstea-12e931"}, "geometry": {"type": "Point", "coordinates": [-75.69147569, 45.42556256]}},
{"type": "Feature", "id": "HFQ2cJNlV44g4NNiva2-8r6Q1hI=", "properties": {"ref": "027", "@spider": "davidstea", "shop": "tea", "addr:street_address": "25 The West Mall, Unit 1786A", "addr:city": "Toronto", "addr:state": "Toronto", "addr:postcode": "M9C 1B8", "addr:country": "CA", "name": "DAVIDsTEA - Sherway Gardens", "phone": "+1 416-626-7878", "website": "https://locations.davidstea.com/fr/ontario-toronto-027", "opening_hours": "Mo-We 10:00-20:00; Th-Sa 10:00-21:00; Su 11:00-18:00", "brand": "David's Tea", "brand:wikidata": "Q3019129", "nsi_id": "davidstea-12e931"}, "geometry": {"type": "Point", "coordinates": [-79.55712319, 43.61180796]}},
{"type": "Feature", "id": "c4BJ3x6m-KV1MoZ47Vghei9TGsw=", "properties": {"ref": "009", "@spider": "davidstea", "shop": "tea", "addr:street_address": "6801 Route Transcanadienne, Fairview Pointe Claire", "addr:city": "Pointe-Claire", "addr:state": "Pointe-Claire", "addr:postcode": "H9R 5J2", "addr:country": "CA", "name": "DAVIDsTEA - Fairview Pointe Claire", "phone": "+1 514-697-3331", "website": "https://locations.davidstea.com/fr/quebec-pointe-claire-009", "opening_hours": "Mo-Tu 10:00-18:00; We-Fr 10:00-21:00; Sa 09:00-17:00; Su 10:00-17:00", "brand": "David's Tea", "brand:wikidata": "Q3019129", "nsi_id": "davidstea-12e931"}, "geometry": {"type": "Point", "coordinates": [-73.83232245, 45.46302387]}},
{"type": "Feature", "id": "Vhb-479WEf-_rDM6Ba4-cZUqcMc=", "properties": {"ref": "231", "@spider": "davidstea", "shop": "tea", "addr:street_address": "3150 Boulevard de la Gare, Unit 124", "addr:city": "Vaudreuil-Dorion", "addr:state": "Vaudreuil-Dorion", "addr:postcode": "J7V 8W5", "addr:country": "CA", "name": "DAVIDsTEA - Les Avenues Vaudreuil", "phone": "+1 450-455-5824", "website": "https://locations.davidstea.com/fr/qc-vaudreuil-dorion-231", "opening_hours": "Mo-We 10:00-19:00; Th-Fr 10:00-21:00; Sa-Su 10:00-17:00", "brand": "David's Tea", "brand:wikidata": "Q3019129", "nsi_id": "davidstea-12e931"}, "geometry": {"type": "Point", "coordinates": [-74.0484515, 45.4036477]}},
{"type": "Feature", "id": "gCf99KDLSMy0ObBCcXtwYRcn5uY=", "properties": {"ref": "1000", "@spider": "davidstea", "shop": "tea", "addr:street_address": "5430 Rue Ferrier, null", "addr:city": "Mont-Royal", "addr:state": "Mont-Royal", "addr:postcode": "H4P 1M2", "addr:country": "CA", "name": "DAVIDsTEA Corporate Office", "phone": "+1 888-873-0006", "website": "https://locations.davidstea.com/fr/qc-montreal-1000", "opening_hours": "Mo-Fr 09:00-17:00", "brand": "David's Tea", "brand:wikidata": "Q3019129", "nsi_id": "davidstea-12e931"}, "geometry": {"type": "Point", "coordinates": [-73.6594831, 45.494936]}},
{"type": "Feature", "id": "8iUkiSKJO5Te0Vmxk_jOdEs3aO0=", "properties": {"ref": "008", "@spider": "davidstea", "shop": "tea", "addr:street_address": "3035 Boulevard le Carrefour, Unit M012", "addr:city": "Laval", "addr:state": "Laval", "addr:postcode": "H7T 1C7", "addr:country": "CA", "name": "DAVIDsTEA - Carrefour Laval", "phone": "+1 450-681-0776", "website": "https://locations.davidstea.com/fr/quebec-laval-008", "opening_hours": "Mo-We 10:00-18:00; Th-Fr 10:00-21:00; Sa 09:00-17:00; Su 10:00-17:00", "brand": "David's Tea", "brand:wikidata": "Q3019129", "nsi_id": "davidstea-12e931"}, "geometry": {"type": "Point", "coordinates": [-73.75313634, 45.57117651]}},
{"type": "Feature", "id": "KOAPe_rVSmPCjwSZEUdLbgEXCWw=", "properties": {"ref": "283", "@spider": "davidstea", "shop": "tea", "addr:street_address": "705 Rue Sainte-Catherine Ouest, Unit C-23, Montreal Eaton Centre", "addr:city": "Montr\u00e9al", "addr:state": "Montr\u00e9al", "addr:postcode": "H3B 4G5", "addr:country": "CA", "name": "DAVIDsTEA - Montreal Eaton Centre", "phone": "+1 438-350-4091", "website": "https://locations.davidstea.com/fr/quebec-montreal-283", "opening_hours": "Mo-We 10:00-18:00; Th-Fr 10:00-20:00; Sa 10:00-17:00; Su 11:00-17:00", "brand": "David's Tea", "brand:wikidata": "Q3019129", "nsi_id": "davidstea-12e931"}, "geometry": {"type": "Point", "coordinates": [-73.5711834, 45.50261075]}},
{"type": "Feature", "id": "JKobocvLsALF8uXohRBi6m6igiQ=", "properties": {"ref": "044", "@spider": "davidstea", "shop": "tea", "addr:street_address": "246 Boulevard des Promenades, null", "addr:city": "Saint-Bruno-de-Montarville", "addr:state": "Saint-Bruno-de-Montarville", "addr:postcode": "J3V 5K1", "addr:country": "CA", "name": "DAVIDsTEA - Promenades St-Bruno", "phone": "+1 450-441-2478", "website": "https://locations.davidstea.com/fr/quebec-saint-bruno-de-montarville-044", "opening_hours": "Mo-We 10:00-18:00; Th-Fr 10:00-21:00; Sa 09:00-17:00; Su 10:00-17:00", "brand": "David's Tea", "brand:wikidata": "Q3019129", "nsi_id": "davidstea-12e931"}, "geometry": {"type": "Point", "coordinates": [-73.3784828, 45.5051754]}},
{"type": "Feature", "id": "yYT7ehkclUAvaQ7A3l8CzWjdnY0=", "properties": {"ref": "080", "@spider": "davidstea", "shop": "tea", "addr:street_address": "7999 Boulevard des Galeries d'Anjou, Unit R003", "addr:city": "Anjou", "addr:state": "Anjou", "addr:postcode": "H1M 1W9", "addr:country": "CA", "name": "DAVIDsTEA - Les Galeries d'Anjou", "phone": "+1 514-353-0571", "website": "https://locations.davidstea.com/fr/quebec-anjou-080", "opening_hours": "Mo-We 10:00-18:00; Th-Fr 10:00-21:00; Sa-Su 10:00-17:00", "brand": "David's Tea", "brand:wikidata": "Q3019129", "nsi_id": "davidstea-12e931"}, "geometry": {"type": "Point", "coordinates": [-73.564517, 45.6005181]}},
{"type": "Feature", "id": "a9qH6MwaVjAobc2r0YS8-sPcLJk=", "properties": {"ref": "094", "@spider": "davidstea", "shop": "tea", "addr:street_address": "701 West Georgia Street, #038D", "addr:city": "Vancouver", "addr:state": "Vancouver", "addr:postcode": "V7Y 1G5", "addr:country": "CA", "name": "DAVIDsTEA - Pacific Centre", "phone": "+1 604-669-7718", "website": "https://locations.davidstea.com/en/british-columbia-vancouver-094", "opening_hours": "Mo-We 10:00-19:00; Th-Fr 10:00-21:00; Sa 10:00-20:00; Su 11:00-19:00", "brand": "David's Tea", "brand:wikidata": "Q3019129", "nsi_id": "davidstea-12e931"}, "geometry": {"type": "Point", "coordinates": [-123.11705058, 49.2838079]}},
{"type": "Feature", "id": "IRUZveD7Vk7xkXMim19vB0zTXP8=", "properties": {"ref": "011", "@spider": "davidstea", "shop": "tea", "addr:street_address": "477 Paul Street, null", "addr:city": "Dieppe", "addr:state": "Dieppe", "addr:postcode": "E1A 4X5", "addr:country": "CA", "name": "DAVIDsTEA - Champlain Place", "phone": "+1 506-858-8806", "website": "https://locations.davidstea.com/fr/new-brunswick-dieppe-011", "opening_hours": "Mo-Tu 10:00-18:00; We-Fr 10:00-21:00; Sa 10:00-18:00; Su 11:00-17:00", "brand": "David's Tea", "brand:wikidata": "Q3019129", "nsi_id": "davidstea-12e931"}, "geometry": {"type": "Point", "coordinates": [-64.76048005, 46.09595097]}},
{"type": "Feature", "id": "8asbA2OjYKdVAZJhQyXKV5e5iwE=", "properties": {"ref": "025", "@spider": "davidstea", "shop": "tea", "addr:street_address": "5401 Boulevard des Galeries, Unit 184, Les Galeries de la Capitale", "addr:city": "Quebec City", "addr:state": "Quebec City", "addr:postcode": "G2K 1N4", "addr:country": "CA", "name": "DAVIDsTEA - Les Galeries de la Capitale", "phone": "+1 418-624-1333", "website": "https://locations.davidstea.com/fr/quebec-quebec-city-025", "opening_hours": "Mo-We 10:00-18:00; Th-Fr 10:00-21:00; Sa 09:00-17:00; Su 10:00-17:00", "brand": "David's Tea", "brand:wikidata": "Q3019129", "nsi_id": "davidstea-12e931"}, "geometry": {"type": "Point", "coordinates": [-71.29928946, 46.83081448]}},
{"type": "Feature", "id": "zO3MDCgQzz3NEZ-rSnld0P2oETc=", "properties": {"ref": "117", "@spider": "davidstea", "shop": "tea", "addr:street_address": "6455 Macleod Trail Southwest, Unit 259Z", "addr:city": "Calgary", "addr:state": "Calgary", "addr:postcode": "T2H 0K3", "addr:country": "CA", "name": "DAVIDsTEA - Chinook Centre", "phone": "+1 403-252-1722", "website": "https://locations.davidstea.com/en/ab-calgary-117", "opening_hours": "Mo-Sa 10:00-20:00; Su 11:00-18:00", "brand": "David's Tea", "brand:wikidata": "Q3019129", "nsi_id": "davidstea-12e931"}, "geometry": {"type": "Point", "coordinates": [-114.0740046, 50.9978823]}},
{"type": "Feature", "id": "aNhjvZ04vRPwhh3ySr2gO24ltZQ=", "properties": {"ref": "180", "@spider": "davidstea", "shop": "tea", "addr:street_address": "9140 Boulevard Leduc, Unit 145B", "addr:city": "Brossard", "addr:state": "Brossard", "addr:postcode": "J4Y 0L2", "addr:country": "CA", "name": "DAVIDsTEA - Quartier DIX30", "phone": "+1 450-678-6324", "website": "https://locations.davidstea.com/fr/qc-brossard-180", "opening_hours": "Mo-Tu 10:00-18:00; We-Fr 10:00-21:00; Sa 09:00-17:00; Su 10:00-17:00", "brand": "David's Tea", "brand:wikidata": "Q3019129", "nsi_id": "davidstea-12e931"}, "geometry": {"type": "Point", "coordinates": [-73.4372392, 45.4469218]}},
{"type": "Feature", "id": "z5kY9slo9y_u86AfPO2j7lxa58A=", "properties": {"ref": "023", "@spider": "davidstea", "shop": "tea", "addr:street_address": "1485 Portage Avenue, 33004", "addr:city": "Winnipeg", "addr:state": "Winnipeg", "addr:postcode": "R3G 0W4", "addr:country": "CA", "name": "DAVIDsTEA - Polo Park", "phone": "+1 204-772-5247", "website": "https://locations.davidstea.com/fr/manitoba-winnipeg-023", "opening_hours": "Mo-We 10:00-20:00; Th-Fr 10:00-21:00; Sa 10:00-19:00; Su 11:00-18:00", "brand": "David's Tea", "brand:wikidata": "Q3019129", "nsi_id": "davidstea-12e931"}, "geometry": {"type": "Point", "coordinates": [-97.19864587, 49.88381797]}},
{"type": "Feature", "id": "Dt7SvEhhXNJEfvuBSY8zhk62pHc=", "properties": {"ref": "115", "@spider": "davidstea", "shop": "tea", "addr:street_address": "3625 Shaganappi Trail Northwest, #R032", "addr:city": "Calgary", "addr:state": "Calgary", "addr:postcode": "T3A 0E2", "addr:country": "CA", "name": "DAVIDsTEA - Market Mall", "phone": "+1 403-247-0622", "website": "https://locations.davidstea.com/fr/ab-calgary-115", "opening_hours": "Mo-Sa 10:00-20:00; Su 10:00-18:00", "brand": "David's Tea", "brand:wikidata": "Q3019129", "nsi_id": "davidstea-12e931"}, "geometry": {"type": "Point", "coordinates": [-114.15541153, 51.08427767]}},
{"type": "Feature", "id": "W0rNGN93J0bXzUuZkX1iMvVVfRg=", "properties": {"ref": "010", "@spider": "davidstea", "shop": "tea", "addr:street_address": "1680 Richmond Street, null", "addr:city": "London", "addr:state": "London", "addr:postcode": "N6G 3Y9", "addr:country": "CA", "name": "DAVIDsTEA - Masonville Place", "phone": "+1 519-660-0550", "website": "https://locations.davidstea.com/fr/ontario-london-010", "opening_hours": "Mo-Sa 11:00-19:00; Su 11:00-17:00", "brand": "David's Tea", "brand:wikidata": "Q3019129", "nsi_id": "davidstea-12e931"}, "geometry": {"type": "Point", "coordinates": [-81.27869124, 43.02538723]}},
{"type": "Feature", "id": "pHuDn0VbkVtvy2wPWD092CfT6Js=", "properties": {"ref": "012", "@spider": "davidstea", "shop": "tea", "addr:street_address": "8882 170 Street Northwest, Unit 2356, West Edmonton Mall", "addr:city": "Edmonton", "addr:state": "Edmonton", "addr:postcode": "T5T 4J2", "addr:country": "CA", "name": "DAVIDsTEA - West Edmonton Mall", "phone": "+1 780-484-4208", "website": "https://locations.davidstea.com/fr/alberta-edmonton-012", "opening_hours": "Mo-Sa 10:00-21:00; Su 11:00-18:00", "brand": "David's Tea", "brand:wikidata": "Q3019129", "nsi_id": "davidstea-12e931"}, "geometry": {"type": "Point", "coordinates": [-113.62223598, 53.52247797]}}]}