{"type":"FeatureCollection","features":[{"type": "Feature", "id": "HbSVzBYw4iHkcWknw6hhoPzN8_A=", "properties": {"ref": "https://stores.deichmann.com/gb-en/england/huddersfield/26-kingsgate-shopping-centre.html", "@spider": "deichmann", "shop": "shoes", "addr:full": "26 Kingsgate Shopping Centre", "addr:city": "Huddersfield", "addr:postcode": "HD1 2QB", "addr:country": "GB", "name": "Deichmann branches 26 Kingsgate Shopping Centre in HD1 2QB Huddersfield ", "phone": "+441484425563", "opening_hours": "MO 09:00-17:30 TU 09:00-17:30 WE 09:00-17:30 TH 09:00-17:30 FR 09:00-17:30 SA 09:00-17:30 SU 10:30-16:30", "brand": "Deichmann", "brand:wikidata": "Q664543", "nsi_id": "deichmann-9b62dc"}, "geometry": {"type": "Point", "coordinates": [-1.77914, 53.64608]}},
{"type": "Feature", "id": "GmgH5d9XcNS1NwA13L52z3M_GD0=", "properties": {"ref": "", "@spider": "deichmann", "shop": "shoes", "addr:full": "114 Potteries Shopping Centre", "addr:city": "Hanley", "addr:postcode": "ST1 1PS", "addr:country": "GB", "name": "Deichmann branches 114 Potteries Shopping Centre in ST1 1PS Hanley ", "phone": "+441782281927", "opening_hours": "MO 09:00-18:00 TU 09:00-18:00 WE 09:00-18:00 TH 09:00-20:00 FR 09:00-20:00 SA 09:00-18:00 SU 10:30-16:30", "brand": "Deichmann", "brand:wikidata": "Q664543", "nsi_id": "deichmann-9b62dc"}, "geometry": {"type": "Point", "coordinates": [-2.17582, 53.02766]}},
{"type": "Feature", "id": "gYOAu1LBy8PA2SAWm8IuPucqC4w=", "properties": {"ref": "https://stores.deichmann.com/it-it/puglia/triggiano/contrada-giannavello.html", "@spider": "deichmann", "shop": "shoes", "addr:full": "Contrada Giannavello", "addr:city": "Triggiano", "addr:postcode": "70019", "addr:country": "IT", "name": "Deichmann filiali Contrada Giannavello em 70019 Triggiano ", "phone": "+390805493064", "opening_hours": "MO 09:00-21:00 TU 09:00-21:00 WE 09:00-21:00 TH 09:00-21:00 FR 09:00-21:00 SA 09:00-21:00 SU 10:00-21:00", "brand": "Deichmann", "brand:wikidata": "Q664543", "nsi_id": "deichmann-9b62dc"}, "geometry": {"type": "Point", "coordinates": [16.947022, 41.083135]}},
{"type": "Feature", "id": "lrBZfvIRTAwaMKJXUMzwvlXNL6Y=", "properties": {"ref": "https://stores.deichmann.com/it-it/emilia-romagna/reggio-emilia/viale-martiri-di-piazza-tien-an-men.html", "@spider": "deichmann", "shop": "shoes", "addr:full": "Viale Martiri di Piazza Tien An Men", "addr:city": "Reggio Emilia", "addr:postcode": "42124", "addr:country": "IT", "name": "Deichmann filiali Viale Martiri di Piazza Tien An Men em 42124 Reggio Emilia ", "phone": "+390522596516", "opening_hours": "MO 09:00-20:00 TU 09:00-20:00 WE 09:00-20:00 TH 09:00-20:00 FR 09:00-20:00 SA 09:00-20:00 SU 09:00-20:00", "brand": "Deichmann", "brand:wikidata": "Q664543", "nsi_id": "deichmann-9b62dc"}, "geometry": {"type": "Point", "coordinates": [10.58196, 44.71911]}},
{"type": "Feature", "id": "Qbz0lclhWLM6ScUg7O-iFox4xvA=", "properties": {"ref": "https://stores.deichmann.com/pl-pl/slaskie/lubrza-k--prudnika/ul--opolska-10.html", "@spider": "deichmann", "shop": "shoes", "addr:full": "ul. Opolska 10", "addr:city": "Lubrza k. Prudnika", "addr:postcode": "48-231", "addr:country": "PL", "name": "Deichmann Sklepy ul. Opolska 10 w 48-231 Lubrza k. Prudnika ", "phone": "+48775560191", "opening_hours": "MO 09:00-20:00 TU 09:00-20:00 WE 09:00-20:00 TH 09:00-20:00 FR 09:00-20:00 SA 09:00-20:00 SU 10:00-19:00", "brand": "Deichmann", "brand:wikidata": "Q664543", "nsi_id": "deichmann-9b62dc"}, "geometry": {"type": "Point", "coordinates": [17.60378, 50.3307]}},
{"type": "Feature", "id": "_NpxidVLW6KEnFOYlDg8BsxZHsA=", "properties": {"ref": "https://stores.deichmann.com/tr-tr/izmir/gaziemir-izmir/optimum-avm---akcay-cad--dokuz-eyluel-mah--no--101-mgz-no--zk-067.html", "@spider": "deichmann", "shop": "shoes", "addr:full": "Optimum Avm - Akcay Cad. Dokuz Eyl\u00fcl Mah. No: 101 Mgz No: ZK 067", "addr:city": "Gaziemir/\u0130zmir", "addr:postcode": "35410", "addr:country": "TR", "name": "Deichmann i\u015f Optimum Avm - Akcay Cad. Dokuz Eyl\u00fcl Mah. No: 101 Mgz No: ZK 067 i\u00e7inde 35410 Gaziemir/\u0130zmir ", "phone": "+902322385798", "opening_hours": "MO 10:00-22:00 TU 10:00-22:00 WE 10:00-22:00 TH 10:00-22:00 FR 10:00-22:00 SA 10:00-22:00 SU 10:00-22:00", "brand": "Deichmann", "brand:wikidata": "Q664543", "nsi_id": "deichmann-9b62dc"}, "geometry": {"type": "Point", "coordinates": [27.134271, 38.339026]}},
{"type": "Feature", "id": "X_YSou2TFX4DWgC_awVMzlAVGwU=", "properties": {"ref": "https://stores.deichmann.com/ba-hr/federacija-bosne-i-hercegovine/ilidza/mostarsko-raskrsce-br--10.html", "@spider": "deichmann", "shop": "shoes", "addr:full": "Mostarsko raskr\u0161\u0107e br. 10", "addr:city": "Ilid\u017ea", "addr:postcode": "71210", "addr:country": "BA", "name": "Deichmann grana Mostarsko raskr\u0161\u0107e br. 10 u 71210 Ilid\u017ea ", "phone": "+38533488288", "opening_hours": "MO 09:00-21:00 TU 09:00-21:00 WE 09:00-21:00 TH 09:00-21:00 FR 09:00-21:00 SA 09:00-21:00 SU 09:00-21:00", "brand": "Deichmann", "brand:wikidata": "Q664543", "nsi_id": "deichmann-9b62dc"}, "geometry": {"type": "Point", "coordinates": [18.243628, 43.846834]}},
{"type": "Feature", "id": "Cm9ubF-PBF3ChUK9MPPDmhI3tZ0=", "properties": {"ref": "https://stores.deichmann.com/ba-hr/federacija-bosne-i-hercegovine/gracanica/branilaca-grada-bb.html", "@spider": "deichmann", "shop": "shoes", "addr:full": "Branilaca grada bb", "addr:city": "Gra\u010danica", "addr:postcode": "75320", "addr:country": "BA", "name": "Deichmann grana Branilaca grada bb u 75320 Gra\u010danica ", "phone": "+38735214400", "opening_hours": "MO 09:00-21:00 TU 09:00-21:00 WE 09:00-21:00 TH 09:00-21:00 FR 09:00-21:00 SA 09:00-21:00 SU 09:00-21:00", "brand": "Deichmann", "brand:wikidata": "Q664543", "nsi_id": "deichmann-9b62dc"}, "geometry": {"type": "Point", "coordinates": [18.308193, 44.687254]}},
{"type": "Feature", "id": "rOlrIJuoIzryN4bebyldJ171BNk=", "properties": {"ref": "https://stores.deichmann.com/ba-hr/republika-srpska/gradiska/ulica-xvi-krajiske-brigade-2a.html", "@spider": "deichmann", "shop": "shoes", "addr:full": "Ulica XVI kraji\u0161ke brigade 2A", "addr:city": "Gradi\u0161ka", "addr:postcode": "78400", "addr:country": "BA", "name": "Deichmann grana Ulica XVI kraji\u0161ke brigade 2A u 78400 Gradi\u0161ka ", "phone": "+38751492449", "opening_hours": "MO 09:00-21:00 TU 09:00-21:00 WE 09:00-21:00 TH 09:00-21:00 FR 09:00-21:00 SA 09:00-21:00 SU 09:00-17:00", "brand": "Deichmann", "brand:wikidata": "Q664543", "nsi_id": "deichmann-9b62dc"}, "geometry": {"type": "Point", "coordinates": [17.258161, 45.139843]}}]}