{"type":"FeatureCollection","features":[{"type": "Feature", "id": "IB433WWHfpgM8mZP-yogH1SdBbc=", "properties": {"ref": "0253", "@spider": "dillards", "shop": "department_store", "addr:street_address": "11945 Pines Blvd", "addr:city": "Pembroke Pines", "addr:state": "FL", "addr:postcode": "33026", "name": "Dillard's Pembroke Lakes Mall in Pembroke Pines, Florida", "phone": "(954)450-8661", "website": "https://www.dillards.com/stores/florida/pembroke-lakes-mall-pembroke-pines/0253", "opening_hours": "Mo-Sa 11:00-20:00; Su 12:00-18:00", "brand": "Dillard's", "brand:wikidata": "Q844805", "nsi_id": "dillards-592fe0"}, "geometry": {"type": "Point", "coordinates": [-80.30586, 26.00895]}},
{"type": "Feature", "id": "sKSUinlCMLbfghibruO_raBXTyw=", "properties": {"ref": "0251", "@spider": "dillards", "shop": "department_store", "addr:street_address": "2500 E Sunrise Blvd", "addr:city": "Ft. Lauderdale", "addr:state": "FL", "addr:postcode": "33304", "name": "Dillard's The Galleria At Ft Lauderdale in Ft. Lauderdale, Florida", "phone": "(954)565-5245", "website": "https://www.dillards.com/stores/florida/the-galleria-at-ft-lauderdale-ft.-lauderdale/0251", "opening_hours": "Mo-Sa 11:00-20:00; Su 12:00-18:00", "brand": "Dillard's", "brand:wikidata": "Q844805", "nsi_id": "dillards-592fe0"}, "geometry": {"type": "Point", "coordinates": [-80.11278, 26.13623]}},
{"type": "Feature", "id": "Q2iUxqTzkjRA8Oszf7L8KYiurA8=", "properties": {"ref": "0527", "@spider": "dillards", "shop": "department_store", "addr:street_address": "9409 U.s. Highway 19", "addr:city": "Port Richey", "addr:state": "FL", "addr:postcode": "34668", "name": "Dillard's Gulf View Square in Port Richey, Florida", "phone": "(727)847-9393", "website": "https://www.dillards.com/stores/florida/gulf-view-square-port-richey/0527", "opening_hours": "Tu-Sa 12:00-19:00; Su 12:00-18:00", "brand": "Dillard's", "brand:wikidata": "Q844805", "nsi_id": "dillards-592fe0"}, "geometry": {"type": "Point", "coordinates": [-82.71091, 28.2953]}},
{"type": "Feature", "id": "dvlNB-muPHpUGiY7d-ZUzPcAVZ0=", "properties": {"ref": "0515", "@spider": "dillards", "shop": "department_store", "addr:street_address": "3403 E Colonial Dr", "addr:city": "Orlando", "addr:state": "FL", "addr:postcode": "32803", "name": "Dillard's Fashion Square Mall in Orlando, Florida", "phone": "(407)896-1211", "website": "https://www.dillards.com/stores/florida/fashion-square-mall-orlando/0515", "opening_hours": "Tu-Sa 12:00-19:00; Su 12:00-18:00", "brand": "Dillard's", "brand:wikidata": "Q844805", "nsi_id": "dillards-592fe0"}, "geometry": {"type": "Point", "coordinates": [-81.3392, 28.55701]}},
{"type": "Feature", "id": "he8cYlUX3JqFCzgzaqSpFhTa5NI=", "properties": {"ref": "0516", "@spider": "dillards", "shop": "department_store", "addr:street_address": "9403 W Colonial Dr", "addr:city": "Ocoee", "addr:state": "FL", "addr:postcode": "34761", "name": "Dillard's West Oaks Mall in Ocoee, Florida", "phone": "(407)292-6866", "website": "https://www.dillards.com/stores/florida/west-oaks-mall-ocoee/0516", "opening_hours": "Tu-Sa 12:00-19:00; Su 12:00-18:00", "brand": "Dillard's", "brand:wikidata": "Q844805", "nsi_id": "dillards-592fe0"}, "geometry": {"type": "Point", "coordinates": [-81.5156, 28.5543]}},
{"type": "Feature", "id": "NFYXz9veLMUGFf8kzXpLEJ9PdQM=", "properties": {"ref": "0511", "@spider": "dillards", "shop": "department_store", "addr:street_address": "9501 Arlington Expy", "addr:city": "Jacksonville", "addr:state": "FL", "addr:postcode": "32225", "name": "Dillard's Regency Square Mall in Jacksonville, Florida", "phone": "(904)721-9166", "website": "https://www.dillards.com/stores/florida/regency-square-mall-jacksonville/0511", "opening_hours": "Tu-Sa 12:00-19:00; Su 12:00-18:00", "brand": "Dillard's", "brand:wikidata": "Q844805", "nsi_id": "dillards-592fe0"}, "geometry": {"type": "Point", "coordinates": [-81.55488, 30.32541]}},
{"type": "Feature", "id": "icDJvPcSi-QC1JuoCymSDO2sx34=", "properties": {"ref": "0513", "@spider": "dillards", "shop": "department_store", "addr:street_address": "801 N Congress Ave", "addr:city": "Boynton Beach", "addr:state": "FL", "addr:postcode": "33426", "name": "Dillard's Boyton Beach Mall in Boynton Beach, Florida", "phone": "(561)732-4285", "website": "https://www.dillards.com/stores/florida/boyton-beach-mall-boynton-beach/0513", "opening_hours": "Tu-Sa 12:00-19:00; Su 12:00-18:00", "brand": "Dillard's", "brand:wikidata": "Q844805", "nsi_id": "dillards-592fe0"}, "geometry": {"type": "Point", "coordinates": [-80.0968, 26.53401]}},
{"type": "Feature", "id": "KLjI6ROrnwORr4n_jHNXxIpV-nM=", "properties": {"ref": "0995", "@spider": "dillards", "shop": "department_store", "addr:street_address": "2424 Highway 6 And 50", "addr:city": "Grand Junction", "addr:state": "CO", "addr:postcode": "81505", "name": "Dillard's Mesa Mall in Grand Junction, Colorado", "phone": "(970)208-0604", "website": "https://www.dillards.com/stores/colorado/mesa-mall-grand-junction/0995", "opening_hours": "Mo-Sa 11:00-20:00; Su 12:00-18:00", "brand": "Dillard's", "brand:wikidata": "Q844805", "nsi_id": "dillards-592fe0"}, "geometry": {"type": "Point", "coordinates": [-108.00433, 39.1535]}},
{"type": "Feature", "id": "8bGED2giq-bjk5nUhtJdI9SfxCY=", "properties": {"ref": "0992", "@spider": "dillards", "shop": "department_store", "addr:street_address": "3601 Dillon Dr", "addr:city": "Pueblo", "addr:state": "CO", "addr:postcode": "81008", "name": "Dillard's Pueblo Mall in Pueblo, Colorado", "phone": "(719)545-9665", "website": "https://www.dillards.com/stores/colorado/pueblo-mall-pueblo/0992", "opening_hours": "Mo-Sa 11:00-20:00; Su 12:00-18:00", "brand": "Dillard's", "brand:wikidata": "Q844805", "nsi_id": "dillards-592fe0"}, "geometry": {"type": "Point", "coordinates": [-104.61528, 38.30425]}},
{"type": "Feature", "id": "Z-5ZHqRbvKBttusCgFzR01FdVMw=", "properties": {"ref": "0994", "@spider": "dillards", "shop": "department_store", "addr:street_address": "1790 Briargate Blvd", "addr:city": "Colorado Springs", "addr:state": "CO", "addr:postcode": "80920", "name": "Dillard's Chapel Hills Mall in Colorado Springs, Colorado", "phone": "(719)532-1400", "website": "https://www.dillards.com/stores/colorado/chapel-hills-mall-colorado-springs/0994", "opening_hours": "Mo-Sa 11:00-20:00; Su 12:00-18:00", "brand": "Dillard's", "brand:wikidata": "Q844805", "nsi_id": "dillards-592fe0"}, "geometry": {"type": "Point", "coordinates": [-104.79401, 38.9492]}},
{"type": "Feature", "id": "2hOymTsv1Kl8ApdhvoEz3g9acVQ=", "properties": {"ref": "0981", "@spider": "dillards", "shop": "department_store", "addr:street_address": "8415 Park Meadows Center Dr", "addr:city": "Lone Tree", "addr:state": "CO", "addr:postcode": "80124", "name": "Dillard's Park Meadows in Lone Tree, Colorado", "phone": "(303)790-0100", "website": "https://www.dillards.com/stores/colorado/park-meadows-lone-tree/0981", "opening_hours": "Mo-Sa 11:00-20:00; Su 12:00-18:00", "brand": "Dillard's", "brand:wikidata": "Q844805", "nsi_id": "dillards-592fe0"}, "geometry": {"type": "Point", "coordinates": [-104.8787, 39.56411]}},
{"type": "Feature", "id": "kDHxjjaZd63cS-WcjcicLkK6v1o=", "properties": {"ref": "0984", "@spider": "dillards", "shop": "department_store", "addr:street_address": "8501 W Bowles\u00a0Ave\u00a0Suite 2d657", "addr:city": "Littleton", "addr:state": "CO", "addr:postcode": "80123", "name": "Dillard's Southwest Plaza in Littleton, Colorado", "phone": "(303)979-6111", "website": "https://www.dillards.com/stores/colorado/southwest-plaza-littleton/0984", "opening_hours": "Mo-Sa 11:00-20:00; Su 12:00-18:00", "brand": "Dillard's", "brand:wikidata": "Q844805", "nsi_id": "dillards-592fe0"}, "geometry": {"type": "Point", "coordinates": [-105.09751, 39.60946]}},
{"type": "Feature", "id": "b_ZgQE9ssrCge6AqqLErwmrM9Oo=", "properties": {"ref": "0987", "@spider": "dillards", "shop": "department_store", "addr:street_address": "41 W Flatiron Crossing Dr", "addr:city": "Broomfield", "addr:state": "CO", "addr:postcode": "80021", "name": "Dillard's Flatiron Crossing in Broomfield, Colorado", "phone": "(303)464-3900", "website": "https://www.dillards.com/stores/colorado/flatiron-crossing-broomfield/0987", "opening_hours": "Mo-Sa 11:00-20:00; Su 12:00-18:00", "brand": "Dillard's", "brand:wikidata": "Q844805", "nsi_id": "dillards-592fe0"}, "geometry": {"type": "Point", "coordinates": [-105.131, 39.93246]}},
{"type": "Feature", "id": "YoacCRP9N8yGWn1A8o5szzZuWZ8=", "properties": {"ref": "0982", "@spider": "dillards", "shop": "department_store", "addr:street_address": "14200 E Alameda Ave", "addr:city": "Aurora", "addr:state": "CO", "addr:postcode": "80012", "name": "Dillard's Town Center At Aurora in Aurora, Colorado", "phone": "(303)360-5900", "website": "https://www.dillards.com/stores/colorado/town-center-at-aurora-aurora/0982", "opening_hours": "Mo-Sa 11:00-20:00; Su 12:00-18:00", "brand": "Dillard's", "brand:wikidata": "Q844805", "nsi_id": "dillards-592fe0"}, "geometry": {"type": "Point", "coordinates": [-104.8305, 39.70033]}},
{"type": "Feature", "id": "itVpQfANmRYiM0l9EIyyVtdpASo=", "properties": {"ref": "0504", "@spider": "dillards", "shop": "department_store", "addr:street_address": "760 Citadel Dr E", "addr:city": "Colorado Springs", "addr:state": "CO", "addr:postcode": "80909", "name": "Dillard's The Citadel Mall in Colorado Springs, Colorado", "phone": "(719)550-1159", "website": "https://www.dillards.com/stores/colorado/the-citadel-mall-colorado-springs/0504", "opening_hours": "Tu-Sa 12:00-19:00; Su 12:00-18:00", "brand": "Dillard's", "brand:wikidata": "Q844805", "nsi_id": "dillards-592fe0"}, "geometry": {"type": "Point", "coordinates": [-104.7601, 38.84326]}},
{"type": "Feature", "id": "i1ZtbnuN2FSH08euJMIfBI0n01M=", "properties": {"ref": "0960", "@spider": "dillards", "shop": "department_store", "addr:street_address": "4950 Pacific Ave", "addr:city": "Stockton", "addr:state": "CA", "addr:postcode": "95207", "name": "Dillard's Weberstown Mall in Stockton, California", "phone": "(209)477-1230", "website": "https://www.dillards.com/stores/california/weberstown-mall-stockton/0960", "opening_hours": "Mo-Sa 11:00-20:00; Su 12:00-18:00", "brand": "Dillard's", "brand:wikidata": "Q844805", "nsi_id": "dillards-592fe0"}, "geometry": {"type": "Point", "coordinates": [-121.31086, 37.99291]}},
{"type": "Feature", "id": "dvuRwuo07_HyyY8hKxlXME2qxQQ=", "properties": {"ref": "0999", "@spider": "dillards", "shop": "department_store", "addr:street_address": "1400 Dell Range Blvd", "addr:city": "Cheyenne", "addr:state": "WY", "addr:postcode": "82009", "name": "Dillard's Frontier Mall in Cheyenne, Wyoming", "phone": "(307)632-2224", "website": "https://www.dillards.com/stores/wyoming/frontier-mall-cheyenne/0999", "opening_hours": "Mo-Sa 11:00-20:00; Su 12:00-18:00", "brand": "Dillard's", "brand:wikidata": "Q844805", "nsi_id": "dillards-592fe0"}, "geometry": {"type": "Point", "coordinates": [-104.8032, 41.16306]}},
{"type": "Feature", "id": "Pd_wA3WpqT7q2MVsaM5zEpEuN9A=", "properties": {"ref": "0179", "@spider": "dillards", "shop": "department_store", "addr:street_address": "9208 Stony Point Pkwy", "addr:city": "Richmond", "addr:state": "VA", "addr:postcode": "23235", "name": "Dillard's Stony Point Fashion Park in Richmond, Virginia", "phone": "(804)253-1860", "website": "https://www.dillards.com/stores/virginia/stony-point-fashion-park-richmond/0179", "opening_hours": "Mo-Sa 11:00-20:00; Su 12:00-18:00", "brand": "Dillard's", "brand:wikidata": "Q844805", "nsi_id": "dillards-592fe0"}, "geometry": {"type": "Point", "coordinates": [-77.57306, 37.55223]}},
{"type": "Feature", "id": "QizKhh7TB5pZfNNhlm58XXfkirE=", "properties": {"ref": "0176", "@spider": "dillards", "shop": "department_store", "addr:street_address": "11824 W Broad St", "addr:city": "Richmond", "addr:state": "VA", "addr:postcode": "23233", "name": "Dillard's Short Pump Town Center in Richmond, Virginia", "phone": "(804)253-0182", "website": "https://www.dillards.com/stores/virginia/short-pump-town-center-richmond/0176", "opening_hours": "Mo-Sa 11:00-20:00; Su 12:00-18:00", "brand": "Dillard's", "brand:wikidata": "Q844805", "nsi_id": "dillards-592fe0"}, "geometry": {"type": "Point", "coordinates": [-77.61741, 37.65495]}},
{"type": "Feature", "id": "K9IzUZC8Isaxo72NURQ-Vn-Had8=", "properties": {"ref": "0171", "@spider": "dillards", "shop": "department_store", "addr:street_address": "701 Lynnhaven Pkwy", "addr:city": "Virginia Beach", "addr:state": "VA", "addr:postcode": "23452", "name": "Dillard's Lynnhaven Mall in Virginia Beach, Virginia", "phone": "(757)463-4800", "website": "https://www.dillards.com/stores/virginia/lynnhaven-mall-virginia-beach/0171", "opening_hours": "Mo-Sa 11:00-20:00; Su 12:00-18:00", "brand": "Dillard's", "brand:wikidata": "Q844805", "nsi_id": "dillards-592fe0"}, "geometry": {"type": "Point", "coordinates": [-76.07308, 36.81583]}},
{"type": "Feature", "id": "lSEgFbhxSbj_NCF6ALK-JLM-ZM8=", "properties": {"ref": "0170", "@spider": "dillards", "shop": "department_store", "addr:street_address": "200 Monticelle Ave", "addr:city": "Norfolk", "addr:state": "VA", "addr:postcode": "23510", "name": "Dillard's Macarthur Center in Norfolk, Virginia", "phone": "(757)622-6800", "website": "https://www.dillards.com/stores/virginia/macarthur-center-norfolk/0170", "opening_hours": "Mo-Sa 11:00-20:00; Su 12:00-18:00", "brand": "Dillard's", "brand:wikidata": "Q844805", "nsi_id": "dillards-592fe0"}, "geometry": {"type": "Point", "coordinates": [-76.29051, 36.84785]}},
{"type": "Feature", "id": "VPJli6cYjhegnxe1dMKufXABDYA=", "properties": {"ref": "0174", "@spider": "dillards", "shop": "department_store", "addr:street_address": "12300 Jefferson Ave Suite 300", "addr:city": "Newport News", "addr:state": "VA", "addr:postcode": "23602", "name": "Dillard's Patrick Henry Mall in Newport News, Virginia", "phone": "(757)930-0291", "website": "https://www.dillards.com/stores/virginia/patrick-henry-mall-newport-news/0174", "opening_hours": "Mo-Sa 11:00-20:00; Su 12:00-18:00", "brand": "Dillard's", "brand:wikidata": "Q844805", "nsi_id": "dillards-592fe0"}, "geometry": {"type": "Point", "coordinates": [-76.49725, 37.11228]}},
{"type": "Feature", "id": "NZ4i8W2iTC9PL3LmhCrwF-mlOic=", "properties": {"ref": "0172", "@spider": "dillards", "shop": "department_store", "addr:street_address": "1401 Greenbrier Pkwy", "addr:city": "Chesapeake", "addr:state": "VA", "addr:postcode": "23320", "name": "Dillard's Greenbrier Mall in Chesapeake, Virginia", "phone": "(757)523-9031", "website": "https://www.dillards.com/stores/virginia/greenbrier-mall-chesapeake/0172", "opening_hours": "Mo-Sa 11:00-20:00; Su 12:00-18:00", "brand": "Dillard's", "brand:wikidata": "Q844805", "nsi_id": "dillards-592fe0"}, "geometry": {"type": "Point", "coordinates": [-76.22691, 36.77803]}},
{"type": "Feature", "id": "dmD9FV_5M9-NiAka4Z4Ji50OsKY=", "properties": {"ref": "0928", "@spider": "dillards", "shop": "department_store", "addr:street_address": "1850 Red Cliffs Dr", "addr:city": "St George", "addr:state": "UT", "addr:postcode": "84790", "name": "Dillard's Red Cliffs Mall in St George, Utah", "phone": "(435)634-4900", "website": "https://www.dillards.com/stores/utah/red-cliffs-mall-st-george/0928", "opening_hours": "Mo-Sa 11:00-20:00; Su 12:00-18:00", "brand": "Dillard's", "brand:wikidata": "Q844805", "nsi_id": "dillards-592fe0"}, "geometry": {"type": "Point", "coordinates": [-113.90666, 37.19783]}},
{"type": "Feature", "id": "_gyKjongntNf1GoCdUk4HgjQamg=", "properties": {"ref": "0935", "@spider": "dillards", "shop": "department_store", "addr:street_address": "543 E. University Parkway", "addr:city": "Orem", "addr:state": "UT", "addr:postcode": "84097", "name": "Dillard's University Place in Orem, Utah", "phone": "(801)607-3144", "website": "https://www.dillards.com/stores/utah/university-place-orem/0935", "opening_hours": "Mo-Sa 11:00-20:00; Su 12:00-18:00", "brand": "Dillard's", "brand:wikidata": "Q844805", "nsi_id": "dillards-592fe0"}, "geometry": {"type": "Point", "coordinates": [-111.69011, 40.29146]}},
{"type": "Feature", "id": "Rr8b5bhlaoxberNOU55fHp69eR8=", "properties": {"ref": "0931", "@spider": "dillards", "shop": "department_store", "addr:street_address": "4000 Newgate Mall", "addr:city": "Ogden", "addr:state": "UT", "addr:postcode": "84405", "name": "Dillard's Newgate Mall in Ogden, Utah", "phone": "(801)392-0689", "website": "https://www.dillards.com/stores/utah/newgate-mall-ogden/0931", "opening_hours": "Mo-Sa 11:00-20:00; Su 12:00-18:00", "brand": "Dillard's", "brand:wikidata": "Q844805", "nsi_id": "dillards-592fe0"}, "geometry": {"type": "Point", "coordinates": [-111.9807, 41.19606]}},
{"type": "Feature", "id": "Xqu4W1Un8XQ6dpMQ01iPlfy97wM=", "properties": {"ref": "0932", "@spider": "dillards", "shop": "department_store", "addr:street_address": "1201 N Hill Field Rd #1000", "addr:city": "Layton", "addr:state": "UT", "addr:postcode": "84041", "name": "Dillard's Layton Hills Mall in Layton, Utah", "phone": "(801)315-2138", "website": "https://www.dillards.com/stores/utah/layton-hills-mall-layton/0932", "opening_hours": "Mo-Sa 11:00-20:00; Su 12:00-18:00", "brand": "Dillard's", "brand:wikidata": "Q844805", "nsi_id": "dillards-592fe0"}, "geometry": {"type": "Point", "coordinates": [-111.97753, 41.07841]}},
{"type": "Feature", "id": "cKg0NSariQekOMLiQ6zzBmxLbTc=", "properties": {"ref": "0930", "@spider": "dillards", "shop": "department_store", "addr:street_address": "6191 State St", "addr:city": "Murray", "addr:state": "UT", "addr:postcode": "84107", "name": "Dillard's Fashion Place in Murray, Utah", "phone": "(801)266-2006", "website": "https://www.dillards.com/stores/utah/fashion-place-murray/0930", "opening_hours": "Mo-Sa 11:00-20:00; Su 12:00-18:00", "brand": "Dillard's", "brand:wikidata": "Q844805", "nsi_id": "dillards-592fe0"}, "geometry": {"type": "Point", "coordinates": [-111.88425, 40.637]}},
{"type": "Feature", "id": "yhxR12SrGHhH1vifUCCxLxzIeSg=", "properties": {"ref": "0731", "@spider": "dillards", "shop": "department_store", "addr:street_address": "3111 S 31st St Ste 6501", "addr:city": "Temple", "addr:state": "TX", "addr:postcode": "76502", "name": "Dillard's Temple Mall in Temple, Texas", "phone": "(254)778-1854", "website": "https://www.dillards.com/stores/texas/temple-mall-temple/0731", "opening_hours": "Mo-Sa 11:00-20:00; Su 12:00-18:00", "brand": "Dillard's", "brand:wikidata": "Q844805", "nsi_id": "dillards-592fe0"}, "geometry": {"type": "Point", "coordinates": [-97.36761, 31.0713]}},
{"type": "Feature", "id": "YwGhbXUNpDlZG2RbQ1A2uBBhKq4=", "properties": {"ref": "0730", "@spider": "dillards", "shop": "department_store", "addr:street_address": "6001 W Waco Dr", "addr:city": "Waco", "addr:state": "TX", "addr:postcode": "76710", "name": "Dillard's Richland Mall in Waco, Texas", "phone": "(254)776-3560", "website": "https://www.dillards.com/stores/texas/richland-mall-waco/0730", "opening_hours": "Mo-Sa 11:00-20:00; Su 12:00-18:00", "brand": "Dillard's", "brand:wikidata": "Q844805", "nsi_id": "dillards-592fe0"}, "geometry": {"type": "Point", "coordinates": [-97.18836, 31.51518]}},
{"type": "Feature", "id": "VuIDP48yw0uyyIp5BT_j8hKaId0=", "properties": {"ref": "0732", "@spider": "dillards", "shop": "department_store", "addr:street_address": "2100 South W S Young Drive", "addr:city": "Killeen", "addr:state": "TX", "addr:postcode": "76543", "name": "Dillard's Killeen Mall in Killeen, Texas", "phone": "(254)699-6116", "website": "https://www.dillards.com/stores/texas/killeen-mall-killeen/0732", "opening_hours": "Mo-Sa 11:00-20:00; Su 12:00-18:00", "brand": "Dillard's", "brand:wikidata": "Q844805", "nsi_id": "dillards-592fe0"}, "geometry": {"type": "Point", "coordinates": [-97.7179, 31.09241]}},
{"type": "Feature", "id": "DfRpJ4Pfms9gk6X2oYBPkNessrE=", "properties": {"ref": "0737", "@spider": "dillards", "shop": "department_store", "addr:street_address": "7800 N Navarro St", "addr:city": "Victoria", "addr:state": "TX", "addr:postcode": "77904", "name": "Dillard's Victoria Mall in Victoria, Texas", "phone": "(361)576-5261", "website": "https://www.dillards.com/stores/texas/victoria-mall-victoria/0737", "opening_hours": "Mo-Sa 11:00-20:00; Su 12:00-18:00", "brand": "Dillard's", "brand:wikidata": "Q844805", "nsi_id": "dillards-592fe0"}, "geometry": {"type": "Point", "coordinates": [-96.9926, 28.86925]}},
{"type": "Feature", "id": "7K23YTiDTYdC6r9YfPyP86pPbKY=", "properties": {"ref": "0749", "@spider": "dillards", "shop": "department_store", "addr:street_address": "4601 S Broadway Ave", "addr:city": "Tyler", "addr:state": "TX", "addr:postcode": "75703", "name": "Dillard's Broadway Square Mall in Tyler, Texas", "phone": "(903)561-1221", "website": "https://www.dillards.com/stores/texas/broadway-square-mall-tyler/0749", "opening_hours": "Mo-Sa 11:00-20:00; Su 12:00-18:00", "brand": "Dillard's", "brand:wikidata": "Q844805", "nsi_id": "dillards-592fe0"}, "geometry": {"type": "Point", "coordinates": [-95.30386, 32.29936]}},
{"type": "Feature", "id": "8uTvtLGjG5vVQRsQQ05R1DiVmYw=", "properties": {"ref": "0437", "@spider": "dillards", "shop": "department_store", "addr:street_address": "2400 Richmond Rd", "addr:city": "Texarkana", "addr:state": "TX", "addr:postcode": "75503", "name": "Dillard's Central Mall in Texarkana, Texas", "phone": "(903)838-6591", "website": "https://www.dillards.com/stores/texas/central-mall-texarkana/0437", "opening_hours": "Mo-Sa 11:00-20:00; Su 12:00-18:00", "brand": "Dillard's", "brand:wikidata": "Q844805", "nsi_id": "dillards-592fe0"}, "geometry": {"type": "Point", "coordinates": [-94.07275, 33.45631]}},
{"type": "Feature", "id": "wExw2F5-RCGlXCNJ_-k8Xb6FYt8=", "properties": {"ref": "0713", "@spider": "dillards", "shop": "department_store", "addr:street_address": "4800 Texoma Pkwy #400", "addr:city": "Sherman", "addr:state": "TX", "addr:postcode": "75090", "name": "Dillard's Midway Mall in Sherman, Texas", "phone": "(903)868-1065", "website": "https://www.dillards.com/stores/texas/midway-mall-sherman/0713", "opening_hours": "Mo-Sa 11:00-20:00; Su 12:00-18:00", "brand": "Dillard's", "brand:wikidata": "Q844805", "nsi_id": "dillards-592fe0"}, "geometry": {"type": "Point", "coordinates": [-96.58321, 33.6888]}},
{"type": "Feature", "id": "96ogOFgGa6eiwmUl1HNCWU8BdhI=", "properties": {"ref": "0745", "@spider": "dillards", "shop": "department_store", "addr:street_address": "4001 Sunset Dr Suite 2000", "addr:city": "San Angelo", "addr:state": "TX", "addr:postcode": "76904", "name": "Dillard's Sunset Mall in San Angelo, Texas", "phone": "(325)944-4571", "website": "https://www.dillards.com/stores/texas/sunset-mall-san-angelo/0745", "opening_hours": "Mo-Sa 11:00-20:00; Su 12:00-18:00", "brand": "Dillard's", "brand:wikidata": "Q844805", "nsi_id": "dillards-592fe0"}, "geometry": {"type": "Point", "coordinates": [-100.4986, 31.42855]}},
{"type": "Feature", "id": "t6D-DKPvic_W2xs-6fZnGS2BzIs=", "properties": {"ref": "0747", "@spider": "dillards", "shop": "department_store", "addr:street_address": "4101 E 42nd St Suite 108", "addr:city": "Odessa", "addr:state": "TX", "addr:postcode": "79762", "name": "Dillard's Music City Mall in Odessa, Texas", "phone": "(432)362-1986", "website": "https://www.dillards.com/stores/texas/music-city-mall-odessa/0747", "opening_hours": "Mo-Sa 11:00-20:00; Su 12:00-18:00", "brand": "Dillard's", "brand:wikidata": "Q844805", "nsi_id": "dillards-592fe0"}, "geometry": {"type": "Point", "coordinates": [-102.338, 31.89398]}},
{"type": "Feature", "id": "Sr3mlLm274uRkCZp14QXOdCmp0g=", "properties": {"ref": "0746", "@spider": "dillards", "shop": "department_store", "addr:street_address": "4511 N Midkiff Rd", "addr:city": "Midland", "addr:state": "TX", "addr:postcode": "79705", "name": "Dillard's Midland Park Mall in Midland, Texas", "phone": "(432)697-7911", "website": "https://www.dillards.com/stores/texas/midland-park-mall-midland/0746", "opening_hours": "Mo-Sa 11:00-20:00; Su 12:00-18:00", "brand": "Dillard's", "brand:wikidata": "Q844805", "nsi_id": "dillards-592fe0"}, "geometry": {"type": "Point", "coordinates": [-102.1324, 32.02945]}},
{"type": "Feature", "id": "BvLVc0pLOFLrR6l95I_0oT7pSdI=", "properties": {"ref": "0727", "@spider": "dillards", "shop": "department_store", "addr:street_address": "2200 S 10th St", "addr:city": "McAllen", "addr:state": "TX", "addr:postcode": "78501", "name": "Dillard's La Plaza Mall in McAllen, Texas", "phone": "(956)687-5211", "website": "https://www.dillards.com/stores/texas/la-plaza-mall-mcallen/0727", "opening_hours": "Mo-Sa 11:00-20:00; Su 12:00-19:00", "brand": "Dillard's", "brand:wikidata": "Q844805", "nsi_id": "dillards-592fe0"}, "geometry": {"type": "Point", "coordinates": [-98.23791, 26.18543]}},
{"type": "Feature", "id": "UqgJ7rwjLIFc1oc3XWIfwjwt3wA=", "properties": {"ref": "0743", "@spider": "dillards", "shop": "department_store", "addr:street_address": "6002 Slide Rd", "addr:city": "Lubbock", "addr:state": "TX", "addr:postcode": "79414", "name": "Dillard's South Plains Mall in Lubbock, Texas", "phone": "(806)792-6871", "website": "https://www.dillards.com/stores/texas/south-plains-mall-lubbock/0743", "opening_hours": "Mo-Sa 11:00-20:00; Su 12:00-18:00", "brand": "Dillard's", "brand:wikidata": "Q844805", "nsi_id": "dillards-592fe0"}, "geometry": {"type": "Point", "coordinates": [-101.9244, 33.54045]}},
{"type": "Feature", "id": "zObEc5ddSGDsRmc_gpi6Pcn2muA=", "properties": {"ref": "0748", "@spider": "dillards", "shop": "department_store", "addr:street_address": "3500 McCann Rd", "addr:city": "Longview", "addr:state": "TX", "addr:postcode": "75605", "name": "Dillard's Longview Mall in Longview, Texas", "phone": "(903)758-4436", "website": "https://www.dillards.com/stores/texas/longview-mall-longview/0748", "opening_hours": "Mo-Sa 11:00-20:00; Su 12:00-18:00", "brand": "Dillard's", "brand:wikidata": "Q844805", "nsi_id": "dillards-592fe0"}, "geometry": {"type": "Point", "coordinates": [-94.75073, 32.53825]}},
{"type": "Feature", "id": "gTj0l3P8O7TS0arWrYUHKnmvcuE=", "properties": {"ref": "0726", "@spider": "dillards", "shop": "department_store", "addr:street_address": "5300 San Dario Ave", "addr:city": "Laredo", "addr:state": "TX", "addr:postcode": "78041", "name": "Dillard's Mall Del Norte in Laredo, Texas", "phone": "(956)727-1171", "website": "https://www.dillards.com/stores/texas/mall-del-norte-laredo/0726", "opening_hours": "Mo-Sa 11:00-20:00; Su 12:00-19:00", "brand": "Dillard's", "brand:wikidata": "Q844805", "nsi_id": "dillards-592fe0"}, "geometry": {"type": "Point", "coordinates": [-99.49731, 27.5541]}},
{"type": "Feature", "id": "f_-OyaNOUYhcjZ0GCymc-uA0i2k=", "properties": {"ref": "0738", "@spider": "dillards", "shop": "department_store", "addr:street_address": "5488 S Padre Island Dr", "addr:city": "Corpus Christi", "addr:state": "TX", "addr:postcode": "78411", "name": "Dillard's La Palmera in Corpus Christi, Texas", "phone": "(361)991-7300", "website": "https://www.dillards.com/stores/texas/la-palmera-corpus-christi/0738", "opening_hours": "Mo-Sa 11:00-20:00; Su 12:00-18:00", "brand": "Dillard's", "brand:wikidata": "Q844805", "nsi_id": "dillards-592fe0"}, "geometry": {"type": "Point", "coordinates": [-97.37393, 27.71208]}},
{"type": "Feature", "id": "-0r6nYRexUxASRirUc390XXNXGA=", "properties": {"ref": "0783", "@spider": "dillards", "shop": "department_store", "addr:street_address": "1504 Harvey Rd", "addr:city": "College Station", "addr:state": "TX", "addr:postcode": "77840", "name": "Dillard's Post Oak Mall in College Station, Texas", "phone": "(979)764-0014", "website": "https://www.dillards.com/stores/texas/post-oak-mall-college-station/0783", "opening_hours": "Mo-Sa 11:00-20:00; Su 12:00-18:00", "brand": "Dillard's", "brand:wikidata": "Q844805", "nsi_id": "dillards-592fe0"}, "geometry": {"type": "Point", "coordinates": [-96.30508, 30.62505]}},
{"type": "Feature", "id": "CVP259a00E_dvkt428m70Enkw2g=", "properties": {"ref": "0729", "@spider": "dillards", "shop": "department_store", "addr:street_address": "2340 N. Expressway", "addr:city": "Brownsville", "addr:state": "TX", "addr:postcode": "78526", "name": "Dillard's Sunrise Mall in Brownsville, Texas", "phone": "(956)546-4581", "website": "https://www.dillards.com/stores/texas/sunrise-mall-brownsville/0729", "opening_hours": "Mo-Sa 11:00-20:00; Su 12:00-19:00", "brand": "Dillard's", "brand:wikidata": "Q844805", "nsi_id": "dillards-592fe0"}, "geometry": {"type": "Point", "coordinates": [-97.5047, 25.95535]}},
{"type": "Feature", "id": "EydnLT0z-fqcagY4DpbK70Y2syY=", "properties": {"ref": "0740", "@spider": "dillards", "shop": "department_store", "addr:street_address": "7701 W Interstate 40 Ste 300", "addr:city": "Amarillo", "addr:state": "TX", "addr:postcode": "79121", "name": "Dillard's Westgate Mall in Amarillo, Texas", "phone": "(806)358-7771", "website": "https://www.dillards.com/stores/texas/westgate-mall-amarillo/0740", "opening_hours": "Mo-Sa 11:00-20:00; Su 12:00-18:00", "brand": "Dillard's", "brand:wikidata": "Q844805", "nsi_id": "dillards-592fe0"}, "geometry": {"type": "Point", "coordinates": [-101.9247, 35.18588]}},
{"type": "Feature", "id": "314hMUfc2E5kSLe6VVPFJr6cgZM=", "properties": {"ref": "0744", "@spider": "dillards", "shop": "department_store", "addr:street_address": "4310 Buffalo Gap Rd", "addr:city": "Abilene", "addr:state": "TX", "addr:postcode": "79606", "name": "Dillard's Mall Of Abilene in Abilene, Texas", "phone": "(325)695-2200", "website": "https://www.dillards.com/stores/texas/mall-of-abilene-abilene/0744", "opening_hours": "Mo-Sa 11:00-20:00; Su 12:00-18:00", "brand": "Dillard's", "brand:wikidata": "Q844805", "nsi_id": "dillards-592fe0"}, "geometry": {"type": "Point", "coordinates": [-99.7636, 32.39976]}},
{"type": "Feature", "id": "9aqdM20YQqa_2aj9JKc26RLF4Hs=", "properties": {"ref": "0723", "@spider": "dillards", "shop": "department_store", "addr:street_address": "6301 Northwest Loop 410 Ste D", "addr:city": "San Antonio", "addr:state": "TX", "addr:postcode": "78238", "name": "Dillard's Ingram Park Mall in San Antonio, Texas", "phone": "(210)681-7970", "website": "https://www.dillards.com/stores/texas/ingram-park-mall-san-antonio/0723", "opening_hours": "Mo-Sa 11:00-20:00; Su 12:00-18:00", "brand": "Dillard's", "brand:wikidata": "Q844805", "nsi_id": "dillards-592fe0"}, "geometry": {"type": "Point", "coordinates": [-98.6202, 29.47043]}},
{"type": "Feature", "id": "CRTX1z1ewCvAhmAaa7ZtVrHnI_k=", "properties": {"ref": "0722", "@spider": "dillards", "shop": "department_store", "addr:street_address": "6909 N. FM 1604 East", "addr:city": "San Antonio", "addr:state": "TX", "addr:postcode": "78247", "name": "Dillard's Rolling Oaks Mall in San Antonio, Texas", "phone": "(210)651-5033", "website": "https://www.dillards.com/stores/texas/rolling-oaks-mall-san-antonio/0722", "opening_hours": "Mo-Sa 11:00-20:00; Su 12:00-18:00", "brand": "Dillard's", "brand:wikidata": "Q844805", "nsi_id": "dillards-592fe0"}, "geometry": {"type": "Point", "coordinates": [-98.34963, 29.59616]}},
{"type": "Feature", "id": "km7kaw6dSZfM9Z9uG4tu1Lkmljc=", "properties": {"ref": "0721", "@spider": "dillards", "shop": "department_store", "addr:street_address": "15900 La Cantera Pkwy", "addr:city": "San Antonio", "addr:state": "TX", "addr:postcode": "78256", "name": "Dillard's The Shops At La Cantera in San Antonio, Texas", "phone": "(210)558-6121", "website": "https://www.dillards.com/stores/texas/the-shops-at-la-cantera-san-antonio/0721", "opening_hours": "Mo-Sa 11:00-20:00; Su 12:00-18:00", "brand": "Dillard's", "brand:wikidata": "Q844805", "nsi_id": "dillards-592fe0"}, "geometry": {"type": "Point", "coordinates": [-98.61963, 29.59148]}},
{"type": "Feature", "id": "nDNAZFL7h25-eA1Ai-4Z-KNKcto=", "properties": {"ref": "0720", "@spider": "dillards", "shop": "department_store", "addr:street_address": "7400 U.S. 281 Access Rd #900", "addr:city": "San Antonio", "addr:state": "TX", "addr:postcode": "78216", "name": "Dillard's North Star Mall in San Antonio, Texas", "phone": "(210)341-6666", "website": "https://www.dillards.com/stores/texas/north-star-mall-san-antonio/0720", "opening_hours": "Mo-Sa 11:00-20:00; Su 12:00-18:00", "brand": "Dillard's", "brand:wikidata": "Q844805", "nsi_id": "dillards-592fe0"}, "geometry": {"type": "Point", "coordinates": [-98.49248, 29.51893]}},
{"type": "Feature", "id": "5tZdUlmRYvaHix6uEcYoPCbFyhs=", "properties": {"ref": "0770", "@spider": "dillards", "shop": "department_store", "addr:street_address": "1201 Lake Woodlands Dr #400", "addr:city": "The Woodlands", "addr:state": "TX", "addr:postcode": "77380", "name": "Dillard's The Woodlands Mall in The Woodlands, Texas", "phone": "(281)363-9300", "website": "https://www.dillards.com/stores/texas/the-woodlands-mall-the-woodlands/0770", "opening_hours": "Mo-Sa 11:00-20:00; Su 12:00-18:00", "brand": "Dillard's", "brand:wikidata": "Q844805", "nsi_id": "dillards-592fe0"}, "geometry": {"type": "Point", "coordinates": [-95.45245, 30.16436]}},
{"type": "Feature", "id": "Cm3ob92i6w0f4t6GFCoalzvgeo4=", "properties": {"ref": "0777", "@spider": "dillards", "shop": "department_store", "addr:street_address": "16517 Southwest Fwy", "addr:city": "Sugar Land", "addr:state": "TX", "addr:postcode": "77479", "name": "Dillard's First Colony Mall in Sugar Land, Texas", "phone": "(281)980-8300", "website": "https://www.dillards.com/stores/texas/first-colony-mall-sugar-land/0777", "opening_hours": "Mo-Sa 11:00-20:00; Su 12:00-18:00", "brand": "Dillard's", "brand:wikidata": "Q844805", "nsi_id": "dillards-592fe0"}, "geometry": {"type": "Point", "coordinates": [-95.62263, 29.59186]}},
{"type": "Feature", "id": "fbtKJIPF8rybokYyLh4DV2CuZyw=", "properties": {"ref": "0778", "@spider": "dillards", "shop": "department_store", "addr:street_address": "11200 Broadway St Bldg 50", "addr:city": "Pearland", "addr:state": "TX", "addr:postcode": "77584", "name": "Dillard's Pearland Town Center in Pearland, Texas", "phone": "(713)340-1334", "website": "https://www.dillards.com/stores/texas/pearland-town-center-pearland/0778", "opening_hours": "Mo-Sa 11:00-20:00; Su 12:00-18:00", "brand": "Dillard's", "brand:wikidata": "Q844805", "nsi_id": "dillards-592fe0"}, "geometry": {"type": "Point", "coordinates": [-95.3965, 29.5557]}},
{"type": "Feature", "id": "OrTe6EQWZqmPT78bZgtigHchweo=", "properties": {"ref": "0784", "@spider": "dillards", "shop": "department_store", "addr:street_address": "100 TX-332 ste 1400", "addr:city": "Lake Jackson", "addr:state": "TX", "addr:postcode": "77566", "name": "Dillard's Brazos Mall in Lake Jackson, Texas", "phone": "(979)297-7201", "website": "https://www.dillards.com/stores/texas/brazos-mall-lake-jackson/0784", "opening_hours": "Mo-Sa 11:00-20:00; Su 12:00-18:00", "brand": "Dillard's", "brand:wikidata": "Q844805", "nsi_id": "dillards-592fe0"}, "geometry": {"type": "Point", "coordinates": [-95.45855, 29.05278]}},
{"type": "Feature", "id": "8be_bDUKdM-eQKqKK7JXJ0gjZSE=", "properties": {"ref": "0780", "@spider": "dillards", "shop": "department_store", "addr:street_address": "20131 US-59", "addr:city": "Humble", "addr:state": "TX", "addr:postcode": "77338", "name": "Dillard's Deerbrook Mall in Humble, Texas", "phone": "(281)540-1612", "website": "https://www.dillards.com/stores/texas/deerbrook-mall-humble/0780", "opening_hours": "Mo-Sa 11:00-20:00; Su 12:00-18:00", "brand": "Dillard's", "brand:wikidata": "Q844805", "nsi_id": "dillards-592fe0"}, "geometry": {"type": "Point", "coordinates": [-95.26938, 30.0084]}},
{"type": "Feature", "id": "WN7c4CXbguPLA9sm6nDcXVm3QNc=", "properties": {"ref": "0775", "@spider": "dillards", "shop": "department_store", "addr:street_address": "4925 Westheimer Rd", "addr:city": "Houston", "addr:state": "TX", "addr:postcode": "77056", "name": "Dillard's Post Oak in Houston, Texas", "phone": "(713)622-1200", "website": "https://www.dillards.com/stores/texas/post-oak-houston/0775", "opening_hours": "Mo-Sa 11:00-20:00; Su 12:00-18:00", "brand": "Dillard's", "brand:wikidata": "Q844805", "nsi_id": "dillards-592fe0"}, "geometry": {"type": "Point", "coordinates": [-95.45925, 29.7398]}},
{"type": "Feature", "id": "tpHq2WV-rjaIJSRPP7jwV9bOCJQ=", "properties": {"ref": "0774", "@spider": "dillards", "shop": "department_store", "addr:street_address": "900 Memorial City Way", "addr:city": "Houston", "addr:state": "TX", "addr:postcode": "77024", "name": "Dillard's Memorial City Mall in Houston, Texas", "phone": "(713)464-1851", "website": "https://www.dillards.com/stores/texas/memorial-city-mall-houston/0774", "opening_hours": "Mo-Sa 11:00-20:00; Su 12:00-18:00", "brand": "Dillard's", "brand:wikidata": "Q844805", "nsi_id": "dillards-592fe0"}, "geometry": {"type": "Point", "coordinates": [-95.53706, 29.7817]}},
{"type": "Feature", "id": "0n4btVPtapxXjMLTnnkW0LDQePk=", "properties": {"ref": "0771", "@spider": "dillards", "shop": "department_store", "addr:street_address": "7925 Farm to Market 1960 Rd W", "addr:city": "Houston", "addr:state": "TX", "addr:postcode": "77070", "name": "Dillard's Willowbrook Mall in Houston, Texas", "phone": "(281)890-9200", "website": "https://www.dillards.com/stores/texas/willowbrook-mall-houston/0771", "opening_hours": "Mo-Sa 11:00-20:00; Su 12:00-18:00", "brand": "Dillard's", "brand:wikidata": "Q844805", "nsi_id": "dillards-592fe0"}, "geometry": {"type": "Point", "coordinates": [-95.53821, 29.96183]}},
{"type": "Feature", "id": "X5GImyJ19IxVrpX189aIRx6YaXM=", "properties": {"ref": "0779", "@spider": "dillards", "shop": "department_store", "addr:street_address": "600 Baybrook Mall", "addr:city": "Friendswood", "addr:state": "TX", "addr:postcode": "77546", "name": "Dillard's Baybrook Mall in Friendswood, Texas", "phone": "(281)486-0700", "website": "https://www.dillards.com/stores/texas/baybrook-mall-friendswood/0779", "opening_hours": "Mo-Sa 11:00-20:00; Su 12:00-18:00", "brand": "Dillard's", "brand:wikidata": "Q844805", "nsi_id": "dillards-592fe0"}, "geometry": {"type": "Point", "coordinates": [-95.14968, 29.54375]}},
{"type": "Feature", "id": "Vrynucp9-tABs2qoz5nv1aMedtI=", "properties": {"ref": "0926", "@spider": "dillards", "shop": "department_store", "addr:street_address": "750 Sunland Park Dr", "addr:city": "El Paso", "addr:state": "TX", "addr:postcode": "79912", "name": "Dillard's Sunland Park Mall in El Paso, Texas", "phone": "(915)833-8100", "website": "https://www.dillards.com/stores/texas/sunland-park-mall-el-paso/0926", "opening_hours": "Mo-Sa 11:00-20:00; Su 12:00-18:00", "brand": "Dillard's", "brand:wikidata": "Q844805", "nsi_id": "dillards-592fe0"}, "geometry": {"type": "Point", "coordinates": [-106.5447, 31.81683]}},
{"type": "Feature", "id": "YOL7vfq1lyPjGMgUi2hNc7ZuDQ0=", "properties": {"ref": "0924", "@spider": "dillards", "shop": "department_store", "addr:street_address": "8401 Gateway Blvd W", "addr:city": "El Paso", "addr:state": "TX", "addr:postcode": "79925", "name": "Dillard's Cielo Vista Mall in El Paso, Texas", "phone": "(915)779-6969", "website": "https://www.dillards.com/stores/texas/cielo-vista-mall-el-paso/0924", "opening_hours": "Mo-Sa 11:00-20:00; Su 12:00-18:00", "brand": "Dillard's", "brand:wikidata": "Q844805", "nsi_id": "dillards-592fe0"}, "geometry": {"type": "Point", "coordinates": [-106.37843, 31.7754]}},
{"type": "Feature", "id": "B3oay9_D3HhJhmS2EHA539yNUHA=", "properties": {"ref": "0718", "@spider": "dillards", "shop": "department_store", "addr:street_address": "2501 Dallas Pkwy", "addr:city": "Plano", "addr:state": "TX", "addr:postcode": "75093", "name": "Dillard's The Shops At Willow Bend in Plano, Texas", "phone": "(972)202-4730", "website": "https://www.dillards.com/stores/texas/the-shops-at-willow-bend-plano/0718", "opening_hours": "Mo-Sa 11:00-20:00; Su 12:00-18:00", "brand": "Dillard's", "brand:wikidata": "Q844805", "nsi_id": "dillards-592fe0"}, "geometry": {"type": "Point", "coordinates": [-96.8308, 33.03328]}},
{"type": "Feature", "id": "WHVAUtxJ-YkPKjEb95l8f_9m_lU=", "properties": {"ref": "0712", "@spider": "dillards", "shop": "department_store", "addr:street_address": "5000 Town East Mall", "addr:city": "Mesquite", "addr:state": "TX", "addr:postcode": "75150", "name": "Dillard's Town East Mall in Mesquite, Texas", "phone": "(972)681-9231", "website": "https://www.dillards.com/stores/texas/town-east-mall-mesquite/0712", "opening_hours": "Mo-Sa 11:00-20:00; Su 12:00-18:00", "brand": "Dillard's", "brand:wikidata": "Q844805", "nsi_id": "dillards-592fe0"}, "geometry": {"type": "Point", "coordinates": [-96.62451, 32.80588]}},
{"type": "Feature", "id": "eFzXgidSm4dZ7UM48CShxL7-fBM=", "properties": {"ref": "0701", "@spider": "dillards", "shop": "department_store", "addr:street_address": "1101 Melbourne Rd", "addr:city": "Hurst", "addr:state": "TX", "addr:postcode": "76053", "name": "Dillard's North East Mall in Hurst, Texas", "phone": "(817)284-4566", "website": "https://www.dillards.com/stores/texas/north-east-mall-hurst/0701", "opening_hours": "Mo-Sa 11:00-20:00; Su 12:00-18:00", "brand": "Dillard's", "brand:wikidata": "Q844805", "nsi_id": "dillards-592fe0"}, "geometry": {"type": "Point", "coordinates": [-97.20051, 32.82781]}},
{"type": "Feature", "id": "pgLwgS3tDPuAalcm4P3_QWLB_Go=", "properties": {"ref": "0708", "@spider": "dillards", "shop": "department_store", "addr:street_address": "301 Horseshoe Dr", "addr:city": "Garland", "addr:state": "TX", "addr:postcode": "75040", "name": "Dillard's Firewheel Town Center in Garland, Texas", "phone": "(972)496-4070", "website": "https://www.dillards.com/stores/texas/firewheel-town-center-garland/0708", "opening_hours": "Mo-Sa 11:00-20:00; Su 12:00-18:00", "brand": "Dillard's", "brand:wikidata": "Q844805", "nsi_id": "dillards-592fe0"}, "geometry": {"type": "Point", "coordinates": [-96.61525, 32.95553]}},
{"type": "Feature", "id": "atTlz-i7GgHYbHh4uRw-0iW-deY=", "properties": {"ref": "0719", "@spider": "dillards", "shop": "department_store", "addr:street_address": "2603 Preston Rd", "addr:city": "Frisco", "addr:state": "TX", "addr:postcode": "75034", "name": "Dillard's Stonebriar Centre in Frisco, Texas", "phone": "(214)705-8065", "website": "https://www.dillards.com/stores/texas/stonebriar-centre-frisco/0719", "opening_hours": "Mo-Sa 11:00-20:00; Su 12:00-18:00", "brand": "Dillard's", "brand:wikidata": "Q844805", "nsi_id": "dillards-592fe0"}, "geometry": {"type": "Point", "coordinates": [-96.80583, 33.1025]}},
{"type": "Feature", "id": "OqO2jwjnl8ItctFM9MAgQzTFaPI=", "properties": {"ref": "0704", "@spider": "dillards", "shop": "department_store", "addr:street_address": "4850 Overton Ridge Blvd", "addr:city": "Fort Worth", "addr:state": "TX", "addr:postcode": "76132", "name": "Dillard's Hulen Mall in Fort Worth, Texas", "phone": "(817)294-1449", "website": "https://www.dillards.com/stores/texas/hulen-mall-fort-worth/0704", "opening_hours": "Mo-Sa 11:00-20:00; Su 12:00-18:00", "brand": "Dillard's", "brand:wikidata": "Q844805", "nsi_id": "dillards-592fe0"}, "geometry": {"type": "Point", "coordinates": [-97.39935, 32.6796]}},
{"type": "Feature", "id": "gh30HckxXL1ifuOm7hy45FnzpfM=", "properties": {"ref": "0717", "@spider": "dillards", "shop": "department_store", "addr:street_address": "121 E Stacy Rd", "addr:city": "Fairview", "addr:state": "TX", "addr:postcode": "75069", "name": "Dillard's Fairview Town Center in Fairview, Texas", "phone": "(972)549-1300", "website": "https://www.dillards.com/stores/texas/fairview-town-center-fairview/0717", "opening_hours": "Mo-Sa 11:00-20:00; Su 12:00-18:00", "brand": "Dillard's", "brand:wikidata": "Q844805", "nsi_id": "dillards-592fe0"}, "geometry": {"type": "Point", "coordinates": [-96.65475, 33.13228]}},
{"type": "Feature", "id": "ZW-rVapghVHcvNjYBS-kiiGcKB4=", "properties": {"ref": "0709", "@spider": "dillards", "shop": "department_store", "addr:street_address": "2201 S Interstate 35 E", "addr:city": "Denton", "addr:state": "TX", "addr:postcode": "76205", "name": "Dillard's Golden Triangle Mall in Denton, Texas", "phone": "(940)566-6210", "website": "https://www.dillards.com/stores/texas/golden-triangle-mall-denton/0709", "opening_hours": "Mo-Sa 11:00-20:00; Su 12:00-18:00", "brand": "Dillard's", "brand:wikidata": "Q844805", "nsi_id": "dillards-592fe0"}, "geometry": {"type": "Point", "coordinates": [-97.10826, 33.19125]}},
{"type": "Feature", "id": "rIxu0RFzFtvmIo_Xk9n5fkKHkmE=", "properties": {"ref": "0716", "@spider": "dillards", "shop": "department_store", "addr:street_address": "8687 N Central Expy", "addr:city": "Dallas", "addr:state": "TX", "addr:postcode": "75225", "name": "Dillard's Northpark Center in Dallas, Texas", "phone": "(214)373-7000", "website": "https://www.dillards.com/stores/texas/northpark-center-dallas/0716", "opening_hours": "Mo-Sa 11:00-20:00; Su 12:00-18:00", "brand": "Dillard's", "brand:wikidata": "Q844805", "nsi_id": "dillards-592fe0"}, "geometry": {"type": "Point", "coordinates": [-96.77053, 32.86656]}},
{"type": "Feature", "id": "ncbWc9RqX39T1c6OauzQyF5BcI8=", "properties": {"ref": "0715", "@spider": "dillards", "shop": "department_store", "addr:street_address": "309 W Farm to Market Rd 1382", "addr:city": "Cedar Hill", "addr:state": "TX", "addr:postcode": "75104", "name": "Dillard's Hillside Village in Cedar Hill, Texas", "phone": "(972)293-0868", "website": "https://www.dillards.com/stores/texas/hillside-village-cedar-hill/0715", "opening_hours": "Mo-Sa 11:00-20:00; Su 12:00-18:00", "brand": "Dillard's", "brand:wikidata": "Q844805", "nsi_id": "dillards-592fe0"}, "geometry": {"type": "Point", "coordinates": [-96.94626, 32.60266]}},
{"type": "Feature", "id": "yPSyvCNbqj0JvFwr-oQd-OiQU-Y=", "properties": {"ref": "0714", "@spider": "dillards", "shop": "department_store", "addr:street_address": "3821 S Cooper St", "addr:city": "Arlington", "addr:state": "TX", "addr:postcode": "76015", "name": "Dillard's The Parks Mall At Arlington in Arlington, Texas", "phone": "(817)465-0718", "website": "https://www.dillards.com/stores/texas/the-parks-mall-at-arlington-arlington/0714", "opening_hours": "Mo-Sa 11:00-20:00; Su 12:00-18:00", "brand": "Dillard's", "brand:wikidata": "Q844805", "nsi_id": "dillards-592fe0"}, "geometry": {"type": "Point", "coordinates": [-97.13153, 32.681]}},
{"type": "Feature", "id": "tNLlT2CvPvGWXTlSc_QLSvGmSMg=", "properties": {"ref": "0509", "@spider": "dillards", "shop": "department_store", "addr:street_address": "2401 S Stemmons Fwy", "addr:city": "Lewisville", "addr:state": "TX", "addr:postcode": "75067", "name": "Dillard's Music City Mall Lewisville in Lewisville, Texas", "phone": "(972)315-3333", "website": "https://www.dillards.com/stores/texas/music-city-mall-lewisville-lewisville/0509", "opening_hours": "Tu-Sa 12:00-19:00; Su 12:00-18:00", "brand": "Dillard's", "brand:wikidata": "Q844805", "nsi_id": "dillards-592fe0"}, "geometry": {"type": "Point", "coordinates": [-96.97345, 33.00423]}},
{"type": "Feature", "id": "jpp1qO1HDnUE6Z7AQ1HaKMuM6S0=", "properties": {"ref": "0506", "@spider": "dillards", "shop": "department_store", "addr:street_address": "3901 Irving Mall", "addr:city": "Irving", "addr:state": "TX", "addr:postcode": "75062", "name": "Dillard's Irving Mall in Irving, Texas", "phone": "(972)258-4968", "website": "https://www.dillards.com/stores/texas/irving-mall-irving/0506", "opening_hours": "Tu-Sa 12:00-19:00; Su 12:00-18:00", "brand": "Dillard's", "brand:wikidata": "Q844805", "nsi_id": "dillards-592fe0"}, "geometry": {"type": "Point", "coordinates": [-96.99831, 32.83818]}},
{"type": "Feature", "id": "q6o_ARjK35exl5DCtZ__-RPg368=", "properties": {"ref": "0510", "@spider": "dillards", "shop": "department_store", "addr:street_address": "900 West Oaks Mall", "addr:city": "Houston", "addr:state": "TX", "addr:postcode": "77082", "name": "Dillard's West Oaks Mall in Houston, Texas", "phone": "(281)558-4431", "website": "https://www.dillards.com/stores/texas/west-oaks-mall-houston/0510", "opening_hours": "Tu-Sa 12:00-19:00; Su 12:00-18:00", "brand": "Dillard's", "brand:wikidata": "Q844805", "nsi_id": "dillards-592fe0"}, "geometry": {"type": "Point", "coordinates": [-95.64468, 29.73331]}},
{"type": "Feature", "id": "JYCyihXorKpkWBZk2yOrJ4jxKJk=", "properties": {"ref": "0507", "@spider": "dillards", "shop": "department_store", "addr:street_address": "1700 Green Oaks Rd", "addr:city": "Fort Worth", "addr:state": "TX", "addr:postcode": "76116", "name": "Dillard's Ridgmar Mall in Fort Worth, Texas", "phone": "(817)731-4711", "website": "https://www.dillards.com/stores/texas/ridgmar-mall-fort-worth/0507", "opening_hours": "Tu-Sa 12:00-19:00; Su 12:00-18:00", "brand": "Dillard's", "brand:wikidata": "Q844805", "nsi_id": "dillards-592fe0"}, "geometry": {"type": "Point", "coordinates": [-97.43738, 32.74276]}},
{"type": "Feature", "id": "JbGAlkiz3IjRj8rkL-N0duZxLuo=", "properties": {"ref": "0787", "@spider": "dillards", "shop": "department_store", "addr:street_address": "3100 FM 365", "addr:city": "Port Arthur", "addr:state": "TX", "addr:postcode": "77642", "name": "Dillard's Central Mall in Port Arthur, Texas", "phone": "(409)724-7575", "website": "https://www.dillards.com/stores/texas/central-mall-port-arthur/0787", "opening_hours": "Mo-Sa 11:00-20:00; Su 12:00-18:00", "brand": "Dillard's", "brand:wikidata": "Q844805", "nsi_id": "dillards-592fe0"}, "geometry": {"type": "Point", "coordinates": [-93.98883, 29.95025]}},
{"type": "Feature", "id": "ARpkAsQyZehZlJFIje_WDXqUspE=", "properties": {"ref": "0786", "@spider": "dillards", "shop": "department_store", "addr:street_address": "5955 Eastex Fwy", "addr:city": "Beaumont", "addr:state": "TX", "addr:postcode": "77706", "name": "Dillard's Parkdale Mall in Beaumont, Texas", "phone": "(409)899-9800", "website": "https://www.dillards.com/stores/texas/parkdale-mall-beaumont/0786", "opening_hours": "Mo-Sa 11:00-20:00; Su 12:00-18:00", "brand": "Dillard's", "brand:wikidata": "Q844805", "nsi_id": "dillards-592fe0"}, "geometry": {"type": "Point", "coordinates": [-94.16378, 30.12475]}},
{"type": "Feature", "id": "Vjm7oWqYAC9tKpdtj1tid4NeHeM=", "properties": {"ref": "0735", "@spider": "dillards", "shop": "department_store", "addr:street_address": "11200 Lakeline Mall Dr", "addr:city": "Cedar Park", "addr:state": "TX", "addr:postcode": "78613", "name": "Dillard's Lakeline Mall in Cedar Park, Texas", "phone": "(512)257-8740", "website": "https://www.dillards.com/stores/texas/lakeline-mall-cedar-park/0735", "opening_hours": "Mo-Sa 11:00-20:00; Su 12:00-18:00", "brand": "Dillard's", "brand:wikidata": "Q844805", "nsi_id": "dillards-592fe0"}, "geometry": {"type": "Point", "coordinates": [-97.80616, 30.47051]}},
{"type": "Feature", "id": "xp4iR1ZBKG2w_K5gyUdvmmT73FQ=", "properties": {"ref": "0736", "@spider": "dillards", "shop": "department_store", "addr:street_address": "4000 Vista Ridge ", "addr:city": "Bee Cave", "addr:state": "TX", "addr:postcode": "78738", "name": "Dillard's Hill Country Galleria in Bee Cave, Texas", "phone": "(512)263-0520", "website": "https://www.dillards.com/stores/texas/hill-country-galleria-bee-cave/0736", "opening_hours": "Mo-Sa 11:00-20:00; Su 12:00-18:00", "brand": "Dillard's", "brand:wikidata": "Q844805", "nsi_id": "dillards-592fe0"}, "geometry": {"type": "Point", "coordinates": [-97.94348, 30.30943]}},
{"type": "Feature", "id": "mCSfHWVs_D9VGrXdG5IZ3qbbQHU=", "properties": {"ref": "0734", "@spider": "dillards", "shop": "department_store", "addr:street_address": "3211 Feathergrass Ct", "addr:city": "Austin", "addr:state": "TX", "addr:postcode": "78758-7772", "name": "Dillard's The Domain in Austin, Texas", "phone": "(512)833-9556", "website": "https://www.dillards.com/stores/texas/the-domain-austin/0734", "opening_hours": "Mo-Sa 11:00-20:00; Su 12:00-18:00", "brand": "Dillard's", "brand:wikidata": "Q844805", "nsi_id": "dillards-592fe0"}, "geometry": {"type": "Point", "coordinates": [-97.71666, 30.38333]}},
{"type": "Feature", "id": "cRsUTBq7MlJ0w-7nVv0WX8CfjlM=", "properties": {"ref": "0733", "@spider": "dillards", "shop": "department_store", "addr:street_address": "2901 N Capital of Texas Hwy", "addr:city": "Austin", "addr:state": "TX", "addr:postcode": "78746", "name": "Dillard's Barton Creek Square in Austin, Texas", "phone": "(512)327-6100", "website": "https://www.dillards.com/stores/texas/barton-creek-square-austin/0733", "opening_hours": "Mo-Sa 11:00-20:00; Su 12:00-18:00", "brand": "Dillard's", "brand:wikidata": "Q844805", "nsi_id": "dillards-592fe0"}, "geometry": {"type": "Point", "coordinates": [-97.80481, 30.2564]}},
{"type": "Feature", "id": "E0rteB0t6kDITIrx8h6OpVu3sv0=", "properties": {"ref": "0428", "@spider": "dillards", "shop": "department_store", "addr:street_address": "7600 Kingston Pike #300", "addr:city": "Knoxville", "addr:state": "TN", "addr:postcode": "37919", "name": "Dillard's West Town Mall in Knoxville, Tennessee", "phone": "(865)531-1931", "website": "https://www.dillards.com/stores/tennessee/west-town-mall-knoxville/0428", "opening_hours": "Mo-Sa 11:00-20:00; Su 12:00-18:00", "brand": "Dillard's", "brand:wikidata": "Q844805", "nsi_id": "dillards-592fe0"}, "geometry": {"type": "Point", "coordinates": [-84.03995, 35.92571]}},
{"type": "Feature", "id": "MQEHAnKpBmjYCOwDaVWjC4sB1Fc=", "properties": {"ref": "0426", "@spider": "dillards", "shop": "department_store", "addr:street_address": "2801 Wilma Rudolph Blvd", "addr:city": "Clarksville", "addr:state": "TN", "addr:postcode": "37040", "name": "Dillard's Governor's Square Mall in Clarksville, Tennessee", "phone": "(931)648-3511", "website": "https://www.dillards.com/stores/tennessee/governors-square-mall-clarksville/0426", "opening_hours": "Mo-Sa 11:00-20:00; Su 12:00-18:00", "brand": "Dillard's", "brand:wikidata": "Q844805", "nsi_id": "dillards-592fe0"}, "geometry": {"type": "Point", "coordinates": [-87.28598, 36.58798]}},
{"type": "Feature", "id": "H6vo6LXcYRxgFepk3popwr2gXVw=", "properties": {"ref": "0430", "@spider": "dillards", "shop": "department_store", "addr:street_address": "2100 Hamilton Pl Blvd", "addr:city": "Chattanooga", "addr:state": "TN", "addr:postcode": "37421", "name": "Dillard's Hamilton Place in Chattanooga, Tennessee", "phone": "(423)892-1110", "website": "https://www.dillards.com/stores/tennessee/hamilton-place-chattanooga/0430", "opening_hours": "Mo-Sa 11:00-20:00; Su 12:00-18:00", "brand": "Dillard's", "brand:wikidata": "Q844805", "nsi_id": "dillards-592fe0"}, "geometry": {"type": "Point", "coordinates": [-85.15826, 35.03663]}},
{"type": "Feature", "id": "LwHlqlVFBIj6hVbW7hvDAHh4JX0=", "properties": {"ref": "0421", "@spider": "dillards", "shop": "department_store", "addr:street_address": "2140 Abbott Martin Rd", "addr:city": "Nashville", "addr:state": "TN", "addr:postcode": "37215", "name": "Dillard's The Mall At Green Hills in Nashville, Tennessee", "phone": "(615)297-0971", "website": "https://www.dillards.com/stores/tennessee/the-mall-at-green-hills-nashville/0421", "opening_hours": "Mo-Sa 11:00-20:00; Su 12:00-18:00", "brand": "Dillard's", "brand:wikidata": "Q844805", "nsi_id": "dillards-592fe0"}, "geometry": {"type": "Point", "coordinates": [-86.81751, 36.10651]}},
{"type": "Feature", "id": "-534zc64nE-2RkohQ-mQ2Xb6Vy0=", "properties": {"ref": "0427", "@spider": "dillards", "shop": "department_store", "addr:street_address": "1720 Old Fort Pkwy", "addr:city": "Murfreesboro", "addr:state": "TN", "addr:postcode": "37129", "name": "Dillard's Stones River Town Center in Murfreesboro, Tennessee", "phone": "(615)867-2100", "website": "https://www.dillards.com/stores/tennessee/stones-river-town-center-murfreesboro/0427", "opening_hours": "Mo-Sa 11:00-20:00; Su 12:00-18:00", "brand": "Dillard's", "brand:wikidata": "Q844805", "nsi_id": "dillards-592fe0"}, "geometry": {"type": "Point", "coordinates": [-86.4203, 35.84836]}},
{"type": "Feature", "id": "t52QDMBV0Bdp9bejvinBx6et-rk=", "properties": {"ref": "0422", "@spider": "dillards", "shop": "department_store", "addr:street_address": "1000 Rivergate Pkwy", "addr:city": "Goodlettsville", "addr:state": "TN", "addr:postcode": "37072", "name": "Dillard's Rivergate Mall in Goodlettsville, Tennessee", "phone": "(615)859-2811", "website": "https://www.dillards.com/stores/tennessee/rivergate-mall-goodlettsville/0422", "opening_hours": "Mo-Sa 11:00-20:00; Su 12:00-18:00", "brand": "Dillard's", "brand:wikidata": "Q844805", "nsi_id": "dillards-592fe0"}, "geometry": {"type": "Point", "coordinates": [-86.69608, 36.30275]}},
{"type": "Feature", "id": "q36cjtCxYs0g6ksj51zNdRj6LxI=", "properties": {"ref": "0425", "@spider": "dillards", "shop": "department_store", "addr:street_address": "1796 Galleria Blvd", "addr:city": "Franklin", "addr:state": "TN", "addr:postcode": "37067", "name": "Dillard's Coolsprings Galleria in Franklin, Tennessee", "phone": "(615)771-7101", "website": "https://www.dillards.com/stores/tennessee/coolsprings-galleria-franklin/0425", "opening_hours": "Mo-Sa 11:00-20:00; Su 12:00-18:00", "brand": "Dillard's", "brand:wikidata": "Q844805", "nsi_id": "dillards-592fe0"}, "geometry": {"type": "Point", "coordinates": [-86.81246, 35.95661]}},
{"type": "Feature", "id": "NawphVM_DbyO3jLKUKQmvHslLYo=", "properties": {"ref": "0411", "@spider": "dillards", "shop": "department_store", "addr:street_address": "2700 N Germantown Pkwy", "addr:city": "Memphis", "addr:state": "TN", "addr:postcode": "38133", "name": "Dillard's Wolfchase Galleria in Memphis, Tennessee", "phone": "(901)383-1029", "website": "https://www.dillards.com/stores/tennessee/wolfchase-galleria-memphis/0411", "opening_hours": "Mo-Sa 11:00-20:00; Su 12:00-18:00", "brand": "Dillard's", "brand:wikidata": "Q844805", "nsi_id": "dillards-592fe0"}, "geometry": {"type": "Point", "coordinates": [-89.78755, 35.20111]}},
{"type": "Feature", "id": "O0eaF--oXITvoDy6Lz0XXw1wdV0=", "properties": {"ref": "0410", "@spider": "dillards", "shop": "department_store", "addr:street_address": "4433 Poplar Ave", "addr:city": "Memphis", "addr:state": "TN", "addr:postcode": "38117", "name": "Dillard's Oak Court Mall in Memphis, Tennessee", "phone": "(901)685-0382", "website": "https://www.dillards.com/stores/tennessee/oak-court-mall-memphis/0410", "opening_hours": "Mo-Sa 11:00-20:00; Su 12:00-18:00", "brand": "Dillard's", "brand:wikidata": "Q844805", "nsi_id": "dillards-592fe0"}, "geometry": {"type": "Point", "coordinates": [-89.9144, 35.11765]}},
{"type": "Feature", "id": "8qZ-nLboXprBpFTYGI_gdnYJBSk=", "properties": {"ref": "0409", "@spider": "dillards", "shop": "department_store", "addr:street_address": "4620 Merchants Park Cir Bldg C", "addr:city": "Collierville", "addr:state": "TN", "addr:postcode": "38017", "name": "Dillard's Carriage Crossing in Collierville, Tennessee", "phone": "(901)850-2229", "website": "https://www.dillards.com/stores/tennessee/carriage-crossing-collierville/0409", "opening_hours": "Mo-Sa 11:00-20:00; Su 12:00-18:00", "brand": "Dillard's", "brand:wikidata": "Q844805", "nsi_id": "dillards-592fe0"}, "geometry": {"type": "Point", "coordinates": [-89.72028, 35.02203]}},
{"type": "Feature", "id": "C1zDMmiBZUicujeRBqtzg-G8TkQ=", "properties": {"ref": "0163", "@spider": "dillards", "shop": "department_store", "addr:street_address": "100 Coastal Grand Cir ", "addr:city": "Myrtle Beach", "addr:state": "SC", "addr:postcode": "29577", "name": "Dillard's Coastal Grand Mall in Myrtle Beach, South Carolina", "phone": "(843)839-2917", "website": "https://www.dillards.com/stores/south-carolina/coastal-grand-mall-myrtle-beach/0163", "opening_hours": "Mo-Sa 11:00-20:00; Su 12:00-18:00", "brand": "Dillard's", "brand:wikidata": "Q844805", "nsi_id": "dillards-592fe0"}, "geometry": {"type": "Point", "coordinates": [-78.9263, 33.7017]}},
{"type": "Feature", "id": "rr01NqLXaU7OwSztgeeqy12M-Ow=", "properties": {"ref": "0164", "@spider": "dillards", "shop": "department_store", "addr:street_address": "100 Columbiana Cir ", "addr:city": "Columbia", "addr:state": "SC", "addr:postcode": "29212", "name": "Dillard's Columbiana Centre in Columbia, South Carolina", "phone": "(803)732-7037", "website": "https://www.dillards.com/stores/south-carolina/columbiana-centre-columbia/0164", "opening_hours": "Mo-Sa 11:00-20:00; Su 12:00-18:00", "brand": "Dillard's", "brand:wikidata": "Q844805", "nsi_id": "dillards-592fe0"}, "geometry": {"type": "Point", "coordinates": [-81.15815, 34.08085]}},
{"type": "Feature", "id": "fln9-cvfg7Y9K2VGVMIThCDJmBA=", "properties": {"ref": "0167", "@spider": "dillards", "shop": "department_store", "addr:street_address": "205 W Blackstock Rd ", "addr:city": "Spartanburg", "addr:state": "SC", "addr:postcode": "29301", "name": "Dillard's Westgate Mall in Spartanburg, South Carolina", "phone": "(864)576-0046", "website": "https://www.dillards.com/stores/south-carolina/westgate-mall-spartanburg/0167", "opening_hours": "Mo-Sa 11:00-20:00; Su 12:00-18:00", "brand": "Dillard's", "brand:wikidata": "Q844805", "nsi_id": "dillards-592fe0"}, "geometry": {"type": "Point", "coordinates": [-81.99228, 34.94023]}},
{"type": "Feature", "id": "34z130rDcync6tI9HUrfl1YvJys=", "properties": {"ref": "0166", "@spider": "dillards", "shop": "department_store", "addr:street_address": "700 Haywood Rd #508", "addr:city": "Greenville", "addr:state": "SC", "addr:postcode": "29607", "name": "Dillard's Haywood Mall in Greenville, South Carolina", "phone": "(864)987-9229", "website": "https://www.dillards.com/stores/south-carolina/haywood-mall-greenville/0166", "opening_hours": "Mo-Sa 11:00-20:00; Su 12:00-18:00", "brand": "Dillard's", "brand:wikidata": "Q844805", "nsi_id": "dillards-592fe0"}, "geometry": {"type": "Point", "coordinates": [-82.33038, 34.85038]}},
{"type": "Feature", "id": "hOkmrcwxlazzyD5BPM97eDyJpFw=", "properties": {"ref": "0168", "@spider": "dillards", "shop": "department_store", "addr:street_address": "3101 N Main St d", "addr:city": "Anderson", "addr:state": "SC", "addr:postcode": "29621", "name": "Dillard's Anderson Mall in Anderson, South Carolina", "phone": "(864)224-1315", "website": "https://www.dillards.com/stores/south-carolina/anderson-mall-anderson/0168", "opening_hours": "Mo-Sa 11:00-20:00; Su 12:00-18:00", "brand": "Dillard's", "brand:wikidata": "Q844805", "nsi_id": "dillards-592fe0"}, "geometry": {"type": "Point", "coordinates": [-82.66893, 34.5387]}},
{"type": "Feature", "id": "i7PA9cbwmIZQ0boPrn02JbfmJ00=", "properties": {"ref": "0162", "@spider": "dillards", "shop": "department_store", "addr:street_address": "2150 Northwoods Blvd", "addr:city": "North Charleston", "addr:state": "SC", "addr:postcode": "29406", "name": "Dillard's Northwood Mall in North Charleston, South Carolina", "phone": "(843)553-6363", "website": "https://www.dillards.com/stores/south-carolina/northwood-mall-north-charleston/0162", "opening_hours": "Mo-Sa 11:00-20:00; Su 12:00-18:00", "brand": "Dillard's", "brand:wikidata": "Q844805", "nsi_id": "dillards-592fe0"}, "geometry": {"type": "Point", "coordinates": [-80.04345, 32.9425]}},
{"type": "Feature", "id": "JV86vym_x3YssVfDepK6k8o-_k4=", "properties": {"ref": "0161", "@spider": "dillards", "shop": "department_store", "addr:street_address": "2066 Sam Rittenberg Blvd", "addr:city": "Charleston", "addr:state": "SC", "addr:postcode": "29407", "name": "Dillard's Citadel Mall in Charleston, South Carolina", "phone": "(843)556-0080", "website": "https://www.dillards.com/stores/south-carolina/citadel-mall-charleston/0161", "opening_hours": "Mo-Sa 11:00-20:00; Su 12:00-18:00", "brand": "Dillard's", "brand:wikidata": "Q844805", "nsi_id": "dillards-592fe0"}, "geometry": {"type": "Point", "coordinates": [-80.03395, 32.79808]}},
{"type": "Feature", "id": "mqM2YCf3T__WA1RzM7Mo0-pf4m4=", "properties": {"ref": "0792", "@spider": "dillards", "shop": "department_store", "addr:street_address": "6919 S Memorial Dr", "addr:city": "Tulsa", "addr:state": "OK", "addr:postcode": "74133", "name": "Dillard's Woodland Hills Mall in Tulsa, Oklahoma", "phone": "(918)252-1890", "website": "https://www.dillards.com/stores/oklahoma/woodland-hills-mall-tulsa/0792", "opening_hours": "Mo-Sa 11:00-20:00; Su 12:00-18:00", "brand": "Dillard's", "brand:wikidata": "Q844805", "nsi_id": "dillards-592fe0"}, "geometry": {"type": "Point", "coordinates": [-95.88261, 36.06415]}},
{"type": "Feature", "id": "p4TZTNGqgGSq0CYqniN8jfA1eX8=", "properties": {"ref": "0791", "@spider": "dillards", "shop": "department_store", "addr:street_address": "4169 S Yale Ave", "addr:city": "Tulsa", "addr:state": "OK", "addr:postcode": "74135", "name": "Dillard's Tulsa Promenade in Tulsa, Oklahoma", "phone": "(918)627-7700", "website": "https://www.dillards.com/stores/oklahoma/tulsa-promenade-tulsa/0791", "opening_hours": "Mo-Sa 11:00-20:00; Su 12:00-18:00", "brand": "Dillard's", "brand:wikidata": "Q844805", "nsi_id": "dillards-592fe0"}, "geometry": {"type": "Point", "coordinates": [-95.91788, 36.1033]}},
{"type": "Feature", "id": "W8UiwgkBTN8cagWmEFphk6sGjw8=", "properties": {"ref": "0797", "@spider": "dillards", "shop": "department_store", "addr:street_address": "4901 N Kickapoo Ave St", "addr:city": "Shawnee", "addr:state": "OK", "addr:postcode": "74804", "name": "Dillard's Shawnee Mall in Shawnee, Oklahoma", "phone": "(405)273-1500", "website": "https://www.dillards.com/stores/oklahoma/shawnee-mall-shawnee/0797", "opening_hours": "Mo-Sa 11:00-20:00; Su 12:00-18:00", "brand": "Dillard's", "brand:wikidata": "Q844805", "nsi_id": "dillards-592fe0"}, "geometry": {"type": "Point", "coordinates": [-96.92825, 35.38751]}},
{"type": "Feature", "id": "Pm8DVUcw_G6FCgDMeq-84EBY74Q=", "properties": {"ref": "0796", "@spider": "dillards", "shop": "department_store", "addr:street_address": "1901 Northwest Expy #1001", "addr:city": "Oklahoma City", "addr:state": "OK", "addr:postcode": "73118", "name": "Dillard's Penn Square Mall in Oklahoma City, Oklahoma", "phone": "(405)840-8495", "website": "https://www.dillards.com/stores/oklahoma/penn-square-mall-oklahoma-city/0796", "opening_hours": "Mo-Sa 11:00-20:00; Su 12:00-18:00", "brand": "Dillard's", "brand:wikidata": "Q844805", "nsi_id": "dillards-592fe0"}, "geometry": {"type": "Point", "coordinates": [-97.54266, 35.52426]}},
{"type": "Feature", "id": "3w5GQFpBowRfngfSeNJsdrPzqt8=", "properties": {"ref": "0795", "@spider": "dillards", "shop": "department_store", "addr:street_address": "2501 W Memorial Rd #1001", "addr:city": "Oklahoma City", "addr:state": "OK", "addr:postcode": "73134", "name": "Dillard's Quail Springs Mall in Oklahoma City, Oklahoma", "phone": "(405)755-5220", "website": "https://www.dillards.com/stores/oklahoma/quail-springs-mall-oklahoma-city/0795", "opening_hours": "Mo-Sa 11:00-20:00; Su 12:00-18:00", "brand": "Dillard's", "brand:wikidata": "Q844805", "nsi_id": "dillards-592fe0"}, "geometry": {"type": "Point", "coordinates": [-97.55741, 35.6143]}},
{"type": "Feature", "id": "bb45rFEBPBk2B7PoYGZNOG0lSGQ=", "properties": {"ref": "0798", "@spider": "dillards", "shop": "department_store", "addr:street_address": "3499 W Main St", "addr:city": "Norman", "addr:state": "OK", "addr:postcode": "73072-4809", "name": "Dillard's Sooner Mall in Norman, Oklahoma", "phone": "(405)329-2600", "website": "https://www.dillards.com/stores/oklahoma/sooner-mall-norman/0798", "opening_hours": "Mo-Sa 11:00-20:00; Su 12:00-18:00", "brand": "Dillard's", "brand:wikidata": "Q844805", "nsi_id": "dillards-592fe0"}, "geometry": {"type": "Point", "coordinates": [-97.49231, 35.21915]}},
{"type": "Feature", "id": "o16cpHiA1mT_AP0yc4mKMNL0oPQ=", "properties": {"ref": "0524", "@spider": "dillards", "shop": "department_store", "addr:street_address": "2350 SE Washington Blvd", "addr:city": "Bartlesville", "addr:state": "OK", "addr:postcode": "74006", "name": "Dillard's Washington Park Mall in Bartlesville, Oklahoma", "phone": "(918)335-3300", "website": "https://www.dillards.com/stores/oklahoma/washington-park-mall-bartlesville/0524", "opening_hours": "Tu-Sa 12:00-19:00; Su 12:00-18:00", "brand": "Dillard's", "brand:wikidata": "Q844805", "nsi_id": "dillards-592fe0"}, "geometry": {"type": "Point", "coordinates": [-95.93768, 36.71283]}},
{"type": "Feature", "id": "CD3eDsxcJlDlPOakwruSXac4Zkg=", "properties": {"ref": "0376", "@spider": "dillards", "shop": "department_store", "addr:street_address": "5001 Monroe St", "addr:city": "Toledo", "addr:state": "OH", "addr:postcode": "43623", "name": "Dillard's Franklin Park Mall in Toledo, Ohio", "phone": "(419)473-9600", "website": "https://www.dillards.com/stores/ohio/franklin-park-mall-toledo/0376", "opening_hours": "Mo-Sa 11:00-20:00; Su 12:00-18:00", "brand": "Dillard's", "brand:wikidata": "Q844805", "nsi_id": "dillards-592fe0"}, "geometry": {"type": "Point", "coordinates": [-83.64243, 41.69586]}},
{"type": "Feature", "id": "18q8foikh6ONHexei9LycbV0VgY=", "properties": {"ref": "0378", "@spider": "dillards", "shop": "department_store", "addr:street_address": "3100 Main St #600", "addr:city": "Maumee", "addr:state": "OH", "addr:postcode": "43537", "name": "Dillard's The Shops At Fallen Timbers in Maumee, Ohio", "phone": "(419)878-2729", "website": "https://www.dillards.com/stores/ohio/the-shops-at-fallen-timbers-maumee/0378", "opening_hours": "Mo-Sa 11:00-20:00; Su 12:00-18:00", "brand": "Dillard's", "brand:wikidata": "Q844805", "nsi_id": "dillards-592fe0"}, "geometry": {"type": "Point", "coordinates": [-83.7063, 41.5452]}},
{"type": "Feature", "id": "_hoWKsNpCbpPPx9M0El8zQ90ogQ=", "properties": {"ref": "0373", "@spider": "dillards", "shop": "department_store", "addr:street_address": "4400 Belden Village St NW", "addr:city": "Canton", "addr:state": "OH", "addr:postcode": "44718", "name": "Dillard's Belden Village Mall in Canton, Ohio", "phone": "(330)494-3050", "website": "https://www.dillards.com/stores/ohio/belden-village-mall-canton/0373", "opening_hours": "Mo-Sa 11:00-20:00; Su 12:00-18:00", "brand": "Dillard's", "brand:wikidata": "Q844805", "nsi_id": "dillards-592fe0"}, "geometry": {"type": "Point", "coordinates": [-81.42518, 40.85445]}},
{"type": "Feature", "id": "V6jOURPWXguahfTzHa81DsMw8xI=", "properties": {"ref": "0371", "@spider": "dillards", "shop": "department_store", "addr:street_address": "3265 W Market St", "addr:city": "Akron", "addr:state": "OH", "addr:postcode": "44333", "name": "Dillard's Summit Mall in Akron, Ohio", "phone": "(330)867-3300", "website": "https://www.dillards.com/stores/ohio/summit-mall-akron/0371", "opening_hours": "Mo-Sa 11:00-20:00; Su 12:00-18:00", "brand": "Dillard's", "brand:wikidata": "Q844805", "nsi_id": "dillards-592fe0"}, "geometry": {"type": "Point", "coordinates": [-81.61713, 41.13556]}},
{"type": "Feature", "id": "h0N1iUPF39jfkwWiPCmYgoQ8inQ=", "properties": {"ref": "0364", "@spider": "dillards", "shop": "department_store", "addr:street_address": "16996 Southpark Center", "addr:city": "Strongsville", "addr:state": "OH", "addr:postcode": "44136", "name": "Dillard's Southpark Mall in Strongsville, Ohio", "phone": "(440)846-8718", "website": "https://www.dillards.com/stores/ohio/southpark-mall-strongsville/0364", "opening_hours": "Mo-Sa 11:00-20:00; Su 12:00-18:00", "brand": "Dillard's", "brand:wikidata": "Q844805", "nsi_id": "dillards-592fe0"}, "geometry": {"type": "Point", "coordinates": [-81.8193, 41.30978]}},
{"type": "Feature", "id": "2PTFsE3p9jddTqFxYu5PpvMej5o=", "properties": {"ref": "0367", "@spider": "dillards", "shop": "department_store", "addr:street_address": "25188 Country Club Blvd", "addr:city": "North Olmsted", "addr:state": "OH", "addr:postcode": "44070", "name": "Dillard's Great Northern Mall in North Olmsted, Ohio", "phone": "(440)777-0822", "website": "https://www.dillards.com/stores/ohio/great-northern-mall-north-olmsted/0367", "opening_hours": "Mo-Sa 11:00-20:00; Su 12:00-18:00", "brand": "Dillard's", "brand:wikidata": "Q844805", "nsi_id": "dillards-592fe0"}, "geometry": {"type": "Point", "coordinates": [-81.90811, 41.41393]}},
{"type": "Feature", "id": "pPbMNFWA-c23-t5MNspPnpDtIC4=", "properties": {"ref": "0362", "@spider": "dillards", "shop": "department_store", "addr:street_address": "7850 Mentor Ave", "addr:city": "Mentor", "addr:state": "OH", "addr:postcode": "44060", "name": "Dillard's Great Lakes Mall in Mentor, Ohio", "phone": "(440)255-5651", "website": "https://www.dillards.com/stores/ohio/great-lakes-mall-mentor/0362", "opening_hours": "Mo-Sa 11:00-20:00; Su 12:00-18:00", "brand": "Dillard's", "brand:wikidata": "Q844805", "nsi_id": "dillards-592fe0"}, "geometry": {"type": "Point", "coordinates": [-81.36248, 41.65886]}},
{"type": "Feature", "id": "58bdQVL4advFWUhzF1yE4um2jdE=", "properties": {"ref": "0365", "@spider": "dillards", "shop": "department_store", "addr:street_address": "26500 Cedar Rd", "addr:city": "Beachwood", "addr:state": "OH", "addr:postcode": "44122", "name": "Dillard's Beachwood Place in Beachwood, Ohio", "phone": "(216)464-6000", "website": "https://www.dillards.com/stores/ohio/beachwood-place-beachwood/0365", "opening_hours": "Mo-Sa 11:00-20:00; Su 12:00-18:00", "brand": "Dillard's", "brand:wikidata": "Q844805", "nsi_id": "dillards-592fe0"}, "geometry": {"type": "Point", "coordinates": [-81.49256, 41.49883]}},
{"type": "Feature", "id": "CQVSeMpnfqGxZX6oUwhTwXIqtaI=", "properties": {"ref": "0528", "@spider": "dillards", "shop": "department_store", "addr:street_address": "5555 Youngstown Warren Rd", "addr:city": "Niles", "addr:state": "OH", "addr:postcode": "44446", "name": "Dillard's Eastwood Mall Complex in Niles, Ohio", "phone": "(330)544-1016", "website": "https://www.dillards.com/stores/ohio/eastwood-mall-complex-niles/0528", "opening_hours": "Mo-Sa 12:00-19:00; Su 12:00-18:00", "brand": "Dillard's", "brand:wikidata": "Q844805", "nsi_id": "dillards-592fe0"}, "geometry": {"type": "Point", "coordinates": [-80.7431, 41.20778]}},
{"type": "Feature", "id": "CM0uLO_x6MJeSwDRx5wmYsFeDyI=", "properties": {"ref": "0523", "@spider": "dillards", "shop": "department_store", "addr:street_address": "4615 Eastgate Blvd", "addr:city": "Cincinnati", "addr:state": "OH", "addr:postcode": "45245", "name": "Dillard's Eastgate Mall in Cincinnati, Ohio", "phone": "(513)943-5100", "website": "https://www.dillards.com/stores/ohio/eastgate-mall-cincinnati/0523", "opening_hours": "Tu-Sa 12:00-19:00; Su 12:00-18:00", "brand": "Dillard's", "brand:wikidata": "Q844805", "nsi_id": "dillards-592fe0"}, "geometry": {"type": "Point", "coordinates": [-84.27976, 39.1048]}},
{"type": "Feature", "id": "fq12nQkVOye5qzrAVzP1WblTjNM=", "properties": {"ref": "0353", "@spider": "dillards", "shop": "department_store", "addr:street_address": "7660 Blake St", "addr:city": "Liberty Township", "addr:state": "OH", "addr:postcode": "45069", "name": "Dillard's Liberty Center in Liberty Township, Ohio", "phone": "(513)712-5902", "website": "https://www.dillards.com/stores/ohio/liberty-center-liberty-township/0353", "opening_hours": "Mo-Sa 11:00-20:00; Su 12:00-18:00", "brand": "Dillard's", "brand:wikidata": "Q844805", "nsi_id": "dillards-592fe0"}, "geometry": {"type": "Point", "coordinates": [-84.37111, 39.37111]}},
{"type": "Feature", "id": "lfjZUlhGpwRZv6g5gflY8IgiYvM=", "properties": {"ref": "0351", "@spider": "dillards", "shop": "department_store", "addr:street_address": "7913 Montgomery Rd ", "addr:city": "Cincinnati", "addr:state": "OH", "addr:postcode": "45236", "name": "Dillard's Kenwood Towne Centre in Cincinnati, Ohio", "phone": "(513)745-4489", "website": "https://www.dillards.com/stores/ohio/kenwood-towne-centre-cincinnati/0351", "opening_hours": "Mo-Sa 11:00-20:00; Su 12:00-18:00", "brand": "Dillard's", "brand:wikidata": "Q844805", "nsi_id": "dillards-592fe0"}, "geometry": {"type": "Point", "coordinates": [-84.37581, 39.20213]}},
{"type": "Feature", "id": "uJku8N4eGN-MeLSW6ZdtzPWDiI0=", "properties": {"ref": "0145", "@spider": "dillards", "shop": "department_store", "addr:street_address": "3320 Silas Creek Pkwy #3500", "addr:city": "Winston-Salem", "addr:state": "NC", "addr:postcode": "27103", "name": "Dillard's Hanes Mall in Winston-Salem, North Carolina", "phone": "(336)659-1515", "website": "https://www.dillards.com/stores/north-carolina/hanes-mall-winston-salem/0145", "opening_hours": "Mo-Sa 11:00-20:00; Su 12:00-18:00", "brand": "Dillard's", "brand:wikidata": "Q844805", "nsi_id": "dillards-592fe0"}, "geometry": {"type": "Point", "coordinates": [-80.30216, 36.06843]}},
{"type": "Feature", "id": "Fr73sCRKEfGGcoiKt-RG022q9P0=", "properties": {"ref": "0156", "@spider": "dillards", "shop": "department_store", "addr:street_address": "3500 Oleander Dr", "addr:city": "Wilmington", "addr:state": "NC", "addr:postcode": "28403", "name": "Dillard's Independence Mall in Wilmington, North Carolina", "phone": "(910)796-0187", "website": "https://www.dillards.com/stores/north-carolina/independence-mall-wilmington/0156", "opening_hours": "Mo-Sa 11:00-20:00; Su 12:00-18:00", "brand": "Dillard's", "brand:wikidata": "Q844805", "nsi_id": "dillards-592fe0"}, "geometry": {"type": "Point", "coordinates": [-77.90635, 34.21083]}},
{"type": "Feature", "id": "Yj3AUqkHO4kPgAJ0_IWKsVFenwM=", "properties": {"ref": "0140", "@spider": "dillards", "shop": "department_store", "addr:street_address": "3501 Sumner Blvd", "addr:city": "Raleigh", "addr:state": "NC", "addr:postcode": "27616", "name": "Dillard's Triangle Town Center in Raleigh, North Carolina", "phone": "(919)792-2900", "website": "https://www.dillards.com/stores/north-carolina/triangle-town-center-raleigh/0140", "opening_hours": "Mo-Sa 11:00-20:00; Su 12:00-18:00", "brand": "Dillard's", "brand:wikidata": "Q844805", "nsi_id": "dillards-592fe0"}, "geometry": {"type": "Point", "coordinates": [-78.57845, 35.86558]}},
{"type": "Feature", "id": "Z78FLsLcX9nWObI-H997r2-pq4w=", "properties": {"ref": "0146", "@spider": "dillards", "shop": "department_store", "addr:street_address": "1930 US Hwy 70 SE", "addr:city": "Hickory", "addr:state": "NC", "addr:postcode": "28602", "name": "Dillard's Valley Hills Mall in Hickory, North Carolina", "phone": "(828)327-2656", "website": "https://www.dillards.com/stores/north-carolina/valley-hills-mall-hickory/0146", "opening_hours": "Mo-Sa 11:00-20:00; Su 12:00-18:00", "brand": "Dillard's", "brand:wikidata": "Q844805", "nsi_id": "dillards-592fe0"}, "geometry": {"type": "Point", "coordinates": [-81.30653, 35.70233]}},
{"type": "Feature", "id": "2tdgwz-e6hm8sj8pCMtA37V7E_Y=", "properties": {"ref": "0144", "@spider": "dillards", "shop": "department_store", "addr:street_address": "150 4 Seasons Town Center Ent", "addr:city": "Greensboro", "addr:state": "NC", "addr:postcode": "27407", "name": "Dillard's Four Seasons Towne Center in Greensboro, North Carolina", "phone": "(336)855-5511", "website": "https://www.dillards.com/stores/north-carolina/four-seasons-towne-center-greensboro/0144", "opening_hours": "Mo-Sa 11:00-20:00; Su 12:00-18:00", "brand": "Dillard's", "brand:wikidata": "Q844805", "nsi_id": "dillards-592fe0"}, "geometry": {"type": "Point", "coordinates": [-79.83818, 36.04085]}},
{"type": "Feature", "id": "ExusgJJJX5KJTr3tZ6X5pqrXmP8=", "properties": {"ref": "0143", "@spider": "dillards", "shop": "department_store", "addr:street_address": "1003 Boston Dr", "addr:city": "Burlington", "addr:state": "NC", "addr:postcode": "27215", "name": "Dillard's Alamance Crossing in Burlington, North Carolina", "phone": "(336)538-6498", "website": "https://www.dillards.com/stores/north-carolina/alamance-crossing-burlington/0143", "opening_hours": "Mo-Sa 11:00-20:00; Su 12:00-18:00", "brand": "Dillard's", "brand:wikidata": "Q844805", "nsi_id": "dillards-592fe0"}, "geometry": {"type": "Point", "coordinates": [-79.50963, 36.07048]}},
{"type": "Feature", "id": "SDOJ-MVUfZDuxJhJN4TY6O_Onr0=", "properties": {"ref": "0148", "@spider": "dillards", "shop": "department_store", "addr:street_address": "#3 S Tunnel Rd", "addr:city": "Asheville", "addr:state": "NC", "addr:postcode": "28805", "name": "Dillard's Asheville Mall in Asheville, North Carolina", "phone": "(828)298-2611", "website": "https://www.dillards.com/stores/north-carolina/asheville-mall-asheville/0148", "opening_hours": "Mo-Sa 11:00-20:00; Su 12:00-18:00", "brand": "Dillard's", "brand:wikidata": "Q844805", "nsi_id": "dillards-592fe0"}, "geometry": {"type": "Point", "coordinates": [-82.5273, 35.58065]}},
{"type": "Feature", "id": "viTintf0Xb7AQwmhIHbe0HgvjYg=", "properties": {"ref": "0517", "@spider": "dillards", "shop": "department_store", "addr:street_address": "921 Eastchester Dr #1001", "addr:city": "High Point", "addr:state": "NC", "addr:postcode": "27262", "name": "Dillard's Oak Hollow Mall in High Point, North Carolina", "phone": "(336)812-9090", "website": "https://www.dillards.com/stores/north-carolina/oak-hollow-mall-high-point/0517", "opening_hours": "Tu-Sa 12:00-19:00; Su 12:00-18:00", "brand": "Dillard's", "brand:wikidata": "Q844805", "nsi_id": "dillards-592fe0"}, "geometry": {"type": "Point", "coordinates": [-80.00801, 35.99061]}},
{"type": "Feature", "id": "Sqzgi4IYOFRy6yKVSmRtCtL7dTY=", "properties": {"ref": "0519", "@spider": "dillards", "shop": "department_store", "addr:street_address": "250 N New Hope Rd", "addr:city": "Gastonia", "addr:state": "NC", "addr:postcode": "28054", "name": "Dillard's Eastridge Mall in Gastonia, North Carolina", "phone": "(704)864-8361", "website": "https://www.dillards.com/stores/north-carolina/eastridge-mall-gastonia/0519", "opening_hours": "Tu-Sa 12:00-19:00; Su 12:00-18:00", "brand": "Dillard's", "brand:wikidata": "Q844805", "nsi_id": "dillards-592fe0"}, "geometry": {"type": "Point", "coordinates": [-81.14926, 35.26478]}},
{"type": "Feature", "id": "Pk5q8aDEu8lsjH90rmR2xXU5et0=", "properties": {"ref": "0518", "@spider": "dillards", "shop": "department_store", "addr:street_address": "800 Brevard Rd", "addr:city": "Asheville", "addr:state": "NC", "addr:postcode": "28806", "name": "Dillard's Asheville Outlets in Asheville, North Carolina", "phone": "(828)665-4434", "website": "https://www.dillards.com/stores/north-carolina/asheville-outlets-asheville/0518", "opening_hours": "Mo-Sa 12:00-19:00; Su 12:00-18:00", "brand": "Dillard's", "brand:wikidata": "Q844805", "nsi_id": "dillards-592fe0"}, "geometry": {"type": "Point", "coordinates": [-82.60373, 35.53085]}},
{"type": "Feature", "id": "KZ6iMmhu36P3GZFkFyg_aeXqQLo=", "properties": {"ref": "0151", "@spider": "dillards", "shop": "department_store", "addr:street_address": "11041 Carolina Pl Pkwy", "addr:city": "Pineville", "addr:state": "NC", "addr:postcode": "28134", "name": "Dillard's Carolina Place in Pineville, North Carolina", "phone": "(704)544-0113", "website": "https://www.dillards.com/stores/north-carolina/carolina-place-pineville/0151", "opening_hours": "Mo-Sa 11:00-20:00; Su 12:00-18:00", "brand": "Dillard's", "brand:wikidata": "Q844805", "nsi_id": "dillards-592fe0"}, "geometry": {"type": "Point", "coordinates": [-80.87943, 35.13451]}},
{"type": "Feature", "id": "6KXg-JJ7e1sNvd3UwZWojVpH_Qo=", "properties": {"ref": "0153", "@spider": "dillards", "shop": "department_store", "addr:street_address": "7535 Northlake Mall Dr", "addr:city": "Charlotte", "addr:state": "NC", "addr:postcode": "28216", "name": "Dillard's Northlake Mall in Charlotte, North Carolina", "phone": "(704)716-1150", "website": "https://www.dillards.com/stores/north-carolina/northlake-mall-charlotte/0153", "opening_hours": "Mo-Sa 11:00-20:00; Su 12:00-18:00", "brand": "Dillard's", "brand:wikidata": "Q844805", "nsi_id": "dillards-592fe0"}, "geometry": {"type": "Point", "coordinates": [-80.85331, 35.3527]}},
{"type": "Feature", "id": "bRguPt52QS2JwNMQVINoU-ADXB8=", "properties": {"ref": "0150", "@spider": "dillards", "shop": "department_store", "addr:street_address": "4400 Sharon Rd", "addr:city": "Charlotte", "addr:state": "NC", "addr:postcode": "28211", "name": "Dillard's Southpark Mall in Charlotte, North Carolina", "phone": "(704)365-3111", "website": "https://www.dillards.com/stores/north-carolina/southpark-mall-charlotte/0150", "opening_hours": "Mo-Sa 11:00-20:00; Su 12:00-18:00", "brand": "Dillard's", "brand:wikidata": "Q844805", "nsi_id": "dillards-592fe0"}, "geometry": {"type": "Point", "coordinates": [-80.83058, 35.15343]}},
{"type": "Feature", "id": "LZ-1TOAutuUF_liTFkPPB2ANXrM=", "properties": {"ref": "0922", "@spider": "dillards", "shop": "department_store", "addr:street_address": "4250 Cerrillos Rd", "addr:city": "Santa Fe", "addr:state": "NM", "addr:postcode": "87507", "name": "Dillard's Santa Fe Place Mall in Santa Fe, New Mexico", "phone": "(505)473-2900", "website": "https://www.dillards.com/stores/new-mexico/santa-fe-place-mall-santa-fe/0922", "opening_hours": "Mo-Sa 11:00-20:00; Su 12:00-18:00", "brand": "Dillard's", "brand:wikidata": "Q844805", "nsi_id": "dillards-592fe0"}, "geometry": {"type": "Point", "coordinates": [-106.01568, 35.63733]}},
{"type": "Feature", "id": "744W8sDrhFWERpLjjB6pPviwW0s=", "properties": {"ref": "0925", "@spider": "dillards", "shop": "department_store", "addr:street_address": "700 S Telshor Blvd", "addr:city": "Las Cruces", "addr:state": "NM", "addr:postcode": "88011", "name": "Dillard's Mesilla Valley Mall in Las Cruces, New Mexico", "phone": "(575)522-5400", "website": "https://www.dillards.com/stores/new-mexico/mesilla-valley-mall-las-cruces/0925", "opening_hours": "Mo-Sa 11:00-20:00; Su 12:00-18:00", "brand": "Dillard's", "brand:wikidata": "Q844805", "nsi_id": "dillards-592fe0"}, "geometry": {"type": "Point", "coordinates": [-106.7445, 32.30975]}},
{"type": "Feature", "id": "27mUcbZXRdpm-FuhEK0-by3nS4g=", "properties": {"ref": "0923", "@spider": "dillards", "shop": "department_store", "addr:street_address": "4601 E Main St", "addr:city": "Farmington", "addr:state": "NM", "addr:postcode": "87402", "name": "Dillard's Animas Valley Mall in Farmington, New Mexico", "phone": "(505)326-2681", "website": "https://www.dillards.com/stores/new-mexico/animas-valley-mall-farmington/0923", "opening_hours": "Mo-Sa 11:00-20:00; Su 12:00-18:00", "brand": "Dillard's", "brand:wikidata": "Q844805", "nsi_id": "dillards-592fe0"}, "geometry": {"type": "Point", "coordinates": [-108.1509, 36.76405]}},
{"type": "Feature", "id": "UiD4InWjVj03hUMYCjmwr_T32LY=", "properties": {"ref": "0921", "@spider": "dillards", "shop": "department_store", "addr:street_address": "2100 Louisiana Blvd NE #155", "addr:city": "Albuquerque", "addr:state": "NM", "addr:postcode": "87110", "name": "Dillard's Winrock Town Center in Albuquerque, New Mexico", "phone": "(505)883-5900", "website": "https://www.dillards.com/stores/new-mexico/winrock-town-center-albuquerque/0921", "opening_hours": "Mo-Sa 11:00-20:00; Su 12:00-18:00", "brand": "Dillard's", "brand:wikidata": "Q844805", "nsi_id": "dillards-592fe0"}, "geometry": {"type": "Point", "coordinates": [-106.5629, 35.10003]}},
{"type": "Feature", "id": "VrWNdLjOSUTQ6AlE_dTwfq_-JTY=", "properties": {"ref": "0920", "@spider": "dillards", "shop": "department_store", "addr:street_address": "10000 Coors Bypass NW", "addr:city": "Albuquerque", "addr:state": "NM", "addr:postcode": "87114", "name": "Dillard's Cottonwood Mall in Albuquerque, New Mexico", "phone": "(505)898-2530", "website": "https://www.dillards.com/stores/new-mexico/cottonwood-mall-albuquerque/0920", "opening_hours": "Mo-Sa 11:00-20:00; Su 12:00-18:00", "brand": "Dillard's", "brand:wikidata": "Q844805", "nsi_id": "dillards-592fe0"}, "geometry": {"type": "Point", "coordinates": [-106.6559, 35.1964]}},
{"type": "Feature", "id": "Bwb2QQ0PCt3xvACA106bD4RvMdY=", "properties": {"ref": "0949", "@spider": "dillards", "shop": "department_store", "addr:street_address": "13933 S Virginia St", "addr:city": "Reno", "addr:state": "NV", "addr:postcode": "89511", "name": "Dillard's The Summit Reno in Reno, Nevada", "phone": "(775)852-3080", "website": "https://www.dillards.com/stores/nevada/the-summit-reno-reno/0949", "opening_hours": "Mo-Sa 11:00-20:00; Su 12:00-18:00", "brand": "Dillard's", "brand:wikidata": "Q844805", "nsi_id": "dillards-592fe0"}, "geometry": {"type": "Point", "coordinates": [-119.75218, 39.40476]}},
{"type": "Feature", "id": "uwwA7W9sW3gZ5VR7sfRCEPJObZY=", "properties": {"ref": "0945", "@spider": "dillards", "shop": "department_store", "addr:street_address": "11011 Sage Park Dr", "addr:city": "Las Vegas", "addr:state": "NV", "addr:postcode": "89135", "name": "Dillard's Downtown Summerlin in Las Vegas, Nevada", "phone": "(702)473-6712", "website": "https://www.dillards.com/stores/nevada/downtown-summerlin-las-vegas/0945", "opening_hours": "Mo-Sa 11:00-20:00; Su 12:00-18:00", "brand": "Dillard's", "brand:wikidata": "Q844805", "nsi_id": "dillards-592fe0"}, "geometry": {"type": "Point", "coordinates": [-115.33358, 36.1482]}},
{"type": "Feature", "id": "BrHCVES5IQo49HT5_l0TaJJ7kkE=", "properties": {"ref": "0941", "@spider": "dillards", "shop": "department_store", "addr:street_address": "3200 S Las Vegas Blvd", "addr:city": "Las Vegas", "addr:state": "NV", "addr:postcode": "89109", "name": "Dillard's Fashion Show Las Vegas in Las Vegas, Nevada", "phone": "(702)733-2008", "website": "https://www.dillards.com/stores/nevada/fashion-show-las-vegas-las-vegas/0941", "opening_hours": "Mo-Sa 11:00-20:00; Su 12:00-18:00", "brand": "Dillard's", "brand:wikidata": "Q844805", "nsi_id": "dillards-592fe0"}, "geometry": {"type": "Point", "coordinates": [-115.17488, 36.1277]}},
{"type": "Feature", "id": "R-IgMZb8sO3QLPlfV2cQlV7q4cA=", "properties": {"ref": "0944", "@spider": "dillards", "shop": "department_store", "addr:street_address": "1320 W Sunset Rd", "addr:city": "Henderson", "addr:state": "NV", "addr:postcode": "89014", "name": "Dillard's Galleria At Sunset in Henderson, Nevada", "phone": "(702)435-6300", "website": "https://www.dillards.com/stores/nevada/galleria-at-sunset-henderson/0944", "opening_hours": "Mo-Sa 11:00-20:00; Su 12:00-18:00", "brand": "Dillard's", "brand:wikidata": "Q844805", "nsi_id": "dillards-592fe0"}, "geometry": {"type": "Point", "coordinates": [-115.0447, 36.06835]}},
{"type": "Feature", "id": "naAsgOxx6pVh51SEuqr1NQAz_jg=", "properties": {"ref": "0503", "@spider": "dillards", "shop": "department_store", "addr:street_address": "4200 Meadows Ln", "addr:city": "Las Vegas", "addr:state": "NV", "addr:postcode": "89107", "name": "Dillard's Meadows Mall in Las Vegas, Nevada", "phone": "(702)870-2039", "website": "https://www.dillards.com/stores/nevada/meadows-mall-las-vegas/0503", "opening_hours": "Tu-Sa 12:00-19:00; Su 12:00-18:00", "brand": "Dillard's", "brand:wikidata": "Q844805", "nsi_id": "dillards-592fe0"}, "geometry": {"type": "Point", "coordinates": [-115.1962, 36.1714]}},
{"type": "Feature", "id": "9Zx5vB_aUifk9aqbaGPhMBLNuw4=", "properties": {"ref": "0343", "@spider": "dillards", "shop": "department_store", "addr:street_address": "3030 Oak View Dr", "addr:city": "Omaha", "addr:state": "NE", "addr:postcode": "68144", "name": "Dillard's Oak View Mall in Omaha, Nebraska", "phone": "(402)697-1323", "website": "https://www.dillards.com/stores/nebraska/oak-view-mall-omaha/0343", "opening_hours": "Mo-Sa 11:00-20:00; Su 12:00-18:00", "brand": "Dillard's", "brand:wikidata": "Q844805", "nsi_id": "dillards-592fe0"}, "geometry": {"type": "Point", "coordinates": [-96.1334, 41.23076]}},
{"type": "Feature", "id": "RU1ZJ1dOKcXSwBCKK7e1hgeUym0=", "properties": {"ref": "0344", "@spider": "dillards", "shop": "department_store", "addr:street_address": "6100 E O St", "addr:city": "Lincoln", "addr:state": "NE", "addr:postcode": "68505", "name": "Dillard's Gateway Mall in Lincoln, Nebraska", "phone": "(402)464-7451", "website": "https://www.dillards.com/stores/nebraska/gateway-mall-lincoln/0344", "opening_hours": "Mo-Sa 11:00-20:00; Su 12:00-18:00", "brand": "Dillard's", "brand:wikidata": "Q844805", "nsi_id": "dillards-592fe0"}, "geometry": {"type": "Point", "coordinates": [-96.63818, 40.81703]}},
{"type": "Feature", "id": "h4O_DFmSXu5OO5Vgz5iJ7QUBADw=", "properties": {"ref": "0345", "@spider": "dillards", "shop": "department_store", "addr:street_address": "3404 W 13th St #100", "addr:city": "Grand Island", "addr:state": "NE", "addr:postcode": "68803", "name": "Dillard's Conestoga Mall in Grand Island, Nebraska", "phone": "(308)384-5200", "website": "https://www.dillards.com/stores/nebraska/conestoga-mall-grand-island/0345", "opening_hours": "Mo-Sa 11:00-20:00; Su 12:00-18:00", "brand": "Dillard's", "brand:wikidata": "Q844805", "nsi_id": "dillards-592fe0"}, "geometry": {"type": "Point", "coordinates": [-98.38176, 40.93255]}},
{"type": "Feature", "id": "Umx7NZxZ8Y06GXfWSqMilEmxLXY=", "properties": {"ref": "0937", "@spider": "dillards", "shop": "department_store", "addr:street_address": "2901 Brooks St", "addr:city": "Missoula", "addr:state": "MT", "addr:postcode": "59801", "name": "Dillard's Southgate Mall in Missoula, Montana", "phone": "(406)721-3100", "website": "https://www.dillards.com/stores/montana/southgate-mall-missoula/0937", "opening_hours": "Mo-Sa 11:00-20:00; Su 12:00-18:00", "brand": "Dillard's", "brand:wikidata": "Q844805", "nsi_id": "dillards-592fe0"}, "geometry": {"type": "Point", "coordinates": [-114.0273, 46.84583]}},
{"type": "Feature", "id": "c0xQ-3hOr9nzHziSzG-M5FryD7o=", "properties": {"ref": "0939", "@spider": "dillards", "shop": "department_store", "addr:street_address": "320 S 24th St W", "addr:city": "Billings", "addr:state": "MT", "addr:postcode": "59102", "name": "Dillard's Rimrock Mall in Billings, Montana", "phone": "(406)656-0100", "website": "https://www.dillards.com/stores/montana/rimrock-mall-billings/0939", "opening_hours": "Mo-Sa 11:00-20:00; Su 12:00-18:00", "brand": "Dillard's", "brand:wikidata": "Q844805", "nsi_id": "dillards-592fe0"}, "geometry": {"type": "Point", "coordinates": [-108.5773, 45.76535]}},
{"type": "Feature", "id": "D9o0ye55pbSFOSBe1LOHaLPX5oA=", "properties": {"ref": "0309", "@spider": "dillards", "shop": "department_store", "addr:street_address": "2 Mid Rivers Mall Dr", "addr:city": "St. Peters", "addr:state": "MO", "addr:postcode": "63376", "name": "Dillard's Mid Rivers Mall in St. Peters, Missouri", "phone": "(636)970-2555", "website": "https://www.dillards.com/stores/missouri/mid-rivers-mall-st.-peters/0309", "opening_hours": "Mo-Sa 11:00-20:00; Su 12:00-18:00", "brand": "Dillard's", "brand:wikidata": "Q844805", "nsi_id": "dillards-592fe0"}, "geometry": {"type": "Point", "coordinates": [-90.6181, 38.7946]}},
{"type": "Feature", "id": "Qp_O2DMcOoGNs2lp_YUr43weYrE=", "properties": {"ref": "0305", "@spider": "dillards", "shop": "department_store", "addr:street_address": "220 S County Center Way", "addr:city": "St. Louis", "addr:state": "MO", "addr:postcode": "63129", "name": "Dillard's South County Center in St. Louis, Missouri", "phone": "(314)487-1600", "website": "https://www.dillards.com/stores/missouri/south-county-center-st.-louis/0305", "opening_hours": "Mo-Sa 11:00-20:00; Su 12:00-18:00", "brand": "Dillard's", "brand:wikidata": "Q844805", "nsi_id": "dillards-592fe0"}, "geometry": {"type": "Point", "coordinates": [-90.33201, 38.50511]}},
{"type": "Feature", "id": "e5yC1uWnlhShMDrCs87W6Oixf94=", "properties": {"ref": "0301", "@spider": "dillards", "shop": "department_store", "addr:street_address": "1105 St Louis Galleria St", "addr:city": "St. Louis", "addr:state": "MO", "addr:postcode": "63117", "name": "Dillard's Saint Louis Galleria in St. Louis, Missouri", "phone": "(314)725-8363", "website": "https://www.dillards.com/stores/missouri/saint-louis-galleria-st.-louis/0301", "opening_hours": "Mo-Sa 11:00-20:00; Su 12:00-18:00", "brand": "Dillard's", "brand:wikidata": "Q844805", "nsi_id": "dillards-592fe0"}, "geometry": {"type": "Point", "coordinates": [-90.3474, 38.63743]}},
{"type": "Feature", "id": "eB1VxsY4kT9L93nRg49gR7hpPV4=", "properties": {"ref": "0314", "@spider": "dillards", "shop": "department_store", "addr:street_address": "2825 South Glenstone Avenue #400", "addr:city": "Springfield", "addr:state": "MO", "addr:postcode": "65804", "name": "Dillard's Battlefield Mall in Springfield, Missouri", "phone": "(417)883-4550", "website": "https://www.dillards.com/stores/missouri/battlefield-mall-springfield/0314", "opening_hours": "Mo-Sa 11:00-20:00; Su 12:00-18:00", "brand": "Dillard's", "brand:wikidata": "Q844805", "nsi_id": "dillards-592fe0"}, "geometry": {"type": "Point", "coordinates": [-93.26405, 37.16076]}},
{"type": "Feature", "id": "bY4vh1kSfykO8JPuEHNrXncNdfk=", "properties": {"ref": "0312", "@spider": "dillards", "shop": "department_store", "addr:street_address": "2300 Bernadette Dr", "addr:city": "Columbia", "addr:state": "MO", "addr:postcode": "65203", "name": "Dillard's Columbia Mall in Columbia, Missouri", "phone": "(573)876-8600", "website": "https://www.dillards.com/stores/missouri/columbia-mall-columbia/0312", "opening_hours": "Mo-Sa 11:00-20:00; Su 12:00-18:00", "brand": "Dillard's", "brand:wikidata": "Q844805", "nsi_id": "dillards-592fe0"}, "geometry": {"type": "Point", "coordinates": [-92.37345, 38.96515]}},
{"type": "Feature", "id": "5hlkwcrhZmsIgn-O2yRh14RuwI8=", "properties": {"ref": "0324", "@spider": "dillards", "shop": "department_store", "addr:street_address": "7350 NW 87th Terrace", "addr:city": "Kansas City", "addr:state": "MO", "addr:postcode": "64153", "name": "Dillard's Zona Rosa Town Center in Kansas City, Missouri", "phone": "(816)741-0707", "website": "https://www.dillards.com/stores/missouri/zona-rosa-town-center-kansas-city/0324", "opening_hours": "Mo-Sa 11:00-20:00; Su 12:00-18:00", "brand": "Dillard's", "brand:wikidata": "Q844805", "nsi_id": "dillards-592fe0"}, "geometry": {"type": "Point", "coordinates": [-94.65476, 39.25388]}},
{"type": "Feature", "id": "cpwPZGexi-tyVleCGutWvVDV8Fw=", "properties": {"ref": "0323", "@spider": "dillards", "shop": "department_store", "addr:street_address": "18805 East 39th St S", "addr:city": "Independence", "addr:state": "MO", "addr:postcode": "64057", "name": "Dillard's Independence Center in Independence, Missouri", "phone": "(816)795-1818", "website": "https://www.dillards.com/stores/missouri/independence-center-independence/0323", "opening_hours": "Mo-Sa 11:00-20:00; Su 12:00-18:00", "brand": "Dillard's", "brand:wikidata": "Q844805", "nsi_id": "dillards-592fe0"}, "geometry": {"type": "Point", "coordinates": [-94.35873, 39.04558]}},
{"type": "Feature", "id": "-sH8oEdVwjQJ29DmDGcCLt2B474=", "properties": {"ref": "0520", "@spider": "dillards", "shop": "department_store", "addr:street_address": "3600 Country Club Drive", "addr:city": "Jefferson City", "addr:state": "MO", "addr:postcode": "65109", "name": "Dillard's Capital Mall in Jefferson City, Missouri", "phone": "(573)893-4497", "website": "https://www.dillards.com/stores/missouri/capital-mall-jefferson-city/0520", "opening_hours": "Tu-Sa 12:00-19:00; Su 12:00-18:00", "brand": "Dillard's", "brand:wikidata": "Q844805", "nsi_id": "dillards-592fe0"}, "geometry": {"type": "Point", "coordinates": [-92.2508, 38.58638]}},
{"type": "Feature", "id": "YjPfZ_HhaPOMfRrN-3EryPXQNaE=", "properties": {"ref": "0419", "@spider": "dillards", "shop": "department_store", "addr:street_address": "1200 E County Line Rd", "addr:city": "Ridgeland", "addr:state": "MS", "addr:postcode": "39157", "name": "Dillard's North Park in Ridgeland, Mississippi", "phone": "(601)957-7100", "website": "https://www.dillards.com/stores/mississippi/north-park-ridgeland/0419", "opening_hours": "Mo-Sa 11:00-20:00; Su 12:00-18:00", "brand": "Dillard's", "brand:wikidata": "Q844805", "nsi_id": "dillards-592fe0"}, "geometry": {"type": "Point", "coordinates": [-90.1307, 32.40285]}},
{"type": "Feature", "id": "DaULTv2wCYxZR93Mno2pPlr21a4=", "properties": {"ref": "0415", "@spider": "dillards", "shop": "department_store", "addr:street_address": "1078 Bonita Lakes Dr", "addr:city": "Meridian", "addr:state": "MS", "addr:postcode": "39301", "name": "Dillard's Uptown Meridian in Meridian, Mississippi", "phone": "(601)482-8929", "website": "https://www.dillards.com/stores/mississippi/uptown-meridian-meridian/0415", "opening_hours": "Mo-Sa 11:00-20:00; Su 12:00-18:00", "brand": "Dillard's", "brand:wikidata": "Q844805", "nsi_id": "dillards-592fe0"}, "geometry": {"type": "Point", "coordinates": [-88.67328, 32.35945]}},
{"type": "Feature", "id": "Zd6Z9qFepqE4NI6MsnOd3I05Khc=", "properties": {"ref": "0759", "@spider": "dillards", "shop": "department_store", "addr:street_address": "1000 Turtle Creek Dr", "addr:city": "Hattiesburg", "addr:state": "MS", "addr:postcode": "39402", "name": "Dillard's Turtle Creek Mall in Hattiesburg, Mississippi", "phone": "(601)268-6700", "website": "https://www.dillards.com/stores/mississippi/turtle-creek-mall-hattiesburg/0759", "opening_hours": "Mo-Sa 11:00-20:00; Su 12:00-18:00", "brand": "Dillard's", "brand:wikidata": "Q844805", "nsi_id": "dillards-592fe0"}, "geometry": {"type": "Point", "coordinates": [-89.37523, 31.32456]}},
{"type": "Feature", "id": "pNsLRjF1rKFlGejlxR9ReMYEExo=", "properties": {"ref": "0758", "@spider": "dillards", "shop": "department_store", "addr:street_address": "2600 Beach Blvd ste 1", "addr:city": "Biloxi", "addr:state": "MS", "addr:postcode": "39531", "name": "Dillard's Edgewater Mall in Biloxi, Mississippi", "phone": "(228)385-3834", "website": "https://www.dillards.com/stores/mississippi/edgewater-mall-biloxi/0758", "opening_hours": "Mo-Sa 11:00-20:00; Su 12:00-18:00", "brand": "Dillard's", "brand:wikidata": "Q844805", "nsi_id": "dillards-592fe0"}, "geometry": {"type": "Point", "coordinates": [-88.99016, 30.39045]}},
{"type": "Feature", "id": "p_av_a2Tz-CCbrPbMAoxvjZ73Ns=", "properties": {"ref": "0412", "@spider": "dillards", "shop": "department_store", "addr:street_address": "230 Towne Center Loop", "addr:city": "Southaven", "addr:state": "MS", "addr:postcode": "38671", "name": "Dillard's Southaven Towne Center in Southaven, Mississippi", "phone": "(662)536-4786", "website": "https://www.dillards.com/stores/mississippi/southaven-towne-center-southaven/0412", "opening_hours": "Mo-Sa 11:00-20:00; Su 12:00-18:00", "brand": "Dillard's", "brand:wikidata": "Q844805", "nsi_id": "dillards-592fe0"}, "geometry": {"type": "Point", "coordinates": [-89.9945, 34.9534]}},
{"type": "Feature", "id": "kyKw2MQJyir_oJUccl4UsU7jUac=", "properties": {"ref": "0534", "@spider": "dillards", "shop": "department_store", "addr:street_address": "3505 Pemberton Square Blvd", "addr:city": "Vicksburg", "addr:state": "MS", "addr:postcode": "39180", "name": "Dillard's Pemberton Square in Vicksburg, Mississippi", "phone": "(601)638-8853", "website": "https://www.dillards.com/stores/mississippi/pemberton-square-vicksburg/0534", "opening_hours": "Tu-Sa 12:00-19:00; Su 12:00-18:00", "brand": "Dillard's", "brand:wikidata": "Q844805", "nsi_id": "dillards-592fe0"}, "geometry": {"type": "Point", "coordinates": [-90.88473, 32.30725]}},
{"type": "Feature", "id": "bwu24bAWg_1wHCknaMewJEsuZzk=", "properties": {"ref": "0435", "@spider": "dillards", "shop": "department_store", "addr:street_address": "4610 Millhaven Rd ", "addr:city": "Monroe", "addr:state": "LA", "addr:postcode": "71203", "name": "Dillard's Pecanland Mall in Monroe, Louisiana", "phone": "(318)323-8000", "website": "https://www.dillards.com/stores/louisiana/pecanland-mall-monroe/0435", "opening_hours": "Mo-Sa 11:00-20:00; Su 12:00-18:00", "brand": "Dillard's", "brand:wikidata": "Q844805", "nsi_id": "dillards-592fe0"}, "geometry": {"type": "Point", "coordinates": [-92.06208, 32.49906]}},
{"type": "Feature", "id": "NDdUb0UyCVAGnmzo4sJB8EiVV8c=", "properties": {"ref": "0767", "@spider": "dillards", "shop": "department_store", "addr:street_address": "684 W Prien Lake Rd", "addr:city": "Lake Charles", "addr:state": "LA", "addr:postcode": "70601", "name": "Dillard's Prien Lake Mall in Lake Charles, Louisiana", "phone": "(337)474-9533", "website": "https://www.dillards.com/stores/louisiana/prien-lake-mall-lake-charles/0767", "opening_hours": "Mo-Sa 11:00-20:00; Su 12:00-18:00", "brand": "Dillard's", "brand:wikidata": "Q844805", "nsi_id": "dillards-592fe0"}, "geometry": {"type": "Point", "coordinates": [-93.22873, 30.1994]}},
{"type": "Feature", "id": "9wtsokLYq7PmvsTzNNF-QCdpa8g=", "properties": {"ref": "0766", "@spider": "dillards", "shop": "department_store", "addr:street_address": "5725 Johnston Road", "addr:city": "Lafayette", "addr:state": "LA", "addr:postcode": "70503", "name": "Dillard's Acadiana Mall in Lafayette, Louisiana", "phone": "(337)989-8139", "website": "https://www.dillards.com/stores/louisiana/acadiana-mall-lafayette/0766", "opening_hours": "Mo-Sa 11:00-20:00; Su 12:00-18:00", "brand": "Dillard's", "brand:wikidata": "Q844805", "nsi_id": "dillards-592fe0"}, "geometry": {"type": "Point", "coordinates": [-92.07426, 30.17058]}},
{"type": "Feature", "id": "kHKbV93AKC1T7HRK5NYNJX5OMvA=", "properties": {"ref": "0765", "@spider": "dillards", "shop": "department_store", "addr:street_address": "5953 W Park Ave #1000", "addr:city": "Houma", "addr:state": "LA", "addr:postcode": "70364", "name": "Dillard's Southland Mall in Houma, Louisiana", "phone": "(985)873-6100", "website": "https://www.dillards.com/stores/louisiana/southland-mall-houma/0765", "opening_hours": "Mo-Sa 11:00-20:00; Su 12:00-18:00", "brand": "Dillard's", "brand:wikidata": "Q844805", "nsi_id": "dillards-592fe0"}, "geometry": {"type": "Point", "coordinates": [-90.75773, 29.65161]}},
{"type": "Feature", "id": "B9_aMTW9NXRmm3WtABxetzYC-Xk=", "properties": {"ref": "0764", "@spider": "dillards", "shop": "department_store", "addr:street_address": "1990 Hammond Square Dr", "addr:city": "Hammond", "addr:state": "LA", "addr:postcode": "70403", "name": "Dillard's Hammond Square in Hammond, Louisiana", "phone": "(985)345-7121", "website": "https://www.dillards.com/stores/louisiana/hammond-square-hammond/0764", "opening_hours": "Mo-Sa 11:00-20:00; Su 12:00-18:00", "brand": "Dillard's", "brand:wikidata": "Q844805", "nsi_id": "dillards-592fe0"}, "geometry": {"type": "Point", "coordinates": [-90.4581, 30.47406]}},
{"type": "Feature", "id": "hC0fIBt6qitcZRvZFL9UMBLkUXE=", "properties": {"ref": "0768", "@spider": "dillards", "shop": "department_store", "addr:street_address": "6601 Bluebonnet Blvd", "addr:city": "Baton Rouge", "addr:state": "LA", "addr:postcode": "70836", "name": "Dillard's Mall Of Louisiana in Baton Rouge, Louisiana", "phone": "(225)761-7293", "website": "https://www.dillards.com/stores/louisiana/mall-of-louisiana-baton-rouge/0768", "opening_hours": "Mo-Sa 11:00-20:00; Su 12:00-18:00", "brand": "Dillard's", "brand:wikidata": "Q844805", "nsi_id": "dillards-592fe0"}, "geometry": {"type": "Point", "coordinates": [-91.0903, 30.38895]}},
{"type": "Feature", "id": "zOAwoECULUx1ExM66pgCaXQheZI=", "properties": {"ref": "0436", "@spider": "dillards", "shop": "department_store", "addr:street_address": "3437 Masonic Dr ", "addr:city": "Alexandria", "addr:state": "LA", "addr:postcode": "71301", "name": "Dillard's Alexandria Mall in Alexandria, Louisiana", "phone": "(318)445-9992", "website": "https://www.dillards.com/stores/louisiana/alexandria-mall-alexandria/0436", "opening_hours": "Mo-Sa 11:00-20:00; Su 12:00-18:00", "brand": "Dillard's", "brand:wikidata": "Q844805", "nsi_id": "dillards-592fe0"}, "geometry": {"type": "Point", "coordinates": [-92.46016, 31.27481]}},
{"type": "Feature", "id": "vXPZWEILsVzEPqwy9MkC39C4JS0=", "properties": {"ref": "0432", "@spider": "dillards", "shop": "department_store", "addr:street_address": "1133 St Vincent Ave", "addr:city": "Shreveport", "addr:state": "LA", "addr:postcode": "71104", "name": "Dillard's Mall St Vincent in Shreveport, Louisiana", "phone": "(318)226-9565", "website": "https://www.dillards.com/stores/louisiana/mall-st-vincent-shreveport/0432", "opening_hours": "Mo-Sa 11:00-20:00; Su 12:00-18:00", "brand": "Dillard's", "brand:wikidata": "Q844805", "nsi_id": "dillards-592fe0"}, "geometry": {"type": "Point", "coordinates": [-93.75308, 32.47906]}},
{"type": "Feature", "id": "Qea5nE3mDshfgO0AEP4rrq5Zfyo=", "properties": {"ref": "0433", "@spider": "dillards", "shop": "department_store", "addr:street_address": "2950 E Texas St #670", "addr:city": "Bossier City", "addr:state": "LA", "addr:postcode": "71111", "name": "Dillard's Pierre Bossier Mall in Bossier City, Louisiana", "phone": "(318)747-5610", "website": "https://www.dillards.com/stores/louisiana/pierre-bossier-mall-bossier-city/0433", "opening_hours": "Mo-Sa 11:00-20:00; Su 12:00-18:00", "brand": "Dillard's", "brand:wikidata": "Q844805", "nsi_id": "dillards-592fe0"}, "geometry": {"type": "Point", "coordinates": [-93.70598, 32.52733]}},
{"type": "Feature", "id": "ZXX4KRQS6N4dOUaClS-LD9tycuU=", "properties": {"ref": "0761", "@spider": "dillards", "shop": "department_store", "addr:street_address": "940 Town Center Pkwy", "addr:city": "Slidell", "addr:state": "LA", "addr:postcode": "70458", "name": "Dillard's Fremaux Town Center in Slidell, Louisiana", "phone": "(985)288-6126", "website": "https://www.dillards.com/stores/louisiana/fremaux-town-center-slidell/0761", "opening_hours": "Mo-Sa 11:00-20:00; Su 12:00-18:00", "brand": "Dillard's", "brand:wikidata": "Q844805", "nsi_id": "dillards-592fe0"}, "geometry": {"type": "Point", "coordinates": [-89.7625, 30.2667]}},
{"type": "Feature", "id": "i7absqAwBrI4VJK09-JNCL-5TME=", "properties": {"ref": "0760", "@spider": "dillards", "shop": "department_store", "addr:street_address": "3301 Veterans Memorial Blvd #1", "addr:city": "Metairie", "addr:state": "LA", "addr:postcode": "70002", "name": "Dillard's Lakeside Shopping Center in Metairie, Louisiana", "phone": "(504)833-1075", "website": "https://www.dillards.com/stores/louisiana/lakeside-shopping-center-metairie/0760", "opening_hours": "Mo-Sa 11:00-20:00; Su 12:00-18:00", "brand": "Dillard's", "brand:wikidata": "Q844805", "nsi_id": "dillards-592fe0"}, "geometry": {"type": "Point", "coordinates": [-90.15723, 30.00765]}},
{"type": "Feature", "id": "irWl68H9hVmmx2OYEdwD60LSnhA=", "properties": {"ref": "0762", "@spider": "dillards", "shop": "department_store", "addr:street_address": "197 West Bank Expressway", "addr:city": "Gretna", "addr:state": "LA", "addr:postcode": "70053", "name": "Dillard's Oakwood Center in Gretna, Louisiana", "phone": "(504)362-4800", "website": "https://www.dillards.com/stores/louisiana/oakwood-center-gretna/0762", "opening_hours": "Mo-Sa 11:00-20:00; Su 12:00-18:00", "brand": "Dillard's", "brand:wikidata": "Q844805", "nsi_id": "dillards-592fe0"}, "geometry": {"type": "Point", "coordinates": [-90.0367, 29.92155]}},
{"type": "Feature", "id": "iIy9lY8kB6ijHCDOCdlHVM8B-8c=", "properties": {"ref": "0533", "@spider": "dillards", "shop": "department_store", "addr:street_address": "150 North Shore Blvd Suite 2000", "addr:city": "Slidell", "addr:state": "LA", "addr:postcode": "70460", "name": "Dillard's North Shore Square in Slidell, Louisiana", "phone": "(985)646-0130", "website": "https://www.dillards.com/stores/louisiana/north-shore-square-slidell/0533", "opening_hours": "Tu-Sa 12:00-19:00; Su 12:00-18:00", "brand": "Dillard's", "brand:wikidata": "Q844805", "nsi_id": "dillards-592fe0"}, "geometry": {"type": "Point", "coordinates": [-89.82225, 30.3074]}},
{"type": "Feature", "id": "D8YvTeifiJillJgLbrY1ZxryggY=", "properties": {"ref": "0532", "@spider": "dillards", "shop": "department_store", "addr:street_address": "1401 W Esplanade Ave", "addr:city": "Kenner", "addr:state": "LA", "addr:postcode": "70065", "name": "Dillard's The Esplanade in Kenner, Louisiana", "phone": "(504)468-6050", "website": "https://www.dillards.com/stores/louisiana/the-esplanade-kenner/0532", "opening_hours": "Tu-Sa 12:00-19:00; Su 12:00-18:00", "brand": "Dillard's", "brand:wikidata": "Q844805", "nsi_id": "dillards-592fe0"}, "geometry": {"type": "Point", "coordinates": [-90.25018, 30.01508]}},
{"type": "Feature", "id": "r8wWsSuFrdLPmbOkVbcWnxT-Qk8=", "properties": {"ref": "0384", "@spider": "dillards", "shop": "department_store", "addr:street_address": "5101 Hinkleville Rd", "addr:city": "Paducah", "addr:state": "KY", "addr:postcode": "42001", "name": "Dillard's Kentucky Oaks Mall in Paducah, Kentucky", "phone": "(270)442-3200", "website": "https://www.dillards.com/stores/kentucky/kentucky-oaks-mall-paducah/0384", "opening_hours": "Mo-Sa 11:00-20:00; Su 12:00-18:00", "brand": "Dillard's", "brand:wikidata": "Q844805", "nsi_id": "dillards-592fe0"}, "geometry": {"type": "Point", "coordinates": [-88.68835, 37.0783]}},
{"type": "Feature", "id": "ZIfsWFbaYHmIfrzObpAKDA5xO74=", "properties": {"ref": "0387", "@spider": "dillards", "shop": "department_store", "addr:street_address": "3625 Nicholasville Rd", "addr:city": "Lexington", "addr:state": "KY", "addr:postcode": "40503", "name": "Dillard's Fayette Mall in Lexington, Kentucky", "phone": "(859)271-9797", "website": "https://www.dillards.com/stores/kentucky/fayette-mall-lexington/0387", "opening_hours": "Mo-Sa 11:00-20:00; Su 12:00-18:00", "brand": "Dillard's", "brand:wikidata": "Q844805", "nsi_id": "dillards-592fe0"}, "geometry": {"type": "Point", "coordinates": [-84.52776, 37.98623]}},
{"type": "Feature", "id": "q9A94pzse-GuMAQRYmfg2YFLJpU=", "properties": {"ref": "0385", "@spider": "dillards", "shop": "department_store", "addr:street_address": "2625 Scottsville Rd", "addr:city": "Bowling Green", "addr:state": "KY", "addr:postcode": "42104", "name": "Dillard's Greenwood Mall in Bowling Green, Kentucky", "phone": "(270)782-1111", "website": "https://www.dillards.com/stores/kentucky/greenwood-mall-bowling-green/0385", "opening_hours": "Mo-Sa 11:00-20:00; Su 12:00-18:00", "brand": "Dillard's", "brand:wikidata": "Q844805", "nsi_id": "dillards-592fe0"}, "geometry": {"type": "Point", "coordinates": [-86.4263, 36.9465]}},
{"type": "Feature", "id": "HXnJvAKSOZXzIaikKOE5Ff75EDw=", "properties": {"ref": "0396", "@spider": "dillards", "shop": "department_store", "addr:street_address": "4801 Outer Loop", "addr:city": "Louisville", "addr:state": "KY", "addr:postcode": "40219", "name": "Dillard's Jefferson Mall in Louisville, Kentucky", "phone": "(502)968-6080", "website": "https://www.dillards.com/stores/kentucky/jefferson-mall-louisville/0396", "opening_hours": "Mo-Sa 11:00-20:00; Su 12:00-18:00", "brand": "Dillard's", "brand:wikidata": "Q844805", "nsi_id": "dillards-592fe0"}, "geometry": {"type": "Point", "coordinates": [-85.67171, 38.14036]}},
{"type": "Feature", "id": "29BkzYjU_WJdK_fO8eHllOHwfPE=", "properties": {"ref": "0391", "@spider": "dillards", "shop": "department_store", "addr:street_address": "5000 Shelbyville Rd", "addr:city": "Louisville", "addr:state": "KY", "addr:postcode": "40207", "name": "Dillard's Mall St Matthews in Louisville, Kentucky", "phone": "(502)893-4400", "website": "https://www.dillards.com/stores/kentucky/mall-st-matthews-louisville/0391", "opening_hours": "Mo-Sa 11:00-20:00; Su 12:00-18:00", "brand": "Dillard's", "brand:wikidata": "Q844805", "nsi_id": "dillards-592fe0"}, "geometry": {"type": "Point", "coordinates": [-85.62541, 38.24776]}},
{"type": "Feature", "id": "2oSjURL7ShJvnZX27IodFIj_D7w=", "properties": {"ref": "0355", "@spider": "dillards", "shop": "department_store", "addr:street_address": "2900 Town Center Blvd", "addr:city": "Crestview Hills", "addr:state": "KY", "addr:postcode": "41017", "name": "Dillard's Crestview Hills Town Center in Crestview Hills, Kentucky", "phone": "(859)344-2795", "website": "https://www.dillards.com/stores/kentucky/crestview-hills-town-center-crestview-hills/0355", "opening_hours": "Mo-Sa 11:00-20:00; Su 12:00-18:00", "brand": "Dillard's", "brand:wikidata": "Q844805", "nsi_id": "dillards-592fe0"}, "geometry": {"type": "Point", "coordinates": [-84.57823, 39.02643]}},
{"type": "Feature", "id": "tTs805zcc-wD1-6Hj_bzJAH17f0=", "properties": {"ref": "0330", "@spider": "dillards", "shop": "department_store", "addr:street_address": "7700 East Kellogg", "addr:city": "Wichita", "addr:state": "KS", "addr:postcode": "67207", "name": "Dillard's Towne East Square in Wichita, Kansas", "phone": "(316)685-0341", "website": "https://www.dillards.com/stores/kansas/towne-east-square-wichita/0330", "opening_hours": "Mo-Sa 11:00-20:00; Su 12:00-18:00", "brand": "Dillard's", "brand:wikidata": "Q844805", "nsi_id": "dillards-592fe0"}, "geometry": {"type": "Point", "coordinates": [-97.24831, 37.68478]}},
{"type": "Feature", "id": "qIB_93d4jiBfOvy4DVKmfdH1VxI=", "properties": {"ref": "0336", "@spider": "dillards", "shop": "department_store", "addr:street_address": "1791 SW Wanamaker Rd", "addr:city": "Topeka", "addr:state": "KS", "addr:postcode": "66604", "name": "Dillard's West Ridge Mall in Topeka, Kansas", "phone": "(785)273-5451", "website": "https://www.dillards.com/stores/kansas/west-ridge-mall-topeka/0336", "opening_hours": "Mo-Sa 11:00-20:00; Su 12:00-18:00", "brand": "Dillard's", "brand:wikidata": "Q844805", "nsi_id": "dillards-592fe0"}, "geometry": {"type": "Point", "coordinates": [-95.76428, 39.03331]}},
{"type": "Feature", "id": "kAmngwQm_njxLC6o98IL11_f5E0=", "properties": {"ref": "0335", "@spider": "dillards", "shop": "department_store", "addr:street_address": "102 Manhattan Town Center", "addr:city": "Manhattan", "addr:state": "KS", "addr:postcode": "66502", "name": "Dillard's Manhattan Town Center in Manhattan, Kansas", "phone": "(785)776-4224", "website": "https://www.dillards.com/stores/kansas/manhattan-town-center-manhattan/0335", "opening_hours": "Mo-Sa 11:00-20:00; Su 12:00-18:00", "brand": "Dillard's", "brand:wikidata": "Q844805", "nsi_id": "dillards-592fe0"}, "geometry": {"type": "Point", "coordinates": [-96.55878, 39.1807]}},
{"type": "Feature", "id": "_k3x3bsmVdhc21-n2BYR7E9kE4c=", "properties": {"ref": "0322", "@spider": "dillards", "shop": "department_store", "addr:street_address": "11601 W 95th St", "addr:city": "Overland Park", "addr:state": "KS", "addr:postcode": "66214", "name": "Dillard's Oak Park Mall in Overland Park, Kansas", "phone": "(913)492-0666", "website": "https://www.dillards.com/stores/kansas/oak-park-mall-overland-park/0322", "opening_hours": "Mo-Sa 11:00-20:00; Su 12:00-18:00", "brand": "Dillard's", "brand:wikidata": "Q844805", "nsi_id": "dillards-592fe0"}, "geometry": {"type": "Point", "coordinates": [-94.72016, 38.95265]}},
{"type": "Feature", "id": "4vyNdxxm3EBhEtyaDHj1waFy8l4=", "properties": {"ref": "0522", "@spider": "dillards", "shop": "department_store", "addr:street_address": "4600 W Kellogg Dr Suite 300", "addr:city": "Wichita", "addr:state": "KS", "addr:postcode": "67209", "name": "Dillard's Towne West Square in Wichita, Kansas", "phone": "(316)943-8031", "website": "https://www.dillards.com/stores/kansas/towne-west-square-wichita/0522", "opening_hours": "Tu-Sa 12:00-19:00; Su 12:00-18:00", "brand": "Dillard's", "brand:wikidata": "Q844805", "nsi_id": "dillards-592fe0"}, "geometry": {"type": "Point", "coordinates": [-97.39963, 37.67856]}},
{"type": "Feature", "id": "b8taF9pWkkYDpe45x-6Hr-osCQs=", "properties": {"ref": "0340", "@spider": "dillards", "shop": "department_store", "addr:street_address": "101 Jordan Creek Pkwy", "addr:city": "West Des Moines", "addr:state": "IA", "addr:postcode": "50266", "name": "Dillard's Jordan Creek Town Center in West Des Moines, Iowa", "phone": "(515)440-2277", "website": "https://www.dillards.com/stores/iowa/jordan-creek-town-center-west-des-moines/0340", "opening_hours": "Mo-Sa 11:00-20:00; Su 12:00-18:00", "brand": "Dillard's", "brand:wikidata": "Q844805", "nsi_id": "dillards-592fe0"}, "geometry": {"type": "Point", "coordinates": [-93.80173, 41.57008]}},
{"type": "Feature", "id": "tuRQlTy5uGkKqGAy1hAr8nNiDyo=", "properties": {"ref": "0348", "@spider": "dillards", "shop": "department_store", "addr:street_address": "320 W Kimberly Rd", "addr:city": "Davenport", "addr:state": "IA", "addr:postcode": "52806", "name": "Dillard's Northpark Mall in Davenport, Iowa", "phone": "(563)388-7954", "website": "https://www.dillards.com/stores/iowa/northpark-mall-davenport/0348", "opening_hours": "Mo-Sa 11:00-20:00; Su 12:00-18:00", "brand": "Dillard's", "brand:wikidata": "Q844805", "nsi_id": "dillards-592fe0"}, "geometry": {"type": "Point", "coordinates": [-90.57833, 41.56286]}},
{"type": "Feature", "id": "Pz54QEByWSUJ0Awq8E9RIcm6hqQ=", "properties": {"ref": "0346", "@spider": "dillards", "shop": "department_store", "addr:street_address": "1411 Coral Ridge Ave", "addr:city": "Coralville", "addr:state": "IA", "addr:postcode": "52241", "name": "Dillard's Coral Ridge Mall in Coralville, Iowa", "phone": "(319)499-6010", "website": "https://www.dillards.com/stores/iowa/coral-ridge-mall-coralville/0346", "opening_hours": "Mo-Sa 11:00-20:00; Su 12:00-18:00", "brand": "Dillard's", "brand:wikidata": "Q844805", "nsi_id": "dillards-592fe0"}, "geometry": {"type": "Point", "coordinates": [-91.60295, 41.687]}},
{"type": "Feature", "id": "z4gyCVi_NPOPRlKT6uG0pEVYKWw=", "properties": {"ref": "0359", "@spider": "dillards", "shop": "department_store", "addr:street_address": "3801 National Rd E #733", "addr:city": "Richmond", "addr:state": "IN", "addr:postcode": "47374", "name": "Dillard's Richmond Mall in Richmond, Indiana", "phone": "(765)966-8211", "website": "https://www.dillards.com/stores/indiana/richmond-mall-richmond/0359", "opening_hours": "Mo-Sa 11:00-20:00; Su 12:00-18:00", "brand": "Dillard's", "brand:wikidata": "Q844805", "nsi_id": "dillards-592fe0"}, "geometry": {"type": "Point", "coordinates": [-84.84543, 39.8286]}},
{"type": "Feature", "id": "hei4txXb8PneZU8GQQewtmQGFnM=", "properties": {"ref": "0394", "@spider": "dillards", "shop": "department_store", "addr:street_address": "800 N Green River Rd", "addr:city": "Evansville", "addr:state": "IN", "addr:postcode": "47715", "name": "Dillard's Eastland Mall in Evansville, Indiana", "phone": "(812)473-1583", "website": "https://www.dillards.com/stores/indiana/eastland-mall-evansville/0394", "opening_hours": "Mo-Sa 11:00-20:00; Su 12:00-18:00", "brand": "Dillard's", "brand:wikidata": "Q844805", "nsi_id": "dillards-592fe0"}, "geometry": {"type": "Point", "coordinates": [-87.49705, 37.98528]}},
{"type": "Feature", "id": "LTkUWfL1b-5kCvQsolgAgem01N8=", "properties": {"ref": "0395", "@spider": "dillards", "shop": "department_store", "addr:street_address": "757 E Lewis and Clark Pkwy", "addr:city": "Clarksville", "addr:state": "IN", "addr:postcode": "47129", "name": "Dillard's Green Tree Mall in Clarksville, Indiana", "phone": "(812)285-0161", "website": "https://www.dillards.com/stores/indiana/green-tree-mall-clarksville/0395", "opening_hours": "Mo-Sa 11:00-20:00; Su 12:00-18:00", "brand": "Dillard's", "brand:wikidata": "Q844805", "nsi_id": "dillards-592fe0"}, "geometry": {"type": "Point", "coordinates": [-85.7641, 38.31773]}},
{"type": "Feature", "id": "prMmcWcuw2yvvLbcTgxcCAsFgP4=", "properties": {"ref": "0306", "@spider": "dillards", "shop": "department_store", "addr:street_address": "275 St Clair Square", "addr:city": "Fairview Heights", "addr:state": "IL", "addr:postcode": "62208", "name": "Dillard's St Clair Square in Fairview Heights, Illinois", "phone": "(618)632-5000", "website": "https://www.dillards.com/stores/illinois/st-clair-square-fairview-heights/0306", "opening_hours": "Mo-Sa 11:00-20:00; Su 12:00-18:00", "brand": "Dillard's", "brand:wikidata": "Q844805", "nsi_id": "dillards-592fe0"}, "geometry": {"type": "Point", "coordinates": [-89.97891, 38.59718]}},
{"type": "Feature", "id": "Xr7QEu26d-40-5sTODf-TTa9Mt8=", "properties": {"ref": "0310", "@spider": "dillards", "shop": "department_store", "addr:street_address": "3000 W Deyoung St", "addr:city": "Marion", "addr:state": "IL", "addr:postcode": "62959", "name": "Dillard's Illinois Center in Marion, Illinois", "phone": "(618)993-6000", "website": "https://www.dillards.com/stores/illinois/illinois-center-marion/0310", "opening_hours": "Mo-Sa 11:00-20:00; Su 12:00-18:00", "brand": "Dillard's", "brand:wikidata": "Q844805", "nsi_id": "dillards-592fe0"}, "geometry": {"type": "Point", "coordinates": [-88.97578, 37.74711]}},
{"type": "Feature", "id": "kQ8lpEA78ijG5q_MfBBD41DQG4E=", "properties": {"ref": "0525", "@spider": "dillards", "shop": "department_store", "addr:street_address": "4500 16th St", "addr:city": "Moline", "addr:state": "IL", "addr:postcode": "61265", "name": "Dillard's Southpark Mall in Moline, Illinois", "phone": "(309)797-1866", "website": "https://www.dillards.com/stores/illinois/southpark-mall-moline/0525", "opening_hours": "Tu-Sa 12:00-19:00; Su 12:00-18:00", "brand": "Dillard's", "brand:wikidata": "Q844805", "nsi_id": "dillards-592fe0"}, "geometry": {"type": "Point", "coordinates": [-90.50233, 41.46871]}},
{"type": "Feature", "id": "CGBVOrH5zRQZrawe_ZL8Zb4Pn_w=", "properties": {"ref": "0936", "@spider": "dillards", "shop": "department_store", "addr:street_address": "2420 E 17th St", "addr:city": "Idaho Falls", "addr:state": "ID", "addr:postcode": "83404", "name": "Dillard's Grand Teton Mall in Idaho Falls, Idaho", "phone": "(208)525-4000", "website": "https://www.dillards.com/stores/idaho/grand-teton-mall-idaho-falls/0936", "opening_hours": "Mo-Sa 11:00-20:00; Su 12:00-18:00", "brand": "Dillard's", "brand:wikidata": "Q844805", "nsi_id": "dillards-592fe0"}, "geometry": {"type": "Point", "coordinates": [-111.9862, 43.4793]}},
{"type": "Feature", "id": "fsEAAmA0YTeNrSWCMAhR1nFX-74=", "properties": {"ref": "0934", "@spider": "dillards", "shop": "department_store", "addr:street_address": "350 N Milwaukee St", "addr:city": "Boise", "addr:state": "ID", "addr:postcode": "83704", "name": "Dillard's Boise Towne Square in Boise, Idaho", "phone": "(208)321-4646", "website": "https://www.dillards.com/stores/idaho/boise-towne-square-boise/0934", "opening_hours": "Mo-Sa 11:00-20:00; Su 12:00-18:00", "brand": "Dillard's", "brand:wikidata": "Q844805", "nsi_id": "dillards-592fe0"}, "geometry": {"type": "Point", "coordinates": [-116.27636, 43.60961]}},
{"type": "Feature", "id": "DfSzSOR7x3rIJPUN0403UbDWuDk=", "properties": {"ref": "0277", "@spider": "dillards", "shop": "department_store", "addr:street_address": "14025 Abercorn St", "addr:city": "Savannah", "addr:state": "GA", "addr:postcode": "31419", "name": "Dillard's Savannah Mall in Savannah, Georgia", "phone": "(912)920-9000", "website": "https://www.dillards.com/stores/georgia/savannah-mall-savannah/0277", "opening_hours": "Mo-Sa 11:00-20:00; Su 12:00-18:00", "brand": "Dillard's", "brand:wikidata": "Q844805", "nsi_id": "dillards-592fe0"}, "geometry": {"type": "Point", "coordinates": [-81.17048, 31.9811]}},
{"type": "Feature", "id": "7QxczFO9iyq3pK3iEHYzi5VC2bQ=", "properties": {"ref": "0268", "@spider": "dillards", "shop": "department_store", "addr:street_address": "5080 Riverside Dr Suite 800", "addr:city": "Macon", "addr:state": "GA", "addr:postcode": "31210", "name": "Dillard's The Shoppes At River Crossing in Macon, Georgia", "phone": "(478)474-4545", "website": "https://www.dillards.com/stores/georgia/the-shoppes-at-river-crossing-macon/0268", "opening_hours": "Mo-Sa 11:00-20:00; Su 12:00-18:00", "brand": "Dillard's", "brand:wikidata": "Q844805", "nsi_id": "dillards-592fe0"}, "geometry": {"type": "Point", "coordinates": [-83.71386, 32.9294]}},
{"type": "Feature", "id": "K4WeK35dXuOatdh-c1rt3rYFfYY=", "properties": {"ref": "0275", "@spider": "dillards", "shop": "department_store", "addr:street_address": "3247 Manchester Expy", "addr:city": "Columbus", "addr:state": "GA", "addr:postcode": "31909", "name": "Dillard's Peachtree Mall in Columbus, Georgia", "phone": "(706)324-7272", "website": "https://www.dillards.com/stores/georgia/peachtree-mall-columbus/0275", "opening_hours": "Mo-Sa 11:00-20:00; Su 12:00-18:00", "brand": "Dillard's", "brand:wikidata": "Q844805", "nsi_id": "dillards-592fe0"}, "geometry": {"type": "Point", "coordinates": [-84.94143, 32.50913]}},
{"type": "Feature", "id": "1kEiZCKYnajyTgCi3wxJrnIuXxk=", "properties": {"ref": "0267", "@spider": "dillards", "shop": "department_store", "addr:street_address": "3450 Wrightsboro Rd", "addr:city": "Augusta", "addr:state": "GA", "addr:postcode": "30909", "name": "Dillard's Augusta Mall in Augusta, Georgia", "phone": "(706)481-0600", "website": "https://www.dillards.com/stores/georgia/augusta-mall-augusta/0267", "opening_hours": "Mo-Sa 11:00-20:00; Su 12:00-18:00", "brand": "Dillard's", "brand:wikidata": "Q844805", "nsi_id": "dillards-592fe0"}, "geometry": {"type": "Point", "coordinates": [-82.07615, 33.46191]}},
{"type": "Feature", "id": "Ux4uxWUB0x5_Z9z-YWRJoS45QtI=", "properties": {"ref": "0276", "@spider": "dillards", "shop": "department_store", "addr:street_address": "2601 Dawson Rd", "addr:city": "Albany", "addr:state": "GA", "addr:postcode": "31707", "name": "Dillard's Albany Mall in Albany, Georgia", "phone": "(229)883-7900", "website": "https://www.dillards.com/stores/georgia/albany-mall-albany/0276", "opening_hours": "Mo-Sa 11:00-20:00; Su 12:00-18:00", "brand": "Dillard's", "brand:wikidata": "Q844805", "nsi_id": "dillards-592fe0"}, "geometry": {"type": "Point", "coordinates": [-84.2186, 31.61815]}},
{"type": "Feature", "id": "ryENcR5ruWnqvydM4-1twUiATos=", "properties": {"ref": "0266", "@spider": "dillards", "shop": "department_store", "addr:street_address": "370 Newnan Crossing Bypass", "addr:city": "Newnan", "addr:state": "GA", "addr:postcode": "30265", "name": "Dillard's Ashley Park in Newnan, Georgia", "phone": "(770)254-0166", "website": "https://www.dillards.com/stores/georgia/ashley-park-newnan/0266", "opening_hours": "Mo-Sa 11:00-20:00; Su 12:00-18:00", "brand": "Dillard's", "brand:wikidata": "Q844805", "nsi_id": "dillards-592fe0"}, "geometry": {"type": "Point", "coordinates": [-84.76593, 33.38768]}},
{"type": "Feature", "id": "TvxFSCdL0Ze2zMOCYRQSJeV1TQY=", "properties": {"ref": "0263", "@spider": "dillards", "shop": "department_store", "addr:street_address": "8000 Mall Pkwy", "addr:city": "Lithonia", "addr:state": "GA", "addr:postcode": "30038", "name": "Dillard's The Mall At Stonecrest in Lithonia, Georgia", "phone": "(770)666-0000", "website": "https://www.dillards.com/stores/georgia/the-mall-at-stonecrest-lithonia/0263", "opening_hours": "Mo-Sa 11:00-20:00; Su 12:00-18:00", "brand": "Dillard's", "brand:wikidata": "Q844805", "nsi_id": "dillards-592fe0"}, "geometry": {"type": "Point", "coordinates": [-84.0964, 33.69703]}},
{"type": "Feature", "id": "iI4LT7pXAjhAMB2a-BC8b-an570=", "properties": {"ref": "0262", "@spider": "dillards", "shop": "department_store", "addr:street_address": "6720 Douglas Blvd", "addr:city": "Douglasville", "addr:state": "GA", "addr:postcode": "30135", "name": "Dillard's Arbor Place in Douglasville, Georgia", "phone": "(770)577-4271", "website": "https://www.dillards.com/stores/georgia/arbor-place-douglasville/0262", "opening_hours": "Mo-Sa 11:00-20:00; Su 12:00-18:00", "brand": "Dillard's", "brand:wikidata": "Q844805", "nsi_id": "dillards-592fe0"}, "geometry": {"type": "Point", "coordinates": [-84.74911, 33.72775]}},
{"type": "Feature", "id": "Z5__J6Ra2QsDhClz-U9XojhWoZM=", "properties": {"ref": "0261", "@spider": "dillards", "shop": "department_store", "addr:street_address": "3333 Buford Dr", "addr:city": "Buford", "addr:state": "GA", "addr:postcode": "30519", "name": "Dillard's Mall Of Georgia in Buford, Georgia", "phone": "(678)482-5241", "website": "https://www.dillards.com/stores/georgia/mall-of-georgia-buford/0261", "opening_hours": "Mo-Sa 11:00-20:00; Su 12:00-18:00", "brand": "Dillard's", "brand:wikidata": "Q844805", "nsi_id": "dillards-592fe0"}, "geometry": {"type": "Point", "coordinates": [-83.986, 34.06298]}},
{"type": "Feature", "id": "i29SBRzjB7Mv7IjmHcC9kB92zRw=", "properties": {"ref": "0265", "@spider": "dillards", "shop": "department_store", "addr:street_address": "1371 Market St NW", "addr:city": "Atlanta", "addr:state": "GA", "addr:postcode": "30363", "name": "Dillard's Atlantic Station in Atlanta, Georgia", "phone": "(404)879-0635", "website": "https://www.dillards.com/stores/georgia/atlantic-station-atlanta/0265", "opening_hours": "Mo-Sa 11:00-20:00; Su 12:00-18:00", "brand": "Dillard's", "brand:wikidata": "Q844805", "nsi_id": "dillards-592fe0"}, "geometry": {"type": "Point", "coordinates": [-84.39385, 33.79263]}},
{"type": "Feature", "id": "p3QRuqRSpMgnkrhdbGcrkXR2qF8=", "properties": {"ref": "0264", "@spider": "dillards", "shop": "department_store", "addr:street_address": "4500 Ashford Dunwoody Rd NE", "addr:city": "Atlanta", "addr:state": "GA", "addr:postcode": "30346", "name": "Dillard's Perimeter Mall in Atlanta, Georgia", "phone": "(678)320-9140", "website": "https://www.dillards.com/stores/georgia/perimeter-mall-atlanta/0264", "opening_hours": "Mo-Sa 11:00-20:00; Su 12:00-18:00", "brand": "Dillard's", "brand:wikidata": "Q844805", "nsi_id": "dillards-592fe0"}, "geometry": {"type": "Point", "coordinates": [-84.33973, 33.9254]}},
{"type": "Feature", "id": "HA8hsO2s7CiyvAiNGxSAXZKCxxg=", "properties": {"ref": "0260", "@spider": "dillards", "shop": "department_store", "addr:street_address": "7000 North Point Cir", "addr:city": "Alpharetta", "addr:state": "GA", "addr:postcode": "30022", "name": "Dillard's North Point Mall in Alpharetta, Georgia", "phone": "(770)410-9020", "website": "https://www.dillards.com/stores/georgia/north-point-mall-alpharetta/0260", "opening_hours": "Mo-Sa 11:00-20:00; Su 12:00-18:00", "brand": "Dillard's", "brand:wikidata": "Q844805", "nsi_id": "dillards-592fe0"}, "geometry": {"type": "Point", "coordinates": [-84.29543, 34.04678]}},
{"type": "Feature", "id": "qvfx_MDYdZ51cH60HABtQZrWlVM=", "properties": {"ref": "0208", "@spider": "dillards", "shop": "department_store", "addr:street_address": "28335 Paseo Drive", "addr:city": "Wesley Chapel", "addr:state": "FL", "addr:postcode": "33543", "name": "Dillard's The Shops At Wiregrass in Wesley Chapel, Florida", "phone": "(813)991-1352", "website": "https://www.dillards.com/stores/florida/the-shops-at-wiregrass-wesley-chapel/0208", "opening_hours": "Mo-Sa 11:00-20:00; Su 12:00-18:00", "brand": "Dillard's", "brand:wikidata": "Q844805", "nsi_id": "dillards-592fe0"}, "geometry": {"type": "Point", "coordinates": [-82.3492, 28.18788]}},
{"type": "Feature", "id": "1r_-3HbvN7dxqoeZWzYcuTK_aAs=", "properties": {"ref": "0203", "@spider": "dillards", "shop": "department_store", "addr:street_address": "8161 Citrus Park Town Center Mall", "addr:city": "Tampa", "addr:state": "FL", "addr:postcode": "33625", "name": "Dillard's Citrus Park Town Center in Tampa, Florida", "phone": "(813)926-4545", "website": "https://www.dillards.com/stores/florida/citrus-park-town-center-tampa/0203", "opening_hours": "Mo-Sa 11:00-20:00; Su 12:00-18:00", "brand": "Dillard's", "brand:wikidata": "Q844805", "nsi_id": "dillards-592fe0"}, "geometry": {"type": "Point", "coordinates": [-82.57936, 28.06755]}},
{"type": "Feature", "id": "Kg0dNvWBabhW316i3OSPbB5RlD8=", "properties": {"ref": "0201", "@spider": "dillards", "shop": "department_store", "addr:street_address": "2223 N Westshore Blvd #500", "addr:city": "Tampa", "addr:state": "FL", "addr:postcode": "33607", "name": "Dillard's International Plaza And Bay in Tampa, Florida", "phone": "(813)342-1220", "website": "https://www.dillards.com/stores/florida/international-plaza-and-bay-tampa/0201", "opening_hours": "Mo-Sa 11:00-20:00; Su 12:00-18:00", "brand": "Dillard's", "brand:wikidata": "Q844805", "nsi_id": "dillards-592fe0"}, "geometry": {"type": "Point", "coordinates": [-82.51968, 27.96308]}},
{"type": "Feature", "id": "ziBP4nWMese5kjIQDadfAz28iU8=", "properties": {"ref": "0205", "@spider": "dillards", "shop": "department_store", "addr:street_address": "6990 Tyrone Square", "addr:city": "St. Petersburg", "addr:state": "FL", "addr:postcode": "33710", "name": "Dillard's Tyrone Square in St. Petersburg, Florida", "phone": "(727)344-4611", "website": "https://www.dillards.com/stores/florida/tyrone-square-st.-petersburg/0205", "opening_hours": "Mo-Sa 11:00-20:00; Su 12:00-18:00", "brand": "Dillard's", "brand:wikidata": "Q844805", "nsi_id": "dillards-592fe0"}, "geometry": {"type": "Point", "coordinates": [-82.73505, 27.79325]}},
{"type": "Feature", "id": "sbrhvUfVC_3N0jWjkRH6sbcWCYU=", "properties": {"ref": "0206", "@spider": "dillards", "shop": "department_store", "addr:street_address": "27001 US-19", "addr:city": "Clearwater", "addr:state": "FL", "addr:postcode": "33761", "name": "Dillard's Countryside Mall in Clearwater, Florida", "phone": "(727)796-2242", "website": "https://www.dillards.com/stores/florida/countryside-mall-clearwater/0206", "opening_hours": "Mo-Sa 11:00-20:00; Su 12:00-18:00", "brand": "Dillard's", "brand:wikidata": "Q844805", "nsi_id": "dillards-592fe0"}, "geometry": {"type": "Point", "coordinates": [-82.7331, 28.01886]}},
{"type": "Feature", "id": "wi9XM9UAGcaApcXlu_5F-ilAGYI=", "properties": {"ref": "0204", "@spider": "dillards", "shop": "department_store", "addr:street_address": "303 Brandon Town Center Dr", "addr:city": "Brandon", "addr:state": "FL", "addr:postcode": "33511", "name": "Dillard's Westfield Brandon in Brandon, Florida", "phone": "(813)653-4436", "website": "https://www.dillards.com/stores/florida/westfield-brandon-brandon/0204", "opening_hours": "Mo-Sa 11:00-20:00; Su 12:00-18:00", "brand": "Dillard's", "brand:wikidata": "Q844805", "nsi_id": "dillards-592fe0"}, "geometry": {"type": "Point", "coordinates": [-82.32655, 27.93475]}},
{"type": "Feature", "id": "Wqu_kSYyAeLrvABvg3Rd32qV3eE=", "properties": {"ref": "0244", "@spider": "dillards", "shop": "department_store", "addr:street_address": "6200 20th St", "addr:city": "Vero Beach", "addr:state": "FL", "addr:postcode": "32966", "name": "Dillard's Indian River Mall in Vero Beach, Florida", "phone": "(772)770-2141", "website": "https://www.dillards.com/stores/florida/indian-river-mall-vero-beach/0244", "opening_hours": "Mo-Sa 11:00-20:00; Su 12:00-18:00", "brand": "Dillard's", "brand:wikidata": "Q844805", "nsi_id": "dillards-592fe0"}, "geometry": {"type": "Point", "coordinates": [-80.46111, 27.64318]}},
{"type": "Feature", "id": "0w34q_cFv6K8-6XIBbMI7nC1lEM=", "properties": {"ref": "0243", "@spider": "dillards", "shop": "department_store", "addr:street_address": "1500 Apalachee Pkwy", "addr:city": "Tallahassee", "addr:state": "FL", "addr:postcode": "32301", "name": "Dillard's Governor's Square in Tallahassee, Florida", "phone": "(850)671-2000", "website": "https://www.dillards.com/stores/florida/governors-square-tallahassee/0243", "opening_hours": "Mo-Sa 11:00-20:00; Su 12:00-18:00", "brand": "Dillard's", "brand:wikidata": "Q844805", "nsi_id": "dillards-592fe0"}, "geometry": {"type": "Point", "coordinates": [-84.25235, 30.43755]}},
{"type": "Feature", "id": "19zZEn-clSiKB_n1NKuPRe7gTSU=", "properties": {"ref": "0213", "@spider": "dillards", "shop": "department_store", "addr:street_address": "200 University Town Center Dr", "addr:city": "Sarasota", "addr:state": "FL", "addr:postcode": "34243", "name": "Dillard's The Mall At Utc in Sarasota, Florida", "phone": "(941)527-4878", "website": "https://www.dillards.com/stores/florida/the-mall-at-utc-sarasota/0213", "opening_hours": "Mo-Sa 11:00-20:00; Su 12:00-18:00", "brand": "Dillard's", "brand:wikidata": "Q844805", "nsi_id": "dillards-592fe0"}, "geometry": {"type": "Point", "coordinates": [-82.4531, 27.3845]}},
{"type": "Feature", "id": "cKagS76iqTw8JLtxHZnbiqJMeCo=", "properties": {"ref": "0214", "@spider": "dillards", "shop": "department_store", "addr:street_address": "1441 Tamiami Trail ", "addr:city": "Port Charlotte", "addr:state": "FL", "addr:postcode": "33948", "name": "Dillard's Port Charlotte Town Center in Port Charlotte, Florida", "phone": "(941)255-1778", "website": "https://www.dillards.com/stores/florida/port-charlotte-town-center-port-charlotte/0214", "opening_hours": "Mo-Sa 11:00-20:00; Su 12:00-18:00", "brand": "Dillard's", "brand:wikidata": "Q844805", "nsi_id": "dillards-592fe0"}, "geometry": {"type": "Point", "coordinates": [-82.14428, 27.00936]}},
{"type": "Feature", "id": "XZ3rgl4TbyCC5zxnBgzA0iCSXM0=", "properties": {"ref": "0242", "@spider": "dillards", "shop": "department_store", "addr:street_address": "5100 N 9th Ave", "addr:city": "Pensacola", "addr:state": "FL", "addr:postcode": "32504", "name": "Dillard's Cordova Mall in Pensacola, Florida", "phone": "(850)476-3011", "website": "https://www.dillards.com/stores/florida/cordova-mall-pensacola/0242", "opening_hours": "Mo-Sa 11:00-20:00; Su 12:00-18:00", "brand": "Dillard's", "brand:wikidata": "Q844805", "nsi_id": "dillards-592fe0"}, "geometry": {"type": "Point", "coordinates": [-87.20955, 30.4744]}},
{"type": "Feature", "id": "i-921UFIZbTROMXk-8wsz0dnwLM=", "properties": {"ref": "0229", "@spider": "dillards", "shop": "department_store", "addr:street_address": "4414 SW College Rd", "addr:city": "Ocala", "addr:state": "FL", "addr:postcode": "34474", "name": "Dillard's Market Street At Heath Brook in Ocala, Florida", "phone": "(352)629-9266", "website": "https://www.dillards.com/stores/florida/market-street-at-heath-brook-ocala/0229", "opening_hours": "Mo-Sa 11:00-20:00; Su 12:00-18:00", "brand": "Dillard's", "brand:wikidata": "Q844805", "nsi_id": "dillards-592fe0"}, "geometry": {"type": "Point", "coordinates": [-82.183, 29.13851]}},
{"type": "Feature", "id": "XnILOerNlpvZHsBLZRz3T2_6Y8Q=", "properties": {"ref": "0216", "@spider": "dillards", "shop": "department_store", "addr:street_address": "1798 Tamiami Trail N", "addr:city": "Naples", "addr:state": "FL", "addr:postcode": "34102", "name": "Dillard's Coastland Center in Naples, Florida", "phone": "(239)261-4100", "website": "https://www.dillards.com/stores/florida/coastland-center-naples/0216", "opening_hours": "Mo-Sa 11:00-20:00; Su 12:00-18:00", "brand": "Dillard's", "brand:wikidata": "Q844805", "nsi_id": "dillards-592fe0"}, "geometry": {"type": "Point", "coordinates": [-81.79266, 26.17]}},
{"type": "Feature", "id": "5tAnGHjEQlaGwqMEpNJwEBreUPk=", "properties": {"ref": "0246", "@spider": "dillards", "shop": "department_store", "addr:street_address": "300 Mary Esther Blvd #119", "addr:city": "Mary Esther", "addr:state": "FL", "addr:postcode": "32569", "name": "Dillard's Santa Rosa Mall in Mary Esther, Florida", "phone": "(850)244-7111", "website": "https://www.dillards.com/stores/florida/santa-rosa-mall-mary-esther/0246", "opening_hours": "Mo-Sa 11:00-20:00; Su 12:00-18:00", "brand": "Dillard's", "brand:wikidata": "Q844805", "nsi_id": "dillards-592fe0"}, "geometry": {"type": "Point", "coordinates": [-86.65698, 30.41656]}},
{"type": "Feature", "id": "9c12XODtK7FkcMAFsR4v5R1tMeU=", "properties": {"ref": "0238", "@spider": "dillards", "shop": "department_store", "addr:street_address": "3210 NW Federal Hwy", "addr:city": "Jensen Beach", "addr:state": "FL", "addr:postcode": "34957", "name": "Dillard's Treasure Coast Square in Jensen Beach, Florida", "phone": "(772)692-0555", "website": "https://www.dillards.com/stores/florida/treasure-coast-square-jensen-beach/0238", "opening_hours": "Mo-Sa 11:00-20:00; Su 12:00-18:00", "brand": "Dillard's", "brand:wikidata": "Q844805", "nsi_id": "dillards-592fe0"}, "geometry": {"type": "Point", "coordinates": [-80.27598, 27.24276]}},
{"type": "Feature", "id": "LDUerKPKGuaJLa55rtf2N76t1FM=", "properties": {"ref": "0234", "@spider": "dillards", "shop": "department_store", "addr:street_address": "6495 W Newberry Rd", "addr:city": "Gainesville", "addr:state": "FL", "addr:postcode": "32605", "name": "Dillard's The Oaks Mall in Gainesville, Florida", "phone": "(352)331-1455", "website": "https://www.dillards.com/stores/florida/the-oaks-mall-gainesville/0234", "opening_hours": "Mo-Sa 11:00-20:00; Su 12:00-18:00", "brand": "Dillard's", "brand:wikidata": "Q844805", "nsi_id": "dillards-592fe0"}, "geometry": {"type": "Point", "coordinates": [-82.4121, 29.65598]}},
{"type": "Feature", "id": "QKYjV_kvTS5qsLm5YAGtUcsu3rE=", "properties": {"ref": "0235", "@spider": "dillards", "shop": "department_store", "addr:street_address": "1700 W International Speedway Blvd", "addr:city": "Daytona Beach", "addr:state": "FL", "addr:postcode": "32114", "name": "Dillard's Volusia Mall in Daytona Beach, Florida", "phone": "(386)255-8161", "website": "https://www.dillards.com/stores/florida/volusia-mall-daytona-beach/0235", "opening_hours": "Mo-Sa 11:00-20:00; Su 12:00-18:00", "brand": "Dillard's", "brand:wikidata": "Q844805", "nsi_id": "dillards-592fe0"}, "geometry": {"type": "Point", "coordinates": [-81.06278, 29.1986]}},
{"type": "Feature", "id": "6qiQCehs0xHRdGknnaTzNya0kRY=", "properties": {"ref": "0247", "@spider": "dillards", "shop": "department_store", "addr:street_address": "200 Pier Park Dr", "addr:city": "Panama City Beach", "addr:state": "FL", "addr:postcode": "32413", "name": "Dillard's Pier Park in Panama City Beach, Florida", "phone": "(850)234-2417", "website": "https://www.dillards.com/stores/florida/pier-park-panama-city-beach/0247", "opening_hours": "Mo-Sa 11:00-20:00; Su 12:00-18:00", "brand": "Dillard's", "brand:wikidata": "Q844805", "nsi_id": "dillards-592fe0"}, "geometry": {"type": "Point", "coordinates": [-85.87123, 30.22103]}},
{"type": "Feature", "id": "r9eE4lEPYRf2nI2Fhk8cq6OST5k=", "properties": {"ref": "0248", "@spider": "dillards", "shop": "department_store", "addr:street_address": "2298 Martin Luther King Jr Blvd", "addr:city": "Panama City", "addr:state": "FL", "addr:postcode": "32405", "name": "Dillard's Panama City Mall in Panama City, Florida", "phone": "(850)769-7671", "website": "https://www.dillards.com/stores/florida/panama-city-mall-panama-city/0248", "opening_hours": "Mo-Sa 11:00-20:00; Su 12:00-18:00", "brand": "Dillard's", "brand:wikidata": "Q844805", "nsi_id": "dillards-592fe0"}, "geometry": {"type": "Point", "coordinates": [-85.64746, 30.18848]}},
{"type": "Feature", "id": "80JSrQpVwAD2j8z5bLyeePD6fUY=", "properties": {"ref": "0222", "@spider": "dillards", "shop": "department_store", "addr:street_address": "1000 Oviedo Marketplace Blvd", "addr:city": "Oviedo", "addr:state": "FL", "addr:postcode": "32765", "name": "Dillard's Oviedo Mall in Oviedo, Florida", "phone": "(407)977-9996", "website": "https://www.dillards.com/stores/florida/oviedo-mall-oviedo/0222", "opening_hours": "Mo-Sa 11:00-20:00; Su 12:00-18:00", "brand": "Dillard's", "brand:wikidata": "Q844805", "nsi_id": "dillards-592fe0"}, "geometry": {"type": "Point", "coordinates": [-81.23703, 28.66163]}},
{"type": "Feature", "id": "pgMkAklBuHj6BJ5nws3vCH6y9Kw=", "properties": {"ref": "0224", "@spider": "dillards", "shop": "department_store", "addr:street_address": "300 Town Center Cir ", "addr:city": "Sanford", "addr:state": "FL", "addr:postcode": "32771", "name": "Dillard's Seminole Towne Center in Sanford, Florida", "phone": "(407)330-1775", "website": "https://www.dillards.com/stores/florida/seminole-towne-center-sanford/0224", "opening_hours": "Mo-Sa 11:00-20:00; Su 12:00-18:00", "brand": "Dillard's", "brand:wikidata": "Q844805", "nsi_id": "dillards-592fe0"}, "geometry": {"type": "Point", "coordinates": [-81.33735, 28.80616]}},
{"type": "Feature", "id": "nirgQpUZMfGvJvGAY6YYbqWxZdU=", "properties": {"ref": "0221", "@spider": "dillards", "shop": "department_store", "addr:street_address": "8001 S Orange Blossom Trail", "addr:city": "Orlando", "addr:state": "FL", "addr:postcode": "32809", "name": "Dillard's The Florida Mall in Orlando, Florida", "phone": "(407)240-1771", "website": "https://www.dillards.com/stores/florida/the-florida-mall-orlando/0221", "opening_hours": "Mo-Sa 11:00-20:00; Su 12:00-18:00", "brand": "Dillard's", "brand:wikidata": "Q844805", "nsi_id": "dillards-592fe0"}, "geometry": {"type": "Point", "coordinates": [-81.39133, 28.44651]}},
{"type": "Feature", "id": "G40H7KU_NWrPvjKVdiHMAJ9gDQ4=", "properties": {"ref": "0226", "@spider": "dillards", "shop": "department_store", "addr:street_address": "451 E Altamonte Dr #1101", "addr:city": "Altamonte Springs", "addr:state": "FL", "addr:postcode": "32701", "name": "Dillard's Altamonte Mall in Altamonte Springs, Florida", "phone": "(407)830-1211", "website": "https://www.dillards.com/stores/florida/altamonte-mall-altamonte-springs/0226", "opening_hours": "Mo-Sa 11:00-20:00; Su 12:00-18:00", "brand": "Dillard's", "brand:wikidata": "Q844805", "nsi_id": "dillards-592fe0"}, "geometry": {"type": "Point", "coordinates": [-81.37891, 28.66635]}},
{"type": "Feature", "id": "TeP2nDXM23Zp1Ft41ff5jvINNtU=", "properties": {"ref": "0236", "@spider": "dillards", "shop": "department_store", "addr:street_address": "777 E Merritt Island Causeway", "addr:city": "Merritt Island", "addr:state": "FL", "addr:postcode": "32952", "name": "Dillard's Merritt Square Mall in Merritt Island, Florida", "phone": "(321)452-6411", "website": "https://www.dillards.com/stores/florida/merritt-square-mall-merritt-island/0236", "opening_hours": "Mo-Sa 11:00-20:00; Su 12:00-18:00", "brand": "Dillard's", "brand:wikidata": "Q844805", "nsi_id": "dillards-592fe0"}, "geometry": {"type": "Point", "coordinates": [-80.68565, 28.35488]}},
{"type": "Feature", "id": "097v-RbGjWmPsB38gCibL6WjF8Q=", "properties": {"ref": "0237", "@spider": "dillards", "shop": "department_store", "addr:street_address": "1700 W New Haven Ave #801", "addr:city": "Melbourne", "addr:state": "FL", "addr:postcode": "32904", "name": "Dillard's Melbourne Square in Melbourne, Florida", "phone": "(321)676-1300", "website": "https://www.dillards.com/stores/florida/melbourne-square-melbourne/0237", "opening_hours": "Mo-Sa 11:00-20:00; Su 12:00-18:00", "brand": "Dillard's", "brand:wikidata": "Q844805", "nsi_id": "dillards-592fe0"}, "geometry": {"type": "Point", "coordinates": [-80.65051, 28.0824]}},
{"type": "Feature", "id": "2C8_cjmLYsTy_UMeB5CbCleYpFM=", "properties": {"ref": "0209", "@spider": "dillards", "shop": "department_store", "addr:street_address": "3800 US Hwy 98 N", "addr:city": "Lakeland", "addr:state": "FL", "addr:postcode": "33809", "name": "Dillard's Lakeland Square Mall in Lakeland, Florida", "phone": "(863)859-2000", "website": "https://www.dillards.com/stores/florida/lakeland-square-mall-lakeland/0209", "opening_hours": "Mo-Sa 11:00-20:00; Su 12:00-18:00", "brand": "Dillard's", "brand:wikidata": "Q844805", "nsi_id": "dillards-592fe0"}, "geometry": {"type": "Point", "coordinates": [-81.97643, 28.09183]}},
{"type": "Feature", "id": "JfsA7hAwNi02PAf76E8flktDktA=", "properties": {"ref": "0210", "@spider": "dillards", "shop": "department_store", "addr:street_address": "100 Eagle Ridge Mall Ent", "addr:city": "Lake Wales", "addr:state": "FL", "addr:postcode": "33859", "name": "Dillard's Eagle Ridge Mall in Lake Wales, Florida", "phone": "(863)676-7646", "website": "https://www.dillards.com/stores/florida/eagle-ridge-mall-lake-wales/0210", "opening_hours": "Mo-Sa 11:00-20:00; Su 12:00-18:00", "brand": "Dillard's", "brand:wikidata": "Q844805", "nsi_id": "dillards-592fe0"}, "geometry": {"type": "Point", "coordinates": [-81.61733, 27.95273]}},
{"type": "Feature", "id": "Eblkyeu5BQ-zblb9UtVGbQcVhKw=", "properties": {"ref": "0232", "@spider": "dillards", "shop": "department_store", "addr:street_address": "1910 Wells Rd", "addr:city": "Orange Park", "addr:state": "FL", "addr:postcode": "32073", "name": "Dillard's Orange Park Mall in Orange Park, Florida", "phone": "(904)269-2222", "website": "https://www.dillards.com/stores/florida/orange-park-mall-orange-park/0232", "opening_hours": "Mo-Sa 11:00-20:00; Su 12:00-18:00", "brand": "Dillard's", "brand:wikidata": "Q844805", "nsi_id": "dillards-592fe0"}, "geometry": {"type": "Point", "coordinates": [-81.7351, 30.18356]}},
{"type": "Feature", "id": "nDW0l8fnHliFhKEJpTsVX90mC6s=", "properties": {"ref": "0233", "@spider": "dillards", "shop": "department_store", "addr:street_address": "10300 Southside Blvd", "addr:city": "Jacksonville", "addr:state": "FL", "addr:postcode": "32256", "name": "Dillard's The Avenues in Jacksonville, Florida", "phone": "(904)363-6115", "website": "https://www.dillards.com/stores/florida/the-avenues-jacksonville/0233", "opening_hours": "Mo-Sa 11:00-20:00; Su 12:00-18:00", "brand": "Dillard's", "brand:wikidata": "Q844805", "nsi_id": "dillards-592fe0"}, "geometry": {"type": "Point", "coordinates": [-81.55488, 30.18531]}},
{"type": "Feature", "id": "Fzp3puSjneb_rR5QiLJE_JrUGKM=", "properties": {"ref": "0230", "@spider": "dillards", "shop": "department_store", "addr:street_address": "4755 Town Crossing Dr", "addr:city": "Jacksonville", "addr:state": "FL", "addr:postcode": "32246", "name": "Dillard's St. Johns Town Center in Jacksonville, Florida", "phone": "(904)641-0471", "website": "https://www.dillards.com/stores/florida/st.-johns-town-center-jacksonville/0230", "opening_hours": "Mo-Sa 11:00-20:00; Su 12:00-18:00", "brand": "Dillard's", "brand:wikidata": "Q844805", "nsi_id": "dillards-592fe0"}, "geometry": {"type": "Point", "coordinates": [-81.52733, 30.25606]}},
{"type": "Feature", "id": "PR8Fg8UBv1y_lTafaG_UwDtfkZQ=", "properties": {"ref": "0215", "@spider": "dillards", "shop": "department_store", "addr:street_address": "4125 S Cleveland Ave", "addr:city": "Ft. Myers", "addr:state": "FL", "addr:postcode": "33901", "name": "Dillard's Edison Mall in Ft. Myers, Florida", "phone": "(239)936-1441", "website": "https://www.dillards.com/stores/florida/edison-mall-ft.-myers/0215", "opening_hours": "Mo-Sa 11:00-20:00; Su 12:00-18:00", "brand": "Dillard's", "brand:wikidata": "Q844805", "nsi_id": "dillards-592fe0"}, "geometry": {"type": "Point", "coordinates": [-81.86683, 26.60128]}},
{"type": "Feature", "id": "XjnAhO6yI0L2Em6_bf0JGhuZYOI=", "properties": {"ref": "0218", "@spider": "dillards", "shop": "department_store", "addr:street_address": "8017 Via Sardinia St", "addr:city": "Estero", "addr:state": "FL", "addr:postcode": "33928", "name": "Dillard's Coconut Point in Estero, Florida", "phone": "(239)947-4133", "website": "https://www.dillards.com/stores/florida/coconut-point-estero/0218", "opening_hours": "Mo-Sa 11:00-20:00; Su 12:00-18:00", "brand": "Dillard's", "brand:wikidata": "Q844805", "nsi_id": "dillards-592fe0"}, "geometry": {"type": "Point", "coordinates": [-81.80703, 26.3999]}},
{"type": "Feature", "id": "pAFrWZ976px6DDhpNwDT35zA78k=", "properties": {"ref": "0256", "@spider": "dillards", "shop": "department_store", "addr:street_address": "10304 Forest Hill Blvd", "addr:city": "Wellington", "addr:state": "FL", "addr:postcode": "33414", "name": "Dillard's The Mall At Wellington Green in Wellington, Florida", "phone": "(561)227-5470", "website": "https://www.dillards.com/stores/florida/the-mall-at-wellington-green-wellington/0256", "opening_hours": "Mo-Sa 11:00-20:00; Su 12:00-18:00", "brand": "Dillard's", "brand:wikidata": "Q844805", "nsi_id": "dillards-592fe0"}, "geometry": {"type": "Point", "coordinates": [-80.20956, 26.6481]}},
{"type": "Feature", "id": "v52LWcymfrwTcjzyXZaI1I99wV8=", "properties": {"ref": "0252", "@spider": "dillards", "shop": "department_store", "addr:street_address": "8000 W Broward Blvd #150", "addr:city": "Plantation", "addr:state": "FL", "addr:postcode": "33388", "name": "Dillard's Broward Mall in Plantation, Florida", "phone": "(954)370-8182", "website": "https://www.dillards.com/stores/florida/broward-mall-plantation/0252", "opening_hours": "Mo-Sa 11:00-20:00; Su 12:00-18:00", "brand": "Dillard's", "brand:wikidata": "Q844805", "nsi_id": "dillards-592fe0"}, "geometry": {"type": "Point", "coordinates": [-80.2569, 26.1178]}},
{"type": "Feature", "id": "1XYyW2MgECX1XxBDEn7XiMueXN4=", "properties": {"ref": "0961", "@spider": "dillards", "shop": "department_store", "addr:street_address": "1255 Rancho Vista Blvd", "addr:city": "Palmdale", "addr:state": "CA", "addr:postcode": "93551", "name": "Dillard's Antelope Valley Mall in Palmdale, California", "phone": "(661)267-0670", "website": "https://www.dillards.com/stores/california/antelope-valley-mall-palmdale/0961", "opening_hours": "Mo-Sa 11:00-20:00; Su 12:00-18:00", "brand": "Dillard's", "brand:wikidata": "Q844805", "nsi_id": "dillards-592fe0"}, "geometry": {"type": "Point", "coordinates": [-118.15298, 34.60625]}},
{"type": "Feature", "id": "wtzPyA0kLalShaT3rp-VEsHJxi4=", "properties": {"ref": "0962", "@spider": "dillards", "shop": "department_store", "addr:street_address": "3451 Dogwood Rd", "addr:city": "El Centro", "addr:state": "CA", "addr:postcode": "92243", "name": "Dillard's Imperial Valley Mall in El Centro, California", "phone": "(760)370-0190", "website": "https://www.dillards.com/stores/california/imperial-valley-mall-el-centro/0962", "opening_hours": "Mo-Sa 11:00-20:00; Su 12:00-18:00", "brand": "Dillard's", "brand:wikidata": "Q844805", "nsi_id": "dillards-592fe0"}, "geometry": {"type": "Point", "coordinates": [-115.5312, 32.76498]}},
{"type": "Feature", "id": "OQfBSunqWBT9k94KM6eesJEib4M=", "properties": {"ref": "0406", "@spider": "dillards", "shop": "department_store", "addr:street_address": "3000 E Highland Dr", "addr:city": "Jonesboro", "addr:state": "AR", "addr:postcode": "72401", "name": "Dillard's The Mall At Turtle Creek in Jonesboro, Arkansas", "phone": "(870)932-6300", "website": "https://www.dillards.com/stores/arkansas/the-mall-at-turtle-creek-jonesboro/0406", "opening_hours": "Mo-Sa 11:00-20:00; Su 12:00-18:00", "brand": "Dillard's", "brand:wikidata": "Q844805", "nsi_id": "dillards-592fe0"}, "geometry": {"type": "Point", "coordinates": [-90.66133, 35.82268]}},
{"type": "Feature", "id": "bztnQDkLl0exhcEhx4OtCWAr9mU=", "properties": {"ref": "0402", "@spider": "dillards", "shop": "department_store", "addr:street_address": "4501 Central Ave #102", "addr:city": "Hot Springs", "addr:state": "AR", "addr:postcode": "71913", "name": "Dillard's Hot Springs Mall in Hot Springs, Arkansas", "phone": "(501)525-4501", "website": "https://www.dillards.com/stores/arkansas/hot-springs-mall-hot-springs/0402", "opening_hours": "Mo-Sa 11:00-20:00; Su 12:00-18:00", "brand": "Dillard's", "brand:wikidata": "Q844805", "nsi_id": "dillards-592fe0"}, "geometry": {"type": "Point", "coordinates": [-93.08001, 34.44921]}},
{"type": "Feature", "id": "VkH8Z4rD5Js5RLnerYmf6nCAgNI=", "properties": {"ref": "0413", "@spider": "dillards", "shop": "department_store", "addr:street_address": "5111 Rogers Ave", "addr:city": "Fort Smith", "addr:state": "AR", "addr:postcode": "72903", "name": "Dillard's Central Mall in Fort Smith, Arkansas", "phone": "(479)484-5700", "website": "https://www.dillards.com/stores/arkansas/central-mall-fort-smith/0413", "opening_hours": "Mo-Sa 11:00-20:00; Su 12:00-18:00", "brand": "Dillard's", "brand:wikidata": "Q844805", "nsi_id": "dillards-592fe0"}, "geometry": {"type": "Point", "coordinates": [-94.37411, 35.36821]}},
{"type": "Feature", "id": "cmMVuBL4Jp1hrsXhQYfomUFxC7Y=", "properties": {"ref": "0408", "@spider": "dillards", "shop": "department_store", "addr:street_address": "2101 S Promenade Blvd", "addr:city": "Rogers", "addr:state": "AR", "addr:postcode": "72758", "name": "Dillard's Pinnacle Hills Promenade in Rogers, Arkansas", "phone": "(479)936-7984", "website": "https://www.dillards.com/stores/arkansas/pinnacle-hills-promenade-rogers/0408", "opening_hours": "Mo-Sa 11:00-20:00; Su 12:00-18:00", "brand": "Dillard's", "brand:wikidata": "Q844805", "nsi_id": "dillards-592fe0"}, "geometry": {"type": "Point", "coordinates": [-94.17776, 36.30711]}},
{"type": "Feature", "id": "5aHFD3FfB1qAnVdkMdJvh6ciae0=", "properties": {"ref": "0403", "@spider": "dillards", "shop": "department_store", "addr:street_address": "4201 N Shiloh Dr", "addr:city": "Fayetteville", "addr:state": "AR", "addr:postcode": "72703", "name": "Dillard's Northwest Arkansas Mall in Fayetteville, Arkansas", "phone": "(479)521-7171", "website": "https://www.dillards.com/stores/arkansas/northwest-arkansas-mall-fayetteville/0403", "opening_hours": "Mo-Sa 11:00-20:00; Su 12:00-18:00", "brand": "Dillard's", "brand:wikidata": "Q844805", "nsi_id": "dillards-592fe0"}, "geometry": {"type": "Point", "coordinates": [-94.14671, 36.12895]}},
{"type": "Feature", "id": "24vy5ws_c-XeLcIhAJMZ-1n2mz8=", "properties": {"ref": "0407", "@spider": "dillards", "shop": "department_store", "addr:street_address": "3929 McCain Blvd", "addr:city": "North Little Rock", "addr:state": "AR", "addr:postcode": "72116", "name": "Dillard's Mccain Mall in North Little Rock, Arkansas", "phone": "(501)771-4100", "website": "https://www.dillards.com/stores/arkansas/mccain-mall-north-little-rock/0407", "opening_hours": "Mo-Sa 11:00-20:00; Su 12:00-18:00", "brand": "Dillard's", "brand:wikidata": "Q844805", "nsi_id": "dillards-592fe0"}, "geometry": {"type": "Point", "coordinates": [-92.22578, 34.79146]}},
{"type": "Feature", "id": "dOkd1ShYK6Po612WA2Ez6sU-ua8=", "properties": {"ref": "0405", "@spider": "dillards", "shop": "department_store", "addr:street_address": "6000 W Markham St", "addr:city": "Little Rock", "addr:state": "AR", "addr:postcode": "72205", "name": "Dillard's Park Plaza Center in Little Rock, Arkansas", "phone": "(501)661-0053", "website": "https://www.dillards.com/stores/arkansas/park-plaza-center-little-rock/0405", "opening_hours": "Mo-Sa 11:00-20:00; Su 12:00-18:00", "brand": "Dillard's", "brand:wikidata": "Q844805", "nsi_id": "dillards-592fe0"}, "geometry": {"type": "Point", "coordinates": [-92.34208, 34.753]}},
{"type": "Feature", "id": "GsmRwT_wJ02uyIPjXQo5igWVGVc=", "properties": {"ref": "0529", "@spider": "dillards", "shop": "department_store", "addr:street_address": "2901 Pines Mall Dr", "addr:city": "Pine Bluff", "addr:state": "AR", "addr:postcode": "71601", "name": "Dillard's The Pines Mall in Pine Bluff, Arkansas", "phone": "(870)535-0433", "website": "https://www.dillards.com/stores/arkansas/the-pines-mall-pine-bluff/0529", "opening_hours": "Tu-Sa 12:00-19:00; Su 12:00-18:00", "brand": "Dillard's", "brand:wikidata": "Q844805", "nsi_id": "dillards-592fe0"}, "geometry": {"type": "Point", "coordinates": [-91.97001, 34.2104]}},
{"type": "Feature", "id": "eyctqQ024_6oqDAmBd4C33CbNKY=", "properties": {"ref": "0915", "@spider": "dillards", "shop": "department_store", "addr:street_address": "4550 N Oracle Rd", "addr:city": "Tucson", "addr:state": "AZ", "addr:postcode": "85705", "name": "Dillard's Tucson Mall in Tucson, Arizona", "phone": "(520)293-4550", "website": "https://www.dillards.com/stores/arizona/tucson-mall-tucson/0915", "opening_hours": "Mo-Sa 11:00-20:00; Su 12:00-18:00", "brand": "Dillard's", "brand:wikidata": "Q844805", "nsi_id": "dillards-592fe0"}, "geometry": {"type": "Point", "coordinates": [-110.97548, 32.29011]}},
{"type": "Feature", "id": "pMMncMXCPpeWQvmnnjPt0HnUi8c=", "properties": {"ref": "0914", "@spider": "dillards", "shop": "department_store", "addr:street_address": "5890 E Broadway Blvd", "addr:city": "Tucson", "addr:state": "AZ", "addr:postcode": "85711", "name": "Dillard's Park Place in Tucson, Arizona", "phone": "(520)747-4700", "website": "https://www.dillards.com/stores/arizona/park-place-tucson/0914", "opening_hours": "Mo-Sa 11:00-20:00; Su 12:00-18:00", "brand": "Dillard's", "brand:wikidata": "Q844805", "nsi_id": "dillards-592fe0"}, "geometry": {"type": "Point", "coordinates": [-110.8646, 32.21793]}},
{"type": "Feature", "id": "sCQjIeotsJbQncZUVaULQHsZzzg=", "properties": {"ref": "0918", "@spider": "dillards", "shop": "department_store", "addr:street_address": "1461 Yuma Palms Pkwy", "addr:city": "Yuma", "addr:state": "AZ", "addr:postcode": "85365", "name": "Dillard's Yuma Palms Regional Center in Yuma, Arizona", "phone": "(928)329-4722", "website": "https://www.dillards.com/stores/arizona/yuma-palms-regional-center-yuma/0918", "opening_hours": "Mo-Sa 11:00-20:00; Su 12:00-18:00", "brand": "Dillard's", "brand:wikidata": "Q844805", "nsi_id": "dillards-592fe0"}, "geometry": {"type": "Point", "coordinates": [-114.60166, 32.70065]}},
{"type": "Feature", "id": "ZUT5g1AXIlMtE1P0N8nCdP7VlzM=", "properties": {"ref": "0919", "@spider": "dillards", "shop": "department_store", "addr:street_address": "3800 El Mercado Loop", "addr:city": "Sierra Vista", "addr:state": "AZ", "addr:postcode": "85635", "name": "Dillard's The Mall At Sierra Vista in Sierra Vista, Arizona", "phone": "(520)515-0151", "website": "https://www.dillards.com/stores/arizona/the-mall-at-sierra-vista-sierra-vista/0919", "opening_hours": "Mo-Sa 11:00-20:00; Su 12:00-18:00", "brand": "Dillard's", "brand:wikidata": "Q844805", "nsi_id": "dillards-592fe0"}, "geometry": {"type": "Point", "coordinates": [-110.2598, 31.53113]}},
{"type": "Feature", "id": "WOWeJLQEUNM7DEJl-Sx9PH_Syjo=", "properties": {"ref": "0911", "@spider": "dillards", "shop": "department_store", "addr:street_address": "3100 Gateway Blvd", "addr:city": "Prescott", "addr:state": "AZ", "addr:postcode": "86303", "name": "Dillard's Prescott Gateway Mall in Prescott, Arizona", "phone": "(928)717-1270", "website": "https://www.dillards.com/stores/arizona/prescott-gateway-mall-prescott/0911", "opening_hours": "Mo-Sa 11:00-20:00; Su 12:00-18:00", "brand": "Dillard's", "brand:wikidata": "Q844805", "nsi_id": "dillards-592fe0"}, "geometry": {"type": "Point", "coordinates": [-112.4106, 34.54973]}},
{"type": "Feature", "id": "x49TqyCb-7e9ysFlAIm3t4ciasw=", "properties": {"ref": "0912", "@spider": "dillards", "shop": "department_store", "addr:street_address": "5501 AZ-95", "addr:city": "Lake Havasu City", "addr:state": "AZ", "addr:postcode": "86404", "name": "Dillard's The Shops At Lake Havasu in Lake Havasu City, Arizona", "phone": "(928)764-1200", "website": "https://www.dillards.com/stores/arizona/the-shops-at-lake-havasu-lake-havasu-city/0912", "opening_hours": "Mo-Sa 11:00-20:00; Su 12:00-18:00", "brand": "Dillard's", "brand:wikidata": "Q844805", "nsi_id": "dillards-592fe0"}, "geometry": {"type": "Point", "coordinates": [-114.35385, 34.54345]}},
{"type": "Feature", "id": "q33-qTLGt7rbNAzrtXjuEaYc16E=", "properties": {"ref": "0916", "@spider": "dillards", "shop": "department_store", "addr:street_address": "4700 US Highway 89 North", "addr:city": "Flagstaff", "addr:state": "AZ", "addr:postcode": "86004", "name": "Dillard's Flagstaff Mall in Flagstaff, Arizona", "phone": "(928)526-5541", "website": "https://www.dillards.com/stores/arizona/flagstaff-mall-flagstaff/0916", "opening_hours": "Mo-Sa 11:00-20:00; Su 12:00-18:00", "brand": "Dillard's", "brand:wikidata": "Q844805", "nsi_id": "dillards-592fe0"}, "geometry": {"type": "Point", "coordinates": [-111.58, 35.22275]}},
{"type": "Feature", "id": "KxiAolZOWWXY__g-EKn6VX5dsQ0=", "properties": {"ref": "0501", "@spider": "dillards", "shop": "department_store", "addr:street_address": "7621 W Thomas Rd", "addr:city": "Phoenix", "addr:state": "AZ", "addr:postcode": "85033", "name": "Dillard's Desert Sky Mall in Phoenix, Arizona", "phone": "(623)849-0100", "website": "https://www.dillards.com/stores/arizona/desert-sky-mall-phoenix/0501", "opening_hours": "Tu-Sa 12:00-19:00; Su 12:00-18:00", "brand": "Dillard's", "brand:wikidata": "Q844805", "nsi_id": "dillards-592fe0"}, "geometry": {"type": "Point", "coordinates": [-112.2244, 33.47796]}},
{"type": "Feature", "id": "fNgmcnVXBPwvR_KtyDuam6twW08=", "properties": {"ref": "0902", "@spider": "dillards", "shop": "department_store", "addr:street_address": "6900 E Camelback Rd", "addr:city": "Scottsdale", "addr:state": "AZ", "addr:postcode": "85251", "name": "Dillard's Scottsdale Fashion Square in Scottsdale, Arizona", "phone": "(480)949-5869", "website": "https://www.dillards.com/stores/arizona/scottsdale-fashion-square-scottsdale/0902", "opening_hours": "Mo-Sa 11:00-20:00; Su 12:00-18:00", "brand": "Dillard's", "brand:wikidata": "Q844805", "nsi_id": "dillards-592fe0"}, "geometry": {"type": "Point", "coordinates": [-111.9336, 33.50366]}},
{"type": "Feature", "id": "Gppso_ZM1TZtOamZH2tbVsAvavw=", "properties": {"ref": "0909", "@spider": "dillards", "shop": "department_store", "addr:street_address": "6545 E Southern Ave", "addr:city": "Mesa", "addr:state": "AZ", "addr:postcode": "85206", "name": "Dillard's Superstition Springs Center in Mesa, Arizona", "phone": "(480)832-1247", "website": "https://www.dillards.com/stores/arizona/superstition-springs-center-mesa/0909", "opening_hours": "Mo-Sa 11:00-20:00; Su 12:00-18:00", "brand": "Dillard's", "brand:wikidata": "Q844805", "nsi_id": "dillards-592fe0"}, "geometry": {"type": "Point", "coordinates": [-111.6876, 33.38995]}},
{"type": "Feature", "id": "EH8m0RWfOSCan9EeleWo7Fe7NAI=", "properties": {"ref": "0907", "@spider": "dillards", "shop": "department_store", "addr:street_address": "7800 W Arrowhead Towne Center", "addr:city": "Glendale", "addr:state": "AZ", "addr:postcode": "85308", "name": "Dillard's Arrowhead Towne Center in Glendale, Arizona", "phone": "(623)979-1128", "website": "https://www.dillards.com/stores/arizona/arrowhead-towne-center-glendale/0907", "opening_hours": "Mo-Sa 11:00-20:00; Su 12:00-18:00", "brand": "Dillard's", "brand:wikidata": "Q844805", "nsi_id": "dillards-592fe0"}, "geometry": {"type": "Point", "coordinates": [-112.2288, 33.6422]}},
{"type": "Feature", "id": "ARFtx0ON1XkTOkQfMBZQsrSfn34=", "properties": {"ref": "0910", "@spider": "dillards", "shop": "department_store", "addr:street_address": "2151 S Santan Village Pkwy", "addr:city": "Gilbert", "addr:state": "AZ", "addr:postcode": "85296", "name": "Dillard's Santan Village in Gilbert, Arizona", "phone": "(480)726-1512", "website": "https://www.dillards.com/stores/arizona/santan-village-gilbert/0910", "opening_hours": "Mo-Sa 11:00-20:00; Su 12:00-18:00", "brand": "Dillard's", "brand:wikidata": "Q844805", "nsi_id": "dillards-592fe0"}, "geometry": {"type": "Point", "coordinates": [-111.7399, 33.3068]}},
{"type": "Feature", "id": "4VZK9fUs9vTQsNzy_NumFpI8s7M=", "properties": {"ref": "0908", "@spider": "dillards", "shop": "department_store", "addr:street_address": "3101 W Chandler Blvd", "addr:city": "Chandler", "addr:state": "AZ", "addr:postcode": "85226", "name": "Dillard's Chandler Fashion Center in Chandler, Arizona", "phone": "(480)735-2060", "website": "https://www.dillards.com/stores/arizona/chandler-fashion-center-chandler/0908", "opening_hours": "Mo-Sa 11:00-20:00; Su 12:00-18:00", "brand": "Dillard's", "brand:wikidata": "Q844805", "nsi_id": "dillards-592fe0"}, "geometry": {"type": "Point", "coordinates": [-111.89655, 33.30251]}},
{"type": "Feature", "id": "5gQ4XCvOtOY66Vj3GuXct-BkR34=", "properties": {"ref": "0502", "@spider": "dillards", "shop": "department_store", "addr:street_address": "10002 N Metro Pkwy E", "addr:city": "Phoenix", "addr:state": "AZ", "addr:postcode": "85051", "name": "Dillard's Metrocenter in Phoenix, Arizona", "phone": "(602)861-2241", "website": "https://www.dillards.com/stores/arizona/metrocenter-phoenix/0502", "opening_hours": "Tu-Sa 12:00-19:00; Su 12:00-18:00", "brand": "Dillard's", "brand:wikidata": "Q844805", "nsi_id": "dillards-592fe0"}, "geometry": {"type": "Point", "coordinates": [-112.1204, 33.57635]}},
{"type": "Feature", "id": "QGJmk_2NEnidfVg9ejCcKDqlrXs=", "properties": {"ref": "0505", "@spider": "dillards", "shop": "department_store", "addr:street_address": "1117 N Promenade Pkwy", "addr:city": "Casa Grande", "addr:state": "AZ", "addr:postcode": "85194", "name": "Dillard's Promenade At Casa Grande in Casa Grande, Arizona", "phone": "(520)421-1141", "website": "https://www.dillards.com/stores/arizona/promenade-at-casa-grande-casa-grande/0505", "opening_hours": "Tu-Sa 12:00-19:00; Su 12:00-18:00", "brand": "Dillard's", "brand:wikidata": "Q844805", "nsi_id": "dillards-592fe0"}, "geometry": {"type": "Point", "coordinates": [-111.68565, 32.8846]}},
{"type": "Feature", "id": "FmGifVSB7iaw20U016JS0yhqgs4=", "properties": {"ref": "0416", "@spider": "dillards", "shop": "department_store", "addr:street_address": "700 S Quintard Ave", "addr:city": "Oxford", "addr:state": "AL", "addr:postcode": "36203", "name": "Dillard's Quintard Mall in Oxford, Alabama", "phone": "(256)835-2819", "website": "https://www.dillards.com/stores/alabama/quintard-mall-oxford/0416", "opening_hours": "Mo-Sa 11:00-20:00; Su 12:00-18:00", "brand": "Dillard's", "brand:wikidata": "Q844805", "nsi_id": "dillards-592fe0"}, "geometry": {"type": "Point", "coordinates": [-85.82226, 33.6138]}},
{"type": "Feature", "id": "rR44SZUBA5VwVgQevsLgqoBaqWw=", "properties": {"ref": "0418", "@spider": "dillards", "shop": "department_store", "addr:street_address": "7310 Eastchase Pkwy", "addr:city": "Montgomery", "addr:state": "AL", "addr:postcode": "36117", "name": "Dillard's The Shoppes At Eastchase in Montgomery, Alabama", "phone": "(334)244-6442", "website": "https://www.dillards.com/stores/alabama/the-shoppes-at-eastchase-montgomery/0418", "opening_hours": "Mo-Sa 11:00-20:00; Su 12:00-18:00", "brand": "Dillard's", "brand:wikidata": "Q844805", "nsi_id": "dillards-592fe0"}, "geometry": {"type": "Point", "coordinates": [-86.16498, 32.35803]}},
{"type": "Feature", "id": "i22VALOvjb4ZL_zQBo1CBvBJxvo=", "properties": {"ref": "0460", "@spider": "dillards", "shop": "department_store", "addr:street_address": "2801 Memorial Pkwy SW", "addr:city": "Huntsville", "addr:state": "AL", "addr:postcode": "35801", "name": "Dillard's Parkway Place in Huntsville, Alabama", "phone": "(256)551-0179", "website": "https://www.dillards.com/stores/alabama/parkway-place-huntsville/0460", "opening_hours": "Mo-Sa 11:00-20:00; Su 12:00-18:00", "brand": "Dillard's", "brand:wikidata": "Q844805", "nsi_id": "dillards-592fe0"}, "geometry": {"type": "Point", "coordinates": [-86.58635, 34.70561]}},
{"type": "Feature", "id": "dngphRVqTtk7iCqmhlw-OrBVsko=", "properties": {"ref": "0453", "@spider": "dillards", "shop": "department_store", "addr:street_address": "301 Cox Creek Pkwy Ste #1100", "addr:city": "Florence", "addr:state": "AL", "addr:postcode": "35630", "name": "Dillard's Florence Mall in Florence, Alabama", "phone": "(256)766-8200", "website": "https://www.dillards.com/stores/alabama/florence-mall-florence/0453", "opening_hours": "Mo-Sa 11:00-20:00; Su 12:00-18:00", "brand": "Dillard's", "brand:wikidata": "Q844805", "nsi_id": "dillards-592fe0"}, "geometry": {"type": "Point", "coordinates": [-87.63636, 34.83615]}},
{"type": "Feature", "id": "u_w5pcWZ_bldbG4ZNWIsO4VgR2A=", "properties": {"ref": "0274", "@spider": "dillards", "shop": "department_store", "addr:street_address": "900 Commons Dr #100", "addr:city": "Dothan", "addr:state": "AL", "addr:postcode": "36303", "name": "Dillard's Wiregrass Commons Mall in Dothan, Alabama", "phone": "(334)794-3300", "website": "https://www.dillards.com/stores/alabama/wiregrass-commons-mall-dothan/0274", "opening_hours": "Mo-Sa 11:00-20:00; Su 12:00-18:00", "brand": "Dillard's", "brand:wikidata": "Q844805", "nsi_id": "dillards-592fe0"}, "geometry": {"type": "Point", "coordinates": [-85.42456, 31.25213]}},
{"type": "Feature", "id": "f-xB4t0eYMuHwSVvyccjK9AAw8o=", "properties": {"ref": "0417", "@spider": "dillards", "shop": "department_store", "addr:street_address": "1627 Opelika Rd #16", "addr:city": "Auburn", "addr:state": "AL", "addr:postcode": "36830", "name": "Dillard's Auburn Mall in Auburn, Alabama", "phone": "(334)821-3900", "website": "https://www.dillards.com/stores/alabama/auburn-mall-auburn/0417", "opening_hours": "Mo-Sa 11:00-20:00; Su 12:00-18:00", "brand": "Dillard's", "brand:wikidata": "Q844805", "nsi_id": "dillards-592fe0"}, "geometry": {"type": "Point", "coordinates": [-85.44593, 32.62621]}},
{"type": "Feature", "id": "_PrQzBoypxhYMLL_a2eJsnO32RU=", "properties": {"ref": "0239", "@spider": "dillards", "shop": "department_store", "addr:street_address": "10101 Eastern Shore Blvd", "addr:city": "Spanish Fort", "addr:state": "AL", "addr:postcode": "36527", "name": "Dillard's Eastern Shore Centre in Spanish Fort, Alabama", "phone": "(251)621-2257", "website": "https://www.dillards.com/stores/alabama/eastern-shore-centre-spanish-fort/0239", "opening_hours": "Mo-Sa 11:00-20:00; Su 12:00-18:00", "brand": "Dillard's", "brand:wikidata": "Q844805", "nsi_id": "dillards-592fe0"}, "geometry": {"type": "Point", "coordinates": [-87.85045, 30.6669]}},
{"type": "Feature", "id": "P48q1iRONsATECYxoCR0xwWjyr4=", "properties": {"ref": "0241", "@spider": "dillards", "shop": "department_store", "addr:street_address": "3300 Joe Treadwell Dr", "addr:city": "Mobile", "addr:state": "AL", "addr:postcode": "36606", "name": "Dillard's Shoppes At Bel Air in Mobile, Alabama", "phone": "(251)471-1551", "website": "https://www.dillards.com/stores/alabama/shoppes-at-bel-air-mobile/0241", "opening_hours": "Mo-Sa 11:00-20:00; Su 12:00-18:00", "brand": "Dillard's", "brand:wikidata": "Q844805", "nsi_id": "dillards-592fe0"}, "geometry": {"type": "Point", "coordinates": [-88.12386, 30.67458]}},
{"type": "Feature", "id": "2lDqHYc-p1fc7FjiNvNN2AdeHQE=", "properties": {"ref": "0514", "@spider": "dillards", "shop": "department_store", "addr:street_address": "3000 Eastdale Mall", "addr:city": "Montgomery", "addr:state": "AL", "addr:postcode": "36117", "name": "Dillard's Eastdale Mall in Montgomery, Alabama", "phone": "(334)277-7200", "website": "https://www.dillards.com/stores/alabama/eastdale-mall-montgomery/0514", "opening_hours": "Tu-Sa 12:00-19:00; Su 12:00-18:00", "brand": "Dillard's", "brand:wikidata": "Q844805", "nsi_id": "dillards-592fe0"}, "geometry": {"type": "Point", "coordinates": [-86.20426, 32.38441]}}]}