{"type":"FeatureCollection","features":[{"type": "Feature", "id": "6lJCllJ-HupodEl9DbRvqx45GV4=", "properties": {"ref": "516 STILLWATER AVE, BANGOR, ME 04401", "@spider": "dish", "addr:full": "516 STILLWATER AVE, BANGOR, ME 04401", "name": "GENES ELECTRONICS INC", "brand": "Dish", "brand:wikidata": "Q1199757"}, "geometry": {"type": "Point", "coordinates": [-68.755289, 44.829117]}},
{"type": "Feature", "id": "LifwTmmCs1zfIWo7aWJvprNxA6g=", "properties": {"ref": "33 LUDLOW RD, HOULTON, ME 04730", "@spider": "dish", "addr:full": "33 LUDLOW RD, HOULTON, ME 04730", "name": "GENE'S ELECTRONICS INC", "brand": "Dish", "brand:wikidata": "Q1199757"}, "geometry": {"type": "Point", "coordinates": [-67.8453708, 46.1421882]}},
{"type": "Feature", "id": "PIG24yaUkSZm_Xu4cVQyhrmcbLU=", "properties": {"ref": "76 PARSONS ST, PRESQUE ISLE , ME 04769", "@spider": "dish", "addr:full": "76 PARSONS ST, PRESQUE ISLE , ME 04769", "name": "GENE'S ELECTRONICS INC", "brand": "Dish", "brand:wikidata": "Q1199757"}, "geometry": {"type": "Point", "coordinates": [-68.0197657, 46.6925965]}},
{"type": "Feature", "id": "lXtaxWC0Uurd-RdMc2ekRZhw-HM=", "properties": {"ref": "631 MAIN ST STE 3, PRESQUE ISLE, ME 04769", "@spider": "dish", "addr:full": "631 MAIN ST STE 3, PRESQUE ISLE, ME 04769", "name": "GENES ELECTRONICS INC", "brand": "Dish", "brand:wikidata": "Q1199757"}},
{"type": "Feature", "id": "PW52nzztQoiRCkmUkELt1BX5keo=", "properties": {"ref": "62 W MAIN ST STE 102, FORT KENT, ME 04743", "@spider": "dish", "addr:full": "62 W MAIN ST STE 102, FORT KENT, ME 04743", "name": "GENE'S ELECTRONICS INC", "brand": "Dish", "brand:wikidata": "Q1199757"}, "geometry": {"type": "Point", "coordinates": [-68.5940699, 47.2496703]}},
{"type": "Feature", "id": "9Td35y746kwzOC9OtwKtAdLPJwo=", "properties": {"ref": "22 MAIN ST, RAVENA, NY 12143", "@spider": "dish", "addr:full": "22 MAIN ST, RAVENA, NY 12143", "name": "HI TECH ADVISERS", "brand": "Dish", "brand:wikidata": "Q1199757"}, "geometry": {"type": "Point", "coordinates": [-73.802161, 42.472865]}},
{"type": "Feature", "id": "1571esLStmCYUVQfaH_y938Hvv4=", "properties": {"ref": "2 N MAIN ST, SHERBURNE, NY 13460", "@spider": "dish", "addr:full": "2 N MAIN ST, SHERBURNE, NY 13460", "name": "EMPIRE WIRELESS LLC", "brand": "Dish", "brand:wikidata": "Q1199757"}, "geometry": {"type": "Point", "coordinates": [-75.4993256, 42.6784458]}},
{"type": "Feature", "id": "Okj3833Mr-Sm3ZJLXaRtcoq_lh8=", "properties": {"ref": "3402 RTE 220 HWY, HUGHESVILLE, PA 17737", "@spider": "dish", "addr:full": "3402 RTE 220 HWY, HUGHESVILLE, PA 17737", "name": "HANS CEDARDALE SATELLITE CO", "brand": "Dish", "brand:wikidata": "Q1199757"}, "geometry": {"type": "Point", "coordinates": [-76.7482862, 41.2505363]}},
{"type": "Feature", "id": "2PxJ0tnko5abf0HQ01QEqfuDZSM=", "properties": {"ref": "355 W MAIN ST, BATAVIA, NY 14569", "@spider": "dish", "addr:full": "355 W MAIN ST, BATAVIA, NY 14569", "name": "TRINSTAR SATELLITES", "brand": "Dish", "brand:wikidata": "Q1199757"}, "geometry": {"type": "Point", "coordinates": [-78.1270895, 42.7643924]}},
{"type": "Feature", "id": "I4JM-azIxj1sOa28eragUIXp7qI=", "properties": {"ref": "57 MAIN ST, MADISON, ME 04950", "@spider": "dish", "addr:full": "57 MAIN ST, MADISON, ME 04950", "name": "K TRONICS", "brand": "Dish", "brand:wikidata": "Q1199757"}, "geometry": {"type": "Point", "coordinates": [-69.8686097, 44.7980725]}},
{"type": "Feature", "id": "kJlSGcTmAj8JawD9t8IRAJM_pvk=", "properties": {"ref": "267 WHITTEN RD, HALLOWELL, ME 04347", "@spider": "dish", "addr:full": "267 WHITTEN RD, HALLOWELL, ME 04347", "name": "S&C SATELLITE ENTERTAINMENT", "brand": "Dish", "brand:wikidata": "Q1199757"}, "geometry": {"type": "Point", "coordinates": [-69.8095292, 44.2996173]}},
{"type": "Feature", "id": "CHPabxdJ_cKrxvGv0DM2zZPPijQ=", "properties": {"ref": "2047 MEMORIAL DR, SAINT JOHNSBURY, VT 05819", "@spider": "dish", "addr:full": "2047 MEMORIAL DR, SAINT JOHNSBURY, VT 05819", "name": "O C SATELLITE INC", "brand": "Dish", "brand:wikidata": "Q1199757"}, "geometry": {"type": "Point", "coordinates": [-72.0152802, 44.4621377]}},
{"type": "Feature", "id": "xI8YCYc2ZJ5wISKVcIt0Lr3D_og=", "properties": {"ref": "5 NORTHERN BLVD UNIT 4, AMHERST, NH 03031", "@spider": "dish", "addr:full": "5 NORTHERN BLVD UNIT 4, AMHERST, NH 03031", "name": "DISH GUYS LLC", "brand": "Dish", "brand:wikidata": "Q1199757"}, "geometry": {"type": "Point", "coordinates": [-73.629636, 40.8093812]}},
{"type": "Feature", "id": "vL4jDrf697V5wX6rUiG0TypZPyY=", "properties": {"ref": "46 SWIFT ST, SOUTH BURLINGTON, VT 05403", "@spider": "dish", "addr:full": "46 SWIFT ST, SOUTH BURLINGTON, VT 05403", "name": "SEAN B MCGARRY DBA SATELLITE ONE LLC", "brand": "Dish", "brand:wikidata": "Q1199757"}, "geometry": {"type": "Point", "coordinates": [-73.207372, 44.446537]}},
{"type": "Feature", "id": "C6k40x89z5sZGb8wzhCFt5Uc5Vg=", "properties": {"ref": "693 STATE RT 122, CONSTABLE, NY 12926", "@spider": "dish", "addr:full": "693 STATE RT 122, CONSTABLE, NY 12926", "name": "PINE VIEW ELECTRONICS", "brand": "Dish", "brand:wikidata": "Q1199757"}, "geometry": {"type": "Point", "coordinates": [-74.3406755, 44.9265702]}},
{"type": "Feature", "id": "RytBfNDtG68O8YgKwZryWDIag98=", "properties": {"ref": "1261 E MAIN ST, MERIDEN, CT 06450", "@spider": "dish", "addr:full": "1261 E MAIN ST, MERIDEN, CT 06450", "name": "ANTENNA STAR SATELLITE INC", "brand": "Dish", "brand:wikidata": "Q1199757"}, "geometry": {"type": "Point", "coordinates": [-72.7608659, 41.5254911]}},
{"type": "Feature", "id": "oTSikZc2oiv9GXSbswMZQGwKs00=", "properties": {"ref": "379 S MAIN ST, WILKES BARRE, PA 18701", "@spider": "dish", "addr:full": "379 S MAIN ST, WILKES BARRE, PA 18701", "name": "ANTENNA STAR SATELLITE INC", "brand": "Dish", "brand:wikidata": "Q1199757"}, "geometry": {"type": "Point", "coordinates": [-75.8950121, 41.2395306]}},
{"type": "Feature", "id": "FFL_LVzrYJLTEKEJHVrkcSed_nM=", "properties": {"ref": "6790 MARKET ST, UPPER DARBY, PA 19082", "@spider": "dish", "addr:full": "6790 MARKET ST, UPPER DARBY, PA 19082", "name": "ANTENNA STAR SATELLITE INC", "brand": "Dish", "brand:wikidata": "Q1199757"}, "geometry": {"type": "Point", "coordinates": [-75.2568159, 39.9617981]}},
{"type": "Feature", "id": "-iuJOHY6UTTlwExZ5UaEYE-gxsA=", "properties": {"ref": "6523 S TRANSIT RD, LOCKPORT, NY 14094", "@spider": "dish", "addr:full": "6523 S TRANSIT RD, LOCKPORT, NY 14094", "name": "INTERTECH DIGITAL", "brand": "Dish", "brand:wikidata": "Q1199757"}, "geometry": {"type": "Point", "coordinates": [-78.696224, 43.111975]}},
{"type": "Feature", "id": "1HYPpRXVnkkcGa4dEMPAYGoXz9Y=", "properties": {"ref": "224 WILL WALKER LN, COLUMBIA, KY 42728", "@spider": "dish", "addr:full": "224 WILL WALKER LN, COLUMBIA, KY 42728", "name": "SATELLITE SOLUTIONS LLC", "brand": "Dish", "brand:wikidata": "Q1199757"}, "geometry": {"type": "Point", "coordinates": [-85.3366545, 37.0784923]}},
{"type": "Feature", "id": "tTuL8N4NxPmUwgJ8uo0unlGvLfk=", "properties": {"ref": "112 PIKE ALY, JAMESTOWN, KY 42629", "@spider": "dish", "addr:full": "112 PIKE ALY, JAMESTOWN, KY 42629", "name": "AMERICAN CABLE INC", "brand": "Dish", "brand:wikidata": "Q1199757"}, "geometry": {"type": "Point", "coordinates": [-85.0631828, 36.9862903]}},
{"type": "Feature", "id": "fa68UW3GwetCd-Glm-N2oR7ahJI=", "properties": {"ref": "728 S JEFFERSON AVE UNIT 9, COOKEVILLE, TN 38501", "@spider": "dish", "addr:full": "728 S JEFFERSON AVE UNIT 9, COOKEVILLE, TN 38501", "name": "DAVID BENJAMIN", "brand": "Dish", "brand:wikidata": "Q1199757"}, "geometry": {"type": "Point", "coordinates": [-85.5001034, 36.1452701]}},
{"type": "Feature", "id": "ZlDzxM6kKy0h1IfsvUyg88FZ5_s=", "properties": {"ref": "921 S WILLOW AVE, COOKEVILLE, TN 38501", "@spider": "dish", "addr:full": "921 S WILLOW AVE, COOKEVILLE, TN 38501", "name": "TECHNOLOGY STORE", "brand": "Dish", "brand:wikidata": "Q1199757"}, "geometry": {"type": "Point", "coordinates": [-85.5248923, 36.1438251]}},
{"type": "Feature", "id": "pYKtgdA0Ifa41Ib19TON_YEl9sQ=", "properties": {"ref": "3304 5TH ST, BEDFORD, IN 47421", "@spider": "dish", "addr:full": "3304 5TH ST, BEDFORD, IN 47421", "name": "DISH MASTERS", "brand": "Dish", "brand:wikidata": "Q1199757"}, "geometry": {"type": "Point", "coordinates": [-86.5168188, 38.8729108]}},
{"type": "Feature", "id": "bgPo-_9pxT0prmjJMMq-pgKDZrY=", "properties": {"ref": "1495 COMBS RD UNIT 104, HAZARD, KY 41701", "@spider": "dish", "addr:full": "1495 COMBS RD UNIT 104, HAZARD, KY 41701", "name": "SATELLITE SHOP LLC", "brand": "Dish", "brand:wikidata": "Q1199757"}, "geometry": {"type": "Point", "coordinates": [-83.2076243, 37.2865222]}},
{"type": "Feature", "id": "KxGcaM-wldeydGepiJKnv0bmCns=", "properties": {"ref": "121 COOPER ST, LOOGOOTEE, IN 47553", "@spider": "dish", "addr:full": "121 COOPER ST, LOOGOOTEE, IN 47553", "name": "MIDWEST SATELLITE SYSTEMS INC", "brand": "Dish", "brand:wikidata": "Q1199757"}, "geometry": {"type": "Point", "coordinates": [-86.913527, 38.6728933]}},
{"type": "Feature", "id": "LUhJfBJwv751MlKRbESHMqVDnKY=", "properties": {"ref": "402 S STATE RD 57, WASHINGTON, IN 47501", "@spider": "dish", "addr:full": "402 S STATE RD 57, WASHINGTON, IN 47501", "name": "PROCOMM SATELLITE", "brand": "Dish", "brand:wikidata": "Q1199757"}, "geometry": {"type": "Point", "coordinates": [-87.170393, 38.6536709]}},
{"type": "Feature", "id": "XLe6i0loiIdIQeyqwE40TgnMR_Q=", "properties": {"ref": "1192 A ST NE, LINTON, IN 47441", "@spider": "dish", "addr:full": "1192 A ST NE, LINTON, IN 47441", "name": "MIDWEST SATELLITE SYSTEMS INC", "brand": "Dish", "brand:wikidata": "Q1199757"}, "geometry": {"type": "Point", "coordinates": [-87.1523799, 39.0370489]}},
{"type": "Feature", "id": "RtQVAk6nEMGFAUsVknwpP-nx6-o=", "properties": {"ref": "1423 W LAMAR ALEXANDER PKWY, MARYVILLE, TN 37801", "@spider": "dish", "addr:full": "1423 W LAMAR ALEXANDER PKWY, MARYVILLE, TN 37801", "name": "LEDBETTER ELECTRIC", "brand": "Dish", "brand:wikidata": "Q1199757"}, "geometry": {"type": "Point", "coordinates": [-84.0049067, 35.7530738]}},
{"type": "Feature", "id": "gS-KiRIiXHciTQq7lT5jEOYq7lg=", "properties": {"ref": "127 SOUTH LOCUST ST, MORRISTOWN, IN 46161", "@spider": "dish", "addr:full": "127 SOUTH LOCUST ST, MORRISTOWN, IN 46161", "name": "HIGH POWER TECHNICAL SERVICES INC", "brand": "Dish", "brand:wikidata": "Q1199757"}, "geometry": {"type": "Point", "coordinates": [-85.703227, 39.6738762]}},
{"type": "Feature", "id": "LMlu-ZKjd1yDbOAIb7H_lUVuYdE=", "properties": {"ref": "700 S JACKSON ST, TULLAHOMA, TN 37388", "@spider": "dish", "addr:full": "700 S JACKSON ST, TULLAHOMA, TN 37388", "name": "ROBERT T BAKER", "brand": "Dish", "brand:wikidata": "Q1199757"}, "geometry": {"type": "Point", "coordinates": [-86.2053864, 35.3545478]}},
{"type": "Feature", "id": "xltwkp4A1V22av0vaP7xfMPCl5I=", "properties": {"ref": "2830 E WABASH AVE, TERRE HAUTE, IN 47803", "@spider": "dish", "addr:full": "2830 E WABASH AVE, TERRE HAUTE, IN 47803", "name": "DON LORS ELECTRONICS", "brand": "Dish", "brand:wikidata": "Q1199757"}, "geometry": {"type": "Point", "coordinates": [-87.3752382, 39.471781]}},
{"type": "Feature", "id": "EyRI4Q_yvI8O7Ev8SS2XfQBxsOQ=", "properties": {"ref": "3000 E WOOD ST, PARIS, TN 38242", "@spider": "dish", "addr:full": "3000 E WOOD ST, PARIS, TN 38242", "name": "BEASLEY ANTENNA & SATELLITE INC", "brand": "Dish", "brand:wikidata": "Q1199757"}, "geometry": {"type": "Point", "coordinates": [-88.267181, 36.3273971]}},
{"type": "Feature", "id": "r01ImNPzGvlbjwvl9nseCmRbbwg=", "properties": {"ref": "89 TRINITY LANE, RAINSVILLE, AL 35986", "@spider": "dish", "addr:full": "89 TRINITY LANE, RAINSVILLE, AL 35986", "name": "CABLE TIME", "brand": "Dish", "brand:wikidata": "Q1199757"}, "geometry": {"type": "Point", "coordinates": [-85.8407654, 34.5023674]}},
{"type": "Feature", "id": "jtO33LBtM9jwjMCFClaO6AinAUA=", "properties": {"ref": "1558 6TH AVE SE, DECATUR, AL 35601", "@spider": "dish", "addr:full": "1558 6TH AVE SE, DECATUR, AL 35601", "name": "VALLEY SATELLITE & ANTENNA", "brand": "Dish", "brand:wikidata": "Q1199757"}, "geometry": {"type": "Point", "coordinates": [-86.9801675, 34.582898]}},
{"type": "Feature", "id": "--Vdgsxc4ezoXupcXQNGdOs0jAE=", "properties": {"ref": "3540 S DIXIE HWY, LIMA, OH 45804", "@spider": "dish", "addr:full": "3540 S DIXIE HWY, LIMA, OH 45804", "name": "SATELLITE CONNECTIONS INC", "brand": "Dish", "brand:wikidata": "Q1199757"}, "geometry": {"type": "Point", "coordinates": [-84.1286302, 40.688879]}},
{"type": "Feature", "id": "ZDocDFoClM5E1VbhI0HaEfSZPp8=", "properties": {"ref": "901 N MAIN ST, MONTICELLO, IN 47960", "@spider": "dish", "addr:full": "901 N MAIN ST, MONTICELLO, IN 47960", "name": "VENTURE WIRELESS INC", "brand": "Dish", "brand:wikidata": "Q1199757"}, "geometry": {"type": "Point", "coordinates": [-86.764282, 40.7560727]}},
{"type": "Feature", "id": "8J45Yp-TGPjUQvTKCBDyKIAwwgM=", "properties": {"ref": "2010 ROUND BARN RD, CHAMPAIGN, IL 61821", "@spider": "dish", "addr:full": "2010 ROUND BARN RD, CHAMPAIGN, IL 61821", "name": "GOOD VIBES SOUND INC", "brand": "Dish", "brand:wikidata": "Q1199757"}, "geometry": {"type": "Point", "coordinates": [-88.258386, 40.131149]}},
{"type": "Feature", "id": "-XXy0k5J1lIEJ0rGfS7TfH-O3dM=", "properties": {"ref": "414 HWY 43 S, TUSCUMBIA, AL 35674", "@spider": "dish", "addr:full": "414 HWY 43 S, TUSCUMBIA, AL 35674", "name": "SHOALS SATELLITE SLS & SVC INC", "brand": "Dish", "brand:wikidata": "Q1199757"}, "geometry": {"type": "Point", "coordinates": [-88.0707671, 30.8123642]}},
{"type": "Feature", "id": "xYNbHF0fAQ7gfeNsQfrG_BPWIHI=", "properties": {"ref": "1812 POWDER SPRINGS RD STE 2121, MARIETTA, GA 30064", "@spider": "dish", "addr:full": "1812 POWDER SPRINGS RD STE 2121, MARIETTA, GA 30064", "name": "VITAL LINK SATELLITE LLC", "brand": "Dish", "brand:wikidata": "Q1199757"}, "geometry": {"type": "Point", "coordinates": [-84.6067197, 33.9012546]}},
{"type": "Feature", "id": "o6EWeWOYmGIUA7nhT1XG2AEmsrU=", "properties": {"ref": "375 S COLLEGE, RENSSELAER, IN 47978", "@spider": "dish", "addr:full": "375 S COLLEGE, RENSSELAER, IN 47978", "name": "VENTURE WIRELESS INC", "brand": "Dish", "brand:wikidata": "Q1199757"}, "geometry": {"type": "Point", "coordinates": [-87.1558078, 40.9298423]}},
{"type": "Feature", "id": "CIBm8Ao_CyZLM73NT4q3RftFjbM=", "properties": {"ref": "16771 ELKIN HWY 268, ELKIN, NC 28621", "@spider": "dish", "addr:full": "16771 ELKIN HWY 268, ELKIN, NC 28621", "name": "CONNECTION SOLUTIONS LLC", "brand": "Dish", "brand:wikidata": "Q1199757"}, "geometry": {"type": "Point", "coordinates": [-80.8776297, 36.2514241]}},
{"type": "Feature", "id": "UajAitPoQsUchL4vO06ibB7ya58=", "properties": {"ref": "2459 2ND AVE E STE B, ONEONTA, AL 35121", "@spider": "dish", "addr:full": "2459 2ND AVE E STE B, ONEONTA, AL 35121", "name": "DIRECT VISION", "brand": "Dish", "brand:wikidata": "Q1199757"}, "geometry": {"type": "Point", "coordinates": [-86.4489245, 33.9718375]}},
{"type": "Feature", "id": "wZdNIfPhgHm6ha5fdsBLcLtpyEI=", "properties": {"ref": "4003 PARK AVE W, MANSFIELD, OH 44903", "@spider": "dish", "addr:full": "4003 PARK AVE W, MANSFIELD, OH 44903", "name": "RICHLAND COUNTY SATELLITE", "brand": "Dish", "brand:wikidata": "Q1199757"}, "geometry": {"type": "Point", "coordinates": [-82.658726, 40.7633718]}},
{"type": "Feature", "id": "st8JCa5rSoqmIIHmoBiC-2ozOU0=", "properties": {"ref": "522 FAIRVIEW BLVD, KENDALLVILLE, IN 46755", "@spider": "dish", "addr:full": "522 FAIRVIEW BLVD, KENDALLVILLE, IN 46755", "name": "FIRST SOURCE MARKETING", "brand": "Dish", "brand:wikidata": "Q1199757"}, "geometry": {"type": "Point", "coordinates": [-85.214309, 41.443747]}},
{"type": "Feature", "id": "MQd_rPrt8U4t_CWFagVs0et6sfk=", "properties": {"ref": "3 17TH ST S, PELL CITY, AL 35125", "@spider": "dish", "addr:full": "3 17TH ST S, PELL CITY, AL 35125", "name": "CABLETOWN INC", "brand": "Dish", "brand:wikidata": "Q1199757"}, "geometry": {"type": "Point", "coordinates": [-86.2881203, 33.585251]}},
{"type": "Feature", "id": "Qq9dqaDNVKBOW1FURcvvO-_nsVo=", "properties": {"ref": "374 FESTUS CENTRE DR, FESTUS, MO 63028", "@spider": "dish", "addr:full": "374 FESTUS CENTRE DR, FESTUS, MO 63028", "name": "FREY COMMUNICATIONS INC", "brand": "Dish", "brand:wikidata": "Q1199757"}, "geometry": {"type": "Point", "coordinates": [-90.3941858, 38.2122639]}},
{"type": "Feature", "id": "yeon6zwC7JxmI4d989XnSddfEW8=", "properties": {"ref": "11866 DORSETT AVE, MARYLAND HEIGHTS, MO 63043", "@spider": "dish", "addr:full": "11866 DORSETT AVE, MARYLAND HEIGHTS, MO 63043", "name": "DON LORS ELECTRONICS", "brand": "Dish", "brand:wikidata": "Q1199757"}, "geometry": {"type": "Point", "coordinates": [-90.433916, 38.713856]}},
{"type": "Feature", "id": "sHSabr1-8WVH0pY3QofLqsZLEzw=", "properties": {"ref": "138 CITATION COURT, BIRMINGHAM, AL 35209", "@spider": "dish", "addr:full": "138 CITATION COURT, BIRMINGHAM, AL 35209", "name": "SATELLITES UNLIMITED INC", "brand": "Dish", "brand:wikidata": "Q1199757"}, "geometry": {"type": "Point", "coordinates": [-86.8469125, 33.4463429]}},
{"type": "Feature", "id": "mmF40C5WJJrJ67hcIFbMY5-ipwA=", "properties": {"ref": "2301 WEST MAIN STE E, TUPELO, MS 38801", "@spider": "dish", "addr:full": "2301 WEST MAIN STE E, TUPELO, MS 38801", "name": "TUPELO SATELLITE", "brand": "Dish", "brand:wikidata": "Q1199757"}},
{"type": "Feature", "id": "DPbGJ5htyO0A68_e_VAM8y3ta9A=", "properties": {"ref": "4042 HIGHWAY 378 W, MCCORMICK, SC 29835", "@spider": "dish", "addr:full": "4042 HIGHWAY 378 W, MCCORMICK, SC 29835", "name": "CABLE AND OTHER THINGS TOO INC", "brand": "Dish", "brand:wikidata": "Q1199757"}, "geometry": {"type": "Point", "coordinates": [-82.2803262, 33.9331526]}},
{"type": "Feature", "id": "rS0nnHbUYM1frORI_gQpWLj1u5I=", "properties": {"ref": "4273 AMERICAN WAY, STE 1, MEMPHIS, TN 38118", "@spider": "dish", "addr:full": "4273 AMERICAN WAY, STE 1, MEMPHIS, TN 38118", "name": "GUSTAVO GRANADA DBA SUMMER WIRELESS", "brand": "Dish", "brand:wikidata": "Q1199757"}, "geometry": {"type": "Point", "coordinates": [-89.9211725, 35.0750106]}},
{"type": "Feature", "id": "p7s5w1jbn2hzgEjd4ehxGMtIPms=", "properties": {"ref": "7711 N GRAND PRAIRIE DR, PEORIA, IL 61615", "@spider": "dish", "addr:full": "7711 N GRAND PRAIRIE DR, PEORIA, IL 61615", "name": "PEORIA SATELLITE CO", "brand": "Dish", "brand:wikidata": "Q1199757"}, "geometry": {"type": "Point", "coordinates": [-89.6763866, 40.7812534]}},
{"type": "Feature", "id": "cTNibHjqQ2OT5FfuY9ERLSNDhqw=", "properties": {"ref": "101 N INDUSTRIAL PARK DR, PITTSFIELD, IL 62363", "@spider": "dish", "addr:full": "101 N INDUSTRIAL PARK DR, PITTSFIELD, IL 62363", "name": "GALAXY 1 MARKETING", "brand": "Dish", "brand:wikidata": "Q1199757"}, "geometry": {"type": "Point", "coordinates": [-90.7885724, 39.6324555]}},
{"type": "Feature", "id": "54NKKlGLV4Y0_Hi5qH538LCcf24=", "properties": {"ref": "25 E FORT ST, FARMINGTON, IL 61531", "@spider": "dish", "addr:full": "25 E FORT ST, FARMINGTON, IL 61531", "name": "PEORIA SATELLITE CO", "brand": "Dish", "brand:wikidata": "Q1199757"}, "geometry": {"type": "Point", "coordinates": [-90.0054717, 40.6983526]}},
{"type": "Feature", "id": "1Nki6w733NeG0DFHW9qf_m6TEZo=", "properties": {"ref": "1012 NORTH WASHINGTON ST, FORREST CITY, AR 72335", "@spider": "dish", "addr:full": "1012 NORTH WASHINGTON ST, FORREST CITY, AR 72335", "name": "EDDIE BEST", "brand": "Dish", "brand:wikidata": "Q1199757"}, "geometry": {"type": "Point", "coordinates": [-90.7868125, 35.0210549]}},
{"type": "Feature", "id": "N3VkqL92xliXrWcUoeGPb51mcDk=", "properties": {"ref": "7550 WALNUT LAKE RD, WEST BLOOMFIELD, MI 48323", "@spider": "dish", "addr:full": "7550 WALNUT LAKE RD, WEST BLOOMFIELD, MI 48323", "name": "DON LORS ELECTRONICS", "brand": "Dish", "brand:wikidata": "Q1199757"}, "geometry": {"type": "Point", "coordinates": [-83.4296794, 42.5557131]}},
{"type": "Feature", "id": "zOhDGBYOYgaf6tODdtBvI20OW0o=", "properties": {"ref": "1507 S 12TH ST, QUINCY, IL 62301", "@spider": "dish", "addr:full": "1507 S 12TH ST, QUINCY, IL 62301", "name": "CELL TECH ELECTRONICS", "brand": "Dish", "brand:wikidata": "Q1199757"}, "geometry": {"type": "Point", "coordinates": [-91.3959802, 39.9128601]}},
{"type": "Feature", "id": "gHBuxLdVgQZeTe1basM9n48xn5s=", "properties": {"ref": "4319 BROADWAY ST, QUINCY, IL 62301", "@spider": "dish", "addr:full": "4319 BROADWAY ST, QUINCY, IL 62301", "name": "CELL TECH ELECTRONICS", "brand": "Dish", "brand:wikidata": "Q1199757"}, "geometry": {"type": "Point", "coordinates": [-91.3462194, 39.9354211]}},
{"type": "Feature", "id": "jg1qQQri9LvSfWYGcQ0IssDHaXU=", "properties": {"ref": "200 ST LOUIS AVE STE B, FULTON, MO 65251", "@spider": "dish", "addr:full": "200 ST LOUIS AVE STE B, FULTON, MO 65251", "name": "SPYDER TECHNOLOGIES INC", "brand": "Dish", "brand:wikidata": "Q1199757"}, "geometry": {"type": "Point", "coordinates": [-91.9460799, 38.8505871]}},
{"type": "Feature", "id": "BfPegvGuEQQNzANiGzpDFHTCVaI=", "properties": {"ref": "6239 N 2ND ST STE B, LOVES PARK, IL 61111", "@spider": "dish", "addr:full": "6239 N 2ND ST STE B, LOVES PARK, IL 61111", "name": "EZSAT & WIRELESS INC", "brand": "Dish", "brand:wikidata": "Q1199757"}, "geometry": {"type": "Point", "coordinates": [-89.0573097, 42.3211257]}},
{"type": "Feature", "id": "RSh3iTDnPHj5tu6-PzrSBED0f10=", "properties": {"ref": "1025 B SOUTHWEST BLVD, JEFFERSON CITY, MO 65109", "@spider": "dish", "addr:full": "1025 B SOUTHWEST BLVD, JEFFERSON CITY, MO 65109", "name": "SPYDER TECHNOLOGIES INC", "brand": "Dish", "brand:wikidata": "Q1199757"}, "geometry": {"type": "Point", "coordinates": [-92.1994796, 38.5716039]}},
{"type": "Feature", "id": "bTbseuTAeeW4NVd12zAizDqoNak=", "properties": {"ref": "81 TV LANE, SLANESVILLE, WV 25444", "@spider": "dish", "addr:full": "81 TV LANE, SLANESVILLE, WV 25444", "name": "DYNAMITE DIGITAL TV LLC", "brand": "Dish", "brand:wikidata": "Q1199757"}, "geometry": {"type": "Point", "coordinates": [-77.9882045, 39.4718754]}},
{"type": "Feature", "id": "qi1ucuKHmMfNV77iPKiK64wocjI=", "properties": {"ref": "1321 WAYNE AVE, INDIANA, PA 15701", "@spider": "dish", "addr:full": "1321 WAYNE AVE, INDIANA, PA 15701", "name": "SEE WORLD SATELLITES INC", "brand": "Dish", "brand:wikidata": "Q1199757"}, "geometry": {"type": "Point", "coordinates": [-79.1616876, 40.599178]}},
{"type": "Feature", "id": "QjvYsW33PiU5AxN64SpGkknFPxY=", "properties": {"ref": "4038 UTICA RIDGE RD, BETTENDORF, IA 52722", "@spider": "dish", "addr:full": "4038 UTICA RIDGE RD, BETTENDORF, IA 52722", "name": "GALAXY 1 MARKETING", "brand": "Dish", "brand:wikidata": "Q1199757"}, "geometry": {"type": "Point", "coordinates": [-90.5183246, 41.5626535]}},
{"type": "Feature", "id": "rfetWOA40ShvRwMaswxBEUwHnxw=", "properties": {"ref": "1414 W LOCUST ST STE 7, DAVENPORT, IA 52804", "@spider": "dish", "addr:full": "1414 W LOCUST ST STE 7, DAVENPORT, IA 52804", "name": "DONE RIGHT SATELLITE LLC", "brand": "Dish", "brand:wikidata": "Q1199757"}, "geometry": {"type": "Point", "coordinates": [-90.5944047, 41.538702]}},
{"type": "Feature", "id": "jELqYDQe2OXkWFwMBt5jD78_QZM=", "properties": {"ref": "1515 N SHENANDOAH AVE, FRONT ROYAL, VA 22630", "@spider": "dish", "addr:full": "1515 N SHENANDOAH AVE, FRONT ROYAL, VA 22630", "name": "VIA SATELLITE INC", "brand": "Dish", "brand:wikidata": "Q1199757"}, "geometry": {"type": "Point", "coordinates": [-78.198878, 38.9366154]}},
{"type": "Feature", "id": "PWA3W0dQEYmHyiodDfkTBjGC9gc=", "properties": {"ref": "40 DIGITAL PLAZA, FRONT ROYAL, VA 22630", "@spider": "dish", "addr:full": "40 DIGITAL PLAZA, FRONT ROYAL, VA 22630", "name": "VIA SATELLITE INC", "brand": "Dish", "brand:wikidata": "Q1199757"}, "geometry": {"type": "Point", "coordinates": [-78.176593, 38.975292]}},
{"type": "Feature", "id": "Lnil2yBLWvXLJYmpGaVb_VP0pdo=", "properties": {"ref": "219 W MONROE ST, MOUNT PLEASANT, IA 52641", "@spider": "dish", "addr:full": "219 W MONROE ST, MOUNT PLEASANT, IA 52641", "name": "HOLADAY SATELLITE", "brand": "Dish", "brand:wikidata": "Q1199757"}, "geometry": {"type": "Point", "coordinates": [-91.5555412, 40.9669242]}},
{"type": "Feature", "id": "J_aNfuEhV9G4aiVF6_aJYB0eowY=", "properties": {"ref": "113 HANCOCK ST, FORT GAINES, GA 39851", "@spider": "dish", "addr:full": "113 HANCOCK ST, FORT GAINES, GA 39851", "name": "CROZIER ELECTRONICS", "brand": "Dish", "brand:wikidata": "Q1199757"}, "geometry": {"type": "Point", "coordinates": [-85.0501948, 31.6058168]}},
{"type": "Feature", "id": "PgWTo3m7TJ2XyFIeXSCSM8L1y0w=", "properties": {"ref": "1497 US 19 S, LEESBURG, GA 31763", "@spider": "dish", "addr:full": "1497 US 19 S, LEESBURG, GA 31763", "name": "DAVIS ANTENNA INC", "brand": "Dish", "brand:wikidata": "Q1199757"}, "geometry": {"type": "Point", "coordinates": [-84.1754532, 31.6362372]}},
{"type": "Feature", "id": "FsTD-fcWlT05XD0FX4yi3xr838Y=", "properties": {"ref": "85 LYNN HAVEN DR, MARTINSBURG, WV 25404", "@spider": "dish", "addr:full": "85 LYNN HAVEN DR, MARTINSBURG, WV 25404", "name": "VIA SATELLITE INC", "brand": "Dish", "brand:wikidata": "Q1199757"}, "geometry": {"type": "Point", "coordinates": [-77.9155015, 39.531892]}},
{"type": "Feature", "id": "d2flMDIo1VCUDsBADd5qGaFwdGo=", "properties": {"ref": "55 W REMUS RD, MOUNT PLEASANT, MI 48858", "@spider": "dish", "addr:full": "55 W REMUS RD, MOUNT PLEASANT, MI 48858", "name": "WORRY FREE SATELLITE SERVICE", "brand": "Dish", "brand:wikidata": "Q1199757"}, "geometry": {"type": "Point", "coordinates": [-84.8485274, 43.5963333]}},
{"type": "Feature", "id": "NmvGI_SjHGv7IlvkVaSimGML_Gs=", "properties": {"ref": "326 S STATE ST, CARO, MI 48723", "@spider": "dish", "addr:full": "326 S STATE ST, CARO, MI 48723", "name": "MAJESTIC SKY LINK LLC", "brand": "Dish", "brand:wikidata": "Q1199757"}, "geometry": {"type": "Point", "coordinates": [-83.399092, 43.487252]}},
{"type": "Feature", "id": "TbiUnRbn5Po54w7X6317PWgVcvQ=", "properties": {"ref": "6800 EASTMAN AVE, MIDLAND, MI 48642", "@spider": "dish", "addr:full": "6800 EASTMAN AVE, MIDLAND, MI 48642", "name": "MIDLAND MALL - NORTHERN HOME SATELLITE", "brand": "Dish", "brand:wikidata": "Q1199757"}, "geometry": {"type": "Point", "coordinates": [-84.2426972, 43.6589685]}},
{"type": "Feature", "id": "X8oaIEdoF1QIXuhB7obXS8evUoI=", "properties": {"ref": "2639 HWY 441 S STE A, DOUGLAS, GA 31535", "@spider": "dish", "addr:full": "2639 HWY 441 S STE A, DOUGLAS, GA 31535", "name": "HAMILTONS ELECTRONICS", "brand": "Dish", "brand:wikidata": "Q1199757"}, "geometry": {"type": "Point", "coordinates": [-82.8502594, 31.4711295]}},
{"type": "Feature", "id": "FZ8z3f_TP8G7-993F9W95BJ02DI=", "properties": {"ref": "3220 DODGE ST STE 5, DUBUQUE, IA 52003", "@spider": "dish", "addr:full": "3220 DODGE ST STE 5, DUBUQUE, IA 52003", "name": "BUSCH SATELLITE & TV", "brand": "Dish", "brand:wikidata": "Q1199757"}, "geometry": {"type": "Point", "coordinates": [-90.7131233, 42.4914945]}},
{"type": "Feature", "id": "lR7iAh35ipwJ2X24SNghCEoB-VU=", "properties": {"ref": "18506 BUSINESS 13, REEDS SPRING, MO 65737", "@spider": "dish", "addr:full": "18506 BUSINESS 13, REEDS SPRING, MO 65737", "name": "TRI LAKES SATELLITES LLC", "brand": "Dish", "brand:wikidata": "Q1199757"}, "geometry": {"type": "Point", "coordinates": [-93.4030281, 36.6711361]}},
{"type": "Feature", "id": "6Qh76yAWBZuMyzmUeg98b-U_QrY=", "properties": {"ref": "5466 BLAIRS FOREST WAY NE, CEDAR RAPIDS, IA 52402", "@spider": "dish", "addr:full": "5466 BLAIRS FOREST WAY NE, CEDAR RAPIDS, IA 52402", "name": "BIG DOG STORE HOLDINGS LLC", "brand": "Dish", "brand:wikidata": "Q1199757"}, "geometry": {"type": "Point", "coordinates": [-91.6785176, 42.0337281]}},
{"type": "Feature", "id": "7tJJWN8nttuxjyLTHLJ8bJ4wDBw=", "properties": {"ref": "1710 E PARKWAY DR, RUSSELLVILLE, AR 72802", "@spider": "dish", "addr:full": "1710 E PARKWAY DR, RUSSELLVILLE, AR 72802", "name": "RIVER VALLEY SATELLITE", "brand": "Dish", "brand:wikidata": "Q1199757"}, "geometry": {"type": "Point", "coordinates": [-93.1123888, 35.2821734]}},
{"type": "Feature", "id": "B1PaGHArBrVKy6TxbWyFqbqRR5g=", "properties": {"ref": "S 2634 COUNTY HWY BD STE 1, BARABOO, WI 53913", "@spider": "dish", "addr:full": "S 2634 COUNTY HWY BD STE 1, BARABOO, WI 53913", "name": "STAR CONNECTION LLC", "brand": "Dish", "brand:wikidata": "Q1199757"}, "geometry": {"type": "Point", "coordinates": [-89.7780886, 43.5490926]}},
{"type": "Feature", "id": "Tm6q4LA7R3uyiYeuMicFZsK53Ik=", "properties": {"ref": "1218 MAIN ST, CHIPLEY, FL 32428", "@spider": "dish", "addr:full": "1218 MAIN ST, CHIPLEY, FL 32428", "name": "PROFESSIONAL SATELLITES", "brand": "Dish", "brand:wikidata": "Q1199757"}, "geometry": {"type": "Point", "coordinates": [-85.5411438, 30.7661001]}},
{"type": "Feature", "id": "L4AxG6SVRxvmLibwXW1E-aq7S7E=", "properties": {"ref": "225 E MAIN ST, KNOXVILLE, IA 50138", "@spider": "dish", "addr:full": "225 E MAIN ST, KNOXVILLE, IA 50138", "name": "JOHNSTON COMMUNICATIONS LLC", "brand": "Dish", "brand:wikidata": "Q1199757"}, "geometry": {"type": "Point", "coordinates": [-93.0966251, 41.3191032]}},
{"type": "Feature", "id": "vC041MMRQiQf78vsQgiUaGz_r44=", "properties": {"ref": "1505 W WALNUT ST, ROGERS, AR 72756", "@spider": "dish", "addr:full": "1505 W WALNUT ST, ROGERS, AR 72756", "name": "GALVANS DIGITAL SYSTEMS", "brand": "Dish", "brand:wikidata": "Q1199757"}, "geometry": {"type": "Point", "coordinates": [-94.1394214, 36.3343213]}},
{"type": "Feature", "id": "OJwEuhrJG2mfuQnhYGv_gvLzfjs=", "properties": {"ref": "7412 PRESTON HWY, LOUISVILLE, KY 40219", "@spider": "dish", "addr:full": "7412 PRESTON HWY, LOUISVILLE, KY 40219", "name": "TERRYS SATELLITE CITY LLC", "brand": "Dish", "brand:wikidata": "Q1199757"}, "geometry": {"type": "Point", "coordinates": [-85.6900129, 38.1438156]}},
{"type": "Feature", "id": "4f4lPXOI6GOrxxnHrC71WMaWTlU=", "properties": {"ref": "9030 INDIAN BLUFF RD NE, GEORGETOWN, IN 47122", "@spider": "dish", "addr:full": "9030 INDIAN BLUFF RD NE, GEORGETOWN, IN 47122", "name": "BYRNE SATELLITE", "brand": "Dish", "brand:wikidata": "Q1199757"}, "geometry": {"type": "Point", "coordinates": [-86.0309181, 38.3289474]}},
{"type": "Feature", "id": "liBXomV6Ogz27oybakS5s8wAsao=", "properties": {"ref": "2360 OLD LOUISVILLE RD, BOWLING GREEN, KY 42101", "@spider": "dish", "addr:full": "2360 OLD LOUISVILLE RD, BOWLING GREEN, KY 42101", "name": "STARGAZER SATELLITE SYSTEMS", "brand": "Dish", "brand:wikidata": "Q1199757"}, "geometry": {"type": "Point", "coordinates": [-86.4084229, 37.0076409]}},
{"type": "Feature", "id": "VBcKBDTjYRQpGopgkSc6MlrpSOc=", "properties": {"ref": "115 S MAIN CROSS, FLEMINGSBURG, KY 41041", "@spider": "dish", "addr:full": "115 S MAIN CROSS, FLEMINGSBURG, KY 41041", "name": "DISH COUNTRY INC", "brand": "Dish", "brand:wikidata": "Q1199757"}, "geometry": {"type": "Point", "coordinates": [-83.7340461, 38.4215237]}},
{"type": "Feature", "id": "2ZGI9P_-GV-NtnglE-ZlaJP9GIY=", "properties": {"ref": "3710 N NEWTON ST, JASPER, IN 47546", "@spider": "dish", "addr:full": "3710 N NEWTON ST, JASPER, IN 47546", "name": "VIDEO TECH INC", "brand": "Dish", "brand:wikidata": "Q1199757"}, "geometry": {"type": "Point", "coordinates": [-86.9373968, 38.4238777]}},
{"type": "Feature", "id": "vdKy5YNReTBWrSD1PLJqH-zQEd0=", "properties": {"ref": "336 S CUMBERLAND ST, LEBANON, TN 37087", "@spider": "dish", "addr:full": "336 S CUMBERLAND ST, LEBANON, TN 37087", "name": "MID TENN TECHNOLOGY INC", "brand": "Dish", "brand:wikidata": "Q1199757"}, "geometry": {"type": "Point", "coordinates": [-86.2926995, 36.2010753]}},
{"type": "Feature", "id": "Sm2rgFteHQIq_ujQsha6yY12YUk=", "properties": {"ref": "601 W MAIN ST STE C, GREENSBURG, IN 47240", "@spider": "dish", "addr:full": "601 W MAIN ST STE C, GREENSBURG, IN 47240", "name": "H O P COMMUNICATIONS", "brand": "Dish", "brand:wikidata": "Q1199757"}, "geometry": {"type": "Point", "coordinates": [-85.4921332, 39.3361632]}},
{"type": "Feature", "id": "Lw7N8_AkRkr_8fmRTkcX7F6QZC4=", "properties": {"ref": "7815 OAK RIDGE HWY STE 2, KNOXVILLE, TN 37931", "@spider": "dish", "addr:full": "7815 OAK RIDGE HWY STE 2, KNOXVILLE, TN 37931", "name": "SATELLITE SOLUTIONS", "brand": "Dish", "brand:wikidata": "Q1199757"}, "geometry": {"type": "Point", "coordinates": [-84.1164763, 35.9788519]}},
{"type": "Feature", "id": "P5I1VdvA1u_jPmAEC91QCVMipjw=", "properties": {"ref": "1101 N FULTON AVE, EVANSVILLE, IN 47710", "@spider": "dish", "addr:full": "1101 N FULTON AVE, EVANSVILLE, IN 47710", "name": "DISH EXPRESS", "brand": "Dish", "brand:wikidata": "Q1199757"}, "geometry": {"type": "Point", "coordinates": [-87.5806534, 37.9880662]}},
{"type": "Feature", "id": "0oIdg0gIF1p610RzgeZE73yhptg=", "properties": {"ref": "112 NAVAHO TRL, HOPKINSVILLE, KY 42240", "@spider": "dish", "addr:full": "112 NAVAHO TRL, HOPKINSVILLE, KY 42240", "name": "CHARLES M CANNON DBA C&M STARS", "brand": "Dish", "brand:wikidata": "Q1199757"}, "geometry": {"type": "Point", "coordinates": [-87.5168571, 36.8604237]}},
{"type": "Feature", "id": "GLE87KQectlENOEGD9m2n-wU-aM=", "properties": {"ref": "711 E STATE ROAD 44, SHELBYVILLE, IN 46176", "@spider": "dish", "addr:full": "711 E STATE ROAD 44, SHELBYVILLE, IN 46176", "name": "BILLS SATELLITE AND HOME THEATRE LLC", "brand": "Dish", "brand:wikidata": "Q1199757"}, "geometry": {"type": "Point", "coordinates": [-85.7638509, 39.5216984]}},
{"type": "Feature", "id": "IyTxmZKlhiuJ02_SFLjv5fz7cUY=", "properties": {"ref": "325 W 11TH ST, BICKNELL, IN 47512", "@spider": "dish", "addr:full": "325 W 11TH ST, BICKNELL, IN 47512", "name": "ANDERSAT LLC", "brand": "Dish", "brand:wikidata": "Q1199757"}},
{"type": "Feature", "id": "1bSbIfH3iriAcVCAWXx1Wi4HMbQ=", "properties": {"ref": "31 JEFFERSON ST, CADIZ, KY 42211", "@spider": "dish", "addr:full": "31 JEFFERSON ST, CADIZ, KY 42211", "name": "DISH EXPRESS", "brand": "Dish", "brand:wikidata": "Q1199757"}, "geometry": {"type": "Point", "coordinates": [-87.8385135, 36.8622466]}},
{"type": "Feature", "id": "H_tc8xStWmTkQTLSZiMT1Wi-RNM=", "properties": {"ref": "404 W MAIN ST, SEVIERVILLE, TN 37862", "@spider": "dish", "addr:full": "404 W MAIN ST, SEVIERVILLE, TN 37862", "name": "MICROTECH SATELLITES", "brand": "Dish", "brand:wikidata": "Q1199757"}, "geometry": {"type": "Point", "coordinates": [-83.5754622, 35.8723211]}},
{"type": "Feature", "id": "E6sZTBsbEwAROB02znhM2_IMIWY=", "properties": {"ref": "1813 S MEMORIAL DR STE B, NEW CASTLE, IN 47362", "@spider": "dish", "addr:full": "1813 S MEMORIAL DR STE B, NEW CASTLE, IN 47362", "name": "WYNN INC DBA UNIQUE WIRELESS", "brand": "Dish", "brand:wikidata": "Q1199757"}, "geometry": {"type": "Point", "coordinates": [-85.3850241, 39.9145387]}},
{"type": "Feature", "id": "CDdppk2TkPN5ltDzAObDbjHQpN0=", "properties": {"ref": "724 S ELLINGTON PKWY, LEWISBURG, TN 37091", "@spider": "dish", "addr:full": "724 S ELLINGTON PKWY, LEWISBURG, TN 37091", "name": "LEWISBURG FARM CENTER", "brand": "Dish", "brand:wikidata": "Q1199757"}, "geometry": {"type": "Point", "coordinates": [-86.7753746, 35.4378169]}},
{"type": "Feature", "id": "ZUjj-InbOJX3BWgM1IcXSgsm_ms=", "properties": {"ref": "509 S SCATTERFIELD RD, ANDERSON, IN 46012", "@spider": "dish", "addr:full": "509 S SCATTERFIELD RD, ANDERSON, IN 46012", "name": "WYNN INC DBA UNIQUE WIRELESS", "brand": "Dish", "brand:wikidata": "Q1199757"}, "geometry": {"type": "Point", "coordinates": [-85.653144, 40.110522]}},
{"type": "Feature", "id": "cH-re1Ga8VEa66dlSkb4ytx9PVM=", "properties": {"ref": "900 W MCGALLIARD RD STE C, MUNCIE, IN 47303", "@spider": "dish", "addr:full": "900 W MCGALLIARD RD STE C, MUNCIE, IN 47303", "name": "WYNN INC DBA UNIQUE WIRELESS", "brand": "Dish", "brand:wikidata": "Q1199757"}, "geometry": {"type": "Point", "coordinates": [-85.3963172, 40.2193435]}},
{"type": "Feature", "id": "q83Rio7smWG5Gt610qUH5hcdLFk=", "properties": {"ref": "515 LOCUST ST, MARSHALL, IL 62441", "@spider": "dish", "addr:full": "515 LOCUST ST, MARSHALL, IL 62441", "name": "HARPERS SALES AND SERVICE", "brand": "Dish", "brand:wikidata": "Q1199757"}, "geometry": {"type": "Point", "coordinates": [-87.6958571, 39.3893121]}},
{"type": "Feature", "id": "Pa1DC0o3lVKeJxwsGhGQo0jbKBM=", "properties": {"ref": "11530 N SR 37, ELWOOD, IN 46036", "@spider": "dish", "addr:full": "11530 N SR 37, ELWOOD, IN 46036", "name": "WYNN INC DBA UNIQUE WIRELESS", "brand": "Dish", "brand:wikidata": "Q1199757"}},
{"type": "Feature", "id": "eIKjdwpIzbDcrJs6pAL3q1j9J9Y=", "properties": {"ref": "16724 W COLLEGE ST, PULASKI, TN 38478", "@spider": "dish", "addr:full": "16724 W COLLEGE ST, PULASKI, TN 38478", "name": "EARTH STATION ELEC", "brand": "Dish", "brand:wikidata": "Q1199757"}, "geometry": {"type": "Point", "coordinates": [-87.0658879, 35.2067159]}},
{"type": "Feature", "id": "mRXtZgYPHguRbRNUDfmjNV_giOo=", "properties": {"ref": "613 HIGHLANDS RD, FRANKLIN, NC 28734", "@spider": "dish", "addr:full": "613 HIGHLANDS RD, FRANKLIN, NC 28734", "name": "ROCKYS SATELLITE", "brand": "Dish", "brand:wikidata": "Q1199757"}, "geometry": {"type": "Point", "coordinates": [-83.3677634, 35.1788759]}},
{"type": "Feature", "id": "dsa_apbhdpoJKA5o80LRtrpeqOI=", "properties": {"ref": "810 S BALDWIN AVE, MARION, IN 46953", "@spider": "dish", "addr:full": "810 S BALDWIN AVE, MARION, IN 46953", "name": "WYNN INC DBA UNIQUE WIRELESS", "brand": "Dish", "brand:wikidata": "Q1199757"}, "geometry": {"type": "Point", "coordinates": [-85.6763443, 40.5535374]}},
{"type": "Feature", "id": "j_4JkxbVVtSJMm-AVo5vzOzFh9E=", "properties": {"ref": "1301 S BALDWIN AVE STE 101, MARION, IN 46953", "@spider": "dish", "addr:full": "1301 S BALDWIN AVE STE 101, MARION, IN 46953", "name": "COLLINS WIRELESS INC", "brand": "Dish", "brand:wikidata": "Q1199757"}, "geometry": {"type": "Point", "coordinates": [-85.6740675, 40.5490813]}},
{"type": "Feature", "id": "5om26fJED-Qu4ml2m0G320ZiYF0=", "properties": {"ref": "100 N DIVISION ST, CARTERVILLE, IL 62918", "@spider": "dish", "addr:full": "100 N DIVISION ST, CARTERVILLE, IL 62918", "name": "CABLELINK INC", "brand": "Dish", "brand:wikidata": "Q1199757"}, "geometry": {"type": "Point", "coordinates": [-89.0769264, 37.7620377]}},
{"type": "Feature", "id": "QN9LMKuzgUdye0NmLOU2ATtEeTY=", "properties": {"ref": "23034 N IL HWY 37, DIX, IL 62830", "@spider": "dish", "addr:full": "23034 N IL HWY 37, DIX, IL 62830", "name": "RILEY TV HOSPITAL INC", "brand": "Dish", "brand:wikidata": "Q1199757"}, "geometry": {"type": "Point", "coordinates": [-88.942811, 38.4635287]}},
{"type": "Feature", "id": "TmkSL7GrGQq8jRyklA2AbJq4b4s=", "properties": {"ref": "501 N TAYLOR AVE, FOWLER, IN 47944", "@spider": "dish", "addr:full": "501 N TAYLOR AVE, FOWLER, IN 47944", "name": "WORLD VIEW AUTOMATION", "brand": "Dish", "brand:wikidata": "Q1199757"}, "geometry": {"type": "Point", "coordinates": [-87.3282247, 40.6217526]}},
{"type": "Feature", "id": "tHVUhGFCgHWC5parigputqZHW9o=", "properties": {"ref": "117 RIVERDALE RD, CENTRAL, SC 29630", "@spider": "dish", "addr:full": "117 RIVERDALE RD, CENTRAL, SC 29630", "name": "CENTRAL SATELLITE SERVICES LLC", "brand": "Dish", "brand:wikidata": "Q1199757"}, "geometry": {"type": "Point", "coordinates": [-82.7632621, 34.7881946]}},
{"type": "Feature", "id": "bh3IZ6i5mNiY4pfwq30YZkFC_xU=", "properties": {"ref": "574 OAK ST, FOREST CITY, NC 28043", "@spider": "dish", "addr:full": "574 OAK ST, FOREST CITY, NC 28043", "name": "R & R SATELLITE INC", "brand": "Dish", "brand:wikidata": "Q1199757"}, "geometry": {"type": "Point", "coordinates": [-81.8835305, 35.3337674]}},
{"type": "Feature", "id": "xe1JjVAhjyXB1tzX-oHxv66ko8Y=", "properties": {"ref": "3410 CLAIRMONT RD NE, ATLANTA, GA 30319", "@spider": "dish", "addr:full": "3410 CLAIRMONT RD NE, ATLANTA, GA 30319", "name": "HOME THEATER SATELLITE", "brand": "Dish", "brand:wikidata": "Q1199757"}, "geometry": {"type": "Point", "coordinates": [-84.3123889, 33.8588241]}},
{"type": "Feature", "id": "p7RxMHGfZWnKvo631uaLTuPd6So=", "properties": {"ref": "729 WORTH ST, MOUNT AIRY, NC 27030", "@spider": "dish", "addr:full": "729 WORTH ST, MOUNT AIRY, NC 27030", "name": "WOODS TV INC", "brand": "Dish", "brand:wikidata": "Q1199757"}, "geometry": {"type": "Point", "coordinates": [-80.610002, 36.489364]}},
{"type": "Feature", "id": "5qcpX_aUO-S1uOgEyNFEg8VdHCU=", "properties": {"ref": "89 MAIN ST, BELMONT, MS 38827", "@spider": "dish", "addr:full": "89 MAIN ST, BELMONT, MS 38827", "name": "BELMONT TV INC", "brand": "Dish", "brand:wikidata": "Q1199757"}, "geometry": {"type": "Point", "coordinates": [-88.2095577, 34.5090944]}},
{"type": "Feature", "id": "-r9DLP9Cqb2G6LPbTfeBNbjU2UU=", "properties": {"ref": "2503 GENERAL ELECTRIC RD, BLOOMINGTON, IL 61704", "@spider": "dish", "addr:full": "2503 GENERAL ELECTRIC RD, BLOOMINGTON, IL 61704", "name": "HILL RADIO", "brand": "Dish", "brand:wikidata": "Q1199757"}, "geometry": {"type": "Point", "coordinates": [-88.9256335, 40.5022144]}},
{"type": "Feature", "id": "8xlPv_FNQDEdHvrg45qlBzLIuuo=", "properties": {"ref": "3540 S WESTWOOD BLVD, POPLAR BLUFF, MO 63901", "@spider": "dish", "addr:full": "3540 S WESTWOOD BLVD, POPLAR BLUFF, MO 63901", "name": "DARWIN RAY HUETT DBA CABLE UNLIMITED", "brand": "Dish", "brand:wikidata": "Q1199757"}, "geometry": {"type": "Point", "coordinates": [-90.4455016, 36.7311341]}},
{"type": "Feature", "id": "r7UzK-vBtcT4vCe4KGss3EERgT8=", "properties": {"ref": "7377 SIX MILE POST RD, ROCKY MOUNT, VA 24151", "@spider": "dish", "addr:full": "7377 SIX MILE POST RD, ROCKY MOUNT, VA 24151", "name": "FAR STAR SATELLITE SYSTEMS INC", "brand": "Dish", "brand:wikidata": "Q1199757"}, "geometry": {"type": "Point", "coordinates": [-79.9214346, 36.9838135]}},
{"type": "Feature", "id": "CaBvW26zWk9Ek_MJ0YXIyFRTSNg=", "properties": {"ref": "410 N MAIN ST, AMORY, MS 38821", "@spider": "dish", "addr:full": "410 N MAIN ST, AMORY, MS 38821", "name": "NEA SATELLITES", "brand": "Dish", "brand:wikidata": "Q1199757"}, "geometry": {"type": "Point", "coordinates": [-88.4907211, 33.9894737]}},
{"type": "Feature", "id": "7UTl2XCkqOvg-VjJhGYUnT_LQ2c=", "properties": {"ref": "922 S MAIN ST, ADRIAN, MI 49221", "@spider": "dish", "addr:full": "922 S MAIN ST, ADRIAN, MI 49221", "name": "ORBIT TECH", "brand": "Dish", "brand:wikidata": "Q1199757"}, "geometry": {"type": "Point", "coordinates": [-84.0440421, 41.8855212]}},
{"type": "Feature", "id": "R8UDV5NTitXutRhVxH46Vvih82I=", "properties": {"ref": "1108 NEW FRANKLIN RD, LA GRANGE, GA 30240", "@spider": "dish", "addr:full": "1108 NEW FRANKLIN RD, LA GRANGE, GA 30240", "name": "BARTLETT SATELLITE SHOP", "brand": "Dish", "brand:wikidata": "Q1199757"}, "geometry": {"type": "Point", "coordinates": [-85.0278361, 33.0669933]}},
{"type": "Feature", "id": "hj0Fvo7PAcKHkDwbVNzZaNtnYY0=", "properties": {"ref": "3 BROWN CIR, ALABASTER, AL 35007", "@spider": "dish", "addr:full": "3 BROWN CIR, ALABASTER, AL 35007", "name": "DIXIE SATELLITE INC", "brand": "Dish", "brand:wikidata": "Q1199757"}, "geometry": {"type": "Point", "coordinates": [-86.8121451, 33.2592688]}},
{"type": "Feature", "id": "5W9zOHPKMnxPLQkmDF9KNfOqGxs=", "properties": {"ref": "3320 W 63RD ST, CHICAGO, IL 60629", "@spider": "dish", "addr:full": "3320 W 63RD ST, CHICAGO, IL 60629", "name": "NEZELL CO", "brand": "Dish", "brand:wikidata": "Q1199757"}, "geometry": {"type": "Point", "coordinates": [-87.7064658, 41.779083]}},
{"type": "Feature", "id": "oMkhQP03twbaz9gXdYx3TvhINJI=", "properties": {"ref": "1001 WASHINGTON SQUARE, WASHINGTON, MO 63090", "@spider": "dish", "addr:full": "1001 WASHINGTON SQUARE, WASHINGTON, MO 63090", "name": "EZ CARE SYSTEMS INC", "brand": "Dish", "brand:wikidata": "Q1199757"}, "geometry": {"type": "Point", "coordinates": [-91.0050771, 38.5360561]}},
{"type": "Feature", "id": "tbfaXaO9OhFgdU6VD1QdQiPDg84=", "properties": {"ref": "3825 W 31ST ST, CHICAGO, IL 60623", "@spider": "dish", "addr:full": "3825 W 31ST ST, CHICAGO, IL 60623", "name": "STEVENSON ENTERPRISES", "brand": "Dish", "brand:wikidata": "Q1199757"}, "geometry": {"type": "Point", "coordinates": [-87.7204983, 41.8367459]}},
{"type": "Feature", "id": "3D9vwCP0Lej4LJ4Jr3Wss6Ajmd4=", "properties": {"ref": "1439 W LAFAYETTE ST, OTTAWA, IL 61350", "@spider": "dish", "addr:full": "1439 W LAFAYETTE ST, OTTAWA, IL 61350", "name": "CALLAWAY SATELLITE SYSTEMS INC", "brand": "Dish", "brand:wikidata": "Q1199757"}, "geometry": {"type": "Point", "coordinates": [-88.8627189, 41.3495355]}},
{"type": "Feature", "id": "kRtihEeKgo_Y3jJfAPTHGI-N0yg=", "properties": {"ref": "5742 W BELMONT AVE, CHICAGO, IL 60634", "@spider": "dish", "addr:full": "5742 W BELMONT AVE, CHICAGO, IL 60634", "name": "RADAR SAT INC", "brand": "Dish", "brand:wikidata": "Q1199757"}, "geometry": {"type": "Point", "coordinates": [-87.7706833, 41.9388021]}},
{"type": "Feature", "id": "A6GRWUXoY_9I1QDZ8QEE7CwF33Y=", "properties": {"ref": "111 E MCGREGOR ST, PAGELAND, SC 29728", "@spider": "dish", "addr:full": "111 E MCGREGOR ST, PAGELAND, SC 29728", "name": "HAROLDS SATELLITE", "brand": "Dish", "brand:wikidata": "Q1199757"}, "geometry": {"type": "Point", "coordinates": [-80.3909221, 34.7722613]}},
{"type": "Feature", "id": "TeW9ExB8b6QvjWWTGSCkTLOJZa0=", "properties": {"ref": "5210 AUGUSTA RD, LEXINGTON, SC 29072", "@spider": "dish", "addr:full": "5210 AUGUSTA RD, LEXINGTON, SC 29072", "name": "SOUTHEASTERN SATELLITE SYSTEMS", "brand": "Dish", "brand:wikidata": "Q1199757"}, "geometry": {"type": "Point", "coordinates": [-81.207522, 33.9774839]}},
{"type": "Feature", "id": "pyU6eo9u9oKL4Ws7Md59K_5SPsg=", "properties": {"ref": "1300 BUSINESS HWY 61 S, BOWLING GREEN, MO 63334", "@spider": "dish", "addr:full": "1300 BUSINESS HWY 61 S, BOWLING GREEN, MO 63334", "name": "CELLULAR & SATELLITE CENTER", "brand": "Dish", "brand:wikidata": "Q1199757"}, "geometry": {"type": "Point", "coordinates": [-91.1869242, 39.33309]}},
{"type": "Feature", "id": "hP74vh_hOQalgJRGd0Rp5QCrkxA=", "properties": {"ref": "5811 W VERNOR, DETROIT, MI 48209", "@spider": "dish", "addr:full": "5811 W VERNOR, DETROIT, MI 48209", "name": "FEHME INVESTMENTS INC", "brand": "Dish", "brand:wikidata": "Q1199757"}, "geometry": {"type": "Point", "coordinates": [-83.1038617, 42.3167849]}},
{"type": "Feature", "id": "a-b_P7C_IRV6TD9cT_Z_wbmZCag=", "properties": {"ref": "13800 W WARREN AVE, DEARBORN, MI 48126", "@spider": "dish", "addr:full": "13800 W WARREN AVE, DEARBORN, MI 48126", "name": "DEARBORN SATELLITE & DISH", "brand": "Dish", "brand:wikidata": "Q1199757"}, "geometry": {"type": "Point", "coordinates": [-83.1794684, 42.3442311]}},
{"type": "Feature", "id": "oa8Guxc3BnB7DBS7H1Qk3OYeWGA=", "properties": {"ref": "2576 US HWY 231, WETUMPKA, AL 36093", "@spider": "dish", "addr:full": "2576 US HWY 231, WETUMPKA, AL 36093", "name": "AMCOM HOME THEATER INC", "brand": "Dish", "brand:wikidata": "Q1199757"}, "geometry": {"type": "Point", "coordinates": [-86.2030296, 32.4834677]}},
{"type": "Feature", "id": "elAVrZzNfCExG45xxSEvPqwpfkI=", "properties": {"ref": "1218 E CAROLINA AVE, HARTSVILLE, SC 29550", "@spider": "dish", "addr:full": "1218 E CAROLINA AVE, HARTSVILLE, SC 29550", "name": "FIX IT NOW SATELLITE", "brand": "Dish", "brand:wikidata": "Q1199757"}, "geometry": {"type": "Point", "coordinates": [-80.0430463, 34.3773477]}},
{"type": "Feature", "id": "q_dQLwo_nzFV4RTGvVNijwkV_eU=", "properties": {"ref": "111 W MAIN ST, ATKINSON, IL 61235", "@spider": "dish", "addr:full": "111 W MAIN ST, ATKINSON, IL 61235", "name": "CROWN HOME ENTERTAINMENT", "brand": "Dish", "brand:wikidata": "Q1199757"}, "geometry": {"type": "Point", "coordinates": [-90.0159656, 41.4208994]}},
{"type": "Feature", "id": "F3LJPObD8SQ3EUL6RpHt6lH9To4=", "properties": {"ref": "3113 US HIGHWAY 63, WEST PLAINS, MO 65775", "@spider": "dish", "addr:full": "3113 US HIGHWAY 63, WEST PLAINS, MO 65775", "name": "MILLER SATELLITE CENTER", "brand": "Dish", "brand:wikidata": "Q1199757"}, "geometry": {"type": "Point", "coordinates": [-91.5494546, 34.7764065]}},
{"type": "Feature", "id": "9vJsyPiDm_E_yBn1-TO5xTHMdi8=", "properties": {"ref": "3745 US HIGHWAY 80 W, SELMA, AL 36701", "@spider": "dish", "addr:full": "3745 US HIGHWAY 80 W, SELMA, AL 36701", "name": "OMEGA SATELLITE LLC", "brand": "Dish", "brand:wikidata": "Q1199757"}, "geometry": {"type": "Point", "coordinates": [-87.0831, 32.4349]}},
{"type": "Feature", "id": "qqs0-UkOHAcLwtBcCMeMNTDaJR8=", "properties": {"ref": "955 N GALENA AVE, DIXON, IL 61021", "@spider": "dish", "addr:full": "955 N GALENA AVE, DIXON, IL 61021", "name": "RAZOR REPLAY", "brand": "Dish", "brand:wikidata": "Q1199757"}, "geometry": {"type": "Point", "coordinates": [-89.489964, 41.8561756]}},
{"type": "Feature", "id": "iXo9PChzw6Dat3wXDumqjTtkFaU=", "properties": {"ref": "8162 FULTON ST E STE D, ADA, MI 49301", "@spider": "dish", "addr:full": "8162 FULTON ST E STE D, ADA, MI 49301", "name": "TRUMEDIA LLC", "brand": "Dish", "brand:wikidata": "Q1199757"}, "geometry": {"type": "Point", "coordinates": [-85.467205, 42.952067]}},
{"type": "Feature", "id": "tUwf9q-gBN10SxCymLWBAtWPmMU=", "properties": {"ref": "2343 MAIN HWY, BAMBERG, SC 29003", "@spider": "dish", "addr:full": "2343 MAIN HWY, BAMBERG, SC 29003", "name": "LOW COUNTRY COMMUNICATIONS OF SOUTH CAROLINA LLC", "brand": "Dish", "brand:wikidata": "Q1199757"}, "geometry": {"type": "Point", "coordinates": [-81.0336933, 33.3069413]}},
{"type": "Feature", "id": "bwNOIANL3yql7oK8DSicTd7Kbvs=", "properties": {"ref": "121 N DIVISION, POLO, IL 61064", "@spider": "dish", "addr:full": "121 N DIVISION, POLO, IL 61064", "name": "NORTHERN ILLINOIS TV", "brand": "Dish", "brand:wikidata": "Q1199757"}, "geometry": {"type": "Point", "coordinates": [-89.5790595, 41.9871695]}},
{"type": "Feature", "id": "p_oMd-VszSJXd3ry4aj2Hr0YNKY=", "properties": {"ref": "9480 ROUTE 422 HWY W, SHELOCTA, PA 15774", "@spider": "dish", "addr:full": "9480 ROUTE 422 HWY W, SHELOCTA, PA 15774", "name": "SKY SATELLITE LLC", "brand": "Dish", "brand:wikidata": "Q1199757"}, "geometry": {"type": "Point", "coordinates": [-79.2991918, 40.6569357]}},
{"type": "Feature", "id": "5FoouD0PqUhg4IjDgytSX9EOHOU=", "properties": {"ref": "3019 WEST AVE, BURLINGTON, IA 52601", "@spider": "dish", "addr:full": "3019 WEST AVE, BURLINGTON, IA 52601", "name": "BURLINGTON GEMS INC DBA EZ MEDIA", "brand": "Dish", "brand:wikidata": "Q1199757"}, "geometry": {"type": "Point", "coordinates": [-91.1388966, 40.7999788]}},
{"type": "Feature", "id": "xxJOR1b3t5KkUc_NlrSTtevJvuY=", "properties": {"ref": "410 E DIVISION STE D, SPARTA, MI 49345", "@spider": "dish", "addr:full": "410 E DIVISION STE D, SPARTA, MI 49345", "name": "THE REVOLUTION LLC", "brand": "Dish", "brand:wikidata": "Q1199757"}, "geometry": {"type": "Point", "coordinates": [-85.6999479, 43.1601783]}},
{"type": "Feature", "id": "Vhy3kF5VYMshD7z7uwcH9rw_C5I=", "properties": {"ref": "502 MIMS RD, SYLVANIA, GA 30467", "@spider": "dish", "addr:full": "502 MIMS RD, SYLVANIA, GA 30467", "name": "DENNIS GAY", "brand": "Dish", "brand:wikidata": "Q1199757"}, "geometry": {"type": "Point", "coordinates": [-81.6509276, 32.7553387]}},
{"type": "Feature", "id": "LB1AmeklVTrc7VDDHF0tmaCeAY8=", "properties": {"ref": "314 E WALWORTH AVE, DELAVAN, WI 53115", "@spider": "dish", "addr:full": "314 E WALWORTH AVE, DELAVAN, WI 53115", "name": "AMERICAN SATELLITE LLC", "brand": "Dish", "brand:wikidata": "Q1199757"}, "geometry": {"type": "Point", "coordinates": [-88.6448814, 42.6328115]}},
{"type": "Feature", "id": "AST0c-iHnC8sgEyupTg5cArRNEI=", "properties": {"ref": "3411 INTEGRITY DR, GARNER, NC 27529", "@spider": "dish", "addr:full": "3411 INTEGRITY DR, GARNER, NC 27529", "name": "CUSTOM COMMUNICATIONS", "brand": "Dish", "brand:wikidata": "Q1199757"}, "geometry": {"type": "Point", "coordinates": [-78.5809141, 35.7289257]}},
{"type": "Feature", "id": "NnlVakAiHZRPl3HnNETWePJz0sY=", "properties": {"ref": "902 E MAIN ST, MOUNTAIN VIEW, AR 72560", "@spider": "dish", "addr:full": "902 E MAIN ST, MOUNTAIN VIEW, AR 72560", "name": "RICHARDS SATELLITE", "brand": "Dish", "brand:wikidata": "Q1199757"}, "geometry": {"type": "Point", "coordinates": [-92.105528, 35.864329]}},
{"type": "Feature", "id": "KUydapthmTkJMd6VK5axKENqdZk=", "properties": {"ref": "258 N MADISON RD, ORANGE, VA 22960", "@spider": "dish", "addr:full": "258 N MADISON RD, ORANGE, VA 22960", "name": "MACC SATELLITE LLC", "brand": "Dish", "brand:wikidata": "Q1199757"}, "geometry": {"type": "Point", "coordinates": [-78.1135681, 38.2501629]}},
{"type": "Feature", "id": "Y3JUe-zqBIOXOXs0MRuvEEqwBqc=", "properties": {"ref": "2429 HWY 62 E, MOUNTAIN HOME, AR 72653", "@spider": "dish", "addr:full": "2429 HWY 62 E, MOUNTAIN HOME, AR 72653", "name": "STEVES SATELLITE SERVICE INC", "brand": "Dish", "brand:wikidata": "Q1199757"}, "geometry": {"type": "Point", "coordinates": [-92.3572661, 36.3538617]}},
{"type": "Feature", "id": "jh8ax3xjnVWJLFzpjuZKLQqwxZ0=", "properties": {"ref": "1064 1ST AVE, ROCHELLE, GA 31079", "@spider": "dish", "addr:full": "1064 1ST AVE, ROCHELLE, GA 31079", "name": "CRENSHAWS SYSTEMS", "brand": "Dish", "brand:wikidata": "Q1199757"}, "geometry": {"type": "Point", "coordinates": [-83.4560771, 31.9507278]}},
{"type": "Feature", "id": "8BzydaqW-8VCwUj66pC1NJwg_Cc=", "properties": {"ref": "212 W HIGH  ST , EBENSBURG , PA 15931", "@spider": "dish", "addr:full": "212 W HIGH  ST , EBENSBURG , PA 15931", "name": "EBENSBURG MUSIC MART", "brand": "Dish", "brand:wikidata": "Q1199757"}},
{"type": "Feature", "id": "FwTVg8OqgSH7k5bPLo5JJqV4dQk=", "properties": {"ref": "4207 CRAWFORD AVE, NORTHERN CAMBRIA , PA 15714", "@spider": "dish", "addr:full": "4207 CRAWFORD AVE, NORTHERN CAMBRIA , PA 15714", "name": "MUSIC MART TV AND ELECTRONICS", "brand": "Dish", "brand:wikidata": "Q1199757"}},
{"type": "Feature", "id": "w3rt_8G8Dhip8jqNVCpo6-OuFyI=", "properties": {"ref": "116 W PLATT ST, MAQUOKETA, IA 52060", "@spider": "dish", "addr:full": "116 W PLATT ST, MAQUOKETA, IA 52060", "name": "INFINITY SATELLITE SYSTEMS LLC", "brand": "Dish", "brand:wikidata": "Q1199757"}, "geometry": {"type": "Point", "coordinates": [-90.6660948, 42.0694321]}},
{"type": "Feature", "id": "4ZZfoxxTarp56Qhc8PsA3MZ9ZbY=", "properties": {"ref": "121 S COURT SQUARE, OZARK, AL 36360", "@spider": "dish", "addr:full": "121 S COURT SQUARE, OZARK, AL 36360", "name": "HAMMOND SATELLITES AND ELECRONICS", "brand": "Dish", "brand:wikidata": "Q1199757"}, "geometry": {"type": "Point", "coordinates": [-85.64037, 31.458041]}},
{"type": "Feature", "id": "iU8CGn1fAh2ILbocf8vNYrb_pVo=", "properties": {"ref": "90 S BROADVIEW ST, GREENBRIER, AR 72058", "@spider": "dish", "addr:full": "90 S BROADVIEW ST, GREENBRIER, AR 72058", "name": "RUSH SATELLITE", "brand": "Dish", "brand:wikidata": "Q1199757"}, "geometry": {"type": "Point", "coordinates": [-92.3876489, 35.2238886]}},
{"type": "Feature", "id": "XmNkOl8zxo9BUcb36LtpkY_P4Es=", "properties": {"ref": "925 WARD BLVD, WILSON, NC 27893", "@spider": "dish", "addr:full": "925 WARD BLVD, WILSON, NC 27893", "name": "MELCHOR RIOS DBA LA ESTRELLA MEXICAN BAKERY LLC EL DIAMANTE", "brand": "Dish", "brand:wikidata": "Q1199757"}, "geometry": {"type": "Point", "coordinates": [-77.9362053, 35.7170118]}},
{"type": "Feature", "id": "QNbmOeetX1lN8l7D7i4375_z7IQ=", "properties": {"ref": "265 FITZGERALD HWY, OCILLA, GA 31774", "@spider": "dish", "addr:full": "265 FITZGERALD HWY, OCILLA, GA 31774", "name": "COUNTRY CABLE TV", "brand": "Dish", "brand:wikidata": "Q1199757"}, "geometry": {"type": "Point", "coordinates": [-83.249172, 31.61912]}},
{"type": "Feature", "id": "SILfL-3MFLdsAUU095KrOXfPYgw=", "properties": {"ref": "715 S BATIMORE ST, KIRKSVILLE, MO 63501", "@spider": "dish", "addr:full": "715 S BATIMORE ST, KIRKSVILLE, MO 63501", "name": "CABLE TECHNOLOGIES", "brand": "Dish", "brand:wikidata": "Q1199757"}, "geometry": {"type": "Point", "coordinates": [-92.5717153, 40.1892142]}},
{"type": "Feature", "id": "FgmeNyWtOVHgp92FR761ofUDZH4=", "properties": {"ref": "809 THOMPSON BLVD, SEDALIA, MO 65301", "@spider": "dish", "addr:full": "809 THOMPSON BLVD, SEDALIA, MO 65301", "name": "DONE RITE INSTALLS LLC", "brand": "Dish", "brand:wikidata": "Q1199757"}, "geometry": {"type": "Point", "coordinates": [-93.2644724, 38.7074181]}},
{"type": "Feature", "id": "C6XfI4Tg7qNAUosVwErhj6UY6TY=", "properties": {"ref": "1200 JOHN BARROW RD STE 103, LITTLE ROCK, AR 72205", "@spider": "dish", "addr:full": "1200 JOHN BARROW RD STE 103, LITTLE ROCK, AR 72205", "name": "CUSTOM SATELLITE SOLUTIONS", "brand": "Dish", "brand:wikidata": "Q1199757"}, "geometry": {"type": "Point", "coordinates": [-92.3726902, 34.7410792]}},
{"type": "Feature", "id": "Pci8mdnL_g9UBDoPFEqXdvsHDrQ=", "properties": {"ref": "728 W KATHRYN ST, NIXA, MO 65714", "@spider": "dish", "addr:full": "728 W KATHRYN ST, NIXA, MO 65714", "name": "HOME VIDEO SATELLITE SYSTEMS", "brand": "Dish", "brand:wikidata": "Q1199757"}, "geometry": {"type": "Point", "coordinates": [-93.3129691, 37.0600347]}},
{"type": "Feature", "id": "b7fb3qjSRI8dhrPWIJFxbhwCiL0=", "properties": {"ref": "1308 FORDING ISLAND RD STE A, BLUFFTON, SC 29910", "@spider": "dish", "addr:full": "1308 FORDING ISLAND RD STE A, BLUFFTON, SC 29910", "name": "SEBASTIAN MULTISERVICES INC", "brand": "Dish", "brand:wikidata": "Q1199757"}, "geometry": {"type": "Point", "coordinates": [-80.8288643, 32.2445964]}},
{"type": "Feature", "id": "V2LrRrKpGz7EE5YQEQfRE4milvA=", "properties": {"ref": "1527 E BUSINESS HWY 151, PLATTEVILLE, WI 53818", "@spider": "dish", "addr:full": "1527 E BUSINESS HWY 151, PLATTEVILLE, WI 53818", "name": "TRI-COM INC", "brand": "Dish", "brand:wikidata": "Q1199757"}, "geometry": {"type": "Point", "coordinates": [-90.451932, 42.7326065]}},
{"type": "Feature", "id": "LHkoec4CeYgUfyv4wDEgGwVTnLg=", "properties": {"ref": "6073 ROUTE 380, SINCLAIRVILLE, NY 14782", "@spider": "dish", "addr:full": "6073 ROUTE 380, SINCLAIRVILLE, NY 14782", "name": "LANE TV & SATELLITE", "brand": "Dish", "brand:wikidata": "Q1199757"}, "geometry": {"type": "Point", "coordinates": [-79.349261, 42.262308]}},
{"type": "Feature", "id": "IFh2ZekP67Jh71TFbTSd2ogEPCo=", "properties": {"ref": "1100 W 4TH ST, LEWISTOWN, PA 17044", "@spider": "dish", "addr:full": "1100 W 4TH ST, LEWISTOWN, PA 17044", "name": "SKY VIEW VIDEO", "brand": "Dish", "brand:wikidata": "Q1199757"}, "geometry": {"type": "Point", "coordinates": [-77.5984311, 40.5894014]}},
{"type": "Feature", "id": "lv1omWBRdEH-lCRb4fV8s87sVxs=", "properties": {"ref": "312 E YOUNG ST, WARRENSBURG, MO 64093", "@spider": "dish", "addr:full": "312 E YOUNG ST, WARRENSBURG, MO 64093", "name": "DONE RITE INSTALLS LLC", "brand": "Dish", "brand:wikidata": "Q1199757"}, "geometry": {"type": "Point", "coordinates": [-93.7336768, 38.7699219]}},
{"type": "Feature", "id": "2FEMQGzQE6WnsJQRxdjwjCqEOiw=", "properties": {"ref": "37 S CRANBERRY RD, WESTMINSTER, MD 21157", "@spider": "dish", "addr:full": "37 S CRANBERRY RD, WESTMINSTER, MD 21157", "name": "SATELLITE VIDEO SYSTEMS", "brand": "Dish", "brand:wikidata": "Q1199757"}, "geometry": {"type": "Point", "coordinates": [-76.9819148, 39.5723194]}},
{"type": "Feature", "id": "Dx916hsMc-zD-oGr-FrR1jqabzA=", "properties": {"ref": "209 HIGH AVE E, OSKALOOSA, IA 52577", "@spider": "dish", "addr:full": "209 HIGH AVE E, OSKALOOSA, IA 52577", "name": "SATELLITE GUY LLC", "brand": "Dish", "brand:wikidata": "Q1199757"}, "geometry": {"type": "Point", "coordinates": [-92.643406, 41.2956163]}},
{"type": "Feature", "id": "RNsa0a7x4Gw5uBglWbHKl5wcZn8=", "properties": {"ref": "6261 HOMESTEAD LN, TWO RIVERS, WI 54241", "@spider": "dish", "addr:full": "6261 HOMESTEAD LN, TWO RIVERS, WI 54241", "name": "COUNTRY SATELLITE SALES & SERVICE", "brand": "Dish", "brand:wikidata": "Q1199757"}, "geometry": {"type": "Point", "coordinates": [-87.6466566, 44.1722197]}},
{"type": "Feature", "id": "sm9NwYgT1169WuSkamr1hU-LMKk=", "properties": {"ref": "3022 E VAN BUREN STE 1, EUREKA SPRINGS, AR 72632", "@spider": "dish", "addr:full": "3022 E VAN BUREN STE 1, EUREKA SPRINGS, AR 72632", "name": "COMMON SENSE TECHNOLOGIES", "brand": "Dish", "brand:wikidata": "Q1199757"}, "geometry": {"type": "Point", "coordinates": [-93.726743, 36.392134]}},
{"type": "Feature", "id": "_wJ0ixUQa_XzUznkrkbOddQzt8o=", "properties": {"ref": "1408 HOLMES RD, CREOLA, AL 36525", "@spider": "dish", "addr:full": "1408 HOLMES RD, CREOLA, AL 36525", "name": "DC ELECTRONICS", "brand": "Dish", "brand:wikidata": "Q1199757"}, "geometry": {"type": "Point", "coordinates": [-88.0029193, 30.899383]}},
{"type": "Feature", "id": "3RTBT9Py0gtNuS3u9oo5fmArNWI=", "properties": {"ref": "341 DEAD LAKE RD STE A, CREOLA, AL 36525", "@spider": "dish", "addr:full": "341 DEAD LAKE RD STE A, CREOLA, AL 36525", "name": "DC ELECTRONICS", "brand": "Dish", "brand:wikidata": "Q1199757"}, "geometry": {"type": "Point", "coordinates": [-88.0296989, 30.896096]}},
{"type": "Feature", "id": "Qrb82FnB5-NySKzvglLYfk0Lsyg=", "properties": {"ref": "116 E BLACKHAWK AVE, PRAIRIE DU CHIEN, WI 53821", "@spider": "dish", "addr:full": "116 E BLACKHAWK AVE, PRAIRIE DU CHIEN, WI 53821", "name": "ALTHOFS TELEVISION CTR", "brand": "Dish", "brand:wikidata": "Q1199757"}, "geometry": {"type": "Point", "coordinates": [-91.1456853, 43.0515267]}},
{"type": "Feature", "id": "PT8jUoOiXuVbNEiKpgE_zkPE040=", "properties": {"ref": "346 MOUNTAIN DR, DESTIN, FL 32541", "@spider": "dish", "addr:full": "346 MOUNTAIN DR, DESTIN, FL 32541", "name": "ANTENNA & SATELLITE STORE", "brand": "Dish", "brand:wikidata": "Q1199757"}, "geometry": {"type": "Point", "coordinates": [-86.5015892, 30.3945479]}},
{"type": "Feature", "id": "dt54t64Dq73TQaEwyJiVda37hw0=", "properties": {"ref": "106 W 10TH ST, LAMAR, MO 64759", "@spider": "dish", "addr:full": "106 W 10TH ST, LAMAR, MO 64759", "name": "ANSLEY TV & APPLIANCE", "brand": "Dish", "brand:wikidata": "Q1199757"}, "geometry": {"type": "Point", "coordinates": [-94.2764671, 37.4959461]}},
{"type": "Feature", "id": "ftvqvUjkUhqc0JTBm5N5v_zD7Cw=", "properties": {"ref": "303 N WATER ST, FAIRBANK, IA 50629", "@spider": "dish", "addr:full": "303 N WATER ST, FAIRBANK, IA 50629", "name": "SCHMIDTKE VIDEO SYSTEMS", "brand": "Dish", "brand:wikidata": "Q1199757"}, "geometry": {"type": "Point", "coordinates": [-92.0533086, 42.6415549]}},
{"type": "Feature", "id": "ZcutKd2qSAeURlrZ5QNxlIiIXrc=", "properties": {"ref": "2308 50TH WEST STE 1, WILLISTON, ND 58801", "@spider": "dish", "addr:full": "2308 50TH WEST STE 1, WILLISTON, ND 58801", "name": "DON LORS ELECTRONICS", "brand": "Dish", "brand:wikidata": "Q1199757"}, "geometry": {"type": "Point", "coordinates": [-103.6595578, 48.1907294]}},
{"type": "Feature", "id": "FP1sQh5Q2AfUnyTB1Kq55Wdt3Mo=", "properties": {"ref": "2740 HAINES AVE, RAPID CITY, SD 57701", "@spider": "dish", "addr:full": "2740 HAINES AVE, RAPID CITY, SD 57701", "name": "DON LORS ELECTRONICS", "brand": "Dish", "brand:wikidata": "Q1199757"}, "geometry": {"type": "Point", "coordinates": [-103.2211294, 44.1126521]}},
{"type": "Feature", "id": "f5DZDXoCYD_gHZONHLIDW1wLevI=", "properties": {"ref": "500 E MAPLE ST , SIOUX FALLS, SD 57101", "@spider": "dish", "addr:full": "500 E MAPLE ST , SIOUX FALLS, SD 57101", "name": "DON LORS ELECTRONICS", "brand": "Dish", "brand:wikidata": "Q1199757"}, "geometry": {"type": "Point", "coordinates": [-96.7210317, 43.5732248]}},
{"type": "Feature", "id": "oXFLqUWlFtqNnLESYWmEGH-FySw=", "properties": {"ref": "1704 W 41ST ST, SIOUX FALLS, SD 57105", "@spider": "dish", "addr:full": "1704 W 41ST ST, SIOUX FALLS, SD 57105", "name": "DTV PROS", "brand": "Dish", "brand:wikidata": "Q1199757"}, "geometry": {"type": "Point", "coordinates": [-96.7468358, 43.5150529]}},
{"type": "Feature", "id": "mtPb8bZQPDK0tLNRNk8Pusp-TXk=", "properties": {"ref": "235 S MAIN ST, BUFFALO, WY 82834", "@spider": "dish", "addr:full": "235 S MAIN ST, BUFFALO, WY 82834", "name": "WRIGHT TECHNOLOGIES LLC", "brand": "Dish", "brand:wikidata": "Q1199757"}, "geometry": {"type": "Point", "coordinates": [-106.6972701, 44.3442316]}},
{"type": "Feature", "id": "Tq89xgs7gE2RgPMbgOz2kv0RCFw=", "properties": {"ref": "22350 HIGHWAY 65 NE, BETHEL, MN 55005", "@spider": "dish", "addr:full": "22350 HIGHWAY 65 NE, BETHEL, MN 55005", "name": "SATELLITE EXPERTS LLC", "brand": "Dish", "brand:wikidata": "Q1199757"}, "geometry": {"type": "Point", "coordinates": [-93.237753, 45.374673]}},
{"type": "Feature", "id": "eZPIHylLf34dra3eY_HEN1_a-70=", "properties": {"ref": "119 N MINNESOTA AVE, SAINT PETER, MN 56082", "@spider": "dish", "addr:full": "119 N MINNESOTA AVE, SAINT PETER, MN 56082", "name": "DISH DOCTORS INC", "brand": "Dish", "brand:wikidata": "Q1199757"}, "geometry": {"type": "Point", "coordinates": [-93.9547475, 44.3263781]}},
{"type": "Feature", "id": "qIpcqaf0vo_4LgRdEOsavfz3Q4A=", "properties": {"ref": "1711 HAMILTON BLVD, SIOUX CITY, IA 51103", "@spider": "dish", "addr:full": "1711 HAMILTON BLVD, SIOUX CITY, IA 51103", "name": "SATELLITE CENTRAL INC", "brand": "Dish", "brand:wikidata": "Q1199757"}, "geometry": {"type": "Point", "coordinates": [-96.4172409, 42.508835]}},
{"type": "Feature", "id": "quauf_ABtcSWOAkbE9QP4LoSXAY=", "properties": {"ref": "5465 212 ST W STE 400, FARMINGTON, MN 55024", "@spider": "dish", "addr:full": "5465 212 ST W STE 400, FARMINGTON, MN 55024", "name": "DON LORS ELECTRONICS", "brand": "Dish", "brand:wikidata": "Q1199757"}, "geometry": {"type": "Point", "coordinates": [-93.176546, 44.642443]}},
{"type": "Feature", "id": "gydhTwQ7VvIh7e11lvGCmnM5d4w=", "properties": {"ref": "701 S 25TH ST, NORFOLK, NE 68701", "@spider": "dish", "addr:full": "701 S 25TH ST, NORFOLK, NE 68701", "name": "SATELLITE CENTRAL INC", "brand": "Dish", "brand:wikidata": "Q1199757"}, "geometry": {"type": "Point", "coordinates": [-97.4470515, 42.0270198]}},
{"type": "Feature", "id": "T2XlZbdderhQVHAT0wTv2aR6Apc=", "properties": {"ref": "1700 MARKET LN, NORFOLK, NE 68701", "@spider": "dish", "addr:full": "1700 MARKET LN, NORFOLK, NE 68701", "name": "SUNSET PLAZA - SATELLITE CENTRAL", "brand": "Dish", "brand:wikidata": "Q1199757"}, "geometry": {"type": "Point", "coordinates": [-97.4310373, 42.020787]}},
{"type": "Feature", "id": "7hr_Elz7rJUPNyI270u6FW8T27Q=", "properties": {"ref": "1108 E 25TH ST, KEARNEY, NE 68847", "@spider": "dish", "addr:full": "1108 E 25TH ST, KEARNEY, NE 68847", "name": "ADVANCED SATELLITES", "brand": "Dish", "brand:wikidata": "Q1199757"}, "geometry": {"type": "Point", "coordinates": [-99.0666765, 40.7005942]}},
{"type": "Feature", "id": "1iZQycigNHoXYHNYcziXOfhV8qE=", "properties": {"ref": "17011 EVANS PLAZA, OMAHA, NE 68116", "@spider": "dish", "addr:full": "17011 EVANS PLAZA, OMAHA, NE 68116", "name": "SATELLITE CENTRAL INC", "brand": "Dish", "brand:wikidata": "Q1199757"}, "geometry": {"type": "Point", "coordinates": [-96.1810778, 41.2908654]}},
{"type": "Feature", "id": "DY7ozm6xnKwYIpu8_J5BTyiAvlw=", "properties": {"ref": "2714 MEMORIAL HWY, MANDAN, ND 58554", "@spider": "dish", "addr:full": "2714 MEMORIAL HWY, MANDAN, ND 58554", "name": "NORTHLAND COMMUNICATIONS", "brand": "Dish", "brand:wikidata": "Q1199757"}, "geometry": {"type": "Point", "coordinates": [-100.8562244, 46.8216483]}},
{"type": "Feature", "id": "WjaGzyAwQ701a_g9GvbA1QS8Q64=", "properties": {"ref": "2502 S UNIVERSITY DR S STE D, FARGO, ND 58103", "@spider": "dish", "addr:full": "2502 S UNIVERSITY DR S STE D, FARGO, ND 58103", "name": "SATELLITE SOLUTIONS INC", "brand": "Dish", "brand:wikidata": "Q1199757"}, "geometry": {"type": "Point", "coordinates": [-96.7976042, 46.8421173]}},
{"type": "Feature", "id": "2HJPCVInWiY4KDknVOzK57uWGc0=", "properties": {"ref": "109 3RD ST NW, ROSEAU, MN 56751", "@spider": "dish", "addr:full": "109 3RD ST NW, ROSEAU, MN 56751", "name": "FRANKS TV REPAIR", "brand": "Dish", "brand:wikidata": "Q1199757"}, "geometry": {"type": "Point", "coordinates": [-95.763645, 48.8483166]}},
{"type": "Feature", "id": "2nQo3s13JINOJDgYOF3suoK5DNI=", "properties": {"ref": "1300 9TH AVE SE, WATERTOWN, SD 57201", "@spider": "dish", "addr:full": "1300 9TH AVE SE, WATERTOWN, SD 57201", "name": "DAKOTA SATELLITE LLC", "brand": "Dish", "brand:wikidata": "Q1199757"}, "geometry": {"type": "Point", "coordinates": [-97.0964298, 44.8874902]}},
{"type": "Feature", "id": "H6Wx7uRKzjNA72yVnQmZs1LjXNY=", "properties": {"ref": "11013 US HWY 212, BELLE FOURCHE, SD 57717", "@spider": "dish", "addr:full": "11013 US HWY 212, BELLE FOURCHE, SD 57717", "name": "PRIME ENTERTAINMENT COMMUNICATIONS", "brand": "Dish", "brand:wikidata": "Q1199757"}, "geometry": {"type": "Point", "coordinates": [-103.8472864, 44.6807837]}},
{"type": "Feature", "id": "8G0hlZ26B9bE0SiCd4wTgFKPLgU=", "properties": {"ref": "103 N OTTER AVE, PARKERS PRAIRIE, MN 56361", "@spider": "dish", "addr:full": "103 N OTTER AVE, PARKERS PRAIRIE, MN 56361", "name": "AW COMMUNICATIONS", "brand": "Dish", "brand:wikidata": "Q1199757"}, "geometry": {"type": "Point", "coordinates": [-95.3287452, 46.1536639]}},
{"type": "Feature", "id": "N1bn38SoWnNoWMZ_Rbx4F5bhacs=", "properties": {"ref": "1230 US 10 E, STAPLES, MN 56479", "@spider": "dish", "addr:full": "1230 US 10 E, STAPLES, MN 56479", "name": "DESIGN ELECTRONICS LLC", "brand": "Dish", "brand:wikidata": "Q1199757"}, "geometry": {"type": "Point", "coordinates": [-94.803125, 46.3507944]}},
{"type": "Feature", "id": "JsxRn2THqXpzksPmHV-B5AcHOi4=", "properties": {"ref": "526 MAIN AVE STE B, BROOKINGS, SD 57006", "@spider": "dish", "addr:full": "526 MAIN AVE STE B, BROOKINGS, SD 57006", "name": "B FREE WIRELESS", "brand": "Dish", "brand:wikidata": "Q1199757"}, "geometry": {"type": "Point", "coordinates": [-96.7980523, 44.3113566]}},
{"type": "Feature", "id": "U2w9UeyXNeR0pWxQOVklT4kPhYA=", "properties": {"ref": "728 COMMERCE RD, LONG PRAIRIE, MN 56347", "@spider": "dish", "addr:full": "728 COMMERCE RD, LONG PRAIRIE, MN 56347", "name": "DESIGN ELECTRONICS LLC", "brand": "Dish", "brand:wikidata": "Q1199757"}, "geometry": {"type": "Point", "coordinates": [-94.8649558, 45.9615696]}},
{"type": "Feature", "id": "gj-cdrIUMuA8d0g7i1D8Ie_AR64=", "properties": {"ref": "1614 1ST AVE NE, LITTLE FALLS, MN 56345", "@spider": "dish", "addr:full": "1614 1ST AVE NE, LITTLE FALLS, MN 56345", "name": "DESIGN ELECTRONICS LLC", "brand": "Dish", "brand:wikidata": "Q1199757"}, "geometry": {"type": "Point", "coordinates": [-94.3363523, 45.9748427]}},
{"type": "Feature", "id": "txcm0NYAssP1Zzcvveuu73PL0XA=", "properties": {"ref": "20 N BENTON DR, SAUK RAPIDS, MN 56379", "@spider": "dish", "addr:full": "20 N BENTON DR, SAUK RAPIDS, MN 56379", "name": "MINNESOTA ELECTRONICS", "brand": "Dish", "brand:wikidata": "Q1199757"}, "geometry": {"type": "Point", "coordinates": [-94.1667502, 45.5898788]}},
{"type": "Feature", "id": "XIIk2oKGg64PrH7bJSp8YPni88Y=", "properties": {"ref": "5111 W 12TH ST STE 108, SIOUX FALLS, SD 57106", "@spider": "dish", "addr:full": "5111 W 12TH ST STE 108, SIOUX FALLS, SD 57106", "name": "PRO SATELLITE", "brand": "Dish", "brand:wikidata": "Q1199757"}, "geometry": {"type": "Point", "coordinates": [-96.7888582, 43.54346]}},
{"type": "Feature", "id": "BFyi2ehgBbdl_BQKEad_xLh8EfQ=", "properties": {"ref": "38 S 1ST ST E, MALTA, MT 59538", "@spider": "dish", "addr:full": "38 S 1ST ST E, MALTA, MT 59538", "name": "TODDS TECHNOLOGY STORE INC", "brand": "Dish", "brand:wikidata": "Q1199757"}, "geometry": {"type": "Point", "coordinates": [-107.873024, 48.359324]}},
{"type": "Feature", "id": "dbVl2bTJMPpWdolIWfIElVJhRIM=", "properties": {"ref": "106 W BROADWAY ST, MONTICELLO, MN 55362", "@spider": "dish", "addr:full": "106 W BROADWAY ST, MONTICELLO, MN 55362", "name": "STARGATE SATELLITE", "brand": "Dish", "brand:wikidata": "Q1199757"}, "geometry": {"type": "Point", "coordinates": [-93.7941897, 45.3054852]}},
{"type": "Feature", "id": "UKxtslNNiHdHlu_k1o8I5jRm1aY=", "properties": {"ref": "1710 LINCOLN AVE STE E, SPIRIT LAKE, IA 51360", "@spider": "dish", "addr:full": "1710 LINCOLN AVE STE E, SPIRIT LAKE, IA 51360", "name": "OKOBOJI WIRELESS", "brand": "Dish", "brand:wikidata": "Q1199757"}, "geometry": {"type": "Point", "coordinates": [-95.1076267, 43.4229134]}},
{"type": "Feature", "id": "ZjNfKaYG-4Bot4w-48woHy3cMrg=", "properties": {"ref": "301 E 3RD ST, ALLIANCE, NE 69301", "@spider": "dish", "addr:full": "301 E 3RD ST, ALLIANCE, NE 69301", "name": "VIAERO WIRELESS", "brand": "Dish", "brand:wikidata": "Q1199757"}, "geometry": {"type": "Point", "coordinates": [-102.8674155, 42.0968863]}},
{"type": "Feature", "id": "GLgi0kStZ8c68B3poGCmfgPqKac=", "properties": {"ref": "2822 AVE I, SCOTTSBLUFF, NE 69361", "@spider": "dish", "addr:full": "2822 AVE I, SCOTTSBLUFF, NE 69361", "name": "VIAERO WIRELESS", "brand": "Dish", "brand:wikidata": "Q1199757"}, "geometry": {"type": "Point", "coordinates": [-103.6760268, 41.8754999]}},
{"type": "Feature", "id": "L77VqcM-qcXvxvdUtsTpzCRyKRg=", "properties": {"ref": "209 11TH ST NE, AUSTIN, MN 55912", "@spider": "dish", "addr:full": "209 11TH ST NE, AUSTIN, MN 55912", "name": "NEW DIMENSIONS HOME ELECTRONICS", "brand": "Dish", "brand:wikidata": "Q1199757"}, "geometry": {"type": "Point", "coordinates": [-92.959814, 43.66802]}},
{"type": "Feature", "id": "6VG03mXnRxjBXeQWa4dLSMkmf4Y=", "properties": {"ref": "3582 TECHNOLOGY DR NW, ROCHESTER, MN 55901", "@spider": "dish", "addr:full": "3582 TECHNOLOGY DR NW, ROCHESTER, MN 55901", "name": "PACE INTERNATIONAL", "brand": "Dish", "brand:wikidata": "Q1199757"}, "geometry": {"type": "Point", "coordinates": [-92.5168534, 44.0513114]}},
{"type": "Feature", "id": "mLtO2j3D2bnfAJYCDTAsZ54C8ho=", "properties": {"ref": "106 S INTEROCEAN DRIVE, HOLYOKE, CO 80734", "@spider": "dish", "addr:full": "106 S INTEROCEAN DRIVE, HOLYOKE, CO 80734", "name": "VIAERO WIRELESS", "brand": "Dish", "brand:wikidata": "Q1199757"}, "geometry": {"type": "Point", "coordinates": [-102.3026824, 40.5853972]}},
{"type": "Feature", "id": "5dnVta723AimTYVaXM0ByRgAenQ=", "properties": {"ref": "111 E 8TH AVE, CHEYENNE, WY 82001", "@spider": "dish", "addr:full": "111 E 8TH AVE, CHEYENNE, WY 82001", "name": "YEOMAN ELECTRONICS", "brand": "Dish", "brand:wikidata": "Q1199757"}, "geometry": {"type": "Point", "coordinates": [-104.8216359, 41.1528246]}},
{"type": "Feature", "id": "Y28IoWmYQawDXnurrj9REQj6nG8=", "properties": {"ref": "2112 LAUWILIWILI ST 109G, KAPOLEI, HI 96707", "@spider": "dish", "addr:full": "2112 LAUWILIWILI ST 109G, KAPOLEI, HI 96707", "name": "MICROCOM", "brand": "Dish", "brand:wikidata": "Q1199757"}, "geometry": {"type": "Point", "coordinates": [-158.0887853, 21.3198492]}},
{"type": "Feature", "id": "Tur8mnZ-dkR56mRjuW6qqpvndV8=", "properties": {"ref": "74-5583 LUHIA ST STE A-6, KAILUA KONA, HI 96740", "@spider": "dish", "addr:full": "74-5583 LUHIA ST STE A-6, KAILUA KONA, HI 96740", "name": "MICROCOM", "brand": "Dish", "brand:wikidata": "Q1199757"}, "geometry": {"type": "Point", "coordinates": [-155.9985376, 19.6477425]}},
{"type": "Feature", "id": "uZsT7RwRg0COBlqdPlW8rPcP-fU=", "properties": {"ref": "111 E PUAINAKO ST, HILO, HI 96720", "@spider": "dish", "addr:full": "111 E PUAINAKO ST, HILO, HI 96720", "name": "PRINCE KUHIO PLAZA-MICROCOM", "brand": "Dish", "brand:wikidata": "Q1199757"}, "geometry": {"type": "Point", "coordinates": [-155.0633309, 19.697369]}},
{"type": "Feature", "id": "tCeOM7AaQD9MubPjeccCsTpXJvI=", "properties": {"ref": "94-155 LEOOLE ST STE 404, WAIPAHU, HI 96797", "@spider": "dish", "addr:full": "94-155 LEOOLE ST STE 404, WAIPAHU, HI 96797", "name": "SATELLITE GUY INC", "brand": "Dish", "brand:wikidata": "Q1199757"}, "geometry": {"type": "Point", "coordinates": [-158.0219474, 21.3762132]}},
{"type": "Feature", "id": "0Jctg5uB6JZNo7318sPWl66htqU=", "properties": {"ref": "16-180 MIKAHALA PL, KEAAU, HI 96749", "@spider": "dish", "addr:full": "16-180 MIKAHALA PL, KEAAU, HI 96749", "name": "BIG ISLAND SATELLITE", "brand": "Dish", "brand:wikidata": "Q1199757"}, "geometry": {"type": "Point", "coordinates": [-155.0532253, 19.6362315]}},
{"type": "Feature", "id": "sOnpyqrez20Tlq-G60obRglFJS8=", "properties": {"ref": "2545 E 17TH ST, IDAHO FALLS, ID 83406", "@spider": "dish", "addr:full": "2545 E 17TH ST, IDAHO FALLS, ID 83406", "name": "BIG DOG STORE HOLDINGS LLC", "brand": "Dish", "brand:wikidata": "Q1199757"}, "geometry": {"type": "Point", "coordinates": [-111.9829129, 43.4827214]}},
{"type": "Feature", "id": "Gqz1tnACHtwkjhKtn5lnDxSOktQ=", "properties": {"ref": "1655 NORTH MAIN, LOGAN, UT 84341", "@spider": "dish", "addr:full": "1655 NORTH MAIN, LOGAN, UT 84341", "name": "LYNNS AUDIO VIDEO INC", "brand": "Dish", "brand:wikidata": "Q1199757"}, "geometry": {"type": "Point", "coordinates": [-111.8351122, 41.7625636]}},
{"type": "Feature", "id": "sHhwuU_CEcD5WErHCAg_u52gZqw=", "properties": {"ref": "1750 NORTH AVE, GRAND JUNCTION, CO 81504", "@spider": "dish", "addr:full": "1750 NORTH AVE, GRAND JUNCTION, CO 81504", "name": "BIG DOG STORE HOLDINGS LLC", "brand": "Dish", "brand:wikidata": "Q1199757"}, "geometry": {"type": "Point", "coordinates": [-108.5441066, 39.0777634]}},
{"type": "Feature", "id": "64YHkApnquWCIyXkxRffDXTdDwk=", "properties": {"ref": "1310 YELLOWSTONE AVE, POCATELLO, ID 83201", "@spider": "dish", "addr:full": "1310 YELLOWSTONE AVE, POCATELLO, ID 83201", "name": "BIG DOG STORE HOLDINGS LLC", "brand": "Dish", "brand:wikidata": "Q1199757"}, "geometry": {"type": "Point", "coordinates": [-112.4508715, 42.8987897]}},
{"type": "Feature", "id": "aWzpc_Ipw0-0F6COMFUvTB5Q8lg=", "properties": {"ref": "705 N 1000 W STE 14, CENTERVILLE, UT 84014", "@spider": "dish", "addr:full": "705 N 1000 W STE 14, CENTERVILLE, UT 84014", "name": "DON LORS ELECTRONICS ", "brand": "Dish", "brand:wikidata": "Q1199757"}, "geometry": {"type": "Point", "coordinates": [-111.89277, 40.9250591]}},
{"type": "Feature", "id": "hFEYog12UVCGQx1-7xSDsdhhg5E=", "properties": {"ref": "4525 E PLATTE AVE, COLORADO SPRINGS, CO 80915", "@spider": "dish", "addr:full": "4525 E PLATTE AVE, COLORADO SPRINGS, CO 80915", "name": "DON LORS ELECTRONICS", "brand": "Dish", "brand:wikidata": "Q1199757"}, "geometry": {"type": "Point", "coordinates": [-104.744067, 38.8386799]}},
{"type": "Feature", "id": "drlR2Ef4Q3CjiKUgVB1lkraYXJA=", "properties": {"ref": "8034 S STATE ST, MIDVALE, UT 84047", "@spider": "dish", "addr:full": "8034 S STATE ST, MIDVALE, UT 84047", "name": "THE DISH PROFESSIONALS", "brand": "Dish", "brand:wikidata": "Q1199757"}, "geometry": {"type": "Point", "coordinates": [-111.8911165, 40.6052324]}},
{"type": "Feature", "id": "6XeTZ8d851-srY9PZ5ZkxG7j3CQ=", "properties": {"ref": "2400 E MAIN ST, MONTROSE, CO 81401", "@spider": "dish", "addr:full": "2400 E MAIN ST, MONTROSE, CO 81401", "name": "MICROCOM", "brand": "Dish", "brand:wikidata": "Q1199757"}, "geometry": {"type": "Point", "coordinates": [-107.8482517, 38.48816]}},
{"type": "Feature", "id": "Xe39k3NaZu3oPfQqaeW7SyoVTks=", "properties": {"ref": "131 N MAIN, TOOELE, UT 84074", "@spider": "dish", "addr:full": "131 N MAIN, TOOELE, UT 84074", "name": "EXTREME SATELLITES INC", "brand": "Dish", "brand:wikidata": "Q1199757"}, "geometry": {"type": "Point", "coordinates": [-112.2987778, 40.5329752]}},
{"type": "Feature", "id": "jL9J-Oc3Gt6IYU0OaKAYrmdS3tM=", "properties": {"ref": "2905 N MONTANA AVE STE 104, HELENA, MT 59601", "@spider": "dish", "addr:full": "2905 N MONTANA AVE STE 104, HELENA, MT 59601", "name": "DIGITAL ENTERTAINMENT SOLUTIONS", "brand": "Dish", "brand:wikidata": "Q1199757"}, "geometry": {"type": "Point", "coordinates": [-112.0201636, 46.6135148]}},
{"type": "Feature", "id": "lpWGHLPBW_HrwohwQyTjGbAcHn0=", "properties": {"ref": "1730 KIMBERLY RD, TWIN FALLS, ID 83301", "@spider": "dish", "addr:full": "1730 KIMBERLY RD, TWIN FALLS, ID 83301", "name": "QUALE'S ELECTRONICS", "brand": "Dish", "brand:wikidata": "Q1199757"}, "geometry": {"type": "Point", "coordinates": [-114.4520741, 42.5478051]}},
{"type": "Feature", "id": "cVPXTWqgPHdUNbOyqagdkWKp0AQ=", "properties": {"ref": "2347 SOUTH AVE W, MISSOULA, MT 59801", "@spider": "dish", "addr:full": "2347 SOUTH AVE W, MISSOULA, MT 59801", "name": "DISCOUNT DIGITAL", "brand": "Dish", "brand:wikidata": "Q1199757"}, "geometry": {"type": "Point", "coordinates": [-114.0365817, 46.848587]}},
{"type": "Feature", "id": "lkBQ5fI5qi8T8pRf9AX1uzYkEHY=", "properties": {"ref": "445 HWY 55, HORSESHOE BEND, ID 83629", "@spider": "dish", "addr:full": "445 HWY 55, HORSESHOE BEND, ID 83629", "name": "LINDSEY SATELLITE", "brand": "Dish", "brand:wikidata": "Q1199757"}, "geometry": {"type": "Point", "coordinates": [-116.197652, 43.91493]}},
{"type": "Feature", "id": "WdieHMhIipq_umYaIQuR5IpseF8=", "properties": {"ref": "411 CALDWELL BLVD, NAMPA, ID 83651", "@spider": "dish", "addr:full": "411 CALDWELL BLVD, NAMPA, ID 83651", "name": "ADVANCED WIRELESS INC", "brand": "Dish", "brand:wikidata": "Q1199757"}, "geometry": {"type": "Point", "coordinates": [-116.5842827, 43.5922863]}},
{"type": "Feature", "id": "pEjgPGlIRXCV6cSnr8YOSEqEBn8=", "properties": {"ref": "7995 HWY 35, BIGFORK, MT 59911", "@spider": "dish", "addr:full": "7995 HWY 35, BIGFORK, MT 59911", "name": "BURTONS SATELLITE INC", "brand": "Dish", "brand:wikidata": "Q1199757"}, "geometry": {"type": "Point", "coordinates": [-114.0781679, 48.0771772]}},
{"type": "Feature", "id": "3nVqmcW7Swl_Il2emeRqoSAD9zo=", "properties": {"ref": "1224 W PLATTE AVE, FORT MORGAN, CO 80701", "@spider": "dish", "addr:full": "1224 W PLATTE AVE, FORT MORGAN, CO 80701", "name": "VIAERO WIRELESS", "brand": "Dish", "brand:wikidata": "Q1199757"}, "geometry": {"type": "Point", "coordinates": [-103.8161469, 40.2530865]}},
{"type": "Feature", "id": "cbvMoFfni6bmLvWzq9f6DdyZweM=", "properties": {"ref": "1250 S BUCKLEY RD STE I154, AURORA, CO 80017", "@spider": "dish", "addr:full": "1250 S BUCKLEY RD STE I154, AURORA, CO 80017", "name": "EAGLE AV LLC", "brand": "Dish", "brand:wikidata": "Q1199757"}, "geometry": {"type": "Point", "coordinates": [-104.7894253, 39.6938408]}},
{"type": "Feature", "id": "jqqaqlhbDZacN1qc-xkwyEHyqS0=", "properties": {"ref": "15 S MAIN ST, PROVIDENCE , UT 84332", "@spider": "dish", "addr:full": "15 S MAIN ST, PROVIDENCE , UT 84332", "name": "KELLY ELECTRONICS INC", "brand": "Dish", "brand:wikidata": "Q1199757"}, "geometry": {"type": "Point", "coordinates": [-111.818222, 41.7074131]}},
{"type": "Feature", "id": "1ZNRpDZuQqxgF8F4WnFkM61gTRY=", "properties": {"ref": "360 W JUDICIAL ST, BLACKFOOT, ID 83221", "@spider": "dish", "addr:full": "360 W JUDICIAL ST, BLACKFOOT, ID 83221", "name": "WINKLER TV", "brand": "Dish", "brand:wikidata": "Q1199757"}, "geometry": {"type": "Point", "coordinates": [-112.3495619, 43.1899913]}},
{"type": "Feature", "id": "S8aiIk6QE44g4qvXksXxabh6J4Q=", "properties": {"ref": "2924 NORTH AVE, GRAND JUNCTION, CO 81504", "@spider": "dish", "addr:full": "2924 NORTH AVE, GRAND JUNCTION, CO 81504", "name": "SATELLITE TV SUPERMARKET", "brand": "Dish", "brand:wikidata": "Q1199757"}, "geometry": {"type": "Point", "coordinates": [-108.5108147, 39.0775503]}},
{"type": "Feature", "id": "wSFKO3mIyWbAe63A3KJaeyXIKiA=", "properties": {"ref": "221 E 8TH AVE, YUMA, CO 80759", "@spider": "dish", "addr:full": "221 E 8TH AVE, YUMA, CO 80759", "name": "VIAERO WIRELESS", "brand": "Dish", "brand:wikidata": "Q1199757"}, "geometry": {"type": "Point", "coordinates": [-102.7217266, 40.1183233]}},
{"type": "Feature", "id": "sN_gNOX6eJVr4pwivbjHWH-GLGg=", "properties": {"ref": "34 E 200 N, KAYSVILLE, UT 84037", "@spider": "dish", "addr:full": "34 E 200 N, KAYSVILLE, UT 84037", "name": "SUNRISE SATELLITE INC", "brand": "Dish", "brand:wikidata": "Q1199757"}, "geometry": {"type": "Point", "coordinates": [-111.9377986, 41.0378919]}},
{"type": "Feature", "id": "p-2-7e1K2bL4cXGZ6vkIhDXZVj4=", "properties": {"ref": "9312 S 700 E, SANDY, UT 84070", "@spider": "dish", "addr:full": "9312 S 700 E, SANDY, UT 84070", "name": "4K SATELLITE LLC", "brand": "Dish", "brand:wikidata": "Q1199757"}, "geometry": {"type": "Point", "coordinates": [-111.8736848, 40.5823035]}},
{"type": "Feature", "id": "qh2gAtVTYrhI0F4UHcI_ad_rKks=", "properties": {"ref": "2601 N CANYON RD STE 101, PROVO, UT 84604", "@spider": "dish", "addr:full": "2601 N CANYON RD STE 101, PROVO, UT 84604", "name": "DISH ONE SATELLITE LLC", "brand": "Dish", "brand:wikidata": "Q1199757"}, "geometry": {"type": "Point", "coordinates": [-111.655725, 40.2682377]}},
{"type": "Feature", "id": "SQHokbviP5NnfWb3LrUJk9r86So=", "properties": {"ref": "601 E FRONT ST, BUTTE, MT 59701", "@spider": "dish", "addr:full": "601 E FRONT ST, BUTTE, MT 59701", "name": "EAGLE SATELLITE OF BUTTE INC", "brand": "Dish", "brand:wikidata": "Q1199757"}, "geometry": {"type": "Point", "coordinates": [-112.5289493, 46.0008409]}},
{"type": "Feature", "id": "9eN5q7EHXldLMr6uYSrOhk6smEg=", "properties": {"ref": "3453 STATE HWY 434, ANGEL FIRE, NM 87710", "@spider": "dish", "addr:full": "3453 STATE HWY 434, ANGEL FIRE, NM 87710", "name": "GOODNIGHT SATELLITE LLC", "brand": "Dish", "brand:wikidata": "Q1199757"}, "geometry": {"type": "Point", "coordinates": [-105.2897499, 36.402384]}},
{"type": "Feature", "id": "DnhVxQF9cXJj9j6egqIKJ2_x6KI=", "properties": {"ref": "138 E 4TH ST, SUPERIOR, NE 68978", "@spider": "dish", "addr:full": "138 E 4TH ST, SUPERIOR, NE 68978", "name": "SISCO", "brand": "Dish", "brand:wikidata": "Q1199757"}, "geometry": {"type": "Point", "coordinates": [-98.0704874, 40.0201392]}},
{"type": "Feature", "id": "kG2X86TEvYDLb6XFwmTmKXwPNrs=", "properties": {"ref": "2659 HWY 75 , WETUMKA, OK 74883", "@spider": "dish", "addr:full": "2659 HWY 75 , WETUMKA, OK 74883", "name": "MCCOYS SATELLITES", "brand": "Dish", "brand:wikidata": "Q1199757"}, "geometry": {"type": "Point", "coordinates": [-96.2484016, 35.1805355]}},
{"type": "Feature", "id": "Ib_i3E-XAVibVMqizXrnrKreVRc=", "properties": {"ref": "301 S MAIN ST, NASHVILLE, AR 71852", "@spider": "dish", "addr:full": "301 S MAIN ST, NASHVILLE, AR 71852", "name": "SATELLITE SERVICE COMPANY", "brand": "Dish", "brand:wikidata": "Q1199757"}, "geometry": {"type": "Point", "coordinates": [-93.8468229, 33.9412167]}},
{"type": "Feature", "id": "RIjTA5hvU2zIfiPL-_59WB2jITY=", "properties": {"ref": "2144 WEST ALBANY ST, BROKEN ARROW, OK 74012", "@spider": "dish", "addr:full": "2144 WEST ALBANY ST, BROKEN ARROW, OK 74012", "name": "GRAVES SATELLITE", "brand": "Dish", "brand:wikidata": "Q1199757"}, "geometry": {"type": "Point", "coordinates": [-95.8140002, 36.0758451]}},
{"type": "Feature", "id": "O6D7xm_lXp-NMrmXl9zbZPHzOv4=", "properties": {"ref": "6202 TEXOMA PKWY, SHERMAN, TX 75090", "@spider": "dish", "addr:full": "6202 TEXOMA PKWY, SHERMAN, TX 75090", "name": "CAVENDER HOME THEATER LLC", "brand": "Dish", "brand:wikidata": "Q1199757"}, "geometry": {"type": "Point", "coordinates": [-96.5742815, 33.6986638]}},
{"type": "Feature", "id": "WUJ8juBpWoPQeILW8XpjGpeNFHM=", "properties": {"ref": "8500 PHOENIX AVE, FORT SMITH, AR 72903", "@spider": "dish", "addr:full": "8500 PHOENIX AVE, FORT SMITH, AR 72903", "name": "WOW WORLD OF WIRELESS", "brand": "Dish", "brand:wikidata": "Q1199757"}, "geometry": {"type": "Point", "coordinates": [-94.3375321, 35.3462068]}},
{"type": "Feature", "id": "FGQ3-fGQmJ7zrOkP0yVv9jjw6IE=", "properties": {"ref": "4301 REGIONS PARK DR, FORT SMITH, AR 72916", "@spider": "dish", "addr:full": "4301 REGIONS PARK DR, FORT SMITH, AR 72916", "name": "WOW WORLD OF WIRELESS", "brand": "Dish", "brand:wikidata": "Q1199757"}, "geometry": {"type": "Point", "coordinates": [-94.386172, 35.325853]}},
{"type": "Feature", "id": "DaqyaV8MACeTEI1hWNv1ioYbLTM=", "properties": {"ref": "5405 E CENTRAL AVE , WICHITA, KS 67208", "@spider": "dish", "addr:full": "5405 E CENTRAL AVE , WICHITA, KS 67208", "name": "ADVANCED SATELLITES", "brand": "Dish", "brand:wikidata": "Q1199757"}, "geometry": {"type": "Point", "coordinates": [-97.273386, 37.693491]}},
{"type": "Feature", "id": "XqfvnAYpqqZFq9RrU7ScIB0b1Wc=", "properties": {"ref": "2270 NE LOOP 286, PARIS, TX 75460", "@spider": "dish", "addr:full": "2270 NE LOOP 286, PARIS, TX 75460", "name": "LAMAR SATELLITE", "brand": "Dish", "brand:wikidata": "Q1199757"}, "geometry": {"type": "Point", "coordinates": [-95.5320161, 33.676402]}},
{"type": "Feature", "id": "X6rppm4sXmwYLQisTzzg6uLlPmc=", "properties": {"ref": "8362 HWY 165, POLLOCK, LA 71467", "@spider": "dish", "addr:full": "8362 HWY 165, POLLOCK, LA 71467", "name": "SATELLITE COUNTRY", "brand": "Dish", "brand:wikidata": "Q1199757"}, "geometry": {"type": "Point", "coordinates": [-92.4102876, 31.4457129]}},
{"type": "Feature", "id": "cnEUKX4oz1q6z7eNhogH-7poF04=", "properties": {"ref": "420 RANGELINE RD STE 16, JOPLIN, MO 64801", "@spider": "dish", "addr:full": "420 RANGELINE RD STE 16, JOPLIN, MO 64801", "name": "WIRELESS CONNECTIONS", "brand": "Dish", "brand:wikidata": "Q1199757"}, "geometry": {"type": "Point", "coordinates": [-94.4778033, 37.0955676]}},
{"type": "Feature", "id": "WZFk3DQcaYpHKyyA6_IIEFxOa9o=", "properties": {"ref": "1442 4TH ST, GRAHAM, TX 76450", "@spider": "dish", "addr:full": "1442 4TH ST, GRAHAM, TX 76450", "name": "THE MOVIE STORE", "brand": "Dish", "brand:wikidata": "Q1199757"}, "geometry": {"type": "Point", "coordinates": [-98.5693275, 33.1071016]}},
{"type": "Feature", "id": "oH2gGEl0EDyc2ScZn14D6YSNIUU=", "properties": {"ref": "801 AVE K STE 2, PLANO, TX 75074", "@spider": "dish", "addr:full": "801 AVE K STE 2, PLANO, TX 75074", "name": "SINGLE SOURCE SATELLITE", "brand": "Dish", "brand:wikidata": "Q1199757"}, "geometry": {"type": "Point", "coordinates": [-96.6997799, 33.0097869]}},
{"type": "Feature", "id": "825jYAVJksHEcrOud2wBjRr5cRE=", "properties": {"ref": "3306 HWY 28 E STE F, PINEVILLE, LA 71360", "@spider": "dish", "addr:full": "3306 HWY 28 E STE F, PINEVILLE, LA 71360", "name": "UNIVERSAL SATELLITE SALES AND SERVICE", "brand": "Dish", "brand:wikidata": "Q1199757"}, "geometry": {"type": "Point", "coordinates": [-92.3898861, 31.333041]}},
{"type": "Feature", "id": "8lPMroEpPKqQNMhYmotVpIo6mgA=", "properties": {"ref": "1925 N YOUNG BLVD, CHIEFLAND, FL 32626", "@spider": "dish", "addr:full": "1925 N YOUNG BLVD, CHIEFLAND, FL 32626", "name": "SAS ELECTRONICS", "brand": "Dish", "brand:wikidata": "Q1199757"}, "geometry": {"type": "Point", "coordinates": [-82.8683949, 29.4978049]}},
{"type": "Feature", "id": "S-IBVdL8JIOE-Zh-LkSsX6K3S8k=", "properties": {"ref": "518 HOUSTON ST STE B, WILLS POINT, TX 75169", "@spider": "dish", "addr:full": "518 HOUSTON ST STE B, WILLS POINT, TX 75169", "name": "YOUNG IDEAS", "brand": "Dish", "brand:wikidata": "Q1199757"}, "geometry": {"type": "Point", "coordinates": [-96.0029451, 32.7063614]}},
{"type": "Feature", "id": "xm5u4nSTzBdwv9l73jFg94_dHbU=", "properties": {"ref": "302 W CRAWFORD ST, SALINA, KS 67401", "@spider": "dish", "addr:full": "302 W CRAWFORD ST, SALINA, KS 67401", "name": "ADVANCED SATELLITES", "brand": "Dish", "brand:wikidata": "Q1199757"}},
{"type": "Feature", "id": "i4_54QalXi6HJYd3f8iR5TFrl6Q=", "properties": {"ref": "103 LACOSTA ST, ATHENS, TX 75751", "@spider": "dish", "addr:full": "103 LACOSTA ST, ATHENS, TX 75751", "name": "KERRY HARRIS SATELLITE SERVICE", "brand": "Dish", "brand:wikidata": "Q1199757"}, "geometry": {"type": "Point", "coordinates": [-95.8510245, 32.1892068]}},
{"type": "Feature", "id": "o13z6Wg3d70HEooaZgX9Y8rLhPg=", "properties": {"ref": "1020 SW WANAMAKER RD, TOPEKA, KS 66604", "@spider": "dish", "addr:full": "1020 SW WANAMAKER RD, TOPEKA, KS 66604", "name": "SKY COM INC", "brand": "Dish", "brand:wikidata": "Q1199757"}, "geometry": {"type": "Point", "coordinates": [-95.7612744, 39.0501864]}},
{"type": "Feature", "id": "PXBeIjopnXleEW8YwkWyfgxpFC4=", "properties": {"ref": "2221 N MCKENZIE ST, FOLEY, AL 36535", "@spider": "dish", "addr:full": "2221 N MCKENZIE ST, FOLEY, AL 36535", "name": "SUNSHINE SATELLITES INC", "brand": "Dish", "brand:wikidata": "Q1199757"}, "geometry": {"type": "Point", "coordinates": [-87.6837078, 30.4328221]}},
{"type": "Feature", "id": "_WVscZhGSHruzusLThSRYlzCoGM=", "properties": {"ref": "2116 DELAWARE, LAWRENCE, KS 66046", "@spider": "dish", "addr:full": "2116 DELAWARE, LAWRENCE, KS 66046", "name": "BLUE SKY SATELLITE SERVICES INC", "brand": "Dish", "brand:wikidata": "Q1199757"}, "geometry": {"type": "Point", "coordinates": [-95.2283601, 38.9457861]}},
{"type": "Feature", "id": "nM7Jq-qUmTBAC3vlRYVqaYnvTTQ=", "properties": {"ref": "1215 EAST MARSHALL AVE, STE C, LONGVIEW, TX 75601", "@spider": "dish", "addr:full": "1215 EAST MARSHALL AVE, STE C, LONGVIEW, TX 75601", "name": "SOLIS SATELLITE & COMMUNICATIONS", "brand": "Dish", "brand:wikidata": "Q1199757"}, "geometry": {"type": "Point", "coordinates": [-94.7235594, 32.5036703]}},
{"type": "Feature", "id": "8JhjihB9GptH7BTJhONBUENTugg=", "properties": {"ref": "107 FERGUSON RD, PALESTINE, TX 75803", "@spider": "dish", "addr:full": "107 FERGUSON RD, PALESTINE, TX 75803", "name": "SATELLITE SOURCE LLC", "brand": "Dish", "brand:wikidata": "Q1199757"}, "geometry": {"type": "Point", "coordinates": [-95.6609341, 31.7402558]}},
{"type": "Feature", "id": "bsnCtDYkv6wCacmXRpxNqaGBJo4=", "properties": {"ref": "24028 ROAD 514, SAUCIER, MS 39574", "@spider": "dish", "addr:full": "24028 ROAD 514, SAUCIER, MS 39574", "name": "AMERICAN RURAL SATELLITE INC", "brand": "Dish", "brand:wikidata": "Q1199757"}, "geometry": {"type": "Point", "coordinates": [-89.1304571, 30.6333429]}},
{"type": "Feature", "id": "vkTW2MOCDEu5I7qfc6bxRYov0Bg=", "properties": {"ref": "1319 NORTH VIENNA ST, RUSTON, LA 71270", "@spider": "dish", "addr:full": "1319 NORTH VIENNA ST, RUSTON, LA 71270", "name": "TOTALLY UNWIRED", "brand": "Dish", "brand:wikidata": "Q1199757"}, "geometry": {"type": "Point", "coordinates": [-92.6388958, 32.5422674]}},
{"type": "Feature", "id": "3P1wQITqfQrT2jJ8CLcJ5qEg2b0=", "properties": {"ref": "129 SOUTH MAIN, MULESHOE, TX 79347", "@spider": "dish", "addr:full": "129 SOUTH MAIN, MULESHOE, TX 79347", "name": "ACE SATELLITE", "brand": "Dish", "brand:wikidata": "Q1199757"}, "geometry": {"type": "Point", "coordinates": [-102.7231631, 34.2248195]}},
{"type": "Feature", "id": "oQXS32O4maotaU-6hjjcOBkv_lY=", "properties": {"ref": "100 W CHAMBERLAIN ST, KINGSLAND, TX 78639", "@spider": "dish", "addr:full": "100 W CHAMBERLAIN ST, KINGSLAND, TX 78639", "name": "SATELLITE STATION FIRE & SECURITY", "brand": "Dish", "brand:wikidata": "Q1199757"}, "geometry": {"type": "Point", "coordinates": [-98.4365225, 30.6590427]}},
{"type": "Feature", "id": "8RD1DISjt96-MFkVO8cLu4llbbA=", "properties": {"ref": "416 SOUTH ROBB, TRINITY, TX 75862", "@spider": "dish", "addr:full": "416 SOUTH ROBB, TRINITY, TX 75862", "name": "TRINITY CUSTOM SATELLITE", "brand": "Dish", "brand:wikidata": "Q1199757"}, "geometry": {"type": "Point", "coordinates": [-95.3754504, 30.9391673]}},
{"type": "Feature", "id": "AnymJp9qBhp_qXDOcbaTDgQvhf4=", "properties": {"ref": "502 RIVERSIDE DRIVE SE, STEINHATCHEE, FL 32359", "@spider": "dish", "addr:full": "502 RIVERSIDE DRIVE SE, STEINHATCHEE, FL 32359", "name": "FIRST COAST SATELLITE", "brand": "Dish", "brand:wikidata": "Q1199757"}},
{"type": "Feature", "id": "wDKAVnZkshHEg36sik_Nasph4PE=", "properties": {"ref": "119 N 4TH ST, DE QUEEN, AR 71832", "@spider": "dish", "addr:full": "119 N 4TH ST, DE QUEEN, AR 71832", "name": "SELENAS ", "brand": "Dish", "brand:wikidata": "Q1199757"}, "geometry": {"type": "Point", "coordinates": [-94.3416821, 34.0373738]}},
{"type": "Feature", "id": "Y0SApwzUoYncVveZ3nfVHmYI78o=", "properties": {"ref": "1700 JUNCTION HWY, KERRVILLE, TX 78028", "@spider": "dish", "addr:full": "1700 JUNCTION HWY, KERRVILLE, TX 78028", "name": "AUDIO VIDEO TECHNOLOGIES", "brand": "Dish", "brand:wikidata": "Q1199757"}, "geometry": {"type": "Point", "coordinates": [-99.1794144, 30.0669281]}},
{"type": "Feature", "id": "p77s-wAQC5iHXhvlcEIgIbT4GZ4=", "properties": {"ref": "309 E 4TH ST, VILLISCA, IA 50864", "@spider": "dish", "addr:full": "309 E 4TH ST, VILLISCA, IA 50864", "name": "JOHNSTON COMMUNICATIONS LLC", "brand": "Dish", "brand:wikidata": "Q1199757"}, "geometry": {"type": "Point", "coordinates": [-94.9767302, 40.928526]}},
{"type": "Feature", "id": "zQqjLzCejucq1Hk3fjQBjtL5QT8=", "properties": {"ref": "622 NE SANTA FE BLVD, HIGH SPRINGS, FL 32643", "@spider": "dish", "addr:full": "622 NE SANTA FE BLVD, HIGH SPRINGS, FL 32643", "name": "SATELLITE CABLE SYSTEMS INC", "brand": "Dish", "brand:wikidata": "Q1199757"}, "geometry": {"type": "Point", "coordinates": [-82.5884781, 29.8234085]}},
{"type": "Feature", "id": "8I8LfFriTQyt1h5NdsBXuOKlXks=", "properties": {"ref": "2210 CORPORATE SQUARE BLVD UNIT 2, JACKSONVILLE, FL 32277", "@spider": "dish", "addr:full": "2210 CORPORATE SQUARE BLVD UNIT 2, JACKSONVILLE, FL 32277", "name": "FIRST COAST SATELLITE", "brand": "Dish", "brand:wikidata": "Q1199757"}, "geometry": {"type": "Point", "coordinates": [-81.5616565, 30.3058108]}},
{"type": "Feature", "id": "qrb8_cUwoiERwzW3BhG3H5H-rss=", "properties": {"ref": "437 5TH ST, WEST DES MOINES, IA 50265", "@spider": "dish", "addr:full": "437 5TH ST, WEST DES MOINES, IA 50265", "name": "COMUNICACIONES CRYSTAL", "brand": "Dish", "brand:wikidata": "Q1199757"}, "geometry": {"type": "Point", "coordinates": [-93.7085989, 41.5751761]}},
{"type": "Feature", "id": "fj3zyGOHXSMt8JYq-uJ7IsiCGK8=", "properties": {"ref": "2521 N LAURENT, VICTORIA, TX 77901", "@spider": "dish", "addr:full": "2521 N LAURENT, VICTORIA, TX 77901", "name": "GREGORY B SMITH DBA G & A ELECTRNIC SERVICES", "brand": "Dish", "brand:wikidata": "Q1199757"}, "geometry": {"type": "Point", "coordinates": [-96.9924823, 28.8174431]}},
{"type": "Feature", "id": "WBQxyuntGNA_dGVM0AAf7u9zkAA=", "properties": {"ref": "29 CHAPARRAL DR, SANTA FE, NM 87508", "@spider": "dish", "addr:full": "29 CHAPARRAL DR, SANTA FE, NM 87508", "name": "DIGITAL SATELLITE SYSTEMS DE SANTA FE", "brand": "Dish", "brand:wikidata": "Q1199757"}},
{"type": "Feature", "id": "HFxxwYZFcKULy3eivairdA0JaBo=", "properties": {"ref": "1451 NE 69TH PL STE 41, ANKENY, IA 50021", "@spider": "dish", "addr:full": "1451 NE 69TH PL STE 41, ANKENY, IA 50021", "name": "SATELLITE CITY INC", "brand": "Dish", "brand:wikidata": "Q1199757"}, "geometry": {"type": "Point", "coordinates": [-93.5999778, 41.6856539]}},
{"type": "Feature", "id": "JF-uQnHKzaCBHwBZC236Mz3T4N8=", "properties": {"ref": "255 ANDREW GUIDRY RD, LAFAYETTE, LA 70503", "@spider": "dish", "addr:full": "255 ANDREW GUIDRY RD, LAFAYETTE, LA 70503", "name": "SATELLITE COUNTRY", "brand": "Dish", "brand:wikidata": "Q1199757"}, "geometry": {"type": "Point", "coordinates": [-92.078681, 30.167336]}},
{"type": "Feature", "id": "4UPHRJvZXRlgb1leLxBEPUEdyEM=", "properties": {"ref": "5848 NW 50TH ST, OKLAHOMA CITY, OK 73122", "@spider": "dish", "addr:full": "5848 NW 50TH ST, OKLAHOMA CITY, OK 73122", "name": "LATINO SATELLITE LLC", "brand": "Dish", "brand:wikidata": "Q1199757"}, "geometry": {"type": "Point", "coordinates": [-97.6177326, 35.5222735]}},
{"type": "Feature", "id": "HxC2nRBQXpcupkjD71SXnueV1_I=", "properties": {"ref": "1401 SOUTH PERKINS RD, STILLWATER, OK 74074", "@spider": "dish", "addr:full": "1401 SOUTH PERKINS RD, STILLWATER, OK 74074", "name": "STAR SCAN SATELLITE SYSTEMS INC", "brand": "Dish", "brand:wikidata": "Q1199757"}, "geometry": {"type": "Point", "coordinates": [-97.0510836, 36.1068172]}},
{"type": "Feature", "id": "vkAlZnCPvDwjpqvqVwcepycesUc=", "properties": {"ref": "1008 W BROADWAY, SULPHUR, OK 73086", "@spider": "dish", "addr:full": "1008 W BROADWAY, SULPHUR, OK 73086", "name": "VIDEO MAGIC RADIO SHACK", "brand": "Dish", "brand:wikidata": "Q1199757"}, "geometry": {"type": "Point", "coordinates": [-96.9795978, 34.506781]}},
{"type": "Feature", "id": "RFYuW-CjwrgfkEavu6CgMuwsr6s=", "properties": {"ref": "1211 BROAD ST, WICHITA FALLS, TX 76301", "@spider": "dish", "addr:full": "1211 BROAD ST, WICHITA FALLS, TX 76301", "name": "DISH TV", "brand": "Dish", "brand:wikidata": "Q1199757"}, "geometry": {"type": "Point", "coordinates": [-98.4952872, 33.903286]}},
{"type": "Feature", "id": "e76H426FWvjNpk_TAma12uPPcSU=", "properties": {"ref": "901 S HWY 377, AUBREY, TX 76227", "@spider": "dish", "addr:full": "901 S HWY 377, AUBREY, TX 76227", "name": "CRAIG CONNECTIONS UNLIMITED", "brand": "Dish", "brand:wikidata": "Q1199757"}, "geometry": {"type": "Point", "coordinates": [-96.9845342, 33.2947016]}},
{"type": "Feature", "id": "4xBRyWvyGGgA6Bsq_ud84vgNYok=", "properties": {"ref": "1010 FORT WORTH DR, DENTON, TX 76205", "@spider": "dish", "addr:full": "1010 FORT WORTH DR, DENTON, TX 76205", "name": "CRAIG CONNECTIONS UNLIMITED", "brand": "Dish", "brand:wikidata": "Q1199757"}, "geometry": {"type": "Point", "coordinates": [-97.1405478, 33.194295]}},
{"type": "Feature", "id": "qOFl6vZbc3d_rJ12Fy7UduEE7_4=", "properties": {"ref": "512 N HWY 377, ARGYLE, TX 76226", "@spider": "dish", "addr:full": "512 N HWY 377, ARGYLE, TX 76226", "name": "CRAIG CONNECTIONS UNLIMITED", "brand": "Dish", "brand:wikidata": "Q1199757"}, "geometry": {"type": "Point", "coordinates": [-97.1851086, 33.1216901]}},
{"type": "Feature", "id": "uQdp0K1voaN6R8gS3CtQmf315d8=", "properties": {"ref": "1800 N GLENVILLE DR STE 136, RICHARDSON, TX 75081", "@spider": "dish", "addr:full": "1800 N GLENVILLE DR STE 136, RICHARDSON, TX 75081", "name": "CAMERA AND VIDEO CLINIC", "brand": "Dish", "brand:wikidata": "Q1199757"}, "geometry": {"type": "Point", "coordinates": [-96.7060064, 32.971919]}},
{"type": "Feature", "id": "bO2lDOPFd0AwNZhgovCXeF82KUE=", "properties": {"ref": "214 E EUCLID ST, MCPHERSON, KS 67460", "@spider": "dish", "addr:full": "214 E EUCLID ST, MCPHERSON, KS 67460", "name": "HOPPS SOUND AND ELECTRIC", "brand": "Dish", "brand:wikidata": "Q1199757"}, "geometry": {"type": "Point", "coordinates": [-97.6647186, 38.3713629]}},
{"type": "Feature", "id": "_wuCxylCS_pPn37ZWK_WVujzi2A=", "properties": {"ref": "1217 S BROADWAY ST STE A2, SULPHUR SPRINGS, TX 75482", "@spider": "dish", "addr:full": "1217 S BROADWAY ST STE A2, SULPHUR SPRINGS, TX 75482", "name": "SMARTTECH HOME SOLUTIONS LLC", "brand": "Dish", "brand:wikidata": "Q1199757"}, "geometry": {"type": "Point", "coordinates": [-95.5969739, 33.1187623]}},
{"type": "Feature", "id": "Wb0rJ8epa3Nd6GeXmg70b-Gh884=", "properties": {"ref": "7205 S COOPER STE 101, ARLINGTON, TX 76001", "@spider": "dish", "addr:full": "7205 S COOPER STE 101, ARLINGTON, TX 76001", "name": "VIDEO CITY", "brand": "Dish", "brand:wikidata": "Q1199757"}, "geometry": {"type": "Point", "coordinates": [-97.1347388, 32.6283327]}},
{"type": "Feature", "id": "ppzktr0QusYXKTfdPWh_mCJy2a8=", "properties": {"ref": "2823 10TH ST, GREAT BEND, KS 67530", "@spider": "dish", "addr:full": "2823 10TH ST, GREAT BEND, KS 67530", "name": "SATELLITE PROS", "brand": "Dish", "brand:wikidata": "Q1199757"}, "geometry": {"type": "Point", "coordinates": [-98.7777362, 38.3614644]}},
{"type": "Feature", "id": "xYF__KXq7dJhwnqxsibypVoa--A=", "properties": {"ref": "189 N TEXAS ST, EMORY, TX 75440", "@spider": "dish", "addr:full": "189 N TEXAS ST, EMORY, TX 75440", "name": "E TEX SERVICES", "brand": "Dish", "brand:wikidata": "Q1199757"}, "geometry": {"type": "Point", "coordinates": [-95.7657241, 32.8743551]}},
{"type": "Feature", "id": "nqQtY-SFbfYoPBX_ST_oR7tewnU=", "properties": {"ref": "2420 E AMARILLO BLVD STE 100, AMARILLO, TX 79107", "@spider": "dish", "addr:full": "2420 E AMARILLO BLVD STE 100, AMARILLO, TX 79107", "name": "SERVICIOS HISPANOS LLC", "brand": "Dish", "brand:wikidata": "Q1199757"}, "geometry": {"type": "Point", "coordinates": [-101.8085257, 35.2216461]}},
{"type": "Feature", "id": "D5_P5ItO9nFsS7oE3C8cW_cAcsM=", "properties": {"ref": "1777 18TH RD, CLAY CENTER, KS 67432", "@spider": "dish", "addr:full": "1777 18TH RD, CLAY CENTER, KS 67432", "name": "SOLAR AND WIND SYSTEMS SAT HDG", "brand": "Dish", "brand:wikidata": "Q1199757"}, "geometry": {"type": "Point", "coordinates": [-97.0583343, 39.380627]}},
{"type": "Feature", "id": "gIhrzFhUf9GvpLKKxCbrpVBmB-0=", "properties": {"ref": "1621 AUSTIN AVE, BROWNWOOD, TX 76801", "@spider": "dish", "addr:full": "1621 AUSTIN AVE, BROWNWOOD, TX 76801", "name": "SHAW TV", "brand": "Dish", "brand:wikidata": "Q1199757"}, "geometry": {"type": "Point", "coordinates": [-98.9751513, 31.7066478]}},
{"type": "Feature", "id": "PhIvTFLCa1CI0J_2E5uPZ06ceXk=", "properties": {"ref": "401 BROAD ST, JANSEN, NE 68377", "@spider": "dish", "addr:full": "401 BROAD ST, JANSEN, NE 68377", "name": "SMITTYS INC", "brand": "Dish", "brand:wikidata": "Q1199757"}, "geometry": {"type": "Point", "coordinates": [-97.0839789, 40.1856684]}},
{"type": "Feature", "id": "oxIg51KLw4RvZkfjjN4KX3qGTkA=", "properties": {"ref": "1007 S MARKET ST, HEARNE, TX 77859", "@spider": "dish", "addr:full": "1007 S MARKET ST, HEARNE, TX 77859", "name": "STARFIRE", "brand": "Dish", "brand:wikidata": "Q1199757"}, "geometry": {"type": "Point", "coordinates": [-96.5903306, 30.8755029]}},
{"type": "Feature", "id": "oXWZdD8Oeu8CMn7Ql-z2Nf1icFA=", "properties": {"ref": "711 N GARFIELD ST, SAN ANGELO, TX 76901", "@spider": "dish", "addr:full": "711 N GARFIELD ST, SAN ANGELO, TX 76901", "name": "SNG SATELLITE", "brand": "Dish", "brand:wikidata": "Q1199757"}, "geometry": {"type": "Point", "coordinates": [-100.4777575, 31.454213]}},
{"type": "Feature", "id": "nU4pGN4RyaFlWoJDI2s58duR2dM=", "properties": {"ref": "1909 S 1ST ST, LUFKIN, TX 75901", "@spider": "dish", "addr:full": "1909 S 1ST ST, LUFKIN, TX 75901", "name": "BIG BOYS TOYS", "brand": "Dish", "brand:wikidata": "Q1199757"}, "geometry": {"type": "Point", "coordinates": [-94.7272071, 31.313347]}},
{"type": "Feature", "id": "LkTEc5oJRBYXFaXE7q9v5i3FA_I=", "properties": {"ref": "2255 COUNTY RD 172 STE 309, ROUND ROCK, TX 78681", "@spider": "dish", "addr:full": "2255 COUNTY RD 172 STE 309, ROUND ROCK, TX 78681", "name": "CELLNET WIRELESS CORPORATION", "brand": "Dish", "brand:wikidata": "Q1199757"}, "geometry": {"type": "Point", "coordinates": [-97.6959077, 30.489137]}},
{"type": "Feature", "id": "ukbfCmg6RD3TU80hl18nKbJ_Ca0=", "properties": {"ref": "1612 MAIN STREET, JUNCTION, TX 76849", "@spider": "dish", "addr:full": "1612 MAIN STREET, JUNCTION, TX 76849", "name": "JEREMYS ELECTRONICS LLC", "brand": "Dish", "brand:wikidata": "Q1199757"}, "geometry": {"type": "Point", "coordinates": [-99.7773124, 30.4914242]}},
{"type": "Feature", "id": "RT-V-JuSllO5KVjRN9efVsPGo0U=", "properties": {"ref": "10712 KINGSPOINT RD, HOUSTON, TX 77075", "@spider": "dish", "addr:full": "10712 KINGSPOINT RD, HOUSTON, TX 77075", "name": "DIGITAL SATELLITE", "brand": "Dish", "brand:wikidata": "Q1199757"}, "geometry": {"type": "Point", "coordinates": [-95.2292337, 29.6185813]}},
{"type": "Feature", "id": "EcDp5iWaNeqggF1Dru5zqhnh1lI=", "properties": {"ref": "3424 SW MILITARY DR STE 606, SAN ANTONIO, TX 78211", "@spider": "dish", "addr:full": "3424 SW MILITARY DR STE 606, SAN ANTONIO, TX 78211", "name": "SAN ANTONIO SATELLITE SYSTEMS", "brand": "Dish", "brand:wikidata": "Q1199757"}, "geometry": {"type": "Point", "coordinates": [-98.5550846, 29.3571484]}},
{"type": "Feature", "id": "ZrMhurpRDT9S19nPjJSOMgO_9vE=", "properties": {"ref": "1627 35TH ST, GALVESTON, TX 77550", "@spider": "dish", "addr:full": "1627 35TH ST, GALVESTON, TX 77550", "name": "DIGITAL SATELLITE", "brand": "Dish", "brand:wikidata": "Q1199757"}, "geometry": {"type": "Point", "coordinates": [-94.8039611, 29.2903873]}},
{"type": "Feature", "id": "-aXx2u_54dvu5T3DTN-pqc8DANY=", "properties": {"ref": "238 HWY 72 WEST, KENEDY , TX 78119", "@spider": "dish", "addr:full": "238 HWY 72 WEST, KENEDY , TX 78119", "name": "SOUTH TEXAS SATELLITE SYSTEMS", "brand": "Dish", "brand:wikidata": "Q1199757"}, "geometry": {"type": "Point", "coordinates": [-97.8624698, 28.8105789]}},
{"type": "Feature", "id": "imT0iENyRtN_Otnqhm1I2_RqTEM=", "properties": {"ref": "3702 VETERANS BLVD, DEL RIO, TX 78840", "@spider": "dish", "addr:full": "3702 VETERANS BLVD, DEL RIO, TX 78840", "name": "PARTNERS SATELLITE", "brand": "Dish", "brand:wikidata": "Q1199757"}, "geometry": {"type": "Point", "coordinates": [-100.9051669, 29.4079245]}},
{"type": "Feature", "id": "HQFLCMuDfrwfFnPM3kMX4vf6K5M=", "properties": {"ref": "1420 7TH ST, BAY CITY, TX 77414", "@spider": "dish", "addr:full": "1420 7TH ST, BAY CITY, TX 77414", "name": "THE WIRELESS STORE", "brand": "Dish", "brand:wikidata": "Q1199757"}, "geometry": {"type": "Point", "coordinates": [-95.9726419, 28.9825593]}},
{"type": "Feature", "id": "NtHrAMRMfDF0I-ee8-Gmrp0TxhM=", "properties": {"ref": "112 NE 6TH AVE, WILLISTON, FL 32696", "@spider": "dish", "addr:full": "112 NE 6TH AVE, WILLISTON, FL 32696", "name": "ALS TV ANTENNA SAT SALES INC", "brand": "Dish", "brand:wikidata": "Q1199757"}, "geometry": {"type": "Point", "coordinates": [-82.448316, 29.397025]}},
{"type": "Feature", "id": "efpgz8lURgjiJx3J2MkkwDDNVQc=", "properties": {"ref": "6160 SW SR 200 STE 112, OCALA, FL 34476", "@spider": "dish", "addr:full": "6160 SW SR 200 STE 112, OCALA, FL 34476", "name": "INTERNATIONAL SATELLITE & ANTENNA SERVICE", "brand": "Dish", "brand:wikidata": "Q1199757"}, "geometry": {"type": "Point", "coordinates": [-82.2212506, 29.1136138]}},
{"type": "Feature", "id": "OjAsLpK6QlUSPz3-lHtpaD8wiXY=", "properties": {"ref": "11928 N WILLIAMS ST, DUNNELLON, FL 34432", "@spider": "dish", "addr:full": "11928 N WILLIAMS ST, DUNNELLON, FL 34432", "name": "ALS TV ANTENNA SAT SALES INC", "brand": "Dish", "brand:wikidata": "Q1199757"}, "geometry": {"type": "Point", "coordinates": [-82.4607843, 29.0503696]}},
{"type": "Feature", "id": "J7roRWB9cBlfGocOhgk9Qoxgmm4=", "properties": {"ref": "17860 SE 109TH AVE UNIT 621, SUMMERFIELD, FL 34491", "@spider": "dish", "addr:full": "17860 SE 109TH AVE UNIT 621, SUMMERFIELD, FL 34491", "name": "DISH SATELLITE SERVICES SELECTCHOICETV COM", "brand": "Dish", "brand:wikidata": "Q1199757"}, "geometry": {"type": "Point", "coordinates": [-81.9692491, 28.9612593]}},
{"type": "Feature", "id": "hoEXiucdnmdaWPnuJqSwvUVeGeU=", "properties": {"ref": "1210 US HIGHWAY 1, SEBASTIAN, FL 32958", "@spider": "dish", "addr:full": "1210 US HIGHWAY 1, SEBASTIAN, FL 32958", "name": "VIDEO TECH SERVICES", "brand": "Dish", "brand:wikidata": "Q1199757"}, "geometry": {"type": "Point", "coordinates": [-80.4689148, 27.8166812]}},
{"type": "Feature", "id": "lZgcg711-bPhXk7I6zIKVCEDzpU=", "properties": {"ref": "14212 S TAMIAMI TRL, NORTH PORT, FL 34287", "@spider": "dish", "addr:full": "14212 S TAMIAMI TRL, NORTH PORT, FL 34287", "name": "QUALITY TV SALES & SVC INC", "brand": "Dish", "brand:wikidata": "Q1199757"}, "geometry": {"type": "Point", "coordinates": [-82.2554685, 27.0467264]}},
{"type": "Feature", "id": "jxXuO7yWP1DxyCNXHKVYoDNmXZg=", "properties": {"ref": "1441 TAMIAMI TRAIL, PORT CHARLOTTE, FL 33948", "@spider": "dish", "addr:full": "1441 TAMIAMI TRAIL, PORT CHARLOTTE, FL 33948", "name": "PORT CHARLOTTE TOWN CENTER- QUALITY TV", "brand": "Dish", "brand:wikidata": "Q1199757"}, "geometry": {"type": "Point", "coordinates": [-82.1470547, 27.009081]}},
{"type": "Feature", "id": "on9N_zb7UcUIGR0G83hQwURrbCQ=", "properties": {"ref": "2237 S RIDGEWOOD AVE, DAYTONA BEACH, FL 32119", "@spider": "dish", "addr:full": "2237 S RIDGEWOOD AVE, DAYTONA BEACH, FL 32119", "name": "SATELLITE SERVICES OF DAYTONA BEACH", "brand": "Dish", "brand:wikidata": "Q1199757"}},
{"type": "Feature", "id": "q-sybC9lHXi3kPQ5bV7ndBG9DT0=", "properties": {"ref": "2464 W SR 426 UNIT 1022, OVIEDO, FL 32765", "@spider": "dish", "addr:full": "2464 W SR 426 UNIT 1022, OVIEDO, FL 32765", "name": "ANTENNA & SATELLITE STORE", "brand": "Dish", "brand:wikidata": "Q1199757"}, "geometry": {"type": "Point", "coordinates": [-81.2380721, 28.635631]}},
{"type": "Feature", "id": "5ErRZjWEgskmRMu0vvzB43LtVSA=", "properties": {"ref": "25377 LANKFORD HWY UNIT D, ONLEY, VA 23418", "@spider": "dish", "addr:full": "25377 LANKFORD HWY UNIT D, ONLEY, VA 23418", "name": "BULLFEATHERS INC", "brand": "Dish", "brand:wikidata": "Q1199757"}, "geometry": {"type": "Point", "coordinates": [-75.7193912, 37.6955904]}},
{"type": "Feature", "id": "EbzmVQzj2mU49ECD1tLMo8GVma0=", "properties": {"ref": "6160 ULMERTON RD STE 7, CLEARWATER, FL 33760", "@spider": "dish", "addr:full": "6160 ULMERTON RD STE 7, CLEARWATER, FL 33760", "name": "CLEAR CHOICE TELCOMS LLC", "brand": "Dish", "brand:wikidata": "Q1199757"}},
{"type": "Feature", "id": "df0tL15uxeJ_zkAZd0N_FOWZP3Y=", "properties": {"ref": "4141 US HWY 27 N STE 8, SEBRING, FL 33870", "@spider": "dish", "addr:full": "4141 US HWY 27 N STE 8, SEBRING, FL 33870", "name": "SMART HOME INTEGRATION LLC", "brand": "Dish", "brand:wikidata": "Q1199757"}},
{"type": "Feature", "id": "vMyc1xwBFOjc_yrXjSuVdGs2wTM=", "properties": {"ref": "674 E WHITE MOUNTAIN BLVD STE R , PINE TOP, AZ 85935", "@spider": "dish", "addr:full": "674 E WHITE MOUNTAIN BLVD STE R , PINE TOP, AZ 85935", "name": "DTR SATELLITE", "brand": "Dish", "brand:wikidata": "Q1199757"}},
{"type": "Feature", "id": "BPv1Hxpr_F1YviKjMbN8F8eLa50=", "properties": {"ref": "1831 HIGHWAY 260, HEBER, AZ 85928", "@spider": "dish", "addr:full": "1831 HIGHWAY 260, HEBER, AZ 85928", "name": "BASIN SATELLITE LLC", "brand": "Dish", "brand:wikidata": "Q1199757"}, "geometry": {"type": "Point", "coordinates": [-110.5962549, 34.4307508]}},
{"type": "Feature", "id": "ry7argKh73moGBvS2nD0z7fNAOc=", "properties": {"ref": "797 S BLUFF ST, ST GEORGE, UT 84770", "@spider": "dish", "addr:full": "797 S BLUFF ST, ST GEORGE, UT 84770", "name": "SOUTHERN UTAH TV & SATELLITE", "brand": "Dish", "brand:wikidata": "Q1199757"}, "geometry": {"type": "Point", "coordinates": [-113.5857668, 37.0937838]}},
{"type": "Feature", "id": "DnQP1TwbGeOHbZ8k8krM_bVs5Gc=", "properties": {"ref": "987 S BLUFF ST, ST GEORGE, UT 84770", "@spider": "dish", "addr:full": "987 S BLUFF ST, ST GEORGE, UT 84770", "name": "SOUTHERN UTAH TV & SATELLITE", "brand": "Dish", "brand:wikidata": "Q1199757"}, "geometry": {"type": "Point", "coordinates": [-113.5851725, 37.0908472]}},
{"type": "Feature", "id": "8CxAOHmo4k_feb8eemuukY1jtTQ=", "properties": {"ref": "784 S RIVER RD, ST GEORGE, UT 84790", "@spider": "dish", "addr:full": "784 S RIVER RD, ST GEORGE, UT 84790", "name": "NATIONAL SATELLITE WAREHOUSE", "brand": "Dish", "brand:wikidata": "Q1199757"}, "geometry": {"type": "Point", "coordinates": [-113.5577606, 37.0944821]}},
{"type": "Feature", "id": "fRKwCONBwb77qBs3eZThiqTMZIM=", "properties": {"ref": "2001 E LOHMAN AVE STE 119, LAS CRUCES, NM 88001", "@spider": "dish", "addr:full": "2001 E LOHMAN AVE STE 119, LAS CRUCES, NM 88001", "name": "SKY VIEW SATELLITE INC", "brand": "Dish", "brand:wikidata": "Q1199757"}, "geometry": {"type": "Point", "coordinates": [-106.756999, 32.3116]}},
{"type": "Feature", "id": "KfG0osuEynrK3HUtfFIi1nG322M=", "properties": {"ref": "700 S TELSHOR BLVD, LAS CRUCES , NM 88001", "@spider": "dish", "addr:full": "700 S TELSHOR BLVD, LAS CRUCES , NM 88001", "name": "MESILLA VALLEY MALL-MESILLA VALLEY SATELLITES INC", "brand": "Dish", "brand:wikidata": "Q1199757"}, "geometry": {"type": "Point", "coordinates": [-106.7431832, 32.3106108]}},
{"type": "Feature", "id": "E7ayIghf69gXYPBuJfeHdMQTxPA=", "properties": {"ref": "150 MIDWAY DR, PAULDEN, AZ 86334", "@spider": "dish", "addr:full": "150 MIDWAY DR, PAULDEN, AZ 86334", "name": "CM WIRELESS & ELECTRONICS", "brand": "Dish", "brand:wikidata": "Q1199757"}, "geometry": {"type": "Point", "coordinates": [-112.4693588, 34.8812317]}},
{"type": "Feature", "id": "Ux44DvxeQ8jLxkc-SNOVgBeXYj0=", "properties": {"ref": "8744 E STATE RTE 69, PRESCOTT VALLEY, AZ 86314", "@spider": "dish", "addr:full": "8744 E STATE RTE 69, PRESCOTT VALLEY, AZ 86314", "name": "DISH TECH", "brand": "Dish", "brand:wikidata": "Q1199757"}, "geometry": {"type": "Point", "coordinates": [-112.3181453, 34.5856094]}},
{"type": "Feature", "id": "lz_MqusBv274MHHhF_gKxo1Pkb8=", "properties": {"ref": "390 RED CLIFFS DR, SAINT GEORGE, UT 84790", "@spider": "dish", "addr:full": "390 RED CLIFFS DR, SAINT GEORGE, UT 84790", "name": "DIGITAL DISH SATELLITE CO", "brand": "Dish", "brand:wikidata": "Q1199757"}, "geometry": {"type": "Point", "coordinates": [-113.5529011, 37.1147255]}},
{"type": "Feature", "id": "LMIMoOSrM2I3nsHX-epFLhrMFSk=", "properties": {"ref": "1100 S STATE RT 260 STE 17, COTTONWOOD, AZ 86326", "@spider": "dish", "addr:full": "1100 S STATE RT 260 STE 17, COTTONWOOD, AZ 86326", "name": "CONNECTION CONCEPTS LLC - FRY'S SHOPPING CENTER", "brand": "Dish", "brand:wikidata": "Q1199757"}, "geometry": {"type": "Point", "coordinates": [-112.0034832, 34.7183851]}},
{"type": "Feature", "id": "YaHfVFcads96rJRP5jNxSjUefSU=", "properties": {"ref": "2660 W HWY 70, THATCHER, AZ 85552", "@spider": "dish", "addr:full": "2660 W HWY 70, THATCHER, AZ 85552", "name": "AUDIO VISIONS INC", "brand": "Dish", "brand:wikidata": "Q1199757"}, "geometry": {"type": "Point", "coordinates": [-109.7439564, 32.8455621]}},
{"type": "Feature", "id": "GTivgQUdWczAixkMUlCFXMb0dcI=", "properties": {"ref": "1085 PARKVIEW RD STE B, GREEN BAY, WI 54304", "@spider": "dish", "addr:full": "1085 PARKVIEW RD STE B, GREEN BAY, WI 54304", "name": "WECONNECT INC", "brand": "Dish", "brand:wikidata": "Q1199757"}, "geometry": {"type": "Point", "coordinates": [-88.0912557, 44.4679284]}},
{"type": "Feature", "id": "YFR0rEXB19vpnfY1c1DKSizPyHI=", "properties": {"ref": "439 MILTON ST, ANTIGO, WI 54409", "@spider": "dish", "addr:full": "439 MILTON ST, ANTIGO, WI 54409", "name": "STERN ELECTRONICS", "brand": "Dish", "brand:wikidata": "Q1199757"}, "geometry": {"type": "Point", "coordinates": [-89.1514545, 45.1382725]}},
{"type": "Feature", "id": "ThEZuy-DZz2l3gbDHaNp8i9gO7I=", "properties": {"ref": "615 E 4TH ST, MARSHFIELD, WI 54449", "@spider": "dish", "addr:full": "615 E 4TH ST, MARSHFIELD, WI 54449", "name": "MARSHFIELD TECHNOLOGY LLC", "brand": "Dish", "brand:wikidata": "Q1199757"}},
{"type": "Feature", "id": "un_avAOx0c6hbgDBaLGjS07kPog=", "properties": {"ref": "3275 W ALI BABA LN STE 502, LAS VEGAS, NV 89118", "@spider": "dish", "addr:full": "3275 W ALI BABA LN STE 502, LAS VEGAS, NV 89118", "name": "DON LORS ELECTRONICS", "brand": "Dish", "brand:wikidata": "Q1199757"}, "geometry": {"type": "Point", "coordinates": [-115.1842379, 36.094718]}},
{"type": "Feature", "id": "GJoL8tkP3x1qsSd1U5o1igPYJNU=", "properties": {"ref": "619 HALL ST #1, KINGMAN, AZ 86401", "@spider": "dish", "addr:full": "619 HALL ST #1, KINGMAN, AZ 86401", "name": "CM WIRELESS AND ELECTRONICS", "brand": "Dish", "brand:wikidata": "Q1199757"}, "geometry": {"type": "Point", "coordinates": [-114.0336227, 35.1953542]}},
{"type": "Feature", "id": "FRaVYiH2OV3MX9K2Q6aVPZwXleM=", "properties": {"ref": "311 FRONTAGE RD, PAHRUMP, NV 89048", "@spider": "dish", "addr:full": "311 FRONTAGE RD, PAHRUMP, NV 89048", "name": "COMMUNITY DISH LLC", "brand": "Dish", "brand:wikidata": "Q1199757"}, "geometry": {"type": "Point", "coordinates": [-115.9949791, 36.2241964]}},
{"type": "Feature", "id": "OCJHluJNj9M54ui64ecG2nSyCu0=", "properties": {"ref": "6363 W BELL RD, GLENDALE, AZ 85308", "@spider": "dish", "addr:full": "6363 W BELL RD, GLENDALE, AZ 85308", "name": "CM WIRELESS AND ELECTRONICS", "brand": "Dish", "brand:wikidata": "Q1199757"}, "geometry": {"type": "Point", "coordinates": [-112.19672, 33.6380154]}},
{"type": "Feature", "id": "MTesLsWUb7DXS1jCvYr6dNHWT7w=", "properties": {"ref": "738 S PERRY LANE STE 10, TEMPE, AZ 85281", "@spider": "dish", "addr:full": "738 S PERRY LANE STE 10, TEMPE, AZ 85281", "name": "DON LORS ELECTRONICS", "brand": "Dish", "brand:wikidata": "Q1199757"}, "geometry": {"type": "Point", "coordinates": [-111.9055322, 33.4228925]}},
{"type": "Feature", "id": "m6P3GnrPt5eEsr0ZQ_PNYPKoggk=", "properties": {"ref": "2639 E BROADWAY RD STE C109, MESA, AZ 85204", "@spider": "dish", "addr:full": "2639 E BROADWAY RD STE C109, MESA, AZ 85204", "name": "DTR SATELLITE", "brand": "Dish", "brand:wikidata": "Q1199757"}, "geometry": {"type": "Point", "coordinates": [-111.7744342, 33.407151]}},
{"type": "Feature", "id": "s2boQRbX-v_yNUtkrxiJ03FJZJs=", "properties": {"ref": "3233 W CHANDLER BLVD STE 5, PHOENIX, AZ 85048", "@spider": "dish", "addr:full": "3233 W CHANDLER BLVD STE 5, PHOENIX, AZ 85048", "name": "CHANNEL CHOICE", "brand": "Dish", "brand:wikidata": "Q1199757"}, "geometry": {"type": "Point", "coordinates": [-111.9642847, 33.3056777]}},
{"type": "Feature", "id": "nQ14cEg7B2MN6zd7G8G5ixzcwhk=", "properties": {"ref": "13613 TUOLUMNE RD STE B, SONORA, CA 95370", "@spider": "dish", "addr:full": "13613 TUOLUMNE RD STE B, SONORA, CA 95370", "name": "SIERRA SATELLITE", "brand": "Dish", "brand:wikidata": "Q1199757"}, "geometry": {"type": "Point", "coordinates": [-120.3465008, 37.9744791]}},
{"type": "Feature", "id": "EF52xK3eddcIVEUDUzP7cdJBE-c=", "properties": {"ref": "1550 W WETMORE RD, TUCSON, AZ 85705", "@spider": "dish", "addr:full": "1550 W WETMORE RD, TUCSON, AZ 85705", "name": "CHANNEL CHOICE", "brand": "Dish", "brand:wikidata": "Q1199757"}, "geometry": {"type": "Point", "coordinates": [-110.9990501, 32.2871884]}},
{"type": "Feature", "id": "e2DfnQOpfzEia-JzZGa3tJx3wD8=", "properties": {"ref": "3127 19TH ST, BAKERSFIELD, CA 93301", "@spider": "dish", "addr:full": "3127 19TH ST, BAKERSFIELD, CA 93301", "name": "CELLULAR PLUS", "brand": "Dish", "brand:wikidata": "Q1199757"}, "geometry": {"type": "Point", "coordinates": [-119.0383715, 35.3760357]}},
{"type": "Feature", "id": "zNLODviS_FNcQJWMHlsgJvxxPEY=", "properties": {"ref": "4756 E SPEEDWAY BLVD, TUCSON, AZ 85712", "@spider": "dish", "addr:full": "4756 E SPEEDWAY BLVD, TUCSON, AZ 85712", "name": "WHOLESALE SATELLITE", "brand": "Dish", "brand:wikidata": "Q1199757"}, "geometry": {"type": "Point", "coordinates": [-110.8908438, 32.2359614]}},
{"type": "Feature", "id": "zvudGsxcjMt7O3UDSrWk72H3pr4=", "properties": {"ref": "755 N LEMOORE AVE STE A, LEMOORE, CA 93245", "@spider": "dish", "addr:full": "755 N LEMOORE AVE STE A, LEMOORE, CA 93245", "name": "CHOICE COMMUNICATIONS", "brand": "Dish", "brand:wikidata": "Q1199757"}, "geometry": {"type": "Point", "coordinates": [-119.781106, 36.30625]}},
{"type": "Feature", "id": "GgdfofFXGrvfyB33445RU8MKUBE=", "properties": {"ref": "429 PYRAMID WAY, SPARKS, NV 89431", "@spider": "dish", "addr:full": "429 PYRAMID WAY, SPARKS, NV 89431", "name": "VIP ENTERPRISES", "brand": "Dish", "brand:wikidata": "Q1199757"}, "geometry": {"type": "Point", "coordinates": [-119.7531756, 39.5373901]}},
{"type": "Feature", "id": "Ekzk5KLmcfOWKdJbavv80GHc-lg=", "properties": {"ref": "1108 BIG BEAR BLVD, BIG BEAR CITY, CA 92314", "@spider": "dish", "addr:full": "1108 BIG BEAR BLVD, BIG BEAR CITY, CA 92314", "name": "TIM EVANS SATELLITE", "brand": "Dish", "brand:wikidata": "Q1199757"}, "geometry": {"type": "Point", "coordinates": [-116.8646343, 34.2602318]}},
{"type": "Feature", "id": "-BJw9vYVXLfOd6dW88wP8VmzXh4=", "properties": {"ref": "75140 ST CHARLES PL STE B, PALM DESERT, CA 92211", "@spider": "dish", "addr:full": "75140 ST CHARLES PL STE B, PALM DESERT, CA 92211", "name": "DESERT SATELLITE COMMUNICATIONS LLC", "brand": "Dish", "brand:wikidata": "Q1199757"}, "geometry": {"type": "Point", "coordinates": [-116.3527767, 33.7451819]}},
{"type": "Feature", "id": "m3lEeC_Ac51rJr7X135yY7gt-7k=", "properties": {"ref": "5069 STATE HIGHWAY 140, MARIPOSA, CA 95338", "@spider": "dish", "addr:full": "5069 STATE HIGHWAY 140, MARIPOSA, CA 95338", "name": "MARIPOSA TV", "brand": "Dish", "brand:wikidata": "Q1199757"}, "geometry": {"type": "Point", "coordinates": [-119.967602, 37.48704]}},
{"type": "Feature", "id": "yOvtvVThksZ3supvKRZ1IuXw2jY=", "properties": {"ref": "5712 E 32ND ST, YUMA, AZ 85365", "@spider": "dish", "addr:full": "5712 E 32ND ST, YUMA, AZ 85365", "name": "PG COMMUNICATION TECHNOLOGIES LLC", "brand": "Dish", "brand:wikidata": "Q1199757"}, "geometry": {"type": "Point", "coordinates": [-114.5347631, 32.670342]}},
{"type": "Feature", "id": "OlsZasZYNa1_8xZPzLivsR7z_nw=", "properties": {"ref": "12844 E 40TH ST, YUMA, AZ 85367", "@spider": "dish", "addr:full": "12844 E 40TH ST, YUMA, AZ 85367", "name": "AMERICAN SATELLITE SYSTEMS INC", "brand": "Dish", "brand:wikidata": "Q1199757"}, "geometry": {"type": "Point", "coordinates": [-114.411131, 32.656074]}},
{"type": "Feature", "id": "L8NCBR8sLguxhnGL5mYSOHXIF8E=", "properties": {"ref": "250 W 8TH ST, HANFORD, CA 93230", "@spider": "dish", "addr:full": "250 W 8TH ST, HANFORD, CA 93230", "name": "J K A COMMUNICATIONS", "brand": "Dish", "brand:wikidata": "Q1199757"}, "geometry": {"type": "Point", "coordinates": [-119.6485728, 36.3275915]}},
{"type": "Feature", "id": "HDI9kw79Gq_g2pBnDpTDQ1d148M=", "properties": {"ref": "5870 E BROADWAY BLVD, TUCSON, AZ 85711", "@spider": "dish", "addr:full": "5870 E BROADWAY BLVD, TUCSON, AZ 85711", "name": "PARK PLACE MALL- DISHONE", "brand": "Dish", "brand:wikidata": "Q1199757"}, "geometry": {"type": "Point", "coordinates": [-110.8654973, 32.2201836]}},
{"type": "Feature", "id": "7YqAcPN9mfepQeZ2UpuajfAxFyc=", "properties": {"ref": "1450 BROADWAY STE 3, EL CENTRO, CA 92243", "@spider": "dish", "addr:full": "1450 BROADWAY STE 3, EL CENTRO, CA 92243", "name": "GOOD KIDS LLC", "brand": "Dish", "brand:wikidata": "Q1199757"}, "geometry": {"type": "Point", "coordinates": [-115.5685478, 32.7940443]}},
{"type": "Feature", "id": "FJzBIlqAYu4uuGm70Gwn1KB_-f0=", "properties": {"ref": "1941 S MILITARY TRL S2, WEST PALM BEACH, FL 33415", "@spider": "dish", "addr:full": "1941 S MILITARY TRL S2, WEST PALM BEACH, FL 33415", "name": "CRYSTALVIEW SYSTEMS INC", "brand": "Dish", "brand:wikidata": "Q1199757"}, "geometry": {"type": "Point", "coordinates": [-80.115586, 26.6489156]}},
{"type": "Feature", "id": "XtbxTNs_3AJwbARcMbHJVrBMPz4=", "properties": {"ref": "4954 N PINE ISLAND RD, SUNRISE, FL 33351", "@spider": "dish", "addr:full": "4954 N PINE ISLAND RD, SUNRISE, FL 33351", "name": "DIAMOND SATELLITE SERVICES INC", "brand": "Dish", "brand:wikidata": "Q1199757"}, "geometry": {"type": "Point", "coordinates": [-80.267737, 26.1853772]}},
{"type": "Feature", "id": "3pp93v5Nv4e4Tkd4Nt2rgUqVfK4=", "properties": {"ref": "423 W YAKIMA AVE, YAKIMA , WA 98902", "@spider": "dish", "addr:full": "423 W YAKIMA AVE, YAKIMA , WA 98902", "name": "V WIRELESS COMMUNICATION LLC", "brand": "Dish", "brand:wikidata": "Q1199757"}},
{"type": "Feature", "id": "aAP-S5DUR4DaOqVlph5NQW-NJuI=", "properties": {"ref": "821 VALLEY AVE STE A, SUMNER , WA 98390", "@spider": "dish", "addr:full": "821 VALLEY AVE STE A, SUMNER , WA 98390", "name": "CONNECTIONS UNLIMITED INC", "brand": "Dish", "brand:wikidata": "Q1199757"}, "geometry": {"type": "Point", "coordinates": [-122.2292832, 47.2019026]}},
{"type": "Feature", "id": "CLSRGqVop8jfHmfVzDaOACyRWIA=", "properties": {"ref": "1818 E EDISON AVE, SUNNYSIDE, WA 98944", "@spider": "dish", "addr:full": "1818 E EDISON AVE, SUNNYSIDE, WA 98944", "name": "V WIRELESS COMMUNICATION LLC", "brand": "Dish", "brand:wikidata": "Q1199757"}, "geometry": {"type": "Point", "coordinates": [-119.9956811, 46.32421]}},
{"type": "Feature", "id": "4k7HJBAs2n4mJhbZB2iNLJQDevI=", "properties": {"ref": "6821 W CLEARWATER AVE STE C, KENNEWICK, WA 99336", "@spider": "dish", "addr:full": "6821 W CLEARWATER AVE STE C, KENNEWICK, WA 99336", "name": "COLUMBIA BASIN SATELLITE & ELECTRIC", "brand": "Dish", "brand:wikidata": "Q1199757"}, "geometry": {"type": "Point", "coordinates": [-119.2112576, 46.2102641]}},
{"type": "Feature", "id": "Jq6ABkL_IQG2-EbFkqt1bkLEAOg=", "properties": {"ref": "1425 W FRANCIS AVE, SPOKANE, WA 99205", "@spider": "dish", "addr:full": "1425 W FRANCIS AVE, SPOKANE, WA 99205", "name": "CHOICE MARKETING CORP", "brand": "Dish", "brand:wikidata": "Q1199757"}, "geometry": {"type": "Point", "coordinates": [-117.4333272, 47.7152783]}},
{"type": "Feature", "id": "e1W9nKCVXNnCGKfGyTMJ4ykECjE=", "properties": {"ref": "8900 SW BURNHAM STE F-26, TIGARD, OR 97223", "@spider": "dish", "addr:full": "8900 SW BURNHAM STE F-26, TIGARD, OR 97223", "name": "DON LORS ELECTRONICS", "brand": "Dish", "brand:wikidata": "Q1199757"}, "geometry": {"type": "Point", "coordinates": [-122.769286, 45.426616]}},
{"type": "Feature", "id": "hBnKvcMypnd31GXuy8FDX0hGhEo=", "properties": {"ref": "296 W SUNSET AVE STE 6, COEUR D' ALENE, ID 83815", "@spider": "dish", "addr:full": "296 W SUNSET AVE STE 6, COEUR D' ALENE, ID 83815", "name": "MICROCOM", "brand": "Dish", "brand:wikidata": "Q1199757"}, "geometry": {"type": "Point", "coordinates": [-116.7909035, 47.7122338]}},
{"type": "Feature", "id": "6qhAZ_W7JFAQOqLoaUvBPNgOWOk=", "properties": {"ref": "145 THAIN RD UNIT G, LEWISTON, ID 83501", "@spider": "dish", "addr:full": "145 THAIN RD UNIT G, LEWISTON, ID 83501", "name": "CUSTOM SATELLITE", "brand": "Dish", "brand:wikidata": "Q1199757"}, "geometry": {"type": "Point", "coordinates": [-116.9874059, 46.3889352]}},
{"type": "Feature", "id": "LMzuhEKZlTmPiwpm-jZD6w8NnwM=", "properties": {"ref": "105 S 3RD AVE, SANDPOINT, ID 83864", "@spider": "dish", "addr:full": "105 S 3RD AVE, SANDPOINT, ID 83864", "name": "HESSTRONICS INC", "brand": "Dish", "brand:wikidata": "Q1199757"}, "geometry": {"type": "Point", "coordinates": [-116.5502787, 48.2728172]}},
{"type": "Feature", "id": "4rxcRFCl55qLWuDjxoswT7J-Zcg=", "properties": {"ref": "635 SW HIGHLAND AVE, REDMOND, OR 97756", "@spider": "dish", "addr:full": "635 SW HIGHLAND AVE, REDMOND, OR 97756", "name": "JUNIPER SATELLITE", "brand": "Dish", "brand:wikidata": "Q1199757"}, "geometry": {"type": "Point", "coordinates": [-121.1750115, 44.2698444]}},
{"type": "Feature", "id": "zo8o7dgLc0eTgQ9x0NMJPpWhzZY=", "properties": {"ref": "548 PACIFIC BLVD SW, ALBANY, OR 97321", "@spider": "dish", "addr:full": "548 PACIFIC BLVD SW, ALBANY, OR 97321", "name": "AN ORION SATELLITE", "brand": "Dish", "brand:wikidata": "Q1199757"}, "geometry": {"type": "Point", "coordinates": [-123.1083033, 44.6244744]}},
{"type": "Feature", "id": "gbtokt6R3hVdaWztKu_Gk3QEyTw=", "properties": {"ref": "1560 BIDDLE RD STE B, MEDFORD, OR 97504", "@spider": "dish", "addr:full": "1560 BIDDLE RD STE B, MEDFORD, OR 97504", "name": "NO WIRES NOW", "brand": "Dish", "brand:wikidata": "Q1199757"}, "geometry": {"type": "Point", "coordinates": [-122.8737425, 42.3455554]}},
{"type": "Feature", "id": "cGt8D7snJQC_kLiC-RpKQHxXDhA=", "properties": {"ref": "1007 DANA DR STE A, REDDING, CA 96003", "@spider": "dish", "addr:full": "1007 DANA DR STE A, REDDING, CA 96003", "name": "B & T SATELLITE INC", "brand": "Dish", "brand:wikidata": "Q1199757"}, "geometry": {"type": "Point", "coordinates": [-122.3525669, 40.5860071]}},
{"type": "Feature", "id": "pcYb0f3HmOlMZDVSgpPhu8jyl80=", "properties": {"ref": "15245 INTERNATIONAL BLVD, SEATAC, WA 98188", "@spider": "dish", "addr:full": "15245 INTERNATIONAL BLVD, SEATAC, WA 98188", "name": "HI TECH ELECTRONICS", "brand": "Dish", "brand:wikidata": "Q1199757"}, "geometry": {"type": "Point", "coordinates": [-122.2895814, 47.465994]}},
{"type": "Feature", "id": "Kv2xo7F3GK6ifUt-UfQzFv8E4l0=", "properties": {"ref": "120 6TH CT, KIRKLAND, WA 98033", "@spider": "dish", "addr:full": "120 6TH CT, KIRKLAND, WA 98033", "name": "PRO SOUND AND VISION", "brand": "Dish", "brand:wikidata": "Q1199757"}, "geometry": {"type": "Point", "coordinates": [-122.196595, 47.6763]}},
{"type": "Feature", "id": "giZS0kr6rmFEvJaZU06jby0IATs=", "properties": {"ref": "2017 CONTINENTAL PL STE 5, MOUNT VERNON, WA 98273", "@spider": "dish", "addr:full": "2017 CONTINENTAL PL STE 5, MOUNT VERNON, WA 98273", "name": "NW TV AND INTERNET", "brand": "Dish", "brand:wikidata": "Q1199757"}, "geometry": {"type": "Point", "coordinates": [-122.3260941, 48.4392954]}},
{"type": "Feature", "id": "v0FToWvUcS_11T5of4chowoPV18=", "properties": {"ref": "1806 4TH AVE E, OLYMPIA, WA 98506", "@spider": "dish", "addr:full": "1806 4TH AVE E, OLYMPIA, WA 98506", "name": "SKYSYSTEMS", "brand": "Dish", "brand:wikidata": "Q1199757"}, "geometry": {"type": "Point", "coordinates": [-122.8772259, 47.0462725]}},
{"type": "Feature", "id": "cex3_x3tzHexogIYs51ITi5Rvls=", "properties": {"ref": "735 W WASHINGTON ST, SEQUIM, WA 98382", "@spider": "dish", "addr:full": "735 W WASHINGTON ST, SEQUIM, WA 98382", "name": "OLYPEN INC", "brand": "Dish", "brand:wikidata": "Q1199757"}},
{"type": "Feature", "id": "P9hTnQ46dWbWJLJYvrT6xnajYz4=", "properties": {"ref": "235 WEB ST, FRIDAY HARBOR, WA 98250", "@spider": "dish", "addr:full": "235 WEB ST, FRIDAY HARBOR, WA 98250", "name": "ISLAND SATELLITE AND INTERNET", "brand": "Dish", "brand:wikidata": "Q1199757"}, "geometry": {"type": "Point", "coordinates": [-123.0169837, 48.5328776]}},
{"type": "Feature", "id": "1Hph9bXACHqtkY1QmBTQp5EZXVM=", "properties": {"ref": "156 N MAIN ST, COLVILLE, WA 99114", "@spider": "dish", "addr:full": "156 N MAIN ST, COLVILLE, WA 99114", "name": "SEYMOUR CHANNELS", "brand": "Dish", "brand:wikidata": "Q1199757"}, "geometry": {"type": "Point", "coordinates": [-117.9053681, 48.5450361]}},
{"type": "Feature", "id": "FQg3uF_ZbGJBqbRZjz6r-Sb4BI4=", "properties": {"ref": "1832 LANCASTER DR NE, SALEM, OR 97305", "@spider": "dish", "addr:full": "1832 LANCASTER DR NE, SALEM, OR 97305", "name": "D & D SATELLITE INC", "brand": "Dish", "brand:wikidata": "Q1199757"}, "geometry": {"type": "Point", "coordinates": [-122.983606, 44.951563]}},
{"type": "Feature", "id": "V--AWEMJAjs7s-2951WrqrZ6Ubk=", "properties": {"ref": "1286 BURNS WAY, KALISPELL, MT 59901", "@spider": "dish", "addr:full": "1286 BURNS WAY, KALISPELL, MT 59901", "name": "MONTANASKY NETWORKS INC", "brand": "Dish", "brand:wikidata": "Q1199757"}, "geometry": {"type": "Point", "coordinates": [-114.3263264, 48.2132955]}},
{"type": "Feature", "id": "nNVVhIahl5gCxPQZ-L91wK0pH2g=", "properties": {"ref": "172 NE EXCHANGE AVE, ROSEBURG, OR 97470", "@spider": "dish", "addr:full": "172 NE EXCHANGE AVE, ROSEBURG, OR 97470", "name": "DENNYS SATELLITE", "brand": "Dish", "brand:wikidata": "Q1199757"}, "geometry": {"type": "Point", "coordinates": [-123.3534956, 43.2368524]}},
{"type": "Feature", "id": "DPVPsQx13qY2gsWDrYy2wojrJSI=", "properties": {"ref": "1388 NORTHCREST DR, CRESCENT CITY, CA 95531", "@spider": "dish", "addr:full": "1388 NORTHCREST DR, CRESCENT CITY, CA 95531", "name": "SUTTON ENTERPRISES", "brand": "Dish", "brand:wikidata": "Q1199757"}, "geometry": {"type": "Point", "coordinates": [-124.200325, 41.7704291]}},
{"type": "Feature", "id": "jSw39eY56472qKgxAH51hVqrn7Q=", "properties": {"ref": "152 MORGAN WAY, MOUNT SHASTA, CA 96067", "@spider": "dish", "addr:full": "152 MORGAN WAY, MOUNT SHASTA, CA 96067", "name": "JOHN'S SATELLITE", "brand": "Dish", "brand:wikidata": "Q1199757"}, "geometry": {"type": "Point", "coordinates": [-122.3154047, 41.3087118]}},
{"type": "Feature", "id": "-3jkkMBtQj9QmoJLVUQibiVs1b0=", "properties": {"ref": "2553 VICTOR AVE STE B, REDDING, CA 96002", "@spider": "dish", "addr:full": "2553 VICTOR AVE STE B, REDDING, CA 96002", "name": "WOODFILL ENTERPRISES", "brand": "Dish", "brand:wikidata": "Q1199757"}, "geometry": {"type": "Point", "coordinates": [-122.3384645, 40.569999]}},
{"type": "Feature", "id": "Oq-uN-7nsgF-_6HOuC_KqXcoiFw=", "properties": {"ref": "1315 E VALLEY PKWY, ESCONDIDO, CA 92027", "@spider": "dish", "addr:full": "1315 E VALLEY PKWY, ESCONDIDO, CA 92027", "name": "PACHECO COMMUNICATIONS", "brand": "Dish", "brand:wikidata": "Q1199757"}, "geometry": {"type": "Point", "coordinates": [-117.0641511, 33.1304629]}},
{"type": "Feature", "id": "xzxlUd_thyPCnkVz4mKyMfgKZBU=", "properties": {"ref": "7854 RONSON RD STE A, SAN DIEGO, CA 92111", "@spider": "dish", "addr:full": "7854 RONSON RD STE A, SAN DIEGO, CA 92111", "name": "AMERISAT", "brand": "Dish", "brand:wikidata": "Q1199757"}, "geometry": {"type": "Point", "coordinates": [-117.152308, 32.829416]}},
{"type": "Feature", "id": "5tyKhFBevR54c2ey3CXiM3F_8Ns=", "properties": {"ref": "5606 E LA PALMA AVE, ANAHEIM, CA 92807", "@spider": "dish", "addr:full": "5606 E LA PALMA AVE, ANAHEIM, CA 92807", "name": "X FACTOR COMMUNICATIONS INC", "brand": "Dish", "brand:wikidata": "Q1199757"}, "geometry": {"type": "Point", "coordinates": [-117.7933992, 33.8580999]}},
{"type": "Feature", "id": "jfgYYS2xXiWMNs_bTOcJd8QSJxc=", "properties": {"ref": "135 E HARVARD BLVD STE C, SANTA PAULA, CA 93060", "@spider": "dish", "addr:full": "135 E HARVARD BLVD STE C, SANTA PAULA, CA 93060", "name": "SMART CONNECTIONS SATELLITE SERVICES", "brand": "Dish", "brand:wikidata": "Q1199757"}},
{"type": "Feature", "id": "vNuDNbrywdEDiTxd6Gazu1qArhs=", "properties": {"ref": "148 S ESCONDIDO BLVD, ESCONDIDO, CA 92025", "@spider": "dish", "addr:full": "148 S ESCONDIDO BLVD, ESCONDIDO, CA 92025", "name": "DISH FOR ALL", "brand": "Dish", "brand:wikidata": "Q1199757"}, "geometry": {"type": "Point", "coordinates": [-117.0837063, 33.1200245]}},
{"type": "Feature", "id": "TYFyHe30-D2v80IgebolvpKiWNQ=", "properties": {"ref": "112 WINNEBAGO ST, DECORAH, IA 52101", "@spider": "dish", "addr:full": "112 WINNEBAGO ST, DECORAH, IA 52101", "name": "SIMS TV & ELECTRONICS", "brand": "Dish", "brand:wikidata": "Q1199757"}, "geometry": {"type": "Point", "coordinates": [-91.7869599, 43.3036143]}},
{"type": "Feature", "id": "XXF3xM3p_k4vukhEhg_q41UHgZQ=", "properties": {"ref": "BARBEL PLAZA CSC3, ST THOMAS, VI 00802", "@spider": "dish", "addr:full": "BARBEL PLAZA CSC3, ST THOMAS, VI 00802", "name": "TODAYS TELEVISION", "brand": "Dish", "brand:wikidata": "Q1199757"}, "geometry": {"type": "Point", "coordinates": [-64.9210252, 18.3403454]}},
{"type": "Feature", "id": "koSXdUvySZfe_FIOvL13NMRixkw=", "properties": {"ref": "113 BARREN SPOT, ST CROIX, VI 00802", "@spider": "dish", "addr:full": "113 BARREN SPOT, ST CROIX, VI 00802", "name": "TODAYS TELEVISION", "brand": "Dish", "brand:wikidata": "Q1199757"}, "geometry": {"type": "Point", "coordinates": [-64.7888718, 17.7387638]}},
{"type": "Feature", "id": "ClByhMq9WB1u1z5SUa2NSvLtKYo=", "properties": {"ref": "ZONA INDUSTRIAL URB EL EDEN, COAMO, PR 00769", "@spider": "dish", "addr:full": "ZONA INDUSTRIAL URB EL EDEN, COAMO, PR 00769", "name": "COAMO SATELLITE SERVICE", "brand": "Dish", "brand:wikidata": "Q1199757"}, "geometry": {"type": "Point", "coordinates": [-66.3629454, 18.073575]}},
{"type": "Feature", "id": "VTVq_r0Hl17tlYJVycjUdJGfh7E=", "properties": {"ref": "14 CALLE SAN JUAN N, CAMUY, PR 00627", "@spider": "dish", "addr:full": "14 CALLE SAN JUAN N, CAMUY, PR 00627", "name": "JER ELECTRONICS INC", "brand": "Dish", "brand:wikidata": "Q1199757"}, "geometry": {"type": "Point", "coordinates": [-66.8439067, 18.485527]}},
{"type": "Feature", "id": "fOmiGoCLriqYZw-eh8godCBgmVU=", "properties": {"ref": "CARR 2 KM 170, SAN GERMAN, PR 00683", "@spider": "dish", "addr:full": "CARR 2 KM 170, SAN GERMAN, PR 00683", "name": "TODAYS TELEVISION", "brand": "Dish", "brand:wikidata": "Q1199757"}, "geometry": {"type": "Point", "coordinates": [-67.0660322, 18.1096933]}},
{"type": "Feature", "id": "W1h0tcXMCDMy0YIQsulTTH68XfA=", "properties": {"ref": "950 OLD STEESE HWY. UNIT A, FAIRBANKS, AK 99701", "@spider": "dish", "addr:full": "950 OLD STEESE HWY. UNIT A, FAIRBANKS, AK 99701", "name": "MICROCOM", "brand": "Dish", "brand:wikidata": "Q1199757"}, "geometry": {"type": "Point", "coordinates": [-147.7224494, 64.8125069]}},
{"type": "Feature", "id": "3GXrGnbjGWTaIh1s6Z9UGVYJbhU=", "properties": {"ref": "6491 E BLUE LUPINE DR, PALMER, AK 99645", "@spider": "dish", "addr:full": "6491 E BLUE LUPINE DR, PALMER, AK 99645", "name": "MICROCOM", "brand": "Dish", "brand:wikidata": "Q1199757"}, "geometry": {"type": "Point", "coordinates": [-149.2925332, 61.5637272]}},
{"type": "Feature", "id": "HocCcJQou_FTfb55puKJp9lrYQM=", "properties": {"ref": "2208 CLEVELAND AVE, ANCHORAGE, AK 99517", "@spider": "dish", "addr:full": "2208 CLEVELAND AVE, ANCHORAGE, AK 99517", "name": "SATELLITE ALASKA", "brand": "Dish", "brand:wikidata": "Q1199757"}, "geometry": {"type": "Point", "coordinates": [-149.9245618, 61.1844446]}},
{"type": "Feature", "id": "t_ara540bG-Uiphoikq4Y3TRgc4=", "properties": {"ref": "126 W INTERNATIONAL AIRPORT RD, ANCHORAGE, AK 99518", "@spider": "dish", "addr:full": "126 W INTERNATIONAL AIRPORT RD, ANCHORAGE, AK 99518", "name": "MICROCOM", "brand": "Dish", "brand:wikidata": "Q1199757"}, "geometry": {"type": "Point", "coordinates": [-149.8841419, 61.1733415]}},
{"type": "Feature", "id": "kk2k2e2LvBE0RnUIvb3NuUaMyUg=", "properties": {"ref": "35911 KENAI SPUR HWY STE 14, SOLDOTNA, AK 99669", "@spider": "dish", "addr:full": "35911 KENAI SPUR HWY STE 14, SOLDOTNA, AK 99669", "name": "MICROCOM - AURORA TECHNOLOGIES", "brand": "Dish", "brand:wikidata": "Q1199757"}, "geometry": {"type": "Point", "coordinates": [-151.0772646, 60.5008799]}},
{"type": "Feature", "id": "eHxJ-tanufTxbIn0ncvO6jPsijw=", "properties": {"ref": "101 E FRANK SMITH WAY, WASILLA, AK 99654", "@spider": "dish", "addr:full": "101 E FRANK SMITH WAY, WASILLA, AK 99654", "name": "SATELLITE TV SATELLITE SYSTEMS INC", "brand": "Dish", "brand:wikidata": "Q1199757"}},
{"type": "Feature", "id": "E_spugcP29PtxrsUjNUL9Z7ocAg=", "properties": {"ref": "2400 SPENARD RD STE 300, ANCHORAGE, AK 99503", "@spider": "dish", "addr:full": "2400 SPENARD RD STE 300, ANCHORAGE, AK 99503", "name": "SATELLITE GUY INC", "brand": "Dish", "brand:wikidata": "Q1199757"}, "geometry": {"type": "Point", "coordinates": [-149.9060264, 61.1988214]}},
{"type": "Feature", "id": "5b74PUsw_CCoKXixywdEx_HwLxE=", "properties": {"ref": "155 JOERSCHKE DR, GRASS VALLEY, CA 95945", "@spider": "dish", "addr:full": "155 JOERSCHKE DR, GRASS VALLEY, CA 95945", "name": "DON ADAMS ANTENNA SATELLITE SERVICES", "brand": "Dish", "brand:wikidata": "Q1199757"}, "geometry": {"type": "Point", "coordinates": [-121.0407196, 39.2324906]}},
{"type": "Feature", "id": "Hdy8xs6SCOjY_mVwZ-iladWcZLA=", "properties": {"ref": "1130 GRASS VALLEY HWY, AUBURN, CA 95603", "@spider": "dish", "addr:full": "1130 GRASS VALLEY HWY, AUBURN, CA 95603", "name": "SKY HIGH MARKETING", "brand": "Dish", "brand:wikidata": "Q1199757"}, "geometry": {"type": "Point", "coordinates": [-121.0825425, 38.9221252]}},
{"type": "Feature", "id": "8u4VHJUuAxh39roymyGNYwBn7zE=", "properties": {"ref": "179 PALM AVE, AUBURN, CA 95603", "@spider": "dish", "addr:full": "179 PALM AVE, AUBURN, CA 95603", "name": "ASAP SATELLITES", "brand": "Dish", "brand:wikidata": "Q1199757"}, "geometry": {"type": "Point", "coordinates": [-121.0773779, 38.9086241]}},
{"type": "Feature", "id": "YXUb3GPHy6tyWp2RA8JiAeskOno=", "properties": {"ref": "941 WASHINGTON BLVD STE 307, ROSEVILLE, CA 95678", "@spider": "dish", "addr:full": "941 WASHINGTON BLVD STE 307, ROSEVILLE, CA 95678", "name": "PLUMAS SATELLITES", "brand": "Dish", "brand:wikidata": "Q1199757"}, "geometry": {"type": "Point", "coordinates": [-121.2931669, 38.7602372]}},
{"type": "Feature", "id": "ALw8g-gNo9ZKEbV-G2BpNLW22VE=", "properties": {"ref": "7904 SUNRISE BLVD, CITRUS HEIGHTS, CA 95610", "@spider": "dish", "addr:full": "7904 SUNRISE BLVD, CITRUS HEIGHTS, CA 95610", "name": "ASAP SATELLITES", "brand": "Dish", "brand:wikidata": "Q1199757"}, "geometry": {"type": "Point", "coordinates": [-121.2713974, 38.7100044]}},
{"type": "Feature", "id": "4M5d8p6VCJZCu2Lc3Jg1DNQhOPQ=", "properties": {"ref": "1060 E PACHECO BLVD UNIT E, LOS BANOS, CA 93635", "@spider": "dish", "addr:full": "1060 E PACHECO BLVD UNIT E, LOS BANOS, CA 93635", "name": "TV MAS SATELLITE YOUR HOME ENTMT", "brand": "Dish", "brand:wikidata": "Q1199757"}, "geometry": {"type": "Point", "coordinates": [-120.8412358, 37.0572683]}},
{"type": "Feature", "id": "0fbhgR3C-eE-QeNBx6cUeqX8WrE=", "properties": {"ref": "405 COLUSA ST, ORLAND, CA 95963", "@spider": "dish", "addr:full": "405 COLUSA ST, ORLAND, CA 95963", "name": "JULIOS SATELITLE", "brand": "Dish", "brand:wikidata": "Q1199757"}, "geometry": {"type": "Point", "coordinates": [-122.194485, 39.7461833]}},
{"type": "Feature", "id": "EkTnjWhD-SttydfYVgCFMyAk73o=", "properties": {"ref": "482 ANTELOPE BLVD, RED BLUFF, CA 96080", "@spider": "dish", "addr:full": "482 ANTELOPE BLVD, RED BLUFF, CA 96080", "name": "JULIOS SATELLITE", "brand": "Dish", "brand:wikidata": "Q1199757"}, "geometry": {"type": "Point", "coordinates": [-122.210138, 40.187084]}},
{"type": "Feature", "id": "CI6betgZqJCAgqW4yXg1-_INUxw=", "properties": {"ref": "796 LAY AVE, RED BLUFF, CA 96080", "@spider": "dish", "addr:full": "796 LAY AVE, RED BLUFF, CA 96080", "name": "CHAGOS SATELLITE", "brand": "Dish", "brand:wikidata": "Q1199757"}, "geometry": {"type": "Point", "coordinates": [-122.2376254, 40.1674869]}},
{"type": "Feature", "id": "z3V5LT1DQzw-reW82RENk84vFDw=", "properties": {"ref": "971 N MAIN ST STE 12B, SALINAS, CA 93906", "@spider": "dish", "addr:full": "971 N MAIN ST STE 12B, SALINAS, CA 93906", "name": "SATELLITE LATINO", "brand": "Dish", "brand:wikidata": "Q1199757"}, "geometry": {"type": "Point", "coordinates": [-121.6531665, 36.6925782]}},
{"type": "Feature", "id": "3N7FCFmHoB6poZM9In7d84j_lXM=", "properties": {"ref": "16900 WILLOW GLEN RD, BROWNSVILLE, CA 95919", "@spider": "dish", "addr:full": "16900 WILLOW GLEN RD, BROWNSVILLE, CA 95919", "name": "VIDEO BUSTERS", "brand": "Dish", "brand:wikidata": "Q1199757"}, "geometry": {"type": "Point", "coordinates": [-121.2839381, 39.4599193]}},
{"type": "Feature", "id": "ciFfqYf43pWIJ9jm39_adaTPBVQ=", "properties": {"ref": "9882 WATERMAN RD STE 110, ELK GROVE, CA 95624", "@spider": "dish", "addr:full": "9882 WATERMAN RD STE 110, ELK GROVE, CA 95624", "name": "SATELLITE AVENUE INC", "brand": "Dish", "brand:wikidata": "Q1199757"}, "geometry": {"type": "Point", "coordinates": [-121.3534707, 38.3988155]}},
{"type": "Feature", "id": "g2nDLAhZNT73PcRK_DYAXqiOQrM=", "properties": {"ref": "10481 GRANT LINE RD STE 160, ELK GROVE, CA 95624", "@spider": "dish", "addr:full": "10481 GRANT LINE RD STE 160, ELK GROVE, CA 95624", "name": "SATELLITE DADDY", "brand": "Dish", "brand:wikidata": "Q1199757"}, "geometry": {"type": "Point", "coordinates": [-121.3593283, 38.3761017]}},
{"type": "Feature", "id": "3CCtHhur1hr3PqS-nmn5-WvaTHk=", "properties": {"ref": "205 W HATCH RD, MODESTO, CA 95351", "@spider": "dish", "addr:full": "205 W HATCH RD, MODESTO, CA 95351", "name": "AZTECA SATELLITE", "brand": "Dish", "brand:wikidata": "Q1199757"}, "geometry": {"type": "Point", "coordinates": [-120.9952123, 37.6098226]}},
{"type": "Feature", "id": "OzhQ-Q1BL7ZWQurRt_e1fD3V4lQ=", "properties": {"ref": "4 N SALADO AVE, PATTERSON, CA 95363", "@spider": "dish", "addr:full": "4 N SALADO AVE, PATTERSON, CA 95363", "name": "CONX TV", "brand": "Dish", "brand:wikidata": "Q1199757"}, "geometry": {"type": "Point", "coordinates": [-121.1306685, 37.4713845]}},
{"type": "Feature", "id": "jlUREcEIky8Kd4Y07psEr_YDLjw=", "properties": {"ref": "1 SUNVALLEY MALL, CONCORD, CA 94520", "@spider": "dish", "addr:full": "1 SUNVALLEY MALL, CONCORD, CA 94520", "name": "SUNVALLEY MALL-CJC SATELLITE", "brand": "Dish", "brand:wikidata": "Q1199757"}, "geometry": {"type": "Point", "coordinates": [-122.0606765, 37.9671801]}},
{"type": "Feature", "id": "hatQz_mdBaGm1QkjX4nK2mOeZec=", "properties": {"ref": "302 E LAKE AVE STE 101, WATSONVILLE, CA 95076", "@spider": "dish", "addr:full": "302 E LAKE AVE STE 101, WATSONVILLE, CA 95076", "name": "LOMELI COMMUNICATIONS", "brand": "Dish", "brand:wikidata": "Q1199757"}, "geometry": {"type": "Point", "coordinates": [-121.7532284, 36.9150762]}},
{"type": "Feature", "id": "kuubgIsHVsp4N_OwLWMBtj4UJFw=", "properties": {"ref": "10683 MERRITT ST, CASTROVILLE, CA 95012", "@spider": "dish", "addr:full": "10683 MERRITT ST, CASTROVILLE, CA 95012", "name": "LOMELI COMMUNICATIONS", "brand": "Dish", "brand:wikidata": "Q1199757"}, "geometry": {"type": "Point", "coordinates": [-121.7584368, 36.7663395]}},
{"type": "Feature", "id": "qyzOTLJvxS_Ud0o6T950wD18U70=", "properties": {"ref": "2120 SOQUEL AVE, SANTA CRUZ, CA 95062", "@spider": "dish", "addr:full": "2120 SOQUEL AVE, SANTA CRUZ, CA 95062", "name": "LOMELI COMMUNICATIONS", "brand": "Dish", "brand:wikidata": "Q1199757"}, "geometry": {"type": "Point", "coordinates": [-121.9955049, 36.9821888]}},
{"type": "Feature", "id": "AMUeh2cOFivHbXbtL0fQa6ko10A=", "properties": {"ref": "7935 EL CAMINO REAL, ATASCADERO, CA 93422", "@spider": "dish", "addr:full": "7935 EL CAMINO REAL, ATASCADERO, CA 93422", "name": "COAST SATELLITE INC", "brand": "Dish", "brand:wikidata": "Q1199757"}},
{"type": "Feature", "id": "goEXrPK-o4P81sHJgm2FEMWT6ec=", "properties": {"ref": "233 TOWN CENTER W STE A19, SANTA MARIA, CA 93454", "@spider": "dish", "addr:full": "233 TOWN CENTER W STE A19, SANTA MARIA, CA 93454", "name": "DITECTV", "brand": "Dish", "brand:wikidata": "Q1199757"}, "geometry": {"type": "Point", "coordinates": [-120.4357191, 34.9530337]}},
{"type": "Feature", "id": "z-2eVFXEJxNXjUwDGRDtuFUN3QE=", "properties": {"ref": "804 N BROADWAY, SANTA MARIA , CA 93458", "@spider": "dish", "addr:full": "804 N BROADWAY, SANTA MARIA , CA 93458", "name": "CENTRAL COAST SATELLITE SERVICES", "brand": "Dish", "brand:wikidata": "Q1199757"}, "geometry": {"type": "Point", "coordinates": [-120.4345928, 34.9608115]}},
{"type": "Feature", "id": "j4JR0umSW5cS4ImG1lFg7yUL6OA=", "properties": {"ref": "611 PHIPPEN WAITERS RD STE 108, DANIA BEACH, FL 33004", "@spider": "dish", "addr:full": "611 PHIPPEN WAITERS RD STE 108, DANIA BEACH, FL 33004", "name": "DON LORS ELECTRONICS", "brand": "Dish", "brand:wikidata": "Q1199757"}, "geometry": {"type": "Point", "coordinates": [-80.149182, 26.0422791]}},
{"type": "Feature", "id": "JVHy49atBHoIc_XrDLzb_p16rQ0=", "properties": {"ref": "11462 QUAIL ROOST DR, MIAMI, FL 33157", "@spider": "dish", "addr:full": "11462 QUAIL ROOST DR, MIAMI, FL 33157", "name": "CELLPLANET", "brand": "Dish", "brand:wikidata": "Q1199757"}, "geometry": {"type": "Point", "coordinates": [-80.378941, 25.592099]}},
{"type": "Feature", "id": "MFrQXKoW7oloYmPa7IhM6zdPrdw=", "properties": {"ref": "11865 SW 26TH ST UNIT C43-14, MIAMI, FL 33175", "@spider": "dish", "addr:full": "11865 SW 26TH ST UNIT C43-14, MIAMI, FL 33175", "name": "DIAMOND SATELLITE SERVICES INC", "brand": "Dish", "brand:wikidata": "Q1199757"}, "geometry": {"type": "Point", "coordinates": [-80.3887211, 25.7477655]}}]}