{"type":"FeatureCollection","features":[{"type": "Feature", "id": "EUAVO3lcYR1VPwrxlsChkWn-Wfk=", "properties": {"ref": "30575", "@spider": "dominos_pizza_nl", "amenity": "fast_food", "cuisine": "pizza", "takeaway": "yes", "addr:street_address": "Heuveleind 13", "addr:city": "OOSTERHOUT", "addr:postcode": "4901LL", "addr:country": "NL", "name": "Domino's Pizza Oosterhout", "website": "https://www.dominos.nl/winkel/nl-oosterhout-30575", "brand": "Domino's", "brand:wikidata": "Q839466", "nsi_id": "dominos-b946c5"}, "geometry": {"type": "Point", "coordinates": [4.855222, 51.643297]}},
{"type": "Feature", "id": "iBtheHhRW_0eXkrsaNdKAgYbDys=", "properties": {"ref": "30574", "@spider": "dominos_pizza_nl", "amenity": "fast_food", "cuisine": "pizza", "takeaway": "yes", "addr:street_address": "Slotplein 22", "addr:city": "Capelle a/d Yssel", "addr:postcode": "2902HP", "addr:country": "NL", "name": "Domino's Pizza Capelle a/d Yssel", "website": "https://www.dominos.nl/winkel/nl-capelleadyssel-30574", "brand": "Domino's", "brand:wikidata": "Q839466", "nsi_id": "dominos-b946c5"}, "geometry": {"type": "Point", "coordinates": [4.583932, 51.923885]}},
{"type": "Feature", "id": "1ZpfTo82DBk03cIuisPniy-V7jk=", "properties": {"ref": "30573", "@spider": "dominos_pizza_nl", "amenity": "fast_food", "cuisine": "pizza", "takeaway": "yes", "addr:street_address": "Oude Haagweg 36", "addr:city": "DEN HAAG", "addr:postcode": "2552EP", "addr:country": "NL", "name": "Domino's Pizza Den Haag Oude Haagweg", "website": "https://www.dominos.nl/winkel/nl-denhaagoudehaagweg-30573", "brand": "Domino's", "brand:wikidata": "Q839466", "nsi_id": "dominos-b946c5"}, "geometry": {"type": "Point", "coordinates": [4.244961, 52.056022]}},
{"type": "Feature", "id": "oNTi3O-XApU0YGnfp2au6AV_40M=", "properties": {"ref": "30571", "@spider": "dominos_pizza_nl", "amenity": "fast_food", "cuisine": "pizza", "takeaway": "yes", "addr:street_address": "Overtoom 71", "addr:city": "AMSTERDAM", "addr:postcode": "1054HC", "addr:country": "NL", "name": "Domino's Pizza Amsterdam Overtoom", "website": "https://www.dominos.nl/winkel/nl-amsterdamovertoom-30571", "brand": "Domino's", "brand:wikidata": "Q839466", "nsi_id": "dominos-b946c5"}, "geometry": {"type": "Point", "coordinates": [4.876261, 52.362804]}},
{"type": "Feature", "id": "H8mThWt4HNyYi9yyrcccb1-hV8U=", "properties": {"ref": "30569", "@spider": "dominos_pizza_nl", "amenity": "fast_food", "cuisine": "pizza", "takeaway": "yes", "addr:street_address": "Planciusplantsoen 26B", "addr:city": "VOORSCHOTEN", "addr:postcode": "2253TS", "addr:country": "NL", "name": "Domino's Pizza Voorschoten", "website": "https://www.dominos.nl/winkel/nl-voorschoten-30569", "brand": "Domino's", "brand:wikidata": "Q839466", "nsi_id": "dominos-b946c5"}, "geometry": {"type": "Point", "coordinates": [4.46164, 52.142491]}},
{"type": "Feature", "id": "IR-QZvdrIL1_cc6-mLXzRmBV6C8=", "properties": {"ref": "30568", "@spider": "dominos_pizza_nl", "amenity": "fast_food", "cuisine": "pizza", "takeaway": "yes", "addr:street_address": "Leidsestraatweg 12", "addr:city": "WOERDEN", "addr:postcode": "3443BV", "addr:country": "NL", "name": "Domino's Pizza Woerden", "website": "https://www.dominos.nl/winkel/nl-woerden-30568", "brand": "Domino's", "brand:wikidata": "Q839466", "nsi_id": "dominos-b946c5"}, "geometry": {"type": "Point", "coordinates": [4.879612, 52.087998]}},
{"type": "Feature", "id": "G-mBooaC0ZOUlvuoAqcnGFvDr3w=", "properties": {"ref": "30567", "@spider": "dominos_pizza_nl", "amenity": "fast_food", "cuisine": "pizza", "takeaway": "yes", "addr:street_address": "Waldorpstraat 27A", "addr:city": "Den Haag", "addr:postcode": "2521CA", "addr:country": "NL", "name": "Domino's Pizza Den Haag Hollands Spoor", "website": "https://www.dominos.nl/winkel/nl-denhaaghollandsspoor-30567", "brand": "Domino's", "brand:wikidata": "Q839466", "nsi_id": "dominos-b946c5"}, "geometry": {"type": "Point", "coordinates": [4.32218, 52.06883]}},
{"type": "Feature", "id": "K9jUhSYmBIm7T0mC9gOhWVjrmvs=", "properties": {"ref": "30566", "@spider": "dominos_pizza_nl", "amenity": "fast_food", "cuisine": "pizza", "takeaway": "yes", "addr:street_address": "Goudenregenplein 3", "addr:city": "DEN HAAG", "addr:postcode": "2565GH", "addr:country": "NL", "name": "Domino's Pizza Den Haag Goudenregenplein", "website": "https://www.dominos.nl/winkel/nl-denhaaggoudenregenplein-30566", "brand": "Domino's", "brand:wikidata": "Q839466", "nsi_id": "dominos-b946c5"}, "geometry": {"type": "Point", "coordinates": [4.263779, 52.077019]}},
{"type": "Feature", "id": "uk5YSNIcsXW3FDJ01KKWwn9NRXQ=", "properties": {"ref": "30565", "@spider": "dominos_pizza_nl", "amenity": "fast_food", "cuisine": "pizza", "takeaway": "yes", "addr:street_address": "Burgemeester Jamessingel 21", "addr:city": "GOUDA", "addr:postcode": "2803WV", "addr:country": "NL", "name": "Domino's Pizza Gouda", "website": "https://www.dominos.nl/winkel/nl-gouda-30565", "brand": "Domino's", "brand:wikidata": "Q839466", "nsi_id": "dominos-b946c5"}, "geometry": {"type": "Point", "coordinates": [4.70606, 52.01815]}},
{"type": "Feature", "id": "r_xRj7PAwHmUag86XTNQyu_oE1A=", "properties": {"ref": "30564", "@spider": "dominos_pizza_nl", "amenity": "fast_food", "cuisine": "pizza", "takeaway": "yes", "addr:street_address": "Havenstraat 12", "addr:city": "HILVERSUM", "addr:postcode": "1211KL", "addr:country": "NL", "name": "Domino's Pizza Hilversum", "website": "https://www.dominos.nl/winkel/nl-hilversum-30564", "brand": "Domino's", "brand:wikidata": "Q839466", "nsi_id": "dominos-b946c5"}, "geometry": {"type": "Point", "coordinates": [5.168996, 52.222206]}},
{"type": "Feature", "id": "Fgn9upam_KpSauaip7VF1cEDLPg=", "properties": {"ref": "30563", "@spider": "dominos_pizza_nl", "amenity": "fast_food", "cuisine": "pizza", "takeaway": "yes", "addr:street_address": "Laarstraat 1", "addr:city": "Tilburg", "addr:postcode": "5025VJ", "addr:country": "NL", "name": "Domino's Pizza Tilburg Laarstraat", "website": "https://www.dominos.nl/winkel/nl-tilburglaarstraat-30563", "brand": "Domino's", "brand:wikidata": "Q839466", "nsi_id": "dominos-b946c5"}, "geometry": {"type": "Point", "coordinates": [5.066748, 51.548355]}},
{"type": "Feature", "id": "_cqXXmB97hrViWITfYrFzni8wZs=", "properties": {"ref": "30562", "@spider": "dominos_pizza_nl", "amenity": "fast_food", "cuisine": "pizza", "takeaway": "yes", "addr:street_address": "Boulevard 8", "addr:city": "ROOSENDAAL", "addr:postcode": "4701EV", "addr:country": "NL", "name": "Domino's Pizza Roosendaal", "website": "https://www.dominos.nl/winkel/nl-roosendaal-30562", "brand": "Domino's", "brand:wikidata": "Q839466", "nsi_id": "dominos-b946c5"}, "geometry": {"type": "Point", "coordinates": [4.464375, 51.535963]}},
{"type": "Feature", "id": "uDnllAsKKsvBli7St6C5JpCxkk0=", "properties": {"ref": "30561", "@spider": "dominos_pizza_nl", "amenity": "fast_food", "cuisine": "pizza", "takeaway": "yes", "addr:street_address": "Noord Koninginnewal 23", "addr:city": "HELMOND", "addr:postcode": "5701NJ", "addr:country": "NL", "name": "Domino's Pizza Helmond Koninginnewal", "website": "https://www.dominos.nl/winkel/nl-helmondkoninginnewal-30561", "brand": "Domino's", "brand:wikidata": "Q839466", "nsi_id": "dominos-b946c5"}, "geometry": {"type": "Point", "coordinates": [5.657519, 51.479672]}},
{"type": "Feature", "id": "VQRRvU7WKFXO5vJBwZlHSPk1W6M=", "properties": {"ref": "30560", "@spider": "dominos_pizza_nl", "amenity": "fast_food", "cuisine": "pizza", "takeaway": "yes", "addr:street_address": "Arnhemseweg 251", "addr:city": "Apeldoorn", "addr:postcode": "7333NA", "addr:country": "NL", "name": "Domino's Pizza Apeldoorn Arnhemseweg", "website": "https://www.dominos.nl/winkel/nl-apeldoornarnhemseweg-30560", "brand": "Domino's", "brand:wikidata": "Q839466", "nsi_id": "dominos-b946c5"}, "geometry": {"type": "Point", "coordinates": [5.962546, 52.19394]}},
{"type": "Feature", "id": "a3JYJ5qhFVoLTemhwN_iuyiGmxo=", "properties": {"ref": "30559", "@spider": "dominos_pizza_nl", "amenity": "fast_food", "cuisine": "pizza", "takeaway": "yes", "addr:street_address": "Van Hogendorplaan 19A", "addr:city": "VLAARDINGEN", "addr:postcode": "3135BB", "addr:country": "NL", "name": "Domino's Pizza Vlaardingen", "website": "https://www.dominos.nl/winkel/nl-vlaardingen-30559", "brand": "Domino's", "brand:wikidata": "Q839466", "nsi_id": "dominos-b946c5"}, "geometry": {"type": "Point", "coordinates": [4.35667, 51.919434]}},
{"type": "Feature", "id": "weBkVd0Cjw8wsHFTFGfpxFySSRE=", "properties": {"ref": "30558", "@spider": "dominos_pizza_nl", "amenity": "fast_food", "cuisine": "pizza", "takeaway": "yes", "addr:street_address": "Groenestraat 233", "addr:city": "NIJMEGEN", "addr:postcode": "6531HJ", "addr:country": "NL", "name": "Domino's Pizza Nijmegen Groenestraat", "website": "https://www.dominos.nl/winkel/nl-nijmegengroenestraat-30558", "brand": "Domino's", "brand:wikidata": "Q839466", "nsi_id": "dominos-b946c5"}, "geometry": {"type": "Point", "coordinates": [5.84667, 51.83118]}},
{"type": "Feature", "id": "4irspqb5yXzZG2U8QqIvOLY4CdU=", "properties": {"ref": "30956", "@spider": "dominos_pizza_nl", "amenity": "fast_food", "cuisine": "pizza", "takeaway": "yes", "addr:street_address": "Stationsstraat 8", "addr:city": "Oosterwolde", "addr:postcode": "8431EV", "addr:country": "NL", "name": "Domino's Pizza Oosterwolde", "website": "https://www.dominos.nl/winkel/nl-oosterwolde-30956", "brand": "Domino's", "brand:wikidata": "Q839466", "nsi_id": "dominos-b946c5"}, "geometry": {"type": "Point", "coordinates": [6.29135, 52.99061]}},
{"type": "Feature", "id": "Ls_FSiHJwvr7oOTTS_NjZK8rKJE=", "properties": {"ref": "30955", "@spider": "dominos_pizza_nl", "amenity": "fast_food", "cuisine": "pizza", "takeaway": "yes", "addr:street_address": "Hogestraat 25", "addr:city": "Dinxperlo", "addr:postcode": "7091CB", "addr:country": "NL", "name": "Domino's Pizza Dinxperlo", "website": "https://www.dominos.nl/winkel/nl-dinxperlo-30955", "brand": "Domino's", "brand:wikidata": "Q839466", "nsi_id": "dominos-b946c5"}, "geometry": {"type": "Point", "coordinates": [6.48796, 51.86287]}},
{"type": "Feature", "id": "LeytQTBVhgVgeI3Ib_KPI9fwGbk=", "properties": {"ref": "30954", "@spider": "dominos_pizza_nl", "amenity": "fast_food", "cuisine": "pizza", "takeaway": "yes", "addr:street_address": "Kerkstraat 3A", "addr:city": "Horst", "addr:postcode": "5961GC", "addr:country": "NL", "name": "Domino's Pizza Horst", "website": "https://www.dominos.nl/winkel/nl-horst-30954", "brand": "Domino's", "brand:wikidata": "Q839466", "nsi_id": "dominos-b946c5"}, "geometry": {"type": "Point", "coordinates": [6.05383, 51.45171]}},
{"type": "Feature", "id": "16F7rfvyIj3ZhomSszkrYQWYSao=", "properties": {"ref": "30952", "@spider": "dominos_pizza_nl", "amenity": "fast_food", "cuisine": "pizza", "takeaway": "yes", "addr:street_address": "Kort Ambachtlaan 117", "addr:city": "ZWIJNDRECHT", "addr:postcode": "3333 EK", "addr:country": "NL", "name": "Domino's Pizza Zwijndrecht Kort Ambachtlaan", "website": "https://www.dominos.nl/winkel/nl-zwijndrechtkortambachtlaan-30952", "brand": "Domino's", "brand:wikidata": "Q839466", "nsi_id": "dominos-b946c5"}, "geometry": {"type": "Point", "coordinates": [4.62679, 51.812908]}},
{"type": "Feature", "id": "VrFN-NPYQsCXfik8mHmbyg57qck=", "properties": {"ref": "30950", "@spider": "dominos_pizza_nl", "amenity": "fast_food", "cuisine": "pizza", "takeaway": "yes", "addr:street_address": "Dorpsstraat 49B", "addr:city": "BENNEKOM", "addr:postcode": "6721JJ", "addr:country": "NL", "name": "Domino's Pizza Bennekom", "website": "https://www.dominos.nl/winkel/nl-bennekom-30950", "brand": "Domino's", "brand:wikidata": "Q839466", "nsi_id": "dominos-b946c5"}, "geometry": {"type": "Point", "coordinates": [5.67609, 51.99751]}},
{"type": "Feature", "id": "NavlE1uUJ9h-ZDYcOAgQvSBiwnA=", "properties": {"ref": "30949", "@spider": "dominos_pizza_nl", "amenity": "fast_food", "cuisine": "pizza", "takeaway": "yes", "addr:street_address": "Kleuvenstee 39", "addr:city": "ASSEN", "addr:postcode": "9403LT", "addr:country": "NL", "name": "Domino's Pizza Assen Marsdijk", "website": "https://www.dominos.nl/winkel/nl-assenmarsdijk-30949", "brand": "Domino's", "brand:wikidata": "Q839466", "nsi_id": "dominos-b946c5"}, "geometry": {"type": "Point", "coordinates": [6.58599, 53.01765]}},
{"type": "Feature", "id": "V_oR-St2ElU-X0Twyy7WDKtTkSE=", "properties": {"ref": "30947", "@spider": "dominos_pizza_nl", "amenity": "fast_food", "cuisine": "pizza", "takeaway": "yes", "addr:street_address": "Kolkstraat 10", "addr:city": "NIJKERK", "addr:postcode": "3861AK", "addr:country": "NL", "name": "Domino's Pizza Nijkerk", "website": "https://www.dominos.nl/winkel/nl-nijkerk-30947", "brand": "Domino's", "brand:wikidata": "Q839466", "nsi_id": "dominos-b946c5"}, "geometry": {"type": "Point", "coordinates": [5.48398, 52.22477]}},
{"type": "Feature", "id": "u7Ntn4KG8U1nGKe2NxxbC9qGIwg=", "properties": {"ref": "30945", "@spider": "dominos_pizza_nl", "amenity": "fast_food", "cuisine": "pizza", "takeaway": "yes", "addr:street_address": "Berkhoutlaan 3", "addr:city": "LISSE", "addr:postcode": "2161EL", "addr:country": "NL", "name": "Domino's Pizza Lisse", "website": "https://www.dominos.nl/winkel/nl-lisse-30945", "brand": "Domino's", "brand:wikidata": "Q839466", "nsi_id": "dominos-b946c5"}, "geometry": {"type": "Point", "coordinates": [4.55426, 52.26067]}},
{"type": "Feature", "id": "3uWt5uNB_HLAYqNaPM1PYMgXlDM=", "properties": {"ref": "30942", "@spider": "dominos_pizza_nl", "amenity": "fast_food", "cuisine": "pizza", "takeaway": "yes", "addr:street_address": "Meerkreuk 30", "addr:city": "OUDE WETERING", "addr:postcode": "2377 VM", "addr:country": "NL", "name": "Domino's Pizza Oude Wetering", "website": "https://www.dominos.nl/winkel/nl-oudewetering-30942", "brand": "Domino's", "brand:wikidata": "Q839466", "nsi_id": "dominos-b946c5"}, "geometry": {"type": "Point", "coordinates": [4.64279, 52.20709]}},
{"type": "Feature", "id": "Xf1RBGvr2JoecN_1kpKEquWueC0=", "properties": {"ref": "30940", "@spider": "dominos_pizza_nl", "amenity": "fast_food", "cuisine": "pizza", "takeaway": "yes", "addr:street_address": "Havenpark 5", "addr:city": "Zierikzee", "addr:postcode": "4301JG", "addr:country": "NL", "name": "Domino's Pizza Zierikzee", "website": "https://www.dominos.nl/winkel/nl-zierikzee-30940", "brand": "Domino's", "brand:wikidata": "Q839466", "nsi_id": "dominos-b946c5"}, "geometry": {"type": "Point", "coordinates": [3.92208, 51.64978]}},
{"type": "Feature", "id": "w9poHTXnSMyx05sF_7bYm85sLrs=", "properties": {"ref": "30939", "@spider": "dominos_pizza_nl", "amenity": "fast_food", "cuisine": "pizza", "takeaway": "yes", "addr:street_address": "Lange Schaft 13B", "addr:city": "HOUTEN", "addr:postcode": "3991AP", "addr:country": "NL", "name": "Domino's Pizza Houten Lange Schaft", "website": "https://www.dominos.nl/winkel/nl-houtenlangeschaft-30939", "brand": "Domino's", "brand:wikidata": "Q839466", "nsi_id": "dominos-b946c5"}, "geometry": {"type": "Point", "coordinates": [5.16989, 52.021259]}},
{"type": "Feature", "id": "PbJ2w17oMIIn0kgaVPbfN2wdezE=", "properties": {"ref": "30938", "@spider": "dominos_pizza_nl", "amenity": "fast_food", "cuisine": "pizza", "takeaway": "yes", "addr:street_address": "Markt 18", "addr:city": "Zevenbergen", "addr:postcode": "4761CE", "addr:country": "NL", "name": "Domino's Pizza Zevenbergen", "website": "https://www.dominos.nl/winkel/nl-zevenbergen-30938", "brand": "Domino's", "brand:wikidata": "Q839466", "nsi_id": "dominos-b946c5"}, "geometry": {"type": "Point", "coordinates": [4.60641, 51.64426]}},
{"type": "Feature", "id": "ugSwRIiJO_ZBUIL9dTvpvkECkb8=", "properties": {"ref": "30936", "@spider": "dominos_pizza_nl", "amenity": "fast_food", "cuisine": "pizza", "takeaway": "yes", "addr:street_address": "Kepringelehof 10", "addr:city": "Panningen", "addr:postcode": "5981CP", "addr:country": "NL", "name": "Domino's Pizza Panningen", "website": "https://www.dominos.nl/winkel/nl-panningen-30936", "brand": "Domino's", "brand:wikidata": "Q839466", "nsi_id": "dominos-b946c5"}, "geometry": {"type": "Point", "coordinates": [5.98379, 51.32883]}},
{"type": "Feature", "id": "N2Ve1NLUecEhUOguPzQbYaUuPG4=", "properties": {"ref": "30934", "@spider": "dominos_pizza_nl", "amenity": "fast_food", "cuisine": "pizza", "takeaway": "yes", "addr:street_address": "Overloop 46B", "addr:city": "HELMOND", "addr:postcode": "5704EL", "addr:country": "NL", "name": "Domino's Pizza Helmond Brouwhorst", "website": "https://www.dominos.nl/winkel/nl-helmondbrouwhorst-30934", "brand": "Domino's", "brand:wikidata": "Q839466", "nsi_id": "dominos-b946c5"}, "geometry": {"type": "Point", "coordinates": [5.70148, 51.4696]}},
{"type": "Feature", "id": "0eEiCx88s3JVJ-zacZKC16cWS_g=", "properties": {"ref": "30933", "@spider": "dominos_pizza_nl", "amenity": "fast_food", "cuisine": "pizza", "takeaway": "yes", "addr:street_address": "Friesestraatweg 143-02", "addr:city": "GRONINGEN", "addr:postcode": "9743AA", "addr:country": "NL", "name": "Domino's Pizza Groningen - Friesestraatweg - Woldring", "website": "https://www.dominos.nl/winkel/nl-groningenfriesestraatwegwoldring-30933", "brand": "Domino's", "brand:wikidata": "Q839466", "nsi_id": "dominos-b946c5"}, "geometry": {"type": "Point", "coordinates": [6.539587, 53.221848]}},
{"type": "Feature", "id": "TRBPDpm2KafKbeHNxUu9Xa3PUUE=", "properties": {"ref": "30932", "@spider": "dominos_pizza_nl", "amenity": "fast_food", "cuisine": "pizza", "takeaway": "yes", "addr:street_address": "Marktplein 2", "addr:city": "Twello", "addr:postcode": "7391DZ", "addr:country": "NL", "name": "Domino's Pizza Twello", "website": "https://www.dominos.nl/winkel/nl-twello-30932", "brand": "Domino's", "brand:wikidata": "Q839466", "nsi_id": "dominos-b946c5"}, "geometry": {"type": "Point", "coordinates": [6.10477, 52.23649]}},
{"type": "Feature", "id": "nI26QtUHWv0SC-GFTKnoxal_H2k=", "properties": {"ref": "30930", "@spider": "dominos_pizza_nl", "amenity": "fast_food", "cuisine": "pizza", "takeaway": "yes", "addr:street_address": "Raadhuisplein 45", "addr:city": "Hoogkarspel", "addr:postcode": "1616 AV", "addr:country": "NL", "name": "Domino's Pizza Hoogkarspel", "website": "https://www.dominos.nl/winkel/nl-hoogkarspel-30930", "brand": "Domino's", "brand:wikidata": "Q839466", "nsi_id": "dominos-b946c5"}, "geometry": {"type": "Point", "coordinates": [5.17735, 52.69514]}},
{"type": "Feature", "id": "gNse91szwiLJnrbwvs58XsInkWY=", "properties": {"ref": "30929", "@spider": "dominos_pizza_nl", "amenity": "fast_food", "cuisine": "pizza", "takeaway": "yes", "addr:street_address": "Stationsstraat 54", "addr:city": "ERMELO", "addr:postcode": "3851NJ", "addr:country": "NL", "name": "Domino's Pizza Ermelo", "website": "https://www.dominos.nl/winkel/nl-ermelo-30929", "brand": "Domino's", "brand:wikidata": "Q839466", "nsi_id": "dominos-b946c5"}, "geometry": {"type": "Point", "coordinates": [5.62395, 52.30046]}},
{"type": "Feature", "id": "--YgB_UGEUIB1ybTgxICPPEndPM=", "properties": {"ref": "30928", "@spider": "dominos_pizza_nl", "amenity": "fast_food", "cuisine": "pizza", "takeaway": "yes", "addr:street_address": "Albert Plesmanstraat 11", "addr:city": "Schoonhoven", "addr:postcode": "2871HJ", "addr:country": "NL", "name": "Domino's Pizza Schoonhoven", "website": "https://www.dominos.nl/winkel/nl-schoonhoven-30928", "brand": "Domino's", "brand:wikidata": "Q839466", "nsi_id": "dominos-b946c5"}, "geometry": {"type": "Point", "coordinates": [4.84544, 51.9521]}},
{"type": "Feature", "id": "YeZR5JoL6V1EGaUpjPOIYvdsKIU=", "properties": {"ref": "30927", "@spider": "dominos_pizza_nl", "amenity": "fast_food", "cuisine": "pizza", "takeaway": "yes", "addr:street_address": "Middelgraaf 40B", "addr:city": "Ulft", "addr:postcode": "7071WT", "addr:country": "NL", "name": "Domino's Pizza Ulft", "website": "https://www.dominos.nl/winkel/nl-ulft-30927", "brand": "Domino's", "brand:wikidata": "Q839466", "nsi_id": "dominos-b946c5"}, "geometry": {"type": "Point", "coordinates": [6.37971, 51.89044]}},
{"type": "Feature", "id": "o3kb0bhF_AjTGbFf5mfEzTHmVoY=", "properties": {"ref": "30926", "@spider": "dominos_pizza_nl", "amenity": "fast_food", "cuisine": "pizza", "takeaway": "yes", "addr:street_address": "Raadhuisplein 85", "addr:city": "Stein", "addr:postcode": "6171 JC", "addr:country": "NL", "name": "Domino's Pizza Stein", "website": "https://www.dominos.nl/winkel/nl-stein-30926", "brand": "Domino's", "brand:wikidata": "Q839466", "nsi_id": "dominos-b946c5"}, "geometry": {"type": "Point", "coordinates": [5.76756, 50.96857]}},
{"type": "Feature", "id": "WEpNIf27tlBhYcmYLKHXpFNuyNQ=", "properties": {"ref": "30925", "@spider": "dominos_pizza_nl", "amenity": "fast_food", "cuisine": "pizza", "takeaway": "yes", "addr:street_address": "Stuijvenburchstraat 44A", "addr:city": "Eerbeek", "addr:postcode": "6961 CW", "addr:country": "NL", "name": "Domino's Pizza Eerbeek", "website": "https://www.dominos.nl/winkel/nl-eerbeek-30925", "brand": "Domino's", "brand:wikidata": "Q839466", "nsi_id": "dominos-b946c5"}, "geometry": {"type": "Point", "coordinates": [6.06553, 52.10532]}},
{"type": "Feature", "id": "p5WS3OW4uxqdRrB_SBpObZuO3WU=", "properties": {"ref": "30924", "@spider": "dominos_pizza_nl", "amenity": "fast_food", "cuisine": "pizza", "takeaway": "yes", "addr:street_address": "Stationsstraat 18", "addr:city": "Wierden", "addr:postcode": "7641 BW", "addr:country": "NL", "name": "Domino's Pizza Wierden", "website": "https://www.dominos.nl/winkel/nl-wierden-30924", "brand": "Domino's", "brand:wikidata": "Q839466", "nsi_id": "dominos-b946c5"}, "geometry": {"type": "Point", "coordinates": [6.592163, 52.3589]}},
{"type": "Feature", "id": "k8vywNWWa2CvXEOXdm61duNdynI=", "properties": {"ref": "30923", "@spider": "dominos_pizza_nl", "amenity": "fast_food", "cuisine": "pizza", "takeaway": "yes", "addr:street_address": "Midstraat 106", "addr:city": "JOURE", "addr:postcode": "8501AT", "addr:country": "NL", "name": "Domino's Pizza Joure", "website": "https://www.dominos.nl/winkel/nl-joure-30923", "brand": "Domino's", "brand:wikidata": "Q839466", "nsi_id": "dominos-b946c5"}, "geometry": {"type": "Point", "coordinates": [5.79693, 52.96669]}},
{"type": "Feature", "id": "iXXA51ygmQu2pc2NmtRQRMo9Gng=", "properties": {"ref": "30922", "@spider": "dominos_pizza_nl", "amenity": "fast_food", "cuisine": "pizza", "takeaway": "yes", "addr:street_address": "Koophandel 17", "addr:city": "Dokkum", "addr:postcode": "9101 WZ", "addr:country": "NL", "name": "Domino's Pizza Dokkum", "website": "https://www.dominos.nl/winkel/nl-dokkum-30922", "brand": "Domino's", "brand:wikidata": "Q839466", "nsi_id": "dominos-b946c5"}, "geometry": {"type": "Point", "coordinates": [6.00935, 53.323]}},
{"type": "Feature", "id": "keeaFuu68A1G2KmgAF2gIEz9pRg=", "properties": {"ref": "30921", "@spider": "dominos_pizza_nl", "amenity": "fast_food", "cuisine": "pizza", "takeaway": "yes", "addr:street_address": "Stationsstraat 158B", "addr:city": "APELDOORN", "addr:postcode": "7311MJ", "addr:country": "NL", "name": "Domino's Pizza Apeldoorn Centrum", "website": "https://www.dominos.nl/winkel/nl-apeldoorncentrum-30921", "brand": "Domino's", "brand:wikidata": "Q839466", "nsi_id": "dominos-b946c5"}, "geometry": {"type": "Point", "coordinates": [5.965866, 52.214756]}},
{"type": "Feature", "id": "vvo3RZg5n5JrELhKxT40Uj3vIKU=", "properties": {"ref": "30920", "@spider": "dominos_pizza_nl", "amenity": "fast_food", "cuisine": "pizza", "takeaway": "yes", "addr:street_address": "Bongerd 22", "addr:city": "HEERLEN", "addr:postcode": "6411JM", "addr:country": "NL", "name": "Domino's Pizza Heerlen Bongerd", "website": "https://www.dominos.nl/winkel/nl-heerlenbongerd-30920", "brand": "Domino's", "brand:wikidata": "Q839466", "nsi_id": "dominos-b946c5"}, "geometry": {"type": "Point", "coordinates": [5.97959, 50.88812]}},
{"type": "Feature", "id": "zQZXJq7B4uhsZjcwsKNhFYKYsHQ=", "properties": {"ref": "30919", "@spider": "dominos_pizza_nl", "amenity": "fast_food", "cuisine": "pizza", "takeaway": "yes", "addr:street_address": "Kaaikhof 23", "addr:city": "ASSENDELFT", "addr:postcode": "1567JP", "addr:country": "NL", "name": "Domino's Pizza Assendelft", "website": "https://www.dominos.nl/winkel/nl-assendelft-30919", "brand": "Domino's", "brand:wikidata": "Q839466", "nsi_id": "dominos-b946c5"}, "geometry": {"type": "Point", "coordinates": [4.751743, 52.488286]}},
{"type": "Feature", "id": "9dgsZCukLRGVIKJQaAIWE8w-uIU=", "properties": {"ref": "30918", "@spider": "dominos_pizza_nl", "amenity": "fast_food", "cuisine": "pizza", "takeaway": "yes", "addr:street_address": "Marktplein 102", "addr:city": "HOOFDDORP", "addr:postcode": "2132DD", "addr:country": "NL", "name": "Domino's Pizza Hoofddorp - Marktplein - Centrum", "website": "https://www.dominos.nl/winkel/nl-hoofddorpmarktpleincentrum-30918", "brand": "Domino's", "brand:wikidata": "Q839466", "nsi_id": "dominos-b946c5"}, "geometry": {"type": "Point", "coordinates": [4.692804, 52.304156]}},
{"type": "Feature", "id": "60o4g4Yx2N82fkHQE-rx1tLFo74=", "properties": {"ref": "30917", "@spider": "dominos_pizza_nl", "amenity": "fast_food", "cuisine": "pizza", "takeaway": "yes", "addr:street_address": "Grote Markt 8", "addr:city": "Hulst", "addr:postcode": "4561EB", "addr:country": "NL", "name": "Domino's Pizza Hulst", "website": "https://www.dominos.nl/winkel/nl-hulst-30917", "brand": "Domino's", "brand:wikidata": "Q839466", "nsi_id": "dominos-b946c5"}, "geometry": {"type": "Point", "coordinates": [4.052969, 51.280039]}},
{"type": "Feature", "id": "DMPnv84bt3mTaETC9l9BA6OvcxU=", "properties": {"ref": "30916", "@spider": "dominos_pizza_nl", "amenity": "fast_food", "cuisine": "pizza", "takeaway": "yes", "addr:street_address": "Stadionplein 1", "addr:city": "AMSTERDAM", "addr:postcode": "1076CE", "addr:country": "NL", "name": "Domino's Pizza Amsterdam Stadionplein", "website": "https://www.dominos.nl/winkel/nl-amsterdamstadionplein-30916", "brand": "Domino's", "brand:wikidata": "Q839466", "nsi_id": "dominos-b946c5"}, "geometry": {"type": "Point", "coordinates": [4.85832, 52.34474]}},
{"type": "Feature", "id": "dQ9pORa_SKl06tleabL9Om0ppTA=", "properties": {"ref": "30915", "@spider": "dominos_pizza_nl", "amenity": "fast_food", "cuisine": "pizza", "takeaway": "yes", "addr:street_address": "Brugstraat 157", "addr:city": "Klazienaveen", "addr:postcode": "7891AV", "addr:country": "NL", "name": "Domino's Pizza Klazienaveen", "website": "https://www.dominos.nl/winkel/nl-klazienaveen-30915", "brand": "Domino's", "brand:wikidata": "Q839466", "nsi_id": "dominos-b946c5"}, "geometry": {"type": "Point", "coordinates": [6.98589, 52.72577]}},
{"type": "Feature", "id": "mDNW6YzAY5JzpU5IJHiS4S7KU7Q=", "properties": {"ref": "30913", "@spider": "dominos_pizza_nl", "amenity": "fast_food", "cuisine": "pizza", "takeaway": "yes", "addr:street_address": "Wijngaardplein 55", "addr:city": "EINDHOVEN", "addr:postcode": "5632MC", "addr:country": "NL", "name": "Domino's Pizza Eindhoven Vaartbroek", "website": "https://www.dominos.nl/winkel/nl-eindhovenvaartbroek-30913", "brand": "Domino's", "brand:wikidata": "Q839466", "nsi_id": "dominos-b946c5"}, "geometry": {"type": "Point", "coordinates": [5.49295, 51.47726]}},
{"type": "Feature", "id": "avHdP5Y1gOzC-Pb2-y_OhS1LKAA=", "properties": {"ref": "30911", "@spider": "dominos_pizza_nl", "amenity": "fast_food", "cuisine": "pizza", "takeaway": "yes", "addr:street_address": "Marktstraat 2", "addr:city": "Made", "addr:postcode": "4921 BG", "addr:country": "NL", "name": "Domino's Pizza Made", "website": "https://www.dominos.nl/winkel/nl-made-30911", "brand": "Domino's", "brand:wikidata": "Q839466", "nsi_id": "dominos-b946c5"}, "geometry": {"type": "Point", "coordinates": [4.79329, 51.67747]}},
{"type": "Feature", "id": "MsoGlcXP7CCwXFDuEXIkB7K_eUo=", "properties": {"ref": "30910", "@spider": "dominos_pizza_nl", "amenity": "fast_food", "cuisine": "pizza", "takeaway": "yes", "addr:street_address": "Frederik Van De Paltshof 19A", "addr:city": "RHENEN", "addr:postcode": "3911 LA", "addr:country": "NL", "name": "Domino's Pizza Rhenen", "website": "https://www.dominos.nl/winkel/nl-rhenen-30910", "brand": "Domino's", "brand:wikidata": "Q839466", "nsi_id": "dominos-b946c5"}, "geometry": {"type": "Point", "coordinates": [5.56462, 51.95806]}},
{"type": "Feature", "id": "pziXv0QlDfmgSUmcup_F6TciD6M=", "properties": {"ref": "30909", "@spider": "dominos_pizza_nl", "amenity": "fast_food", "cuisine": "pizza", "takeaway": "yes", "addr:street_address": "Kloosterplein 1", "addr:city": "GOIRLE", "addr:postcode": "5051AR", "addr:country": "NL", "name": "Domino's Pizza Goirle", "website": "https://www.dominos.nl/winkel/nl-goirle-30909", "brand": "Domino's", "brand:wikidata": "Q839466", "nsi_id": "dominos-b946c5"}, "geometry": {"type": "Point", "coordinates": [5.06705, 51.52009]}},
{"type": "Feature", "id": "n7_sWYKsn26W_9G2_zTITp5u7vQ=", "properties": {"ref": "30908", "@spider": "dominos_pizza_nl", "amenity": "fast_food", "cuisine": "pizza", "takeaway": "yes", "addr:street_address": "Van Harenstraat 4C", "addr:city": "WOLVEGA", "addr:postcode": "8471JD", "addr:country": "NL", "name": "Domino's Pizza Wolvega", "website": "https://www.dominos.nl/winkel/nl-wolvega-30908", "brand": "Domino's", "brand:wikidata": "Q839466", "nsi_id": "dominos-b946c5"}, "geometry": {"type": "Point", "coordinates": [6.00134, 52.87636]}},
{"type": "Feature", "id": "desyl8-5wv06-RTibqLmY6f1vog=", "properties": {"ref": "30905", "@spider": "dominos_pizza_nl", "amenity": "fast_food", "cuisine": "pizza", "takeaway": "yes", "addr:street_address": "Rimsky Korssakovweg 3", "addr:city": "ALMERE", "addr:postcode": "1323LP", "addr:country": "NL", "name": "Domino's Pizza Almere Muziekwijk", "website": "https://www.dominos.nl/winkel/nl-almeremuziekwijk-30905", "brand": "Domino's", "brand:wikidata": "Q839466", "nsi_id": "dominos-b946c5"}, "geometry": {"type": "Point", "coordinates": [5.19061, 52.366554]}},
{"type": "Feature", "id": "NsN3oydcVqsFAI8DNF39SQVW89c=", "properties": {"ref": "30903", "@spider": "dominos_pizza_nl", "amenity": "fast_food", "cuisine": "pizza", "takeaway": "yes", "addr:street_address": "Dijkstraat 62B", "addr:city": "Aalten", "addr:postcode": "7121EW", "addr:country": "NL", "name": "Domino's Pizza Aalten", "website": "https://www.dominos.nl/winkel/nl-aalten-30903", "brand": "Domino's", "brand:wikidata": "Q839466", "nsi_id": "dominos-b946c5"}, "geometry": {"type": "Point", "coordinates": [6.58065, 51.92216]}},
{"type": "Feature", "id": "9Cm6uRAO8W6m5C3u-_LI6or_shE=", "properties": {"ref": "30902", "@spider": "dominos_pizza_nl", "amenity": "fast_food", "cuisine": "pizza", "takeaway": "yes", "addr:street_address": "Kerkstraat 49", "addr:city": "Geldermalsen", "addr:postcode": "4191AA", "addr:country": "NL", "name": "Domino's Pizza Geldermalsen", "website": "https://www.dominos.nl/winkel/nl-geldermalsen-30902", "brand": "Domino's", "brand:wikidata": "Q839466", "nsi_id": "dominos-b946c5"}, "geometry": {"type": "Point", "coordinates": [5.28857, 51.88259]}},
{"type": "Feature", "id": "vyXIixssYKnGZ6J3yxKP1p6VcwU=", "properties": {"ref": "30901", "@spider": "dominos_pizza_nl", "amenity": "fast_food", "cuisine": "pizza", "takeaway": "yes", "addr:street_address": "Slangenburg 8", "addr:city": "DORDRECHT", "addr:postcode": "3328DN", "addr:country": "NL", "name": "Domino's Pizza Dordrecht Slangenburg", "website": "https://www.dominos.nl/winkel/nl-dordrechtslangenburg-30901", "brand": "Domino's", "brand:wikidata": "Q839466", "nsi_id": "dominos-b946c5"}, "geometry": {"type": "Point", "coordinates": [4.6753, 51.77464]}},
{"type": "Feature", "id": "Hp2BeKsQmkY2shAUBX8wzepY5aw=", "properties": {"ref": "30899", "@spider": "dominos_pizza_nl", "amenity": "fast_food", "cuisine": "pizza", "takeaway": "yes", "addr:street_address": "Grotestraat 145", "addr:city": "DRUNEN", "addr:postcode": "5151BK", "addr:country": "NL", "name": "Domino's Pizza Drunen", "website": "https://www.dominos.nl/winkel/nl-drunen-30899", "brand": "Domino's", "brand:wikidata": "Q839466", "nsi_id": "dominos-b946c5"}, "geometry": {"type": "Point", "coordinates": [5.13381, 51.68617]}},
{"type": "Feature", "id": "K3KbfuC0IGHVqFMQW7RVTBsGSJw=", "properties": {"ref": "30898", "@spider": "dominos_pizza_nl", "amenity": "fast_food", "cuisine": "pizza", "takeaway": "yes", "addr:street_address": "Van Damplein 16", "addr:city": "PURMEREND", "addr:postcode": "1448NB", "addr:country": "NL", "name": "Domino's Pizza Purmerend van Damplein", "website": "https://www.dominos.nl/winkel/nl-purmerendvandamplein-30898", "brand": "Domino's", "brand:wikidata": "Q839466", "nsi_id": "dominos-b946c5"}, "geometry": {"type": "Point", "coordinates": [4.93887, 52.49656]}},
{"type": "Feature", "id": "czbwgFsvYTRJ9mBAd2Qx5HL4ix8=", "properties": {"ref": "30896", "@spider": "dominos_pizza_nl", "amenity": "fast_food", "cuisine": "pizza", "takeaway": "yes", "addr:street_address": "Van Ruusbroecstraat 65", "addr:city": "Den Bosch", "addr:postcode": "5216HZ", "addr:country": "NL", "name": "Domino's Pizza Den Bosch Van Ruusbroecstraat", "website": "https://www.dominos.nl/winkel/nl-denboschvanruusbroecstraat-30896", "brand": "Domino's", "brand:wikidata": "Q839466", "nsi_id": "dominos-b946c5"}, "geometry": {"type": "Point", "coordinates": [5.3243, 51.684761]}},
{"type": "Feature", "id": "Jo5nRudzXvkFP3SobUR-KsRfGTo=", "properties": {"ref": "30894", "@spider": "dominos_pizza_nl", "amenity": "fast_food", "cuisine": "pizza", "takeaway": "yes", "addr:street_address": "Dorpsstraat 65", "addr:city": "Mijdrecht", "addr:postcode": "3641EB", "addr:country": "NL", "name": "Domino's Pizza Mijdrecht", "website": "https://www.dominos.nl/winkel/nl-mijdrecht-30894", "brand": "Domino's", "brand:wikidata": "Q839466", "nsi_id": "dominos-b946c5"}, "geometry": {"type": "Point", "coordinates": [4.86629, 52.208931]}},
{"type": "Feature", "id": "TjIJeEUV5uUtwB4FfDIpWnIqyAc=", "properties": {"ref": "30893", "@spider": "dominos_pizza_nl", "amenity": "fast_food", "cuisine": "pizza", "takeaway": "yes", "addr:street_address": "Stationsplein 3", "addr:city": "HEILOO", "addr:postcode": "1851LN", "addr:country": "NL", "name": "Domino's Pizza Heiloo", "website": "https://www.dominos.nl/winkel/nl-heiloo-30893", "brand": "Domino's", "brand:wikidata": "Q839466", "nsi_id": "dominos-b946c5"}, "geometry": {"type": "Point", "coordinates": [4.70205, 52.59989]}},
{"type": "Feature", "id": "SIwnOwm5Nph4qQZGn0CF7-7UNdM=", "properties": {"ref": "30892", "@spider": "dominos_pizza_nl", "amenity": "fast_food", "cuisine": "pizza", "takeaway": "yes", "addr:street_address": "Sint Trudoplein 6", "addr:city": "EINDHOVEN", "addr:postcode": "5616GZ", "addr:country": "NL", "name": "Domino's Pizza Eindhoven Sint Trudoplein", "website": "https://www.dominos.nl/winkel/nl-eindhovensinttrudoplein-30892", "brand": "Domino's", "brand:wikidata": "Q839466", "nsi_id": "dominos-b946c5"}, "geometry": {"type": "Point", "coordinates": [5.45531, 51.44167]}},
{"type": "Feature", "id": "proqb0wvKUbTw1v2kLA4YmK_qTg=", "properties": {"ref": "30891", "@spider": "dominos_pizza_nl", "amenity": "fast_food", "cuisine": "pizza", "takeaway": "yes", "addr:street_address": "Rijksstraatweg 144", "addr:city": "Haren", "addr:postcode": "9752 BM", "addr:country": "NL", "name": "Domino's Pizza Haren", "website": "https://www.dominos.nl/winkel/nl-haren-30891", "brand": "Domino's", "brand:wikidata": "Q839466", "nsi_id": "dominos-b946c5"}, "geometry": {"type": "Point", "coordinates": [6.60236, 53.17385]}},
{"type": "Feature", "id": "wH3AhYD5CF94ynXdNv35iXzgmYE=", "properties": {"ref": "30889", "@spider": "dominos_pizza_nl", "amenity": "fast_food", "cuisine": "pizza", "takeaway": "yes", "addr:street_address": "Balingerbrink 247", "addr:city": "EMMEN", "addr:postcode": "7812SJ", "addr:country": "NL", "name": "Domino's Pizza Emmen  - Balingerbrink - Bargeres", "website": "https://www.dominos.nl/winkel/nl-emmenbalingerbrinkbargeres-30889", "brand": "Domino's", "brand:wikidata": "Q839466", "nsi_id": "dominos-b946c5"}, "geometry": {"type": "Point", "coordinates": [6.887766, 52.764795]}},
{"type": "Feature", "id": "XoRv09bySlSj-AuP_a-WGP0QpPc=", "properties": {"ref": "30888", "@spider": "dominos_pizza_nl", "amenity": "fast_food", "cuisine": "pizza", "takeaway": "yes", "addr:street_address": "Thorbeckeplein 21", "addr:city": "Beuningen", "addr:postcode": "6641CB", "addr:country": "NL", "name": "Domino's Pizza Beuningen", "website": "https://www.dominos.nl/winkel/nl-beuningen-30888", "brand": "Domino's", "brand:wikidata": "Q839466", "nsi_id": "dominos-b946c5"}, "geometry": {"type": "Point", "coordinates": [5.77042, 51.86019]}},
{"type": "Feature", "id": "bSevkfk3diafIo8UcS-o3MuBrrY=", "properties": {"ref": "30887", "@spider": "dominos_pizza_nl", "amenity": "fast_food", "cuisine": "pizza", "takeaway": "yes", "addr:street_address": "De Ziel 2", "addr:city": "Bunschoten", "addr:postcode": "3751BT", "addr:country": "NL", "name": "Domino's Pizza Bunschoten-Spakenburg", "website": "https://www.dominos.nl/winkel/nl-bunschotenspakenburg-30887", "brand": "Domino's", "brand:wikidata": "Q839466", "nsi_id": "dominos-b946c5"}, "geometry": {"type": "Point", "coordinates": [5.37828, 52.252331]}},
{"type": "Feature", "id": "zt3gQIO55ZbeLsQ3tQfhWOQCifM=", "properties": {"ref": "30886", "@spider": "dominos_pizza_nl", "amenity": "fast_food", "cuisine": "pizza", "takeaway": "yes", "addr:street_address": "Raadhuisstraat 133", "addr:city": "Hoogerheide", "addr:postcode": "4631ND", "addr:country": "NL", "name": "Domino's Pizza Hoogerheide", "website": "https://www.dominos.nl/winkel/nl-hoogerheide-30886", "brand": "Domino's", "brand:wikidata": "Q839466", "nsi_id": "dominos-b946c5"}, "geometry": {"type": "Point", "coordinates": [4.32353, 51.42303]}},
{"type": "Feature", "id": "5sCjwa0W0jC8QC8rs9JAqc1oqTk=", "properties": {"ref": "30885", "@spider": "dominos_pizza_nl", "amenity": "fast_food", "cuisine": "pizza", "takeaway": "yes", "addr:street_address": "Sniederslaan 53A", "addr:city": "Bladel", "addr:postcode": "5531EH", "addr:country": "NL", "name": "Domino's Pizza Bladel", "website": "https://www.dominos.nl/winkel/nl-bladel-30885", "brand": "Domino's", "brand:wikidata": "Q839466", "nsi_id": "dominos-b946c5"}, "geometry": {"type": "Point", "coordinates": [5.22097, 51.36766]}},
{"type": "Feature", "id": "aFhVVIYq-pQJ6qRjn2xRyYMmCVQ=", "properties": {"ref": "30883", "@spider": "dominos_pizza_nl", "amenity": "fast_food", "cuisine": "pizza", "takeaway": "yes", "addr:street_address": "Statenweg 41", "addr:city": "Emmen", "addr:postcode": "7824 CS", "addr:country": "NL", "name": "Domino's Pizza Emmen - Statenweg - Angelslo", "website": "https://www.dominos.nl/winkel/nl-emmenstatenwegangelslo-30883", "brand": "Domino's", "brand:wikidata": "Q839466", "nsi_id": "dominos-b946c5"}, "geometry": {"type": "Point", "coordinates": [6.92285, 52.77972]}},
{"type": "Feature", "id": "u79z7dJ_aryTHst3AczmVl8RQts=", "properties": {"ref": "30882", "@spider": "dominos_pizza_nl", "amenity": "fast_food", "cuisine": "pizza", "takeaway": "yes", "addr:street_address": "Schoof 234", "addr:city": "HENDRIK-IDO-AMBACHT", "addr:postcode": "3341EB", "addr:country": "NL", "name": "Domino's Pizza Hendrik-Ido-Ambacht", "website": "https://www.dominos.nl/winkel/nl-hendrikidoambacht-30882", "brand": "Domino's", "brand:wikidata": "Q839466", "nsi_id": "dominos-b946c5"}, "geometry": {"type": "Point", "coordinates": [4.64381, 51.84819]}},
{"type": "Feature", "id": "9d5BoC0_PPH9IvNwu_iMwpRu5dg=", "properties": {"ref": "30880", "@spider": "dominos_pizza_nl", "amenity": "fast_food", "cuisine": "pizza", "takeaway": "yes", "addr:street_address": "Theresiastraat 36", "addr:city": "Den Haag", "addr:postcode": "2593AP", "addr:country": "NL", "name": "Domino's Pizza Den Haag Theresiastraat", "website": "https://www.dominos.nl/winkel/nl-denhaagtheresiastraat-30880", "brand": "Domino's", "brand:wikidata": "Q839466", "nsi_id": "dominos-b946c5"}, "geometry": {"type": "Point", "coordinates": [4.33304, 52.08456]}},
{"type": "Feature", "id": "FIe99j6TqGS1S8tTmv_4DNCLsQA=", "properties": {"ref": "30879", "@spider": "dominos_pizza_nl", "amenity": "fast_food", "cuisine": "pizza", "takeaway": "yes", "addr:street_address": "Kerkstraat 29", "addr:city": "Leerdam", "addr:postcode": "4141AT", "addr:country": "NL", "name": "Domino's Pizza Leerdam", "website": "https://www.dominos.nl/winkel/nl-leerdam-30879", "brand": "Domino's", "brand:wikidata": "Q839466", "nsi_id": "dominos-b946c5"}, "geometry": {"type": "Point", "coordinates": [5.09378, 51.89093]}},
{"type": "Feature", "id": "5_ZyAFRistW8M0tFtqPE4D95DTg=", "properties": {"ref": "30878", "@spider": "dominos_pizza_nl", "amenity": "fast_food", "cuisine": "pizza", "takeaway": "yes", "addr:street_address": "Kajuit 264", "addr:city": "GRONINGEN", "addr:postcode": "9733CT", "addr:country": "NL", "name": "Domino's Pizza Groningen  - Kajuit - Lewenborg", "website": "https://www.dominos.nl/winkel/nl-groningenkajuitlewenborg-30878", "brand": "Domino's", "brand:wikidata": "Q839466", "nsi_id": "dominos-b946c5"}, "geometry": {"type": "Point", "coordinates": [6.623409, 53.238388]}},
{"type": "Feature", "id": "Vu2uS0jbZtKKSJ3i3GmXSmIrBak=", "properties": {"ref": "30877", "@spider": "dominos_pizza_nl", "amenity": "fast_food", "cuisine": "pizza", "takeaway": "yes", "addr:street_address": "Voorstraat 285", "addr:city": "LELYSTAD", "addr:postcode": "8226HD", "addr:country": "NL", "name": "Domino's Pizza Lelystad Voorstraat", "website": "https://www.dominos.nl/winkel/nl-lelystadvoorstraat-30877", "brand": "Domino's", "brand:wikidata": "Q839466", "nsi_id": "dominos-b946c5"}, "geometry": {"type": "Point", "coordinates": [5.49085, 52.49416]}},
{"type": "Feature", "id": "H71XF5ugYP7NFsmrz9qKOGX5UeM=", "properties": {"ref": "30876", "@spider": "dominos_pizza_nl", "amenity": "fast_food", "cuisine": "pizza", "takeaway": "yes", "addr:street_address": "Slotermeerlaan 105A", "addr:city": "AMSTERDAM", "addr:postcode": "1063JN", "addr:country": "NL", "name": "Domino's Pizza Amsterdam Slotermeerlaan", "website": "https://www.dominos.nl/winkel/nl-amsterdamslotermeerlaan-30876", "brand": "Domino's", "brand:wikidata": "Q839466", "nsi_id": "dominos-b946c5"}, "geometry": {"type": "Point", "coordinates": [4.82024, 52.37985]}},
{"type": "Feature", "id": "GR2GwUjSK1gaxhIltHMcE5QeUnI=", "properties": {"ref": "30874", "@spider": "dominos_pizza_nl", "amenity": "fast_food", "cuisine": "pizza", "takeaway": "yes", "addr:street_address": "Stationsplein 1", "addr:city": "Coevorden", "addr:postcode": "7741 GZ", "addr:country": "NL", "name": "Domino's Pizza Coevorden", "website": "https://www.dominos.nl/winkel/nl-coevorden-30874", "brand": "Domino's", "brand:wikidata": "Q839466", "nsi_id": "dominos-b946c5"}, "geometry": {"type": "Point", "coordinates": [6.73605, 52.66294]}},
{"type": "Feature", "id": "erUkUAt6fkSReguI-y7pI2l48JI=", "properties": {"ref": "30873", "@spider": "dominos_pizza_nl", "amenity": "fast_food", "cuisine": "pizza", "takeaway": "yes", "addr:street_address": "Gildenlaan 426C", "addr:city": "APELDOORN", "addr:postcode": "7329EA", "addr:country": "NL", "name": "Domino's Pizza Apeldoorn Eglantier", "website": "https://www.dominos.nl/winkel/nl-apeldoorneglantier-30873", "brand": "Domino's", "brand:wikidata": "Q839466", "nsi_id": "dominos-b946c5"}, "geometry": {"type": "Point", "coordinates": [6.00528, 52.19635]}},
{"type": "Feature", "id": "J_ZcB_teqT39XFyTQOIWTyNKGwQ=", "properties": {"ref": "30872", "@spider": "dominos_pizza_nl", "amenity": "fast_food", "cuisine": "pizza", "takeaway": "yes", "addr:street_address": "Roda J.C. Ring 65", "addr:city": "Kerkrade", "addr:postcode": "6466NH", "addr:country": "NL", "name": "Domino's Pizza Kerkrade Roda JC Stadion", "website": "https://www.dominos.nl/winkel/nl-kerkraderodajcstadion-30872", "brand": "Domino's", "brand:wikidata": "Q839466", "nsi_id": "dominos-b946c5"}, "geometry": {"type": "Point", "coordinates": [6.00579, 50.85619]}},
{"type": "Feature", "id": "Ch2_JQnSiKGmHv03YNi-BVSQt_M=", "properties": {"ref": "30871", "@spider": "dominos_pizza_nl", "amenity": "fast_food", "cuisine": "pizza", "takeaway": "yes", "addr:street_address": "Rembrandtweg 157", "addr:city": "AMSTELVEEN", "addr:postcode": "1181GG", "addr:country": "NL", "name": "Domino's Pizza Amstelveen Rembrandtweg", "website": "https://www.dominos.nl/winkel/nl-amstelveenrembrandtweg-30871", "brand": "Domino's", "brand:wikidata": "Q839466", "nsi_id": "dominos-b946c5"}, "geometry": {"type": "Point", "coordinates": [4.86179, 52.30546]}},
{"type": "Feature", "id": "2WteYLkAfSppgxn-zCjf1qzGjNA=", "properties": {"ref": "30869", "@spider": "dominos_pizza_nl", "amenity": "fast_food", "cuisine": "pizza", "takeaway": "yes", "addr:street_address": "Ootmarsumsestraat 3", "addr:city": "Oldenzaal", "addr:postcode": "7572AA", "addr:country": "NL", "name": "Domino's Pizza Oldenzaal", "website": "https://www.dominos.nl/winkel/nl-oldenzaal-30869", "brand": "Domino's", "brand:wikidata": "Q839466", "nsi_id": "dominos-b946c5"}, "geometry": {"type": "Point", "coordinates": [6.93032, 52.31549]}},
{"type": "Feature", "id": "mgB1Vt9r8VBsJUzjc0dYjCK-fAg=", "properties": {"ref": "30868", "@spider": "dominos_pizza_nl", "amenity": "fast_food", "cuisine": "pizza", "takeaway": "yes", "addr:street_address": "Vogelaar 26", "addr:city": "BERGEN OP ZOOM", "addr:postcode": "4617LG", "addr:country": "NL", "name": "Domino's Pizza Bergen op Zoom Vogelaar", "website": "https://www.dominos.nl/winkel/nl-bergenopzoomvogelaar-30868", "brand": "Domino's", "brand:wikidata": "Q839466", "nsi_id": "dominos-b946c5"}, "geometry": {"type": "Point", "coordinates": [4.28166, 51.48009]}},
{"type": "Feature", "id": "04eK75z8SCbpCl7dcSiVgJ1TqjE=", "properties": {"ref": "30867", "@spider": "dominos_pizza_nl", "amenity": "fast_food", "cuisine": "pizza", "takeaway": "yes", "addr:street_address": "Lieuwenburg 98", "addr:city": "LEEUWARDEN", "addr:postcode": "8925CL", "addr:country": "NL", "name": "Domino's Pizza Leeuwarden - Lieuwenburg - Camminghaburen", "website": "https://www.dominos.nl/winkel/nl-leeuwardenlieuwenburgcamminghaburen-30867", "brand": "Domino's", "brand:wikidata": "Q839466", "nsi_id": "dominos-b946c5"}, "geometry": {"type": "Point", "coordinates": [5.83865, 53.21112]}},
{"type": "Feature", "id": "saTQC3kc6W4TicUcdgtqvq3kC_Q=", "properties": {"ref": "30865", "@spider": "dominos_pizza_nl", "amenity": "fast_food", "cuisine": "pizza", "takeaway": "yes", "addr:street_address": "Molenweg 100", "addr:city": "NIJMEGEN", "addr:postcode": "6542PZ", "addr:country": "NL", "name": "Domino's Pizza Nijmegen Molenweg", "website": "https://www.dominos.nl/winkel/nl-nijmegenmolenweg-30865", "brand": "Domino's", "brand:wikidata": "Q839466", "nsi_id": "dominos-b946c5"}, "geometry": {"type": "Point", "coordinates": [5.83898, 51.84109]}},
{"type": "Feature", "id": "V9yq8fN6-k6s_xIbbjB5wPWBELw=", "properties": {"ref": "30864", "@spider": "dominos_pizza_nl", "amenity": "fast_food", "cuisine": "pizza", "takeaway": "yes", "addr:street_address": "Zomerakker 42", "addr:city": "SPIJKENISSE", "addr:postcode": "3206TH", "addr:country": "NL", "name": "Domino's Pizza Spijkenisse Akkerhof", "website": "https://www.dominos.nl/winkel/nl-spijkenisseakkerhof-30864", "brand": "Domino's", "brand:wikidata": "Q839466", "nsi_id": "dominos-b946c5"}, "geometry": {"type": "Point", "coordinates": [4.31925, 51.83319]}},
{"type": "Feature", "id": "DV4Q_YneFHmv0pKBsSlf4DutcYM=", "properties": {"ref": "30863", "@spider": "dominos_pizza_nl", "amenity": "fast_food", "cuisine": "pizza", "takeaway": "yes", "addr:street_address": "Daalseweg 248", "addr:city": "NIJMEGEN", "addr:postcode": "6521GS", "addr:country": "NL", "name": "Domino's Pizza Nijmegen Daalseweg", "website": "https://www.dominos.nl/winkel/nl-nijmegendaalseweg-30863", "brand": "Domino's", "brand:wikidata": "Q839466", "nsi_id": "dominos-b946c5"}, "geometry": {"type": "Point", "coordinates": [5.876043, 51.837629]}},
{"type": "Feature", "id": "leGoQQRAWqV2lr0aiWrhaeTYa10=", "properties": {"ref": "30862", "@spider": "dominos_pizza_nl", "amenity": "fast_food", "cuisine": "pizza", "takeaway": "yes", "addr:street_address": "Voorstraat 48", "addr:city": "Vianen", "addr:postcode": "4132AS", "addr:country": "NL", "name": "Domino's Pizza Vianen", "website": "https://www.dominos.nl/winkel/nl-vianen-30862", "brand": "Domino's", "brand:wikidata": "Q839466", "nsi_id": "dominos-b946c5"}, "geometry": {"type": "Point", "coordinates": [5.09252, 51.994492]}},
{"type": "Feature", "id": "ptEKA-yLH_nYX8fra72aus-Lb-4=", "properties": {"ref": "30861", "@spider": "dominos_pizza_nl", "amenity": "fast_food", "cuisine": "pizza", "takeaway": "yes", "addr:street_address": "Grote Bredeplaats 8A", "addr:city": "Harlingen", "addr:postcode": "8861BB", "addr:country": "NL", "name": "Domino's Pizza Harlingen", "website": "https://www.dominos.nl/winkel/nl-harlingen-30861", "brand": "Domino's", "brand:wikidata": "Q839466", "nsi_id": "dominos-b946c5"}, "geometry": {"type": "Point", "coordinates": [5.41471, 53.17473]}},
{"type": "Feature", "id": "3Unwl3-3DW_EJ_nqVASPX3n2Tb0=", "properties": {"ref": "30860", "@spider": "dominos_pizza_nl", "amenity": "fast_food", "cuisine": "pizza", "takeaway": "yes", "addr:street_address": "Raadhuisstraat 22", "addr:city": "Roden", "addr:postcode": "9301AB", "addr:country": "NL", "name": "Domino's Pizza Roden", "website": "https://www.dominos.nl/winkel/nl-roden-30860", "brand": "Domino's", "brand:wikidata": "Q839466", "nsi_id": "dominos-b946c5"}, "geometry": {"type": "Point", "coordinates": [6.43257, 53.13708]}},
{"type": "Feature", "id": "-WpXfv11yByND29LaTYFu9XrYVw=", "properties": {"ref": "30859", "@spider": "dominos_pizza_nl", "amenity": "fast_food", "cuisine": "pizza", "takeaway": "yes", "addr:street_address": "Nieuwstraat 30B", "addr:city": "Gemert", "addr:postcode": "5421KP", "addr:country": "NL", "name": "Domino's Pizza Gemert", "website": "https://www.dominos.nl/winkel/nl-gemert-30859", "brand": "Domino's", "brand:wikidata": "Q839466", "nsi_id": "dominos-b946c5"}, "geometry": {"type": "Point", "coordinates": [5.68194, 51.55733]}},
{"type": "Feature", "id": "HojSBsLnU8lyAsz8SbtrGPfXejk=", "properties": {"ref": "30858", "@spider": "dominos_pizza_nl", "amenity": "fast_food", "cuisine": "pizza", "takeaway": "yes", "addr:street_address": "Koppelstraat 70", "addr:city": "Beek en Donk", "addr:postcode": "5741GD", "addr:country": "NL", "name": "Domino's Pizza Beek en Donk", "website": "https://www.dominos.nl/winkel/nl-beekendonk-30858", "brand": "Domino's", "brand:wikidata": "Q839466", "nsi_id": "dominos-b946c5"}, "geometry": {"type": "Point", "coordinates": [5.63055, 51.53832]}},
{"type": "Feature", "id": "eWgwwIfzHWCDFnxk3fSwCAcof14=", "properties": {"ref": "30857", "@spider": "dominos_pizza_nl", "amenity": "fast_food", "cuisine": "pizza", "takeaway": "yes", "addr:street_address": "Raadhuisplein 2", "addr:city": "SON EN BREUGEL", "addr:postcode": "5691AM", "addr:country": "NL", "name": "Domino's Pizza Son en Breugel", "website": "https://www.dominos.nl/winkel/nl-sonenbreugel-30857", "brand": "Domino's", "brand:wikidata": "Q839466", "nsi_id": "dominos-b946c5"}, "geometry": {"type": "Point", "coordinates": [5.49152, 51.51014]}},
{"type": "Feature", "id": "lEdebIyxQ9esEQ4GciorMa172e0=", "properties": {"ref": "30856", "@spider": "dominos_pizza_nl", "amenity": "fast_food", "cuisine": "pizza", "takeaway": "yes", "addr:street_address": "Laan Naar Emiclaer 85", "addr:city": "AMERSFOORT", "addr:postcode": "3823EG", "addr:country": "NL", "name": "Domino's Pizza Amersfoort Emiclaer", "website": "https://www.dominos.nl/winkel/nl-amersfoortemiclaer-30856", "brand": "Domino's", "brand:wikidata": "Q839466", "nsi_id": "dominos-b946c5"}, "geometry": {"type": "Point", "coordinates": [5.3988, 52.18569]}},
{"type": "Feature", "id": "_aKnZYVPScGmLt3sFkoUxMWmGHc=", "properties": {"ref": "30855", "@spider": "dominos_pizza_nl", "amenity": "fast_food", "cuisine": "pizza", "takeaway": "yes", "addr:street_address": "Anton Pieckplein 117B", "addr:city": "KAATSHEUVEL", "addr:postcode": "5171CV", "addr:country": "NL", "name": "Domino's Pizza Kaatsheuvel", "website": "https://www.dominos.nl/winkel/nl-kaatsheuvel-30855", "brand": "Domino's", "brand:wikidata": "Q839466", "nsi_id": "dominos-b946c5"}, "geometry": {"type": "Point", "coordinates": [5.03192, 51.65994]}},
{"type": "Feature", "id": "44f07kiVAkm-nmhPiv9RWzRswM8=", "properties": {"ref": "30854", "@spider": "dominos_pizza_nl", "amenity": "fast_food", "cuisine": "pizza", "takeaway": "yes", "addr:street_address": "Horsterweg 28", "addr:city": "Zeewolde", "addr:postcode": "3891EV", "addr:country": "NL", "name": "Domino's Pizza Zeewolde", "website": "https://www.dominos.nl/winkel/nl-zeewolde-30854", "brand": "Domino's", "brand:wikidata": "Q839466", "nsi_id": "dominos-b946c5"}, "geometry": {"type": "Point", "coordinates": [5.54147, 52.32993]}},
{"type": "Feature", "id": "F5BvzPF6m4qg8c2_5ijL_scS8fQ=", "properties": {"ref": "30853", "@spider": "dominos_pizza_nl", "amenity": "fast_food", "cuisine": "pizza", "takeaway": "yes", "addr:street_address": "Lindenburg 25", "addr:city": "ROOSENDAAL", "addr:postcode": "4707CR", "addr:country": "NL", "name": "Domino's Pizza Roosendaal Lindenburg", "website": "https://www.dominos.nl/winkel/nl-roosendaallindenburg-30853", "brand": "Domino's", "brand:wikidata": "Q839466", "nsi_id": "dominos-b946c5"}, "geometry": {"type": "Point", "coordinates": [4.47296, 51.520535]}},
{"type": "Feature", "id": "rIzD3n6gWyEQgbZC_Ka3kqrwwKM=", "properties": {"ref": "30852", "@spider": "dominos_pizza_nl", "amenity": "fast_food", "cuisine": "pizza", "takeaway": "yes", "addr:street_address": "Plantsoenstraat 1A", "addr:city": "Doetinchem", "addr:postcode": "7001AA", "addr:country": "NL", "name": "Domino's Pizza Doetinchem Plantsoenstraat", "website": "https://www.dominos.nl/winkel/nl-doetinchemplantsoenstraat-30852", "brand": "Domino's", "brand:wikidata": "Q839466", "nsi_id": "dominos-b946c5"}, "geometry": {"type": "Point", "coordinates": [6.29078, 51.96636]}},
{"type": "Feature", "id": "8QDxKatiX2J0HN5Z2lETXW0-Mjg=", "properties": {"ref": "30851", "@spider": "dominos_pizza_nl", "amenity": "fast_food", "cuisine": "pizza", "takeaway": "yes", "addr:street_address": "Eskerplein 17A", "addr:city": "ALMELO", "addr:postcode": "7603WH", "addr:country": "NL", "name": "Domino's Pizza Almelo Eskerplein", "website": "https://www.dominos.nl/winkel/nl-almeloeskerplein-30851", "brand": "Domino's", "brand:wikidata": "Q839466", "nsi_id": "dominos-b946c5"}, "geometry": {"type": "Point", "coordinates": [6.6787, 52.3656]}},
{"type": "Feature", "id": "q1Z7AW3U03UBtzm2-CrOxlbevm4=", "properties": {"ref": "30850", "@spider": "dominos_pizza_nl", "amenity": "fast_food", "cuisine": "pizza", "takeaway": "yes", "addr:street_address": "Kennemerplein 12", "addr:city": "HAARLEM", "addr:postcode": "2011MJ", "addr:country": "NL", "name": "Domino's Pizza Haarlem  - Station Kennemerplein", "website": "https://www.dominos.nl/winkel/nl-haarlemstationkennemerplein-30850", "brand": "Domino's", "brand:wikidata": "Q839466", "nsi_id": "dominos-b946c5"}, "geometry": {"type": "Point", "coordinates": [4.6392, 52.3884]}},
{"type": "Feature", "id": "7heUtLigoQoQBGya5zvqCDcCqYY=", "properties": {"ref": "30848", "@spider": "dominos_pizza_nl", "amenity": "fast_food", "cuisine": "pizza", "takeaway": "yes", "addr:street_address": "Samuel Esmeijerplein 29", "addr:city": "ROTTERDAM", "addr:postcode": "3067AP", "addr:country": "NL", "name": "Domino's Pizza Rotterdam Samuel Esmeijerplein", "website": "https://www.dominos.nl/winkel/nl-rotterdamsamuelesmeijerplein-30848", "brand": "Domino's", "brand:wikidata": "Q839466", "nsi_id": "dominos-b946c5"}, "geometry": {"type": "Point", "coordinates": [4.548657, 51.939839]}},
{"type": "Feature", "id": "M40CyxPW6ZTtR_lNiJaGcsavvRE=", "properties": {"ref": "30845", "@spider": "dominos_pizza_nl", "amenity": "fast_food", "cuisine": "pizza", "takeaway": "yes", "addr:street_address": "De Schans 4", "addr:city": "Zaltbommel", "addr:postcode": "5301DL", "addr:country": "NL", "name": "Domino's Pizza Zaltbommel", "website": "https://www.dominos.nl/winkel/nl-zaltbommel-30845", "brand": "Domino's", "brand:wikidata": "Q839466", "nsi_id": "dominos-b946c5"}, "geometry": {"type": "Point", "coordinates": [5.2325, 51.80427]}},
{"type": "Feature", "id": "3xp-BU-ifKI0px7H4qlAzF9-Oao=", "properties": {"ref": "30844", "@spider": "dominos_pizza_nl", "amenity": "fast_food", "cuisine": "pizza", "takeaway": "yes", "addr:street_address": "Pastoor Somstraat 1", "addr:city": "Epe", "addr:postcode": "8162AK", "addr:country": "NL", "name": "Domino's Pizza Epe", "website": "https://www.dominos.nl/winkel/nl-epe-30844", "brand": "Domino's", "brand:wikidata": "Q839466", "nsi_id": "dominos-b946c5"}, "geometry": {"type": "Point", "coordinates": [5.983872, 52.349276]}},
{"type": "Feature", "id": "ByGOJki2IhSqgmdsV6uztgq0xxg=", "properties": {"ref": "30843", "@spider": "dominos_pizza_nl", "amenity": "fast_food", "cuisine": "pizza", "takeaway": "yes", "addr:street_address": "Singel 32", "addr:city": "Wijk bij Duurstede", "addr:postcode": "3961CG", "addr:country": "NL", "name": "Domino's Pizza Wijk bij Duurstede", "website": "https://www.dominos.nl/winkel/nl-wijkbijduurstede-30843", "brand": "Domino's", "brand:wikidata": "Q839466", "nsi_id": "dominos-b946c5"}, "geometry": {"type": "Point", "coordinates": [5.344749, 51.974351]}},
{"type": "Feature", "id": "JFOEEKEz6HNzG7_DhOxeve07TLY=", "properties": {"ref": "30842", "@spider": "dominos_pizza_nl", "amenity": "fast_food", "cuisine": "pizza", "takeaway": "yes", "addr:street_address": "Kievitstraat 23", "addr:city": "Sint Willebrord", "addr:postcode": "4711KH", "addr:country": "NL", "name": "Domino's Pizza Sint Willebrord", "website": "https://www.dominos.nl/winkel/nl-sintwillebrord-30842", "brand": "Domino's", "brand:wikidata": "Q839466", "nsi_id": "dominos-b946c5"}, "geometry": {"type": "Point", "coordinates": [4.59035, 51.54595]}},
{"type": "Feature", "id": "_j1SWzN4rOR0G2PHexeTGvoEWmQ=", "properties": {"ref": "30841", "@spider": "dominos_pizza_nl", "amenity": "fast_food", "cuisine": "pizza", "takeaway": "yes", "addr:street_address": "Laanstraat 132", "addr:city": "BAARN", "addr:postcode": "3743BJ", "addr:country": "NL", "name": "Domino's Pizza Baarn", "website": "https://www.dominos.nl/winkel/nl-baarn-30841", "brand": "Domino's", "brand:wikidata": "Q839466", "nsi_id": "dominos-b946c5"}, "geometry": {"type": "Point", "coordinates": [5.283247, 52.212865]}},
{"type": "Feature", "id": "HwaWP449h0Eu1OhUkiZwVc6IbUw=", "properties": {"ref": "30840", "@spider": "dominos_pizza_nl", "amenity": "fast_food", "cuisine": "pizza", "takeaway": "yes", "addr:street_address": "Scholestraat 42", "addr:city": "Steenwijk", "addr:postcode": "8331HS", "addr:country": "NL", "name": "Domino's Pizza Steenwijk", "website": "https://www.dominos.nl/winkel/nl-steenwijk-30840", "brand": "Domino's", "brand:wikidata": "Q839466", "nsi_id": "dominos-b946c5"}, "geometry": {"type": "Point", "coordinates": [6.120107, 52.787209]}},
{"type": "Feature", "id": "UWofkhYgP-Xqls6kQlHZe3tL2TE=", "properties": {"ref": "30839", "@spider": "dominos_pizza_nl", "amenity": "fast_food", "cuisine": "pizza", "takeaway": "yes", "addr:street_address": "Markt 5", "addr:city": "SCHIJNDEL", "addr:postcode": "5482NE", "addr:country": "NL", "name": "Domino's Pizza Schijndel", "website": "https://www.dominos.nl/winkel/nl-schijndel-30839", "brand": "Domino's", "brand:wikidata": "Q839466", "nsi_id": "dominos-b946c5"}, "geometry": {"type": "Point", "coordinates": [5.434202, 51.619183]}},
{"type": "Feature", "id": "iPV8GxLf0r24J819Pl5yve2cprg=", "properties": {"ref": "30838", "@spider": "dominos_pizza_nl", "amenity": "fast_food", "cuisine": "pizza", "takeaway": "yes", "addr:street_address": "Westhavenkade 19", "addr:city": "VLAARDINGEN", "addr:postcode": "3131AB", "addr:country": "NL", "name": "Domino's Pizza Vlaardingen Westhavenkade", "website": "https://www.dominos.nl/winkel/nl-vlaardingenwesthavenkade-30838", "brand": "Domino's", "brand:wikidata": "Q839466", "nsi_id": "dominos-b946c5"}, "geometry": {"type": "Point", "coordinates": [4.34411, 51.908306]}},
{"type": "Feature", "id": "iQYrZInklT6pnAXb1_nPVRxjicY=", "properties": {"ref": "30837", "@spider": "dominos_pizza_nl", "amenity": "fast_food", "cuisine": "pizza", "takeaway": "yes", "addr:street_address": "Floresstraat 1", "addr:city": "GRONINGEN", "addr:postcode": "9715HM", "addr:country": "NL", "name": "Domino's Pizza Groningen  - Floresstraat - Korrewegwijk", "website": "https://www.dominos.nl/winkel/nl-groningenfloresstraatkorrewegwijk-30837", "brand": "Domino's", "brand:wikidata": "Q839466", "nsi_id": "dominos-b946c5"}, "geometry": {"type": "Point", "coordinates": [6.568263, 53.232247]}},
{"type": "Feature", "id": "7uZdVJt49RWu4VxRmIlwkzgBVQM=", "properties": {"ref": "30836", "@spider": "dominos_pizza_nl", "amenity": "fast_food", "cuisine": "pizza", "takeaway": "yes", "addr:street_address": "Poststraat 12", "addr:city": "Putten", "addr:postcode": "3881BM", "addr:country": "NL", "name": "Domino's Pizza Putten", "website": "https://www.dominos.nl/winkel/nl-putten-30836", "brand": "Domino's", "brand:wikidata": "Q839466", "nsi_id": "dominos-b946c5"}, "geometry": {"type": "Point", "coordinates": [5.60958, 52.260965]}},
{"type": "Feature", "id": "wCeg30EqHPaSkarE4fvm4Hb3oRQ=", "properties": {"ref": "30835", "@spider": "dominos_pizza_nl", "amenity": "fast_food", "cuisine": "pizza", "takeaway": "yes", "addr:street_address": "Theaterplein 1", "addr:city": "Kerkrade", "addr:postcode": "6461DT", "addr:country": "NL", "name": "Domino's Pizza Kerkrade Theaterplein", "website": "https://www.dominos.nl/winkel/nl-kerkradetheaterplein-30835", "brand": "Domino's", "brand:wikidata": "Q839466", "nsi_id": "dominos-b946c5"}, "geometry": {"type": "Point", "coordinates": [6.06343, 50.86635]}},
{"type": "Feature", "id": "xE-EAUPI-KCzfw5qlY9WbPhI-pQ=", "properties": {"ref": "30834", "@spider": "dominos_pizza_nl", "amenity": "fast_food", "cuisine": "pizza", "takeaway": "yes", "addr:street_address": "Hoenderstraat 20", "addr:city": "MAASTRICHT", "addr:postcode": "6211EM", "addr:country": "NL", "name": "Domino's Pizza Maastricht Hoenderstraat", "website": "https://www.dominos.nl/winkel/nl-maastrichthoenderstraat-30834", "brand": "Domino's", "brand:wikidata": "Q839466", "nsi_id": "dominos-b946c5"}, "geometry": {"type": "Point", "coordinates": [5.69307, 50.85126]}},
{"type": "Feature", "id": "F7oLX9wxBMCXsxE4pgPu5vwB23I=", "properties": {"ref": "30833", "@spider": "dominos_pizza_nl", "amenity": "fast_food", "cuisine": "pizza", "takeaway": "yes", "addr:street_address": "Domineeskamp 4", "addr:city": "Raalte", "addr:postcode": "8102CC", "addr:country": "NL", "name": "Domino's Pizza Raalte", "website": "https://www.dominos.nl/winkel/nl-raalte-30833", "brand": "Domino's", "brand:wikidata": "Q839466", "nsi_id": "dominos-b946c5"}, "geometry": {"type": "Point", "coordinates": [6.27461, 52.38446]}},
{"type": "Feature", "id": "vpmpvfJLYIwAsMDwfLg_tok-q04=", "properties": {"ref": "30832", "@spider": "dominos_pizza_nl", "amenity": "fast_food", "cuisine": "pizza", "takeaway": "yes", "addr:street_address": "Pampuslaan 34", "addr:city": "Amsterdam", "addr:postcode": "1087 LA", "addr:country": "NL", "name": "Domino's Pizza Amsterdam IJburg", "website": "https://www.dominos.nl/winkel/nl-amsterdamijburg-30832", "brand": "Domino's", "brand:wikidata": "Q839466", "nsi_id": "dominos-b946c5"}, "geometry": {"type": "Point", "coordinates": [5.008004, 52.351788]}},
{"type": "Feature", "id": "bVLPJaTOvYLcjigYQ2uv_SAmRcs=", "properties": {"ref": "30831", "@spider": "dominos_pizza_nl", "amenity": "fast_food", "cuisine": "pizza", "takeaway": "yes", "addr:street_address": "Plantageweg 25D", "addr:city": "ALBLASSERDAM", "addr:postcode": "2951GN", "addr:country": "NL", "name": "Domino's Pizza Alblasserdam", "website": "https://www.dominos.nl/winkel/nl-alblasserdam-30831", "brand": "Domino's", "brand:wikidata": "Q839466", "nsi_id": "dominos-b946c5"}, "geometry": {"type": "Point", "coordinates": [4.66118, 51.8624]}},
{"type": "Feature", "id": "9_qXI8wE8JEaCcNOxlVXaJg8dYI=", "properties": {"ref": "30828", "@spider": "dominos_pizza_nl", "amenity": "fast_food", "cuisine": "pizza", "takeaway": "yes", "addr:street_address": "De Helling 9", "addr:city": "Dronten", "addr:postcode": "8251GH", "addr:country": "NL", "name": "Domino's Pizza Dronten", "website": "https://www.dominos.nl/winkel/nl-dronten-30828", "brand": "Domino's", "brand:wikidata": "Q839466", "nsi_id": "dominos-b946c5"}, "geometry": {"type": "Point", "coordinates": [5.718306, 52.526014]}},
{"type": "Feature", "id": "HlI6uN-6ze-QbYsUCS5p3pO_3_o=", "properties": {"ref": "30827", "@spider": "dominos_pizza_nl", "amenity": "fast_food", "cuisine": "pizza", "takeaway": "yes", "addr:street_address": "De Linie 62", "addr:city": "GORINCHEM", "addr:postcode": "4208DE", "addr:country": "NL", "name": "Domino's Pizza Gorinchem Hoog-Dalem", "website": "https://www.dominos.nl/winkel/nl-gorinchemhoogdalem-30827", "brand": "Domino's", "brand:wikidata": "Q839466", "nsi_id": "dominos-b946c5"}, "geometry": {"type": "Point", "coordinates": [5.00705, 51.836441]}},
{"type": "Feature", "id": "J1Kf4ilnWiHYPxeRUNnL4nnCG_k=", "properties": {"ref": "30825", "@spider": "dominos_pizza_nl", "amenity": "fast_food", "cuisine": "pizza", "takeaway": "yes", "addr:street_address": "Stadspoort 43", "addr:city": "Ede", "addr:postcode": "6716 RH", "addr:country": "NL", "name": "Domino's Pizza Ede Stadspoort", "website": "https://www.dominos.nl/winkel/nl-edestadspoort-30825", "brand": "Domino's", "brand:wikidata": "Q839466", "nsi_id": "dominos-b946c5"}, "geometry": {"type": "Point", "coordinates": [5.649349, 52.017606]}},
{"type": "Feature", "id": "gBnzEkHSoGgKqiZsJbLv668ctho=", "properties": {"ref": "30824", "@spider": "dominos_pizza_nl", "amenity": "fast_food", "cuisine": "pizza", "takeaway": "yes", "addr:street_address": "Uitslagsweg 99-5", "addr:city": "Hengelo", "addr:postcode": "7556 LN", "addr:country": "NL", "name": "Domino's Pizza Hengelo Uitslagsweg", "website": "https://www.dominos.nl/winkel/nl-hengelouitslagsweg-30824", "brand": "Domino's", "brand:wikidata": "Q839466", "nsi_id": "dominos-b946c5"}, "geometry": {"type": "Point", "coordinates": [6.793229, 52.276777]}},
{"type": "Feature", "id": "-ZbmZoNIHOTQF_qRg4eLb899rPs=", "properties": {"ref": "30823", "@spider": "dominos_pizza_nl", "amenity": "fast_food", "cuisine": "pizza", "takeaway": "yes", "addr:street_address": "E. De Bruijnstraat 25A", "addr:city": "NAARDEN", "addr:postcode": "1411SX", "addr:country": "NL", "name": "Domino's Pizza Naarden", "website": "https://www.dominos.nl/winkel/nl-naarden-30823", "brand": "Domino's", "brand:wikidata": "Q839466", "nsi_id": "dominos-b946c5"}, "geometry": {"type": "Point", "coordinates": [5.146817, 52.298638]}},
{"type": "Feature", "id": "saSF1SgI2cp1V0ivGRPWUQrbLyE=", "properties": {"ref": "30822", "@spider": "dominos_pizza_nl", "amenity": "fast_food", "cuisine": "pizza", "takeaway": "yes", "addr:street_address": "Karel De Grote Plein 33", "addr:city": "DEVENTER", "addr:postcode": "7415DH", "addr:country": "NL", "name": "Domino's Pizza Deventer  - Karel de Groteplein", "website": "https://www.dominos.nl/winkel/nl-deventerkareldegroteplein-30822", "brand": "Domino's", "brand:wikidata": "Q839466", "nsi_id": "dominos-b946c5"}, "geometry": {"type": "Point", "coordinates": [6.158291, 52.267646]}},
{"type": "Feature", "id": "AqUfj02WVWqyrWlD7pCgIGtECEk=", "properties": {"ref": "30821", "@spider": "dominos_pizza_nl", "amenity": "fast_food", "cuisine": "pizza", "takeaway": "yes", "addr:street_address": "Vorstendom 2-14/15", "addr:city": "Cuijk", "addr:postcode": "5431 DD", "addr:country": "NL", "name": "Domino's Pizza Cuijk", "website": "https://www.dominos.nl/winkel/nl-cuijk-30821", "brand": "Domino's", "brand:wikidata": "Q839466", "nsi_id": "dominos-b946c5"}, "geometry": {"type": "Point", "coordinates": [5.88114, 51.73054]}},
{"type": "Feature", "id": "RI7zn4SNCmaenycK3BtB7ITnRPg=", "properties": {"ref": "30820", "@spider": "dominos_pizza_nl", "amenity": "fast_food", "cuisine": "pizza", "takeaway": "yes", "addr:street_address": "Nieuwe Markt 5C", "addr:city": "Borne", "addr:postcode": "7622DD", "addr:country": "NL", "name": "Domino's Pizza Borne", "website": "https://www.dominos.nl/winkel/nl-borne-30820", "brand": "Domino's", "brand:wikidata": "Q839466", "nsi_id": "dominos-b946c5"}, "geometry": {"type": "Point", "coordinates": [6.757179, 52.300922]}},
{"type": "Feature", "id": "oLbDHPK9TRycXzEekfcmdxebCBs=", "properties": {"ref": "30819", "@spider": "dominos_pizza_nl", "amenity": "fast_food", "cuisine": "pizza", "takeaway": "yes", "addr:street_address": "Marktstraat 19", "addr:city": "Bodegraven", "addr:postcode": "2411BE", "addr:country": "NL", "name": "Domino's Pizza Bodegraven", "website": "https://www.dominos.nl/winkel/nl-bodegraven-30819", "brand": "Domino's", "brand:wikidata": "Q839466", "nsi_id": "dominos-b946c5"}, "geometry": {"type": "Point", "coordinates": [4.74829, 52.085833]}},
{"type": "Feature", "id": "7Dtuc4-1vvZMTreGPF4BfsISj1w=", "properties": {"ref": "30818", "@spider": "dominos_pizza_nl", "amenity": "fast_food", "cuisine": "pizza", "takeaway": "yes", "addr:street_address": "Biezenkamp 11-13", "addr:city": "LEUSDEN", "addr:postcode": "3831JA", "addr:country": "NL", "name": "Domino's Pizza Leusden", "website": "https://www.dominos.nl/winkel/nl-leusden-30818", "brand": "Domino's", "brand:wikidata": "Q839466", "nsi_id": "dominos-b946c5"}, "geometry": {"type": "Point", "coordinates": [5.428103, 52.137666]}},
{"type": "Feature", "id": "CDrNmkZuJnb4nTshH_FaPsiQj3o=", "properties": {"ref": "30817", "@spider": "dominos_pizza_nl", "amenity": "fast_food", "cuisine": "pizza", "takeaway": "yes", "addr:street_address": "Willem Ruyslaan 26A-28A", "addr:city": "Rotterdam", "addr:postcode": "3063 ES", "addr:country": "NL", "name": "Domino's Pizza Rotterdam Kralingen", "website": "https://www.dominos.nl/winkel/nl-rotterdamkralingen-30817", "brand": "Domino's", "brand:wikidata": "Q839466", "nsi_id": "dominos-b946c5"}, "geometry": {"type": "Point", "coordinates": [4.50618, 51.92112]}},
{"type": "Feature", "id": "Q_IHOj4bbJAVBNR8HfNWZvEGYCE=", "properties": {"ref": "30816", "@spider": "dominos_pizza_nl", "amenity": "fast_food", "cuisine": "pizza", "takeaway": "yes", "addr:street_address": "Haarlemmerdijk 174", "addr:city": "Amsterdam", "addr:postcode": "1013 JE", "addr:country": "NL", "name": "Domino's Pizza Amsterdam Haarlemmerdijk", "website": "https://www.dominos.nl/winkel/nl-amsterdamhaarlemmerdijk-30816", "brand": "Domino's", "brand:wikidata": "Q839466", "nsi_id": "dominos-b946c5"}, "geometry": {"type": "Point", "coordinates": [4.88498, 52.38414]}},
{"type": "Feature", "id": "flctcSg40ZOgXGw5QBm_zFjTgvU=", "properties": {"ref": "30815", "@spider": "dominos_pizza_nl", "amenity": "fast_food", "cuisine": "pizza", "takeaway": "yes", "addr:street_address": "Grote Krocht 24", "addr:city": "Zandvoort", "addr:postcode": "2042LW", "addr:country": "NL", "name": "Domino's Pizza Zandvoort", "website": "https://www.dominos.nl/winkel/nl-zandvoort-30815", "brand": "Domino's", "brand:wikidata": "Q839466", "nsi_id": "dominos-b946c5"}, "geometry": {"type": "Point", "coordinates": [4.531022, 52.371486]}},
{"type": "Feature", "id": "m3RUmxza_mv_8B1gE8_WR7VQ4uo=", "properties": {"ref": "30814", "@spider": "dominos_pizza_nl", "amenity": "fast_food", "cuisine": "pizza", "takeaway": "yes", "addr:street_address": "Witherenstraat 2", "addr:city": "VENLO", "addr:postcode": "5921GC", "addr:country": "NL", "name": "Domino's Pizza Venlo - Witherenstraat \u2013 Blerick", "website": "https://www.dominos.nl/winkel/nl-venlowitherenstraatblerick-30814", "brand": "Domino's", "brand:wikidata": "Q839466", "nsi_id": "dominos-b946c5"}, "geometry": {"type": "Point", "coordinates": [6.150601, 51.367166]}},
{"type": "Feature", "id": "BFD3p-lVn_Z8sD9OVMQvZn9LH7c=", "properties": {"ref": "30813", "@spider": "dominos_pizza_nl", "amenity": "fast_food", "cuisine": "pizza", "takeaway": "yes", "addr:street_address": "Zeestraat 8C", "addr:city": "Volendam", "addr:postcode": "1131ZE", "addr:country": "NL", "name": "Domino's Pizza Volendam", "website": "https://www.dominos.nl/winkel/nl-volendam-30813", "brand": "Domino's", "brand:wikidata": "Q839466", "nsi_id": "dominos-b946c5"}, "geometry": {"type": "Point", "coordinates": [5.073258, 52.494223]}},
{"type": "Feature", "id": "NyFfCVbS1PSnQX78PI7mW5iWvs4=", "properties": {"ref": "30812", "@spider": "dominos_pizza_nl", "amenity": "fast_food", "cuisine": "pizza", "takeaway": "yes", "addr:street_address": "Nigellapad 1 - Unit 19", "addr:city": "EINDHOVEN", "addr:postcode": "5643CC", "addr:country": "NL", "name": "Domino's Pizza Eindhoven Nigellapad", "website": "https://www.dominos.nl/winkel/nl-eindhovennigellapad-30812", "brand": "Domino's", "brand:wikidata": "Q839466", "nsi_id": "dominos-b946c5"}, "geometry": {"type": "Point", "coordinates": [5.498581, 51.422608]}},
{"type": "Feature", "id": "apFAsuNSefruGbo3YOLp8RwZqQw=", "properties": {"ref": "30811", "@spider": "dominos_pizza_nl", "amenity": "fast_food", "cuisine": "pizza", "takeaway": "yes", "addr:street_address": "Fortuinstraat 18", "addr:city": "Hardenberg", "addr:postcode": "7772BM", "addr:country": "NL", "name": "Domino's Pizza Hardenberg", "website": "https://www.dominos.nl/winkel/nl-hardenberg-30811", "brand": "Domino's", "brand:wikidata": "Q839466", "nsi_id": "dominos-b946c5"}, "geometry": {"type": "Point", "coordinates": [6.61889, 52.574708]}},
{"type": "Feature", "id": "MHtOp1mS9BNM-CSSP-oSYoHVa4k=", "properties": {"ref": "30810", "@spider": "dominos_pizza_nl", "amenity": "fast_food", "cuisine": "pizza", "takeaway": "yes", "addr:street_address": "Rembrandtlaan 53", "addr:city": "SLIEDRECHT", "addr:postcode": "3362AD", "addr:country": "NL", "name": "Domino's Pizza Sliedrecht", "website": "https://www.dominos.nl/winkel/nl-sliedrecht-30810", "brand": "Domino's", "brand:wikidata": "Q839466", "nsi_id": "dominos-b946c5"}, "geometry": {"type": "Point", "coordinates": [4.776492, 51.821863]}},
{"type": "Feature", "id": "URKu1E6oWNoak6uo86XafpTGogc=", "properties": {"ref": "30809", "@spider": "dominos_pizza_nl", "amenity": "fast_food", "cuisine": "pizza", "takeaway": "yes", "addr:street_address": "Callunaplein 42", "addr:city": "Dieren", "addr:postcode": "6951CR", "addr:country": "NL", "name": "Domino's Pizza Dieren", "website": "https://www.dominos.nl/winkel/nl-dieren-30809", "brand": "Domino's", "brand:wikidata": "Q839466", "nsi_id": "dominos-b946c5"}, "geometry": {"type": "Point", "coordinates": [6.101619, 52.050083]}},
{"type": "Feature", "id": "q7tkflQ6U1mRHBoUBkfT9qUh6OI=", "properties": {"ref": "30808", "@spider": "dominos_pizza_nl", "amenity": "fast_food", "cuisine": "pizza", "takeaway": "yes", "addr:street_address": "Reigerhof 163", "addr:city": "NIEUWERKERK AAN DEN IJSSEL", "addr:postcode": "2914KE", "addr:country": "NL", "name": "Domino's Pizza Nieuwerkerk aan den IJssel", "website": "https://www.dominos.nl/winkel/nl-nieuwerkerkaandenijssel-30808", "brand": "Domino's", "brand:wikidata": "Q839466", "nsi_id": "dominos-b946c5"}, "geometry": {"type": "Point", "coordinates": [4.619055, 51.967855]}},
{"type": "Feature", "id": "AoBATFJRSKUFZaiKpbh7qyX17hE=", "properties": {"ref": "30807", "@spider": "dominos_pizza_nl", "amenity": "fast_food", "cuisine": "pizza", "takeaway": "yes", "addr:street_address": "Andriessenplein 41", "addr:city": "DEVENTER", "addr:postcode": "7425GZ", "addr:country": "NL", "name": "Domino's Pizza Deventer  - Andriessenplein", "website": "https://www.dominos.nl/winkel/nl-deventerandriessenplein-30807", "brand": "Domino's", "brand:wikidata": "Q839466", "nsi_id": "dominos-b946c5"}, "geometry": {"type": "Point", "coordinates": [6.224712, 52.261024]}},
{"type": "Feature", "id": "-k1_4FSQ4ctS0C4rtJLVjeWi_MA=", "properties": {"ref": "30806", "@spider": "dominos_pizza_nl", "amenity": "fast_food", "cuisine": "pizza", "takeaway": "yes", "addr:street_address": "Patriottenlaan 6", "addr:city": "ZWOLLE", "addr:postcode": "8014XP", "addr:country": "NL", "name": "Domino's Pizza Zwolle Patriottenlaan", "website": "https://www.dominos.nl/winkel/nl-zwollepatriottenlaan-30806", "brand": "Domino's", "brand:wikidata": "Q839466", "nsi_id": "dominos-b946c5"}, "geometry": {"type": "Point", "coordinates": [6.111907, 52.481815]}},
{"type": "Feature", "id": "pR86VMd5Oq2Nkxqq0fdAvGQN78g=", "properties": {"ref": "30805", "@spider": "dominos_pizza_nl", "amenity": "fast_food", "cuisine": "pizza", "takeaway": "yes", "addr:street_address": "Standerdmolen 29-31", "addr:city": "Leiden", "addr:postcode": "2317 NZ", "addr:country": "NL", "name": "Domino's Pizza Leiden  - Standerdmolen", "website": "https://www.dominos.nl/winkel/nl-leidenstanderdmolen-30805", "brand": "Domino's", "brand:wikidata": "Q839466", "nsi_id": "dominos-b946c5"}, "geometry": {"type": "Point", "coordinates": [4.505796, 52.175822]}},
{"type": "Feature", "id": "_JhNnMxXwvnqXMvLGbLz_S0BUtk=", "properties": {"ref": "30804", "@spider": "dominos_pizza_nl", "amenity": "fast_food", "cuisine": "pizza", "takeaway": "yes", "addr:street_address": "Dorpsstraat 75", "addr:city": "Castricum", "addr:postcode": "1901EJ", "addr:country": "NL", "name": "Domino's Pizza Castricum", "website": "https://www.dominos.nl/winkel/nl-castricum-30804", "brand": "Domino's", "brand:wikidata": "Q839466", "nsi_id": "dominos-b946c5"}, "geometry": {"type": "Point", "coordinates": [4.66561, 52.547014]}},
{"type": "Feature", "id": "KODNejl8qEHM5H1EAm0KvL5bd_E=", "properties": {"ref": "30803", "@spider": "dominos_pizza_nl", "amenity": "fast_food", "cuisine": "pizza", "takeaway": "yes", "addr:street_address": "Wagnerplein 112", "addr:city": "TILBURG", "addr:postcode": "5011LR", "addr:country": "NL", "name": "Domino's Pizza Tilburg Wagnerplein", "website": "https://www.dominos.nl/winkel/nl-tilburgwagnerplein-30803", "brand": "Domino's", "brand:wikidata": "Q839466", "nsi_id": "dominos-b946c5"}, "geometry": {"type": "Point", "coordinates": [5.08596, 51.58348]}},
{"type": "Feature", "id": "FqVs48mSmyPqR9zZwLx0Lzhm-ec=", "properties": {"ref": "30802", "@spider": "dominos_pizza_nl", "amenity": "fast_food", "cuisine": "pizza", "takeaway": "yes", "addr:street_address": "Keizersdijk 22", "addr:city": "Raamsdonksveer", "addr:postcode": "4941GE", "addr:country": "NL", "name": "Domino's Pizza Raamsdonksveer", "website": "https://www.dominos.nl/winkel/nl-raamsdonksveer-30802", "brand": "Domino's", "brand:wikidata": "Q839466", "nsi_id": "dominos-b946c5"}, "geometry": {"type": "Point", "coordinates": [4.874046, 51.697205]}},
{"type": "Feature", "id": "iz0YToJrsCK1Yx_D5PQZKiaObkc=", "properties": {"ref": "30801", "@spider": "dominos_pizza_nl", "amenity": "fast_food", "cuisine": "pizza", "takeaway": "yes", "addr:street_address": "Woenselse Markt 1", "addr:city": "EINDHOVEN", "addr:postcode": "5612CP", "addr:country": "NL", "name": "Domino's Pizza Eindhoven Woenselse Markt", "website": "https://www.dominos.nl/winkel/nl-eindhovenwoenselsemarkt-30801", "brand": "Domino's", "brand:wikidata": "Q839466", "nsi_id": "dominos-b946c5"}, "geometry": {"type": "Point", "coordinates": [5.47199, 51.45197]}},
{"type": "Feature", "id": "NT4e1CnWxcMm-FJwn-gbtMEpF9g=", "properties": {"ref": "30800", "@spider": "dominos_pizza_nl", "amenity": "fast_food", "cuisine": "pizza", "takeaway": "yes", "addr:street_address": "Hortensiastraat 130", "addr:city": "ENSCHEDE", "addr:postcode": "7531GX", "addr:country": "NL", "name": "Domino's Pizza Enschede Stokhorst", "website": "https://www.dominos.nl/winkel/nl-enschedestokhorst-30800", "brand": "Domino's", "brand:wikidata": "Q839466", "nsi_id": "dominos-b946c5"}, "geometry": {"type": "Point", "coordinates": [6.921248, 52.22992]}},
{"type": "Feature", "id": "6ge9vxucuBCZ6ZTdDxFduhS3UAU=", "properties": {"ref": "30799", "@spider": "dominos_pizza_nl", "amenity": "fast_food", "cuisine": "pizza", "takeaway": "yes", "addr:street_address": "Hoge Pad 1-70", "addr:city": "Rijssen", "addr:postcode": "7462TA", "addr:country": "NL", "name": "Domino's Pizza Rijssen", "website": "https://www.dominos.nl/winkel/nl-rijssen-30799", "brand": "Domino's", "brand:wikidata": "Q839466", "nsi_id": "dominos-b946c5"}, "geometry": {"type": "Point", "coordinates": [6.518285, 52.306686]}},
{"type": "Feature", "id": "a1OSx8afn53ZBlErY8r7fgsG72c=", "properties": {"ref": "30795", "@spider": "dominos_pizza_nl", "amenity": "fast_food", "cuisine": "pizza", "takeaway": "yes", "addr:street_address": "Noordzijde 16A", "addr:city": "Emmeloord", "addr:postcode": "8302GL", "addr:country": "NL", "name": "Domino's Pizza Emmeloord", "website": "https://www.dominos.nl/winkel/nl-emmeloord-30795", "brand": "Domino's", "brand:wikidata": "Q839466", "nsi_id": "dominos-b946c5"}, "geometry": {"type": "Point", "coordinates": [5.754228, 52.71187]}},
{"type": "Feature", "id": "0aCZbj7965dp9VB_iaqMBSrnBQ8=", "properties": {"ref": "30794", "@spider": "dominos_pizza_nl", "amenity": "fast_food", "cuisine": "pizza", "takeaway": "yes", "addr:street_address": "Haverkamp 7", "addr:city": "Nunspeet", "addr:postcode": "8071CB", "addr:country": "NL", "name": "Domino's Pizza Nunspeet", "website": "https://www.dominos.nl/winkel/nl-nunspeet-30794", "brand": "Domino's", "brand:wikidata": "Q839466", "nsi_id": "dominos-b946c5"}, "geometry": {"type": "Point", "coordinates": [5.78123, 52.37506]}},
{"type": "Feature", "id": "PyBqCN-l7jqm60kSmisiLMmjegg=", "properties": {"ref": "30793", "@spider": "dominos_pizza_nl", "amenity": "fast_food", "cuisine": "pizza", "takeaway": "yes", "addr:street_address": "Verlengde Hereweg 87", "addr:city": "GRONINGEN", "addr:postcode": "9721AH", "addr:country": "NL", "name": "Domino's Pizza Groningen  - Verlengde Hereweg - Helpman", "website": "https://www.dominos.nl/winkel/nl-groningenverlengdehereweghelpman-30793", "brand": "Domino's", "brand:wikidata": "Q839466", "nsi_id": "dominos-b946c5"}, "geometry": {"type": "Point", "coordinates": [6.579922, 53.197862]}},
{"type": "Feature", "id": "9vYtMMRNO30JgPuA9My2gj7yGHI=", "properties": {"ref": "30792", "@spider": "dominos_pizza_nl", "amenity": "fast_food", "cuisine": "pizza", "takeaway": "yes", "addr:street_address": "Rijnstraat 61A", "addr:city": "AMSTERDAM", "addr:postcode": "1079GW", "addr:country": "NL", "name": "Domino's Pizza Amsterdam Rijnstraat", "website": "https://www.dominos.nl/winkel/nl-amsterdamrijnstraat-30792", "brand": "Domino's", "brand:wikidata": "Q839466", "nsi_id": "dominos-b946c5"}, "geometry": {"type": "Point", "coordinates": [4.90574, 52.34589]}},
{"type": "Feature", "id": "q9mtA2rBcdWKXCKEIFMcyE1EviE=", "properties": {"ref": "30791", "@spider": "dominos_pizza_nl", "amenity": "fast_food", "cuisine": "pizza", "takeaway": "yes", "addr:street_address": "Linnaeusstraat 96", "addr:city": "Amsterdam", "addr:postcode": "1092 CP", "addr:country": "NL", "name": "Domino's Pizza Amsterdam Linnaeusstraat", "website": "https://www.dominos.nl/winkel/nl-amsterdamlinnaeusstraat-30791", "brand": "Domino's", "brand:wikidata": "Q839466", "nsi_id": "dominos-b946c5"}, "geometry": {"type": "Point", "coordinates": [4.927539, 52.35602]}},
{"type": "Feature", "id": "fAk3tBzzI7S8VfxL88xTdeEqaHM=", "properties": {"ref": "30790", "@spider": "dominos_pizza_nl", "amenity": "fast_food", "cuisine": "pizza", "takeaway": "yes", "addr:street_address": "Vijf Meilaan 10F", "addr:city": "LEIDEN", "addr:postcode": "2321RL", "addr:country": "NL", "name": "Domino's Pizza Leiden  - Vijf Meilaan", "website": "https://www.dominos.nl/winkel/nl-leidenvijfmeilaan-30790", "brand": "Domino's", "brand:wikidata": "Q839466", "nsi_id": "dominos-b946c5"}, "geometry": {"type": "Point", "coordinates": [4.478929, 52.147589]}},
{"type": "Feature", "id": "mnlUej4RrlPRpBt7Pd-7C7zYXOg=", "properties": {"ref": "30789", "@spider": "dominos_pizza_nl", "amenity": "fast_food", "cuisine": "pizza", "takeaway": "yes", "addr:street_address": "Teijlingerlaan 9C", "addr:city": "Sassenheim", "addr:postcode": "2171 CB", "addr:country": "NL", "name": "Domino's Pizza Sassenheim", "website": "https://www.dominos.nl/winkel/nl-sassenheim-30789", "brand": "Domino's", "brand:wikidata": "Q839466", "nsi_id": "dominos-b946c5"}, "geometry": {"type": "Point", "coordinates": [4.5241, 52.22843]}},
{"type": "Feature", "id": "GzYfj3TiTD_Z3lCs8gKc6WEJO0g=", "properties": {"ref": "30788", "@spider": "dominos_pizza_nl", "amenity": "fast_food", "cuisine": "pizza", "takeaway": "yes", "addr:street_address": "Venedie 11", "addr:city": "Enkhuizen", "addr:postcode": "1601HA", "addr:country": "NL", "name": "Domino's Pizza Enkhuizen", "website": "https://www.dominos.nl/winkel/nl-enkhuizen-30788", "brand": "Domino's", "brand:wikidata": "Q839466", "nsi_id": "dominos-b946c5"}, "geometry": {"type": "Point", "coordinates": [5.29034, 52.70345]}},
{"type": "Feature", "id": "SY2jm9A61WpSex09LXQf_fJFev4=", "properties": {"ref": "30787", "@spider": "dominos_pizza_nl", "amenity": "fast_food", "cuisine": "pizza", "takeaway": "yes", "addr:street_address": "Parkhof 24", "addr:city": "Nuenen", "addr:postcode": "5671EX", "addr:country": "NL", "name": "Domino's Pizza Nuenen", "website": "https://www.dominos.nl/winkel/nl-nuenen-30787", "brand": "Domino's", "brand:wikidata": "Q839466", "nsi_id": "dominos-b946c5"}, "geometry": {"type": "Point", "coordinates": [5.545591, 51.473337]}},
{"type": "Feature", "id": "E9Y_lPYm_XYAbKiHPEJyLidTtLo=", "properties": {"ref": "30786", "@spider": "dominos_pizza_nl", "amenity": "fast_food", "cuisine": "pizza", "takeaway": "yes", "addr:street_address": "Molenstraat 25-27", "addr:city": "Haaksbergen", "addr:postcode": "7481GK", "addr:country": "NL", "name": "Domino's Pizza Haaksbergen", "website": "https://www.dominos.nl/winkel/nl-haaksbergen-30786", "brand": "Domino's", "brand:wikidata": "Q839466", "nsi_id": "dominos-b946c5"}, "geometry": {"type": "Point", "coordinates": [6.741696, 52.153164]}},
{"type": "Feature", "id": "Pp_v6BwkK7TO-2l0yQIEdjCn5r0=", "properties": {"ref": "30785", "@spider": "dominos_pizza_nl", "amenity": "fast_food", "cuisine": "pizza", "takeaway": "yes", "addr:street_address": "Laan Van Zevenhuizen 335", "addr:city": "Apeldoorn", "addr:postcode": "7323 AV", "addr:country": "NL", "name": "Domino's Pizza Apeldoorn Laan van Zevenhuizen", "website": "https://www.dominos.nl/winkel/nl-apeldoornlaanvanzevenhuizen-30785", "brand": "Domino's", "brand:wikidata": "Q839466", "nsi_id": "dominos-b946c5"}, "geometry": {"type": "Point", "coordinates": [5.984977, 52.228315]}},
{"type": "Feature", "id": "NFtPh4klCclU09zVtENfFQWTpz8=", "properties": {"ref": "30784", "@spider": "dominos_pizza_nl", "amenity": "fast_food", "cuisine": "pizza", "takeaway": "yes", "addr:street_address": "Ina Boudier-Bakkerhof 2", "addr:city": "UTRECHT", "addr:postcode": "3582VX", "addr:country": "NL", "name": "Domino's Pizza Utrecht Ina Boudier Bakkerhof", "website": "https://www.dominos.nl/winkel/nl-utrechtinaboudierbakkerhof-30784", "brand": "Domino's", "brand:wikidata": "Q839466", "nsi_id": "dominos-b946c5"}, "geometry": {"type": "Point", "coordinates": [5.133921, 52.082175]}},
{"type": "Feature", "id": "JkoJ-qaIfEtEfNo80zfzthoBfXg=", "properties": {"ref": "30783", "@spider": "dominos_pizza_nl", "amenity": "fast_food", "cuisine": "pizza", "takeaway": "yes", "addr:street_address": "Badstraat 17A", "addr:city": "Katwijk aan Zee", "addr:postcode": "2225BL", "addr:country": "NL", "name": "Domino's Pizza Katwijk aan Zee", "website": "https://www.dominos.nl/winkel/nl-katwijkaanzee-30783", "brand": "Domino's", "brand:wikidata": "Q839466", "nsi_id": "dominos-b946c5"}, "geometry": {"type": "Point", "coordinates": [4.39639, 52.20469]}},
{"type": "Feature", "id": "ggLoNW8h3pIic9B5RRcWlTttM1M=", "properties": {"ref": "30782", "@spider": "dominos_pizza_nl", "amenity": "fast_food", "cuisine": "pizza", "takeaway": "yes", "addr:street_address": "Aelbrechtskade 206", "addr:city": "Rotterdam", "addr:postcode": "3023 JM", "addr:country": "NL", "name": "Domino's Pizza Rotterdam Aelbrechtskade", "website": "https://www.dominos.nl/winkel/nl-rotterdamaelbrechtskade-30782", "brand": "Domino's", "brand:wikidata": "Q839466", "nsi_id": "dominos-b946c5"}, "geometry": {"type": "Point", "coordinates": [4.44977, 51.91029]}},
{"type": "Feature", "id": "Cj_FXfyNgYTreJe6pjoqxuKYuMQ=", "properties": {"ref": "30781", "@spider": "dominos_pizza_nl", "amenity": "fast_food", "cuisine": "pizza", "takeaway": "yes", "addr:street_address": "Kerkstraat 14", "addr:city": "Huizen", "addr:postcode": "1271RL", "addr:country": "NL", "name": "Domino's Pizza Huizen", "website": "https://www.dominos.nl/winkel/nl-huizen-30781", "brand": "Domino's", "brand:wikidata": "Q839466", "nsi_id": "dominos-b946c5"}, "geometry": {"type": "Point", "coordinates": [5.23299, 52.29738]}},
{"type": "Feature", "id": "tddWZyiEMmSUvLGEeUzYqVRuqC4=", "properties": {"ref": "30780", "@spider": "dominos_pizza_nl", "amenity": "fast_food", "cuisine": "pizza", "takeaway": "yes", "addr:street_address": "Achtersloot 3", "addr:city": "IJSSELSTEIN", "addr:postcode": "3401NR", "addr:country": "NL", "name": "Domino's Pizza IJsselstein", "website": "https://www.dominos.nl/winkel/nl-ijsselstein-30780", "brand": "Domino's", "brand:wikidata": "Q839466", "nsi_id": "dominos-b946c5"}, "geometry": {"type": "Point", "coordinates": [5.03973, 52.01835]}},
{"type": "Feature", "id": "kFvYaiXnwFnqgNS99x1njYK5dtI=", "properties": {"ref": "30779", "@spider": "dominos_pizza_nl", "amenity": "fast_food", "cuisine": "pizza", "takeaway": "yes", "addr:street_address": "Hoofdstraat 28C", "addr:city": "Stadskanaal", "addr:postcode": "9501 CM", "addr:country": "NL", "name": "Domino's Pizza Stadskanaal", "website": "https://www.dominos.nl/winkel/nl-stadskanaal-30779", "brand": "Domino's", "brand:wikidata": "Q839466", "nsi_id": "dominos-b946c5"}, "geometry": {"type": "Point", "coordinates": [6.950668, 52.988632]}},
{"type": "Feature", "id": "Zt5P9dve2nOP4a5orycxzkfeYdg=", "properties": {"ref": "30778", "@spider": "dominos_pizza_nl", "amenity": "fast_food", "cuisine": "pizza", "takeaway": "yes", "addr:street_address": "Rozengracht 166", "addr:city": "Amsterdam", "addr:postcode": "1016 NK", "addr:country": "NL", "name": "Domino's Pizza Amsterdam Rozengracht", "website": "https://www.dominos.nl/winkel/nl-amsterdamrozengracht-30778", "brand": "Domino's", "brand:wikidata": "Q839466", "nsi_id": "dominos-b946c5"}, "geometry": {"type": "Point", "coordinates": [4.87802, 52.37288]}},
{"type": "Feature", "id": "lKXar_Gf7fYYUi0TWMFGNGw1_Z8=", "properties": {"ref": "30777", "@spider": "dominos_pizza_nl", "amenity": "fast_food", "cuisine": "pizza", "takeaway": "yes", "addr:street_address": "Oldambtplein 10", "addr:city": "Winschoten", "addr:postcode": "9671PP", "addr:country": "NL", "name": "Domino's Pizza Winschoten", "website": "https://www.dominos.nl/winkel/nl-winschoten-30777", "brand": "Domino's", "brand:wikidata": "Q839466", "nsi_id": "dominos-b946c5"}, "geometry": {"type": "Point", "coordinates": [7.033285, 53.146465]}},
{"type": "Feature", "id": "iA07usZ6E--tSz5srFVDyA9EF9c=", "properties": {"ref": "30776", "@spider": "dominos_pizza_nl", "amenity": "fast_food", "cuisine": "pizza", "takeaway": "yes", "addr:street_address": "Hoofdstraat 105A", "addr:country": "NL", "name": "Domino's Pizza Driebergen", "website": "https://www.dominos.nl/winkel/nl-driebergen-30776", "brand": "Domino's", "brand:wikidata": "Q839466", "nsi_id": "dominos-b946c5"}, "geometry": {"type": "Point", "coordinates": [5.28194, 52.05265]}},
{"type": "Feature", "id": "WpZ3fveNDhIc9Fj22vJZY7JpY10=", "properties": {"ref": "30775", "@spider": "dominos_pizza_nl", "amenity": "fast_food", "cuisine": "pizza", "takeaway": "yes", "addr:street_address": "Langestraat 227", "addr:city": "'S-GRAVENZANDE", "addr:postcode": "2691BG", "addr:country": "NL", "name": "Domino's Pizza s-Gravenzande", "website": "https://www.dominos.nl/winkel/nl-sgravenzande-30775", "brand": "Domino's", "brand:wikidata": "Q839466", "nsi_id": "dominos-b946c5"}, "geometry": {"type": "Point", "coordinates": [4.16196, 52.00127]}},
{"type": "Feature", "id": "bcYYSkgdnNvKt2zxX0Ue_giUl2M=", "properties": {"ref": "30774", "@spider": "dominos_pizza_nl", "amenity": "fast_food", "cuisine": "pizza", "takeaway": "yes", "addr:street_address": "Stationstraat 4B", "addr:city": "Wormerveer", "addr:postcode": "1521 DT", "addr:country": "NL", "name": "Domino's Pizza Wormerveer", "website": "https://www.dominos.nl/winkel/nl-wormerveer-30774", "brand": "Domino's", "brand:wikidata": "Q839466", "nsi_id": "dominos-b946c5"}, "geometry": {"type": "Point", "coordinates": [4.793077, 52.489913]}},
{"type": "Feature", "id": "tnSTfPlp7uTa_fvUFOC0bJm9pQk=", "properties": {"ref": "30773", "@spider": "dominos_pizza_nl", "amenity": "fast_food", "cuisine": "pizza", "takeaway": "yes", "addr:street_address": "Schoolstraat 7A", "addr:city": "NIEUW-VENNEP", "addr:postcode": "2151AA", "addr:country": "NL", "name": "Domino's Pizza Nieuw-Vennep", "website": "https://www.dominos.nl/winkel/nl-nieuwvennep-30773", "brand": "Domino's", "brand:wikidata": "Q839466", "nsi_id": "dominos-b946c5"}, "geometry": {"type": "Point", "coordinates": [4.63297, 52.26497]}},
{"type": "Feature", "id": "5wIjiiIjhvnXrZRh5PwLurIotXw=", "properties": {"ref": "30772", "@spider": "dominos_pizza_nl", "amenity": "fast_food", "cuisine": "pizza", "takeaway": "yes", "addr:street_address": "Lunenburgstraat 5", "addr:city": "Breda", "addr:postcode": "4834 HG", "addr:country": "NL", "name": "Domino's Pizza Breda de Burcht", "website": "https://www.dominos.nl/winkel/nl-bredadeburcht-30772", "brand": "Domino's", "brand:wikidata": "Q839466", "nsi_id": "dominos-b946c5"}, "geometry": {"type": "Point", "coordinates": [4.805457, 51.571709]}},
{"type": "Feature", "id": "t6gc3fWlQDIjzPBxo4Qr4g2jXzw=", "properties": {"ref": "30771", "@spider": "dominos_pizza_nl", "amenity": "fast_food", "cuisine": "pizza", "takeaway": "yes", "addr:street_address": "Oostlaan 5", "addr:city": "Pijnacker", "addr:postcode": "2641DK", "addr:country": "NL", "name": "Domino's Pizza Pijnacker", "website": "https://www.dominos.nl/winkel/nl-pijnacker-30771", "brand": "Domino's", "brand:wikidata": "Q839466", "nsi_id": "dominos-b946c5"}, "geometry": {"type": "Point", "coordinates": [4.43022, 52.019209]}},
{"type": "Feature", "id": "xBfRZbjomJX6chBowLZiwFMI_Cw=", "properties": {"ref": "30770", "@spider": "dominos_pizza_nl", "amenity": "fast_food", "cuisine": "pizza", "takeaway": "yes", "addr:street_address": "Hatertseweg 815", "addr:country": "NL", "name": "Domino's Pizza Nijmegen Hatertseweg", "website": "https://www.dominos.nl/winkel/nl-nijmegenhatertseweg-30770", "brand": "Domino's", "brand:wikidata": "Q839466", "nsi_id": "dominos-b946c5"}, "geometry": {"type": "Point", "coordinates": [5.824395, 51.808185]}},
{"type": "Feature", "id": "al6uuQIRlkRPuPCmUDfGGbkNmc0=", "properties": {"ref": "30769", "@spider": "dominos_pizza_nl", "amenity": "fast_food", "cuisine": "pizza", "takeaway": "yes", "addr:street_address": "Raadhuislaan 156", "addr:city": "Tegelen", "addr:postcode": "5931NS", "addr:country": "NL", "name": "Domino's Pizza Tegelen", "website": "https://www.dominos.nl/winkel/nl-tegelen-30769", "brand": "Domino's", "brand:wikidata": "Q839466", "nsi_id": "dominos-b946c5"}, "geometry": {"type": "Point", "coordinates": [6.141831, 51.340998]}},
{"type": "Feature", "id": "OVG56vkJwDk2CUpqDioBYakhg1w=", "properties": {"ref": "30768", "@spider": "dominos_pizza_nl", "amenity": "fast_food", "cuisine": "pizza", "takeaway": "yes", "addr:street_address": "Wilhelminaplein 22A", "addr:country": "NL", "name": "Domino's Pizza Someren-Asten", "website": "https://www.dominos.nl/winkel/nl-somerenasten-30768", "brand": "Domino's", "brand:wikidata": "Q839466", "nsi_id": "dominos-b946c5"}, "geometry": {"type": "Point", "coordinates": [5.713654, 51.38541]}},
{"type": "Feature", "id": "vtyrel0K-sgMCNbI28O3GNv_GRk=", "properties": {"ref": "30767", "@spider": "dominos_pizza_nl", "amenity": "fast_food", "cuisine": "pizza", "takeaway": "yes", "addr:street_address": "Fortunastraat 34", "addr:city": "Arnhem", "addr:postcode": "6846XZ", "addr:country": "NL", "name": "Domino's Pizza Arnhem Schuytgraaf", "website": "https://www.dominos.nl/winkel/nl-arnhemschuytgraaf-30767", "brand": "Domino's", "brand:wikidata": "Q839466", "nsi_id": "dominos-b946c5"}, "geometry": {"type": "Point", "coordinates": [5.84724, 51.95356]}},
{"type": "Feature", "id": "cHhHH0pZ_xW1ejfLaL2YzRu8gf8=", "properties": {"ref": "30766", "@spider": "dominos_pizza_nl", "amenity": "fast_food", "cuisine": "pizza", "takeaway": "yes", "addr:street_address": "Dingstraat 6", "addr:country": "NL", "name": "Domino's Pizza Winterswijk", "website": "https://www.dominos.nl/winkel/nl-winterswijk-30766", "brand": "Domino's", "brand:wikidata": "Q839466", "nsi_id": "dominos-b946c5"}, "geometry": {"type": "Point", "coordinates": [6.719336, 51.96885]}},
{"type": "Feature", "id": "eo5sl0DiCZ14yM1AD8sOVbgy734=", "properties": {"ref": "30765", "@spider": "dominos_pizza_nl", "amenity": "fast_food", "cuisine": "pizza", "takeaway": "yes", "addr:street_address": "Harlingerstraatweg 80", "addr:city": "Leeuwarden", "addr:postcode": "8915 CN", "addr:country": "NL", "name": "Domino's Pizza Leeuwarden - Harlingerstraatweg - Westeinde", "website": "https://www.dominos.nl/winkel/nl-leeuwardenharlingerstraatwegwesteinde-30765", "brand": "Domino's", "brand:wikidata": "Q839466", "nsi_id": "dominos-b946c5"}, "geometry": {"type": "Point", "coordinates": [5.774428, 53.20567]}},
{"type": "Feature", "id": "yEeB0wpS-W_YqmauYZZiK7NeNQI=", "properties": {"ref": "30764", "@spider": "dominos_pizza_nl", "amenity": "fast_food", "cuisine": "pizza", "takeaway": "yes", "addr:street_address": "Westerschelde 278", "addr:city": "ZOETERMEER", "addr:postcode": "2721NM", "addr:country": "NL", "name": "Domino's Pizza Zoetermeer Westerschelde", "website": "https://www.dominos.nl/winkel/nl-zoetermeerwesterschelde-30764", "brand": "Domino's", "brand:wikidata": "Q839466", "nsi_id": "dominos-b946c5"}, "geometry": {"type": "Point", "coordinates": [4.539561, 52.060647]}},
{"type": "Feature", "id": "yEOXD9NYiS3FBd3tOPqvllbg-4g=", "properties": {"ref": "30763", "@spider": "dominos_pizza_nl", "amenity": "fast_food", "cuisine": "pizza", "takeaway": "yes", "addr:street_address": "Waterlandplein 19", "addr:city": "Amsterdam", "addr:postcode": "1024 LL", "addr:country": "NL", "name": "Domino's Pizza Amsterdam Waterlandplein", "website": "https://www.dominos.nl/winkel/nl-amsterdamwaterlandplein-30763", "brand": "Domino's", "brand:wikidata": "Q839466", "nsi_id": "dominos-b946c5"}, "geometry": {"type": "Point", "coordinates": [4.955082, 52.392066]}},
{"type": "Feature", "id": "Pkgj8UH8n82W3TWFfCspIAvT11s=", "properties": {"ref": "30762", "@spider": "dominos_pizza_nl", "amenity": "fast_food", "cuisine": "pizza", "takeaway": "yes", "addr:street_address": "Molenstraat 9", "addr:city": "Deurne", "addr:postcode": "5751LA", "addr:country": "NL", "name": "Domino's Pizza Deurne", "website": "https://www.dominos.nl/winkel/nl-deurne-30762", "brand": "Domino's", "brand:wikidata": "Q839466", "nsi_id": "dominos-b946c5"}, "geometry": {"type": "Point", "coordinates": [5.795767, 51.463648]}},
{"type": "Feature", "id": "b9jJPE7Ys9taiAnHiT5rxzJtmbE=", "properties": {"ref": "30761", "@spider": "dominos_pizza_nl", "amenity": "fast_food", "cuisine": "pizza", "takeaway": "yes", "addr:street_address": "Schaepmanlaan 87A", "addr:city": "OSS", "addr:postcode": "5344BB", "addr:country": "NL", "name": "Domino's Pizza Oss Schaepmanlaan", "website": "https://www.dominos.nl/winkel/nl-ossschaepmanlaan-30761", "brand": "Domino's", "brand:wikidata": "Q839466", "nsi_id": "dominos-b946c5"}, "geometry": {"type": "Point", "coordinates": [5.500887, 51.75267]}},
{"type": "Feature", "id": "UzhUQaHo9Cyz_15UYMU9gAWeT_o=", "properties": {"ref": "30760", "@spider": "dominos_pizza_nl", "amenity": "fast_food", "cuisine": "pizza", "takeaway": "yes", "addr:street_address": "Europaboulevard 55", "addr:city": "ALKMAAR", "addr:postcode": "1825RB", "addr:country": "NL", "name": "Domino's Pizza Alkmaar Europaboulevard", "website": "https://www.dominos.nl/winkel/nl-alkmaareuropaboulevard-30760", "brand": "Domino's", "brand:wikidata": "Q839466", "nsi_id": "dominos-b946c5"}, "geometry": {"type": "Point", "coordinates": [4.75796, 52.654327]}},
{"type": "Feature", "id": "mdrok-yQBZz_yVhS3snR3nF6fDA=", "properties": {"ref": "30759", "@spider": "dominos_pizza_nl", "amenity": "fast_food", "cuisine": "pizza", "takeaway": "yes", "addr:street_address": "Kerklaan 5", "addr:city": "WATERINGEN", "addr:postcode": "2291CD", "addr:country": "NL", "name": "Domino's Pizza Wateringen", "website": "https://www.dominos.nl/winkel/nl-wateringen-30759", "brand": "Domino's", "brand:wikidata": "Q839466", "nsi_id": "dominos-b946c5"}, "geometry": {"type": "Point", "coordinates": [4.273185, 52.02599]}},
{"type": "Feature", "id": "vColVJqGdF0iaXTOnp8odKyIWmU=", "properties": {"ref": "30758", "@spider": "dominos_pizza_nl", "amenity": "fast_food", "cuisine": "pizza", "takeaway": "yes", "addr:street_address": "Koningin Wilhelminaplein 8", "addr:city": "Waddinxveen", "addr:postcode": "2741 EA", "addr:country": "NL", "name": "Domino's Pizza Waddinxveen", "website": "https://www.dominos.nl/winkel/nl-waddinxveen-30758", "brand": "Domino's", "brand:wikidata": "Q839466", "nsi_id": "dominos-b946c5"}, "geometry": {"type": "Point", "coordinates": [4.653987, 52.049681]}},
{"type": "Feature", "id": "gMnKhz_4W9EbN_ZkB9ETiaXK14M=", "properties": {"ref": "30757", "@spider": "dominos_pizza_nl", "amenity": "fast_food", "cuisine": "pizza", "takeaway": "yes", "addr:street_address": "Wesseler-Nering 19D", "addr:city": "Enschede", "addr:postcode": "7544 JB", "addr:country": "NL", "name": "Domino's Pizza Enschede Wesseler-nering", "website": "https://www.dominos.nl/winkel/nl-enschedewesselernering-30757", "brand": "Domino's", "brand:wikidata": "Q839466", "nsi_id": "dominos-b946c5"}, "geometry": {"type": "Point", "coordinates": [6.878292, 52.191778]}},
{"type": "Feature", "id": "wSAIpx8lYHmzdNjFxFv3eqrxgJU=", "properties": {"ref": "30756", "@spider": "dominos_pizza_nl", "amenity": "fast_food", "cuisine": "pizza", "takeaway": "yes", "addr:street_address": "Spinozaweg 409-411", "addr:city": "Rotterdam", "addr:postcode": "3076 ET", "addr:country": "NL", "name": "Domino's Pizza Rotterdam Spinozaweg", "website": "https://www.dominos.nl/winkel/nl-rotterdamspinozaweg-30756", "brand": "Domino's", "brand:wikidata": "Q839466", "nsi_id": "dominos-b946c5"}, "geometry": {"type": "Point", "coordinates": [4.517394, 51.87724]}},
{"type": "Feature", "id": "I7K0sGFKwoe8SYLPsqCL9ud2aSs=", "properties": {"ref": "30755", "@spider": "dominos_pizza_nl", "amenity": "fast_food", "cuisine": "pizza", "takeaway": "yes", "addr:street_address": "Ophelialaan 94", "addr:city": "Aalsmeer", "addr:postcode": "1431 HL", "addr:country": "NL", "name": "Domino's Pizza Aalsmeer", "website": "https://www.dominos.nl/winkel/nl-aalsmeer-30755", "brand": "Domino's", "brand:wikidata": "Q839466", "nsi_id": "dominos-b946c5"}, "geometry": {"type": "Point", "coordinates": [4.76067, 52.263767]}},
{"type": "Feature", "id": "vprVAo5nv_uLdz_nbB02wntsKUI=", "properties": {"ref": "30754", "@spider": "dominos_pizza_nl", "amenity": "fast_food", "cuisine": "pizza", "takeaway": "yes", "addr:street_address": "Gedempte Oude Gracht 116 Zw", "addr:city": "Haarlem", "addr:postcode": "2011 GW", "addr:country": "NL", "name": "Domino's Pizza Haarlem  - Gedempte Oude Gracht", "website": "https://www.dominos.nl/winkel/nl-haarlemgedempteoudegracht-30754", "brand": "Domino's", "brand:wikidata": "Q839466", "nsi_id": "dominos-b946c5"}, "geometry": {"type": "Point", "coordinates": [4.635197, 52.378206]}},
{"type": "Feature", "id": "E_dVp96pRhFR0ZXxuH1TX4xvOTY=", "properties": {"ref": "30753", "@spider": "dominos_pizza_nl", "amenity": "fast_food", "cuisine": "pizza", "takeaway": "yes", "addr:street_address": "Looydijk 128", "addr:city": "De Bilt", "addr:postcode": "3732 VH", "addr:country": "NL", "name": "Domino's Pizza De Bilt", "website": "https://www.dominos.nl/winkel/nl-debilt-30753", "brand": "Domino's", "brand:wikidata": "Q839466", "nsi_id": "dominos-b946c5"}, "geometry": {"type": "Point", "coordinates": [5.181572, 52.109196]}},
{"type": "Feature", "id": "LfTnXBcvD3SZYWZyzLMS565yXbk=", "properties": {"ref": "30752", "@spider": "dominos_pizza_nl", "amenity": "fast_food", "cuisine": "pizza", "takeaway": "yes", "addr:street_address": "Binnenweg 181", "addr:city": "HEEMSTEDE", "addr:postcode": "2101JJ", "addr:country": "NL", "name": "Domino's Pizza Heemstede", "website": "https://www.dominos.nl/winkel/nl-heemstede-30752", "brand": "Domino's", "brand:wikidata": "Q839466", "nsi_id": "dominos-b946c5"}, "geometry": {"type": "Point", "coordinates": [4.621109, 52.35589]}},
{"type": "Feature", "id": "9lj2H7w7PshtgeTXLn3PNhi-2_0=", "properties": {"ref": "30751", "@spider": "dominos_pizza_nl", "amenity": "fast_food", "cuisine": "pizza", "takeaway": "yes", "addr:street_address": "Langstraat 109", "addr:city": "Barneveld", "addr:postcode": "3771 BD", "addr:country": "NL", "name": "Domino's Pizza Barneveld", "website": "https://www.dominos.nl/winkel/nl-barneveld-30751", "brand": "Domino's", "brand:wikidata": "Q839466", "nsi_id": "dominos-b946c5"}, "geometry": {"type": "Point", "coordinates": [5.588561, 52.137963]}},
{"type": "Feature", "id": "IMgt6LN9iQ01sZNzm8bXB48bGLM=", "properties": {"ref": "30750", "@spider": "dominos_pizza_nl", "amenity": "fast_food", "cuisine": "pizza", "takeaway": "yes", "addr:street_address": "Emmerikseweg 52", "addr:city": "Zutphen", "addr:postcode": "7204 SM", "addr:country": "NL", "name": "Domino's Pizza Zutphen", "website": "https://www.dominos.nl/winkel/nl-zutphen-30750", "brand": "Domino's", "brand:wikidata": "Q839466", "nsi_id": "dominos-b946c5"}, "geometry": {"type": "Point", "coordinates": [6.202495, 52.133782]}},
{"type": "Feature", "id": "cGHNvilZcDvb12MltSs49-ksexI=", "properties": {"ref": "30749", "@spider": "dominos_pizza_nl", "amenity": "fast_food", "cuisine": "pizza", "takeaway": "yes", "addr:street_address": "\ufeffHenri Dunantplein 22B", "addr:city": "Hillegom", "addr:postcode": "2181 EM", "addr:country": "NL", "name": "Domino's Pizza Hillegom", "website": "https://www.dominos.nl/winkel/nl-hillegom-30749", "brand": "Domino's", "brand:wikidata": "Q839466", "nsi_id": "dominos-b946c5"}, "geometry": {"type": "Point", "coordinates": [4.578328, 52.292922]}},
{"type": "Feature", "id": "3h5RysXfxFPDNAyv1nHgUgG9-GQ=", "properties": {"ref": "30748", "@spider": "dominos_pizza_nl", "amenity": "fast_food", "cuisine": "pizza", "takeaway": "yes", "addr:street_address": "Paleisring 1", "addr:city": "TILBURG", "addr:postcode": "5038WD", "addr:country": "NL", "name": "Domino's Pizza Tilburg Centrum", "website": "https://www.dominos.nl/winkel/nl-tilburgcentrum-30748", "brand": "Domino's", "brand:wikidata": "Q839466", "nsi_id": "dominos-b946c5"}, "geometry": {"type": "Point", "coordinates": [5.08982, 51.555269]}},
{"type": "Feature", "id": "tSsbeTQL7K710ScqP7_e7bBmdfM=", "properties": {"ref": "30746", "@spider": "dominos_pizza_nl", "amenity": "fast_food", "cuisine": "pizza", "takeaway": "yes", "addr:street_address": "Oude Baan 7", "addr:city": "Rosmalen", "addr:postcode": "5242 HT", "addr:country": "NL", "name": "Domino's Pizza Rosmalen", "website": "https://www.dominos.nl/winkel/nl-rosmalen-30746", "brand": "Domino's", "brand:wikidata": "Q839466", "nsi_id": "dominos-b946c5"}, "geometry": {"type": "Point", "coordinates": [5.363911, 51.708265]}},
{"type": "Feature", "id": "W8rAEBOjPohG7AX7PiZv372dk20=", "properties": {"ref": "30745", "@spider": "dominos_pizza_nl", "amenity": "fast_food", "cuisine": "pizza", "takeaway": "yes", "addr:street_address": "Nije Nering 22", "addr:city": "Hoogeveen", "addr:postcode": "7906EW", "addr:country": "NL", "name": "Domino's Pizza Hoogeveen", "website": "https://www.dominos.nl/winkel/nl-hoogeveen-30745", "brand": "Domino's", "brand:wikidata": "Q839466", "nsi_id": "dominos-b946c5"}, "geometry": {"type": "Point", "coordinates": [6.483978, 52.716423]}},
{"type": "Feature", "id": "oXQ1jVK-ZRxLKvK-N2P9zAFR0CI=", "properties": {"ref": "30744", "@spider": "dominos_pizza_nl", "amenity": "fast_food", "cuisine": "pizza", "takeaway": "yes", "addr:street_address": "Chopinplein 2", "addr:city": "Culemborg", "addr:postcode": "4102 CV", "addr:country": "NL", "name": "Domino's Pizza Culemborg", "website": "https://www.dominos.nl/winkel/nl-culemborg-30744", "brand": "Domino's", "brand:wikidata": "Q839466", "nsi_id": "dominos-b946c5"}, "geometry": {"type": "Point", "coordinates": [5.23795, 51.95248]}},
{"type": "Feature", "id": "RLrUaXKOYNAijoXh7sbguSl_jXQ=", "properties": {"ref": "30743", "@spider": "dominos_pizza_nl", "amenity": "fast_food", "cuisine": "pizza", "takeaway": "yes", "addr:street_address": "Nieuwstraat 1A", "addr:city": "Schagen", "addr:postcode": "1741BT", "addr:country": "NL", "name": "Domino's Pizza Schagen", "website": "https://www.dominos.nl/winkel/nl-schagen-30743", "brand": "Domino's", "brand:wikidata": "Q839466", "nsi_id": "dominos-b946c5"}, "geometry": {"type": "Point", "coordinates": [4.79674, 52.7871]}},
{"type": "Feature", "id": "r_t2KsF7fpPJ-4g56VIQFs4Cmx0=", "properties": {"ref": "30742", "@spider": "dominos_pizza_nl", "amenity": "fast_food", "cuisine": "pizza", "takeaway": "yes", "addr:street_address": "Lange Voort 2A", "addr:city": "Oegstgeest", "addr:postcode": "2341 KA", "addr:country": "NL", "name": "Domino's Pizza Oegstgeest", "website": "https://www.dominos.nl/winkel/nl-oegstgeest-30742", "brand": "Domino's", "brand:wikidata": "Q839466", "nsi_id": "dominos-b946c5"}, "geometry": {"type": "Point", "coordinates": [4.470408, 52.185758]}},
{"type": "Feature", "id": "HDmw7ppzeOP-L989y7D3arRehuQ=", "properties": {"ref": "30741", "@spider": "dominos_pizza_nl", "amenity": "fast_food", "cuisine": "pizza", "takeaway": "yes", "addr:street_address": "Bijlmerplein 997", "addr:city": "Amsterdam", "addr:postcode": "1102 MK", "addr:country": "NL", "name": "Domino's Pizza Amsterdam Zuidoost", "website": "https://www.dominos.nl/winkel/nl-amsterdamzuidoost-30741", "brand": "Domino's", "brand:wikidata": "Q839466", "nsi_id": "dominos-b946c5"}, "geometry": {"type": "Point", "coordinates": [4.950565, 52.313298]}},
{"type": "Feature", "id": "A5j_KU7K5aVL2JUvLGaMqb3sSUw=", "properties": {"ref": "30740", "@spider": "dominos_pizza_nl", "amenity": "fast_food", "cuisine": "pizza", "takeaway": "yes", "addr:street_address": "Ambyerstraat Noord 46", "addr:city": "Maastricht", "addr:postcode": "6225 EE", "addr:country": "NL", "name": "Domino's Pizza Maastricht Amby", "website": "https://www.dominos.nl/winkel/nl-maastrichtamby-30740", "brand": "Domino's", "brand:wikidata": "Q839466", "nsi_id": "dominos-b946c5"}, "geometry": {"type": "Point", "coordinates": [5.732566, 50.863246]}},
{"type": "Feature", "id": "uVR-K1gPcfRW86CqFk7jdmG-DaI=", "properties": {"ref": "30739", "@spider": "dominos_pizza_nl", "amenity": "fast_food", "cuisine": "pizza", "takeaway": "yes", "addr:street_address": "Roeselarestraat 642", "addr:city": "Breda", "addr:postcode": "4826 JW", "addr:country": "NL", "name": "Domino's Pizza Breda Roeselarestraat", "website": "https://www.dominos.nl/winkel/nl-bredaroeselarestraat-30739", "brand": "Domino's", "brand:wikidata": "Q839466", "nsi_id": "dominos-b946c5"}, "geometry": {"type": "Point", "coordinates": [4.788524, 51.609167]}},
{"type": "Feature", "id": "MojloqE9keB0evyEiUYdBDThjmI=", "properties": {"ref": "30738", "@spider": "dominos_pizza_nl", "amenity": "fast_food", "cuisine": "pizza", "takeaway": "yes", "addr:street_address": "Poelestraat 3", "addr:city": "Groningen", "addr:postcode": "9711 PG", "addr:country": "NL", "name": "Domino's Pizza Groningen  - Poelestraat - Centrum", "website": "https://www.dominos.nl/winkel/nl-groningenpoelestraatcentrum-30738", "brand": "Domino's", "brand:wikidata": "Q839466", "nsi_id": "dominos-b946c5"}, "geometry": {"type": "Point", "coordinates": [6.56929, 53.21825]}},
{"type": "Feature", "id": "Yo3ddo6VZ9tbcAkbceGnS4e1G9Y=", "properties": {"ref": "30737", "@spider": "dominos_pizza_nl", "amenity": "fast_food", "cuisine": "pizza", "takeaway": "yes", "addr:street_address": "Dorpsstraat 11H", "addr:city": "Oisterwijk", "addr:postcode": "5061HH", "addr:country": "NL", "name": "Domino's Pizza Oisterwijk", "website": "https://www.dominos.nl/winkel/nl-oisterwijk-30737", "brand": "Domino's", "brand:wikidata": "Q839466", "nsi_id": "dominos-b946c5"}, "geometry": {"type": "Point", "coordinates": [5.192326, 51.580479]}},
{"type": "Feature", "id": "eKo-iEJbT8okRjy7yFLzsJb55No=", "properties": {"ref": "30736", "@spider": "dominos_pizza_nl", "amenity": "fast_food", "cuisine": "pizza", "takeaway": "yes", "addr:street_address": "Rijksweg 42D", "addr:city": "DUIVEN", "addr:postcode": "6921AH", "addr:country": "NL", "name": "Domino's Pizza Duiven", "website": "https://www.dominos.nl/winkel/nl-duiven-30736", "brand": "Domino's", "brand:wikidata": "Q839466", "nsi_id": "dominos-b946c5"}, "geometry": {"type": "Point", "coordinates": [6.023307, 51.949898]}},
{"type": "Feature", "id": "rNny24nL5q17JY9lNW0Fx6oGRmU=", "properties": {"ref": "30735", "@spider": "dominos_pizza_nl", "amenity": "fast_food", "cuisine": "pizza", "takeaway": "yes", "addr:street_address": "De Baronie 98", "addr:city": "Alphen aan den Rijn", "addr:postcode": "2404 XH", "addr:country": "NL", "name": "Domino's Pizza Alphen aan den Rijn de Baronie", "website": "https://www.dominos.nl/winkel/nl-alphenaandenrijndebaronie-30735", "brand": "Domino's", "brand:wikidata": "Q839466", "nsi_id": "dominos-b946c5"}, "geometry": {"type": "Point", "coordinates": [4.648854, 52.135206]}},
{"type": "Feature", "id": "bFuJjnTUVjrcxBvH-fE-n2yxq_g=", "properties": {"ref": "30732", "@spider": "dominos_pizza_nl", "amenity": "fast_food", "cuisine": "pizza", "takeaway": "yes", "addr:street_address": "Rijssensestraat 49A", "addr:city": "Nijverdal", "addr:postcode": "7442MR", "addr:country": "NL", "name": "Domino's Pizza Nijverdal", "website": "https://www.dominos.nl/winkel/nl-nijverdal-30732", "brand": "Domino's", "brand:wikidata": "Q839466", "nsi_id": "dominos-b946c5"}, "geometry": {"type": "Point", "coordinates": [6.460359, 52.363091]}},
{"type": "Feature", "id": "YZ5XlvjVQ5YK8sjgkGxtds9F_mQ=", "properties": {"ref": "30731", "@spider": "dominos_pizza_nl", "amenity": "fast_food", "cuisine": "pizza", "takeaway": "yes", "addr:street_address": "Achterom 99", "addr:city": "Dordrecht", "addr:postcode": "3311 KB", "addr:country": "NL", "name": "Domino's Pizza Dordrecht Centrum", "website": "https://www.dominos.nl/winkel/nl-dordrechtcentrum-30731", "brand": "Domino's", "brand:wikidata": "Q839466", "nsi_id": "dominos-b946c5"}, "geometry": {"type": "Point", "coordinates": [4.666335, 51.811974]}},
{"type": "Feature", "id": "ENVd-Y3Ht7eyqW4c6nlyMx1R01M=", "properties": {"ref": "30730", "@spider": "dominos_pizza_nl", "amenity": "fast_food", "cuisine": "pizza", "takeaway": "yes", "addr:street_address": "Ordenplein 138", "addr:city": "Apeldoorn", "addr:postcode": "7312 NL", "addr:country": "NL", "name": "Domino's Pizza Apeldoorn Ordenplein", "website": "https://www.dominos.nl/winkel/nl-apeldoornordenplein-30730", "brand": "Domino's", "brand:wikidata": "Q839466", "nsi_id": "dominos-b946c5"}, "geometry": {"type": "Point", "coordinates": [5.931083, 52.20083]}},
{"type": "Feature", "id": "jgvMF-bcS_8ij8rsByVA_touvME=", "properties": {"ref": "30728", "@spider": "dominos_pizza_nl", "amenity": "fast_food", "cuisine": "pizza", "takeaway": "yes", "addr:street_address": "Vondellaan 35", "addr:city": "Zevenaar", "addr:postcode": "6901MB", "addr:country": "NL", "name": "Domino's Pizza Zevenaar", "website": "https://www.dominos.nl/winkel/nl-zevenaar-30728", "brand": "Domino's", "brand:wikidata": "Q839466", "nsi_id": "dominos-b946c5"}, "geometry": {"type": "Point", "coordinates": [6.084208, 51.929195]}},
{"type": "Feature", "id": "mweLFhiryJcnDjB0tlnprMVz4l0=", "properties": {"ref": "30727", "@spider": "dominos_pizza_nl", "amenity": "fast_food", "cuisine": "pizza", "takeaway": "yes", "addr:street_address": "Stoepemaheerd 45", "addr:city": "Groningen", "addr:postcode": "9737 TM", "addr:country": "NL", "name": "Domino's Pizza Groningen  - Stoepemaheerd - Beijum", "website": "https://www.dominos.nl/winkel/nl-groningenstoepemaheerdbeijum-30727", "brand": "Domino's", "brand:wikidata": "Q839466", "nsi_id": "dominos-b946c5"}, "geometry": {"type": "Point", "coordinates": [6.587101, 53.246487]}},
{"type": "Feature", "id": "5gwV2w9ogsQ3QJQTrzeqkLMExHM=", "properties": {"ref": "30726", "@spider": "dominos_pizza_nl", "amenity": "fast_food", "cuisine": "pizza", "takeaway": "yes", "addr:street_address": "Stationplein 16", "addr:city": "Boxtel", "addr:postcode": "5281gh", "addr:country": "NL", "name": "Domino's Pizza Boxtel", "website": "https://www.dominos.nl/winkel/nl-boxtel-30726", "brand": "Domino's", "brand:wikidata": "Q839466", "nsi_id": "dominos-b946c5"}, "geometry": {"type": "Point", "coordinates": [5.318935, 51.585401]}},
{"type": "Feature", "id": "L6I7OOvrLC8XzQm-PyWKKV2ixKo=", "properties": {"ref": "30725", "@spider": "dominos_pizza_nl", "amenity": "fast_food", "cuisine": "pizza", "takeaway": "yes", "addr:street_address": "Nieuwstraat 65", "addr:city": "Best", "addr:postcode": "5683KB", "addr:country": "NL", "name": "Domino's Pizza Best", "website": "https://www.dominos.nl/winkel/nl-best-30725", "brand": "Domino's", "brand:wikidata": "Q839466", "nsi_id": "dominos-b946c5"}, "geometry": {"type": "Point", "coordinates": [5.398615, 51.515261]}},
{"type": "Feature", "id": "ZOYnQ4fvs0Any6n_dgz31UAdzbs=", "properties": {"ref": "30724", "@spider": "dominos_pizza_nl", "amenity": "fast_food", "cuisine": "pizza", "takeaway": "yes", "addr:street_address": "Secretaris Van Rooijstraat 2A", "addr:city": "Vught", "addr:postcode": "5261EP", "addr:country": "NL", "name": "Domino's Pizza Vught", "website": "https://www.dominos.nl/winkel/nl-vught-30724", "brand": "Domino's", "brand:wikidata": "Q839466", "nsi_id": "dominos-b946c5"}, "geometry": {"type": "Point", "coordinates": [5.29899, 51.656983]}},
{"type": "Feature", "id": "Zod-tqgbH0PkpLUGqZz0Uc_dbg4=", "properties": {"ref": "30723", "@spider": "dominos_pizza_nl", "amenity": "fast_food", "cuisine": "pizza", "takeaway": "yes", "addr:street_address": "Heyhoefpromenade 61-63", "addr:city": "TILBURG", "addr:postcode": "5043RA", "addr:country": "NL", "name": "Domino's Pizza Tilburg Reeshof", "website": "https://www.dominos.nl/winkel/nl-tilburgreeshof-30723", "brand": "Domino's", "brand:wikidata": "Q839466", "nsi_id": "dominos-b946c5"}, "geometry": {"type": "Point", "coordinates": [5.004304, 51.578675]}},
{"type": "Feature", "id": "26u8t-ydrsSvSAD-A03B9nazBpg=", "properties": {"ref": "30721", "@spider": "dominos_pizza_nl", "amenity": "fast_food", "cuisine": "pizza", "takeaway": "yes", "addr:street_address": "Groeet Genhei 6", "addr:city": "HEERLEN", "addr:postcode": "6413GN", "addr:country": "NL", "name": "Domino's Pizza Heerlen Heerlerheide", "website": "https://www.dominos.nl/winkel/nl-heerlenheerlerheide-30721", "brand": "Domino's", "brand:wikidata": "Q839466", "nsi_id": "dominos-b946c5"}, "geometry": {"type": "Point", "coordinates": [5.955447, 50.916884]}},
{"type": "Feature", "id": "FDEIBsKslnvQRby0VqcZYD2Y9oI=", "properties": {"ref": "30718", "@spider": "dominos_pizza_nl", "amenity": "fast_food", "cuisine": "pizza", "takeaway": "yes", "addr:street_address": "Meerstraat 50", "addr:city": "Almere haven", "addr:postcode": "1353AZ", "addr:country": "NL", "name": "Domino's Pizza Almere Haven", "website": "https://www.dominos.nl/winkel/nl-almerehaven-30718", "brand": "Domino's", "brand:wikidata": "Q839466", "nsi_id": "dominos-b946c5"}, "geometry": {"type": "Point", "coordinates": [5.217439, 52.3346]}},
{"type": "Feature", "id": "34ftD2UH1bIt5UJ9ayw5NrwaR0E=", "properties": {"ref": "30715", "@spider": "dominos_pizza_nl", "amenity": "fast_food", "cuisine": "pizza", "takeaway": "yes", "addr:street_address": "Zuidplein 117", "addr:city": "Rotterdam", "addr:postcode": "3083 CN", "addr:country": "NL", "name": "Domino's Pizza Rotterdam Zuidplein", "website": "https://www.dominos.nl/winkel/nl-rotterdamzuidplein-30715", "brand": "Domino's", "brand:wikidata": "Q839466", "nsi_id": "dominos-b946c5"}, "geometry": {"type": "Point", "coordinates": [4.489396, 51.889624]}},
{"type": "Feature", "id": "C4udM6eVE4LrHiuT8z-HX54YnRg=", "properties": {"ref": "30714", "@spider": "dominos_pizza_nl", "amenity": "fast_food", "cuisine": "pizza", "takeaway": "yes", "addr:street_address": "Kerkstraat 40", "addr:city": "NOORDWIJK", "addr:postcode": "2201KN", "addr:country": "NL", "name": "Domino's Pizza Noordwijk", "website": "https://www.dominos.nl/winkel/nl-noordwijk-30714", "brand": "Domino's", "brand:wikidata": "Q839466", "nsi_id": "dominos-b946c5"}, "geometry": {"type": "Point", "coordinates": [4.445931, 52.234794]}},
{"type": "Feature", "id": "ac1oCA1XJEwuiPtF76CQkSLmx8g=", "properties": {"ref": "30713", "@spider": "dominos_pizza_nl", "amenity": "fast_food", "cuisine": "pizza", "takeaway": "yes", "addr:street_address": "Dommelseweg 5", "addr:city": "Valkenswaard", "addr:postcode": "5554NL", "addr:country": "NL", "name": "Domino's Pizza Valkenswaard", "website": "https://www.dominos.nl/winkel/nl-valkenswaard-30713", "brand": "Domino's", "brand:wikidata": "Q839466", "nsi_id": "dominos-b946c5"}, "geometry": {"type": "Point", "coordinates": [5.455442, 51.349006]}},
{"type": "Feature", "id": "lPQiAFN5Wm2wzxQ-RTfX8Aacyto=", "properties": {"ref": "30712", "@spider": "dominos_pizza_nl", "amenity": "fast_food", "cuisine": "pizza", "takeaway": "yes", "addr:street_address": "Laan Van Berendrecht 11A", "addr:city": "LEIDERDORP", "addr:postcode": "2352VR", "addr:country": "NL", "name": "Domino's Pizza Leiderdorp", "website": "https://www.dominos.nl/winkel/nl-leiderdorp-30712", "brand": "Domino's", "brand:wikidata": "Q839466", "nsi_id": "dominos-b946c5"}, "geometry": {"type": "Point", "coordinates": [4.527906, 52.159259]}},
{"type": "Feature", "id": "xN-6UrizHDfyT4VBfQLtNpPBH_4=", "properties": {"ref": "30711", "@spider": "dominos_pizza_nl", "amenity": "fast_food", "cuisine": "pizza", "takeaway": "yes", "addr:street_address": "Raadhuisplein 133A", "addr:city": "KRIMPEN AAN DEN IJSSEL", "addr:postcode": "2922AL", "addr:country": "NL", "name": "Domino's Pizza Krimpen aan den IJssel", "website": "https://www.dominos.nl/winkel/nl-krimpenaandenijssel-30711", "brand": "Domino's", "brand:wikidata": "Q839466", "nsi_id": "dominos-b946c5"}, "geometry": {"type": "Point", "coordinates": [4.587079, 51.914589]}},
{"type": "Feature", "id": "sTwu2-lR47p0figEVf4AeK7E0f0=", "properties": {"ref": "30710", "@spider": "dominos_pizza_nl", "amenity": "fast_food", "cuisine": "pizza", "takeaway": "yes", "addr:street_address": "Kerkstraat 66", "addr:city": "Veendam", "addr:postcode": "9641 AV", "addr:country": "NL", "name": "Domino's Pizza Veendam", "website": "https://www.dominos.nl/winkel/nl-veendam-30710", "brand": "Domino's", "brand:wikidata": "Q839466", "nsi_id": "dominos-b946c5"}, "geometry": {"type": "Point", "coordinates": [6.874479, 53.106364]}},
{"type": "Feature", "id": "xviLhLWgCKXJ9E-VlPXxhMbkp7k=", "properties": {"ref": "30709", "@spider": "dominos_pizza_nl", "amenity": "fast_food", "cuisine": "pizza", "takeaway": "yes", "addr:street_address": "Gorecht-Oost 76", "addr:city": "Hoogezand", "addr:postcode": "9603 AC", "addr:country": "NL", "name": "Domino's Pizza Hoogezand", "website": "https://www.dominos.nl/winkel/nl-hoogezand-30709", "brand": "Domino's", "brand:wikidata": "Q839466", "nsi_id": "dominos-b946c5"}, "geometry": {"type": "Point", "coordinates": [6.756417, 53.154684]}},
{"type": "Feature", "id": "YsECqbX6uGxZ_irQpoJ4mdzRxwI=", "properties": {"ref": "30708", "@spider": "dominos_pizza_nl", "amenity": "fast_food", "cuisine": "pizza", "takeaway": "yes", "addr:street_address": "De Wending 7", "addr:city": "delfzijl", "addr:postcode": "9933KM", "addr:country": "NL", "name": "Domino's Pizza Delfzijl", "website": "https://www.dominos.nl/winkel/nl-delfzijl-30708", "brand": "Domino's", "brand:wikidata": "Q839466", "nsi_id": "dominos-b946c5"}, "geometry": {"type": "Point", "coordinates": [6.910905, 53.335827]}},
{"type": "Feature", "id": "RawPC6-hoG0fdUdMkZsr3DOHQJo=", "properties": {"ref": "30706", "@spider": "dominos_pizza_nl", "amenity": "fast_food", "cuisine": "pizza", "takeaway": "yes", "addr:street_address": "De Plaetse 91", "addr:city": "HELMOND", "addr:postcode": "5708ZK", "addr:country": "NL", "name": "Domino's Pizza Helmond Brandevoort", "website": "https://www.dominos.nl/winkel/nl-helmondbrandevoort-30706", "brand": "Domino's", "brand:wikidata": "Q839466", "nsi_id": "dominos-b946c5"}, "geometry": {"type": "Point", "coordinates": [5.610768, 51.459165]}},
{"type": "Feature", "id": "WFKW5HDi-He584QNhA_QisMD3Rg=", "properties": {"ref": "30705", "@spider": "dominos_pizza_nl", "amenity": "fast_food", "cuisine": "pizza", "takeaway": "yes", "addr:street_address": "Hoogstraat 54", "addr:city": "landgraaf", "addr:postcode": "6373HW", "addr:country": "NL", "name": "Domino's Pizza Landgraaf", "website": "https://www.dominos.nl/winkel/nl-landgraaf-30705", "brand": "Domino's", "brand:wikidata": "Q839466", "nsi_id": "dominos-b946c5"}, "geometry": {"type": "Point", "coordinates": [6.029709, 50.908255]}},
{"type": "Feature", "id": "qPnciSC2pLeZVntvFCpnsIhI9ms=", "properties": {"ref": "30704", "@spider": "dominos_pizza_nl", "amenity": "fast_food", "cuisine": "pizza", "takeaway": "yes", "addr:street_address": "Schiffelerstraat 15-17", "addr:city": "Brunssum", "addr:postcode": "6441CN", "addr:country": "NL", "name": "Domino's Pizza Brunssum", "website": "https://www.dominos.nl/winkel/nl-brunssum-30704", "brand": "Domino's", "brand:wikidata": "Q839466", "nsi_id": "dominos-b946c5"}, "geometry": {"type": "Point", "coordinates": [5.970327, 50.945996]}},
{"type": "Feature", "id": "qqLozNL7YHmsXxemx6lVRxBC_Dg=", "properties": {"ref": "30703", "@spider": "dominos_pizza_nl", "amenity": "fast_food", "cuisine": "pizza", "takeaway": "yes", "addr:street_address": "Julianasingel 8D", "addr:city": "Venray", "addr:postcode": "5802av", "addr:country": "NL", "name": "Domino's Pizza Venray", "website": "https://www.dominos.nl/winkel/nl-venray-30703", "brand": "Domino's", "brand:wikidata": "Q839466", "nsi_id": "dominos-b946c5"}, "geometry": {"type": "Point", "coordinates": [5.97693, 51.527014]}},
{"type": "Feature", "id": "TAQuhQWd0BDUFKpSmbYBI4C2ekg=", "properties": {"ref": "30702", "@spider": "dominos_pizza_nl", "amenity": "fast_food", "cuisine": "pizza", "takeaway": "yes", "addr:street_address": "Rijksweg Centrum 68", "addr:city": "GELEEN", "addr:postcode": "6161EH", "addr:country": "NL", "name": "Domino's Pizza Geleen", "website": "https://www.dominos.nl/winkel/nl-geleen-30702", "brand": "Domino's", "brand:wikidata": "Q839466", "nsi_id": "dominos-b946c5"}, "geometry": {"type": "Point", "coordinates": [5.828346, 50.967985]}},
{"type": "Feature", "id": "H8RyNQ2GBpx31Ov4529B1X19TQs=", "properties": {"ref": "30700", "@spider": "dominos_pizza_nl", "amenity": "fast_food", "cuisine": "pizza", "takeaway": "yes", "addr:street_address": "Beijerse Hof 3", "addr:city": "Oud Beijerland", "addr:postcode": "3262VR", "addr:country": "NL", "name": "Domino's Pizza Oud Beijerland", "website": "https://www.dominos.nl/winkel/nl-oudbeijerland-30700", "brand": "Domino's", "brand:wikidata": "Q839466", "nsi_id": "dominos-b946c5"}, "geometry": {"type": "Point", "coordinates": [4.404524, 51.819908]}},
{"type": "Feature", "id": "Zi7F4j6gjxhzaoz6y7gPEVz0HIw=", "properties": {"ref": "30699", "@spider": "dominos_pizza_nl", "amenity": "fast_food", "cuisine": "pizza", "takeaway": "yes", "addr:street_address": "Stationsplein 6", "addr:city": "EMMEN", "addr:postcode": "7811GW", "addr:country": "NL", "name": "Domino's Pizza Emmen - Stationsplein - Station", "website": "https://www.dominos.nl/winkel/nl-emmenstationspleinstation-30699", "brand": "Domino's", "brand:wikidata": "Q839466", "nsi_id": "dominos-b946c5"}, "geometry": {"type": "Point", "coordinates": [6.899387, 52.790219]}},
{"type": "Feature", "id": "AAuMIq_pjpZRbaiGjUwNO3_SkGg=", "properties": {"ref": "30697", "@spider": "dominos_pizza_nl", "amenity": "fast_food", "cuisine": "pizza", "takeaway": "yes", "addr:street_address": "Prinsengracht 13", "addr:city": "Meppel", "addr:postcode": "7941 KD", "addr:country": "NL", "name": "Domino's Pizza Meppel", "website": "https://www.dominos.nl/winkel/nl-meppel-30697", "brand": "Domino's", "brand:wikidata": "Q839466", "nsi_id": "dominos-b946c5"}, "geometry": {"type": "Point", "coordinates": [6.194045, 52.695985]}},
{"type": "Feature", "id": "54yCM4bv68ZDek8ferAGtSGD60I=", "properties": {"ref": "30695", "@spider": "dominos_pizza_nl", "amenity": "fast_food", "cuisine": "pizza", "takeaway": "yes", "addr:street_address": "Europaplein 53", "addr:city": "DONGEN", "addr:postcode": "5101VW", "addr:country": "NL", "name": "Domino's Pizza Dongen", "website": "https://www.dominos.nl/winkel/nl-dongen-30695", "brand": "Domino's", "brand:wikidata": "Q839466", "nsi_id": "dominos-b946c5"}, "geometry": {"type": "Point", "coordinates": [4.921733, 51.627202]}},
{"type": "Feature", "id": "Y76o4dYJsstS50yy6VCA7Tx2k58=", "properties": {"ref": "30694", "@spider": "dominos_pizza_nl", "amenity": "fast_food", "cuisine": "pizza", "takeaway": "yes", "addr:street_address": "Zusterstraat 7", "addr:city": "GOES", "addr:postcode": "4461JA", "addr:country": "NL", "name": "Domino's Pizza Goes", "website": "https://www.dominos.nl/winkel/nl-goes-30694", "brand": "Domino's", "brand:wikidata": "Q839466", "nsi_id": "dominos-b946c5"}, "geometry": {"type": "Point", "coordinates": [3.888868, 51.502662]}},
{"type": "Feature", "id": "KdU3EH08NZnT6uM2DWUsShvANGQ=", "properties": {"ref": "30693", "@spider": "dominos_pizza_nl", "amenity": "fast_food", "cuisine": "pizza", "takeaway": "yes", "addr:street_address": "Touwslagersbaan 7B", "addr:city": "WIJCHEN", "addr:postcode": "6602AH", "addr:country": "NL", "name": "Domino's Pizza Wijchen", "website": "https://www.dominos.nl/winkel/nl-wijchen-30693", "brand": "Domino's", "brand:wikidata": "Q839466", "nsi_id": "dominos-b946c5"}, "geometry": {"type": "Point", "coordinates": [5.725203, 51.807014]}},
{"type": "Feature", "id": "u9FTYYN7jwxJ4YeJ-ck97TtPcyw=", "properties": {"ref": "30692", "@spider": "dominos_pizza_nl", "amenity": "fast_food", "cuisine": "pizza", "takeaway": "yes", "addr:street_address": "Stationsstraat 49", "addr:city": "SITTARD", "addr:postcode": "6131AX", "addr:country": "NL", "name": "Domino's Pizza Sittard", "website": "https://www.dominos.nl/winkel/nl-sittard-30692", "brand": "Domino's", "brand:wikidata": "Q839466", "nsi_id": "dominos-b946c5"}, "geometry": {"type": "Point", "coordinates": [5.859859, 51.001832]}},
{"type": "Feature", "id": "30nKHgpykaoVCPG_s57q6QafpXs=", "properties": {"ref": "30691", "@spider": "dominos_pizza_nl", "amenity": "fast_food", "cuisine": "pizza", "takeaway": "yes", "addr:street_address": "Dirigentplein 97", "addr:city": "EINDHOVEN", "addr:postcode": "5642RK", "addr:country": "NL", "name": "Domino's Pizza Eindhoven Tongelre", "website": "https://www.dominos.nl/winkel/nl-eindhoventongelre-30691", "brand": "Domino's", "brand:wikidata": "Q839466", "nsi_id": "dominos-b946c5"}, "geometry": {"type": "Point", "coordinates": [5.521563, 51.437283]}},
{"type": "Feature", "id": "2qZY3ZgBUuHaj1VKtAdOmPIUEdE=", "properties": {"ref": "30690", "@spider": "dominos_pizza_nl", "amenity": "fast_food", "cuisine": "pizza", "takeaway": "yes", "addr:street_address": "Bachplein 8", "addr:city": "ZWOLLE", "addr:postcode": "8031HR", "addr:country": "NL", "name": "Domino's Pizza Zwolle Bachplein", "website": "https://www.dominos.nl/winkel/nl-zwollebachplein-30690", "brand": "Domino's", "brand:wikidata": "Q839466", "nsi_id": "dominos-b946c5"}, "geometry": {"type": "Point", "coordinates": [6.078904, 52.526053]}},
{"type": "Feature", "id": "Sxa2vXvYKHmJp71mg7xA2o-Zdr8=", "properties": {"ref": "30689", "@spider": "dominos_pizza_nl", "amenity": "fast_food", "cuisine": "pizza", "takeaway": "yes", "addr:street_address": "Oranjestraat 19/21", "addr:city": "UDEN", "addr:postcode": "5401CB", "addr:country": "NL", "name": "Domino's Pizza Uden", "website": "https://www.dominos.nl/winkel/nl-uden-30689", "brand": "Domino's", "brand:wikidata": "Q839466", "nsi_id": "dominos-b946c5"}, "geometry": {"type": "Point", "coordinates": [5.614928, 51.656245]}},
{"type": "Feature", "id": "Rbj7FkOpujJCOaCM7q9BpZVy09g=", "properties": {"ref": "30688", "@spider": "dominos_pizza_nl", "amenity": "fast_food", "cuisine": "pizza", "takeaway": "yes", "addr:street_address": "Dommeldalseweg 2B", "addr:city": "GELDROP", "addr:postcode": "5664RP", "addr:country": "NL", "name": "Domino's Pizza Geldrop", "website": "https://www.dominos.nl/winkel/nl-geldrop-30688", "brand": "Domino's", "brand:wikidata": "Q839466", "nsi_id": "dominos-b946c5"}, "geometry": {"type": "Point", "coordinates": [5.561419, 51.421412]}},
{"type": "Feature", "id": "Fr2cNYNKJ6ik7P3OoNWifmbnbsE=", "properties": {"ref": "30687", "@spider": "dominos_pizza_nl", "amenity": "fast_food", "cuisine": "pizza", "takeaway": "yes", "addr:street_address": "Stationsplein 14", "addr:city": "ROERMOND", "addr:postcode": "6041GN", "addr:country": "NL", "name": "Domino's Pizza Roermond", "website": "https://www.dominos.nl/winkel/nl-roermond-30687", "brand": "Domino's", "brand:wikidata": "Q839466", "nsi_id": "dominos-b946c5"}, "geometry": {"type": "Point", "coordinates": [5.992087, 51.193277]}},
{"type": "Feature", "id": "0zGaZrwvyAGEOqpNYwTDN5zVYms=", "properties": {"ref": "30686", "@spider": "dominos_pizza_nl", "amenity": "fast_food", "cuisine": "pizza", "takeaway": "yes", "addr:street_address": "Bisonspoor 1190", "addr:city": "MAARSSEN", "addr:postcode": "3605KX", "addr:country": "NL", "name": "Domino's Pizza Maarssen", "website": "https://www.dominos.nl/winkel/nl-maarssen-30686", "brand": "Domino's", "brand:wikidata": "Q839466", "nsi_id": "dominos-b946c5"}, "geometry": {"type": "Point", "coordinates": [5.031028, 52.135628]}},
{"type": "Feature", "id": "lmp5cxP8Z97KgR9KSlS8DOSs4H4=", "properties": {"ref": "30685", "@spider": "dominos_pizza_nl", "amenity": "fast_food", "cuisine": "pizza", "takeaway": "yes", "addr:street_address": "Troelstralaan 199 A", "addr:city": "ASSEN", "addr:postcode": "9402BG", "addr:country": "NL", "name": "Domino's Pizza Assen", "website": "https://www.dominos.nl/winkel/nl-assen-30685", "brand": "Domino's", "brand:wikidata": "Q839466", "nsi_id": "dominos-b946c5"}, "geometry": {"type": "Point", "coordinates": [6.553981, 52.998092]}},
{"type": "Feature", "id": "5XeTiALs9o99oLjtP97ZUjxUETE=", "properties": {"ref": "30683", "@spider": "dominos_pizza_nl", "amenity": "fast_food", "cuisine": "pizza", "takeaway": "yes", "addr:street_address": "Churchillplein 71", "addr:city": "VELP", "addr:postcode": "6883EW", "addr:country": "NL", "name": "Domino's Pizza Velp", "website": "https://www.dominos.nl/winkel/nl-velp-30683", "brand": "Domino's", "brand:wikidata": "Q839466", "nsi_id": "dominos-b946c5"}, "geometry": {"type": "Point", "coordinates": [5.979888, 51.986872]}},
{"type": "Feature", "id": "oSSSukAitN2-YlIyC9TSl6UjrtA=", "properties": {"ref": "30682", "@spider": "dominos_pizza_nl", "amenity": "fast_food", "cuisine": "pizza", "takeaway": "yes", "addr:street_address": "Vuurplaat 328-330", "addr:city": "ROTTERDAM", "addr:postcode": "3071AR", "addr:country": "NL", "name": "Domino's Pizza Rotterdam Vuurplaat", "website": "https://www.dominos.nl/winkel/nl-rotterdamvuurplaat-30682", "brand": "Domino's", "brand:wikidata": "Q839466", "nsi_id": "dominos-b946c5"}, "geometry": {"type": "Point", "coordinates": [4.504, 51.904789]}},
{"type": "Feature", "id": "sTJWTSk5TXg2QDFDmgV9Mi9LIZo=", "properties": {"ref": "30681", "@spider": "dominos_pizza_nl", "amenity": "fast_food", "cuisine": "pizza", "takeaway": "yes", "addr:street_address": "A.J. Ernststraat 191", "addr:city": "AMSTERDAM", "addr:postcode": "1083GV", "addr:country": "NL", "name": "Domino's Pizza Amsterdam Buitenveldert (Zuidas)", "website": "https://www.dominos.nl/winkel/nl-amsterdambuitenveldertzuidas-30681", "brand": "Domino's", "brand:wikidata": "Q839466", "nsi_id": "dominos-b946c5"}, "geometry": {"type": "Point", "coordinates": [4.883902, 52.331934]}},
{"type": "Feature", "id": "GjIAaApFpfFFFq0eSuzGLSB8_C8=", "properties": {"ref": "30680", "@spider": "dominos_pizza_nl", "amenity": "fast_food", "cuisine": "pizza", "takeaway": "yes", "addr:street_address": "Kerstendijk 1", "addr:city": "Rotterdam", "addr:postcode": "3079 ET", "addr:country": "NL", "name": "Domino's Pizza Rotterdam IJsselmonde", "website": "https://www.dominos.nl/winkel/nl-rotterdamijsselmonde-30680", "brand": "Domino's", "brand:wikidata": "Q839466", "nsi_id": "dominos-b946c5"}, "geometry": {"type": "Point", "coordinates": [4.543625, 51.881446]}},
{"type": "Feature", "id": "PPuDw0diyS0tMPzZ2eXRuqmwqws=", "properties": {"ref": "30679", "@spider": "dominos_pizza_nl", "amenity": "fast_food", "cuisine": "pizza", "takeaway": "yes", "addr:street_address": "Zeesluisweg 6", "addr:city": "Scheveningen", "addr:postcode": "2583DR", "addr:country": "NL", "name": "Domino's Pizza Scheveningen", "website": "https://www.dominos.nl/winkel/nl-scheveningen-30679", "brand": "Domino's", "brand:wikidata": "Q839466", "nsi_id": "dominos-b946c5"}, "geometry": {"type": "Point", "coordinates": [4.273531, 52.10137]}},
{"type": "Feature", "id": "8PZtXYksp_P9pP_CdoymtQq4WoU=", "properties": {"ref": "30678", "@spider": "dominos_pizza_nl", "amenity": "fast_food", "cuisine": "pizza", "takeaway": "yes", "addr:street_address": "G.J. Van Heekstraat 223", "addr:city": "ENSCHEDE", "addr:postcode": "7521EE", "addr:country": "NL", "name": "Domino's Pizza Enschede West", "website": "https://www.dominos.nl/winkel/nl-enschedewest-30678", "brand": "Domino's", "brand:wikidata": "Q839466", "nsi_id": "dominos-b946c5"}, "geometry": {"type": "Point", "coordinates": [6.859075, 52.229262]}},
{"type": "Feature", "id": "3rDcwS3-B-ZL0dMij4NjCaY-8-I=", "properties": {"ref": "30677", "@spider": "dominos_pizza_nl", "amenity": "fast_food", "cuisine": "pizza", "takeaway": "yes", "addr:street_address": "Paterswoldseweg 322", "addr:city": "GRONINGEN", "addr:postcode": "9727BX", "addr:country": "NL", "name": "Domino's Pizza Groningen  - Paterswoldseweg", "website": "https://www.dominos.nl/winkel/nl-groningenpaterswoldseweg-30677", "brand": "Domino's", "brand:wikidata": "Q839466", "nsi_id": "dominos-b946c5"}, "geometry": {"type": "Point", "coordinates": [6.559246, 53.203141]}},
{"type": "Feature", "id": "DKV1vKbKhPyrCSKregJU8clJHGU=", "properties": {"ref": "30676", "@spider": "dominos_pizza_nl", "amenity": "fast_food", "cuisine": "pizza", "takeaway": "yes", "addr:street_address": "Stadsbrink 26-28", "addr:city": "WAGENINGEN", "addr:postcode": "6701AL", "addr:country": "NL", "name": "Domino's Pizza Wageningen", "website": "https://www.dominos.nl/winkel/nl-wageningen-30676", "brand": "Domino's", "brand:wikidata": "Q839466", "nsi_id": "dominos-b946c5"}, "geometry": {"type": "Point", "coordinates": [5.666826, 51.968869]}},
{"type": "Feature", "id": "AQB38EZMET7fWoj8DUcE4Fg2bSo=", "properties": {"ref": "30675", "@spider": "dominos_pizza_nl", "amenity": "fast_food", "cuisine": "pizza", "takeaway": "yes", "addr:street_address": "Rozengracht 69", "addr:city": "ZAANDAM", "addr:postcode": "1506SH", "addr:country": "NL", "name": "Domino's Pizza Zaandam", "website": "https://www.dominos.nl/winkel/nl-zaandam-30675", "brand": "Domino's", "brand:wikidata": "Q839466", "nsi_id": "dominos-b946c5"}, "geometry": {"type": "Point", "coordinates": [4.81872, 52.4382]}},
{"type": "Feature", "id": "u_Gt4GNoM4MOPoPkOPTR806FJSk=", "properties": {"ref": "30674", "@spider": "dominos_pizza_nl", "amenity": "fast_food", "cuisine": "pizza", "takeaway": "yes", "addr:street_address": "Vincent Van Goghplein 12", "addr:city": "ALMELO", "addr:postcode": "7606HP", "addr:country": "NL", "name": "Domino's Pizza Almelo Vincent van Goghplein", "website": "https://www.dominos.nl/winkel/nl-almelovincentvangoghplein-30674", "brand": "Domino's", "brand:wikidata": "Q839466", "nsi_id": "dominos-b946c5"}, "geometry": {"type": "Point", "coordinates": [6.644602, 52.346019]}},
{"type": "Feature", "id": "QfMYIgCdpqxOThDh1y_I-fUaCtw=", "properties": {"ref": "30673", "@spider": "dominos_pizza_nl", "amenity": "fast_food", "cuisine": "pizza", "takeaway": "yes", "addr:street_address": "Boekeloseweg 11", "addr:city": "HENGELO", "addr:postcode": "7553DK", "addr:country": "NL", "name": "Domino's Pizza Hengelo Boekeloseweg", "website": "https://www.dominos.nl/winkel/nl-hengeloboekeloseweg-30673", "brand": "Domino's", "brand:wikidata": "Q839466", "nsi_id": "dominos-b946c5"}, "geometry": {"type": "Point", "coordinates": [6.786396, 52.255729]}},
{"type": "Feature", "id": "BgaQ03TCCwSelC9aczLKH_EEQmk=", "properties": {"ref": "30672", "@spider": "dominos_pizza_nl", "amenity": "fast_food", "cuisine": "pizza", "takeaway": "yes", "addr:street_address": "Wilhelminastraat 14", "addr:city": "BERKEL EN RODENRIJS", "addr:postcode": "2651DL", "addr:country": "NL", "name": "Domino's Pizza Berkel en Rodenrijs", "website": "https://www.dominos.nl/winkel/nl-berkelenrodenrijs-30672", "brand": "Domino's", "brand:wikidata": "Q839466", "nsi_id": "dominos-b946c5"}, "geometry": {"type": "Point", "coordinates": [4.480358, 51.99413]}},
{"type": "Feature", "id": "hlRyI0wr3LoFGu2lWnuIvutaRss=", "properties": {"ref": "30671", "@spider": "dominos_pizza_nl", "amenity": "fast_food", "cuisine": "pizza", "takeaway": "yes", "addr:street_address": "Jansbinnensingel 27", "addr:city": "ARNHEM", "addr:postcode": "6811AL", "addr:country": "NL", "name": "Domino's Pizza Arnhem Centrum", "website": "https://www.dominos.nl/winkel/nl-arnhemcentrum-30671", "brand": "Domino's", "brand:wikidata": "Q839466", "nsi_id": "dominos-b946c5"}, "geometry": {"type": "Point", "coordinates": [5.910805, 51.983846]}},
{"type": "Feature", "id": "dw-E1eL5IK-2Wvm9dbLWX2S3P0I=", "properties": {"ref": "30670", "@spider": "dominos_pizza_nl", "amenity": "fast_food", "cuisine": "pizza", "takeaway": "yes", "addr:street_address": "Koninginnesingel 80", "addr:city": "VENLO", "addr:postcode": "5911KG", "addr:country": "NL", "name": "Domino's Pizza Venlo - Koninginnesingel - Centrum", "website": "https://www.dominos.nl/winkel/nl-venlokoninginnesingelcentrum-30670", "brand": "Domino's", "brand:wikidata": "Q839466", "nsi_id": "dominos-b946c5"}, "geometry": {"type": "Point", "coordinates": [6.17068, 51.366372]}},
{"type": "Feature", "id": "sNnpwwhkYlpzovij7kZU-JCuNng=", "properties": {"ref": "30669", "@spider": "dominos_pizza_nl", "amenity": "fast_food", "cuisine": "pizza", "takeaway": "yes", "addr:street_address": "Gedempte Pol 32", "addr:city": "SNEEK", "addr:postcode": "8601BZ", "addr:country": "NL", "name": "Domino's Pizza Sneek", "website": "https://www.dominos.nl/winkel/nl-sneek-30669", "brand": "Domino's", "brand:wikidata": "Q839466", "nsi_id": "dominos-b946c5"}, "geometry": {"type": "Point", "coordinates": [5.661819, 53.033767]}},
{"type": "Feature", "id": "g1VUmcey9Sw029EyK8tk0pTzuwc=", "properties": {"ref": "30668", "@spider": "dominos_pizza_nl", "amenity": "fast_food", "cuisine": "pizza", "takeaway": "yes", "addr:street_address": "T Vlak 10", "addr:city": "BARENDRECHT", "addr:postcode": "2991EP", "addr:country": "NL", "name": "Domino's Pizza Barendrecht", "website": "https://www.dominos.nl/winkel/nl-barendrecht-30668", "brand": "Domino's", "brand:wikidata": "Q839466", "nsi_id": "dominos-b946c5"}, "geometry": {"type": "Point", "coordinates": [4.53977, 51.855334]}},
{"type": "Feature", "id": "HsI4jgJ2_q-yxVtz3KeIp5qibCQ=", "properties": {"ref": "30667", "@spider": "dominos_pizza_nl", "amenity": "fast_food", "cuisine": "pizza", "takeaway": "yes", "addr:street_address": "Plein 53", "addr:city": "TIEL", "addr:postcode": "4001LH", "addr:country": "NL", "name": "Domino's Pizza Tiel", "website": "https://www.dominos.nl/winkel/nl-tiel-30667", "brand": "Domino's", "brand:wikidata": "Q839466", "nsi_id": "dominos-b946c5"}, "geometry": {"type": "Point", "coordinates": [5.439726, 51.886802]}},
{"type": "Feature", "id": "hsI-9rLd6c8beMXUvic1rqXp7TY=", "properties": {"ref": "30666", "@spider": "dominos_pizza_nl", "amenity": "fast_food", "cuisine": "pizza", "takeaway": "yes", "addr:street_address": "Dries 8", "addr:city": "WEERT", "addr:postcode": "6006HS", "addr:country": "NL", "name": "Domino's Pizza Weert", "website": "https://www.dominos.nl/winkel/nl-weert-30666", "brand": "Domino's", "brand:wikidata": "Q839466", "nsi_id": "dominos-b946c5"}, "geometry": {"type": "Point", "coordinates": [5.701867, 51.247504]}},
{"type": "Feature", "id": "RXFxY1SUxXGIhfjvCTJ3ep2rSYw=", "properties": {"ref": "30665", "@spider": "dominos_pizza_nl", "amenity": "fast_food", "cuisine": "pizza", "takeaway": "yes", "addr:street_address": "Bolkenplein 9/10", "addr:city": "VEGHEL", "addr:postcode": "5461HH", "addr:country": "NL", "name": "Domino's Pizza Veghel", "website": "https://www.dominos.nl/winkel/nl-veghel-30665", "brand": "Domino's", "brand:wikidata": "Q839466", "nsi_id": "dominos-b946c5"}, "geometry": {"type": "Point", "coordinates": [5.546759, 51.617483]}},
{"type": "Feature", "id": "wSoYGCqtY70LHQd2aysJh-6eoaE=", "properties": {"ref": "30664", "@spider": "dominos_pizza_nl", "amenity": "fast_food", "cuisine": "pizza", "takeaway": "yes", "addr:street_address": "Badhuisstraat 1", "addr:city": "VLISSINGEN", "addr:postcode": "4381LM", "addr:country": "NL", "name": "Domino's Pizza Vlissingen", "website": "https://www.dominos.nl/winkel/nl-vlissingen-30664", "brand": "Domino's", "brand:wikidata": "Q839466", "nsi_id": "dominos-b946c5"}, "geometry": {"type": "Point", "coordinates": [3.57181, 51.445343]}},
{"type": "Feature", "id": "Ux6kEqLDzIm7s030GQICk3GX4go=", "properties": {"ref": "30663", "@spider": "dominos_pizza_nl", "amenity": "fast_food", "cuisine": "pizza", "takeaway": "yes", "addr:street_address": "Noordkade 56", "addr:city": "DRACHTEN", "addr:postcode": "9203CE", "addr:country": "NL", "name": "Domino's Pizza Drachten", "website": "https://www.dominos.nl/winkel/nl-drachten-30663", "brand": "Domino's", "brand:wikidata": "Q839466", "nsi_id": "dominos-b946c5"}, "geometry": {"type": "Point", "coordinates": [6.104403, 53.107158]}},
{"type": "Feature", "id": "i7ew9wfwkgviwRpJji1ef3yIf8w=", "properties": {"ref": "30662", "@spider": "dominos_pizza_nl", "amenity": "fast_food", "cuisine": "pizza", "takeaway": "yes", "addr:street_address": "Bachplein 21", "addr:city": "HEEMSKERK", "addr:postcode": "1962CE", "addr:country": "NL", "name": "Domino's Pizza Heemskerk", "website": "https://www.dominos.nl/winkel/nl-heemskerk-30662", "brand": "Domino's", "brand:wikidata": "Q839466", "nsi_id": "dominos-b946c5"}, "geometry": {"type": "Point", "coordinates": [4.672053, 52.514828]}},
{"type": "Feature", "id": "lmrCK3fEH0Xc9FdsKJCvqFBpx1s=", "properties": {"ref": "30661", "@spider": "dominos_pizza_nl", "amenity": "fast_food", "cuisine": "pizza", "takeaway": "yes", "addr:street_address": "Zonnelaan 281A", "addr:city": "GRONINGEN", "addr:postcode": "9742BG", "addr:country": "NL", "name": "Domino's Pizza Groningen  - Zonnelaan - Paddepoel", "website": "https://www.dominos.nl/winkel/nl-groningenzonnelaanpaddepoel-30661", "brand": "Domino's", "brand:wikidata": "Q839466", "nsi_id": "dominos-b946c5"}, "geometry": {"type": "Point", "coordinates": [6.542461, 53.230345]}},
{"type": "Feature", "id": "nFxYbD18SekYyxmzwtO3odbHhjk=", "properties": {"ref": "30660", "@spider": "dominos_pizza_nl", "amenity": "fast_food", "cuisine": "pizza", "takeaway": "yes", "addr:street_address": "Pc Hooftlaan 8", "addr:city": "MAASSLUIS", "addr:postcode": "3142GH", "addr:country": "NL", "name": "Domino's Pizza Maassluis", "website": "https://www.dominos.nl/winkel/nl-maassluis-30660", "brand": "Domino's", "brand:wikidata": "Q839466", "nsi_id": "dominos-b946c5"}, "geometry": {"type": "Point", "coordinates": [4.25679, 51.922896]}},
{"type": "Feature", "id": "6GH1_XTFx4pObVtqKKBeI9DlgVE=", "properties": {"ref": "30659", "@spider": "dominos_pizza_nl", "amenity": "fast_food", "cuisine": "pizza", "takeaway": "yes", "addr:street_address": "Vondellaan 90", "addr:city": "HARDERWIJK", "addr:postcode": "3842EJ", "addr:country": "NL", "name": "Domino's Pizza Harderwijk", "website": "https://www.dominos.nl/winkel/nl-harderwijk-30659", "brand": "Domino's", "brand:wikidata": "Q839466", "nsi_id": "dominos-b946c5"}, "geometry": {"type": "Point", "coordinates": [5.636373, 52.343836]}},
{"type": "Feature", "id": "NqOvuyT7zrxbiTwZ61xfxwZWBMo=", "properties": {"ref": "30658", "@spider": "dominos_pizza_nl", "amenity": "fast_food", "cuisine": "pizza", "takeaway": "yes", "addr:street_address": "Trambaan 11", "addr:city": "HEERENVEEN", "addr:postcode": "8441BH", "addr:country": "NL", "name": "Domino's Pizza Heerenveen", "website": "https://www.dominos.nl/winkel/nl-heerenveen-30658", "brand": "Domino's", "brand:wikidata": "Q839466", "nsi_id": "dominos-b946c5"}, "geometry": {"type": "Point", "coordinates": [5.915979, 52.960601]}},
{"type": "Feature", "id": "6RSRoHSDUhHJ0bcoeNXZiWXSars=", "properties": {"ref": "30657", "@spider": "dominos_pizza_nl", "amenity": "fast_food", "cuisine": "pizza", "takeaway": "yes", "addr:street_address": "Wormerplein 89", "addr:city": "PURMEREND", "addr:postcode": "1442CD", "addr:country": "NL", "name": "Domino's Pizza Purmerend", "website": "https://www.dominos.nl/winkel/nl-purmerend-30657", "brand": "Domino's", "brand:wikidata": "Q839466", "nsi_id": "dominos-b946c5"}, "geometry": {"type": "Point", "coordinates": [4.958783, 52.51268]}},
{"type": "Feature", "id": "Vctaw_f70h_CG41EChOZs5PsicA=", "properties": {"ref": "30656", "@spider": "dominos_pizza_nl", "amenity": "fast_food", "cuisine": "pizza", "takeaway": "yes", "addr:street_address": "S-Gravenzandseweg 18", "addr:city": "NAALDWIJK", "addr:postcode": "2671JN", "addr:country": "NL", "name": "Domino's Pizza Naaldwijk", "website": "https://www.dominos.nl/winkel/nl-naaldwijk-30656", "brand": "Domino's", "brand:wikidata": "Q839466", "nsi_id": "dominos-b946c5"}, "geometry": {"type": "Point", "coordinates": [4.205088, 51.991514]}},
{"type": "Feature", "id": "q6Z34QyIPYJ_1-XDdGY8UPJv-pc=", "properties": {"ref": "30655", "@spider": "dominos_pizza_nl", "amenity": "fast_food", "cuisine": "pizza", "takeaway": "yes", "addr:street_address": "Oostergrachtswal 5", "addr:city": "LEEUWARDEN", "addr:postcode": "8921AA", "addr:country": "NL", "name": "Domino's Pizza Leeuwarden - Oostergrachtswal - Centrum", "website": "https://www.dominos.nl/winkel/nl-leeuwardenoostergrachtswalcentrum-30655", "brand": "Domino's", "brand:wikidata": "Q839466", "nsi_id": "dominos-b946c5"}, "geometry": {"type": "Point", "coordinates": [5.803655, 53.20246]}},
{"type": "Feature", "id": "2cHtnZY_Dqu7_Jwnge7MMOPzuWg=", "properties": {"ref": "30654", "@spider": "dominos_pizza_nl", "amenity": "fast_food", "cuisine": "pizza", "takeaway": "yes", "addr:street_address": "Peppelweg 93 A", "addr:city": "ROTTERDAM", "addr:postcode": "3053GE", "addr:country": "NL", "name": "Domino's Pizza Schiebroek-Hillegersberg", "website": "https://www.dominos.nl/winkel/nl-schiebroekhillegersberg-30654", "brand": "Domino's", "brand:wikidata": "Q839466", "nsi_id": "dominos-b946c5"}, "geometry": {"type": "Point", "coordinates": [4.471327, 51.960102]}},
{"type": "Feature", "id": "K5dIw2jzzYzi6mqsP2wGn01Ljcc=", "properties": {"ref": "30653", "@spider": "dominos_pizza_nl", "amenity": "fast_food", "cuisine": "pizza", "takeaway": "yes", "addr:street_address": "Burg.Godschalxstraat 42", "addr:city": "DEN BOSCH", "addr:postcode": "5236AC", "addr:country": "NL", "name": "Domino's Pizza Den Bosch Empel", "website": "https://www.dominos.nl/winkel/nl-denboschempel-30653", "brand": "Domino's", "brand:wikidata": "Q839466", "nsi_id": "dominos-b946c5"}, "geometry": {"type": "Point", "coordinates": [5.325682, 51.730544]}},
{"type": "Feature", "id": "WQhpRBC_ExUs7DqHZY9vpjpWzC4=", "properties": {"ref": "30652", "@spider": "dominos_pizza_nl", "amenity": "fast_food", "cuisine": "pizza", "takeaway": "yes", "addr:street_address": "Raadhuisstraat 14", "addr:city": "HEERHUGOWAARD", "addr:postcode": "1701EK", "addr:country": "NL", "name": "Domino's Pizza Heerhugowaard", "website": "https://www.dominos.nl/winkel/nl-heerhugowaard-30652", "brand": "Domino's", "brand:wikidata": "Q839466", "nsi_id": "dominos-b946c5"}, "geometry": {"type": "Point", "coordinates": [4.844694, 52.670032]}},
{"type": "Feature", "id": "VwhqfyUBC--e37nRNTvsbxNFQXk=", "properties": {"ref": "30651", "@spider": "dominos_pizza_nl", "amenity": "fast_food", "cuisine": "pizza", "takeaway": "yes", "addr:street_address": "Kennemerlaan 77", "addr:city": "IJMUIDEN", "addr:postcode": "1972EJ", "addr:country": "NL", "name": "Domino's Pizza IJmuiden", "website": "https://www.dominos.nl/winkel/nl-ijmuiden-30651", "brand": "Domino's", "brand:wikidata": "Q839466", "nsi_id": "dominos-b946c5"}, "geometry": {"type": "Point", "coordinates": [4.607841, 52.460512]}},
{"type": "Feature", "id": "rbknVg9rww10oyz0-CPE9hnM8pU=", "properties": {"ref": "30650", "@spider": "dominos_pizza_nl", "amenity": "fast_food", "cuisine": "pizza", "takeaway": "yes", "addr:street_address": "Pottenbakkerssingel 14", "addr:city": "MIDDELBURG", "addr:postcode": "4331NA", "addr:country": "NL", "name": "Domino's Pizza Middelburg", "website": "https://www.dominos.nl/winkel/nl-middelburg-30650", "brand": "Domino's", "brand:wikidata": "Q839466", "nsi_id": "dominos-b946c5"}, "geometry": {"type": "Point", "coordinates": [3.608689, 51.495788]}},
{"type": "Feature", "id": "Mx38RR6xSR_rqLJmctUE8Nf_VE4=", "properties": {"ref": "30649", "@spider": "dominos_pizza_nl", "amenity": "fast_food", "cuisine": "pizza", "takeaway": "yes", "addr:street_address": "In De Fuik 90", "addr:city": "Rotterdam", "addr:postcode": "3192HD", "addr:country": "NL", "name": "Domino's Pizza Hoogvliet", "website": "https://www.dominos.nl/winkel/nl-hoogvliet-30649", "brand": "Domino's", "brand:wikidata": "Q839466", "nsi_id": "dominos-b946c5"}, "geometry": {"type": "Point", "coordinates": [4.368017, 51.850656]}},
{"type": "Feature", "id": "7OO4FJwYaoMtO5yqEs51nruWCXA=", "properties": {"ref": "30648", "@spider": "dominos_pizza_nl", "amenity": "fast_food", "cuisine": "pizza", "takeaway": "yes", "addr:street_address": "Wouda 11", "addr:city": "AMERSFOORT", "addr:postcode": "3825MA", "addr:country": "NL", "name": "Domino's Pizza Amersfoort Vathorst", "website": "https://www.dominos.nl/winkel/nl-amersfoortvathorst-30648", "brand": "Domino's", "brand:wikidata": "Q839466", "nsi_id": "dominos-b946c5"}, "geometry": {"type": "Point", "coordinates": [5.431244, 52.195241]}},
{"type": "Feature", "id": "vHOIleFpLVDDa15u4pUM1609PqM=", "properties": {"ref": "30647", "@spider": "dominos_pizza_nl", "amenity": "fast_food", "cuisine": "pizza", "takeaway": "yes", "addr:street_address": "Weverstraat 26A", "addr:city": "LELYSTAD", "addr:postcode": "8223AC", "addr:country": "NL", "name": "Domino's Pizza Lelystad", "website": "https://www.dominos.nl/winkel/nl-lelystad-30647", "brand": "Domino's", "brand:wikidata": "Q839466", "nsi_id": "dominos-b946c5"}, "geometry": {"type": "Point", "coordinates": [5.482975, 52.519775]}},
{"type": "Feature", "id": "W1RZ9reIq7a7nhDgItO3Uii9wqU=", "properties": {"ref": "30646", "@spider": "dominos_pizza_nl", "amenity": "fast_food", "cuisine": "pizza", "takeaway": "yes", "addr:street_address": "Makassarweg 209", "addr:city": "ALMERE BUITEN", "addr:postcode": "1335HW", "addr:country": "NL", "name": "Domino's Pizza Almere Buiten", "website": "https://www.dominos.nl/winkel/nl-almerebuiten-30646", "brand": "Domino's", "brand:wikidata": "Q839466", "nsi_id": "dominos-b946c5"}, "geometry": {"type": "Point", "coordinates": [5.294391, 52.399191]}},
{"type": "Feature", "id": "rrLg6W8cHTjmKiYToR-57o5gtxU=", "properties": {"ref": "30645", "@spider": "dominos_pizza_nl", "amenity": "fast_food", "cuisine": "pizza", "takeaway": "yes", "addr:street_address": "Kamperfoelieweg 40", "addr:city": "AMSTERDAM", "addr:postcode": "1032HP", "addr:country": "NL", "name": "Domino's Pizza Amsterdam Noord", "website": "https://www.dominos.nl/winkel/nl-amsterdamnoord-30645", "brand": "Domino's", "brand:wikidata": "Q839466", "nsi_id": "dominos-b946c5"}, "geometry": {"type": "Point", "coordinates": [4.9147, 52.394232]}},
{"type": "Feature", "id": "R0SE1QN8Zce5P4N6tj9iWFxbwhQ=", "properties": {"ref": "30644", "@spider": "dominos_pizza_nl", "amenity": "fast_food", "cuisine": "pizza", "takeaway": "yes", "addr:street_address": "Marsdiepstraat 172", "addr:city": "DEN HELDER", "addr:postcode": "1784AT", "addr:country": "NL", "name": "Domino's Pizza Den Helder", "website": "https://www.dominos.nl/winkel/nl-denhelder-30644", "brand": "Domino's", "brand:wikidata": "Q839466", "nsi_id": "dominos-b946c5"}, "geometry": {"type": "Point", "coordinates": [4.742961, 52.945566]}},
{"type": "Feature", "id": "ozFoXea-bwLya_xbf_YgV7r5Oig=", "properties": {"ref": "30643", "@spider": "dominos_pizza_nl", "amenity": "fast_food", "cuisine": "pizza", "takeaway": "yes", "addr:street_address": "Zevenkampsering 303 B", "addr:city": "ROTTERDAM", "addr:postcode": "3068HG", "addr:country": "NL", "name": "Domino's Pizza Rotterdam Zevenkamp", "website": "https://www.dominos.nl/winkel/nl-rotterdamzevenkamp-30643", "brand": "Domino's", "brand:wikidata": "Q839466", "nsi_id": "dominos-b946c5"}, "geometry": {"type": "Point", "coordinates": [4.571802, 51.964289]}},
{"type": "Feature", "id": "ODBVDx4UnYPs5qnlskd9WVXPysY=", "properties": {"ref": "30642", "@spider": "dominos_pizza_nl", "amenity": "fast_food", "cuisine": "pizza", "takeaway": "yes", "addr:street_address": "Axelsestraat 68", "addr:city": "TERNEUZEN", "addr:postcode": "4537AL", "addr:country": "NL", "name": "Domino's Pizza Terneuzen", "website": "https://www.dominos.nl/winkel/nl-terneuzen-30642", "brand": "Domino's", "brand:wikidata": "Q839466", "nsi_id": "dominos-b946c5"}, "geometry": {"type": "Point", "coordinates": [3.833193, 51.331377]}},
{"type": "Feature", "id": "KnYOv-1Skd7_TQndo8DpA_v3Upo=", "properties": {"ref": "30641", "@spider": "dominos_pizza_nl", "amenity": "fast_food", "cuisine": "pizza", "takeaway": "yes", "addr:street_address": "Gildenweg 119", "addr:city": "GORINCHEM", "addr:postcode": "4204GE", "addr:country": "NL", "name": "Domino's Pizza Gorinchem Gildenweg", "website": "https://www.dominos.nl/winkel/nl-gorinchemgildenweg-30641", "brand": "Domino's", "brand:wikidata": "Q839466", "nsi_id": "dominos-b946c5"}, "geometry": {"type": "Point", "coordinates": [4.951356, 51.837154]}},
{"type": "Feature", "id": "kNbuNMyxLM07nwL-8qGOqutPtk8=", "properties": {"ref": "30639", "@spider": "dominos_pizza_nl", "amenity": "fast_food", "cuisine": "pizza", "takeaway": "yes", "addr:street_address": "P S Gerbrandystraat 64", "addr:city": "PAPENDRECHT", "addr:postcode": "3354BW", "addr:country": "NL", "name": "Domino's Pizza Papendrecht", "website": "https://www.dominos.nl/winkel/nl-papendrecht-30639", "brand": "Domino's", "brand:wikidata": "Q839466", "nsi_id": "dominos-b946c5"}, "geometry": {"type": "Point", "coordinates": [4.699382, 51.828904]}},
{"type": "Feature", "id": "tL-2B8ZKK3BD31UwAYrPbXf8Two=", "properties": {"ref": "30638", "@spider": "dominos_pizza_nl", "amenity": "fast_food", "cuisine": "pizza", "takeaway": "yes", "addr:street_address": "Buitennieuwstraat 9", "addr:city": "KAMPEN", "addr:postcode": "8261AP", "addr:country": "NL", "name": "Domino's Pizza Kampen", "website": "https://www.dominos.nl/winkel/nl-kampen-30638", "brand": "Domino's", "brand:wikidata": "Q839466", "nsi_id": "dominos-b946c5"}, "geometry": {"type": "Point", "coordinates": [5.915303, 52.558989]}},
{"type": "Feature", "id": "M7arBnKyAfO0tQ6ClNlC6EmMcss=", "properties": {"ref": "30637", "@spider": "dominos_pizza_nl", "amenity": "fast_food", "cuisine": "pizza", "takeaway": "yes", "addr:street_address": "Bruggehoofd 1B", "addr:city": "Hellevoetsluis", "addr:postcode": "3223 DB", "addr:country": "NL", "name": "Domino's Pizza Hellevoetsluis", "website": "https://www.dominos.nl/winkel/nl-hellevoetsluis-30637", "brand": "Domino's", "brand:wikidata": "Q839466", "nsi_id": "dominos-b946c5"}, "geometry": {"type": "Point", "coordinates": [4.144435, 51.834153]}},
{"type": "Feature", "id": "WIEkYBNtbYMV6sjISUg4-sZ_tpA=", "properties": {"ref": "30636", "@spider": "dominos_pizza_nl", "amenity": "fast_food", "cuisine": "pizza", "takeaway": "yes", "addr:street_address": "Het Rond 71", "addr:city": "HOUTEN", "addr:postcode": "3995DL", "addr:country": "NL", "name": "Domino's Pizza Houten", "website": "https://www.dominos.nl/winkel/nl-houten-30636", "brand": "Domino's", "brand:wikidata": "Q839466", "nsi_id": "dominos-b946c5"}, "geometry": {"type": "Point", "coordinates": [5.17041, 52.03549]}},
{"type": "Feature", "id": "-JHtc6UlfGvNJ5ZFSDY1gZOsFSo=", "properties": {"ref": "30635", "@spider": "dominos_pizza_nl", "amenity": "fast_food", "cuisine": "pizza", "takeaway": "yes", "addr:street_address": "Pieter Calandlaan 212 E", "addr:city": "AMSTERDAM", "addr:postcode": "1069LA", "addr:country": "NL", "name": "Domino's Pizza Amsterdam Osdorp", "website": "https://www.dominos.nl/winkel/nl-amsterdamosdorp-30635", "brand": "Domino's", "brand:wikidata": "Q839466", "nsi_id": "dominos-b946c5"}, "geometry": {"type": "Point", "coordinates": [4.798798, 52.352025]}},
{"type": "Feature", "id": "Q9wWkxcyxANFXvAio3YLygmNbTo=", "properties": {"ref": "30633", "@spider": "dominos_pizza_nl", "amenity": "fast_food", "cuisine": "pizza", "takeaway": "yes", "addr:street_address": "Almkerkplein 2", "addr:city": "HOOFDDORP", "addr:postcode": "2134DR", "addr:country": "NL", "name": "Domino's Pizza Hoofddorp - Almkerkplein - Floriande", "website": "https://www.dominos.nl/winkel/nl-hoofddorpalmkerkpleinfloriande-30633", "brand": "Domino's", "brand:wikidata": "Q839466", "nsi_id": "dominos-b946c5"}, "geometry": {"type": "Point", "coordinates": [4.639715, 52.307458]}},
{"type": "Feature", "id": "h4XXULCx_n7klWzJsQdD85rfYlc=", "properties": {"ref": "30631", "@spider": "dominos_pizza_nl", "amenity": "fast_food", "cuisine": "pizza", "takeaway": "yes", "addr:street_address": "Concertweg 5", "addr:city": "ALPHEN AAN DEN RIJN", "addr:postcode": "2402JG", "addr:country": "NL", "name": "Domino's Pizza Alphen aan den Rijn Concertweg", "website": "https://www.dominos.nl/winkel/nl-alphenaandenrijnconcertweg-30631", "brand": "Domino's", "brand:wikidata": "Q839466", "nsi_id": "dominos-b946c5"}, "geometry": {"type": "Point", "coordinates": [4.6596, 52.14897]}},
{"type": "Feature", "id": "MKvlZLT6lsLzLxYi2mWZwMuuUmE=", "properties": {"ref": "30630", "@spider": "dominos_pizza_nl", "amenity": "fast_food", "cuisine": "pizza", "takeaway": "yes", "addr:street_address": "Burgemeester De Kievietstraat 13", "addr:city": "DIEMEN", "addr:postcode": "1111GJ", "addr:country": "NL", "name": "Domino's Pizza Diemen", "website": "https://www.dominos.nl/winkel/nl-diemen-30630", "brand": "Domino's", "brand:wikidata": "Q839466", "nsi_id": "dominos-b946c5"}, "geometry": {"type": "Point", "coordinates": [4.963112, 52.338792]}},
{"type": "Feature", "id": "avf8KNfhYh1SJIh-Bw_NLZtSwUs=", "properties": {"ref": "30629", "@spider": "dominos_pizza_nl", "amenity": "fast_food", "cuisine": "pizza", "takeaway": "yes", "addr:street_address": "Veemarkt 45-47", "addr:city": "HOORN", "addr:postcode": "1621JB", "addr:country": "NL", "name": "Domino's Pizza Hoorn", "website": "https://www.dominos.nl/winkel/nl-hoorn-30629", "brand": "Domino's", "brand:wikidata": "Q839466", "nsi_id": "dominos-b946c5"}, "geometry": {"type": "Point", "coordinates": [5.053015, 52.644081]}},
{"type": "Feature", "id": "EE7dH3Te6-3zKxQfPyWXTdgdIvk=", "properties": {"ref": "30627", "@spider": "dominos_pizza_nl", "amenity": "fast_food", "cuisine": "pizza", "takeaway": "yes", "addr:street_address": "Middelgraaflaan 65", "addr:city": "ARNHEM", "addr:postcode": "6832AP", "addr:country": "NL", "name": "Domino's Pizza Arnhem", "website": "https://www.dominos.nl/winkel/nl-arnhem-30627", "brand": "Domino's", "brand:wikidata": "Q839466", "nsi_id": "dominos-b946c5"}, "geometry": {"type": "Point", "coordinates": [5.908513, 51.966819]}},
{"type": "Feature", "id": "EEpp45O-17Oth6wlnUOim__cZZk=", "properties": {"ref": "30625", "@spider": "dominos_pizza_nl", "amenity": "fast_food", "cuisine": "pizza", "takeaway": "yes", "addr:street_address": "De Clinge 1", "addr:city": "BUSSUM", "addr:postcode": "1401EV", "addr:country": "NL", "name": "Domino's Pizza Bussum", "website": "https://www.dominos.nl/winkel/nl-bussum-30625", "brand": "Domino's", "brand:wikidata": "Q839466", "nsi_id": "dominos-b946c5"}, "geometry": {"type": "Point", "coordinates": [5.166535, 52.274235]}},
{"type": "Feature", "id": "rzTULpuXH-XwZIH-edLfDTmZ5x0=", "properties": {"ref": "30624", "@spider": "dominos_pizza_nl", "amenity": "fast_food", "cuisine": "pizza", "takeaway": "yes", "addr:street_address": "Montaubanstraat 251", "addr:city": "ZEIST", "addr:postcode": "3701HN", "addr:country": "NL", "name": "Domino's Pizza Zeist", "website": "https://www.dominos.nl/winkel/nl-zeist-30624", "brand": "Domino's", "brand:wikidata": "Q839466", "nsi_id": "dominos-b946c5"}, "geometry": {"type": "Point", "coordinates": [5.238661, 52.08641]}},
{"type": "Feature", "id": "QVE3PPpJX_PZwfWwVyrTyLWjLMQ=", "properties": {"ref": "30623", "@spider": "dominos_pizza_nl", "amenity": "fast_food", "cuisine": "pizza", "takeaway": "yes", "addr:street_address": "Grauwaartsingel 260", "addr:city": "UTRECHT", "addr:postcode": "3541DA", "addr:country": "NL", "name": "Domino's Pizza Leidsche Rijn", "website": "https://www.dominos.nl/winkel/nl-leidscherijn-30623", "brand": "Domino's", "brand:wikidata": "Q839466", "nsi_id": "dominos-b946c5"}, "geometry": {"type": "Point", "coordinates": [5.063008, 52.096295]}},
{"type": "Feature", "id": "6XjGFSQ3k6kyJGaUy-YLPGYsXuY=", "properties": {"ref": "30622", "@spider": "dominos_pizza_nl", "amenity": "fast_food", "cuisine": "pizza", "takeaway": "yes", "addr:street_address": "Mariniersweg 70A", "addr:city": "ROTTERDAM", "addr:postcode": "3011NS", "addr:country": "NL", "name": "Domino's Pizza Rotterdam Mariniersweg", "website": "https://www.dominos.nl/winkel/nl-rotterdammariniersweg-30622", "brand": "Domino's", "brand:wikidata": "Q839466", "nsi_id": "dominos-b946c5"}, "geometry": {"type": "Point", "coordinates": [4.489941, 51.922756]}},
{"type": "Feature", "id": "MBoxPX4_dc-xgO_z1qQVTvabWG4=", "properties": {"ref": "30621", "@spider": "dominos_pizza_nl", "amenity": "fast_food", "cuisine": "pizza", "takeaway": "yes", "addr:street_address": "Koningin Emmaplein 18", "addr:city": "Maastricht", "addr:postcode": "6211NG", "addr:country": "NL", "name": "Domino's Pizza Maastricht Koningin Emmaplein", "website": "https://www.dominos.nl/winkel/nl-maastrichtkoninginemmaplein-30621", "brand": "Domino's", "brand:wikidata": "Q839466", "nsi_id": "dominos-b946c5"}, "geometry": {"type": "Point", "coordinates": [5.678361, 50.849148]}},
{"type": "Feature", "id": "iqQHtjlQPO1PiAhAxZ4We2tm3tw=", "properties": {"ref": "30619", "@spider": "dominos_pizza_nl", "amenity": "fast_food", "cuisine": "pizza", "takeaway": "yes", "addr:street_address": "Vondelstraat 61", "addr:city": "ALKMAAR", "addr:postcode": "1813BA", "addr:country": "NL", "name": "Domino's Pizza Alkmaar Vondelstraat", "website": "https://www.dominos.nl/winkel/nl-alkmaarvondelstraat-30619", "brand": "Domino's", "brand:wikidata": "Q839466", "nsi_id": "dominos-b946c5"}, "geometry": {"type": "Point", "coordinates": [4.747252, 52.619603]}},
{"type": "Feature", "id": "7TGu8RA6ScGViGf9MY2rO7DNtYo=", "properties": {"ref": "30617", "@spider": "dominos_pizza_nl", "amenity": "fast_food", "cuisine": "pizza", "takeaway": "yes", "addr:street_address": "Steenhoffstraat 16", "addr:city": "SOEST", "addr:postcode": "3764BL", "addr:country": "NL", "name": "Domino's Pizza Soest", "website": "https://www.dominos.nl/winkel/nl-soest-30617", "brand": "Domino's", "brand:wikidata": "Q839466", "nsi_id": "dominos-b946c5"}, "geometry": {"type": "Point", "coordinates": [5.30251, 52.18265]}},
{"type": "Feature", "id": "ifIbM4sClepntu8y4k-Ulwyihzg=", "properties": {"ref": "30616", "@spider": "dominos_pizza_nl", "amenity": "fast_food", "cuisine": "pizza", "takeaway": "yes", "addr:street_address": "Diezerkade 5", "addr:city": "ZWOLLE", "addr:postcode": "8021CW", "addr:country": "NL", "name": "Domino's Pizza Zwolle", "website": "https://www.dominos.nl/winkel/nl-zwolle-30616", "brand": "Domino's", "brand:wikidata": "Q839466", "nsi_id": "dominos-b946c5"}, "geometry": {"type": "Point", "coordinates": [6.100677, 52.515418]}},
{"type": "Feature", "id": "ezr7rBoRmINlcGxYag3cCYw6pkI=", "properties": {"ref": "30615", "@spider": "dominos_pizza_nl", "amenity": "fast_food", "cuisine": "pizza", "takeaway": "yes", "addr:street_address": "Boterdiep 1", "addr:city": "GRONINGEN", "addr:postcode": "9712LH", "addr:country": "NL", "name": "Domino's Pizza Groningen  - Boterdiep - Centrum", "website": "https://www.dominos.nl/winkel/nl-groningenboterdiepcentrum-30615", "brand": "Domino's", "brand:wikidata": "Q839466", "nsi_id": "dominos-b946c5"}, "geometry": {"type": "Point", "coordinates": [6.566397, 53.222758]}},
{"type": "Feature", "id": "cuJ7BC54D9nlFqU7A2gF-54D4tc=", "properties": {"ref": "30614", "@spider": "dominos_pizza_nl", "amenity": "fast_food", "cuisine": "pizza", "takeaway": "yes", "addr:street_address": "Boulevard 1945 347", "addr:city": "ENSCHEDE", "addr:postcode": "7511 AD", "addr:country": "NL", "name": "Domino's Pizza Enschede Boulevard 1945", "website": "https://www.dominos.nl/winkel/nl-enschedeboulevard1945-30614", "brand": "Domino's", "brand:wikidata": "Q839466", "nsi_id": "dominos-b946c5"}, "geometry": {"type": "Point", "coordinates": [6.90175, 52.216986]}},
{"type": "Feature", "id": "d6dl_RiXBFYfm5fcYoGPX18QbCw=", "properties": {"ref": "30612", "@spider": "dominos_pizza_nl", "amenity": "fast_food", "cuisine": "pizza", "takeaway": "yes", "addr:street_address": "Oostdorperweg 45", "addr:city": "WASSENAAR", "addr:postcode": "2242NE", "addr:country": "NL", "name": "Domino's Pizza Wassenaar", "website": "https://www.dominos.nl/winkel/nl-wassenaar-30612", "brand": "Domino's", "brand:wikidata": "Q839466", "nsi_id": "dominos-b946c5"}, "geometry": {"type": "Point", "coordinates": [4.395039, 52.148867]}},
{"type": "Feature", "id": "tf5L0GTgjfnn8tpQSIf_4wjgvCE=", "properties": {"ref": "30611", "@spider": "dominos_pizza_nl", "amenity": "fast_food", "cuisine": "pizza", "takeaway": "yes", "addr:street_address": "Koningin Julianastraat 24", "addr:city": "Nootdorp", "addr:postcode": "2631BM", "addr:country": "NL", "name": "Domino's Pizza Nootdorp", "website": "https://www.dominos.nl/winkel/nl-nootdorp-30611", "brand": "Domino's", "brand:wikidata": "Q839466", "nsi_id": "dominos-b946c5"}, "geometry": {"type": "Point", "coordinates": [4.393032, 52.044891]}},
{"type": "Feature", "id": "Gztg5KfnE-4qHlfw0bDHemaSnCk=", "properties": {"ref": "30610", "@spider": "dominos_pizza_nl", "amenity": "fast_food", "cuisine": "pizza", "takeaway": "yes", "addr:street_address": "Nieuweweg 87", "addr:city": "Veenendaal", "addr:postcode": "3905LH", "addr:country": "NL", "name": "Domino's Pizza Veenendaal", "website": "https://www.dominos.nl/winkel/nl-veenendaal-30610", "brand": "Domino's", "brand:wikidata": "Q839466", "nsi_id": "dominos-b946c5"}, "geometry": {"type": "Point", "coordinates": [5.553043, 52.033644]}},
{"type": "Feature", "id": "gWexH0FvMe_W9hMtCLSMB08iTSQ=", "properties": {"ref": "30609", "@spider": "dominos_pizza_nl", "amenity": "fast_food", "cuisine": "pizza", "takeaway": "yes", "addr:street_address": "Oostelijke Handelskade 142", "addr:city": "AMSTERDAM", "addr:postcode": "1019BP", "addr:country": "NL", "name": "Domino's Pizza Amsterdam Oostelijke Handelskade", "website": "https://www.dominos.nl/winkel/nl-amsterdamoostelijkehandelskade-30609", "brand": "Domino's", "brand:wikidata": "Q839466", "nsi_id": "dominos-b946c5"}, "geometry": {"type": "Point", "coordinates": [4.937983, 52.373703]}},
{"type": "Feature", "id": "SX0JvAiGiCgwX1Dl5UMp74nNgOI=", "properties": {"ref": "30608", "@spider": "dominos_pizza_nl", "amenity": "fast_food", "cuisine": "pizza", "takeaway": "yes", "addr:street_address": "Markt 99B", "addr:city": "ETTEN LEUR", "addr:postcode": "4875CD", "addr:country": "NL", "name": "Domino's Pizza Etten Leur", "website": "https://www.dominos.nl/winkel/nl-ettenleur-30608", "brand": "Domino's", "brand:wikidata": "Q839466", "nsi_id": "dominos-b946c5"}, "geometry": {"type": "Point", "coordinates": [4.632978, 51.572922]}},
{"type": "Feature", "id": "Bc3srDiyPJKmOrGF0NtCe7dUO0M=", "properties": {"ref": "30607", "@spider": "dominos_pizza_nl", "amenity": "fast_food", "cuisine": "pizza", "takeaway": "yes", "addr:street_address": "Cinemadreef 238", "addr:city": "ALMERE", "addr:postcode": "1325ES", "addr:country": "NL", "name": "Domino's Pizza Almere", "website": "https://www.dominos.nl/winkel/nl-almere-30607", "brand": "Domino's", "brand:wikidata": "Q839466", "nsi_id": "dominos-b946c5"}, "geometry": {"type": "Point", "coordinates": [5.231484, 52.373088]}},
{"type": "Feature", "id": "6Ajy9a3rl3Q-ZnLMNJJY6Aor0rE=", "properties": {"ref": "30606", "@spider": "dominos_pizza_nl", "amenity": "fast_food", "cuisine": "pizza", "takeaway": "yes", "addr:street_address": "Prinses Julianaplein 3", "addr:city": "AMERSFOORT", "addr:postcode": "3811NM", "addr:country": "NL", "name": "Domino's Pizza Amersfoort", "website": "https://www.dominos.nl/winkel/nl-amersfoort-30606", "brand": "Domino's", "brand:wikidata": "Q839466", "nsi_id": "dominos-b946c5"}, "geometry": {"type": "Point", "coordinates": [5.384691, 52.15054]}},
{"type": "Feature", "id": "1WAj-qhO_PKjPVy8TsqTVO5iBzI=", "properties": {"ref": "30605", "@spider": "dominos_pizza_nl", "amenity": "fast_food", "cuisine": "pizza", "takeaway": "yes", "addr:street_address": "Marnixlaan 21", "addr:city": "UTRECHT", "addr:postcode": "3552HB", "addr:country": "NL", "name": "Domino's Pizza Utrecht Marnixlaan", "website": "https://www.dominos.nl/winkel/nl-utrechtmarnixlaan-30605", "brand": "Domino's", "brand:wikidata": "Q839466", "nsi_id": "dominos-b946c5"}, "geometry": {"type": "Point", "coordinates": [5.093186, 52.105567]}},
{"type": "Feature", "id": "8LGwAyVDJOb8Ar2x6nDKUwo16e4=", "properties": {"ref": "30603", "@spider": "dominos_pizza_nl", "amenity": "fast_food", "cuisine": "pizza", "takeaway": "yes", "addr:street_address": "Mozartlaan 17A", "addr:city": "Waalwijk", "addr:postcode": "5144 XW", "addr:country": "NL", "name": "Domino's Pizza Waalwijk", "website": "https://www.dominos.nl/winkel/nl-waalwijk-30603", "brand": "Domino's", "brand:wikidata": "Q839466", "nsi_id": "dominos-b946c5"}, "geometry": {"type": "Point", "coordinates": [5.067113, 51.6788]}},
{"type": "Feature", "id": "ETOGYlKnRI82YcQZ-LqOKF6Zdog=", "properties": {"ref": "30601", "@spider": "dominos_pizza_nl", "amenity": "fast_food", "cuisine": "pizza", "takeaway": "yes", "addr:street_address": "Noordstedeweg 192", "addr:city": "NIEUWEGEIN", "addr:postcode": "3431KC", "addr:country": "NL", "name": "Domino's Pizza Nieuwegein", "website": "https://www.dominos.nl/winkel/nl-nieuwegein-30601", "brand": "Domino's", "brand:wikidata": "Q839466", "nsi_id": "dominos-b946c5"}, "geometry": {"type": "Point", "coordinates": [5.084632, 52.02898]}},
{"type": "Feature", "id": "AKFXoztE3XfS72OgEYSFSMHk1qQ=", "properties": {"ref": "30600", "@spider": "dominos_pizza_nl", "amenity": "fast_food", "cuisine": "pizza", "takeaway": "yes", "addr:street_address": "Tesselschadeplein 1", "addr:city": "HAARLEM", "addr:postcode": "2026SV", "addr:country": "NL", "name": "Domino's Pizza Haarlem  - Tesselschadeplein", "website": "https://www.dominos.nl/winkel/nl-haarlemtesselschadeplein-30600", "brand": "Domino's", "brand:wikidata": "Q839466", "nsi_id": "dominos-b946c5"}, "geometry": {"type": "Point", "coordinates": [4.649607, 52.416856]}},
{"type": "Feature", "id": "Pu0SGSb4qaVfTs3Mg7IueWZeWb0=", "properties": {"ref": "30599", "@spider": "dominos_pizza_nl", "amenity": "fast_food", "cuisine": "pizza", "takeaway": "yes", "addr:street_address": "Burgemeester Jansenlaan 49", "addr:city": "ZWIJNDRECHT", "addr:postcode": "3331HD", "addr:country": "NL", "name": "Domino's Pizza Zwijndrecht", "website": "https://www.dominos.nl/winkel/nl-zwijndrecht-30599", "brand": "Domino's", "brand:wikidata": "Q839466", "nsi_id": "dominos-b946c5"}, "geometry": {"type": "Point", "coordinates": [4.638674, 51.822342]}},
{"type": "Feature", "id": "_HcL-FgVhF-pY6rz6FySGra6PSE=", "properties": {"ref": "30595", "@spider": "dominos_pizza_nl", "amenity": "fast_food", "cuisine": "pizza", "takeaway": "yes", "addr:street_address": "Irisstraat 4", "addr:city": "Ridderkerk", "addr:postcode": "2981BN", "addr:country": "NL", "name": "Domino's Pizza Ridderkerk", "website": "https://www.dominos.nl/winkel/nl-ridderkerk-30595", "brand": "Domino's", "brand:wikidata": "Q839466", "nsi_id": "dominos-b946c5"}, "geometry": {"type": "Point", "coordinates": [4.594689, 51.864995]}},
{"type": "Feature", "id": "UICir7o09PEOT1EzCIP1Xwxxmv0=", "properties": {"ref": "30594", "@spider": "dominos_pizza_nl", "amenity": "fast_food", "cuisine": "pizza", "takeaway": "yes", "addr:street_address": "Burgemeester Van Hoofflaan 99", "addr:city": "VELDHOVEN", "addr:postcode": "5503BL", "addr:country": "NL", "name": "Domino's Pizza Veldhoven", "website": "https://www.dominos.nl/winkel/nl-veldhoven-30594", "brand": "Domino's", "brand:wikidata": "Q839466", "nsi_id": "dominos-b946c5"}, "geometry": {"type": "Point", "coordinates": [5.40749, 51.4139]}},
{"type": "Feature", "id": "6VlP8jKn6OJof8ikJGoNf0H3-ME=", "properties": {"ref": "30593", "@spider": "dominos_pizza_nl", "amenity": "fast_food", "cuisine": "pizza", "takeaway": "yes", "addr:street_address": "Gorsstraat 16", "addr:city": "SPIJKENISSE", "addr:postcode": "3201DB", "addr:country": "NL", "name": "Domino's Pizza Spijkenisse", "website": "https://www.dominos.nl/winkel/nl-spijkenisse-30593", "brand": "Domino's", "brand:wikidata": "Q839466", "nsi_id": "dominos-b946c5"}, "geometry": {"type": "Point", "coordinates": [4.331257, 51.850682]}},
{"type": "Feature", "id": "M_ktKIbCO6S9Wux-2aNKMbKXka8=", "properties": {"ref": "30592", "@spider": "dominos_pizza_nl", "amenity": "fast_food", "cuisine": "pizza", "takeaway": "yes", "addr:street_address": "Hueseplein 4", "addr:city": "AMSTELVEEN", "addr:postcode": "1185HH", "addr:country": "NL", "name": "Domino's Pizza Amstelveen", "website": "https://www.dominos.nl/winkel/nl-amstelveen-30592", "brand": "Domino's", "brand:wikidata": "Q839466", "nsi_id": "dominos-b946c5"}, "geometry": {"type": "Point", "coordinates": [4.854293, 52.296749]}},
{"type": "Feature", "id": "gg9PFx-P-CvQeE5XgNepeKt1l6w=", "properties": {"ref": "30589", "@spider": "dominos_pizza_nl", "amenity": "fast_food", "cuisine": "pizza", "takeaway": "yes", "addr:street_address": "Leonardo Da Vinciplein 44", "addr:city": "Den Bosch", "addr:postcode": "5223DR", "addr:country": "NL", "name": "Domino's Pizza Den Bosch", "website": "https://www.dominos.nl/winkel/nl-denbosch-30589", "brand": "Domino's", "brand:wikidata": "Q839466", "nsi_id": "dominos-b946c5"}, "geometry": {"type": "Point", "coordinates": [5.291909, 51.691224]}},
{"type": "Feature", "id": "pvUefkBsd-P-uqWN8Tk4qW9luOI=", "properties": {"ref": "30587", "@spider": "dominos_pizza_nl", "amenity": "fast_food", "cuisine": "pizza", "takeaway": "yes", "addr:street_address": "Rozenplein 62", "addr:city": "Ede", "addr:postcode": "6713EN", "addr:country": "NL", "name": "Domino's Pizza Ede Rozenplein", "website": "https://www.dominos.nl/winkel/nl-ederozenplein-30587", "brand": "Domino's", "brand:wikidata": "Q839466", "nsi_id": "dominos-b946c5"}, "geometry": {"type": "Point", "coordinates": [5.655813, 52.038538]}},
{"type": "Feature", "id": "TAQRUTJ5VkKe-FtNLQKUiHidYPQ=", "properties": {"ref": "30585", "@spider": "dominos_pizza_nl", "amenity": "fast_food", "cuisine": "pizza", "takeaway": "yes", "addr:street_address": "Bos En Lommerweg 215", "addr:city": "AMSTERDAM", "addr:postcode": "1055DT", "addr:country": "NL", "name": "Domino's Pizza Amsterdam Bos en Lommerweg", "website": "https://www.dominos.nl/winkel/nl-amsterdambosenlommerweg-30585", "brand": "Domino's", "brand:wikidata": "Q839466", "nsi_id": "dominos-b946c5"}, "geometry": {"type": "Point", "coordinates": [4.851752, 52.378869]}},
{"type": "Feature", "id": "9zAOgdyDrNY8b97tKqzDgDkZmkc=", "properties": {"ref": "30583", "@spider": "dominos_pizza_nl", "amenity": "fast_food", "cuisine": "pizza", "takeaway": "yes", "addr:street_address": "Pearl Buckerf 24", "addr:city": "DORDRECHT", "addr:postcode": "3315BA", "addr:country": "NL", "name": "Domino's Pizza Dordrecht Pearl Buckerf", "website": "https://www.dominos.nl/winkel/nl-dordrechtpearlbuckerf-30583", "brand": "Domino's", "brand:wikidata": "Q839466", "nsi_id": "dominos-b946c5"}, "geometry": {"type": "Point", "coordinates": [4.726439, 51.797715]}},
{"type": "Feature", "id": "wHhtGliZAKrRI5f9chVbGXGk-Z0=", "properties": {"ref": "30582", "@spider": "dominos_pizza_nl", "amenity": "fast_food", "cuisine": "pizza", "takeaway": "yes", "addr:street_address": "Damplein 16", "addr:city": "LEIDSCHENDAM", "addr:postcode": "2265AC", "addr:country": "NL", "name": "Domino's Pizza Leidschendam", "website": "https://www.dominos.nl/winkel/nl-leidschendam-30582", "brand": "Domino's", "brand:wikidata": "Q839466", "nsi_id": "dominos-b946c5"}, "geometry": {"type": "Point", "coordinates": [4.39663, 52.080996]}},
{"type": "Feature", "id": "u0_063OK_IhCxdLXxQk_K9rH0hY=", "properties": {"ref": "30581", "@spider": "dominos_pizza_nl", "amenity": "fast_food", "cuisine": "pizza", "takeaway": "yes", "addr:street_address": "Generaal Eisenhouwerplein 4", "addr:city": "RIJSWIJK", "addr:postcode": "2284XV", "addr:country": "NL", "name": "Domino's Pizza Rijswijk", "website": "https://www.dominos.nl/winkel/nl-rijswijk-30581", "brand": "Domino's", "brand:wikidata": "Q839466", "nsi_id": "dominos-b946c5"}, "geometry": {"type": "Point", "coordinates": [4.321935, 52.037784]}},
{"type": "Feature", "id": "c0KxKjrZeCc8UzvBSkkqhTlQK7w=", "properties": {"ref": "30580", "@spider": "dominos_pizza_nl", "amenity": "fast_food", "cuisine": "pizza", "takeaway": "yes", "addr:street_address": "Binnenwatersloot 12A", "addr:city": "Delft", "addr:postcode": "2611BK", "addr:country": "NL", "name": "Domino's Pizza Delft Binnenwatersloot", "website": "https://www.dominos.nl/winkel/nl-delftbinnenwatersloot-30580", "brand": "Domino's", "brand:wikidata": "Q839466", "nsi_id": "dominos-b946c5"}, "geometry": {"type": "Point", "coordinates": [4.355981, 52.009731]}},
{"type": "Feature", "id": "S13yuUcbHXcnYUs537fQ4CH3oWQ=", "properties": {"ref": "30579", "@spider": "dominos_pizza_nl", "amenity": "fast_food", "cuisine": "pizza", "takeaway": "yes", "addr:street_address": "Klaphekkenstraat 5A", "addr:city": "OSS", "addr:postcode": "5341CH", "addr:country": "NL", "name": "Domino's Pizza Oss Klaphekkenstraat", "website": "https://www.dominos.nl/winkel/nl-ossklaphekkenstraat-30579", "brand": "Domino's", "brand:wikidata": "Q839466", "nsi_id": "dominos-b946c5"}, "geometry": {"type": "Point", "coordinates": [5.528446, 51.768864]}},
{"type": "Feature", "id": "Ccg0GWoQ-tsDMx0Zo4mEqXWQPfw=", "properties": {"ref": "30578", "@spider": "dominos_pizza_nl", "amenity": "fast_food", "cuisine": "pizza", "takeaway": "yes", "addr:street_address": "Ceintuurbaan 314", "addr:city": "AMSTERDAM", "addr:postcode": "1072GL", "addr:country": "NL", "name": "Domino's Pizza Amsterdam Ceintuurbaan", "website": "https://www.dominos.nl/winkel/nl-amsterdamceintuurbaan-30578", "brand": "Domino's", "brand:wikidata": "Q839466", "nsi_id": "dominos-b946c5"}, "geometry": {"type": "Point", "coordinates": [4.89286, 52.352801]}},
{"type": "Feature", "id": "qoAzTro0V9Nw93NYDucjVcxrkls=", "properties": {"ref": "30577", "@spider": "dominos_pizza_nl", "amenity": "fast_food", "cuisine": "pizza", "takeaway": "yes", "addr:street_address": "Oranjestraat 7", "addr:city": "SCHIEDAM", "addr:postcode": "3111AM", "addr:country": "NL", "name": "Domino's Pizza Schiedam", "website": "https://www.dominos.nl/winkel/nl-schiedam-30577", "brand": "Domino's", "brand:wikidata": "Q839466", "nsi_id": "dominos-b946c5"}, "geometry": {"type": "Point", "coordinates": [4.400331, 51.912855]}},
{"type": "Feature", "id": "0aRRBQke4h7YThZs3J2p2cQovYY=", "properties": {"ref": "30576", "@spider": "dominos_pizza_nl", "amenity": "fast_food", "cuisine": "pizza", "takeaway": "yes", "addr:street_address": "Antwerpsestraat 2", "addr:city": "BERGEN OP ZOOM", "addr:postcode": "4611AG", "addr:country": "NL", "name": "Domino's Pizza Bergen op Zoom", "website": "https://www.dominos.nl/winkel/nl-bergenopzoom-30576", "brand": "Domino's", "brand:wikidata": "Q839466", "nsi_id": "dominos-b946c5"}, "geometry": {"type": "Point", "coordinates": [4.287777, 51.492041]}},
{"type": "Feature", "id": "9qpaIQNKpP0CnOBYRSJXa4BfJzw=", "properties": {"ref": "30557", "@spider": "dominos_pizza_nl", "amenity": "fast_food", "cuisine": "pizza", "takeaway": "yes", "addr:street_address": "Achter De Broederen 13", "addr:city": "Deventer", "addr:postcode": "7411 PS", "addr:country": "NL", "name": "Domino's Pizza Deventer  - Achter de Broederen", "website": "https://www.dominos.nl/winkel/nl-deventerachterdebroederen-30557", "brand": "Domino's", "brand:wikidata": "Q839466", "nsi_id": "dominos-b946c5"}, "geometry": {"type": "Point", "coordinates": [6.157252, 52.254878]}},
{"type": "Feature", "id": "pqEWupwNOkChS1v1pzMA5JTbwRs=", "properties": {"ref": "30556", "@spider": "dominos_pizza_nl", "amenity": "fast_food", "cuisine": "pizza", "takeaway": "yes", "addr:street_address": "Stadhoudersweg 72A", "addr:city": "Rotterdam", "addr:postcode": "3039CG", "addr:country": "NL", "name": "Domino's Pizza Rotterdam Blijdorp", "website": "https://www.dominos.nl/winkel/nl-rotterdamblijdorp-30556", "brand": "Domino's", "brand:wikidata": "Q839466", "nsi_id": "dominos-b946c5"}, "geometry": {"type": "Point", "coordinates": [4.461893, 51.931049]}},
{"type": "Feature", "id": "BEB6QsvrTZ6x5n0z3nsG3tjeijE=", "properties": {"ref": "30555", "@spider": "dominos_pizza_nl", "amenity": "fast_food", "cuisine": "pizza", "takeaway": "yes", "addr:street_address": "Elckerlyclaan 77", "addr:city": "EINDHOVEN", "addr:postcode": "5625EP", "addr:country": "NL", "name": "Domino's Pizza Eindhoven Woensel", "website": "https://www.dominos.nl/winkel/nl-eindhovenwoensel-30555", "brand": "Domino's", "brand:wikidata": "Q839466", "nsi_id": "dominos-b946c5"}, "geometry": {"type": "Point", "coordinates": [5.46745, 51.474698]}},
{"type": "Feature", "id": "ohuEEWg2nKaXfAB9t4CpeUzL9Ug=", "properties": {"ref": "30554", "@spider": "dominos_pizza_nl", "amenity": "fast_food", "cuisine": "pizza", "takeaway": "yes", "addr:street_address": "Rijnlaan 6A", "addr:city": "UTRECHT", "addr:postcode": "3522BN", "addr:country": "NL", "name": "Domino's Pizza Utrecht Rijnlaan", "website": "https://www.dominos.nl/winkel/nl-utrechtrijnlaan-30554", "brand": "Domino's", "brand:wikidata": "Q839466", "nsi_id": "dominos-b946c5"}, "geometry": {"type": "Point", "coordinates": [5.114577, 52.07729]}},
{"type": "Feature", "id": "e_zNUQBkcAmxetbBwHOe-R_9w4E=", "properties": {"ref": "30553", "@spider": "dominos_pizza_nl", "amenity": "fast_food", "cuisine": "pizza", "takeaway": "yes", "addr:street_address": "Van Leeuwenhoeklaan 10", "addr:city": "ZOETERMEER", "addr:postcode": "2713RB", "addr:country": "NL", "name": "Domino's Pizza Zoetermeer", "website": "https://www.dominos.nl/winkel/nl-zoetermeer-30553", "brand": "Domino's", "brand:wikidata": "Q839466", "nsi_id": "dominos-b946c5"}, "geometry": {"type": "Point", "coordinates": [4.486732, 52.057259]}},
{"type": "Feature", "id": "gpf4-bnCyVDrLq2BfV1rlHtUXnc=", "properties": {"ref": "30552", "@spider": "dominos_pizza_nl", "amenity": "fast_food", "cuisine": "pizza", "takeaway": "yes", "addr:street_address": "Papsouwselaan 123B", "addr:city": "Delft", "addr:postcode": "2624AK", "addr:country": "NL", "name": "Domino's Pizza Delft Papsouwselaan", "website": "https://www.dominos.nl/winkel/nl-delftpapsouwselaan-30552", "brand": "Domino's", "brand:wikidata": "Q839466", "nsi_id": "dominos-b946c5"}, "geometry": {"type": "Point", "coordinates": [4.355189, 51.999185]}},
{"type": "Feature", "id": "9SyaD4ETHSdFRux27hma03V8L68=", "properties": {"ref": "30551", "@spider": "dominos_pizza_nl", "amenity": "fast_food", "cuisine": "pizza", "takeaway": "yes", "addr:street_address": "Stationsweg 17", "addr:city": "LEIDEN", "addr:postcode": "2312AS", "addr:country": "NL", "name": "Domino's Pizza Leiden  - Stationsweg - Centrum", "website": "https://www.dominos.nl/winkel/nl-leidenstationswegcentrum-30551", "brand": "Domino's", "brand:wikidata": "Q839466", "nsi_id": "dominos-b946c5"}, "geometry": {"type": "Point", "coordinates": [4.484345, 52.164671]}},
{"type": "Feature", "id": "BG7LdMY-o-4SMc0kjwz-AUNdrFI=", "properties": {"ref": "30550", "@spider": "dominos_pizza_nl", "amenity": "fast_food", "cuisine": "pizza", "takeaway": "yes", "addr:street_address": "Kesterenlaan 170", "addr:city": "BREDA", "addr:postcode": "4822WK", "addr:country": "NL", "name": "Domino's Pizza Breda Kesterenlaan", "website": "https://www.dominos.nl/winkel/nl-bredakesterenlaan-30550", "brand": "Domino's", "brand:wikidata": "Q839466", "nsi_id": "dominos-b946c5"}, "geometry": {"type": "Point", "coordinates": [4.722931, 51.613578]}},
{"type": "Feature", "id": "U5OUcAe-wMfsvNSCiZjeoiDvYUo=", "properties": {"ref": "30548", "@spider": "dominos_pizza_nl", "amenity": "fast_food", "cuisine": "pizza", "takeaway": "yes", "addr:street_address": "Koningin Julianalaan 234", "addr:city": "VOORBURG", "addr:postcode": "2274JR", "addr:country": "NL", "name": "Domino's Pizza Voorburg", "website": "https://www.dominos.nl/winkel/nl-voorburg-30548", "brand": "Domino's", "brand:wikidata": "Q839466", "nsi_id": "dominos-b946c5"}, "geometry": {"type": "Point", "coordinates": [4.35496, 52.076528]}},
{"type": "Feature", "id": "7M0PVFbo8eeE8p2lk7N3iGD8QJ8=", "properties": {"ref": "30547", "@spider": "dominos_pizza_nl", "amenity": "fast_food", "cuisine": "pizza", "takeaway": "yes", "addr:street_address": "Karel De Grotelaan 353A", "addr:city": "Eindhoven", "addr:postcode": "5654NN", "addr:country": "NL", "name": "Domino's Pizza Eindhoven Gestel", "website": "https://www.dominos.nl/winkel/nl-eindhovengestel-30547", "brand": "Domino's", "brand:wikidata": "Q839466", "nsi_id": "dominos-b946c5"}, "geometry": {"type": "Point", "coordinates": [5.461251, 51.427522]}},
{"type": "Feature", "id": "_ZcBnelRFHx0HA2FxTjF2WUE3Ho=", "properties": {"ref": "30546", "@spider": "dominos_pizza_nl", "amenity": "fast_food", "cuisine": "pizza", "takeaway": "yes", "addr:street_address": "Van Oldenbarneveltplein 73", "addr:city": "DORDRECHT", "addr:postcode": "3317ES", "addr:country": "NL", "name": "Domino's Pizza Dordrecht Van Oldenbarneveltplein", "website": "https://www.dominos.nl/winkel/nl-dordrechtvanoldenbarneveltplein-30546", "brand": "Domino's", "brand:wikidata": "Q839466", "nsi_id": "dominos-b946c5"}, "geometry": {"type": "Point", "coordinates": [4.664481, 51.790996]}},
{"type": "Feature", "id": "LnxRi0DADO29Qg74OOtcf79QmC0=", "properties": {"ref": "30544", "@spider": "dominos_pizza_nl", "amenity": "fast_food", "cuisine": "pizza", "takeaway": "yes", "addr:street_address": "Potterstraat 12", "addr:city": "UTRECHT", "addr:postcode": "3512TA", "addr:country": "NL", "name": "Domino's Pizza Utrecht Potterstraat", "website": "https://www.dominos.nl/winkel/nl-utrechtpotterstraat-30544", "brand": "Domino's", "brand:wikidata": "Q839466", "nsi_id": "dominos-b946c5"}, "geometry": {"type": "Point", "coordinates": [5.117607, 52.093665]}},
{"type": "Feature", "id": "cic8knrugs-JleDDx6zKF3iM6TA=", "properties": {"ref": "30542", "@spider": "dominos_pizza_nl", "amenity": "fast_food", "cuisine": "pizza", "takeaway": "yes", "addr:street_address": "Thomas Van Aquinostraat 37 A", "addr:city": "TILBURG", "addr:postcode": "5042HA", "addr:country": "NL", "name": "Domino's Pizza Tilburg Thomas van Aquinostraat", "website": "https://www.dominos.nl/winkel/nl-tilburgthomasvanaquinostraat-30542", "brand": "Domino's", "brand:wikidata": "Q839466", "nsi_id": "dominos-b946c5"}, "geometry": {"type": "Point", "coordinates": [5.060602, 51.567897]}},
{"type": "Feature", "id": "XEnlcIg9mwnczTL-DOwGt_N710M=", "properties": {"ref": "30540", "@spider": "dominos_pizza_nl", "amenity": "fast_food", "cuisine": "pizza", "takeaway": "yes", "addr:street_address": "Graaf Hendrik Iii Plein 51", "addr:city": "BREDA", "addr:postcode": "4819CK", "addr:country": "NL", "name": "Domino's Pizza Breda Graaf Hendrik III Plein", "website": "https://www.dominos.nl/winkel/nl-bredagraafhendrikiiiplein-30540", "brand": "Domino's", "brand:wikidata": "Q839466", "nsi_id": "dominos-b946c5"}, "geometry": {"type": "Point", "coordinates": [4.771072, 51.576964]}}]}