{"type":"FeatureCollection","features":[{"type": "Feature", "id": "DJ5t8M3Dc53C-c6XH-3R0vNbPBk=", "properties": {"ref": "https://dreams.co.uk/store/eastleigh", "@spider": "dreams_gb", "shop": "bed", "addr:street_address": "Chestnut Ave. Retail Park, Chestnut Ave", "addr:city": "Eastleigh", "addr:state": "Hants", "addr:postcode": "SO53 3TF", "addr:country": "GB", "name": "Eastleigh Bed Store", "phone": "023 8061 4040", "website": "https://dreams.co.uk/store/eastleigh", "opening_hours": "Mo-Fr 10:00-18:00; Sa 09:00-18:00; Su 10:00-16:00", "image": "https://img.dreams.co.uk/i/dreams/Eastleigh-MG_0278-RT", "brand": "Dreams", "brand:wikidata": "Q5306688", "nsi_id": "dreams-d088e6"}, "geometry": {"type": "Point", "coordinates": [-1.387, 50.967]}},
{"type": "Feature", "id": "qUCsDKcmgqWmw1JmWSH2dYINLtU=", "properties": {"ref": "https://dreams.co.uk/store/eastbourne", "@spider": "dreams_gb", "shop": "bed", "addr:street_address": "Unit 2B Hampden Retail Park, Marshall Road", "addr:city": "Eastbourne", "addr:state": "Sussex", "addr:postcode": "BN23 6QU", "addr:country": "GB", "name": "Eastbourne Bed Store", "phone": "01323 520813", "website": "https://dreams.co.uk/store/eastbourne", "opening_hours": "Mo 10:00-20:00; Tu-We 10:00-18:00; Th-Fr 10:00-20:00; Sa 09:00-18:00; Su 11:00-17:00", "image": "https://img.dreams.co.uk/i/dreams/Eastbourne-MG_0521-RT", "brand": "Dreams", "brand:wikidata": "Q5306688", "nsi_id": "dreams-d088e6"}, "geometry": {"type": "Point", "coordinates": [0.284, 50.795]}},
{"type": "Feature", "id": "OJnG3qC6glSoSPhtkFhD7Qtsudc=", "properties": {"ref": "https://dreams.co.uk/store/dunfermline", "@spider": "dreams_gb", "shop": "bed", "addr:street_address": "Carnegie Retail Park, Carnegie Drive", "addr:city": "Dunfermline", "addr:state": "Fife", "addr:postcode": "KY12 7AU", "addr:country": "GB", "name": "Dunfermline Bed Store", "phone": "01383 841471", "website": "https://dreams.co.uk/store/dunfermline", "opening_hours": "Mo 10:00-20:00; Tu-We 10:00-18:00; Th 10:00-20:00; Fr 10:00-18:00; Sa 09:00-18:00; Su 11:00-17:00", "image": "https://img.dreams.co.uk/i/dreams/Dreams_Stores_Dumfermline-5549", "brand": "Dreams", "brand:wikidata": "Q5306688", "nsi_id": "dreams-d088e6"}, "geometry": {"type": "Point", "coordinates": [-3.455, 56.074]}},
{"type": "Feature", "id": "qW25NzoJ0kTZG4Uf45d82wUCFks=", "properties": {"ref": "https://dreams.co.uk/store/dundee", "@spider": "dreams_gb", "shop": "bed", "addr:street_address": "Kingsway West Retail Park, Clepington Road", "addr:state": "Dundee", "addr:postcode": "DD3 8RX", "addr:country": "GB", "name": "Dundee Bed Store", "phone": "01382 816203", "website": "https://dreams.co.uk/store/dundee", "opening_hours": "Mo-Fr 10:00-20:00; Sa 09:00-18:00; Su 10:30-17:00", "image": "https://img.dreams.co.uk/i/dreams/Dundee-5G1A2261", "brand": "Dreams", "brand:wikidata": "Q5306688", "nsi_id": "dreams-d088e6"}, "geometry": {"type": "Point", "coordinates": [-2.992, 56.481]}},
{"type": "Feature", "id": "nuXvMyAifnzcZuaY0WLwHXRDTBI=", "properties": {"ref": "https://dreams.co.uk/store/doncaster", "@spider": "dreams_gb", "shop": "bed", "addr:street_address": "Danum Retail Park, York Road", "addr:city": "Doncaster", "addr:state": "South Yorkshire", "addr:postcode": "DN5 8LY", "addr:country": "GB", "name": "Doncaster Bed Store", "phone": "01302 390379", "website": "https://dreams.co.uk/store/doncaster", "opening_hours": "Mo-Tu 10:00-20:00; We-Fr 10:00-18:00; Sa 09:00-18:00; Su 10:30-16:30", "image": "https://img.dreams.co.uk/i/dreams/B227_5G1A1358", "brand": "Dreams", "brand:wikidata": "Q5306688", "nsi_id": "dreams-d088e6"}, "geometry": {"type": "Point", "coordinates": [-1.155, 53.532]}},
{"type": "Feature", "id": "UyngJI5SUWsgQ5scoMPCh364TlA=", "properties": {"ref": "https://dreams.co.uk/store/derby-meteor-retail-park", "@spider": "dreams_gb", "shop": "bed", "addr:street_address": "Meteor Retail Park, Mansfield Road", "addr:city": "Derby", "addr:state": "Derbyshire", "addr:postcode": "DE21 4SY", "addr:country": "GB", "name": "Derby - Meteor Retail Park Bed Store", "phone": "01332 341891", "website": "https://dreams.co.uk/store/derby-meteor-retail-park", "opening_hours": "Mo-Fr 10:00-20:00; Sa 09:00-18:00; Su 10:30-16:30", "image": "https://img.dreams.co.uk/i/dreams/Dreams_Store_Derby-6292", "brand": "Dreams", "brand:wikidata": "Q5306688", "nsi_id": "dreams-d088e6"}, "geometry": {"type": "Point", "coordinates": [-1.464, 52.942]}},
{"type": "Feature", "id": "UxSBqYUILVsKZGyhvQPm6fRZmAI=", "properties": {"ref": "https://dreams.co.uk/store/dartford", "@spider": "dreams_gb", "shop": "bed", "addr:street_address": "36 Westgate Road, Dartford", "addr:state": "Kent", "addr:postcode": "DA1 2AD", "addr:country": "GB", "name": "Dartford Bed Store", "phone": "01322 229222", "website": "https://dreams.co.uk/store/dartford", "opening_hours": "Mo-Fr 10:00-18:00; Sa 09:00-18:00; Su 10:00-16:00", "image": "https://img.dreams.co.uk/i/dreams/Dartford-MG_4606-RT", "brand": "Dreams", "brand:wikidata": "Q5306688", "nsi_id": "dreams-d088e6"}, "geometry": {"type": "Point", "coordinates": [0.216, 51.447]}},
{"type": "Feature", "id": "RkM1M05qQI7LYA4oqp2w9d3SkqI=", "properties": {"ref": "https://dreams.co.uk/store/cwmbran", "@spider": "dreams_gb", "shop": "bed", "addr:street_address": "Cwmbran Retail Park, Off Cwmbran Drive", "addr:city": "Cwmbran", "addr:state": "Gwent", "addr:postcode": "NP44 3JQ", "addr:country": "GB", "name": "Cwmbran Bed Store", "phone": "01633 480899", "website": "https://dreams.co.uk/store/cwmbran", "opening_hours": "Mo-Tu 10:00-20:00; We-Fr 10:00-19:00; Sa 09:00-18:00; Su 10:30-16:30", "image": "https://img.dreams.co.uk/i/dreams/Cwmbran-MG_2515-RT", "brand": "Dreams", "brand:wikidata": "Q5306688", "nsi_id": "dreams-d088e6"}, "geometry": {"type": "Point", "coordinates": [-3.028, 51.654]}},
{"type": "Feature", "id": "MK33Peaf8jyHpJklyiDILv-UNuE=", "properties": {"ref": "https://dreams.co.uk/store/croydon", "@spider": "dreams_gb", "shop": "bed", "addr:street_address": "4A &amp; 4B Valley Leisure Park,", "addr:state": "Croydon", "addr:postcode": "CR0 4YA", "addr:country": "GB", "name": "Croydon Bed Store", "phone": "020 8680 0317", "website": "https://dreams.co.uk/store/croydon", "opening_hours": "Mo-Fr 10:00-20:00; Sa 09:00-18:00; Su 11:00-17:00", "image": "https://img.dreams.co.uk/i/dreams/Croydon-MG_4450-RT", "brand": "Dreams", "brand:wikidata": "Q5306688", "nsi_id": "dreams-d088e6"}, "geometry": {"type": "Point", "coordinates": [-0.124, 51.378]}},
{"type": "Feature", "id": "eOrU2DqVocyKWkEbYhu6I7a8eZs=", "properties": {"ref": "https://dreams.co.uk/store/crawley", "@spider": "dreams_gb", "shop": "bed", "addr:street_address": "Gatwick Road, Crawley", "addr:state": "Sussex", "addr:postcode": "RH10 9PQ", "addr:country": "GB", "name": "Crawley Bed Store", "phone": "01293 613025", "website": "https://dreams.co.uk/store/crawley", "opening_hours": "Mo-Fr 10:00-18:00; Sa 09:00-18:00; Su 10:00-16:00", "image": "https://img.dreams.co.uk/i/dreams/Crawley-MG_0849-RT", "brand": "Dreams", "brand:wikidata": "Q5306688", "nsi_id": "dreams-d088e6"}, "geometry": {"type": "Point", "coordinates": [-0.171, 51.129]}},
{"type": "Feature", "id": "qrFqsspVsmKJwjFOcf8lljmMJa0=", "properties": {"ref": "https://dreams.co.uk/store/coventry-gallagher-retail-park", "@spider": "dreams_gb", "shop": "bed", "addr:street_address": "The Gallagher Retail Park, Stoney Stanton Road", "addr:state": "Coventry", "addr:postcode": "CV6 5QG", "addr:country": "GB", "name": "Coventry - Gallagher Retail Park Bed Store", "phone": "024 7666 6604", "website": "https://dreams.co.uk/store/coventry-gallagher-retail-park", "opening_hours": "Mo-Fr 10:00-20:00; Sa 09:00-18:00; Su 11:00-17:00", "image": "https://img.dreams.co.uk/i/dreams/Coventry 2", "brand": "Dreams", "brand:wikidata": "Q5306688", "nsi_id": "dreams-d088e6"}, "geometry": {"type": "Point", "coordinates": [-1.49, 52.43]}},
{"type": "Feature", "id": "x8w8HsSU_dbe5R77s-a3bMlbOp8=", "properties": {"ref": "https://dreams.co.uk/store/colindale", "@spider": "dreams_gb", "shop": "bed", "addr:street_address": "Edgware Road, Edgware Road", "addr:city": "Colindale", "addr:state": "London", "addr:postcode": "NW9 6TH", "addr:country": "GB", "name": "Colindale Bed Store", "phone": "020 8205 9998", "website": "https://dreams.co.uk/store/colindale", "opening_hours": "Mo-Fr 10:00-19:00; Sa 09:00-18:00; Su 11:00-17:00", "image": "https://img.dreams.co.uk/i/dreams/Colindale-MG_1064-RT", "brand": "Dreams", "brand:wikidata": "Q5306688", "nsi_id": "dreams-d088e6"}, "geometry": {"type": "Point", "coordinates": [-0.258, 51.591]}},
{"type": "Feature", "id": "uu_fbLYKpd2mYuW-vk0Fw7iJT9U=", "properties": {"ref": "https://dreams.co.uk/store/colchester", "@spider": "dreams_gb", "shop": "bed", "addr:street_address": "The Tollgate Centre, Colchester", "addr:state": "Essex", "addr:postcode": "CO3 8RG", "addr:country": "GB", "name": "Colchester Bed Store", "phone": "01206 575352", "website": "https://dreams.co.uk/store/colchester", "opening_hours": "Mo-Fr 10:00-20:00; Sa 09:00-18:00; Su 11:00-17:00", "image": "https://img.dreams.co.uk/i/dreams/Colchester-69A2237-RT", "brand": "Dreams", "brand:wikidata": "Q5306688", "nsi_id": "dreams-d088e6"}, "geometry": {"type": "Point", "coordinates": [0.832, 51.883]}},
{"type": "Feature", "id": "prgNNBirfU-S-0qC7aWJxjR60QM=", "properties": {"ref": "https://dreams.co.uk/store/clydebank", "@spider": "dreams_gb", "shop": "bed", "addr:street_address": "Clyde Retail Park, Livingstone Street", "addr:city": "Clydebank", "addr:state": "Dunbartonshire", "addr:postcode": "G81 2XA", "addr:country": "GB", "name": "Clydebank Bed Store", "phone": "01419 528709", "website": "https://dreams.co.uk/store/clydebank", "opening_hours": "Mo 10:00-18:00; Tu 10:00-20:00; We-Fr 10:00-18:00; Sa 09:00-18:00; Su 10:30-17:00", "image": "https://img.dreams.co.uk/i/dreams/B213_Clydebank-7598-crop", "brand": "Dreams", "brand:wikidata": "Q5306688", "nsi_id": "dreams-d088e6"}, "geometry": {"type": "Point", "coordinates": [-4.397, 55.904]}},
{"type": "Feature", "id": "BFoQ_gxNy-dS8Rl3pngkQWYZJc4=", "properties": {"ref": "https://dreams.co.uk/store/clapham", "@spider": "dreams_gb", "shop": "bed", "addr:street_address": "376 Clapham Road, Lambeth", "addr:state": "London", "addr:postcode": "SW9 9AR", "addr:country": "GB", "name": "Clapham Bed Store", "phone": "020 7627 0670", "website": "https://dreams.co.uk/store/clapham", "opening_hours": "Mo-Fr 10:00-19:00; Sa 09:00-18:00; Su 11:00-17:00", "image": "https://img.dreams.co.uk/i/dreams/Clapham-0M7A7187-RT", "brand": "Dreams", "brand:wikidata": "Q5306688", "nsi_id": "dreams-d088e6"}, "geometry": {"type": "Point", "coordinates": [-0.128, 51.468]}},
{"type": "Feature", "id": "gSUQWZdKnnoiFXQfGXpFJD1YJBg=", "properties": {"ref": "https://dreams.co.uk/store/chippenham", "@spider": "dreams_gb", "shop": "bed", "addr:street_address": "Hathaway Retail Park, Chippenham", "addr:state": "Wiltshire", "addr:postcode": "SN15 1JG", "addr:country": "GB", "name": "Chippenham Bed Store", "phone": "01249 655987", "website": "https://dreams.co.uk/store/chippenham", "opening_hours": "Mo-Fr 10:00-18:00; Sa 09:00-18:00; Su 10:00-16:00", "image": "https://img.dreams.co.uk/i/dreams/Chippenham-MG_1936-RTcrop", "brand": "Dreams", "brand:wikidata": "Q5306688", "nsi_id": "dreams-d088e6"}, "geometry": {"type": "Point", "coordinates": [-2.116, 51.463]}},
{"type": "Feature", "id": "XsQt6-IddZLJ3BGb0EYnNVGvWiA=", "properties": {"ref": "https://dreams.co.uk/store/taunton", "@spider": "dreams_gb", "shop": "bed", "addr:street_address": "Unit 3, Riverside Retail Park", "addr:city": "Hankridge Way", "addr:state": "Taunton", "addr:postcode": "TA1 2LR", "addr:country": "GB", "name": "Taunton Bed Store", "phone": "01823 211792", "website": "https://dreams.co.uk/store/taunton", "opening_hours": "Mo-Fr 10:00-18:00; Sa 09:00-18:00; Su 10:30-16:30", "image": "https://img.dreams.co.uk/i/dreams/Taunton_001", "brand": "Dreams", "brand:wikidata": "Q5306688", "nsi_id": "dreams-d088e6"}, "geometry": {"type": "Point", "coordinates": [-3.063, 51.0196]}},
{"type": "Feature", "id": "QIVI_E1FVNQ7qS2k0J10P7OMbis=", "properties": {"ref": "https://dreams.co.uk/store/wednesbury-gallagher-shopping-park", "@spider": "dreams_gb", "shop": "bed", "addr:street_address": "Unit B2, Gallagher Shopping Park", "addr:state": "Wednesbury", "addr:postcode": "WS10 9QY", "addr:country": "GB", "name": "Wednesbury Gallagher Shopping Park Bed Store", "phone": "01212273036", "website": "https://dreams.co.uk/store/wednesbury-gallagher-shopping-park", "opening_hours": "Mo-Fr 10:00-20:00; Sa 09:00-18:00; Su 10:30-17:00", "image": "https://img.dreams.co.uk/i/dreams/wednesbury-gallagher-01?$storeLocatorCropping$&pecrop=600,0,0,0&sm=c?", "brand": "Dreams", "brand:wikidata": "Q5306688", "nsi_id": "dreams-d088e6"}, "geometry": {"type": "Point", "coordinates": [-2.007, 52.565]}},
{"type": "Feature", "id": "nD3NcayBTfZfuodzX-Q3dQ8x3_E=", "properties": {"ref": "https://dreams.co.uk/store/canterbury-wincheap", "@spider": "dreams_gb", "shop": "bed", "addr:street_address": "Unit 2, The former pumping station", "addr:city": "Wincheap", "addr:state": "Canterbury", "addr:postcode": "CT1 3TT", "addr:country": "GB", "name": "Canterbury Bed Store", "phone": "01227 379459", "website": "https://dreams.co.uk/store/canterbury-wincheap", "opening_hours": "Mo-Tu 10:00-20:00; We-Fr 10:00-18:00; Sa 09:00-18:00; Su 10:00-16:00", "image": "https://img.dreams.co.uk/i/dreams/canterbury_01", "brand": "Dreams", "brand:wikidata": "Q5306688", "nsi_id": "dreams-d088e6"}, "geometry": {"type": "Point", "coordinates": [1.064, 51.269]}},
{"type": "Feature", "id": "7rZDhjfoQ9ZvfkSSuCVJrLU0nj4=", "properties": {"ref": "https://dreams.co.uk/store/knaresborough", "@spider": "dreams_gb", "shop": "bed", "addr:street_address": "Unit 1, St James Retail Park", "addr:city": "Grimbald Crag Way", "addr:state": "Knaresborough", "addr:postcode": "HG5 8PZ", "addr:country": "GB", "name": "Knaresborough Bed Store", "phone": "01423 222058", "website": "https://dreams.co.uk/store/knaresborough", "opening_hours": "Mo-Tu 10:00-20:00; We 10:00-18:00; Th 10:00-20:00; Fr 10:00-18:00; Sa 09:00-18:00; Su 10:30-16:30", "image": "https://img.dreams.co.uk/i/dreams/B370_Ayr-7318?$storeLocatorCropping$&pecrop=600,0,0,0&sm=c", "brand": "Dreams", "brand:wikidata": "Q5306688", "nsi_id": "dreams-d088e6"}, "geometry": {"type": "Point", "coordinates": [-1.444, 54.0]}},
{"type": "Feature", "id": "Ke56PWOx5GTaEjfOWtA7-NHospQ=", "properties": {"ref": "https://dreams.co.uk/store/dumfries-new", "@spider": "dreams_gb", "shop": "bed", "addr:street_address": "Unit 2, The Peel Centre", "addr:city": "Lockerbie Road", "addr:state": "Dumfries", "addr:postcode": "DG1 3PF", "addr:country": "GB", "name": "Dumfries Bed Store", "phone": "01387 247786", "website": "https://dreams.co.uk/store/dumfries-new", "opening_hours": "Mo-Tu 10:00-20:00; We 10:00-18:00; Th 10:00-20:00; Fr 10:00-18:00; Sa 09:00-18:00; Su 11:00-17:00", "image": "https://img.dreams.co.uk/i/dreams/B408-Dumfries-01", "brand": "Dreams", "brand:wikidata": "Q5306688", "nsi_id": "dreams-d088e6"}, "geometry": {"type": "Point", "coordinates": [-3.584, 55.074]}},
{"type": "Feature", "id": "4EGAh_BAY9cM4O8kJL18xKyHoj4=", "properties": {"ref": "https://dreams.co.uk/store/portsmouth-ocean-view-retail-park", "@spider": "dreams_gb", "shop": "bed", "addr:street_address": "Unit 2c Ocean View Retail Park, Burrfields Road", "addr:state": "Portsmouth", "addr:postcode": "PO3 5NP", "addr:country": "GB", "name": "Portsmouth Bed Store", "phone": "02392 753240", "website": "https://dreams.co.uk/store/portsmouth-ocean-view-retail-park", "opening_hours": "Mo-Fr 10:00-18:00; Sa 09:00-18:00; Su 10:00-16:00", "image": "https://img.dreams.co.uk/i/dreams/portsmouth-relocation-5?$storeLocatorCropping$", "brand": "Dreams", "brand:wikidata": "Q5306688", "nsi_id": "dreams-d088e6"}, "geometry": {"type": "Point", "coordinates": [-1.055, 50.818]}},
{"type": "Feature", "id": "6_-qXTv_vUD3_HIMcIm4KtpLjlU=", "properties": {"ref": "https://dreams.co.uk/store/durham", "@spider": "dreams_gb", "shop": "bed", "addr:street_address": "Unit 10 Durham City Retail Park, McIntyre Way", "addr:state": "Durham", "addr:postcode": "DH1 2RP", "addr:country": "GB", "name": "Durham Bed Store", "phone": "01919337383", "website": "https://dreams.co.uk/store/durham", "opening_hours": "Mo-Tu 10:00-20:00; We-Fr 10:00-18:00; Sa 09:00-18:00; Su 11:00-17:00", "image": "https://img.dreams.co.uk/i/dreams/Durham-store (10)", "brand": "Dreams", "brand:wikidata": "Q5306688", "nsi_id": "dreams-d088e6"}, "geometry": {"type": "Point", "coordinates": [-1.537, 54.781]}},
{"type": "Feature", "id": "TsY5MgI2i8A4hi9hGhFKN4YEA68=", "properties": {"ref": "https://dreams.co.uk/store/liverpool-edge-lane", "@spider": "dreams_gb", "shop": "bed", "addr:street_address": "Unit 210, Liverpool Shopping Park, Edge Lane", "addr:state": "Liverpool", "addr:postcode": "L13 4DL", "addr:country": "GB", "name": "Liverpool - Edge Lane Bed Store", "phone": "01513055753", "website": "https://dreams.co.uk/store/liverpool-edge-lane", "opening_hours": "Mo-Th 10:00-20:00; Fr 10:00-18:00; Sa 09:00-18:00; Su 11:00-17:00", "image": "https://img.dreams.co.uk/i/dreams/Liverpool-edge-lane (9)", "brand": "Dreams", "brand:wikidata": "Q5306688", "nsi_id": "dreams-d088e6"}, "geometry": {"type": "Point", "coordinates": [-2.917, 53.409]}},
{"type": "Feature", "id": "E6L2F3viIdKMcvIBxtWuoW6-e1Q=", "properties": {"ref": "https://dreams.co.uk/store/kittybrewster", "@spider": "dreams_gb", "shop": "bed", "addr:street_address": "Unit 6a, Kittybrewster Retail Park, Bedford Road", "addr:city": "Kittybrewster", "addr:state": "Aberdeen", "addr:postcode": "AB24 3LJ", "addr:country": "GB", "name": "Kittybrewster Bed Store", "phone": "01224 013882", "website": "https://dreams.co.uk/store/kittybrewster", "opening_hours": "Mo-Tu 10:00-20:00; We 10:00-18:00; Th 10:00-20:00; Fr 10:00-18:00; Sa 09:00-18:00; Su 10:30-17:00", "image": "https://img.dreams.co.uk/i/dreams/AberdennKB Store Front UPDATED - Copy", "brand": "Dreams", "brand:wikidata": "Q5306688", "nsi_id": "dreams-d088e6"}, "geometry": {"type": "Point", "coordinates": [-2.111, 57.162]}},
{"type": "Feature", "id": "I25hywkpCcLEg2bv-UnMB_nXIks=", "properties": {"ref": "https://dreams.co.uk/store/speke-new", "@spider": "dreams_gb", "shop": "bed", "addr:street_address": "Unit 11a, New Mersey Retail Park, Speke Road", "addr:state": "Speke, Liverpool", "addr:postcode": "L24 8QB", "addr:country": "GB", "name": "Liverpool - Speke Bed Store", "phone": "01514 861755", "website": "https://dreams.co.uk/store/speke-new", "opening_hours": "Mo-Fr 10:00-20:00; Sa 09:00-18:00; Su 11:00-17:00", "image": "https://img.dreams.co.uk/i/dreams/IMG-20201211-WA0038", "brand": "Dreams", "brand:wikidata": "Q5306688", "nsi_id": "dreams-d088e6"}, "geometry": {"type": "Point", "coordinates": [-2.879, 53.352]}},
{"type": "Feature", "id": "338BowFBIMwmi-8ONKJTNDSy1QU=", "properties": {"ref": "https://dreams.co.uk/store/kirkcaldy", "@spider": "dreams_gb", "shop": "bed", "addr:street_address": "Unit 8a, Fife Retail Park,", "addr:state": "Kirkcaldy", "addr:postcode": "KY2 6QL", "addr:country": "GB", "name": "Kirkcaldy Bed Store", "phone": "01592 809485", "website": "https://dreams.co.uk/store/kirkcaldy", "opening_hours": "Mo-Tu 10:00-20:00; We 10:00-18:00; Th 10:00-20:00; Fr 10:00-18:00; Sa 09:00-18:00; Su 10:30-17:00", "image": "https://img.dreams.co.uk/i/dreams/Kirkcaldy 15", "brand": "Dreams", "brand:wikidata": "Q5306688", "nsi_id": "dreams-d088e6"}, "geometry": {"type": "Point", "coordinates": [-3.2, 56.135]}},
{"type": "Feature", "id": "GL-pATNAiQx3dbSFm2MLoPNYaqw=", "properties": {"ref": "https://dreams.co.uk/store/lancaster", "@spider": "dreams_gb", "shop": "bed", "addr:street_address": "Unit 3, Kingsway Retail Park,", "addr:city": "Caton Road", "addr:state": "Lancaster", "addr:postcode": "LA1 1BS", "addr:country": "GB", "name": "Lancaster Bed Store", "phone": "01524 237335", "website": "https://dreams.co.uk/store/lancaster", "opening_hours": "Mo-Fr 10:00-18:00; Sa 09:00-18:00; Su 11:00-17:00", "image": "https://img.dreams.co.uk/i/dreams/Lancaster-NEW (3)", "brand": "Dreams", "brand:wikidata": "Q5306688", "nsi_id": "dreams-d088e6"}, "geometry": {"type": "Point", "coordinates": [-2.794, 54.054]}},
{"type": "Feature", "id": "pq4tao24jnRy1x9r5WRvnjNaDgM=", "properties": {"ref": "https://dreams.co.uk/store/hedge-end", "@spider": "dreams_gb", "shop": "bed", "addr:street_address": "Unit 1B Bradbeers Retail Park, Tollbar Way, Hedge End", "addr:state": "Southampton", "addr:postcode": "SO30 2QY", "addr:country": "GB", "name": "Hedge End Bed Store", "phone": "02382 543449", "website": "https://dreams.co.uk/store/hedge-end", "opening_hours": "Mo-Fr 10:00-20:00; Sa 09:00-18:00; Su 11:00-17:00", "image": "https://img.dreams.co.uk/i/dreams/Hedge-End_001", "brand": "Dreams", "brand:wikidata": "Q5306688", "nsi_id": "dreams-d088e6"}, "geometry": {"type": "Point", "coordinates": [-1.313, 50.926]}},
{"type": "Feature", "id": "FILgGUMJqqUL5aeeKagrMpgstWk=", "properties": {"ref": "https://dreams.co.uk/store/nottingham-castle-marina", "@spider": "dreams_gb", "shop": "bed", "addr:street_address": "Unit 10, Castle Marina Retail Park,", "addr:city": "Castle Bridge Road", "addr:state": "Nottingham", "addr:postcode": "NG7 1GX", "addr:country": "GB", "name": "Nottingham Castle Marina Bed Store", "phone": "0115 8961985", "website": "https://dreams.co.uk/store/nottingham-castle-marina", "opening_hours": "Mo-Fr 10:00-20:00; Sa 09:00-18:00; Su 11:00-17:00", "image": "https://img.dreams.co.uk/i/dreams/Nottingham_5G1A1726", "brand": "Dreams", "brand:wikidata": "Q5306688", "nsi_id": "dreams-d088e6"}, "geometry": {"type": "Point", "coordinates": [-1.16, 52.945]}},
{"type": "Feature", "id": "wvkbgDW8s2yW6roo5Yf3I8fV06k=", "properties": {"ref": "https://dreams.co.uk/store/rotherham", "@spider": "dreams_gb", "shop": "bed", "addr:street_address": "Unit 4B, Great Eastern retail park, Beale Way,", "addr:state": "Rotherham", "addr:postcode": "S62 6EJ", "addr:country": "GB", "name": "Rotherham Bed Store", "phone": "01709803715", "website": "https://dreams.co.uk/store/rotherham", "opening_hours": "Mo-Fr 10:00-19:00; Sa 09:00-18:00; Su 10:00-16:00", "image": "https://img.dreams.co.uk/i/dreams/Rotherham_5G1A1763", "brand": "Dreams", "brand:wikidata": "Q5306688", "nsi_id": "dreams-d088e6"}, "geometry": {"type": "Point", "coordinates": [-1.341, 53.449]}},
{"type": "Feature", "id": "3UTdNfdWvbHZ7wN6JScYrGWlRBg=", "properties": {"ref": "https://dreams.co.uk/store/stirling", "@spider": "dreams_gb", "shop": "bed", "addr:street_address": "Unit 3C, 19 Kerse Road,", "addr:state": "Stirling", "addr:postcode": "FK7 7SY", "addr:country": "GB", "name": "Stirling", "phone": "01786 641982", "website": "https://dreams.co.uk/store/stirling", "opening_hours": "Mo-Fr 10:00-18:00; Sa 09:00-18:00; Su 11:00-17:00", "image": "https://img.dreams.co.uk/i/dreams/Stirling1", "brand": "Dreams", "brand:wikidata": "Q5306688", "nsi_id": "dreams-d088e6"}, "geometry": {"type": "Point", "coordinates": [-3.916, 56.113]}},
{"type": "Feature", "id": "C6EnieKwxUvI7LmbsZ0gqg2KVAs=", "properties": {"ref": "https://dreams.co.uk/store/huddersfield", "@spider": "dreams_gb", "shop": "bed", "addr:street_address": "Unit F, Leeds Road Retail Park,", "addr:state": "Huddersfield", "addr:postcode": "HD1 6PF", "addr:country": "GB", "name": "Huddersfield Bed Store", "phone": "01484 799219", "website": "https://dreams.co.uk/store/huddersfield", "opening_hours": "Mo-Tu 10:00-20:00; We-Fr 10:00-18:00; Sa 09:00-18:00; Su 10:00-16:00", "image": "https://img.dreams.co.uk/i/dreams/Huddersfield1", "brand": "Dreams", "brand:wikidata": "Q5306688", "nsi_id": "dreams-d088e6"}, "geometry": {"type": "Point", "coordinates": [-1.768, 53.658]}},
{"type": "Feature", "id": "QJAXJ29ftRaZ177KcumvfgKMFtI=", "properties": {"ref": "https://dreams.co.uk/store/crewe", "@spider": "dreams_gb", "shop": "bed", "addr:street_address": "Unit 17, Grand Junction Retail Park,", "addr:state": "Crewe", "addr:postcode": "CW1 2RP", "addr:country": "GB", "name": "Crewe Bed Store", "phone": "01270 446406", "website": "https://dreams.co.uk/store/crewe", "opening_hours": "Mo-Tu 10:00-19:00; We-Fr 10:00-18:00; Sa 09:00-18:00; Su 10:30-17:00", "image": "https://img.dreams.co.uk/i/dreams/Crewe1", "brand": "Dreams", "brand:wikidata": "Q5306688", "nsi_id": "dreams-d088e6"}, "geometry": {"type": "Point", "coordinates": [-2.436, 53.096]}},
{"type": "Feature", "id": "a7Qu227Afsxh_LRUM7Z2SvvU4gI=", "properties": {"ref": "https://dreams.co.uk/store/huntingdon", "@spider": "dreams_gb", "shop": "bed", "addr:street_address": "Unit 20, St Margarets Way,", "addr:state": "Huntingdon", "addr:postcode": "PE29 6EB", "addr:country": "GB", "name": "Huntingdon Bed Store", "phone": "01480 597239", "website": "https://dreams.co.uk/store/huntingdon", "opening_hours": "Mo-Fr 10:00-18:00; Sa 09:00-18:00; Su 10:30-16:30", "image": "https://img.dreams.co.uk/i/dreams/Huntingdon1", "brand": "Dreams", "brand:wikidata": "Q5306688", "nsi_id": "dreams-d088e6"}, "geometry": {"type": "Point", "coordinates": [-0.192, 52.34]}},
{"type": "Feature", "id": "HtFweJ7e_BoysnXdeAvXj-b_SHE=", "properties": {"ref": "https://dreams.co.uk/store/stevenage-roaring-meg", "@spider": "dreams_gb", "shop": "bed", "addr:street_address": "Unit 2B, Roaring Meg Retail Park, Great North Road", "addr:state": "Stevenage", "addr:postcode": "SG1 1XN", "addr:country": "GB", "name": "Stevenage Roaring Meg Bed Store", "phone": "01438 909645", "website": "https://dreams.co.uk/store/stevenage-roaring-meg", "opening_hours": "Mo-Tu 10:00-20:00; We 10:00-18:00; Th 10:00-20:00; Fr 10:00-18:00; Sa 09:00-18:00; Su 10:00-16:00", "image": "https://img.dreams.co.uk/i/dreams/Stevenage1", "brand": "Dreams", "brand:wikidata": "Q5306688", "nsi_id": "dreams-d088e6"}, "geometry": {"type": "Point", "coordinates": [-0.2, 51.893]}},
{"type": "Feature", "id": "QoAf_LdEe1aHY2xwPv1-v2KO3z0=", "properties": {"ref": "https://dreams.co.uk/store/worcester", "@spider": "dreams_gb", "shop": "bed", "addr:street_address": "Unit C, Lowesmoor Place,", "addr:state": "Worcester", "addr:postcode": "WR1 2DZ", "addr:country": "GB", "name": "Worcester Bed Store", "phone": "01905 947268", "website": "https://dreams.co.uk/store/worcester", "opening_hours": "Mo-Fr 10:00-18:00; Sa 09:00-18:00; Su 10:00-16:00", "image": "https://i1.adis.ws/i/dreams/Chesterfield-7?$webPformat$&amp;$storeLocatorCropping$", "brand": "Dreams", "brand:wikidata": "Q5306688", "nsi_id": "dreams-d088e6"}, "geometry": {"type": "Point", "coordinates": [-2.21577, 52.19476]}},
{"type": "Feature", "id": "HRSVwh4RdR0h4YLpF7JTiQS-ibc=", "properties": {"ref": "https://dreams.co.uk/store/coleraine", "@spider": "dreams_gb", "shop": "bed", "addr:street_address": "Riverside Regional Centre,", "addr:state": "Coleraine", "addr:postcode": "BT51 3QQ", "addr:country": "GB", "name": "Coleraine Bed Store", "phone": "028 7051 1522", "website": "https://dreams.co.uk/store/coleraine", "opening_hours": "Mo 10:00-20:00; Tu-We 10:00-18:00; Th 10:00-20:00; Fr 10:00-18:00; Sa 09:00-18:00; Su 13:00-18:00", "image": "https://img.dreams.co.uk/i/dreams/Dreams Internal", "brand": "Dreams", "brand:wikidata": "Q5306688", "nsi_id": "dreams-d088e6"}, "geometry": {"type": "Point", "coordinates": [-6.675, 55.119]}},
{"type": "Feature", "id": "5sWYOQuaHcm40tBzajQvSsBmx8M=", "properties": {"ref": "https://dreams.co.uk/store/cheltenham", "@spider": "dreams_gb", "shop": "bed", "addr:street_address": "Unit K1b, Gallagher Retail Park", "addr:city": "Tewkesbury road", "addr:state": "Cheltenham", "addr:postcode": "GL51 9RR", "addr:country": "GB", "name": "Cheltenham Bed Store", "phone": "01242 506204", "website": "https://dreams.co.uk/store/cheltenham", "opening_hours": "Mo-Tu 10:00-20:00; We-Fr 10:00-18:00; Sa 09:00-18:00; Su 10:00-16:00", "image": "https://i1.adis.ws/i/dreams/Chesterfield-7?$webPformat$&amp;$storeLocatorCropping$", "brand": "Dreams", "brand:wikidata": "Q5306688", "nsi_id": "dreams-d088e6"}, "geometry": {"type": "Point", "coordinates": [-2.10472, 51.91792]}},
{"type": "Feature", "id": "9G5FBrhsKA8yffJOIw9OrMGQKcY=", "properties": {"ref": "https://dreams.co.uk/store/ayr", "@spider": "dreams_gb", "shop": "bed", "addr:street_address": "Unit 12, Heathfield Retail Park", "addr:city": "Liberator drive", "addr:state": "South Ayrshire", "addr:postcode": "KA8 9BF", "addr:country": "GB", "name": "Ayr Bed Store", "phone": "01292 439058", "website": "https://dreams.co.uk/store/ayr", "opening_hours": "Mo 10:00-18:00; Tu 10:00-20:00; We 10:00-18:00; Th 10:00-20:00; Fr 10:00-18:00; Sa 09:00-18:00; Su 10:30-17:00", "image": "https://img.dreams.co.uk/i/dreams/B370_Ayr-7291", "brand": "Dreams", "brand:wikidata": "Q5306688", "nsi_id": "dreams-d088e6"}, "geometry": {"type": "Point", "coordinates": [-4.594, 55.481]}},
{"type": "Feature", "id": "4M04wxOWnI7ZJKP9g6wLHIZQ8cw=", "properties": {"ref": "https://dreams.co.uk/store/falkirk", "@spider": "dreams_gb", "shop": "bed", "addr:street_address": "76 Grahams Road,", "addr:state": "Falkirk", "addr:postcode": "FK1 1HN", "addr:country": "GB", "name": "Falkirk Bed Store", "phone": "01324 468392", "website": "https://dreams.co.uk/store/falkirk", "opening_hours": "Mo-Tu 10:00-20:00; We-Fr 10:00-18:00; Sa 09:00-18:00; Su 11:00-17:00", "image": "https://img.dreams.co.uk/i/dreams/B369_Falkirk-7391", "brand": "Dreams", "brand:wikidata": "Q5306688", "nsi_id": "dreams-d088e6"}, "geometry": {"type": "Point", "coordinates": [-3.785, 56.005]}},
{"type": "Feature", "id": "gy4bpvj4iE9bvAPmM1s5FMwQRbE=", "properties": {"ref": "https://dreams.co.uk/store/oldham", "@spider": "dreams_gb", "shop": "bed", "addr:street_address": "Unit 17A, Elk Mill", "addr:state": "Oldham", "addr:postcode": "OL2 5HX", "addr:country": "GB", "name": "Oldham Bed Store", "phone": "02039265737", "website": "https://dreams.co.uk/store/oldham", "opening_hours": "Mo-Fr 10:00-19:00; Sa 09:00-18:00; Su 11:00-17:00", "image": "https://img.dreams.co.uk/i/dreams/B370_Ayr-7318?$storeLocatorCropping$&pecrop=600,0,0,0&sm=c", "brand": "Dreams", "brand:wikidata": "Q5306688", "nsi_id": "dreams-d088e6"}, "geometry": {"type": "Point", "coordinates": [-2.139, 53.557]}},
{"type": "Feature", "id": "DwMrKTE68JXRazsXRFXlhgXe9F8=", "properties": {"ref": "https://dreams.co.uk/store/chesterfield", "@spider": "dreams_gb", "shop": "bed", "addr:street_address": "Unit 1A, Ravenside Retail Park", "addr:city": "Markham Road", "addr:state": "Chesterfield", "addr:postcode": "S40 1TB", "addr:country": "GB", "name": "Chesterfield Bed Store", "phone": "01246925883", "website": "https://dreams.co.uk/store/chesterfield", "opening_hours": "Mo-Tu 10:00-20:00; We-Fr 10:00-18:00; Sa 09:00-18:00; Su 11:00-17:00", "image": "https://img.dreams.co.uk/i/dreams/B371_Chesterfield_Store-5150", "brand": "Dreams", "brand:wikidata": "Q5306688", "nsi_id": "dreams-d088e6"}, "geometry": {"type": "Point", "coordinates": [-1.431, 53.233]}},
{"type": "Feature", "id": "LUjEr8kQVMEwnE67nWlQJ1kRqX4=", "properties": {"ref": "https://dreams.co.uk/store/carmarthen", "@spider": "dreams_gb", "shop": "bed", "addr:street_address": "Unit 4, Pensarn Retail Park", "addr:city": "Stephens Way", "addr:state": "Carmarthen,", "addr:postcode": "SA31 2BG", "addr:country": "GB", "name": "Carmarthen Bed Store", "phone": "01267 611606", "website": "https://dreams.co.uk/store/carmarthen", "opening_hours": "Mo-Fr 10:00-18:00; Sa 09:00-18:00; Su 10:30-16:30", "image": "https://img.dreams.co.uk/i/dreams/B357_Carmarthern_Store-3861", "brand": "Dreams", "brand:wikidata": "Q5306688", "nsi_id": "dreams-d088e6"}, "geometry": {"type": "Point", "coordinates": [-4.308, 51.85]}},
{"type": "Feature", "id": "uDlylxxTr3nFQIlc_9dgCMzZ2sw=", "properties": {"ref": "https://dreams.co.uk/store/kidderminster", "@spider": "dreams_gb", "shop": "bed", "addr:street_address": "Unit G2, Crossley Retail Park", "addr:city": "Carpet Trades Way", "addr:state": "Kidderminster", "addr:postcode": "DY11 6DY", "addr:country": "GB", "name": "Kidderminster Bed Store", "phone": "01562 742765", "website": "https://dreams.co.uk/store/kidderminster", "opening_hours": "Mo-Tu 10:00-20:00; We-Fr 10:00-18:00; Sa 09:00-18:00; Su 11:00-17:00", "image": "https://i1.adis.ws/i/dreams/B367_Kidderminster_Store-3937", "brand": "Dreams", "brand:wikidata": "Q5306688", "nsi_id": "dreams-d088e6"}, "geometry": {"type": "Point", "coordinates": [-2.256, 52.391]}},
{"type": "Feature", "id": "WkFng3AuX4JgseRZ5IjiB1fUE_E=", "properties": {"ref": "https://dreams.co.uk/store/leicester-st-george", "@spider": "dreams_gb", "shop": "bed", "addr:street_address": "Unit 7B, St Georges Retail Park", "addr:city": "St Georges Way", "addr:state": "Leicester", "addr:postcode": "LE1 1SG", "addr:country": "GB", "name": "Leicester Bed Store", "phone": "0116 251 8923", "website": "https://dreams.co.uk/store/leicester-st-george", "opening_hours": "Mo-Fr 10:00-20:00; Sa 09:00-18:00; Su 11:00-17:00", "image": "https://img.dreams.co.uk/i/dreams/Leicester_5G1A9158", "brand": "Dreams", "brand:wikidata": "Q5306688", "nsi_id": "dreams-d088e6"}, "geometry": {"type": "Point", "coordinates": [-1.12, 52.636]}},
{"type": "Feature", "id": "OfU6cUo-eo0GdI_SVd9t-ao1bLM=", "properties": {"ref": "https://dreams.co.uk/store/grimsby", "@spider": "dreams_gb", "shop": "bed", "addr:street_address": "Unit 3A, Victoria Street North", "addr:city": "High Point Retail Park", "addr:state": "Grimsby", "addr:postcode": "DN31 1TY", "addr:country": "GB", "name": "Grimsby Bed Store", "phone": "01472245538", "website": "https://dreams.co.uk/store/grimsby", "opening_hours": "Mo-Tu 10:00-19:00; We-Fr 10:00-18:00; Sa 09:00-18:00; Su 10:30-16:30", "image": "https://img.dreams.co.uk/i/dreams/B370_Ayr-7318?$storeLocatorCropping$&pecrop=600,0,0,0&sm=c", "brand": "Dreams", "brand:wikidata": "Q5306688", "nsi_id": "dreams-d088e6"}, "geometry": {"type": "Point", "coordinates": [-0.081, 53.573]}},
{"type": "Feature", "id": "IQR5fNDukJExiLVxOo9haw1UZow=", "properties": {"ref": "https://dreams.co.uk/store/wakefield", "@spider": "dreams_gb", "shop": "bed", "addr:street_address": "Unit 4A, Westgate Retail Park", "addr:city": "Ings Road", "addr:state": "Wakefield", "addr:postcode": "WF2 9SD", "addr:country": "GB", "name": "Wakefield Bed Store", "phone": "01924298500", "website": "https://dreams.co.uk/store/wakefield", "opening_hours": "Mo-Tu 10:00-20:00; We-Fr 10:00-18:00; Sa 09:00-18:00; Su 10:00-16:00", "image": "https://img.dreams.co.uk/i/dreams/B370_Ayr-7318?$storeLocatorCropping$&pecrop=600,0,0,0&sm=c", "brand": "Dreams", "brand:wikidata": "Q5306688", "nsi_id": "dreams-d088e6"}, "geometry": {"type": "Point", "coordinates": [-1.507, 53.679]}},
{"type": "Feature", "id": "58wDfW2pUGZBlvWo__1oUC0zIPU=", "properties": {"ref": "https://dreams.co.uk/store/acton", "@spider": "dreams_gb", "shop": "bed", "addr:street_address": "8 Western Avenue, Acton", "addr:state": "London,", "addr:postcode": "W3 7UD", "addr:country": "GB", "name": "Acton Bed Store", "phone": "020 8762 9876", "website": "https://dreams.co.uk/store/acton", "opening_hours": "Mo-Fr 10:00-19:00; Sa 09:00-18:00; Su 11:00-17:00", "image": "https://img.dreams.co.uk/i/dreams/Acton-MG_0993-RT", "brand": "Dreams", "brand:wikidata": "Q5306688", "nsi_id": "dreams-d088e6"}, "geometry": {"type": "Point", "coordinates": [-0.25, 51.514]}},
{"type": "Feature", "id": "sg1QTWKLjHMmGFXCR8d6HFwa0-s=", "properties": {"ref": "https://dreams.co.uk/store/perth", "@spider": "dreams_gb", "shop": "bed", "addr:street_address": "Unit 2 St Catherine&#039;s Retail Park, Duneld Road", "addr:city": "Perth", "addr:postcode": "PH1 5XA", "addr:country": "GB", "name": "Perth Bed Store", "phone": "01738 447114", "website": "https://dreams.co.uk/store/perth", "opening_hours": "Mo-Tu 10:00-20:00; We-Fr 10:00-18:00; Sa 09:00-18:00; Su 10:30-17:00", "image": "https://i1.adis.ws/i/dreams/Perth_5G1A2132", "brand": "Dreams", "brand:wikidata": "Q5306688", "nsi_id": "dreams-d088e6"}, "geometry": {"type": "Point", "coordinates": [-3.44, 56.401]}},
{"type": "Feature", "id": "0ubXGBRB7eI-sCjkwsKVNUX7WO0=", "properties": {"ref": "https://dreams.co.uk/store/dungannon", "@spider": "dreams_gb", "shop": "bed", "addr:street_address": "Dreams Within Bedeck, Linen Green Main Rd", "addr:city": "Moygashel Dungannon", "addr:postcode": "BT71 7HB", "addr:country": "GB", "name": "Dungannon  Bed Store", "phone": "028 8751 0144", "website": "https://dreams.co.uk/store/dungannon", "opening_hours": "Mo-We 09:00-19:00; Th-Sa 09:00-18:00", "image": "https://img.dreams.co.uk/i/dreams/Dreams Internal", "brand": "Dreams", "brand:wikidata": "Q5306688", "nsi_id": "dreams-d088e6"}, "geometry": {"type": "Point", "coordinates": [-6.755, 54.486]}},
{"type": "Feature", "id": "UXjlS2IrMbRddrhwiw84iHEy-qI=", "properties": {"ref": "https://dreams.co.uk/store/ealing", "@spider": "dreams_gb", "shop": "bed", "addr:street_address": "96-122 Uxbridge Road, West Ealing", "addr:city": "London", "addr:postcode": "W13 8RB", "addr:country": "GB", "name": "West Ealing Bed Store", "phone": "02085 664419", "website": "https://dreams.co.uk/store/ealing", "opening_hours": "Mo-Fr 10:00-19:00; Sa 09:00-18:00; Su 11:00-17:00", "image": "https://img.dreams.co.uk/i/dreams/Dreams_Store_Ealing-6488", "brand": "Dreams", "brand:wikidata": "Q5306688", "nsi_id": "dreams-d088e6"}, "geometry": {"type": "Point", "coordinates": [-0.317, 51.511]}},
{"type": "Feature", "id": "gM6n_cisr2V-Nv2R4ohctixA74E=", "properties": {"ref": "https://dreams.co.uk/store/irvine", "@spider": "dreams_gb", "shop": "bed", "addr:street_address": "Unit 2B, Riverway Retail Park", "addr:city": "Riverway", "addr:state": "Irvine Ayrshire", "addr:postcode": "KA12 8AG", "addr:country": "GB", "name": "Irvine Bed Store", "phone": "01294 273548", "website": "https://dreams.co.uk/store/irvine", "opening_hours": "Mo 10:00-18:00; Tu 10:00-20:00; We-Fr 10:00-18:00; Sa 09:00-18:00; Su 10:30-17:00", "image": "https://img.dreams.co.uk/i/dreams/B370_Ayr-7318?$storeLocatorCropping$&pecrop=600,0,0,0&sm=c", "brand": "Dreams", "brand:wikidata": "Q5306688", "nsi_id": "dreams-d088e6"}, "geometry": {"type": "Point", "coordinates": [-4.673, 55.61]}},
{"type": "Feature", "id": "FZQ2sMIZYBdh9-7YTrQuFHREdfc=", "properties": {"ref": "https://dreams.co.uk/store/plympton-retail-park", "@spider": "dreams_gb", "shop": "bed", "addr:street_address": "Unit 2, Coypool Retail Park", "addr:city": "Coypool road", "addr:state": "Plympton Devon", "addr:postcode": "PL7 4SS", "addr:country": "GB", "name": "Plympton Retail Park Bed Store", "phone": "01752 345793", "website": "https://dreams.co.uk/store/plympton-retail-park", "opening_hours": "Mo-Fr 09:30-20:00; Sa 09:00-18:00; Su 10:30-16:30", "image": "https://img.dreams.co.uk/i/dreams/0M7A1636", "brand": "Dreams", "brand:wikidata": "Q5306688", "nsi_id": "dreams-d088e6"}, "geometry": {"type": "Point", "coordinates": [-4.08, 50.393]}},
{"type": "Feature", "id": "Iv4nRHVViboJIF3d5uba24oaFQM=", "properties": {"ref": "https://dreams.co.uk/store/wembley", "@spider": "dreams_gb", "shop": "bed", "addr:street_address": "336-342 High Road, Wembley", "addr:postcode": "HA9 6AZ", "addr:country": "GB", "name": "Wembley Bed Store", "phone": "02089039746", "website": "https://dreams.co.uk/store/wembley", "opening_hours": "Mo-Fr 10:00-19:00; Sa 09:00-18:00; Su 11:00-17:00", "image": "https://img.dreams.co.uk/i/dreams/Wembley_0M7A1621", "brand": "Dreams", "brand:wikidata": "Q5306688", "nsi_id": "dreams-d088e6"}, "geometry": {"type": "Point", "coordinates": [-0.289, 51.554]}},
{"type": "Feature", "id": "iG_Rx_xy5cgSNP0zGKjUYJTOYqM=", "properties": {"ref": "https://dreams.co.uk/store/lowestoft", "@spider": "dreams_gb", "shop": "bed", "addr:street_address": "Unit 4, Peto Way", "addr:city": "North Quay Retail Park", "addr:state": "Lowestoft", "addr:postcode": "NR32 2ED", "addr:country": "GB", "name": "Lowestoft Bed Store", "phone": "01502 567803", "website": "https://dreams.co.uk/store/lowestoft", "opening_hours": "Mo-Tu 10:00-19:00; We-Fr 10:00-18:00; Sa 09:00-18:00; Su 10:00-16:00", "image": "https://img.dreams.co.uk/i/dreams/Lowestoft_0M7A1446", "brand": "Dreams", "brand:wikidata": "Q5306688", "nsi_id": "dreams-d088e6"}, "geometry": {"type": "Point", "coordinates": [1.733, 52.478]}},
{"type": "Feature", "id": "Da_JTEeEk0E26C8HkheZKtWje4A=", "properties": {"ref": "https://dreams.co.uk/store/bradford-forster-square-retail-park", "@spider": "dreams_gb", "shop": "bed", "addr:street_address": "Forster Square Shopping Park, Bradford", "addr:state": "Bradford", "addr:postcode": "BD1 4AG", "addr:country": "GB", "name": "Bradford - Forster Square Retail Park Bed Store", "phone": "01274 724422", "website": "https://dreams.co.uk/store/bradford-forster-square-retail-park", "opening_hours": "Mo-Fr 10:00-19:00; Sa 09:00-18:00; Su 11:00-17:00", "image": "https://img.dreams.co.uk/i/dreams/IMG-20170728-WA0015", "brand": "Dreams", "brand:wikidata": "Q5306688", "nsi_id": "dreams-d088e6"}, "geometry": {"type": "Point", "coordinates": [-1.755, 53.802]}},
{"type": "Feature", "id": "0dqZylndZ2j9AMnhKSs61lybs7Y=", "properties": {"ref": "https://dreams.co.uk/store/cannock", "@spider": "dreams_gb", "shop": "bed", "addr:street_address": "Unit 1b Orbital Retail Park, Voyager Way", "addr:city": "Cannock", "addr:state": "Staffordshire", "addr:postcode": "WS11 8XP", "addr:country": "GB", "name": "Cannock Bed Store", "phone": "01543 577640", "website": "https://dreams.co.uk/store/cannock", "opening_hours": "Mo-Fr 10:00-18:00; Sa 09:00-18:00; Su 10:00-16:00", "image": "https://img.dreams.co.uk/i/dreams/Cannock_0M7A0536", "brand": "Dreams", "brand:wikidata": "Q5306688", "nsi_id": "dreams-d088e6"}, "geometry": {"type": "Point", "coordinates": [-2.02, 52.675]}},
{"type": "Feature", "id": "a22zIUG9_USaQ-OS_bLImprIlEE=", "properties": {"ref": "https://dreams.co.uk/store/carlisle", "@spider": "dreams_gb", "shop": "bed", "addr:street_address": "Unit 4 London Road Retail Park,", "addr:state": "Carlisle", "addr:postcode": "CA1 2PD", "addr:country": "GB", "name": "Carlisle Bed Store", "phone": "01228 586918", "website": "https://dreams.co.uk/store/carlisle", "opening_hours": "Mo-Fr 10:00-18:00; Sa 09:00-18:00; Su 11:00-17:00", "image": "https://img.dreams.co.uk/i/dreams/Carlisle_04", "brand": "Dreams", "brand:wikidata": "Q5306688", "nsi_id": "dreams-d088e6"}, "geometry": {"type": "Point", "coordinates": [-2.915, 54.884]}},
{"type": "Feature", "id": "UR2fEH9MZLdf2z6p_oHeK9A_9NY=", "properties": {"ref": "https://dreams.co.uk/store/plymouth", "@spider": "dreams_gb", "shop": "bed", "addr:street_address": "4/6 Royal Parade,", "addr:state": "Plymouth", "addr:postcode": "PL1 1DS", "addr:country": "GB", "name": "Plymouth Bed Store", "phone": "01752 228501", "website": "https://dreams.co.uk/store/plymouth", "opening_hours": "Mo-Fr 10:00-18:00; Sa 09:00-18:00; Su 10:30-16:30", "image": "https://img.dreams.co.uk/i/dreams/Plymouth_0M7A1641", "brand": "Dreams", "brand:wikidata": "Q5306688", "nsi_id": "dreams-d088e6"}, "geometry": {"type": "Point", "coordinates": [-4.14, 50.371]}},
{"type": "Feature", "id": "cI5VQUsjnyPN7MWJXcf8UhSNhPQ=", "properties": {"ref": "https://dreams.co.uk/store/barnstaple", "@spider": "dreams_gb", "shop": "bed", "addr:street_address": "Unit 6&amp;7, Roundswell Shopping Center", "addr:city": "Gratton Way", "addr:state": "Barnstaple", "addr:postcode": "EX31 3NH", "addr:country": "GB", "name": "Barnstaple Bed Store", "phone": "01271 343710", "website": "https://dreams.co.uk/store/barnstaple", "opening_hours": "Mo-Fr 10:00-18:00; Sa 09:00-18:00; Su 10:00-16:00", "image": "https://img.dreams.co.uk/i/dreams/0M7A3515", "brand": "Dreams", "brand:wikidata": "Q5306688", "nsi_id": "dreams-d088e6"}, "geometry": {"type": "Point", "coordinates": [-4.08, 51.066]}},
{"type": "Feature", "id": "4LL7lSbJzsKXSuja9mm3VBNTn5E=", "properties": {"ref": "https://dreams.co.uk/store/warrington-junctionnine-retail-park", "@spider": "dreams_gb", "shop": "bed", "addr:street_address": "Unit 3A, JunctionNine Retail Park", "addr:city": "618 Hawleys Lane", "addr:state": "Warrington", "addr:postcode": "WA2 8TP", "addr:country": "GB", "name": "Warrington - JunctionNINE Retail Park Bed Store", "phone": "01925 417062", "website": "https://dreams.co.uk/store/warrington-junctionnine-retail-park", "opening_hours": "Mo 10:00-20:00; Tu-Fr 10:00-18:00; Sa 09:00-18:00; Su 11:00-17:00", "image": "https://dreams.a.bigcontent.io/v1/static/B347-Warrington-63", "brand": "Dreams", "brand:wikidata": "Q5306688", "nsi_id": "dreams-d088e6"}, "geometry": {"type": "Point", "coordinates": [-2.598, 53.413]}},
{"type": "Feature", "id": "BWSRRRNSoVhiEXLRtVhtOasVQdQ=", "properties": {"ref": "https://dreams.co.uk/store/wrexham", "@spider": "dreams_gb", "shop": "bed", "addr:street_address": "Unit 2C, Berse Road", "addr:state": "Wrexham", "addr:postcode": "LL11 2BL", "addr:country": "GB", "name": "Wrexham  Bed Store", "phone": "01978 313 654", "website": "https://dreams.co.uk/store/wrexham", "opening_hours": "Mo 10:00-18:00; Tu 10:00-19:00; We-Fr 10:00-18:00; Sa 09:00-18:00; Su 10:00-16:00", "image": "https://img.dreams.co.uk/i/dreams/B370_Ayr-7318?$storeLocatorCropping$&pecrop=600,0,0,0&sm=c", "brand": "Dreams", "brand:wikidata": "Q5306688", "nsi_id": "dreams-d088e6"}, "geometry": {"type": "Point", "coordinates": [-3.012, 53.053]}},
{"type": "Feature", "id": "Sf39XR6UFO5oTnUCibLCiS_ewUA=", "properties": {"ref": "https://dreams.co.uk/store/blackpool", "@spider": "dreams_gb", "shop": "bed", "addr:street_address": "Unit 1/C, 270 Vicarage lane", "addr:state": "Blackpool", "addr:postcode": "FY4 4ND", "addr:country": "GB", "name": "Blackpool Bed Store", "phone": "01253 763 527", "website": "https://dreams.co.uk/store/blackpool", "opening_hours": "Mo-Fr 10:00-18:00; Sa 09:00-18:00; Su 11:00-17:00", "image": "https://img.dreams.co.uk/i/dreams/BLACKPOOL-24", "brand": "Dreams", "brand:wikidata": "Q5306688", "nsi_id": "dreams-d088e6"}, "geometry": {"type": "Point", "coordinates": [-3.019, 53.795]}},
{"type": "Feature", "id": "ApYNDTxnEypgwOA0TEf4RIU1aAA=", "properties": {"ref": "https://dreams.co.uk/store/aintree", "@spider": "dreams_gb", "shop": "bed", "addr:street_address": "Unit 4A, Aintree Racecourse Retail Park, Topham Drive, Aintree", "addr:state": "Liverpool", "addr:postcode": "L9 5AL", "addr:country": "GB", "name": "Aintree Bed Store", "phone": "01513 055 752", "website": "https://dreams.co.uk/store/aintree", "opening_hours": "Mo-Fr 10:00-20:00; Sa 09:00-18:00; Su 11:00-17:00", "image": "https://img.dreams.co.uk/i/dreams/Aintree_5G1A1579", "brand": "Dreams", "brand:wikidata": "Q5306688", "nsi_id": "dreams-d088e6"}, "geometry": {"type": "Point", "coordinates": [-2.951, 53.479]}},
{"type": "Feature", "id": "q7bg2Y33LbOw8QmGJnmNu29usaY=", "properties": {"ref": "https://dreams.co.uk/store/horsham", "@spider": "dreams_gb", "shop": "bed", "addr:street_address": "Units CU1 &amp; CU2, Bishops Weald House", "addr:city": "Albion Way Horsham", "addr:state": "West Sussex", "addr:postcode": "RH12 1AH", "addr:country": "GB", "name": "Horsham Bed Store", "phone": "01403 266 557", "website": "https://dreams.co.uk/store/horsham", "opening_hours": "Mo-Fr 10:00-18:00; Sa 09:00-18:00; Su 10:00-16:00", "image": "https://img.dreams.co.uk/i/dreams/horsham1", "brand": "Dreams", "brand:wikidata": "Q5306688", "nsi_id": "dreams-d088e6"}, "geometry": {"type": "Point", "coordinates": [-0.334, 51.063]}},
{"type": "Feature", "id": "HaLDgCt-Ethv1p7LIj16VkJUoqE=", "properties": {"ref": "https://dreams.co.uk/store/lincoln", "@spider": "dreams_gb", "shop": "bed", "addr:street_address": "Unit 3, Valentine Road", "addr:city": "Valentine Retail Park", "addr:state": "Lincoln", "addr:postcode": "LN6 7BH", "addr:country": "GB", "name": "Lincoln Bed Store", "phone": "01522 543293", "website": "https://dreams.co.uk/store/lincoln", "opening_hours": "Mo 10:00-18:00; Tu 10:00-20:00; We-Th 10:00-18:00; Fr 10:00-20:00; Sa 09:00-18:00; Su 10:00-16:00", "image": "https://img.dreams.co.uk/i/dreams/0M7A2469", "brand": "Dreams", "brand:wikidata": "Q5306688", "nsi_id": "dreams-d088e6"}, "geometry": {"type": "Point", "coordinates": [-0.557, 53.222]}},
{"type": "Feature", "id": "cA4oefat1wzu8AF5PV0e79UvZGE=", "properties": {"ref": "https://dreams.co.uk/store/newcastle", "@spider": "dreams_gb", "shop": "bed", "addr:street_address": "Unit 22 Royal Quays Outlet Centre, Coble Dene", "addr:city": "North Shields", "addr:state": "Newcastle Upon Tyne", "addr:postcode": "NE29 6DW", "addr:country": "GB", "name": "Newcastle Bed Store", "phone": "01912 585 267", "website": "https://dreams.co.uk/store/newcastle", "opening_hours": "Mo-Fr 09:00-17:30; Sa 09:00-18:00; Su 11:00-17:00", "image": "https://img.dreams.co.uk/i/dreams/B370_Ayr-7318?$storeLocatorCropping$&pecrop=600,0,0,0&sm=c", "brand": "Dreams", "brand:wikidata": "Q5306688", "nsi_id": "dreams-d088e6"}, "geometry": {"type": "Point", "coordinates": [-1.464, 54.996]}},
{"type": "Feature", "id": "BKlr30mf_OKJ8XEO7pxAMhuFW6M=", "properties": {"ref": "https://dreams.co.uk/store/bournemouth", "@spider": "dreams_gb", "shop": "bed", "addr:street_address": "Unit 2, Mallard Retail Park, Mallard Road,", "addr:state": "Bournemouth", "addr:postcode": "BH8 9PE", "addr:country": "GB", "name": "Bournemouth Bed Store", "phone": "01202 055459", "website": "https://dreams.co.uk/store/bournemouth", "opening_hours": "Mo-Fr 10:00-18:00; Sa 09:00-18:00; Su 10:00-16:00", "image": "https://img.dreams.co.uk/i/dreams/B377_1250292019", "brand": "Dreams", "brand:wikidata": "Q5306688", "nsi_id": "dreams-d088e6"}, "geometry": {"type": "Point", "coordinates": [-1.847, 50.748]}},
{"type": "Feature", "id": "Fzcyt08Sz1Znp-2Q3belkaXPiZk=", "properties": {"ref": "https://dreams.co.uk/store/halifax", "@spider": "dreams_gb", "shop": "bed", "addr:street_address": "Unit 4, Victoria Retail Park, Shroggs Road", "addr:city": "Halifax", "addr:state": "West Yorkshire", "addr:postcode": "HX3 5HL", "addr:country": "GB", "name": "Halifax Bed Store", "phone": "01422 360 495", "website": "https://dreams.co.uk/store/halifax", "opening_hours": "Mo-Tu 10:00-20:00; We-Fr 10:00-18:00; Sa 09:00-18:00; Su 11:00-17:00", "image": "https://img.dreams.co.uk/i/dreams/halifax_0001", "brand": "Dreams", "brand:wikidata": "Q5306688", "nsi_id": "dreams-d088e6"}, "geometry": {"type": "Point", "coordinates": [-1.872, 53.729]}},
{"type": "Feature", "id": "5GTpN3TraeOZ6diUJ20JnMMbRE4=", "properties": {"ref": "https://dreams.co.uk/store/sheffield", "@spider": "dreams_gb", "shop": "bed", "addr:street_address": "Unit 1, Retail Park Queens Road", "addr:city": "Queens Road", "addr:state": "Sheffield", "addr:postcode": "S2 4DR", "addr:country": "GB", "name": "Sheffield Bed Store", "phone": "0114 278 0046", "website": "https://dreams.co.uk/store/sheffield", "opening_hours": "Mo-Tu 10:00-20:00; We-Fr 10:00-18:00; Sa 09:00-18:00; Su 10:30-16:30", "image": "https://img.dreams.co.uk/i/dreams/Sheffield-69A6222-RT", "brand": "Dreams", "brand:wikidata": "Q5306688", "nsi_id": "dreams-d088e6"}, "geometry": {"type": "Point", "coordinates": [-1.465, 53.368]}},
{"type": "Feature", "id": "ExvyzmD02BX4MnobY9PnfIiBeaQ=", "properties": {"ref": "https://dreams.co.uk/store/truro", "@spider": "dreams_gb", "shop": "bed", "addr:street_address": "Unit B1, Retail Park Newquay Road", "addr:state": "Truro", "addr:postcode": "TR1 1XN", "addr:country": "GB", "name": "Truro Bed Store", "phone": "01872 271 205", "website": "https://dreams.co.uk/store/truro", "opening_hours": "Mo-Fr 10:00-20:00; Sa 09:00-18:00; Su 11:00-17:00", "image": "https://img.dreams.co.uk/i/dreams/Truro-MG_0112-RT", "brand": "Dreams", "brand:wikidata": "Q5306688", "nsi_id": "dreams-d088e6"}, "geometry": {"type": "Point", "coordinates": [-5.039, 50.274]}},
{"type": "Feature", "id": "OVy_tN8ifYgPEbsDnmnfh-GOLzw=", "properties": {"ref": "https://dreams.co.uk/store/stafford", "@spider": "dreams_gb", "shop": "bed", "addr:street_address": "Greyfriars Way Retail Park, Greyfriars Place", "addr:state": "Stafford", "addr:postcode": "ST16 2SD", "addr:country": "GB", "name": "Stafford Bed Store", "phone": "01785 249 645", "website": "https://dreams.co.uk/store/stafford", "opening_hours": "Mo-Fr 10:00-19:00; Sa 09:00-18:00; Su 11:00-17:00", "image": "https://img.dreams.co.uk/i/dreams/Stafford-69A6499-RT", "brand": "Dreams", "brand:wikidata": "Q5306688", "nsi_id": "dreams-d088e6"}, "geometry": {"type": "Point", "coordinates": [-2.123, 52.813]}},
{"type": "Feature", "id": "B3FTlAKd-tqjTZcloTf8CxT92NE=", "properties": {"ref": "https://dreams.co.uk/store/blackburn", "@spider": "dreams_gb", "shop": "bed", "addr:street_address": "Unit 3, The Peel Centre, Whitebirk Drive", "addr:city": "Hyndburn", "addr:state": "Blackburn", "addr:postcode": "BB1 3HT", "addr:country": "GB", "name": "Blackburn Bed Store", "phone": "01254 265374", "website": "https://dreams.co.uk/store/blackburn", "opening_hours": "Mo-We 10:00-19:00; Th 10:00-20:00; Fr 10:00-19:00; Sa 09:00-18:00; Su 11:00-17:00", "image": "https://img.dreams.co.uk/i/dreams/Blackburn-MG_9552-RT", "brand": "Dreams", "brand:wikidata": "Q5306688", "nsi_id": "dreams-d088e6"}, "geometry": {"type": "Point", "coordinates": [-2.445, 53.759]}},
{"type": "Feature", "id": "dUkimpKjxppr3fu2o9iN9d2OGPg=", "properties": {"ref": "https://dreams.co.uk/store/wimbledon", "@spider": "dreams_gb", "shop": "bed", "addr:street_address": "21 Worple Road, Wimbledon", "addr:state": "London", "addr:postcode": "SW19 4JS", "addr:country": "GB", "name": "Wimbledon Bed Store", "phone": "0208 8791607", "website": "https://dreams.co.uk/store/wimbledon", "opening_hours": "Mo-Fr 10:00-18:00; Sa 09:00-18:00; Su 11:00-17:00", "image": "https://img.dreams.co.uk/i/dreams/Wimbledon_MG_0837", "brand": "Dreams", "brand:wikidata": "Q5306688", "nsi_id": "dreams-d088e6"}, "geometry": {"type": "Point", "coordinates": [-0.21, 51.421]}},
{"type": "Feature", "id": "Du50DAH7hkjaTLep-I-bsp-zwfs=", "properties": {"ref": "https://dreams.co.uk/store/burnley", "@spider": "dreams_gb", "shop": "bed", "addr:street_address": "Unit 5, Anchor Retails Park", "addr:state": "Burnley", "addr:postcode": "BB11 1BX", "addr:country": "GB", "name": "Burnley Bed Store", "phone": "01282 422748", "website": "https://dreams.co.uk/store/burnley", "opening_hours": "Mo-Fr 10:00-18:00; Sa 09:00-18:00; Su 11:00-17:00", "image": "https://img.dreams.co.uk/i/dreams/Burnley-MG_9574-RT", "brand": "Dreams", "brand:wikidata": "Q5306688", "nsi_id": "dreams-d088e6"}, "geometry": {"type": "Point", "coordinates": [-2.244, 53.793]}},
{"type": "Feature", "id": "6ukdl3BMP7ateevOxBeEeGLNM48=", "properties": {"ref": "https://dreams.co.uk/store/southport", "@spider": "dreams_gb", "shop": "bed", "addr:street_address": "Kew Retail Park,", "addr:state": "Southport", "addr:postcode": "PR8 5RG", "addr:country": "GB", "name": "Southport Bed Store", "phone": "01704 510921", "website": "https://dreams.co.uk/store/southport", "opening_hours": "Mo-Fr 10:00-18:00; Sa 09:00-18:00; Su 11:00-17:00", "image": "https://img.dreams.co.uk/i/dreams/Southport-MG_9507-RTcrop", "brand": "Dreams", "brand:wikidata": "Q5306688", "nsi_id": "dreams-d088e6"}, "geometry": {"type": "Point", "coordinates": [-2.968, 53.632]}},
{"type": "Feature", "id": "mqHo9yqitAkAmGbIc5kNAtMwa9g=", "properties": {"ref": "https://dreams.co.uk/store/bexhill-on-sea", "@spider": "dreams_gb", "shop": "bed", "addr:street_address": "The Landmark, 66-68 Sackville Road", "addr:state": "Bexhill on Sea", "addr:postcode": "TN39 3JD", "addr:country": "GB", "name": "Bexhill on Sea Bed Store", "phone": "01424 211431", "website": "https://dreams.co.uk/store/bexhill-on-sea", "opening_hours": "Mo-Fr 10:00-18:00; Sa 09:00-18:00; Su 10:30-16:30", "image": "https://img.dreams.co.uk/i/dreams/Bexhill-MG_0551-RT", "brand": "Dreams", "brand:wikidata": "Q5306688", "nsi_id": "dreams-d088e6"}, "geometry": {"type": "Point", "coordinates": [0.47, 50.838]}},
{"type": "Feature", "id": "muKmMIkF9UHEUiLF1aLH3YgKxsc=", "properties": {"ref": "https://dreams.co.uk/store/speke", "@spider": "dreams_gb", "shop": "bed", "addr:street_address": "Unit 11a, New Mersey Retail Park, Speke Road", "addr:state": "Speke, Liverpool", "addr:postcode": "L24 8QB", "addr:country": "GB", "name": "Liverpool - Speke Bed Store", "phone": "01514 861755", "website": "https://dreams.co.uk/store/speke", "opening_hours": "Mo-Fr 10:00-20:00; Sa 09:00-18:00; Su 11:00-17:00", "image": "https://img.dreams.co.uk/i/dreams/IMG-20201211-WA0000", "brand": "Dreams", "brand:wikidata": "Q5306688", "nsi_id": "dreams-d088e6"}, "geometry": {"type": "Point", "coordinates": [-2.879, 53.352]}},
{"type": "Feature", "id": "RwKTlKvDE8OWhUO7AUFoAp1t6F4=", "properties": {"ref": "https://dreams.co.uk/store/gateshead", "@spider": "dreams_gb", "shop": "bed", "addr:street_address": "Unit 7D, Dukes Way", "addr:city": "Team Valley Retail Park", "addr:state": "Gateshead", "addr:postcode": "NE11 0BD", "addr:country": "GB", "name": "Gateshead Bed Store", "phone": "01914 873813", "website": "https://dreams.co.uk/store/gateshead", "opening_hours": "Mo-Fr 10:00-20:00; Sa 09:00-18:00; Su 11:00-17:00", "image": "https://img.dreams.co.uk/i/dreams/B326_Gateshead-7173-r", "brand": "Dreams", "brand:wikidata": "Q5306688", "nsi_id": "dreams-d088e6"}, "geometry": {"type": "Point", "coordinates": [-1.62, 54.923]}},
{"type": "Feature", "id": "7N1841TIKHLJw5FQvi50NEzDlRM=", "properties": {"ref": "https://dreams.co.uk/store/burton-upon-trent", "@spider": "dreams_gb", "shop": "bed", "addr:street_address": ", 2 Eighth Avenue, Centrum East Retail Park", "addr:state": "Burton Upon Trent", "addr:postcode": "DE14 2WG", "addr:country": "GB", "name": "Burton Upon Trent Bed Store", "phone": "01283 566006", "website": "https://dreams.co.uk/store/burton-upon-trent", "opening_hours": "Mo-Fr 10:00-18:00; Sa 09:00-18:00; Su 11:00-17:00", "image": "https://img.dreams.co.uk/i/dreams/Burton on Trent-69A6537-RT", "brand": "Dreams", "brand:wikidata": "Q5306688", "nsi_id": "dreams-d088e6"}, "geometry": {"type": "Point", "coordinates": [-1.668, 52.794]}},
{"type": "Feature", "id": "2ON9mQxkd3cD_GKMgdyJCDY4FUs=", "properties": {"ref": "https://dreams.co.uk/store/llandudno", "@spider": "dreams_gb", "shop": "bed", "addr:street_address": "Unit D3A1, Mostyn Champneys Retail Park", "addr:state": "Llandudno", "addr:postcode": "LL30 1RY", "addr:country": "GB", "name": "Llandudno Bed Store", "phone": "01492 860032", "website": "https://dreams.co.uk/store/llandudno", "opening_hours": "Mo-Fr 10:00-18:00; Sa 09:00-18:00; Su 10:00-16:00", "image": "https://img.dreams.co.uk/i/dreams/Llandudno-MG_9345-RT", "brand": "Dreams", "brand:wikidata": "Q5306688", "nsi_id": "dreams-d088e6"}, "geometry": {"type": "Point", "coordinates": [-3.818, 53.32]}},
{"type": "Feature", "id": "vIHA6Embw0zgx1cVgIsMmbTZEwc=", "properties": {"ref": "https://dreams.co.uk/store/preston", "@spider": "dreams_gb", "shop": "bed", "addr:street_address": "324 North Road,", "addr:state": "Preston", "addr:postcode": "PR1 1RU", "addr:country": "GB", "name": "Preston Bed Store", "phone": "01772 258021", "website": "https://dreams.co.uk/store/preston", "opening_hours": "Mo-Fr 10:00-18:00; Sa 09:00-18:00; Su 11:00-17:00", "image": "https://img.dreams.co.uk/i/dreams/Preston-MG_9534-RT", "brand": "Dreams", "brand:wikidata": "Q5306688", "nsi_id": "dreams-d088e6"}, "geometry": {"type": "Point", "coordinates": [-2.703, 53.768]}},
{"type": "Feature", "id": "BNHAXUQ368IH4iU8-hmwjosECbE=", "properties": {"ref": "https://dreams.co.uk/store/stockton-on-tees", "@spider": "dreams_gb", "shop": "bed", "addr:street_address": "Portrack Lane, Stockton", "addr:state": "Cleveland", "addr:postcode": "TS18 2PS", "addr:country": "GB", "name": "Stockton-on-Tees Bed Store", "phone": "01642 673141", "website": "https://dreams.co.uk/store/stockton-on-tees", "opening_hours": "Mo-Tu 10:00-20:00; We-Fr 10:00-18:00; Sa 09:00-18:00; Su 10:30-16:30", "image": "https://img.dreams.co.uk/i/dreams/B319_Stockton-on-Tees-MG_0022-RT", "brand": "Dreams", "brand:wikidata": "Q5306688", "nsi_id": "dreams-d088e6"}, "geometry": {"type": "Point", "coordinates": [-1.282, 54.574]}},
{"type": "Feature", "id": "YtFs0M1mRafcOL0hfGEpGuA8EPY=", "properties": {"ref": "https://dreams.co.uk/store/kings-lynn", "@spider": "dreams_gb", "shop": "bed", "addr:street_address": "Hardwick Road, Kings Lynn", "addr:state": "Norfolk", "addr:postcode": "PE30 4YN", "addr:country": "GB", "name": "Kings Lynn  Bed Store", "phone": "01553 773901", "website": "https://dreams.co.uk/store/kings-lynn", "opening_hours": "Mo-Fr 10:00-18:00; Sa 09:00-18:00; Su 10:00-16:00", "image": "https://img.dreams.co.uk/i/dreams/Kings Lynn-69A6626-RT", "brand": "Dreams", "brand:wikidata": "Q5306688", "nsi_id": "dreams-d088e6"}, "geometry": {"type": "Point", "coordinates": [0.409, 52.741]}},
{"type": "Feature", "id": "CRQDpxxktnz9S44FXBEYwB4WE3Y=", "properties": {"ref": "https://dreams.co.uk/store/chelmsford", "@spider": "dreams_gb", "shop": "bed", "addr:street_address": "Unit 1e, Riverside Retail Park", "addr:state": "Chelmsford", "addr:postcode": "CM1 1AN", "addr:country": "GB", "name": "Chelmsford Bed Store", "phone": "01245 252009", "website": "https://dreams.co.uk/store/chelmsford", "opening_hours": "Mo-Fr 10:00-18:00; Sa 09:00-18:00; Su 10:30-16:30", "image": "https://img.dreams.co.uk/i/dreams/Chelmsford-69A2321-RT", "brand": "Dreams", "brand:wikidata": "Q5306688", "nsi_id": "dreams-d088e6"}, "geometry": {"type": "Point", "coordinates": [0.479, 51.738]}},
{"type": "Feature", "id": "FUcuZb5F5rzZwJscP1b4urJZXWc=", "properties": {"ref": "https://dreams.co.uk/store/swansea", "@spider": "dreams_gb", "shop": "bed", "addr:street_address": "Unit 1 Phoenix Centre, Phoenix Way", "addr:city": "Swansea Enterprise Park", "addr:state": "Swansea", "addr:postcode": "SA7  9EH", "addr:country": "GB", "name": "Swansea Bed Store", "phone": "01792 773758", "website": "https://dreams.co.uk/store/swansea", "opening_hours": "Mo-We 10:00-19:00; Th-Fr 10:00-18:00; Sa 09:00-18:00; Su 10:30-16:30", "image": "https://img.dreams.co.uk/i/dreams/Swansea-MG_2349-RT", "brand": "Dreams", "brand:wikidata": "Q5306688", "nsi_id": "dreams-d088e6"}, "geometry": {"type": "Point", "coordinates": [-3.907, 51.658]}},
{"type": "Feature", "id": "dr6lKJ9dAAqtoeRrQ5kJtRKqDo0=", "properties": {"ref": "https://dreams.co.uk/store/solihull", "@spider": "dreams_gb", "shop": "bed", "addr:street_address": "Solihull Retail Park, Chalford Way", "addr:city": "Shirley Solihull", "addr:state": "West Midlands", "addr:postcode": "B90 4LD", "addr:country": "GB", "name": "Solihull Bed Store", "phone": "0121 733 7947", "website": "https://dreams.co.uk/store/solihull", "opening_hours": "Mo-Fr 10:00-20:00; Sa 09:00-18:00; Su 11:00-17:00", "image": "https://img.dreams.co.uk/i/dreams/Solihull-MG_1514-RT", "brand": "Dreams", "brand:wikidata": "Q5306688", "nsi_id": "dreams-d088e6"}, "geometry": {"type": "Point", "coordinates": [-1.817, 52.4]}},
{"type": "Feature", "id": "LhQ_S6vCEDHCvxElNxmflqahQo0=", "properties": {"ref": "https://dreams.co.uk/store/abbotsinch", "@spider": "dreams_gb", "shop": "bed", "addr:street_address": "Unit 10, Abbotsinch Retail Park, Washington Road", "addr:city": "Paisley", "addr:state": "Glasgow", "addr:postcode": "PA3 4EP", "addr:country": "GB", "name": "Abbotsinch Bed Store", "phone": "01418 874802", "website": "https://dreams.co.uk/store/abbotsinch", "opening_hours": "Mo-Fr 10:00-20:00; Sa 09:00-18:00; Su 10:30-17:00", "image": "https://img.dreams.co.uk/i/dreams/B310_Abottsinch-MG_9824-RT-crop", "brand": "Dreams", "brand:wikidata": "Q5306688", "nsi_id": "dreams-d088e6"}, "geometry": {"type": "Point", "coordinates": [-4.417, 55.86]}},
{"type": "Feature", "id": "MLK8YMbTUCLNrEHfjqVg-UICzyY=", "properties": {"ref": "https://dreams.co.uk/store/llanelli", "@spider": "dreams_gb", "shop": "bed", "addr:street_address": "Unit 5, Parc Pemberton Retail Park", "addr:state": "Llanelli", "addr:postcode": "SA14 9UZ", "addr:country": "GB", "name": "Llanelli Bed Store", "phone": "01554 755069", "website": "https://dreams.co.uk/store/llanelli", "opening_hours": "Mo-Tu 10:00-19:00; We-Fr 10:00-18:00; Sa 09:00-18:00; Su 10:30-16:30", "image": "https://img.dreams.co.uk/i/dreams/Llanelli-MG_2396-RT", "brand": "Dreams", "brand:wikidata": "Q5306688", "nsi_id": "dreams-d088e6"}, "geometry": {"type": "Point", "coordinates": [-4.131, 51.68]}},
{"type": "Feature", "id": "Uqu2OnUtFbwp1jQVl8TNcME9awM=", "properties": {"ref": "https://dreams.co.uk/store/guildford", "@spider": "dreams_gb", "shop": "bed", "addr:street_address": "6 &amp; 7 North Street, Guildford", "addr:state": "Surrey", "addr:postcode": "GU1 4AA", "addr:country": "GB", "name": "Guildford Bed Store", "phone": "01483 562 933", "website": "https://dreams.co.uk/store/guildford", "opening_hours": "Mo-Fr 10:00-18:00; Sa 09:00-18:00; Su 11:00-17:00", "image": "https://img.dreams.co.uk/i/dreams/Guildford-MG_1839-RT", "brand": "Dreams", "brand:wikidata": "Q5306688", "nsi_id": "dreams-d088e6"}, "geometry": {"type": "Point", "coordinates": [-0.571, 51.237]}},
{"type": "Feature", "id": "Jjn9nq5TPuYh66-75Wqyl0vnFKc=", "properties": {"ref": "https://dreams.co.uk/store/romford", "@spider": "dreams_gb", "shop": "bed", "addr:street_address": "Unit C, 270-272 Hornchurch Road", "addr:city": "Romford", "addr:state": "Essex", "addr:postcode": "RM11 1PZ", "addr:country": "GB", "name": "Romford Bed Store", "phone": "01708 470735", "website": "https://dreams.co.uk/store/romford", "opening_hours": "Mo-Fr 10:00-18:00; Sa 09:00-18:00; Su 11:00-17:00", "image": "https://img.dreams.co.uk/i/dreams/romford_004?$storeLocatorCropping$", "brand": "Dreams", "brand:wikidata": "Q5306688", "nsi_id": "dreams-d088e6"}, "geometry": {"type": "Point", "coordinates": [0.194, 51.565]}},
{"type": "Feature", "id": "LtVV3cxw7jbpTxiGQ4dZOBdrP_U=", "properties": {"ref": "https://dreams.co.uk/store/charlton", "@spider": "dreams_gb", "shop": "bed", "addr:street_address": "Stone Lake Retail Park, Woolwich Road", "addr:city": "Charlton", "addr:state": "London", "addr:postcode": "SE7 8LU", "addr:country": "GB", "name": "Charlton Bed Store", "phone": "020 8305 0280", "website": "https://dreams.co.uk/store/charlton", "opening_hours": "Mo-Tu 10:00-20:00; We-Fr 10:00-18:00; Sa 09:00-18:00; Su 11:00-17:00", "image": "https://img.dreams.co.uk/i/dreams/Charlton-MG_4799-RTcrop", "brand": "Dreams", "brand:wikidata": "Q5306688", "nsi_id": "dreams-d088e6"}, "geometry": {"type": "Point", "coordinates": [0.035, 51.49]}},
{"type": "Feature", "id": "L_WNYkNi-AOGnWRg36e-z3vhKIo=", "properties": {"ref": "https://dreams.co.uk/store/leeds-crown-point", "@spider": "dreams_gb", "shop": "bed", "addr:street_address": "Crown Point Shopping Park, Junction Street", "addr:state": "Leeds", "addr:postcode": "LS10 1ET", "addr:country": "GB", "name": "Leeds - Crown Point Bed Store", "phone": "0113 2432 294", "website": "https://dreams.co.uk/store/leeds-crown-point", "opening_hours": "Mo-Fr 10:00-20:00; Sa 09:00-18:00; Su 10:30-16:30", "image": "https://img.dreams.co.uk/i/dreams/Crown Point Leeds-MG_9062-RT", "brand": "Dreams", "brand:wikidata": "Q5306688", "nsi_id": "dreams-d088e6"}, "geometry": {"type": "Point", "coordinates": [-1.542, 53.79]}},
{"type": "Feature", "id": "dUcaOySziZ-u0EVTHVgcvu0fhc8=", "properties": {"ref": "https://dreams.co.uk/store/york-clifton-moor-centre", "@spider": "dreams_gb", "shop": "bed", "addr:street_address": "Clifton Moor Centre, Stirling Road", "addr:city": "York", "addr:state": "North Yorkshire", "addr:postcode": "YO30 4WZ", "addr:country": "GB", "name": "York - Clifton Moor Centre Bed Store", "phone": "01904 479017", "website": "https://dreams.co.uk/store/york-clifton-moor-centre", "opening_hours": "Mo-Tu 10:00-20:00; We 10:00-18:00; Th 10:00-20:00; Fr 10:00-18:00; Sa 09:00-18:00; Su 10:30-16:30", "image": "https://img.dreams.co.uk/i/dreams/Dreams_Store_Staples_York-6807b", "brand": "Dreams", "brand:wikidata": "Q5306688", "nsi_id": "dreams-d088e6"}, "geometry": {"type": "Point", "coordinates": [-1.099, 53.993]}},
{"type": "Feature", "id": "gFXk4jqsWr1BR1jSbo5Uu7XsEHE=", "properties": {"ref": "https://dreams.co.uk/store/yeovil", "@spider": "dreams_gb", "shop": "bed", "addr:street_address": "Peel Shopping Park, Babylon Hill", "addr:city": "Yeovil", "addr:state": "Somerset", "addr:postcode": "BA21 5BT", "addr:country": "GB", "name": "Yeovil Bed Store", "phone": "01935 479691", "website": "https://dreams.co.uk/store/yeovil", "opening_hours": "Mo-We 10:00-18:00; Th 10:00-20:00; Fr 10:00-18:00; Sa 09:00-18:00; Su 10:30-16:30", "image": "https://img.dreams.co.uk/i/dreams/Yeovil_001", "brand": "Dreams", "brand:wikidata": "Q5306688", "nsi_id": "dreams-d088e6"}, "geometry": {"type": "Point", "coordinates": [-2.607, 50.941]}},
{"type": "Feature", "id": "4iFLcdZg9Z4EhIWUCEZMP2vsR8g=", "properties": {"ref": "https://dreams.co.uk/store/worthing", "@spider": "dreams_gb", "shop": "bed", "addr:street_address": "59 Chapel Road, Worthing", "addr:state": "West Sussex", "addr:postcode": "BN11 1HR", "addr:country": "GB", "name": "Worthing Bed Store", "phone": "01903 207071", "website": "https://dreams.co.uk/store/worthing", "opening_hours": "Mo-Fr 10:00-18:00; Sa 09:00-18:00; Su 10:00-16:00", "image": "https://img.dreams.co.uk/i/dreams/Worthing-MG_0459-RT", "brand": "Dreams", "brand:wikidata": "Q5306688", "nsi_id": "dreams-d088e6"}, "geometry": {"type": "Point", "coordinates": [-0.372, 50.816]}},
{"type": "Feature", "id": "U9H-DYFyYdjv-WqyOLsjUmiiGm8=", "properties": {"ref": "https://dreams.co.uk/store/wolverhampton", "@spider": "dreams_gb", "shop": "bed", "addr:street_address": "Bentley Bridge Retail Park, Bentley Bridge Way", "addr:city": "Wolverhampton", "addr:state": "West Midlands", "addr:postcode": "WV11 1BP", "addr:country": "GB", "name": "Wolverhampton Bed Store", "phone": "01902 721112", "website": "https://dreams.co.uk/store/wolverhampton", "opening_hours": "Mo-Fr 10:00-19:00; Sa 09:00-18:00; Su 10:30-16:30", "image": "https://img.dreams.co.uk/i/dreams/Wolverhampton-MG_1261-RT", "brand": "Dreams", "brand:wikidata": "Q5306688", "nsi_id": "dreams-d088e6"}, "geometry": {"type": "Point", "coordinates": [-2.09, 52.596]}},
{"type": "Feature", "id": "gTuZJZp8EfsLdzjDcCYjZmOyIX0=", "properties": {"ref": "https://dreams.co.uk/store/weston-super-mare", "@spider": "dreams_gb", "shop": "bed", "addr:street_address": "The Wyvern Centre, Marchfield Way", "addr:state": "Weston Super Mare", "addr:postcode": "BS23 3YY", "addr:country": "GB", "name": "Weston Super Mare Bed Store", "phone": "01934 424722", "website": "https://dreams.co.uk/store/weston-super-mare", "opening_hours": "Mo-Tu 10:00-19:00; We-Fr 10:00-18:00; Sa 09:00-18:00; Su 10:30-16:30", "image": "https://img.dreams.co.uk/i/dreams/Dreams_Store_WSM-6345b", "brand": "Dreams", "brand:wikidata": "Q5306688", "nsi_id": "dreams-d088e6"}, "geometry": {"type": "Point", "coordinates": [-2.963, 51.338]}},
{"type": "Feature", "id": "xOnyz_VMucOolfzafZa4JvEjP8o=", "properties": {"ref": "https://dreams.co.uk/store/wellingborough", "@spider": "dreams_gb", "shop": "bed", "addr:street_address": "Castlefields Retail Park,", "addr:state": "Wellingborough", "addr:postcode": "NN8 2DP", "addr:country": "GB", "name": "Wellingborough Bed Store", "phone": "01933 270759", "website": "https://dreams.co.uk/store/wellingborough", "opening_hours": "Mo-Fr 10:00-18:00; Sa 09:00-18:00; Su 10:30-16:30", "image": "https://img.dreams.co.uk/i/dreams/Wellingborough-69A2050-RT", "brand": "Dreams", "brand:wikidata": "Q5306688", "nsi_id": "dreams-d088e6"}, "geometry": {"type": "Point", "coordinates": [-0.686, 52.293]}},
{"type": "Feature", "id": "yGfnowbmfOh0ynJ407ZoGRlRkwI=", "properties": {"ref": "https://dreams.co.uk/store/wednesbury", "@spider": "dreams_gb", "shop": "bed", "addr:street_address": "Hallens Drive, Black Country New Road", "addr:city": "Wednesbury", "addr:state": "West Midlands", "addr:postcode": "WS10 7DD", "addr:country": "GB", "name": "Wednesbury Bed Store", "phone": "0121 556 2552", "website": "https://dreams.co.uk/store/wednesbury", "opening_hours": "Mo-Fr 10:00-19:00; Sa 09:00-18:00; Su 11:00-17:00", "image": "https://img.dreams.co.uk/i/dreams/Wednesbury-MG_1305-RT", "brand": "Dreams", "brand:wikidata": "Q5306688", "nsi_id": "dreams-d088e6"}, "geometry": {"type": "Point", "coordinates": [-2.038, 52.557]}},
{"type": "Feature", "id": "4OEQ21HPdfnIT4yToS4lIg5rjDk=", "properties": {"ref": "https://dreams.co.uk/store/watford", "@spider": "dreams_gb", "shop": "bed", "addr:street_address": "Colne Valley Retail Park, Waterfields Way", "addr:state": "Watford", "addr:postcode": "WD17 2JZ", "addr:country": "GB", "name": "Watford Bed Store", "phone": "01923 802893", "website": "https://dreams.co.uk/store/watford", "opening_hours": "Mo-Fr 10:00-20:00; Sa 09:00-18:00; Su 11:00-17:00", "image": "https://img.dreams.co.uk/i/dreams/2208 Dreams_001", "brand": "Dreams", "brand:wikidata": "Q5306688", "nsi_id": "dreams-d088e6"}, "geometry": {"type": "Point", "coordinates": [-0.385, 51.651]}},
{"type": "Feature", "id": "c4ehXNi7x-LhU-SrmDyVPSEeFKE=", "properties": {"ref": "https://dreams.co.uk/store/waterlooville", "@spider": "dreams_gb", "shop": "bed", "addr:street_address": "Gallagher Retail Park, Hambledon Road", "addr:city": "Waterlooville", "addr:state": "Hampshire", "addr:postcode": "PO7 7UL", "addr:country": "GB", "name": "Waterlooville Bed Store", "phone": "023 9223 3365", "website": "https://dreams.co.uk/store/waterlooville", "opening_hours": "Mo-Fr 10:00-18:00; Sa 09:00-18:00; Su 10:30-16:30", "image": "https://img.dreams.co.uk/i/dreams/Waterlooville 1", "brand": "Dreams", "brand:wikidata": "Q5306688", "nsi_id": "dreams-d088e6"}, "geometry": {"type": "Point", "coordinates": [-1.036, 50.883]}},
{"type": "Feature", "id": "1C5Am_ENxW-uRPrK53EytSJNya0=", "properties": {"ref": "https://dreams.co.uk/store/walton-on-thames", "@spider": "dreams_gb", "shop": "bed", "addr:street_address": "Brassey House, 16/2 New Zealand Avenue", "addr:city": "Walton on Thames", "addr:state": "Surrey", "addr:postcode": "KT12 1QD", "addr:country": "GB", "name": "Walton on Thames Bed Store", "phone": "01932 253313", "website": "https://dreams.co.uk/store/walton-on-thames", "opening_hours": "Mo-Fr 10:00-18:00; Sa 09:00-18:00; Su 11:00-17:00", "image": "https://img.dreams.co.uk/i/dreams/Walton-on-Thames-MG_0781-RT", "brand": "Dreams", "brand:wikidata": "Q5306688", "nsi_id": "dreams-d088e6"}, "geometry": {"type": "Point", "coordinates": [-0.419, 51.384]}},
{"type": "Feature", "id": "QV0HaaEXHlgc2g2ZmdKTrOdKzvI=", "properties": {"ref": "https://dreams.co.uk/store/glasgow-uddingston", "@spider": "dreams_gb", "shop": "bed", "addr:street_address": "Birkenshaw Trading Estate, Rannoch Road", "addr:state": "Uddingston", "addr:postcode": "G71 5PR", "addr:country": "GB", "name": "Glasgow - Uddingston Bed Store", "phone": "01698 816521", "website": "https://dreams.co.uk/store/glasgow-uddingston", "opening_hours": "Mo-Fr 10:00-20:00; Sa 09:00-18:00; Su 10:30-17:00", "image": "https://img.dreams.co.uk/i/dreams/B134_Uddingston-7555", "brand": "Dreams", "brand:wikidata": "Q5306688", "nsi_id": "dreams-d088e6"}, "geometry": {"type": "Point", "coordinates": [-4.084, 55.836]}},
{"type": "Feature", "id": "KZnEhRlVGF_AF_kEQcxM5uV_psI=", "properties": {"ref": "https://dreams.co.uk/store/tunbridge-wells", "@spider": "dreams_gb", "shop": "bed", "addr:street_address": "Unit 1, The Fountains Retail Park, Dowding Way", "addr:city": "Royal Tunbridge Wells", "addr:state": "Kent", "addr:postcode": "TN2 3UY", "addr:country": "GB", "name": "Tunbridge Wells Bed Store", "phone": "01892 546031", "website": "https://dreams.co.uk/store/tunbridge-wells", "opening_hours": "Mo-Tu 10:00-20:00; We-Fr 10:00-19:00; Sa 09:00-18:00; Su 10:00-16:00", "image": "https://img.dreams.co.uk/i/dreams/Tunbridge Wells-MG_0824-RT", "brand": "Dreams", "brand:wikidata": "Q5306688", "nsi_id": "dreams-d088e6"}, "geometry": {"type": "Point", "coordinates": [0.287, 51.157]}},
{"type": "Feature", "id": "uc82Ot6L9Q4zlDV0JGBYxP06XVg=", "properties": {"ref": "https://dreams.co.uk/store/trowbridge", "@spider": "dreams_gb", "shop": "bed", "addr:street_address": "Trowbridge Retail Park, Bradley Road", "addr:city": "Trowbridge", "addr:state": "Wiltshire", "addr:postcode": "BA14 0RQ", "addr:country": "GB", "name": "Trowbridge Bed Store", "phone": "01225 760077", "website": "https://dreams.co.uk/store/trowbridge", "opening_hours": "Mo-Fr 10:00-18:00; Sa 09:00-18:00; Su 10:30-16:30", "image": "https://img.dreams.co.uk/i/dreams/Trowbridge_001", "brand": "Dreams", "brand:wikidata": "Q5306688", "nsi_id": "dreams-d088e6"}, "geometry": {"type": "Point", "coordinates": [-2.208, 51.303]}},
{"type": "Feature", "id": "tVh1UNROOKznnOUZ4SkY2InAu6E=", "properties": {"ref": "https://dreams.co.uk/store/torquay", "@spider": "dreams_gb", "shop": "bed", "addr:street_address": "Riviera Way Retail Park, Riviera Way", "addr:state": "Torquay", "addr:postcode": "TQ2 7AP", "addr:country": "GB", "name": "Torquay Bed Store", "phone": "01803 616704", "website": "https://dreams.co.uk/store/torquay", "opening_hours": "Mo-We 10:00-18:00; Th-Fr 10:00-19:00; Sa 09:00-18:00; Su 10:30-16:30", "image": "https://img.dreams.co.uk/i/dreams/Torquay-MG_0146-RT", "brand": "Dreams", "brand:wikidata": "Q5306688", "nsi_id": "dreams-d088e6"}, "geometry": {"type": "Point", "coordinates": [-3.55, 50.484]}},
{"type": "Feature", "id": "JvClLyUTd63RLCIyzuhK8-e4Evw=", "properties": {"ref": "https://dreams.co.uk/store/telford", "@spider": "dreams_gb", "shop": "bed", "addr:street_address": "Telford Bridge Retail Park, Colliers Way", "addr:city": "Telford", "addr:state": "Shropshire", "addr:postcode": "TF3 4PB", "addr:country": "GB", "name": "Telford Bed Store", "phone": "01952 210530", "website": "https://dreams.co.uk/store/telford", "opening_hours": "Mo-We 10:00-18:00; Th 10:00-20:00; Fr 10:00-18:00; Sa 09:00-18:00; Su 11:00-17:00", "image": "https://img.dreams.co.uk/i/dreams/Telford-MG_1233-RT", "brand": "Dreams", "brand:wikidata": "Q5306688", "nsi_id": "dreams-d088e6"}, "geometry": {"type": "Point", "coordinates": [-2.454, 52.679]}},
{"type": "Feature", "id": "NKQix-6_tVYtdY00GtRdWnbgDjw=", "properties": {"ref": "https://dreams.co.uk/store/tamworth", "@spider": "dreams_gb", "shop": "bed", "addr:street_address": "Mill Lane, Tamworth", "addr:state": "Staffordshire", "addr:postcode": "B79 7JA", "addr:country": "GB", "name": "Tamworth Bed Store", "phone": "01827 58465", "website": "https://dreams.co.uk/store/tamworth", "opening_hours": "Mo-We 09:00-19:00; Th-Sa 09:00-18:00; Su 11:00-17:00", "image": "https://img.dreams.co.uk/i/dreams/Tamworth-MG_0336-RT", "brand": "Dreams", "brand:wikidata": "Q5306688", "nsi_id": "dreams-d088e6"}, "geometry": {"type": "Point", "coordinates": [-1.691, 52.633]}},
{"type": "Feature", "id": "xuuhZE3mnQUSDwyJueylzb41WWA=", "properties": {"ref": "https://dreams.co.uk/store/swindon", "@spider": "dreams_gb", "shop": "bed", "addr:street_address": "Bridgemead Retail Park, Great Western Way,", "addr:state": "Swindon", "addr:postcode": "SN5 7YF", "addr:country": "GB", "name": "Swindon Bed Store", "phone": "01793 487748", "website": "https://dreams.co.uk/store/swindon", "opening_hours": "Mo-Fr 09:30-19:00; Sa 09:00-18:00; Su 10:30-16:30", "image": "https://img.dreams.co.uk/i/dreams/B069_Swindon_Store-3799", "brand": "Dreams", "brand:wikidata": "Q5306688", "nsi_id": "dreams-d088e6"}, "geometry": {"type": "Point", "coordinates": [-1.813, 51.557]}},
{"type": "Feature", "id": "Nwrg5lC58Xrt_0amOjedns1mk3g=", "properties": {"ref": "https://dreams.co.uk/store/straiton", "@spider": "dreams_gb", "shop": "bed", "addr:street_address": "Straiton Retail Park, Straiton", "addr:city": "Loanhead", "addr:state": "Edinburgh", "addr:postcode": "EH20 9PW", "addr:country": "GB", "name": "Straiton Bed Store", "phone": "0131 448 1602", "website": "https://dreams.co.uk/store/straiton", "opening_hours": "Mo-Fr 10:00-19:00; Sa 09:00-18:00; Su 10:30-17:00", "image": "https://img.dreams.co.uk/i/dreams/B181_Straiton-7441", "brand": "Dreams", "brand:wikidata": "Q5306688", "nsi_id": "dreams-d088e6"}, "geometry": {"type": "Point", "coordinates": [-3.163, 55.885]}},
{"type": "Feature", "id": "hs7Zxjj2NwQX1yfCS6nNgRgIt80=", "properties": {"ref": "https://dreams.co.uk/store/stoke-on-trent", "@spider": "dreams_gb", "shop": "bed", "addr:street_address": "Etruria Way, Basford", "addr:city": "Stoke on Trent", "addr:state": "Staffordshire", "addr:postcode": "ST4 6JQ", "addr:country": "GB", "name": "Stoke on Trent Bed Store", "phone": "01782 627285", "website": "https://dreams.co.uk/store/stoke-on-trent", "opening_hours": "Mo-Tu 10:00-20:00; We 10:00-18:00; Th 10:00-20:00; Fr 10:00-18:00; Sa 09:00-18:00; Su 11:00-17:00", "image": "https://img.dreams.co.uk/i/dreams/Stoke-on-Trent-69A6436-RT", "brand": "Dreams", "brand:wikidata": "Q5306688", "nsi_id": "dreams-d088e6"}, "geometry": {"type": "Point", "coordinates": [-2.206, 53.02]}},
{"type": "Feature", "id": "p3ACo_fchIG5lR_v627rAqeGKAU=", "properties": {"ref": "https://dreams.co.uk/store/stockport", "@spider": "dreams_gb", "shop": "bed", "addr:street_address": "57-89 Great Portwood Street, Stockport", "addr:state": "Cheshire", "addr:postcode": "SK1 2ED", "addr:country": "GB", "name": "Stockport Bed Store", "phone": "0161 474 0560", "website": "https://dreams.co.uk/store/stockport", "opening_hours": "Mo 10:00-20:00; Tu-Fr 10:00-18:00; Sa 09:00-18:00; Su 11:00-17:00", "image": "https://img.dreams.co.uk/i/dreams/Stockport-MG_5138-RT", "brand": "Dreams", "brand:wikidata": "Q5306688", "nsi_id": "dreams-d088e6"}, "geometry": {"type": "Point", "coordinates": [-2.151, 53.415]}},
{"type": "Feature", "id": "8BautlxevWRV3Bn03kPd9t2ieXs=", "properties": {"ref": "https://dreams.co.uk/store/stevenage", "@spider": "dreams_gb", "shop": "bed", "addr:street_address": "Forum Court, The Forum", "addr:city": "Stevenage", "addr:state": "Herts", "addr:postcode": "SG1 1EH", "addr:country": "GB", "name": "Stevenage Bed Store", "phone": "0143 875 9999", "website": "https://dreams.co.uk/store/stevenage", "opening_hours": "Mo-Fr 10:00-18:00; Sa 09:00-18:00; Su 11:00-17:00", "image": "https://img.dreams.co.uk/i/dreams/Stevenage-MG_5043-RT", "brand": "Dreams", "brand:wikidata": "Q5306688", "nsi_id": "dreams-d088e6"}, "geometry": {"type": "Point", "coordinates": [-0.201, 51.904]}},
{"type": "Feature", "id": "e_mNz1CNjbQSqE4U99lQpYd8WIU=", "properties": {"ref": "https://dreams.co.uk/store/staples-corner", "@spider": "dreams_gb", "shop": "bed", "addr:street_address": "Staple Corner Retail Park, Staples Corner", "addr:state": "London", "addr:postcode": "NW2 6LW", "addr:country": "GB", "name": "Staples Corner Bed Store", "phone": "020 8452 1931", "website": "https://dreams.co.uk/store/staples-corner", "opening_hours": "Mo-Fr 10:00-20:00; Sa 09:00-18:00; Su 11:00-17:00", "image": "https://img.dreams.co.uk/i/dreams/Dreams_Store_Staples_Corner-6567", "brand": "Dreams", "brand:wikidata": "Q5306688", "nsi_id": "dreams-d088e6"}, "geometry": {"type": "Point", "coordinates": [-0.23, 51.57]}},
{"type": "Feature", "id": "FjOBNbaw7HcFURePOKA0pUekZVU=", "properties": {"ref": "https://dreams.co.uk/store/st-helens", "@spider": "dreams_gb", "shop": "bed", "addr:street_address": "Unit K2, St Helens Retail Park,", "addr:state": "St Helens", "addr:postcode": "WA9 1JJ", "addr:country": "GB", "name": "St Helens Bed Store", "phone": "01744 730 753", "website": "https://dreams.co.uk/store/st-helens", "opening_hours": "Mo 10:00-20:00; Tu-We 10:00-18:00; Th 10:00-20:00; Fr 10:00-18:00; Sa 09:00-18:00; Su 11:00-17:00", "image": "https://img.dreams.co.uk/i/dreams/St Helens-MG_9461-RT", "brand": "Dreams", "brand:wikidata": "Q5306688", "nsi_id": "dreams-d088e6"}, "geometry": {"type": "Point", "coordinates": [-2.727, 53.45]}},
{"type": "Feature", "id": "KesOhAF9j4y4pfJ9L6d0WkhB5xA=", "properties": {"ref": "https://dreams.co.uk/store/southend", "@spider": "dreams_gb", "shop": "bed", "addr:street_address": "Southend Airport Retail Park, Southend on Sea", "addr:state": "Essex", "addr:postcode": "SS2 6FW", "addr:country": "GB", "name": "Southend Bed Store", "phone": "01702 544441", "website": "https://dreams.co.uk/store/southend", "opening_hours": "Mo-Fr 10:00-20:00; Sa 09:00-18:00; Su 10:30-16:30", "image": "https://img.dreams.co.uk/i/dreams/B057_Southend-69A2354-RTcrop", "brand": "Dreams", "brand:wikidata": "Q5306688", "nsi_id": "dreams-d088e6"}, "geometry": {"type": "Point", "coordinates": [0.703, 51.567]}},
{"type": "Feature", "id": "b64fslzA1ar89ENdwyRuSXaeFUA=", "properties": {"ref": "https://dreams.co.uk/store/southampton", "@spider": "dreams_gb", "shop": "bed", "addr:street_address": "Mountbatten Retail Park, Western Esplanade", "addr:state": "Southampton", "addr:postcode": "SO15 1QJ", "addr:country": "GB", "name": "Southampton Bed Store", "phone": "023 8033 8871", "website": "https://dreams.co.uk/store/southampton", "opening_hours": "Mo-Fr 10:00-19:00; Sa 09:00-18:00; Su 11:00-17:00", "image": "https://img.dreams.co.uk/i/dreams/Southampton-MG_0244-RT", "brand": "Dreams", "brand:wikidata": "Q5306688", "nsi_id": "dreams-d088e6"}, "geometry": {"type": "Point", "coordinates": [-1.413, 50.906]}},
{"type": "Feature", "id": "Ky8_9uatte5wOkzc6c9MIiZYdro=", "properties": {"ref": "https://dreams.co.uk/store/slough", "@spider": "dreams_gb", "shop": "bed", "addr:street_address": "383 Bath Road, Slough", "addr:state": "Berkshire", "addr:postcode": "SL1 5QA", "addr:country": "GB", "name": "Slough Bed Store", "phone": "01628 662205", "website": "https://dreams.co.uk/store/slough", "opening_hours": "Mo-Fr 10:00-20:00; Sa 09:00-18:00; Su 11:00-17:00", "image": "https://img.dreams.co.uk/i/dreams/Slough_5G1A0022", "brand": "Dreams", "brand:wikidata": "Q5306688", "nsi_id": "dreams-d088e6"}, "geometry": {"type": "Point", "coordinates": [-0.643, 51.52]}},
{"type": "Feature", "id": "kJf62xR58H6wHOPiWzQpnxp66nc=", "properties": {"ref": "https://dreams.co.uk/store/sittingbourne", "@spider": "dreams_gb", "shop": "bed", "addr:street_address": "Sittingbourne Retail Park, Mill Way", "addr:city": "Sittingbourne", "addr:state": "Kent", "addr:postcode": "ME10 2XD", "addr:country": "GB", "name": "Sittingbourne Bed Store", "phone": "01795 431648", "website": "https://dreams.co.uk/store/sittingbourne", "opening_hours": "Mo-Fr 10:00-18:00; Sa 09:00-18:00; Su 10:00-16:00", "image": "https://img.dreams.co.uk/i/dreams/Sittingbourne-MG_0705-RT", "brand": "Dreams", "brand:wikidata": "Q5306688", "nsi_id": "dreams-d088e6"}, "geometry": {"type": "Point", "coordinates": [0.737, 51.345]}},
{"type": "Feature", "id": "rkoLmxWdyWw_h6072JRWz7EHQcQ=", "properties": {"ref": "https://dreams.co.uk/store/shrewsbury", "@spider": "dreams_gb", "shop": "bed", "addr:street_address": "Sundorne Retail Park, Shrewsbury", "addr:state": "Shropshire", "addr:postcode": "SY1 4YA", "addr:country": "GB", "name": "Shrewsbury Bed Store", "phone": "01743 466914", "website": "https://dreams.co.uk/store/shrewsbury", "opening_hours": "Mo 10:00-18:00; Tu 10:00-20:00; We-Fr 10:00-18:00; Sa 09:00-18:00; Su 11:00-17:00", "image": "https://img.dreams.co.uk/i/dreams/Shrewsbury-MG_1205-RT", "brand": "Dreams", "brand:wikidata": "Q5306688", "nsi_id": "dreams-d088e6"}, "geometry": {"type": "Point", "coordinates": [-2.72, 52.739]}},
{"type": "Feature", "id": "19SXDIFE84WVzuINoAfhZaqlud8=", "properties": {"ref": "https://dreams.co.uk/store/salisbury", "@spider": "dreams_gb", "shop": "bed", "addr:street_address": "Dairy Meadow Lane, Salisbury", "addr:state": "Wiltshire", "addr:postcode": "SP1 2NY", "addr:country": "GB", "name": "Salisbury Bed Store", "phone": "01722 412891", "website": "https://dreams.co.uk/store/salisbury", "opening_hours": "Mo 10:00-18:00; Tu 10:00-19:00; We 10:00-18:00; Th 10:00-19:00; Fr 10:00-18:00; Sa 09:00-18:00; Su 10:00-16:00", "image": "https://img.dreams.co.uk/i/dreams/Salisbury-MG_0209-RT", "brand": "Dreams", "brand:wikidata": "Q5306688", "nsi_id": "dreams-d088e6"}, "geometry": {"type": "Point", "coordinates": [-1.776, 51.062]}},
{"type": "Feature", "id": "rVjsxLunP9HXLC5riD-1_1SXTdg=", "properties": {"ref": "https://dreams.co.uk/store/ruislip", "@spider": "dreams_gb", "shop": "bed", "addr:street_address": "41-45 Windmill Hill, Ruislip Manor", "addr:state": "Hillingdon", "addr:postcode": "HA4 8PT", "addr:country": "GB", "name": "Ruislip Bed Store", "phone": "01895 635496", "website": "https://dreams.co.uk/store/ruislip", "opening_hours": "Mo-Fr 10:00-18:00; Sa 09:00-18:00; Su 11:00-17:00", "image": "https://img.dreams.co.uk/i/dreams/Ruislip-MG_0711-RT", "brand": "Dreams", "brand:wikidata": "Q5306688", "nsi_id": "dreams-d088e6"}, "geometry": {"type": "Point", "coordinates": [-0.414, 51.574]}},
{"type": "Feature", "id": "HFaXb6dVckOQs89q3zI7WhQqmfM=", "properties": {"ref": "https://dreams.co.uk/store/rugby", "@spider": "dreams_gb", "shop": "bed", "addr:street_address": "Junction 1 Retail &amp; Leisure Park, Rugby", "addr:state": "Warwickshire", "addr:postcode": "CV21 1RW", "addr:country": "GB", "name": "Rugby Bed Store", "phone": "01788 544700", "website": "https://dreams.co.uk/store/rugby", "opening_hours": "Mo-Fr 10:00-18:00; Sa 09:00-18:00; Su 10:30-16:30", "image": "https://img.dreams.co.uk/i/dreams/Rugby1", "brand": "Dreams", "brand:wikidata": "Q5306688", "nsi_id": "dreams-d088e6"}, "geometry": {"type": "Point", "coordinates": [-1.261, 52.385]}},
{"type": "Feature", "id": "Naq4FhVJYfR7qi2hwSKPXeIhBYg=", "properties": {"ref": "https://dreams.co.uk/store/reigate", "@spider": "dreams_gb", "shop": "bed", "addr:street_address": "7 High Street, Reigate", "addr:state": "Surrey", "addr:postcode": "RH2 9AA", "addr:country": "GB", "name": "Reigate Bed Store", "phone": "0173 7242451", "website": "https://dreams.co.uk/store/reigate", "opening_hours": "Mo-Fr 10:00-18:00; Sa 09:00-18:00; Su 10:00-16:00", "image": "https://img.dreams.co.uk/i/dreams/Reigate-MG_0918-RT", "brand": "Dreams", "brand:wikidata": "Q5306688", "nsi_id": "dreams-d088e6"}, "geometry": {"type": "Point", "coordinates": [-0.206, 51.238]}},
{"type": "Feature", "id": "Nde3te1p0PKrn8_TIfwjcf6LT3I=", "properties": {"ref": "https://dreams.co.uk/store/redditch", "@spider": "dreams_gb", "shop": "bed", "addr:street_address": "Washford Trade Park, Washford Drive", "addr:city": "Redditch", "addr:state": "Worcestershire", "addr:postcode": "B98 0GZ", "addr:country": "GB", "name": "Redditch Bed Store", "phone": "0152 7502766", "website": "https://dreams.co.uk/store/redditch", "opening_hours": "Mo-Fr 10:00-18:00; Sa 09:00-18:00; Su 10:00-16:00", "image": "https://img.dreams.co.uk/i/dreams/Redditch-MG_1554-RT", "brand": "Dreams", "brand:wikidata": "Q5306688", "nsi_id": "dreams-d088e6"}, "geometry": {"type": "Point", "coordinates": [-1.908, 52.284]}},
{"type": "Feature", "id": "fYykVJsZl4U2UmYfwbzNjGcZxW0=", "properties": {"ref": "https://dreams.co.uk/store/reading", "@spider": "dreams_gb", "shop": "bed", "addr:street_address": "Unit 6A, Rose Kiln Lane", "addr:city": "Reading", "addr:state": "Berkshire", "addr:postcode": "RG2 0HS", "addr:country": "GB", "name": "Reading  Bed Store", "phone": "0118 975 9330", "website": "https://dreams.co.uk/store/reading", "opening_hours": "Mo-Fr 10:00-20:00; Sa 09:00-18:00; Su 11:00-17:00", "image": "https://img.dreams.co.uk/i/dreams/Reading-MG_1770-RT", "brand": "Dreams", "brand:wikidata": "Q5306688", "nsi_id": "dreams-d088e6"}, "geometry": {"type": "Point", "coordinates": [-0.973, 51.435]}},
{"type": "Feature", "id": "ySLLZ9vPlzcrLCaIllqHQy6ZQBo=", "properties": {"ref": "https://dreams.co.uk/store/potters-bar", "@spider": "dreams_gb", "shop": "bed", "addr:street_address": "195 Darkes Lane, Potters Bar", "addr:state": "Herts", "addr:postcode": "EN6 1BW", "addr:country": "GB", "name": "Potters Bar Bed Store", "phone": "01707 646346", "website": "https://dreams.co.uk/store/potters-bar", "opening_hours": "Mo-Fr 10:00-18:00; Sa 09:00-18:00; Su 11:00-17:00", "image": "https://img.dreams.co.uk/i/dreams/Potters Bar-MG_0404-RT", "brand": "Dreams", "brand:wikidata": "Q5306688", "nsi_id": "dreams-d088e6"}, "geometry": {"type": "Point", "coordinates": [-0.19, 51.699]}},
{"type": "Feature", "id": "B9bmM65xkg6HsXiMRzpOBk8OG-c=", "properties": {"ref": "https://dreams.co.uk/store/portslade", "@spider": "dreams_gb", "shop": "bed", "addr:street_address": "91 Fishergate Terrace, Portslade", "addr:state": "East Sussex", "addr:postcode": "BN41 1PH", "addr:country": "GB", "name": "Portslade Bed Store", "phone": "01273 416309", "website": "https://dreams.co.uk/store/portslade", "opening_hours": "Mo-We 10:00-18:00; Th 10:00-19:00; Fr 10:00-18:00; Sa 09:00-18:00; Su 11:00-17:00", "image": "https://img.dreams.co.uk/i/dreams/Portslade Brighton-MG_0494-RT", "brand": "Dreams", "brand:wikidata": "Q5306688", "nsi_id": "dreams-d088e6"}, "geometry": {"type": "Point", "coordinates": [-0.216, 50.831]}},
{"type": "Feature", "id": "A44aflY1JVGpwUHW6097oXyCNrY=", "properties": {"ref": "https://dreams.co.uk/store/poole", "@spider": "dreams_gb", "shop": "bed", "addr:street_address": "Wessex Gate East Retail Park, Willis Way", "addr:city": "Poole", "addr:state": "Dorset", "addr:postcode": "BH15 3TF", "addr:country": "GB", "name": "Poole Bed Store", "phone": "01202 680066", "website": "https://dreams.co.uk/store/poole", "opening_hours": "Mo-Fr 10:00-20:00; Sa 09:00-18:00; Su 10:00-16:00", "image": "https://img.dreams.co.uk/i/dreams/Poole-MG_4418-RT", "brand": "Dreams", "brand:wikidata": "Q5306688", "nsi_id": "dreams-d088e6"}, "geometry": {"type": "Point", "coordinates": [-1.99, 50.735]}},
{"type": "Feature", "id": "dbDVuqAGXFovXvvc_f4Dy1-QMfM=", "properties": {"ref": "https://dreams.co.uk/store/peterborough", "@spider": "dreams_gb", "shop": "bed", "addr:street_address": "Boulevard Retail Park, Maskew Avenue", "addr:city": "Peterborough", "addr:state": "Cambridgeshire", "addr:postcode": "PE1 2HS", "addr:country": "GB", "name": "Peterborough  Bed Store", "phone": "01733 314086", "website": "https://dreams.co.uk/store/peterborough", "opening_hours": "Mo-Tu 10:00-20:00; We 10:00-18:00; Th 10:00-20:00; Fr 10:00-18:00; Sa 09:00-18:00; Su 10:00-16:00", "image": "https://img.dreams.co.uk/i/dreams/Peterborough-69A6711-RT", "brand": "Dreams", "brand:wikidata": "Q5306688", "nsi_id": "dreams-d088e6"}, "geometry": {"type": "Point", "coordinates": [-0.259, 52.594]}},
{"type": "Feature", "id": "Qs72kEiiF1xcWfvvR4-4eVnb3iQ=", "properties": {"ref": "https://dreams.co.uk/store/birmingham-perry-barr", "@spider": "dreams_gb", "shop": "bed", "addr:street_address": "One stop Shopping Centre, Walsall Road", "addr:city": "Perry Barr", "addr:state": "Birmingham", "addr:postcode": "B42 1AB", "addr:country": "GB", "name": "Birmingham - Perry Barr Bed Store", "phone": "0121 356 7821", "website": "https://dreams.co.uk/store/birmingham-perry-barr", "opening_hours": "Mo-Tu 10:00-20:00; We-Fr 10:00-19:00; Sa 09:00-18:00; Su 11:00-17:00", "image": "https://img.dreams.co.uk/i/dreams/Perry Barr-MG_1389-RT", "brand": "Dreams", "brand:wikidata": "Q5306688", "nsi_id": "dreams-d088e6"}, "geometry": {"type": "Point", "coordinates": [-1.903, 52.518]}},
{"type": "Feature", "id": "knEH8pVdW48nAoGDKOKJg1d2eNM=", "properties": {"ref": "https://dreams.co.uk/store/oxford", "@spider": "dreams_gb", "shop": "bed", "addr:street_address": "Unit 1, Seacourt Tower Retail Park, West Way", "addr:city": "Oxford", "addr:state": "Oxfordshire", "addr:postcode": "OX2 0JJ", "addr:country": "GB", "name": "Oxford Bed Store", "phone": "01865 250356", "website": "https://dreams.co.uk/store/oxford", "opening_hours": "Mo-Tu 10:00-20:00; We-Fr 10:00-19:00; Sa 09:00-18:00; Su 11:00-17:00", "image": "https://img.dreams.co.uk/i/dreams/Oxford-MG_1658-RT", "brand": "Dreams", "brand:wikidata": "Q5306688", "nsi_id": "dreams-d088e6"}, "geometry": {"type": "Point", "coordinates": [-1.296, 51.754]}},
{"type": "Feature", "id": "Ghxw2mKluZudD0pbEeHbyGddDQU=", "properties": {"ref": "https://dreams.co.uk/store/orpington", "@spider": "dreams_gb", "shop": "bed", "addr:street_address": "Springvale Retail Park, Sevenoaks Way", "addr:city": "Orpington", "addr:state": "Kent", "addr:postcode": "BR5 3SG", "addr:country": "GB", "name": "Orpington Bed Store", "phone": "01689 834186", "website": "https://dreams.co.uk/store/orpington", "opening_hours": "Mo-Tu 10:00-20:00; We-Fr 10:00-18:00; Sa 09:00-18:00; Su 10:30-16:30", "image": "https://img.dreams.co.uk/i/dreams/Orpington-MG_4551-RT", "brand": "Dreams", "brand:wikidata": "Q5306688", "nsi_id": "dreams-d088e6"}, "geometry": {"type": "Point", "coordinates": [0.114, 51.398]}},
{"type": "Feature", "id": "a3prj3AweAX6KApxaAdW__F-lFs=", "properties": {"ref": "https://dreams.co.uk/store/omagh", "@spider": "dreams_gb", "shop": "bed", "addr:street_address": "3-4 Dromore Road,", "addr:state": "Omagh", "addr:postcode": "BT78 1RE", "addr:country": "GB", "name": "Omagh Bed Store", "phone": "028 8224 9110", "website": "https://dreams.co.uk/store/omagh", "opening_hours": "Mo-Fr 10:00-18:00; Sa 09:00-18:00; Su 13:00-18:00", "image": "https://img.dreams.co.uk/i/dreams/IMG-20220823-WA0005-OMAGH", "brand": "Dreams", "brand:wikidata": "Q5306688", "nsi_id": "dreams-d088e6"}, "geometry": {"type": "Point", "coordinates": [-7.309, 54.597]}},
{"type": "Feature", "id": "Pe6ZWAfqpZR1iBhe6IEpLOWWbl0=", "properties": {"ref": "https://dreams.co.uk/store/birmingham-oldbury", "@spider": "dreams_gb", "shop": "bed", "addr:street_address": "Unit D1, Granada Trading Estate", "addr:state": "Oldbury", "addr:postcode": "B69 4LH", "addr:country": "GB", "name": "Birmingham - Oldbury Bed Store", "phone": "0121 552 0194", "website": "https://dreams.co.uk/store/birmingham-oldbury", "opening_hours": "Mo-Fr 10:00-20:00; Sa 09:00-18:00; Su 11:00-17:00", "image": "https://img.dreams.co.uk/i/dreams/Oldbury-MG_1367-RT", "brand": "Dreams", "brand:wikidata": "Q5306688", "nsi_id": "dreams-d088e6"}, "geometry": {"type": "Point", "coordinates": [-2.016, 52.497]}},
{"type": "Feature", "id": "27-I0q7AeDek-qx5bw4h51x6sME=", "properties": {"ref": "https://dreams.co.uk/store/nuneaton", "@spider": "dreams_gb", "shop": "bed", "addr:street_address": "Newtown Road,", "addr:state": "Nuneaton", "addr:postcode": "CV11 5UT", "addr:country": "GB", "name": "Nuneaton Bed Store", "phone": "024 7638 3817", "website": "https://dreams.co.uk/store/nuneaton", "opening_hours": "Mo-Fr 10:00-18:00; Sa 09:00-18:00; Su 11:00-17:00", "image": "https://img.dreams.co.uk/i/dreams/nuneaton-b122-01", "brand": "Dreams", "brand:wikidata": "Q5306688", "nsi_id": "dreams-d088e6"}, "geometry": {"type": "Point", "coordinates": [-1.47, 52.525]}},
{"type": "Feature", "id": "8x0UFpAWkv5QnhkrHWKak4CudZc=", "properties": {"ref": "https://dreams.co.uk/store/nottingham", "@spider": "dreams_gb", "shop": "bed", "addr:street_address": "Lady Bay Retail Park, Meadow Lane", "addr:city": "Nottingham", "addr:state": "Nottinghamshire", "addr:postcode": "NG2 3GZ", "addr:country": "GB", "name": "Nottingham Bed Store", "phone": "0115 986 6141", "website": "https://dreams.co.uk/store/nottingham", "opening_hours": "Mo-Fr 10:00-20:00; Sa 09:00-18:00; Su 10:30-16:30", "image": "https://img.dreams.co.uk/i/dreams/Nottingham-69A6317-RT", "brand": "Dreams", "brand:wikidata": "Q5306688", "nsi_id": "dreams-d088e6"}, "geometry": {"type": "Point", "coordinates": [-1.133, 52.945]}},
{"type": "Feature", "id": "cm_WS5GV5zL32FEBomRIT3hJcIU=", "properties": {"ref": "https://dreams.co.uk/store/norwich", "@spider": "dreams_gb", "shop": "bed", "addr:street_address": "Unit 3A, Sprowston Retail Park", "addr:state": "Norwich", "addr:postcode": "NR7 9AZ", "addr:country": "GB", "name": "Norwich Bed Store", "phone": "01603 483864", "website": "https://dreams.co.uk/store/norwich", "opening_hours": "Mo-Fr 10:00-19:00; Sa 09:00-18:00; Su 10:30-16:30", "image": "https://img.dreams.co.uk/i/dreams/0M7A3560TT", "brand": "Dreams", "brand:wikidata": "Q5306688", "nsi_id": "dreams-d088e6"}, "geometry": {"type": "Point", "coordinates": [1.324, 52.647]}},
{"type": "Feature", "id": "2Dt5sc4SKOZUj1mCvwWWcXCx-TU=", "properties": {"ref": "https://dreams.co.uk/store/northampton", "@spider": "dreams_gb", "shop": "bed", "addr:street_address": "Nene Valley Retail Park, St James Mill Road East", "addr:city": "Northampton", "addr:state": "Northants", "addr:postcode": "NN1 1ET", "addr:country": "GB", "name": "Northampton Bed Store", "phone": "01604 631978", "website": "https://dreams.co.uk/store/northampton", "opening_hours": "Mo-Tu 10:00-19:00; We-Fr 10:00-18:00; Sa 09:00-18:00; Su 10:00-16:00", "image": "https://img.dreams.co.uk/i/dreams/northampton-b910-01", "brand": "Dreams", "brand:wikidata": "Q5306688", "nsi_id": "dreams-d088e6"}, "geometry": {"type": "Point", "coordinates": [-0.905, 52.232]}},
{"type": "Feature", "id": "_VMPvCS7l1qw5RpO22gCvQTKR6s=", "properties": {"ref": "https://dreams.co.uk/store/newtownabbey", "@spider": "dreams_gb", "shop": "bed", "addr:street_address": "Longwood Retail Park,", "addr:state": "Newtownabbey", "addr:postcode": "BT37 9UF", "addr:country": "GB", "name": "Newtownabbey Bed Store", "phone": "028 9086 1808", "website": "https://dreams.co.uk/store/newtownabbey", "opening_hours": "Mo-We 10:00-18:00; Th 10:00-20:00; Fr 10:00-18:00; Sa 09:00-18:00; Su 13:00-18:00", "image": "https://img.dreams.co.uk/i/dreams/Dreams Newtownabbey", "brand": "Dreams", "brand:wikidata": "Q5306688", "nsi_id": "dreams-d088e6"}, "geometry": {"type": "Point", "coordinates": [-5.917, 54.653]}},
{"type": "Feature", "id": "Ca_UyQCMQCCtTVo_NvX22s2US3k=", "properties": {"ref": "https://dreams.co.uk/store/newbury", "@spider": "dreams_gb", "shop": "bed", "addr:street_address": "119 London Road, Newbury", "addr:state": "Berkshire", "addr:postcode": "RG14 2BX", "addr:country": "GB", "name": "Newbury Bed Store", "phone": "01635 552700", "website": "https://dreams.co.uk/store/newbury", "opening_hours": "Mo-Fr 10:00-18:00; Sa 09:00-18:00; Su 10:00-16:00", "image": "https://img.dreams.co.uk/i/dreams/Abingdon_5G1A0130", "brand": "Dreams", "brand:wikidata": "Q5306688", "nsi_id": "dreams-d088e6"}, "geometry": {"type": "Point", "coordinates": [-1.316, 51.406]}},
{"type": "Feature", "id": "0zuMjoAHZrRA1XNesXZ6K0nmPYk=", "properties": {"ref": "https://dreams.co.uk/store/new-malden", "@spider": "dreams_gb", "shop": "bed", "addr:street_address": "Unit 2 Burlington Retail Park, Burlington Road", "addr:city": "New Malden", "addr:state": "Surrey", "addr:postcode": "KT3 4PA", "addr:country": "GB", "name": "New Malden Bed Store", "phone": "020 8949 6179", "website": "https://dreams.co.uk/store/new-malden", "opening_hours": "Mo-Fr 10:00-20:00; Sa 09:00-18:00; Su 10:30-16:30", "image": "https://img.dreams.co.uk/i/dreams/0M7A0339", "brand": "Dreams", "brand:wikidata": "Q5306688", "nsi_id": "dreams-d088e6"}, "geometry": {"type": "Point", "coordinates": [-0.247, 51.398]}},
{"type": "Feature", "id": "x3IXrxytNCAvHLzMdo2iAqkyX1Y=", "properties": {"ref": "https://dreams.co.uk/store/new-cross", "@spider": "dreams_gb", "shop": "bed", "addr:street_address": "New Cross Gate Retail Park, New Cross Road", "addr:state": "London", "addr:postcode": "SE14 5UQ", "addr:country": "GB", "name": "New Cross Bed Store", "phone": "020 7732 7645", "website": "https://dreams.co.uk/store/new-cross", "opening_hours": "Mo-Fr 10:00-20:00; Sa 09:00-18:00; Su 11:00-17:00", "image": "https://img.dreams.co.uk/i/dreams/New Cross-MG_4780-RT", "brand": "Dreams", "brand:wikidata": "Q5306688", "nsi_id": "dreams-d088e6"}, "geometry": {"type": "Point", "coordinates": [-0.042, 51.475]}},
{"type": "Feature", "id": "lVWx5DP_pMB9xxC-yqxd1RcpCno=", "properties": {"ref": "https://dreams.co.uk/store/milton-keynes", "@spider": "dreams_gb", "shop": "bed", "addr:street_address": "Routeco Retail Park, Snowdon Drive", "addr:city": "Winterhill", "addr:state": "Milton Keynes", "addr:postcode": "MK6 1BN", "addr:country": "GB", "name": "Milton Keynes Bed Store", "phone": "01908 308123", "website": "https://dreams.co.uk/store/milton-keynes", "opening_hours": "Mo-Fr 10:00-20:00; Sa 09:00-18:00; Su 11:00-17:00", "image": "https://img.dreams.co.uk/i/dreams/0M7A0494", "brand": "Dreams", "brand:wikidata": "Q5306688", "nsi_id": "dreams-d088e6"}, "geometry": {"type": "Point", "coordinates": [-0.765, 52.03]}},
{"type": "Feature", "id": "cx-NRAc6Tbm-82HuVp3RkucAxzw=", "properties": {"ref": "https://dreams.co.uk/store/middlebrook", "@spider": "dreams_gb", "shop": "bed", "addr:street_address": "Middlebrook Retail Park, The Linkway", "addr:city": "Bolton", "addr:state": "Greater Manchester", "addr:postcode": "BL6 6JA", "addr:country": "GB", "name": "Middlebrook Bed Store", "phone": "01204 668964", "website": "https://dreams.co.uk/store/middlebrook", "opening_hours": "Mo-Fr 10:00-20:00; Sa 09:00-18:00; Su 11:00-17:00", "image": "https://img.dreams.co.uk/i/dreams/Middlebrook", "brand": "Dreams", "brand:wikidata": "Q5306688", "nsi_id": "dreams-d088e6"}, "geometry": {"type": "Point", "coordinates": [-2.539, 53.585]}},
{"type": "Feature", "id": "_zpzPJYXNVrQi1OPUFyEteT09ZA=", "properties": {"ref": "https://dreams.co.uk/store/merthyr-tydfil", "@spider": "dreams_gb", "shop": "bed", "addr:street_address": "Triangle Business Park, Merthyr Tydfil", "addr:state": "Mid Glamorgan", "addr:postcode": "CF48 4TQ", "addr:country": "GB", "name": "Merthyr Tydfil Bed Store", "phone": "01685 382657", "website": "https://dreams.co.uk/store/merthyr-tydfil", "opening_hours": "Mo-Fr 10:00-19:00; Sa 09:00-18:00; Su 10:30-16:30", "image": "https://img.dreams.co.uk/i/dreams/Merthyr Tydfil-MG_2408-RT", "brand": "Dreams", "brand:wikidata": "Q5306688", "nsi_id": "dreams-d088e6"}, "geometry": {"type": "Point", "coordinates": [-3.362, 51.727]}},
{"type": "Feature", "id": "7AVQ1rQsiyAHmaFcgNwFqEUweqg=", "properties": {"ref": "https://dreams.co.uk/store/mansfield", "@spider": "dreams_gb", "shop": "bed", "addr:street_address": "Portland Retail Park, Midland Way", "addr:city": "Mansfield", "addr:state": "Nottinghamshire", "addr:postcode": "NG18 1HA", "addr:country": "GB", "name": "Mansfield Bed Store", "phone": "01623 259519", "website": "https://dreams.co.uk/store/mansfield", "opening_hours": "Mo-Fr 10:00-19:00; Sa 09:00-18:00; Su 10:30-16:30", "image": "https://img.dreams.co.uk/i/dreams/Mansfield1", "brand": "Dreams", "brand:wikidata": "Q5306688", "nsi_id": "dreams-d088e6"}, "geometry": {"type": "Point", "coordinates": [-1.203, 53.138]}},
{"type": "Feature", "id": "iEX85LXDyVmGJ_4dvW5T5hUHoSs=", "properties": {"ref": "https://dreams.co.uk/store/manchester-white-city", "@spider": "dreams_gb", "shop": "bed", "addr:street_address": "White City Retail Park, Chester Road", "addr:state": "Manchester", "addr:postcode": "M16 0RP", "addr:country": "GB", "name": "Manchester - White City Bed Store", "phone": "01615 377179", "website": "https://dreams.co.uk/store/manchester-white-city", "opening_hours": "Mo-Th 10:00-20:00; Fr 10:00-18:00; Sa 09:00-18:00; Su 11:00-17:00", "image": "https://img.dreams.co.uk/i/dreams/manchester-b309-01", "brand": "Dreams", "brand:wikidata": "Q5306688", "nsi_id": "dreams-d088e6"}, "geometry": {"type": "Point", "coordinates": [-2.284, 53.461]}},
{"type": "Feature", "id": "uX7yVdEQtKu1EXiuv9M1FFGR4gE=", "properties": {"ref": "https://dreams.co.uk/store/maidstone", "@spider": "dreams_gb", "shop": "bed", "addr:street_address": "London Road Retail Park,", "addr:state": "Maidstone", "addr:postcode": "ME16 0DT", "addr:country": "GB", "name": "Maidstone Bed Store", "phone": "01622 766370", "website": "https://dreams.co.uk/store/maidstone", "opening_hours": "Mo-Tu 10:00-20:00; We-Fr 10:00-18:00; Sa 09:00-18:00; Su 10:30-16:30", "image": "https://img.dreams.co.uk/i/dreams/Maidstone-MG_0792-RT", "brand": "Dreams", "brand:wikidata": "Q5306688", "nsi_id": "dreams-d088e6"}, "geometry": {"type": "Point", "coordinates": [0.508, 51.279]}},
{"type": "Feature", "id": "O0Efe5caup3-3b_658gTbrWonks=", "properties": {"ref": "https://dreams.co.uk/store/luton", "@spider": "dreams_gb", "shop": "bed", "addr:street_address": "Hatters Way Retail Park, Chaul End Lane", "addr:city": "Luton", "addr:state": "Bedfordshire", "addr:postcode": "LU4 8FD", "addr:country": "GB", "name": "Luton Bed Store", "phone": "01582 584436", "website": "https://dreams.co.uk/store/luton", "opening_hours": "Mo-Fr 10:00-20:00; Sa 09:00-18:00; Su 11:00-17:00", "image": "https://img.dreams.co.uk/i/dreams/Luton-MG_0526-RT", "brand": "Dreams", "brand:wikidata": "Q5306688", "nsi_id": "dreams-d088e6"}, "geometry": {"type": "Point", "coordinates": [-0.455, 51.889]}},
{"type": "Feature", "id": "HT3U4sf3KuEGJzMPgvklU2VMLsA=", "properties": {"ref": "https://dreams.co.uk/store/loughborough", "@spider": "dreams_gb", "shop": "bed", "addr:street_address": "Willowbrook Retail Park, Loughborough", "addr:state": "Leicestershire", "addr:postcode": "LE11 5HG", "addr:country": "GB", "name": "Loughborough Bed Store", "phone": "01509 230456", "website": "https://dreams.co.uk/store/loughborough", "opening_hours": "Mo 10:00-20:00; Tu-We 10:00-18:00; Th-Fr 10:00-20:00; Sa 09:00-18:00; Su 11:00-17:00", "image": "https://img.dreams.co.uk/i/dreams/Loughborough-69A6572-RT", "brand": "Dreams", "brand:wikidata": "Q5306688", "nsi_id": "dreams-d088e6"}, "geometry": {"type": "Point", "coordinates": [-1.224, 52.781]}},
{"type": "Feature", "id": "lVyk_uwGej2WLRum9OiZevlweBs=", "properties": {"ref": "https://dreams.co.uk/store/london-west-end", "@spider": "dreams_gb", "shop": "bed", "addr:street_address": "180 Tottenham Court Road,", "addr:state": "London", "addr:postcode": "W1T 7PD", "addr:country": "GB", "name": "London - West End (TCR) Bed Store", "phone": "020 7323 1066", "website": "https://dreams.co.uk/store/london-west-end", "opening_hours": "Mo-Fr 10:00-20:00; Sa 09:00-18:00; Su 11:00-17:00", "image": "https://img.dreams.co.uk/i/dreams/TCR-MG_1025-RT", "brand": "Dreams", "brand:wikidata": "Q5306688", "nsi_id": "dreams-d088e6"}, "geometry": {"type": "Point", "coordinates": [-0.136, 51.522]}},
{"type": "Feature", "id": "kjE-EMq5anhw2tlhQOZr6cljCo4=", "properties": {"ref": "https://dreams.co.uk/store/llantrisant", "@spider": "dreams_gb", "shop": "bed", "addr:street_address": "Glamorgan Vale Retail Park, Llantrisant", "addr:state": "Cardiff", "addr:postcode": "CF72 8RP", "addr:country": "GB", "name": "Llantrisant Bed Store", "phone": "01443 237744", "website": "https://dreams.co.uk/store/llantrisant", "opening_hours": "Mo-Fr 10:00-19:00; Sa 09:00-18:00; Su 10:30-16:30", "image": "https://img.dreams.co.uk/i/dreams/Llantrisant-MG_2223-RT", "brand": "Dreams", "brand:wikidata": "Q5306688", "nsi_id": "dreams-d088e6"}, "geometry": {"type": "Point", "coordinates": [-3.376, 51.533]}},
{"type": "Feature", "id": "tuRphMJNirnwvcAkZlx4WjmorOI=", "properties": {"ref": "https://dreams.co.uk/store/livingston", "@spider": "dreams_gb", "shop": "bed", "addr:street_address": "Livingston West Retail Park, Almondvale Road", "addr:city": "Livingston", "addr:state": "West Lothian", "addr:postcode": "EH54 6RQ", "addr:country": "GB", "name": "Livingston Bed Store", "phone": "01506 411218", "website": "https://dreams.co.uk/store/livingston", "opening_hours": "Mo-Tu 10:00-20:00; We 10:00-18:00; Th 10:00-20:00; Fr 10:00-18:00; Sa 09:00-18:00; Su 10:30-17:00", "image": "https://img.dreams.co.uk/i/dreams/B229_Livinston-MG_9871-RT", "brand": "Dreams", "brand:wikidata": "Q5306688", "nsi_id": "dreams-d088e6"}, "geometry": {"type": "Point", "coordinates": [-3.523, 55.881]}},
{"type": "Feature", "id": "bPCgbdJtemdEe1IepkPY2G0oEFY=", "properties": {"ref": "https://dreams.co.uk/store/leeds-birstall", "@spider": "dreams_gb", "shop": "bed", "addr:street_address": "Unit 8F, Birstall Retail Park, Holden Ing Way", "addr:city": "Batley", "addr:state": "Leeds", "addr:postcode": "WF17 9DT", "addr:country": "GB", "name": "Leeds - Birstall Bed Store", "phone": "01924 473165", "website": "https://dreams.co.uk/store/leeds-birstall", "opening_hours": "Mo-Tu 10:00-20:00; We-Fr 10:00-18:00; Sa 09:00-18:00; Su 10:30-16:30", "image": "https://img.dreams.co.uk/i/dreams/Leeds Birstall-MG_9031-RT", "brand": "Dreams", "brand:wikidata": "Q5306688", "nsi_id": "dreams-d088e6"}, "geometry": {"type": "Point", "coordinates": [-1.646, 53.744]}},
{"type": "Feature", "id": "m4Ihfyd4Kr3LfkSaoLH24Hu9WIQ=", "properties": {"ref": "https://dreams.co.uk/store/leamington-spa", "@spider": "dreams_gb", "shop": "bed", "addr:street_address": "Myton Road, Leamington Spa", "addr:state": "Warwickshire", "addr:postcode": "CV31 3NY", "addr:country": "GB", "name": "Leamington Spa Bed Store", "phone": "01926 886214", "website": "https://dreams.co.uk/store/leamington-spa", "opening_hours": "Mo-We 10:00-18:00; Th-Fr 10:00-19:00; Sa 09:00-18:00; Su 10:30-16:30", "image": "https://img.dreams.co.uk/i/dreams/Leamington Spa-MG_1604-RT", "brand": "Dreams", "brand:wikidata": "Q5306688", "nsi_id": "dreams-d088e6"}, "geometry": {"type": "Point", "coordinates": [-1.548, 52.284]}},
{"type": "Feature", "id": "xn0bJ4abRS9POmsDn_lIepezt94=", "properties": {"ref": "https://dreams.co.uk/store/lakeside", "@spider": "dreams_gb", "shop": "bed", "addr:street_address": "Lakeside Retail Park, West Thurrock", "addr:state": "Essex", "addr:postcode": "RM20 1WN", "addr:country": "GB", "name": "Lakeside Bed Store", "phone": "01708 682888", "website": "https://dreams.co.uk/store/lakeside", "opening_hours": "Mo-Fr 10:00-20:00; Sa 09:00-18:00; Su 11:00-17:00", "image": "https://img.dreams.co.uk/i/dreams/Lakeside-MG_4681-RT", "brand": "Dreams", "brand:wikidata": "Q5306688", "nsi_id": "dreams-d088e6"}, "geometry": {"type": "Point", "coordinates": [0.276, 51.486]}},
{"type": "Feature", "id": "C8bOfEHQjRqGdQGTMJDTIRCy1aw=", "properties": {"ref": "https://dreams.co.uk/store/kettering", "@spider": "dreams_gb", "shop": "bed", "addr:street_address": "Northfield Retail Park, Northfield Avenue", "addr:state": "Kettering", "addr:postcode": "NN16 9TS", "addr:country": "GB", "name": "Kettering Bed Store", "phone": "01536 519532", "website": "https://dreams.co.uk/store/kettering", "opening_hours": "Mo-Fr 10:00-18:00; Sa 09:00-18:00; Su 10:00-16:00", "image": "https://img.dreams.co.uk/i/dreams/Kettering-69A1994-RT", "brand": "Dreams", "brand:wikidata": "Q5306688", "nsi_id": "dreams-d088e6"}, "geometry": {"type": "Point", "coordinates": [-0.736, 52.403]}},
{"type": "Feature", "id": "cvJ4RBn8x9ahi18c5rh1IWZtjy4=", "properties": {"ref": "https://dreams.co.uk/store/isle-of-wight", "@spider": "dreams_gb", "shop": "bed", "addr:street_address": "Taylor Road, Taylor Road", "addr:city": "Newport", "addr:state": "Isle of Wight", "addr:postcode": "PO30 5LG", "addr:country": "GB", "name": "Isle of Wight Bed Store", "phone": "01983 526511", "website": "https://dreams.co.uk/store/isle-of-wight", "opening_hours": "Mo-Fr 10:00-18:00; Sa 09:00-18:00; Su 10:00-16:00", "image": "https://img.dreams.co.uk/i/dreams/Isle of Wight-MG_0353-RT", "brand": "Dreams", "brand:wikidata": "Q5306688", "nsi_id": "dreams-d088e6"}, "geometry": {"type": "Point", "coordinates": [-1.32, 50.696]}},
{"type": "Feature", "id": "WFbWZFd8DWbtNmXTYKJu8cg-urc=", "properties": {"ref": "https://dreams.co.uk/store/ipswich-euro-retail-park", "@spider": "dreams_gb", "shop": "bed", "addr:street_address": "Euro Retail Park, Ipswich", "addr:state": "Suffolk", "addr:postcode": "IP3 9SL", "addr:country": "GB", "name": "Ipswich - Euro Retail Park Bed Store", "phone": "01473 725363", "website": "https://dreams.co.uk/store/ipswich-euro-retail-park", "opening_hours": "Mo-Fr 10:00-18:30; Sa 09:00-18:00; Su 11:00-17:00", "image": "https://img.dreams.co.uk/i/dreams/Ipswich-69A2159-RT", "brand": "Dreams", "brand:wikidata": "Q5306688", "nsi_id": "dreams-d088e6"}, "geometry": {"type": "Point", "coordinates": [1.208, 52.034]}},
{"type": "Feature", "id": "--MWzmZX-U7YoMFeaSbxMfhFFhQ=", "properties": {"ref": "https://dreams.co.uk/store/inverness", "@spider": "dreams_gb", "shop": "bed", "addr:street_address": "Units 2/3, 17 Harbour Road", "addr:city": "Longman Road", "addr:state": "Inverness", "addr:postcode": "IV1 1SY", "addr:country": "GB", "name": "Inverness Bed Store", "phone": "01463 709 825", "website": "https://dreams.co.uk/store/inverness", "opening_hours": "Mo 10:00-20:00; Tu-Fr 10:00-18:00; Sa 09:00-18:00; Su 10:30-17:00", "image": "https://img.dreams.co.uk/i/dreams/B305_Inverness-7669", "brand": "Dreams", "brand:wikidata": "Q5306688", "nsi_id": "dreams-d088e6"}, "geometry": {"type": "Point", "coordinates": [-4.22, 57.485]}},
{"type": "Feature", "id": "ClxvniZUrhH3q3pfcmMCsuXJ6Xw=", "properties": {"ref": "https://dreams.co.uk/store/ilford", "@spider": "dreams_gb", "shop": "bed", "addr:street_address": "452 High Road, Ilford", "addr:state": "Essex", "addr:postcode": "IG1 1UT", "addr:country": "GB", "name": "Ilford Bed Store", "phone": "020 8478 5888", "website": "https://dreams.co.uk/store/ilford", "opening_hours": "Mo-Fr 10:00-18:00; Sa 09:00-18:00; Su 11:00-17:00", "image": "https://img.dreams.co.uk/i/dreams/Ilford-MG_4935-RT", "brand": "Dreams", "brand:wikidata": "Q5306688", "nsi_id": "dreams-d088e6"}, "geometry": {"type": "Point", "coordinates": [0.089, 51.562]}},
{"type": "Feature", "id": "v5xlPaLqo4CN2IK6k4JYKu4FT9Q=", "properties": {"ref": "https://dreams.co.uk/store/hull", "@spider": "dreams_gb", "shop": "bed", "addr:street_address": "The Junction, St Andrews Quay Retail Park", "addr:city": "Clive Sullivan Way", "addr:state": "Hull", "addr:postcode": "HU3 4SA", "addr:country": "GB", "name": "Hull  Bed Store", "phone": "01482 427174", "website": "https://dreams.co.uk/store/hull", "opening_hours": "Mo-Fr 10:00-19:00; Sa 09:00-18:00; Su 10:30-16:30", "image": "https://img.dreams.co.uk/i/dreams/Hull-69A6089-RT crop", "brand": "Dreams", "brand:wikidata": "Q5306688", "nsi_id": "dreams-d088e6"}, "geometry": {"type": "Point", "coordinates": [-0.373, 53.728]}},
{"type": "Feature", "id": "eBFDeMOCHsXtLkElZfw7M1NvPjI=", "properties": {"ref": "https://dreams.co.uk/store/high-wycombe", "@spider": "dreams_gb", "shop": "bed", "addr:street_address": "Knaves Beech Industrial Estate, Loudwater", "addr:city": "High Wycombe", "addr:state": "Bucks,", "addr:postcode": "HP10 9QY", "addr:country": "GB", "name": "High Wycombe Bed Store", "phone": "01628 520520", "website": "https://dreams.co.uk/store/high-wycombe", "opening_hours": "Mo-Fr 10:00-20:00; Sa 09:00-18:00; Su 11:00-17:00", "image": "https://img.dreams.co.uk/i/dreams/High Wycombe-MG_0614-RT", "brand": "Dreams", "brand:wikidata": "Q5306688", "nsi_id": "dreams-d088e6"}, "geometry": {"type": "Point", "coordinates": [-0.697, 51.604]}},
{"type": "Feature", "id": "OnY2HTzM7_mCMqTKXVDHHvL0T6Q=", "properties": {"ref": "https://dreams.co.uk/store/hereford", "@spider": "dreams_gb", "shop": "bed", "addr:street_address": "Salmon Retail Park, Holmer Road", "addr:state": "Hereford", "addr:postcode": "HR4 9SB", "addr:country": "GB", "name": "Hereford Bed Store", "phone": "01432 279737", "website": "https://dreams.co.uk/store/hereford", "opening_hours": "Mo-Tu 10:00-19:00; We-Fr 10:00-18:00; Sa 09:00-18:00; Su 10:30-16:30", "image": "https://img.dreams.co.uk/i/dreams/Hereford-MG_2561-RT", "brand": "Dreams", "brand:wikidata": "Q5306688", "nsi_id": "dreams-d088e6"}, "geometry": {"type": "Point", "coordinates": [-2.721, 52.068]}},
{"type": "Feature", "id": "zJgrJuQ5YaZI1W04LZnSZbnGMeM=", "properties": {"ref": "https://dreams.co.uk/store/hemel-hempstead", "@spider": "dreams_gb", "shop": "bed", "addr:street_address": "Unit C3, Riverside Shopping Centre, Hemel Hempstead", "addr:state": "Herts", "addr:postcode": "HP1 1BT", "addr:country": "GB", "name": "Hemel Hempstead Bed Store", "phone": "01442 251886", "website": "https://dreams.co.uk/store/hemel-hempstead", "opening_hours": "Mo-Fr 10:00-18:00; Sa 09:00-18:00; Su 10:30-16:00", "image": "https://img.dreams.co.uk/i/dreams/2208 Dreams_093", "brand": "Dreams", "brand:wikidata": "Q5306688", "nsi_id": "dreams-d088e6"}, "geometry": {"type": "Point", "coordinates": [-0.473, 51.747]}},
{"type": "Feature", "id": "Hhdguakq6Li8JsGWCSneroYVW_g=", "properties": {"ref": "https://dreams.co.uk/store/hayes", "@spider": "dreams_gb", "shop": "bed", "addr:street_address": "Hayes Bridge Retail Park, Uxbridge Road", "addr:city": "Hayes", "addr:state": "Middlesex", "addr:postcode": "UB4 0RH", "addr:country": "GB", "name": "Hayes Bed Store", "phone": "020 8569 0909", "website": "https://dreams.co.uk/store/hayes", "opening_hours": "Mo-Fr 10:00-20:00; Sa 09:00-18:00; Su 11:00-17:00", "image": "https://img.dreams.co.uk/i/dreams/Hayes-MG_0680-RT", "brand": "Dreams", "brand:wikidata": "Q5306688", "nsi_id": "dreams-d088e6"}, "geometry": {"type": "Point", "coordinates": [-0.395, 51.513]}},
{"type": "Feature", "id": "pg-niLV_loiCL8Q2xopGuVkaBB8=", "properties": {"ref": "https://dreams.co.uk/store/havant", "@spider": "dreams_gb", "shop": "bed", "addr:street_address": "Central Retail Park, Park Road North", "addr:state": "Havant Hampshire", "addr:postcode": "PO9 1HH", "addr:country": "GB", "name": "Havant Bed Store", "phone": "023 9247 4788", "website": "https://dreams.co.uk/store/havant", "opening_hours": "Mo-Fr 10:00-18:00; Sa 09:00-18:00; Su 10:00-16:00", "image": "https://img.dreams.co.uk/i/dreams/Havant 1", "brand": "Dreams", "brand:wikidata": "Q5306688", "nsi_id": "dreams-d088e6"}, "geometry": {"type": "Point", "coordinates": [-0.985, 50.854]}},
{"type": "Feature", "id": "etp4bPJQi_mMutAjt6wBrU2kuN8=", "properties": {"ref": "https://dreams.co.uk/store/harlow", "@spider": "dreams_gb", "shop": "bed", "addr:street_address": "Princes Gate Retail Park, Edinburgh Way", "addr:state": "Harlow", "addr:postcode": "CM20 2SU", "addr:country": "GB", "name": "Harlow Bed Store", "phone": "01279 437300", "website": "https://dreams.co.uk/store/harlow", "opening_hours": "Mo-Tu 10:00-19:00; We-Fr 10:00-18:00; Sa 09:00-18:00; Su 10:30-16:30", "image": "https://img.dreams.co.uk/i/dreams/Harlow-69A2398-RT", "brand": "Dreams", "brand:wikidata": "Q5306688", "nsi_id": "dreams-d088e6"}, "geometry": {"type": "Point", "coordinates": [0.107, 51.782]}},
{"type": "Feature", "id": "HSXwQG8FAZ_b9BawI2gXn_Od1Ws=", "properties": {"ref": "https://dreams.co.uk/store/haringey", "@spider": "dreams_gb", "shop": "bed", "addr:street_address": "Arena Shopping Park, Green Lanes", "addr:city": "Haringey", "addr:state": "London", "addr:postcode": "N4 1ED", "addr:country": "GB", "name": "Haringey Bed Store", "phone": "020 8800 9638", "website": "https://dreams.co.uk/store/haringey", "opening_hours": "Mo-We 10:00-18:00; Th 10:00-19:00; Fr 10:00-18:00; Sa 09:00-18:00; Su 11:00-17:00", "image": "https://img.dreams.co.uk/i/dreams/Haringey-MG_1137-RT", "brand": "Dreams", "brand:wikidata": "Q5306688", "nsi_id": "dreams-d088e6"}, "geometry": {"type": "Point", "coordinates": [-0.098, 51.577]}},
{"type": "Feature", "id": "rftg11W5ttDNowBAZGfqGKAXSpA=", "properties": {"ref": "https://dreams.co.uk/store/gravesend", "@spider": "dreams_gb", "shop": "bed", "addr:street_address": "Imperial Retail Park, Thames Way", "addr:city": "Gravesend", "addr:state": "Kent", "addr:postcode": "DA11 0DQ", "addr:country": "GB", "name": "Gravesend Bed Store", "phone": "01474 327451", "website": "https://dreams.co.uk/store/gravesend", "opening_hours": "Mo-Fr 10:00-18:00; Sa 09:00-18:00; Su 10:00-16:00", "image": "https://img.dreams.co.uk/i/dreams/Gravesend-MG_4643-RT", "brand": "Dreams", "brand:wikidata": "Q5306688", "nsi_id": "dreams-d088e6"}, "geometry": {"type": "Point", "coordinates": [0.359, 51.445]}},
{"type": "Feature", "id": "hgY5njloacc4fNuluUefomdRWrg=", "properties": {"ref": "https://dreams.co.uk/store/gloucester", "@spider": "dreams_gb", "shop": "bed", "addr:street_address": "The Peel Centre, St Ann Way", "addr:city": "Bristol Road", "addr:state": "Gloucester", "addr:postcode": "GL1 5SF", "addr:country": "GB", "name": "Gloucester Bed Store", "phone": "01452 305619", "website": "https://dreams.co.uk/store/gloucester", "opening_hours": "Mo-Tu 10:00-19:00; We-Fr 10:00-18:00; Sa 09:00-18:00; Su 10:30-16:30", "image": "https://img.dreams.co.uk/i/dreams/Glocester-MG-2595-RT-small (2)", "brand": "Dreams", "brand:wikidata": "Q5306688", "nsi_id": "dreams-d088e6"}, "geometry": {"type": "Point", "coordinates": [-2.254, 51.858]}},
{"type": "Feature", "id": "aeNZEPKvEcM71HfEks2SoVTBtB0=", "properties": {"ref": "https://dreams.co.uk/store/gillingham", "@spider": "dreams_gb", "shop": "bed", "addr:street_address": "Gillingham Retail park, Ambley Road", "addr:state": "Gillingham", "addr:postcode": "ME8 0PU", "addr:country": "GB", "name": "Gillingham Bed Store", "phone": "01634 239062", "website": "https://dreams.co.uk/store/gillingham", "opening_hours": "Mo-Tu 10:00-20:00; We-Fr 10:00-18:00; Sa 09:00-18:00; Su 10:30-16:30", "image": "https://img.dreams.co.uk/i/dreams/Gillingham-MG_0742-RTcrop", "brand": "Dreams", "brand:wikidata": "Q5306688", "nsi_id": "dreams-d088e6"}, "geometry": {"type": "Point", "coordinates": [0.578, 51.369]}},
{"type": "Feature", "id": "nrewJIkkwzM4abXBnorOLvOIJWU=", "properties": {"ref": "https://dreams.co.uk/store/fulham", "@spider": "dreams_gb", "shop": "bed", "addr:street_address": "Wandsworth Bridge Road,", "addr:state": "Fulham", "addr:postcode": "SW6 2NY", "addr:country": "GB", "name": "Fulham Bed Store", "phone": "020 7731 2080", "website": "https://dreams.co.uk/store/fulham", "opening_hours": "Mo-Tu 10:00-20:00; We-Fr 10:00-18:00; Sa 09:00-18:00; Su 11:00-17:00", "image": "https://img.dreams.co.uk/i/dreams/Fulham_5G1A9908", "brand": "Dreams", "brand:wikidata": "Q5306688", "nsi_id": "dreams-d088e6"}, "geometry": {"type": "Point", "coordinates": [-0.19, 51.467]}},
{"type": "Feature", "id": "ZnCDZOoBMQWRdJVdR-i1OHk6ejc=", "properties": {"ref": "https://dreams.co.uk/store/finchley", "@spider": "dreams_gb", "shop": "bed", "addr:street_address": "46 Ballards Lane, Finchley", "addr:state": "London", "addr:postcode": "N3 2BB", "addr:country": "GB", "name": "Finchley Bed Store", "phone": "020 8343 4747", "website": "https://dreams.co.uk/store/finchley", "opening_hours": "Mo-Fr 10:00-18:00; Sa 09:00-18:00; Su 11:00-17:00", "image": "https://img.dreams.co.uk/i/dreams/Finchley-MG_1097-RT", "brand": "Dreams", "brand:wikidata": "Q5306688", "nsi_id": "dreams-d088e6"}, "geometry": {"type": "Point", "coordinates": [-0.192, 51.603]}},
{"type": "Feature", "id": "s0lzdCmrf4tGQOyiKyh5onES6LE=", "properties": {"ref": "https://dreams.co.uk/store/feltham", "@spider": "dreams_gb", "shop": "bed", "addr:street_address": "1 Wilton Parade, High Street", "addr:city": "Feltham", "addr:state": "Greater London", "addr:postcode": "TW13 4BU", "addr:country": "GB", "name": "Feltham Bed Store", "phone": "020 8893 1664", "website": "https://dreams.co.uk/store/feltham", "opening_hours": "Mo-Fr 10:00-18:00; Sa 09:00-18:00; Su 11:00-17:00", "image": "https://img.dreams.co.uk/i/dreams/Feltham-MG_0752-RT", "brand": "Dreams", "brand:wikidata": "Q5306688", "nsi_id": "dreams-d088e6"}, "geometry": {"type": "Point", "coordinates": [-0.412, 51.446]}},
{"type": "Feature", "id": "TRArud-11-iRCYHXz8op4Ce0das=", "properties": {"ref": "https://dreams.co.uk/store/farnborough", "@spider": "dreams_gb", "shop": "bed", "addr:street_address": "Solartron Retail Park, Solartron Road", "addr:city": "Farnborough", "addr:state": "Hampshire", "addr:postcode": "GU14 7QJ", "addr:country": "GB", "name": "Farnborough Bed Store", "phone": "01252 372225", "website": "https://dreams.co.uk/store/farnborough", "opening_hours": "Mo-Fr 10:00-20:00; Sa 09:00-18:00; Su 11:00-17:00", "image": "https://img.dreams.co.uk/i/dreams/Farnborough-MG_1802-RTcrop", "brand": "Dreams", "brand:wikidata": "Q5306688", "nsi_id": "dreams-d088e6"}, "geometry": {"type": "Point", "coordinates": [-0.761, 51.289]}},
{"type": "Feature", "id": "gKIESn1T6B2O4gbUGo2JyY7Sk70=", "properties": {"ref": "https://dreams.co.uk/store/fareham", "@spider": "dreams_gb", "shop": "bed", "addr:street_address": "Broadcut Retail Park, Wallington Way", "addr:city": "Fareham", "addr:state": "Hampshire", "addr:postcode": "PO16 8SU", "addr:country": "GB", "name": "Fareham Bed Store", "phone": "01329 237377", "website": "https://dreams.co.uk/store/fareham", "opening_hours": "Mo-Fr 10:00-18:00; Sa 09:00-18:00; Su 10:00-16:00", "image": "https://img.dreams.co.uk/i/dreams/Fareham-MG_0284-RT", "brand": "Dreams", "brand:wikidata": "Q5306688", "nsi_id": "dreams-d088e6"}, "geometry": {"type": "Point", "coordinates": [-1.172, 50.856]}},
{"type": "Feature", "id": "CU3vxf7dA28-QdwDchq7uKXUYdg=", "properties": {"ref": "https://dreams.co.uk/store/exeter", "@spider": "dreams_gb", "shop": "bed", "addr:street_address": "Unit 4, Alphington Retail Park, Marsh Green Road West", "addr:state": "Exeter", "addr:postcode": "EX2 8BR", "addr:country": "GB", "name": "Exeter Bed Store", "phone": "01392 424796", "website": "https://dreams.co.uk/store/exeter", "opening_hours": "Mo-We 10:00-18:00; Th-Fr 10:00-20:00; Sa 09:00-18:00; Su 11:00-17:00", "image": "https://img.dreams.co.uk/i/dreams/Exeter-MG_0162-RT", "brand": "Dreams", "brand:wikidata": "Q5306688", "nsi_id": "dreams-d088e6"}, "geometry": {"type": "Point", "coordinates": [-3.534, 50.706]}},
{"type": "Feature", "id": "DVbeAPF9ANY6YRfqCX0XGNjERuc=", "properties": {"ref": "https://dreams.co.uk/store/erdington", "@spider": "dreams_gb", "shop": "bed", "addr:street_address": "Ravenside Retail Park, Kingsbury Road", "addr:city": "Birmingham", "addr:state": "West Midlands", "addr:postcode": "B24 9QB", "addr:country": "GB", "name": "Erdington Bed Store", "phone": "0121 382 2299", "website": "https://dreams.co.uk/store/erdington", "opening_hours": "Mo-Fr 10:00-20:00; Sa 09:00-18:00; Su 11:00-17:00", "image": "https://img.dreams.co.uk/i/dreams/Erdington-MG_1446-RT", "brand": "Dreams", "brand:wikidata": "Q5306688", "nsi_id": "dreams-d088e6"}, "geometry": {"type": "Point", "coordinates": [-1.803, 52.518]}},
{"type": "Feature", "id": "qZkHTtwcSRjeOHptF5Z9Ig3epSE=", "properties": {"ref": "https://dreams.co.uk/store/epsom", "@spider": "dreams_gb", "shop": "bed", "addr:street_address": "1 Upper High Street, Epsom", "addr:state": "Surrey", "addr:postcode": "KT17 4QY", "addr:country": "GB", "name": "Epsom Bed Store", "phone": "01372 724924", "website": "https://dreams.co.uk/store/epsom", "opening_hours": "Mo-Fr 10:00-18:00; Sa 09:00-18:00; Su 11:00-17:00", "image": "https://img.dreams.co.uk/i/dreams/Epsom-MG_0883-RT", "brand": "Dreams", "brand:wikidata": "Q5306688", "nsi_id": "dreams-d088e6"}, "geometry": {"type": "Point", "coordinates": [-0.264, 51.334]}},
{"type": "Feature", "id": "0JUsJJnV73eqbf4O6QkHZ9EwiCY=", "properties": {"ref": "https://dreams.co.uk/store/elgin", "@spider": "dreams_gb", "shop": "bed", "addr:street_address": "Elgin Retail Park, Edgar Road", "addr:state": "Elgin", "addr:postcode": "IV30 6RP", "addr:country": "GB", "name": "Elgin Bed Store", "phone": "01343 543248", "website": "https://dreams.co.uk/store/elgin", "opening_hours": "Mo 10:00-20:00; Tu-Fr 10:00-18:00; Sa 09:00-18:00; Su 10:30-17:00", "image": "https://img.dreams.co.uk/i/dreams/B287_Elgin-7701", "brand": "Dreams", "brand:wikidata": "Q5306688", "nsi_id": "dreams-d088e6"}, "geometry": {"type": "Point", "coordinates": [-3.317, 57.641]}},
{"type": "Feature", "id": "ZE4x7di0C-Z5ll1sgeAcXMussMc=", "properties": {"ref": "https://dreams.co.uk/store/edmonton", "@spider": "dreams_gb", "shop": "bed", "addr:street_address": "West Mall, Edmonton Green Shopping Centre", "addr:city": "Edmonton", "addr:state": "Enfield", "addr:postcode": "N9 0TZ", "addr:country": "GB", "name": "Edmonton Bed Store", "phone": "0208 8035164", "website": "https://dreams.co.uk/store/edmonton", "opening_hours": "Mo-Fr 10:00-18:00; Sa 09:00-18:00; Su 11:00-17:00", "image": "https://img.dreams.co.uk/i/dreams/Edmonton-MG_4992-RT", "brand": "Dreams", "brand:wikidata": "Q5306688", "nsi_id": "dreams-d088e6"}, "geometry": {"type": "Point", "coordinates": [-0.06, 51.623]}},
{"type": "Feature", "id": "lu4bBuBjskDyoNuCZxc4xGR3dsY=", "properties": {"ref": "https://dreams.co.uk/store/edinburgh", "@spider": "dreams_gb", "shop": "bed", "addr:street_address": "1 Seafield Road, Edinburgh", "addr:state": "Mid Lothian", "addr:postcode": "EH6 7LE", "addr:country": "GB", "name": "Edinburgh Bed Store", "phone": "0131 553 0213", "website": "https://dreams.co.uk/store/edinburgh", "opening_hours": "Mo 10:00-20:00; Tu-We 10:00-18:00; Th 10:00-20:00; Fr 10:00-18:00; Sa 09:00-18:00; Su 10:30-17:00", "image": "https://img.dreams.co.uk/i/dreams/B162_5G1A7489", "brand": "Dreams", "brand:wikidata": "Q5306688", "nsi_id": "dreams-d088e6"}, "geometry": {"type": "Point", "coordinates": [-3.152, 55.972]}},
{"type": "Feature", "id": "faqwGquKc9zosFBwzKI0_wktksc=", "properties": {"ref": "https://dreams.co.uk/store/chingford", "@spider": "dreams_gb", "shop": "bed", "addr:street_address": "Deacon Trading Estate, Cabinet Way", "addr:city": "Chingford", "addr:state": "London", "addr:postcode": "E4 8QF", "addr:country": "GB", "name": "Chingford Bed Store", "phone": "020 8531 1666", "website": "https://dreams.co.uk/store/chingford", "opening_hours": "Mo-Fr 10:00-18:00; Sa 09:00-18:00; Su 11:00-17:00", "image": "https://img.dreams.co.uk/i/dreams/Chingford-MG_4972-RT", "brand": "Dreams", "brand:wikidata": "Q5306688", "nsi_id": "dreams-d088e6"}, "geometry": {"type": "Point", "coordinates": [-0.03, 51.61]}},
{"type": "Feature", "id": "o-N4kO63uiojaPyZjUhqt_LjN1o=", "properties": {"ref": "https://dreams.co.uk/store/chester", "@spider": "dreams_gb", "shop": "bed", "addr:street_address": "Greyhound Retail Park,", "addr:state": "Chester", "addr:postcode": "CH1 4QG", "addr:country": "GB", "name": "Chester Bed Store", "phone": "01244 383700", "website": "https://dreams.co.uk/store/chester", "opening_hours": "Mo-Fr 10:00-19:00; Sa 09:00-18:00; Su 11:00-17:00", "image": "https://img.dreams.co.uk/i/dreams/Chester-MG_9379-RT", "brand": "Dreams", "brand:wikidata": "Q5306688", "nsi_id": "dreams-d088e6"}, "geometry": {"type": "Point", "coordinates": [-2.914, 53.198]}},
{"type": "Feature", "id": "JzpySX0EJSO6aNXvJ9bSszHxhfc=", "properties": {"ref": "https://dreams.co.uk/store/catford", "@spider": "dreams_gb", "shop": "bed", "addr:street_address": "Catford Island Retail Park, Plassey Road", "addr:city": "Catford", "addr:state": "London", "addr:postcode": "SE6 2DE", "addr:country": "GB", "name": "Catford Bed Store", "phone": "020 8697 5333", "website": "https://dreams.co.uk/store/catford", "opening_hours": "Mo-Fr 10:00-18:00; Sa 09:00-18:00; Su 11:00-17:00", "image": "https://img.dreams.co.uk/i/dreams/Catford-MG_4707-RT", "brand": "Dreams", "brand:wikidata": "Q5306688", "nsi_id": "dreams-d088e6"}, "geometry": {"type": "Point", "coordinates": [-0.019, 51.445]}},
{"type": "Feature", "id": "KuPxaBMjXS3L2P1eYgqgKf9AQ2Y=", "properties": {"ref": "https://dreams.co.uk/store/cardiff-penarth-road", "@spider": "dreams_gb", "shop": "bed", "addr:street_address": "242 Lyon Close Industrial Estate, Penarth Road", "addr:state": "Cardiff", "addr:postcode": "CF11 8TU", "addr:country": "GB", "name": "Cardiff - Penarth Road  Bed Store", "phone": "029 2022 6050", "website": "https://dreams.co.uk/store/cardiff-penarth-road", "opening_hours": "Mo-Tu 10:00-19:00; We-Fr 10:00-18:00; Sa 09:00-18:00; Su 10:30-16:30", "image": "https://img.dreams.co.uk/i/dreams/Cardiff Penarth Road-MG_2177-RT", "brand": "Dreams", "brand:wikidata": "Q5306688", "nsi_id": "dreams-d088e6"}, "geometry": {"type": "Point", "coordinates": [-3.197, 51.461]}},
{"type": "Feature", "id": "RMJa4GzYO_7kEmRLDqI69Iu5IHw=", "properties": {"ref": "https://dreams.co.uk/store/cardiff-newport-road", "@spider": "dreams_gb", "shop": "bed", "addr:street_address": "Unit 2, Newport Road", "addr:city": "South Glamorgan", "addr:state": "Cardiff", "addr:postcode": "CF23 9AD", "addr:country": "GB", "name": "Cardiff - Newport Road Bed Store", "phone": "029 2049 8574", "website": "https://dreams.co.uk/store/cardiff-newport-road", "opening_hours": "Mo-Tu 10:00-20:00; We-Fr 10:00-19:00; Sa 09:00-18:00; Su 10:30-16:30", "image": "https://img.dreams.co.uk/i/dreams/Cardiff Newport Road-MG_2140-RT", "brand": "Dreams", "brand:wikidata": "Q5306688", "nsi_id": "dreams-d088e6"}, "geometry": {"type": "Point", "coordinates": [-3.143, 51.498]}},
{"type": "Feature", "id": "biDbciSbXvpIagETc-jtiHyMrZk=", "properties": {"ref": "https://dreams.co.uk/store/cambridge", "@spider": "dreams_gb", "shop": "bed", "addr:street_address": "Beehive Centre,", "addr:state": "Cambridge", "addr:postcode": "CB1 3ET", "addr:country": "GB", "name": "Cambridge Bed Store", "phone": "01223 353947", "website": "https://dreams.co.uk/store/cambridge", "opening_hours": "Mo-Tu 10:00-20:00; We-Fr 10:00-19:00; Sa 09:00-18:00; Su 10:00-16:00", "image": "https://img.dreams.co.uk/i/dreams/Dreams_Store_Staples_Cambridge-6666", "brand": "Dreams", "brand:wikidata": "Q5306688", "nsi_id": "dreams-d088e6"}, "geometry": {"type": "Point", "coordinates": [0.143, 52.205]}},
{"type": "Feature", "id": "K-fS4eIvH-O-e7zKd94sx38DrrA=", "properties": {"ref": "https://dreams.co.uk/store/caerphilly", "@spider": "dreams_gb", "shop": "bed", "addr:street_address": "Gallagher Retail Park, Caerphilly", "addr:state": "Mid Glamorgan", "addr:postcode": "CF83 3NL", "addr:country": "GB", "name": "Caerphilly Bed Store", "phone": "029 2088 6302", "website": "https://dreams.co.uk/store/caerphilly", "opening_hours": "Mo-Fr 10:00-19:00; Sa 09:00-18:00; Su 10:30-16:30", "image": "https://img.dreams.co.uk/i/dreams/Caerphilly-MG_2479-RT", "brand": "Dreams", "brand:wikidata": "Q5306688", "nsi_id": "dreams-d088e6"}, "geometry": {"type": "Point", "coordinates": [-3.215, 51.59]}},
{"type": "Feature", "id": "7EtYpVeshP_6Xv5TKZSwr_PckIk=", "properties": {"ref": "https://dreams.co.uk/store/bury-st-edmunds", "@spider": "dreams_gb", "shop": "bed", "addr:street_address": "St.Edmundsbury Retail Park, Bury St Edmunds", "addr:state": "Suffolk", "addr:postcode": "IP32 7BT", "addr:country": "GB", "name": "Bury St. Edmunds Bed Store", "phone": "01284 829184", "website": "https://dreams.co.uk/store/bury-st-edmunds", "opening_hours": "Mo-Tu 10:00-19:00; We-Fr 10:00-18:00; Sa 09:00-18:00; Su 10:30-16:30", "image": "https://img.dreams.co.uk/i/dreams/Bury_St_Edmunds_0M7A1513", "brand": "Dreams", "brand:wikidata": "Q5306688", "nsi_id": "dreams-d088e6"}, "geometry": {"type": "Point", "coordinates": [0.74, 52.24]}},
{"type": "Feature", "id": "3c0uOSPgaCjmKzsU3OU2Yz7012M=", "properties": {"ref": "https://dreams.co.uk/store/bromley", "@spider": "dreams_gb", "shop": "bed", "addr:street_address": "44 High Street,", "addr:city": "Bromley", "addr:state": "Kent", "addr:postcode": "BR1 1EA", "addr:country": "GB", "name": "Bromley Bed Store", "phone": "020 8313 3809", "website": "https://dreams.co.uk/store/bromley", "opening_hours": "Mo-Fr 10:00-18:00; Sa 09:00-18:00; Su 11:00-17:00", "image": "https://img.dreams.co.uk/i/dreams/Bromley-MG_4525-RT", "brand": "Dreams", "brand:wikidata": "Q5306688", "nsi_id": "dreams-d088e6"}, "geometry": {"type": "Point", "coordinates": [0.016, 51.401]}},
{"type": "Feature", "id": "j-qR1PyziC8RkyYtmPvAwlUHT6k=", "properties": {"ref": "https://dreams.co.uk/store/bromborough", "@spider": "dreams_gb", "shop": "bed", "addr:street_address": "Croft Retail Park,", "addr:state": "Bromborough", "addr:postcode": "CH62 3PN", "addr:country": "GB", "name": "Bromborough Bed Store", "phone": "01513 349697", "website": "https://dreams.co.uk/store/bromborough", "opening_hours": "Mo-Tu 10:00-20:00; We-Fr 10:00-19:00; Sa 09:00-18:00; Su 11:00-17:00", "image": "https://img.dreams.co.uk/i/dreams/Bromborough-MG_9402-RT", "brand": "Dreams", "brand:wikidata": "Q5306688", "nsi_id": "dreams-d088e6"}, "geometry": {"type": "Point", "coordinates": [-2.976, 53.341]}},
{"type": "Feature", "id": "QCPXhcqfyViXXxc-878fwSVOpnw=", "properties": {"ref": "https://dreams.co.uk/store/broadstairs", "@spider": "dreams_gb", "shop": "bed", "addr:street_address": "Unit 4A,", "addr:city": "Westwood Retail Park, Westwood Road", "addr:state": "Broadstairs", "addr:postcode": "CT10 2RQ", "addr:country": "GB", "name": "Broadstairs Bed Store", "phone": "01843 263418", "website": "https://dreams.co.uk/store/broadstairs", "opening_hours": "Mo 10:00-18:00; Tu 10:00-20:00; We 10:00-18:00; Th 10:00-20:00; Fr 10:00-18:00; Sa 09:00-18:00; Su 10:30-16:30", "image": "https://img.dreams.co.uk/i/dreams/B370_Ayr-7318?$storeLocatorCropping$&pecrop=600,0,0,0&sm=c", "brand": "Dreams", "brand:wikidata": "Q5306688", "nsi_id": "dreams-d088e6"}, "geometry": {"type": "Point", "coordinates": [1.398, 51.361]}},
{"type": "Feature", "id": "6r6Ku2fNWyS6Y2Msr9ezz09-87s=", "properties": {"ref": "https://dreams.co.uk/store/bristol-cribbs-causeway", "@spider": "dreams_gb", "shop": "bed", "addr:street_address": "Centaurus Retail Park, Centraurus Road", "addr:city": "Cribbs Causeway", "addr:state": "Bristol", "addr:postcode": "BS34 5TS", "addr:country": "GB", "name": "Bristol - Cribbs Causeway Bed Store", "phone": "0117 950 5484", "website": "https://dreams.co.uk/store/bristol-cribbs-causeway", "opening_hours": "Mo-Tu 10:00-20:00; We 10:00-18:00; Th 10:00-20:00; Fr 10:00-18:00; Sa 09:00-18:00; Su 10:30-16:30", "image": "https://img.dreams.co.uk/i/dreams/Bristol Cribbs Causeway-MG_2079-RT", "brand": "Dreams", "brand:wikidata": "Q5306688", "nsi_id": "dreams-d088e6"}, "geometry": {"type": "Point", "coordinates": [-2.6, 51.529]}},
{"type": "Feature", "id": "mml_yRHb5RqbsGsgNC1CMvYSNcc=", "properties": {"ref": "https://dreams.co.uk/store/bristol-filton", "@spider": "dreams_gb", "shop": "bed", "addr:street_address": "The Shield Retail Centre, Gloucester Road", "addr:city": "Filton", "addr:state": "Bristol", "addr:postcode": "BS34 7BR", "addr:country": "GB", "name": "Bristol - Filton Bed Store", "phone": "0117 979 9052", "website": "https://dreams.co.uk/store/bristol-filton", "opening_hours": "Mo-Fr 10:00-18:00; Sa 09:00-18:00; Su 10:30-16:30", "image": "https://img.dreams.co.uk/i/dreams/Bristol Filton-MG_2044-RT", "brand": "Dreams", "brand:wikidata": "Q5306688", "nsi_id": "dreams-d088e6"}, "geometry": {"type": "Point", "coordinates": [-2.574, 51.509]}},
{"type": "Feature", "id": "q9cfWiSJyic8EoXgD8_Xhvzclug=", "properties": {"ref": "https://dreams.co.uk/store/bristol-brislington", "@spider": "dreams_gb", "shop": "bed", "addr:street_address": "Brislington Retail Park, Bath Road", "addr:city": "Brislington", "addr:state": "Bristol", "addr:postcode": "BS4 5NG", "addr:country": "GB", "name": "Bristol - Brislington Bed Store", "phone": "0117 972 0155", "website": "https://dreams.co.uk/store/bristol-brislington", "opening_hours": "Mo-Fr 10:00-19:00; Sa 09:00-18:00; Su 10:30-16:30", "image": "https://img.dreams.co.uk/i/dreams/Brislington-MG_1998-RT", "brand": "Dreams", "brand:wikidata": "Q5306688", "nsi_id": "dreams-d088e6"}, "geometry": {"type": "Point", "coordinates": [-2.544, 51.429]}},
{"type": "Feature", "id": "zg-TUiTWYT1xRN3MSuQ9FdsnEUo=", "properties": {"ref": "https://dreams.co.uk/store/birmingham-brierly-hill", "@spider": "dreams_gb", "shop": "bed", "addr:street_address": "Waterfront Way, Dudley Road", "addr:city": "Brierley Hill", "addr:state": "West Midlands", "addr:postcode": "DY5 1LL", "addr:country": "GB", "name": "Birmingham - Brierley Hill Bed Store", "phone": "01384 572568", "website": "https://dreams.co.uk/store/birmingham-brierly-hill", "opening_hours": "Mo-Fr 10:00-18:00; Sa 09:00-18:00; Su 11:00-17:00", "image": "https://img.dreams.co.uk/i/dreams/Brierly Hill-MG_1339-RT", "brand": "Dreams", "brand:wikidata": "Q5306688", "nsi_id": "dreams-d088e6"}, "geometry": {"type": "Point", "coordinates": [-2.119, 52.488]}},
{"type": "Feature", "id": "S3RMAkb6L8fzN5GsXQXcTupl9PA=", "properties": {"ref": "https://dreams.co.uk/store/bridgend", "@spider": "dreams_gb", "shop": "bed", "addr:street_address": "Waterton Retail Park, Waterton Road", "addr:city": "Bridgend", "addr:state": "South Wales", "addr:postcode": "CF31 3TN", "addr:country": "GB", "name": "Bridgend Bed Store", "phone": "01656 668166", "website": "https://dreams.co.uk/store/bridgend", "opening_hours": "Mo-Fr 10:00-19:00; Sa 09:00-18:00; Su 10:30-16:30", "image": "https://img.dreams.co.uk/i/dreams/Bridgend-MG_2278-RT", "brand": "Dreams", "brand:wikidata": "Q5306688", "nsi_id": "dreams-d088e6"}, "geometry": {"type": "Point", "coordinates": [-3.537, 51.5]}},
{"type": "Feature", "id": "Nis88_yQB6MyrMMBnP60LSXONOY=", "properties": {"ref": "https://dreams.co.uk/store/braintree", "@spider": "dreams_gb", "shop": "bed", "addr:street_address": "Freeport Retail Park, Braintree", "addr:state": "Essex", "addr:postcode": "CM77 8YH", "addr:country": "GB", "name": "Braintree Bed Store", "phone": "01376 528828", "website": "https://dreams.co.uk/store/braintree", "opening_hours": "Mo-Fr 10:00-18:00; Sa 09:00-18:00; Su 11:00-17:00", "image": "https://img.dreams.co.uk/i/dreams/Braintree-69A2275-RT", "brand": "Dreams", "brand:wikidata": "Q5306688", "nsi_id": "dreams-d088e6"}, "geometry": {"type": "Point", "coordinates": [0.571, 51.87]}},
{"type": "Feature", "id": "FOrklVi_xtHwA9I7kd2qcbuLNUo=", "properties": {"ref": "https://dreams.co.uk/store/belfast-boucher", "@spider": "dreams_gb", "shop": "bed", "addr:street_address": "Shane Retail Park, Boucher Road", "addr:state": "Belfast", "addr:postcode": "BT12 6RH", "addr:country": "GB", "name": "Belfast - Boucher Bed Store", "phone": "028 9066 8596", "website": "https://dreams.co.uk/store/belfast-boucher", "opening_hours": "Mo-Tu 10:00-20:00; We 10:00-18:00; Th 10:00-20:00; Fr 10:00-18:00; Sa 09:00-18:00; Su 13:00-18:00", "image": "https://img.dreams.co.uk/i/dreams/Dreams Boucher Belfast", "brand": "Dreams", "brand:wikidata": "Q5306688", "nsi_id": "dreams-d088e6"}, "geometry": {"type": "Point", "coordinates": [-5.972, 54.573]}},
{"type": "Feature", "id": "qsL4oegKjNSGKEnnU4awpQ6SvF8=", "properties": {"ref": "https://dreams.co.uk/store/bognor-regis", "@spider": "dreams_gb", "shop": "bed", "addr:street_address": "Bognor Regis Retail Park, Shripney Road", "addr:state": "Bognor Regis", "addr:postcode": "PO22 9TR", "addr:country": "GB", "name": "Bognor Regis Bed Store", "phone": "01243 866983", "website": "https://dreams.co.uk/store/bognor-regis", "opening_hours": "Mo 10:00-20:00; Tu-We 10:00-18:00; Th 10:00-20:00; Fr 10:00-18:00; Sa 09:00-18:00; Su 10:00-16:00", "image": "https://img.dreams.co.uk/i/dreams/Bognor Regis-MG_0423-RT", "brand": "Dreams", "brand:wikidata": "Q5306688", "nsi_id": "dreams-d088e6"}, "geometry": {"type": "Point", "coordinates": [-0.668, 50.803]}},
{"type": "Feature", "id": "EvZcesmsQvDVBOWJJWow4VSMcRw=", "properties": {"ref": "https://dreams.co.uk/store/birmingham-sheldon", "@spider": "dreams_gb", "shop": "bed", "addr:street_address": "Wells Green Retail Park, Coventry Road", "addr:city": "Sheldon", "addr:state": "Birmingham", "addr:postcode": "B26 3PX", "addr:country": "GB", "name": "Birmingham - Sheldon Bed Store", "phone": "0121 742 9989", "website": "https://dreams.co.uk/store/birmingham-sheldon", "opening_hours": "Mo-Fr 10:00-18:00; Sa 09:00-18:00; Su 10:30-16:30", "image": "https://img.dreams.co.uk/i/dreams/Sheldon-MG_1469-RT", "brand": "Dreams", "brand:wikidata": "Q5306688", "nsi_id": "dreams-d088e6"}, "geometry": {"type": "Point", "coordinates": [-1.785, 52.452]}},
{"type": "Feature", "id": "PbFKipg38BRa1h105WROsLurM4s=", "properties": {"ref": "https://dreams.co.uk/store/bedford-interchange-retail-park", "@spider": "dreams_gb", "shop": "bed", "addr:street_address": "Unit 2, Interchange Retail Park, Race Meadows Way", "addr:city": "Kempston", "addr:state": "Bedford", "addr:postcode": "MK42 7AZ", "addr:country": "GB", "name": "Bedford - Interchange Retail Park Bed Store", "phone": "01234 326894", "website": "https://dreams.co.uk/store/bedford-interchange-retail-park", "opening_hours": "Mo-Fr 10:00-20:00; Sa 09:00-18:00; Su 11:00-17:00", "image": "https://img.dreams.co.uk/i/dreams/Bedford_5G1A8839", "brand": "Dreams", "brand:wikidata": "Q5306688", "nsi_id": "dreams-d088e6"}, "geometry": {"type": "Point", "coordinates": [-0.484, 52.111]}},
{"type": "Feature", "id": "Z1nIQJz06gBbAw3otcwX4WscYrg=", "properties": {"ref": "https://dreams.co.uk/store/beckton", "@spider": "dreams_gb", "shop": "bed", "addr:street_address": "Beckton Retail Park, Alpine Way", "addr:city": "Beckton", "addr:state": "London", "addr:postcode": "E6 6LA", "addr:country": "GB", "name": "Beckton Bed Store", "phone": "020 7476 9808", "website": "https://dreams.co.uk/store/beckton", "opening_hours": "Mo-Fr 10:00-20:00; Sa 09:00-18:00; Su 11:00-17:00", "image": "https://img.dreams.co.uk/i/dreams/Beckton-MG_4860-RT", "brand": "Dreams", "brand:wikidata": "Q5306688", "nsi_id": "dreams-d088e6"}, "geometry": {"type": "Point", "coordinates": [0.062, 51.517]}},
{"type": "Feature", "id": "JVCh5a8FDmUS26XHg2dGAb7fffg=", "properties": {"ref": "https://dreams.co.uk/store/basingstoke", "@spider": "dreams_gb", "shop": "bed", "addr:street_address": "Hatch Warren Retail Park, Wallop Drive", "addr:city": "Basingstoke", "addr:state": "Hampshire", "addr:postcode": "RG22 4TT", "addr:country": "GB", "name": "Basingstoke Bed Store", "phone": "01256 678262", "website": "https://dreams.co.uk/store/basingstoke", "opening_hours": "Mo-Fr 10:00-19:00; Sa 09:00-18:00; Su 10:00-16:00", "image": "https://img.dreams.co.uk/i/dreams/Basingstoke_5G1A1701-WEB", "brand": "Dreams", "brand:wikidata": "Q5306688", "nsi_id": "dreams-d088e6"}, "geometry": {"type": "Point", "coordinates": [-1.142, 51.234]}},
{"type": "Feature", "id": "tpQbYsUtdlXyNPFJf3WYlhB5Hlc=", "properties": {"ref": "https://dreams.co.uk/store/basildon-westgate", "@spider": "dreams_gb", "shop": "bed", "addr:street_address": "Westgate Shopping Park, Basildon", "addr:state": "Essex", "addr:postcode": "SS14 1WP", "addr:country": "GB", "name": "Basildon - Westgate Shopping Park Bed Store", "phone": "01268 534077", "website": "https://dreams.co.uk/store/basildon-westgate", "opening_hours": "Mo-Fr 10:00-18:00; Sa 09:00-18:00; Su 10:00-16:00", "image": "https://img.dreams.co.uk/i/dreams/Basildon-69A2375-RT", "brand": "Dreams", "brand:wikidata": "Q5306688", "nsi_id": "dreams-d088e6"}, "geometry": {"type": "Point", "coordinates": [0.453, 51.57]}},
{"type": "Feature", "id": "aYn7IpH1NklDxTxggzv8d8hpGHk=", "properties": {"ref": "https://dreams.co.uk/store/bangor", "@spider": "dreams_gb", "shop": "bed", "addr:street_address": "Clandeboye Retail Park, West Circular Road", "addr:state": "Bangor", "addr:postcode": "BT19 1AR", "addr:country": "GB", "name": "Bangor Bed Store", "phone": "028 9147 9442", "website": "https://dreams.co.uk/store/bangor", "opening_hours": "Mo-We 10:00-18:00; Th 10:00-20:00; Fr 10:00-18:00; Sa 09:00-18:00; Su 13:00-18:00", "image": "https://img.dreams.co.uk/i/dreams/Dreams Internal", "brand": "Dreams", "brand:wikidata": "Q5306688", "nsi_id": "dreams-d088e6"}, "geometry": {"type": "Point", "coordinates": [-5.685, 54.646]}},
{"type": "Feature", "id": "fCwGfyKjGm574u3y8fZ3cEGLKvE=", "properties": {"ref": "https://dreams.co.uk/store/banbury", "@spider": "dreams_gb", "shop": "bed", "addr:street_address": "George Street, Banbury", "addr:state": "Oxfordshire", "addr:postcode": "OX16 5BH", "addr:country": "GB", "name": "Banbury Bed Store", "phone": "01295 255055", "website": "https://dreams.co.uk/store/banbury", "opening_hours": "Mo-Fr 10:00-18:00; Sa 09:00-18:00; Su 10:00-16:00", "image": "https://img.dreams.co.uk/i/dreams/Banbury-MG_1625-RT", "brand": "Dreams", "brand:wikidata": "Q5306688", "nsi_id": "dreams-d088e6"}, "geometry": {"type": "Point", "coordinates": [-1.333, 52.06]}},
{"type": "Feature", "id": "K5GiPo8g0Tth33QlXckYYdD65bk=", "properties": {"ref": "https://dreams.co.uk/store/ballymena", "@spider": "dreams_gb", "shop": "bed", "addr:street_address": "Braidwater Retail Park, Larne Link Road", "addr:state": "Ballymena", "addr:postcode": "BT42 3AG", "addr:country": "GB", "name": "Ballymena Bed Store", "phone": "028 2565 5832", "website": "https://dreams.co.uk/store/ballymena", "opening_hours": "Mo-We 10:00-18:00; Th 10:00-20:00; Fr 10:00-18:00; Sa 09:00-18:00; Su 13:00-18:00", "image": "https://img.dreams.co.uk/i/dreams/Dreams_Ballymena", "brand": "Dreams", "brand:wikidata": "Q5306688", "nsi_id": "dreams-d088e6"}, "geometry": {"type": "Point", "coordinates": [-6.275, 54.862]}},
{"type": "Feature", "id": "tlAhUueZefF1Ln6TojfOiGT8qB4=", "properties": {"ref": "https://dreams.co.uk/store/aylesbury", "@spider": "dreams_gb", "shop": "bed", "addr:street_address": "Cambridge Close Retail Park, Cambridge Close", "addr:city": "Aylesbury", "addr:state": "Buckinghamshire", "addr:postcode": "HP20 1DG", "addr:country": "GB", "name": "Aylesbury Bed Store", "phone": "01296 421400", "website": "https://dreams.co.uk/store/aylesbury", "opening_hours": "Mo-Fr 10:00-20:00; Sa 09:00-18:00; Su 11:00-17:00", "image": "https://img.dreams.co.uk/i/dreams/Aylesbury_001", "brand": "Dreams", "brand:wikidata": "Q5306688", "nsi_id": "dreams-d088e6"}, "geometry": {"type": "Point", "coordinates": [-0.809, 51.821]}},
{"type": "Feature", "id": "8JKyj1820czKzmyUsKu1PAh_0yo=", "properties": {"ref": "https://dreams.co.uk/store/ashton-under-lyne", "@spider": "dreams_gb", "shop": "bed", "addr:street_address": "300 Manchester Road, Audenshaw", "addr:state": "Ashton-under-lyne", "addr:postcode": "M34 5GJ", "addr:country": "GB", "name": "Ashton-under-Lyne Bed Store", "phone": "0161 371 7004", "website": "https://dreams.co.uk/store/ashton-under-lyne", "opening_hours": "Mo-We 10:00-18:00; Th 10:00-19:00; Fr 10:00-18:00; Sa 09:00-18:00; Su 11:00-17:00", "image": "https://img.dreams.co.uk/i/dreams/Ashton Under Lyne-MG_5105-RT", "brand": "Dreams", "brand:wikidata": "Q5306688", "nsi_id": "dreams-d088e6"}, "geometry": {"type": "Point", "coordinates": [-2.126, 53.479]}},
{"type": "Feature", "id": "lopqg1QtpQMTV7-s_GjCg73IOfs=", "properties": {"ref": "https://dreams.co.uk/store/ashford", "@spider": "dreams_gb", "shop": "bed", "addr:street_address": "Ashford Retail Park, Barrey Road", "addr:state": "Ashford", "addr:postcode": "TN24 0SG", "addr:country": "GB", "name": "Ashford Bed Store", "phone": "01233 500 556", "website": "https://dreams.co.uk/store/ashford", "opening_hours": "Mo-Fr 10:00-18:00; Sa 09:00-18:00; Su 10:00-16:00", "image": "https://img.dreams.co.uk/i/dreams/Ashford-MG_0588-RT", "brand": "Dreams", "brand:wikidata": "Q5306688", "nsi_id": "dreams-d088e6"}, "geometry": {"type": "Point", "coordinates": [0.905, 51.13]}},
{"type": "Feature", "id": "Kl6p0j96rC4OHU4spOGwkyCGOAE=", "properties": {"ref": "https://dreams.co.uk/store/abingdon", "@spider": "dreams_gb", "shop": "bed", "addr:street_address": "Fairacres Retail Park, Marcham Road", "addr:state": "Abingdon, Oxon", "addr:postcode": "OX14 1TP", "addr:country": "GB", "name": "Abingdon Bed Store", "phone": "01235 523903", "website": "https://dreams.co.uk/store/abingdon", "opening_hours": "Mo-Tu 10:00-20:00; We-Fr 10:00-18:00; Sa 09:00-18:00; Su 11:00-17:00", "image": "https://img.dreams.co.uk/i/dreams/Newbury_5G1A0205", "brand": "Dreams", "brand:wikidata": "Q5306688", "nsi_id": "dreams-d088e6"}, "geometry": {"type": "Point", "coordinates": [-1.3065037778650057, 51.66989802927733]}},
{"type": "Feature", "id": "lb31v78p3BhMqQ_IVDbTSeJD0ks=", "properties": {"ref": "https://dreams.co.uk/store/aberdeen", "@spider": "dreams_gb", "shop": "bed", "addr:street_address": "Unit 9, Union Square Retail Park", "addr:state": "Aberdeen", "addr:postcode": "AB11 6NJ", "addr:country": "GB", "name": "Aberdeen Bed Store", "phone": "01224 596694", "website": "https://dreams.co.uk/store/aberdeen", "opening_hours": "Mo-Fr 09:00-20:00; Sa 09:00-19:00; Su 10:30-18:00", "image": "https://img.dreams.co.uk/i/dreams/B300_Aberdeen-7763-crop", "brand": "Dreams", "brand:wikidata": "Q5306688", "nsi_id": "dreams-d088e6"}, "geometry": {"type": "Point", "coordinates": [-2.095, 57.144]}}]}