{"type":"FeatureCollection","features":[{"type": "Feature", "id": "sDzVulcIFLYy6M9L3VI4EJGCgaE=", "properties": {"ref": "013", "@spider": "duffys", "addr:street_address": "4746 N. Congress Ave.", "addr:city": "Boynton Beach", "addr:state": "FL", "addr:postcode": "33426", "addr:country": "US", "name": "Hypoluxo Rd. and Congress Ave. - Boynton East", "phone": "(561) 963-3234", "opening_hours": "Mo-Su 11:00-23:00", "brand": "Duffys"}, "geometry": {"type": "Point", "coordinates": [-80.088315, 26.570665]}},
{"type": "Feature", "id": "o5fSkLoDFBLaXl6ZoYzjefTbmSg=", "properties": {"ref": "002", "@spider": "duffys", "addr:street_address": "6864 Forest Hill Blvd.", "addr:city": "West Palm Beach", "addr:state": "FL", "addr:postcode": "33413", "addr:country": "US", "name": "Greenacres", "phone": "(561) 642-6388", "opening_hours": "Mo-Su 11:00-23:00", "brand": "Duffys"}, "geometry": {"type": "Point", "coordinates": [-80.150255, 26.65032]}},
{"type": "Feature", "id": "Horvi0JZDfIfwHPcZHefxw4YZKM=", "properties": {"ref": "027", "@spider": "duffys", "addr:street_address": "225 Clematis St.", "addr:city": "West Palm Beach", "addr:state": "FL", "addr:postcode": "33401", "addr:country": "US", "name": "Clematis", "phone": "(561) 249-1682", "opening_hours": "Mo-Th 11:00-23:00; Fr-Sa 11:00-00:00; Su 11:00-23:00", "brand": "Duffys"}, "geometry": {"type": "Point", "coordinates": [-80.051747, 26.713491]}},
{"type": "Feature", "id": "tnZA8Q-LRN8BnD2z-fOAgtRxJto=", "properties": {"ref": "012", "@spider": "duffys", "addr:street_address": "721 Village Blvd. ", "addr:city": "West Palm Beach", "addr:state": "FL", "addr:postcode": "33409", "addr:country": "US", "name": "Village Blvd.", "phone": "(561) 688-1820", "opening_hours": "Mo-Th 11:00-23:00; Fr-Sa 11:00-00:00; Su 11:00-23:00", "brand": "Duffys"}, "geometry": {"type": "Point", "coordinates": [-80.100495, 26.71354]}},
{"type": "Feature", "id": "3RXFNrDcictFgb-ZLqibMR7aifA=", "properties": {"ref": "010", "@spider": "duffys", "addr:street_address": "6845 Okeechobee Blvd.", "addr:city": "West Palm Beach", "addr:state": "FL", "addr:postcode": "33411", "addr:country": "US", "name": "Okee and Jog", "phone": "(561) 478-8852", "opening_hours": "Mo-Su 11:00-23:00", "brand": "Duffys"}, "geometry": {"type": "Point", "coordinates": [-80.149389, 26.708682]}},
{"type": "Feature", "id": "UE4O67TXWS9FWlK0y4mrGvC-vMI=", "properties": {"ref": "015", "@spider": "duffys", "addr:street_address": "6545 Boynton Beach Blvd.", "addr:city": "Boynton Beach", "addr:state": "FL", "addr:postcode": "33437", "addr:country": "US", "name": "Boynton Beach Blvd. and Jog Rd. - Boynton West", "phone": "(561) 752-4949", "opening_hours": "Mo-Th 11:00-22:00; Fr-Sa 11:00-23:00; Su 11:00-22:00", "brand": "Duffys"}, "geometry": {"type": "Point", "coordinates": [-80.147915, 26.52909]}},
{"type": "Feature", "id": "Gk_DYH8oXGOBhVQ1bl7v958OAcU=", "properties": {"ref": "017", "@spider": "duffys", "addr:street_address": "11935 Southern Blvd. ", "addr:city": "Royal Palm Beach", "addr:state": "FL", "addr:postcode": "33411", "addr:country": "US", "name": "Southern Blvd.", "phone": "(561) 792-4045", "opening_hours": "Mo-Su 11:00-23:00", "brand": "Duffys"}, "geometry": {"type": "Point", "coordinates": [-80.244281, 26.683199]}},
{"type": "Feature", "id": "jQwP3a6rcf_vNm7_Eex6_Bu76nY=", "properties": {"ref": "022", "@spider": "duffys", "addr:street_address": "1750 S. Federal Hwy.", "addr:city": "Delray Beach", "addr:state": "FL", "addr:postcode": "33483", "addr:country": "US", "name": "Delray Beach", "phone": "(561) 276-3332", "opening_hours": "Mo-Th 11:00-23:00; Fr-Sa 11:00-00:00; Su 11:00-23:00", "brand": "Duffys"}, "geometry": {"type": "Point", "coordinates": [-80.071438, 26.445861]}},
{"type": "Feature", "id": "Xa4PXKB9bL1drQo_0myxNUCCdQY=", "properties": {"ref": "005", "@spider": "duffys", "addr:street_address": "4280 Northlake Blvd.", "addr:city": "Palm Beach Gardens", "addr:state": "FL", "addr:postcode": "33410", "addr:country": "US", "name": "Northlake Blvd.", "phone": "(561) 493-8381", "opening_hours": "Mo-Su 11:00-23:00", "brand": "Duffys"}, "geometry": {"type": "Point", "coordinates": [-80.100447, 26.813131]}},
{"type": "Feature", "id": "1LQzx1A3g86ycU5r3rlip3fByaE=", "properties": {"ref": "008", "@spider": "duffys", "addr:street_address": "11588 U.S. Hwy. 1 ", "addr:city": "North Palm Beach", "addr:state": "FL", "addr:postcode": "33408", "addr:country": "US", "name": "PGA and US Hwy. 1", "phone": "(561) 721-2650", "opening_hours": "Mo-Su 11:00-23:00", "brand": "Duffys"}, "geometry": {"type": "Point", "coordinates": [-80.05909, 26.85035]}},
{"type": "Feature", "id": "BIMVZBdLZAhJLRdWL0Zwuk7tNN0=", "properties": {"ref": "007", "@spider": "duffys", "addr:street_address": "21212 St. Andrews Blvd.", "addr:city": "Boca Raton", "addr:state": "FL", "addr:postcode": "33433", "addr:country": "US", "name": "St. Andrews Blvd. \u2013 Boca", "phone": "(561) 869-0552", "opening_hours": "Mo-Th 11:00-23:00; Fr-Sa 11:00-00:00; Su 11:00-23:00", "brand": "Duffys"}, "geometry": {"type": "Point", "coordinates": [-80.135767, 26.366026]}},
{"type": "Feature", "id": "79O1Hcyw4vTazxyEuUX7JP0v08I=", "properties": {"ref": "041", "@spider": "duffys", "addr:street_address": "20465 State Rd. 7", "addr:city": "Boca Raton", "addr:state": "FL", "addr:postcode": "33498", "addr:country": "US", "name": "St. Rd. 7 \u2013 West Boca", "phone": "(561) 501-3888", "opening_hours": "Mo-Th 11:00-23:00; Fr-Sa 11:00-00:00; Su 11:00-23:00", "brand": "Duffys"}, "geometry": {"type": "Point", "coordinates": [-80.204968, 26.369068]}},
{"type": "Feature", "id": "K0jay_raZhdPc874V7spkihyXCE=", "properties": {"ref": "020", "@spider": "duffys", "addr:street_address": "401 N. Federal Hwy.", "addr:city": "Deerfield Beach", "addr:state": "FL", "addr:postcode": "33441", "addr:country": "US", "name": "Deerfield Beach", "phone": "(954) 429-8820", "opening_hours": "Mo-Su 11:00-23:00", "brand": "Duffys"}, "geometry": {"type": "Point", "coordinates": [-80.091578, 26.327146]}},
{"type": "Feature", "id": "CGFTEcgmg-W-iXuFtQQxbE_cvWk=", "properties": {"ref": "003", "@spider": "duffys", "addr:street_address": "185 E. Indiantown Rd.", "addr:city": "Jupiter", "addr:state": "FL", "addr:postcode": "33477", "addr:country": "US", "name": "Jupiter East", "phone": "(561) 743-4405", "opening_hours": "Mo-Th 11:00-22:00; Fr-Sa 11:00-23:00; Su 11:00-22:00", "brand": "Duffys"}, "geometry": {"type": "Point", "coordinates": [-80.090257, 26.935047]}},
{"type": "Feature", "id": "GWbwkDo4H58WZ1Y9yHAx25CBTgA=", "properties": {"ref": "006", "@spider": "duffys", "addr:street_address": "6791 W. Indiantown Rd.", "addr:city": "Jupiter", "addr:state": "FL", "addr:postcode": "33458", "addr:country": "US", "name": "Jupiter West", "phone": "(561) 741-8900", "opening_hours": "Mo-Th 11:00-23:00; Fr-Sa 11:00-00:00; Su 11:00-23:00", "brand": "Duffys"}, "geometry": {"type": "Point", "coordinates": [-80.138707, 26.938601]}},
{"type": "Feature", "id": "BkHqAhP-F0GcZef_X5Dpgr_qne8=", "properties": {"ref": "025", "@spider": "duffys", "addr:street_address": "4800 W. Hillsboro Blvd.", "addr:city": "Coconut Creek", "addr:state": "FL", "addr:postcode": "33073", "addr:country": "US", "name": "Coconut Creek", "phone": "(954) 422-9789", "opening_hours": "Mo-Su 11:00-23:00", "brand": "Duffys"}, "geometry": {"type": "Point", "coordinates": [-80.188924, 26.321449]}},
{"type": "Feature", "id": "cm5jzDj1g6ooRiIlqFLxemoVlrY=", "properties": {"ref": "014", "@spider": "duffys", "addr:street_address": "6431 S.E. Federal Hwy.", "addr:city": "Stuart", "addr:state": "FL", "addr:postcode": "34997", "addr:country": "US", "name": "Stuart South", "phone": "(772) 781-1388", "opening_hours": "Mo-Su 11:00-23:00", "brand": "Duffys"}, "geometry": {"type": "Point", "coordinates": [-80.195076, 27.131228]}},
{"type": "Feature", "id": "PjMQyG-XDqYb69yedHc4YDtCP_k=", "properties": {"ref": "024", "@spider": "duffys", "addr:street_address": "1804 Cordova Rd.", "addr:city": "Ft. Lauderdale", "addr:state": "FL", "addr:postcode": "33316", "addr:country": "US", "name": "Ft. Lauderdale", "phone": "(954) 713-6363", "opening_hours": "Mo-Su 11:00-23:00", "brand": "Duffys"}, "geometry": {"type": "Point", "coordinates": [-80.130473, 26.098856]}},
{"type": "Feature", "id": "O-fqXt-w3f7ac835Bq-ks8F2LVo=", "properties": {"ref": "023", "@spider": "duffys", "addr:street_address": "811 S. University Dr.", "addr:city": "Plantation", "addr:state": "FL", "addr:postcode": "33324", "addr:country": "US", "name": "Plantation", "phone": "(954) 473-0477", "opening_hours": "Mo-We 11:00-23:00; Th-Sa 11:00-00:00; Su 11:00-23:00", "brand": "Duffys"}, "geometry": {"type": "Point", "coordinates": [-80.251138, 26.109801]}},
{"type": "Feature", "id": "FHChKAGXGtPoFYRMfGKrSelK5kA=", "properties": {"ref": "011", "@spider": "duffys", "addr:street_address": "1 S.W. Osceola St. ", "addr:city": "Stuart", "addr:state": "FL", "addr:postcode": "34994", "addr:country": "US", "name": "Downtown Stuart", "phone": "(772) 221-4899", "opening_hours": "Mo-Th 11:00-22:00; Fr-Sa 11:00-23:00; Su 11:00-22:00", "brand": "Duffys"}, "geometry": {"type": "Point", "coordinates": [-80.253015, 27.199013]}},
{"type": "Feature", "id": "oX4fnqDJ5nrbusfhpIdtfAkwzww=", "properties": {"ref": "030", "@spider": "duffys", "addr:street_address": "1800 Bell Tower Ln.<br />Weston Town Center", "addr:city": "Weston", "addr:state": "FL", "addr:postcode": "33326", "addr:country": "US", "name": "Weston", "phone": "(954) 389-2552", "opening_hours": "Mo-Th 11:00-23:00; Fr-Sa 11:00-00:00; Su 11:00-23:00", "brand": "Duffys"}, "geometry": {"type": "Point", "coordinates": [-80.381181, 26.100438]}},
{"type": "Feature", "id": "kEj8_ukiKtYF2DlgBeb-UoGpYQ4=", "properties": {"ref": "042", "@spider": "duffys", "addr:street_address": "3001 S.W. Port St. Lucie Blvd.", "addr:city": "Port St. Lucie", "addr:state": "FL", "addr:postcode": "34953", "addr:country": "US", "name": "Port St. Lucie South", "phone": "(772) 202-5155", "opening_hours": "Mo-Su 11:00-23:00", "brand": "Duffys"}, "geometry": {"type": "Point", "coordinates": [-80.376041, 27.254102]}},
{"type": "Feature", "id": "cBiCV502SY-FPxGmBJNi8n11CUg=", "properties": {"ref": "028", "@spider": "duffys", "addr:street_address": "3969 N.E. 163rd St.", "addr:city": "North Miami Beach", "addr:state": "FL", "addr:postcode": "33160", "addr:country": "US", "name": "North Miami Beach", "phone": "(305) 760-2124", "opening_hours": "Mo-Th 11:00-23:00; Fr-Sa 11:00-00:00; Su 11:00-23:00", "brand": "Duffys"}, "geometry": {"type": "Point", "coordinates": [-80.131279, 25.930927]}},
{"type": "Feature", "id": "YZQ7_ZDRGMuo7LgX9sd5CZvTqFk=", "properties": {"ref": "016", "@spider": "duffys", "addr:street_address": "1608 N.W. Courtyard Cir.", "addr:city": "Port St. Lucie", "addr:state": "FL", "addr:postcode": "34986", "addr:country": "US", "name": "Superplay", "phone": "(772) 924-3565", "opening_hours": "Mo-Th 11:00-23:00; Fr-Sa 11:00-00:00; Su 11:00-23:00", "brand": "Duffys"}, "geometry": {"type": "Point", "coordinates": [-80.408841, 27.315393]}},
{"type": "Feature", "id": "DbBnwASJw8_Mk6o5AYM-Awb46lE=", "properties": {"ref": "039", "@spider": "duffys", "addr:street_address": "8575 S.W. 124th Ave. ", "addr:city": "Miami", "addr:state": "FL", "addr:postcode": "33183", "addr:country": "US", "name": "Kendall", "phone": "(305) 406-0001", "opening_hours": "Mo-We 11:30-00:00; Th-Sa 11:30-02:00; Su 11:30-00:00", "brand": "Duffys"}, "geometry": {"type": "Point", "coordinates": [-80.391786, 25.688297]}},
{"type": "Feature", "id": "pRd_AkCPiYgsjUk1qw3WGOKZ3n0=", "properties": {"ref": "032", "@spider": "duffys", "addr:street_address": "21253 Stoneybrook Golf Blvd.", "addr:city": "Estero", "addr:state": "FL", "addr:postcode": "33928", "addr:country": "US", "name": "Estero", "phone": "(239) 301-0944", "opening_hours": "Mo-Su 11:00-23:00", "brand": "Duffys"}, "geometry": {"type": "Point", "coordinates": [-81.768898, 26.440116]}},
{"type": "Feature", "id": "K0nTmmepAC3_XCICHlmkfcZd-Nc=", "properties": {"ref": "037", "@spider": "duffys", "addr:street_address": "13721 S. Tamiami Trl.", "addr:city": "Ft. Myers", "addr:state": "FL", "addr:postcode": "33912", "addr:country": "US", "name": "Ft. Myers", "phone": "(239) 590-8631", "opening_hours": "Mo-Th 11:00-23:00; Fr-Sa 11:00-00:00; Su 11:00-23:00", "brand": "Duffys"}, "geometry": {"type": "Point", "coordinates": [-81.870844, 26.548054]}},
{"type": "Feature", "id": "zcn4MriGLwcqiffUgl-d5lioh8A=", "properties": {"ref": "036", "@spider": "duffys", "addr:street_address": "627 Cape Coral Pkwy. West", "addr:city": "Cape Coral", "addr:state": "FL", "addr:postcode": "33914", "addr:country": "US", "name": "Cape Coral", "phone": "(239) 205-6771", "opening_hours": "Mo-Th 11:00-23:00; Fr-Sa 11:00-00:00; Su 11:00-23:00", "brand": "Duffys"}, "geometry": {"type": "Point", "coordinates": [-81.988165, 26.562988]}},
{"type": "Feature", "id": "4utcTtGFT3zPH9fxpDIJAiQvCvw=", "properties": {"ref": "034", "@spider": "duffys", "addr:street_address": "315 N. Alafaya Trl. <br />Waterford Lakes Town Center", "addr:city": "Orlando", "addr:state": "FL", "addr:postcode": "32828", "addr:country": "US", "name": "Waterford Lakes", "phone": "(407) 207-4444", "opening_hours": "Mo-Th 11:00-23:00; Fr-Sa 11:00-00:00; Su 11:00-23:00", "brand": "Duffys"}, "geometry": {"type": "Point", "coordinates": [-81.200421, 28.554585]}},
{"type": "Feature", "id": "CmOxzObTXG5LrFS9aBtT8wcvmjs=", "properties": {"ref": "040", "@spider": "duffys", "addr:street_address": "3005 University Pkwy.", "addr:city": "Sarasota", "addr:state": "FL", "addr:postcode": "34243", "addr:country": "US", "name": "Sarasota", "phone": "(941) 777-2110", "opening_hours": "Mo-Th 11:00-23:00; Fr-Sa 11:00-00:00; Su 11:00-23:00", "brand": "Duffys"}, "geometry": {"type": "Point", "coordinates": [-82.508905, 27.389562]}},
{"type": "Feature", "id": "vgNJyJYAQr0PQP1URemWeD3_gCc=", "properties": {"ref": "035", "@spider": "duffys", "addr:street_address": "525 E. Altamonte Dr.", "addr:city": "Altamonte Springs", "addr:state": "FL", "addr:postcode": "32701", "addr:country": "US", "name": "Altamonte Springs", "phone": "(407) 636-9980", "opening_hours": "Mo-Th 11:00-23:00; Fr-Sa 11:00-00:00; Su 11:00-23:00", "brand": "Duffys"}, "geometry": {"type": "Point", "coordinates": [-81.371902, 28.664291]}},
{"type": "Feature", "id": "gioh5BMikNZwYETnNrJy-24f-Hk=", "properties": {"ref": "033", "@spider": "duffys", "addr:street_address": "951 Market Promenade Ave.<br />Colonial Town Park         ", "addr:city": "Lake Mary", "addr:state": "FL", "addr:postcode": "32746", "addr:country": "US", "name": "Lake Mary", "phone": "(407) 878-3604", "opening_hours": "Mo-Th 11:00-23:00; Fr-Sa 11:00-00:00; Su 11:00-23:00", "brand": "Duffys"}, "geometry": {"type": "Point", "coordinates": [-81.3572045, 28.7887355]}},
{"type": "Feature", "id": "lp7Nu6HEwoyTSTJ8BYf2Yc0n1WE=", "properties": {"ref": "038", "@spider": "duffys", "addr:street_address": "1580 N. Dale Mabry Hwy.", "addr:city": "Tampa", "addr:state": "FL", "addr:postcode": "33607", "addr:country": "US", "name": "Tampa", "phone": "(813) 875-7340", "opening_hours": "Mo-Su 11:00-23:00", "brand": "Duffys"}, "geometry": {"type": "Point", "coordinates": [-82.507417, 27.971769]}}]}