{"type":"FeatureCollection","features":[{"type": "Feature", "id": "Q6JywlwAQsc7cBVPymzn0Qg3LSs=", "properties": {"ref": "0995", "storeType": "HD", "@spider": "dunelm_gb", "shop": "interior_decoration", "addr:street_address": "Boulevard Retail Park", "addr:city": "Peterborough", "addr:postcode": "PE1 2HS", "addr:country": "GB", "name": "Peterborough", "phone": "01733 349848", "website": "https://www.dunelm.com/stores/peterborough", "contact:email": "Peterborough.M2M0995@dunelm.com", "opening_hours": "Mo-Fr 09:00-20:00; Sa 09:00-19:00; Su 10:30-16:30", "brand": "Dunelm", "brand:wikidata": "Q5315020", "nsi_id": "dunelm-839895"}, "geometry": {"type": "Point", "coordinates": [-0.2631189999999983, 52.596116]}},
{"type": "Feature", "id": "cydSqtIHHCDeYLQiDhqF3oXpNVo=", "properties": {"ref": "0985", "storeType": "HD", "@spider": "dunelm_gb", "shop": "interior_decoration", "addr:street_address": "Whitehall Road", "addr:city": "Leeds", "addr:postcode": "LS12 1EF", "addr:country": "GB", "name": "Leeds", "phone": "01132 444040", "website": "https://www.dunelm.com/stores/leeds", "contact:email": "Leeds.M2M0985@dunelm.com", "opening_hours": "Mo-Fr 09:00-20:00; Sa 09:00-19:00; Su 11:00-17:00", "brand": "Dunelm", "brand:wikidata": "Q5315020", "nsi_id": "dunelm-839895"}, "geometry": {"type": "Point", "coordinates": [-1.5658038854599, 53.79021979336078]}},
{"type": "Feature", "id": "2yD7YCorGm0m_SVXubDv5N1Rj20=", "properties": {"ref": "0980", "storeType": "HD", "@spider": "dunelm_gb", "shop": "interior_decoration", "addr:street_address": "Eastern Avenue", "addr:city": "West Sussex", "addr:postcode": "BN43 6PD", "addr:country": "GB", "name": "Shoreham", "phone": "01273 441105", "website": "https://www.dunelm.com/stores/shoreham", "contact:email": "Shoreham.M2M0980@dunelm.com", "opening_hours": "Mo-Fr 09:00-20:00; Sa 09:00-19:00; Su 10:30-16:30", "brand": "Dunelm", "brand:wikidata": "Q5315020", "nsi_id": "dunelm-839895"}, "geometry": {"type": "Point", "coordinates": [-0.2655011415481567, 50.83341985219838]}},
{"type": "Feature", "id": "ckfR3BZ8nahpaiWIZtfZiHJOO9k=", "properties": {"ref": "0975", "storeType": "HD", "@spider": "dunelm_gb", "shop": "interior_decoration", "addr:street_address": "Cuckoo Bridge Retail Park", "addr:city": "Dumfries", "addr:postcode": "DG2 9BF", "addr:country": "GB", "name": "Dumfries", "phone": "01387 257257", "website": "https://www.dunelm.com/stores/dumfries", "contact:email": "Dumfries.M2M0975@dunelm.com", "opening_hours": "Mo-Fr 09:00-20:00; Sa 09:00-19:00; Su 10:00-18:00", "brand": "Dunelm", "brand:wikidata": "Q5315020", "nsi_id": "dunelm-839895"}, "geometry": {"type": "Point", "coordinates": [-3.626509000000002, 55.076285]}},
{"type": "Feature", "id": "XyzIu6sOFGMxx0sCC9LFT_XWYT4=", "properties": {"ref": "0970", "storeType": "HD", "@spider": "dunelm_gb", "shop": "interior_decoration", "addr:street_address": "St Catherines Retail Park", "addr:city": "Perthshire", "addr:postcode": "PH1 5XA", "addr:country": "GB", "name": "Perth", "phone": "01738 639993", "website": "https://www.dunelm.com/stores/perth", "contact:email": "Perth.M2M0970@dunelm.com", "opening_hours": "Mo-Fr 09:00-20:00; Sa 09:00-19:00; Su 10:00-18:00", "brand": "Dunelm", "brand:wikidata": "Q5315020", "nsi_id": "dunelm-839895"}, "geometry": {"type": "Point", "coordinates": [-3.442233000000001, 56.39918500000001]}},
{"type": "Feature", "id": "BOXW_StrONhUaNmN4pZhSwa638Y=", "properties": {"ref": "0965", "storeType": "HD", "@spider": "dunelm_gb", "shop": "interior_decoration", "addr:street_address": "Sittingbourne Retail Park", "addr:city": "Sittingbourne", "addr:postcode": "ME10 2XD", "addr:country": "GB", "name": "Sittingbourne", "phone": "01795 427700", "website": "https://www.dunelm.com/stores/sittingbourne", "contact:email": "Sittingbourne.M2M0965@dunelm.com", "opening_hours": "Mo-Fr 09:00-20:00; Sa 09:00-19:00; Su 10:00-16:00", "brand": "Dunelm", "brand:wikidata": "Q5315020", "nsi_id": "dunelm-839895"}, "geometry": {"type": "Point", "coordinates": [0.7362230000000114, 51.34482100000002]}},
{"type": "Feature", "id": "2T6rzxWHZRelKfWf1fVnJKcOqmg=", "properties": {"ref": "0960", "storeType": "HD", "@spider": "dunelm_gb", "shop": "interior_decoration", "addr:street_address": "Turbary Retail Park", "addr:city": "Bournemouth", "addr:postcode": "BH11 8LL", "addr:country": "GB", "name": "Bournemouth", "phone": "01202 576666", "website": "https://www.dunelm.com/stores/bournemouth", "contact:email": "Bournemouth.M2M0960@dunelm.com", "opening_hours": "Mo-Fr 09:00-20:00; Sa 09:00-19:00; Su 10:30-16:30", "brand": "Dunelm", "brand:wikidata": "Q5315020", "nsi_id": "dunelm-839895"}, "geometry": {"type": "Point", "coordinates": [-1.927268000000006, 50.755309]}},
{"type": "Feature", "id": "LvuXDkyDdtq-dkGf_PzfBLK5BYA=", "properties": {"ref": "0955", "storeType": "HD", "@spider": "dunelm_gb", "shop": "interior_decoration", "addr:street_address": "Castlemore Retail Park", "addr:city": "Huddersfield", "addr:postcode": "HD1 5DG", "addr:country": "GB", "name": "Huddersfield", "phone": "01484 517111", "website": "https://www.dunelm.com/stores/huddersfield", "contact:email": "Huddersfield.M2M0955@dunelm.com", "opening_hours": "Mo-Fr 09:00-20:00; Sa 09:00-19:00; Su 10:30-16:30", "brand": "Dunelm", "brand:wikidata": "Q5315020", "nsi_id": "dunelm-839895"}, "geometry": {"type": "Point", "coordinates": [-1.78367699999999, 53.652015]}},
{"type": "Feature", "id": "ZA157hmXysoVILL6aQ9IpIENp3E=", "properties": {"ref": "0950", "storeType": "HD", "@spider": "dunelm_gb", "shop": "interior_decoration", "addr:street_address": "West Swansea Retail Park", "addr:city": "Swansea", "addr:postcode": "SA5 4BA", "addr:country": "GB", "name": "Swansea", "phone": "01792 586699", "website": "https://www.dunelm.com/stores/swansea", "contact:email": "Swansea.M2M0950@dunelm.com", "opening_hours": "Mo-Fr 09:00-20:00; Sa 09:00-19:00; Su 11:00-17:00", "brand": "Dunelm", "brand:wikidata": "Q5315020", "nsi_id": "dunelm-839895"}, "geometry": {"type": "Point", "coordinates": [-3.986808657646179, 51.65152508202538]}},
{"type": "Feature", "id": "4lbNPJARTwLzRt-MC1286qURNU0=", "properties": {"ref": "0945", "storeType": "HD", "@spider": "dunelm_gb", "shop": "interior_decoration", "addr:street_address": "St Helens Retail Park", "addr:city": "St Helens", "addr:postcode": "WA9 1JJ", "addr:country": "GB", "name": "St Helens", "phone": "01744 616777", "website": "https://www.dunelm.com/stores/st-helens", "contact:email": "StHelens.M2M0945@dunelm.com", "opening_hours": "Mo-Fr 09:00-20:00; Sa 09:00-19:00; Su 10:30-16:30", "brand": "Dunelm", "brand:wikidata": "Q5315020", "nsi_id": "dunelm-839895"}, "geometry": {"type": "Point", "coordinates": [-2.725312113761901, 53.44901129763844]}},
{"type": "Feature", "id": "2Jyzpi0oHbjwbT7B7p0xePqj6TM=", "properties": {"ref": "0940", "storeType": "HD", "@spider": "dunelm_gb", "shop": "interior_decoration", "addr:street_address": "Bolton Gate Retail Park", "addr:city": "Bolton", "addr:postcode": "BL1 2SL", "addr:country": "GB", "name": "Bolton", "phone": "01204 521666", "website": "https://www.dunelm.com/stores/bolton", "contact:email": "Bolton.M2M0940@dunelm.com", "opening_hours": "Mo-Fr 09:00-20:00; Sa 09:00-19:00; Su 11:00-17:00", "brand": "Dunelm", "brand:wikidata": "Q5315020", "nsi_id": "dunelm-839895"}, "geometry": {"type": "Point", "coordinates": [-2.422934000000001, 53.58599499999999]}},
{"type": "Feature", "id": "QqvNTBd033VpB-7HAP8Yx1yXt-E=", "properties": {"ref": "0935", "storeType": "HD", "@spider": "dunelm_gb", "shop": "interior_decoration", "addr:street_address": "Elgar Retail Park", "addr:city": "Worcester", "addr:postcode": "WR3 8HP", "addr:country": "GB", "name": "Worcester", "phone": "01905 458200", "website": "https://www.dunelm.com/stores/worcester", "contact:email": "Worcester.M2M0935@dunelm.com", "opening_hours": "Mo-Fr 09:00-20:00; Sa 09:00-19:00; Su 10:30-16:30", "brand": "Dunelm", "brand:wikidata": "Q5315020", "nsi_id": "dunelm-839895"}, "geometry": {"type": "Point", "coordinates": [-2.199990999999999, 52.21104200000001]}},
{"type": "Feature", "id": "70QCixkyAHwAHQ-jiM51SEInSPs=", "properties": {"ref": "0930", "storeType": "HD", "@spider": "dunelm_gb", "shop": "interior_decoration", "addr:street_address": "Boulevard Retail Park", "addr:city": "Aberdeen", "addr:postcode": "AB24 5EZ", "addr:country": "GB", "name": "Aberdeen", "phone": "01224 595779", "website": "https://www.dunelm.com/stores/aberdeen", "contact:email": "Aberdeen.M2M0930@dunelm.com", "opening_hours": "Mo-Fr 09:00-20:00; Sa 09:00-19:00; Su 10:00-18:00", "brand": "Dunelm", "brand:wikidata": "Q5315020", "nsi_id": "dunelm-839895"}, "geometry": {"type": "Point", "coordinates": [-2.079840000000008, 57.14864000000002]}},
{"type": "Feature", "id": "65VyRhspcx29f1fJeUqG7bv1jhI=", "properties": {"ref": "0920", "storeType": "HD", "@spider": "dunelm_gb", "shop": "interior_decoration", "addr:street_address": "Ravenside Retail Park", "addr:city": "Erdington", "addr:postcode": "B24 9QB", "addr:country": "GB", "name": "Birmingham Erdington", "phone": "0121 3503644", "website": "https://www.dunelm.com/stores/birmingham-erdington", "contact:email": "ErdingtonBirmingham.M2M0920@dunelm.com", "opening_hours": "Mo-Fr 09:00-21:00; Sa 09:00-19:00; Su 10:30-16:30", "brand": "Dunelm", "brand:wikidata": "Q5315020", "nsi_id": "dunelm-839895"}, "geometry": {"type": "Point", "coordinates": [-1.802632212638855, 52.51783999920608]}},
{"type": "Feature", "id": "dllyifDqOxN3myewyyR_Vi66MDQ=", "properties": {"ref": "0915", "storeType": "HD", "@spider": "dunelm_gb", "shop": "interior_decoration", "addr:street_address": "Friary Retail Park", "addr:city": "Plymouth", "addr:postcode": "PL4 0HH", "addr:country": "GB", "name": "Plymouth", "phone": "01752 229900", "website": "https://www.dunelm.com/stores/plymouth", "contact:email": "Plymouth.M2M0915@dunelm.com", "opening_hours": "Mo-Fr 09:00-20:00; Sa 09:00-19:00; Su 11:00-17:00", "brand": "Dunelm", "brand:wikidata": "Q5315020", "nsi_id": "dunelm-839895"}, "geometry": {"type": "Point", "coordinates": [-4.128284000000002, 50.37174800000001]}},
{"type": "Feature", "id": "RaKqtCEaG52iVb6l1BZ2AyDkgn8=", "properties": {"ref": "0910", "storeType": "HD", "@spider": "dunelm_gb", "shop": "interior_decoration", "addr:street_address": "Roebuck Retail Park", "addr:city": "Hertfordshire", "addr:postcode": "SG1 1XZ", "addr:country": "GB", "name": "Stevenage", "phone": "01438 360000", "website": "https://www.dunelm.com/stores/stevenage", "contact:email": "Stevenage.M2M0910@dunelm.com", "opening_hours": "Mo-Fr 09:00-20:00; Sa 09:00-19:00; Su 11:00-17:00", "brand": "Dunelm", "brand:wikidata": "Q5315020", "nsi_id": "dunelm-839895"}, "geometry": {"type": "Point", "coordinates": [-0.1973247528076172, 51.8910339127872]}},
{"type": "Feature", "id": "Q5t3PHLFHetSuw3XmDURVtt8E6E=", "properties": {"ref": "0905", "storeType": "HD", "@spider": "dunelm_gb", "shop": "interior_decoration", "addr:street_address": "Faustina Retail Park", "addr:city": "Londonderry", "addr:postcode": "BT48 8QN", "addr:country": "GB", "name": "Londonderry", "phone": "02871 363888", "website": "https://www.dunelm.com/stores/londonderry", "contact:email": "Londonderry.M2M0905@dunelm.com", "opening_hours": "Mo-Fr 09:00-21:00; Sa 09:00-19:00; Su 13:00-18:00", "brand": "Dunelm", "brand:wikidata": "Q5315020", "nsi_id": "dunelm-839895"}, "geometry": {"type": "Point", "coordinates": [-7.335020899772644, 55.02244412062402]}},
{"type": "Feature", "id": "Vm6vcTuATc68Wrqnv-H9kd9YpKc=", "properties": {"ref": "0900", "storeType": "HD", "@spider": "dunelm_gb", "shop": "interior_decoration", "addr:street_address": "Turner Rise Retail Park", "addr:city": "Colchester", "addr:postcode": "CO4 5TU", "addr:country": "GB", "name": "Colchester", "phone": "01206 577722", "website": "https://www.dunelm.com/stores/colchester", "contact:email": "Colchester.M2M0900@dunelm.com", "opening_hours": "Mo-Fr 09:00-20:00; Sa 09:00-19:00; Su 10:30-16:30", "brand": "Dunelm", "brand:wikidata": "Q5315020", "nsi_id": "dunelm-839895"}, "geometry": {"type": "Point", "coordinates": [0.9006829000000093, 51.90023060000001]}},
{"type": "Feature", "id": "zXQHzQMwDzzNn6psPIYnPPEv8lM=", "properties": {"ref": "0895", "storeType": "HD", "@spider": "dunelm_gb", "shop": "interior_decoration", "addr:street_address": "Derwent Drive Retail Park", "addr:city": "Cumbria", "addr:postcode": "CA14 3YW", "addr:country": "GB", "name": "Workington", "phone": "01900606000", "website": "https://www.dunelm.com/stores/workington", "contact:email": "Workington.M2M0895@dunelm.com", "opening_hours": "Mo-Fr 09:00-20:00; Sa 09:00-19:00; Su 10:30-16:30", "brand": "Dunelm", "brand:wikidata": "Q5315020", "nsi_id": "dunelm-839895"}, "geometry": {"type": "Point", "coordinates": [-3.564705000000006, 54.64251000000001]}},
{"type": "Feature", "id": "1ZBwJmSCD63lv8vhPwYwiVkEZCE=", "properties": {"ref": "0890", "storeType": "HD", "@spider": "dunelm_gb", "shop": "interior_decoration", "addr:street_address": "Unit 1", "addr:city": "Wrexham", "addr:postcode": "LL13 7SU", "addr:country": "GB", "name": "Wrexham", "phone": "01978 266956", "website": "https://www.dunelm.com/stores/wrexham", "contact:email": "Wrexham.M2M0890@dunelm.com", "opening_hours": "Mo-Fr 09:00-20:00; Sa 09:00-19:00; Su 11:00-17:00", "brand": "Dunelm", "brand:wikidata": "Q5315020", "nsi_id": "dunelm-839895"}, "geometry": {"type": "Point", "coordinates": [-3.001713752746582, 53.0478050598699]}},
{"type": "Feature", "id": "D9KWwx2TQJzpmSrTdj8HlTTOKfE=", "properties": {"ref": "0885", "storeType": "HD", "@spider": "dunelm_gb", "shop": "interior_decoration", "addr:street_address": "Parc Pemberton Retail Park", "addr:city": "Carmarthenshire", "addr:postcode": "SA14 9UZ", "addr:country": "GB", "name": "Llanelli", "phone": "01554 755700", "website": "https://www.dunelm.com/stores/llanelli", "contact:email": "Llanelli.M2M0885@dunelm.com", "opening_hours": "Mo-Fr 09:00-20:00; Sa 09:00-19:00; Su 10:30-16:30", "brand": "Dunelm", "brand:wikidata": "Q5315020", "nsi_id": "dunelm-839895"}, "geometry": {"type": "Point", "coordinates": [-4.130132496356964, 51.67912836883516]}},
{"type": "Feature", "id": "77vcfC9wWT_8Ac7BN2r9bsFcTkI=", "properties": {"ref": "0880", "storeType": "HD", "@spider": "dunelm_gb", "shop": "interior_decoration", "addr:street_address": "Shore Road", "addr:city": "Northern Ireland", "addr:postcode": "BT36 7BS", "addr:country": "GB", "name": "Newtownabbey", "phone": "02890 861112", "website": "https://www.dunelm.com/stores/newtownabbey", "contact:email": "Newtownabbey.M2M0880@dunelm.com", "opening_hours": "Mo-Fr 09:00-21:00; Sa 09:00-19:00; Su 13:00-18:00", "brand": "Dunelm", "brand:wikidata": "Q5315020", "nsi_id": "dunelm-839895"}, "geometry": {"type": "Point", "coordinates": [-5.916459560394287, 54.65241001367244]}},
{"type": "Feature", "id": "UaehHHSDDFQZPRIJhJ-wafABbyQ=", "properties": {"ref": "0875", "storeType": "HD", "@spider": "dunelm_gb", "shop": "interior_decoration", "addr:street_address": "Sprowston Retail Park", "addr:city": "Norfolk", "addr:postcode": "NR7 9AZ", "addr:country": "GB", "name": "Norwich", "phone": "01603 418800", "website": "https://www.dunelm.com/stores/norwich", "contact:email": "Norwich.M2M0875@dunelm.com", "opening_hours": "Mo-Fr 09:00-20:00; Sa 09:00-19:00; Su 10:30-16:30", "brand": "Dunelm", "brand:wikidata": "Q5315020", "nsi_id": "dunelm-839895"}, "geometry": {"type": "Point", "coordinates": [1.323552131652832, 52.6471385243232]}},
{"type": "Feature", "id": "sgH8x9CLGoHw76oH9q-6bkGsEec=", "properties": {"ref": "0870", "storeType": "HD", "@spider": "dunelm_gb", "shop": "interior_decoration", "addr:street_address": "Pincents Lane", "addr:city": "Reading", "addr:postcode": "RG31 7SD", "addr:country": "GB", "name": "Reading", "phone": "01189 304132", "website": "https://www.dunelm.com/stores/reading", "contact:email": "Reading.M2M0870@dunelm.com", "opening_hours": "Mo-Fr 09:00-20:00; Sa 09:00-19:00; Su 10:30-16:30", "brand": "Dunelm", "brand:wikidata": "Q5315020", "nsi_id": "dunelm-839895"}, "geometry": {"type": "Point", "coordinates": [-1.065484000000001, 51.44028599999999]}},
{"type": "Feature", "id": "A9QdHeR9uNmmRvmhyxywOrLJZwM=", "properties": {"ref": "0865", "storeType": "HD", "@spider": "dunelm_gb", "shop": "interior_decoration", "addr:street_address": "Westwood Retail Park", "addr:city": "Broadstairs", "addr:postcode": "CT10 2QU", "addr:country": "GB", "name": "Broadstairs", "phone": "01843 860555", "website": "https://www.dunelm.com/stores/broadstairs", "contact:email": "Broadstairs.M2M0865@dunelm.com", "opening_hours": "Mo-Fr 09:00-20:00; Sa 09:00-19:00; Su 10:00-16:00", "brand": "Dunelm", "brand:wikidata": "Q5315020", "nsi_id": "dunelm-839895"}, "geometry": {"type": "Point", "coordinates": [1.396231000000001, 51.362186]}},
{"type": "Feature", "id": "nFw-vJVURDtQUc7gSVl-gEYXk9w=", "properties": {"ref": "0860", "storeType": "HD", "@spider": "dunelm_gb", "shop": "interior_decoration", "addr:street_address": "Link Retail Park", "addr:city": "Kirkcaldy", "addr:postcode": "KY1 1QE", "addr:country": "GB", "name": "Kirkcaldy", "phone": "01592 641319", "website": "https://www.dunelm.com/stores/kirkcaldy", "contact:email": "Kirkcaldy.M2M0860@dunelm.com", "opening_hours": "Mo-We 09:00-18:00; Th-Fr 09:00-20:00; Sa 09:00-18:00; Su 10:00-18:00", "brand": "Dunelm", "brand:wikidata": "Q5315020", "nsi_id": "dunelm-839895"}, "geometry": {"type": "Point", "coordinates": [-3.159281, 56.10618800000001]}},
{"type": "Feature", "id": "GcbKpKZfvzff7OiTqDOgRcqrtnM=", "properties": {"ref": "0855", "storeType": "HD", "@spider": "dunelm_gb", "shop": "interior_decoration", "addr:street_address": "Priory Fields Retail Park", "addr:city": "Somerset", "addr:postcode": "TA1 1QS", "addr:country": "GB", "name": "Taunton", "phone": "01823 354000", "website": "https://www.dunelm.com/stores/taunton", "contact:email": "Taunton.M2M0855@dunelm.com", "opening_hours": "Mo-Fr 09:00-20:00; Sa 09:00-19:00; Su 11:00-17:00", "brand": "Dunelm", "brand:wikidata": "Q5315020", "nsi_id": "dunelm-839895"}, "geometry": {"type": "Point", "coordinates": [-3.103583399999994, 51.01947399999999]}},
{"type": "Feature", "id": "_0O0aUyt6jDJGPA5uGk5rfOn7ZY=", "properties": {"ref": "0850", "storeType": "HD", "@spider": "dunelm_gb", "shop": "interior_decoration", "addr:street_address": "Shane Retail Park", "addr:city": "Belfast", "addr:postcode": "BT12 6HR", "addr:country": "GB", "name": "Belfast", "phone": "02890 667250", "website": "https://www.dunelm.com/stores/belfast", "contact:email": "Belfast.M2M0850@dunelm.com", "opening_hours": "Mo-Fr 09:00-21:00; Sa 09:00-18:00; Su 13:00-18:00", "brand": "Dunelm", "brand:wikidata": "Q5315020", "nsi_id": "dunelm-839895"}, "geometry": {"type": "Point", "coordinates": [-5.973650000000006, 54.57324000000001]}},
{"type": "Feature", "id": "pv-ofbHuWxNUKJ84mBrTUc8R-fM=", "properties": {"ref": "0845", "storeType": "HD", "@spider": "dunelm_gb", "shop": "interior_decoration", "addr:street_address": "Parc Plaza", "addr:city": "Bridgend", "addr:postcode": "CF31 3XX", "addr:country": "GB", "name": "Bridgend", "phone": "01656 818500", "website": "https://www.dunelm.com/stores/bridgend", "contact:email": "Bridgend.M2M0845@dunelm.com", "opening_hours": "Mo-Fr 09:00-20:00; Sa 09:00-19:00; Su 11:00-17:00", "brand": "Dunelm", "brand:wikidata": "Q5315020", "nsi_id": "dunelm-839895"}, "geometry": {"type": "Point", "coordinates": [-3.561699986457824, 51.49466395353981]}},
{"type": "Feature", "id": "JxsYXiITM8SbWxOTk6EgbGMLEfA=", "properties": {"ref": "0840", "storeType": "HD", "@spider": "dunelm_gb", "shop": "interior_decoration", "addr:street_address": "Marshall Road", "addr:city": "East Sussex", "addr:postcode": "BN23 6QU", "addr:country": "GB", "name": "Eastbourne", "phone": "01323 500515", "website": "https://www.dunelm.com/stores/eastbourne", "contact:email": "Eastbourne.M2M0840@dunelm.com", "opening_hours": "Mo-Fr 09:00-20:00; Sa 09:00-19:00; Su 10:30-16:30", "brand": "Dunelm", "brand:wikidata": "Q5315020", "nsi_id": "dunelm-839895"}, "geometry": {"type": "Point", "coordinates": [0.2862077951431274, 50.794732695986]}},
{"type": "Feature", "id": "mQ9L83qJEiE-jxAJ86jU9i1bqS0=", "properties": {"ref": "0835", "storeType": "HD", "@spider": "dunelm_gb", "shop": "interior_decoration", "addr:street_address": "Winterhill Retail Park", "addr:city": "Winterhill", "addr:postcode": "MK6 1AJ", "addr:country": "GB", "name": "Milton Keynes", "phone": "01908 696325", "website": "https://www.dunelm.com/stores/milton-keynes", "contact:email": "MiltonKeynes.M2M0835@dunelm.com", "opening_hours": "Mo-Fr 09:00-20:00; Sa 09:00-19:00; Su 10:30-16:30", "brand": "Dunelm", "brand:wikidata": "Q5315020", "nsi_id": "dunelm-839895"}, "geometry": {"type": "Point", "coordinates": [-0.7651079999999988, 52.03048500000001]}},
{"type": "Feature", "id": "GnMxkD87upsp7mxxRdjv1BX0-qw=", "properties": {"ref": "0830", "storeType": "HD", "@spider": "dunelm_gb", "shop": "interior_decoration", "addr:street_address": "Trafford Retail Park", "addr:city": "Urmston", "addr:postcode": "M41 7FN", "addr:country": "GB", "name": "Manchester Trafford", "phone": "0161 7474096", "website": "https://www.dunelm.com/stores/manchester-trafford", "contact:email": "Trafford.M2M0830@dunelm.com", "opening_hours": "Mo-Fr 09:00-20:00; Sa 09:00-19:00; Su 11:00-17:00", "brand": "Dunelm", "brand:wikidata": "Q5315020", "nsi_id": "dunelm-839895"}, "geometry": {"type": "Point", "coordinates": [-2.359312000000002, 53.464407]}},
{"type": "Feature", "id": "HMcMqpKX6VnyfV8O6nvJOu3wqa4=", "properties": {"ref": "0825", "storeType": "HD", "@spider": "dunelm_gb", "shop": "interior_decoration", "addr:street_address": "Dearsley Road", "addr:city": "Enfield", "addr:postcode": "EN1 3RR", "addr:country": "GB", "name": "Enfield", "phone": "02035 357970", "website": "https://www.dunelm.com/stores/enfield", "contact:email": "Enfield.M2M0825@dunelm.com", "opening_hours": "Mo-Fr 09:00-21:00; Sa 09:00-19:00; Su 11:00-17:00", "brand": "Dunelm", "brand:wikidata": "Q5315020", "nsi_id": "dunelm-839895"}, "geometry": {"type": "Point", "coordinates": [-0.05915659999999434, 51.65046659999999]}},
{"type": "Feature", "id": "70qs-Gy87P6Gt_8fdb0hwTF3TGM=", "properties": {"ref": "0820", "storeType": "HD", "@spider": "dunelm_gb", "shop": "interior_decoration", "addr:street_address": "Sticker Lane", "addr:city": "West Yorkshire", "addr:postcode": "BD4 8DN", "addr:country": "GB", "name": "Bradford", "phone": "01274 669966", "website": "https://www.dunelm.com/stores/bradford", "contact:email": "Bradford.M2M0820@dunelm.com", "opening_hours": "Mo-Fr 09:00-20:00; Sa 09:00-19:00; Su 10:30-16:30", "brand": "Dunelm", "brand:wikidata": "Q5315020", "nsi_id": "dunelm-839895"}, "geometry": {"type": "Point", "coordinates": [-1.730019450187683, 53.78846413363107]}},
{"type": "Feature", "id": "Jdzl8sHuoyDiDRl8_WXox0FaspY=", "properties": {"ref": "0815", "storeType": "HD", "@spider": "dunelm_gb", "shop": "interior_decoration", "addr:street_address": "Centrum Retail Park", "addr:city": "Gloucestershire", "addr:postcode": "GL51 9FD", "addr:country": "GB", "name": "Cheltenham", "phone": "01242 571555", "website": "https://www.dunelm.com/stores/cheltenham", "contact:email": "Cheltenham.M2M0815@dunelm.com", "opening_hours": "Mo-Fr 09:00-20:00; Sa 09:00-19:00; Su 10:30-16:30", "brand": "Dunelm", "brand:wikidata": "Q5315020", "nsi_id": "dunelm-839895"}, "geometry": {"type": "Point", "coordinates": [-2.097311000000002, 51.914137]}},
{"type": "Feature", "id": "MH_5CG9HPJvGfXjutiBuueNymH0=", "properties": {"ref": "0810", "storeType": "HD", "@spider": "dunelm_gb", "shop": "interior_decoration", "addr:street_address": "Westgate Retail Park", "addr:city": "Gloucester", "addr:postcode": "GL1 2TF", "addr:country": "GB", "name": "Gloucester", "phone": "0145 2305406", "website": "https://www.dunelm.com/stores/gloucester", "contact:email": "Gloucester.M2M0810@dunelm.com", "opening_hours": "Mo-Fr 09:00-20:00; Sa 09:00-19:00; Su 10:30-16:30", "brand": "Dunelm", "brand:wikidata": "Q5315020", "nsi_id": "dunelm-839895"}, "geometry": {"type": "Point", "coordinates": [-2.255383729934692, 51.86887325396096]}},
{"type": "Feature", "id": "LaUmnMAJeLnPNCADTtr_LHAIM_I=", "properties": {"ref": "0805", "storeType": "HD", "@spider": "dunelm_gb", "shop": "interior_decoration", "addr:street_address": "St Edmundsbury Retail Park", "addr:city": "Bury St Edmunds", "addr:postcode": "IP32 7BY", "addr:country": "GB", "name": "Bury St Edmunds", "phone": "01284 330258", "website": "https://www.dunelm.com/stores/bury-st-edmunds", "contact:email": "BuryStEdmunds.M2M0805@dunelm.com", "opening_hours": "Mo-Fr 09:00-20:00; Sa 09:00-19:00; Su 10:30-16:30", "brand": "Dunelm", "brand:wikidata": "Q5315020", "nsi_id": "dunelm-839895"}, "geometry": {"type": "Point", "coordinates": [0.7408314943313599, 52.23906182451085]}},
{"type": "Feature", "id": "zXiFHEMKTx0wSXyXuja-0RiVeoA=", "properties": {"ref": "0800", "storeType": "HD", "@spider": "dunelm_gb", "shop": "interior_decoration", "addr:street_address": "Unit 3", "addr:city": "Canterbury", "addr:postcode": "CT1 3TT", "addr:country": "GB", "name": "Canterbury", "phone": "01227 780576", "website": "https://www.dunelm.com/stores/canterbury", "contact:email": "Canterbury.M2M0800@dunelm.com", "opening_hours": "Mo-Fr 09:00-20:00; Sa 09:00-19:00; Su 10:00-16:00", "brand": "Dunelm", "brand:wikidata": "Q5315020", "nsi_id": "dunelm-839895"}, "geometry": {"type": "Point", "coordinates": [1.064056000000013, 51.26916099999998]}},
{"type": "Feature", "id": "n72rrYaYtypX79aTG7zjxE4Qg3M=", "properties": {"ref": "0795", "storeType": "HD", "@spider": "dunelm_gb", "shop": "interior_decoration", "addr:street_address": "Lancaster City Retail Park", "addr:city": "Lancaster", "addr:postcode": "LA3 3FE", "addr:country": "GB", "name": "Lancaster", "phone": "01524 68666", "website": "https://www.dunelm.com/stores/lancaster", "contact:email": "Lancaster.M2M0795@dunelm.com", "opening_hours": "Mo-Fr 09:00-20:00; Sa 09:00-19:00; Su 10:30-16:30", "brand": "Dunelm", "brand:wikidata": "Q5315020", "nsi_id": "dunelm-839895"}, "geometry": {"type": "Point", "coordinates": [-2.845539450645447, 54.05421122336619]}},
{"type": "Feature", "id": "SMdQ3BZpb0G6IVyUggrjyCw3Dtw=", "properties": {"ref": "0790", "storeType": "HD", "@spider": "dunelm_gb", "shop": "interior_decoration", "addr:street_address": "Forge Street", "addr:city": "Cheshire", "addr:postcode": "CW1 2DU", "addr:country": "GB", "name": "Crewe", "phone": "01270 848648", "website": "https://www.dunelm.com/stores/crewe", "contact:email": "Crewe.M2M0790@dunelm.com", "opening_hours": "Mo-Fr 09:00-20:00; Sa 09:00-19:00; Su 11:00-17:00", "brand": "Dunelm", "brand:wikidata": "Q5315020", "nsi_id": "dunelm-839895"}, "geometry": {"type": "Point", "coordinates": [-2.438798546791076, 53.09555739152933]}},
{"type": "Feature", "id": "mtN5tDCSarlXkKmjQIEk0LpQTyc=", "properties": {"ref": "0785", "storeType": "HD", "@spider": "dunelm_gb", "shop": "interior_decoration", "addr:street_address": "Kingsway West Retail Park", "addr:city": "Dundee", "addr:postcode": "DD3 8RX", "addr:country": "GB", "name": "Dundee", "phone": "01382 816111", "website": "https://www.dunelm.com/stores/dundee", "contact:email": "Dundee.M2M0785@dunelm.com", "opening_hours": "Mo-Fr 09:00-20:00; Sa 09:00-19:00; Su 10:00-18:00", "brand": "Dunelm", "brand:wikidata": "Q5315020", "nsi_id": "dunelm-839895"}, "geometry": {"type": "Point", "coordinates": [-2.993626, 56.480405]}},
{"type": "Feature", "id": "XAaO9Ne52zC4C44Oj_TsHDWFyhc=", "properties": {"ref": "0780", "storeType": "HD", "@spider": "dunelm_gb", "shop": "interior_decoration", "addr:street_address": "London Road Retail Park", "addr:city": "Maidstone", "addr:postcode": "ME16 0DT", "addr:country": "GB", "name": "Maidstone", "phone": "01622 757379", "website": "https://www.dunelm.com/stores/maidstone", "contact:email": "Maidstone.M2M0780@dunelm.com", "opening_hours": "Mo-Fr 09:00-20:00; Sa 09:00-19:00; Su 10:30-16:30", "brand": "Dunelm", "brand:wikidata": "Q5315020", "nsi_id": "dunelm-839895"}, "geometry": {"type": "Point", "coordinates": [0.5088955163955688, 51.27857521180714]}},
{"type": "Feature", "id": "ClFhPsjsxEDNkdOrgrcpHeHHH7Y=", "properties": {"ref": "0775", "storeType": "HD", "@spider": "dunelm_gb", "shop": "interior_decoration", "addr:street_address": "Spur Retail Park", "addr:city": "Hereford", "addr:postcode": "HR4 9SB", "addr:country": "GB", "name": "Hereford", "phone": "01432 264265", "website": "https://www.dunelm.com/stores/hereford", "contact:email": "Hereford.m2m0775@dunelm.com", "opening_hours": "Mo-Fr 09:00-20:00; Sa 09:00-19:00; Su 10:30-16:30", "brand": "Dunelm", "brand:wikidata": "Q5315020", "nsi_id": "dunelm-839895"}, "geometry": {"type": "Point", "coordinates": [-2.72186279296875, 52.07275365395317]}},
{"type": "Feature", "id": "1i_7kWot9Wj-6tETy52qysG0uSo=", "properties": {"ref": "0765", "storeType": "HD", "@spider": "dunelm_gb", "shop": "interior_decoration", "addr:street_address": "Alban Park Estate", "addr:city": "St Albans", "addr:postcode": "AL4 0JJ", "addr:country": "GB", "name": "St Albans", "phone": "01727 853777", "website": "https://www.dunelm.com/stores/st-albans", "contact:email": "StAlbans.M2M0765@dunelm.com", "opening_hours": "Mo-Fr 09:00-20:00; Sa 09:00-19:00; Su 11:00-17:00", "brand": "Dunelm", "brand:wikidata": "Q5315020", "nsi_id": "dunelm-839895"}, "geometry": {"type": "Point", "coordinates": [-0.2813905477523804, 51.74982988017128]}},
{"type": "Feature", "id": "agImP2MMg_SDgPiObrIUzgkuzfw=", "properties": {"ref": "0755", "storeType": "HD", "@spider": "dunelm_gb", "shop": "interior_decoration", "addr:street_address": "Hollywood Retail Park", "addr:city": "Cumbria", "addr:postcode": "LA14 2NE", "addr:country": "GB", "name": "Barrow in Furness", "phone": "01229 838999", "website": "https://www.dunelm.com/stores/barrow-in-furness", "contact:email": "BarrowInFurness.M2M0755@dunelm.com", "opening_hours": "Mo-Fr 09:00-20:00; Sa 09:00-19:00; Su 10:30-16:30", "brand": "Dunelm", "brand:wikidata": "Q5315020", "nsi_id": "dunelm-839895"}, "geometry": {"type": "Point", "coordinates": [-3.23821485042572, 54.11520695894148]}},
{"type": "Feature", "id": "wF6nbMdJ5DvVaYnlLS8xDyIHkZw=", "properties": {"ref": "0750", "storeType": "HD", "@spider": "dunelm_gb", "shop": "interior_decoration", "addr:street_address": "Bridge Park Retail Park", "addr:city": "Ballymena", "addr:postcode": "BT42 3HA", "addr:country": "GB", "name": "Ballymena", "phone": "02825 654665", "website": "https://www.dunelm.com/stores/ballymena", "contact:email": "Ballymena.M2M0750@dunelm.com", "opening_hours": "Mo-Fr 09:00-21:00; Sa 09:00-19:00; Su 12:30-18:00", "brand": "Dunelm", "brand:wikidata": "Q5315020", "nsi_id": "dunelm-839895"}, "geometry": {"type": "Point", "coordinates": [-6.260678172111511, 54.85539778134628]}},
{"type": "Feature", "id": "TzolYeAEKQ9SwSyyiY3JGaS1c_4=", "properties": {"ref": "0745", "storeType": "HD", "@spider": "dunelm_gb", "shop": "interior_decoration", "addr:street_address": "Southampton Road", "addr:city": "Hampshire", "addr:postcode": "PO14 4QL", "addr:country": "GB", "name": "Fareham", "phone": "01489 661500", "website": "https://www.dunelm.com/stores/fareham", "contact:email": "Fareham.M2M0745@dunelm.com", "opening_hours": "Mo-Fr 09:00-20:00; Sa 09:00-19:00; Su 10:30-16:30", "brand": "Dunelm", "brand:wikidata": "Q5315020", "nsi_id": "dunelm-839895"}, "geometry": {"type": "Point", "coordinates": [-1.252961754798889, 50.86071272683846]}},
{"type": "Feature", "id": "B9rIz5G0Hq04u24PyZMYCBZx464=", "properties": {"ref": "0740", "storeType": "HD", "@spider": "dunelm_gb", "shop": "interior_decoration", "addr:street_address": "Castle Fields Retail Park", "addr:city": "Wellingborough", "addr:postcode": "NN8 2DP", "addr:country": "GB", "name": "Wellingborough", "phone": "01933 225255", "website": "https://www.dunelm.com/stores/wellingborough", "contact:email": "Wellingborough.M2M0740@dunelm.com", "opening_hours": "Mo-Fr 09:00-20:00; Sa 09:00-19:00; Su 10:30-16:30", "brand": "Dunelm", "brand:wikidata": "Q5315020", "nsi_id": "dunelm-839895"}, "geometry": {"type": "Point", "coordinates": [-0.6861800000000029, 52.29249999999999]}},
{"type": "Feature", "id": "zZzjEmbuR_9KLm8DkjduVhUgar0=", "properties": {"ref": "0735", "storeType": "HD", "@spider": "dunelm_gb", "shop": "interior_decoration", "addr:street_address": "Bridge Retail Park", "addr:city": "Torquay", "addr:postcode": "TQ2 7PY", "addr:country": "GB", "name": "Torquay", "phone": "01803 615645", "website": "https://www.dunelm.com/stores/torquay", "contact:email": "Torquay.M2M0735@dunelm.com", "opening_hours": "Mo-Fr 09:00-20:00; Sa 09:00-19:00; Su 11:00-17:00", "brand": "Dunelm", "brand:wikidata": "Q5315020", "nsi_id": "dunelm-839895"}, "geometry": {"type": "Point", "coordinates": [-3.547895799999994, 50.48355230000001]}},
{"type": "Feature", "id": "h7w2E0rVLPbsBhb3EMXAixllAuQ=", "properties": {"ref": "0730", "storeType": "HD", "@spider": "dunelm_gb", "shop": "interior_decoration", "addr:street_address": "St Marys Way", "addr:city": "Stockport", "addr:postcode": "SK1 2HU", "addr:country": "GB", "name": "Stockport", "phone": "01614 779390", "website": "https://www.dunelm.com/stores/stockport", "contact:email": "Stockport.M2M0730@dunelm.com", "opening_hours": "Mo-Fr 09:00-20:00; Sa 09:00-19:00; Su 11:00-17:00", "brand": "Dunelm", "brand:wikidata": "Q5315020", "nsi_id": "dunelm-839895"}, "geometry": {"type": "Point", "coordinates": [-2.147397994995117, 53.41421300333867]}},
{"type": "Feature", "id": "EUjGRFsbCzjMeyb0Mm2w0hVKWeY=", "properties": {"ref": "0725", "storeType": "HD", "@spider": "dunelm_gb", "shop": "interior_decoration", "addr:street_address": "Dartford Heath Retail Park", "addr:city": "Dartford", "addr:postcode": "DA1 2DS", "addr:country": "GB", "name": "Dartford", "phone": "01322 470049", "website": "https://www.dunelm.com/stores/dartford", "contact:email": "Dartford.M2M0725@dunelm.com", "opening_hours": "Mo-Fr 09:00-20:00; Sa 09:00-19:00; Su 10:30-16:30", "brand": "Dunelm", "brand:wikidata": "Q5315020", "nsi_id": "dunelm-839895"}, "geometry": {"type": "Point", "coordinates": [0.2023363000000122, 51.4389737]}},
{"type": "Feature", "id": "sN5QoiP7eBUZpNniGz3XZRUPx8Y=", "properties": {"ref": "0715", "storeType": "HD", "@spider": "dunelm_gb", "shop": "interior_decoration", "addr:street_address": "Switch Island Leisure Park", "addr:city": "Liverpool", "addr:postcode": "L30 6TQ", "addr:country": "GB", "name": "Liverpool Sefton", "phone": "0151 5256800", "website": "https://www.dunelm.com/stores/liverpool-sefton", "contact:email": "SeftonLiverpool.M2M0715@dunelm.com", "opening_hours": "Mo-Fr 09:00-20:00; Sa 09:00-19:00; Su 11:00-17:00", "brand": "Dunelm", "brand:wikidata": "Q5315020", "nsi_id": "dunelm-839895"}, "geometry": {"type": "Point", "coordinates": [-2.963427901268005, 53.48508346289541]}},
{"type": "Feature", "id": "Rm2Ei8VW-5NjkETDUjYWnTQup_A=", "properties": {"ref": "0710", "storeType": "HD", "@spider": "dunelm_gb", "shop": "interior_decoration", "addr:street_address": "Squires Gate Retail Park", "addr:city": "Blackpool", "addr:postcode": "FY4 2RP", "addr:country": "GB", "name": "Blackpool", "phone": "01253 344660", "website": "https://www.dunelm.com/stores/blackpool", "contact:email": "Blackpool.M2M0710@dunelm.com", "opening_hours": "Mo-Fr 09:00-20:00; Sa 09:00-19:00; Su 10:30-16:30", "brand": "Dunelm", "brand:wikidata": "Q5315020", "nsi_id": "dunelm-839895"}, "geometry": {"type": "Point", "coordinates": [-3.031861782073975, 53.77892397622429]}},
{"type": "Feature", "id": "z1CnFWuEugBhdWwlkOK65IYcoCA=", "properties": {"ref": "0705", "storeType": "HD", "@spider": "dunelm_gb", "shop": "interior_decoration", "addr:street_address": "Caernarfon Road", "addr:city": "Gwynedd", "addr:postcode": "LL57 4SU", "addr:country": "GB", "name": "Bangor Wales", "phone": "01248 371444", "website": "https://www.dunelm.com/stores/bangor-wales", "contact:email": "BangorWales.M2M@dunelm.com", "opening_hours": "Mo-Fr 09:00-20:00; Sa 09:00-19:00; Su 11:00-17:00", "brand": "Dunelm", "brand:wikidata": "Q5315020", "nsi_id": "dunelm-839895"}, "geometry": {"type": "Point", "coordinates": [-4.147013000000006, 53.212497]}},
{"type": "Feature", "id": "43kAqc2Yw_Z420ozpLr0sJgygvY=", "properties": {"ref": "0700", "storeType": "HD", "@spider": "dunelm_gb", "shop": "interior_decoration", "addr:street_address": "Pentland Retail Park", "addr:city": "Loan Head", "addr:postcode": "EH20 9PW", "addr:country": "GB", "name": "Edinburgh Straiton", "phone": "0131 4409586", "website": "https://www.dunelm.com/stores/edinburgh-straiton", "contact:email": "Edinburgh.M2M0700@dunelm.com", "opening_hours": "Mo-Fr 09:00-20:00; Sa 09:00-19:00; Su 10:00-18:00", "brand": "Dunelm", "brand:wikidata": "Q5315020", "nsi_id": "dunelm-839895"}, "geometry": {"type": "Point", "coordinates": [-3.163719177246093, 55.88424175439585]}},
{"type": "Feature", "id": "uyR_FO1YBS4Bthol6Cg6SvY4xjk=", "properties": {"ref": "0695", "storeType": "HD", "@spider": "dunelm_gb", "shop": "interior_decoration", "addr:street_address": "Newquay Road Retail Park", "addr:city": "Cornwall", "addr:postcode": "TR1 1RH", "addr:country": "GB", "name": "Truro", "phone": "01872 300374", "website": "https://www.dunelm.com/stores/truro", "contact:email": "Truro.M2M0695@dunelm.com", "opening_hours": "Mo-Fr 09:00-20:00; Sa 09:00-19:00; Su 10:30-16:30", "brand": "Dunelm", "brand:wikidata": "Q5315020", "nsi_id": "dunelm-839895"}, "geometry": {"type": "Point", "coordinates": [-5.036516000000006, 50.27197300000002]}},
{"type": "Feature", "id": "14ayBKCI3lQGNGFRBiR1KognTFE=", "properties": {"ref": "0685", "storeType": "HD", "@spider": "dunelm_gb", "shop": "interior_decoration", "addr:street_address": "Oxford Street", "addr:city": "Worcestershire", "addr:postcode": "DY10 1AR", "addr:country": "GB", "name": "Kidderminster", "phone": "01562 547641", "website": "https://www.dunelm.com/stores/kidderminster", "contact:email": "Kidderminster.M2M0685@dunelm.com", "opening_hours": "Mo-Fr 09:00-20:00; Sa 09:00-19:00; Su 10:30-16:30", "brand": "Dunelm", "brand:wikidata": "Q5315020", "nsi_id": "dunelm-839895"}, "geometry": {"type": "Point", "coordinates": [-2.246470000000004, 52.38573199999999]}},
{"type": "Feature", "id": "56G5cIF_iHRjPmqde3k7IGe1fJw=", "properties": {"ref": "0680", "storeType": "HD", "@spider": "dunelm_gb", "shop": "interior_decoration", "addr:street_address": "London Road", "addr:city": "Hertfordshire", "addr:postcode": "HP3 9SR", "addr:country": "GB", "name": "Hemel Hempstead", "phone": "01442 214222", "website": "https://www.dunelm.com/stores/hemel-hempstead", "contact:email": "HemelHempstead.M2M0680@dunelm.com", "opening_hours": "Mo-Fr 09:00-20:00; Sa 09:00-19:00; Su 10:30-16:30", "brand": "Dunelm", "brand:wikidata": "Q5315020", "nsi_id": "dunelm-839895"}, "geometry": {"type": "Point", "coordinates": [-0.4675689999999987, 51.73757299999998]}},
{"type": "Feature", "id": "cP-WNfxryO789o9vE_LmQgPIICU=", "properties": {"ref": "0675", "storeType": "HD", "@spider": "dunelm_gb", "shop": "interior_decoration", "addr:street_address": "Roundswell Retail Park", "addr:city": "Barnstaple", "addr:postcode": "EX31 3RY", "addr:country": "GB", "name": "Barnstaple", "phone": "01271 440000", "website": "https://www.dunelm.com/stores/barnstaple", "contact:email": "Barnstaple.M2M0675@dunelm.com", "opening_hours": "Mo-Fr 09:00-20:00; Sa 09:00-19:00; Su 10:30-16:30", "brand": "Dunelm", "brand:wikidata": "Q5315020", "nsi_id": "dunelm-839895"}, "geometry": {"type": "Point", "coordinates": [-4.085701157470927, 51.06554919260702]}},
{"type": "Feature", "id": "R3R-DqEYPMJITJlWmfKOzcfMRNc=", "properties": {"ref": "0670", "storeType": "HD", "@spider": "dunelm_gb", "shop": "interior_decoration", "addr:street_address": "Wombwell Lane", "addr:city": "South Yorkshire", "addr:postcode": "S70 3NS", "addr:country": "GB", "name": "Barnsley", "phone": "01226 290111", "website": "https://www.dunelm.com/stores/barnsley", "contact:email": "Barnsley.M2M0670@dunelm.com", "opening_hours": "Mo-Fr 09:00-20:00; Sa 09:00-19:00; Su 10:30-16:30", "brand": "Dunelm", "brand:wikidata": "Q5315020", "nsi_id": "dunelm-839895"}, "geometry": {"type": "Point", "coordinates": [-1.43220841884613, 53.540033236058]}},
{"type": "Feature", "id": "UCX1tndY8cFaZxcYOuehUvvYG68=", "properties": {"ref": "0665", "storeType": "HD", "@spider": "dunelm_gb", "shop": "interior_decoration", "addr:street_address": "Seamer Road Retail Park", "addr:city": "Scarborough", "addr:postcode": "YO12 4DH", "addr:country": "GB", "name": "Scarborough", "phone": "01723 330013", "website": "https://www.dunelm.com/stores/scarborough", "contact:email": "Scarborough.M2M0665@dunelm.com", "opening_hours": "Mo-Fr 09:00-20:00; Sa 09:00-19:00; Su 10:00-16:00", "brand": "Dunelm", "brand:wikidata": "Q5315020", "nsi_id": "dunelm-839895"}, "geometry": {"type": "Point", "coordinates": [-0.415459999999992, 54.26289500000001]}},
{"type": "Feature", "id": "QOCrIwwSt-Z0uOk71qA9DEn__G4=", "properties": {"ref": "0660", "storeType": "HD", "@spider": "dunelm_gb", "shop": "interior_decoration", "addr:street_address": "Madford Retail Park", "addr:city": "Cumbria", "addr:postcode": "CA2 5BT", "addr:country": "GB", "name": "Carlisle", "phone": "01228 819900", "website": "https://www.dunelm.com/stores/carlisle", "contact:email": "Carlisle.M2M0660@dunelm.com", "opening_hours": "Mo-Fr 09:00-20:00; Sa 09:00-19:00; Su 10:30-16:30", "brand": "Dunelm", "brand:wikidata": "Q5315020", "nsi_id": "dunelm-839895"}, "geometry": {"type": "Point", "coordinates": [-2.939988000000002, 54.89062700000001]}},
{"type": "Feature", "id": "IOBQKjy12IyCuim0NicTZIr4Sas=", "properties": {"ref": "0655", "storeType": "HD", "@spider": "dunelm_gb", "shop": "interior_decoration", "addr:street_address": "Ascot Drive", "addr:city": "Derby", "addr:postcode": "DE24 8ST", "addr:country": "GB", "name": "Derby", "phone": "01332 362526", "website": "https://www.dunelm.com/stores/derby", "contact:email": "Derby.M2M0655@dunelm.com", "opening_hours": "Mo-Fr 09:00-20:00; Sa 09:00-19:00; Su 10:30-16:30", "brand": "Dunelm", "brand:wikidata": "Q5315020", "nsi_id": "dunelm-839895"}, "geometry": {"type": "Point", "coordinates": [-1.449910998344421, 52.90512317519359]}},
{"type": "Feature", "id": "f_sX9ZRSfVEmikKkj0jX5K_mo-k=", "properties": {"ref": "0650", "storeType": "HD", "@spider": "dunelm_gb", "shop": "interior_decoration", "addr:street_address": "St Peters Retail Park", "addr:city": "Staffordshire", "addr:postcode": "DE14 3QZ", "addr:country": "GB", "name": "Burton", "phone": "01283 512803", "website": "https://www.dunelm.com/stores/burton", "contact:email": "Burton.M2M0650@dunelm.com", "opening_hours": "Mo-Fr 09:00-20:00; Sa 09:00-19:00; Su 10:30-16:30", "brand": "Dunelm", "brand:wikidata": "Q5315020", "nsi_id": "dunelm-839895"}, "geometry": {"type": "Point", "coordinates": [-1.634070999999992, 52.798108]}},
{"type": "Feature", "id": "BjAv9F-O2UPQ7zlM9JcbVL3qRdU=", "properties": {"ref": "0645", "storeType": "HD", "@spider": "dunelm_gb", "shop": "interior_decoration", "addr:street_address": "Riverside Retail Park", "addr:city": "Coleraine", "addr:postcode": "BT51 3QQ", "addr:country": "GB", "name": "Coleraine", "phone": "02870 440299", "website": "https://www.dunelm.com/stores/coleraine", "contact:email": "Coleraine.M2M0645@dunelm.com", "opening_hours": "Mo-Fr 09:00-21:00; Sa 09:00-19:00; Su 13:00-18:00", "brand": "Dunelm", "brand:wikidata": "Q5315020", "nsi_id": "dunelm-839895"}, "geometry": {"type": "Point", "coordinates": [-6.660552999999998, 55.111157]}},
{"type": "Feature", "id": "AbV3xAHHUuroQlhiVpwYe3wMcFw=", "properties": {"ref": "0640", "storeType": "HD", "@spider": "dunelm_gb", "shop": "interior_decoration", "addr:street_address": "Eastern Avenue West", "addr:city": "Romford", "addr:postcode": "RM7 7JN", "addr:country": "GB", "name": "Romford", "phone": "01708 732077", "website": "https://www.dunelm.com/stores/romford", "contact:email": "Romford.M2M0640@dunelm.com", "opening_hours": "Mo-Fr 09:00-21:00; Sa 09:00-19:00; Su 10:30-16:30", "brand": "Dunelm", "brand:wikidata": "Q5315020", "nsi_id": "dunelm-839895"}, "geometry": {"type": "Point", "coordinates": [0.1703095436096191, 51.58562320807185]}},
{"type": "Feature", "id": "SeTnfer45kRg6fwl6kibA-G_KkQ=", "properties": {"ref": "0635", "storeType": "HD", "@spider": "dunelm_gb", "shop": "interior_decoration", "addr:street_address": "Southam Road", "addr:city": "Oxfordshire", "addr:postcode": "OX16 2RX", "addr:country": "GB", "name": "Banbury", "phone": "01295 234724", "website": "https://www.dunelm.com/stores/banbury", "contact:email": "Banbury.M2M0635@dunelm.com", "opening_hours": "Mo-Fr 09:00-20:00; Sa 09:00-19:00; Su 10:30-16:30", "brand": "Dunelm", "brand:wikidata": "Q5315020", "nsi_id": "dunelm-839895"}, "geometry": {"type": "Point", "coordinates": [-1.339768767356873, 52.06743150236453]}},
{"type": "Feature", "id": "9ifpJ2vK-X39UEz8vteAvxwFs_I=", "properties": {"ref": "0630", "storeType": "HD", "@spider": "dunelm_gb", "shop": "interior_decoration", "addr:street_address": "St Margarets Retail Park", "addr:city": "Swindon", "addr:postcode": "SN3 4ES", "addr:country": "GB", "name": "Swindon", "phone": "01793 821581", "website": "https://www.dunelm.com/stores/swindon", "contact:email": "Swindon.M2M0630@dunelm.com", "opening_hours": "Mo-Fr 09:00-20:00; Sa 09:00-19:00; Su 10:30-16:30", "brand": "Dunelm", "brand:wikidata": "Q5315020", "nsi_id": "dunelm-839895"}, "geometry": {"type": "Point", "coordinates": [-1.730259000000009, 51.578334]}},
{"type": "Feature", "id": "TUteLFu4YxI6OpG7DY3e7qtgzy0=", "properties": {"ref": "0625", "storeType": "HD", "@spider": "dunelm_gb", "shop": "interior_decoration", "addr:street_address": "Stanier Retail Park", "addr:city": "Kettering", "addr:postcode": "NN16 9XW", "addr:country": "GB", "name": "Kettering", "phone": "01536 210706", "website": "https://www.dunelm.com/stores/kettering", "contact:email": "Kettering.M2M0625@dunelm.com", "opening_hours": "Mo-Fr 09:00-20:00; Sa 09:00-19:00; Su 10:00-16:00", "brand": "Dunelm", "brand:wikidata": "Q5315020", "nsi_id": "dunelm-839895"}, "geometry": {"type": "Point", "coordinates": [-0.7350915670394897, 52.40540365259205]}},
{"type": "Feature", "id": "fncGN5GmQCGYDyq9ORcsHk8fw5I=", "properties": {"ref": "0615", "storeType": "HD", "@spider": "dunelm_gb", "shop": "interior_decoration", "addr:street_address": "Wakes Retail Park", "addr:city": "Isle of Wight", "addr:postcode": "PO30 5UZ", "addr:country": "GB", "name": "Newport Isle of Wight", "phone": "01983 210000", "website": "https://www.dunelm.com/stores/newport-isle-of-wight", "contact:email": "NewportIOW.M2M@dunelm.com", "opening_hours": "Mo-Fr 09:00-20:00; Sa 09:00-19:00; Su 10:30-16:30", "brand": "Dunelm", "brand:wikidata": "Q5315020", "nsi_id": "dunelm-839895"}, "geometry": {"type": "Point", "coordinates": [-1.293511999999994, 50.70477100000002]}},
{"type": "Feature", "id": "Q92Pg-0jl_yvRM352XP4MBfWeFs=", "properties": {"ref": "0610", "storeType": "HD", "@spider": "dunelm_gb", "shop": "interior_decoration", "addr:street_address": "Manners Road", "addr:city": "Derbyshire", "addr:postcode": "DE7 8EG", "addr:country": "GB", "name": "Ilkeston", "phone": "01159444754", "website": "https://www.dunelm.com/stores/ilkeston", "contact:email": "Ilkeston.M2M0610@dunelm.com", "opening_hours": "Mo-Sa 09:00-18:00; Su 10:30-16:30", "brand": "Dunelm", "brand:wikidata": "Q5315020", "nsi_id": "dunelm-839895"}, "geometry": {"type": "Point", "coordinates": [-1.311321258544922, 52.97672327570728]}},
{"type": "Feature", "id": "SHl8sCdg1QyXevZUOUhIpIImWA8=", "properties": {"ref": "0605", "storeType": "HD", "@spider": "dunelm_gb", "shop": "interior_decoration", "addr:street_address": "London Road Retail Park", "addr:city": "Berkshire", "addr:postcode": "RG14 2BA", "addr:country": "GB", "name": "Newbury", "phone": "01635 881164", "website": "https://www.dunelm.com/stores/newbury", "contact:email": "Newbury.M2M0605@dunelm.com", "opening_hours": "Mo-Fr 09:00-20:00; Sa 09:00-19:00; Su 10:00-16:00", "brand": "Dunelm", "brand:wikidata": "Q5315020", "nsi_id": "dunelm-839895"}, "geometry": {"type": "Point", "coordinates": [-1.310538053512573, 51.40316810385782]}},
{"type": "Feature", "id": "DQA2n2Vl369GnnG8UkS5Yb78t-I=", "properties": {"ref": "0595", "storeType": "HD", "@spider": "dunelm_gb", "shop": "interior_decoration", "addr:street_address": "Meadowside Retail Park", "addr:city": "Oxfordshire", "addr:postcode": "OX2 0FE", "addr:country": "GB", "name": "Oxford", "phone": "01865 595267", "website": "https://www.dunelm.com/stores/oxford", "contact:email": "Oxford.M2M0595@dunelm.com", "opening_hours": "Mo-Fr 09:00-21:00; Sa 09:00-19:00; Su 10:30-16:30", "brand": "Dunelm", "brand:wikidata": "Q5315020", "nsi_id": "dunelm-839895"}, "geometry": {"type": "Point", "coordinates": [-1.284159000000005, 51.75059800000001]}},
{"type": "Feature", "id": "xsxqlWQR_YWJeG7JxD2rKGkgEZc=", "properties": {"ref": "0590", "storeType": "HD", "@spider": "dunelm_gb", "shop": "interior_decoration", "addr:street_address": "Bilston Road", "addr:city": "West Midlands", "addr:postcode": "WV2 2PY", "addr:country": "GB", "name": "Wolverhampton", "phone": "01902 871806", "website": "https://www.dunelm.com/stores/wolverhampton", "contact:email": "Wolverhampton.M2M0590@dunelm.com", "opening_hours": "Mo-Fr 09:00-21:00; Sa 09:00-19:00; Su 10:30-16:30", "brand": "Dunelm", "brand:wikidata": "Q5315020", "nsi_id": "dunelm-839895"}, "geometry": {"type": "Point", "coordinates": [-2.11476600000001, 52.57953099999999]}},
{"type": "Feature", "id": "8zCgvUzylrnrjj4AACyKzRiCN-Q=", "properties": {"ref": "0585", "storeType": "HD", "@spider": "dunelm_gb", "shop": "interior_decoration", "addr:street_address": "Avocet Road", "addr:city": "Exeter", "addr:postcode": "EX2 7JF", "addr:country": "GB", "name": "Exeter", "phone": "01392 341303", "website": "https://www.dunelm.com/stores/exeter", "contact:email": "Exeter.M2M0585@dunelm.com", "opening_hours": "Mo-Fr 09:00-20:00; Sa 09:00-19:00; Su 11:00-17:00", "brand": "Dunelm", "brand:wikidata": "Q5315020", "nsi_id": "dunelm-839895"}, "geometry": {"type": "Point", "coordinates": [-3.467474000000002, 50.72563399999998]}},
{"type": "Feature", "id": "EeaQq9aonNeAcG-JGqqDUfKQ2lc=", "properties": {"ref": "0575", "storeType": "HD", "@spider": "dunelm_gb", "shop": "interior_decoration", "addr:street_address": "Central Retail Park", "addr:city": "Falkirk", "addr:postcode": "FK1 1LW", "addr:country": "GB", "name": "Falkirk", "phone": "01324 460020", "website": "https://www.dunelm.com/stores/falkirk", "contact:email": "Falkirk.M2M0575@dunelm.com", "opening_hours": "Mo-Fr 09:00-20:00; Sa 09:00-19:00; Su 10:00-18:00", "brand": "Dunelm", "brand:wikidata": "Q5315020", "nsi_id": "dunelm-839895"}, "geometry": {"type": "Point", "coordinates": [-3.783915638923645, 56.00254455085605]}},
{"type": "Feature", "id": "wCbhehkqSg-A9tPy0asyQ3lu3Tw=", "properties": {"ref": "0565", "storeType": "HD", "@spider": "dunelm_gb", "shop": "interior_decoration", "addr:street_address": "Victoria Street North", "addr:city": "Lincolnshire", "addr:postcode": "DN31 1GB", "addr:country": "GB", "name": "Grimsby", "phone": "01472 800178", "website": "https://www.dunelm.com/stores/grimsby", "contact:email": "Grimsby.M2M0565@dunelm.com", "opening_hours": "Mo-Fr 09:00-20:00; Sa 09:00-19:00; Su 10:30-16:30", "brand": "Dunelm", "brand:wikidata": "Q5315020", "nsi_id": "dunelm-839895"}, "geometry": {"type": "Point", "coordinates": [-0.0794319999999904, 53.57146900000001]}},
{"type": "Feature", "id": "V4_MYQzrM23AZnvPd_BRNZiiYRo=", "properties": {"ref": "0560", "storeType": "HD", "@spider": "dunelm_gb", "shop": "interior_decoration", "addr:street_address": "Victoria Road", "addr:city": "Stoke on Trent", "addr:postcode": "ST4 2HT", "addr:country": "GB", "name": "Stoke on Trent Fenton", "phone": "01782 848585", "website": "https://www.dunelm.com/stores/stoke-on-trent-fenton", "contact:email": "Fenton.M2M0560@dunelm.com", "opening_hours": "Mo-Fr 09:00-20:00; Sa 09:00-19:00; Su 10:30-16:30", "brand": "Dunelm", "brand:wikidata": "Q5315020", "nsi_id": "dunelm-839895"}, "geometry": {"type": "Point", "coordinates": [-2.167250999999992, 53.01072899999999]}},
{"type": "Feature", "id": "tqJgBA3n0K9jXIUePLqlbFX8168=", "properties": {"ref": "0555", "storeType": "HD", "@spider": "dunelm_gb", "shop": "interior_decoration", "addr:street_address": "Aladdin Tower", "addr:city": "Greenford", "addr:postcode": "UB6 8LZ", "addr:country": "GB", "name": "West London Greenford", "phone": "02030 060784", "website": "https://www.dunelm.com/stores/west-london-greenford", "contact:email": "Greenford.M2M0555@dunelm.com", "opening_hours": "Mo-Fr 09:00-21:00; Sa 09:00-19:00; Su 11:00-17:00", "brand": "Dunelm", "brand:wikidata": "Q5315020", "nsi_id": "dunelm-839895"}, "geometry": {"type": "Point", "coordinates": [-0.3609663172017364, 51.53955794925189]}},
{"type": "Feature", "id": "TfDCY-QjlVpFQJQMwlarE7jozrQ=", "properties": {"ref": "0550", "storeType": "HD", "@spider": "dunelm_gb", "shop": "interior_decoration", "addr:street_address": "Alban Retail Park", "addr:city": "Bedfordshire", "addr:postcode": "MK42 0NW", "addr:country": "GB", "name": "Bedford", "phone": "01234 271200", "website": "https://www.dunelm.com/stores/bedford", "contact:email": "Bedford.M2M0550@dunelm.com", "opening_hours": "Mo-Fr 09:00-20:00; Sa 09:00-19:00; Su 10:30-16:30", "brand": "Dunelm", "brand:wikidata": "Q5315020", "nsi_id": "dunelm-839895"}, "geometry": {"type": "Point", "coordinates": [-0.4886770248413086, 52.12974725388101]}},
{"type": "Feature", "id": "7Jcou533oJMu4nL0pewwyoepiY4=", "properties": {"ref": "0545", "storeType": "HD", "@spider": "dunelm_gb", "shop": "interior_decoration", "addr:street_address": "Greyfriars Way Retail Park", "addr:city": "Stafford", "addr:postcode": "ST16 2SD", "addr:country": "GB", "name": "Stafford", "phone": "01785 248433", "website": "https://www.dunelm.com/stores/stafford", "contact:email": "Stafford.M2M0545@dunelm.com", "opening_hours": "Mo-Fr 09:00-20:00; Sa 09:00-19:00; Su 10:30-16:30", "brand": "Dunelm", "brand:wikidata": "Q5315020", "nsi_id": "dunelm-839895"}, "geometry": {"type": "Point", "coordinates": [-2.124647498130798, 52.81335862846946]}},
{"type": "Feature", "id": "3gLSaXg6RCJvNn7IKDjP_Oys-Pk=", "properties": {"ref": "0540", "storeType": "HD", "@spider": "dunelm_gb", "shop": "interior_decoration", "addr:street_address": "Portrack Lane", "addr:city": "Teeside", "addr:postcode": "TS18 2PS", "addr:country": "GB", "name": "Stockton on Tees", "phone": "01642 676688", "website": "https://www.dunelm.com/stores/stockton-on-tees", "contact:email": "Stockton.M2M0540@dunelm.com", "opening_hours": "Mo-Fr 09:00-20:00; Sa 09:00-19:00; Su 10:30-16:30", "brand": "Dunelm", "brand:wikidata": "Q5315020", "nsi_id": "dunelm-839895"}, "geometry": {"type": "Point", "coordinates": [-1.282422999999992, 54.57341099999999]}},
{"type": "Feature", "id": "AvOlweyjDFIpU7QaNznkb7begT8=", "properties": {"ref": "0535", "storeType": "HD", "@spider": "dunelm_gb", "shop": "interior_decoration", "addr:street_address": "Cambridge Retail Park", "addr:city": "Cambridgeshire", "addr:postcode": "CB5 8JL", "addr:country": "GB", "name": "Cambridge", "phone": "01223 654316", "website": "https://www.dunelm.com/stores/cambridge", "contact:email": "Cambridge.M2M0535@dunelm.com", "opening_hours": "Mo-Fr 09:00-20:00; Sa 09:00-19:00; Su 10:30-16:30", "brand": "Dunelm", "brand:wikidata": "Q5315020", "nsi_id": "dunelm-839895"}, "geometry": {"type": "Point", "coordinates": [0.1478970000000013, 52.21021]}},
{"type": "Feature", "id": "ah4KNRGsynHeG4T7W0BZ0SX9iOE=", "properties": {"ref": "0525", "storeType": "HD", "@spider": "dunelm_gb", "shop": "interior_decoration", "addr:street_address": "Portland Retail Park", "addr:city": "Nottinghamshire", "addr:postcode": "NG18 1HA", "addr:country": "GB", "name": "Mansfield", "phone": "01623 700025", "website": "https://www.dunelm.com/stores/mansfield", "contact:email": "Mansfield.M2M0525@dunelm.com", "opening_hours": "Mo-Fr 09:00-20:00; Sa 09:00-19:00; Su 10:30-16:30", "brand": "Dunelm", "brand:wikidata": "Q5315020", "nsi_id": "dunelm-839895"}, "geometry": {"type": "Point", "coordinates": [-1.202643513679504, 53.13936323224721]}},
{"type": "Feature", "id": "zW6gt_pMUqRR44kutRI2HK0EIsM=", "properties": {"ref": "0520", "storeType": "HD", "@spider": "dunelm_gb", "shop": "interior_decoration", "addr:street_address": "Marine Drive", "addr:city": "Southport", "addr:postcode": "PR8 1RY", "addr:country": "GB", "name": "Southport", "phone": "01704 538855", "website": "https://www.dunelm.com/stores/southport", "contact:email": "Southport.M2M0520@dunelm.com", "opening_hours": "Mo-Fr 09:00-20:00; Sa 09:00-19:00; Su 11:00-17:00", "brand": "Dunelm", "brand:wikidata": "Q5315020", "nsi_id": "dunelm-839895"}, "geometry": {"type": "Point", "coordinates": [-3.01099956035614, 53.6534200209048]}},
{"type": "Feature", "id": "7gpdj-fbCSPvU7OjGw12zG8xH0M=", "properties": {"ref": "0515", "storeType": "HD", "@spider": "dunelm_gb", "shop": "interior_decoration", "addr:street_address": "Inshes Retail Park", "addr:city": "Inverness", "addr:postcode": "IV2 3TW", "addr:country": "GB", "name": "Inverness", "phone": "01463 232200", "website": "https://www.dunelm.com/stores/inverness", "contact:email": "Inverness.M2M0515@dunelm.com", "opening_hours": "Mo-Fr 09:00-20:00; Sa 09:00-19:00; Su 10:00-18:00", "brand": "Dunelm", "brand:wikidata": "Q5315020", "nsi_id": "dunelm-839895"}, "geometry": {"type": "Point", "coordinates": [-4.190870999999996, 57.46908500000001]}},
{"type": "Feature", "id": "GrNZjjpYwp9NUScBWlo9qEKD_bM=", "properties": {"ref": "0510", "storeType": "HD", "@spider": "dunelm_gb", "shop": "interior_decoration", "addr:street_address": "Reedswood Retail Park", "addr:city": "Walsall", "addr:postcode": "WS2 8XA", "addr:country": "GB", "name": "Walsall", "phone": "01922 644755", "website": "https://www.dunelm.com/stores/walsall", "contact:email": "Walsall.M2M0510@dunelm.com", "opening_hours": "Mo-Fr 09:00-20:00; Sa 09:00-19:00; Su 10:30-16:30", "brand": "Dunelm", "brand:wikidata": "Q5315020", "nsi_id": "dunelm-839895"}, "geometry": {"type": "Point", "coordinates": [-2.000692999999998, 52.59543899999999]}},
{"type": "Feature", "id": "-YRJksB2BqEH01cUlCnk9piM3ew=", "properties": {"ref": "0495", "storeType": "HD", "@spider": "dunelm_gb", "shop": "interior_decoration", "addr:street_address": "Telford Forge Retail Park", "addr:city": "Shropshire", "addr:postcode": "TF3 4AG", "addr:country": "GB", "name": "Telford", "phone": "01952 457456", "website": "https://www.dunelm.com/stores/telford", "contact:email": "Telford.M2M0495@dunelm.com", "opening_hours": "Mo-Fr 09:00-20:00; Sa 09:00-19:00; Su 10:30-16:30", "brand": "Dunelm", "brand:wikidata": "Q5315020", "nsi_id": "dunelm-839895"}, "geometry": {"type": "Point", "coordinates": [-2.454358999999997, 52.68342400000001]}},
{"type": "Feature", "id": "MY8415bOv6pUncbmj7QBF2EzsLA=", "properties": {"ref": "0490", "storeType": "HD", "@spider": "dunelm_gb", "shop": "interior_decoration", "addr:street_address": "Clifton Moor Centre", "addr:city": "York", "addr:postcode": "YO30 4WZ", "addr:country": "GB", "name": "York", "phone": "01904 692229", "website": "https://www.dunelm.com/stores/york", "contact:email": "York.M2M0490@dunelm.com", "opening_hours": "Mo-Fr 09:00-20:00; Sa 09:00-19:00; Su 10:30-16:30", "brand": "Dunelm", "brand:wikidata": "Q5315020", "nsi_id": "dunelm-839895"}, "geometry": {"type": "Point", "coordinates": [-1.099642000000007, 53.99264099999998]}},
{"type": "Feature", "id": "aZAfyxA435bFWzDKrIDdElxUVDw=", "properties": {"ref": "0485", "storeType": "HD", "@spider": "dunelm_gb", "shop": "interior_decoration", "addr:street_address": "Glencairn Retail Park", "addr:city": "Kilmarnock", "addr:postcode": "KA1 4AY", "addr:country": "GB", "name": "Kilmarnock", "phone": "01563 210707", "website": "https://www.dunelm.com/stores/kilmarnock", "contact:email": "Kilmarnock.M2M0485@dunelm.com", "opening_hours": "Mo-Fr 09:00-20:00; Sa 09:00-19:00; Su 10:00-18:00", "brand": "Dunelm", "brand:wikidata": "Q5315020", "nsi_id": "dunelm-839895"}, "geometry": {"type": "Point", "coordinates": [-4.499561190605164, 55.5991838014005]}},
{"type": "Feature", "id": "2nknmQxXobaLJqRBPCrWSwtXJC8=", "properties": {"ref": "0480", "storeType": "HD", "@spider": "dunelm_gb", "shop": "interior_decoration", "addr:street_address": "St Mary's Gate & Whitworth Road", "addr:city": "Lancashire", "addr:postcode": "OL12 0TY", "addr:country": "GB", "name": "Rochdale", "phone": "0170 6342222", "website": "https://www.dunelm.com/stores/rochdale", "contact:email": "Rochdale.M2M0480@dunelm.com", "opening_hours": "Mo-Fr 09:00-20:00; Sa 09:00-19:00; Su 11:00-17:00", "brand": "Dunelm", "brand:wikidata": "Q5315020", "nsi_id": "dunelm-839895"}, "geometry": {"type": "Point", "coordinates": [-2.155750999999997, 53.620594]}},
{"type": "Feature", "id": "h0h9Rn55c_p-Pci2uI43UAFDVVo=", "properties": {"ref": "0475", "storeType": "HD", "@spider": "dunelm_gb", "shop": "interior_decoration", "addr:street_address": "Unit 1", "addr:city": "Hastings", "addr:postcode": "TN37 7PB", "addr:country": "GB", "name": "Hastings", "phone": "01424 232041", "website": "https://www.dunelm.com/stores/hastings", "contact:email": "Hastings.M2M0475@dunelm.com", "opening_hours": "Mo-Fr 09:00-20:00; Sa 09:00-19:00; Su 10:30-16:30", "brand": "Dunelm", "brand:wikidata": "Q5315020", "nsi_id": "dunelm-839895"}, "geometry": {"type": "Point", "coordinates": [0.554996, 50.889236]}},
{"type": "Feature", "id": "MzgIH_7HuH_GlsgAlvejOsecuRo=", "properties": {"ref": "0470", "storeType": "HD", "@spider": "dunelm_gb", "shop": "interior_decoration", "addr:street_address": "Clough Road Retail Park", "addr:city": "Hull", "addr:postcode": "HU5 1SP", "addr:country": "GB", "name": "Hull", "phone": "01482 447666", "website": "https://www.dunelm.com/stores/hull", "contact:email": "Hull.M2M0470@dunelm.com", "opening_hours": "Mo-Fr 09:00-20:00; Sa 09:00-19:00; Su 10:30-16:30", "brand": "Dunelm", "brand:wikidata": "Q5315020", "nsi_id": "dunelm-839895"}, "geometry": {"type": "Point", "coordinates": [-0.3454923000000076, 53.768046]}},
{"type": "Feature", "id": "pvdf-iMVnCrpUWio7YObzlEEaHY=", "properties": {"ref": "0465", "storeType": "HD", "@spider": "dunelm_gb", "shop": "interior_decoration", "addr:street_address": "Pellon Lane", "addr:city": "Yorkshire", "addr:postcode": "HX1 5RA", "addr:country": "GB", "name": "Halifax", "phone": "01422 417731", "website": "https://www.dunelm.com/stores/halifax", "contact:email": "Halifax.M2M0465@dunelm.com", "opening_hours": "Mo-Fr 09:00-20:00; Sa 09:00-19:00; Su 10:30-16:30", "brand": "Dunelm", "brand:wikidata": "Q5315020", "nsi_id": "dunelm-839895"}, "geometry": {"type": "Point", "coordinates": [-1.866759000000004, 53.72453000000002]}},
{"type": "Feature", "id": "q5PpS_PCdwZGVXJ4p9WYGuAY-Jc=", "properties": {"ref": "0460", "storeType": "HD", "@spider": "dunelm_gb", "shop": "interior_decoration", "addr:street_address": "Spytty Road", "addr:city": "Gwent", "addr:postcode": "NP19 4QT", "addr:country": "GB", "name": "Newport", "phone": "01633 282200", "website": "https://www.dunelm.com/stores/newport", "contact:email": "Newport.M2M0460@dunelm.com", "opening_hours": "Mo-Fr 09:00-20:00; Sa 09:00-19:00; Su 10:30-16:30", "brand": "Dunelm", "brand:wikidata": "Q5315020", "nsi_id": "dunelm-839895"}, "geometry": {"type": "Point", "coordinates": [-2.951528999999993, 51.57552400000001]}},
{"type": "Feature", "id": "c2CPqDlw1K7LQCJ-cZBIkbAVAVw=", "properties": {"ref": "0455", "storeType": "HD", "@spider": "dunelm_gb", "shop": "interior_decoration", "addr:street_address": "Tunnel Estate", "addr:city": "West Thurrock", "addr:postcode": "RM20 3LP", "addr:country": "GB", "name": "Thurrock", "phone": "01708 203540", "website": "https://www.dunelm.com/stores/thurrock", "contact:email": "Thurrock.M2M0455@dunelm.com", "opening_hours": "Mo-Fr 09:00-21:00; Sa 09:00-19:00; Su 10:30-16:30", "brand": "Dunelm", "brand:wikidata": "Q5315020", "nsi_id": "dunelm-839895"}, "geometry": {"type": "Point", "coordinates": [0.2712479999999928, 51.48786600000001]}},
{"type": "Feature", "id": "DKDhbJ093I6dpWneMRv6k0-n9oo=", "properties": {"ref": "0450", "storeType": "HD", "@spider": "dunelm_gb", "shop": "interior_decoration", "addr:street_address": "City Link Estate", "addr:city": "Cardiff", "addr:postcode": "CF24 1PQ", "addr:country": "GB", "name": "Cardiff", "phone": "02920 482555", "website": "https://www.dunelm.com/stores/cardiff", "contact:email": "Cardiff.M2M0450@dunelm.com", "opening_hours": "Mo-Fr 09:00-20:00; Sa 09:00-19:00; Su 10:30-16:30", "brand": "Dunelm", "brand:wikidata": "Q5315020", "nsi_id": "dunelm-839895"}, "geometry": {"type": "Point", "coordinates": [-3.146199000000005, 51.49251999999999]}},
{"type": "Feature", "id": "zYRY6MGmnY0qDuKnvLAxCobJFXg=", "properties": {"ref": "0445", "storeType": "HD", "@spider": "dunelm_gb", "shop": "interior_decoration", "addr:street_address": "Highpoint Retail Park", "addr:city": "Hartlepool", "addr:postcode": "TS24 0RN", "addr:country": "GB", "name": "Hartlepool", "phone": "01429 800000", "website": "https://www.dunelm.com/stores/hartlepool", "contact:email": "Hartlepool.M2M0445@dunelm.com", "opening_hours": "Mo-Sa 09:00-18:00; Su 10:30-16:30", "brand": "Dunelm", "brand:wikidata": "Q5315020", "nsi_id": "dunelm-839895"}, "geometry": {"type": "Point", "coordinates": [-1.210969090461731, 54.6924875234219]}},
{"type": "Feature", "id": "bYh4Sk6h6xH6xPTDixdvIwO8B40=", "properties": {"ref": "0435", "storeType": "HD", "@spider": "dunelm_gb", "shop": "interior_decoration", "addr:street_address": "Carlton Centre", "addr:city": "Lincoln", "addr:postcode": "LN2 4UX", "addr:country": "GB", "name": "Lincoln", "phone": "01522 589737", "website": "https://www.dunelm.com/stores/lincoln", "contact:email": "Lincoln.M2M0435@dunelm.com", "opening_hours": "Mo-Fr 09:00-20:00; Sa 09:00-19:00; Su 10:30-16:30", "brand": "Dunelm", "brand:wikidata": "Q5315020", "nsi_id": "dunelm-839895"}, "geometry": {"type": "Point", "coordinates": [-0.5095070600509644, 53.24227868630441]}},
{"type": "Feature", "id": "mNtiohQtgj__x0pvA-9-ezpIUs8=", "properties": {"ref": "0425", "storeType": "HD", "@spider": "dunelm_gb", "shop": "interior_decoration", "addr:street_address": "Crompton Retail Park", "addr:city": "Wheatley Hall Road", "addr:postcode": "DN2 4NB", "addr:country": "GB", "name": "Doncaster", "phone": "01302 972317", "website": "https://www.dunelm.com/stores/doncaster", "contact:email": "Doncaster.M2M0425@dunelm.com", "opening_hours": "Mo-Fr 09:00-20:00; Sa 09:00-19:00; Su 10:30-16:30", "brand": "Dunelm", "brand:wikidata": "Q5315020", "nsi_id": "dunelm-839895"}, "geometry": {"type": "Point", "coordinates": [-1.109233000000005, 53.540741]}},
{"type": "Feature", "id": "_j5O_2D7qQ1MPjCsRGZUupb2_6I=", "properties": {"ref": "0420", "storeType": "HD", "@spider": "dunelm_gb", "shop": "interior_decoration", "addr:street_address": "Holyrood Drive", "addr:city": "Suth Humberside", "addr:postcode": "DN15 8NN", "addr:country": "GB", "name": "Scunthorpe", "phone": "01724 277866", "website": "https://www.dunelm.com/stores/scunthorpe", "contact:email": "Scunthorpe.M2M0420@dunelm.com", "opening_hours": "Mo-Fr 09:00-20:00; Sa 09:00-19:00; Su 10:30-16:30", "brand": "Dunelm", "brand:wikidata": "Q5315020", "nsi_id": "dunelm-839895"}, "geometry": {"type": "Point", "coordinates": [-0.6784996390342712, 53.60868553347628]}},
{"type": "Feature", "id": "mQTbrQBr5Jrm0UGeAjGzKeIxAL4=", "properties": {"ref": "0415", "storeType": "HD", "@spider": "dunelm_gb", "shop": "interior_decoration", "addr:street_address": "Gaston Wood Retail Park", "addr:city": "Berkshire", "addr:postcode": "RG24 8TW", "addr:country": "GB", "name": "Basingstoke", "phone": "01256 637260", "website": "https://www.dunelm.com/stores/basingstoke", "contact:email": "Basingstoke.M2M0415@dunelm.com", "opening_hours": "Mo-Fr 09:00-21:00; Sa 09:00-19:00; Su 10:30-16:30", "brand": "Dunelm", "brand:wikidata": "Q5315020", "nsi_id": "dunelm-839895"}, "geometry": {"type": "Point", "coordinates": [-1.06880800000001, 51.284218]}},
{"type": "Feature", "id": "iQIE-JyzLUHlwFH1acsaLhPhtF0=", "properties": {"ref": "0410", "storeType": "HD", "@spider": "dunelm_gb", "shop": "interior_decoration", "addr:street_address": "The Capitol Centre", "addr:city": "Walton-le-Dale", "addr:postcode": "PR5 4AW", "addr:country": "GB", "name": "Preston", "phone": "01772 888801", "website": "https://www.dunelm.com/stores/preston", "contact:email": "Preston.M2M0410@dunelm.com", "opening_hours": "Mo-Fr 09:00-20:00; Sa 09:00-19:00; Su 11:00-17:00", "brand": "Dunelm", "brand:wikidata": "Q5315020", "nsi_id": "dunelm-839895"}, "geometry": {"type": "Point", "coordinates": [-2.678598761558533, 53.74949113350384]}},
{"type": "Feature", "id": "YW6-22BNeDIfMdLabWftyteh5X0=", "properties": {"ref": "0405", "storeType": "HD", "@spider": "dunelm_gb", "shop": "interior_decoration", "addr:street_address": "Horrocks Avenue", "addr:city": "Liverpool", "addr:postcode": "L19 5NY", "addr:country": "GB", "name": "Liverpool Garston", "phone": "0151 5593238", "website": "https://www.dunelm.com/stores/liverpool-garston", "contact:email": "GarstonLiverpool.M2M0405@dunelm.com", "opening_hours": "Mo-Fr 09:00-20:00; Sa 09:00-19:00; Su 10:30-16:30", "brand": "Dunelm", "brand:wikidata": "Q5315020", "nsi_id": "dunelm-839895"}, "geometry": {"type": "Point", "coordinates": [-2.893942594528198, 53.35546948344972]}},
{"type": "Feature", "id": "O0zfYfOP3HN9LIHj6CwzWD1-yaw=", "properties": {"ref": "0400", "storeType": "HD", "@spider": "dunelm_gb", "shop": "interior_decoration", "addr:street_address": "Luton Road", "addr:city": "Bedfordshire", "addr:postcode": "LU5 4JN", "addr:country": "GB", "name": "Dunstable", "phone": "01582 606090", "website": "https://www.dunelm.com/stores/dunstable", "contact:email": "Dunstable.M2M0400@dunelm.com", "opening_hours": "Mo-Fr 09:00-20:00; Sa 09:00-19:00; Su 10:30-16:30", "brand": "Dunelm", "brand:wikidata": "Q5315020", "nsi_id": "dunelm-839895"}, "geometry": {"type": "Point", "coordinates": [-0.5034399032592772, 51.88817337787021]}},
{"type": "Feature", "id": "EIk4QphfPIU_XF7qn2C8nK_D8kg=", "properties": {"ref": "0395", "storeType": "HD", "@spider": "dunelm_gb", "shop": "interior_decoration", "addr:street_address": "Manor Walks Retail Park", "addr:city": "Northumberland", "addr:postcode": "NE23 6UY", "addr:country": "GB", "name": "Cramlington", "phone": "01670 330633", "website": "https://www.dunelm.com/stores/cramlington", "contact:email": "Cramlington.M2M0395@dunelm.com", "opening_hours": "Mo-Fr 09:00-20:00; Sa 09:00-19:00; Su 10:00-16:00", "brand": "Dunelm", "brand:wikidata": "Q5315020", "nsi_id": "dunelm-839895"}, "geometry": {"type": "Point", "coordinates": [-1.595447659492493, 55.08638759399415]}},
{"type": "Feature", "id": "Knew6vIB13y46E0E8nJQ9LwZVfc=", "properties": {"ref": "0385", "storeType": "HD", "@spider": "dunelm_gb", "shop": "interior_decoration", "addr:street_address": "Nene Valley Retail Park", "addr:city": "Northamptonshire", "addr:postcode": "NN1 1ET", "addr:country": "GB", "name": "Northampton", "phone": "01604 210002", "website": "https://www.dunelm.com/stores/northampton", "contact:email": "Northampton.M2M0385@dunelm.com", "opening_hours": "Mo-Fr 09:00-20:00; Sa 09:00-19:00; Su 10:30-16:30", "brand": "Dunelm", "brand:wikidata": "Q5315020", "nsi_id": "dunelm-839895"}, "geometry": {"type": "Point", "coordinates": [-0.9041887521743773, 52.23197880130304]}},
{"type": "Feature", "id": "YR6bZhE24Fmg9srzTBMpzLlpuSM=", "properties": {"ref": "0380", "storeType": "HD", "@spider": "dunelm_gb", "shop": "interior_decoration", "addr:street_address": "Barkby Thorpe Lane", "addr:city": "Leicester", "addr:postcode": "LE4 8GP", "addr:country": "GB", "name": "Leicester Thurmaston", "phone": "0116 2607606", "website": "https://www.dunelm.com/stores/leicester-thurmaston", "contact:email": "Thurmaston.M2M0380@dunelm.com", "opening_hours": "Mo-Fr 09:00-20:00; Sa 09:00-19:00; Su 10:30-16:30", "brand": "Dunelm", "brand:wikidata": "Q5315020", "nsi_id": "dunelm-839895"}, "geometry": {"type": "Point", "coordinates": [-1.092533469200134, 52.68396633127343]}},
{"type": "Feature", "id": "MClXeLQp-IajWr45fWwEAY7a4GA=", "properties": {"ref": "0375", "storeType": "HD", "@spider": "dunelm_gb", "shop": "interior_decoration", "addr:street_address": "Alston Retail Park", "addr:city": "Keighley", "addr:postcode": "BD21 4AG", "addr:country": "GB", "name": "Keighley", "phone": "01535 280313", "website": "https://www.dunelm.com/stores/keighley", "contact:email": "Keighley.M2M0375@dunelm.com", "opening_hours": "Mo-Fr 09:00-20:00; Sa 09:00-19:00; Su 10:00-16:00", "brand": "Dunelm", "brand:wikidata": "Q5315020", "nsi_id": "dunelm-839895"}, "geometry": {"type": "Point", "coordinates": [-1.894439999999993, 53.874328]}},
{"type": "Feature", "id": "0RRuBhpRb07qka4yoosQWxUgvG4=", "properties": {"ref": "0365", "storeType": "HD", "@spider": "dunelm_gb", "shop": "interior_decoration", "addr:street_address": "Parc Pensarn", "addr:city": "Carmarthenshire", "addr:postcode": "SA31 2NG", "addr:country": "GB", "name": "Carmarthen", "phone": "01267 610754", "website": "https://www.dunelm.com/stores/carmarthen", "contact:email": "Carmarthen.M2M0365@dunelm.com", "opening_hours": "Mo-Fr 09:00-20:00; Sa 09:00-19:00; Su 10:30-16:30", "brand": "Dunelm", "brand:wikidata": "Q5315020", "nsi_id": "dunelm-839895"}, "geometry": {"type": "Point", "coordinates": [-4.310931999999994, 51.84859999999999]}},
{"type": "Feature", "id": "C9gfAu0LwAyLS5D54xzK8f41gWo=", "properties": {"ref": "0360", "storeType": "HD", "@spider": "dunelm_gb", "shop": "interior_decoration", "addr:street_address": "Birchley Industrial Estate", "addr:city": "West Midlands", "addr:postcode": "B69 1DT", "addr:country": "GB", "name": "Oldbury", "phone": "01215 447755", "website": "https://www.dunelm.com/stores/oldbury", "contact:email": "Oldbury.M2M0360@dunelm.com", "opening_hours": "Mo-Fr 09:00-21:00; Sa 09:00-19:00; Su 10:30-16:30", "brand": "Dunelm", "brand:wikidata": "Q5315020", "nsi_id": "dunelm-839895"}, "geometry": {"type": "Point", "coordinates": [-2.030301298946142, 52.49293266788791]}},
{"type": "Feature", "id": "pEmkZhTbqRDo7vo-qPweQD--RA8=", "properties": {"ref": "0355", "storeType": "HD", "@spider": "dunelm_gb", "shop": "interior_decoration", "addr:street_address": "Upper Boat Road", "addr:city": "Rhonnda Cynon Taf", "addr:postcode": "CF37 5BP", "addr:country": "GB", "name": "Pontypridd", "phone": "01443 800870", "website": "https://www.dunelm.com/stores/pontypridd", "contact:email": "Pontypridd.M2M0355@dunelm.com", "opening_hours": "Mo-Fr 09:00-20:00; Sa 09:00-19:00; Su 10:30-16:30", "brand": "Dunelm", "brand:wikidata": "Q5315020", "nsi_id": "dunelm-839895"}, "geometry": {"type": "Point", "coordinates": [-3.292953372001648, 51.57679616655832]}},
{"type": "Feature", "id": "5GXgDjk_vv5WXOg-zprcXeIPkRE=", "properties": {"ref": "0350", "storeType": "HD", "@spider": "dunelm_gb", "shop": "interior_decoration", "addr:street_address": "Weston Retail Park", "addr:city": "Weston Super Mare", "addr:postcode": "BS23 3YZ", "addr:country": "GB", "name": "Weston-Super-Mare", "phone": "01934 641004", "website": "https://www.dunelm.com/stores/weston-super-mare", "contact:email": "Weston.M2M0350@dunelm.com", "opening_hours": "Mo-Fr 09:00-20:00; Sa 09:00-19:00; Su 10:30-16:30", "brand": "Dunelm", "brand:wikidata": "Q5315020", "nsi_id": "dunelm-839895"}, "geometry": {"type": "Point", "coordinates": [-2.961672, 51.339552]}},
{"type": "Feature", "id": "plA3Swt-La_-JxoE1D06SSP0yDI=", "properties": {"ref": "0345", "storeType": "HD", "@spider": "dunelm_gb", "shop": "interior_decoration", "addr:street_address": "Snipe Retail Park", "addr:city": "Ashton Under Lyne", "addr:postcode": "OL7 0DN", "addr:country": "GB", "name": "Manchester Ashton Under Lyne", "phone": "0161 6679980", "website": "https://www.dunelm.com/stores/manchester-ashton-under-lyne", "contact:email": "AshtonUnderLyneManchesterStore.M2M@dunelm.com", "opening_hours": "Mo-Fr 09:00-20:00; Sa 09:00-19:00; Su 10:30-16:30", "brand": "Dunelm", "brand:wikidata": "Q5315020", "nsi_id": "dunelm-839895"}, "geometry": {"type": "Point", "coordinates": [-2.126183999999995, 53.47821700000001]}},
{"type": "Feature", "id": "2zVgSa2t7B8xWueO4Jw6WJlBtnM=", "properties": {"ref": "0340", "storeType": "HD", "@spider": "dunelm_gb", "shop": "interior_decoration", "addr:street_address": "Green Street", "addr:city": "Greater Manchester", "addr:postcode": "M26 3ED", "addr:country": "GB", "name": "Manchester Radcliffe", "phone": "0161 7241004", "website": "https://www.dunelm.com/stores/manchester-radcliffe", "contact:email": "Radcliffe.M2M0340@dunelm.com", "opening_hours": "Mo-Fr 09:00-20:00; Sa 09:00-19:00; Su 11:00-17:00", "brand": "Dunelm", "brand:wikidata": "Q5315020", "nsi_id": "dunelm-839895"}, "geometry": {"type": "Point", "coordinates": [-2.327840924263, 53.56008015415934]}},
{"type": "Feature", "id": "N30Zi5HSOITDHKSzGWdxAAZS2AA=", "properties": {"ref": "0335", "storeType": "HD", "@spider": "dunelm_gb", "shop": "interior_decoration", "addr:street_address": "Valley Retail Park", "addr:city": "London", "addr:postcode": "CR0 4YJ", "addr:country": "GB", "name": "Croydon", "phone": "02033 766525", "website": "https://www.dunelm.com/stores/croydon", "contact:email": "Croydon.M2M0335@dunelm.com", "opening_hours": "Mo-Fr 09:00-21:00; Sa 09:00-19:00; Su 11:00-17:00", "brand": "Dunelm", "brand:wikidata": "Q5315020", "nsi_id": "dunelm-839895"}, "geometry": {"type": "Point", "coordinates": [-0.1265540000000009, 51.37912699999999]}},
{"type": "Feature", "id": "bG3V1NqHWvOqHz8-LUZrYx1HzpE=", "properties": {"ref": "0325", "storeType": "HD", "@spider": "dunelm_gb", "shop": "interior_decoration", "addr:street_address": "Greyhound Retail Park", "addr:city": "Chester", "addr:postcode": "CH1 4QG", "addr:country": "GB", "name": "Chester", "phone": "01244 371999", "website": "https://www.dunelm.com/stores/chester", "contact:email": "Chester.M2M0325@dunelm.com", "opening_hours": "Mo-Fr 09:00-20:00; Sa 09:00-19:00; Su 11:00-17:00", "brand": "Dunelm", "brand:wikidata": "Q5315020", "nsi_id": "dunelm-839895"}, "geometry": {"type": "Point", "coordinates": [-2.914026975631714, 53.1974080973109]}},
{"type": "Feature", "id": "HX6bpjP58dCCzzESmeScbDd2XKg=", "properties": {"ref": "0320", "storeType": "HD", "@spider": "dunelm_gb", "shop": "interior_decoration", "addr:street_address": "Airport Retail Park", "addr:city": "Coventry", "addr:postcode": "CV3 4RP", "addr:country": "GB", "name": "Coventry", "phone": "02476 639555", "website": "https://www.dunelm.com/stores/coventry", "contact:email": "Coventry.M2M0320@dunelm.com", "opening_hours": "Mo-Fr 09:00-21:00; Sa 09:00-19:00; Su 10:30-16:30", "brand": "Dunelm", "brand:wikidata": "Q5315020", "nsi_id": "dunelm-839895"}, "geometry": {"type": "Point", "coordinates": [-1.464195, 52.380295]}},
{"type": "Feature", "id": "PrpqSOemMfvJLCyxRofLl6yoEfc=", "properties": {"ref": "0305", "storeType": "HD", "@spider": "dunelm_gb", "shop": "interior_decoration", "addr:street_address": "Linkway Retail Park", "addr:city": "Cannock", "addr:postcode": "WS11 1TD", "addr:country": "GB", "name": "Cannock", "phone": "01543 503437", "website": "https://www.dunelm.com/stores/cannock", "contact:email": "Cannock.M2M0305@dunelm.com", "opening_hours": "Mo-Fr 09:00-20:00; Sa 09:00-19:00; Su 10:00-16:00", "brand": "Dunelm", "brand:wikidata": "Q5315020", "nsi_id": "dunelm-839895"}, "geometry": {"type": "Point", "coordinates": [-2.047672000000007, 52.67812399999999]}},
{"type": "Feature", "id": "5vsbNb6DsSsp0aY_PU1bB6x2VdU=", "properties": {"ref": "0300", "storeType": "HD", "@spider": "dunelm_gb", "shop": "interior_decoration", "addr:street_address": "Birkenshaw Trading Estate", "addr:city": "Uddingston", "addr:postcode": "G71 5PR", "addr:country": "GB", "name": "Glasgow Uddingston", "phone": "01698 812503", "website": "https://www.dunelm.com/stores/glasgow-uddingston", "contact:email": "Uddingston.M2M0300@dunelm.com", "opening_hours": "Mo-Fr 09:00-20:00; Sa 09:00-18:00; Su 10:00-18:00", "brand": "Dunelm", "brand:wikidata": "Q5315020", "nsi_id": "dunelm-839895"}, "geometry": {"type": "Point", "coordinates": [-4.088114000000003, 55.83669299999999]}},
{"type": "Feature", "id": "1bDfFYWyTni9oMugydiaEMIDAd0=", "properties": {"ref": "0295", "storeType": "HD", "@spider": "dunelm_gb", "shop": "interior_decoration", "addr:street_address": "Abbotsinch Retail Park", "addr:city": "Paisley", "addr:postcode": "PA3 4EP", "addr:country": "GB", "name": "Glasgow Paisley", "phone": "0141 2128419", "website": "https://www.dunelm.com/stores/glasgow-paisley", "contact:email": "Paisley.M2M0295@dunelm.com", "opening_hours": "Mo-Fr 09:00-20:00; Sa 09:00-19:00; Su 10:00-18:00", "brand": "Dunelm", "brand:wikidata": "Q5315020", "nsi_id": "dunelm-839895"}, "geometry": {"type": "Point", "coordinates": [-4.416976999999995, 55.861419]}},
{"type": "Feature", "id": "7lwDD5prJl3YBR9_8hUD1n437sM=", "properties": {"ref": "0285", "storeType": "HD", "@spider": "dunelm_gb", "shop": "interior_decoration", "addr:street_address": "Rustington Retail Park", "addr:city": "Littlehampton", "addr:postcode": "BN16 3RT", "addr:country": "GB", "name": "Rustington", "phone": "01903 254814", "website": "https://www.dunelm.com/stores/rustington", "contact:email": "Rustington.M2M0285@dunelm.com", "opening_hours": "Mo-Fr 09:00-20:00; Sa 09:00-19:00; Su 10:00-16:00", "brand": "Dunelm", "brand:wikidata": "Q5315020", "nsi_id": "dunelm-839895"}, "geometry": {"type": "Point", "coordinates": [-0.4980920000000033, 50.817576]}},
{"type": "Feature", "id": "L0ZHdy_5pAXgFv-7XupCkYgknko=", "properties": {"ref": "0275", "storeType": "HD", "@spider": "dunelm_gb", "shop": "interior_decoration", "addr:street_address": "Coast Road Retail Park", "addr:city": "North Shields", "addr:postcode": "NE29 7UJ", "addr:country": "GB", "name": "North Shields", "phone": "0191 5947766", "website": "https://www.dunelm.com/stores/north-shields", "contact:email": "NorthShields.M2M0275@dunelm.com", "opening_hours": "Mo-Fr 09:00-20:00; Sa 09:00-19:00; Su 10:30-16:30", "brand": "Dunelm", "brand:wikidata": "Q5315020", "nsi_id": "dunelm-839895"}, "geometry": {"type": "Point", "coordinates": [-1.481893658638, 55.01104587524112]}},
{"type": "Feature", "id": "aPrAautanX07U_SutU2AmwGturk=", "properties": {"ref": "0270", "storeType": "HD", "@spider": "dunelm_gb", "shop": "interior_decoration", "addr:street_address": "9 St Margaret's Way", "addr:city": "Cambridgeshire", "addr:postcode": "PE29 6DA", "addr:country": "GB", "name": "Huntingdon", "phone": "01480 417807", "website": "https://www.dunelm.com/stores/huntingdon", "contact:email": "Huntingdon.M2M0270@dunelm.com", "opening_hours": "Mo-Fr 09:00-20:00; Sa 09:00-19:00; Su 10:30-16:30", "brand": "Dunelm", "brand:wikidata": "Q5315020", "nsi_id": "dunelm-839895"}, "geometry": {"type": "Point", "coordinates": [-0.1931850000000046, 52.33910299999999]}},
{"type": "Feature", "id": "qGBIq7lwMi_BLj_f8WFwKmlQ23g=", "properties": {"ref": "0265", "storeType": "HD", "@spider": "dunelm_gb", "shop": "interior_decoration", "addr:street_address": "Ashford Retail Park", "addr:city": "Ashford", "addr:postcode": "TN24 0SG", "addr:country": "GB", "name": "Ashford", "phone": "01233 223171", "website": "https://www.dunelm.com/stores/ashford", "contact:email": "Ashford.M2M0265@dunelm.com", "opening_hours": "Mo-Fr 09:00-20:00; Sa 09:00-19:00; Su 10:30-16:30", "brand": "Dunelm", "brand:wikidata": "Q5315020", "nsi_id": "dunelm-839895"}, "geometry": {"type": "Point", "coordinates": [0.9049919999999911, 51.12965599999999]}},
{"type": "Feature", "id": "PpmGWACiJNXQnAzZjZqdzBwK78o=", "properties": {"ref": "0255", "storeType": "HD", "@spider": "dunelm_gb", "shop": "interior_decoration", "addr:street_address": "Bourne Retail Park", "addr:city": "Salisbury", "addr:postcode": "SP1 2QQ", "addr:country": "GB", "name": "Salisbury", "phone": "01722 448830", "website": "https://www.dunelm.com/stores/salisbury", "contact:email": "Salisbury.M2M0255@dunelm.com", "opening_hours": "Mo-Fr 09:00-20:00; Sa 09:00-19:00; Su 10:00-16:00", "brand": "Dunelm", "brand:wikidata": "Q5315020", "nsi_id": "dunelm-839895"}, "geometry": {"type": "Point", "coordinates": [-1.774214999999994, 51.06355599999999]}},
{"type": "Feature", "id": "o96UKY7OX6VvycolC4ERO1onFV4=", "properties": {"ref": "0245", "storeType": "HD", "@spider": "dunelm_gb", "shop": "interior_decoration", "addr:street_address": "Mountbatten Retail Park", "addr:city": "Hampshire", "addr:postcode": "SO15 1QJ", "addr:country": "GB", "name": "Southampton", "phone": "02382 023820", "website": "https://www.dunelm.com/stores/southampton", "contact:email": "Southampton.M2M0245@dunelm.com", "opening_hours": "Mo-Fr 09:00-20:00; Sa 09:00-19:00; Su 10:30-16:30", "brand": "Dunelm", "brand:wikidata": "Q5315020", "nsi_id": "dunelm-839895"}, "geometry": {"type": "Point", "coordinates": [-1.412896999999995, 50.90644700000001]}},
{"type": "Feature", "id": "1TXmn2uu7-Mmai07qnU-JgwCO6c=", "properties": {"ref": "0235", "storeType": "HD", "@spider": "dunelm_gb", "shop": "interior_decoration", "addr:street_address": "Cathedral Retail Park", "addr:city": "Wakefield", "addr:postcode": "WF2 9SE", "addr:country": "GB", "name": "Wakefield", "phone": "01924 664970", "website": "https://www.dunelm.com/stores/wakefield", "contact:email": "Wakefield.M2M0235@dunelm.com", "opening_hours": "Mo-Fr 09:00-20:00; Sa 09:00-19:00; Su 10:30-16:30", "brand": "Dunelm", "brand:wikidata": "Q5315020", "nsi_id": "dunelm-839895"}, "geometry": {"type": "Point", "coordinates": [-1.502673999999999, 53.67614]}},
{"type": "Feature", "id": "oA4qpPBgy8jUYhNsJmBy_znYZJ0=", "properties": {"ref": "0225", "storeType": "HD", "@spider": "dunelm_gb", "shop": "interior_decoration", "addr:street_address": "Belvedere Road", "addr:city": "Suffolk", "addr:postcode": "NR33 0PX", "addr:country": "GB", "name": "Lowestoft", "phone": "01502 440799", "website": "https://www.dunelm.com/stores/lowestoft", "contact:email": "Lowestoft.M2M0225@dunelm.com", "opening_hours": "Mo-Fr 09:00-20:00; Sa 09:00-19:00; Su 10:00-16:00", "brand": "Dunelm", "brand:wikidata": "Q5315020", "nsi_id": "dunelm-839895"}, "geometry": {"type": "Point", "coordinates": [1.743237376213074, 52.47157322599788]}},
{"type": "Feature", "id": "aMeM22cuQJC0MNDt8cVZHtM9XCM=", "properties": {"ref": "0215", "storeType": "HD", "@spider": "dunelm_gb", "shop": "interior_decoration", "addr:street_address": "The Peel Centre", "addr:city": "Blackburn", "addr:postcode": "BB1 1DG", "addr:country": "GB", "name": "Blackburn", "phone": "01254 915336", "website": "https://www.dunelm.com/stores/blackburn", "contact:email": "Blackburn.M2M0215@dunelm.com", "opening_hours": "Mo-Fr 09:00-20:00; Sa 09:00-19:00; Su 11:00-17:00", "brand": "Dunelm", "brand:wikidata": "Q5315020", "nsi_id": "dunelm-839895"}, "geometry": {"type": "Point", "coordinates": [-2.486434578895569, 53.74376198347417]}},
{"type": "Feature", "id": "vDCkc8MJ_5U6hAlxgPydYYmqGsA=", "properties": {"ref": "0205", "storeType": "HD", "@spider": "dunelm_gb", "shop": "interior_decoration", "addr:street_address": "Regents Place Retail Park", "addr:city": "Loughborough", "addr:postcode": "LE11 5PL", "addr:country": "GB", "name": "Loughborough", "phone": "01509 234717", "website": "https://www.dunelm.com/stores/loughborough", "contact:email": "Loughborough.M2M0205@dunelm.com", "opening_hours": "Mo-Sa 09:00-18:00; Su 10:30-16:30", "brand": "Dunelm", "brand:wikidata": "Q5315020", "nsi_id": "dunelm-839895"}, "geometry": {"type": "Point", "coordinates": [-1.212884187698364, 52.77390107994582]}},
{"type": "Feature", "id": "XJYoWDBoIvXlfimcP44hixVEZcc=", "properties": {"ref": "0195", "storeType": "HD", "@spider": "dunelm_gb", "shop": "interior_decoration", "addr:street_address": "The Croft Retail Park & Leisure Park", "addr:city": "Merseyside", "addr:postcode": "CH62 3PN", "addr:country": "GB", "name": "Bromborough", "phone": "01515 593885", "website": "https://www.dunelm.com/stores/bromborough", "contact:email": "Bromborough.M2M0195@dunelm.com", "opening_hours": "Mo-Fr 09:00-20:00; Sa 09:00-19:00; Su 10:30-16:30", "brand": "Dunelm", "brand:wikidata": "Q5315020", "nsi_id": "dunelm-839895"}, "geometry": {"type": "Point", "coordinates": [-2.97503650188446, 53.34140509666746]}},
{"type": "Feature", "id": "i5IczpTmRxIkSzNln80of6w16cI=", "properties": {"ref": "0190", "storeType": "HD", "@spider": "dunelm_gb", "shop": "interior_decoration", "addr:street_address": "Belgrave Retail Park", "addr:city": "Wisbech", "addr:postcode": "PE14 0SD", "addr:country": "GB", "name": "Wisbech", "phone": "01945 588088", "website": "https://www.dunelm.com/stores/wisbech", "contact:email": "Wisbech.M2M0190@dunelm.com", "opening_hours": "Mo-Fr 09:00-20:00; Sa 09:00-19:00; Su 10:00-16:00", "brand": "Dunelm", "brand:wikidata": "Q5315020", "nsi_id": "dunelm-839895"}, "geometry": {"type": "Point", "coordinates": [0.1464389999999893, 52.65209100000001]}},
{"type": "Feature", "id": "LiQ26Z0J8EdLQTtZyqQdjCQ9Hlw=", "properties": {"ref": "0185", "storeType": "HD", "@spider": "dunelm_gb", "shop": "interior_decoration", "addr:street_address": "Harlow Retail Park", "addr:city": "Harlow", "addr:postcode": "CM20 2TN", "addr:country": "GB", "name": "Harlow", "phone": "01279 216990", "website": "https://www.dunelm.com/stores/harlow", "contact:email": "Harlow.M2M0185@dunelm.com", "opening_hours": "Mo-Fr 09:00-20:00; Sa 09:00-19:00; Su 10:30-16:30", "brand": "Dunelm", "brand:wikidata": "Q5315020", "nsi_id": "dunelm-839895"}, "geometry": {"type": "Point", "coordinates": [0.1097828149795532, 51.78395779676412]}},
{"type": "Feature", "id": "p0SYn5gfg-DSeHtiDQWxC3p7exE=", "properties": {"ref": "0180", "storeType": "HD", "@spider": "dunelm_gb", "shop": "interior_decoration", "addr:street_address": "Canklow Meadows Estate", "addr:city": "South Yorkshire", "addr:postcode": "S60 2XL", "addr:country": "GB", "name": "Rotherham", "phone": "01709 820374", "website": "https://www.dunelm.com/stores/rotherham", "contact:email": "Rotherham.M2M0180@dunelm.com", "opening_hours": "Mo-Fr 09:00-20:00; Sa 09:00-19:00; Su 10:00-16:00", "brand": "Dunelm", "brand:wikidata": "Q5315020", "nsi_id": "dunelm-839895"}, "geometry": {"type": "Point", "coordinates": [-1.355207562446594, 53.40557293736624]}},
{"type": "Feature", "id": "REG4TOCQCdRja-ScVgQuwHkLbGQ=", "properties": {"ref": "0175", "storeType": "HD", "@spider": "dunelm_gb", "shop": "interior_decoration", "addr:street_address": "Bromley Road Retail Park", "addr:city": "Catford", "addr:postcode": "SE6 2QU", "addr:country": "GB", "name": "Catford", "phone": "02038 468486", "website": "https://www.dunelm.com/stores/catford", "contact:email": "Catford.M2M0175@dunelm.com", "opening_hours": "Mo-Fr 09:00-21:00; Sa 09:00-19:00; Su 11:00-17:00", "brand": "Dunelm", "brand:wikidata": "Q5315020", "nsi_id": "dunelm-839895"}, "geometry": {"type": "Point", "coordinates": [-0.02036333084106445, 51.43702233905236]}},
{"type": "Feature", "id": "P4zyyl4Jrhiyhjo75imnpYVuA3I=", "properties": {"ref": "0165", "storeType": "HD", "@spider": "dunelm_gb", "shop": "interior_decoration", "addr:street_address": "Tramway Retail Park", "addr:city": "Brislington", "addr:postcode": "BS4 3DS", "addr:country": "GB", "name": "Bristol Brislington", "phone": "01172 446335", "website": "https://www.dunelm.com/stores/bristol-brislington", "contact:email": "Bristol.M2M0165@dunelm.com", "opening_hours": "Mo-Fr 09:00-20:00; Sa 09:00-19:00; Su 10:30-16:30", "brand": "Dunelm", "brand:wikidata": "Q5315020", "nsi_id": "dunelm-839895"}, "geometry": {"type": "Point", "coordinates": [-2.556193, 51.438538]}},
{"type": "Feature", "id": "zoIoZmdHu4DydV6yhNfmrnhUHEw=", "properties": {"ref": "0155", "storeType": "HD", "@spider": "dunelm_gb", "shop": "interior_decoration", "addr:street_address": "Broadfields Retail Park", "addr:city": "Aylesbury", "addr:postcode": "HP19 8BU", "addr:country": "GB", "name": "Aylesbury", "phone": "01296 321881", "website": "https://www.dunelm.com/stores/aylesbury", "contact:email": "Aylesbury.M2M0155@dunelm.com", "opening_hours": "Mo-Fr 09:00-20:00; Sa 09:00-19:00; Su 11:00-17:00", "brand": "Dunelm", "brand:wikidata": "Q5315020", "nsi_id": "dunelm-839895"}, "geometry": {"type": "Point", "coordinates": [-0.836908221244812, 51.82410139377861]}},
{"type": "Feature", "id": "gZPSZ2sBr-gRQ2hHeWycXaEJDgs=", "properties": {"ref": "0149", "storeType": null, "@spider": "dunelm_gb", "shop": "interior_decoration", "addr:street_address": "Unit 12, Elliott\u2019s Field Retail Park", "addr:city": "Rugby", "addr:postcode": "CV21 1SR", "addr:country": "GB", "name": "Rugby", "phone": "01788 541171", "website": "https://www.dunelm.com/stores/rugby-ef", "contact:email": "rugby.m2m0149@dunelm.com", "opening_hours": "Mo-Fr 09:00-20:00; Sa 09:00-19:00; Su 11:00-17:00", "brand": "Dunelm", "brand:wikidata": "Q5315020", "nsi_id": "dunelm-839895"}, "geometry": {"type": "Point", "coordinates": [-1.256286782, 52.38909772]}}]}