{"type":"FeatureCollection","features":[{"type": "Feature", "id": "PTL3o-3S3H41mDobeZa4WMMHgkA=", "properties": {"ref": "https://www.eastofengland.coop/foodstores/elmswell", "@spider": "east_of_england_coop", "operator": "East of England Co-operative Society", "operator:wikidata": "Q5329759", "shop": "supermarket", "addr:street_address": "Ashfield Road", "addr:city": "Elmswell", "addr:state": "Suffolk", "addr:postcode": "IP30 9HG", "addr:country": "GB", "name": "Elmswell", "phone": "01359 240938", "website": "https://www.eastofengland.coop/foodstores/elmswell", "brand": "East of England Co-op", "brand:wikidata": "Q5329759", "nsi_id": "eastofenglandcoop-a8278b"}, "geometry": {"type": "Point", "coordinates": [0.9127584790679, 52.237091751843]}},
{"type": "Feature", "id": "hNTQznZ7rePLRbDi-7liVbIjtkk=", "properties": {"ref": "https://www.eastofengland.coop/foodstores/east-bergholt", "@spider": "east_of_england_coop", "operator": "East of England Co-operative Society", "operator:wikidata": "Q5329759", "shop": "supermarket", "addr:street_address": "The Street", "addr:city": "East Bergholt", "addr:state": "Suffolk", "addr:postcode": "CO7 6TA", "addr:country": "GB", "name": "East Bergholt", "phone": "01206 298239", "website": "https://www.eastofengland.coop/foodstores/east-bergholt", "brand": "East of England Co-op", "brand:wikidata": "Q5329759", "nsi_id": "eastofenglandcoop-a8278b"}, "geometry": {"type": "Point", "coordinates": [1.0109524, 51.9714544]}},
{"type": "Feature", "id": "yRiHmhFo2J--3olKK1IaUqUQoJk=", "properties": {"ref": "https://www.eastofengland.coop/foodstores/earls-colne", "@spider": "east_of_england_coop", "operator": "East of England Co-operative Society", "operator:wikidata": "Q5329759", "shop": "supermarket", "addr:street_address": "37 High Street", "addr:city": "Earls Colne", "addr:state": "Essex", "addr:postcode": "CO6 2PA", "addr:country": "GB", "name": "Earls Colne", "phone": "01787 222092", "website": "https://www.eastofengland.coop/foodstores/earls-colne", "brand": "East of England Co-op", "brand:wikidata": "Q5329759", "nsi_id": "eastofenglandcoop-a8278b"}, "geometry": {"type": "Point", "coordinates": [0.6998543394257, 51.9280117351283]}},
{"type": "Feature", "id": "DK0LAcCbcVa7pu01dNkjBPC9zys=", "properties": {"ref": "https://www.eastofengland.coop/foodstores/earlham-green-lane-norwich", "@spider": "east_of_england_coop", "operator": "East of England Co-operative Society", "operator:wikidata": "Q5329759", "shop": "supermarket", "addr:street_address": "Earlham Green Lane", "addr:city": "Norwich", "addr:state": "Norfolk", "addr:postcode": "NR4 7TE", "addr:country": "GB", "name": "Earlham Green Lane, Norwich", "phone": "01603 454518", "website": "https://www.eastofengland.coop/foodstores/earlham-green-lane-norwich", "brand": "East of England Co-op", "brand:wikidata": "Q5329759", "nsi_id": "eastofenglandcoop-a8278b"}, "geometry": {"type": "Point", "coordinates": [1.2474817, 52.6293794]}},
{"type": "Feature", "id": "VwzlhsnLBqAT7FAvnJeBxghl3lE=", "properties": {"ref": "https://www.eastofengland.coop/foodstores/dereham-road-norwich", "@spider": "east_of_england_coop", "operator": "East of England Co-operative Society", "operator:wikidata": "Q5329759", "shop": "supermarket", "addr:street_address": "58-62 Dereham Road", "addr:city": "Norwich", "addr:state": "Norfolk", "addr:postcode": "NR2 4BT", "addr:country": "GB", "name": "Dereham Road, Norwich", "phone": "01603 765080", "website": "https://www.eastofengland.coop/foodstores/dereham-road-norwich", "brand": "East of England Co-op", "brand:wikidata": "Q5329759", "nsi_id": "eastofenglandcoop-a8278b"}, "geometry": {"type": "Point", "coordinates": [1.2811306914017, 52.6329664355975]}},
{"type": "Feature", "id": "xUXQmH9WS6ucTSBbFONaKs-S-E0=", "properties": {"ref": "https://www.eastofengland.coop/foodstores/dedham", "@spider": "east_of_england_coop", "operator": "East of England Co-operative Society", "operator:wikidata": "Q5329759", "shop": "supermarket", "addr:street_address": "High Street,", "addr:city": "Dedham", "addr:state": "Essex", "addr:postcode": "CO7 6DE", "addr:country": "GB", "name": "Dedham", "phone": "01206 322125", "website": "https://www.eastofengland.coop/foodstores/dedham", "brand": "East of England Co-op", "brand:wikidata": "Q5329759", "nsi_id": "eastofenglandcoop-a8278b"}, "geometry": {"type": "Point", "coordinates": [0.9946829, 51.9561126]}},
{"type": "Feature", "id": "P43vjB84JVfd5LAfRSPsfHJEi8s=", "properties": {"ref": "https://www.eastofengland.coop/foodstores/debenham", "@spider": "east_of_england_coop", "operator": "East of England Co-operative Society", "operator:wikidata": "Q5329759", "shop": "supermarket", "addr:street_address": "1 Chancery Lane", "addr:city": "Debenham", "addr:state": "Suffolk", "addr:postcode": "IP14 6RN", "addr:country": "GB", "name": "Debenham", "phone": "01728 861997", "website": "https://www.eastofengland.coop/foodstores/debenham", "brand": "East of England Co-op", "brand:wikidata": "Q5329759", "nsi_id": "eastofenglandcoop-a8278b"}, "geometry": {"type": "Point", "coordinates": [1.1802023079346, 52.2255399256491]}},
{"type": "Feature", "id": "rowJ-D41e14DhH4xh_jkXr_I7mE=", "properties": {"ref": "https://www.eastofengland.coop/foodstores/dales-road-ipswich", "@spider": "east_of_england_coop", "operator": "East of England Co-operative Society", "operator:wikidata": "Q5329759", "shop": "supermarket", "addr:street_address": "214 Dales Road", "addr:city": "Ipswich", "addr:state": "Suffolk", "addr:postcode": "IP1 4JY", "addr:country": "GB", "name": "Dales Road, Ipswich", "phone": "01473 211074", "website": "https://www.eastofengland.coop/foodstores/dales-road-ipswich", "brand": "East of England Co-op", "brand:wikidata": "Q5329759", "nsi_id": "eastofenglandcoop-a8278b"}, "geometry": {"type": "Point", "coordinates": [1.1474246523926, 52.074235675637]}},
{"type": "Feature", "id": "JFWvxkGE4oHPPD-O8oODLANQJWQ=", "properties": {"ref": "https://www.eastofengland.coop/foodstores/costessey", "@spider": "east_of_england_coop", "operator": "East of England Co-operative Society", "operator:wikidata": "Q5329759", "shop": "supermarket", "addr:street_address": "Norwich Road, New Costessey", "addr:city": "Norwich", "addr:state": "Norfolk", "addr:postcode": "NR5 0EX", "addr:country": "GB", "name": "Costessey", "phone": "01603 742088", "website": "https://www.eastofengland.coop/foodstores/costessey", "brand": "East of England Co-op", "brand:wikidata": "Q5329759", "nsi_id": "eastofenglandcoop-a8278b"}, "geometry": {"type": "Point", "coordinates": [1.2348570048935, 52.6478945198812]}},
{"type": "Feature", "id": "pK3ykKto90lcEViAml1ktElW-LI=", "properties": {"ref": "https://www.eastofengland.coop/foodstores/coopers-lane-clacton-on-sea", "@spider": "east_of_england_coop", "operator": "East of England Co-operative Society", "operator:wikidata": "Q5329759", "shop": "supermarket", "addr:street_address": "77-79 Coopers Lane", "addr:city": "Clacton On Sea", "addr:state": "Essex", "addr:postcode": "CO15 2BX", "addr:country": "GB", "name": "Coopers Lane, Clacton On Sea", "phone": "01255 475332", "website": "https://www.eastofengland.coop/foodstores/coopers-lane-clacton-on-sea", "brand": "East of England Co-op", "brand:wikidata": "Q5329759", "nsi_id": "eastofenglandcoop-a8278b"}, "geometry": {"type": "Point", "coordinates": [1.1346443, 51.7925879]}},
{"type": "Feature", "id": "aI2EARHb_YzYfejqI1NFn0VYj2A=", "properties": {"ref": "https://www.eastofengland.coop/foodstores/connaught-avenue-frinton", "@spider": "east_of_england_coop", "operator": "East of England Co-operative Society", "operator:wikidata": "Q5329759", "shop": "supermarket", "addr:street_address": "102-104 Connaught Ave", "addr:city": "Frinton On Sea", "addr:state": "Essex", "addr:postcode": "CO139PT", "addr:country": "GB", "name": "Connaught Avenue, Frinton", "phone": "01255 675329", "website": "https://www.eastofengland.coop/foodstores/connaught-avenue-frinton", "brand": "East of England Co-op", "brand:wikidata": "Q5329759", "nsi_id": "eastofenglandcoop-a8278b"}, "geometry": {"type": "Point", "coordinates": [1.2450965300247, 51.8338660287416]}},
{"type": "Feature", "id": "xfVT2UAJJbmLmEB8_I8p0nxgGGg=", "properties": {"ref": "https://www.eastofengland.coop/supermarket/combs-ford-stowmarket", "@spider": "east_of_england_coop", "operator": "East of England Co-operative Society", "operator:wikidata": "Q5329759", "shop": "supermarket", "addr:street_address": "Combs Lane, Combs Ford", "addr:city": "Stowmarket", "addr:state": "Suffolk", "addr:postcode": "IP14 2DA", "addr:country": "GB", "name": "Combs Ford, Stowmarket", "phone": "01449 770677", "website": "https://www.eastofengland.coop/supermarket/combs-ford-stowmarket", "brand": "East of England Co-op", "brand:wikidata": "Q5329759", "nsi_id": "eastofenglandcoop-a8278b"}, "geometry": {"type": "Point", "coordinates": [0.9967823148195, 52.1800744875016]}},
{"type": "Feature", "id": "rnrJ2WV8-m6LNCJPCCUZSb55wn8=", "properties": {"ref": "https://www.eastofengland.coop/foodstores/colman-road-norwich", "@spider": "east_of_england_coop", "operator": "East of England Co-operative Society", "operator:wikidata": "Q5329759", "shop": "supermarket", "addr:street_address": "129A Colman Road", "addr:city": "Norwich", "addr:state": "Norfolk", "addr:postcode": "NR4 7HA", "addr:country": "GB", "name": "Colman Road, Norwich", "phone": "01603 457625", "website": "https://www.eastofengland.coop/foodstores/colman-road-norwich", "brand": "East of England Co-op", "brand:wikidata": "Q5329759", "nsi_id": "eastofenglandcoop-a8278b"}, "geometry": {"type": "Point", "coordinates": [1.2604873312828, 52.6246403720115]}},
{"type": "Feature", "id": "oe2aEDIbtLxj-kV9fQActu1BAY4=", "properties": {"ref": "https://www.eastofengland.coop/foodstores/colchester-road-ipswich", "@spider": "east_of_england_coop", "operator": "East of England Co-operative Society", "operator:wikidata": "Q5329759", "shop": "supermarket", "addr:street_address": "65 Colchester Road", "addr:city": "Ipswich", "addr:state": "Suffolk", "addr:postcode": "IP4 4ST", "addr:country": "GB", "name": "Colchester Road, Ipswich", "phone": "01473 728650", "website": "https://www.eastofengland.coop/foodstores/colchester-road-ipswich", "brand": "East of England Co-op", "brand:wikidata": "Q5329759", "nsi_id": "eastofenglandcoop-a8278b"}, "geometry": {"type": "Point", "coordinates": [1.1780570354431, 52.070439997678]}},
{"type": "Feature", "id": "yLfuP74bHpg0YujkctxVQFHguug=", "properties": {"ref": "https://www.eastofengland.coop/foodstores/coggeshall", "@spider": "east_of_england_coop", "operator": "East of England Co-operative Society", "operator:wikidata": "Q5329759", "shop": "supermarket", "addr:street_address": "62 East Street", "addr:city": "Coggeshall", "addr:state": "Essex", "addr:postcode": "CO6 1SJ", "addr:country": "GB", "name": "Coggeshall", "phone": "01376 542000", "website": "https://www.eastofengland.coop/foodstores/coggeshall", "brand": "East of England Co-op", "brand:wikidata": "Q5329759", "nsi_id": "eastofenglandcoop-a8278b"}, "geometry": {"type": "Point", "coordinates": [0.6889338999999, 51.8712534]}},
{"type": "Feature", "id": "bpnmYaKx7JgcsmXa1ZEfUDTAy4U=", "properties": {"ref": "https://www.eastofengland.coop/foodstores/clapgate-lane-ipswich", "@spider": "east_of_england_coop", "operator": "East of England Co-operative Society", "operator:wikidata": "Q5329759", "shop": "supermarket", "addr:street_address": "219 Clapgate Lane", "addr:city": "Ipswich", "addr:state": "Suffolk", "addr:postcode": "IP3 0RF", "addr:country": "GB", "name": "Clapgate Lane, Ipswich", "phone": "01473 727626", "website": "https://www.eastofengland.coop/foodstores/clapgate-lane-ipswich", "brand": "East of England Co-op", "brand:wikidata": "Q5329759", "nsi_id": "eastofenglandcoop-a8278b"}, "geometry": {"type": "Point", "coordinates": [1.1814066761963, 52.0363035343187]}},
{"type": "Feature", "id": "V7yQQsdRtwBC0-_iZ4lAe5vEoAU=", "properties": {"ref": "https://www.eastofengland.coop/funerals/woodbridge", "@spider": "east_of_england_coop", "operator": "East of England Co-operative Society", "operator:wikidata": "Q5329759", "shop": "supermarket", "addr:street_address": "26 Quayside", "addr:city": "Woodbridge", "addr:state": "Suffolk", "addr:postcode": "IP12 1BH", "addr:country": "GB", "name": "Woodbridge Funeral Directors", "phone": "01394 385456", "website": "https://www.eastofengland.coop/funerals/woodbridge", "brand": "East of England Co-op", "brand:wikidata": "Q5329759", "nsi_id": "eastofenglandcoop-a8278b"}, "geometry": {"type": "Point", "coordinates": [1.3211264825561, 52.0918617501819]}},
{"type": "Feature", "id": "Hv8k0wZHGjYGG01XvkI6P7baScI=", "properties": {"ref": "https://www.eastofengland.coop/funerals/wivenhoe", "@spider": "east_of_england_coop", "operator": "East of England Co-operative Society", "operator:wikidata": "Q5329759", "shop": "supermarket", "addr:street_address": "59 High Street, Wivenhoe", "addr:city": "Colchester", "addr:state": "Essex", "addr:postcode": "CO7 9AZ", "addr:country": "GB", "name": "Wivenhoe Funeral Directors", "phone": "01206 822880", "website": "https://www.eastofengland.coop/funerals/wivenhoe", "brand": "East of England Co-op", "brand:wikidata": "Q5329759", "nsi_id": "eastofenglandcoop-a8278b"}, "geometry": {"type": "Point", "coordinates": [0.9590886889375, 51.8563161087543]}},
{"type": "Feature", "id": "3D_elMnT2lXBbHKclB9vL_dkofA=", "properties": {"ref": "https://www.eastofengland.coop/funerals/witham", "@spider": "east_of_england_coop", "operator": "East of England Co-operative Society", "operator:wikidata": "Q5329759", "shop": "supermarket", "addr:street_address": "115b Newland Street", "addr:city": "Witham", "addr:state": "Essex", "addr:postcode": "CM8 1BE", "addr:country": "GB", "name": "Witham Funeral Directors", "phone": "01376 520870", "website": "https://www.eastofengland.coop/funerals/witham", "brand": "East of England Co-op", "brand:wikidata": "Q5329759", "nsi_id": "eastofenglandcoop-a8278b"}, "geometry": {"type": "Point", "coordinates": [0.6373137588955, 51.7976121917169]}},
{"type": "Feature", "id": "Kim6css6ALyUd6KhuWguPSsxGhg=", "properties": {"ref": "https://www.eastofengland.coop/funerals/west-mersea", "@spider": "east_of_england_coop", "operator": "East of England Co-operative Society", "operator:wikidata": "Q5329759", "shop": "supermarket", "addr:street_address": "44 Kingsland Road, West Mersea", "addr:city": "Colchester", "addr:state": "Essex", "addr:postcode": "CO5 8RA", "addr:country": "GB", "name": "West Mersea Funeral Directors", "phone": "01206 382120", "website": "https://www.eastofengland.coop/funerals/west-mersea", "brand": "East of England Co-op", "brand:wikidata": "Q5329759", "nsi_id": "eastofenglandcoop-a8278b"}, "geometry": {"type": "Point", "coordinates": [0.9189876484101, 51.7779337238479]}},
{"type": "Feature", "id": "Du1cvD05Jk23gLj49jQvw5FHqG4=", "properties": {"ref": "https://www.eastofengland.coop/funerals/walton-on-the-naze", "@spider": "east_of_england_coop", "operator": "East of England Co-operative Society", "operator:wikidata": "Q5329759", "shop": "supermarket", "addr:street_address": "77-79 High Street", "addr:city": "Walton-on-the-Naze", "addr:state": "Essex", "addr:postcode": "CO14 8AB", "addr:country": "GB", "name": "Walton On The Naze Funeral Directors", "phone": "01255 852783", "website": "https://www.eastofengland.coop/funerals/walton-on-the-naze", "brand": "East of England Co-op", "brand:wikidata": "Q5329759", "nsi_id": "eastofenglandcoop-a8278b"}, "geometry": {"type": "Point", "coordinates": [1.2713145804262, 51.8491681533739]}},
{"type": "Feature", "id": "HJW-8ntj7h5tLGy1ct_v0Mnzj2Q=", "properties": {"ref": "https://www.eastofengland.coop/funerals/triangle-frinton-on-sea", "@spider": "east_of_england_coop", "operator": "East of England Co-operative Society", "operator:wikidata": "Q5329759", "shop": "supermarket", "addr:street_address": "12a The Triangle", "addr:city": "Frinton-on-Sea", "addr:state": "Essex", "addr:postcode": "CO13 0AU", "addr:country": "GB", "name": "Frinton On Sea Funeral Directors, Triangle", "phone": "01255 642010", "website": "https://www.eastofengland.coop/funerals/triangle-frinton-on-sea", "brand": "East of England Co-op", "brand:wikidata": "Q5329759", "nsi_id": "eastofenglandcoop-a8278b"}, "geometry": {"type": "Point", "coordinates": [1.2496016687172, 51.8440464280993]}},
{"type": "Feature", "id": "6Qt19DP_Nn9uVc8TMd9EXHqLiMk=", "properties": {"ref": "https://www.eastofengland.coop/funerals/tiptree", "@spider": "east_of_england_coop", "operator": "East of England Co-operative Society", "operator:wikidata": "Q5329759", "shop": "supermarket", "addr:street_address": "1-3 Chapel Road", "addr:city": "Tiptree", "addr:state": "Essex", "addr:postcode": "CO5 0RA", "addr:country": "GB", "name": "Tiptree Funeral Directors", "phone": "01621 279999", "website": "https://www.eastofengland.coop/funerals/tiptree", "brand": "East of England Co-op", "brand:wikidata": "Q5329759", "nsi_id": "eastofenglandcoop-a8278b"}, "geometry": {"type": "Point", "coordinates": [0.7537005845169, 51.8082331412755]}},
{"type": "Feature", "id": "uVRIuwFO4r7IrGZARI6-1hOyXEo=", "properties": {"ref": "https://www.eastofengland.coop/funerals/swaffham", "@spider": "east_of_england_coop", "operator": "East of England Co-operative Society", "operator:wikidata": "Q5329759", "shop": "supermarket", "addr:street_address": "51 Market Place", "addr:city": "Swaffham", "addr:state": "Norfolk", "addr:postcode": "PE37 7LE", "addr:country": "GB", "name": "Swaffham Funeral Directors", "phone": "01760 292000", "website": "https://www.eastofengland.coop/funerals/swaffham", "brand": "East of England Co-op", "brand:wikidata": "Q5329759", "nsi_id": "eastofenglandcoop-a8278b"}, "geometry": {"type": "Point", "coordinates": [0.6882428, 52.6487392]}},
{"type": "Feature", "id": "5OqmGIkm1GdWlTnHVgoQAs8Ktlo=", "properties": {"ref": "https://www.eastofengland.coop/funerals/sudbury", "@spider": "east_of_england_coop", "operator": "East of England Co-operative Society", "operator:wikidata": "Q5329759", "shop": "supermarket", "addr:street_address": "16 Cornard Road", "addr:city": "Sudbury", "addr:state": "Suffolk", "addr:postcode": "CO10 2XA", "addr:country": "GB", "name": "Sudbury Funeral Directors", "phone": "01787 372736", "website": "https://www.eastofengland.coop/funerals/sudbury", "brand": "East of England Co-op", "brand:wikidata": "Q5329759", "nsi_id": "eastofenglandcoop-a8278b"}, "geometry": {"type": "Point", "coordinates": [0.7341123, 52.0375793]}},
{"type": "Feature", "id": "8NQ9O0jKAbYmndE8ZbKVfJTk5l4=", "properties": {"ref": "https://www.eastofengland.coop/funerals/stowmarket", "@spider": "east_of_england_coop", "operator": "East of England Co-operative Society", "operator:wikidata": "Q5329759", "shop": "supermarket", "addr:street_address": "9 Marriotts Walk", "addr:city": "Stowmarket", "addr:state": "Suffolk", "addr:postcode": "IP14 1AF", "addr:country": "GB", "name": "Stowmarket Chapel of Rest", "phone": "01449 612765", "website": "https://www.eastofengland.coop/funerals/stowmarket", "brand": "East of England Co-op", "brand:wikidata": "Q5329759", "nsi_id": "eastofenglandcoop-a8278b"}, "geometry": {"type": "Point", "coordinates": [0.9958419306886, 52.1867972212644]}},
{"type": "Feature", "id": "a-AJ9QyaYhTCeeaHKW9Qi0OSwkI=", "properties": {"ref": "https://www.eastofengland.coop/funerals/stanway", "@spider": "east_of_england_coop", "operator": "East of England Co-operative Society", "operator:wikidata": "Q5329759", "shop": "supermarket", "addr:street_address": "Stanway Retail Park, Peartree Road, Stanway", "addr:city": "Colchester", "addr:state": "Essex", "addr:postcode": "CO3 0LX", "addr:country": "GB", "name": "Stanway Funeral Directors", "phone": "01206 372190", "website": "https://www.eastofengland.coop/funerals/stanway", "brand": "East of England Co-op", "brand:wikidata": "Q5329759", "nsi_id": "eastofenglandcoop-a8278b"}, "geometry": {"type": "Point", "coordinates": [0.8448922, 51.8785376]}},
{"type": "Feature", "id": "xIOWQ96ZKN_Od7Qayy5cS7aKP8E=", "properties": {"ref": "https://www.eastofengland.coop/funerals/stalham", "@spider": "east_of_england_coop", "operator": "East of England Co-operative Society", "operator:wikidata": "Q5329759", "shop": "supermarket", "addr:street_address": "93 High Street", "addr:city": "Stalham", "addr:state": "Norfolk", "addr:postcode": "NR12 9BB", "addr:country": "GB", "name": "Stalham Funeral Directors", "phone": "01692 580213", "website": "https://www.eastofengland.coop/funerals/stalham", "brand": "East of England Co-op", "brand:wikidata": "Q5329759", "nsi_id": "eastofenglandcoop-a8278b"}, "geometry": {"type": "Point", "coordinates": [1.5140890576721, 52.7721457736425]}},
{"type": "Feature", "id": "WnDGtynLbcJ9bGaNdqTJj_NEKF4=", "properties": {"ref": "https://www.eastofengland.coop/funerals/south-woodham-ferrers", "@spider": "east_of_england_coop", "operator": "East of England Co-operative Society", "operator:wikidata": "Q5329759", "shop": "supermarket", "addr:street_address": "31 Hullbridge Road", "addr:city": "South Woodham Ferrers", "addr:state": "Essex", "addr:postcode": "CM3 5PL", "addr:country": "GB", "name": "South Woodham Ferrers Funeral Directors", "phone": "01245 328307", "website": "https://www.eastofengland.coop/funerals/south-woodham-ferrers", "brand": "East of England Co-op", "brand:wikidata": "Q5329759", "nsi_id": "eastofenglandcoop-a8278b"}, "geometry": {"type": "Point", "coordinates": [0.6066011717583, 51.6510606464558]}},
{"type": "Feature", "id": "HPdWnjLL_yQwBJ0r2wE1UBZ0OFI=", "properties": {"ref": "https://www.eastofengland.coop/funerals/witard-road", "@spider": "east_of_england_coop", "operator": "East of England Co-operative Society", "operator:wikidata": "Q5329759", "shop": "supermarket", "addr:street_address": "21 Witard Road, Heartease", "addr:city": "Norwich", "addr:state": "Norfolk", "addr:postcode": "NR7 9XD", "addr:country": "GB", "name": "Norwich, Funeral Directors, Witard Road", "phone": "01603 431797", "website": "https://www.eastofengland.coop/funerals/witard-road", "brand": "East of England Co-op", "brand:wikidata": "Q5329759", "nsi_id": "eastofenglandcoop-a8278b"}, "geometry": {"type": "Point", "coordinates": [1.3372186276474, 52.6411165825731]}},
{"type": "Feature", "id": "AhqIfRkLFjy1E9Ug1v97J36rfiA=", "properties": {"ref": "https://www.eastofengland.coop/funerals/st-stephens-square-norwich", "@spider": "east_of_england_coop", "operator": "East of England Co-operative Society", "operator:wikidata": "Q5329759", "shop": "supermarket", "addr:street_address": "St Stephens Square", "addr:city": "Norwich", "addr:state": "Norfolk", "addr:postcode": "NR1 3SS", "addr:country": "GB", "name": "Norwich Funeral Directors, St Stephens Square", "phone": "01603 625495", "website": "https://www.eastofengland.coop/funerals/st-stephens-square-norwich", "brand": "East of England Co-op", "brand:wikidata": "Q5329759", "nsi_id": "eastofenglandcoop-a8278b"}, "geometry": {"type": "Point", "coordinates": [1.2887291, 52.6237977]}},
{"type": "Feature", "id": "sQJG6kXFoE7GoKATPcwPhCwWhww=", "properties": {"ref": "https://www.eastofengland.coop/funerals/meredith-greengrass-stowmarket", "@spider": "east_of_england_coop", "operator": "East of England Co-operative Society", "operator:wikidata": "Q5329759", "shop": "supermarket", "addr:street_address": "Meredith Greengrass, 15 Ipswich Street", "addr:city": "Stowmarket", "addr:state": "Suffolk", "addr:postcode": "IP14 1AH", "addr:country": "GB", "name": "Stowmarket Funeral Directors", "phone": "01449 709860", "website": "https://www.eastofengland.coop/funerals/meredith-greengrass-stowmarket", "brand": "East of England Co-op", "brand:wikidata": "Q5329759", "nsi_id": "eastofenglandcoop-a8278b"}, "geometry": {"type": "Point", "coordinates": [0.997082, 52.1871507]}},
{"type": "Feature", "id": "jhkNE_FxV_9qMIC6SEokvwHXSl8=", "properties": {"ref": "https://www.eastofengland.coop/funerals/needham-market", "@spider": "east_of_england_coop", "operator": "East of England Co-operative Society", "operator:wikidata": "Q5329759", "shop": "supermarket", "addr:street_address": "Station Yard", "addr:city": "Needham Market", "addr:state": "Suffolk", "addr:postcode": "IP6 8AS", "addr:country": "GB", "name": "Needham Market Funeral Directors", "phone": "01449 709862", "website": "https://www.eastofengland.coop/funerals/needham-market", "brand": "East of England Co-op", "brand:wikidata": "Q5329759", "nsi_id": "eastofenglandcoop-a8278b"}, "geometry": {"type": "Point", "coordinates": [1.0544625, 52.1524737]}},
{"type": "Feature", "id": "lS7Zd7FAV20CEvz5UFhyNlCbNm0=", "properties": {"ref": "https://www.eastofengland.coop/funerals/bury-st-edmunds", "@spider": "east_of_england_coop", "operator": "East of England Co-operative Society", "operator:wikidata": "Q5329759", "shop": "supermarket", "addr:street_address": "2 Hospital Road", "addr:city": "Bury St Edmunds", "addr:state": "Suffolk", "addr:postcode": "IP33 3JT", "addr:country": "GB", "name": "Bury St Edmunds Funeral Directors", "phone": "01284 754017", "website": "https://www.eastofengland.coop/funerals/bury-st-edmunds", "brand": "East of England Co-op", "brand:wikidata": "Q5329759", "nsi_id": "eastofenglandcoop-a8278b"}, "geometry": {"type": "Point", "coordinates": [0.7112774418028, 52.2409385604172]}},
{"type": "Feature", "id": "4prauPEzoyRbtsNm0hLPtu8lT4Q=", "properties": {"ref": "https://www.eastofengland.coop/funerals/manningtree", "@spider": "east_of_england_coop", "operator": "East of England Co-operative Society", "operator:wikidata": "Q5329759", "shop": "supermarket", "addr:street_address": "Century House, Station Road", "addr:city": "Manningtree", "addr:state": "Essex", "addr:postcode": "CO11 1AA", "addr:country": "GB", "name": "Manningtree Funeral Directors", "phone": "01206 391855", "website": "https://www.eastofengland.coop/funerals/manningtree", "brand": "East of England Co-op", "brand:wikidata": "Q5329759", "nsi_id": "eastofenglandcoop-a8278b"}, "geometry": {"type": "Point", "coordinates": [1.0596055, 51.9462757]}},
{"type": "Feature", "id": "sETcS7yKdPYeHVDKABDT_T5lErA=", "properties": {"ref": "https://www.eastofengland.coop/funerals/maldon", "@spider": "east_of_england_coop", "operator": "East of England Co-operative Society", "operator:wikidata": "Q5329759", "shop": "supermarket", "addr:street_address": "13-15 Market Hill", "addr:city": "Maldon", "addr:state": "Essex", "addr:postcode": "CM9 4PZ", "addr:country": "GB", "name": "Maldon Funeral Directors", "phone": "01621 858578", "website": "https://www.eastofengland.coop/funerals/maldon", "brand": "East of England Co-op", "brand:wikidata": "Q5329759", "nsi_id": "eastofenglandcoop-a8278b"}, "geometry": {"type": "Point", "coordinates": [0.6784524594551, 51.7320310969014]}},
{"type": "Feature", "id": "sYzdZKfZiIQVxqr3ecKjqm1JGQE=", "properties": {"ref": "https://www.eastofengland.coop/funerals/oulton-road-lowestoft", "@spider": "east_of_england_coop", "operator": "East of England Co-operative Society", "operator:wikidata": "Q5329759", "shop": "supermarket", "addr:street_address": "143 Oulton Road", "addr:city": "Lowestoft", "addr:state": "Suffolk", "addr:postcode": "NR32 4QS", "addr:country": "GB", "name": "Lowestoft Funeral Directors, Oulton Road", "phone": "01502 511580", "website": "https://www.eastofengland.coop/funerals/oulton-road-lowestoft", "brand": "East of England Co-op", "brand:wikidata": "Q5329759", "nsi_id": "eastofenglandcoop-a8278b"}, "geometry": {"type": "Point", "coordinates": [1.7324116855667, 52.4867922642186]}},
{"type": "Feature", "id": "p_kIAU8ysQ-k5iFsr5V7IQHRQ7Y=", "properties": {"ref": "https://www.eastofengland.coop/funerals/lowestoft", "@spider": "east_of_england_coop", "operator": "East of England Co-operative Society", "operator:wikidata": "Q5329759", "shop": "supermarket", "addr:street_address": "45-47 Westwood Avenue", "addr:city": "Lowestoft", "addr:state": "Suffolk", "addr:postcode": "NR33 9RW", "addr:country": "GB", "name": "Lowestoft Funeral Directors", "phone": "01502 222020", "website": "https://www.eastofengland.coop/funerals/lowestoft", "brand": "East of England Co-op", "brand:wikidata": "Q5329759", "nsi_id": "eastofenglandcoop-a8278b"}, "geometry": {"type": "Point", "coordinates": [1.7173991, 52.4630261]}},
{"type": "Feature", "id": "1x-n43tPK1RbcKH2XceXXhAc54U=", "properties": {"ref": "https://www.eastofengland.coop/funerals/long-stratton", "@spider": "east_of_england_coop", "operator": "East of England Co-operative Society", "operator:wikidata": "Q5329759", "shop": "supermarket", "addr:street_address": "8 The Precinct, Ipswich Road", "addr:city": "Long Stratton", "addr:state": "Norfolk", "addr:postcode": "NR15 2XW", "addr:country": "GB", "name": "Long Stratton Funeral Directors", "phone": "01508 532645", "website": "https://www.eastofengland.coop/funerals/long-stratton", "brand": "East of England Co-op", "brand:wikidata": "Q5329759", "nsi_id": "eastofenglandcoop-a8278b"}, "geometry": {"type": "Point", "coordinates": [1.2334734497375, 52.4852679589203]}},
{"type": "Feature", "id": "b4iX27LSynsk6K4ZL4ixBz708nk=", "properties": {"ref": "https://www.eastofengland.coop/funerals/leiston", "@spider": "east_of_england_coop", "operator": "East of England Co-operative Society", "operator:wikidata": "Q5329759", "shop": "supermarket", "addr:street_address": "43 Sizewell Road", "addr:city": "Leiston", "addr:state": "Suffolk", "addr:postcode": "IP16 4AD", "addr:country": "GB", "name": "Leiston Funeral Directors", "phone": "01728 830670", "website": "https://www.eastofengland.coop/funerals/leiston", "brand": "East of England Co-op", "brand:wikidata": "Q5329759", "nsi_id": "eastofenglandcoop-a8278b"}, "geometry": {"type": "Point", "coordinates": [1.5799581447745, 52.206245174013]}},
{"type": "Feature", "id": "IJURf16k5m5NRG67hY5qhFKvVB8=", "properties": {"ref": "https://www.eastofengland.coop/funerals/kingsbury-saunders-hadleigh", "@spider": "east_of_england_coop", "operator": "East of England Co-operative Society", "operator:wikidata": "Q5329759", "shop": "supermarket", "addr:street_address": "61 George Street", "addr:city": "Hadleigh, Ipswich", "addr:state": "Suffolk", "addr:postcode": "IP7 5BW", "addr:country": "GB", "name": "Hadleigh Funeral Directors", "phone": "01473 823117", "website": "https://www.eastofengland.coop/funerals/kingsbury-saunders-hadleigh", "brand": "East of England Co-op", "brand:wikidata": "Q5329759", "nsi_id": "eastofenglandcoop-a8278b"}, "geometry": {"type": "Point", "coordinates": [0.9573705, 52.0451617]}},
{"type": "Feature", "id": "NF4PIZLIfER5cLFQdQqRCZWBu7A=", "properties": {"ref": "https://www.eastofengland.coop/funerals/kesgrave", "@spider": "east_of_england_coop", "operator": "East of England Co-operative Society", "operator:wikidata": "Q5329759", "shop": "supermarket", "addr:street_address": "139 Main Road, Kesgrave", "addr:city": "Ipswich", "addr:state": "Suffolk", "addr:postcode": "IP5 2NP", "addr:country": "GB", "name": "Kesgrave Funeral Directors", "phone": "01473 860030", "website": "https://www.eastofengland.coop/funerals/kesgrave", "brand": "East of England Co-op", "brand:wikidata": "Q5329759", "nsi_id": "eastofenglandcoop-a8278b"}, "geometry": {"type": "Point", "coordinates": [1.2377587478158, 52.066142968991]}},
{"type": "Feature", "id": "gMEuOKnvMvmtYuc7hQBF9-n_gI8=", "properties": {"ref": "https://www.eastofengland.coop/funerals/brightlingsea-kemble", "@spider": "east_of_england_coop", "operator": "East of England Co-operative Society", "operator:wikidata": "Q5329759", "shop": "supermarket", "addr:street_address": "16 High Street, Brightlingsea", "addr:city": "Colchester", "addr:state": "Essex", "addr:postcode": "CO7 0AE", "addr:country": "GB", "name": "Brightlingsea Funeral Directors", "phone": "01206 302277", "website": "https://www.eastofengland.coop/funerals/brightlingsea-kemble", "brand": "East of England Co-op", "brand:wikidata": "Q5329759", "nsi_id": "eastofenglandcoop-a8278b"}, "geometry": {"type": "Point", "coordinates": [1.0281387891632, 51.810311107129]}},
{"type": "Feature", "id": "4R9JFz_ZvDLEnAsxeK-sb39h-qQ=", "properties": {"ref": "https://www.eastofengland.coop/funerals/kelvedon", "@spider": "east_of_england_coop", "operator": "East of England Co-operative Society", "operator:wikidata": "Q5329759", "shop": "supermarket", "addr:street_address": "213a High Street, Kelvedon", "addr:city": "Colchester", "addr:state": "Essex", "addr:postcode": "CO5 9JD", "addr:country": "GB", "name": "Kelvedon Funeral Directors", "phone": "01376 573627", "website": "https://www.eastofengland.coop/funerals/kelvedon", "brand": "East of England Co-op", "brand:wikidata": "Q5329759", "nsi_id": "eastofenglandcoop-a8278b"}, "geometry": {"type": "Point", "coordinates": [0.7045911810203, 51.8398307756301]}},
{"type": "Feature", "id": "yZhcEthpyYDOHYQFuukHngYInjs=", "properties": {"ref": "https://www.eastofengland.coop/funerals/st-helens-street-ipswich", "@spider": "east_of_england_coop", "operator": "East of England Co-operative Society", "operator:wikidata": "Q5329759", "shop": "supermarket", "addr:street_address": "47 St Helens Street", "addr:city": "Ipswich", "addr:state": "Suffolk", "addr:postcode": "IP4 2JL", "addr:country": "GB", "name": "Ipswich Funeral Directors, St Helens Street", "phone": "01473 257242", "website": "https://www.eastofengland.coop/funerals/st-helens-street-ipswich", "brand": "East of England Co-op", "brand:wikidata": "Q5329759", "nsi_id": "eastofenglandcoop-a8278b"}, "geometry": {"type": "Point", "coordinates": [1.1628911092621, 52.0568504755436]}},
{"type": "Feature", "id": "jDp4ffD7PL9WCfA6fyX6bFj0LZ4=", "properties": {"ref": "https://www.eastofengland.coop/funerals/norwich-road-ipswich", "@spider": "east_of_england_coop", "operator": "East of England Co-operative Society", "operator:wikidata": "Q5329759", "shop": "supermarket", "addr:street_address": "283 Norwich Road", "addr:city": "Ipswich", "addr:state": "Suffolk", "addr:postcode": "IP1 4BP", "addr:country": "GB", "name": "Ipswich Funeral Directors, Norwich Road", "phone": "01473 232837", "website": "https://www.eastofengland.coop/funerals/norwich-road-ipswich", "brand": "East of England Co-op", "brand:wikidata": "Q5329759", "nsi_id": "eastofenglandcoop-a8278b"}, "geometry": {"type": "Point", "coordinates": [1.1374368748687, 52.0671640587827]}},
{"type": "Feature", "id": "9zJcqOPfwQqWTrdhLvlIcvIYU7I=", "properties": {"ref": "https://www.eastofengland.coop/funerals/nacton-road-ipswich", "@spider": "east_of_england_coop", "operator": "East of England Co-operative Society", "operator:wikidata": "Q5329759", "shop": "supermarket", "addr:street_address": "310 Nacton Road", "addr:city": "Ipswich", "addr:state": "Suffolk", "addr:postcode": "IP3 9JH", "addr:country": "GB", "name": "Ipswich Funeral Directors, Nacton Road", "phone": "01473 860040", "website": "https://www.eastofengland.coop/funerals/nacton-road-ipswich", "brand": "East of England Co-op", "brand:wikidata": "Q5329759", "nsi_id": "eastofenglandcoop-a8278b"}, "geometry": {"type": "Point", "coordinates": [1.1854707, 52.0402004]}},
{"type": "Feature", "id": "pbzDj09Am3IJ1vTQSgkro5uOxzw=", "properties": {"ref": "https://www.eastofengland.coop/funerals/hawthorn-drive-ipswich", "@spider": "east_of_england_coop", "operator": "East of England Co-operative Society", "operator:wikidata": "Q5329759", "shop": "supermarket", "addr:street_address": "247a Hawthorn Drive, Chantry", "addr:city": "Ipswich", "addr:state": "Suffolk", "addr:postcode": "IP2 0QG", "addr:country": "GB", "name": "Ipswich Funeral Directors, Hawthorn Drive", "phone": "01473 602414", "website": "https://www.eastofengland.coop/funerals/hawthorn-drive-ipswich", "brand": "East of England Co-op", "brand:wikidata": "Q5329759", "nsi_id": "eastofenglandcoop-a8278b"}, "geometry": {"type": "Point", "coordinates": [1.1231076748688, 52.0461973124807]}},
{"type": "Feature", "id": "WpC8aV9Bau1T0S3dvrCgiYW9OKQ=", "properties": {"ref": "https://www.eastofengland.coop/funerals/foxhall-road", "@spider": "east_of_england_coop", "operator": "East of England Co-operative Society", "operator:wikidata": "Q5329759", "shop": "supermarket", "addr:street_address": "364 Foxhall Road", "addr:city": "Ipswich", "addr:state": "Suffolk", "addr:postcode": "IP3 8JE", "addr:country": "GB", "name": "Ipswich Funeral Directors, Foxhall Road", "phone": "01473 728445", "website": "https://www.eastofengland.coop/funerals/foxhall-road", "brand": "East of England Co-op", "brand:wikidata": "Q5329759", "nsi_id": "eastofenglandcoop-a8278b"}, "geometry": {"type": "Point", "coordinates": [1.187600338098, 52.0519258235172]}},
{"type": "Feature", "id": "2_JSUA8uo5zABl2ik5h4SFsSIh4=", "properties": {"ref": "https://www.eastofengland.coop/funerals/hellesdon", "@spider": "east_of_england_coop", "operator": "East of England Co-operative Society", "operator:wikidata": "Q5329759", "shop": "supermarket", "addr:street_address": "132 Meadow Way, Hellesdon,", "addr:city": "Norwich,", "addr:state": "Norfolk", "addr:postcode": "NR6 6XU", "addr:country": "GB", "name": "Hellesdon Funeral Directors", "phone": "01603 580190", "website": "https://www.eastofengland.coop/funerals/hellesdon", "brand": "East of England Co-op", "brand:wikidata": "Q5329759", "nsi_id": "eastofenglandcoop-a8278b"}, "geometry": {"type": "Point", "coordinates": [1.271485, 52.6663924]}},
{"type": "Feature", "id": "-Smy7HDGnwanwyfCd04_0WzIm4g=", "properties": {"ref": "https://www.eastofengland.coop/funerals/great-yarmouth", "@spider": "east_of_england_coop", "operator": "East of England Co-operative Society", "operator:wikidata": "Q5329759", "shop": "supermarket", "addr:street_address": "144 Northgate Street", "addr:city": "Great Yarmouth", "addr:state": "Norfolk", "addr:postcode": "NR30 1BP", "addr:country": "GB", "name": "Great Yarmouth Funeral Directors", "phone": "01493 842464", "website": "https://www.eastofengland.coop/funerals/great-yarmouth", "brand": "East of England Co-op", "brand:wikidata": "Q5329759", "nsi_id": "eastofenglandcoop-a8278b"}, "geometry": {"type": "Point", "coordinates": [1.7284148841309, 52.6182990132776]}},
{"type": "Feature", "id": "qube-4AMnvxQMIVWQjkp87VchE0=", "properties": {"ref": "https://www.eastofengland.coop/funerals/gorleston", "@spider": "east_of_england_coop", "operator": "East of England Co-operative Society", "operator:wikidata": "Q5329759", "shop": "supermarket", "addr:street_address": "154 High Street", "addr:city": "Gorleston-on-Sea", "addr:state": "Norfolk", "addr:postcode": "NR31 6RB", "addr:country": "GB", "name": "Gorleston Funeral Directors", "phone": "01493 440838", "website": "https://www.eastofengland.coop/funerals/gorleston", "brand": "East of England Co-op", "brand:wikidata": "Q5329759", "nsi_id": "eastofenglandcoop-a8278b"}, "geometry": {"type": "Point", "coordinates": [1.7279073920654, 52.5793415615678]}},
{"type": "Feature", "id": "gTktIdjEp8ENaMin3bGsu62G0c4=", "properties": {"ref": "https://www.eastofengland.coop/funerals/george-bush-norwich", "@spider": "east_of_england_coop", "operator": "East of England Co-operative Society", "operator:wikidata": "Q5329759", "shop": "supermarket", "addr:street_address": "93 Oak Street", "addr:city": "Norwich", "addr:state": "Norfolk", "addr:postcode": "NR3 3BP", "addr:country": "GB", "name": "Norwich Funeral Directors, Oak Street", "phone": "01603 764157", "website": "https://www.eastofengland.coop/funerals/george-bush-norwich", "brand": "East of England Co-op", "brand:wikidata": "Q5329759", "nsi_id": "eastofenglandcoop-a8278b"}, "geometry": {"type": "Point", "coordinates": [1.2888805245369, 52.6358347444322]}},
{"type": "Feature", "id": "lZtmSMDvjUTgXSbtnLfeXO3l-eU=", "properties": {"ref": "https://www.eastofengland.coop/funerals/frinton", "@spider": "east_of_england_coop", "operator": "East of England Co-operative Society", "operator:wikidata": "Q5329759", "shop": "supermarket", "addr:street_address": "96-98 Connaught Avenue", "addr:city": "Frinton-on-Sea", "addr:state": "Essex", "addr:postcode": "CO13 9PT", "addr:country": "GB", "name": "Frinton On Sea Funeral Directors, Connaught Avenue", "phone": "01255 675396", "website": "https://www.eastofengland.coop/funerals/frinton", "brand": "East of England Co-op", "brand:wikidata": "Q5329759", "nsi_id": "eastofenglandcoop-a8278b"}, "geometry": {"type": "Point", "coordinates": [1.2450781, 51.8332989]}},
{"type": "Feature", "id": "8FOna2rl89Y44Jm7CqJpVc5Jkk4=", "properties": {"ref": "https://www.eastofengland.coop/funerals/hamilton-road-felixstowe", "@spider": "east_of_england_coop", "operator": "East of England Co-operative Society", "operator:wikidata": "Q5329759", "shop": "supermarket", "addr:street_address": "183 Hamilton Road", "addr:city": "Felixstowe", "addr:state": "Suffolk", "addr:postcode": "IP11 7DT", "addr:country": "GB", "name": "Felixstowe Funeral Directors, Hamilton Road", "phone": "01394 583010", "website": "https://www.eastofengland.coop/funerals/hamilton-road-felixstowe", "brand": "East of England Co-op", "brand:wikidata": "Q5329759", "nsi_id": "eastofenglandcoop-a8278b"}, "geometry": {"type": "Point", "coordinates": [1.3525986478851, 51.9664296411417]}},
{"type": "Feature", "id": "8cDsM4kaHQ84p9quOOe1gaECXkA=", "properties": {"ref": "https://www.eastofengland.coop/funerals/felixstowe", "@spider": "east_of_england_coop", "operator": "East of England Co-operative Society", "operator:wikidata": "Q5329759", "shop": "supermarket", "addr:street_address": "213 High Street, Walton", "addr:city": "Felixstowe", "addr:state": "Suffolk", "addr:postcode": "IP11 9BQ", "addr:country": "GB", "name": "Felixstowe Funeral Directors, High Street", "phone": "01394 670100", "website": "https://www.eastofengland.coop/funerals/felixstowe", "brand": "East of England Co-op", "brand:wikidata": "Q5329759", "nsi_id": "eastofenglandcoop-a8278b"}, "geometry": {"type": "Point", "coordinates": [1.3410445600495, 51.9712163507084]}},
{"type": "Feature", "id": "F0tbG0-EoJPCyyfbSnZRWXdCBoM=", "properties": {"ref": "https://www.eastofengland.coop/funerals/earls-colne", "@spider": "east_of_england_coop", "operator": "East of England Co-operative Society", "operator:wikidata": "Q5329759", "shop": "supermarket", "addr:street_address": "23 High Street", "addr:city": "Earls Colne", "addr:state": "Essex", "addr:postcode": "CO6 2PA", "addr:country": "GB", "name": "Earls Colne Funeral Directors", "phone": "01787 224566", "website": "https://www.eastofengland.coop/funerals/earls-colne", "brand": "East of England Co-op", "brand:wikidata": "Q5329759", "nsi_id": "eastofenglandcoop-a8278b"}, "geometry": {"type": "Point", "coordinates": [0.6998707491432, 51.9279488874351]}},
{"type": "Feature", "id": "AbWAS45ocOWxb6hK94bQZeSPEfY=", "properties": {"ref": "https://www.eastofengland.coop/funerals/dovercourt", "@spider": "east_of_england_coop", "operator": "East of England Co-operative Society", "operator:wikidata": "Q5329759", "shop": "supermarket", "addr:street_address": "125-127 High Street", "addr:city": "Dovercourt", "addr:state": "Essex", "addr:postcode": "CO12 3AX", "addr:country": "GB", "name": "Dovercourt Funeral Directors", "phone": "01255 503637", "website": "https://www.eastofengland.coop/funerals/dovercourt", "brand": "East of England Co-op", "brand:wikidata": "Q5329759", "nsi_id": "eastofenglandcoop-a8278b"}, "geometry": {"type": "Point", "coordinates": [1.2817459865082, 51.9374613019101]}},
{"type": "Feature", "id": "ixOpV9dEW6EY1L614vS8V76IZOw=", "properties": {"ref": "https://www.eastofengland.coop/funerals/dereham", "@spider": "east_of_england_coop", "operator": "East of England Co-operative Society", "operator:wikidata": "Q5329759", "shop": "supermarket", "addr:street_address": "53 Baxter Row", "addr:city": "Dereham", "addr:state": "Norfolk", "addr:postcode": "NR19 1AY", "addr:country": "GB", "name": "Dereham Funeral Directors", "phone": "01362 692233", "website": "https://www.eastofengland.coop/funerals/dereham", "brand": "East of England Co-op", "brand:wikidata": "Q5329759", "nsi_id": "eastofenglandcoop-a8278b"}, "geometry": {"type": "Point", "coordinates": [0.9411019, 52.6771105]}},
{"type": "Feature", "id": "s8of1BomuJ7M79BK3bt9kaoMl40=", "properties": {"ref": "https://www.eastofengland.coop/funerals/cromer", "@spider": "east_of_england_coop", "operator": "East of England Co-operative Society", "operator:wikidata": "Q5329759", "shop": "supermarket", "addr:street_address": "11 Garden Street", "addr:city": "Cromer", "addr:state": "Norfolk", "addr:postcode": "NR27 9HN", "addr:country": "GB", "name": "Cromer Funeral Directors", "phone": "01263 422130", "website": "https://www.eastofengland.coop/funerals/cromer", "brand": "East of England Co-op", "brand:wikidata": "Q5329759", "nsi_id": "eastofenglandcoop-a8278b"}, "geometry": {"type": "Point", "coordinates": [1.2994196693115, 52.9318031348561]}},
{"type": "Feature", "id": "4nVPNoJyc96a2u6jrMNlCm1ltow=", "properties": {"ref": "https://www.eastofengland.coop/funerals/wimpole-road", "@spider": "east_of_england_coop", "operator": "East of England Co-operative Society", "operator:wikidata": "Q5329759", "shop": "supermarket", "addr:street_address": "89 Wimpole Road", "addr:city": "Colchester", "addr:state": "Essex", "addr:postcode": "CO1 2DB", "addr:country": "GB", "name": "Colchester Funeral Directors, Wimpole Road", "phone": "01206 793492", "website": "https://www.eastofengland.coop/funerals/wimpole-road", "brand": "East of England Co-op", "brand:wikidata": "Q5329759", "nsi_id": "eastofenglandcoop-a8278b"}, "geometry": {"type": "Point", "coordinates": [0.9140155, 51.8841298]}},
{"type": "Feature", "id": "BYhC88M9Mi5jMRG_fO-OKopx5nI=", "properties": {"ref": "https://www.eastofengland.coop/funerals/prettygate-colchester", "@spider": "east_of_england_coop", "operator": "East of England Co-operative Society", "operator:wikidata": "Q5329759", "shop": "supermarket", "addr:street_address": "98 The Commons, Prettygate", "addr:city": "Colchester", "addr:state": "Essex", "addr:postcode": "CO3 4NW", "addr:country": "GB", "name": "Colchester Funeral Directors, Prettygate", "phone": "01206 560988", "website": "https://www.eastofengland.coop/funerals/prettygate-colchester", "brand": "East of England Co-op", "brand:wikidata": "Q5329759", "nsi_id": "eastofenglandcoop-a8278b"}, "geometry": {"type": "Point", "coordinates": [0.8654402944428, 51.8805482049758]}},
{"type": "Feature", "id": "Bxa6I3EQ_yHpBPsc2NCFZ_mgpWE=", "properties": {"ref": "https://www.eastofengland.coop/funerals/greenstead", "@spider": "east_of_england_coop", "operator": "East of England Co-operative Society", "operator:wikidata": "Q5329759", "shop": "supermarket", "addr:street_address": "Tamarisk Way, The Centre, Greenstead", "addr:city": "Colchester", "addr:state": "Essex", "addr:postcode": "CO4 3PX", "addr:country": "GB", "name": "Colchester Funeral Directors, Greenstead", "phone": "01206 860584", "website": "https://www.eastofengland.coop/funerals/greenstead", "brand": "East of England Co-op", "brand:wikidata": "Q5329759", "nsi_id": "eastofenglandcoop-a8278b"}, "geometry": {"type": "Point", "coordinates": [0.9362681202379, 51.8911923943003]}},
{"type": "Feature", "id": "S2P3seYghcWonCFSnyV0mtUHD7E=", "properties": {"ref": "https://www.eastofengland.coop/funerals/clacton-on-sea", "@spider": "east_of_england_coop", "operator": "East of England Co-operative Society", "operator:wikidata": "Q5329759", "shop": "supermarket", "addr:street_address": "56a St Andrew's Road", "addr:city": "Clacton-On-Sea", "addr:state": "Essex", "addr:postcode": "CO15 3AP", "addr:country": "GB", "name": "Clacton Funeral Directors", "phone": "01255 424675", "website": "https://www.eastofengland.coop/funerals/clacton-on-sea", "brand": "East of England Co-op", "brand:wikidata": "Q5329759", "nsi_id": "eastofenglandcoop-a8278b"}, "geometry": {"type": "Point", "coordinates": [1.1494499, 51.7944135]}},
{"type": "Feature", "id": "yP5c_grS4XZFuiimmFtmz6smnIg=", "properties": {"ref": "https://www.eastofengland.coop/funerals/chapel-of-rest-ipswich", "@spider": "east_of_england_coop", "operator": "East of England Co-operative Society", "operator:wikidata": "Q5329759", "shop": "supermarket", "addr:street_address": "Chapel of Rest, 32 Boss Hall Road", "addr:city": "Ipswich", "addr:state": "Suffolk", "addr:postcode": "IP1 5BN", "addr:country": "GB", "name": "Ipswich Chapel of Rest", "phone": "01473 727056", "website": "https://www.eastofengland.coop/funerals/chapel-of-rest-ipswich", "brand": "East of England Co-op", "brand:wikidata": "Q5329759", "nsi_id": "eastofenglandcoop-a8278b"}, "geometry": {"type": "Point", "coordinates": [1.1198511262894, 52.0648345808351]}},
{"type": "Feature", "id": "F-QOHcZWA9v3ao2spnHL12enQdQ=", "properties": {"ref": "https://www.eastofengland.coop/funerals/caister", "@spider": "east_of_england_coop", "operator": "East of England Co-operative Society", "operator:wikidata": "Q5329759", "shop": "supermarket", "addr:street_address": "72b High Street", "addr:city": "Caister-on-Sea", "addr:state": "Norfolk", "addr:postcode": "NR30 5EH", "addr:country": "GB", "name": "Caister Funeral Directors", "phone": "01493 722380", "website": "https://www.eastofengland.coop/funerals/caister", "brand": "East of England Co-op", "brand:wikidata": "Q5329759", "nsi_id": "eastofenglandcoop-a8278b"}, "geometry": {"type": "Point", "coordinates": [1.7258521949676, 52.6486608886862]}},
{"type": "Feature", "id": "feFm31LsXPNlXFNXC7MnTCB4Bnk=", "properties": {"ref": "https://www.eastofengland.coop/funerals/burnham-on-crouch", "@spider": "east_of_england_coop", "operator": "East of England Co-operative Society", "operator:wikidata": "Q5329759", "shop": "supermarket", "addr:street_address": "101 Station Road", "addr:city": "Burnham-on-Crouch", "addr:state": "Essex", "addr:postcode": "CM0 8HR", "addr:country": "GB", "name": "Burnham On Crouch Funeral Directors", "phone": "01621 786666", "website": "https://www.eastofengland.coop/funerals/burnham-on-crouch", "brand": "East of England Co-op", "brand:wikidata": "Q5329759", "nsi_id": "eastofenglandcoop-a8278b"}, "geometry": {"type": "Point", "coordinates": [0.8142231699057, 51.6286604540238]}},
{"type": "Feature", "id": "KnaBrlJHHTCzVlRoF3Bbe08NrGY=", "properties": {"ref": "https://www.eastofengland.coop/funerals/bowthorpe", "@spider": "east_of_england_coop", "operator": "East of England Co-operative Society", "operator:wikidata": "Q5329759", "shop": "supermarket", "addr:street_address": "6 Bowthorpe Centre , Bowthorpe ", "addr:city": "Norwich,", "addr:state": "Norfolk", "addr:postcode": "NR5 9HA", "addr:country": "GB", "name": "Bowthorpe Funeral Directors", "phone": "01603 580250", "website": "https://www.eastofengland.coop/funerals/bowthorpe", "brand": "East of England Co-op", "brand:wikidata": "Q5329759", "nsi_id": "eastofenglandcoop-a8278b"}, "geometry": {"type": "Point", "coordinates": [1.2171799, 52.6372037]}},
{"type": "Feature", "id": "3ShnBIqyJzgu4maNiV1H6fqPcr4=", "properties": {"ref": "https://www.eastofengland.coop/funerals/aylsham-road-norwich", "@spider": "east_of_england_coop", "operator": "East of England Co-operative Society", "operator:wikidata": "Q5329759", "shop": "supermarket", "addr:street_address": "321d Aylsham Road", "addr:city": "Norwich", "addr:state": "Norfolk", "addr:postcode": "NR3 2AB", "addr:country": "GB", "name": "Norwich Funeral Directors, Aylsham Road", "phone": "01603 483060", "website": "https://www.eastofengland.coop/funerals/aylsham-road-norwich", "brand": "East of England Co-op", "brand:wikidata": "Q5329759", "nsi_id": "eastofenglandcoop-a8278b"}, "geometry": {"type": "Point", "coordinates": [1.2795868251312, 52.6530604939975]}},
{"type": "Feature", "id": "5F7SC2VABfs6ryFIy7eGq4Oriws=", "properties": {"ref": "https://www.eastofengland.coop/funerals/attleborough", "@spider": "east_of_england_coop", "operator": "East of England Co-operative Society", "operator:wikidata": "Q5329759", "shop": "supermarket", "addr:street_address": "High Street", "addr:city": "Attleborough,", "addr:state": "Norfolk", "addr:postcode": "NR17 2EH", "addr:country": "GB", "name": "Attleborough Funeral Directors", "phone": "01953 411221", "website": "https://www.eastofengland.coop/funerals/attleborough", "brand": "East of England Co-op", "brand:wikidata": "Q5329759", "nsi_id": "eastofenglandcoop-a8278b"}, "geometry": {"type": "Point", "coordinates": [1.0139259, 52.5162001]}},
{"type": "Feature", "id": "PY_2BYEu6nZRttBR79PbHwOtsOg=", "properties": {"ref": "https://www.eastofengland.coop/funerals/acle", "@spider": "east_of_england_coop", "operator": "East of England Co-operative Society", "operator:wikidata": "Q5329759", "shop": "supermarket", "addr:street_address": "The Street", "addr:city": "Acle", "addr:state": "Norfolk", "addr:postcode": "NR13 3QJ", "addr:country": "GB", "name": "Acle Funeral Directors", "phone": "01493 460040", "website": "https://www.eastofengland.coop/funerals/acle", "brand": "East of England Co-op", "brand:wikidata": "Q5329759", "nsi_id": "eastofenglandcoop-a8278b"}, "geometry": {"type": "Point", "coordinates": [1.5479977, 52.6398196]}},
{"type": "Feature", "id": "zrcPiBAl08fxRtBzB67EjeUsM4I=", "properties": {"ref": "https://www.eastofengland.coop/foodstores/wymondham", "@spider": "east_of_england_coop", "operator": "East of England Co-operative Society", "operator:wikidata": "Q5329759", "shop": "supermarket", "addr:street_address": "32 Limetree Avenue", "addr:city": "Wymondham", "addr:state": "Norfolk", "addr:postcode": "NR18 0HH", "addr:country": "GB", "name": "Wymondham", "phone": "01953 600530", "website": "https://www.eastofengland.coop/foodstores/wymondham", "brand": "East of England Co-op", "brand:wikidata": "Q5329759", "nsi_id": "eastofenglandcoop-a8278b"}, "geometry": {"type": "Point", "coordinates": [1.1263653362457, 52.5800782086811]}},
{"type": "Feature", "id": "2ONTvPpEu1EAHqpiYoHc14ytNEQ=", "properties": {"ref": "https://www.eastofengland.coop/foodstores/woolpit", "@spider": "east_of_england_coop", "operator": "East of England Co-operative Society", "operator:wikidata": "Q5329759", "shop": "supermarket", "addr:street_address": "The Street, Woolpit", "addr:city": "Bury St Edmunds", "addr:state": "Suffolk", "addr:postcode": "IP30 9SA", "addr:country": "GB", "name": "Woolpit", "phone": "01359 240322", "website": "https://www.eastofengland.coop/foodstores/woolpit", "brand": "East of England Co-op", "brand:wikidata": "Q5329759", "nsi_id": "eastofenglandcoop-a8278b"}, "geometry": {"type": "Point", "coordinates": [0.8877690810898, 52.2250003168781]}},
{"type": "Feature", "id": "rj1wefGeYFXCxptFbMlr155nVjs=", "properties": {"ref": "https://www.eastofengland.coop/foodstores/woodbridge-road-ipswich", "@spider": "east_of_england_coop", "operator": "East of England Co-operative Society", "operator:wikidata": "Q5329759", "shop": "supermarket", "addr:street_address": "337 Woodbridge Road", "addr:city": "Ipswich", "addr:state": "Suffolk", "addr:postcode": "IP4 4AX", "addr:country": "GB", "name": "Woodbridge Road, Ipswich", "phone": "01473 728442", "website": "https://www.eastofengland.coop/foodstores/woodbridge-road-ipswich", "brand": "East of England Co-op", "brand:wikidata": "Q5329759", "nsi_id": "eastofenglandcoop-a8278b"}, "geometry": {"type": "Point", "coordinates": [1.1745467620407, 52.0616108208587]}},
{"type": "Feature", "id": "IZu2MC9UgNOB4Eha55ckV3X1R_M=", "properties": {"ref": "https://www.eastofengland.coop/foodstores/woodbridge-road-east-ipswich", "@spider": "east_of_england_coop", "operator": "East of England Co-operative Society", "operator:wikidata": "Q5329759", "shop": "supermarket", "addr:street_address": "51 Woodbridge Road East", "addr:city": "Ipswich", "addr:state": "Suffolk", "addr:postcode": "IP4 5QN", "addr:country": "GB", "name": "Woodbridge Road East, Ipswich", "phone": "01473 728087", "website": "https://www.eastofengland.coop/foodstores/woodbridge-road-east-ipswich", "brand": "East of England Co-op", "brand:wikidata": "Q5329759", "nsi_id": "eastofenglandcoop-a8278b"}, "geometry": {"type": "Point", "coordinates": [1.1987808571472, 52.0615175247086]}},
{"type": "Feature", "id": "MD7p2iczZuJL7nZ9r5GmuHxqAGc=", "properties": {"ref": "https://www.eastofengland.coop/foodstores/wood-road-heybridge", "@spider": "east_of_england_coop", "operator": "East of England Co-operative Society", "operator:wikidata": "Q5329759", "shop": "supermarket", "addr:street_address": "93 - 95 Wood Road, Heybridge", "addr:city": "Maldon", "addr:state": "Essex", "addr:postcode": "CM9 7AS", "addr:country": "GB", "name": "Wood Road, Heybridge", "phone": "01621 853410", "website": "https://www.eastofengland.coop/foodstores/wood-road-heybridge", "brand": "East of England Co-op", "brand:wikidata": "Q5329759", "nsi_id": "eastofenglandcoop-a8278b"}, "geometry": {"type": "Point", "coordinates": [0.6912105380982, 51.7450571318755]}},
{"type": "Feature", "id": "7sK8Ce8Apy16Fdp74ofyttjWeRU=", "properties": {"ref": "https://www.eastofengland.coop/foodstores/wivenhoe", "@spider": "east_of_england_coop", "operator": "East of England Co-operative Society", "operator:wikidata": "Q5329759", "shop": "supermarket", "addr:street_address": "The Avenue", "addr:city": "Wivenhoe", "addr:state": "Essex", "addr:postcode": "CO7 9AH", "addr:country": "GB", "name": "Wivenhoe", "phone": "01206 822861", "website": "https://www.eastofengland.coop/foodstores/wivenhoe", "brand": "East of England Co-op", "brand:wikidata": "Q5329759", "nsi_id": "eastofenglandcoop-a8278b"}, "geometry": {"type": "Point", "coordinates": [0.9599799558197, 51.8597236508769]}},
{"type": "Feature", "id": "-VfnC-adMl2__JxOsxP6HMKq3VQ=", "properties": {"ref": "https://www.eastofengland.coop/foodstores/witard-road-norwich", "@spider": "east_of_england_coop", "operator": "East of England Co-operative Society", "operator:wikidata": "Q5329759", "shop": "supermarket", "addr:street_address": "Witard Road, Heartsease Estate", "addr:city": "Norwich", "addr:state": "Norfolk", "addr:postcode": "NR7 9XD", "addr:country": "GB", "name": "Witard Road, Norwich", "phone": "01603 433127", "website": "https://www.eastofengland.coop/foodstores/witard-road-norwich", "brand": "East of England Co-op", "brand:wikidata": "Q5329759", "nsi_id": "eastofenglandcoop-a8278b"}, "geometry": {"type": "Point", "coordinates": [1.3371220681229, 52.6410840309722]}},
{"type": "Feature", "id": "JwRoJez7OYHOCFA1hmQWlyHScBI=", "properties": {"ref": "https://www.eastofengland.coop/foodstores/wimpole-road-colchester", "@spider": "east_of_england_coop", "operator": "East of England Co-operative Society", "operator:wikidata": "Q5329759", "shop": "supermarket", "addr:street_address": "Wimpole Road", "addr:city": "Colchester", "addr:state": "Essex", "addr:postcode": "CO1 2DB", "addr:country": "GB", "name": "Wimpole Road, Colchester", "phone": "01206 869627", "website": "https://www.eastofengland.coop/foodstores/wimpole-road-colchester", "brand": "East of England Co-op", "brand:wikidata": "Q5329759", "nsi_id": "eastofenglandcoop-a8278b"}, "geometry": {"type": "Point", "coordinates": [0.9138867539673, 51.8839774841954]}},
{"type": "Feature", "id": "_o7oUPSqx8usH4uaxoozyIVkkl0=", "properties": {"ref": "https://www.eastofengland.coop/supermarket/wickham-market", "@spider": "east_of_england_coop", "operator": "East of England Co-operative Society", "operator:wikidata": "Q5329759", "shop": "supermarket", "addr:street_address": "14-18 High Street, Wickham Market", "addr:city": "Woodbridge", "addr:state": "Suffolk", "addr:postcode": "IP13 0HE", "addr:country": "GB", "name": "Wickham Market", "phone": "01728 746313", "website": "https://www.eastofengland.coop/supermarket/wickham-market", "brand": "East of England Co-op", "brand:wikidata": "Q5329759", "nsi_id": "eastofenglandcoop-a8278b"}, "geometry": {"type": "Point", "coordinates": [1.3631806888855, 52.1511734790985]}},
{"type": "Feature", "id": "Gv76e55Rzbam7JqPPKAJGHWRKf0=", "properties": {"ref": "https://www.eastofengland.coop/supermarket/west-mersea", "@spider": "east_of_england_coop", "operator": "East of England Co-operative Society", "operator:wikidata": "Q5329759", "shop": "supermarket", "addr:street_address": "Barfield Road", "addr:city": "West Mersea", "addr:state": "Essex", "addr:postcode": "CO5 8RA", "addr:country": "GB", "name": "West Mersea", "phone": "01206 384759", "website": "https://www.eastofengland.coop/supermarket/west-mersea", "brand": "East of England Co-op", "brand:wikidata": "Q5329759", "nsi_id": "eastofenglandcoop-a8278b"}, "geometry": {"type": "Point", "coordinates": [0.9184833931153, 51.7782025640295]}},
{"type": "Feature", "id": "qaZ_I1-86yhoCbPXDLF385b7DIo=", "properties": {"ref": "https://www.eastofengland.coop/foodstores/west-bergholt", "@spider": "east_of_england_coop", "operator": "East of England Co-operative Society", "operator:wikidata": "Q5329759", "shop": "supermarket", "addr:street_address": "43 Chapel Road", "addr:city": "West Bergholt", "addr:state": "Colchester", "addr:postcode": "CO6 3JB", "addr:country": "GB", "name": "West Bergholt", "phone": "01206 240386", "website": "https://www.eastofengland.coop/foodstores/west-bergholt", "brand": "East of England Co-op", "brand:wikidata": "Q5329759", "nsi_id": "eastofenglandcoop-a8278b"}, "geometry": {"type": "Point", "coordinates": [0.8526799047546, 51.9125790812496]}},
{"type": "Feature", "id": "gScujmhmpfJt3-K2W97bMt7P9c4=", "properties": {"ref": "https://www.eastofengland.coop/foodstores/walton", "@spider": "east_of_england_coop", "operator": "East of England Co-operative Society", "operator:wikidata": "Q5329759", "shop": "supermarket", "addr:street_address": "221 High Street", "addr:city": "Felixstowe", "addr:state": "Suffolk", "addr:postcode": "IP11 9BQ", "addr:country": "GB", "name": "Walton", "phone": "01394 284220", "website": "https://www.eastofengland.coop/foodstores/walton", "brand": "East of England Co-op", "brand:wikidata": "Q5329759", "nsi_id": "eastofenglandcoop-a8278b"}, "geometry": {"type": "Point", "coordinates": [1.3409453183159, 51.9712014791567]}},
{"type": "Feature", "id": "bkao2wU0nK9fRcgsU3smiLiWvcA=", "properties": {"ref": "https://www.eastofengland.coop/foodstores/walberswick", "@spider": "east_of_england_coop", "operator": "East of England Co-operative Society", "operator:wikidata": "Q5329759", "shop": "supermarket", "addr:street_address": "The Street", "addr:city": "Walberswick", "addr:state": "Suffolk", "addr:postcode": "IP18 6UH", "addr:country": "GB", "name": "Walberswick", "phone": "01502 723025", "website": "https://www.eastofengland.coop/foodstores/walberswick", "brand": "East of England Co-op", "brand:wikidata": "Q5329759", "nsi_id": "eastofenglandcoop-a8278b"}, "geometry": {"type": "Point", "coordinates": [1.6567418873108, 52.3137948989829]}},
{"type": "Feature", "id": "9lXvTiaMBX5yZh7_1x1CAHC9HU8=", "properties": {"ref": "https://www.eastofengland.coop/foodstores/wadgate-road-felixstowe", "@spider": "east_of_england_coop", "operator": "East of England Co-operative Society", "operator:wikidata": "Q5329759", "shop": "supermarket", "addr:street_address": "Wadgate Road", "addr:city": "Felixstowe", "addr:state": "Suffolk", "addr:postcode": "IP11 8LY", "addr:country": "GB", "name": "Wadgate Road, Felixstowe", "phone": "01394 282900", "website": "https://www.eastofengland.coop/foodstores/wadgate-road-felixstowe", "brand": "East of England Co-op", "brand:wikidata": "Q5329759", "nsi_id": "eastofenglandcoop-a8278b"}, "geometry": {"type": "Point", "coordinates": [1.3338139005249, 51.9648287596838]}},
{"type": "Feature", "id": "g8tuITyYJm1lPxcq8kX3o6r-XMI=", "properties": {"ref": "https://www.eastofengland.coop/foodstores/unthank-road-norwich", "@spider": "east_of_england_coop", "operator": "East of England Co-operative Society", "operator:wikidata": "Q5329759", "shop": "supermarket", "addr:street_address": "154 Unthank Road", "addr:city": "Norwich", "addr:state": "Norfolk", "addr:postcode": "NR2 2AB", "addr:country": "GB", "name": "Onley Street, Norwich", "phone": "01603 620106", "website": "https://www.eastofengland.coop/foodstores/unthank-road-norwich", "brand": "East of England Co-op", "brand:wikidata": "Q5329759", "nsi_id": "eastofenglandcoop-a8278b"}, "geometry": {"type": "Point", "coordinates": [1.2763118767211, 52.622988903987]}},
{"type": "Feature", "id": "C59S8zGqybq7FC9IZzYmNxw98lA=", "properties": {"ref": "https://www.eastofengland.coop/foodstores/ulster-avenue-ipswich", "@spider": "east_of_england_coop", "operator": "East of England Co-operative Society", "operator:wikidata": "Q5329759", "shop": "supermarket", "addr:street_address": "Ulster Avenue", "addr:city": "Ipswich", "addr:state": "Suffolk", "addr:postcode": "IP1 5JS", "addr:country": "GB", "name": "Ulster Avenue, Ipswich", "phone": "01473 741958", "website": "https://www.eastofengland.coop/foodstores/ulster-avenue-ipswich", "brand": "East of England Co-op", "brand:wikidata": "Q5329759", "nsi_id": "eastofenglandcoop-a8278b"}, "geometry": {"type": "Point", "coordinates": [1.1182426999999, 52.0744670987925]}},
{"type": "Feature", "id": "2XHMkxHmpU8Dhgy3105i_YyKfVc=", "properties": {"ref": "https://www.eastofengland.coop/foodstores/toftwood-east-dereham", "@spider": "east_of_england_coop", "operator": "East of England Co-operative Society", "operator:wikidata": "Q5329759", "shop": "supermarket", "addr:street_address": "107 Shipdham Road, Toftwood", "addr:city": "East Dereham", "addr:state": "Norfolk", "addr:postcode": "NR19 1AH", "addr:country": "GB", "name": "Toftwood, East Dereham", "phone": "01362 692013", "website": "https://www.eastofengland.coop/foodstores/toftwood-east-dereham", "brand": "East of England Co-op", "brand:wikidata": "Q5329759", "nsi_id": "eastofenglandcoop-a8278b"}, "geometry": {"type": "Point", "coordinates": [0.9401896448441, 52.6630670434178]}},
{"type": "Feature", "id": "uUArQBOtyssWHMnLWUSCDLsESNI=", "properties": {"ref": "https://www.eastofengland.coop/foodstores/the-green-martham", "@spider": "east_of_england_coop", "operator": "East of England Co-operative Society", "operator:wikidata": "Q5329759", "shop": "supermarket", "addr:street_address": "The Green", "addr:city": "Martham", "addr:state": "Norfolk", "addr:postcode": "NR29 4PA", "addr:country": "GB", "name": "The Green, Martham", "phone": "01493 740230", "website": "https://www.eastofengland.coop/foodstores/the-green-martham", "brand": "East of England Co-op", "brand:wikidata": "Q5329759", "nsi_id": "eastofenglandcoop-a8278b"}, "geometry": {"type": "Point", "coordinates": [1.6333705082512, 52.703131008991]}},
{"type": "Feature", "id": "-BnmSFuOlmBRpXjEtgx5krjGvEo=", "properties": {"ref": "https://www.eastofengland.coop/foodstores/the-commons-prettygate-colchester", "@spider": "east_of_england_coop", "operator": "East of England Co-operative Society", "operator:wikidata": "Q5329759", "shop": "supermarket", "addr:street_address": "96 The Commons, Prettygate", "addr:city": "Colchester", "addr:state": "Essex", "addr:postcode": "CO34NW", "addr:country": "GB", "name": "The Commons Prettygate, Colchester", "phone": "01206 575390", "website": "https://www.eastofengland.coop/foodstores/the-commons-prettygate-colchester", "brand": "East of England Co-op", "brand:wikidata": "Q5329759", "nsi_id": "eastofenglandcoop-a8278b"}, "geometry": {"type": "Point", "coordinates": [0.8655330976227, 51.8805910050758]}},
{"type": "Feature", "id": "MUr65QZJ_vmlJPLdefsSM6L-TKI=", "properties": {"ref": "https://www.eastofengland.coop/foodstores/station-road-brightlingsea", "@spider": "east_of_england_coop", "operator": "East of England Co-operative Society", "operator:wikidata": "Q5329759", "shop": "supermarket", "addr:street_address": "25-27 Station Road", "addr:city": "Brightlingsea", "addr:state": "Essex", "addr:postcode": "CO7 0BT", "addr:country": "GB", "name": "Station Road, Brightlingsea", "phone": "01206 302032", "website": "https://www.eastofengland.coop/foodstores/station-road-brightlingsea", "brand": "East of England Co-op", "brand:wikidata": "Q5329759", "nsi_id": "eastofenglandcoop-a8278b"}, "geometry": {"type": "Point", "coordinates": [1.0216984256562, 51.8094726971817]}},
{"type": "Feature", "id": "IiC_uHHePhjDnKLC9ai2foTGIIU=", "properties": {"ref": "https://www.eastofengland.coop/foodstores/spixworth", "@spider": "east_of_england_coop", "operator": "East of England Co-operative Society", "operator:wikidata": "Q5329759", "shop": "supermarket", "addr:street_address": "115 Crostwick Lane, Spixworth", "addr:city": "Norwich", "addr:state": "Norfolk", "addr:postcode": "NR10 3AF", "addr:country": "GB", "name": "Spixworth", "phone": "01603 898255", "website": "https://www.eastofengland.coop/foodstores/spixworth", "brand": "East of England Co-op", "brand:wikidata": "Q5329759", "nsi_id": "eastofenglandcoop-a8278b"}, "geometry": {"type": "Point", "coordinates": [1.3265843534424, 52.687848260639]}},
{"type": "Feature", "id": "9HXSM7znfrKduoripYtUbUf2G4c=", "properties": {"ref": "https://www.eastofengland.coop/foodstores/spa-road-witham", "@spider": "east_of_england_coop", "operator": "East of England Co-operative Society", "operator:wikidata": "Q5329759", "shop": "supermarket", "addr:street_address": "1 Spa Road", "addr:city": "Witham", "addr:state": "Essex", "addr:postcode": "CM8 1NE", "addr:country": "GB", "name": "Spa Road, Witham", "phone": "01376 511665", "website": "https://www.eastofengland.coop/foodstores/spa-road-witham", "brand": "East of England Co-op", "brand:wikidata": "Q5329759", "nsi_id": "eastofenglandcoop-a8278b"}, "geometry": {"type": "Point", "coordinates": [0.6250485, 51.8050503]}},
{"type": "Feature", "id": "TsgC8UryvEnR-8M44g6sr8u-5KQ=", "properties": {"ref": "https://www.eastofengland.coop/foodstores/silver-end", "@spider": "east_of_england_coop", "operator": "East of England Co-operative Society", "operator:wikidata": "Q5329759", "shop": "supermarket", "addr:street_address": "The Broadway, Silver End", "addr:city": "Witham", "addr:state": "Essex", "addr:postcode": "CM8 3RQ", "addr:country": "GB", "name": "Silver End", "phone": "01376 583328", "website": "https://www.eastofengland.coop/foodstores/silver-end", "brand": "East of England Co-op", "brand:wikidata": "Q5329759", "nsi_id": "eastofenglandcoop-a8278b"}, "geometry": {"type": "Point", "coordinates": [0.6223621846558, 51.8466719324249]}},
{"type": "Feature", "id": "fSCo1Tj0hZHQ6lRg5AXglMbJayk=", "properties": {"ref": "https://www.eastofengland.coop/foodstores/sible-hedingham", "@spider": "east_of_england_coop", "operator": "East of England Co-operative Society", "operator:wikidata": "Q5329759", "shop": "supermarket", "addr:street_address": "Swan Street", "addr:city": "Sible Hedingham", "addr:state": "Essex", "addr:postcode": "CO9 3HP", "addr:country": "GB", "name": "Sible Hedingham", "phone": "01787 460412", "website": "https://www.eastofengland.coop/foodstores/sible-hedingham", "brand": "East of England Co-op", "brand:wikidata": "Q5329759", "nsi_id": "eastofenglandcoop-a8278b"}, "geometry": {"type": "Point", "coordinates": [0.5934939595245, 51.9767473952589]}},
{"type": "Feature", "id": "do8w5pBDePyoveFUB9Uufh9BK_g=", "properties": {"ref": "https://www.eastofengland.coop/foodstores/sheldrake-drive-ipswich", "@spider": "east_of_england_coop", "operator": "East of England Co-operative Society", "operator:wikidata": "Q5329759", "shop": "supermarket", "addr:street_address": "310 Sheldrake Drive", "addr:city": "Ipswich", "addr:state": "Suffolk", "addr:postcode": "IP2 9LF", "addr:country": "GB", "name": "Sheldrake Drive, Ipswich", "phone": "01473 682454", "website": "https://www.eastofengland.coop/foodstores/sheldrake-drive-ipswich", "brand": "East of England Co-op", "brand:wikidata": "Q5329759", "nsi_id": "eastofenglandcoop-a8278b"}, "geometry": {"type": "Point", "coordinates": [1.1174537796235, 52.0387860009872]}},
{"type": "Feature", "id": "3DPzuIOp9OXmIQq7PelrzamPrZc=", "properties": {"ref": "https://www.eastofengland.coop/foodstores/selkirk-road-ipswich", "@spider": "east_of_england_coop", "operator": "East of England Co-operative Society", "operator:wikidata": "Q5329759", "shop": "supermarket", "addr:street_address": "Selkirk Road", "addr:city": "Ipswich", "addr:state": "Suffolk", "addr:postcode": "IP4 3HX", "addr:country": "GB", "name": "Selkirk Road, Ipswich", "phone": "01473 727466", "website": "https://www.eastofengland.coop/foodstores/selkirk-road-ipswich", "brand": "East of England Co-op", "brand:wikidata": "Q5329759", "nsi_id": "eastofenglandcoop-a8278b"}, "geometry": {"type": "Point", "coordinates": [1.1925581465576, 52.0685348167588]}},
{"type": "Feature", "id": "QjezLvoM-32tKTg4ubo-CbAukpI=", "properties": {"ref": "https://www.eastofengland.coop/supermarket/saxmundham-road", "@spider": "east_of_england_coop", "operator": "East of England Co-operative Society", "operator:wikidata": "Q5329759", "shop": "supermarket", "addr:street_address": "8 Saxmundham Road", "addr:city": "Aldeburgh", "addr:state": "Suffolk", "addr:postcode": "IP15 5JD", "addr:country": "GB", "name": "Saxmundham Road", "phone": "01728 451458", "website": "https://www.eastofengland.coop/supermarket/saxmundham-road", "brand": "East of England Co-op", "brand:wikidata": "Q5329759", "nsi_id": "eastofenglandcoop-a8278b"}, "geometry": {"type": "Point", "coordinates": [1.5920306865082, 52.1570352428844]}},
{"type": "Feature", "id": "Fqi1I3jKcGWxwFRC1_ZpGRZXAYg=", "properties": {"ref": "https://www.eastofengland.coop/supermarket/samsons-road-brightlingsea", "@spider": "east_of_england_coop", "operator": "East of England Co-operative Society", "operator:wikidata": "Q5329759", "shop": "supermarket", "addr:street_address": "Samsons Road", "addr:city": "Brightlingsea", "addr:state": "Essex", "addr:postcode": "CO7 0RN", "addr:country": "GB", "name": "Samsons Road, Brightlingsea", "phone": "01206 305878", "website": "https://www.eastofengland.coop/supermarket/samsons-road-brightlingsea", "brand": "East of England Co-op", "brand:wikidata": "Q5329759", "nsi_id": "eastofenglandcoop-a8278b"}, "geometry": {"type": "Point", "coordinates": [1.023315322229, 51.8207336998925]}},
{"type": "Feature", "id": "khGd4NnB_4aEkiMv1YKj_7XNBUU=", "properties": {"ref": "https://www.eastofengland.coop/foodstores/rowhedge", "@spider": "east_of_england_coop", "operator": "East of England Co-operative Society", "operator:wikidata": "Q5329759", "shop": "supermarket", "addr:street_address": "Regent Street", "addr:city": "Rowhedge", "addr:state": "Essex", "addr:postcode": "CO5 7EA", "addr:country": "GB", "name": "Rowhedge", "phone": "01206 728214", "website": "https://www.eastofengland.coop/foodstores/rowhedge", "brand": "East of England Co-op", "brand:wikidata": "Q5329759", "nsi_id": "eastofenglandcoop-a8278b"}, "geometry": {"type": "Point", "coordinates": [0.9474832160427, 51.8568575207086]}},
{"type": "Feature", "id": "fsBa9ORT92hV9t5WJg8ukmszpfI=", "properties": {"ref": "https://www.eastofengland.coop/supermarket/rosehill-ipswich", "@spider": "east_of_england_coop", "operator": "East of England Co-operative Society", "operator:wikidata": "Q5329759", "shop": "supermarket", "addr:street_address": "1 Hines Road", "addr:city": "Ipswich", "addr:state": "Suffolk", "addr:postcode": "IP3 9BG", "addr:country": "GB", "name": "Rosehill, Ipswich", "phone": "01473 727653", "website": "https://www.eastofengland.coop/supermarket/rosehill-ipswich", "brand": "East of England Co-op", "brand:wikidata": "Q5329759", "nsi_id": "eastofenglandcoop-a8278b"}, "geometry": {"type": "Point", "coordinates": [1.1829403238037, 52.0481607899323]}},
{"type": "Feature", "id": "Po2hmA6BerrHq9NfMvE0gR33VYc=", "properties": {"ref": "https://www.eastofengland.coop/foodstores/risbygate", "@spider": "east_of_england_coop", "operator": "East of England Co-operative Society", "operator:wikidata": "Q5329759", "shop": "supermarket", "addr:street_address": "8 Out Risbygate", "addr:city": "Bury St Edmunds", "addr:state": "Suffolk", "addr:postcode": "IP33 3RD", "addr:country": "GB", "name": "Risbygate", "phone": "01284 756123", "website": "https://www.eastofengland.coop/foodstores/risbygate", "brand": "East of England Co-op", "brand:wikidata": "Q5329759", "nsi_id": "eastofenglandcoop-a8278b"}, "geometry": {"type": "Point", "coordinates": [0.702682369342, 52.2473577560438]}},
{"type": "Feature", "id": "p3RVpYv1vh-qomydLgb3Tf3fwDM=", "properties": {"ref": "https://www.eastofengland.coop/foodstores/repps-road-martham", "@spider": "east_of_england_coop", "operator": "East of England Co-operative Society", "operator:wikidata": "Q5329759", "shop": "supermarket", "addr:street_address": "88 Repps Road", "addr:city": "Martham", "addr:state": "Norfolk", "addr:postcode": "NR29 4QZ", "addr:country": "GB", "name": "Repps Road, Martham", "phone": "01493 740190", "website": "https://www.eastofengland.coop/foodstores/repps-road-martham", "brand": "East of England Co-op", "brand:wikidata": "Q5329759", "nsi_id": "eastofenglandcoop-a8278b"}, "geometry": {"type": "Point", "coordinates": [1.625096850818, 52.7017927105477]}},
{"type": "Feature", "id": "-jE1tcBCOSCCeC8apbM8TVQyLVE=", "properties": {"ref": "https://www.eastofengland.coop/foodstores/ravenswood-ipswich", "@spider": "east_of_england_coop", "operator": "East of England Co-operative Society", "operator:wikidata": "Q5329759", "shop": "supermarket", "addr:street_address": "Unit A Greenways, Neighbourhood Centre, Ravenswood", "addr:city": "Ipswich", "addr:state": "Suffolk", "addr:postcode": "IP3 9QF", "addr:country": "GB", "name": "Ravenswood, Ipswich", "phone": "01473 279906", "website": "https://www.eastofengland.coop/foodstores/ravenswood-ipswich", "brand": "East of England Co-op", "brand:wikidata": "Q5329759", "nsi_id": "eastofenglandcoop-a8278b"}, "geometry": {"type": "Point", "coordinates": [1.1995309272613, 52.0311093142291]}},
{"type": "Feature", "id": "FNIRyxO7WAJigxTrny81-ZRZUeI=", "properties": {"ref": "https://www.eastofengland.coop/foodstores/queens-way-ipswich", "@spider": "east_of_england_coop", "operator": "East of England Co-operative Society", "operator:wikidata": "Q5329759", "shop": "supermarket", "addr:street_address": "64 Queens Way", "addr:city": "Ipswich", "addr:state": "Suffolk", "addr:postcode": "IP3 9EX", "addr:country": "GB", "name": "Queens Way, Ipswich", "phone": "01473 728929", "website": "https://www.eastofengland.coop/foodstores/queens-way-ipswich", "brand": "East of England Co-op", "brand:wikidata": "Q5329759", "nsi_id": "eastofenglandcoop-a8278b"}, "geometry": {"type": "Point", "coordinates": [1.1902968957703, 52.0407303868974]}},
{"type": "Feature", "id": "1y14qe81K3dEW1oLuze8iFOwFZQ=", "properties": {"ref": "https://www.eastofengland.coop/foodstores/pinewood-ipswich", "@spider": "east_of_england_coop", "operator": "East of England Co-operative Society", "operator:wikidata": "Q5329759", "shop": "supermarket", "addr:street_address": "The Local Centre, Sprites Lane, Laburnum Close", "addr:city": "Ipswich", "addr:state": "Suffolk", "addr:postcode": "IP8 3SL", "addr:country": "GB", "name": "Pinewood, Ipswich", "phone": "01473 681650", "website": "https://www.eastofengland.coop/foodstores/pinewood-ipswich", "brand": "East of England Co-op", "brand:wikidata": "Q5329759", "nsi_id": "eastofenglandcoop-a8278b"}, "geometry": {"type": "Point", "coordinates": [1.1093822724221, 52.0426731244932]}},
{"type": "Feature", "id": "1HYxHp_v0ihFAxgccZB060WDxc8=", "properties": {"ref": "https://www.eastofengland.coop/foodstores/penshurst-road-ipswich", "@spider": "east_of_england_coop", "operator": "East of England Co-operative Society", "operator:wikidata": "Q5329759", "shop": "supermarket", "addr:street_address": "123 Penshurst Road", "addr:city": "Ipswich", "addr:state": "Suffolk", "addr:postcode": "IP3 8QB", "addr:country": "GB", "name": "Penshurst Road, Ipswich", "phone": "01473 728460", "website": "https://www.eastofengland.coop/foodstores/penshurst-road-ipswich", "brand": "East of England Co-op", "brand:wikidata": "Q5329759", "nsi_id": "eastofenglandcoop-a8278b"}, "geometry": {"type": "Point", "coordinates": [1.2049843944428, 52.0457167285333]}},
{"type": "Feature", "id": "5QZLkAUYoFCLJPhwW09k_6d_vvg=", "properties": {"ref": "https://www.eastofengland.coop/supermarket/peartree-road-stanway-colchester", "@spider": "east_of_england_coop", "operator": "East of England Co-operative Society", "operator:wikidata": "Q5329759", "shop": "supermarket", "addr:street_address": "Stanway Retail Park, Peartree Road", "addr:city": "Stanway", "addr:state": "Essex", "addr:postcode": "CO3 0LX", "addr:country": "GB", "name": "Peartree Road, Stanway, Colchester", "phone": "01206 541890", "website": "https://www.eastofengland.coop/supermarket/peartree-road-stanway-colchester", "brand": "East of England Co-op", "brand:wikidata": "Q5329759", "nsi_id": "eastofenglandcoop-a8278b"}, "geometry": {"type": "Point", "coordinates": [0.8453374466965, 51.8783985117679]}},
{"type": "Feature", "id": "500Ic9ITKYseB4mQoznAic1692I=", "properties": {"ref": "https://www.eastofengland.coop/foodstores/old-swaffham-road-east-dereham", "@spider": "east_of_england_coop", "operator": "East of England Co-operative Society", "operator:wikidata": "Q5329759", "shop": "supermarket", "addr:street_address": "Old Swaffham Road", "addr:city": "East Dereham", "addr:state": "Norfolk", "addr:postcode": "NR19 2AZ", "addr:country": "GB", "name": "Old Swaffham Road, East Dereham", "phone": "01362 699179", "website": "https://www.eastofengland.coop/foodstores/old-swaffham-road-east-dereham", "brand": "East of England Co-op", "brand:wikidata": "Q5329759", "nsi_id": "eastofenglandcoop-a8278b"}, "geometry": {"type": "Point", "coordinates": [0.9353090184936, 52.682581656995]}},
{"type": "Feature", "id": "JfGlrOIfiS9FFLRnwF-n6rMrSRY=", "properties": {"ref": "https://www.eastofengland.coop/foodstores/old-road-clacton-on-sea", "@spider": "east_of_england_coop", "operator": "East of England Co-operative Society", "operator:wikidata": "Q5329759", "shop": "supermarket", "addr:street_address": "162-164 Old Road", "addr:city": "Clacton On Sea", "addr:state": "Essex", "addr:postcode": "CO15 3AY", "addr:country": "GB", "name": "Old Road, Clacton On Sea", "phone": "01255 424457", "website": "https://www.eastofengland.coop/foodstores/old-road-clacton-on-sea", "brand": "East of England Co-op", "brand:wikidata": "Q5329759", "nsi_id": "eastofenglandcoop-a8278b"}, "geometry": {"type": "Point", "coordinates": [1.1487479386231, 51.7951868012597]}},
{"type": "Feature", "id": "yRXYRIUUkqC2j1Dza7BfajPJ0jo=", "properties": {"ref": "https://www.eastofengland.coop/foodstores/old-heath-road-colchester", "@spider": "east_of_england_coop", "operator": "East of England Co-operative Society", "operator:wikidata": "Q5329759", "shop": "supermarket", "addr:street_address": "193 Old Heath Road", "addr:city": "Colchester", "addr:state": "Essex", "addr:postcode": "CO2 8AT", "addr:country": "GB", "name": "Old Heath Road, Colchester", "phone": "01206 792740", "website": "https://www.eastofengland.coop/foodstores/old-heath-road-colchester", "brand": "East of England Co-op", "brand:wikidata": "Q5329759", "nsi_id": "eastofenglandcoop-a8278b"}, "geometry": {"type": "Point", "coordinates": [0.9237388343934, 51.8740094766523]}},
{"type": "Feature", "id": "07FX3XIGTTkMJkOaIK_YGIQZIBI=", "properties": {"ref": "https://www.eastofengland.coop/foodstores/old-barrack-road-woodbridge", "@spider": "east_of_england_coop", "operator": "East of England Co-operative Society", "operator:wikidata": "Q5329759", "shop": "supermarket", "addr:street_address": "24 Old Barrack Road", "addr:city": "Woodbridge", "addr:state": "Suffolk", "addr:postcode": "IP12 4ET", "addr:country": "GB", "name": "Old Barrack Road, Woodbridge", "phone": "01394 380048", "website": "https://www.eastofengland.coop/foodstores/old-barrack-road-woodbridge", "brand": "East of England Co-op", "brand:wikidata": "Q5329759", "nsi_id": "eastofenglandcoop-a8278b"}, "geometry": {"type": "Point", "coordinates": [1.3020898185241, 52.0922131869801]}},
{"type": "Feature", "id": "fHEpgkoX-UHEzYkJaMuMT-qodUI=", "properties": {"ref": "https://www.eastofengland.coop/foodstores/norwich-station-norwich", "@spider": "east_of_england_coop", "operator": "East of England Co-operative Society", "operator:wikidata": "Q5329759", "shop": "supermarket", "addr:street_address": "Unit 4, Station Approach, Thorpe Road", "addr:city": "Norwich", "addr:state": "Norfolk", "addr:postcode": "NR1 1EF", "addr:country": "GB", "name": "Norwich Station, Norwich", "phone": "01603 624409", "website": "https://www.eastofengland.coop/foodstores/norwich-station-norwich", "brand": "East of England Co-op", "brand:wikidata": "Q5329759", "nsi_id": "eastofenglandcoop-a8278b"}, "geometry": {"type": "Point", "coordinates": [1.3062782232788, 52.6267122892994]}},
{"type": "Feature", "id": "CqO8zPNsOeDx6uxQWbnOTPlD8tw=", "properties": {"ref": "https://www.eastofengland.coop/foodstores/nayland-road-mile-end-colchester", "@spider": "east_of_england_coop", "operator": "East of England Co-operative Society", "operator:wikidata": "Q5329759", "shop": "supermarket", "addr:street_address": "Nayland Road, Mile End", "addr:city": "Colchester", "addr:state": "Essex", "addr:postcode": "CO45EQ", "addr:country": "GB", "name": "Nayland Road Mile End, Colchester", "phone": "01206 845877", "website": "https://www.eastofengland.coop/foodstores/nayland-road-mile-end-colchester", "brand": "East of England Co-op", "brand:wikidata": "Q5329759", "nsi_id": "eastofenglandcoop-a8278b"}, "geometry": {"type": "Point", "coordinates": [0.8915704264588, 51.9130562921082]}},
{"type": "Feature", "id": "O78JsTRzgQXmEWwJjTi-2S9VMuM=", "properties": {"ref": "https://www.eastofengland.coop/foodstores/mersea-road-colchester", "@spider": "east_of_england_coop", "operator": "East of England Co-operative Society", "operator:wikidata": "Q5329759", "shop": "supermarket", "addr:street_address": "61 Mersea Road", "addr:city": "Colchester", "addr:state": "Essex", "addr:postcode": "CO2 7QR", "addr:country": "GB", "name": "Mersea Road, Colchester", "phone": "01206 578197", "website": "https://www.eastofengland.coop/foodstores/mersea-road-colchester", "brand": "East of England Co-op", "brand:wikidata": "Q5329759", "nsi_id": "eastofenglandcoop-a8278b"}, "geometry": {"type": "Point", "coordinates": [0.9052594312134, 51.8796390429475]}},
{"type": "Feature", "id": "qOoulB1CXmApLknrw8MDniATXl0=", "properties": {"ref": "https://www.eastofengland.coop/foodstores/melton-constable", "@spider": "east_of_england_coop", "operator": "East of England Co-operative Society", "operator:wikidata": "Q5329759", "shop": "supermarket", "addr:street_address": "71-73 Briston Road, Melton Constable", "addr:city": "Norwich", "addr:state": "Norfolk", "addr:postcode": "NR24 2AP", "addr:country": "GB", "name": "Melton Constable", "phone": "01263 861173", "website": "https://www.eastofengland.coop/foodstores/melton-constable", "brand": "East of England Co-op", "brand:wikidata": "Q5329759", "nsi_id": "eastofenglandcoop-a8278b"}, "geometry": {"type": "Point", "coordinates": [1.0384539252701, 52.8567353563607]}},
{"type": "Feature", "id": "hPP7k7oA9npZqvCt3UuaxgUmkTY=", "properties": {"ref": "https://www.eastofengland.coop/supermarket/manningtree", "@spider": "east_of_england_coop", "operator": "East of England Co-operative Society", "operator:wikidata": "Q5329759", "shop": "supermarket", "addr:street_address": "Riverside Avenue East", "addr:city": "Manningtree", "addr:state": "Essex", "addr:postcode": "CO11 1US", "addr:country": "GB", "name": "Manningtree", "phone": "01206 397007", "website": "https://www.eastofengland.coop/supermarket/manningtree", "brand": "East of England Co-op", "brand:wikidata": "Q5329759", "nsi_id": "eastofenglandcoop-a8278b"}, "geometry": {"type": "Point", "coordinates": [1.0606181178604, 51.9471051752441]}},
{"type": "Feature", "id": "U12l2e9DwNipRdBEVwmfWvqw258=", "properties": {"ref": "https://www.eastofengland.coop/foodstores/maldon", "@spider": "east_of_england_coop", "operator": "East of England Co-operative Society", "operator:wikidata": "Q5329759", "shop": "supermarket", "addr:street_address": "Cross Roads", "addr:city": "Maldon", "addr:state": "Essex", "addr:postcode": "CM9 5ED", "addr:country": "GB", "name": "Maldon", "phone": "01621 851986", "website": "https://www.eastofengland.coop/foodstores/maldon", "brand": "East of England Co-op", "brand:wikidata": "Q5329759", "nsi_id": "eastofenglandcoop-a8278b"}, "geometry": {"type": "Point", "coordinates": [0.6832924563751, 51.7250351244097]}},
{"type": "Feature", "id": "894pXAo5WN-XC6c-q9SoXlJb8Fo=", "properties": {"ref": "https://www.eastofengland.coop/foodstores/lovelace-road-norwich", "@spider": "east_of_england_coop", "operator": "East of England Co-operative Society", "operator:wikidata": "Q5329759", "shop": "supermarket", "addr:street_address": "87 Lovelace Road, North Park Avenue", "addr:city": "Norwich", "addr:state": "Norfolk", "addr:postcode": "NR4 7AE", "addr:country": "GB", "name": "Lovelace Road, Norwich", "phone": "01603 454891", "website": "https://www.eastofengland.coop/foodstores/lovelace-road-norwich", "brand": "East of England Co-op", "brand:wikidata": "Q5329759", "nsi_id": "eastofenglandcoop-a8278b"}, "geometry": {"type": "Point", "coordinates": [1.2514015662705, 52.6217668313292]}},
{"type": "Feature", "id": "WwuXM_qkBQElQN78VH5s5hgIxFk=", "properties": {"ref": "https://www.eastofengland.coop/supermarket/long-stratton", "@spider": "east_of_england_coop", "operator": "East of England Co-operative Society", "operator:wikidata": "Q5329759", "shop": "supermarket", "addr:street_address": "The Street, Long Stratton", "addr:city": "Norwich", "addr:state": "Norfolk", "addr:postcode": "NR15 2XJ", "addr:country": "GB", "name": "Long Stratton", "phone": "01508 536109", "website": "https://www.eastofengland.coop/supermarket/long-stratton", "brand": "East of England Co-op", "brand:wikidata": "Q5329759", "nsi_id": "eastofenglandcoop-a8278b"}, "geometry": {"type": "Point", "coordinates": [1.233665120099, 52.487363605914]}},
{"type": "Feature", "id": "zGuEohPdnWn3sHySbFU_2LPHwyc=", "properties": {"ref": "https://www.eastofengland.coop/supermarket/leiston", "@spider": "east_of_england_coop", "operator": "East of England Co-operative Society", "operator:wikidata": "Q5329759", "shop": "supermarket", "addr:street_address": "Sizewell Road", "addr:city": "Leiston", "addr:state": "Suffolk", "addr:postcode": "IP16 4AE", "addr:country": "GB", "name": "Leiston", "phone": "01728 830613", "website": "https://www.eastofengland.coop/supermarket/leiston", "brand": "East of England Co-op", "brand:wikidata": "Q5329759", "nsi_id": "eastofenglandcoop-a8278b"}, "geometry": {"type": "Point", "coordinates": [1.5789359962953, 52.2064284251724]}},
{"type": "Feature", "id": "gAoM6c_W3GuHbtVkUAhSx79QVfc=", "properties": {"ref": "https://www.eastofengland.coop/foodstores/heybridge-lawling-avenue", "@spider": "east_of_england_coop", "operator": "East of England Co-operative Society", "operator:wikidata": "Q5329759", "shop": "supermarket", "addr:street_address": "92 Lawling Avenue, Heybridge", "addr:city": "Maldon", "addr:state": "Essex", "addr:postcode": "CM9 4YD", "addr:country": "GB", "name": "Lawling Avenue, Heybridge", "phone": "01621 850597", "website": "https://www.eastofengland.coop/foodstores/heybridge-lawling-avenue", "brand": "East of England Co-op", "brand:wikidata": "Q5329759", "nsi_id": "eastofenglandcoop-a8278b"}, "geometry": {"type": "Point", "coordinates": [0.6962972152054, 51.742630617322]}},
{"type": "Feature", "id": "SlHCFKuD9e9-l3ToNdL8aBkqbYU=", "properties": {"ref": "https://www.eastofengland.coop/foodstores/lavenham", "@spider": "east_of_england_coop", "operator": "East of England Co-operative Society", "operator:wikidata": "Q5329759", "shop": "supermarket", "addr:street_address": "2 High Street", "addr:city": "Lavenham", "addr:state": "Suffolk", "addr:postcode": "CO10 9PX", "addr:country": "GB", "name": "Lavenham", "phone": "01787 247963", "website": "https://www.eastofengland.coop/foodstores/lavenham", "brand": "East of England Co-op", "brand:wikidata": "Q5329759", "nsi_id": "eastofenglandcoop-a8278b"}, "geometry": {"type": "Point", "coordinates": [0.7953657135265, 52.1094835241989]}},
{"type": "Feature", "id": "FePgkJEmMIvSK3WvfyGcrP-Rt6A=", "properties": {"ref": "https://www.eastofengland.coop/foodstores/laundry-lane-norwich", "@spider": "east_of_england_coop", "operator": "East of England Co-operative Society", "operator:wikidata": "Q5329759", "shop": "supermarket", "addr:street_address": "The Mill House, Laundry Lane, Thorpe St Andrew", "addr:city": "Norwich", "addr:state": "Norfolk", "addr:postcode": "NR7 0XE", "addr:country": "GB", "name": "Laundry Lane, Norwich", "phone": "01603 439670", "website": "https://www.eastofengland.coop/foodstores/laundry-lane-norwich", "brand": "East of England Co-op", "brand:wikidata": "Q5329759", "nsi_id": "eastofenglandcoop-a8278b"}, "geometry": {"type": "Point", "coordinates": [1.3466165042297, 52.6344567882676]}},
{"type": "Feature", "id": "g_VTRt_WyX8Esn5FXEMp-dHqXN0=", "properties": {"ref": "https://www.eastofengland.coop/foodstores/king-street-walton", "@spider": "east_of_england_coop", "operator": "East of England Co-operative Society", "operator:wikidata": "Q5329759", "shop": "supermarket", "addr:street_address": "279-281 High Street, Walton", "addr:city": "Felixstowe", "addr:state": "Suffolk", "addr:postcode": "IP11 9DZ", "addr:country": "GB", "name": "King Street, Walton", "phone": "01394 283783", "website": "https://www.eastofengland.coop/foodstores/king-street-walton", "brand": "East of England Co-op", "brand:wikidata": "Q5329759", "nsi_id": "eastofenglandcoop-a8278b"}, "geometry": {"type": "Point", "coordinates": [1.3380527294999, 51.9724304794075]}},
{"type": "Feature", "id": "1-_zXZoJJTITv45AhecutGlib-A=", "properties": {"ref": "https://www.eastofengland.coop/foodstores/kelvedon", "@spider": "east_of_england_coop", "operator": "East of England Co-operative Society", "operator:wikidata": "Q5329759", "shop": "supermarket", "addr:street_address": "High Street", "addr:city": "Kelvedon", "addr:state": "Essex", "addr:postcode": "CO5 9AE", "addr:country": "GB", "name": "Kelvedon", "phone": "01376 570361", "website": "https://www.eastofengland.coop/foodstores/kelvedon", "brand": "East of England Co-op", "brand:wikidata": "Q5329759", "nsi_id": "eastofenglandcoop-a8278b"}, "geometry": {"type": "Point", "coordinates": [0.6993025067112, 51.836055378908]}},
{"type": "Feature", "id": "Z0b1LqotXsRpCvGdfqsjjXfjE14=", "properties": {"ref": "https://www.eastofengland.coop/foodstores/iceni-way-shrub-end-colchester", "@spider": "east_of_england_coop", "operator": "East of England Co-operative Society", "operator:wikidata": "Q5329759", "shop": "supermarket", "addr:street_address": "11 The Square, Iceni Way", "addr:city": "Shrub End", "addr:state": "Essex", "addr:postcode": "CO29EB", "addr:country": "GB", "name": "Iceni Way Shrub End, Colchester", "phone": "01206 767163", "website": "https://www.eastofengland.coop/foodstores/iceni-way-shrub-end-colchester", "brand": "East of England Co-op", "brand:wikidata": "Q5329759", "nsi_id": "eastofenglandcoop-a8278b"}, "geometry": {"type": "Point", "coordinates": [0.8721123428528, 51.8715874657337]}},
{"type": "Feature", "id": "E_YWPot05MJhJUiQVRMxexJc5nM=", "properties": {"ref": "https://www.eastofengland.coop/foodstores/horsford", "@spider": "east_of_england_coop", "operator": "East of England Co-operative Society", "operator:wikidata": "Q5329759", "shop": "supermarket", "addr:street_address": "149 Holt Road, Horsford", "addr:city": "Norwich", "addr:state": "Norfolk", "addr:postcode": "NR10 3AB", "addr:country": "GB", "name": "Horsford", "phone": "01603 898435", "website": "https://www.eastofengland.coop/foodstores/horsford", "brand": "East of England Co-op", "brand:wikidata": "Q5329759", "nsi_id": "eastofenglandcoop-a8278b"}, "geometry": {"type": "Point", "coordinates": [1.2443180925903, 52.6976529938197]}},
{"type": "Feature", "id": "-c5-rDFwAjhPMTSi6iTOAVaJ-Ag=", "properties": {"ref": "https://www.eastofengland.coop/foodstores/holland-on-sea", "@spider": "east_of_england_coop", "operator": "East of England Co-operative Society", "operator:wikidata": "Q5329759", "shop": "supermarket", "addr:street_address": "53 Frinton Road", "addr:city": "Holland On Sea", "addr:state": "Essex", "addr:postcode": "CO15 5UH", "addr:country": "GB", "name": "Holland On Sea", "phone": "01255 812223", "website": "https://www.eastofengland.coop/foodstores/holland-on-sea", "brand": "East of England Co-op", "brand:wikidata": "Q5329759", "nsi_id": "eastofenglandcoop-a8278b"}, "geometry": {"type": "Point", "coordinates": [1.1823784833282, 51.8033895456442]}},
{"type": "Feature", "id": "Mfh0lN2ODK7wvg8QaZ8YnHpc8Fs=", "properties": {"ref": "https://www.eastofengland.coop/foodstores/holbrook", "@spider": "east_of_england_coop", "operator": "East of England Co-operative Society", "operator:wikidata": "Q5329759", "shop": "supermarket", "addr:street_address": "The Street, Holbrook", "addr:city": "Ipswich", "addr:state": "Suffolk", "addr:postcode": "IP9 2PZ", "addr:country": "GB", "name": "Holbrook", "phone": "01473 328214", "website": "https://www.eastofengland.coop/foodstores/holbrook", "brand": "East of England Co-op", "brand:wikidata": "Q5329759", "nsi_id": "eastofenglandcoop-a8278b"}, "geometry": {"type": "Point", "coordinates": [1.1566357735412, 51.9851429586378]}},
{"type": "Feature", "id": "sAtpPPmacdRoZAC2HZKxqW_PihA=", "properties": {"ref": "https://www.eastofengland.coop/foodstores/high-street-dovercourt", "@spider": "east_of_england_coop", "operator": "East of England Co-operative Society", "operator:wikidata": "Q5329759", "shop": "supermarket", "addr:street_address": "296 High Street", "addr:city": "Dovercourt", "addr:state": "Essex", "addr:postcode": "CO12 3PE", "addr:country": "GB", "name": "High Street, Dovercourt", "phone": "01255 506771", "website": "https://www.eastofengland.coop/foodstores/high-street-dovercourt", "brand": "East of England Co-op", "brand:wikidata": "Q5329759", "nsi_id": "eastofenglandcoop-a8278b"}, "geometry": {"type": "Point", "coordinates": [1.2787354, 51.9357669]}},
{"type": "Feature", "id": "3OIH6OlcrbSNvJZj9xmiYin6YAE=", "properties": {"ref": "https://www.eastofengland.coop/foodstores/aldeburgh", "@spider": "east_of_england_coop", "operator": "East of England Co-operative Society", "operator:wikidata": "Q5329759", "shop": "supermarket", "addr:street_address": "117 High Street", "addr:city": "Aldeburgh", "addr:state": "Suffolk", "addr:postcode": "IP15 5AR", "addr:country": "GB", "name": "Aldeburgh", "phone": "01728 452379", "website": "https://www.eastofengland.coop/foodstores/aldeburgh", "brand": "East of England Co-op", "brand:wikidata": "Q5329759", "nsi_id": "eastofenglandcoop-a8278b"}, "geometry": {"type": "Point", "coordinates": [1.601119119049, 52.1519989569216]}},
{"type": "Feature", "id": "VQu8TxYJXx1K0UaAkVH3MMU4fF4=", "properties": {"ref": "https://www.eastofengland.coop/foodstores/hellesdon", "@spider": "east_of_england_coop", "operator": "East of England Co-operative Society", "operator:wikidata": "Q5329759", "shop": "supermarket", "addr:street_address": "90-92 Middleton Lane", "addr:city": "Norwich", "addr:state": "Norfolk", "addr:postcode": "NR6 5NR", "addr:country": "GB", "name": "Hellesdon", "phone": "01603 426721", "website": "https://www.eastofengland.coop/foodstores/hellesdon", "brand": "East of England Co-op", "brand:wikidata": "Q5329759", "nsi_id": "eastofenglandcoop-a8278b"}, "geometry": {"type": "Point", "coordinates": [1.2630907838532, 52.6651856849833]}},
{"type": "Feature", "id": "YNH5rQLV6KpR2Ozh9kAE45F6N5A=", "properties": {"ref": "https://www.eastofengland.coop/foodstores/hawthorn-drive-ipswich", "@spider": "east_of_england_coop", "operator": "East of England Co-operative Society", "operator:wikidata": "Q5329759", "shop": "supermarket", "addr:street_address": "247 Hawthorn Drive, Chantry ", "addr:city": "Ipswich", "addr:state": "Suffolk", "addr:postcode": "IP2 0QG", "addr:country": "GB", "name": "Hawthorn Drive, Chantry, Ipswich", "phone": "01473 683066", "website": "https://www.eastofengland.coop/foodstores/hawthorn-drive-ipswich", "brand": "East of England Co-op", "brand:wikidata": "Q5329759", "nsi_id": "eastofenglandcoop-a8278b"}, "geometry": {"type": "Point", "coordinates": [1.1230754883607, 52.0462402027889]}},
{"type": "Feature", "id": "bW-vSs7WP7va7xR7tSp3hiLXEnY=", "properties": {"ref": "https://www.eastofengland.coop/foodstores/haughley", "@spider": "east_of_england_coop", "operator": "East of England Co-operative Society", "operator:wikidata": "Q5329759", "shop": "supermarket", "addr:street_address": "Old Street, Haughley", "addr:city": "Stowmarket", "addr:state": "Suffolk", "addr:postcode": "IP14 3NX", "addr:country": "GB", "name": "Haughley", "phone": "01449 673209", "website": "https://www.eastofengland.coop/foodstores/haughley", "brand": "East of England Co-op", "brand:wikidata": "Q5329759", "nsi_id": "eastofenglandcoop-a8278b"}, "geometry": {"type": "Point", "coordinates": [0.9678537185241, 52.2195894756924]}},
{"type": "Feature", "id": "FAtIbf0odMCGP34DpPi_1r0Ghq0=", "properties": {"ref": "https://www.eastofengland.coop/foodstores/hatfield-peverel", "@spider": "east_of_england_coop", "operator": "East of England Co-operative Society", "operator:wikidata": "Q5329759", "shop": "supermarket", "addr:street_address": "The Street", "addr:city": "Hatfield Peverel", "addr:state": "Essex", "addr:postcode": "CM3 2EH", "addr:country": "GB", "name": "Hatfield Peverel", "phone": "01245 382606", "website": "https://www.eastofengland.coop/foodstores/hatfield-peverel", "brand": "East of England Co-op", "brand:wikidata": "Q5329759", "nsi_id": "eastofenglandcoop-a8278b"}, "geometry": {"type": "Point", "coordinates": [0.5977525031799, 51.7766821726967]}},
{"type": "Feature", "id": "xr_Elj_pTrQE6ftV5v5zTsdjpD0=", "properties": {"ref": "https://www.eastofengland.coop/foodstores/hasketon-road-woodbridge", "@spider": "east_of_england_coop", "operator": "East of England Co-operative Society", "operator:wikidata": "Q5329759", "shop": "supermarket", "addr:street_address": "1 Hasketon Road", "addr:city": "Woodbridge", "addr:state": "Suffolk", "addr:postcode": "IP12 4JT", "addr:country": "GB", "name": "Hasketon Road, Woodbridge", "phone": "01394 383202", "website": "https://www.eastofengland.coop/foodstores/hasketon-road-woodbridge", "brand": "East of England Co-op", "brand:wikidata": "Q5329759", "nsi_id": "eastofenglandcoop-a8278b"}, "geometry": {"type": "Point", "coordinates": [1.3028802994751, 52.096952778989]}},
{"type": "Feature", "id": "nDhY5d6WN_wq_elLJH6xKApj44I=", "properties": {"ref": "https://www.eastofengland.coop/foodstores/harwich-road-colchester", "@spider": "east_of_england_coop", "operator": "East of England Co-operative Society", "operator:wikidata": "Q5329759", "shop": "supermarket", "addr:street_address": "185 Harwich Road", "addr:city": "Colchester", "addr:state": "Essex", "addr:postcode": "CO4 3DG", "addr:country": "GB", "name": "Harwich Road, Colchester", "phone": "01206 862549", "website": "https://www.eastofengland.coop/foodstores/harwich-road-colchester", "brand": "East of England Co-op", "brand:wikidata": "Q5329759", "nsi_id": "eastofenglandcoop-a8278b"}, "geometry": {"type": "Point", "coordinates": [0.9267837684395, 51.8942437697732]}},
{"type": "Feature", "id": "ENDj5gdYdNrUb_26vtrGHGJKZRE=", "properties": {"ref": "https://www.eastofengland.coop/supermarket/hamblin-walk-woodbridge", "@spider": "east_of_england_coop", "operator": "East of England Co-operative Society", "operator:wikidata": "Q5329759", "shop": "supermarket", "addr:street_address": "3 Hamblin Walk", "addr:city": "Woodbridge", "addr:state": "Suffolk", "addr:postcode": "IP12 1AA", "addr:country": "GB", "name": "Hamblin Walk, Woodbridge", "phone": "01394 385837", "website": "https://www.eastofengland.coop/supermarket/hamblin-walk-woodbridge", "brand": "East of England Co-op", "brand:wikidata": "Q5329759", "nsi_id": "eastofenglandcoop-a8278b"}, "geometry": {"type": "Point", "coordinates": [1.3200224, 52.0930348]}},
{"type": "Feature", "id": "MN7U4copkBxuF3hizVgAu_yZSbY=", "properties": {"ref": "https://www.eastofengland.coop/supermarket/halstead", "@spider": "east_of_england_coop", "operator": "East of England Co-operative Society", "operator:wikidata": "Q5329759", "shop": "supermarket", "addr:street_address": "12 Weaver's Court, High Street", "addr:city": "Halstead", "addr:state": "Essex", "addr:postcode": "CO9 2JN", "addr:country": "GB", "name": "Halstead", "phone": "01787 474039", "website": "https://www.eastofengland.coop/supermarket/halstead", "brand": "East of England Co-op", "brand:wikidata": "Q5329759", "nsi_id": "eastofenglandcoop-a8278b"}, "geometry": {"type": "Point", "coordinates": [0.6362025116393, 51.9430968150046]}},
{"type": "Feature", "id": "TVFQ1a_eqO_3SHD0B_llx3qRsh8=", "properties": {"ref": "https://www.eastofengland.coop/foodstores/hall-road-norwich", "@spider": "east_of_england_coop", "operator": "East of England Co-operative Society", "operator:wikidata": "Q5329759", "shop": "supermarket", "addr:street_address": "110 Hall Road", "addr:city": "Norwich", "addr:state": "Norfolk", "addr:postcode": "NR1 3HP", "addr:country": "GB", "name": "Hall Road, Norwich", "phone": "01603 630003", "website": "https://www.eastofengland.coop/foodstores/hall-road-norwich", "brand": "East of England Co-op", "brand:wikidata": "Q5329759", "nsi_id": "eastofenglandcoop-a8278b"}, "geometry": {"type": "Point", "coordinates": [1.2970708993362, 52.6180169531886]}},
{"type": "Feature", "id": "AcPF6oSfkvC0HuBwpuWjGw7HUU4=", "properties": {"ref": "https://www.eastofengland.coop/supermarket/hadleigh", "@spider": "east_of_england_coop", "operator": "East of England Co-operative Society", "operator:wikidata": "Q5329759", "shop": "supermarket", "addr:street_address": "72 High Street, Hadleigh", "addr:city": "Ipswich", "addr:state": "Suffolk", "addr:postcode": "IP7 5EF", "addr:country": "GB", "name": "Hadleigh", "phone": "01473 822123", "website": "https://www.eastofengland.coop/supermarket/hadleigh", "brand": "East of England Co-op", "brand:wikidata": "Q5329759", "nsi_id": "eastofenglandcoop-a8278b"}, "geometry": {"type": "Point", "coordinates": [0.9536529932541, 52.0442810279715]}},
{"type": "Feature", "id": "RgZKn9QdZdU5yIgOQNN0DyHA934=", "properties": {"ref": "https://www.eastofengland.coop/foodstores/greenstead-colchester", "@spider": "east_of_england_coop", "operator": "East of England Co-operative Society", "operator:wikidata": "Q5329759", "shop": "supermarket", "addr:street_address": "The Centre, Greenstead", "addr:city": "Colchester", "addr:state": "Essex", "addr:postcode": "CO43PX", "addr:country": "GB", "name": "Greenstead, Colchester", "phone": "01206 865311", "website": "https://www.eastofengland.coop/foodstores/greenstead-colchester", "brand": "East of England Co-op", "brand:wikidata": "Q5329759", "nsi_id": "eastofenglandcoop-a8278b"}, "geometry": {"type": "Point", "coordinates": [0.9362520269838, 51.8912536419729]}},
{"type": "Feature", "id": "4ZxfIo9A0mNIlzJzM-iv3UxaRoE=", "properties": {"ref": "https://www.eastofengland.coop/foodstores/great-cornard", "@spider": "east_of_england_coop", "operator": "East of England Co-operative Society", "operator:wikidata": "Q5329759", "shop": "supermarket", "addr:street_address": "The Drift, Canhams Road", "addr:city": "Great Cornard", "addr:state": "Suffolk", "addr:postcode": "CO100EU", "addr:country": "GB", "name": "Great Cornard", "phone": "01787 375198", "website": "https://www.eastofengland.coop/foodstores/great-cornard", "brand": "East of England Co-op", "brand:wikidata": "Q5329759", "nsi_id": "eastofenglandcoop-a8278b"}, "geometry": {"type": "Point", "coordinates": [0.7556811529175, 52.0303237567544]}},
{"type": "Feature", "id": "hPCf8tJatEVbrB09x0A-xlkzpcA=", "properties": {"ref": "https://www.eastofengland.coop/foodstores/gorleston", "@spider": "east_of_england_coop", "operator": "East of England Co-operative Society", "operator:wikidata": "Q5329759", "shop": "supermarket", "addr:street_address": "Magdalen Way", "addr:city": "Gorleston", "addr:state": "Norfolk", "addr:postcode": "NR317AA", "addr:country": "GB", "name": "Gorleston", "phone": "01493 662584", "website": "https://www.eastofengland.coop/foodstores/gorleston", "brand": "East of England Co-op", "brand:wikidata": "Q5329759", "nsi_id": "eastofenglandcoop-a8278b"}, "geometry": {"type": "Point", "coordinates": [1.7145842447746, 52.5741473266662]}},
{"type": "Feature", "id": "1lnzQ-DW9uxkFRDRKHjS0mYEP9k=", "properties": {"ref": "https://www.eastofengland.coop/foodstores/garrick-way-ipswich", "@spider": "east_of_england_coop", "operator": "East of England Co-operative Society", "operator:wikidata": "Q5329759", "shop": "supermarket", "addr:street_address": "17 Garrick Way", "addr:city": "Ipswich", "addr:state": "Suffolk", "addr:postcode": "IP1 6NF", "addr:country": "GB", "name": "Garrick Way, Ipswich", "phone": "01473 741119", "website": "https://www.eastofengland.coop/foodstores/garrick-way-ipswich", "brand": "East of England Co-op", "brand:wikidata": "Q5329759", "nsi_id": "eastofenglandcoop-a8278b"}, "geometry": {"type": "Point", "coordinates": [1.1379717185241, 52.0798972517499]}},
{"type": "Feature", "id": "FOjBMsh09buS5-q4NjOmkq8BtDQ=", "properties": {"ref": "https://www.eastofengland.coop/foodstores/fronks-road-dovercourt", "@spider": "east_of_england_coop", "operator": "East of England Co-operative Society", "operator:wikidata": "Q5329759", "shop": "supermarket", "addr:street_address": "465 Main Road", "addr:city": "Upper Dovercourt", "addr:state": "Essex", "addr:postcode": "CO12 4HT", "addr:country": "GB", "name": "Fronks Road, Dovercourt", "phone": "01255 503505", "website": "https://www.eastofengland.coop/foodstores/fronks-road-dovercourt", "brand": "East of England Co-op", "brand:wikidata": "Q5329759", "nsi_id": "eastofenglandcoop-a8278b"}, "geometry": {"type": "Point", "coordinates": [1.2577600534423, 51.9331723751329]}},
{"type": "Feature", "id": "GGIF-OCo2n13sZKCrj0QiEh_vS0=", "properties": {"ref": "https://www.eastofengland.coop/supermarket/frinton-on-sea", "@spider": "east_of_england_coop", "operator": "East of England Co-operative Society", "operator:wikidata": "Q5329759", "shop": "supermarket", "addr:street_address": "The Triangle", "addr:city": "Frinton On Sea", "addr:state": "Essex", "addr:postcode": "CO13 0AU", "addr:country": "GB", "name": "Triangle, Frinton On Sea", "phone": "01255 850920", "website": "https://www.eastofengland.coop/supermarket/frinton-on-sea", "brand": "East of England Co-op", "brand:wikidata": "Q5329759", "nsi_id": "eastofenglandcoop-a8278b"}, "geometry": {"type": "Point", "coordinates": [1.2489981716889, 51.844146681308]}},
{"type": "Feature", "id": "mYejrf10bLuZU0bQqdoEQT-kmMw=", "properties": {"ref": "https://www.eastofengland.coop/supermarket/harleston", "@spider": "east_of_england_coop", "operator": "East of England Co-operative Society", "operator:wikidata": "Q5329759", "shop": "supermarket", "addr:street_address": "Bullock Fair Close", "addr:city": "Harleston", "addr:state": "Norfolk", "addr:postcode": "IP20 9AT", "addr:country": "GB", "name": "Harleston", "phone": "01379 262150", "website": "https://www.eastofengland.coop/supermarket/harleston", "brand": "East of England Co-op", "brand:wikidata": "Q5329759", "nsi_id": "eastofenglandcoop-a8278b"}, "geometry": {"type": "Point", "coordinates": [1.2996498, 52.4029934]}},
{"type": "Feature", "id": "2quPLp50gHQNT_6mz5Fllxy6Xj0=", "properties": {"ref": "https://www.eastofengland.coop/foodstores/friar-tuck-road-norwich", "@spider": "east_of_england_coop", "operator": "East of England Co-operative Society", "operator:wikidata": "Q5329759", "shop": "supermarket", "addr:street_address": "21 Friar Tuck Road, Tuckwood", "addr:city": "Norwich", "addr:state": "Norfolk", "addr:postcode": "NR4 6DB", "addr:country": "GB", "name": "Friar Tuck Road, Norwich", "phone": "01603 454855", "website": "https://www.eastofengland.coop/foodstores/friar-tuck-road-norwich", "brand": "East of England Co-op", "brand:wikidata": "Q5329759", "nsi_id": "eastofenglandcoop-a8278b"}, "geometry": {"type": "Point", "coordinates": [1.2831193687866, 52.6085341466122]}},
{"type": "Feature", "id": "-2MoQEW9kYTgVtLfOh4Pn_Ckunk=", "properties": {"ref": "https://www.eastofengland.coop/supermarket/framlingham", "@spider": "east_of_england_coop", "operator": "East of England Co-operative Society", "operator:wikidata": "Q5329759", "shop": "supermarket", "addr:street_address": "Market Hill", "addr:city": "Framlingham", "addr:state": "Suffolk", "addr:postcode": "IP13 9AN", "addr:country": "GB", "name": "Framlingham", "phone": "01728 621415", "website": "https://www.eastofengland.coop/supermarket/framlingham", "brand": "East of England Co-op", "brand:wikidata": "Q5329759", "nsi_id": "eastofenglandcoop-a8278b"}, "geometry": {"type": "Point", "coordinates": [1.3431888085984, 52.2219216376533]}},
{"type": "Feature", "id": "clC7EBtWqzI8VWgC3CAtauPyS-c=", "properties": {"ref": "https://www.eastofengland.coop/foodstores/34-foxhall-road-ipswich", "@spider": "east_of_england_coop", "operator": "East of England Co-operative Society", "operator:wikidata": "Q5329759", "shop": "supermarket", "addr:street_address": "34 Foxhall Road", "addr:city": "Ipswich", "addr:state": "Suffolk", "addr:postcode": "IP3 8HL", "addr:country": "GB", "name": "Foxhall Road, Ipswich", "phone": "01473 217311", "website": "https://www.eastofengland.coop/foodstores/34-foxhall-road-ipswich", "brand": "East of England Co-op", "brand:wikidata": "Q5329759", "nsi_id": "eastofenglandcoop-a8278b"}, "geometry": {"type": "Point", "coordinates": [1.1732363834672, 52.0533717678441]}},
{"type": "Feature", "id": "Vfhih9OM-WH21AsF30uP9kFlk8o=", "properties": {"ref": "https://www.eastofengland.coop/foodstores/fircroft-road-ipswich", "@spider": "east_of_england_coop", "operator": "East of England Co-operative Society", "operator:wikidata": "Q5329759", "shop": "supermarket", "addr:street_address": "147 Fircroft Road", "addr:city": "Ipswich", "addr:state": "Suffolk", "addr:postcode": "IP1 6PT", "addr:country": "GB", "name": "Fircroft Road, Ipswich", "phone": "01473 742508", "website": "https://www.eastofengland.coop/foodstores/fircroft-road-ipswich", "brand": "East of England Co-op", "brand:wikidata": "Q5329759", "nsi_id": "eastofenglandcoop-a8278b"}, "geometry": {"type": "Point", "coordinates": [1.1459812037049, 52.0825693648153]}},
{"type": "Feature", "id": "KjVQ3CWIs0EFhF9bPTCY9LT6CVA=", "properties": {"ref": "https://www.eastofengland.coop/foodstores/fifers-lane-norwich", "@spider": "east_of_england_coop", "operator": "East of England Co-operative Society", "operator:wikidata": "Q5329759", "shop": "supermarket", "addr:street_address": "Unit 3, Neighbourhood Centre, Heyford Road", "addr:city": "Norwich", "addr:state": "Norfolk", "addr:postcode": "NR6 6GB", "addr:country": "GB", "name": "Fifers Lane, Norwich", "phone": "01603 406981", "website": "https://www.eastofengland.coop/foodstores/fifers-lane-norwich", "brand": "East of England Co-op", "brand:wikidata": "Q5329759", "nsi_id": "eastofenglandcoop-a8278b"}, "geometry": {"type": "Point", "coordinates": [1.2890027356167, 52.6645504889393]}},
{"type": "Feature", "id": "KLuuJGpa2kQtimQ102ttFlnbh3s=", "properties": {"ref": "https://www.eastofengland.coop/supermarket/felixstowe", "@spider": "east_of_england_coop", "operator": "East of England Co-operative Society", "operator:wikidata": "Q5329759", "shop": "supermarket", "addr:street_address": "189 Hamilton Road", "addr:city": "Felixstowe", "addr:state": "Suffolk", "addr:postcode": "IP11 7DT", "addr:country": "GB", "name": "Felixstowe", "phone": "01394 272331", "website": "https://www.eastofengland.coop/supermarket/felixstowe", "brand": "East of England Co-op", "brand:wikidata": "Q5329759", "nsi_id": "eastofenglandcoop-a8278b"}, "geometry": {"type": "Point", "coordinates": [1.3524269865081, 51.9666378645873]}},
{"type": "Feature", "id": "4B7ftbi1OzKmmxifazD6wvoD_Xk=", "properties": {"ref": "https://www.eastofengland.coop/foodstores/eye", "@spider": "east_of_england_coop", "operator": "East of England Co-operative Society", "operator:wikidata": "Q5329759", "shop": "supermarket", "addr:street_address": "6 Broad Street", "addr:city": "Eye", "addr:state": "Suffolk", "addr:postcode": "IP23 7AF", "addr:country": "GB", "name": "Eye", "phone": "01379 871042", "website": "https://www.eastofengland.coop/foodstores/eye", "brand": "East of England Co-op", "brand:wikidata": "Q5329759", "nsi_id": "eastofenglandcoop-a8278b"}, "geometry": {"type": "Point", "coordinates": [1.146042528836, 52.320634510324]}},
{"type": "Feature", "id": "xR46CZmBdlKUXcuXc8E3-4GcLRQ=", "properties": {"ref": "https://www.eastofengland.coop/foodstores/cauldwell-hall-road-ipswich", "@spider": "east_of_england_coop", "operator": "East of England Co-operative Society", "operator:wikidata": "Q5329759", "shop": "supermarket", "addr:street_address": "113 Cauldwell Hall Road", "addr:city": "Ipswich", "addr:state": "Suffolk", "addr:postcode": "IP4 5BN", "addr:country": "GB", "name": "Cauldwell Hall Road, Ipswich", "phone": "01473 721698", "website": "https://www.eastofengland.coop/foodstores/cauldwell-hall-road-ipswich", "brand": "East of England Co-op", "brand:wikidata": "Q5329759", "nsi_id": "eastofenglandcoop-a8278b"}, "geometry": {"type": "Point", "coordinates": [1.1826349134918, 52.0586543105174]}},
{"type": "Feature", "id": "xQh93TWr4sFvbFOkNW6I6QO9T3A=", "properties": {"ref": "https://www.eastofengland.coop/foodstores/catton-grove-norwich", "@spider": "east_of_england_coop", "operator": "East of England Co-operative Society", "operator:wikidata": "Q5329759", "shop": "supermarket", "addr:street_address": "3 Woodgrove Parade, Catton Grove Road", "addr:city": "Norwich", "addr:state": "Norfolk", "addr:postcode": "NR3 3NS", "addr:country": "GB", "name": "Catton Grove, Norwich", "phone": "01603 403097", "website": "https://www.eastofengland.coop/foodstores/catton-grove-norwich", "brand": "East of England Co-op", "brand:wikidata": "Q5329759", "nsi_id": "eastofenglandcoop-a8278b"}, "geometry": {"type": "Point", "coordinates": [1.2915130754632, 52.6513027306356]}},
{"type": "Feature", "id": "SXdBXXXo5X2llsXVCifvfoK5efY=", "properties": {"ref": "https://www.eastofengland.coop/foodstores/capel-st-mary", "@spider": "east_of_england_coop", "operator": "East of England Co-operative Society", "operator:wikidata": "Q5329759", "shop": "supermarket", "addr:street_address": "The Street, Capel St Mary", "addr:city": "Ipswich", "addr:state": "Suffolk", "addr:postcode": "IP9 2EB", "addr:country": "GB", "name": "Capel St Mary", "phone": "01473 311279", "website": "https://www.eastofengland.coop/foodstores/capel-st-mary", "brand": "East of England Co-op", "brand:wikidata": "Q5329759", "nsi_id": "eastofenglandcoop-a8278b"}, "geometry": {"type": "Point", "coordinates": [1.0501198872803, 52.003533951415]}},
{"type": "Feature", "id": "dtGW7qoiOqNZP728DCIx4mR6x60=", "properties": {"ref": "https://www.eastofengland.coop/foodstores/cannerby-lane", "@spider": "east_of_england_coop", "operator": "East of England Co-operative Society", "operator:wikidata": "Q5329759", "shop": "supermarket", "addr:street_address": "57 Cannerby Lane", "addr:city": "Sprowston", "addr:state": "Norfolk", "addr:postcode": "NR7 8NF", "addr:country": "GB", "name": "Cannerby Lane, Sprowston", "phone": "01603 582030", "website": "https://www.eastofengland.coop/foodstores/cannerby-lane", "brand": "East of England Co-op", "brand:wikidata": "Q5329759", "nsi_id": "eastofenglandcoop-a8278b"}, "geometry": {"type": "Point", "coordinates": [1.3235120357208, 52.6537784714166]}},
{"type": "Feature", "id": "41dsTRbanxaLbQDqr1CVHLiFRCM=", "properties": {"ref": "https://www.eastofengland.coop/foodstores/caister-on-sea", "@spider": "east_of_england_coop", "operator": "East of England Co-operative Society", "operator:wikidata": "Q5329759", "shop": "supermarket", "addr:street_address": "72 High Street, Caister", "addr:city": "Great Yarmouth", "addr:state": "Norfolk", "addr:postcode": "NR30 5EH", "addr:country": "GB", "name": "Caister On Sea", "phone": "01493 720460", "website": "https://www.eastofengland.coop/foodstores/caister-on-sea", "brand": "East of England Co-op", "brand:wikidata": "Q5329759", "nsi_id": "eastofenglandcoop-a8278b"}, "geometry": {"type": "Point", "coordinates": [1.7259058391479, 52.6487064530262]}},
{"type": "Feature", "id": "lHi5OpgSUBKlLylMrh1OUO89JsA=", "properties": {"ref": "https://www.eastofengland.coop/supermarket/burnham-on-crouch", "@spider": "east_of_england_coop", "operator": "East of England Co-operative Society", "operator:wikidata": "Q5329759", "shop": "supermarket", "addr:street_address": "1-3 Foundry Lane", "addr:city": "Burnham", "addr:state": "Essex", "addr:postcode": "CM0 8BL", "addr:country": "GB", "name": "Burnham On Crouch", "phone": "01621 784072", "website": "https://www.eastofengland.coop/supermarket/burnham-on-crouch", "brand": "East of England Co-op", "brand:wikidata": "Q5329759", "nsi_id": "eastofenglandcoop-a8278b"}, "geometry": {"type": "Point", "coordinates": [0.8149217410308, 51.63247430336]}},
{"type": "Feature", "id": "l7LTYA5cu-TJflaBXxFlKzi_EMg=", "properties": {"ref": "https://www.eastofengland.coop/foodstores/briston", "@spider": "east_of_england_coop", "operator": "East of England Co-operative Society", "operator:wikidata": "Q5329759", "shop": "supermarket", "addr:street_address": "18 Church Street, Briston, Melton Constable", "addr:city": "Norwich", "addr:state": "Norfolk", "addr:postcode": "NR24 2HN", "addr:country": "GB", "name": "Briston", "phone": "01263 862411", "website": "https://www.eastofengland.coop/foodstores/briston", "brand": "East of England Co-op", "brand:wikidata": "Q5329759", "nsi_id": "eastofenglandcoop-a8278b"}, "geometry": {"type": "Point", "coordinates": [1.0590297767212, 52.8536701837271]}},
{"type": "Feature", "id": "fCfSwsm1COpACqHOG7gPm7gYudk=", "properties": {"ref": "https://www.eastofengland.coop/foodstores/brightlingsea", "@spider": "east_of_england_coop", "operator": "East of England Co-operative Society", "operator:wikidata": "Q5329759", "shop": "supermarket", "addr:street_address": "Samsons Road", "addr:city": "Brightlingsea", "addr:state": "Essex", "addr:postcode": "CO7 0RN", "addr:country": "GB", "name": "Brightlingsea Forecourt", "phone": "01206 305509", "website": "https://www.eastofengland.coop/foodstores/brightlingsea", "brand": "East of England Co-op", "brand:wikidata": "Q5329759", "nsi_id": "eastofenglandcoop-a8278b"}, "geometry": {"type": "Point", "coordinates": [1.0240448830811, 51.8210785496143]}},
{"type": "Feature", "id": "5ygL0Gs3cdYfQitVkS8QUDB63eo=", "properties": {"ref": "https://www.eastofengland.coop/foodstores/brantham", "@spider": "east_of_england_coop", "operator": "East of England Co-operative Society", "operator:wikidata": "Q5329759", "shop": "supermarket", "addr:street_address": "4 & 5 Acacia Court, Blenheim Close", "addr:city": "Manningtree", "addr:state": "Essex", "addr:postcode": "CO11 1TR", "addr:country": "GB", "name": "Brantham", "phone": "01206 393773", "website": "https://www.eastofengland.coop/foodstores/brantham", "brand": "East of England Co-op", "brand:wikidata": "Q5329759", "nsi_id": "eastofenglandcoop-a8278b"}, "geometry": {"type": "Point", "coordinates": [1.065382, 51.9652373]}},
{"type": "Feature", "id": "khHacmIZ5Dq2duAlRagLsG9EsCs=", "properties": {"ref": "https://www.eastofengland.coop/foodstores/bramford", "@spider": "east_of_england_coop", "operator": "East of England Co-operative Society", "operator:wikidata": "Q5329759", "shop": "supermarket", "addr:street_address": "The Street, Bramford", "addr:city": "Ipswich", "addr:state": "Suffolk", "addr:postcode": "IP8 4DU", "addr:country": "GB", "name": "Bramford", "phone": "01473 745052", "website": "https://www.eastofengland.coop/foodstores/bramford", "brand": "East of England Co-op", "brand:wikidata": "Q5329759", "nsi_id": "eastofenglandcoop-a8278b"}, "geometry": {"type": "Point", "coordinates": [1.0973672748688, 52.0762042319443]}},
{"type": "Feature", "id": "Ypua3QwIITfL54VSLuG1pe6Qjsw=", "properties": {"ref": "https://www.eastofengland.coop/foodstores/beresford-road-great-yarmouth", "@spider": "east_of_england_coop", "operator": "East of England Co-operative Society", "operator:wikidata": "Q5329759", "shop": "supermarket", "addr:street_address": "26 Beresford Road, New Town", "addr:city": "Great Yarmouth", "addr:state": "Norfolk", "addr:postcode": "NR304AB", "addr:country": "GB", "name": "Beresford Road, Great Yarmouth", "phone": "01493842104", "website": "https://www.eastofengland.coop/foodstores/beresford-road-great-yarmouth", "brand": "East of England Co-op", "brand:wikidata": "Q5329759", "nsi_id": "eastofenglandcoop-a8278b"}, "geometry": {"type": "Point", "coordinates": [1.7309466497377, 52.6239733821756]}},
{"type": "Feature", "id": "HLI8uh2O0FLIgAKqG4X3enkkesU=", "properties": {"ref": "https://www.eastofengland.coop/foodstores/swines-green-beccles", "@spider": "east_of_england_coop", "operator": "East of England Co-operative Society", "operator:wikidata": "Q5329759", "shop": "supermarket", "addr:street_address": "Rigbourne Hill, Swines Green", "addr:city": "Beccles", "addr:state": "Suffolk", "addr:postcode": "NR34 9JF", "addr:country": "GB", "name": "Swines Green, Beccles", "phone": "01502 711156", "website": "https://www.eastofengland.coop/foodstores/swines-green-beccles", "brand": "East of England Co-op", "brand:wikidata": "Q5329759", "nsi_id": "eastofenglandcoop-a8278b"}, "geometry": {"type": "Point", "coordinates": [1.5697879116394, 52.4492590669955]}},
{"type": "Feature", "id": "_bWIogAAR5PF3HeS5HLvIHREKM8=", "properties": {"ref": "https://www.eastofengland.coop/foodstores/needham-market", "@spider": "east_of_england_coop", "operator": "East of England Co-operative Society", "operator:wikidata": "Q5329759", "shop": "supermarket", "addr:street_address": "27 Horsepond Place, Hurstlea Road", "addr:city": "Needham Market", "addr:state": "Ipswich", "addr:postcode": "IP6 8FS", "addr:country": "GB", "name": "Needham Market Hurstlea Road", "website": "https://www.eastofengland.coop/foodstores/needham-market", "brand": "East of England Co-op", "brand:wikidata": "Q5329759", "nsi_id": "eastofenglandcoop-a8278b"}, "geometry": {"type": "Point", "coordinates": [1.0469988677368, 52.1557799574163]}},
{"type": "Feature", "id": "HLhy9fIKL9tQeBBtbrXCvUBL2G0=", "properties": {"ref": "https://www.eastofengland.coop/foodstores/barking-road-needham-market", "@spider": "east_of_england_coop", "operator": "East of England Co-operative Society", "operator:wikidata": "Q5329759", "shop": "supermarket", "addr:street_address": "16-30 Barking Road, Needham Market", "addr:city": "Ipswich", "addr:state": "Suffolk", "addr:postcode": "IP6 8ET", "addr:country": "GB", "name": "Barking Road, Needham Market", "phone": "01449 721265", "website": "https://www.eastofengland.coop/foodstores/barking-road-needham-market", "brand": "East of England Co-op", "brand:wikidata": "Q5329759", "nsi_id": "eastofenglandcoop-a8278b"}, "geometry": {"type": "Point", "coordinates": [1.0533881846557, 52.1496946273052]}},
{"type": "Feature", "id": "gSjWHJtxTk_ZFQsnc8XQ6oR7Ego=", "properties": {"ref": "https://www.eastofengland.coop/foodstores/bramford-lane-ipswich", "@spider": "east_of_england_coop", "operator": "East of England Co-operative Society", "operator:wikidata": "Q5329759", "shop": "supermarket", "addr:street_address": "203 Bramford Lane", "addr:city": "Ipswich", "addr:state": "Suffolk", "addr:postcode": "IP1 4DS", "addr:country": "GB", "name": "Bramford Lane, Ipswich", "phone": "01473 745190", "website": "https://www.eastofengland.coop/foodstores/bramford-lane-ipswich", "brand": "East of England Co-op", "brand:wikidata": "Q5329759", "nsi_id": "eastofenglandcoop-a8278b"}, "geometry": {"type": "Point", "coordinates": [1.1324098643486, 52.0671540743545]}},
{"type": "Feature", "id": "blB0mheGhTXW7IkB9u83ljkoA4I=", "properties": {"ref": "https://www.eastofengland.coop/foodstores/barham", "@spider": "east_of_england_coop", "operator": "East of England Co-operative Society", "operator:wikidata": "Q5329759", "shop": "supermarket", "addr:street_address": "Norwich Road, Barham", "addr:city": "Ipswich", "addr:state": "Suffolk", "addr:postcode": "IP6 0DH", "addr:country": "GB", "name": "Barham", "phone": "01473 830237", "website": "https://www.eastofengland.coop/foodstores/barham", "brand": "East of England Co-op", "brand:wikidata": "Q5329759", "nsi_id": "eastofenglandcoop-a8278b"}, "geometry": {"type": "Point", "coordinates": [1.1094436846557, 52.1088759198489]}},
{"type": "Feature", "id": "6mZD_wKj8TNVv7qmRU8tUpPg6Dc=", "properties": {"ref": "https://www.eastofengland.coop/foodstores/aylsham-road-norwich", "@spider": "east_of_england_coop", "operator": "East of England Co-operative Society", "operator:wikidata": "Q5329759", "shop": "supermarket", "addr:street_address": "Aylsham Road, Mile Cross", "addr:city": "Norwich", "addr:state": "Norfolk", "addr:postcode": "NR3 2AB", "addr:country": "GB", "name": "Aylsham Road, Norwich", "phone": "01603 427022", "website": "https://www.eastofengland.coop/foodstores/aylsham-road-norwich", "brand": "East of England Co-op", "brand:wikidata": "Q5329759", "nsi_id": "eastofenglandcoop-a8278b"}, "geometry": {"type": "Point", "coordinates": [1.2795304987419, 52.6532524955031]}},
{"type": "Feature", "id": "ecVtYDPfcZJEAVfUAZeAl4wRuKc=", "properties": {"ref": "https://www.eastofengland.coop/foodstores/austin-street-ipswich", "@spider": "east_of_england_coop", "operator": "East of England Co-operative Society", "operator:wikidata": "Q5329759", "shop": "supermarket", "addr:street_address": "89 Austin Street", "addr:city": "Ipswich", "addr:state": "Suffolk", "addr:postcode": "IP2 8DF", "addr:country": "GB", "name": "Austin Street, Ipswich", "phone": "01473 601666", "website": "https://www.eastofengland.coop/foodstores/austin-street-ipswich", "brand": "East of England Co-op", "brand:wikidata": "Q5329759", "nsi_id": "eastofenglandcoop-a8278b"}, "geometry": {"type": "Point", "coordinates": [1.1554686117783, 52.0491275903588]}},
{"type": "Feature", "id": "zSDUPjLzNPo3ynAgXDSF51uf2ak=", "properties": {"ref": "https://www.eastofengland.coop/supermarket/acle", "@spider": "east_of_england_coop", "operator": "East of England Co-operative Society", "operator:wikidata": "Q5329759", "shop": "supermarket", "addr:street_address": "Norwich Road", "addr:city": "Acle", "addr:state": "Norwich", "addr:postcode": "NR13 3BY", "addr:country": "GB", "name": "Acle Supermarket", "phone": "01493 460050", "website": "https://www.eastofengland.coop/supermarket/acle", "brand": "East of England Co-op", "brand:wikidata": "Q5329759", "nsi_id": "eastofenglandcoop-a8278b"}, "geometry": {"type": "Point", "coordinates": [1.5465288, 52.6361041]}},
{"type": "Feature", "id": "YgqJQc8g-bK0ovzvwZKOFD96eiA=", "properties": {"ref": "https://www.eastofengland.coop/foodstores/east-harling", "@spider": "east_of_england_coop", "operator": "East of England Co-operative Society", "operator:wikidata": "Q5329759", "shop": "supermarket", "addr:street_address": "Market Street", "addr:city": "East Harling", "addr:state": "Norfolk", "addr:postcode": "NR16 2AD", "addr:country": "GB", "name": "East Harling", "website": "https://www.eastofengland.coop/foodstores/east-harling", "brand": "East of England Co-op", "brand:wikidata": "Q5329759", "nsi_id": "eastofenglandcoop-a8278b"}, "geometry": {"type": "Point", "coordinates": [0.9322788, 52.43909]}},
{"type": "Feature", "id": "4u14DFfcY4BWWNMRcPTIKDke6wQ=", "properties": {"ref": "https://www.eastofengland.coop/foodstores/abels-road-parkfields-halstead", "@spider": "east_of_england_coop", "operator": "East of England Co-operative Society", "operator:wikidata": "Q5329759", "shop": "supermarket", "addr:street_address": "Abels Road, Parkfields", "addr:city": "Halstead", "addr:state": "Essex", "addr:postcode": "CO91EW", "addr:country": "GB", "name": "Abels Road, Parkfields, Halstead", "phone": "01787 472832", "website": "https://www.eastofengland.coop/foodstores/abels-road-parkfields-halstead", "brand": "East of England Co-op", "brand:wikidata": "Q5329759", "nsi_id": "eastofenglandcoop-a8278b"}, "geometry": {"type": "Point", "coordinates": [0.6317952603272, 51.9367520843022]}}]}