{"type":"FeatureCollection","features":[{"type": "Feature", "id": "1PGrW4xmWdgeAbnP0ec_u6-WS6M=", "properties": {"ref": "9", "@spider": "eatnpark", "amenity": "restaurant", "cuisine": "american", "addr:street_address": "5100 Clairton Blvd ", "addr:city": "Pittsburgh", "addr:state": "PA", "addr:postcode": "15236", "name": "Whitehall", "phone": "(412) 882-0258", "website": "https://locations.eatnpark.com/pa/pittsburgh/restaurants-9.html", "opening_hours": "Mo-Su 07:00-23:00", "brand": "Eat'n Park", "brand:wikidata": "Q5331211", "nsi_id": "eatnpark-96af40"}, "geometry": {"type": "Point", "coordinates": [-79.9736453, 40.3458424]}},
{"type": "Feature", "id": "3Ouq60xpes-woLG3qBdEp_u2Ceg=", "properties": {"ref": "87", "@spider": "eatnpark", "amenity": "restaurant", "cuisine": "american", "addr:street_address": "849 Freeport Road ", "addr:city": "Pittsburgh", "addr:state": "PA", "addr:postcode": "15238", "name": "Waterworks (Fox Chapel)", "phone": "(412) 782-5550", "website": "https://locations.eatnpark.com/pa/pittsburgh/restaurants-87.html", "opening_hours": "Mo-Su 07:00-23:00", "brand": "Eat'n Park", "brand:wikidata": "Q5331211", "nsi_id": "eatnpark-96af40"}, "geometry": {"type": "Point", "coordinates": [-79.8917624, 40.4870285]}},
{"type": "Feature", "id": "J2n2uk9pdAn75Reg2yc_Vsbb6HQ=", "properties": {"ref": "44", "@spider": "eatnpark", "amenity": "restaurant", "cuisine": "american", "addr:street_address": "100 Park Manor Drive ", "addr:city": "Pittsburgh", "addr:state": "PA", "addr:postcode": "15205", "name": "Robinson", "phone": "(412) 787-8556", "website": "https://locations.eatnpark.com/pa/pittsburgh/restaurants-44.html", "opening_hours": "Mo-Su 07:00-23:00", "brand": "Eat'n Park", "brand:wikidata": "Q5331211", "nsi_id": "eatnpark-96af40"}, "geometry": {"type": "Point", "coordinates": [-80.1621608, 40.4486141]}},
{"type": "Feature", "id": "OJitGLUYQREDWxmLiyJTKDC_9Mg=", "properties": {"ref": "4", "@spider": "eatnpark", "amenity": "restaurant", "cuisine": "american", "addr:street_address": "2874 West Liberty Avenue ", "addr:city": "Pittsburgh", "addr:state": "PA", "addr:postcode": "15216", "name": "Dormont", "phone": "(412) 561-4944", "website": "https://locations.eatnpark.com/pa/pittsburgh/restaurants-4.html", "opening_hours": "Mo-Su 07:00-23:00", "brand": "Eat'n Park", "brand:wikidata": "Q5331211", "nsi_id": "eatnpark-96af40"}, "geometry": {"type": "Point", "coordinates": [-80.0335472, 40.3957916]}},
{"type": "Feature", "id": "9A3D7ZSdKI1BqBSgUfgERry4qJY=", "properties": {"ref": "35", "@spider": "eatnpark", "amenity": "restaurant", "cuisine": "american", "addr:street_address": "301 South Hills Village ", "addr:city": "Pittsburgh", "addr:state": "PA", "addr:postcode": "15241", "name": "South Hills Village", "phone": "(412) 854-4855", "website": "https://locations.eatnpark.com/pa/pittsburgh/restaurants-35.html", "opening_hours": "Mo-Su 07:00-23:00", "brand": "Eat'n Park", "brand:wikidata": "Q5331211", "nsi_id": "eatnpark-96af40"}, "geometry": {"type": "Point", "coordinates": [-80.0575598, 40.3415316]}},
{"type": "Feature", "id": "u8RPakrDI3sGbt406rjC9rGZTUc=", "properties": {"ref": "30", "@spider": "eatnpark", "amenity": "restaurant", "cuisine": "american", "addr:street_address": "11746 Frankstown Rd ", "addr:city": "Pittsburgh", "addr:state": "PA", "addr:postcode": "15235", "name": "Penn Hills", "phone": "(412) 242-3700", "website": "https://locations.eatnpark.com/pa/pittsburgh/restaurants-30.html", "opening_hours": "Mo-Su 07:00-23:00", "brand": "Eat'n Park", "brand:wikidata": "Q5331211", "nsi_id": "eatnpark-96af40"}, "geometry": {"type": "Point", "coordinates": [-79.8251417, 40.4674451]}},
{"type": "Feature", "id": "iA8eL4-m25wm1_z9IZgJ87hk9JQ=", "properties": {"ref": "3", "@spider": "eatnpark", "amenity": "restaurant", "cuisine": "american", "addr:street_address": "7370 McKnight Road ", "addr:city": "Pittsburgh", "addr:state": "PA", "addr:postcode": "15237", "name": "McKnight Road (Northbound)", "phone": "(412) 366-6220", "website": "https://locations.eatnpark.com/pa/pittsburgh/restaurants-3.html", "opening_hours": "Mo-Su 07:00-23:00", "brand": "Eat'n Park", "brand:wikidata": "Q5331211", "nsi_id": "eatnpark-96af40"}, "geometry": {"type": "Point", "coordinates": [-80.011177, 40.5384867]}},
{"type": "Feature", "id": "N9AySyHN0l0T2i_iTvlZw3zvV80=", "properties": {"ref": "2", "@spider": "eatnpark", "amenity": "restaurant", "cuisine": "american", "addr:street_address": "1002 Ohio River Blvd ", "addr:city": "Pittsburgh", "addr:state": "PA", "addr:postcode": "15202", "name": "Avalon", "phone": "(412) 766-6764", "website": "https://locations.eatnpark.com/pa/pittsburgh/restaurants-2.html", "opening_hours": "Mo-Su 07:00-23:00", "brand": "Eat'n Park", "brand:wikidata": "Q5331211", "nsi_id": "eatnpark-96af40"}, "geometry": {"type": "Point", "coordinates": [-80.0646245, 40.4940032]}},
{"type": "Feature", "id": "IvSiyTc5HqxEY9UaqHjruZ6aXkI=", "properties": {"ref": "14", "@spider": "eatnpark", "amenity": "restaurant", "cuisine": "american", "addr:street_address": "1250 Banksville Road ", "addr:city": "Pittsburgh", "addr:state": "PA", "addr:postcode": "15216", "name": "Banksville", "phone": "(412) 561-7894", "website": "https://locations.eatnpark.com/pa/pittsburgh/restaurants-14.html", "opening_hours": "Mo-Su 07:00-23:00", "brand": "Eat'n Park", "brand:wikidata": "Q5331211", "nsi_id": "eatnpark-96af40"}, "geometry": {"type": "Point", "coordinates": [-80.0301979, 40.4172863]}},
{"type": "Feature", "id": "GsTOkuolhojUKH5_BACSlBxl2UI=", "properties": {"ref": "13", "@spider": "eatnpark", "amenity": "restaurant", "cuisine": "american", "addr:street_address": "7671 McKnight Road ", "addr:city": "Pittsburgh", "addr:state": "PA", "addr:postcode": "15237", "name": "McKnight Road (Southbound)", "phone": "(412) 364-1211", "website": "https://locations.eatnpark.com/pa/pittsburgh/restaurants-13.html", "opening_hours": "Mo-Su 07:00-21:00", "brand": "Eat'n Park", "brand:wikidata": "Q5331211", "nsi_id": "eatnpark-96af40"}, "geometry": {"type": "Point", "coordinates": [-80.016069, 40.5447345]}},
{"type": "Feature", "id": "R2CxUC42dZenDahOGkmWniC0Ynk=", "properties": {"ref": "80", "@spider": "eatnpark", "amenity": "restaurant", "cuisine": "american", "addr:street_address": "299 Lincoln Highway ", "addr:city": "North Versailles", "addr:state": "PA", "addr:postcode": "15137", "name": "North Versailles", "phone": "(412) 816-2006", "website": "https://locations.eatnpark.com/pa/northversailles/restaurants-80.html", "opening_hours": "Mo-Su 07:00-23:00", "brand": "Eat'n Park", "brand:wikidata": "Q5331211", "nsi_id": "eatnpark-96af40"}, "geometry": {"type": "Point", "coordinates": [-79.8242817, 40.3852588]}},
{"type": "Feature", "id": "Six_L0BKgUZqJQOXFMEMe7BvjNE=", "properties": {"ref": "37", "@spider": "eatnpark", "amenity": "restaurant", "cuisine": "american", "addr:street_address": "111 W Byers Ave ", "addr:city": "New Stanton", "addr:state": "PA", "addr:postcode": "15672", "name": "New Stanton", "phone": "(724) 925-1060", "website": "https://locations.eatnpark.com/pa/newstanton/restaurants-37.html", "opening_hours": "Mo-Su 07:00-23:00", "brand": "Eat'n Park", "brand:wikidata": "Q5331211", "nsi_id": "eatnpark-96af40"}, "geometry": {"type": "Point", "coordinates": [-79.6100629, 40.2178035]}},
{"type": "Feature", "id": "gVuStUP5fa6b3c-ImFdz7GYC8nM=", "properties": {"ref": "32", "@spider": "eatnpark", "amenity": "restaurant", "cuisine": "american", "addr:street_address": "380 Freeport Street ", "addr:city": "New Kensington", "addr:state": "PA", "addr:postcode": "15068", "name": "New Kensington", "phone": "(724) 335-3361", "website": "https://locations.eatnpark.com/pa/newkensington/restaurants-32.html", "opening_hours": "Mo-Su 07:00-23:00", "brand": "Eat'n Park", "brand:wikidata": "Q5331211", "nsi_id": "eatnpark-96af40"}, "geometry": {"type": "Point", "coordinates": [-79.7599693, 40.5568603]}},
{"type": "Feature", "id": "T1DdjWHoCmYmqH64ISNNBx2YiWA=", "properties": {"ref": "43", "@spider": "eatnpark", "amenity": "restaurant", "cuisine": "american", "addr:street_address": "4584 William Penn Hwy ", "addr:city": "Murrysville", "addr:state": "PA", "addr:postcode": "15668", "name": "Murrysville", "phone": "(724) 327-7270", "website": "https://locations.eatnpark.com/pa/murrysville/restaurants-43.html", "opening_hours": "Mo-Th 07:00-21:00; Fr-Sa 07:00-22:00; Su 07:00-21:00", "brand": "Eat'n Park", "brand:wikidata": "Q5331211", "nsi_id": "eatnpark-96af40"}, "geometry": {"type": "Point", "coordinates": [-79.6711365, 40.4257415]}},
{"type": "Feature", "id": "JnYyuGAOelNWEzjM2rH1aUL1dzw=", "properties": {"ref": "41", "@spider": "eatnpark", "amenity": "restaurant", "cuisine": "american", "addr:street_address": "9516 University Blvd ", "addr:city": "Moon Twsp", "addr:state": "PA", "addr:postcode": "15108", "name": "Moon Township", "phone": "(412) 264-7201", "website": "https://locations.eatnpark.com/pa/moontwsp/restaurants-41.html", "opening_hours": "Mo-Su 07:00-23:00", "brand": "Eat'n Park", "brand:wikidata": "Q5331211", "nsi_id": "eatnpark-96af40"}, "geometry": {"type": "Point", "coordinates": [-80.222437, 40.5017629]}},
{"type": "Feature", "id": "6_3R0ZCj3lPoTK1fmaAHR5t-_WU=", "properties": {"ref": "24", "@spider": "eatnpark", "amenity": "restaurant", "cuisine": "american", "addr:street_address": "1626 Broadview Blvd ", "addr:city": "Natrona Hts", "addr:state": "PA", "addr:postcode": "15065", "name": "Natrona Heights", "phone": "(724) 224-2442", "website": "https://locations.eatnpark.com/pa/natronahts/restaurants-24.html", "opening_hours": "Mo-Su 07:00-23:00", "brand": "Eat'n Park", "brand:wikidata": "Q5331211", "nsi_id": "eatnpark-96af40"}, "geometry": {"type": "Point", "coordinates": [-79.7267869, 40.6218991]}},
{"type": "Feature", "id": "jBcsk6mIIV1cJuD9S0JJIU4S0O8=", "properties": {"ref": "59", "@spider": "eatnpark", "amenity": "restaurant", "cuisine": "american", "addr:street_address": "226 Three Springs Drive ", "addr:city": "Weirton", "addr:state": "WV", "addr:postcode": "26062", "name": "Weirton", "phone": "(304) 723-5179", "website": "https://locations.eatnpark.com/wv/weirton/restaurants-59.html", "opening_hours": "Mo-Su 07:00-23:00", "brand": "Eat'n Park", "brand:wikidata": "Q5331211", "nsi_id": "eatnpark-96af40"}, "geometry": {"type": "Point", "coordinates": [-80.5503122, 40.4012278]}},
{"type": "Feature", "id": "taLbSPIFv3wGmoVy4SDy_PNwaWU=", "properties": {"ref": "75", "@spider": "eatnpark", "amenity": "restaurant", "cuisine": "american", "addr:street_address": "80 Fort Henry Road ", "addr:city": "Triadelphia", "addr:state": "WV", "addr:postcode": "26059", "name": "Wheeling/Triadelphia", "phone": "(304) 547-9500", "website": "https://locations.eatnpark.com/wv/triadelphia/restaurants-75.html", "opening_hours": "Mo-Su 07:00-21:00", "brand": "Eat'n Park", "brand:wikidata": "Q5331211", "nsi_id": "eatnpark-96af40"}, "geometry": {"type": "Point", "coordinates": [-80.5940499, 40.0625229]}},
{"type": "Feature", "id": "H4Cjwe2S848USjsALrdZaKzuPds=", "properties": {"ref": "49", "@spider": "eatnpark", "amenity": "restaurant", "cuisine": "american", "addr:street_address": "353 Patteson Drive ", "addr:city": "Morgantown", "addr:state": "WV", "addr:postcode": "26505", "name": "Morgantown", "phone": "(304) 598-0020", "website": "https://locations.eatnpark.com/wv/morgantown/restaurants-49.html", "opening_hours": "Mo-Su 07:00-23:00", "brand": "Eat'n Park", "brand:wikidata": "Q5331211", "nsi_id": "eatnpark-96af40"}, "geometry": {"type": "Point", "coordinates": [-79.9689722, 39.6514524]}},
{"type": "Feature", "id": "x0BU4NqykNyBHA-FN8ZjXlscEaY=", "properties": {"ref": "21", "@spider": "eatnpark", "amenity": "restaurant", "cuisine": "american", "addr:street_address": "2650 Brandt School Road ", "addr:city": "Wexford", "addr:state": "PA", "addr:postcode": "15090", "name": "Franklin Park (Wexford)", "phone": "(724) 940-3270", "website": "https://locations.eatnpark.com/pa/wexford/restaurants-21.html", "opening_hours": "Mo-Th 07:00-21:00; Fr-Su 07:00-22:00", "brand": "Eat'n Park", "brand:wikidata": "Q5331211", "nsi_id": "eatnpark-96af40"}, "geometry": {"type": "Point", "coordinates": [-80.0925369, 40.6157529]}},
{"type": "Feature", "id": "xs_jzvx1c2hH1tSf_w2lJQe_B0M=", "properties": {"ref": "55", "@spider": "eatnpark", "amenity": "restaurant", "cuisine": "american", "addr:street_address": "320 Oak Spring Road ", "addr:city": "Washington", "addr:state": "PA", "addr:postcode": "15301", "name": "Washington", "phone": "(724) 229-7333", "website": "https://locations.eatnpark.com/pa/washington/restaurants-55.html", "opening_hours": "Mo-Su 07:00-23:00", "brand": "Eat'n Park", "brand:wikidata": "Q5331211", "nsi_id": "eatnpark-96af40"}, "geometry": {"type": "Point", "coordinates": [-80.2353117, 40.1825464]}},
{"type": "Feature", "id": "pjsr99YYTmO1Fo35OApV0LBo0u8=", "properties": {"ref": "27", "@spider": "eatnpark", "amenity": "restaurant", "cuisine": "american", "addr:street_address": "519 West Main Street ", "addr:city": "Uniontown", "addr:state": "PA", "addr:postcode": "15401", "name": "Uniontown", "phone": "(724) 439-0440", "website": "https://locations.eatnpark.com/pa/uniontown/restaurants-27.html", "opening_hours": "Mo-Su 07:00-23:00", "brand": "Eat'n Park", "brand:wikidata": "Q5331211", "nsi_id": "eatnpark-96af40"}, "geometry": {"type": "Point", "coordinates": [-79.7434488, 39.9086779]}},
{"type": "Feature", "id": "206Vy_AcrU3kPKvsI0Kmze6iV68=", "properties": {"ref": "47", "@spider": "eatnpark", "amenity": "restaurant", "cuisine": "american", "addr:street_address": "926 North Center Avenue ", "addr:city": "Somerset", "addr:state": "PA", "addr:postcode": "15501", "name": "Somerset", "phone": "(814) 443-4579", "website": "https://locations.eatnpark.com/pa/somerset/restaurants-47.html", "opening_hours": "Mo-Su 07:00-23:00", "brand": "Eat'n Park", "brand:wikidata": "Q5331211", "nsi_id": "eatnpark-96af40"}, "geometry": {"type": "Point", "coordinates": [-79.0775248, 40.0164853]}},
{"type": "Feature", "id": "868wF_SzCjInvkCF6TADc0KHfSQ=", "properties": {"ref": "40", "@spider": "eatnpark", "amenity": "restaurant", "cuisine": "american", "addr:street_address": "3005 Pittsburgh Mills Blvd ", "addr:city": "Tarentum", "addr:state": "PA", "addr:postcode": "15084", "name": "Pittsburgh Mills", "phone": "(724) 275-1014", "website": "https://locations.eatnpark.com/pa/tarentum/restaurants-40.html", "opening_hours": "Mo-Su 07:00-23:00", "brand": "Eat'n Park", "brand:wikidata": "Q5331211", "nsi_id": "eatnpark-96af40"}, "geometry": {"type": "Point", "coordinates": [-79.8037592, 40.5702783]}},
{"type": "Feature", "id": "pIFIRQr-_UbKqX-2AISjk_7kPMw=", "properties": {"ref": "28", "@spider": "eatnpark", "amenity": "restaurant", "cuisine": "american", "addr:street_address": "201 Ohio River Blvd ", "addr:city": "Sewickley", "addr:state": "PA", "addr:postcode": "15143", "name": "Sewickley", "phone": "(412) 741-4650", "website": "https://locations.eatnpark.com/pa/sewickley/restaurants-28.html", "opening_hours": "Mo-Su 07:00-23:00", "brand": "Eat'n Park", "brand:wikidata": "Q5331211", "nsi_id": "eatnpark-96af40"}, "geometry": {"type": "Point", "coordinates": [-80.1933038, 40.5440325]}},
{"type": "Feature", "id": "0ueIZ_0YO39ocEYxgRNyp5qNqt4=", "properties": {"ref": "78", "@spider": "eatnpark", "amenity": "restaurant", "cuisine": "american", "addr:street_address": "1675 Broad Ave ", "addr:city": "Rostraver Township", "addr:state": "PA", "addr:postcode": "15012", "name": "Belle Vernon", "phone": "(724) 930-7470", "website": "https://locations.eatnpark.com/pa/rostravertownship/restaurants-78.html", "opening_hours": "Mo-Su 07:00-23:00", "brand": "Eat'n Park", "brand:wikidata": "Q5331211", "nsi_id": "eatnpark-96af40"}, "geometry": {"type": "Point", "coordinates": [-79.8444674, 40.1364024]}},
{"type": "Feature", "id": "EA4DC6webA7rqE1nQPH2p_UNLsQ=", "properties": {"ref": "39", "@spider": "eatnpark", "amenity": "restaurant", "cuisine": "american", "addr:street_address": "3987 Monroeville Blvd ", "addr:city": "Monroeville", "addr:state": "PA", "addr:postcode": "15146", "name": "Monroeville", "phone": "(412) 471-1111", "website": "https://locations.eatnpark.com/pa/monroeville/restaurants-39.html", "opening_hours": "Mo-Su 07:00-23:00", "brand": "Eat'n Park", "brand:wikidata": "Q5331211", "nsi_id": "eatnpark-96af40"}, "geometry": {"type": "Point", "coordinates": [-79.7724481, 40.4366898]}},
{"type": "Feature", "id": "4DbWRza26tQwYIrk3BIrRmahYvk=", "properties": {"ref": "16", "@spider": "eatnpark", "amenity": "restaurant", "cuisine": "american", "addr:street_address": "1250 West Main Street ", "addr:city": "Monongahela", "addr:state": "PA", "addr:postcode": "15063", "name": "Monongahela", "phone": "(724) 258-4654", "website": "https://locations.eatnpark.com/pa/monongahela/restaurants-16.html", "opening_hours": "Mo-Su 07:00-23:00", "brand": "Eat'n Park", "brand:wikidata": "Q5331211", "nsi_id": "eatnpark-96af40"}, "geometry": {"type": "Point", "coordinates": [-79.9393374, 40.2065206]}},
{"type": "Feature", "id": "hM7LR82hy088xRnTblfxOlGS5bk=", "properties": {"ref": "62", "@spider": "eatnpark", "amenity": "restaurant", "cuisine": "american", "addr:street_address": "120 Wagner Road ", "addr:city": "Monaca", "addr:state": "PA", "addr:postcode": "15061", "name": "Center Township", "phone": "(724) 770-0644", "website": "https://locations.eatnpark.com/pa/monaca/restaurants-62.html", "opening_hours": "Mo-Su 07:00-23:00", "brand": "Eat'n Park", "brand:wikidata": "Q5331211", "nsi_id": "eatnpark-96af40"}, "geometry": {"type": "Point", "coordinates": [-80.3023766, 40.681525]}},
{"type": "Feature", "id": "GK_A3J8gCQK-SMuwsK0fZLSZePg=", "properties": {"ref": "22", "@spider": "eatnpark", "amenity": "restaurant", "cuisine": "american", "addr:street_address": "3380 Washington Rd Suite 1 ", "addr:city": "McMurray", "addr:state": "PA", "addr:postcode": "15317", "name": "Peters Township (Canonsburg)", "phone": "(724) 941-8261", "website": "https://locations.eatnpark.com/pa/mcmurray/restaurants-22.html", "opening_hours": "Mo-Su 07:00-23:00", "brand": "Eat'n Park", "brand:wikidata": "Q5331211", "nsi_id": "eatnpark-96af40"}, "geometry": {"type": "Point", "coordinates": [-80.1172537, 40.2876571]}},
{"type": "Feature", "id": "qaEQI96omxEQ6ppKkO83GyJoa7I=", "properties": {"ref": "7", "@spider": "eatnpark", "amenity": "restaurant", "cuisine": "american", "addr:street_address": "805 Lysle Blvd ", "addr:city": "McKeesport", "addr:state": "PA", "addr:postcode": "15132", "name": "McKeesport", "phone": "(412) 664-9148", "website": "https://locations.eatnpark.com/pa/mckeesport/restaurants-7.html", "opening_hours": "Mo-Su 07:00-21:00", "brand": "Eat'n Park", "brand:wikidata": "Q5331211", "nsi_id": "eatnpark-96af40"}, "geometry": {"type": "Point", "coordinates": [-79.8560017, 40.3524771]}},
{"type": "Feature", "id": "rFNa6DNlJczzcbILglfPGLJBapI=", "properties": {"ref": "48", "@spider": "eatnpark", "amenity": "restaurant", "cuisine": "american", "addr:street_address": "19085 Perry Highway ", "addr:city": "Mars", "addr:state": "PA", "addr:postcode": "16046", "name": "Cranberry Township", "phone": "(724) 776-4460", "website": "https://locations.eatnpark.com/pa/mars/restaurants-48.html", "opening_hours": "Mo-Su 07:00-23:00", "brand": "Eat'n Park", "brand:wikidata": "Q5331211", "nsi_id": "eatnpark-96af40"}, "geometry": {"type": "Point", "coordinates": [-80.0991715, 40.6730848]}},
{"type": "Feature", "id": "6myacboOpoSaNa6CdIxdn1bvt9w=", "properties": {"ref": "57", "@spider": "eatnpark", "amenity": "restaurant", "cuisine": "american", "addr:street_address": "1026 Mountain Laurel Plaza ", "addr:city": "Latrobe", "addr:state": "PA", "addr:postcode": "15650", "name": "Latrobe", "phone": "(724) 532-1966", "website": "https://locations.eatnpark.com/pa/latrobe/restaurants-57.html", "opening_hours": "Mo-Su 07:00-23:00", "brand": "Eat'n Park", "brand:wikidata": "Q5331211", "nsi_id": "eatnpark-96af40"}, "geometry": {"type": "Point", "coordinates": [-79.392233, 40.284235]}},
{"type": "Feature", "id": "T9n5werBvWk7gAEKMX63_vGvq9k=", "properties": {"ref": "45", "@spider": "eatnpark", "amenity": "restaurant", "cuisine": "american", "addr:street_address": "1461 Scalp Avenue ", "addr:city": "Johnstown", "addr:state": "PA", "addr:postcode": "15904", "name": "Johnstown", "phone": "(814) 266-5714", "website": "https://locations.eatnpark.com/pa/johnstown/restaurants-45.html", "opening_hours": "Mo-Su 07:00-23:00", "brand": "Eat'n Park", "brand:wikidata": "Q5331211", "nsi_id": "eatnpark-96af40"}, "geometry": {"type": "Point", "coordinates": [-78.8568873, 40.2699465]}},
{"type": "Feature", "id": "U6QQO9-GA4wuLlbWX1GXzkwl4Nc=", "properties": {"ref": "25", "@spider": "eatnpark", "amenity": "restaurant", "cuisine": "american", "addr:street_address": "1900 Minno Drive ", "addr:city": "Johnstown", "addr:state": "PA", "addr:postcode": "15905", "name": "Westmont", "phone": "(814) 255-7711", "website": "https://locations.eatnpark.com/pa/johnstown/restaurants-25.html", "opening_hours": "Mo-Su 07:00-23:00", "brand": "Eat'n Park", "brand:wikidata": "Q5331211", "nsi_id": "eatnpark-96af40"}, "geometry": {"type": "Point", "coordinates": [-78.9577255, 40.3219108]}},
{"type": "Feature", "id": "426v4iqEztEFDIvFRtI8Qc0Jsqk=", "properties": {"ref": "67", "@spider": "eatnpark", "amenity": "restaurant", "cuisine": "american", "addr:street_address": "8891 Route 30 ", "addr:city": "Irwin", "addr:state": "PA", "addr:postcode": "15642", "name": "North Huntingdon", "phone": "(724) 864-8031", "website": "https://locations.eatnpark.com/pa/irwin/restaurants-67.html", "opening_hours": "Mo-Su 07:00-23:00", "brand": "Eat'n Park", "brand:wikidata": "Q5331211", "nsi_id": "eatnpark-96af40"}, "geometry": {"type": "Point", "coordinates": [-79.6894552, 40.3198982]}},
{"type": "Feature", "id": "-NbGP3T2k9uHNJWyXw97HJnwGRA=", "properties": {"ref": "58", "@spider": "eatnpark", "amenity": "restaurant", "cuisine": "american", "addr:street_address": "2675 Oakland Ave ", "addr:city": "Indiana", "addr:state": "PA", "addr:postcode": "15701", "name": "Indiana", "phone": "(724) 465-2301", "website": "https://locations.eatnpark.com/pa/indiana/restaurants-58.html", "opening_hours": "Mo-Su 07:00-23:00", "brand": "Eat'n Park", "brand:wikidata": "Q5331211", "nsi_id": "eatnpark-96af40"}, "geometry": {"type": "Point", "coordinates": [-79.1858464, 40.6032655]}},
{"type": "Feature", "id": "B8cRd32hYOKANW9JXeiF0YZu1l0=", "properties": {"ref": "1", "@spider": "eatnpark", "amenity": "restaurant", "cuisine": "american", "addr:street_address": "245 E Waterfront Drive ", "addr:city": "Homestead", "addr:state": "PA", "addr:postcode": "15120", "name": "Waterfront (Homestead)", "phone": "(412) 464-7275", "website": "https://locations.eatnpark.com/pa/homestead/restaurants-1.html", "opening_hours": "Mo-Su 07:00-23:00", "brand": "Eat'n Park", "brand:wikidata": "Q5331211", "nsi_id": "eatnpark-96af40"}, "geometry": {"type": "Point", "coordinates": [-79.9138043, 40.4119132]}},
{"type": "Feature", "id": "7XlFR17lEdIPNaQOIOzB8Au5dCM=", "properties": {"ref": "65", "@spider": "eatnpark", "amenity": "restaurant", "cuisine": "american", "addr:street_address": "1911 Leesburg-Grove City Road ", "addr:city": "Grove City", "addr:state": "PA", "addr:postcode": "16127", "name": "Grove City", "phone": "(724) 748-5911", "website": "https://locations.eatnpark.com/pa/grovecity/restaurants-65.html", "opening_hours": "Mo-Su 07:00-23:00", "brand": "Eat'n Park", "brand:wikidata": "Q5331211", "nsi_id": "eatnpark-96af40"}, "geometry": {"type": "Point", "coordinates": [-80.1569006, 41.1385211]}},
{"type": "Feature", "id": "24uuEDxgNQzD2ABHael30uE-oeM=", "properties": {"ref": "50", "@spider": "eatnpark", "amenity": "restaurant", "cuisine": "american", "addr:street_address": "2270 East State Street ", "addr:city": "Hermitage", "addr:state": "PA", "addr:postcode": "16148", "name": "Hermitage", "phone": "(724) 342-1383", "website": "https://locations.eatnpark.com/pa/hermitage/restaurants-50.html", "opening_hours": "Mo-Su 07:00-23:00", "brand": "Eat'n Park", "brand:wikidata": "Q5331211", "nsi_id": "eatnpark-96af40"}, "geometry": {"type": "Point", "coordinates": [-80.4673724, 41.2329429]}},
{"type": "Feature", "id": "k97_XV_45THX0wvVrC2at-4Pzpk=", "properties": {"ref": "29", "@spider": "eatnpark", "amenity": "restaurant", "cuisine": "american", "addr:street_address": "5277 Route 30 ", "addr:city": "Greensburg", "addr:state": "PA", "addr:postcode": "15601", "name": "Greensburg", "phone": "(724) 837-2759", "website": "https://locations.eatnpark.com/pa/greensburg/restaurants-29.html", "opening_hours": "Mo-Su 07:00-23:00", "brand": "Eat'n Park", "brand:wikidata": "Q5331211", "nsi_id": "eatnpark-96af40"}, "geometry": {"type": "Point", "coordinates": [-79.5096383, 40.3033861]}},
{"type": "Feature", "id": "K0kz62XX5FOSb28jVDeL_4-i3xs=", "properties": {"ref": "42", "@spider": "eatnpark", "amenity": "restaurant", "cuisine": "american", "addr:street_address": "5143 Route 8 ", "addr:city": "Gibsonia", "addr:state": "PA", "addr:postcode": "15044", "name": "Hampton", "phone": "(724) 443-7280", "website": "https://locations.eatnpark.com/pa/gibsonia/restaurants-42.html", "opening_hours": "Mo-Su 07:00-23:00", "brand": "Eat'n Park", "brand:wikidata": "Q5331211", "nsi_id": "eatnpark-96af40"}, "geometry": {"type": "Point", "coordinates": [-79.9480578, 40.6126092]}},
{"type": "Feature", "id": "ywS_LrTIXt6X1Ni3rSvScq0-kHU=", "properties": {"ref": "36", "@spider": "eatnpark", "amenity": "restaurant", "cuisine": "american", "addr:street_address": "553 Allegheny Blvd ", "addr:city": "Franklin", "addr:state": "PA", "addr:postcode": "16323", "name": "Franklin", "phone": "(814) 432-3352", "website": "https://locations.eatnpark.com/pa/franklin/restaurants-36.html", "opening_hours": "Mo-Th 07:00-21:00; Fr-Sa 07:00-22:00; Su 07:00-21:00", "brand": "Eat'n Park", "brand:wikidata": "Q5331211", "nsi_id": "eatnpark-96af40"}, "geometry": {"type": "Point", "coordinates": [-79.8080053, 41.4027233]}},
{"type": "Feature", "id": "YktdWVSHMSdtBgv6rWG9SR_BhuM=", "properties": {"ref": "54", "@spider": "eatnpark", "amenity": "restaurant", "cuisine": "american", "addr:street_address": "7355 Peach Street ", "addr:city": "Erie", "addr:state": "PA", "addr:postcode": "16509", "name": "Erie", "phone": "(814) 866-3970", "website": "https://locations.eatnpark.com/pa/erie/restaurants-54.html", "opening_hours": "Mo-Su 07:00-23:00", "brand": "Eat'n Park", "brand:wikidata": "Q5331211", "nsi_id": "eatnpark-96af40"}, "geometry": {"type": "Point", "coordinates": [-80.0854007, 42.0537454]}},
{"type": "Feature", "id": "Lapg3Wpi0Apx-uYdV_pHIr14uqA=", "properties": {"ref": "23", "@spider": "eatnpark", "amenity": "restaurant", "cuisine": "american", "addr:street_address": "930 Butler Street ", "addr:city": "Etna", "addr:state": "PA", "addr:postcode": "15223", "name": "Shaler", "phone": "(412) 487-4870", "website": "https://locations.eatnpark.com/pa/etna/restaurants-23.html", "opening_hours": "Mo-Su 07:00-23:00", "brand": "Eat'n Park", "brand:wikidata": "Q5331211", "nsi_id": "eatnpark-96af40"}, "geometry": {"type": "Point", "coordinates": [-79.947658, 40.5119492]}},
{"type": "Feature", "id": "fFVcN2ocS38A-_l8F0ByHDkZ528=", "properties": {"ref": "61", "@spider": "eatnpark", "amenity": "restaurant", "cuisine": "american", "addr:street_address": "1355 Beeline Highway ", "addr:city": "Dubois", "addr:state": "PA", "addr:postcode": "15801", "name": "Dubois", "phone": "(814) 375-8622", "website": "https://locations.eatnpark.com/pa/dubois/restaurants-61.html", "opening_hours": "Mo-Su 07:00-23:00", "brand": "Eat'n Park", "brand:wikidata": "Q5331211", "nsi_id": "eatnpark-96af40"}, "geometry": {"type": "Point", "coordinates": [-78.7287115, 41.122811]}},
{"type": "Feature", "id": "9vsLbYB2rQ1cqXRUbsNsCLkm_Q0=", "properties": {"ref": "66", "@spider": "eatnpark", "amenity": "restaurant", "cuisine": "american", "addr:street_address": "35 Perkins Road ", "addr:city": "Clarion", "addr:state": "PA", "addr:postcode": "16214", "name": "Clarion", "phone": "(814) 227-2188", "website": "https://locations.eatnpark.com/pa/clarion/restaurants-66.html", "opening_hours": "Mo-Su 07:00-23:00", "brand": "Eat'n Park", "brand:wikidata": "Q5331211", "nsi_id": "eatnpark-96af40"}, "geometry": {"type": "Point", "coordinates": [-79.3939566, 41.1899455]}},
{"type": "Feature", "id": "HjpL_YjsCPwX6IuJPv8Oudp0vvU=", "properties": {"ref": "31", "@spider": "eatnpark", "amenity": "restaurant", "cuisine": "american", "addr:street_address": "214 New Castle Road ", "addr:city": "Butler", "addr:state": "PA", "addr:postcode": "16001", "name": "Butler (New Castle Road)", "phone": "(724) 287-0153", "website": "https://locations.eatnpark.com/pa/butler/restaurants-31.html", "opening_hours": "Mo-Su 07:00-23:00", "brand": "Eat'n Park", "brand:wikidata": "Q5331211", "nsi_id": "eatnpark-96af40"}, "geometry": {"type": "Point", "coordinates": [-79.9291914, 40.8703365]}},
{"type": "Feature", "id": "Ll8fy-UfGhTrmJOYyDir7cVv4Ro=", "properties": {"ref": "17", "@spider": "eatnpark", "amenity": "restaurant", "cuisine": "american", "addr:street_address": "114 Clearview Circle ", "addr:city": "Butler", "addr:state": "PA", "addr:postcode": "16001", "name": "Butler (Clearview Mall)", "phone": "(724) 282-7674", "website": "https://locations.eatnpark.com/pa/butler/restaurants-17.html", "opening_hours": "Mo-Su 07:00-23:00", "brand": "Eat'n Park", "brand:wikidata": "Q5331211", "nsi_id": "eatnpark-96af40"}, "geometry": {"type": "Point", "coordinates": [-79.9069824, 40.8957317]}},
{"type": "Feature", "id": "RJ2gXTqZzA7eJz9HASGyEWSoiMc=", "properties": {"ref": "18", "@spider": "eatnpark", "amenity": "restaurant", "cuisine": "american", "addr:street_address": "5220 Library Road ", "addr:city": "Bethel Park", "addr:state": "PA", "addr:postcode": "15102", "name": "Library Road", "phone": "(412) 835-4011", "website": "https://locations.eatnpark.com/pa/bethelpark/restaurants-18.html", "opening_hours": "Mo-Su 07:00-23:00", "brand": "Eat'n Park", "brand:wikidata": "Q5331211", "nsi_id": "eatnpark-96af40"}, "geometry": {"type": "Point", "coordinates": [-80.024046, 40.3326816]}},
{"type": "Feature", "id": "qo-9yMoSWmjUDK0X98_Li2LbTBE=", "properties": {"ref": "12", "@spider": "eatnpark", "amenity": "restaurant", "cuisine": "american", "addr:street_address": "1197 Washington Pike ", "addr:city": "Bridgeville", "addr:state": "PA", "addr:postcode": "15017", "name": "Bridgeville", "phone": "(412) 221-8800", "website": "https://locations.eatnpark.com/pa/bridgeville/restaurants-12.html", "opening_hours": "Mo-Su 07:00-23:00", "brand": "Eat'n Park", "brand:wikidata": "Q5331211", "nsi_id": "eatnpark-96af40"}, "geometry": {"type": "Point", "coordinates": [-80.1011855, 40.3701597]}},
{"type": "Feature", "id": "cdXbdP0zC1foJBdS8ZNcTFjLNO0=", "properties": {"ref": "26", "@spider": "eatnpark", "amenity": "restaurant", "cuisine": "american", "addr:street_address": "500 Chippewa Town Center ", "addr:city": "Beaver Falls", "addr:state": "PA", "addr:postcode": "15010", "name": "Chippewa", "phone": "(724) 847-7275", "website": "https://locations.eatnpark.com/pa/beaverfalls/restaurants-26.html", "opening_hours": "Mo-Su 07:00-23:00", "brand": "Eat'n Park", "brand:wikidata": "Q5331211", "nsi_id": "eatnpark-96af40"}, "geometry": {"type": "Point", "coordinates": [-80.385047, 40.778923]}},
{"type": "Feature", "id": "ywotdoZqoeUtDnQq4-xRg5SyQfU=", "properties": {"ref": "46", "@spider": "eatnpark", "amenity": "restaurant", "cuisine": "american", "addr:street_address": "137 Bowling Lane ", "addr:city": "Altoona", "addr:state": "PA", "addr:postcode": "16601", "name": "Altoona", "phone": "(814) 943-4070", "website": "https://locations.eatnpark.com/pa/altoona/restaurants-46.html", "opening_hours": "Mo-Su 07:00-23:00", "brand": "Eat'n Park", "brand:wikidata": "Q5331211", "nsi_id": "eatnpark-96af40"}, "geometry": {"type": "Point", "coordinates": [-78.4059932, 40.4678302]}},
{"type": "Feature", "id": "XQL0EOQe4Fb6dV09or1pc7BfLVg=", "properties": {"ref": "63", "@spider": "eatnpark", "amenity": "restaurant", "cuisine": "american", "addr:street_address": "2057 Wal Mart Drive NE ", "addr:city": "Warren", "addr:state": "OH", "addr:postcode": "44483", "name": "Warren", "phone": "(330) 372-6610", "website": "https://locations.eatnpark.com/oh/warren/restaurants-63.html", "opening_hours": "Mo-Su 07:00-23:00", "brand": "Eat'n Park", "brand:wikidata": "Q5331211", "nsi_id": "eatnpark-96af40"}, "geometry": {"type": "Point", "coordinates": [-80.778907000181, 41.2739353159592]}},
{"type": "Feature", "id": "GlBS5Yzofd46M3xdwy1g-tp3RXU=", "properties": {"ref": "10", "@spider": "eatnpark", "amenity": "restaurant", "cuisine": "american", "addr:street_address": "100 Mall Drive ", "addr:city": "Steubenville", "addr:state": "OH", "addr:postcode": "43952", "name": "Steubenville", "phone": "(740) 266-6643", "website": "https://locations.eatnpark.com/oh/steubenville/restaurants-10.html", "opening_hours": "Mo-Su 07:00-23:00", "brand": "Eat'n Park", "brand:wikidata": "Q5331211", "nsi_id": "eatnpark-96af40"}, "geometry": {"type": "Point", "coordinates": [-80.6718784, 40.36601]}},
{"type": "Feature", "id": "8gOZesGu6YwLg2aQd6JdO7b9L80=", "properties": {"ref": "68", "@spider": "eatnpark", "amenity": "restaurant", "cuisine": "american", "addr:street_address": "50620 Valley Center Blvd ", "addr:city": "St. Clairsville", "addr:state": "OH", "addr:postcode": "43950", "name": "St. Clairsville", "phone": "(740) 695-5507", "website": "https://locations.eatnpark.com/oh/st-clairsville/restaurants-68.html", "opening_hours": "Mo-Su 07:00-23:00", "brand": "Eat'n Park", "brand:wikidata": "Q5331211", "nsi_id": "eatnpark-96af40"}, "geometry": {"type": "Point", "coordinates": [-80.875389, 40.074284]}},
{"type": "Feature", "id": "uRhOwFcJjzuiKXIO9aPtQ87T5Ck=", "properties": {"ref": "84", "@spider": "eatnpark", "amenity": "restaurant", "cuisine": "american", "addr:street_address": "5451 Mahoning Avenue ", "addr:city": "Austintown", "addr:state": "OH", "addr:postcode": "44515", "name": "Austintown", "phone": "(330) 779-0410", "website": "https://locations.eatnpark.com/oh/austintown/restaurants-84.html", "opening_hours": "Mo-Su 07:00-23:00", "brand": "Eat'n Park", "brand:wikidata": "Q5331211", "nsi_id": "eatnpark-96af40"}, "geometry": {"type": "Point", "coordinates": [-80.7620143, 41.0991349]}}]}