{"type":"FeatureCollection","features":[{"type": "Feature", "id": "K52Mt_CpnaDl8VM-d4B3NklCUP0=", "properties": {"ref": "the-bridge", "@spider": "elysium_healthcare", "addr:full": "Lower East Street, Middlehaven, Middlesbrough,\u00a0TS2 1SW", "addr:postcode": "TS2 1SW", "addr:country": "GB", "name": "The Bridge", "phone": "01642 065 160", "website": "https://www.elysiumhealthcare.co.uk/location/the-bridge/", "brand": "Elysium Healthcare", "brand:wikidata": "Q39086513"}, "geometry": {"type": "Point", "coordinates": [-1.229304, 54.579967]}},
{"type": "Feature", "id": "LpSx7lGm_j1WtkMsvuYqX2tDIU4=", "properties": {"ref": "89-ewell-road", "@spider": "elysium_healthcare", "addr:full": "89 Ewell Road, Surbiton, Surrey,\u00a0KT6 6AH", "addr:postcode": "KT6 6AH", "addr:country": "GB", "name": "89 Ewell Road", "phone": "020 8399 2941", "website": "https://www.elysiumhealthcare.co.uk/location/89-ewell-road/", "brand": "Elysium Healthcare", "brand:wikidata": "Q39086513"}, "geometry": {"type": "Point", "coordinates": [-0.297846, 51.390696]}},
{"type": "Feature", "id": "CB8jUL8Ch4KoGQ6UN9MRQwpyViE=", "properties": {"ref": "78-park-road", "@spider": "elysium_healthcare", "addr:full": "78 Park Road, Hampton Hill, Hampton, Middlesex,\u00a0TW12 1HA", "addr:postcode": "TW12 1HA", "addr:country": "GB", "name": "78 Park Road", "phone": "020 8941 5593", "website": "https://www.elysiumhealthcare.co.uk/location/78-park-road/", "brand": "Elysium Healthcare", "brand:wikidata": "Q39086513"}, "geometry": {"type": "Point", "coordinates": [-0.363117, 51.43117]}},
{"type": "Feature", "id": "a_UeaYLg1o4LEejSG8WDWzh0tRk=", "properties": {"ref": "13-alexandra-gardens", "@spider": "elysium_healthcare", "addr:full": "13 Alexandra Gardens, Hounslow, London,\u00a0TW3 4HT", "addr:postcode": "TW3 4HT", "addr:country": "GB", "name": "13 Alexandra Gardens", "phone": "020 8154 7445", "website": "https://www.elysiumhealthcare.co.uk/location/13-alexandra-gardens/", "brand": "Elysium Healthcare", "brand:wikidata": "Q39086513"}, "geometry": {"type": "Point", "coordinates": [-0.363211, 51.472961]}},
{"type": "Feature", "id": "9rIgR3y0Os7k0PgY8gg6qve--64=", "properties": {"ref": "21b-upper-brighton-road", "@spider": "elysium_healthcare", "addr:full": "21b Upper Brighton Road, Surbiton, Surrey,\u00a0KT6 6QX", "addr:postcode": "KT6 6QX", "addr:country": "GB", "name": "21b Upper Brighton Road", "phone": "020 8390 4689", "website": "https://www.elysiumhealthcare.co.uk/location/21b-upper-brighton-road/", "brand": "Elysium Healthcare", "brand:wikidata": "Q39086513"}, "geometry": {"type": "Point", "coordinates": [-0.300472, 51.385911]}},
{"type": "Feature", "id": "IRQUD_imLXoloGnzbAKicYHe9wM=", "properties": {"ref": "1a-upper-brighton-road", "@spider": "elysium_healthcare", "addr:full": "1a Upper Brighton Road,\u00a0Surbiton,Surrey,\u00a0KT6 6LQ", "addr:postcode": "KT6 6LQ", "addr:country": "GB", "name": "1a Upper Brighton Road", "phone": "0203 409 1282", "website": "https://www.elysiumhealthcare.co.uk/location/1a-upper-brighton-road/", "brand": "Elysium Healthcare", "brand:wikidata": "Q39086513"}, "geometry": {"type": "Point", "coordinates": [-0.30447, 51.389208]}},
{"type": "Feature", "id": "QuDeC7XwlX5npfAme4CxrkNjLhc=", "properties": {"ref": "1-lichfield-lane", "@spider": "elysium_healthcare", "addr:full": "1 Lichfield Lane,\u00a0Twickenham,London,\u00a0TW2 6LA", "addr:postcode": "TW2 6LA", "addr:country": "GB", "name": "1 Lichfield Lane", "phone": "020 8867 2715", "website": "https://www.elysiumhealthcare.co.uk/location/1-lichfield-lane/", "brand": "Elysium Healthcare", "brand:wikidata": "Q39086513"}, "geometry": {"type": "Point", "coordinates": [-0.359082, 51.447589]}},
{"type": "Feature", "id": "zbdH99No_rbv__0u-8lFZo1mi58=", "properties": {"ref": "sturt-house", "@spider": "elysium_healthcare", "addr:full": "Sturt\u2019s Lane, Walton on the Hill Surrey,\u00a0KT20 7RQ", "addr:postcode": "KT20 7RQ", "addr:country": "GB", "name": "Sturt House", "phone": "01737 817 610", "website": "https://www.elysiumhealthcare.co.uk/location/sturt-house/", "brand": "Elysium Healthcare", "brand:wikidata": "Q39086513"}, "geometry": {"type": "Point", "coordinates": [-0.25413, 51.270878]}},
{"type": "Feature", "id": "E4wGq6lMvaqz-SaXbbtMzmpWqfI=", "properties": {"ref": "bromley-road", "@spider": "elysium_healthcare", "addr:full": "84-86 Bromley Road,\u00a0Catford,\u00a024hr referral line: 0800 218 2398London,\u00a0SE6 2UR", "addr:postcode": "0800 218", "addr:country": "GB", "name": "Bromley Road", "phone": "0208 695 6051", "website": "https://www.elysiumhealthcare.co.uk/location/bromley-road/", "brand": "Elysium Healthcare", "brand:wikidata": "Q39086513"}, "geometry": {"type": "Point", "coordinates": [-0.019919, 51.439748]}},
{"type": "Feature", "id": "HL4IoZ6WhC_pPmhlujhYKo3S3_A=", "properties": {"ref": "asher-house", "@spider": "elysium_healthcare", "addr:full": "Asher House, Third Avenue,Walton-on-the-Naze, Essex, CO14 8JUTo make a referral email:", "addr:postcode": "CO14 8JU", "addr:country": "GB", "name": "Asher House", "website": "https://www.elysiumhealthcare.co.uk/location/asher-house/", "brand": "Elysium Healthcare", "brand:wikidata": "Q39086513"}, "geometry": {"type": "Point", "coordinates": [1.283092369137972, 51.860817499999996]}},
{"type": "Feature", "id": "suJuxWSLsWVfcbCTOPJNDd73Vyw=", "properties": {"ref": "the-chimneys-clinic", "@spider": "elysium_healthcare", "addr:full": "Tel:\u00a0 New Road, Rougham,Bury St Edmunds, Suffolk IP30 9LR", "addr:postcode": "IP30 9LR", "addr:country": "GB", "name": "The Chimneys Clinic", "phone": "01284 336070", "website": "https://www.elysiumhealthcare.co.uk/location/the-chimneys-clinic/", "brand": "Elysium Healthcare", "brand:wikidata": "Q39086513"}, "geometry": {"type": "Point", "coordinates": [0.804901, 52.222443]}},
{"type": "Feature", "id": "CXdUNsl4Tp6E22C73PjQ9EM_ncU=", "properties": {"ref": "st-neots-neurological-centre", "@spider": "elysium_healthcare", "addr:full": "Howitts Lane, Eynesbury, St Neots, Cambridgeshire,\u00a0PE19 2JA", "addr:postcode": "PE19 2JA", "addr:country": "GB", "name": "St Neots Neurological Centre", "phone": "Email us", "website": "https://www.elysiumhealthcare.co.uk/location/st-neots-neurological-centre/", "brand": "Elysium Healthcare", "brand:wikidata": "Q39086513"}, "geometry": {"type": "Point", "coordinates": [-0.263228, 52.220217]}},
{"type": "Feature", "id": "rsYTjHr8e3jDcpKhhUXZwWe8OkM=", "properties": {"ref": "rhodes-wood-hospital", "@spider": "elysium_healthcare", "addr:full": "Rhodes Wood Hospital. Shepherds Way, Hatfield AL9 6NN", "addr:postcode": "AL9 6NN", "addr:country": "GB", "name": "Rhodes Wood Hospital", "website": "https://www.elysiumhealthcare.co.uk/location/rhodes-wood-hospital/", "brand": "Elysium Healthcare", "brand:wikidata": "Q39086513"}, "geometry": {"type": "Point", "coordinates": [-0.170322, 51.718805]}},
{"type": "Feature", "id": "0-AcVef2UWtXPMlGUeDs2EMfi3M=", "properties": {"ref": "potters-bar-clinic", "@spider": "elysium_healthcare", "addr:full": "190 Barnet Road,\u00a0Potters Bar, Hertfordshire,\u00a0EN6 2SE", "addr:postcode": "EN6 2SE", "addr:country": "GB", "name": "Potters Bar Clinic", "phone": "01707 858 585", "website": "https://www.elysiumhealthcare.co.uk/location/potters-bar-clinic/", "brand": "Elysium Healthcare", "brand:wikidata": "Q39086513"}, "geometry": {"type": "Point", "coordinates": [-0.177433, 51.68665]}},
{"type": "Feature", "id": "BgzgwzNuumZ4k7NZkHp0uhb2_G8=", "properties": {"ref": "tydfil-house", "@spider": "elysium_healthcare", "addr:full": "Tydfil House, 46 Merthyr Rd, Abergavenny,NP7 5BY", "addr:postcode": "NP7 5BY", "addr:country": "GB", "name": "Tydfil House", "phone": "Email us", "website": "https://www.elysiumhealthcare.co.uk/location/tydfil-house/", "brand": "Elysium Healthcare", "brand:wikidata": "Q39086513"}, "geometry": {"type": "Point", "coordinates": [-3.025091201828222, 51.82338003263649]}},
{"type": "Feature", "id": "ZdlUe5mlGF3qnfy2dssuBOYz4O4=", "properties": {"ref": "ty-gwyn-hall", "@spider": "elysium_healthcare", "addr:full": "Llantilio Pertholey, Abergavenny, Monmouthshire,Wales,\u00a0NP7 6NY", "addr:postcode": "NP7 6NY", "addr:country": "GB", "name": "Ty Gwyn Hall", "phone": "01873 856 197", "website": "https://www.elysiumhealthcare.co.uk/location/ty-gwyn-hall/", "brand": "Elysium Healthcare", "brand:wikidata": "Q39086513"}, "geometry": {"type": "Point", "coordinates": [-3.01198415808571, 51.846619571702234]}},
{"type": "Feature", "id": "Tb_jzNt8n8vBDAMlO7blDDBh1ek=", "properties": {"ref": "ty-grosvenor", "@spider": "elysium_healthcare", "addr:full": "16 Grosvenor Road, Wrexham,Wales,\u00a0LL11 1BU", "addr:postcode": "LL11 1BU", "addr:country": "GB", "name": "Ty Grosvenor", "phone": "01978 802800", "website": "https://www.elysiumhealthcare.co.uk/location/ty-grosvenor/", "brand": "Elysium Healthcare", "brand:wikidata": "Q39086513"}, "geometry": {"type": "Point", "coordinates": [-2.997497, 53.048747]}},
{"type": "Feature", "id": "oHxxFGEZCwFlNpZodzFUeipmJVo=", "properties": {"ref": "gardens-and-jacobs", "@spider": "elysium_healthcare", "addr:full": "High Wych Road, SawbridgeworthHertfordshire CM21 0HHGardens Neurological CentreJacobs Neurological Centre", "addr:postcode": "CM21 0HH", "addr:country": "GB", "name": "Gardens and Jacobs", "website": "https://www.elysiumhealthcare.co.uk/location/gardens-and-jacobs/", "brand": "Elysium Healthcare", "brand:wikidata": "Q39086513"}, "geometry": {"type": "Point", "coordinates": [0.13648609261492606, 51.80778875245093]}},
{"type": "Feature", "id": "UfESfBg6KgvYFA7yUR3Rc7LFQ9E=", "properties": {"ref": "reene-court", "@spider": "elysium_healthcare", "addr:full": "Get in touchReene Court, Lliswerry,Newport, Wales, NP19 0RJ24hr referral line: 0800 218 2398", "addr:postcode": "NP19 0RJ", "addr:country": "GB", "name": "Reene Court", "website": "https://www.elysiumhealthcare.co.uk/location/reene-court/", "brand": "Elysium Healthcare", "brand:wikidata": "Q39086513"}, "geometry": {"type": "Point", "coordinates": [-2.960913, 51.580553]}},
{"type": "Feature", "id": "PKBCUrX8Uq2AZZC3D1lAII4HSkY=", "properties": {"ref": "cefn-carnau", "@spider": "elysium_healthcare", "addr:full": "Cefn Carnau Lane, Thornhill, Cardiff, South Wales,\u00a0CF83 1LX", "addr:postcode": "CF83 1LX", "addr:country": "GB", "name": "Cefn Carnau", "phone": "02920 883 345", "website": "https://www.elysiumhealthcare.co.uk/location/cefn-carnau/", "brand": "Elysium Healthcare", "brand:wikidata": "Q39086513"}, "geometry": {"type": "Point", "coordinates": [-3.21707, 51.558405]}},
{"type": "Feature", "id": "FmqgP1RFePnFL0iI82nTI4fV5v0=", "properties": {"ref": "aderyn", "@spider": "elysium_healthcare", "addr:full": "Wales\u00a0NP4 0AH or", "addr:postcode": "NP4 0AH", "addr:country": "GB", "name": "Aderyn", "phone": "01873 881 221", "website": "https://www.elysiumhealthcare.co.uk/location/aderyn/", "brand": "Elysium Healthcare", "brand:wikidata": "Q39086513"}, "geometry": {"type": "Point", "coordinates": [-2.982461, 51.736558]}},
{"type": "Feature", "id": "IcAV2StuNAmHjlQqa-hVT3xJ9Ic=", "properties": {"ref": "aberbeeg", "@spider": "elysium_healthcare", "addr:full": "Aberbeeg Hospital, Aberbeeg, Abertillery,\u00a0NP13 2DA", "addr:postcode": "NP13 2DA", "addr:country": "GB", "name": "Aberbeeg", "phone": "01495 325900", "website": "https://www.elysiumhealthcare.co.uk/location/aberbeeg/", "brand": "Elysium Healthcare", "brand:wikidata": "Q39086513"}, "geometry": {"type": "Point", "coordinates": [-3.150835, 51.708172]}},
{"type": "Feature", "id": "hrcNYANOn6TSCx8fuH5T1Zw9-x4=", "properties": {"ref": "the-woodmill", "@spider": "elysium_healthcare", "addr:full": "The Woodmill, Exeter Road,Cullompton, Devon, EX15 1EA", "addr:postcode": "EX15 1EA", "addr:country": "GB", "name": "The Woodmill", "website": "https://www.elysiumhealthcare.co.uk/location/the-woodmill/", "brand": "Elysium Healthcare", "brand:wikidata": "Q39086513"}, "geometry": {"type": "Point", "coordinates": [-3.3926009541500886, 50.84690627353214]}},
{"type": "Feature", "id": "HSUG9p7VEW7J8U3cSpfdfpUaHQ8=", "properties": {"ref": "the-dean", "@spider": "elysium_healthcare", "addr:full": "The Dean Neurological CentreTewkesbury Road, Gloucester GL2 9EETo make a referral email:", "addr:postcode": "GL2 9EE", "addr:country": "GB", "name": "The Dean", "website": "https://www.elysiumhealthcare.co.uk/location/the-dean/", "brand": "Elysium Healthcare", "brand:wikidata": "Q39086513"}, "geometry": {"type": "Point", "coordinates": [-2.2417384094115365, 51.88014271643564]}},
{"type": "Feature", "id": "eu2oDCO_z4Yn5G5HFG_aWYec5rw=", "properties": {"ref": "the-copse", "@spider": "elysium_healthcare", "addr:full": "The Copse, Beechmount Close,\u00a024hr referral line: 0800 218 2398Oldmixon, Weston-super-Mare,", "addr:postcode": "0800 218", "addr:country": "GB", "name": "The Copse", "phone": "01934 818 070", "website": "https://www.elysiumhealthcare.co.uk/location/the-copse/", "brand": "Elysium Healthcare", "brand:wikidata": "Q39086513"}, "geometry": {"type": "Point", "coordinates": [-2.964619, 51.321904]}},
{"type": "Feature", "id": "nSPeYE2EUvpqMukGGnCchFbiFWw=", "properties": {"ref": "the-avalon-centre", "@spider": "elysium_healthcare", "addr:full": "The Avalon Centre, Edison Park Hindle Way, Swindon,Wiltshire,\u00a0SN3 3RT", "addr:postcode": "SN3 3RT", "addr:country": "GB", "name": "The Avalon Centre", "website": "https://www.elysiumhealthcare.co.uk/location/the-avalon-centre/", "brand": "Elysium Healthcare", "brand:wikidata": "Q39086513"}, "geometry": {"type": "Point", "coordinates": [-1.730422, 51.557169]}},
{"type": "Feature", "id": "BLiNvShWsRnAB0poViEO_w90hP8=", "properties": {"ref": "pinhoe-view", "@spider": "elysium_healthcare", "addr:full": "Pinhoe View, College Way, Exeter,\u00a0Devon,EX1 3PZ", "addr:postcode": "EX1 3PZ", "addr:country": "GB", "name": "Pinhoe View", "phone": "01392 719020", "website": "https://www.elysiumhealthcare.co.uk/location/pinhoe-view/", "brand": "Elysium Healthcare", "brand:wikidata": "Q39086513"}},
{"type": "Feature", "id": "uuStb2Vz7AWh0w-g3k4xvZDl3wI=", "properties": {"ref": "spring-house", "@spider": "elysium_healthcare", "addr:full": "Spring House, Matford Road, Exeter, EX2 4PD", "addr:postcode": "EX2 4PD", "addr:country": "GB", "name": "Spring House", "phone": "01392 715550", "website": "https://www.elysiumhealthcare.co.uk/location/spring-house/", "brand": "Elysium Healthcare", "brand:wikidata": "Q39086513"}, "geometry": {"type": "Point", "coordinates": [-3.51665500307495, 50.71788821228688]}},
{"type": "Feature", "id": "2m0bHIS5K31MEIwo0-vK_4Xj8Do=", "properties": {"ref": "walcott-house", "@spider": "elysium_healthcare", "addr:full": "12 Annandale Avenue, Bognor Regis, West Sussex,\u00a0PO21 2EU", "addr:postcode": "PO21 2EU", "addr:country": "GB", "name": "Walcott House", "phone": "01243 863 095", "website": "https://www.elysiumhealthcare.co.uk/location/walcott-house/", "brand": "Elysium Healthcare", "brand:wikidata": "Q39086513"}, "geometry": {"type": "Point", "coordinates": [-0.680127, 50.789087]}},
{"type": "Feature", "id": "fIRMRw7GjxxCuxHveZLZmGT4Ol4=", "properties": {"ref": "thornford-park", "@spider": "elysium_healthcare", "addr:full": "Thornford Park, Crookham Hill, Thatcham,24hr referral line: 0800 218 2398", "addr:postcode": "0800 218", "addr:country": "GB", "name": "Thornford Park", "phone": "01635 860 072", "website": "https://www.elysiumhealthcare.co.uk/location/thornford-park/", "brand": "Elysium Healthcare", "brand:wikidata": "Q39086513"}, "geometry": {"type": "Point", "coordinates": [-1.250174, 51.381385]}},
{"type": "Feature", "id": "hdCluSbW4eEgdr8-d__bGcXugqc=", "properties": {"ref": "rosebank-house", "@spider": "elysium_healthcare", "addr:full": "Lower Henley Road,\u00a0Caversham, Reading, Berkshire,\u00a0RG4 5LE", "addr:postcode": "RG4 5LE", "addr:country": "GB", "name": "Rosebank House", "phone": "01189 463 316", "website": "https://www.elysiumhealthcare.co.uk/location/rosebank-house/", "brand": "Elysium Healthcare", "brand:wikidata": "Q39086513"}, "geometry": {"type": "Point", "coordinates": [-0.956708, 51.469396]}},
{"type": "Feature", "id": "Q1l8JMfS_dSS25j-h00ArcCHtJE=", "properties": {"ref": "ranworth-house", "@spider": "elysium_healthcare", "addr:full": "1 Prideaux Road, Eastbourne, East Sussex,\u00a0BN21 2NW", "addr:postcode": "BN21 2NW", "addr:country": "GB", "name": "Ranworth House", "phone": "01323 644 860", "website": "https://www.elysiumhealthcare.co.uk/location/ranworth-house/", "brand": "Elysium Healthcare", "brand:wikidata": "Q39086513"}, "geometry": {"type": "Point", "coordinates": [0.275766, 50.778742]}},
{"type": "Feature", "id": "LbirWKhPl619AFS2B1O5Pj0zQTA=", "properties": {"ref": "ormesby-house", "@spider": "elysium_healthcare", "addr:full": "Surrey,\u00a0RH8 9JB", "addr:postcode": "RH8 9JB", "addr:country": "GB", "name": "Ormesby House", "phone": "01883 714 757", "website": "https://www.elysiumhealthcare.co.uk/location/ormesby-house/", "brand": "Elysium Healthcare", "brand:wikidata": "Q39086513"}, "geometry": {"type": "Point", "coordinates": [-0.012275, 51.253874]}},
{"type": "Feature", "id": "ewH8DD1VcrvFMEncqei3m1lWfYg=", "properties": {"ref": "martham-house", "@spider": "elysium_healthcare", "addr:full": "Princes Road, Redhill, Surrey,\u00a0RH1 6JJ", "addr:postcode": "RH1 6JJ", "addr:country": "GB", "name": "Martham House", "phone": "01737 826 530", "website": "https://www.elysiumhealthcare.co.uk/location/martham-house/", "brand": "Elysium Healthcare", "brand:wikidata": "Q39086513"}, "geometry": {"type": "Point", "coordinates": [-0.171383, 51.225574]}},
{"type": "Feature", "id": "JrssD8YLgnYt95hYMj7JfdWjdD8=", "properties": {"ref": "holkham-house", "@spider": "elysium_healthcare", "addr:full": "Princes Road, Redhill, Surrey,\u00a0RH1 6JJ", "addr:postcode": "RH1 6JJ", "addr:country": "GB", "name": "Holkham House", "phone": "01737 789 850", "website": "https://www.elysiumhealthcare.co.uk/location/holkham-house/", "brand": "Elysium Healthcare", "brand:wikidata": "Q39086513"}, "geometry": {"type": "Point", "coordinates": [-0.171383, 51.225574]}},
{"type": "Feature", "id": "mZ1uN8qj1LQllt8VkqSUTczvD1A=", "properties": {"ref": "gresham-house", "@spider": "elysium_healthcare", "addr:full": "Station Road,\u00a0Staplehurst,Kent,\u00a0TN12 0PZ", "addr:postcode": "TN12 0PZ", "addr:country": "GB", "name": "Gresham House", "phone": "01580 895 150", "website": "https://www.elysiumhealthcare.co.uk/location/gresham-house/", "brand": "Elysium Healthcare", "brand:wikidata": "Q39086513"}, "geometry": {"type": "Point", "coordinates": [0.550424, 51.167944]}},
{"type": "Feature", "id": "mcXU1XWFTdHurIjcLi49uOgmBqs=", "properties": {"ref": "wellesley-hospital", "@spider": "elysium_healthcare", "addr:full": "Westpark 26, Chelston,\u00a0Wellington,\u00a024hr referral line: 0800 218 2398Somerset,\u00a0TA21 9FF (please use TA21 9AD for Sat Nav purposes)", "addr:postcode": "0800 218", "addr:country": "GB", "name": "Wellesley Hospital", "phone": "01823 668150", "website": "https://www.elysiumhealthcare.co.uk/location/wellesley-hospital/", "brand": "Elysium Healthcare", "brand:wikidata": "Q39086513"}, "geometry": {"type": "Point", "coordinates": [-3.20633, 50.982325]}},
{"type": "Feature", "id": "MEADo48ZZl8gJ08_wNZyYpSTCrc=", "properties": {"ref": "felbrigg-house", "@spider": "elysium_healthcare", "addr:full": "St. Alpehge Road,\u00a0Dover,Kent,\u00a0CT16 2PU", "addr:postcode": "CT16 2PU", "addr:country": "GB", "name": "Felbrigg House", "phone": "01304 204 760", "website": "https://www.elysiumhealthcare.co.uk/location/felbrigg-house/", "brand": "Elysium Healthcare", "brand:wikidata": "Q39086513"}, "geometry": {"type": "Point", "coordinates": [1.304297, 51.133385]}},
{"type": "Feature", "id": "_wdy5ahysGXenTxWCtwFg_NJMe0=", "properties": {"ref": "farmfield", "@spider": "elysium_healthcare", "addr:full": "Farmfield Drive,\u00a0Charlwood, Surrey,\u00a0RH6 0BN", "addr:postcode": "RH6 0BN", "addr:country": "GB", "name": "Farmfield", "phone": "01293 787 500", "website": "https://www.elysiumhealthcare.co.uk/location/farmfield/", "brand": "Elysium Healthcare", "brand:wikidata": "Q39086513"}, "geometry": {"type": "Point", "coordinates": [-0.201559, 51.166019]}},
{"type": "Feature", "id": "gzqey7LF_XdFBzPl8oeNJ43t8rg=", "properties": {"ref": "dane-house", "@spider": "elysium_healthcare", "addr:full": "52a Dyke Rd Avenue, Brighton, East Sussex,\u00a0BN1 5LE", "addr:postcode": "BN1 5LE", "addr:country": "GB", "name": "Dane House", "phone": "01273 059729", "website": "https://www.elysiumhealthcare.co.uk/location/dane-house/", "brand": "Elysium Healthcare", "brand:wikidata": "Q39086513"}},
{"type": "Feature", "id": "BT661qTiy2vW_y_NyLpd_KFgVUY=", "properties": {"ref": "chadwick-lodge-eaglestone-view", "@spider": "elysium_healthcare", "addr:full": "Chadwick Drive (off Saxon Street), Eaglestone,\u00a0Milton Keynes, Buckinghamshire,\u00a0MK6 5LS", "addr:postcode": "MK6 5LS", "addr:country": "GB", "name": "Chadwick Lodge & Eaglestone View", "phone": "01908 593 000", "website": "https://www.elysiumhealthcare.co.uk/location/chadwick-lodge-eaglestone-view/", "brand": "Elysium Healthcare", "brand:wikidata": "Q39086513"}, "geometry": {"type": "Point", "coordinates": [-0.739288, 52.025421]}},
{"type": "Feature", "id": "kBrbzCvgxTH_p90UX2_-sw05vsM=", "properties": {"ref": "bradfield-house", "@spider": "elysium_healthcare", "addr:full": "119-121 Heene Road, Worthing, West Sussex,\u00a0BN11 4NY", "addr:postcode": "BN11 4NY", "addr:country": "GB", "name": "Bradfield House", "phone": "01903 236 763", "website": "https://www.elysiumhealthcare.co.uk/location/bradfield-house/", "brand": "Elysium Healthcare", "brand:wikidata": "Q39086513"}, "geometry": {"type": "Point", "coordinates": [-0.387602, 50.814963]}},
{"type": "Feature", "id": "4p0q0ZfkLeHuq1G5aaTlHZBb7dI=", "properties": {"ref": "school-house", "@spider": "elysium_healthcare", "addr:full": "School House, School Walk, Sunbury-on-Thames, Surrey,\u00a0TW16 6RB", "addr:postcode": "TW16 6RB", "addr:country": "GB", "name": "School House", "phone": "01932 780181", "website": "https://www.elysiumhealthcare.co.uk/location/school-house/", "brand": "Elysium Healthcare", "brand:wikidata": "Q39086513"}, "geometry": {"type": "Point", "coordinates": [-0.416409, 51.406632]}},
{"type": "Feature", "id": "Ak56pDBv5EsCmHmkWkYe46rowJs=", "properties": {"ref": "187-nursery-road", "@spider": "elysium_healthcare", "addr:full": "187 Nursery Road, Sunbury-on-Thames, Surrey,\u00a0TW16 6LX", "addr:postcode": "TW16 6LX", "addr:country": "GB", "name": "187 Nursery Road", "phone": "01932 481 848", "website": "https://www.elysiumhealthcare.co.uk/location/187-nursery-road/", "brand": "Elysium Healthcare", "brand:wikidata": "Q39086513"}, "geometry": {"type": "Point", "coordinates": [-0.428276, 51.41308]}},
{"type": "Feature", "id": "WaCVL5E4om7LCz-AyOqqMVrXlbg=", "properties": {"ref": "185-arabella-drive", "@spider": "elysium_healthcare", "addr:full": "185 Arabella Drive, Roehampton, London,\u00a0SW15 5LH", "addr:postcode": "SW15 5LH", "addr:country": "GB", "name": "185 Arabella Drive", "phone": "020 8876 6681", "website": "https://www.elysiumhealthcare.co.uk/location/185-arabella-drive/", "brand": "Elysium Healthcare", "brand:wikidata": "Q39086513"}, "geometry": {"type": "Point", "coordinates": [-0.250119, 51.464687]}},
{"type": "Feature", "id": "0MS8zsvVjDq6bgAgENQ5rf3i9dQ=", "properties": {"ref": "the-woodlands", "@spider": "elysium_healthcare", "addr:full": "20 Woodland Avenue, Wolstanton, Newcastle Under Lyme, ST5 8AZ", "addr:postcode": "ST5 8AZ", "addr:country": "GB", "name": "The Woodlands", "phone": "referrals@elysiumcp.co.uk", "website": "https://www.elysiumhealthcare.co.uk/location/the-woodlands/", "brand": "Elysium Healthcare", "brand:wikidata": "Q39086513"}, "geometry": {"type": "Point", "coordinates": [-2.221879, 53.033484]}},
{"type": "Feature", "id": "hs0G5o8zSCt1I0QdD1iy_7jTeoc=", "properties": {"ref": "the-woodhouse", "@spider": "elysium_healthcare", "addr:full": "Lockwood Road, Cheadle, Staffordshire ST10 4QU", "addr:postcode": "ST10 4QU", "addr:country": "GB", "name": "Moorlands Neuro Centre formerly The Woodhouse", "website": "https://www.elysiumhealthcare.co.uk/location/the-woodhouse/", "brand": "Elysium Healthcare", "brand:wikidata": "Q39086513"}, "geometry": {"type": "Point", "coordinates": [-1.963999, 52.999767]}},
{"type": "Feature", "id": "EKT2gM4SGg8IvJi8pLqgKShJNbc=", "properties": {"ref": "hope-house", "@spider": "elysium_healthcare", "addr:full": "Chadwick Drive (off Saxton Street), Eaglestone, Milton Keynes,\u00a0Buckinghamshire,\u00a0MK6 5LS", "addr:postcode": "MK6 5LS", "addr:country": "GB", "name": "Hope House", "website": "https://www.elysiumhealthcare.co.uk/location/hope-house/", "brand": "Elysium Healthcare", "brand:wikidata": "Q39086513"}, "geometry": {"type": "Point", "coordinates": [-0.739288, 52.025421]}},
{"type": "Feature", "id": "ZiNE09MmFB7Q639QX8k1ZvGEzvU=", "properties": {"ref": "stanley-house", "@spider": "elysium_healthcare", "addr:full": "Bosbury, Hereford,Herefordshire, HR8 1HB24hr referral line: 0800 218 2398", "addr:postcode": "HR8 1HB", "addr:country": "GB", "name": "Stanley House & Bowley Court", "website": "https://www.elysiumhealthcare.co.uk/location/stanley-house/", "brand": "Elysium Healthcare", "brand:wikidata": "Q39086513"}, "geometry": {"type": "Point", "coordinates": [-2.461461, 52.085917]}},
{"type": "Feature", "id": "fqxIhlvBrJbA2ccdDhpptO92I-o=", "properties": {"ref": "cotswold-spa", "@spider": "elysium_healthcare", "addr:full": "Cotswold Spa, Station Road,\nBroadway, Worcestershire,\nWR12 7DE", "addr:postcode": "WR12 7DE", "addr:country": "GB", "name": "Cotswold Spa", "website": "https://www.elysiumhealthcare.co.uk/location/cotswold-spa/", "brand": "Elysium Healthcare", "brand:wikidata": "Q39086513"}},
{"type": "Feature", "id": "mX2AY_afaN3tiU17fwpUDT1kWqA=", "properties": {"ref": "ballington-house", "@spider": "elysium_healthcare", "addr:full": "Ballington Gardens, Leek, Staffordshire ST13 5LW", "addr:postcode": "ST13 5LW", "addr:country": "GB", "name": "Ballington House", "website": "https://www.elysiumhealthcare.co.uk/location/ballington-house/", "brand": "Elysium Healthcare", "brand:wikidata": "Q39086513"}, "geometry": {"type": "Point", "coordinates": [-2.022071, 53.103059]}},
{"type": "Feature", "id": "i68Q6zsY0QBKBJIEBDJETcn2EWU=", "properties": {"ref": "badby-park", "@spider": "elysium_healthcare", "addr:full": "Badby Road West, Daventry,Northamptonshire, NN11 4NH24hr referral line: 0800 218 2398", "addr:postcode": "NN11 4NH", "addr:country": "GB", "name": "Badby Park", "website": "https://www.elysiumhealthcare.co.uk/location/badby-park/", "brand": "Elysium Healthcare", "brand:wikidata": "Q39086513"}, "geometry": {"type": "Point", "coordinates": [-1.175375, 52.246626]}},
{"type": "Feature", "id": "R_BTlQ1Hs2QG_-A1RhT80Ctu30U=", "properties": {"ref": "adderley-green", "@spider": "elysium_healthcare", "addr:full": "Dividy Road, Stoke-on-Trent,Staffordshire, ST2 0TN24hr referral line: 0800 218 2398", "addr:postcode": "ST2 0TN", "addr:country": "GB", "name": "Adderley Green", "website": "https://www.elysiumhealthcare.co.uk/location/adderley-green/", "brand": "Elysium Healthcare", "brand:wikidata": "Q39086513"}, "geometry": {"type": "Point", "coordinates": [-2.121238, 53.002957]}},
{"type": "Feature", "id": "SDZWHo-oRcltfqW5RqYSCSj9SLg=", "properties": {"ref": "tottle-brook", "@spider": "elysium_healthcare", "addr:full": "Tottle Brook House, Calverton Drive,Nottingham, NG8 6QN", "addr:postcode": "NG8 6QN", "addr:country": "GB", "name": "Tottle Brook House", "website": "https://www.elysiumhealthcare.co.uk/location/tottle-brook/", "brand": "Elysium Healthcare", "brand:wikidata": "Q39086513"}},
{"type": "Feature", "id": "4Q4-Fc_6lFEEjZ9fwuiv_C1Nr-g=", "properties": {"ref": "the-limes", "@spider": "elysium_healthcare", "addr:full": "The Limes, Main Street, Langwith,\u00a0Mansfield,", "addr:country": "GB", "name": "The Limes", "phone": "01623 746 002", "website": "https://www.elysiumhealthcare.co.uk/location/the-limes/", "brand": "Elysium Healthcare", "brand:wikidata": "Q39086513"}, "geometry": {"type": "Point", "coordinates": [-1.192231, 53.128054]}},
{"type": "Feature", "id": "c7c8b2HMuA-A8IuJZJDDPA_GJjA=", "properties": {"ref": "farndon-unit", "@spider": "elysium_healthcare", "addr:full": "Farndon Road, Newark, Nottinghamshire, NG24 4SW", "addr:postcode": "NG24 4SW", "addr:country": "GB", "name": "The Farndon Unit", "phone": "0845 017 6520", "website": "https://www.elysiumhealthcare.co.uk/location/farndon-unit/", "brand": "Elysium Healthcare", "brand:wikidata": "Q39086513"}, "geometry": {"type": "Point", "coordinates": [-0.832844, 53.065732]}},
{"type": "Feature", "id": "5pKcklMiZRybSJUB7tLXV_MVTDY=", "properties": {"ref": "the-cottage", "@spider": "elysium_healthcare", "addr:full": "31 Norbeck Lane, Welton, Lincolnshire LN2 3JP", "addr:postcode": "LN2 3JP", "addr:country": "GB", "name": "The Cottage", "website": "https://www.elysiumhealthcare.co.uk/location/the-cottage/", "brand": "Elysium Healthcare", "brand:wikidata": "Q39086513"}, "geometry": {"type": "Point", "coordinates": [-0.488173, 53.30539]}},
{"type": "Feature", "id": "4uhZsSMgtOdUPxtzpvgY-kLl37c=", "properties": {"ref": "aster-unit", "@spider": "elysium_healthcare", "addr:full": "Farndon Road, Newark, Nottinghamshire, NG24 4SW", "addr:postcode": "NG24 4SW", "addr:country": "GB", "name": "The Aster and Darcy Wards", "phone": "01636 642 380", "website": "https://www.elysiumhealthcare.co.uk/location/aster-unit/", "brand": "Elysium Healthcare", "brand:wikidata": "Q39086513"}, "geometry": {"type": "Point", "coordinates": [-0.832844, 53.065732]}},
{"type": "Feature", "id": "F33w0k3mySQB1NhudOD2xfRrHVw=", "properties": {"ref": "pathfields-lodge", "@spider": "elysium_healthcare", "addr:full": "Pathfields Lodge,290 Station Road,Irchester, WellingboroughNN29 7EY24hr referral line: 0800 218 2398", "addr:postcode": "NN29 7EY", "addr:country": "GB", "name": "Pathfields Lodge", "website": "https://www.elysiumhealthcare.co.uk/location/pathfields-lodge/", "brand": "Elysium Healthcare", "brand:wikidata": "Q39086513"}, "geometry": {"type": "Point", "coordinates": [-0.6233380164184418, 52.287130666885844]}},
{"type": "Feature", "id": "tVaKxB38ys1KFSxmAQF9s2qBd3M=", "properties": {"ref": "healthlinc-apartments", "@spider": "elysium_healthcare", "addr:full": "Cliff Road, Welton, Lincolnshire, LN2 3JN", "addr:postcode": "LN2 3JN", "addr:country": "GB", "name": "Healthlinc Apartments", "website": "https://www.elysiumhealthcare.co.uk/location/healthlinc-apartments/", "brand": "Elysium Healthcare", "brand:wikidata": "Q39086513"}, "geometry": {"type": "Point", "coordinates": [-0.49004, 53.306173]}},
{"type": "Feature", "id": "xHFkNPKGo-y-RY8QBIc1pM0jGE8=", "properties": {"ref": "field-house", "@spider": "elysium_healthcare", "addr:full": "Chesterfield Road, Shirland, Alfreton, Derbyshire DE55 7DT", "addr:postcode": "DE55 7DT", "addr:country": "GB", "name": "Field House and Apartments", "phone": "Email us", "website": "https://www.elysiumhealthcare.co.uk/location/field-house/", "brand": "Elysium Healthcare", "brand:wikidata": "Q39086513"}, "geometry": {"type": "Point", "coordinates": [-1.390522, 53.098856]}},
{"type": "Feature", "id": "t9Us10PC_3Fl783JmYqPHpCDAug=", "properties": {"ref": "clipstone-house", "@spider": "elysium_healthcare", "addr:full": "Clipstone House, First Avenue,\u00a0Clipstone,Nottinghamshire,\u00a0NG21 9DA", "addr:postcode": "NG21 9DA", "addr:country": "GB", "name": "Clipstone House", "phone": "01623 259590", "website": "https://www.elysiumhealthcare.co.uk/location/clipstone-house/", "brand": "Elysium Healthcare", "brand:wikidata": "Q39086513"}, "geometry": {"type": "Point", "coordinates": [-1.11612, 53.163324]}},
{"type": "Feature", "id": "3z3ej614QwxdzDdSrTScQVDIjAg=", "properties": {"ref": "chesterfield-house", "@spider": "elysium_healthcare", "addr:full": "411 Newark Road, North Hykeham, Lincolnshire, LN6 9SP", "addr:postcode": "LN6 9SP", "addr:country": "GB", "name": "Chesterfield House", "website": "https://www.elysiumhealthcare.co.uk/location/chesterfield-house/", "brand": "Elysium Healthcare", "brand:wikidata": "Q39086513"}, "geometry": {"type": "Point", "coordinates": [-0.594205, 53.185915]}},
{"type": "Feature", "id": "rclhKF28GLKho9V6mAmqw5fHRn4=", "properties": {"ref": "three-valleys-hospital", "@spider": "elysium_healthcare", "addr:full": "2 Burley Court, Steeton,\u00a0Keighley, West Yorkshire,\u00a0BD20 6TU", "addr:postcode": "BD20 6TU", "addr:country": "GB", "name": "Three Valleys Hospital", "phone": "01535 657 350", "website": "https://www.elysiumhealthcare.co.uk/location/three-valleys-hospital/", "brand": "Elysium Healthcare", "brand:wikidata": "Q39086513"}, "geometry": {"type": "Point", "coordinates": [-1.954613, 53.89586]}},
{"type": "Feature", "id": "nYI726A3QGqcivgxmVM06I4cIms=", "properties": {"ref": "spring-wood-lodge", "@spider": "elysium_healthcare", "addr:full": "1 Towngate Close,\u00a0Guiseley, Leeds,\u00a0LS20 9PQ", "addr:postcode": "LS20 9PQ", "addr:country": "GB", "name": "Spring Wood Lodge", "phone": "01943 882 800", "website": "https://www.elysiumhealthcare.co.uk/location/spring-wood-lodge/", "brand": "Elysium Healthcare", "brand:wikidata": "Q39086513"}, "geometry": {"type": "Point", "coordinates": [-1.705806, 53.875583]}},
{"type": "Feature", "id": "rQkx3YLvYa9HxYE2adqneCa_O6o=", "properties": {"ref": "jubilee-house", "@spider": "elysium_healthcare", "addr:full": "18 Jubilee Gardens, Royston, Barnsley,\u00a0S71 4FL", "addr:postcode": "S71 4FL", "addr:country": "GB", "name": "Jubilee House", "phone": "01226 337680", "website": "https://www.elysiumhealthcare.co.uk/location/jubilee-house/", "brand": "Elysium Healthcare", "brand:wikidata": "Q39086513"}, "geometry": {"type": "Point", "coordinates": [-1.44465, 53.602762]}},
{"type": "Feature", "id": "8UEnwZxfbPU0gSSB6PlEzEBtIsc=", "properties": {"ref": "hurstfield", "@spider": "elysium_healthcare", "addr:full": "Keighley RoadCowlingKeighleyWest YorkshireBD22 0LAT: 01535 65735024hr referral line: 0800 218 2398", "addr:postcode": "BD22 0LA", "addr:country": "GB", "name": "Hurstfield", "website": "https://www.elysiumhealthcare.co.uk/location/hurstfield/", "brand": "Elysium Healthcare", "brand:wikidata": "Q39086513"}, "geometry": {"type": "Point", "coordinates": [-2.0367229793857784, 53.88817630148418]}},
{"type": "Feature", "id": "T5_l-RShlJRXRi6z1892nGILcd4=", "properties": {"ref": "greenhill", "@spider": "elysium_healthcare", "addr:full": "30 Station RoadSteetonKeighleyWest YorkshireBD20 6RYT: 01535 65533124hr referral line: 0800 218 2398", "addr:postcode": "BD20 6RY", "addr:country": "GB", "name": "Greenhill", "website": "https://www.elysiumhealthcare.co.uk/location/greenhill/", "brand": "Elysium Healthcare", "brand:wikidata": "Q39086513"}, "geometry": {"type": "Point", "coordinates": [-1.9479163726403679, 53.89598773540558]}},
{"type": "Feature", "id": "ncSJX6Rnd_C-mcr6Z4TkAIrwNfs=", "properties": {"ref": "ghyllside", "@spider": "elysium_healthcare", "addr:full": "22A High StreetSteetonKeighleyWest YorkshireBD20 6NTT: 01535 65782224hr referral line: 0800 218 2398", "addr:postcode": "BD20 6NT", "addr:country": "GB", "name": "Ghyllside", "website": "https://www.elysiumhealthcare.co.uk/location/ghyllside/", "brand": "Elysium Healthcare", "brand:wikidata": "Q39086513"}, "geometry": {"type": "Point", "coordinates": [-1.9497436996208746, 53.894554641236]}},
{"type": "Feature", "id": "ztwUh75ImFYEuHzgdtLNFsqgKZw=", "properties": {"ref": "bradley-complex-care", "@spider": "elysium_healthcare", "addr:full": "Bradley Road, Grimsby, Lincolnshire, DN37 0AA", "addr:postcode": "DN37 0AA", "addr:country": "GB", "name": "Bradley Complex Care", "website": "https://www.elysiumhealthcare.co.uk/location/bradley-complex-care/", "brand": "Elysium Healthcare", "brand:wikidata": "Q39086513"}, "geometry": {"type": "Point", "coordinates": [-0.123357, 53.53668]}},
{"type": "Feature", "id": "5hQ8CdBpILNTLpy8W9boN0i8g3c=", "properties": {"ref": "bradley-apartments", "@spider": "elysium_healthcare", "addr:full": "Bradley Road, Grimsby, Lincolnshire, DN37 0AA", "addr:postcode": "DN37 0AA", "addr:country": "GB", "name": "Bradley Apartments", "phone": "0147 287 5807", "website": "https://www.elysiumhealthcare.co.uk/location/bradley-apartments/", "brand": "Elysium Healthcare", "brand:wikidata": "Q39086513"}, "geometry": {"type": "Point", "coordinates": [-0.123357, 53.53668]}},
{"type": "Feature", "id": "KaAk-Vlev7TsfPjACTCuT2SGOcQ=", "properties": {"ref": "beech-grove", "@spider": "elysium_healthcare", "addr:full": "Main StreetSutton in CravenNorth YorkshireBD20 7JST: 01535 28683024hr referral line: 0800 218 2398", "addr:postcode": "BD20 7JS", "addr:country": "GB", "name": "Beech Grove", "website": "https://www.elysiumhealthcare.co.uk/location/beech-grove/", "brand": "Elysium Healthcare", "brand:wikidata": "Q39086513"}, "geometry": {"type": "Point", "coordinates": [-1.9910960303136158, 53.89377893281414]}},
{"type": "Feature", "id": "fdM2cc13oXW-G2tOA9DjN02dt1g=", "properties": {"ref": "39-castle-road", "@spider": "elysium_healthcare", "addr:full": "39 Castle Road, Kendal, Cumbria, LA9 7AU24hr referral line: 0800 218 2398 \u00a024hr referral line: 0800 218 2398", "addr:postcode": "LA9 7AU", "addr:country": "GB", "name": "39 Castle Road", "website": "https://www.elysiumhealthcare.co.uk/location/39-castle-road/", "brand": "Elysium Healthcare", "brand:wikidata": "Q39086513"}, "geometry": {"type": "Point", "coordinates": [-2.7328594, 54.3283514]}},
{"type": "Feature", "id": "UdCS2a-Zhi2Bn7VnUSq9mZssCL0=", "properties": {"ref": "victoria-gardens", "@spider": "elysium_healthcare", "addr:full": "Victoria Road, Huyton,Liverpool, L36 5SA24hr referral line: 0800 218 2398", "addr:postcode": "L36 5SA", "addr:country": "GB", "name": "Victoria Gardens", "website": "https://www.elysiumhealthcare.co.uk/location/victoria-gardens/", "brand": "Elysium Healthcare", "brand:wikidata": "Q39086513"}, "geometry": {"type": "Point", "coordinates": [-2.834727, 53.410917]}},
{"type": "Feature", "id": "OA9ZKfFtjBJ2gh3nVt7S_Vlyj30=", "properties": {"ref": "the-spinney", "@spider": "elysium_healthcare", "addr:full": "Everest Road, Atherton, Manchester,\u00a0M46 9NT", "addr:postcode": "M46 9NT", "addr:country": "GB", "name": "The Spinney", "phone": "01942 885 300", "website": "https://www.elysiumhealthcare.co.uk/location/the-spinney/", "brand": "Elysium Healthcare", "brand:wikidata": "Q39086513"}, "geometry": {"type": "Point", "coordinates": [-2.495888, 53.535961]}},
{"type": "Feature", "id": "Z6sgly05LRFvczGsek8DvcsCRAI=", "properties": {"ref": "st-marys-hospital", "@spider": "elysium_healthcare", "addr:full": "St Mary\u2019s Hospital, Floyd Drive,Warrington,Cheshire,WA2 8DB24hr referral line: 0800 218 2398", "addr:postcode": "WA2 8DB", "addr:country": "GB", "name": "St Mary\u2019s Hospital", "website": "https://www.elysiumhealthcare.co.uk/location/st-marys-hospital/", "brand": "Elysium Healthcare", "brand:wikidata": "Q39086513"}, "geometry": {"type": "Point", "coordinates": [-2.591204, 53.406386]}},
{"type": "Feature", "id": "E9tex7KH_mTQD1dqNxsFAW-s3vI=", "properties": {"ref": "gregory-house", "@spider": "elysium_healthcare", "addr:full": "Gregory House, Furness Road, Workington, Cumbria, CA14 3PD", "addr:postcode": "CA14 3PD", "addr:country": "GB", "name": "Gregory House", "phone": "01900 602 320", "website": "https://www.elysiumhealthcare.co.uk/location/gregory-house/", "brand": "Elysium Healthcare", "brand:wikidata": "Q39086513"}, "geometry": {"type": "Point", "coordinates": [-3.551597, 54.629762]}},
{"type": "Feature", "id": "8CCkTbBvGdJN-2Rj5lGABkj-JcE=", "properties": {"ref": "gateway-recovery-centre", "@spider": "elysium_healthcare", "addr:full": "Bennett\u2019s Lane, Widnes, Cheshire, WA8 0GT", "addr:postcode": "WA8 0GT", "addr:country": "GB", "name": "Gateway Recovery Centre", "phone": "0151 422 2140", "website": "https://www.elysiumhealthcare.co.uk/location/gateway-recovery-centre/", "brand": "Elysium Healthcare", "brand:wikidata": "Q39086513"}, "geometry": {"type": "Point", "coordinates": [-2.702558, 53.370575]}},
{"type": "Feature", "id": "IXE0xOSrGXLAg4fdQ2IS0cplPAc=", "properties": {"ref": "fairmead-house", "@spider": "elysium_healthcare", "addr:full": "Fairmead House, 39 Castle Road, Kendal,\u00a0Cumbria,\u00a0LA9 7AU", "addr:postcode": "LA9 7AU", "addr:country": "GB", "name": "Fairmead House", "phone": "01539 766985", "website": "https://www.elysiumhealthcare.co.uk/location/fairmead-house/", "brand": "Elysium Healthcare", "brand:wikidata": "Q39086513"}, "geometry": {"type": "Point", "coordinates": [-2.733677, 54.329149]}},
{"type": "Feature", "id": "VvMHqXjH2DvYP9uCwkjz0OY2A3g=", "properties": {"ref": "braeburn-house", "@spider": "elysium_healthcare", "addr:full": "Charles Street, Salford, Manchester,\u00a0M6 7DU", "addr:postcode": "M6 7DU", "addr:country": "GB", "name": "Braeburn House", "phone": "0161 745 7900", "website": "https://www.elysiumhealthcare.co.uk/location/braeburn-house/", "brand": "Elysium Healthcare", "brand:wikidata": "Q39086513"}, "geometry": {"type": "Point", "coordinates": [-2.295103, 53.494147]}},
{"type": "Feature", "id": "dkxGv9CseO7pu0CidaXqff8EoWo=", "properties": {"ref": "arbury-court", "@spider": "elysium_healthcare", "addr:full": "Townfield Lane, Winwick,\u00a0Warrington,\u00a024hr referral line: 0800 218 2398Cheshire,\u00a0WA2 8TR", "addr:postcode": "0800 218", "addr:country": "GB", "name": "Arbury Court", "website": "https://www.elysiumhealthcare.co.uk/location/arbury-court/", "brand": "Elysium Healthcare", "brand:wikidata": "Q39086513"}, "geometry": {"type": "Point", "coordinates": [-2.596813, 53.425347]}},
{"type": "Feature", "id": "oLqlctAd9Hl2TUWQJQQ0OfBbw6A=", "properties": {"ref": "crossley-place", "@spider": "elysium_healthcare", "addr:full": "Crossley Place, Mill Lane, Rainhill,\u00a0Prescot,L35 6NE", "addr:postcode": "L35 6NE", "addr:country": "GB", "name": "Crossley Place", "phone": "0151 459 1060", "website": "https://www.elysiumhealthcare.co.uk/location/crossley-place/", "brand": "Elysium Healthcare", "brand:wikidata": "Q39086513"}, "geometry": {"type": "Point", "coordinates": [-2.759685, 53.407343]}},
{"type": "Feature", "id": "XRN6JUDfiQEQDPDcPUv7oxE-GXg=", "properties": {"ref": "ann-house", "@spider": "elysium_healthcare", "addr:full": "Ann Street,Kendal,\u00a0Cumbria,\u00a0LA9 6AA", "addr:postcode": "LA9 6AA", "addr:country": "GB", "name": "Ann House", "website": "https://www.elysiumhealthcare.co.uk/location/ann-house/", "brand": "Elysium Healthcare", "brand:wikidata": "Q39086513"}, "geometry": {"type": "Point", "coordinates": [-2.741238, 54.330465]}},
{"type": "Feature", "id": "yv-C_h6n3IMR4e5lu-mA6x40eio=", "properties": {"ref": "all-saints-hospital", "@spider": "elysium_healthcare", "addr:full": "Oldham,\u00a0Greater Manchester,\u00a0OL8 4EF", "addr:postcode": "OL8 4EF", "addr:country": "GB", "name": "All Saints Hospital", "phone": " 0161 622 4220", "website": "https://www.elysiumhealthcare.co.uk/location/all-saints-hospital/", "brand": "Elysium Healthcare", "brand:wikidata": "Q39086513"}, "geometry": {"type": "Point", "coordinates": [-2.128921, 53.529523]}}]}