{"type":"FeatureCollection","features":[{"type": "Feature", "id": "KsZVK5c3WS715y75UaAN2GlPOAw=", "properties": {"ref": "160", "@spider": "equinox", "leisure": "fitness_centre", "addr:full": "31 W 27th Street", "addr:city": "New York", "addr:state": "NY", "addr:postcode": "10001", "addr:country": "US", "name": "Equinox NoMad", "phone": "(866) 322-6549", "website": "https://cdn.contentful.com/clubs/new-york/downtown/nomad", "brand": "Equinox Fitness", "brand:wikidata": "Q5384535", "nsi_id": "equinox-809afb"}},
{"type": "Feature", "id": "RRGqipewWgRhcqhfpcbCEaJyxcw=", "properties": {"ref": "256", "@spider": "equinox", "leisure": "fitness_centre", "addr:full": "16 Ridge Square", "addr:city": "Washington DC", "addr:state": "NW", "addr:postcode": "20016", "addr:country": "US", "name": "Equinox Wisconsin Ave", "phone": "(866) 332-6549", "website": "https://cdn.contentful.com/clubs/washington-dc/wisconsinave", "brand": "Equinox Fitness", "brand:wikidata": "Q5384535", "nsi_id": "equinox-809afb"}},
{"type": "Feature", "id": "nvssOCTOQISCLHMcow2Drbvoq1U=", "properties": {"ref": "709", "@spider": "equinox", "leisure": "fitness_centre", "addr:full": "12833 Ventura Blvd. Unit 101", "addr:city": "Studio City", "addr:state": "CA", "addr:postcode": "91604", "addr:country": "US", "name": "Equinox Studio City", "phone": "(747) 205-5597", "website": "https://cdn.contentful.com/clubs/southern-california/studiocity", "brand": "Equinox Fitness", "brand:wikidata": "Q5384535", "nsi_id": "equinox-809afb"}},
{"type": "Feature", "id": "2CKsLGq3BReRExlfklQhuxpenJA=", "properties": {"ref": "14801", "@spider": "equinox", "leisure": "fitness_centre", "addr:full": "16 Old Track Road", "addr:city": "Greenwich", "addr:state": "CT", "addr:postcode": "06830", "addr:country": "US", "name": "Equinox E at Greenwich CT", "phone": "(203) 863-0070", "website": "https://cdn.contentful.com/clubs/connecticut/e-greenwich-ct", "brand": "Equinox Fitness", "brand:wikidata": "Q5384535", "nsi_id": "equinox-809afb"}},
{"type": "Feature", "id": "myXYR9smcPYGdvqSzGFhjRtyEV4=", "properties": {"ref": "11301", "@spider": "equinox", "leisure": "fitness_centre", "addr:full": "10 Columbus Circle", "addr:city": "New York", "addr:state": "NY", "addr:postcode": "10019", "addr:country": "US", "name": "Equinox E at Columbus Circle", "phone": "(212) 871-3001", "website": "https://cdn.contentful.com/clubs/new-york/uptown/ecolumbuscircle", "brand": "Equinox Fitness", "brand:wikidata": "Q5384535", "nsi_id": "equinox-809afb"}},
{"type": "Feature", "id": "XNj_KoeoSeSXc_1_5TUII0pHJVM=", "properties": {"ref": "155", "@spider": "equinox", "leisure": "fitness_centre", "addr:full": "226 Old Post Road", "addr:city": "Southport", "addr:state": "CT", "addr:postcode": "06890", "addr:country": "US", "name": "Equinox Southport", "phone": "(203) 290-3116", "website": "https://cdn.contentful.com/clubs/connecticut/southport", "brand": "Equinox Fitness", "brand:wikidata": "Q5384535", "nsi_id": "equinox-809afb"}},
{"type": "Feature", "id": "XkfMebaN5pbGYlagUcnc3N29zo4=", "properties": {"ref": "730", "@spider": "equinox", "leisure": "fitness_centre", "addr:full": "19540 Jamboree Road", "addr:city": "Irvine", "addr:state": "CA", "addr:postcode": "92612", "addr:country": "US", "name": "Equinox Newport Beach", "phone": "(949) 296-1700", "website": "https://cdn.contentful.com/clubs/southern-california/orange-county/newportbeach", "brand": "Equinox Fitness", "brand:wikidata": "Q5384535", "nsi_id": "equinox-809afb"}},
{"type": "Feature", "id": "XgBT7MmdHLlX_HDiZAwQtS28c8Q=", "properties": {"ref": "732", "@spider": "equinox", "leisure": "fitness_centre", "addr:full": "1980 Main Street", "addr:city": "Irvine", "addr:state": "CA", "addr:postcode": "92614", "addr:country": "US", "name": "Equinox Sports Club Orange County", "phone": "(949) 975-8400", "website": "https://cdn.contentful.com/clubs/southern-california/orange-county/orangecounty", "brand": "Equinox Fitness", "brand:wikidata": "Q5384535", "nsi_id": "equinox-809afb"}},
{"type": "Feature", "id": "PvveMxn7oAPMjz9p1mZNA2yVxPg=", "properties": {"ref": "733", "@spider": "equinox", "leisure": "fitness_centre", "addr:full": "21010 Pacific Coast Highway, Suite A105", "addr:city": "Huntington Beach", "addr:state": "CA", "addr:postcode": "92648", "addr:country": "US", "name": "Equinox Huntington Beach", "phone": "(657) 215-4710", "website": "https://cdn.contentful.com/clubs/southern-california/orange-county/huntingtonbeach", "brand": "Equinox Fitness", "brand:wikidata": "Q5384535", "nsi_id": "equinox-809afb"}},
{"type": "Feature", "id": "-n8cSRZi83PXEkm8uoMUMkKKnw0=", "properties": {"ref": "704", "@spider": "equinox", "leisure": "fitness_centre", "addr:full": "10960 Wilshire Blvd.", "addr:city": "Los Angeles", "addr:state": "CA", "addr:postcode": "90024", "addr:country": "US", "name": "Equinox Westwood", "phone": "(310) 954-8950", "website": "https://cdn.contentful.com/clubs/southern-california/los-angeles/westwood", "brand": "Equinox Fitness", "brand:wikidata": "Q5384535", "nsi_id": "equinox-809afb"}},
{"type": "Feature", "id": "jROA_BkX4qbWV4kgoP9G_EH16Zo=", "properties": {"ref": "702", "@spider": "equinox", "leisure": "fitness_centre", "addr:full": "8590 Sunset Blvd", "addr:city": "West Hollywood", "addr:state": "CA", "addr:postcode": "90069", "addr:country": "US", "name": "Equinox West Hollywood", "phone": "(310) 289-1900", "website": "https://cdn.contentful.com/clubs/southern-california/los-angeles/westhollywood", "brand": "Equinox Fitness", "brand:wikidata": "Q5384535", "nsi_id": "equinox-809afb"}},
{"type": "Feature", "id": "3CpASQqxGtIUSGRBiffNm4_SZ5I=", "properties": {"ref": "713", "@spider": "equinox", "leisure": "fitness_centre", "addr:full": "1835 S. Sepulveda Blvd", "addr:city": "Los Angeles", "addr:state": "CA", "addr:postcode": "90025", "addr:country": "US", "name": "Equinox Sports Club Los Angeles", "phone": "(310) 473-1447", "website": "https://cdn.contentful.com/clubs/southern-california/los-angeles/losangeles", "brand": "Equinox Fitness", "brand:wikidata": "Q5384535", "nsi_id": "equinox-809afb"}},
{"type": "Feature", "id": "sWXN0_ZxNqbBhlUc-A5ByBO735c=", "properties": {"ref": "703", "@spider": "equinox", "leisure": "fitness_centre", "addr:full": "201 Santa Monica Boulevard", "addr:city": "Santa Monica", "addr:state": "CA", "addr:postcode": "90401", "addr:country": "US", "name": "Equinox Santa Monica", "phone": "(310) 593-8888", "website": "https://cdn.contentful.com/clubs/southern-california/los-angeles/santamonica", "brand": "Equinox Fitness", "brand:wikidata": "Q5384535", "nsi_id": "equinox-809afb"}},
{"type": "Feature", "id": "y8rf62Ua07O3QMNxcjJ8VEOb4RI=", "properties": {"ref": "751", "@spider": "equinox", "leisure": "fitness_centre", "addr:full": "5750 Wilshire Boulevard", "addr:city": "Los Angeles", "addr:state": "CA", "addr:postcode": "90036", "addr:country": "US", "name": "Equinox Miracle Mile", "phone": "(323) 405-6405", "website": "https://cdn.contentful.com/clubs/southern-california/los-angeles/miraclemile", "brand": "Equinox Fitness", "brand:wikidata": "Q5384535", "nsi_id": "equinox-809afb"}},
{"type": "Feature", "id": "xucU8gg5eBOVDw-TFRvAffrRIuc=", "properties": {"ref": "717", "@spider": "equinox", "leisure": "fitness_centre", "addr:full": "1550 N. Vine Street", "addr:city": "Hollywood", "addr:state": "CA", "addr:postcode": "90028", "addr:country": "US", "name": "Equinox Hollywood", "phone": "(323) 471-0130", "website": "https://cdn.contentful.com/clubs/southern-california/los-angeles/hollywood", "brand": "Equinox Fitness", "brand:wikidata": "Q5384535", "nsi_id": "equinox-809afb"}},
{"type": "Feature", "id": "PRcgbCvkhSIS5R_8tjMeZGkHQQY=", "properties": {"ref": "715", "@spider": "equinox", "leisure": "fitness_centre", "addr:full": "444 Flower Street", "addr:city": "Los Angeles", "addr:state": "CA", "addr:postcode": "90071", "addr:country": "US", "name": "Equinox Downtown LA", "phone": "(213) 330-3999", "website": "https://cdn.contentful.com/clubs/southern-california/los-angeles/downtownla", "brand": "Equinox Fitness", "brand:wikidata": "Q5384535", "nsi_id": "equinox-809afb"}},
{"type": "Feature", "id": "_7NM0UZAnf9xszNOJMACrsMfNek=", "properties": {"ref": "752", "@spider": "equinox", "leisure": "fitness_centre", "addr:full": "10000 W. Washington Boulevard", "addr:city": "Culver City", "addr:state": "CA", "addr:postcode": "90232", "addr:country": "US", "name": "Equinox Culver City", "phone": "(310) 736-3917", "website": "https://cdn.contentful.com/clubs/southern-california/los-angeles/culvercity", "brand": "Equinox Fitness", "brand:wikidata": "Q5384535", "nsi_id": "equinox-809afb"}},
{"type": "Feature", "id": "g4CJ77pdZgW9evUfK83jRb45IDM=", "properties": {"ref": "873", "@spider": "equinox", "leisure": "fitness_centre", "addr:full": "12 St James's Street", "addr:city": "St. James's", "addr:postcode": "SW1A 1ER", "addr:country": "GB", "name": "Equinox E St. James's", "phone": "+44 (0) 203 884 2071", "website": "https://cdn.contentful.com/clubs/london/stjames", "brand": "Equinox Fitness", "brand:wikidata": "Q5384535", "nsi_id": "equinox-809afb"}},
{"type": "Feature", "id": "FGDXFo_LDJGBBOB99bZAOcWu6js=", "properties": {"ref": "875", "@spider": "equinox", "leisure": "fitness_centre", "addr:full": "8 Clerk's Place", "addr:city": "London", "addr:postcode": "EC3A 8AQ", "addr:country": "GB", "name": "Equinox Bishopsgate", "phone": "+44 (0) 203 057 4497", "website": "https://cdn.contentful.com/clubs/london/bishopsgate", "brand": "Equinox Fitness", "brand:wikidata": "Q5384535", "nsi_id": "equinox-809afb"}},
{"type": "Feature", "id": "dmw2BFrCqjz_yzg9vaN8obhslCE=", "properties": {"ref": "871", "@spider": "equinox", "leisure": "fitness_centre", "addr:full": "99 Kensington High Street", "addr:city": "Kensington", "addr:postcode": "W85SA", "addr:country": "GB", "name": "Equinox Kensington", "phone": "+44 (0) 207 666 6000", "website": "https://cdn.contentful.com/clubs/london/kensington", "brand": "Equinox Fitness", "brand:wikidata": "Q5384535", "nsi_id": "equinox-809afb"}},
{"type": "Feature", "id": "1tae9b9oVtx1nNrV_eXirZsFi90=", "properties": {"ref": "712", "@spider": "equinox", "leisure": "fitness_centre", "addr:full": "9601 Wilshire Boulevard", "addr:city": "Beverly Hills", "addr:state": "CA", "addr:postcode": "90210", "addr:country": "US", "name": "Equinox Beverly Hills", "phone": "(310) 888-8100", "website": "https://cdn.contentful.com/clubs/southern-california/los-angeles/beverlyhills", "brand": "Equinox Fitness", "brand:wikidata": "Q5384535", "nsi_id": "equinox-809afb"}},
{"type": "Feature", "id": "uHt3fInvcL34z_QLVogtj6jJzCY=", "properties": {"ref": "726", "@spider": "equinox", "leisure": "fitness_centre", "addr:full": "1560 Mission Street", "addr:city": "San Francisco", "addr:state": "CA", "addr:postcode": "94103", "addr:country": "US", "name": "Equinox Van Mission", "phone": "(415) 228-5259", "website": "https://cdn.contentful.com/clubs/northern-california/vanmission", "brand": "Equinox Fitness", "brand:wikidata": "Q5384535", "nsi_id": "equinox-809afb"}},
{"type": "Feature", "id": "Z-bv2mOMqpg8zMtl6mf1c1LxZfo=", "properties": {"ref": "723", "@spider": "equinox", "leisure": "fitness_centre", "addr:full": "2055 Union Street", "addr:city": "San Francisco", "addr:state": "CA", "addr:postcode": "94123", "addr:country": "US", "name": "Equinox Union Street", "phone": "(415) 854-0799", "website": "https://cdn.contentful.com/clubs/northern-california/unionstreet", "brand": "Equinox Fitness", "brand:wikidata": "Q5384535", "nsi_id": "equinox-809afb"}},
{"type": "Feature", "id": "w-A-BR1arwXZYO2P4R7yoAzVUJg=", "properties": {"ref": "724", "@spider": "equinox", "leisure": "fitness_centre", "addr:full": "747 Market Street", "addr:city": "San Francisco", "addr:state": "CA", "addr:postcode": "94103", "addr:country": "US", "name": "Equinox Sports Club San Francisco", "phone": "(415) 633-3900", "website": "https://cdn.contentful.com/clubs/northern-california/sportsclubsanfrancisco", "brand": "Equinox Fitness", "brand:wikidata": "Q5384535", "nsi_id": "equinox-809afb"}},
{"type": "Feature", "id": "2oEwHSs7-D3y1aPDi71sSq2NPxc=", "properties": {"ref": "725", "@spider": "equinox", "leisure": "fitness_centre", "addr:full": "6000 Bollinger Canyon Road", "addr:city": "San Ramon", "addr:state": "CA", "addr:postcode": "94583", "addr:country": "US", "name": "Equinox San Ramon", "phone": "(925) 299-9801", "website": "https://cdn.contentful.com/clubs/northern-california/sanramon", "brand": "Equinox Fitness", "brand:wikidata": "Q5384535", "nsi_id": "equinox-809afb"}},
{"type": "Feature", "id": "KtXTXE0bpz7wNYjtxiH042XgubY=", "properties": {"ref": "721", "@spider": "equinox", "leisure": "fitness_centre", "addr:full": "4 East 4th Avenue", "addr:city": "San Mateo", "addr:state": "CA", "addr:postcode": "94401", "addr:country": "US", "name": "Equinox San Mateo", "phone": "(650) 403-7000", "website": "https://cdn.contentful.com/clubs/northern-california/sanmateo", "brand": "Equinox Fitness", "brand:wikidata": "Q5384535", "nsi_id": "equinox-809afb"}},
{"type": "Feature", "id": "XSqb0NhMf3c3UMNiRDpvFe_CbX8=", "properties": {"ref": "722", "@spider": "equinox", "leisure": "fitness_centre", "addr:full": "440 Portage Avenue", "addr:city": "Palo Alto", "addr:state": "CA", "addr:postcode": "94306", "addr:country": "US", "name": "Equinox Palo Alto", "phone": "(650) 319-1700", "website": "https://cdn.contentful.com/clubs/northern-california/paloalto", "brand": "Equinox Fitness", "brand:wikidata": "Q5384535", "nsi_id": "equinox-809afb"}},
{"type": "Feature", "id": "SKVYqzbQbWsHQVcnbI7lNPiDaxo=", "properties": {"ref": "719", "@spider": "equinox", "leisure": "fitness_centre", "addr:full": "2600 Shattuck Avenue", "addr:city": "Berkeley", "addr:state": "CA", "addr:postcode": "94704", "addr:country": "US", "name": "Equinox Berkeley", "phone": "(510) 982-5076", "website": "https://cdn.contentful.com/clubs/northern-california/berkeley", "brand": "Equinox Fitness", "brand:wikidata": "Q5384535", "nsi_id": "equinox-809afb"}},
{"type": "Feature", "id": "9U5tW37uLGQS0eoEA12SkpspVWw=", "properties": {"ref": "727", "@spider": "equinox", "leisure": "fitness_centre", "addr:full": "320 Mission Street", "addr:city": "San Francisco", "addr:state": "California", "addr:postcode": "94105", "addr:country": "US", "name": "Equinox Beale Street", "phone": "(415) 228-0024", "website": "https://cdn.contentful.com/clubs/northern-california/bealest", "brand": "Equinox Fitness", "brand:wikidata": "Q5384535", "nsi_id": "equinox-809afb"}},
{"type": "Feature", "id": "IjQ7P7HyYarHFZqgWGsTP5yuGC4=", "properties": {"ref": "301", "@spider": "equinox", "leisure": "fitness_centre", "addr:full": "520 Collins Avenue", "addr:city": "Miami Beach", "addr:state": "FL", "addr:postcode": "33139", "addr:country": "US", "name": "Equinox South Beach", "phone": "(305) 673-1172", "website": "https://cdn.contentful.com/clubs/florida/southbeach", "brand": "Equinox Fitness", "brand:wikidata": "Q5384535", "nsi_id": "equinox-809afb"}},
{"type": "Feature", "id": "vqxyTFgslXScyEfvTF9fo47qaLo=", "properties": {"ref": "302", "@spider": "equinox", "leisure": "fitness_centre", "addr:full": "The Village of Merrick Park at 370 San Lorenzo Avenue", "addr:city": "Coral Gables", "addr:state": "FL", "addr:postcode": "33146", "addr:country": "US", "name": "Equinox Coral Gables", "phone": "(786) 497-8200", "website": "https://cdn.contentful.com/clubs/florida/coralgables", "brand": "Equinox Fitness", "brand:wikidata": "Q5384535", "nsi_id": "equinox-809afb"}},
{"type": "Feature", "id": "ADTFhiOkADk9HbpfFxHOeJfm_E0=", "properties": {"ref": "305", "@spider": "equinox", "leisure": "fitness_centre", "addr:full": "25 SW 9th Street", "addr:city": "Miami", "addr:state": "FL", "addr:postcode": "33131", "addr:country": "US", "name": "Equinox Brickell Heights", "phone": "(305) 350-2278", "website": "https://cdn.contentful.com/clubs/florida/brickellheights", "brand": "Equinox Fitness", "brand:wikidata": "Q5384535", "nsi_id": "equinox-809afb"}},
{"type": "Feature", "id": "19kPCg2fjbekA7CBmj8oy05R5qY=", "properties": {"ref": "304", "@spider": "equinox", "leisure": "fitness_centre", "addr:full": "1441 Brickell Avenue #4", "addr:city": "Miami", "addr:state": "FL", "addr:postcode": "33131", "addr:country": "US", "name": "Equinox Brickell", "phone": "(305) 533-1199", "website": "https://cdn.contentful.com/clubs/florida/brickell", "brand": "Equinox Fitness", "brand:wikidata": "Q5384535", "nsi_id": "equinox-809afb"}},
{"type": "Feature", "id": "T4ppTxGliwQmyO5CTiZMhsMeB_I=", "properties": {"ref": "303", "@spider": "equinox", "leisure": "fitness_centre", "addr:full": "19501 Biscayne Blvd. (Aventura Mall)", "addr:city": "Aventura", "addr:state": "FL", "addr:postcode": "33180", "addr:country": "US", "name": "Equinox Aventura", "phone": "(305) 935-9514", "website": "https://cdn.contentful.com/clubs/florida/aventura", "brand": "Equinox Fitness", "brand:wikidata": "Q5384535", "nsi_id": "equinox-809afb"}},
{"type": "Feature", "id": "ThltaNF66oUeC7cPB4h4SKD07kM=", "properties": {"ref": "204", "@spider": "equinox", "leisure": "fitness_centre", "addr:full": "4 Avery St", "addr:city": "Boston", "addr:state": "MA", "addr:postcode": "02111", "addr:country": "US", "name": "Equinox Sports Club Boston", "phone": "(617) 375-8200", "website": "https://cdn.contentful.com/clubs/boston/sportsclubboston", "brand": "Equinox Fitness", "brand:wikidata": "Q5384535", "nsi_id": "equinox-809afb"}},
{"type": "Feature", "id": "ZRdM4uWI1dm5tKidAA5o6Xzt0U4=", "properties": {"ref": "206", "@spider": "equinox", "leisure": "fitness_centre", "addr:full": "27 Northern Avenue", "addr:city": "Boston", "addr:state": "MA", "addr:postcode": "02110", "addr:country": "US", "name": "Equinox Seaport", "phone": "(617) 206-2641", "website": "https://cdn.contentful.com/clubs/boston/seaport", "brand": "Equinox Fitness", "brand:wikidata": "Q5384535", "nsi_id": "equinox-809afb"}},
{"type": "Feature", "id": "84g1Ax5QMubOAwla_T--PzClNvk=", "properties": {"ref": "202", "@spider": "equinox", "leisure": "fitness_centre", "addr:full": "225 Franklin Street", "addr:city": "Boston", "addr:state": "MA", "addr:postcode": "02110", "addr:country": "US", "name": "Equinox Franklin Street", "phone": "(617) 426-2140", "website": "https://cdn.contentful.com/clubs/boston/franklinst", "brand": "Equinox Fitness", "brand:wikidata": "Q5384535", "nsi_id": "equinox-809afb"}},
{"type": "Feature", "id": "kGE5L7t3OlrtLgiFl4CSU_HrK_4=", "properties": {"ref": "201", "@spider": "equinox", "leisure": "fitness_centre", "addr:full": "131 Dartmouth Street", "addr:city": "Boston", "addr:state": "MA", "addr:postcode": "02116", "addr:country": "US", "name": "Equinox Dartmouth Street", "phone": "(617) 578-8918", "website": "https://cdn.contentful.com/clubs/boston/dartmouth", "brand": "Equinox Fitness", "brand:wikidata": "Q5384535", "nsi_id": "equinox-809afb"}},
{"type": "Feature", "id": "MNo0zyyQcV_F-ZUlL89rtNkJu4g=", "properties": {"ref": "203", "@spider": "equinox", "leisure": "fitness_centre", "addr:full": "200 Boylston Street", "addr:city": "Chestnut Hill", "addr:state": "MA", "addr:postcode": "02467", "addr:country": "US", "name": "Equinox Chestnut Hill", "phone": "(617) 531-7077", "website": "https://cdn.contentful.com/clubs/boston/chestnuthill", "brand": "Equinox Fitness", "brand:wikidata": "Q5384535", "nsi_id": "equinox-809afb"}},
{"type": "Feature", "id": "89R8BTaHSNXc6H2BHS-jd63yKw8=", "properties": {"ref": "420", "@spider": "equinox", "leisure": "fitness_centre", "addr:full": "4065 West Maple Road", "addr:city": "Bloomfield Hills", "addr:state": "Michigan", "addr:postcode": "48301", "addr:country": "US", "name": "Equinox Bloomfield Hills", "phone": "(248) 785-3655", "website": "https://cdn.contentful.com/clubs/michigan/bloomfieldhills", "brand": "Equinox Fitness", "brand:wikidata": "Q5384535", "nsi_id": "equinox-809afb"}},
{"type": "Feature", "id": "mfqQFtKHuTkaoEgwQaIoFOPE_FU=", "properties": {"ref": "150", "@spider": "equinox", "leisure": "fitness_centre", "addr:full": "68 River Road", "addr:city": "Summit", "addr:state": "NJ", "addr:postcode": "07901", "addr:country": "US", "name": "Equinox Summit", "phone": "(908) 516-5040", "website": "https://cdn.contentful.com/clubs/new-jersey/summit", "brand": "Equinox Fitness", "brand:wikidata": "Q5384535", "nsi_id": "equinox-809afb"}},
{"type": "Feature", "id": "EE6WZOVIPVbW2vayAQ-YZqk-Bl4=", "properties": {"ref": "151", "@spider": "equinox", "leisure": "fitness_centre", "addr:full": "776 Route 17 North", "addr:city": "Paramus", "addr:state": "NJ", "addr:postcode": "07652", "addr:country": "US", "name": "Equinox Paramus", "phone": "(201) 518-7999", "website": "https://cdn.contentful.com/clubs/new-jersey/paramus", "brand": "Equinox Fitness", "brand:wikidata": "Q5384535", "nsi_id": "equinox-809afb"}},
{"type": "Feature", "id": "8hLFBUlytuGKtvR9KS5RYgAZBtg=", "properties": {"ref": "860", "@spider": "equinox", "leisure": "fitness_centre", "addr:full": "1131 West Georgia Street", "addr:city": "Vancouver", "addr:postcode": "V6E 4G2", "addr:country": "CA", "name": "Equinox West Georgia Street", "phone": "(604) 449-3002", "website": "https://cdn.contentful.com/clubs/canada/vancouver/westgeorgiast", "brand": "Equinox Fitness", "brand:wikidata": "Q5384535", "nsi_id": "equinox-809afb"}},
{"type": "Feature", "id": "g3nuRDB-gvo-CKpeS9oxJzDnmbo=", "properties": {"ref": "4147", "@spider": "equinox", "leisure": "fitness_centre", "addr:full": "204 Butter Lane", "addr:city": "Bridgehampton", "addr:state": "New York", "addr:postcode": "11932", "addr:country": "US", "name": "Equinox x Hamptons", "phone": "(631) 237-7012", "website": "https://cdn.contentful.com/clubs/new-york/long-island/hamptons", "brand": "Equinox Fitness", "brand:wikidata": "Q5384535", "nsi_id": "equinox-809afb"}},
{"type": "Feature", "id": "C8k4rm5NrlbvLFzTuM8cnWjPVUo=", "properties": {"ref": "5724", "@spider": "equinox", "leisure": "fitness_centre", "addr:full": "747 Market Street", "addr:city": "San Francisco", "addr:state": "CA", "addr:postcode": "94103", "addr:country": "US", "name": "Equinox E San Francisco", "phone": "(415) 633-3900", "website": "https://cdn.contentful.com/clubs/northern-california/eclubescsf", "brand": "Equinox Fitness", "brand:wikidata": "Q5384535", "nsi_id": "equinox-809afb"}},
{"type": "Feature", "id": "8dRXRlEhNIb66Y25Z5ILzrNQoR8=", "properties": {"ref": "116", "@spider": "equinox", "leisure": "fitness_centre", "addr:full": "100 Tenth Avenue", "addr:city": "New York", "addr:state": "NY", "addr:postcode": "10011", "addr:country": "US", "name": "Equinox High Line", "phone": "(212) 367-0863", "website": "https://cdn.contentful.com/clubs/new-york/downtown/highline", "brand": "Equinox Fitness", "brand:wikidata": "Q5384535", "nsi_id": "equinox-809afb"}},
{"type": "Feature", "id": "nqwxQXMxYYwcT9wURNbBWiNYgQk=", "properties": {"ref": "137", "@spider": "equinox", "leisure": "fitness_centre", "addr:full": "246 Bedford Ave", "addr:city": "Brooklyn", "addr:state": "NY", "addr:postcode": "11211", "addr:country": "US", "name": "Equinox Williamsburg", "phone": "(718) 522-5703", "website": "https://cdn.contentful.com/clubs/new-york/brooklyn/williamsburg", "brand": "Equinox Fitness", "brand:wikidata": "Q5384535", "nsi_id": "equinox-809afb"}},
{"type": "Feature", "id": "_B3U48TjilhkGX81k29jO8e2pp0=", "properties": {"ref": "112", "@spider": "equinox", "leisure": "fitness_centre", "addr:full": "97 Greenwich Avenue", "addr:city": "New York", "addr:state": "NY", "addr:postcode": "10014", "addr:country": "US", "name": "Equinox Greenwich Avenue", "phone": "(212) 620-0103", "website": "https://cdn.contentful.com/clubs/new-york/downtown/greenwichave", "brand": "Equinox Fitness", "brand:wikidata": "Q5384535", "nsi_id": "equinox-809afb"}},
{"type": "Feature", "id": "kwS056WcVC9_o15NyMC8Lw_MTzQ=", "properties": {"ref": "5138", "@spider": "equinox", "leisure": "fitness_centre", "addr:full": "32 Hudson Yards, New York, NY 10001", "addr:city": "New York", "addr:state": "New York", "addr:postcode": "10001", "addr:country": " ", "name": "E at Hudson Yards", "phone": "(212) 328-9050", "website": "https://cdn.contentful.com/clubs/new-york/midtown/ehudsonyards", "brand": "Equinox Fitness", "brand:wikidata": "Q5384535", "nsi_id": "equinox-809afb"}},
{"type": "Feature", "id": "7xt1-GwpymQZA1wT02ezCg6xG2A=", "properties": {"ref": "103", "@spider": "equinox", "leisure": "fitness_centre", "addr:full": "2465 Broadway", "addr:city": "New York", "addr:state": "NY", "addr:postcode": "10025", "addr:country": "US", "name": "Equinox West 92nd Street", "phone": "(212) 799-1818", "website": "https://cdn.contentful.com/clubs/new-york/uptown/west92nd", "brand": "Equinox Fitness", "brand:wikidata": "Q5384535", "nsi_id": "equinox-809afb"}},
{"type": "Feature", "id": "2Y_abxW22EB_qAkfRyik5j19Y-Q=", "properties": {"ref": "139", "@spider": "equinox", "leisure": "fitness_centre", "addr:full": "30 East 85th Street", "addr:city": "New York", "addr:state": "NY", "addr:postcode": "10028", "addr:country": "US", "name": "Equinox E Madison Avenue", "phone": "(212) 501-1490", "website": "https://cdn.contentful.com/clubs/new-york/uptown/emadison", "brand": "Equinox Fitness", "brand:wikidata": "Q5384535", "nsi_id": "equinox-809afb"}},
{"type": "Feature", "id": "m9gdt7aJmQIMg0s5xGlYEldFi6o=", "properties": {"ref": "111", "@spider": "equinox", "leisure": "fitness_centre", "addr:full": "54 Murray Street", "addr:city": "New York", "addr:state": "NY", "addr:postcode": "10007", "addr:country": "US", "name": "Equinox Tribeca", "phone": "(212) 566-6555", "website": "https://cdn.contentful.com/clubs/new-york/downtown/tribeca", "brand": "Equinox Fitness", "brand:wikidata": "Q5384535", "nsi_id": "equinox-809afb"}},
{"type": "Feature", "id": "xJ6XFkDTNx5sjREr4MwmQBtxpj8=", "properties": {"ref": "126", "@spider": "equinox", "leisure": "fitness_centre", "addr:full": "45 Rockefeller Plaza", "addr:city": "New York", "addr:state": "NY", "addr:postcode": "10111", "addr:country": "US", "name": "Equinox Rockefeller Center", "phone": "(212) 218-8600", "website": "https://cdn.contentful.com/clubs/new-york/midtown/rockefeller", "brand": "Equinox Fitness", "brand:wikidata": "Q5384535", "nsi_id": "equinox-809afb"}},
{"type": "Feature", "id": "QA7tStudK6TtDz26J4W1Jh8nEYA=", "properties": {"ref": "128", "@spider": "equinox", "leisure": "fitness_centre", "addr:full": "225 Liberty Street", "addr:city": "New York", "addr:state": "NY", "addr:postcode": "10281", "addr:country": "US", "name": "Equinox Brookfield Place", "phone": "(646) 630-7573", "website": "https://cdn.contentful.com/clubs/new-york/downtown/brookfieldplace", "brand": "Equinox Fitness", "brand:wikidata": "Q5384535", "nsi_id": "equinox-809afb"}},
{"type": "Feature", "id": "hJ2TsigbeoC04JMxSTZtmQ5BLLQ=", "properties": {"ref": "140", "@spider": "equinox", "leisure": "fitness_centre", "addr:full": "800 White Plains Road", "addr:city": "Scarsdale", "addr:state": "NY", "addr:postcode": "10583", "addr:country": "US", "name": "Equinox Scarsdale", "phone": "(914) 472-9000", "website": "https://cdn.contentful.com/clubs/new-york/westchester/scarsdale", "brand": "Equinox Fitness", "brand:wikidata": "Q5384535", "nsi_id": "equinox-809afb"}},
{"type": "Feature", "id": "zf2RahZAzG6358pUW3nYKpWrU-U=", "properties": {"ref": "131", "@spider": "equinox", "leisure": "fitness_centre", "addr:full": "160 Columbus Ave", "addr:city": "New York", "addr:state": "NY", "addr:postcode": "10023", "addr:country": "US", "name": "Equinox Sports Club New York", "phone": "(212) 362-6800", "website": "https://cdn.contentful.com/clubs/new-york/uptown/sportsclubnewyork", "brand": "Equinox Fitness", "brand:wikidata": "Q5384535", "nsi_id": "equinox-809afb"}},
{"type": "Feature", "id": "Hq92OPvnb7lTJlweyVjCf8Y7l0c=", "properties": {"ref": "134", "@spider": "equinox", "leisure": "fitness_centre", "addr:full": "117 Front Street", "addr:city": "Brooklyn", "addr:state": "NY", "addr:postcode": "11201", "addr:country": "US", "name": "Equinox DUMBO", "phone": "(347) 435-2341", "website": "https://cdn.contentful.com/clubs/new-york/brooklyn/dumbo", "brand": "Equinox Fitness", "brand:wikidata": "Q5384535", "nsi_id": "equinox-809afb"}},
{"type": "Feature", "id": "FDbBH58uci-iP4PHKVH2TMkFwao=", "properties": {"ref": "145", "@spider": "equinox", "leisure": "fitness_centre", "addr:full": "90 E. Shore Rd", "addr:city": "Great Neck", "addr:state": "NY", "addr:postcode": "11023", "addr:country": "US", "name": "Equinox Great Neck", "phone": "(516) 570-8003", "website": "https://cdn.contentful.com/clubs/new-york/long-island/greatneck", "brand": "Equinox Fitness", "brand:wikidata": "Q5384535", "nsi_id": "equinox-809afb"}},
{"type": "Feature", "id": "cSo45O2aLaERasZ8zlspSVGzlj8=", "properties": {"ref": "701", "@spider": "equinox", "leisure": "fitness_centre", "addr:full": "300 E. Colorado Boulevard, Suite 201", "addr:city": "Pasadena", "addr:state": "CA", "addr:postcode": "91101", "addr:country": "US", "name": "Equinox Pasadena", "phone": "(626) 685-4800", "website": "https://cdn.contentful.com/clubs/southern-california/the-valley/pasadena", "brand": "Equinox Fitness", "brand:wikidata": "Q5384535", "nsi_id": "equinox-809afb"}},
{"type": "Feature", "id": "PkvlCKkzxesFj70V12TeCYKhk7o=", "properties": {"ref": "716", "@spider": "equinox", "leisure": "fitness_centre", "addr:full": "112 S. Lakeview Canyon Road", "addr:city": "Thousand Oaks", "addr:state": "CA", "addr:postcode": "91362", "addr:country": "US", "name": "Equinox Westlake Village", "phone": "(805) 367-3108", "website": "https://cdn.contentful.com/clubs/southern-california/the-valley/westlakevillage", "brand": "Equinox Fitness", "brand:wikidata": "Q5384535", "nsi_id": "equinox-809afb"}},
{"type": "Feature", "id": "N9oJeNpaQKufWw4farmI9x8_oZk=", "properties": {"ref": "149", "@spider": "equinox", "leisure": "fitness_centre", "addr:full": "99 Business Park Drive", "addr:city": "Armonk", "addr:state": "NY", "addr:postcode": "10504", "addr:country": "US", "name": "Equinox Armonk", "phone": "(914) 219-1601", "website": "https://cdn.contentful.com/clubs/new-york/westchester/armonk", "brand": "Equinox Fitness", "brand:wikidata": "Q5384535", "nsi_id": "equinox-809afb"}},
{"type": "Feature", "id": "IccdB8_xDoc3lsvO9kt88O5L_eA=", "properties": {"ref": "114", "@spider": "equinox", "leisure": "fitness_centre", "addr:full": "69 Prince Street", "addr:city": "New York", "addr:state": "NY", "addr:postcode": "10012", "addr:country": "US", "name": "Equinox SoHo", "phone": "(212) 334-4631", "website": "https://cdn.contentful.com/clubs/new-york/downtown/soho", "brand": "Equinox Fitness", "brand:wikidata": "Q5384535", "nsi_id": "equinox-809afb"}},
{"type": "Feature", "id": "6OHjDAC3JViI7z8GX20-VML8pCE=", "properties": {"ref": "456", "@spider": "equinox", "leisure": "fitness_centre", "addr:full": "1007 South Congress Avenue, Suite 100", "addr:city": "Austin", "addr:state": "Texas", "addr:postcode": "78704", "addr:country": "US", "name": "Equinox Austin", "phone": "(512) 652-3321", "website": "https://cdn.contentful.com/clubs/texas/austin", "brand": "Equinox Fitness", "brand:wikidata": "Q5384535", "nsi_id": "equinox-809afb"}},
{"type": "Feature", "id": "UTyWKa4sdn451AOwX0zjWIaKEeE=", "properties": {"ref": "708", "@spider": "equinox", "leisure": "fitness_centre", "addr:full": "5400 Rosecrans Avenue", "addr:city": "Hawthorne", "addr:state": "CA", "addr:postcode": "90250", "addr:country": "US", "name": "Equinox South Bay", "phone": "(310) 727-9543", "website": "https://cdn.contentful.com/clubs/southern-california/south-bay/southbay", "brand": "Equinox Fitness", "brand:wikidata": "Q5384535", "nsi_id": "equinox-809afb"}},
{"type": "Feature", "id": "6ac4fjSxXS239g9L_E2cSsLdFbA=", "properties": {"ref": "750", "@spider": "equinox", "leisure": "fitness_centre", "addr:full": "10250 Santa Monica Boulevard", "addr:city": "Century City", "addr:state": "CA", "addr:postcode": "90067", "addr:country": "US", "name": "Equinox Century City", "phone": "(310) 552-0420", "website": "https://cdn.contentful.com/clubs/southern-california/los-angeles/centurycity", "brand": "Equinox Fitness", "brand:wikidata": "Q5384535", "nsi_id": "equinox-809afb"}},
{"type": "Feature", "id": "QPaynoq9WIocI4-zkWI1J2Tn4oY=", "properties": {"ref": "110", "@spider": "equinox", "leisure": "fitness_centre", "addr:full": "14 Wall Street", "addr:city": "New York", "addr:state": "NY", "addr:postcode": "10005", "addr:country": "US", "name": "Equinox Wall Street", "phone": "(212) 964-6688", "website": "https://cdn.contentful.com/clubs/new-york/downtown/wallstreet", "brand": "Equinox Fitness", "brand:wikidata": "Q5384535", "nsi_id": "equinox-809afb"}},
{"type": "Feature", "id": "wVTygF71CM5pPDPn4CEiLb7TNwY=", "properties": {"ref": "130", "@spider": "equinox", "leisure": "fitness_centre", "addr:full": "194 Joralemon Street", "addr:city": "Brooklyn", "addr:state": "NY", "addr:postcode": "11201", "addr:country": "US", "name": "Equinox Brooklyn Heights", "phone": "(718) 522-7533", "website": "https://cdn.contentful.com/clubs/new-york/brooklyn/brooklynheights", "brand": "Equinox Fitness", "brand:wikidata": "Q5384535", "nsi_id": "equinox-809afb"}},
{"type": "Feature", "id": "VxpaKDsXPVPpYNzIFAkpIc2k7Yk=", "properties": {"ref": "142", "@spider": "equinox", "leisure": "fitness_centre", "addr:full": "7550 Jericho Turnpike", "addr:city": "Woodbury", "addr:state": "NY", "addr:postcode": "11797", "addr:country": "US", "name": "Equinox Woodbury", "phone": "(516) 714-8100", "website": "https://cdn.contentful.com/clubs/new-york/long-island/woodbury", "brand": "Equinox Fitness", "brand:wikidata": "Q5384535", "nsi_id": "equinox-809afb"}},
{"type": "Feature", "id": "wTQ16o5k6UT7nVxhdw6QEpo_Mz0=", "properties": {"ref": "401", "@spider": "equinox", "leisure": "fitness_centre", "addr:full": "1750 North Clark Street", "addr:city": "Chicago", "addr:state": "IL", "addr:postcode": "60614", "addr:country": "US", "name": "Equinox Lincoln Park", "phone": "(312) 254-4000", "website": "https://cdn.contentful.com/clubs/chicago/lincolnpark", "brand": "Equinox Fitness", "brand:wikidata": "Q5384535", "nsi_id": "equinox-809afb"}},
{"type": "Feature", "id": "wEwkJagIjDT3zfOdelapwZcMQfg=", "properties": {"ref": "404", "@spider": "equinox", "leisure": "fitness_centre", "addr:full": "200 West Monroe Street", "addr:city": "Chicago", "addr:state": "IL", "addr:postcode": "60606", "addr:country": "US", "name": "Equinox The Loop", "phone": "(312) 252-3100", "website": "https://cdn.contentful.com/clubs/chicago/loop", "brand": "Equinox Fitness", "brand:wikidata": "Q5384535", "nsi_id": "equinox-809afb"}},
{"type": "Feature", "id": "W--ho1JuaL6gsoBmj5OsN1NWm88=", "properties": {"ref": "141", "@spider": "equinox", "leisure": "fitness_centre", "addr:full": "72 Heights Road", "addr:city": "Darien", "addr:state": "CT", "addr:postcode": "06820", "addr:country": "US", "name": "Equinox Darien", "phone": "(203) 655-2300", "website": "https://cdn.contentful.com/clubs/connecticut/darien", "brand": "Equinox Fitness", "brand:wikidata": "Q5384535", "nsi_id": "equinox-809afb"}},
{"type": "Feature", "id": "vXQgJQqMcmw_2NZIAeGBm6JchKs=", "properties": {"ref": "133", "@spider": "equinox", "leisure": "fitness_centre", "addr:full": "10 East 53rd Street", "addr:city": "New York", "addr:state": "NY", "addr:postcode": "10022", "addr:country": "US", "name": "Equinox East 53rd Street", "phone": "(646) 863-1586", "website": "https://cdn.contentful.com/clubs/new-york/midtown/east53rd", "brand": "Equinox Fitness", "brand:wikidata": "Q5384535", "nsi_id": "equinox-809afb"}},
{"type": "Feature", "id": "_daktTNt46mQZuAfttXbgUCEbMA=", "properties": {"ref": "720", "@spider": "equinox", "leisure": "fitness_centre", "addr:full": "301 Pine Street", "addr:city": "San Francisco", "addr:state": "CA", "addr:postcode": "94104", "addr:country": "US", "name": "Equinox Pine Street", "phone": "(415) 593-4000", "website": "https://cdn.contentful.com/clubs/northern-california/pinest", "brand": "Equinox Fitness", "brand:wikidata": "Q5384535", "nsi_id": "equinox-809afb"}},
{"type": "Feature", "id": "N_LYQNeSEPSVnKhNa1UsbHHf7Ls=", "properties": {"ref": "705", "@spider": "equinox", "leisure": "fitness_centre", "addr:full": "550 Deep Valley Drive, Suite 212", "addr:city": "Rolling Hills Estates", "addr:state": "CA", "addr:postcode": "90274", "addr:country": "US", "name": "Equinox Palos Verdes", "phone": "(310) 697-1016", "website": "https://cdn.contentful.com/clubs/southern-california/south-bay/palosverdes", "brand": "Equinox Fitness", "brand:wikidata": "Q5384535", "nsi_id": "equinox-809afb"}},
{"type": "Feature", "id": "hbZmGsW0KLVRm5lw9RtLf6aP9G0=", "properties": {"ref": "711", "@spider": "equinox", "leisure": "fitness_centre", "addr:full": "13455 Maxella Avenue, Suite 204", "addr:city": "Marina del Rey", "addr:state": "CA", "addr:postcode": "90292", "addr:country": "US", "name": "Equinox Marina del Rey", "phone": "(310) 306-1000", "website": "https://cdn.contentful.com/clubs/southern-california/south-bay/marina", "brand": "Equinox Fitness", "brand:wikidata": "Q5384535", "nsi_id": "equinox-809afb"}},
{"type": "Feature", "id": "p-0T7NPefUiiFhcpYPHrxluPrOM=", "properties": {"ref": "138", "@spider": "equinox", "leisure": "fitness_centre", "addr:full": "32 Hudson Yards", "addr:city": "New York", "addr:state": "NY", "addr:postcode": "10001", "addr:country": "US", "name": "Equinox Hudson Yards", "phone": "(212) 328-9050", "website": "https://cdn.contentful.com/clubs/new-york/midtown/hudsonyards", "brand": "Equinox Fitness", "brand:wikidata": "Q5384535", "nsi_id": "equinox-809afb"}},
{"type": "Feature", "id": "Tfupvc9CGaKt5iJd7c0x0WR4I5c=", "properties": {"ref": "254", "@spider": "equinox", "leisure": "fitness_centre", "addr:full": "800 K Street NW, Suite 90", "addr:city": "Washington", "addr:state": "DC", "addr:postcode": "20001", "addr:country": "US", "name": "Equinox Anthem Row", "phone": "(202) 741-0015", "website": "https://cdn.contentful.com/clubs/washington-dc/anthemrow", "brand": "Equinox Fitness", "brand:wikidata": "Q5384535", "nsi_id": "equinox-809afb"}},
{"type": "Feature", "id": "866Y1ThOGGq06juSQZ2lefKNbqk=", "properties": {"ref": "136", "@spider": "equinox", "leisure": "fitness_centre", "addr:full": "315 Park Avenue South", "addr:city": "New York", "addr:state": "NY", "addr:postcode": "10010", "addr:country": "US", "name": "Equinox Gramercy", "phone": "(212) 320-9870", "website": "https://cdn.contentful.com/clubs/new-york/downtown/gramercy", "brand": "Equinox Fitness", "brand:wikidata": "Q5384535", "nsi_id": "equinox-809afb"}},
{"type": "Feature", "id": "mLqHHCEu1myF5b31Mqtyp2HIM5M=", "properties": {"ref": "127", "@spider": "equinox", "leisure": "fitness_centre", "addr:full": "129 West 41st Street", "addr:city": "New York", "addr:state": "NY", "addr:postcode": "10036", "addr:country": "US", "name": "Equinox Bryant Park", "phone": "(212) 299-0562", "website": "https://cdn.contentful.com/clubs/new-york/midtown/bryantpark", "brand": "Equinox Fitness", "brand:wikidata": "Q5384535", "nsi_id": "equinox-809afb"}},
{"type": "Feature", "id": "rEcCYAGWCCouB3uhGvWr7dn6USk=", "properties": {"ref": "102", "@spider": "equinox", "leisure": "fitness_centre", "addr:full": "897  Broadway", "addr:city": "New York", "addr:state": "NY", "addr:postcode": "10003", "addr:country": "US", "name": "Equinox Flatiron", "phone": "(212) 780-9300", "website": "https://cdn.contentful.com/clubs/new-york/downtown/flatiron", "brand": "Equinox Fitness", "brand:wikidata": "Q5384535", "nsi_id": "equinox-809afb"}},
{"type": "Feature", "id": "BruVEyllA1gDmYwAerCbjlonTk8=", "properties": {"ref": "454", "@spider": "equinox", "leisure": "fitness_centre", "addr:full": "4444 Westheimer Road", "addr:city": "Houston", "addr:state": "TX", "addr:postcode": "77027", "addr:country": "US", "name": "Equinox River Oaks", "phone": "(281) 936-0963", "website": "https://cdn.contentful.com/clubs/texas/riveroaks", "brand": "Equinox Fitness", "brand:wikidata": "Q5384535", "nsi_id": "equinox-809afb"}},
{"type": "Feature", "id": "0m4RYtSd9ct25esccxDblvJHniA=", "properties": {"ref": "132", "@spider": "equinox", "leisure": "fitness_centre", "addr:full": "330 E 61st St", "addr:city": "New York", "addr:state": "NY", "addr:postcode": "10065", "addr:country": "US", "name": "Equinox East 61st Street", "phone": "(212) 355-5100", "website": "https://cdn.contentful.com/clubs/new-york/uptown/east61st", "brand": "Equinox Fitness", "brand:wikidata": "Q5384535", "nsi_id": "equinox-809afb"}},
{"type": "Feature", "id": "-eXbqvrCnN_bWMO85sokS30oRrA=", "properties": {"ref": "105", "@spider": "equinox", "leisure": "fitness_centre", "addr:full": "817 Lexington Avenue", "addr:city": "New York", "addr:state": "NY", "addr:postcode": "10065", "addr:country": "US", "name": "Equinox East 63rd Street", "phone": "(212) 750-4900", "website": "https://cdn.contentful.com/clubs/new-york/uptown/east63rd", "brand": "Equinox Fitness", "brand:wikidata": "Q5384535", "nsi_id": "equinox-809afb"}},
{"type": "Feature", "id": "MGQ-B2akbV9tJg3y8siBdIudS_E=", "properties": {"ref": "117", "@spider": "equinox", "leisure": "fitness_centre", "addr:full": "1429 2nd Avenue", "addr:city": "New York", "addr:state": "NY", "addr:postcode": "10021", "addr:country": "US", "name": "Equinox East 74th Street", "phone": "(212) 249-3917", "website": "https://cdn.contentful.com/clubs/new-york/uptown/east74th", "brand": "Equinox Fitness", "brand:wikidata": "Q5384535", "nsi_id": "equinox-809afb"}},
{"type": "Feature", "id": "boD7mT6-hUsJSy11KsVW59lYM7g=", "properties": {"ref": "104", "@spider": "equinox", "leisure": "fitness_centre", "addr:full": "203 East 85th St", "addr:city": "New York", "addr:state": "NY", "addr:postcode": "10028", "addr:country": "US", "name": "Equinox East 85th Street", "phone": "(212) 439-8500", "website": "https://cdn.contentful.com/clubs/new-york/uptown/east85th", "brand": "Equinox Fitness", "brand:wikidata": "Q5384535", "nsi_id": "equinox-809afb"}},
{"type": "Feature", "id": "sYOKiEZW_0hG6_rpNkP-UtrB3Dk=", "properties": {"ref": "121", "@spider": "equinox", "leisure": "fitness_centre", "addr:full": "344 Amsterdam Avenue", "addr:city": "New York", "addr:state": "NY", "addr:postcode": "10024", "addr:country": "US", "name": "Equinox West 76th Street", "phone": "(212) 496-2374", "website": "https://cdn.contentful.com/clubs/new-york/uptown/west76th", "brand": "Equinox Fitness", "brand:wikidata": "Q5384535", "nsi_id": "equinox-809afb"}},
{"type": "Feature", "id": "4QclUQ6wGtFYn-VbKoDHLjl0KPY=", "properties": {"ref": "124", "@spider": "equinox", "leisure": "fitness_centre", "addr:full": "421 Hudson St.", "addr:city": "New York", "addr:state": "NY", "addr:postcode": "10014", "addr:country": "US", "name": "Equinox Printing House", "phone": "(212) 243-7600", "website": "https://cdn.contentful.com/clubs/new-york/downtown/printinghouse", "brand": "Equinox Fitness", "brand:wikidata": "Q5384535", "nsi_id": "equinox-809afb"}},
{"type": "Feature", "id": "5HbcwN3LVKdpb0B9OSfMtemkvFo=", "properties": {"ref": "144", "@spider": "equinox", "leisure": "fitness_centre", "addr:full": "1053 West Boston Post Road", "addr:city": "Mamaroneck", "addr:state": "NY", "addr:postcode": "10543", "addr:country": "US", "name": "Equinox Mamaroneck", "phone": "(914) 777-1919", "website": "https://cdn.contentful.com/clubs/new-york/westchester/mamaroneck", "brand": "Equinox Fitness", "brand:wikidata": "Q5384535", "nsi_id": "equinox-809afb"}},
{"type": "Feature", "id": "xpWCHqWfkf_ePt-Tj9V3acMRpwY=", "properties": {"ref": "106", "@spider": "equinox", "leisure": "fitness_centre", "addr:full": "250 East 54th Street", "addr:city": "New York", "addr:state": "NY", "addr:postcode": "10022", "addr:country": "US", "name": "Equinox East 54th Street", "phone": "(212) 277-5400", "website": "https://cdn.contentful.com/clubs/new-york/midtown/east54th", "brand": "Equinox Fitness", "brand:wikidata": "Q5384535", "nsi_id": "equinox-809afb"}},
{"type": "Feature", "id": "S5zhzb-1PLUHgpVulQgGp8fAUe0=", "properties": {"ref": "707", "@spider": "equinox", "leisure": "fitness_centre", "addr:full": "21530 Oxnard Street", "addr:city": "Woodland Hills", "addr:state": "CA", "addr:postcode": "91367", "addr:country": "US", "name": "Equinox Woodland Hills", "phone": "(818) 887-6450", "website": "https://cdn.contentful.com/clubs/southern-california/the-valley/woodlandhills", "brand": "Equinox Fitness", "brand:wikidata": "Q5384535", "nsi_id": "equinox-809afb"}},
{"type": "Feature", "id": "V3zsQqpmqW-CZK-rw5hm3ODs3gs=", "properties": {"ref": "252", "@spider": "equinox", "leisure": "fitness_centre", "addr:full": "4905 Elm Street", "addr:city": "Bethesda", "addr:state": "MD", "addr:postcode": "20814", "addr:country": "US", "name": "Equinox Bethesda", "phone": "(301) 652-1078", "website": "https://cdn.contentful.com/clubs/washington-dc/bethesda", "brand": "Equinox Fitness", "brand:wikidata": "Q5384535", "nsi_id": "equinox-809afb"}},
{"type": "Feature", "id": "TjFqTr1EErpQJ-Mi_w15UFaWsUY=", "properties": {"ref": "253", "@spider": "equinox", "leisure": "fitness_centre", "addr:full": "1170 22nd St NW", "addr:city": "Washington", "addr:state": "DC", "addr:postcode": "20037", "addr:country": "US", "name": "Equinox Sports Club Washington D.C.", "phone": "(202) 974-6600", "website": "https://cdn.contentful.com/clubs/washington-dc/sportsclubwashingtondc", "brand": "Equinox Fitness", "brand:wikidata": "Q5384535", "nsi_id": "equinox-809afb"}},
{"type": "Feature", "id": "lRA-nJVWAkIBpbKUJnkNCO8_JRQ=", "properties": {"ref": "129", "@spider": "equinox", "leisure": "fitness_centre", "addr:full": "203 East 92nd Street", "addr:city": "New York", "addr:state": "NY", "addr:postcode": "10128", "addr:country": "US", "name": "Equinox East 92nd Street", "phone": "(212) 671-1884", "website": "https://cdn.contentful.com/clubs/new-york/uptown/east92nd", "brand": "Equinox Fitness", "brand:wikidata": "Q5384535", "nsi_id": "equinox-809afb"}},
{"type": "Feature", "id": "SY8gOUmnPRdfFzTjXn1nV4TSCX0=", "properties": {"ref": "113", "@spider": "equinox", "leisure": "fitness_centre", "addr:full": "Time Warner Center (60th and Broadway)", "addr:city": "New York", "addr:state": "NY", "addr:postcode": "10019", "addr:country": "US", "name": "Equinox Columbus Circle", "phone": "(212) 871-0425", "website": "https://cdn.contentful.com/clubs/new-york/uptown/columbuscircle", "brand": "Equinox Fitness", "brand:wikidata": "Q5384535", "nsi_id": "equinox-809afb"}},
{"type": "Feature", "id": "c9FAJM4G3_7Rqid-weY7bkPpn24=", "properties": {"ref": "402", "@spider": "equinox", "leisure": "fitness_centre", "addr:full": "900 North Michigan", "addr:city": "Chicago", "addr:state": "IL", "addr:postcode": "60611", "addr:country": "US", "name": "Equinox Gold Coast", "phone": "(312) 254-2500", "website": "https://cdn.contentful.com/clubs/chicago/goldcoast", "brand": "Equinox Fitness", "brand:wikidata": "Q5384535", "nsi_id": "equinox-809afb"}},
{"type": "Feature", "id": "rN0l02QMG0UOXjhBjmcmOibe718=", "properties": {"ref": "718", "@spider": "equinox", "leisure": "fitness_centre", "addr:full": "207 Goode Avenue", "addr:city": "Glendale", "addr:state": "CA", "addr:postcode": "91203", "addr:country": "US", "name": "Equinox Glendale", "phone": "(818) 334-6841", "website": "https://cdn.contentful.com/clubs/southern-california/the-valley/glendale", "brand": "Equinox Fitness", "brand:wikidata": "Q5384535", "nsi_id": "equinox-809afb"}},
{"type": "Feature", "id": "YyxGotyWBRsX0_1POAlNhrqks3g=", "properties": {"ref": "852", "@spider": "equinox", "leisure": "fitness_centre", "addr:full": "199 Bay Street, Commerce Court West", "addr:city": "Toronto", "addr:postcode": "M5L 1E2", "addr:country": "CA", "name": "Equinox Bay Street", "phone": "(647) 497-5158", "website": "https://cdn.contentful.com/clubs/canada/toronto/bayst", "brand": "Equinox Fitness", "brand:wikidata": "Q5384535", "nsi_id": "equinox-809afb"}},
{"type": "Feature", "id": "5CD2cHVrJbX_lMyDJEQ8-TrNdeQ=", "properties": {"ref": "854", "@spider": "equinox", "leisure": "fitness_centre", "addr:full": "55 Avenue Road", "addr:city": "Toronto", "addr:postcode": "M5R 3L2", "addr:country": "CA", "name": "Equinox Yorkville", "phone": "(416) 961-8400", "website": "https://cdn.contentful.com/clubs/canada/toronto/yorkville", "brand": "Equinox Fitness", "brand:wikidata": "Q5384535", "nsi_id": "equinox-809afb"}},
{"type": "Feature", "id": "tZPyzOA1oltIgrU1KDy4RjinQ-Y=", "properties": {"ref": "108", "@spider": "equinox", "leisure": "fitness_centre", "addr:full": "521 Fifth Avenue", "addr:city": "New York", "addr:state": "NY", "addr:postcode": "10175", "addr:country": "US", "name": "Equinox East 43rd Street", "phone": "(212) 972-8000", "website": "https://cdn.contentful.com/clubs/new-york/midtown/east43rd", "brand": "Equinox Fitness", "brand:wikidata": "Q5384535", "nsi_id": "equinox-809afb"}},
{"type": "Feature", "id": "_U6NvLD9S5klYtD6N5LH3yPbn2w=", "properties": {"ref": "109", "@spider": "equinox", "leisure": "fitness_centre", "addr:full": "420 Lexington Avenue", "addr:city": "New York", "addr:state": "NY", "addr:postcode": "10170", "addr:country": "US", "name": "Equinox East 44th Street", "phone": "(212) 953-2499", "website": "https://cdn.contentful.com/clubs/new-york/midtown/east44th", "brand": "Equinox Fitness", "brand:wikidata": "Q5384535", "nsi_id": "equinox-809afb"}},
{"type": "Feature", "id": "3EqDS2osoAtbaAN2C1CC3MQeEK8=", "properties": {"ref": "115", "@spider": "equinox", "leisure": "fitness_centre", "addr:full": "1 Park Avenue", "addr:city": "New York", "addr:state": "NY", "addr:postcode": "10016", "addr:country": "US", "name": "Equinox Park Avenue", "phone": "(212) 779-1727", "website": "https://cdn.contentful.com/clubs/new-york/midtown/park", "brand": "Equinox Fitness", "brand:wikidata": "Q5384535", "nsi_id": "equinox-809afb"}},
{"type": "Feature", "id": "nW-7_0zvrMXpfrOSX5IAtysb7WY=", "properties": {"ref": "107", "@spider": "equinox", "leisure": "fitness_centre", "addr:full": "1633 Broadway", "addr:city": "New York", "addr:state": "NY", "addr:postcode": "10019", "addr:country": "US", "name": "Equinox West 50th Street", "phone": "(212) 541-7000", "website": "https://cdn.contentful.com/clubs/new-york/midtown/west50th", "brand": "Equinox Fitness", "brand:wikidata": "Q5384535", "nsi_id": "equinox-809afb"}},
{"type": "Feature", "id": "PQ44h1Tlk0BDxmqhM1oJqfApk7M=", "properties": {"ref": "451", "@spider": "equinox", "leisure": "fitness_centre", "addr:full": "4023 Oak Lawn Avenue", "addr:city": "Dallas", "addr:state": "TX", "addr:postcode": "75219", "addr:country": "US", "name": "Equinox Highland Park Dallas", "phone": "(214) 443-9009", "website": "https://cdn.contentful.com/clubs/texas/highlandpark-dallas", "brand": "Equinox Fitness", "brand:wikidata": "Q5384535", "nsi_id": "equinox-809afb"}},
{"type": "Feature", "id": "5ZTjaOXne-v4gszc-6Pxjqq4EwQ=", "properties": {"ref": "455", "@spider": "equinox", "leisure": "fitness_centre", "addr:full": "6109 West Park Boulevard", "addr:city": "Plano", "addr:state": "Texas", "addr:postcode": "75093", "addr:country": "US", "name": "Equinox Plano", "phone": "(214) 919-7409", "website": "https://cdn.contentful.com/clubs/texas/plano", "brand": "Equinox Fitness", "brand:wikidata": "Q5384535", "nsi_id": "equinox-809afb"}},
{"type": "Feature", "id": "SOoyOnPRe8aaO95HzgzfzNtTUs0=", "properties": {"ref": "452", "@spider": "equinox", "leisure": "fitness_centre", "addr:full": "8611 Hillcrest Road", "addr:city": "Dallas", "addr:state": "TX", "addr:postcode": "75225", "addr:country": "US", "name": "Equinox Preston Hollow", "phone": "(214) 265-5512", "website": "https://cdn.contentful.com/clubs/texas/prestonhollow", "brand": "Equinox Fitness", "brand:wikidata": "Q5384535", "nsi_id": "equinox-809afb"}},
{"type": "Feature", "id": "NzRZbL8_Fq_fGymLi1tQNkPhCJg=", "properties": {"ref": "251", "@spider": "equinox", "leisure": "fitness_centre", "addr:full": "8065 Leesburg Pike.", "addr:city": "Vienna", "addr:state": "VA", "addr:postcode": "22182", "addr:country": "US", "name": "Equinox Tysons Corner", "phone": "(703) 790-6193", "website": "https://cdn.contentful.com/clubs/washington-dc/tysonscorner", "brand": "Equinox Fitness", "brand:wikidata": "Q5384535", "nsi_id": "equinox-809afb"}},
{"type": "Feature", "id": "P3L3TNBkSoziZ7dkm7Xt4mlMPQk=", "properties": {"ref": "734", "@spider": "equinox", "leisure": "fitness_centre", "addr:full": "7710 El Camino Real", "addr:city": "Carlsbad", "addr:state": "CA", "addr:postcode": "92009", "addr:country": "US", "name": "Equinox La Costa", "phone": "(760) 268-9657", "website": "https://cdn.contentful.com/clubs/southern-california/san-diego/lacosta", "brand": "Equinox Fitness", "brand:wikidata": "Q5384535", "nsi_id": "equinox-809afb"}},
{"type": "Feature", "id": "4LHQx89-LbmP9rrAwPX8NiOIr00=", "properties": {"ref": "714", "@spider": "equinox", "leisure": "fitness_centre", "addr:full": "16830 Ventura Boulevard", "addr:city": "Encino", "addr:state": "CA", "addr:postcode": "91436", "addr:country": "US", "name": "Equinox Encino", "phone": "(818) 922-0799", "website": "https://cdn.contentful.com/clubs/southern-california/the-valley/encino", "brand": "Equinox Fitness", "brand:wikidata": "Q5384535", "nsi_id": "equinox-809afb"}},
{"type": "Feature", "id": "uTmNoE8a0OHX4Sog04YmUTn-P8E=", "properties": {"ref": "148", "@spider": "equinox", "leisure": "fitness_centre", "addr:full": "16 Old Track Road", "addr:city": "Greenwich", "addr:state": "CT", "addr:postcode": "06830", "addr:country": "US", "name": "Equinox Greenwich CT", "phone": "(203) 863-0070", "website": "https://cdn.contentful.com/clubs/connecticut/greenwich-ct", "brand": "Equinox Fitness", "brand:wikidata": "Q5384535", "nsi_id": "equinox-809afb"}},
{"type": "Feature", "id": "Er92gw1DSN1iuNyoQQY8Mqj-Y70=", "properties": {"ref": "143", "@spider": "equinox", "leisure": "fitness_centre", "addr:full": "90 Northern Boulevard", "addr:city": "Greenvale", "addr:state": "NY", "addr:postcode": "11548", "addr:country": "US", "name": "Equinox Roslyn", "phone": "(516) 403-4444", "website": "https://cdn.contentful.com/clubs/new-york/long-island/roslyn", "brand": "Equinox Fitness", "brand:wikidata": "Q5384535", "nsi_id": "equinox-809afb"}},
{"type": "Feature", "id": "xJ5fSlvF9u02g7Szo2Muf3oIUGY=", "properties": {"ref": "405", "@spider": "equinox", "leisure": "fitness_centre", "addr:full": "2355 North Lincoln Avenue", "addr:city": "Chicago", "addr:state": "Illinois", "addr:postcode": "60614", "addr:country": "US", "name": "Equinox Lincoln Common", "phone": "(312) 796-6850", "website": "https://cdn.contentful.com/clubs/chicago/lincolncommon", "brand": "Equinox Fitness", "brand:wikidata": "Q5384535", "nsi_id": "equinox-809afb"}},
{"type": "Feature", "id": "3JZRodsP7dbxTI-I3cG1kJI-VW4=", "properties": {"ref": "122", "@spider": "equinox", "leisure": "fitness_centre", "addr:full": "200 Orchard Street", "addr:city": "New York", "addr:state": "NY", "addr:postcode": "10002", "addr:country": "US", "name": "Equinox Orchard Street", "phone": "(212) 501-1450", "website": "https://cdn.contentful.com/clubs/new-york/downtown/orchardst", "brand": "Equinox Fitness", "brand:wikidata": "Q5384535", "nsi_id": "equinox-809afb"}},
{"type": "Feature", "id": "mF_Q9POf0Pvu81Nrzqyjm6SxY6Y=", "properties": {"ref": "135", "@spider": "equinox", "leisure": "fitness_centre", "addr:full": "0 Bond Street", "addr:city": "New York", "addr:state": "NY", "addr:postcode": "10012", "addr:country": "US", "name": "Equinox Bond Street", "phone": "(212) 419-3273", "website": "https://cdn.contentful.com/clubs/new-york/downtown/bondst", "brand": "Equinox Fitness", "brand:wikidata": "Q5384535", "nsi_id": "equinox-809afb"}}]}