{"type":"FeatureCollection","features":[{"type": "Feature", "id": "BiI6x8OkUVO1TfdbBR6kEcGdwUA=", "properties": {"ref": "Hiawatha Boyson Rd", "@spider": "erbertandgerberts", "amenity": "fast_food", "cuisine": "sandwich", "official_name": "Erbert & Gerbert's Sandwich Shop", "takeaway": "yes", "addr:full": "1225 Boyson Rd", "addr:city": "Hiawatha", "addr:state": "IA", "addr:postcode": "52233", "name": "Hiawatha Boyson Rd", "phone": "319-393-3261", "website": "https://www.erbertandgerberts.com/locations/hiawatha-boyson-rd/", "brand": "Erbert & Gerbert's", "brand:wikidata": "Q5385097", "nsi_id": "erbertandgerberts-4d2ff4"}, "geometry": {"type": "Point", "coordinates": [-91.689642, 42.043889]}},
{"type": "Feature", "id": "ZZAdSNngm6yQcF8Jy80QqXyYy6M=", "properties": {"ref": "Antigo South Superior St", "@spider": "erbertandgerberts", "amenity": "fast_food", "cuisine": "sandwich", "official_name": "Erbert & Gerbert's Sandwich Shop", "takeaway": "yes", "addr:full": "709 S. Superior St.", "addr:city": "Antigo", "addr:state": "WI", "addr:postcode": "54409", "name": "Antigo South Superior St", "phone": "715-627-7130", "website": "https://www.erbertandgerberts.com/locations/antigo-south-superior-st/", "brand": "Erbert & Gerbert's", "brand:wikidata": "Q5385097", "nsi_id": "erbertandgerberts-4d2ff4"}, "geometry": {"type": "Point", "coordinates": [-89.152671, 45.126686]}},
{"type": "Feature", "id": "SkSBXbvCYH5_FIQkpbtlUefoL2o=", "properties": {"ref": "Champlin Aquila Dr", "@spider": "erbertandgerberts", "amenity": "fast_food", "cuisine": "sandwich", "official_name": "Erbert & Gerbert's Sandwich Shop", "takeaway": "yes", "addr:full": "11350 Aquila Dr. N.", "addr:city": "Champlin", "addr:state": "MN", "addr:postcode": "55316", "name": "Champlin Aquila Dr", "phone": "763-363-8400", "website": "https://www.erbertandgerberts.com/locations/champlin-aquila-dr/", "brand": "Erbert & Gerbert's", "brand:wikidata": "Q5385097", "nsi_id": "erbertandgerberts-4d2ff4"}, "geometry": {"type": "Point", "coordinates": [-93.389136, 45.157852]}},
{"type": "Feature", "id": "6usVPfiLJvh5unO_aHNeldGEUbI=", "properties": {"ref": "Green Bay Main St", "@spider": "erbertandgerberts", "amenity": "fast_food", "cuisine": "sandwich", "official_name": "Erbert & Gerbert's Sandwich Shop", "takeaway": "yes", "addr:full": "2235 Main St.", "addr:city": "Green Bay", "addr:state": "WI", "addr:postcode": "54302", "name": "Green Bay Main St", "phone": "920-489-8529", "website": "https://www.erbertandgerberts.com/locations/green-bay-main-st/", "brand": "Erbert & Gerbert's", "brand:wikidata": "Q5385097", "nsi_id": "erbertandgerberts-4d2ff4"}, "geometry": {"type": "Point", "coordinates": [-87.969924, 44.484262]}},
{"type": "Feature", "id": "FUCGTG58PIc_XXcKLJ34rSFLMTY=", "properties": {"ref": "Sartell 7th St North", "@spider": "erbertandgerberts", "amenity": "fast_food", "cuisine": "sandwich", "official_name": "Erbert & Gerbert's Sandwich Shop", "takeaway": "yes", "addr:full": "1001 7th St. N.", "addr:city": "Sartell", "addr:state": "MN", "addr:postcode": "56377", "name": "Sartell 7th St North", "phone": "320-253-5939", "website": "https://www.erbertandgerberts.com/locations/sartell-7th-st-north/", "brand": "Erbert & Gerbert's", "brand:wikidata": "Q5385097", "nsi_id": "erbertandgerberts-4d2ff4"}, "geometry": {"type": "Point", "coordinates": [-94.225459, 45.630409]}},
{"type": "Feature", "id": "7Os6v7z-x3QUWp05e6CFeLt9_jc=", "properties": {"ref": "Green Bay West Mason St", "@spider": "erbertandgerberts", "amenity": "fast_food", "cuisine": "sandwich", "official_name": "Erbert & Gerbert's Sandwich Shop", "takeaway": "yes", "addr:full": "2370 West Mason St.", "addr:city": "Green Bay", "addr:state": "WI", "addr:postcode": "54303", "name": "Green Bay West Mason St", "phone": "920-857-9196", "website": "https://www.erbertandgerberts.com/locations/green-bay-west-mason-st/", "brand": "Erbert & Gerbert's", "brand:wikidata": "Q5385097", "nsi_id": "erbertandgerberts-4d2ff4"}, "geometry": {"type": "Point", "coordinates": [-88.088715, 44.524626]}},
{"type": "Feature", "id": "rNKtQTa30hPEvQBst1Rwpfgr9d8=", "properties": {"ref": "Anoka 7th Ave", "@spider": "erbertandgerberts", "amenity": "fast_food", "cuisine": "sandwich", "official_name": "Erbert & Gerbert's Sandwich Shop", "takeaway": "yes", "addr:full": "2371 7th Ave.", "addr:city": "Anoka", "addr:state": "MN", "addr:postcode": "55303", "name": "Anoka 7th Ave", "phone": "763-406-7600", "website": "https://www.erbertandgerberts.com/locations/anoka-7th-ave/", "brand": "Erbert & Gerbert's", "brand:wikidata": "Q5385097", "nsi_id": "erbertandgerberts-4d2ff4"}, "geometry": {"type": "Point", "coordinates": [-93.378853, 45.202894]}},
{"type": "Feature", "id": "4561LcYPeUhZtnXkafRelrVn7Hg=", "properties": {"ref": "Lake Hallie Melby St", "@spider": "erbertandgerberts", "amenity": "fast_food", "cuisine": "sandwich", "official_name": "Erbert & Gerbert's Sandwich Shop", "takeaway": "yes", "addr:full": "1433 Commercial Blvd.", "addr:city": "Chippewa Falls", "addr:state": "WI", "addr:postcode": "54729", "name": "Lake Hallie Melby St", "phone": "715-833-2450", "website": "https://www.erbertandgerberts.com/locations/lake-hallie-melby-st/", "brand": "Erbert & Gerbert's", "brand:wikidata": "Q5385097", "nsi_id": "erbertandgerberts-4d2ff4"}, "geometry": {"type": "Point", "coordinates": [-91.429091, 44.863359]}},
{"type": "Feature", "id": "Q3V82HAXIanAXrZCAfYkEeaVaTA=", "properties": {"ref": "Menomonie Broadway St", "@spider": "erbertandgerberts", "amenity": "fast_food", "cuisine": "sandwich", "official_name": "Erbert & Gerbert's Sandwich Shop", "takeaway": "yes", "addr:full": "1103 Broadway St. S.", "addr:city": "Menomonie", "addr:state": "WI", "addr:postcode": "54751", "name": "Menomonie Broadway St", "phone": "715-578-9000", "website": "https://www.erbertandgerberts.com/locations/menomonie-broadway-st/", "brand": "Erbert & Gerbert's", "brand:wikidata": "Q5385097", "nsi_id": "erbertandgerberts-4d2ff4"}, "geometry": {"type": "Point", "coordinates": [-91.930516, 44.872653]}},
{"type": "Feature", "id": "dVVXtbbVNdInNo8GN-nzK5DHxBE=", "properties": {"ref": "Minneapolis New Brighton Blvd", "@spider": "erbertandgerberts", "amenity": "fast_food", "cuisine": "sandwich", "official_name": "Erbert & Gerbert's Sandwich Shop", "takeaway": "yes", "addr:full": "1730 New Brighton Blvd.", "addr:city": "Minneapolis", "addr:state": "MN", "addr:postcode": "55413", "name": "Minneapolis New Brighton Blvd", "phone": "612-605-6605", "website": "https://www.erbertandgerberts.com/locations/minneapolis-new-brighton-blvd/", "brand": "Erbert & Gerbert's", "brand:wikidata": "Q5385097", "nsi_id": "erbertandgerberts-4d2ff4"}, "geometry": {"type": "Point", "coordinates": [-93.228054, 45.0057]}},
{"type": "Feature", "id": "myDl6cxwNk7Xt1zP4qLCMupvtu4=", "properties": {"ref": "Saint Paul Energy Park", "@spider": "erbertandgerberts", "amenity": "fast_food", "cuisine": "sandwich", "official_name": "Erbert & Gerbert's Sandwich Shop", "takeaway": "yes", "addr:full": "2233 Energy Park Dr.", "addr:city": "Saint Paul", "addr:state": "MN", "addr:postcode": "55108", "name": "Saint Paul Energy Park", "phone": "651-204-6400", "website": "https://www.erbertandgerberts.com/locations/saint-paul-energy-park/", "brand": "Erbert & Gerbert's", "brand:wikidata": "Q5385097", "nsi_id": "erbertandgerberts-4d2ff4"}, "geometry": {"type": "Point", "coordinates": [-93.1949, 44.974713]}},
{"type": "Feature", "id": "SZgr2lW5c_5RcZ73KOnUCewvS_s=", "properties": {"ref": "Bloomington Lyndale", "@spider": "erbertandgerberts", "amenity": "fast_food", "cuisine": "sandwich", "official_name": "Erbert & Gerbert's Sandwich Shop", "takeaway": "yes", "addr:full": "9724 Lyndale Ave. S.", "addr:city": "Bloomington", "addr:state": "MN", "addr:postcode": "55420", "name": "Bloomington Lyndale", "phone": "952-283-2471", "website": "https://www.erbertandgerberts.com/locations/bloomington-lyndale/", "brand": "Erbert & Gerbert's", "brand:wikidata": "Q5385097", "nsi_id": "erbertandgerberts-4d2ff4"}, "geometry": {"type": "Point", "coordinates": [-93.289568, 44.827203]}},
{"type": "Feature", "id": "ryJhv3k8FLlTAHWKIkevplvqh8s=", "properties": {"ref": "North Mankato Commerce", "@spider": "erbertandgerberts", "amenity": "fast_food", "cuisine": "sandwich", "official_name": "Erbert & Gerbert's Sandwich Shop", "takeaway": "yes", "addr:full": "1710 Commerce Dr.", "addr:city": "North Mankato", "addr:state": "MN", "addr:postcode": "56003", "name": "North Mankato Commerce", "phone": "507-625-2121", "website": "https://www.erbertandgerberts.com/locations/north-mankato-commerce/", "brand": "Erbert & Gerbert's", "brand:wikidata": "Q5385097", "nsi_id": "erbertandgerberts-4d2ff4"}, "geometry": {"type": "Point", "coordinates": [-94.034942, 44.179237]}},
{"type": "Feature", "id": "-HCcku1izhbKjQpGJ3UUWHivVVU=", "properties": {"ref": "Hibbing 9th Ave West", "@spider": "erbertandgerberts", "amenity": "fast_food", "cuisine": "sandwich", "official_name": "Erbert & Gerbert's Sandwich Shop", "takeaway": "yes", "addr:full": "4130 9th Ave. W.", "addr:city": "Hibbing", "addr:state": "MN", "addr:postcode": "55746", "name": "Hibbing 9th Ave West", "phone": "218-262-2727", "website": "https://www.erbertandgerberts.com/locations/hibbing-9th-ave-west/", "brand": "Erbert & Gerbert's", "brand:wikidata": "Q5385097", "nsi_id": "erbertandgerberts-4d2ff4"}, "geometry": {"type": "Point", "coordinates": [-92.951126, 47.399285]}},
{"type": "Feature", "id": "wUla80dXzq6kKrKtZg6XVvasrII=", "properties": {"ref": "Albert Lea Bridge Ave", "@spider": "erbertandgerberts", "amenity": "fast_food", "cuisine": "sandwich", "official_name": "Erbert & Gerbert's Sandwich Shop", "takeaway": "yes", "addr:full": "132 Bridge Ave.", "addr:city": "Albert Lea", "addr:state": "MN", "addr:postcode": "56007", "name": "Albert Lea Bridge Ave", "phone": "507-473-2033", "website": "https://www.erbertandgerberts.com/locations/albert-lea-bridge-ave/", "brand": "Erbert & Gerbert's", "brand:wikidata": "Q5385097", "nsi_id": "erbertandgerberts-4d2ff4"}, "geometry": {"type": "Point", "coordinates": [-93.362724, 43.650567]}},
{"type": "Feature", "id": "Rzp2oF8PDAdC8GsmuZY6OvuMQzI=", "properties": {"ref": "Eau Claire East Clairemont Ave", "@spider": "erbertandgerberts", "amenity": "fast_food", "cuisine": "sandwich", "official_name": "Erbert & Gerbert's Sandwich Shop", "takeaway": "yes", "addr:full": "2308 E. Clairemont Ave.", "addr:city": "Eau Claire", "addr:state": "WI", "addr:postcode": "54701", "name": "Eau Claire East Clairemont Ave", "phone": "715-552-4449", "website": "https://www.erbertandgerberts.com/locations/eau-claire-east-clairemont-ave/", "brand": "Erbert & Gerbert's", "brand:wikidata": "Q5385097", "nsi_id": "erbertandgerberts-4d2ff4"}, "geometry": {"type": "Point", "coordinates": [-91.46747, 44.795013]}},
{"type": "Feature", "id": "of7x_MPP-1eeZTjduBs2p8LI6I0=", "properties": {"ref": "Wayne State College", "@spider": "erbertandgerberts", "amenity": "fast_food", "cuisine": "sandwich", "official_name": "Erbert & Gerbert's Sandwich Shop", "takeaway": "yes", "addr:full": "1111 Main St.", "addr:city": "Wayne", "addr:state": "NE", "addr:postcode": "68787", "name": "Wayne State College", "phone": "402-375-3675", "website": "https://www.erbertandgerberts.com/locations/wayne-state-college/", "brand": "Erbert & Gerbert's", "brand:wikidata": "Q5385097", "nsi_id": "erbertandgerberts-4d2ff4"}, "geometry": {"type": "Point", "coordinates": [-97.013137, 42.239743]}},
{"type": "Feature", "id": "zf0QHC2OyLS_JFJASULxyA-wTDY=", "properties": {"ref": "University of North Carolina \u2013 Charlotte", "@spider": "erbertandgerberts", "amenity": "fast_food", "cuisine": "sandwich", "official_name": "Erbert & Gerbert's Sandwich Shop", "takeaway": "yes", "addr:full": "8845 Craver Rd.", "addr:city": "Charlotte", "addr:state": "NC", "addr:postcode": "28223", "name": "University of North Carolina \u2013 Charlotte", "phone": "704-687-7052", "website": "https://www.erbertandgerberts.com/locations/university-of-north-carolina-charlotte/", "brand": "Erbert & Gerbert's", "brand:wikidata": "Q5385097", "nsi_id": "erbertandgerberts-4d2ff4"}, "geometry": {"type": "Point", "coordinates": [-80.733659, 35.310017]}},
{"type": "Feature", "id": "TIEM6MVl1ialcNNDrtGlU5Qkz2s=", "properties": {"ref": "University of Toledo", "@spider": "erbertandgerberts", "amenity": "fast_food", "cuisine": "sandwich", "official_name": "Erbert & Gerbert's Sandwich Shop", "takeaway": "yes", "addr:full": "2965 W. Centennial Drive Toledo", "addr:city": "Toledo", "addr:state": "OH", "addr:postcode": "43606", "name": "University of Toledo", "website": "https://www.erbertandgerberts.com/locations/university-of-toledo/", "brand": "Erbert & Gerbert's", "brand:wikidata": "Q5385097", "nsi_id": "erbertandgerberts-4d2ff4"}, "geometry": {"type": "Point", "coordinates": [-83.610481, 41.662994]}},
{"type": "Feature", "id": "QDwAUgvy5e-MS9Fs0jZ--zNT7Uc=", "properties": {"ref": "University of South Dakota \u2013 Vermillion", "@spider": "erbertandgerberts", "amenity": "fast_food", "cuisine": "sandwich", "official_name": "Erbert & Gerbert's Sandwich Shop", "takeaway": "yes", "addr:full": "414 E. Clark St.", "addr:city": "Vermillion", "addr:state": "SD", "addr:postcode": "57069", "name": "University of South Dakota \u2013 Vermillion", "phone": "605-677-5899", "website": "https://www.erbertandgerberts.com/locations/university-of-south-dakota-vermillion/", "brand": "Erbert & Gerbert's", "brand:wikidata": "Q5385097", "nsi_id": "erbertandgerberts-4d2ff4"}, "geometry": {"type": "Point", "coordinates": [-96.925943, 42.782515]}},
{"type": "Feature", "id": "AendVoQoiY92bGA6MkCG0Gc4YLk=", "properties": {"ref": "Ferris State University-Big Rapids", "@spider": "erbertandgerberts", "amenity": "fast_food", "cuisine": "sandwich", "official_name": "Erbert & Gerbert's Sandwich Shop", "takeaway": "yes", "addr:full": "1301 S. State St.", "addr:city": "Big Rapids", "addr:state": "MI", "addr:postcode": "49307", "name": "Ferris State University-Big Rapids", "website": "https://www.erbertandgerberts.com/locations/ferris-state-university-big-rapids/", "brand": "Erbert & Gerbert's", "brand:wikidata": "Q5385097", "nsi_id": "erbertandgerberts-4d2ff4"}, "geometry": {"type": "Point", "coordinates": [-85.481959, 43.683435]}},
{"type": "Feature", "id": "gh7sW02BIRsLoRjcxQcyB3es5xE=", "properties": {"ref": "University of Wisconsin-La Crosse, Student Union", "@spider": "erbertandgerberts", "amenity": "fast_food", "cuisine": "sandwich", "official_name": "Erbert & Gerbert's Sandwich Shop", "takeaway": "yes", "addr:full": "1705 Badger St.", "addr:city": "La Crosse", "addr:state": "WI", "addr:postcode": "54601", "name": "University of Wisconsin-La Crosse, Student Union", "website": "https://www.erbertandgerberts.com/locations/university-of-wisconsin-la-crosse-student-union/", "brand": "Erbert & Gerbert's", "brand:wikidata": "Q5385097", "nsi_id": "erbertandgerberts-4d2ff4"}, "geometry": {"type": "Point", "coordinates": [-91.229804, 43.816659]}},
{"type": "Feature", "id": "nhGQ6Hh6bavVS11aDL0kaTrWlMc=", "properties": {"ref": "University of Wisconsin-Whitewater Esker", "@spider": "erbertandgerberts", "amenity": "fast_food", "cuisine": "sandwich", "official_name": "Erbert & Gerbert's Sandwich Shop", "takeaway": "yes", "addr:full": "400 N. Prairie St.", "addr:city": "Whitewater", "addr:state": "WI", "addr:postcode": "53190", "name": "University of Wisconsin-Whitewater Esker", "website": "https://www.erbertandgerberts.com/locations/university-of-wisconsin-whitewater-esker/", "brand": "Erbert & Gerbert's", "brand:wikidata": "Q5385097", "nsi_id": "erbertandgerberts-4d2ff4"}, "geometry": {"type": "Point", "coordinates": [-88.740814, 42.841824]}},
{"type": "Feature", "id": "r6F10YAd5VwJJEPm_OXB0HjTz5M=", "properties": {"ref": "Saint Cloud State University", "@spider": "erbertandgerberts", "amenity": "fast_food", "cuisine": "sandwich", "official_name": "Erbert & Gerbert's Sandwich Shop", "takeaway": "yes", "addr:full": "651 First Ave. S.", "addr:city": "St. Cloud", "addr:state": "MN", "addr:postcode": "56301", "name": "Saint Cloud State University", "website": "https://www.erbertandgerberts.com/locations/saint-cloud-state-university/", "brand": "Erbert & Gerbert's", "brand:wikidata": "Q5385097", "nsi_id": "erbertandgerberts-4d2ff4"}, "geometry": {"type": "Point", "coordinates": [-94.148854, 45.554092]}},
{"type": "Feature", "id": "MFUuYUeNnONTnvggq24bshylq2I=", "properties": {"ref": "Grand Valley State University-Grand Rapids", "@spider": "erbertandgerberts", "amenity": "fast_food", "cuisine": "sandwich", "official_name": "Erbert & Gerbert's Sandwich Shop", "takeaway": "yes", "addr:full": "401 W. Fulton St.", "addr:city": "Grand Rapids", "addr:state": "MI", "addr:postcode": "49504", "name": "Grand Valley State University-Grand Rapids", "website": "https://www.erbertandgerberts.com/locations/grand-valley-state-university-grand-rapids/", "brand": "Erbert & Gerbert's", "brand:wikidata": "Q5385097", "nsi_id": "erbertandgerberts-4d2ff4"}, "geometry": {"type": "Point", "coordinates": [-85.679925, 42.964132]}},
{"type": "Feature", "id": "pvCZwmfQ7P4HhKBYHjwXWg5swKQ=", "properties": {"ref": "Western Technical College \u2013 La Crosse", "@spider": "erbertandgerberts", "amenity": "fast_food", "cuisine": "sandwich", "official_name": "Erbert & Gerbert's Sandwich Shop", "takeaway": "yes", "addr:full": "400 Seventh St. N.", "addr:city": "La Crosse", "addr:state": "WI", "addr:postcode": "54602", "name": "Western Technical College \u2013 La Crosse", "phone": "608-785-9403", "website": "https://www.erbertandgerberts.com/locations/western-technical-college-la-crosse/", "brand": "Erbert & Gerbert's", "brand:wikidata": "Q5385097", "nsi_id": "erbertandgerberts-4d2ff4"}, "geometry": {"type": "Point", "coordinates": [-91.247337, 43.80764]}},
{"type": "Feature", "id": "7XEYunfftRUIe1tFS7BQN8-kSrM=", "properties": {"ref": "University of Iowa \u2013 Iowa City", "@spider": "erbertandgerberts", "amenity": "fast_food", "cuisine": "sandwich", "official_name": "Erbert & Gerbert's Sandwich Shop", "takeaway": "yes", "addr:full": "125 N. Madison St.", "addr:city": "Iowa City", "addr:state": "IA", "addr:postcode": "52242", "name": "University of Iowa \u2013 Iowa City", "website": "https://www.erbertandgerberts.com/locations/university-of-iowa-iowa-city/", "brand": "Erbert & Gerbert's", "brand:wikidata": "Q5385097", "nsi_id": "erbertandgerberts-4d2ff4"}, "geometry": {"type": "Point", "coordinates": [-91.537811, 41.662784]}},
{"type": "Feature", "id": "YloMAu5Eh2kgq8moP5NSXFvix54=", "properties": {"ref": "Marquette University", "@spider": "erbertandgerberts", "amenity": "fast_food", "cuisine": "sandwich", "official_name": "Erbert & Gerbert's Sandwich Shop", "takeaway": "yes", "addr:full": "1442 W. Wisconsin Ave.", "addr:city": "Milwaukee", "addr:state": "WI", "addr:postcode": "53233", "name": "Marquette University", "website": "https://www.erbertandgerberts.com/locations/marquette-university/", "brand": "Erbert & Gerbert's", "brand:wikidata": "Q5385097", "nsi_id": "erbertandgerberts-4d2ff4"}, "geometry": {"type": "Point", "coordinates": [-87.928215, 43.038504]}},
{"type": "Feature", "id": "r-JInZAAwl0ENIbnPB83HDuLQpc=", "properties": {"ref": "Creighton University", "@spider": "erbertandgerberts", "amenity": "fast_food", "cuisine": "sandwich", "official_name": "Erbert & Gerbert's Sandwich Shop", "takeaway": "yes", "addr:full": "2500 California Plz.", "addr:city": "Omaha", "addr:state": "NE", "addr:postcode": "68178", "name": "Creighton University", "website": "https://www.erbertandgerberts.com/locations/creighton-university/", "brand": "Erbert & Gerbert's", "brand:wikidata": "Q5385097", "nsi_id": "erbertandgerberts-4d2ff4"}, "geometry": {"type": "Point", "coordinates": [-95.941099, 41.264648]}},
{"type": "Feature", "id": "qxzAC7joEIKpHxNLmbMj9B9La18=", "properties": {"ref": "University of Wisconsin \u2013 Whitewater Drumlin", "@spider": "erbertandgerberts", "amenity": "fast_food", "cuisine": "sandwich", "official_name": "Erbert & Gerbert's Sandwich Shop", "takeaway": "yes", "addr:full": "W. Starin Rd.", "addr:city": "Whitewater", "addr:state": "WI", "addr:postcode": "53190", "name": "University of Wisconsin \u2013 Whitewater Drumlin", "website": "https://www.erbertandgerberts.com/locations/university-of-wisconsin-whitewater-drumlin/", "brand": "Erbert & Gerbert's", "brand:wikidata": "Q5385097", "nsi_id": "erbertandgerberts-4d2ff4"}, "geometry": {"type": "Point", "coordinates": [-88.740938, 42.841802]}},
{"type": "Feature", "id": "zmYSshpn3kOiZHXwHAC7IJOB24I=", "properties": {"ref": "University of Wisconsin \u2013 River Falls", "@spider": "erbertandgerberts", "amenity": "fast_food", "cuisine": "sandwich", "official_name": "Erbert & Gerbert's Sandwich Shop", "takeaway": "yes", "addr:full": "501 E. Wildrose Ave.", "addr:city": "River Falls", "addr:state": "WI", "addr:postcode": "54022", "name": "University of Wisconsin \u2013 River Falls", "phone": "715-425-3274", "website": "https://www.erbertandgerberts.com/locations/university-of-wisconsin-river-falls/", "brand": "Erbert & Gerbert's", "brand:wikidata": "Q5385097", "nsi_id": "erbertandgerberts-4d2ff4"}, "geometry": {"type": "Point", "coordinates": [-92.618246, 44.852387]}},
{"type": "Feature", "id": "I0rHbrQLqGdYjkNbqncCD5iuASc=", "properties": {"ref": "South Dakota State University \u2013 Brookings, Larson Commons", "@spider": "erbertandgerberts", "amenity": "fast_food", "cuisine": "sandwich", "official_name": "Erbert & Gerbert's Sandwich Shop", "takeaway": "yes", "addr:full": "901 Jackrabbit Ave", "addr:city": "Brookings", "addr:state": "SD", "addr:postcode": "57007", "name": "South Dakota State University \u2013 Brookings, Larson Commons", "phone": "605-697-2550", "website": "https://www.erbertandgerberts.com/locations/south-dakota-state-university-brookings-larson-commons/", "brand": "Erbert & Gerbert's", "brand:wikidata": "Q5385097", "nsi_id": "erbertandgerberts-4d2ff4"}, "geometry": {"type": "Point", "coordinates": [-96.779928, 44.314165]}},
{"type": "Feature", "id": "fE6fDE5zHXWCfDQF3gL74uSypJI=", "properties": {"ref": "University of Wisconsin \u2013 Eau Claire", "@spider": "erbertandgerberts", "amenity": "fast_food", "cuisine": "sandwich", "official_name": "Erbert & Gerbert's Sandwich Shop", "takeaway": "yes", "addr:full": "127 Roosevelt Ave.", "addr:city": "Eau Claire", "addr:state": "WI", "addr:postcode": "54701", "name": "University of Wisconsin \u2013 Eau Claire", "website": "https://www.erbertandgerberts.com/locations/university-of-wisconsin-eau-claire/", "brand": "Erbert & Gerbert's", "brand:wikidata": "Q5385097", "nsi_id": "erbertandgerberts-4d2ff4"}, "geometry": {"type": "Point", "coordinates": [-91.498219, 44.797323]}},
{"type": "Feature", "id": "2yM-yhDBg1xRi-C_D1VBemdVOcA=", "properties": {"ref": "University of Minnesota \u2013 Minneapolis", "@spider": "erbertandgerberts", "amenity": "fast_food", "cuisine": "sandwich", "official_name": "Erbert & Gerbert's Sandwich Shop", "takeaway": "yes", "addr:full": "300 Washington Ave. SE", "addr:city": "Minneapolis", "addr:state": "MN", "addr:postcode": "55455", "name": "University of Minnesota \u2013 Minneapolis", "website": "https://www.erbertandgerberts.com/locations/university-of-minnesota-minneapolis/", "brand": "Erbert & Gerbert's", "brand:wikidata": "Q5385097", "nsi_id": "erbertandgerberts-4d2ff4"}, "geometry": {"type": "Point", "coordinates": [-93.235339, 44.972994]}},
{"type": "Feature", "id": "oAtSO2ex5WSzZCRIO97A3mCCalE=", "properties": {"ref": "Freedom County Rd E", "@spider": "erbertandgerberts", "amenity": "fast_food", "cuisine": "sandwich", "official_name": "Erbert & Gerbert's Sandwich Shop", "takeaway": "yes", "addr:full": "N4012 County Rd E.", "addr:city": "Freedom", "addr:state": "WI", "addr:postcode": "54913", "name": "Freedom County Rd E", "phone": "920-687-5039", "website": "https://www.erbertandgerberts.com/locations/freedom-county-rd-e/", "brand": "Erbert & Gerbert's", "brand:wikidata": "Q5385097", "nsi_id": "erbertandgerberts-4d2ff4"}, "geometry": {"type": "Point", "coordinates": [-88.292075, 44.383256]}},
{"type": "Feature", "id": "yZSNDn1pwTT2NJ-kx4EUTXP8CUU=", "properties": {"ref": "West Saint Paul", "@spider": "erbertandgerberts", "amenity": "fast_food", "cuisine": "sandwich", "official_name": "Erbert & Gerbert's Sandwich Shop", "takeaway": "yes", "addr:full": "1907 S. Robert St.", "addr:city": "West Saint Paul", "addr:state": "MN", "addr:postcode": "55118", "name": "West Saint Paul", "website": "https://www.erbertandgerberts.com/locations/west-saint-paul/", "brand": "Erbert & Gerbert's", "brand:wikidata": "Q5385097", "nsi_id": "erbertandgerberts-4d2ff4"}, "geometry": {"type": "Point", "coordinates": [-93.081783, 44.887874]}},
{"type": "Feature", "id": "rk_YR0ptHdpsEpPLgkpLnLNeufA=", "properties": {"ref": "Grand Forks 32nd Ave", "@spider": "erbertandgerberts", "amenity": "fast_food", "cuisine": "sandwich", "official_name": "Erbert & Gerbert's Sandwich Shop", "takeaway": "yes", "addr:full": "3000 32nd Ave. S.", "addr:city": "Grand Forks", "addr:state": "ND", "addr:postcode": "58201", "name": "Grand Forks 32nd Ave", "phone": "701-757-3070", "website": "https://www.erbertandgerberts.com/locations/grand-forks-32nd-ave/", "brand": "Erbert & Gerbert's", "brand:wikidata": "Q5385097", "nsi_id": "erbertandgerberts-4d2ff4"}, "geometry": {"type": "Point", "coordinates": [-97.071699, 47.890133]}},
{"type": "Feature", "id": "eg2OqW57uD7ihC-YWS9B4FWm7FY=", "properties": {"ref": "Fargo Broadway North", "@spider": "erbertandgerberts", "amenity": "fast_food", "cuisine": "sandwich", "official_name": "Erbert & Gerbert's Sandwich Shop", "takeaway": "yes", "addr:full": "300 Broadway N.", "addr:city": "Fargo", "addr:state": "ND", "addr:postcode": "58102", "name": "Fargo Broadway North", "phone": "701-478-7827", "website": "https://www.erbertandgerberts.com/locations/fargo-broadway-north/", "brand": "Erbert & Gerbert's", "brand:wikidata": "Q5385097", "nsi_id": "erbertandgerberts-4d2ff4"}, "geometry": {"type": "Point", "coordinates": [-96.788013, 46.879328]}},
{"type": "Feature", "id": "kHFXccIaJZR-srxZo-liqswm8V8=", "properties": {"ref": "Apple Valley Cedar", "@spider": "erbertandgerberts", "amenity": "fast_food", "cuisine": "sandwich", "official_name": "Erbert & Gerbert's Sandwich Shop", "takeaway": "yes", "addr:full": "15050 Cedar Ave. S.", "addr:city": "Apple Valley", "addr:state": "MN", "addr:postcode": "55124", "name": "Apple Valley Cedar", "phone": "952-432-1300", "website": "https://www.erbertandgerberts.com/locations/apple-valley-cedar/", "brand": "Erbert & Gerbert's", "brand:wikidata": "Q5385097", "nsi_id": "erbertandgerberts-4d2ff4"}, "geometry": {"type": "Point", "coordinates": [-93.215351, 44.731378]}},
{"type": "Feature", "id": "XCQhIj-TruibVCOMTQ5afDKMdXU=", "properties": {"ref": "Bemidji Bemidji Ave", "@spider": "erbertandgerberts", "amenity": "fast_food", "cuisine": "sandwich", "official_name": "Erbert & Gerbert's Sandwich Shop", "takeaway": "yes", "addr:full": "1500 Bemidji Ave. N.", "addr:city": "Bemidji", "addr:state": "MN", "addr:postcode": "56601", "name": "Bemidji Bemidji Ave", "phone": "218-444-9700", "website": "https://www.erbertandgerberts.com/locations/bemidji-bemidji-ave/", "brand": "Erbert & Gerbert's", "brand:wikidata": "Q5385097", "nsi_id": "erbertandgerberts-4d2ff4"}, "geometry": {"type": "Point", "coordinates": [-94.879134, 47.48325]}},
{"type": "Feature", "id": "qpylfItFK0clELike633FM9-klQ=", "properties": {"ref": "Fargo 13th Ave South", "@spider": "erbertandgerberts", "amenity": "fast_food", "cuisine": "sandwich", "official_name": "Erbert & Gerbert's Sandwich Shop", "takeaway": "yes", "addr:full": "3402 13th Ave. S.", "addr:city": "Fargo", "addr:state": "ND", "addr:postcode": "58103", "name": "Fargo 13th Ave South", "phone": "701-478-7827", "website": "https://www.erbertandgerberts.com/locations/fargo-13th-ave-south/", "brand": "Erbert & Gerbert's", "brand:wikidata": "Q5385097", "nsi_id": "erbertandgerberts-4d2ff4"}, "geometry": {"type": "Point", "coordinates": [-96.836521, 46.860978]}},
{"type": "Feature", "id": "oyDsnhL34fcXmoihWSq0P1H6xfY=", "properties": {"ref": "Cloquet Hwy 33", "@spider": "erbertandgerberts", "amenity": "fast_food", "cuisine": "sandwich", "official_name": "Erbert & Gerbert's Sandwich Shop", "takeaway": "yes", "addr:full": "1414 Hwy 33", "addr:city": "Cloquet", "addr:state": "MN", "addr:postcode": "55720", "name": "Cloquet Hwy 33", "phone": "218-879-7827", "website": "https://www.erbertandgerberts.com/locations/cloquet-hwy-33/", "brand": "Erbert & Gerbert's", "brand:wikidata": "Q5385097", "nsi_id": "erbertandgerberts-4d2ff4"}, "geometry": {"type": "Point", "coordinates": [-92.45614, 46.702061]}},
{"type": "Feature", "id": "eS1hXwyNJ7DctoUMcNw9TrAGnbE=", "properties": {"ref": "Fargo 25th St South", "@spider": "erbertandgerberts", "amenity": "fast_food", "cuisine": "sandwich", "official_name": "Erbert & Gerbert's Sandwich Shop", "takeaway": "yes", "addr:full": "3060 25th St. S.", "addr:city": "Fargo", "addr:state": "ND", "addr:postcode": "58103", "name": "Fargo 25th St South", "phone": "701-478-7827", "website": "https://www.erbertandgerberts.com/locations/fargo-25th-st-south/", "brand": "Erbert & Gerbert's", "brand:wikidata": "Q5385097", "nsi_id": "erbertandgerberts-4d2ff4"}, "geometry": {"type": "Point", "coordinates": [-96.81842, 46.833958]}},
{"type": "Feature", "id": "WjmlcDc_5dcwVOB8VdnFyM1HBfw=", "properties": {"ref": "Lakeville Kenwood", "@spider": "erbertandgerberts", "amenity": "fast_food", "cuisine": "sandwich", "official_name": "Erbert & Gerbert's Sandwich Shop", "takeaway": "yes", "addr:full": "17714 Kenwood Trail", "addr:city": "Lakeville", "addr:state": "MN", "addr:postcode": "55044", "name": "Lakeville Kenwood", "phone": "952-892-0800", "website": "https://www.erbertandgerberts.com/locations/lakeville-kenwood/", "brand": "Erbert & Gerbert's", "brand:wikidata": "Q5385097", "nsi_id": "erbertandgerberts-4d2ff4"}, "geometry": {"type": "Point", "coordinates": [-93.281605, 44.69318]}},
{"type": "Feature", "id": "uYSOXpHVMWPLXLTabJVYm44ryzg=", "properties": {"ref": "Saint Paul", "@spider": "erbertandgerberts", "amenity": "fast_food", "cuisine": "sandwich", "official_name": "Erbert & Gerbert's Sandwich Shop", "takeaway": "yes", "addr:full": "334 Wabasha St. N.", "addr:city": "Saint Paul", "addr:state": "MN", "addr:postcode": "55102", "name": "Saint Paul", "phone": "651-330-8175", "website": "https://www.erbertandgerberts.com/locations/saint-paul/", "brand": "Erbert & Gerbert's", "brand:wikidata": "Q5385097", "nsi_id": "erbertandgerberts-4d2ff4"}, "geometry": {"type": "Point", "coordinates": [-93.093669, 44.945027]}},
{"type": "Feature", "id": "nEXs3PmVGFLY7jBIo2LuFCzYxeg=", "properties": {"ref": "Bismarck 9th St", "@spider": "erbertandgerberts", "amenity": "fast_food", "cuisine": "sandwich", "official_name": "Erbert & Gerbert's Sandwich Shop", "takeaway": "yes", "addr:full": "931 S. 9th St.", "addr:city": "Bismarck", "addr:state": "ND", "addr:postcode": "58504", "name": "Bismarck 9th St", "phone": "701-223-7827", "website": "https://www.erbertandgerberts.com/locations/bismarck-9th-st/", "brand": "Erbert & Gerbert's", "brand:wikidata": "Q5385097", "nsi_id": "erbertandgerberts-4d2ff4"}, "geometry": {"type": "Point", "coordinates": [-100.77768, 46.795801]}},
{"type": "Feature", "id": "AZWj5Na5F6nqpROSYs870-wHhxU=", "properties": {"ref": "Hudson Hanley Rd", "@spider": "erbertandgerberts", "amenity": "fast_food", "cuisine": "sandwich", "official_name": "Erbert & Gerbert's Sandwich Shop", "takeaway": "yes", "addr:full": "2521 Hanley Rd.", "addr:city": "Hudson", "addr:state": "WI", "addr:postcode": "54016", "name": "Hudson Hanley Rd", "phone": "715-531-1000", "website": "https://www.erbertandgerberts.com/locations/hudson-hanley-rd/", "brand": "Erbert & Gerbert's", "brand:wikidata": "Q5385097", "nsi_id": "erbertandgerberts-4d2ff4"}, "geometry": {"type": "Point", "coordinates": [-92.719749, 44.954961]}},
{"type": "Feature", "id": "xCBMA7ByjQvW6FO8MY4VoganUOA=", "properties": {"ref": "Moorhead 8th St", "@spider": "erbertandgerberts", "amenity": "fast_food", "cuisine": "sandwich", "official_name": "Erbert & Gerbert's Sandwich Shop", "takeaway": "yes", "addr:full": "212 8th St. S.", "addr:city": "Moorhead", "addr:state": "MN", "addr:postcode": "56560", "name": "Moorhead 8th St", "phone": "218-287-7827", "website": "https://www.erbertandgerberts.com/locations/moorhead-8th-st/", "brand": "Erbert & Gerbert's", "brand:wikidata": "Q5385097", "nsi_id": "erbertandgerberts-4d2ff4"}, "geometry": {"type": "Point", "coordinates": [-96.767566, 46.872271]}},
{"type": "Feature", "id": "_oKthjfR22-LRONiilkknrpf_HA=", "properties": {"ref": "Willmar 1st St South", "@spider": "erbertandgerberts", "amenity": "fast_food", "cuisine": "sandwich", "official_name": "Erbert & Gerbert's Sandwich Shop", "takeaway": "yes", "addr:full": "1303 1st St. S.", "addr:city": "Willmar", "addr:state": "MN", "addr:postcode": "56201", "name": "Willmar 1st St South", "phone": "320-262-3042", "website": "https://www.erbertandgerberts.com/locations/willmar-1st-st-south/", "brand": "Erbert & Gerbert's", "brand:wikidata": "Q5385097", "nsi_id": "erbertandgerberts-4d2ff4"}, "geometry": {"type": "Point", "coordinates": [-95.041885, 45.109711]}},
{"type": "Feature", "id": "3wAnWNzp2TcdiIRouv7MSOQc6ek=", "properties": {"ref": "Rochester 41st St", "@spider": "erbertandgerberts", "amenity": "fast_food", "cuisine": "sandwich", "official_name": "Erbert & Gerbert's Sandwich Shop", "takeaway": "yes", "addr:full": "2848 41st St. NW", "addr:city": "Rochester", "addr:state": "MN", "addr:postcode": "55901", "name": "Rochester 41st St", "phone": "507-280-0060", "website": "https://www.erbertandgerberts.com/locations/rochester-41st-st/", "brand": "Erbert & Gerbert's", "brand:wikidata": "Q5385097", "nsi_id": "erbertandgerberts-4d2ff4"}, "geometry": {"type": "Point", "coordinates": [-92.504328, 44.064968]}},
{"type": "Feature", "id": "H1hFelvtuRz13wzxMeE1_Tbj-8w=", "properties": {"ref": "Saint Cloud West", "@spider": "erbertandgerberts", "amenity": "fast_food", "cuisine": "sandwich", "official_name": "Erbert & Gerbert's Sandwich Shop", "takeaway": "yes", "addr:full": "4170 Division St.", "addr:city": "Saint Cloud", "addr:state": "MN", "addr:postcode": "56301", "name": "Saint Cloud West", "phone": "320-240-1111", "website": "https://www.erbertandgerberts.com/locations/saint-cloud-west/", "brand": "Erbert & Gerbert's", "brand:wikidata": "Q5385097", "nsi_id": "erbertandgerberts-4d2ff4"}, "geometry": {"type": "Point", "coordinates": [-94.212524, 45.55268]}},
{"type": "Feature", "id": "op1hbs_Bb9ojdpPHlFuRXS-5M5w=", "properties": {"ref": "Duluth Arrowhead Rd", "@spider": "erbertandgerberts", "amenity": "fast_food", "cuisine": "sandwich", "official_name": "Erbert & Gerbert's Sandwich Shop", "takeaway": "yes", "addr:full": "1350 W. Arrowhead Rd.", "addr:city": "Duluth", "addr:state": "MN", "addr:postcode": "55802", "name": "Duluth Arrowhead Rd", "phone": "218-724-8100", "website": "https://www.erbertandgerberts.com/locations/duluth-arrowhead-rd/", "brand": "Erbert & Gerbert's", "brand:wikidata": "Q5385097", "nsi_id": "erbertandgerberts-4d2ff4"}, "geometry": {"type": "Point", "coordinates": [-92.099164, 46.821186]}},
{"type": "Feature", "id": "Cwta6SxqhVbLGFYNtr-z8HX3NSk=", "properties": {"ref": "Mankato Madison Ave", "@spider": "erbertandgerberts", "amenity": "fast_food", "cuisine": "sandwich", "official_name": "Erbert & Gerbert's Sandwich Shop", "takeaway": "yes", "addr:full": "1780 Madison Ave.", "addr:city": "Mankato", "addr:state": "MN", "addr:postcode": "56001", "name": "Mankato Madison Ave", "phone": "507-385-1919", "website": "https://www.erbertandgerberts.com/locations/mankato-madison-ave/", "brand": "Erbert & Gerbert's", "brand:wikidata": "Q5385097", "nsi_id": "erbertandgerberts-4d2ff4"}, "geometry": {"type": "Point", "coordinates": [-93.958313, 44.167253]}},
{"type": "Feature", "id": "5eL_mO6b-32E84-dPYIuqCHJ1s8=", "properties": {"ref": "Superior Tower Ave", "@spider": "erbertandgerberts", "amenity": "fast_food", "cuisine": "sandwich", "official_name": "Erbert & Gerbert's Sandwich Shop", "takeaway": "yes", "addr:full": "1325 Tower Ave.", "addr:city": "Superior", "addr:state": "WI", "addr:postcode": "54880", "name": "Superior Tower Ave", "phone": "715-392-5305", "website": "https://www.erbertandgerberts.com/locations/superior-tower-ave/", "brand": "Erbert & Gerbert's", "brand:wikidata": "Q5385097", "nsi_id": "erbertandgerberts-4d2ff4"}, "geometry": {"type": "Point", "coordinates": [-92.104353, 46.722195]}},
{"type": "Feature", "id": "iTcknKhi064kHSY2-OuUNo3pXBo=", "properties": {"ref": "Wausau 4th St", "@spider": "erbertandgerberts", "amenity": "fast_food", "cuisine": "sandwich", "official_name": "Erbert & Gerbert's Sandwich Shop", "takeaway": "yes", "addr:full": "329 N. 4th St.", "addr:city": "Wausau", "addr:state": "WI", "addr:postcode": "54403", "name": "Wausau 4th St", "phone": "715-848-8300", "website": "https://www.erbertandgerberts.com/locations/wausau-4th-st/", "brand": "Erbert & Gerbert's", "brand:wikidata": "Q5385097", "nsi_id": "erbertandgerberts-4d2ff4"}, "geometry": {"type": "Point", "coordinates": [-89.626537, 44.959593]}},
{"type": "Feature", "id": "H7YDhORHpBnLCzmvHLL5Bwbh0QE=", "properties": {"ref": "Winona West 3rd St", "@spider": "erbertandgerberts", "amenity": "fast_food", "cuisine": "sandwich", "official_name": "Erbert & Gerbert's Sandwich Shop", "takeaway": "yes", "addr:full": "101 W. 3rd St.", "addr:city": "Winona", "addr:state": "MN", "addr:postcode": "55987", "name": "Winona West 3rd St", "phone": "507-474-ERBS", "website": "https://www.erbertandgerberts.com/locations/winona-west-3rd-st/", "brand": "Erbert & Gerbert's", "brand:wikidata": "Q5385097", "nsi_id": "erbertandgerberts-4d2ff4"}, "geometry": {"type": "Point", "coordinates": [-91.638112, 44.052688]}},
{"type": "Feature", "id": "lecSJWd_r7rgdbQOMZlG9mxXADw=", "properties": {"ref": "Appleton Casaloma Dr", "@spider": "erbertandgerberts", "amenity": "fast_food", "cuisine": "sandwich", "official_name": "Erbert & Gerbert's Sandwich Shop", "takeaway": "yes", "addr:full": "355 N. Casaloma Dr.", "addr:city": "Appleton", "addr:state": "WI", "addr:postcode": "54913", "name": "Appleton Casaloma Dr", "phone": "920-968-0503", "website": "https://www.erbertandgerberts.com/locations/appleton-casaloma-dr/", "brand": "Erbert & Gerbert's", "brand:wikidata": "Q5385097", "nsi_id": "erbertandgerberts-4d2ff4"}, "geometry": {"type": "Point", "coordinates": [-88.476755, 44.265424]}},
{"type": "Feature", "id": "M8IX3OwXyu4dzcbi1BxlpJb5YoA=", "properties": {"ref": "De Pere Reid St", "@spider": "erbertandgerberts", "amenity": "fast_food", "cuisine": "sandwich", "official_name": "Erbert & Gerbert's Sandwich Shop", "takeaway": "yes", "addr:full": "400 Reid St.", "addr:city": "De Pere", "addr:state": "WI", "addr:postcode": "54115", "name": "De Pere Reid St", "phone": "920-964-3727", "website": "https://www.erbertandgerberts.com/locations/de-pere-reid-st/", "brand": "Erbert & Gerbert's", "brand:wikidata": "Q5385097", "nsi_id": "erbertandgerberts-4d2ff4"}, "geometry": {"type": "Point", "coordinates": [-88.071983, 44.446865]}},
{"type": "Feature", "id": "inbXJf2qo7nchus4xJGHr48tHmA=", "properties": {"ref": "Duluth Grand Ave", "@spider": "erbertandgerberts", "amenity": "fast_food", "cuisine": "sandwich", "official_name": "Erbert & Gerbert's Sandwich Shop", "takeaway": "yes", "addr:full": "4504 Grand Ave.", "addr:city": "Duluth", "addr:state": "MN", "addr:postcode": "55807", "name": "Duluth Grand Ave", "phone": "218-628-0600", "website": "https://www.erbertandgerberts.com/locations/duluth-grand-ave/", "brand": "Erbert & Gerbert's", "brand:wikidata": "Q5385097", "nsi_id": "erbertandgerberts-4d2ff4"}, "geometry": {"type": "Point", "coordinates": [-92.157379, 46.746256]}},
{"type": "Feature", "id": "d4vkFfWDB4Myelc8HJ4tw5vS_p8=", "properties": {"ref": "Saint Peter", "@spider": "erbertandgerberts", "amenity": "fast_food", "cuisine": "sandwich", "official_name": "Erbert & Gerbert's Sandwich Shop", "takeaway": "yes", "addr:full": "224 S. Minnesota Ave.", "addr:city": "Saint Peter", "addr:state": "MN", "addr:postcode": "56082", "name": "Saint Peter", "phone": "507-934-2020", "website": "https://www.erbertandgerberts.com/locations/saint-peter/", "brand": "Erbert & Gerbert's", "brand:wikidata": "Q5385097", "nsi_id": "erbertandgerberts-4d2ff4"}, "geometry": {"type": "Point", "coordinates": [-93.957357, 44.324387]}},
{"type": "Feature", "id": "rwEOkTY8UODQvbXga93RueXokJM=", "properties": {"ref": "Appleton College Ave", "@spider": "erbertandgerberts", "amenity": "fast_food", "cuisine": "sandwich", "official_name": "Erbert & Gerbert's Sandwich Shop", "takeaway": "yes", "addr:full": "218 E. College Ave.", "addr:city": "Appleton", "addr:state": "WI", "addr:postcode": "54911", "name": "Appleton College Ave", "phone": "920-730-8701", "website": "https://www.erbertandgerberts.com/locations/appleton-college-ave/", "brand": "Erbert & Gerbert's", "brand:wikidata": "Q5385097", "nsi_id": "erbertandgerberts-4d2ff4"}, "geometry": {"type": "Point", "coordinates": [-88.403495, 44.26198]}},
{"type": "Feature", "id": "lXdzQMvrMNFaoLOo4ZXQgh0Mf94=", "properties": {"ref": "Green Bay Washington", "@spider": "erbertandgerberts", "amenity": "fast_food", "cuisine": "sandwich", "official_name": "Erbert & Gerbert's Sandwich Shop", "takeaway": "yes", "addr:full": "226 N. Washington St.", "addr:city": "Green Bay", "addr:state": "WI", "addr:postcode": "54301", "name": "Green Bay Washington", "phone": "920-435-7827", "website": "https://www.erbertandgerberts.com/locations/green-bay-washington/", "brand": "Erbert & Gerbert's", "brand:wikidata": "Q5385097", "nsi_id": "erbertandgerberts-4d2ff4"}, "geometry": {"type": "Point", "coordinates": [-88.01453, 44.515994]}},
{"type": "Feature", "id": "ggdZEmBr6ztdX6wgj1yMvQpIORk=", "properties": {"ref": "Oshkosh Wisconsin St", "@spider": "erbertandgerberts", "amenity": "fast_food", "cuisine": "sandwich", "official_name": "Erbert & Gerbert's Sandwich Shop", "takeaway": "yes", "addr:full": "240 Wisconsin St.", "addr:city": "Oshkosh", "addr:state": "WI", "addr:postcode": "54901", "name": "Oshkosh Wisconsin St", "phone": "920-231-2900", "website": "https://www.erbertandgerberts.com/locations/oshkosh-wisconsin-st/", "brand": "Erbert & Gerbert's", "brand:wikidata": "Q5385097", "nsi_id": "erbertandgerberts-4d2ff4"}, "geometry": {"type": "Point", "coordinates": [-88.547054, 44.021221]}},
{"type": "Feature", "id": "VjL4hCymdK8UV0EuuCNh2vCy4uI=", "properties": {"ref": "Stevens Point Main St", "@spider": "erbertandgerberts", "amenity": "fast_food", "cuisine": "sandwich", "official_name": "Erbert & Gerbert's Sandwich Shop", "takeaway": "yes", "addr:full": "812 Main St.", "addr:city": "Stevens Point", "addr:state": "WI", "addr:postcode": "54481", "name": "Stevens Point Main St", "phone": "715-341-7827", "website": "https://www.erbertandgerberts.com/locations/stevens-point-main-st/", "brand": "Erbert & Gerbert's", "brand:wikidata": "Q5385097", "nsi_id": "erbertandgerberts-4d2ff4"}, "geometry": {"type": "Point", "coordinates": [-89.586329, 44.523629]}},
{"type": "Feature", "id": "1paXbfZnvRVJhatY1Wz4t2ffk4U=", "properties": {"ref": "Duluth West 1st St", "@spider": "erbertandgerberts", "amenity": "fast_food", "cuisine": "sandwich", "official_name": "Erbert & Gerbert's Sandwich Shop", "takeaway": "yes", "addr:full": "234 W. 1st St.", "addr:city": "Duluth", "addr:state": "MN", "addr:postcode": "55802", "name": "Duluth West 1st St", "phone": "218-723-2330", "website": "https://www.erbertandgerberts.com/locations/duluth-west-1st-st/", "brand": "Erbert & Gerbert's", "brand:wikidata": "Q5385097", "nsi_id": "erbertandgerberts-4d2ff4"}, "geometry": {"type": "Point", "coordinates": [-92.102735, 46.784752]}},
{"type": "Feature", "id": "K_HCmkvja89AjMEvw6J5eU6rwNc=", "properties": {"ref": "Saint Cloud", "@spider": "erbertandgerberts", "amenity": "fast_food", "cuisine": "sandwich", "official_name": "Erbert & Gerbert's Sandwich Shop", "takeaway": "yes", "addr:full": "516 W. Saint Germain St.", "addr:city": "Saint Cloud", "addr:state": "MN", "addr:postcode": "56301", "name": "Saint Cloud", "phone": "320-253-9963", "website": "https://www.erbertandgerberts.com/locations/saint-cloud/", "brand": "Erbert & Gerbert's", "brand:wikidata": "Q5385097", "nsi_id": "erbertandgerberts-4d2ff4"}, "geometry": {"type": "Point", "coordinates": [-94.158683, 45.560692]}},
{"type": "Feature", "id": "S6CqEcfuwwSdXo-Pn7RVJEjOfXs=", "properties": {"ref": "Eau Claire Water St", "@spider": "erbertandgerberts", "amenity": "fast_food", "cuisine": "sandwich", "official_name": "Erbert & Gerbert's Sandwich Shop", "takeaway": "yes", "addr:full": "409 Water St.", "addr:city": "Eau Claire", "addr:state": "WI", "addr:postcode": "54703", "name": "Eau Claire Water St", "phone": "715-835-9995", "website": "https://www.erbertandgerberts.com/locations/eau-claire-water-st/", "brand": "Erbert & Gerbert's", "brand:wikidata": "Q5385097", "nsi_id": "erbertandgerberts-4d2ff4"}, "geometry": {"type": "Point", "coordinates": [-91.508345, 44.801903]}}]}